{"type": "FeatureCollection", "features": [{"type": "Feature", "geometry": {"type": "Polygon", "coordinates": [[[-97.567602, 35.5799647], [-97.5675998, 35.5797168], [-97.5674718, 35.5797176], [-97.567474, 35.5799655], [-97.567602, 35.5799647]]]}, "properties": {"osm_id": 370064370, "building": "yes", "name": "McDonald's", "height": null, "height_m": null, "levels": null, "tract_id": "40109108402", "tract_name": "1084.02", "tags": {"addr:city": "The Village", "addr:housenumber": "10809", "addr:postcode": "73120", "addr:state": "OK", "addr:street": "North May", "amenity": "fast_food", "brand": "McDonald's", "brand:wikidata": "Q38076", "building": "yes", "cuisine": "burger", "drive_through": "yes", "internet_access": "wlan", "name": "McDonald's", "opening_hours": "06:00-22:00", "phone": "+1 405-755-0442", "takeaway": "yes", "website": "https://www.mcdonalds.com/us/en-us/location/24632.html"}}}, {"type": "Feature", "geometry": {"type": "Polygon", "coordinates": [[[-97.5688012, 35.5797888], [-97.5691064, 35.5797885], [-97.5691121, 35.5797994], [-97.569123, 35.5798065], [-97.5691349, 35.5798096], [-97.5691481, 35.5798093], [-97.5691623, 35.5798041], [-97.5691713, 35.5797965], [-97.569176, 35.5797885], [-97.5693411, 35.5797883], [-97.5693409, 35.5796513], [-97.5688977, 35.5796518], [-97.5688976, 35.5795978], [-97.5691534, 35.5795975], [-97.5691532, 35.5794761], [-97.5687843, 35.5794762], [-97.5687242, 35.5794765], [-97.5687245, 35.5794843], [-97.5687224, 35.5794896], [-97.5687184, 35.5794928], [-97.5687136, 35.5794943], [-97.5687076, 35.5794943], [-97.5687079, 35.5795328], [-97.5687078, 35.5795826], [-97.5686991, 35.5795841], [-97.5686902, 35.5795875], [-97.5686832, 35.5795928], [-97.5686808, 35.5795982], [-97.568681, 35.5796101], [-97.5686232, 35.5796101], [-97.5686236, 35.5798785], [-97.5688013, 35.5798783], [-97.5688012, 35.5797888]]]}, "properties": {"osm_id": 464239385, "building": "yes", "name": "Our Lords Lutheran Church", "height": null, "height_m": null, "levels": null, "tract_id": "40109108402", "tract_name": "1084.02", "tags": {"amenity": "place_of_worship", "building": "yes", "denomination": "lutheran", "name": "Our Lords Lutheran Church", "religion": "christian"}}}, {"type": "Feature", "geometry": {"type": "Polygon", "coordinates": [[[-97.5680575, 35.5799001], [-97.5680592, 35.5797188], [-97.5678628, 35.5797144], [-97.5678646, 35.5798987], [-97.5679354, 35.5799001], [-97.5679354, 35.5799122], [-97.5679801, 35.5799131], [-97.5679811, 35.5799007], [-97.5680575, 35.5799001]]]}, "properties": {"osm_id": 464239401, "building": "retail", "name": "Boral Building Products", "height": null, "height_m": null, "levels": null, "tract_id": "40109108402", "tract_name": "1084.02", "tags": {"building": "retail", "name": "Boral Building Products"}}}, {"type": "Feature", "geometry": {"type": "Polygon", "coordinates": [[[-97.5758575, 35.5798694], [-97.5758564, 35.5797175], [-97.5760764, 35.5797175], [-97.5760759, 35.5797693], [-97.5760916, 35.5797688], [-97.576091, 35.5798186], [-97.5760735, 35.5798196], [-97.5760741, 35.5798718], [-97.5758575, 35.5798694]]]}, "properties": {"osm_id": 464453201, "building": "yes", "name": "Vantage Diagnostic Imaging", "height": null, "height_m": null, "levels": null, "tract_id": "40109108402", "tract_name": "1084.02", "tags": {"amenity": "clinic", "building": "yes", "healthcare": "clinic", "name": "Vantage Diagnostic Imaging"}}}, {"type": "Feature", "geometry": {"type": "Polygon", "coordinates": [[[-97.571025, 35.5797807], [-97.571025, 35.5794502], [-97.5709392, 35.5794469], [-97.5709365, 35.5795255], [-97.5706709, 35.5795189], [-97.5706683, 35.5795375], [-97.5706428, 35.5795375], [-97.5706441, 35.579616], [-97.5706642, 35.5796171], [-97.5706629, 35.5796378], [-97.5707005, 35.57964], [-97.5707018, 35.5797632], [-97.5707461, 35.5797632], [-97.5707461, 35.5797774], [-97.571025, 35.5797807]]]}, "properties": {"osm_id": 464453236, "building": "yes", "name": "Chabad Community Center", "height": null, "height_m": null, "levels": null, "tract_id": "40109108402", "tract_name": "1084.02", "tags": {"amenity": "place_of_worship", "building": "yes", "name": "Chabad Community Center"}}}, {"type": "Feature", "geometry": {"type": "Polygon", "coordinates": [[[-97.5757442, 35.5748625], [-97.5757348, 35.5747533], [-97.5758831, 35.5747448], [-97.5758808, 35.5746944], [-97.5756554, 35.5746992], [-97.5756461, 35.5746099], [-97.5759053, 35.5746023], [-97.5759111, 35.574741], [-97.575987, 35.5747372], [-97.575994, 35.5748502], [-97.5757442, 35.5748625]]]}, "properties": {"osm_id": 464453242, "building": "yes", "name": "Queen of Angles Chapel", "height": null, "height_m": null, "levels": null, "tract_id": "40109108402", "tract_name": "1084.02", "tags": {"amenity": "place_of_worship", "building": "yes", "name": "Queen of Angles Chapel", "religion": "christian"}}}, {"type": "Feature", "geometry": {"type": "Polygon", "coordinates": [[[-97.5675185, 35.5794779], [-97.5675062, 35.579206], [-97.5676541, 35.5792048], [-97.5676541, 35.5792323], [-97.5677388, 35.5792286], [-97.5677419, 35.5794729], [-97.5675185, 35.5794779]]]}, "properties": {"osm_id": 464455231, "building": "commercial", "name": "", "height": null, "height_m": null, "levels": null, "tract_id": "40109108402", "tract_name": "1084.02", "tags": {"building": "commercial"}}}, {"type": "Feature", "geometry": {"type": "Polygon", "coordinates": [[[-97.5674612, 35.5790893], [-97.5674627, 35.5788938], [-97.5677154, 35.5788913], [-97.5677185, 35.5790905], [-97.5674612, 35.5790893]]]}, "properties": {"osm_id": 464455233, "building": "commercial", "name": "Soccer USA", "height": null, "height_m": null, "levels": null, "tract_id": "40109108402", "tract_name": "1084.02", "tags": {"building": "commercial", "name": "Soccer USA"}}}, {"type": "Feature", "geometry": {"type": "Polygon", "coordinates": [[[-97.567472, 35.5787209], [-97.5674658, 35.5785455], [-97.5677108, 35.578548], [-97.5677123, 35.5787209], [-97.567472, 35.5787209]]]}, "properties": {"osm_id": 464455235, "building": "commercial", "name": "", "height": null, "height_m": null, "levels": null, "tract_id": "40109108402", "tract_name": "1084.02", "tags": {"building": "commercial"}}}, {"type": "Feature", "geometry": {"type": "Polygon", "coordinates": [[[-97.5676486, 35.5784431], [-97.5676487, 35.5781617], [-97.5678566, 35.5781617], [-97.5678566, 35.5783001], [-97.567831, 35.5783001], [-97.5678309, 35.5784431], [-97.5676486, 35.5784431]]]}, "properties": {"osm_id": 464455238, "building": "commercial", "name": "", "height": null, "height_m": null, "levels": null, "tract_id": "40109108402", "tract_name": "1084.02", "tags": {"building": "commercial"}}}, {"type": "Feature", "geometry": {"type": "Polygon", "coordinates": [[[-97.5677162, 35.5774772], [-97.567711, 35.5772126], [-97.5680139, 35.5772087], [-97.5680191, 35.5774733], [-97.5677162, 35.5774772]]]}, "properties": {"osm_id": 464455240, "building": "retail", "name": "Dollar General", "height": null, "height_m": null, "levels": null, "tract_id": "40109108402", "tract_name": "1084.02", "tags": {"addr:city": "Oklahoma City", "addr:housenumber": "10617", "addr:state": "OK", "addr:street": "North May Avenue", "brand": "Dollar General", "brand:wikidata": "Q145168", "building": "retail", "name": "Dollar General", "shop": "variety_store", "website": "https://www.dollargeneral.com/store-directory/ok/the-village/6945"}}}, {"type": "Feature", "geometry": {"type": "Polygon", "coordinates": [[[-97.5676973, 35.5780828], [-97.5676912, 35.5775257], [-97.5677623, 35.5775224], [-97.5679676, 35.5775455], [-97.5678823, 35.5780812], [-97.5676973, 35.5780828]]]}, "properties": {"osm_id": 464455241, "building": "commercial", "name": "", "height": null, "height_m": null, "levels": null, "tract_id": "40109108402", "tract_name": "1084.02", "tags": {"building": "commercial"}}}, {"type": "Feature", "geometry": {"type": "Polygon", "coordinates": [[[-97.5675245, 35.5769057], [-97.5675204, 35.5766841], [-97.5677562, 35.5766825], [-97.5677562, 35.5767304], [-97.5678457, 35.5767304], [-97.5678477, 35.5767966], [-97.5681465, 35.5767933], [-97.5681506, 35.5769024], [-97.5675245, 35.5769057]]]}, "properties": {"osm_id": 464455247, "building": "yes", "name": "", "height": null, "height_m": null, "levels": null, "tract_id": "40109108402", "tract_name": "1084.02", "tags": {"building": "yes"}}}, {"type": "Feature", "geometry": {"type": "Polygon", "coordinates": [[[-97.5679436, 35.5760338], [-97.5681957, 35.5760371], [-97.5680656, 35.5752948], [-97.5675696, 35.5752964], [-97.5675696, 35.5754965], [-97.5678501, 35.5755014], [-97.5679436, 35.5760338]]]}, "properties": {"osm_id": 464455248, "building": "commercial", "name": "", "height": null, "height_m": null, "levels": null, "tract_id": "40109108402", "tract_name": "1084.02", "tags": {"building": "commercial"}}}, {"type": "Feature", "geometry": {"type": "Polygon", "coordinates": [[[-97.5675635, 35.5765893], [-97.5675574, 35.5764091], [-97.5679782, 35.5764124], [-97.5679823, 35.5761214], [-97.5682099, 35.5761264], [-97.5682079, 35.5763611], [-97.568151, 35.5765876], [-97.5675635, 35.5765893]]]}, "properties": {"osm_id": 464455249, "building": "commercial", "name": "", "height": null, "height_m": null, "levels": null, "tract_id": "40109108402", "tract_name": "1084.02", "tags": {"building": "commercial"}}}, {"type": "Feature", "geometry": {"type": "Polygon", "coordinates": [[[-97.5676164, 35.5752515], [-97.5676143, 35.5751606], [-97.5678115, 35.5751606], [-97.5678095, 35.5750151], [-97.5680493, 35.5750134], [-97.5680514, 35.5752515], [-97.5676164, 35.5752515]]]}, "properties": {"osm_id": 464455250, "building": "commercial", "name": "Hope Pregnancy", "height": null, "height_m": null, "levels": null, "tract_id": "40109108402", "tract_name": "1084.02", "tags": {"building": "commercial", "name": "Hope Pregnancy"}}}, {"type": "Feature", "geometry": {"type": "Polygon", "coordinates": [[[-97.5677892, 35.574982], [-97.5677871, 35.5747489], [-97.5675818, 35.5747522], [-97.5675778, 35.5749837], [-97.5677892, 35.574982]]]}, "properties": {"osm_id": 464455251, "building": "yes", "name": "", "height": null, "height_m": null, "levels": null, "tract_id": "40109108402", "tract_name": "1084.02", "tags": {"building": "yes"}}}, {"type": "Feature", "geometry": {"type": "Polygon", "coordinates": [[[-97.5674724, 35.5743228], [-97.5674724, 35.5742091], [-97.5680546, 35.5742106], [-97.5680546, 35.5743214], [-97.5674724, 35.5743228]]]}, "properties": {"osm_id": 464455252, "building": "yes", "name": "", "height": null, "height_m": null, "levels": null, "tract_id": "40109108402", "tract_name": "1084.02", "tags": {"building": "yes"}}}, {"type": "Feature", "geometry": {"type": "Polygon", "coordinates": [[[-97.5675611, 35.5741624], [-97.567526, 35.5741263], [-97.567658, 35.5740475], [-97.5677397, 35.5741339], [-97.5676977, 35.5741605], [-97.567679, 35.5741406], [-97.567658, 35.5741529], [-97.5676475, 35.5741453], [-97.5676323, 35.5741615], [-97.5675611, 35.5741624]]]}, "properties": {"osm_id": 464455253, "building": "commercial", "name": "", "height": null, "height_m": null, "levels": null, "tract_id": "40109108402", "tract_name": "1084.02", "tags": {"building": "commercial"}}}, {"type": "Feature", "geometry": {"type": "Polygon", "coordinates": [[[-97.5678109, 35.5741102], [-97.5677012, 35.5740333], [-97.5679055, 35.5738386], [-97.568, 35.5739165], [-97.5679989, 35.5739374], [-97.5678109, 35.5741102]]]}, "properties": {"osm_id": 464455254, "building": "yes", "name": "", "height": null, "height_m": null, "levels": null, "tract_id": "40109108402", "tract_name": "1084.02", "tags": {"building": "yes"}}}, {"type": "Feature", "geometry": {"type": "Polygon", "coordinates": [[[-97.5680696, 35.5741005], [-97.5679848, 35.574093], [-97.5679694, 35.5741807], [-97.5680526, 35.5741894], [-97.5680696, 35.5741005]]]}, "properties": {"osm_id": 464455255, "building": "commercial", "name": "", "height": null, "height_m": null, "levels": null, "tract_id": "40109108402", "tract_name": "1084.02", "tags": {"building": "commercial"}}}, {"type": "Feature", "geometry": {"type": "Polygon", "coordinates": [[[-97.5673941, 35.5738878], [-97.567392, 35.5737935], [-97.5675729, 35.5737919], [-97.5675729, 35.5738861], [-97.5673941, 35.5738878]]]}, "properties": {"osm_id": 464455269, "building": "yes", "name": "", "height": null, "height_m": null, "levels": null, "tract_id": "40109108402", "tract_name": "1084.02", "tags": {"building": "yes"}}}, {"type": "Feature", "geometry": {"type": "Polygon", "coordinates": [[[-97.5676055, 35.5735191], [-97.5675953, 35.5729784], [-97.5678453, 35.5729735], [-97.5678494, 35.5732033], [-97.567827, 35.5732033], [-97.567823, 35.5735174], [-97.5676055, 35.5735191]]]}, "properties": {"osm_id": 464455273, "building": "commercial", "name": "Sun & Ski Sports", "height": null, "height_m": null, "levels": null, "tract_id": "40109108402", "tract_name": "1084.02", "tags": {"building": "commercial", "name": "Sun & Ski Sports"}}}, {"type": "Feature", "geometry": {"type": "Polygon", "coordinates": [[[-97.5680035, 35.5734365], [-97.5680035, 35.5732609], [-97.5681349, 35.5732619], [-97.5681323, 35.5734027], [-97.5680867, 35.5734027], [-97.5680867, 35.5734223], [-97.5680585, 35.5734234], [-97.5680585, 35.5734376], [-97.5680035, 35.5734365]]]}, "properties": {"osm_id": 464455274, "building": "yes", "name": "", "height": null, "height_m": null, "levels": null, "tract_id": "40109108402", "tract_name": "1084.02", "tags": {"building": "yes", "office": "yes"}}}, {"type": "Feature", "geometry": {"type": "Polygon", "coordinates": [[[-97.568043, 35.5732446], [-97.5680377, 35.573051], [-97.5681801, 35.5730453], [-97.5681828, 35.5731244], [-97.5681306, 35.5731266], [-97.5681306, 35.5731395], [-97.568112, 35.573141], [-97.5681156, 35.5732453], [-97.568043, 35.5732446]]]}, "properties": {"osm_id": 464455275, "building": "yes", "name": "", "height": null, "height_m": null, "levels": null, "tract_id": "40109108402", "tract_name": "1084.02", "tags": {"building": "yes", "office": "yes"}}}, {"type": "Feature", "geometry": {"type": "Polygon", "coordinates": [[[-97.5693956, 35.5662167], [-97.5693906, 35.5658784], [-97.5696079, 35.5658763], [-97.5696072, 35.5658299], [-97.5696923, 35.5658291], [-97.569693, 35.5658766], [-97.5698179, 35.5658753], [-97.5698229, 35.5662126], [-97.5693956, 35.5662167]]]}, "properties": {"osm_id": 466837300, "building": "commercial", "name": "Oklahoma City Mason Lodge #36", "height": null, "height_m": null, "levels": null, "tract_id": "40109108402", "tract_name": "1084.02", "tags": {"addr:city": "Oklahoma City", "addr:housenumber": "2935", "addr:postcode": "73120-4433", "addr:state": "OK", "addr:street": "West Britton Road", "amenity": "social_centre", "building": "commercial", "email": "secretaryokclodge36@gmail.com", "name": "Oklahoma City Mason Lodge #36", "phone": "+1 405 755 0036", "ref": "36", "website": "https://ok.grandview.systems/public_lodges/lodge/2263"}}}, {"type": "Feature", "geometry": {"type": "Polygon", "coordinates": [[[-97.5692386, 35.5661132], [-97.569239, 35.5658923], [-97.5690197, 35.5658921], [-97.5690193, 35.566113], [-97.5692386, 35.5661132]]]}, "properties": {"osm_id": 466837301, "building": "retail", "name": "Mamaveca", "height": null, "height_m": null, "levels": null, "tract_id": "40109108402", "tract_name": "1084.02", "tags": {"addr:city": "Oklahoma City", "addr:country": "US", "addr:housenumber": "2925", "addr:state": "OK", "addr:street": "West Britton Road", "amenity": "restaurant", "building": "retail", "cuisine": "mexican", "name": "Mamaveca", "opening_hours": "Mo-Su 11:00-21:00; Fr,Sa 11:00-22:00", "phone": "+1-405-286-5535"}}}, {"type": "Feature", "geometry": {"type": "Polygon", "coordinates": [[[-97.5675679, 35.5662154], [-97.5675679, 35.565899], [-97.5677637, 35.565899], [-97.5677745, 35.5662176], [-97.5675679, 35.5662154]]]}, "properties": {"osm_id": 466837302, "building": "commercial", "name": "", "height": null, "height_m": null, "levels": null, "tract_id": "40109108402", "tract_name": "1084.02", "tags": {"building": "commercial"}}}, {"type": "Feature", "geometry": {"type": "Polygon", "coordinates": [[[-97.5675337, 35.5681503], [-97.5675681, 35.5681499], [-97.5675634, 35.5678885], [-97.5679064, 35.5678844], [-97.5679055, 35.5678374], [-97.5680812, 35.5678353], [-97.5680817, 35.5678639], [-97.5683839, 35.5678603], [-97.5683849, 35.5679192], [-97.5686765, 35.5679157], [-97.5686839, 35.5683213], [-97.5678246, 35.5683316], [-97.567826, 35.5684069], [-97.5677265, 35.5684081], [-97.5677281, 35.5684981], [-97.5675401, 35.5685004], [-97.5675337, 35.5681503]]]}, "properties": {"osm_id": 466837307, "building": "yes", "name": "Uptown Market", "height": null, "height_m": null, "levels": null, "tract_id": "40109108402", "tract_name": "1084.02", "tags": {"addr:city": "Oklahoma City", "addr:housenumber": "9515", "addr:state": "OK", "addr:street": "North May Avenue", "building": "yes", "name": "Uptown Market", "shop": "supermarket"}}}, {"type": "Feature", "geometry": {"type": "Polygon", "coordinates": [[[-97.5674411, 35.569073], [-97.5674406, 35.5688609], [-97.56755, 35.5688607], [-97.5675498, 35.568807], [-97.5675496, 35.5687145], [-97.5676408, 35.5687143], [-97.567641, 35.5688065], [-97.5676412, 35.5688599], [-97.5677949, 35.5688596], [-97.5677951, 35.5689271], [-97.5678368, 35.5689271], [-97.5678367, 35.5688568], [-97.568092, 35.5688563], [-97.5680926, 35.5690738], [-97.5678394, 35.5690743], [-97.567839, 35.5689509], [-97.5677981, 35.5689509], [-97.5677984, 35.5690723], [-97.5674411, 35.569073]]]}, "properties": {"osm_id": 466837320, "building": "yes", "name": "First Liberty Bank", "height": null, "height_m": null, "levels": null, "tract_id": "40109108402", "tract_name": "1084.02", "tags": {"amenity": "bank", "building": "yes", "name": "First Liberty Bank"}}}, {"type": "Feature", "geometry": {"type": "Polygon", "coordinates": [[[-97.5677991, 35.5665181], [-97.5678105, 35.5671327], [-97.568641, 35.5671288], [-97.5686442, 35.5668904], [-97.5686481, 35.5665883], [-97.5686491, 35.5665129], [-97.5677991, 35.5665181]]]}, "properties": {"osm_id": 720792752, "building": "retail", "name": "", "height": null, "height_m": null, "levels": null, "tract_id": "40109108402", "tract_name": "1084.02", "tags": {"building": "retail"}}}, {"type": "Feature", "geometry": {"type": "Polygon", "coordinates": [[[-97.5686481, 35.5665883], [-97.5690106, 35.5665857], [-97.5690123, 35.5666824], [-97.5690416, 35.5666996], [-97.5690448, 35.5668904], [-97.5686442, 35.5668904], [-97.5686481, 35.5665883]]]}, "properties": {"osm_id": 720792753, "building": "retail", "name": "", "height": null, "height_m": null, "levels": null, "tract_id": "40109108402", "tract_name": "1084.02", "tags": {"building": "retail"}}}, {"type": "Feature", "geometry": {"type": "Polygon", "coordinates": [[[-97.5690106, 35.5665857], [-97.5690106, 35.5662108], [-97.5692468, 35.5662095], [-97.5692435, 35.5666996], [-97.5690416, 35.5666996], [-97.5690123, 35.5666824], [-97.5690106, 35.5665857]]]}, "properties": {"osm_id": 720792754, "building": "retail", "name": "", "height": null, "height_m": null, "levels": null, "tract_id": "40109108402", "tract_name": "1084.02", "tags": {"building": "retail"}}}, {"type": "Feature", "geometry": {"type": "Polygon", "coordinates": [[[-97.575828, 35.5761874], [-97.5758235, 35.5759995], [-97.5756821, 35.5760017], [-97.5756806, 35.5759391], [-97.5755637, 35.575941], [-97.575569, 35.5761616], [-97.5755904, 35.5761612], [-97.57559, 35.5761473], [-97.5756592, 35.5761462], [-97.5756596, 35.5761639], [-97.575742, 35.5761626], [-97.5757427, 35.5761887], [-97.575828, 35.5761874]]]}, "properties": {"osm_id": 978376117, "building": "yes", "name": "", "height": null, "height_m": null, "levels": null, "tract_id": "40109108402", "tract_name": "1084.02", "tags": {"building": "yes"}}}, {"type": "Feature", "geometry": {"type": "Polygon", "coordinates": [[[-97.575955, 35.5756643], [-97.5758587, 35.5756652], [-97.575859, 35.5756861], [-97.5757559, 35.575687], [-97.5757557, 35.5756697], [-97.5757329, 35.5756699], [-97.5756274, 35.5757172], [-97.5755844, 35.5756975], [-97.5755773, 35.5756699], [-97.5755862, 35.5756335], [-97.5757274, 35.5755921], [-97.5757097, 35.5755521], [-97.5757226, 35.5755484], [-97.5757023, 35.5755026], [-97.5756811, 35.5755012], [-97.5757478, 35.5754021], [-97.5758829, 35.5754009], [-97.5758842, 35.5754969], [-97.5759528, 35.5754963], [-97.575955, 35.5756643]]]}, "properties": {"osm_id": 978376118, "building": "yes", "name": "", "height": null, "height_m": null, "levels": null, "tract_id": "40109108402", "tract_name": "1084.02", "tags": {"building": "yes"}}}, {"type": "Feature", "geometry": {"type": "Polygon", "coordinates": [[[-97.5753146, 35.5756697], [-97.5752451, 35.5756706], [-97.5752455, 35.5756898], [-97.5751591, 35.575691], [-97.5751589, 35.5756795], [-97.5751235, 35.57568], [-97.5751232, 35.575665], [-97.5750823, 35.5756655], [-97.5750816, 35.5756319], [-97.575038, 35.5756325], [-97.5750366, 35.5755621], [-97.5750551, 35.5755619], [-97.5750544, 35.5755276], [-97.575039, 35.5755278], [-97.5750375, 35.575459], [-97.5750815, 35.5754584], [-97.5750802, 35.5753971], [-97.5753115, 35.5753938], [-97.575314, 35.5755074], [-97.5752923, 35.5755077], [-97.5752941, 35.5755945], [-97.575313, 35.5755942], [-97.5753146, 35.5756697]]]}, "properties": {"osm_id": 978376119, "building": "yes", "name": "", "height": null, "height_m": null, "levels": null, "tract_id": "40109108402", "tract_name": "1084.02", "tags": {"building": "yes"}}}, {"type": "Feature", "geometry": {"type": "Polygon", "coordinates": [[[-97.567711, 35.5700506], [-97.5677097, 35.5702018], [-97.5677022, 35.5702017], [-97.5677013, 35.5702723], [-97.5678725, 35.5702737], [-97.5678993, 35.570253], [-97.5678998, 35.5702144], [-97.5679149, 35.5702145], [-97.5679174, 35.5700665], [-97.5678966, 35.5700517], [-97.567711, 35.5700506]]]}, "properties": {"osm_id": 1270434816, "building": "commercial", "name": "", "height": null, "height_m": null, "levels": null, "tract_id": "40109108402", "tract_name": "1084.02", "tags": {"building": "commercial"}}}, {"type": "Feature", "geometry": {"type": "Polygon", "coordinates": [[[-97.567396, 35.5722949], [-97.5673969, 35.5724214], [-97.5675974, 35.5724205], [-97.5675965, 35.572294], [-97.567396, 35.5722949]]]}, "properties": {"osm_id": 1270434819, "building": "yes", "name": "Carefree Dental", "height": null, "height_m": null, "levels": null, "tract_id": "40109108402", "tract_name": "1084.02", "tags": {"addr:city": "Oklahoma City", "addr:housenumber": "10001", "addr:postcode": "73120", "addr:state": "OK", "addr:street": "North May Avenue", "amenity": "dentist", "building": "yes", "healthcare": "dentist", "name": "Carefree Dental"}}}, {"type": "Feature", "geometry": {"type": "Polygon", "coordinates": [[[-97.567626, 35.5724555], [-97.5676276, 35.5725792], [-97.5673976, 35.5725812], [-97.567396, 35.5724574], [-97.567626, 35.5724555]]]}, "properties": {"osm_id": 1270434820, "building": "yes", "name": "Legacy Financial Advisors", "height": null, "height_m": null, "levels": null, "tract_id": "40109108402", "tract_name": "1084.02", "tags": {"addr:city": "Oklahoma City", "addr:housenumber": "10003", "addr:postcode": "73120", "addr:state": "OK", "addr:street": "North May Avenue", "building": "yes", "name": "Legacy Financial Advisors", "office": "financial_advisor"}}}, {"type": "Feature", "geometry": {"type": "Polygon", "coordinates": [[[-97.5712534, 35.5798506], [-97.5712547, 35.5800229], [-97.571441, 35.580022], [-97.5714402, 35.5799173], [-97.5714321, 35.5799173], [-97.5714316, 35.5798497], [-97.5712534, 35.5798506]]]}, "properties": {"osm_id": 1435967821, "building": "yes", "name": "", "height": null, "height_m": null, "levels": null, "tract_id": "40109108402", "tract_name": "1084.02", "tags": {"building": "yes", "source": "microsoft/BuildingFootprints"}}}, {"type": "Feature", "geometry": {"type": "Polygon", "coordinates": [[[-97.5718566, 35.5798482], [-97.5716783, 35.5798486], [-97.571679, 35.580021], [-97.5718572, 35.5800205], [-97.5718566, 35.5798482]]]}, "properties": {"osm_id": 1435967822, "building": "yes", "name": "", "height": null, "height_m": null, "levels": null, "tract_id": "40109108402", "tract_name": "1084.02", "tags": {"building": "yes", "source": "microsoft/BuildingFootprints"}}}, {"type": "Feature", "geometry": {"type": "Polygon", "coordinates": [[[-97.5714413, 35.5776082], [-97.5712106, 35.577607], [-97.5712096, 35.5777366], [-97.5712659, 35.5777369], [-97.571266, 35.5777216], [-97.5713277, 35.577722], [-97.5713276, 35.5777394], [-97.5714778, 35.5777402], [-97.5714785, 35.5776498], [-97.571441, 35.5776497], [-97.5714413, 35.5776082]]]}, "properties": {"osm_id": 1435967829, "building": "yes", "name": "", "height": null, "height_m": null, "levels": null, "tract_id": "40109108402", "tract_name": "1084.02", "tags": {"building": "yes", "source": "microsoft/BuildingFootprints"}}}, {"type": "Feature", "geometry": {"type": "Polygon", "coordinates": [[[-97.5714583, 35.5777641], [-97.5712615, 35.5777627], [-97.5712597, 35.5779228], [-97.571485, 35.5779244], [-97.571486, 35.5778297], [-97.5714576, 35.5778295], [-97.5714583, 35.5777641]]]}, "properties": {"osm_id": 1435967830, "building": "yes", "name": "", "height": null, "height_m": null, "levels": null, "tract_id": "40109108402", "tract_name": "1084.02", "tags": {"building": "yes", "source": "microsoft/BuildingFootprints"}}}, {"type": "Feature", "geometry": {"type": "Polygon", "coordinates": [[[-97.5714988, 35.5780984], [-97.5714978, 35.5780012], [-97.5714361, 35.5780016], [-97.5714355, 35.5779471], [-97.5712558, 35.5779483], [-97.5712574, 35.5781001], [-97.5714988, 35.5780984]]]}, "properties": {"osm_id": 1435967831, "building": "yes", "name": "", "height": null, "height_m": null, "levels": null, "tract_id": "40109108402", "tract_name": "1084.02", "tags": {"building": "yes", "source": "microsoft/BuildingFootprints"}}}, {"type": "Feature", "geometry": {"type": "Polygon", "coordinates": [[[-97.5712771, 35.578134], [-97.5712801, 35.5782342], [-97.5713723, 35.5782324], [-97.5713735, 35.5782716], [-97.5714191, 35.5782707], [-97.5714199, 35.5782969], [-97.571511, 35.578295], [-97.5715077, 35.5781838], [-97.5714969, 35.5781841], [-97.5714953, 35.5781296], [-97.5712771, 35.578134]]]}, "properties": {"osm_id": 1435967832, "building": "yes", "name": "", "height": null, "height_m": null, "levels": null, "tract_id": "40109108402", "tract_name": "1084.02", "tags": {"building": "yes", "source": "microsoft/BuildingFootprints"}}}, {"type": "Feature", "geometry": {"type": "Polygon", "coordinates": [[[-97.5719331, 35.5776019], [-97.5717561, 35.5776054], [-97.57176, 35.5777362], [-97.5720254, 35.577731], [-97.5720233, 35.5776591], [-97.5719348, 35.5776608], [-97.5719331, 35.5776019]]]}, "properties": {"osm_id": 1435967833, "building": "yes", "name": "", "height": null, "height_m": null, "levels": null, "tract_id": "40109108402", "tract_name": "1084.02", "tags": {"building": "yes", "source": "microsoft/BuildingFootprints"}}}, {"type": "Feature", "geometry": {"type": "Polygon", "coordinates": [[[-97.5717662, 35.5779214], [-97.5720532, 35.5779239], [-97.5720547, 35.5778026], [-97.572036, 35.5778025], [-97.5720364, 35.5777666], [-97.5718772, 35.5777653], [-97.5718761, 35.5778491], [-97.5717672, 35.5778482], [-97.5717662, 35.5779214]]]}, "properties": {"osm_id": 1435967834, "building": "yes", "name": "", "height": null, "height_m": null, "levels": null, "tract_id": "40109108402", "tract_name": "1084.02", "tags": {"building": "yes", "source": "microsoft/BuildingFootprints"}}}, {"type": "Feature", "geometry": {"type": "Polygon", "coordinates": [[[-97.5717749, 35.5780983], [-97.5720216, 35.5780954], [-97.5720203, 35.57802], [-97.5720004, 35.5780202], [-97.5719991, 35.5779452], [-97.5717722, 35.5779478], [-97.5717749, 35.5780983]]]}, "properties": {"osm_id": 1435967835, "building": "yes", "name": "", "height": null, "height_m": null, "levels": null, "tract_id": "40109108402", "tract_name": "1084.02", "tags": {"building": "yes", "source": "microsoft/BuildingFootprints"}}}, {"type": "Feature", "geometry": {"type": "Polygon", "coordinates": [[[-97.571914, 35.5781295], [-97.5719122, 35.5781971], [-97.5719525, 35.5781978], [-97.5719482, 35.5783583], [-97.5720286, 35.5783597], [-97.5720331, 35.5781896], [-97.5720948, 35.5781907], [-97.5720963, 35.5781327], [-97.571914, 35.5781295]]]}, "properties": {"osm_id": 1435967836, "building": "yes", "name": "", "height": null, "height_m": null, "levels": null, "tract_id": "40109108402", "tract_name": "1084.02", "tags": {"building": "yes", "source": "microsoft/BuildingFootprints"}}}, {"type": "Feature", "geometry": {"type": "Polygon", "coordinates": [[[-97.5723104, 35.5778906], [-97.5721811, 35.577676], [-97.5720751, 35.5777183], [-97.5721377, 35.577822], [-97.5720844, 35.5778433], [-97.5721799, 35.5780015], [-97.5722793, 35.5779619], [-97.5722507, 35.5779144], [-97.5723104, 35.5778906]]]}, "properties": {"osm_id": 1435967837, "building": "yes", "name": "", "height": null, "height_m": null, "levels": null, "tract_id": "40109108402", "tract_name": "1084.02", "tags": {"building": "yes", "source": "microsoft/BuildingFootprints"}}}, {"type": "Feature", "geometry": {"type": "Polygon", "coordinates": [[[-97.5714294, 35.5786414], [-97.5713961, 35.5785326], [-97.5712597, 35.5785602], [-97.5712931, 35.5786691], [-97.5714294, 35.5786414]]]}, "properties": {"osm_id": 1435967838, "building": "yes", "name": "", "height": null, "height_m": null, "levels": null, "tract_id": "40109108402", "tract_name": "1084.02", "tags": {"building": "yes", "source": "microsoft/BuildingFootprints"}}}, {"type": "Feature", "geometry": {"type": "Polygon", "coordinates": [[[-97.5708891, 35.5779365], [-97.5711304, 35.5779327], [-97.5711265, 35.5777713], [-97.5710085, 35.5777732], [-97.5710096, 35.5778168], [-97.5708862, 35.5778188], [-97.5708891, 35.5779365]]]}, "properties": {"osm_id": 1435967839, "building": "yes", "name": "", "height": null, "height_m": null, "levels": null, "tract_id": "40109108402", "tract_name": "1084.02", "tags": {"building": "yes", "source": "microsoft/BuildingFootprints"}}}, {"type": "Feature", "geometry": {"type": "Polygon", "coordinates": [[[-97.5707237, 35.5777589], [-97.5707095, 35.5776555], [-97.5706168, 35.5776639], [-97.5706203, 35.5776898], [-97.5704518, 35.5777051], [-97.5704624, 35.5777826], [-97.5707237, 35.5777589]]]}, "properties": {"osm_id": 1435967840, "building": "yes", "name": "", "height": null, "height_m": null, "levels": null, "tract_id": "40109108402", "tract_name": "1084.02", "tags": {"building": "yes", "source": "microsoft/BuildingFootprints"}}}, {"type": "Feature", "geometry": {"type": "Polygon", "coordinates": [[[-97.5706245, 35.5778344], [-97.5704666, 35.5778284], [-97.5704607, 35.5779293], [-97.5704286, 35.5779281], [-97.570425, 35.577989], [-97.5706151, 35.5779963], [-97.5706245, 35.5778344]]]}, "properties": {"osm_id": 1435967841, "building": "yes", "name": "", "height": null, "height_m": null, "levels": null, "tract_id": "40109108402", "tract_name": "1084.02", "tags": {"building": "yes", "source": "microsoft/BuildingFootprints"}}}, {"type": "Feature", "geometry": {"type": "Polygon", "coordinates": [[[-97.5706092, 35.5782079], [-97.5706132, 35.5780269], [-97.5704228, 35.5780241], [-97.570421, 35.5781083], [-97.5704961, 35.5781094], [-97.5704939, 35.5782062], [-97.5706092, 35.5782079]]]}, "properties": {"osm_id": 1435967842, "building": "yes", "name": "", "height": null, "height_m": null, "levels": null, "tract_id": "40109108402", "tract_name": "1084.02", "tags": {"building": "yes", "source": "microsoft/BuildingFootprints"}}}, {"type": "Feature", "geometry": {"type": "Polygon", "coordinates": [[[-97.570601, 35.578236], [-97.5704288, 35.5782436], [-97.5704335, 35.5783154], [-97.570357, 35.5783187], [-97.5703621, 35.5783948], [-97.5706376, 35.5783828], [-97.5706322, 35.5783015], [-97.5706054, 35.5783026], [-97.570601, 35.578236]]]}, "properties": {"osm_id": 1435967843, "building": "yes", "name": "", "height": null, "height_m": null, "levels": null, "tract_id": "40109108402", "tract_name": "1084.02", "tags": {"building": "yes", "source": "microsoft/BuildingFootprints"}}}, {"type": "Feature", "geometry": {"type": "Polygon", "coordinates": [[[-97.5705903, 35.5785507], [-97.5705832, 35.5785168], [-97.5706207, 35.5785116], [-97.5706049, 35.5784366], [-97.5705622, 35.5784426], [-97.5705543, 35.5784052], [-97.5703704, 35.5784308], [-97.5704012, 35.5785771], [-97.5705903, 35.5785507]]]}, "properties": {"osm_id": 1435967844, "building": "yes", "name": "", "height": null, "height_m": null, "levels": null, "tract_id": "40109108402", "tract_name": "1084.02", "tags": {"building": "yes", "source": "microsoft/BuildingFootprints"}}}, {"type": "Feature", "geometry": {"type": "Polygon", "coordinates": [[[-97.5706225, 35.5786509], [-97.5706516, 35.5787397], [-97.5706241, 35.5787457], [-97.570657, 35.5788463], [-97.5708398, 35.5788066], [-97.5708262, 35.5787651], [-97.5708438, 35.5787613], [-97.5707953, 35.5786134], [-97.5706225, 35.5786509]]]}, "properties": {"osm_id": 1435967845, "building": "yes", "name": "", "height": null, "height_m": null, "levels": null, "tract_id": "40109108402", "tract_name": "1084.02", "tags": {"building": "yes", "source": "microsoft/BuildingFootprints"}}}, {"type": "Feature", "geometry": {"type": "Polygon", "coordinates": [[[-97.5707941, 35.5789068], [-97.5708503, 35.5790191], [-97.5709078, 35.5790001], [-97.5709396, 35.5790637], [-97.5710143, 35.5790391], [-97.5709852, 35.578981], [-97.571028, 35.5789669], [-97.5709821, 35.5788752], [-97.5709453, 35.5788873], [-97.5709322, 35.5788611], [-97.5707941, 35.5789068]]]}, "properties": {"osm_id": 1435967846, "building": "yes", "name": "", "height": null, "height_m": null, "levels": null, "tract_id": "40109108402", "tract_name": "1084.02", "tags": {"building": "yes", "source": "microsoft/BuildingFootprints"}}}, {"type": "Feature", "geometry": {"type": "Polygon", "coordinates": [[[-97.5740762, 35.5797398], [-97.5739517, 35.5797377], [-97.5739487, 35.5798511], [-97.5738844, 35.57985], [-97.5738848, 35.5798337], [-97.5737815, 35.5798319], [-97.573778, 35.5799671], [-97.5740702, 35.5799721], [-97.5740762, 35.5797398]]]}, "properties": {"osm_id": 1435967847, "building": "yes", "name": "", "height": null, "height_m": null, "levels": null, "tract_id": "40109108402", "tract_name": "1084.02", "tags": {"building": "yes", "source": "microsoft/BuildingFootprints"}}}, {"type": "Feature", "geometry": {"type": "Polygon", "coordinates": [[[-97.5677073, 35.5769286], [-97.5674498, 35.5769305], [-97.5674511, 35.5770452], [-97.5677086, 35.5770433], [-97.5677073, 35.5769286]]]}, "properties": {"osm_id": 1435967848, "building": "yes", "name": "", "height": null, "height_m": null, "levels": null, "tract_id": "40109108402", "tract_name": "1084.02", "tags": {"building": "yes", "source": "microsoft/BuildingFootprints"}}}, {"type": "Feature", "geometry": {"type": "Polygon", "coordinates": [[[-97.5681006, 35.576937], [-97.5679406, 35.5769363], [-97.5679391, 35.5771618], [-97.5680991, 35.5771625], [-97.5680994, 35.577108], [-97.5681236, 35.5771081], [-97.568124, 35.5770505], [-97.5680998, 35.5770504], [-97.5681006, 35.576937]]]}, "properties": {"osm_id": 1435967849, "building": "yes", "name": "", "height": null, "height_m": null, "levels": null, "tract_id": "40109108402", "tract_name": "1084.02", "tags": {"building": "yes", "source": "microsoft/BuildingFootprints"}}}, {"type": "Feature", "geometry": {"type": "Polygon", "coordinates": [[[-97.5686079, 35.5776755], [-97.5684777, 35.5776535], [-97.5684112, 35.5779141], [-97.5685115, 35.577931], [-97.5685606, 35.5777386], [-97.5685905, 35.5777437], [-97.5686079, 35.5776755]]]}, "properties": {"osm_id": 1435967850, "building": "yes", "name": "", "height": null, "height_m": null, "levels": null, "tract_id": "40109108402", "tract_name": "1084.02", "tags": {"building": "yes", "source": "microsoft/BuildingFootprints"}}}, {"type": "Feature", "geometry": {"type": "Polygon", "coordinates": [[[-97.5683732, 35.5781062], [-97.5685262, 35.5781184], [-97.568535, 35.5780449], [-97.5685218, 35.5780439], [-97.5685304, 35.5779718], [-97.5683907, 35.5779606], [-97.5683732, 35.5781062]]]}, "properties": {"osm_id": 1435967851, "building": "yes", "name": "", "height": null, "height_m": null, "levels": null, "tract_id": "40109108402", "tract_name": "1084.02", "tags": {"building": "yes", "source": "microsoft/BuildingFootprints"}}}, {"type": "Feature", "geometry": {"type": "Polygon", "coordinates": [[[-97.5683763, 35.5782057], [-97.5682742, 35.578198], [-97.568266, 35.5782703], [-97.5685011, 35.5782879], [-97.5685139, 35.5781755], [-97.5683809, 35.5781655], [-97.5683763, 35.5782057]]]}, "properties": {"osm_id": 1435967852, "building": "yes", "name": "", "height": null, "height_m": null, "levels": null, "tract_id": "40109108402", "tract_name": "1084.02", "tags": {"building": "yes", "source": "microsoft/BuildingFootprints"}}}, {"type": "Feature", "geometry": {"type": "Polygon", "coordinates": [[[-97.5685223, 35.5784061], [-97.568326, 35.5783971], [-97.5683206, 35.5784754], [-97.5683885, 35.5784785], [-97.5683849, 35.5785321], [-97.5684143, 35.5785334], [-97.5684097, 35.5785995], [-97.5685594, 35.5786063], [-97.568565, 35.5785259], [-97.5685142, 35.5785235], [-97.5685223, 35.5784061]]]}, "properties": {"osm_id": 1435967853, "building": "yes", "name": "", "height": null, "height_m": null, "levels": null, "tract_id": "40109108402", "tract_name": "1084.02", "tags": {"building": "yes", "source": "microsoft/BuildingFootprints"}}}, {"type": "Feature", "geometry": {"type": "Polygon", "coordinates": [[[-97.5683457, 35.5786963], [-97.5683313, 35.5788033], [-97.5683074, 35.5788011], [-97.5683024, 35.5788386], [-97.5683527, 35.5788431], [-97.5683443, 35.5789056], [-97.5684609, 35.578916], [-97.5684752, 35.5788104], [-97.5685176, 35.5788142], [-97.5685313, 35.5787129], [-97.5683457, 35.5786963]]]}, "properties": {"osm_id": 1435967854, "building": "yes", "name": "", "height": null, "height_m": null, "levels": null, "tract_id": "40109108402", "tract_name": "1084.02", "tags": {"building": "yes", "source": "microsoft/BuildingFootprints"}}}, {"type": "Feature", "geometry": {"type": "Polygon", "coordinates": [[[-97.5684147, 35.5790095], [-97.5682999, 35.5789802], [-97.5681999, 35.5792391], [-97.5683366, 35.579274], [-97.5683911, 35.5791331], [-97.5683691, 35.5791274], [-97.5684147, 35.5790095]]]}, "properties": {"osm_id": 1435967855, "building": "yes", "name": "", "height": null, "height_m": null, "levels": null, "tract_id": "40109108402", "tract_name": "1084.02", "tags": {"building": "yes", "source": "microsoft/BuildingFootprints"}}}, {"type": "Feature", "geometry": {"type": "Polygon", "coordinates": [[[-97.5679985, 35.5793438], [-97.567996, 35.5794755], [-97.5680883, 35.5794767], [-97.5680873, 35.5795291], [-97.5682026, 35.5795306], [-97.568205, 35.5794062], [-97.5681728, 35.5794058], [-97.568174, 35.5793461], [-97.5679985, 35.5793438]]]}, "properties": {"osm_id": 1435967856, "building": "yes", "name": "", "height": null, "height_m": null, "levels": null, "tract_id": "40109108402", "tract_name": "1084.02", "tags": {"building": "yes", "source": "microsoft/BuildingFootprints"}}}, {"type": "Feature", "geometry": {"type": "Polygon", "coordinates": [[[-97.5688655, 35.5773489], [-97.5687407, 35.5772753], [-97.5686777, 35.5773459], [-97.5686971, 35.5773573], [-97.5686364, 35.5774255], [-97.5687595, 35.577498], [-97.5688113, 35.5774399], [-97.5687937, 35.5774295], [-97.5688655, 35.5773489]]]}, "properties": {"osm_id": 1435967857, "building": "yes", "name": "", "height": null, "height_m": null, "levels": null, "tract_id": "40109108402", "tract_name": "1084.02", "tags": {"building": "yes", "source": "microsoft/BuildingFootprints"}}}, {"type": "Feature", "geometry": {"type": "Polygon", "coordinates": [[[-97.5686856, 35.5772544], [-97.5685737, 35.5771118], [-97.5685153, 35.5771421], [-97.5685007, 35.5771235], [-97.5684207, 35.577165], [-97.5684932, 35.5772574], [-97.5684296, 35.5772904], [-97.5684836, 35.5773592], [-97.5686856, 35.5772544]]]}, "properties": {"osm_id": 1435967858, "building": "yes", "name": "", "height": null, "height_m": null, "levels": null, "tract_id": "40109108402", "tract_name": "1084.02", "tags": {"building": "yes", "source": "microsoft/BuildingFootprints"}}}, {"type": "Feature", "geometry": {"type": "Polygon", "coordinates": [[[-97.5685847, 35.5770622], [-97.5685645, 35.5769919], [-97.5685137, 35.5770015], [-97.5684882, 35.5769126], [-97.5683355, 35.5769415], [-97.5683729, 35.5770718], [-97.568417, 35.5770635], [-97.5684253, 35.5770924], [-97.5685847, 35.5770622]]]}, "properties": {"osm_id": 1435967859, "building": "yes", "name": "", "height": null, "height_m": null, "levels": null, "tract_id": "40109108402", "tract_name": "1084.02", "tags": {"building": "yes", "source": "microsoft/BuildingFootprints"}}}, {"type": "Feature", "geometry": {"type": "Polygon", "coordinates": [[[-97.5685648, 35.5767048], [-97.5684023, 35.5766735], [-97.5683634, 35.576807], [-97.5684244, 35.5768187], [-97.5684175, 35.5768422], [-97.5685191, 35.5768618], [-97.5685648, 35.5767048]]]}, "properties": {"osm_id": 1435967860, "building": "yes", "name": "", "height": null, "height_m": null, "levels": null, "tract_id": "40109108402", "tract_name": "1084.02", "tags": {"building": "yes", "source": "microsoft/BuildingFootprints"}}}, {"type": "Feature", "geometry": {"type": "Polygon", "coordinates": [[[-97.5686134, 35.5757258], [-97.5684495, 35.5757418], [-97.5684682, 35.5758686], [-97.5685089, 35.5758647], [-97.5685139, 35.5758991], [-97.5686372, 35.5758871], [-97.5686134, 35.5757258]]]}, "properties": {"osm_id": 1435967861, "building": "yes", "name": "", "height": null, "height_m": null, "levels": null, "tract_id": "40109108402", "tract_name": "1084.02", "tags": {"building": "yes", "source": "microsoft/BuildingFootprints"}}}, {"type": "Feature", "geometry": {"type": "Polygon", "coordinates": [[[-97.5758272, 35.5751559], [-97.5760443, 35.5751524], [-97.5760423, 35.5750695], [-97.5760933, 35.5750687], [-97.5760916, 35.5750011], [-97.5760433, 35.5750018], [-97.5760421, 35.5749507], [-97.5760019, 35.5749513], [-97.5760011, 35.5749196], [-97.5758724, 35.5749217], [-97.5758731, 35.57495], [-97.5758222, 35.5749509], [-97.5758272, 35.5751559]]]}, "properties": {"osm_id": 1435967996, "building": "yes", "name": "", "height": null, "height_m": null, "levels": null, "tract_id": "40109108402", "tract_name": "1084.02", "tags": {"building": "yes", "source": "microsoft/BuildingFootprints"}}}, {"type": "Feature", "geometry": {"type": "Polygon", "coordinates": [[[-97.5755608, 35.575094], [-97.5756144, 35.5750928], [-97.5756161, 35.5751463], [-97.5757636, 35.575143], [-97.5757627, 35.5751169], [-97.5758071, 35.5751159], [-97.5758023, 35.5749698], [-97.5755836, 35.5749746], [-97.5755851, 35.5750204], [-97.5755583, 35.575021], [-97.5755608, 35.575094]]]}, "properties": {"osm_id": 1435967997, "building": "yes", "name": "", "height": null, "height_m": null, "levels": null, "tract_id": "40109108402", "tract_name": "1084.02", "tags": {"building": "yes", "source": "microsoft/BuildingFootprints"}}}, {"type": "Feature", "geometry": {"type": "Polygon", "coordinates": [[[-97.5754859, 35.5751149], [-97.5754848, 35.5749611], [-97.5753331, 35.5749618], [-97.5753329, 35.5749421], [-97.5752701, 35.5749424], [-97.5752716, 35.5751529], [-97.5754459, 35.5751521], [-97.5754456, 35.575115], [-97.5754859, 35.5751149]]]}, "properties": {"osm_id": 1435967998, "building": "yes", "name": "", "height": null, "height_m": null, "levels": null, "tract_id": "40109108402", "tract_name": "1084.02", "tags": {"building": "yes", "source": "microsoft/BuildingFootprints"}}}, {"type": "Feature", "geometry": {"type": "Polygon", "coordinates": [[[-97.5752235, 35.5751396], [-97.5752214, 35.5750436], [-97.5751731, 35.5750444], [-97.5751712, 35.5749571], [-97.5751283, 35.5749578], [-97.5751273, 35.5749141], [-97.5749932, 35.5749161], [-97.5749983, 35.5751429], [-97.5752235, 35.5751396]]]}, "properties": {"osm_id": 1435967999, "building": "yes", "name": "", "height": null, "height_m": null, "levels": null, "tract_id": "40109108402", "tract_name": "1084.02", "tags": {"building": "yes", "source": "microsoft/BuildingFootprints"}}}, {"type": "Feature", "geometry": {"type": "Polygon", "coordinates": [[[-97.5750827, 35.5761344], [-97.5752318, 35.5761343], [-97.5752316, 35.575951], [-97.5751216, 35.5759511], [-97.5751217, 35.5760057], [-97.5750288, 35.5760058], [-97.575029, 35.5761039], [-97.5750826, 35.5761039], [-97.5750827, 35.5761344]]]}, "properties": {"osm_id": 1435968000, "building": "yes", "name": "", "height": null, "height_m": null, "levels": null, "tract_id": "40109108402", "tract_name": "1084.02", "tags": {"building": "yes", "source": "microsoft/BuildingFootprints"}}}, {"type": "Feature", "geometry": {"type": "Polygon", "coordinates": [[[-97.5752708, 35.5761622], [-97.5753351, 35.5761631], [-97.5753354, 35.5761478], [-97.5754873, 35.5761499], [-97.5754905, 35.5759928], [-97.5754486, 35.5759923], [-97.5754493, 35.5759574], [-97.575275, 35.575955], [-97.5752708, 35.5761622]]]}, "properties": {"osm_id": 1435968001, "building": "yes", "name": "", "height": null, "height_m": null, "levels": null, "tract_id": "40109108402", "tract_name": "1084.02", "tags": {"building": "yes", "source": "microsoft/BuildingFootprints"}}}, {"type": "Feature", "geometry": {"type": "Polygon", "coordinates": [[[-97.5759949, 35.5760274], [-97.5759011, 35.5759486], [-97.5758194, 35.5760129], [-97.5759132, 35.5760917], [-97.5759949, 35.5760274]]]}, "properties": {"osm_id": 1435968002, "building": "yes", "name": "", "height": null, "height_m": null, "levels": null, "tract_id": "40109108402", "tract_name": "1084.02", "tags": {"building": "yes", "source": "microsoft/BuildingFootprints"}}}, {"type": "Feature", "geometry": {"type": "Polygon", "coordinates": [[[-97.5752916, 35.5762882], [-97.5753292, 35.5762878], [-97.5753283, 35.5762354], [-97.5751809, 35.5762369], [-97.5751841, 35.5764442], [-97.575294, 35.576443], [-97.5752916, 35.5762882]]]}, "properties": {"osm_id": 1435968003, "building": "yes", "name": "", "height": null, "height_m": null, "levels": null, "tract_id": "40109108402", "tract_name": "1084.02", "tags": {"building": "yes", "source": "microsoft/BuildingFootprints"}}}, {"type": "Feature", "geometry": {"type": "Polygon", "coordinates": [[[-97.5751525, 35.5766978], [-97.5753929, 35.5766959], [-97.5753923, 35.5766501], [-97.5753119, 35.5766507], [-97.5753113, 35.5766005], [-97.5753927, 35.5765999], [-97.5753921, 35.5765476], [-97.5751239, 35.5765496], [-97.575125, 35.5766412], [-97.5751518, 35.576641], [-97.5751525, 35.5766978]]]}, "properties": {"osm_id": 1435968004, "building": "yes", "name": "", "height": null, "height_m": null, "levels": null, "tract_id": "40109108402", "tract_name": "1084.02", "tags": {"building": "yes", "source": "microsoft/BuildingFootprints"}}}, {"type": "Feature", "geometry": {"type": "Polygon", "coordinates": [[[-97.5758629, 35.5768508], [-97.5758654, 35.5767156], [-97.5755624, 35.5767119], [-97.575561, 35.5767872], [-97.5756478, 35.5767883], [-97.5756467, 35.5768482], [-97.5758629, 35.5768508]]]}, "properties": {"osm_id": 1435968005, "building": "yes", "name": "", "height": null, "height_m": null, "levels": null, "tract_id": "40109108402", "tract_name": "1084.02", "tags": {"building": "yes", "source": "microsoft/BuildingFootprints"}}}, {"type": "Feature", "geometry": {"type": "Polygon", "coordinates": [[[-97.5749822, 35.5772293], [-97.5749867, 35.577371], [-97.5750966, 35.5773687], [-97.5750982, 35.5774199], [-97.5751786, 35.5774182], [-97.5751768, 35.5773605], [-97.5752197, 35.5773596], [-97.5752154, 35.5772244], [-97.5749822, 35.5772293]]]}, "properties": {"osm_id": 1435968006, "building": "yes", "name": "", "height": null, "height_m": null, "levels": null, "tract_id": "40109108402", "tract_name": "1084.02", "tags": {"building": "yes", "source": "microsoft/BuildingFootprints"}}}, {"type": "Feature", "geometry": {"type": "Polygon", "coordinates": [[[-97.5752767, 35.5773892], [-97.5753437, 35.5773883], [-97.5753444, 35.577421], [-97.5754319, 35.5774198], [-97.5754307, 35.577362], [-97.5755031, 35.577361], [-97.5755015, 35.577289], [-97.5754623, 35.5772895], [-97.5754609, 35.5772241], [-97.5752732, 35.5772268], [-97.5752767, 35.5773892]]]}, "properties": {"osm_id": 1435968007, "building": "yes", "name": "", "height": null, "height_m": null, "levels": null, "tract_id": "40109108402", "tract_name": "1084.02", "tags": {"building": "yes", "source": "microsoft/BuildingFootprints"}}}, {"type": "Feature", "geometry": {"type": "Polygon", "coordinates": [[[-97.5757831, 35.5773503], [-97.5757801, 35.5772228], [-97.5755665, 35.5772262], [-97.57557, 35.5773711], [-97.5756344, 35.5773701], [-97.5756355, 35.5774159], [-97.5757212, 35.5774146], [-97.5757197, 35.5773513], [-97.5757831, 35.5773503]]]}, "properties": {"osm_id": 1435968008, "building": "yes", "name": "", "height": null, "height_m": null, "levels": null, "tract_id": "40109108402", "tract_name": "1084.02", "tags": {"building": "yes", "source": "microsoft/BuildingFootprints"}}}, {"type": "Feature", "geometry": {"type": "Polygon", "coordinates": [[[-97.5758508, 35.5772537], [-97.5758486, 35.5774217], [-97.5759398, 35.5774225], [-97.5759402, 35.5773897], [-97.5760448, 35.5773906], [-97.5760465, 35.5772554], [-97.5758508, 35.5772537]]]}, "properties": {"osm_id": 1435968009, "building": "yes", "name": "", "height": null, "height_m": null, "levels": null, "tract_id": "40109108402", "tract_name": "1084.02", "tags": {"building": "yes", "source": "microsoft/BuildingFootprints"}}}, {"type": "Feature", "geometry": {"type": "Polygon", "coordinates": [[[-97.5750357, 35.5777863], [-97.5750973, 35.5777856], [-97.575098, 35.5778183], [-97.5752615, 35.5778162], [-97.5752582, 35.5776417], [-97.575033, 35.5776446], [-97.5750357, 35.5777863]]]}, "properties": {"osm_id": 1435968010, "building": "yes", "name": "", "height": null, "height_m": null, "levels": null, "tract_id": "40109108402", "tract_name": "1084.02", "tags": {"building": "yes", "source": "microsoft/BuildingFootprints"}}}, {"type": "Feature", "geometry": {"type": "Polygon", "coordinates": [[[-97.5755109, 35.5776457], [-97.5753366, 35.5776433], [-97.5753359, 35.577676], [-97.5753037, 35.5776756], [-97.5753006, 35.5778282], [-97.5755071, 35.577831], [-97.5755109, 35.5776457]]]}, "properties": {"osm_id": 1435968011, "building": "yes", "name": "", "height": null, "height_m": null, "levels": null, "tract_id": "40109108402", "tract_name": "1084.02", "tags": {"building": "yes", "source": "microsoft/BuildingFootprints"}}}, {"type": "Feature", "geometry": {"type": "Polygon", "coordinates": [[[-97.5756103, 35.5778308], [-97.5759466, 35.577833], [-97.5759472, 35.5777731], [-97.5758184, 35.5777722], [-97.5758189, 35.5777275], [-97.5757454, 35.577727], [-97.5757462, 35.5776528], [-97.575656, 35.5776522], [-97.5756554, 35.5777155], [-97.5756114, 35.5777152], [-97.5756103, 35.5778308]]]}, "properties": {"osm_id": 1435968012, "building": "yes", "name": "", "height": null, "height_m": null, "levels": null, "tract_id": "40109108402", "tract_name": "1084.02", "tags": {"building": "yes", "source": "microsoft/BuildingFootprints"}}}, {"type": "Feature", "geometry": {"type": "Polygon", "coordinates": [[[-97.5755485, 35.5780262], [-97.5751998, 35.5780267], [-97.5752, 35.5781096], [-97.5753744, 35.5781094], [-97.5753745, 35.5781552], [-97.5755488, 35.5781549], [-97.5755485, 35.5780262]]]}, "properties": {"osm_id": 1435968013, "building": "yes", "name": "", "height": null, "height_m": null, "levels": null, "tract_id": "40109108402", "tract_name": "1084.02", "tags": {"building": "yes", "source": "microsoft/BuildingFootprints"}}}, {"type": "Feature", "geometry": {"type": "Polygon", "coordinates": [[[-97.5752077, 35.578234], [-97.5752068, 35.578318], [-97.5752674, 35.5783184], [-97.5752671, 35.5783501], [-97.5752306, 35.5783498], [-97.5752299, 35.5784196], [-97.5753692, 35.5784206], [-97.5755045, 35.5784645], [-97.5755433, 35.5783854], [-97.5754136, 35.5783434], [-97.5754258, 35.5783185], [-97.5755287, 35.5783192], [-97.5755296, 35.5782341], [-97.5754625, 35.5782337], [-97.5754628, 35.5782118], [-97.5753898, 35.5782113], [-97.5753781, 35.5782352], [-97.5752077, 35.578234]]]}, "properties": {"osm_id": 1435968014, "building": "yes", "name": "", "height": null, "height_m": null, "levels": null, "tract_id": "40109108402", "tract_name": "1084.02", "tags": {"building": "yes", "source": "microsoft/BuildingFootprints"}}}, {"type": "Feature", "geometry": {"type": "Polygon", "coordinates": [[[-97.57536, 35.5791963], [-97.575507, 35.5791891], [-97.5755007, 35.5791043], [-97.5754484, 35.5791069], [-97.5754362, 35.5789427], [-97.5753415, 35.5789474], [-97.57536, 35.5791963]]]}, "properties": {"osm_id": 1435968015, "building": "yes", "name": "", "height": null, "height_m": null, "levels": null, "tract_id": "40109108402", "tract_name": "1084.02", "tags": {"building": "yes", "source": "microsoft/BuildingFootprints"}}}, {"type": "Feature", "geometry": {"type": "Polygon", "coordinates": [[[-97.5753758, 35.579429], [-97.5755581, 35.5794313], [-97.5755603, 35.5793157], [-97.5755684, 35.5793158], [-97.5755692, 35.5792722], [-97.5753547, 35.5792695], [-97.5753529, 35.5793611], [-97.5754012, 35.5793617], [-97.5754007, 35.5793879], [-97.5753766, 35.5793876], [-97.5753758, 35.579429]]]}, "properties": {"osm_id": 1435968016, "building": "yes", "name": "", "height": null, "height_m": null, "levels": null, "tract_id": "40109108402", "tract_name": "1084.02", "tags": {"building": "yes", "source": "microsoft/BuildingFootprints"}}}, {"type": "Feature", "geometry": {"type": "Polygon", "coordinates": [[[-97.5754888, 35.5799754], [-97.5755975, 35.5799658], [-97.575567, 35.5797373], [-97.5754583, 35.5797469], [-97.5754888, 35.5799754]]]}, "properties": {"osm_id": 1435968017, "building": "yes", "name": "", "height": null, "height_m": null, "levels": null, "tract_id": "40109108402", "tract_name": "1084.02", "tags": {"building": "yes", "source": "microsoft/BuildingFootprints"}}}, {"type": "Feature", "geometry": {"type": "Polygon", "coordinates": [[[-97.5748087, 35.5799019], [-97.5748757, 35.5799027], [-97.5748773, 35.5798198], [-97.5749443, 35.5798207], [-97.5749422, 35.5799319], [-97.5749074, 35.5799315], [-97.5749065, 35.5799795], [-97.5750325, 35.579981], [-97.5750342, 35.5798894], [-97.5750142, 35.5798892], [-97.5750172, 35.57973], [-97.574812, 35.5797274], [-97.5748087, 35.5799019]]]}, "properties": {"osm_id": 1435968018, "building": "yes", "name": "", "height": null, "height_m": null, "levels": null, "tract_id": "40109108402", "tract_name": "1084.02", "tags": {"building": "yes", "source": "microsoft/BuildingFootprints"}}}, {"type": "Feature", "geometry": {"type": "Polygon", "coordinates": [[[-97.5753729, 35.5794619], [-97.5753747, 35.5795371], [-97.5754981, 35.5795352], [-97.5755003, 35.5796289], [-97.5756612, 35.5796264], [-97.5756601, 35.5795806], [-97.5756923, 35.57958], [-97.5756905, 35.5795059], [-97.5756288, 35.5795069], [-97.5756276, 35.5794579], [-97.5753729, 35.5794619]]]}, "properties": {"osm_id": 1435968019, "building": "yes", "name": "", "height": null, "height_m": null, "levels": null, "tract_id": "40109108402", "tract_name": "1084.02", "tags": {"building": "yes", "source": "microsoft/BuildingFootprints"}}}, {"type": "Feature", "geometry": {"type": "Polygon", "coordinates": [[[-97.5749851, 35.5794336], [-97.5748724, 35.5794332], [-97.5748709, 35.579695], [-97.5749836, 35.5796954], [-97.5749851, 35.5794336]]]}, "properties": {"osm_id": 1435968020, "building": "yes", "name": "", "height": null, "height_m": null, "levels": null, "tract_id": "40109108402", "tract_name": "1084.02", "tags": {"building": "yes", "source": "microsoft/BuildingFootprints"}}}, {"type": "Feature", "geometry": {"type": "Polygon", "coordinates": [[[-97.5747472, 35.5798224], [-97.5746948, 35.5798227], [-97.5746945, 35.5797954], [-97.5746086, 35.579796], [-97.5746089, 35.5798211], [-97.5745246, 35.5798217], [-97.5745261, 35.5799711], [-97.5746158, 35.5799705], [-97.5746154, 35.579929], [-97.5746544, 35.5799288], [-97.5746548, 35.579967], [-97.5747487, 35.5799663], [-97.5747472, 35.5798224]]]}, "properties": {"osm_id": 1435968021, "building": "yes", "name": "", "height": null, "height_m": null, "levels": null, "tract_id": "40109108402", "tract_name": "1084.02", "tags": {"building": "yes", "source": "microsoft/BuildingFootprints"}}}, {"type": "Feature", "geometry": {"type": "Polygon", "coordinates": [[[-97.5743927, 35.5799286], [-97.5743904, 35.5798381], [-97.5742939, 35.5798397], [-97.574292, 35.5797667], [-97.5741887, 35.5797684], [-97.574189, 35.5797804], [-97.5741476, 35.579781], [-97.5741516, 35.5799424], [-97.5742976, 35.57994], [-97.5742974, 35.5799302], [-97.5743927, 35.5799286]]]}, "properties": {"osm_id": 1435968022, "building": "yes", "name": "", "height": null, "height_m": null, "levels": null, "tract_id": "40109108402", "tract_name": "1084.02", "tags": {"building": "yes", "source": "microsoft/BuildingFootprints"}}}, {"type": "Feature", "geometry": {"type": "Polygon", "coordinates": [[[-97.5745595, 35.5792651], [-97.574556, 35.5793763], [-97.5747972, 35.5793813], [-97.5748007, 35.5792701], [-97.5745595, 35.5792651]]]}, "properties": {"osm_id": 1435968023, "building": "yes", "name": "", "height": null, "height_m": null, "levels": null, "tract_id": "40109108402", "tract_name": "1084.02", "tags": {"building": "yes", "source": "microsoft/BuildingFootprints"}}}, {"type": "Feature", "geometry": {"type": "Polygon", "coordinates": [[[-97.5745805, 35.5791219], [-97.5745825, 35.5792234], [-97.5749189, 35.5792189], [-97.5749169, 35.5791175], [-97.5745805, 35.5791219]]]}, "properties": {"osm_id": 1435968024, "building": "yes", "name": "", "height": null, "height_m": null, "levels": null, "tract_id": "40109108402", "tract_name": "1084.02", "tags": {"building": "yes", "source": "microsoft/BuildingFootprints"}}}, {"type": "Feature", "geometry": {"type": "Polygon", "coordinates": [[[-97.574866, 35.5790879], [-97.5748445, 35.5788909], [-97.5747141, 35.5789003], [-97.5747356, 35.5790973], [-97.574866, 35.5790879]]]}, "properties": {"osm_id": 1435968025, "building": "yes", "name": "", "height": null, "height_m": null, "levels": null, "tract_id": "40109108402", "tract_name": "1084.02", "tags": {"building": "yes", "source": "microsoft/BuildingFootprints"}}}, {"type": "Feature", "geometry": {"type": "Polygon", "coordinates": [[[-97.5746303, 35.578549], [-97.5746365, 35.5786294], [-97.5746953, 35.5786264], [-97.5747073, 35.5787828], [-97.5747981, 35.5787782], [-97.5747924, 35.5787044], [-97.5748192, 35.578703], [-97.5748066, 35.57854], [-97.5746303, 35.578549]]]}, "properties": {"osm_id": 1435968026, "building": "yes", "name": "", "height": null, "height_m": null, "levels": null, "tract_id": "40109108402", "tract_name": "1084.02", "tags": {"building": "yes", "source": "microsoft/BuildingFootprints"}}}, {"type": "Feature", "geometry": {"type": "Polygon", "coordinates": [[[-97.5753084, 35.5786047], [-97.5753319, 35.5788245], [-97.5754304, 35.5788175], [-97.5754248, 35.5787655], [-97.5754791, 35.5787617], [-97.5754683, 35.5786599], [-97.5754166, 35.5786636], [-97.5754095, 35.5785976], [-97.5753084, 35.5786047]]]}, "properties": {"osm_id": 1435968027, "building": "yes", "name": "", "height": null, "height_m": null, "levels": null, "tract_id": "40109108402", "tract_name": "1084.02", "tags": {"building": "yes", "source": "microsoft/BuildingFootprints"}}}, {"type": "Feature", "geometry": {"type": "Polygon", "coordinates": [[[-97.574752, 35.5783988], [-97.574729, 35.5782583], [-97.5747, 35.5782615], [-97.5746898, 35.5781993], [-97.5745791, 35.5782113], [-97.5746123, 35.5784139], [-97.574752, 35.5783988]]]}, "properties": {"osm_id": 1435968028, "building": "yes", "name": "", "height": null, "height_m": null, "levels": null, "tract_id": "40109108402", "tract_name": "1084.02", "tags": {"building": "yes", "source": "microsoft/BuildingFootprints"}}}, {"type": "Feature", "geometry": {"type": "Polygon", "coordinates": [[[-97.5742889, 35.5779843], [-97.5742914, 35.5780922], [-97.5744121, 35.5780903], [-97.5744104, 35.5780162], [-97.5744586, 35.5780155], [-97.5744562, 35.5779064], [-97.574424, 35.5779069], [-97.5744229, 35.5778611], [-97.5743452, 35.5778623], [-97.5743457, 35.5778841], [-97.5742894, 35.5778849], [-97.5742903, 35.5779242], [-97.57425, 35.5779248], [-97.5742514, 35.5779848], [-97.5742889, 35.5779843]]]}, "properties": {"osm_id": 1435968029, "building": "yes", "name": "", "height": null, "height_m": null, "levels": null, "tract_id": "40109108402", "tract_name": "1084.02", "tags": {"building": "yes", "source": "microsoft/BuildingFootprints"}}}, {"type": "Feature", "geometry": {"type": "Polygon", "coordinates": [[[-97.5730166, 35.577974], [-97.5731096, 35.5781173], [-97.5732501, 35.578057], [-97.5731915, 35.5779666], [-97.5732116, 35.5779579], [-97.5731773, 35.577905], [-97.5730166, 35.577974]]]}, "properties": {"osm_id": 1435968030, "building": "yes", "name": "", "height": null, "height_m": null, "levels": null, "tract_id": "40109108402", "tract_name": "1084.02", "tags": {"building": "yes", "source": "microsoft/BuildingFootprints"}}}, {"type": "Feature", "geometry": {"type": "Polygon", "coordinates": [[[-97.5734389, 35.5780605], [-97.5731881, 35.5781408], [-97.573232, 35.5782314], [-97.5731948, 35.5782433], [-97.5732268, 35.5783095], [-97.5733871, 35.5782581], [-97.5733399, 35.5781608], [-97.5734677, 35.5781199], [-97.5734389, 35.5780605]]]}, "properties": {"osm_id": 1435968031, "building": "yes", "name": "", "height": null, "height_m": null, "levels": null, "tract_id": "40109108402", "tract_name": "1084.02", "tags": {"building": "yes", "source": "microsoft/BuildingFootprints"}}}, {"type": "Feature", "geometry": {"type": "Polygon", "coordinates": [[[-97.5734843, 35.5783614], [-97.5734622, 35.5782979], [-97.5733132, 35.5783321], [-97.5733458, 35.578426], [-97.5733284, 35.57843], [-97.5733484, 35.5784876], [-97.5735869, 35.5784328], [-97.5735563, 35.5783449], [-97.5734843, 35.5783614]]]}, "properties": {"osm_id": 1435968032, "building": "yes", "name": "", "height": null, "height_m": null, "levels": null, "tract_id": "40109108402", "tract_name": "1084.02", "tags": {"building": "yes", "source": "microsoft/BuildingFootprints"}}}, {"type": "Feature", "geometry": {"type": "Polygon", "coordinates": [[[-97.5737063, 35.5786625], [-97.573682, 35.5785846], [-97.5735751, 35.5786066], [-97.5735675, 35.578582], [-97.5736531, 35.5785644], [-97.5736336, 35.5785018], [-97.5733776, 35.5785546], [-97.5734291, 35.5787197], [-97.5737063, 35.5786625]]]}, "properties": {"osm_id": 1435968033, "building": "yes", "name": "", "height": null, "height_m": null, "levels": null, "tract_id": "40109108402", "tract_name": "1084.02", "tags": {"building": "yes", "source": "microsoft/BuildingFootprints"}}}, {"type": "Feature", "geometry": {"type": "Polygon", "coordinates": [[[-97.5736559, 35.5790283], [-97.5736438, 35.5789814], [-97.5736875, 35.5789739], [-97.5736628, 35.5788778], [-97.5736062, 35.5788874], [-97.5735971, 35.5788519], [-97.5734954, 35.5788692], [-97.5735121, 35.578934], [-97.573471, 35.578941], [-97.5734916, 35.5790214], [-97.5735574, 35.5790102], [-97.573566, 35.5790436], [-97.5736559, 35.5790283]]]}, "properties": {"osm_id": 1435968034, "building": "yes", "name": "", "height": null, "height_m": null, "levels": null, "tract_id": "40109108402", "tract_name": "1084.02", "tags": {"building": "yes", "source": "microsoft/BuildingFootprints"}}}, {"type": "Feature", "geometry": {"type": "Polygon", "coordinates": [[[-97.5736273, 35.5793179], [-97.5736513, 35.5793161], [-97.5736569, 35.5793659], [-97.5737713, 35.5793573], [-97.5737458, 35.5791335], [-97.5736076, 35.5791439], [-97.5736273, 35.5793179]]]}, "properties": {"osm_id": 1435968035, "building": "yes", "name": "", "height": null, "height_m": null, "levels": null, "tract_id": "40109108402", "tract_name": "1084.02", "tags": {"building": "yes", "source": "microsoft/BuildingFootprints"}}}, {"type": "Feature", "geometry": {"type": "Polygon", "coordinates": [[[-97.5736861, 35.5781691], [-97.5737318, 35.5782623], [-97.5738651, 35.5782191], [-97.5738194, 35.5781259], [-97.5736861, 35.5781691]]]}, "properties": {"osm_id": 1435968036, "building": "yes", "name": "", "height": null, "height_m": null, "levels": null, "tract_id": "40109108402", "tract_name": "1084.02", "tags": {"building": "yes", "source": "microsoft/BuildingFootprints"}}}, {"type": "Feature", "geometry": {"type": "Polygon", "coordinates": [[[-97.572705, 35.5776208], [-97.5727048, 35.5776962], [-97.5726216, 35.577696], [-97.5726214, 35.5777636], [-97.5726589, 35.5777637], [-97.5726588, 35.5777986], [-97.5727661, 35.5777989], [-97.5727661, 35.5777846], [-97.5728091, 35.5777847], [-97.5728096, 35.5776211], [-97.572705, 35.5776208]]]}, "properties": {"osm_id": 1435968037, "building": "yes", "name": "", "height": null, "height_m": null, "levels": null, "tract_id": "40109108402", "tract_name": "1084.02", "tags": {"building": "yes", "source": "microsoft/BuildingFootprints"}}}, {"type": "Feature", "geometry": {"type": "Polygon", "coordinates": [[[-97.5729131, 35.5777701], [-97.5730444, 35.5777674], [-97.5730409, 35.5776519], [-97.572939, 35.577654], [-97.5729381, 35.5776247], [-97.5728496, 35.5776265], [-97.5728551, 35.5778019], [-97.5729141, 35.5778007], [-97.5729131, 35.5777701]]]}, "properties": {"osm_id": 1435968038, "building": "yes", "name": "", "height": null, "height_m": null, "levels": null, "tract_id": "40109108402", "tract_name": "1084.02", "tags": {"building": "yes", "source": "microsoft/BuildingFootprints"}}}, {"type": "Feature", "geometry": {"type": "Polygon", "coordinates": [[[-97.5732136, 35.5776484], [-97.5730796, 35.5776505], [-97.5730826, 35.577777], [-97.5732327, 35.5777746], [-97.5732321, 35.5777485], [-97.5733099, 35.5777472], [-97.5733069, 35.5776219], [-97.573213, 35.5776234], [-97.5732136, 35.5776484]]]}, "properties": {"osm_id": 1435968039, "building": "yes", "name": "", "height": null, "height_m": null, "levels": null, "tract_id": "40109108402", "tract_name": "1084.02", "tags": {"building": "yes", "source": "microsoft/BuildingFootprints"}}}, {"type": "Feature", "geometry": {"type": "Polygon", "coordinates": [[[-97.573649, 35.5777792], [-97.5736488, 35.5777083], [-97.5736193, 35.5777084], [-97.5736192, 35.5776517], [-97.5735173, 35.5776518], [-97.5735172, 35.5776256], [-97.5733965, 35.5776258], [-97.5733967, 35.5777022], [-97.5734396, 35.5777021], [-97.5734398, 35.5777795], [-97.573649, 35.5777792]]]}, "properties": {"osm_id": 1435968040, "building": "yes", "name": "", "height": null, "height_m": null, "levels": null, "tract_id": "40109108402", "tract_name": "1084.02", "tags": {"building": "yes", "source": "microsoft/BuildingFootprints"}}}, {"type": "Feature", "geometry": {"type": "Polygon", "coordinates": [[[-97.5738936, 35.5777036], [-97.573896, 35.5776185], [-97.5737084, 35.577615], [-97.5737058, 35.5777044], [-97.5737407, 35.577705], [-97.5737397, 35.5777399], [-97.5738308, 35.5777417], [-97.573832, 35.5777024], [-97.5738936, 35.5777036]]]}, "properties": {"osm_id": 1435968041, "building": "yes", "name": "", "height": null, "height_m": null, "levels": null, "tract_id": "40109108402", "tract_name": "1084.02", "tags": {"building": "yes", "source": "microsoft/BuildingFootprints"}}}, {"type": "Feature", "geometry": {"type": "Polygon", "coordinates": [[[-97.5740584, 35.5777827], [-97.5741405, 35.5777833], [-97.5741422, 35.5776316], [-97.573933, 35.57763], [-97.5739315, 35.5777675], [-97.5740146, 35.5777681], [-97.5740149, 35.5777397], [-97.5740589, 35.5777401], [-97.5740584, 35.5777827]]]}, "properties": {"osm_id": 1435968042, "building": "yes", "name": "", "height": null, "height_m": null, "levels": null, "tract_id": "40109108402", "tract_name": "1084.02", "tags": {"building": "yes", "source": "microsoft/BuildingFootprints"}}}, {"type": "Feature", "geometry": {"type": "Polygon", "coordinates": [[[-97.5741757, 35.5776175], [-97.5741789, 35.5777549], [-97.5744068, 35.5777514], [-97.5744037, 35.5776184], [-97.5743169, 35.5776197], [-97.5743174, 35.5776425], [-97.5742504, 35.5776436], [-97.5742498, 35.5776164], [-97.5741757, 35.5776175]]]}, "properties": {"osm_id": 1435968043, "building": "yes", "name": "", "height": null, "height_m": null, "levels": null, "tract_id": "40109108402", "tract_name": "1084.02", "tags": {"building": "yes", "source": "microsoft/BuildingFootprints"}}}, {"type": "Feature", "geometry": {"type": "Polygon", "coordinates": [[[-97.5744792, 35.5776169], [-97.5744798, 35.5776878], [-97.5745388, 35.5776875], [-97.5745394, 35.5777529], [-97.5747121, 35.5777519], [-97.5747109, 35.5776156], [-97.5744792, 35.5776169]]]}, "properties": {"osm_id": 1435968044, "building": "yes", "name": "", "height": null, "height_m": null, "levels": null, "tract_id": "40109108402", "tract_name": "1084.02", "tags": {"building": "yes", "source": "microsoft/BuildingFootprints"}}}, {"type": "Feature", "geometry": {"type": "Polygon", "coordinates": [[[-97.5722871, 35.5781087], [-97.5723346, 35.5782043], [-97.5723138, 35.5782112], [-97.5723324, 35.5782487], [-97.5725308, 35.5781836], [-97.572496, 35.5781134], [-97.5724729, 35.5781209], [-97.5724417, 35.578058], [-97.5722871, 35.5781087]]]}, "properties": {"osm_id": 1435968045, "building": "yes", "name": "", "height": null, "height_m": null, "levels": null, "tract_id": "40109108402", "tract_name": "1084.02", "tags": {"building": "yes", "source": "microsoft/BuildingFootprints"}}}, {"type": "Feature", "geometry": {"type": "Polygon", "coordinates": [[[-97.5733983, 35.5660471], [-97.5732283, 35.5660609], [-97.5732509, 35.5662445], [-97.573381, 35.5662339], [-97.5733768, 35.5661994], [-97.5734166, 35.5661961], [-97.5733983, 35.5660471]]]}, "properties": {"osm_id": 1435968151, "building": "yes", "name": "", "height": null, "height_m": null, "levels": null, "tract_id": "40109108402", "tract_name": "1084.02", "tags": {"building": "yes", "source": "microsoft/BuildingFootprints"}}}, {"type": "Feature", "geometry": {"type": "Polygon", "coordinates": [[[-97.5732703, 35.5662677], [-97.5732941, 35.5664479], [-97.5734145, 35.5664374], [-97.5733908, 35.5662572], [-97.5732703, 35.5662677]]]}, "properties": {"osm_id": 1435968152, "building": "yes", "name": "", "height": null, "height_m": null, "levels": null, "tract_id": "40109108402", "tract_name": "1084.02", "tags": {"building": "yes", "source": "microsoft/BuildingFootprints"}}}, {"type": "Feature", "geometry": {"type": "Polygon", "coordinates": [[[-97.5734253, 35.5664595], [-97.573315, 35.5664726], [-97.5733215, 35.5665089], [-97.5732979, 35.5665117], [-97.5733233, 35.5666527], [-97.5734572, 35.5666368], [-97.5734253, 35.5664595]]]}, "properties": {"osm_id": 1435968153, "building": "yes", "name": "", "height": null, "height_m": null, "levels": null, "tract_id": "40109108402", "tract_name": "1084.02", "tags": {"building": "yes", "source": "microsoft/BuildingFootprints"}}}, {"type": "Feature", "geometry": {"type": "Polygon", "coordinates": [[[-97.5735467, 35.5668227], [-97.5735166, 35.5666685], [-97.5733753, 35.5666867], [-97.5733917, 35.5667707], [-97.5733446, 35.5667768], [-97.5733583, 35.566847], [-97.5735467, 35.5668227]]]}, "properties": {"osm_id": 1435968154, "building": "yes", "name": "", "height": null, "height_m": null, "levels": null, "tract_id": "40109108402", "tract_name": "1084.02", "tags": {"building": "yes", "source": "microsoft/BuildingFootprints"}}}, {"type": "Feature", "geometry": {"type": "Polygon", "coordinates": [[[-97.5734341, 35.5670825], [-97.5734529, 35.5671815], [-97.5734136, 35.5671865], [-97.5734286, 35.5672653], [-97.5736094, 35.5672426], [-97.5735897, 35.5671393], [-97.573629, 35.5671344], [-97.5736149, 35.5670598], [-97.5734341, 35.5670825]]]}, "properties": {"osm_id": 1435968155, "building": "yes", "name": "", "height": null, "height_m": null, "levels": null, "tract_id": "40109108402", "tract_name": "1084.02", "tags": {"building": "yes", "source": "microsoft/BuildingFootprints"}}}, {"type": "Feature", "geometry": {"type": "Polygon", "coordinates": [[[-97.5736861, 35.5674563], [-97.5736713, 35.5673552], [-97.5737004, 35.5673524], [-97.5736956, 35.5673201], [-97.5736824, 35.5673214], [-97.5736755, 35.567274], [-97.5734428, 35.5672966], [-97.5734532, 35.5673676], [-97.5735352, 35.5673597], [-97.5735513, 35.5674694], [-97.5736861, 35.5674563]]]}, "properties": {"osm_id": 1435968156, "building": "yes", "name": "", "height": null, "height_m": null, "levels": null, "tract_id": "40109108402", "tract_name": "1084.02", "tags": {"building": "yes", "source": "microsoft/BuildingFootprints"}}}, {"type": "Feature", "geometry": {"type": "Polygon", "coordinates": [[[-97.5735581, 35.5668627], [-97.5733696, 35.5668781], [-97.5733761, 35.5669311], [-97.5734054, 35.5669287], [-97.5734125, 35.5669871], [-97.5733886, 35.566989], [-97.5733964, 35.5670516], [-97.5735424, 35.5670397], [-97.5735346, 35.5669759], [-97.5735717, 35.5669729], [-97.5735581, 35.5668627]]]}, "properties": {"osm_id": 1435968157, "building": "yes", "name": "", "height": null, "height_m": null, "levels": null, "tract_id": "40109108402", "tract_name": "1084.02", "tags": {"building": "yes", "source": "microsoft/BuildingFootprints"}}}, {"type": "Feature", "geometry": {"type": "Polygon", "coordinates": [[[-97.573672, 35.5676668], [-97.573658, 35.5676035], [-97.5737038, 35.5675967], [-97.5736784, 35.5674826], [-97.573507, 35.5675078], [-97.5735307, 35.5676146], [-97.5735109, 35.5676175], [-97.5735266, 35.5676882], [-97.573672, 35.5676668]]]}, "properties": {"osm_id": 1435968158, "building": "yes", "name": "", "height": null, "height_m": null, "levels": null, "tract_id": "40109108402", "tract_name": "1084.02", "tags": {"building": "yes", "source": "microsoft/BuildingFootprints"}}}, {"type": "Feature", "geometry": {"type": "Polygon", "coordinates": [[[-97.5738349, 35.5678253], [-97.5737911, 35.5677332], [-97.5738214, 35.5677237], [-97.5737898, 35.5676573], [-97.5735962, 35.5677183], [-97.5736215, 35.5677714], [-97.5736813, 35.5677525], [-97.5737021, 35.5677962], [-97.5736423, 35.567815], [-97.5736717, 35.5678767], [-97.5738349, 35.5678253]]]}, "properties": {"osm_id": 1435968159, "building": "yes", "name": "", "height": null, "height_m": null, "levels": null, "tract_id": "40109108402", "tract_name": "1084.02", "tags": {"building": "yes", "source": "microsoft/BuildingFootprints"}}}, {"type": "Feature", "geometry": {"type": "Polygon", "coordinates": [[[-97.5737726, 35.5679145], [-97.573946, 35.5680706], [-97.5740538, 35.5679914], [-97.5740004, 35.5679433], [-97.5740492, 35.5679075], [-97.5739891, 35.5678535], [-97.5739404, 35.5678893], [-97.5738804, 35.5678352], [-97.5737726, 35.5679145]]]}, "properties": {"osm_id": 1435968160, "building": "yes", "name": "", "height": null, "height_m": null, "levels": null, "tract_id": "40109108402", "tract_name": "1084.02", "tags": {"building": "yes", "source": "microsoft/BuildingFootprints"}}}, {"type": "Feature", "geometry": {"type": "Polygon", "coordinates": [[[-97.5741489, 35.5680209], [-97.574004, 35.568083], [-97.5740969, 35.5682264], [-97.574094, 35.5682277], [-97.5741344, 35.56829], [-97.5742507, 35.5682402], [-97.5741583, 35.5680976], [-97.5741898, 35.5680841], [-97.5741489, 35.5680209]]]}, "properties": {"osm_id": 1435968161, "building": "yes", "name": "", "height": null, "height_m": null, "levels": null, "tract_id": "40109108402", "tract_name": "1084.02", "tags": {"building": "yes", "source": "microsoft/BuildingFootprints"}}}, {"type": "Feature", "geometry": {"type": "Polygon", "coordinates": [[[-97.5741964, 35.5683418], [-97.5742756, 35.5684637], [-97.5742651, 35.5684682], [-97.5743022, 35.5685254], [-97.5743287, 35.568514], [-97.5743536, 35.5685524], [-97.5745033, 35.5684881], [-97.5744668, 35.5684318], [-97.5744261, 35.5684492], [-97.5744029, 35.5684134], [-97.5744393, 35.5683978], [-97.5743579, 35.5682724], [-97.5741964, 35.5683418]]]}, "properties": {"osm_id": 1435968162, "building": "yes", "name": "", "height": null, "height_m": null, "levels": null, "tract_id": "40109108402", "tract_name": "1084.02", "tags": {"building": "yes", "source": "microsoft/BuildingFootprints"}}}, {"type": "Feature", "geometry": {"type": "Polygon", "coordinates": [[[-97.5745724, 35.5685837], [-97.5744313, 35.5685867], [-97.5744352, 35.5687045], [-97.574394, 35.5687054], [-97.5743963, 35.5687773], [-97.5744392, 35.5687764], [-97.5744402, 35.568808], [-97.5745153, 35.5688064], [-97.574514, 35.5687682], [-97.5745784, 35.5687668], [-97.5745724, 35.5685837]]]}, "properties": {"osm_id": 1435968163, "building": "yes", "name": "", "height": null, "height_m": null, "levels": null, "tract_id": "40109108402", "tract_name": "1084.02", "tags": {"building": "yes", "source": "microsoft/BuildingFootprints"}}}, {"type": "Feature", "geometry": {"type": "Polygon", "coordinates": [[[-97.5744177, 35.5690794], [-97.5743935, 35.5690375], [-97.5744234, 35.569026], [-97.5743738, 35.5689402], [-97.5742758, 35.5689777], [-97.5742433, 35.5689213], [-97.5741554, 35.5689549], [-97.5742054, 35.5690416], [-97.5742296, 35.5690324], [-97.5742858, 35.5691298], [-97.5744177, 35.5690794]]]}, "properties": {"osm_id": 1435968164, "building": "yes", "name": "", "height": null, "height_m": null, "levels": null, "tract_id": "40109108402", "tract_name": "1084.02", "tags": {"building": "yes", "source": "microsoft/BuildingFootprints"}}}, {"type": "Feature", "geometry": {"type": "Polygon", "coordinates": [[[-97.5740589, 35.5691156], [-97.5740414, 35.5690852], [-97.5740898, 35.5690667], [-97.5740331, 35.5689684], [-97.5739473, 35.5690011], [-97.5739556, 35.5690154], [-97.5738214, 35.5690665], [-97.5738874, 35.569181], [-97.5740589, 35.5691156]]]}, "properties": {"osm_id": 1435968165, "building": "yes", "name": "", "height": null, "height_m": null, "levels": null, "tract_id": "40109108402", "tract_name": "1084.02", "tags": {"building": "yes", "source": "microsoft/BuildingFootprints"}}}, {"type": "Feature", "geometry": {"type": "Polygon", "coordinates": [[[-97.573657, 35.5691008], [-97.573538, 35.569103], [-97.5735397, 35.5691653], [-97.5734872, 35.5691662], [-97.5734913, 35.5693133], [-97.5735197, 35.5693128], [-97.5735212, 35.5693673], [-97.5737304, 35.5693634], [-97.5737276, 35.5692643], [-97.5736616, 35.5692655], [-97.573657, 35.5691008]]]}, "properties": {"osm_id": 1435968166, "building": "yes", "name": "", "height": null, "height_m": null, "levels": null, "tract_id": "40109108402", "tract_name": "1084.02", "tags": {"building": "yes", "source": "microsoft/BuildingFootprints"}}}, {"type": "Feature", "geometry": {"type": "Polygon", "coordinates": [[[-97.5734983, 35.5694546], [-97.5735079, 35.5695258], [-97.5735355, 35.5695233], [-97.5735517, 35.569643], [-97.5737452, 35.5696257], [-97.5737347, 35.5695481], [-97.5736949, 35.5695516], [-97.5736862, 35.569487], [-97.5736544, 35.5694898], [-97.5736478, 35.5694412], [-97.5734983, 35.5694546]]]}, "properties": {"osm_id": 1435968167, "building": "yes", "name": "", "height": null, "height_m": null, "levels": null, "tract_id": "40109108402", "tract_name": "1084.02", "tags": {"building": "yes", "source": "microsoft/BuildingFootprints"}}}, {"type": "Feature", "geometry": {"type": "Polygon", "coordinates": [[[-97.5739443, 35.5701353], [-97.5738589, 35.5699599], [-97.5736781, 35.5700182], [-97.5737084, 35.5700804], [-97.5737316, 35.5700729], [-97.5737573, 35.5701257], [-97.5737179, 35.5701384], [-97.5737473, 35.5701988], [-97.5739443, 35.5701353]]]}, "properties": {"osm_id": 1435968168, "building": "yes", "name": "", "height": null, "height_m": null, "levels": null, "tract_id": "40109108402", "tract_name": "1084.02", "tags": {"building": "yes", "source": "microsoft/BuildingFootprints"}}}, {"type": "Feature", "geometry": {"type": "Polygon", "coordinates": [[[-97.5735828, 35.5697467], [-97.5736347, 35.5699417], [-97.573772, 35.5699175], [-97.573762, 35.56988], [-97.5737989, 35.5698735], [-97.5737829, 35.5698131], [-97.5737382, 35.5698209], [-97.5737125, 35.5697239], [-97.5735828, 35.5697467]]]}, "properties": {"osm_id": 1435968169, "building": "yes", "name": "", "height": null, "height_m": null, "levels": null, "tract_id": "40109108402", "tract_name": "1084.02", "tags": {"building": "yes", "source": "microsoft/BuildingFootprints"}}}, {"type": "Feature", "geometry": {"type": "Polygon", "coordinates": [[[-97.5750027, 35.5706957], [-97.5748309, 35.5707303], [-97.5749048, 35.5709729], [-97.5750009, 35.5709535], [-97.574989, 35.5709144], [-97.5750774, 35.5708966], [-97.5750511, 35.5708103], [-97.5750081, 35.570819], [-97.5749912, 35.5707635], [-97.5750215, 35.5707573], [-97.5750027, 35.5706957]]]}, "properties": {"osm_id": 1435968170, "building": "yes", "name": "", "height": null, "height_m": null, "levels": null, "tract_id": "40109108402", "tract_name": "1084.02", "tags": {"building": "yes", "source": "microsoft/BuildingFootprints"}}}, {"type": "Feature", "geometry": {"type": "Polygon", "coordinates": [[[-97.5751428, 35.5715004], [-97.5751252, 35.5713977], [-97.5751766, 35.5713919], [-97.5751634, 35.5713148], [-97.5749989, 35.5713335], [-97.5750192, 35.5714523], [-97.5749864, 35.571456], [-97.5749969, 35.571517], [-97.5751428, 35.5715004]]]}, "properties": {"osm_id": 1435968171, "building": "yes", "name": "", "height": null, "height_m": null, "levels": null, "tract_id": "40109108402", "tract_name": "1084.02", "tags": {"building": "yes", "source": "microsoft/BuildingFootprints"}}}, {"type": "Feature", "geometry": {"type": "Polygon", "coordinates": [[[-97.5752549, 35.5715724], [-97.5751199, 35.5715848], [-97.5751314, 35.5716677], [-97.5751393, 35.571667], [-97.5751505, 35.5717478], [-97.5752776, 35.5717361], [-97.5752549, 35.5715724]]]}, "properties": {"osm_id": 1435968172, "building": "yes", "name": "", "height": null, "height_m": null, "levels": null, "tract_id": "40109108402", "tract_name": "1084.02", "tags": {"building": "yes", "source": "microsoft/BuildingFootprints"}}}, {"type": "Feature", "geometry": {"type": "Polygon", "coordinates": [[[-97.575079, 35.5718645], [-97.5751054, 35.5720673], [-97.5752446, 35.5720553], [-97.5752278, 35.5719259], [-97.575253, 35.5719237], [-97.5752435, 35.5718504], [-97.575079, 35.5718645]]]}, "properties": {"osm_id": 1435968173, "building": "yes", "name": "", "height": null, "height_m": null, "levels": null, "tract_id": "40109108402", "tract_name": "1084.02", "tags": {"building": "yes", "source": "microsoft/BuildingFootprints"}}}, {"type": "Feature", "geometry": {"type": "Polygon", "coordinates": [[[-97.5752525, 35.5726383], [-97.5754247, 35.5726539], [-97.5754459, 35.5724987], [-97.5754141, 35.5724959], [-97.5754253, 35.572414], [-97.5751842, 35.5723921], [-97.5751739, 35.5724676], [-97.5752746, 35.5724767], [-97.5752525, 35.5726383]]]}, "properties": {"osm_id": 1435968174, "building": "yes", "name": "", "height": null, "height_m": null, "levels": null, "tract_id": "40109108402", "tract_name": "1084.02", "tags": {"building": "yes", "source": "microsoft/BuildingFootprints"}}}, {"type": "Feature", "geometry": {"type": "Polygon", "coordinates": [[[-97.5752242, 35.5728808], [-97.575426, 35.5729058], [-97.5754372, 35.5728461], [-97.5754031, 35.5728419], [-97.5754105, 35.5728025], [-97.575438, 35.5728059], [-97.575449, 35.5727473], [-97.5752878, 35.5727272], [-97.575295, 35.5726889], [-97.5752033, 35.5726775], [-97.5751851, 35.5727745], [-97.5752428, 35.5727816], [-97.5752242, 35.5728808]]]}, "properties": {"osm_id": 1435968175, "building": "yes", "name": "", "height": null, "height_m": null, "levels": null, "tract_id": "40109108402", "tract_name": "1084.02", "tags": {"building": "yes", "source": "microsoft/BuildingFootprints"}}}, {"type": "Feature", "geometry": {"type": "Polygon", "coordinates": [[[-97.574887, 35.5731799], [-97.5749416, 35.5732788], [-97.5751336, 35.5732087], [-97.5750428, 35.5730444], [-97.5749692, 35.5730713], [-97.5750053, 35.5731367], [-97.574887, 35.5731799]]]}, "properties": {"osm_id": 1435968176, "building": "yes", "name": "", "height": null, "height_m": null, "levels": null, "tract_id": "40109108402", "tract_name": "1084.02", "tags": {"building": "yes", "source": "microsoft/BuildingFootprints"}}}, {"type": "Feature", "geometry": {"type": "Polygon", "coordinates": [[[-97.5746818, 35.5737457], [-97.5747246, 35.5737956], [-97.574749, 35.5737818], [-97.5747805, 35.5738185], [-97.5747624, 35.5738288], [-97.5748127, 35.5738876], [-97.5749392, 35.573816], [-97.5748147, 35.5736704], [-97.5746818, 35.5737457]]]}, "properties": {"osm_id": 1435968177, "building": "yes", "name": "", "height": null, "height_m": null, "levels": null, "tract_id": "40109108402", "tract_name": "1084.02", "tags": {"building": "yes", "source": "microsoft/BuildingFootprints"}}}, {"type": "Feature", "geometry": {"type": "Polygon", "coordinates": [[[-97.5751414, 35.574087], [-97.5750316, 35.5741151], [-97.5750965, 35.5742829], [-97.5752137, 35.5742529], [-97.5752048, 35.57423], [-97.5752512, 35.5742182], [-97.5752274, 35.5741566], [-97.5751737, 35.5741704], [-97.5751414, 35.574087]]]}, "properties": {"osm_id": 1435968178, "building": "yes", "name": "", "height": null, "height_m": null, "levels": null, "tract_id": "40109108402", "tract_name": "1084.02", "tags": {"building": "yes", "source": "microsoft/BuildingFootprints"}}}, {"type": "Feature", "geometry": {"type": "Polygon", "coordinates": [[[-97.5753494, 35.5742805], [-97.5751955, 35.5742985], [-97.5752091, 35.5743754], [-97.5752406, 35.5743718], [-97.575249, 35.5744188], [-97.5752201, 35.5744222], [-97.5752333, 35.574497], [-97.5753883, 35.5744788], [-97.575383, 35.5744489], [-97.5754213, 35.5744444], [-97.5754096, 35.5743782], [-97.5753675, 35.5743831], [-97.5753494, 35.5742805]]]}, "properties": {"osm_id": 1435968179, "building": "yes", "name": "", "height": null, "height_m": null, "levels": null, "tract_id": "40109108402", "tract_name": "1084.02", "tags": {"building": "yes", "source": "microsoft/BuildingFootprints"}}}, {"type": "Feature", "geometry": {"type": "Polygon", "coordinates": [[[-97.5746346, 35.5744498], [-97.5745181, 35.5744479], [-97.5745163, 35.5745243], [-97.57446, 35.5745234], [-97.5744585, 35.5745866], [-97.5745159, 35.5745875], [-97.5745142, 35.5746606], [-97.5746536, 35.5746628], [-97.5746555, 35.5745832], [-97.5746314, 35.5745828], [-97.5746346, 35.5744498]]]}, "properties": {"osm_id": 1435968180, "building": "yes", "name": "", "height": null, "height_m": null, "levels": null, "tract_id": "40109108402", "tract_name": "1084.02", "tags": {"building": "yes", "source": "microsoft/BuildingFootprints"}}}, {"type": "Feature", "geometry": {"type": "Polygon", "coordinates": [[[-97.5743437, 35.5748593], [-97.5743437, 35.5749204], [-97.5745931, 35.5749204], [-97.5745931, 35.5747306], [-97.574451, 35.5747306], [-97.574451, 35.5748593], [-97.5743437, 35.5748593]]]}, "properties": {"osm_id": 1435968181, "building": "yes", "name": "", "height": null, "height_m": null, "levels": null, "tract_id": "40109108402", "tract_name": "1084.02", "tags": {"building": "yes", "source": "microsoft/BuildingFootprints"}}}, {"type": "Feature", "geometry": {"type": "Polygon", "coordinates": [[[-97.573725, 35.5749491], [-97.5738832, 35.574949], [-97.5738831, 35.5747341], [-97.5737249, 35.5747341], [-97.573725, 35.5749491]]]}, "properties": {"osm_id": 1435968182, "building": "yes", "name": "", "height": null, "height_m": null, "levels": null, "tract_id": "40109108402", "tract_name": "1084.02", "tags": {"building": "yes", "source": "microsoft/BuildingFootprints"}}}, {"type": "Feature", "geometry": {"type": "Polygon", "coordinates": [[[-97.5736794, 35.5750881], [-97.5736781, 35.5752103], [-97.5739608, 35.5752123], [-97.5739622, 35.5750782], [-97.5738136, 35.5750772], [-97.5738135, 35.5750891], [-97.5736794, 35.5750881]]]}, "properties": {"osm_id": 1435968183, "building": "yes", "name": "", "height": null, "height_m": null, "levels": null, "tract_id": "40109108402", "tract_name": "1084.02", "tags": {"building": "yes", "source": "microsoft/BuildingFootprints"}}}, {"type": "Feature", "geometry": {"type": "Polygon", "coordinates": [[[-97.5740432, 35.5751958], [-97.574003, 35.575196], [-97.5740038, 35.5752702], [-97.574221, 35.5752687], [-97.5742192, 35.5750877], [-97.5740421, 35.5750889], [-97.5740432, 35.5751958]]]}, "properties": {"osm_id": 1435968184, "building": "yes", "name": "", "height": null, "height_m": null, "levels": null, "tract_id": "40109108402", "tract_name": "1084.02", "tags": {"building": "yes", "source": "microsoft/BuildingFootprints"}}}, {"type": "Feature", "geometry": {"type": "Polygon", "coordinates": [[[-97.5742547, 35.5752701], [-97.574362, 35.5752711], [-97.5743628, 35.5752177], [-97.5744765, 35.5752188], [-97.5744784, 35.5750956], [-97.5742799, 35.5750936], [-97.5742784, 35.5751961], [-97.5742558, 35.5751959], [-97.5742547, 35.5752701]]]}, "properties": {"osm_id": 1435968185, "building": "yes", "name": "", "height": null, "height_m": null, "levels": null, "tract_id": "40109108402", "tract_name": "1084.02", "tags": {"building": "yes", "source": "microsoft/BuildingFootprints"}}}, {"type": "Feature", "geometry": {"type": "Polygon", "coordinates": [[[-97.5747274, 35.575265], [-97.5747257, 35.575145], [-97.574715, 35.5751451], [-97.5747141, 35.5750851], [-97.5746015, 35.5750861], [-97.5746026, 35.575168], [-97.5745222, 35.5751687], [-97.5745235, 35.5752669], [-97.5747274, 35.575265]]]}, "properties": {"osm_id": 1435968186, "building": "yes", "name": "", "height": null, "height_m": null, "levels": null, "tract_id": "40109108402", "tract_name": "1084.02", "tags": {"building": "yes", "source": "microsoft/BuildingFootprints"}}}, {"type": "Feature", "geometry": {"type": "Polygon", "coordinates": [[[-97.5737011, 35.5756735], [-97.5739666, 35.5756768], [-97.5739689, 35.5755546], [-97.5737034, 35.5755513], [-97.5737011, 35.5756735]]]}, "properties": {"osm_id": 1435968187, "building": "yes", "name": "", "height": null, "height_m": null, "levels": null, "tract_id": "40109108402", "tract_name": "1084.02", "tags": {"building": "yes", "source": "microsoft/BuildingFootprints"}}}, {"type": "Feature", "geometry": {"type": "Polygon", "coordinates": [[[-97.5740167, 35.575525], [-97.5740158, 35.5756559], [-97.5742116, 35.5756569], [-97.5742128, 35.5754889], [-97.574135, 35.5754885], [-97.5741348, 35.5755256], [-97.5740167, 35.575525]]]}, "properties": {"osm_id": 1435968188, "building": "yes", "name": "", "height": null, "height_m": null, "levels": null, "tract_id": "40109108402", "tract_name": "1084.02", "tags": {"building": "yes", "source": "microsoft/BuildingFootprints"}}}, {"type": "Feature", "geometry": {"type": "Polygon", "coordinates": [[[-97.5744685, 35.5756661], [-97.5746696, 35.5756691], [-97.5746724, 35.575547], [-97.5746483, 35.5755466], [-97.5746493, 35.575503], [-97.574601, 35.5755023], [-97.5746015, 35.5754826], [-97.5743253, 35.5754785], [-97.5743236, 35.5755504], [-97.5744711, 35.5755527], [-97.5744685, 35.5756661]]]}, "properties": {"osm_id": 1435968189, "building": "yes", "name": "", "height": null, "height_m": null, "levels": null, "tract_id": "40109108402", "tract_name": "1084.02", "tags": {"building": "yes", "source": "microsoft/BuildingFootprints"}}}, {"type": "Feature", "geometry": {"type": "Polygon", "coordinates": [[[-97.574668, 35.5758865], [-97.5746631, 35.5757295], [-97.574564, 35.5757315], [-97.5745688, 35.5758885], [-97.574668, 35.5758865]]]}, "properties": {"osm_id": 1435968190, "building": "yes", "name": "", "height": null, "height_m": null, "levels": null, "tract_id": "40109108402", "tract_name": "1084.02", "tags": {"building": "yes", "source": "microsoft/BuildingFootprints"}}}, {"type": "Feature", "geometry": {"type": "Polygon", "coordinates": [[[-97.5745599, 35.5760942], [-97.5746698, 35.5760961], [-97.5746739, 35.5759347], [-97.5745425, 35.5759325], [-97.5745413, 35.5759826], [-97.5745305, 35.5759825], [-97.5745287, 35.5760555], [-97.5745609, 35.5760561], [-97.5745599, 35.5760942]]]}, "properties": {"osm_id": 1435968191, "building": "yes", "name": "", "height": null, "height_m": null, "levels": null, "tract_id": "40109108402", "tract_name": "1084.02", "tags": {"building": "yes", "source": "microsoft/BuildingFootprints"}}}, {"type": "Feature", "geometry": {"type": "Polygon", "coordinates": [[[-97.5736279, 35.5760593], [-97.5737164, 35.5760586], [-97.5737143, 35.5758797], [-97.573533, 35.5758811], [-97.5735343, 35.5759946], [-97.5736271, 35.5759939], [-97.5736279, 35.5760593]]]}, "properties": {"osm_id": 1435968192, "building": "yes", "name": "", "height": null, "height_m": null, "levels": null, "tract_id": "40109108402", "tract_name": "1084.02", "tags": {"building": "yes", "source": "microsoft/BuildingFootprints"}}}, {"type": "Feature", "geometry": {"type": "Polygon", "coordinates": [[[-97.5737444, 35.5759843], [-97.5738291, 35.575983], [-97.5738309, 35.5760594], [-97.5739231, 35.576058], [-97.5739193, 35.5758944], [-97.5737424, 35.5758971], [-97.5737444, 35.5759843]]]}, "properties": {"osm_id": 1435968193, "building": "yes", "name": "", "height": null, "height_m": null, "levels": null, "tract_id": "40109108402", "tract_name": "1084.02", "tags": {"building": "yes", "source": "microsoft/BuildingFootprints"}}}, {"type": "Feature", "geometry": {"type": "Polygon", "coordinates": [[[-97.5739475, 35.5759942], [-97.574045, 35.5759926], [-97.5740467, 35.576059], [-97.5741406, 35.5760574], [-97.5741366, 35.5759026], [-97.5739452, 35.5759058], [-97.5739475, 35.5759942]]]}, "properties": {"osm_id": 1435968194, "building": "yes", "name": "", "height": null, "height_m": null, "levels": null, "tract_id": "40109108402", "tract_name": "1084.02", "tags": {"building": "yes", "source": "microsoft/BuildingFootprints"}}}, {"type": "Feature", "geometry": {"type": "Polygon", "coordinates": [[[-97.5742716, 35.5759001], [-97.5741644, 35.5758988], [-97.5741628, 35.5759839], [-97.5742647, 35.5759851], [-97.5742635, 35.5760549], [-97.5743429, 35.5760559], [-97.5743467, 35.5758465], [-97.5742726, 35.5758456], [-97.5742716, 35.5759001]]]}, "properties": {"osm_id": 1435968195, "building": "yes", "name": "", "height": null, "height_m": null, "levels": null, "tract_id": "40109108402", "tract_name": "1084.02", "tags": {"building": "yes", "source": "microsoft/BuildingFootprints"}}}, {"type": "Feature", "geometry": {"type": "Polygon", "coordinates": [[[-97.5732113, 35.5764599], [-97.5734339, 35.5764622], [-97.5734349, 35.5764002], [-97.5733947, 35.5763998], [-97.5733959, 35.5763179], [-97.5732914, 35.5763168], [-97.5732902, 35.5763909], [-97.5732124, 35.5763901], [-97.5732113, 35.5764599]]]}, "properties": {"osm_id": 1435968196, "building": "yes", "name": "", "height": null, "height_m": null, "levels": null, "tract_id": "40109108402", "tract_name": "1084.02", "tags": {"building": "yes", "source": "microsoft/BuildingFootprints"}}}, {"type": "Feature", "geometry": {"type": "Polygon", "coordinates": [[[-97.5732062, 35.576583], [-97.5732049, 35.5766593], [-97.5733712, 35.5766611], [-97.5733737, 35.5765063], [-97.5732547, 35.576505], [-97.5732534, 35.5765835], [-97.5732062, 35.576583]]]}, "properties": {"osm_id": 1435968197, "building": "yes", "name": "", "height": null, "height_m": null, "levels": null, "tract_id": "40109108402", "tract_name": "1084.02", "tags": {"building": "yes", "source": "microsoft/BuildingFootprints"}}}, {"type": "Feature", "geometry": {"type": "Polygon", "coordinates": [[[-97.573396, 35.57675], [-97.5733947, 35.576689], [-97.5732499, 35.576691], [-97.5732512, 35.5767542], [-97.5732056, 35.5767549], [-97.5732073, 35.5768334], [-97.5733896, 35.5768308], [-97.5733879, 35.5767501], [-97.573396, 35.57675]]]}, "properties": {"osm_id": 1435968198, "building": "yes", "name": "", "height": null, "height_m": null, "levels": null, "tract_id": "40109108402", "tract_name": "1084.02", "tags": {"building": "yes", "source": "microsoft/BuildingFootprints"}}}, {"type": "Feature", "geometry": {"type": "Polygon", "coordinates": [[[-97.5732052, 35.5770064], [-97.573409, 35.5770089], [-97.5734119, 35.5768574], [-97.5732912, 35.5768559], [-97.57329, 35.5769192], [-97.5732069, 35.5769181], [-97.5732052, 35.5770064]]]}, "properties": {"osm_id": 1435968199, "building": "yes", "name": "", "height": null, "height_m": null, "levels": null, "tract_id": "40109108402", "tract_name": "1084.02", "tags": {"building": "yes", "source": "microsoft/BuildingFootprints"}}}, {"type": "Feature", "geometry": {"type": "Polygon", "coordinates": [[[-97.5733887, 35.5770525], [-97.5732439, 35.5770537], [-97.5732447, 35.5771126], [-97.5732044, 35.577113], [-97.5732055, 35.5771937], [-97.5733584, 35.5771923], [-97.5733572, 35.5771073], [-97.5733894, 35.577107], [-97.5733887, 35.5770525]]]}, "properties": {"osm_id": 1435968200, "building": "yes", "name": "", "height": null, "height_m": null, "levels": null, "tract_id": "40109108402", "tract_name": "1084.02", "tags": {"building": "yes", "source": "microsoft/BuildingFootprints"}}}, {"type": "Feature", "geometry": {"type": "Polygon", "coordinates": [[[-97.5731981, 35.5773853], [-97.5734099, 35.5773813], [-97.5734078, 35.5773083], [-97.5733193, 35.57731], [-97.5733169, 35.5772282], [-97.5731936, 35.5772305], [-97.5731981, 35.5773853]]]}, "properties": {"osm_id": 1435968303, "building": "yes", "name": "", "height": null, "height_m": null, "levels": null, "tract_id": "40109108402", "tract_name": "1084.02", "tags": {"building": "yes", "source": "microsoft/BuildingFootprints"}}}, {"type": "Feature", "geometry": {"type": "Polygon", "coordinates": [[[-97.573721, 35.5772512], [-97.5736433, 35.5772502], [-97.5736438, 35.5772262], [-97.5736062, 35.5772257], [-97.5736057, 35.5772541], [-97.5735279, 35.5772531], [-97.5735263, 35.5773359], [-97.5737193, 35.5773385], [-97.573721, 35.5772512]]]}, "properties": {"osm_id": 1435968304, "building": "yes", "name": "", "height": null, "height_m": null, "levels": null, "tract_id": "40109108402", "tract_name": "1084.02", "tags": {"building": "yes", "source": "microsoft/BuildingFootprints"}}}, {"type": "Feature", "geometry": {"type": "Polygon", "coordinates": [[[-97.5739586, 35.5773353], [-97.5739553, 35.5772493], [-97.573898, 35.5772508], [-97.573897, 35.5772224], [-97.573839, 35.5772239], [-97.5738399, 35.5772489], [-97.5737622, 35.5772509], [-97.5737657, 35.5773402], [-97.5739586, 35.5773353]]]}, "properties": {"osm_id": 1435968305, "building": "yes", "name": "", "height": null, "height_m": null, "levels": null, "tract_id": "40109108402", "tract_name": "1084.02", "tags": {"building": "yes", "source": "microsoft/BuildingFootprints"}}}, {"type": "Feature", "geometry": {"type": "Polygon", "coordinates": [[[-97.5741931, 35.5772828], [-97.5741911, 35.577177], [-97.5741365, 35.5771777], [-97.5741358, 35.5771406], [-97.5740751, 35.5771413], [-97.5740756, 35.5771653], [-97.5739995, 35.5771662], [-97.5740026, 35.5773385], [-97.5740895, 35.5773375], [-97.5740885, 35.5772841], [-97.5741931, 35.5772828]]]}, "properties": {"osm_id": 1435968306, "building": "yes", "name": "", "height": null, "height_m": null, "levels": null, "tract_id": "40109108402", "tract_name": "1084.02", "tags": {"building": "yes", "source": "microsoft/BuildingFootprints"}}}, {"type": "Feature", "geometry": {"type": "Polygon", "coordinates": [[[-97.5742257, 35.5773001], [-97.5743436, 35.5773027], [-97.5743421, 35.5773452], [-97.5744306, 35.5773472], [-97.5744357, 35.5771957], [-97.5742293, 35.5771911], [-97.5742257, 35.5773001]]]}, "properties": {"osm_id": 1435968307, "building": "yes", "name": "", "height": null, "height_m": null, "levels": null, "tract_id": "40109108402", "tract_name": "1084.02", "tags": {"building": "yes", "source": "microsoft/BuildingFootprints"}}}, {"type": "Feature", "geometry": {"type": "Polygon", "coordinates": [[[-97.5744968, 35.577355], [-97.5746078, 35.577356], [-97.5746111, 35.5771226], [-97.5745002, 35.5771216], [-97.5744968, 35.577355]]]}, "properties": {"osm_id": 1435968308, "building": "yes", "name": "", "height": null, "height_m": null, "levels": null, "tract_id": "40109108402", "tract_name": "1084.02", "tags": {"building": "yes", "source": "microsoft/BuildingFootprints"}}}, {"type": "Feature", "geometry": {"type": "Polygon", "coordinates": [[[-97.5746714, 35.5770157], [-97.5746729, 35.5769459], [-97.5746005, 35.5769449], [-97.5746021, 35.5768707], [-97.574476, 35.576869], [-97.574473, 35.5770129], [-97.5746714, 35.5770157]]]}, "properties": {"osm_id": 1435968309, "building": "yes", "name": "", "height": null, "height_m": null, "levels": null, "tract_id": "40109108402", "tract_name": "1084.02", "tags": {"building": "yes", "source": "microsoft/BuildingFootprints"}}}, {"type": "Feature", "geometry": {"type": "Polygon", "coordinates": [[[-97.5744932, 35.576707], [-97.574494, 35.5767779], [-97.5744484, 35.5767782], [-97.5744492, 35.5768502], [-97.5746719, 35.5768486], [-97.5746711, 35.5767788], [-97.5745969, 35.5767793], [-97.5745961, 35.5767063], [-97.5744932, 35.576707]]]}, "properties": {"osm_id": 1435968310, "building": "yes", "name": "", "height": null, "height_m": null, "levels": null, "tract_id": "40109108402", "tract_name": "1084.02", "tags": {"building": "yes", "source": "microsoft/BuildingFootprints"}}}, {"type": "Feature", "geometry": {"type": "Polygon", "coordinates": [[[-97.5745662, 35.5766725], [-97.5746707, 35.576674], [-97.5746743, 35.5765126], [-97.5745697, 35.5765111], [-97.5745662, 35.5766725]]]}, "properties": {"osm_id": 1435968311, "building": "yes", "name": "", "height": null, "height_m": null, "levels": null, "tract_id": "40109108402", "tract_name": "1084.02", "tags": {"building": "yes", "source": "microsoft/BuildingFootprints"}}}, {"type": "Feature", "geometry": {"type": "Polygon", "coordinates": [[[-97.574462, 35.5763642], [-97.5745263, 35.5763643], [-97.5745262, 35.5764014], [-97.5745637, 35.5764015], [-97.5745635, 35.576467], [-97.5746815, 35.5764673], [-97.5746818, 35.5763974], [-97.5746576, 35.5763974], [-97.574658, 35.5763058], [-97.5744622, 35.5763053], [-97.574462, 35.5763642]]]}, "properties": {"osm_id": 1435968312, "building": "yes", "name": "", "height": null, "height_m": null, "levels": null, "tract_id": "40109108402", "tract_name": "1084.02", "tags": {"building": "yes", "source": "microsoft/BuildingFootprints"}}}, {"type": "Feature", "geometry": {"type": "Polygon", "coordinates": [[[-97.5741672, 35.5763365], [-97.5741691, 35.5764751], [-97.5743487, 35.5764735], [-97.5743476, 35.5763906], [-97.5742645, 35.5763913], [-97.5742638, 35.5763356], [-97.5741672, 35.5763365]]]}, "properties": {"osm_id": 1435968313, "building": "yes", "name": "", "height": null, "height_m": null, "levels": null, "tract_id": "40109108402", "tract_name": "1084.02", "tags": {"building": "yes", "source": "microsoft/BuildingFootprints"}}}, {"type": "Feature", "geometry": {"type": "Polygon", "coordinates": [[[-97.5740529, 35.5763342], [-97.5740534, 35.5763986], [-97.5739596, 35.5763992], [-97.5739603, 35.5764831], [-97.5741427, 35.5764821], [-97.5741414, 35.5763337], [-97.5740529, 35.5763342]]]}, "properties": {"osm_id": 1435968314, "building": "yes", "name": "", "height": null, "height_m": null, "levels": null, "tract_id": "40109108402", "tract_name": "1084.02", "tags": {"building": "yes", "source": "microsoft/BuildingFootprints"}}}, {"type": "Feature", "geometry": {"type": "Polygon", "coordinates": [[[-97.5737491, 35.5763383], [-97.5737534, 35.5765041], [-97.5738107, 35.5765031], [-97.57381, 35.5764758], [-97.5739306, 35.5764737], [-97.5739285, 35.576392], [-97.5738417, 35.5763935], [-97.5738402, 35.5763368], [-97.5737491, 35.5763383]]]}, "properties": {"osm_id": 1435968315, "building": "yes", "name": "", "height": null, "height_m": null, "levels": null, "tract_id": "40109108402", "tract_name": "1084.02", "tags": {"building": "yes", "source": "microsoft/BuildingFootprints"}}}, {"type": "Feature", "geometry": {"type": "Polygon", "coordinates": [[[-97.5737253, 35.5764135], [-97.5736251, 35.5764117], [-97.5736267, 35.5763518], [-97.5735302, 35.5763501], [-97.5735263, 35.576494], [-97.573723, 35.5764975], [-97.5737253, 35.5764135]]]}, "properties": {"osm_id": 1435968316, "building": "yes", "name": "", "height": null, "height_m": null, "levels": null, "tract_id": "40109108402", "tract_name": "1084.02", "tags": {"building": "yes", "source": "microsoft/BuildingFootprints"}}}, {"type": "Feature", "geometry": {"type": "Polygon", "coordinates": [[[-97.5734658, 35.5747764], [-97.5734108, 35.5746072], [-97.5732704, 35.5746374], [-97.5733254, 35.5748066], [-97.5734658, 35.5747764]]]}, "properties": {"osm_id": 1435968317, "building": "yes", "name": "", "height": null, "height_m": null, "levels": null, "tract_id": "40109108402", "tract_name": "1084.02", "tags": {"building": "yes", "source": "microsoft/BuildingFootprints"}}}, {"type": "Feature", "geometry": {"type": "Polygon", "coordinates": [[[-97.5732134, 35.574985], [-97.5734348, 35.5749814], [-97.5734333, 35.5749203], [-97.5734049, 35.5749208], [-97.5734032, 35.5748532], [-97.5732788, 35.5748552], [-97.5732802, 35.5749141], [-97.5732117, 35.5749152], [-97.5732134, 35.574985]]]}, "properties": {"osm_id": 1435968318, "building": "yes", "name": "", "height": null, "height_m": null, "levels": null, "tract_id": "40109108402", "tract_name": "1084.02", "tags": {"building": "yes", "source": "microsoft/BuildingFootprints"}}}, {"type": "Feature", "geometry": {"type": "Polygon", "coordinates": [[[-97.5732392, 35.5750203], [-97.5732372, 35.5751621], [-97.5733901, 35.5751635], [-97.5733909, 35.5751078], [-97.5733518, 35.5751074], [-97.573353, 35.5750213], [-97.5732392, 35.5750203]]]}, "properties": {"osm_id": 1435968319, "building": "yes", "name": "", "height": null, "height_m": null, "levels": null, "tract_id": "40109108402", "tract_name": "1084.02", "tags": {"building": "yes", "source": "microsoft/BuildingFootprints"}}}, {"type": "Feature", "geometry": {"type": "Polygon", "coordinates": [[[-97.5733259, 35.5751887], [-97.573232, 35.5751877], [-97.5732294, 35.5753591], [-97.5733233, 35.57536], [-97.5733259, 35.5751887]]]}, "properties": {"osm_id": 1435968320, "building": "yes", "name": "", "height": null, "height_m": null, "levels": null, "tract_id": "40109108402", "tract_name": "1084.02", "tags": {"building": "yes", "source": "microsoft/BuildingFootprints"}}}, {"type": "Feature", "geometry": {"type": "Polygon", "coordinates": [[[-97.5733959, 35.5753857], [-97.5732538, 35.5753882], [-97.573256, 35.5754732], [-97.5732228, 35.5754738], [-97.5732247, 35.5755448], [-97.5733694, 35.5755423], [-97.5733685, 35.5755074], [-97.5733991, 35.5755069], [-97.5733959, 35.5753857]]]}, "properties": {"osm_id": 1435968321, "building": "yes", "name": "", "height": null, "height_m": null, "levels": null, "tract_id": "40109108402", "tract_name": "1084.02", "tags": {"building": "yes", "source": "microsoft/BuildingFootprints"}}}, {"type": "Feature", "geometry": {"type": "Polygon", "coordinates": [[[-97.5734081, 35.5755753], [-97.5732847, 35.5755746], [-97.5732841, 35.575651], [-97.5732197, 35.5756507], [-97.5732192, 35.5757227], [-97.5734069, 35.5757236], [-97.5734081, 35.5755753]]]}, "properties": {"osm_id": 1435968322, "building": "yes", "name": "", "height": null, "height_m": null, "levels": null, "tract_id": "40109108402", "tract_name": "1084.02", "tags": {"building": "yes", "source": "microsoft/BuildingFootprints"}}}, {"type": "Feature", "geometry": {"type": "Polygon", "coordinates": [[[-97.5734089, 35.5757634], [-97.5733017, 35.5757608], [-97.573299, 35.5758349], [-97.5732229, 35.575833], [-97.5732203, 35.5759028], [-97.5734358, 35.575908], [-97.5734382, 35.5758405], [-97.5734061, 35.5758397], [-97.5734089, 35.5757634]]]}, "properties": {"osm_id": 1435968323, "building": "yes", "name": "", "height": null, "height_m": null, "levels": null, "tract_id": "40109108402", "tract_name": "1084.02", "tags": {"building": "yes", "source": "microsoft/BuildingFootprints"}}}, {"type": "Feature", "geometry": {"type": "Polygon", "coordinates": [[[-97.5733885, 35.5759445], [-97.5732206, 35.5759464], [-97.5732234, 35.5761056], [-97.5733601, 35.5761041], [-97.5733585, 35.5760125], [-97.5733897, 35.5760121], [-97.5733885, 35.5759445]]]}, "properties": {"osm_id": 1435968324, "building": "yes", "name": "", "height": null, "height_m": null, "levels": null, "tract_id": "40109108402", "tract_name": "1084.02", "tags": {"building": "yes", "source": "microsoft/BuildingFootprints"}}}, {"type": "Feature", "geometry": {"type": "Polygon", "coordinates": [[[-97.5707591, 35.5748501], [-97.5708434, 35.5748503], [-97.5708437, 35.5747748], [-97.570915, 35.574775], [-97.5709157, 35.5746201], [-97.5707387, 35.5746196], [-97.570738, 35.5747606], [-97.5707595, 35.5747606], [-97.5707591, 35.5748501]]]}, "properties": {"osm_id": 1435968325, "building": "yes", "name": "", "height": null, "height_m": null, "levels": null, "tract_id": "40109108402", "tract_name": "1084.02", "tags": {"building": "yes", "source": "microsoft/BuildingFootprints"}}}, {"type": "Feature", "geometry": {"type": "Polygon", "coordinates": [[[-97.5709448, 35.5746129], [-97.5709429, 35.5747948], [-97.5711279, 35.5747961], [-97.5711294, 35.5746565], [-97.5710624, 35.574656], [-97.5710629, 35.5746137], [-97.5709448, 35.5746129]]]}, "properties": {"osm_id": 1435968326, "building": "yes", "name": "", "height": null, "height_m": null, "levels": null, "tract_id": "40109108402", "tract_name": "1084.02", "tags": {"building": "yes", "source": "microsoft/BuildingFootprints"}}}, {"type": "Feature", "geometry": {"type": "Polygon", "coordinates": [[[-97.5713344, 35.5746131], [-97.5712325, 35.5746142], [-97.5712334, 35.5746731], [-97.5711476, 35.574674], [-97.5711494, 35.5747874], [-97.5711789, 35.5747871], [-97.5711794, 35.5748176], [-97.5712545, 35.5748168], [-97.571254, 35.5747885], [-97.5713371, 35.5747876], [-97.5713344, 35.5746131]]]}, "properties": {"osm_id": 1435968327, "building": "yes", "name": "", "height": null, "height_m": null, "levels": null, "tract_id": "40109108402", "tract_name": "1084.02", "tags": {"building": "yes", "source": "microsoft/BuildingFootprints"}}}, {"type": "Feature", "geometry": {"type": "Polygon", "coordinates": [[[-97.5713595, 35.5748218], [-97.5715419, 35.5748231], [-97.5715441, 35.5746137], [-97.5714315, 35.5746128], [-97.5714308, 35.5746748], [-97.5713611, 35.5746743], [-97.5713595, 35.5748218]]]}, "properties": {"osm_id": 1435968328, "building": "yes", "name": "", "height": null, "height_m": null, "levels": null, "tract_id": "40109108402", "tract_name": "1084.02", "tags": {"building": "yes", "source": "microsoft/BuildingFootprints"}}}, {"type": "Feature", "geometry": {"type": "Polygon", "coordinates": [[[-97.5717661, 35.5747165], [-97.5719508, 35.5747358], [-97.5719617, 35.5746663], [-97.5719222, 35.5746621], [-97.5719289, 35.5746192], [-97.5716862, 35.5745939], [-97.5716689, 35.5747033], [-97.5717032, 35.5747069], [-97.571699, 35.5747335], [-97.5717623, 35.5747402], [-97.5717661, 35.5747165]]]}, "properties": {"osm_id": 1435968329, "building": "yes", "name": "", "height": null, "height_m": null, "levels": null, "tract_id": "40109108402", "tract_name": "1084.02", "tags": {"building": "yes", "source": "microsoft/BuildingFootprints"}}}, {"type": "Feature", "geometry": {"type": "Polygon", "coordinates": [[[-97.5718919, 35.5747687], [-97.5717268, 35.5747667], [-97.5717251, 35.5748605], [-97.5717454, 35.5748607], [-97.5717443, 35.5749218], [-97.5719534, 35.5749244], [-97.5719552, 35.5748284], [-97.5718908, 35.5748276], [-97.5718919, 35.5747687]]]}, "properties": {"osm_id": 1435968330, "building": "yes", "name": "", "height": null, "height_m": null, "levels": null, "tract_id": "40109108402", "tract_name": "1084.02", "tags": {"building": "yes", "source": "microsoft/BuildingFootprints"}}}, {"type": "Feature", "geometry": {"type": "Polygon", "coordinates": [[[-97.5718398, 35.5749431], [-97.5716923, 35.5749411], [-97.5716891, 35.5750915], [-97.5719519, 35.5750952], [-97.5719536, 35.5750145], [-97.5718383, 35.5750129], [-97.5718398, 35.5749431]]]}, "properties": {"osm_id": 1435968331, "building": "yes", "name": "", "height": null, "height_m": null, "levels": null, "tract_id": "40109108402", "tract_name": "1084.02", "tags": {"building": "yes", "source": "microsoft/BuildingFootprints"}}}, {"type": "Feature", "geometry": {"type": "Polygon", "coordinates": [[[-97.5717028, 35.5751227], [-97.5717045, 35.5752623], [-97.5719057, 35.5752607], [-97.5719051, 35.5752171], [-97.5719427, 35.5752168], [-97.5719415, 35.5751208], [-97.5717028, 35.5751227]]]}, "properties": {"osm_id": 1435968332, "building": "yes", "name": "", "height": null, "height_m": null, "levels": null, "tract_id": "40109108402", "tract_name": "1084.02", "tags": {"building": "yes", "source": "microsoft/BuildingFootprints"}}}, {"type": "Feature", "geometry": {"type": "Polygon", "coordinates": [[[-97.571725, 35.5752891], [-97.571726, 35.5754374], [-97.5719449, 35.5754364], [-97.5719439, 35.5752881], [-97.571725, 35.5752891]]]}, "properties": {"osm_id": 1435968333, "building": "yes", "name": "", "height": null, "height_m": null, "levels": null, "tract_id": "40109108402", "tract_name": "1084.02", "tags": {"building": "yes", "source": "microsoft/BuildingFootprints"}}}, {"type": "Feature", "geometry": {"type": "Polygon", "coordinates": [[[-97.5716565, 35.575461], [-97.5716537, 35.5756084], [-97.5718779, 35.5756112], [-97.5718793, 35.575538], [-97.5719447, 35.5755388], [-97.5719461, 35.5754646], [-97.5716565, 35.575461]]]}, "properties": {"osm_id": 1435968334, "building": "yes", "name": "", "height": null, "height_m": null, "levels": null, "tract_id": "40109108402", "tract_name": "1084.02", "tags": {"building": "yes", "source": "microsoft/BuildingFootprints"}}}, {"type": "Feature", "geometry": {"type": "Polygon", "coordinates": [[[-97.5711014, 35.5748921], [-97.5707995, 35.5748961], [-97.5708009, 35.5749668], [-97.5709001, 35.5749655], [-97.5709013, 35.5750265], [-97.5710665, 35.5750244], [-97.5710649, 35.574945], [-97.5711024, 35.5749445], [-97.5711014, 35.5748921]]]}, "properties": {"osm_id": 1435968335, "building": "yes", "name": "", "height": null, "height_m": null, "levels": null, "tract_id": "40109108402", "tract_name": "1084.02", "tags": {"building": "yes", "source": "microsoft/BuildingFootprints"}}}, {"type": "Feature", "geometry": {"type": "Polygon", "coordinates": [[[-97.57086, 35.5751505], [-97.5708618, 35.5752508], [-97.5708887, 35.5752505], [-97.5708898, 35.5753138], [-97.5710518, 35.5753118], [-97.5710502, 35.5752224], [-97.5711081, 35.5752217], [-97.5711067, 35.5751476], [-97.57086, 35.5751505]]]}, "properties": {"osm_id": 1435968336, "building": "yes", "name": "", "height": null, "height_m": null, "levels": null, "tract_id": "40109108402", "tract_name": "1084.02", "tags": {"building": "yes", "source": "microsoft/BuildingFootprints"}}}, {"type": "Feature", "geometry": {"type": "Polygon", "coordinates": [[[-97.5710117, 35.5754882], [-97.5711796, 35.5754865], [-97.5711773, 35.5753338], [-97.570937, 35.5753362], [-97.570938, 35.5754052], [-97.5710105, 35.5754044], [-97.5710117, 35.5754882]]]}, "properties": {"osm_id": 1435968337, "building": "yes", "name": "", "height": null, "height_m": null, "levels": null, "tract_id": "40109108402", "tract_name": "1084.02", "tags": {"building": "yes", "source": "microsoft/BuildingFootprints"}}}, {"type": "Feature", "geometry": {"type": "Polygon", "coordinates": [[[-97.5711398, 35.5756034], [-97.5710797, 35.5756048], [-97.5710781, 35.575559], [-97.5709414, 35.5755621], [-97.5709488, 35.5757736], [-97.5711096, 35.5757699], [-97.5711074, 35.5757067], [-97.5711433, 35.5757058], [-97.5711398, 35.5756034]]]}, "properties": {"osm_id": 1435968338, "building": "yes", "name": "", "height": null, "height_m": null, "levels": null, "tract_id": "40109108402", "tract_name": "1084.02", "tags": {"building": "yes", "source": "microsoft/BuildingFootprints"}}}, {"type": "Feature", "geometry": {"type": "Polygon", "coordinates": [[[-97.5713206, 35.5755459], [-97.5711758, 35.575547], [-97.5711761, 35.5755776], [-97.571144, 35.5755779], [-97.5711463, 35.5757633], [-97.5713233, 35.5757618], [-97.5713206, 35.5755459]]]}, "properties": {"osm_id": 1435968339, "building": "yes", "name": "", "height": null, "height_m": null, "levels": null, "tract_id": "40109108402", "tract_name": "1084.02", "tags": {"building": "yes", "source": "microsoft/BuildingFootprints"}}}, {"type": "Feature", "geometry": {"type": "Polygon", "coordinates": [[[-97.5715376, 35.5755384], [-97.5713552, 35.5755407], [-97.5713594, 35.5757632], [-97.5715418, 35.5757609], [-97.5715376, 35.5755384]]]}, "properties": {"osm_id": 1435968340, "building": "yes", "name": "", "height": null, "height_m": null, "levels": null, "tract_id": "40109108402", "tract_name": "1084.02", "tags": {"building": "yes", "source": "microsoft/BuildingFootprints"}}}, {"type": "Feature", "geometry": {"type": "Polygon", "coordinates": [[[-97.5716499, 35.5756276], [-97.5716501, 35.5756952], [-97.5717279, 35.575695], [-97.5717282, 35.5757801], [-97.5718586, 35.5757798], [-97.5718584, 35.5757274], [-97.5719415, 35.5757273], [-97.5719412, 35.5756269], [-97.5716499, 35.5756276]]]}, "properties": {"osm_id": 1435968341, "building": "yes", "name": "", "height": null, "height_m": null, "levels": null, "tract_id": "40109108402", "tract_name": "1084.02", "tags": {"building": "yes", "source": "microsoft/BuildingFootprints"}}}, {"type": "Feature", "geometry": {"type": "Polygon", "coordinates": [[[-97.5726634, 35.5750374], [-97.5728742, 35.5750395], [-97.572876, 35.5749173], [-97.5726652, 35.5749152], [-97.5726634, 35.5750374]]]}, "properties": {"osm_id": 1435968342, "building": "yes", "name": "", "height": null, "height_m": null, "levels": null, "tract_id": "40109108402", "tract_name": "1084.02", "tags": {"building": "yes", "source": "microsoft/BuildingFootprints"}}}, {"type": "Feature", "geometry": {"type": "Polygon", "coordinates": [[[-97.5728822, 35.5750627], [-97.5726768, 35.5750596], [-97.5726734, 35.5752101], [-97.5728304, 35.5752125], [-97.5728319, 35.5751514], [-97.5728801, 35.5751521], [-97.5728822, 35.5750627]]]}, "properties": {"osm_id": 1435968343, "building": "yes", "name": "", "height": null, "height_m": null, "levels": null, "tract_id": "40109108402", "tract_name": "1084.02", "tags": {"building": "yes", "source": "microsoft/BuildingFootprints"}}}, {"type": "Feature", "geometry": {"type": "Polygon", "coordinates": [[[-97.5726444, 35.5753806], [-97.5728777, 35.5753839], [-97.5728791, 35.5753163], [-97.5727986, 35.5753152], [-97.5728004, 35.5752323], [-97.5726476, 35.5752302], [-97.5726444, 35.5753806]]]}, "properties": {"osm_id": 1435968344, "building": "yes", "name": "", "height": null, "height_m": null, "levels": null, "tract_id": "40109108402", "tract_name": "1084.02", "tags": {"building": "yes", "source": "microsoft/BuildingFootprints"}}}, {"type": "Feature", "geometry": {"type": "Polygon", "coordinates": [[[-97.5726323, 35.5755474], [-97.5728076, 35.5755498], [-97.5728091, 35.5754787], [-97.5728777, 35.5754797], [-97.5728792, 35.5754099], [-97.5726282, 35.5754065], [-97.5726273, 35.5754501], [-97.5726343, 35.5754502], [-97.5726323, 35.5755474]]]}, "properties": {"osm_id": 1435968345, "building": "yes", "name": "", "height": null, "height_m": null, "levels": null, "tract_id": "40109108402", "tract_name": "1084.02", "tags": {"building": "yes", "source": "microsoft/BuildingFootprints"}}}, {"type": "Feature", "geometry": {"type": "Polygon", "coordinates": [[[-97.572651, 35.5757208], [-97.5728736, 35.5757236], [-97.5728751, 35.5756407], [-97.5728429, 35.5756403], [-97.5728441, 35.575577], [-97.5726537, 35.5755747], [-97.572651, 35.5757208]]]}, "properties": {"osm_id": 1435968346, "building": "yes", "name": "", "height": null, "height_m": null, "levels": null, "tract_id": "40109108402", "tract_name": "1084.02", "tags": {"building": "yes", "source": "microsoft/BuildingFootprints"}}}, {"type": "Feature", "geometry": {"type": "Polygon", "coordinates": [[[-97.5726426, 35.5758931], [-97.5728732, 35.5758968], [-97.5728749, 35.575828], [-97.5728454, 35.5758275], [-97.5728473, 35.5757512], [-97.5726649, 35.5757482], [-97.5726627, 35.5758376], [-97.572644, 35.5758373], [-97.5726426, 35.5758931]]]}, "properties": {"osm_id": 1435968347, "building": "yes", "name": "", "height": null, "height_m": null, "levels": null, "tract_id": "40109108402", "tract_name": "1084.02", "tags": {"building": "yes", "source": "microsoft/BuildingFootprints"}}}, {"type": "Feature", "geometry": {"type": "Polygon", "coordinates": [[[-97.5726512, 35.5760701], [-97.5728738, 35.5760701], [-97.5728738, 35.5759806], [-97.5728551, 35.5759806], [-97.5728551, 35.5759239], [-97.57267, 35.5759239], [-97.57267, 35.5759741], [-97.5726512, 35.5759741], [-97.5726512, 35.5760701]]]}, "properties": {"osm_id": 1435968348, "building": "yes", "name": "", "height": null, "height_m": null, "levels": null, "tract_id": "40109108402", "tract_name": "1084.02", "tags": {"building": "yes", "source": "microsoft/BuildingFootprints"}}}, {"type": "Feature", "geometry": {"type": "Polygon", "coordinates": [[[-97.5728283, 35.576092], [-97.5726621, 35.5760946], [-97.5726637, 35.5761634], [-97.5726396, 35.5761638], [-97.5726415, 35.5762445], [-97.5728667, 35.576241], [-97.5728646, 35.5761525], [-97.5728297, 35.5761531], [-97.5728283, 35.576092]]]}, "properties": {"osm_id": 1435968349, "building": "yes", "name": "", "height": null, "height_m": null, "levels": null, "tract_id": "40109108402", "tract_name": "1084.02", "tags": {"building": "yes", "source": "microsoft/BuildingFootprints"}}}, {"type": "Feature", "geometry": {"type": "Polygon", "coordinates": [[[-97.5722506, 35.5750549], [-97.5725242, 35.5750564], [-97.5725256, 35.5748897], [-97.5723582, 35.5748887], [-97.5723574, 35.5749791], [-97.5722512, 35.5749785], [-97.5722506, 35.5750549]]]}, "properties": {"osm_id": 1435968350, "building": "yes", "name": "", "height": null, "height_m": null, "levels": null, "tract_id": "40109108402", "tract_name": "1084.02", "tags": {"building": "yes", "source": "microsoft/BuildingFootprints"}}}, {"type": "Feature", "geometry": {"type": "Polygon", "coordinates": [[[-97.5724914, 35.5750765], [-97.5723359, 35.5750744], [-97.5723346, 35.5751354], [-97.5722515, 35.5751343], [-97.5722495, 35.575228], [-97.5724882, 35.5752314], [-97.5724914, 35.5750765]]]}, "properties": {"osm_id": 1435968351, "building": "yes", "name": "", "height": null, "height_m": null, "levels": null, "tract_id": "40109108402", "tract_name": "1084.02", "tags": {"building": "yes", "source": "microsoft/BuildingFootprints"}}}, {"type": "Feature", "geometry": {"type": "Polygon", "coordinates": [[[-97.5722481, 35.5754004], [-97.5724788, 35.5753987], [-97.5724782, 35.5753463], [-97.5724809, 35.5753463], [-97.5724798, 35.5752503], [-97.5723108, 35.5752516], [-97.5723114, 35.5753061], [-97.5722471, 35.5753066], [-97.5722481, 35.5754004]]]}, "properties": {"osm_id": 1435968352, "building": "yes", "name": "", "height": null, "height_m": null, "levels": null, "tract_id": "40109108402", "tract_name": "1084.02", "tags": {"building": "yes", "source": "microsoft/BuildingFootprints"}}}]}