{"type": "FeatureCollection", "features": [{"type": "Feature", "geometry": {"type": "Polygon", "coordinates": [[[-97.5162779, 35.4945115], [-97.5162797, 35.4944003], [-97.5159994, 35.4944025], [-97.5159989, 35.4945137], [-97.5162779, 35.4945115]]]}, "properties": {"osm_id": 184517543, "building": "apartments", "name": "", "height": null, "height_m": null, "levels": null, "tract_id": "40109101200", "tract_name": "1012", "tags": {"building": "apartments"}}}, {"type": "Feature", "geometry": {"type": "Polygon", "coordinates": [[[-97.520858, 35.5002253], [-97.5206992, 35.5002256], [-97.5207, 35.5004146], [-97.5208303, 35.5004145], [-97.5208578, 35.5003894], [-97.520858, 35.5002253]]]}, "properties": {"osm_id": 184537511, "building": "yes", "name": "The Mayan Taqueria & Cantina", "height": null, "height_m": null, "levels": null, "tract_id": "40109101200", "tract_name": "1012", "tags": {"addr:city": "Oklahoma City", "addr:housenumber": "3020", "addr:postcode": "73103", "addr:state": "OK", "addr:street": "North Walker Avenue", "addr:unit": "A", "amenity": "restaurant", "building": "yes", "cuisine": "mexican", "name": "The Mayan Taqueria & Cantina"}}}, {"type": "Feature", "geometry": {"type": "Polygon", "coordinates": [[[-97.518015, 35.4943521], [-97.5176827, 35.4943545], [-97.517682, 35.494393], [-97.517675, 35.4947927], [-97.5176747, 35.4948139], [-97.5180089, 35.4948113], [-97.518015, 35.4943521]]]}, "properties": {"osm_id": 185028602, "building": "public", "name": "Oklahoma City Housing Authority", "height": null, "height_m": null, "levels": null, "tract_id": "40109101200", "tract_name": "1012", "tags": {"building": "public", "name": "Oklahoma City Housing Authority"}}}, {"type": "Feature", "geometry": {"type": "Polygon", "coordinates": [[[-97.5205717, 35.4943911], [-97.5209057, 35.4943879], [-97.520903, 35.4946183], [-97.5208628, 35.4946172], [-97.5208655, 35.494757], [-97.5208387, 35.4947766], [-97.5205637, 35.4947733], [-97.5205717, 35.4943911]]]}, "properties": {"osm_id": 229938866, "building": "yes", "name": "", "height": null, "height_m": null, "levels": null, "tract_id": "40109101200", "tract_name": "1012", "tags": {"building": "yes"}}}, {"type": "Feature", "geometry": {"type": "Polygon", "coordinates": [[[-97.5205474, 35.4955291], [-97.5205454, 35.4957313], [-97.5202611, 35.4957294], [-97.5202632, 35.4955244], [-97.5203699, 35.4955251], [-97.5203688, 35.4956385], [-97.5204468, 35.495639], [-97.5204478, 35.4955284], [-97.5205474, 35.4955291]]]}, "properties": {"osm_id": 229938867, "building": "yes", "name": "", "height": null, "height_m": null, "levels": null, "tract_id": "40109101200", "tract_name": "1012", "tags": {"building": "yes"}}}, {"type": "Feature", "geometry": {"type": "Polygon", "coordinates": [[[-97.5155784, 35.4934254], [-97.5155429, 35.4933914], [-97.5154455, 35.4934588], [-97.5154811, 35.4934928], [-97.5155784, 35.4934254]]]}, "properties": {"osm_id": 230168870, "building": "roof", "name": "", "height": null, "height_m": null, "levels": null, "tract_id": "40109101200", "tract_name": "1012", "tags": {"building": "roof", "source": "Bing"}}}, {"type": "Feature", "geometry": {"type": "Polygon", "coordinates": [[[-97.5171166, 35.4936251], [-97.5169824, 35.493624], [-97.5169851, 35.4934176], [-97.5171192, 35.4934188], [-97.5171166, 35.4936251]]]}, "properties": {"osm_id": 270198078, "building": "yes", "name": "Basil Mediterranean", "height": null, "height_m": null, "levels": null, "tract_id": "40109101200", "tract_name": "1012", "tags": {"amenity": "restaurant", "building": "yes", "name": "Basil Mediterranean", "roof:shape": "flat", "source": "Bing"}}}, {"type": "Feature", "geometry": {"type": "Polygon", "coordinates": [[[-97.514603, 35.4937401], [-97.5146035, 35.4933879], [-97.5148476, 35.4933873], [-97.5148456, 35.4937377], [-97.514603, 35.4937401]]]}, "properties": {"osm_id": 270198083, "building": "yes", "name": "", "height": null, "height_m": null, "levels": null, "tract_id": "40109101200", "tract_name": "1012", "tags": {"building": "yes", "roof:shape": "flat", "source": "Bing"}}}, {"type": "Feature", "geometry": {"type": "Polygon", "coordinates": [[[-97.5205629, 35.4935715], [-97.5205609, 35.4934028], [-97.5201687, 35.4934007], [-97.5201377, 35.4934005], [-97.5201064, 35.4934003], [-97.5200848, 35.4934002], [-97.5200572, 35.4934001], [-97.52005, 35.4937268], [-97.5205614, 35.4937299], [-97.5205629, 35.4935715]]]}, "properties": {"osm_id": 279922299, "building": "yes", "name": "Tower Theater", "height": null, "height_m": 6.0, "levels": 2, "tract_id": "40109101200", "tract_name": "1012", "tags": {"building": "yes", "building:levels": "2", "name": "Tower Theater", "source": "Bing"}}}, {"type": "Feature", "geometry": {"type": "Polygon", "coordinates": [[[-97.5193279, 35.4934061], [-97.5193826, 35.4934067], [-97.5194441, 35.4934075], [-97.5194888, 35.493408], [-97.519485, 35.493619], [-97.5193242, 35.4936171], [-97.5193253, 35.4935544], [-97.5193279, 35.4934061]]]}, "properties": {"osm_id": 279922308, "building": "yes", "name": "", "height": null, "height_m": null, "levels": null, "tract_id": "40109101200", "tract_name": "1012", "tags": {"building": "yes", "source": "Bing"}}}, {"type": "Feature", "geometry": {"type": "Polygon", "coordinates": [[[-97.5155156, 35.4935719], [-97.5151064, 35.4935727], [-97.5151059, 35.4933846], [-97.5154294, 35.4933839], [-97.5154297, 35.493481], [-97.5155153, 35.4934809], [-97.5155156, 35.4935719]]]}, "properties": {"osm_id": 279922312, "building": "yes", "name": "", "height": null, "height_m": null, "levels": null, "tract_id": "40109101200", "tract_name": "1012", "tags": {"building": "yes", "source": "Bing"}}}, {"type": "Feature", "geometry": {"type": "Polygon", "coordinates": [[[-97.5155566, 35.4937673], [-97.515212, 35.493767], [-97.5152124, 35.4937016], [-97.5153435, 35.4937021], [-97.5153442, 35.493609], [-97.5155568, 35.4936091], [-97.5155566, 35.4937673]]]}, "properties": {"osm_id": 279922315, "building": "yes", "name": "The Blue Note", "height": null, "height_m": 3.0, "levels": 1, "tract_id": "40109101200", "tract_name": "1012", "tags": {"amenity": "restaurant", "building": "yes", "building:levels": "1", "name": "The Blue Note", "smoking": "yes", "source": "Bing;local knowledge"}}}, {"type": "Feature", "geometry": {"type": "Polygon", "coordinates": [[[-97.5155629, 35.4941768], [-97.515315, 35.4941773], [-97.5153141, 35.4938975], [-97.5151062, 35.4938979], [-97.5151063, 35.4937753], [-97.5155617, 35.4937746], [-97.5155629, 35.4941768]]]}, "properties": {"osm_id": 279922317, "building": "yes", "name": "", "height": null, "height_m": null, "levels": null, "tract_id": "40109101200", "tract_name": "1012", "tags": {"building": "yes", "source": "Bing"}}}, {"type": "Feature", "geometry": {"type": "Polygon", "coordinates": [[[-97.5162934, 35.4948576], [-97.5159944, 35.4948576], [-97.5159944, 35.4947557], [-97.5162934, 35.4947557], [-97.5162934, 35.4948576]]]}, "properties": {"osm_id": 279937128, "building": "yes", "name": "", "height": null, "height_m": null, "levels": null, "tract_id": "40109101200", "tract_name": "1012", "tags": {"building": "yes", "source": "Bing"}}}, {"type": "Feature", "geometry": {"type": "Polygon", "coordinates": [[[-97.515526, 35.4948552], [-97.515227, 35.4948552], [-97.515227, 35.4947533], [-97.515526, 35.4947533], [-97.515526, 35.4948552]]]}, "properties": {"osm_id": 279937129, "building": "yes", "name": "", "height": null, "height_m": null, "levels": null, "tract_id": "40109101200", "tract_name": "1012", "tags": {"building": "yes", "source": "Bing"}}}, {"type": "Feature", "geometry": {"type": "Polygon", "coordinates": [[[-97.5155282, 35.4951988], [-97.5152292, 35.4951988], [-97.5152292, 35.4950969], [-97.5155282, 35.4950969], [-97.5155282, 35.4951988]]]}, "properties": {"osm_id": 279937130, "building": "yes", "name": "", "height": null, "height_m": null, "levels": null, "tract_id": "40109101200", "tract_name": "1012", "tags": {"building": "yes", "source": "Bing"}}}, {"type": "Feature", "geometry": {"type": "Polygon", "coordinates": [[[-97.5155304, 35.4945134], [-97.5152314, 35.4945134], [-97.5152314, 35.4944115], [-97.5155304, 35.4944115], [-97.5155304, 35.4945134]]]}, "properties": {"osm_id": 279937131, "building": "yes", "name": "", "height": null, "height_m": null, "levels": null, "tract_id": "40109101200", "tract_name": "1012", "tags": {"building": "yes", "source": "Bing"}}}, {"type": "Feature", "geometry": {"type": "Polygon", "coordinates": [[[-97.5155275, 35.4950267], [-97.5152284, 35.4950267], [-97.5152284, 35.4949248], [-97.5155275, 35.4949248], [-97.5155275, 35.4950267]]]}, "properties": {"osm_id": 279937133, "building": "yes", "name": "", "height": null, "height_m": null, "levels": null, "tract_id": "40109101200", "tract_name": "1012", "tags": {"building": "yes", "source": "Bing"}}}, {"type": "Feature", "geometry": {"type": "Polygon", "coordinates": [[[-97.516292, 35.495197], [-97.5159929, 35.495197], [-97.5159929, 35.4950951], [-97.516292, 35.4950951], [-97.516292, 35.495197]]]}, "properties": {"osm_id": 279937134, "building": "yes", "name": "", "height": null, "height_m": null, "levels": null, "tract_id": "40109101200", "tract_name": "1012", "tags": {"building": "yes", "source": "Bing"}}}, {"type": "Feature", "geometry": {"type": "Polygon", "coordinates": [[[-97.5155304, 35.4946861], [-97.5152314, 35.4946861], [-97.5152314, 35.4945842], [-97.5155304, 35.4945842], [-97.5155304, 35.4946861]]]}, "properties": {"osm_id": 279937135, "building": "yes", "name": "", "height": null, "height_m": null, "levels": null, "tract_id": "40109101200", "tract_name": "1012", "tags": {"building": "yes", "source": "Bing"}}}, {"type": "Feature", "geometry": {"type": "Polygon", "coordinates": [[[-97.516292, 35.4950267], [-97.5159929, 35.4950267], [-97.5159929, 35.4949248], [-97.516292, 35.4949248], [-97.516292, 35.4950267]]]}, "properties": {"osm_id": 279937136, "building": "yes", "name": "", "height": null, "height_m": null, "levels": null, "tract_id": "40109101200", "tract_name": "1012", "tags": {"building": "yes", "source": "Bing"}}}, {"type": "Feature", "geometry": {"type": "Polygon", "coordinates": [[[-97.5190121, 35.4937586], [-97.5190121, 35.493692], [-97.5190121, 35.493618], [-97.5191451, 35.493618], [-97.5193167, 35.493618], [-97.5193167, 35.4937074], [-97.5192642, 35.4937074], [-97.5192642, 35.4937488], [-97.5191984, 35.4937488], [-97.5191736, 35.4937488], [-97.5191736, 35.4937532], [-97.5190995, 35.4937532], [-97.5190995, 35.4937586], [-97.5190121, 35.4937586]]]}, "properties": {"osm_id": 280192996, "building": "yes", "name": "", "height": null, "height_m": null, "levels": null, "tract_id": "40109101200", "tract_name": "1012", "tags": {"building": "yes", "source": "Bing"}}}, {"type": "Feature", "geometry": {"type": "Polygon", "coordinates": [[[-97.5201687, 35.4934007], [-97.5201362, 35.493368], [-97.5201064, 35.4934003], [-97.5201377, 35.4934005], [-97.5201687, 35.4934007]]]}, "properties": {"osm_id": 280193002, "building": "yes", "name": "", "height": null, "height_m": 9.0, "levels": 3, "tract_id": "40109101200", "tract_name": "1012", "tags": {"building": "yes", "building:levels": "3", "building:min_level": "1", "source": "Bing"}}}, {"type": "Feature", "geometry": {"type": "Polygon", "coordinates": [[[-97.5192959, 35.4935082], [-97.5192959, 35.4935544], [-97.5192959, 35.4935704], [-97.5191447, 35.4935704], [-97.5191447, 35.4935082], [-97.5191917, 35.4935082], [-97.5192959, 35.4935082]]]}, "properties": {"osm_id": 280193003, "building": "yes", "name": "", "height": null, "height_m": null, "levels": null, "tract_id": "40109101200", "tract_name": "1012", "tags": {"building": "yes", "source": "Bing"}}}, {"type": "Feature", "geometry": {"type": "Polygon", "coordinates": [[[-97.5194798, 35.4937572], [-97.5194028, 35.4937563], [-97.5193934, 35.4937562], [-97.5193949, 35.4936736], [-97.5194812, 35.4936746], [-97.5194798, 35.4937572]]]}, "properties": {"osm_id": 280193007, "building": "yes", "name": "", "height": null, "height_m": null, "levels": null, "tract_id": "40109101200", "tract_name": "1012", "tags": {"building": "yes", "roof:shape": "gabled", "source": "Bing"}}}, {"type": "Feature", "geometry": {"type": "Polygon", "coordinates": [[[-97.5200572, 35.4934001], [-97.52005, 35.4937268], [-97.5195512, 35.4937237], [-97.5195543, 35.4933963], [-97.5196809, 35.4933972], [-97.5197343, 35.4933976], [-97.5199617, 35.4933993], [-97.5200572, 35.4934001]]]}, "properties": {"osm_id": 280193009, "building": "yes", "name": "", "height": null, "height_m": null, "levels": null, "tract_id": "40109101200", "tract_name": "1012", "tags": {"building": "yes", "source": "Bing"}}}, {"type": "Feature", "geometry": {"type": "Polygon", "coordinates": [[[-97.5197009, 35.4941017], [-97.519564, 35.4941014], [-97.5195648, 35.4938998], [-97.5197017, 35.4939002], [-97.5197009, 35.4941017]]]}, "properties": {"osm_id": 280197006, "building": "yes", "name": "", "height": null, "height_m": 6.0, "levels": 2, "tract_id": "40109101200", "tract_name": "1012", "tags": {"building": "yes", "building:levels": "2", "roof:shape": "flat", "source": "Bing"}}}, {"type": "Feature", "geometry": {"type": "Polygon", "coordinates": [[[-97.5201952, 35.4939261], [-97.5201944, 35.4941225], [-97.5200774, 35.4941222], [-97.5200781, 35.4939258], [-97.5201952, 35.4939261]]]}, "properties": {"osm_id": 280197007, "building": "yes", "name": "", "height": null, "height_m": 6.0, "levels": 2, "tract_id": "40109101200", "tract_name": "1012", "tags": {"building": "yes", "building:levels": "2", "roof:shape": "flat", "source": "Bing"}}}, {"type": "Feature", "geometry": {"type": "Polygon", "coordinates": [[[-97.5198617, 35.4939117], [-97.5198609, 35.4941189], [-97.5197283, 35.4941186], [-97.5197291, 35.4939113], [-97.5198617, 35.4939117]]]}, "properties": {"osm_id": 280197008, "building": "yes", "name": "", "height": null, "height_m": 6.0, "levels": 2, "tract_id": "40109101200", "tract_name": "1012", "tags": {"building": "yes", "building:levels": "2", "roof:shape": "flat", "source": "Bing"}}}, {"type": "Feature", "geometry": {"type": "Polygon", "coordinates": [[[-97.5203656, 35.4941246], [-97.5203167, 35.4941245], [-97.5203168, 35.4940987], [-97.5202924, 35.4940986], [-97.5202923, 35.4941244], [-97.5202433, 35.4941243], [-97.5202441, 35.4939276], [-97.5203664, 35.4939279], [-97.5203656, 35.4941246]]]}, "properties": {"osm_id": 280197009, "building": "yes", "name": "", "height": null, "height_m": 6.0, "levels": 2, "tract_id": "40109101200", "tract_name": "1012", "tags": {"building": "yes", "building:levels": "2", "roof:shape": "flat", "source": "Bing"}}}, {"type": "Feature", "geometry": {"type": "Polygon", "coordinates": [[[-97.5205609, 35.4934028], [-97.5209011, 35.4934047], [-97.520898, 35.493732], [-97.5208507, 35.4937317], [-97.5208508, 35.4937208], [-97.5206683, 35.4937196], [-97.5206703, 35.4935105], [-97.5206448, 35.4935103], [-97.5206443, 35.493572], [-97.5205629, 35.4935715], [-97.5205609, 35.4934028]]]}, "properties": {"osm_id": 280197628, "building": "yes", "name": "", "height": null, "height_m": null, "levels": null, "tract_id": "40109101200", "tract_name": "1012", "tags": {"building": "yes", "source": "Bing"}}}, {"type": "Feature", "geometry": {"type": "Polygon", "coordinates": [[[-97.5142957, 35.4938217], [-97.5142957, 35.4935434], [-97.5141558, 35.4935434], [-97.5141558, 35.4938217], [-97.5142957, 35.4938217]]]}, "properties": {"osm_id": 316300861, "building": "retail", "name": "McDonald's", "height": null, "height_m": null, "levels": null, "tract_id": "40109101200", "tract_name": "1012", "tags": {"addr:city": "Oklahoma City", "addr:housenumber": "113", "addr:postcode": "73103-4306", "addr:state": "OK", "addr:street": "Northwest 23rd Street", "amenity": "fast_food", "brand": "McDonald's", "brand:website": "https://www.mcdonalds.com/", "brand:wikidata": "Q38076", "building": "retail", "cuisine": "burger", "drive_through": "yes", "internet_access": "wlan", "name": "McDonald's", "opening_hours": "06:00-21:00", "phone": "+1 405-525-4115", "source": "Bing", "takeaway": "yes", "website": "https://www.mcdonalds.com/us/en-us/location/11031.html"}}}, {"type": "Feature", "geometry": {"type": "Polygon", "coordinates": [[[-97.5206992, 35.5002256], [-97.520858, 35.5002253], [-97.5208575, 35.5000462], [-97.5206987, 35.5000465], [-97.5206992, 35.5002256]]]}, "properties": {"osm_id": 749322716, "building": "yes", "name": "Flora Bodega", "height": null, "height_m": null, "levels": null, "tract_id": "40109101200", "tract_name": "1012", "tags": {"addr:city": "Oklahoma City", "addr:housenumber": "3020", "addr:postcode": "73103", "addr:state": "OK", "addr:street": "North Walker Avenue", "building": "yes", "contact:instagram": "flora_bodega", "email": "bodega@florabodegacoop.com", "name": "Flora Bodega", "opening_hours": "Su-Fr 09:30-19:00; Sa 09:00-19:00", "organic": "only", "shop": "supermarket", "website": "https://florabodega.coop"}}}, {"type": "Feature", "geometry": {"type": "Polygon", "coordinates": [[[-97.5184216, 35.4934092], [-97.5186483, 35.4934103], [-97.5187243, 35.4934714], [-97.5187232, 35.4936308], [-97.5185977, 35.4936302], [-97.518598, 35.4935907], [-97.5184203, 35.4935899], [-97.5184216, 35.4934092]]]}, "properties": {"osm_id": 978264917, "building": "yes", "name": "", "height": null, "height_m": null, "levels": null, "tract_id": "40109101200", "tract_name": "1012", "tags": {"building": "yes"}}}, {"type": "Feature", "geometry": {"type": "Polygon", "coordinates": [[[-97.517851, 35.4934126], [-97.5178483, 35.4937243], [-97.5177996, 35.4937241], [-97.5178, 35.4936162], [-97.5177662, 35.4936161], [-97.5177672, 35.4934124], [-97.517851, 35.4934126]]]}, "properties": {"osm_id": 978264921, "building": "yes", "name": "", "height": null, "height_m": null, "levels": null, "tract_id": "40109101200", "tract_name": "1012", "tags": {"building": "yes", "shop": "yes"}}}, {"type": "Feature", "geometry": {"type": "Polygon", "coordinates": [[[-97.5180183, 35.4936559], [-97.518018, 35.4937382], [-97.5178483, 35.4937377], [-97.5178483, 35.4937243], [-97.517851, 35.4934126], [-97.5180186, 35.4934131], [-97.5180183, 35.4936559]]]}, "properties": {"osm_id": 978264922, "building": "yes", "name": "", "height": null, "height_m": null, "levels": null, "tract_id": "40109101200", "tract_name": "1012", "tags": {"building": "yes", "shop": "yes"}}}, {"type": "Feature", "geometry": {"type": "Polygon", "coordinates": [[[-97.5181869, 35.4934136], [-97.5181883, 35.4937387], [-97.5180475, 35.4937383], [-97.5180478, 35.493656], [-97.5180183, 35.4936559], [-97.5180186, 35.4934131], [-97.5181869, 35.4934136]]]}, "properties": {"osm_id": 978264923, "building": "yes", "name": "", "height": null, "height_m": null, "levels": null, "tract_id": "40109101200", "tract_name": "1012", "tags": {"building": "yes", "shop": "yes"}}}, {"type": "Feature", "geometry": {"type": "Polygon", "coordinates": [[[-97.5181883, 35.4937387], [-97.5181869, 35.4934136], [-97.5183564, 35.4934141], [-97.518355, 35.4937392], [-97.5181883, 35.4937387]]]}, "properties": {"osm_id": 978264924, "building": "yes", "name": "", "height": null, "height_m": null, "levels": null, "tract_id": "40109101200", "tract_name": "1012", "tags": {"building": "yes", "shop": "yes"}}}, {"type": "Feature", "geometry": {"type": "Polygon", "coordinates": [[[-97.5177672, 35.4934124], [-97.5177662, 35.4936161], [-97.5177658, 35.4937116], [-97.5175942, 35.4937111], [-97.5175955, 35.4934119], [-97.5177672, 35.4934124]]]}, "properties": {"osm_id": 978264925, "building": "yes", "name": "Family Dollar", "height": null, "height_m": null, "levels": null, "tract_id": "40109101200", "tract_name": "1012", "tags": {"brand": "Family Dollar", "brand:wikidata": "Q5433101", "building": "yes", "name": "Family Dollar", "shop": "variety_store"}}}, {"type": "Feature", "geometry": {"type": "Polygon", "coordinates": [[[-97.5198805, 35.4991409], [-97.519939, 35.4991403], [-97.5199382, 35.4990881], [-97.5198797, 35.4990888], [-97.5198805, 35.4991409]]]}, "properties": {"osm_id": 1086247561, "building": "yes", "name": "", "height": null, "height_m": null, "levels": null, "tract_id": "40109101200", "tract_name": "1012", "tags": {"building": "yes", "source": "microsoft/BuildingFootprints"}}}, {"type": "Feature", "geometry": {"type": "Polygon", "coordinates": [[[-97.519939, 35.4991403], [-97.5198805, 35.4991409], [-97.5198813, 35.4991912], [-97.5199216, 35.4991908], [-97.5199491, 35.4991905], [-97.5199483, 35.4991402], [-97.519939, 35.4991403]]]}, "properties": {"osm_id": 1086247562, "building": "yes", "name": "", "height": null, "height_m": null, "levels": null, "tract_id": "40109101200", "tract_name": "1012", "tags": {"building": "yes", "source": "microsoft/BuildingFootprints"}}}, {"type": "Feature", "geometry": {"type": "Polygon", "coordinates": [[[-97.5202429, 35.500218], [-97.5202435, 35.5002778], [-97.5201976, 35.5002781], [-97.5201969, 35.5002183], [-97.5202429, 35.500218]]]}, "properties": {"osm_id": 1086247563, "building": "yes", "name": "", "height": null, "height_m": null, "levels": null, "tract_id": "40109101200", "tract_name": "1012", "tags": {"building": "yes"}}}, {"type": "Feature", "geometry": {"type": "Polygon", "coordinates": [[[-97.520693, 35.500284], [-97.520577, 35.500282], [-97.520573, 35.500421], [-97.520689, 35.500423], [-97.520693, 35.500284]]]}, "properties": {"osm_id": 1086247565, "building": "yes", "name": "", "height": null, "height_m": null, "levels": null, "tract_id": "40109101200", "tract_name": "1012", "tags": {"building": "yes", "source": "microsoft/BuildingFootprints"}}}, {"type": "Feature", "geometry": {"type": "Polygon", "coordinates": [[[-97.5202181, 35.4991438], [-97.520218, 35.4992392], [-97.5202082, 35.4992392], [-97.5202081, 35.4992862], [-97.520218, 35.4992863], [-97.520218, 35.4993276], [-97.5202614, 35.4993276], [-97.5202614, 35.4993564], [-97.5203391, 35.4993564], [-97.5203391, 35.4992927], [-97.5203475, 35.4992927], [-97.5203475, 35.4992383], [-97.5203392, 35.4992383], [-97.5203392, 35.4992023], [-97.5203762, 35.4992023], [-97.5203762, 35.4991435], [-97.5203164, 35.4991435], [-97.5203164, 35.4991789], [-97.5202854, 35.4991789], [-97.5202854, 35.4991438], [-97.5202181, 35.4991438]]]}, "properties": {"osm_id": 1086247567, "building": "yes", "name": "", "height": null, "height_m": null, "levels": null, "tract_id": "40109101200", "tract_name": "1012", "tags": {"building": "yes", "source": "microsoft/BuildingFootprints"}}}, {"type": "Feature", "geometry": {"type": "Polygon", "coordinates": [[[-97.520248, 35.4999931], [-97.5203525, 35.4999919], [-97.5203513, 35.4999218], [-97.5203375, 35.4999219], [-97.5203366, 35.4998727], [-97.5202722, 35.4998734], [-97.5202729, 35.4999173], [-97.5202467, 35.4999176], [-97.520248, 35.4999931]]]}, "properties": {"osm_id": 1086247569, "building": "yes", "name": "", "height": null, "height_m": null, "levels": null, "tract_id": "40109101200", "tract_name": "1012", "tags": {"building": "yes", "source": "microsoft/BuildingFootprints"}}}, {"type": "Feature", "geometry": {"type": "Polygon", "coordinates": [[[-97.5202275, 35.5003997], [-97.5202623, 35.5003998], [-97.5202623, 35.5004195], [-97.5203331, 35.5004197], [-97.5203335, 35.5002919], [-97.5203126, 35.5002918], [-97.5203126, 35.5002732], [-97.5202476, 35.500273], [-97.5202476, 35.5002917], [-97.5202278, 35.5002917], [-97.5202275, 35.5003997]]]}, "properties": {"osm_id": 1086247573, "building": "yes", "name": "", "height": null, "height_m": null, "levels": null, "tract_id": "40109101200", "tract_name": "1012", "tags": {"building": "yes", "source": "microsoft/BuildingFootprints"}}}, {"type": "Feature", "geometry": {"type": "Polygon", "coordinates": [[[-97.5199216, 35.4991908], [-97.5199226, 35.4992523], [-97.5199149, 35.4992523], [-97.5199156, 35.4992968], [-97.5199226, 35.4992967], [-97.5199231, 35.4993317], [-97.5199609, 35.4993313], [-97.5199613, 35.4993548], [-97.5200341, 35.499354], [-97.5200338, 35.4993326], [-97.5200412, 35.4993325], [-97.5200403, 35.4992741], [-97.5200355, 35.4992741], [-97.5200352, 35.499255], [-97.5200406, 35.499255], [-97.5200396, 35.4991895], [-97.5199491, 35.4991905], [-97.5199216, 35.4991908]]]}, "properties": {"osm_id": 1086247575, "building": "yes", "name": "", "height": null, "height_m": null, "levels": null, "tract_id": "40109101200", "tract_name": "1012", "tags": {"building": "yes", "source": "microsoft/BuildingFootprints"}}}, {"type": "Feature", "geometry": {"type": "Polygon", "coordinates": [[[-97.5200234, 35.4997825], [-97.5200222, 35.4996586], [-97.5199071, 35.4996594], [-97.5199086, 35.4998095], [-97.519962, 35.4998091], [-97.5199618, 35.499783], [-97.5200234, 35.4997825]]]}, "properties": {"osm_id": 1086247576, "building": "yes", "name": "", "height": null, "height_m": null, "levels": null, "tract_id": "40109101200", "tract_name": "1012", "tags": {"building": "yes", "source": "microsoft/BuildingFootprints"}}}, {"type": "Feature", "geometry": {"type": "Polygon", "coordinates": [[[-97.5200255, 35.4998476], [-97.5200281, 35.4999526], [-97.5201141, 35.4999512], [-97.5201115, 35.4998462], [-97.5200255, 35.4998476]]]}, "properties": {"osm_id": 1086247578, "building": "yes", "name": "", "height": null, "height_m": null, "levels": null, "tract_id": "40109101200", "tract_name": "1012", "tags": {"building": "yes", "source": "microsoft/BuildingFootprints"}}}, {"type": "Feature", "geometry": {"type": "Polygon", "coordinates": [[[-97.5198836, 35.5003971], [-97.5200118, 35.5003979], [-97.5200132, 35.5002579], [-97.519881, 35.500257], [-97.5198806, 35.5002993], [-97.5198908, 35.5002993], [-97.5198901, 35.5003692], [-97.5198839, 35.5003692], [-97.5198836, 35.5003971]]]}, "properties": {"osm_id": 1086247580, "building": "yes", "name": "", "height": null, "height_m": null, "levels": null, "tract_id": "40109101200", "tract_name": "1012", "tags": {"building": "yes", "source": "microsoft/BuildingFootprints"}}}, {"type": "Feature", "geometry": {"type": "Polygon", "coordinates": [[[-97.5204088, 35.4993532], [-97.5205291, 35.4993538], [-97.5205299, 35.4992591], [-97.5204902, 35.4992589], [-97.5204908, 35.4991882], [-97.5204102, 35.4991878], [-97.5204088, 35.4993532]]]}, "properties": {"osm_id": 1086247584, "building": "yes", "name": "", "height": null, "height_m": null, "levels": null, "tract_id": "40109101200", "tract_name": "1012", "tags": {"building": "yes", "source": "microsoft/BuildingFootprints"}}}, {"type": "Feature", "geometry": {"type": "Polygon", "coordinates": [[[-97.5198601, 35.500113], [-97.5198589, 35.500169], [-97.5199289, 35.50017], [-97.5199301, 35.500114], [-97.5198601, 35.500113]]]}, "properties": {"osm_id": 1086247585, "building": "yes", "name": "", "height": null, "height_m": null, "levels": null, "tract_id": "40109101200", "tract_name": "1012", "tags": {"building": "yes", "source": "microsoft/BuildingFootprints"}}}, {"type": "Feature", "geometry": {"type": "Polygon", "coordinates": [[[-97.5207088, 35.4991995], [-97.5205838, 35.4991988], [-97.5205834, 35.4992498], [-97.5205745, 35.4992498], [-97.5205741, 35.4992964], [-97.520583, 35.4992965], [-97.5205827, 35.4993305], [-97.5206182, 35.4993307], [-97.520618, 35.4993551], [-97.5206943, 35.4993556], [-97.5206945, 35.4993303], [-97.5207077, 35.4993303], [-97.5207082, 35.4992776], [-97.520694, 35.4992776], [-97.5206942, 35.4992514], [-97.5207084, 35.4992515], [-97.5207088, 35.4991995]]]}, "properties": {"osm_id": 1086247586, "building": "yes", "name": "", "height": null, "height_m": null, "levels": null, "tract_id": "40109101200", "tract_name": "1012", "tags": {"building": "yes", "source": "microsoft/BuildingFootprints"}}}, {"type": "Feature", "geometry": {"type": "Polygon", "coordinates": [[[-97.520491, 35.500283], [-97.520392, 35.500285], [-97.520395, 35.5004], [-97.520427, 35.500399], [-97.520427, 35.500424], [-97.520494, 35.500423], [-97.520491, 35.500283]]]}, "properties": {"osm_id": 1086247588, "building": "yes", "name": "", "height": null, "height_m": null, "levels": null, "tract_id": "40109101200", "tract_name": "1012", "tags": {"building": "yes", "source": "microsoft/BuildingFootprints"}}}, {"type": "Feature", "geometry": {"type": "Polygon", "coordinates": [[[-97.5206825, 35.499652], [-97.5205746, 35.499651], [-97.520574, 35.4996906], [-97.5205701, 35.4996906], [-97.5205691, 35.4997659], [-97.520573, 35.499766], [-97.5205727, 35.499788], [-97.5206891, 35.4997891], [-97.5206896, 35.4997502], [-97.5206811, 35.4997501], [-97.5206825, 35.499652]]]}, "properties": {"osm_id": 1086247589, "building": "yes", "name": "", "height": null, "height_m": null, "levels": null, "tract_id": "40109101200", "tract_name": "1012", "tags": {"building": "yes", "source": "microsoft/BuildingFootprints"}}}, {"type": "Feature", "geometry": {"type": "Polygon", "coordinates": [[[-97.520066, 35.499352], [-97.520169, 35.499354], [-97.520174, 35.499185], [-97.520095, 35.499184], [-97.520094, 35.499222], [-97.52007, 35.499221], [-97.520066, 35.499352]]]}, "properties": {"osm_id": 1086247590, "building": "yes", "name": "", "height": null, "height_m": null, "levels": null, "tract_id": "40109101200", "tract_name": "1012", "tags": {"building": "yes", "source": "microsoft/BuildingFootprints"}}}, {"type": "Feature", "geometry": {"type": "Polygon", "coordinates": [[[-97.5208408, 35.4991876], [-97.5207417, 35.4991871], [-97.5207413, 35.4992536], [-97.5207322, 35.4992536], [-97.5207319, 35.4992959], [-97.520741, 35.4992959], [-97.5207408, 35.4993302], [-97.5207764, 35.4993304], [-97.5207763, 35.4993533], [-97.5208596, 35.4993537], [-97.5208602, 35.4992752], [-97.5208526, 35.4992752], [-97.5208528, 35.4992545], [-97.5208664, 35.4992545], [-97.5208667, 35.4992176], [-97.5208406, 35.4992175], [-97.5208408, 35.4991876]]]}, "properties": {"osm_id": 1086247594, "building": "yes", "name": "", "height": null, "height_m": null, "levels": null, "tract_id": "40109101200", "tract_name": "1012", "tags": {"building": "yes", "source": "microsoft/BuildingFootprints"}}}, {"type": "Feature", "geometry": {"type": "Polygon", "coordinates": [[[-97.5204279, 35.4997869], [-97.5205069, 35.4997851], [-97.5205021, 35.4996479], [-97.520367, 35.4996511], [-97.520371, 35.4997632], [-97.5204271, 35.4997618], [-97.5204279, 35.4997869]]]}, "properties": {"osm_id": 1086247595, "building": "yes", "name": "", "height": null, "height_m": null, "levels": null, "tract_id": "40109101200", "tract_name": "1012", "tags": {"building": "yes", "source": "microsoft/BuildingFootprints"}}}, {"type": "Feature", "geometry": {"type": "Polygon", "coordinates": [[[-97.5207597, 35.4996511], [-97.5207593, 35.4996861], [-97.5207282, 35.4996859], [-97.5207268, 35.499797], [-97.520845, 35.499798], [-97.5208467, 35.4996726], [-97.5208362, 35.4996726], [-97.5208364, 35.4996518], [-97.5207597, 35.4996511]]]}, "properties": {"osm_id": 1086247596, "building": "yes", "name": "", "height": null, "height_m": null, "levels": null, "tract_id": "40109101200", "tract_name": "1012", "tags": {"building": "yes", "source": "microsoft/BuildingFootprints"}}}, {"type": "Feature", "geometry": {"type": "Polygon", "coordinates": [[[-97.5201715, 35.499647], [-97.5200706, 35.4996479], [-97.5200712, 35.499695], [-97.5200533, 35.4996951], [-97.5200544, 35.4997699], [-97.5200723, 35.4997698], [-97.5200726, 35.4997899], [-97.5201735, 35.499789], [-97.5201715, 35.499647]]]}, "properties": {"osm_id": 1086247597, "building": "yes", "name": "", "height": null, "height_m": null, "levels": null, "tract_id": "40109101200", "tract_name": "1012", "tags": {"building": "yes", "source": "microsoft/BuildingFootprints"}}}, {"type": "Feature", "geometry": {"type": "Polygon", "coordinates": [[[-97.5200776, 35.5004008], [-97.5201946, 35.5004011], [-97.520195, 35.500294], [-97.520078, 35.5002938], [-97.5200776, 35.5004008]]]}, "properties": {"osm_id": 1086247599, "building": "yes", "name": "", "height": null, "height_m": null, "levels": null, "tract_id": "40109101200", "tract_name": "1012", "tags": {"building": "yes", "source": "microsoft/BuildingFootprints"}}}, {"type": "Feature", "geometry": {"type": "Polygon", "coordinates": [[[-97.5203268, 35.4996722], [-97.5202888, 35.4996726], [-97.5202885, 35.4996508], [-97.5202166, 35.4996515], [-97.5202189, 35.4997925], [-97.5203221, 35.4997914], [-97.520321, 35.499725], [-97.5203277, 35.499725], [-97.5203268, 35.4996722]]]}, "properties": {"osm_id": 1086247601, "building": "yes", "name": "", "height": null, "height_m": null, "levels": null, "tract_id": "40109101200", "tract_name": "1012", "tags": {"building": "yes", "source": "microsoft/BuildingFootprints"}}}]}