{"type": "FeatureCollection", "features": [{"type": "Feature", "geometry": {"type": "Polygon", "coordinates": [[[-97.504042, 35.493683], [-97.5042993, 35.4936821], [-97.5042922, 35.4945685], [-97.5040369, 35.4945673], [-97.5040394, 35.4941259], [-97.504042, 35.493683]]]}, "properties": {"osm_id": 101821758, "building": "office", "name": "Will Rogers State Office Building", "height": null, "height_m": null, "levels": null, "tract_id": "40109100500", "tract_name": "1005", "tags": {"addr:city": "Oklahoma City", "addr:housenumber": "2401", "addr:postcode": "73105", "addr:state": "OK", "addr:street": "North Lincoln Boulevard", "building": "office", "name": "Will Rogers State Office Building", "office": "government"}}}, {"type": "Feature", "geometry": {"type": "Polygon", "coordinates": [[[-97.5023438, 35.4945612], [-97.5023488, 35.4936754], [-97.5024776, 35.4936754], [-97.5026064, 35.4936764], [-97.502604, 35.4941191], [-97.5026016, 35.4945621], [-97.5023438, 35.4945612]]]}, "properties": {"osm_id": 101821803, "building": "office", "name": "Sequoyah State Office Building", "height": null, "height_m": null, "levels": null, "tract_id": "40109100500", "tract_name": "1005", "tags": {"addr:city": "Oklahoma City", "addr:housenumber": "2400", "addr:postcode": "73105", "addr:state": "OK", "addr:street": "North Lincoln Boulevard", "building": "office", "name": "Sequoyah State Office Building", "office": "government"}}}, {"type": "Feature", "geometry": {"type": "Polygon", "coordinates": [[[-97.5004743, 35.4946766], [-97.5003644, 35.4946466], [-97.500211, 35.494591], [-97.5000741, 35.4945263], [-97.4999634, 35.4944619], [-97.4998788, 35.4943912], [-97.499848, 35.4943242], [-97.4998476, 35.4942781], [-97.4998568, 35.4942391], [-97.4998745, 35.4942136], [-97.4997818, 35.4941244], [-97.4997602, 35.4941013], [-97.4997391, 35.494078], [-97.4995959, 35.4941593], [-97.4994358, 35.4940003], [-97.4993069, 35.4938977], [-97.4991349, 35.4937876], [-97.4991993, 35.4937139], [-97.4992828, 35.4936158], [-97.4994641, 35.493726], [-97.4995946, 35.4938284], [-97.4997004, 35.4937928], [-97.4996548, 35.4936918], [-97.4996114, 35.4935558], [-97.4998353, 35.4935169], [-97.4998806, 35.4936604], [-97.4999408, 35.493781], [-97.5000149, 35.4938823], [-97.4999876, 35.4938946], [-97.499996, 35.4939097], [-97.500028, 35.4939018], [-97.5000761, 35.4939049], [-97.500116, 35.493925], [-97.5001302, 35.493959], [-97.500122, 35.4939985], [-97.5001063, 35.4940197], [-97.5001208, 35.4940292], [-97.5001449, 35.49401], [-97.5002687, 35.4941026], [-97.5003903, 35.4941695], [-97.5005414, 35.4942329], [-97.5004551, 35.4943973], [-97.5004205, 35.4943868], [-97.5003968, 35.4944322], [-97.5005579, 35.4944822], [-97.5004743, 35.4946766]]]}, "properties": {"osm_id": 158649318, "building": "yes", "name": "Oklahoma History Center", "height": null, "height_m": null, "levels": null, "tract_id": "40109100500", "tract_name": "1005", "tags": {"addr:city": "Oklahoma City", "addr:housenumber": "800", "addr:postcode": "73105", "addr:state": "OK", "addr:street": "Nazih Zuhdi Drive", "building": "yes", "museum": "history", "name": "Oklahoma History Center", "name:en": "Oklahoma History Center", "opening_hours": "Mo-Sa 10:00-17:00", "phone": "+1 (405) 522-0765", "tourism": "museum", "website": "https://www.okhistory.org/historycenter/", "wikidata": "Q7082246", "wikipedia": "en:Oklahoma History Center"}}}, {"type": "Feature", "geometry": {"type": "Polygon", "coordinates": [[[-97.5023896, 35.4983037], [-97.5021145, 35.4980748], [-97.5020634, 35.4980745], [-97.5017811, 35.4978436], [-97.5017813, 35.4978013], [-97.5016036, 35.497656], [-97.5015055, 35.4975766], [-97.501505, 35.4976263], [-97.5015003, 35.4983016], [-97.5023896, 35.4983037]]]}, "properties": {"osm_id": 180851042, "building": "yes", "name": "Oklahoma Department of Agriculture, Food, and Forestry", "height": null, "height_m": null, "levels": null, "tract_id": "40109100500", "tract_name": "1005", "tags": {"building": "yes", "name": "Oklahoma Department of Agriculture, Food, and Forestry"}}}, {"type": "Feature", "geometry": {"type": "Polygon", "coordinates": [[[-97.5029121, 35.495805], [-97.5028503, 35.4957678], [-97.5027894, 35.4957227], [-97.50274, 35.4956753], [-97.502697, 35.4956226], [-97.5026758, 35.4955899], [-97.5026568, 35.4955605], [-97.5026232, 35.4954858], [-97.5026085, 35.495436], [-97.5025982, 35.4953857], [-97.5025938, 35.4953099], [-97.5023407, 35.4953077], [-97.5023434, 35.4953763], [-97.5023554, 35.4954511], [-97.5023699, 35.4955156], [-97.5023953, 35.4955826], [-97.5024272, 35.4956429], [-97.5023919, 35.4956577], [-97.5024014, 35.4956724], [-97.5023679, 35.4956864], [-97.5023867, 35.4957147], [-97.5024052, 35.4957425], [-97.5024377, 35.4957289], [-97.5024466, 35.4957434], [-97.5024808, 35.4957297], [-97.5025234, 35.4957811], [-97.5025623, 35.495822], [-97.5026107, 35.4958677], [-97.502685, 35.4959232], [-97.5027705, 35.495977], [-97.5029121, 35.495805]]]}, "properties": {"osm_id": 180851043, "building": "office", "name": "Oliver Hodge Building", "height": null, "height_m": null, "levels": null, "tract_id": "40109100500", "tract_name": "1005", "tags": {"addr:city": "Oklahoma City", "addr:housenumber": "2500", "addr:postcode": "73105", "addr:state": "OK", "addr:street": "North Lincoln Boulevard", "building": "office", "name": "Oliver Hodge Building", "office": "government"}}}, {"type": "Feature", "geometry": {"type": "Polygon", "coordinates": [[[-97.5041236, 35.498083], [-97.5038261, 35.4979341], [-97.5036408, 35.4981965], [-97.5039385, 35.4983406], [-97.5041236, 35.498083]]]}, "properties": {"osm_id": 180851044, "building": "yes", "name": "", "height": null, "height_m": null, "levels": null, "tract_id": "40109100500", "tract_name": "1005", "tags": {"building": "yes"}}}, {"type": "Feature", "geometry": {"type": "Polygon", "coordinates": [[[-97.5037078, 35.4958083], [-97.50377, 35.4957712], [-97.5038311, 35.4957267], [-97.5038945, 35.4956654], [-97.5039506, 35.4955973], [-97.503981, 35.4955399], [-97.5040113, 35.4954669], [-97.5040299, 35.4953869], [-97.5040338, 35.4953125], [-97.5042864, 35.4953134], [-97.5042845, 35.4953775], [-97.5042749, 35.4954405], [-97.5042585, 35.4955052], [-97.5042343, 35.4955767], [-97.5041991, 35.4956508], [-97.5042317, 35.4956658], [-97.5042225, 35.4956791], [-97.5042547, 35.4956937], [-97.5042363, 35.4957217], [-97.5042181, 35.4957494], [-97.5041864, 35.4957361], [-97.5041756, 35.4957517], [-97.5041411, 35.495737], [-97.5040861, 35.4957983], [-97.5040227, 35.4958607], [-97.5039571, 35.4959121], [-97.5039068, 35.4959469], [-97.5038501, 35.4959793], [-97.5037078, 35.4958083]]]}, "properties": {"osm_id": 180851046, "building": "office", "name": "M.C. Connors Building", "height": null, "height_m": null, "levels": null, "tract_id": "40109100500", "tract_name": "1005", "tags": {"addr:city": "Oklahoma City", "addr:housenumber": "2501", "addr:postcode": "73105", "addr:state": "OK", "addr:street": "North Lincoln Boulevard", "building": "office", "name": "M.C. Connors Building", "office": "government"}}}, {"type": "Feature", "geometry": {"type": "Polygon", "coordinates": [[[-97.5046894, 35.4978755], [-97.5044296, 35.497873], [-97.5044242, 35.4981219], [-97.5046786, 35.4981266], [-97.5046894, 35.4978755]]]}, "properties": {"osm_id": 180851049, "building": "yes", "name": "", "height": null, "height_m": null, "levels": null, "tract_id": "40109100500", "tract_name": "1005", "tags": {"building": "yes"}}}, {"type": "Feature", "geometry": {"type": "Polygon", "coordinates": [[[-97.5046407, 35.4967227], [-97.5045868, 35.4966591], [-97.5045343, 35.4966886], [-97.5045393, 35.4966945], [-97.5045015, 35.4967158], [-97.504482, 35.4966927], [-97.5045408, 35.4966597], [-97.5045162, 35.4966307], [-97.5044423, 35.4966723], [-97.5044233, 35.496683], [-97.5044653, 35.4967325], [-97.5045117, 35.4967871], [-97.5045808, 35.4967483], [-97.5045854, 35.4967537], [-97.5045921, 35.4967499], [-97.5046407, 35.4967227]]]}, "properties": {"osm_id": 184527220, "building": "yes", "name": "", "height": null, "height_m": null, "levels": null, "tract_id": "40109100500", "tract_name": "1005", "tags": {"building": "yes"}}}, {"type": "Feature", "geometry": {"type": "Polygon", "coordinates": [[[-97.5016036, 35.497656], [-97.5016616, 35.4976096], [-97.5016984, 35.4976394], [-97.5018011, 35.4975563], [-97.5016452, 35.4974296], [-97.5016246, 35.4974058], [-97.501617, 35.4973756], [-97.501619, 35.4971938], [-97.5015053, 35.4971937], [-97.5015048, 35.4972265], [-97.501391, 35.4972266], [-97.5013904, 35.4973686], [-97.5012819, 35.4973689], [-97.5012804, 35.4975023], [-97.5013884, 35.4975015], [-97.5013887, 35.4976261], [-97.501505, 35.4976263], [-97.5015055, 35.4975766], [-97.5016036, 35.497656]]]}, "properties": {"osm_id": 184589443, "building": "yes", "name": "", "height": null, "height_m": null, "levels": null, "tract_id": "40109100500", "tract_name": "1005", "tags": {"building": "yes"}}}, {"type": "Feature", "geometry": {"type": "Polygon", "coordinates": [[[-97.4959642, 35.4936216], [-97.4952829, 35.4936205], [-97.4952842, 35.4937297], [-97.4952172, 35.4937318], [-97.4952101, 35.4937227], [-97.4950804, 35.4937198], [-97.4950656, 35.4937307], [-97.4950652, 35.493762], [-97.4951287, 35.4937624], [-97.4951256, 35.493881], [-97.4951421, 35.4938934], [-97.4959655, 35.4939033], [-97.4959642, 35.4937963], [-97.495995, 35.4937941], [-97.495995, 35.4937307], [-97.4959655, 35.4937307], [-97.4959642, 35.4936216]]]}, "properties": {"osm_id": 184589877, "building": "yes", "name": "Oklahoma City County Healty Department", "height": null, "height_m": null, "levels": null, "tract_id": "40109100500", "tract_name": "1005", "tags": {"building": "yes", "name": "Oklahoma City County Healty Department", "office": "government", "source": "Bing"}}}, {"type": "Feature", "geometry": {"type": "Polygon", "coordinates": [[[-97.496507, 35.4940422], [-97.4964105, 35.4940418], [-97.4964093, 35.4942018], [-97.4965059, 35.4942023], [-97.496507, 35.4940422]]]}, "properties": {"osm_id": 184589974, "building": "yes", "name": "", "height": null, "height_m": null, "levels": null, "tract_id": "40109100500", "tract_name": "1005", "tags": {"building": "yes", "source": "Bing"}}}, {"type": "Feature", "geometry": {"type": "Polygon", "coordinates": [[[-97.5127091, 35.5031074], [-97.5129827, 35.5031205], [-97.5129934, 35.503186], [-97.5129695, 35.5031863], [-97.5125913, 35.5031907], [-97.5125911, 35.503055], [-97.5127118, 35.5030594], [-97.5127091, 35.5031074]]]}, "properties": {"osm_id": 188168742, "building": "yes", "name": "", "height": null, "height_m": null, "levels": null, "tract_id": "40109100500", "tract_name": "1005", "tags": {"building": "yes"}}}, {"type": "Feature", "geometry": {"type": "Polygon", "coordinates": [[[-97.5126331, 35.5015141], [-97.5126396, 35.5008254], [-97.5124221, 35.5008234], [-97.5123041, 35.5008234], [-97.5123061, 35.5015129], [-97.5126331, 35.5015141]]]}, "properties": {"osm_id": 188168743, "building": "yes", "name": "", "height": null, "height_m": null, "levels": null, "tract_id": "40109100500", "tract_name": "1005", "tags": {"building": "yes"}}}, {"type": "Feature", "geometry": {"type": "Polygon", "coordinates": [[[-97.5126662, 35.5008256], [-97.5126396, 35.5008254], [-97.5124221, 35.5008234], [-97.5124224, 35.5004089], [-97.5126742, 35.5004129], [-97.5126662, 35.5008256]]]}, "properties": {"osm_id": 188168744, "building": "yes", "name": "", "height": null, "height_m": null, "levels": null, "tract_id": "40109100500", "tract_name": "1005", "tags": {"building": "yes"}}}, {"type": "Feature", "geometry": {"type": "Polygon", "coordinates": [[[-97.5118669, 35.500699], [-97.5116845, 35.5007033], [-97.5115021, 35.5008758], [-97.5114058, 35.5010159], [-97.511368, 35.5011903], [-97.5113653, 35.5014632], [-97.5118642, 35.5014676], [-97.5118669, 35.500699]]]}, "properties": {"osm_id": 188168746, "building": "yes", "name": "", "height": null, "height_m": null, "levels": null, "tract_id": "40109100500", "tract_name": "1005", "tags": {"building": "yes"}}}, {"type": "Feature", "geometry": {"type": "Polygon", "coordinates": [[[-97.5126331, 35.5015141], [-97.5123061, 35.5015129], [-97.5123053, 35.5016484], [-97.5126324, 35.5016497], [-97.5126331, 35.5015141]]]}, "properties": {"osm_id": 188168747, "building": "yes", "name": "", "height": null, "height_m": null, "levels": null, "tract_id": "40109100500", "tract_name": "1005", "tags": {"building": "yes"}}}, {"type": "Feature", "geometry": {"type": "Polygon", "coordinates": [[[-97.5127735, 35.5021991], [-97.5123658, 35.5021991], [-97.5123631, 35.5017449], [-97.5127735, 35.5017493], [-97.5127735, 35.5021991]]]}, "properties": {"osm_id": 188168750, "building": "yes", "name": "", "height": null, "height_m": null, "levels": null, "tract_id": "40109100500", "tract_name": "1005", "tags": {"building": "yes"}}}, {"type": "Feature", "geometry": {"type": "Polygon", "coordinates": [[[-97.5125913, 35.5031907], [-97.5125884, 35.5034546], [-97.5129746, 35.503459], [-97.5129695, 35.5031863], [-97.5125913, 35.5031907]]]}, "properties": {"osm_id": 188168752, "building": "yes", "name": "", "height": null, "height_m": null, "levels": null, "tract_id": "40109100500", "tract_name": "1005", "tags": {"building": "yes"}}}, {"type": "Feature", "geometry": {"type": "Polygon", "coordinates": [[[-97.5129746, 35.503459], [-97.5129693, 35.5037341], [-97.5125324, 35.5037301], [-97.5122909, 35.5037279], [-97.512288, 35.5034524], [-97.5125884, 35.5034546], [-97.5129746, 35.503459]]]}, "properties": {"osm_id": 188168753, "building": "yes", "name": "", "height": null, "height_m": null, "levels": null, "tract_id": "40109100500", "tract_name": "1005", "tags": {"building": "yes"}}}, {"type": "Feature", "geometry": {"type": "Polygon", "coordinates": [[[-97.5129693, 35.5042778], [-97.5125321, 35.5042778], [-97.5125324, 35.5037301], [-97.5129693, 35.5037341], [-97.5129693, 35.5042778]]]}, "properties": {"osm_id": 188168782, "building": "yes", "name": "", "height": null, "height_m": null, "levels": null, "tract_id": "40109100500", "tract_name": "1005", "tags": {"building": "yes"}}}, {"type": "Feature", "geometry": {"type": "Polygon", "coordinates": [[[-97.5129693, 35.5042778], [-97.5129559, 35.5045573], [-97.5127201, 35.5045543], [-97.5123956, 35.5045502], [-97.5122963, 35.5045489], [-97.5122936, 35.5042847], [-97.5125321, 35.5042778], [-97.5129693, 35.5042778]]]}, "properties": {"osm_id": 188168783, "building": "yes", "name": "", "height": null, "height_m": null, "levels": null, "tract_id": "40109100500", "tract_name": "1005", "tags": {"building": "yes"}}}, {"type": "Feature", "geometry": {"type": "Polygon", "coordinates": [[[-97.5132536, 35.5064504], [-97.5123631, 35.5064504], [-97.5123658, 35.5058936], [-97.5132616, 35.5058936], [-97.5132536, 35.5064504]]]}, "properties": {"osm_id": 188168822, "building": "yes", "name": "", "height": null, "height_m": null, "levels": null, "tract_id": "40109100500", "tract_name": "1005", "tags": {"building": "yes"}}}, {"type": "Feature", "geometry": {"type": "Polygon", "coordinates": [[[-97.5132616, 35.5058936], [-97.5132724, 35.5052888], [-97.5132056, 35.5052913], [-97.5132053, 35.5051272], [-97.5130413, 35.5051272], [-97.5129854, 35.5051272], [-97.5127171, 35.5051272], [-97.5123765, 35.5051294], [-97.5123658, 35.5058936], [-97.5132616, 35.5058936]]]}, "properties": {"osm_id": 188168823, "building": "yes", "name": "", "height": null, "height_m": null, "levels": null, "tract_id": "40109100500", "tract_name": "1005", "tags": {"building": "yes"}}}, {"type": "Feature", "geometry": {"type": "Polygon", "coordinates": [[[-97.5127171, 35.5051272], [-97.5123765, 35.5051294], [-97.5123792, 35.5049481], [-97.5127181, 35.5049463], [-97.5127171, 35.5051272]]]}, "properties": {"osm_id": 188168824, "building": "yes", "name": "", "height": null, "height_m": null, "levels": null, "tract_id": "40109100500", "tract_name": "1005", "tags": {"building": "yes"}}}, {"type": "Feature", "geometry": {"type": "Polygon", "coordinates": [[[-97.5129559, 35.5045573], [-97.5129934, 35.5045638], [-97.5129854, 35.5051272], [-97.5127171, 35.5051272], [-97.5127181, 35.5049463], [-97.5127201, 35.5045543], [-97.5129559, 35.5045573]]]}, "properties": {"osm_id": 188168825, "building": "yes", "name": "", "height": null, "height_m": null, "levels": null, "tract_id": "40109100500", "tract_name": "1005", "tags": {"building": "yes"}}}, {"type": "Feature", "geometry": {"type": "Polygon", "coordinates": [[[-97.5123792, 35.5049481], [-97.5123956, 35.5045502], [-97.5127201, 35.5045543], [-97.5127181, 35.5049463], [-97.5123792, 35.5049481]]]}, "properties": {"osm_id": 188168826, "building": "yes", "name": "", "height": null, "height_m": null, "levels": null, "tract_id": "40109100500", "tract_name": "1005", "tags": {"building": "yes"}}}, {"type": "Feature", "geometry": {"type": "Polygon", "coordinates": [[[-97.5132536, 35.5064504], [-97.5132589, 35.506732], [-97.513216, 35.5067342], [-97.513216, 35.5068259], [-97.5123741, 35.5068263], [-97.5123631, 35.5064504], [-97.5132536, 35.5064504]]]}, "properties": {"osm_id": 188168827, "building": "yes", "name": "", "height": null, "height_m": null, "levels": null, "tract_id": "40109100500", "tract_name": "1005", "tags": {"building": "yes"}}}, {"type": "Feature", "geometry": {"type": "Polygon", "coordinates": [[[-97.5123788, 35.4946804], [-97.5123431, 35.4946794], [-97.5123431, 35.4947395], [-97.5122371, 35.4947395], [-97.5122398, 35.4945014], [-97.5123471, 35.4945003], [-97.5123455, 35.4946193], [-97.5123794, 35.4946215], [-97.5123788, 35.4946804]]]}, "properties": {"osm_id": 189931068, "building": "yes", "name": "BNSF - Nowers", "height": null, "height_m": null, "levels": null, "tract_id": "40109100500", "tract_name": "1005", "tags": {"building": "yes", "name": "BNSF - Nowers"}}}, {"type": "Feature", "geometry": {"type": "Polygon", "coordinates": [[[-97.5036622, 35.4993511], [-97.5036654, 35.4994917], [-97.5037759, 35.4994936], [-97.5037772, 35.4995576], [-97.5037819, 35.4997917], [-97.5041011, 35.4997927], [-97.5040963, 35.4996138], [-97.5041492, 35.4996129], [-97.5041492, 35.4996324], [-97.504334, 35.4996324], [-97.504335, 35.4995653], [-97.5043352, 35.4995503], [-97.5040963, 35.4995523], [-97.5040939, 35.4994888], [-97.5041924, 35.4994897], [-97.5041891, 35.4993511], [-97.5036622, 35.4993511]]]}, "properties": {"osm_id": 243800397, "building": "yes", "name": "Oklahoma Employees Credit Union", "height": null, "height_m": null, "levels": null, "tract_id": "40109100500", "tract_name": "1005", "tags": {"addr:city": "Oklahoma City", "addr:housenumber": "3001", "addr:postcode": "73105", "addr:street": "North Lincoln Boulevard", "atm": "yes", "building": "yes", "name": "Oklahoma Employees Credit Union"}}}, {"type": "Feature", "geometry": {"type": "Polygon", "coordinates": [[[-97.5009772, 35.4942024], [-97.5008989, 35.4942395], [-97.5008248, 35.4942229], [-97.500797, 35.4942373], [-97.5008737, 35.4943444], [-97.5009091, 35.4943256], [-97.5009274, 35.4942697], [-97.5009998, 35.4942348], [-97.5009772, 35.4942024]]]}, "properties": {"osm_id": 244577711, "building": "yes", "name": "", "height": null, "height_m": null, "levels": null, "tract_id": "40109100500", "tract_name": "1005", "tags": {"building": "yes"}}}, {"type": "Feature", "geometry": {"type": "Polygon", "coordinates": [[[-97.5052506, 35.5002073], [-97.5046513, 35.5002073], [-97.5046513, 35.5000084], [-97.5052473, 35.5000111], [-97.5052506, 35.5002073]]]}, "properties": {"osm_id": 244745817, "building": "yes", "name": "", "height": null, "height_m": null, "levels": null, "tract_id": "40109100500", "tract_name": "1005", "tags": {"building": "yes"}}}, {"type": "Feature", "geometry": {"type": "Polygon", "coordinates": [[[-97.5048392, 35.4991563], [-97.50442, 35.4991499], [-97.5044181, 35.4988231], [-97.5048412, 35.4988264], [-97.5048392, 35.4991563]]]}, "properties": {"osm_id": 244745819, "building": "yes", "name": "Oklahoma Tax Commission", "height": null, "height_m": 12.0, "levels": 4, "tract_id": "40109100500", "tract_name": "1005", "tags": {"addr:city": "Oklahoma City", "addr:housenumber": "409", "addr:street": "Northeast 28th Street", "building": "yes", "building:levels": "4", "name": "Oklahoma Tax Commission"}}}, {"type": "Feature", "geometry": {"type": "Polygon", "coordinates": [[[-97.5041447, 35.4989196], [-97.5040646, 35.4989748], [-97.5040741, 35.4989825], [-97.5040289, 35.4990121], [-97.5040209, 35.4990044], [-97.5039407, 35.4990566], [-97.5038219, 35.4989409], [-97.5038846, 35.4989006], [-97.5038766, 35.4988893], [-97.5039553, 35.4988359], [-97.5039677, 35.4988413], [-97.5040252, 35.4988021], [-97.5040544, 35.4988294], [-97.5040981, 35.4988057], [-97.5041586, 35.4988632], [-97.50412, 35.4988881], [-97.5041447, 35.4989196]]]}, "properties": {"osm_id": 244745820, "building": "yes", "name": "", "height": null, "height_m": null, "levels": null, "tract_id": "40109100500", "tract_name": "1005", "tags": {"building": "yes"}}}, {"type": "Feature", "geometry": {"type": "Polygon", "coordinates": [[[-97.507525, 35.499606], [-97.5073138, 35.4996051], [-97.5073174, 35.4990911], [-97.5075286, 35.499092], [-97.507525, 35.499606]]]}, "properties": {"osm_id": 244747693, "building": "apartments", "name": "", "height": null, "height_m": null, "levels": null, "tract_id": "40109100500", "tract_name": "1005", "tags": {"building": "apartments"}}}, {"type": "Feature", "geometry": {"type": "Polygon", "coordinates": [[[-97.5075118, 35.4989836], [-97.5068781, 35.4989836], [-97.5068769, 35.4988028], [-97.5075166, 35.4988086], [-97.5075118, 35.4989836]]]}, "properties": {"osm_id": 244747694, "building": "apartments", "name": "", "height": null, "height_m": null, "levels": null, "tract_id": "40109100500", "tract_name": "1005", "tags": {"building": "apartments"}}}, {"type": "Feature", "geometry": {"type": "Polygon", "coordinates": [[[-97.5066932, 35.4988086], [-97.5066932, 35.4990969], [-97.5065132, 35.499095], [-97.5065144, 35.4988047], [-97.5066932, 35.4988086]]]}, "properties": {"osm_id": 244747695, "building": "apartments", "name": "", "height": null, "height_m": null, "levels": null, "tract_id": "40109100500", "tract_name": "1005", "tags": {"building": "apartments"}}}, {"type": "Feature", "geometry": {"type": "Polygon", "coordinates": [[[-97.5063295, 35.4988106], [-97.5056873, 35.4988047], [-97.5056885, 35.4989748], [-97.5063295, 35.4989797], [-97.5063295, 35.4988106]]]}, "properties": {"osm_id": 244747696, "building": "apartments", "name": "", "height": null, "height_m": null, "levels": null, "tract_id": "40109100500", "tract_name": "1005", "tags": {"building": "apartments"}}}, {"type": "Feature", "geometry": {"type": "Polygon", "coordinates": [[[-97.5058902, 35.4990911], [-97.5058866, 35.4995982], [-97.5056681, 35.4995963], [-97.5056705, 35.4990881], [-97.5058902, 35.4990911]]]}, "properties": {"osm_id": 244747697, "building": "apartments", "name": "", "height": null, "height_m": null, "levels": null, "tract_id": "40109100500", "tract_name": "1005", "tags": {"building": "apartments"}}}, {"type": "Feature", "geometry": {"type": "Polygon", "coordinates": [[[-97.5061499, 35.4997026], [-97.505743, 35.4996987], [-97.505737, 35.5002938], [-97.5061463, 35.5002938], [-97.5061499, 35.4997026]]]}, "properties": {"osm_id": 244747699, "building": "yes", "name": "Oklahoma Department of Labor", "height": null, "height_m": 3.0, "levels": 1, "tract_id": "40109100500", "tract_name": "1005", "tags": {"building": "yes", "building:levels": "1", "name": "Oklahoma Department of Labor"}}}, {"type": "Feature", "geometry": {"type": "Polygon", "coordinates": [[[-97.5070866, 35.5002849], [-97.5069166, 35.5002817], [-97.5069225, 35.5000258], [-97.5070886, 35.5000225], [-97.5070866, 35.5002849]]]}, "properties": {"osm_id": 244747704, "building": "yes", "name": "", "height": null, "height_m": null, "levels": null, "tract_id": "40109100500", "tract_name": "1005", "tags": {"building": "yes"}}}, {"type": "Feature", "geometry": {"type": "Polygon", "coordinates": [[[-97.5084662, 35.5003604], [-97.5082766, 35.5003583], [-97.5082784, 35.5002327], [-97.5082773, 35.5000821], [-97.5084682, 35.5000859], [-97.5084662, 35.5003604]]]}, "properties": {"osm_id": 244747707, "building": "yes", "name": "", "height": null, "height_m": null, "levels": null, "tract_id": "40109100500", "tract_name": "1005", "tags": {"building": "yes"}}}, {"type": "Feature", "geometry": {"type": "Polygon", "coordinates": [[[-97.5080667, 35.5003579], [-97.5078701, 35.5003573], [-97.507872, 35.5000842], [-97.508068, 35.5000832], [-97.5080677, 35.5002312], [-97.5080667, 35.5003579]]]}, "properties": {"osm_id": 244747708, "building": "yes", "name": "", "height": null, "height_m": null, "levels": null, "tract_id": "40109100500", "tract_name": "1005", "tags": {"building": "yes"}}}, {"type": "Feature", "geometry": {"type": "Polygon", "coordinates": [[[-97.5097736, 35.4989661], [-97.5096583, 35.4989661], [-97.5096574, 35.4989549], [-97.5093304, 35.4989563], [-97.5093287, 35.4988694], [-97.5094199, 35.4988701], [-97.5094199, 35.4988505], [-97.5094423, 35.4988491], [-97.5094406, 35.4987531], [-97.5097753, 35.4987566], [-97.5097736, 35.4989661]]]}, "properties": {"osm_id": 244747709, "building": "yes", "name": "", "height": null, "height_m": null, "levels": null, "tract_id": "40109100500", "tract_name": "1005", "tags": {"building": "yes"}}}, {"type": "Feature", "geometry": {"type": "Polygon", "coordinates": [[[-97.5089361, 35.4988745], [-97.5089381, 35.4989791], [-97.5088274, 35.4989791], [-97.5088254, 35.4988745], [-97.5089361, 35.4988745]]]}, "properties": {"osm_id": 244747712, "building": "yes", "name": "", "height": null, "height_m": null, "levels": null, "tract_id": "40109100500", "tract_name": "1005", "tags": {"building": "yes"}}}, {"type": "Feature", "geometry": {"type": "Polygon", "coordinates": [[[-97.5118616, 35.4941667], [-97.5118665, 35.4938436], [-97.511719, 35.4938435], [-97.5116913, 35.4938435], [-97.5116323, 35.4937963], [-97.5114472, 35.4937977], [-97.5114472, 35.4938711], [-97.5114472, 35.4939623], [-97.5114473, 35.4940439], [-97.5114473, 35.494127], [-97.5114473, 35.4942409], [-97.5114473, 35.4943209], [-97.5114473, 35.4944011], [-97.5116297, 35.4944015], [-97.5116295, 35.4943208], [-97.5116308, 35.4942405], [-97.5116313, 35.4942151], [-97.5116918, 35.4941627], [-97.5117212, 35.494166], [-97.5118616, 35.4941667]]]}, "properties": {"osm_id": 270277000, "building": "roof", "name": "On Cue Express", "height": null, "height_m": null, "levels": null, "tract_id": "40109100500", "tract_name": "1005", "tags": {"addr:city": "Oklahoma City", "addr:housenumber": "1", "addr:state": "OK", "addr:street": "Northeast 23rd Street", "amenity": "fuel", "building": "roof", "fuel:cng": "yes", "fuel:diesel": "yes", "fuel:e10": "yes", "fuel:e85": "yes", "fuel:octane_91": "yes", "name": "On Cue Express", "roof:material": "metal", "roof:shape": "flat", "source": "Bing"}}}, {"type": "Feature", "geometry": {"type": "Polygon", "coordinates": [[[-97.5120181, 35.494196], [-97.5118612, 35.4941944], [-97.5118612, 35.49419], [-97.5118616, 35.4941667], [-97.5118665, 35.4938436], [-97.5118669, 35.4938191], [-97.511989, 35.4938204], [-97.5119849, 35.4940927], [-97.5120197, 35.494093], [-97.5120181, 35.494196]]]}, "properties": {"osm_id": 270277001, "building": "yes", "name": "On Cue Express", "height": null, "height_m": null, "levels": null, "tract_id": "40109100500", "tract_name": "1005", "tags": {"addr:city": "Oklahoma City", "addr:housenumber": "1", "addr:state": "OK", "addr:street": "Northeast 23rd Street", "building": "yes", "name": "On Cue Express", "roof:shape": "flat", "shop": "convenience", "source": "Bing"}}}, {"type": "Feature", "geometry": {"type": "Polygon", "coordinates": [[[-97.5117115, 35.4946327], [-97.5116311, 35.4946334], [-97.5116326, 35.4947509], [-97.511713, 35.4947502], [-97.5117115, 35.4946327]]]}, "properties": {"osm_id": 270277002, "building": "roof", "name": "On Cue Express", "height": null, "height_m": null, "levels": null, "tract_id": "40109100500", "tract_name": "1005", "tags": {"addr:city": "Oklahoma City", "addr:housenumber": "1", "addr:state": "OK", "addr:street": "Northeast 23rd Street", "amenity": "fuel", "building": "roof", "fuel:cng": "yes", "name": "On Cue Express", "roof:material": "metal", "roof:shape": "flat", "source": "Bing"}}}, {"type": "Feature", "geometry": {"type": "Polygon", "coordinates": [[[-97.5086273, 35.4936481], [-97.5085401, 35.4936463], [-97.508546, 35.4934531], [-97.5086332, 35.4934549], [-97.5086273, 35.4936481]]]}, "properties": {"osm_id": 270277204, "building": "yes", "name": "Burger King", "height": null, "height_m": null, "levels": null, "tract_id": "40109100500", "tract_name": "1005", "tags": {"addr:city": "Oklahoma City", "addr:housenumber": "135", "addr:postcode": "73105-3003", "addr:state": "OK", "addr:street": "Northeast 23rd Street", "amenity": "fast_food", "brand": "Burger King", "brand:wikidata": "Q177054", "building": "yes", "cuisine": "burger", "delivery": "yes", "drive_through": "yes", "internet_access": "wlan", "landuse": "commercial", "name": "Burger King", "opening_hours": "07:00-21:00", "phone": "+1 405-521-1667", "ref": "17131", "roof:shape": "flat", "source": "Bing", "takeaway": "yes", "website": "https://www.bk.com/store-locator/store/restaurant_10832"}}}, {"type": "Feature", "geometry": {"type": "Polygon", "coordinates": [[[-97.510258, 35.4936829], [-97.5100582, 35.4936814], [-97.5100616, 35.4933942], [-97.5102614, 35.4933958], [-97.510258, 35.4936829]]]}, "properties": {"osm_id": 270277205, "building": "yes", "name": "Chad Hoecker Ocean Dental", "height": null, "height_m": null, "levels": null, "tract_id": "40109100500", "tract_name": "1005", "tags": {"amenity": "dentist", "building": "yes", "healthcare": "dentist", "landuse": "retail", "name": "Chad Hoecker Ocean Dental", "roof:shape": "flat", "source": "Bing"}}}, {"type": "Feature", "geometry": {"type": "Polygon", "coordinates": [[[-97.5093637, 35.4935925], [-97.5092296, 35.4935916], [-97.5092312, 35.49343], [-97.5093653, 35.4934309], [-97.5093637, 35.4935925]]]}, "properties": {"osm_id": 270277206, "building": "yes", "name": "Rickys Mexican Caf\u00e9", "height": null, "height_m": null, "levels": null, "tract_id": "40109100500", "tract_name": "1005", "tags": {"amenity": "fast_food", "building": "yes", "landuse": "commercial", "name": "Rickys Mexican Caf\u00e9", "source": "Bing"}}}, {"type": "Feature", "geometry": {"type": "Polygon", "coordinates": [[[-97.5096782, 35.4939622], [-97.5094516, 35.4939612], [-97.5094531, 35.4937439], [-97.5096797, 35.4937449], [-97.5096782, 35.4939622]]]}, "properties": {"osm_id": 270277207, "building": "yes", "name": "", "height": null, "height_m": null, "levels": null, "tract_id": "40109100500", "tract_name": "1005", "tags": {"building": "yes", "source": "Bing"}}}, {"type": "Feature", "geometry": {"type": "Polygon", "coordinates": [[[-97.5083095, 35.4936558], [-97.5081392, 35.4936539], [-97.5081423, 35.4934629], [-97.5083126, 35.4934647], [-97.5083095, 35.4936558]]]}, "properties": {"osm_id": 270277208, "building": "yes", "name": "", "height": null, "height_m": null, "levels": null, "tract_id": "40109100500", "tract_name": "1005", "tags": {"building": "yes", "source": "Bing"}}}, {"type": "Feature", "geometry": {"type": "Polygon", "coordinates": [[[-97.5075206, 35.4936347], [-97.507354, 35.4936361], [-97.5073507, 35.4933757], [-97.5075668, 35.4933739], [-97.5075683, 35.4934943], [-97.5075188, 35.4934947], [-97.5075206, 35.4936347]]]}, "properties": {"osm_id": 270277209, "building": "yes", "name": "", "height": null, "height_m": null, "levels": null, "tract_id": "40109100500", "tract_name": "1005", "tags": {"building": "yes", "roof:colour": "silver", "roof:shape": "flat", "source": "Bing"}}}, {"type": "Feature", "geometry": {"type": "Polygon", "coordinates": [[[-97.5083212, 35.4937766], [-97.5081146, 35.4937758], [-97.5081093, 35.4939811], [-97.5083238, 35.4939819], [-97.5083212, 35.4937766]]]}, "properties": {"osm_id": 270277210, "building": "yes", "name": "", "height": null, "height_m": null, "levels": null, "tract_id": "40109100500", "tract_name": "1005", "tags": {"building": "yes", "roof:shape": "flat", "source": "Bing"}}}, {"type": "Feature", "geometry": {"type": "Polygon", "coordinates": [[[-97.5006461, 35.5055608], [-97.5006455, 35.5057321], [-97.5000151, 35.5057306], [-97.5000155, 35.5056193], [-97.499997, 35.5056192], [-97.4999972, 35.5055658], [-97.4999913, 35.5055658], [-97.4999915, 35.5055258], [-97.4999839, 35.5055258], [-97.4999768, 35.5055258], [-97.4999769, 35.5054837], [-97.5001291, 35.5054841], [-97.5001289, 35.5055472], [-97.5002522, 35.5055475], [-97.5002521, 35.5055599], [-97.5006461, 35.5055608]]]}, "properties": {"osm_id": 276922330, "building": "yes", "name": "", "height": null, "height_m": null, "levels": null, "tract_id": "40109100500", "tract_name": "1005", "tags": {"building": "yes", "roof:shape": "flat", "source": "Bing"}}}, {"type": "Feature", "geometry": {"type": "Polygon", "coordinates": [[[-97.5003783, 35.5054569], [-97.5001365, 35.5054569], [-97.5001365, 35.5053671], [-97.5003783, 35.5053671], [-97.5003783, 35.5054569]]]}, "properties": {"osm_id": 276922331, "building": "yes", "name": "", "height": null, "height_m": null, "levels": null, "tract_id": "40109100500", "tract_name": "1005", "tags": {"building": "yes", "source": "Bing"}}}, {"type": "Feature", "geometry": {"type": "Polygon", "coordinates": [[[-97.5004706, 35.5053698], [-97.5007582, 35.5053698], [-97.5007582, 35.5054385], [-97.5006758, 35.5054385], [-97.5006758, 35.5054558], [-97.5004706, 35.5054558], [-97.5004706, 35.5053698]]]}, "properties": {"osm_id": 276922332, "building": "yes", "name": "", "height": null, "height_m": null, "levels": null, "tract_id": "40109100500", "tract_name": "1005", "tags": {"building": "yes", "source": "Bing"}}}, {"type": "Feature", "geometry": {"type": "Polygon", "coordinates": [[[-97.5028047, 35.5076046], [-97.5024832, 35.5076046], [-97.5024832, 35.5073159], [-97.5028047, 35.5073159], [-97.5028047, 35.5076046]]]}, "properties": {"osm_id": 276923270, "building": "yes", "name": "", "height": null, "height_m": null, "levels": null, "tract_id": "40109100500", "tract_name": "1005", "tags": {"building": "yes", "roof:shape": "flat", "source": "Bing"}}}, {"type": "Feature", "geometry": {"type": "Polygon", "coordinates": [[[-97.5014124, 35.507385], [-97.501415, 35.5075082], [-97.5011785, 35.5075114], [-97.501176, 35.5073882], [-97.5014124, 35.507385]]]}, "properties": {"osm_id": 276923271, "building": "yes", "name": "", "height": null, "height_m": null, "levels": null, "tract_id": "40109100500", "tract_name": "1005", "tags": {"building": "yes", "source": "Bing"}}}, {"type": "Feature", "geometry": {"type": "Polygon", "coordinates": [[[-97.5017978, 35.5075062], [-97.501548, 35.5075116], [-97.5015453, 35.5074283], [-97.501795, 35.5074229], [-97.5017978, 35.5075062]]]}, "properties": {"osm_id": 276923272, "building": "yes", "name": "", "height": null, "height_m": null, "levels": null, "tract_id": "40109100500", "tract_name": "1005", "tags": {"building": "yes", "roof:shape": "gabled", "source": "Bing"}}}, {"type": "Feature", "geometry": {"type": "Polygon", "coordinates": [[[-97.502106, 35.5073105], [-97.502106, 35.50761], [-97.5019014, 35.50761], [-97.5019014, 35.5073105], [-97.502106, 35.5073105]]]}, "properties": {"osm_id": 276923274, "building": "yes", "name": "", "height": null, "height_m": null, "levels": null, "tract_id": "40109100500", "tract_name": "1005", "tags": {"building": "yes", "roof:shape": "flat", "source": "Bing"}}}, {"type": "Feature", "geometry": {"type": "Polygon", "coordinates": [[[-97.5029123, 35.5071558], [-97.5028366, 35.5071558], [-97.5028366, 35.5071634], [-97.5027835, 35.5071634], [-97.5027835, 35.5071558], [-97.5026706, 35.5071558], [-97.5026706, 35.5070466], [-97.5029123, 35.5070466], [-97.5029123, 35.5071558]]]}, "properties": {"osm_id": 276923276, "building": "commercial", "name": "Arby's", "height": null, "height_m": null, "levels": null, "tract_id": "40109100500", "tract_name": "1005", "tags": {"addr:city": "Oklahoma City", "addr:housenumber": "3628", "addr:postcode": "73105", "addr:state": "OK", "addr:street": "North Lincoln Boulevard", "amenity": "fast_food", "brand": "Arby's", "brand:wikidata": "Q630866", "building": "commercial", "check_date": "2024-06-21", "cuisine": "sandwich", "name": "Arby's", "opening_hours": "Mo-Fr 10:00-21:00; Sa 11:00-20:00", "phone": "+1 405-521-9824", "source": "Bing", "takeaway": "yes", "website": "https://www.arbys.com/locations/us/ok/oklahoma-city/3628-n-lincoln-blvd/store-5365/"}}}, {"type": "Feature", "geometry": {"type": "Polygon", "coordinates": [[[-97.501684, 35.5003426], [-97.501684, 35.5000623], [-97.5018305, 35.5000623], [-97.5018305, 35.5001869], [-97.5018421, 35.5001869], [-97.5018421, 35.5002025], [-97.5018996, 35.5002025], [-97.5018995, 35.5002473], [-97.5018417, 35.5002472], [-97.5018417, 35.5002628], [-97.5018296, 35.5002628], [-97.5018296, 35.5003586], [-97.5017596, 35.5003586], [-97.5017596, 35.5003426], [-97.501684, 35.5003426]]]}, "properties": {"osm_id": 280333160, "building": "yes", "name": "Plainview Missionary Baptist Church", "height": null, "height_m": null, "levels": null, "tract_id": "40109100500", "tract_name": "1005", "tags": {"amenity": "place_of_worship", "building": "yes", "denomination": "baptist", "ele": "366", "gnis:feature_id": "1809507", "name": "Plainview Missionary Baptist Church", "religion": "christian"}}}, {"type": "Feature", "geometry": {"type": "Polygon", "coordinates": [[[-97.5009309, 35.4989496], [-97.5007457, 35.4987962], [-97.500648, 35.4988744], [-97.5007521, 35.4989606], [-97.5007698, 35.4989464], [-97.5008509, 35.4990136], [-97.5009309, 35.4989496]]]}, "properties": {"osm_id": 280333171, "building": "yes", "name": "Good Shepherd Missionary Baptist Church", "height": null, "height_m": null, "levels": null, "tract_id": "40109100500", "tract_name": "1005", "tags": {"amenity": "place_of_worship", "building": "yes", "denomination": "baptist", "name": "Good Shepherd Missionary Baptist Church", "religion": "christian"}}}, {"type": "Feature", "geometry": {"type": "Polygon", "coordinates": [[[-97.500793, 35.5003658], [-97.5007929, 35.5001701], [-97.5007573, 35.5001701], [-97.5007573, 35.5001451], [-97.5007769, 35.5001451], [-97.5007769, 35.5000882], [-97.5009306, 35.5000881], [-97.5009306, 35.5001496], [-97.5009073, 35.5001497], [-97.5009073, 35.5001694], [-97.5008904, 35.5001694], [-97.5008905, 35.5003657], [-97.500793, 35.5003658]]]}, "properties": {"osm_id": 280348515, "building": "yes", "name": "", "height": null, "height_m": null, "levels": null, "tract_id": "40109100500", "tract_name": "1005", "tags": {"building": "yes"}}}, {"type": "Feature", "geometry": {"type": "Polygon", "coordinates": [[[-97.4947899, 35.5074847], [-97.4947564, 35.5074847], [-97.4947564, 35.5074803], [-97.4946632, 35.5074798], [-97.4946625, 35.5074301], [-97.4946122, 35.5074301], [-97.4946136, 35.5073646], [-97.4947577, 35.5073641], [-97.4947597, 35.5074214], [-97.4947892, 35.5074219], [-97.4947899, 35.5074847]]]}, "properties": {"osm_id": 596491021, "building": "yes", "name": "Leos Barbecue", "height": null, "height_m": 3.0, "levels": 1, "tract_id": "40109100500", "tract_name": "1005", "tags": {"addr:city": "Oklahoma City", "addr:housenumber": "3631", "addr:postcode": "73111", "addr:state": "OK", "addr:street": "North Kelley Avenue", "amenity": "restaurant", "building": "yes", "building:levels": "1", "cuisine": "barbecue", "name": "Leos Barbecue", "opening_hours": "Tu-Sa 11:00-20:00", "phone": "+1 405-424-5367", "website": "https://www.facebook.com/LeosBarbecue/"}}}, {"type": "Feature", "geometry": {"type": "Polygon", "coordinates": [[[-97.5115217, 35.4936821], [-97.511522, 35.493618], [-97.5115223, 35.49355], [-97.5115887, 35.4935502], [-97.5115883, 35.4936179], [-97.511588, 35.4936824], [-97.5115217, 35.4936821]]]}, "properties": {"osm_id": 749322714, "building": "yes", "name": "On Cue Express", "height": null, "height_m": null, "levels": null, "tract_id": "40109100500", "tract_name": "1005", "tags": {"addr:city": "Oklahoma City", "addr:housenumber": "1", "addr:state": "OK", "addr:street": "Northeast 23rd Street", "amenity": "fuel", "building": "yes", "name": "On Cue Express"}}}, {"type": "Feature", "geometry": {"type": "Polygon", "coordinates": [[[-97.4995083, 35.4943126], [-97.4994464, 35.4942454], [-97.4995959, 35.4941593], [-97.4997391, 35.494078], [-97.4997602, 35.4941013], [-97.4997818, 35.4941244], [-97.4995083, 35.4943126]]]}, "properties": {"osm_id": 781369519, "building": "roof", "name": "", "height": null, "height_m": null, "levels": null, "tract_id": "40109100500", "tract_name": "1005", "tags": {"building": "roof", "layer": "1"}}}, {"type": "Feature", "geometry": {"type": "Polygon", "coordinates": [[[-97.502604, 35.503499], [-97.5026041, 35.5034915], [-97.5026046, 35.5034642], [-97.5026051, 35.5034319], [-97.5026056, 35.5034036], [-97.502606, 35.503381], [-97.502536, 35.503381], [-97.5025356, 35.5034032], [-97.5025352, 35.5034318], [-97.5025346, 35.5034636], [-97.5025342, 35.5034911], [-97.502534, 35.503503], [-97.502505, 35.503503], [-97.5025, 35.503824], [-97.50261, 35.503825], [-97.50261, 35.503785], [-97.502669, 35.503786], [-97.50267, 35.503755], [-97.502745, 35.503756], [-97.502749, 35.503501], [-97.502604, 35.503499]]]}, "properties": {"osm_id": 804976949, "building": "yes", "name": "Department of Public Works Employees Credit Union One of Oklahoma", "height": null, "height_m": null, "levels": null, "tract_id": "40109100500", "tract_name": "1005", "tags": {"amenity": "bank", "building": "yes", "name": "Department of Public Works Employees Credit Union One of Oklahoma", "source": "microsoft/BuildingFootprints"}}}, {"type": "Feature", "geometry": {"type": "Polygon", "coordinates": [[[-97.4955349, 35.5062666], [-97.4954908, 35.50624], [-97.4955011, 35.5062288], [-97.4954145, 35.5061764], [-97.4954076, 35.5061839], [-97.4953196, 35.5061305], [-97.4953867, 35.5060571], [-97.4954693, 35.5061072], [-97.4954778, 35.5060979], [-97.4955716, 35.5061548], [-97.4955599, 35.5061675], [-97.4955836, 35.5061818], [-97.4956023, 35.5061614], [-97.4956208, 35.5061726], [-97.4955349, 35.5062666]]]}, "properties": {"osm_id": 888302239, "building": "apartments", "name": "", "height": null, "height_m": null, "levels": null, "tract_id": "40109100500", "tract_name": "1005", "tags": {"building": "apartments"}}}, {"type": "Feature", "geometry": {"type": "Polygon", "coordinates": [[[-97.4953111, 35.5060561], [-97.4952887, 35.5060809], [-97.49528, 35.5060756], [-97.4952625, 35.506095], [-97.4952526, 35.506089], [-97.4951924, 35.5061559], [-97.4952045, 35.5061631], [-97.4951356, 35.5062396], [-97.4950365, 35.5061805], [-97.4951657, 35.5060371], [-97.4952017, 35.5060586], [-97.4952207, 35.5060375], [-97.4952076, 35.5060297], [-97.4952283, 35.5060066], [-97.4953111, 35.5060561]]]}, "properties": {"osm_id": 888302240, "building": "apartments", "name": "", "height": null, "height_m": null, "levels": null, "tract_id": "40109100500", "tract_name": "1005", "tags": {"building": "apartments"}}}, {"type": "Feature", "geometry": {"type": "Polygon", "coordinates": [[[-97.4964929, 35.4953219], [-97.4964924, 35.495446], [-97.496365, 35.4954457], [-97.496365, 35.4954394], [-97.4963563, 35.4954394], [-97.4963564, 35.4954291], [-97.49629, 35.4954289], [-97.4962903, 35.4953368], [-97.4963584, 35.4953369], [-97.4963584, 35.4953265], [-97.4963677, 35.4953266], [-97.4963677, 35.4953216], [-97.4964929, 35.4953219]]]}, "properties": {"osm_id": 971646623, "building": "house", "name": "", "height": null, "height_m": null, "levels": null, "tract_id": "40109100500", "tract_name": "1005", "tags": {"building": "house"}}}, {"type": "Feature", "geometry": {"type": "Polygon", "coordinates": [[[-97.4964913, 35.4954585], [-97.4962883, 35.4954576], [-97.4962879, 35.4955129], [-97.4963433, 35.4955131], [-97.4963432, 35.4955281], [-97.4962967, 35.4955279], [-97.4962963, 35.4955849], [-97.4964905, 35.4955858], [-97.4964913, 35.4954585]]]}, "properties": {"osm_id": 971646624, "building": "house", "name": "", "height": null, "height_m": null, "levels": null, "tract_id": "40109100500", "tract_name": "1005", "tags": {"building": "house"}}}, {"type": "Feature", "geometry": {"type": "Polygon", "coordinates": [[[-97.4964939, 35.4956036], [-97.4963665, 35.495603], [-97.4963665, 35.4956148], [-97.4962896, 35.4956144], [-97.4962889, 35.495706], [-97.4963562, 35.4957063], [-97.4963561, 35.4957191], [-97.4964931, 35.4957198], [-97.4964939, 35.4956036]]]}, "properties": {"osm_id": 971646625, "building": "house", "name": "", "height": null, "height_m": null, "levels": null, "tract_id": "40109100500", "tract_name": "1005", "tags": {"building": "house"}}}, {"type": "Feature", "geometry": {"type": "Polygon", "coordinates": [[[-97.4964886, 35.4957408], [-97.4963777, 35.4957407], [-97.4963777, 35.4957357], [-97.4962872, 35.4957356], [-97.4962871, 35.4957927], [-97.4963451, 35.4957928], [-97.4963451, 35.4958059], [-97.4962955, 35.4958058], [-97.4962954, 35.4958632], [-97.4963736, 35.4958633], [-97.4963737, 35.4958569], [-97.4964884, 35.4958571], [-97.4964886, 35.4957408]]]}, "properties": {"osm_id": 971646626, "building": "house", "name": "", "height": null, "height_m": null, "levels": null, "tract_id": "40109100500", "tract_name": "1005", "tags": {"building": "house"}}}, {"type": "Feature", "geometry": {"type": "Polygon", "coordinates": [[[-97.4964904, 35.495876], [-97.4963664, 35.4958758], [-97.4963664, 35.4958815], [-97.4963538, 35.4958815], [-97.4963538, 35.4958931], [-97.4962867, 35.495893], [-97.4962865, 35.4959839], [-97.4963522, 35.495984], [-97.4963522, 35.4959951], [-97.4963632, 35.4959951], [-97.4963632, 35.4960011], [-97.4964901, 35.4960013], [-97.4964904, 35.495876]]]}, "properties": {"osm_id": 971646627, "building": "house", "name": "", "height": null, "height_m": null, "levels": null, "tract_id": "40109100500", "tract_name": "1005", "tags": {"building": "house"}}}, {"type": "Feature", "geometry": {"type": "Polygon", "coordinates": [[[-97.4958974, 35.4954118], [-97.4958481, 35.4954114], [-97.4958488, 35.4953597], [-97.4956704, 35.4953582], [-97.4956678, 35.4955575], [-97.4958136, 35.4955587], [-97.4958142, 35.495512], [-97.4958961, 35.4955127], [-97.4958974, 35.4954118]]]}, "properties": {"osm_id": 971646628, "building": "house", "name": "", "height": null, "height_m": null, "levels": null, "tract_id": "40109100500", "tract_name": "1005", "tags": {"building": "house"}}}, {"type": "Feature", "geometry": {"type": "Polygon", "coordinates": [[[-97.4958577, 35.4955765], [-97.4957812, 35.4955761], [-97.4957812, 35.4955797], [-97.4956653, 35.495579], [-97.4956644, 35.4956977], [-97.4957795, 35.4956983], [-97.4957794, 35.4957027], [-97.4958659, 35.4957032], [-97.4958664, 35.4956472], [-97.4958129, 35.4956469], [-97.495813, 35.4956321], [-97.4958572, 35.4956323], [-97.4958577, 35.4955765]]]}, "properties": {"osm_id": 971646629, "building": "house", "name": "", "height": null, "height_m": null, "levels": null, "tract_id": "40109100500", "tract_name": "1005", "tags": {"building": "house"}}}, {"type": "Feature", "geometry": {"type": "Polygon", "coordinates": [[[-97.4958665, 35.4957319], [-97.4957973, 35.4957316], [-97.4957974, 35.4957209], [-97.4957892, 35.4957208], [-97.4957893, 35.4957156], [-97.4956635, 35.4957151], [-97.4956628, 35.4958402], [-97.4957887, 35.4958407], [-97.4957888, 35.4958355], [-97.4957984, 35.4958356], [-97.4957985, 35.4958235], [-97.495866, 35.4958237], [-97.4958665, 35.4957319]]]}, "properties": {"osm_id": 971646630, "building": "house", "name": "", "height": null, "height_m": null, "levels": null, "tract_id": "40109100500", "tract_name": "1005", "tags": {"building": "house"}}}, {"type": "Feature", "geometry": {"type": "Polygon", "coordinates": [[[-97.4958659, 35.4958523], [-97.4956656, 35.4958521], [-97.4956654, 35.4959797], [-97.4958561, 35.4959798], [-97.4958562, 35.4959224], [-97.4958128, 35.4959224], [-97.4958128, 35.4959078], [-97.4958659, 35.4959078], [-97.4958659, 35.4958523]]]}, "properties": {"osm_id": 971646631, "building": "house", "name": "", "height": null, "height_m": null, "levels": null, "tract_id": "40109100500", "tract_name": "1005", "tags": {"building": "house"}}}, {"type": "Feature", "geometry": {"type": "Polygon", "coordinates": [[[-97.4964859, 35.4960141], [-97.4962946, 35.4960136], [-97.4962944, 35.4960711], [-97.4963391, 35.4960712], [-97.496339, 35.496085], [-97.4962847, 35.4960848], [-97.4962845, 35.4961404], [-97.4964854, 35.4961409], [-97.4964859, 35.4960141]]]}, "properties": {"osm_id": 971646632, "building": "house", "name": "", "height": null, "height_m": null, "levels": null, "tract_id": "40109100500", "tract_name": "1005", "tags": {"building": "house"}}}, {"type": "Feature", "geometry": {"type": "Polygon", "coordinates": [[[-97.502832, 35.4993516], [-97.5028065, 35.4993515], [-97.5028063, 35.4993869], [-97.5026818, 35.4993864], [-97.5026814, 35.4994435], [-97.5025785, 35.499443], [-97.5025786, 35.4994292], [-97.5023451, 35.4994283], [-97.5023454, 35.4993724], [-97.5023215, 35.4993723], [-97.5023219, 35.4993007], [-97.502355, 35.4993009], [-97.5023552, 35.4992681], [-97.5024805, 35.4992686], [-97.5024809, 35.4991942], [-97.502488, 35.4991943], [-97.5024881, 35.4991676], [-97.502678, 35.4991683], [-97.5026777, 35.4992109], [-97.5028087, 35.4992115], [-97.5028085, 35.4992445], [-97.5028326, 35.4992446], [-97.502832, 35.4993516]]]}, "properties": {"osm_id": 991767524, "building": "yes", "name": "Oklahoma State Board of Pharmacy", "height": null, "height_m": null, "levels": null, "tract_id": "40109100500", "tract_name": "1005", "tags": {"addr:housenumber": "2920", "addr:postcode": "73105", "addr:street": "North Lincoln Boulevard", "building": "yes", "email": "pharmacy@pharmacy.ok.gov", "name": "Oklahoma State Board of Pharmacy", "office": "government", "opening_hours": "Mo-Fr 08:30-16:30", "phone": "(405) 521-3815", "website": "https://www.ok.gov/pharmacy/"}}}, {"type": "Feature", "geometry": {"type": "Polygon", "coordinates": [[[-97.5029156, 35.4990329], [-97.5025371, 35.4990334], [-97.5025369, 35.4989467], [-97.5024869, 35.4989468], [-97.5024867, 35.4988695], [-97.5025568, 35.4988694], [-97.5025567, 35.4988116], [-97.5026084, 35.4988115], [-97.5026084, 35.4987894], [-97.5028417, 35.4987892], [-97.5028416, 35.498783], [-97.5029733, 35.4987829], [-97.5029734, 35.4988686], [-97.5029634, 35.4988686], [-97.5029637, 35.4990169], [-97.5029156, 35.499017], [-97.5029156, 35.4990329]]]}, "properties": {"osm_id": 1003559420, "building": "yes", "name": "Oklahoma State Banking Department", "height": null, "height_m": null, "levels": null, "tract_id": "40109100500", "tract_name": "1005", "tags": {"addr:city": "Oklahoma City", "addr:housenumber": "2900", "addr:postcode": "73105", "addr:state": "OK", "addr:street": "North Lincoln Boulevard", "building": "yes", "name": "Oklahoma State Banking Department"}}}, {"type": "Feature", "geometry": {"type": "Polygon", "coordinates": [[[-97.5083209, 35.4948487], [-97.5083215, 35.4946568], [-97.5080793, 35.4946563], [-97.5080791, 35.4947097], [-97.5079971, 35.4947096], [-97.5079969, 35.4947934], [-97.5080785, 35.4947935], [-97.5080783, 35.4948482], [-97.5083209, 35.4948487]]]}, "properties": {"osm_id": 1149324153, "building": "yes", "name": "", "height": null, "height_m": null, "levels": null, "tract_id": "40109100500", "tract_name": "1005", "tags": {"amenity": "place_of_worship", "building": "yes", "denomination": "jehovahs_witness", "religion": "christian"}}}, {"type": "Feature", "geometry": {"type": "Polygon", "coordinates": [[[-97.4979318, 35.495176], [-97.4978363, 35.4951745], [-97.4978357, 35.4951996], [-97.4977971, 35.495199], [-97.4977948, 35.4952972], [-97.4979289, 35.4952993], [-97.4979318, 35.495176]]]}, "properties": {"osm_id": 1244733395, "building": "house", "name": "", "height": null, "height_m": null, "levels": null, "tract_id": "40109100500", "tract_name": "1005", "tags": {"building": "house", "source": "microsoft/BuildingFootprints"}}}, {"type": "Feature", "geometry": {"type": "Polygon", "coordinates": [[[-97.4976062, 35.4951791], [-97.497607, 35.4952883], [-97.4977438, 35.4952877], [-97.497743, 35.4951785], [-97.4976062, 35.4951791]]]}, "properties": {"osm_id": 1244733396, "building": "house", "name": "", "height": null, "height_m": null, "levels": null, "tract_id": "40109100500", "tract_name": "1005", "tags": {"building": "house", "source": "microsoft/BuildingFootprints"}}}, {"type": "Feature", "geometry": {"type": "Polygon", "coordinates": [[[-97.4973887, 35.4953014], [-97.4974691, 35.4953003], [-97.4974691, 35.4953047], [-97.4975479, 35.4953036], [-97.4975452, 35.4951674], [-97.4973861, 35.4951694], [-97.4973887, 35.4953014]]]}, "properties": {"osm_id": 1244733397, "building": "house", "name": "", "height": null, "height_m": null, "levels": null, "tract_id": "40109100500", "tract_name": "1005", "tags": {"building": "house", "source": "microsoft/BuildingFootprints"}}}, {"type": "Feature", "geometry": {"type": "Polygon", "coordinates": [[[-97.497215, 35.4951733], [-97.4972111, 35.4952955], [-97.4973333, 35.4952981], [-97.4973373, 35.4951759], [-97.497215, 35.4951733]]]}, "properties": {"osm_id": 1244733398, "building": "house", "name": "", "height": null, "height_m": null, "levels": null, "tract_id": "40109100500", "tract_name": "1005", "tags": {"building": "house", "source": "microsoft/BuildingFootprints"}}}, {"type": "Feature", "geometry": {"type": "Polygon", "coordinates": [[[-97.4969841, 35.4951754], [-97.4968672, 35.4951726], [-97.4968663, 35.4951966], [-97.4968127, 35.4951953], [-97.4968108, 35.4952489], [-97.4969813, 35.4952529], [-97.4969841, 35.4951754]]]}, "properties": {"osm_id": 1244733399, "building": "yes", "name": "", "height": null, "height_m": null, "levels": null, "tract_id": "40109100500", "tract_name": "1005", "tags": {"building": "yes", "source": "microsoft/BuildingFootprints"}}}, {"type": "Feature", "geometry": {"type": "Polygon", "coordinates": [[[-97.4968149, 35.4954575], [-97.4969678, 35.495459], [-97.4969691, 35.4953717], [-97.4968163, 35.4953701], [-97.4968149, 35.4954575]]]}, "properties": {"osm_id": 1244733400, "building": "garage", "name": "", "height": null, "height_m": null, "levels": null, "tract_id": "40109100500", "tract_name": "1005", "tags": {"building": "garage", "source": "microsoft/BuildingFootprints"}}}, {"type": "Feature", "geometry": {"type": "Polygon", "coordinates": [[[-97.4963619, 35.4964314], [-97.4963619, 35.4964491], [-97.4962843, 35.496449], [-97.4962842, 35.4965385], [-97.4963617, 35.4965386], [-97.4963616, 35.4965565], [-97.4964865, 35.4965566], [-97.4964867, 35.4964316], [-97.4963619, 35.4964314]]]}, "properties": {"osm_id": 1244733401, "building": "house", "name": "", "height": null, "height_m": null, "levels": null, "tract_id": "40109100500", "tract_name": "1005", "tags": {"building": "house", "source": "microsoft/BuildingFootprints"}}}, {"type": "Feature", "geometry": {"type": "Polygon", "coordinates": [[[-97.4964867, 35.4962963], [-97.4963714, 35.496296], [-97.4963715, 35.4962924], [-97.4962857, 35.4962922], [-97.4962855, 35.4963467], [-97.4963406, 35.4963468], [-97.4963406, 35.496361], [-97.4962935, 35.4963609], [-97.4962933, 35.4964176], [-97.496372, 35.4964178], [-97.4963721, 35.4964145], [-97.4964863, 35.4964148], [-97.4964867, 35.4962963]]]}, "properties": {"osm_id": 1244733402, "building": "house", "name": "", "height": null, "height_m": null, "levels": null, "tract_id": "40109100500", "tract_name": "1005", "tags": {"building": "house", "source": "microsoft/BuildingFootprints"}}}, {"type": "Feature", "geometry": {"type": "Polygon", "coordinates": [[[-97.4963607, 35.4962728], [-97.4964847, 35.4962734], [-97.4964856, 35.4961593], [-97.4963616, 35.4961586], [-97.4963615, 35.4961715], [-97.4962868, 35.4961711], [-97.4962861, 35.4962605], [-97.4963608, 35.4962609], [-97.4963607, 35.4962728]]]}, "properties": {"osm_id": 1244733403, "building": "house", "name": "", "height": null, "height_m": null, "levels": null, "tract_id": "40109100500", "tract_name": "1005", "tags": {"building": "house", "source": "microsoft/BuildingFootprints"}}}, {"type": "Feature", "geometry": {"type": "Polygon", "coordinates": [[[-97.4956638, 35.4962504], [-97.495777, 35.4962512], [-97.4957769, 35.4962557], [-97.4958629, 35.4962563], [-97.4958635, 35.4962026], [-97.4958094, 35.4962022], [-97.4958096, 35.4961868], [-97.4958562, 35.4961872], [-97.4958568, 35.4961301], [-97.4957778, 35.4961295], [-97.4957777, 35.4961345], [-97.4956651, 35.4961337], [-97.4956638, 35.4962504]]]}, "properties": {"osm_id": 1244733404, "building": "house", "name": "", "height": null, "height_m": null, "levels": null, "tract_id": "40109100500", "tract_name": "1005", "tags": {"building": "house", "source": "microsoft/BuildingFootprints"}}}, {"type": "Feature", "geometry": {"type": "Polygon", "coordinates": [[[-97.495661, 35.4966665], [-97.4957949, 35.4966666], [-97.495795, 35.4966547], [-97.4958625, 35.4966547], [-97.4958626, 35.496565], [-97.4957968, 35.496565], [-97.4957968, 35.4965522], [-97.495661, 35.4965522], [-97.495661, 35.4966665]]]}, "properties": {"osm_id": 1244733405, "building": "house", "name": "", "height": null, "height_m": null, "levels": null, "tract_id": "40109100500", "tract_name": "1005", "tags": {"building": "house", "source": "microsoft/BuildingFootprints"}}}, {"type": "Feature", "geometry": {"type": "Polygon", "coordinates": [[[-97.4952968, 35.5044163], [-97.4956479, 35.5045966], [-97.4957569, 35.5044561], [-97.4956322, 35.504392], [-97.495585, 35.5044529], [-97.4954936, 35.504406], [-97.4956268, 35.5042342], [-97.4954917, 35.5041649], [-97.4952968, 35.5044163]]]}, "properties": {"osm_id": 1252720463, "building": "yes", "name": "", "height": null, "height_m": null, "levels": null, "tract_id": "40109100500", "tract_name": "1005", "tags": {"building": "yes", "source": "microsoft/BuildingFootprints"}}}, {"type": "Feature", "geometry": {"type": "Polygon", "coordinates": [[[-97.4946141, 35.5063312], [-97.4947043, 35.5063802], [-97.494677, 35.5064134], [-97.4949888, 35.5065828], [-97.4951181, 35.5064251], [-97.4948861, 35.5062991], [-97.4949641, 35.5062039], [-97.4947941, 35.5061115], [-97.4946141, 35.5063312]]]}, "properties": {"osm_id": 1252720464, "building": "yes", "name": "", "height": null, "height_m": null, "levels": null, "tract_id": "40109100500", "tract_name": "1005", "tags": {"building": "yes", "source": "microsoft/BuildingFootprints"}}}, {"type": "Feature", "geometry": {"type": "Polygon", "coordinates": [[[-97.494961, 35.5058855], [-97.4950213, 35.5058016], [-97.4947724, 35.5056829], [-97.4947121, 35.5057668], [-97.494961, 35.5058855]]]}, "properties": {"osm_id": 1252720466, "building": "yes", "name": "", "height": null, "height_m": null, "levels": null, "tract_id": "40109100500", "tract_name": "1005", "tags": {"building": "yes", "source": "microsoft/BuildingFootprints"}}}, {"type": "Feature", "geometry": {"type": "Polygon", "coordinates": [[[-97.4950412, 35.5058873], [-97.4948736, 35.5060654], [-97.4949649, 35.5061223], [-97.4951325, 35.5059442], [-97.4950412, 35.5058873]]]}, "properties": {"osm_id": 1252720467, "building": "yes", "name": "", "height": null, "height_m": null, "levels": null, "tract_id": "40109100500", "tract_name": "1005", "tags": {"building": "yes", "source": "microsoft/BuildingFootprints"}}}, {"type": "Feature", "geometry": {"type": "Polygon", "coordinates": [[[-97.494637, 35.5052054], [-97.4945698, 35.5052773], [-97.494614, 35.5053047], [-97.4945545, 35.5053683], [-97.4946021, 35.5053977], [-97.4945982, 35.5054019], [-97.494626, 35.5054191], [-97.4947565, 35.5052795], [-97.494637, 35.5052054]]]}, "properties": {"osm_id": 1252720468, "building": "yes", "name": "", "height": null, "height_m": null, "levels": null, "tract_id": "40109100500", "tract_name": "1005", "tags": {"building": "yes", "source": "microsoft/BuildingFootprints"}}}, {"type": "Feature", "geometry": {"type": "Polygon", "coordinates": [[[-97.4946998, 35.5047836], [-97.4946032, 35.5047827], [-97.4946022, 35.5048592], [-97.4945432, 35.5048586], [-97.494542, 35.5049525], [-97.4946975, 35.5049539], [-97.4946998, 35.5047836]]]}, "properties": {"osm_id": 1252720469, "building": "yes", "name": "", "height": null, "height_m": null, "levels": null, "tract_id": "40109100500", "tract_name": "1005", "tags": {"building": "yes", "source": "microsoft/BuildingFootprints"}}}, {"type": "Feature", "geometry": {"type": "Polygon", "coordinates": [[[-97.494904, 35.5049512], [-97.4949463, 35.5048965], [-97.4948522, 35.5048482], [-97.4947603, 35.504967], [-97.4948448, 35.5050104], [-97.494846, 35.5050088], [-97.4949286, 35.5050511], [-97.4949769, 35.5049886], [-97.494904, 35.5049512]]]}, "properties": {"osm_id": 1252720470, "building": "yes", "name": "", "height": null, "height_m": null, "levels": null, "tract_id": "40109100500", "tract_name": "1005", "tags": {"building": "yes", "source": "microsoft/BuildingFootprints"}}}, {"type": "Feature", "geometry": {"type": "Polygon", "coordinates": [[[-97.4949451, 35.5050667], [-97.4951001, 35.5051425], [-97.495164, 35.5050559], [-97.4950753, 35.5050125], [-97.495099, 35.5049804], [-97.4950327, 35.504948], [-97.4949451, 35.5050667]]]}, "properties": {"osm_id": 1252720471, "building": "yes", "name": "", "height": null, "height_m": null, "levels": null, "tract_id": "40109100500", "tract_name": "1005", "tags": {"building": "yes", "source": "microsoft/BuildingFootprints"}}}, {"type": "Feature", "geometry": {"type": "Polygon", "coordinates": [[[-97.4951067, 35.5051781], [-97.4952525, 35.5052488], [-97.4953237, 35.5051513], [-97.4951779, 35.5050807], [-97.4951067, 35.5051781]]]}, "properties": {"osm_id": 1252720472, "building": "yes", "name": "", "height": null, "height_m": null, "levels": null, "tract_id": "40109100500", "tract_name": "1005", "tags": {"building": "yes", "source": "microsoft/BuildingFootprints"}}}, {"type": "Feature", "geometry": {"type": "Polygon", "coordinates": [[[-97.4955017, 35.5052437], [-97.4953458, 35.5051607], [-97.4952652, 35.505261], [-97.4954211, 35.505344], [-97.4955017, 35.5052437]]]}, "properties": {"osm_id": 1252720473, "building": "yes", "name": "", "height": null, "height_m": null, "levels": null, "tract_id": "40109100500", "tract_name": "1005", "tags": {"building": "yes", "source": "microsoft/BuildingFootprints"}}}, {"type": "Feature", "geometry": {"type": "Polygon", "coordinates": [[[-97.4956544, 35.5053624], [-97.4957349, 35.5052659], [-97.4956315, 35.5052087], [-97.495619, 35.5052236], [-97.4955719, 35.5051976], [-97.4954391, 35.5053568], [-97.4955106, 35.5053964], [-97.4954615, 35.5054553], [-97.4955441, 35.505501], [-97.4955752, 35.5054636], [-97.4957404, 35.505555], [-97.4958233, 35.5054557], [-97.4956544, 35.5053624]]]}, "properties": {"osm_id": 1252720474, "building": "yes", "name": "", "height": null, "height_m": null, "levels": null, "tract_id": "40109100500", "tract_name": "1005", "tags": {"building": "yes", "source": "microsoft/BuildingFootprints"}}}, {"type": "Feature", "geometry": {"type": "Polygon", "coordinates": [[[-97.5081839, 35.5063767], [-97.5076662, 35.5063748], [-97.5076649, 35.5065985], [-97.5071741, 35.5065966], [-97.5071716, 35.5070267], [-97.5071984, 35.5070268], [-97.5071978, 35.5071338], [-97.507584, 35.5071353], [-97.5075837, 35.5071811], [-97.5092386, 35.5071876], [-97.5092395, 35.5070347], [-97.5094782, 35.5070356], [-97.5094773, 35.5071928], [-97.5100137, 35.5071949], [-97.5100225, 35.5056927], [-97.5100547, 35.5056929], [-97.510055, 35.505647], [-97.5096268, 35.5056454], [-97.509627, 35.5056126], [-97.5086551, 35.5056088], [-97.5086549, 35.5056394], [-97.5083572, 35.5056383], [-97.5083565, 35.5057562], [-97.5081875, 35.5057555], [-97.5081839, 35.5063767]]]}, "properties": {"osm_id": 1252723668, "building": "yes", "name": "", "height": null, "height_m": null, "levels": null, "tract_id": "40109100500", "tract_name": "1005", "tags": {"building": "yes", "source": "microsoft/BuildingFootprints"}}}, {"type": "Feature", "geometry": {"type": "Polygon", "coordinates": [[[-97.5059925, 35.5070245], [-97.5067639, 35.5070264], [-97.5067667, 35.5062622], [-97.5067087, 35.506262], [-97.5067092, 35.5061223], [-97.506558, 35.5061219], [-97.5065584, 35.5060031], [-97.5059184, 35.5060015], [-97.5059175, 35.5062635], [-97.5059952, 35.5062637], [-97.5059925, 35.5070245]]]}, "properties": {"osm_id": 1252723669, "building": "yes", "name": "", "height": null, "height_m": null, "levels": null, "tract_id": "40109100500", "tract_name": "1005", "tags": {"building": "yes", "source": "microsoft/BuildingFootprints"}}}, {"type": "Feature", "geometry": {"type": "Polygon", "coordinates": [[[-97.5041772, 35.5067696], [-97.5041519, 35.5072228], [-97.5041118, 35.5072213], [-97.5040995, 35.5074414], [-97.5043056, 35.507449], [-97.5043093, 35.5073814], [-97.5043682, 35.5073836], [-97.504366, 35.5074228], [-97.5044555, 35.5074261], [-97.5044579, 35.5073826], [-97.504521, 35.5073849], [-97.5045181, 35.5074372], [-97.5047296, 35.507445], [-97.5047406, 35.5072481], [-97.5046951, 35.5072464], [-97.5046998, 35.5071614], [-97.5047186, 35.5071621], [-97.5047273, 35.5070052], [-97.5045239, 35.5069977], [-97.5045359, 35.5067828], [-97.5041772, 35.5067696]]]}, "properties": {"osm_id": 1252723670, "building": "yes", "name": "", "height": null, "height_m": null, "levels": null, "tract_id": "40109100500", "tract_name": "1005", "tags": {"building": "yes", "source": "microsoft/BuildingFootprints"}}}, {"type": "Feature", "geometry": {"type": "Polygon", "coordinates": [[[-97.5054084, 35.5051804], [-97.5046627, 35.5051826], [-97.5046645, 35.5055915], [-97.5046111, 35.5055916], [-97.5046126, 35.5059259], [-97.5050166, 35.5059247], [-97.5050151, 35.5055888], [-97.5052184, 35.5055883], [-97.5052178, 35.5054561], [-97.5054096, 35.5054555], [-97.5054084, 35.5051804]]]}, "properties": {"osm_id": 1252723671, "building": "yes", "name": "", "height": null, "height_m": null, "levels": null, "tract_id": "40109100500", "tract_name": "1005", "tags": {"building": "yes", "source": "microsoft/BuildingFootprints"}}}, {"type": "Feature", "geometry": {"type": "Polygon", "coordinates": [[[-97.5044975, 35.505772], [-97.5044966, 35.5055269], [-97.5045846, 35.5055267], [-97.504584, 35.5053441], [-97.5045002, 35.5053443], [-97.5044994, 35.5051227], [-97.5042735, 35.5051232], [-97.5042737, 35.5051746], [-97.5042173, 35.5051747], [-97.5042169, 35.5050423], [-97.5041046, 35.5050425], [-97.5041051, 35.5051776], [-97.5037328, 35.5051785], [-97.5037348, 35.5057458], [-97.5037644, 35.5057457], [-97.5037648, 35.5058701], [-97.5041076, 35.5058693], [-97.5041073, 35.505773], [-97.5044975, 35.505772]]]}, "properties": {"osm_id": 1252723672, "building": "yes", "name": "", "height": null, "height_m": null, "levels": null, "tract_id": "40109100500", "tract_name": "1005", "tags": {"building": "yes", "source": "microsoft/BuildingFootprints"}}}, {"type": "Feature", "geometry": {"type": "Polygon", "coordinates": [[[-97.5061162, 35.5052653], [-97.5056801, 35.5052708], [-97.5056789, 35.5052075], [-97.5056091, 35.5052083], [-97.5056102, 35.5052673], [-97.505511, 35.5052685], [-97.5055181, 35.5056461], [-97.5055583, 35.5056456], [-97.5055573, 35.5055889], [-97.5056314, 35.505588], [-97.50563, 35.5055138], [-97.50558, 35.5055144], [-97.5055795, 35.505486], [-97.5061641, 35.5054787], [-97.5061626, 35.5054023], [-97.5061188, 35.5054029], [-97.5061162, 35.5052653]]]}, "properties": {"osm_id": 1252723673, "building": "yes", "name": "", "height": null, "height_m": null, "levels": null, "tract_id": "40109100500", "tract_name": "1005", "tags": {"building": "yes", "source": "microsoft/BuildingFootprints"}}}, {"type": "Feature", "geometry": {"type": "Polygon", "coordinates": [[[-97.503472, 35.5046675], [-97.5039854, 35.5046697], [-97.5039858, 35.5045997], [-97.5042429, 35.5046009], [-97.5042425, 35.5046683], [-97.504532, 35.5046695], [-97.5045326, 35.5045821], [-97.5048272, 35.5045833], [-97.5048275, 35.5045286], [-97.5048543, 35.5045287], [-97.5048557, 35.5043073], [-97.5044686, 35.5043057], [-97.5044694, 35.5041753], [-97.5038255, 35.5041727], [-97.5038258, 35.504116], [-97.5035042, 35.5041147], [-97.5035039, 35.5041634], [-97.5034753, 35.5041633], [-97.503472, 35.5046675]]]}, "properties": {"osm_id": 1252723674, "building": "yes", "name": "", "height": null, "height_m": null, "levels": null, "tract_id": "40109100500", "tract_name": "1005", "tags": {"building": "yes", "source": "microsoft/BuildingFootprints"}}}, {"type": "Feature", "geometry": {"type": "Polygon", "coordinates": [[[-97.5098214, 35.5042043], [-97.5091616, 35.5042025], [-97.5091595, 35.5046927], [-97.5098193, 35.5046945], [-97.5098214, 35.5042043]]]}, "properties": {"osm_id": 1252723675, "building": "yes", "name": "", "height": null, "height_m": null, "levels": null, "tract_id": "40109100500", "tract_name": "1005", "tags": {"building": "yes", "source": "microsoft/BuildingFootprints"}}}, {"type": "Feature", "geometry": {"type": "Polygon", "coordinates": [[[-97.5088814, 35.5037641], [-97.5091137, 35.5037636], [-97.5091139, 35.5038302], [-97.5092319, 35.50383], [-97.5092317, 35.5037645], [-97.509457, 35.5037641], [-97.5094561, 35.5034486], [-97.5088806, 35.5034496], [-97.5088814, 35.5037641]]]}, "properties": {"osm_id": 1252723676, "building": "yes", "name": "", "height": null, "height_m": null, "levels": null, "tract_id": "40109100500", "tract_name": "1005", "tags": {"building": "yes", "source": "microsoft/BuildingFootprints"}}}, {"type": "Feature", "geometry": {"type": "Polygon", "coordinates": [[[-97.5095828, 35.5037222], [-97.5100173, 35.5037246], [-97.5100195, 35.5034659], [-97.5095302, 35.5034632], [-97.5095293, 35.5035767], [-97.509584, 35.503577], [-97.5095828, 35.5037222]]]}, "properties": {"osm_id": 1252723677, "building": "yes", "name": "", "height": null, "height_m": null, "levels": null, "tract_id": "40109100500", "tract_name": "1005", "tags": {"building": "yes", "source": "microsoft/BuildingFootprints"}}}, {"type": "Feature", "geometry": {"type": "Polygon", "coordinates": [[[-97.5109957, 35.5028683], [-97.5115455, 35.5028713], [-97.5115466, 35.5027425], [-97.5116914, 35.5027432], [-97.511693, 35.502538], [-97.5117467, 35.5025383], [-97.5117471, 35.5024827], [-97.5116947, 35.5024825], [-97.5116956, 35.5023699], [-97.5115523, 35.5023691], [-97.5115532, 35.502249], [-97.5110007, 35.5022461], [-97.5109957, 35.5028683]]]}, "properties": {"osm_id": 1252723678, "building": "yes", "name": "", "height": null, "height_m": null, "levels": null, "tract_id": "40109100500", "tract_name": "1005", "tags": {"building": "yes", "source": "microsoft/BuildingFootprints"}}}, {"type": "Feature", "geometry": {"type": "Polygon", "coordinates": [[[-97.5109827, 35.5039438], [-97.5117525, 35.5039479], [-97.5117574, 35.5033419], [-97.5109877, 35.5033378], [-97.5109827, 35.5039438]]]}, "properties": {"osm_id": 1252723679, "building": "yes", "name": "", "height": null, "height_m": null, "levels": null, "tract_id": "40109100500", "tract_name": "1005", "tags": {"building": "yes", "source": "microsoft/BuildingFootprints"}}}, {"type": "Feature", "geometry": {"type": "Polygon", "coordinates": [[[-97.5113455, 35.5050085], [-97.5113412, 35.5056985], [-97.5117892, 35.5057004], [-97.511791, 35.5054], [-97.5117723, 35.5053999], [-97.5117733, 35.5052274], [-97.511785, 35.5052275], [-97.5117864, 35.5050104], [-97.5113455, 35.5050085]]]}, "properties": {"osm_id": 1252723680, "building": "yes", "name": "", "height": null, "height_m": null, "levels": null, "tract_id": "40109100500", "tract_name": "1005", "tags": {"building": "yes", "source": "microsoft/BuildingFootprints"}}}, {"type": "Feature", "geometry": {"type": "Polygon", "coordinates": [[[-97.5086514, 35.5025416], [-97.5086493, 35.5027381], [-97.508888, 35.5027398], [-97.5088856, 35.502969], [-97.5094542, 35.502973], [-97.5094552, 35.5028748], [-97.5099594, 35.5028783], [-97.5099629, 35.5025508], [-97.5086514, 35.5025416]]]}, "properties": {"osm_id": 1252723681, "building": "yes", "name": "", "height": null, "height_m": null, "levels": null, "tract_id": "40109100500", "tract_name": "1005", "tags": {"building": "yes", "source": "microsoft/BuildingFootprints"}}}, {"type": "Feature", "geometry": {"type": "Polygon", "coordinates": [[[-97.5089797, 35.5022558], [-97.509779, 35.5022558], [-97.509779, 35.5019982], [-97.5098741, 35.5019982], [-97.5098741, 35.5018791], [-97.5096756, 35.5018791], [-97.5096756, 35.5017699], [-97.5092196, 35.50177], [-97.5092196, 35.5018868], [-97.5089797, 35.5018868], [-97.5089797, 35.5022558]]]}, "properties": {"osm_id": 1252723682, "building": "yes", "name": "", "height": null, "height_m": null, "levels": null, "tract_id": "40109100500", "tract_name": "1005", "tags": {"building": "yes", "source": "microsoft/BuildingFootprints"}}}, {"type": "Feature", "geometry": {"type": "Polygon", "coordinates": [[[-97.5099602, 35.50077], [-97.5095486, 35.5007672], [-97.5095435, 35.501253], [-97.5099552, 35.5012558], [-97.5099602, 35.50077]]]}, "properties": {"osm_id": 1252723683, "building": "yes", "name": "", "height": null, "height_m": null, "levels": null, "tract_id": "40109100500", "tract_name": "1005", "tags": {"building": "yes", "source": "microsoft/BuildingFootprints"}}}, {"type": "Feature", "geometry": {"type": "Polygon", "coordinates": [[[-97.5092037, 35.5013238], [-97.5092092, 35.5007659], [-97.5087345, 35.5007628], [-97.5087289, 35.5013206], [-97.5092037, 35.5013238]]]}, "properties": {"osm_id": 1252723684, "building": "yes", "name": "", "height": null, "height_m": null, "levels": null, "tract_id": "40109100500", "tract_name": "1005", "tags": {"building": "yes", "source": "microsoft/BuildingFootprints"}}}, {"type": "Feature", "geometry": {"type": "Polygon", "coordinates": [[[-97.5066334, 35.5007104], [-97.5066323, 35.501027], [-97.5066873, 35.5010271], [-97.5066862, 35.5013275], [-97.5072267, 35.5013288], [-97.5072277, 35.5010459], [-97.5071875, 35.5010458], [-97.5071876, 35.5010152], [-97.508302, 35.5010179], [-97.5083024, 35.5009043], [-97.5083373, 35.5009044], [-97.508338, 35.5007144], [-97.5066334, 35.5007104]]]}, "properties": {"osm_id": 1252723685, "building": "yes", "name": "", "height": null, "height_m": null, "levels": null, "tract_id": "40109100500", "tract_name": "1005", "tags": {"building": "yes", "source": "microsoft/BuildingFootprints"}}}, {"type": "Feature", "geometry": {"type": "Polygon", "coordinates": [[[-97.5049053, 35.5012307], [-97.5049082, 35.5010648], [-97.5048184, 35.5010637], [-97.5048192, 35.5010201], [-97.5048742, 35.5010207], [-97.5048745, 35.5010011], [-97.5049711, 35.5010022], [-97.5049722, 35.5009359], [-97.5049253, 35.5009353], [-97.5049268, 35.5008532], [-97.5041236, 35.5008437], [-97.5041248, 35.5007796], [-97.5036581, 35.5007741], [-97.5036583, 35.500764], [-97.5035309, 35.5007625], [-97.5035219, 35.5012748], [-97.5036586, 35.5012764], [-97.5036593, 35.50124], [-97.5037799, 35.5012415], [-97.5037806, 35.5012044], [-97.5045744, 35.5012137], [-97.5045741, 35.5012268], [-97.5049053, 35.5012307]]]}, "properties": {"osm_id": 1252723686, "building": "yes", "name": "Oklahoma Office of Management and Enterprise Services - Information Services", "height": null, "height_m": null, "levels": null, "tract_id": "40109100500", "tract_name": "1005", "tags": {"addr:city": "Oklahoma City", "addr:housenumber": "3115", "addr:postcode": "73105", "addr:state": "OK", "addr:street": "North Lincoln Boulevard", "building": "yes", "name": "Oklahoma Office of Management and Enterprise Services - Information Services", "source": "microsoft/BuildingFootprints"}}}, {"type": "Feature", "geometry": {"type": "Polygon", "coordinates": [[[-97.5043355, 35.5022902], [-97.5043367, 35.5018775], [-97.504039, 35.5018769], [-97.5040391, 35.5018245], [-97.5037628, 35.5018239], [-97.503763, 35.5017563], [-97.5036611, 35.5017561], [-97.5036611, 35.501743], [-97.5035283, 35.5017427], [-97.5035267, 35.5022886], [-97.5043355, 35.5022902]]]}, "properties": {"osm_id": 1252723687, "building": "yes", "name": "", "height": null, "height_m": null, "levels": null, "tract_id": "40109100500", "tract_name": "1005", "tags": {"building": "yes", "source": "microsoft/BuildingFootprints"}}}, {"type": "Feature", "geometry": {"type": "Polygon", "coordinates": [[[-97.5047566, 35.502457], [-97.503547, 35.5024528], [-97.5035445, 35.5029245], [-97.5040112, 35.5029261], [-97.504011, 35.502961], [-97.5043624, 35.5029622], [-97.5043626, 35.5029273], [-97.5047542, 35.5029286], [-97.5047566, 35.502457]]]}, "properties": {"osm_id": 1252723688, "building": "yes", "name": "", "height": null, "height_m": null, "levels": null, "tract_id": "40109100500", "tract_name": "1005", "tags": {"building": "yes", "source": "microsoft/BuildingFootprints"}}}, {"type": "Feature", "geometry": {"type": "Polygon", "coordinates": [[[-97.5087877, 35.5001677], [-97.5092745, 35.5001699], [-97.5092786, 35.4995902], [-97.5087917, 35.499588], [-97.5087877, 35.5001677]]]}, "properties": {"osm_id": 1252723689, "building": "yes", "name": "", "height": null, "height_m": null, "levels": null, "tract_id": "40109100500", "tract_name": "1005", "tags": {"building": "yes", "source": "microsoft/BuildingFootprints"}}}, {"type": "Feature", "geometry": {"type": "Polygon", "coordinates": [[[-97.5080546, 35.4988196], [-97.5078857, 35.4988187], [-97.5078835, 35.4990938], [-97.5080525, 35.4990947], [-97.5080546, 35.4988196]]]}, "properties": {"osm_id": 1252723690, "building": "yes", "name": "", "height": null, "height_m": null, "levels": null, "tract_id": "40109100500", "tract_name": "1005", "tags": {"building": "yes", "source": "microsoft/BuildingFootprints"}}}, {"type": "Feature", "geometry": {"type": "Polygon", "coordinates": [[[-97.510528, 35.4995184], [-97.5105304, 35.4993306], [-97.5107047, 35.4993321], [-97.5107069, 35.4991662], [-97.5100578, 35.4991606], [-97.5100533, 35.4995143], [-97.510528, 35.4995184]]]}, "properties": {"osm_id": 1252723691, "building": "yes", "name": "", "height": null, "height_m": null, "levels": null, "tract_id": "40109100500", "tract_name": "1005", "tags": {"building": "yes", "source": "microsoft/BuildingFootprints"}}}, {"type": "Feature", "geometry": {"type": "Polygon", "coordinates": [[[-97.5102981, 35.4996404], [-97.5102978, 35.4997813], [-97.5105243, 35.4997816], [-97.5105241, 35.4998897], [-97.5102627, 35.4998893], [-97.5102624, 35.5000062], [-97.5106928, 35.5000068], [-97.5106935, 35.4996781], [-97.5105406, 35.4996779], [-97.5105407, 35.4996407], [-97.5102981, 35.4996404]]]}, "properties": {"osm_id": 1252723692, "building": "yes", "name": "", "height": null, "height_m": null, "levels": null, "tract_id": "40109100500", "tract_name": "1005", "tags": {"building": "yes", "source": "microsoft/BuildingFootprints"}}}, {"type": "Feature", "geometry": {"type": "Polygon", "coordinates": [[[-97.5108577, 35.5000151], [-97.5113351, 35.5000171], [-97.5113354, 35.4999691], [-97.5113863, 35.4999693], [-97.5113877, 35.4997662], [-97.511456, 35.4997665], [-97.5114564, 35.4996945], [-97.5111909, 35.4996933], [-97.5111911, 35.4996562], [-97.51086, 35.4996548], [-97.5108577, 35.5000151]]]}, "properties": {"osm_id": 1252723693, "building": "yes", "name": "", "height": null, "height_m": null, "levels": null, "tract_id": "40109100500", "tract_name": "1005", "tags": {"building": "yes", "source": "microsoft/BuildingFootprints"}}}, {"type": "Feature", "geometry": {"type": "Polygon", "coordinates": [[[-97.5115374, 35.4991588], [-97.5110359, 35.4991557], [-97.5110347, 35.4992824], [-97.5112534, 35.4992837], [-97.5112526, 35.4993689], [-97.5113048, 35.4993692], [-97.5113034, 35.4995155], [-97.5115341, 35.4995169], [-97.5115374, 35.4991588]]]}, "properties": {"osm_id": 1252723694, "building": "yes", "name": "", "height": null, "height_m": null, "levels": null, "tract_id": "40109100500", "tract_name": "1005", "tags": {"building": "yes", "source": "microsoft/BuildingFootprints"}}}, {"type": "Feature", "geometry": {"type": "Polygon", "coordinates": [[[-97.5119188, 35.4991836], [-97.5115729, 35.4991785], [-97.5115656, 35.4995112], [-97.5119115, 35.4995163], [-97.5119188, 35.4991836]]]}, "properties": {"osm_id": 1252723695, "building": "yes", "name": "", "height": null, "height_m": null, "levels": null, "tract_id": "40109100500", "tract_name": "1005", "tags": {"building": "yes", "source": "microsoft/BuildingFootprints"}}}, {"type": "Feature", "geometry": {"type": "Polygon", "coordinates": [[[-97.5116444, 35.5001967], [-97.5115076, 35.5001967], [-97.5115076, 35.5000569], [-97.5113654, 35.5000569], [-97.5113654, 35.5003343], [-97.5116444, 35.5003343], [-97.5116444, 35.5001967]]]}, "properties": {"osm_id": 1252723696, "building": "yes", "name": "", "height": null, "height_m": null, "levels": null, "tract_id": "40109100500", "tract_name": "1005", "tags": {"building": "yes", "source": "microsoft/BuildingFootprints"}}}, {"type": "Feature", "geometry": {"type": "Polygon", "coordinates": [[[-97.5111634, 35.5000555], [-97.5108201, 35.500053], [-97.5108182, 35.5002201], [-97.5109509, 35.5002211], [-97.5109496, 35.5003422], [-97.5110837, 35.5003432], [-97.5110831, 35.5003902], [-97.5112011, 35.5003911], [-97.5112018, 35.5003365], [-97.5111602, 35.5003362], [-97.5111634, 35.5000555]]]}, "properties": {"osm_id": 1252723697, "building": "yes", "name": "", "height": null, "height_m": null, "levels": null, "tract_id": "40109100500", "tract_name": "1005", "tags": {"building": "yes", "source": "microsoft/BuildingFootprints"}}}, {"type": "Feature", "geometry": {"type": "Polygon", "coordinates": [[[-97.5101701, 35.5002555], [-97.5100145, 35.5002554], [-97.5100143, 35.5004104], [-97.5101659, 35.5004106], [-97.5101659, 35.5003844], [-97.5103416, 35.5003845], [-97.5103416, 35.5003496], [-97.5104986, 35.5003498], [-97.510499, 35.5000691], [-97.5103595, 35.500069], [-97.5103594, 35.5001039], [-97.5101703, 35.5001037], [-97.5101701, 35.5002555]]]}, "properties": {"osm_id": 1252723698, "building": "yes", "name": "", "height": null, "height_m": null, "levels": null, "tract_id": "40109100500", "tract_name": "1005", "tags": {"building": "yes", "source": "microsoft/BuildingFootprints"}}}, {"type": "Feature", "geometry": {"type": "Polygon", "coordinates": [[[-97.5100369, 35.5000097], [-97.5101791, 35.5000114], [-97.5101842, 35.4997298], [-97.5100421, 35.499728], [-97.5100369, 35.5000097]]]}, "properties": {"osm_id": 1252723699, "building": "yes", "name": "", "height": null, "height_m": null, "levels": null, "tract_id": "40109100500", "tract_name": "1005", "tags": {"building": "yes", "source": "microsoft/BuildingFootprints"}}}, {"type": "Feature", "geometry": {"type": "Polygon", "coordinates": [[[-97.5105704, 35.4987881], [-97.5105779, 35.4990665], [-97.5107146, 35.499064], [-97.5107071, 35.4987857], [-97.5105704, 35.4987881]]]}, "properties": {"osm_id": 1252723700, "building": "yes", "name": "", "height": null, "height_m": null, "levels": null, "tract_id": "40109100500", "tract_name": "1005", "tags": {"building": "yes", "source": "microsoft/BuildingFootprints"}}}, {"type": "Feature", "geometry": {"type": "Polygon", "coordinates": [[[-97.5115287, 35.4982533], [-97.5108812, 35.4982551], [-97.5108811, 35.4982344], [-97.5107121, 35.4982349], [-97.5107124, 35.4983036], [-97.5105821, 35.4983039], [-97.5105823, 35.4983619], [-97.5107111, 35.4983615], [-97.510711, 35.4983276], [-97.5108048, 35.4983273], [-97.5108055, 35.4984933], [-97.510768, 35.4984934], [-97.5107684, 35.4985938], [-97.5108676, 35.4985936], [-97.5108675, 35.4985608], [-97.5113572, 35.4985595], [-97.5113574, 35.4986022], [-97.5115302, 35.4986017], [-97.5115287, 35.4982533]]]}, "properties": {"osm_id": 1252723701, "building": "yes", "name": "", "height": null, "height_m": null, "levels": null, "tract_id": "40109100500", "tract_name": "1005", "tags": {"building": "yes", "source": "microsoft/BuildingFootprints"}}}, {"type": "Feature", "geometry": {"type": "Polygon", "coordinates": [[[-97.5113511, 35.4978347], [-97.5112196, 35.4978352], [-97.5112208, 35.4980448], [-97.511025, 35.4980455], [-97.5110243, 35.4979101], [-97.5108848, 35.4979106], [-97.5108865, 35.4982174], [-97.5110581, 35.4982167], [-97.511058, 35.4981852], [-97.5112135, 35.4981846], [-97.5112137, 35.4982183], [-97.5113532, 35.4982178], [-97.5113511, 35.4978347]]]}, "properties": {"osm_id": 1252723702, "building": "yes", "name": "", "height": null, "height_m": null, "levels": null, "tract_id": "40109100500", "tract_name": "1005", "tags": {"building": "yes", "source": "microsoft/BuildingFootprints"}}}, {"type": "Feature", "geometry": {"type": "Polygon", "coordinates": [[[-97.5116903, 35.4978922], [-97.5115535, 35.4978908], [-97.5115464, 35.4983602], [-97.5116832, 35.4983616], [-97.5116903, 35.4978922]]]}, "properties": {"osm_id": 1252723703, "building": "yes", "name": "", "height": null, "height_m": null, "levels": null, "tract_id": "40109100500", "tract_name": "1005", "tags": {"building": "yes", "source": "microsoft/BuildingFootprints"}}}, {"type": "Feature", "geometry": {"type": "Polygon", "coordinates": [[[-97.5108718, 35.4981036], [-97.5107082, 35.4981026], [-97.5107071, 35.4982161], [-97.5108707, 35.4982171], [-97.5108718, 35.4981036]]]}, "properties": {"osm_id": 1252723704, "building": "yes", "name": "", "height": null, "height_m": null, "levels": null, "tract_id": "40109100500", "tract_name": "1005", "tags": {"building": "yes", "source": "microsoft/BuildingFootprints"}}}, {"type": "Feature", "geometry": {"type": "Polygon", "coordinates": [[[-97.5104569, 35.4983004], [-97.5104521, 35.4984772], [-97.5104307, 35.4984768], [-97.5104276, 35.4985915], [-97.5105337, 35.4985934], [-97.5105416, 35.4983019], [-97.5104569, 35.4983004]]]}, "properties": {"osm_id": 1252723705, "building": "yes", "name": "", "height": null, "height_m": null, "levels": null, "tract_id": "40109100500", "tract_name": "1005", "tags": {"building": "yes", "source": "microsoft/BuildingFootprints"}}}, {"type": "Feature", "geometry": {"type": "Polygon", "coordinates": [[[-97.5106717, 35.4978998], [-97.51055, 35.4978988], [-97.5105507, 35.4978421], [-97.5103989, 35.4978408], [-97.510396, 35.4980745], [-97.5106696, 35.4980767], [-97.5106717, 35.4978998]]]}, "properties": {"osm_id": 1252723706, "building": "yes", "name": "", "height": null, "height_m": null, "levels": null, "tract_id": "40109100500", "tract_name": "1005", "tags": {"building": "yes", "source": "microsoft/BuildingFootprints"}}}, {"type": "Feature", "geometry": {"type": "Polygon", "coordinates": [[[-97.5102524, 35.4978711], [-97.5101505, 35.49787], [-97.5101465, 35.4981408], [-97.5102484, 35.4981418], [-97.5102524, 35.4978711]]]}, "properties": {"osm_id": 1252723707, "building": "yes", "name": "", "height": null, "height_m": null, "levels": null, "tract_id": "40109100500", "tract_name": "1005", "tags": {"building": "yes", "source": "microsoft/BuildingFootprints"}}}, {"type": "Feature", "geometry": {"type": "Polygon", "coordinates": [[[-97.5107033, 35.4974469], [-97.5100302, 35.4974523], [-97.5100332, 35.4977056], [-97.5107064, 35.4977001], [-97.5107033, 35.4974469]]]}, "properties": {"osm_id": 1252723708, "building": "yes", "name": "", "height": null, "height_m": null, "levels": null, "tract_id": "40109100500", "tract_name": "1005", "tags": {"building": "yes", "source": "microsoft/BuildingFootprints"}}}, {"type": "Feature", "geometry": {"type": "Polygon", "coordinates": [[[-97.5108676, 35.4977068], [-97.5111787, 35.4977079], [-97.5111797, 35.4975279], [-97.5112843, 35.4975283], [-97.5112847, 35.4974462], [-97.5113893, 35.4974466], [-97.5113899, 35.4973462], [-97.5112209, 35.4973456], [-97.5112212, 35.4972975], [-97.5111729, 35.4972974], [-97.5111725, 35.497376], [-97.5108694, 35.4973749], [-97.5108676, 35.4977068]]]}, "properties": {"osm_id": 1252723709, "building": "yes", "name": "", "height": null, "height_m": null, "levels": null, "tract_id": "40109100500", "tract_name": "1005", "tags": {"building": "yes", "source": "microsoft/BuildingFootprints"}}}, {"type": "Feature", "geometry": {"type": "Polygon", "coordinates": [[[-97.5117759, 35.4973539], [-97.5114102, 35.4973489], [-97.5114067, 35.4975183], [-97.5117725, 35.4975232], [-97.5117759, 35.4973539]]]}, "properties": {"osm_id": 1252723710, "building": "yes", "name": "", "height": null, "height_m": null, "levels": null, "tract_id": "40109100500", "tract_name": "1005", "tags": {"building": "yes", "source": "microsoft/BuildingFootprints"}}}, {"type": "Feature", "geometry": {"type": "Polygon", "coordinates": [[[-97.5114357, 35.4973042], [-97.511551, 35.4973021], [-97.511545, 35.4970838], [-97.5114662, 35.4970853], [-97.5114671, 35.4971158], [-97.5114305, 35.4971165], [-97.5114357, 35.4973042]]]}, "properties": {"osm_id": 1252723711, "building": "yes", "name": "", "height": null, "height_m": null, "levels": null, "tract_id": "40109100500", "tract_name": "1005", "tags": {"building": "yes", "source": "microsoft/BuildingFootprints"}}}, {"type": "Feature", "geometry": {"type": "Polygon", "coordinates": [[[-97.5107137, 35.4973171], [-97.510888, 35.4973153], [-97.5108877, 35.4972989], [-97.5113866, 35.4972938], [-97.5113857, 35.497237], [-97.5112865, 35.497238], [-97.5112841, 35.4970821], [-97.5112154, 35.4970828], [-97.5112148, 35.4970422], [-97.5113398, 35.497041], [-97.5113385, 35.4969536], [-97.5112215, 35.4969548], [-97.5112224, 35.4970128], [-97.5111489, 35.4970135], [-97.511148, 35.4969534], [-97.5110086, 35.4969548], [-97.5110095, 35.4970149], [-97.5108834, 35.4970162], [-97.5108854, 35.4971482], [-97.5108087, 35.497149], [-97.5108061, 35.4969777], [-97.5107605, 35.4969782], [-97.51076, 35.4969476], [-97.5107081, 35.4969481], [-97.5107137, 35.4973171]]]}, "properties": {"osm_id": 1252723712, "building": "yes", "name": "", "height": null, "height_m": null, "levels": null, "tract_id": "40109100500", "tract_name": "1005", "tags": {"building": "yes", "source": "microsoft/BuildingFootprints"}}}, {"type": "Feature", "geometry": {"type": "Polygon", "coordinates": [[[-97.5103736, 35.4969677], [-97.5100276, 35.4969706], [-97.5100308, 35.4972217], [-97.5103768, 35.4972188], [-97.5103736, 35.4969677]]]}, "properties": {"osm_id": 1252724028, "building": "yes", "name": "", "height": null, "height_m": null, "levels": null, "tract_id": "40109100500", "tract_name": "1005", "tags": {"building": "yes", "source": "microsoft/BuildingFootprints"}}}, {"type": "Feature", "geometry": {"type": "Polygon", "coordinates": [[[-97.5105348, 35.4964024], [-97.5105339, 35.4964919], [-97.5107314, 35.4964931], [-97.5107287, 35.4967836], [-97.5108745, 35.4967845], [-97.5108781, 35.4964045], [-97.5105348, 35.4964024]]]}, "properties": {"osm_id": 1252724029, "building": "yes", "name": "", "height": null, "height_m": null, "levels": null, "tract_id": "40109100500", "tract_name": "1005", "tags": {"building": "yes", "source": "microsoft/BuildingFootprints"}}}, {"type": "Feature", "geometry": {"type": "Polygon", "coordinates": [[[-97.5111412, 35.4965713], [-97.5112582, 35.4965721], [-97.5112594, 35.4964564], [-97.5112684, 35.4964564], [-97.5112687, 35.4964271], [-97.5111427, 35.4964262], [-97.5111412, 35.4965713]]]}, "properties": {"osm_id": 1252724030, "building": "yes", "name": "", "height": null, "height_m": null, "levels": null, "tract_id": "40109100500", "tract_name": "1005", "tags": {"building": "yes", "source": "microsoft/BuildingFootprints"}}}, {"type": "Feature", "geometry": {"type": "Polygon", "coordinates": [[[-97.5112744, 35.4967857], [-97.5112762, 35.4966962], [-97.5110778, 35.4966935], [-97.5110758, 35.4967906], [-97.5112216, 35.4967925], [-97.5112218, 35.496785], [-97.5112744, 35.4967857]]]}, "properties": {"osm_id": 1252724031, "building": "yes", "name": "", "height": null, "height_m": null, "levels": null, "tract_id": "40109100500", "tract_name": "1005", "tags": {"building": "yes", "source": "microsoft/BuildingFootprints"}}}, {"type": "Feature", "geometry": {"type": "Polygon", "coordinates": [[[-97.5113502, 35.4967784], [-97.5115503, 35.4967752], [-97.5115487, 35.4967119], [-97.5113486, 35.4967151], [-97.5113502, 35.4967784]]]}, "properties": {"osm_id": 1252724032, "building": "yes", "name": "", "height": null, "height_m": null, "levels": null, "tract_id": "40109100500", "tract_name": "1005", "tags": {"building": "yes", "source": "microsoft/BuildingFootprints"}}}, {"type": "Feature", "geometry": {"type": "Polygon", "coordinates": [[[-97.5096662, 35.4960404], [-97.5096613, 35.4962446], [-97.5098427, 35.4962474], [-97.5098475, 35.4960433], [-97.5096662, 35.4960404]]]}, "properties": {"osm_id": 1252724033, "building": "yes", "name": "", "height": null, "height_m": null, "levels": null, "tract_id": "40109100500", "tract_name": "1005", "tags": {"building": "yes", "source": "microsoft/BuildingFootprints"}}}, {"type": "Feature", "geometry": {"type": "Polygon", "coordinates": [[[-97.5100687, 35.4956931], [-97.5104693, 35.4956975], [-97.5104721, 35.4955294], [-97.5100715, 35.495525], [-97.5100687, 35.4956931]]]}, "properties": {"osm_id": 1252724034, "building": "yes", "name": "", "height": null, "height_m": null, "levels": null, "tract_id": "40109100500", "tract_name": "1005", "tags": {"building": "yes", "source": "microsoft/BuildingFootprints"}}}, {"type": "Feature", "geometry": {"type": "Polygon", "coordinates": [[[-97.5100462, 35.4951363], [-97.5100448, 35.4954682], [-97.5102191, 35.4954687], [-97.510219, 35.4954993], [-97.5106401, 35.4955004], [-97.5106396, 35.4956303], [-97.5109088, 35.495631], [-97.5109091, 35.4955633], [-97.5108608, 35.4955632], [-97.5108611, 35.4954999], [-97.511426, 35.4955014], [-97.5114263, 35.495424], [-97.5113415, 35.4954238], [-97.5113422, 35.4952622], [-97.5112553, 35.495262], [-97.5112558, 35.4951428], [-97.511045, 35.4951422], [-97.5110445, 35.4952514], [-97.5109775, 35.4952512], [-97.510978, 35.4951389], [-97.5100462, 35.4951363]]]}, "properties": {"osm_id": 1252724035, "building": "yes", "name": "", "height": null, "height_m": null, "levels": null, "tract_id": "40109100500", "tract_name": "1005", "tags": {"building": "yes", "source": "microsoft/BuildingFootprints"}}}, {"type": "Feature", "geometry": {"type": "Polygon", "coordinates": [[[-97.5098327, 35.4954919], [-97.5098344, 35.4952561], [-97.5095136, 35.4952545], [-97.5095141, 35.4951901], [-97.5094577, 35.4951899], [-97.5094568, 35.4953132], [-97.5091645, 35.4953118], [-97.5091632, 35.4954887], [-97.5098327, 35.4954919]]]}, "properties": {"osm_id": 1252724036, "building": "yes", "name": "", "height": null, "height_m": null, "levels": null, "tract_id": "40109100500", "tract_name": "1005", "tags": {"building": "yes", "source": "microsoft/BuildingFootprints"}}}, {"type": "Feature", "geometry": {"type": "Polygon", "coordinates": [[[-97.5092168, 35.4946267], [-97.5092141, 35.4948188], [-97.5093991, 35.4948206], [-97.5093978, 35.4949123], [-97.509843, 35.4949165], [-97.5098465, 35.4946719], [-97.5097714, 35.4946712], [-97.5097719, 35.4946319], [-97.5092168, 35.4946267]]]}, "properties": {"osm_id": 1252724037, "building": "yes", "name": "", "height": null, "height_m": null, "levels": null, "tract_id": "40109100500", "tract_name": "1005", "tags": {"building": "yes", "source": "microsoft/BuildingFootprints"}}}, {"type": "Feature", "geometry": {"type": "Polygon", "coordinates": [[[-97.5105656, 35.494923], [-97.511035, 35.4949259], [-97.5110386, 35.4945394], [-97.5109045, 35.4945386], [-97.5109019, 35.4948159], [-97.5106981, 35.4948146], [-97.5107006, 35.4945395], [-97.5105692, 35.4945387], [-97.5105656, 35.494923]]]}, "properties": {"osm_id": 1252724038, "building": "yes", "name": "", "height": null, "height_m": null, "levels": null, "tract_id": "40109100500", "tract_name": "1005", "tags": {"building": "yes", "source": "microsoft/BuildingFootprints"}}}, {"type": "Feature", "geometry": {"type": "Polygon", "coordinates": [[[-97.5095095, 35.4943421], [-97.5095064, 35.4945725], [-97.5098604, 35.4945756], [-97.5098635, 35.4943453], [-97.5095095, 35.4943421]]]}, "properties": {"osm_id": 1252724039, "building": "yes", "name": "", "height": null, "height_m": null, "levels": null, "tract_id": "40109100500", "tract_name": "1005", "tags": {"building": "yes", "source": "microsoft/BuildingFootprints"}}}, {"type": "Feature", "geometry": {"type": "Polygon", "coordinates": [[[-97.5091921, 35.4943558], [-97.5091874, 35.4945774], [-97.5094448, 35.494581], [-97.5094469, 35.4944828], [-97.5093032, 35.4944808], [-97.5093058, 35.4943574], [-97.5091921, 35.4943558]]]}, "properties": {"osm_id": 1252724040, "building": "yes", "name": "", "height": null, "height_m": null, "levels": null, "tract_id": "40109100500", "tract_name": "1005", "tags": {"building": "yes", "source": "microsoft/BuildingFootprints"}}}, {"type": "Feature", "geometry": {"type": "Polygon", "coordinates": [[[-97.509096, 35.4948245], [-97.5088868, 35.4948273], [-97.5088885, 35.4949081], [-97.508993, 35.4949067], [-97.5089932, 35.4949154], [-97.5090978, 35.494914], [-97.509096, 35.4948245]]]}, "properties": {"osm_id": 1252724041, "building": "yes", "name": "", "height": null, "height_m": null, "levels": null, "tract_id": "40109100500", "tract_name": "1005", "tags": {"building": "yes", "source": "microsoft/BuildingFootprints"}}}, {"type": "Feature", "geometry": {"type": "Polygon", "coordinates": [[[-97.5079429, 35.495387], [-97.507944, 35.495435], [-97.5079183, 35.4954355], [-97.5079203, 35.4955206], [-97.5080866, 35.4955179], [-97.5080833, 35.4953847], [-97.5079429, 35.495387]]]}, "properties": {"osm_id": 1252724042, "building": "yes", "name": "", "height": null, "height_m": null, "levels": null, "tract_id": "40109100500", "tract_name": "1005", "tags": {"building": "yes", "source": "microsoft/BuildingFootprints"}}}, {"type": "Feature", "geometry": {"type": "Polygon", "coordinates": [[[-97.5085603, 35.4953397], [-97.5087544, 35.4953359], [-97.5087522, 35.4952606], [-97.5086449, 35.4952627], [-97.5086438, 35.4952234], [-97.5085569, 35.4952251], [-97.5085603, 35.4953397]]]}, "properties": {"osm_id": 1252724043, "building": "yes", "name": "", "height": null, "height_m": null, "levels": null, "tract_id": "40109100500", "tract_name": "1005", "tags": {"building": "yes", "source": "microsoft/BuildingFootprints"}}}, {"type": "Feature", "geometry": {"type": "Polygon", "coordinates": [[[-97.5096846, 35.4957113], [-97.5094101, 35.4957085], [-97.5094079, 35.4958515], [-97.5096824, 35.4958543], [-97.5096846, 35.4957113]]]}, "properties": {"osm_id": 1252724044, "building": "yes", "name": "", "height": null, "height_m": null, "levels": null, "tract_id": "40109100500", "tract_name": "1005", "tags": {"building": "yes", "source": "microsoft/BuildingFootprints"}}}, {"type": "Feature", "geometry": {"type": "Polygon", "coordinates": [[[-97.5092016, 35.4963635], [-97.509604, 35.4963655], [-97.5096048, 35.4962519], [-97.5092025, 35.4962499], [-97.5092016, 35.4963635]]]}, "properties": {"osm_id": 1252724045, "building": "yes", "name": "", "height": null, "height_m": null, "levels": null, "tract_id": "40109100500", "tract_name": "1005", "tags": {"building": "yes", "source": "microsoft/BuildingFootprints"}}}, {"type": "Feature", "geometry": {"type": "Polygon", "coordinates": [[[-97.5091492, 35.4966744], [-97.5091504, 35.4964528], [-97.5082509, 35.4964494], [-97.5082495, 35.4967115], [-97.5089666, 35.4967141], [-97.5089668, 35.4966737], [-97.5091492, 35.4966744]]]}, "properties": {"osm_id": 1252724046, "building": "yes", "name": "", "height": null, "height_m": null, "levels": null, "tract_id": "40109100500", "tract_name": "1005", "tags": {"building": "yes", "source": "microsoft/BuildingFootprints"}}}, {"type": "Feature", "geometry": {"type": "Polygon", "coordinates": [[[-97.5061358, 35.495449], [-97.5061292, 35.495529], [-97.5061184, 35.4956213], [-97.5061999, 35.4956227], [-97.5061926, 35.4955273], [-97.5061889, 35.4954775], [-97.5065296, 35.4954767], [-97.5065219, 35.4952279], [-97.506152, 35.4952355], [-97.5061547, 35.4953215], [-97.5061128, 35.4953223], [-97.5061098, 35.4952232], [-97.505898, 35.4952275], [-97.5059002, 35.4952974], [-97.5056472, 35.4953025], [-97.5056519, 35.4954575], [-97.5061358, 35.495449]]]}, "properties": {"osm_id": 1252724047, "building": "yes", "name": "", "height": null, "height_m": null, "levels": null, "tract_id": "40109100500", "tract_name": "1005", "tags": {"building": "yes", "source": "microsoft/BuildingFootprints"}}}, {"type": "Feature", "geometry": {"type": "Polygon", "coordinates": [[[-97.5057041, 35.4946531], [-97.5057026, 35.4948518], [-97.5058823, 35.4948527], [-97.505882, 35.4948942], [-97.5061207, 35.4948954], [-97.5061214, 35.4948081], [-97.5061643, 35.4948083], [-97.5061651, 35.4946969], [-97.5061249, 35.4946967], [-97.5061256, 35.4946028], [-97.5059379, 35.4946019], [-97.5059378, 35.4946106], [-97.5058869, 35.4946104], [-97.5058865, 35.494654], [-97.5057041, 35.4946531]]]}, "properties": {"osm_id": 1252724048, "building": "yes", "name": "", "height": null, "height_m": null, "levels": null, "tract_id": "40109100500", "tract_name": "1005", "tags": {"building": "yes", "source": "microsoft/BuildingFootprints"}}}, {"type": "Feature", "geometry": {"type": "Polygon", "coordinates": [[[-97.5064125, 35.4945117], [-97.5067113, 35.4945142], [-97.5067123, 35.4944355], [-97.5063303, 35.4944323], [-97.5063288, 35.4945545], [-97.5064119, 35.4945552], [-97.5064125, 35.4945117]]]}, "properties": {"osm_id": 1252724049, "building": "yes", "name": "", "height": null, "height_m": null, "levels": null, "tract_id": "40109100500", "tract_name": "1005", "tags": {"building": "yes", "source": "microsoft/BuildingFootprints"}}}, {"type": "Feature", "geometry": {"type": "Polygon", "coordinates": [[[-97.5063334, 35.4943817], [-97.506387, 35.494382], [-97.5063873, 35.494344], [-97.506536, 35.4943447], [-97.5065367, 35.4942627], [-97.5063343, 35.4942616], [-97.5063334, 35.4943817]]]}, "properties": {"osm_id": 1252724050, "building": "yes", "name": "", "height": null, "height_m": null, "levels": null, "tract_id": "40109100500", "tract_name": "1005", "tags": {"building": "yes", "source": "microsoft/BuildingFootprints"}}}, {"type": "Feature", "geometry": {"type": "Polygon", "coordinates": [[[-97.5072629, 35.4942668], [-97.5066654, 35.4942628], [-97.5066647, 35.4943432], [-97.5072622, 35.4943463], [-97.5072629, 35.4942668]]]}, "properties": {"osm_id": 1252724051, "building": "yes", "name": "", "height": null, "height_m": null, "levels": null, "tract_id": "40109100500", "tract_name": "1005", "tags": {"building": "yes", "source": "microsoft/BuildingFootprints"}}}, {"type": "Feature", "geometry": {"type": "Polygon", "coordinates": [[[-97.5076331, 35.4946363], [-97.5074669, 35.494634], [-97.5074612, 35.4949025], [-97.5076274, 35.4949048], [-97.5076331, 35.4946363]]]}, "properties": {"osm_id": 1252724052, "building": "yes", "name": "", "height": null, "height_m": null, "levels": null, "tract_id": "40109100500", "tract_name": "1005", "tags": {"building": "yes", "source": "microsoft/BuildingFootprints"}}}, {"type": "Feature", "geometry": {"type": "Polygon", "coordinates": [[[-97.5080971, 35.494281], [-97.5080957, 35.4943826], [-97.5082179, 35.4943838], [-97.5082192, 35.4942964], [-97.5081854, 35.4942961], [-97.5081856, 35.4942819], [-97.5080971, 35.494281]]]}, "properties": {"osm_id": 1252724053, "building": "yes", "name": "", "height": null, "height_m": null, "levels": null, "tract_id": "40109100500", "tract_name": "1005", "tags": {"building": "yes", "source": "microsoft/BuildingFootprints"}}}, {"type": "Feature", "geometry": {"type": "Polygon", "coordinates": [[[-97.508418, 35.4943662], [-97.5084475, 35.4943666], [-97.5084488, 35.4943044], [-97.5083147, 35.4943026], [-97.508312, 35.4944358], [-97.5084166, 35.4944372], [-97.508418, 35.4943662]]]}, "properties": {"osm_id": 1252724054, "building": "yes", "name": "", "height": null, "height_m": null, "levels": null, "tract_id": "40109100500", "tract_name": "1005", "tags": {"building": "yes", "source": "microsoft/BuildingFootprints"}}}, {"type": "Feature", "geometry": {"type": "Polygon", "coordinates": [[[-97.5086641, 35.4942756], [-97.5085515, 35.4942738], [-97.5085477, 35.4944353], [-97.5086603, 35.4944371], [-97.5086641, 35.4942756]]]}, "properties": {"osm_id": 1252724055, "building": "yes", "name": "", "height": null, "height_m": null, "levels": null, "tract_id": "40109100500", "tract_name": "1005", "tags": {"building": "yes", "source": "microsoft/BuildingFootprints"}}}, {"type": "Feature", "geometry": {"type": "Polygon", "coordinates": [[[-97.508716, 35.4944332], [-97.5088302, 35.4944351], [-97.508834, 35.4942801], [-97.5087199, 35.4942782], [-97.508716, 35.4944332]]]}, "properties": {"osm_id": 1252724056, "building": "yes", "name": "", "height": null, "height_m": null, "levels": null, "tract_id": "40109100500", "tract_name": "1005", "tags": {"building": "yes", "source": "microsoft/BuildingFootprints"}}}, {"type": "Feature", "geometry": {"type": "Polygon", "coordinates": [[[-97.508878, 35.4944409], [-97.5089987, 35.4944426], [-97.509002, 35.4942833], [-97.5088814, 35.4942816], [-97.508878, 35.4944409]]]}, "properties": {"osm_id": 1252724057, "building": "yes", "name": "", "height": null, "height_m": null, "levels": null, "tract_id": "40109100500", "tract_name": "1005", "tags": {"building": "yes", "source": "microsoft/BuildingFootprints"}}}, {"type": "Feature", "geometry": {"type": "Polygon", "coordinates": [[[-97.5101978, 35.4938693], [-97.5102541, 35.493869], [-97.510253, 35.4937248], [-97.5100572, 35.4937259], [-97.5100592, 35.493977], [-97.5101987, 35.4939763], [-97.5101978, 35.4938693]]]}, "properties": {"osm_id": 1252724058, "building": "yes", "name": "", "height": null, "height_m": null, "levels": null, "tract_id": "40109100500", "tract_name": "1005", "tags": {"building": "yes", "source": "microsoft/BuildingFootprints"}}}, {"type": "Feature", "geometry": {"type": "Polygon", "coordinates": [[[-97.5079761, 35.4978576], [-97.5079721, 35.4982004], [-97.50853, 35.4982047], [-97.5085305, 35.4981589], [-97.5085091, 35.4981587], [-97.5085125, 35.4978617], [-97.5079761, 35.4978576]]]}, "properties": {"osm_id": 1252724059, "building": "yes", "name": "", "height": null, "height_m": null, "levels": null, "tract_id": "40109100500", "tract_name": "1005", "tags": {"building": "yes", "source": "microsoft/BuildingFootprints"}}}, {"type": "Feature", "geometry": {"type": "Polygon", "coordinates": [[[-97.5090712, 35.4970139], [-97.5089006, 35.497016], [-97.5089018, 35.4970847], [-97.5090724, 35.4970827], [-97.5090712, 35.4970139]]]}, "properties": {"osm_id": 1252724060, "building": "yes", "name": "", "height": null, "height_m": null, "levels": null, "tract_id": "40109100500", "tract_name": "1005", "tags": {"building": "yes", "source": "microsoft/BuildingFootprints"}}}, {"type": "Feature", "geometry": {"type": "Polygon", "coordinates": [[[-97.5091759, 35.4971441], [-97.5094226, 35.4971467], [-97.5094241, 35.4970561], [-97.5095018, 35.4970569], [-97.5095027, 35.4970045], [-97.5094168, 35.4970036], [-97.5094166, 35.4970178], [-97.5091779, 35.4970153], [-97.5091759, 35.4971441]]]}, "properties": {"osm_id": 1252724061, "building": "yes", "name": "", "height": null, "height_m": null, "levels": null, "tract_id": "40109100500", "tract_name": "1005", "tags": {"building": "yes", "source": "microsoft/BuildingFootprints"}}}, {"type": "Feature", "geometry": {"type": "Polygon", "coordinates": [[[-97.5087431, 35.498247], [-97.5083516, 35.4982421], [-97.5083477, 35.4984495], [-97.5087392, 35.4984544], [-97.5087431, 35.498247]]]}, "properties": {"osm_id": 1252724062, "building": "yes", "name": "", "height": null, "height_m": null, "levels": null, "tract_id": "40109100500", "tract_name": "1005", "tags": {"building": "yes", "source": "microsoft/BuildingFootprints"}}}, {"type": "Feature", "geometry": {"type": "Polygon", "coordinates": [[[-97.5073027, 35.4985111], [-97.5075253, 35.4985108], [-97.5075251, 35.4984016], [-97.5076082, 35.4984015], [-97.5076081, 35.4983403], [-97.5073023, 35.4983407], [-97.5073027, 35.4985111]]]}, "properties": {"osm_id": 1252724063, "building": "yes", "name": "", "height": null, "height_m": null, "levels": null, "tract_id": "40109100500", "tract_name": "1005", "tags": {"building": "yes", "source": "microsoft/BuildingFootprints"}}}, {"type": "Feature", "geometry": {"type": "Polygon", "coordinates": [[[-97.5073426, 35.4979131], [-97.507171, 35.4979126], [-97.5071709, 35.49793], [-97.5070486, 35.4979296], [-97.5070487, 35.4979122], [-97.5068518, 35.4979115], [-97.5068511, 35.4980491], [-97.5068967, 35.4980492], [-97.5068965, 35.4980973], [-97.5072918, 35.4980986], [-97.507292, 35.4980668], [-97.5073419, 35.498067], [-97.5073426, 35.4979131]]]}, "properties": {"osm_id": 1252724064, "building": "yes", "name": "", "height": null, "height_m": null, "levels": null, "tract_id": "40109100500", "tract_name": "1005", "tags": {"building": "yes", "source": "microsoft/BuildingFootprints"}}}, {"type": "Feature", "geometry": {"type": "Polygon", "coordinates": [[[-97.5065291, 35.4982229], [-97.5063011, 35.4982243], [-97.5063039, 35.4985191], [-97.5065319, 35.4985177], [-97.5065291, 35.4982229]]]}, "properties": {"osm_id": 1252724065, "building": "yes", "name": "", "height": null, "height_m": null, "levels": null, "tract_id": "40109100500", "tract_name": "1005", "tags": {"building": "yes", "source": "microsoft/BuildingFootprints"}}}, {"type": "Feature", "geometry": {"type": "Polygon", "coordinates": [[[-97.5058114, 35.4985172], [-97.5060393, 35.4985201], [-97.506045, 35.4982245], [-97.5058171, 35.4982216], [-97.5058114, 35.4985172]]]}, "properties": {"osm_id": 1252724066, "building": "yes", "name": "", "height": null, "height_m": null, "levels": null, "tract_id": "40109100500", "tract_name": "1005", "tags": {"building": "yes", "source": "microsoft/BuildingFootprints"}}}, {"type": "Feature", "geometry": {"type": "Polygon", "coordinates": [[[-97.5056227, 35.4978992], [-97.5056208, 35.4981634], [-97.5057523, 35.498164], [-97.5057539, 35.4979295], [-97.5056895, 35.4979291], [-97.5056898, 35.4978995], [-97.5056227, 35.4978992]]]}, "properties": {"osm_id": 1252724067, "building": "yes", "name": "", "height": null, "height_m": null, "levels": null, "tract_id": "40109100500", "tract_name": "1005", "tags": {"building": "yes", "source": "microsoft/BuildingFootprints"}}}, {"type": "Feature", "geometry": {"type": "Polygon", "coordinates": [[[-97.5064563, 35.4974689], [-97.5064552, 35.4976152], [-97.5067433, 35.4976166], [-97.5067443, 35.4974703], [-97.5064563, 35.4974689]]]}, "properties": {"osm_id": 1252724068, "building": "yes", "name": "", "height": null, "height_m": null, "levels": null, "tract_id": "40109100500", "tract_name": "1005", "tags": {"building": "yes", "source": "microsoft/BuildingFootprints"}}}, {"type": "Feature", "geometry": {"type": "Polygon", "coordinates": [[[-97.507093, 35.4976086], [-97.5070977, 35.4973445], [-97.5068886, 35.497342], [-97.5068866, 35.4974543], [-97.5068195, 35.4974535], [-97.5068168, 35.4976054], [-97.507093, 35.4976086]]]}, "properties": {"osm_id": 1252724069, "building": "yes", "name": "", "height": null, "height_m": null, "levels": null, "tract_id": "40109100500", "tract_name": "1005", "tags": {"building": "yes", "source": "microsoft/BuildingFootprints"}}}, {"type": "Feature", "geometry": {"type": "Polygon", "coordinates": [[[-97.506123, 35.497348], [-97.5059407, 35.4973498], [-97.5059445, 35.497614], [-97.5061269, 35.4976122], [-97.506123, 35.497348]]]}, "properties": {"osm_id": 1252724070, "building": "yes", "name": "", "height": null, "height_m": null, "levels": null, "tract_id": "40109100500", "tract_name": "1005", "tags": {"building": "yes", "source": "microsoft/BuildingFootprints"}}}, {"type": "Feature", "geometry": {"type": "Polygon", "coordinates": [[[-97.5070115, 35.4970113], [-97.5068023, 35.4970088], [-97.506798, 35.4972467], [-97.5070072, 35.4972492], [-97.5070115, 35.4970113]]]}, "properties": {"osm_id": 1252724071, "building": "yes", "name": "", "height": null, "height_m": null, "levels": null, "tract_id": "40109100500", "tract_name": "1005", "tags": {"building": "yes", "source": "microsoft/BuildingFootprints"}}}, {"type": "Feature", "geometry": {"type": "Polygon", "coordinates": [[[-97.5074376, 35.501056], [-97.5074352, 35.5013333], [-97.5077704, 35.5013352], [-97.5077721, 35.5011409], [-97.5077989, 35.501141], [-97.5077996, 35.501058], [-97.5074376, 35.501056]]]}, "properties": {"osm_id": 1252727952, "building": "yes", "name": "", "height": null, "height_m": null, "levels": null, "tract_id": "40109100500", "tract_name": "1005", "tags": {"building": "yes", "source": "microsoft/BuildingFootprints"}}}, {"type": "Feature", "geometry": {"type": "Polygon", "coordinates": [[[-97.5076391, 35.5022901], [-97.5085108, 35.5022898], [-97.5085106, 35.5018313], [-97.5085133, 35.5018313], [-97.5085132, 35.5017494], [-97.5076388, 35.5017497], [-97.5076391, 35.5022901]]]}, "properties": {"osm_id": 1252727953, "building": "yes", "name": "", "height": null, "height_m": null, "levels": null, "tract_id": "40109100500", "tract_name": "1005", "tags": {"building": "yes", "source": "microsoft/BuildingFootprints"}}}, {"type": "Feature", "geometry": {"type": "Polygon", "coordinates": [[[-97.5079017, 35.5013885], [-97.50843, 35.5013924], [-97.5084336, 35.5010627], [-97.5079053, 35.5010588], [-97.5079017, 35.5013885]]]}, "properties": {"osm_id": 1252727954, "building": "yes", "name": "", "height": null, "height_m": null, "levels": null, "tract_id": "40109100500", "tract_name": "1005", "tags": {"building": "yes", "source": "microsoft/BuildingFootprints"}}}, {"type": "Feature", "geometry": {"type": "Polygon", "coordinates": [[[-97.5059733, 35.5017287], [-97.5055522, 35.501727], [-97.5055524, 35.5016921], [-97.5053244, 35.5016912], [-97.5053243, 35.5017217], [-97.5048951, 35.50172], [-97.5048924, 35.502172], [-97.5047663, 35.5021715], [-97.5047655, 35.5022937], [-97.5061066, 35.5022992], [-97.506107, 35.5022315], [-97.5059702, 35.5022309], [-97.5059733, 35.5017287]]]}, "properties": {"osm_id": 1252727955, "building": "yes", "name": "", "height": null, "height_m": null, "levels": null, "tract_id": "40109100500", "tract_name": "1005", "tags": {"building": "yes", "source": "microsoft/BuildingFootprints"}}}, {"type": "Feature", "geometry": {"type": "Polygon", "coordinates": [[[-97.5055578, 35.5014241], [-97.5059239, 35.5014244], [-97.5059243, 35.5011483], [-97.5058706, 35.5011483], [-97.5058707, 35.5010544], [-97.5058024, 35.5010544], [-97.5058024, 35.5009963], [-97.5052231, 35.5009958], [-97.5052227, 35.5012723], [-97.505558, 35.5012725], [-97.5055578, 35.5014241]]]}, "properties": {"osm_id": 1252727956, "building": "yes", "name": "", "height": null, "height_m": null, "levels": null, "tract_id": "40109100500", "tract_name": "1005", "tags": {"building": "yes", "source": "microsoft/BuildingFootprints"}}}, {"type": "Feature", "geometry": {"type": "Polygon", "coordinates": [[[-97.5060257, 35.5007485], [-97.5057683, 35.5007454], [-97.5057652, 35.5009156], [-97.5060226, 35.5009187], [-97.5060257, 35.5007485]]]}, "properties": {"osm_id": 1252727957, "building": "yes", "name": "", "height": null, "height_m": null, "levels": null, "tract_id": "40109100500", "tract_name": "1005", "tags": {"building": "yes", "source": "microsoft/BuildingFootprints"}}}, {"type": "Feature", "geometry": {"type": "Polygon", "coordinates": [[[-97.5064583, 35.5021366], [-97.5066407, 35.502138], [-97.5066423, 35.5019939], [-97.506653, 35.501994], [-97.5066548, 35.5018324], [-97.5064617, 35.501831], [-97.5064583, 35.5021366]]]}, "properties": {"osm_id": 1252727958, "building": "yes", "name": "", "height": null, "height_m": null, "levels": null, "tract_id": "40109100500", "tract_name": "1005", "tags": {"building": "yes", "source": "microsoft/BuildingFootprints"}}}, {"type": "Feature", "geometry": {"type": "Polygon", "coordinates": [[[-97.5072718, 35.502466], [-97.5067729, 35.5024629], [-97.5067727, 35.5024804], [-97.5054451, 35.5024723], [-97.5054412, 35.5028981], [-97.5056987, 35.5028996], [-97.5056994, 35.5028267], [-97.5057825, 35.5028272], [-97.5057834, 35.5027342], [-97.5058918, 35.5027349], [-97.5058921, 35.5027034], [-97.5061001, 35.5027046], [-97.5060979, 35.5029523], [-97.5064492, 35.5029544], [-97.5064504, 35.5028312], [-97.5065442, 35.5028318], [-97.5065433, 35.5029332], [-97.5070165, 35.5029361], [-97.5070156, 35.5030321], [-97.5072854, 35.5030338], [-97.5072866, 35.502893], [-97.5072679, 35.5028929], [-97.5072718, 35.502466]]]}, "properties": {"osm_id": 1252727959, "building": "yes", "name": "", "height": null, "height_m": null, "levels": null, "tract_id": "40109100500", "tract_name": "1005", "tags": {"building": "yes", "source": "microsoft/BuildingFootprints"}}}, {"type": "Feature", "geometry": {"type": "Polygon", "coordinates": [[[-97.5079697, 35.502534], [-97.5076372, 35.5025299], [-97.5076311, 35.5028584], [-97.5079637, 35.5028624], [-97.5079697, 35.502534]]]}, "properties": {"osm_id": 1252727960, "building": "yes", "name": "", "height": null, "height_m": null, "levels": null, "tract_id": "40109100500", "tract_name": "1005", "tags": {"building": "yes", "source": "microsoft/BuildingFootprints"}}}, {"type": "Feature", "geometry": {"type": "Polygon", "coordinates": [[[-97.5081376, 35.5026004], [-97.5081342, 35.5029257], [-97.5080752, 35.5029253], [-97.5080742, 35.5030258], [-97.5082485, 35.503027], [-97.5082497, 35.5029069], [-97.5084026, 35.5029079], [-97.5084058, 35.5026022], [-97.5081376, 35.5026004]]]}, "properties": {"osm_id": 1252727961, "building": "yes", "name": "", "height": null, "height_m": null, "levels": null, "tract_id": "40109100500", "tract_name": "1005", "tags": {"building": "yes", "source": "microsoft/BuildingFootprints"}}}, {"type": "Feature", "geometry": {"type": "Polygon", "coordinates": [[[-97.5085363, 35.5033343], [-97.5083202, 35.5033324], [-97.508311, 35.5040015], [-97.5087873, 35.5040058], [-97.508795, 35.5034469], [-97.5085348, 35.5034446], [-97.5085363, 35.5033343]]]}, "properties": {"osm_id": 1252727962, "building": "yes", "name": "", "height": null, "height_m": null, "levels": null, "tract_id": "40109100500", "tract_name": "1005", "tags": {"building": "yes", "source": "microsoft/BuildingFootprints"}}}, {"type": "Feature", "geometry": {"type": "Polygon", "coordinates": [[[-97.5078334, 35.5040139], [-97.5078436, 35.5033174], [-97.5076344, 35.5033154], [-97.5076243, 35.5040118], [-97.5078334, 35.5040139]]]}, "properties": {"osm_id": 1252727963, "building": "yes", "name": "", "height": null, "height_m": null, "levels": null, "tract_id": "40109100500", "tract_name": "1005", "tags": {"building": "yes", "source": "microsoft/BuildingFootprints"}}}, {"type": "Feature", "geometry": {"type": "Polygon", "coordinates": [[[-97.5084449, 35.5041775], [-97.5077084, 35.5041709], [-97.5077015, 35.5046839], [-97.508438, 35.5046906], [-97.5084449, 35.5041775]]]}, "properties": {"osm_id": 1252727964, "building": "yes", "name": "", "height": null, "height_m": null, "levels": null, "tract_id": "40109100500", "tract_name": "1005", "tags": {"building": "yes", "source": "microsoft/BuildingFootprints"}}}, {"type": "Feature", "geometry": {"type": "Polygon", "coordinates": [[[-97.5060592, 35.5042692], [-97.5056676, 35.5042663], [-97.5056683, 35.504203], [-97.5054151, 35.5042012], [-97.5054114, 35.5045439], [-97.5056377, 35.5045456], [-97.5056362, 35.5046801], [-97.5060546, 35.5046831], [-97.5060592, 35.5042692]]]}, "properties": {"osm_id": 1252727965, "building": "yes", "name": "", "height": null, "height_m": null, "levels": null, "tract_id": "40109100500", "tract_name": "1005", "tags": {"building": "yes", "source": "microsoft/BuildingFootprints"}}}, {"type": "Feature", "geometry": {"type": "Polygon", "coordinates": [[[-97.5058206, 35.5039092], [-97.506062, 35.5039116], [-97.5060691, 35.5034281], [-97.5058277, 35.5034258], [-97.5058206, 35.5039092]]]}, "properties": {"osm_id": 1252727966, "building": "yes", "name": "", "height": null, "height_m": null, "levels": null, "tract_id": "40109100500", "tract_name": "1005", "tags": {"building": "yes", "source": "microsoft/BuildingFootprints"}}}, {"type": "Feature", "geometry": {"type": "Polygon", "coordinates": [[[-97.5061205, 35.5039515], [-97.5064289, 35.5039534], [-97.5064306, 35.5037788], [-97.5064601, 35.503779], [-97.5064643, 35.503351], [-97.5061263, 35.5033488], [-97.5061205, 35.5039515]]]}, "properties": {"osm_id": 1252727967, "building": "yes", "name": "", "height": null, "height_m": null, "levels": null, "tract_id": "40109100500", "tract_name": "1005", "tags": {"building": "yes", "source": "microsoft/BuildingFootprints"}}}, {"type": "Feature", "geometry": {"type": "Polygon", "coordinates": [[[-97.5072588, 35.5035629], [-97.5067842, 35.5035577], [-97.5067776, 35.5039573], [-97.5072523, 35.5039624], [-97.5072588, 35.5035629]]]}, "properties": {"osm_id": 1252727968, "building": "yes", "name": "", "height": null, "height_m": null, "levels": null, "tract_id": "40109100500", "tract_name": "1005", "tags": {"building": "yes", "source": "microsoft/BuildingFootprints"}}}, {"type": "Feature", "geometry": {"type": "Polygon", "coordinates": [[[-97.5050018, 35.5039521], [-97.5054159, 35.5039542], [-97.5054208, 35.5033166], [-97.5047932, 35.5033135], [-97.5047918, 35.5034991], [-97.5050052, 35.5035001], [-97.5050018, 35.5039521]]]}, "properties": {"osm_id": 1252727969, "building": "yes", "name": "", "height": null, "height_m": null, "levels": null, "tract_id": "40109100500", "tract_name": "1005", "tags": {"building": "yes", "source": "microsoft/BuildingFootprints"}}}, {"type": "Feature", "geometry": {"type": "Polygon", "coordinates": [[[-97.504102, 35.5033161], [-97.5041006, 35.5039602], [-97.5045485, 35.5039609], [-97.504549, 35.5037294], [-97.5046831, 35.5037296], [-97.5046833, 35.5036729], [-97.5045599, 35.5036727], [-97.5045607, 35.5033168], [-97.504102, 35.5033161]]]}, "properties": {"osm_id": 1252727970, "building": "yes", "name": "", "height": null, "height_m": null, "levels": null, "tract_id": "40109100500", "tract_name": "1005", "tags": {"building": "yes", "source": "microsoft/BuildingFootprints"}}}, {"type": "Feature", "geometry": {"type": "Polygon", "coordinates": [[[-97.5040685, 35.5039613], [-97.5040695, 35.5036753], [-97.5038174, 35.5036747], [-97.5038182, 35.5034301], [-97.5035473, 35.5034295], [-97.5035469, 35.5035452], [-97.5034837, 35.5035451], [-97.5034821, 35.5039694], [-97.5035293, 35.5039695], [-97.5035292, 35.5040001], [-97.5037449, 35.5040006], [-97.503745, 35.5039605], [-97.5040685, 35.5039613]]]}, "properties": {"osm_id": 1252727971, "building": "yes", "name": "", "height": null, "height_m": null, "levels": null, "tract_id": "40109100500", "tract_name": "1005", "tags": {"building": "yes", "source": "microsoft/BuildingFootprints"}}}, {"type": "Feature", "geometry": {"type": "Polygon", "coordinates": [[[-97.5074018, 35.505265], [-97.5084907, 35.5052716], [-97.5084909, 35.5052487], [-97.5084534, 35.5052484], [-97.5084542, 35.50516], [-97.5084971, 35.5051603], [-97.5084973, 35.5051428], [-97.507403, 35.5051362], [-97.5074018, 35.505265]]]}, "properties": {"osm_id": 1252727972, "building": "yes", "name": "", "height": null, "height_m": null, "levels": null, "tract_id": "40109100500", "tract_name": "1005", "tags": {"building": "yes", "source": "microsoft/BuildingFootprints"}}}, {"type": "Feature", "geometry": {"type": "Polygon", "coordinates": [[[-97.5038717, 35.5067453], [-97.5038678, 35.5065052], [-97.5036629, 35.5065075], [-97.5036619, 35.5064442], [-97.5035717, 35.5064451], [-97.503574, 35.5065805], [-97.5035257, 35.506581], [-97.5035275, 35.5066924], [-97.5035678, 35.5066919], [-97.5035693, 35.5067836], [-97.5036379, 35.5067828], [-97.5036374, 35.5067479], [-97.5038717, 35.5067453]]]}, "properties": {"osm_id": 1252727973, "building": "yes", "name": "", "height": null, "height_m": null, "levels": null, "tract_id": "40109100500", "tract_name": "1005", "tags": {"building": "yes", "source": "microsoft/BuildingFootprints"}}}, {"type": "Feature", "geometry": {"type": "Polygon", "coordinates": [[[-97.5109629, 35.5062731], [-97.5116442, 35.5062764], [-97.5116364, 35.5073384], [-97.5117859, 35.5073391], [-97.5117846, 35.5075045], [-97.5109536, 35.5075003], [-97.5109629, 35.5062731]]]}, "properties": {"osm_id": 1364377734, "building": "yes", "name": "", "height": null, "height_m": null, "levels": null, "tract_id": "40109100500", "tract_name": "1005", "tags": {"building": "yes"}}}, {"type": "Feature", "geometry": {"type": "Polygon", "coordinates": [[[-97.5013294, 35.4989995], [-97.5012216, 35.4989993], [-97.5012221, 35.498814], [-97.5013297, 35.4988142], [-97.5013294, 35.4989995]]]}, "properties": {"osm_id": 1378738449, "building": "apartments", "name": "", "height": null, "height_m": null, "levels": null, "tract_id": "40109100500", "tract_name": "1005", "tags": {"building": "apartments"}}}, {"type": "Feature", "geometry": {"type": "Polygon", "coordinates": [[[-97.502026, 35.4988004], [-97.5020258, 35.4989006], [-97.5020032, 35.4989006], [-97.5020029, 35.4990757], [-97.5018603, 35.4990755], [-97.5018607, 35.4988147], [-97.5019598, 35.4988148], [-97.5019599, 35.4988004], [-97.502026, 35.4988004]]]}, "properties": {"osm_id": 1378738450, "building": "yes", "name": "", "height": null, "height_m": null, "levels": null, "tract_id": "40109100500", "tract_name": "1005", "tags": {"building": "yes"}}}, {"type": "Feature", "geometry": {"type": "Polygon", "coordinates": [[[-97.5014567, 35.4985166], [-97.5012364, 35.498516], [-97.5012371, 35.4983364], [-97.5014574, 35.498337], [-97.5014567, 35.4985166]]]}, "properties": {"osm_id": 1378738451, "building": "yes", "name": "", "height": null, "height_m": null, "levels": null, "tract_id": "40109100500", "tract_name": "1005", "tags": {"building": "yes"}}}, {"type": "Feature", "geometry": {"type": "Polygon", "coordinates": [[[-97.503698, 35.5075444], [-97.5035568, 35.5075442], [-97.5035566, 35.5075956], [-97.5036979, 35.5075959], [-97.503698, 35.5075444]]]}, "properties": {"osm_id": 1418699354, "building": "retail", "name": "", "height": null, "height_m": null, "levels": null, "tract_id": "40109100500", "tract_name": "1005", "tags": {"amenity": "fast_food", "building": "retail"}}}, {"type": "Feature", "geometry": {"type": "Polygon", "coordinates": [[[-97.4963613, 35.4967071], [-97.4964845, 35.4967069], [-97.4964841, 35.4965865], [-97.496361, 35.4965868], [-97.4963613, 35.4967071]]]}, "properties": {"osm_id": 1426527833, "building": "yes", "name": "", "height": null, "height_m": null, "levels": null, "tract_id": "40109100500", "tract_name": "1005", "tags": {"building": "yes"}}}, {"type": "Feature", "geometry": {"type": "Polygon", "coordinates": [[[-97.4957975, 35.4959972], [-97.4956631, 35.4959966], [-97.4956623, 35.4961123], [-97.4957957, 35.4961128], [-97.4957958, 35.4961009], [-97.4958622, 35.4961012], [-97.4958628, 35.4960106], [-97.4957974, 35.4960103], [-97.4957975, 35.4959972]]]}, "properties": {"osm_id": 1426527836, "building": "house", "name": "", "height": null, "height_m": null, "levels": null, "tract_id": "40109100500", "tract_name": "1005", "tags": {"building": "house"}}}, {"type": "Feature", "geometry": {"type": "Polygon", "coordinates": [[[-97.4958527, 35.4965351], [-97.4956629, 35.4965338], [-97.4956642, 35.4964077], [-97.4958624, 35.496409], [-97.4958618, 35.4964635], [-97.4958075, 35.4964631], [-97.4958073, 35.496479], [-97.4958533, 35.4964793], [-97.4958527, 35.4965351]]]}, "properties": {"osm_id": 1426527837, "building": "house", "name": "", "height": null, "height_m": null, "levels": null, "tract_id": "40109100500", "tract_name": "1005", "tags": {"building": "house"}}}, {"type": "Feature", "geometry": {"type": "Polygon", "coordinates": [[[-97.4956617, 35.4963944], [-97.4957959, 35.4963947], [-97.4957959, 35.4963787], [-97.4958631, 35.4963789], [-97.4958634, 35.4962869], [-97.4957967, 35.4962867], [-97.4957967, 35.4962697], [-97.4956622, 35.4962694], [-97.4956617, 35.4963944]]]}, "properties": {"osm_id": 1426527838, "building": "house", "name": "", "height": null, "height_m": null, "levels": null, "tract_id": "40109100500", "tract_name": "1005", "tags": {"building": "house"}}}, {"type": "Feature", "geometry": {"type": "Polygon", "coordinates": [[[-97.4950112, 35.5012705], [-97.4951916, 35.5012707], [-97.4951919, 35.5010152], [-97.4950137, 35.501015], [-97.4950136, 35.5010435], [-97.4949368, 35.5010434], [-97.4949368, 35.5009978], [-97.4945948, 35.5009975], [-97.4945842, 35.5010579], [-97.4945947, 35.5011175], [-97.4947722, 35.5011177], [-97.494772, 35.5012952], [-97.4949379, 35.5012954], [-97.4949382, 35.5010741], [-97.4950115, 35.5010741], [-97.4950112, 35.5012705]]]}, "properties": {"osm_id": 1427749713, "building": "church", "name": "", "height": null, "height_m": null, "levels": null, "tract_id": "40109100500", "tract_name": "1005", "tags": {"building": "church"}}}, {"type": "Feature", "geometry": {"type": "Polygon", "coordinates": [[[-97.4950453, 35.4985668], [-97.4949146, 35.4985667], [-97.4949149, 35.4983875], [-97.4946195, 35.4983871], [-97.4946196, 35.4983403], [-97.4946003, 35.4983403], [-97.4946006, 35.4981658], [-97.4946966, 35.498166], [-97.4946967, 35.4980773], [-97.4946585, 35.4980773], [-97.4946588, 35.4979209], [-97.4949126, 35.4979212], [-97.4949122, 35.4981318], [-97.4949454, 35.4981318], [-97.4949454, 35.4981475], [-97.4950385, 35.4981477], [-97.4950381, 35.4983732], [-97.4950457, 35.4983732], [-97.4950453, 35.4985668]]]}, "properties": {"osm_id": 1427749718, "building": "yes", "name": "", "height": null, "height_m": null, "levels": null, "tract_id": "40109100500", "tract_name": "1005", "tags": {"building": "yes", "shop": "funeral_directors"}}}, {"type": "Feature", "geometry": {"type": "Polygon", "coordinates": [[[-97.4948432, 35.4971062], [-97.4949762, 35.4971063], [-97.4949763, 35.4969837], [-97.4948334, 35.4969836], [-97.4948334, 35.4969531], [-97.494786, 35.4969531], [-97.494786, 35.4969838], [-97.4946327, 35.4969836], [-97.4946326, 35.4971061], [-97.4947748, 35.4971062], [-97.4947747, 35.4972109], [-97.4948431, 35.497211], [-97.4948432, 35.4971062]]]}, "properties": {"osm_id": 1427749719, "building": "church", "name": "", "height": null, "height_m": null, "levels": null, "tract_id": "40109100500", "tract_name": "1005", "tags": {"building": "church"}}}, {"type": "Feature", "geometry": {"type": "Polygon", "coordinates": [[[-97.4952053, 35.4974516], [-97.4952165, 35.4974516], [-97.4952166, 35.49733], [-97.494633, 35.4973297], [-97.4946251, 35.4973903], [-97.4946329, 35.4974508], [-97.4947703, 35.4974509], [-97.4947702, 35.497475], [-97.4948065, 35.497475], [-97.4948064, 35.4976075], [-97.4948913, 35.4976137], [-97.4949752, 35.4976076], [-97.4949753, 35.4974843], [-97.4950068, 35.4974843], [-97.4950068, 35.4974514], [-97.4951775, 35.4974515], [-97.4951775, 35.4974681], [-97.4952053, 35.4974681], [-97.4952053, 35.4974516]]]}, "properties": {"osm_id": 1427749720, "building": "church", "name": "", "height": null, "height_m": null, "levels": null, "tract_id": "40109100500", "tract_name": "1005", "tags": {"building": "church"}}}, {"type": "Feature", "geometry": {"type": "Polygon", "coordinates": [[[-97.495707, 35.4946643], [-97.4955197, 35.4946638], [-97.4955199, 35.4946173], [-97.495707, 35.4946179], [-97.4957067, 35.4944106], [-97.4959025, 35.4944104], [-97.4959031, 35.4948712], [-97.4957073, 35.4948714], [-97.495707, 35.4946643]]]}, "properties": {"osm_id": 1427749724, "building": "yes", "name": "", "height": null, "height_m": null, "levels": null, "tract_id": "40109100500", "tract_name": "1005", "tags": {"building": "yes"}}}, {"type": "Feature", "geometry": {"type": "Polygon", "coordinates": [[[-97.4955197, 35.4946638], [-97.4955203, 35.4948717], [-97.4950549, 35.4948726], [-97.4950535, 35.4944119], [-97.4955189, 35.494411], [-97.4955197, 35.4946638]]]}, "properties": {"osm_id": 1427749725, "building": "yes", "name": "", "height": null, "height_m": null, "levels": null, "tract_id": "40109100500", "tract_name": "1005", "tags": {"building": "yes"}}}]}