{"type": "FeatureCollection", "features": [{"type": "Feature", "geometry": {"type": "Polygon", "coordinates": [[[-95.7991731, 36.0323736], [-95.7991314, 36.0323736], [-95.7991314, 36.032309], [-95.7991731, 36.032309], [-95.7991731, 36.0323736]]]}, "properties": {"osm_id": 230912710, "building": "yes", "name": "Murphy USA", "height": null, "height_m": null, "levels": null, "tract_id": "40143007510", "tract_name": "75.10", "tags": {"addr:city": "Broken Arrow", "addr:housenumber": "800", "addr:postcode": "74012", "addr:state": "OK", "addr:street": "West Washington Street", "brand": "Murphy USA", "brand:wikidata": "Q19604459", "building": "yes", "layer": "-1", "name": "Murphy USA", "shop": "convenience"}}}, {"type": "Feature", "geometry": {"type": "Polygon", "coordinates": [[[-95.7993244, 36.0323247], [-95.7992455, 36.0323247], [-95.7991866, 36.0323247], [-95.7991023, 36.0323247], [-95.7990313, 36.0323247], [-95.7989476, 36.0323247], [-95.7989476, 36.0322626], [-95.7990293, 36.0322626], [-95.7991016, 36.0322626], [-95.7991866, 36.0322626], [-95.7992459, 36.0322626], [-95.7993244, 36.0322626], [-95.7993244, 36.0323247]]]}, "properties": {"osm_id": 230912711, "building": "roof", "name": "Murphy USA", "height": null, "height_m": null, "levels": null, "tract_id": "40143007510", "tract_name": "75.10", "tags": {"addr:city": "Broken Arrow", "addr:housenumber": "800", "addr:postcode": "74012", "addr:state": "OK", "addr:street": "West Washington Street", "amenity": "fuel", "brand": "Murphy USA", "brand:wikidata": "Q19604459", "building": "roof", "check_date": "2023-07-16", "fuel:e10": "yes", "name": "Murphy USA"}}}, {"type": "Feature", "geometry": {"type": "Polygon", "coordinates": [[[-95.7994289, 36.0334004], [-95.7994289, 36.0336794], [-95.7988773, 36.0336794], [-95.7988773, 36.0335646], [-95.7988338, 36.0335646], [-95.7988338, 36.0331039], [-95.7988773, 36.0331039], [-95.7988773, 36.0330062], [-95.7994289, 36.0330062], [-95.7994289, 36.0332882], [-95.799549, 36.0332882], [-95.799549, 36.0334004], [-95.7994289, 36.0334004]]]}, "properties": {"osm_id": 231172364, "building": "yes", "name": "Walmart Neighborhood Market", "height": null, "height_m": null, "levels": null, "tract_id": "40143007510", "tract_name": "75.10", "tags": {"addr:city": "Broken Arrow", "addr:country": "US", "addr:housenumber": "1770", "addr:postcode": "74012", "addr:state": "OK", "addr:street": "South Elm Place", "brand": "Walmart", "brand:wikidata": "Q483551", "building": "yes", "check_date": "2023-07-16", "name": "Walmart Neighborhood Market", "opening_hours": "Mo-Su 06:00-24:00", "operator": "Walmart", "payment:app:walmart": "yes", "payment:apple_pay": "no", "payment:google_pay": "no", "payment:samsung_pay": "no", "phone": "+1 918-258-6175", "ref": "3508", "ref:walmart": "3508", "sensory_friendly:accommodation": "dimmed_light;static_screens;no_pa", "sensory_friendly:conditional": "yes @ 08:00-10:00", "shop": "supermarket", "website": "https://www.walmart.com/store/3508-broken-arrow-ok", "wheelchair": "yes"}}}, {"type": "Feature", "geometry": {"type": "Polygon", "coordinates": [[[-95.8065872, 36.0448373], [-95.8065894, 36.0446807], [-95.806736, 36.0446821], [-95.8067356, 36.0447101], [-95.8067349, 36.0447546], [-95.8067183, 36.0447544], [-95.806717, 36.0448385], [-95.8065872, 36.0448373]]]}, "properties": {"osm_id": 249605413, "building": "house", "name": "", "height": null, "height_m": null, "levels": null, "tract_id": "40143007510", "tract_name": "75.10", "tags": {"addr:city": "Broken Arrow", "addr:housenumber": "905", "addr:postcode": "74012", "addr:state": "OK", "addr:street": "South Narcissus Avenue", "building": "house"}}}, {"type": "Feature", "geometry": {"type": "Polygon", "coordinates": [[[-95.8012871, 36.0460569], [-95.8010711, 36.0460547], [-95.8010711, 36.0457805], [-95.8012871, 36.0457761], [-95.8012871, 36.0460569]]]}, "properties": {"osm_id": 492011072, "building": "apartments", "name": "", "height": null, "height_m": null, "levels": null, "tract_id": "40143007510", "tract_name": "75.10", "tags": {"building": "apartments"}}}, {"type": "Feature", "geometry": {"type": "Polygon", "coordinates": [[[-95.8015934, 36.0456213], [-95.8010957, 36.0456832], [-95.8010684, 36.0455439], [-95.8015688, 36.0454842], [-95.8015934, 36.0456213]]]}, "properties": {"osm_id": 492011073, "building": "apartments", "name": "", "height": null, "height_m": null, "levels": null, "tract_id": "40143007510", "tract_name": "75.10", "tags": {"building": "apartments"}}}, {"type": "Feature", "geometry": {"type": "Polygon", "coordinates": [[[-95.8006855, 36.0456898], [-95.8002124, 36.0455483], [-95.8002589, 36.0454201], [-95.8007402, 36.0455682], [-95.8006855, 36.0456898]]]}, "properties": {"osm_id": 492011074, "building": "apartments", "name": "", "height": null, "height_m": null, "levels": null, "tract_id": "40143007510", "tract_name": "75.10", "tags": {"building": "apartments"}}}, {"type": "Feature", "geometry": {"type": "Polygon", "coordinates": [[[-95.8001358, 36.0455903], [-95.7999307, 36.0455925], [-95.7999198, 36.0453161], [-95.8001331, 36.0453073], [-95.8001358, 36.0455903]]]}, "properties": {"osm_id": 492011075, "building": "apartments", "name": "", "height": null, "height_m": null, "levels": null, "tract_id": "40143007510", "tract_name": "75.10", "tags": {"building": "apartments"}}}, {"type": "Feature", "geometry": {"type": "Polygon", "coordinates": [[[-95.8012297, 36.045283], [-95.8008933, 36.0453294], [-95.8008523, 36.0451658], [-95.8011887, 36.0451171], [-95.8012297, 36.045283]]]}, "properties": {"osm_id": 492011076, "building": "apartments", "name": "", "height": null, "height_m": null, "levels": null, "tract_id": "40143007510", "tract_name": "75.10", "tags": {"building": "apartments"}}}, {"type": "Feature", "geometry": {"type": "Polygon", "coordinates": [[[-95.8006445, 36.0452763], [-95.8003245, 36.0449535], [-95.800453, 36.0448717], [-95.8007675, 36.0451923], [-95.8006445, 36.0452763]]]}, "properties": {"osm_id": 492011077, "building": "apartments", "name": "Hickory Grove Apartments", "height": null, "height_m": null, "levels": null, "tract_id": "40143007510", "tract_name": "75.10", "tags": {"building": "apartments", "name": "Hickory Grove Apartments"}}}, {"type": "Feature", "geometry": {"type": "Polygon", "coordinates": [[[-95.8000797, 36.0450573], [-95.7997413, 36.045055], [-95.7997357, 36.0448826], [-95.8000797, 36.0448826], [-95.8000797, 36.0450573]]]}, "properties": {"osm_id": 492011078, "building": "apartments", "name": "", "height": null, "height_m": null, "levels": null, "tract_id": "40143007510", "tract_name": "75.10", "tags": {"building": "apartments"}}}, {"type": "Feature", "geometry": {"type": "Polygon", "coordinates": [[[-95.8000683, 36.0447377], [-95.799875, 36.0448159], [-95.7997186, 36.0445653], [-95.7999119, 36.0444895], [-95.8000683, 36.0447377]]]}, "properties": {"osm_id": 492011079, "building": "apartments", "name": "", "height": null, "height_m": null, "levels": null, "tract_id": "40143007510", "tract_name": "75.10", "tags": {"building": "apartments"}}}, {"type": "Feature", "geometry": {"type": "Polygon", "coordinates": [[[-95.8005857, 36.0447975], [-95.8004293, 36.0448205], [-95.8003412, 36.0444205], [-95.8005004, 36.0443975], [-95.8005857, 36.0447975]]]}, "properties": {"osm_id": 492011080, "building": "apartments", "name": "", "height": null, "height_m": null, "levels": null, "tract_id": "40143007510", "tract_name": "75.10", "tags": {"building": "apartments"}}}, {"type": "Feature", "geometry": {"type": "Polygon", "coordinates": [[[-95.8005118, 36.0443331], [-95.8000342, 36.0441998], [-95.8000825, 36.0440734], [-95.8005573, 36.0442044], [-95.8005118, 36.0443331]]]}, "properties": {"osm_id": 492011081, "building": "apartments", "name": "", "height": null, "height_m": null, "levels": null, "tract_id": "40143007510", "tract_name": "75.10", "tags": {"building": "apartments"}}}, {"type": "Feature", "geometry": {"type": "Polygon", "coordinates": [[[-95.814081, 36.0334052], [-95.814076, 36.0327512], [-95.8140361, 36.0327514], [-95.814032, 36.0322186], [-95.8134482, 36.0322215], [-95.8134498, 36.0324287], [-95.8137883, 36.032427], [-95.8137908, 36.0327552], [-95.8134195, 36.032757], [-95.8134219, 36.0330687], [-95.8134994, 36.0330683], [-95.8135008, 36.0332486], [-95.8138203, 36.033247], [-95.8138215, 36.0334065], [-95.814081, 36.0334052]]]}, "properties": {"osm_id": 627986633, "building": "retail", "name": "", "height": null, "height_m": null, "levels": null, "tract_id": "40143007510", "tract_name": "75.10", "tags": {"building": "retail"}}}, {"type": "Feature", "geometry": {"type": "Polygon", "coordinates": [[[-95.8148409, 36.0328339], [-95.8148416, 36.0324399], [-95.8145072, 36.0324394], [-95.8145066, 36.032758], [-95.8144573, 36.0328031], [-95.8145019, 36.032835], [-95.8145459, 36.0327948], [-95.8146, 36.0328336], [-95.8148409, 36.0328339]]]}, "properties": {"osm_id": 627986634, "building": "yes", "name": "CVS Pharmacy", "height": null, "height_m": null, "levels": null, "tract_id": "40143007510", "tract_name": "75.10", "tags": {"amenity": "pharmacy", "brand": "CVS Pharmacy", "brand:website": "https://www.cvs.com/", "brand:wikidata": "Q2078880", "building": "yes", "healthcare": "pharmacy", "name": "CVS Pharmacy", "shop": "chemist", "short_name": "CVS", "website": "https://www.cvs.com/store-locator/broken-arrow-ok-pharmacies/1853-s-aspen-ave-broken-arrow-ok-74012/storeid=4896", "wheelchair": "yes"}}}, {"type": "Feature", "geometry": {"type": "Polygon", "coordinates": [[[-95.8150008, 36.0419957], [-95.8148258, 36.0419971], [-95.8148248, 36.0419145], [-95.8148729, 36.0419141], [-95.8148722, 36.0418558], [-95.815, 36.0418548], [-95.8150009, 36.0419189], [-95.8150375, 36.0419186], [-95.8150382, 36.0419704], [-95.8150005, 36.0419707], [-95.8150008, 36.0419957]]]}, "properties": {"osm_id": 840253482, "building": "yes", "name": "", "height": null, "height_m": null, "levels": null, "tract_id": "40143007510", "tract_name": "75.10", "tags": {"building": "yes"}}}, {"type": "Feature", "geometry": {"type": "Polygon", "coordinates": [[[-95.8149921, 36.041806], [-95.8148269, 36.0418054], [-95.8148273, 36.0417414], [-95.8148575, 36.0417415], [-95.814858, 36.0416579], [-95.814992, 36.0416584], [-95.8149915, 36.0417303], [-95.815029, 36.0417304], [-95.8150287, 36.0417791], [-95.8149923, 36.0417789], [-95.8149921, 36.041806]]]}, "properties": {"osm_id": 840253483, "building": "yes", "name": "", "height": null, "height_m": null, "levels": null, "tract_id": "40143007510", "tract_name": "75.10", "tags": {"building": "yes"}}}, {"type": "Feature", "geometry": {"type": "Polygon", "coordinates": [[[-95.8149976, 36.0416119], [-95.8148262, 36.0416122], [-95.814826, 36.0415337], [-95.8148713, 36.0415336], [-95.8148712, 36.0414683], [-95.8149957, 36.0414681], [-95.8149958, 36.0415395], [-95.8150574, 36.0415394], [-95.8150575, 36.0415878], [-95.8149975, 36.0415879], [-95.8149976, 36.0416119]]]}, "properties": {"osm_id": 840253484, "building": "yes", "name": "", "height": null, "height_m": null, "levels": null, "tract_id": "40143007510", "tract_name": "75.10", "tags": {"building": "yes"}}}, {"type": "Feature", "geometry": {"type": "Polygon", "coordinates": [[[-95.8150139, 36.0414267], [-95.8148238, 36.0414273], [-95.8148235, 36.0413614], [-95.8148881, 36.0413612], [-95.8148878, 36.0412752], [-95.8150117, 36.0412748], [-95.815012, 36.0413461], [-95.8150521, 36.041346], [-95.8150523, 36.0413944], [-95.8150138, 36.0413945], [-95.8150139, 36.0414267]]]}, "properties": {"osm_id": 840253485, "building": "yes", "name": "", "height": null, "height_m": null, "levels": null, "tract_id": "40143007510", "tract_name": "75.10", "tags": {"building": "yes"}}}, {"type": "Feature", "geometry": {"type": "Polygon", "coordinates": [[[-95.8149493, 36.0451138], [-95.8149493, 36.0452108], [-95.8147126, 36.0452108], [-95.8147126, 36.0449997], [-95.8149675, 36.0449997], [-95.8149675, 36.0451138], [-95.8149493, 36.0451138]]]}, "properties": {"osm_id": 1086204289, "building": "commercial", "name": "Penrose Pawn Shop", "height": null, "height_m": null, "levels": null, "tract_id": "40143007510", "tract_name": "75.10", "tags": {"building": "commercial", "name": "Penrose Pawn Shop", "shop": "pawnbroker"}}}, {"type": "Feature", "geometry": {"type": "Polygon", "coordinates": [[[-95.8151224, 36.0442943], [-95.8149366, 36.0442943], [-95.8149366, 36.0441604], [-95.8151214, 36.0441604], [-95.8151224, 36.0442943]]]}, "properties": {"osm_id": 1086204291, "building": "roof", "name": "", "height": null, "height_m": null, "levels": null, "tract_id": "40143007510", "tract_name": "75.10", "tags": {"building": "roof"}}}, {"type": "Feature", "geometry": {"type": "Polygon", "coordinates": [[[-95.8148018, 36.0441072], [-95.8148012, 36.0440565], [-95.8149025, 36.0440556], [-95.8149051, 36.0442634], [-95.8147039, 36.044265], [-95.814702, 36.044108], [-95.8148018, 36.0441072]]]}, "properties": {"osm_id": 1086204292, "building": "commercial", "name": "Enterprise", "height": null, "height_m": null, "levels": null, "tract_id": "40143007510", "tract_name": "75.10", "tags": {"amenity": "car_rental", "building": "commercial", "name": "Enterprise"}}}, {"type": "Feature", "geometry": {"type": "Polygon", "coordinates": [[[-95.813501, 36.0443144], [-95.8135016, 36.0448289], [-95.8133762, 36.04483], [-95.8133763, 36.044837], [-95.813275, 36.0448375], [-95.813275, 36.0448305], [-95.8132542, 36.04483], [-95.8132455, 36.044072], [-95.814655, 36.0440682], [-95.8146536, 36.0440845], [-95.8146637, 36.0440844], [-95.8146643, 36.0441695], [-95.8146543, 36.0441696], [-95.8146577, 36.044271], [-95.8135493, 36.0442764], [-95.813549, 36.0442839], [-95.813546, 36.0442929], [-95.8135402, 36.0443009], [-95.813532, 36.0443075], [-95.8135219, 36.0443121], [-95.8135108, 36.0443144], [-95.813501, 36.0443144]]]}, "properties": {"osm_id": 1086204293, "building": "yes", "name": "", "height": null, "height_m": null, "levels": null, "tract_id": "40143007510", "tract_name": "75.10", "tags": {"building": "yes"}}}, {"type": "Feature", "geometry": {"type": "Polygon", "coordinates": [[[-95.8063305, 36.0330527], [-95.8061304, 36.0330532], [-95.8061305, 36.0330847], [-95.805841, 36.0330855], [-95.8058409, 36.0330541], [-95.8057344, 36.0330544], [-95.8057333, 36.032803], [-95.805909, 36.0328025], [-95.8059087, 36.0327405], [-95.8059239, 36.0327404], [-95.8059232, 36.0325845], [-95.8060743, 36.0325841], [-95.8060751, 36.0327518], [-95.806144, 36.0327516], [-95.8061442, 36.0328018], [-95.8063294, 36.0328013], [-95.8063305, 36.0330527]]]}, "properties": {"osm_id": 1243635226, "building": "commercial", "name": "The Salvation Army of Broken Arrow", "height": null, "height_m": null, "levels": null, "tract_id": "40143007510", "tract_name": "75.10", "tags": {"addr:housenumber": "1400", "addr:postcode": "74012", "addr:street": "West Washington Street", "building": "commercial", "name": "The Salvation Army of Broken Arrow", "phone": "+1 918 258 7545", "shop": "second_hand"}}}, {"type": "Feature", "geometry": {"type": "Polygon", "coordinates": [[[-95.7983512, 36.0325898], [-95.7980333, 36.0325855], [-95.7980381, 36.0323556], [-95.7982666, 36.0323587], [-95.798264, 36.0324847], [-95.7983533, 36.0324859], [-95.7983512, 36.0325898]]]}, "properties": {"osm_id": 1294626491, "building": "yes", "name": "Bank of America", "height": null, "height_m": null, "levels": null, "tract_id": "40143007510", "tract_name": "75.10", "tags": {"amenity": "bank", "brand": "Bank of America", "brand:wikidata": "Q487907", "building": "yes", "name": "Bank of America", "website": "https://locators.bankofamerica.com/ok/brokenarrow/financial-centers-broken-arrow-1457.html", "wheelchair": "yes"}}}, {"type": "Feature", "geometry": {"type": "Polygon", "coordinates": [[[-95.7988573, 36.0342772], [-95.798858, 36.0344168], [-95.7995741, 36.0344144], [-95.7995734, 36.0342748], [-95.7995289, 36.0342749], [-95.7988573, 36.0342772]]]}, "properties": {"osm_id": 1294626492, "building": "retail", "name": "Southern Agriculture", "height": null, "height_m": null, "levels": null, "tract_id": "40143007510", "tract_name": "75.10", "tags": {"building": "retail", "name": "Southern Agriculture", "shop": "pet"}}}, {"type": "Feature", "geometry": {"type": "Polygon", "coordinates": [[[-95.7995289, 36.0342749], [-95.7988573, 36.0342772], [-95.798854, 36.0338209], [-95.7995257, 36.0338178], [-95.7995269, 36.0339899], [-95.7996051, 36.0339954], [-95.7996091, 36.0341082], [-95.7995278, 36.034119], [-95.7995289, 36.0342749]]]}, "properties": {"osm_id": 1294626493, "building": "retail", "name": "Big Lots", "height": null, "height_m": null, "levels": null, "tract_id": "40143007510", "tract_name": "75.10", "tags": {"addr:city": "Broken Arrow", "addr:housenumber": "1750", "addr:postcode": "74012", "addr:state": "OK", "addr:street": "South Elm Place", "brand": "Big Lots", "brand:wikidata": "Q4905973", "building": "retail", "name": "Big Lots", "opening_hours": "Mo-We 10:00-21:00; Th-Sa 09:00-21:00; Su 10:00-21:00", "phone": "+1 918-259-8797", "shop": "department_store", "website": "https://local.biglots.com/ok/broken-arrow/1750-s-elm-pl"}}}, {"type": "Feature", "geometry": {"type": "Polygon", "coordinates": [[[-95.7983699, 36.035415], [-95.7980092, 36.035415], [-95.7980092, 36.0351872], [-95.7983699, 36.0351872], [-95.7983699, 36.035415]]]}, "properties": {"osm_id": 1294626494, "building": "yes", "name": "NAPA Auto Parts", "height": null, "height_m": null, "levels": null, "tract_id": "40143007510", "tract_name": "75.10", "tags": {"brand": "NAPA Auto Parts", "brand:wikidata": "Q6970842", "building": "yes", "name": "NAPA Auto Parts", "shop": "car_parts"}}}, {"type": "Feature", "geometry": {"type": "Polygon", "coordinates": [[[-95.7981473, 36.036866], [-95.7980219, 36.036866], [-95.7980219, 36.0368037], [-95.7980045, 36.0368037], [-95.7980045, 36.0367521], [-95.7979924, 36.0367521], [-95.7979924, 36.0367337], [-95.7979576, 36.0367337], [-95.7979576, 36.0366708], [-95.7979924, 36.0366708], [-95.7979924, 36.0366502], [-95.7980045, 36.0366502], [-95.7980045, 36.0365965], [-95.7981654, 36.0365965], [-95.7981654, 36.0368042], [-95.7981473, 36.0368042], [-95.7981473, 36.036866]]]}, "properties": {"osm_id": 1294626495, "building": "yes", "name": "WeStreet Credit Union", "height": null, "height_m": null, "levels": null, "tract_id": "40143007510", "tract_name": "75.10", "tags": {"amenity": "bank", "building": "yes", "name": "WeStreet Credit Union"}}}, {"type": "Feature", "geometry": {"type": "Polygon", "coordinates": [[[-95.7982077, 36.0423326], [-95.7982031, 36.0425041], [-95.7979308, 36.0424994], [-95.7978916, 36.0424639], [-95.7978952, 36.0423272], [-95.7982077, 36.0423326]]]}, "properties": {"osm_id": 1294626498, "building": "yes", "name": "Legacy", "height": null, "height_m": null, "levels": null, "tract_id": "40143007510", "tract_name": "75.10", "tags": {"addr:city": "Broken Arrow", "addr:country": "US", "addr:housenumber": "1020", "addr:state": "OK", "addr:street": "South Elm Place", "amenity": "childcare", "building": "yes", "name": "Legacy"}}}, {"type": "Feature", "geometry": {"type": "Polygon", "coordinates": [[[-95.7980853, 36.0432628], [-95.7978751, 36.0432628], [-95.7978751, 36.0431589], [-95.7979488, 36.0431589], [-95.7979488, 36.0431405], [-95.7980028, 36.0431405], [-95.7980028, 36.0431589], [-95.7980853, 36.0431589], [-95.7980853, 36.0432628]]]}, "properties": {"osm_id": 1294626499, "building": "retail", "name": "Los Victer's", "height": null, "height_m": null, "levels": null, "tract_id": "40143007510", "tract_name": "75.10", "tags": {"amenity": "fast_food", "building": "retail", "cuisine": "mexican", "name": "Los Victer's"}}}, {"type": "Feature", "geometry": {"type": "Polygon", "coordinates": [[[-95.7983042, 36.0439462], [-95.797981, 36.0439462], [-95.797981, 36.0437814], [-95.7983042, 36.0437814], [-95.7983042, 36.0439462]]]}, "properties": {"osm_id": 1294626500, "building": "yes", "name": "Life Chiropractic Clinic", "height": null, "height_m": null, "levels": null, "tract_id": "40143007510", "tract_name": "75.10", "tags": {"building": "yes", "healthcare": "alternative", "healthcare:speciality": "chiropractic", "name": "Life Chiropractic Clinic"}}}, {"type": "Feature", "geometry": {"type": "Polygon", "coordinates": [[[-95.7985798, 36.0461323], [-95.7981232, 36.0461317], [-95.7981237, 36.0458536], [-95.7985803, 36.0458541], [-95.7985798, 36.0461323]]]}, "properties": {"osm_id": 1294626502, "building": "yes", "name": "Walgreens", "height": null, "height_m": null, "levels": null, "tract_id": "40143007510", "tract_name": "75.10", "tags": {"amenity": "pharmacy", "brand": "Walgreens", "brand:wikidata": "Q1591889", "building": "yes", "healthcare": "pharmacy", "name": "Walgreens"}}}, {"type": "Feature", "geometry": {"type": "Polygon", "coordinates": [[[-95.800782, 36.0460914], [-95.8004793, 36.0460903], [-95.800483, 36.0457961], [-95.8007781, 36.0457977], [-95.800782, 36.0460914]]]}, "properties": {"osm_id": 1307341582, "building": "yes", "name": "", "height": null, "height_m": null, "levels": null, "tract_id": "40143007510", "tract_name": "75.10", "tags": {"building": "yes"}}}, {"type": "Feature", "geometry": {"type": "Polygon", "coordinates": [[[-95.8001935, 36.0432229], [-95.799847, 36.0432213], [-95.7998496, 36.0431602], [-95.7998242, 36.0431774], [-95.799786, 36.0431473], [-95.7998079, 36.0431296], [-95.799731, 36.0431284], [-95.7997323, 36.0429228], [-95.7996877, 36.0429229], [-95.7996865, 36.0427507], [-95.8000197, 36.0427513], [-95.800021, 36.0429242], [-95.7999747, 36.0429238], [-95.7999747, 36.0430088], [-95.7999867, 36.043016], [-95.8001943, 36.0430153], [-95.8001935, 36.0432229]]]}, "properties": {"osm_id": 1307341583, "building": "yes", "name": "", "height": null, "height_m": null, "levels": null, "tract_id": "40143007510", "tract_name": "75.10", "tags": {"building": "yes"}}}, {"type": "Feature", "geometry": {"type": "Polygon", "coordinates": [[[-95.7992823, 36.044274], [-95.7990621, 36.0441013], [-95.7986322, 36.0444478], [-95.7988487, 36.0446233], [-95.7988923, 36.044593], [-95.7990339, 36.0447086], [-95.7990346, 36.0451689], [-95.7983395, 36.0451694], [-95.7982169, 36.0452696], [-95.7982176, 36.0455933], [-95.7983442, 36.0456902], [-95.7992041, 36.0456913], [-95.7992035, 36.0454689], [-95.7986148, 36.0454686], [-95.7986142, 36.0456058], [-95.7985239, 36.0456049], [-95.7985228, 36.0452562], [-95.7986186, 36.0452549], [-95.798617, 36.0453885], [-95.799204, 36.0453911], [-95.7992024, 36.0451658], [-95.7993274, 36.0451654], [-95.7993263, 36.0446096], [-95.7990939, 36.0444226], [-95.7992823, 36.044274]]]}, "properties": {"osm_id": 1307341584, "building": "yes", "name": "", "height": null, "height_m": null, "levels": null, "tract_id": "40143007510", "tract_name": "75.10", "tags": {"building": "yes"}}}]}