{"type": "FeatureCollection", "features": [{"type": "Feature", "geometry": {"type": "Polygon", "coordinates": [[[-95.8874264, 36.0564151], [-95.887194, 36.0564147], [-95.8871931, 36.0568351], [-95.886988, 36.0568348], [-95.8869902, 36.0557891], [-95.887195, 36.0557894], [-95.887194, 36.0562559], [-95.8874267, 36.0562562], [-95.8874264, 36.0564151]]]}, "properties": {"osm_id": 97578690, "building": "yes", "name": "", "height": null, "height_m": null, "levels": null, "tract_id": "40143007619", "tract_name": "76.19", "tags": {"building": "yes"}}}, {"type": "Feature", "geometry": {"type": "Polygon", "coordinates": [[[-95.8874115, 36.0570332], [-95.8869209, 36.0570325], [-95.8869212, 36.0568737], [-95.8874118, 36.0568743], [-95.8874115, 36.0570332]]]}, "properties": {"osm_id": 97578715, "building": "yes", "name": "", "height": null, "height_m": null, "levels": null, "tract_id": "40143007619", "tract_name": "76.19", "tags": {"building": "yes"}}}, {"type": "Feature", "geometry": {"type": "Polygon", "coordinates": [[[-95.8903212, 36.0551909], [-95.8901322, 36.0551909], [-95.8901322, 36.0552167], [-95.8895615, 36.0552135], [-95.8895591, 36.0549893], [-95.8897037, 36.0549882], [-95.8897008, 36.05489], [-95.8896996, 36.0548518], [-95.8899196, 36.0548507], [-95.8899223, 36.0549072], [-95.8899959, 36.0548433], [-95.8900727, 36.0549076], [-95.8900727, 36.0548475], [-95.890317, 36.0548475], [-95.8903212, 36.0551909]]]}, "properties": {"osm_id": 97578732, "building": "yes", "name": "Christian Chapel", "height": null, "height_m": null, "levels": null, "tract_id": "40143007619", "tract_name": "76.19", "tags": {"amenity": "place_of_worship", "building": "yes", "ele": "222", "gnis:feature_id": "1810300", "name": "Christian Chapel", "religion": "christian"}}}, {"type": "Feature", "geometry": {"type": "Polygon", "coordinates": [[[-95.8873988, 36.0557484], [-95.8869082, 36.0557478], [-95.8869085, 36.055589], [-95.8873991, 36.0555896], [-95.8873988, 36.0557484]]]}, "properties": {"osm_id": 97578742, "building": "yes", "name": "", "height": null, "height_m": null, "levels": null, "tract_id": "40143007619", "tract_name": "76.19", "tags": {"building": "yes"}}}, {"type": "Feature", "geometry": {"type": "Polygon", "coordinates": [[[-95.895149, 36.0606015], [-95.8949169, 36.0606016], [-95.8948069, 36.0606016], [-95.8948067, 36.0604192], [-95.8949167, 36.0604191], [-95.8951489, 36.060419], [-95.895149, 36.0606015]]]}, "properties": {"osm_id": 108708243, "building": "yes", "name": "", "height": null, "height_m": null, "levels": null, "tract_id": "40143007619", "tract_name": "76.19", "tags": {"addr:city": "Tulsa", "addr:country": "US", "addr:housenumber": "7310", "addr:postcode": "74133", "addr:state": "OK", "addr:street": "East 71st Street South", "amenity": "fire_station", "building": "yes"}}}, {"type": "Feature", "geometry": {"type": "Polygon", "coordinates": [[[-95.890187, 36.0580667], [-95.8901195, 36.0580979], [-95.8900596, 36.058013], [-95.8901271, 36.0579819], [-95.890187, 36.0580667]]]}, "properties": {"osm_id": 114757044, "building": "yes", "name": "", "height": null, "height_m": null, "levels": null, "tract_id": "40143007619", "tract_name": "76.19", "tags": {"amenity": "toilets", "building": "yes"}}}, {"type": "Feature", "geometry": {"type": "Polygon", "coordinates": [[[-95.9027267, 36.0474107], [-95.9025027, 36.0474134], [-95.9025, 36.0472025], [-95.9025248, 36.047183], [-95.9025013, 36.0471624], [-95.9025027, 36.0469591], [-95.9025208, 36.0469455], [-95.9025188, 36.04672], [-95.9025865, 36.0467216], [-95.9026106, 36.0466977], [-95.9027233, 36.0466967], [-95.9027267, 36.0474107]]]}, "properties": {"osm_id": 181211947, "building": "yes", "name": "", "height": null, "height_m": null, "levels": null, "tract_id": "40143007619", "tract_name": "76.19", "tags": {"building": "yes"}}}, {"type": "Feature", "geometry": {"type": "Polygon", "coordinates": [[[-95.9038266, 36.0471226], [-95.9037996, 36.0470991], [-95.9037975, 36.0469951], [-95.9033906, 36.0470001], [-95.9033927, 36.0471008], [-95.9033657, 36.047121], [-95.9033678, 36.0472183], [-95.9034675, 36.0472183], [-95.9035297, 36.0471696], [-95.903673, 36.0471713], [-95.9037248, 36.0472217], [-95.9038266, 36.0472217], [-95.9038266, 36.0471226]]]}, "properties": {"osm_id": 181211949, "building": "yes", "name": "", "height": null, "height_m": null, "levels": null, "tract_id": "40143007619", "tract_name": "76.19", "tags": {"building": "yes"}}}, {"type": "Feature", "geometry": {"type": "Polygon", "coordinates": [[[-95.902038, 36.0474139], [-95.9017999, 36.047415], [-95.9017986, 36.0472806], [-95.9018402, 36.0472795], [-95.9018382, 36.0469536], [-95.9018107, 36.0469526], [-95.901812, 36.0467026], [-95.901918, 36.0466983], [-95.9019468, 36.0467211], [-95.9020139, 36.0467211], [-95.9020179, 36.0469466], [-95.9020373, 36.0469629], [-95.9020367, 36.0471624], [-95.9020098, 36.0471835], [-95.9020373, 36.0472041], [-95.902038, 36.0474139]]]}, "properties": {"osm_id": 181211950, "building": "yes", "name": "", "height": null, "height_m": null, "levels": null, "tract_id": "40143007619", "tract_name": "76.19", "tags": {"building": "yes"}}}, {"type": "Feature", "geometry": {"type": "Polygon", "coordinates": [[[-95.9035272, 36.0466653], [-95.9036314, 36.0466645], [-95.9036294, 36.0466393], [-95.9037215, 36.046641], [-95.9037215, 36.0466594], [-95.9037386, 36.046672], [-95.903776, 36.0466443], [-95.9038071, 36.0466439], [-95.9038372, 36.0466682], [-95.9038377, 36.0467047], [-95.9038076, 36.0467274], [-95.9038078, 36.0467417], [-95.9038305, 36.0467414], [-95.9038323, 36.0469548], [-95.9035994, 36.0469543], [-95.9035999, 36.0468216], [-95.9035287, 36.0468214], [-95.9035272, 36.0466653]]]}, "properties": {"osm_id": 181211951, "building": "retail", "name": "", "height": null, "height_m": null, "levels": null, "tract_id": "40143007619", "tract_name": "76.19", "tags": {"building": "retail", "shop": "yes"}}}, {"type": "Feature", "geometry": {"type": "Polygon", "coordinates": [[[-95.9037913, 36.047851], [-95.9029796, 36.0478494], [-95.9028821, 36.0477755], [-95.9028779, 36.0467249], [-95.9029942, 36.0467232], [-95.9030212, 36.0466997], [-95.9031395, 36.0467031], [-95.9031395, 36.0468944], [-95.9030814, 36.0469431], [-95.9030814, 36.0471143], [-95.9031395, 36.0471579], [-95.9031395, 36.0472787], [-95.9031063, 36.0473039], [-95.9031083, 36.0474566], [-95.9030461, 36.047507], [-95.9030481, 36.0476329], [-95.9030691, 36.0476496], [-95.9031561, 36.0477185], [-95.9033097, 36.0477201], [-95.9033657, 36.0476664], [-95.9035505, 36.0476681], [-95.9035837, 36.0476362], [-95.9038203, 36.0476379], [-95.9038203, 36.0477369], [-95.9037913, 36.0477571], [-95.9037913, 36.047851]]]}, "properties": {"osm_id": 181211952, "building": "yes", "name": "", "height": null, "height_m": null, "levels": null, "tract_id": "40143007619", "tract_name": "76.19", "tags": {"building": "yes"}}}, {"type": "Feature", "geometry": {"type": "Polygon", "coordinates": [[[-95.9025998, 36.0478137], [-95.9018096, 36.0478149], [-95.9018091, 36.0475848], [-95.9025993, 36.0475836], [-95.9025998, 36.0478137]]]}, "properties": {"osm_id": 181211953, "building": "yes", "name": "", "height": null, "height_m": null, "levels": null, "tract_id": "40143007619", "tract_name": "76.19", "tags": {"building": "yes"}}}, {"type": "Feature", "geometry": {"type": "Polygon", "coordinates": [[[-95.8869296, 36.0597087], [-95.8867957, 36.0597109], [-95.8867942, 36.0596501], [-95.8867932, 36.059611], [-95.8867918, 36.0595552], [-95.8869257, 36.059553], [-95.8869272, 36.0596137], [-95.8869281, 36.0596476], [-95.8869296, 36.0597087]]]}, "properties": {"osm_id": 189001642, "building": "yes", "name": "Take 5 Oil Change", "height": null, "height_m": null, "levels": null, "tract_id": "40143007619", "tract_name": "76.19", "tags": {"addr:city": "Tulsa", "addr:country": "US", "addr:housenumber": "7122", "addr:postcode": "74133", "addr:state": "OK", "addr:street": "South Memorial Drive East", "brand": "Take 5", "brand:wikidata": "Q112359190", "building": "yes", "check_date": "2022-09-10", "name": "Take 5 Oil Change", "phone": "+1-918-250-9260", "service:vehicle:oil_change": "yes", "shop": "car_repair", "survey:date": "2022-07-22", "website": "https://www.jiffylube.com/"}}}, {"type": "Feature", "geometry": {"type": "Polygon", "coordinates": [[[-95.8874632, 36.0604608], [-95.8871963, 36.0604624], [-95.8871881, 36.0601511], [-95.8871025, 36.0601511], [-95.8871066, 36.0601906], [-95.8867704, 36.0601906], [-95.8867725, 36.0599716], [-95.8868802, 36.0599723], [-95.8869966, 36.0599732], [-95.8870129, 36.0599518], [-95.8872064, 36.0599535], [-95.8872574, 36.0599996], [-95.8874306, 36.0599979], [-95.8874346, 36.0601396], [-95.8874815, 36.0601824], [-95.8874815, 36.0602878], [-95.8874611, 36.0603026], [-95.8874631, 36.0604153], [-95.8874632, 36.0604608]]]}, "properties": {"osm_id": 195493291, "building": "commercial", "name": "", "height": null, "height_m": null, "levels": null, "tract_id": "40143007619", "tract_name": "76.19", "tags": {"building": "commercial"}}}, {"type": "Feature", "geometry": {"type": "Polygon", "coordinates": [[[-95.8910025, 36.0562722], [-95.8909987, 36.0561078], [-95.8911292, 36.0561059], [-95.8911311, 36.0561871], [-95.8911784, 36.0561864], [-95.8911803, 36.0562695], [-95.8910025, 36.0562722]]]}, "properties": {"osm_id": 235399087, "building": "house", "name": "", "height": null, "height_m": null, "levels": null, "tract_id": "40143007619", "tract_name": "76.19", "tags": {"addr:city": "Tulsa", "addr:country": "US", "addr:housenumber": "7309", "addr:postcode": "74133", "addr:state": "OK", "addr:street": "South 77th East Avenue", "building": "house"}}}, {"type": "Feature", "geometry": {"type": "Polygon", "coordinates": [[[-95.9009362, 36.0603856], [-95.901254, 36.0603845], [-95.9012549, 36.0605503], [-95.9010515, 36.060551], [-95.9010513, 36.0604982], [-95.9009368, 36.0604986], [-95.9009362, 36.0603856]]]}, "properties": {"osm_id": 478903880, "building": "commercial", "name": "Braum's", "height": null, "height_m": null, "levels": null, "tract_id": "40143007619", "tract_name": "76.19", "tags": {"addr:city": "Tulsa", "addr:country": "US", "addr:housenumber": "6574", "addr:postcode": "74133", "addr:state": "OK", "addr:street": "East 71st Street South", "amenity": "fast_food", "brand": "Braum's", "brand:wikidata": "Q4958263", "building": "commercial", "check_date": "2022-09-10", "cuisine": "ice_cream;burger", "name": "Braum's", "phone": "+1-918-493-5706", "ref": "166", "shop": "dairy", "takeaway": "yes"}}}, {"type": "Feature", "geometry": {"type": "Polygon", "coordinates": [[[-95.8872557, 36.0466484], [-95.8872582, 36.0471082], [-95.8872268, 36.0471321], [-95.8866953, 36.0471341], [-95.8866944, 36.0469683], [-95.8869901, 36.0469672], [-95.8869903, 36.046997], [-95.8871253, 36.0469965], [-95.8871248, 36.0469127], [-95.8870559, 36.046913], [-95.8870545, 36.0466491], [-95.8872557, 36.0466484]]]}, "properties": {"osm_id": 537531749, "building": "retail", "name": "", "height": null, "height_m": null, "levels": null, "tract_id": "40143007619", "tract_name": "76.19", "tags": {"addr:city": "Tulsa", "addr:country": "US", "addr:housenumber": "8068", "addr:postcode": "74133", "addr:state": "OK", "addr:street": "South Memorial Drive East", "building": "retail"}}}, {"type": "Feature", "geometry": {"type": "Polygon", "coordinates": [[[-95.8925381, 36.0592158], [-95.8923805, 36.059213], [-95.8923805, 36.0592007], [-95.8923618, 36.0592016], [-95.8923618, 36.0591752], [-95.8922322, 36.0591761], [-95.8922333, 36.0592026], [-95.8922147, 36.0592035], [-95.8922158, 36.0592148], [-95.8920606, 36.0592167], [-95.8920606, 36.0596112], [-95.8920325, 36.0596131], [-95.8920314, 36.0599605], [-95.8919321, 36.0600426], [-95.8921038, 36.060186], [-95.8922695, 36.0600473], [-95.8923092, 36.0600473], [-95.8925054, 36.059884], [-95.892963, 36.0598793], [-95.8929642, 36.0597962], [-95.8930167, 36.0597962], [-95.8930144, 36.0595669], [-95.892963, 36.0595678], [-95.8929607, 36.0594857], [-95.8925357, 36.0594904], [-95.8925381, 36.0592158]]]}, "properties": {"osm_id": 804450579, "building": "yes", "name": "", "height": null, "height_m": null, "levels": null, "tract_id": "40143007619", "tract_name": "76.19", "tags": {"addr:city": "Tulsa", "addr:country": "US", "addr:housenumber": "7370", "addr:postcode": "74133", "addr:state": "OK", "addr:street": "East 71st Street South", "building": "yes"}}}, {"type": "Feature", "geometry": {"type": "Polygon", "coordinates": [[[-95.8873563, 36.0568153], [-95.887306, 36.0568119], [-95.8872782, 36.0567795], [-95.8872813, 36.0567447], [-95.8873101, 36.0567214], [-95.8873573, 36.0567231], [-95.8873933, 36.0567505], [-95.8873912, 36.0567928], [-95.8873563, 36.0568153]]]}, "properties": {"osm_id": 846521494, "building": "yes", "name": "", "height": null, "height_m": null, "levels": null, "tract_id": "40143007619", "tract_name": "76.19", "tags": {"amenity": "shelter", "building": "yes"}}}, {"type": "Feature", "geometry": {"type": "Polygon", "coordinates": [[[-95.8873501, 36.0559094], [-95.8872998, 36.0559061], [-95.8872721, 36.0558737], [-95.8872752, 36.0558388], [-95.8873039, 36.0558156], [-95.8873512, 36.0558173], [-95.8873871, 36.0558447], [-95.8873851, 36.055887], [-95.8873501, 36.0559094]]]}, "properties": {"osm_id": 846521495, "building": "yes", "name": "", "height": null, "height_m": null, "levels": null, "tract_id": "40143007619", "tract_name": "76.19", "tags": {"amenity": "shelter", "building": "yes"}}}, {"type": "Feature", "geometry": {"type": "Polygon", "coordinates": [[[-95.9026529, 36.0604865], [-95.9030604, 36.0604858], [-95.9030591, 36.0600261], [-95.9029184, 36.0600264], [-95.9029181, 36.0599206], [-95.9030767, 36.0599203], [-95.9030982, 36.0598989], [-95.9030979, 36.0598051], [-95.9026777, 36.0598059], [-95.9026784, 36.0600268], [-95.9026515, 36.0600269], [-95.9026529, 36.0604865]]]}, "properties": {"osm_id": 1005483020, "building": "yes", "name": "Seasons Hospice", "height": null, "height_m": null, "levels": null, "tract_id": "40143007619", "tract_name": "76.19", "tags": {"addr:city": "Tulsa", "addr:country": "US", "addr:housenumber": "6532", "addr:postcode": "74133", "addr:state": "OK", "addr:street": "East 71st Street South", "building": "yes", "check_date": "2022-09-10", "name": "Seasons Hospice"}}}, {"type": "Feature", "geometry": {"type": "Polygon", "coordinates": [[[-95.8870685, 36.0605333], [-95.8870705, 36.060394], [-95.8869914, 36.0603279], [-95.886826, 36.0603279], [-95.8868258, 36.0603421], [-95.8868118, 36.060342], [-95.8868118, 36.0604157], [-95.8868882, 36.0604808], [-95.8868994, 36.0604722], [-95.8869706, 36.0605323], [-95.8870685, 36.0605333]]]}, "properties": {"osm_id": 1016258967, "building": "retail", "name": "AT&T", "height": null, "height_m": null, "levels": null, "tract_id": "40143007619", "tract_name": "76.19", "tags": {"addr:city": "Tulsa", "addr:country": "US", "addr:housenumber": "7102", "addr:postcode": "74133", "addr:state": "OK", "addr:street": "South Memorial Drive East", "brand": "AT&T", "brand:wikidata": "Q298594", "building": "retail", "name": "AT&T", "operator": "AT&T", "shop": "mobile_phone", "survey:date": "2022-07-22"}}}, {"type": "Feature", "geometry": {"type": "Polygon", "coordinates": [[[-95.8880909, 36.0602822], [-95.8877957, 36.0602829], [-95.8877964, 36.060485], [-95.887882, 36.0604848], [-95.8879839, 36.0604846], [-95.8880509, 36.0604845], [-95.8880917, 36.0604844], [-95.8880909, 36.0602822]]]}, "properties": {"osm_id": 1016258980, "building": "yes", "name": "", "height": null, "height_m": null, "levels": null, "tract_id": "40143007619", "tract_name": "76.19", "tags": {"building": "yes"}}}, {"type": "Feature", "geometry": {"type": "Polygon", "coordinates": [[[-95.8901019, 36.0597584], [-95.890104, 36.0601365], [-95.8900909, 36.0601366], [-95.8900916, 36.0602691], [-95.8905518, 36.0602676], [-95.8905508, 36.0600803], [-95.8905392, 36.0600804], [-95.8905374, 36.0597568], [-95.8901019, 36.0597584]]]}, "properties": {"osm_id": 1016258984, "building": "retail", "name": "", "height": null, "height_m": null, "levels": null, "tract_id": "40143007619", "tract_name": "76.19", "tags": {"addr:city": "Tulsa", "addr:country": "US", "addr:housenumber": "7712", "addr:postcode": "74133", "addr:state": "OK", "addr:street": "East 71st Street South", "building": "retail", "check_date": "2022-09-10", "shop": "carpet"}}}, {"type": "Feature", "geometry": {"type": "Polygon", "coordinates": [[[-95.8904665, 36.0469156], [-95.8902852, 36.0469144], [-95.8902779, 36.0468632], [-95.8902519, 36.0468571], [-95.8902504, 36.0467128], [-95.8904616, 36.0467101], [-95.8904665, 36.0469156]]]}, "properties": {"osm_id": 1040697911, "building": "yes", "name": "81st Street Dental", "height": null, "height_m": null, "levels": null, "tract_id": "40143007619", "tract_name": "76.19", "tags": {"amenity": "dentist", "building": "yes", "healthcare": "dentist", "name": "81st Street Dental"}}}, {"type": "Feature", "geometry": {"type": "Polygon", "coordinates": [[[-95.8871186, 36.0576814], [-95.8871134, 36.0577145], [-95.8871073, 36.0577321], [-95.8871006, 36.0577445], [-95.8870878, 36.0577627], [-95.8870747, 36.0577794], [-95.8870565, 36.0577741], [-95.8869152, 36.0580899], [-95.886846, 36.0580696], [-95.8868181, 36.0580616], [-95.8868154, 36.0580679], [-95.8867498, 36.05805], [-95.8867528, 36.0580274], [-95.8867587, 36.0580063], [-95.8867724, 36.0579846], [-95.8867876, 36.0579665], [-95.8868339, 36.05798], [-95.8869806, 36.0576512], [-95.8870228, 36.0576629], [-95.8870489, 36.0576702], [-95.8870507, 36.0576615], [-95.8871186, 36.0576814]]]}, "properties": {"osm_id": 1041721279, "building": "industrial", "name": "Tommy's Express Car Wasn", "height": null, "height_m": null, "levels": null, "tract_id": "40143007619", "tract_name": "76.19", "tags": {"addr:city": "Tulsa", "addr:country": "US", "addr:housenumber": "7188", "addr:postcode": "74133", "addr:state": "OK", "addr:street": "South Memorial Drive East", "amenity": "car_wash", "building": "industrial", "check_date": "2022-09-10", "name": "Tommy's Express Car Wasn"}}}, {"type": "Feature", "geometry": {"type": "Polygon", "coordinates": [[[-95.8895615, 36.0552135], [-95.8891574, 36.0552174], [-95.8891547, 36.0549485], [-95.889384, 36.0549475], [-95.8893827, 36.0548965], [-95.8897008, 36.05489], [-95.8897037, 36.0549882], [-95.8895591, 36.0549893], [-95.8895615, 36.0552135]]]}, "properties": {"osm_id": 1053581776, "building": "yes", "name": "", "height": null, "height_m": null, "levels": null, "tract_id": "40143007619", "tract_name": "76.19", "tags": {"building": "yes"}}}, {"type": "Feature", "geometry": {"type": "Polygon", "coordinates": [[[-95.8868538, 36.0588583], [-95.886844, 36.0588588], [-95.886839, 36.0587883], [-95.8867973, 36.0587903], [-95.8868023, 36.0588607], [-95.8867547, 36.0588629], [-95.8867604, 36.0589436], [-95.8867422, 36.0589444], [-95.8867476, 36.0590202], [-95.8867622, 36.0590195], [-95.8867675, 36.0590948], [-95.8867797, 36.0590942], [-95.8867809, 36.0591108], [-95.8868571, 36.0591072], [-95.8868506, 36.0590155], [-95.8868497, 36.0590024], [-95.8868819, 36.0590009], [-95.8868772, 36.0589335], [-95.8868592, 36.0589343], [-95.886855, 36.0588755], [-95.8868538, 36.0588583]]]}, "properties": {"osm_id": 1230523479, "building": "retail", "name": "KFC", "height": null, "height_m": null, "levels": null, "tract_id": "40143007619", "tract_name": "76.19", "tags": {"addr:city": "Tulsa", "addr:country": "US", "addr:housenumber": "7180", "addr:postcode": "74133", "addr:state": "OK", "addr:street": "South Memorial Drive East", "alt_name": "Kentucky Fried Chicken", "amenity": "fast_food", "brand": "KFC", "brand:wikidata": "Q524757", "building": "retail", "check_date": "2022-09-10", "cuisine": "chicken", "name": "KFC", "takeaway": "yes", "website": "https://locations.kfc.com/ok/tulsa/7180-s-memorial-drive"}}}, {"type": "Feature", "geometry": {"type": "Polygon", "coordinates": [[[-95.886727, 36.0473972], [-95.8869293, 36.0473989], [-95.8869316, 36.0472233], [-95.8866837, 36.0472212], [-95.8866823, 36.047334], [-95.8867278, 36.0473343], [-95.886727, 36.0473972]]]}, "properties": {"osm_id": 1235075448, "building": "detached", "name": "", "height": null, "height_m": null, "levels": null, "tract_id": "40143007619", "tract_name": "76.19", "tags": {"addr:city": "Tulsa", "addr:country": "US", "addr:housenumber": "8030", "addr:state": "OK", "addr:street": "South Memorial Drive East", "building": "detached", "shop": "yes", "source": "microsoft/BuildingFootprints"}}}, {"type": "Feature", "geometry": {"type": "Polygon", "coordinates": [[[-95.8867624, 36.0474475], [-95.8867622, 36.0475739], [-95.8867621, 36.0476036], [-95.8867782, 36.0476036], [-95.8867782, 36.0476183], [-95.886778, 36.0477029], [-95.8867779, 36.0477647], [-95.8867778, 36.0478612], [-95.8867777, 36.0478877], [-95.8869413, 36.0478879], [-95.8869421, 36.0474477], [-95.8867624, 36.0474475]]]}, "properties": {"osm_id": 1235075449, "building": "yes", "name": "", "height": null, "height_m": null, "levels": null, "tract_id": "40143007619", "tract_name": "76.19", "tags": {"addr:city": "Tulsa", "addr:country": "US", "addr:housenumber": "8022", "addr:state": "OK", "addr:street": "South Memorial Drive East", "building": "yes", "source": "microsoft/BuildingFootprints"}}}, {"type": "Feature", "geometry": {"type": "Polygon", "coordinates": [[[-95.8867215, 36.0487303], [-95.8868395, 36.0487314], [-95.8868419, 36.0485601], [-95.8866193, 36.0485581], [-95.8866183, 36.0486318], [-95.8867229, 36.0486328], [-95.8867215, 36.0487303]]]}, "properties": {"osm_id": 1235075450, "building": "yes", "name": "", "height": null, "height_m": null, "levels": null, "tract_id": "40143007619", "tract_name": "76.19", "tags": {"addr:city": "Tulsa", "addr:country": "US", "addr:housenumber": "7937", "addr:postcode": "74133", "addr:state": "OK", "addr:street": "South 80th Avenue East", "building": "yes", "source": "microsoft/BuildingFootprints"}}}, {"type": "Feature", "geometry": {"type": "Polygon", "coordinates": [[[-95.887202, 36.0592573], [-95.8876011, 36.0593503], [-95.8876698, 36.0591575], [-95.8876325, 36.0591488], [-95.8875595, 36.0591318], [-95.8874836, 36.0591141], [-95.887422, 36.0590998], [-95.8873225, 36.0590766], [-95.8872706, 36.0590645], [-95.887202, 36.0592573]]]}, "properties": {"osm_id": 1235075481, "building": "retail", "name": "", "height": null, "height_m": null, "levels": null, "tract_id": "40143007619", "tract_name": "76.19", "tags": {"building": "retail"}}}, {"type": "Feature", "geometry": {"type": "Polygon", "coordinates": [[[-95.8869526, 36.0482272], [-95.8868131, 36.0482272], [-95.8868131, 36.0480591], [-95.8869526, 36.0480591], [-95.8869526, 36.0482272]]]}, "properties": {"osm_id": 1290737357, "building": "retail", "name": "Harrel Eyecare", "height": null, "height_m": null, "levels": null, "tract_id": "40143007619", "tract_name": "76.19", "tags": {"addr:city": "Tulsa", "addr:country": "US", "addr:housenumber": "8004", "addr:postcode": "74133", "addr:state": "OK", "addr:street": "South Memorial Drive East", "building": "retail", "name": "Harrel Eyecare", "shop": "optician"}}}, {"type": "Feature", "geometry": {"type": "Polygon", "coordinates": [[[-95.901922, 36.0604258], [-95.9017939, 36.0604263], [-95.901794, 36.0604475], [-95.9016599, 36.060448], [-95.9016598, 36.0604268], [-95.9016169, 36.0604269], [-95.9016165, 36.060351], [-95.9015808, 36.0603512], [-95.9015803, 36.0602736], [-95.9017898, 36.0602728], [-95.9017899, 36.0602815], [-95.9019291, 36.060281], [-95.9019295, 36.0603477], [-95.9019216, 36.0603478], [-95.901922, 36.0604258]]]}, "properties": {"osm_id": 1316827762, "building": "retail", "name": "Arvest Bank", "height": null, "height_m": null, "levels": null, "tract_id": "40143007619", "tract_name": "76.19", "tags": {"addr:city": "Tulsa", "addr:country": "US", "addr:housenumber": "6560", "addr:postcode": "74133", "addr:state": "OK", "addr:street": "East 71st Street South", "amenity": "bank", "brand": "Arvest Bank", "brand:wikidata": "Q4802393", "building": "retail", "check_date": "2022-09-10", "name": "Arvest Bank"}}}, {"type": "Feature", "geometry": {"type": "Polygon", "coordinates": [[[-95.902382, 36.0604887], [-95.9021405, 36.0604902], [-95.9021365, 36.0600707], [-95.902378, 36.0600691], [-95.902382, 36.0604887]]]}, "properties": {"osm_id": 1316827763, "building": "commercial", "name": "", "height": null, "height_m": null, "levels": null, "tract_id": "40143007619", "tract_name": "76.19", "tags": {"addr:city": "Tulsa", "addr:country": "US", "addr:housenumber": "6550", "addr:postcode": "74133", "addr:state": "OK", "addr:street": "East 71st Street South", "building": "commercial"}}}, {"type": "Feature", "geometry": {"type": "Polygon", "coordinates": [[[-95.9034515, 36.0605993], [-95.9034502, 36.0602529], [-95.9034876, 36.0602528], [-95.9035843, 36.0602526], [-95.9035856, 36.060599], [-95.9034971, 36.0605992], [-95.9034515, 36.0605993]]]}, "properties": {"osm_id": 1316827765, "building": "commercial", "name": "", "height": null, "height_m": null, "levels": null, "tract_id": "40143007619", "tract_name": "76.19", "tags": {"addr:city": "Tulsa", "addr:country": "US", "addr:housenumber": "6510", "addr:postcode": "74133", "addr:state": "OK", "addr:street": "East 71st Street South", "amenity": "car_wash", "automated": "yes", "building": "commercial", "check_date": "2022-09-10", "self_service": "no"}}}, {"type": "Feature", "geometry": {"type": "Polygon", "coordinates": [[[-95.8934368, 36.053429], [-95.8933946, 36.0534295], [-95.8933949, 36.0534428], [-95.8933, 36.053444], [-95.8932992, 36.0533997], [-95.8932307, 36.0534006], [-95.8932277, 36.0532452], [-95.8933227, 36.053244], [-95.8933236, 36.0532889], [-95.8934341, 36.0532875], [-95.8934368, 36.053429]]]}, "properties": {"osm_id": 1316838446, "building": "yes", "name": "", "height": null, "height_m": null, "levels": null, "tract_id": "40143007619", "tract_name": "76.19", "tags": {"addr:city": "Tulsa", "addr:country": "US", "addr:housenumber": "7403", "addr:postcode": "74133", "addr:state": "OK", "addr:street": "East 77th Street South", "building": "yes"}}}, {"type": "Feature", "geometry": {"type": "Polygon", "coordinates": [[[-95.8868624, 36.0513663], [-95.8867069, 36.0513679], [-95.8867096, 36.051537], [-95.8868651, 36.0515354], [-95.8868624, 36.0513663]]]}, "properties": {"osm_id": 1317308093, "building": "detached", "name": "", "height": null, "height_m": null, "levels": null, "tract_id": "40143007619", "tract_name": "76.19", "tags": {"addr:city": "Tulsa", "addr:country": "US", "addr:housenumber": "7741", "addr:postcode": "74133", "addr:state": "OK", "addr:street": "South 80th Avenue East", "building": "detached", "source": "microsoft/BuildingFootprints"}}}, {"type": "Feature", "geometry": {"type": "Polygon", "coordinates": [[[-95.8866911, 36.0508961], [-95.8868561, 36.0508926], [-95.8868531, 36.0508003], [-95.8868344, 36.0508007], [-95.8868319, 36.050724], [-95.8866845, 36.0507271], [-95.8866868, 36.0507986], [-95.8866519, 36.0507994], [-95.8866538, 36.0508579], [-95.8866898, 36.0508571], [-95.8866911, 36.0508961]]]}, "properties": {"osm_id": 1317308094, "building": "detached", "name": "", "height": null, "height_m": null, "levels": null, "tract_id": "40143007619", "tract_name": "76.19", "tags": {"addr:city": "Tulsa", "addr:country": "US", "addr:housenumber": "7759", "addr:postcode": "74133", "addr:state": "OK", "addr:street": "South 80th Avenue East", "building": "detached", "source": "microsoft/BuildingFootprints"}}}, {"type": "Feature", "geometry": {"type": "Polygon", "coordinates": [[[-95.8866579, 36.0497848], [-95.8867786, 36.0497838], [-95.8867783, 36.0497622], [-95.8868534, 36.0497616], [-95.8868526, 36.04969], [-95.8868124, 36.0496903], [-95.8868114, 36.0496036], [-95.8866836, 36.0496046], [-95.8866846, 36.0496891], [-95.8866568, 36.0496894], [-95.8866579, 36.0497848]]]}, "properties": {"osm_id": 1317308095, "building": "detached", "name": "", "height": null, "height_m": null, "levels": null, "tract_id": "40143007619", "tract_name": "76.19", "tags": {"addr:city": "Tulsa", "addr:country": "US", "addr:housenumber": "7903", "addr:postcode": "74133", "addr:state": "OK", "addr:street": "South 80th Avenue East", "building": "detached", "source": "microsoft/BuildingFootprints"}}}, {"type": "Feature", "geometry": {"type": "Polygon", "coordinates": [[[-95.8868031, 36.0515866], [-95.8866744, 36.0515855], [-95.8866723, 36.0517373], [-95.8868616, 36.051739], [-95.8868626, 36.0516652], [-95.8868021, 36.0516647], [-95.8868031, 36.0515866]]]}, "properties": {"osm_id": 1317308096, "building": "detached", "name": "", "height": null, "height_m": null, "levels": null, "tract_id": "40143007619", "tract_name": "76.19", "tags": {"addr:city": "Tulsa", "addr:country": "US", "addr:housenumber": "7735", "addr:postcode": "74133", "addr:state": "OK", "addr:street": "South 80th Avenue East", "building": "detached", "source": "microsoft/BuildingFootprints"}}}, {"type": "Feature", "geometry": {"type": "Polygon", "coordinates": [[[-95.8866548, 36.0528176], [-95.886864, 36.0528189], [-95.8868647, 36.052743], [-95.8868245, 36.0527427], [-95.8868255, 36.0526408], [-95.8866377, 36.0526397], [-95.8866369, 36.0527251], [-95.8866932, 36.0527255], [-95.8866929, 36.0527658], [-95.8866553, 36.0527655], [-95.8866548, 36.0528176]]]}, "properties": {"osm_id": 1317308097, "building": "detached", "name": "", "height": null, "height_m": null, "levels": null, "tract_id": "40143007619", "tract_name": "76.19", "tags": {"addr:city": "Tulsa", "addr:country": "US", "addr:housenumber": "7707", "addr:postcode": "74133", "addr:state": "OK", "addr:street": "South 80th Avenue East", "building": "detached", "source": "microsoft/BuildingFootprints"}}}, {"type": "Feature", "geometry": {"type": "Polygon", "coordinates": [[[-95.8868322, 36.0488801], [-95.8868285, 36.04888], [-95.8868302, 36.0487838], [-95.8866971, 36.0487822], [-95.8866962, 36.0488343], [-95.8866657, 36.0488339], [-95.8866647, 36.0488912], [-95.8866888, 36.0488915], [-95.8866882, 36.0489283], [-95.8868313, 36.0489299], [-95.8868322, 36.0488801]]]}, "properties": {"osm_id": 1317308099, "building": "detached", "name": "", "height": null, "height_m": null, "levels": null, "tract_id": "40143007619", "tract_name": "76.19", "tags": {"addr:city": "Tulsa", "addr:country": "US", "addr:housenumber": "7931", "addr:postcode": "74133", "addr:state": "OK", "addr:street": "South 80th Avenue East", "building": "detached", "source": "microsoft/BuildingFootprints"}}}, {"type": "Feature", "geometry": {"type": "Polygon", "coordinates": [[[-95.8866601, 36.0506751], [-95.8868532, 36.050676], [-95.8868537, 36.0506045], [-95.8868017, 36.0506042], [-95.8868023, 36.0505218], [-95.88668, 36.0505212], [-95.8866794, 36.0506028], [-95.8866606, 36.0506027], [-95.8866601, 36.0506751]]]}, "properties": {"osm_id": 1317308100, "building": "detached", "name": "", "height": null, "height_m": null, "levels": null, "tract_id": "40143007619", "tract_name": "76.19", "tags": {"addr:city": "Tulsa", "addr:country": "US", "addr:housenumber": "7803", "addr:postcode": "74133", "addr:state": "OK", "addr:street": "South 80th Avenue East", "building": "detached", "source": "microsoft/BuildingFootprints"}}}, {"type": "Feature", "geometry": {"type": "Polygon", "coordinates": [[[-95.8866881, 36.0521899], [-95.8868678, 36.0521878], [-95.8868666, 36.0521241], [-95.8867915, 36.0521249], [-95.8867897, 36.0520239], [-95.8866851, 36.0520252], [-95.8866881, 36.0521899]]]}, "properties": {"osm_id": 1317308101, "building": "detached", "name": "", "height": null, "height_m": null, "levels": null, "tract_id": "40143007619", "tract_name": "76.19", "tags": {"addr:city": "Tulsa", "addr:country": "US", "addr:housenumber": "7723", "addr:postcode": "74133", "addr:state": "OK", "addr:street": "South 80th Avenue East", "building": "detached", "source": "microsoft/BuildingFootprints"}}}, {"type": "Feature", "geometry": {"type": "Polygon", "coordinates": [[[-95.8866964, 36.0495588], [-95.8868546, 36.0495566], [-95.8868508, 36.0493801], [-95.8866926, 36.0493823], [-95.8866964, 36.0495588]]]}, "properties": {"osm_id": 1317308102, "building": "detached", "name": "", "height": null, "height_m": null, "levels": null, "tract_id": "40143007619", "tract_name": "76.19", "tags": {"addr:city": "Tulsa", "addr:country": "US", "addr:housenumber": "7909", "addr:postcode": "74133", "addr:state": "OK", "addr:street": "South 80th Avenue East", "building": "detached", "source": "microsoft/BuildingFootprints"}}}, {"type": "Feature", "geometry": {"type": "Polygon", "coordinates": [[[-95.8866869, 36.0502966], [-95.8866838, 36.0504744], [-95.88685, 36.0504763], [-95.8868524, 36.0503419], [-95.8868337, 36.0503417], [-95.8868344, 36.0502983], [-95.8866869, 36.0502966]]]}, "properties": {"osm_id": 1317308103, "building": "detached", "name": "", "height": null, "height_m": null, "levels": null, "tract_id": "40143007619", "tract_name": "76.19", "tags": {"addr:city": "Tulsa", "addr:country": "US", "addr:housenumber": "7809", "addr:postcode": "74133", "addr:state": "OK", "addr:street": "South 80th Avenue East", "building": "detached", "source": "microsoft/BuildingFootprints"}}}, {"type": "Feature", "geometry": {"type": "Polygon", "coordinates": [[[-95.8866732, 36.0523855], [-95.8868662, 36.0523878], [-95.8868677, 36.0523067], [-95.886806, 36.052306], [-95.8868071, 36.0522496], [-95.8866715, 36.052248], [-95.8866702, 36.0523196], [-95.8866341, 36.0523191], [-95.8866333, 36.0523625], [-95.8866736, 36.052363], [-95.8866732, 36.0523855]]]}, "properties": {"osm_id": 1317308104, "building": "detached", "name": "", "height": null, "height_m": null, "levels": null, "tract_id": "40143007619", "tract_name": "76.19", "tags": {"addr:city": "Tulsa", "addr:country": "US", "addr:housenumber": "7719", "addr:postcode": "74133", "addr:state": "OK", "addr:street": "South 80th Avenue East", "building": "detached", "source": "microsoft/BuildingFootprints"}}}, {"type": "Feature", "geometry": {"type": "Polygon", "coordinates": [[[-95.8870386, 36.053352], [-95.8868099, 36.0533188], [-95.8867808, 36.0534499], [-95.8868822, 36.0534646], [-95.886874, 36.0535016], [-95.8869714, 36.0535157], [-95.8869789, 36.0534821], [-95.8870087, 36.0534864], [-95.8870386, 36.053352]]]}, "properties": {"osm_id": 1317308105, "building": "detached", "name": "", "height": null, "height_m": null, "levels": null, "tract_id": "40143007619", "tract_name": "76.19", "tags": {"addr:city": "Tulsa", "addr:country": "US", "addr:housenumber": "7935", "addr:postcode": "74133", "addr:state": "OK", "addr:street": "East 77th Street South", "building": "detached", "source": "microsoft/BuildingFootprints"}}}, {"type": "Feature", "geometry": {"type": "Polygon", "coordinates": [[[-95.887083, 36.0534788], [-95.887138, 36.0534791], [-95.8871383, 36.0534292], [-95.8871933, 36.0534294], [-95.8871931, 36.0534598], [-95.8872575, 36.05346], [-95.8872577, 36.0534297], [-95.8872952, 36.0534298], [-95.8872959, 36.0533236], [-95.8872932, 36.0533235], [-95.8872936, 36.0532585], [-95.8872051, 36.0532581], [-95.8872046, 36.053334], [-95.8870839, 36.0533335], [-95.887083, 36.0534788]]]}, "properties": {"osm_id": 1317308106, "building": "detached", "name": "", "height": null, "height_m": null, "levels": null, "tract_id": "40143007619", "tract_name": "76.19", "tags": {"addr:city": "Tulsa", "addr:country": "US", "addr:housenumber": "7929", "addr:postcode": "74133", "addr:state": "OK", "addr:street": "East 77th Street South", "building": "detached", "source": "microsoft/BuildingFootprints"}}}, {"type": "Feature", "geometry": {"type": "Polygon", "coordinates": [[[-95.8866932, 36.0511102], [-95.8868557, 36.051113], [-95.8868581, 36.051022], [-95.8868297, 36.0510215], [-95.886832, 36.0509369], [-95.886698, 36.0509346], [-95.8866932, 36.0511102]]]}, "properties": {"osm_id": 1317308107, "building": "detached", "name": "", "height": null, "height_m": null, "levels": null, "tract_id": "40143007619", "tract_name": "76.19", "tags": {"addr:city": "Tulsa", "addr:country": "US", "addr:housenumber": "7753", "addr:postcode": "74133", "addr:state": "OK", "addr:street": "South 80th Avenue East", "building": "detached", "source": "microsoft/BuildingFootprints"}}}, {"type": "Feature", "geometry": {"type": "Polygon", "coordinates": [[[-95.8866808, 36.0530292], [-95.8868162, 36.0530267], [-95.8868139, 36.0529465], [-95.8868688, 36.0529455], [-95.8868663, 36.0528536], [-95.8866759, 36.0528571], [-95.8866808, 36.0530292]]]}, "properties": {"osm_id": 1317308108, "building": "detached", "name": "", "height": null, "height_m": null, "levels": null, "tract_id": "40143007619", "tract_name": "76.19", "tags": {"addr:city": "Tulsa", "addr:country": "US", "addr:housenumber": "7701", "addr:postcode": "74133", "addr:state": "OK", "addr:street": "South 80th Avenue East", "building": "detached", "source": "microsoft/BuildingFootprints"}}}, {"type": "Feature", "geometry": {"type": "Polygon", "coordinates": [[[-95.8866207, 36.0532934], [-95.8867467, 36.0532919], [-95.8867438, 36.0531423], [-95.8867814, 36.0531418], [-95.8867801, 36.0530768], [-95.8866219, 36.0530787], [-95.886623, 36.0531329], [-95.886576, 36.0531335], [-95.8865772, 36.0531964], [-95.8866188, 36.0531959], [-95.8866207, 36.0532934]]]}, "properties": {"osm_id": 1317308109, "building": "detached", "name": "", "height": null, "height_m": null, "levels": null, "tract_id": "40143007619", "tract_name": "76.19", "tags": {"addr:city": "Tulsa", "addr:country": "US", "addr:housenumber": "7941", "addr:postcode": "74133", "addr:state": "OK", "addr:street": "East 77th Street South", "building": "detached", "source": "microsoft/BuildingFootprints"}}}, {"type": "Feature", "geometry": {"type": "Polygon", "coordinates": [[[-95.8866982, 36.0502341], [-95.8868484, 36.0502328], [-95.8868463, 36.0500723], [-95.8866961, 36.0500736], [-95.8866982, 36.0502341]]]}, "properties": {"osm_id": 1317308110, "building": "detached", "name": "", "height": null, "height_m": null, "levels": null, "tract_id": "40143007619", "tract_name": "76.19", "tags": {"addr:city": "Tulsa", "addr:country": "US", "addr:housenumber": "7815", "addr:postcode": "74133", "addr:state": "OK", "addr:street": "South 80th Avenue East", "building": "detached", "source": "microsoft/BuildingFootprints"}}}, {"type": "Feature", "geometry": {"type": "Polygon", "coordinates": [[[-95.8868073, 36.0489731], [-95.8866529, 36.048977], [-95.8866591, 36.0491395], [-95.8868511, 36.0491346], [-95.8868473, 36.0490363], [-95.8868098, 36.0490372], [-95.8868073, 36.0489731]]]}, "properties": {"osm_id": 1317308111, "building": "detached", "name": "", "height": null, "height_m": null, "levels": null, "tract_id": "40143007619", "tract_name": "76.19", "tags": {"addr:city": "Tulsa", "addr:country": "US", "addr:housenumber": "7925", "addr:postcode": "74133", "addr:state": "OK", "addr:street": "South 80th Avenue East", "building": "detached", "source": "microsoft/BuildingFootprints"}}}, {"type": "Feature", "geometry": {"type": "Polygon", "coordinates": [[[-95.8867984, 36.0511478], [-95.8866671, 36.0511451], [-95.886664, 36.0512448], [-95.8866264, 36.051244], [-95.8866251, 36.0512874], [-95.8866626, 36.0512881], [-95.8866618, 36.0513132], [-95.8868575, 36.0513173], [-95.8868605, 36.0512206], [-95.8867962, 36.0512193], [-95.8867984, 36.0511478]]]}, "properties": {"osm_id": 1317308112, "building": "detached", "name": "", "height": null, "height_m": null, "levels": null, "tract_id": "40143007619", "tract_name": "76.19", "tags": {"addr:city": "Tulsa", "addr:country": "US", "addr:housenumber": "7747", "addr:postcode": "74133", "addr:state": "OK", "addr:street": "South 80th Avenue East", "building": "detached", "source": "microsoft/BuildingFootprints"}}}, {"type": "Feature", "geometry": {"type": "Polygon", "coordinates": [[[-95.886656, 36.0493462], [-95.8868116, 36.0493439], [-95.88681, 36.0492745], [-95.8868315, 36.0492742], [-95.8868293, 36.0491767], [-95.8866577, 36.0491792], [-95.8866583, 36.0492095], [-95.8866047, 36.0492103], [-95.8866073, 36.0493252], [-95.8866556, 36.0493245], [-95.886656, 36.0493462]]]}, "properties": {"osm_id": 1317308113, "building": "detached", "name": "", "height": null, "height_m": null, "levels": null, "tract_id": "40143007619", "tract_name": "76.19", "tags": {"addr:city": "Tulsa", "addr:country": "US", "addr:housenumber": "7917", "addr:postcode": "74133", "addr:state": "OK", "addr:street": "South 80th Avenue East", "building": "detached", "source": "microsoft/BuildingFootprints"}}}, {"type": "Feature", "geometry": {"type": "Polygon", "coordinates": [[[-95.8868552, 36.0524305], [-95.8866917, 36.052434], [-95.8866946, 36.052525], [-95.8866678, 36.0525256], [-95.8866698, 36.0525884], [-95.8867676, 36.0525863], [-95.8867684, 36.0526124], [-95.8868609, 36.0526104], [-95.8868552, 36.0524305]]]}, "properties": {"osm_id": 1317308114, "building": "detached", "name": "", "height": null, "height_m": null, "levels": null, "tract_id": "40143007619", "tract_name": "76.19", "tags": {"addr:city": "Tulsa", "addr:country": "US", "addr:housenumber": "7713", "addr:postcode": "74133", "addr:state": "OK", "addr:street": "South 80th Avenue East", "building": "detached", "source": "microsoft/BuildingFootprints"}}}, {"type": "Feature", "geometry": {"type": "Polygon", "coordinates": [[[-95.8872373, 36.0479915], [-95.8874192, 36.0479686], [-95.8874066, 36.0479033], [-95.8873696, 36.047908], [-95.887366, 36.0478892], [-95.8873449, 36.0478918], [-95.8873348, 36.0478393], [-95.8873559, 36.0478367], [-95.887353, 36.0478214], [-95.8873899, 36.0478167], [-95.8873764, 36.0477467], [-95.8871945, 36.0477696], [-95.8872023, 36.0478101], [-95.887171, 36.047814], [-95.8871979, 36.0479535], [-95.8872292, 36.0479495], [-95.8872373, 36.0479915]]]}, "properties": {"osm_id": 1431835338, "building": "semidetached_house", "name": "", "height": null, "height_m": null, "levels": null, "tract_id": "40143007619", "tract_name": "76.19", "tags": {"building": "semidetached_house"}}}, {"type": "Feature", "geometry": {"type": "Polygon", "coordinates": [[[-95.887202, 36.0477159], [-95.8873861, 36.0477166], [-95.8873865, 36.0476505], [-95.8873491, 36.0476504], [-95.8873493, 36.0476314], [-95.8873279, 36.0476313], [-95.8873282, 36.0475781], [-95.8873496, 36.0475782], [-95.8873497, 36.0475628], [-95.887387, 36.0475629], [-95.8873875, 36.047492], [-95.8872034, 36.0474913], [-95.8872032, 36.0475323], [-95.8871715, 36.0475321], [-95.8871706, 36.0476732], [-95.8872023, 36.0476734], [-95.887202, 36.0477159]]]}, "properties": {"osm_id": 1431835339, "building": "semidetached_house", "name": "", "height": null, "height_m": null, "levels": null, "tract_id": "40143007619", "tract_name": "76.19", "tags": {"building": "semidetached_house"}}}, {"type": "Feature", "geometry": {"type": "Polygon", "coordinates": [[[-95.887408, 36.0472311], [-95.8872503, 36.0472335], [-95.887252, 36.0473078], [-95.8872831, 36.0473073], [-95.8872848, 36.0473803], [-95.8872537, 36.0473807], [-95.8872554, 36.0474541], [-95.8874131, 36.0474516], [-95.887412, 36.0474022], [-95.8874729, 36.0474013], [-95.8874702, 36.0472858], [-95.8874093, 36.0472868], [-95.887408, 36.0472311]]]}, "properties": {"osm_id": 1431835340, "building": "semidetached_house", "name": "", "height": null, "height_m": null, "levels": null, "tract_id": "40143007619", "tract_name": "76.19", "tags": {"building": "semidetached_house"}}}, {"type": "Feature", "geometry": {"type": "Polygon", "coordinates": [[[-95.8873878, 36.0471266], [-95.8875619, 36.0471747], [-95.8875884, 36.0471122], [-95.887553, 36.0471024], [-95.8875881, 36.0470195], [-95.8876234, 36.0470293], [-95.8876518, 36.0469622], [-95.8874776, 36.0469141], [-95.8874612, 36.0469528], [-95.8874312, 36.0469446], [-95.8873748, 36.0470781], [-95.8874048, 36.0470864], [-95.8873878, 36.0471266]]]}, "properties": {"osm_id": 1431835341, "building": "semidetached_house", "name": "", "height": null, "height_m": null, "levels": null, "tract_id": "40143007619", "tract_name": "76.19", "tags": {"building": "semidetached_house"}}}, {"type": "Feature", "geometry": {"type": "Polygon", "coordinates": [[[-95.8877908, 36.0467482], [-95.8876749, 36.0466617], [-95.8876125, 36.0467163], [-95.8876354, 36.0467333], [-95.8875741, 36.0467869], [-95.8875513, 36.0467699], [-95.8874898, 36.0468238], [-95.8876057, 36.0469103], [-95.8876472, 36.0468739], [-95.887692, 36.0469073], [-95.8877888, 36.0468225], [-95.887744, 36.0467891], [-95.8877908, 36.0467482]]]}, "properties": {"osm_id": 1431835342, "building": "semidetached_house", "name": "", "height": null, "height_m": null, "levels": null, "tract_id": "40143007619", "tract_name": "76.19", "tags": {"building": "semidetached_house"}}}, {"type": "Feature", "geometry": {"type": "Polygon", "coordinates": [[[-95.8881321, 36.0466012], [-95.8881334, 36.0467515], [-95.8880516, 36.0467519], [-95.8880513, 36.0467192], [-95.8880281, 36.0467193], [-95.888028, 36.0467051], [-95.8879637, 36.0467055], [-95.8879638, 36.0467197], [-95.8879394, 36.0467199], [-95.8879397, 36.0467526], [-95.8878572, 36.0467531], [-95.8878558, 36.0466029], [-95.8879074, 36.0466026], [-95.8879072, 36.0465743], [-95.8880795, 36.0465732], [-95.8880798, 36.0466015], [-95.8881321, 36.0466012]]]}, "properties": {"osm_id": 1431835343, "building": "semidetached_house", "name": "", "height": null, "height_m": null, "levels": null, "tract_id": "40143007619", "tract_name": "76.19", "tags": {"building": "semidetached_house"}}}, {"type": "Feature", "geometry": {"type": "Polygon", "coordinates": [[[-95.8880506, 36.0472871], [-95.8879652, 36.0472615], [-95.8879602, 36.0472724], [-95.8878808, 36.0472485], [-95.8879111, 36.0471827], [-95.8879626, 36.0471982], [-95.8879789, 36.0471627], [-95.8879274, 36.0471472], [-95.8879578, 36.047081], [-95.888037, 36.0471048], [-95.8880322, 36.0471152], [-95.8881178, 36.0471409], [-95.8880506, 36.0472871]]]}, "properties": {"osm_id": 1431835344, "building": "semidetached_house", "name": "", "height": null, "height_m": null, "levels": null, "tract_id": "40143007619", "tract_name": "76.19", "tags": {"building": "semidetached_house"}}}, {"type": "Feature", "geometry": {"type": "Polygon", "coordinates": [[[-95.8879348, 36.0475396], [-95.8878495, 36.0475139], [-95.8878445, 36.0475248], [-95.887765, 36.047501], [-95.8877953, 36.0474351], [-95.8878468, 36.0474506], [-95.8878631, 36.0474152], [-95.8878116, 36.0473997], [-95.8878421, 36.0473334], [-95.8879213, 36.0473572], [-95.8879165, 36.0473676], [-95.8880021, 36.0473934], [-95.8879348, 36.0475396]]]}, "properties": {"osm_id": 1431835345, "building": "semidetached_house", "name": "", "height": null, "height_m": null, "levels": null, "tract_id": "40143007619", "tract_name": "76.19", "tags": {"building": "semidetached_house"}}}, {"type": "Feature", "geometry": {"type": "Polygon", "coordinates": [[[-95.8878867, 36.0477306], [-95.8877977, 36.0477147], [-95.8877946, 36.0477261], [-95.8877119, 36.0477113], [-95.8877306, 36.0476427], [-95.8877842, 36.0476523], [-95.8877943, 36.0476153], [-95.8877407, 36.0476058], [-95.8877595, 36.0475368], [-95.887842, 36.0475515], [-95.887839, 36.0475623], [-95.8879282, 36.0475782], [-95.8878867, 36.0477306]]]}, "properties": {"osm_id": 1431835346, "building": "semidetached_house", "name": "", "height": null, "height_m": null, "levels": null, "tract_id": "40143007619", "tract_name": "76.19", "tags": {"building": "semidetached_house"}}}]}