{"type": "FeatureCollection", "features": [{"type": "Feature", "geometry": {"type": "Polygon", "coordinates": [[[-96.7700277, 34.0868275], [-96.7698472, 34.086882], [-96.7697657, 34.0867029], [-96.7699465, 34.0866515], [-96.7700277, 34.0868275]]]}, "properties": {"osm_id": 198252246, "building": "shop", "name": "Love's", "height": null, "height_m": null, "levels": null, "tract_id": "40095094700", "tract_name": "947", "tags": {"brand": "Love's", "brand:wikidata": "Q1872496", "building": "shop", "name": "Love's", "shop": "convenience"}}}, {"type": "Feature", "geometry": {"type": "Polygon", "coordinates": [[[-96.7695374, 34.0858027], [-96.7695289, 34.0857816], [-96.7695708, 34.0857701], [-96.7695413, 34.0856961], [-96.7691821, 34.0857943], [-96.7692201, 34.0858896], [-96.7695374, 34.0858027]]]}, "properties": {"osm_id": 198252247, "building": "yes", "name": "McDonald's", "height": null, "height_m": null, "levels": null, "tract_id": "40095094700", "tract_name": "947", "tags": {"amenity": "fast_food", "brand": "McDonald's", "brand:wikidata": "Q38076", "building": "yes", "cuisine": "burger", "name": "McDonald's", "takeaway": "yes", "website": "https://www.mcdonalds.com/us/en-us/location/ok/madill/511-s-1st-st/13113.html"}}}, {"type": "Feature", "geometry": {"type": "Polygon", "coordinates": [[[-96.7737975, 34.0962392], [-96.7738391, 34.0963348], [-96.7740876, 34.0962606], [-96.774046, 34.096165], [-96.7737975, 34.0962392]]]}, "properties": {"osm_id": 198252248, "building": "restaurant", "name": "Pizza Hut", "height": null, "height_m": null, "levels": null, "tract_id": "40095094700", "tract_name": "947", "tags": {"amenity": "restaurant", "brand": "Pizza Hut", "brand:wikidata": "Q191615", "building": "restaurant", "cuisine": "pizza", "name": "Pizza Hut"}}}, {"type": "Feature", "geometry": {"type": "Polygon", "coordinates": [[[-96.7836628, 34.0993348], [-96.7837875, 34.0993357], [-96.783789, 34.0991961], [-96.7839767, 34.0991975], [-96.7839774, 34.0991252], [-96.7838277, 34.0991241], [-96.7838281, 34.0990916], [-96.7839782, 34.0990927], [-96.7839793, 34.0989893], [-96.7836666, 34.098987], [-96.7836655, 34.0990885], [-96.7836432, 34.0990883], [-96.7836444, 34.098975], [-96.783452, 34.0989736], [-96.7834499, 34.0991674], [-96.7836646, 34.099169], [-96.7836628, 34.0993348]]]}, "properties": {"osm_id": 198275099, "building": "church", "name": "Oakview Baptist Church", "height": null, "height_m": null, "levels": null, "tract_id": "40095094700", "tract_name": "947", "tags": {"amenity": "place_of_worship", "building": "church", "denomination": "baptist", "name": "Oakview Baptist Church", "religion": "christian"}}}, {"type": "Feature", "geometry": {"type": "Polygon", "coordinates": [[[-96.7648483, 34.079271], [-96.7647033, 34.0793323], [-96.7645228, 34.0790398], [-96.7646679, 34.0789784], [-96.7648483, 34.079271]]]}, "properties": {"osm_id": 1010167184, "building": "yes", "name": "Madill Gaming Center", "height": null, "height_m": null, "levels": null, "tract_id": "40095094700", "tract_name": "947", "tags": {"addr:city": "Madill", "addr:housenumber": "902", "addr:postcode": "73446", "addr:state": "OK", "addr:street": "South 1st Street", "amenity": "casino", "building": "yes", "name": "Madill Gaming Center"}}}, {"type": "Feature", "geometry": {"type": "Polygon", "coordinates": [[[-96.772303, 34.0902758], [-96.7723969, 34.0899568], [-96.7722298, 34.0899214], [-96.7721303, 34.0902429], [-96.772303, 34.0902758]]]}, "properties": {"osm_id": 1026597314, "building": "yes", "name": "Blush Naturally", "height": null, "height_m": null, "levels": null, "tract_id": "40095094700", "tract_name": "947", "tags": {"addr:city": "Madill", "addr:housenumber": "211", "addr:postcode": "73446", "addr:state": "OK", "addr:street": "West Lillie Boulevard", "building": "yes", "name": "Blush Naturally", "shop": "beauty", "website": "http://www.blushnaturally.com/"}}}, {"type": "Feature", "geometry": {"type": "Polygon", "coordinates": [[[-96.7729347, 34.0899077], [-96.7730065, 34.0896712], [-96.772892, 34.0896474], [-96.7728534, 34.0897744], [-96.7727549, 34.0897539], [-96.7727217, 34.0898634], [-96.7729347, 34.0899077]]]}, "properties": {"osm_id": 1124843975, "building": "yes", "name": "", "height": null, "height_m": null, "levels": null, "tract_id": "40095094700", "tract_name": "947", "tags": {"addr:city": "Madill", "addr:housenumber": "111", "addr:postcode": "73446", "addr:state": "OK", "addr:street": "South 3rd Avenue", "building": "yes", "telecom": "exchange"}}}, {"type": "Feature", "geometry": {"type": "Polygon", "coordinates": [[[-96.7700115, 34.1129667], [-96.7700078, 34.1131928], [-96.7698492, 34.113191], [-96.769853, 34.1129649], [-96.7700115, 34.1129667]]]}, "properties": {"osm_id": 1134151038, "building": "yes", "name": "", "height": null, "height_m": null, "levels": null, "tract_id": "40095094700", "tract_name": "947", "tags": {"building": "yes"}}}, {"type": "Feature", "geometry": {"type": "Polygon", "coordinates": [[[-96.7596817, 34.0962786], [-96.7593412, 34.0963297], [-96.7593248, 34.0962547], [-96.7596653, 34.0962037], [-96.7596817, 34.0962786]]]}, "properties": {"osm_id": 1134151042, "building": "yes", "name": "", "height": null, "height_m": null, "levels": null, "tract_id": "40095094700", "tract_name": "947", "tags": {"building": "yes"}}}, {"type": "Feature", "geometry": {"type": "Polygon", "coordinates": [[[-96.7594725, 34.096448], [-96.7595719, 34.0964191], [-96.7596343, 34.0965662], [-96.7595349, 34.0965951], [-96.7594725, 34.096448]]]}, "properties": {"osm_id": 1134151043, "building": "yes", "name": "", "height": null, "height_m": null, "levels": null, "tract_id": "40095094700", "tract_name": "947", "tags": {"building": "yes"}}}, {"type": "Feature", "geometry": {"type": "Polygon", "coordinates": [[[-96.7591144, 34.0946777], [-96.7588033, 34.0947355], [-96.7587658, 34.094597], [-96.7590769, 34.0945393], [-96.7591144, 34.0946777]]]}, "properties": {"osm_id": 1134151044, "building": "yes", "name": "", "height": null, "height_m": null, "levels": null, "tract_id": "40095094700", "tract_name": "947", "tags": {"building": "yes"}}}, {"type": "Feature", "geometry": {"type": "Polygon", "coordinates": [[[-96.759675, 34.0944689], [-96.7595299, 34.094507], [-96.7594628, 34.0943315], [-96.7596079, 34.0942935], [-96.759675, 34.0944689]]]}, "properties": {"osm_id": 1134151045, "building": "yes", "name": "", "height": null, "height_m": null, "levels": null, "tract_id": "40095094700", "tract_name": "947", "tags": {"building": "yes"}}}, {"type": "Feature", "geometry": {"type": "Polygon", "coordinates": [[[-96.7749354, 34.1114204], [-96.7736292, 34.1114204], [-96.7736292, 34.1107919], [-96.7749354, 34.1107919], [-96.7749354, 34.1114204]]]}, "properties": {"osm_id": 1134151047, "building": "yes", "name": "", "height": null, "height_m": null, "levels": null, "tract_id": "40095094700", "tract_name": "947", "tags": {"building": "yes"}}}, {"type": "Feature", "geometry": {"type": "Polygon", "coordinates": [[[-96.7707417, 34.1155403], [-96.7707398, 34.1150049], [-96.7710147, 34.1150042], [-96.7710166, 34.1155397], [-96.7707417, 34.1155403]]]}, "properties": {"osm_id": 1134151069, "building": "yes", "name": "", "height": null, "height_m": null, "levels": null, "tract_id": "40095094700", "tract_name": "947", "tags": {"building": "yes"}}}, {"type": "Feature", "geometry": {"type": "Polygon", "coordinates": [[[-96.7717754, 34.1136859], [-96.7717716, 34.1140361], [-96.7715542, 34.1140344], [-96.771558, 34.1136843], [-96.7717754, 34.1136859]]]}, "properties": {"osm_id": 1134151070, "building": "yes", "name": "", "height": null, "height_m": null, "levels": null, "tract_id": "40095094700", "tract_name": "947", "tags": {"building": "yes"}}}, {"type": "Feature", "geometry": {"type": "Polygon", "coordinates": [[[-96.7730025, 34.1138743], [-96.7730005, 34.1137294], [-96.7736586, 34.1137231], [-96.7736606, 34.113868], [-96.7730025, 34.1138743]]]}, "properties": {"osm_id": 1134151071, "building": "yes", "name": "", "height": null, "height_m": null, "levels": null, "tract_id": "40095094700", "tract_name": "947", "tags": {"building": "yes"}}}, {"type": "Feature", "geometry": {"type": "Polygon", "coordinates": [[[-96.7756127, 34.109908], [-96.775378, 34.1099092], [-96.7753772, 34.1097883], [-96.7756118, 34.1097872], [-96.7756127, 34.109908]]]}, "properties": {"osm_id": 1134151081, "building": "yes", "name": "", "height": null, "height_m": null, "levels": null, "tract_id": "40095094700", "tract_name": "947", "tags": {"building": "yes"}}}, {"type": "Feature", "geometry": {"type": "Polygon", "coordinates": [[[-96.7599102, 34.0966972], [-96.7595328, 34.0969406], [-96.7594387, 34.0968406], [-96.7598161, 34.0965972], [-96.7599102, 34.0966972]]]}, "properties": {"osm_id": 1134151082, "building": "yes", "name": "", "height": null, "height_m": null, "levels": null, "tract_id": "40095094700", "tract_name": "947", "tags": {"building": "yes"}}}, {"type": "Feature", "geometry": {"type": "Polygon", "coordinates": [[[-96.7625484, 34.090732], [-96.7620307, 34.0907323], [-96.76203, 34.0899235], [-96.7625476, 34.0899232], [-96.7625484, 34.090732]]]}, "properties": {"osm_id": 1134151083, "building": "yes", "name": "", "height": null, "height_m": null, "levels": null, "tract_id": "40095094700", "tract_name": "947", "tags": {"building": "yes"}}}, {"type": "Feature", "geometry": {"type": "Polygon", "coordinates": [[[-96.7532417, 34.0756993], [-96.7534729, 34.0756952], [-96.7534861, 34.0762104], [-96.753255, 34.0762145], [-96.7532417, 34.0756993]]]}, "properties": {"osm_id": 1134151085, "building": "yes", "name": "", "height": null, "height_m": null, "levels": null, "tract_id": "40095094700", "tract_name": "947", "tags": {"building": "yes"}}}, {"type": "Feature", "geometry": {"type": "Polygon", "coordinates": [[[-96.7516123, 34.0757868], [-96.7515801, 34.0759212], [-96.7514509, 34.0759], [-96.7514831, 34.0757656], [-96.7516123, 34.0757868]]]}, "properties": {"osm_id": 1134151086, "building": "yes", "name": "", "height": null, "height_m": null, "levels": null, "tract_id": "40095094700", "tract_name": "947", "tags": {"building": "yes"}}}, {"type": "Feature", "geometry": {"type": "Polygon", "coordinates": [[[-96.7510879, 34.0763589], [-96.7504308, 34.0763389], [-96.7504405, 34.0761183], [-96.7510977, 34.0761383], [-96.7510879, 34.0763589]]]}, "properties": {"osm_id": 1134151087, "building": "yes", "name": "", "height": null, "height_m": null, "levels": null, "tract_id": "40095094700", "tract_name": "947", "tags": {"building": "yes"}}}, {"type": "Feature", "geometry": {"type": "Polygon", "coordinates": [[[-96.7515734, 34.0763633], [-96.7512059, 34.0763544], [-96.7512123, 34.0761733], [-96.7515798, 34.0761822], [-96.7515734, 34.0763633]]]}, "properties": {"osm_id": 1134151088, "building": "yes", "name": "", "height": null, "height_m": null, "levels": null, "tract_id": "40095094700", "tract_name": "947", "tags": {"building": "yes"}}}, {"type": "Feature", "geometry": {"type": "Polygon", "coordinates": [[[-96.7506943, 34.0890369], [-96.7506929, 34.0891313], [-96.7506135, 34.0891305], [-96.7506149, 34.0890361], [-96.7506943, 34.0890369]]]}, "properties": {"osm_id": 1134151108, "building": "yes", "name": "", "height": null, "height_m": null, "levels": null, "tract_id": "40095094700", "tract_name": "947", "tags": {"building": "yes"}}}, {"type": "Feature", "geometry": {"type": "Polygon", "coordinates": [[[-96.7725857, 34.1003228], [-96.7725833, 34.1003695], [-96.7725356, 34.1003678], [-96.772538, 34.1003211], [-96.7725857, 34.1003228]]]}, "properties": {"osm_id": 1134151117, "building": "yes", "name": "", "height": null, "height_m": null, "levels": null, "tract_id": "40095094700", "tract_name": "947", "tags": {"building": "yes"}}}, {"type": "Feature", "geometry": {"type": "Polygon", "coordinates": [[[-96.7731836, 34.1003063], [-96.7730148, 34.1003086], [-96.7730133, 34.1002314], [-96.773182, 34.100229], [-96.7731836, 34.1003063]]]}, "properties": {"osm_id": 1134151118, "building": "yes", "name": "", "height": null, "height_m": null, "levels": null, "tract_id": "40095094700", "tract_name": "947", "tags": {"building": "yes"}}}, {"type": "Feature", "geometry": {"type": "Polygon", "coordinates": [[[-96.771014, 34.0980849], [-96.7708249, 34.0981382], [-96.7707947, 34.0980646], [-96.7709838, 34.0980113], [-96.771014, 34.0980849]]]}, "properties": {"osm_id": 1134151119, "building": "yes", "name": "", "height": null, "height_m": null, "levels": null, "tract_id": "40095094700", "tract_name": "947", "tags": {"building": "yes"}}}, {"type": "Feature", "geometry": {"type": "Polygon", "coordinates": [[[-96.7728716, 34.0977825], [-96.7727512, 34.0979474], [-96.7726591, 34.0979012], [-96.7727795, 34.0977363], [-96.7728716, 34.0977825]]]}, "properties": {"osm_id": 1134151120, "building": "yes", "name": "", "height": null, "height_m": null, "levels": null, "tract_id": "40095094700", "tract_name": "947", "tags": {"building": "yes"}}}, {"type": "Feature", "geometry": {"type": "Polygon", "coordinates": [[[-96.7731097, 34.0980997], [-96.7729731, 34.0981405], [-96.7729323, 34.098047], [-96.7730689, 34.0980062], [-96.7731097, 34.0980997]]]}, "properties": {"osm_id": 1134151121, "building": "yes", "name": "", "height": null, "height_m": null, "levels": null, "tract_id": "40095094700", "tract_name": "947", "tags": {"building": "yes"}}}, {"type": "Feature", "geometry": {"type": "Polygon", "coordinates": [[[-96.7732047, 34.0976763], [-96.7730449, 34.0977248], [-96.7729658, 34.097546], [-96.7731256, 34.0974975], [-96.7732047, 34.0976763]]]}, "properties": {"osm_id": 1134151122, "building": "yes", "name": "", "height": null, "height_m": null, "levels": null, "tract_id": "40095094700", "tract_name": "947", "tags": {"building": "yes"}}}, {"type": "Feature", "geometry": {"type": "Polygon", "coordinates": [[[-96.7750044, 34.0972445], [-96.775114, 34.0972118], [-96.7751595, 34.0973162], [-96.7750499, 34.097349], [-96.7750044, 34.0972445]]]}, "properties": {"osm_id": 1134151123, "building": "roof", "name": "", "height": null, "height_m": null, "levels": null, "tract_id": "40095094700", "tract_name": "947", "tags": {"building": "roof", "layer": "1"}}}, {"type": "Feature", "geometry": {"type": "Polygon", "coordinates": [[[-96.7739982, 34.0968323], [-96.7741242, 34.0967954], [-96.7742361, 34.0970577], [-96.7741101, 34.0970946], [-96.7739982, 34.0968323]]]}, "properties": {"osm_id": 1134151124, "building": "yes", "name": "", "height": null, "height_m": null, "levels": null, "tract_id": "40095094700", "tract_name": "947", "tags": {"building": "yes"}}}, {"type": "Feature", "geometry": {"type": "Polygon", "coordinates": [[[-96.7789695, 34.0984803], [-96.7789688, 34.0986213], [-96.7788661, 34.098621], [-96.7788668, 34.09848], [-96.7789695, 34.0984803]]]}, "properties": {"osm_id": 1134151125, "building": "yes", "name": "", "height": null, "height_m": null, "levels": null, "tract_id": "40095094700", "tract_name": "947", "tags": {"building": "yes"}}}, {"type": "Feature", "geometry": {"type": "Polygon", "coordinates": [[[-96.778056, 34.0990703], [-96.7777744, 34.0990601], [-96.7777882, 34.0987979], [-96.7780699, 34.0988082], [-96.778056, 34.0990703]]]}, "properties": {"osm_id": 1134151129, "building": "yes", "name": "", "height": null, "height_m": null, "levels": null, "tract_id": "40095094700", "tract_name": "947", "tags": {"building": "yes"}}}, {"type": "Feature", "geometry": {"type": "Polygon", "coordinates": [[[-96.7771778, 34.1011355], [-96.7771889, 34.1009678], [-96.777433, 34.1009789], [-96.7774218, 34.1011466], [-96.7771778, 34.1011355]]]}, "properties": {"osm_id": 1134151131, "building": "yes", "name": "", "height": null, "height_m": null, "levels": null, "tract_id": "40095094700", "tract_name": "947", "tags": {"building": "yes"}}}, {"type": "Feature", "geometry": {"type": "Polygon", "coordinates": [[[-96.7778108, 34.1004026], [-96.7771362, 34.1003993], [-96.7771381, 34.1001256], [-96.7778127, 34.1001289], [-96.7778108, 34.1004026]]]}, "properties": {"osm_id": 1134151132, "building": "yes", "name": "", "height": null, "height_m": null, "levels": null, "tract_id": "40095094700", "tract_name": "947", "tags": {"building": "yes"}}}, {"type": "Feature", "geometry": {"type": "Polygon", "coordinates": [[[-96.7778966, 34.1004648], [-96.7778966, 34.1001938], [-96.7788863, 34.1001938], [-96.7788863, 34.1004648], [-96.7778966, 34.1004648]]]}, "properties": {"osm_id": 1134151133, "building": "yes", "name": "", "height": null, "height_m": null, "levels": null, "tract_id": "40095094700", "tract_name": "947", "tags": {"building": "yes"}}}, {"type": "Feature", "geometry": {"type": "Polygon", "coordinates": [[[-96.7827293, 34.0973977], [-96.7824675, 34.0974032], [-96.7824629, 34.0972524], [-96.7827246, 34.0972469], [-96.7827293, 34.0973977]]]}, "properties": {"osm_id": 1134151134, "building": "yes", "name": "", "height": null, "height_m": null, "levels": null, "tract_id": "40095094700", "tract_name": "947", "tags": {"building": "yes"}}}, {"type": "Feature", "geometry": {"type": "Polygon", "coordinates": [[[-96.7910724, 34.0918982], [-96.7909662, 34.0917356], [-96.7910933, 34.0916787], [-96.7911995, 34.0918413], [-96.7910724, 34.0918982]]]}, "properties": {"osm_id": 1134151135, "building": "yes", "name": "", "height": null, "height_m": null, "levels": null, "tract_id": "40095094700", "tract_name": "947", "tags": {"building": "yes"}}}, {"type": "Feature", "geometry": {"type": "Polygon", "coordinates": [[[-96.7892008, 34.0911238], [-96.7892651, 34.0912326], [-96.7891622, 34.0912744], [-96.7890978, 34.0911655], [-96.7892008, 34.0911238]]]}, "properties": {"osm_id": 1134151137, "building": "yes", "name": "", "height": null, "height_m": null, "levels": null, "tract_id": "40095094700", "tract_name": "947", "tags": {"building": "yes"}}}, {"type": "Feature", "geometry": {"type": "Polygon", "coordinates": [[[-96.7929062, 34.0865173], [-96.7929035, 34.0863613], [-96.7929907, 34.0863602], [-96.7929934, 34.0865163], [-96.7929062, 34.0865173]]]}, "properties": {"osm_id": 1134151139, "building": "yes", "name": "", "height": null, "height_m": null, "levels": null, "tract_id": "40095094700", "tract_name": "947", "tags": {"building": "yes"}}}, {"type": "Feature", "geometry": {"type": "Polygon", "coordinates": [[[-96.7752707, 34.0844531], [-96.7752846, 34.0843319], [-96.7756373, 34.0843596], [-96.7756234, 34.0844808], [-96.7752707, 34.0844531]]]}, "properties": {"osm_id": 1134151140, "building": "yes", "name": "", "height": null, "height_m": null, "levels": null, "tract_id": "40095094700", "tract_name": "947", "tags": {"building": "yes"}}}, {"type": "Feature", "geometry": {"type": "Polygon", "coordinates": [[[-96.7736274, 34.085236], [-96.7736456, 34.0850927], [-96.7739709, 34.0851209], [-96.7739527, 34.0852643], [-96.7736274, 34.085236]]]}, "properties": {"osm_id": 1134151141, "building": "yes", "name": "", "height": null, "height_m": null, "levels": null, "tract_id": "40095094700", "tract_name": "947", "tags": {"building": "yes"}}}, {"type": "Feature", "geometry": {"type": "Polygon", "coordinates": [[[-96.774038, 34.0852761], [-96.7740575, 34.0851217], [-96.7743838, 34.08515], [-96.7743643, 34.0853043], [-96.774038, 34.0852761]]]}, "properties": {"osm_id": 1134151142, "building": "yes", "name": "", "height": null, "height_m": null, "levels": null, "tract_id": "40095094700", "tract_name": "947", "tags": {"building": "yes"}}}, {"type": "Feature", "geometry": {"type": "Polygon", "coordinates": [[[-96.7723008, 34.0873597], [-96.7724687, 34.0873966], [-96.7724042, 34.0875977], [-96.7722363, 34.0875607], [-96.7723008, 34.0873597]]]}, "properties": {"osm_id": 1134151144, "building": "yes", "name": "", "height": null, "height_m": null, "levels": null, "tract_id": "40095094700", "tract_name": "947", "tags": {"building": "yes"}}}, {"type": "Feature", "geometry": {"type": "Polygon", "coordinates": [[[-96.7722154, 34.0880995], [-96.7717754, 34.0880178], [-96.7718778, 34.0876395], [-96.7723178, 34.0877211], [-96.7722154, 34.0880995]]]}, "properties": {"osm_id": 1134151145, "building": "yes", "name": "", "height": null, "height_m": null, "levels": null, "tract_id": "40095094700", "tract_name": "947", "tags": {"building": "yes"}}}, {"type": "Feature", "geometry": {"type": "Polygon", "coordinates": [[[-96.7640111, 34.0852116], [-96.7639196, 34.085216], [-96.763915, 34.0851491], [-96.7640066, 34.0851448], [-96.7640111, 34.0852116]]]}, "properties": {"osm_id": 1134151146, "building": "yes", "name": "", "height": null, "height_m": null, "levels": null, "tract_id": "40095094700", "tract_name": "947", "tags": {"building": "yes"}}}, {"type": "Feature", "geometry": {"type": "Polygon", "coordinates": [[[-96.7638928, 34.0852594], [-96.7636983, 34.0852594], [-96.7636983, 34.0851661], [-96.7638928, 34.0851661], [-96.7638928, 34.0852594]]]}, "properties": {"osm_id": 1134151147, "building": "yes", "name": "", "height": null, "height_m": null, "levels": null, "tract_id": "40095094700", "tract_name": "947", "tags": {"building": "yes"}}}, {"type": "Feature", "geometry": {"type": "Polygon", "coordinates": [[[-96.7629533, 34.0836628], [-96.7629521, 34.083617], [-96.763119, 34.0836139], [-96.7631202, 34.0836597], [-96.7629533, 34.0836628]]]}, "properties": {"osm_id": 1134151148, "building": "yes", "name": "", "height": null, "height_m": null, "levels": null, "tract_id": "40095094700", "tract_name": "947", "tags": {"building": "yes"}}}, {"type": "Feature", "geometry": {"type": "Polygon", "coordinates": [[[-96.7618969, 34.0811786], [-96.7616466, 34.0812563], [-96.7615964, 34.0811455], [-96.7618467, 34.0810677], [-96.7618969, 34.0811786]]]}, "properties": {"osm_id": 1134151149, "building": "yes", "name": "", "height": null, "height_m": null, "levels": null, "tract_id": "40095094700", "tract_name": "947", "tags": {"building": "yes"}}}, {"type": "Feature", "geometry": {"type": "Polygon", "coordinates": [[[-96.7651816, 34.079779], [-96.7650166, 34.0798697], [-96.7648288, 34.0796353], [-96.7649938, 34.0795447], [-96.7651816, 34.079779]]]}, "properties": {"osm_id": 1134151150, "building": "yes", "name": "", "height": null, "height_m": null, "levels": null, "tract_id": "40095094700", "tract_name": "947", "tags": {"building": "yes"}}}, {"type": "Feature", "geometry": {"type": "Polygon", "coordinates": [[[-96.7760811, 34.0969155], [-96.7761252, 34.09676], [-96.776065, 34.0967483], [-96.7760604, 34.0967645], [-96.7759951, 34.0967518], [-96.7759556, 34.0968911], [-96.7760811, 34.0969155]]]}, "properties": {"osm_id": 1150267053, "building": "yes", "name": "", "height": null, "height_m": null, "levels": null, "tract_id": "40095094700", "tract_name": "947", "tags": {"addr:housenumber": "612", "addr:street": "West Donehoo Street", "amenity": "place_of_worship", "building": "yes", "denomination": "jehovahs_witness", "religion": "christian"}}}, {"type": "Feature", "geometry": {"type": "Polygon", "coordinates": [[[-96.7709777, 34.0859568], [-96.7709071, 34.086194], [-96.7710108, 34.0862152], [-96.7710301, 34.0861505], [-96.7711354, 34.086172], [-96.7711867, 34.0859995], [-96.7709777, 34.0859568]]]}, "properties": {"osm_id": 1154887449, "building": "church", "name": "", "height": null, "height_m": null, "levels": null, "tract_id": "40095094700", "tract_name": "947", "tags": {"addr:city": "Madill", "addr:housenumber": "12", "addr:postcode": "73446", "addr:state": "OK", "addr:street": "West Francis Street", "building": "church"}}}, {"type": "Feature", "geometry": {"type": "Polygon", "coordinates": [[[-96.7708115, 34.0908507], [-96.7707126, 34.090629], [-96.7704652, 34.0907047], [-96.7705642, 34.0909264], [-96.7708115, 34.0908507]]]}, "properties": {"osm_id": 1211933904, "building": "yes", "name": "", "height": null, "height_m": null, "levels": null, "tract_id": "40095094700", "tract_name": "947", "tags": {"building": "yes"}}}, {"type": "Feature", "geometry": {"type": "Polygon", "coordinates": [[[-96.7637884, 34.0812081], [-96.7636672, 34.0813026], [-96.7636421, 34.0812806], [-96.7636038, 34.0813103], [-96.7631761, 34.0809348], [-96.7632233, 34.080898], [-96.7632095, 34.080886], [-96.7633255, 34.0807954], [-96.763345, 34.0808124], [-96.763383, 34.0807827], [-96.7638089, 34.0811569], [-96.7637672, 34.0811894], [-96.7637884, 34.0812081]]]}, "properties": {"osm_id": 1225865488, "building": "yes", "name": "Best Western Plus Sand Bass Inn & Suites", "height": null, "height_m": null, "levels": null, "tract_id": "40095094700", "tract_name": "947", "tags": {"addr:city": "Madill", "addr:housenumber": "827", "addr:postcode": "73446", "addr:street": "South 1st Street", "branch": "Sand Bass Inn & Suites", "brand": "Best Western Plus", "brand:wikidata": "Q830334", "building": "yes", "name": "Best Western Plus Sand Bass Inn & Suites", "phone": "+1 580-677-9890", "ref": "37123", "tourism": "hotel", "website": "https://www.bestwestern.com/en_US/book/hotels-in-madill/best-western-plus-sand-bass-inn-suites/propertyCode.37123.html"}}}, {"type": "Feature", "geometry": {"type": "Polygon", "coordinates": [[[-96.7692202, 34.09353], [-96.7691716, 34.0934201], [-96.7691012, 34.0934414], [-96.7690497, 34.0933251], [-96.7690982, 34.0933104], [-96.7690823, 34.0932746], [-96.7691398, 34.0932571], [-96.7691107, 34.0931916], [-96.76916, 34.093178], [-96.7691036, 34.0930504], [-96.7692332, 34.0930102], [-96.7692982, 34.0931523], [-96.7695353, 34.0930797], [-96.7696193, 34.0932681], [-96.7696574, 34.0932786], [-96.7696657, 34.0932937], [-96.7696436, 34.0933307], [-96.7696891, 34.093434], [-96.7695225, 34.0934844], [-96.7695046, 34.0934439], [-96.7692202, 34.09353]]]}, "properties": {"osm_id": 1281864794, "building": "yes", "name": "Marshall County Sheriffs Office", "height": null, "height_m": null, "levels": null, "tract_id": "40095094700", "tract_name": "947", "tags": {"addr:city": "Madill", "addr:housenumber": "207", "addr:postcode": "73446", "addr:state": "OK", "addr:street": "North 4th Street", "amenity": "police", "building": "yes", "emergency": "psap", "name": "Marshall County Sheriffs Office"}}}, {"type": "Feature", "geometry": {"type": "Polygon", "coordinates": [[[-96.7647202, 34.080611], [-96.7645043, 34.0807809], [-96.7644092, 34.080698], [-96.7646251, 34.0805281], [-96.7647202, 34.080611]]]}, "properties": {"osm_id": 1286124004, "building": "retail", "name": "Braum's", "height": null, "height_m": null, "levels": null, "tract_id": "40095094700", "tract_name": "947", "tags": {"amenity": "fast_food", "brand": "Braum's", "brand:wikidata": "Q4958263", "building": "retail", "cuisine": "ice_cream;burger", "name": "Braum's", "shop": "dairy", "takeaway": "yes"}}}, {"type": "Feature", "geometry": {"type": "Polygon", "coordinates": [[[-96.7659862, 34.0695004], [-96.7659876, 34.0706313], [-96.7657556, 34.0706314], [-96.7657555, 34.0705174], [-96.7651321, 34.0705179], [-96.7651308, 34.0694728], [-96.7655691, 34.0694724], [-96.7655692, 34.0695007], [-96.7659862, 34.0695004]]]}, "properties": {"osm_id": 1286124005, "building": "yes", "name": "Walmart Supercenter", "height": null, "height_m": null, "levels": null, "tract_id": "40095094700", "tract_name": "947", "tags": {"addr:city": "Madill", "addr:country": "US", "addr:housenumber": "1100", "addr:postcode": "73446", "addr:state": "OK", "addr:street": "South 1st Street", "brand": "Walmart", "brand:wikidata": "Q483551", "building": "yes", "name": "Walmart Supercenter", "opening_hours": "Mo-Su 06:00-01:00", "operator": "Walmart", "payment:app:walmart": "yes", "payment:apple_pay": "no", "payment:google_pay": "no", "payment:samsung_pay": "no", "phone": "+1 580-795-7383", "ref": "1295", "ref:walmart": "1295", "sensory_friendly:accommodation": "dimmed_light;static_screens;no_pa", "sensory_friendly:conditional": "yes @ 08:00-10:00", "shop": "supermarket", "website": "https://www.walmart.com/store/1295-madill-ok"}}}, {"type": "Feature", "geometry": {"type": "Polygon", "coordinates": [[[-96.7638425, 34.0795652], [-96.7638801, 34.0796388], [-96.7636521, 34.0797187], [-96.7636467, 34.0797082], [-96.7636204, 34.0797174], [-96.7635917, 34.0796611], [-96.7636179, 34.0796519], [-96.7636145, 34.0796452], [-96.7638425, 34.0795652]]]}, "properties": {"osm_id": 1286124007, "building": "retail", "name": "Taco Bell", "height": null, "height_m": null, "levels": null, "tract_id": "40095094700", "tract_name": "947", "tags": {"amenity": "fast_food", "brand": "Taco Bell", "brand:wikidata": "Q752941", "building": "retail", "cuisine": "tex-mex", "name": "Taco Bell", "takeaway": "yes"}}}, {"type": "Feature", "geometry": {"type": "Polygon", "coordinates": [[[-96.7703718, 34.0914303], [-96.770704, 34.0913205], [-96.7708163, 34.0915924], [-96.7705578, 34.0916656], [-96.770543, 34.0916298], [-96.770471, 34.0916504], [-96.7703718, 34.0914303]]]}, "properties": {"osm_id": 1364396180, "building": "yes", "name": "", "height": null, "height_m": null, "levels": null, "tract_id": "40095094700", "tract_name": "947", "tags": {"building": "yes"}}}, {"type": "Feature", "geometry": {"type": "Polygon", "coordinates": [[[-96.7701885, 34.0914042], [-96.7700375, 34.0910822], [-96.7695876, 34.0912236], [-96.7696513, 34.0913628], [-96.7698041, 34.0913148], [-96.7698876, 34.091497], [-96.7701885, 34.0914042]]]}, "properties": {"osm_id": 1364396181, "building": "yes", "name": "", "height": null, "height_m": null, "levels": null, "tract_id": "40095094700", "tract_name": "947", "tags": {"building": "yes"}}}, {"type": "Feature", "geometry": {"type": "Polygon", "coordinates": [[[-96.7709616, 34.0912162], [-96.7714067, 34.0910942], [-96.7712628, 34.090734], [-96.7717737, 34.090594], [-96.7718584, 34.090806], [-96.7716359, 34.090867], [-96.7716477, 34.0908966], [-96.7717149, 34.0908783], [-96.7717429, 34.0909484], [-96.77169, 34.0909629], [-96.771717, 34.0910304], [-96.7715277, 34.0910822], [-96.7715514, 34.0911416], [-96.7716932, 34.0911027], [-96.7717038, 34.0911293], [-96.7719742, 34.0910553], [-96.7720056, 34.0911338], [-96.7715394, 34.0912615], [-96.7716429, 34.0915206], [-96.7711384, 34.0916589], [-96.7709616, 34.0912162]]]}, "properties": {"osm_id": 1364396183, "building": "yes", "name": "", "height": null, "height_m": null, "levels": null, "tract_id": "40095094700", "tract_name": "947", "tags": {"building": "yes"}}}, {"type": "Feature", "geometry": {"type": "Polygon", "coordinates": [[[-96.7725729, 34.0909912], [-96.7722448, 34.0909301], [-96.772112, 34.0906428], [-96.7721439, 34.0906018], [-96.7728348, 34.0907302], [-96.7727795, 34.090934], [-96.7725976, 34.0909002], [-96.7725729, 34.0909912]]]}, "properties": {"osm_id": 1364396184, "building": "yes", "name": "", "height": null, "height_m": null, "levels": null, "tract_id": "40095094700", "tract_name": "947", "tags": {"building": "yes"}}}, {"type": "Feature", "geometry": {"type": "Polygon", "coordinates": [[[-96.7721303, 34.0902429], [-96.7719473, 34.0902041], [-96.7720639, 34.089827], [-96.772247, 34.0898659], [-96.7722298, 34.0899214], [-96.7721303, 34.0902429]]]}, "properties": {"osm_id": 1364396185, "building": "yes", "name": "", "height": null, "height_m": null, "levels": null, "tract_id": "40095094700", "tract_name": "947", "tags": {"building": "yes"}}}, {"type": "Feature", "geometry": {"type": "Polygon", "coordinates": [[[-96.7716498, 34.0902963], [-96.7715831, 34.0901459], [-96.7714324, 34.0901918], [-96.7711044, 34.0902914], [-96.7711711, 34.0904419], [-96.7716498, 34.0902963]]]}, "properties": {"osm_id": 1364396186, "building": "yes", "name": "", "height": null, "height_m": null, "levels": null, "tract_id": "40095094700", "tract_name": "947", "tags": {"building": "yes"}}}, {"type": "Feature", "geometry": {"type": "Polygon", "coordinates": [[[-96.7711044, 34.0902914], [-96.7710015, 34.0900791], [-96.7713449, 34.0899792], [-96.7714324, 34.0901918], [-96.7711044, 34.0902914]]]}, "properties": {"osm_id": 1364396187, "building": "yes", "name": "", "height": null, "height_m": null, "levels": null, "tract_id": "40095094700", "tract_name": "947", "tags": {"building": "yes"}}}, {"type": "Feature", "geometry": {"type": "Polygon", "coordinates": [[[-96.7698858, 34.0906947], [-96.7697825, 34.090445], [-96.7701628, 34.0903371], [-96.7699977, 34.0899379], [-96.7697735, 34.0900016], [-96.7698756, 34.0902482], [-96.7697022, 34.0902974], [-96.7697681, 34.0904568], [-96.7695789, 34.0905105], [-96.7696544, 34.090693], [-96.7696318, 34.0906994], [-96.7696068, 34.0906388], [-96.7693553, 34.0907101], [-96.7693794, 34.0907684], [-96.7695536, 34.0907189], [-96.7695795, 34.0907816], [-96.7698858, 34.0906947]]]}, "properties": {"osm_id": 1364396188, "building": "yes", "name": "", "height": null, "height_m": null, "levels": null, "tract_id": "40095094700", "tract_name": "947", "tags": {"building": "yes"}}}, {"type": "Feature", "geometry": {"type": "Polygon", "coordinates": [[[-96.7709451, 34.0901026], [-96.7705509, 34.0902169], [-96.7705134, 34.0901946], [-96.7703555, 34.0898207], [-96.7710918, 34.0896075], [-96.7712402, 34.0899591], [-96.7709233, 34.0900509], [-96.7709451, 34.0901026]]]}, "properties": {"osm_id": 1364396189, "building": "yes", "name": "", "height": null, "height_m": null, "levels": null, "tract_id": "40095094700", "tract_name": "947", "tags": {"building": "yes"}}}, {"type": "Feature", "geometry": {"type": "Polygon", "coordinates": [[[-96.7718638, 34.0895385], [-96.7717992, 34.0897886], [-96.771773, 34.0897839], [-96.7716443, 34.0894996], [-96.7718638, 34.0895385]]]}, "properties": {"osm_id": 1364396190, "building": "yes", "name": "", "height": null, "height_m": null, "levels": null, "tract_id": "40095094700", "tract_name": "947", "tags": {"building": "yes"}}}, {"type": "Feature", "geometry": {"type": "Polygon", "coordinates": [[[-96.7724328, 34.0913322], [-96.7723282, 34.0910834], [-96.7726876, 34.09115], [-96.7726394, 34.0913655], [-96.7724328, 34.0913322]]]}, "properties": {"osm_id": 1364396191, "building": "yes", "name": "", "height": null, "height_m": null, "levels": null, "tract_id": "40095094700", "tract_name": "947", "tags": {"building": "yes"}}}, {"type": "Feature", "geometry": {"type": "Polygon", "coordinates": [[[-96.7661669, 34.0818494], [-96.766263, 34.081937], [-96.7661593, 34.082015], [-96.766129, 34.0819874], [-96.7659009, 34.0821589], [-96.7658244, 34.0820892], [-96.7657953, 34.082111], [-96.7657008, 34.0820248], [-96.7657673, 34.0819748], [-96.7659018, 34.0820976], [-96.7661168, 34.0819359], [-96.7660874, 34.0819091], [-96.7661669, 34.0818494]]]}, "properties": {"osm_id": 1364396192, "building": "yes", "name": "", "height": null, "height_m": null, "levels": null, "tract_id": "40095094700", "tract_name": "947", "tags": {"building": "yes"}}}, {"type": "Feature", "geometry": {"type": "Polygon", "coordinates": [[[-96.7657409, 34.0819212], [-96.765702, 34.0818864], [-96.765907, 34.0817289], [-96.7658673, 34.0816934], [-96.765609, 34.0818919], [-96.7656877, 34.0819621], [-96.7657409, 34.0819212]]]}, "properties": {"osm_id": 1364396193, "building": "yes", "name": "", "height": null, "height_m": null, "levels": null, "tract_id": "40095094700", "tract_name": "947", "tags": {"building": "yes"}}}, {"type": "Feature", "geometry": {"type": "Polygon", "coordinates": [[[-96.7708671, 34.0862793], [-96.770519, 34.0862083], [-96.7706256, 34.0858498], [-96.7709737, 34.0859208], [-96.7708671, 34.0862793]]]}, "properties": {"osm_id": 1364396194, "building": "yes", "name": "", "height": null, "height_m": null, "levels": null, "tract_id": "40095094700", "tract_name": "947", "tags": {"building": "yes"}}}, {"type": "Feature", "geometry": {"type": "Polygon", "coordinates": [[[-96.7718073, 34.0890671], [-96.7718012, 34.0890881], [-96.771651, 34.089058], [-96.7716598, 34.0890279], [-96.7716203, 34.08902], [-96.7715107, 34.0890557], [-96.7713742, 34.0887685], [-96.7714495, 34.0887439], [-96.7714516, 34.0887658], [-96.7717729, 34.0886728], [-96.7719249, 34.0890331], [-96.7718073, 34.0890671]]]}, "properties": {"osm_id": 1364396195, "building": "yes", "name": "", "height": null, "height_m": null, "levels": null, "tract_id": "40095094700", "tract_name": "947", "tags": {"building": "yes"}}}, {"type": "Feature", "geometry": {"type": "Polygon", "coordinates": [[[-96.7704951, 34.084303], [-96.7700533, 34.0842994], [-96.7700621, 34.0835726], [-96.770503, 34.0835763], [-96.7704993, 34.0838789], [-96.7704418, 34.0838784], [-96.7704382, 34.0841696], [-96.7704968, 34.0841701], [-96.7704951, 34.084303]]]}, "properties": {"osm_id": 1364396196, "building": "yes", "name": "", "height": null, "height_m": null, "levels": null, "tract_id": "40095094700", "tract_name": "947", "tags": {"building": "yes"}}}, {"type": "Feature", "geometry": {"type": "Polygon", "coordinates": [[[-96.7739547, 34.0957082], [-96.7740271, 34.0958616], [-96.7738504, 34.0959188], [-96.7738217, 34.0958581], [-96.7736406, 34.0959168], [-96.7737099, 34.0960635], [-96.7736551, 34.0960813], [-96.773542, 34.0958418], [-96.7739547, 34.0957082]]]}, "properties": {"osm_id": 1364396197, "building": "yes", "name": "", "height": null, "height_m": null, "levels": null, "tract_id": "40095094700", "tract_name": "947", "tags": {"building": "yes"}}}, {"type": "Feature", "geometry": {"type": "Polygon", "coordinates": [[[-96.7736876, 34.0961114], [-96.7740905, 34.0959894], [-96.7741278, 34.0960739], [-96.7737249, 34.0961958], [-96.7736876, 34.0961114]]]}, "properties": {"osm_id": 1364396198, "building": "yes", "name": "", "height": null, "height_m": null, "levels": null, "tract_id": "40095094700", "tract_name": "947", "tags": {"building": "yes"}}}, {"type": "Feature", "geometry": {"type": "Polygon", "coordinates": [[[-96.7746078, 34.0958444], [-96.7748709, 34.0959079], [-96.7747681, 34.0962001], [-96.774685, 34.0961801], [-96.7747052, 34.0961229], [-96.7746028, 34.0960982], [-96.7746464, 34.0959746], [-96.7745685, 34.0959558], [-96.7746078, 34.0958444]]]}, "properties": {"osm_id": 1364396199, "building": "yes", "name": "", "height": null, "height_m": null, "levels": null, "tract_id": "40095094700", "tract_name": "947", "tags": {"building": "yes"}}}, {"type": "Feature", "geometry": {"type": "Polygon", "coordinates": [[[-96.772303, 34.0902758], [-96.7725045, 34.0903165], [-96.7726169, 34.0899349], [-96.7724154, 34.0898942], [-96.7723969, 34.0899568], [-96.772303, 34.0902758]]]}, "properties": {"osm_id": 1364396200, "building": "yes", "name": "", "height": null, "height_m": null, "levels": null, "tract_id": "40095094700", "tract_name": "947", "tags": {"building": "yes"}}}, {"type": "Feature", "geometry": {"type": "Polygon", "coordinates": [[[-96.7700615, 34.0865427], [-96.7700307, 34.0864719], [-96.7699473, 34.0864945], [-96.7699719, 34.0865678], [-96.7700615, 34.0865427]]]}, "properties": {"osm_id": 1378101664, "building": "yes", "name": "", "height": null, "height_m": null, "levels": null, "tract_id": "40095094700", "tract_name": "947", "tags": {"building": "yes"}}}]}