{"type": "FeatureCollection", "features": [{"type": "Feature", "geometry": {"type": "Polygon", "coordinates": [[[-95.9085109, 36.0079378], [-95.9084661, 36.0079389], [-95.9084661, 36.0079517], [-95.9084584, 36.0079515], [-95.9084028, 36.0079982], [-95.9083069, 36.0079282], [-95.9082019, 36.0079272], [-95.9082013, 36.0078894], [-95.9081851, 36.007889], [-95.9081869, 36.0078376], [-95.9081799, 36.0078371], [-95.9081788, 36.0077834], [-95.9081592, 36.0077834], [-95.9081592, 36.0077358], [-95.908397, 36.0077367], [-95.9083987, 36.0077867], [-95.9085095, 36.0077867], [-95.9085109, 36.0079378]]]}, "properties": {"osm_id": 195658732, "building": "house", "name": "", "height": null, "height_m": null, "levels": null, "tract_id": "40143007654", "tract_name": "76.54", "tags": {"building": "house"}}}, {"type": "Feature", "geometry": {"type": "Polygon", "coordinates": [[[-95.9091916, 36.0104383], [-95.909119, 36.0104377], [-95.9091187, 36.0104569], [-95.9090835, 36.0104566], [-95.9090833, 36.0104713], [-95.9089896, 36.0104705], [-95.9089898, 36.0104559], [-95.9089346, 36.0104554], [-95.9089348, 36.0104362], [-95.9088671, 36.0104357], [-95.9088683, 36.010334], [-95.9089026, 36.0103343], [-95.9089029, 36.0103073], [-95.9089462, 36.0103077], [-95.9089467, 36.0102697], [-95.9090354, 36.0102704], [-95.909035, 36.0103084], [-95.9091932, 36.0103097], [-95.9091916, 36.0104383]]]}, "properties": {"osm_id": 195665547, "building": "house", "name": "", "height": null, "height_m": null, "levels": null, "tract_id": "40143007654", "tract_name": "76.54", "tags": {"building": "house"}}}, {"type": "Feature", "geometry": {"type": "Polygon", "coordinates": [[[-95.9188956, 36.0048676], [-95.9188956, 36.0050108], [-95.9187941, 36.0050108], [-95.9187941, 36.0050226], [-95.9186762, 36.0050226], [-95.9186762, 36.0049414], [-95.9187089, 36.0049414], [-95.9187089, 36.0048774], [-95.9187885, 36.0048774], [-95.9187885, 36.0048676], [-95.9188956, 36.0048676]]]}, "properties": {"osm_id": 235399453, "building": "house", "name": "", "height": null, "height_m": null, "levels": null, "tract_id": "40143007654", "tract_name": "76.54", "tags": {"addr:city": "Tulsa", "addr:country": "US", "addr:housenumber": "5212", "addr:postcode": "74137", "addr:state": "OK", "addr:street": "East 109th Place", "building": "house"}}}, {"type": "Feature", "geometry": {"type": "Polygon", "coordinates": [[[-95.9049932, 36.0163658], [-95.9048323, 36.0163658], [-95.904788, 36.0163694], [-95.9047867, 36.0163376], [-95.9048242, 36.0163311], [-95.9048242, 36.0162747], [-95.9047438, 36.0162682], [-95.9047438, 36.0161684], [-95.9048189, 36.0161684], [-95.9048269, 36.0161467], [-95.9049905, 36.0161467], [-95.9049932, 36.0163658]]]}, "properties": {"osm_id": 236796723, "building": "yes", "name": "", "height": null, "height_m": null, "levels": null, "tract_id": "40143007654", "tract_name": "76.54", "tags": {"building": "yes"}}}, {"type": "Feature", "geometry": {"type": "Polygon", "coordinates": [[[-95.9051434, 36.0169429], [-95.9051273, 36.0169429], [-95.90513, 36.0169928], [-95.9050702, 36.0169935], [-95.905071, 36.0169472], [-95.9048189, 36.0169451], [-95.9047854, 36.0169202], [-95.9047545, 36.0168973], [-95.9047518, 36.0166348], [-95.9051394, 36.0166254], [-95.9051434, 36.0169429]]]}, "properties": {"osm_id": 236796736, "building": "yes", "name": "", "height": null, "height_m": null, "levels": null, "tract_id": "40143007654", "tract_name": "76.54", "tags": {"building": "yes"}}}, {"type": "Feature", "geometry": {"type": "Polygon", "coordinates": [[[-95.9069252, 36.0114352], [-95.9070506, 36.0114344], [-95.9070525, 36.011623], [-95.9071181, 36.0116226], [-95.9071172, 36.0115273], [-95.9072363, 36.0115265], [-95.9072369, 36.0115836], [-95.9072102, 36.0115838], [-95.9072117, 36.0117409], [-95.9069582, 36.0117426], [-95.9069572, 36.0116403], [-95.9069272, 36.0116405], [-95.9069252, 36.0114352]]]}, "properties": {"osm_id": 242788365, "building": "house", "name": "", "height": null, "height_m": null, "levels": null, "tract_id": "40143007654", "tract_name": "76.54", "tags": {"addr:city": "Tulsa", "addr:country": "US", "addr:housenumber": "6206", "addr:postcode": "74137", "addr:state": "OK", "addr:street": "East 105th Street", "building": "house"}}}, {"type": "Feature", "geometry": {"type": "Polygon", "coordinates": [[[-95.9072423, 36.011433], [-95.9071489, 36.011433], [-95.9071489, 36.0113693], [-95.9072423, 36.0113693], [-95.9072423, 36.011433]]]}, "properties": {"osm_id": 242788368, "building": "house", "name": "", "height": null, "height_m": null, "levels": null, "tract_id": "40143007654", "tract_name": "76.54", "tags": {"building": "house"}}}, {"type": "Feature", "geometry": {"type": "Polygon", "coordinates": [[[-95.9212465, 36.0170557], [-95.9215194, 36.0170541], [-95.9215197, 36.0170926], [-95.9217239, 36.0170914], [-95.9217234, 36.0170454], [-95.9217527, 36.0170452], [-95.9217525, 36.017021], [-95.9217789, 36.0170208], [-95.9217784, 36.0169689], [-95.921752, 36.0169691], [-95.9217517, 36.0169385], [-95.9217225, 36.0169387], [-95.9217221, 36.0168984], [-95.9216756, 36.0168987], [-95.9216753, 36.0168642], [-95.9215683, 36.0168649], [-95.9215686, 36.0168993], [-95.921518, 36.0168996], [-95.9215183, 36.0169331], [-95.9212454, 36.0169347], [-95.9212465, 36.0170557]]]}, "properties": {"osm_id": 461484187, "building": "office", "name": "Prosperity Bank", "height": null, "height_m": null, "levels": null, "tract_id": "40143007654", "tract_name": "76.54", "tags": {"addr:city": "Tulsa", "addr:country": "US", "addr:housenumber": "10115", "addr:postcode": "74137", "addr:state": "OK", "addr:street": "South Yale Avenue East", "amenity": "bank", "atm": "yes", "brand": "Prosperity Bank", "brand:wikidata": "Q7250893", "building": "office", "name": "Prosperity Bank"}}}, {"type": "Feature", "geometry": {"type": "Polygon", "coordinates": [[[-95.9211891, 36.0163631], [-95.9213239, 36.0165497], [-95.921391, 36.0165215], [-95.9213948, 36.0165274], [-95.9214443, 36.0165066], [-95.921454, 36.0165216], [-95.9215217, 36.0164931], [-95.9214489, 36.0163799], [-95.9214028, 36.0163993], [-95.921339, 36.0163001], [-95.9211891, 36.0163631]]]}, "properties": {"osm_id": 461484773, "building": "yes", "name": "", "height": null, "height_m": null, "levels": null, "tract_id": "40143007654", "tract_name": "76.54", "tags": {"addr:city": "Tulsa", "addr:country": "US", "addr:housenumber": "10127", "addr:postcode": "74137", "addr:state": "OK", "addr:street": "South Yale Avenue East", "building": "yes"}}}, {"type": "Feature", "geometry": {"type": "Polygon", "coordinates": [[[-95.9201618, 36.0170194], [-95.9203134, 36.0170183], [-95.920311, 36.016797], [-95.9201672, 36.016798], [-95.9201675, 36.0168279], [-95.9201551, 36.016828], [-95.9201557, 36.0168832], [-95.9201603, 36.0168832], [-95.9201609, 36.0169345], [-95.9201521, 36.0169345], [-95.9201527, 36.0169855], [-95.9201615, 36.0169854], [-95.9201618, 36.0170194]]]}, "properties": {"osm_id": 461484774, "building": "yes", "name": "", "height": null, "height_m": null, "levels": null, "tract_id": "40143007654", "tract_name": "76.54", "tags": {"building": "yes"}}}, {"type": "Feature", "geometry": {"type": "Polygon", "coordinates": [[[-95.9208746, 36.0165627], [-95.9211784, 36.0164168], [-95.9212841, 36.0165608], [-95.9211833, 36.0166093], [-95.9211675, 36.0165878], [-95.9211364, 36.0166028], [-95.9211521, 36.0166242], [-95.9211106, 36.0166442], [-95.9210949, 36.0166227], [-95.9210661, 36.0166365], [-95.9210818, 36.016658], [-95.9209804, 36.0167067], [-95.9208746, 36.0165627]]]}, "properties": {"osm_id": 461484775, "building": "yes", "name": "", "height": null, "height_m": null, "levels": null, "tract_id": "40143007654", "tract_name": "76.54", "tags": {"addr:city": "Tulsa", "addr:country": "US", "addr:housenumber": "10129", "addr:postcode": "74137", "addr:state": "OK", "addr:street": "South Yale Avenue East", "building": "yes"}}}, {"type": "Feature", "geometry": {"type": "Polygon", "coordinates": [[[-95.921694, 36.0163598], [-95.921694, 36.0162193], [-95.921633, 36.0162193], [-95.921633, 36.0161619], [-95.921678, 36.0161619], [-95.921678, 36.015984], [-95.9216136, 36.015984], [-95.9216136, 36.0159465], [-95.9215479, 36.0159465], [-95.9215479, 36.0160528], [-95.9214915, 36.0160528], [-95.9214915, 36.0163164], [-95.921564, 36.0163164], [-95.921564, 36.0163598], [-95.921694, 36.0163598]]]}, "properties": {"osm_id": 461484776, "building": "yes", "name": "", "height": null, "height_m": null, "levels": null, "tract_id": "40143007654", "tract_name": "76.54", "tags": {"addr:city": "Tulsa", "addr:country": "US", "addr:housenumber": "10131", "addr:postcode": "74137", "addr:state": "OK", "addr:street": "South Yale Avenue East", "building": "yes"}}}, {"type": "Feature", "geometry": {"type": "Polygon", "coordinates": [[[-95.9203479, 36.0168607], [-95.9205538, 36.0167642], [-95.9206406, 36.0168853], [-95.9204348, 36.0169819], [-95.9203479, 36.0168607]]]}, "properties": {"osm_id": 461484777, "building": "yes", "name": "", "height": null, "height_m": null, "levels": null, "tract_id": "40143007654", "tract_name": "76.54", "tags": {"building": "yes"}}}, {"type": "Feature", "geometry": {"type": "Polygon", "coordinates": [[[-95.9203677, 36.0166489], [-95.9204113, 36.0167162], [-95.9203616, 36.0167372], [-95.9204068, 36.016807], [-95.9205412, 36.01675], [-95.9204524, 36.016613], [-95.9203677, 36.0166489]]]}, "properties": {"osm_id": 461484778, "building": "yes", "name": "", "height": null, "height_m": null, "levels": null, "tract_id": "40143007654", "tract_name": "76.54", "tags": {"building": "yes"}}}, {"type": "Feature", "geometry": {"type": "Polygon", "coordinates": [[[-95.9203305, 36.016768], [-95.9203278, 36.0165662], [-95.9201675, 36.0165676], [-95.920168, 36.0165987], [-95.9201575, 36.0165988], [-95.9201597, 36.0167694], [-95.9203305, 36.016768]]]}, "properties": {"osm_id": 461484779, "building": "yes", "name": "", "height": null, "height_m": null, "levels": null, "tract_id": "40143007654", "tract_name": "76.54", "tags": {"building": "yes"}}}, {"type": "Feature", "geometry": {"type": "Polygon", "coordinates": [[[-95.921062, 36.015034], [-95.9211546, 36.0148821], [-95.9214281, 36.0149912], [-95.9214153, 36.0150122], [-95.9214499, 36.015026], [-95.921504, 36.0149372], [-95.9214901, 36.0149317], [-95.921528, 36.0148694], [-95.9217558, 36.0149602], [-95.9216439, 36.0151438], [-95.9217273, 36.015177], [-95.9216918, 36.0152352], [-95.9216084, 36.015202], [-95.9214993, 36.0153811], [-95.9212613, 36.0152862], [-95.9212998, 36.0152229], [-95.921324, 36.0152326], [-95.9213832, 36.0151354], [-95.9213487, 36.0151216], [-95.9213356, 36.015143], [-95.921062, 36.015034]]]}, "properties": {"osm_id": 461485567, "building": "yes", "name": "", "height": null, "height_m": null, "levels": null, "tract_id": "40143007654", "tract_name": "76.54", "tags": {"addr:city": "Tulsa", "addr:country": "US", "addr:housenumber": "10201", "addr:postcode": "74137", "addr:state": "OK", "addr:street": "South Yale Avenue East", "amenity": "nursing_home", "building": "yes"}}}, {"type": "Feature", "geometry": {"type": "Polygon", "coordinates": [[[-95.9056061, 36.0168695], [-95.9056208, 36.0168562], [-95.905649, 36.0168563], [-95.9056497, 36.0167364], [-95.9054063, 36.0167355], [-95.9054059, 36.0168031], [-95.9053533, 36.0168029], [-95.9053535, 36.0167717], [-95.9052641, 36.0167713], [-95.9052633, 36.0169159], [-95.9053526, 36.0169162], [-95.9053531, 36.0168416], [-95.9054012, 36.0168418], [-95.9054012, 36.0168554], [-95.9054287, 36.0168555], [-95.9054452, 36.0168689], [-95.9056061, 36.0168695]]]}, "properties": {"osm_id": 462208350, "building": "commercial", "name": "", "height": null, "height_m": null, "levels": null, "tract_id": "40143007654", "tract_name": "76.54", "tags": {"addr:city": "Tulsa", "addr:housenumber": "6310", "addr:state": "OK", "addr:street": "East 101st Street", "building": "commercial"}}}, {"type": "Feature", "geometry": {"type": "Polygon", "coordinates": [[[-95.9191851, 36.0169024], [-95.9191285, 36.0169022], [-95.9191281, 36.0169833], [-95.9190623, 36.016983], [-95.9190617, 36.0171056], [-95.9187172, 36.0171044], [-95.9187178, 36.0169818], [-95.9186509, 36.0169816], [-95.9186515, 36.0168792], [-95.9187205, 36.0168795], [-95.9187212, 36.0167527], [-95.9188485, 36.0167531], [-95.9188486, 36.0167354], [-95.9189436, 36.0167357], [-95.9189435, 36.0167535], [-95.9190636, 36.0167539], [-95.9190635, 36.0167651], [-95.9191858, 36.0167656], [-95.9193636, 36.0167662], [-95.9193629, 36.0169031], [-95.9191851, 36.0169024]]]}, "properties": {"osm_id": 463031628, "building": "church", "name": "RiverOaks Presbyterian Church", "height": null, "height_m": null, "levels": null, "tract_id": "40143007654", "tract_name": "76.54", "tags": {"amenity": "place_of_worship", "building": "church", "denomination": "presbyterian", "name": "RiverOaks Presbyterian Church", "religion": "christian"}}}, {"type": "Feature", "geometry": {"type": "Polygon", "coordinates": [[[-95.9170614, 36.0058951], [-95.9170608, 36.0056822], [-95.9169569, 36.0056824], [-95.9169572, 36.005774], [-95.9168544, 36.0057742], [-95.9168548, 36.0058955], [-95.9170614, 36.0058951]]]}, "properties": {"osm_id": 624036444, "building": "yes", "name": "", "height": null, "height_m": null, "levels": null, "tract_id": "40143007654", "tract_name": "76.54", "tags": {"building": "yes"}}}, {"type": "Feature", "geometry": {"type": "Polygon", "coordinates": [[[-95.9167827, 36.0058906], [-95.9167792, 36.0057472], [-95.9166256, 36.0057497], [-95.9166263, 36.0057784], [-95.9165763, 36.0057792], [-95.9165786, 36.0058726], [-95.9166402, 36.0058716], [-95.9166407, 36.0058929], [-95.9167827, 36.0058906]]]}, "properties": {"osm_id": 624036445, "building": "yes", "name": "", "height": null, "height_m": null, "levels": null, "tract_id": "40143007654", "tract_name": "76.54", "tags": {"building": "yes"}}}, {"type": "Feature", "geometry": {"type": "Polygon", "coordinates": [[[-95.9165378, 36.00589], [-95.9165357, 36.0057215], [-95.9163073, 36.0057233], [-95.9163092, 36.0058726], [-95.9164256, 36.0058716], [-95.9164258, 36.0058909], [-95.9165378, 36.00589]]]}, "properties": {"osm_id": 624036446, "building": "yes", "name": "", "height": null, "height_m": null, "levels": null, "tract_id": "40143007654", "tract_name": "76.54", "tags": {"building": "yes"}}}, {"type": "Feature", "geometry": {"type": "Polygon", "coordinates": [[[-95.9162609, 36.0058865], [-95.9162597, 36.0057476], [-95.9160398, 36.0057489], [-95.916041, 36.0058877], [-95.9162609, 36.0058865]]]}, "properties": {"osm_id": 624036447, "building": "yes", "name": "", "height": null, "height_m": null, "levels": null, "tract_id": "40143007654", "tract_name": "76.54", "tags": {"building": "yes"}}}, {"type": "Feature", "geometry": {"type": "Polygon", "coordinates": [[[-95.9160172, 36.0058891], [-95.9160128, 36.0057517], [-95.9159265, 36.0057534], [-95.9159259, 36.0057335], [-95.9158595, 36.0057349], [-95.915859, 36.0057193], [-95.9157823, 36.0057209], [-95.9157872, 36.0058738], [-95.9159027, 36.0058714], [-95.9159034, 36.0058915], [-95.9160172, 36.0058891]]]}, "properties": {"osm_id": 624036448, "building": "yes", "name": "", "height": null, "height_m": null, "levels": null, "tract_id": "40143007654", "tract_name": "76.54", "tags": {"building": "yes"}}}, {"type": "Feature", "geometry": {"type": "Polygon", "coordinates": [[[-95.9154879, 36.0058882], [-95.9154903, 36.0058006], [-95.9154401, 36.0057997], [-95.9154424, 36.0057145], [-95.9153121, 36.0057122], [-95.9153114, 36.0057398], [-95.9152647, 36.005739], [-95.9152612, 36.005873], [-95.915354, 36.0058746], [-95.9153545, 36.0058571], [-95.9153809, 36.0058576], [-95.9153802, 36.0058864], [-95.9154879, 36.0058882]]]}, "properties": {"osm_id": 624036449, "building": "yes", "name": "", "height": null, "height_m": null, "levels": null, "tract_id": "40143007654", "tract_name": "76.54", "tags": {"building": "yes"}}}, {"type": "Feature", "geometry": {"type": "Polygon", "coordinates": [[[-95.9152299, 36.0058575], [-95.9152305, 36.0057188], [-95.9150942, 36.0057184], [-95.9150996, 36.0057336], [-95.9150067, 36.0057333], [-95.9150061, 36.0058665], [-95.9150425, 36.0058666], [-95.9150425, 36.0058851], [-95.9151088, 36.0058852], [-95.9151089, 36.0058572], [-95.9152299, 36.0058575]]]}, "properties": {"osm_id": 624036450, "building": "yes", "name": "", "height": null, "height_m": null, "levels": null, "tract_id": "40143007654", "tract_name": "76.54", "tags": {"building": "yes"}}}, {"type": "Feature", "geometry": {"type": "Polygon", "coordinates": [[[-95.9149774, 36.0058644], [-95.9149777, 36.005802], [-95.9149564, 36.0058019], [-95.9149568, 36.0057136], [-95.9148615, 36.0057133], [-95.9148614, 36.0057527], [-95.9147726, 36.0057524], [-95.9147725, 36.0057737], [-95.9147459, 36.0057736], [-95.9147456, 36.0058557], [-95.9147689, 36.0058558], [-95.9147688, 36.0058839], [-95.9148092, 36.005884], [-95.9148093, 36.0058758], [-95.914845, 36.0058759], [-95.914845, 36.0058652], [-95.9148821, 36.0058653], [-95.914882, 36.0058884], [-95.9149441, 36.0058886], [-95.9149442, 36.0058643], [-95.9149774, 36.0058644]]]}, "properties": {"osm_id": 624036451, "building": "yes", "name": "", "height": null, "height_m": null, "levels": null, "tract_id": "40143007654", "tract_name": "76.54", "tags": {"building": "yes"}}}, {"type": "Feature", "geometry": {"type": "Polygon", "coordinates": [[[-95.9146882, 36.0058683], [-95.9146891, 36.0057032], [-95.914623, 36.005703], [-95.9146228, 36.0057439], [-95.9144871, 36.0057434], [-95.9144862, 36.0058904], [-95.9146247, 36.0058909], [-95.9146248, 36.005868], [-95.9146882, 36.0058683]]]}, "properties": {"osm_id": 624036452, "building": "yes", "name": "", "height": null, "height_m": null, "levels": null, "tract_id": "40143007654", "tract_name": "76.54", "tags": {"building": "yes"}}}, {"type": "Feature", "geometry": {"type": "Polygon", "coordinates": [[[-95.9144485, 36.0058454], [-95.9144491, 36.0056902], [-95.9143509, 36.00569], [-95.9143508, 36.0057055], [-95.9142254, 36.0057052], [-95.9142247, 36.0058874], [-95.9143025, 36.0058876], [-95.9143027, 36.005845], [-95.9144485, 36.0058454]]]}, "properties": {"osm_id": 624036453, "building": "yes", "name": "", "height": null, "height_m": null, "levels": null, "tract_id": "40143007654", "tract_name": "76.54", "tags": {"building": "yes"}}}, {"type": "Feature", "geometry": {"type": "Polygon", "coordinates": [[[-95.9149463, 36.005476], [-95.9149451, 36.0054193], [-95.9149684, 36.005419], [-95.9149665, 36.0053284], [-95.914875, 36.0053296], [-95.9148755, 36.0053547], [-95.9147576, 36.0053563], [-95.9147603, 36.0054853], [-95.9148118, 36.0054846], [-95.9148124, 36.0055172], [-95.9148892, 36.0055161], [-95.9148884, 36.0054768], [-95.9149463, 36.005476]]]}, "properties": {"osm_id": 624036537, "building": "yes", "name": "", "height": null, "height_m": null, "levels": null, "tract_id": "40143007654", "tract_name": "76.54", "tags": {"building": "yes"}}}, {"type": "Feature", "geometry": {"type": "Polygon", "coordinates": [[[-95.9152145, 36.0054424], [-95.9152138, 36.0053653], [-95.9151472, 36.0053657], [-95.9151469, 36.005337], [-95.9150782, 36.0053374], [-95.9150781, 36.005326], [-95.9150094, 36.0053265], [-95.9150102, 36.0054056], [-95.91503, 36.0054054], [-95.915031, 36.0055016], [-95.9151002, 36.0055011], [-95.9151, 36.0054779], [-95.9151313, 36.0054777], [-95.9151312, 36.0054678], [-95.9151715, 36.0054675], [-95.9151712, 36.0054426], [-95.9152145, 36.0054424]]]}, "properties": {"osm_id": 624036538, "building": "yes", "name": "", "height": null, "height_m": null, "levels": null, "tract_id": "40143007654", "tract_name": "76.54", "tags": {"building": "yes"}}}, {"type": "Feature", "geometry": {"type": "Polygon", "coordinates": [[[-95.9154927, 36.0054532], [-95.9154909, 36.005368], [-95.9154714, 36.0053683], [-95.9154708, 36.0053408], [-95.9153701, 36.0053422], [-95.9153698, 36.0053267], [-95.9152543, 36.0053282], [-95.915256, 36.0054101], [-95.9152735, 36.0054099], [-95.9152755, 36.0055117], [-95.915351, 36.0055107], [-95.9153505, 36.005489], [-95.9153706, 36.0054888], [-95.9153703, 36.0054747], [-95.9154585, 36.0054735], [-95.9154581, 36.0054537], [-95.9154927, 36.0054532]]]}, "properties": {"osm_id": 624036539, "building": "yes", "name": "", "height": null, "height_m": null, "levels": null, "tract_id": "40143007654", "tract_name": "76.54", "tags": {"building": "yes"}}}, {"type": "Feature", "geometry": {"type": "Polygon", "coordinates": [[[-95.9157533, 36.0054481], [-95.9157511, 36.0053285], [-95.9155244, 36.0053312], [-95.9155266, 36.0054508], [-95.9157533, 36.0054481]]]}, "properties": {"osm_id": 624036540, "building": "yes", "name": "", "height": null, "height_m": null, "levels": null, "tract_id": "40143007654", "tract_name": "76.54", "tags": {"building": "yes"}}}, {"type": "Feature", "geometry": {"type": "Polygon", "coordinates": [[[-95.9162663, 36.0054997], [-95.9162659, 36.0054045], [-95.9162282, 36.0054045], [-95.9162281, 36.0053882], [-95.9161578, 36.0053883], [-95.9161576, 36.0053293], [-95.916052, 36.0053296], [-95.9160527, 36.0055219], [-95.9161743, 36.0055216], [-95.9161742, 36.0054999], [-95.9162663, 36.0054997]]]}, "properties": {"osm_id": 624036541, "building": "yes", "name": "", "height": null, "height_m": null, "levels": null, "tract_id": "40143007654", "tract_name": "76.54", "tags": {"building": "yes"}}}, {"type": "Feature", "geometry": {"type": "Polygon", "coordinates": [[[-95.916534, 36.0054712], [-95.9165329, 36.0053563], [-95.9165, 36.0053565], [-95.9164998, 36.0053418], [-95.9164234, 36.0053423], [-95.9164236, 36.005363], [-95.9163912, 36.0053632], [-95.916391, 36.0053354], [-95.9163056, 36.0053359], [-95.9163069, 36.0054726], [-95.916534, 36.0054712]]]}, "properties": {"osm_id": 624036542, "building": "yes", "name": "", "height": null, "height_m": null, "levels": null, "tract_id": "40143007654", "tract_name": "76.54", "tags": {"building": "yes"}}}, {"type": "Feature", "geometry": {"type": "Polygon", "coordinates": [[[-95.917045, 36.0055434], [-95.9170443, 36.0054664], [-95.9170644, 36.0054663], [-95.9170633, 36.0053432], [-95.9170295, 36.0053434], [-95.9170294, 36.0053245], [-95.9168337, 36.0053256], [-95.9168355, 36.0055283], [-95.9168918, 36.005528], [-95.9168919, 36.0055443], [-95.917045, 36.0055434]]]}, "properties": {"osm_id": 624036608, "building": "yes", "name": "", "height": null, "height_m": null, "levels": null, "tract_id": "40143007654", "tract_name": "76.54", "tags": {"building": "yes"}}}, {"type": "Feature", "geometry": {"type": "Polygon", "coordinates": [[[-95.916789, 36.0054735], [-95.9167888, 36.0053458], [-95.9167104, 36.0053459], [-95.9167104, 36.0053599], [-95.9166798, 36.0053599], [-95.9166797, 36.0053278], [-95.9165683, 36.0053279], [-95.9165685, 36.0054738], [-95.916789, 36.0054735]]]}, "properties": {"osm_id": 624036609, "building": "yes", "name": "", "height": null, "height_m": null, "levels": null, "tract_id": "40143007654", "tract_name": "76.54", "tags": {"building": "yes"}}}, {"type": "Feature", "geometry": {"type": "Polygon", "coordinates": [[[-95.9170449, 36.0050252], [-95.9170449, 36.0048384], [-95.9168363, 36.0048384], [-95.9168362, 36.0049628], [-95.9168728, 36.0049628], [-95.9168728, 36.004976], [-95.9169331, 36.004976], [-95.9169331, 36.0049629], [-95.9169685, 36.0049629], [-95.9169685, 36.0050252], [-95.9170449, 36.0050252]]]}, "properties": {"osm_id": 624036610, "building": "yes", "name": "", "height": null, "height_m": null, "levels": null, "tract_id": "40143007654", "tract_name": "76.54", "tags": {"building": "yes"}}}, {"type": "Feature", "geometry": {"type": "Polygon", "coordinates": [[[-95.9167961, 36.0050311], [-95.9167938, 36.0048613], [-95.9167038, 36.0048621], [-95.9167041, 36.0048895], [-95.9165715, 36.0048907], [-95.9165732, 36.0050104], [-95.9166482, 36.0050097], [-95.9166483, 36.0050187], [-95.9167151, 36.005018], [-95.9167153, 36.0050318], [-95.9167961, 36.0050311]]]}, "properties": {"osm_id": 624036611, "building": "yes", "name": "", "height": null, "height_m": null, "levels": null, "tract_id": "40143007654", "tract_name": "76.54", "tags": {"building": "yes"}}}, {"type": "Feature", "geometry": {"type": "Polygon", "coordinates": [[[-95.9165248, 36.0050248], [-95.916523, 36.0048495], [-95.9164461, 36.00485], [-95.9164466, 36.0048958], [-95.9163046, 36.0048967], [-95.9163056, 36.0049942], [-95.9163362, 36.004994], [-95.9163363, 36.0050106], [-95.9164325, 36.0050099], [-95.9164326, 36.0050254], [-95.9165248, 36.0050248]]]}, "properties": {"osm_id": 624036612, "building": "yes", "name": "", "height": null, "height_m": null, "levels": null, "tract_id": "40143007654", "tract_name": "76.54", "tags": {"building": "yes"}}}, {"type": "Feature", "geometry": {"type": "Polygon", "coordinates": [[[-95.9162682, 36.005012], [-95.9162654, 36.0048836], [-95.9160444, 36.0048867], [-95.9160471, 36.0050125], [-95.9160855, 36.0050119], [-95.9160859, 36.0050305], [-95.9162046, 36.0050288], [-95.9162043, 36.0050129], [-95.9162682, 36.005012]]]}, "properties": {"osm_id": 624036613, "building": "yes", "name": "", "height": null, "height_m": null, "levels": null, "tract_id": "40143007654", "tract_name": "76.54", "tags": {"building": "yes"}}}, {"type": "Feature", "geometry": {"type": "Polygon", "coordinates": [[[-95.9160035, 36.0049853], [-95.9160015, 36.0048751], [-95.9158911, 36.0048764], [-95.9158904, 36.0048399], [-95.9158156, 36.0048408], [-95.9158172, 36.0049276], [-95.9157851, 36.0049279], [-95.9157868, 36.0050207], [-95.9158832, 36.0050196], [-95.9158828, 36.0049962], [-95.9159287, 36.0049957], [-95.9159288, 36.0050046], [-95.9159797, 36.005004], [-95.9159793, 36.0049856], [-95.9160035, 36.0049853]]]}, "properties": {"osm_id": 624036614, "building": "yes", "name": "", "height": null, "height_m": null, "levels": null, "tract_id": "40143007654", "tract_name": "76.54", "tags": {"building": "yes"}}}, {"type": "Feature", "geometry": {"type": "Polygon", "coordinates": [[[-95.9157438, 36.0050218], [-95.9157457, 36.0048904], [-95.9155228, 36.0048884], [-95.9155212, 36.0049972], [-95.9155501, 36.0049974], [-95.9155499, 36.0050111], [-95.915604, 36.0050116], [-95.9156042, 36.0049914], [-95.9156492, 36.0049918], [-95.9156487, 36.0050209], [-95.9157438, 36.0050218]]]}, "properties": {"osm_id": 624036665, "building": "yes", "name": "", "height": null, "height_m": null, "levels": null, "tract_id": "40143007654", "tract_name": "76.54", "tags": {"building": "yes"}}}, {"type": "Feature", "geometry": {"type": "Polygon", "coordinates": [[[-95.9152147, 36.0050247], [-95.915212, 36.0048511], [-95.9150792, 36.0048525], [-95.915079, 36.0048387], [-95.9150089, 36.0048394], [-95.9150114, 36.0050027], [-95.9150839, 36.0050019], [-95.9150837, 36.0049919], [-95.9151299, 36.0049915], [-95.9151305, 36.0050256], [-95.9152147, 36.0050247]]]}, "properties": {"osm_id": 624036666, "building": "yes", "name": "", "height": null, "height_m": null, "levels": null, "tract_id": "40143007654", "tract_name": "76.54", "tags": {"building": "yes"}}}, {"type": "Feature", "geometry": {"type": "Polygon", "coordinates": [[[-95.9149631, 36.0050219], [-95.9149633, 36.0048598], [-95.9147453, 36.0048596], [-95.9147452, 36.0049878], [-95.914806, 36.0049878], [-95.9148059, 36.0050003], [-95.9148442, 36.0050003], [-95.9148442, 36.0049889], [-95.9148912, 36.0049889], [-95.9148912, 36.0050218], [-95.9149631, 36.0050219]]]}, "properties": {"osm_id": 624036667, "building": "yes", "name": "", "height": null, "height_m": null, "levels": null, "tract_id": "40143007654", "tract_name": "76.54", "tags": {"building": "yes"}}}, {"type": "Feature", "geometry": {"type": "Polygon", "coordinates": [[[-95.914688, 36.0050278], [-95.9146876, 36.0048692], [-95.9146213, 36.0048693], [-95.9146212, 36.0048439], [-95.9145259, 36.0048441], [-95.9145259, 36.0048696], [-95.9144844, 36.0048697], [-95.9144847, 36.004979], [-95.9145978, 36.0049788], [-95.9145979, 36.005028], [-95.914688, 36.0050278]]]}, "properties": {"osm_id": 624036668, "building": "yes", "name": "", "height": null, "height_m": null, "levels": null, "tract_id": "40143007654", "tract_name": "76.54", "tags": {"building": "yes"}}}, {"type": "Feature", "geometry": {"type": "Polygon", "coordinates": [[[-95.9143362, 36.0046997], [-95.9143366, 36.0046457], [-95.9143811, 36.0046459], [-95.9143811, 36.004655], [-95.9144461, 36.0046553], [-95.9144474, 36.0044657], [-95.9143657, 36.0044653], [-95.9143654, 36.0045087], [-95.9143163, 36.0045084], [-95.9143164, 36.0044985], [-95.9142539, 36.0044983], [-95.9142537, 36.0045318], [-95.9142323, 36.0045317], [-95.9142315, 36.0046397], [-95.914291, 36.0046399], [-95.9142906, 36.0046994], [-95.9143362, 36.0046997]]]}, "properties": {"osm_id": 624036669, "building": "yes", "name": "", "height": null, "height_m": null, "levels": null, "tract_id": "40143007654", "tract_name": "76.54", "tags": {"building": "yes"}}}, {"type": "Feature", "geometry": {"type": "Polygon", "coordinates": [[[-95.9147117, 36.004603], [-95.914711, 36.0044646], [-95.9145889, 36.004465], [-95.914589, 36.0044848], [-95.9145132, 36.0044851], [-95.9145133, 36.0045026], [-95.9144729, 36.0045027], [-95.9144735, 36.0046329], [-95.9145562, 36.0046326], [-95.9145592, 36.00464], [-95.9146412, 36.0046397], [-95.914641, 36.0046032], [-95.9147117, 36.004603]]]}, "properties": {"osm_id": 624036670, "building": "yes", "name": "", "height": null, "height_m": null, "levels": null, "tract_id": "40143007654", "tract_name": "76.54", "tags": {"building": "yes"}}}, {"type": "Feature", "geometry": {"type": "Polygon", "coordinates": [[[-95.9149636, 36.0046235], [-95.9149629, 36.0045001], [-95.9148556, 36.0045005], [-95.9148554, 36.0044645], [-95.9147655, 36.0044649], [-95.9147665, 36.0046441], [-95.9148232, 36.0046439], [-95.914823, 36.004624], [-95.9149636, 36.0046235]]]}, "properties": {"osm_id": 624037399, "building": "yes", "name": "", "height": null, "height_m": null, "levels": null, "tract_id": "40143007654", "tract_name": "76.54", "tags": {"building": "yes"}}}, {"type": "Feature", "geometry": {"type": "Polygon", "coordinates": [[[-95.9152324, 36.004664], [-95.9152282, 36.0044769], [-95.9150907, 36.0044789], [-95.9150902, 36.004457], [-95.9149963, 36.0044583], [-95.9149992, 36.0045899], [-95.915084, 36.0045887], [-95.9150846, 36.0046177], [-95.9151601, 36.0046167], [-95.9151612, 36.004665], [-95.9152324, 36.004664]]]}, "properties": {"osm_id": 624037401, "building": "yes", "name": "", "height": null, "height_m": null, "levels": null, "tract_id": "40143007654", "tract_name": "76.54", "tags": {"building": "yes"}}}, {"type": "Feature", "geometry": {"type": "Polygon", "coordinates": [[[-95.9154875, 36.0046405], [-95.9154802, 36.0044773], [-95.915258, 36.0044838], [-95.9152653, 36.0046478], [-95.9153486, 36.0046453], [-95.9153471, 36.0046105], [-95.9153837, 36.0046094], [-95.9153852, 36.0046435], [-95.9154875, 36.0046405]]]}, "properties": {"osm_id": 624037402, "building": "yes", "name": "", "height": null, "height_m": null, "levels": null, "tract_id": "40143007654", "tract_name": "76.54", "tags": {"building": "yes"}}}, {"type": "Feature", "geometry": {"type": "Polygon", "coordinates": [[[-95.9157473, 36.0046153], [-95.915747, 36.0044685], [-95.9156525, 36.0044686], [-95.9156525, 36.0044853], [-95.9155919, 36.0044854], [-95.915592, 36.0045053], [-95.9155424, 36.0045054], [-95.9155427, 36.0046157], [-95.9157473, 36.0046153]]]}, "properties": {"osm_id": 624037404, "building": "yes", "name": "", "height": null, "height_m": null, "levels": null, "tract_id": "40143007654", "tract_name": "76.54", "tags": {"building": "yes"}}}, {"type": "Feature", "geometry": {"type": "Polygon", "coordinates": [[[-95.9159876, 36.0046395], [-95.9159875, 36.0046131], [-95.9160038, 36.0046131], [-95.9160033, 36.0044666], [-95.9159164, 36.0044668], [-95.9159165, 36.0045055], [-95.9158902, 36.0045055], [-95.9158901, 36.0044916], [-95.9158496, 36.0044917], [-95.9158496, 36.0045048], [-95.9157847, 36.004505], [-95.915785, 36.0046144], [-95.9158421, 36.0046143], [-95.9158422, 36.0046398], [-95.9159876, 36.0046395]]]}, "properties": {"osm_id": 624037406, "building": "yes", "name": "", "height": null, "height_m": null, "levels": null, "tract_id": "40143007654", "tract_name": "76.54", "tags": {"building": "yes"}}}, {"type": "Feature", "geometry": {"type": "Polygon", "coordinates": [[[-95.9162569, 36.0046189], [-95.9162519, 36.0044701], [-95.9160511, 36.0044746], [-95.9160536, 36.00455], [-95.916087, 36.0045493], [-95.9160907, 36.0046588], [-95.9161604, 36.0046573], [-95.9161591, 36.0046211], [-95.9162569, 36.0046189]]]}, "properties": {"osm_id": 624037408, "building": "yes", "name": "", "height": null, "height_m": null, "levels": null, "tract_id": "40143007654", "tract_name": "76.54", "tags": {"building": "yes"}}}, {"type": "Feature", "geometry": {"type": "Polygon", "coordinates": [[[-95.9168022, 36.0046013], [-95.9168001, 36.0044624], [-95.9166747, 36.0044637], [-95.9166751, 36.0044869], [-95.9165948, 36.0044877], [-95.916595, 36.004501], [-95.9165649, 36.0045013], [-95.9165666, 36.0046186], [-95.916718, 36.0046171], [-95.9167178, 36.0046021], [-95.9168022, 36.0046013]]]}, "properties": {"osm_id": 624037410, "building": "yes", "name": "", "height": null, "height_m": null, "levels": null, "tract_id": "40143007654", "tract_name": "76.54", "tags": {"building": "yes"}}}, {"type": "Feature", "geometry": {"type": "Polygon", "coordinates": [[[-95.9170486, 36.0046755], [-95.9170446, 36.0044619], [-95.9168414, 36.0044644], [-95.9168443, 36.0046208], [-95.9169108, 36.00462], [-95.9169104, 36.0046017], [-95.9169602, 36.004601], [-95.9169616, 36.0046766], [-95.9170486, 36.0046755]]]}, "properties": {"osm_id": 624037412, "building": "yes", "name": "", "height": null, "height_m": null, "levels": null, "tract_id": "40143007654", "tract_name": "76.54", "tags": {"building": "yes"}}}, {"type": "Feature", "geometry": {"type": "Polygon", "coordinates": [[[-95.9055557, 36.0165404], [-95.9055155, 36.016541], [-95.905514, 36.0164672], [-95.9054189, 36.0164685], [-95.9054174, 36.0163937], [-95.9053435, 36.0163947], [-95.905343, 36.0163676], [-95.9052545, 36.0163688], [-95.9052598, 36.0166268], [-95.9055574, 36.0166228], [-95.9055557, 36.0165404]]]}, "properties": {"osm_id": 1235074742, "building": "yes", "name": "", "height": null, "height_m": null, "levels": null, "tract_id": "40143007654", "tract_name": "76.54", "tags": {"building": "yes", "source": "microsoft/BuildingFootprints"}}}, {"type": "Feature", "geometry": {"type": "Polygon", "coordinates": [[[-95.9058174, 36.0161288], [-95.9058154, 36.0163013], [-95.9058706, 36.0163017], [-95.9058701, 36.0163418], [-95.9059384, 36.0163423], [-95.9059407, 36.0161297], [-95.9058174, 36.0161288]]]}, "properties": {"osm_id": 1235074743, "building": "yes", "name": "", "height": null, "height_m": null, "levels": null, "tract_id": "40143007654", "tract_name": "76.54", "tags": {"building": "yes", "source": "microsoft/BuildingFootprints"}}}, {"type": "Feature", "geometry": {"type": "Polygon", "coordinates": [[[-95.9064748, 36.0163382], [-95.9067188, 36.0163419], [-95.9067217, 36.0162161], [-95.9064777, 36.0162124], [-95.9064748, 36.0163382]]]}, "properties": {"osm_id": 1235074744, "building": "yes", "name": "", "height": null, "height_m": null, "levels": null, "tract_id": "40143007654", "tract_name": "76.54", "tags": {"building": "yes", "source": "microsoft/BuildingFootprints"}}}, {"type": "Feature", "geometry": {"type": "Polygon", "coordinates": [[[-95.9062161, 36.0163444], [-95.9064494, 36.0163433], [-95.9064485, 36.0162175], [-95.9062151, 36.0162186], [-95.9062161, 36.0163444]]]}, "properties": {"osm_id": 1235074745, "building": "yes", "name": "", "height": null, "height_m": null, "levels": null, "tract_id": "40143007654", "tract_name": "76.54", "tags": {"building": "yes", "source": "microsoft/BuildingFootprints"}}}, {"type": "Feature", "geometry": {"type": "Polygon", "coordinates": [[[-95.9061773, 36.0162178], [-95.9059857, 36.0162153], [-95.9059831, 36.0163432], [-95.9061747, 36.0163458], [-95.9061773, 36.0162178]]]}, "properties": {"osm_id": 1235074746, "building": "yes", "name": "", "height": null, "height_m": null, "levels": null, "tract_id": "40143007654", "tract_name": "76.54", "tags": {"building": "yes", "source": "microsoft/BuildingFootprints"}}}, {"type": "Feature", "geometry": {"type": "Polygon", "coordinates": [[[-95.905565, 36.0157283], [-95.9055654, 36.0158845], [-95.9058819, 36.015884], [-95.9058819, 36.0158558], [-95.9059677, 36.0158556], [-95.9059675, 36.0157623], [-95.9058789, 36.0157625], [-95.9058789, 36.0157321], [-95.9057287, 36.0157324], [-95.9057286, 36.015702], [-95.9056389, 36.0157022], [-95.905639, 36.0157282], [-95.905565, 36.0157283]]]}, "properties": {"osm_id": 1235074747, "building": "yes", "name": "", "height": null, "height_m": null, "levels": null, "tract_id": "40143007654", "tract_name": "76.54", "tags": {"building": "yes", "source": "microsoft/BuildingFootprints"}}}, {"type": "Feature", "geometry": {"type": "Polygon", "coordinates": [[[-95.9063805, 36.0158881], [-95.9063813, 36.0158252], [-95.9063315, 36.0158248], [-95.9063326, 36.0157358], [-95.9061384, 36.0157342], [-95.9061364, 36.015886], [-95.9063805, 36.0158881]]]}, "properties": {"osm_id": 1235074748, "building": "yes", "name": "", "height": null, "height_m": null, "levels": null, "tract_id": "40143007654", "tract_name": "76.54", "tags": {"building": "yes", "source": "microsoft/BuildingFootprints"}}}, {"type": "Feature", "geometry": {"type": "Polygon", "coordinates": [[[-95.9065535, 36.015961], [-95.9067144, 36.0159624], [-95.9067172, 36.0157411], [-95.9065563, 36.0157397], [-95.9065553, 36.0158243], [-95.9065257, 36.0158241], [-95.906525, 36.0158848], [-95.9065545, 36.0158851], [-95.9065535, 36.015961]]]}, "properties": {"osm_id": 1235074749, "building": "yes", "name": "", "height": null, "height_m": null, "levels": null, "tract_id": "40143007654", "tract_name": "76.54", "tags": {"building": "yes", "source": "microsoft/BuildingFootprints"}}}, {"type": "Feature", "geometry": {"type": "Polygon", "coordinates": [[[-95.9062166, 36.0169009], [-95.9064606, 36.0169018], [-95.9064616, 36.0167174], [-95.9066842, 36.0167181], [-95.9066848, 36.016615], [-95.9064755, 36.0166143], [-95.9064758, 36.0165687], [-95.9062129, 36.0165679], [-95.9062127, 36.0166059], [-95.9061818, 36.0166058], [-95.9061812, 36.0167164], [-95.9062175, 36.0167165], [-95.9062166, 36.0169009]]]}, "properties": {"osm_id": 1235074750, "building": "yes", "name": "", "height": null, "height_m": null, "levels": null, "tract_id": "40143007654", "tract_name": "76.54", "tags": {"building": "yes", "source": "microsoft/BuildingFootprints"}}}, {"type": "Feature", "geometry": {"type": "Polygon", "coordinates": [[[-95.9073268, 36.0165513], [-95.9068145, 36.01655], [-95.9068141, 36.0166585], [-95.906837, 36.0166585], [-95.9068365, 36.0167822], [-95.9069799, 36.0167826], [-95.9069802, 36.0166958], [-95.907058, 36.016696], [-95.9070582, 36.0166591], [-95.9071708, 36.0166594], [-95.9071705, 36.0167387], [-95.9071303, 36.0167386], [-95.90713, 36.0168188], [-95.9071729, 36.016819], [-95.9071722, 36.0169935], [-95.9073251, 36.0169939], [-95.9073268, 36.0165513]]]}, "properties": {"osm_id": 1235074751, "building": "yes", "name": "", "height": null, "height_m": null, "levels": null, "tract_id": "40143007654", "tract_name": "76.54", "tags": {"building": "yes", "source": "microsoft/BuildingFootprints"}}}]}