{"type": "FeatureCollection", "features": [{"type": "Feature", "geometry": {"type": "Polygon", "coordinates": [[[-97.478015, 34.2185347], [-97.4780147, 34.2183455], [-97.4779114, 34.2183456], [-97.4779116, 34.2185348], [-97.478015, 34.2185347]]]}, "properties": {"osm_id": 1385696050, "building": "house", "name": "", "height": null, "height_m": 3.0, "levels": 1, "tract_id": "40019892301", "tract_name": "8923.01", "tags": {"addr:city": "Healdton", "addr:housenumber": "145", "addr:postcode": "73438", "addr:state": "OK", "addr:street": "Mockingbird Lane", "building": "house", "building:levels": "1", "description": "3 Bedroom 1 Bathroom", "source": "local knowledge"}}}, {"type": "Feature", "geometry": {"type": "Polygon", "coordinates": [[[-97.493286, 34.2296536], [-97.493029, 34.2296624], [-97.4930139, 34.2293587], [-97.4925414, 34.2293748], [-97.4925301, 34.2291464], [-97.4931185, 34.2291265], [-97.4931153, 34.229062], [-97.4931843, 34.2290597], [-97.4931879, 34.2291309], [-97.4933488, 34.2291254], [-97.4933602, 34.229353], [-97.4932712, 34.229356], [-97.493286, 34.2296536]]]}, "properties": {"osm_id": 1385697221, "building": "school", "name": "Healdton Elementary", "height": null, "height_m": 3.0, "levels": 1, "tract_id": "40019892301", "tract_name": "8923.01", "tags": {"addr:city": "Healdton", "addr:housenumber": "3881", "addr:postcode": "73438", "addr:state": "OK", "addr:street": "Hospital Road", "building": "school", "building:levels": "1", "name": "Healdton Elementary", "roof:colour": "Blue", "source": "local knowledge", "wheelchair": "yes"}}}]}