{"type": "FeatureCollection", "features": [{"type": "Feature", "geometry": {"type": "Polygon", "coordinates": [[[-97.8793966, 36.3971248], [-97.8793967, 36.3970264], [-97.8793969, 36.3969241], [-97.8792691, 36.3969239], [-97.8792691, 36.3969062], [-97.8791419, 36.3969061], [-97.879001, 36.3969059], [-97.879001, 36.3969236], [-97.8788785, 36.3969235], [-97.8788783, 36.3970257], [-97.8788781, 36.3971243], [-97.8790044, 36.3971244], [-97.8790043, 36.397145], [-97.8791367, 36.3971451], [-97.8792691, 36.3971452], [-97.8792691, 36.3971246], [-97.8793966, 36.3971248]]]}, "properties": {"osm_id": 72895487, "building": "yes", "name": "Garfield County CourtHouse", "height": null, "height_m": null, "levels": null, "tract_id": "40047000101", "tract_name": "1.01", "tags": {"amenity": "courthouse", "building": "yes", "name": "Garfield County CourtHouse"}}}, {"type": "Feature", "geometry": {"type": "Polygon", "coordinates": [[[-97.8788807, 36.3964453], [-97.8793698, 36.3964475], [-97.8793712, 36.3962485], [-97.8794034, 36.3962487], [-97.879405, 36.3960312], [-97.8787826, 36.3960284], [-97.8787811, 36.3962406], [-97.8788433, 36.3962409], [-97.8788821, 36.3962411], [-97.8788807, 36.3964453]]]}, "properties": {"osm_id": 72895549, "building": "yes", "name": "Enid Post Office", "height": null, "height_m": null, "levels": null, "tract_id": "40047000101", "tract_name": "1.01", "tags": {"amenity": "post_office", "building": "yes", "name": "Enid Post Office"}}}, {"type": "Feature", "geometry": {"type": "Polygon", "coordinates": [[[-97.879409, 36.3959092], [-97.8794074, 36.3956304], [-97.8788916, 36.3956323], [-97.8788932, 36.3959112], [-97.8790587, 36.3959105], [-97.879059, 36.3959578], [-97.8792191, 36.3959572], [-97.8792188, 36.3959099], [-97.879409, 36.3959092]]]}, "properties": {"osm_id": 72895579, "building": "yes", "name": "Enid Public Library", "height": null, "height_m": null, "levels": null, "tract_id": "40047000101", "tract_name": "1.01", "tags": {"addr:city": "Enid", "addr:housenumber": "120", "addr:state": "OK", "addr:street": "West Maine Street", "amenity": "library", "building": "yes", "name": "Enid Public Library", "website": "https://enid.okpls.org/"}}}, {"type": "Feature", "geometry": {"type": "Polygon", "coordinates": [[[-97.8798015, 36.3941092], [-97.8798015, 36.3935905], [-97.8797606, 36.3935905], [-97.8797606, 36.3934731], [-97.8793509, 36.3934731], [-97.8793509, 36.3941178], [-97.8798015, 36.3941092]]]}, "properties": {"osm_id": 72896375, "building": "yes", "name": "Mark Price Arena", "height": null, "height_m": null, "levels": null, "tract_id": "40047000101", "tract_name": "1.01", "tags": {"alt_name": "Convention Hall", "building": "yes", "leisure": "sports_centre", "name": "Mark Price Arena"}}}, {"type": "Feature", "geometry": {"type": "Polygon", "coordinates": [[[-97.8784492, 36.3979874], [-97.8784412, 36.3983889], [-97.8786531, 36.3983889], [-97.8786558, 36.3979831], [-97.8784492, 36.3979874]]]}, "properties": {"osm_id": 294603717, "building": "commercial", "name": "", "height": null, "height_m": null, "levels": null, "tract_id": "40047000101", "tract_name": "1.01", "tags": {"building": "commercial"}}}, {"type": "Feature", "geometry": {"type": "Polygon", "coordinates": [[[-97.8786558, 36.3979831], [-97.8788167, 36.3979831], [-97.8788087, 36.3983868], [-97.8786531, 36.3983889], [-97.8786558, 36.3979831]]]}, "properties": {"osm_id": 294603718, "building": "commercial", "name": "", "height": null, "height_m": null, "levels": null, "tract_id": "40047000101", "tract_name": "1.01", "tags": {"building": "commercial"}}}, {"type": "Feature", "geometry": {"type": "Polygon", "coordinates": [[[-97.8788167, 36.3979831], [-97.8790662, 36.3979874], [-97.8790554, 36.3983846], [-97.8788087, 36.3983868], [-97.8788167, 36.3979831]]]}, "properties": {"osm_id": 294603719, "building": "commercial", "name": "", "height": null, "height_m": null, "levels": null, "tract_id": "40047000101", "tract_name": "1.01", "tags": {"building": "commercial"}}}, {"type": "Feature", "geometry": {"type": "Polygon", "coordinates": [[[-97.8790662, 36.3979874], [-97.8791359, 36.3979895], [-97.8791359, 36.3983911], [-97.8790554, 36.3983846], [-97.8790662, 36.3979874]]]}, "properties": {"osm_id": 294603720, "building": "commercial", "name": "", "height": null, "height_m": null, "levels": null, "tract_id": "40047000101", "tract_name": "1.01", "tags": {"building": "commercial"}}}, {"type": "Feature", "geometry": {"type": "Polygon", "coordinates": [[[-97.8791359, 36.3979895], [-97.8792351, 36.3979895], [-97.8792324, 36.3983954], [-97.8791359, 36.3983911], [-97.8791359, 36.3979895]]]}, "properties": {"osm_id": 294603721, "building": "commercial", "name": "", "height": null, "height_m": null, "levels": null, "tract_id": "40047000101", "tract_name": "1.01", "tags": {"building": "commercial"}}}, {"type": "Feature", "geometry": {"type": "Polygon", "coordinates": [[[-97.8792351, 36.3979895], [-97.8793129, 36.3979917], [-97.8793102, 36.3983933], [-97.8792324, 36.3983954], [-97.8792351, 36.3979895]]]}, "properties": {"osm_id": 294603722, "building": "commercial", "name": "", "height": null, "height_m": null, "levels": null, "tract_id": "40047000101", "tract_name": "1.01", "tags": {"building": "commercial"}}}, {"type": "Feature", "geometry": {"type": "Polygon", "coordinates": [[[-97.8793129, 36.3979917], [-97.8794068, 36.3979939], [-97.8793987, 36.3984019], [-97.8793102, 36.3983933], [-97.8793129, 36.3979917]]]}, "properties": {"osm_id": 294603723, "building": "commercial", "name": "", "height": null, "height_m": null, "levels": null, "tract_id": "40047000101", "tract_name": "1.01", "tags": {"building": "commercial"}}}, {"type": "Feature", "geometry": {"type": "Polygon", "coordinates": [[[-97.8794068, 36.3979939], [-97.879498, 36.3979939], [-97.8794846, 36.3984019], [-97.8793987, 36.3984019], [-97.8794068, 36.3979939]]]}, "properties": {"osm_id": 294603724, "building": "commercial", "name": "", "height": null, "height_m": null, "levels": null, "tract_id": "40047000101", "tract_name": "1.01", "tags": {"building": "commercial"}}}, {"type": "Feature", "geometry": {"type": "Polygon", "coordinates": [[[-97.879498, 36.3979939], [-97.8795785, 36.3979939], [-97.879565, 36.3983997], [-97.8794846, 36.3984019], [-97.879498, 36.3979939]]]}, "properties": {"osm_id": 294603725, "building": "commercial", "name": "", "height": null, "height_m": null, "levels": null, "tract_id": "40047000101", "tract_name": "1.01", "tags": {"building": "commercial"}}}, {"type": "Feature", "geometry": {"type": "Polygon", "coordinates": [[[-97.8795785, 36.3979939], [-97.8796643, 36.3979939], [-97.8796516, 36.3982681], [-97.8796455, 36.3983997], [-97.879565, 36.3983997], [-97.8795785, 36.3979939]]]}, "properties": {"osm_id": 294603726, "building": "commercial", "name": "", "height": null, "height_m": null, "levels": null, "tract_id": "40047000101", "tract_name": "1.01", "tags": {"building": "commercial"}}}, {"type": "Feature", "geometry": {"type": "Polygon", "coordinates": [[[-97.8796643, 36.3979939], [-97.8797474, 36.3979939], [-97.8797421, 36.398268], [-97.8796516, 36.3982681], [-97.8796643, 36.3979939]]]}, "properties": {"osm_id": 294603727, "building": "commercial", "name": "", "height": null, "height_m": null, "levels": null, "tract_id": "40047000101", "tract_name": "1.01", "tags": {"building": "commercial"}}}, {"type": "Feature", "geometry": {"type": "Polygon", "coordinates": [[[-97.8797474, 36.3979939], [-97.8798172, 36.3979939], [-97.8798252, 36.3984062], [-97.8797367, 36.3984041], [-97.8797421, 36.398268], [-97.8797474, 36.3979939]]]}, "properties": {"osm_id": 294603728, "building": "commercial", "name": "", "height": null, "height_m": null, "levels": null, "tract_id": "40047000101", "tract_name": "1.01", "tags": {"building": "commercial"}}}, {"type": "Feature", "geometry": {"type": "Polygon", "coordinates": [[[-97.8816488, 36.3965074], [-97.8816545, 36.3960964], [-97.8820026, 36.3960995], [-97.8820016, 36.3961703], [-97.8819848, 36.3961701], [-97.8819817, 36.3963964], [-97.8820109, 36.3963967], [-97.8820093, 36.3965107], [-97.8816488, 36.3965074]]]}, "properties": {"osm_id": 437177169, "building": "yes", "name": "Enid Symphony Center", "height": null, "height_m": 15.0, "levels": 5, "tract_id": "40047000101", "tract_name": "1.01", "tags": {"amenity": "arts_centre", "building": "yes", "building:levels": "5", "name": "Enid Symphony Center", "website": "https://enidsymphony.org/", "wikipedia": "en:Enid Symphony Center"}}}, {"type": "Feature", "geometry": {"type": "Polygon", "coordinates": [[[-97.8798296, 36.3988853], [-97.8791751, 36.398881], [-97.8791751, 36.3986651], [-97.8798296, 36.3986737], [-97.8798296, 36.3988853]]]}, "properties": {"osm_id": 468791931, "building": "yes", "name": "Gaslight Theater", "height": null, "height_m": null, "levels": null, "tract_id": "40047000101", "tract_name": "1.01", "tags": {"amenity": "theatre", "building": "yes", "name": "Gaslight Theater"}}}, {"type": "Feature", "geometry": {"type": "Polygon", "coordinates": [[[-97.877326, 36.3976865], [-97.8768218, 36.3976865], [-97.8768218, 36.3974792], [-97.877326, 36.3974792], [-97.877326, 36.3976865]]]}, "properties": {"osm_id": 494442682, "building": "yes", "name": "", "height": null, "height_m": null, "levels": null, "tract_id": "40047000101", "tract_name": "1.01", "tags": {"building": "yes"}}}, {"type": "Feature", "geometry": {"type": "Polygon", "coordinates": [[[-97.8781775, 36.3976788], [-97.8776604, 36.3976805], [-97.8776598, 36.3975623], [-97.8781769, 36.3975606], [-97.8781775, 36.3976788]]]}, "properties": {"osm_id": 494442683, "building": "yes", "name": "", "height": null, "height_m": null, "levels": null, "tract_id": "40047000101", "tract_name": "1.01", "tags": {"building": "yes"}}}, {"type": "Feature", "geometry": {"type": "Polygon", "coordinates": [[[-97.8792384, 36.394666], [-97.8791392, 36.3946667], [-97.87914, 36.3947542], [-97.8786143, 36.3947577], [-97.8786134, 36.3946702], [-97.8785089, 36.3946709], [-97.8785008, 36.393885], [-97.8792304, 36.3938801], [-97.8792384, 36.394666]]]}, "properties": {"osm_id": 541780159, "building": "public", "name": "Stride Bank Center", "height": null, "height_m": null, "levels": null, "tract_id": "40047000101", "tract_name": "1.01", "tags": {"addr:city": "Enid", "addr:country": "US", "addr:housenumber": "301", "addr:postcode": "73701", "addr:state": "OK", "addr:street": "South Independence Avenue", "amenity": "events_venue", "building": "public", "name": "Stride Bank Center", "phone": "+1-580-234-1919", "website": "https://www.cnbcenter.com"}}}, {"type": "Feature", "geometry": {"type": "Polygon", "coordinates": [[[-97.8806016, 36.4007716], [-97.8801107, 36.4007719], [-97.8801105, 36.4006355], [-97.8806015, 36.4006352], [-97.8806016, 36.4007716]]]}, "properties": {"osm_id": 663012637, "building": "yes", "name": "", "height": null, "height_m": null, "levels": null, "tract_id": "40047000101", "tract_name": "1.01", "tags": {"building": "yes"}}}, {"type": "Feature", "geometry": {"type": "Polygon", "coordinates": [[[-97.8804414, 36.4011261], [-97.8801175, 36.4011288], [-97.8801154, 36.4009627], [-97.8804393, 36.40096], [-97.8804414, 36.4011261]]]}, "properties": {"osm_id": 663012638, "building": "yes", "name": "", "height": null, "height_m": null, "levels": null, "tract_id": "40047000101", "tract_name": "1.01", "tags": {"building": "yes"}}}, {"type": "Feature", "geometry": {"type": "Polygon", "coordinates": [[[-97.8770256, 36.4002426], [-97.8770256, 36.4006841], [-97.8768553, 36.4006841], [-97.8768553, 36.4002426], [-97.8770256, 36.4002426]]]}, "properties": {"osm_id": 663012639, "building": "yes", "name": "", "height": null, "height_m": null, "levels": null, "tract_id": "40047000101", "tract_name": "1.01", "tags": {"building": "yes"}}}, {"type": "Feature", "geometry": {"type": "Polygon", "coordinates": [[[-97.8781696, 36.3997774], [-97.877963, 36.3997828], [-97.8779588, 36.3996781], [-97.8781653, 36.3996727], [-97.8781696, 36.3997774]]]}, "properties": {"osm_id": 663012641, "building": "yes", "name": "", "height": null, "height_m": null, "levels": null, "tract_id": "40047000101", "tract_name": "1.01", "tags": {"building": "yes"}}}, {"type": "Feature", "geometry": {"type": "Polygon", "coordinates": [[[-97.8779322, 36.3997936], [-97.8777042, 36.3997968], [-97.8777021, 36.3997021], [-97.8779301, 36.3996989], [-97.8779322, 36.3997936]]]}, "properties": {"osm_id": 663012642, "building": "yes", "name": "", "height": null, "height_m": null, "levels": null, "tract_id": "40047000101", "tract_name": "1.01", "tags": {"building": "yes"}}}, {"type": "Feature", "geometry": {"type": "Polygon", "coordinates": [[[-97.8772362, 36.3996846], [-97.8768499, 36.3996846], [-97.8768499, 36.3995669], [-97.8772362, 36.3995669], [-97.8772362, 36.3996846]]]}, "properties": {"osm_id": 663012643, "building": "yes", "name": "", "height": null, "height_m": null, "levels": null, "tract_id": "40047000101", "tract_name": "1.01", "tags": {"building": "yes"}}}, {"type": "Feature", "geometry": {"type": "Polygon", "coordinates": [[[-97.8765669, 36.3995777], [-97.8765616, 36.400003], [-97.8763551, 36.4000013], [-97.8763604, 36.399576], [-97.8765669, 36.3995777]]]}, "properties": {"osm_id": 663012645, "building": "yes", "name": "", "height": null, "height_m": null, "levels": null, "tract_id": "40047000101", "tract_name": "1.01", "tags": {"building": "yes"}}}, {"type": "Feature", "geometry": {"type": "Polygon", "coordinates": [[[-97.8739384, 36.4011278], [-97.8737466, 36.4016394], [-97.8735474, 36.401591], [-97.8737392, 36.4010794], [-97.8739384, 36.4011278]]]}, "properties": {"osm_id": 663012651, "building": "yes", "name": "", "height": null, "height_m": null, "levels": null, "tract_id": "40047000101", "tract_name": "1.01", "tags": {"building": "yes"}}}, {"type": "Feature", "geometry": {"type": "Polygon", "coordinates": [[[-97.8896923, 36.4045603], [-97.889176, 36.4045635], [-97.889175, 36.4044601], [-97.8896913, 36.4044568], [-97.8896923, 36.4045603]]]}, "properties": {"osm_id": 663012662, "building": "yes", "name": "", "height": null, "height_m": null, "levels": null, "tract_id": "40047000101", "tract_name": "1.01", "tags": {"building": "yes"}}}, {"type": "Feature", "geometry": {"type": "Polygon", "coordinates": [[[-97.888594, 36.4045376], [-97.8878067, 36.4045376], [-97.8878067, 36.40442], [-97.888594, 36.40442], [-97.888594, 36.4045376]]]}, "properties": {"osm_id": 663012663, "building": "yes", "name": "", "height": null, "height_m": null, "levels": null, "tract_id": "40047000101", "tract_name": "1.01", "tags": {"building": "yes"}}}, {"type": "Feature", "geometry": {"type": "Polygon", "coordinates": [[[-97.8876565, 36.4045462], [-97.8871013, 36.4045506], [-97.8870999, 36.4044289], [-97.8876551, 36.4044246], [-97.8876565, 36.4045462]]]}, "properties": {"osm_id": 663012664, "building": "yes", "name": "", "height": null, "height_m": null, "levels": null, "tract_id": "40047000101", "tract_name": "1.01", "tags": {"building": "yes"}}}, {"type": "Feature", "geometry": {"type": "Polygon", "coordinates": [[[-97.8923625, 36.4032521], [-97.8923625, 36.4033535], [-97.8922552, 36.4033535], [-97.8922552, 36.4032521], [-97.8923625, 36.4032521]]]}, "properties": {"osm_id": 663012666, "building": "yes", "name": "", "height": null, "height_m": null, "levels": null, "tract_id": "40047000101", "tract_name": "1.01", "tags": {"building": "yes"}}}, {"type": "Feature", "geometry": {"type": "Polygon", "coordinates": [[[-97.8932047, 36.4038231], [-97.8930599, 36.4038317], [-97.8930443, 36.4036627], [-97.8931891, 36.403654], [-97.8932047, 36.4038231]]]}, "properties": {"osm_id": 663012667, "building": "yes", "name": "", "height": null, "height_m": null, "levels": null, "tract_id": "40047000101", "tract_name": "1.01", "tags": {"building": "yes"}}}, {"type": "Feature", "geometry": {"type": "Polygon", "coordinates": [[[-97.893485, 36.4034539], [-97.893316, 36.4034561], [-97.8933113, 36.4032177], [-97.8934803, 36.4032156], [-97.893485, 36.4034539]]]}, "properties": {"osm_id": 663012668, "building": "yes", "name": "", "height": null, "height_m": null, "levels": null, "tract_id": "40047000101", "tract_name": "1.01", "tags": {"building": "yes"}}}, {"type": "Feature", "geometry": {"type": "Polygon", "coordinates": [[[-97.8940885, 36.4033632], [-97.8939168, 36.4033632], [-97.8939168, 36.4032261], [-97.8940885, 36.4032261], [-97.8940885, 36.4033632]]]}, "properties": {"osm_id": 663012669, "building": "yes", "name": "", "height": null, "height_m": null, "levels": null, "tract_id": "40047000101", "tract_name": "1.01", "tags": {"building": "yes"}}}, {"type": "Feature", "geometry": {"type": "Polygon", "coordinates": [[[-97.8972783, 36.4047314], [-97.8970791, 36.4047319], [-97.8970787, 36.4046181], [-97.8972778, 36.4046176], [-97.8972783, 36.4047314]]]}, "properties": {"osm_id": 663012670, "building": "yes", "name": "", "height": null, "height_m": null, "levels": null, "tract_id": "40047000101", "tract_name": "1.01", "tags": {"building": "yes"}}}, {"type": "Feature", "geometry": {"type": "Polygon", "coordinates": [[[-97.8972723, 36.4043239], [-97.897063, 36.4043282], [-97.8970602, 36.4042386], [-97.8972694, 36.4042343], [-97.8972723, 36.4043239]]]}, "properties": {"osm_id": 663012671, "building": "yes", "name": "", "height": null, "height_m": null, "levels": null, "tract_id": "40047000101", "tract_name": "1.01", "tags": {"building": "yes"}}}, {"type": "Feature", "geometry": {"type": "Polygon", "coordinates": [[[-97.8994972, 36.4049078], [-97.8993371, 36.4049093], [-97.8993304, 36.4044365], [-97.8994904, 36.4044351], [-97.8994972, 36.4049078]]]}, "properties": {"osm_id": 663012674, "building": "yes", "name": "", "height": null, "height_m": null, "levels": null, "tract_id": "40047000101", "tract_name": "1.01", "tags": {"building": "yes"}}}, {"type": "Feature", "geometry": {"type": "Polygon", "coordinates": [[[-97.8982902, 36.4042311], [-97.8980179, 36.4042278], [-97.89802, 36.4041143], [-97.8982922, 36.4041176], [-97.8982902, 36.4042311]]]}, "properties": {"osm_id": 663012675, "building": "yes", "name": "", "height": null, "height_m": null, "levels": null, "tract_id": "40047000101", "tract_name": "1.01", "tags": {"building": "yes"}}}, {"type": "Feature", "geometry": {"type": "Polygon", "coordinates": [[[-97.8978838, 36.4042289], [-97.8976156, 36.4042278], [-97.8976163, 36.4041155], [-97.8978845, 36.4041165], [-97.8978838, 36.4042289]]]}, "properties": {"osm_id": 663012676, "building": "yes", "name": "", "height": null, "height_m": null, "levels": null, "tract_id": "40047000101", "tract_name": "1.01", "tags": {"building": "yes"}}}, {"type": "Feature", "geometry": {"type": "Polygon", "coordinates": [[[-97.8978932, 36.4044448], [-97.8976236, 36.4044448], [-97.8976236, 36.4043412], [-97.8978932, 36.4043412], [-97.8978932, 36.4044448]]]}, "properties": {"osm_id": 663012677, "building": "yes", "name": "", "height": null, "height_m": null, "levels": null, "tract_id": "40047000101", "tract_name": "1.01", "tags": {"building": "yes"}}}, {"type": "Feature", "geometry": {"type": "Polygon", "coordinates": [[[-97.8982928, 36.404285], [-97.8982928, 36.404488], [-97.8980903, 36.404488], [-97.8980903, 36.404285], [-97.8982928, 36.404285]]]}, "properties": {"osm_id": 663012678, "building": "yes", "name": "", "height": null, "height_m": null, "levels": null, "tract_id": "40047000101", "tract_name": "1.01", "tags": {"building": "yes"}}}, {"type": "Feature", "geometry": {"type": "Polygon", "coordinates": [[[-97.8982955, 36.4047087], [-97.8980903, 36.4047109], [-97.8980884, 36.4045901], [-97.8982936, 36.4045879], [-97.8982955, 36.4047087]]]}, "properties": {"osm_id": 663012679, "building": "yes", "name": "", "height": null, "height_m": null, "levels": null, "tract_id": "40047000101", "tract_name": "1.01", "tags": {"building": "yes"}}}, {"type": "Feature", "geometry": {"type": "Polygon", "coordinates": [[[-97.8978912, 36.4046671], [-97.8976297, 36.4046725], [-97.8976245, 36.4045095], [-97.897886, 36.4045041], [-97.8978912, 36.4046671]]]}, "properties": {"osm_id": 663012680, "building": "yes", "name": "", "height": null, "height_m": null, "levels": null, "tract_id": "40047000101", "tract_name": "1.01", "tags": {"building": "yes"}}}, {"type": "Feature", "geometry": {"type": "Polygon", "coordinates": [[[-97.8972857, 36.4050892], [-97.8970912, 36.4050919], [-97.8970887, 36.4049754], [-97.8972832, 36.4049727], [-97.8972857, 36.4050892]]]}, "properties": {"osm_id": 663012681, "building": "yes", "name": "", "height": null, "height_m": null, "levels": null, "tract_id": "40047000101", "tract_name": "1.01", "tags": {"building": "yes"}}}, {"type": "Feature", "geometry": {"type": "Polygon", "coordinates": [[[-97.897287, 36.4047594], [-97.8972884, 36.4049645], [-97.8970821, 36.4049654], [-97.8970807, 36.4047603], [-97.897287, 36.4047594]]]}, "properties": {"osm_id": 663012682, "building": "yes", "name": "", "height": null, "height_m": null, "levels": null, "tract_id": "40047000101", "tract_name": "1.01", "tags": {"building": "yes"}}}, {"type": "Feature", "geometry": {"type": "Polygon", "coordinates": [[[-97.8927983, 36.4051615], [-97.8924859, 36.4051669], [-97.892482, 36.4050223], [-97.8927945, 36.4050169], [-97.8927983, 36.4051615]]]}, "properties": {"osm_id": 663012690, "building": "yes", "name": "", "height": null, "height_m": null, "levels": null, "tract_id": "40047000101", "tract_name": "1.01", "tags": {"building": "yes"}}}, {"type": "Feature", "geometry": {"type": "Polygon", "coordinates": [[[-97.8826247, 36.3915332], [-97.8826234, 36.3917426], [-97.8823816, 36.3917416], [-97.8823829, 36.3915322], [-97.8826247, 36.3915332]]]}, "properties": {"osm_id": 663079303, "building": "yes", "name": "", "height": null, "height_m": null, "levels": null, "tract_id": "40047000101", "tract_name": "1.01", "tags": {"building": "yes"}}}, {"type": "Feature", "geometry": {"type": "Polygon", "coordinates": [[[-97.883876, 36.3917556], [-97.8835796, 36.3917513], [-97.8835839, 36.391558], [-97.8838803, 36.3915623], [-97.883876, 36.3917556]]]}, "properties": {"osm_id": 663079304, "building": "yes", "name": "", "height": null, "height_m": null, "levels": null, "tract_id": "40047000101", "tract_name": "1.01", "tags": {"building": "yes"}}}, {"type": "Feature", "geometry": {"type": "Polygon", "coordinates": [[[-97.889801, 36.391503], [-97.8894013, 36.3914997], [-97.8893088, 36.3914296], [-97.8893168, 36.3912352], [-97.8897715, 36.3912331], [-97.8898063, 36.3912579], [-97.889801, 36.391503]]]}, "properties": {"osm_id": 663079319, "building": "yes", "name": "CVS Pharmacy", "height": null, "height_m": null, "levels": null, "tract_id": "40047000101", "tract_name": "1.01", "tags": {"amenity": "pharmacy", "brand": "CVS Pharmacy", "brand:website": "https://www.cvs.com/", "brand:wikidata": "Q2078880", "building": "yes", "healthcare": "pharmacy", "name": "CVS Pharmacy", "short_name": "CVS", "website": "https://www.cvs.com/store-locator/enid-ok-pharmacies/930-west-garriott-rd-enid-ok-73703/storeid=10102"}}}, {"type": "Feature", "geometry": {"type": "Polygon", "coordinates": [[[-97.8907357, 36.3936092], [-97.890731, 36.3937808], [-97.8906239, 36.3937789], [-97.8906286, 36.3936073], [-97.8907357, 36.3936092]]]}, "properties": {"osm_id": 663079321, "building": "yes", "name": "", "height": null, "height_m": null, "levels": null, "tract_id": "40047000101", "tract_name": "1.01", "tags": {"building": "yes"}}}, {"type": "Feature", "geometry": {"type": "Polygon", "coordinates": [[[-97.8893115, 36.3930608], [-97.8893088, 36.3931957], [-97.8891917, 36.3931942], [-97.8891944, 36.3930592], [-97.8893115, 36.3930608]]]}, "properties": {"osm_id": 663079322, "building": "yes", "name": "", "height": null, "height_m": null, "levels": null, "tract_id": "40047000101", "tract_name": "1.01", "tags": {"building": "yes"}}}, {"type": "Feature", "geometry": {"type": "Polygon", "coordinates": [[[-97.8899486, 36.3931447], [-97.8896093, 36.3931425], [-97.8896117, 36.3928911], [-97.889951, 36.3928932], [-97.8899486, 36.3931447]]]}, "properties": {"osm_id": 663079323, "building": "retail", "name": "", "height": null, "height_m": null, "levels": null, "tract_id": "40047000101", "tract_name": "1.01", "tags": {"building": "retail"}}}, {"type": "Feature", "geometry": {"type": "Polygon", "coordinates": [[[-97.8886127, 36.3913961], [-97.8881755, 36.3913961], [-97.8881755, 36.3912449], [-97.8886127, 36.3912449], [-97.8886127, 36.3913961]]]}, "properties": {"osm_id": 663079324, "building": "yes", "name": "", "height": null, "height_m": null, "levels": null, "tract_id": "40047000101", "tract_name": "1.01", "tags": {"building": "yes"}}}, {"type": "Feature", "geometry": {"type": "Polygon", "coordinates": [[[-97.8898627, 36.3921453], [-97.8896306, 36.3921388], [-97.8896357, 36.392021], [-97.8898677, 36.3920275], [-97.8898627, 36.3921453]]]}, "properties": {"osm_id": 663079326, "building": "yes", "name": "", "height": null, "height_m": null, "levels": null, "tract_id": "40047000101", "tract_name": "1.01", "tags": {"building": "yes"}}}, {"type": "Feature", "geometry": {"type": "Polygon", "coordinates": [[[-97.8899713, 36.3916876], [-97.8897648, 36.3916876], [-97.8897648, 36.3916077], [-97.8899713, 36.3916077], [-97.8899713, 36.3916876]]]}, "properties": {"osm_id": 663079327, "building": "retail", "name": "", "height": null, "height_m": null, "levels": null, "tract_id": "40047000101", "tract_name": "1.01", "tags": {"building": "retail"}}}, {"type": "Feature", "geometry": {"type": "Polygon", "coordinates": [[[-97.9010314, 36.397993], [-97.9008859, 36.3979952], [-97.9008833, 36.3978817], [-97.9010288, 36.3978796], [-97.9010314, 36.397993]]]}, "properties": {"osm_id": 689010405, "building": "yes", "name": "", "height": null, "height_m": null, "levels": null, "tract_id": "40047000101", "tract_name": "1.01", "tags": {"building": "yes"}}}, {"type": "Feature", "geometry": {"type": "Polygon", "coordinates": [[[-97.899186, 36.4001023], [-97.89919, 36.40037], [-97.8990672, 36.4003712], [-97.8990632, 36.4001035], [-97.899186, 36.4001023]]]}, "properties": {"osm_id": 689010406, "building": "yes", "name": "", "height": null, "height_m": null, "levels": null, "tract_id": "40047000101", "tract_name": "1.01", "tags": {"building": "yes"}}}, {"type": "Feature", "geometry": {"type": "Polygon", "coordinates": [[[-97.8995521, 36.4000893], [-97.8995468, 36.4001962], [-97.8994093, 36.4001917], [-97.8994146, 36.4000849], [-97.8995521, 36.4000893]]]}, "properties": {"osm_id": 689010407, "building": "yes", "name": "", "height": null, "height_m": null, "levels": null, "tract_id": "40047000101", "tract_name": "1.01", "tags": {"building": "yes"}}}, {"type": "Feature", "geometry": {"type": "Polygon", "coordinates": [[[-97.8765737, 36.3995081], [-97.8763672, 36.3995081], [-97.8763667, 36.399062], [-97.8763659, 36.3990458], [-97.8765737, 36.3990458], [-97.8765737, 36.3995081]]]}, "properties": {"osm_id": 751990675, "building": "yes", "name": "Leonardo's Children's Museum", "height": null, "height_m": null, "levels": null, "tract_id": "40047000101", "tract_name": "1.01", "tags": {"building": "yes", "name": "Leonardo's Children's Museum", "tourism": "museum"}}}, {"type": "Feature", "geometry": {"type": "Polygon", "coordinates": [[[-97.8755162, 36.3987404], [-97.8754758, 36.3987035], [-97.8754067, 36.3987527], [-97.8754472, 36.3987896], [-97.8755162, 36.3987404]]]}, "properties": {"osm_id": 751990679, "building": "greenhouse", "name": "", "height": null, "height_m": null, "levels": null, "tract_id": "40047000101", "tract_name": "1.01", "tags": {"building": "greenhouse"}}}, {"type": "Feature", "geometry": {"type": "Polygon", "coordinates": [[[-97.8755608, 36.3985686], [-97.8755011, 36.3986183], [-97.8753876, 36.3985302], [-97.8754472, 36.3984804], [-97.8755608, 36.3985686]]]}, "properties": {"osm_id": 751990680, "building": "yes", "name": "", "height": null, "height_m": null, "levels": null, "tract_id": "40047000101", "tract_name": "1.01", "tags": {"building": "yes"}}}, {"type": "Feature", "geometry": {"type": "Polygon", "coordinates": [[[-97.8763667, 36.399062], [-97.8762251, 36.3990621], [-97.8762281, 36.3995049], [-97.8762275, 36.3995251], [-97.8763672, 36.399525], [-97.8763672, 36.3995081], [-97.8763667, 36.399062]]]}, "properties": {"osm_id": 751990686, "building": "yes", "name": "", "height": null, "height_m": null, "levels": null, "tract_id": "40047000101", "tract_name": "1.01", "tags": {"building": "yes"}}}, {"type": "Feature", "geometry": {"type": "Polygon", "coordinates": [[[-97.8762281, 36.3995049], [-97.8761424, 36.3995053], [-97.8761422, 36.3994848], [-97.8761413, 36.3993564], [-97.8761065, 36.3993566], [-97.8761057, 36.3992319], [-97.876139, 36.3992317], [-97.8761379, 36.3990692], [-97.8761377, 36.3990458], [-97.8762249, 36.3990454], [-97.8762251, 36.3990621], [-97.8762281, 36.3995049]]]}, "properties": {"osm_id": 751990687, "building": "yes", "name": "", "height": null, "height_m": null, "levels": null, "tract_id": "40047000101", "tract_name": "1.01", "tags": {"building": "yes"}}}, {"type": "Feature", "geometry": {"type": "Polygon", "coordinates": [[[-97.8758173, 36.3995217], [-97.8758175, 36.3994832], [-97.8758192, 36.3991486], [-97.8758203, 36.3990678], [-97.8756413, 36.3990667], [-97.8756389, 36.3995211], [-97.8758173, 36.3995217]]]}, "properties": {"osm_id": 751990688, "building": "yes", "name": "", "height": null, "height_m": null, "levels": null, "tract_id": "40047000101", "tract_name": "1.01", "tags": {"building": "yes"}}}, {"type": "Feature", "geometry": {"type": "Polygon", "coordinates": [[[-97.8758192, 36.3991486], [-97.8759034, 36.3991493], [-97.8759044, 36.3990685], [-97.8758203, 36.3990678], [-97.8758192, 36.3991486]]]}, "properties": {"osm_id": 751990689, "building": "yes", "name": "", "height": null, "height_m": null, "levels": null, "tract_id": "40047000101", "tract_name": "1.01", "tags": {"building": "yes"}}}, {"type": "Feature", "geometry": {"type": "Polygon", "coordinates": [[[-97.8896588, 36.3971759], [-97.8896695, 36.3969643], [-97.8898279, 36.3969695], [-97.8898256, 36.3970148], [-97.8898707, 36.3970323], [-97.889868, 36.3971187], [-97.8898195, 36.3971357], [-97.8898172, 36.3971811], [-97.8896588, 36.3971759]]]}, "properties": {"osm_id": 833052867, "building": "yes", "name": "Coldwell Banker", "height": null, "height_m": null, "levels": null, "tract_id": "40047000101", "tract_name": "1.01", "tags": {"addr:city": "Enid", "addr:country": "US", "addr:housenumber": "101", "addr:state": "OK", "addr:street": "North Van Buren Street", "building": "yes", "name": "Coldwell Banker", "office": "estate_agent", "opening_hours": "Mo-Fr 08:30-17:00", "phone": "+1 580 233 8833", "website": "http://www.enidsbest.com/"}}}, {"type": "Feature", "geometry": {"type": "Polygon", "coordinates": [[[-97.8832482, 36.391431], [-97.8836356, 36.3914355], [-97.8836388, 36.3912558], [-97.8838631, 36.3912584], [-97.8838655, 36.3911254], [-97.8835196, 36.3911213], [-97.8835205, 36.3910728], [-97.8831726, 36.3910686], [-97.8831735, 36.3910247], [-97.8830359, 36.391023], [-97.8830332, 36.391169], [-97.8830845, 36.3911696], [-97.8830821, 36.3913], [-97.8832505, 36.391302], [-97.8832482, 36.391431]]]}, "properties": {"osm_id": 944301509, "building": "yes", "name": "Enid Fire Department Station #1", "height": null, "height_m": null, "levels": null, "tract_id": "40047000101", "tract_name": "1.01", "tags": {"amenity": "fire_station", "building": "yes", "name": "Enid Fire Department Station #1"}}}, {"type": "Feature", "geometry": {"type": "Polygon", "coordinates": [[[-97.8807239, 36.3912898], [-97.8807255, 36.391039], [-97.8801992, 36.3910368], [-97.8802035, 36.3911723], [-97.8801977, 36.3912876], [-97.8807239, 36.3912898]]]}, "properties": {"osm_id": 944302084, "building": "yes", "name": "", "height": null, "height_m": null, "levels": null, "tract_id": "40047000101", "tract_name": "1.01", "tags": {"building": "yes", "office": "government"}}}, {"type": "Feature", "geometry": {"type": "Polygon", "coordinates": [[[-97.8807134, 36.3916157], [-97.8807172, 36.3913337], [-97.8805427, 36.3913323], [-97.880539, 36.3916142], [-97.8807134, 36.3916157]]]}, "properties": {"osm_id": 944302085, "building": "yes", "name": "", "height": null, "height_m": null, "levels": null, "tract_id": "40047000101", "tract_name": "1.01", "tags": {"building": "yes", "office": "government"}}}, {"type": "Feature", "geometry": {"type": "Polygon", "coordinates": [[[-97.880421, 36.3916967], [-97.8804151, 36.3913372], [-97.8802303, 36.3913392], [-97.8802323, 36.3914613], [-97.8802063, 36.3914615], [-97.8802105, 36.3917148], [-97.8802831, 36.391714], [-97.8802829, 36.3916982], [-97.880421, 36.3916967]]]}, "properties": {"osm_id": 944302086, "building": "yes", "name": "", "height": null, "height_m": null, "levels": null, "tract_id": "40047000101", "tract_name": "1.01", "tags": {"building": "yes", "office": "government"}}}, {"type": "Feature", "geometry": {"type": "Polygon", "coordinates": [[[-97.8778874, 36.3941657], [-97.8781206, 36.3939164], [-97.8779823, 36.3935509], [-97.8778812, 36.3935692], [-97.8778585, 36.3934562], [-97.8777356, 36.3934827], [-97.8778677, 36.3938888], [-97.8777429, 36.3940012], [-97.8772496, 36.3940012], [-97.8772476, 36.3940726], [-97.8774086, 36.3940776], [-97.8774086, 36.3941706], [-97.8778874, 36.3941657]]]}, "properties": {"osm_id": 944416457, "building": "grandstand", "name": "", "height": null, "height_m": null, "levels": null, "tract_id": "40047000101", "tract_name": "1.01", "tags": {"building": "grandstand"}}}, {"type": "Feature", "geometry": {"type": "Polygon", "coordinates": [[[-97.8876583, 36.3953952], [-97.8876603, 36.395256], [-97.8875613, 36.3952551], [-97.8875594, 36.3953943], [-97.8876583, 36.3953952]]]}, "properties": {"osm_id": 944428733, "building": "house", "name": "", "height": null, "height_m": null, "levels": null, "tract_id": "40047000101", "tract_name": "1.01", "tags": {"building": "house"}}}, {"type": "Feature", "geometry": {"type": "Polygon", "coordinates": [[[-97.8873397, 36.3953821], [-97.8873402, 36.395259], [-97.8873652, 36.395259], [-97.8873654, 36.3952181], [-97.8874213, 36.3952183], [-97.8874211, 36.3952538], [-97.887446, 36.3952539], [-97.8874455, 36.3953823], [-97.8873397, 36.3953821]]]}, "properties": {"osm_id": 944428734, "building": "house", "name": "", "height": null, "height_m": null, "levels": null, "tract_id": "40047000101", "tract_name": "1.01", "tags": {"building": "house"}}}, {"type": "Feature", "geometry": {"type": "Polygon", "coordinates": [[[-97.887308, 36.3953948], [-97.8873094, 36.3952738], [-97.8869735, 36.3952712], [-97.8869721, 36.3953923], [-97.887308, 36.3953948]]]}, "properties": {"osm_id": 944428735, "building": "retail", "name": "", "height": null, "height_m": null, "levels": null, "tract_id": "40047000101", "tract_name": "1.01", "tags": {"building": "retail"}}}, {"type": "Feature", "geometry": {"type": "Polygon", "coordinates": [[[-97.8866773, 36.3953834], [-97.8866789, 36.3951762], [-97.8866213, 36.3951759], [-97.8866219, 36.3950896], [-97.8868302, 36.3950906], [-97.886828, 36.3953841], [-97.8866773, 36.3953834]]]}, "properties": {"osm_id": 944428736, "building": "yes", "name": "", "height": null, "height_m": null, "levels": null, "tract_id": "40047000101", "tract_name": "1.01", "tags": {"building": "yes"}}}, {"type": "Feature", "geometry": {"type": "Polygon", "coordinates": [[[-97.8871395, 36.3936732], [-97.8871395, 36.3935316], [-97.887048, 36.3935316], [-97.887048, 36.393558], [-97.8870023, 36.393558], [-97.8870023, 36.3936156], [-97.8870687, 36.3936156], [-97.8870687, 36.3936733], [-97.8871395, 36.3936732]]]}, "properties": {"osm_id": 944428818, "building": "yes", "name": "", "height": null, "height_m": null, "levels": null, "tract_id": "40047000101", "tract_name": "1.01", "tags": {"building": "yes"}}}, {"type": "Feature", "geometry": {"type": "Polygon", "coordinates": [[[-97.8856838, 36.3919619], [-97.8856824, 36.3918742], [-97.8854441, 36.3918766], [-97.8854455, 36.3919644], [-97.8856838, 36.3919619]]]}, "properties": {"osm_id": 944429432, "building": "house", "name": "", "height": null, "height_m": null, "levels": null, "tract_id": "40047000101", "tract_name": "1.01", "tags": {"building": "house"}}}, {"type": "Feature", "geometry": {"type": "Polygon", "coordinates": [[[-97.8855993, 36.391678], [-97.8855977, 36.391595], [-97.8854588, 36.3915968], [-97.8854592, 36.3916173], [-97.8854264, 36.3916177], [-97.8854276, 36.3916801], [-97.8855993, 36.391678]]]}, "properties": {"osm_id": 944429433, "building": "house", "name": "", "height": null, "height_m": null, "levels": null, "tract_id": "40047000101", "tract_name": "1.01", "tags": {"building": "house"}}}, {"type": "Feature", "geometry": {"type": "Polygon", "coordinates": [[[-97.8855974, 36.3915458], [-97.8855958, 36.3914629], [-97.8854569, 36.3914646], [-97.8854573, 36.3914851], [-97.8854245, 36.3914855], [-97.8854258, 36.391548], [-97.8855974, 36.3915458]]]}, "properties": {"osm_id": 944429434, "building": "house", "name": "", "height": null, "height_m": null, "levels": null, "tract_id": "40047000101", "tract_name": "1.01", "tags": {"building": "house"}}}, {"type": "Feature", "geometry": {"type": "Polygon", "coordinates": [[[-97.8854351, 36.3917183], [-97.885588, 36.3917193], [-97.8855874, 36.3917821], [-97.885552, 36.3917819], [-97.8855519, 36.3917946], [-97.8854781, 36.3917941], [-97.8854782, 36.3917827], [-97.8854344, 36.3917825], [-97.8854351, 36.3917183]]]}, "properties": {"osm_id": 944429436, "building": "house", "name": "", "height": null, "height_m": null, "levels": null, "tract_id": "40047000101", "tract_name": "1.01", "tags": {"building": "house"}}}, {"type": "Feature", "geometry": {"type": "Polygon", "coordinates": [[[-97.8830642, 36.3924785], [-97.8830657, 36.3923989], [-97.8829188, 36.392397], [-97.8829173, 36.3924767], [-97.8830642, 36.3924785]]]}, "properties": {"osm_id": 944429948, "building": "house", "name": "", "height": null, "height_m": null, "levels": null, "tract_id": "40047000101", "tract_name": "1.01", "tags": {"building": "house"}}}, {"type": "Feature", "geometry": {"type": "Polygon", "coordinates": [[[-97.8830628, 36.3923358], [-97.8830643, 36.3922562], [-97.8829175, 36.3922544], [-97.882916, 36.392334], [-97.8830628, 36.3923358]]]}, "properties": {"osm_id": 944429949, "building": "house", "name": "", "height": null, "height_m": null, "levels": null, "tract_id": "40047000101", "tract_name": "1.01", "tags": {"building": "house"}}}, {"type": "Feature", "geometry": {"type": "Polygon", "coordinates": [[[-97.8833781, 36.3922181], [-97.8833794, 36.3921078], [-97.8832789, 36.392107], [-97.8832776, 36.3922174], [-97.8833781, 36.3922181]]]}, "properties": {"osm_id": 944429950, "building": "house", "name": "", "height": null, "height_m": null, "levels": null, "tract_id": "40047000101", "tract_name": "1.01", "tags": {"building": "house"}}}, {"type": "Feature", "geometry": {"type": "Polygon", "coordinates": [[[-97.8832011, 36.3922207], [-97.8832024, 36.3921104], [-97.8831019, 36.3921096], [-97.8831006, 36.39222], [-97.8832011, 36.3922207]]]}, "properties": {"osm_id": 944429951, "building": "house", "name": "", "height": null, "height_m": null, "levels": null, "tract_id": "40047000101", "tract_name": "1.01", "tags": {"building": "house"}}}, {"type": "Feature", "geometry": {"type": "Polygon", "coordinates": [[[-97.8835306, 36.3922245], [-97.8835309, 36.3922101], [-97.8835561, 36.3922104], [-97.8835579, 36.3921151], [-97.8834491, 36.3921138], [-97.883447, 36.3922235], [-97.8835306, 36.3922245]]]}, "properties": {"osm_id": 944429952, "building": "house", "name": "", "height": null, "height_m": null, "levels": null, "tract_id": "40047000101", "tract_name": "1.01", "tags": {"building": "house"}}}, {"type": "Feature", "geometry": {"type": "Polygon", "coordinates": [[[-97.8862185, 36.4014761], [-97.8862193, 36.4012885], [-97.8863544, 36.4012888], [-97.8863536, 36.4014764], [-97.8862185, 36.4014761]]]}, "properties": {"osm_id": 944748040, "building": "yes", "name": "Christ First Covenant", "height": null, "height_m": null, "levels": null, "tract_id": "40047000101", "tract_name": "1.01", "tags": {"amenity": "place_of_worship", "building": "yes", "ele": "381", "gnis:feature_id": "1798152", "name": "Christ First Covenant", "religion": "christian"}}}, {"type": "Feature", "geometry": {"type": "Polygon", "coordinates": [[[-97.8781769, 36.3975606], [-97.8781727, 36.3974904], [-97.877653, 36.3974886], [-97.8776598, 36.3975623], [-97.8781769, 36.3975606]]]}, "properties": {"osm_id": 944781924, "building": "yes", "name": "", "height": null, "height_m": null, "levels": null, "tract_id": "40047000101", "tract_name": "1.01", "tags": {"building": "yes"}}}, {"type": "Feature", "geometry": {"type": "Polygon", "coordinates": [[[-97.8781727, 36.3974904], [-97.8781743, 36.397348], [-97.8776493, 36.3973467], [-97.877653, 36.3974886], [-97.8781727, 36.3974904]]]}, "properties": {"osm_id": 944781925, "building": "yes", "name": "", "height": null, "height_m": null, "levels": null, "tract_id": "40047000101", "tract_name": "1.01", "tags": {"building": "yes"}}}, {"type": "Feature", "geometry": {"type": "Polygon", "coordinates": [[[-97.8781743, 36.397348], [-97.8781772, 36.3972732], [-97.8776872, 36.3972713], [-97.8776496, 36.397271], [-97.8776493, 36.3973467], [-97.8781743, 36.397348]]]}, "properties": {"osm_id": 944781926, "building": "yes", "name": "", "height": null, "height_m": null, "levels": null, "tract_id": "40047000101", "tract_name": "1.01", "tags": {"building": "yes"}}}, {"type": "Feature", "geometry": {"type": "Polygon", "coordinates": [[[-97.8781772, 36.3972732], [-97.8781775, 36.3972226], [-97.8776875, 36.3972207], [-97.8776872, 36.3972713], [-97.8781772, 36.3972732]]]}, "properties": {"osm_id": 944781927, "building": "yes", "name": "", "height": null, "height_m": null, "levels": null, "tract_id": "40047000101", "tract_name": "1.01", "tags": {"building": "yes"}}}, {"type": "Feature", "geometry": {"type": "Polygon", "coordinates": [[[-97.8781775, 36.3972226], [-97.8781775, 36.3971545], [-97.87767, 36.3971531], [-97.8776694, 36.3972214], [-97.8776875, 36.3972207], [-97.8781775, 36.3972226]]]}, "properties": {"osm_id": 944781928, "building": "yes", "name": "", "height": null, "height_m": null, "levels": null, "tract_id": "40047000101", "tract_name": "1.01", "tags": {"building": "yes"}}}, {"type": "Feature", "geometry": {"type": "Polygon", "coordinates": [[[-97.8781775, 36.3971545], [-97.8781788, 36.3970902], [-97.8776708, 36.3970874], [-97.87767, 36.3971531], [-97.8781775, 36.3971545]]]}, "properties": {"osm_id": 944781929, "building": "yes", "name": "", "height": null, "height_m": null, "levels": null, "tract_id": "40047000101", "tract_name": "1.01", "tags": {"building": "yes"}}}, {"type": "Feature", "geometry": {"type": "Polygon", "coordinates": [[[-97.8781788, 36.3970902], [-97.87818, 36.396957], [-97.8777856, 36.3969548], [-97.8776719, 36.3969542], [-97.8776708, 36.3970874], [-97.8781788, 36.3970902]]]}, "properties": {"osm_id": 944781930, "building": "yes", "name": "", "height": null, "height_m": null, "levels": null, "tract_id": "40047000101", "tract_name": "1.01", "tags": {"building": "yes"}}}, {"type": "Feature", "geometry": {"type": "Polygon", "coordinates": [[[-97.87818, 36.396957], [-97.8781816, 36.3968812], [-97.8777848, 36.39688], [-97.8777856, 36.3969548], [-97.87818, 36.396957]]]}, "properties": {"osm_id": 944781931, "building": "yes", "name": "", "height": null, "height_m": null, "levels": null, "tract_id": "40047000101", "tract_name": "1.01", "tags": {"building": "yes"}}}, {"type": "Feature", "geometry": {"type": "Polygon", "coordinates": [[[-97.8781816, 36.3968812], [-97.8781819, 36.3968119], [-97.8776948, 36.3968105], [-97.8776944, 36.3968797], [-97.8777848, 36.39688], [-97.8781816, 36.3968812]]]}, "properties": {"osm_id": 944781932, "building": "yes", "name": "", "height": null, "height_m": null, "levels": null, "tract_id": "40047000101", "tract_name": "1.01", "tags": {"building": "yes"}}}, {"type": "Feature", "geometry": {"type": "Polygon", "coordinates": [[[-97.8770597, 36.3970103], [-97.8770631, 36.3968101], [-97.8772339, 36.3968112], [-97.87723, 36.3970857], [-97.8771384, 36.3970847], [-97.8771397, 36.3970112], [-97.8770597, 36.3970103]]]}, "properties": {"osm_id": 944794567, "building": "yes", "name": "", "height": null, "height_m": null, "levels": null, "tract_id": "40047000101", "tract_name": "1.01", "tags": {"building": "yes"}}}, {"type": "Feature", "geometry": {"type": "Polygon", "coordinates": [[[-97.8772339, 36.3968112], [-97.8773151, 36.3968106], [-97.8773138, 36.3972192], [-97.8772281, 36.3972205], [-97.87723, 36.3970857], [-97.8772339, 36.3968112]]]}, "properties": {"osm_id": 944794568, "building": "yes", "name": "", "height": null, "height_m": null, "levels": null, "tract_id": "40047000101", "tract_name": "1.01", "tags": {"building": "yes"}}}, {"type": "Feature", "geometry": {"type": "Polygon", "coordinates": [[[-97.8773138, 36.3972192], [-97.8775485, 36.3972197], [-97.8775498, 36.3968111], [-97.8773151, 36.3968106], [-97.8773138, 36.3972192]]]}, "properties": {"osm_id": 944794569, "building": "yes", "name": "Broadway Tower", "height": null, "height_m": null, "levels": null, "tract_id": "40047000101", "tract_name": "1.01", "tags": {"building": "yes", "name": "Broadway Tower"}}}, {"type": "Feature", "geometry": {"type": "Polygon", "coordinates": [[[-97.8782003, 36.394607], [-97.8782003, 36.3943819], [-97.8779394, 36.3943819], [-97.8779394, 36.394607], [-97.8782003, 36.394607]]]}, "properties": {"osm_id": 962399939, "building": "yes", "name": "Napoli's Italian Restaurant", "height": null, "height_m": null, "levels": null, "tract_id": "40047000101", "tract_name": "1.01", "tags": {"addr:city": "Enid", "addr:housenumber": "225", "addr:postcode": "73701", "addr:state": "OK", "addr:street": "South Grand Avenue", "amenity": "restaurant", "building": "yes", "cuisine": "italian", "fax": "+1-580-237-8478", "name": "Napoli's Italian Restaurant", "phone": "+1-580-237-8464", "website": "http://www.napolisofenid.com"}}}, {"type": "Feature", "geometry": {"type": "Polygon", "coordinates": [[[-97.8818018, 36.3972175], [-97.8818017, 36.3971921], [-97.8818016, 36.3971046], [-97.8818014, 36.3970107], [-97.8818014, 36.3969708], [-97.8818011, 36.3968175], [-97.8818011, 36.3967912], [-97.8818596, 36.3967912], [-97.8818596, 36.396809], [-97.8819276, 36.3968089], [-97.8819284, 36.3972174], [-97.8818018, 36.3972175]]]}, "properties": {"osm_id": 1001500722, "building": "yes", "name": "", "height": null, "height_m": null, "levels": null, "tract_id": "40047000101", "tract_name": "1.01", "tags": {"building": "yes"}}}, {"type": "Feature", "geometry": {"type": "Polygon", "coordinates": [[[-97.8826773, 36.3961134], [-97.8824155, 36.3961123], [-97.882413, 36.3965167], [-97.8826747, 36.3965177], [-97.8826773, 36.3961134]]]}, "properties": {"osm_id": 1001500723, "building": "yes", "name": "", "height": null, "height_m": 3.0, "levels": 1, "tract_id": "40047000101", "tract_name": "1.01", "tags": {"building": "yes", "building:levels": "1"}}}, {"type": "Feature", "geometry": {"type": "Polygon", "coordinates": [[[-97.8826783, 36.3958911], [-97.8826806, 36.3957677], [-97.8825148, 36.3957657], [-97.8825156, 36.3957241], [-97.8824166, 36.3957228], [-97.8824121, 36.3959593], [-97.8825386, 36.3959609], [-97.8825399, 36.3958894], [-97.8826783, 36.3958911]]]}, "properties": {"osm_id": 1001500724, "building": "yes", "name": "", "height": null, "height_m": 3.0, "levels": 1, "tract_id": "40047000101", "tract_name": "1.01", "tags": {"building": "yes", "building:levels": "1"}}}, {"type": "Feature", "geometry": {"type": "Polygon", "coordinates": [[[-97.8820731, 36.3960433], [-97.8820735, 36.3958379], [-97.8816493, 36.3958373], [-97.8816489, 36.3960428], [-97.8820731, 36.3960433]]]}, "properties": {"osm_id": 1001500725, "building": "yes", "name": "", "height": null, "height_m": 3.0, "levels": 1, "tract_id": "40047000101", "tract_name": "1.01", "tags": {"building": "yes", "building:levels": "1"}}}, {"type": "Feature", "geometry": {"type": "Polygon", "coordinates": [[[-97.8820121, 36.3958264], [-97.8820132, 36.3957531], [-97.881815, 36.395751], [-97.8818138, 36.3958243], [-97.8820121, 36.3958264]]]}, "properties": {"osm_id": 1001500726, "building": "yes", "name": "", "height": null, "height_m": null, "levels": null, "tract_id": "40047000101", "tract_name": "1.01", "tags": {"building": "yes"}}}, {"type": "Feature", "geometry": {"type": "Polygon", "coordinates": [[[-97.8826427, 36.3972028], [-97.8826712, 36.3971946], [-97.882685, 36.3971788], [-97.8826858, 36.396844], [-97.8826695, 36.396829], [-97.8826478, 36.3968199], [-97.8823114, 36.3968166], [-97.8822784, 36.3968307], [-97.8822453, 36.396854], [-97.8822237, 36.3968913], [-97.8822183, 36.3972004], [-97.8823671, 36.3972021], [-97.8823663, 36.3972511], [-97.8823654, 36.3973031], [-97.8824914, 36.3973045], [-97.8824923, 36.397251], [-97.8824931, 36.3972012], [-97.8826427, 36.3972028]]]}, "properties": {"osm_id": 1001507530, "building": "yes", "name": "Stride Bank", "height": null, "height_m": 6.0, "levels": 2, "tract_id": "40047000101", "tract_name": "1.01", "tags": {"addr:city": "Enid", "addr:country": "US", "addr:housenumber": "324", "addr:postcode": "73701", "addr:state": "OK", "addr:street": "West Broadway Avenue", "amenity": "bank", "atm": "yes", "building": "yes", "building:colour": "beige", "building:levels": "2", "building:material": "concrete", "drive_through": "no", "name": "Stride Bank", "roof:colour": "white", "roof:levels": "0", "roof:material": "tar_paper", "wikidata": "Q126426585"}}}, {"type": "Feature", "geometry": {"type": "Polygon", "coordinates": [[[-97.8835217, 36.397228], [-97.8835284, 36.3968238], [-97.8829134, 36.3968172], [-97.8829065, 36.3972214], [-97.8835217, 36.397228]]]}, "properties": {"osm_id": 1044593280, "building": "yes", "name": "", "height": null, "height_m": null, "levels": null, "tract_id": "40047000101", "tract_name": "1.01", "tags": {"addr:city": "Enid", "addr:housenumber": "102", "addr:postcode": "73701", "addr:state": "OK", "addr:street": "North Adams Street", "building": "yes"}}}, {"type": "Feature", "geometry": {"type": "Polygon", "coordinates": [[[-97.8818449, 36.4038646], [-97.8816746, 36.4038628], [-97.8816762, 36.4037656], [-97.8818465, 36.4037675], [-97.8818449, 36.4038646]]]}, "properties": {"osm_id": 1196135786, "building": "yes", "name": "Railroad Museum of Oklahoma", "height": null, "height_m": null, "levels": null, "tract_id": "40047000101", "tract_name": "1.01", "tags": {"addr:city": "Enid", "addr:housenumber": "702", "addr:postcode": "73701", "addr:state": "OK", "addr:street": "North Washington Street", "building": "yes", "name": "Railroad Museum of Oklahoma", "tourism": "museum"}}}, {"type": "Feature", "geometry": {"type": "Polygon", "coordinates": [[[-97.875714, 36.3982431], [-97.8757185, 36.3979933], [-97.8754337, 36.39799], [-97.8754293, 36.3982398], [-97.875714, 36.3982431]]]}, "properties": {"osm_id": 1196141456, "building": "yes", "name": "Simpson's Old Time Museum", "height": null, "height_m": null, "levels": null, "tract_id": "40047000101", "tract_name": "1.01", "tags": {"addr:city": "Enid", "addr:housenumber": "228", "addr:postcode": "73701", "addr:state": "OK", "addr:street": "East Randolph Avenue", "building": "yes", "name": "Simpson's Old Time Museum", "tourism": "museum"}}}, {"type": "Feature", "geometry": {"type": "Polygon", "coordinates": [[[-97.892152, 36.3965738], [-97.8924429, 36.3965366], [-97.8924406, 36.396494], [-97.8924618, 36.3964513], [-97.8924406, 36.3963976], [-97.8924444, 36.3963708], [-97.8923982, 36.3963629], [-97.8923997, 36.3963458], [-97.8923883, 36.3963458], [-97.8923845, 36.3962061], [-97.892477, 36.3962074], [-97.8924747, 36.3961732], [-97.8920535, 36.3961732], [-97.8920535, 36.3961324], [-97.8920404, 36.3961326], [-97.8920373, 36.3957904], [-97.8917286, 36.3957863], [-97.8917318, 36.3961401], [-97.8917785, 36.3961401], [-97.8917796, 36.3961702], [-97.8914824, 36.3961702], [-97.8914844, 36.3962036], [-97.8915156, 36.396202], [-97.8915166, 36.3964738], [-97.8916465, 36.396473], [-97.8916486, 36.3964814], [-97.89187, 36.3964822], [-97.891871, 36.396437], [-97.8919863, 36.3964404], [-97.8919853, 36.3965098], [-97.8920435, 36.3965215], [-97.8920425, 36.3965516], [-97.892152, 36.3965738]]]}, "properties": {"osm_id": 1246971184, "building": "yes", "name": "Central Christian Church", "height": null, "height_m": null, "levels": null, "tract_id": "40047000101", "tract_name": "1.01", "tags": {"amenity": "place_of_worship", "building": "yes", "ele": "382", "gnis:feature_id": "1798128", "name": "Central Christian Church", "religion": "christian"}}}, {"type": "Feature", "geometry": {"type": "Polygon", "coordinates": [[[-97.8836066, 36.3962971], [-97.8838189, 36.3962977], [-97.8838179, 36.396508], [-97.8839385, 36.3965084], [-97.8839404, 36.3961145], [-97.8836075, 36.3961135], [-97.8836066, 36.3962971]]]}, "properties": {"osm_id": 1281852064, "building": "yes", "name": "", "height": null, "height_m": null, "levels": null, "tract_id": "40047000101", "tract_name": "1.01", "tags": {"building": "yes"}}}, {"type": "Feature", "geometry": {"type": "Polygon", "coordinates": [[[-97.8864211, 36.395415], [-97.8862915, 36.395414], [-97.8862939, 36.395204], [-97.8864236, 36.395205], [-97.8864211, 36.395415]]]}, "properties": {"osm_id": 1281852065, "building": "yes", "name": "", "height": null, "height_m": null, "levels": null, "tract_id": "40047000101", "tract_name": "1.01", "tags": {"building": "yes"}}}, {"type": "Feature", "geometry": {"type": "Polygon", "coordinates": [[[-97.8881423, 36.3956996], [-97.8881439, 36.3958653], [-97.8882322, 36.3958647], [-97.8882306, 36.395699], [-97.8881423, 36.3956996]]]}, "properties": {"osm_id": 1281852066, "building": "yes", "name": "", "height": null, "height_m": null, "levels": null, "tract_id": "40047000101", "tract_name": "1.01", "tags": {"building": "yes"}}}, {"type": "Feature", "geometry": {"type": "Polygon", "coordinates": [[[-97.8891392, 36.3957134], [-97.8891384, 36.3961189], [-97.8896461, 36.3961196], [-97.8896466, 36.3958333], [-97.8894749, 36.395833], [-97.8894752, 36.3957139], [-97.8891392, 36.3957134]]]}, "properties": {"osm_id": 1281852067, "building": "yes", "name": "", "height": null, "height_m": null, "levels": null, "tract_id": "40047000101", "tract_name": "1.01", "tags": {"building": "yes"}}}, {"type": "Feature", "geometry": {"type": "Polygon", "coordinates": [[[-97.8839108, 36.3973011], [-97.8839093, 36.3974576], [-97.8838776, 36.3974574], [-97.8838753, 36.397692], [-97.8838452, 36.3976918], [-97.883845, 36.397707], [-97.8837149, 36.3977062], [-97.883715, 36.397691], [-97.8836634, 36.3976906], [-97.8836654, 36.3974965], [-97.8835176, 36.3974955], [-97.8835182, 36.39744], [-97.8832071, 36.397438], [-97.8832054, 36.3976086], [-97.8829179, 36.3976067], [-97.8829211, 36.3972946], [-97.8839108, 36.3973011]]]}, "properties": {"osm_id": 1292735996, "building": "church", "name": "First United Methodist Church", "height": null, "height_m": null, "levels": null, "tract_id": "40047000101", "tract_name": "1.01", "tags": {"amenity": "place_of_worship", "building": "church", "denomination": "methodist", "ele": "379", "gnis:feature_id": "1798132", "name": "First United Methodist Church", "religion": "christian"}}}, {"type": "Feature", "geometry": {"type": "Polygon", "coordinates": [[[-97.882567, 36.398074], [-97.8825655, 36.3982068], [-97.8825644, 36.3982974], [-97.8825315, 36.3982972], [-97.8825313, 36.3983169], [-97.8824487, 36.3983963], [-97.8824513, 36.3981798], [-97.8823248, 36.3980936], [-97.8823103, 36.3980838], [-97.8823708, 36.3980843], [-97.8823709, 36.3980725], [-97.882567, 36.398074]]]}, "properties": {"osm_id": 1292736026, "building": "retail", "name": "", "height": null, "height_m": null, "levels": null, "tract_id": "40047000101", "tract_name": "1.01", "tags": {"amenity": "bank", "building": "retail"}}}, {"type": "Feature", "geometry": {"type": "Polygon", "coordinates": [[[-97.8863234, 36.3914356], [-97.8861401, 36.3914384], [-97.8861389, 36.3912476], [-97.8863234, 36.3912458], [-97.8863234, 36.3914356]]]}, "properties": {"osm_id": 1300975863, "building": "yes", "name": "Freddy's", "height": null, "height_m": null, "levels": null, "tract_id": "40047000101", "tract_name": "1.01", "tags": {"amenity": "fast_food", "brand": "Freddy's", "brand:wikidata": "Q5496837", "building": "yes", "cuisine": "ice_cream;burger", "name": "Freddy's", "official_name": "Freddy's Frozen Custard & Steakburgers", "takeaway": "yes"}}}, {"type": "Feature", "geometry": {"type": "Polygon", "coordinates": [[[-97.8791458, 36.3976471], [-97.8791203, 36.3976465], [-97.8791027, 36.3976316], [-97.8791034, 36.397611], [-97.879122, 36.3975969], [-97.8791475, 36.3975974], [-97.8791651, 36.3976124], [-97.8791644, 36.3976329], [-97.8791458, 36.3976471]]]}, "properties": {"osm_id": 1300975867, "building": "yes", "name": "", "height": null, "height_m": null, "levels": null, "tract_id": "40047000101", "tract_name": "1.01", "tags": {"amenity": "shelter", "building": "yes", "shelter_type": "gazebo"}}}, {"type": "Feature", "geometry": {"type": "Polygon", "coordinates": [[[-97.8796689, 36.3952484], [-97.8787006, 36.3952635], [-97.8786899, 36.3951102], [-97.879162, 36.395121], [-97.8791512, 36.3949613], [-97.8793524, 36.3949699], [-97.8793604, 36.3951146], [-97.8796072, 36.3951124], [-97.8796126, 36.395188], [-97.8796662, 36.3951815], [-97.8796689, 36.3952484]]]}, "properties": {"osm_id": 1300975868, "building": "yes", "name": "Glo", "height": null, "height_m": null, "levels": null, "tract_id": "40047000101", "tract_name": "1.01", "tags": {"brand": "Glo", "brand:wikidata": "Q830334", "building": "yes", "name": "Glo", "official_name": "Glo Best Western", "tourism": "hotel"}}}, {"type": "Feature", "geometry": {"type": "Polygon", "coordinates": [[[-97.8839541, 36.3940296], [-97.8831796, 36.3940276], [-97.8831801, 36.3939046], [-97.882971, 36.3939041], [-97.882972, 36.3936488], [-97.8831601, 36.3936493], [-97.8831603, 36.3935975], [-97.8836105, 36.3935986], [-97.8836107, 36.3935577], [-97.8836651, 36.3935578], [-97.8836664, 36.3932356], [-97.8839574, 36.3932363], [-97.8839541, 36.3940296]]]}, "properties": {"osm_id": 1300975869, "building": "yes", "name": "YMCA", "height": null, "height_m": null, "levels": null, "tract_id": "40047000101", "tract_name": "1.01", "tags": {"brand": "YMCA", "brand:wikidata": "Q157169", "building": "yes", "leisure": "sports_centre", "name": "YMCA"}}}, {"type": "Feature", "geometry": {"type": "Polygon", "coordinates": [[[-97.8833925, 36.3988735], [-97.8833954, 36.3986037], [-97.8831191, 36.3986017], [-97.8831176, 36.3987391], [-97.8831162, 36.3988716], [-97.8832889, 36.3988728], [-97.8833925, 36.3988735]]]}, "properties": {"osm_id": 1316018407, "building": "retail", "name": "Stride Bank", "height": null, "height_m": null, "levels": null, "tract_id": "40047000101", "tract_name": "1.01", "tags": {"addr:city": "Enid", "addr:housenumber": "216", "addr:state": "OK", "addr:street": "North Adams Street", "amenity": "bank", "building": "retail", "drive_through": "yes", "name": "Stride Bank", "opening_hours": "Mo-Fr 08:00-17:30; Sa,Su,PH off", "wikidata": "Q126426585"}}}, {"type": "Feature", "geometry": {"type": "Polygon", "coordinates": [[[-97.8907451, 36.3962054], [-97.8907456, 36.3964079], [-97.8904594, 36.3964083], [-97.890459, 36.3962059], [-97.8907451, 36.3962054]]]}, "properties": {"osm_id": 1328591889, "building": "yes", "name": "", "height": null, "height_m": null, "levels": null, "tract_id": "40047000101", "tract_name": "1.01", "tags": {"building": "yes"}}}, {"type": "Feature", "geometry": {"type": "Polygon", "coordinates": [[[-97.8908175, 36.3959544], [-97.8904762, 36.395955], [-97.890476, 36.3958541], [-97.8908173, 36.3958535], [-97.8908175, 36.3959544]]]}, "properties": {"osm_id": 1328591890, "building": "retail", "name": "McDonald's", "height": null, "height_m": null, "levels": null, "tract_id": "40047000101", "tract_name": "1.01", "tags": {"addr:country": "US", "addr:housenumber": "1010", "addr:postcode": "73703", "addr:state": "OK", "addr:street": "West Maine Street", "amenity": "fast_food", "brand": "McDonald's", "brand:wikidata": "Q38076", "building": "retail", "check_date": "2024-10-24", "check_date:opening_hours": "2024-02-01", "check_date:opening_hours:drive_through": "2024-02-01", "cuisine": "burger", "drive_through": "yes", "indoor_seating": "yes", "internet_access": "wlan", "name": "McDonald's", "opening_hours": "Mo-Su 05:00-23:00", "opening_hours:drive_through": "24/7", "phone": "+1 580-234-5076", "takeaway": "yes", "website": "https://www.mcdonalds.com/us/en-us/location/ok/enid/1010-w-maine-st/2149.html"}}}, {"type": "Feature", "geometry": {"type": "Polygon", "coordinates": [[[-97.8779495, 36.402372], [-97.8777538, 36.4023704], [-97.877759, 36.4019565], [-97.8779547, 36.4019581], [-97.8779495, 36.402372]]]}, "properties": {"osm_id": 1329515994, "building": "yes", "name": "", "height": null, "height_m": null, "levels": null, "tract_id": "40047000101", "tract_name": "1.01", "tags": {"building": "yes"}}}, {"type": "Feature", "geometry": {"type": "Polygon", "coordinates": [[[-97.8800934, 36.3956446], [-97.8800933, 36.3965034], [-97.8805953, 36.3965034], [-97.8805952, 36.3956446], [-97.8800934, 36.3956446]]]}, "properties": {"osm_id": 1354926685, "building": "yes", "name": "", "height": null, "height_m": null, "levels": null, "tract_id": "40047000101", "tract_name": "1.01", "tags": {"building": "yes"}}}, {"type": "Feature", "geometry": {"type": "Polygon", "coordinates": [[[-97.8800699, 36.3968064], [-97.8800921, 36.3976695], [-97.8805719, 36.3976615], [-97.8805711, 36.3976304], [-97.8805095, 36.3976314], [-97.8805022, 36.3973534], [-97.8806042, 36.3973517], [-97.8805988, 36.3971451], [-97.8805367, 36.3971461], [-97.8805331, 36.3970052], [-97.8806061, 36.397004], [-97.8806008, 36.3967975], [-97.8800699, 36.3968064]]]}, "properties": {"osm_id": 1354926686, "building": "yes", "name": "", "height": null, "height_m": null, "levels": null, "tract_id": "40047000101", "tract_name": "1.01", "tags": {"building": "yes"}}}, {"type": "Feature", "geometry": {"type": "Polygon", "coordinates": [[[-97.8768445, 36.3979646], [-97.8782214, 36.3979763], [-97.8782167, 36.3983289], [-97.8781067, 36.398328], [-97.8781078, 36.3982482], [-97.8778946, 36.3982464], [-97.8778928, 36.3983766], [-97.8773842, 36.3983721], [-97.8773866, 36.3981971], [-97.87721, 36.3981956], [-97.8772075, 36.3983853], [-97.876839, 36.3983821], [-97.8768445, 36.3979646]]]}, "properties": {"osm_id": 1354926687, "building": "yes", "name": "", "height": null, "height_m": null, "levels": null, "tract_id": "40047000101", "tract_name": "1.01", "tags": {"building": "yes"}}}, {"type": "Feature", "geometry": {"type": "Polygon", "coordinates": [[[-97.8756509, 36.3967975], [-97.8766029, 36.3968066], [-97.8765996, 36.3972269], [-97.8754968, 36.3972073], [-97.8756509, 36.3967975]]]}, "properties": {"osm_id": 1354926688, "building": "yes", "name": "", "height": null, "height_m": null, "levels": null, "tract_id": "40047000101", "tract_name": "1.01", "tags": {"building": "yes"}}}, {"type": "Feature", "geometry": {"type": "Polygon", "coordinates": [[[-97.8766022, 36.396116], [-97.8766008, 36.3965192], [-97.875991, 36.3965178], [-97.8759924, 36.3961146], [-97.8766022, 36.396116]]]}, "properties": {"osm_id": 1354926689, "building": "yes", "name": "", "height": null, "height_m": null, "levels": null, "tract_id": "40047000101", "tract_name": "1.01", "tags": {"building": "yes"}}}, {"type": "Feature", "geometry": {"type": "Polygon", "coordinates": [[[-97.876824, 36.3961163], [-97.8768197, 36.3965087], [-97.8773732, 36.3965126], [-97.8773761, 36.396244], [-97.8770073, 36.3962415], [-97.8770087, 36.3961176], [-97.876824, 36.3961163]]]}, "properties": {"osm_id": 1354926690, "building": "yes", "name": "", "height": null, "height_m": null, "levels": null, "tract_id": "40047000101", "tract_name": "1.01", "tags": {"building": "yes"}}}, {"type": "Feature", "geometry": {"type": "Polygon", "coordinates": [[[-97.8757185, 36.3979933], [-97.8758753, 36.397997], [-97.8758876, 36.3983962], [-97.8750896, 36.3983962], [-97.8752406, 36.3979895], [-97.8754337, 36.39799], [-97.8754293, 36.3982398], [-97.875714, 36.3982431], [-97.8757185, 36.3979933]]]}, "properties": {"osm_id": 1354926691, "building": "yes", "name": "", "height": null, "height_m": null, "levels": null, "tract_id": "40047000101", "tract_name": "1.01", "tags": {"building": "yes"}}}, {"type": "Feature", "geometry": {"type": "Polygon", "coordinates": [[[-97.8762353, 36.3979799], [-97.8762974, 36.3979796], [-97.876356, 36.3980937], [-97.8763567, 36.3981824], [-97.8765661, 36.3981813], [-97.8765678, 36.3983957], [-97.8762384, 36.3983973], [-97.8762353, 36.3979799]]]}, "properties": {"osm_id": 1354926692, "building": "yes", "name": "", "height": null, "height_m": null, "levels": null, "tract_id": "40047000101", "tract_name": "1.01", "tags": {"building": "yes"}}}, {"type": "Feature", "geometry": {"type": "Polygon", "coordinates": [[[-97.8800959, 36.3979613], [-97.8806189, 36.3979725], [-97.8806087, 36.3982766], [-97.8803605, 36.3982713], [-97.8803566, 36.3983869], [-97.880082, 36.398381], [-97.8800959, 36.3979613]]]}, "properties": {"osm_id": 1354926693, "building": "yes", "name": "", "height": null, "height_m": null, "levels": null, "tract_id": "40047000101", "tract_name": "1.01", "tags": {"building": "yes"}}}, {"type": "Feature", "geometry": {"type": "Polygon", "coordinates": [[[-97.88071, 36.3979826], [-97.8814598, 36.3979878], [-97.8814554, 36.3983967], [-97.8813162, 36.3983957], [-97.8813168, 36.3983391], [-97.8812164, 36.3983384], [-97.8812157, 36.3983982], [-97.8811181, 36.3983975], [-97.8811189, 36.3983235], [-97.8808713, 36.3983218], [-97.8808719, 36.3982631], [-97.880707, 36.3982619], [-97.88071, 36.3979826]]]}, "properties": {"osm_id": 1354926694, "building": "yes", "name": "", "height": null, "height_m": null, "levels": null, "tract_id": "40047000101", "tract_name": "1.01", "tags": {"building": "yes"}}}, {"type": "Feature", "geometry": {"type": "Polygon", "coordinates": [[[-97.8816421, 36.3994988], [-97.8816573, 36.3990895], [-97.8819942, 36.3990976], [-97.8819864, 36.3993083], [-97.8821426, 36.3993121], [-97.8821352, 36.3995106], [-97.8816421, 36.3994988]]]}, "properties": {"osm_id": 1354926695, "building": "yes", "name": "", "height": null, "height_m": null, "levels": null, "tract_id": "40047000101", "tract_name": "1.01", "tags": {"building": "yes"}}}, {"type": "Feature", "geometry": {"type": "Polygon", "coordinates": [[[-97.8800805, 36.3990775], [-97.8806115, 36.3990805], [-97.8806091, 36.3993518], [-97.8802895, 36.39935], [-97.880288, 36.3995243], [-97.8800765, 36.3995231], [-97.8800805, 36.3990775]]]}, "properties": {"osm_id": 1354926696, "building": "yes", "name": "", "height": null, "height_m": null, "levels": null, "tract_id": "40047000101", "tract_name": "1.01", "tags": {"building": "yes"}}}, {"type": "Feature", "geometry": {"type": "Polygon", "coordinates": [[[-97.880061, 36.3988591], [-97.8800602, 36.3984586], [-97.8805654, 36.398458], [-97.8805662, 36.3988585], [-97.880061, 36.3988591]]]}, "properties": {"osm_id": 1354926697, "building": "yes", "name": "", "height": null, "height_m": null, "levels": null, "tract_id": "40047000101", "tract_name": "1.01", "tags": {"building": "yes"}}}, {"type": "Feature", "geometry": {"type": "Polygon", "coordinates": [[[-97.8782226, 36.3965032], [-97.8782295, 36.3956346], [-97.8776955, 36.3956318], [-97.8776949, 36.3957043], [-97.877849, 36.3957051], [-97.8778485, 36.3957699], [-97.8779161, 36.3957702], [-97.8779156, 36.3958286], [-97.8777399, 36.3958277], [-97.8777394, 36.3958897], [-97.8776776, 36.3958893], [-97.8776764, 36.3960252], [-97.8778667, 36.3960263], [-97.8778655, 36.3961706], [-97.8778061, 36.3961702], [-97.8778054, 36.3962473], [-97.8777782, 36.3962471], [-97.8777779, 36.3962901], [-97.877697, 36.3962896], [-97.8776953, 36.3965005], [-97.8782226, 36.3965032]]]}, "properties": {"osm_id": 1354926698, "building": "yes", "name": "", "height": null, "height_m": null, "levels": null, "tract_id": "40047000101", "tract_name": "1.01", "tags": {"building": "yes"}}}, {"type": "Feature", "geometry": {"type": "Polygon", "coordinates": [[[-97.8808703, 36.3968064], [-97.8812899, 36.3968013], [-97.8812934, 36.3969881], [-97.8808738, 36.3969933], [-97.8808703, 36.3968064]]]}, "properties": {"osm_id": 1354926699, "building": "yes", "name": "", "height": null, "height_m": null, "levels": null, "tract_id": "40047000101", "tract_name": "1.01", "tags": {"building": "yes"}}}, {"type": "Feature", "geometry": {"type": "Polygon", "coordinates": [[[-97.8806987, 36.39651], [-97.8814451, 36.3965059], [-97.8814416, 36.3960961], [-97.8808839, 36.3960992], [-97.880885, 36.3962295], [-97.8806963, 36.3962306], [-97.8806987, 36.39651]]]}, "properties": {"osm_id": 1354926700, "building": "yes", "name": "", "height": null, "height_m": null, "levels": null, "tract_id": "40047000101", "tract_name": "1.01", "tags": {"building": "yes"}}}, {"type": "Feature", "geometry": {"type": "Polygon", "coordinates": [[[-97.8806969, 36.3976796], [-97.8812934, 36.3976755], [-97.881292, 36.3975435], [-97.8814451, 36.3975425], [-97.8814425, 36.397289], [-97.8813044, 36.3972899], [-97.8813046, 36.3973051], [-97.880884, 36.3973081], [-97.8808835, 36.3972659], [-97.8806925, 36.3972672], [-97.8806969, 36.3976796]]]}, "properties": {"osm_id": 1354926701, "building": "yes", "name": "", "height": null, "height_m": null, "levels": null, "tract_id": "40047000101", "tract_name": "1.01", "tags": {"building": "yes"}}}, {"type": "Feature", "geometry": {"type": "Polygon", "coordinates": [[[-97.8816778, 36.3984953], [-97.881683, 36.3987394], [-97.8819938, 36.3987352], [-97.881992, 36.398653], [-97.881959, 36.3986534], [-97.8819578, 36.3985998], [-97.8820097, 36.3985991], [-97.8820079, 36.3985174], [-97.8819754, 36.3984912], [-97.8816778, 36.3984953]]]}, "properties": {"osm_id": 1354926702, "building": "yes", "name": "", "height": null, "height_m": null, "levels": null, "tract_id": "40047000101", "tract_name": "1.01", "tags": {"building": "yes"}}}, {"type": "Feature", "geometry": {"type": "Polygon", "coordinates": [[[-97.8781846, 36.3953371], [-97.878213, 36.3953141], [-97.8782151, 36.3949116], [-97.8778151, 36.3949103], [-97.8778143, 36.3950624], [-97.8778346, 36.3950625], [-97.8778338, 36.395189], [-97.8778601, 36.3951891], [-97.8778591, 36.3953355], [-97.8781846, 36.3953371]]]}, "properties": {"osm_id": 1354926703, "building": "yes", "name": "", "height": null, "height_m": null, "levels": null, "tract_id": "40047000101", "tract_name": "1.01", "tags": {"building": "yes"}}}, {"type": "Feature", "geometry": {"type": "Polygon", "coordinates": [[[-97.8792549, 36.39729], [-97.8791888, 36.3972892], [-97.8791898, 36.3972379], [-97.8792226, 36.3972383], [-97.8792364, 36.3972385], [-97.8792558, 36.3972387], [-97.8792549, 36.39729]]]}, "properties": {"osm_id": 1383281199, "building": "yes", "name": "", "height": null, "height_m": null, "levels": null, "tract_id": "40047000101", "tract_name": "1.01", "tags": {"building": "yes"}}}, {"type": "Feature", "geometry": {"type": "Polygon", "coordinates": [[[-97.8790861, 36.400491], [-97.8784586, 36.4004954], [-97.8784561, 36.4002621], [-97.8790835, 36.4002577], [-97.8790861, 36.400491]]]}, "properties": {"osm_id": 1392686989, "building": "yes", "name": "", "height": null, "height_m": null, "levels": null, "tract_id": "40047000101", "tract_name": "1.01", "tags": {"building": "yes"}}}, {"type": "Feature", "geometry": {"type": "Polygon", "coordinates": [[[-97.8754618, 36.3976972], [-97.8759779, 36.3976872], [-97.8759684, 36.3973691], [-97.8757941, 36.3973725], [-97.8757928, 36.3973279], [-97.8755995, 36.3973316], [-97.8756032, 36.3974541], [-97.8754546, 36.3974569], [-97.8754618, 36.3976972]]]}, "properties": {"osm_id": 1392686990, "building": "yes", "name": "", "height": null, "height_m": null, "levels": null, "tract_id": "40047000101", "tract_name": "1.01", "tags": {"building": "yes"}}}, {"type": "Feature", "geometry": {"type": "Polygon", "coordinates": [[[-97.8816756, 36.3953915], [-97.8821024, 36.395392], [-97.8821032, 36.3949879], [-97.8816764, 36.3949873], [-97.8816756, 36.3953915]]]}, "properties": {"osm_id": 1392686991, "building": "yes", "name": "", "height": null, "height_m": null, "levels": null, "tract_id": "40047000101", "tract_name": "1.01", "tags": {"building": "yes"}}}, {"type": "Feature", "geometry": {"type": "Polygon", "coordinates": [[[-97.8811554, 36.3956315], [-97.881298, 36.395631], [-97.8812996, 36.3958925], [-97.8814699, 36.3958918], [-97.8814708, 36.3960368], [-97.8811124, 36.3960382], [-97.8811119, 36.3959389], [-97.8812161, 36.3959385], [-97.8812158, 36.3958955], [-97.881157, 36.3958957], [-97.8811554, 36.3956315]]]}, "properties": {"osm_id": 1392686992, "building": "yes", "name": "", "height": null, "height_m": null, "levels": null, "tract_id": "40047000101", "tract_name": "1.01", "tags": {"building": "yes"}}}, {"type": "Feature", "geometry": {"type": "Polygon", "coordinates": [[[-97.8820575, 36.391101], [-97.8822359, 36.391099], [-97.8822414, 36.3914153], [-97.8820631, 36.3914173], [-97.8820575, 36.391101]]]}, "properties": {"osm_id": 1392686993, "building": "yes", "name": "", "height": null, "height_m": null, "levels": null, "tract_id": "40047000101", "tract_name": "1.01", "tags": {"building": "yes"}}}, {"type": "Feature", "geometry": {"type": "Polygon", "coordinates": [[[-97.8866402, 36.3909971], [-97.8869853, 36.390999], [-97.886984, 36.3911514], [-97.886639, 36.3911495], [-97.8866402, 36.3909971]]]}, "properties": {"osm_id": 1392686994, "building": "yes", "name": "", "height": null, "height_m": null, "levels": null, "tract_id": "40047000101", "tract_name": "1.01", "tags": {"building": "yes"}}}]}