{"type": "FeatureCollection", "features": [{"type": "Feature", "geometry": {"type": "Polygon", "coordinates": [[[-94.8044468, 35.4370989], [-94.8042796, 35.4370994], [-94.8042791, 35.4369902], [-94.8044463, 35.4369897], [-94.8044468, 35.4370989]]]}, "properties": {"osm_id": 108148137, "building": "hangar", "name": "", "height": null, "height_m": null, "levels": null, "tract_id": "40135030304", "tract_name": "303.04", "tags": {"aeroway": "hangar", "building": "hangar", "source": "Bing"}}}, {"type": "Feature", "geometry": {"type": "Polygon", "coordinates": [[[-94.8042777, 35.4387419], [-94.8042694, 35.4385321], [-94.8044016, 35.4385287], [-94.8045334, 35.4385252], [-94.8045417, 35.438735], [-94.8044098, 35.4387389], [-94.8042777, 35.4387419]]]}, "properties": {"osm_id": 108148138, "building": "hangar", "name": "", "height": null, "height_m": null, "levels": null, "tract_id": "40135030304", "tract_name": "303.04", "tags": {"aeroway": "hangar", "building": "hangar", "source": "Bing"}}}, {"type": "Feature", "geometry": {"type": "Polygon", "coordinates": [[[-94.8052739, 35.4370965], [-94.8051812, 35.4370969], [-94.8050804, 35.4370974], [-94.8049998, 35.4370978], [-94.804999, 35.4369781], [-94.8052731, 35.4369769], [-94.8052739, 35.4370965]]]}, "properties": {"osm_id": 108148140, "building": "hangar", "name": "", "height": null, "height_m": null, "levels": null, "tract_id": "40135030304", "tract_name": "303.04", "tags": {"aeroway": "hangar", "building": "hangar", "source": "Bing"}}}, {"type": "Feature", "geometry": {"type": "Polygon", "coordinates": [[[-94.8049637, 35.4370965], [-94.804801, 35.4370973], [-94.8048002, 35.4369849], [-94.8049629, 35.4369842], [-94.8049637, 35.4370965]]]}, "properties": {"osm_id": 108148142, "building": "hangar", "name": "", "height": null, "height_m": null, "levels": null, "tract_id": "40135030304", "tract_name": "303.04", "tags": {"aeroway": "hangar", "building": "hangar", "source": "Bing"}}}, {"type": "Feature", "geometry": {"type": "Polygon", "coordinates": [[[-94.8047039, 35.4399708], [-94.8045027, 35.4399708], [-94.8045027, 35.4398615], [-94.8046036, 35.4398615], [-94.8047039, 35.4398615], [-94.8047039, 35.4399708]]]}, "properties": {"osm_id": 108148144, "building": "yes", "name": "", "height": null, "height_m": null, "levels": null, "tract_id": "40135030304", "tract_name": "303.04", "tags": {"building": "yes", "source": "Bing"}}}, {"type": "Feature", "geometry": {"type": "Polygon", "coordinates": [[[-94.8047445, 35.437099], [-94.8047105, 35.4370991], [-94.8046421, 35.4370994], [-94.8046014, 35.4370996], [-94.8046007, 35.4369965], [-94.8047438, 35.4369959], [-94.8047445, 35.437099]]]}, "properties": {"osm_id": 108148149, "building": "hangar", "name": "", "height": null, "height_m": null, "levels": null, "tract_id": "40135030304", "tract_name": "303.04", "tags": {"aeroway": "hangar", "building": "hangar", "source": "Bing"}}}, {"type": "Feature", "geometry": {"type": "Polygon", "coordinates": [[[-94.8047027, 35.440337], [-94.8045156, 35.440336], [-94.8045165, 35.440219], [-94.804518, 35.4400264], [-94.804705, 35.4400273], [-94.8047027, 35.440337]]]}, "properties": {"osm_id": 108148152, "building": "yes", "name": "", "height": null, "height_m": null, "levels": null, "tract_id": "40135030304", "tract_name": "303.04", "tags": {"building": "yes", "source": "Bing"}}}, {"type": "Feature", "geometry": {"type": "Polygon", "coordinates": [[[-94.8046793, 35.4382898], [-94.8045377, 35.438292], [-94.8045359, 35.4382172], [-94.8045358, 35.4382091], [-94.8046773, 35.4382069], [-94.8046793, 35.4382898]]]}, "properties": {"osm_id": 108148161, "building": "yes", "name": "", "height": null, "height_m": 3.0, "levels": 1, "tract_id": "40135030304", "tract_name": "303.04", "tags": {"building": "yes", "building:levels": "1", "source": "Bing"}}}, {"type": "Feature", "geometry": {"type": "Polygon", "coordinates": [[[-94.8048272, 35.4375423], [-94.8048268, 35.4373797], [-94.8053417, 35.437379], [-94.805342, 35.4375415], [-94.8048272, 35.4375423]]]}, "properties": {"osm_id": 108148163, "building": "hangar", "name": "", "height": null, "height_m": null, "levels": null, "tract_id": "40135030304", "tract_name": "303.04", "tags": {"aeroway": "hangar", "building": "hangar", "source": "Bing"}}}, {"type": "Feature", "geometry": {"type": "Polygon", "coordinates": [[[-94.7556502, 35.4430259], [-94.7556497, 35.4429472], [-94.7554955, 35.4429479], [-94.7554958, 35.4429885], [-94.755496, 35.4430266], [-94.7555964, 35.4430261], [-94.7556502, 35.4430259]]]}, "properties": {"osm_id": 783087053, "building": "yes", "name": "", "height": null, "height_m": null, "levels": null, "tract_id": "40135030304", "tract_name": "303.04", "tags": {"building": "yes"}}}, {"type": "Feature", "geometry": {"type": "Polygon", "coordinates": [[[-94.7531873, 35.4437537], [-94.7531881, 35.4438324], [-94.7534215, 35.4438309], [-94.7534207, 35.4437522], [-94.7531873, 35.4437537]]]}, "properties": {"osm_id": 783087054, "building": "yes", "name": "", "height": null, "height_m": null, "levels": null, "tract_id": "40135030304", "tract_name": "303.04", "tags": {"building": "yes"}}}, {"type": "Feature", "geometry": {"type": "Polygon", "coordinates": [[[-94.7535191, 35.4446343], [-94.7534119, 35.444633], [-94.7534143, 35.444504], [-94.7534721, 35.4445048], [-94.7535216, 35.4445054], [-94.7535202, 35.4445799], [-94.7535191, 35.4446343]]]}, "properties": {"osm_id": 783087055, "building": "yes", "name": "", "height": null, "height_m": null, "levels": null, "tract_id": "40135030304", "tract_name": "303.04", "tags": {"building": "yes"}}}, {"type": "Feature", "geometry": {"type": "Polygon", "coordinates": [[[-94.7772785, 35.4600823], [-94.777279, 35.4601926], [-94.777249, 35.4601927], [-94.7772491, 35.4602252], [-94.7771137, 35.4602257], [-94.7771135, 35.4601932], [-94.7769666, 35.4601937], [-94.776966, 35.4600834], [-94.7772785, 35.4600823]]]}, "properties": {"osm_id": 835874599, "building": "yes", "name": "Mercy Clinic", "height": null, "height_m": null, "levels": null, "tract_id": "40135030304", "tract_name": "303.04", "tags": {"addr:housenumber": "1015", "addr:postcode": "74955", "addr:street": "East Choctaw Avenue", "amenity": "clinic", "building": "yes", "healthcare": "clinic", "name": "Mercy Clinic", "note": "Primary care", "opening_hours": "Mo-Fr 08:00-17:00", "operator": "Mercy", "operator:wikidata": "Q19896177"}}}, {"type": "Feature", "geometry": {"type": "Polygon", "coordinates": [[[-94.7706427, 35.4578079], [-94.7706346, 35.4575086], [-94.7707982, 35.4575057], [-94.7707963, 35.4574316], [-94.7708776, 35.4574301], [-94.7708877, 35.4578036], [-94.7706427, 35.4578079]]]}, "properties": {"osm_id": 835921902, "building": "yes", "name": "Sallisaw", "height": null, "height_m": null, "levels": null, "tract_id": "40135030304", "tract_name": "303.04", "tags": {"addr:postcode": "74955", "amenity": "post_office", "brand": "United States Post Office", "brand:wikidata": "Q668687", "building": "yes", "name": "Sallisaw", "opening_hours": "Mo-Fr 08:30-16:30", "operator": "United States Postal Service", "operator:short": "USPS", "operator:type": "public", "operator:website": "https://www.usps.com", "operator:wikidata": "Q668687", "operator:wikipedia": "en:United States Postal Service"}}}, {"type": "Feature", "geometry": {"type": "Polygon", "coordinates": [[[-94.804709, 35.4375469], [-94.8045442, 35.4375496], [-94.8045399, 35.4373802], [-94.8047048, 35.4373774], [-94.804709, 35.4375469]]]}, "properties": {"osm_id": 924820743, "building": "hangar", "name": "", "height": null, "height_m": null, "levels": null, "tract_id": "40135030304", "tract_name": "303.04", "tags": {"aeroway": "hangar", "building": "hangar"}}}, {"type": "Feature", "geometry": {"type": "Polygon", "coordinates": [[[-94.8050872, 35.4412087], [-94.8047415, 35.4412099], [-94.8047393, 35.4407767], [-94.8050849, 35.4407755], [-94.8050872, 35.4412087]]]}, "properties": {"osm_id": 924820747, "building": "yes", "name": "", "height": null, "height_m": null, "levels": null, "tract_id": "40135030304", "tract_name": "303.04", "tags": {"building": "yes"}}}, {"type": "Feature", "geometry": {"type": "Polygon", "coordinates": [[[-94.7897427, 35.4728848], [-94.789744, 35.4728192], [-94.7898016, 35.47282], [-94.7898003, 35.4728855], [-94.7897427, 35.4728848]]]}, "properties": {"osm_id": 1110454367, "building": "service", "name": "", "height": null, "height_m": null, "levels": null, "tract_id": "40135030304", "tract_name": "303.04", "tags": {"building": "service"}}}, {"type": "Feature", "geometry": {"type": "Polygon", "coordinates": [[[-94.786968, 35.4452861], [-94.7869685, 35.4448337], [-94.7872392, 35.4448339], [-94.7872397, 35.4443949], [-94.7870054, 35.4443948], [-94.7870057, 35.4441268], [-94.7851935, 35.4441256], [-94.7851928, 35.4448333], [-94.785033, 35.4448331], [-94.7850325, 35.4452846], [-94.786968, 35.4452861]]]}, "properties": {"osm_id": 1176472920, "building": "industrial", "name": "SLPT Automotive", "height": null, "height_m": null, "levels": null, "tract_id": "40135030304", "tract_name": "303.04", "tags": {"addr:city": "Sallisaw", "addr:housenumber": "1300", "addr:postcode": "74955", "addr:state": "OK", "addr:street": "South Opdyke Street", "building": "industrial", "name": "SLPT Automotive", "product": "automotive;oil_pumps", "website": "https://www.slpt.com/"}}}, {"type": "Feature", "geometry": {"type": "Polygon", "coordinates": [[[-94.8046536, 35.4341808], [-94.8046551, 35.4340975], [-94.8046978, 35.434098], [-94.8046988, 35.4340454], [-94.8046522, 35.4340448], [-94.8046542, 35.4339343], [-94.8044218, 35.4339315], [-94.8044173, 35.4341779], [-94.8046536, 35.4341808]]]}, "properties": {"osm_id": 1242081659, "building": "yes", "name": "", "height": null, "height_m": null, "levels": null, "tract_id": "40135030304", "tract_name": "303.04", "tags": {"building": "yes"}}}, {"type": "Feature", "geometry": {"type": "Polygon", "coordinates": [[[-94.8052457, 35.4325409], [-94.8052428, 35.4323583], [-94.805136, 35.4323595], [-94.8051363, 35.4323731], [-94.8048834, 35.4323758], [-94.8048861, 35.4325448], [-94.8052457, 35.4325409]]]}, "properties": {"osm_id": 1242081662, "building": "yes", "name": "", "height": null, "height_m": null, "levels": null, "tract_id": "40135030304", "tract_name": "303.04", "tags": {"building": "yes"}}}, {"type": "Feature", "geometry": {"type": "Polygon", "coordinates": [[[-94.7607355, 35.4516315], [-94.7606317, 35.4515459], [-94.7604314, 35.4517072], [-94.7605351, 35.4517927], [-94.7607355, 35.4516315]]]}, "properties": {"osm_id": 1242336107, "building": "retail", "name": "", "height": null, "height_m": null, "levels": null, "tract_id": "40135030304", "tract_name": "303.04", "tags": {"building": "retail"}}}, {"type": "Feature", "geometry": {"type": "Polygon", "coordinates": [[[-94.7606003, 35.4520172], [-94.7605296, 35.4519707], [-94.7606929, 35.4518059], [-94.7607636, 35.4518523], [-94.7606003, 35.4520172]]]}, "properties": {"osm_id": 1242336108, "building": "roof", "name": "", "height": null, "height_m": null, "levels": null, "tract_id": "40135030304", "tract_name": "303.04", "tags": {"building": "roof", "layer": "1"}}}, {"type": "Feature", "geometry": {"type": "Polygon", "coordinates": [[[-94.7609741, 35.4521843], [-94.7608695, 35.4521114], [-94.7610179, 35.4519672], [-94.7611261, 35.4520401], [-94.7609741, 35.4521843]]]}, "properties": {"osm_id": 1242336109, "building": "retail", "name": "", "height": null, "height_m": null, "levels": null, "tract_id": "40135030304", "tract_name": "303.04", "tags": {"amenity": "restaurant", "building": "retail"}}}, {"type": "Feature", "geometry": {"type": "Polygon", "coordinates": [[[-94.760728, 35.4516099], [-94.7606365, 35.4515224], [-94.760994, 35.4512743], [-94.7610388, 35.4513171], [-94.760783, 35.4514947], [-94.7608297, 35.4515393], [-94.760728, 35.4516099]]]}, "properties": {"osm_id": 1242336110, "building": "yes", "name": "", "height": null, "height_m": null, "levels": null, "tract_id": "40135030304", "tract_name": "303.04", "tags": {"building": "yes"}}}, {"type": "Feature", "geometry": {"type": "Polygon", "coordinates": [[[-94.7610618, 35.4515159], [-94.7611343, 35.4515161], [-94.7611354, 35.4512412], [-94.761063, 35.451241], [-94.7610618, 35.4515159]]]}, "properties": {"osm_id": 1242336111, "building": "yes", "name": "", "height": null, "height_m": null, "levels": null, "tract_id": "40135030304", "tract_name": "303.04", "tags": {"building": "yes"}}}, {"type": "Feature", "geometry": {"type": "Polygon", "coordinates": [[[-94.7617082, 35.4534766], [-94.7615871, 35.4533951], [-94.7614431, 35.453537], [-94.7615675, 35.4536207], [-94.7615816, 35.4536069], [-94.761606, 35.4536233], [-94.7617139, 35.453517], [-94.7616862, 35.4534983], [-94.7617082, 35.4534766]]]}, "properties": {"osm_id": 1242336123, "building": "yes", "name": "Simple Simon's Pizza", "height": null, "height_m": null, "levels": null, "tract_id": "40135030304", "tract_name": "303.04", "tags": {"addr:city": "Sallisaw", "addr:state": "OK", "addr:street": "East Cherokee Avenue", "amenity": "fast_food", "brand": "Simple Simon's Pizza", "brand:wikidata": "Q116737866", "building": "yes", "cuisine": "pizza", "name": "Simple Simon's Pizza", "takeaway": "yes"}}}, {"type": "Feature", "geometry": {"type": "Polygon", "coordinates": [[[-94.7619211, 35.4538708], [-94.7618577, 35.4538273], [-94.7619059, 35.4537807], [-94.7618941, 35.4537726], [-94.7619572, 35.4537117], [-94.7620323, 35.4537633], [-94.7619211, 35.4538708]]]}, "properties": {"osm_id": 1242336124, "building": "yes", "name": "", "height": null, "height_m": null, "levels": null, "tract_id": "40135030304", "tract_name": "303.04", "tags": {"building": "yes"}}}, {"type": "Feature", "geometry": {"type": "Polygon", "coordinates": [[[-94.7618735, 35.4546929], [-94.7619933, 35.4545633], [-94.7616161, 35.4543083], [-94.7614855, 35.454438], [-94.7618735, 35.4546929]]]}, "properties": {"osm_id": 1242336125, "building": "yes", "name": "", "height": null, "height_m": null, "levels": null, "tract_id": "40135030304", "tract_name": "303.04", "tags": {"building": "yes"}}}, {"type": "Feature", "geometry": {"type": "Polygon", "coordinates": [[[-94.7624189, 35.454164], [-94.7622601, 35.4540586], [-94.762108, 35.4542107], [-94.7617794, 35.4539926], [-94.7616421, 35.4541299], [-94.7621294, 35.4544534], [-94.7624189, 35.454164]]]}, "properties": {"osm_id": 1242336126, "building": "hotel", "name": "", "height": null, "height_m": null, "levels": null, "tract_id": "40135030304", "tract_name": "303.04", "tags": {"building": "hotel"}}}, {"type": "Feature", "geometry": {"type": "Polygon", "coordinates": [[[-94.7632742, 35.4547909], [-94.7631757, 35.4547238], [-94.7632345, 35.4546666], [-94.7632163, 35.4546542], [-94.7632485, 35.4546229], [-94.7632658, 35.4546347], [-94.7633401, 35.4545624], [-94.7634394, 35.4546302], [-94.7632742, 35.4547909]]]}, "properties": {"osm_id": 1242336127, "building": "retail", "name": "", "height": null, "height_m": null, "levels": null, "tract_id": "40135030304", "tract_name": "303.04", "tags": {"building": "retail"}}}, {"type": "Feature", "geometry": {"type": "Polygon", "coordinates": [[[-94.7633467, 35.4547729], [-94.7634654, 35.4546576], [-94.7635834, 35.4547381], [-94.7634647, 35.4548535], [-94.7633467, 35.4547729]]]}, "properties": {"osm_id": 1242336128, "building": "retail", "name": "", "height": null, "height_m": null, "levels": null, "tract_id": "40135030304", "tract_name": "303.04", "tags": {"building": "retail"}}}, {"type": "Feature", "geometry": {"type": "Polygon", "coordinates": [[[-94.7635524, 35.4553817], [-94.7637043, 35.4552215], [-94.7631472, 35.4548711], [-94.7629954, 35.4550312], [-94.7635524, 35.4553817]]]}, "properties": {"osm_id": 1242336130, "building": "retail", "name": "", "height": null, "height_m": null, "levels": null, "tract_id": "40135030304", "tract_name": "303.04", "tags": {"building": "retail"}}}, {"type": "Feature", "geometry": {"type": "Polygon", "coordinates": [[[-94.7641447, 35.4549186], [-94.7640577, 35.4548573], [-94.763747, 35.4551498], [-94.763834, 35.4552111], [-94.7641447, 35.4549186]]]}, "properties": {"osm_id": 1242336131, "building": "retail", "name": "", "height": null, "height_m": null, "levels": null, "tract_id": "40135030304", "tract_name": "303.04", "tags": {"building": "retail"}}}, {"type": "Feature", "geometry": {"type": "Polygon", "coordinates": [[[-94.7665783, 35.4545855], [-94.7664464, 35.4547155], [-94.766185, 35.4545396], [-94.7663168, 35.4544096], [-94.7665783, 35.4545855]]]}, "properties": {"osm_id": 1242345184, "building": "yes", "name": "", "height": null, "height_m": null, "levels": null, "tract_id": "40135030304", "tract_name": "303.04", "tags": {"building": "yes"}}}, {"type": "Feature", "geometry": {"type": "Polygon", "coordinates": [[[-94.7658329, 35.4553223], [-94.7656459, 35.4551996], [-94.7660131, 35.4548283], [-94.7662, 35.4549509], [-94.7658329, 35.4553223]]]}, "properties": {"osm_id": 1242345185, "building": "yes", "name": "", "height": null, "height_m": null, "levels": null, "tract_id": "40135030304", "tract_name": "303.04", "tags": {"building": "yes"}}}, {"type": "Feature", "geometry": {"type": "Polygon", "coordinates": [[[-94.7656538, 35.4548441], [-94.7655253, 35.4547601], [-94.7656841, 35.454599], [-94.7658126, 35.454683], [-94.7656538, 35.4548441]]]}, "properties": {"osm_id": 1242345186, "building": "retail", "name": "", "height": null, "height_m": null, "levels": null, "tract_id": "40135030304", "tract_name": "303.04", "tags": {"building": "retail"}}}, {"type": "Feature", "geometry": {"type": "Polygon", "coordinates": [[[-94.7666091, 35.4555534], [-94.7665206, 35.4554931], [-94.7666151, 35.455401], [-94.7667036, 35.4554613], [-94.7666091, 35.4555534]]]}, "properties": {"osm_id": 1242345190, "building": "yes", "name": "", "height": null, "height_m": null, "levels": null, "tract_id": "40135030304", "tract_name": "303.04", "tags": {"building": "yes"}}}, {"type": "Feature", "geometry": {"type": "Polygon", "coordinates": [[[-94.7666043, 35.4556203], [-94.7665125, 35.4557065], [-94.766425, 35.4556448], [-94.7665167, 35.4555585], [-94.7666043, 35.4556203]]]}, "properties": {"osm_id": 1242345191, "building": "yes", "name": "", "height": null, "height_m": null, "levels": null, "tract_id": "40135030304", "tract_name": "303.04", "tags": {"building": "yes"}}}, {"type": "Feature", "geometry": {"type": "Polygon", "coordinates": [[[-94.766461, 35.4557533], [-94.7663708, 35.4558434], [-94.766338, 35.4558216], [-94.7663176, 35.455842], [-94.7662267, 35.4557817], [-94.7662477, 35.4557607], [-94.7662109, 35.4557363], [-94.7663005, 35.4556468], [-94.766461, 35.4557533]]]}, "properties": {"osm_id": 1242345192, "building": "yes", "name": "", "height": null, "height_m": null, "levels": null, "tract_id": "40135030304", "tract_name": "303.04", "tags": {"building": "yes"}}}, {"type": "Feature", "geometry": {"type": "Polygon", "coordinates": [[[-94.7667151, 35.4559606], [-94.7667902, 35.4558901], [-94.7666533, 35.4557933], [-94.7665782, 35.4558638], [-94.7667151, 35.4559606]]]}, "properties": {"osm_id": 1242345193, "building": "yes", "name": "", "height": null, "height_m": null, "levels": null, "tract_id": "40135030304", "tract_name": "303.04", "tags": {"building": "yes"}}}, {"type": "Feature", "geometry": {"type": "Polygon", "coordinates": [[[-94.766991, 35.4560451], [-94.7669547, 35.4560184], [-94.766885, 35.4560814], [-94.7669213, 35.456108], [-94.766991, 35.4560451]]]}, "properties": {"osm_id": 1242345194, "building": "yes", "name": "", "height": null, "height_m": null, "levels": null, "tract_id": "40135030304", "tract_name": "303.04", "tags": {"building": "yes"}}}, {"type": "Feature", "geometry": {"type": "Polygon", "coordinates": [[[-94.7668579, 35.4560628], [-94.7669019, 35.4560221], [-94.7667764, 35.4559321], [-94.7667324, 35.4559728], [-94.7668579, 35.4560628]]]}, "properties": {"osm_id": 1242345195, "building": "yes", "name": "", "height": null, "height_m": null, "levels": null, "tract_id": "40135030304", "tract_name": "303.04", "tags": {"building": "yes"}}}, {"type": "Feature", "geometry": {"type": "Polygon", "coordinates": [[[-94.767628, 35.4562571], [-94.76766, 35.4562767], [-94.7675943, 35.456348], [-94.7675622, 35.4563283], [-94.767628, 35.4562571]]]}, "properties": {"osm_id": 1242345197, "building": "yes", "name": "", "height": null, "height_m": null, "levels": null, "tract_id": "40135030304", "tract_name": "303.04", "tags": {"building": "yes"}}}, {"type": "Feature", "geometry": {"type": "Polygon", "coordinates": [[[-94.7676842, 35.4564027], [-94.7677381, 35.4563439], [-94.7676614, 35.4562973], [-94.7676075, 35.456356], [-94.7676842, 35.4564027]]]}, "properties": {"osm_id": 1242345198, "building": "yes", "name": "", "height": null, "height_m": null, "levels": null, "tract_id": "40135030304", "tract_name": "303.04", "tags": {"building": "yes"}}}, {"type": "Feature", "geometry": {"type": "Polygon", "coordinates": [[[-94.7675567, 35.4565014], [-94.7675954, 35.4564599], [-94.7676678, 35.4565047], [-94.7676292, 35.4565462], [-94.7675567, 35.4565014]]]}, "properties": {"osm_id": 1242345199, "building": "yes", "name": "", "height": null, "height_m": null, "levels": null, "tract_id": "40135030304", "tract_name": "303.04", "tags": {"addr:city": "Sallisaw", "addr:state": "OK", "building": "yes"}}}, {"type": "Feature", "geometry": {"type": "Polygon", "coordinates": [[[-94.7680294, 35.456603], [-94.7679442, 35.4565461], [-94.7677707, 35.456724], [-94.7678504, 35.4567765], [-94.7680294, 35.456603]]]}, "properties": {"osm_id": 1242345201, "building": "retail", "name": "Hardee's", "height": null, "height_m": null, "levels": null, "tract_id": "40135030304", "tract_name": "303.04", "tags": {"addr:city": "Sallisaw", "addr:housenumber": "2102", "addr:postcode": "74955", "addr:state": "OK", "addr:street": "East Cherokee Avenue", "amenity": "fast_food", "brand": "Hardee's", "brand:wikidata": "Q1585088", "building": "retail", "cuisine": "burger", "drive_through": "yes", "name": "Hardee's", "phone": "+1-918-775-5882", "takeaway": "yes", "website": "https://locations.hardees.com/ok/sallisaw/2102-e-cherokee-ave"}}}, {"type": "Feature", "geometry": {"type": "Polygon", "coordinates": [[[-94.7685449, 35.4562725], [-94.7686915, 35.4561294], [-94.7685967, 35.456065], [-94.7687507, 35.4559147], [-94.7688513, 35.4559831], [-94.7689974, 35.4558404], [-94.7698538, 35.4564222], [-94.7696164, 35.4566539], [-94.7697138, 35.4567201], [-94.7695609, 35.4568695], [-94.7695362, 35.4568936], [-94.7694326, 35.4568231], [-94.7694027, 35.4568523], [-94.7690874, 35.456638], [-94.7690644, 35.4566605], [-94.7688853, 35.4565388], [-94.7689064, 35.4565182], [-94.7688896, 35.4565068], [-94.7685449, 35.4562725]]]}, "properties": {"osm_id": 1242345206, "building": "retail", "name": "", "height": null, "height_m": null, "levels": null, "tract_id": "40135030304", "tract_name": "303.04", "tags": {"building": "retail"}}}, {"type": "Feature", "geometry": {"type": "Polygon", "coordinates": [[[-94.7697727, 35.4567589], [-94.7699304, 35.4567599], [-94.7699599, 35.4568014], [-94.7699626, 35.4573229], [-94.7697853, 35.4577492], [-94.7694487, 35.4576563], [-94.7695853, 35.457328], [-94.769588, 35.456966], [-94.7695415, 35.4569296], [-94.7695469, 35.4569209], [-94.7695362, 35.4568936], [-94.7695609, 35.4568695], [-94.7696653, 35.4568774], [-94.7696656, 35.4568471], [-94.7697718, 35.4568478], [-94.7697727, 35.4567589]]]}, "properties": {"osm_id": 1242345207, "building": "retail", "name": "", "height": null, "height_m": null, "levels": null, "tract_id": "40135030304", "tract_name": "303.04", "tags": {"building": "retail"}}}, {"type": "Feature", "geometry": {"type": "Polygon", "coordinates": [[[-94.7699333, 35.45803], [-94.7699607, 35.457906], [-94.7697224, 35.457871], [-94.769695, 35.4579949], [-94.7699333, 35.45803]]]}, "properties": {"osm_id": 1242345208, "building": "retail", "name": "", "height": null, "height_m": null, "levels": null, "tract_id": "40135030304", "tract_name": "303.04", "tags": {"building": "retail"}}}, {"type": "Feature", "geometry": {"type": "Polygon", "coordinates": [[[-94.7706761, 35.4585749], [-94.7707753, 35.4585057], [-94.7707829, 35.458513], [-94.7707999, 35.4585021], [-94.7707923, 35.4584948], [-94.7709201, 35.4584056], [-94.7708862, 35.458375], [-94.7709425, 35.4583361], [-94.7708272, 35.4582286], [-94.7707614, 35.4582774], [-94.7707431, 35.4582603], [-94.7707105, 35.4582814], [-94.7706193, 35.4581944], [-94.7705943, 35.4582108], [-94.770546, 35.4581657], [-94.770487, 35.4582039], [-94.7706385, 35.4583506], [-94.7705375, 35.4584184], [-94.7705916, 35.4584686], [-94.7705639, 35.4584901], [-94.7705947, 35.458517], [-94.7706081, 35.4585101], [-94.7706761, 35.4585749]]]}, "properties": {"osm_id": 1242345209, "building": "yes", "name": "", "height": null, "height_m": null, "levels": null, "tract_id": "40135030304", "tract_name": "303.04", "tags": {"amenity": "bank", "building": "yes", "drive_through": "yes"}}}, {"type": "Feature", "geometry": {"type": "Polygon", "coordinates": [[[-94.7626869, 35.453427], [-94.7624201, 35.4532467], [-94.7624831, 35.4531976], [-94.7627446, 35.4533767], [-94.7626869, 35.453427]]]}, "properties": {"osm_id": 1336590901, "building": "roof", "name": "Ed\u2019s Truck Stop", "height": null, "height_m": null, "levels": null, "tract_id": "40135030304", "tract_name": "303.04", "tags": {"addr:city": "Sallisaw", "addr:state": "OK", "addr:street": "East Cherokee Avenue", "amenity": "fuel", "building": "roof", "name": "Ed\u2019s Truck Stop"}}}, {"type": "Feature", "geometry": {"type": "Polygon", "coordinates": [[[-94.771432, 35.4604953], [-94.7714293, 35.4601348], [-94.7711906, 35.4601326], [-94.771196, 35.4604931], [-94.771432, 35.4604953]]]}, "properties": {"osm_id": 1336590904, "building": "yes", "name": "Dollar General", "height": null, "height_m": null, "levels": null, "tract_id": "40135030304", "tract_name": "303.04", "tags": {"addr:city": "Sallisaw", "addr:state": "OK", "addr:street": "East Cherokee Avenue", "brand": "Dollar General", "brand:wikidata": "Q145168", "building": "yes", "name": "Dollar General", "shop": "variety_store", "website": "https://www.dollargeneral.com/store-directory/ok/sallisaw/7803"}}}, {"type": "Feature", "geometry": {"type": "Polygon", "coordinates": [[[-94.7778299, 35.4573687], [-94.7777508, 35.4573698], [-94.7777478, 35.4574111], [-94.7777054, 35.457412], [-94.7777059, 35.4573715], [-94.7773927, 35.4573666], [-94.7774115, 35.4571983], [-94.7776207, 35.4571983], [-94.7776234, 35.4571175], [-94.777643, 35.4571172], [-94.7776363, 35.4568911], [-94.7776243, 35.4568922], [-94.7776323, 35.4567436], [-94.7773936, 35.4567392], [-94.7773936, 35.4565776], [-94.7778402, 35.4565765], [-94.7778383, 35.4569111], [-94.7778628, 35.4569124], [-94.7778603, 35.4570375], [-94.7778337, 35.4570403], [-94.7778299, 35.4573687]]]}, "properties": {"osm_id": 1336809157, "building": "school", "name": "Eastside School", "height": null, "height_m": null, "levels": null, "tract_id": "40135030304", "tract_name": "303.04", "tags": {"building": "school", "name": "Eastside School"}}}, {"type": "Feature", "geometry": {"type": "Polygon", "coordinates": [[[-94.762996, 35.4552401], [-94.7629155, 35.4553242], [-94.7628525, 35.4552878], [-94.7628297, 35.4553147], [-94.7627452, 35.4552645], [-94.7627716, 35.4552346], [-94.7627103, 35.4552], [-94.7627993, 35.4551133], [-94.7628574, 35.4551498], [-94.762882, 35.4551246], [-94.7629142, 35.4551417], [-94.7629209, 35.4551363], [-94.7629406, 35.4551465], [-94.762933, 35.4551559], [-94.7629651, 35.4551793], [-94.7629401, 35.4552051], [-94.762996, 35.4552401]]]}, "properties": {"osm_id": 1347710496, "building": "yes", "name": "", "height": null, "height_m": null, "levels": null, "tract_id": "40135030304", "tract_name": "303.04", "tags": {"building": "yes"}}}, {"type": "Feature", "geometry": {"type": "Polygon", "coordinates": [[[-94.7632338, 35.4553908], [-94.7631533, 35.4554749], [-94.7630903, 35.4554385], [-94.7630675, 35.4554655], [-94.762983, 35.4554152], [-94.7630094, 35.4553854], [-94.7629482, 35.4553508], [-94.7630371, 35.4552641], [-94.7630952, 35.4553005], [-94.7631198, 35.4552754], [-94.763152, 35.4552925], [-94.7631587, 35.455287], [-94.7631784, 35.4552972], [-94.7631708, 35.4553067], [-94.763203, 35.45533], [-94.7631779, 35.4553559], [-94.7632338, 35.4553908]]]}, "properties": {"osm_id": 1347710497, "building": "yes", "name": "", "height": null, "height_m": null, "levels": null, "tract_id": "40135030304", "tract_name": "303.04", "tags": {"building": "yes"}}}, {"type": "Feature", "geometry": {"type": "Polygon", "coordinates": [[[-94.7635389, 35.4557234], [-94.7634342, 35.4557235], [-94.7634341, 35.4556737], [-94.7634014, 35.4556737], [-94.7634015, 35.4557124], [-94.7633007, 35.4557125], [-94.7633006, 35.4556747], [-94.7632686, 35.4556748], [-94.7632686, 35.4557251], [-94.7631639, 35.4557252], [-94.7631636, 35.4555313], [-94.7632684, 35.4555312], [-94.7632685, 35.4555829], [-94.7632973, 35.4555828], [-94.7632973, 35.4555469], [-94.7634027, 35.4555468], [-94.7634027, 35.4555846], [-94.7634328, 35.4555845], [-94.7634326, 35.455536], [-94.7635412, 35.4555359], [-94.7635413, 35.455574], [-94.7635511, 35.455574], [-94.7635512, 35.4555962], [-94.7635387, 35.4555962], [-94.7635389, 35.4557234]]]}, "properties": {"osm_id": 1347710498, "building": "yes", "name": "", "height": null, "height_m": null, "levels": null, "tract_id": "40135030304", "tract_name": "303.04", "tags": {"building": "yes"}}}, {"type": "Feature", "geometry": {"type": "Polygon", "coordinates": [[[-94.7636014, 35.4565168], [-94.7635109, 35.4565177], [-94.7635101, 35.4564723], [-94.7634878, 35.4564726], [-94.7634885, 35.4565168], [-94.7633949, 35.4565178], [-94.7633942, 35.4564737], [-94.763367, 35.456474], [-94.7633677, 35.4565179], [-94.7632879, 35.4565187], [-94.763285, 35.4563401], [-94.7633683, 35.4563392], [-94.763369, 35.456382], [-94.7633933, 35.4563818], [-94.7633926, 35.4563385], [-94.7634854, 35.4563375], [-94.763486, 35.4563792], [-94.7635093, 35.456379], [-94.7635085, 35.456334], [-94.7635985, 35.456333], [-94.7636014, 35.4565168]]]}, "properties": {"osm_id": 1347710499, "building": "yes", "name": "", "height": null, "height_m": null, "levels": null, "tract_id": "40135030304", "tract_name": "303.04", "tags": {"building": "yes"}}}, {"type": "Feature", "geometry": {"type": "Polygon", "coordinates": [[[-94.7635374, 35.4562939], [-94.7633329, 35.456296], [-94.7633323, 35.4562518], [-94.7633122, 35.456252], [-94.7633129, 35.4562973], [-94.7632243, 35.4562982], [-94.7632215, 35.4561176], [-94.763427, 35.4561156], [-94.7634277, 35.4561598], [-94.7634516, 35.4561596], [-94.763451, 35.4561171], [-94.7635348, 35.4561162], [-94.7635374, 35.4562939]]]}, "properties": {"osm_id": 1347710500, "building": "yes", "name": "", "height": null, "height_m": null, "levels": null, "tract_id": "40135030304", "tract_name": "303.04", "tags": {"building": "yes"}}}, {"type": "Feature", "geometry": {"type": "Polygon", "coordinates": [[[-94.7623341, 35.4562769], [-94.7622298, 35.4560328], [-94.7624387, 35.4559736], [-94.7624663, 35.456038], [-94.7624159, 35.4560523], [-94.7624245, 35.4560723], [-94.7624775, 35.4560573], [-94.7625457, 35.4562169], [-94.7623341, 35.4562769]]]}, "properties": {"osm_id": 1347710501, "building": "yes", "name": "", "height": null, "height_m": null, "levels": null, "tract_id": "40135030304", "tract_name": "303.04", "tags": {"building": "yes"}}}, {"type": "Feature", "geometry": {"type": "Polygon", "coordinates": [[[-94.7622261, 35.4559994], [-94.7621205, 35.4557617], [-94.7623242, 35.4557016], [-94.762389, 35.4558475], [-94.7624094, 35.4558415], [-94.7624275, 35.4558822], [-94.7624079, 35.455888], [-94.7624306, 35.4559391], [-94.7622261, 35.4559994]]]}, "properties": {"osm_id": 1347710502, "building": "yes", "name": "", "height": null, "height_m": null, "levels": null, "tract_id": "40135030304", "tract_name": "303.04", "tags": {"building": "yes"}}}, {"type": "Feature", "geometry": {"type": "Polygon", "coordinates": [[[-94.7633085, 35.4560732], [-94.7633066, 35.4557729], [-94.7635341, 35.455772], [-94.763536, 35.4560723], [-94.7633085, 35.4560732]]]}, "properties": {"osm_id": 1347710503, "building": "yes", "name": "", "height": null, "height_m": null, "levels": null, "tract_id": "40135030304", "tract_name": "303.04", "tags": {"building": "yes"}}}, {"type": "Feature", "geometry": {"type": "Polygon", "coordinates": [[[-94.7633953, 35.4568947], [-94.7633765, 35.4568831], [-94.7633575, 35.4568357], [-94.7633684, 35.4568328], [-94.7633614, 35.4568154], [-94.763403, 35.4568043], [-94.7633933, 35.4567802], [-94.7633649, 35.4567877], [-94.7633333, 35.456709], [-94.7633603, 35.4567018], [-94.76335, 35.4566759], [-94.7633079, 35.4566871], [-94.7633022, 35.4566728], [-94.7632899, 35.4566761], [-94.7632702, 35.4566273], [-94.7632833, 35.4566237], [-94.7632769, 35.4566077], [-94.7634944, 35.4565495], [-94.7635004, 35.4565643], [-94.7635147, 35.4565605], [-94.7635353, 35.4566116], [-94.7635201, 35.4566156], [-94.7635257, 35.4566294], [-94.7634877, 35.4566396], [-94.7634983, 35.4566657], [-94.7635228, 35.4566591], [-94.7635557, 35.4567402], [-94.7635309, 35.4567469], [-94.7635395, 35.4567681], [-94.7635771, 35.456758], [-94.7635826, 35.4567715], [-94.7636043, 35.4567656], [-94.7636245, 35.4568155], [-94.763605, 35.4568208], [-94.7636114, 35.4568365], [-94.7633953, 35.4568947]]]}, "properties": {"osm_id": 1347710504, "building": "yes", "name": "", "height": null, "height_m": null, "levels": null, "tract_id": "40135030304", "tract_name": "303.04", "tags": {"building": "yes"}}}, {"type": "Feature", "geometry": {"type": "Polygon", "coordinates": [[[-94.762563, 35.4571995], [-94.7625661, 35.4573244], [-94.762526, 35.4573251], [-94.7625267, 35.4573548], [-94.7625523, 35.4573544], [-94.7625543, 35.457438], [-94.7625257, 35.4574384], [-94.7625263, 35.4574654], [-94.7625672, 35.4574647], [-94.7625701, 35.4575868], [-94.762477, 35.4575883], [-94.7624759, 35.4575451], [-94.7624311, 35.4575458], [-94.7624321, 35.4575877], [-94.7623464, 35.4575891], [-94.7623434, 35.4574618], [-94.7623812, 35.4574612], [-94.7623806, 35.4574392], [-94.762351, 35.4574397], [-94.7623488, 35.4573507], [-94.7623791, 35.4573502], [-94.7623786, 35.4573305], [-94.7623396, 35.4573312], [-94.7623365, 35.4572045], [-94.7624256, 35.4572031], [-94.7624266, 35.4572459], [-94.7624727, 35.4572452], [-94.7624716, 35.457201], [-94.762563, 35.4571995]]]}, "properties": {"osm_id": 1347710505, "building": "yes", "name": "", "height": null, "height_m": null, "levels": null, "tract_id": "40135030304", "tract_name": "303.04", "tags": {"building": "yes"}}}, {"type": "Feature", "geometry": {"type": "Polygon", "coordinates": [[[-94.7626916, 35.4566951], [-94.762698, 35.4567453], [-94.7627134, 35.456744], [-94.7627203, 35.4567982], [-94.7627062, 35.4567994], [-94.7627085, 35.4568178], [-94.7626652, 35.4568214], [-94.7626681, 35.4568442], [-94.7626968, 35.4568418], [-94.7627068, 35.4569202], [-94.7627223, 35.4569189], [-94.7627285, 35.4569683], [-94.7627445, 35.456967], [-94.7627518, 35.4570243], [-94.7627361, 35.4570256], [-94.7627431, 35.4570804], [-94.7626529, 35.457088], [-94.7626477, 35.4570472], [-94.7625998, 35.4570513], [-94.7626048, 35.4570904], [-94.7625161, 35.457098], [-94.7624672, 35.456715], [-94.762556, 35.4567075], [-94.7625615, 35.4567503], [-94.7626082, 35.4567464], [-94.7626026, 35.4567026], [-94.7626916, 35.4566951]]]}, "properties": {"osm_id": 1347710506, "building": "yes", "name": "", "height": null, "height_m": null, "levels": null, "tract_id": "40135030304", "tract_name": "303.04", "tags": {"building": "yes"}}}, {"type": "Feature", "geometry": {"type": "Polygon", "coordinates": [[[-94.7625545, 35.4562452], [-94.7625769, 35.4563], [-94.7625904, 35.4562963], [-94.7626129, 35.4563511], [-94.7625991, 35.4563549], [-94.7626175, 35.4563997], [-94.7626039, 35.4564034], [-94.7626336, 35.4564756], [-94.7626061, 35.4564831], [-94.7626161, 35.4565075], [-94.7626566, 35.4564965], [-94.7626618, 35.4565093], [-94.7626775, 35.456505], [-94.7626996, 35.4565585], [-94.7626849, 35.4565625], [-94.7627067, 35.4566154], [-94.7626162, 35.4566402], [-94.7626003, 35.4566019], [-94.7625624, 35.4566123], [-94.7625792, 35.456653], [-94.7624936, 35.4566765], [-94.7624694, 35.4566182], [-94.7624536, 35.4566225], [-94.7624316, 35.4565694], [-94.7624501, 35.4565643], [-94.7624458, 35.4565541], [-94.7624825, 35.456544], [-94.7624717, 35.4565178], [-94.7624345, 35.456528], [-94.7624033, 35.4564525], [-94.7624438, 35.4564414], [-94.762432, 35.4564127], [-94.7623918, 35.4564237], [-94.762386, 35.4564096], [-94.7623714, 35.4564136], [-94.7623531, 35.4563689], [-94.7623684, 35.4563647], [-94.7623434, 35.4563038], [-94.7624229, 35.4562822], [-94.7624396, 35.4563231], [-94.7624821, 35.4563115], [-94.7624649, 35.4562696], [-94.7625545, 35.4562452]]]}, "properties": {"osm_id": 1347710507, "building": "yes", "name": "", "height": null, "height_m": null, "levels": null, "tract_id": "40135030304", "tract_name": "303.04", "tags": {"building": "yes"}}}, {"type": "Feature", "geometry": {"type": "Polygon", "coordinates": [[[-94.7634192, 35.4574963], [-94.7634185, 35.4574236], [-94.763368, 35.4574239], [-94.7633665, 35.4572823], [-94.7630975, 35.4572842], [-94.7630989, 35.4574183], [-94.7630586, 35.4574185], [-94.7630589, 35.4574501], [-94.7630407, 35.4574502], [-94.7630413, 35.4575097], [-94.7630891, 35.4575094], [-94.7630896, 35.4575586], [-94.7631535, 35.4575581], [-94.7631529, 35.4574994], [-94.7632403, 35.4574988], [-94.7632408, 35.4575515], [-94.763301, 35.4575511], [-94.7633004, 35.4574972], [-94.7634192, 35.4574963]]]}, "properties": {"osm_id": 1347710508, "building": "yes", "name": "", "height": null, "height_m": null, "levels": null, "tract_id": "40135030304", "tract_name": "303.04", "tags": {"building": "yes"}}}, {"type": "Feature", "geometry": {"type": "Polygon", "coordinates": [[[-94.7640514, 35.4577848], [-94.7640331, 35.457669], [-94.764249, 35.4576519], [-94.7642271, 35.4575103], [-94.7643358, 35.4575004], [-94.7643809, 35.4577539], [-94.7640514, 35.4577848]]]}, "properties": {"osm_id": 1347710509, "building": "yes", "name": "", "height": null, "height_m": null, "levels": null, "tract_id": "40135030304", "tract_name": "303.04", "tags": {"building": "yes"}}}, {"type": "Feature", "geometry": {"type": "Polygon", "coordinates": [[[-94.763622, 35.4573516], [-94.7635781, 35.4572432], [-94.7638417, 35.4571723], [-94.7637904, 35.4570457], [-94.763933, 35.4570073], [-94.7639622, 35.4570794], [-94.7639226, 35.45709], [-94.7639887, 35.4572529], [-94.763622, 35.4573516]]]}, "properties": {"osm_id": 1347710510, "building": "yes", "name": "", "height": null, "height_m": null, "levels": null, "tract_id": "40135030304", "tract_name": "303.04", "tags": {"building": "yes"}}}, {"type": "Feature", "geometry": {"type": "Polygon", "coordinates": [[[-94.7689307, 35.4588025], [-94.7690527, 35.4586757], [-94.7688708, 35.4585599], [-94.7687465, 35.4586929], [-94.7689307, 35.4588025]]]}, "properties": {"osm_id": 1347711245, "building": "yes", "name": "", "height": null, "height_m": null, "levels": null, "tract_id": "40135030304", "tract_name": "303.04", "tags": {"building": "yes"}}}, {"type": "Feature", "geometry": {"type": "Polygon", "coordinates": [[[-94.770029, 35.4592416], [-94.7700286, 35.4590107], [-94.7698896, 35.4590118], [-94.76989, 35.4590825], [-94.7698703, 35.4590828], [-94.7698712, 35.4591353], [-94.7698873, 35.4591353], [-94.7698887, 35.4592438], [-94.770029, 35.4592416]]]}, "properties": {"osm_id": 1347711246, "building": "yes", "name": "", "height": null, "height_m": null, "levels": null, "tract_id": "40135030304", "tract_name": "303.04", "tags": {"building": "yes"}}}, {"type": "Feature", "geometry": {"type": "Polygon", "coordinates": [[[-94.7717863, 35.4595496], [-94.7718822, 35.4595995], [-94.7719246, 35.4595454], [-94.7719812, 35.4595749], [-94.7721332, 35.4593812], [-94.7713411, 35.4589689], [-94.7712257, 35.4591161], [-94.771505, 35.4592615], [-94.771494, 35.4592756], [-94.7715535, 35.4593066], [-94.7715628, 35.4592947], [-94.7718635, 35.4594514], [-94.7717863, 35.4595496]]]}, "properties": {"osm_id": 1347711247, "building": "hotel", "name": "", "height": null, "height_m": null, "levels": null, "tract_id": "40135030304", "tract_name": "303.04", "tags": {"building": "hotel"}}}, {"type": "Feature", "geometry": {"type": "Polygon", "coordinates": [[[-94.7720489, 35.4589708], [-94.7721669, 35.4588248], [-94.7717806, 35.4586176], [-94.7716626, 35.4587636], [-94.7720489, 35.4589708]]]}, "properties": {"osm_id": 1347711248, "building": "yes", "name": "", "height": null, "height_m": null, "levels": null, "tract_id": "40135030304", "tract_name": "303.04", "tags": {"building": "yes"}}}, {"type": "Feature", "geometry": {"type": "Polygon", "coordinates": [[[-94.7726965, 35.4596445], [-94.7725981, 35.4596378], [-94.772574, 35.4596079], [-94.7723183, 35.4595882], [-94.7723362, 35.4595525], [-94.7723895, 35.4590399], [-94.7727395, 35.459064], [-94.7727115, 35.459333], [-94.7727287, 35.4593342], [-94.7726965, 35.4596445]]]}, "properties": {"osm_id": 1347711249, "building": "yes", "name": "", "height": null, "height_m": null, "levels": null, "tract_id": "40135030304", "tract_name": "303.04", "tags": {"building": "yes"}}}, {"type": "Feature", "geometry": {"type": "Polygon", "coordinates": [[[-94.7726166, 35.4588255], [-94.7723165, 35.4588228], [-94.7723232, 35.458336], [-94.772601, 35.4583385], [-94.7725954, 35.45875], [-94.7726176, 35.4587502], [-94.7726166, 35.4588255]]]}, "properties": {"osm_id": 1347711250, "building": "yes", "name": "", "height": null, "height_m": null, "levels": null, "tract_id": "40135030304", "tract_name": "303.04", "tags": {"building": "yes"}}}, {"type": "Feature", "geometry": {"type": "Polygon", "coordinates": [[[-94.7736116, 35.4603573], [-94.7735493, 35.4603342], [-94.7735333, 35.4603629], [-94.773468, 35.4603387], [-94.7734892, 35.4603007], [-94.7733466, 35.4602478], [-94.773442, 35.460077], [-94.7737033, 35.4601739], [-94.7736553, 35.4602599], [-94.7736836, 35.4602704], [-94.7736504, 35.4603298], [-94.7736309, 35.4603226], [-94.7736116, 35.4603573]]]}, "properties": {"osm_id": 1347711251, "building": "yes", "name": "", "height": null, "height_m": null, "levels": null, "tract_id": "40135030304", "tract_name": "303.04", "tags": {"building": "yes"}}}, {"type": "Feature", "geometry": {"type": "Polygon", "coordinates": [[[-94.7741685, 35.4605696], [-94.7740146, 35.4605462], [-94.7740624, 35.4603376], [-94.7742162, 35.460361], [-94.7741685, 35.4605696]]]}, "properties": {"osm_id": 1347711252, "building": "retail", "name": "", "height": null, "height_m": null, "levels": null, "tract_id": "40135030304", "tract_name": "303.04", "tags": {"building": "retail"}}}, {"type": "Feature", "geometry": {"type": "Polygon", "coordinates": [[[-94.7748847, 35.4607716], [-94.774912, 35.4606886], [-94.7747689, 35.4606566], [-94.7747385, 35.4607392], [-94.7748847, 35.4607716]]]}, "properties": {"osm_id": 1347711253, "building": "roof", "name": "", "height": null, "height_m": null, "levels": null, "tract_id": "40135030304", "tract_name": "303.04", "tags": {"building": "roof", "layer": "1"}}}, {"type": "Feature", "geometry": {"type": "Polygon", "coordinates": [[[-94.7749088, 35.4606385], [-94.7747511, 35.4606033], [-94.7747735, 35.4605367], [-94.7747842, 35.4605391], [-94.7747971, 35.4605008], [-94.7749168, 35.4605276], [-94.7749076, 35.4605548], [-94.7749349, 35.4605609], [-94.7749088, 35.4606385]]]}, "properties": {"osm_id": 1347711254, "building": "yes", "name": "", "height": null, "height_m": null, "levels": null, "tract_id": "40135030304", "tract_name": "303.04", "tags": {"building": "yes"}}}, {"type": "Feature", "geometry": {"type": "Polygon", "coordinates": [[[-94.7758787, 35.4609646], [-94.7759013, 35.4607565], [-94.7758858, 35.4607554], [-94.7759083, 35.4605474], [-94.7754745, 35.4605163], [-94.7754511, 35.4607324], [-94.7756364, 35.4607457], [-94.7756148, 35.4609456], [-94.7758787, 35.4609646]]]}, "properties": {"osm_id": 1347711255, "building": "yes", "name": "", "height": null, "height_m": null, "levels": null, "tract_id": "40135030304", "tract_name": "303.04", "tags": {"building": "yes"}}}, {"type": "Feature", "geometry": {"type": "Polygon", "coordinates": [[[-94.776462, 35.4610118], [-94.7763408, 35.4610103], [-94.7763498, 35.4604923], [-94.7764561, 35.4604935], [-94.7764511, 35.4607763], [-94.7764661, 35.4607765], [-94.776462, 35.4610118]]]}, "properties": {"osm_id": 1347711256, "building": "yes", "name": "", "height": null, "height_m": null, "levels": null, "tract_id": "40135030304", "tract_name": "303.04", "tags": {"building": "yes"}}}, {"type": "Feature", "geometry": {"type": "Polygon", "coordinates": [[[-94.77653, 35.4610268], [-94.7765283, 35.4609659], [-94.7766145, 35.4609643], [-94.7766162, 35.4610252], [-94.77653, 35.4610268]]]}, "properties": {"osm_id": 1347711257, "building": "yes", "name": "", "height": null, "height_m": null, "levels": null, "tract_id": "40135030304", "tract_name": "303.04", "tags": {"building": "yes"}}}, {"type": "Feature", "geometry": {"type": "Polygon", "coordinates": [[[-94.7767382, 35.4610246], [-94.7767371, 35.4609183], [-94.7768149, 35.4609177], [-94.776816, 35.461024], [-94.7767382, 35.4610246]]]}, "properties": {"osm_id": 1347711258, "building": "yes", "name": "", "height": null, "height_m": null, "levels": null, "tract_id": "40135030304", "tract_name": "303.04", "tags": {"building": "yes"}}}, {"type": "Feature", "geometry": {"type": "Polygon", "coordinates": [[[-94.7769904, 35.4609154], [-94.7769877, 35.4607196], [-94.7771123, 35.4607185], [-94.777115, 35.4609143], [-94.7769904, 35.4609154]]]}, "properties": {"osm_id": 1347711259, "building": "yes", "name": "", "height": null, "height_m": null, "levels": null, "tract_id": "40135030304", "tract_name": "303.04", "tags": {"building": "yes"}}}, {"type": "Feature", "geometry": {"type": "Polygon", "coordinates": [[[-94.7771694, 35.4610534], [-94.7771718, 35.4609205], [-94.7774413, 35.4609238], [-94.7774392, 35.4610393], [-94.7773603, 35.4610384], [-94.77736, 35.4610557], [-94.7771694, 35.4610534]]]}, "properties": {"osm_id": 1347711260, "building": "yes", "name": "", "height": null, "height_m": null, "levels": null, "tract_id": "40135030304", "tract_name": "303.04", "tags": {"building": "yes"}}}, {"type": "Feature", "geometry": {"type": "Polygon", "coordinates": [[[-94.7776011, 35.4610478], [-94.7776047, 35.4608647], [-94.7777433, 35.4608665], [-94.7777397, 35.4610496], [-94.7776011, 35.4610478]]]}, "properties": {"osm_id": 1347711261, "building": "yes", "name": "", "height": null, "height_m": null, "levels": null, "tract_id": "40135030304", "tract_name": "303.04", "tags": {"building": "yes"}}}, {"type": "Feature", "geometry": {"type": "Polygon", "coordinates": [[[-94.7779628, 35.4609411], [-94.7779601, 35.4608825], [-94.7780075, 35.460881], [-94.7780102, 35.4609396], [-94.7779628, 35.4609411]]]}, "properties": {"osm_id": 1347711262, "building": "yes", "name": "", "height": null, "height_m": null, "levels": null, "tract_id": "40135030304", "tract_name": "303.04", "tags": {"building": "yes"}}}, {"type": "Feature", "geometry": {"type": "Polygon", "coordinates": [[[-94.7780247, 35.4609379], [-94.7780213, 35.4608657], [-94.7780586, 35.4608645], [-94.7780621, 35.4609367], [-94.7780247, 35.4609379]]]}, "properties": {"osm_id": 1347711263, "building": "yes", "name": "", "height": null, "height_m": null, "levels": null, "tract_id": "40135030304", "tract_name": "303.04", "tags": {"building": "yes"}}}, {"type": "Feature", "geometry": {"type": "Polygon", "coordinates": [[[-94.7780805, 35.460977], [-94.778079, 35.4608275], [-94.7781714, 35.4608269], [-94.7781729, 35.4609764], [-94.7780805, 35.460977]]]}, "properties": {"osm_id": 1347711264, "building": "yes", "name": "", "height": null, "height_m": null, "levels": null, "tract_id": "40135030304", "tract_name": "303.04", "tags": {"building": "yes"}}}]}