{"type": "FeatureCollection", "features": [{"type": "Feature", "geometry": {"type": "Polygon", "coordinates": [[[-97.6016916, 35.5411794], [-97.6015843, 35.5411729], [-97.601536, 35.5412034], [-97.6015306, 35.5412667], [-97.6014663, 35.5412645], [-97.6014636, 35.5413082], [-97.6014931, 35.5413082], [-97.6015843, 35.541437], [-97.60162, 35.541438], [-97.6016567, 35.5414391], [-97.6015682, 35.5413016], [-97.601654, 35.5413038], [-97.601654, 35.5412886], [-97.601674, 35.541286], [-97.6016734, 35.541268], [-97.6016904, 35.5412683], [-97.6016916, 35.5411794]]]}, "properties": {"osm_id": 228011477, "building": "commercial", "name": "Prosperity Bank", "height": null, "height_m": null, "levels": null, "tract_id": "40109106705", "tract_name": "1067.05", "tags": {"amenity": "bank", "brand": "Prosperity Bank", "brand:wikidata": "Q7250893", "building": "commercial", "name": "Prosperity Bank", "source": "Bing"}}}, {"type": "Feature", "geometry": {"type": "Polygon", "coordinates": [[[-97.6022816, 35.5418516], [-97.601933, 35.5417032], [-97.601933, 35.5416618], [-97.602051, 35.5414675], [-97.6024238, 35.5416203], [-97.6022816, 35.5418516]]]}, "properties": {"osm_id": 228011484, "building": "retail", "name": "Aaron's", "height": null, "height_m": null, "levels": null, "tract_id": "40109106705", "tract_name": "1067.05", "tags": {"brand": "Aaron's", "brand:wikidata": "Q10397787", "building": "retail", "check_date": "2024-06-27", "check_date:opening_hours": "2024-06-27", "name": "Aaron's", "opening_hours": "Mo-Th 10:00-19:00; Fr 10:00-20:00; Sa 10:00-18:00; Su closed", "shop": "furniture", "source": "Bing", "website": "https://locations.aarons.com/us/ok/oklahoma-city/4520-nw-expressway"}}}, {"type": "Feature", "geometry": {"type": "Polygon", "coordinates": [[[-97.6029737, 35.5418013], [-97.6028127, 35.5417271], [-97.6026586, 35.5419586], [-97.6028261, 35.5420327], [-97.6028761, 35.5419543], [-97.6029737, 35.5418013]]]}, "properties": {"osm_id": 270845717, "building": "retail", "name": "Braum's", "height": null, "height_m": null, "levels": null, "tract_id": "40109106705", "tract_name": "1067.05", "tags": {"addr:housenumber": "4524", "addr:state": "OK", "addr:street": "Northwest Expressway", "amenity": "fast_food", "brand": "Braum's", "brand:wikidata": "Q4958263", "building": "retail", "cuisine": "ice_cream;burger", "name": "Braum's", "opening_hours": "Mo-Su 06:00-22:45", "phone": "+1 405 728 1819", "ref": "23", "shop": "dairy", "source": "Bing", "takeaway": "yes"}}}, {"type": "Feature", "geometry": {"type": "Polygon", "coordinates": [[[-97.6085962, 35.544369], [-97.6082502, 35.5442141], [-97.6082329, 35.5442404], [-97.6081712, 35.544212], [-97.6081062, 35.5443107], [-97.6081176, 35.5443451], [-97.608505, 35.5445152], [-97.6085962, 35.544369]]]}, "properties": {"osm_id": 270846331, "building": "yes", "name": "Hibdon Tires Plus", "height": null, "height_m": null, "levels": null, "tract_id": "40109106705", "tract_name": "1067.05", "tags": {"addr:city": "Oklahoma City", "addr:housenumber": "4800", "addr:postcode": "73132-5214", "addr:state": "OK", "addr:street": "Northwest Expressway", "brand": "Tires Plus", "brand:wikidata": "Q64015091", "building": "yes", "name": "Hibdon Tires Plus", "opening_hours": "Mo-Sa 08:00-18:00", "phone": "+1 405 384 8058", "ref": "241663", "shop": "tyres", "source": "Bing", "website": "https://local.hibdontire.com/oklahoma/oklahoma-city/4800-northwest-expwy/"}}}, {"type": "Feature", "geometry": {"type": "Polygon", "coordinates": [[[-97.6098931, 35.5445562], [-97.6094763, 35.5445553], [-97.6094761, 35.5445879], [-97.6093382, 35.5445876], [-97.6093383, 35.5445571], [-97.6089222, 35.5445561], [-97.6089234, 35.5442252], [-97.6098943, 35.5442274], [-97.6098931, 35.5445562]]]}, "properties": {"osm_id": 270846332, "building": "yes", "name": "3 Strands Vintage Antique Mall", "height": null, "height_m": null, "levels": null, "tract_id": "40109106705", "tract_name": "1067.05", "tags": {"building": "yes", "contact:facebook": "https://www.facebook.com/p/3-Strands-Vintage-61551040096161/", "contact:instagram": "3_strands_vintage", "contact:tiktok": "3_strands_vintage", "email": "threestrandsvintage@yahoo.com", "name": "3 Strands Vintage Antique Mall", "phone": "+1 405 448 1875", "shop": "antiques", "source": "Bing", "website": "https://3strandsvintagemall.com/"}}}, {"type": "Feature", "geometry": {"type": "Polygon", "coordinates": [[[-97.6017183, 35.5371154], [-97.6015788, 35.5371154], [-97.6015135, 35.5371661], [-97.6015145, 35.5372791], [-97.6017156, 35.5372769], [-97.6017183, 35.5371154]]]}, "properties": {"osm_id": 271036669, "building": "retail", "name": "Valero", "height": null, "height_m": null, "levels": null, "tract_id": "40109106705", "tract_name": "1067.05", "tags": {"addr:city": "Oklahoma City", "addr:state": "OK", "brand": "Valero", "brand:wikidata": "Q1283291", "building": "retail", "name": "Valero", "roof:shape": "flat", "shop": "convenience", "source": "Bing"}}}, {"type": "Feature", "geometry": {"type": "Polygon", "coordinates": [[[-97.6015485, 35.5370435], [-97.6014492, 35.5371241], [-97.6013963, 35.5370809], [-97.6014955, 35.5370003], [-97.6015485, 35.5370435]]]}, "properties": {"osm_id": 271036670, "building": "roof", "name": "Valero", "height": null, "height_m": null, "levels": null, "tract_id": "40109106705", "tract_name": "1067.05", "tags": {"amenity": "fuel", "brand": "Valero", "brand:wikidata": "Q1283291", "building": "roof", "name": "Valero", "roof:shape": "flat", "source": "Bing", "website": "https://locations.valero.com/en-us/LocationDetails/Index/4501-NW-63RD/0000025650"}}}, {"type": "Feature", "geometry": {"type": "Polygon", "coordinates": [[[-97.6103234, 35.5449799], [-97.6103234, 35.5452098], [-97.6101336, 35.5452098], [-97.6101336, 35.5449799], [-97.6103234, 35.5449799]]]}, "properties": {"osm_id": 291844969, "building": "yes", "name": "Winners Church", "height": null, "height_m": null, "levels": null, "tract_id": "40109106705", "tract_name": "1067.05", "tags": {"addr:city": "Oklahoma City", "addr:housenumber": "5500", "addr:postcode": "73132", "addr:state": "OK", "addr:street": "Northwest Expressway", "amenity": "place_of_worship", "app:apple": "https://apps.apple.com/us/app/winners-church-ok/id1443910835", "app:google": "https://play.google.com/store/apps/details?id=io.pushpay.winnerschurch", "building": "yes", "contact:facebook": "WinnersChurchOK", "contact:instagram": "winners.church", "contact:youtube": "https://www.youtube.com/channel/UCP2CazsOchzVboTvOfs-D4A", "name": "Winners Church", "phone": "+1 405 856 8399", "religion": "christian", "service_times": "Su 10:00; We 19:00", "source": "Bing"}}}, {"type": "Feature", "geometry": {"type": "Polygon", "coordinates": [[[-97.6126262, 35.5455537], [-97.6125761, 35.5456306], [-97.6125963, 35.5456393], [-97.6125574, 35.545699], [-97.6125372, 35.5456903], [-97.6125161, 35.5457226], [-97.6122988, 35.5456289], [-97.6123354, 35.5455728], [-97.6122885, 35.5455525], [-97.6123083, 35.5455222], [-97.612239, 35.5454923], [-97.6122927, 35.5454099], [-97.6126262, 35.5455537]]]}, "properties": {"osm_id": 291845606, "building": "yes", "name": "", "height": null, "height_m": null, "levels": null, "tract_id": "40109106705", "tract_name": "1067.05", "tags": {"building": "yes", "source": "Bing"}}}, {"type": "Feature", "geometry": {"type": "Polygon", "coordinates": [[[-97.6120792, 35.5461703], [-97.6121987, 35.5459928], [-97.6122097, 35.5459974], [-97.6122207, 35.5459811], [-97.6122351, 35.5459875], [-97.6122498, 35.5459658], [-97.6122932, 35.5459852], [-97.6122675, 35.5460232], [-97.6123013, 35.5460383], [-97.6122502, 35.5461141], [-97.6122625, 35.5461195], [-97.6122079, 35.5462005], [-97.6122008, 35.5461973], [-97.6121867, 35.5462183], [-97.6120792, 35.5461703]]]}, "properties": {"osm_id": 291845607, "building": "yes", "name": "Church's Chicken", "height": null, "height_m": null, "levels": null, "tract_id": "40109106705", "tract_name": "1067.05", "tags": {"addr:city": "Warr Acres", "addr:housenumber": "5590", "addr:postcode": "73132", "addr:state": "OK", "addr:street": "Northwest Expressway", "amenity": "fast_food", "brand": "Church's Chicken", "brand:wikidata": "Q1089932", "building": "yes", "cuisine": "chicken", "name": "Church's Chicken", "phone": "+1 405-728-8500", "source": "Bing", "takeaway": "yes", "website": "https://locations.churchs.com/ok/warr-acres/5590-nw-expressway"}}}, {"type": "Feature", "geometry": {"type": "Polygon", "coordinates": [[[-97.6145748, 35.5469952], [-97.6144274, 35.5469294], [-97.6144933, 35.5468316], [-97.6146408, 35.5468973], [-97.6145748, 35.5469952]]]}, "properties": {"osm_id": 291845610, "building": "roof", "name": "", "height": null, "height_m": null, "levels": null, "tract_id": "40109106705", "tract_name": "1067.05", "tags": {"building": "roof", "source": "Bing"}}}, {"type": "Feature", "geometry": {"type": "Polygon", "coordinates": [[[-97.6115338, 35.5458941], [-97.6114359, 35.5458505], [-97.6115111, 35.5457389], [-97.611609, 35.5457826], [-97.6115338, 35.5458941]]]}, "properties": {"osm_id": 291845611, "building": "yes", "name": "Lounge 405", "height": null, "height_m": null, "levels": null, "tract_id": "40109106705", "tract_name": "1067.05", "tags": {"addr:city": "Oklahoma City", "addr:postcode": "73132", "addr:state": "OK", "addr:street": "Northwest Expressway", "amenity": "restaurant", "building": "yes", "name": "Lounge 405", "source": "Bing"}}}, {"type": "Feature", "geometry": {"type": "Polygon", "coordinates": [[[-97.614317, 35.5470682], [-97.6141912, 35.5470121], [-97.6143531, 35.546772], [-97.6144788, 35.5468281], [-97.614317, 35.5470682]]]}, "properties": {"osm_id": 291845612, "building": "yes", "name": "L.A. Finest", "height": null, "height_m": null, "levels": null, "tract_id": "40109106705", "tract_name": "1067.05", "tags": {"building": "yes", "name": "L.A. Finest", "shop": "cannabis", "source": "Bing"}}}, {"type": "Feature", "geometry": {"type": "Polygon", "coordinates": [[[-97.6120059, 35.5460328], [-97.6118082, 35.5459446], [-97.6119749, 35.5456971], [-97.6121727, 35.5457853], [-97.6120059, 35.5460328]]]}, "properties": {"osm_id": 291845613, "building": "yes", "name": "Sherwin-Williams", "height": null, "height_m": null, "levels": null, "tract_id": "40109106705", "tract_name": "1067.05", "tags": {"brand": "Sherwin-Williams", "brand:wikidata": "Q48881", "building": "yes", "name": "Sherwin-Williams", "shop": "paint", "source": "Bing"}}}, {"type": "Feature", "geometry": {"type": "Polygon", "coordinates": [[[-97.6129535, 35.5463692], [-97.6127254, 35.5462674], [-97.6130092, 35.5458464], [-97.6132373, 35.5459481], [-97.6129535, 35.5463692]]]}, "properties": {"osm_id": 291845614, "building": "yes", "name": "", "height": null, "height_m": null, "levels": null, "tract_id": "40109106705", "tract_name": "1067.05", "tags": {"building": "yes", "source": "Bing"}}}, {"type": "Feature", "geometry": {"type": "Polygon", "coordinates": [[[-97.6108634, 35.5455517], [-97.6105892, 35.5454293], [-97.6106594, 35.5453251], [-97.6109336, 35.5454474], [-97.6108634, 35.5455517]]]}, "properties": {"osm_id": 291845615, "building": "yes", "name": "Midas", "height": null, "height_m": null, "levels": null, "tract_id": "40109106705", "tract_name": "1067.05", "tags": {"brand": "Midas", "brand:wikidata": "Q3312613", "building": "yes", "name": "Midas", "shop": "car_repair", "source": "Bing"}}}, {"type": "Feature", "geometry": {"type": "Polygon", "coordinates": [[[-97.6147326, 35.5472981], [-97.6145971, 35.5472381], [-97.6146806, 35.5471134], [-97.6147001, 35.547122], [-97.6147687, 35.5470195], [-97.6148848, 35.547071], [-97.6147326, 35.5472981]]]}, "properties": {"osm_id": 291845616, "building": "yes", "name": "Shipley Do-Nuts", "height": null, "height_m": null, "levels": null, "tract_id": "40109106705", "tract_name": "1067.05", "tags": {"amenity": "fast_food", "brand": "Shipley Do-Nuts", "brand:wikidata": "Q7498017", "building": "yes", "cuisine": "donut", "drive_through": "yes", "name": "Shipley Do-Nuts", "source": "Bing", "takeaway": "yes"}}}, {"type": "Feature", "geometry": {"type": "Polygon", "coordinates": [[[-97.6120613, 35.5450767], [-97.6119632, 35.5452274], [-97.6119436, 35.5452189], [-97.6118741, 35.5453256], [-97.6112598, 35.5450606], [-97.6113595, 35.5449075], [-97.6113747, 35.544914], [-97.6114425, 35.5448099], [-97.6120613, 35.5450767]]]}, "properties": {"osm_id": 291845617, "building": "yes", "name": "Fifty-Six Expressway Place", "height": null, "height_m": null, "levels": null, "tract_id": "40109106705", "tract_name": "1067.05", "tags": {"building": "yes", "name": "Fifty-Six Expressway Place", "source": "Bing"}}}, {"type": "Feature", "geometry": {"type": "Polygon", "coordinates": [[[-97.6114643, 35.5457688], [-97.610966, 35.5455465], [-97.6109723, 35.5455372], [-97.6109654, 35.5455342], [-97.6110676, 35.5453825], [-97.6115834, 35.5456126], [-97.6114825, 35.5457624], [-97.6114718, 35.5457576], [-97.6114643, 35.5457688]]]}, "properties": {"osm_id": 291845618, "building": "yes", "name": "", "height": null, "height_m": null, "levels": null, "tract_id": "40109106705", "tract_name": "1067.05", "tags": {"building": "yes", "source": "Bing"}}}, {"type": "Feature", "geometry": {"type": "Polygon", "coordinates": [[[-97.6137714, 35.5467476], [-97.6136649, 35.5467001], [-97.6136587, 35.5467094], [-97.6136085, 35.546687], [-97.6136148, 35.5466778], [-97.6135362, 35.5466427], [-97.613595, 35.5465555], [-97.6138302, 35.5466604], [-97.6137714, 35.5467476]]]}, "properties": {"osm_id": 291845619, "building": "yes", "name": "Taco Bell", "height": null, "height_m": null, "levels": null, "tract_id": "40109106705", "tract_name": "1067.05", "tags": {"addr:city": "Warr Acres", "addr:housenumber": "5704", "addr:postcode": "73132", "addr:state": "OK", "addr:street": "Northwest Expressway", "amenity": "fast_food", "brand": "Taco Bell", "brand:wikidata": "Q752941", "building": "yes", "cuisine": "tex-mex", "name": "Taco Bell", "opening_hours": "Mo-Th 08:00-02:00; Fr-Sa 08:00-04:00; Su 08:00-02:00", "phone": "+1 405-721-0658", "source": "Bing", "takeaway": "yes", "website": "https://locations.tacobell.com/ok/warr-acres/5704-nw-expressway.html"}}}, {"type": "Feature", "geometry": {"type": "Polygon", "coordinates": [[[-97.6108289, 35.540704], [-97.6107837, 35.5407046], [-97.6107842, 35.5407278], [-97.6106784, 35.5407293], [-97.6106779, 35.5407054], [-97.6106269, 35.5407061], [-97.6106245, 35.5405931], [-97.6107138, 35.5405919], [-97.6107129, 35.5405509], [-97.6108256, 35.5405494], [-97.6108289, 35.540704]]]}, "properties": {"osm_id": 985406502, "building": "yes", "name": "", "height": null, "height_m": null, "levels": null, "tract_id": "40109106705", "tract_name": "1067.05", "tags": {"building": "yes"}}}, {"type": "Feature", "geometry": {"type": "Polygon", "coordinates": [[[-97.6110674, 35.5407255], [-97.61099, 35.5407266], [-97.6109902, 35.5407384], [-97.6109143, 35.5407396], [-97.610914, 35.5407243], [-97.6108767, 35.5407248], [-97.6108764, 35.5407109], [-97.6108667, 35.5407111], [-97.6108644, 35.5406115], [-97.6109501, 35.5406101], [-97.6109487, 35.5405528], [-97.6109759, 35.5405523], [-97.6109758, 35.5405511], [-97.6110033, 35.5405507], [-97.6110034, 35.5405522], [-97.6110298, 35.5405518], [-97.6110299, 35.5405565], [-97.6110637, 35.540556], [-97.6110674, 35.5407255]]]}, "properties": {"osm_id": 985406503, "building": "yes", "name": "", "height": null, "height_m": null, "levels": null, "tract_id": "40109106705", "tract_name": "1067.05", "tags": {"building": "yes"}}}, {"type": "Feature", "geometry": {"type": "Polygon", "coordinates": [[[-97.6107921, 35.5408582], [-97.610633, 35.5408567], [-97.6106311, 35.5409885], [-97.6106413, 35.5409886], [-97.6106408, 35.5410195], [-97.6107075, 35.5410202], [-97.6107074, 35.5410246], [-97.6107943, 35.5410255], [-97.6107944, 35.5410204], [-97.6108283, 35.5410207], [-97.6108292, 35.5409554], [-97.6107906, 35.540955], [-97.6107921, 35.5408582]]]}, "properties": {"osm_id": 985406504, "building": "yes", "name": "", "height": null, "height_m": null, "levels": null, "tract_id": "40109106705", "tract_name": "1067.05", "tags": {"building": "yes"}}}, {"type": "Feature", "geometry": {"type": "Polygon", "coordinates": [[[-97.6103115, 35.5407986], [-97.6101547, 35.5407994], [-97.6101545, 35.5407656], [-97.6101331, 35.5407657], [-97.6101322, 35.540651], [-97.6103437, 35.5406499], [-97.6103444, 35.5407385], [-97.6103111, 35.5407387], [-97.6103115, 35.5407986]]]}, "properties": {"osm_id": 985406505, "building": "yes", "name": "", "height": null, "height_m": null, "levels": null, "tract_id": "40109106705", "tract_name": "1067.05", "tags": {"building": "yes"}}}, {"type": "Feature", "geometry": {"type": "Polygon", "coordinates": [[[-97.6103317, 35.5405967], [-97.610164, 35.5405972], [-97.6101634, 35.5404564], [-97.610349, 35.5404559], [-97.6103492, 35.5405211], [-97.6103314, 35.5405212], [-97.6103317, 35.5405967]]]}, "properties": {"osm_id": 985406506, "building": "yes", "name": "", "height": null, "height_m": null, "levels": null, "tract_id": "40109106705", "tract_name": "1067.05", "tags": {"building": "yes"}}}, {"type": "Feature", "geometry": {"type": "Polygon", "coordinates": [[[-97.6103188, 35.5404081], [-97.6101657, 35.5404087], [-97.6101655, 35.540373], [-97.6101401, 35.5403731], [-97.6101398, 35.5403116], [-97.6101366, 35.5403116], [-97.6101363, 35.5402593], [-97.6103575, 35.5402584], [-97.6103579, 35.5403241], [-97.6103481, 35.5403241], [-97.6103483, 35.5403504], [-97.6103185, 35.5403505], [-97.6103188, 35.5404081]]]}, "properties": {"osm_id": 985406507, "building": "yes", "name": "", "height": null, "height_m": null, "levels": null, "tract_id": "40109106705", "tract_name": "1067.05", "tags": {"building": "yes"}}}, {"type": "Feature", "geometry": {"type": "Polygon", "coordinates": [[[-97.6099125, 35.5408178], [-97.6097598, 35.5408181], [-97.6097596, 35.5407471], [-97.6097848, 35.540747], [-97.6097847, 35.540712], [-97.6097597, 35.5407121], [-97.6097595, 35.5406536], [-97.6099823, 35.5406531], [-97.6099826, 35.5407311], [-97.6099121, 35.5407313], [-97.6099125, 35.5408178]]]}, "properties": {"osm_id": 985406508, "building": "yes", "name": "", "height": null, "height_m": null, "levels": null, "tract_id": "40109106705", "tract_name": "1067.05", "tags": {"building": "yes"}}}, {"type": "Feature", "geometry": {"type": "Polygon", "coordinates": [[[-97.6099292, 35.5406333], [-97.6097991, 35.5406339], [-97.6097986, 35.5405687], [-97.6098488, 35.5405684], [-97.6098486, 35.5405424], [-97.6097528, 35.5405428], [-97.6097523, 35.5404676], [-97.6099281, 35.5404668], [-97.6099286, 35.5405373], [-97.6099223, 35.5405373], [-97.6099225, 35.5405743], [-97.6099289, 35.540578], [-97.6099292, 35.5406333]]]}, "properties": {"osm_id": 985406509, "building": "yes", "name": "", "height": null, "height_m": null, "levels": null, "tract_id": "40109106705", "tract_name": "1067.05", "tags": {"building": "yes"}}}, {"type": "Feature", "geometry": {"type": "Polygon", "coordinates": [[[-97.6098749, 35.5404473], [-97.6097282, 35.540448], [-97.6097277, 35.5403801], [-97.6097528, 35.54038], [-97.6097521, 35.5402794], [-97.6099341, 35.5402786], [-97.6099347, 35.5403581], [-97.609922, 35.5403581], [-97.6099222, 35.5403897], [-97.6098745, 35.5403899], [-97.6098749, 35.5404473]]]}, "properties": {"osm_id": 985406510, "building": "yes", "name": "", "height": null, "height_m": null, "levels": null, "tract_id": "40109106705", "tract_name": "1067.05", "tags": {"building": "yes"}}}, {"type": "Feature", "geometry": {"type": "Polygon", "coordinates": [[[-97.6104126, 35.5402308], [-97.6102082, 35.5402315], [-97.6102078, 35.540137], [-97.6102022, 35.540137], [-97.610202, 35.5401024], [-97.6103896, 35.5401018], [-97.6103898, 35.5401548], [-97.610401, 35.5401547], [-97.6104013, 35.5401999], [-97.6104125, 35.5401999], [-97.6104126, 35.5402308]]]}, "properties": {"osm_id": 985406511, "building": "yes", "name": "", "height": null, "height_m": null, "levels": null, "tract_id": "40109106705", "tract_name": "1067.05", "tags": {"building": "yes"}}}, {"type": "Feature", "geometry": {"type": "Polygon", "coordinates": [[[-97.6109733, 35.5403053], [-97.610975, 35.5401208], [-97.6108077, 35.5401198], [-97.6108074, 35.5401446], [-97.6107781, 35.5401444], [-97.6107777, 35.5401816], [-97.6107738, 35.5401816], [-97.6107734, 35.5402202], [-97.6107793, 35.5402202], [-97.6107789, 35.5402747], [-97.6108567, 35.5402752], [-97.6108564, 35.5403016], [-97.6108914, 35.5403018], [-97.6108914, 35.5403048], [-97.6109733, 35.5403053]]]}, "properties": {"osm_id": 985406512, "building": "yes", "name": "", "height": null, "height_m": null, "levels": null, "tract_id": "40109106705", "tract_name": "1067.05", "tags": {"building": "yes"}}}, {"type": "Feature", "geometry": {"type": "Polygon", "coordinates": [[[-97.6149263, 35.5442867], [-97.6147478, 35.5442963], [-97.6147437, 35.5442454], [-97.6147513, 35.544245], [-97.6147504, 35.5442349], [-97.6147221, 35.5442364], [-97.6147208, 35.5442205], [-97.6147151, 35.5442208], [-97.61471, 35.5441581], [-97.6149149, 35.5441471], [-97.6149263, 35.5442867]]]}, "properties": {"osm_id": 985407597, "building": "yes", "name": "", "height": null, "height_m": null, "levels": null, "tract_id": "40109106705", "tract_name": "1067.05", "tags": {"building": "yes"}}}, {"type": "Feature", "geometry": {"type": "Polygon", "coordinates": [[[-97.61498, 35.544456], [-97.6148423, 35.5444702], [-97.6148384, 35.5444455], [-97.6148265, 35.5444467], [-97.6148197, 35.5444029], [-97.6148246, 35.5444023], [-97.6148233, 35.544394], [-97.6148146, 35.5443949], [-97.6148039, 35.5443259], [-97.6149572, 35.5443101], [-97.61498, 35.544456]]]}, "properties": {"osm_id": 985407598, "building": "yes", "name": "", "height": null, "height_m": null, "levels": null, "tract_id": "40109106705", "tract_name": "1067.05", "tags": {"building": "yes"}}}, {"type": "Feature", "geometry": {"type": "Polygon", "coordinates": [[[-97.6148699, 35.5441183], [-97.6146901, 35.5441072], [-97.6146962, 35.5440414], [-97.6147441, 35.5440443], [-97.6147452, 35.5440324], [-97.6147345, 35.5440317], [-97.6147401, 35.5439714], [-97.6149119, 35.543982], [-97.614911, 35.5439918], [-97.6149153, 35.543992], [-97.614907, 35.5440814], [-97.6148802, 35.5440798], [-97.6148774, 35.5441099], [-97.6148707, 35.5441095], [-97.6148699, 35.5441183]]]}, "properties": {"osm_id": 985407599, "building": "yes", "name": "", "height": null, "height_m": null, "levels": null, "tract_id": "40109106705", "tract_name": "1067.05", "tags": {"building": "yes"}}}, {"type": "Feature", "geometry": {"type": "Polygon", "coordinates": [[[-97.6148563, 35.5439351], [-97.6147385, 35.5438802], [-97.6147654, 35.5438419], [-97.6147703, 35.5438442], [-97.6147901, 35.5438162], [-97.6147227, 35.5437846], [-97.6147651, 35.5437247], [-97.6149451, 35.5438091], [-97.6149263, 35.5438357], [-97.6149298, 35.5438453], [-97.6149198, 35.5438608], [-97.6149073, 35.5438627], [-97.6148563, 35.5439351]]]}, "properties": {"osm_id": 985407600, "building": "yes", "name": "", "height": null, "height_m": null, "levels": null, "tract_id": "40109106705", "tract_name": "1067.05", "tags": {"building": "yes"}}}, {"type": "Feature", "geometry": {"type": "Polygon", "coordinates": [[[-97.6152497, 35.5447203], [-97.6150589, 35.5447414], [-97.6150486, 35.5446799], [-97.6150723, 35.5446772], [-97.6150692, 35.5446582], [-97.6150282, 35.5446628], [-97.6150177, 35.5445999], [-97.6150207, 35.5445982], [-97.6150161, 35.5445709], [-97.6151019, 35.5445614], [-97.6151058, 35.544585], [-97.615225, 35.5445719], [-97.6152497, 35.5447203]]]}, "properties": {"osm_id": 985407601, "building": "yes", "name": "", "height": null, "height_m": null, "levels": null, "tract_id": "40109106705", "tract_name": "1067.05", "tags": {"building": "yes"}}}, {"type": "Feature", "geometry": {"type": "Polygon", "coordinates": [[[-97.6151939, 35.5449406], [-97.6149587, 35.5449663], [-97.6149562, 35.544951], [-97.6149503, 35.5449516], [-97.6149445, 35.5449159], [-97.6149504, 35.5449153], [-97.6149485, 35.5449036], [-97.6149429, 35.5449042], [-97.614942, 35.5448986], [-97.6150522, 35.5448873], [-97.6150502, 35.5448742], [-97.6150402, 35.5448752], [-97.6150355, 35.544845], [-97.6150438, 35.5448441], [-97.6150436, 35.5448431], [-97.6150401, 35.5448435], [-97.6150355, 35.5448151], [-97.6150398, 35.5448147], [-97.6150376, 35.5448017], [-97.6151042, 35.5447944], [-97.6151049, 35.5447988], [-97.6151615, 35.5447926], [-97.6151678, 35.5448309], [-97.6151908, 35.5448284], [-97.6152035, 35.5449047], [-97.6151882, 35.5449064], [-97.6151939, 35.5449406]]]}, "properties": {"osm_id": 985407602, "building": "yes", "name": "", "height": null, "height_m": null, "levels": null, "tract_id": "40109106705", "tract_name": "1067.05", "tags": {"building": "yes"}}}, {"type": "Feature", "geometry": {"type": "Polygon", "coordinates": [[[-97.616825, 35.5443227], [-97.6167989, 35.544321], [-97.6167993, 35.5443174], [-97.6167475, 35.544314], [-97.6167472, 35.5443171], [-97.616692, 35.5443134], [-97.6166923, 35.5443104], [-97.6166327, 35.5443064], [-97.6166497, 35.5441405], [-97.6167074, 35.5441444], [-97.6167077, 35.5441417], [-97.6167673, 35.5441456], [-97.6167669, 35.5441496], [-97.6168254, 35.5441534], [-97.6168163, 35.5442471], [-97.6168342, 35.5442483], [-97.6168316, 35.5442749], [-97.6168348, 35.5442751], [-97.6168325, 35.5442989], [-97.6168274, 35.5442986], [-97.616825, 35.5443227]]]}, "properties": {"osm_id": 985407603, "building": "yes", "name": "", "height": null, "height_m": null, "levels": null, "tract_id": "40109106705", "tract_name": "1067.05", "tags": {"building": "yes"}}}, {"type": "Feature", "geometry": {"type": "Polygon", "coordinates": [[[-97.6168176, 35.544513], [-97.6167745, 35.5445137], [-97.6167744, 35.5445106], [-97.6167353, 35.5445113], [-97.6167354, 35.5445136], [-97.6166966, 35.5445142], [-97.6166966, 35.5445124], [-97.6166528, 35.544513], [-97.6166521, 35.5444793], [-97.6166046, 35.54448], [-97.6166018, 35.5443457], [-97.6167771, 35.5443433], [-97.6167792, 35.5444447], [-97.6168152, 35.5444442], [-97.6168157, 35.544467], [-97.6168185, 35.544467], [-97.6168189, 35.5444896], [-97.616817, 35.5444901], [-97.6168176, 35.544513]]]}, "properties": {"osm_id": 985407604, "building": "yes", "name": "", "height": null, "height_m": null, "levels": null, "tract_id": "40109106705", "tract_name": "1067.05", "tags": {"building": "yes"}}}, {"type": "Feature", "geometry": {"type": "Polygon", "coordinates": [[[-97.6136321, 35.5414322], [-97.6135983, 35.5414173], [-97.6135998, 35.541415], [-97.613534, 35.5413858], [-97.6135138, 35.5414161], [-97.6134951, 35.5414078], [-97.6134926, 35.5414116], [-97.6134644, 35.5413991], [-97.6134627, 35.5414018], [-97.6134526, 35.5413973], [-97.6133763, 35.5415115], [-97.6133849, 35.5415153], [-97.6133825, 35.5415188], [-97.6134702, 35.5415577], [-97.6134786, 35.5415452], [-97.6134937, 35.541552], [-97.613487, 35.5415619], [-97.6135318, 35.5415818], [-97.6136321, 35.5414322]]]}, "properties": {"osm_id": 985411030, "building": "yes", "name": "", "height": null, "height_m": null, "levels": null, "tract_id": "40109106705", "tract_name": "1067.05", "tags": {"building": "yes"}}}, {"type": "Feature", "geometry": {"type": "Polygon", "coordinates": [[[-97.6133652, 35.5413906], [-97.6133273, 35.5413835], [-97.6133315, 35.5413687], [-97.6133024, 35.5413633], [-97.6133177, 35.5413093], [-97.6132282, 35.5412925], [-97.6132272, 35.541296], [-97.613199, 35.5412906], [-97.6131809, 35.5413534], [-97.6132127, 35.5413594], [-97.6131758, 35.5414881], [-97.6131826, 35.5414894], [-97.6131811, 35.5414947], [-97.6132752, 35.5415125], [-97.6132745, 35.541515], [-97.6133272, 35.5415249], [-97.6133652, 35.5413906]]]}, "properties": {"osm_id": 985411031, "building": "yes", "name": "", "height": null, "height_m": null, "levels": null, "tract_id": "40109106705", "tract_name": "1067.05", "tags": {"building": "yes"}}}, {"type": "Feature", "geometry": {"type": "Polygon", "coordinates": [[[-97.6132867, 35.5416702], [-97.6132367, 35.5417891], [-97.6131589, 35.5417675], [-97.6131647, 35.5417537], [-97.6131528, 35.5417504], [-97.6131382, 35.5417852], [-97.6130508, 35.5417609], [-97.6131097, 35.5416209], [-97.6132867, 35.5416702]]]}, "properties": {"osm_id": 985411032, "building": "yes", "name": "", "height": null, "height_m": null, "levels": null, "tract_id": "40109106705", "tract_name": "1067.05", "tags": {"building": "yes"}}}, {"type": "Feature", "geometry": {"type": "Polygon", "coordinates": [[[-97.6134624, 35.5417276], [-97.613455, 35.5417386], [-97.6134329, 35.5417287], [-97.6134414, 35.5417161], [-97.6133619, 35.5416804], [-97.6133592, 35.5416845], [-97.6133482, 35.5416795], [-97.6132733, 35.5417904], [-97.6132833, 35.5417949], [-97.6132812, 35.541798], [-97.6133103, 35.541811], [-97.6133064, 35.5418144], [-97.6133245, 35.5418226], [-97.6133026, 35.5418546], [-97.6133717, 35.5418859], [-97.6133753, 35.5418806], [-97.6134027, 35.5418929], [-97.613501, 35.541749], [-97.6134927, 35.5417452], [-97.6134958, 35.5417426], [-97.6134624, 35.5417276]]]}, "properties": {"osm_id": 985411033, "building": "yes", "name": "", "height": null, "height_m": null, "levels": null, "tract_id": "40109106705", "tract_name": "1067.05", "tags": {"building": "yes"}}}, {"type": "Feature", "geometry": {"type": "Polygon", "coordinates": [[[-97.6136563, 35.5419499], [-97.6135699, 35.5420092], [-97.6135649, 35.5420045], [-97.6135369, 35.5420237], [-97.6134881, 35.5419767], [-97.6135094, 35.5419621], [-97.6135033, 35.5419562], [-97.6134762, 35.5419748], [-97.6134195, 35.5419202], [-97.6134743, 35.5418826], [-97.6134674, 35.541876], [-97.613533, 35.541831], [-97.6136563, 35.5419499]]]}, "properties": {"osm_id": 985411034, "building": "yes", "name": "", "height": null, "height_m": null, "levels": null, "tract_id": "40109106705", "tract_name": "1067.05", "tags": {"building": "yes"}}}, {"type": "Feature", "geometry": {"type": "Polygon", "coordinates": [[[-97.6138144, 35.5420941], [-97.6137249, 35.5419634], [-97.6136832, 35.5419823], [-97.613681, 35.5419791], [-97.6136212, 35.5420062], [-97.6136276, 35.5420111], [-97.613613, 35.5420177], [-97.6136223, 35.5420314], [-97.6135891, 35.5420464], [-97.6135958, 35.5420563], [-97.6135922, 35.5420579], [-97.6136078, 35.5420807], [-97.613614, 35.5420779], [-97.6136199, 35.5420865], [-97.6136273, 35.5420831], [-97.6136345, 35.5420937], [-97.613612, 35.5421039], [-97.6136549, 35.5421665], [-97.6138144, 35.5420941]]]}, "properties": {"osm_id": 985411035, "building": "yes", "name": "", "height": null, "height_m": null, "levels": null, "tract_id": "40109106705", "tract_name": "1067.05", "tags": {"building": "yes"}}}, {"type": "Feature", "geometry": {"type": "Polygon", "coordinates": [[[-97.6139467, 35.542235], [-97.6138619, 35.5421122], [-97.6138177, 35.5421324], [-97.6138145, 35.5421279], [-97.6137038, 35.5421785], [-97.6137279, 35.5422134], [-97.6137411, 35.5422075], [-97.6137493, 35.5422194], [-97.6137044, 35.5422399], [-97.61376, 35.5423204], [-97.6139467, 35.542235]]]}, "properties": {"osm_id": 985411036, "building": "yes", "name": "", "height": null, "height_m": null, "levels": null, "tract_id": "40109106705", "tract_name": "1067.05", "tags": {"building": "yes"}}}, {"type": "Feature", "geometry": {"type": "Polygon", "coordinates": [[[-97.6140408, 35.5423837], [-97.6139195, 35.5424412], [-97.6139063, 35.5424227], [-97.6138787, 35.5424357], [-97.6138499, 35.5423955], [-97.6138214, 35.542409], [-97.6137763, 35.542346], [-97.6139536, 35.5422619], [-97.6140408, 35.5423837]]]}, "properties": {"osm_id": 985411037, "building": "yes", "name": "", "height": null, "height_m": null, "levels": null, "tract_id": "40109106705", "tract_name": "1067.05", "tags": {"building": "yes"}}}, {"type": "Feature", "geometry": {"type": "Polygon", "coordinates": [[[-97.6020533, 35.5387385], [-97.6016309, 35.5387359], [-97.6016345, 35.5383358], [-97.6020569, 35.5383383], [-97.6020533, 35.5387385]]]}, "properties": {"osm_id": 1053055996, "building": "commercial", "name": "", "height": null, "height_m": 15.0, "levels": 5, "tract_id": "40109106705", "tract_name": "1067.05", "tags": {"building": "commercial", "building:levels": "5"}}}, {"type": "Feature", "geometry": {"type": "Polygon", "coordinates": [[[-97.6017515, 35.5410558], [-97.6016036, 35.5410558], [-97.6016067, 35.5408176], [-97.6015789, 35.5408226], [-97.6015697, 35.54077], [-97.6016005, 35.5407675], [-97.6016005, 35.5407349], [-97.6017453, 35.5407148], [-97.6017515, 35.5410558]]]}, "properties": {"osm_id": 1227232188, "building": "yes", "name": "Pancho's Liquortown", "height": null, "height_m": null, "levels": null, "tract_id": "40109106705", "tract_name": "1067.05", "tags": {"building": "yes", "name": "Pancho's Liquortown", "shop": "alcohol"}}}, {"type": "Feature", "geometry": {"type": "Polygon", "coordinates": [[[-97.6017422, 35.5406196], [-97.6016282, 35.5406196], [-97.6016313, 35.5405393], [-97.6014896, 35.5405343], [-97.6014896, 35.5403413], [-97.601542, 35.5403388], [-97.6015389, 35.5401282], [-97.6017391, 35.5401457], [-97.6017422, 35.5406196]]]}, "properties": {"osm_id": 1227232189, "building": "yes", "name": "Strictly Used Golf", "height": null, "height_m": null, "levels": null, "tract_id": "40109106705", "tract_name": "1067.05", "tags": {"building": "yes", "name": "Strictly Used Golf", "shop": "sports"}}}, {"type": "Feature", "geometry": {"type": "Polygon", "coordinates": [[[-97.6035409, 35.5420306], [-97.6034732, 35.5421104], [-97.6036156, 35.5421769], [-97.6036389, 35.5421712], [-97.603695, 35.5421978], [-97.603716, 35.5421864], [-97.603786, 35.5422225], [-97.6038234, 35.5421655], [-97.6035409, 35.5420306]]]}, "properties": {"osm_id": 1227232190, "building": "yes", "name": "Weokie Federal Credit Union", "height": null, "height_m": null, "levels": null, "tract_id": "40109106705", "tract_name": "1067.05", "tags": {"amenity": "bank", "building": "yes", "name": "Weokie Federal Credit Union"}}}, {"type": "Feature", "geometry": {"type": "Polygon", "coordinates": [[[-97.6155317, 35.5477026], [-97.6156068, 35.5476468], [-97.6155183, 35.547553], [-97.6155212, 35.5475245], [-97.6156422, 35.5476138], [-97.6157178, 35.5475568], [-97.6154829, 35.5473598], [-97.6152972, 35.5475115], [-97.6155317, 35.5477026]]]}, "properties": {"osm_id": 1227232191, "building": "yes", "name": "J Thomson Custom Jewelers", "height": null, "height_m": null, "levels": null, "tract_id": "40109106705", "tract_name": "1067.05", "tags": {"building": "yes", "name": "J Thomson Custom Jewelers", "shop": "jewelry"}}}, {"type": "Feature", "geometry": {"type": "Polygon", "coordinates": [[[-97.6167709, 35.5480375], [-97.616685, 35.5481619], [-97.6166207, 35.548127], [-97.6166958, 35.5480047], [-97.6167709, 35.5480375]]]}, "properties": {"osm_id": 1227232192, "building": "yes", "name": "Jimmy John's", "height": null, "height_m": null, "levels": null, "tract_id": "40109106705", "tract_name": "1067.05", "tags": {"addr:city": "Warr Acres", "addr:housenumber": "5808", "addr:postcode": "73132", "addr:state": "OK", "addr:street": "Northwest Expressway", "amenity": "fast_food", "brand": "Jimmy John's", "brand:wikidata": "Q1689380", "building": "yes", "cuisine": "sandwich", "name": "Jimmy John's", "official_name": "Jimmy John's Gourmet Sandwiches", "phone": "+1 405-603-6811", "takeaway": "yes", "website": "https://locations.jimmyjohns.com/ok/warracres/sandwiches-2112.html"}}}, {"type": "Feature", "geometry": {"type": "Polygon", "coordinates": [[[-97.6173019, 35.5480397], [-97.6171893, 35.5479938], [-97.6169962, 35.5482928], [-97.6171142, 35.548343], [-97.6173019, 35.5480397]]]}, "properties": {"osm_id": 1227232193, "building": "yes", "name": "", "height": null, "height_m": null, "levels": null, "tract_id": "40109106705", "tract_name": "1067.05", "tags": {"building": "yes"}}}, {"type": "Feature", "geometry": {"type": "Polygon", "coordinates": [[[-97.6175004, 35.5484608], [-97.6174039, 35.5484172], [-97.6175004, 35.5482513], [-97.6176158, 35.5483015], [-97.6175004, 35.5484608]]]}, "properties": {"osm_id": 1227232194, "building": "retail", "name": "", "height": null, "height_m": null, "levels": null, "tract_id": "40109106705", "tract_name": "1067.05", "tags": {"building": "retail"}}}, {"type": "Feature", "geometry": {"type": "Polygon", "coordinates": [[[-97.6185448, 35.5488679], [-97.6185368, 35.548545], [-97.6183705, 35.5485515], [-97.6183571, 35.5488614], [-97.6185448, 35.5488679]]]}, "properties": {"osm_id": 1227232195, "building": "retail", "name": "", "height": null, "height_m": null, "levels": null, "tract_id": "40109106705", "tract_name": "1067.05", "tags": {"building": "retail"}}}, {"type": "Feature", "geometry": {"type": "Polygon", "coordinates": [[[-97.6180218, 35.5486999], [-97.6180754, 35.5486213], [-97.6179091, 35.5485428], [-97.6178447, 35.5486235], [-97.6180218, 35.5486999]]]}, "properties": {"osm_id": 1227232196, "building": "yes", "name": "Jiffy Lube", "height": null, "height_m": null, "levels": null, "tract_id": "40109106705", "tract_name": "1067.05", "tags": {"brand": "Jiffy Lube", "brand:wikidata": "Q6192247", "building": "yes", "name": "Jiffy Lube", "shop": "car_repair"}}}, {"type": "Feature", "geometry": {"type": "Polygon", "coordinates": [[[-97.6185126, 35.5480954], [-97.618349, 35.5480561], [-97.618341, 35.5480714], [-97.6182283, 35.5480496], [-97.6181908, 35.5481674], [-97.6182605, 35.5481871], [-97.6182524, 35.5482111], [-97.6182819, 35.5482198], [-97.6182873, 35.5481936], [-97.6184107, 35.5482176], [-97.6184563, 35.5481238], [-97.6185019, 35.5481347], [-97.6185126, 35.5480954]]]}, "properties": {"osm_id": 1227232198, "building": "yes", "name": "", "height": null, "height_m": null, "levels": null, "tract_id": "40109106705", "tract_name": "1067.05", "tags": {"amenity": "veterinary", "building": "yes"}}}, {"type": "Feature", "geometry": {"type": "Polygon", "coordinates": [[[-97.6020473, 35.537157], [-97.6020475, 35.537264], [-97.602123, 35.5372639], [-97.6021231, 35.5372769], [-97.6022502, 35.5372767], [-97.6022502, 35.5372643], [-97.6022623, 35.5372643], [-97.6022621, 35.5371567], [-97.6020473, 35.537157]]]}, "properties": {"osm_id": 1383664648, "building": "yes", "name": "", "height": null, "height_m": null, "levels": null, "tract_id": "40109106705", "tract_name": "1067.05", "tags": {"building": "yes"}}}, {"type": "Feature", "geometry": {"type": "Polygon", "coordinates": [[[-97.6018006, 35.5372239], [-97.6018008, 35.5371369], [-97.601757, 35.5371368], [-97.6017572, 35.5370852], [-97.6019174, 35.5370856], [-97.601917, 35.5372242], [-97.6018006, 35.5372239]]]}, "properties": {"osm_id": 1383664649, "building": "yes", "name": "", "height": null, "height_m": null, "levels": null, "tract_id": "40109106705", "tract_name": "1067.05", "tags": {"building": "yes"}}}, {"type": "Feature", "geometry": {"type": "Polygon", "coordinates": [[[-97.6018707, 35.5377311], [-97.6018706, 35.5379534], [-97.6015387, 35.5379532], [-97.6015387, 35.537872], [-97.601479, 35.537872], [-97.601479, 35.5378095], [-97.6015395, 35.5378096], [-97.6015396, 35.5377309], [-97.6018707, 35.5377311]]]}, "properties": {"osm_id": 1383664650, "building": "yes", "name": "", "height": null, "height_m": null, "levels": null, "tract_id": "40109106705", "tract_name": "1067.05", "tags": {"building": "yes"}}}, {"type": "Feature", "geometry": {"type": "Polygon", "coordinates": [[[-97.6014944, 35.5376886], [-97.6014942, 35.5375393], [-97.6019457, 35.5375391], [-97.6019458, 35.5376884], [-97.6014944, 35.5376886]]]}, "properties": {"osm_id": 1383664651, "building": "yes", "name": "", "height": null, "height_m": null, "levels": null, "tract_id": "40109106705", "tract_name": "1067.05", "tags": {"building": "yes"}}}, {"type": "Feature", "geometry": {"type": "Polygon", "coordinates": [[[-97.6014443, 35.5374414], [-97.6014432, 35.5373461], [-97.6016157, 35.5373448], [-97.6016168, 35.5374401], [-97.6014443, 35.5374414]]]}, "properties": {"osm_id": 1383664652, "building": "yes", "name": "", "height": null, "height_m": null, "levels": null, "tract_id": "40109106705", "tract_name": "1067.05", "tags": {"building": "yes"}}}]}