{"type": "FeatureCollection", "features": [{"type": "Feature", "geometry": {"type": "Polygon", "coordinates": [[[-96.463847, 36.3082245], [-96.4638459, 36.308163], [-96.4635908, 36.308165], [-96.4635915, 36.3082268], [-96.463847, 36.3082245]]]}, "properties": {"osm_id": 249474869, "building": "yes", "name": "Evans Clinic", "height": null, "height_m": null, "levels": null, "tract_id": "40117957100", "tract_name": "9571", "tags": {"addr:city": "Cleveland", "addr:country": "US", "addr:housenumber": "119", "addr:postcode": "74020", "addr:street": "South Broadway Street", "amenity": "doctors", "building": "yes", "healthcare": "doctor", "name": "Evans Clinic"}}}, {"type": "Feature", "geometry": {"type": "Polygon", "coordinates": [[[-96.4466967, 36.2842766], [-96.4465597, 36.2844914], [-96.4461961, 36.2843407], [-96.4460435, 36.2845798], [-96.4457279, 36.2844489], [-96.4457082, 36.2844799], [-96.4456279, 36.2844466], [-96.4456476, 36.2844157], [-96.4455733, 36.2843848], [-96.4456878, 36.2842054], [-96.4457087, 36.284214], [-96.4457295, 36.2841813], [-96.4458113, 36.2842152], [-96.4457904, 36.2842479], [-96.4461081, 36.2843796], [-96.4461461, 36.28432], [-96.446081, 36.284293], [-96.4462181, 36.2840782], [-96.4466967, 36.2842766]]]}, "properties": {"osm_id": 249474873, "building": "office", "name": "Indian Electric Cooperative", "height": null, "height_m": null, "levels": null, "tract_id": "40117957100", "tract_name": "9571", "tags": {"addr:city": "Cleveland", "addr:country": "US", "addr:housenumber": "2506", "addr:postcode": "74020", "addr:street": "East Highway 64", "building": "office", "name": "Indian Electric Cooperative"}}}, {"type": "Feature", "geometry": {"type": "Polygon", "coordinates": [[[-96.4637855, 36.2977721], [-96.4637822, 36.2970543], [-96.4635813, 36.2970549], [-96.4635816, 36.2971046], [-96.4629897, 36.2971063], [-96.4629902, 36.2972301], [-96.4625389, 36.2972314], [-96.4625402, 36.2975306], [-96.4623933, 36.297531], [-96.4623941, 36.2977083], [-96.462541, 36.2977079], [-96.4625415, 36.2978146], [-96.4627551, 36.297814], [-96.4627552, 36.2978386], [-96.463117, 36.2978376], [-96.4631171, 36.2978612], [-96.4634216, 36.2978603], [-96.4634213, 36.2978115], [-96.4636016, 36.297811], [-96.4636014, 36.2977726], [-96.4637855, 36.2977721]]]}, "properties": {"osm_id": 340222933, "building": "retail", "name": "Walmart Supercenter", "height": null, "height_m": null, "levels": null, "tract_id": "40117957100", "tract_name": "9571", "tags": {"addr:city": "Cleveland", "addr:country": "US", "addr:housenumber": "772", "addr:postcode": "74020", "addr:state": "OK", "addr:street": "North Airport Road", "brand": "Walmart", "brand:wikidata": "Q483551", "building": "retail", "name": "Walmart Supercenter", "opening_hours": "24/7", "operator": "Walmart", "payment:app:walmart": "yes", "payment:apple_pay": "no", "payment:google_pay": "no", "payment:samsung_pay": "no", "phone": "+1 918-358-3553", "ref": "207", "ref:walmart": "207", "sensory_friendly:accommodation": "dimmed_light;static_screens;no_pa", "sensory_friendly:conditional": "yes @ 08:00-10:00", "shop": "supermarket", "website": "https://www.walmart.com/store/207-cleveland-ok"}}}, {"type": "Feature", "geometry": {"type": "Polygon", "coordinates": [[[-96.4648809, 36.3103924], [-96.4646918, 36.3103919], [-96.4646927, 36.3101671], [-96.4648817, 36.3101676], [-96.4648809, 36.3103924]]]}, "properties": {"osm_id": 340222934, "building": "yes", "name": "Cleveland, OK 74020", "height": null, "height_m": null, "levels": null, "tract_id": "40117957100", "tract_name": "9571", "tags": {"addr:city": "Cleveland", "addr:housenumber": "105", "addr:postcode": "74020", "addr:state": "OK", "addr:street": "West Pawnee Street", "amenity": "post_office", "building": "yes", "collection_times": "4:00", "name": "Cleveland, OK 74020", "operator": "United States Postal Service", "operator:short": "USPS", "operator:type": "public", "operator:website": "https://www.usps.com", "operator:wikidata": "Q668687", "operator:wikipedia": "en:United States Postal Service", "short_name": "USPS"}}}, {"type": "Feature", "geometry": {"type": "Polygon", "coordinates": [[[-96.4638025, 36.3061231], [-96.4637972, 36.3059838], [-96.4634456, 36.3059925], [-96.4634509, 36.3061318], [-96.4638025, 36.3061231]]]}, "properties": {"osm_id": 340223217, "building": "yes", "name": "McDonald's", "height": null, "height_m": null, "levels": null, "tract_id": "40117957100", "tract_name": "9571", "tags": {"amenity": "fast_food", "brand": "McDonald's", "brand:wikidata": "Q38076", "building": "yes", "cuisine": "burger", "name": "McDonald's", "takeaway": "yes", "website": "https://www.mcdonalds.com/us/en-us/location/ok/cleveland/309-s-broadway-st/32243.html"}}}, {"type": "Feature", "geometry": {"type": "Polygon", "coordinates": [[[-96.4634657, 36.3066444], [-96.4634607, 36.3064121], [-96.4629445, 36.3064193], [-96.4629495, 36.3066516], [-96.4634657, 36.3066444]]]}, "properties": {"osm_id": 340223377, "building": "yes", "name": "Dollar General", "height": null, "height_m": null, "levels": null, "tract_id": "40117957100", "tract_name": "9571", "tags": {"brand": "Dollar General", "brand:wikidata": "Q145168", "building": "yes", "name": "Dollar General", "shop": "variety_store", "website": "https://www.dollargeneral.com/store-directory/ok/cleveland/2641"}}}, {"type": "Feature", "geometry": {"type": "Polygon", "coordinates": [[[-96.4481789, 36.2861155], [-96.4479092, 36.2861215], [-96.4479063, 36.2860376], [-96.4479714, 36.2860361], [-96.4479676, 36.2859244], [-96.4481554, 36.2859202], [-96.448159, 36.2860263], [-96.4481758, 36.2860259], [-96.4481789, 36.2861155]]]}, "properties": {"osm_id": 514353500, "building": "yes", "name": "", "height": null, "height_m": null, "levels": null, "tract_id": "40117957100", "tract_name": "9571", "tags": {"building": "yes"}}}, {"type": "Feature", "geometry": {"type": "Polygon", "coordinates": [[[-96.4478011, 36.2865041], [-96.4477731, 36.2863733], [-96.4475808, 36.2863999], [-96.4475977, 36.2864792], [-96.4477165, 36.2864628], [-96.4477275, 36.2865143], [-96.4478011, 36.2865041]]]}, "properties": {"osm_id": 514353501, "building": "yes", "name": "Cleveland Petroleum Products", "height": null, "height_m": null, "levels": null, "tract_id": "40117957100", "tract_name": "9571", "tags": {"addr:city": "Cleveland", "addr:country": "US", "addr:housenumber": "2420", "addr:state": "OK", "addr:street": "East Highway 64", "building": "yes", "contact:mobile": "1-918-698-2180", "email": "kborutski@okfuels.net", "name": "Cleveland Petroleum Products", "office": "company", "phone": "1-918-358-3310", "website": "http://www.clevelandpetroleum.com"}}}, {"type": "Feature", "geometry": {"type": "Polygon", "coordinates": [[[-96.4638796, 36.2992541], [-96.4634428, 36.2992603], [-96.4634413, 36.2991944], [-96.4638782, 36.2991883], [-96.4638796, 36.2992541]]]}, "properties": {"osm_id": 669599121, "building": "yes", "name": "Murphy USA", "height": null, "height_m": null, "levels": null, "tract_id": "40117957100", "tract_name": "9571", "tags": {"amenity": "fuel", "brand": "Murphy USA", "brand:wikidata": "Q19604459", "building": "yes", "layer": "1", "name": "Murphy USA"}}}, {"type": "Feature", "geometry": {"type": "Polygon", "coordinates": [[[-96.466236, 36.3210965], [-96.466185, 36.3210976], [-96.4661834, 36.3210531], [-96.4655953, 36.3210667], [-96.4655838, 36.3207421], [-96.4655357, 36.3207432], [-96.4655292, 36.3205606], [-96.4655773, 36.3205595], [-96.4655687, 36.3203181], [-96.4662078, 36.3203033], [-96.466236, 36.3210965]]]}, "properties": {"osm_id": 669599175, "building": "yes", "name": "", "height": null, "height_m": null, "levels": null, "tract_id": "40117957100", "tract_name": "9571", "tags": {"building": "yes"}}}, {"type": "Feature", "geometry": {"type": "Polygon", "coordinates": [[[-96.5314263, 36.2615202], [-96.5313181, 36.2615001], [-96.5313427, 36.2614143], [-96.5314509, 36.2614345], [-96.5314263, 36.2615202]]]}, "properties": {"osm_id": 803837698, "building": "yes", "name": "", "height": null, "height_m": null, "levels": null, "tract_id": "40117957100", "tract_name": "9571", "tags": {"building": "yes"}}}, {"type": "Feature", "geometry": {"type": "Polygon", "coordinates": [[[-96.5313109, 36.2614126], [-96.5312209, 36.2613953], [-96.5312389, 36.2613343], [-96.5313289, 36.2613516], [-96.5313109, 36.2614126]]]}, "properties": {"osm_id": 803837699, "building": "yes", "name": "", "height": null, "height_m": null, "levels": null, "tract_id": "40117957100", "tract_name": "9571", "tags": {"building": "yes"}}}, {"type": "Feature", "geometry": {"type": "Polygon", "coordinates": [[[-96.5313824, 36.2612935], [-96.5315376, 36.2611038], [-96.5314465, 36.2610554], [-96.5312914, 36.2612452], [-96.5313824, 36.2612935]]]}, "properties": {"osm_id": 803837700, "building": "yes", "name": "", "height": null, "height_m": null, "levels": null, "tract_id": "40117957100", "tract_name": "9571", "tags": {"building": "yes"}}}, {"type": "Feature", "geometry": {"type": "Polygon", "coordinates": [[[-96.4624769, 36.3165624], [-96.4624661, 36.3161669], [-96.462579, 36.3161649], [-96.4625897, 36.3165604], [-96.4624769, 36.3165624]]]}, "properties": {"osm_id": 946860660, "building": "yes", "name": "", "height": null, "height_m": 3.0, "levels": 1, "tract_id": "40117957100", "tract_name": "9571", "tags": {"building": "yes", "building:levels": "1"}}}, {"type": "Feature", "geometry": {"type": "Polygon", "coordinates": [[[-96.4624876, 36.316893], [-96.4624769, 36.3165905], [-96.4625871, 36.3165879], [-96.4625978, 36.3168905], [-96.4624876, 36.316893]]]}, "properties": {"osm_id": 946860661, "building": "yes", "name": "", "height": null, "height_m": 3.0, "levels": 1, "tract_id": "40117957100", "tract_name": "9571", "tags": {"building": "yes", "building:levels": "1"}}}, {"type": "Feature", "geometry": {"type": "Polygon", "coordinates": [[[-96.4632225, 36.316919], [-96.4627236, 36.3169146], [-96.4627249, 36.3168216], [-96.4632237, 36.316826], [-96.4632225, 36.316919]]]}, "properties": {"osm_id": 946860662, "building": "yes", "name": "", "height": null, "height_m": 3.0, "levels": 1, "tract_id": "40117957100", "tract_name": "9571", "tags": {"building": "yes", "building:levels": "1"}}}, {"type": "Feature", "geometry": {"type": "Polygon", "coordinates": [[[-96.46348, 36.3168952], [-96.4633727, 36.3168964], [-96.4633673, 36.316596], [-96.4634746, 36.3165948], [-96.46348, 36.3168952]]]}, "properties": {"osm_id": 946860663, "building": "yes", "name": "", "height": null, "height_m": 3.0, "levels": 1, "tract_id": "40117957100", "tract_name": "9571", "tags": {"building": "yes", "building:levels": "1"}}}, {"type": "Feature", "geometry": {"type": "Polygon", "coordinates": [[[-96.4634746, 36.3165645], [-96.4633514, 36.3165656], [-96.463346, 36.3161809], [-96.4634693, 36.3161798], [-96.4634746, 36.3165645]]]}, "properties": {"osm_id": 946860664, "building": "yes", "name": "", "height": null, "height_m": 3.0, "levels": 1, "tract_id": "40117957100", "tract_name": "9571", "tags": {"building": "yes", "building:levels": "1"}}}, {"type": "Feature", "geometry": {"type": "Polygon", "coordinates": [[[-96.4694413, 36.3053205], [-96.4694413, 36.3052575], [-96.4693944, 36.3052575], [-96.4693944, 36.3053221], [-96.4694413, 36.3053205]]]}, "properties": {"osm_id": 1014970752, "building": "service", "name": "", "height": null, "height_m": null, "levels": null, "tract_id": "40117957100", "tract_name": "9571", "tags": {"building": "service"}}}, {"type": "Feature", "geometry": {"type": "Polygon", "coordinates": [[[-96.4823051, 36.3186306], [-96.4822984, 36.3185852], [-96.4823306, 36.3185821], [-96.4823373, 36.3186275], [-96.4823051, 36.3186306]]]}, "properties": {"osm_id": 1082619517, "building": "yes", "name": "", "height": null, "height_m": null, "levels": null, "tract_id": "40117957100", "tract_name": "9571", "tags": {"building": "yes"}}}, {"type": "Feature", "geometry": {"type": "Polygon", "coordinates": [[[-96.4818384, 36.3184674], [-96.4818397, 36.3182902], [-96.481947, 36.3182908], [-96.4819468, 36.3183194], [-96.4820185, 36.3183198], [-96.4820178, 36.318417], [-96.4819461, 36.3184167], [-96.4819457, 36.318468], [-96.4818384, 36.3184674]]]}, "properties": {"osm_id": 1082619518, "building": "yes", "name": "", "height": null, "height_m": null, "levels": null, "tract_id": "40117957100", "tract_name": "9571", "tags": {"building": "yes"}}}, {"type": "Feature", "geometry": {"type": "Polygon", "coordinates": [[[-96.4793446, 36.3161933], [-96.4792675, 36.3161923], [-96.4792687, 36.3161373], [-96.4793458, 36.3161383], [-96.4793446, 36.3161933]]]}, "properties": {"osm_id": 1082619519, "building": "yes", "name": "", "height": null, "height_m": null, "levels": null, "tract_id": "40117957100", "tract_name": "9571", "tags": {"building": "yes"}}}, {"type": "Feature", "geometry": {"type": "Polygon", "coordinates": [[[-96.4792775, 36.3164057], [-96.4791495, 36.316408], [-96.4791468, 36.3163133], [-96.4791148, 36.3163139], [-96.4791127, 36.3162411], [-96.4792728, 36.3162382], [-96.4792746, 36.3162993], [-96.4793165, 36.3162985], [-96.4793185, 36.3163714], [-96.4792766, 36.3163722], [-96.4792775, 36.3164057]]]}, "properties": {"osm_id": 1082619520, "building": "yes", "name": "", "height": null, "height_m": null, "levels": null, "tract_id": "40117957100", "tract_name": "9571", "tags": {"building": "yes"}}}, {"type": "Feature", "geometry": {"type": "Polygon", "coordinates": [[[-96.4793506, 36.3177656], [-96.4793511, 36.3178375], [-96.4793599, 36.3178374], [-96.4793601, 36.3178721], [-96.4793941, 36.3178719], [-96.4793946, 36.3179546], [-96.4792738, 36.3179552], [-96.4792735, 36.3179103], [-96.4792426, 36.3179104], [-96.4792427, 36.3179217], [-96.4792252, 36.3179217], [-96.4792253, 36.3179297], [-96.4791709, 36.3179299], [-96.479171, 36.3179454], [-96.4791207, 36.3179456], [-96.4791206, 36.317919], [-96.4791062, 36.3179191], [-96.4791052, 36.3177667], [-96.4791568, 36.3177665], [-96.4791569, 36.3177777], [-96.4792367, 36.3177773], [-96.4792366, 36.3177723], [-96.4792796, 36.3177721], [-96.4792796, 36.3177659], [-96.4793506, 36.3177656]]]}, "properties": {"osm_id": 1082619521, "building": "yes", "name": "", "height": null, "height_m": null, "levels": null, "tract_id": "40117957100", "tract_name": "9571", "tags": {"building": "yes"}}}, {"type": "Feature", "geometry": {"type": "Polygon", "coordinates": [[[-96.4782784, 36.3185074], [-96.4782811, 36.3182259], [-96.4785225, 36.3182274], [-96.4785198, 36.3185089], [-96.4782784, 36.3185074]]]}, "properties": {"osm_id": 1082619522, "building": "yes", "name": "", "height": null, "height_m": null, "levels": null, "tract_id": "40117957100", "tract_name": "9571", "tags": {"building": "yes"}}}, {"type": "Feature", "geometry": {"type": "Polygon", "coordinates": [[[-96.480386, 36.3185842], [-96.4803243, 36.3185836], [-96.4803248, 36.3185464], [-96.4803865, 36.3185469], [-96.480386, 36.3185842]]]}, "properties": {"osm_id": 1082619523, "building": "yes", "name": "", "height": null, "height_m": null, "levels": null, "tract_id": "40117957100", "tract_name": "9571", "tags": {"building": "yes"}}}, {"type": "Feature", "geometry": {"type": "Polygon", "coordinates": [[[-96.4795518, 36.3184226], [-96.4794404, 36.3184223], [-96.4794411, 36.3182829], [-96.4795525, 36.3182832], [-96.4795518, 36.3184226]]]}, "properties": {"osm_id": 1082619524, "building": "yes", "name": "", "height": null, "height_m": null, "levels": null, "tract_id": "40117957100", "tract_name": "9571", "tags": {"building": "yes"}}}, {"type": "Feature", "geometry": {"type": "Polygon", "coordinates": [[[-96.4796336, 36.3182821], [-96.4796336, 36.3184032], [-96.479836, 36.3184032], [-96.479836, 36.3182821], [-96.4796336, 36.3182821]]]}, "properties": {"osm_id": 1082619525, "building": "yes", "name": "", "height": null, "height_m": null, "levels": null, "tract_id": "40117957100", "tract_name": "9571", "tags": {"building": "yes", "source": "microsoft/BuildingFootprints"}}}, {"type": "Feature", "geometry": {"type": "Polygon", "coordinates": [[[-96.479871, 36.316644], [-96.479871, 36.316491], [-96.47967, 36.316491], [-96.47967, 36.31659], [-96.479729, 36.31659], [-96.479729, 36.316644], [-96.479871, 36.316644]]]}, "properties": {"osm_id": 1082619526, "building": "yes", "name": "", "height": null, "height_m": null, "levels": null, "tract_id": "40117957100", "tract_name": "9571", "tags": {"building": "yes", "source": "microsoft/BuildingFootprints"}}}, {"type": "Feature", "geometry": {"type": "Polygon", "coordinates": [[[-96.48037, 36.319499], [-96.480096, 36.319499], [-96.480096, 36.319541], [-96.48037, 36.319541], [-96.48037, 36.319499]]]}, "properties": {"osm_id": 1082619527, "building": "yes", "name": "", "height": null, "height_m": null, "levels": null, "tract_id": "40117957100", "tract_name": "9571", "tags": {"building": "yes", "source": "microsoft/BuildingFootprints"}}}, {"type": "Feature", "geometry": {"type": "Polygon", "coordinates": [[[-96.4796429, 36.3178911], [-96.4796727, 36.3178909], [-96.4796733, 36.3179368], [-96.4797486, 36.3179362], [-96.4797494, 36.3179979], [-96.4798406, 36.3179971], [-96.4798386, 36.3178493], [-96.4798182, 36.3178495], [-96.4798179, 36.3178277], [-96.4796851, 36.3178289], [-96.4796852, 36.3178375], [-96.4796421, 36.3178379], [-96.4796429, 36.3178911]]]}, "properties": {"osm_id": 1082619528, "building": "yes", "name": "", "height": null, "height_m": null, "levels": null, "tract_id": "40117957100", "tract_name": "9571", "tags": {"building": "yes", "source": "microsoft/BuildingFootprints"}}}, {"type": "Feature", "geometry": {"type": "Polygon", "coordinates": [[[-96.4809464, 36.318294], [-96.4808507, 36.318294], [-96.4808507, 36.3183118], [-96.4807424, 36.3183118], [-96.4807424, 36.3184176], [-96.4809464, 36.3184176], [-96.4809464, 36.318294]]]}, "properties": {"osm_id": 1082619529, "building": "yes", "name": "", "height": null, "height_m": null, "levels": null, "tract_id": "40117957100", "tract_name": "9571", "tags": {"building": "yes", "source": "microsoft/BuildingFootprints"}}}, {"type": "Feature", "geometry": {"type": "Polygon", "coordinates": [[[-96.4815628, 36.3174036], [-96.4815317, 36.3174036], [-96.4815317, 36.3172813], [-96.4813844, 36.3172813], [-96.4813844, 36.3173399], [-96.481379, 36.3173399], [-96.481379, 36.317382], [-96.4814072, 36.317382], [-96.4814072, 36.317409], [-96.4813804, 36.317409], [-96.4813804, 36.3174474], [-96.4814086, 36.3174474], [-96.4814086, 36.3174701], [-96.4813938, 36.3174701], [-96.4813938, 36.3175203], [-96.4815628, 36.3175203], [-96.4815628, 36.3174036]]]}, "properties": {"osm_id": 1082619530, "building": "yes", "name": "", "height": null, "height_m": null, "levels": null, "tract_id": "40117957100", "tract_name": "9571", "tags": {"building": "yes", "source": "microsoft/BuildingFootprints"}}}, {"type": "Feature", "geometry": {"type": "Polygon", "coordinates": [[[-96.4790998, 36.3167709], [-96.4790998, 36.316869], [-96.479229, 36.316869], [-96.479229, 36.316837], [-96.47928, 36.316837], [-96.47928, 36.3167796], [-96.479226, 36.3167796], [-96.479226, 36.3166996], [-96.479071, 36.3166996], [-96.479071, 36.3167709], [-96.4790998, 36.3167709]]]}, "properties": {"osm_id": 1082619531, "building": "yes", "name": "", "height": null, "height_m": null, "levels": null, "tract_id": "40117957100", "tract_name": "9571", "tags": {"building": "yes", "source": "microsoft/BuildingFootprints"}}}, {"type": "Feature", "geometry": {"type": "Polygon", "coordinates": [[[-96.4802274, 36.3164209], [-96.4802284, 36.3165084], [-96.4802631, 36.3165081], [-96.4802634, 36.3165305], [-96.4802329, 36.3165307], [-96.4802333, 36.3165653], [-96.4802638, 36.316565], [-96.480264, 36.3165888], [-96.4802356, 36.316589], [-96.4802361, 36.3166319], [-96.4803789, 36.3166308], [-96.4803785, 36.3165991], [-96.480395, 36.3165989], [-96.4803938, 36.3164974], [-96.4803773, 36.3164975], [-96.4803764, 36.3164198], [-96.4802274, 36.3164209]]]}, "properties": {"osm_id": 1082619532, "building": "yes", "name": "", "height": null, "height_m": null, "levels": null, "tract_id": "40117957100", "tract_name": "9571", "tags": {"building": "yes", "source": "microsoft/BuildingFootprints"}}}, {"type": "Feature", "geometry": {"type": "Polygon", "coordinates": [[[-96.4802667, 36.3178797], [-96.4802692, 36.317999], [-96.4804079, 36.3179971], [-96.4804066, 36.3179381], [-96.4804196, 36.3179379], [-96.4804185, 36.3178859], [-96.4804064, 36.3178861], [-96.4804052, 36.3178309], [-96.4803162, 36.3178321], [-96.4803155, 36.3177971], [-96.4802219, 36.3177984], [-96.4802237, 36.3178803], [-96.4802667, 36.3178797]]]}, "properties": {"osm_id": 1082619533, "building": "yes", "name": "", "height": null, "height_m": null, "levels": null, "tract_id": "40117957100", "tract_name": "9571", "tags": {"building": "yes", "source": "microsoft/BuildingFootprints"}}}, {"type": "Feature", "geometry": {"type": "Polygon", "coordinates": [[[-96.479351, 36.319355], [-96.479163, 36.319355], [-96.479163, 36.319478], [-96.479351, 36.319478], [-96.479351, 36.319355]]]}, "properties": {"osm_id": 1082619534, "building": "yes", "name": "", "height": null, "height_m": null, "levels": null, "tract_id": "40117957100", "tract_name": "9571", "tags": {"building": "yes", "source": "microsoft/BuildingFootprints"}}}, {"type": "Feature", "geometry": {"type": "Polygon", "coordinates": [[[-96.479651, 36.3173654], [-96.479651, 36.3175184], [-96.479769, 36.3175184], [-96.479769, 36.3174364], [-96.479848, 36.3174364], [-96.479848, 36.3173654], [-96.479651, 36.3173654]]]}, "properties": {"osm_id": 1082619535, "building": "yes", "name": "", "height": null, "height_m": null, "levels": null, "tract_id": "40117957100", "tract_name": "9571", "tags": {"building": "yes", "source": "microsoft/BuildingFootprints"}}}, {"type": "Feature", "geometry": {"type": "Polygon", "coordinates": [[[-96.4817979, 36.3185527], [-96.4817209, 36.3185533], [-96.4817218, 36.3186224], [-96.4817988, 36.3186217], [-96.4817979, 36.3185527]]]}, "properties": {"osm_id": 1082619536, "building": "yes", "name": "", "height": null, "height_m": null, "levels": null, "tract_id": "40117957100", "tract_name": "9571", "tags": {"building": "yes", "source": "microsoft/BuildingFootprints"}}}, {"type": "Feature", "geometry": {"type": "Polygon", "coordinates": [[[-96.479222, 36.317353], [-96.4790918, 36.317353], [-96.4790918, 36.3174106], [-96.4790757, 36.3174106], [-96.4790757, 36.3174744], [-96.4790918, 36.3174744], [-96.4790918, 36.3175381], [-96.479222, 36.3175381], [-96.479222, 36.317353]]]}, "properties": {"osm_id": 1082619537, "building": "yes", "name": "", "height": null, "height_m": null, "levels": null, "tract_id": "40117957100", "tract_name": "9571", "tags": {"building": "yes", "source": "microsoft/BuildingFootprints"}}}, {"type": "Feature", "geometry": {"type": "Polygon", "coordinates": [[[-96.479112, 36.318968], [-96.479284, 36.318968], [-96.479284, 36.318879], [-96.479246, 36.318879], [-96.479246, 36.318838], [-96.479112, 36.318838], [-96.479112, 36.318968]]]}, "properties": {"osm_id": 1082619538, "building": "yes", "name": "", "height": null, "height_m": null, "levels": null, "tract_id": "40117957100", "tract_name": "9571", "tags": {"building": "yes", "source": "microsoft/BuildingFootprints"}}}, {"type": "Feature", "geometry": {"type": "Polygon", "coordinates": [[[-96.480391, 36.3169201], [-96.480241, 36.3169201], [-96.480241, 36.3170891], [-96.480391, 36.3170891], [-96.480391, 36.3170131], [-96.480432, 36.3170131], [-96.480432, 36.3169681], [-96.480391, 36.3169681], [-96.480391, 36.3169201]]]}, "properties": {"osm_id": 1082619539, "building": "yes", "name": "", "height": null, "height_m": null, "levels": null, "tract_id": "40117957100", "tract_name": "9571", "tags": {"building": "yes", "source": "microsoft/BuildingFootprints"}}}, {"type": "Feature", "geometry": {"type": "Polygon", "coordinates": [[[-96.4793991, 36.3165691], [-96.4792938, 36.3165681], [-96.4792928, 36.3166314], [-96.4793982, 36.3166324], [-96.4793991, 36.3165691]]]}, "properties": {"osm_id": 1082619540, "building": "yes", "name": "", "height": null, "height_m": null, "levels": null, "tract_id": "40117957100", "tract_name": "9571", "tags": {"building": "yes", "source": "microsoft/BuildingFootprints"}}}, {"type": "Feature", "geometry": {"type": "Polygon", "coordinates": [[[-96.479745, 36.318881], [-96.479745, 36.31892], [-96.479852, 36.31892], [-96.479852, 36.318881], [-96.479745, 36.318881]]]}, "properties": {"osm_id": 1082619541, "building": "yes", "name": "", "height": null, "height_m": null, "levels": null, "tract_id": "40117957100", "tract_name": "9571", "tags": {"building": "yes", "source": "microsoft/BuildingFootprints"}}}, {"type": "Feature", "geometry": {"type": "Polygon", "coordinates": [[[-96.4801955, 36.3161758], [-96.4803399, 36.3161766], [-96.4803403, 36.3161242], [-96.4803851, 36.3161244], [-96.4803855, 36.3160782], [-96.4803375, 36.316078], [-96.4803378, 36.3160394], [-96.4803735, 36.3160395], [-96.4803741, 36.3159752], [-96.4803383, 36.315975], [-96.4803384, 36.3159606], [-96.480212, 36.3159599], [-96.4802115, 36.316027], [-96.4801966, 36.3160269], [-96.4801955, 36.3161758]]]}, "properties": {"osm_id": 1082619542, "building": "yes", "name": "", "height": null, "height_m": null, "levels": null, "tract_id": "40117957100", "tract_name": "9571", "tags": {"building": "yes", "source": "microsoft/BuildingFootprints"}}}, {"type": "Feature", "geometry": {"type": "Polygon", "coordinates": [[[-96.4804023, 36.3177472], [-96.4804023, 36.3175912], [-96.4803169, 36.3175912], [-96.4803169, 36.3175679], [-96.4802331, 36.3175679], [-96.4802331, 36.3175912], [-96.4802223, 36.3175912], [-96.4802223, 36.3176482], [-96.4802603, 36.3176482], [-96.4802603, 36.3177472], [-96.4804023, 36.3177472]]]}, "properties": {"osm_id": 1082619543, "building": "yes", "name": "", "height": null, "height_m": null, "levels": null, "tract_id": "40117957100", "tract_name": "9571", "tags": {"building": "yes", "source": "microsoft/BuildingFootprints"}}}, {"type": "Feature", "geometry": {"type": "Polygon", "coordinates": [[[-96.4814248, 36.3184653], [-96.481602, 36.3184665], [-96.4816034, 36.3183303], [-96.4815055, 36.3183296], [-96.4815058, 36.3182937], [-96.4814265, 36.3182932], [-96.4814248, 36.3184653]]]}, "properties": {"osm_id": 1082619544, "building": "yes", "name": "", "height": null, "height_m": null, "levels": null, "tract_id": "40117957100", "tract_name": "9571", "tags": {"building": "yes", "source": "microsoft/BuildingFootprints"}}}, {"type": "Feature", "geometry": {"type": "Polygon", "coordinates": [[[-96.4803917, 36.318291], [-96.4801797, 36.318291], [-96.4801797, 36.318485], [-96.4803917, 36.318485], [-96.4803917, 36.318291]]]}, "properties": {"osm_id": 1082619545, "building": "yes", "name": "", "height": null, "height_m": null, "levels": null, "tract_id": "40117957100", "tract_name": "9571", "tags": {"building": "yes", "source": "microsoft/BuildingFootprints"}}}, {"type": "Feature", "geometry": {"type": "Polygon", "coordinates": [[[-96.480236, 36.319115], [-96.480126, 36.319115], [-96.480126, 36.319255], [-96.480236, 36.319255], [-96.480236, 36.319115]]]}, "properties": {"osm_id": 1082619546, "building": "yes", "name": "", "height": null, "height_m": null, "levels": null, "tract_id": "40117957100", "tract_name": "9571", "tags": {"building": "yes", "source": "microsoft/BuildingFootprints"}}}, {"type": "Feature", "geometry": {"type": "Polygon", "coordinates": [[[-96.479705, 36.3160464], [-96.479705, 36.3161964], [-96.4797865, 36.3161964], [-96.4797865, 36.3161788], [-96.479836, 36.3161788], [-96.479836, 36.3160464], [-96.479705, 36.3160464]]]}, "properties": {"osm_id": 1082619547, "building": "yes", "name": "", "height": null, "height_m": null, "levels": null, "tract_id": "40117957100", "tract_name": "9571", "tags": {"building": "yes", "source": "microsoft/BuildingFootprints"}}}, {"type": "Feature", "geometry": {"type": "Polygon", "coordinates": [[[-96.4808256, 36.3178888], [-96.4808734, 36.3178888], [-96.4808737, 36.3179913], [-96.4810112, 36.3179911], [-96.481011, 36.3179055], [-96.48097, 36.3179056], [-96.48097, 36.3178807], [-96.4809868, 36.3178807], [-96.4809867, 36.3178634], [-96.4810109, 36.3178634], [-96.4810106, 36.31773], [-96.4808252, 36.3177303], [-96.4808256, 36.3178888]]]}, "properties": {"osm_id": 1082619548, "building": "yes", "name": "", "height": null, "height_m": null, "levels": null, "tract_id": "40117957100", "tract_name": "9571", "tags": {"building": "yes", "source": "microsoft/BuildingFootprints"}}}, {"type": "Feature", "geometry": {"type": "Polygon", "coordinates": [[[-96.480256, 36.3174137], [-96.4804319, 36.3174139], [-96.4804321, 36.3173308], [-96.4803819, 36.3173308], [-96.4803821, 36.3172279], [-96.4802256, 36.3172277], [-96.4802254, 36.3173498], [-96.480256, 36.3173498], [-96.480256, 36.3174137]]]}, "properties": {"osm_id": 1082619549, "building": "yes", "name": "", "height": null, "height_m": null, "levels": null, "tract_id": "40117957100", "tract_name": "9571", "tags": {"building": "yes", "source": "microsoft/BuildingFootprints"}}}, {"type": "Feature", "geometry": {"type": "Polygon", "coordinates": [[[-96.4796803, 36.3168474], [-96.4798493, 36.3168474], [-96.4798493, 36.3167861], [-96.479824, 36.3167861], [-96.479824, 36.3167769], [-96.4798388, 36.3167769], [-96.4798388, 36.3167493], [-96.4798493, 36.3167493], [-96.4798493, 36.3167054], [-96.4796803, 36.3167054], [-96.4796803, 36.3167423], [-96.4796416, 36.3167423], [-96.4796416, 36.3167952], [-96.4796803, 36.3167952], [-96.4796803, 36.3168474]]]}, "properties": {"osm_id": 1082619550, "building": "yes", "name": "", "height": null, "height_m": null, "levels": null, "tract_id": "40117957100", "tract_name": "9571", "tags": {"building": "yes", "source": "microsoft/BuildingFootprints"}}}, {"type": "Feature", "geometry": {"type": "Polygon", "coordinates": [[[-96.4798523, 36.3170841], [-96.4798512, 36.3170105], [-96.4798246, 36.3170108], [-96.4798232, 36.3169176], [-96.4796961, 36.3169188], [-96.4796985, 36.3170856], [-96.4798523, 36.3170841]]]}, "properties": {"osm_id": 1082619551, "building": "yes", "name": "", "height": null, "height_m": null, "levels": null, "tract_id": "40117957100", "tract_name": "9571", "tags": {"building": "yes", "source": "microsoft/BuildingFootprints"}}}, {"type": "Feature", "geometry": {"type": "Polygon", "coordinates": [[[-96.4796417, 36.3162642], [-96.4796417, 36.3163982], [-96.4798487, 36.3163982], [-96.4798487, 36.3163357], [-96.4797997, 36.3163357], [-96.4797997, 36.3162642], [-96.4796417, 36.3162642]]]}, "properties": {"osm_id": 1082619552, "building": "yes", "name": "", "height": null, "height_m": null, "levels": null, "tract_id": "40117957100", "tract_name": "9571", "tags": {"building": "yes", "source": "microsoft/BuildingFootprints"}}}, {"type": "Feature", "geometry": {"type": "Polygon", "coordinates": [[[-96.479112, 36.318324], [-96.479112, 36.318447], [-96.479286, 36.318447], [-96.479286, 36.318287], [-96.4792, 36.318287], [-96.4792, 36.318324], [-96.479112, 36.318324]]]}, "properties": {"osm_id": 1082619553, "building": "yes", "name": "", "height": null, "height_m": null, "levels": null, "tract_id": "40117957100", "tract_name": "9571", "tags": {"building": "yes", "source": "microsoft/BuildingFootprints"}}}, {"type": "Feature", "geometry": {"type": "Polygon", "coordinates": [[[-96.4630334, 36.3088359], [-96.4630322, 36.3087444], [-96.463298, 36.3087421], [-96.4632993, 36.3088336], [-96.4630334, 36.3088359]]]}, "properties": {"osm_id": 1133252438, "building": "yes", "name": "", "height": null, "height_m": null, "levels": null, "tract_id": "40117957100", "tract_name": "9571", "tags": {"addr:city": "Cleveland", "addr:housenumber": "108", "addr:postcode": "74020", "addr:state": "OK", "addr:street": "East Delaware Street", "building": "yes", "office": "telecommunication"}}}, {"type": "Feature", "geometry": {"type": "Polygon", "coordinates": [[[-96.4854798, 36.3062373], [-96.4854811, 36.3060273], [-96.4853266, 36.3060267], [-96.4853258, 36.30615], [-96.4852676, 36.3061497], [-96.4852672, 36.3062121], [-96.485329, 36.3062123], [-96.4853288, 36.3062367], [-96.4854798, 36.3062373]]]}, "properties": {"osm_id": 1150308799, "building": "yes", "name": "", "height": null, "height_m": null, "levels": null, "tract_id": "40117957100", "tract_name": "9571", "tags": {"amenity": "place_of_worship", "building": "yes", "denomination": "jehovahs_witness", "religion": "christian"}}}, {"type": "Feature", "geometry": {"type": "Polygon", "coordinates": [[[-96.4662706, 36.3179297], [-96.4664204, 36.3179313], [-96.4664231, 36.317697], [-96.4667255, 36.3178704], [-96.4668154, 36.3177678], [-96.4665634, 36.3176103], [-96.4667289, 36.3176092], [-96.4667303, 36.3175313], [-96.4665709, 36.3175302], [-96.4668338, 36.3173782], [-96.4667452, 36.3172739], [-96.4664258, 36.3174594], [-96.4664265, 36.3172218], [-96.4662712, 36.3172224], [-96.4662706, 36.3174825], [-96.4661384, 36.3174819], [-96.4661398, 36.3175565], [-96.4662712, 36.3175571], [-96.4662706, 36.3179297]]]}, "properties": {"osm_id": 1230594222, "building": "yes", "name": "", "height": null, "height_m": null, "levels": null, "tract_id": "40117957100", "tract_name": "9571", "tags": {"building": "yes"}}}, {"type": "Feature", "geometry": {"type": "Polygon", "coordinates": [[[-96.4618101, 36.2843915], [-96.461676, 36.284377], [-96.4618178, 36.2835241], [-96.4619517, 36.2835385], [-96.4618101, 36.2843915]]]}, "properties": {"osm_id": 1320913076, "building": "hangar", "name": "", "height": null, "height_m": null, "levels": null, "tract_id": "40117957100", "tract_name": "9571", "tags": {"building": "hangar"}}}, {"type": "Feature", "geometry": {"type": "Polygon", "coordinates": [[[-96.462129, 36.2823651], [-96.461866, 36.282337], [-96.4618057, 36.2827037], [-96.4620687, 36.2827318], [-96.462129, 36.2823651]]]}, "properties": {"osm_id": 1320913077, "building": "hangar", "name": "", "height": null, "height_m": null, "levels": null, "tract_id": "40117957100", "tract_name": "9571", "tags": {"aeroway": "hangar", "building": "hangar"}}}, {"type": "Feature", "geometry": {"type": "Polygon", "coordinates": [[[-96.463847, 36.3082245], [-96.4638558, 36.3088506], [-96.4638221, 36.3088677], [-96.4635409, 36.3088662], [-96.4635416, 36.3087787], [-96.4635976, 36.308779], [-96.4635985, 36.3086644], [-96.4635086, 36.3086639], [-96.4635113, 36.3083092], [-96.4635862, 36.3083096], [-96.4635868, 36.3082345], [-96.4635915, 36.3082268], [-96.463847, 36.3082245]]]}, "properties": {"osm_id": 1364382525, "building": "yes", "name": "", "height": null, "height_m": null, "levels": null, "tract_id": "40117957100", "tract_name": "9571", "tags": {"building": "yes"}}}, {"type": "Feature", "geometry": {"type": "Polygon", "coordinates": [[[-96.4634879, 36.3091273], [-96.4638531, 36.3091294], [-96.463847, 36.3098132], [-96.463571, 36.3098116], [-96.4635722, 36.3096766], [-96.4634632, 36.309676], [-96.4634649, 36.3094827], [-96.4635743, 36.3094834], [-96.4635756, 36.3093401], [-96.463486, 36.3093396], [-96.4634879, 36.3091273]]]}, "properties": {"osm_id": 1364382526, "building": "yes", "name": "", "height": null, "height_m": null, "levels": null, "tract_id": "40117957100", "tract_name": "9571", "tags": {"building": "yes"}}}, {"type": "Feature", "geometry": {"type": "Polygon", "coordinates": [[[-96.464178, 36.3097416], [-96.4641796, 36.3094751], [-96.4643962, 36.3094759], [-96.4643958, 36.3095467], [-96.4643495, 36.3095465], [-96.4643491, 36.3096195], [-96.4643983, 36.3096197], [-96.464398, 36.3096767], [-96.4644286, 36.3096768], [-96.4644283, 36.3097426], [-96.464178, 36.3097416]]]}, "properties": {"osm_id": 1364382527, "building": "yes", "name": "", "height": null, "height_m": null, "levels": null, "tract_id": "40117957100", "tract_name": "9571", "tags": {"building": "yes"}}}, {"type": "Feature", "geometry": {"type": "Polygon", "coordinates": [[[-96.4646061, 36.3092646], [-96.4642686, 36.3092631], [-96.4642683, 36.3092956], [-96.4642098, 36.3092954], [-96.4642099, 36.309271], [-96.4641836, 36.3092709], [-96.4641845, 36.3091312], [-96.464607, 36.3091331], [-96.4646061, 36.3092646]]]}, "properties": {"osm_id": 1364382528, "building": "yes", "name": "", "height": null, "height_m": null, "levels": null, "tract_id": "40117957100", "tract_name": "9571", "tags": {"building": "yes"}}}, {"type": "Feature", "geometry": {"type": "Polygon", "coordinates": [[[-96.4641691, 36.3088547], [-96.4641646, 36.3080271], [-96.4645964, 36.3080256], [-96.4645967, 36.3080943], [-96.4644944, 36.3080947], [-96.4644952, 36.3082364], [-96.4644582, 36.3082365], [-96.4644586, 36.3083032], [-96.4645193, 36.308303], [-96.4645198, 36.3083718], [-96.4644405, 36.3083721], [-96.4644414, 36.3085127], [-96.4646139, 36.308512], [-96.4646143, 36.3085761], [-96.4645562, 36.3085763], [-96.4645566, 36.3086452], [-96.464596, 36.3086451], [-96.4645964, 36.3087173], [-96.4644221, 36.3087179], [-96.4644225, 36.308779], [-96.4645895, 36.3087784], [-96.4645899, 36.3088532], [-96.4641691, 36.3088547]]]}, "properties": {"osm_id": 1364382529, "building": "yes", "name": "", "height": null, "height_m": null, "levels": null, "tract_id": "40117957100", "tract_name": "9571", "tags": {"building": "yes"}}}, {"type": "Feature", "geometry": {"type": "Polygon", "coordinates": [[[-96.4635472, 36.3077715], [-96.4638505, 36.3077727], [-96.4638542, 36.3071448], [-96.4635124, 36.3071435], [-96.4635118, 36.3072353], [-96.4635964, 36.3072356], [-96.4635943, 36.3076088], [-96.4635482, 36.3076087], [-96.4635472, 36.3077715]]]}, "properties": {"osm_id": 1364382530, "building": "yes", "name": "", "height": null, "height_m": null, "levels": null, "tract_id": "40117957100", "tract_name": "9571", "tags": {"building": "yes"}}}]}