{"type": "FeatureCollection", "features": [{"type": "Feature", "geometry": {"type": "Polygon", "coordinates": [[[-95.9878548, 36.1622239], [-95.9875476, 36.1622241], [-95.9875476, 36.1622414], [-95.9874624, 36.1622415], [-95.9873466, 36.1621456], [-95.9873467, 36.1621879], [-95.9872752, 36.162188], [-95.9871989, 36.162188], [-95.9871988, 36.1620572], [-95.98714, 36.1620573], [-95.9871149, 36.1620573], [-95.9871149, 36.1620636], [-95.9870347, 36.1620636], [-95.9870347, 36.1620908], [-95.986967, 36.1620908], [-95.986967, 36.1620629], [-95.9869618, 36.1620629], [-95.9869617, 36.162032], [-95.9869361, 36.1620321], [-95.9869361, 36.1620129], [-95.9869361, 36.1619935], [-95.9869612, 36.1619935], [-95.9869612, 36.1619638], [-95.9870097, 36.1619638], [-95.9870097, 36.1619388], [-95.9870097, 36.1619176], [-95.9870542, 36.1619176], [-95.9870542, 36.1619385], [-95.9870542, 36.1619635], [-95.9871034, 36.1619635], [-95.9871034, 36.1620006], [-95.9871146, 36.1620006], [-95.9871146, 36.1620232], [-95.98714, 36.1620232], [-95.9871984, 36.1620232], [-95.9871983, 36.1618491], [-95.9872702, 36.1618491], [-95.9872702, 36.1618189], [-95.9872492, 36.1618189], [-95.9872492, 36.1617626], [-95.9872492, 36.1617312], [-95.9873423, 36.1617312], [-95.9873423, 36.1617629], [-95.9873424, 36.1618182], [-95.9873243, 36.1618182], [-95.9873243, 36.1618503], [-95.9874639, 36.1618502], [-95.9874639, 36.1618873], [-95.9878543, 36.161887], [-95.9878547, 36.1621658], [-95.9878548, 36.1622239]]]}, "properties": {"osm_id": 60965747, "building": "yes", "name": "Greenwood Cultural Center", "height": null, "height_m": null, "levels": null, "tract_id": "40143001000", "tract_name": "10", "tags": {"addr:city": "Tulsa", "addr:country": "US", "addr:housenumber": "322", "addr:postcode": "74106", "addr:state": "OK", "addr:street": "North Greenwood Avenue East", "amenity": "arts_centre", "building": "yes", "name": "Greenwood Cultural Center", "phone": "+1 918 596 1020", "website": "https://www.greenwoodculturalcenter.org"}}}, {"type": "Feature", "geometry": {"type": "Polygon", "coordinates": [[[-95.9895583, 36.1646166], [-95.9894472, 36.1646996], [-95.9894188, 36.1646748], [-95.9893084, 36.1647573], [-95.9892062, 36.1646681], [-95.9891682, 36.1646965], [-95.9891322, 36.1646652], [-95.9890924, 36.1646305], [-95.9890928, 36.1646197], [-95.989063, 36.1645961], [-95.9890943, 36.1645731], [-95.9890947, 36.1645635], [-95.9891801, 36.1645009], [-95.9891872, 36.1645079], [-95.9892283, 36.1644741], [-95.9892615, 36.1644984], [-95.9893209, 36.1644518], [-95.9894237, 36.1645431], [-95.9894514, 36.1645226], [-95.9895583, 36.1646166]]]}, "properties": {"osm_id": 188991746, "building": "yes", "name": "Auditorium", "height": null, "height_m": null, "levels": null, "tract_id": "40143001000", "tract_name": "10", "tags": {"amenity": "theatre", "building": "yes", "name": "Auditorium"}}}, {"type": "Feature", "geometry": {"type": "Polygon", "coordinates": [[[-95.9917475, 36.1634256], [-95.9916999, 36.163442], [-95.9917488, 36.1635348], [-95.9917317, 36.1635406], [-95.9917733, 36.1636195], [-95.9915845, 36.1636843], [-95.9916215, 36.1637545], [-95.9915183, 36.16379], [-95.9914757, 36.1637092], [-95.9914934, 36.1637031], [-95.9914572, 36.1636342], [-95.9912518, 36.1637047], [-95.9912443, 36.1637073], [-95.9911978, 36.1636192], [-95.9911424, 36.1636382], [-95.990828, 36.1630417], [-95.9909124, 36.1630127], [-95.9908925, 36.1629751], [-95.9913314, 36.1628243], [-95.9913517, 36.1628629], [-95.9914357, 36.1628341], [-95.9917475, 36.1634256]]]}, "properties": {"osm_id": 188991767, "building": "yes", "name": "Helmerich Research Center", "height": null, "height_m": null, "levels": null, "tract_id": "40143001000", "tract_name": "10", "tags": {"building": "yes", "name": "Helmerich Research Center"}}}, {"type": "Feature", "geometry": {"type": "Polygon", "coordinates": [[[-95.9878563, 36.162767], [-95.9880171, 36.1629085], [-95.9878443, 36.1630365], [-95.9878844, 36.1630717], [-95.9877363, 36.1631814], [-95.9878694, 36.1632985], [-95.9880186, 36.1631879], [-95.988063, 36.163227], [-95.9882346, 36.1630999], [-95.9883875, 36.1632344], [-95.9883228, 36.1632824], [-95.988357, 36.1633125], [-95.9882757, 36.1633727], [-95.9883084, 36.1634015], [-95.988056, 36.1635885], [-95.987989, 36.1635296], [-95.9879561, 36.163554], [-95.9879048, 36.1635089], [-95.9878208, 36.1635711], [-95.9877276, 36.1636401], [-95.9877789, 36.1636853], [-95.9877434, 36.1637116], [-95.9878085, 36.163769], [-95.9875652, 36.1639492], [-95.9875278, 36.1639163], [-95.9874286, 36.1639898], [-95.9874009, 36.1639653], [-95.9873252, 36.1640214], [-95.9871644, 36.1638799], [-95.9873386, 36.1637509], [-95.9872935, 36.1637112], [-95.9874559, 36.1635908], [-95.9873332, 36.1634828], [-95.9871707, 36.1636032], [-95.9871252, 36.1635631], [-95.986951, 36.1636922], [-95.9867939, 36.163554], [-95.9868819, 36.1634888], [-95.9868555, 36.1634656], [-95.9869415, 36.1634019], [-95.9869216, 36.1633844], [-95.9871291, 36.1632258], [-95.9870802, 36.1631768], [-95.9870514, 36.1631024], [-95.9870745, 36.1630234], [-95.9871349, 36.1629537], [-95.9872126, 36.1629212], [-95.9873047, 36.1629166], [-95.9873911, 36.1629351], [-95.9874609, 36.1629848], [-95.9876466, 36.1628472], [-95.9876665, 36.1628647], [-95.987762, 36.162794], [-95.9877885, 36.1628172], [-95.9878563, 36.162767]]]}, "properties": {"osm_id": 188991768, "building": "school", "name": "Main Hall", "height": null, "height_m": null, "levels": null, "tract_id": "40143001000", "tract_name": "10", "tags": {"building": "school", "name": "Main Hall"}}}, {"type": "Feature", "geometry": {"type": "Polygon", "coordinates": [[[-95.9902676, 36.1627036], [-95.9902286, 36.1627173], [-95.9902222, 36.1627053], [-95.9901757, 36.1627216], [-95.9901805, 36.1627306], [-95.9900442, 36.1627784], [-95.9900406, 36.1627716], [-95.9899976, 36.1627866], [-95.9900048, 36.1628001], [-95.9895287, 36.1629657], [-95.9894009, 36.1627262], [-95.9897836, 36.1625931], [-95.9898133, 36.1626489], [-95.9898391, 36.1626399], [-95.9898664, 36.162691], [-95.9898857, 36.1626843], [-95.9898515, 36.1626203], [-95.990135, 36.1625216], [-95.9901549, 36.162559], [-95.9901853, 36.1625484], [-95.990208, 36.1625907], [-95.9902006, 36.1625933], [-95.990239, 36.162665], [-95.9902456, 36.1626627], [-95.9902676, 36.1627036]]]}, "properties": {"osm_id": 188991769, "building": "church", "name": "Mount Zion Baptist Church", "height": null, "height_m": null, "levels": null, "tract_id": "40143001000", "tract_name": "10", "tags": {"addr:city": "Tulsa", "addr:country": "US", "addr:housenumber": "419", "addr:postcode": "74120", "addr:state": "OK", "addr:street": "North Elgin Avenue East", "amenity": "place_of_worship", "building": "church", "denomination": "baptist", "ele": "219", "gnis:feature_id": "1789828", "name": "Mount Zion Baptist Church", "religion": "christian", "wikidata": "Q14708609"}}}, {"type": "Feature", "geometry": {"type": "Polygon", "coordinates": [[[-95.9891233, 36.1648326], [-95.9887705, 36.1650944], [-95.9882272, 36.1646173], [-95.9881884, 36.1646461], [-95.9881648, 36.1646253], [-95.9878731, 36.1648418], [-95.987828, 36.1648021], [-95.9878081, 36.1648168], [-95.9877805, 36.1647926], [-95.9877357, 36.1648259], [-95.9875442, 36.1646578], [-95.9875955, 36.1646198], [-95.9875626, 36.1645908], [-95.9875835, 36.1645753], [-95.9875574, 36.1645523], [-95.9880301, 36.1642015], [-95.9880903, 36.1642544], [-95.9882215, 36.1641571], [-95.9883319, 36.1642541], [-95.9883785, 36.1642196], [-95.9884039, 36.1642007], [-95.9889126, 36.1646476], [-95.9890238, 36.1647452], [-95.9891233, 36.1648326]]]}, "properties": {"osm_id": 188991770, "building": "school", "name": "North Hall", "height": null, "height_m": null, "levels": null, "tract_id": "40143001000", "tract_name": "10", "tags": {"building": "school", "name": "North Hall"}}}, {"type": "Feature", "geometry": {"type": "Polygon", "coordinates": [[[-95.9860944, 36.1639446], [-95.9859187, 36.1640568], [-95.9857895, 36.163925], [-95.985645, 36.1640174], [-95.9855391, 36.1639094], [-95.9857132, 36.1637982], [-95.9856815, 36.163766], [-95.9857433, 36.1637264], [-95.9857103, 36.1636927], [-95.9857947, 36.1636388], [-95.9860944, 36.1639446]]]}, "properties": {"osm_id": 188991773, "building": "office", "name": "Oklahoma Educational Television Authority", "height": null, "height_m": null, "levels": null, "tract_id": "40143001000", "tract_name": "10", "tags": {"addr:city": "Tulsa", "addr:country": "US", "addr:housenumber": "535", "addr:postcode": "74106", "addr:state": "OK", "addr:street": "North Greenwood Avenue East", "building": "office", "name": "Oklahoma Educational Television Authority"}}}, {"type": "Feature", "geometry": {"type": "Polygon", "coordinates": [[[-95.9881004, 36.1636443], [-95.9882657, 36.1637882], [-95.9882921, 36.1638112], [-95.9883172, 36.1637924], [-95.9883598, 36.1638294], [-95.9885182, 36.1637108], [-95.988482, 36.1636793], [-95.9885081, 36.1636598], [-95.9884516, 36.1636106], [-95.988511, 36.1635662], [-95.9884535, 36.1635162], [-95.9884831, 36.163494], [-95.988399, 36.1634208], [-95.9881004, 36.1636443]]]}, "properties": {"osm_id": 188991777, "building": "commercial", "name": "Oklahoma State University Bookstore", "height": null, "height_m": null, "levels": null, "tract_id": "40143001000", "tract_name": "10", "tags": {"building": "commercial", "name": "Oklahoma State University Bookstore", "shop": "books"}}}, {"type": "Feature", "geometry": {"type": "Polygon", "coordinates": [[[-95.9889653, 36.1645341], [-95.9886141, 36.1642252], [-95.9886669, 36.164186], [-95.9887087, 36.1641551], [-95.9887245, 36.164169], [-95.9887585, 36.1641438], [-95.9887894, 36.1641709], [-95.9888113, 36.1641547], [-95.9888784, 36.1642138], [-95.9889093, 36.1641909], [-95.9889316, 36.1642105], [-95.9889553, 36.1641929], [-95.9890138, 36.1642443], [-95.9890509, 36.1642168], [-95.9890747, 36.1642377], [-95.9890945, 36.164223], [-95.9892274, 36.1643398], [-95.9889653, 36.1645341]]]}, "properties": {"osm_id": 188991787, "building": "office", "name": "", "height": null, "height_m": null, "levels": null, "tract_id": "40143001000", "tract_name": "10", "tags": {"building": "office"}}}, {"type": "Feature", "geometry": {"type": "Polygon", "coordinates": [[[-95.9901578, 36.1664779], [-95.9901544, 36.1659897], [-95.9902396, 36.1659893], [-95.9902394, 36.1659698], [-95.9902997, 36.1659695], [-95.9902998, 36.1659891], [-95.9903979, 36.1659886], [-95.9903976, 36.1659579], [-95.9904445, 36.1659577], [-95.9904447, 36.1659884], [-95.9904512, 36.1659883], [-95.9904513, 36.1660045], [-95.9905017, 36.1660043], [-95.9905018, 36.1660172], [-95.9907128, 36.1660162], [-95.9907149, 36.1663081], [-95.9905552, 36.1663089], [-95.9905556, 36.1663627], [-95.9905043, 36.1663629], [-95.9905051, 36.1664763], [-95.9901578, 36.1664779]]]}, "properties": {"osm_id": 327315006, "building": "office", "name": "Tulsa Housing Authority", "height": null, "height_m": null, "levels": null, "tract_id": "40143001000", "tract_name": "10", "tags": {"building": "office", "name": "Tulsa Housing Authority", "office": "estate_agent", "operator": "City of Tulsa"}}}, {"type": "Feature", "geometry": {"type": "Polygon", "coordinates": [[[-95.9910665, 36.1670198], [-95.9907685, 36.167019], [-95.9907684, 36.1670324], [-95.9906403, 36.1670321], [-95.9906403, 36.1670197], [-95.9903517, 36.167019], [-95.9903524, 36.1668128], [-95.9905924, 36.1668134], [-95.9905926, 36.1667477], [-95.9906561, 36.1667479], [-95.9906563, 36.1666888], [-95.9907682, 36.1666891], [-95.9907678, 36.1668133], [-95.9910673, 36.1668141], [-95.9910669, 36.1669191], [-95.9910665, 36.1670198]]]}, "properties": {"osm_id": 327315012, "building": "apartments", "name": "Pioneer Plaza Apartments", "height": null, "height_m": null, "levels": null, "tract_id": "40143001000", "tract_name": "10", "tags": {"addr:city": "Tulsa", "addr:country": "US", "addr:housenumber": "901", "addr:state": "OK", "addr:street": "North Elgin Avenue", "building": "apartments", "name": "Pioneer Plaza Apartments"}}}, {"type": "Feature", "geometry": {"type": "Polygon", "coordinates": [[[-95.9926886, 36.1630721], [-95.9926169, 36.1630977], [-95.992585, 36.1630395], [-95.9926567, 36.1630139], [-95.9926886, 36.1630721]]]}, "properties": {"osm_id": 368508996, "building": "yes", "name": "", "height": null, "height_m": null, "levels": null, "tract_id": "40143001000", "tract_name": "10", "tags": {"building": "yes"}}}, {"type": "Feature", "geometry": {"type": "Polygon", "coordinates": [[[-95.9932103, 36.1693954], [-95.9929569, 36.1693941], [-95.9929575, 36.1693164], [-95.9927809, 36.1693155], [-95.9927811, 36.1692958], [-95.9927717, 36.1692958], [-95.9927728, 36.1691468], [-95.9927829, 36.1691468], [-95.9927832, 36.1691089], [-95.9928861, 36.1691094], [-95.9928864, 36.1690738], [-95.993186, 36.1690753], [-95.9931849, 36.1692231], [-95.9932117, 36.1692233], [-95.9932103, 36.1693954]]]}, "properties": {"osm_id": 485696713, "building": "yes", "name": "Ben Hill Community Center", "height": null, "height_m": null, "levels": null, "tract_id": "40143001000", "tract_name": "10", "tags": {"addr:city": "Tulsa", "addr:housenumber": "210", "addr:state": "OK", "addr:street": "East Latimer Place", "amenity": "community_centre", "building": "yes", "name": "Ben Hill Community Center"}}}, {"type": "Feature", "geometry": {"type": "Polygon", "coordinates": [[[-95.9864044, 36.161755], [-95.9864097, 36.1614669], [-95.9860979, 36.1614674], [-95.9860992, 36.1616093], [-95.986043, 36.1616106], [-95.9860414, 36.1617539], [-95.9864044, 36.161755]]]}, "properties": {"osm_id": 495944559, "building": "church", "name": "Vernon AME Church", "height": null, "height_m": null, "levels": null, "tract_id": "40143001000", "tract_name": "10", "tags": {"addr:city": "Tulsa", "addr:country": "US", "addr:housenumber": "311", "addr:postcode": "74120", "addr:state": "OK", "addr:street": "North Greenwood Avenue East", "building": "church", "name": "Vernon AME Church", "website": "https://www.historicvernoname.church/"}}}, {"type": "Feature", "geometry": {"type": "Polygon", "coordinates": [[[-95.9852092, 36.1615546], [-95.9852126, 36.1613356], [-95.9850744, 36.1613342], [-95.985071, 36.1615533], [-95.9852092, 36.1615546]]]}, "properties": {"osm_id": 495944561, "building": "yes", "name": "", "height": null, "height_m": null, "levels": null, "tract_id": "40143001000", "tract_name": "10", "tags": {"building": "yes"}}}, {"type": "Feature", "geometry": {"type": "Polygon", "coordinates": [[[-95.9851767, 36.1766336], [-95.9851761, 36.176347], [-95.9851558, 36.176347], [-95.9851555, 36.1762117], [-95.9851356, 36.1762117], [-95.9851354, 36.1760758], [-95.9851644, 36.1760758], [-95.9851643, 36.1759886], [-95.9851376, 36.1759887], [-95.9851375, 36.1759474], [-95.9849135, 36.1759477], [-95.9849136, 36.1759767], [-95.9848156, 36.1759768], [-95.9848157, 36.1759962], [-95.9847598, 36.1759963], [-95.9847602, 36.1761614], [-95.9848262, 36.1761613], [-95.9848266, 36.1763448], [-95.9848181, 36.1763448], [-95.9848186, 36.1766341], [-95.9851767, 36.1766336]]]}, "properties": {"osm_id": 951209075, "building": "school", "name": "", "height": null, "height_m": null, "levels": null, "tract_id": "40143001000", "tract_name": "10", "tags": {"building": "school"}}}, {"type": "Feature", "geometry": {"type": "Polygon", "coordinates": [[[-95.9852985, 36.1610855], [-95.9852965, 36.1611167], [-95.9854251, 36.161122], [-95.985427, 36.1610908], [-95.9852985, 36.1610855]]]}, "properties": {"osm_id": 1117686563, "building": "yes", "name": "", "height": null, "height_m": null, "levels": null, "tract_id": "40143001000", "tract_name": "10", "tags": {"building": "yes", "source": "microsoft/BuildingFootprints"}}}, {"type": "Feature", "geometry": {"type": "Polygon", "coordinates": [[[-95.9884514, 36.1766566], [-95.9881698, 36.1766555], [-95.9881706, 36.1765105], [-95.9884522, 36.1765116], [-95.9884514, 36.1766566]]]}, "properties": {"osm_id": 1164329224, "building": "retail", "name": "Pine Premier Child Care", "height": null, "height_m": null, "levels": null, "tract_id": "40143001000", "tract_name": "10", "tags": {"addr:city": "Tulsa", "addr:country": "US", "addr:housenumber": "518", "addr:postcode": "74106", "addr:state": "OK", "addr:street": "East Pine Street North", "amenity": "childcare", "building": "retail", "name": "Pine Premier Child Care"}}}, {"type": "Feature", "geometry": {"type": "Polygon", "coordinates": [[[-95.9931614, 36.1700582], [-95.9931168, 36.1700441], [-95.9930694, 36.1700383], [-95.9930217, 36.1700412], [-95.9929759, 36.1700526], [-95.9929344, 36.170072], [-95.9928993, 36.1700983], [-95.9928723, 36.1701302], [-95.9928549, 36.1701662], [-95.9928477, 36.1702044], [-95.9928513, 36.170243], [-95.9928654, 36.1702799], [-95.9928894, 36.1703134], [-95.992922, 36.1703418], [-95.9929615, 36.1703635], [-95.9930061, 36.1703776], [-95.9930535, 36.1703834], [-95.9930896, 36.1703819], [-95.993103, 36.1704496], [-95.99315, 36.1704409], [-95.9931929, 36.1704274], [-95.9932217, 36.1704139], [-95.9932559, 36.1703933], [-95.9932908, 36.1703635], [-95.9932277, 36.1703186], [-95.9932505, 36.1702915], [-95.993268, 36.1702555], [-95.9932752, 36.1702173], [-95.9932716, 36.1701788], [-95.9932575, 36.1701418], [-95.9932335, 36.1701083], [-95.9932009, 36.17008], [-95.9931614, 36.1700582]]]}, "properties": {"osm_id": 1259751786, "building": "church", "name": "Mount Rose Baptist Church", "height": null, "height_m": null, "levels": null, "tract_id": "40143001000", "tract_name": "10", "tags": {"addr:city": "Tulsa", "addr:country": "US", "addr:housenumber": "1137", "addr:state": "OK", "addr:street": "North Martin Luther King, Junior Boulevard", "amenity": "place_of_worship", "building": "church", "denomination": "baptist", "email": "info@mountrosebctulsa.net", "name": "Mount Rose Baptist Church", "phone": "+1 918 584 7522", "religion": "christian", "service_times": "Su 11:00", "website": "http://www.mountrosebctulsa.net/"}}}, {"type": "Feature", "geometry": {"type": "Polygon", "coordinates": [[[-95.9886908, 36.1713281], [-95.988638, 36.1713291], [-95.9886373, 36.1713044], [-95.988602, 36.171305], [-95.9885992, 36.171207], [-95.9886344, 36.1712064], [-95.9886339, 36.1711884], [-95.9886868, 36.1711874], [-95.9886908, 36.1713281]]]}, "properties": {"osm_id": 1259751788, "building": "detached", "name": "", "height": null, "height_m": null, "levels": null, "tract_id": "40143001000", "tract_name": "10", "tags": {"addr:city": "Tulsa", "addr:country": "US", "addr:housenumber": "507", "addr:postcode": "74106", "addr:state": "OK", "addr:street": "East Latimer Court North", "building": "detached"}}}, {"type": "Feature", "geometry": {"type": "Polygon", "coordinates": [[[-95.9880196, 36.171503], [-95.9879839, 36.1715029], [-95.987984, 36.1714608], [-95.9880197, 36.1714609], [-95.9880196, 36.171503]]]}, "properties": {"osm_id": 1259751789, "building": "shed", "name": "", "height": null, "height_m": null, "levels": null, "tract_id": "40143001000", "tract_name": "10", "tags": {"building": "shed"}}}, {"type": "Feature", "geometry": {"type": "Polygon", "coordinates": [[[-95.9877272, 36.1713536], [-95.9878135, 36.1713525], [-95.987815, 36.1714304], [-95.9877287, 36.1714316], [-95.9877272, 36.1713536]]]}, "properties": {"osm_id": 1259751790, "building": "bungalow", "name": "", "height": null, "height_m": null, "levels": null, "tract_id": "40143001000", "tract_name": "10", "tags": {"addr:city": "Tulsa", "addr:country": "US", "addr:housenumber": "528", "addr:postcode": "74106", "addr:state": "OK", "addr:street": "East Latimer Court North", "building": "bungalow"}}}, {"type": "Feature", "geometry": {"type": "Polygon", "coordinates": [[[-95.9876387, 36.1714137], [-95.987571, 36.1714141], [-95.9875704, 36.1713513], [-95.987638, 36.1713509], [-95.9876387, 36.1714137]]]}, "properties": {"osm_id": 1259751791, "building": "garage", "name": "", "height": null, "height_m": null, "levels": null, "tract_id": "40143001000", "tract_name": "10", "tags": {"building": "garage"}}}, {"type": "Feature", "geometry": {"type": "Polygon", "coordinates": [[[-95.9875649, 36.1714045], [-95.9875314, 36.1714045], [-95.9875314, 36.1713482], [-95.9875649, 36.1713482], [-95.9875649, 36.1714045]]]}, "properties": {"osm_id": 1259751792, "building": "yes", "name": "", "height": null, "height_m": null, "levels": null, "tract_id": "40143001000", "tract_name": "10", "tags": {"building": "yes"}}}, {"type": "Feature", "geometry": {"type": "Polygon", "coordinates": [[[-95.9873161, 36.1714045], [-95.9873115, 36.1712237], [-95.9874578, 36.1712212], [-95.9874586, 36.1712513], [-95.9875361, 36.17125], [-95.987538, 36.1713262], [-95.9874606, 36.1713275], [-95.9874609, 36.1713386], [-95.987404, 36.1713396], [-95.9874056, 36.171403], [-95.9873161, 36.1714045]]]}, "properties": {"osm_id": 1259751793, "building": "detached", "name": "", "height": null, "height_m": null, "levels": null, "tract_id": "40143001000", "tract_name": "10", "tags": {"addr:city": "Tulsa", "addr:country": "US", "addr:housenumber": "535", "addr:postcode": "74106", "addr:state": "OK", "addr:street": "East Latimer Court North", "building": "detached"}}}, {"type": "Feature", "geometry": {"type": "Polygon", "coordinates": [[[-95.9872283, 36.1713839], [-95.9872972, 36.1713824], [-95.9872992, 36.1714414], [-95.9872303, 36.1714429], [-95.9872283, 36.1713839]]]}, "properties": {"osm_id": 1259751794, "building": "garage", "name": "", "height": null, "height_m": null, "levels": null, "tract_id": "40143001000", "tract_name": "10", "tags": {"building": "garage"}}}, {"type": "Feature", "geometry": {"type": "Polygon", "coordinates": [[[-95.9871586, 36.1712042], [-95.9872295, 36.1712036], [-95.9872298, 36.171227], [-95.9872398, 36.1712269], [-95.9872402, 36.1712637], [-95.9872576, 36.1712636], [-95.9872581, 36.1713058], [-95.9872408, 36.171306], [-95.9872413, 36.1713528], [-95.9872107, 36.171353], [-95.9872109, 36.171364], [-95.9871496, 36.1713645], [-95.987149, 36.1713179], [-95.98716, 36.1713178], [-95.9871586, 36.1712042]]]}, "properties": {"osm_id": 1259751795, "building": "detached", "name": "", "height": null, "height_m": null, "levels": null, "tract_id": "40143001000", "tract_name": "10", "tags": {"addr:city": "Tulsa", "addr:country": "US", "addr:housenumber": "539", "addr:postcode": "74106", "addr:state": "OK", "addr:street": "East Latimer Court North", "building": "detached"}}}, {"type": "Feature", "geometry": {"type": "Polygon", "coordinates": [[[-95.9869473, 36.1707993], [-95.9870902, 36.1707993], [-95.9870902, 36.1709341], [-95.987007, 36.1709341], [-95.987007, 36.1708951], [-95.9869473, 36.1708951], [-95.9869473, 36.1707993]]]}, "properties": {"osm_id": 1259751796, "building": "detached", "name": "", "height": null, "height_m": null, "levels": null, "tract_id": "40143001000", "tract_name": "10", "tags": {"addr:city": "Tulsa", "addr:country": "US", "addr:housenumber": "544", "addr:postcode": "74106", "addr:state": "OK", "addr:street": "East Latimer Court North", "building": "detached"}}}, {"type": "Feature", "geometry": {"type": "Polygon", "coordinates": [[[-95.9875173, 36.1707977], [-95.9875173, 36.170926], [-95.9873859, 36.170926], [-95.9873859, 36.170855], [-95.987455, 36.170855], [-95.987455, 36.1707977], [-95.9875173, 36.1707977]]]}, "properties": {"osm_id": 1259751797, "building": "detached", "name": "", "height": null, "height_m": null, "levels": null, "tract_id": "40143001000", "tract_name": "10", "tags": {"addr:city": "Tulsa", "addr:country": "US", "addr:housenumber": "536", "addr:postcode": "74106", "addr:state": "OK", "addr:street": "East Latimer Court North", "building": "detached"}}}, {"type": "Feature", "geometry": {"type": "Polygon", "coordinates": [[[-95.9876856, 36.1709281], [-95.9876742, 36.1709281], [-95.9876742, 36.1709471], [-95.9875944, 36.1709471], [-95.9875944, 36.1709281], [-95.9875803, 36.1709281], [-95.9875803, 36.170795], [-95.9876856, 36.170795], [-95.9876856, 36.1709281]]]}, "properties": {"osm_id": 1259751798, "building": "detached", "name": "", "height": null, "height_m": null, "levels": null, "tract_id": "40143001000", "tract_name": "10", "tags": {"addr:city": "Tulsa", "addr:country": "US", "addr:housenumber": "534", "addr:postcode": "74106", "addr:state": "OK", "addr:street": "East Latimer Court North", "building": "detached"}}}, {"type": "Feature", "geometry": {"type": "Polygon", "coordinates": [[[-95.9878392, 36.1706889], [-95.9877775, 36.1706872], [-95.9877785, 36.1706618], [-95.9878402, 36.1706634], [-95.9878392, 36.1706889]]]}, "properties": {"osm_id": 1259751799, "building": "shed", "name": "", "height": null, "height_m": null, "levels": null, "tract_id": "40143001000", "tract_name": "10", "tags": {"building": "shed"}}}, {"type": "Feature", "geometry": {"type": "Polygon", "coordinates": [[[-95.9883408, 36.170658], [-95.9883408, 36.1706872], [-95.9882958, 36.1706872], [-95.9882958, 36.170658], [-95.9883408, 36.170658]]]}, "properties": {"osm_id": 1259751800, "building": "shed", "name": "", "height": null, "height_m": null, "levels": null, "tract_id": "40143001000", "tract_name": "10", "tags": {"building": "shed"}}}, {"type": "Feature", "geometry": {"type": "Polygon", "coordinates": [[[-95.9887183, 36.1706959], [-95.9886687, 36.1707002], [-95.988665, 36.1706731], [-95.9887146, 36.1706687], [-95.9887183, 36.1706959]]]}, "properties": {"osm_id": 1259751801, "building": "shed", "name": "", "height": null, "height_m": null, "levels": null, "tract_id": "40143001000", "tract_name": "10", "tags": {"building": "shed"}}}, {"type": "Feature", "geometry": {"type": "Polygon", "coordinates": [[[-95.9888068, 36.1706991], [-95.9887545, 36.1706991], [-95.9887545, 36.1706699], [-95.9888068, 36.1706699], [-95.9888068, 36.1706991]]]}, "properties": {"osm_id": 1259751802, "building": "shed", "name": "", "height": null, "height_m": null, "levels": null, "tract_id": "40143001000", "tract_name": "10", "tags": {"building": "shed"}}}, {"type": "Feature", "geometry": {"type": "Polygon", "coordinates": [[[-95.9905207, 36.1708069], [-95.9905216, 36.1709138], [-95.9904449, 36.1709142], [-95.990445, 36.1709278], [-95.9903418, 36.1709284], [-95.9903417, 36.1709148], [-95.990278, 36.1709151], [-95.9902771, 36.1708082], [-95.9903538, 36.1708078], [-95.9903535, 36.1707717], [-95.9904245, 36.1707714], [-95.9904248, 36.1708074], [-95.9905207, 36.1708069]]]}, "properties": {"osm_id": 1259751805, "building": "detached", "name": "", "height": null, "height_m": null, "levels": null, "tract_id": "40143001000", "tract_name": "10", "tags": {"addr:city": "Tulsa", "addr:country": "US", "addr:state": "OK", "addr:street": "East Latimer Court", "building": "detached"}}}, {"type": "Feature", "geometry": {"type": "Polygon", "coordinates": [[[-95.9907138, 36.1707549], [-95.9907152, 36.1709184], [-95.9906796, 36.1709186], [-95.9906798, 36.1709392], [-95.9906061, 36.1709396], [-95.9906059, 36.170919], [-95.990573, 36.1709191], [-95.9905717, 36.1707557], [-95.9907138, 36.1707549]]]}, "properties": {"osm_id": 1259751806, "building": "detached", "name": "", "height": null, "height_m": null, "levels": null, "tract_id": "40143001000", "tract_name": "10", "tags": {"addr:city": "Tulsa", "addr:country": "US", "addr:state": "OK", "addr:street": "East Latimer Court", "building": "detached"}}}, {"type": "Feature", "geometry": {"type": "Polygon", "coordinates": [[[-95.9898455, 36.1706472], [-95.9899601, 36.1706472], [-95.9899601, 36.1707257], [-95.9898455, 36.1707257], [-95.9898455, 36.1706472]]]}, "properties": {"osm_id": 1259751807, "building": "garage", "name": "", "height": null, "height_m": null, "levels": null, "tract_id": "40143001000", "tract_name": "10", "tags": {"building": "garage"}}}, {"type": "Feature", "geometry": {"type": "Polygon", "coordinates": [[[-95.9894586, 36.171471], [-95.9894572, 36.1714099], [-95.9895135, 36.1714091], [-95.9895149, 36.1714702], [-95.9894586, 36.171471]]]}, "properties": {"osm_id": 1259751808, "building": "yes", "name": "", "height": null, "height_m": null, "levels": null, "tract_id": "40143001000", "tract_name": "10", "tags": {"building": "yes"}}}, {"type": "Feature", "geometry": {"type": "Polygon", "coordinates": [[[-95.9906407, 36.1715495], [-95.9906092, 36.1715495], [-95.9906092, 36.1715263], [-95.9906407, 36.1715263], [-95.9906407, 36.1715495]]]}, "properties": {"osm_id": 1259751809, "building": "shed", "name": "", "height": null, "height_m": null, "levels": null, "tract_id": "40143001000", "tract_name": "10", "tags": {"building": "shed"}}}, {"type": "Feature", "geometry": {"type": "Polygon", "coordinates": [[[-95.9906454, 36.1715138], [-95.9906066, 36.1715143], [-95.9906059, 36.1714819], [-95.9906448, 36.1714813], [-95.9906454, 36.1715138]]]}, "properties": {"osm_id": 1259751810, "building": "shed", "name": "", "height": null, "height_m": null, "levels": null, "tract_id": "40143001000", "tract_name": "10", "tags": {"building": "shed"}}}, {"type": "Feature", "geometry": {"type": "Polygon", "coordinates": [[[-95.9918779, 36.1658608], [-95.9920429, 36.1655143], [-95.9922138, 36.1655673], [-95.9920489, 36.1659138], [-95.9918779, 36.1658608]]]}, "properties": {"osm_id": 1259751889, "building": "apartments", "name": "", "height": null, "height_m": null, "levels": null, "tract_id": "40143001000", "tract_name": "10", "tags": {"building": "apartments"}}}, {"type": "Feature", "geometry": {"type": "Polygon", "coordinates": [[[-95.9926236, 36.1655468], [-95.9925404, 36.1655462], [-95.9925431, 36.1652853], [-95.9926263, 36.1652858], [-95.9926236, 36.1655468]]]}, "properties": {"osm_id": 1259751891, "building": "apartments", "name": "", "height": null, "height_m": null, "levels": null, "tract_id": "40143001000", "tract_name": "10", "tags": {"building": "apartments"}}}, {"type": "Feature", "geometry": {"type": "Polygon", "coordinates": [[[-95.9924573, 36.1651072], [-95.9922266, 36.164921], [-95.9922856, 36.1648733], [-95.9925163, 36.1650596], [-95.9924573, 36.1651072]]]}, "properties": {"osm_id": 1259751892, "building": "apartments", "name": "", "height": null, "height_m": null, "levels": null, "tract_id": "40143001000", "tract_name": "10", "tags": {"building": "apartments"}}}, {"type": "Feature", "geometry": {"type": "Polygon", "coordinates": [[[-95.991721, 36.1647163], [-95.9914032, 36.16479], [-95.9913795, 36.1647233], [-95.9916973, 36.1646497], [-95.991721, 36.1647163]]]}, "properties": {"osm_id": 1259751893, "building": "apartments", "name": "", "height": null, "height_m": null, "levels": null, "tract_id": "40143001000", "tract_name": "10", "tags": {"building": "apartments"}}}, {"type": "Feature", "geometry": {"type": "Polygon", "coordinates": [[[-95.9885848, 36.1707701], [-95.9885899, 36.170954], [-95.9886822, 36.1709524], [-95.9886789, 36.1708312], [-95.9887233, 36.1708304], [-95.9887215, 36.1707676], [-95.9885848, 36.1707701]]]}, "properties": {"osm_id": 1259751894, "building": "detached", "name": "", "height": null, "height_m": null, "levels": null, "tract_id": "40143001000", "tract_name": "10", "tags": {"addr:city": "Tulsa", "addr:country": "US", "addr:housenumber": "508", "addr:postcode": "74106", "addr:state": "OK", "addr:street": "East Latimer Court North", "building": "detached"}}}, {"type": "Feature", "geometry": {"type": "Polygon", "coordinates": [[[-95.988766, 36.171217], [-95.9887667, 36.1713796], [-95.9887846, 36.1713796], [-95.9887849, 36.1714399], [-95.9888879, 36.1714397], [-95.9888874, 36.1712919], [-95.9888632, 36.1712919], [-95.988863, 36.1712534], [-95.9888571, 36.1712535], [-95.988857, 36.1712167], [-95.988766, 36.171217]]]}, "properties": {"osm_id": 1259751895, "building": "detached", "name": "", "height": null, "height_m": null, "levels": null, "tract_id": "40143001000", "tract_name": "10", "tags": {"addr:city": "Tulsa", "addr:country": "US", "addr:housenumber": "1159", "addr:postcode": "74106", "addr:state": "OK", "addr:street": "North Frankfort Avenue East", "building": "detached"}}}, {"type": "Feature", "geometry": {"type": "Polygon", "coordinates": [[[-95.9897339, 36.1707386], [-95.9897338, 36.1709178], [-95.9897952, 36.1709178], [-95.9897952, 36.1709234], [-95.9898786, 36.1709235], [-95.9898786, 36.170852], [-95.9899242, 36.170852], [-95.9899242, 36.1708001], [-95.989876, 36.1708001], [-95.989876, 36.1707386], [-95.9897339, 36.1707386]]]}, "properties": {"osm_id": 1259751896, "building": "detached", "name": "", "height": null, "height_m": null, "levels": null, "tract_id": "40143001000", "tract_name": "10", "tags": {"addr:city": "Tulsa", "addr:country": "US", "addr:state": "OK", "addr:street": "East Latimer Court", "building": "detached"}}}, {"type": "Feature", "geometry": {"type": "Polygon", "coordinates": [[[-95.9882905, 36.1712262], [-95.9881511, 36.1712264], [-95.9881513, 36.1713217], [-95.9882907, 36.1713214], [-95.9882905, 36.1712262]]]}, "properties": {"osm_id": 1259751897, "building": "detached", "name": "", "height": null, "height_m": null, "levels": null, "tract_id": "40143001000", "tract_name": "10", "tags": {"addr:city": "Tulsa", "addr:country": "US", "addr:housenumber": "517", "addr:postcode": "74106", "addr:state": "OK", "addr:street": "East Latimer Court North", "building": "detached"}}}, {"type": "Feature", "geometry": {"type": "Polygon", "coordinates": [[[-95.990825, 36.1709243], [-95.9910879, 36.1709254], [-95.9910884, 36.1708422], [-95.9910333, 36.170842], [-95.991033, 36.1708754], [-95.9909997, 36.1708753], [-95.991, 36.1708298], [-95.9908257, 36.170829], [-95.990825, 36.1709243]]]}, "properties": {"osm_id": 1259751898, "building": "detached", "name": "", "height": null, "height_m": null, "levels": null, "tract_id": "40143001000", "tract_name": "10", "tags": {"addr:city": "Tulsa", "addr:country": "US", "addr:state": "OK", "building": "detached"}}}, {"type": "Feature", "geometry": {"type": "Polygon", "coordinates": [[[-95.9876213, 36.171177], [-95.9876203, 36.1712419], [-95.987595, 36.1712416], [-95.9875944, 36.1712827], [-95.9876223, 36.171283], [-95.9876218, 36.1713163], [-95.9876988, 36.171317], [-95.9876992, 36.1712907], [-95.9877161, 36.1712908], [-95.9877178, 36.1711779], [-95.9876213, 36.171177]]]}, "properties": {"osm_id": 1259751899, "building": "detached", "name": "", "height": null, "height_m": null, "levels": null, "tract_id": "40143001000", "tract_name": "10", "tags": {"addr:city": "Tulsa", "addr:country": "US", "addr:housenumber": "529", "addr:postcode": "74106", "addr:state": "OK", "addr:street": "East Latimer Court North", "building": "detached"}}}, {"type": "Feature", "geometry": {"type": "Polygon", "coordinates": [[[-95.9925364, 36.1685433], [-95.9925268, 36.1685963], [-95.9927119, 36.1686182], [-95.9927215, 36.1685652], [-95.9925364, 36.1685433]]]}, "properties": {"osm_id": 1259751901, "building": "yes", "name": "", "height": null, "height_m": null, "levels": null, "tract_id": "40143001000", "tract_name": "10", "tags": {"building": "yes"}}}, {"type": "Feature", "geometry": {"type": "Polygon", "coordinates": [[[-95.9924891, 36.1644969], [-95.9924581, 36.1644279], [-95.9923777, 36.1644514], [-95.9924088, 36.1645204], [-95.9924891, 36.1644969]]]}, "properties": {"osm_id": 1259751902, "building": "yes", "name": "", "height": null, "height_m": null, "levels": null, "tract_id": "40143001000", "tract_name": "10", "tags": {"building": "yes"}}}, {"type": "Feature", "geometry": {"type": "Polygon", "coordinates": [[[-95.9915714, 36.1652182], [-95.9914246, 36.1653362], [-95.9914796, 36.1653807], [-95.9915065, 36.1653591], [-95.991638, 36.1654656], [-95.9916097, 36.1654883], [-95.9916647, 36.1655329], [-95.9918101, 36.165416], [-95.9917551, 36.1653714], [-95.9917322, 36.1653898], [-95.9916008, 36.1652833], [-95.9916263, 36.1652627], [-95.9915714, 36.1652182]]]}, "properties": {"osm_id": 1259751903, "building": "apartments", "name": "", "height": null, "height_m": null, "levels": null, "tract_id": "40143001000", "tract_name": "10", "tags": {"building": "apartments"}}}, {"type": "Feature", "geometry": {"type": "Polygon", "coordinates": [[[-95.9924038, 36.165894], [-95.9924857, 36.1659183], [-95.9925995, 36.1656685], [-95.9925176, 36.1656442], [-95.9924038, 36.165894]]]}, "properties": {"osm_id": 1259751904, "building": "apartments", "name": "", "height": null, "height_m": null, "levels": null, "tract_id": "40143001000", "tract_name": "10", "tags": {"building": "apartments"}}}, {"type": "Feature", "geometry": {"type": "Polygon", "coordinates": [[[-95.9879853, 36.1707457], [-95.9879797, 36.1709058], [-95.9880414, 36.1709072], [-95.9880411, 36.1709159], [-95.9881268, 36.1709179], [-95.9881327, 36.1707491], [-95.9879853, 36.1707457]]]}, "properties": {"osm_id": 1259751905, "building": "detached", "name": "", "height": null, "height_m": null, "levels": null, "tract_id": "40143001000", "tract_name": "10", "tags": {"addr:city": "Tulsa", "addr:country": "US", "addr:housenumber": "520", "addr:postcode": "74106", "addr:state": "OK", "addr:street": "East Latimer Court North", "building": "detached"}}}, {"type": "Feature", "geometry": {"type": "Polygon", "coordinates": [[[-95.9883867, 36.1712159], [-95.988388, 36.1712884], [-95.9884755, 36.1712874], [-95.9884756, 36.1712946], [-95.9885275, 36.171294], [-95.9885261, 36.1712143], [-95.9883867, 36.1712159]]]}, "properties": {"osm_id": 1259751908, "building": "detached", "name": "", "height": null, "height_m": null, "levels": null, "tract_id": "40143001000", "tract_name": "10", "tags": {"addr:city": "Tulsa", "addr:country": "US", "addr:housenumber": "511", "addr:postcode": "74106", "addr:state": "OK", "addr:street": "East Latimer Court North", "building": "detached"}}}, {"type": "Feature", "geometry": {"type": "Polygon", "coordinates": [[[-95.990934, 36.1656995], [-95.9908263, 36.1654683], [-95.9906288, 36.1655282], [-95.9907364, 36.1657594], [-95.990934, 36.1656995]]]}, "properties": {"osm_id": 1259751909, "building": "apartments", "name": "", "height": null, "height_m": null, "levels": null, "tract_id": "40143001000", "tract_name": "10", "tags": {"building": "apartments"}}}, {"type": "Feature", "geometry": {"type": "Polygon", "coordinates": [[[-95.990034, 36.1712986], [-95.9900368, 36.1712121], [-95.989809, 36.1712072], [-95.989806, 36.1712981], [-95.989888, 36.1712998], [-95.9898868, 36.1713366], [-95.9899699, 36.1713384], [-95.9899712, 36.1712973], [-95.990034, 36.1712986]]]}, "properties": {"osm_id": 1259751910, "building": "detached", "name": "", "height": null, "height_m": null, "levels": null, "tract_id": "40143001000", "tract_name": "10", "tags": {"addr:city": "Tulsa", "addr:country": "US", "addr:state": "OK", "addr:street": "East Latimer Court", "building": "detached"}}}, {"type": "Feature", "geometry": {"type": "Polygon", "coordinates": [[[-95.9908795, 36.1713155], [-95.9908809, 36.1712128], [-95.9906235, 36.1712105], [-95.990622, 36.1713154], [-95.9907121, 36.1713162], [-95.9907116, 36.171352], [-95.9907813, 36.1713526], [-95.9907818, 36.1713146], [-95.9908795, 36.1713155]]]}, "properties": {"osm_id": 1259751911, "building": "detached", "name": "", "height": null, "height_m": null, "levels": null, "tract_id": "40143001000", "tract_name": "10", "tags": {"addr:city": "Tulsa", "addr:country": "US", "addr:state": "OK", "addr:street": "East Latimer Court", "building": "detached"}}}, {"type": "Feature", "geometry": {"type": "Polygon", "coordinates": [[[-95.9906942, 36.1707392], [-95.9907854, 36.1707378], [-95.9907834, 36.1706534], [-95.9906922, 36.1706548], [-95.9906942, 36.1707392]]]}, "properties": {"osm_id": 1259751912, "building": "garage", "name": "", "height": null, "height_m": null, "levels": null, "tract_id": "40143001000", "tract_name": "10", "tags": {"building": "garage"}}}, {"type": "Feature", "geometry": {"type": "Polygon", "coordinates": [[[-95.9902949, 36.1712291], [-95.990221, 36.1712296], [-95.9902208, 36.1712148], [-95.9901598, 36.1712152], [-95.9901599, 36.1712301], [-95.9900631, 36.1712308], [-95.990064, 36.1713151], [-95.990169, 36.1713143], [-95.9901694, 36.1713464], [-95.9902268, 36.171346], [-95.9902265, 36.1713142], [-95.9902958, 36.1713137], [-95.9902949, 36.1712291]]]}, "properties": {"osm_id": 1259751913, "building": "detached", "name": "", "height": null, "height_m": null, "levels": null, "tract_id": "40143001000", "tract_name": "10", "tags": {"addr:city": "Tulsa", "addr:country": "US", "addr:state": "OK", "addr:street": "East Latimer Court", "building": "detached"}}}, {"type": "Feature", "geometry": {"type": "Polygon", "coordinates": [[[-95.9901959, 36.1708485], [-95.9901961, 36.1707597], [-95.990093, 36.1707595], [-95.9900931, 36.1707218], [-95.9900073, 36.1707216], [-95.9900067, 36.1709316], [-95.9900818, 36.1709318], [-95.990082, 36.1708482], [-95.9901959, 36.1708485]]]}, "properties": {"osm_id": 1259751914, "building": "detached", "name": "", "height": null, "height_m": null, "levels": null, "tract_id": "40143001000", "tract_name": "10", "tags": {"addr:city": "Tulsa", "addr:country": "US", "addr:state": "OK", "addr:street": "East Latimer Court", "building": "detached"}}}, {"type": "Feature", "geometry": {"type": "Polygon", "coordinates": [[[-95.9903323, 36.1713619], [-95.9904449, 36.1713611], [-95.9904446, 36.1713329], [-95.9905546, 36.1713321], [-95.9905534, 36.1712304], [-95.9904477, 36.1712312], [-95.9904474, 36.1712095], [-95.9903305, 36.1712104], [-95.9903323, 36.1713619]]]}, "properties": {"osm_id": 1259751915, "building": "detached", "name": "", "height": null, "height_m": null, "levels": null, "tract_id": "40143001000", "tract_name": "10", "tags": {"addr:city": "Tulsa", "addr:country": "US", "addr:state": "OK", "addr:street": "East Latimer Court", "building": "detached"}}}, {"type": "Feature", "geometry": {"type": "Polygon", "coordinates": [[[-95.991141, 36.171173], [-95.9910434, 36.1711752], [-95.9910472, 36.1712824], [-95.9909989, 36.1712835], [-95.9910023, 36.1713797], [-95.9910961, 36.1713775], [-95.9910938, 36.1713126], [-95.9911459, 36.1713114], [-95.991141, 36.171173]]]}, "properties": {"osm_id": 1259751917, "building": "detached", "name": "", "height": null, "height_m": null, "levels": null, "tract_id": "40143001000", "tract_name": "10", "tags": {"addr:city": "Tulsa", "addr:country": "US", "addr:state": "OK", "addr:street": "East Latimer Court", "building": "detached"}}}, {"type": "Feature", "geometry": {"type": "Polygon", "coordinates": [[[-95.9910893, 36.1706743], [-95.9909848, 36.1706764], [-95.9909871, 36.1707521], [-95.9910916, 36.1707501], [-95.9910893, 36.1706743]]]}, "properties": {"osm_id": 1259751918, "building": "garage", "name": "", "height": null, "height_m": null, "levels": null, "tract_id": "40143001000", "tract_name": "10", "tags": {"building": "garage"}}}, {"type": "Feature", "geometry": {"type": "Polygon", "coordinates": [[[-95.9870969, 36.1712126], [-95.9869667, 36.1712121], [-95.9869659, 36.171334], [-95.986982, 36.1713341], [-95.9869816, 36.1713983], [-95.9870958, 36.1713988], [-95.9870969, 36.1712126]]]}, "properties": {"osm_id": 1259751919, "building": "yes", "name": "", "height": null, "height_m": null, "levels": null, "tract_id": "40143001000", "tract_name": "10", "tags": {"addr:city": "Tulsa", "addr:country": "US", "addr:housenumber": "1154", "addr:postcode": "74106", "addr:state": "OK", "addr:street": "North Greenwood Avenue East", "building": "yes"}}}, {"type": "Feature", "geometry": {"type": "Polygon", "coordinates": [[[-95.9893966, 36.1713991], [-95.9894541, 36.1713983], [-95.9894536, 36.1713745], [-95.9895072, 36.1713738], [-95.9895039, 36.1712114], [-95.9893928, 36.1712129], [-95.9893966, 36.1713991]]]}, "properties": {"osm_id": 1259751920, "building": "detached", "name": "", "height": null, "height_m": null, "levels": null, "tract_id": "40143001000", "tract_name": "10", "tags": {"addr:city": "Tulsa", "addr:country": "US", "addr:state": "OK", "addr:street": "East Latimer Court", "building": "detached"}}}, {"type": "Feature", "geometry": {"type": "Polygon", "coordinates": [[[-95.9928083, 36.1655024], [-95.9927211, 36.1654908], [-95.9926677, 36.1657522], [-95.9927549, 36.1657638], [-95.9928083, 36.1655024]]]}, "properties": {"osm_id": 1259751921, "building": "apartments", "name": "", "height": null, "height_m": null, "levels": null, "tract_id": "40143001000", "tract_name": "10", "tags": {"building": "apartments"}}}, {"type": "Feature", "geometry": {"type": "Polygon", "coordinates": [[[-95.988587, 36.1765707], [-95.9885868, 36.1768038], [-95.9887679, 36.176813], [-95.9888523, 36.1768039], [-95.9888524, 36.1765708], [-95.988587, 36.1765707]]]}, "properties": {"osm_id": 1259751922, "building": "fire_station", "name": "", "height": null, "height_m": null, "levels": null, "tract_id": "40143001000", "tract_name": "10", "tags": {"addr:city": "Tulsa", "addr:country": "US", "addr:housenumber": "508", "addr:postcode": "74106", "addr:state": "OK", "addr:street": "East Pine Street North", "amenity": "fire_station", "building": "fire_station"}}}, {"type": "Feature", "geometry": {"type": "Polygon", "coordinates": [[[-95.991204, 36.1655925], [-95.991274, 36.1657515], [-95.9913504, 36.1657296], [-95.9913349, 36.1656945], [-95.9915098, 36.1656443], [-95.9915205, 36.1656686], [-95.9915895, 36.1656488], [-95.9915196, 36.16549], [-95.9914432, 36.1655119], [-95.9914587, 36.165547], [-95.9912839, 36.1655972], [-95.9912731, 36.1655727], [-95.991204, 36.1655925]]]}, "properties": {"osm_id": 1259751923, "building": "apartments", "name": "", "height": null, "height_m": null, "levels": null, "tract_id": "40143001000", "tract_name": "10", "tags": {"building": "apartments"}}}, {"type": "Feature", "geometry": {"type": "Polygon", "coordinates": [[[-95.9877889, 36.1711874], [-95.9877917, 36.171326], [-95.98783, 36.1713255], [-95.9878298, 36.1713191], [-95.9878881, 36.1713183], [-95.9878852, 36.1711744], [-95.9878089, 36.1711754], [-95.9878092, 36.1711871], [-95.9877889, 36.1711874]]]}, "properties": {"osm_id": 1259751924, "building": "detached", "name": "", "height": null, "height_m": null, "levels": null, "tract_id": "40143001000", "tract_name": "10", "tags": {"addr:city": "Tulsa", "addr:country": "US", "addr:housenumber": "527", "addr:postcode": "74106", "addr:state": "OK", "addr:street": "East Latimer Court North", "building": "detached"}}}, {"type": "Feature", "geometry": {"type": "Polygon", "coordinates": [[[-95.9894713, 36.1709205], [-95.9895129, 36.1709205], [-95.9895128, 36.170933], [-95.9895985, 36.1709331], [-95.9895991, 36.1707313], [-95.9896837, 36.1707315], [-95.989684, 36.1706501], [-95.9895779, 36.1706499], [-95.9895777, 36.1707192], [-95.9894719, 36.170719], [-95.9894713, 36.1709205]]]}, "properties": {"osm_id": 1259751925, "building": "detached", "name": "", "height": null, "height_m": null, "levels": null, "tract_id": "40143001000", "tract_name": "10", "tags": {"addr:city": "Tulsa", "addr:country": "US", "addr:state": "OK", "addr:street": "East Latimer Court", "building": "detached"}}}, {"type": "Feature", "geometry": {"type": "Polygon", "coordinates": [[[-95.9896746, 36.1713066], [-95.9897765, 36.171305], [-95.9897739, 36.171197], [-95.989672, 36.1711986], [-95.9896746, 36.1713066]]]}, "properties": {"osm_id": 1259751926, "building": "detached", "name": "", "height": null, "height_m": null, "levels": null, "tract_id": "40143001000", "tract_name": "10", "tags": {"addr:city": "Tulsa", "addr:country": "US", "addr:state": "OK", "addr:street": "East Latimer Court", "building": "detached"}}}, {"type": "Feature", "geometry": {"type": "Polygon", "coordinates": [[[-95.9917838, 36.1658125], [-95.9916593, 36.1657763], [-95.9916731, 36.1657455], [-95.9915525, 36.1657104], [-95.9914821, 36.165868], [-95.9915978, 36.1659018], [-95.9916067, 36.1658818], [-95.9917359, 36.1659195], [-95.9917838, 36.1658125]]]}, "properties": {"osm_id": 1259751927, "building": "apartments", "name": "Sunset Plaza Office & Clubhouse", "height": null, "height_m": null, "levels": null, "tract_id": "40143001000", "tract_name": "10", "tags": {"building": "apartments", "name": "Sunset Plaza Office & Clubhouse", "office": "estate_agent"}}}, {"type": "Feature", "geometry": {"type": "Polygon", "coordinates": [[[-95.9879314, 36.1713028], [-95.9879745, 36.1713029], [-95.9879744, 36.1713213], [-95.9880252, 36.1713215], [-95.9880258, 36.1711725], [-95.9879319, 36.1711722], [-95.9879314, 36.1713028]]]}, "properties": {"osm_id": 1259751929, "building": "detached", "name": "", "height": null, "height_m": null, "levels": null, "tract_id": "40143001000", "tract_name": "10", "tags": {"addr:city": "Tulsa", "addr:country": "US", "addr:housenumber": "523", "addr:postcode": "74106", "addr:state": "OK", "addr:street": "East Latimer Court North", "building": "detached"}}}, {"type": "Feature", "geometry": {"type": "Polygon", "coordinates": [[[-95.9883395, 36.1709414], [-95.9884563, 36.1709435], [-95.9884599, 36.1708137], [-95.9883883, 36.1708124], [-95.9883893, 36.170778], [-95.9883183, 36.1707768], [-95.9883173, 36.1708111], [-95.9882776, 36.1708104], [-95.988275, 36.1709056], [-95.9883405, 36.1709068], [-95.9883395, 36.1709414]]]}, "properties": {"osm_id": 1259751930, "building": "detached", "name": "", "height": null, "height_m": null, "levels": null, "tract_id": "40143001000", "tract_name": "10", "tags": {"addr:city": "Tulsa", "addr:country": "US", "addr:housenumber": "516", "addr:postcode": "74106", "addr:state": "OK", "addr:street": "East Latimer Court North", "building": "detached"}}}, {"type": "Feature", "geometry": {"type": "Polygon", "coordinates": [[[-95.9887464, 36.1707675], [-95.9887487, 36.1708909], [-95.9887586, 36.1708907], [-95.9887588, 36.1709015], [-95.9887909, 36.1709011], [-95.9887917, 36.1709423], [-95.9888695, 36.1709413], [-95.9888661, 36.170766], [-95.9887464, 36.1707675]]]}, "properties": {"osm_id": 1259751931, "building": "detached", "name": "", "height": null, "height_m": null, "levels": null, "tract_id": "40143001000", "tract_name": "10", "tags": {"addr:city": "Tulsa", "addr:country": "US", "addr:housenumber": "504", "addr:postcode": "74106", "addr:state": "OK", "addr:street": "East Latimer Court North", "building": "detached"}}}, {"type": "Feature", "geometry": {"type": "Polygon", "coordinates": [[[-95.9871652, 36.1709185], [-95.9872564, 36.1709194], [-95.9872561, 36.1709367], [-95.9873071, 36.1709373], [-95.9873091, 36.1708074], [-95.9872474, 36.1708067], [-95.9872468, 36.1708479], [-95.9871663, 36.1708471], [-95.9871652, 36.1709185]]]}, "properties": {"osm_id": 1259751932, "building": "detached", "name": "", "height": null, "height_m": null, "levels": null, "tract_id": "40143001000", "tract_name": "10", "tags": {"addr:city": "Tulsa", "addr:country": "US", "addr:housenumber": "542", "addr:postcode": "74106", "addr:state": "OK", "addr:street": "East Latimer Court North", "building": "detached"}}}, {"type": "Feature", "geometry": {"type": "Polygon", "coordinates": [[[-95.9927685, 36.1652482], [-95.9926551, 36.1650005], [-95.9925726, 36.1650252], [-95.9926859, 36.1652728], [-95.9927685, 36.1652482]]]}, "properties": {"osm_id": 1259751933, "building": "apartments", "name": "", "height": null, "height_m": null, "levels": null, "tract_id": "40143001000", "tract_name": "10", "tags": {"building": "apartments"}}}, {"type": "Feature", "geometry": {"type": "Polygon", "coordinates": [[[-95.9920498, 36.16513], [-95.9919931, 36.165174], [-95.9920212, 36.1651976], [-95.9918859, 36.1653026], [-95.9918631, 36.1652834], [-95.9918087, 36.1653256], [-95.9919514, 36.1654456], [-95.9920081, 36.1654017], [-95.9919793, 36.1653774], [-95.9921146, 36.1652725], [-95.9921387, 36.1652928], [-95.9921932, 36.1652506], [-95.9920498, 36.16513]]]}, "properties": {"osm_id": 1259751934, "building": "apartments", "name": "", "height": null, "height_m": null, "levels": null, "tract_id": "40143001000", "tract_name": "10", "tags": {"building": "apartments"}}}, {"type": "Feature", "geometry": {"type": "Polygon", "coordinates": [[[-95.9876361, 36.170669], [-95.9876354, 36.170736], [-95.987697, 36.1707365], [-95.9876978, 36.1706694], [-95.9876361, 36.170669]]]}, "properties": {"osm_id": 1259751936, "building": "yes", "name": "", "height": null, "height_m": null, "levels": null, "tract_id": "40143001000", "tract_name": "10", "tags": {"building": "yes"}}}, {"type": "Feature", "geometry": {"type": "Polygon", "coordinates": [[[-95.9925136, 36.1644024], [-95.9925249, 36.164424], [-95.9924773, 36.1644402], [-95.992466, 36.1644186], [-95.9925136, 36.1644024]]]}, "properties": {"osm_id": 1259751937, "building": "yes", "name": "", "height": null, "height_m": null, "levels": null, "tract_id": "40143001000", "tract_name": "10", "tags": {"building": "yes"}}}, {"type": "Feature", "geometry": {"type": "Polygon", "coordinates": [[[-95.9920608, 36.1647198], [-95.9923592, 36.1648263], [-95.9923949, 36.1647611], [-95.9920965, 36.1646546], [-95.9920608, 36.1647198]]]}, "properties": {"osm_id": 1259751940, "building": "apartments", "name": "", "height": null, "height_m": null, "levels": null, "tract_id": "40143001000", "tract_name": "10", "tags": {"building": "apartments"}}}, {"type": "Feature", "geometry": {"type": "Polygon", "coordinates": [[[-95.9917228, 36.1648486], [-95.9920472, 36.1648537], [-95.9920489, 36.1647823], [-95.9917245, 36.1647772], [-95.9917228, 36.1648486]]]}, "properties": {"osm_id": 1259751941, "building": "apartments", "name": "", "height": null, "height_m": null, "levels": null, "tract_id": "40143001000", "tract_name": "10", "tags": {"building": "apartments"}}}, {"type": "Feature", "geometry": {"type": "Polygon", "coordinates": [[[-95.9910864, 36.1651562], [-95.9908509, 36.1653386], [-95.9909125, 36.1653905], [-95.991148, 36.165208], [-95.9910864, 36.1651562]]]}, "properties": {"osm_id": 1259751942, "building": "apartments", "name": "", "height": null, "height_m": null, "levels": null, "tract_id": "40143001000", "tract_name": "10", "tags": {"building": "apartments"}}}, {"type": "Feature", "geometry": {"type": "Polygon", "coordinates": [[[-95.9911619, 36.1649055], [-95.9909353, 36.1650919], [-95.9909981, 36.1651416], [-95.9912247, 36.1649553], [-95.9911619, 36.1649055]]]}, "properties": {"osm_id": 1259751943, "building": "apartments", "name": "", "height": null, "height_m": null, "levels": null, "tract_id": "40143001000", "tract_name": "10", "tags": {"building": "apartments"}}}, {"type": "Feature", "geometry": {"type": "Polygon", "coordinates": [[[-95.9914793, 36.1648392], [-95.9912403, 36.1650185], [-95.9913005, 36.1650708], [-95.9915395, 36.1648915], [-95.9914793, 36.1648392]]]}, "properties": {"osm_id": 1259751944, "building": "apartments", "name": "", "height": null, "height_m": null, "levels": null, "tract_id": "40143001000", "tract_name": "10", "tags": {"building": "apartments"}}}, {"type": "Feature", "geometry": {"type": "Polygon", "coordinates": [[[-95.9875676, 36.1672146], [-95.9875183, 36.167245], [-95.9874493, 36.1671719], [-95.9874985, 36.1671416], [-95.9875676, 36.1672146]]]}, "properties": {"osm_id": 1323970014, "building": "yes", "name": "", "height": null, "height_m": null, "levels": null, "tract_id": "40143001000", "tract_name": "10", "tags": {"building": "yes"}}}, {"type": "Feature", "geometry": {"type": "Polygon", "coordinates": [[[-95.9879646, 36.1678112], [-95.9877983, 36.1678621], [-95.98764, 36.1679043], [-95.9874771, 36.1679346], [-95.9873322, 36.1679552], [-95.9871874, 36.1679666], [-95.9870868, 36.1679698], [-95.9870848, 36.1679471], [-95.9870412, 36.1679481], [-95.9870406, 36.1679065], [-95.9870486, 36.1678556], [-95.987062, 36.167815], [-95.9870828, 36.1677733], [-95.9871297, 36.1677728], [-95.9871291, 36.1677457], [-95.987184, 36.1677435], [-95.987178, 36.1676834], [-95.9871646, 36.1676082], [-95.9871398, 36.1675411], [-95.9870929, 36.1674453], [-95.9870399, 36.1674631], [-95.9870178, 36.1674209], [-95.9869923, 36.1673381], [-95.9869829, 36.1672764], [-95.9869789, 36.1672092], [-95.9869842, 36.1671275], [-95.9870774, 36.1671361], [-95.9873396, 36.1670918], [-95.9874, 36.1673386], [-95.9876192, 36.1673018], [-95.9877084, 36.1676499], [-95.9878526, 36.1676044], [-95.9879646, 36.1678112]]]}, "properties": {"osm_id": 1323970016, "building": "university", "name": "", "height": null, "height_m": null, "levels": null, "tract_id": "40143001000", "tract_name": "10", "tags": {"addr:city": "Tulsa", "addr:country": "US", "addr:housenumber": "914", "addr:postcode": "74106", "addr:state": "OK", "addr:street": "North Greenwood Avenue East", "building": "university"}}}, {"type": "Feature", "geometry": {"type": "Polygon", "coordinates": [[[-95.9886206, 36.1731572], [-95.9887279, 36.1731566], [-95.9887264, 36.1730007], [-95.9886396, 36.1730012], [-95.98864, 36.1730467], [-95.9886195, 36.1730468], [-95.9886206, 36.1731572]]]}, "properties": {"osm_id": 1323970052, "building": "detached", "name": "", "height": null, "height_m": null, "levels": null, "tract_id": "40143001000", "tract_name": "10", "tags": {"addr:city": "Tulsa", "addr:country": "US", "addr:housenumber": "505", "addr:postcode": "74106", "addr:state": "OK", "addr:street": "East Marshall Place North", "building": "detached"}}}, {"type": "Feature", "geometry": {"type": "Polygon", "coordinates": [[[-95.9873706, 36.1740182], [-95.9872885, 36.174019], [-95.9872894, 36.1740788], [-95.9871902, 36.1740798], [-95.9871918, 36.1741867], [-95.9873732, 36.1741848], [-95.9873706, 36.1740182]]]}, "properties": {"osm_id": 1323970053, "building": "detached", "name": "", "height": null, "height_m": null, "levels": null, "tract_id": "40143001000", "tract_name": "10", "tags": {"addr:city": "Tulsa", "addr:country": "US", "addr:housenumber": "539", "addr:postcode": "74106", "addr:state": "OK", "addr:street": "East Newton Place North", "building": "detached"}}}, {"type": "Feature", "geometry": {"type": "Polygon", "coordinates": [[[-95.9879477, 36.172758], [-95.9880442, 36.172759], [-95.9880465, 36.1726183], [-95.9879955, 36.1726178], [-95.9879952, 36.1726365], [-95.9879496, 36.172636], [-95.9879477, 36.172758]]]}, "properties": {"osm_id": 1323970054, "building": "detached", "name": "", "height": null, "height_m": null, "levels": null, "tract_id": "40143001000", "tract_name": "10", "tags": {"addr:city": "Tulsa", "addr:country": "US", "addr:housenumber": "524", "addr:postcode": "74106", "addr:state": "OK", "addr:street": "East Marshall Place North", "building": "detached"}}}, {"type": "Feature", "geometry": {"type": "Polygon", "coordinates": [[[-95.9855238, 36.1703693], [-95.9854754, 36.1703689], [-95.9854755, 36.1703609], [-95.9854128, 36.1703604], [-95.9854133, 36.1703141], [-95.9853382, 36.1703135], [-95.9853364, 36.170465], [-95.9855227, 36.1704665], [-95.9855238, 36.1703693]]]}, "properties": {"osm_id": 1323970055, "building": "detached", "name": "", "height": null, "height_m": null, "levels": null, "tract_id": "40143001000", "tract_name": "10", "tags": {"addr:city": "Tulsa", "addr:country": "US", "addr:housenumber": "627", "addr:postcode": "74106", "addr:state": "OK", "addr:street": "East Latimer Place North", "building": "detached"}}}, {"type": "Feature", "geometry": {"type": "Polygon", "coordinates": [[[-95.988128, 36.1725553], [-95.9881314, 36.1727198], [-95.9882199, 36.1727186], [-95.9882165, 36.1725541], [-95.988128, 36.1725553]]]}, "properties": {"osm_id": 1323970056, "building": "detached", "name": "", "height": null, "height_m": null, "levels": null, "tract_id": "40143001000", "tract_name": "10", "tags": {"addr:city": "Tulsa", "addr:country": "US", "addr:housenumber": "518", "addr:postcode": "74106", "addr:state": "OK", "addr:street": "East Marshall Place North", "building": "detached"}}}, {"type": "Feature", "geometry": {"type": "Polygon", "coordinates": [[[-95.9887197, 36.1750968], [-95.9887212, 36.1752157], [-95.9888285, 36.1752149], [-95.988827, 36.1750959], [-95.9887197, 36.1750968]]]}, "properties": {"osm_id": 1323970057, "building": "detached", "name": "", "height": null, "height_m": null, "levels": null, "tract_id": "40143001000", "tract_name": "10", "tags": {"addr:city": "Tulsa", "addr:country": "US", "addr:housenumber": "503", "addr:postcode": "74106", "addr:state": "OK", "addr:street": "East Oklahoma Street North", "building": "detached"}}}, {"type": "Feature", "geometry": {"type": "Polygon", "coordinates": [[[-95.9878515, 36.1717313], [-95.9877281, 36.1717332], [-95.9877302, 36.1718198], [-95.9878536, 36.1718179], [-95.9878515, 36.1717313]]]}, "properties": {"osm_id": 1323970058, "building": "detached", "name": "", "height": null, "height_m": null, "levels": null, "tract_id": "40143001000", "tract_name": "10", "tags": {"addr:city": "Tulsa", "addr:country": "US", "addr:housenumber": "528", "addr:postcode": "74106", "addr:state": "OK", "addr:street": "East Marshall Street North", "building": "detached"}}}, {"type": "Feature", "geometry": {"type": "Polygon", "coordinates": [[[-95.9875827, 36.1761784], [-95.9877743, 36.1761807], [-95.987777, 36.1760595], [-95.9876145, 36.1760575], [-95.9876137, 36.1761008], [-95.9875842, 36.1761005], [-95.9875827, 36.1761784]]]}, "properties": {"osm_id": 1323970059, "building": "detached", "name": "", "height": null, "height_m": null, "levels": null, "tract_id": "40143001000", "tract_name": "10", "tags": {"addr:city": "Tulsa", "addr:country": "US", "addr:housenumber": "1434", "addr:postcode": "74106", "addr:state": "OK", "addr:street": "North Frankfort Place East", "building": "detached"}}}, {"type": "Feature", "geometry": {"type": "Polygon", "coordinates": [[[-95.9883906, 36.1747308], [-95.9884978, 36.1747289], [-95.9884931, 36.1745514], [-95.9883858, 36.1745533], [-95.9883906, 36.1747308]]]}, "properties": {"osm_id": 1323970060, "building": "detached", "name": "", "height": null, "height_m": null, "levels": null, "tract_id": "40143001000", "tract_name": "10", "tags": {"addr:city": "Tulsa", "addr:country": "US", "addr:housenumber": "512", "addr:postcode": "74106", "addr:state": "OK", "addr:street": "East Oklahoma Street North", "building": "detached"}}}, {"type": "Feature", "geometry": {"type": "Polygon", "coordinates": [[[-95.9861359, 36.1713766], [-95.9862298, 36.1713774], [-95.9862301, 36.1713501], [-95.9863535, 36.1713511], [-95.9863551, 36.171229], [-95.9861379, 36.1712272], [-95.9861359, 36.1713766]]]}, "properties": {"osm_id": 1323970061, "building": "detached", "name": "", "height": null, "height_m": null, "levels": null, "tract_id": "40143001000", "tract_name": "10", "tags": {"addr:city": "Tulsa", "addr:country": "US", "addr:housenumber": "609", "addr:postcode": "74106", "addr:state": "OK", "addr:street": "East Latimer Court North", "building": "detached"}}}, {"type": "Feature", "geometry": {"type": "Polygon", "coordinates": [[[-95.9854664, 36.1729575], [-95.9852948, 36.1729558], [-95.9852894, 36.1733043], [-95.985461, 36.1733061], [-95.9854664, 36.1729575]]]}, "properties": {"osm_id": 1323970062, "building": "church", "name": "Saint Monicas Catholic Church", "height": null, "height_m": null, "levels": null, "tract_id": "40143001000", "tract_name": "10", "tags": {"addr:city": "Tulsa", "addr:country": "US", "addr:housenumber": "633", "addr:postcode": "74106", "addr:state": "OK", "addr:street": "East Marshall Place North", "amenity": "place_of_worship", "building": "church", "denomination": "catholic", "ele": "207", "gnis:feature_id": "1789958", "name": "Saint Monicas Catholic Church", "religion": "christian", "website": "https://www.stmonica-tulsa.org/"}}}, {"type": "Feature", "geometry": {"type": "Polygon", "coordinates": [[[-95.9878469, 36.1766044], [-95.987775, 36.1765703], [-95.9878286, 36.1764967], [-95.987727, 36.1764485], [-95.9875953, 36.1766293], [-95.9877689, 36.1767116], [-95.9878469, 36.1766044]]]}, "properties": {"osm_id": 1323970063, "building": "detached", "name": "", "height": null, "height_m": null, "levels": null, "tract_id": "40143001000", "tract_name": "10", "tags": {"addr:city": "Tulsa", "addr:country": "US", "addr:housenumber": "1446", "addr:postcode": "74106", "addr:state": "OK", "addr:street": "North Frankfort Place East", "building": "detached"}}}, {"type": "Feature", "geometry": {"type": "Polygon", "coordinates": [[[-95.9887683, 36.1727581], [-95.9888809, 36.172759], [-95.9888826, 36.1726205], [-95.98877, 36.1726196], [-95.9887683, 36.1727581]]]}, "properties": {"osm_id": 1323970064, "building": "detached", "name": "", "height": null, "height_m": null, "levels": null, "tract_id": "40143001000", "tract_name": "10", "tags": {"addr:city": "Tulsa", "addr:country": "US", "addr:housenumber": "504", "addr:postcode": "74106", "addr:state": "OK", "addr:street": "East Marshall Place North", "building": "detached"}}}, {"type": "Feature", "geometry": {"type": "Polygon", "coordinates": [[[-95.9878889, 36.175036], [-95.9877549, 36.1750387], [-95.9877597, 36.1751924], [-95.9878937, 36.1751896], [-95.9878889, 36.175036]]]}, "properties": {"osm_id": 1323970065, "building": "detached", "name": "", "height": null, "height_m": null, "levels": null, "tract_id": "40143001000", "tract_name": "10", "tags": {"addr:city": "Tulsa", "addr:country": "US", "addr:housenumber": "529", "addr:postcode": "74106", "addr:state": "OK", "addr:street": "East Oklahoma Street North", "building": "detached"}}}, {"type": "Feature", "geometry": {"type": "Polygon", "coordinates": [[[-95.9848516, 36.1713216], [-95.9848492, 36.171209], [-95.984691, 36.1712113], [-95.9846934, 36.1713217], [-95.9847512, 36.1713209], [-95.9847513, 36.171323], [-95.9848516, 36.1713216]]]}, "properties": {"osm_id": 1323970066, "building": "detached", "name": "", "height": null, "height_m": null, "levels": null, "tract_id": "40143001000", "tract_name": "10", "tags": {"addr:city": "Tulsa", "addr:country": "US", "addr:housenumber": "647", "addr:postcode": "74106", "addr:state": "OK", "addr:street": "East Latimer Court North", "building": "detached"}}}, {"type": "Feature", "geometry": {"type": "Polygon", "coordinates": [[[-95.9864026, 36.1709396], [-95.986447, 36.1709401], [-95.9864474, 36.1709171], [-95.9865451, 36.1709181], [-95.9865471, 36.1707982], [-95.986598, 36.1707988], [-95.9865997, 36.1706992], [-95.9864817, 36.1706979], [-95.9864811, 36.1707304], [-95.986406, 36.1707296], [-95.9864026, 36.1709396]]]}, "properties": {"osm_id": 1323970067, "building": "detached", "name": "", "height": null, "height_m": null, "levels": null, "tract_id": "40143001000", "tract_name": "10", "tags": {"addr:city": "Tulsa", "addr:country": "US", "addr:housenumber": "1143", "addr:postcode": "74106", "addr:state": "OK", "addr:street": "North Greenwood Avenue East", "building": "detached"}}}, {"type": "Feature", "geometry": {"type": "Polygon", "coordinates": [[[-95.9881859, 36.1735806], [-95.9881843, 36.1736845], [-95.9882942, 36.1736856], [-95.9882937, 36.1737151], [-95.9883715, 36.1737159], [-95.9883735, 36.1735897], [-95.9884066, 36.17359], [-95.9884075, 36.1735374], [-95.9882805, 36.1735361], [-95.9882798, 36.1735815], [-95.9881859, 36.1735806]]]}, "properties": {"osm_id": 1323970068, "building": "detached", "name": "", "height": null, "height_m": null, "levels": null, "tract_id": "40143001000", "tract_name": "10", "tags": {"addr:city": "Tulsa", "addr:country": "US", "addr:housenumber": "520", "addr:postcode": "74106", "addr:state": "OK", "addr:street": "East Newton Place North", "building": "detached"}}}, {"type": "Feature", "geometry": {"type": "Polygon", "coordinates": [[[-95.9848557, 36.1718266], [-95.9849415, 36.1718254], [-95.9849408, 36.1717908], [-95.984988, 36.1717902], [-95.9849857, 36.1716798], [-95.9849107, 36.1716808], [-95.9849112, 36.1717067], [-95.9848533, 36.1717075], [-95.9848557, 36.1718266]]]}, "properties": {"osm_id": 1323970069, "building": "detached", "name": "", "height": null, "height_m": null, "levels": null, "tract_id": "40143001000", "tract_name": "10", "tags": {"addr:city": "Tulsa", "addr:country": "US", "addr:housenumber": "644", "addr:postcode": "74106", "addr:state": "OK", "addr:street": "East Marshall Street North", "building": "detached"}}}, {"type": "Feature", "geometry": {"type": "Polygon", "coordinates": [[[-95.9871014, 36.1694131], [-95.9869968, 36.1694117], [-95.9869963, 36.1694377], [-95.9869507, 36.1694371], [-95.986948, 36.169567], [-95.9870499, 36.1695683], [-95.9870508, 36.1695229], [-95.9870991, 36.1695235], [-95.9871014, 36.1694131]]]}, "properties": {"osm_id": 1323970070, "building": "detached", "name": "", "height": null, "height_m": null, "levels": null, "tract_id": "40143001000", "tract_name": "10", "tags": {"addr:city": "Tulsa", "addr:country": "US", "addr:housenumber": "545", "addr:postcode": "74106", "addr:state": "OK", "addr:street": "East Latimer Street North", "building": "detached"}}}, {"type": "Feature", "geometry": {"type": "Polygon", "coordinates": [[[-95.9857451, 36.1704312], [-95.9857467, 36.1703273], [-95.985567, 36.1703255], [-95.9855654, 36.1704307], [-95.9856339, 36.1704314], [-95.9856334, 36.170466], [-95.985691, 36.1704666], [-95.9856915, 36.1704306], [-95.9857451, 36.1704312]]]}, "properties": {"osm_id": 1323970071, "building": "detached", "name": "", "height": null, "height_m": null, "levels": null, "tract_id": "40143001000", "tract_name": "10", "tags": {"addr:city": "Tulsa", "addr:country": "US", "addr:housenumber": "623", "addr:postcode": "74106", "addr:state": "OK", "addr:street": "East Latimer Place North", "building": "detached"}}}, {"type": "Feature", "geometry": {"type": "Polygon", "coordinates": [[[-95.9881963, 36.1761906], [-95.9882902, 36.1761916], [-95.9882897, 36.1762184], [-95.9883874, 36.1762195], [-95.9883899, 36.176078], [-95.9881983, 36.1760758], [-95.9881963, 36.1761906]]]}, "properties": {"osm_id": 1323970072, "building": "detached", "name": "", "height": null, "height_m": null, "levels": null, "tract_id": "40143001000", "tract_name": "10", "tags": {"addr:city": "Tulsa", "addr:country": "US", "addr:housenumber": "517", "addr:postcode": "74106", "addr:state": "OK", "addr:street": "East Oklahoma Place North", "building": "detached"}}}, {"type": "Feature", "geometry": {"type": "Polygon", "coordinates": [[[-95.9875596, 36.1729641], [-95.9874604, 36.1729634], [-95.9874589, 36.1730911], [-95.9875582, 36.1730918], [-95.9875596, 36.1729641]]]}, "properties": {"osm_id": 1323970073, "building": "detached", "name": "", "height": null, "height_m": null, "levels": null, "tract_id": "40143001000", "tract_name": "10", "tags": {"addr:city": "Tulsa", "addr:country": "US", "addr:housenumber": "533", "addr:postcode": "74106", "addr:state": "OK", "addr:street": "East Marshall Place North", "building": "detached"}}}, {"type": "Feature", "geometry": {"type": "Polygon", "coordinates": [[[-95.986545, 36.1739931], [-95.9863868, 36.173995], [-95.9863932, 36.1743435], [-95.9865515, 36.1743416], [-95.986545, 36.1739931]]]}, "properties": {"osm_id": 1323970074, "building": "apartments", "name": "", "height": null, "height_m": null, "levels": null, "tract_id": "40143001000", "tract_name": "10", "tags": {"building": "apartments"}}}, {"type": "Feature", "geometry": {"type": "Polygon", "coordinates": [[[-95.9883465, 36.1741171], [-95.9883975, 36.1741179], [-95.9883967, 36.1741512], [-95.9884664, 36.1741524], [-95.9884673, 36.1741169], [-95.9885815, 36.1741188], [-95.9885843, 36.1740071], [-95.9883494, 36.1740032], [-95.9883465, 36.1741171]]]}, "properties": {"osm_id": 1323970075, "building": "detached", "name": "", "height": null, "height_m": null, "levels": null, "tract_id": "40143001000", "tract_name": "10", "tags": {"addr:city": "Tulsa", "addr:country": "US", "addr:housenumber": "509", "addr:postcode": "74106", "addr:state": "OK", "addr:street": "East Newton Place North", "building": "detached"}}}, {"type": "Feature", "geometry": {"type": "Polygon", "coordinates": [[[-95.9880823, 36.1718158], [-95.9881359, 36.1718171], [-95.9881349, 36.171843], [-95.9882233, 36.1718452], [-95.9882279, 36.1717219], [-95.9880859, 36.1717184], [-95.9880823, 36.1718158]]]}, "properties": {"osm_id": 1323970076, "building": "detached", "name": "", "height": null, "height_m": null, "levels": null, "tract_id": "40143001000", "tract_name": "10", "tags": {"addr:city": "Tulsa", "addr:country": "US", "addr:housenumber": "518", "addr:postcode": "74106", "addr:state": "OK", "addr:street": "East Marshall Street North", "building": "detached"}}}, {"type": "Feature", "geometry": {"type": "Polygon", "coordinates": [[[-95.9881878, 36.1700287], [-95.9883728, 36.1700328], [-95.9883772, 36.1698986], [-95.9881923, 36.1698946], [-95.9881878, 36.1700287]]]}, "properties": {"osm_id": 1323970077, "building": "detached", "name": "", "height": null, "height_m": null, "levels": null, "tract_id": "40143001000", "tract_name": "10", "tags": {"addr:city": "Tulsa", "addr:country": "US", "addr:housenumber": "518", "addr:postcode": "74106", "addr:state": "OK", "addr:street": "East Latimer Place North", "building": "detached"}}}, {"type": "Feature", "geometry": {"type": "Polygon", "coordinates": [[[-95.9874304, 36.1695959], [-95.9875457, 36.169597], [-95.9875479, 36.1694498], [-95.9875184, 36.1694495], [-95.9875189, 36.1694127], [-95.9874331, 36.1694119], [-95.9874304, 36.1695959]]]}, "properties": {"osm_id": 1323970078, "building": "detached", "name": "", "height": null, "height_m": null, "levels": null, "tract_id": "40143001000", "tract_name": "10", "tags": {"addr:city": "Tulsa", "addr:country": "US", "addr:housenumber": "535", "addr:postcode": "74106", "addr:state": "OK", "addr:street": "East Latimer Street North", "building": "detached"}}}, {"type": "Feature", "geometry": {"type": "Polygon", "coordinates": [[[-95.9859892, 36.1742102], [-95.9863082, 36.1742053], [-95.9863052, 36.1740754], [-95.9859861, 36.1740803], [-95.9859892, 36.1742102]]]}, "properties": {"osm_id": 1323970079, "building": "apartments", "name": "", "height": null, "height_m": null, "levels": null, "tract_id": "40143001000", "tract_name": "10", "tags": {"building": "apartments"}}}, {"type": "Feature", "geometry": {"type": "Polygon", "coordinates": [[[-95.9881495, 36.1735827], [-95.9879635, 36.17358], [-95.9879612, 36.1736839], [-95.9880684, 36.1736855], [-95.9880677, 36.1737166], [-95.9881465, 36.1737177], [-95.9881495, 36.1735827]]]}, "properties": {"osm_id": 1323970080, "building": "detached", "name": "", "height": null, "height_m": null, "levels": null, "tract_id": "40143001000", "tract_name": "10", "tags": {"addr:city": "Tulsa", "addr:country": "US", "addr:housenumber": "522", "addr:postcode": "74106", "addr:state": "OK", "addr:street": "East Newton Place North", "building": "detached"}}}, {"type": "Feature", "geometry": {"type": "Polygon", "coordinates": [[[-95.9880254, 36.1695791], [-95.9881997, 36.1695825], [-95.9882038, 36.169444], [-95.98811, 36.1694422], [-95.9881108, 36.1694141], [-95.9880304, 36.1694125], [-95.9880254, 36.1695791]]]}, "properties": {"osm_id": 1323970081, "building": "detached", "name": "", "height": null, "height_m": null, "levels": null, "tract_id": "40143001000", "tract_name": "10", "tags": {"addr:city": "Tulsa", "addr:country": "US", "addr:housenumber": "519", "addr:postcode": "74106", "addr:state": "OK", "addr:street": "East Latimer Street North", "building": "detached"}}}, {"type": "Feature", "geometry": {"type": "Polygon", "coordinates": [[[-95.9863844, 36.1737648], [-95.9866553, 36.1737667], [-95.9866563, 36.173678], [-95.9863854, 36.173676], [-95.9863844, 36.1737648]]]}, "properties": {"osm_id": 1323970082, "building": "church", "name": "First Church of God in Christ", "height": null, "height_m": null, "levels": null, "tract_id": "40143001000", "tract_name": "10", "tags": {"addr:city": "Tulsa", "addr:country": "US", "addr:housenumber": "1251", "addr:postcode": "74106", "addr:state": "OK", "addr:street": "North Greenwood Avenue East", "amenity": "place_of_worship", "building": "church", "ele": "208", "gnis:feature_id": "1789687", "name": "First Church of God in Christ", "religion": "christian", "website": "https://firstcogic.org/"}}}, {"type": "Feature", "geometry": {"type": "Polygon", "coordinates": [[[-95.9880675, 36.1760602], [-95.9880662, 36.1761244], [-95.9879804, 36.1761232], [-95.9879787, 36.1762085], [-95.9880645, 36.1762096], [-95.9880636, 36.1762564], [-95.9881279, 36.1762572], [-95.9881318, 36.1760611], [-95.9880675, 36.1760602]]]}, "properties": {"osm_id": 1323970083, "building": "detached", "name": "", "height": null, "height_m": null, "levels": null, "tract_id": "40143001000", "tract_name": "10", "tags": {"addr:city": "Tulsa", "addr:country": "US", "addr:housenumber": "523", "addr:postcode": "74106", "addr:state": "OK", "addr:street": "East Oklahoma Place North", "building": "detached"}}}, {"type": "Feature", "geometry": {"type": "Polygon", "coordinates": [[[-95.9856677, 36.1713166], [-95.9857669, 36.1713181], [-95.9857696, 36.1712078], [-95.9856704, 36.1712062], [-95.9856677, 36.1713166]]]}, "properties": {"osm_id": 1323970084, "building": "detached", "name": "", "height": null, "height_m": null, "levels": null, "tract_id": "40143001000", "tract_name": "10", "tags": {"addr:city": "Tulsa", "addr:country": "US", "addr:housenumber": "621", "addr:postcode": "74106", "addr:state": "OK", "addr:street": "East Latimer Court North", "building": "detached"}}}, {"type": "Feature", "geometry": {"type": "Polygon", "coordinates": [[[-95.9888787, 36.175641], [-95.9887795, 36.1756424], [-95.9887823, 36.1757671], [-95.9888815, 36.1757656], [-95.9888787, 36.175641]]]}, "properties": {"osm_id": 1323970085, "building": "detached", "name": "", "height": null, "height_m": null, "levels": null, "tract_id": "40143001000", "tract_name": "10", "tags": {"addr:city": "Tulsa", "addr:country": "US", "addr:housenumber": "502", "addr:postcode": "74106", "addr:state": "OK", "addr:street": "East Oklahoma Place North", "building": "detached"}}}, {"type": "Feature", "geometry": {"type": "Polygon", "coordinates": [[[-95.9877069, 36.1763539], [-95.9878303, 36.1763552], [-95.9878327, 36.1762137], [-95.9876262, 36.1762115], [-95.9876248, 36.1762945], [-95.9877079, 36.1762954], [-95.9877069, 36.1763539]]]}, "properties": {"osm_id": 1323970086, "building": "detached", "name": "", "height": null, "height_m": null, "levels": null, "tract_id": "40143001000", "tract_name": "10", "tags": {"addr:city": "Tulsa", "addr:country": "US", "addr:housenumber": "1440", "addr:postcode": "74106", "addr:state": "OK", "addr:street": "North Frankfort Place East", "building": "detached"}}}, {"type": "Feature", "geometry": {"type": "Polygon", "coordinates": [[[-95.9884837, 36.1688769], [-95.988772, 36.1688777], [-95.9887718, 36.1689134], [-95.9887717, 36.1689483], [-95.9888549, 36.1689485], [-95.988855, 36.1689136], [-95.9888552, 36.1688803], [-95.9888713, 36.1688803], [-95.9888719, 36.1687407], [-95.9889, 36.1687408], [-95.9889013, 36.1684116], [-95.9886962, 36.1684111], [-95.9886954, 36.168596], [-95.9884849, 36.1685954], [-95.9884837, 36.1688769]]]}, "properties": {"osm_id": 1323970087, "building": "church", "name": "Paradise Baptist Church", "height": null, "height_m": null, "levels": null, "tract_id": "40143001000", "tract_name": "10", "tags": {"addr:city": "Tulsa", "addr:country": "US", "addr:housenumber": "507", "addr:postcode": "74106", "addr:state": "OK", "addr:street": "East King Street North", "amenity": "place_of_worship", "building": "church", "denomination": "baptist", "ele": "217", "gnis:feature_id": "1789868", "name": "Paradise Baptist Church", "religion": "christian"}}}, {"type": "Feature", "geometry": {"type": "Polygon", "coordinates": [[[-95.9846608, 36.1718559], [-95.9847814, 36.1718573], [-95.9847845, 36.17169], [-95.984814, 36.1716903], [-95.9848159, 36.1715877], [-95.9846442, 36.1715856], [-95.9846429, 36.171658], [-95.9846644, 36.1716582], [-95.9846608, 36.1718559]]]}, "properties": {"osm_id": 1323970088, "building": "detached", "name": "", "height": null, "height_m": null, "levels": null, "tract_id": "40143001000", "tract_name": "10", "tags": {"addr:city": "Tulsa", "addr:country": "US", "addr:housenumber": "648", "addr:postcode": "74106", "addr:state": "OK", "addr:street": "East Marshall Street North", "building": "detached"}}}, {"type": "Feature", "geometry": {"type": "Polygon", "coordinates": [[[-95.9877436, 36.1700479], [-95.9878803, 36.1700501], [-95.9878833, 36.1699246], [-95.9877466, 36.1699224], [-95.9877436, 36.1700479]]]}, "properties": {"osm_id": 1323970089, "building": "detached", "name": "", "height": null, "height_m": null, "levels": null, "tract_id": "40143001000", "tract_name": "10", "tags": {"addr:city": "Tulsa", "addr:country": "US", "addr:housenumber": "526", "addr:postcode": "74106", "addr:state": "OK", "addr:street": "East Latimer Place North", "building": "detached"}}}, {"type": "Feature", "geometry": {"type": "Polygon", "coordinates": [[[-95.9860317, 36.174409], [-95.9860322, 36.1743341], [-95.9857731, 36.1743329], [-95.9857721, 36.1744671], [-95.9859196, 36.1744678], [-95.9859201, 36.1744085], [-95.9860317, 36.174409]]]}, "properties": {"osm_id": 1323970090, "building": "apartments", "name": "", "height": null, "height_m": null, "levels": null, "tract_id": "40143001000", "tract_name": "10", "tags": {"building": "apartments"}}}, {"type": "Feature", "geometry": {"type": "Polygon", "coordinates": [[[-95.9879575, 36.1718609], [-95.9880444, 36.1718599], [-95.9880418, 36.1717048], [-95.9879549, 36.1717058], [-95.9879575, 36.1718609]]]}, "properties": {"osm_id": 1323970091, "building": "detached", "name": "", "height": null, "height_m": null, "levels": null, "tract_id": "40143001000", "tract_name": "10", "tags": {"addr:city": "Tulsa", "addr:country": "US", "addr:housenumber": "522", "addr:postcode": "74106", "addr:state": "OK", "addr:street": "East Marshall Street North", "building": "detached"}}}, {"type": "Feature", "geometry": {"type": "Polygon", "coordinates": [[[-95.9874356, 36.1703561], [-95.9873323, 36.1703584], [-95.9873309, 36.1703173], [-95.9872466, 36.1703192], [-95.9872517, 36.1704685], [-95.9874393, 36.1704643], [-95.9874356, 36.1703561]]]}, "properties": {"osm_id": 1323970092, "building": "detached", "name": "", "height": null, "height_m": null, "levels": null, "tract_id": "40143001000", "tract_name": "10", "tags": {"addr:city": "Tulsa", "addr:country": "US", "addr:housenumber": "541", "addr:postcode": "74106", "addr:state": "OK", "addr:street": "East Latimer Place North", "building": "detached"}}}, {"type": "Feature", "geometry": {"type": "Polygon", "coordinates": [[[-95.9869944, 36.1731827], [-95.9870883, 36.1731841], [-95.9870871, 36.1732353], [-95.9871863, 36.1732367], [-95.9871875, 36.1731856], [-95.9873484, 36.173188], [-95.9873513, 36.1730573], [-95.9873141, 36.1730568], [-95.9869974, 36.1730521], [-95.9869944, 36.1731827]]]}, "properties": {"osm_id": 1323970093, "building": "detached", "name": "", "height": null, "height_m": null, "levels": null, "tract_id": "40143001000", "tract_name": "10", "tags": {"addr:city": "Tulsa", "addr:country": "US", "addr:housenumber": "543", "addr:postcode": "74106", "addr:state": "OK", "addr:street": "East Marshall Place North", "building": "detached"}}}, {"type": "Feature", "geometry": {"type": "Polygon", "coordinates": [[[-95.9887333, 36.1743117], [-95.9888475, 36.1743103], [-95.9888461, 36.1742322], [-95.9888249, 36.1742325], [-95.9888234, 36.1741537], [-95.9888506, 36.1741534], [-95.9888496, 36.1740998], [-95.9888224, 36.1741001], [-95.988822, 36.1740798], [-95.9888432, 36.1740795], [-95.9888418, 36.1740038], [-95.9887275, 36.1740052], [-95.9887333, 36.1743117]]]}, "properties": {"osm_id": 1323970094, "building": "detached", "name": "", "height": null, "height_m": null, "levels": null, "tract_id": "40143001000", "tract_name": "10", "tags": {"addr:city": "Tulsa", "addr:country": "US", "addr:housenumber": "1311", "addr:postcode": "74106", "addr:state": "OK", "addr:street": "N FRANKFORT AV E", "building": "detached"}}}, {"type": "Feature", "geometry": {"type": "Polygon", "coordinates": [[[-95.9850314, 36.1736919], [-95.9855098, 36.1736967], [-95.9855114, 36.1735919], [-95.9853612, 36.1735904], [-95.985362, 36.1735393], [-95.9852735, 36.1735384], [-95.9852725, 36.1736047], [-95.9850328, 36.1736023], [-95.9850314, 36.1736919]]]}, "properties": {"osm_id": 1323970095, "building": "yes", "name": "", "height": null, "height_m": null, "levels": null, "tract_id": "40143001000", "tract_name": "10", "tags": {"building": "yes"}}}, {"type": "Feature", "geometry": {"type": "Polygon", "coordinates": [[[-95.9863873, 36.1717137], [-95.9862306, 36.1717147], [-95.9862315, 36.1718026], [-95.9862744, 36.1718023], [-95.9862747, 36.1718248], [-95.9863884, 36.1718241], [-95.9863873, 36.1717137]]]}, "properties": {"osm_id": 1323970096, "building": "detached", "name": "", "height": null, "height_m": null, "levels": null, "tract_id": "40143001000", "tract_name": "10", "tags": {"addr:city": "Tulsa", "addr:country": "US", "addr:housenumber": "612", "addr:postcode": "74106", "addr:state": "OK", "addr:street": "East Marshall Street North", "building": "detached"}}}, {"type": "Feature", "geometry": {"type": "Polygon", "coordinates": [[[-95.985142, 36.1704504], [-95.98528, 36.1704491], [-95.9852785, 36.17034], [-95.9852195, 36.1703405], [-95.985219, 36.1703111], [-95.98514, 36.1703118], [-95.985142, 36.1704504]]]}, "properties": {"osm_id": 1323970097, "building": "detached", "name": "", "height": null, "height_m": null, "levels": null, "tract_id": "40143001000", "tract_name": "10", "tags": {"addr:city": "Tulsa", "addr:country": "US", "addr:housenumber": "635", "addr:postcode": "74106", "addr:state": "OK", "addr:street": "East Latimer Place North", "building": "detached"}}}, {"type": "Feature", "geometry": {"type": "Polygon", "coordinates": [[[-95.9873729, 36.1699691], [-95.9874748, 36.1699695], [-95.9874742, 36.1700497], [-95.9875413, 36.17005], [-95.9875425, 36.1698681], [-95.9873735, 36.1698673], [-95.9873729, 36.1699691]]]}, "properties": {"osm_id": 1323970098, "building": "detached", "name": "", "height": null, "height_m": null, "levels": null, "tract_id": "40143001000", "tract_name": "10", "tags": {"addr:city": "Tulsa", "addr:country": "US", "addr:housenumber": "534", "addr:postcode": "74106", "addr:state": "OK", "addr:street": "East Latimer Place North", "building": "detached"}}}, {"type": "Feature", "geometry": {"type": "Polygon", "coordinates": [[[-95.9874877, 36.1744858], [-95.9873456, 36.1744851], [-95.9873445, 36.1746237], [-95.9872935, 36.1746234], [-95.9872928, 36.1747165], [-95.987502, 36.1747176], [-95.9875027, 36.1746245], [-95.9874571, 36.1746243], [-95.9874578, 36.1745463], [-95.9874873, 36.1745465], [-95.9874877, 36.1744858]]]}, "properties": {"osm_id": 1323970099, "building": "church", "name": "Church of The Restoration Unitarian Universalist", "height": null, "height_m": null, "levels": null, "tract_id": "40143001000", "tract_name": "10", "tags": {"addr:city": "Tulsa", "addr:country": "US", "addr:housenumber": "1314", "addr:postcode": "74106", "addr:state": "OK", "addr:street": "North Greenwood Avenue East", "amenity": "place_of_worship", "building": "church", "check_date": "2022-09-17", "gnis:feature_id": "1810367", "name": "Church of The Restoration Unitarian Universalist", "religion": "unitarian_universalist"}}}, {"type": "Feature", "geometry": {"type": "Polygon", "coordinates": [[[-95.9859315, 36.1704531], [-95.9859347, 36.1703492], [-95.9858704, 36.170348], [-95.9858714, 36.1703155], [-95.9857936, 36.170314], [-95.9857894, 36.1704503], [-95.9859315, 36.1704531]]]}, "properties": {"osm_id": 1323970100, "building": "detached", "name": "", "height": null, "height_m": null, "levels": null, "tract_id": "40143001000", "tract_name": "10", "tags": {"addr:city": "Tulsa", "addr:country": "US", "addr:housenumber": "619", "addr:postcode": "74106", "addr:state": "OK", "addr:street": "East Latimer Place North", "building": "detached"}}}, {"type": "Feature", "geometry": {"type": "Polygon", "coordinates": [[[-95.9852955, 36.1716515], [-95.9853018, 36.1718298], [-95.9853527, 36.1718286], [-95.9853522, 36.1718156], [-95.9854047, 36.1718144], [-95.985404, 36.1717949], [-95.9854523, 36.1717938], [-95.985448, 36.1716727], [-95.9854078, 36.1716736], [-95.9854069, 36.1716489], [-95.9852955, 36.1716515]]]}, "properties": {"osm_id": 1323970101, "building": "detached", "name": "", "height": null, "height_m": null, "levels": null, "tract_id": "40143001000", "tract_name": "10", "tags": {"addr:city": "Tulsa", "addr:country": "US", "addr:housenumber": "632", "addr:postcode": "74106", "addr:state": "OK", "addr:street": "East Marshall Street North", "building": "detached"}}}, {"type": "Feature", "geometry": {"type": "Polygon", "coordinates": [[[-95.9877327, 36.1721977], [-95.9877332, 36.1721274], [-95.9876669, 36.1721271], [-95.9876669, 36.1721164], [-95.9876121, 36.1721162], [-95.9876114, 36.1722189], [-95.9876682, 36.1722191], [-95.9876683, 36.1721975], [-95.9877327, 36.1721977]]]}, "properties": {"osm_id": 1323970102, "building": "detached", "name": "", "height": null, "height_m": null, "levels": null, "tract_id": "40143001000", "tract_name": "10", "tags": {"addr:city": "Tulsa", "addr:country": "US", "addr:housenumber": "531", "addr:postcode": "74106", "addr:state": "OK", "addr:street": "East Marshall Street North", "building": "detached"}}}, {"type": "Feature", "geometry": {"type": "Polygon", "coordinates": [[[-95.9869331, 36.1741052], [-95.9869303, 36.1742098], [-95.9870225, 36.1742114], [-95.9870216, 36.1742431], [-95.9870796, 36.1742441], [-95.9870804, 36.1742146], [-95.9871152, 36.1742152], [-95.9871193, 36.1740607], [-95.9870808, 36.1740601], [-95.9870131, 36.1740589], [-95.9870118, 36.1741065], [-95.9869331, 36.1741052]]]}, "properties": {"osm_id": 1323970103, "building": "detached", "name": "", "height": null, "height_m": null, "levels": null, "tract_id": "40143001000", "tract_name": "10", "tags": {"addr:city": "Tulsa", "addr:country": "US", "addr:housenumber": "545", "addr:postcode": "74106", "addr:state": "OK", "addr:street": "East Newton Place North", "building": "detached"}}}, {"type": "Feature", "geometry": {"type": "Polygon", "coordinates": [[[-95.9873331, 36.1700082], [-95.9873339, 36.1699121], [-95.9871595, 36.1699112], [-95.9871584, 36.1700476], [-95.9872644, 36.1700482], [-95.9872648, 36.1700078], [-95.9873331, 36.1700082]]]}, "properties": {"osm_id": 1323970104, "building": "detached", "name": "", "height": null, "height_m": null, "levels": null, "tract_id": "40143001000", "tract_name": "10", "tags": {"addr:city": "Tulsa", "addr:country": "US", "addr:housenumber": "538", "addr:postcode": "74106", "addr:state": "OK", "addr:street": "East Latimer Place North", "building": "detached"}}}, {"type": "Feature", "geometry": {"type": "Polygon", "coordinates": [[[-95.9865866, 36.1712235], [-95.9865184, 36.1712243], [-95.9865181, 36.171207], [-95.9864415, 36.171208], [-95.9864447, 36.1713747], [-95.9865267, 36.1713736], [-95.9865273, 36.1714009], [-95.9865901, 36.1714001], [-95.9865866, 36.1712235]]]}, "properties": {"osm_id": 1323970105, "building": "detached", "name": "", "height": null, "height_m": null, "levels": null, "tract_id": "40143001000", "tract_name": "10", "tags": {"addr:city": "Tulsa", "addr:country": "US", "addr:housenumber": "603", "addr:postcode": "74106", "addr:state": "OK", "addr:street": "East Latimer Court North", "building": "detached"}}}, {"type": "Feature", "geometry": {"type": "Polygon", "coordinates": [[[-95.9864229, 36.1718314], [-95.9865033, 36.1718307], [-95.9865024, 36.1717593], [-95.9866059, 36.1717584], [-95.9866041, 36.1716177], [-95.9865381, 36.1716183], [-95.9865385, 36.1716486], [-95.9864205, 36.1716496], [-95.9864229, 36.1718314]]]}, "properties": {"osm_id": 1323970106, "building": "detached", "name": "", "height": null, "height_m": null, "levels": null, "tract_id": "40143001000", "tract_name": "10", "tags": {"addr:city": "Tulsa", "addr:country": "US", "addr:housenumber": "608", "addr:postcode": "74106", "addr:state": "OK", "addr:street": "East Marshall Street North", "building": "detached"}}}, {"type": "Feature", "geometry": {"type": "Polygon", "coordinates": [[[-95.9885553, 36.1730015], [-95.9885142, 36.1730009], [-95.9885144, 36.1729904], [-95.988468, 36.1729898], [-95.9884656, 36.1731154], [-95.9885531, 36.1731164], [-95.9885553, 36.1730015]]]}, "properties": {"osm_id": 1323970107, "building": "detached", "name": "", "height": null, "height_m": null, "levels": null, "tract_id": "40143001000", "tract_name": "10", "tags": {"addr:city": "Tulsa", "addr:country": "US", "addr:housenumber": "511", "addr:postcode": "74106", "addr:state": "OK", "addr:street": "East Marshall Place North", "building": "detached"}}}, {"type": "Feature", "geometry": {"type": "Polygon", "coordinates": [[[-95.9884424, 36.1700279], [-95.988657, 36.1700265], [-95.9886561, 36.1699421], [-95.9885944, 36.1699425], [-95.9885942, 36.1699208], [-95.9884991, 36.1699215], [-95.9884993, 36.1699409], [-95.9884415, 36.1699413], [-95.9884424, 36.1700279]]]}, "properties": {"osm_id": 1323970108, "building": "detached", "name": "", "height": null, "height_m": null, "levels": null, "tract_id": "40143001000", "tract_name": "10", "tags": {"addr:city": "Tulsa", "addr:country": "US", "addr:housenumber": "510", "addr:postcode": "74106", "addr:state": "OK", "addr:street": "East Latimer Place North", "building": "detached"}}}, {"type": "Feature", "geometry": {"type": "Polygon", "coordinates": [[[-95.988864, 36.1721422], [-95.9887751, 36.1721408], [-95.9887718, 36.1722845], [-95.9888607, 36.1722859], [-95.9888616, 36.1722463], [-95.9888733, 36.1722464], [-95.9888745, 36.1721966], [-95.9888628, 36.1721965], [-95.988864, 36.1721422]]]}, "properties": {"osm_id": 1323970109, "building": "detached", "name": "", "height": null, "height_m": null, "levels": null, "tract_id": "40143001000", "tract_name": "10", "tags": {"addr:city": "Tulsa", "addr:country": "US", "addr:housenumber": "1205", "addr:postcode": "74106", "addr:state": "OK", "addr:street": "N FRANKFORT AV E", "building": "detached"}}}, {"type": "Feature", "geometry": {"type": "Polygon", "coordinates": [[[-95.9885687, 36.1721181], [-95.9884614, 36.1721173], [-95.9884602, 36.1722104], [-95.9885005, 36.1722107], [-95.9885007, 36.1721869], [-95.9885678, 36.1721874], [-95.9885687, 36.1721181]]]}, "properties": {"osm_id": 1323970110, "building": "detached", "name": "", "height": null, "height_m": null, "levels": null, "tract_id": "40143001000", "tract_name": "10", "tags": {"addr:city": "Tulsa", "addr:country": "US", "addr:housenumber": "513", "addr:postcode": "74106", "addr:state": "OK", "addr:street": "East Marshall Street North", "building": "detached"}}}, {"type": "Feature", "geometry": {"type": "Polygon", "coordinates": [[[-95.9855116, 36.1708208], [-95.985511, 36.1709139], [-95.9856102, 36.1709144], [-95.9856101, 36.1709286], [-95.9857174, 36.1709291], [-95.9857178, 36.1708672], [-95.9856749, 36.170867], [-95.9856754, 36.1707869], [-95.9855842, 36.1707865], [-95.985584, 36.1708211], [-95.9855116, 36.1708208]]]}, "properties": {"osm_id": 1323970111, "building": "detached", "name": "", "height": null, "height_m": null, "levels": null, "tract_id": "40143001000", "tract_name": "10", "tags": {"addr:city": "Tulsa", "addr:country": "US", "addr:housenumber": "628", "addr:postcode": "74106", "addr:state": "OK", "addr:street": "East Latimer Court North", "building": "detached"}}}, {"type": "Feature", "geometry": {"type": "Polygon", "coordinates": [[[-95.988303, 36.1746533], [-95.9881233, 36.1746567], [-95.9881257, 36.174739], [-95.9883053, 36.1747356], [-95.988303, 36.1746533]]]}, "properties": {"osm_id": 1323970112, "building": "detached", "name": "", "height": null, "height_m": null, "levels": null, "tract_id": "40143001000", "tract_name": "10", "tags": {"addr:city": "Tulsa", "addr:country": "US", "addr:housenumber": "520", "addr:postcode": "74106", "addr:state": "OK", "addr:street": "East Oklahoma Street North", "building": "detached"}}}, {"type": "Feature", "geometry": {"type": "Polygon", "coordinates": [[[-95.9877643, 36.1747276], [-95.9878769, 36.17473], [-95.9878802, 36.1746275], [-95.9878239, 36.1746263], [-95.987823, 36.1746552], [-95.9877667, 36.1746541], [-95.9877643, 36.1747276]]]}, "properties": {"osm_id": 1323970113, "building": "detached", "name": "", "height": null, "height_m": null, "levels": null, "tract_id": "40143001000", "tract_name": "10", "tags": {"addr:city": "Tulsa", "addr:country": "US", "addr:housenumber": "528", "addr:postcode": "74106", "addr:state": "OK", "addr:street": "East Oklahoma Street North", "building": "detached"}}}, {"type": "Feature", "geometry": {"type": "Polygon", "coordinates": [[[-95.9846906, 36.170429], [-95.9847915, 36.1704305], [-95.9847917, 36.1704227], [-95.984857, 36.1704237], [-95.9848595, 36.1703168], [-95.9846933, 36.1703143], [-95.9846906, 36.170429]]]}, "properties": {"osm_id": 1323970114, "building": "detached", "name": "", "height": null, "height_m": null, "levels": null, "tract_id": "40143001000", "tract_name": "10", "tags": {"addr:city": "Tulsa", "addr:country": "US", "addr:housenumber": "645", "addr:postcode": "74106", "addr:state": "OK", "addr:street": "East Latimer Place North", "building": "detached"}}}, {"type": "Feature", "geometry": {"type": "Polygon", "coordinates": [[[-95.9888554, 36.1697934], [-95.9887241, 36.1697911], [-95.9887212, 36.169895], [-95.9886864, 36.1698944], [-95.9886828, 36.1700242], [-95.9887793, 36.1700259], [-95.9887798, 36.1700086], [-95.9889058, 36.1700109], [-95.988909, 36.169894], [-95.9888527, 36.169893], [-95.9888554, 36.1697934]]]}, "properties": {"osm_id": 1323970115, "building": "detached", "name": "", "height": null, "height_m": null, "levels": null, "tract_id": "40143001000", "tract_name": "10", "tags": {"addr:city": "Tulsa", "addr:country": "US", "addr:housenumber": "506", "addr:postcode": "74106", "addr:state": "OK", "addr:street": "East Latimer Place North", "building": "detached"}}}, {"type": "Feature", "geometry": {"type": "Polygon", "coordinates": [[[-95.9885389, 36.1718111], [-95.9885384, 36.1718336], [-95.988585, 36.1718344], [-95.9885879, 36.1717218], [-95.9884431, 36.1717194], [-95.9884408, 36.1718095], [-95.9885389, 36.1718111]]]}, "properties": {"osm_id": 1323970116, "building": "detached", "name": "", "height": null, "height_m": null, "levels": null, "tract_id": "40143001000", "tract_name": "10", "tags": {"addr:city": "Tulsa", "addr:country": "US", "addr:housenumber": "512", "addr:postcode": "74106", "addr:state": "OK", "addr:street": "East Marshall Street North", "building": "detached"}}}, {"type": "Feature", "geometry": {"type": "Polygon", "coordinates": [[[-95.9884772, 36.1734794], [-95.9884733, 36.1736785], [-95.9885923, 36.1736801], [-95.9885927, 36.1736584], [-95.9887231, 36.1736601], [-95.988725, 36.1735648], [-95.988658, 36.173564], [-95.9886586, 36.1735328], [-95.9885889, 36.173532], [-95.9885899, 36.1734808], [-95.9884772, 36.1734794]]]}, "properties": {"osm_id": 1323970117, "building": "detached", "name": "", "height": null, "height_m": null, "levels": null, "tract_id": "40143001000", "tract_name": "10", "tags": {"addr:city": "Tulsa", "addr:country": "US", "addr:housenumber": "510", "addr:postcode": "74106", "addr:state": "OK", "addr:street": "East Newton Place North", "building": "detached"}}}, {"type": "Feature", "geometry": {"type": "Polygon", "coordinates": [[[-95.9884042, 36.1720955], [-95.988305, 36.1720931], [-95.9882998, 36.1722344], [-95.988399, 36.1722367], [-95.9884042, 36.1720955]]]}, "properties": {"osm_id": 1323970118, "building": "detached", "name": "", "height": null, "height_m": null, "levels": null, "tract_id": "40143001000", "tract_name": "10", "tags": {"addr:city": "Tulsa", "addr:country": "US", "addr:housenumber": "515", "addr:postcode": "74106", "addr:state": "OK", "addr:street": "East Marshall Street North", "building": "detached"}}}, {"type": "Feature", "geometry": {"type": "Polygon", "coordinates": [[[-95.9871043, 36.1736537], [-95.9873505, 36.1736554], [-95.9873923, 36.1736557], [-95.9873934, 36.1735417], [-95.9871055, 36.1735398], [-95.9871043, 36.1736537]]]}, "properties": {"osm_id": 1323970119, "building": "yes", "name": "", "height": null, "height_m": null, "levels": null, "tract_id": "40143001000", "tract_name": "10", "tags": {"addr:city": "Tulsa", "addr:country": "US", "addr:housenumber": "540", "addr:postcode": "74106", "addr:state": "OK", "addr:street": "East Newton Place North", "building": "yes"}}}, {"type": "Feature", "geometry": {"type": "Polygon", "coordinates": [[[-95.9876979, 36.1739961], [-95.9876975, 36.1741303], [-95.9879147, 36.1741308], [-95.987915, 36.1740486], [-95.9877879, 36.1740483], [-95.9877881, 36.1739963], [-95.9876979, 36.1739961]]]}, "properties": {"osm_id": 1323970120, "building": "detached", "name": "", "height": null, "height_m": null, "levels": null, "tract_id": "40143001000", "tract_name": "10", "tags": {"addr:city": "Tulsa", "addr:country": "US", "addr:housenumber": "527", "addr:postcode": "74106", "addr:state": "OK", "addr:street": "East Newton Place North", "building": "detached"}}}, {"type": "Feature", "geometry": {"type": "Polygon", "coordinates": [[[-95.9859898, 36.1746684], [-95.9863073, 36.1746639], [-95.9863044, 36.1745311], [-95.985987, 36.1745355], [-95.9859898, 36.1746684]]]}, "properties": {"osm_id": 1323970121, "building": "apartments", "name": "", "height": null, "height_m": null, "levels": null, "tract_id": "40143001000", "tract_name": "10", "tags": {"building": "apartments"}}}, {"type": "Feature", "geometry": {"type": "Polygon", "coordinates": [[[-95.9884723, 36.1695625], [-95.988534, 36.1695634], [-95.9885332, 36.1695967], [-95.9886002, 36.1695978], [-95.9886011, 36.1695623], [-95.9886386, 36.1695629], [-95.9886406, 36.1694771], [-95.9885495, 36.1694757], [-95.9885508, 36.1694186], [-95.9884758, 36.1694175], [-95.9884723, 36.1695625]]]}, "properties": {"osm_id": 1323970122, "building": "detached", "name": "", "height": null, "height_m": null, "levels": null, "tract_id": "40143001000", "tract_name": "10", "tags": {"addr:city": "Tulsa", "addr:country": "US", "addr:housenumber": "509", "addr:postcode": "74106", "addr:state": "OK", "addr:street": "East Latimer Street North", "building": "detached"}}}, {"type": "Feature", "geometry": {"type": "Polygon", "coordinates": [[[-95.9854246, 36.170775], [-95.9854266, 36.1707014], [-95.985342, 36.1706999], [-95.98534, 36.1707735], [-95.9854246, 36.170775]]]}, "properties": {"osm_id": 1323970123, "building": "garage", "name": "", "height": null, "height_m": null, "levels": null, "tract_id": "40143001000", "tract_name": "10", "tags": {"building": "garage"}}}, {"type": "Feature", "geometry": {"type": "Polygon", "coordinates": [[[-95.9881835, 36.1704913], [-95.988331, 36.1704887], [-95.9883278, 36.1703753], [-95.9882352, 36.170377], [-95.9882338, 36.1703272], [-95.988179, 36.1703282], [-95.9881835, 36.1704913]]]}, "properties": {"osm_id": 1323970124, "building": "detached", "name": "", "height": null, "height_m": null, "levels": null, "tract_id": "40143001000", "tract_name": "10", "tags": {"addr:city": "Tulsa", "addr:country": "US", "addr:housenumber": "515", "addr:postcode": "74106", "addr:state": "OK", "addr:street": "East Latimer Place North", "building": "detached"}}}, {"type": "Feature", "geometry": {"type": "Polygon", "coordinates": [[[-95.9869968, 36.1758029], [-95.9871673, 36.1758047], [-95.9871687, 36.175716], [-95.9871097, 36.1757153], [-95.9871102, 36.1756872], [-95.9873006, 36.1756892], [-95.9873031, 36.1755399], [-95.98711, 36.1755378], [-95.9871105, 36.1755096], [-95.9871695, 36.1755103], [-95.9871709, 36.1754215], [-95.9870031, 36.1754197], [-95.9869968, 36.1758029]]]}, "properties": {"osm_id": 1323970125, "building": "church", "name": "First Baptist Church", "height": null, "height_m": null, "levels": null, "tract_id": "40143001000", "tract_name": "10", "tags": {"addr:city": "Tulsa", "addr:country": "US", "addr:housenumber": "1414", "addr:postcode": "74106", "addr:state": "OK", "addr:street": "North Greenwood Avenue East", "amenity": "place_of_worship", "building": "church", "denomination": "baptist", "ele": "207", "gnis:feature_id": "1789688", "name": "First Baptist Church", "religion": "christian"}}}, {"type": "Feature", "geometry": {"type": "Polygon", "coordinates": [[[-95.9849869, 36.1703093], [-95.9849862, 36.1703634], [-95.9849138, 36.1703628], [-95.9849126, 36.1704559], [-95.9850628, 36.1704572], [-95.9850647, 36.17031], [-95.9849869, 36.1703093]]]}, "properties": {"osm_id": 1323970126, "building": "detached", "name": "", "height": null, "height_m": null, "levels": null, "tract_id": "40143001000", "tract_name": "10", "tags": {"addr:city": "Tulsa", "addr:country": "US", "addr:housenumber": "641", "addr:postcode": "74106", "addr:state": "OK", "addr:street": "East Latimer Place North", "building": "detached"}}}, {"type": "Feature", "geometry": {"type": "Polygon", "coordinates": [[[-95.9887512, 36.1694153], [-95.9887505, 36.1694897], [-95.9887263, 36.1694896], [-95.988725, 36.1696368], [-95.9888296, 36.1696375], [-95.9888316, 36.1694158], [-95.9887512, 36.1694153]]]}, "properties": {"osm_id": 1323970127, "building": "detached", "name": "", "height": null, "height_m": null, "levels": null, "tract_id": "40143001000", "tract_name": "10", "tags": {"addr:city": "Tulsa", "addr:country": "US", "addr:housenumber": "1107", "addr:postcode": "74106", "addr:state": "OK", "addr:street": "North Frankfort Avenue East", "building": "detached"}}}, {"type": "Feature", "geometry": {"type": "Polygon", "coordinates": [[[-95.9872753, 36.1715495], [-95.9871707, 36.171548], [-95.9871691, 36.1716208], [-95.9872737, 36.1716223], [-95.9872753, 36.1715495]]]}, "properties": {"osm_id": 1323970128, "building": "garage", "name": "", "height": null, "height_m": null, "levels": null, "tract_id": "40143001000", "tract_name": "10", "tags": {"building": "garage"}}}, {"type": "Feature", "geometry": {"type": "Polygon", "coordinates": [[[-95.9871923, 36.1690773], [-95.9872432, 36.1690771], [-95.9872433, 36.1690987], [-95.9873345, 36.1690984], [-95.9873336, 36.1689351], [-95.9871915, 36.1689356], [-95.9871923, 36.1690773]]]}, "properties": {"osm_id": 1323970129, "building": "detached", "name": "", "height": null, "height_m": null, "levels": null, "tract_id": "40143001000", "tract_name": "10", "tags": {"addr:city": "Tulsa", "addr:country": "US", "addr:housenumber": "540", "addr:postcode": "74106", "addr:state": "OK", "addr:street": "East Latimer Street North", "building": "detached"}}}, {"type": "Feature", "geometry": {"type": "Polygon", "coordinates": [[[-95.985361, 36.1708055], [-95.9853584, 36.1709258], [-95.985412, 36.1709266], [-95.9854115, 36.1709513], [-95.985477, 36.1709522], [-95.9854802, 36.1708072], [-95.985361, 36.1708055]]]}, "properties": {"osm_id": 1323970130, "building": "detached", "name": "", "height": null, "height_m": null, "levels": null, "tract_id": "40143001000", "tract_name": "10", "tags": {"addr:city": "Tulsa", "addr:country": "US", "addr:housenumber": "632", "addr:postcode": "74106", "addr:state": "OK", "addr:street": "East Latimer Court North", "building": "detached"}}}, {"type": "Feature", "geometry": {"type": "Polygon", "coordinates": [[[-95.9851932, 36.174653], [-95.985685, 36.1746481], [-95.985683, 36.174516], [-95.9851912, 36.1745209], [-95.9851932, 36.174653]]]}, "properties": {"osm_id": 1323970131, "building": "apartments", "name": "", "height": null, "height_m": null, "levels": null, "tract_id": "40143001000", "tract_name": "10", "tags": {"building": "apartments"}}}, {"type": "Feature", "geometry": {"type": "Polygon", "coordinates": [[[-95.9886839, 36.170503], [-95.9888395, 36.1705014], [-95.9888367, 36.1703261], [-95.9887616, 36.1703268], [-95.9887621, 36.1703571], [-95.9886816, 36.170358], [-95.9886839, 36.170503]]]}, "properties": {"osm_id": 1323970132, "building": "detached", "name": "", "height": null, "height_m": null, "levels": null, "tract_id": "40143001000", "tract_name": "10", "tags": {"addr:city": "Tulsa", "addr:country": "US", "addr:housenumber": "507", "addr:postcode": "74106", "addr:state": "OK", "addr:street": "East Latimer Place North", "building": "detached"}}}, {"type": "Feature", "geometry": {"type": "Polygon", "coordinates": [[[-95.9871458, 36.1716582], [-95.9871453, 36.1717326], [-95.986971, 36.1717318], [-95.9869704, 36.1718097], [-95.9872053, 36.1718108], [-95.9872055, 36.1717949], [-95.9872736, 36.1717952], [-95.9872746, 36.1716588], [-95.9871458, 36.1716582]]]}, "properties": {"osm_id": 1323970133, "building": "detached", "name": "", "height": null, "height_m": null, "levels": null, "tract_id": "40143001000", "tract_name": "10", "tags": {"addr:city": "Tulsa", "addr:country": "US", "addr:housenumber": "546", "addr:postcode": "74106", "addr:state": "OK", "addr:street": "East Marshall Street North", "building": "detached"}}}, {"type": "Feature", "geometry": {"type": "Polygon", "coordinates": [[[-95.988708, 36.1752169], [-95.9886502, 36.1752181], [-95.9886531, 36.1753047], [-95.9887109, 36.1753034], [-95.988708, 36.1752169]]]}, "properties": {"osm_id": 1323970134, "building": "garage", "name": "", "height": null, "height_m": null, "levels": null, "tract_id": "40143001000", "tract_name": "10", "tags": {"building": "garage"}}}, {"type": "Feature", "geometry": {"type": "Polygon", "coordinates": [[[-95.9876507, 36.1741089], [-95.9876485, 36.174005], [-95.9874206, 36.1740082], [-95.9874228, 36.1741121], [-95.9876507, 36.1741089]]]}, "properties": {"osm_id": 1323970135, "building": "detached", "name": "", "height": null, "height_m": null, "levels": null, "tract_id": "40143001000", "tract_name": "10", "tags": {"addr:city": "Tulsa", "addr:country": "US", "addr:housenumber": "535", "addr:postcode": "74106", "addr:state": "OK", "addr:street": "East Newton Place North", "building": "detached"}}}, {"type": "Feature", "geometry": {"type": "Polygon", "coordinates": [[[-95.9888472, 36.172565], [-95.9887722, 36.1725632], [-95.9887707, 36.1726021], [-95.9888458, 36.1726039], [-95.9888472, 36.172565]]]}, "properties": {"osm_id": 1323970136, "building": "garage", "name": "", "height": null, "height_m": null, "levels": null, "tract_id": "40143001000", "tract_name": "10", "tags": {"building": "garage"}}}, {"type": "Feature", "geometry": {"type": "Polygon", "coordinates": [[[-95.9871546, 36.1695612], [-95.9873303, 36.1695592], [-95.9873286, 36.1694575], [-95.9872401, 36.1694585], [-95.9872393, 36.1694108], [-95.9871521, 36.1694118], [-95.9871546, 36.1695612]]]}, "properties": {"osm_id": 1323970137, "building": "detached", "name": "", "height": null, "height_m": null, "levels": null, "tract_id": "40143001000", "tract_name": "10", "tags": {"addr:city": "Tulsa", "addr:country": "US", "addr:housenumber": "541", "addr:postcode": "74106", "addr:state": "OK", "addr:street": "East Latimer Street North", "building": "detached"}}}, {"type": "Feature", "geometry": {"type": "Polygon", "coordinates": [[[-95.9889106, 36.1736941], [-95.9889137, 36.1735686], [-95.9887706, 36.1735663], [-95.9887668, 36.1737221], [-95.9888446, 36.1737234], [-95.9888453, 36.1736931], [-95.9889106, 36.1736941]]]}, "properties": {"osm_id": 1323970138, "building": "detached", "name": "", "height": null, "height_m": null, "levels": null, "tract_id": "40143001000", "tract_name": "10", "tags": {"addr:city": "Tulsa", "addr:country": "US", "addr:housenumber": "502", "addr:postcode": "74106", "addr:state": "OK", "addr:street": "East Newton Place North", "building": "detached"}}}, {"type": "Feature", "geometry": {"type": "Polygon", "coordinates": [[[-95.9884233, 36.1695527], [-95.9884213, 36.1694467], [-95.9883382, 36.1694477], [-95.9883375, 36.1694152], [-95.9882504, 36.1694163], [-95.988253, 36.1695527], [-95.9883228, 36.1695518], [-95.9883234, 36.1695821], [-95.988389, 36.1695813], [-95.9883885, 36.1695532], [-95.9884233, 36.1695527]]]}, "properties": {"osm_id": 1323970139, "building": "detached", "name": "", "height": null, "height_m": null, "levels": null, "tract_id": "40143001000", "tract_name": "10", "tags": {"addr:city": "Tulsa", "addr:country": "US", "addr:housenumber": "515", "addr:postcode": "74106", "addr:state": "OK", "addr:street": "East Latimer Street North", "building": "detached"}}}, {"type": "Feature", "geometry": {"type": "Polygon", "coordinates": [[[-95.988395, 36.1729565], [-95.9883307, 36.1729579], [-95.9883315, 36.1729817], [-95.988294, 36.1729826], [-95.9882984, 36.1731102], [-95.988343, 36.1731092], [-95.9883445, 36.1731547], [-95.9884018, 36.1731534], [-95.988395, 36.1729565]]]}, "properties": {"osm_id": 1323970140, "building": "detached", "name": "", "height": null, "height_m": null, "levels": null, "tract_id": "40143001000", "tract_name": "10", "tags": {"addr:city": "Tulsa", "addr:country": "US", "addr:housenumber": "513", "addr:postcode": "74106", "addr:state": "OK", "addr:street": "East Marshall Place North", "building": "detached"}}}, {"type": "Feature", "geometry": {"type": "Polygon", "coordinates": [[[-95.9881281, 36.1751486], [-95.9881852, 36.1751476], [-95.9881845, 36.1751239], [-95.9882029, 36.1751235], [-95.9881996, 36.1750099], [-95.9881242, 36.1750113], [-95.9881281, 36.1751486]]]}, "properties": {"osm_id": 1323970141, "building": "detached", "name": "", "height": null, "height_m": null, "levels": null, "tract_id": "40143001000", "tract_name": "10", "tags": {"addr:city": "Tulsa", "addr:country": "US", "addr:housenumber": "519", "addr:postcode": "74106", "addr:state": "OK", "addr:street": "East Oklahoma Street North", "building": "detached"}}}, {"type": "Feature", "geometry": {"type": "Polygon", "coordinates": [[[-95.9887731, 36.1729876], [-95.9887754, 36.1731032], [-95.9888317, 36.1731025], [-95.9888313, 36.1730822], [-95.9889117, 36.1730811], [-95.9889099, 36.1729859], [-95.9887731, 36.1729876]]]}, "properties": {"osm_id": 1323970142, "building": "detached", "name": "", "height": null, "height_m": null, "levels": null, "tract_id": "40143001000", "tract_name": "10", "tags": {"addr:city": "Tulsa", "addr:country": "US", "addr:housenumber": "503", "addr:postcode": "74106", "addr:state": "OK", "addr:street": "East Marshall Place North", "building": "detached"}}}, {"type": "Feature", "geometry": {"type": "Polygon", "coordinates": [[[-95.9879689, 36.1704599], [-95.9880306, 36.1704602], [-95.9880304, 36.1704935], [-95.9880947, 36.1704938], [-95.988095, 36.1704592], [-95.9881352, 36.1704594], [-95.9881363, 36.170323], [-95.9880558, 36.1703226], [-95.9880555, 36.1703629], [-95.9879697, 36.1703625], [-95.9879689, 36.1704599]]]}, "properties": {"osm_id": 1323970143, "building": "detached", "name": "", "height": null, "height_m": null, "levels": null, "tract_id": "40143001000", "tract_name": "10", "tags": {"addr:city": "Tulsa", "addr:country": "US", "addr:housenumber": "521", "addr:postcode": "74106", "addr:state": "OK", "addr:street": "East Latimer Place North", "building": "detached"}}}, {"type": "Feature", "geometry": {"type": "Polygon", "coordinates": [[[-95.9858694, 36.1712104], [-95.985868, 36.1713316], [-95.9859098, 36.1713319], [-95.9859093, 36.1713731], [-95.9860579, 36.1713742], [-95.9860592, 36.1712638], [-95.9859615, 36.1712631], [-95.9859621, 36.1712111], [-95.9858694, 36.1712104]]]}, "properties": {"osm_id": 1323970144, "building": "detached", "name": "", "height": null, "height_m": null, "levels": null, "tract_id": "40143001000", "tract_name": "10", "tags": {"addr:city": "Tulsa", "addr:country": "US", "addr:housenumber": "619", "addr:postcode": "74106", "addr:state": "OK", "addr:street": "East Latimer Court North", "building": "detached"}}}, {"type": "Feature", "geometry": {"type": "Polygon", "coordinates": [[[-95.9854082, 36.1705923], [-95.9854618, 36.1705915], [-95.9854606, 36.1705373], [-95.9854069, 36.1705382], [-95.9854082, 36.1705923]]]}, "properties": {"osm_id": 1323970145, "building": "yes", "name": "", "height": null, "height_m": null, "levels": null, "tract_id": "40143001000", "tract_name": "10", "tags": {"building": "yes"}}}, {"type": "Feature", "geometry": {"type": "Polygon", "coordinates": [[[-95.9886081, 36.1750726], [-95.9884713, 36.175071], [-95.9884694, 36.1751793], [-95.9886062, 36.1751808], [-95.9886081, 36.1750726]]]}, "properties": {"osm_id": 1323970146, "building": "detached", "name": "", "height": null, "height_m": null, "levels": null, "tract_id": "40143001000", "tract_name": "10", "tags": {"addr:city": "Tulsa", "addr:country": "US", "addr:housenumber": "511", "addr:postcode": "74106", "addr:state": "OK", "addr:street": "East Oklahoma Street North", "building": "detached"}}}, {"type": "Feature", "geometry": {"type": "Polygon", "coordinates": [[[-95.9882741, 36.171737], [-95.9882766, 36.17183], [-95.9884187, 36.1718275], [-95.9884161, 36.1717345], [-95.9882741, 36.171737]]]}, "properties": {"osm_id": 1323970147, "building": "detached", "name": "", "height": null, "height_m": null, "levels": null, "tract_id": "40143001000", "tract_name": "10", "tags": {"addr:city": "Tulsa", "addr:country": "US", "addr:housenumber": "516", "addr:postcode": "74106", "addr:state": "OK", "addr:street": "East Marshall Street North", "building": "detached"}}}, {"type": "Feature", "geometry": {"type": "Polygon", "coordinates": [[[-95.9876854, 36.1735768], [-95.9876836, 36.173711], [-95.9878864, 36.1737129], [-95.9878882, 36.1735808], [-95.9878436, 36.1735804], [-95.9878442, 36.1735422], [-95.9877852, 36.1735417], [-95.9877847, 36.1735777], [-95.9876854, 36.1735768]]]}, "properties": {"osm_id": 1323970148, "building": "detached", "name": "", "height": null, "height_m": null, "levels": null, "tract_id": "40143001000", "tract_name": "10", "tags": {"addr:city": "Tulsa", "addr:country": "US", "addr:housenumber": "528", "addr:postcode": "74106", "addr:state": "OK", "addr:street": "East Newton Place North", "building": "detached"}}}, {"type": "Feature", "geometry": {"type": "Polygon", "coordinates": [[[-95.9869853, 36.1700464], [-95.9870965, 36.1700473], [-95.9870989, 36.1698568], [-95.9869876, 36.1698559], [-95.9869853, 36.1700464]]]}, "properties": {"osm_id": 1323970149, "building": "detached", "name": "", "height": null, "height_m": null, "levels": null, "tract_id": "40143001000", "tract_name": "10", "tags": {"addr:city": "Tulsa", "addr:country": "US", "addr:housenumber": "1124", "addr:postcode": "74106", "addr:state": "OK", "addr:street": "North Greenwood Avenue East", "building": "detached"}}}, {"type": "Feature", "geometry": {"type": "Polygon", "coordinates": [[[-95.9878292, 36.169629], [-95.9879713, 36.1696265], [-95.9879662, 36.1694361], [-95.9879045, 36.1694372], [-95.9879041, 36.1694198], [-95.9878236, 36.1694212], [-95.9878292, 36.169629]]]}, "properties": {"osm_id": 1323970150, "building": "detached", "name": "", "height": null, "height_m": null, "levels": null, "tract_id": "40143001000", "tract_name": "10", "tags": {"addr:city": "Tulsa", "addr:country": "US", "addr:housenumber": "525", "addr:postcode": "74106", "addr:state": "OK", "addr:street": "East Latimer Street North", "building": "detached"}}}, {"type": "Feature", "geometry": {"type": "Polygon", "coordinates": [[[-95.9877475, 36.169436], [-95.9876724, 36.1694356], [-95.9876721, 36.1694659], [-95.9876051, 36.1694654], [-95.987604, 36.1695694], [-95.9877462, 36.1695703], [-95.9877475, 36.169436]]]}, "properties": {"osm_id": 1323970151, "building": "detached", "name": "", "height": null, "height_m": null, "levels": null, "tract_id": "40143001000", "tract_name": "10", "tags": {"addr:city": "Tulsa", "addr:country": "US", "addr:housenumber": "531", "addr:postcode": "74106", "addr:state": "OK", "addr:street": "East Latimer Street North", "building": "detached"}}}, {"type": "Feature", "geometry": {"type": "Polygon", "coordinates": [[[-95.9882044, 36.1721208], [-95.9879378, 36.1721203], [-95.9879375, 36.1722134], [-95.9882041, 36.1722139], [-95.9882044, 36.1721208]]]}, "properties": {"osm_id": 1323970152, "building": "detached", "name": "", "height": null, "height_m": null, "levels": null, "tract_id": "40143001000", "tract_name": "10", "tags": {"addr:city": "Tulsa", "addr:country": "US", "addr:housenumber": "519", "addr:postcode": "74106", "addr:state": "OK", "addr:street": "East Marshall Street North", "building": "detached"}}}, {"type": "Feature", "geometry": {"type": "Polygon", "coordinates": [[[-95.9879593, 36.1751562], [-95.9880347, 36.1751547], [-95.9880335, 36.1751157], [-95.9880775, 36.1751148], [-95.9880752, 36.1750412], [-95.9879557, 36.1750437], [-95.9879593, 36.1751562]]]}, "properties": {"osm_id": 1323970153, "building": "detached", "name": "", "height": null, "height_m": null, "levels": null, "tract_id": "40143001000", "tract_name": "10", "tags": {"addr:city": "Tulsa", "addr:country": "US", "addr:housenumber": "523", "addr:postcode": "74106", "addr:state": "OK", "addr:street": "East Oklahoma Street North", "building": "detached"}}}, {"type": "Feature", "geometry": {"type": "Polygon", "coordinates": [[[-95.9871557, 36.1764517], [-95.987025, 36.176512], [-95.9871214, 36.1766482], [-95.9872289, 36.1765986], [-95.9871699, 36.1765152], [-95.9871931, 36.1765045], [-95.9871557, 36.1764517]]]}, "properties": {"osm_id": 1323970154, "building": "detached", "name": "", "height": null, "height_m": null, "levels": null, "tract_id": "40143001000", "tract_name": "10", "tags": {"addr:city": "Tulsa", "addr:country": "US", "addr:housenumber": "1445", "addr:postcode": "74106", "addr:state": "OK", "addr:street": "North Frankfort Place East", "building": "detached"}}}, {"type": "Feature", "geometry": {"type": "Polygon", "coordinates": [[[-95.985528, 36.171681], [-95.9855295, 36.1717776], [-95.985641, 36.1717764], [-95.9856418, 36.1718219], [-95.9857314, 36.171821], [-95.9857291, 36.171679], [-95.985528, 36.171681]]]}, "properties": {"osm_id": 1323970155, "building": "detached", "name": "", "height": null, "height_m": null, "levels": null, "tract_id": "40143001000", "tract_name": "10", "tags": {"addr:city": "Tulsa", "addr:country": "US", "addr:housenumber": "628", "addr:postcode": "74106", "addr:state": "OK", "addr:street": "East Marshall Street North", "building": "detached"}}}, {"type": "Feature", "geometry": {"type": "Polygon", "coordinates": [[[-95.9849548, 36.1712107], [-95.9849559, 36.1712821], [-95.9849762, 36.1712819], [-95.9849773, 36.1713555], [-95.9851087, 36.1713542], [-95.9851076, 36.1712794], [-95.9850792, 36.1712797], [-95.9850774, 36.1711606], [-95.9849851, 36.1711615], [-95.9849858, 36.1712104], [-95.9849548, 36.1712107]]]}, "properties": {"osm_id": 1323970156, "building": "detached", "name": "", "height": null, "height_m": null, "levels": null, "tract_id": "40143001000", "tract_name": "10", "tags": {"addr:city": "Tulsa", "addr:country": "US", "addr:housenumber": "643", "addr:postcode": "74106", "addr:state": "OK", "addr:street": "East Latimer Court North", "building": "detached"}}}, {"type": "Feature", "geometry": {"type": "Polygon", "coordinates": [[[-95.9885999, 36.1727343], [-95.9887349, 36.172731], [-95.9887331, 36.1726826], [-95.988717, 36.172683], [-95.9887151, 36.1726319], [-95.9886364, 36.1726338], [-95.9886373, 36.1726589], [-95.9885971, 36.1726599], [-95.9885999, 36.1727343]]]}, "properties": {"osm_id": 1323970157, "building": "detached", "name": "", "height": null, "height_m": null, "levels": null, "tract_id": "40143001000", "tract_name": "10", "tags": {"addr:city": "Tulsa", "addr:country": "US", "addr:housenumber": "506", "addr:postcode": "74106", "addr:state": "OK", "addr:street": "East Marshall Place North", "building": "detached"}}}, {"type": "Feature", "geometry": {"type": "Polygon", "coordinates": [[[-95.9877156, 36.172608], [-95.9875376, 36.1726079], [-95.9875376, 36.1726361], [-95.9874222, 36.172636], [-95.9874222, 36.1727191], [-95.9874728, 36.1727191], [-95.9875777, 36.1727191], [-95.9875777, 36.1727032], [-95.9877155, 36.1727033], [-95.9877156, 36.172608]]]}, "properties": {"osm_id": 1323970158, "building": "detached", "name": "", "height": null, "height_m": null, "levels": null, "tract_id": "40143001000", "tract_name": "10", "tags": {"addr:city": "Tulsa", "addr:country": "US", "addr:housenumber": "534", "addr:postcode": "74106", "addr:state": "OK", "addr:street": "East Marshall Place North", "building": "detached"}}}, {"type": "Feature", "geometry": {"type": "Polygon", "coordinates": [[[-95.9876386, 36.1747914], [-95.9877324, 36.1747926], [-95.987736, 36.1746209], [-95.9876679, 36.1746199], [-95.9876684, 36.1745961], [-95.9875906, 36.1745951], [-95.9875894, 36.1746521], [-95.9876414, 36.1746528], [-95.9876386, 36.1747914]]]}, "properties": {"osm_id": 1323970159, "building": "detached", "name": "", "height": null, "height_m": null, "levels": null, "tract_id": "40143001000", "tract_name": "10", "tags": {"addr:city": "Tulsa", "addr:country": "US", "addr:housenumber": "532", "addr:postcode": "74106", "addr:state": "OK", "addr:street": "East Oklahoma Street North", "building": "detached"}}}, {"type": "Feature", "geometry": {"type": "Polygon", "coordinates": [[[-95.9871231, 36.1689708], [-95.9870614, 36.1689704], [-95.9870617, 36.1689444], [-95.987, 36.1689439], [-95.9869997, 36.1689699], [-95.9869541, 36.1689695], [-95.986953, 36.1690648], [-95.9870442, 36.1690655], [-95.9870436, 36.1691153], [-95.9871214, 36.1691159], [-95.9871231, 36.1689708]]]}, "properties": {"osm_id": 1323970160, "building": "detached", "name": "", "height": null, "height_m": null, "levels": null, "tract_id": "40143001000", "tract_name": "10", "tags": {"addr:city": "Tulsa", "addr:country": "US", "addr:housenumber": "546", "addr:postcode": "74106", "addr:state": "OK", "addr:street": "East Latimer Street North", "building": "detached"}}}, {"type": "Feature", "geometry": {"type": "Polygon", "coordinates": [[[-95.9869411, 36.1726595], [-95.9872397, 36.172655], [-95.9872391, 36.1726263], [-95.9872366, 36.1725186], [-95.9870344, 36.1725216], [-95.9870351, 36.1725498], [-95.9869386, 36.1725512], [-95.9869411, 36.1726595]]]}, "properties": {"osm_id": 1323970161, "building": "detached", "name": "", "height": null, "height_m": null, "levels": null, "tract_id": "40143001000", "tract_name": "10", "tags": {"addr:city": "Tulsa", "addr:country": "US", "addr:housenumber": "544", "addr:postcode": "74106", "addr:state": "OK", "addr:street": "East Marshall Place North", "building": "detached"}}}, {"type": "Feature", "geometry": {"type": "Polygon", "coordinates": [[[-95.9859972, 36.170821], [-95.9859984, 36.1709119], [-95.9860482, 36.1709115], [-95.9860485, 36.1709353], [-95.9861543, 36.1709343], [-95.9861527, 36.1708196], [-95.9859972, 36.170821]]]}, "properties": {"osm_id": 1323970162, "building": "detached", "name": "", "height": null, "height_m": null, "levels": null, "tract_id": "40143001000", "tract_name": "10", "tags": {"addr:city": "Tulsa", "addr:country": "US", "addr:housenumber": "616", "addr:postcode": "74106", "addr:state": "OK", "addr:street": "East Latimer Court North", "building": "detached"}}}, {"type": "Feature", "geometry": {"type": "Polygon", "coordinates": [[[-95.9883704, 36.1726064], [-95.9882605, 36.1726069], [-95.9882611, 36.1727143], [-95.9883711, 36.1727139], [-95.9883704, 36.1726064]]]}, "properties": {"osm_id": 1323970163, "building": "detached", "name": "", "height": null, "height_m": null, "levels": null, "tract_id": "40143001000", "tract_name": "10", "tags": {"addr:city": "Tulsa", "addr:country": "US", "addr:housenumber": "516", "addr:postcode": "74106", "addr:state": "OK", "addr:street": "East Marshall Place North", "building": "detached"}}}, {"type": "Feature", "geometry": {"type": "Polygon", "coordinates": [[[-95.9857483, 36.1709188], [-95.9858984, 36.1709219], [-95.9859015, 36.1708224], [-95.9857514, 36.1708193], [-95.9857483, 36.1709188]]]}, "properties": {"osm_id": 1323970164, "building": "detached", "name": "", "height": null, "height_m": null, "levels": null, "tract_id": "40143001000", "tract_name": "10", "tags": {"addr:city": "Tulsa", "addr:country": "US", "addr:housenumber": "620", "addr:postcode": "74106", "addr:state": "OK", "addr:street": "East Latimer Court North", "building": "detached"}}}, {"type": "Feature", "geometry": {"type": "Polygon", "coordinates": [[[-95.9875323, 36.175495], [-95.9873216, 36.175497], [-95.9873253, 36.1757554], [-95.9873678, 36.175755], [-95.9873686, 36.1758133], [-95.9875622, 36.1758115], [-95.9875607, 36.1757016], [-95.9875353, 36.1757019], [-95.9875323, 36.175495]]]}, "properties": {"osm_id": 1323970165, "building": "office", "name": "", "height": null, "height_m": null, "levels": null, "tract_id": "40143001000", "tract_name": "10", "tags": {"building": "office"}}}, {"type": "Feature", "geometry": {"type": "Polygon", "coordinates": [[[-95.9849881, 36.1709525], [-95.9850981, 36.1709543], [-95.9851021, 36.1707885], [-95.9849922, 36.1707867], [-95.9849881, 36.1709525]]]}, "properties": {"osm_id": 1323970166, "building": "detached", "name": "", "height": null, "height_m": null, "levels": null, "tract_id": "40143001000", "tract_name": "10", "tags": {"addr:city": "Tulsa", "addr:country": "US", "addr:housenumber": "640", "addr:postcode": "74106", "addr:state": "OK", "addr:street": "East Latimer Court North", "building": "detached"}}}, {"type": "Feature", "geometry": {"type": "Polygon", "coordinates": [[[-95.9874838, 36.1704544], [-95.9876635, 36.1704528], [-95.9876621, 36.1703553], [-95.9875816, 36.1703561], [-95.987581, 36.1703171], [-95.9874818, 36.1703181], [-95.9874838, 36.1704544]]]}, "properties": {"osm_id": 1323970167, "building": "detached", "name": "", "height": null, "height_m": null, "levels": null, "tract_id": "40143001000", "tract_name": "10", "tags": {"building": "detached"}}}, {"type": "Feature", "geometry": {"type": "Polygon", "coordinates": [[[-95.9885668, 36.1757682], [-95.9887385, 36.1757671], [-95.9887376, 36.175687], [-95.9886947, 36.1756873], [-95.9886944, 36.1756569], [-95.9886327, 36.1756574], [-95.988633, 36.1756877], [-95.988566, 36.1756881], [-95.9885668, 36.1757682]]]}, "properties": {"osm_id": 1323970168, "building": "detached", "name": "", "height": null, "height_m": null, "levels": null, "tract_id": "40143001000", "tract_name": "10", "tags": {"addr:city": "Tulsa", "addr:country": "US", "addr:housenumber": "510", "addr:postcode": "74106", "addr:state": "OK", "addr:street": "East Oklahoma Place North", "building": "detached"}}}, {"type": "Feature", "geometry": {"type": "Polygon", "coordinates": [[[-95.9879198, 36.1731531], [-95.9880056, 36.1731545], [-95.9880068, 36.1731036], [-95.9879734, 36.1731031], [-95.9879742, 36.1730717], [-95.988037, 36.1730727], [-95.9880392, 36.1729796], [-95.987924, 36.1729778], [-95.9879198, 36.1731531]]]}, "properties": {"osm_id": 1323970169, "building": "detached", "name": "", "height": null, "height_m": null, "levels": null, "tract_id": "40143001000", "tract_name": "10", "tags": {"addr:city": "Tulsa", "addr:country": "US", "addr:housenumber": "523", "addr:postcode": "74106", "addr:state": "OK", "addr:street": "East Marshall Place North", "building": "detached"}}}, {"type": "Feature", "geometry": {"type": "Polygon", "coordinates": [[[-95.9860026, 36.1718041], [-95.9860616, 36.1718034], [-95.9860621, 36.1718307], [-95.9861587, 36.1718296], [-95.9861562, 36.1716954], [-95.9860007, 36.1716972], [-95.9860026, 36.1718041]]]}, "properties": {"osm_id": 1323970170, "building": "detached", "name": "", "height": null, "height_m": null, "levels": null, "tract_id": "40143001000", "tract_name": "10", "tags": {"addr:city": "Tulsa", "addr:country": "US", "addr:housenumber": "616", "addr:postcode": "74106", "addr:state": "OK", "addr:street": "East Marshall Street North", "building": "detached"}}}, {"type": "Feature", "geometry": {"type": "Polygon", "coordinates": [[[-95.9887401, 36.1721026], [-95.9886463, 36.1721002], [-95.988641, 36.1722408], [-95.9887348, 36.1722432], [-95.9887401, 36.1721026]]]}, "properties": {"osm_id": 1323970171, "building": "detached", "name": "", "height": null, "height_m": null, "levels": null, "tract_id": "40143001000", "tract_name": "10", "tags": {"addr:city": "Tulsa", "addr:country": "US", "addr:housenumber": "507", "addr:postcode": "74106", "addr:state": "OK", "addr:street": "East Marshall Street North", "building": "detached"}}}, {"type": "Feature", "geometry": {"type": "Polygon", "coordinates": [[[-95.9877229, 36.170434], [-95.9879075, 36.1704349], [-95.9879082, 36.1703375], [-95.987809, 36.170337], [-95.9878091, 36.1703197], [-95.9877238, 36.1703193], [-95.9877229, 36.170434]]]}, "properties": {"osm_id": 1323970172, "building": "detached", "name": "", "height": null, "height_m": null, "levels": null, "tract_id": "40143001000", "tract_name": "10", "tags": {"addr:city": "Tulsa", "addr:country": "US", "addr:housenumber": "525", "addr:postcode": "74106", "addr:state": "OK", "addr:street": "East Latimer Place North", "building": "detached"}}}, {"type": "Feature", "geometry": {"type": "Polygon", "coordinates": [[[-95.9876385, 36.1735749], [-95.9874535, 36.1735764], [-95.9874548, 36.1736825], [-95.9875593, 36.1736817], [-95.9875597, 36.1737141], [-95.9876402, 36.1737135], [-95.9876385, 36.1735749]]]}, "properties": {"osm_id": 1323970173, "building": "detached", "name": "", "height": null, "height_m": null, "levels": null, "tract_id": "40143001000", "tract_name": "10", "tags": {"addr:city": "Tulsa", "addr:country": "US", "addr:housenumber": "534", "addr:postcode": "74106", "addr:state": "OK", "addr:street": "East Newton Place North", "building": "detached"}}}, {"type": "Feature", "geometry": {"type": "Polygon", "coordinates": [[[-95.9863943, 36.1747451], [-95.9865526, 36.1747442], [-95.9865501, 36.1744614], [-95.9863918, 36.1744623], [-95.9863943, 36.1747451]]]}, "properties": {"osm_id": 1323970174, "building": "apartments", "name": "", "height": null, "height_m": null, "levels": null, "tract_id": "40143001000", "tract_name": "10", "tags": {"building": "apartments"}}}, {"type": "Feature", "geometry": {"type": "Polygon", "coordinates": [[[-95.9877148, 36.172999], [-95.9876541, 36.1729974], [-95.9876523, 36.1730428], [-95.9876353, 36.1730424], [-95.9876336, 36.1730835], [-95.9876551, 36.173084], [-95.9876531, 36.1731338], [-95.9877093, 36.1731352], [-95.9877148, 36.172999]]]}, "properties": {"osm_id": 1323970175, "building": "detached", "name": "", "height": null, "height_m": null, "levels": null, "tract_id": "40143001000", "tract_name": "10", "tags": {"addr:city": "Tulsa", "addr:country": "US", "addr:housenumber": "531", "addr:postcode": "74106", "addr:state": "OK", "addr:street": "East Marshall Place North", "building": "detached"}}}, {"type": "Feature", "geometry": {"type": "Polygon", "coordinates": [[[-95.9872938, 36.1767184], [-95.9875539, 36.1767152], [-95.987552, 36.1766178], [-95.9872919, 36.176621], [-95.9872938, 36.1767184]]]}, "properties": {"osm_id": 1323970176, "building": "detached", "name": "", "height": null, "height_m": null, "levels": null, "tract_id": "40143001000", "tract_name": "10", "tags": {"addr:city": "Tulsa", "addr:country": "US", "addr:housenumber": "1450", "addr:postcode": "74106", "addr:state": "OK", "addr:street": "North Frankfort Place East", "building": "detached"}}}, {"type": "Feature", "geometry": {"type": "Polygon", "coordinates": [[[-95.9869557, 36.1704861], [-95.9871554, 36.1704836], [-95.9871535, 36.1703862], [-95.9870504, 36.1703875], [-95.987049, 36.1703153], [-95.9869524, 36.1703165], [-95.9869557, 36.1704861]]]}, "properties": {"osm_id": 1323970177, "building": "detached", "name": "", "height": null, "height_m": null, "levels": null, "tract_id": "40143001000", "tract_name": "10", "tags": {"addr:city": "Tulsa", "addr:country": "US", "addr:housenumber": "545", "addr:postcode": "74106", "addr:state": "OK", "addr:street": "East Latimer Place North", "building": "detached"}}}, {"type": "Feature", "geometry": {"type": "Polygon", "coordinates": [[[-95.9870258, 36.1760565], [-95.9870244, 36.1761323], [-95.987129, 36.1761335], [-95.9871266, 36.1762613], [-95.98725, 36.1762627], [-95.9872524, 36.1761338], [-95.9872373, 36.1761336], [-95.9872387, 36.1760591], [-95.9870258, 36.1760565]]]}, "properties": {"osm_id": 1323970178, "building": "detached", "name": "", "height": null, "height_m": null, "levels": null, "tract_id": "40143001000", "tract_name": "10", "tags": {"addr:city": "Tulsa", "addr:country": "US", "addr:housenumber": "1433", "addr:postcode": "74106", "addr:state": "OK", "addr:street": "North Frankfort Place East", "building": "detached"}}}, {"type": "Feature", "geometry": {"type": "Polygon", "coordinates": [[[-95.9861888, 36.1680981], [-95.9862605, 36.1680966], [-95.9862579, 36.1680144], [-95.9861862, 36.1680158], [-95.9861888, 36.1680981]]]}, "properties": {"osm_id": 1323970179, "building": "yes", "name": "", "height": null, "height_m": null, "levels": null, "tract_id": "40143001000", "tract_name": "10", "tags": {"building": "yes"}}}, {"type": "Feature", "geometry": {"type": "Polygon", "coordinates": [[[-95.9853587, 36.1740836], [-95.9853549, 36.1742178], [-95.9856632, 36.1742234], [-95.985667, 36.1740893], [-95.9853587, 36.1740836]]]}, "properties": {"osm_id": 1323970180, "building": "apartments", "name": "", "height": null, "height_m": null, "levels": null, "tract_id": "40143001000", "tract_name": "10", "tags": {"building": "apartments"}}}, {"type": "Feature", "geometry": {"type": "Polygon", "coordinates": [[[-95.9877719, 36.1730946], [-95.9878791, 36.1730945], [-95.9878789, 36.1729776], [-95.9877717, 36.1729778], [-95.9877719, 36.1730946]]]}, "properties": {"osm_id": 1323970181, "building": "detached", "name": "", "height": null, "height_m": null, "levels": null, "tract_id": "40143001000", "tract_name": "10", "tags": {"addr:city": "Tulsa", "addr:country": "US", "addr:housenumber": "527", "addr:postcode": "74106", "addr:state": "OK", "addr:street": "East Marshall Place North", "building": "detached"}}}, {"type": "Feature", "geometry": {"type": "Polygon", "coordinates": [[[-95.9869478, 36.1686431], [-95.9871449, 36.1686461], [-95.9871479, 36.1685198], [-95.9870299, 36.168518], [-95.9870308, 36.1684798], [-95.9869517, 36.1684786], [-95.9869478, 36.1686431]]]}, "properties": {"osm_id": 1323970182, "building": "detached", "name": "", "height": null, "height_m": null, "levels": null, "tract_id": "40143001000", "tract_name": "10", "tags": {"addr:city": "Tulsa", "addr:country": "US", "addr:housenumber": "541", "addr:postcode": "74106", "addr:state": "OK", "addr:street": "East King Street North", "building": "detached"}}}, {"type": "Feature", "geometry": {"type": "Polygon", "coordinates": [[[-95.9857905, 36.1717138], [-95.9857891, 36.1718228], [-95.9858939, 36.1718237], [-95.9858942, 36.1718034], [-95.9859315, 36.1718037], [-95.9859326, 36.171715], [-95.9857905, 36.1717138]]]}, "properties": {"osm_id": 1323970183, "building": "detached", "name": "", "height": null, "height_m": null, "levels": null, "tract_id": "40143001000", "tract_name": "10", "tags": {"addr:city": "Tulsa", "addr:country": "US", "addr:housenumber": "620", "addr:postcode": "74106", "addr:state": "OK", "addr:street": "East Marshall Street North", "building": "detached"}}}, {"type": "Feature", "geometry": {"type": "Polygon", "coordinates": [[[-95.9886909, 36.1761379], [-95.9887382, 36.1763058], [-95.9888441, 36.1762863], [-95.9888183, 36.1761945], [-95.9888423, 36.1761901], [-95.9888209, 36.176114], [-95.9886909, 36.1761379]]]}, "properties": {"osm_id": 1323970184, "building": "detached", "name": "", "height": null, "height_m": null, "levels": null, "tract_id": "40143001000", "tract_name": "10", "tags": {"addr:city": "Tulsa", "addr:country": "US", "addr:housenumber": "1439", "addr:postcode": "74106", "addr:state": "OK", "addr:street": "N FRANKFORT AV E", "building": "detached"}}}, {"type": "Feature", "geometry": {"type": "Polygon", "coordinates": [[[-95.9877637, 36.1727659], [-95.9878646, 36.1727649], [-95.9878608, 36.1725216], [-95.987902, 36.1725212], [-95.9879009, 36.1724484], [-95.9878113, 36.1724493], [-95.9878128, 36.1725402], [-95.9877602, 36.1725407], [-95.9877637, 36.1727659]]]}, "properties": {"osm_id": 1323970185, "building": "detached", "name": "", "height": null, "height_m": null, "levels": null, "tract_id": "40143001000", "tract_name": "10", "tags": {"addr:city": "Tulsa", "addr:country": "US", "addr:housenumber": "528", "addr:postcode": "74106", "addr:state": "OK", "addr:street": "East Marshall Place North", "building": "detached"}}}, {"type": "Feature", "geometry": {"type": "Polygon", "coordinates": [[[-95.9849075, 36.1707935], [-95.9847669, 36.170792], [-95.9847651, 36.1708959], [-95.9848295, 36.1708966], [-95.9848291, 36.1709192], [-95.9849054, 36.17092], [-95.9849075, 36.1707935]]]}, "properties": {"osm_id": 1323970186, "building": "detached", "name": "", "height": null, "height_m": null, "levels": null, "tract_id": "40143001000", "tract_name": "10", "tags": {"addr:city": "Tulsa", "addr:country": "US", "addr:housenumber": "644", "addr:postcode": "74106", "addr:state": "OK", "addr:street": "East Latimer Court North", "building": "detached"}}}, {"type": "Feature", "geometry": {"type": "Polygon", "coordinates": [[[-95.9874661, 36.1720747], [-95.9874622, 36.1721981], [-95.9875238, 36.1721993], [-95.9875229, 36.1722296], [-95.9875604, 36.1722304], [-95.9875653, 36.1720768], [-95.9874661, 36.1720747]]]}, "properties": {"osm_id": 1323970187, "building": "detached", "name": "", "height": null, "height_m": null, "levels": null, "tract_id": "40143001000", "tract_name": "10", "tags": {"addr:city": "Tulsa", "addr:country": "US", "addr:housenumber": "535", "addr:postcode": "74106", "addr:state": "OK", "addr:street": "East Marshall Street North", "building": "detached"}}}, {"type": "Feature", "geometry": {"type": "Polygon", "coordinates": [[[-95.9860046, 36.1704312], [-95.9861654, 36.170434], [-95.9861678, 36.1703452], [-95.9861168, 36.1703444], [-95.9861174, 36.1703227], [-95.9860075, 36.1703208], [-95.9860046, 36.1704312]]]}, "properties": {"osm_id": 1323970188, "building": "detached", "name": "", "height": null, "height_m": null, "levels": null, "tract_id": "40143001000", "tract_name": "10", "tags": {"addr:city": "Tulsa", "addr:country": "US", "addr:housenumber": "615", "addr:postcode": "74106", "addr:state": "OK", "addr:street": "East Latimer Place North", "building": "detached"}}}, {"type": "Feature", "geometry": {"type": "Polygon", "coordinates": [[[-95.9862328, 36.1704531], [-95.9863133, 36.1704541], [-95.986313, 36.1704692], [-95.9863988, 36.1704702], [-95.9864007, 36.1703641], [-95.9863256, 36.1703633], [-95.9863263, 36.1703221], [-95.9862352, 36.1703211], [-95.9862328, 36.1704531]]]}, "properties": {"osm_id": 1323970189, "building": "detached", "name": "", "height": null, "height_m": null, "levels": null, "tract_id": "40143001000", "tract_name": "10", "tags": {"addr:city": "Tulsa", "addr:country": "US", "addr:housenumber": "611", "addr:postcode": "74106", "addr:state": "OK", "addr:street": "East Latimer Place North", "building": "detached"}}}, {"type": "Feature", "geometry": {"type": "Polygon", "coordinates": [[[-95.9888323, 36.1745671], [-95.9886162, 36.1745691], [-95.9886178, 36.1746804], [-95.9888339, 36.1746783], [-95.9888323, 36.1745671]]]}, "properties": {"osm_id": 1323970190, "building": "detached", "name": "", "height": null, "height_m": null, "levels": null, "tract_id": "40143001000", "tract_name": "10", "tags": {"addr:city": "Tulsa", "addr:country": "US", "addr:housenumber": "510", "addr:postcode": "74106", "addr:state": "OK", "addr:street": "East Oklahoma Street North", "building": "detached"}}}, {"type": "Feature", "geometry": {"type": "Polygon", "coordinates": [[[-95.9883145, 36.1751573], [-95.9884217, 36.1751582], [-95.9884231, 36.1750586], [-95.9883158, 36.1750577], [-95.9883145, 36.1751573]]]}, "properties": {"osm_id": 1323970191, "building": "detached", "name": "", "height": null, "height_m": null, "levels": null, "tract_id": "40143001000", "tract_name": "10", "tags": {"addr:city": "Tulsa", "addr:country": "US", "addr:housenumber": "515", "addr:postcode": "74106", "addr:state": "OK", "addr:street": "East Oklahoma Street North", "building": "detached"}}}, {"type": "Feature", "geometry": {"type": "Polygon", "coordinates": [[[-95.9847161, 36.1742169], [-95.9851167, 36.1742202], [-95.9851184, 36.1740882], [-95.9847177, 36.1740848], [-95.9847161, 36.1742169]]]}, "properties": {"osm_id": 1323970192, "building": "apartments", "name": "", "height": null, "height_m": null, "levels": null, "tract_id": "40143001000", "tract_name": "10", "tags": {"building": "apartments"}}}, {"type": "Feature", "geometry": {"type": "Polygon", "coordinates": [[[-95.9852679, 36.1732731], [-95.9851633, 36.1732725], [-95.9851616, 36.1734694], [-95.9852662, 36.17347], [-95.9852679, 36.1732731]]]}, "properties": {"osm_id": 1323970193, "building": "yes", "name": "", "height": null, "height_m": null, "levels": null, "tract_id": "40143001000", "tract_name": "10", "tags": {"building": "yes"}}}, {"type": "Feature", "geometry": {"type": "Polygon", "coordinates": [[[-95.9884413, 36.1762067], [-95.9886505, 36.1762077], [-95.9886514, 36.1760639], [-95.9885573, 36.1760635], [-95.9885573, 36.1760748], [-95.9885092, 36.1760746], [-95.9885094, 36.1760525], [-95.9884423, 36.1760522], [-95.9884413, 36.1762067]]]}, "properties": {"osm_id": 1323970194, "building": "detached", "name": "", "height": null, "height_m": null, "levels": null, "tract_id": "40143001000", "tract_name": "10", "tags": {"addr:city": "Tulsa", "addr:country": "US", "addr:housenumber": "511", "addr:postcode": "74106", "addr:state": "OK", "addr:street": "East Oklahoma Place North", "building": "detached"}}}, {"type": "Feature", "geometry": {"type": "Polygon", "coordinates": [[[-95.9850785, 36.1718302], [-95.9851511, 36.1718298], [-95.9851509, 36.1718142], [-95.9851737, 36.1718141], [-95.9851735, 36.1717899], [-95.9852069, 36.1717897], [-95.9852055, 36.1716502], [-95.9850768, 36.171651], [-95.9850785, 36.1718302]]]}, "properties": {"osm_id": 1323970195, "building": "detached", "name": "", "height": null, "height_m": null, "levels": null, "tract_id": "40143001000", "tract_name": "10", "tags": {"addr:city": "Tulsa", "addr:country": "US", "addr:housenumber": "638", "addr:postcode": "74106", "addr:state": "OK", "addr:street": "East Marshall Street North", "building": "detached"}}}, {"type": "Feature", "geometry": {"type": "Polygon", "coordinates": [[[-95.9879902, 36.1752976], [-95.9879892, 36.1752391], [-95.9879141, 36.17524], [-95.9879151, 36.1752984], [-95.9879902, 36.1752976]]]}, "properties": {"osm_id": 1323970196, "building": "garage", "name": "", "height": null, "height_m": null, "levels": null, "tract_id": "40143001000", "tract_name": "10", "tags": {"building": "garage"}}}, {"type": "Feature", "geometry": {"type": "Polygon", "coordinates": [[[-95.9871933, 36.1684804], [-95.9871928, 36.1686579], [-95.9872746, 36.1686581], [-95.9872746, 36.1686827], [-95.9873228, 36.1686828], [-95.9873233, 36.1685153], [-95.9872831, 36.1685152], [-95.9872832, 36.1684805], [-95.9871933, 36.1684804]]]}, "properties": {"osm_id": 1323970197, "building": "detached", "name": "", "height": null, "height_m": null, "levels": null, "tract_id": "40143001000", "tract_name": "10", "tags": {"addr:city": "Tulsa", "addr:country": "US", "addr:housenumber": "537", "addr:postcode": "74106", "addr:state": "OK", "addr:street": "East King Street North", "building": "detached"}}}, {"type": "Feature", "geometry": {"type": "Polygon", "coordinates": [[[-95.9847302, 36.1745748], [-95.9848922, 36.1745761], [-95.9848954, 36.1743011], [-95.9847334, 36.1742999], [-95.9847302, 36.1745748]]]}, "properties": {"osm_id": 1323970198, "building": "apartments", "name": "", "height": null, "height_m": null, "levels": null, "tract_id": "40143001000", "tract_name": "10", "tags": {"building": "apartments"}}}, {"type": "Feature", "geometry": {"type": "Polygon", "coordinates": [[[-95.9869706, 36.1722236], [-95.987168, 36.1722208], [-95.9871685, 36.1722446], [-95.9872285, 36.1722437], [-95.9872255, 36.1721052], [-95.9871263, 36.1721066], [-95.987127, 36.1721391], [-95.9869688, 36.1721414], [-95.9869706, 36.1722236]]]}, "properties": {"osm_id": 1323970199, "building": "detached", "name": "", "height": null, "height_m": null, "levels": null, "tract_id": "40143001000", "tract_name": "10", "tags": {"addr:city": "Tulsa", "addr:country": "US", "addr:housenumber": "545", "addr:postcode": "74106", "addr:state": "OK", "addr:street": "East Marshall Street North", "building": "detached"}}}, {"type": "Feature", "geometry": {"type": "Polygon", "coordinates": [[[-95.987653, 36.1717296], [-95.9873553, 36.1717324], [-95.9873564, 36.171809], [-95.9874422, 36.1718081], [-95.9874425, 36.1718269], [-95.9874988, 36.1718263], [-95.9874986, 36.1718098], [-95.9876541, 36.1718083], [-95.987653, 36.1717296]]]}, "properties": {"osm_id": 1323970200, "building": "detached", "name": "", "height": null, "height_m": null, "levels": null, "tract_id": "40143001000", "tract_name": "10", "tags": {"addr:city": "Tulsa", "addr:country": "US", "addr:housenumber": "534", "addr:postcode": "74106", "addr:state": "OK", "addr:street": "East Marshall Street North", "building": "detached"}}}, {"type": "Feature", "geometry": {"type": "Polygon", "coordinates": [[[-95.9865849, 36.1703569], [-95.9864723, 36.1703563], [-95.9864707, 36.1705251], [-95.9865834, 36.1705258], [-95.9865849, 36.1703569]]]}, "properties": {"osm_id": 1323970201, "building": "detached", "name": "", "height": null, "height_m": null, "levels": null, "tract_id": "40143001000", "tract_name": "10", "tags": {"addr:city": "Tulsa", "addr:country": "US", "addr:housenumber": "1127", "addr:postcode": "74106", "addr:state": "OK", "addr:street": "North Greenwood Avenue East", "building": "detached"}}}, {"type": "Feature", "geometry": {"type": "Polygon", "coordinates": [[[-95.9887804, 36.1718248], [-95.9888796, 36.1718267], [-95.9888818, 36.1717509], [-95.9889086, 36.1717514], [-95.9889104, 36.1716887], [-95.98883, 36.1716871], [-95.9888328, 36.1715941], [-95.988747, 36.1715924], [-95.988742, 36.1717612], [-95.9887822, 36.171762], [-95.9887804, 36.1718248]]]}, "properties": {"osm_id": 1323970202, "building": "detached", "name": "", "height": null, "height_m": null, "levels": null, "tract_id": "40143001000", "tract_name": "10", "tags": {"addr:city": "Tulsa", "addr:country": "US", "addr:housenumber": "1173", "addr:postcode": "74106", "addr:state": "OK", "addr:street": "N FRANKFORT AV E", "building": "detached"}}}, {"type": "Feature", "geometry": {"type": "Polygon", "coordinates": [[[-95.9880862, 36.1740028], [-95.9880836, 36.1741478], [-95.9882579, 36.1741499], [-95.9882598, 36.174046], [-95.9881605, 36.1740448], [-95.9881613, 36.1740037], [-95.9880862, 36.1740028]]]}, "properties": {"osm_id": 1323970203, "building": "detached", "name": "", "height": null, "height_m": null, "levels": null, "tract_id": "40143001000", "tract_name": "10", "tags": {"addr:city": "Tulsa", "addr:country": "US", "addr:housenumber": "523", "addr:postcode": "74106", "addr:state": "OK", "addr:street": "East Newton Place North", "building": "detached"}}}, {"type": "Feature", "geometry": {"type": "Polygon", "coordinates": [[[-95.9855644, 36.1712096], [-95.985492, 36.1712084], [-95.9854911, 36.171243], [-95.9854283, 36.171242], [-95.9854257, 36.1713402], [-95.9855609, 36.1713425], [-95.9855644, 36.1712096]]]}, "properties": {"osm_id": 1323970204, "building": "detached", "name": "", "height": null, "height_m": null, "levels": null, "tract_id": "40143001000", "tract_name": "10", "tags": {"addr:city": "Tulsa", "addr:country": "US", "addr:housenumber": "627", "addr:postcode": "74106", "addr:state": "OK", "addr:street": "East Latimer Court North", "building": "detached"}}}, {"type": "Feature", "geometry": {"type": "Polygon", "coordinates": [[[-95.9851761, 36.1713298], [-95.9853354, 36.171332], [-95.9853373, 36.1712442], [-95.9852783, 36.1712433], [-95.985279, 36.1712121], [-95.9851786, 36.1712107], [-95.9851761, 36.1713298]]]}, "properties": {"osm_id": 1323970205, "building": "detached", "name": "", "height": null, "height_m": null, "levels": null, "tract_id": "40143001000", "tract_name": "10", "tags": {"addr:city": "Tulsa", "addr:country": "US", "addr:housenumber": "633", "addr:postcode": "74106", "addr:state": "OK", "addr:street": "East Latimer Court North", "building": "detached"}}}, {"type": "Feature", "geometry": {"type": "Polygon", "coordinates": [[[-95.9883827, 36.170323], [-95.9883843, 36.1704355], [-95.9885693, 36.1704338], [-95.988568, 36.1703399], [-95.9885036, 36.1703405], [-95.9885034, 36.1703218], [-95.9883827, 36.170323]]]}, "properties": {"osm_id": 1323970206, "building": "detached", "name": "", "height": null, "height_m": null, "levels": null, "tract_id": "40143001000", "tract_name": "10", "tags": {"addr:city": "Tulsa", "addr:country": "US", "addr:housenumber": "511", "addr:postcode": "74106", "addr:state": "OK", "addr:street": "East Latimer Place North", "building": "detached"}}}, {"type": "Feature", "geometry": {"type": "Polygon", "coordinates": [[[-95.9862403, 36.1707821], [-95.9862407, 36.1708081], [-95.986191, 36.1708086], [-95.9861925, 36.1709103], [-95.9862381, 36.1709099], [-95.9862385, 36.170935], [-95.9863339, 36.170934], [-95.9863315, 36.1707812], [-95.9862403, 36.1707821]]]}, "properties": {"osm_id": 1323970207, "building": "detached", "name": "", "height": null, "height_m": null, "levels": null, "tract_id": "40143001000", "tract_name": "10", "tags": {"addr:city": "Tulsa", "addr:country": "US", "addr:housenumber": "612", "addr:postcode": "74106", "addr:state": "OK", "addr:street": "East Latimer Court North", "building": "detached"}}}, {"type": "Feature", "geometry": {"type": "Polygon", "coordinates": [[[-95.9881358, 36.1699174], [-95.9880366, 36.1699169], [-95.9880364, 36.1699385], [-95.9879506, 36.1699381], [-95.9879496, 36.1700463], [-95.9881347, 36.1700474], [-95.9881358, 36.1699174]]]}, "properties": {"osm_id": 1323970208, "building": "detached", "name": "", "height": null, "height_m": null, "levels": null, "tract_id": "40143001000", "tract_name": "10", "tags": {"addr:city": "Tulsa", "addr:country": "US", "addr:housenumber": "520", "addr:postcode": "74106", "addr:state": "OK", "addr:street": "East Latimer Place North", "building": "detached"}}}]}