{"type": "FeatureCollection", "features": [{"type": "Feature", "geometry": {"type": "Polygon", "coordinates": [[[-95.9409421, 36.1004923], [-95.9407618, 36.1004929], [-95.9407617, 36.1004566], [-95.940697, 36.1004568], [-95.9406972, 36.1004931], [-95.9405913, 36.1004934], [-95.9405911, 36.100459], [-95.9405653, 36.1004591], [-95.9405649, 36.1003757], [-95.9405907, 36.1003756], [-95.9405905, 36.1003389], [-95.9409413, 36.1003378], [-95.9409421, 36.1004923]]]}, "properties": {"osm_id": 191525370, "building": "yes", "name": "Davita Dialysis Center", "height": null, "height_m": null, "levels": null, "tract_id": "40143005100", "tract_name": "51", "tags": {"addr:city": "Tulsa", "addr:country": "US", "addr:housenumber": "4436", "addr:postcode": "74135", "addr:state": "OK", "addr:street": "South Harvard Avenue East", "amenity": "clinic", "building": "yes", "healthcare": "dialysis", "healthcare:speciality": "dialysis", "name": "Davita Dialysis Center", "operator": "DaVita Dialysis", "operator:wikidata": "Q5207184"}}}, {"type": "Feature", "geometry": {"type": "Polygon", "coordinates": [[[-95.9408483, 36.0961494], [-95.9404519, 36.0961494], [-95.9404519, 36.0958785], [-95.9408483, 36.0958785], [-95.9408483, 36.0961494]]]}, "properties": {"osm_id": 251870588, "building": "yes", "name": "Creoks Mental Health", "height": null, "height_m": null, "levels": null, "tract_id": "40143005100", "tract_name": "51", "tags": {"addr:city": "Tulsa", "addr:housenumber": "4636", "addr:postcode": "74135", "addr:state": "OK", "addr:street": "South Harvard Avenue East", "building": "yes", "healthcare": "rehabilitation", "name": "Creoks Mental Health", "opening_hours": "Mo-Fr 08:00-19:00"}}}, {"type": "Feature", "geometry": {"type": "Polygon", "coordinates": [[[-95.9573012, 36.0935346], [-95.9576624, 36.0935333], [-95.9576632, 36.093681], [-95.9576201, 36.0936812], [-95.9576212, 36.0938749], [-95.9576936, 36.0938746], [-95.957695, 36.0941154], [-95.9574768, 36.0941162], [-95.9574755, 36.0938747], [-95.9574968, 36.0938746], [-95.9574964, 36.0938043], [-95.9574617, 36.0938045], [-95.9574619, 36.0938332], [-95.9573146, 36.0938337], [-95.9573137, 36.0936838], [-95.9573732, 36.0936836], [-95.9573729, 36.0936315], [-95.9573017, 36.0936318], [-95.9573012, 36.0935346]]]}, "properties": {"osm_id": 257159641, "building": "church", "name": "Lutheran Ministry Center", "height": null, "height_m": null, "levels": null, "tract_id": "40143005100", "tract_name": "51", "tags": {"amenity": "place_of_worship", "building": "church", "denomination": "lutheran", "ele": "211", "gnis:feature_id": "1810181", "name": "Lutheran Ministry Center", "phone": "+1 918 492 4288", "religion": "christian", "website": "https://www.aokelca.org/"}}}, {"type": "Feature", "geometry": {"type": "Polygon", "coordinates": [[[-95.9408219, 36.0927442], [-95.9405026, 36.0927499], [-95.9405059, 36.0928721], [-95.9408252, 36.0928664], [-95.9408219, 36.0927442]]]}, "properties": {"osm_id": 316301043, "building": "retail", "name": "McDonald's", "height": null, "height_m": null, "levels": null, "tract_id": "40143005100", "tract_name": "51", "tags": {"addr:city": "Tulsa", "addr:housenumber": "4780", "addr:postcode": "74135", "addr:state": "OK", "addr:street": "South Harvard Avenue East", "amenity": "fast_food", "brand": "McDonald's", "brand:wikidata": "Q38076", "building": "retail", "cuisine": "burger", "drive_through": "yes", "internet_access": "wlan", "name": "McDonald's", "opening_hours": "06:00-22:00", "phone": "+1 918-742-5100", "takeaway": "yes", "website": "https://www.mcdonalds.com/us/en-us/location/36977.html"}}}, {"type": "Feature", "geometry": {"type": "Polygon", "coordinates": [[[-95.9411899, 36.0921778], [-95.9411166, 36.0921779], [-95.9410781, 36.0922102], [-95.9410396, 36.0921781], [-95.9410206, 36.0921781], [-95.9410206, 36.09215], [-95.9410095, 36.09215], [-95.9410094, 36.0921076], [-95.9409957, 36.0921076], [-95.9409956, 36.0920791], [-95.9409829, 36.0920791], [-95.9409826, 36.0919928], [-95.9409953, 36.0919928], [-95.9409952, 36.0919628], [-95.9410089, 36.0919628], [-95.9410088, 36.0919233], [-95.9410198, 36.0919233], [-95.9410197, 36.0918951], [-95.9410374, 36.0918951], [-95.9410754, 36.0918626], [-95.941113, 36.0918949], [-95.941189, 36.0918948], [-95.9411899, 36.0921778]]]}, "properties": {"osm_id": 385459101, "building": "yes", "name": "QuikTrip", "height": null, "height_m": null, "levels": null, "tract_id": "40143005100", "tract_name": "51", "tags": {"brand": "QuikTrip", "brand:wikidata": "Q7271953", "building": "yes", "name": "QuikTrip", "opening_hours": "24/7", "shop": "convenience", "short_name": "QT"}}}, {"type": "Feature", "geometry": {"type": "Polygon", "coordinates": [[[-95.9407884, 36.0922656], [-95.9405895, 36.0922657], [-95.9405895, 36.0921877], [-95.9405894, 36.0921046], [-95.9405894, 36.0920074], [-95.9405893, 36.0919113], [-95.9405892, 36.0918315], [-95.9407882, 36.0918314], [-95.9407882, 36.0919093], [-95.9407883, 36.0920094], [-95.9407883, 36.0921036], [-95.9407884, 36.092187], [-95.9407884, 36.0922656]]]}, "properties": {"osm_id": 385459102, "building": "roof", "name": "QuikTrip", "height": null, "height_m": null, "levels": null, "tract_id": "40143005100", "tract_name": "51", "tags": {"amenity": "fuel", "brand": "QuikTrip", "brand:wikidata": "Q7271953", "building": "roof", "check_date": "2025-03-10", "check_date:compressed_air": "2025-03-10", "compressed_air": "yes", "fuel:diesel": "yes", "fuel:e10": "yes", "name": "QuikTrip", "opening_hours": "24/7", "short_name": "QT"}}}, {"type": "Feature", "geometry": {"type": "Polygon", "coordinates": [[[-95.940523, 36.0983845], [-95.9405217, 36.098176], [-95.9408065, 36.0981748], [-95.9408067, 36.0982078], [-95.9407942, 36.0982079], [-95.9407952, 36.0983834], [-95.940523, 36.0983845]]]}, "properties": {"osm_id": 612795615, "building": "yes", "name": "", "height": null, "height_m": null, "levels": null, "tract_id": "40143005100", "tract_name": "51", "tags": {"addr:city": "Tulsa", "addr:housenumber": "4538", "addr:postcode": "74135-2906", "addr:street": "South Harvard Avenue East", "building": "yes", "operator": "Ascension"}}}, {"type": "Feature", "geometry": {"type": "Polygon", "coordinates": [[[-95.9483127, 36.096142], [-95.9482625, 36.0961421], [-95.9482624, 36.0961246], [-95.9480621, 36.0961253], [-95.9480614, 36.0959898], [-95.9481349, 36.0959896], [-95.9481348, 36.0959726], [-95.9480831, 36.0959728], [-95.9480827, 36.0959019], [-95.9483367, 36.095901], [-95.9483375, 36.0960574], [-95.9483123, 36.0960575], [-95.9483127, 36.096142]]]}, "properties": {"osm_id": 635301933, "building": "yes", "name": "", "height": null, "height_m": null, "levels": null, "tract_id": "40143005100", "tract_name": "51", "tags": {"building": "yes"}}}, {"type": "Feature", "geometry": {"type": "Polygon", "coordinates": [[[-95.9482479, 36.0964246], [-95.9482472, 36.0963884], [-95.9481971, 36.0963891], [-95.9481948, 36.09627], [-95.9482434, 36.0962694], [-95.9482421, 36.0962024], [-95.9483513, 36.096201], [-95.9483531, 36.0962928], [-95.9483705, 36.0962926], [-95.9483721, 36.0963772], [-95.9483569, 36.0963774], [-95.9483578, 36.0964229], [-95.9483419, 36.0964231], [-95.9483424, 36.0964483], [-95.9482748, 36.0964492], [-95.9482743, 36.0964242], [-95.9482479, 36.0964246]]]}, "properties": {"osm_id": 635301934, "building": "yes", "name": "", "height": null, "height_m": null, "levels": null, "tract_id": "40143005100", "tract_name": "51", "tags": {"building": "yes"}}}, {"type": "Feature", "geometry": {"type": "Polygon", "coordinates": [[[-95.9483102, 36.0967281], [-95.9481614, 36.0967249], [-95.9481639, 36.0966457], [-95.948116, 36.0966447], [-95.9481185, 36.0965648], [-95.948222, 36.0965669], [-95.9482246, 36.096487], [-95.9483268, 36.0964892], [-95.9483241, 36.0965721], [-95.9483429, 36.0965725], [-95.9483409, 36.0966328], [-95.9483204, 36.0966324], [-95.9483195, 36.0966609], [-95.9483124, 36.0966608], [-95.9483102, 36.0967281]]]}, "properties": {"osm_id": 635301935, "building": "yes", "name": "", "height": null, "height_m": null, "levels": null, "tract_id": "40143005100", "tract_name": "51", "tags": {"building": "yes"}}}, {"type": "Feature", "geometry": {"type": "Polygon", "coordinates": [[[-95.9480303, 36.0965305], [-95.9480282, 36.0964645], [-95.9479874, 36.0964654], [-95.9479895, 36.0965313], [-95.9480303, 36.0965305]]]}, "properties": {"osm_id": 635301936, "building": "yes", "name": "", "height": null, "height_m": null, "levels": null, "tract_id": "40143005100", "tract_name": "51", "tags": {"building": "yes"}}}, {"type": "Feature", "geometry": {"type": "Polygon", "coordinates": [[[-95.948366, 36.0969847], [-95.9483651, 36.096915], [-95.9482804, 36.0969156], [-95.9482799, 36.0968748], [-95.9483043, 36.0968746], [-95.9483036, 36.0968208], [-95.9482546, 36.0968212], [-95.9482544, 36.0968027], [-95.948103, 36.0968039], [-95.9481044, 36.0969246], [-95.9481232, 36.0969244], [-95.9481239, 36.0969866], [-95.948366, 36.0969847]]]}, "properties": {"osm_id": 635301937, "building": "yes", "name": "", "height": null, "height_m": null, "levels": null, "tract_id": "40143005100", "tract_name": "51", "tags": {"building": "yes"}}}, {"type": "Feature", "geometry": {"type": "Polygon", "coordinates": [[[-95.9474008, 36.096805], [-95.9470517, 36.0968084], [-95.9470504, 36.096723], [-95.9471834, 36.0967217], [-95.9471825, 36.0966583], [-95.9472424, 36.0966577], [-95.9472418, 36.0966167], [-95.9473355, 36.0966158], [-95.9473361, 36.0966557], [-95.9473985, 36.0966551], [-95.9474008, 36.096805]]]}, "properties": {"osm_id": 635301938, "building": "yes", "name": "", "height": null, "height_m": null, "levels": null, "tract_id": "40143005100", "tract_name": "51", "tags": {"building": "yes"}}}, {"type": "Feature", "geometry": {"type": "Polygon", "coordinates": [[[-95.9472217, 36.0970344], [-95.9472217, 36.0969667], [-95.94718, 36.0969667], [-95.9471799, 36.0968436], [-95.9470658, 36.0968437], [-95.9470659, 36.0968767], [-95.9470451, 36.0968767], [-95.9470452, 36.0969561], [-95.9470676, 36.0969561], [-95.9470676, 36.0969835], [-95.947127, 36.0969834], [-95.947127, 36.0970344], [-95.9472217, 36.0970344]]]}, "properties": {"osm_id": 635301939, "building": "yes", "name": "", "height": null, "height_m": null, "levels": null, "tract_id": "40143005100", "tract_name": "51", "tags": {"building": "yes"}}}, {"type": "Feature", "geometry": {"type": "Polygon", "coordinates": [[[-95.9475342, 36.0975267], [-95.9475339, 36.0974354], [-95.9475479, 36.0974354], [-95.9475477, 36.0973882], [-95.9475322, 36.0973883], [-95.9475319, 36.0973003], [-95.9474347, 36.0973005], [-95.947435, 36.097388], [-95.9474203, 36.0973881], [-95.9474205, 36.0974385], [-95.9474333, 36.0974384], [-95.9474336, 36.097527], [-95.9475342, 36.0975267]]]}, "properties": {"osm_id": 635301940, "building": "yes", "name": "", "height": null, "height_m": null, "levels": null, "tract_id": "40143005100", "tract_name": "51", "tags": {"building": "yes"}}}, {"type": "Feature", "geometry": {"type": "Polygon", "coordinates": [[[-95.9473752, 36.0976052], [-95.947373, 36.0975202], [-95.9472859, 36.0975216], [-95.9472881, 36.0976067], [-95.9473752, 36.0976052]]]}, "properties": {"osm_id": 635301941, "building": "yes", "name": "", "height": null, "height_m": null, "levels": null, "tract_id": "40143005100", "tract_name": "51", "tags": {"building": "yes"}}}, {"type": "Feature", "geometry": {"type": "Polygon", "coordinates": [[[-95.9473937, 36.097728], [-95.9473911, 36.0976558], [-95.9471129, 36.0976623], [-95.9471114, 36.0976211], [-95.9470423, 36.0976227], [-95.9470469, 36.0977496], [-95.9472243, 36.0977455], [-95.9472238, 36.097732], [-95.9473937, 36.097728]]]}, "properties": {"osm_id": 635301942, "building": "yes", "name": "", "height": null, "height_m": null, "levels": null, "tract_id": "40143005100", "tract_name": "51", "tags": {"building": "yes"}}}, {"type": "Feature", "geometry": {"type": "Polygon", "coordinates": [[[-95.9477861, 36.0977363], [-95.947545, 36.0977377], [-95.9475441, 36.0976441], [-95.9476099, 36.0976437], [-95.9476096, 36.0976109], [-95.9476911, 36.0976104], [-95.9476914, 36.0976433], [-95.9477852, 36.0976427], [-95.9477861, 36.0977363]]]}, "properties": {"osm_id": 635301943, "building": "yes", "name": "", "height": null, "height_m": null, "levels": null, "tract_id": "40143005100", "tract_name": "51", "tags": {"building": "yes"}}}, {"type": "Feature", "geometry": {"type": "Polygon", "coordinates": [[[-95.9481602, 36.0977124], [-95.9481595, 36.0976334], [-95.9480183, 36.0976343], [-95.9480179, 36.0976021], [-95.9479572, 36.0976025], [-95.9479575, 36.0976336], [-95.9478664, 36.0976342], [-95.9478674, 36.0977308], [-95.9480634, 36.0977295], [-95.9480632, 36.097713], [-95.9481602, 36.0977124]]]}, "properties": {"osm_id": 635301944, "building": "yes", "name": "", "height": null, "height_m": null, "levels": null, "tract_id": "40143005100", "tract_name": "51", "tags": {"building": "yes"}}}, {"type": "Feature", "geometry": {"type": "Polygon", "coordinates": [[[-95.9468133, 36.1024547], [-95.9467079, 36.1024542], [-95.9467078, 36.1024739], [-95.9466278, 36.1024735], [-95.9466279, 36.1024563], [-95.9464963, 36.1024555], [-95.9464969, 36.1023921], [-95.9463742, 36.1023915], [-95.9463746, 36.1023441], [-95.9463242, 36.1023438], [-95.946327, 36.1019983], [-95.9463767, 36.1019985], [-95.9463783, 36.1018032], [-95.9469527, 36.1018062], [-95.9469512, 36.1019893], [-95.9470031, 36.1019896], [-95.9470003, 36.1023332], [-95.9469367, 36.1023328], [-95.9469363, 36.1023823], [-95.9468139, 36.1023816], [-95.9468133, 36.1024547]]]}, "properties": {"osm_id": 635301948, "building": "school", "name": "", "height": null, "height_m": null, "levels": null, "tract_id": "40143005100", "tract_name": "51", "tags": {"building": "school"}}}, {"type": "Feature", "geometry": {"type": "Polygon", "coordinates": [[[-95.9464437, 36.1017853], [-95.9464606, 36.1016746], [-95.9463525, 36.1016639], [-95.9463357, 36.1017746], [-95.9464437, 36.1017853]]]}, "properties": {"osm_id": 635301949, "building": "yes", "name": "", "height": null, "height_m": null, "levels": null, "tract_id": "40143005100", "tract_name": "51", "tags": {"building": "yes"}}}, {"type": "Feature", "geometry": {"type": "Polygon", "coordinates": [[[-95.9533113, 36.1040219], [-95.95331, 36.1038271], [-95.9531725, 36.1038277], [-95.9531732, 36.1039358], [-95.9531071, 36.1039361], [-95.9531077, 36.1040228], [-95.9533113, 36.1040219]]]}, "properties": {"osm_id": 635304226, "building": "yes", "name": "", "height": null, "height_m": null, "levels": null, "tract_id": "40143005100", "tract_name": "51", "tags": {"building": "yes"}}}, {"type": "Feature", "geometry": {"type": "Polygon", "coordinates": [[[-95.9527535, 36.1037581], [-95.9527524, 36.1037127], [-95.95286, 36.103711], [-95.9528577, 36.1036152], [-95.9527542, 36.1036168], [-95.9527525, 36.1035427], [-95.9526433, 36.1035444], [-95.9526484, 36.1037597], [-95.9527535, 36.1037581]]]}, "properties": {"osm_id": 635304228, "building": "yes", "name": "", "height": null, "height_m": null, "levels": null, "tract_id": "40143005100", "tract_name": "51", "tags": {"building": "yes"}}}, {"type": "Feature", "geometry": {"type": "Polygon", "coordinates": [[[-95.9527513, 36.1031334], [-95.9526422, 36.1031338], [-95.9526416, 36.1030275], [-95.9526196, 36.1030276], [-95.9526188, 36.1028852], [-95.9528749, 36.1028843], [-95.9528753, 36.1029519], [-95.9528044, 36.1029521], [-95.9528045, 36.1029819], [-95.9528513, 36.1029818], [-95.9528516, 36.1030356], [-95.9527508, 36.103036], [-95.9527513, 36.1031334]]]}, "properties": {"osm_id": 635304231, "building": "yes", "name": "", "height": null, "height_m": null, "levels": null, "tract_id": "40143005100", "tract_name": "51", "tags": {"building": "yes"}}}, {"type": "Feature", "geometry": {"type": "Polygon", "coordinates": [[[-95.9533343, 36.1024906], [-95.9531788, 36.1024917], [-95.9531781, 36.1024188], [-95.9530922, 36.1024194], [-95.95309, 36.1022188], [-95.9532246, 36.1022179], [-95.9532256, 36.1023078], [-95.9533057, 36.1023072], [-95.9533066, 36.1023948], [-95.953265, 36.1023951], [-95.9532654, 36.1024266], [-95.9533336, 36.1024262], [-95.9533343, 36.1024906]]]}, "properties": {"osm_id": 635304235, "building": "yes", "name": "", "height": null, "height_m": null, "levels": null, "tract_id": "40143005100", "tract_name": "51", "tags": {"building": "yes"}}}, {"type": "Feature", "geometry": {"type": "Polygon", "coordinates": [[[-95.9527693, 36.1021275], [-95.9527699, 36.1020451], [-95.95279, 36.1020452], [-95.9527905, 36.1019848], [-95.952743, 36.1019846], [-95.9527436, 36.1019038], [-95.9526094, 36.1019031], [-95.9526083, 36.1020554], [-95.9526378, 36.1020555], [-95.9526371, 36.1021409], [-95.9527304, 36.1021414], [-95.9527305, 36.1021273], [-95.9527693, 36.1021275]]]}, "properties": {"osm_id": 635304239, "building": "yes", "name": "", "height": null, "height_m": null, "levels": null, "tract_id": "40143005100", "tract_name": "51", "tags": {"building": "yes"}}}, {"type": "Feature", "geometry": {"type": "Polygon", "coordinates": [[[-95.9500478, 36.1035691], [-95.9498521, 36.1035709], [-95.9498519, 36.1035569], [-95.9496583, 36.1035587], [-95.9496562, 36.1034178], [-95.9499481, 36.1034151], [-95.9499461, 36.103273], [-95.9500352, 36.1032721], [-95.9500349, 36.1032502], [-95.9501759, 36.1032489], [-95.9501772, 36.103335], [-95.9500444, 36.1033363], [-95.9500478, 36.1035691]]]}, "properties": {"osm_id": 635304242, "building": "detached", "name": "", "height": null, "height_m": null, "levels": null, "tract_id": "40143005100", "tract_name": "51", "tags": {"addr:city": "Tulsa", "addr:country": "US", "addr:housenumber": "2740", "addr:postcode": "74105", "addr:state": "OK", "addr:street": "East 41st Street South", "building": "detached"}}}, {"type": "Feature", "geometry": {"type": "Polygon", "coordinates": [[[-95.9509967, 36.1028644], [-95.9509013, 36.1028651], [-95.9509007, 36.1028123], [-95.9508472, 36.1028127], [-95.9508445, 36.1025845], [-95.9508968, 36.1025841], [-95.9508964, 36.1025543], [-95.951036, 36.1025532], [-95.9510381, 36.1027219], [-95.9510099, 36.1027221], [-95.9510111, 36.1028137], [-95.9509961, 36.1028138], [-95.9509967, 36.1028644]]]}, "properties": {"osm_id": 635304245, "building": "yes", "name": "", "height": null, "height_m": null, "levels": null, "tract_id": "40143005100", "tract_name": "51", "tags": {"building": "yes"}}}, {"type": "Feature", "geometry": {"type": "Polygon", "coordinates": [[[-95.9410527, 36.0951134], [-95.940713, 36.0951149], [-95.940711, 36.0948245], [-95.9405988, 36.094825], [-95.9405985, 36.0947741], [-95.940675, 36.0947738], [-95.940709, 36.0947736], [-95.940707, 36.0944962], [-95.9410485, 36.0944946], [-95.9410527, 36.0951134]]]}, "properties": {"osm_id": 671421292, "building": "yes", "name": "Saint John Harvard Medical Building", "height": null, "height_m": null, "levels": null, "tract_id": "40143005100", "tract_name": "51", "tags": {"addr:housenumber": "4720", "addr:street": "South Harvard Avenue East", "amenity": "doctors", "building": "yes", "check_date": "2024-10-31", "healthcare": "doctor", "name": "Saint John Harvard Medical Building"}}}, {"type": "Feature", "geometry": {"type": "Polygon", "coordinates": [[[-95.9426367, 36.093397], [-95.9426351, 36.0932904], [-95.9424715, 36.093292], [-95.942473, 36.0933986], [-95.9426367, 36.093397]]]}, "properties": {"osm_id": 740455318, "building": "barn", "name": "", "height": null, "height_m": null, "levels": null, "tract_id": "40143005100", "tract_name": "51", "tags": {"building": "barn"}}}, {"type": "Feature", "geometry": {"type": "Polygon", "coordinates": [[[-95.9432947, 36.0932667], [-95.9432896, 36.0931849], [-95.9431604, 36.0931901], [-95.9431654, 36.0932719], [-95.9432947, 36.0932667]]]}, "properties": {"osm_id": 740455319, "building": "yes", "name": "", "height": null, "height_m": null, "levels": null, "tract_id": "40143005100", "tract_name": "51", "tags": {"building": "yes"}}}, {"type": "Feature", "geometry": {"type": "Polygon", "coordinates": [[[-95.9431596, 36.0932411], [-95.9431576, 36.0932065], [-95.9431197, 36.093208], [-95.9431217, 36.0932426], [-95.9431596, 36.0932411]]]}, "properties": {"osm_id": 740455320, "building": "yes", "name": "", "height": null, "height_m": null, "levels": null, "tract_id": "40143005100", "tract_name": "51", "tags": {"building": "yes"}}}, {"type": "Feature", "geometry": {"type": "Polygon", "coordinates": [[[-95.9431341, 36.0929353], [-95.9431326, 36.09286], [-95.9430956, 36.0928605], [-95.943096, 36.0928789], [-95.9430262, 36.0928799], [-95.9430258, 36.09286], [-95.942974, 36.0928607], [-95.9429746, 36.0928863], [-95.942964, 36.0928864], [-95.9429652, 36.0929436], [-95.9429836, 36.0929434], [-95.942985, 36.093009], [-95.942992, 36.0930089], [-95.9429934, 36.093076], [-95.9430633, 36.0930751], [-95.9430636, 36.0930865], [-95.9430871, 36.0930862], [-95.9430881, 36.0931365], [-95.9431266, 36.093136], [-95.9431262, 36.0931149], [-95.9431502, 36.0931146], [-95.9431496, 36.0930853], [-95.9432167, 36.0930844], [-95.9432158, 36.0930374], [-95.9430912, 36.093039], [-95.9430891, 36.0929359], [-95.9431341, 36.0929353]]]}, "properties": {"osm_id": 740455321, "building": "detached", "name": "", "height": null, "height_m": null, "levels": null, "tract_id": "40143005100", "tract_name": "51", "tags": {"building": "detached"}}}, {"type": "Feature", "geometry": {"type": "Polygon", "coordinates": [[[-95.9407928, 36.0956214], [-95.94079, 36.0953576], [-95.9403954, 36.0953603], [-95.9403982, 36.0956241], [-95.9407928, 36.0956214]]]}, "properties": {"osm_id": 740480391, "building": "yes", "name": "", "height": null, "height_m": null, "levels": null, "tract_id": "40143005100", "tract_name": "51", "tags": {"building": "yes"}}}, {"type": "Feature", "geometry": {"type": "Polygon", "coordinates": [[[-95.9406304, 36.0930442], [-95.9406307, 36.093066], [-95.9405071, 36.0930672], [-95.9405098, 36.093246], [-95.9406207, 36.0932448], [-95.940621, 36.0932631], [-95.9406888, 36.0932625], [-95.9406885, 36.0932434], [-95.9407, 36.0932433], [-95.940733, 36.093243], [-95.9407333, 36.0932627], [-95.9408155, 36.0932619], [-95.9408122, 36.0930425], [-95.9406304, 36.0930442]]]}, "properties": {"osm_id": 740502388, "building": "yes", "name": "Dental Depot", "height": null, "height_m": null, "levels": null, "tract_id": "40143005100", "tract_name": "51", "tags": {"amenity": "dentist", "building": "yes", "healthcare": "dentist", "name": "Dental Depot"}}}, {"type": "Feature", "geometry": {"type": "Polygon", "coordinates": [[[-95.9431881, 36.0918085], [-95.943185, 36.0914973], [-95.9427984, 36.0914998], [-95.9428015, 36.091811], [-95.9431881, 36.0918085]]]}, "properties": {"osm_id": 740517130, "building": "office", "name": "", "height": null, "height_m": null, "levels": null, "tract_id": "40143005100", "tract_name": "51", "tags": {"addr:city": "Tulsa", "addr:country": "US", "addr:housenumber": "3105", "addr:postcode": "74105", "addr:state": "OK", "addr:street": "East Skelly Drive South", "building": "office"}}}, {"type": "Feature", "geometry": {"type": "Polygon", "coordinates": [[[-95.9409507, 36.0936266], [-95.9409255, 36.0936267], [-95.9409254, 36.0936106], [-95.9407723, 36.0936114], [-95.9407724, 36.0936246], [-95.94053, 36.0936257], [-95.9405299, 36.0936147], [-95.9403755, 36.0936153], [-95.9403756, 36.0936315], [-95.9403544, 36.0936316], [-95.9403552, 36.0937973], [-95.9403741, 36.0937972], [-95.9403741, 36.0938094], [-95.94052, 36.0938089], [-95.94052, 36.0937996], [-95.9407852, 36.0937987], [-95.9407852, 36.0938077], [-95.9409208, 36.0938072], [-95.9409207, 36.093793], [-95.940952, 36.0937928], [-95.9409507, 36.0936266]]]}, "properties": {"osm_id": 740522132, "building": "yes", "name": "", "height": null, "height_m": null, "levels": null, "tract_id": "40143005100", "tract_name": "51", "tags": {"building": "yes"}}}, {"type": "Feature", "geometry": {"type": "Polygon", "coordinates": [[[-95.9409464, 36.0939842], [-95.9409212, 36.0939843], [-95.9409211, 36.0939683], [-95.940768, 36.093969], [-95.9407681, 36.0939822], [-95.9405257, 36.0939833], [-95.9405256, 36.0939723], [-95.9403712, 36.0939729], [-95.9403713, 36.0939891], [-95.9403501, 36.0939892], [-95.9403509, 36.0941549], [-95.9403697, 36.0941549], [-95.9403698, 36.094167], [-95.9405157, 36.0941665], [-95.9405157, 36.0941572], [-95.9407808, 36.0941563], [-95.9407809, 36.0941654], [-95.9409165, 36.0941648], [-95.9409164, 36.0941506], [-95.9409476, 36.0941505], [-95.9409464, 36.0939842]]]}, "properties": {"osm_id": 740522133, "building": "yes", "name": "", "height": null, "height_m": null, "levels": null, "tract_id": "40143005100", "tract_name": "51", "tags": {"building": "yes"}}}, {"type": "Feature", "geometry": {"type": "Polygon", "coordinates": [[[-95.9414695, 36.0941416], [-95.9414695, 36.0941649], [-95.9416353, 36.0941651], [-95.9416353, 36.0941559], [-95.941649, 36.0941559], [-95.9416494, 36.0939831], [-95.9416333, 36.0939831], [-95.9416333, 36.0939727], [-95.9415285, 36.0939726], [-95.9415285, 36.0939635], [-95.9411563, 36.093963], [-95.9411563, 36.0939721], [-95.9410461, 36.093972], [-95.9410458, 36.0941665], [-95.9412118, 36.0941666], [-95.9412118, 36.0941413], [-95.9414695, 36.0941416]]]}, "properties": {"osm_id": 740522134, "building": "yes", "name": "", "height": null, "height_m": 6.0, "levels": 2, "tract_id": "40143005100", "tract_name": "51", "tags": {"addr:city": "Tulsa", "addr:housenumber": "4736", "addr:postcode": "74135", "addr:state": "OK", "addr:street": "South Harvard Avenue East", "building": "yes", "building:levels": "2", "operator": "French Villa Apartments"}}}, {"type": "Feature", "geometry": {"type": "Polygon", "coordinates": [[[-95.9416329, 36.0938061], [-95.9416331, 36.0936121], [-95.9414314, 36.093612], [-95.9414314, 36.0936232], [-95.9412504, 36.093623], [-95.9412504, 36.0936159], [-95.9410505, 36.0936157], [-95.9410502, 36.0938081], [-95.9411989, 36.0938082], [-95.9411989, 36.0938244], [-95.9414765, 36.0938246], [-95.9414766, 36.0938061], [-95.9416329, 36.0938061]]]}, "properties": {"osm_id": 740522135, "building": "yes", "name": "", "height": null, "height_m": null, "levels": null, "tract_id": "40143005100", "tract_name": "51", "tags": {"building": "yes"}}}, {"type": "Feature", "geometry": {"type": "Polygon", "coordinates": [[[-95.9404809, 36.093939], [-95.9404812, 36.0938431], [-95.9404525, 36.0938431], [-95.9404525, 36.0938329], [-95.9403595, 36.0938328], [-95.9403591, 36.0939499], [-95.9404558, 36.0939501], [-95.9404559, 36.093939], [-95.9404809, 36.093939]]]}, "properties": {"osm_id": 740522136, "building": "yes", "name": "", "height": null, "height_m": null, "levels": null, "tract_id": "40143005100", "tract_name": "51", "tags": {"building": "yes"}}}, {"type": "Feature", "geometry": {"type": "Polygon", "coordinates": [[[-95.9418904, 36.0943095], [-95.9418834, 36.0934634], [-95.941693, 36.0934644], [-95.9416938, 36.0935635], [-95.94171, 36.0935634], [-95.9417152, 36.0942228], [-95.9417039, 36.0942228], [-95.9417046, 36.0943105], [-95.9418904, 36.0943095]]]}, "properties": {"osm_id": 740522137, "building": "yes", "name": "", "height": null, "height_m": null, "levels": null, "tract_id": "40143005100", "tract_name": "51", "tags": {"building": "yes"}}}, {"type": "Feature", "geometry": {"type": "Polygon", "coordinates": [[[-95.9576087, 36.0958959], [-95.9574356, 36.0958969], [-95.9574355, 36.0958759], [-95.9572915, 36.0958766], [-95.9572915, 36.0958806], [-95.9572219, 36.095881], [-95.9572216, 36.0958526], [-95.9571731, 36.0958528], [-95.9571726, 36.0957863], [-95.9574884, 36.0957846], [-95.9574886, 36.0958187], [-95.957608, 36.095818], [-95.9576087, 36.0958959]]]}, "properties": {"osm_id": 744376877, "building": "yes", "name": "", "height": null, "height_m": null, "levels": null, "tract_id": "40143005100", "tract_name": "51", "tags": {"building": "yes"}}}, {"type": "Feature", "geometry": {"type": "Polygon", "coordinates": [[[-95.9573981, 36.0965434], [-95.9573449, 36.0965437], [-95.9573445, 36.0964919], [-95.9573977, 36.0964916], [-95.9573981, 36.0965434]]]}, "properties": {"osm_id": 744376878, "building": "yes", "name": "", "height": null, "height_m": null, "levels": null, "tract_id": "40143005100", "tract_name": "51", "tags": {"building": "yes"}}}, {"type": "Feature", "geometry": {"type": "Polygon", "coordinates": [[[-95.9574652, 36.0964833], [-95.9573769, 36.0964837], [-95.9573763, 36.0964047], [-95.9573409, 36.0964049], [-95.9573408, 36.0963878], [-95.9572955, 36.096388], [-95.9572956, 36.0963996], [-95.9572232, 36.0964], [-95.9572231, 36.0963884], [-95.9570402, 36.0963894], [-95.9570396, 36.0963201], [-95.9570903, 36.0963199], [-95.9570902, 36.0962976], [-95.957154, 36.0962973], [-95.9571539, 36.0962824], [-95.957231, 36.096282], [-95.9572312, 36.0962969], [-95.9573805, 36.0962961], [-95.9573807, 36.0963183], [-95.9574638, 36.0963178], [-95.9574652, 36.0964833]]]}, "properties": {"osm_id": 744376879, "building": "detached", "name": "", "height": null, "height_m": null, "levels": null, "tract_id": "40143005100", "tract_name": "51", "tags": {"building": "detached"}}}, {"type": "Feature", "geometry": {"type": "Polygon", "coordinates": [[[-95.9573874, 36.0969693], [-95.9573525, 36.0969693], [-95.9573525, 36.0969731], [-95.9573086, 36.0969731], [-95.9573086, 36.09695], [-95.9572506, 36.09695], [-95.9572506, 36.0968769], [-95.9572737, 36.0968769], [-95.9572737, 36.0968495], [-95.9572389, 36.0968495], [-95.9572389, 36.0967875], [-95.9572751, 36.0967875], [-95.9572751, 36.0967566], [-95.9572385, 36.0967566], [-95.9572385, 36.0967504], [-95.9572063, 36.0967504], [-95.9572063, 36.0967569], [-95.9571587, 36.0967569], [-95.9571587, 36.0966835], [-95.9572938, 36.0966835], [-95.9572938, 36.096697], [-95.9573063, 36.096697], [-95.9573063, 36.0966724], [-95.9573461, 36.0966724], [-95.9573461, 36.0966848], [-95.9573877, 36.0966848], [-95.9573877, 36.0966534], [-95.9574313, 36.0966534], [-95.9574313, 36.0966943], [-95.9574424, 36.0966943], [-95.9574424, 36.0967458], [-95.9574129, 36.0967458], [-95.9574129, 36.0967574], [-95.9573985, 36.0967574], [-95.9573985, 36.0967883], [-95.9574259, 36.0967883], [-95.9574259, 36.0967997], [-95.9574337, 36.0967997], [-95.9574337, 36.0968371], [-95.9574575, 36.0968371], [-95.9574575, 36.0968869], [-95.9574451, 36.0968869], [-95.9574451, 36.0969259], [-95.9573874, 36.0969259], [-95.9573874, 36.0969693]]]}, "properties": {"osm_id": 744376880, "building": "yes", "name": "", "height": null, "height_m": null, "levels": null, "tract_id": "40143005100", "tract_name": "51", "tags": {"building": "yes"}}}, {"type": "Feature", "geometry": {"type": "Polygon", "coordinates": [[[-95.9573582, 36.0970749], [-95.9573172, 36.0970751], [-95.957317, 36.097047], [-95.957358, 36.0970468], [-95.9573582, 36.0970749]]]}, "properties": {"osm_id": 744376881, "building": "yes", "name": "", "height": null, "height_m": null, "levels": null, "tract_id": "40143005100", "tract_name": "51", "tags": {"building": "yes"}}}, {"type": "Feature", "geometry": {"type": "Polygon", "coordinates": [[[-95.9573726, 36.0973198], [-95.9571386, 36.0973209], [-95.9571382, 36.0972575], [-95.9572586, 36.0972569], [-95.9572584, 36.0972187], [-95.9572756, 36.0972186], [-95.9572752, 36.0971737], [-95.9572888, 36.0971736], [-95.9572883, 36.0971022], [-95.9573891, 36.0971017], [-95.9573894, 36.0971399], [-95.957406, 36.0971399], [-95.9574066, 36.0972152], [-95.9573899, 36.0972153], [-95.9573903, 36.0972596], [-95.9573722, 36.0972597], [-95.9573726, 36.0973198]]]}, "properties": {"osm_id": 744376882, "building": "yes", "name": "", "height": null, "height_m": null, "levels": null, "tract_id": "40143005100", "tract_name": "51", "tags": {"building": "yes"}}}, {"type": "Feature", "geometry": {"type": "Polygon", "coordinates": [[[-95.9573773, 36.0955627], [-95.9575164, 36.0955613], [-95.9575156, 36.095512], [-95.9575291, 36.0955119], [-95.9575281, 36.0954484], [-95.9575048, 36.0954486], [-95.9575039, 36.095394], [-95.9574878, 36.0953942], [-95.9574864, 36.0953069], [-95.9573733, 36.095308], [-95.9573773, 36.0955627]]]}, "properties": {"osm_id": 891605205, "building": "yes", "name": "", "height": null, "height_m": null, "levels": null, "tract_id": "40143005100", "tract_name": "51", "tags": {"building": "yes"}}}, {"type": "Feature", "geometry": {"type": "Polygon", "coordinates": [[[-95.9572291, 36.1040684], [-95.9572278, 36.1039947], [-95.9573331, 36.1039935], [-95.9573311, 36.1038879], [-95.9574506, 36.1038865], [-95.9574521, 36.1039682], [-95.9574691, 36.103968], [-95.9574704, 36.1040426], [-95.9573242, 36.1040443], [-95.9573247, 36.1040673], [-95.9572291, 36.1040684]]]}, "properties": {"osm_id": 891703731, "building": "yes", "name": "", "height": null, "height_m": null, "levels": null, "tract_id": "40143005100", "tract_name": "51", "tags": {"building": "yes"}}}, {"type": "Feature", "geometry": {"type": "Polygon", "coordinates": [[[-95.9573509, 36.1034327], [-95.9574862, 36.103434], [-95.9574847, 36.1035323], [-95.9575283, 36.1035327], [-95.9575664, 36.1035331], [-95.9575651, 36.1036147], [-95.9575257, 36.1036143], [-95.9574835, 36.1036139], [-95.9574821, 36.1037041], [-95.9573469, 36.1037028], [-95.9573485, 36.1035933], [-95.9573255, 36.1035931], [-95.9573265, 36.103527], [-95.9573495, 36.1035272], [-95.9573509, 36.1034327]]]}, "properties": {"osm_id": 891703744, "building": "yes", "name": "", "height": null, "height_m": null, "levels": null, "tract_id": "40143005100", "tract_name": "51", "tags": {"building": "yes"}}}, {"type": "Feature", "geometry": {"type": "Polygon", "coordinates": [[[-95.9573404, 36.1034825], [-95.9572513, 36.1034825], [-95.9572513, 36.1034419], [-95.9572821, 36.1034419], [-95.9572821, 36.1034272], [-95.9573404, 36.1034272], [-95.9573404, 36.1034825]]]}, "properties": {"osm_id": 891703745, "building": "yes", "name": "", "height": null, "height_m": null, "levels": null, "tract_id": "40143005100", "tract_name": "51", "tags": {"building": "yes"}}}, {"type": "Feature", "geometry": {"type": "Polygon", "coordinates": [[[-95.9573679, 36.1033598], [-95.9573681, 36.1033936], [-95.9572998, 36.1033939], [-95.9572995, 36.10336], [-95.9573679, 36.1033598]]]}, "properties": {"osm_id": 891703746, "building": "yes", "name": "", "height": null, "height_m": null, "levels": null, "tract_id": "40143005100", "tract_name": "51", "tags": {"building": "yes"}}}, {"type": "Feature", "geometry": {"type": "Polygon", "coordinates": [[[-95.957313, 36.1029811], [-95.9574964, 36.1029795], [-95.9574999, 36.1032384], [-95.9573499, 36.1032398], [-95.9573493, 36.1031992], [-95.9573167, 36.1031994], [-95.9573154, 36.1031012], [-95.9573873, 36.1031005], [-95.9573867, 36.103056], [-95.957314, 36.1030566], [-95.957313, 36.1029811]]]}, "properties": {"osm_id": 891703747, "building": "yes", "name": "", "height": null, "height_m": null, "levels": null, "tract_id": "40143005100", "tract_name": "51", "tags": {"building": "yes"}}}, {"type": "Feature", "geometry": {"type": "Polygon", "coordinates": [[[-95.9574719, 36.10285], [-95.9573506, 36.1028507], [-95.95735, 36.1027879], [-95.9573284, 36.1027881], [-95.9573285, 36.1027964], [-95.9572829, 36.1027967], [-95.9572828, 36.1027884], [-95.9571929, 36.1027889], [-95.9571917, 36.1026657], [-95.9573103, 36.1026649], [-95.9573099, 36.1026213], [-95.9572451, 36.1026217], [-95.9572444, 36.1025508], [-95.9572716, 36.1025506], [-95.9572714, 36.10253], [-95.9573569, 36.1025295], [-95.9573564, 36.1024787], [-95.9574577, 36.102478], [-95.9574584, 36.1025493], [-95.9574919, 36.1025491], [-95.9574926, 36.1026219], [-95.9574762, 36.102622], [-95.9574856, 36.1026303], [-95.9574434, 36.1026641], [-95.9574318, 36.1026552], [-95.9574323, 36.102711], [-95.9574705, 36.1027107], [-95.9574719, 36.10285]]]}, "properties": {"osm_id": 891703751, "building": "yes", "name": "", "height": null, "height_m": null, "levels": null, "tract_id": "40143005100", "tract_name": "51", "tags": {"building": "yes"}}}, {"type": "Feature", "geometry": {"type": "Polygon", "coordinates": [[[-95.9572459, 36.1023634], [-95.9572454, 36.1022621], [-95.9572245, 36.1022622], [-95.957224, 36.1021657], [-95.9573057, 36.1021654], [-95.9573056, 36.10215], [-95.957242, 36.1021502], [-95.9572417, 36.1020828], [-95.9573043, 36.1020826], [-95.9573042, 36.102055], [-95.9573459, 36.1020549], [-95.9573458, 36.1020427], [-95.9574282, 36.1020424], [-95.9574283, 36.1020697], [-95.957487, 36.1020695], [-95.9574873, 36.1021377], [-95.9574481, 36.1021378], [-95.9574482, 36.1021521], [-95.9574319, 36.1021521], [-95.9574324, 36.1022357], [-95.95748, 36.1022356], [-95.9574803, 36.102287], [-95.9574547, 36.1022871], [-95.9574548, 36.1023194], [-95.9574057, 36.1023196], [-95.9574059, 36.1023629], [-95.9572459, 36.1023634]]]}, "properties": {"osm_id": 891703752, "building": "yes", "name": "", "height": null, "height_m": null, "levels": null, "tract_id": "40143005100", "tract_name": "51", "tags": {"building": "yes"}}}, {"type": "Feature", "geometry": {"type": "Polygon", "coordinates": [[[-95.957204, 36.1018869], [-95.957203, 36.1017428], [-95.9571926, 36.1017409], [-95.9571866, 36.101735], [-95.9571792, 36.1017255], [-95.9571799, 36.1017125], [-95.9571889, 36.1017008], [-95.9571778, 36.1016924], [-95.9572399, 36.1016415], [-95.957263, 36.1016605], [-95.957314, 36.1016185], [-95.9573394, 36.1016383], [-95.9574873, 36.1016391], [-95.9574873, 36.1016608], [-95.9574943, 36.101661], [-95.957494, 36.1017147], [-95.9574199, 36.1017155], [-95.9574199, 36.1016924], [-95.9574182, 36.1016925], [-95.9573834, 36.1016925], [-95.9573834, 36.101716], [-95.9573928, 36.101716], [-95.9573928, 36.1017642], [-95.9573837, 36.1017642], [-95.9573837, 36.101771], [-95.9573978, 36.101771], [-95.9573978, 36.1018154], [-95.9573834, 36.1018154], [-95.9573834, 36.1018425], [-95.9574182, 36.1018425], [-95.9574182, 36.101897], [-95.9573777, 36.1018975], [-95.9573777, 36.101902], [-95.9573626, 36.1019021], [-95.9573627, 36.1019129], [-95.9573204, 36.101913], [-95.9573203, 36.1019023], [-95.9572915, 36.1019024], [-95.9572915, 36.1018865], [-95.957204, 36.1018869]]]}, "properties": {"osm_id": 891703753, "building": "yes", "name": "", "height": null, "height_m": null, "levels": null, "tract_id": "40143005100", "tract_name": "51", "tags": {"building": "yes"}}}, {"type": "Feature", "geometry": {"type": "Polygon", "coordinates": [[[-95.9570689, 36.1017236], [-95.9570685, 36.1016472], [-95.9571487, 36.101647], [-95.957149, 36.1017234], [-95.9570689, 36.1017236]]]}, "properties": {"osm_id": 891703754, "building": "yes", "name": "", "height": null, "height_m": null, "levels": null, "tract_id": "40143005100", "tract_name": "51", "tags": {"building": "yes"}}}, {"type": "Feature", "geometry": {"type": "Polygon", "coordinates": [[[-95.9577937, 36.0984555], [-95.9577927, 36.0985903], [-95.9575698, 36.0985892], [-95.9575697, 36.0986008], [-95.9574824, 36.0986004], [-95.9574834, 36.098467], [-95.9575724, 36.0984674], [-95.9575725, 36.0984544], [-95.9577937, 36.0984555]]]}, "properties": {"osm_id": 891703787, "building": "detached", "name": "", "height": null, "height_m": null, "levels": null, "tract_id": "40143005100", "tract_name": "51", "tags": {"building": "detached"}}}, {"type": "Feature", "geometry": {"type": "Polygon", "coordinates": [[[-95.9576053, 36.0982268], [-95.9576046, 36.0979527], [-95.957724, 36.0979525], [-95.9577242, 36.0980339], [-95.9577386, 36.0980339], [-95.9577388, 36.0981103], [-95.9577244, 36.0981103], [-95.9577244, 36.0981377], [-95.9577029, 36.0981377], [-95.9577031, 36.0982267], [-95.9576053, 36.0982268]]]}, "properties": {"osm_id": 891703802, "building": "detached", "name": "", "height": null, "height_m": null, "levels": null, "tract_id": "40143005100", "tract_name": "51", "tags": {"building": "detached"}}}, {"type": "Feature", "geometry": {"type": "Polygon", "coordinates": [[[-95.9564359, 36.1038002], [-95.9566327, 36.103799], [-95.956633, 36.1038257], [-95.9567038, 36.1038253], [-95.9567039, 36.1038384], [-95.9567776, 36.103838], [-95.9567784, 36.1039119], [-95.9567046, 36.1039124], [-95.9567047, 36.1039217], [-95.956621, 36.1039223], [-95.956621, 36.1039188], [-95.9565195, 36.1039194], [-95.9565197, 36.1039335], [-95.9564372, 36.1039341], [-95.9564359, 36.1038002]]]}, "properties": {"osm_id": 891740245, "building": "detached", "name": "", "height": null, "height_m": null, "levels": null, "tract_id": "40143005100", "tract_name": "51", "tags": {"addr:city": "Tulsa", "addr:country": "US", "addr:housenumber": "2430", "addr:postcode": "74105", "addr:state": "OK", "addr:street": "East 41st Street South", "building": "detached"}}}, {"type": "Feature", "geometry": {"type": "Polygon", "coordinates": [[[-95.9561388, 36.1036675], [-95.9561597, 36.1037681], [-95.9561066, 36.1037753], [-95.9561166, 36.1038231], [-95.9561392, 36.10382], [-95.9561559, 36.1039006], [-95.9561204, 36.1039054], [-95.9561352, 36.1039764], [-95.95603, 36.1039906], [-95.9560218, 36.1039511], [-95.9560304, 36.1039499], [-95.9560218, 36.1039088], [-95.9560284, 36.1039079], [-95.9560275, 36.1039038], [-95.9560068, 36.1039066], [-95.9559962, 36.1038554], [-95.956001, 36.1038547], [-95.9559879, 36.1037914], [-95.9559559, 36.1037957], [-95.955935, 36.1036951], [-95.9561388, 36.1036675]]]}, "properties": {"osm_id": 891740250, "building": "yes", "name": "", "height": null, "height_m": null, "levels": null, "tract_id": "40143005100", "tract_name": "51", "tags": {"building": "yes"}}}, {"type": "Feature", "geometry": {"type": "Polygon", "coordinates": [[[-95.9521018, 36.1038352], [-95.9521769, 36.1038352], [-95.9521769, 36.1038471], [-95.9522208, 36.1038471], [-95.9522208, 36.1038888], [-95.9522318, 36.1038888], [-95.9522318, 36.1039679], [-95.9522208, 36.1039679], [-95.9522208, 36.1040031], [-95.9521621, 36.1040031], [-95.9521621, 36.1040104], [-95.9520863, 36.1040104], [-95.9520863, 36.1039972], [-95.9520062, 36.1039972], [-95.9520062, 36.1039257], [-95.9521018, 36.1039257], [-95.9521018, 36.1038352]]]}, "properties": {"osm_id": 891740283, "building": "yes", "name": "", "height": null, "height_m": null, "levels": null, "tract_id": "40143005100", "tract_name": "51", "tags": {"building": "yes"}}}, {"type": "Feature", "geometry": {"type": "Polygon", "coordinates": [[[-95.9516595, 36.1041226], [-95.9515878, 36.1041226], [-95.9515878, 36.1040803], [-95.9515757, 36.1040803], [-95.9515757, 36.1040235], [-95.9515529, 36.1040235], [-95.9515529, 36.1039322], [-95.9515452, 36.1039322], [-95.9515241, 36.1039151], [-95.9515241, 36.1038674], [-95.9515432, 36.103852], [-95.9515757, 36.103852], [-95.9515757, 36.103836], [-95.9516679, 36.103836], [-95.9516679, 36.1038547], [-95.9517065, 36.1038547], [-95.9517065, 36.1038956], [-95.9516971, 36.1038956], [-95.9516971, 36.1040392], [-95.9516679, 36.1040392], [-95.9516679, 36.1040806], [-95.9516595, 36.1040806], [-95.9516595, 36.1041226]]]}, "properties": {"osm_id": 891740284, "building": "yes", "name": "", "height": null, "height_m": null, "levels": null, "tract_id": "40143005100", "tract_name": "51", "tags": {"building": "yes"}}}, {"type": "Feature", "geometry": {"type": "Polygon", "coordinates": [[[-95.9510225, 36.1040744], [-95.9509125, 36.1040744], [-95.9509125, 36.1040698], [-95.9508304, 36.1040698], [-95.9508304, 36.1039991], [-95.9509125, 36.1039991], [-95.9509125, 36.1039698], [-95.9509367, 36.1039698], [-95.9509367, 36.1039476], [-95.9509896, 36.1039476], [-95.9509896, 36.1039698], [-95.9510225, 36.1039698], [-95.9510225, 36.1040744]]]}, "properties": {"osm_id": 891740311, "building": "detached", "name": "", "height": null, "height_m": null, "levels": null, "tract_id": "40143005100", "tract_name": "51", "tags": {"addr:city": "Tulsa", "addr:country": "US", "addr:housenumber": "2708", "addr:postcode": "74105", "addr:state": "OK", "addr:street": "East 41st Street South", "building": "detached"}}}, {"type": "Feature", "geometry": {"type": "Polygon", "coordinates": [[[-95.9507332, 36.1039701], [-95.9507006, 36.1039701], [-95.9507006, 36.1039197], [-95.9507332, 36.1039197], [-95.9507332, 36.1039701]]]}, "properties": {"osm_id": 891740330, "building": "yes", "name": "", "height": null, "height_m": null, "levels": null, "tract_id": "40143005100", "tract_name": "51", "tags": {"building": "yes"}}}, {"type": "Feature", "geometry": {"type": "Polygon", "coordinates": [[[-95.9503426, 36.1039194], [-95.9504425, 36.1039183], [-95.9504423, 36.1039083], [-95.9505438, 36.1039072], [-95.9505433, 36.1038839], [-95.9506558, 36.1038826], [-95.9506564, 36.1039159], [-95.9506938, 36.1039155], [-95.9506951, 36.103991], [-95.9506042, 36.1039921], [-95.9506044, 36.1040075], [-95.9505312, 36.1040083], [-95.9505316, 36.1040333], [-95.9503446, 36.1040354], [-95.9503426, 36.1039194]]]}, "properties": {"osm_id": 891740331, "building": "detached", "name": "", "height": null, "height_m": null, "levels": null, "tract_id": "40143005100", "tract_name": "51", "tags": {"addr:city": "Tulsa", "addr:country": "US", "addr:housenumber": "2724", "addr:postcode": "74105", "addr:state": "OK", "addr:street": "East 41st Street South", "building": "detached"}}}, {"type": "Feature", "geometry": {"type": "Polygon", "coordinates": [[[-95.9415248, 36.0945039], [-95.9415697, 36.0945035], [-95.9415688, 36.0943924], [-95.9413641, 36.0943943], [-95.9413629, 36.0945056], [-95.9414052, 36.0945051], [-95.9414046, 36.0945109], [-95.9415259, 36.0945109], [-95.9415248, 36.0945039]]]}, "properties": {"osm_id": 916955289, "building": "apartments", "name": "", "height": null, "height_m": null, "levels": null, "tract_id": "40143005100", "tract_name": "51", "tags": {"building": "apartments"}}}, {"type": "Feature", "geometry": {"type": "Polygon", "coordinates": [[[-95.9415062, 36.0947747], [-95.9415446, 36.0947743], [-95.9415436, 36.094661], [-95.9413425, 36.094661], [-95.9413425, 36.0947747], [-95.941382, 36.0947739], [-95.9413884, 36.0947795], [-95.9415062, 36.094779], [-95.9415062, 36.0947747]]]}, "properties": {"osm_id": 916955290, "building": "apartments", "name": "", "height": null, "height_m": null, "levels": null, "tract_id": "40143005100", "tract_name": "51", "tags": {"building": "apartments"}}}, {"type": "Feature", "geometry": {"type": "Polygon", "coordinates": [[[-95.9413425, 36.0950824], [-95.9415462, 36.0950815], [-95.9415457, 36.0949712], [-95.941503, 36.0949716], [-95.9415036, 36.0949647], [-95.941382, 36.0949639], [-95.9413815, 36.0949721], [-95.9413415, 36.0949721], [-95.9413425, 36.0950824]]]}, "properties": {"osm_id": 916955291, "building": "apartments", "name": "", "height": null, "height_m": null, "levels": null, "tract_id": "40143005100", "tract_name": "51", "tags": {"building": "apartments"}}}, {"type": "Feature", "geometry": {"type": "Polygon", "coordinates": [[[-95.9418669, 36.0933976], [-95.9413198, 36.0933987], [-95.9413198, 36.093299], [-95.9413613, 36.0932979], [-95.9413613, 36.0932838], [-95.9417945, 36.0932838], [-95.9417945, 36.0932968], [-95.9418656, 36.0932968], [-95.9418669, 36.0933976]]]}, "properties": {"osm_id": 916970683, "building": "apartments", "name": "", "height": null, "height_m": null, "levels": null, "tract_id": "40143005100", "tract_name": "51", "tags": {"building": "apartments"}}}, {"type": "Feature", "geometry": {"type": "Polygon", "coordinates": [[[-95.9417516, 36.093235], [-95.9417503, 36.0929554], [-95.9416505, 36.0929561], [-95.941651, 36.092976], [-95.9416389, 36.092976], [-95.9416411, 36.0932353], [-95.9416453, 36.0932353], [-95.941645, 36.0932437], [-95.9416566, 36.0932437], [-95.9416562, 36.0932347], [-95.9417516, 36.093235]]]}, "properties": {"osm_id": 916970684, "building": "apartments", "name": "", "height": null, "height_m": null, "levels": null, "tract_id": "40143005100", "tract_name": "51", "tags": {"building": "apartments"}}}, {"type": "Feature", "geometry": {"type": "Polygon", "coordinates": [[[-95.9414327, 36.0932452], [-95.9415167, 36.0932452], [-95.9415175, 36.0932202], [-95.941533, 36.0932195], [-95.9415325, 36.0930136], [-95.9415534, 36.0930138], [-95.9415543, 36.0929234], [-95.9415382, 36.0929235], [-95.9415387, 36.0928965], [-95.9414878, 36.0928958], [-95.9414879, 36.092889], [-95.9414577, 36.0928891], [-95.9414574, 36.0928723], [-95.9414226, 36.092872], [-95.9414221, 36.0928952], [-95.9414327, 36.0928952], [-95.9414327, 36.0932452]]]}, "properties": {"osm_id": 916970685, "building": "apartments", "name": "", "height": null, "height_m": null, "levels": null, "tract_id": "40143005100", "tract_name": "51", "tags": {"building": "apartments"}}}, {"type": "Feature", "geometry": {"type": "Polygon", "coordinates": [[[-95.9417059, 36.0928634], [-95.9417481, 36.092863], [-95.9417476, 36.0927403], [-95.9417075, 36.0927403], [-95.9417066, 36.0927284], [-95.9416235, 36.0927292], [-95.9416226, 36.0927207], [-95.9415591, 36.0927203], [-95.9415595, 36.0927299], [-95.9414755, 36.0927284], [-95.9414769, 36.0927423], [-95.9414368, 36.0927411], [-95.9414373, 36.0928622], [-95.9414774, 36.0928626], [-95.9414779, 36.0928746], [-95.9417059, 36.0928734], [-95.9417059, 36.0928634]]]}, "properties": {"osm_id": 916970686, "building": "apartments", "name": "", "height": null, "height_m": null, "levels": null, "tract_id": "40143005100", "tract_name": "51", "tags": {"building": "apartments"}}}, {"type": "Feature", "geometry": {"type": "Polygon", "coordinates": [[[-95.9439831, 36.0912509], [-95.9442305, 36.0912494], [-95.9442343, 36.0912705], [-95.9444556, 36.0912705], [-95.9444556, 36.0912494], [-95.9447942, 36.0912464], [-95.9447946, 36.0912693], [-95.9450163, 36.0912694], [-95.9450163, 36.0912497], [-95.9452667, 36.0912464], [-95.9452704, 36.091493], [-95.944997, 36.091493], [-95.944997, 36.0917109], [-95.9447943, 36.0917109], [-95.9447942, 36.091729], [-95.9444556, 36.0917305], [-95.9444546, 36.0917124], [-95.9442585, 36.0917124], [-95.9442529, 36.091493], [-95.943985, 36.0914945], [-95.9439831, 36.0912509]]]}, "properties": {"osm_id": 917184492, "building": "office", "name": "", "height": null, "height_m": 3.0, "levels": 1, "tract_id": "40143005100", "tract_name": "51", "tags": {"addr:city": "Tulsa", "addr:country": "US", "addr:housenumber": "3015", "addr:postcode": "74105", "addr:state": "OK", "addr:street": "East Skelly Drive South", "building": "office", "building:levels": "1", "roof:levels": "0"}}}, {"type": "Feature", "geometry": {"type": "Polygon", "coordinates": [[[-95.9460111, 36.0915], [-95.9460032, 36.0912338], [-95.9467638, 36.0912307], [-95.9467638, 36.0914936], [-95.9460111, 36.0915]]]}, "properties": {"osm_id": 917184713, "building": "office", "name": "", "height": null, "height_m": null, "levels": null, "tract_id": "40143005100", "tract_name": "51", "tags": {"addr:city": "Tulsa", "addr:country": "US", "addr:housenumber": "2865", "addr:postcode": "74105", "addr:state": "OK", "addr:street": "East Skelly Drive South", "building": "office"}}}, {"type": "Feature", "geometry": {"type": "Polygon", "coordinates": [[[-95.9470296, 36.0912322], [-95.9476115, 36.0912308], [-95.9476125, 36.0914954], [-95.9471436, 36.0914966], [-95.9471428, 36.091287], [-95.9470299, 36.0912872], [-95.9470296, 36.0912322]]]}, "properties": {"osm_id": 917185287, "building": "office", "name": "Dialysis Clinic", "height": null, "height_m": null, "levels": null, "tract_id": "40143005100", "tract_name": "51", "tags": {"addr:city": "Tulsa", "addr:country": "US", "addr:housenumber": "2845", "addr:postcode": "74105", "addr:state": "OK", "addr:street": "East Skelly Drive South", "amenity": "clinic", "brand": "Dialysis Clinic", "brand:wikidata": "Q5270633", "building": "office", "healthcare": "dialysis", "healthcare:speciality": "nephrology", "name": "Dialysis Clinic", "operator": "Fresenius Kidney Care", "operator:type": "business", "operator:wikidata": "Q650259", "operator:wikipedia": "en:Fresenius Medical Care", "short_name": "DCI"}}}, {"type": "Feature", "geometry": {"type": "Polygon", "coordinates": [[[-95.9493698, 36.0914727], [-95.9493659, 36.0911919], [-95.9495662, 36.0911907], [-95.9495674, 36.0912524], [-95.9495884, 36.0912525], [-95.9495887, 36.0911947], [-95.9496393, 36.0911947], [-95.9496399, 36.0912512], [-95.9496643, 36.0912512], [-95.9496643, 36.0911916], [-95.9498648, 36.0911922], [-95.9498654, 36.0914707], [-95.9493698, 36.0914727]]]}, "properties": {"osm_id": 917185723, "building": "office", "name": "", "height": null, "height_m": null, "levels": null, "tract_id": "40143005100", "tract_name": "51", "tags": {"addr:city": "Tulsa", "addr:country": "US", "addr:housenumber": "2761", "addr:postcode": "74105", "addr:state": "OK", "addr:street": "East Skelly Drive South", "building": "office"}}}, {"type": "Feature", "geometry": {"type": "Polygon", "coordinates": [[[-95.9507353, 36.0913096], [-95.9507324, 36.0912199], [-95.9507193, 36.0912199], [-95.9507186, 36.0912035], [-95.9506896, 36.0912029], [-95.9506874, 36.0911572], [-95.9507186, 36.0911566], [-95.9507179, 36.091139], [-95.9507287, 36.0911385], [-95.9507273, 36.0910886], [-95.9507346, 36.0910886], [-95.950733, 36.0910489], [-95.950784, 36.0910486], [-95.950784, 36.0910432], [-95.9508409, 36.0910428], [-95.9508412, 36.0910559], [-95.9508585, 36.0910555], [-95.9508581, 36.0910439], [-95.9509143, 36.0910434], [-95.9509145, 36.0910483], [-95.9509456, 36.091048], [-95.9509445, 36.0909777], [-95.9511188, 36.0909763], [-95.9511182, 36.0909612], [-95.9511227, 36.0909612], [-95.9511227, 36.0909402], [-95.9511516, 36.0909388], [-95.9511516, 36.090927], [-95.9512223, 36.0909256], [-95.9512234, 36.0909393], [-95.9512517, 36.0909398], [-95.9512529, 36.0909763], [-95.9513036, 36.0909757], [-95.9513037, 36.0909779], [-95.951346, 36.0909773], [-95.9514046, 36.0909761], [-95.9514055, 36.0909103], [-95.951579, 36.0909071], [-95.951579, 36.0908977], [-95.9515823, 36.0908975], [-95.9515815, 36.0908725], [-95.9516096, 36.0908723], [-95.9516091, 36.0908585], [-95.9516835, 36.0908583], [-95.9516834, 36.0908707], [-95.9517128, 36.090871], [-95.9517133, 36.0909092], [-95.951773, 36.0909086], [-95.9517734, 36.0909226], [-95.9518387, 36.0909227], [-95.9518387, 36.0909088], [-95.951918, 36.0909093], [-95.9519184, 36.0909901], [-95.9519086, 36.0909901], [-95.9519095, 36.0910413], [-95.9519318, 36.091041], [-95.9519318, 36.0910889], [-95.9519099, 36.0910891], [-95.9519099, 36.0911408], [-95.9519188, 36.0911408], [-95.9519195, 36.091217], [-95.9512256, 36.0912176], [-95.9512249, 36.0912909], [-95.9512147, 36.0912909], [-95.9512147, 36.0912991], [-95.9509631, 36.0913008], [-95.9509633, 36.0913075], [-95.9507353, 36.0913096]]]}, "properties": {"osm_id": 917188230, "building": "office", "name": "", "height": null, "height_m": null, "levels": null, "tract_id": "40143005100", "tract_name": "51", "tags": {"addr:city": "Tulsa", "addr:housenumber": "2475", "addr:postcode": "74105", "addr:state": "OK", "addr:street": "East Skelly Drive South", "building": "office", "note": "This building is abandoned, formerly a mental health center", "office": "yes"}}}, {"type": "Feature", "geometry": {"type": "Polygon", "coordinates": [[[-95.9409159, 36.1011135], [-95.9409145, 36.1013205], [-95.9408201, 36.1013201], [-95.9408199, 36.1013418], [-95.9407495, 36.1013415], [-95.9407497, 36.1013197], [-95.9405591, 36.1013189], [-95.9405596, 36.101243], [-95.9405362, 36.1012429], [-95.9405366, 36.1011866], [-95.94056, 36.1011867], [-95.9405606, 36.1011119], [-95.9409159, 36.1011135]]]}, "properties": {"osm_id": 982356268, "building": "yes", "name": "", "height": null, "height_m": null, "levels": null, "tract_id": "40143005100", "tract_name": "51", "tags": {"building": "yes"}}}, {"type": "Feature", "geometry": {"type": "Polygon", "coordinates": [[[-95.9422186, 36.0949495], [-95.9420021, 36.0949506], [-95.9420006, 36.0947601], [-95.9421344, 36.0947594], [-95.942135, 36.0948335], [-95.942191, 36.0948332], [-95.9421912, 36.0948663], [-95.9422179, 36.0948662], [-95.9422186, 36.0949495]]]}, "properties": {"osm_id": 1015082806, "building": "detached", "name": "", "height": null, "height_m": null, "levels": null, "tract_id": "40143005100", "tract_name": "51", "tags": {"building": "detached"}}}, {"type": "Feature", "geometry": {"type": "Polygon", "coordinates": [[[-95.9422147, 36.0945694], [-95.942014, 36.0945691], [-95.9420143, 36.0943814], [-95.9421342, 36.0943816], [-95.942134, 36.0944895], [-95.9422148, 36.0944896], [-95.9422147, 36.0945694]]]}, "properties": {"osm_id": 1015082807, "building": "detached", "name": "", "height": null, "height_m": null, "levels": null, "tract_id": "40143005100", "tract_name": "51", "tags": {"building": "detached"}}}, {"type": "Feature", "geometry": {"type": "Polygon", "coordinates": [[[-95.941859, 36.0949533], [-95.9417654, 36.0949537], [-95.9417648, 36.0948781], [-95.9416379, 36.0948787], [-95.9416372, 36.0947771], [-95.9416735, 36.094777], [-95.9416729, 36.0946972], [-95.94183, 36.0946964], [-95.9418312, 36.0948513], [-95.9418582, 36.0948511], [-95.941859, 36.0949533]]]}, "properties": {"osm_id": 1015082808, "building": "detached", "name": "", "height": null, "height_m": null, "levels": null, "tract_id": "40143005100", "tract_name": "51", "tags": {"building": "detached"}}}, {"type": "Feature", "geometry": {"type": "Polygon", "coordinates": [[[-95.9406935, 36.1037563], [-95.9406956, 36.1039215], [-95.9406819, 36.1039216], [-95.9406828, 36.1039954], [-95.9404783, 36.103997], [-95.9404754, 36.103758], [-95.9406935, 36.1037563]]]}, "properties": {"osm_id": 1289777330, "building": "retail", "name": "Fox Cleaners", "height": null, "height_m": 3.0, "levels": 1, "tract_id": "40143005100", "tract_name": "51", "tags": {"building": "retail", "building:levels": "1", "name": "Fox Cleaners", "roof:levels": "0", "roof:shape": "flat", "shop": "dry_cleaning"}}}, {"type": "Feature", "geometry": {"type": "Polygon", "coordinates": [[[-95.9409012, 36.104017], [-95.9407121, 36.104016], [-95.9407134, 36.1038394], [-95.9409025, 36.1038403], [-95.9409012, 36.104017]]]}, "properties": {"osm_id": 1289777331, "building": "retail", "name": "Tulsa Town Veterinary Hospital", "height": null, "height_m": null, "levels": null, "tract_id": "40143005100", "tract_name": "51", "tags": {"addr:city": "Tulsa", "addr:country": "US", "addr:housenumber": "3166", "addr:postcode": "74105", "addr:state": "OK", "addr:street": "East 41st Street South", "amenity": "veterinary", "building": "retail", "name": "Tulsa Town Veterinary Hospital"}}}, {"type": "Feature", "geometry": {"type": "Polygon", "coordinates": [[[-95.9566062, 36.0922016], [-95.9566051, 36.092317], [-95.9562678, 36.0923149], [-95.9562689, 36.0921995], [-95.9566062, 36.0922016]]]}, "properties": {"osm_id": 1315241660, "building": "apartments", "name": "", "height": null, "height_m": null, "levels": null, "tract_id": "40143005100", "tract_name": "51", "tags": {"building": "apartments"}}}, {"type": "Feature", "geometry": {"type": "Polygon", "coordinates": [[[-95.9573687, 36.0914673], [-95.957366, 36.0913351], [-95.9572438, 36.0913367], [-95.9572465, 36.0914689], [-95.9572223, 36.0914692], [-95.9572237, 36.0915385], [-95.957303, 36.0915375], [-95.9573034, 36.091557], [-95.9575126, 36.0915543], [-95.9575108, 36.0914654], [-95.9573687, 36.0914673]]]}, "properties": {"osm_id": 1315241726, "building": "apartments", "name": "", "height": null, "height_m": null, "levels": null, "tract_id": "40143005100", "tract_name": "51", "tags": {"building": "apartments"}}}, {"type": "Feature", "geometry": {"type": "Polygon", "coordinates": [[[-95.9555073, 36.0922191], [-95.9555055, 36.0922949], [-95.9555833, 36.0922961], [-95.9555828, 36.0923134], [-95.9558188, 36.0923171], [-95.9558202, 36.0922586], [-95.9558604, 36.0922592], [-95.9558617, 36.092205], [-95.9558456, 36.0922048], [-95.9558476, 36.0921225], [-95.955743, 36.0921208], [-95.9557414, 36.0921858], [-95.9556771, 36.0921848], [-95.9556762, 36.0922217], [-95.9555073, 36.0922191]]]}, "properties": {"osm_id": 1315241727, "building": "detached", "name": "", "height": null, "height_m": null, "levels": null, "tract_id": "40143005100", "tract_name": "51", "tags": {"building": "detached"}}}, {"type": "Feature", "geometry": {"type": "Polygon", "coordinates": [[[-95.9555045, 36.0915225], [-95.9555082, 36.0913787], [-95.9553795, 36.0913765], [-95.9553758, 36.0915203], [-95.9555045, 36.0915225]]]}, "properties": {"osm_id": 1315241729, "building": "yes", "name": "", "height": null, "height_m": null, "levels": null, "tract_id": "40143005100", "tract_name": "51", "tags": {"building": "yes"}}}, {"type": "Feature", "geometry": {"type": "Polygon", "coordinates": [[[-95.9575759, 36.0914296], [-95.9575738, 36.0913321], [-95.9575485, 36.0913325], [-95.9575477, 36.0912987], [-95.9574753, 36.0912998], [-95.9574761, 36.0913335], [-95.9573968, 36.0913346], [-95.9573989, 36.0914321], [-95.9575759, 36.0914296]]]}, "properties": {"osm_id": 1315241730, "building": "apartments", "name": "", "height": null, "height_m": null, "levels": null, "tract_id": "40143005100", "tract_name": "51", "tags": {"building": "apartments"}}}, {"type": "Feature", "geometry": {"type": "Polygon", "coordinates": [[[-95.9571253, 36.093317], [-95.9571235, 36.0932], [-95.9567873, 36.0932033], [-95.9567891, 36.0933203], [-95.9571253, 36.093317]]]}, "properties": {"osm_id": 1315241731, "building": "detached", "name": "", "height": null, "height_m": null, "levels": null, "tract_id": "40143005100", "tract_name": "51", "tags": {"building": "detached"}}}, {"type": "Feature", "geometry": {"type": "Polygon", "coordinates": [[[-95.9548779, 36.0934418], [-95.9548781, 36.0935537], [-95.9550104, 36.0935536], [-95.9550106, 36.0936229], [-95.9551447, 36.0936228], [-95.9551447, 36.0936618], [-95.9553244, 36.0936616], [-95.9553242, 36.0935281], [-95.9552401, 36.0935281], [-95.9552402, 36.0935924], [-95.9552009, 36.0935924], [-95.9552008, 36.0935], [-95.9552464, 36.0935], [-95.9552463, 36.0934414], [-95.9548779, 36.0934418]]]}, "properties": {"osm_id": 1315241732, "building": "detached", "name": "", "height": null, "height_m": null, "levels": null, "tract_id": "40143005100", "tract_name": "51", "tags": {"building": "detached"}}}, {"type": "Feature", "geometry": {"type": "Polygon", "coordinates": [[[-95.9557102, 36.0933287], [-95.9558926, 36.0933276], [-95.9558915, 36.0932063], [-95.9558378, 36.0932066], [-95.9558361, 36.0930115], [-95.9556608, 36.0930125], [-95.9556606, 36.09299], [-95.9555006, 36.092991], [-95.9555008, 36.0930113], [-95.9553024, 36.0930125], [-95.9553032, 36.0931057], [-95.955506, 36.0931045], [-95.9555068, 36.093189], [-95.9556419, 36.0931882], [-95.9556413, 36.093121], [-95.9557083, 36.0931206], [-95.9557102, 36.0933287]]]}, "properties": {"osm_id": 1315241734, "building": "detached", "name": "", "height": null, "height_m": null, "levels": null, "tract_id": "40143005100", "tract_name": "51", "tags": {"building": "detached"}}}, {"type": "Feature", "geometry": {"type": "Polygon", "coordinates": [[[-95.9565159, 36.0920362], [-95.9563588, 36.0920337], [-95.9563571, 36.0921018], [-95.9565143, 36.0921042], [-95.9565159, 36.0920362]]]}, "properties": {"osm_id": 1315241738, "building": "yes", "name": "", "height": null, "height_m": null, "levels": null, "tract_id": "40143005100", "tract_name": "51", "tags": {"building": "yes"}}}, {"type": "Feature", "geometry": {"type": "Polygon", "coordinates": [[[-95.9551377, 36.0939811], [-95.9551375, 36.0940079], [-95.9550634, 36.0940075], [-95.9550622, 36.0941548], [-95.9552955, 36.0941561], [-95.9552965, 36.0940426], [-95.9553196, 36.0940427], [-95.9553201, 36.093982], [-95.9551377, 36.0939811]]]}, "properties": {"osm_id": 1315241740, "building": "detached", "name": "", "height": null, "height_m": null, "levels": null, "tract_id": "40143005100", "tract_name": "51", "tags": {"building": "detached"}}}, {"type": "Feature", "geometry": {"type": "Polygon", "coordinates": [[[-95.9553052, 36.0939179], [-95.9553048, 36.0938031], [-95.9552636, 36.0938031], [-95.9552633, 36.0936991], [-95.9550819, 36.0936995], [-95.9550822, 36.0938122], [-95.9550286, 36.0938123], [-95.9550288, 36.0938708], [-95.955069, 36.0938707], [-95.9550692, 36.0939423], [-95.9552167, 36.0939419], [-95.9552167, 36.0939181], [-95.9553052, 36.0939179]]]}, "properties": {"osm_id": 1315241745, "building": "detached", "name": "", "height": null, "height_m": null, "levels": null, "tract_id": "40143005100", "tract_name": "51", "tags": {"building": "detached"}}}, {"type": "Feature", "geometry": {"type": "Polygon", "coordinates": [[[-95.9575214, 36.0926666], [-95.9575241, 36.0927836], [-95.9577386, 36.0927804], [-95.9577359, 36.0926634], [-95.9575214, 36.0926666]]]}, "properties": {"osm_id": 1315241748, "building": "detached", "name": "", "height": null, "height_m": null, "levels": null, "tract_id": "40143005100", "tract_name": "51", "tags": {"building": "detached"}}}, {"type": "Feature", "geometry": {"type": "Polygon", "coordinates": [[[-95.956534, 36.0936336], [-95.9562628, 36.0935553], [-95.9562203, 36.0936514], [-95.9564915, 36.0937297], [-95.956534, 36.0936336]]]}, "properties": {"osm_id": 1315241749, "building": "detached", "name": "", "height": null, "height_m": null, "levels": null, "tract_id": "40143005100", "tract_name": "51", "tags": {"building": "detached"}}}, {"type": "Feature", "geometry": {"type": "Polygon", "coordinates": [[[-95.9571951, 36.0915525], [-95.9571928, 36.0914649], [-95.9568845, 36.0914702], [-95.9568868, 36.0915578], [-95.9571951, 36.0915525]]]}, "properties": {"osm_id": 1315241751, "building": "apartments", "name": "", "height": null, "height_m": null, "levels": null, "tract_id": "40143005100", "tract_name": "51", "tags": {"building": "apartments"}}}, {"type": "Feature", "geometry": {"type": "Polygon", "coordinates": [[[-95.9562966, 36.0916752], [-95.9561771, 36.0917631], [-95.9563148, 36.0918853], [-95.9563313, 36.0918732], [-95.9564098, 36.0919428], [-95.9565695, 36.0918254], [-95.9565079, 36.0917707], [-95.9564176, 36.0918371], [-95.9564008, 36.0918221], [-95.9564343, 36.0917974], [-95.9562966, 36.0916752]]]}, "properties": {"osm_id": 1315241753, "building": "detached", "name": "", "height": null, "height_m": null, "levels": null, "tract_id": "40143005100", "tract_name": "51", "tags": {"building": "detached"}}}, {"type": "Feature", "geometry": {"type": "Polygon", "coordinates": [[[-95.9577012, 36.0931309], [-95.9577012, 36.0930572], [-95.9575885, 36.0930572], [-95.9575312, 36.0931054], [-95.957481, 36.0930664], [-95.9574234, 36.0931149], [-95.9574679, 36.0931494], [-95.9574679, 36.0932491], [-95.9576112, 36.0933605], [-95.9577012, 36.0932849], [-95.9577039, 36.0931997], [-95.9576047, 36.0932796], [-95.9575751, 36.0932796], [-95.9575017, 36.0932226], [-95.9576108, 36.0931309], [-95.9577012, 36.0931309]]]}, "properties": {"osm_id": 1315241755, "building": "yes", "name": "", "height": null, "height_m": null, "levels": null, "tract_id": "40143005100", "tract_name": "51", "tags": {"building": "yes"}}}, {"type": "Feature", "geometry": {"type": "Polygon", "coordinates": [[[-95.9558064, 36.0937569], [-95.9558922, 36.0937575], [-95.9558932, 36.093663], [-95.9560041, 36.0936637], [-95.9560036, 36.0937136], [-95.9561089, 36.0937143], [-95.9561104, 36.0935677], [-95.956085, 36.0935675], [-95.9560854, 36.0935315], [-95.9558801, 36.0935301], [-95.95588, 36.0935451], [-95.9558086, 36.0935446], [-95.9558064, 36.0937569]]]}, "properties": {"osm_id": 1315241757, "building": "detached", "name": "", "height": null, "height_m": null, "levels": null, "tract_id": "40143005100", "tract_name": "51", "tags": {"building": "detached"}}}, {"type": "Feature", "geometry": {"type": "Polygon", "coordinates": [[[-95.9566764, 36.0929056], [-95.956841, 36.0929075], [-95.9568431, 36.0927849], [-95.9567975, 36.0927843], [-95.9567981, 36.0927553], [-95.9567578, 36.0927548], [-95.9567573, 36.0927861], [-95.9567251, 36.0927857], [-95.9567243, 36.0928312], [-95.9566777, 36.0928307], [-95.9566764, 36.0929056]]]}, "properties": {"osm_id": 1315241758, "building": "detached", "name": "", "height": null, "height_m": null, "levels": null, "tract_id": "40143005100", "tract_name": "51", "tags": {"building": "detached"}}}, {"type": "Feature", "geometry": {"type": "Polygon", "coordinates": [[[-95.9560543, 36.0913351], [-95.9558827, 36.0913371], [-95.955886, 36.0915256], [-95.9560013, 36.0915243], [-95.9559997, 36.0914354], [-95.956056, 36.0914348], [-95.9560543, 36.0913351]]]}, "properties": {"osm_id": 1315241759, "building": "apartments", "name": "", "height": null, "height_m": null, "levels": null, "tract_id": "40143005100", "tract_name": "51", "tags": {"building": "apartments"}}}, {"type": "Feature", "geometry": {"type": "Polygon", "coordinates": [[[-95.9569423, 36.0919144], [-95.9567604, 36.0919067], [-95.9567562, 36.0919715], [-95.9567241, 36.0919701], [-95.9567176, 36.0920717], [-95.9569048, 36.0920797], [-95.9569061, 36.0920602], [-95.9570612, 36.0920668], [-95.9570661, 36.0919911], [-95.9569377, 36.0919857], [-95.9569423, 36.0919144]]]}, "properties": {"osm_id": 1315241762, "building": "detached", "name": "", "height": null, "height_m": null, "levels": null, "tract_id": "40143005100", "tract_name": "51", "tags": {"building": "detached"}}}, {"type": "Feature", "geometry": {"type": "Polygon", "coordinates": [[[-95.9574226, 36.0926725], [-95.9572055, 36.0926686], [-95.9572019, 36.0927998], [-95.957419, 36.0928037], [-95.9574226, 36.0926725]]]}, "properties": {"osm_id": 1315241763, "building": "detached", "name": "", "height": null, "height_m": null, "levels": null, "tract_id": "40143005100", "tract_name": "51", "tags": {"building": "detached"}}}, {"type": "Feature", "geometry": {"type": "Polygon", "coordinates": [[[-95.9554524, 36.0920853], [-95.9553629, 36.0920866], [-95.9553648, 36.0921703], [-95.9551958, 36.0921727], [-95.9551981, 36.0922732], [-95.9554566, 36.0922694], [-95.9554524, 36.0920853]]]}, "properties": {"osm_id": 1315241765, "building": "detached", "name": "", "height": null, "height_m": null, "levels": null, "tract_id": "40143005100", "tract_name": "51", "tags": {"building": "detached"}}}, {"type": "Feature", "geometry": {"type": "Polygon", "coordinates": [[[-95.9560843, 36.0914692], [-95.9560835, 36.0915572], [-95.9562873, 36.0915585], [-95.9562881, 36.0914705], [-95.9562387, 36.0914702], [-95.9562392, 36.0914203], [-95.9562794, 36.0914206], [-95.9562801, 36.0913503], [-95.9561165, 36.0913494], [-95.9561154, 36.0914694], [-95.9560843, 36.0914692]]]}, "properties": {"osm_id": 1315241766, "building": "apartments", "name": "", "height": null, "height_m": null, "levels": null, "tract_id": "40143005100", "tract_name": "51", "tags": {"building": "apartments"}}}, {"type": "Feature", "geometry": {"type": "Polygon", "coordinates": [[[-95.9556608, 36.0940794], [-95.9556594, 36.0939342], [-95.9555762, 36.0939347], [-95.9555759, 36.0939022], [-95.9554311, 36.0939032], [-95.9554334, 36.0941329], [-95.9555139, 36.0941324], [-95.9555134, 36.0940912], [-95.9555564, 36.0940909], [-95.955556, 36.0940606], [-95.9556124, 36.0940602], [-95.9556126, 36.0940797], [-95.9556608, 36.0940794]]]}, "properties": {"osm_id": 1315241768, "building": "detached", "name": "", "height": null, "height_m": null, "levels": null, "tract_id": "40143005100", "tract_name": "51", "tags": {"building": "detached"}}}, {"type": "Feature", "geometry": {"type": "Polygon", "coordinates": [[[-95.9564567, 36.0938771], [-95.9562421, 36.0938774], [-95.9562424, 36.0940399], [-95.9562129, 36.09404], [-95.956213, 36.0940985], [-95.9562505, 36.0940984], [-95.9562506, 36.0941418], [-95.9563847, 36.0941416], [-95.9563845, 36.0939964], [-95.9564569, 36.0939963], [-95.9564567, 36.0938771]]]}, "properties": {"osm_id": 1315241769, "building": "detached", "name": "", "height": null, "height_m": null, "levels": null, "tract_id": "40143005100", "tract_name": "51", "tags": {"building": "detached"}}}, {"type": "Feature", "geometry": {"type": "Polygon", "coordinates": [[[-95.956671, 36.091559], [-95.9568453, 36.0915568], [-95.9568437, 36.0914723], [-95.9567954, 36.0914729], [-95.9567942, 36.0914101], [-95.9568344, 36.0914096], [-95.956833, 36.0913381], [-95.9566668, 36.0913402], [-95.956671, 36.091559]]]}, "properties": {"osm_id": 1315241770, "building": "apartments", "name": "", "height": null, "height_m": null, "levels": null, "tract_id": "40143005100", "tract_name": "51", "tags": {"building": "apartments"}}}, {"type": "Feature", "geometry": {"type": "Polygon", "coordinates": [[[-95.955939, 36.0928044], [-95.9559469, 36.0930548], [-95.9560692, 36.0930523], [-95.9560655, 36.0929353], [-95.9562407, 36.0929317], [-95.9562437, 36.0930257], [-95.9563955, 36.0930226], [-95.956395, 36.0930053], [-95.956462, 36.093004], [-95.9564586, 36.0928969], [-95.9563219, 36.0928997], [-95.9563209, 36.0928681], [-95.9564844, 36.0928647], [-95.9564818, 36.0927813], [-95.9563596, 36.0927838], [-95.95636, 36.0927958], [-95.9562914, 36.0927972], [-95.9562919, 36.0928132], [-95.9562024, 36.092815], [-95.9562019, 36.092799], [-95.955939, 36.0928044]]]}, "properties": {"osm_id": 1315241771, "building": "detached", "name": "", "height": null, "height_m": null, "levels": null, "tract_id": "40143005100", "tract_name": "51", "tags": {"building": "detached"}}}, {"type": "Feature", "geometry": {"type": "Polygon", "coordinates": [[[-95.9566184, 36.0915565], [-95.9566175, 36.0914719], [-95.9565102, 36.0914727], [-95.9565097, 36.0914272], [-95.9565618, 36.0914268], [-95.9565608, 36.0913367], [-95.956357, 36.0913381], [-95.956358, 36.0914283], [-95.9563982, 36.091428], [-95.9563987, 36.0914701], [-95.9563278, 36.0914706], [-95.9563288, 36.0915585], [-95.9566184, 36.0915565]]]}, "properties": {"osm_id": 1315241774, "building": "apartments", "name": "", "height": null, "height_m": null, "levels": null, "tract_id": "40143005100", "tract_name": "51", "tags": {"building": "apartments"}}}, {"type": "Feature", "geometry": {"type": "Polygon", "coordinates": [[[-95.9558759, 36.0938406], [-95.9558703, 36.094134], [-95.9559588, 36.0941351], [-95.9559594, 36.0941061], [-95.9560425, 36.0941071], [-95.9560455, 36.0939511], [-95.955957, 36.09395], [-95.9559578, 36.0939067], [-95.9559819, 36.093907], [-95.9559832, 36.093842], [-95.9558759, 36.0938406]]]}, "properties": {"osm_id": 1315241776, "building": "detached", "name": "", "height": null, "height_m": null, "levels": null, "tract_id": "40143005100", "tract_name": "51", "tags": {"building": "detached"}}}, {"type": "Feature", "geometry": {"type": "Polygon", "coordinates": [[[-95.9572145, 36.0914237], [-95.9572163, 36.0913361], [-95.9570313, 36.0913335], [-95.9570289, 36.0914484], [-95.9571254, 36.0914497], [-95.957126, 36.0914225], [-95.9572145, 36.0914237]]]}, "properties": {"osm_id": 1315241777, "building": "apartments", "name": "", "height": null, "height_m": null, "levels": null, "tract_id": "40143005100", "tract_name": "51", "tags": {"building": "apartments"}}}, {"type": "Feature", "geometry": {"type": "Polygon", "coordinates": [[[-95.9545019, 36.0913177], [-95.9547202, 36.0913209], [-95.9547215, 36.091261], [-95.954589, 36.0912591], [-95.9545902, 36.0912041], [-95.954668, 36.0912053], [-95.9546678, 36.0912118], [-95.9547965, 36.0912136], [-95.954799, 36.0911018], [-95.9547025, 36.0911003], [-95.954703, 36.0910779], [-95.9545931, 36.0910763], [-95.9545925, 36.0911023], [-95.9545067, 36.091101], [-95.9545019, 36.0913177]]]}, "properties": {"osm_id": 1342540675, "building": "yes", "name": "", "height": null, "height_m": null, "levels": null, "tract_id": "40143005100", "tract_name": "51", "tags": {"building": "yes", "source": "microsoft/BuildingFootprints"}}}, {"type": "Feature", "geometry": {"type": "Polygon", "coordinates": [[[-95.9551312, 36.0914825], [-95.9551327, 36.0912225], [-95.9550457, 36.0912221], [-95.955046, 36.0911701], [-95.9549265, 36.0911697], [-95.9549247, 36.0914818], [-95.9551312, 36.0914825]]]}, "properties": {"osm_id": 1342540676, "building": "yes", "name": "", "height": null, "height_m": null, "levels": null, "tract_id": "40143005100", "tract_name": "51", "tags": {"building": "yes", "source": "microsoft/BuildingFootprints"}}}, {"type": "Feature", "geometry": {"type": "Polygon", "coordinates": [[[-95.954676, 36.0915357], [-95.9547754, 36.0915663], [-95.9548269, 36.0914572], [-95.9547931, 36.0914468], [-95.9548157, 36.0913988], [-95.9547501, 36.0913786], [-95.954676, 36.0915357]]]}, "properties": {"osm_id": 1342540677, "building": "yes", "name": "", "height": null, "height_m": null, "levels": null, "tract_id": "40143005100", "tract_name": "51", "tags": {"building": "yes", "source": "microsoft/BuildingFootprints"}}}, {"type": "Feature", "geometry": {"type": "Polygon", "coordinates": [[[-95.9544401, 36.091407], [-95.9545062, 36.0915678], [-95.9546018, 36.0915421], [-95.9545357, 36.0913813], [-95.9544401, 36.091407]]]}, "properties": {"osm_id": 1342540678, "building": "yes", "name": "", "height": null, "height_m": null, "levels": null, "tract_id": "40143005100", "tract_name": "51", "tags": {"building": "yes", "source": "microsoft/BuildingFootprints"}}}, {"type": "Feature", "geometry": {"type": "Polygon", "coordinates": [[[-95.9543807, 36.0912831], [-95.9542351, 36.0912387], [-95.954143, 36.091436], [-95.9542885, 36.0914804], [-95.9543807, 36.0912831]]]}, "properties": {"osm_id": 1342540679, "building": "yes", "name": "", "height": null, "height_m": null, "levels": null, "tract_id": "40143005100", "tract_name": "51", "tags": {"building": "yes", "source": "microsoft/BuildingFootprints"}}}, {"type": "Feature", "geometry": {"type": "Polygon", "coordinates": [[[-95.9540828, 36.0914553], [-95.954025, 36.0914557], [-95.954024, 36.0913552], [-95.9538738, 36.0913562], [-95.9538747, 36.0914545], [-95.9538157, 36.0914549], [-95.9538167, 36.0915473], [-95.9540837, 36.0915455], [-95.9540828, 36.0914553]]]}, "properties": {"osm_id": 1342540680, "building": "yes", "name": "", "height": null, "height_m": null, "levels": null, "tract_id": "40143005100", "tract_name": "51", "tags": {"building": "yes", "source": "microsoft/BuildingFootprints"}}}, {"type": "Feature", "geometry": {"type": "Polygon", "coordinates": [[[-95.9537892, 36.0914015], [-95.9537641, 36.0913396], [-95.9537679, 36.0913386], [-95.9537128, 36.0912028], [-95.9535845, 36.0912368], [-95.9536647, 36.0914345], [-95.9537892, 36.0914015]]]}, "properties": {"osm_id": 1342540681, "building": "yes", "name": "", "height": null, "height_m": null, "levels": null, "tract_id": "40143005100", "tract_name": "51", "tags": {"building": "yes", "source": "microsoft/BuildingFootprints"}}}, {"type": "Feature", "geometry": {"type": "Polygon", "coordinates": [[[-95.9537099, 36.0919829], [-95.9537945, 36.0919475], [-95.9538168, 36.0919823], [-95.953802, 36.0919885], [-95.9538579, 36.0920757], [-95.954135, 36.0919598], [-95.9540649, 36.0918504], [-95.9538915, 36.0919229], [-95.9538477, 36.0918546], [-95.9537757, 36.0918846], [-95.9537567, 36.0918549], [-95.9536552, 36.0918974], [-95.9537099, 36.0919829]]]}, "properties": {"osm_id": 1342540682, "building": "yes", "name": "", "height": null, "height_m": null, "levels": null, "tract_id": "40143005100", "tract_name": "51", "tags": {"building": "yes", "source": "microsoft/BuildingFootprints"}}}, {"type": "Feature", "geometry": {"type": "Polygon", "coordinates": [[[-95.9544363, 36.0919953], [-95.9544386, 36.0921622], [-95.9546666, 36.0921601], [-95.9546662, 36.0921306], [-95.9547145, 36.0921301], [-95.9547134, 36.0920513], [-95.9545927, 36.0920524], [-95.9545919, 36.0919939], [-95.9544363, 36.0919953]]]}, "properties": {"osm_id": 1342540683, "building": "yes", "name": "", "height": null, "height_m": null, "levels": null, "tract_id": "40143005100", "tract_name": "51", "tags": {"building": "yes", "source": "microsoft/BuildingFootprints"}}}, {"type": "Feature", "geometry": {"type": "Polygon", "coordinates": [[[-95.9549934, 36.0920314], [-95.9547655, 36.0920344], [-95.9547675, 36.0921363], [-95.9549954, 36.0921333], [-95.9549934, 36.0920314]]]}, "properties": {"osm_id": 1342540684, "building": "yes", "name": "", "height": null, "height_m": null, "levels": null, "tract_id": "40143005100", "tract_name": "51", "tags": {"building": "yes", "source": "microsoft/BuildingFootprints"}}}, {"type": "Feature", "geometry": {"type": "Polygon", "coordinates": [[[-95.9538684, 36.0923787], [-95.9537317, 36.0923801], [-95.9537337, 36.0925188], [-95.9537311, 36.0925188], [-95.9537346, 36.0927572], [-95.9538349, 36.0927562], [-95.9538355, 36.0927952], [-95.9538881, 36.0927947], [-95.953887, 36.0927232], [-95.9539326, 36.0927227], [-95.9539317, 36.0926612], [-95.95387, 36.0926618], [-95.9538691, 36.0925998], [-95.9539629, 36.0925989], [-95.9539618, 36.0925252], [-95.9538706, 36.0925261], [-95.9538684, 36.0923787]]]}, "properties": {"osm_id": 1342540685, "building": "yes", "name": "", "height": null, "height_m": null, "levels": null, "tract_id": "40143005100", "tract_name": "51", "tags": {"building": "yes", "source": "microsoft/BuildingFootprints"}}}, {"type": "Feature", "geometry": {"type": "Polygon", "coordinates": [[[-95.9537687, 36.0930328], [-95.9538144, 36.0931391], [-95.9538742, 36.0931223], [-95.9538942, 36.0931688], [-95.9539181, 36.093162], [-95.9539289, 36.0931872], [-95.9540582, 36.0931509], [-95.954039, 36.0931064], [-95.9541276, 36.0930816], [-95.9540811, 36.0929733], [-95.954038, 36.0929854], [-95.9540081, 36.0929157], [-95.9538621, 36.0929567], [-95.9538812, 36.0930012], [-95.9537687, 36.0930328]]]}, "properties": {"osm_id": 1342540686, "building": "yes", "name": "", "height": null, "height_m": null, "levels": null, "tract_id": "40143005100", "tract_name": "51", "tags": {"building": "yes", "source": "microsoft/BuildingFootprints"}}}, {"type": "Feature", "geometry": {"type": "Polygon", "coordinates": [[[-95.9545213, 36.0927829], [-95.9545205, 36.0929267], [-95.9545714, 36.0929269], [-95.9545707, 36.0930591], [-95.9546592, 36.0930594], [-95.9546598, 36.0929489], [-95.954633, 36.0929488], [-95.9546333, 36.0929047], [-95.9547084, 36.092905], [-95.9547085, 36.0928724], [-95.9547585, 36.0928726], [-95.954759, 36.0927838], [-95.9545213, 36.0927829]]]}, "properties": {"osm_id": 1342540687, "building": "yes", "name": "", "height": null, "height_m": null, "levels": null, "tract_id": "40143005100", "tract_name": "51", "tags": {"building": "yes", "source": "microsoft/BuildingFootprints"}}}, {"type": "Feature", "geometry": {"type": "Polygon", "coordinates": [[[-95.9544554, 36.0939512], [-95.954458, 36.0941787], [-95.9546618, 36.0941773], [-95.9546602, 36.0940299], [-95.9547004, 36.0940296], [-95.9546995, 36.0939494], [-95.9544554, 36.0939512]]]}, "properties": {"osm_id": 1342540688, "building": "yes", "name": "", "height": null, "height_m": null, "levels": null, "tract_id": "40143005100", "tract_name": "51", "tags": {"building": "yes", "source": "microsoft/BuildingFootprints"}}}, {"type": "Feature", "geometry": {"type": "Polygon", "coordinates": [[[-95.9544754, 36.0935112], [-95.954336, 36.0935087], [-95.9543371, 36.0934697], [-95.9541816, 36.0934668], [-95.9541805, 36.0935037], [-95.9541537, 36.0935032], [-95.9541501, 36.0936332], [-95.9543324, 36.0936365], [-95.9543327, 36.0936257], [-95.9544721, 36.0936282], [-95.9544754, 36.0935112]]]}, "properties": {"osm_id": 1342540689, "building": "yes", "name": "", "height": null, "height_m": null, "levels": null, "tract_id": "40143005100", "tract_name": "51", "tags": {"building": "yes", "source": "microsoft/BuildingFootprints"}}}, {"type": "Feature", "geometry": {"type": "Polygon", "coordinates": [[[-95.9540728, 36.0935353], [-95.9539761, 36.0935774], [-95.9539604, 36.0936188], [-95.953932, 36.0936118], [-95.9539089, 36.0936218], [-95.9539274, 36.0936497], [-95.953946, 36.0936543], [-95.9539317, 36.0936921], [-95.9539233, 36.0936958], [-95.9538616, 36.0938588], [-95.9539764, 36.0938872], [-95.9540273, 36.093865], [-95.9541012, 36.0936695], [-95.9541485, 36.0936489], [-95.9540728, 36.0935353]]]}, "properties": {"osm_id": 1342540690, "building": "yes", "name": "", "height": null, "height_m": null, "levels": null, "tract_id": "40143005100", "tract_name": "51", "tags": {"building": "yes", "source": "microsoft/BuildingFootprints"}}}, {"type": "Feature", "geometry": {"type": "Polygon", "coordinates": [[[-95.954086, 36.0939502], [-95.9539236, 36.0939146], [-95.9538592, 36.0941064], [-95.9537727, 36.0940874], [-95.9537445, 36.0941714], [-95.9539384, 36.0942139], [-95.9539852, 36.0940746], [-95.9540402, 36.0940867], [-95.954086, 36.0939502]]]}, "properties": {"osm_id": 1342540691, "building": "yes", "name": "", "height": null, "height_m": null, "levels": null, "tract_id": "40143005100", "tract_name": "51", "tags": {"building": "yes", "source": "microsoft/BuildingFootprints"}}}, {"type": "Feature", "geometry": {"type": "Polygon", "coordinates": [[[-95.9532875, 36.0939289], [-95.953082, 36.0939297], [-95.9530834, 36.0941811], [-95.9532755, 36.0941803], [-95.953275, 36.094085], [-95.9533715, 36.0940846], [-95.9533711, 36.0940023], [-95.9532879, 36.0940026], [-95.9532875, 36.0939289]]]}, "properties": {"osm_id": 1342540692, "building": "yes", "name": "", "height": null, "height_m": null, "levels": null, "tract_id": "40143005100", "tract_name": "51", "tags": {"building": "yes", "source": "microsoft/BuildingFootprints"}}}, {"type": "Feature", "geometry": {"type": "Polygon", "coordinates": [[[-95.9530955, 36.0943461], [-95.9531009, 36.0944521], [-95.9531983, 36.0944489], [-95.9532018, 36.0945181], [-95.9533239, 36.0945141], [-95.9533122, 36.0942813], [-95.9532801, 36.0942823], [-95.9532783, 36.0942477], [-95.953123, 36.0942528], [-95.9531277, 36.094345], [-95.9530955, 36.0943461]]]}, "properties": {"osm_id": 1342540693, "building": "yes", "name": "", "height": null, "height_m": null, "levels": null, "tract_id": "40143005100", "tract_name": "51", "tags": {"building": "yes", "source": "microsoft/BuildingFootprints"}}}, {"type": "Feature", "geometry": {"type": "Polygon", "coordinates": [[[-95.9539036, 36.0944286], [-95.9538097, 36.0944288], [-95.9538099, 36.0944851], [-95.9537321, 36.0944853], [-95.9537327, 36.0946955], [-95.9538615, 36.0946953], [-95.9538612, 36.0945977], [-95.9539336, 36.0945976], [-95.9539333, 36.0944979], [-95.9539038, 36.094498], [-95.9539036, 36.0944286]]]}, "properties": {"osm_id": 1342540694, "building": "yes", "name": "", "height": null, "height_m": null, "levels": null, "tract_id": "40143005100", "tract_name": "51", "tags": {"building": "yes", "source": "microsoft/BuildingFootprints"}}}, {"type": "Feature", "geometry": {"type": "Polygon", "coordinates": [[[-95.9540432, 36.095172], [-95.9541301, 36.0950954], [-95.9540251, 36.0950177], [-95.9540371, 36.0950071], [-95.9538587, 36.0948749], [-95.9538312, 36.0948992], [-95.9537662, 36.0948511], [-95.9536948, 36.094914], [-95.9540432, 36.095172]]]}, "properties": {"osm_id": 1342540695, "building": "yes", "name": "", "height": null, "height_m": null, "levels": null, "tract_id": "40143005100", "tract_name": "51", "tags": {"building": "yes", "source": "microsoft/BuildingFootprints"}}}, {"type": "Feature", "geometry": {"type": "Polygon", "coordinates": [[[-95.9542578, 36.0950343], [-95.9543981, 36.0951426], [-95.9545241, 36.095036], [-95.9544988, 36.0950165], [-95.954618, 36.0949156], [-95.9545324, 36.0948496], [-95.9544949, 36.0948813], [-95.9544669, 36.0948597], [-95.9543985, 36.0949175], [-95.9543466, 36.0948774], [-95.9542783, 36.0949353], [-95.9543288, 36.0949742], [-95.9542578, 36.0950343]]]}, "properties": {"osm_id": 1342540696, "building": "yes", "name": "", "height": null, "height_m": null, "levels": null, "tract_id": "40143005100", "tract_name": "51", "tags": {"building": "yes", "source": "microsoft/BuildingFootprints"}}}, {"type": "Feature", "geometry": {"type": "Polygon", "coordinates": [[[-95.9543931, 36.0944147], [-95.9543979, 36.0946314], [-95.954362, 36.0946319], [-95.954364, 36.0947221], [-95.9545303, 36.0947197], [-95.9545289, 36.0946569], [-95.9545825, 36.0946561], [-95.9545816, 36.094615], [-95.9546084, 36.0946146], [-95.9546078, 36.0945864], [-95.9545461, 36.0945873], [-95.9545434, 36.0944681], [-95.9545515, 36.094468], [-95.9545503, 36.0944125], [-95.9543931, 36.0944147]]]}, "properties": {"osm_id": 1342540697, "building": "yes", "name": "", "height": null, "height_m": null, "levels": null, "tract_id": "40143005100", "tract_name": "51", "tags": {"building": "yes", "source": "microsoft/BuildingFootprints"}}}, {"type": "Feature", "geometry": {"type": "Polygon", "coordinates": [[[-95.9547473, 36.0944179], [-95.954746, 36.0945233], [-95.954872, 36.0945243], [-95.9548711, 36.0946009], [-95.9548389, 36.0946006], [-95.954838, 36.0946765], [-95.9549947, 36.0946777], [-95.9549967, 36.0945014], [-95.9550172, 36.0945015], [-95.9550181, 36.09442], [-95.9547473, 36.0944179]]]}, "properties": {"osm_id": 1342540698, "building": "yes", "name": "", "height": null, "height_m": null, "levels": null, "tract_id": "40143005100", "tract_name": "51", "tags": {"building": "yes", "source": "microsoft/BuildingFootprints"}}}, {"type": "Feature", "geometry": {"type": "Polygon", "coordinates": [[[-95.9547619, 36.0950176], [-95.9548271, 36.0951084], [-95.9550386, 36.0950093], [-95.9548722, 36.0947774], [-95.9547758, 36.0948225], [-95.9548014, 36.0948582], [-95.9547673, 36.0948742], [-95.954843, 36.0949796], [-95.9547619, 36.0950176]]]}, "properties": {"osm_id": 1342540699, "building": "yes", "name": "", "height": null, "height_m": null, "levels": null, "tract_id": "40143005100", "tract_name": "51", "tags": {"building": "yes", "source": "microsoft/BuildingFootprints"}}}, {"type": "Feature", "geometry": {"type": "Polygon", "coordinates": [[[-95.9555943, 36.0948695], [-95.9554569, 36.0948052], [-95.9552808, 36.0950508], [-95.9554181, 36.0951151], [-95.9555943, 36.0948695]]]}, "properties": {"osm_id": 1342540700, "building": "yes", "name": "", "height": null, "height_m": null, "levels": null, "tract_id": "40143005100", "tract_name": "51", "tags": {"building": "yes", "source": "microsoft/BuildingFootprints"}}}, {"type": "Feature", "geometry": {"type": "Polygon", "coordinates": [[[-95.9553849, 36.094643], [-95.9555684, 36.0947558], [-95.955633, 36.0946872], [-95.9556012, 36.0946676], [-95.9555861, 36.0946014], [-95.955612, 36.0945738], [-95.9555974, 36.0945093], [-95.9556285, 36.0945047], [-95.9556151, 36.094446], [-95.9555684, 36.0944529], [-95.9555622, 36.0944257], [-95.9554351, 36.0944446], [-95.9554617, 36.0945614], [-95.9553849, 36.094643]]]}, "properties": {"osm_id": 1342540701, "building": "yes", "name": "", "height": null, "height_m": null, "levels": null, "tract_id": "40143005100", "tract_name": "51", "tags": {"building": "yes", "source": "microsoft/BuildingFootprints"}}}, {"type": "Feature", "geometry": {"type": "Polygon", "coordinates": [[[-95.9560157, 36.0944306], [-95.9558842, 36.09443], [-95.9558838, 36.0944915], [-95.9558435, 36.0944913], [-95.955843, 36.0945628], [-95.9558886, 36.094563], [-95.9558876, 36.0946909], [-95.9558538, 36.0946907], [-95.9558533, 36.0947536], [-95.9559461, 36.094754], [-95.9559466, 36.094689], [-95.9560137, 36.0946894], [-95.9560157, 36.0944306]]]}, "properties": {"osm_id": 1342540702, "building": "yes", "name": "", "height": null, "height_m": null, "levels": null, "tract_id": "40143005100", "tract_name": "51", "tags": {"building": "yes", "source": "microsoft/BuildingFootprints"}}}, {"type": "Feature", "geometry": {"type": "Polygon", "coordinates": [[[-95.9561545, 36.0950088], [-95.9559821, 36.0949001], [-95.9560003, 36.0948812], [-95.9559353, 36.0948403], [-95.9558476, 36.0949311], [-95.955925, 36.0949798], [-95.9558552, 36.0950521], [-95.956007, 36.0951477], [-95.956026, 36.095128], [-95.9560653, 36.0951528], [-95.9561296, 36.0950863], [-95.9560986, 36.0950667], [-95.9561545, 36.0950088]]]}, "properties": {"osm_id": 1342540703, "building": "yes", "name": "", "height": null, "height_m": null, "levels": null, "tract_id": "40143005100", "tract_name": "51", "tags": {"building": "yes", "source": "microsoft/BuildingFootprints"}}}, {"type": "Feature", "geometry": {"type": "Polygon", "coordinates": [[[-95.9562576, 36.0951175], [-95.9563089, 36.0951112], [-95.9563815, 36.0950655], [-95.9564188, 36.0951042], [-95.9564619, 36.0950989], [-95.9565129, 36.0951518], [-95.9565954, 36.0950999], [-95.9565291, 36.0950311], [-95.9566509, 36.0949544], [-95.956673, 36.0949773], [-95.9567231, 36.0949458], [-95.9566373, 36.0948568], [-95.9565889, 36.0948873], [-95.9565597, 36.0948571], [-95.9564012, 36.0949569], [-95.9563965, 36.094952], [-95.956302, 36.0950115], [-95.9562391, 36.0950192], [-95.9562576, 36.0951175]]]}, "properties": {"osm_id": 1342540704, "building": "yes", "name": "", "height": null, "height_m": null, "levels": null, "tract_id": "40143005100", "tract_name": "51", "tags": {"building": "yes", "source": "microsoft/BuildingFootprints"}}}, {"type": "Feature", "geometry": {"type": "Polygon", "coordinates": [[[-95.9564996, 36.0947448], [-95.9565897, 36.0947454], [-95.9565905, 36.0946674], [-95.9566227, 36.0946677], [-95.9566256, 36.0944076], [-95.9565032, 36.0944067], [-95.9564996, 36.0947448]]]}, "properties": {"osm_id": 1342540705, "building": "yes", "name": "", "height": null, "height_m": null, "levels": null, "tract_id": "40143005100", "tract_name": "51", "tags": {"building": "yes", "source": "microsoft/BuildingFootprints"}}}, {"type": "Feature", "geometry": {"type": "Polygon", "coordinates": [[[-95.9570636, 36.0946983], [-95.957064, 36.094449], [-95.9569234, 36.0944489], [-95.9569232, 36.0946058], [-95.9568991, 36.0946058], [-95.9568989, 36.094699], [-95.9569338, 36.0946991], [-95.9569337, 36.094722], [-95.9569686, 36.094722], [-95.9569686, 36.0946982], [-95.9570636, 36.0946983]]]}, "properties": {"osm_id": 1342540706, "building": "yes", "name": "", "height": null, "height_m": null, "levels": null, "tract_id": "40143005100", "tract_name": "51", "tags": {"building": "yes", "source": "microsoft/BuildingFootprints"}}}, {"type": "Feature", "geometry": {"type": "Polygon", "coordinates": [[[-95.956964, 36.0948763], [-95.9568696, 36.0949705], [-95.957072, 36.095103], [-95.9571664, 36.0950088], [-95.956964, 36.0948763]]]}, "properties": {"osm_id": 1342540707, "building": "yes", "name": "", "height": null, "height_m": null, "levels": null, "tract_id": "40143005100", "tract_name": "51", "tags": {"building": "yes", "source": "microsoft/BuildingFootprints"}}}, {"type": "Feature", "geometry": {"type": "Polygon", "coordinates": [[[-95.9576474, 36.094881], [-95.9575452, 36.0948357], [-95.9574445, 36.0949839], [-95.9574198, 36.0949729], [-95.9573496, 36.0950762], [-95.9574704, 36.0951298], [-95.9574987, 36.0950881], [-95.9575531, 36.0951123], [-95.9576719, 36.0949374], [-95.9576237, 36.094916], [-95.9576474, 36.094881]]]}, "properties": {"osm_id": 1342540708, "building": "yes", "name": "", "height": null, "height_m": null, "levels": null, "tract_id": "40143005100", "tract_name": "51", "tags": {"building": "yes", "source": "microsoft/BuildingFootprints"}}}, {"type": "Feature", "geometry": {"type": "Polygon", "coordinates": [[[-95.9574524, 36.0946577], [-95.9575918, 36.0946562], [-95.9575909, 36.0945986], [-95.957674, 36.0945977], [-95.9576723, 36.0944992], [-95.9576284, 36.0944997], [-95.9576268, 36.0944044], [-95.9574642, 36.0944062], [-95.9574669, 36.0945622], [-95.9574508, 36.0945624], [-95.9574524, 36.0946577]]]}, "properties": {"osm_id": 1342540709, "building": "yes", "name": "", "height": null, "height_m": null, "levels": null, "tract_id": "40143005100", "tract_name": "51", "tags": {"building": "yes", "source": "microsoft/BuildingFootprints"}}}]}