{"type": "FeatureCollection", "features": [{"type": "Feature", "geometry": {"type": "Polygon", "coordinates": [[[-95.7732714, 36.0359237], [-95.7731014, 36.0358614], [-95.7731629, 36.0357517], [-95.7733106, 36.0358058], [-95.7732789, 36.0358625], [-95.7733012, 36.0358707], [-95.7732714, 36.0359237]]]}, "properties": {"osm_id": 722023208, "building": "yes", "name": "", "height": null, "height_m": null, "levels": null, "tract_id": "40143007526", "tract_name": "75.26", "tags": {"addr:housenumber": "1713", "addr:postcode": "74012", "addr:street": "South 13th Street", "building": "yes"}}}, {"type": "Feature", "geometry": {"type": "Polygon", "coordinates": [[[-95.7731561, 36.0366798], [-95.7731558, 36.0366279], [-95.7731444, 36.0366279], [-95.7731444, 36.0366181], [-95.773112, 36.0366182], [-95.7731118, 36.0365759], [-95.7731565, 36.0365758], [-95.7731563, 36.0365419], [-95.7733187, 36.0365414], [-95.773319, 36.0365826], [-95.7732922, 36.0365827], [-95.7732924, 36.0366197], [-95.7733079, 36.0366196], [-95.7733082, 36.0366793], [-95.7731561, 36.0366798]]]}, "properties": {"osm_id": 722023209, "building": "yes", "name": "", "height": null, "height_m": null, "levels": null, "tract_id": "40143007526", "tract_name": "75.26", "tags": {"addr:housenumber": "1609", "addr:postcode": "74012", "addr:street": "South 13th Street", "building": "yes"}}}, {"type": "Feature", "geometry": {"type": "Polygon", "coordinates": [[[-95.773307, 36.0368602], [-95.7732224, 36.0368603], [-95.7732224, 36.0368641], [-95.7731929, 36.0368642], [-95.7731929, 36.0368598], [-95.7731446, 36.0368599], [-95.7731445, 36.0368246], [-95.7731365, 36.0368246], [-95.7731364, 36.0367762], [-95.7731461, 36.0367762], [-95.7731459, 36.0367223], [-95.7732957, 36.036722], [-95.7732959, 36.0367806], [-95.7732787, 36.0367806], [-95.7732788, 36.0368208], [-95.7733069, 36.0368208], [-95.773307, 36.0368602]]]}, "properties": {"osm_id": 722023210, "building": "yes", "name": "", "height": null, "height_m": null, "levels": null, "tract_id": "40143007526", "tract_name": "75.26", "tags": {"addr:housenumber": "1605", "addr:postcode": "74012", "addr:street": "South 13th Street", "building": "yes"}}}, {"type": "Feature", "geometry": {"type": "Polygon", "coordinates": [[[-95.7731656, 36.0371052], [-95.7730941, 36.0369782], [-95.7732638, 36.0369158], [-95.7733041, 36.0369873], [-95.7733107, 36.0369849], [-95.7733419, 36.0370403], [-95.7731656, 36.0371052]]]}, "properties": {"osm_id": 722023211, "building": "yes", "name": "", "height": null, "height_m": null, "levels": null, "tract_id": "40143007526", "tract_name": "75.26", "tags": {"addr:housenumber": "1601", "addr:postcode": "74012", "addr:street": "South 13th Street", "building": "yes"}}}, {"type": "Feature", "geometry": {"type": "Polygon", "coordinates": [[[-95.7708718, 36.0369528], [-95.7707999, 36.0369525], [-95.7707995, 36.0370352], [-95.7708163, 36.0370353], [-95.7708162, 36.0370554], [-95.7708579, 36.0370556], [-95.770858, 36.0370376], [-95.7708713, 36.0370376], [-95.7708718, 36.0369528]]]}, "properties": {"osm_id": 722023212, "building": "yes", "name": "", "height": null, "height_m": null, "levels": null, "tract_id": "40143007526", "tract_name": "75.26", "tags": {"building": "yes"}}}, {"type": "Feature", "geometry": {"type": "Polygon", "coordinates": [[[-95.7708586, 36.0373169], [-95.7707909, 36.0373169], [-95.7707913, 36.037265], [-95.7708583, 36.0372655], [-95.7708586, 36.0373169]]]}, "properties": {"osm_id": 722023213, "building": "yes", "name": "", "height": null, "height_m": null, "levels": null, "tract_id": "40143007526", "tract_name": "75.26", "tags": {"building": "yes"}}}, {"type": "Feature", "geometry": {"type": "Polygon", "coordinates": [[[-95.7707166, 36.037597], [-95.7707164, 36.0374551], [-95.770844, 36.037455], [-95.7708442, 36.0375969], [-95.7707166, 36.037597]]]}, "properties": {"osm_id": 722023214, "building": "yes", "name": "", "height": null, "height_m": null, "levels": null, "tract_id": "40143007526", "tract_name": "75.26", "tags": {"building": "yes"}}}, {"type": "Feature", "geometry": {"type": "Polygon", "coordinates": [[[-95.7710358, 36.037971], [-95.7709445, 36.0379723], [-95.7709427, 36.0378898], [-95.7708961, 36.0378905], [-95.7708908, 36.0376518], [-95.770943, 36.037651], [-95.7709415, 36.0375866], [-95.7710378, 36.0375852], [-95.7710414, 36.0377451], [-95.7710707, 36.0377447], [-95.771073, 36.0378426], [-95.7710513, 36.0378429], [-95.7710524, 36.0378888], [-95.771034, 36.037889], [-95.7710358, 36.037971]]]}, "properties": {"osm_id": 722023215, "building": "yes", "name": "", "height": null, "height_m": null, "levels": null, "tract_id": "40143007526", "tract_name": "75.26", "tags": {"building": "yes"}}}, {"type": "Feature", "geometry": {"type": "Polygon", "coordinates": [[[-95.7708675, 36.0382559], [-95.77073, 36.0382559], [-95.77073, 36.0381691], [-95.7708674, 36.0381691], [-95.7708675, 36.0382559]]]}, "properties": {"osm_id": 722023216, "building": "yes", "name": "", "height": null, "height_m": null, "levels": null, "tract_id": "40143007526", "tract_name": "75.26", "tags": {"building": "yes"}}}, {"type": "Feature", "geometry": {"type": "Polygon", "coordinates": [[[-95.7707267, 36.0385308], [-95.7708699, 36.0385312], [-95.7708704, 36.0384324], [-95.770831, 36.0384323], [-95.7708309, 36.0384445], [-95.770727, 36.0384442], [-95.7707267, 36.0385308]]]}, "properties": {"osm_id": 722023217, "building": "yes", "name": "", "height": null, "height_m": null, "levels": null, "tract_id": "40143007526", "tract_name": "75.26", "tags": {"building": "yes"}}}, {"type": "Feature", "geometry": {"type": "Polygon", "coordinates": [[[-95.7706944, 36.0388918], [-95.7706921, 36.0387231], [-95.770869, 36.0387215], [-95.7708713, 36.0388902], [-95.7706944, 36.0388918]]]}, "properties": {"osm_id": 722023218, "building": "yes", "name": "", "height": null, "height_m": null, "levels": null, "tract_id": "40143007526", "tract_name": "75.26", "tags": {"building": "yes"}}}, {"type": "Feature", "geometry": {"type": "Polygon", "coordinates": [[[-95.7728598, 36.0380655], [-95.77286, 36.0380305], [-95.772826, 36.0380303], [-95.7728258, 36.0380654], [-95.7728598, 36.0380655]]]}, "properties": {"osm_id": 722023219, "building": "yes", "name": "", "height": null, "height_m": null, "levels": null, "tract_id": "40143007526", "tract_name": "75.26", "tags": {"building": "yes"}}}, {"type": "Feature", "geometry": {"type": "Polygon", "coordinates": [[[-95.7734258, 36.0378136], [-95.7732938, 36.0378134], [-95.773294, 36.0377166], [-95.7733257, 36.0377166], [-95.7733256, 36.0377298], [-95.773426, 36.03773], [-95.7734258, 36.0378136]]]}, "properties": {"osm_id": 722023220, "building": "yes", "name": "", "height": null, "height_m": null, "levels": null, "tract_id": "40143007526", "tract_name": "75.26", "tags": {"building": "yes"}}}, {"type": "Feature", "geometry": {"type": "Polygon", "coordinates": [[[-95.7731538, 36.0391277], [-95.7730503, 36.0391268], [-95.7730511, 36.0390639], [-95.7731546, 36.0390647], [-95.7731538, 36.0391277]]]}, "properties": {"osm_id": 722023221, "building": "yes", "name": "", "height": null, "height_m": null, "levels": null, "tract_id": "40143007526", "tract_name": "75.26", "tags": {"building": "yes"}}}, {"type": "Feature", "geometry": {"type": "Polygon", "coordinates": [[[-95.7676924, 36.0317783], [-95.7675207, 36.0317785], [-95.7675206, 36.0316932], [-95.7676923, 36.031693], [-95.7676924, 36.0317783]]]}, "properties": {"osm_id": 725886678, "building": "garage", "name": "", "height": null, "height_m": null, "levels": null, "tract_id": "40143007526", "tract_name": "75.26", "tags": {"building": "garage"}}}, {"type": "Feature", "geometry": {"type": "Polygon", "coordinates": [[[-95.7671218, 36.0315423], [-95.7669819, 36.0315423], [-95.7669819, 36.0315592], [-95.7668898, 36.0315591], [-95.7668898, 36.031439], [-95.7669947, 36.031439], [-95.7669947, 36.0313908], [-95.7670845, 36.0313908], [-95.7670845, 36.0314323], [-95.7671218, 36.0314323], [-95.7671218, 36.0315423]]]}, "properties": {"osm_id": 725886679, "building": "yes", "name": "", "height": null, "height_m": null, "levels": null, "tract_id": "40143007526", "tract_name": "75.26", "tags": {"building": "yes"}}}, {"type": "Feature", "geometry": {"type": "Polygon", "coordinates": [[[-95.7663226, 36.031568], [-95.7662127, 36.0315701], [-95.7662097, 36.0314707], [-95.7663056, 36.0314688], [-95.7663043, 36.0314262], [-95.7664194, 36.0314239], [-95.7664207, 36.0314666], [-95.766545, 36.0314641], [-95.7665472, 36.031538], [-95.7663963, 36.031541], [-95.7663965, 36.0315467], [-95.766354, 36.0315475], [-95.7663538, 36.0315421], [-95.7663473, 36.0315422], [-95.7663477, 36.031556], [-95.7663223, 36.0315565], [-95.7663226, 36.031568]]]}, "properties": {"osm_id": 725886680, "building": "yes", "name": "", "height": null, "height_m": null, "levels": null, "tract_id": "40143007526", "tract_name": "75.26", "tags": {"building": "yes"}}}, {"type": "Feature", "geometry": {"type": "Polygon", "coordinates": [[[-95.7661974, 36.0314479], [-95.7661958, 36.0313928], [-95.7662542, 36.0313917], [-95.7662558, 36.0314468], [-95.7661974, 36.0314479]]]}, "properties": {"osm_id": 725886681, "building": "yes", "name": "", "height": null, "height_m": null, "levels": null, "tract_id": "40143007526", "tract_name": "75.26", "tags": {"building": "yes"}}}, {"type": "Feature", "geometry": {"type": "Polygon", "coordinates": [[[-95.7659185, 36.0315558], [-95.7657444, 36.0315588], [-95.7657448, 36.0315723], [-95.765716, 36.0315728], [-95.7657162, 36.0315828], [-95.765604, 36.0315848], [-95.7656012, 36.031483], [-95.7657218, 36.0314809], [-95.7657208, 36.0314434], [-95.7658085, 36.0314419], [-95.7658095, 36.0314795], [-95.7659164, 36.0314776], [-95.7659185, 36.0315558]]]}, "properties": {"osm_id": 725886682, "building": "yes", "name": "", "height": null, "height_m": null, "levels": null, "tract_id": "40143007526", "tract_name": "75.26", "tags": {"building": "yes"}}}, {"type": "Feature", "geometry": {"type": "Polygon", "coordinates": [[[-95.7651707, 36.031524], [-95.7650998, 36.0315262], [-95.7650981, 36.0314911], [-95.7650112, 36.0314938], [-95.7650129, 36.0315288], [-95.7649021, 36.0315323], [-95.7649061, 36.0316136], [-95.764988, 36.031611], [-95.7649884, 36.0316193], [-95.7650557, 36.0316171], [-95.7650553, 36.0316078], [-95.7651746, 36.031604], [-95.7651707, 36.031524]]]}, "properties": {"osm_id": 725886683, "building": "yes", "name": "", "height": null, "height_m": null, "levels": null, "tract_id": "40143007526", "tract_name": "75.26", "tags": {"building": "yes"}}}, {"type": "Feature", "geometry": {"type": "Polygon", "coordinates": [[[-95.7645903, 36.0316176], [-95.7644803, 36.031618], [-95.7644801, 36.0315879], [-95.7643732, 36.0315883], [-95.764373, 36.0315415], [-95.7642781, 36.0315418], [-95.7642777, 36.0314489], [-95.7643853, 36.0314486], [-95.7643854, 36.0314622], [-95.764435, 36.031462], [-95.7644348, 36.0314189], [-95.7645221, 36.0314186], [-95.7645223, 36.0314648], [-95.7645896, 36.0314646], [-95.7645903, 36.0316176]]]}, "properties": {"osm_id": 725886684, "building": "yes", "name": "", "height": null, "height_m": null, "levels": null, "tract_id": "40143007526", "tract_name": "75.26", "tags": {"building": "yes"}}}, {"type": "Feature", "geometry": {"type": "Polygon", "coordinates": [[[-95.7640187, 36.031297], [-95.7639296, 36.0312975], [-95.7639294, 36.0312703], [-95.7638548, 36.0312707], [-95.763855, 36.031298], [-95.763766, 36.0312985], [-95.7637666, 36.031376], [-95.7638664, 36.0313755], [-95.7638664, 36.0313785], [-95.7638953, 36.0313783], [-95.7638953, 36.0313871], [-95.763979, 36.0313866], [-95.7639789, 36.0313754], [-95.7640193, 36.0313752], [-95.7640187, 36.031297]]]}, "properties": {"osm_id": 725886685, "building": "yes", "name": "", "height": null, "height_m": null, "levels": null, "tract_id": "40143007526", "tract_name": "75.26", "tags": {"building": "yes"}}}, {"type": "Feature", "geometry": {"type": "Polygon", "coordinates": [[[-95.7631771, 36.0314801], [-95.7628886, 36.0314816], [-95.7628894, 36.0315935], [-95.7630128, 36.0315929], [-95.7630127, 36.0315847], [-95.7631779, 36.0315838], [-95.7631771, 36.0314801]]]}, "properties": {"osm_id": 725886686, "building": "yes", "name": "", "height": null, "height_m": null, "levels": null, "tract_id": "40143007526", "tract_name": "75.26", "tags": {"building": "yes"}}}, {"type": "Feature", "geometry": {"type": "Polygon", "coordinates": [[[-95.7628226, 36.0313909], [-95.7627543, 36.0313906], [-95.7627545, 36.0313546], [-95.7628229, 36.031355], [-95.7628226, 36.0313909]]]}, "properties": {"osm_id": 725886687, "building": "yes", "name": "", "height": null, "height_m": null, "levels": null, "tract_id": "40143007526", "tract_name": "75.26", "tags": {"building": "yes"}}}, {"type": "Feature", "geometry": {"type": "Polygon", "coordinates": [[[-95.7625448, 36.0313647], [-95.7623916, 36.0313735], [-95.7623908, 36.0313647], [-95.7623244, 36.0313685], [-95.7623021, 36.0311113], [-95.7623676, 36.0311076], [-95.7623669, 36.0310994], [-95.7625208, 36.0310906], [-95.7625448, 36.0313647]]]}, "properties": {"osm_id": 725886688, "building": "yes", "name": "Grace Community Church", "height": null, "height_m": null, "levels": null, "tract_id": "40143007526", "tract_name": "75.26", "tags": {"amenity": "place_of_worship", "building": "yes", "name": "Grace Community Church", "religion": "christian", "service_times": "Su 10:45,18:00"}}}, {"type": "Feature", "geometry": {"type": "Polygon", "coordinates": [[[-95.7760012, 36.0372357], [-95.7760003, 36.0371027], [-95.7760518, 36.0371025], [-95.776052, 36.0371238], [-95.7760965, 36.0371236], [-95.7760965, 36.0371125], [-95.7761691, 36.0371122], [-95.77617, 36.0372349], [-95.7761053, 36.0372352], [-95.7761054, 36.0372434], [-95.7760404, 36.0372437], [-95.7760404, 36.0372356], [-95.7760012, 36.0372357]]]}, "properties": {"osm_id": 836840801, "building": "house", "name": "", "height": null, "height_m": null, "levels": null, "tract_id": "40143007526", "tract_name": "75.26", "tags": {"addr:postcode": "74012", "addr:street": "East Quincy Street", "building": "house"}}}, {"type": "Feature", "geometry": {"type": "Polygon", "coordinates": [[[-95.7759582, 36.0372218], [-95.7758027, 36.0372224], [-95.775802, 36.0371072], [-95.7758475, 36.037107], [-95.7758476, 36.0371124], [-95.7758847, 36.0371122], [-95.7758847, 36.0371051], [-95.7759575, 36.0371048], [-95.7759582, 36.0372218]]]}, "properties": {"osm_id": 836840802, "building": "house", "name": "", "height": null, "height_m": null, "levels": null, "tract_id": "40143007526", "tract_name": "75.26", "tags": {"addr:postcode": "74012", "addr:street": "East Quincy Street", "building": "house"}}}, {"type": "Feature", "geometry": {"type": "Polygon", "coordinates": [[[-95.7757628, 36.0372291], [-95.7757629, 36.0371047], [-95.775689, 36.0371046], [-95.775689, 36.0371243], [-95.7755925, 36.0371242], [-95.7755924, 36.037229], [-95.7757628, 36.0372291]]]}, "properties": {"osm_id": 836840803, "building": "house", "name": "", "height": null, "height_m": null, "levels": null, "tract_id": "40143007526", "tract_name": "75.26", "tags": {"addr:postcode": "74012", "addr:street": "East Quincy Street", "building": "house"}}}, {"type": "Feature", "geometry": {"type": "Polygon", "coordinates": [[[-95.7755504, 36.037219], [-95.7755508, 36.0371027], [-95.7754794, 36.0371025], [-95.7754794, 36.0371129], [-95.7754423, 36.0371128], [-95.7754423, 36.0371078], [-95.7753968, 36.0371077], [-95.7753964, 36.0372193], [-95.7754119, 36.0372193], [-95.7754118, 36.0372372], [-95.7754626, 36.0372374], [-95.7754626, 36.0372188], [-95.7755504, 36.037219]]]}, "properties": {"osm_id": 836840804, "building": "house", "name": "", "height": null, "height_m": null, "levels": null, "tract_id": "40143007526", "tract_name": "75.26", "tags": {"addr:postcode": "74012", "addr:street": "East Quincy Street", "building": "house"}}}, {"type": "Feature", "geometry": {"type": "Polygon", "coordinates": [[[-95.7753578, 36.0372342], [-95.7753572, 36.0371115], [-95.7752872, 36.0371117], [-95.7752873, 36.0371246], [-95.7752377, 36.0371248], [-95.7752376, 36.0371041], [-95.7751905, 36.0371043], [-95.7751912, 36.0372354], [-95.7752307, 36.0372352], [-95.7752308, 36.0372609], [-95.7752831, 36.0372607], [-95.775283, 36.037242], [-95.7752953, 36.037242], [-95.7752953, 36.0372344], [-95.7753578, 36.0372342]]]}, "properties": {"osm_id": 836840805, "building": "house", "name": "", "height": null, "height_m": null, "levels": null, "tract_id": "40143007526", "tract_name": "75.26", "tags": {"addr:postcode": "74012", "addr:street": "East Quincy Street", "building": "house"}}}, {"type": "Feature", "geometry": {"type": "Polygon", "coordinates": [[[-95.7751544, 36.0372286], [-95.7749851, 36.0372288], [-95.7749849, 36.0371231], [-95.7750804, 36.0371229], [-95.7750803, 36.0371047], [-95.7751542, 36.0371046], [-95.7751544, 36.0372286]]]}, "properties": {"osm_id": 836840806, "building": "house", "name": "", "height": null, "height_m": null, "levels": null, "tract_id": "40143007526", "tract_name": "75.26", "tags": {"addr:postcode": "74012", "addr:street": "East Quincy Street", "building": "house"}}}, {"type": "Feature", "geometry": {"type": "Polygon", "coordinates": [[[-95.7747843, 36.0371039], [-95.7747846, 36.037236], [-95.7748254, 36.037236], [-95.7748254, 36.0372446], [-95.7748895, 36.0372445], [-95.7748895, 36.0372362], [-95.7749527, 36.0372361], [-95.7749524, 36.0371122], [-95.7748796, 36.0371123], [-95.7748796, 36.0371234], [-95.7748336, 36.0371235], [-95.7748335, 36.0371038], [-95.7747843, 36.0371039]]]}, "properties": {"osm_id": 836840807, "building": "house", "name": "", "height": null, "height_m": null, "levels": null, "tract_id": "40143007526", "tract_name": "75.26", "tags": {"addr:postcode": "74012", "addr:street": "East Quincy Street", "building": "house"}}}, {"type": "Feature", "geometry": {"type": "Polygon", "coordinates": [[[-95.7745917, 36.0372551], [-95.7747385, 36.0372547], [-95.7747378, 36.037104], [-95.7746643, 36.0371042], [-95.7746643, 36.037125], [-95.7745911, 36.0371252], [-95.7745917, 36.0372551]]]}, "properties": {"osm_id": 836840808, "building": "house", "name": "", "height": null, "height_m": null, "levels": null, "tract_id": "40143007526", "tract_name": "75.26", "tags": {"addr:postcode": "74012", "addr:street": "East Quincy Street", "building": "house"}}}, {"type": "Feature", "geometry": {"type": "Polygon", "coordinates": [[[-95.778071, 36.0449354], [-95.7776477, 36.0449355], [-95.7776476, 36.044794], [-95.7780709, 36.0447937], [-95.778071, 36.0449354]]]}, "properties": {"osm_id": 941446501, "building": "industrial", "name": "RBP Design", "height": null, "height_m": null, "levels": null, "tract_id": "40143007526", "tract_name": "75.26", "tags": {"addr:city": "Broken Arrow", "addr:housenumber": "804", "addr:postcode": "74012", "addr:state": "OK", "addr:street": "South 11th Street", "building": "industrial", "description": "former Fastenal location", "name": "RBP Design", "office": "landscape_architect"}}}, {"type": "Feature", "geometry": {"type": "Polygon", "coordinates": [[[-95.7773045, 36.037035], [-95.7772801, 36.0369738], [-95.7770937, 36.0370292], [-95.7771249, 36.0370963], [-95.7770919, 36.0371052], [-95.7771065, 36.0371379], [-95.7771389, 36.0371286], [-95.7771485, 36.0371493], [-95.7772947, 36.0371063], [-95.7772791, 36.0370719], [-95.7772746, 36.0370733], [-95.7772649, 36.0370467], [-95.7773045, 36.037035]]]}, "properties": {"osm_id": 942104460, "building": "yes", "name": "", "height": null, "height_m": null, "levels": null, "tract_id": "40143007526", "tract_name": "75.26", "tags": {"addr:housenumber": "1601", "addr:postcode": "74012", "addr:street": "South 10th Street", "building": "yes"}}}, {"type": "Feature", "geometry": {"type": "Polygon", "coordinates": [[[-95.777491, 36.037296], [-95.7774025, 36.0372689], [-95.7773906, 36.037294], [-95.7773512, 36.0372832], [-95.7773619, 36.0372558], [-95.7773522, 36.0372533], [-95.7774221, 36.0371043], [-95.7774713, 36.0371168], [-95.7774666, 36.0371305], [-95.7774816, 36.0371342], [-95.777491, 36.0371146], [-95.7775645, 36.0371366], [-95.777491, 36.037296]]]}, "properties": {"osm_id": 942104461, "building": "house", "name": "", "height": null, "height_m": null, "levels": null, "tract_id": "40143007526", "tract_name": "75.26", "tags": {"addr:housenumber": "1116", "addr:postcode": "74012", "addr:street": "East Quincy Street", "building": "house"}}}, {"type": "Feature", "geometry": {"type": "Polygon", "coordinates": [[[-95.7773263, 36.0369136], [-95.7771523, 36.0369121], [-95.7771523, 36.0367964], [-95.7773192, 36.0367973], [-95.7773178, 36.0368515], [-95.7773276, 36.0368518], [-95.7773263, 36.0369136]]]}, "properties": {"osm_id": 942104462, "building": "yes", "name": "", "height": null, "height_m": null, "levels": null, "tract_id": "40143007526", "tract_name": "75.26", "tags": {"addr:housenumber": "1605", "addr:postcode": "74012", "addr:street": "South 10th Street", "building": "yes"}}}, {"type": "Feature", "geometry": {"type": "Polygon", "coordinates": [[[-95.7651504, 36.0224095], [-95.7648599, 36.0224104], [-95.7648588, 36.0221749], [-95.7649369, 36.0221747], [-95.7649369, 36.022191], [-95.7649539, 36.022191], [-95.7649538, 36.0221732], [-95.7650348, 36.022173], [-95.7650354, 36.0222876], [-95.7651498, 36.0222872], [-95.7651504, 36.0224095]]]}, "properties": {"osm_id": 942104762, "building": "yes", "name": "", "height": null, "height_m": null, "levels": null, "tract_id": "40143007526", "tract_name": "75.26", "tags": {"building": "yes"}}}, {"type": "Feature", "geometry": {"type": "Polygon", "coordinates": [[[-95.766027, 36.0222612], [-95.7658759, 36.0222582], [-95.7658794, 36.0221458], [-95.7660305, 36.0221489], [-95.766027, 36.0222612]]]}, "properties": {"osm_id": 942104763, "building": "yes", "name": "", "height": null, "height_m": null, "levels": null, "tract_id": "40143007526", "tract_name": "75.26", "tags": {"building": "yes"}}}, {"type": "Feature", "geometry": {"type": "Polygon", "coordinates": [[[-95.7730827, 36.0314672], [-95.773161, 36.0314669], [-95.7731621, 36.0316563], [-95.7730675, 36.0316567], [-95.7730676, 36.031665], [-95.7729897, 36.0316653], [-95.7729888, 36.0314963], [-95.7730405, 36.0314961], [-95.7730405, 36.031509], [-95.773062, 36.0315089], [-95.773062, 36.0315119], [-95.773083, 36.0315118], [-95.7730827, 36.0314672]]]}, "properties": {"osm_id": 942109550, "building": "house", "name": "", "height": null, "height_m": null, "levels": null, "tract_id": "40143007526", "tract_name": "75.26", "tags": {"building": "house"}}}, {"type": "Feature", "geometry": {"type": "Polygon", "coordinates": [[[-95.7738274, 36.0316594], [-95.7736588, 36.0316592], [-95.7736583, 36.0314797], [-95.7737037, 36.031479], [-95.7737038, 36.0315009], [-95.7737339, 36.0315009], [-95.7737344, 36.0314681], [-95.7737418, 36.0314679], [-95.7737418, 36.0314643], [-95.7738004, 36.0314642], [-95.7738005, 36.0314677], [-95.7738089, 36.0314678], [-95.7738088, 36.031473], [-95.7738433, 36.0314738], [-95.7738435, 36.0315353], [-95.7738279, 36.0315355], [-95.7738274, 36.0316594]]]}, "properties": {"osm_id": 942109551, "building": "house", "name": "", "height": null, "height_m": null, "levels": null, "tract_id": "40143007526", "tract_name": "75.26", "tags": {"building": "house"}}}, {"type": "Feature", "geometry": {"type": "Polygon", "coordinates": [[[-95.7740714, 36.0316702], [-95.7739729, 36.0316699], [-95.7739728, 36.0316579], [-95.7738909, 36.031658], [-95.7738908, 36.0314837], [-95.7739593, 36.0314833], [-95.7739588, 36.0314669], [-95.7739698, 36.031467], [-95.7739699, 36.031464], [-95.7740278, 36.0314643], [-95.7740278, 36.0314669], [-95.7740369, 36.0314669], [-95.7740368, 36.0314728], [-95.774071, 36.0314734], [-95.7740714, 36.0316702]]]}, "properties": {"osm_id": 942109552, "building": "house", "name": "", "height": null, "height_m": null, "levels": null, "tract_id": "40143007526", "tract_name": "75.26", "tags": {"building": "house"}}}, {"type": "Feature", "geometry": {"type": "Polygon", "coordinates": [[[-95.7742523, 36.0311897], [-95.7742195, 36.0311897], [-95.7742195, 36.0311959], [-95.7741445, 36.0311961], [-95.7741438, 36.0311599], [-95.7741178, 36.0311599], [-95.7741178, 36.0311554], [-95.7740768, 36.0311555], [-95.7740762, 36.0311402], [-95.774063, 36.0311404], [-95.7740628, 36.0310159], [-95.7741115, 36.0310157], [-95.7741128, 36.0309869], [-95.7742516, 36.0309876], [-95.7742523, 36.0311897]]]}, "properties": {"osm_id": 942109553, "building": "house", "name": "", "height": null, "height_m": null, "levels": null, "tract_id": "40143007526", "tract_name": "75.26", "tags": {"building": "house"}}}, {"type": "Feature", "geometry": {"type": "Polygon", "coordinates": [[[-95.7740293, 36.0311888], [-95.773996, 36.0311892], [-95.773996, 36.0311949], [-95.7739177, 36.0311947], [-95.7739177, 36.0311769], [-95.7738895, 36.0311766], [-95.7738894, 36.03117], [-95.7738474, 36.0311696], [-95.7738486, 36.0310145], [-95.773933, 36.0310152], [-95.7739332, 36.0309952], [-95.7739816, 36.0309948], [-95.7739815, 36.0309896], [-95.77403, 36.0309897], [-95.7740293, 36.0311888]]]}, "properties": {"osm_id": 942109554, "building": "house", "name": "", "height": null, "height_m": null, "levels": null, "tract_id": "40143007526", "tract_name": "75.26", "tags": {"building": "house"}}}, {"type": "Feature", "geometry": {"type": "Polygon", "coordinates": [[[-95.773814, 36.0311882], [-95.7737804, 36.0311879], [-95.7737803, 36.0311932], [-95.7737726, 36.031193], [-95.7737727, 36.0311963], [-95.7737085, 36.0311961], [-95.7737086, 36.0311924], [-95.7737017, 36.0311922], [-95.7737011, 36.031156], [-95.7736246, 36.0311572], [-95.7736248, 36.0310108], [-95.7737146, 36.0310104], [-95.7737143, 36.0309906], [-95.7738147, 36.0309908], [-95.773814, 36.0311882]]]}, "properties": {"osm_id": 942109555, "building": "house", "name": "", "height": null, "height_m": null, "levels": null, "tract_id": "40143007526", "tract_name": "75.26", "tags": {"building": "house"}}}, {"type": "Feature", "geometry": {"type": "Polygon", "coordinates": [[[-95.7735907, 36.0311952], [-95.7734998, 36.0311946], [-95.7734998, 36.0311062], [-95.7734014, 36.0311041], [-95.7734042, 36.0309689], [-95.7735913, 36.030972], [-95.7735907, 36.0311952]]]}, "properties": {"osm_id": 942109556, "building": "house", "name": "", "height": null, "height_m": null, "levels": null, "tract_id": "40143007526", "tract_name": "75.26", "tags": {"building": "house"}}}, {"type": "Feature", "geometry": {"type": "Polygon", "coordinates": [[[-95.7733728, 36.0311879], [-95.773338, 36.0311878], [-95.773338, 36.0311927], [-95.773265, 36.0311925], [-95.7732652, 36.0311593], [-95.7732511, 36.0311593], [-95.7732511, 36.0311703], [-95.7731948, 36.0311701], [-95.7731964, 36.031122], [-95.7731839, 36.0311219], [-95.7731848, 36.0309994], [-95.773235, 36.0309991], [-95.7732349, 36.0309745], [-95.7733735, 36.0309742], [-95.7733728, 36.0311879]]]}, "properties": {"osm_id": 942109557, "building": "house", "name": "", "height": null, "height_m": null, "levels": null, "tract_id": "40143007526", "tract_name": "75.26", "tags": {"building": "house"}}}, {"type": "Feature", "geometry": {"type": "Polygon", "coordinates": [[[-95.7741633, 36.0316714], [-95.7743038, 36.0316713], [-95.7743026, 36.0314725], [-95.7742687, 36.0314731], [-95.7742687, 36.0314677], [-95.7741929, 36.0314671], [-95.7741924, 36.0314961], [-95.7741689, 36.0314963], [-95.7741689, 36.0315042], [-95.7741256, 36.0315047], [-95.7741262, 36.0315226], [-95.7741146, 36.0315231], [-95.7741143, 36.0316451], [-95.7741631, 36.0316457], [-95.7741633, 36.0316714]]]}, "properties": {"osm_id": 942109558, "building": "house", "name": "", "height": null, "height_m": null, "levels": null, "tract_id": "40143007526", "tract_name": "75.26", "tags": {"building": "house"}}}, {"type": "Feature", "geometry": {"type": "Polygon", "coordinates": [[[-95.7728466, 36.0283382], [-95.7726605, 36.0284637], [-95.7725988, 36.0284029], [-95.7726165, 36.028391], [-95.7725576, 36.0283342], [-95.7726959, 36.0282413], [-95.7727407, 36.0282842], [-95.7727187, 36.0282987], [-95.7727227, 36.0283026], [-95.7727792, 36.0282652], [-95.7727844, 36.0282704], [-95.7727868, 36.0282688], [-95.7728247, 36.0283062], [-95.7728223, 36.0283078], [-95.7728289, 36.0283148], [-95.7728224, 36.0283186], [-95.7728237, 36.0283202], [-95.7728276, 36.028318], [-95.7728466, 36.0283382]]]}, "properties": {"osm_id": 950918039, "building": "yes", "name": "", "height": null, "height_m": null, "levels": null, "tract_id": "40143007526", "tract_name": "75.26", "tags": {"building": "yes"}}}, {"type": "Feature", "geometry": {"type": "Polygon", "coordinates": [[[-95.7729938, 36.0284806], [-95.772811, 36.0286044], [-95.7727483, 36.0285445], [-95.7727663, 36.0285326], [-95.7727108, 36.0284788], [-95.7728621, 36.028376], [-95.7729096, 36.028419], [-95.7729269, 36.0284077], [-95.7729771, 36.0284546], [-95.7729708, 36.0284588], [-95.7729724, 36.0284603], [-95.7729767, 36.0284584], [-95.7729848, 36.0284668], [-95.7729832, 36.0284698], [-95.7729938, 36.0284806]]]}, "properties": {"osm_id": 950918040, "building": "yes", "name": "", "height": null, "height_m": null, "levels": null, "tract_id": "40143007526", "tract_name": "75.26", "tags": {"building": "yes"}}}, {"type": "Feature", "geometry": {"type": "Polygon", "coordinates": [[[-95.7731137, 36.0285973], [-95.7731367, 36.0286193], [-95.7730759, 36.0286608], [-95.7730693, 36.0286545], [-95.7730529, 36.0286656], [-95.7730499, 36.0286624], [-95.772995, 36.0286999], [-95.7729981, 36.028703], [-95.7729825, 36.0287139], [-95.7728758, 36.028609], [-95.7730064, 36.0285199], [-95.7730314, 36.0285442], [-95.7730353, 36.0285427], [-95.7730525, 36.028559], [-95.7730703, 36.0285476], [-95.773119, 36.0285936], [-95.7731137, 36.0285973]]]}, "properties": {"osm_id": 950918041, "building": "yes", "name": "", "height": null, "height_m": null, "levels": null, "tract_id": "40143007526", "tract_name": "75.26", "tags": {"building": "yes"}}}, {"type": "Feature", "geometry": {"type": "Polygon", "coordinates": [[[-95.7727345, 36.0286906], [-95.7727372, 36.0288434], [-95.7724516, 36.0288439], [-95.7724509, 36.0287701], [-95.7725707, 36.0287693], [-95.7725711, 36.0287501], [-95.7725646, 36.0287502], [-95.7725646, 36.0287175], [-95.7725795, 36.0287179], [-95.7725788, 36.0286901], [-95.7727345, 36.0286906]]]}, "properties": {"osm_id": 950918042, "building": "yes", "name": "", "height": null, "height_m": null, "levels": null, "tract_id": "40143007526", "tract_name": "75.26", "tags": {"building": "yes"}}}, {"type": "Feature", "geometry": {"type": "Polygon", "coordinates": [[[-95.7726007, 36.0279244], [-95.7726264, 36.0279497], [-95.7724825, 36.0280475], [-95.7724482, 36.0280158], [-95.7724526, 36.028013], [-95.7724199, 36.0279815], [-95.7724133, 36.0279862], [-95.7723667, 36.0279408], [-95.7723714, 36.0279376], [-95.7723505, 36.0279174], [-95.7724108, 36.0278768], [-95.7724233, 36.0278889], [-95.7724952, 36.0278404], [-95.7725421, 36.0278859], [-95.7725798, 36.0278604], [-95.7726258, 36.0279076], [-95.7726007, 36.0279244]]]}, "properties": {"osm_id": 950918043, "building": "yes", "name": "", "height": null, "height_m": null, "levels": null, "tract_id": "40143007526", "tract_name": "75.26", "tags": {"building": "yes"}}}, {"type": "Feature", "geometry": {"type": "Polygon", "coordinates": [[[-95.7732612, 36.0280371], [-95.7731611, 36.0281037], [-95.7731841, 36.0281261], [-95.7731232, 36.0281663], [-95.773102, 36.0281453], [-95.7730973, 36.0281485], [-95.7730478, 36.0280994], [-95.7730768, 36.0280802], [-95.7730618, 36.0280655], [-95.7730581, 36.0280679], [-95.7730442, 36.0280551], [-95.7730322, 36.0280636], [-95.7729977, 36.0280304], [-95.7731589, 36.0279239], [-95.7732088, 36.0279733], [-95.7732013, 36.0279778], [-95.7732612, 36.0280371]]]}, "properties": {"osm_id": 950918044, "building": "yes", "name": "", "height": null, "height_m": null, "levels": null, "tract_id": "40143007526", "tract_name": "75.26", "tags": {"building": "yes"}}}, {"type": "Feature", "geometry": {"type": "Polygon", "coordinates": [[[-95.7734277, 36.0281736], [-95.77332, 36.0282467], [-95.7733267, 36.0282534], [-95.7732604, 36.0282977], [-95.7732386, 36.0282765], [-95.7732331, 36.0282801], [-95.7731924, 36.0282446], [-95.773195, 36.0282422], [-95.7731907, 36.0282386], [-95.7731936, 36.0282367], [-95.7731873, 36.0282308], [-95.7732065, 36.028217], [-95.7731896, 36.0282033], [-95.7732073, 36.0281895], [-95.7731821, 36.028167], [-95.7733121, 36.028077], [-95.7733761, 36.0281376], [-95.7733858, 36.0281312], [-95.7734277, 36.0281736]]]}, "properties": {"osm_id": 950918045, "building": "yes", "name": "", "height": null, "height_m": null, "levels": null, "tract_id": "40143007526", "tract_name": "75.26", "tags": {"building": "yes"}}}, {"type": "Feature", "geometry": {"type": "Polygon", "coordinates": [[[-95.7736719, 36.0459627], [-95.7736711, 36.0457836], [-95.7735762, 36.0457839], [-95.7735746, 36.0454237], [-95.7736655, 36.0454235], [-95.7736645, 36.0452038], [-95.7737951, 36.0452034], [-95.7737927, 36.0446452], [-95.7737022, 36.0446454], [-95.7737008, 36.0443026], [-95.7731121, 36.0443041], [-95.7731157, 36.0452018], [-95.7730474, 36.045202], [-95.7730483, 36.0454275], [-95.7731247, 36.0454273], [-95.7731259, 36.0457063], [-95.7730771, 36.0457065], [-95.7730783, 36.0459644], [-95.7736719, 36.0459627]]]}, "properties": {"osm_id": 972954314, "building": "industrial", "name": "Tulsat", "height": null, "height_m": null, "levels": null, "tract_id": "40143007526", "tract_name": "75.26", "tags": {"addr:housenumber": "1221", "addr:street": "East Houston Street", "building": "industrial", "name": "Tulsat", "office": "telecommunication", "phone": "+1 918 251 2887"}}}, {"type": "Feature", "geometry": {"type": "Polygon", "coordinates": [[[-95.7705769, 36.0315422], [-95.7705773, 36.0316154], [-95.7705273, 36.0316156], [-95.7705274, 36.0316364], [-95.7704865, 36.0316366], [-95.7704864, 36.0316157], [-95.7704261, 36.0316159], [-95.7704267, 36.0317289], [-95.7703334, 36.0317292], [-95.7703325, 36.031543], [-95.7705769, 36.0315422]]]}, "properties": {"osm_id": 1135337770, "building": "yes", "name": "Gloryland Baptist Church", "height": null, "height_m": null, "levels": null, "tract_id": "40143007526", "tract_name": "75.26", "tags": {"amenity": "place_of_worship", "building": "yes", "denomination": "baptist", "description": "Sunday School 9:30am, Worship 10:45, Evening Sunday Bible Study 6:00pm, Wednesday Bible Study 6:00pm", "name": "Gloryland Baptist Church", "religion": "christian", "service_times": "Su 10:45"}}}, {"type": "Feature", "geometry": {"type": "Polygon", "coordinates": [[[-95.7780785, 36.0451428], [-95.7777041, 36.0451425], [-95.7777043, 36.0449735], [-95.7780787, 36.0449738], [-95.7780785, 36.0451428]]]}, "properties": {"osm_id": 1232691272, "building": "industrial", "name": "", "height": null, "height_m": null, "levels": null, "tract_id": "40143007526", "tract_name": "75.26", "tags": {"addr:city": "Broken Arrow", "addr:housenumber": "800", "addr:postcode": "74012", "addr:state": "OK", "addr:street": "South 11th Street", "building": "industrial"}}}, {"type": "Feature", "geometry": {"type": "Polygon", "coordinates": [[[-95.7780816, 36.0454175], [-95.7777073, 36.0454171], [-95.7777075, 36.0452481], [-95.7780818, 36.0452484], [-95.7780816, 36.0454175]]]}, "properties": {"osm_id": 1232691273, "building": "industrial", "name": "", "height": null, "height_m": null, "levels": null, "tract_id": "40143007526", "tract_name": "75.26", "tags": {"addr:city": "Broken Arrow", "addr:postcode": "74012", "addr:state": "OK", "addr:street": "South 11th Street", "building": "industrial"}}}, {"type": "Feature", "geometry": {"type": "Polygon", "coordinates": [[[-95.778079, 36.0456965], [-95.7777047, 36.0456961], [-95.7777049, 36.0455271], [-95.7780793, 36.0455274], [-95.778079, 36.0456965]]]}, "properties": {"osm_id": 1232691274, "building": "industrial", "name": "", "height": null, "height_m": null, "levels": null, "tract_id": "40143007526", "tract_name": "75.26", "tags": {"addr:city": "Broken Arrow", "addr:housenumber": "704", "addr:postcode": "74012", "addr:state": "OK", "addr:street": "South 11th Street", "building": "industrial"}}}, {"type": "Feature", "geometry": {"type": "Polygon", "coordinates": [[[-95.7782595, 36.0460702], [-95.7779526, 36.04607], [-95.7779526, 36.0461482], [-95.7777106, 36.0461481], [-95.7777109, 36.045869], [-95.7782597, 36.0458693], [-95.7782595, 36.0460702]]]}, "properties": {"osm_id": 1232691275, "building": "industrial", "name": "American/Wheatley HVAC Products", "height": null, "height_m": null, "levels": null, "tract_id": "40143007526", "tract_name": "75.26", "tags": {"addr:city": "Broken Arrow", "addr:housenumber": "1005", "addr:postcode": "74012", "addr:state": "OK", "addr:street": "East Houston Street", "building": "industrial", "name": "American/Wheatley HVAC Products"}}}, {"type": "Feature", "geometry": {"type": "Polygon", "coordinates": [[[-95.776968, 36.0453005], [-95.7769686, 36.0451938], [-95.7772395, 36.0451947], [-95.777239, 36.0452996], [-95.776968, 36.0453005]]]}, "properties": {"osm_id": 1235190545, "building": "industrial", "name": "", "height": null, "height_m": null, "levels": null, "tract_id": "40143007526", "tract_name": "75.26", "tags": {"addr:housenumber": "801", "addr:postcode": "74012", "addr:street": "South 11th Street", "building": "industrial"}}}, {"type": "Feature", "geometry": {"type": "Polygon", "coordinates": [[[-95.7791747, 36.043931], [-95.7786683, 36.0439294], [-95.7786691, 36.0437608], [-95.7790032, 36.0437618], [-95.7790044, 36.0435173], [-95.7791767, 36.0435179], [-95.7791764, 36.0435713], [-95.7791763, 36.0435981], [-95.7791758, 36.0437125], [-95.7791756, 36.0437402], [-95.779175, 36.0438603], [-95.7791747, 36.043931]]]}, "properties": {"osm_id": 1235190546, "building": "industrial", "name": "", "height": null, "height_m": null, "levels": null, "tract_id": "40143007526", "tract_name": "75.26", "tags": {"addr:housenumber": "901", "addr:postcode": "74012", "addr:street": "South 9th Street", "building": "industrial"}}}, {"type": "Feature", "geometry": {"type": "Polygon", "coordinates": [[[-95.779217, 36.0434479], [-95.7788019, 36.0434474], [-95.7788022, 36.0433151], [-95.7792172, 36.0433156], [-95.779217, 36.0434479]]]}, "properties": {"osm_id": 1235190547, "building": "industrial", "name": "", "height": null, "height_m": null, "levels": null, "tract_id": "40143007526", "tract_name": "75.26", "tags": {"addr:postcode": "74012", "addr:street": "South 9th Street", "building": "industrial"}}}, {"type": "Feature", "geometry": {"type": "Polygon", "coordinates": [[[-95.7789591, 36.0460824], [-95.7789594, 36.0461545], [-95.7788468, 36.0461548], [-95.7788455, 36.0458767], [-95.7789581, 36.0458764], [-95.7789584, 36.0459458], [-95.7789796, 36.0459458], [-95.7789802, 36.0460823], [-95.7789591, 36.0460824]]]}, "properties": {"osm_id": 1235190548, "building": "retail", "name": "Tigers Express", "height": null, "height_m": null, "levels": null, "tract_id": "40143007526", "tract_name": "75.26", "tags": {"addr:housenumber": "701", "addr:postcode": "74012", "addr:street": "South 9th Street", "building": "retail", "name": "Tigers Express", "opening_hours": "Mo-Fr 06:00-20:00; Sa 10:00-17:00; Su off", "shop": "convenience"}}}, {"type": "Feature", "geometry": {"type": "Polygon", "coordinates": [[[-95.7792545, 36.0462065], [-95.7791774, 36.0462062], [-95.7791784, 36.0460373], [-95.7791794, 36.0458636], [-95.7792565, 36.0458639], [-95.7792551, 36.0460364], [-95.7792545, 36.0462065]]]}, "properties": {"osm_id": 1235190549, "building": "roof", "name": "Tigers Express", "height": null, "height_m": null, "levels": null, "tract_id": "40143007526", "tract_name": "75.26", "tags": {"amenity": "fuel", "brand": "Conoco", "brand:wikidata": "Q109341187", "building": "roof", "layer": "1", "name": "Tigers Express"}}}, {"type": "Feature", "geometry": {"type": "Polygon", "coordinates": [[[-95.7765421, 36.0434008], [-95.7763665, 36.0434013], [-95.7763651, 36.0431281], [-95.7765408, 36.0431275], [-95.7765421, 36.0434008]]]}, "properties": {"osm_id": 1235190550, "building": "industrial", "name": "", "height": null, "height_m": null, "levels": null, "tract_id": "40143007526", "tract_name": "75.26", "tags": {"addr:housenumber": "1113", "addr:postcode": "74012", "addr:street": "East Louisville Street", "building": "industrial"}}}, {"type": "Feature", "geometry": {"type": "Polygon", "coordinates": [[[-95.7767044, 36.0434094], [-95.7765676, 36.0434094], [-95.7765676, 36.0430711], [-95.7767044, 36.0430711], [-95.7767044, 36.0434094]]]}, "properties": {"osm_id": 1235190551, "building": "industrial", "name": "", "height": null, "height_m": null, "levels": null, "tract_id": "40143007526", "tract_name": "75.26", "tags": {"addr:housenumber": "1109", "addr:postcode": "74012", "addr:street": "East Louisville Street", "building": "industrial"}}}, {"type": "Feature", "geometry": {"type": "Polygon", "coordinates": [[[-95.7779168, 36.0436263], [-95.7776592, 36.0436255], [-95.7776606, 36.0433544], [-95.7779181, 36.0433552], [-95.7779168, 36.0436263]]]}, "properties": {"osm_id": 1235190552, "building": "industrial", "name": "Custom Something", "height": null, "height_m": null, "levels": null, "tract_id": "40143007526", "tract_name": "75.26", "tags": {"addr:housenumber": "908", "addr:postcode": "74012", "addr:street": "South 11th Street", "building": "industrial", "name": "Custom Something"}}}, {"type": "Feature", "geometry": {"type": "Polygon", "coordinates": [[[-95.7772257, 36.0434566], [-95.7772244, 36.0431784], [-95.7773659, 36.043178], [-95.7773673, 36.0434561], [-95.7772257, 36.0434566]]]}, "properties": {"osm_id": 1235190553, "building": "industrial", "name": "Lambert-Brown Scales, Inc.", "height": null, "height_m": null, "levels": null, "tract_id": "40143007526", "tract_name": "75.26", "tags": {"addr:housenumber": "1101", "addr:postcode": "74012", "addr:street": "East Louisville Street", "building": "industrial", "name": "Lambert-Brown Scales, Inc."}}}, {"type": "Feature", "geometry": {"type": "Polygon", "coordinates": [[[-95.7770779, 36.0434566], [-95.7770766, 36.0431785], [-95.7772181, 36.043178], [-95.7772194, 36.0434562], [-95.7770779, 36.0434566]]]}, "properties": {"osm_id": 1235190554, "building": "industrial", "name": "Air Care Services", "height": null, "height_m": null, "levels": null, "tract_id": "40143007526", "tract_name": "75.26", "tags": {"addr:housenumber": "1105", "addr:postcode": "74012", "addr:street": "East Louisville Street", "building": "industrial", "craft": "chimney_sweeper", "description": "Residential, commercial, and industrial air duct cleaning; dryer vent cleaning; exhaust hood cleaning; and chimney cleaning", "name": "Air Care Services", "phone": "+1 918 835 0444"}}}, {"type": "Feature", "geometry": {"type": "Polygon", "coordinates": [[[-95.7758748, 36.0432859], [-95.7758635, 36.0432858], [-95.7758662, 36.0430613], [-95.7761372, 36.0430635], [-95.7761345, 36.0432879], [-95.7761333, 36.043386], [-95.7758736, 36.0433839], [-95.7758748, 36.0432859]]]}, "properties": {"osm_id": 1235190555, "building": "industrial", "name": "Action Roofing and Sheet Metal", "height": null, "height_m": null, "levels": null, "tract_id": "40143007526", "tract_name": "75.26", "tags": {"addr:housenumber": "1117", "addr:postcode": "74012", "addr:street": "East Louisville Street", "building": "industrial", "craft": "roofer", "name": "Action Roofing and Sheet Metal", "phone": "+1 918 258 3595"}}}, {"type": "Feature", "geometry": {"type": "Polygon", "coordinates": [[[-95.7765716, 36.0441414], [-95.7765716, 36.0441858], [-95.7761009, 36.0441858], [-95.7761009, 36.0440503], [-95.7763812, 36.0440503], [-95.7763812, 36.0439657], [-95.776636, 36.0439657], [-95.776636, 36.0441414], [-95.7765716, 36.0441414]]]}, "properties": {"osm_id": 1235190556, "building": "industrial", "name": "", "height": null, "height_m": null, "levels": null, "tract_id": "40143007526", "tract_name": "75.26", "tags": {"addr:housenumber": "906", "addr:postcode": "74012", "addr:street": "South 12th Street", "building": "industrial", "shop": "vacant"}}}, {"type": "Feature", "geometry": {"type": "Polygon", "coordinates": [[[-95.7756852, 36.0439245], [-95.7752131, 36.0439267], [-95.7752121, 36.0437879], [-95.7756842, 36.0437857], [-95.7756852, 36.0439245]]]}, "properties": {"osm_id": 1235190557, "building": "industrial", "name": "Nook Brewing Company", "height": null, "height_m": null, "levels": null, "tract_id": "40143007526", "tract_name": "75.26", "tags": {"addr:postcode": "74012", "addr:street": "South 12th Street", "amenity": "pub", "building": "industrial", "kids_area": "yes", "kids_area:indoor": "yes", "kids_area:outdoor": "no", "microbrewery": "yes", "name": "Nook Brewing Company", "toilets": "yes", "toilets:access": "customers"}}}, {"type": "Feature", "geometry": {"type": "Polygon", "coordinates": [[[-95.7765649, 36.0439234], [-95.7761022, 36.0439223], [-95.7761027, 36.0437835], [-95.7765654, 36.0437846], [-95.7765649, 36.0439234]]]}, "properties": {"osm_id": 1235190558, "building": "industrial", "name": "R2 Dent Repair", "height": null, "height_m": null, "levels": null, "tract_id": "40143007526", "tract_name": "75.26", "tags": {"addr:postcode": "74012", "addr:street": "South 12th Street", "building": "industrial", "name": "R2 Dent Repair", "shop": "car_repair"}}}, {"type": "Feature", "geometry": {"type": "Polygon", "coordinates": [[[-95.7764389, 36.0444743], [-95.7761049, 36.0444743], [-95.7761049, 36.0443669], [-95.7764389, 36.0443669], [-95.7764389, 36.0444743]]]}, "properties": {"osm_id": 1235190559, "building": "industrial", "name": "Cat Express Incorporated", "height": null, "height_m": null, "levels": null, "tract_id": "40143007526", "tract_name": "75.26", "tags": {"addr:housenumber": "900", "addr:postcode": "74012", "addr:street": "South 12th Street", "building": "industrial", "description": "hot shot service", "industrial": "trucking", "name": "Cat Express Incorporated"}}}, {"type": "Feature", "geometry": {"type": "Polygon", "coordinates": [[[-95.7753794, 36.0448397], [-95.7756208, 36.0448397], [-95.7756208, 36.0448918], [-95.7756825, 36.0448918], [-95.7756825, 36.0450078], [-95.7753794, 36.0450078], [-95.7753794, 36.0448397]]]}, "properties": {"osm_id": 1235190560, "building": "industrial", "name": "", "height": null, "height_m": null, "levels": null, "tract_id": "40143007526", "tract_name": "75.26", "tags": {"addr:housenumber": "805", "addr:postcode": "74012", "addr:street": "South 12th Street", "building": "industrial", "shop": "vacant"}}}, {"type": "Feature", "geometry": {"type": "Polygon", "coordinates": [[[-95.7752123, 36.044529], [-95.7754129, 36.0445285], [-95.7754133, 36.0446408], [-95.7756892, 36.0446402], [-95.7756896, 36.0447475], [-95.7752131, 36.0447486], [-95.7752123, 36.044529]]]}, "properties": {"osm_id": 1235190561, "building": "industrial", "name": "", "height": null, "height_m": null, "levels": null, "tract_id": "40143007526", "tract_name": "75.26", "tags": {"addr:housenumber": "809", "addr:postcode": "74012", "addr:street": "South 12th Street", "building": "industrial"}}}, {"type": "Feature", "geometry": {"type": "Polygon", "coordinates": [[[-95.7752118, 36.044394], [-95.7752108, 36.0441175], [-95.7756838, 36.0441164], [-95.7756848, 36.044393], [-95.7752118, 36.044394]]]}, "properties": {"osm_id": 1235190562, "building": "industrial", "name": "Lewis Steel and Wire", "height": null, "height_m": null, "levels": null, "tract_id": "40143007526", "tract_name": "75.26", "tags": {"addr:postcode": "74012", "addr:street": "South 12th Street", "building": "industrial", "name": "Lewis Steel and Wire"}}}, {"type": "Feature", "geometry": {"type": "Polygon", "coordinates": [[[-95.7764389, 36.0447475], [-95.7760959, 36.0447483], [-95.7760955, 36.044638], [-95.7764385, 36.0446372], [-95.7764389, 36.0447475]]]}, "properties": {"osm_id": 1235190563, "building": "industrial", "name": "", "height": null, "height_m": null, "levels": null, "tract_id": "40143007526", "tract_name": "75.26", "tags": {"addr:housenumber": "804", "addr:postcode": "74012", "addr:street": "South 12th Street", "building": "industrial"}}}, {"type": "Feature", "geometry": {"type": "Polygon", "coordinates": [[[-95.7765649, 36.0450078], [-95.7760942, 36.0450089], [-95.7760937, 36.0448744], [-95.7763023, 36.044874], [-95.7763021, 36.0448039], [-95.7765642, 36.0448033], [-95.7765649, 36.0450078]]]}, "properties": {"osm_id": 1235190564, "building": "industrial", "name": "Winches, Inc.", "height": null, "height_m": null, "levels": null, "tract_id": "40143007526", "tract_name": "75.26", "tags": {"addr:housenumber": "804", "addr:postcode": "74012", "addr:street": "South 12th Street", "building": "industrial", "name": "Winches, Inc."}}}, {"type": "Feature", "geometry": {"type": "Polygon", "coordinates": [[[-95.776429, 36.0455639], [-95.7764289, 36.0455706], [-95.7760937, 36.0455695], [-95.7760942, 36.0454621], [-95.7764769, 36.0454634], [-95.7764764, 36.0455641], [-95.776429, 36.0455639]]]}, "properties": {"osm_id": 1235190565, "building": "industrial", "name": "", "height": null, "height_m": null, "levels": null, "tract_id": "40143007526", "tract_name": "75.26", "tags": {"addr:postcode": "74012", "addr:street": "South 12th Street", "building": "industrial"}}}, {"type": "Feature", "geometry": {"type": "Polygon", "coordinates": [[[-95.7766186, 36.0456703], [-95.7765367, 36.0456694], [-95.7765381, 36.0455892], [-95.7766199, 36.0455901], [-95.7766186, 36.0456703]]]}, "properties": {"osm_id": 1235190566, "building": "shed", "name": "", "height": null, "height_m": null, "levels": null, "tract_id": "40143007526", "tract_name": "75.26", "tags": {"building": "shed"}}}, {"type": "Feature", "geometry": {"type": "Polygon", "coordinates": [[[-95.7756047, 36.0457332], [-95.7756838, 36.0457332], [-95.7756838, 36.0457658], [-95.7756999, 36.0457658], [-95.7756999, 36.0457918], [-95.7756838, 36.0457918], [-95.7756838, 36.0458243], [-95.7756047, 36.0458243], [-95.7756047, 36.0458471], [-95.7753003, 36.0458471], [-95.7753003, 36.0457072], [-95.7756047, 36.0457072], [-95.7756047, 36.0457332]]]}, "properties": {"osm_id": 1235190567, "building": "industrial", "name": "Thermoflo Equipment Company", "height": null, "height_m": null, "levels": null, "tract_id": "40143007526", "tract_name": "75.26", "tags": {"addr:housenumber": "705", "addr:postcode": "74012", "addr:street": "South 12th Street", "building": "industrial", "name": "Thermoflo Equipment Company"}}}, {"type": "Feature", "geometry": {"type": "Polygon", "coordinates": [[[-95.7761841, 36.0457332], [-95.7764563, 36.0457332], [-95.7764563, 36.0458492], [-95.7761331, 36.0458492], [-95.7761331, 36.0457766], [-95.7760915, 36.0457766], [-95.7760915, 36.0456888], [-95.7761841, 36.0456888], [-95.7761841, 36.0457332]]]}, "properties": {"osm_id": 1235190568, "building": "industrial", "name": "Permajack System", "height": null, "height_m": null, "levels": null, "tract_id": "40143007526", "tract_name": "75.26", "tags": {"addr:housenumber": "704", "addr:postcode": "74012", "addr:street": "South 12th Street", "building": "industrial", "name": "Permajack System"}}}, {"type": "Feature", "geometry": {"type": "Polygon", "coordinates": [[[-95.7765502, 36.0461529], [-95.7761398, 36.0461539], [-95.7761386, 36.0458623], [-95.776549, 36.0458612], [-95.7765502, 36.0461529]]]}, "properties": {"osm_id": 1235190569, "building": "industrial", "name": "Max McClean Wash Solutions", "height": null, "height_m": null, "levels": null, "tract_id": "40143007526", "tract_name": "75.26", "tags": {"addr:housenumber": "1113", "addr:postcode": "74012", "addr:street": "East Houston Street", "building": "industrial", "name": "Max McClean Wash Solutions"}}}, {"type": "Feature", "geometry": {"type": "Polygon", "coordinates": [[[-95.7749811, 36.0460824], [-95.7749811, 36.0461778], [-95.7743534, 36.0461778], [-95.7743534, 36.0460824], [-95.774163, 36.0460824], [-95.774163, 36.0457462], [-95.774737, 36.0457462], [-95.774737, 36.0455511], [-95.7741657, 36.0455511], [-95.7741657, 36.0448853], [-95.774737, 36.0448853], [-95.7749811, 36.0448853], [-95.7749811, 36.0457462], [-95.7749811, 36.0460824]]]}, "properties": {"osm_id": 1235190570, "building": "industrial", "name": "Russelectric", "height": null, "height_m": null, "levels": null, "tract_id": "40143007526", "tract_name": "75.26", "tags": {"addr:postcode": "74012", "building": "industrial", "name": "Russelectric"}}}, {"type": "Feature", "geometry": {"type": "Polygon", "coordinates": [[[-95.7746002, 36.0443214], [-95.7743295, 36.0443191], [-95.7743348, 36.043907], [-95.7746056, 36.0439093], [-95.7746002, 36.0443214]]]}, "properties": {"osm_id": 1235190571, "building": "industrial", "name": "", "height": null, "height_m": null, "levels": null, "tract_id": "40143007526", "tract_name": "75.26", "tags": {"addr:postcode": "74012", "building": "industrial"}}}, {"type": "Feature", "geometry": {"type": "Polygon", "coordinates": [[[-95.7738526, 36.043655], [-95.7730056, 36.0436562], [-95.7730042, 36.0429686], [-95.7738512, 36.0429675], [-95.7738526, 36.043655]]]}, "properties": {"osm_id": 1235190572, "building": "industrial", "name": "", "height": null, "height_m": null, "levels": null, "tract_id": "40143007526", "tract_name": "75.26", "tags": {"addr:postcode": "74012", "building": "industrial"}}}, {"type": "Feature", "geometry": {"type": "Polygon", "coordinates": [[[-95.7767983, 36.0441891], [-95.7767977, 36.044046], [-95.7772363, 36.0440449], [-95.7772368, 36.044188], [-95.7767983, 36.0441891]]]}, "properties": {"osm_id": 1235190573, "building": "industrial", "name": "Aerodynamics, Incorporated", "height": null, "height_m": null, "levels": null, "tract_id": "40143007526", "tract_name": "75.26", "tags": {"addr:postcode": "74012", "addr:street": "South 11th Street", "building": "industrial", "name": "Aerodynamics, Incorporated", "office": "engineer", "phone": "+1 918 258 0290"}}}, {"type": "Feature", "geometry": {"type": "Polygon", "coordinates": [[[-95.7772328, 36.0444721], [-95.7769565, 36.0444721], [-95.7769565, 36.0444537], [-95.7768828, 36.0444537], [-95.7768828, 36.0443593], [-95.7772328, 36.0443593], [-95.7772328, 36.0444721]]]}, "properties": {"osm_id": 1235190574, "building": "industrial", "name": "Capps Chapel", "height": null, "height_m": null, "levels": null, "tract_id": "40143007526", "tract_name": "75.26", "tags": {"addr:housenumber": "901", "addr:postcode": "74012", "addr:street": "South 11th Street", "building": "industrial", "name": "Capps Chapel", "service_times": "Mo 11:00-12:00"}}}, {"type": "Feature", "geometry": {"type": "Polygon", "coordinates": [[[-95.7772475, 36.0447345], [-95.7767674, 36.0447345], [-95.7767674, 36.0445708], [-95.7772475, 36.0445708], [-95.7772475, 36.0447345]]]}, "properties": {"osm_id": 1235190575, "building": "industrial", "name": "Graphic Horizons Incorporated", "height": null, "height_m": null, "levels": null, "tract_id": "40143007526", "tract_name": "75.26", "tags": {"addr:housenumber": "809", "addr:postcode": "74012", "addr:street": "South 11th Street", "building": "industrial", "name": "Graphic Horizons Incorporated", "shop": "printing"}}}, {"type": "Feature", "geometry": {"type": "Polygon", "coordinates": [[[-95.7772529, 36.04501], [-95.7767688, 36.0450089], [-95.7767693, 36.0448451], [-95.7772535, 36.0448462], [-95.7772529, 36.04501]]]}, "properties": {"osm_id": 1235190576, "building": "industrial", "name": "", "height": null, "height_m": null, "levels": null, "tract_id": "40143007526", "tract_name": "75.26", "tags": {"addr:housenumber": "805", "addr:postcode": "74012", "addr:street": "South 11th Street", "building": "industrial", "shop": "vacant"}}}, {"type": "Feature", "geometry": {"type": "Polygon", "coordinates": [[[-95.777239, 36.0452996], [-95.7772383, 36.0454153], [-95.7769831, 36.0454144], [-95.7769827, 36.045493], [-95.7767652, 36.0454923], [-95.7767662, 36.0452997], [-95.7769453, 36.0453004], [-95.7769453, 36.0452935], [-95.7769115, 36.0452933], [-95.7769116, 36.0452707], [-95.77696, 36.0452709], [-95.7769598, 36.0453004], [-95.776968, 36.0453005], [-95.777239, 36.0452996]]]}, "properties": {"osm_id": 1235190577, "building": "industrial", "name": "", "height": null, "height_m": null, "levels": null, "tract_id": "40143007526", "tract_name": "75.26", "tags": {"addr:housenumber": "709", "addr:postcode": "74012", "addr:street": "South 11th Street", "building": "industrial"}}}, {"type": "Feature", "geometry": {"type": "Polygon", "coordinates": [[[-95.7772408, 36.0456926], [-95.7768989, 36.0456915], [-95.7768994, 36.0455771], [-95.7772414, 36.0455782], [-95.7772408, 36.0456926]]]}, "properties": {"osm_id": 1235190578, "building": "industrial", "name": "ADB Companies", "height": null, "height_m": null, "levels": null, "tract_id": "40143007526", "tract_name": "75.26", "tags": {"addr:housenumber": "705", "addr:postcode": "74012", "addr:street": "South 11th Street", "building": "industrial", "name": "ADB Companies", "note": "possibly vacant"}}}, {"type": "Feature", "geometry": {"type": "Polygon", "coordinates": [[[-95.777208, 36.0459517], [-95.7772074, 36.0462369], [-95.7768017, 36.0462364], [-95.7768023, 36.0459512], [-95.777208, 36.0459517]]]}, "properties": {"osm_id": 1235190579, "building": "industrial", "name": "", "height": null, "height_m": null, "levels": null, "tract_id": "40143007526", "tract_name": "75.26", "tags": {"building": "industrial"}}}, {"type": "Feature", "geometry": {"type": "Polygon", "coordinates": [[[-95.7776606, 36.0440329], [-95.7776606, 36.0438649], [-95.7781287, 36.0438649], [-95.7781287, 36.0440329], [-95.7776606, 36.0440329]]]}, "properties": {"osm_id": 1235190580, "building": "industrial", "name": "Mystic Traffic Control, Incorporated", "height": null, "height_m": null, "levels": null, "tract_id": "40143007526", "tract_name": "75.26", "tags": {"addr:housenumber": "904", "addr:postcode": "74012", "addr:street": "South 11th Street", "building": "industrial", "name": "Mystic Traffic Control, Incorporated", "phone": "+1 918 251 5050"}}}, {"type": "Feature", "geometry": {"type": "Polygon", "coordinates": [[[-95.7776532, 36.0442059], [-95.7776532, 36.0441436], [-95.7776532, 36.0440812], [-95.778124, 36.0440812], [-95.778124, 36.0442059], [-95.7780518, 36.0442059], [-95.7779526, 36.0442059], [-95.7778618, 36.0442059], [-95.7777702, 36.0442059], [-95.7776532, 36.0442059]]]}, "properties": {"osm_id": 1235190581, "building": "industrial", "name": "", "height": null, "height_m": null, "levels": null, "tract_id": "40143007526", "tract_name": "75.26", "tags": {"addr:postcode": "74012", "addr:street": "South 11th Street", "building": "industrial", "fixme": "Addresses 820 through 836, but don't know what the in-between ones are or what any of the businesses are."}}}, {"type": "Feature", "geometry": {"type": "Polygon", "coordinates": [[[-95.7776512, 36.0445979], [-95.7776512, 36.0444732], [-95.7781219, 36.0444732], [-95.7781219, 36.0445979], [-95.7776512, 36.0445979]]]}, "properties": {"osm_id": 1235190582, "building": "industrial", "name": "Premiere Tumbling", "height": null, "height_m": null, "levels": null, "tract_id": "40143007526", "tract_name": "75.26", "tags": {"addr:housenumber": "808", "addr:postcode": "74012", "addr:street": "South 11th Street", "building": "industrial", "name": "Premiere Tumbling", "phone": "+1 918 902 2878", "sport": "gymnastics"}}}, {"type": "Feature", "geometry": {"type": "Polygon", "coordinates": [[[-95.7756806, 36.0461966], [-95.7752119, 36.0461937], [-95.7752152, 36.0458494], [-95.775684, 36.0458524], [-95.7756806, 36.0461966]]]}, "properties": {"osm_id": 1235195628, "building": "industrial", "name": "", "height": null, "height_m": null, "levels": null, "tract_id": "40143007526", "tract_name": "75.26", "tags": {"addr:housenumber": "1201", "addr:postcode": "74012", "addr:street": "East Houston Street", "building": "industrial"}}}, {"type": "Feature", "geometry": {"type": "Polygon", "coordinates": [[[-95.7753338, 36.0456701], [-95.7752117, 36.04567], [-95.7752118, 36.0456031], [-95.7753338, 36.0456031], [-95.7753338, 36.0456701]]]}, "properties": {"osm_id": 1235195629, "building": "garage", "name": "", "height": null, "height_m": null, "levels": null, "tract_id": "40143007526", "tract_name": "75.26", "tags": {"building": "garage"}}}, {"type": "Feature", "geometry": {"type": "Polygon", "coordinates": [[[-95.7755296, 36.0455001], [-95.7754103, 36.0454994], [-95.7754116, 36.0453411], [-95.7755309, 36.0453418], [-95.7755296, 36.0455001]]]}, "properties": {"osm_id": 1235195630, "building": "industrial", "name": "Russelectric Training Center", "height": null, "height_m": null, "levels": null, "tract_id": "40143007526", "tract_name": "75.26", "tags": {"addr:postcode": "74012", "addr:street": "South 12th Street", "building": "industrial", "name": "Russelectric Training Center"}}}, {"type": "Feature", "geometry": {"type": "Polygon", "coordinates": [[[-95.7760929, 36.0453006], [-95.7760932, 36.04519], [-95.7765693, 36.0451911], [-95.7765691, 36.045268], [-95.7765944, 36.045268], [-95.7765943, 36.0453017], [-95.7760929, 36.0453006]]]}, "properties": {"osm_id": 1235195631, "building": "industrial", "name": "Sawyer Chassis", "height": null, "height_m": null, "levels": null, "tract_id": "40143007526", "tract_name": "75.26", "tags": {"addr:housenumber": "800", "addr:postcode": "74012", "addr:street": "South 12th Street", "building": "industrial", "name": "Sawyer Chassis"}}}, {"type": "Feature", "geometry": {"type": "Polygon", "coordinates": [[[-95.7789186, 36.042627], [-95.7782467, 36.0426265], [-95.7782472, 36.0422079], [-95.7789191, 36.0422085], [-95.7789186, 36.042627]]]}, "properties": {"osm_id": 1235320164, "building": "industrial", "name": "", "height": null, "height_m": null, "levels": null, "tract_id": "40143007526", "tract_name": "75.26", "tags": {"addr:postcode": "74012", "addr:street": "South 9th Street", "building": "industrial"}}}, {"type": "Feature", "geometry": {"type": "Polygon", "coordinates": [[[-95.7780435, 36.0416282], [-95.7778127, 36.0416257], [-95.777821, 36.0411047], [-95.7784131, 36.0411109], [-95.7784048, 36.0416319], [-95.778404, 36.0416768], [-95.7783312, 36.041676], [-95.7783319, 36.0416312], [-95.7782871, 36.0416307], [-95.7782862, 36.0416874], [-95.7780426, 36.0416849], [-95.7780435, 36.0416282]]]}, "properties": {"osm_id": 1235320165, "building": "industrial", "name": "", "height": null, "height_m": null, "levels": null, "tract_id": "40143007526", "tract_name": "75.26", "tags": {"addr:postcode": "74012", "addr:street": "South 9th Street", "building": "industrial"}}}, {"type": "Feature", "geometry": {"type": "Polygon", "coordinates": [[[-95.7789164, 36.04044], [-95.7789162, 36.0405838], [-95.7785082, 36.0405835], [-95.778508, 36.040699], [-95.777906, 36.0406984], [-95.7779074, 36.039704], [-95.7789174, 36.0397049], [-95.7789168, 36.0400922], [-95.7792583, 36.0400925], [-95.7792579, 36.0404403], [-95.7789164, 36.04044]]]}, "properties": {"osm_id": 1235320166, "building": "industrial", "name": "", "height": null, "height_m": null, "levels": null, "tract_id": "40143007526", "tract_name": "75.26", "tags": {"addr:postcode": "74012", "addr:street": "South 9th Street", "building": "industrial"}}}, {"type": "Feature", "geometry": {"type": "Polygon", "coordinates": [[[-95.7778551, 36.0406995], [-95.7777329, 36.0407], [-95.7777316, 36.040482], [-95.7778537, 36.0404816], [-95.7778551, 36.0406995]]]}, "properties": {"osm_id": 1235320167, "building": "industrial", "name": "", "height": null, "height_m": null, "levels": null, "tract_id": "40143007526", "tract_name": "75.26", "tags": {"addr:postcode": "74012", "addr:street": "South 9th Street", "building": "industrial"}}}, {"type": "Feature", "geometry": {"type": "Polygon", "coordinates": [[[-95.7733463, 36.0271106], [-95.7732846, 36.0271106], [-95.7732846, 36.0270564], [-95.7733463, 36.0270564], [-95.7733463, 36.0271106]]]}, "properties": {"osm_id": 1334525411, "building": "roof", "name": "", "height": null, "height_m": null, "levels": null, "tract_id": "40143007526", "tract_name": "75.26", "tags": {"building": "roof"}}}, {"type": "Feature", "geometry": {"type": "Polygon", "coordinates": [[[-95.7680268, 36.0316371], [-95.7680793, 36.0316676], [-95.7680394, 36.0317125], [-95.7679869, 36.0316819], [-95.7680268, 36.0316371]]]}, "properties": {"osm_id": 1334525462, "building": "roof", "name": "", "height": null, "height_m": null, "levels": null, "tract_id": "40143007526", "tract_name": "75.26", "tags": {"building": "roof"}}}, {"type": "Feature", "geometry": {"type": "Polygon", "coordinates": [[[-95.7680912, 36.0316745], [-95.7680793, 36.0316676], [-95.7680268, 36.0316371], [-95.7679503, 36.0315926], [-95.7680603, 36.0314689], [-95.7682011, 36.0315509], [-95.7680912, 36.0316745]]]}, "properties": {"osm_id": 1334525463, "building": "house", "name": "", "height": null, "height_m": null, "levels": null, "tract_id": "40143007526", "tract_name": "75.26", "tags": {"building": "house"}}}, {"type": "Feature", "geometry": {"type": "Polygon", "coordinates": [[[-95.7675207, 36.0317785], [-95.7676924, 36.0317783], [-95.7676924, 36.0318109], [-95.7675208, 36.0318111], [-95.7675207, 36.0317785]]]}, "properties": {"osm_id": 1334525464, "building": "roof", "name": "", "height": null, "height_m": null, "levels": null, "tract_id": "40143007526", "tract_name": "75.26", "tags": {"building": "roof"}}}, {"type": "Feature", "geometry": {"type": "Polygon", "coordinates": [[[-95.7763547, 36.0417121], [-95.7762213, 36.0417106], [-95.7762249, 36.0414918], [-95.7763584, 36.0414933], [-95.7763547, 36.0417121]]]}, "properties": {"osm_id": 1342532248, "building": "yes", "name": "", "height": null, "height_m": null, "levels": null, "tract_id": "40143007526", "tract_name": "75.26", "tags": {"building": "yes"}}}, {"type": "Feature", "geometry": {"type": "Polygon", "coordinates": [[[-95.7781173, 36.0391474], [-95.7779161, 36.0391447], [-95.7779178, 36.0390595], [-95.778119, 36.0390622], [-95.7781173, 36.0391474]]]}, "properties": {"osm_id": 1342532249, "building": "yes", "name": "", "height": null, "height_m": null, "levels": null, "tract_id": "40143007526", "tract_name": "75.26", "tags": {"building": "yes"}}}, {"type": "Feature", "geometry": {"type": "Polygon", "coordinates": [[[-95.7771416, 36.0402316], [-95.7768459, 36.0402313], [-95.7768466, 36.0397509], [-95.7771423, 36.0397512], [-95.7771416, 36.0402316]]]}, "properties": {"osm_id": 1342532250, "building": "yes", "name": "", "height": null, "height_m": null, "levels": null, "tract_id": "40143007526", "tract_name": "75.26", "tags": {"building": "yes"}}}, {"type": "Feature", "geometry": {"type": "Polygon", "coordinates": [[[-95.7764375, 36.0407055], [-95.7759165, 36.0407059], [-95.7759151, 36.0396725], [-95.7764362, 36.039672], [-95.7764375, 36.0407055]]]}, "properties": {"osm_id": 1342532251, "building": "yes", "name": "", "height": null, "height_m": null, "levels": null, "tract_id": "40143007526", "tract_name": "75.26", "tags": {"building": "yes"}}}, {"type": "Feature", "geometry": {"type": "Polygon", "coordinates": [[[-95.7770601, 36.042369], [-95.7768915, 36.0423692], [-95.7768908, 36.0420846], [-95.7770595, 36.0420843], [-95.7770601, 36.042369]]]}, "properties": {"osm_id": 1342532252, "building": "yes", "name": "", "height": null, "height_m": null, "levels": null, "tract_id": "40143007526", "tract_name": "75.26", "tags": {"building": "yes"}}}, {"type": "Feature", "geometry": {"type": "Polygon", "coordinates": [[[-95.7778919, 36.0423763], [-95.7777181, 36.0423775], [-95.7777151, 36.0420915], [-95.7778889, 36.0420903], [-95.7778919, 36.0423763]]]}, "properties": {"osm_id": 1342532253, "building": "yes", "name": "", "height": null, "height_m": null, "levels": null, "tract_id": "40143007526", "tract_name": "75.26", "tags": {"building": "yes"}}}, {"type": "Feature", "geometry": {"type": "Polygon", "coordinates": [[[-95.7768684, 36.0417606], [-95.7767258, 36.0417612], [-95.7767228, 36.0412507], [-95.7768653, 36.0412501], [-95.7768684, 36.0417606]]]}, "properties": {"osm_id": 1342532254, "building": "yes", "name": "", "height": null, "height_m": null, "levels": null, "tract_id": "40143007526", "tract_name": "75.26", "tags": {"building": "yes"}}}, {"type": "Feature", "geometry": {"type": "Polygon", "coordinates": [[[-95.7748429, 36.0416286], [-95.774721, 36.041628], [-95.7747227, 36.0414049], [-95.7748446, 36.0414055], [-95.7748429, 36.0416286]]]}, "properties": {"osm_id": 1342532255, "building": "yes", "name": "", "height": null, "height_m": null, "levels": null, "tract_id": "40143007526", "tract_name": "75.26", "tags": {"building": "yes"}}}, {"type": "Feature", "geometry": {"type": "Polygon", "coordinates": [[[-95.7745633, 36.0423614], [-95.7741945, 36.0423576], [-95.7741992, 36.0420597], [-95.774568, 36.0420635], [-95.7745633, 36.0423614]]]}, "properties": {"osm_id": 1342532256, "building": "yes", "name": "", "height": null, "height_m": null, "levels": null, "tract_id": "40143007526", "tract_name": "75.26", "tags": {"building": "yes"}}}, {"type": "Feature", "geometry": {"type": "Polygon", "coordinates": [[[-95.7751749, 36.0424752], [-95.7750307, 36.0424749], [-95.7750321, 36.0420428], [-95.7751762, 36.0420431], [-95.7751749, 36.0424752]]]}, "properties": {"osm_id": 1342532257, "building": "yes", "name": "", "height": null, "height_m": null, "levels": null, "tract_id": "40143007526", "tract_name": "75.26", "tags": {"building": "yes"}}}, {"type": "Feature", "geometry": {"type": "Polygon", "coordinates": [[[-95.7748436, 36.0425246], [-95.7747209, 36.0425238], [-95.7747263, 36.0419296], [-95.774849, 36.0419303], [-95.7748436, 36.0425246]]]}, "properties": {"osm_id": 1342532258, "building": "yes", "name": "", "height": null, "height_m": null, "levels": null, "tract_id": "40143007526", "tract_name": "75.26", "tags": {"building": "yes"}}}, {"type": "Feature", "geometry": {"type": "Polygon", "coordinates": [[[-95.7709082, 36.0193973], [-95.7707122, 36.0193981], [-95.7707113, 36.0192533], [-95.7709073, 36.0192525], [-95.7709082, 36.0193973]]]}, "properties": {"osm_id": 1347839869, "building": "barn", "name": "Phantom Pharm", "height": null, "height_m": null, "levels": null, "tract_id": "40143007526", "tract_name": "75.26", "tags": {"addr:city": "Broken Arrow", "addr:housenumber": "18091", "addr:postcode": "74014", "addr:street": "East 101st Street South", "building": "barn", "name": "Phantom Pharm", "shop": "cannabis"}}}, {"type": "Feature", "geometry": {"type": "Polygon", "coordinates": [[[-95.7731332, 36.0198715], [-95.773265, 36.0198715], [-95.773265, 36.0201461], [-95.7731332, 36.0201462], [-95.7731332, 36.0198715]]]}, "properties": {"osm_id": 1347839870, "building": "industrial", "name": "", "height": null, "height_m": null, "levels": null, "tract_id": "40143007526", "tract_name": "75.26", "tags": {"building": "industrial"}}}, {"type": "Feature", "geometry": {"type": "Polygon", "coordinates": [[[-95.7788185, 36.0290679], [-95.778496, 36.0290654], [-95.778498, 36.0290877], [-95.7782245, 36.0290869], [-95.7782276, 36.0288739], [-95.7783307, 36.0288756], [-95.7783286, 36.0287592], [-95.778396, 36.02876], [-95.778395, 36.0286791], [-95.7783919, 36.0285999], [-95.7786807, 36.0285991], [-95.7786807, 36.0286799], [-95.7787011, 36.0286791], [-95.7787001, 36.0287724], [-95.7788216, 36.0287699], [-95.7788185, 36.0290679]]]}, "properties": {"osm_id": 1417128128, "building": "yes", "name": "", "height": null, "height_m": null, "levels": null, "tract_id": "40143007526", "tract_name": "75.26", "tags": {"building": "yes"}}}]}