{"type": "FeatureCollection", "features": [{"type": "Feature", "geometry": {"type": "Polygon", "coordinates": [[[-97.8641226, 36.3969335], [-97.864123, 36.3972872], [-97.8647793, 36.3972868], [-97.8647793, 36.397272], [-97.8648121, 36.397272], [-97.8648118, 36.3970082], [-97.8649955, 36.3970081], [-97.864996, 36.397614], [-97.8648068, 36.3976142], [-97.8648068, 36.3975885], [-97.8645976, 36.3975886], [-97.8645975, 36.3975235], [-97.8641265, 36.3975237], [-97.8641266, 36.3976055], [-97.8638329, 36.3976056], [-97.8638327, 36.3974099], [-97.8637998, 36.3974099], [-97.8637994, 36.3969337], [-97.8641226, 36.3969335]]]}, "properties": {"osm_id": 72894809, "building": "school", "name": "Longfellow Middle School", "height": null, "height_m": null, "levels": null, "tract_id": "40047000702", "tract_name": "7.02", "tags": {"addr:city": "Enid", "addr:housenumber": "900", "addr:state": "OK", "addr:street": "East Broadway Avenue", "building": "school", "ele": "378", "gnis:feature_id": "1094974", "grades": "6-8", "name": "Longfellow Middle School", "website": "https://lms.enidpublicschools.org/"}}}, {"type": "Feature", "geometry": {"type": "Polygon", "coordinates": [[[-97.8708264, 36.396094], [-97.8708211, 36.396515], [-97.8703028, 36.3965107], [-97.8703082, 36.3960897], [-97.8708264, 36.396094]]]}, "properties": {"osm_id": 494442697, "building": "yes", "name": "", "height": null, "height_m": null, "levels": null, "tract_id": "40047000702", "tract_name": "7.02", "tags": {"building": "yes"}}}, {"type": "Feature", "geometry": {"type": "Polygon", "coordinates": [[[-97.8741477, 36.3946801], [-97.8740109, 36.394679], [-97.8740128, 36.3945222], [-97.8741496, 36.3945233], [-97.8741477, 36.3946801]]]}, "properties": {"osm_id": 663080235, "building": "yes", "name": "", "height": null, "height_m": null, "levels": null, "tract_id": "40047000702", "tract_name": "7.02", "tags": {"building": "yes"}}}, {"type": "Feature", "geometry": {"type": "Polygon", "coordinates": [[[-97.8747109, 36.3944674], [-97.8747122, 36.3946887], [-97.8745997, 36.3946891], [-97.8745983, 36.3944678], [-97.8747109, 36.3944674]]]}, "properties": {"osm_id": 663080236, "building": "yes", "name": "", "height": null, "height_m": null, "levels": null, "tract_id": "40047000702", "tract_name": "7.02", "tags": {"building": "yes"}}}, {"type": "Feature", "geometry": {"type": "Polygon", "coordinates": [[[-97.8699312, 36.3960079], [-97.8699392, 36.3956246], [-97.8700681, 36.3956264], [-97.87006, 36.3960096], [-97.8699312, 36.3960079]]]}, "properties": {"osm_id": 984934491, "building": "yes", "name": "Bryce Culbert Bail Bonds, LLC.", "height": null, "height_m": null, "levels": null, "tract_id": "40047000702", "tract_name": "7.02", "tags": {"addr:city": "Enid", "addr:housenumber": "602", "addr:postcode": "73701", "addr:state": "OK", "addr:street": "East Maine Avenue", "building": "yes", "name": "Bryce Culbert Bail Bonds, LLC.", "opening_hours": "24/7", "payment:american_express": "yes", "payment:cash": "yes", "payment:discover_card": "yes", "payment:mastercard": "yes", "payment:visa": "yes", "phone": "+1-580-363-6360", "website": "https://stuffhappensok.com/"}}}, {"type": "Feature", "geometry": {"type": "Polygon", "coordinates": [[[-97.8716307, 36.3941739], [-97.8710618, 36.3941692], [-97.8710584, 36.394034], [-97.870851, 36.3940374], [-97.8708444, 36.3937747], [-97.8706876, 36.3938338], [-97.8706747, 36.3935403], [-97.8708199, 36.3935362], [-97.8707913, 36.3934808], [-97.8709203, 36.3934376], [-97.8709165, 36.3933025], [-97.8716054, 36.3932997], [-97.8716113, 36.393481], [-97.8714938, 36.3934805], [-97.8714959, 36.3936421], [-97.8716232, 36.3936402], [-97.8716278, 36.3937399], [-97.8716536, 36.3937395], [-97.8716573, 36.3938109], [-97.8716889, 36.3938104], [-97.8716901, 36.3939343], [-97.8716248, 36.3939354], [-97.8716307, 36.3941739]]]}, "properties": {"osm_id": 1301001791, "building": "hospital", "name": "Saint Mary's Hospital", "height": null, "height_m": 15.0, "levels": 5, "tract_id": "40047000702", "tract_name": "7.02", "tags": {"building": "hospital", "building:levels": "5", "name": "Saint Mary's Hospital"}}}]}