{"type": "FeatureCollection", "features": [{"type": "Feature", "geometry": {"type": "Polygon", "coordinates": [[[-97.5838577, 35.4937791], [-97.5835523, 35.4937792], [-97.5835523, 35.4934594], [-97.5838086, 35.4934594], [-97.5838087, 35.4937409], [-97.5838577, 35.4937409], [-97.5838577, 35.4937791]]]}, "properties": {"osm_id": 249457344, "building": "yes", "name": "", "height": null, "height_m": 6.0, "levels": 2, "tract_id": "40109105905", "tract_name": "1059.05", "tags": {"addr:city": "Oklahoma City", "addr:housenumber": "3701", "addr:postcode": "73107", "addr:state": "OK", "addr:street": "Northwest 23rd Street", "building": "yes", "building:levels": "2", "source": "Bing"}}}, {"type": "Feature", "geometry": {"type": "Polygon", "coordinates": [[[-97.5838577, 35.4937791], [-97.5838577, 35.4937409], [-97.5838574, 35.4934437], [-97.5839191, 35.4934437], [-97.5839191, 35.4934612], [-97.5843256, 35.4934609], [-97.5843259, 35.4937788], [-97.5838577, 35.4937791]]]}, "properties": {"osm_id": 1069332723, "building": "yes", "name": "", "height": null, "height_m": null, "levels": null, "tract_id": "40109105905", "tract_name": "1059.05", "tags": {"building": "yes"}}}, {"type": "Feature", "geometry": {"type": "Polygon", "coordinates": [[[-97.5871897, 35.4937477], [-97.5870403, 35.4937479], [-97.5870396, 35.493475], [-97.587189, 35.4934747], [-97.5871897, 35.4937477]]]}, "properties": {"osm_id": 1075017776, "building": "retail", "name": "", "height": null, "height_m": 6.0, "levels": 2, "tract_id": "40109105905", "tract_name": "1059.05", "tags": {"building": "retail", "building:levels": "2"}}}, {"type": "Feature", "geometry": {"type": "Polygon", "coordinates": [[[-97.5868538, 35.4935438], [-97.5868542, 35.4934846], [-97.5868194, 35.4934844], [-97.5868194, 35.4934768], [-97.5867193, 35.4934765], [-97.586719, 35.4935415], [-97.5867869, 35.4935418], [-97.5867869, 35.4935581], [-97.5868228, 35.4935582], [-97.5868229, 35.4935437], [-97.5868538, 35.4935438]]]}, "properties": {"osm_id": 1075017777, "building": "yes", "name": "", "height": null, "height_m": null, "levels": null, "tract_id": "40109105905", "tract_name": "1059.05", "tags": {"building": "yes"}}}]}