{"type": "FeatureCollection", "features": [{"type": "Feature", "geometry": {"type": "Polygon", "coordinates": [[[-94.6092166, 34.8746564], [-94.6092266, 34.8746051], [-94.6092904, 34.8746135], [-94.6092804, 34.8746647], [-94.6092166, 34.8746564]]]}, "properties": {"osm_id": 524765529, "building": "yes", "name": "", "height": null, "height_m": null, "levels": null, "tract_id": "40079040602", "tract_name": "406.02", "tags": {"building": "yes"}}}, {"type": "Feature", "geometry": {"type": "Polygon", "coordinates": [[[-94.6092837, 34.8745067], [-94.6093108, 34.8743675], [-94.6093829, 34.8743769], [-94.6093558, 34.8745162], [-94.6092837, 34.8745067]]]}, "properties": {"osm_id": 524765531, "building": "yes", "name": "", "height": null, "height_m": null, "levels": null, "tract_id": "40079040602", "tract_name": "406.02", "tags": {"building": "yes"}}}, {"type": "Feature", "geometry": {"type": "Polygon", "coordinates": [[[-94.606175, 34.8760361], [-94.6062608, 34.8755949], [-94.6064671, 34.8756219], [-94.6064365, 34.8757788], [-94.6065224, 34.8757901], [-94.6064905, 34.8759542], [-94.6064046, 34.875943], [-94.6063812, 34.8760631], [-94.606175, 34.8760361]]]}, "properties": {"osm_id": 524765533, "building": "yes", "name": "", "height": null, "height_m": null, "levels": null, "tract_id": "40079040602", "tract_name": "406.02", "tags": {"building": "yes"}}}, {"type": "Feature", "geometry": {"type": "Polygon", "coordinates": [[[-94.7148407, 34.9360933], [-94.7147781, 34.9360928], [-94.7147789, 34.9360148], [-94.7148415, 34.9360152], [-94.7148407, 34.9360933]]]}, "properties": {"osm_id": 867481607, "building": "yes", "name": "", "height": null, "height_m": null, "levels": null, "tract_id": "40079040602", "tract_name": "406.02", "tags": {"building": "yes"}}}, {"type": "Feature", "geometry": {"type": "Polygon", "coordinates": [[[-94.7155286, 34.9361417], [-94.715184, 34.9361354], [-94.7151877, 34.935995], [-94.7155324, 34.9360013], [-94.7155286, 34.9361417]]]}, "properties": {"osm_id": 867481608, "building": "yes", "name": "", "height": null, "height_m": null, "levels": null, "tract_id": "40079040602", "tract_name": "406.02", "tags": {"building": "yes"}}}, {"type": "Feature", "geometry": {"type": "Polygon", "coordinates": [[[-94.7143283, 34.935836], [-94.7142226, 34.9358343], [-94.7142265, 34.9356716], [-94.7143322, 34.9356733], [-94.7143283, 34.935836]]]}, "properties": {"osm_id": 867481609, "building": "yes", "name": "", "height": null, "height_m": null, "levels": null, "tract_id": "40079040602", "tract_name": "406.02", "tags": {"building": "yes"}}}, {"type": "Feature", "geometry": {"type": "Polygon", "coordinates": [[[-94.7143612, 34.9341978], [-94.7143122, 34.9341892], [-94.7143297, 34.9341225], [-94.7143787, 34.9341312], [-94.7143612, 34.9341978]]]}, "properties": {"osm_id": 867481610, "building": "garage", "name": "", "height": null, "height_m": null, "levels": null, "tract_id": "40079040602", "tract_name": "406.02", "tags": {"building": "garage"}}}, {"type": "Feature", "geometry": {"type": "Polygon", "coordinates": [[[-94.7145309, 34.9343089], [-94.7144091, 34.9342874], [-94.7144123, 34.9342754], [-94.7143693, 34.9342678], [-94.714388, 34.9341969], [-94.7145527, 34.9342259], [-94.7145309, 34.9343089]]]}, "properties": {"osm_id": 867481611, "building": "detached", "name": "", "height": null, "height_m": null, "levels": null, "tract_id": "40079040602", "tract_name": "406.02", "tags": {"building": "detached"}}}, {"type": "Feature", "geometry": {"type": "Polygon", "coordinates": [[[-94.7144625, 34.9346404], [-94.7144206, 34.934633], [-94.714437, 34.9345706], [-94.7144789, 34.934578], [-94.7144625, 34.9346404]]]}, "properties": {"osm_id": 867481612, "building": "garage", "name": "", "height": null, "height_m": null, "levels": null, "tract_id": "40079040602", "tract_name": "406.02", "tags": {"building": "garage"}}}, {"type": "Feature", "geometry": {"type": "Polygon", "coordinates": [[[-94.7146549, 34.9346294], [-94.71449, 34.9346002], [-94.7145121, 34.934516], [-94.714627, 34.9345364], [-94.7146253, 34.9345431], [-94.7146753, 34.9345519], [-94.7146549, 34.9346294]]]}, "properties": {"osm_id": 867481613, "building": "detached", "name": "", "height": null, "height_m": null, "levels": null, "tract_id": "40079040602", "tract_name": "406.02", "tags": {"building": "detached"}}}, {"type": "Feature", "geometry": {"type": "Polygon", "coordinates": [[[-94.7187567, 34.9369096], [-94.7186505, 34.9369207], [-94.718617, 34.9367052], [-94.7187231, 34.9366941], [-94.7187567, 34.9369096]]]}, "properties": {"osm_id": 867481626, "building": "yes", "name": "", "height": null, "height_m": null, "levels": null, "tract_id": "40079040602", "tract_name": "406.02", "tags": {"building": "yes"}}}, {"type": "Feature", "geometry": {"type": "Polygon", "coordinates": [[[-94.7179654, 34.9355595], [-94.7178655, 34.9355875], [-94.7178377, 34.9355209], [-94.7179376, 34.9354929], [-94.7179654, 34.9355595]]]}, "properties": {"osm_id": 867481627, "building": "yes", "name": "", "height": null, "height_m": null, "levels": null, "tract_id": "40079040602", "tract_name": "406.02", "tags": {"building": "yes"}}}, {"type": "Feature", "geometry": {"type": "Polygon", "coordinates": [[[-94.6978847, 34.7781071], [-94.6979914, 34.7780969], [-94.6979782, 34.7780033], [-94.6978693, 34.7780099], [-94.6978847, 34.7781071]]]}, "properties": {"osm_id": 1175978533, "building": "yes", "name": "", "height": null, "height_m": null, "levels": null, "tract_id": "40079040602", "tract_name": "406.02", "tags": {"amenity": "toilets", "building": "yes"}}}, {"type": "Feature", "geometry": {"type": "Polygon", "coordinates": [[[-94.7006693, 34.7747598], [-94.7005396, 34.774757], [-94.7005327, 34.7748552], [-94.700665, 34.7748573], [-94.7006693, 34.7747598]]]}, "properties": {"osm_id": 1175978537, "building": "yes", "name": "", "height": null, "height_m": null, "levels": null, "tract_id": "40079040602", "tract_name": "406.02", "tags": {"amenity": "toilets", "building": "yes"}}}, {"type": "Feature", "geometry": {"type": "Polygon", "coordinates": [[[-94.7008649, 34.7717772], [-94.7007616, 34.7716987], [-94.7006762, 34.7717648], [-94.7007851, 34.771851], [-94.7008649, 34.7717772]]]}, "properties": {"osm_id": 1175978539, "building": "yes", "name": "", "height": null, "height_m": null, "levels": null, "tract_id": "40079040602", "tract_name": "406.02", "tags": {"amenity": "toilets", "building": "yes"}}}, {"type": "Feature", "geometry": {"type": "Polygon", "coordinates": [[[-94.6957805, 34.7744867], [-94.6957079, 34.7743879], [-94.6955825, 34.7744348], [-94.6956567, 34.7745463], [-94.6957805, 34.7744867]]]}, "properties": {"osm_id": 1175978540, "building": "yes", "name": "", "height": null, "height_m": null, "levels": null, "tract_id": "40079040602", "tract_name": "406.02", "tags": {"amenity": "toilets", "building": "yes"}}}, {"type": "Feature", "geometry": {"type": "Polygon", "coordinates": [[[-94.6939352, 34.780601], [-94.6938136, 34.7806369], [-94.6938559, 34.7807106], [-94.6939744, 34.7806667], [-94.6939352, 34.780601]]]}, "properties": {"osm_id": 1175978541, "building": "yes", "name": "", "height": null, "height_m": null, "levels": null, "tract_id": "40079040602", "tract_name": "406.02", "tags": {"amenity": "toilets", "building": "yes"}}}, {"type": "Feature", "geometry": {"type": "Polygon", "coordinates": [[[-94.6938866, 34.7818903], [-94.6939777, 34.7818178], [-94.6938777, 34.7817466], [-94.6937851, 34.7818184], [-94.6938866, 34.7818903]]]}, "properties": {"osm_id": 1175978544, "building": "yes", "name": "", "height": null, "height_m": null, "levels": null, "tract_id": "40079040602", "tract_name": "406.02", "tags": {"amenity": "toilets", "building": "yes"}}}]}