{"type": "FeatureCollection", "features": [{"type": "Feature", "geometry": {"type": "Polygon", "coordinates": [[[-95.8246474, 36.3229097], [-95.8246461, 36.3226978], [-95.8246424, 36.3226978], [-95.8246421, 36.322639], [-95.8246231, 36.3226391], [-95.824623, 36.3226195], [-95.8246347, 36.3226195], [-95.8246343, 36.3225564], [-95.8244997, 36.3225569], [-95.8245, 36.3226187], [-95.8245144, 36.3226187], [-95.8245164, 36.322956], [-95.8245822, 36.3229557], [-95.8245819, 36.32291], [-95.8246474, 36.3229097]]]}, "properties": {"osm_id": 164944104, "building": "retail", "name": "McDonald's", "height": null, "height_m": null, "levels": null, "tract_id": "40143005810", "tract_name": "58.10", "tags": {"addr:city": "Collinsville", "addr:housenumber": "11604", "addr:postcode": "74021", "addr:state": "OK", "addr:street": "North 135th Avenue East", "amenity": "fast_food", "brand": "McDonald's", "brand:website": "https://www.mcdonalds.com/", "brand:wikidata": "Q38076", "building": "retail", "cuisine": "burger", "drive_through": "yes", "internet_access": "wlan", "name": "McDonald's", "opening_hours": "06:00-21:00", "phone": "+1 918-371-0632", "takeaway": "yes", "website": "https://www.mcdonalds.com/us/en-us/location/24376.html"}}}, {"type": "Feature", "geometry": {"type": "Polygon", "coordinates": [[[-95.8182385, 36.323154], [-95.8182402, 36.3234456], [-95.8186071, 36.3234441], [-95.8186064, 36.3233332], [-95.8186506, 36.323333], [-95.8186502, 36.3232558], [-95.8186072, 36.3232559], [-95.8186066, 36.3231524], [-95.8185065, 36.3231528], [-95.8185063, 36.3231138], [-95.8185061, 36.3230877], [-95.8184086, 36.323088], [-95.8184087, 36.3231145], [-95.818409, 36.3231534], [-95.8182385, 36.323154]]]}, "properties": {"osm_id": 553587026, "building": "yes", "name": "DestinyLife Church", "height": null, "height_m": null, "levels": null, "tract_id": "40143005810", "tract_name": "58.10", "tags": {"amenity": "place_of_worship", "building": "yes", "name": "DestinyLife Church", "religion": "christian"}}}, {"type": "Feature", "geometry": {"type": "Polygon", "coordinates": [[[-95.8229004, 36.3230812], [-95.8229023, 36.3229637], [-95.8228489, 36.3229625], [-95.822849, 36.3229086], [-95.8224652, 36.322907], [-95.8224647, 36.3230755], [-95.8229004, 36.3230812]]]}, "properties": {"osm_id": 553587037, "building": "yes", "name": "Discount Tire", "height": null, "height_m": null, "levels": null, "tract_id": "40143005810", "tract_name": "58.10", "tags": {"air_conditioning": "yes", "brand": "Discount Tire", "brand:wikidata": "Q5281735", "building": "yes", "name": "Discount Tire", "shop": "tyres"}}}, {"type": "Feature", "geometry": {"type": "Polygon", "coordinates": [[[-95.8232662, 36.3226895], [-95.8232709, 36.3230022], [-95.8237243, 36.3229977], [-95.8237203, 36.322729], [-95.823673, 36.3226855], [-95.8232662, 36.3226895]]]}, "properties": {"osm_id": 553587043, "building": "yes", "name": "Walgreens", "height": null, "height_m": null, "levels": null, "tract_id": "40143005810", "tract_name": "58.10", "tags": {"amenity": "pharmacy", "brand": "Walgreens", "brand:wikidata": "Q1591889", "building": "yes", "dispensing": "yes", "healthcare": "pharmacy", "name": "Walgreens"}}}, {"type": "Feature", "geometry": {"type": "Polygon", "coordinates": [[[-95.8250259, 36.3226653], [-95.8251122, 36.322664], [-95.8251146, 36.322487], [-95.8250223, 36.322486], [-95.8250259, 36.3226653]]]}, "properties": {"osm_id": 553587047, "building": "yes", "name": "Taco Bell", "height": null, "height_m": null, "levels": null, "tract_id": "40143005810", "tract_name": "58.10", "tags": {"addr:city": "Owasso", "addr:housenumber": "13315", "addr:postcode": "74055", "addr:state": "OK", "addr:street": "East 116th Street North", "amenity": "fast_food", "brand": "Taco Bell", "brand:wikidata": "Q752941", "building": "yes", "cuisine": "tex-mex", "name": "Taco Bell", "opening_hours": "Mo-Th 08:00-03:00; Fr-Sa 08:00-04:00; Su 08:00-03:00", "phone": "+1 918-371-3550", "takeaway": "yes", "website": "https://locations.tacobell.com/ok/owasso/13315-e--116th-street-north.html"}}}, {"type": "Feature", "geometry": {"type": "Polygon", "coordinates": [[[-95.8314838, 36.3224258], [-95.8314842, 36.3225644], [-95.8311364, 36.322565], [-95.831137, 36.322778], [-95.8309583, 36.3227783], [-95.8309577, 36.3225637], [-95.8306183, 36.3225643], [-95.8306179, 36.3224253], [-95.8310467, 36.3224245], [-95.8310447, 36.3223727], [-95.8310442, 36.3223308], [-95.8311499, 36.3223301], [-95.8311504, 36.3223743], [-95.8311475, 36.3224265], [-95.8314838, 36.3224258]]]}, "properties": {"osm_id": 553590764, "building": "yes", "name": "Prairie Village", "height": null, "height_m": null, "levels": null, "tract_id": "40143005810", "tract_name": "58.10", "tags": {"amenity": "social_facility", "building": "yes", "name": "Prairie Village", "social_facility": "group_home", "social_facility:for": "senior"}}}, {"type": "Feature", "geometry": {"type": "Polygon", "coordinates": [[[-95.8479779, 36.3223355], [-95.8478088, 36.3224158], [-95.8477684, 36.3223606], [-95.8479376, 36.3222803], [-95.8479779, 36.3223355]]]}, "properties": {"osm_id": 553791999, "building": "yes", "name": "Ultimate Auto Finance", "height": null, "height_m": null, "levels": null, "tract_id": "40143005810", "tract_name": "58.10", "tags": {"building": "yes", "name": "Ultimate Auto Finance", "second_hand": "only", "shop": "car"}}}, {"type": "Feature", "geometry": {"type": "Polygon", "coordinates": [[[-95.847778, 36.322768], [-95.8476515, 36.3227679], [-95.8476515, 36.3226092], [-95.847778, 36.3226092], [-95.847778, 36.322768]]]}, "properties": {"osm_id": 553792000, "building": "yes", "name": "Mom's Diner", "height": null, "height_m": null, "levels": null, "tract_id": "40143005810", "tract_name": "58.10", "tags": {"amenity": "restaurant", "building": "yes", "name": "Mom's Diner"}}}, {"type": "Feature", "geometry": {"type": "Polygon", "coordinates": [[[-95.8476871, 36.3233342], [-95.8474282, 36.3233274], [-95.8474311, 36.323254], [-95.84769, 36.3232608], [-95.8476871, 36.3233342]]]}, "properties": {"osm_id": 553792003, "building": "yes", "name": "", "height": null, "height_m": null, "levels": null, "tract_id": "40143005810", "tract_name": "58.10", "tags": {"building": "yes"}}}, {"type": "Feature", "geometry": {"type": "Polygon", "coordinates": [[[-95.8473245, 36.3239526], [-95.8469907, 36.3239547], [-95.8469852, 36.3234011], [-95.847319, 36.3233989], [-95.8473245, 36.3239526]]]}, "properties": {"osm_id": 553792006, "building": "yes", "name": "Owasso 180", "height": null, "height_m": null, "levels": null, "tract_id": "40143005810", "tract_name": "58.10", "tags": {"building": "yes", "leisure": "fitness_centre", "name": "Owasso 180"}}}, {"type": "Feature", "geometry": {"type": "Polygon", "coordinates": [[[-95.8474394, 36.3259393], [-95.8470058, 36.3259389], [-95.8470061, 36.3257318], [-95.8474397, 36.3257322], [-95.8474394, 36.3259393]]]}, "properties": {"osm_id": 553792007, "building": "retail", "name": "Dollar General", "height": null, "height_m": null, "levels": null, "tract_id": "40143005810", "tract_name": "58.10", "tags": {"brand": "Dollar General", "brand:wikidata": "Q145168", "building": "retail", "name": "Dollar General", "shop": "variety_store", "website": "https://www.dollargeneral.com/store-directory/ok/collinsville/10835"}}}, {"type": "Feature", "geometry": {"type": "Polygon", "coordinates": [[[-95.8478046, 36.3273202], [-95.8476935, 36.3273199], [-95.8476953, 36.3269541], [-95.8478064, 36.3269545], [-95.8478046, 36.3273202]]]}, "properties": {"osm_id": 553792010, "building": "yes", "name": "Jack of Clubs", "height": null, "height_m": null, "levels": null, "tract_id": "40143005810", "tract_name": "58.10", "tags": {"amenity": "bar", "building": "yes", "name": "Jack of Clubs"}}}, {"type": "Feature", "geometry": {"type": "Polygon", "coordinates": [[[-95.8399617, 36.3338225], [-95.8397013, 36.3338215], [-95.8397016, 36.3337724], [-95.839962, 36.3337734], [-95.8399617, 36.3338225]]]}, "properties": {"osm_id": 717330919, "building": "yes", "name": "", "height": null, "height_m": null, "levels": null, "tract_id": "40143005810", "tract_name": "58.10", "tags": {"building": "yes"}}}, {"type": "Feature", "geometry": {"type": "Polygon", "coordinates": [[[-95.8400189, 36.3336654], [-95.8398121, 36.3336658], [-95.8398115, 36.3334977], [-95.8400183, 36.3334972], [-95.8400189, 36.3336654]]]}, "properties": {"osm_id": 717330920, "building": "yes", "name": "", "height": null, "height_m": null, "levels": null, "tract_id": "40143005810", "tract_name": "58.10", "tags": {"building": "yes"}}}, {"type": "Feature", "geometry": {"type": "Polygon", "coordinates": [[[-95.8421298, 36.3354722], [-95.8421125, 36.3354776], [-95.8421078, 36.3354679], [-95.8421251, 36.3354625], [-95.8421298, 36.3354722]]]}, "properties": {"osm_id": 717330921, "building": "yes", "name": "", "height": null, "height_m": null, "levels": null, "tract_id": "40143005810", "tract_name": "58.10", "tags": {"building": "yes"}}}, {"type": "Feature", "geometry": {"type": "Polygon", "coordinates": [[[-95.8417306, 36.3356501], [-95.8417311, 36.3356276], [-95.8417156, 36.3356274], [-95.8417151, 36.3356499], [-95.8417306, 36.3356501]]]}, "properties": {"osm_id": 717330922, "building": "yes", "name": "", "height": null, "height_m": null, "levels": null, "tract_id": "40143005810", "tract_name": "58.10", "tags": {"building": "yes"}}}, {"type": "Feature", "geometry": {"type": "Polygon", "coordinates": [[[-95.841737, 36.3357572], [-95.841734, 36.3356793], [-95.8418789, 36.3356756], [-95.8418807, 36.3357218], [-95.84184, 36.3357228], [-95.8418413, 36.3357546], [-95.841737, 36.3357572]]]}, "properties": {"osm_id": 717330923, "building": "yes", "name": "", "height": null, "height_m": null, "levels": null, "tract_id": "40143005810", "tract_name": "58.10", "tags": {"building": "yes"}}}, {"type": "Feature", "geometry": {"type": "Polygon", "coordinates": [[[-95.8416781, 36.3359624], [-95.8416776, 36.3359193], [-95.8416466, 36.3359196], [-95.8416472, 36.3359626], [-95.8416781, 36.3359624]]]}, "properties": {"osm_id": 717330924, "building": "yes", "name": "", "height": null, "height_m": null, "levels": null, "tract_id": "40143005810", "tract_name": "58.10", "tags": {"building": "yes"}}}, {"type": "Feature", "geometry": {"type": "Polygon", "coordinates": [[[-95.8418748, 36.3361405], [-95.8417726, 36.3361403], [-95.8417728, 36.3360441], [-95.8418751, 36.3360442], [-95.8418748, 36.3361405]]]}, "properties": {"osm_id": 717330925, "building": "yes", "name": "", "height": null, "height_m": null, "levels": null, "tract_id": "40143005810", "tract_name": "58.10", "tags": {"building": "yes"}}}, {"type": "Feature", "geometry": {"type": "Polygon", "coordinates": [[[-95.8417109, 36.3363367], [-95.8417091, 36.3361772], [-95.8418078, 36.3361765], [-95.8418079, 36.3361834], [-95.8418475, 36.3361832], [-95.8418478, 36.3362147], [-95.8418139, 36.3362149], [-95.8418141, 36.3362342], [-95.8418092, 36.3362343], [-95.8418103, 36.3363359], [-95.8417109, 36.3363367]]]}, "properties": {"osm_id": 717330926, "building": "yes", "name": "", "height": null, "height_m": null, "levels": null, "tract_id": "40143005810", "tract_name": "58.10", "tags": {"building": "yes"}}}, {"type": "Feature", "geometry": {"type": "Polygon", "coordinates": [[[-95.8569353, 36.326333], [-95.8570005, 36.3264588], [-95.857036, 36.3264468], [-95.8570406, 36.3264558], [-95.8571222, 36.3264284], [-95.8571165, 36.3264172], [-95.8571591, 36.3264029], [-95.8570923, 36.326274], [-95.8570232, 36.3262972], [-95.8570324, 36.3263149], [-95.8570103, 36.3263224], [-95.857013, 36.3263276], [-95.8569947, 36.3263338], [-95.8569856, 36.3263161], [-95.8569353, 36.326333]]]}, "properties": {"osm_id": 766874722, "building": "detached", "name": "", "height": null, "height_m": 3.0, "levels": 1, "tract_id": "40143005810", "tract_name": "58.10", "tags": {"addr:city": "Collinsville", "addr:housenumber": "11844", "addr:postcode": "74021", "addr:state": "OK", "addr:street": "North 107th East Place", "building": "detached", "building:levels": "1"}}}, {"type": "Feature", "geometry": {"type": "Polygon", "coordinates": [[[-95.8268196, 36.3303857], [-95.8268184, 36.3304723], [-95.8264716, 36.3304694], [-95.826467, 36.3305898], [-95.8264261, 36.3305917], [-95.8264238, 36.3306792], [-95.8264658, 36.3306782], [-95.8264635, 36.3307234], [-95.8266386, 36.3307243], [-95.8266351, 36.3308645], [-95.8263292, 36.3308598], [-95.8263245, 36.3309604], [-95.8263339, 36.3309604], [-95.8263888, 36.3312125], [-95.8263374, 36.3312209], [-95.8263479, 36.3312877], [-95.8264378, 36.3312774], [-95.8264296, 36.3315774], [-95.8266106, 36.3315793], [-95.8266082, 36.3316743], [-95.8264366, 36.3316743], [-95.8264343, 36.3317204], [-95.8263958, 36.3317194], [-95.8263934, 36.3318069], [-95.8264296, 36.3318069], [-95.8264331, 36.331932], [-95.8267764, 36.3319367], [-95.8267752, 36.3320213], [-95.8270787, 36.332027], [-95.8270799, 36.3319828], [-95.8271208, 36.3319828], [-95.8271219, 36.3318906], [-95.8270834, 36.3318906], [-95.8270858, 36.3317674], [-95.8269095, 36.3317655], [-95.826913, 36.3316827], [-95.8270893, 36.3316846], [-95.8270904, 36.3316432], [-95.8271301, 36.3316423], [-95.8271313, 36.3315501], [-95.8270939, 36.3315482], [-95.8270974, 36.3314279], [-95.8269515, 36.331426], [-95.8269538, 36.331347], [-95.8270986, 36.3313507], [-95.8270682, 36.3312012], [-95.8271219, 36.3311927], [-95.8271091, 36.331125], [-95.8269667, 36.3311401], [-95.826969, 36.3309858], [-95.8271068, 36.3309886], [-95.8271114, 36.3308692], [-95.8271523, 36.3308701], [-95.8271546, 36.3307779], [-95.8271149, 36.3307779], [-95.8271161, 36.3307337], [-95.8269386, 36.330729], [-95.8269398, 36.3306444], [-95.8271173, 36.33065], [-95.8271219, 36.3305268], [-95.8271593, 36.3305287], [-95.8271616, 36.3304375], [-95.8271231, 36.3304365], [-95.8271219, 36.3303961], [-95.8268196, 36.3303857]]]}, "properties": {"osm_id": 836504758, "building": "school", "name": "", "height": null, "height_m": null, "levels": null, "tract_id": "40143005810", "tract_name": "58.10", "tags": {"building": "school"}}}, {"type": "Feature", "geometry": {"type": "Polygon", "coordinates": [[[-95.8254625, 36.3307329], [-95.8255334, 36.3305219], [-95.8254674, 36.3305075], [-95.8254619, 36.3305241], [-95.8253913, 36.3305087], [-95.8253403, 36.330661], [-95.8254017, 36.3306744], [-95.8253875, 36.3307165], [-95.8254625, 36.3307329]]]}, "properties": {"osm_id": 836504759, "building": "yes", "name": "", "height": null, "height_m": null, "levels": null, "tract_id": "40143005810", "tract_name": "58.10", "tags": {"building": "yes"}}}, {"type": "Feature", "geometry": {"type": "Polygon", "coordinates": [[[-95.8282464, 36.3301941], [-95.8280272, 36.3301914], [-95.8280243, 36.3300887], [-95.8280589, 36.3300875], [-95.8280589, 36.330053], [-95.8282479, 36.3300551], [-95.8282464, 36.3301941]]]}, "properties": {"osm_id": 951032750, "building": "yes", "name": "", "height": null, "height_m": null, "levels": null, "tract_id": "40143005810", "tract_name": "58.10", "tags": {"building": "yes"}}}, {"type": "Feature", "geometry": {"type": "Polygon", "coordinates": [[[-95.8282635, 36.3303352], [-95.8281098, 36.3303329], [-95.8281099, 36.3303227], [-95.8280844, 36.3303217], [-95.8280843, 36.3303012], [-95.8280611, 36.3302994], [-95.8280629, 36.3302247], [-95.8282836, 36.3302286], [-95.8282825, 36.3302917], [-95.8282601, 36.3302917], [-95.828259, 36.3302947], [-95.8282631, 36.3302947], [-95.8282635, 36.3303352]]]}, "properties": {"osm_id": 951032751, "building": "yes", "name": "", "height": null, "height_m": null, "levels": null, "tract_id": "40143005810", "tract_name": "58.10", "tags": {"building": "yes"}}}, {"type": "Feature", "geometry": {"type": "Polygon", "coordinates": [[[-95.8284531, 36.3299527], [-95.8283808, 36.329774], [-95.828399, 36.3297685], [-95.828399, 36.3297607], [-95.8284136, 36.3297569], [-95.8284196, 36.3297637], [-95.8284411, 36.3297585], [-95.8284422, 36.3297605], [-95.8285086, 36.329743], [-95.8285171, 36.3297664], [-95.8285592, 36.329758], [-95.8286089, 36.3298814], [-95.8285651, 36.3298921], [-95.8285696, 36.3299037], [-95.8285221, 36.3299157], [-95.8285295, 36.3299335], [-95.8284531, 36.3299527]]]}, "properties": {"osm_id": 951032752, "building": "yes", "name": "", "height": null, "height_m": null, "levels": null, "tract_id": "40143005810", "tract_name": "58.10", "tags": {"building": "yes"}}}, {"type": "Feature", "geometry": {"type": "Polygon", "coordinates": [[[-95.817486, 36.3237027], [-95.8173573, 36.3237027], [-95.8173573, 36.3236303], [-95.817486, 36.3236303], [-95.817486, 36.3237027]]]}, "properties": {"osm_id": 1138124080, "building": "yes", "name": "", "height": null, "height_m": null, "levels": null, "tract_id": "40143005810", "tract_name": "58.10", "tags": {"building": "yes"}}}, {"type": "Feature", "geometry": {"type": "Polygon", "coordinates": [[[-95.817702, 36.323258], [-95.8176309, 36.323258], [-95.8176309, 36.3232283], [-95.817702, 36.3232283], [-95.817702, 36.323258]]]}, "properties": {"osm_id": 1138124081, "building": "yes", "name": "", "height": null, "height_m": null, "levels": null, "tract_id": "40143005810", "tract_name": "58.10", "tags": {"building": "yes"}}}, {"type": "Feature", "geometry": {"type": "Polygon", "coordinates": [[[-95.817771, 36.3234428], [-95.8177657, 36.3231613], [-95.8179534, 36.323159], [-95.8179554, 36.323264], [-95.8179705, 36.3232638], [-95.8179718, 36.3233341], [-95.8179568, 36.3233342], [-95.8179588, 36.3234405], [-95.817771, 36.3234428]]]}, "properties": {"osm_id": 1138124082, "building": "yes", "name": "", "height": null, "height_m": null, "levels": null, "tract_id": "40143005810", "tract_name": "58.10", "tags": {"building": "yes"}}}, {"type": "Feature", "geometry": {"type": "Polygon", "coordinates": [[[-95.8194323, 36.3235863], [-95.8193076, 36.3230803], [-95.8192665, 36.3230869], [-95.8192266, 36.3229254], [-95.8196628, 36.3228556], [-95.8196755, 36.3229068], [-95.8197362, 36.322897], [-95.8197636, 36.3230084], [-95.8197501, 36.3230105], [-95.8197686, 36.323043], [-95.8197867, 36.3230889], [-95.8198021, 36.3231549], [-95.8198041, 36.323197], [-95.8197954, 36.3232672], [-95.8197762, 36.3233154], [-95.8197828, 36.3233423], [-95.8197504, 36.3233475], [-95.819795, 36.3235282], [-95.8194323, 36.3235863]]]}, "properties": {"osm_id": 1138124129, "building": "yes", "name": "", "height": null, "height_m": null, "levels": null, "tract_id": "40143005810", "tract_name": "58.10", "tags": {"building": "yes", "shop": "vacant"}}}, {"type": "Feature", "geometry": {"type": "Polygon", "coordinates": [[[-95.8452871, 36.3233737], [-95.8452355, 36.3233745], [-95.8452359, 36.3233932], [-95.8451783, 36.3233942], [-95.8451778, 36.3233754], [-95.8451195, 36.3233764], [-95.8451162, 36.3232439], [-95.8452141, 36.3232423], [-95.8452137, 36.3232251], [-95.8452834, 36.3232239], [-95.8452871, 36.3233737]]]}, "properties": {"osm_id": 1193442211, "building": "detached", "name": "", "height": null, "height_m": null, "levels": null, "tract_id": "40143005810", "tract_name": "58.10", "tags": {"addr:city": "Owasso", "addr:country": "US", "addr:state": "OK", "addr:street": "East 117th North Street", "building": "detached", "roof:shape": "gabled"}}}, {"type": "Feature", "geometry": {"type": "Polygon", "coordinates": [[[-95.8450652, 36.3232456], [-95.8450685, 36.3234055], [-95.844984, 36.3234067], [-95.8449846, 36.3234313], [-95.8449244, 36.3234321], [-95.8449237, 36.3233974], [-95.8448848, 36.3233979], [-95.8448827, 36.3232947], [-95.8449912, 36.3232932], [-95.8449902, 36.3232466], [-95.8450652, 36.3232456]]]}, "properties": {"osm_id": 1193442212, "building": "detached", "name": "", "height": null, "height_m": null, "levels": null, "tract_id": "40143005810", "tract_name": "58.10", "tags": {"addr:city": "Owasso", "addr:country": "US", "addr:state": "OK", "addr:street": "East 117th North Street", "building": "detached", "roof:shape": "gabled"}}}, {"type": "Feature", "geometry": {"type": "Polygon", "coordinates": [[[-95.8446508, 36.3232705], [-95.8447441, 36.3232692], [-95.8447438, 36.3232575], [-95.8448347, 36.3232563], [-95.844836, 36.3233189], [-95.8448207, 36.3233191], [-95.8448228, 36.3234162], [-95.8446922, 36.323418], [-95.8446917, 36.3233964], [-95.8446535, 36.3233969], [-95.8446508, 36.3232705]]]}, "properties": {"osm_id": 1193442213, "building": "detached", "name": "", "height": null, "height_m": null, "levels": null, "tract_id": "40143005810", "tract_name": "58.10", "tags": {"addr:city": "Owasso", "addr:country": "US", "addr:state": "OK", "addr:street": "East 117th North Street", "building": "detached", "roof:shape": "gabled"}}}, {"type": "Feature", "geometry": {"type": "Polygon", "coordinates": [[[-95.8446139, 36.3229847], [-95.8444695, 36.3229824], [-95.8444701, 36.3229546], [-95.8444555, 36.3229544], [-95.8444581, 36.3228445], [-95.8445138, 36.3228453], [-95.8445145, 36.3228156], [-95.8446179, 36.3228172], [-95.8446139, 36.3229847]]]}, "properties": {"osm_id": 1193442214, "building": "detached", "name": "", "height": null, "height_m": null, "levels": null, "tract_id": "40143005810", "tract_name": "58.10", "tags": {"addr:city": "Owasso", "addr:country": "US", "addr:state": "OK", "addr:street": "East 117th North Street", "building": "detached", "roof:shape": "gabled"}}}, {"type": "Feature", "geometry": {"type": "Polygon", "coordinates": [[[-95.8448298, 36.3229749], [-95.8447239, 36.3229744], [-95.8447243, 36.3229249], [-95.8446997, 36.3229248], [-95.8446996, 36.3229373], [-95.8446518, 36.3229371], [-95.8446528, 36.3228146], [-95.8447165, 36.3228149], [-95.8447169, 36.3227717], [-95.844788, 36.3227721], [-95.8447876, 36.3228153], [-95.8448312, 36.3228156], [-95.8448298, 36.3229749]]]}, "properties": {"osm_id": 1193442215, "building": "detached", "name": "", "height": null, "height_m": null, "levels": null, "tract_id": "40143005810", "tract_name": "58.10", "tags": {"addr:city": "Owasso", "addr:country": "US", "addr:state": "OK", "addr:street": "East 117th North Street", "building": "detached", "roof:shape": "gabled"}}}, {"type": "Feature", "geometry": {"type": "Polygon", "coordinates": [[[-95.8450679, 36.3227853], [-95.8450665, 36.3229566], [-95.8449894, 36.3229562], [-95.8449899, 36.3228912], [-95.8449324, 36.3228909], [-95.8449323, 36.322907], [-95.8448825, 36.3229068], [-95.8448834, 36.3227844], [-95.8449431, 36.3227847], [-95.8449432, 36.3227716], [-95.8450183, 36.322772], [-95.8450182, 36.3227851], [-95.8450679, 36.3227853]]]}, "properties": {"osm_id": 1193442216, "building": "detached", "name": "", "height": null, "height_m": null, "levels": null, "tract_id": "40143005810", "tract_name": "58.10", "tags": {"addr:city": "Owasso", "addr:country": "US", "addr:state": "OK", "addr:street": "East 117th North Street", "building": "detached", "roof:shape": "gabled"}}}, {"type": "Feature", "geometry": {"type": "Polygon", "coordinates": [[[-95.8452952, 36.322929], [-95.845218, 36.3229283], [-95.8452187, 36.3228828], [-95.8451483, 36.3228822], [-95.8451486, 36.3228644], [-95.8451158, 36.3228641], [-95.8451169, 36.322788], [-95.8451897, 36.3227886], [-95.8451901, 36.3227599], [-95.8452486, 36.3227604], [-95.8452482, 36.3227892], [-95.8452972, 36.3227896], [-95.8452952, 36.322929]]]}, "properties": {"osm_id": 1193442217, "building": "detached", "name": "", "height": null, "height_m": null, "levels": null, "tract_id": "40143005810", "tract_name": "58.10", "tags": {"addr:city": "Owasso", "addr:country": "US", "addr:state": "OK", "addr:street": "East 117th North Street", "building": "detached", "roof:shape": "gabled"}}}, {"type": "Feature", "geometry": {"type": "Polygon", "coordinates": [[[-95.8455292, 36.3229188], [-95.8454454, 36.3229185], [-95.8454455, 36.3228865], [-95.8453449, 36.3228862], [-95.8453454, 36.3227766], [-95.8453891, 36.3227768], [-95.8453892, 36.3227463], [-95.8454469, 36.3227465], [-95.8454467, 36.322777], [-95.8455299, 36.3227772], [-95.8455292, 36.3229188]]]}, "properties": {"osm_id": 1193442218, "building": "detached", "name": "", "height": null, "height_m": null, "levels": null, "tract_id": "40143005810", "tract_name": "58.10", "tags": {"addr:city": "Owasso", "addr:country": "US", "addr:state": "OK", "addr:street": "East 117th North Street", "building": "detached", "roof:shape": "gabled"}}}, {"type": "Feature", "geometry": {"type": "Polygon", "coordinates": [[[-95.8457565, 36.322768], [-95.8457593, 36.3228877], [-95.8456525, 36.3228893], [-95.8456532, 36.3229195], [-95.845583, 36.3229206], [-95.8455795, 36.3227707], [-95.8456553, 36.3227696], [-95.8456549, 36.3227511], [-95.8457159, 36.3227501], [-95.8457163, 36.3227686], [-95.8457565, 36.322768]]]}, "properties": {"osm_id": 1193442219, "building": "detached", "name": "", "height": null, "height_m": null, "levels": null, "tract_id": "40143005810", "tract_name": "58.10", "tags": {"addr:city": "Owasso", "addr:country": "US", "addr:state": "OK", "addr:street": "East 117th North Street", "building": "detached", "roof:shape": "gabled"}}}, {"type": "Feature", "geometry": {"type": "Polygon", "coordinates": [[[-95.8458229, 36.3227421], [-95.8458524, 36.3227419], [-95.8458522, 36.3227244], [-95.845936, 36.3227238], [-95.8459362, 36.3227412], [-95.8459617, 36.3227411], [-95.845963, 36.3228583], [-95.8459958, 36.322858], [-95.8459965, 36.3229153], [-95.8458249, 36.3229166], [-95.8458229, 36.3227421]]]}, "properties": {"osm_id": 1193442220, "building": "detached", "name": "", "height": null, "height_m": null, "levels": null, "tract_id": "40143005810", "tract_name": "58.10", "tags": {"addr:city": "Owasso", "addr:country": "US", "addr:state": "OK", "addr:street": "East 117th North Street", "building": "detached", "roof:shape": "gabled"}}}, {"type": "Feature", "geometry": {"type": "Polygon", "coordinates": [[[-95.8444536, 36.3242472], [-95.8445941, 36.3243272], [-95.8445513, 36.324376], [-95.8445232, 36.32436], [-95.8444432, 36.3244511], [-95.8444059, 36.3244298], [-95.8443907, 36.3244471], [-95.8443365, 36.3244162], [-95.8443516, 36.3243989], [-95.8443309, 36.3243872], [-95.8444536, 36.3242472]]]}, "properties": {"osm_id": 1193442235, "building": "detached", "name": "", "height": null, "height_m": null, "levels": null, "tract_id": "40143005810", "tract_name": "58.10", "tags": {"addr:city": "Owasso", "addr:country": "US", "addr:state": "OK", "addr:street": "North 117th East Avenue", "building": "detached", "roof:shape": "gabled"}}}, {"type": "Feature", "geometry": {"type": "Polygon", "coordinates": [[[-95.8439246, 36.3240349], [-95.8439234, 36.3240573], [-95.8438765, 36.3240557], [-95.8438776, 36.3240333], [-95.8439246, 36.3240349]]]}, "properties": {"osm_id": 1193442236, "building": "yes", "name": "", "height": null, "height_m": null, "levels": null, "tract_id": "40143005810", "tract_name": "58.10", "tags": {"building": "yes"}}}, {"type": "Feature", "geometry": {"type": "Polygon", "coordinates": [[[-95.8439527, 36.3239615], [-95.8439648, 36.3239883], [-95.8439239, 36.3240002], [-95.8439118, 36.3239733], [-95.8439527, 36.3239615]]]}, "properties": {"osm_id": 1193442237, "building": "yes", "name": "", "height": null, "height_m": null, "levels": null, "tract_id": "40143005810", "tract_name": "58.10", "tags": {"building": "yes"}}}, {"type": "Feature", "geometry": {"type": "Polygon", "coordinates": [[[-95.8441358, 36.3237648], [-95.844154, 36.3238406], [-95.8441659, 36.3238388], [-95.8441819, 36.3239057], [-95.8441051, 36.3239177], [-95.8441026, 36.323907], [-95.8439817, 36.3239259], [-95.8439573, 36.3238243], [-95.8439836, 36.3238202], [-95.8439762, 36.3237897], [-95.8441358, 36.3237648]]]}, "properties": {"osm_id": 1193442238, "building": "detached", "name": "", "height": null, "height_m": null, "levels": null, "tract_id": "40143005810", "tract_name": "58.10", "tags": {"addr:city": "Owasso", "addr:country": "US", "addr:state": "OK", "addr:street": "North 117th East Avenue", "building": "detached", "roof:shape": "gabled"}}}, {"type": "Feature", "geometry": {"type": "Polygon", "coordinates": [[[-95.8441559, 36.3237405], [-95.8439527, 36.3237675], [-95.8439436, 36.3237231], [-95.8439492, 36.3237223], [-95.8439314, 36.3236355], [-95.8439644, 36.3236311], [-95.8439601, 36.3236099], [-95.8440132, 36.3236029], [-95.8440175, 36.323624], [-95.8441138, 36.3236112], [-95.844128, 36.3236808], [-95.8441433, 36.3236788], [-95.8441559, 36.3237405]]]}, "properties": {"osm_id": 1193442239, "building": "detached", "name": "", "height": null, "height_m": null, "levels": null, "tract_id": "40143005810", "tract_name": "58.10", "tags": {"addr:city": "Owasso", "addr:country": "US", "addr:state": "OK", "addr:street": "North 117th East Avenue", "building": "detached", "roof:shape": "gabled"}}}, {"type": "Feature", "geometry": {"type": "Polygon", "coordinates": [[[-95.8446984, 36.3236902], [-95.8447183, 36.323723], [-95.8447112, 36.3237258], [-95.84473, 36.3237567], [-95.8446901, 36.3237724], [-95.844707, 36.3238001], [-95.8447261, 36.3237925], [-95.8447561, 36.3238419], [-95.8445875, 36.3239085], [-95.8445538, 36.3238532], [-95.844574, 36.3238452], [-95.844522, 36.3237599], [-95.8446984, 36.3236902]]]}, "properties": {"osm_id": 1193442240, "building": "detached", "name": "", "height": null, "height_m": null, "levels": null, "tract_id": "40143005810", "tract_name": "58.10", "tags": {"addr:city": "Owasso", "addr:country": "US", "addr:state": "OK", "addr:street": "North 117th East Avenue", "building": "detached", "roof:shape": "gabled"}}}, {"type": "Feature", "geometry": {"type": "Polygon", "coordinates": [[[-95.8446877, 36.3235368], [-95.8446888, 36.32363], [-95.8446597, 36.3236303], [-95.8446602, 36.3236688], [-95.8444961, 36.3236701], [-95.8444952, 36.3235955], [-95.8444839, 36.3235956], [-95.8444832, 36.3235384], [-95.8446877, 36.3235368]]]}, "properties": {"osm_id": 1193442241, "building": "detached", "name": "", "height": null, "height_m": null, "levels": null, "tract_id": "40143005810", "tract_name": "58.10", "tags": {"addr:city": "Owasso", "addr:country": "US", "addr:state": "OK", "addr:street": "North 117th East Avenue", "building": "detached", "roof:shape": "gabled"}}}, {"type": "Feature", "geometry": {"type": "Polygon", "coordinates": [[[-95.8446173, 36.3234028], [-95.8445757, 36.323403], [-95.8445758, 36.3234162], [-95.84452, 36.3234164], [-95.8445199, 36.3233892], [-95.8444529, 36.3233895], [-95.8444525, 36.3233234], [-95.8444464, 36.3233234], [-95.844446, 36.3232544], [-95.8445187, 36.3232542], [-95.8445187, 36.3232619], [-95.8445769, 36.3232617], [-95.844577, 36.3232749], [-95.8446166, 36.3232748], [-95.8446173, 36.3234028]]]}, "properties": {"osm_id": 1193442242, "building": "detached", "name": "", "height": null, "height_m": null, "levels": null, "tract_id": "40143005810", "tract_name": "58.10", "tags": {"addr:city": "Owasso", "addr:country": "US", "addr:state": "OK", "addr:street": "North 117th East Avenue", "building": "detached", "roof:shape": "gabled"}}}, {"type": "Feature", "geometry": {"type": "Polygon", "coordinates": [[[-95.8441412, 36.3233688], [-95.8439165, 36.3233672], [-95.8439171, 36.3233186], [-95.8438908, 36.3233184], [-95.8438914, 36.3232708], [-95.8439176, 36.323271], [-95.8439178, 36.3232543], [-95.8440687, 36.3232554], [-95.8440689, 36.3232429], [-95.8441426, 36.3232434], [-95.8441412, 36.3233688]]]}, "properties": {"osm_id": 1193442243, "building": "detached", "name": "", "height": null, "height_m": null, "levels": null, "tract_id": "40143005810", "tract_name": "58.10", "tags": {"addr:city": "Owasso", "addr:country": "US", "addr:state": "OK", "addr:street": "North 117th East Avenue", "building": "detached", "roof:shape": "gabled"}}}, {"type": "Feature", "geometry": {"type": "Polygon", "coordinates": [[[-95.8441432, 36.3230792], [-95.8441434, 36.3231419], [-95.8441203, 36.323142], [-95.8441206, 36.3232192], [-95.8439392, 36.3232197], [-95.8439387, 36.3230798], [-95.8441432, 36.3230792]]]}, "properties": {"osm_id": 1193442244, "building": "detached", "name": "", "height": null, "height_m": null, "levels": null, "tract_id": "40143005810", "tract_name": "58.10", "tags": {"addr:city": "Owasso", "addr:country": "US", "addr:state": "OK", "addr:street": "North 117th East Avenue", "building": "detached", "roof:shape": "gabled"}}}, {"type": "Feature", "geometry": {"type": "Polygon", "coordinates": [[[-95.8438689, 36.3231192], [-95.843826, 36.3231192], [-95.843826, 36.3230825], [-95.8438689, 36.3230825], [-95.8438689, 36.3231192]]]}, "properties": {"osm_id": 1193442245, "building": "yes", "name": "", "height": null, "height_m": null, "levels": null, "tract_id": "40143005810", "tract_name": "58.10", "tags": {"building": "yes"}}}, {"type": "Feature", "geometry": {"type": "Polygon", "coordinates": [[[-95.8439246, 36.3229063], [-95.8441358, 36.3229047], [-95.8441366, 36.3229685], [-95.8441076, 36.3229687], [-95.8441082, 36.3230183], [-95.8439722, 36.3230193], [-95.8439724, 36.3230407], [-95.8439262, 36.3230411], [-95.8439246, 36.3229063]]]}, "properties": {"osm_id": 1193442246, "building": "detached", "name": "", "height": null, "height_m": null, "levels": null, "tract_id": "40143005810", "tract_name": "58.10", "tags": {"addr:city": "Owasso", "addr:country": "US", "addr:state": "OK", "addr:street": "North 117th East Avenue", "building": "detached", "roof:shape": "gabled"}}}, {"type": "Feature", "geometry": {"type": "Polygon", "coordinates": [[[-95.8446769, 36.3226848], [-95.8444811, 36.3227043], [-95.8444724, 36.3226469], [-95.8445254, 36.3226416], [-95.844511, 36.3225478], [-95.8446896, 36.3225301], [-95.8447025, 36.3226143], [-95.8446667, 36.3226179], [-95.8446769, 36.3226848]]]}, "properties": {"osm_id": 1193442247, "building": "detached", "name": "", "height": null, "height_m": null, "levels": null, "tract_id": "40143005810", "tract_name": "58.10", "tags": {"addr:city": "Owasso", "addr:country": "US", "addr:state": "OK", "addr:street": "North 117th East Avenue", "building": "detached", "roof:shape": "gabled"}}}, {"type": "Feature", "geometry": {"type": "Polygon", "coordinates": [[[-95.8441633, 36.3222748], [-95.8441861, 36.3222807], [-95.8441933, 36.3222625], [-95.8442583, 36.3222794], [-95.8442511, 36.3222975], [-95.844295, 36.3223089], [-95.8442516, 36.3224177], [-95.8442828, 36.3224258], [-95.8442602, 36.3224823], [-95.8441588, 36.322456], [-95.8441659, 36.3224381], [-95.8441522, 36.3224346], [-95.8441446, 36.3224535], [-95.8440969, 36.3224412], [-95.8441633, 36.3222748]]]}, "properties": {"osm_id": 1193442248, "building": "detached", "name": "", "height": null, "height_m": null, "levels": null, "tract_id": "40143005810", "tract_name": "58.10", "tags": {"addr:city": "Owasso", "addr:country": "US", "addr:state": "OK", "addr:street": "East 117th North Place", "building": "detached", "roof:shape": "gabled"}}}, {"type": "Feature", "geometry": {"type": "Polygon", "coordinates": [[[-95.8443631, 36.3222672], [-95.8443373, 36.3222605], [-95.8443487, 36.3222319], [-95.8443745, 36.3222386], [-95.8443631, 36.3222672]]]}, "properties": {"osm_id": 1193442249, "building": "yes", "name": "", "height": null, "height_m": null, "levels": null, "tract_id": "40143005810", "tract_name": "58.10", "tags": {"building": "yes"}}}, {"type": "Feature", "geometry": {"type": "Polygon", "coordinates": [[[-95.8444201, 36.3222683], [-95.8443806, 36.3222559], [-95.8443914, 36.3222335], [-95.8444309, 36.3222459], [-95.8444201, 36.3222683]]]}, "properties": {"osm_id": 1193442250, "building": "yes", "name": "", "height": null, "height_m": null, "levels": null, "tract_id": "40143005810", "tract_name": "58.10", "tags": {"building": "yes"}}}, {"type": "Feature", "geometry": {"type": "Polygon", "coordinates": [[[-95.844578, 36.3224204], [-95.8444402, 36.3225433], [-95.8443825, 36.3225012], [-95.8444039, 36.3224822], [-95.8443313, 36.3224293], [-95.8444413, 36.3223312], [-95.8444643, 36.3223479], [-95.844477, 36.3223469], [-95.8444949, 36.3223599], [-95.8445061, 36.32235], [-95.8445487, 36.322381], [-95.8445376, 36.322391], [-95.844578, 36.3224204]]]}, "properties": {"osm_id": 1193442251, "building": "detached", "name": "", "height": null, "height_m": null, "levels": null, "tract_id": "40143005810", "tract_name": "58.10", "tags": {"addr:city": "Owasso", "addr:country": "US", "addr:state": "OK", "addr:street": "East 117th North Place", "building": "detached", "roof:shape": "gabled"}}}, {"type": "Feature", "geometry": {"type": "Polygon", "coordinates": [[[-95.8435819, 36.3224752], [-95.8435832, 36.3222879], [-95.843699, 36.3222884], [-95.8436985, 36.3223651], [-95.8436773, 36.322365], [-95.8436765, 36.3224756], [-95.8435819, 36.3224752]]]}, "properties": {"osm_id": 1193442252, "building": "detached", "name": "", "height": null, "height_m": null, "levels": null, "tract_id": "40143005810", "tract_name": "58.10", "tags": {"building": "detached", "roof:shape": "gabled"}}}, {"type": "Feature", "geometry": {"type": "Polygon", "coordinates": [[[-95.8433741, 36.3222748], [-95.8434616, 36.3222752], [-95.8434614, 36.3223018], [-95.8435237, 36.3223021], [-95.8435236, 36.3223212], [-95.8435459, 36.3223213], [-95.843545, 36.3224506], [-95.8434821, 36.3224504], [-95.843482, 36.3224554], [-95.8434493, 36.3224552], [-95.8434491, 36.3224707], [-95.8433727, 36.3224703], [-95.8433741, 36.3222748]]]}, "properties": {"osm_id": 1193442253, "building": "detached", "name": "", "height": null, "height_m": null, "levels": null, "tract_id": "40143005810", "tract_name": "58.10", "tags": {"addr:city": "Owasso", "addr:country": "US", "addr:state": "OK", "addr:street": "East 117th North Place", "building": "detached", "roof:shape": "gabled"}}}, {"type": "Feature", "geometry": {"type": "Polygon", "coordinates": [[[-95.8431581, 36.3223093], [-95.843305, 36.3223097], [-95.8433044, 36.32245], [-95.8432387, 36.3224498], [-95.8432386, 36.3224733], [-95.8431575, 36.322473], [-95.8431581, 36.3223093]]]}, "properties": {"osm_id": 1193442254, "building": "detached", "name": "", "height": null, "height_m": null, "levels": null, "tract_id": "40143005810", "tract_name": "58.10", "tags": {"addr:city": "Owasso", "addr:country": "US", "addr:state": "OK", "addr:street": "East 117th North Place", "building": "detached", "roof:shape": "gabled"}}}, {"type": "Feature", "geometry": {"type": "Polygon", "coordinates": [[[-95.8438582, 36.3229204], [-95.843828, 36.32292], [-95.8438287, 36.3228886], [-95.8438589, 36.322889], [-95.8438582, 36.3229204]]]}, "properties": {"osm_id": 1193442255, "building": "yes", "name": "", "height": null, "height_m": null, "levels": null, "tract_id": "40143005810", "tract_name": "58.10", "tags": {"building": "yes"}}}, {"type": "Feature", "geometry": {"type": "Polygon", "coordinates": [[[-95.8429382, 36.322473], [-95.8429395, 36.3222802], [-95.8431039, 36.3222809], [-95.8431027, 36.3224453], [-95.8430262, 36.322445], [-95.843026, 36.3224734], [-95.8429382, 36.322473]]]}, "properties": {"osm_id": 1193442256, "building": "detached", "name": "", "height": null, "height_m": null, "levels": null, "tract_id": "40143005810", "tract_name": "58.10", "tags": {"addr:city": "Owasso", "addr:country": "US", "addr:state": "OK", "addr:street": "East 117th North Place", "building": "detached", "roof:shape": "half-hipped"}}}, {"type": "Feature", "geometry": {"type": "Polygon", "coordinates": [[[-95.8428678, 36.3224169], [-95.8427951, 36.3224624], [-95.8428065, 36.3224743], [-95.8427359, 36.3225185], [-95.8426877, 36.3224685], [-95.8427009, 36.3224602], [-95.8426258, 36.3223824], [-95.8427248, 36.3223204], [-95.8427382, 36.3223342], [-95.8427692, 36.3223148], [-95.8428678, 36.3224169]]]}, "properties": {"osm_id": 1193442257, "building": "detached", "name": "", "height": null, "height_m": null, "levels": null, "tract_id": "40143005810", "tract_name": "58.10", "tags": {"addr:city": "Owasso", "addr:country": "US", "addr:state": "OK", "addr:street": "East 117th North Place", "building": "detached", "roof:shape": "gabled"}}}, {"type": "Feature", "geometry": {"type": "Polygon", "coordinates": [[[-95.8435618, 36.3229177], [-95.8435068, 36.3229178], [-95.8435069, 36.3229418], [-95.8434318, 36.322942], [-95.8434317, 36.3229181], [-95.8433814, 36.3229182], [-95.8433807, 36.3227502], [-95.8434579, 36.3227499], [-95.8434582, 36.3228127], [-95.8434693, 36.3228127], [-95.8434692, 36.322807], [-95.8435156, 36.3228068], [-95.8435155, 36.3228016], [-95.8435613, 36.3228014], [-95.8435618, 36.3229177]]]}, "properties": {"osm_id": 1193442258, "building": "detached", "name": "", "height": null, "height_m": null, "levels": null, "tract_id": "40143005810", "tract_name": "58.10", "tags": {"addr:city": "Owasso", "addr:country": "US", "addr:state": "OK", "addr:street": "East 117th North Place", "building": "detached", "roof:shape": "gabled"}}}, {"type": "Feature", "geometry": {"type": "Polygon", "coordinates": [[[-95.8437851, 36.322903], [-95.8437395, 36.3229022], [-95.843728, 36.3229112], [-95.8437053, 36.3229108], [-95.8437047, 36.3229356], [-95.8436427, 36.3229345], [-95.8436436, 36.322899], [-95.8436014, 36.3228982], [-95.8436044, 36.3227869], [-95.8437106, 36.3227887], [-95.8437118, 36.3227453], [-95.8437893, 36.3227467], [-95.8437851, 36.322903]]]}, "properties": {"osm_id": 1193442259, "building": "detached", "name": "", "height": null, "height_m": null, "levels": null, "tract_id": "40143005810", "tract_name": "58.10", "tags": {"addr:city": "Owasso", "addr:country": "US", "addr:state": "OK", "addr:street": "East 117th North Place", "building": "detached", "roof:shape": "gabled"}}}, {"type": "Feature", "geometry": {"type": "Polygon", "coordinates": [[[-95.8441123, 36.322861], [-95.8439253, 36.322861], [-95.8439253, 36.3227529], [-95.8441392, 36.3227529], [-95.8441392, 36.3228129], [-95.8441123, 36.3228129], [-95.8441123, 36.322861]]]}, "properties": {"osm_id": 1193442260, "building": "detached", "name": "", "height": null, "height_m": null, "levels": null, "tract_id": "40143005810", "tract_name": "58.10", "tags": {"addr:city": "Owasso", "addr:country": "US", "addr:state": "OK", "addr:street": "East 117th North Place", "building": "detached", "roof:shape": "gabled"}}}, {"type": "Feature", "geometry": {"type": "Polygon", "coordinates": [[[-95.8435296, 36.3231862], [-95.8435288, 36.3232853], [-95.8435465, 36.3232854], [-95.843546, 36.3233486], [-95.8435283, 36.3233485], [-95.8435283, 36.3233515], [-95.8434549, 36.3233511], [-95.8434549, 36.3233419], [-95.8433576, 36.3233414], [-95.8433587, 36.3232084], [-95.8434012, 36.3232086], [-95.8434013, 36.3231911], [-95.8434706, 36.3231915], [-95.8434706, 36.3231859], [-95.8435296, 36.3231862]]]}, "properties": {"osm_id": 1193442269, "building": "detached", "name": "", "height": null, "height_m": null, "levels": null, "tract_id": "40143005810", "tract_name": "58.10", "tags": {"addr:city": "Owasso", "addr:country": "US", "addr:state": "OK", "addr:street": "East 117th North Street", "building": "detached", "roof:shape": "gabled"}}}, {"type": "Feature", "geometry": {"type": "Polygon", "coordinates": [[[-95.8437737, 36.3231927], [-95.8437742, 36.3232894], [-95.8437924, 36.3232893], [-95.8437927, 36.3233522], [-95.8436981, 36.3233525], [-95.8436979, 36.3233144], [-95.8435993, 36.3233147], [-95.8435987, 36.3231932], [-95.8437737, 36.3231927]]]}, "properties": {"osm_id": 1193442270, "building": "detached", "name": "", "height": null, "height_m": null, "levels": null, "tract_id": "40143005810", "tract_name": "58.10", "tags": {"addr:city": "Owasso", "addr:country": "US", "addr:state": "OK", "addr:street": "East 117th North Street", "building": "detached", "roof:shape": "gabled"}}}, {"type": "Feature", "geometry": {"type": "Polygon", "coordinates": [[[-95.84383, 36.3237648], [-95.8437523, 36.3237648], [-95.8437523, 36.3237886], [-95.8437053, 36.3237886], [-95.8437053, 36.3237648], [-95.8436657, 36.3237648], [-95.8436657, 36.3236719], [-95.8437496, 36.3236719], [-95.8437496, 36.3236314], [-95.84383, 36.3236314], [-95.84383, 36.3237648]]]}, "properties": {"osm_id": 1193442271, "building": "detached", "name": "", "height": null, "height_m": null, "levels": null, "tract_id": "40143005810", "tract_name": "58.10", "tags": {"addr:city": "Owasso", "addr:country": "US", "addr:state": "OK", "addr:street": "East 117th North Street", "building": "detached", "roof:shape": "gabled"}}}, {"type": "Feature", "geometry": {"type": "Polygon", "coordinates": [[[-95.8436014, 36.3237821], [-95.8435042, 36.3237824], [-95.8435043, 36.3238114], [-95.843433, 36.3238116], [-95.8434329, 36.3237826], [-95.8434237, 36.3237826], [-95.8434231, 36.3236579], [-95.8434968, 36.3236577], [-95.8434969, 36.323681], [-95.843527, 36.3236809], [-95.8435267, 36.3236314], [-95.8436007, 36.3236311], [-95.8436014, 36.3237821]]]}, "properties": {"osm_id": 1193442272, "building": "detached", "name": "", "height": null, "height_m": null, "levels": null, "tract_id": "40143005810", "tract_name": "58.10", "tags": {"addr:city": "Owasso", "addr:country": "US", "addr:state": "OK", "addr:street": "East 117th North Street", "building": "detached", "roof:shape": "gabled"}}}, {"type": "Feature", "geometry": {"type": "Polygon", "coordinates": [[[-95.8434022, 36.3237805], [-95.8432842, 36.3237805], [-95.8432842, 36.3238075], [-95.8432192, 36.3238075], [-95.8432192, 36.3237967], [-95.8431897, 36.3237967], [-95.8431897, 36.3236573], [-95.8432627, 36.3236573], [-95.8432627, 36.3236757], [-95.8432956, 36.3236757], [-95.8432956, 36.3236308], [-95.8433747, 36.3236308], [-95.8433747, 36.3236757], [-95.8434022, 36.3236757], [-95.8434022, 36.3237805]]]}, "properties": {"osm_id": 1193442273, "building": "detached", "name": "", "height": null, "height_m": null, "levels": null, "tract_id": "40143005810", "tract_name": "58.10", "tags": {"addr:city": "Owasso", "addr:country": "US", "addr:state": "OK", "addr:street": "East 117th North Street", "building": "detached", "roof:shape": "gabled"}}}, {"type": "Feature", "geometry": {"type": "Polygon", "coordinates": [[[-95.8431608, 36.3237853], [-95.8431126, 36.3237849], [-95.8431123, 36.3238042], [-95.843051, 36.3238037], [-95.8430512, 36.3237909], [-95.8430307, 36.3237907], [-95.843022, 36.323784], [-95.8429872, 36.3237837], [-95.842989, 36.3236535], [-95.8430871, 36.3236544], [-95.8430874, 36.3236318], [-95.843163, 36.3236325], [-95.8431608, 36.3237853]]]}, "properties": {"osm_id": 1193442274, "building": "detached", "name": "", "height": null, "height_m": null, "levels": null, "tract_id": "40143005810", "tract_name": "58.10", "tags": {"addr:city": "Owasso", "addr:country": "US", "addr:state": "OK", "addr:street": "East 117th North Street", "building": "detached", "roof:shape": "gabled"}}}, {"type": "Feature", "geometry": {"type": "Polygon", "coordinates": [[[-95.8432104, 36.3228604], [-95.8430247, 36.3228599], [-95.843025, 36.3228032], [-95.8430508, 36.3228032], [-95.8430512, 36.3227231], [-95.8432111, 36.3227236], [-95.8432109, 36.3227491], [-95.8432185, 36.3227572], [-95.8432185, 36.3227756], [-95.843232, 36.3227756], [-95.8432318, 36.3228237], [-95.8432106, 36.3228237], [-95.8432104, 36.3228604]]]}, "properties": {"osm_id": 1193442279, "building": "detached", "name": "", "height": null, "height_m": null, "levels": null, "tract_id": "40143005810", "tract_name": "58.10", "tags": {"addr:city": "Owasso", "addr:country": "US", "addr:state": "OK", "addr:street": "North 118th East Avenue", "building": "detached", "roof:colour": "grey", "roof:shape": "gabled"}}}, {"type": "Feature", "geometry": {"type": "Polygon", "coordinates": [[[-95.8432433, 36.3228999], [-95.8432443, 36.3229871], [-95.8432245, 36.3229872], [-95.843225, 36.3230294], [-95.8430696, 36.3230305], [-95.8430689, 36.3229707], [-95.8430242, 36.3229711], [-95.8430234, 36.3229015], [-95.8432433, 36.3228999]]]}, "properties": {"osm_id": 1193442280, "building": "detached", "name": "", "height": null, "height_m": null, "levels": null, "tract_id": "40143005810", "tract_name": "58.10", "tags": {"addr:city": "Owasso", "addr:country": "US", "addr:state": "OK", "addr:street": "North 118th East Avenue", "building": "detached", "roof:colour": "grey", "roof:shape": "gabled"}}}, {"type": "Feature", "geometry": {"type": "Polygon", "coordinates": [[[-95.8432346, 36.3230787], [-95.8432353, 36.3231653], [-95.8432058, 36.3231654], [-95.8432061, 36.3232052], [-95.8430446, 36.323206], [-95.8430442, 36.323145], [-95.8430239, 36.3231451], [-95.8430234, 36.3230798], [-95.8432346, 36.3230787]]]}, "properties": {"osm_id": 1193442281, "building": "detached", "name": "", "height": null, "height_m": null, "levels": null, "tract_id": "40143005810", "tract_name": "58.10", "tags": {"addr:city": "Owasso", "addr:country": "US", "addr:state": "OK", "addr:street": "North 118th East Avenue", "building": "detached", "roof:colour": "grey", "roof:shape": "gabled"}}}, {"type": "Feature", "geometry": {"type": "Polygon", "coordinates": [[[-95.8432359, 36.3233656], [-95.8430274, 36.3233677], [-95.8430254, 36.3232418], [-95.8431002, 36.323241], [-95.8431005, 36.3232589], [-95.8432342, 36.3232575], [-95.8432348, 36.3232959], [-95.8432615, 36.3232956], [-95.8432624, 36.3233485], [-95.8432357, 36.3233488], [-95.8432359, 36.3233656]]]}, "properties": {"osm_id": 1193442282, "building": "detached", "name": "", "height": null, "height_m": null, "levels": null, "tract_id": "40143005810", "tract_name": "58.10", "tags": {"addr:city": "Owasso", "addr:country": "US", "addr:state": "OK", "addr:street": "North 118th East Avenue", "building": "detached", "roof:colour": "grey", "roof:shape": "gabled"}}}, {"type": "Feature", "geometry": {"type": "Polygon", "coordinates": [[[-95.8426814, 36.3227318], [-95.8426817, 36.3227966], [-95.842613, 36.3227968], [-95.8426134, 36.3228801], [-95.842495, 36.3228804], [-95.8424943, 36.3227324], [-95.8426814, 36.3227318]]]}, "properties": {"osm_id": 1193442288, "building": "yes", "name": "", "height": null, "height_m": null, "levels": null, "tract_id": "40143005810", "tract_name": "58.10", "tags": {"addr:city": "Owasso", "addr:country": "US", "addr:state": "OK", "addr:street": "North 118th East Avenue", "building": "yes", "roof:colour": "grey", "roof:shape": "gabled", "source": "microsoft/BuildingFootprints"}}}, {"type": "Feature", "geometry": {"type": "Polygon", "coordinates": [[[-95.8426706, 36.3225411], [-95.8426679, 36.3225691], [-95.8426866, 36.3225703], [-95.8426755, 36.3226835], [-95.8426006, 36.3226787], [-95.842602, 36.3226653], [-95.8424798, 36.3226575], [-95.8424923, 36.3225298], [-95.8426706, 36.3225411]]]}, "properties": {"osm_id": 1193442289, "building": "yes", "name": "", "height": null, "height_m": null, "levels": null, "tract_id": "40143005810", "tract_name": "58.10", "tags": {"addr:city": "Owasso", "addr:country": "US", "addr:state": "OK", "addr:street": "North 118th East Avenue", "building": "yes", "roof:colour": "grey", "roof:shape": "gabled", "source": "microsoft/BuildingFootprints"}}}, {"type": "Feature", "geometry": {"type": "Polygon", "coordinates": [[[-95.8426566, 36.3229107], [-95.842657, 36.3229917], [-95.8426806, 36.3229916], [-95.842681, 36.3230643], [-95.8425997, 36.3230646], [-95.8425996, 36.323048], [-95.842493, 36.3230484], [-95.8424928, 36.3230079], [-95.8424702, 36.323008], [-95.84247, 36.322962], [-95.8424925, 36.322962], [-95.8424923, 36.3229112], [-95.8426566, 36.3229107]]]}, "properties": {"osm_id": 1193442290, "building": "yes", "name": "", "height": null, "height_m": null, "levels": null, "tract_id": "40143005810", "tract_name": "58.10", "tags": {"addr:city": "Owasso", "addr:country": "US", "addr:state": "OK", "addr:street": "North 118th East Avenue", "building": "yes", "roof:colour": "grey", "roof:shape": "gabled", "source": "microsoft/BuildingFootprints"}}}, {"type": "Feature", "geometry": {"type": "Polygon", "coordinates": [[[-95.842438, 36.3230463], [-95.8424385, 36.3230716], [-95.8423949, 36.3230721], [-95.8423944, 36.3230468], [-95.842438, 36.3230463]]]}, "properties": {"osm_id": 1193442291, "building": "yes", "name": "", "height": null, "height_m": null, "levels": null, "tract_id": "40143005810", "tract_name": "58.10", "tags": {"building": "yes", "roof:shape": "gabled"}}}, {"type": "Feature", "geometry": {"type": "Polygon", "coordinates": [[[-95.8424299, 36.3231419], [-95.842391, 36.3231415], [-95.8423917, 36.3230972], [-95.8424306, 36.3230976], [-95.8424299, 36.3231419]]]}, "properties": {"osm_id": 1193442292, "building": "yes", "name": "", "height": null, "height_m": null, "levels": null, "tract_id": "40143005810", "tract_name": "58.10", "tags": {"building": "yes", "roof:shape": "round"}}}, {"type": "Feature", "geometry": {"type": "Polygon", "coordinates": [[[-95.842678, 36.3232499], [-95.8424849, 36.3232478], [-95.8424873, 36.3231085], [-95.8426561, 36.3231104], [-95.8426551, 36.323167], [-95.8426359, 36.3231667], [-95.8426356, 36.3231873], [-95.8426791, 36.3231878], [-95.842678, 36.3232499]]]}, "properties": {"osm_id": 1193442293, "building": "yes", "name": "", "height": null, "height_m": null, "levels": null, "tract_id": "40143005810", "tract_name": "58.10", "tags": {"addr:city": "Owasso", "addr:country": "US", "addr:state": "OK", "addr:street": "North 118th East Avenue", "building": "yes", "roof:colour": "grey", "roof:shape": "gabled", "source": "microsoft/BuildingFootprints"}}}, {"type": "Feature", "geometry": {"type": "Polygon", "coordinates": [[[-95.8426271, 36.3234493], [-95.8424883, 36.3234504], [-95.8424874, 36.3233818], [-95.842451, 36.323382], [-95.8424505, 36.3233389], [-95.8424869, 36.3233386], [-95.8424864, 36.3232988], [-95.8426786, 36.3232973], [-95.8426794, 36.3233677], [-95.8426105, 36.3233683], [-95.842611, 36.3234062], [-95.8426265, 36.3234061], [-95.8426271, 36.3234493]]]}, "properties": {"osm_id": 1193442294, "building": "yes", "name": "", "height": null, "height_m": null, "levels": null, "tract_id": "40143005810", "tract_name": "58.10", "tags": {"addr:city": "Owasso", "addr:country": "US", "addr:state": "OK", "addr:street": "North 118th East Avenue", "building": "yes", "roof:colour": "grey", "roof:shape": "gabled", "source": "microsoft/BuildingFootprints"}}}, {"type": "Feature", "geometry": {"type": "Polygon", "coordinates": [[[-95.8422925, 36.3232672], [-95.8422098, 36.3233028], [-95.842152, 36.3232157], [-95.8422347, 36.3231801], [-95.8422925, 36.3232672]]]}, "properties": {"osm_id": 1193442309, "building": "garage", "name": "", "height": null, "height_m": null, "levels": null, "tract_id": "40143005810", "tract_name": "58.10", "tags": {"building": "garage", "roof:shape": "gabled"}}}, {"type": "Feature", "geometry": {"type": "Polygon", "coordinates": [[[-95.8421892, 36.3232878], [-95.8420283, 36.3233569], [-95.8419425, 36.3232273], [-95.842036, 36.3231871], [-95.842074, 36.3232446], [-95.8421415, 36.3232156], [-95.8421892, 36.3232878]]]}, "properties": {"osm_id": 1193442310, "building": "detached", "name": "", "height": null, "height_m": null, "levels": null, "tract_id": "40143005810", "tract_name": "58.10", "tags": {"addr:city": "Owasso", "addr:country": "US", "addr:state": "OK", "addr:street": "East 116th Street North", "building": "detached", "roof:shape": "hipped"}}}, {"type": "Feature", "geometry": {"type": "Polygon", "coordinates": [[[-95.8423555, 36.3237189], [-95.8423179, 36.3237189], [-95.8423179, 36.3236481], [-95.8423555, 36.3236481], [-95.8423555, 36.3237189]]]}, "properties": {"osm_id": 1193442311, "building": "yes", "name": "", "height": null, "height_m": null, "levels": null, "tract_id": "40143005810", "tract_name": "58.10", "tags": {"building": "yes"}}}, {"type": "Feature", "geometry": {"type": "Polygon", "coordinates": [[[-95.8423253, 36.323835], [-95.842279, 36.3238323], [-95.8422819, 36.323801], [-95.8423281, 36.3238037], [-95.8423253, 36.323835]]]}, "properties": {"osm_id": 1193442312, "building": "yes", "name": "", "height": null, "height_m": null, "levels": null, "tract_id": "40143005810", "tract_name": "58.10", "tags": {"building": "yes"}}}, {"type": "Feature", "geometry": {"type": "Polygon", "coordinates": [[[-95.8426452, 36.3236562], [-95.8424862, 36.3236568], [-95.842486, 36.3236162], [-95.8424542, 36.3236164], [-95.842454, 36.323571], [-95.8424858, 36.3235709], [-95.8424855, 36.3235152], [-95.842681, 36.3235145], [-95.8426815, 36.3236015], [-95.8426449, 36.3236016], [-95.8426452, 36.3236562]]]}, "properties": {"osm_id": 1193442313, "building": "yes", "name": "", "height": null, "height_m": null, "levels": null, "tract_id": "40143005810", "tract_name": "58.10", "tags": {"addr:city": "Owasso", "addr:country": "US", "addr:state": "OK", "addr:street": "North 118th East Avenue", "building": "yes", "roof:colour": "grey", "roof:shape": "gabled", "source": "microsoft/BuildingFootprints"}}}, {"type": "Feature", "geometry": {"type": "Polygon", "coordinates": [[[-95.8426814, 36.3238302], [-95.8424923, 36.3238302], [-95.8424923, 36.3237486], [-95.8424527, 36.3237486], [-95.8424527, 36.3236929], [-95.8424923, 36.3236929], [-95.8424923, 36.3236892], [-95.8426499, 36.3236892], [-95.8426499, 36.3237464], [-95.8426204, 36.3237464], [-95.8426204, 36.323767], [-95.8426814, 36.323767], [-95.8426814, 36.3238302]]]}, "properties": {"osm_id": 1193442315, "building": "yes", "name": "", "height": null, "height_m": null, "levels": null, "tract_id": "40143005810", "tract_name": "58.10", "tags": {"addr:city": "Owasso", "addr:country": "US", "addr:state": "OK", "addr:street": "North 118th East Avenue", "building": "yes", "roof:colour": "grey", "roof:shape": "gabled", "source": "microsoft/BuildingFootprints"}}}, {"type": "Feature", "geometry": {"type": "Polygon", "coordinates": [[[-95.8437551, 36.3245562], [-95.8437569, 36.3243984], [-95.8436818, 36.3243979], [-95.8436813, 36.3244432], [-95.8435767, 36.3244424], [-95.8435754, 36.3245548], [-95.8436263, 36.3245552], [-95.843626, 36.3245876], [-95.8436742, 36.324588], [-95.8436746, 36.3245556], [-95.8437551, 36.3245562]]]}, "properties": {"osm_id": 1193442321, "building": "detached", "name": "", "height": null, "height_m": null, "levels": null, "tract_id": "40143005810", "tract_name": "58.10", "tags": {"addr:city": "Owasso", "addr:country": "US", "addr:state": "OK", "addr:street": "East 118th North Street", "building": "detached", "roof:shape": "gabled", "source": "microsoft/BuildingFootprints"}}}, {"type": "Feature", "geometry": {"type": "Polygon", "coordinates": [[[-95.8424662, 36.3240155], [-95.8425943, 36.3240138], [-95.8425945, 36.3240255], [-95.84268, 36.3240243], [-95.8426784, 36.3239459], [-95.8426516, 36.3239463], [-95.8426502, 36.3238772], [-95.8424634, 36.3238797], [-95.8424662, 36.3240155]]]}, "properties": {"osm_id": 1193442322, "building": "yes", "name": "", "height": null, "height_m": null, "levels": null, "tract_id": "40143005810", "tract_name": "58.10", "tags": {"addr:city": "Owasso", "addr:country": "US", "addr:state": "OK", "addr:street": "North 118th East Avenue", "building": "yes", "roof:colour": "grey", "roof:shape": "gabled", "source": "microsoft/BuildingFootprints"}}}, {"type": "Feature", "geometry": {"type": "Polygon", "coordinates": [[[-95.8452124, 36.3242733], [-95.8451786, 36.3242296], [-95.845193, 36.3242223], [-95.8451595, 36.3241792], [-95.8451389, 36.3241895], [-95.8451149, 36.3241585], [-95.8449528, 36.3242399], [-95.8449955, 36.324295], [-95.8450209, 36.3242822], [-95.8450696, 36.3243451], [-95.8452124, 36.3242733]]]}, "properties": {"osm_id": 1193442323, "building": "detached", "name": "", "height": null, "height_m": null, "levels": null, "tract_id": "40143005810", "tract_name": "58.10", "tags": {"addr:city": "Owasso", "addr:country": "US", "addr:state": "OK", "addr:street": "North 117th East Avenue", "building": "detached", "roof:shape": "gabled", "source": "microsoft/BuildingFootprints"}}}, {"type": "Feature", "geometry": {"type": "Polygon", "coordinates": [[[-95.8426757, 36.3242853], [-95.8424665, 36.3242869], [-95.842468, 36.3244165], [-95.8426343, 36.3244153], [-95.8426335, 36.3243483], [-95.8426764, 36.324348], [-95.8426757, 36.3242853]]]}, "properties": {"osm_id": 1193442324, "building": "yes", "name": "", "height": null, "height_m": null, "levels": null, "tract_id": "40143005810", "tract_name": "58.10", "tags": {"addr:city": "Owasso", "addr:country": "US", "addr:state": "OK", "addr:street": "North 118th East Avenue", "building": "yes", "roof:colour": "grey", "roof:shape": "gabled", "source": "microsoft/BuildingFootprints"}}}, {"type": "Feature", "geometry": {"type": "Polygon", "coordinates": [[[-95.844754, 36.3245646], [-95.844712, 36.3244778], [-95.8446868, 36.3244857], [-95.844657, 36.3244241], [-95.84456, 36.3244546], [-95.8445855, 36.3245071], [-95.844566, 36.3245132], [-95.8445862, 36.324555], [-95.8446057, 36.3245489], [-95.8446319, 36.324603], [-95.844754, 36.3245646]]]}, "properties": {"osm_id": 1193442325, "building": "detached", "name": "", "height": null, "height_m": null, "levels": null, "tract_id": "40143005810", "tract_name": "58.10", "tags": {"addr:city": "Owasso", "addr:country": "US", "addr:state": "OK", "addr:street": "North 117th East Avenue", "building": "detached", "roof:shape": "gabled", "source": "microsoft/BuildingFootprints"}}}, {"type": "Feature", "geometry": {"type": "Polygon", "coordinates": [[[-95.8426768, 36.3240738], [-95.8425312, 36.3240771], [-95.8425336, 36.3241483], [-95.8425051, 36.324149], [-95.8425068, 36.3241975], [-95.8425301, 36.324197], [-95.8425308, 36.3242167], [-95.8426549, 36.3242139], [-95.8426523, 36.3241394], [-95.8426791, 36.3241388], [-95.8426768, 36.3240738]]]}, "properties": {"osm_id": 1193442326, "building": "yes", "name": "", "height": null, "height_m": null, "levels": null, "tract_id": "40143005810", "tract_name": "58.10", "tags": {"addr:city": "Owasso", "addr:country": "US", "addr:state": "OK", "addr:street": "North 118th East Avenue", "building": "yes", "roof:colour": "grey", "roof:shape": "gabled", "source": "microsoft/BuildingFootprints"}}}, {"type": "Feature", "geometry": {"type": "Polygon", "coordinates": [[[-95.8438805, 36.3245506], [-95.8438812, 36.3245773], [-95.8439348, 36.3245764], [-95.8439341, 36.3245483], [-95.8439824, 36.3245475], [-95.8439785, 36.3244024], [-95.8439443, 36.3244029], [-95.8439441, 36.3243947], [-95.8438738, 36.3243959], [-95.8438752, 36.3244516], [-95.8438517, 36.324452], [-95.8438514, 36.3244395], [-95.8438025, 36.3244404], [-95.8438054, 36.3245519], [-95.8438805, 36.3245506]]]}, "properties": {"osm_id": 1193442327, "building": "detached", "name": "", "height": null, "height_m": null, "levels": null, "tract_id": "40143005810", "tract_name": "58.10", "tags": {"addr:city": "Owasso", "addr:country": "US", "addr:state": "OK", "addr:street": "East 118th North Street", "building": "detached", "roof:shape": "gabled", "source": "microsoft/BuildingFootprints"}}}, {"type": "Feature", "geometry": {"type": "Polygon", "coordinates": [[[-95.8448855, 36.3240681], [-95.8449442, 36.3241411], [-95.8448883, 36.3241703], [-95.8449299, 36.3242221], [-95.8451056, 36.3241304], [-95.845075, 36.3240923], [-95.845092, 36.3240834], [-95.8450541, 36.3240363], [-95.8450333, 36.3240471], [-95.8450015, 36.3240075], [-95.8448855, 36.3240681]]]}, "properties": {"osm_id": 1193442328, "building": "detached", "name": "", "height": null, "height_m": null, "levels": null, "tract_id": "40143005810", "tract_name": "58.10", "tags": {"addr:city": "Owasso", "addr:country": "US", "addr:state": "OK", "addr:street": "North 117th East Avenue", "building": "detached", "roof:shape": "gabled", "source": "microsoft/BuildingFootprints"}}}, {"type": "Feature", "geometry": {"type": "Polygon", "coordinates": [[[-95.8458328, 36.3240996], [-95.8457291, 36.3240987], [-95.8457288, 36.3241169], [-95.8456807, 36.3241164], [-95.845679, 36.3242422], [-95.845745, 36.3242428], [-95.8457446, 36.324274], [-95.8458304, 36.3242748], [-95.8458328, 36.3240996]]]}, "properties": {"osm_id": 1193442329, "building": "detached", "name": "", "height": null, "height_m": null, "levels": null, "tract_id": "40143005810", "tract_name": "58.10", "tags": {"addr:city": "Owasso", "addr:country": "US", "addr:state": "OK", "addr:street": "East 118th North Street", "building": "detached", "roof:shape": "gabled", "source": "microsoft/BuildingFootprints"}}}, {"type": "Feature", "geometry": {"type": "Polygon", "coordinates": [[[-95.8447788, 36.3238667], [-95.8446365, 36.3239662], [-95.8446883, 36.3240143], [-95.8447112, 36.3239983], [-95.8447858, 36.3240675], [-95.8448937, 36.323992], [-95.8448669, 36.3239671], [-95.8448811, 36.3239572], [-95.8448426, 36.3239214], [-95.8448284, 36.3239314], [-95.8448089, 36.3239133], [-95.8448204, 36.3239053], [-95.8447788, 36.3238667]]]}, "properties": {"osm_id": 1193442330, "building": "detached", "name": "", "height": null, "height_m": null, "levels": null, "tract_id": "40143005810", "tract_name": "58.10", "tags": {"addr:city": "Owasso", "addr:country": "US", "addr:state": "OK", "addr:street": "North 117th East Avenue", "building": "detached", "roof:shape": "gabled", "source": "microsoft/BuildingFootprints"}}}, {"type": "Feature", "geometry": {"type": "Polygon", "coordinates": [[[-95.8435396, 36.324404], [-95.8434592, 36.3244039], [-95.8434592, 36.3244072], [-95.8433975, 36.3244071], [-95.8433972, 36.3245476], [-95.8434482, 36.3245476], [-95.8434481, 36.3245787], [-95.8435393, 36.3245788], [-95.8435396, 36.324404]]]}, "properties": {"osm_id": 1193442331, "building": "detached", "name": "", "height": null, "height_m": null, "levels": null, "tract_id": "40143005810", "tract_name": "58.10", "tags": {"addr:city": "Owasso", "addr:country": "US", "addr:state": "OK", "addr:street": "East 118th North Street", "building": "detached", "roof:shape": "gabled", "source": "microsoft/BuildingFootprints"}}}, {"type": "Feature", "geometry": {"type": "Polygon", "coordinates": [[[-95.84366, 36.324123], [-95.8437356, 36.3241224], [-95.8437355, 36.3241108], [-95.8438359, 36.3241099], [-95.843834, 36.3239729], [-95.843658, 36.3239745], [-95.84366, 36.324123]]]}, "properties": {"osm_id": 1193442332, "building": "detached", "name": "", "height": null, "height_m": null, "levels": null, "tract_id": "40143005810", "tract_name": "58.10", "tags": {"addr:city": "Owasso", "addr:country": "US", "addr:state": "OK", "addr:street": "East 118th North Street", "building": "detached", "roof:shape": "gabled", "source": "microsoft/BuildingFootprints"}}}, {"type": "Feature", "geometry": {"type": "Polygon", "coordinates": [[[-95.8433776, 36.3239822], [-95.843274, 36.3239822], [-95.843274, 36.3239476], [-95.8432119, 36.3239475], [-95.8432117, 36.3241246], [-95.8432872, 36.3241247], [-95.8432873, 36.3240679], [-95.843299, 36.3240679], [-95.8432989, 36.3240819], [-95.8433319, 36.324082], [-95.8433318, 36.3241067], [-95.8433774, 36.3241067], [-95.8433776, 36.3239822]]]}, "properties": {"osm_id": 1193442333, "building": "detached", "name": "", "height": null, "height_m": null, "levels": null, "tract_id": "40143005810", "tract_name": "58.10", "tags": {"addr:city": "Owasso", "addr:country": "US", "addr:state": "OK", "addr:street": "East 118th North Street", "building": "detached", "roof:shape": "gabled", "source": "microsoft/BuildingFootprints"}}}, {"type": "Feature", "geometry": {"type": "Polygon", "coordinates": [[[-95.8434449, 36.3241196], [-95.8436138, 36.3241199], [-95.8436142, 36.323976], [-95.843592, 36.323976], [-95.843592, 36.3239513], [-95.8435123, 36.3239512], [-95.8435123, 36.3239771], [-95.8434452, 36.323977], [-95.8434449, 36.3241196]]]}, "properties": {"osm_id": 1193442334, "building": "detached", "name": "", "height": null, "height_m": null, "levels": null, "tract_id": "40143005810", "tract_name": "58.10", "tags": {"addr:city": "Owasso", "addr:country": "US", "addr:state": "OK", "addr:street": "East 118th North Street", "building": "detached", "roof:shape": "gabled", "source": "microsoft/BuildingFootprints"}}}, {"type": "Feature", "geometry": {"type": "Polygon", "coordinates": [[[-95.8429878, 36.3241034], [-95.8430235, 36.3241038], [-95.8430233, 36.3241133], [-95.8430824, 36.324114], [-95.8430822, 36.3241229], [-95.8431545, 36.3241237], [-95.8431558, 36.3240523], [-95.8431515, 36.3240523], [-95.8431528, 36.3239836], [-95.8430929, 36.3239829], [-95.8430933, 36.32396], [-95.8429904, 36.3239588], [-95.8429878, 36.3241034]]]}, "properties": {"osm_id": 1193442335, "building": "detached", "name": "", "height": null, "height_m": null, "levels": null, "tract_id": "40143005810", "tract_name": "58.10", "tags": {"addr:city": "Owasso", "addr:country": "US", "addr:state": "OK", "addr:street": "East 118th North Street", "building": "detached", "roof:shape": "gabled", "source": "microsoft/BuildingFootprints"}}}, {"type": "Feature", "geometry": {"type": "Polygon", "coordinates": [[[-95.8442745, 36.3240525], [-95.8442169, 36.3239285], [-95.844144, 36.3239505], [-95.844151, 36.3239654], [-95.8440257, 36.3240032], [-95.8440454, 36.3240457], [-95.844028, 36.3240509], [-95.8440589, 36.3241174], [-95.8442745, 36.3240525]]]}, "properties": {"osm_id": 1193442336, "building": "detached", "name": "", "height": null, "height_m": null, "levels": null, "tract_id": "40143005810", "tract_name": "58.10", "tags": {"addr:city": "Owasso", "addr:country": "US", "addr:state": "OK", "addr:street": "North 117th East Avenue", "building": "detached", "roof:shape": "gabled", "source": "microsoft/BuildingFootprints"}}}, {"type": "Feature", "geometry": {"type": "Polygon", "coordinates": [[[-95.8455918, 36.3241109], [-95.8454604, 36.3241122], [-95.8454607, 36.3241317], [-95.8454205, 36.3241321], [-95.8454225, 36.3242668], [-95.8455143, 36.3242659], [-95.8455144, 36.3242763], [-95.8456029, 36.3242754], [-95.845602, 36.3242136], [-95.8455934, 36.3242137], [-95.8455918, 36.3241109]]]}, "properties": {"osm_id": 1193442337, "building": "detached", "name": "", "height": null, "height_m": null, "levels": null, "tract_id": "40143005810", "tract_name": "58.10", "tags": {"addr:city": "Owasso", "addr:country": "US", "addr:state": "OK", "addr:street": "East 118th North Street", "building": "detached", "roof:shape": "gabled", "source": "microsoft/BuildingFootprints"}}}, {"type": "Feature", "geometry": {"type": "Polygon", "coordinates": [[[-95.84423, 36.3245083], [-95.8442174, 36.3243748], [-95.8441424, 36.3243794], [-95.8441451, 36.324408], [-95.8440304, 36.3244151], [-95.8440406, 36.324523], [-95.8441303, 36.3245175], [-95.8441326, 36.3245424], [-95.8442006, 36.3245383], [-95.844198, 36.3245103], [-95.84423, 36.3245083]]]}, "properties": {"osm_id": 1193442338, "building": "detached", "name": "", "height": null, "height_m": null, "levels": null, "tract_id": "40143005810", "tract_name": "58.10", "tags": {"addr:city": "Owasso", "addr:country": "US", "addr:state": "OK", "addr:street": "East 118th North Street", "building": "detached", "roof:shape": "gabled", "source": "microsoft/BuildingFootprints"}}}, {"type": "Feature", "geometry": {"type": "Polygon", "coordinates": [[[-95.8424848, 36.3246168], [-95.8426189, 36.3246161], [-95.8426182, 36.3245254], [-95.8426826, 36.3245251], [-95.8426821, 36.3244624], [-95.8424863, 36.3244634], [-95.8424866, 36.3245001], [-95.8424571, 36.3245003], [-95.8424576, 36.3245672], [-95.8424844, 36.3245671], [-95.8424848, 36.3246168]]]}, "properties": {"osm_id": 1193442339, "building": "yes", "name": "", "height": null, "height_m": null, "levels": null, "tract_id": "40143005810", "tract_name": "58.10", "tags": {"addr:city": "Owasso", "addr:country": "US", "addr:state": "OK", "addr:street": "North 118th East Avenue", "building": "yes", "roof:colour": "grey", "roof:shape": "gabled", "source": "microsoft/BuildingFootprints"}}}, {"type": "Feature", "geometry": {"type": "Polygon", "coordinates": [[[-95.8432029, 36.3243867], [-95.8430925, 36.3243864], [-95.8430924, 36.3244067], [-95.8430688, 36.3244066], [-95.8430685, 36.3244741], [-95.8430212, 36.3244739], [-95.8430209, 36.3245409], [-95.8432022, 36.3245414], [-95.8432029, 36.3243867]]]}, "properties": {"osm_id": 1193442340, "building": "yes", "name": "", "height": null, "height_m": null, "levels": null, "tract_id": "40143005810", "tract_name": "58.10", "tags": {"addr:city": "Owasso", "addr:country": "US", "addr:state": "OK", "addr:street": "North 118th East Avenue", "building": "yes", "roof:colour": "grey", "roof:shape": "gabled", "source": "microsoft/BuildingFootprints"}}}, {"type": "Feature", "geometry": {"type": "Polygon", "coordinates": [[[-95.8487894, 36.3224833], [-95.8487869, 36.322654], [-95.8487091, 36.3226591], [-95.8487091, 36.3227208], [-95.8487907, 36.3227208], [-95.8487945, 36.322949], [-95.8489808, 36.3229521], [-95.848977, 36.3227136], [-95.8493495, 36.3227146], [-95.849347, 36.3229058], [-95.849347, 36.3229603], [-95.8491275, 36.3229593], [-95.8491288, 36.3232533], [-95.8495435, 36.3232471], [-95.8495409, 36.3229767], [-95.8495971, 36.3229747], [-95.8495932, 36.3229089], [-95.8495805, 36.3229089], [-95.8495805, 36.3227146], [-95.8495333, 36.3227136], [-95.8495345, 36.3225419], [-95.8494376, 36.3225296], [-95.8494031, 36.3225008], [-95.8494631, 36.3224484], [-95.849398, 36.3224042], [-95.8493202, 36.3224658], [-95.8492781, 36.3224535], [-95.8492832, 36.3224268], [-95.8492539, 36.3224268], [-95.8492539, 36.3223229], [-95.8490714, 36.3223229], [-95.8490778, 36.3224257], [-95.849051, 36.3224247], [-95.8490484, 36.3225655], [-95.8489464, 36.3225645], [-95.8489425, 36.3224833], [-95.8487894, 36.3224833]]]}, "properties": {"osm_id": 1207645455, "building": "yes", "name": "", "height": null, "height_m": null, "levels": null, "tract_id": "40143005810", "tract_name": "58.10", "tags": {"building": "yes"}}}, {"type": "Feature", "geometry": {"type": "Polygon", "coordinates": [[[-95.851443, 36.3227334], [-95.8512327, 36.3227348], [-95.8512346, 36.3231462], [-95.851443, 36.323147], [-95.851443, 36.3227334]]]}, "properties": {"osm_id": 1207645456, "building": "yes", "name": "", "height": null, "height_m": null, "levels": null, "tract_id": "40143005810", "tract_name": "58.10", "tags": {"building": "yes"}}}, {"type": "Feature", "geometry": {"type": "Polygon", "coordinates": [[[-95.8466557, 36.3225675], [-95.8464824, 36.3225641], [-95.8464867, 36.3223998], [-95.8466611, 36.322405], [-95.8466557, 36.3225675]]]}, "properties": {"osm_id": 1207847138, "building": "yes", "name": "", "height": null, "height_m": null, "levels": null, "tract_id": "40143005810", "tract_name": "58.10", "tags": {"building": "yes"}}}, {"type": "Feature", "geometry": {"type": "Polygon", "coordinates": [[[-95.8468858, 36.3225429], [-95.8467769, 36.3225424], [-95.8467855, 36.3224024], [-95.8468874, 36.3224054], [-95.8468858, 36.3225429]]]}, "properties": {"osm_id": 1207847139, "building": "yes", "name": "", "height": null, "height_m": null, "levels": null, "tract_id": "40143005810", "tract_name": "58.10", "tags": {"building": "yes"}}}, {"type": "Feature", "geometry": {"type": "Polygon", "coordinates": [[[-95.847598, 36.3253635], [-95.8474925, 36.3253614], [-95.8474889, 36.3255184], [-95.8476152, 36.3255227], [-95.8476161, 36.3254304], [-95.8475962, 36.3254326], [-95.847598, 36.3253635]]]}, "properties": {"osm_id": 1207847140, "building": "house", "name": "", "height": null, "height_m": null, "levels": null, "tract_id": "40143005810", "tract_name": "58.10", "tags": {"building": "house"}}}, {"type": "Feature", "geometry": {"type": "Polygon", "coordinates": [[[-95.8474086, 36.3255918], [-95.8472462, 36.3255932], [-95.8472435, 36.3256695], [-95.847404, 36.3256666], [-95.8474086, 36.3255918]]]}, "properties": {"osm_id": 1207847141, "building": "yes", "name": "", "height": null, "height_m": null, "levels": null, "tract_id": "40143005810", "tract_name": "58.10", "tags": {"building": "yes"}}}, {"type": "Feature", "geometry": {"type": "Polygon", "coordinates": [[[-95.8461671, 36.3242765], [-95.8461671, 36.3241278], [-95.8459858, 36.32413], [-95.845989, 36.3242747], [-95.8461671, 36.3242765]]]}, "properties": {"osm_id": 1207848551, "building": "house", "name": "", "height": null, "height_m": null, "levels": null, "tract_id": "40143005810", "tract_name": "58.10", "tags": {"building": "house"}}}, {"type": "Feature", "geometry": {"type": "Polygon", "coordinates": [[[-95.846173, 36.3240863], [-95.8461698, 36.3239601], [-95.8459772, 36.3239597], [-95.8459815, 36.3240846], [-95.846173, 36.3240863]]]}, "properties": {"osm_id": 1207848552, "building": "house", "name": "", "height": null, "height_m": null, "levels": null, "tract_id": "40143005810", "tract_name": "58.10", "tags": {"building": "house"}}}, {"type": "Feature", "geometry": {"type": "Polygon", "coordinates": [[[-95.8461709, 36.3238987], [-95.8461671, 36.3237583], [-95.8459724, 36.3237609], [-95.8459708, 36.3238987], [-95.8461709, 36.3238987]]]}, "properties": {"osm_id": 1207848553, "building": "house", "name": "", "height": null, "height_m": null, "levels": null, "tract_id": "40143005810", "tract_name": "58.10", "tags": {"building": "house"}}}, {"type": "Feature", "geometry": {"type": "Polygon", "coordinates": [[[-95.8461677, 36.3237254], [-95.846165, 36.3236636], [-95.8461897, 36.3236623], [-95.8461865, 36.323572], [-95.8461119, 36.3235724], [-95.8461119, 36.3235958], [-95.8459767, 36.323594], [-95.8459783, 36.3236805], [-95.8460068, 36.3236787], [-95.8460084, 36.3237246], [-95.8461677, 36.3237254]]]}, "properties": {"osm_id": 1207848554, "building": "house", "name": "", "height": null, "height_m": null, "levels": null, "tract_id": "40143005810", "tract_name": "58.10", "tags": {"building": "house"}}}, {"type": "Feature", "geometry": {"type": "Polygon", "coordinates": [[[-95.8461339, 36.3233861], [-95.8461328, 36.3234743], [-95.8461929, 36.3234726], [-95.8461934, 36.3235352], [-95.845989, 36.3235331], [-95.8459869, 36.3234903], [-95.8459585, 36.3234894], [-95.8459579, 36.3234328], [-95.8459885, 36.3234341], [-95.8459858, 36.3233857], [-95.8461339, 36.3233861]]]}, "properties": {"osm_id": 1207848555, "building": "house", "name": "", "height": null, "height_m": null, "levels": null, "tract_id": "40143005810", "tract_name": "58.10", "tags": {"building": "house"}}}, {"type": "Feature", "geometry": {"type": "Polygon", "coordinates": [[[-95.8461977, 36.3233226], [-95.8460012, 36.3233232], [-95.8460019, 36.323344], [-95.8459625, 36.3233428], [-95.8459587, 36.3232407], [-95.8459811, 36.3232389], [-95.845978, 36.3232001], [-95.8460956, 36.3231988], [-95.8460971, 36.3232101], [-95.8461415, 36.3232095], [-95.84614, 36.3232358], [-95.8461578, 36.3232364], [-95.8461582, 36.3232593], [-95.8461954, 36.3232587], [-95.8461977, 36.3233226]]]}, "properties": {"osm_id": 1207848556, "building": "house", "name": "", "height": null, "height_m": null, "levels": null, "tract_id": "40143005810", "tract_name": "58.10", "tags": {"building": "house"}}}, {"type": "Feature", "geometry": {"type": "Polygon", "coordinates": [[[-95.8426737, 36.3248077], [-95.8426812, 36.3246581], [-95.8424773, 36.3246547], [-95.84248, 36.3247117], [-95.8424966, 36.3247126], [-95.8424993, 36.3248055], [-95.8426737, 36.3248077]]]}, "properties": {"osm_id": 1207849052, "building": "house", "name": "", "height": null, "height_m": null, "levels": null, "tract_id": "40143005810", "tract_name": "58.10", "tags": {"building": "house"}}}, {"type": "Feature", "geometry": {"type": "Polygon", "coordinates": [[[-95.8426715, 36.3248539], [-95.8426039, 36.3248552], [-95.8426023, 36.3248665], [-95.8424709, 36.324863], [-95.842472, 36.3249953], [-95.8426485, 36.3249979], [-95.842649, 36.3249607], [-95.8426662, 36.3249607], [-95.8426715, 36.3248539]]]}, "properties": {"osm_id": 1207849053, "building": "house", "name": "", "height": null, "height_m": null, "levels": null, "tract_id": "40143005810", "tract_name": "58.10", "tags": {"building": "house"}}}, {"type": "Feature", "geometry": {"type": "Polygon", "coordinates": [[[-95.8426747, 36.3250242], [-95.8424854, 36.3250242], [-95.8424848, 36.3250778], [-95.8424575, 36.3250774], [-95.8424559, 36.3251258], [-95.8424854, 36.3251258], [-95.8424875, 36.3251664], [-95.8426426, 36.325166], [-95.8426388, 36.3251098], [-95.8426774, 36.3251115], [-95.8426747, 36.3250242]]]}, "properties": {"osm_id": 1207849054, "building": "house", "name": "", "height": null, "height_m": null, "levels": null, "tract_id": "40143005810", "tract_name": "58.10", "tags": {"building": "house"}}}, {"type": "Feature", "geometry": {"type": "Polygon", "coordinates": [[[-95.8423355, 36.3248744], [-95.8421977, 36.3248713], [-95.8421945, 36.3249885], [-95.8421607, 36.3249885], [-95.8421575, 36.3250492], [-95.842326, 36.3250481], [-95.8423355, 36.3248744]]]}, "properties": {"osm_id": 1207849055, "building": "house", "name": "", "height": null, "height_m": null, "levels": null, "tract_id": "40143005810", "tract_name": "58.10", "tags": {"building": "house"}}}, {"type": "Feature", "geometry": {"type": "Polygon", "coordinates": [[[-95.8420344, 36.3249664], [-95.8418775, 36.3250101], [-95.8418054, 36.3248749], [-95.8419158, 36.3248389], [-95.8419298, 36.3248595], [-95.8419694, 36.3248461], [-95.8420344, 36.3249664]]]}, "properties": {"osm_id": 1207849056, "building": "house", "name": "", "height": null, "height_m": null, "levels": null, "tract_id": "40143005810", "tract_name": "58.10", "tags": {"building": "house"}}}, {"type": "Feature", "geometry": {"type": "Polygon", "coordinates": [[[-95.8418067, 36.3249597], [-95.8416982, 36.3248878], [-95.8415859, 36.3250008], [-95.8416102, 36.3250163], [-95.841577, 36.3250497], [-95.8416281, 36.3250795], [-95.8416357, 36.3250702], [-95.8416893, 36.3251031], [-95.8418067, 36.3249597]]]}, "properties": {"osm_id": 1207849057, "building": "house", "name": "", "height": null, "height_m": null, "levels": null, "tract_id": "40143005810", "tract_name": "58.10", "tags": {"building": "house"}}}, {"type": "Feature", "geometry": {"type": "Polygon", "coordinates": [[[-95.8417288, 36.3252203], [-95.8417301, 36.3252917], [-95.8415081, 36.3252907], [-95.8415075, 36.3251555], [-95.8416963, 36.3251555], [-95.8416963, 36.3252203], [-95.8417288, 36.3252203]]]}, "properties": {"osm_id": 1207849058, "building": "house", "name": "", "height": null, "height_m": null, "levels": null, "tract_id": "40143005810", "tract_name": "58.10", "tags": {"building": "house"}}}, {"type": "Feature", "geometry": {"type": "Polygon", "coordinates": [[[-95.841732, 36.3254722], [-95.8417301, 36.3254089], [-95.8416855, 36.3254115], [-95.8416848, 36.3253493], [-95.8415521, 36.3253529], [-95.841556, 36.3253951], [-95.8415088, 36.3253945], [-95.8415132, 36.3254742], [-95.841732, 36.3254722]]]}, "properties": {"osm_id": 1207849059, "building": "house", "name": "", "height": null, "height_m": null, "levels": null, "tract_id": "40143005810", "tract_name": "58.10", "tags": {"building": "house"}}}, {"type": "Feature", "geometry": {"type": "Polygon", "coordinates": [[[-95.8417308, 36.3255683], [-95.8417333, 36.3256305], [-95.8415049, 36.325631], [-95.841503, 36.325505], [-95.8417033, 36.3255056], [-95.8417027, 36.3255492], [-95.8417027, 36.3255677], [-95.8417308, 36.3255683]]]}, "properties": {"osm_id": 1207849060, "building": "house", "name": "", "height": null, "height_m": null, "levels": null, "tract_id": "40143005810", "tract_name": "58.10", "tags": {"building": "house"}}}, {"type": "Feature", "geometry": {"type": "Polygon", "coordinates": [[[-95.8447719, 36.3247963], [-95.8447668, 36.3247429], [-95.8447987, 36.3247444], [-95.8447968, 36.3246771], [-95.8445818, 36.3246797], [-95.8445856, 36.3248015], [-95.8447719, 36.3247963]]]}, "properties": {"osm_id": 1207853833, "building": "house", "name": "", "height": null, "height_m": null, "levels": null, "tract_id": "40143005810", "tract_name": "58.10", "tags": {"building": "house"}}}, {"type": "Feature", "geometry": {"type": "Polygon", "coordinates": [[[-95.8447661, 36.3250158], [-95.8447642, 36.3249351], [-95.844807, 36.3249346], [-95.8448044, 36.3248739], [-95.8446354, 36.3248698], [-95.8446347, 36.3250148], [-95.8447661, 36.3250158]]]}, "properties": {"osm_id": 1207853834, "building": "house", "name": "", "height": null, "height_m": null, "levels": null, "tract_id": "40143005810", "tract_name": "58.10", "tags": {"building": "house"}}}, {"type": "Feature", "geometry": {"type": "Polygon", "coordinates": [[[-95.844798, 36.3251607], [-95.8448044, 36.3250523], [-95.8445875, 36.3250502], [-95.8445913, 36.3250877], [-95.8445633, 36.3250867], [-95.8445633, 36.3251422], [-95.8445862, 36.3251417], [-95.8445882, 36.3251612], [-95.844798, 36.3251607]]]}, "properties": {"osm_id": 1207853835, "building": "house", "name": "", "height": null, "height_m": null, "levels": null, "tract_id": "40143005810", "tract_name": "58.10", "tags": {"building": "house"}}}, {"type": "Feature", "geometry": {"type": "Polygon", "coordinates": [[[-95.8443847, 36.3251479], [-95.8443827, 36.3251093], [-95.8444166, 36.3251078], [-95.8444178, 36.3250698], [-95.8443847, 36.3250687], [-95.8443834, 36.3249968], [-95.8442571, 36.3249963], [-95.8442622, 36.3250826], [-95.844192, 36.3250826], [-95.8441945, 36.3251489], [-95.8443847, 36.3251479]]]}, "properties": {"osm_id": 1207853836, "building": "house", "name": "", "height": null, "height_m": null, "levels": null, "tract_id": "40143005810", "tract_name": "58.10", "tags": {"building": "house"}}}, {"type": "Feature", "geometry": {"type": "Polygon", "coordinates": [[[-95.8442934, 36.324857], [-95.8442666, 36.3248328], [-95.8442883, 36.3248128], [-95.8442245, 36.3247609], [-95.8440529, 36.3248806], [-95.8440944, 36.3249073], [-95.8440529, 36.3249372], [-95.8441218, 36.3249886], [-95.8442934, 36.324857]]]}, "properties": {"osm_id": 1207853837, "building": "house", "name": "", "height": null, "height_m": null, "levels": null, "tract_id": "40143005810", "tract_name": "58.10", "tags": {"building": "house"}}}, {"type": "Feature", "geometry": {"type": "Polygon", "coordinates": [[[-95.8440044, 36.324764], [-95.8438116, 36.3247713], [-95.8438169, 36.3248634], [-95.8440098, 36.3248562], [-95.8440044, 36.324764]]]}, "properties": {"osm_id": 1207853838, "building": "house", "name": "", "height": null, "height_m": null, "levels": null, "tract_id": "40143005810", "tract_name": "58.10", "tags": {"building": "house"}}}, {"type": "Feature", "geometry": {"type": "Polygon", "coordinates": [[[-95.8436408, 36.3250024], [-95.8436791, 36.3249685], [-95.843697, 36.3249819], [-95.8437576, 36.3249279], [-95.843586, 36.3247984], [-95.8435623, 36.3248215], [-95.8435413, 36.3248046], [-95.8434628, 36.3248698], [-95.8436408, 36.3250024]]]}, "properties": {"osm_id": 1207853839, "building": "house", "name": "", "height": null, "height_m": null, "levels": null, "tract_id": "40143005810", "tract_name": "58.10", "tags": {"building": "house"}}}, {"type": "Feature", "geometry": {"type": "Polygon", "coordinates": [[[-95.8436274, 36.3251664], [-95.8434571, 36.3251669], [-95.8434539, 36.325133], [-95.8434156, 36.325133], [-95.8434163, 36.3250944], [-95.8434533, 36.3250939], [-95.8434577, 36.3250148], [-95.843577, 36.3250143], [-95.8435757, 36.3250446], [-95.8435974, 36.3250451], [-95.8435923, 36.3251042], [-95.8436274, 36.3251047], [-95.8436274, 36.3251664]]]}, "properties": {"osm_id": 1207853840, "building": "house", "name": "", "height": null, "height_m": null, "levels": null, "tract_id": "40143005810", "tract_name": "58.10", "tags": {"building": "house"}}}, {"type": "Feature", "geometry": {"type": "Polygon", "coordinates": [[[-95.84325, 36.324763], [-95.8432516, 36.3246895], [-95.8432125, 36.3246903], [-95.8432167, 36.3246065], [-95.8431079, 36.3246078], [-95.8431079, 36.3245797], [-95.8430295, 36.324578], [-95.8430295, 36.3246705], [-95.8430467, 36.3246705], [-95.8430488, 36.324763], [-95.84325, 36.324763]]]}, "properties": {"osm_id": 1207853841, "building": "house", "name": "", "height": null, "height_m": null, "levels": null, "tract_id": "40143005810", "tract_name": "58.10", "tags": {"building": "house"}}}, {"type": "Feature", "geometry": {"type": "Polygon", "coordinates": [[[-95.8431958, 36.324944], [-95.8431926, 36.3247837], [-95.8430547, 36.3247833], [-95.8430564, 36.3248784], [-95.8430204, 36.3248775], [-95.8430242, 36.3249691], [-95.8431025, 36.3249678], [-95.8431019, 36.3249402], [-95.8431958, 36.324944]]]}, "properties": {"osm_id": 1207853842, "building": "house", "name": "", "height": null, "height_m": null, "levels": null, "tract_id": "40143005810", "tract_name": "58.10", "tags": {"building": "house"}}}, {"type": "Feature", "geometry": {"type": "Polygon", "coordinates": [[[-95.8432125, 36.3250102], [-95.8430252, 36.3250115], [-95.8430268, 36.3251433], [-95.8432377, 36.3251407], [-95.8432371, 36.3250906], [-95.8432119, 36.3250919], [-95.8432125, 36.3250102]]]}, "properties": {"osm_id": 1207853843, "building": "house", "name": "", "height": null, "height_m": null, "levels": null, "tract_id": "40143005810", "tract_name": "58.10", "tags": {"building": "house"}}}, {"type": "Feature", "geometry": {"type": "Polygon", "coordinates": [[[-95.8461971, 36.3246951], [-95.8460072, 36.3246934], [-95.8460072, 36.3245508], [-95.8460952, 36.3245517], [-95.8460973, 36.3245888], [-95.8461992, 36.3245871], [-95.8461971, 36.3246951]]]}, "properties": {"osm_id": 1207854429, "building": "house", "name": "", "height": null, "height_m": null, "levels": null, "tract_id": "40143005810", "tract_name": "58.10", "tags": {"building": "house"}}}, {"type": "Feature", "geometry": {"type": "Polygon", "coordinates": [[[-95.8459707, 36.3245568], [-95.8458892, 36.3245568], [-95.8458902, 36.324588], [-95.8458173, 36.324588], [-95.8458269, 36.3246943], [-95.8457958, 36.3246943], [-95.8457958, 36.3247271], [-95.8459653, 36.324728], [-95.8459707, 36.3245568]]]}, "properties": {"osm_id": 1207854430, "building": "house", "name": "", "height": null, "height_m": null, "levels": null, "tract_id": "40143005810", "tract_name": "58.10", "tags": {"building": "house"}}}, {"type": "Feature", "geometry": {"type": "Polygon", "coordinates": [[[-95.8457186, 36.3247384], [-95.8457196, 36.3245543], [-95.8456392, 36.3245543], [-95.8456349, 36.3245862], [-95.8455598, 36.3245862], [-95.8455641, 36.324741], [-95.8457186, 36.3247384]]]}, "properties": {"osm_id": 1207854431, "building": "house", "name": "", "height": null, "height_m": null, "levels": null, "tract_id": "40143005810", "tract_name": "58.10", "tags": {"building": "house"}}}, {"type": "Feature", "geometry": {"type": "Polygon", "coordinates": [[[-95.8454997, 36.3247582], [-95.8454568, 36.3247574], [-95.8454546, 36.324785], [-95.8453474, 36.3247833], [-95.8453484, 36.3245862], [-95.8454986, 36.324588], [-95.8454997, 36.3247582]]]}, "properties": {"osm_id": 1207854432, "building": "house", "name": "", "height": null, "height_m": null, "levels": null, "tract_id": "40143005810", "tract_name": "58.10", "tags": {"building": "house"}}}, {"type": "Feature", "geometry": {"type": "Polygon", "coordinates": [[[-95.8452873, 36.3247427], [-95.8451145, 36.3247531], [-95.8451038, 36.3246182], [-95.845195, 36.3246148], [-95.845195, 36.3245957], [-95.8452701, 36.3245888], [-95.8452873, 36.3247427]]]}, "properties": {"osm_id": 1207854433, "building": "house", "name": "", "height": null, "height_m": null, "levels": null, "tract_id": "40143005810", "tract_name": "58.10", "tags": {"building": "house"}}}, {"type": "Feature", "geometry": {"type": "Polygon", "coordinates": [[[-95.8452894, 36.3249942], [-95.8451049, 36.3249856], [-95.8451092, 36.3251498], [-95.8451853, 36.3251464], [-95.8451821, 36.3250867], [-95.8452873, 36.3250876], [-95.8452894, 36.3249942]]]}, "properties": {"osm_id": 1207854434, "building": "house", "name": "", "height": null, "height_m": null, "levels": null, "tract_id": "40143005810", "tract_name": "58.10", "tags": {"building": "house"}}}, {"type": "Feature", "geometry": {"type": "Polygon", "coordinates": [[[-95.8455201, 36.3249199], [-95.8454568, 36.3249208], [-95.8454568, 36.3249622], [-95.8453495, 36.3249631], [-95.8453581, 36.3250798], [-95.845327, 36.3250815], [-95.8453313, 36.3251429], [-95.8454407, 36.325142], [-95.8454385, 36.3251213], [-95.8455147, 36.3251204], [-95.8455201, 36.3249199]]]}, "properties": {"osm_id": 1207854435, "building": "house", "name": "", "height": null, "height_m": null, "levels": null, "tract_id": "40143005810", "tract_name": "58.10", "tags": {"building": "house"}}}, {"type": "Feature", "geometry": {"type": "Polygon", "coordinates": [[[-95.8457314, 36.3249571], [-95.8455802, 36.3249527], [-95.8455812, 36.3251403], [-95.8456639, 36.3251386], [-95.8456606, 36.325104], [-95.8457304, 36.3251023], [-95.8457314, 36.3249571]]]}, "properties": {"osm_id": 1207854436, "building": "house", "name": "", "height": null, "height_m": null, "levels": null, "tract_id": "40143005810", "tract_name": "58.10", "tags": {"building": "house"}}}, {"type": "Feature", "geometry": {"type": "Polygon", "coordinates": [[[-95.8459503, 36.3248559], [-95.8457744, 36.3249311], [-95.8458634, 36.3250694], [-95.8459482, 36.3250314], [-95.8459374, 36.3250124], [-95.8460297, 36.3249769], [-95.8459503, 36.3248559]]]}, "properties": {"osm_id": 1207854437, "building": "house", "name": "", "height": null, "height_m": null, "levels": null, "tract_id": "40143005810", "tract_name": "58.10", "tags": {"building": "house"}}}, {"type": "Feature", "geometry": {"type": "Polygon", "coordinates": [[[-95.842216, 36.3255813], [-95.8421146, 36.3255817], [-95.8421146, 36.3256051], [-95.8420502, 36.3256042], [-95.8420513, 36.3254235], [-95.8421264, 36.3254257], [-95.8421317, 36.3254702], [-95.842217, 36.3254719], [-95.842216, 36.3255813]]]}, "properties": {"osm_id": 1207855908, "building": "house", "name": "", "height": null, "height_m": null, "levels": null, "tract_id": "40143005810", "tract_name": "58.10", "tags": {"building": "house"}}}, {"type": "Feature", "geometry": {"type": "Polygon", "coordinates": [[[-95.8424193, 36.3254434], [-95.8423404, 36.3254443], [-95.8423393, 36.3254235], [-95.8422557, 36.3254253], [-95.8422557, 36.3255969], [-95.8424177, 36.3255969], [-95.8424193, 36.3254434]]]}, "properties": {"osm_id": 1207855909, "building": "house", "name": "", "height": null, "height_m": null, "levels": null, "tract_id": "40143005810", "tract_name": "58.10", "tags": {"building": "house"}}}, {"type": "Feature", "geometry": {"type": "Polygon", "coordinates": [[[-95.8426526, 36.3254668], [-95.8425663, 36.3254672], [-95.8425657, 36.3254266], [-95.8424815, 36.3254266], [-95.842481, 36.3255969], [-95.8426494, 36.3255986], [-95.8426526, 36.3254668]]]}, "properties": {"osm_id": 1207855910, "building": "house", "name": "", "height": null, "height_m": null, "levels": null, "tract_id": "40143005810", "tract_name": "58.10", "tags": {"building": "house"}}}, {"type": "Feature", "geometry": {"type": "Polygon", "coordinates": [[[-95.8428575, 36.3254698], [-95.8427653, 36.3254681], [-95.8427631, 36.3254244], [-95.8426886, 36.3254248], [-95.842687, 36.3256016], [-95.8427932, 36.3256003], [-95.8427932, 36.3255757], [-95.8428586, 36.325577], [-95.8428575, 36.3254698]]]}, "properties": {"osm_id": 1207855911, "building": "house", "name": "", "height": null, "height_m": null, "levels": null, "tract_id": "40143005810", "tract_name": "58.10", "tags": {"building": "house"}}}, {"type": "Feature", "geometry": {"type": "Polygon", "coordinates": [[[-95.8430775, 36.325427], [-95.8429927, 36.325424], [-95.8429906, 36.3254516], [-95.8429332, 36.3254495], [-95.842931, 36.3254763], [-95.8429037, 36.325475], [-95.8429026, 36.3255817], [-95.8429369, 36.325583], [-95.8429391, 36.3255969], [-95.8430764, 36.3255969], [-95.8430775, 36.325427]]]}, "properties": {"osm_id": 1207855912, "building": "house", "name": "", "height": null, "height_m": null, "levels": null, "tract_id": "40143005810", "tract_name": "58.10", "tags": {"building": "house"}}}, {"type": "Feature", "geometry": {"type": "Polygon", "coordinates": [[[-95.8432996, 36.3254253], [-95.8432143, 36.3254274], [-95.8432154, 36.3254646], [-95.8431392, 36.3254642], [-95.8431381, 36.3255964], [-95.8432985, 36.3255956], [-95.8432996, 36.3254253]]]}, "properties": {"osm_id": 1207855913, "building": "house", "name": "", "height": null, "height_m": null, "levels": null, "tract_id": "40143005810", "tract_name": "58.10", "tags": {"building": "house"}}}, {"type": "Feature", "geometry": {"type": "Polygon", "coordinates": [[[-95.8435201, 36.3256038], [-95.8434272, 36.3256033], [-95.8434251, 36.3255718], [-95.8433741, 36.3255739], [-95.8433736, 36.3254318], [-95.8435174, 36.3254309], [-95.8435201, 36.3256038]]]}, "properties": {"osm_id": 1207855914, "building": "house", "name": "", "height": null, "height_m": null, "levels": null, "tract_id": "40143005810", "tract_name": "58.10", "tags": {"building": "house"}}}, {"type": "Feature", "geometry": {"type": "Polygon", "coordinates": [[[-95.843769, 36.3255735], [-95.8437255, 36.3255722], [-95.8437244, 36.3256012], [-95.843667, 36.3256016], [-95.843666, 36.3255744], [-95.8435801, 36.3255748], [-95.8435791, 36.3254248], [-95.8436676, 36.3254244], [-95.8436692, 36.3254594], [-95.8437733, 36.3254573], [-95.843769, 36.3255735]]]}, "properties": {"osm_id": 1207855915, "building": "house", "name": "", "height": null, "height_m": null, "levels": null, "tract_id": "40143005810", "tract_name": "58.10", "tags": {"building": "house"}}}, {"type": "Feature", "geometry": {"type": "Polygon", "coordinates": [[[-95.8440002, 36.3254711], [-95.8438934, 36.3254711], [-95.8438897, 36.3254261], [-95.8438092, 36.3254244], [-95.8438119, 36.3255839], [-95.8439015, 36.325586], [-95.8439004, 36.3256103], [-95.8439519, 36.325612], [-95.8439508, 36.3255822], [-95.8439991, 36.3255835], [-95.8440002, 36.3254711]]]}, "properties": {"osm_id": 1207855916, "building": "house", "name": "", "height": null, "height_m": null, "levels": null, "tract_id": "40143005810", "tract_name": "58.10", "tags": {"building": "house"}}}, {"type": "Feature", "geometry": {"type": "Polygon", "coordinates": [[[-95.8442121, 36.3254356], [-95.8440447, 36.3254335], [-95.8440447, 36.3255692], [-95.8440839, 36.3255679], [-95.8440855, 36.325586], [-95.844211, 36.3255865], [-95.8442121, 36.3254356]]]}, "properties": {"osm_id": 1207855917, "building": "house", "name": "", "height": null, "height_m": null, "levels": null, "tract_id": "40143005810", "tract_name": "58.10", "tags": {"building": "house"}}}, {"type": "Feature", "geometry": {"type": "Polygon", "coordinates": [[[-95.8445962, 36.3254274], [-95.8445093, 36.3254231], [-95.8445109, 36.3254694], [-95.8443993, 36.3254689], [-95.844402, 36.3255826], [-95.8444427, 36.3255826], [-95.8444401, 36.3256111], [-95.844505, 36.3256103], [-95.8445023, 36.3255873], [-95.844594, 36.3255843], [-95.8445962, 36.3254274]]]}, "properties": {"osm_id": 1207855918, "building": "house", "name": "", "height": null, "height_m": null, "levels": null, "tract_id": "40143005810", "tract_name": "58.10", "tags": {"building": "house"}}}, {"type": "Feature", "geometry": {"type": "Polygon", "coordinates": [[[-95.844792, 36.3254776], [-95.8447008, 36.325478], [-95.8447029, 36.3254227], [-95.8446418, 36.3254227], [-95.8446385, 36.3255869], [-95.8447893, 36.3255895], [-95.844792, 36.3254776]]]}, "properties": {"osm_id": 1207855919, "building": "house", "name": "", "height": null, "height_m": null, "levels": null, "tract_id": "40143005810", "tract_name": "58.10", "tags": {"building": "house"}}}, {"type": "Feature", "geometry": {"type": "Polygon", "coordinates": [[[-95.84505, 36.3255631], [-95.8450098, 36.3255618], [-95.8450049, 36.3255891], [-95.8448815, 36.3255891], [-95.8448751, 36.3254322], [-95.84505, 36.3254348], [-95.84505, 36.3255631]]]}, "properties": {"osm_id": 1207855920, "building": "house", "name": "", "height": null, "height_m": null, "levels": null, "tract_id": "40143005810", "tract_name": "58.10", "tags": {"building": "house"}}}, {"type": "Feature", "geometry": {"type": "Polygon", "coordinates": [[[-95.8452179, 36.3254646], [-95.8451026, 36.3254642], [-95.8451031, 36.325577], [-95.8451455, 36.325577], [-95.8451444, 36.3256081], [-95.8452104, 36.3256081], [-95.8452109, 36.3255778], [-95.8452919, 36.3255765], [-95.8452973, 36.3254218], [-95.8452152, 36.3254192], [-95.8452179, 36.3254646]]]}, "properties": {"osm_id": 1207855921, "building": "house", "name": "", "height": null, "height_m": null, "levels": null, "tract_id": "40143005810", "tract_name": "58.10", "tags": {"building": "house"}}}, {"type": "Feature", "geometry": {"type": "Polygon", "coordinates": [[[-95.8455489, 36.325564], [-95.845352, 36.3255636], [-95.8453509, 36.3254214], [-95.8454309, 36.3254235], [-95.8454287, 36.3254529], [-95.8455462, 36.3254521], [-95.8455489, 36.325564]]]}, "properties": {"osm_id": 1207855922, "building": "house", "name": "", "height": null, "height_m": null, "levels": null, "tract_id": "40143005810", "tract_name": "58.10", "tags": {"building": "house"}}}, {"type": "Feature", "geometry": {"type": "Polygon", "coordinates": [[[-95.8457876, 36.3254469], [-95.8456664, 36.3254465], [-95.845668, 36.3254227], [-95.8455896, 36.3254235], [-95.8455923, 36.3255813], [-95.8456926, 36.3255778], [-95.8456937, 36.3255977], [-95.8457865, 36.3255951], [-95.8457876, 36.3254469]]]}, "properties": {"osm_id": 1207855923, "building": "house", "name": "", "height": null, "height_m": null, "levels": null, "tract_id": "40143005810", "tract_name": "58.10", "tags": {"building": "house"}}}, {"type": "Feature", "geometry": {"type": "Polygon", "coordinates": [[[-95.8460542, 36.3255147], [-95.8459995, 36.3255294], [-95.846007, 36.3255536], [-95.8459399, 36.3255718], [-95.8459303, 36.325548], [-95.8458761, 36.3255584], [-95.845816, 36.325398], [-95.8458874, 36.3253829], [-95.8459153, 36.3254417], [-95.8460167, 36.3254162], [-95.8460542, 36.3255147]]]}, "properties": {"osm_id": 1207855924, "building": "house", "name": "", "height": null, "height_m": null, "levels": null, "tract_id": "40143005810", "tract_name": "58.10", "tags": {"building": "house"}}}, {"type": "Feature", "geometry": {"type": "Polygon", "coordinates": [[[-95.8462863, 36.325426], [-95.8461396, 36.3254815], [-95.8460439, 36.3253299], [-95.8461179, 36.3252986], [-95.8461339, 36.3253222], [-95.8462002, 36.325295], [-95.8462863, 36.325426]]]}, "properties": {"osm_id": 1207855925, "building": "house", "name": "", "height": null, "height_m": null, "levels": null, "tract_id": "40143005810", "tract_name": "58.10", "tags": {"building": "house"}}}, {"type": "Feature", "geometry": {"type": "Polygon", "coordinates": [[[-95.825502, 36.3225995], [-95.8254456, 36.3225995], [-95.8253468, 36.3225995], [-95.825345, 36.3230036], [-95.8254482, 36.3230036], [-95.8254929, 36.3230036], [-95.825502, 36.3225995]]]}, "properties": {"osm_id": 1207909980, "building": "yes", "name": "Tommy's Express Car Wash", "height": null, "height_m": null, "levels": null, "tract_id": "40143005810", "tract_name": "58.10", "tags": {"amenity": "car_wash", "building": "yes", "name": "Tommy's Express Car Wash"}}}, {"type": "Feature", "geometry": {"type": "Polygon", "coordinates": [[[-95.8485262, 36.3331677], [-95.8485564, 36.333186], [-95.8485398, 36.3332038], [-95.8485096, 36.3331856], [-95.8485262, 36.3331677]]]}, "properties": {"osm_id": 1215816914, "building": "shed", "name": "", "height": null, "height_m": null, "levels": null, "tract_id": "40143005810", "tract_name": "58.10", "tags": {"building": "shed"}}}, {"type": "Feature", "geometry": {"type": "Polygon", "coordinates": [[[-95.8492773, 36.3337656], [-95.8492518, 36.3337656], [-95.8492518, 36.3337467], [-95.8492773, 36.3337467], [-95.8492773, 36.3337656]]]}, "properties": {"osm_id": 1215816918, "building": "shed", "name": "", "height": null, "height_m": null, "levels": null, "tract_id": "40143005810", "tract_name": "58.10", "tags": {"building": "shed"}}}, {"type": "Feature", "geometry": {"type": "Polygon", "coordinates": [[[-95.8496709, 36.3338318], [-95.849649, 36.3338396], [-95.8496333, 36.3338113], [-95.8496551, 36.3338034], [-95.8496709, 36.3338318]]]}, "properties": {"osm_id": 1215816919, "building": "shed", "name": "", "height": null, "height_m": null, "levels": null, "tract_id": "40143005810", "tract_name": "58.10", "tags": {"building": "shed"}}}, {"type": "Feature", "geometry": {"type": "Polygon", "coordinates": [[[-95.8497, 36.3337667], [-95.8496695, 36.3337795], [-95.84965, 36.3337496], [-95.8496806, 36.3337367], [-95.8497, 36.3337667]]]}, "properties": {"osm_id": 1215816920, "building": "shed", "name": "", "height": null, "height_m": null, "levels": null, "tract_id": "40143005810", "tract_name": "58.10", "tags": {"building": "shed"}}}, {"type": "Feature", "geometry": {"type": "Polygon", "coordinates": [[[-95.8493963, 36.3356962], [-95.8493621, 36.3356956], [-95.8493627, 36.3356722], [-95.8493969, 36.3356728], [-95.8493963, 36.3356962]]]}, "properties": {"osm_id": 1215816965, "building": "shed", "name": "", "height": null, "height_m": null, "levels": null, "tract_id": "40143005810", "tract_name": "58.10", "tags": {"building": "shed"}}}, {"type": "Feature", "geometry": {"type": "Polygon", "coordinates": [[[-95.8493909, 36.3357237], [-95.8493644, 36.3357235], [-95.8493647, 36.3357008], [-95.8493913, 36.335701], [-95.8493909, 36.3357237]]]}, "properties": {"osm_id": 1215816966, "building": "shed", "name": "", "height": null, "height_m": null, "levels": null, "tract_id": "40143005810", "tract_name": "58.10", "tags": {"building": "shed"}}}, {"type": "Feature", "geometry": {"type": "Polygon", "coordinates": [[[-95.8488223, 36.3356921], [-95.8487693, 36.3356943], [-95.8487657, 36.3356368], [-95.8488187, 36.3356346], [-95.8488223, 36.3356921]]]}, "properties": {"osm_id": 1215816967, "building": "yes", "name": "", "height": null, "height_m": null, "levels": null, "tract_id": "40143005810", "tract_name": "58.10", "tags": {"building": "yes"}}}, {"type": "Feature", "geometry": {"type": "Polygon", "coordinates": [[[-95.845896, 36.3342682], [-95.845892, 36.3341569], [-95.8459897, 36.3341547], [-95.8459937, 36.3342659], [-95.845896, 36.3342682]]]}, "properties": {"osm_id": 1215816974, "building": "detached", "name": "", "height": null, "height_m": null, "levels": null, "tract_id": "40143005810", "tract_name": "58.10", "tags": {"building": "detached"}}}, {"type": "Feature", "geometry": {"type": "Polygon", "coordinates": [[[-95.8461233, 36.3341126], [-95.8461228, 36.3341494], [-95.8460598, 36.3341489], [-95.8460603, 36.3341121], [-95.8461233, 36.3341126]]]}, "properties": {"osm_id": 1215816976, "building": "shed", "name": "", "height": null, "height_m": null, "levels": null, "tract_id": "40143005810", "tract_name": "58.10", "tags": {"building": "shed"}}}, {"type": "Feature", "geometry": {"type": "Polygon", "coordinates": [[[-95.8476673, 36.3348164], [-95.8471848, 36.3348165], [-95.8471848, 36.3349286], [-95.8476673, 36.3349285], [-95.8476673, 36.3348164]]]}, "properties": {"osm_id": 1215816994, "building": "warehouse", "name": "", "height": null, "height_m": null, "levels": null, "tract_id": "40143005810", "tract_name": "58.10", "tags": {"building": "warehouse", "source": "microsoft/BuildingFootprints"}}}, {"type": "Feature", "geometry": {"type": "Polygon", "coordinates": [[[-95.8467768, 36.333405], [-95.8467771, 36.3334612], [-95.846707, 36.3334614], [-95.8467067, 36.3334053], [-95.8467134, 36.3334053], [-95.8467133, 36.3333913], [-95.8467542, 36.3333911], [-95.8467543, 36.3334051], [-95.8467768, 36.333405]]]}, "properties": {"osm_id": 1215816995, "building": "yes", "name": "", "height": null, "height_m": null, "levels": null, "tract_id": "40143005810", "tract_name": "58.10", "tags": {"building": "yes"}}}, {"type": "Feature", "geometry": {"type": "Polygon", "coordinates": [[[-95.8486454, 36.3334838], [-95.8486442, 36.3334245], [-95.8484512, 36.3334269], [-95.8484533, 36.3335392], [-95.8485939, 36.3335374], [-95.8485935, 36.3335154], [-95.8486084, 36.3335152], [-95.8486078, 36.3334842], [-95.8486454, 36.3334838]]]}, "properties": {"osm_id": 1215817002, "building": "detached", "name": "", "height": null, "height_m": null, "levels": null, "tract_id": "40143005810", "tract_name": "58.10", "tags": {"building": "detached", "source": "microsoft/BuildingFootprints"}}}, {"type": "Feature", "geometry": {"type": "Polygon", "coordinates": [[[-95.849192, 36.3344653], [-95.8491904, 36.3343476], [-95.8490241, 36.3343491], [-95.8490249, 36.3344041], [-95.8489991, 36.3344043], [-95.849, 36.334467], [-95.849192, 36.3344653]]]}, "properties": {"osm_id": 1215817003, "building": "yes", "name": "", "height": null, "height_m": null, "levels": null, "tract_id": "40143005810", "tract_name": "58.10", "tags": {"building": "yes", "source": "microsoft/BuildingFootprints"}}}, {"type": "Feature", "geometry": {"type": "Polygon", "coordinates": [[[-95.8471843, 36.3350984], [-95.8477997, 36.3350946], [-95.8477989, 36.3350094], [-95.8471835, 36.3350132], [-95.8471843, 36.3350984]]]}, "properties": {"osm_id": 1215817004, "building": "warehouse", "name": "", "height": null, "height_m": null, "levels": null, "tract_id": "40143005810", "tract_name": "58.10", "tags": {"building": "warehouse", "source": "microsoft/BuildingFootprints"}}}, {"type": "Feature", "geometry": {"type": "Polygon", "coordinates": [[[-95.8499986, 36.3330401], [-95.8499951, 36.3331827], [-95.8501667, 36.3331854], [-95.8501684, 36.3331163], [-95.8501094, 36.3331154], [-95.8501112, 36.3330419], [-95.8499986, 36.3330401]]]}, "properties": {"osm_id": 1215817005, "building": "detached", "name": "", "height": null, "height_m": null, "levels": null, "tract_id": "40143005810", "tract_name": "58.10", "tags": {"building": "detached", "source": "microsoft/BuildingFootprints"}}}, {"type": "Feature", "geometry": {"type": "Polygon", "coordinates": [[[-95.8500399, 36.3334848], [-95.8500397, 36.3336166], [-95.8501872, 36.3336167], [-95.8501874, 36.3334666], [-95.8501123, 36.3334665], [-95.8501123, 36.3334849], [-95.8500399, 36.3334848]]]}, "properties": {"osm_id": 1215817006, "building": "detached", "name": "", "height": null, "height_m": null, "levels": null, "tract_id": "40143005810", "tract_name": "58.10", "tags": {"building": "detached", "source": "microsoft/BuildingFootprints"}}}, {"type": "Feature", "geometry": {"type": "Polygon", "coordinates": [[[-95.8493087, 36.3356944], [-95.849299, 36.3354829], [-95.8491945, 36.335486], [-95.8492042, 36.3356975], [-95.8493087, 36.3356944]]]}, "properties": {"osm_id": 1215817007, "building": "detached", "name": "", "height": null, "height_m": null, "levels": null, "tract_id": "40143005810", "tract_name": "58.10", "tags": {"building": "detached", "source": "microsoft/BuildingFootprints"}}}, {"type": "Feature", "geometry": {"type": "Polygon", "coordinates": [[[-95.8487436, 36.3330938], [-95.8487171, 36.3330596], [-95.8486225, 36.3331071], [-95.8486875, 36.3331911], [-95.8488091, 36.33313], [-95.8487706, 36.3330802], [-95.8487436, 36.3330938]]]}, "properties": {"osm_id": 1215817008, "building": "detached", "name": "", "height": null, "height_m": null, "levels": null, "tract_id": "40143005810", "tract_name": "58.10", "tags": {"building": "detached", "source": "microsoft/BuildingFootprints"}}}, {"type": "Feature", "geometry": {"type": "Polygon", "coordinates": [[[-95.8491678, 36.3345095], [-95.8489994, 36.3345095], [-95.8489994, 36.3345543], [-95.8490288, 36.3345543], [-95.8490288, 36.3345885], [-95.8490175, 36.3345885], [-95.8490175, 36.3346499], [-95.8491678, 36.3346499], [-95.8491678, 36.3345837], [-95.8491911, 36.3345837], [-95.8491911, 36.3345507], [-95.8491678, 36.3345507], [-95.8491678, 36.3345095]]]}, "properties": {"osm_id": 1215817009, "building": "yes", "name": "", "height": null, "height_m": null, "levels": null, "tract_id": "40143005810", "tract_name": "58.10", "tags": {"building": "yes", "source": "microsoft/BuildingFootprints"}}}, {"type": "Feature", "geometry": {"type": "Polygon", "coordinates": [[[-95.8500526, 36.3346577], [-95.8501879, 36.334659], [-95.850189, 36.334578], [-95.8501729, 36.3345778], [-95.8501738, 36.3345195], [-95.8500317, 36.3345182], [-95.8500308, 36.3345776], [-95.8500538, 36.3345778], [-95.8500526, 36.3346577]]]}, "properties": {"osm_id": 1215817010, "building": "detached", "name": "", "height": null, "height_m": null, "levels": null, "tract_id": "40143005810", "tract_name": "58.10", "tags": {"building": "detached", "source": "microsoft/BuildingFootprints"}}}, {"type": "Feature", "geometry": {"type": "Polygon", "coordinates": [[[-95.8486626, 36.3341356], [-95.8485741, 36.3341343], [-95.8485732, 36.3341785], [-95.8484766, 36.3341771], [-95.8484746, 36.3342712], [-95.8486596, 36.3342738], [-95.8486626, 36.3341356]]]}, "properties": {"osm_id": 1215817011, "building": "detached", "name": "", "height": null, "height_m": null, "levels": null, "tract_id": "40143005810", "tract_name": "58.10", "tags": {"building": "detached", "source": "microsoft/BuildingFootprints"}}}, {"type": "Feature", "geometry": {"type": "Polygon", "coordinates": [[[-95.8470529, 36.3333747], [-95.8471307, 36.3333762], [-95.8471326, 36.3333092], [-95.8470549, 36.3333078], [-95.8470529, 36.3333747]]]}, "properties": {"osm_id": 1215817012, "building": "garage", "name": "", "height": null, "height_m": null, "levels": null, "tract_id": "40143005810", "tract_name": "58.10", "tags": {"building": "garage", "source": "microsoft/BuildingFootprints"}}}, {"type": "Feature", "geometry": {"type": "Polygon", "coordinates": [[[-95.8492656, 36.3330485], [-95.849094, 36.3330488], [-95.8490944, 36.3331712], [-95.849169, 36.3331711], [-95.8491689, 36.3331587], [-95.849215, 36.3331586], [-95.8492151, 36.3331804], [-95.8492661, 36.3331802], [-95.8492656, 36.3330485]]]}, "properties": {"osm_id": 1215817013, "building": "detached", "name": "", "height": null, "height_m": null, "levels": null, "tract_id": "40143005810", "tract_name": "58.10", "tags": {"building": "detached", "source": "microsoft/BuildingFootprints"}}}, {"type": "Feature", "geometry": {"type": "Polygon", "coordinates": [[[-95.8497864, 36.333165], [-95.8498588, 36.3331654], [-95.8498587, 36.333184], [-95.8499355, 36.3331844], [-95.8499367, 36.3330383], [-95.8497875, 36.3330376], [-95.8497864, 36.333165]]]}, "properties": {"osm_id": 1215817014, "building": "detached", "name": "", "height": null, "height_m": null, "levels": null, "tract_id": "40143005810", "tract_name": "58.10", "tags": {"building": "detached", "source": "microsoft/BuildingFootprints"}}}, {"type": "Feature", "geometry": {"type": "Polygon", "coordinates": [[[-95.849618, 36.3341966], [-95.849641, 36.3341963], [-95.8496398, 36.3341358], [-95.8494977, 36.3341376], [-95.8495005, 36.3342759], [-95.8496195, 36.3342743], [-95.849618, 36.3341966]]]}, "properties": {"osm_id": 1215817015, "building": "detached", "name": "", "height": null, "height_m": null, "levels": null, "tract_id": "40143005810", "tract_name": "58.10", "tags": {"building": "detached", "source": "microsoft/BuildingFootprints"}}}, {"type": "Feature", "geometry": {"type": "Polygon", "coordinates": [[[-95.8484551, 36.3333411], [-95.8485886, 36.3333686], [-95.8486124, 36.333294], [-95.8486307, 36.3332978], [-95.8486494, 36.333239], [-95.8484976, 36.3332076], [-95.8484768, 36.333273], [-95.8484498, 36.3332674], [-95.84844, 36.3332979], [-95.8484671, 36.3333035], [-95.8484551, 36.3333411]]]}, "properties": {"osm_id": 1215817016, "building": "detached", "name": "", "height": null, "height_m": null, "levels": null, "tract_id": "40143005810", "tract_name": "58.10", "tags": {"building": "detached", "source": "microsoft/BuildingFootprints"}}}, {"type": "Feature", "geometry": {"type": "Polygon", "coordinates": [[[-95.8486643, 36.3339583], [-95.8484738, 36.3339573], [-95.8484728, 36.3340761], [-95.8486381, 36.334077], [-95.8486386, 36.3340187], [-95.8486638, 36.3340188], [-95.8486643, 36.3339583]]]}, "properties": {"osm_id": 1215817017, "building": "detached", "name": "", "height": null, "height_m": null, "levels": null, "tract_id": "40143005810", "tract_name": "58.10", "tags": {"building": "detached", "source": "microsoft/BuildingFootprints"}}}, {"type": "Feature", "geometry": {"type": "Polygon", "coordinates": [[[-95.8495237, 36.334652], [-95.8496845, 36.3346544], [-95.8496855, 36.3346126], [-95.8496587, 36.3346122], [-95.8496596, 36.3345748], [-95.8496756, 36.3345751], [-95.8496769, 36.3345174], [-95.8495268, 36.3345151], [-95.8495237, 36.334652]]]}, "properties": {"osm_id": 1215817018, "building": "detached", "name": "", "height": null, "height_m": null, "levels": null, "tract_id": "40143005810", "tract_name": "58.10", "tags": {"building": "detached", "source": "microsoft/BuildingFootprints"}}}, {"type": "Feature", "geometry": {"type": "Polygon", "coordinates": [[[-95.8484865, 36.3337783], [-95.8484853, 36.3338882], [-95.8486623, 36.3338895], [-95.848663, 36.3338269], [-95.8486552, 36.3338268], [-95.8486557, 36.3337795], [-95.8484865, 36.3337783]]]}, "properties": {"osm_id": 1215817019, "building": "detached", "name": "", "height": null, "height_m": null, "levels": null, "tract_id": "40143005810", "tract_name": "58.10", "tags": {"building": "detached", "source": "microsoft/BuildingFootprints"}}}, {"type": "Feature", "geometry": {"type": "Polygon", "coordinates": [[[-95.8486634, 36.3343084], [-95.848509, 36.3343074], [-95.8485076, 36.3344445], [-95.848639, 36.3344454], [-95.8486398, 36.3343676], [-95.8486628, 36.3343678], [-95.8486634, 36.3343084]]]}, "properties": {"osm_id": 1215817020, "building": "detached", "name": "", "height": null, "height_m": null, "levels": null, "tract_id": "40143005810", "tract_name": "58.10", "tags": {"building": "detached", "source": "microsoft/BuildingFootprints"}}}, {"type": "Feature", "geometry": {"type": "Polygon", "coordinates": [[[-95.8491854, 36.3341125], [-95.8491838, 36.3339959], [-95.8490085, 36.3339974], [-95.84901, 36.334114], [-95.8491854, 36.3341125]]]}, "properties": {"osm_id": 1215817021, "building": "yes", "name": "", "height": null, "height_m": null, "levels": null, "tract_id": "40143005810", "tract_name": "58.10", "tags": {"building": "yes", "source": "microsoft/BuildingFootprints"}}}, {"type": "Feature", "geometry": {"type": "Polygon", "coordinates": [[[-95.8498602, 36.3350645], [-95.8498606, 36.3349716], [-95.8498419, 36.3349716], [-95.8498421, 36.3349229], [-95.8497605, 36.3349227], [-95.8497604, 36.3349476], [-95.8496998, 36.3349474], [-95.8496996, 36.3350036], [-95.8496754, 36.3350035], [-95.8496752, 36.335064], [-95.8498602, 36.3350645]]]}, "properties": {"osm_id": 1215817022, "building": "detached", "name": "", "height": null, "height_m": null, "levels": null, "tract_id": "40143005810", "tract_name": "58.10", "tags": {"building": "detached", "source": "microsoft/BuildingFootprints"}}}, {"type": "Feature", "geometry": {"type": "Polygon", "coordinates": [[[-95.8485601, 36.3357118], [-95.8486644, 36.3357053], [-95.8486501, 36.3355567], [-95.8485459, 36.3355632], [-95.8485601, 36.3357118]]]}, "properties": {"osm_id": 1215817023, "building": "detached", "name": "", "height": null, "height_m": null, "levels": null, "tract_id": "40143005810", "tract_name": "58.10", "tags": {"building": "detached", "source": "microsoft/BuildingFootprints"}}}, {"type": "Feature", "geometry": {"type": "Polygon", "coordinates": [[[-95.8476673, 36.3348164], [-95.8476673, 36.3349285], [-95.8477981, 36.3349284], [-95.8477981, 36.3348164], [-95.8476673, 36.3348164]]]}, "properties": {"osm_id": 1215817024, "building": "warehouse", "name": "", "height": null, "height_m": null, "levels": null, "tract_id": "40143005810", "tract_name": "58.10", "tags": {"building": "warehouse", "source": "microsoft/BuildingFootprints"}}}, {"type": "Feature", "geometry": {"type": "Polygon", "coordinates": [[[-95.8469767, 36.3354814], [-95.8470491, 36.3354817], [-95.8470532, 36.3348777], [-95.8469808, 36.3348773], [-95.8469767, 36.3354814]]]}, "properties": {"osm_id": 1215817025, "building": "warehouse", "name": "", "height": null, "height_m": null, "levels": null, "tract_id": "40143005810", "tract_name": "58.10", "tags": {"building": "warehouse", "source": "microsoft/BuildingFootprints"}}}, {"type": "Feature", "geometry": {"type": "Polygon", "coordinates": [[[-95.847791, 36.3331728], [-95.8476195, 36.3331716], [-95.8476186, 36.3332571], [-95.8477901, 36.3332583], [-95.847791, 36.3331728]]]}, "properties": {"osm_id": 1215817026, "building": "garage", "name": "", "height": null, "height_m": null, "levels": null, "tract_id": "40143005810", "tract_name": "58.10", "tags": {"building": "garage", "source": "microsoft/BuildingFootprints"}}}, {"type": "Feature", "geometry": {"type": "Polygon", "coordinates": [[[-95.8499501, 36.333613], [-95.8499532, 36.3334693], [-95.8498218, 36.3334675], [-95.8498181, 36.3336381], [-95.8498691, 36.3336388], [-95.8498697, 36.3336118], [-95.8499501, 36.333613]]]}, "properties": {"osm_id": 1215817027, "building": "detached", "name": "", "height": null, "height_m": null, "levels": null, "tract_id": "40143005810", "tract_name": "58.10", "tags": {"building": "detached", "source": "microsoft/BuildingFootprints"}}}, {"type": "Feature", "geometry": {"type": "Polygon", "coordinates": [[[-95.8471846, 36.3343572], [-95.8471865, 36.3344674], [-95.8478006, 36.3344605], [-95.8477987, 36.3343503], [-95.8471846, 36.3343572]]]}, "properties": {"osm_id": 1215817028, "building": "warehouse", "name": "", "height": null, "height_m": null, "levels": null, "tract_id": "40143005810", "tract_name": "58.10", "tags": {"building": "warehouse", "source": "microsoft/BuildingFootprints"}}}, {"type": "Feature", "geometry": {"type": "Polygon", "coordinates": [[[-95.8501959, 36.3343156], [-95.8500323, 36.3343147], [-95.8500319, 36.3343687], [-95.8500543, 36.3343688], [-95.8500539, 36.3344099], [-95.85003, 36.3344098], [-95.8500296, 36.3344509], [-95.8501948, 36.3344517], [-95.8501959, 36.3343156]]]}, "properties": {"osm_id": 1215817029, "building": "detached", "name": "", "height": null, "height_m": null, "levels": null, "tract_id": "40143005810", "tract_name": "58.10", "tags": {"building": "detached", "source": "microsoft/BuildingFootprints"}}}, {"type": "Feature", "geometry": {"type": "Polygon", "coordinates": [[[-95.8491933, 36.333446], [-95.8490136, 36.3334434], [-95.8490111, 36.3335535], [-95.8492166, 36.3335566], [-95.8492173, 36.333522], [-95.8491916, 36.3335216], [-95.8491933, 36.333446]]]}, "properties": {"osm_id": 1215817030, "building": "yes", "name": "", "height": null, "height_m": null, "levels": null, "tract_id": "40143005810", "tract_name": "58.10", "tags": {"building": "yes", "source": "microsoft/BuildingFootprints"}}}, {"type": "Feature", "geometry": {"type": "Polygon", "coordinates": [[[-95.8500329, 36.3350395], [-95.8501015, 36.3350403], [-95.8501036, 36.3349269], [-95.8500312, 36.334926], [-95.8500309, 36.3349422], [-95.8499343, 36.3349411], [-95.8499325, 36.3350404], [-95.8499915, 36.3350411], [-95.849991, 36.3350649], [-95.8500324, 36.3350654], [-95.8500329, 36.3350395]]]}, "properties": {"osm_id": 1215817031, "building": "detached", "name": "", "height": null, "height_m": null, "levels": null, "tract_id": "40143005810", "tract_name": "58.10", "tags": {"building": "detached", "source": "microsoft/BuildingFootprints"}}}, {"type": "Feature", "geometry": {"type": "Polygon", "coordinates": [[[-95.8471862, 36.3354523], [-95.8477977, 36.3354538], [-95.847798, 36.3353686], [-95.8471865, 36.3353671], [-95.8471862, 36.3354523]]]}, "properties": {"osm_id": 1215817032, "building": "warehouse", "name": "", "height": null, "height_m": null, "levels": null, "tract_id": "40143005810", "tract_name": "58.10", "tags": {"building": "warehouse", "source": "microsoft/BuildingFootprints"}}}, {"type": "Feature", "geometry": {"type": "Polygon", "coordinates": [[[-95.8494911, 36.3330425], [-95.8493972, 36.3330417], [-95.8493975, 36.3330209], [-95.849325, 36.3330203], [-95.8493233, 36.33316], [-95.8493908, 36.3331605], [-95.8493905, 36.3331835], [-95.8494678, 36.3331841], [-95.8494685, 36.333133], [-95.8494899, 36.3331332], [-95.8494911, 36.3330425]]]}, "properties": {"osm_id": 1215817033, "building": "detached", "name": "", "height": null, "height_m": null, "levels": null, "tract_id": "40143005810", "tract_name": "58.10", "tags": {"building": "detached", "source": "microsoft/BuildingFootprints"}}}, {"type": "Feature", "geometry": {"type": "Polygon", "coordinates": [[[-95.8488625, 36.3331548], [-95.8489484, 36.3331544], [-95.8489482, 36.3331306], [-95.8490045, 36.3331303], [-95.849004, 36.3330719], [-95.8490308, 36.3330718], [-95.8490303, 36.3330113], [-95.8488399, 36.3330124], [-95.8488406, 36.3331009], [-95.8488621, 36.3331008], [-95.8488625, 36.3331548]]]}, "properties": {"osm_id": 1215817034, "building": "detached", "name": "", "height": null, "height_m": null, "levels": null, "tract_id": "40143005810", "tract_name": "58.10", "tags": {"building": "detached", "source": "microsoft/BuildingFootprints"}}}, {"type": "Feature", "geometry": {"type": "Polygon", "coordinates": [[[-95.8497286, 36.3330709], [-95.849654, 36.33307], [-95.8496538, 36.3330815], [-95.8495541, 36.3330803], [-95.8495521, 36.3331862], [-95.8497264, 36.3331883], [-95.8497286, 36.3330709]]]}, "properties": {"osm_id": 1215817035, "building": "detached", "name": "", "height": null, "height_m": null, "levels": null, "tract_id": "40143005810", "tract_name": "58.10", "tags": {"building": "detached", "source": "microsoft/BuildingFootprints"}}}, {"type": "Feature", "geometry": {"type": "Polygon", "coordinates": [[[-95.8495189, 36.3334699], [-95.8493858, 36.3334682], [-95.8493835, 36.3335935], [-95.8495165, 36.3335952], [-95.8495189, 36.3334699]]]}, "properties": {"osm_id": 1215817036, "building": "detached", "name": "", "height": null, "height_m": null, "levels": null, "tract_id": "40143005810", "tract_name": "58.10", "tags": {"building": "detached", "source": "microsoft/BuildingFootprints"}}}, {"type": "Feature", "geometry": {"type": "Polygon", "coordinates": [[[-95.8486448, 36.3345015], [-95.8485233, 36.3345012], [-95.8485229, 36.3346178], [-95.8486444, 36.3346181], [-95.8486448, 36.3345015]]]}, "properties": {"osm_id": 1215817037, "building": "detached", "name": "", "height": null, "height_m": null, "levels": null, "tract_id": "40143005810", "tract_name": "58.10", "tags": {"building": "detached", "source": "microsoft/BuildingFootprints"}}}, {"type": "Feature", "geometry": {"type": "Polygon", "coordinates": [[[-95.8485096, 36.3337293], [-95.848642, 36.3337291], [-95.8486419, 36.3336542], [-95.8486648, 36.3336542], [-95.8486646, 36.3335909], [-95.8485093, 36.3335911], [-95.8485096, 36.3337293]]]}, "properties": {"osm_id": 1215817038, "building": "detached", "name": "", "height": null, "height_m": null, "levels": null, "tract_id": "40143005810", "tract_name": "58.10", "tags": {"building": "detached", "source": "microsoft/BuildingFootprints"}}}, {"type": "Feature", "geometry": {"type": "Polygon", "coordinates": [[[-95.849004, 36.3337667], [-95.8491729, 36.3337653], [-95.8491725, 36.3337322], [-95.8491983, 36.333732], [-95.8491979, 36.3336964], [-95.8491748, 36.3336965], [-95.849174, 36.3336317], [-95.8490147, 36.333633], [-95.8490154, 36.3336892], [-95.849032, 36.333689], [-95.8490324, 36.3337258], [-95.8490035, 36.333726], [-95.849004, 36.3337667]]]}, "properties": {"osm_id": 1215817039, "building": "yes", "name": "", "height": null, "height_m": null, "levels": null, "tract_id": "40143005810", "tract_name": "58.10", "tags": {"building": "yes", "source": "microsoft/BuildingFootprints"}}}, {"type": "Feature", "geometry": {"type": "Polygon", "coordinates": [[[-95.8471833, 36.3352906], [-95.8477975, 36.335287], [-95.8477965, 36.3351734], [-95.8471823, 36.335177], [-95.8471833, 36.3352906]]]}, "properties": {"osm_id": 1215817040, "building": "warehouse", "name": "", "height": null, "height_m": null, "levels": null, "tract_id": "40143005810", "tract_name": "58.10", "tags": {"building": "warehouse", "source": "microsoft/BuildingFootprints"}}}, {"type": "Feature", "geometry": {"type": "Polygon", "coordinates": [[[-95.8478013, 36.3346526], [-95.8477996, 36.3345425], [-95.8471882, 36.3345484], [-95.8471898, 36.3346586], [-95.8478013, 36.3346526]]]}, "properties": {"osm_id": 1215817041, "building": "warehouse", "name": "", "height": null, "height_m": null, "levels": null, "tract_id": "40143005810", "tract_name": "58.10", "tags": {"building": "warehouse", "source": "microsoft/BuildingFootprints"}}}, {"type": "Feature", "geometry": {"type": "Polygon", "coordinates": [[[-95.8474129, 36.3357296], [-95.8474145, 36.3356907], [-95.8473127, 36.3356879], [-95.8473069, 36.335826], [-95.8474033, 36.3358287], [-95.8474052, 36.3357834], [-95.8474347, 36.3357842], [-95.847437, 36.3357302], [-95.8474129, 36.3357296]]]}, "properties": {"osm_id": 1215817043, "building": "detached", "name": "", "height": null, "height_m": null, "levels": null, "tract_id": "40143005810", "tract_name": "58.10", "tags": {"building": "detached", "source": "microsoft/BuildingFootprints"}}}, {"type": "Feature", "geometry": {"type": "Polygon", "coordinates": [[[-95.8495801, 36.3335871], [-95.8497544, 36.3335896], [-95.8497572, 36.3334643], [-95.8496875, 36.3334633], [-95.8496871, 36.3334784], [-95.8495826, 36.3334769], [-95.8495801, 36.3335871]]]}, "properties": {"osm_id": 1215817044, "building": "detached", "name": "", "height": null, "height_m": null, "levels": null, "tract_id": "40143005810", "tract_name": "58.10", "tags": {"building": "detached", "source": "microsoft/BuildingFootprints"}}}, {"type": "Feature", "geometry": {"type": "Polygon", "coordinates": [[[-95.8499844, 36.3338664], [-95.8498111, 36.3338681], [-95.8498127, 36.3339761], [-95.849912, 36.3339752], [-95.8499122, 36.3339935], [-95.8499863, 36.3339928], [-95.8499844, 36.3338664]]]}, "properties": {"osm_id": 1215817045, "building": "detached", "name": "", "height": null, "height_m": null, "levels": null, "tract_id": "40143005810", "tract_name": "58.10", "tags": {"building": "detached", "source": "microsoft/BuildingFootprints"}}}, {"type": "Feature", "geometry": {"type": "Polygon", "coordinates": [[[-95.8497565, 36.3339973], [-95.8496494, 36.3339083], [-95.8495916, 36.3339535], [-95.8495616, 36.3339285], [-95.8495249, 36.3339572], [-95.849555, 36.3339822], [-95.8495282, 36.3340031], [-95.8496239, 36.3340827], [-95.8496923, 36.3340293], [-95.8497036, 36.3340386], [-95.8497565, 36.3339973]]]}, "properties": {"osm_id": 1215817046, "building": "detached", "name": "", "height": null, "height_m": null, "levels": null, "tract_id": "40143005810", "tract_name": "58.10", "tags": {"building": "detached", "source": "microsoft/BuildingFootprints"}}}, {"type": "Feature", "geometry": {"type": "Polygon", "coordinates": [[[-95.8495331, 36.3344689], [-95.8496645, 36.3344678], [-95.8496635, 36.3343887], [-95.8496876, 36.3343885], [-95.8496869, 36.3343293], [-95.8495313, 36.3343306], [-95.8495331, 36.3344689]]]}, "properties": {"osm_id": 1215817047, "building": "detached", "name": "", "height": null, "height_m": null, "levels": null, "tract_id": "40143005810", "tract_name": "58.10", "tags": {"building": "detached", "source": "microsoft/BuildingFootprints"}}}, {"type": "Feature", "geometry": {"type": "Polygon", "coordinates": [[[-95.8490085, 36.3339465], [-95.8491506, 36.3339448], [-95.8491494, 36.3338789], [-95.8491762, 36.3338786], [-95.8491756, 36.333844], [-95.8491514, 36.3338443], [-95.8491507, 36.3338076], [-95.84903, 36.3338091], [-95.8490315, 36.3338869], [-95.8490074, 36.3338872], [-95.8490085, 36.3339465]]]}, "properties": {"osm_id": 1215817048, "building": "yes", "name": "", "height": null, "height_m": null, "levels": null, "tract_id": "40143005810", "tract_name": "58.10", "tags": {"building": "yes", "source": "microsoft/BuildingFootprints"}}}, {"type": "Feature", "geometry": {"type": "Polygon", "coordinates": [[[-95.8477976, 36.3355876], [-95.847797, 36.3355324], [-95.8470461, 36.3355375], [-95.8470467, 36.3355928], [-95.8477976, 36.3355876]]]}, "properties": {"osm_id": 1215817049, "building": "warehouse", "name": "", "height": null, "height_m": null, "levels": null, "tract_id": "40143005810", "tract_name": "58.10", "tags": {"building": "warehouse", "source": "microsoft/BuildingFootprints"}}}, {"type": "Feature", "geometry": {"type": "Polygon", "coordinates": [[[-95.8490022, 36.3342757], [-95.8490638, 36.3342749], [-95.8490642, 36.3342944], [-95.8491768, 36.334293], [-95.8491755, 36.3342217], [-95.849205, 36.3342213], [-95.8492039, 36.334163], [-95.8490296, 36.3341652], [-95.8490304, 36.3342105], [-95.8490009, 36.3342109], [-95.8490022, 36.3342757]]]}, "properties": {"osm_id": 1215817050, "building": "yes", "name": "", "height": null, "height_m": null, "levels": null, "tract_id": "40143005810", "tract_name": "58.10", "tags": {"building": "yes", "source": "microsoft/BuildingFootprints"}}}, {"type": "Feature", "geometry": {"type": "Polygon", "coordinates": [[[-95.8469003, 36.333377], [-95.8470226, 36.3333774], [-95.8470233, 36.3332564], [-95.8469009, 36.333256], [-95.8469003, 36.333377]]]}, "properties": {"osm_id": 1215817051, "building": "detached", "name": "", "height": null, "height_m": null, "levels": null, "tract_id": "40143005810", "tract_name": "58.10", "tags": {"building": "detached", "source": "microsoft/BuildingFootprints"}}}, {"type": "Feature", "geometry": {"type": "Polygon", "coordinates": [[[-95.8462376, 36.3227535], [-95.8461094, 36.3227549], [-95.8461098, 36.3227768], [-95.8460697, 36.3227772], [-95.8460718, 36.3229066], [-95.8462402, 36.3229048], [-95.8462376, 36.3227535]]]}, "properties": {"osm_id": 1216328405, "building": "house", "name": "", "height": null, "height_m": null, "levels": null, "tract_id": "40143005810", "tract_name": "58.10", "tags": {"building": "house"}}}, {"type": "Feature", "geometry": {"type": "Polygon", "coordinates": [[[-95.846481, 36.32277], [-95.8463154, 36.3227371], [-95.8462727, 36.3228769], [-95.8463418, 36.3228906], [-95.8463481, 36.3228699], [-95.8463851, 36.3228773], [-95.8463767, 36.3229048], [-95.8464362, 36.3229166], [-95.846481, 36.32277]]]}, "properties": {"osm_id": 1216328406, "building": "house", "name": "", "height": null, "height_m": null, "levels": null, "tract_id": "40143005810", "tract_name": "58.10", "tags": {"building": "house"}}}, {"type": "Feature", "geometry": {"type": "Polygon", "coordinates": [[[-95.846647, 36.322848], [-95.8466706, 36.3228506], [-95.8467235, 36.3229195], [-95.8466985, 36.322932], [-95.8467193, 36.3229591], [-95.8465056, 36.3230656], [-95.846458, 36.3230037], [-95.8465094, 36.322978], [-95.8464753, 36.3229337], [-95.846647, 36.322848]]]}, "properties": {"osm_id": 1216328407, "building": "house", "name": "", "height": null, "height_m": null, "levels": null, "tract_id": "40143005810", "tract_name": "58.10", "tags": {"building": "house"}}}, {"type": "Feature", "geometry": {"type": "Polygon", "coordinates": [[[-95.8467487, 36.3231092], [-95.8466009, 36.3231082], [-95.8466002, 36.3231876], [-95.8465486, 36.3231873], [-95.8465481, 36.3232417], [-95.8467387, 36.3232428], [-95.8467391, 36.3232026], [-95.8467699, 36.3232028], [-95.8467704, 36.3231426], [-95.8467484, 36.3231425], [-95.8467487, 36.3231092]]]}, "properties": {"osm_id": 1216328408, "building": "house", "name": "", "height": null, "height_m": null, "levels": null, "tract_id": "40143005810", "tract_name": "58.10", "tags": {"building": "house"}}}, {"type": "Feature", "geometry": {"type": "Polygon", "coordinates": [[[-95.8467421, 36.3232798], [-95.8465978, 36.3232773], [-95.8465955, 36.323361], [-95.8465399, 36.32336], [-95.8465384, 36.3234139], [-95.8467339, 36.3234173], [-95.8467349, 36.3233786], [-95.8467705, 36.3233792], [-95.846772, 36.3233226], [-95.846741, 36.3233221], [-95.8467421, 36.3232798]]]}, "properties": {"osm_id": 1216328409, "building": "house", "name": "", "height": null, "height_m": null, "levels": null, "tract_id": "40143005810", "tract_name": "58.10", "tags": {"building": "house"}}}, {"type": "Feature", "geometry": {"type": "Polygon", "coordinates": [[[-95.8467241, 36.3236104], [-95.8467219, 36.3234591], [-95.8465313, 36.323461], [-95.8465323, 36.3235241], [-95.8465726, 36.3235237], [-95.8465739, 36.3236118], [-95.8467241, 36.3236104]]]}, "properties": {"osm_id": 1216328410, "building": "house", "name": "", "height": null, "height_m": null, "levels": null, "tract_id": "40143005810", "tract_name": "58.10", "tags": {"building": "house"}}}, {"type": "Feature", "geometry": {"type": "Polygon", "coordinates": [[[-95.8467542, 36.3236637], [-95.846533, 36.3236641], [-95.8465332, 36.3237363], [-95.8465839, 36.3237362], [-95.846584, 36.3238061], [-95.8467545, 36.3238058], [-95.8467542, 36.3236637]]]}, "properties": {"osm_id": 1216328411, "building": "house", "name": "", "height": null, "height_m": null, "levels": null, "tract_id": "40143005810", "tract_name": "58.10", "tags": {"building": "house"}}}, {"type": "Feature", "geometry": {"type": "Polygon", "coordinates": [[[-95.8467511, 36.3238457], [-95.8467072, 36.3238451], [-95.8467064, 36.3238686], [-95.8465657, 36.3238647], [-95.8465665, 36.3239191], [-95.8465365, 36.3239204], [-95.846534, 36.3239852], [-95.8467479, 36.3239833], [-95.8467511, 36.3238457]]]}, "properties": {"osm_id": 1216328412, "building": "house", "name": "", "height": null, "height_m": null, "levels": null, "tract_id": "40143005810", "tract_name": "58.10", "tags": {"building": "house"}}}, {"type": "Feature", "geometry": {"type": "Polygon", "coordinates": [[[-95.8467383, 36.3240276], [-95.8465984, 36.3240273], [-95.8465982, 36.3241045], [-95.8465364, 36.3241044], [-95.8465362, 36.3241669], [-95.8467379, 36.3241672], [-95.846738, 36.324124], [-95.8467672, 36.3241241], [-95.8467673, 36.3240665], [-95.8467382, 36.3240665], [-95.8467383, 36.3240276]]]}, "properties": {"osm_id": 1216328413, "building": "house", "name": "", "height": null, "height_m": null, "levels": null, "tract_id": "40143005810", "tract_name": "58.10", "tags": {"building": "house"}}}, {"type": "Feature", "geometry": {"type": "Polygon", "coordinates": [[[-95.8467474, 36.3242622], [-95.846717, 36.324261], [-95.8467175, 36.3242178], [-95.8465559, 36.3242185], [-95.8465545, 36.3242795], [-95.8465335, 36.3242791], [-95.8465372, 36.324369], [-95.8466096, 36.324369], [-95.8466096, 36.3243464], [-95.8467483, 36.3243483], [-95.8467474, 36.3242622]]]}, "properties": {"osm_id": 1216328414, "building": "house", "name": "", "height": null, "height_m": null, "levels": null, "tract_id": "40143005810", "tract_name": "58.10", "tags": {"building": "house"}}}, {"type": "Feature", "geometry": {"type": "Polygon", "coordinates": [[[-95.8467525, 36.324407], [-95.846562, 36.3244085], [-95.8465648, 36.3244751], [-95.8465377, 36.3244751], [-95.8465377, 36.324544], [-95.8467502, 36.3245425], [-95.8467525, 36.324407]]]}, "properties": {"osm_id": 1216328415, "building": "house", "name": "", "height": null, "height_m": null, "levels": null, "tract_id": "40143005810", "tract_name": "58.10", "tags": {"building": "house"}}}, {"type": "Feature", "geometry": {"type": "Polygon", "coordinates": [[[-95.8467839, 36.3246471], [-95.8465591, 36.324616], [-95.8465298, 36.3247532], [-95.8466062, 36.3247638], [-95.8466114, 36.3247394], [-95.8467599, 36.3247599], [-95.8467839, 36.3246471]]]}, "properties": {"osm_id": 1216328416, "building": "house", "name": "", "height": null, "height_m": null, "levels": null, "tract_id": "40143005810", "tract_name": "58.10", "tags": {"building": "house"}}}, {"type": "Feature", "geometry": {"type": "Polygon", "coordinates": [[[-95.8465344, 36.3248988], [-95.8465825, 36.3248194], [-95.8467287, 36.3248702], [-95.8466549, 36.3250053], [-95.8464714, 36.3249439], [-95.8464947, 36.3248871], [-95.8465344, 36.3248988]]]}, "properties": {"osm_id": 1216328417, "building": "house", "name": "", "height": null, "height_m": null, "levels": null, "tract_id": "40143005810", "tract_name": "58.10", "tags": {"building": "house"}}}, {"type": "Feature", "geometry": {"type": "Polygon", "coordinates": [[[-95.846447, 36.3249771], [-95.8464155, 36.3250359], [-95.84645, 36.3250478], [-95.8464184, 36.3251068], [-95.8465375, 36.3251481], [-95.846556, 36.3251136], [-95.8466251, 36.3251376], [-95.8466696, 36.3250544], [-95.846447, 36.3249771]]]}, "properties": {"osm_id": 1216328418, "building": "house", "name": "", "height": null, "height_m": null, "levels": null, "tract_id": "40143005810", "tract_name": "58.10", "tags": {"building": "house"}}}, {"type": "Feature", "geometry": {"type": "Polygon", "coordinates": [[[-95.8400625, 36.3228682], [-95.8398092, 36.3228673], [-95.8398082, 36.3229443], [-95.8400614, 36.3229434], [-95.8400625, 36.3228682]]]}, "properties": {"osm_id": 1216334176, "building": "yes", "name": "", "height": null, "height_m": null, "levels": null, "tract_id": "40143005810", "tract_name": "58.10", "tags": {"building": "yes"}}}, {"type": "Feature", "geometry": {"type": "Polygon", "coordinates": [[[-95.8400442, 36.323035], [-95.8395164, 36.3230342], [-95.839511, 36.3231984], [-95.8400474, 36.3232027], [-95.8400442, 36.323035]]]}, "properties": {"osm_id": 1216334177, "building": "yes", "name": "", "height": null, "height_m": null, "levels": null, "tract_id": "40143005810", "tract_name": "58.10", "tags": {"building": "yes"}}}, {"type": "Feature", "geometry": {"type": "Polygon", "coordinates": [[[-95.8398103, 36.3238683], [-95.8394756, 36.323864], [-95.8394799, 36.3239548], [-95.839805, 36.3239574], [-95.8398103, 36.3238683]]]}, "properties": {"osm_id": 1216334178, "building": "yes", "name": "", "height": null, "height_m": null, "levels": null, "tract_id": "40143005810", "tract_name": "58.10", "tags": {"building": "yes"}}}, {"type": "Feature", "geometry": {"type": "Polygon", "coordinates": [[[-95.839595, 36.3232856], [-95.8393937, 36.3232855], [-95.8393937, 36.3233604], [-95.8394354, 36.3233604], [-95.8394354, 36.323414], [-95.8395538, 36.323414], [-95.8395538, 36.323358], [-95.8395949, 36.323358], [-95.839595, 36.3232856]]]}, "properties": {"osm_id": 1216334179, "building": "yes", "name": "", "height": null, "height_m": null, "levels": null, "tract_id": "40143005810", "tract_name": "58.10", "tags": {"building": "yes"}}}, {"type": "Feature", "geometry": {"type": "Polygon", "coordinates": [[[-95.8395914, 36.3234381], [-95.8393661, 36.3234401], [-95.839367, 36.3235027], [-95.83942, 36.3235022], [-95.8394208, 36.3235622], [-95.8395664, 36.323561], [-95.8395656, 36.323502], [-95.8395922, 36.3235018], [-95.8395914, 36.3234381]]]}, "properties": {"osm_id": 1216334180, "building": "yes", "name": "", "height": null, "height_m": null, "levels": null, "tract_id": "40143005810", "tract_name": "58.10", "tags": {"building": "yes"}}}, {"type": "Feature", "geometry": {"type": "Polygon", "coordinates": [[[-95.8398808, 36.3233651], [-95.8400479, 36.323362], [-95.8400507, 36.3234587], [-95.8400689, 36.3234584], [-95.8400711, 36.3235366], [-95.8399732, 36.3235385], [-95.839974, 36.3235664], [-95.8399025, 36.3235678], [-95.8399016, 36.3235353], [-95.8398327, 36.3235366], [-95.8398306, 36.3234621], [-95.8398835, 36.3234611], [-95.8398808, 36.3233651]]]}, "properties": {"osm_id": 1216334181, "building": "yes", "name": "", "height": null, "height_m": null, "levels": null, "tract_id": "40143005810", "tract_name": "58.10", "tags": {"building": "yes"}}}, {"type": "Feature", "geometry": {"type": "Polygon", "coordinates": [[[-95.8394598, 36.3241749], [-95.8392719, 36.3241737], [-95.839271, 36.3242616], [-95.8394589, 36.3242628], [-95.8394598, 36.3241749]]]}, "properties": {"osm_id": 1216334182, "building": "yes", "name": "", "height": null, "height_m": null, "levels": null, "tract_id": "40143005810", "tract_name": "58.10", "tags": {"building": "yes"}}}, {"type": "Feature", "geometry": {"type": "Polygon", "coordinates": [[[-95.8411615, 36.3227496], [-95.8410629, 36.3227509], [-95.8410608, 36.3226442], [-95.8408965, 36.3226464], [-95.8408946, 36.3225556], [-95.8411575, 36.3225521], [-95.8411615, 36.3227496]]]}, "properties": {"osm_id": 1216334183, "building": "house", "name": "", "height": null, "height_m": null, "levels": null, "tract_id": "40143005810", "tract_name": "58.10", "tags": {"building": "house"}}}, {"type": "Feature", "geometry": {"type": "Polygon", "coordinates": [[[-95.8418151, 36.3240974], [-95.841688, 36.3241003], [-95.8416908, 36.3241799], [-95.8418179, 36.324177], [-95.8418151, 36.3240974]]]}, "properties": {"osm_id": 1216334184, "building": "house", "name": "", "height": null, "height_m": null, "levels": null, "tract_id": "40143005810", "tract_name": "58.10", "tags": {"building": "house"}}}, {"type": "Feature", "geometry": {"type": "Polygon", "coordinates": [[[-95.8296063, 36.322925], [-95.8295064, 36.3229243], [-95.8293915, 36.3229235], [-95.8293859, 36.3228512], [-95.8294681, 36.3228512], [-95.8294662, 36.3227504], [-95.8293578, 36.3227504], [-95.829355, 36.3227188], [-95.8293803, 36.3227188], [-95.8293812, 36.3225593], [-95.8294774, 36.3225638], [-95.8294774, 36.3225329], [-95.8295353, 36.3225337], [-95.8295372, 36.3225653], [-95.8296362, 36.3225683], [-95.8296362, 36.3227519], [-95.8295316, 36.3227489], [-95.8295332, 36.3227926], [-95.8295353, 36.3228482], [-95.8296063, 36.3228497], [-95.8296063, 36.322925]]]}, "properties": {"osm_id": 1236448158, "building": "yes", "name": "Oklahoma Central Credit Union", "height": null, "height_m": null, "levels": null, "tract_id": "40143005810", "tract_name": "58.10", "tags": {"addr:city": "Owasso", "addr:housenumber": "12901", "addr:postcode": "74021", "addr:state": "OK", "addr:street": "East 116th Street North", "building": "yes", "name": "Oklahoma Central Credit Union"}}}, {"type": "Feature", "geometry": {"type": "Polygon", "coordinates": [[[-95.8291195, 36.322685], [-95.8289531, 36.322687], [-95.8289408, 36.3224874], [-95.829117, 36.3224845], [-95.8291195, 36.322685]]]}, "properties": {"osm_id": 1236448159, "building": "yes", "name": "Medwise Urgent Care", "height": null, "height_m": null, "levels": null, "tract_id": "40143005810", "tract_name": "58.10", "tags": {"addr:city": "Owasso", "addr:housenumber": "12939", "addr:postcode": "74021", "addr:state": "OK", "addr:street": "East 116th Street North", "amenity": "clinic", "building": "yes", "healthcare": "clinic", "name": "Medwise Urgent Care", "opening_hours": "Sa-Su 10:00-18:00;Mo-Fr 08:00-20:00", "phone": "+1 918 727 2800", "website": "https://locations.medwiseuc.com/ok/collinsville/12939-east-116th-street-north"}}}, {"type": "Feature", "geometry": {"type": "Polygon", "coordinates": [[[-95.8298711, 36.3306627], [-95.8296416, 36.3306637], [-95.8296411, 36.3305977], [-95.8297246, 36.3305974], [-95.8297244, 36.3305658], [-95.829709, 36.3305658], [-95.8297089, 36.3305418], [-95.8298709, 36.3305411], [-95.8298712, 36.3305858], [-95.8299196, 36.3305856], [-95.82992, 36.330646], [-95.829871, 36.3306462], [-95.8298711, 36.3306627]]]}, "properties": {"osm_id": 1241803935, "building": "house", "name": "", "height": null, "height_m": null, "levels": null, "tract_id": "40143005810", "tract_name": "58.10", "tags": {"building": "house"}}}, {"type": "Feature", "geometry": {"type": "Polygon", "coordinates": [[[-95.8573655, 36.3263583], [-95.8572134, 36.3264095], [-95.8571582, 36.326303], [-95.8572264, 36.3262801], [-95.8571966, 36.3262225], [-95.8572805, 36.3261943], [-95.8573655, 36.3263583]]]}, "properties": {"osm_id": 1241988570, "building": "house", "name": "", "height": null, "height_m": null, "levels": null, "tract_id": "40143005810", "tract_name": "58.10", "tags": {"building": "house"}}}, {"type": "Feature", "geometry": {"type": "Polygon", "coordinates": [[[-95.8575796, 36.3262889], [-95.857411, 36.3263464], [-95.8573453, 36.3262213], [-95.8574222, 36.326195], [-95.8573964, 36.326146], [-95.8574882, 36.3261147], [-95.8575796, 36.3262889]]]}, "properties": {"osm_id": 1241988571, "building": "house", "name": "", "height": null, "height_m": null, "levels": null, "tract_id": "40143005810", "tract_name": "58.10", "tags": {"building": "house"}}}, {"type": "Feature", "geometry": {"type": "Polygon", "coordinates": [[[-95.8577559, 36.3261795], [-95.8575927, 36.3262354], [-95.8575441, 36.3261433], [-95.8576322, 36.3261131], [-95.8576134, 36.3260775], [-95.8576885, 36.3260518], [-95.8577559, 36.3261795]]]}, "properties": {"osm_id": 1241988572, "building": "house", "name": "", "height": null, "height_m": null, "levels": null, "tract_id": "40143005810", "tract_name": "58.10", "tags": {"building": "house"}}}, {"type": "Feature", "geometry": {"type": "Polygon", "coordinates": [[[-95.857926, 36.3261787], [-95.8578217, 36.3262159], [-95.8577258, 36.3260414], [-95.8578011, 36.3260146], [-95.857831, 36.326069], [-95.8578581, 36.3260593], [-95.8578504, 36.3260454], [-95.8579119, 36.3260234], [-95.8579729, 36.3261343], [-95.8579133, 36.3261556], [-95.857926, 36.3261787]]]}, "properties": {"osm_id": 1241988573, "building": "house", "name": "", "height": null, "height_m": null, "levels": null, "tract_id": "40143005810", "tract_name": "58.10", "tags": {"building": "house"}}}, {"type": "Feature", "geometry": {"type": "Polygon", "coordinates": [[[-95.8575527, 36.3266482], [-95.857486, 36.3266198], [-95.8575007, 36.3265973], [-95.8574799, 36.3265884], [-95.8574571, 36.3266233], [-95.8573831, 36.3265919], [-95.857477, 36.3264485], [-95.8575212, 36.3264673], [-95.8575308, 36.3264527], [-95.8575934, 36.3264793], [-95.857585, 36.3264921], [-95.8576022, 36.3264994], [-95.8576083, 36.3265119], [-95.8576347, 36.3265231], [-95.8575527, 36.3266482]]]}, "properties": {"osm_id": 1241988574, "building": "house", "name": "", "height": null, "height_m": null, "levels": null, "tract_id": "40143005810", "tract_name": "58.10", "tags": {"building": "house"}}}, {"type": "Feature", "geometry": {"type": "Polygon", "coordinates": [[[-95.8579237, 36.3266669], [-95.8578318, 36.3266836], [-95.8577913, 36.3265389], [-95.8578793, 36.3265229], [-95.8578729, 36.3265], [-95.8579251, 36.3264905], [-95.8579326, 36.3265174], [-95.8579419, 36.3265187], [-95.8579753, 36.3266385], [-95.8579187, 36.3266488], [-95.8579237, 36.3266669]]]}, "properties": {"osm_id": 1241988575, "building": "house", "name": "", "height": null, "height_m": null, "levels": null, "tract_id": "40143005810", "tract_name": "58.10", "tags": {"building": "house"}}}, {"type": "Feature", "geometry": {"type": "Polygon", "coordinates": [[[-95.8581269, 36.3264649], [-95.8579744, 36.3264234], [-95.8579963, 36.3263711], [-95.8579632, 36.3263621], [-95.8579956, 36.3262851], [-95.8581307, 36.3263219], [-95.8581244, 36.3263369], [-95.8581367, 36.3263437], [-95.8581137, 36.3263986], [-95.8581505, 36.3264086], [-95.8581269, 36.3264649]]]}, "properties": {"osm_id": 1241988576, "building": "house", "name": "", "height": null, "height_m": null, "levels": null, "tract_id": "40143005810", "tract_name": "58.10", "tags": {"building": "house"}}}, {"type": "Feature", "geometry": {"type": "Polygon", "coordinates": [[[-95.858169, 36.3260384], [-95.8579998, 36.3260968], [-95.8579466, 36.3259967], [-95.8579757, 36.3259867], [-95.8579706, 36.3259771], [-95.8580225, 36.3259592], [-95.858032, 36.325977], [-95.8580439, 36.3259729], [-95.8580226, 36.3259328], [-95.8580988, 36.3259064], [-95.858169, 36.3260384]]]}, "properties": {"osm_id": 1241988577, "building": "house", "name": "", "height": null, "height_m": null, "levels": null, "tract_id": "40143005810", "tract_name": "58.10", "tags": {"building": "house"}}}, {"type": "Feature", "geometry": {"type": "Polygon", "coordinates": [[[-95.8583471, 36.3259712], [-95.858221, 36.3260168], [-95.8581514, 36.3258919], [-95.8582184, 36.3258677], [-95.8582252, 36.3258798], [-95.8582843, 36.3258584], [-95.8583471, 36.3259712]]]}, "properties": {"osm_id": 1241988578, "building": "house", "name": "", "height": null, "height_m": null, "levels": null, "tract_id": "40143005810", "tract_name": "58.10", "tags": {"building": "house"}}}, {"type": "Feature", "geometry": {"type": "Polygon", "coordinates": [[[-95.8259363, 36.3227281], [-95.8256963, 36.3227281], [-95.8256963, 36.3226438], [-95.8259363, 36.3226438], [-95.8259363, 36.3227281]]]}, "properties": {"osm_id": 1263589164, "building": "industrial", "name": "", "height": null, "height_m": null, "levels": null, "tract_id": "40143005810", "tract_name": "58.10", "tags": {"building": "industrial", "shop": "car_repair"}}}, {"type": "Feature", "geometry": {"type": "Polygon", "coordinates": [[[-95.8273914, 36.335125], [-95.8273126, 36.3351246], [-95.8273136, 36.3349174], [-95.8274523, 36.3349183], [-95.8274478, 36.3351143], [-95.8273914, 36.3351143], [-95.8273914, 36.335125]]]}, "properties": {"osm_id": 1424868269, "building": "house", "name": "", "height": null, "height_m": null, "levels": null, "tract_id": "40143005810", "tract_name": "58.10", "tags": {"addr:city": "Collinsville", "addr:housenumber": "13202", "addr:postcode": "74021", "addr:state": "OK", "addr:street": "East 125th Street North", "building": "house", "house": "residential"}}}, {"type": "Feature", "geometry": {"type": "Polygon", "coordinates": [[[-95.827032, 36.3351213], [-95.8269497, 36.3351206], [-95.8269523, 36.3349766], [-95.8271001, 36.3349837], [-95.8270948, 36.3351106], [-95.827032, 36.3351099], [-95.827032, 36.3351213]]]}, "properties": {"osm_id": 1424868270, "building": "house", "name": "", "height": null, "height_m": null, "levels": null, "tract_id": "40143005810", "tract_name": "58.10", "tags": {"addr:city": "Collinsville", "addr:housenumber": "13206", "addr:postcode": "74021", "addr:state": "OK", "addr:street": "East 125th Street North", "building": "house", "house": "residential"}}}, {"type": "Feature", "geometry": {"type": "Polygon", "coordinates": [[[-95.827463, 36.3363288], [-95.8274597, 36.3362056], [-95.8276662, 36.3362061], [-95.8276675, 36.3362672], [-95.8275991, 36.3362688], [-95.8275991, 36.3363277], [-95.827463, 36.3363288]]]}, "properties": {"osm_id": 1424868271, "building": "house", "name": "", "height": null, "height_m": null, "levels": null, "tract_id": "40143005810", "tract_name": "58.10", "tags": {"addr:city": "Collinsville", "addr:housenumber": "12511", "addr:postcode": "74021", "addr:state": "OK", "addr:street": "North 132nd East Avenue", "building": "house", "house": "residential"}}}, {"type": "Feature", "geometry": {"type": "Polygon", "coordinates": [[[-95.827662, 36.3361413], [-95.8275848, 36.3361417], [-95.8275838, 36.3361135], [-95.8274562, 36.3361155], [-95.8274552, 36.3360001], [-95.8276412, 36.3360009], [-95.8276412, 36.3360332], [-95.8276625, 36.3360328], [-95.827662, 36.3361413]]]}, "properties": {"osm_id": 1424868272, "building": "house", "name": "", "height": null, "height_m": null, "levels": null, "tract_id": "40143005810", "tract_name": "58.10", "tags": {"addr:city": "Collinsville", "addr:housenumber": "12509", "addr:postcode": "74021", "addr:state": "OK", "addr:street": "North 132nd East Avenue", "building": "house", "house": "residential"}}}, {"type": "Feature", "geometry": {"type": "Polygon", "coordinates": [[[-95.8274688, 36.3359564], [-95.8274665, 36.3359024], [-95.8274588, 36.3359018], [-95.8274596, 36.3358397], [-95.8276568, 36.3358422], [-95.8276568, 36.3358931], [-95.8276714, 36.3358937], [-95.8276706, 36.3359576], [-95.8274688, 36.3359564]]]}, "properties": {"osm_id": 1424868273, "building": "house", "name": "", "height": null, "height_m": null, "levels": null, "tract_id": "40143005810", "tract_name": "58.10", "tags": {"addr:city": "Collinsville", "addr:housenumber": "12507", "addr:postcode": "74021", "addr:state": "OK", "addr:street": "North 132nd East Avenue", "building": "house", "house": "residential"}}}, {"type": "Feature", "geometry": {"type": "Polygon", "coordinates": [[[-95.82814, 36.3361508], [-95.8280612, 36.3361518], [-95.828063, 36.3363243], [-95.8281847, 36.3363254], [-95.8281847, 36.3362969], [-95.8282351, 36.3362976], [-95.8282342, 36.3361668], [-95.8281404, 36.3361664], [-95.82814, 36.3361508]]]}, "properties": {"osm_id": 1425906661, "building": "house", "name": "", "height": null, "height_m": null, "levels": null, "tract_id": "40143005810", "tract_name": "58.10", "tags": {"addr:city": "Collinsville", "addr:housenumber": "13103", "addr:postcode": "74021", "addr:state": "OK", "addr:street": "East 125th Place North", "building": "house", "house": "residential"}}}]}