{"type": "FeatureCollection", "features": [{"type": "Feature", "geometry": {"type": "Polygon", "coordinates": [[[-97.492185, 35.2197717], [-97.4921843, 35.2196886], [-97.492139, 35.2196888], [-97.4921415, 35.2195259], [-97.4921736, 35.2195253], [-97.4921761, 35.2194067], [-97.4923748, 35.2194057], [-97.4923731, 35.2187693], [-97.4908221, 35.2187783], [-97.4908277, 35.219425], [-97.4906507, 35.2195038], [-97.4906558, 35.2196919], [-97.4905442, 35.2196939], [-97.4905418, 35.2196034], [-97.4901141, 35.2196111], [-97.4900497, 35.2196966], [-97.4900595, 35.219736], [-97.4898748, 35.2197668], [-97.489864, 35.2197239], [-97.489341, 35.2198119], [-97.4893225, 35.2197391], [-97.4891992, 35.2197602], [-97.4891805, 35.2196877], [-97.4886047, 35.2197874], [-97.4886216, 35.219852], [-97.4884611, 35.2198803], [-97.4885108, 35.2200679], [-97.4882474, 35.2201146], [-97.4883039, 35.2203266], [-97.4885642, 35.2202802], [-97.4886654, 35.2206587], [-97.4887467, 35.2206442], [-97.488703, 35.2204817], [-97.4895272, 35.2203334], [-97.4895447, 35.2203979], [-97.4899828, 35.220319], [-97.4900396, 35.2203186], [-97.4900411, 35.2204841], [-97.4901946, 35.2204831], [-97.4901937, 35.2203904], [-97.4903613, 35.2203893], [-97.4903597, 35.2202347], [-97.4904514, 35.2202341], [-97.4904532, 35.2203948], [-97.4904909, 35.2203945], [-97.4904923, 35.2205006], [-97.490245, 35.2205027], [-97.4902461, 35.2205868], [-97.4899782, 35.2205892], [-97.4899825, 35.2209019], [-97.4917988, 35.2208886], [-97.4917956, 35.2204035], [-97.4924255, 35.2203976], [-97.492426, 35.220159], [-97.4924694, 35.2201585], [-97.492478, 35.2206402], [-97.4926224, 35.220639], [-97.4926217, 35.2205837], [-97.4931905, 35.2205794], [-97.4931807, 35.2196983], [-97.4924571, 35.219702], [-97.4924557, 35.2197696], [-97.492185, 35.2197717]]]}, "properties": {"osm_id": 206599531, "building": "retail", "name": "Sooner Mall", "height": null, "height_m": null, "levels": null, "tract_id": "40027201512", "tract_name": "2015.12", "tags": {"addr:city": "Norman", "addr:housenumber": "3301", "addr:postcode": "73072", "addr:state": "OK", "addr:street": "West Main Street", "building": "retail", "name": "Sooner Mall", "phone": "+1-405-360-0341", "shop": "mall", "website": "https://www.soonermall.com/en.html", "wikidata": "Q7562702"}}}, {"type": "Feature", "geometry": {"type": "Polygon", "coordinates": [[[-97.4864101, 35.2305316], [-97.4864083, 35.2301325], [-97.486633, 35.2301318], [-97.486634, 35.2303571], [-97.4869808, 35.2303561], [-97.4869816, 35.2305299], [-97.4864101, 35.2305316]]]}, "properties": {"osm_id": 230910052, "building": "hotel", "name": "", "height": null, "height_m": null, "levels": null, "tract_id": "40027201512", "tract_name": "2015.12", "tags": {"building": "hotel", "shop": "vacant"}}}, {"type": "Feature", "geometry": {"type": "Polygon", "coordinates": [[[-97.4864993, 35.2211703], [-97.4868949, 35.2211657], [-97.4868928, 35.2210487], [-97.4868201, 35.2210496], [-97.4868183, 35.220948], [-97.4865944, 35.2209506], [-97.4865942, 35.2209416], [-97.4864967, 35.2209428], [-97.4864972, 35.2209677], [-97.4863956, 35.2209689], [-97.4863966, 35.2210271], [-97.4864967, 35.221026], [-97.4864993, 35.2211703]]]}, "properties": {"osm_id": 323586208, "building": "yes", "name": "Red Lobster", "height": null, "height_m": null, "levels": null, "tract_id": "40027201512", "tract_name": "2015.12", "tags": {"amenity": "restaurant", "brand": "Red Lobster", "brand:wikidata": "Q846301", "building": "yes", "cuisine": "seafood", "name": "Red Lobster"}}}, {"type": "Feature", "geometry": {"type": "Polygon", "coordinates": [[[-97.4939647, 35.2208655], [-97.4940157, 35.2208649], [-97.4940183, 35.2210066], [-97.4939641, 35.2210073], [-97.4939666, 35.2211425], [-97.4938184, 35.2211443], [-97.4938159, 35.2210084], [-97.4937141, 35.2210096], [-97.4937122, 35.220906], [-97.4936692, 35.2209065], [-97.493668, 35.2208391], [-97.4937187, 35.2208385], [-97.4937189, 35.2208484], [-97.4937545, 35.220848], [-97.4937541, 35.2208262], [-97.493827, 35.2208253], [-97.4938274, 35.2208466], [-97.4939643, 35.2208449], [-97.4939647, 35.2208655]]]}, "properties": {"osm_id": 323589904, "building": "yes", "name": "Tinker Federal Credit Union", "height": null, "height_m": null, "levels": null, "tract_id": "40027201512", "tract_name": "2015.12", "tags": {"amenity": "bank", "building": "yes", "name": "Tinker Federal Credit Union"}}}, {"type": "Feature", "geometry": {"type": "Polygon", "coordinates": [[[-97.4950308, 35.2204186], [-97.495039, 35.2207925], [-97.495693, 35.2207829], [-97.4956907, 35.2206776], [-97.4956486, 35.2206667], [-97.4956423, 35.2203803], [-97.4952258, 35.2203864], [-97.4952264, 35.2204157], [-97.4950308, 35.2204186]]]}, "properties": {"osm_id": 323590085, "building": "yes", "name": "United States Post Office", "height": null, "height_m": null, "levels": null, "tract_id": "40027201512", "tract_name": "2015.12", "tags": {"amenity": "post_office", "brand": "United States Post Office", "brand:wikidata": "Q668687", "building": "yes", "name": "United States Post Office", "operator": "United States Postal Service", "operator:short": "USPS", "operator:type": "public", "operator:website": "https://www.usps.com", "operator:wikidata": "Q668687", "operator:wikipedia": "en:United States Postal Service", "short_name": "USPS"}}}, {"type": "Feature", "geometry": {"type": "Polygon", "coordinates": [[[-97.4956138, 35.2323028], [-97.4953397, 35.2323047], [-97.4953423, 35.2325554], [-97.4956164, 35.2325535], [-97.495616, 35.2325176], [-97.4956138, 35.2323028]]]}, "properties": {"osm_id": 323590657, "building": "yes", "name": "Mazzio's", "height": null, "height_m": null, "levels": null, "tract_id": "40027201512", "tract_name": "2015.12", "tags": {"amenity": "restaurant", "brand": "Mazzio's", "brand:wikidata": "Q3853292", "building": "yes", "cuisine": "pizza", "name": "Mazzio's"}}}, {"type": "Feature", "geometry": {"type": "Polygon", "coordinates": [[[-97.4891754, 35.2311291], [-97.4888224, 35.2314322], [-97.4886798, 35.2313213], [-97.4886202, 35.2313725], [-97.4885043, 35.2312825], [-97.4885106, 35.2312682], [-97.4883258, 35.2311591], [-97.4882884, 35.2310643], [-97.4880937, 35.2309103], [-97.48801, 35.2307951], [-97.4880418, 35.2307678], [-97.4879232, 35.2306756], [-97.4882409, 35.2304028], [-97.4891754, 35.2311291]]]}, "properties": {"osm_id": 323737185, "building": "yes", "name": "Regal Spotlight 14", "height": null, "height_m": null, "levels": null, "tract_id": "40027201512", "tract_name": "2015.12", "tags": {"addr:city": "Norman", "addr:housenumber": "1100", "addr:postcode": "73072", "addr:state": "OK", "addr:street": "North Interstate Drive", "amenity": "cinema", "brand": "Regal Cinemas", "brand:wikidata": "Q835638", "building": "yes", "name": "Regal Spotlight 14", "short_name": "Regal", "website": "https://www.regmovies.com/theatres/regal-spotlight/1628", "wheelchair": "yes", "wikidata": "Q43193591"}}}, {"type": "Feature", "geometry": {"type": "Polygon", "coordinates": [[[-97.4962728, 35.2186001], [-97.4962699, 35.2190145], [-97.4959228, 35.219013], [-97.4959257, 35.2185985], [-97.4962728, 35.2186001]]]}, "properties": {"osm_id": 323921165, "building": "commercial", "name": "", "height": null, "height_m": null, "levels": null, "tract_id": "40027201512", "tract_name": "2015.12", "tags": {"building": "commercial"}}}, {"type": "Feature", "geometry": {"type": "Polygon", "coordinates": [[[-97.4953979, 35.2186216], [-97.4953996, 35.2188132], [-97.4954199, 35.2188131], [-97.4954202, 35.2188423], [-97.4955318, 35.2188417], [-97.4955298, 35.2186208], [-97.4953979, 35.2186216]]]}, "properties": {"osm_id": 323921182, "building": "yes", "name": "Cane's", "height": null, "height_m": null, "levels": null, "tract_id": "40027201512", "tract_name": "2015.12", "tags": {"amenity": "fast_food", "building": "yes", "name": "Cane's"}}}, {"type": "Feature", "geometry": {"type": "Polygon", "coordinates": [[[-97.496188, 35.2192789], [-97.4963578, 35.2192777], [-97.4963661, 35.2200498], [-97.4954007, 35.2200567], [-97.495401, 35.2200878], [-97.4949286, 35.2200911], [-97.4949282, 35.2200533], [-97.4947595, 35.2200545], [-97.4947593, 35.2200301], [-97.4947379, 35.2200232], [-97.4947356, 35.2196382], [-97.4950546, 35.219637], [-97.4950547, 35.2196457], [-97.4951864, 35.2196452], [-97.4951863, 35.2196207], [-97.4953134, 35.2196202], [-97.4953136, 35.2196619], [-97.4953275, 35.2196584], [-97.495583, 35.2196565], [-97.4955846, 35.2198044], [-97.49576, 35.2198031], [-97.4957609, 35.2198876], [-97.4960637, 35.2198854], [-97.4960629, 35.219816], [-97.4961938, 35.219815], [-97.496188, 35.2192789]]]}, "properties": {"osm_id": 323921226, "building": "commercial", "name": "", "height": null, "height_m": null, "levels": null, "tract_id": "40027201512", "tract_name": "2015.12", "tags": {"building": "commercial"}}}, {"type": "Feature", "geometry": {"type": "Polygon", "coordinates": [[[-97.4949519, 35.2187409], [-97.494951, 35.218863], [-97.4949092, 35.2188628], [-97.4949087, 35.2189223], [-97.494908, 35.2190117], [-97.4948201, 35.2190112], [-97.4948206, 35.2189541], [-97.4948, 35.218954], [-97.4948002, 35.2189252], [-97.4948007, 35.2188655], [-97.4947253, 35.2188651], [-97.4947263, 35.2187378], [-97.4947792, 35.218738], [-97.4947793, 35.2187252], [-97.4949171, 35.218726], [-97.494917, 35.2187407], [-97.4949519, 35.2187409]]]}, "properties": {"osm_id": 323921233, "building": "commercial", "name": "", "height": null, "height_m": null, "levels": null, "tract_id": "40027201512", "tract_name": "2015.12", "tags": {"building": "commercial"}}}, {"type": "Feature", "geometry": {"type": "Polygon", "coordinates": [[[-97.4969194, 35.2326292], [-97.4969182, 35.232071], [-97.4967476, 35.2320713], [-97.4967487, 35.2326295], [-97.4969194, 35.2326292]]]}, "properties": {"osm_id": 387613153, "building": "retail", "name": "", "height": null, "height_m": null, "levels": null, "tract_id": "40027201512", "tract_name": "2015.12", "tags": {"building": "retail"}}}, {"type": "Feature", "geometry": {"type": "Polygon", "coordinates": [[[-97.4965067, 35.231448], [-97.4966205, 35.2314477], [-97.4966218, 35.231874], [-97.4962802, 35.2318748], [-97.4962802, 35.2318945], [-97.4961138, 35.2318945], [-97.4961138, 35.2317338], [-97.4960187, 35.231734], [-97.4960174, 35.2313762], [-97.4961526, 35.2313759], [-97.4961527, 35.2314079], [-97.4965067, 35.2314079], [-97.4965067, 35.231448]]]}, "properties": {"osm_id": 390282465, "building": "commercial", "name": "", "height": null, "height_m": null, "levels": null, "tract_id": "40027201512", "tract_name": "2015.12", "tags": {"building": "commercial"}}}, {"type": "Feature", "geometry": {"type": "Polygon", "coordinates": [[[-97.496209, 35.2310475], [-97.4962049, 35.2310475], [-97.4962049, 35.2310148], [-97.4961469, 35.2310148], [-97.4961469, 35.2309708], [-97.4961428, 35.2309742], [-97.4960116, 35.230866], [-97.4959468, 35.230866], [-97.4959468, 35.2308186], [-97.4952967, 35.2308186], [-97.4952967, 35.2308908], [-97.4950897, 35.2308908], [-97.4950897, 35.2306379], [-97.4950888, 35.2306379], [-97.4950883, 35.2305049], [-97.4954356, 35.230504], [-97.4954358, 35.2305475], [-97.4956981, 35.2305469], [-97.4956983, 35.2305999], [-97.4959468, 35.2305999], [-97.4959468, 35.2305706], [-97.4962049, 35.2305706], [-97.4962049, 35.2305683], [-97.496503, 35.2305683], [-97.496503, 35.2306597], [-97.496503, 35.2310339], [-97.4965486, 35.2310339], [-97.4965486, 35.2312504], [-97.4965482, 35.2312504], [-97.4965485, 35.2313442], [-97.4961694, 35.2313451], [-97.496169, 35.231229], [-97.496209, 35.2312289], [-97.496209, 35.2310475]]]}, "properties": {"osm_id": 390282467, "building": "commercial", "name": "", "height": null, "height_m": null, "levels": null, "tract_id": "40027201512", "tract_name": "2015.12", "tags": {"building": "commercial"}}}, {"type": "Feature", "geometry": {"type": "Polygon", "coordinates": [[[-97.4960206, 35.2325527], [-97.4958825, 35.2325548], [-97.4958829, 35.2325177], [-97.495616, 35.2325176], [-97.4956138, 35.2323028], [-97.4956156, 35.2318592], [-97.4955915, 35.2318581], [-97.4955928, 35.231799], [-97.4956679, 35.2317979], [-97.4956706, 35.2318099], [-97.495967, 35.2318099], [-97.4959657, 35.2320104], [-97.4960153, 35.2320104], [-97.4960166, 35.2323051], [-97.4958197, 35.2323074], [-97.4958195, 35.2323664], [-97.4960206, 35.2323664], [-97.4960206, 35.2325527]]]}, "properties": {"osm_id": 390286614, "building": "commercial", "name": "", "height": null, "height_m": null, "levels": null, "tract_id": "40027201512", "tract_name": "2015.12", "tags": {"building": "commercial"}}}, {"type": "Feature", "geometry": {"type": "Polygon", "coordinates": [[[-97.495136, 35.2325805], [-97.4948135, 35.2325801], [-97.4948138, 35.232429], [-97.494988, 35.2324292], [-97.4951363, 35.2324293], [-97.495136, 35.2325805]]]}, "properties": {"osm_id": 390287109, "building": "yes", "name": "Chase", "height": null, "height_m": null, "levels": null, "tract_id": "40027201512", "tract_name": "2015.12", "tags": {"amenity": "bank", "brand": "Chase", "brand:wikidata": "Q524629", "building": "yes", "check_date": "2024-09-17", "check_date:opening_hours": "2024-09-17", "drive_through": "yes", "name": "Chase", "opening_hours": "Mo-Fr 09:00-17:00; Sa 09:00-13:00; Su closed", "phone": "+1 405-292-6550", "website": "https://locator.chase.com/ok/norman/3600-w-robinson-st"}}}, {"type": "Feature", "geometry": {"type": "Polygon", "coordinates": [[[-97.4948136, 35.2322339], [-97.4948138, 35.232429], [-97.494988, 35.2324292], [-97.494988, 35.2323708], [-97.4949122, 35.2322342], [-97.4948136, 35.2322339]]]}, "properties": {"osm_id": 390287110, "building": "roof", "name": "", "height": null, "height_m": null, "levels": null, "tract_id": "40027201512", "tract_name": "2015.12", "tags": {"building": "roof", "layer": "1"}}}, {"type": "Feature", "geometry": {"type": "Polygon", "coordinates": [[[-97.4868417, 35.2282992], [-97.4865359, 35.2282992], [-97.4865359, 35.228584], [-97.4868417, 35.228584], [-97.4868417, 35.2282992]]]}, "properties": {"osm_id": 436975671, "building": "yes", "name": "Cracker Barrel", "height": null, "height_m": null, "levels": null, "tract_id": "40027201512", "tract_name": "2015.12", "tags": {"addr:city": "Norman", "addr:full": "800 North Interstate Drive", "addr:housenumber": "800", "addr:postcode": "73072", "addr:state": "OK", "addr:street": "North Interstate Drive", "amenity": "restaurant", "brand": "Cracker Barrel", "brand:wikidata": "Q4492609", "building": "yes", "cuisine": "american", "name": "Cracker Barrel", "official_name": "Cracker Barrel Old Country Store", "opening_hours": "Su-Th 06:00-22:00; Fr-Sa 06:00-23:00", "phone": "405-360-3117", "ref": "181", "wheelchair": "limited"}}}, {"type": "Feature", "geometry": {"type": "Polygon", "coordinates": [[[-97.4865854, 35.2293962], [-97.4865819, 35.2292196], [-97.4862774, 35.2292236], [-97.4862781, 35.2292591], [-97.4862516, 35.2292594], [-97.4862534, 35.2293483], [-97.4862735, 35.229348], [-97.4862745, 35.2293972], [-97.4863501, 35.2293962], [-97.4863505, 35.2294162], [-97.4864731, 35.2294146], [-97.4864727, 35.2293977], [-97.4865854, 35.2293962]]]}, "properties": {"osm_id": 866408787, "building": "yes", "name": "Outback Steakhouse", "height": null, "height_m": null, "levels": null, "tract_id": "40027201512", "tract_name": "2015.12", "tags": {"addr:city": "Norman", "addr:housenumber": "860", "addr:postcode": "73072", "addr:state": "OK", "addr:street": "North Interstate Drive", "amenity": "restaurant", "brand": "Outback Steakhouse", "brand:wikidata": "Q1064893", "building": "yes", "cuisine": "american;steak", "name": "Outback Steakhouse"}}}, {"type": "Feature", "geometry": {"type": "Polygon", "coordinates": [[[-97.4876805, 35.2199148], [-97.4878666, 35.2200636], [-97.4879546, 35.2200047], [-97.4880027, 35.219905], [-97.4878366, 35.219766], [-97.4876805, 35.2199148]]]}, "properties": {"osm_id": 947034940, "building": "yes", "name": "", "height": null, "height_m": null, "levels": null, "tract_id": "40027201512", "tract_name": "2015.12", "tags": {"building": "yes"}}}, {"type": "Feature", "geometry": {"type": "Polygon", "coordinates": [[[-97.486249, 35.228069], [-97.486325, 35.228069], [-97.486325, 35.228109], [-97.486673, 35.228109], [-97.486673, 35.228033], [-97.486735, 35.228033], [-97.486735, 35.227889], [-97.486366, 35.227888], [-97.486366, 35.227942], [-97.486249, 35.227942], [-97.486249, 35.228069]]]}, "properties": {"osm_id": 947034946, "building": "yes", "name": "Chuy's", "height": null, "height_m": null, "levels": null, "tract_id": "40027201512", "tract_name": "2015.12", "tags": {"amenity": "restaurant", "brand": "Chuy's", "brand:wikidata": "Q5118415", "building": "yes", "cuisine": "tex-mex", "name": "Chuy's", "source": "microsoft/BuildingFootprints"}}}, {"type": "Feature", "geometry": {"type": "Polygon", "coordinates": [[[-97.4879117, 35.2283434], [-97.4878576, 35.2283555], [-97.4878224, 35.2283548], [-97.4877724, 35.2283456], [-97.4877551, 35.2283409], [-97.4875328, 35.2283392], [-97.4875355, 35.2282551], [-97.4874722, 35.2282537], [-97.4874828, 35.2277662], [-97.487497, 35.2277665], [-97.4874982, 35.2277478], [-97.4875216, 35.2277473], [-97.4875228, 35.227697], [-97.4875555, 35.2276979], [-97.4875555, 35.2276727], [-97.4877863, 35.2276777], [-97.4878158, 35.2276681], [-97.4878728, 35.2276681], [-97.4879259, 35.2276922], [-97.487959, 35.2276932], [-97.4879516, 35.2278407], [-97.4879233, 35.2278377], [-97.4879225, 35.2278651], [-97.4877794, 35.2278622], [-97.4877798, 35.2278483], [-97.4876986, 35.2278467], [-97.4876939, 35.2280037], [-97.4877058, 35.2279974], [-97.4877185, 35.2280003], [-97.4877282, 35.2280107], [-97.4877414, 35.2280249], [-97.4877472, 35.2280646], [-97.4877432, 35.2280939], [-97.4877323, 35.2281176], [-97.4877201, 35.2281315], [-97.4877075, 35.228131], [-97.4877056, 35.2281676], [-97.487766, 35.2281697], [-97.4877667, 35.2281561], [-97.4879195, 35.228163], [-97.4879174, 35.2281837], [-97.4879445, 35.2281846], [-97.4879366, 35.2283359], [-97.4879097, 35.2283348], [-97.4879117, 35.2283434]]]}, "properties": {"osm_id": 1056588180, "building": "yes", "name": "Courtyard", "height": null, "height_m": null, "levels": null, "tract_id": "40027201512", "tract_name": "2015.12", "tags": {"addr:city": "Norman", "addr:housenumber": "770", "addr:postcode": "73072", "addr:state": "OK", "addr:street": "Copperfield Drive", "branch": "Norman", "brand": "Courtyard", "brand:wikidata": "Q1053170", "building": "yes", "fax": "+1 405-701-8901", "internet_access": "wlan", "internet_access:fee": "no", "name": "Courtyard", "official_name": "Courtyard by Marriott", "phone": "+1 405-701-8900", "ref": "OKCNO", "smoking": "no", "tourism": "hotel", "website": "https://www.marriott.com/en-us/hotels/okcno-courtyard-norman/overview/", "wheelchair": "yes"}}}, {"type": "Feature", "geometry": {"type": "Polygon", "coordinates": [[[-97.4884275, 35.2287034], [-97.4884298, 35.2286744], [-97.4884629, 35.2286744], [-97.4884714, 35.2286115], [-97.4884606, 35.2285555], [-97.4884336, 35.2285549], [-97.4884228, 35.2285209], [-97.4877943, 35.2285067], [-97.487797, 35.2285286], [-97.4877272, 35.2285286], [-97.4877407, 35.2285878], [-97.4877085, 35.2286524], [-97.4877567, 35.2286535], [-97.4877567, 35.2286699], [-97.4877849, 35.2286721], [-97.4877836, 35.2286842], [-97.4878278, 35.2286853], [-97.4878265, 35.2286951], [-97.4884275, 35.2287034]]]}, "properties": {"osm_id": 1225798139, "building": "yes", "name": "Comfort Inn & Suites Norman near University", "height": null, "height_m": null, "levels": null, "tract_id": "40027201512", "tract_name": "2015.12", "tags": {"addr:city": "Norman", "addr:housenumber": "840", "addr:postcode": "73072", "addr:state": "OK", "addr:street": "Copperfield Drive", "branch": "Norman near University", "brand": "Comfort Inn & Suites", "brand:wikidata": "Q113152349", "building": "yes", "name": "Comfort Inn & Suites Norman near University", "phone": "+1 405-217-0776", "ref": "OK154", "tourism": "hotel", "website": "https://www.choicehotels.com/oklahoma/yukon/comfort-suites-hotels"}}}, {"type": "Feature", "geometry": {"type": "Polygon", "coordinates": [[[-97.4880292, 35.2266523], [-97.4878625, 35.2266515], [-97.4877494, 35.2266496], [-97.4877481, 35.2266299], [-97.4876831, 35.2266276], [-97.4876812, 35.2265179], [-97.4877078, 35.2265171], [-97.4877071, 35.2264035], [-97.4876291, 35.2264028], [-97.4876314, 35.2263604], [-97.487593, 35.2263586], [-97.4875929, 35.2263323], [-97.4874492, 35.2263324], [-97.4874461, 35.2262617], [-97.4875898, 35.226264], [-97.487589, 35.2261944], [-97.4877105, 35.2261972], [-97.4877105, 35.2262144], [-97.4878071, 35.2262147], [-97.4878082, 35.2257752], [-97.4880401, 35.2257817], [-97.4880292, 35.2266523]]]}, "properties": {"osm_id": 1225798270, "building": "yes", "name": "Hilton Garden Inn Norman", "height": null, "height_m": null, "levels": null, "tract_id": "40027201512", "tract_name": "2015.12", "tags": {"addr:city": "Norman", "addr:housenumber": "700", "addr:postcode": "73072", "addr:state": "OK", "addr:street": "Copperfield Drive", "branch": "Norman", "brand": "Hilton Garden Inn", "brand:wikidata": "Q1162859", "building": "yes", "name": "Hilton Garden Inn Norman", "ref": "OKCNOGI", "tourism": "hotel", "website": "https://www.hilton.com/en/hotels/okcnogi-hilton-garden-inn-norman/"}}}, {"type": "Feature", "geometry": {"type": "Polygon", "coordinates": [[[-97.4940391, 35.2322016], [-97.4937897, 35.2321997], [-97.4937849, 35.2326181], [-97.4940397, 35.23262], [-97.4940413, 35.2324811], [-97.4940628, 35.2324813], [-97.4940644, 35.2323376], [-97.4940376, 35.2323374], [-97.4940391, 35.2322016]]]}, "properties": {"osm_id": 1269056799, "building": "office", "name": "Republic Square", "height": null, "height_m": 9.0, "levels": 3, "tract_id": "40027201512", "tract_name": "2015.12", "tags": {"building": "office", "building:levels": "3", "name": "Republic Square", "roof:levels": "0", "roof:orientation": "along", "roof:shape": "hipped"}}}, {"type": "Feature", "geometry": {"type": "Polygon", "coordinates": [[[-97.4932285, 35.2321328], [-97.4932249, 35.2326388], [-97.4932812, 35.2326391], [-97.4932811, 35.2326492], [-97.493363, 35.2326496], [-97.4933646, 35.232413], [-97.4934437, 35.2324134], [-97.4934441, 35.2323542], [-97.4933583, 35.2323538], [-97.4933599, 35.2321334], [-97.4932285, 35.2321328]]]}, "properties": {"osm_id": 1269056800, "building": "office", "name": "", "height": null, "height_m": 6.0, "levels": 2, "tract_id": "40027201512", "tract_name": "2015.12", "tags": {"building": "office", "building:levels": "2", "roof:levels": "0", "roof:orientation": "along", "roof:shape": "hipped"}}}, {"type": "Feature", "geometry": {"type": "Polygon", "coordinates": [[[-97.4935032, 35.2317423], [-97.4935729, 35.2317424], [-97.493573, 35.2317118], [-97.4936267, 35.2317119], [-97.4936266, 35.2317316], [-97.4937178, 35.2317318], [-97.4937177, 35.2317493], [-97.4937741, 35.2317494], [-97.4937743, 35.2316749], [-97.4937502, 35.2316749], [-97.4937507, 35.231504], [-97.4937131, 35.2315039], [-97.4937133, 35.2314667], [-97.493614, 35.2314665], [-97.4936138, 35.23153], [-97.4935629, 35.2315299], [-97.4935627, 35.2315781], [-97.4935412, 35.2315781], [-97.493541, 35.231646], [-97.4935035, 35.2316459], [-97.4935032, 35.2317423]]]}, "properties": {"osm_id": 1269056801, "building": "yes", "name": "", "height": null, "height_m": null, "levels": null, "tract_id": "40027201512", "tract_name": "2015.12", "tags": {"building": "yes", "source": "microsoft/BuildingFootprints"}}}, {"type": "Feature", "geometry": {"type": "Polygon", "coordinates": [[[-97.4940208, 35.2314319], [-97.493817, 35.2314351], [-97.4938185, 35.2314978], [-97.4938735, 35.2314969], [-97.4938746, 35.2315407], [-97.493837, 35.2315413], [-97.4938377, 35.2315698], [-97.4937934, 35.2315705], [-97.4937975, 35.2317369], [-97.4938859, 35.2317355], [-97.4938854, 35.2317114], [-97.4940262, 35.2317091], [-97.4940235, 35.2315975], [-97.4939859, 35.2315981], [-97.4939852, 35.2315674], [-97.4940522, 35.2315663], [-97.4940508, 35.2315059], [-97.4940226, 35.2315063], [-97.4940208, 35.2314319]]]}, "properties": {"osm_id": 1269056802, "building": "yes", "name": "", "height": null, "height_m": null, "levels": null, "tract_id": "40027201512", "tract_name": "2015.12", "tags": {"building": "yes", "source": "microsoft/BuildingFootprints"}}}, {"type": "Feature", "geometry": {"type": "Polygon", "coordinates": [[[-97.493796, 35.2311821], [-97.4937999, 35.2313771], [-97.494013, 35.2313742], [-97.4940091, 35.2311792], [-97.493796, 35.2311821]]]}, "properties": {"osm_id": 1269056803, "building": "yes", "name": "", "height": null, "height_m": null, "levels": null, "tract_id": "40027201512", "tract_name": "2015.12", "tags": {"building": "yes", "source": "microsoft/BuildingFootprints"}}}, {"type": "Feature", "geometry": {"type": "Polygon", "coordinates": [[[-97.4940929, 35.2310375], [-97.4940926, 35.2308412], [-97.4939719, 35.2308413], [-97.493972, 35.230893], [-97.4938325, 35.2308932], [-97.4938328, 35.2310378], [-97.4940929, 35.2310375]]]}, "properties": {"osm_id": 1269056804, "building": "yes", "name": "", "height": null, "height_m": null, "levels": null, "tract_id": "40027201512", "tract_name": "2015.12", "tags": {"building": "yes", "source": "microsoft/BuildingFootprints"}}}, {"type": "Feature", "geometry": {"type": "Polygon", "coordinates": [[[-97.4940541, 35.2306904], [-97.4940547, 35.2307255], [-97.4941325, 35.2307246], [-97.4941304, 35.2306063], [-97.4939239, 35.2306087], [-97.4939254, 35.2306919], [-97.4940541, 35.2306904]]]}, "properties": {"osm_id": 1269056805, "building": "yes", "name": "", "height": null, "height_m": null, "levels": null, "tract_id": "40027201512", "tract_name": "2015.12", "tags": {"building": "yes", "source": "microsoft/BuildingFootprints"}}}, {"type": "Feature", "geometry": {"type": "Polygon", "coordinates": [[[-97.4941904, 35.2305992], [-97.494187, 35.2304577], [-97.4940852, 35.2304593], [-97.4940885, 35.2306008], [-97.4941904, 35.2305992]]]}, "properties": {"osm_id": 1269056806, "building": "yes", "name": "", "height": null, "height_m": null, "levels": null, "tract_id": "40027201512", "tract_name": "2015.12", "tags": {"building": "yes", "source": "microsoft/BuildingFootprints"}}}, {"type": "Feature", "geometry": {"type": "Polygon", "coordinates": [[[-97.4950021, 35.2301676], [-97.4950069, 35.2298553], [-97.494713, 35.2298523], [-97.4947122, 35.2299105], [-97.4946934, 35.2299103], [-97.4946895, 35.2301644], [-97.4950021, 35.2301676]]]}, "properties": {"osm_id": 1269056807, "building": "yes", "name": "", "height": null, "height_m": null, "levels": null, "tract_id": "40027201512", "tract_name": "2015.12", "tags": {"building": "yes", "source": "microsoft/BuildingFootprints"}}}, {"type": "Feature", "geometry": {"type": "Polygon", "coordinates": [[[-97.4916804, 35.2300858], [-97.491528, 35.2300482], [-97.4914226, 35.2303333], [-97.491575, 35.2303709], [-97.4916804, 35.2300858]]]}, "properties": {"osm_id": 1269056808, "building": "yes", "name": "", "height": null, "height_m": null, "levels": null, "tract_id": "40027201512", "tract_name": "2015.12", "tags": {"building": "yes", "source": "microsoft/BuildingFootprints"}}}, {"type": "Feature", "geometry": {"type": "Polygon", "coordinates": [[[-97.4912818, 35.2305737], [-97.4914769, 35.2306206], [-97.4915047, 35.2305432], [-97.4913097, 35.2304963], [-97.4912818, 35.2305737]]]}, "properties": {"osm_id": 1269056809, "building": "yes", "name": "", "height": null, "height_m": null, "levels": null, "tract_id": "40027201512", "tract_name": "2015.12", "tags": {"building": "yes", "source": "microsoft/BuildingFootprints"}}}, {"type": "Feature", "geometry": {"type": "Polygon", "coordinates": [[[-97.4917389, 35.2307598], [-97.4914878, 35.2307153], [-97.4914923, 35.2306986], [-97.4913987, 35.230682], [-97.4913737, 35.2307761], [-97.4917183, 35.2308372], [-97.4917389, 35.2307598]]]}, "properties": {"osm_id": 1269056810, "building": "yes", "name": "", "height": null, "height_m": null, "levels": null, "tract_id": "40027201512", "tract_name": "2015.12", "tags": {"building": "yes", "source": "microsoft/BuildingFootprints"}}}, {"type": "Feature", "geometry": {"type": "Polygon", "coordinates": [[[-97.4916019, 35.230663], [-97.4918128, 35.2307158], [-97.4918481, 35.2306216], [-97.4916372, 35.2305689], [-97.4916019, 35.230663]]]}, "properties": {"osm_id": 1269056811, "building": "yes", "name": "", "height": null, "height_m": null, "levels": null, "tract_id": "40027201512", "tract_name": "2015.12", "tags": {"building": "yes", "source": "microsoft/BuildingFootprints"}}}, {"type": "Feature", "geometry": {"type": "Polygon", "coordinates": [[[-97.4925601, 35.2308044], [-97.4918659, 35.2306606], [-97.4918416, 35.2307388], [-97.4919965, 35.2307709], [-97.4919833, 35.2308133], [-97.4920175, 35.2308204], [-97.4918964, 35.2312102], [-97.4920551, 35.2312431], [-97.4921005, 35.2310969], [-97.4921597, 35.2311092], [-97.4921375, 35.2311805], [-97.4922019, 35.2311938], [-97.4921789, 35.2312679], [-97.4922607, 35.2312849], [-97.4922843, 35.2312087], [-97.4923297, 35.2312181], [-97.4923365, 35.2311962], [-97.492426, 35.2312148], [-97.4924972, 35.2309855], [-97.4922262, 35.2309294], [-97.4922007, 35.2310117], [-97.4921478, 35.2310008], [-97.4921816, 35.2308917], [-97.4922623, 35.2309084], [-97.4922655, 35.2308981], [-97.492515, 35.2309498], [-97.4925601, 35.2308044]]]}, "properties": {"osm_id": 1269056812, "building": "yes", "name": "", "height": null, "height_m": null, "levels": null, "tract_id": "40027201512", "tract_name": "2015.12", "tags": {"building": "yes", "source": "microsoft/BuildingFootprints"}}}, {"type": "Feature", "geometry": {"type": "Polygon", "coordinates": [[[-97.4916599, 35.2310405], [-97.4913934, 35.2309863], [-97.4913701, 35.2310626], [-97.4915544, 35.2311001], [-97.4915478, 35.231122], [-97.4916299, 35.2311387], [-97.4916599, 35.2310405]]]}, "properties": {"osm_id": 1269056813, "building": "yes", "name": "", "height": null, "height_m": null, "levels": null, "tract_id": "40027201512", "tract_name": "2015.12", "tags": {"building": "yes", "source": "microsoft/BuildingFootprints"}}}, {"type": "Feature", "geometry": {"type": "Polygon", "coordinates": [[[-97.4910117, 35.2309813], [-97.4912558, 35.2310366], [-97.4912537, 35.2310427], [-97.4913483, 35.2310641], [-97.4913773, 35.2309786], [-97.4910386, 35.2309019], [-97.4910117, 35.2309813]]]}, "properties": {"osm_id": 1269056814, "building": "yes", "name": "", "height": null, "height_m": null, "levels": null, "tract_id": "40027201512", "tract_name": "2015.12", "tags": {"building": "yes", "source": "microsoft/BuildingFootprints"}}}, {"type": "Feature", "geometry": {"type": "Polygon", "coordinates": [[[-97.4921654, 35.2318431], [-97.4921623, 35.2317318], [-97.4921109, 35.2317178], [-97.4921037, 35.2314608], [-97.4920608, 35.2314616], [-97.4920592, 35.2314047], [-97.4919238, 35.2314072], [-97.4918976, 35.2313827], [-97.4917732, 35.2313487], [-97.4912176, 35.231359], [-97.4909967, 35.2312987], [-97.4909654, 35.231321], [-97.4909083, 35.2312675], [-97.4908274, 35.231325], [-97.4908017, 35.2313878], [-97.4907624, 35.2313771], [-97.4907138, 35.2313315], [-97.4906467, 35.2313792], [-97.4906982, 35.2314274], [-97.4907611, 35.2314446], [-97.4906191, 35.2315457], [-97.4906582, 35.2315823], [-97.4905798, 35.2316382], [-97.4907582, 35.2318053], [-97.4907999, 35.2318167], [-97.4908747, 35.2318868], [-97.4913981, 35.2318771], [-97.4914141, 35.2318921], [-97.491461, 35.2318913], [-97.4914799, 35.2318778], [-97.4915977, 35.2318756], [-97.491597, 35.2318537], [-97.4921654, 35.2318431]]]}, "properties": {"osm_id": 1269056815, "building": "yes", "name": "", "height": null, "height_m": null, "levels": null, "tract_id": "40027201512", "tract_name": "2015.12", "tags": {"building": "yes", "source": "microsoft/BuildingFootprints"}}}, {"type": "Feature", "geometry": {"type": "Polygon", "coordinates": [[[-97.4908527, 35.2319277], [-97.4902145, 35.2315763], [-97.4901193, 35.2316917], [-97.4907575, 35.232043], [-97.4908527, 35.2319277]]]}, "properties": {"osm_id": 1269056816, "building": "yes", "name": "", "height": null, "height_m": null, "levels": null, "tract_id": "40027201512", "tract_name": "2015.12", "tags": {"building": "yes", "source": "microsoft/BuildingFootprints"}}}, {"type": "Feature", "geometry": {"type": "Polygon", "coordinates": [[[-97.490935, 35.2321511], [-97.4911093, 35.2321501], [-97.4911077, 35.2319696], [-97.4909239, 35.2319707], [-97.4909246, 35.2320386], [-97.490934, 35.2320385], [-97.490935, 35.2321511]]]}, "properties": {"osm_id": 1269056817, "building": "yes", "name": "", "height": null, "height_m": null, "levels": null, "tract_id": "40027201512", "tract_name": "2015.12", "tags": {"building": "yes", "source": "microsoft/BuildingFootprints"}}}, {"type": "Feature", "geometry": {"type": "Polygon", "coordinates": [[[-97.4911291, 35.2322844], [-97.4909172, 35.2322809], [-97.4909116, 35.2325074], [-97.4911234, 35.2325109], [-97.4911291, 35.2322844]]]}, "properties": {"osm_id": 1269056818, "building": "yes", "name": "", "height": null, "height_m": null, "levels": null, "tract_id": "40027201512", "tract_name": "2015.12", "tags": {"building": "yes", "source": "microsoft/BuildingFootprints"}}}, {"type": "Feature", "geometry": {"type": "Polygon", "coordinates": [[[-97.4916733, 35.232303], [-97.4914265, 35.2323037], [-97.4914271, 35.2324417], [-97.4916738, 35.232441], [-97.4916733, 35.232303]]]}, "properties": {"osm_id": 1269056819, "building": "yes", "name": "", "height": null, "height_m": null, "levels": null, "tract_id": "40027201512", "tract_name": "2015.12", "tags": {"building": "yes", "source": "microsoft/BuildingFootprints"}}}, {"type": "Feature", "geometry": {"type": "Polygon", "coordinates": [[[-97.4919058, 35.2322809], [-97.4919064, 35.2323502], [-97.4919198, 35.2323501], [-97.4919215, 35.2325284], [-97.4920838, 35.2325273], [-97.4920815, 35.2322798], [-97.4919058, 35.2322809]]]}, "properties": {"osm_id": 1269056820, "building": "yes", "name": "", "height": null, "height_m": null, "levels": null, "tract_id": "40027201512", "tract_name": "2015.12", "tags": {"building": "yes", "source": "microsoft/BuildingFootprints"}}}, {"type": "Feature", "geometry": {"type": "Polygon", "coordinates": [[[-97.4916567, 35.2319728], [-97.4916576, 35.2321117], [-97.491958, 35.2321105], [-97.4919571, 35.2319716], [-97.4916567, 35.2319728]]]}, "properties": {"osm_id": 1269056821, "building": "yes", "name": "", "height": null, "height_m": null, "levels": null, "tract_id": "40027201512", "tract_name": "2015.12", "tags": {"building": "yes", "source": "microsoft/BuildingFootprints"}}}, {"type": "Feature", "geometry": {"type": "Polygon", "coordinates": [[[-97.490479, 35.2325062], [-97.4906949, 35.2325079], [-97.4906975, 35.2322844], [-97.4903529, 35.2322817], [-97.4903519, 35.2323672], [-97.4904806, 35.2323682], [-97.490479, 35.2325062]]]}, "properties": {"osm_id": 1269056822, "building": "yes", "name": "", "height": null, "height_m": null, "levels": null, "tract_id": "40027201512", "tract_name": "2015.12", "tags": {"building": "yes", "source": "microsoft/BuildingFootprints"}}}, {"type": "Feature", "geometry": {"type": "Polygon", "coordinates": [[[-97.4897674, 35.2322715], [-97.490187, 35.2322671], [-97.4901858, 35.2321875], [-97.489897, 35.2320383], [-97.4898491, 35.2321], [-97.4898497, 35.2321348], [-97.4898233, 35.2321351], [-97.4897992, 35.2321662], [-97.4897996, 35.23219], [-97.4897453, 35.2322601], [-97.4897674, 35.2322715]]]}, "properties": {"osm_id": 1269056823, "building": "yes", "name": "", "height": null, "height_m": null, "levels": null, "tract_id": "40027201512", "tract_name": "2015.12", "tags": {"building": "yes", "source": "microsoft/BuildingFootprints"}}}, {"type": "Feature", "geometry": {"type": "Polygon", "coordinates": [[[-97.4898364, 35.2323784], [-97.4896987, 35.2323721], [-97.4896829, 35.2326014], [-97.4898006, 35.2326068], [-97.4898061, 35.232526], [-97.4898262, 35.2325269], [-97.4898364, 35.2323784]]]}, "properties": {"osm_id": 1269056824, "building": "yes", "name": "", "height": null, "height_m": null, "levels": null, "tract_id": "40027201512", "tract_name": "2015.12", "tags": {"building": "yes", "source": "microsoft/BuildingFootprints"}}}, {"type": "Feature", "geometry": {"type": "Polygon", "coordinates": [[[-97.489158, 35.2319689], [-97.4888849, 35.2318933], [-97.488849, 35.2319798], [-97.4887973, 35.2319654], [-97.4887725, 35.2320253], [-97.4889264, 35.2320679], [-97.488915, 35.2320954], [-97.4890919, 35.2321444], [-97.4891355, 35.2320393], [-97.4891294, 35.2320376], [-97.489158, 35.2319689]]]}, "properties": {"osm_id": 1269056825, "building": "yes", "name": "", "height": null, "height_m": null, "levels": null, "tract_id": "40027201512", "tract_name": "2015.12", "tags": {"building": "yes", "source": "microsoft/BuildingFootprints"}}}, {"type": "Feature", "geometry": {"type": "Polygon", "coordinates": [[[-97.4888058, 35.2322987], [-97.4888031, 35.2323611], [-97.4891097, 35.2323703], [-97.4891125, 35.2323078], [-97.4888058, 35.2322987]]]}, "properties": {"osm_id": 1269056826, "building": "yes", "name": "", "height": null, "height_m": null, "levels": null, "tract_id": "40027201512", "tract_name": "2015.12", "tags": {"building": "yes", "source": "microsoft/BuildingFootprints"}}}, {"type": "Feature", "geometry": {"type": "Polygon", "coordinates": [[[-97.4894478, 35.2314553], [-97.4893499, 35.2315561], [-97.4895227, 35.2316681], [-97.4896206, 35.2315673], [-97.4894478, 35.2314553]]]}, "properties": {"osm_id": 1269056827, "building": "yes", "name": "", "height": null, "height_m": null, "levels": null, "tract_id": "40027201512", "tract_name": "2015.12", "tags": {"building": "yes", "source": "microsoft/BuildingFootprints"}}}, {"type": "Feature", "geometry": {"type": "Polygon", "coordinates": [[[-97.4899806, 35.2310749], [-97.4901542, 35.2311367], [-97.4902322, 35.2309904], [-97.4900383, 35.2309214], [-97.4899863, 35.231019], [-97.4900066, 35.2310262], [-97.4899806, 35.2310749]]]}, "properties": {"osm_id": 1269056828, "building": "yes", "name": "", "height": null, "height_m": null, "levels": null, "tract_id": "40027201512", "tract_name": "2015.12", "tags": {"building": "yes", "source": "microsoft/BuildingFootprints"}}}, {"type": "Feature", "geometry": {"type": "Polygon", "coordinates": [[[-97.4903707, 35.2308631], [-97.4904027, 35.2308017], [-97.4902833, 35.2307601], [-97.4902571, 35.2308104], [-97.4902364, 35.2308032], [-97.4902086, 35.2308566], [-97.4903065, 35.2308906], [-97.4902862, 35.2309295], [-97.4902114, 35.2309035], [-97.4901786, 35.2309664], [-97.4902364, 35.2309865], [-97.4902388, 35.2309819], [-97.4902956, 35.2310016], [-97.4902994, 35.2309943], [-97.4903912, 35.2310263], [-97.4904312, 35.2309497], [-97.4904205, 35.230946], [-97.4904292, 35.2309294], [-97.4903837, 35.2309136], [-97.4904039, 35.2308747], [-97.4903707, 35.2308631]]]}, "properties": {"osm_id": 1269056829, "building": "yes", "name": "", "height": null, "height_m": null, "levels": null, "tract_id": "40027201512", "tract_name": "2015.12", "tags": {"building": "yes", "source": "microsoft/BuildingFootprints"}}}, {"type": "Feature", "geometry": {"type": "Polygon", "coordinates": [[[-97.4903929, 35.2306638], [-97.4904173, 35.2306722], [-97.4904158, 35.2306751], [-97.4904495, 35.2306867], [-97.4904386, 35.2307079], [-97.4904173, 35.2307005], [-97.4903773, 35.2307781], [-97.4904359, 35.2307983], [-97.4904278, 35.2308139], [-97.4905053, 35.2308406], [-97.4905332, 35.2307867], [-97.4905149, 35.2307804], [-97.4905307, 35.2307497], [-97.4905126, 35.2307434], [-97.4905489, 35.2306731], [-97.4905293, 35.2306663], [-97.4905554, 35.2306159], [-97.4905137, 35.2306016], [-97.4905143, 35.2306005], [-97.4904587, 35.2305813], [-97.4904537, 35.230591], [-97.490434, 35.2305842], [-97.4903929, 35.2306638]]]}, "properties": {"osm_id": 1269056830, "building": "yes", "name": "", "height": null, "height_m": null, "levels": null, "tract_id": "40027201512", "tract_name": "2015.12", "tags": {"building": "yes", "source": "microsoft/BuildingFootprints"}}}, {"type": "Feature", "geometry": {"type": "Polygon", "coordinates": [[[-97.4907125, 35.230433], [-97.4906841, 35.2304845], [-97.4906199, 35.2304609], [-97.4905908, 35.2305136], [-97.4906088, 35.2305202], [-97.4905964, 35.2305427], [-97.4905863, 35.2305389], [-97.490572, 35.2305648], [-97.4905901, 35.2305715], [-97.4905621, 35.2306223], [-97.490623, 35.2306447], [-97.4906269, 35.2306377], [-97.4906464, 35.2306449], [-97.4906431, 35.2306508], [-97.4907537, 35.2306915], [-97.490777, 35.2306492], [-97.4907628, 35.2306439], [-97.490767, 35.2306362], [-97.4907165, 35.2306176], [-97.4907398, 35.2305755], [-97.4907304, 35.230572], [-97.4907362, 35.2305616], [-97.490724, 35.2305571], [-97.4907555, 35.2305], [-97.4907671, 35.2305043], [-97.4907642, 35.2305097], [-97.4908122, 35.2305274], [-97.4908158, 35.2305209], [-97.490852, 35.2305343], [-97.4908749, 35.2304928], [-97.4907125, 35.230433]]]}, "properties": {"osm_id": 1269056831, "building": "yes", "name": "", "height": null, "height_m": null, "levels": null, "tract_id": "40027201512", "tract_name": "2015.12", "tags": {"building": "yes", "source": "microsoft/BuildingFootprints"}}}, {"type": "Feature", "geometry": {"type": "Polygon", "coordinates": [[[-97.4906695, 35.2302413], [-97.4908537, 35.2303089], [-97.4908791, 35.2302627], [-97.4908982, 35.2302697], [-97.490956, 35.2301644], [-97.4909657, 35.230168], [-97.4909929, 35.2301185], [-97.4910062, 35.2301234], [-97.4910351, 35.2300708], [-97.4909177, 35.2300277], [-97.4909081, 35.2300452], [-97.4908475, 35.2300229], [-97.4908279, 35.2300586], [-97.4908669, 35.2300729], [-97.4908585, 35.2300882], [-97.4908083, 35.2300698], [-97.490789, 35.230105], [-97.4908355, 35.2301221], [-97.4908278, 35.2301362], [-97.4907687, 35.2301145], [-97.490749, 35.2301503], [-97.4907902, 35.2301654], [-97.4907845, 35.2301756], [-97.4907305, 35.2301558], [-97.4907063, 35.2301997], [-97.4907523, 35.2302166], [-97.4907498, 35.2302212], [-97.4906922, 35.2302001], [-97.4906695, 35.2302413]]]}, "properties": {"osm_id": 1269056832, "building": "yes", "name": "", "height": null, "height_m": null, "levels": null, "tract_id": "40027201512", "tract_name": "2015.12", "tags": {"building": "yes", "source": "microsoft/BuildingFootprints"}}}, {"type": "Feature", "geometry": {"type": "Polygon", "coordinates": [[[-97.4908888, 35.229359], [-97.4907749, 35.2293189], [-97.4908405, 35.2292803], [-97.4907766, 35.2292095], [-97.490724, 35.2292403], [-97.4906983, 35.2292957], [-97.4907594, 35.2293189], [-97.4907311, 35.2293683], [-97.4907486, 35.2293752], [-97.4907207, 35.229423], [-97.4907824, 35.229447], [-97.4907758, 35.2294583], [-97.4907278, 35.2294397], [-97.4907063, 35.2294766], [-97.490755, 35.2294956], [-97.4907275, 35.2295428], [-97.490826, 35.2295811], [-97.4908188, 35.2295935], [-97.4907727, 35.2295756], [-97.4907505, 35.2296136], [-97.4908458, 35.2296507], [-97.4908399, 35.2296608], [-97.4907938, 35.2296429], [-97.490773, 35.2296786], [-97.4908692, 35.229716], [-97.4908618, 35.2297286], [-97.4908147, 35.2297103], [-97.490794, 35.2297459], [-97.4909293, 35.2297985], [-97.4909157, 35.2298219], [-97.4908978, 35.2298149], [-97.4908532, 35.2298914], [-97.490872, 35.2298988], [-97.490847, 35.2299418], [-97.4907916, 35.2299202], [-97.4907606, 35.2299735], [-97.4909076, 35.2300307], [-97.4909337, 35.229986], [-97.4909009, 35.2299732], [-97.4909073, 35.2299621], [-97.491028, 35.2300091], [-97.4910587, 35.2299563], [-97.4910213, 35.2299418], [-97.4910488, 35.2298946], [-97.4910294, 35.229887], [-97.4910568, 35.22984], [-97.4909774, 35.2298091], [-97.491005, 35.2297617], [-97.4909524, 35.2297412], [-97.49098, 35.2296939], [-97.490931, 35.2296749], [-97.4909576, 35.2296293], [-97.4909082, 35.22961], [-97.4909394, 35.2295564], [-97.4908901, 35.2295372], [-97.4909167, 35.2294916], [-97.4909082, 35.2294883], [-97.4909375, 35.2294381], [-97.4908602, 35.2294081], [-97.4908888, 35.229359]]]}, "properties": {"osm_id": 1269056833, "building": "yes", "name": "", "height": null, "height_m": null, "levels": null, "tract_id": "40027201512", "tract_name": "2015.12", "tags": {"building": "yes", "source": "microsoft/BuildingFootprints"}}}, {"type": "Feature", "geometry": {"type": "Polygon", "coordinates": [[[-97.490271, 35.229665], [-97.4904003, 35.2296983], [-97.4904502, 35.2295687], [-97.490438, 35.2295656], [-97.490541, 35.2292984], [-97.490458, 35.2292771], [-97.4904695, 35.2292472], [-97.4904012, 35.2292296], [-97.4903666, 35.2293193], [-97.4904032, 35.2293287], [-97.4903203, 35.229544], [-97.4903178, 35.2295434], [-97.490271, 35.229665]]]}, "properties": {"osm_id": 1269056834, "building": "yes", "name": "", "height": null, "height_m": null, "levels": null, "tract_id": "40027201512", "tract_name": "2015.12", "tags": {"building": "yes", "source": "microsoft/BuildingFootprints"}}}, {"type": "Feature", "geometry": {"type": "Polygon", "coordinates": [[[-97.4903613, 35.2290662], [-97.4905287, 35.2291072], [-97.4905106, 35.2291566], [-97.4906238, 35.2291843], [-97.490667, 35.2290665], [-97.4905981, 35.2290497], [-97.490615, 35.2290034], [-97.4904428, 35.2289612], [-97.4904317, 35.2289914], [-97.4903923, 35.2289818], [-97.4903613, 35.2290662]]]}, "properties": {"osm_id": 1269056835, "building": "yes", "name": "", "height": null, "height_m": null, "levels": null, "tract_id": "40027201512", "tract_name": "2015.12", "tags": {"building": "yes", "source": "microsoft/BuildingFootprints"}}}, {"type": "Feature", "geometry": {"type": "Polygon", "coordinates": [[[-97.4904057, 35.2288785], [-97.4899269, 35.2287632], [-97.4898978, 35.2288439], [-97.4899595, 35.2288587], [-97.4899464, 35.228895], [-97.4903018, 35.2289805], [-97.4902851, 35.2290269], [-97.4903468, 35.2290418], [-97.4904057, 35.2288785]]]}, "properties": {"osm_id": 1269056836, "building": "yes", "name": "", "height": null, "height_m": null, "levels": null, "tract_id": "40027201512", "tract_name": "2015.12", "tags": {"building": "yes", "source": "microsoft/BuildingFootprints"}}}, {"type": "Feature", "geometry": {"type": "Polygon", "coordinates": [[[-97.4897733, 35.2290573], [-97.489821, 35.2290728], [-97.4898035, 35.2291088], [-97.4899703, 35.2291629], [-97.4900209, 35.2290588], [-97.4898064, 35.2289892], [-97.4897733, 35.2290573]]]}, "properties": {"osm_id": 1269056837, "building": "yes", "name": "", "height": null, "height_m": null, "levels": null, "tract_id": "40027201512", "tract_name": "2015.12", "tags": {"building": "yes", "source": "microsoft/BuildingFootprints"}}}, {"type": "Feature", "geometry": {"type": "Polygon", "coordinates": [[[-97.490023, 35.2291671], [-97.4902918, 35.229232], [-97.4903222, 35.2291482], [-97.4900854, 35.2290911], [-97.4900919, 35.2290729], [-97.4900313, 35.2290583], [-97.4900094, 35.2291187], [-97.490038, 35.2291256], [-97.490023, 35.2291671]]]}, "properties": {"osm_id": 1269056838, "building": "yes", "name": "", "height": null, "height_m": null, "levels": null, "tract_id": "40027201512", "tract_name": "2015.12", "tags": {"building": "yes", "source": "microsoft/BuildingFootprints"}}}, {"type": "Feature", "geometry": {"type": "Polygon", "coordinates": [[[-97.4894467, 35.2294156], [-97.4896428, 35.2294587], [-97.4896744, 35.2293627], [-97.4896559, 35.2293586], [-97.4896703, 35.2293148], [-97.4895278, 35.2292835], [-97.4895183, 35.2293121], [-97.4894833, 35.2293044], [-97.4894467, 35.2294156]]]}, "properties": {"osm_id": 1269056839, "building": "yes", "name": "", "height": null, "height_m": null, "levels": null, "tract_id": "40027201512", "tract_name": "2015.12", "tags": {"building": "yes", "source": "microsoft/BuildingFootprints"}}}, {"type": "Feature", "geometry": {"type": "Polygon", "coordinates": [[[-97.4896978, 35.2294591], [-97.4899026, 35.2295141], [-97.4899344, 35.229435], [-97.489886, 35.229422], [-97.4898987, 35.2293903], [-97.4897423, 35.2293484], [-97.4896978, 35.2294591]]]}, "properties": {"osm_id": 1269056840, "building": "yes", "name": "", "height": null, "height_m": null, "levels": null, "tract_id": "40027201512", "tract_name": "2015.12", "tags": {"building": "yes", "source": "microsoft/BuildingFootprints"}}}, {"type": "Feature", "geometry": {"type": "Polygon", "coordinates": [[[-97.4900492, 35.2295543], [-97.4900321, 35.229598], [-97.4900735, 35.2296088], [-97.490065, 35.2296307], [-97.4900834, 35.2296355], [-97.4900951, 35.2296057], [-97.4901705, 35.2296253], [-97.4901974, 35.2295566], [-97.4901657, 35.2295483], [-97.4901762, 35.2295216], [-97.4899313, 35.2294578], [-97.489908, 35.2295175], [-97.4900492, 35.2295543]]]}, "properties": {"osm_id": 1269056841, "building": "yes", "name": "", "height": null, "height_m": null, "levels": null, "tract_id": "40027201512", "tract_name": "2015.12", "tags": {"building": "yes", "source": "microsoft/BuildingFootprints"}}}, {"type": "Feature", "geometry": {"type": "Polygon", "coordinates": [[[-97.4888396, 35.228451], [-97.4888165, 35.2285169], [-97.4889454, 35.228547], [-97.488934, 35.2285794], [-97.4891546, 35.2286311], [-97.4891461, 35.2286554], [-97.4897187, 35.2287893], [-97.4897617, 35.2286667], [-97.4888396, 35.228451]]]}, "properties": {"osm_id": 1269056967, "building": "yes", "name": "", "height": null, "height_m": null, "levels": null, "tract_id": "40027201512", "tract_name": "2015.12", "tags": {"building": "yes", "source": "microsoft/BuildingFootprints"}}}, {"type": "Feature", "geometry": {"type": "Polygon", "coordinates": [[[-97.489292, 35.2288183], [-97.4890424, 35.2287517], [-97.4890052, 35.2288447], [-97.489136, 35.2288797], [-97.4891289, 35.2288975], [-97.4892476, 35.2289292], [-97.489292, 35.2288183]]]}, "properties": {"osm_id": 1269056968, "building": "yes", "name": "", "height": null, "height_m": null, "levels": null, "tract_id": "40027201512", "tract_name": "2015.12", "tags": {"building": "yes", "source": "microsoft/BuildingFootprints"}}}, {"type": "Feature", "geometry": {"type": "Polygon", "coordinates": [[[-97.489301, 35.2288315], [-97.4892553, 35.2289742], [-97.4893733, 35.2289994], [-97.4893743, 35.2289962], [-97.4895475, 35.2290332], [-97.4895528, 35.2290168], [-97.4896381, 35.229035], [-97.4896703, 35.2289345], [-97.4895749, 35.2289142], [-97.4895756, 35.2289121], [-97.4894199, 35.2288789], [-97.4894265, 35.2288583], [-97.489301, 35.2288315]]]}, "properties": {"osm_id": 1269056969, "building": "yes", "name": "", "height": null, "height_m": null, "levels": null, "tract_id": "40027201512", "tract_name": "2015.12", "tags": {"building": "yes", "source": "microsoft/BuildingFootprints"}}}, {"type": "Feature", "geometry": {"type": "Polygon", "coordinates": [[[-97.4889029, 35.2287037], [-97.4888674, 35.2287818], [-97.4890041, 35.2288232], [-97.4890396, 35.2287452], [-97.4889029, 35.2287037]]]}, "properties": {"osm_id": 1269056970, "building": "yes", "name": "", "height": null, "height_m": null, "levels": null, "tract_id": "40027201512", "tract_name": "2015.12", "tags": {"building": "yes", "source": "microsoft/BuildingFootprints"}}}, {"type": "Feature", "geometry": {"type": "Polygon", "coordinates": [[[-97.4887074, 35.2286401], [-97.4885932, 35.2286371], [-97.4885863, 35.2288156], [-97.4886104, 35.2288162], [-97.4886085, 35.2288643], [-97.488571, 35.2288634], [-97.4885602, 35.229138], [-97.4886754, 35.229141], [-97.4886777, 35.2290841], [-97.48869, 35.2290844], [-97.4887074, 35.2286401]]]}, "properties": {"osm_id": 1269056971, "building": "yes", "name": "", "height": null, "height_m": null, "levels": null, "tract_id": "40027201512", "tract_name": "2015.12", "tags": {"building": "yes", "source": "microsoft/BuildingFootprints"}}}, {"type": "Feature", "geometry": {"type": "Polygon", "coordinates": [[[-97.4888535, 35.2283988], [-97.488578, 35.2282988], [-97.4885511, 35.2283481], [-97.4885794, 35.2283584], [-97.4885505, 35.2284114], [-97.4886365, 35.2284427], [-97.4886315, 35.2284518], [-97.4887927, 35.2285104], [-97.4888535, 35.2283988]]]}, "properties": {"osm_id": 1269056972, "building": "yes", "name": "", "height": null, "height_m": null, "levels": null, "tract_id": "40027201512", "tract_name": "2015.12", "tags": {"building": "yes", "source": "microsoft/BuildingFootprints"}}}, {"type": "Feature", "geometry": {"type": "Polygon", "coordinates": [[[-97.4886822, 35.2291995], [-97.4890887, 35.229293], [-97.4890824, 35.2293113], [-97.4891704, 35.2293315], [-97.4892047, 35.2292321], [-97.4891848, 35.2292275], [-97.4892016, 35.2291788], [-97.4890674, 35.2291479], [-97.4890625, 35.2291621], [-97.4890054, 35.229149], [-97.4889949, 35.2291794], [-97.4889228, 35.2291628], [-97.4889231, 35.2291619], [-97.4887119, 35.2291133], [-97.4886822, 35.2291995]]]}, "properties": {"osm_id": 1269056973, "building": "yes", "name": "", "height": null, "height_m": null, "levels": null, "tract_id": "40027201512", "tract_name": "2015.12", "tags": {"building": "yes", "source": "microsoft/BuildingFootprints"}}}, {"type": "Feature", "geometry": {"type": "Polygon", "coordinates": [[[-97.4886447, 35.2292476], [-97.4885836, 35.22934], [-97.4887483, 35.2294205], [-97.4888264, 35.2294138], [-97.4888169, 35.2293346], [-97.4888026, 35.2293349], [-97.488803, 35.2293225], [-97.4886447, 35.2292476]]]}, "properties": {"osm_id": 1269056974, "building": "yes", "name": "", "height": null, "height_m": null, "levels": null, "tract_id": "40027201512", "tract_name": "2015.12", "tags": {"building": "yes", "source": "microsoft/BuildingFootprints"}}}, {"type": "Feature", "geometry": {"type": "Polygon", "coordinates": [[[-97.4888173, 35.2295653], [-97.4887499, 35.2295345], [-97.4887716, 35.2295028], [-97.4887226, 35.2294804], [-97.4887443, 35.2294487], [-97.4885972, 35.2293815], [-97.4885195, 35.2294949], [-97.488783, 35.2296154], [-97.4888173, 35.2295653]]]}, "properties": {"osm_id": 1269056975, "building": "yes", "name": "", "height": null, "height_m": null, "levels": null, "tract_id": "40027201512", "tract_name": "2015.12", "tags": {"building": "yes", "source": "microsoft/BuildingFootprints"}}}, {"type": "Feature", "geometry": {"type": "Polygon", "coordinates": [[[-97.4887676, 35.2296278], [-97.4885986, 35.2295409], [-97.4885242, 35.2296375], [-97.4886932, 35.2297244], [-97.4887676, 35.2296278]]]}, "properties": {"osm_id": 1269056976, "building": "yes", "name": "", "height": null, "height_m": null, "levels": null, "tract_id": "40027201512", "tract_name": "2015.12", "tags": {"building": "yes", "source": "microsoft/BuildingFootprints"}}}, {"type": "Feature", "geometry": {"type": "Polygon", "coordinates": [[[-97.4886506, 35.2297674], [-97.4885959, 35.2297487], [-97.4886241, 35.2296938], [-97.4885019, 35.2296519], [-97.4884469, 35.2297589], [-97.4886238, 35.2298196], [-97.4886506, 35.2297674]]]}, "properties": {"osm_id": 1269056977, "building": "yes", "name": "", "height": null, "height_m": null, "levels": null, "tract_id": "40027201512", "tract_name": "2015.12", "tags": {"building": "yes", "source": "microsoft/BuildingFootprints"}}}, {"type": "Feature", "geometry": {"type": "Polygon", "coordinates": [[[-97.4883809, 35.2298547], [-97.4885368, 35.2299204], [-97.4885964, 35.229826], [-97.4884405, 35.2297603], [-97.4883809, 35.2298547]]]}, "properties": {"osm_id": 1269056978, "building": "yes", "name": "", "height": null, "height_m": null, "levels": null, "tract_id": "40027201512", "tract_name": "2015.12", "tags": {"building": "yes", "source": "microsoft/BuildingFootprints"}}}, {"type": "Feature", "geometry": {"type": "Polygon", "coordinates": [[[-97.4882593, 35.2299235], [-97.4884199, 35.2300075], [-97.488446, 35.2299742], [-97.4884795, 35.2299916], [-97.4885172, 35.2299435], [-97.4883232, 35.229842], [-97.4882593, 35.2299235]]]}, "properties": {"osm_id": 1269056979, "building": "yes", "name": "", "height": null, "height_m": null, "levels": null, "tract_id": "40027201512", "tract_name": "2015.12", "tags": {"building": "yes", "source": "microsoft/BuildingFootprints"}}}, {"type": "Feature", "geometry": {"type": "Polygon", "coordinates": [[[-97.4882536, 35.2293843], [-97.4881113, 35.2293095], [-97.4880234, 35.2294211], [-97.4881487, 35.2294869], [-97.4881291, 35.2295117], [-97.4882278, 35.2295635], [-97.4883181, 35.2294488], [-97.4882365, 35.229406], [-97.4882536, 35.2293843]]]}, "properties": {"osm_id": 1269056980, "building": "yes", "name": "", "height": null, "height_m": null, "levels": null, "tract_id": "40027201512", "tract_name": "2015.12", "tags": {"building": "yes", "source": "microsoft/BuildingFootprints"}}}, {"type": "Feature", "geometry": {"type": "Polygon", "coordinates": [[[-97.4880819, 35.2294833], [-97.4879403, 35.2294162], [-97.4878506, 35.2295424], [-97.4878747, 35.2295538], [-97.4878223, 35.2296275], [-97.4879608, 35.2296932], [-97.4880167, 35.2296145], [-97.4879958, 35.2296046], [-97.4880819, 35.2294833]]]}, "properties": {"osm_id": 1269056981, "building": "yes", "name": "", "height": null, "height_m": null, "levels": null, "tract_id": "40027201512", "tract_name": "2015.12", "tags": {"building": "yes", "source": "microsoft/BuildingFootprints"}}}, {"type": "Feature", "geometry": {"type": "Polygon", "coordinates": [[[-97.4880988, 35.2295724], [-97.4879854, 35.2297151], [-97.4881213, 35.2297871], [-97.4882347, 35.2296445], [-97.4880988, 35.2295724]]]}, "properties": {"osm_id": 1269056982, "building": "yes", "name": "", "height": null, "height_m": null, "levels": null, "tract_id": "40027201512", "tract_name": "2015.12", "tags": {"building": "yes", "source": "microsoft/BuildingFootprints"}}}, {"type": "Feature", "geometry": {"type": "Polygon", "coordinates": [[[-97.4876256, 35.2293884], [-97.4876214, 35.2292384], [-97.4873077, 35.2292443], [-97.4873095, 35.2293088], [-97.4872371, 35.2293102], [-97.4872393, 35.229389], [-97.4873937, 35.2293862], [-97.4873956, 35.229453], [-97.4875591, 35.2294499], [-97.4875574, 35.2293897], [-97.4876256, 35.2293884]]]}, "properties": {"osm_id": 1269056983, "building": "yes", "name": "", "height": null, "height_m": null, "levels": null, "tract_id": "40027201512", "tract_name": "2015.12", "tags": {"building": "yes", "source": "microsoft/BuildingFootprints"}}}, {"type": "Feature", "geometry": {"type": "Polygon", "coordinates": [[[-97.4888624, 35.229489], [-97.4889406, 35.2295115], [-97.4890076, 35.2293564], [-97.4888546, 35.2293124], [-97.4888272, 35.2293759], [-97.4888482, 35.229382], [-97.4888244, 35.2294371], [-97.4888781, 35.2294526], [-97.4888624, 35.229489]]]}, "properties": {"osm_id": 1269056984, "building": "yes", "name": "", "height": null, "height_m": null, "levels": null, "tract_id": "40027201512", "tract_name": "2015.12", "tags": {"building": "yes", "source": "microsoft/BuildingFootprints"}}}, {"type": "Feature", "geometry": {"type": "Polygon", "coordinates": [[[-97.4889569, 35.2295342], [-97.4890875, 35.2295694], [-97.4891569, 35.2293975], [-97.4890263, 35.2293623], [-97.4889569, 35.2295342]]]}, "properties": {"osm_id": 1269056985, "building": "yes", "name": "", "height": null, "height_m": null, "levels": null, "tract_id": "40027201512", "tract_name": "2015.12", "tags": {"building": "yes", "source": "microsoft/BuildingFootprints"}}}, {"type": "Feature", "geometry": {"type": "Polygon", "coordinates": [[[-97.4891471, 35.2296012], [-97.4892265, 35.2296218], [-97.4892967, 35.2294417], [-97.4891614, 35.2294065], [-97.4891063, 35.2295477], [-97.4891623, 35.2295623], [-97.4891471, 35.2296012]]]}, "properties": {"osm_id": 1269056986, "building": "yes", "name": "", "height": null, "height_m": null, "levels": null, "tract_id": "40027201512", "tract_name": "2015.12", "tags": {"building": "yes", "source": "microsoft/BuildingFootprints"}}}, {"type": "Feature", "geometry": {"type": "Polygon", "coordinates": [[[-97.4893013, 35.2294534], [-97.4892468, 35.2295949], [-97.4892956, 35.2296075], [-97.4892787, 35.2296513], [-97.4893641, 35.2296733], [-97.4894355, 35.2294879], [-97.4893013, 35.2294534]]]}, "properties": {"osm_id": 1269056987, "building": "yes", "name": "", "height": null, "height_m": null, "levels": null, "tract_id": "40027201512", "tract_name": "2015.12", "tags": {"building": "yes", "source": "microsoft/BuildingFootprints"}}}, {"type": "Feature", "geometry": {"type": "Polygon", "coordinates": [[[-97.4893648, 35.2296765], [-97.489499, 35.2297157], [-97.4895412, 35.2296307], [-97.4895775, 35.2295361], [-97.4894434, 35.2294969], [-97.4893648, 35.2296765]]]}, "properties": {"osm_id": 1269056988, "building": "yes", "name": "", "height": null, "height_m": null, "levels": null, "tract_id": "40027201512", "tract_name": "2015.12", "tags": {"building": "yes", "source": "microsoft/BuildingFootprints"}}}, {"type": "Feature", "geometry": {"type": "Polygon", "coordinates": [[[-97.4898655, 35.2296034], [-97.4897272, 35.2295682], [-97.4896616, 35.2297399], [-97.4898, 35.2297752], [-97.4898655, 35.2296034]]]}, "properties": {"osm_id": 1269056989, "building": "yes", "name": "", "height": null, "height_m": null, "levels": null, "tract_id": "40027201512", "tract_name": "2015.12", "tags": {"building": "yes", "source": "microsoft/BuildingFootprints"}}}, {"type": "Feature", "geometry": {"type": "Polygon", "coordinates": [[[-97.4895694, 35.2295668], [-97.4895146, 35.2297092], [-97.4896524, 35.2297446], [-97.4897072, 35.2296021], [-97.4895694, 35.2295668]]]}, "properties": {"osm_id": 1269056990, "building": "yes", "name": "", "height": null, "height_m": null, "levels": null, "tract_id": "40027201512", "tract_name": "2015.12", "tags": {"building": "yes", "source": "microsoft/BuildingFootprints"}}}, {"type": "Feature", "geometry": {"type": "Polygon", "coordinates": [[[-97.4901272, 35.2296784], [-97.490012, 35.2296533], [-97.4900113, 35.2296553], [-97.489861, 35.2296226], [-97.4898157, 35.2297617], [-97.4898708, 35.2297737], [-97.4898614, 35.2298024], [-97.4900242, 35.2298378], [-97.4900329, 35.2298112], [-97.4900804, 35.2298216], [-97.4901272, 35.2296784]]]}, "properties": {"osm_id": 1269056991, "building": "yes", "name": "", "height": null, "height_m": null, "levels": null, "tract_id": "40027201512", "tract_name": "2015.12", "tags": {"building": "yes", "source": "microsoft/BuildingFootprints"}}}, {"type": "Feature", "geometry": {"type": "Polygon", "coordinates": [[[-97.4903418, 35.2298513], [-97.4902986, 35.2297112], [-97.4901952, 35.2297325], [-97.4902047, 35.2297634], [-97.4901139, 35.2297821], [-97.4901298, 35.2298336], [-97.4900909, 35.2298416], [-97.4901087, 35.2298993], [-97.4903418, 35.2298513]]]}, "properties": {"osm_id": 1269056992, "building": "yes", "name": "", "height": null, "height_m": null, "levels": null, "tract_id": "40027201512", "tract_name": "2015.12", "tags": {"building": "yes", "source": "microsoft/BuildingFootprints"}}}, {"type": "Feature", "geometry": {"type": "Polygon", "coordinates": [[[-97.4902646, 35.2298939], [-97.4900374, 35.2299305], [-97.490056, 35.2300073], [-97.4901246, 35.2299963], [-97.4901307, 35.2300216], [-97.4902092, 35.2300089], [-97.4902138, 35.2300279], [-97.4902603, 35.2300204], [-97.4902471, 35.2299656], [-97.4902806, 35.2299602], [-97.4902646, 35.2298939]]]}, "properties": {"osm_id": 1269056993, "building": "yes", "name": "", "height": null, "height_m": null, "levels": null, "tract_id": "40027201512", "tract_name": "2015.12", "tags": {"building": "yes", "source": "microsoft/BuildingFootprints"}}}, {"type": "Feature", "geometry": {"type": "Polygon", "coordinates": [[[-97.4902739, 35.2301874], [-97.490401, 35.2302198], [-97.4904152, 35.2301827], [-97.4904494, 35.2301915], [-97.4904746, 35.2301256], [-97.4904466, 35.2301185], [-97.4904688, 35.2300606], [-97.4905309, 35.2300764], [-97.4905663, 35.2299838], [-97.4903708, 35.2299339], [-97.4902739, 35.2301874]]]}, "properties": {"osm_id": 1269056994, "building": "yes", "name": "", "height": null, "height_m": null, "levels": null, "tract_id": "40027201512", "tract_name": "2015.12", "tags": {"building": "yes", "source": "microsoft/BuildingFootprints"}}}, {"type": "Feature", "geometry": {"type": "Polygon", "coordinates": [[[-97.4900943, 35.2304187], [-97.4902549, 35.2304966], [-97.4903856, 35.2303169], [-97.4902251, 35.2302389], [-97.4900943, 35.2304187]]]}, "properties": {"osm_id": 1269056995, "building": "yes", "name": "", "height": null, "height_m": null, "levels": null, "tract_id": "40027201512", "tract_name": "2015.12", "tags": {"building": "yes", "source": "microsoft/BuildingFootprints"}}}, {"type": "Feature", "geometry": {"type": "Polygon", "coordinates": [[[-97.4899707, 35.2305635], [-97.4901287, 35.2306494], [-97.4902376, 35.2305159], [-97.4900796, 35.2304299], [-97.4899707, 35.2305635]]]}, "properties": {"osm_id": 1269056996, "building": "yes", "name": "", "height": null, "height_m": null, "levels": null, "tract_id": "40027201512", "tract_name": "2015.12", "tags": {"building": "yes", "source": "microsoft/BuildingFootprints"}}}, {"type": "Feature", "geometry": {"type": "Polygon", "coordinates": [[[-97.4898188, 35.2307252], [-97.489853, 35.2307509], [-97.4898129, 35.2307864], [-97.489881, 35.2308378], [-97.4899185, 35.2308046], [-97.4899562, 35.230833], [-97.4900751, 35.2307275], [-97.4899351, 35.2306221], [-97.4898188, 35.2307252]]]}, "properties": {"osm_id": 1269056997, "building": "yes", "name": "", "height": null, "height_m": null, "levels": null, "tract_id": "40027201512", "tract_name": "2015.12", "tags": {"building": "yes", "source": "microsoft/BuildingFootprints"}}}, {"type": "Feature", "geometry": {"type": "Polygon", "coordinates": [[[-97.4890688, 35.2297837], [-97.4889919, 35.2298812], [-97.4891757, 35.229978], [-97.4892527, 35.2298805], [-97.4890688, 35.2297837]]]}, "properties": {"osm_id": 1269056998, "building": "yes", "name": "", "height": null, "height_m": null, "levels": null, "tract_id": "40027201512", "tract_name": "2015.12", "tags": {"building": "yes", "source": "microsoft/BuildingFootprints"}}}, {"type": "Feature", "geometry": {"type": "Polygon", "coordinates": [[[-97.4889449, 35.2299379], [-97.4889024, 35.2300083], [-97.4890922, 35.2300848], [-97.4891529, 35.2299844], [-97.4890062, 35.2299253], [-97.4889881, 35.2299552], [-97.4889449, 35.2299379]]]}, "properties": {"osm_id": 1269056999, "building": "yes", "name": "", "height": null, "height_m": null, "levels": null, "tract_id": "40027201512", "tract_name": "2015.12", "tags": {"building": "yes", "source": "microsoft/BuildingFootprints"}}}, {"type": "Feature", "geometry": {"type": "Polygon", "coordinates": [[[-97.4890607, 35.230095], [-97.4888829, 35.2300138], [-97.4888212, 35.2301039], [-97.4888273, 35.2301067], [-97.4887691, 35.2301918], [-97.4889406, 35.2302702], [-97.4890607, 35.230095]]]}, "properties": {"osm_id": 1269057000, "building": "yes", "name": "", "height": null, "height_m": null, "levels": null, "tract_id": "40027201512", "tract_name": "2015.12", "tags": {"building": "yes", "source": "microsoft/BuildingFootprints"}}}, {"type": "Feature", "geometry": {"type": "Polygon", "coordinates": [[[-97.4893291, 35.2302648], [-97.489316, 35.2301931], [-97.489265, 35.2301993], [-97.4892349, 35.2301748], [-97.4892298, 35.2301466], [-97.4890787, 35.2301649], [-97.4890879, 35.2302153], [-97.4890552, 35.230242], [-97.4890669, 35.2303066], [-97.4891336, 35.2302985], [-97.4890976, 35.2303279], [-97.4891046, 35.2303663], [-97.4892224, 35.2304626], [-97.489368, 35.230341], [-97.4893123, 35.2302939], [-97.4892647, 35.2303267], [-97.4892217, 35.2302867], [-97.4891868, 35.2303124], [-97.4891602, 35.2302929], [-97.4893291, 35.2302648]]]}, "properties": {"osm_id": 1269057001, "building": "yes", "name": "", "height": null, "height_m": null, "levels": null, "tract_id": "40027201512", "tract_name": "2015.12", "tags": {"building": "yes", "source": "microsoft/BuildingFootprints"}}}, {"type": "Feature", "geometry": {"type": "Polygon", "coordinates": [[[-97.4894823, 35.2304022], [-97.4894137, 35.2303669], [-97.489409, 35.230373], [-97.4893609, 35.2303482], [-97.4893375, 35.2303784], [-97.4893308, 35.2303749], [-97.4892473, 35.2304828], [-97.4893219, 35.2305213], [-97.4893154, 35.2305296], [-97.4893642, 35.2305548], [-97.4894823, 35.2304022]]]}, "properties": {"osm_id": 1269057002, "building": "yes", "name": "", "height": null, "height_m": null, "levels": null, "tract_id": "40027201512", "tract_name": "2015.12", "tags": {"building": "yes", "source": "microsoft/BuildingFootprints"}}}, {"type": "Feature", "geometry": {"type": "Polygon", "coordinates": [[[-97.4895561, 35.2305103], [-97.489561, 35.2304282], [-97.4894694, 35.2304254], [-97.4894652, 35.2304543], [-97.4894457, 35.2304554], [-97.489441, 35.230485], [-97.4894236, 35.2304828], [-97.4894215, 35.2305045], [-97.4893928, 35.2305316], [-97.4893928, 35.230582], [-97.4894095, 35.2305918], [-97.4894484, 35.2305907], [-97.4894491, 35.2306077], [-97.4894658, 35.2306077], [-97.4894661, 35.2306483], [-97.4895296, 35.2306532], [-97.4895238, 35.2307159], [-97.489578, 35.2307183], [-97.4895772, 35.2307298], [-97.4895902, 35.2307307], [-97.4895895, 35.2307507], [-97.4896566, 35.2307542], [-97.4896583, 35.230737], [-97.4896711, 35.230737], [-97.4896834, 35.2306339], [-97.4896757, 35.2306334], [-97.4896811, 35.2305737], [-97.4896279, 35.2305709], [-97.4896304, 35.2305124], [-97.4895561, 35.2305103]]]}, "properties": {"osm_id": 1269057003, "building": "yes", "name": "", "height": null, "height_m": null, "levels": null, "tract_id": "40027201512", "tract_name": "2015.12", "tags": {"building": "yes", "source": "microsoft/BuildingFootprints"}}}, {"type": "Feature", "geometry": {"type": "Polygon", "coordinates": [[[-97.4896997, 35.2304082], [-97.4896216, 35.2304364], [-97.4897154, 35.2306202], [-97.489823, 35.2305882], [-97.489813, 35.2305714], [-97.4898482, 35.2305593], [-97.4897891, 35.2304453], [-97.4897648, 35.2304364], [-97.4897286, 35.2304554], [-97.4896997, 35.2304082]]]}, "properties": {"osm_id": 1269057004, "building": "yes", "name": "", "height": null, "height_m": null, "levels": null, "tract_id": "40027201512", "tract_name": "2015.12", "tags": {"building": "yes", "source": "microsoft/BuildingFootprints"}}}, {"type": "Feature", "geometry": {"type": "Polygon", "coordinates": [[[-97.4898201, 35.2303156], [-97.4897897, 35.2303534], [-97.4897337, 35.2303234], [-97.4896863, 35.2303823], [-97.4898711, 35.2304814], [-97.4899489, 35.2303848], [-97.4898201, 35.2303156]]]}, "properties": {"osm_id": 1269057005, "building": "yes", "name": "", "height": null, "height_m": null, "levels": null, "tract_id": "40027201512", "tract_name": "2015.12", "tags": {"building": "yes", "source": "microsoft/BuildingFootprints"}}}, {"type": "Feature", "geometry": {"type": "Polygon", "coordinates": [[[-97.4898234, 35.2302277], [-97.4897791, 35.2302827], [-97.4899624, 35.2303813], [-97.4900413, 35.2302835], [-97.4898935, 35.230204], [-97.489859, 35.2302468], [-97.4898234, 35.2302277]]]}, "properties": {"osm_id": 1269057006, "building": "yes", "name": "", "height": null, "height_m": null, "levels": null, "tract_id": "40027201512", "tract_name": "2015.12", "tags": {"building": "yes", "source": "microsoft/BuildingFootprints"}}}, {"type": "Feature", "geometry": {"type": "Polygon", "coordinates": [[[-97.4898649, 35.2301818], [-97.4900578, 35.230281], [-97.4901315, 35.2301853], [-97.4899387, 35.2300861], [-97.4898649, 35.2301818]]]}, "properties": {"osm_id": 1269057007, "building": "yes", "name": "", "height": null, "height_m": null, "levels": null, "tract_id": "40027201512", "tract_name": "2015.12", "tags": {"building": "yes", "source": "microsoft/BuildingFootprints"}}}, {"type": "Feature", "geometry": {"type": "Polygon", "coordinates": [[[-97.4902099, 35.2300818], [-97.4900911, 35.230024], [-97.4900659, 35.2300586], [-97.4899878, 35.2300206], [-97.4899442, 35.2300804], [-97.490141, 35.2301762], [-97.4902099, 35.2300818]]]}, "properties": {"osm_id": 1269057008, "building": "yes", "name": "", "height": null, "height_m": null, "levels": null, "tract_id": "40027201512", "tract_name": "2015.12", "tags": {"building": "yes", "source": "microsoft/BuildingFootprints"}}}, {"type": "Feature", "geometry": {"type": "Polygon", "coordinates": [[[-97.4865864, 35.2271759], [-97.4868171, 35.2271747], [-97.4868167, 35.22712], [-97.48688, 35.2271196], [-97.4868796, 35.2270638], [-97.4868243, 35.2270641], [-97.4868229, 35.2268899], [-97.4865815, 35.2268911], [-97.4865823, 35.2269875], [-97.486534, 35.2269878], [-97.4865347, 35.2270744], [-97.4865856, 35.2270741], [-97.4865864, 35.2271759]]]}, "properties": {"osm_id": 1269057163, "building": "yes", "name": "", "height": null, "height_m": null, "levels": null, "tract_id": "40027201512", "tract_name": "2015.12", "tags": {"building": "yes", "source": "microsoft/BuildingFootprints"}}}, {"type": "Feature", "geometry": {"type": "Polygon", "coordinates": [[[-97.4865829, 35.2261852], [-97.4862717, 35.2261843], [-97.4862708, 35.2264034], [-97.4863711, 35.2264037], [-97.4863713, 35.2263665], [-97.4866277, 35.2263672], [-97.4866279, 35.2263266], [-97.4866064, 35.2263265], [-97.4866067, 35.226251], [-97.4865826, 35.2262509], [-97.4865829, 35.2261852]]]}, "properties": {"osm_id": 1269057164, "building": "yes", "name": "", "height": null, "height_m": null, "levels": null, "tract_id": "40027201512", "tract_name": "2015.12", "tags": {"building": "yes", "source": "microsoft/BuildingFootprints"}}}, {"type": "Feature", "geometry": {"type": "Polygon", "coordinates": [[[-97.486859, 35.2260907], [-97.4868887, 35.2258543], [-97.486688, 35.2258375], [-97.4866398, 35.225781], [-97.4865231, 35.2258473], [-97.4865293, 35.2258545], [-97.4865094, 35.2260121], [-97.4865726, 35.2260862], [-97.4865681, 35.2261219], [-97.4866534, 35.2260734], [-97.486859, 35.2260907]]]}, "properties": {"osm_id": 1269057165, "building": "yes", "name": "", "height": null, "height_m": null, "levels": null, "tract_id": "40027201512", "tract_name": "2015.12", "tags": {"building": "yes", "source": "microsoft/BuildingFootprints"}}}, {"type": "Feature", "geometry": {"type": "Polygon", "coordinates": [[[-97.486219, 35.2241465], [-97.4864014, 35.2241466], [-97.4864014, 35.2242123], [-97.486455, 35.2242123], [-97.486455, 35.2242408], [-97.4867125, 35.224241], [-97.4867127, 35.2240197], [-97.4867717, 35.2240197], [-97.4867717, 35.223932], [-97.4864606, 35.2239319], [-97.4864606, 35.2238662], [-97.4862192, 35.223866], [-97.486219, 35.2241465]]]}, "properties": {"osm_id": 1269057166, "building": "yes", "name": "", "height": null, "height_m": null, "levels": null, "tract_id": "40027201512", "tract_name": "2015.12", "tags": {"building": "yes", "source": "microsoft/BuildingFootprints"}}}, {"type": "Feature", "geometry": {"type": "Polygon", "coordinates": [[[-97.4867616, 35.2235793], [-97.4868821, 35.2236004], [-97.4868956, 35.223549], [-97.4869379, 35.2235564], [-97.4870092, 35.223284], [-97.4868463, 35.2232556], [-97.4867616, 35.2235793]]]}, "properties": {"osm_id": 1269057167, "building": "yes", "name": "", "height": null, "height_m": null, "levels": null, "tract_id": "40027201512", "tract_name": "2015.12", "tags": {"building": "yes", "source": "microsoft/BuildingFootprints"}}}, {"type": "Feature", "geometry": {"type": "Polygon", "coordinates": [[[-97.4874938, 35.2231674], [-97.4874933, 35.2232846], [-97.4875187, 35.2232847], [-97.4875182, 35.2234009], [-97.4877422, 35.2234016], [-97.4877432, 35.2231836], [-97.4876252, 35.2231832], [-97.4876253, 35.2231679], [-97.4874938, 35.2231674]]]}, "properties": {"osm_id": 1269057168, "building": "yes", "name": "", "height": null, "height_m": null, "levels": null, "tract_id": "40027201512", "tract_name": "2015.12", "tags": {"building": "yes", "source": "microsoft/BuildingFootprints"}}}, {"type": "Feature", "geometry": {"type": "Polygon", "coordinates": [[[-97.4865508, 35.2228531], [-97.4870201, 35.222858], [-97.4870222, 35.2227221], [-97.4865529, 35.2227172], [-97.4865508, 35.2228531]]]}, "properties": {"osm_id": 1269057169, "building": "yes", "name": "", "height": null, "height_m": null, "levels": null, "tract_id": "40027201512", "tract_name": "2015.12", "tags": {"building": "yes", "source": "microsoft/BuildingFootprints"}}}, {"type": "Feature", "geometry": {"type": "Polygon", "coordinates": [[[-97.4870103, 35.2229241], [-97.486565, 35.2229264], [-97.4865661, 35.2230623], [-97.4870113, 35.22306], [-97.4870103, 35.2229241]]]}, "properties": {"osm_id": 1269057170, "building": "yes", "name": "", "height": null, "height_m": null, "levels": null, "tract_id": "40027201512", "tract_name": "2015.12", "tags": {"building": "yes", "source": "microsoft/BuildingFootprints"}}}, {"type": "Feature", "geometry": {"type": "Polygon", "coordinates": [[[-97.486331, 35.2230604], [-97.4864919, 35.2230603], [-97.4864917, 35.2226692], [-97.4863308, 35.2226693], [-97.486331, 35.2230604]]]}, "properties": {"osm_id": 1269057171, "building": "yes", "name": "", "height": null, "height_m": null, "levels": null, "tract_id": "40027201512", "tract_name": "2015.12", "tags": {"building": "yes", "source": "microsoft/BuildingFootprints"}}}, {"type": "Feature", "geometry": {"type": "Polygon", "coordinates": [[[-97.4864916, 35.2222075], [-97.4863267, 35.2222076], [-97.4863273, 35.2225341], [-97.4864922, 35.2225339], [-97.4864916, 35.2222075]]]}, "properties": {"osm_id": 1269057172, "building": "yes", "name": "", "height": null, "height_m": null, "levels": null, "tract_id": "40027201512", "tract_name": "2015.12", "tags": {"building": "yes", "source": "microsoft/BuildingFootprints"}}}, {"type": "Feature", "geometry": {"type": "Polygon", "coordinates": [[[-97.4863257, 35.222007], [-97.4863219, 35.222145], [-97.4866221, 35.2221505], [-97.4866259, 35.2220125], [-97.4863257, 35.222007]]]}, "properties": {"osm_id": 1269057173, "building": "yes", "name": "", "height": null, "height_m": null, "levels": null, "tract_id": "40027201512", "tract_name": "2015.12", "tags": {"building": "yes", "source": "microsoft/BuildingFootprints"}}}, {"type": "Feature", "geometry": {"type": "Polygon", "coordinates": [[[-97.4864817, 35.2217011], [-97.4863276, 35.2217022], [-97.4863285, 35.2217898], [-97.4863109, 35.2217899], [-97.4863127, 35.2219543], [-97.4864843, 35.2219531], [-97.4864817, 35.2217011]]]}, "properties": {"osm_id": 1269057174, "building": "yes", "name": "", "height": null, "height_m": null, "levels": null, "tract_id": "40027201512", "tract_name": "2015.12", "tags": {"building": "yes", "source": "microsoft/BuildingFootprints"}}}, {"type": "Feature", "geometry": {"type": "Polygon", "coordinates": [[[-97.4869172, 35.221876], [-97.4869162, 35.2217402], [-97.4865487, 35.2217419], [-97.4865497, 35.2218778], [-97.4869172, 35.221876]]]}, "properties": {"osm_id": 1269057175, "building": "yes", "name": "", "height": null, "height_m": null, "levels": null, "tract_id": "40027201512", "tract_name": "2015.12", "tags": {"building": "yes", "source": "microsoft/BuildingFootprints"}}}, {"type": "Feature", "geometry": {"type": "Polygon", "coordinates": [[[-97.4868521, 35.22195], [-97.4866885, 35.2219515], [-97.4866929, 35.2222758], [-97.4868565, 35.2222743], [-97.4868521, 35.22195]]]}, "properties": {"osm_id": 1269057176, "building": "yes", "name": "", "height": null, "height_m": null, "levels": null, "tract_id": "40027201512", "tract_name": "2015.12", "tags": {"building": "yes", "source": "microsoft/BuildingFootprints"}}}, {"type": "Feature", "geometry": {"type": "Polygon", "coordinates": [[[-97.487316, 35.2219648], [-97.4870597, 35.2219665], [-97.4870604, 35.2220388], [-97.4870819, 35.2220386], [-97.4870829, 35.2221449], [-97.4870614, 35.222145], [-97.4870621, 35.2222184], [-97.4873183, 35.2222168], [-97.487316, 35.2219648]]]}, "properties": {"osm_id": 1269057177, "building": "yes", "name": "", "height": null, "height_m": null, "levels": null, "tract_id": "40027201512", "tract_name": "2015.12", "tags": {"building": "yes", "source": "microsoft/BuildingFootprints"}}}, {"type": "Feature", "geometry": {"type": "Polygon", "coordinates": [[[-97.4872112, 35.2216261], [-97.4871926, 35.2217065], [-97.4872015, 35.2217078], [-97.4871826, 35.2217893], [-97.4871645, 35.2217865], [-97.4871437, 35.2218764], [-97.4874026, 35.2219164], [-97.4874609, 35.2216647], [-97.4872112, 35.2216261]]]}, "properties": {"osm_id": 1269057178, "building": "yes", "name": "", "height": null, "height_m": null, "levels": null, "tract_id": "40027201512", "tract_name": "2015.12", "tags": {"building": "yes", "source": "microsoft/BuildingFootprints"}}}, {"type": "Feature", "geometry": {"type": "Polygon", "coordinates": [[[-97.4869301, 35.2224795], [-97.4869292, 35.2223425], [-97.4867308, 35.2223433], [-97.486731, 35.2223883], [-97.4866935, 35.2223884], [-97.4866932, 35.2223446], [-97.4865591, 35.2223452], [-97.48656, 35.222481], [-97.4869301, 35.2224795]]]}, "properties": {"osm_id": 1269057179, "building": "yes", "name": "", "height": null, "height_m": null, "levels": null, "tract_id": "40027201512", "tract_name": "2015.12", "tags": {"building": "yes", "source": "microsoft/BuildingFootprints"}}}, {"type": "Feature", "geometry": {"type": "Polygon", "coordinates": [[[-97.4873864, 35.2230293], [-97.4875159, 35.2230494], [-97.4875193, 35.2230346], [-97.4876255, 35.223051], [-97.4876368, 35.2230024], [-97.4876186, 35.2229996], [-97.4876481, 35.2228727], [-97.4874306, 35.222839], [-97.4873864, 35.2230293]]]}, "properties": {"osm_id": 1269057180, "building": "yes", "name": "", "height": null, "height_m": null, "levels": null, "tract_id": "40027201512", "tract_name": "2015.12", "tags": {"building": "yes", "source": "microsoft/BuildingFootprints"}}}, {"type": "Feature", "geometry": {"type": "Polygon", "coordinates": [[[-97.4875556, 35.222209], [-97.4877776, 35.2222502], [-97.4878276, 35.2220699], [-97.4876057, 35.2220288], [-97.4875556, 35.222209]]]}, "properties": {"osm_id": 1269057181, "building": "yes", "name": "", "height": null, "height_m": null, "levels": null, "tract_id": "40027201512", "tract_name": "2015.12", "tags": {"building": "yes", "source": "microsoft/BuildingFootprints"}}}, {"type": "Feature", "geometry": {"type": "Polygon", "coordinates": [[[-97.4877624, 35.2222847], [-97.4875476, 35.2222432], [-97.4875188, 35.2223429], [-97.4877335, 35.2223843], [-97.4877624, 35.2222847]]]}, "properties": {"osm_id": 1269057182, "building": "yes", "name": "", "height": null, "height_m": null, "levels": null, "tract_id": "40027201512", "tract_name": "2015.12", "tags": {"building": "yes", "source": "microsoft/BuildingFootprints"}}}, {"type": "Feature", "geometry": {"type": "Polygon", "coordinates": [[[-97.4876794, 35.2217824], [-97.4878875, 35.2218231], [-97.4879457, 35.2216241], [-97.4877377, 35.2215834], [-97.4876794, 35.2217824]]]}, "properties": {"osm_id": 1269057184, "building": "yes", "name": "", "height": null, "height_m": null, "levels": null, "tract_id": "40027201512", "tract_name": "2015.12", "tags": {"building": "yes", "source": "microsoft/BuildingFootprints"}}}, {"type": "Feature", "geometry": {"type": "Polygon", "coordinates": [[[-97.4879511, 35.2216124], [-97.4879585, 35.2217731], [-97.4881273, 35.221768], [-97.4881189, 35.2215863], [-97.4880252, 35.2215892], [-97.4880261, 35.2216101], [-97.4879511, 35.2216124]]]}, "properties": {"osm_id": 1269057185, "building": "yes", "name": "", "height": null, "height_m": null, "levels": null, "tract_id": "40027201512", "tract_name": "2015.12", "tags": {"building": "yes", "source": "microsoft/BuildingFootprints"}}}, {"type": "Feature", "geometry": {"type": "Polygon", "coordinates": [[[-97.4883746, 35.2217701], [-97.4883776, 35.2215851], [-97.4882634, 35.2215839], [-97.4882633, 35.2215948], [-97.4881426, 35.2215935], [-97.4881398, 35.2217698], [-97.4882363, 35.2217709], [-97.4882367, 35.2217489], [-97.4882891, 35.2217495], [-97.4882888, 35.2217692], [-97.4883746, 35.2217701]]]}, "properties": {"osm_id": 1269057186, "building": "yes", "name": "", "height": null, "height_m": null, "levels": null, "tract_id": "40027201512", "tract_name": "2015.12", "tags": {"building": "yes", "source": "microsoft/BuildingFootprints"}}}, {"type": "Feature", "geometry": {"type": "Polygon", "coordinates": [[[-97.4883858, 35.2217667], [-97.4885601, 35.2217652], [-97.4885577, 35.2215833], [-97.4883834, 35.2215849], [-97.4883858, 35.2217667]]]}, "properties": {"osm_id": 1269057187, "building": "yes", "name": "", "height": null, "height_m": null, "levels": null, "tract_id": "40027201512", "tract_name": "2015.12", "tags": {"building": "yes", "source": "microsoft/BuildingFootprints"}}}, {"type": "Feature", "geometry": {"type": "Polygon", "coordinates": [[[-97.488716, 35.2217851], [-97.4888018, 35.2217836], [-97.4887977, 35.2216259], [-97.4885859, 35.2216295], [-97.4885892, 35.2217566], [-97.4887152, 35.2217544], [-97.488716, 35.2217851]]]}, "properties": {"osm_id": 1269057188, "building": "yes", "name": "", "height": null, "height_m": null, "levels": null, "tract_id": "40027201512", "tract_name": "2015.12", "tags": {"building": "yes", "source": "microsoft/BuildingFootprints"}}}, {"type": "Feature", "geometry": {"type": "Polygon", "coordinates": [[[-97.4888753, 35.2217974], [-97.4891635, 35.2217895], [-97.4891562, 35.2216144], [-97.489069, 35.2216168], [-97.4890705, 35.2216518], [-97.4889514, 35.2216551], [-97.4889498, 35.2216167], [-97.488868, 35.2216189], [-97.4888753, 35.2217974]]]}, "properties": {"osm_id": 1269057189, "building": "yes", "name": "", "height": null, "height_m": null, "levels": null, "tract_id": "40027201512", "tract_name": "2015.12", "tags": {"building": "yes", "source": "microsoft/BuildingFootprints"}}}, {"type": "Feature", "geometry": {"type": "Polygon", "coordinates": [[[-97.4891841, 35.2215987], [-97.4891862, 35.2217805], [-97.4894317, 35.2217786], [-97.489432, 35.2218005], [-97.4895178, 35.2217999], [-97.4895164, 35.221675], [-97.4895861, 35.2216745], [-97.4895875, 35.2217962], [-97.489696, 35.2217954], [-97.4896956, 35.2217613], [-97.4897453, 35.2217609], [-97.4897433, 35.2215856], [-97.4893705, 35.2215885], [-97.4893706, 35.2215972], [-97.4891841, 35.2215987]]]}, "properties": {"osm_id": 1269057190, "building": "yes", "name": "", "height": null, "height_m": null, "levels": null, "tract_id": "40027201512", "tract_name": "2015.12", "tags": {"building": "yes", "source": "microsoft/BuildingFootprints"}}}, {"type": "Feature", "geometry": {"type": "Polygon", "coordinates": [[[-97.4902317, 35.2218184], [-97.4902358, 35.2217168], [-97.4900161, 35.2217108], [-97.490012, 35.2218124], [-97.4902317, 35.2218184]]]}, "properties": {"osm_id": 1269057191, "building": "yes", "name": "", "height": null, "height_m": null, "levels": null, "tract_id": "40027201512", "tract_name": "2015.12", "tags": {"building": "yes", "source": "microsoft/BuildingFootprints"}}}, {"type": "Feature", "geometry": {"type": "Polygon", "coordinates": [[[-97.490003, 35.2221486], [-97.4902497, 35.2221467], [-97.4902486, 35.2220525], [-97.4901601, 35.2220532], [-97.4901595, 35.222005], [-97.4901327, 35.2220052], [-97.4901318, 35.2219307], [-97.4900004, 35.2219317], [-97.490003, 35.2221486]]]}, "properties": {"osm_id": 1269057192, "building": "yes", "name": "", "height": null, "height_m": null, "levels": null, "tract_id": "40027201512", "tract_name": "2015.12", "tags": {"building": "yes", "source": "microsoft/BuildingFootprints"}}}, {"type": "Feature", "geometry": {"type": "Polygon", "coordinates": [[[-97.4902141, 35.222292], [-97.4902188, 35.2221638], [-97.4900192, 35.2221589], [-97.4900145, 35.2222871], [-97.4902141, 35.222292]]]}, "properties": {"osm_id": 1269057193, "building": "yes", "name": "", "height": null, "height_m": null, "levels": null, "tract_id": "40027201512", "tract_name": "2015.12", "tags": {"building": "yes", "source": "microsoft/BuildingFootprints"}}}, {"type": "Feature", "geometry": {"type": "Polygon", "coordinates": [[[-97.4900231, 35.222324], [-97.4900255, 35.222415], [-97.4900107, 35.2224153], [-97.4900134, 35.222517], [-97.4900831, 35.2225157], [-97.4900839, 35.2225477], [-97.4902609, 35.2225445], [-97.4902578, 35.2224285], [-97.4902619, 35.2224284], [-97.490259, 35.2223198], [-97.4900231, 35.222324]]]}, "properties": {"osm_id": 1269057194, "building": "yes", "name": "", "height": null, "height_m": null, "levels": null, "tract_id": "40027201512", "tract_name": "2015.12", "tags": {"building": "yes", "source": "microsoft/BuildingFootprints"}}}, {"type": "Feature", "geometry": {"type": "Polygon", "coordinates": [[[-97.4905622, 35.2222359], [-97.4905614, 35.2223783], [-97.4907062, 35.2223789], [-97.4907067, 35.2223044], [-97.4908032, 35.2223047], [-97.4908041, 35.2221395], [-97.4906566, 35.2221389], [-97.4906561, 35.2222362], [-97.4905622, 35.2222359]]]}, "properties": {"osm_id": 1269057195, "building": "yes", "name": "", "height": null, "height_m": null, "levels": null, "tract_id": "40027201512", "tract_name": "2015.12", "tags": {"building": "yes", "source": "microsoft/BuildingFootprints"}}}, {"type": "Feature", "geometry": {"type": "Polygon", "coordinates": [[[-97.4898072, 35.2223579], [-97.4897994, 35.2223051], [-97.4897677, 35.2223083], [-97.4897496, 35.2221861], [-97.4896518, 35.2221957], [-97.4896549, 35.2222164], [-97.4895703, 35.2222247], [-97.489564, 35.2221825], [-97.48949, 35.2221897], [-97.4895104, 35.222328], [-97.4895474, 35.2223243], [-97.489556, 35.2223826], [-97.4898072, 35.2223579]]]}, "properties": {"osm_id": 1269057196, "building": "yes", "name": "", "height": null, "height_m": null, "levels": null, "tract_id": "40027201512", "tract_name": "2015.12", "tags": {"building": "yes", "source": "microsoft/BuildingFootprints"}}}, {"type": "Feature", "geometry": {"type": "Polygon", "coordinates": [[[-97.4894712, 35.2221782], [-97.4892003, 35.222178], [-97.4892003, 35.222292], [-97.4891788, 35.222292], [-97.4891787, 35.2223731], [-97.4892565, 35.2223731], [-97.4892566, 35.2223271], [-97.4893531, 35.2223271], [-97.4893531, 35.2223731], [-97.4894711, 35.2223732], [-97.4894712, 35.2221782]]]}, "properties": {"osm_id": 1269057197, "building": "yes", "name": "", "height": null, "height_m": null, "levels": null, "tract_id": "40027201512", "tract_name": "2015.12", "tags": {"building": "yes", "source": "microsoft/BuildingFootprints"}}}, {"type": "Feature", "geometry": {"type": "Polygon", "coordinates": [[[-97.4891521, 35.2223756], [-97.4891527, 35.2222529], [-97.4891419, 35.2222528], [-97.4891422, 35.2221915], [-97.4889249, 35.2221909], [-97.4889244, 35.2223114], [-97.4890478, 35.2223117], [-97.4890475, 35.2223753], [-97.4891521, 35.2223756]]]}, "properties": {"osm_id": 1269057198, "building": "yes", "name": "", "height": null, "height_m": null, "levels": null, "tract_id": "40027201512", "tract_name": "2015.12", "tags": {"building": "yes", "source": "microsoft/BuildingFootprints"}}}, {"type": "Feature", "geometry": {"type": "Polygon", "coordinates": [[[-97.4889186, 35.2218903], [-97.4889194, 35.2219604], [-97.488965, 35.2219601], [-97.4889655, 35.2219985], [-97.4890164, 35.2219981], [-97.4890169, 35.2220397], [-97.4889767, 35.2220401], [-97.4889773, 35.2220914], [-97.488921, 35.2220919], [-97.4889219, 35.2221642], [-97.4891605, 35.2221623], [-97.4891576, 35.2219147], [-97.4890154, 35.2219158], [-97.4890151, 35.2218896], [-97.4889186, 35.2218903]]]}, "properties": {"osm_id": 1269057199, "building": "yes", "name": "", "height": null, "height_m": null, "levels": null, "tract_id": "40027201512", "tract_name": "2015.12", "tags": {"building": "yes", "source": "microsoft/BuildingFootprints"}}}, {"type": "Feature", "geometry": {"type": "Polygon", "coordinates": [[[-97.4885631, 35.2218929], [-97.4885655, 35.2219861], [-97.4885843, 35.2219858], [-97.4885857, 35.2220383], [-97.4885643, 35.2220387], [-97.4885673, 35.2221536], [-97.4887711, 35.22215], [-97.4887701, 35.2221127], [-97.4887915, 35.2221124], [-97.4887894, 35.2220335], [-97.4888001, 35.2220333], [-97.4887982, 35.2219601], [-97.4887285, 35.2219613], [-97.4887266, 35.22189], [-97.4885631, 35.2218929]]]}, "properties": {"osm_id": 1269057200, "building": "yes", "name": "", "height": null, "height_m": null, "levels": null, "tract_id": "40027201512", "tract_name": "2015.12", "tags": {"building": "yes", "source": "microsoft/BuildingFootprints"}}}, {"type": "Feature", "geometry": {"type": "Polygon", "coordinates": [[[-97.4885695, 35.2223776], [-97.4887625, 35.2223737], [-97.4887612, 35.22233], [-97.4888014, 35.2223292], [-97.4887979, 35.2222087], [-97.4885647, 35.2222133], [-97.4885695, 35.2223776]]]}, "properties": {"osm_id": 1269057201, "building": "yes", "name": "", "height": null, "height_m": null, "levels": null, "tract_id": "40027201512", "tract_name": "2015.12", "tags": {"building": "yes", "source": "microsoft/BuildingFootprints"}}}, {"type": "Feature", "geometry": {"type": "Polygon", "coordinates": [[[-97.4882654, 35.2223752], [-97.4882654, 35.2223731], [-97.4883914, 35.2223723], [-97.4883913, 35.2223657], [-97.4885442, 35.2223647], [-97.4885426, 35.2221938], [-97.4882624, 35.2221956], [-97.4882625, 35.2222065], [-97.4880144, 35.2222081], [-97.4880149, 35.2222629], [-97.487972, 35.2222631], [-97.4879722, 35.222285], [-97.4879185, 35.2222854], [-97.4879194, 35.2223774], [-97.4882654, 35.2223752]]]}, "properties": {"osm_id": 1269057202, "building": "yes", "name": "", "height": null, "height_m": null, "levels": null, "tract_id": "40027201512", "tract_name": "2015.12", "tags": {"building": "yes", "source": "microsoft/BuildingFootprints"}}}, {"type": "Feature", "geometry": {"type": "Polygon", "coordinates": [[[-97.4880794, 35.2224639], [-97.487995, 35.2224637], [-97.4879949, 35.2224998], [-97.4878715, 35.2224996], [-97.487871, 35.2226398], [-97.4880025, 35.2226401], [-97.4880024, 35.2226532], [-97.4880788, 35.2226534], [-97.4880794, 35.2224639]]]}, "properties": {"osm_id": 1269057203, "building": "yes", "name": "", "height": null, "height_m": null, "levels": null, "tract_id": "40027201512", "tract_name": "2015.12", "tags": {"building": "yes", "source": "microsoft/BuildingFootprints"}}}, {"type": "Feature", "geometry": {"type": "Polygon", "coordinates": [[[-97.488442, 35.2226393], [-97.4884357, 35.2224664], [-97.4882802, 35.2224702], [-97.4882866, 35.2226431], [-97.488442, 35.2226393]]]}, "properties": {"osm_id": 1269057204, "building": "yes", "name": "", "height": null, "height_m": null, "levels": null, "tract_id": "40027201512", "tract_name": "2015.12", "tags": {"building": "yes", "source": "microsoft/BuildingFootprints"}}}, {"type": "Feature", "geometry": {"type": "Polygon", "coordinates": [[[-97.4884601, 35.2226488], [-97.4886371, 35.2226469], [-97.4886347, 35.2224936], [-97.4885462, 35.2224945], [-97.4885457, 35.2224638], [-97.4884572, 35.2224648], [-97.4884601, 35.2226488]]]}, "properties": {"osm_id": 1269057205, "building": "yes", "name": "", "height": null, "height_m": null, "levels": null, "tract_id": "40027201512", "tract_name": "2015.12", "tags": {"building": "yes", "source": "microsoft/BuildingFootprints"}}}, {"type": "Feature", "geometry": {"type": "Polygon", "coordinates": [[[-97.488901, 35.2226467], [-97.488898, 35.2224649], [-97.4886566, 35.2224675], [-97.4886581, 35.222553], [-97.4887144, 35.2225524], [-97.488716, 35.2226487], [-97.488901, 35.2226467]]]}, "properties": {"osm_id": 1269057206, "building": "yes", "name": "", "height": null, "height_m": null, "levels": null, "tract_id": "40027201512", "tract_name": "2015.12", "tags": {"building": "yes", "source": "microsoft/BuildingFootprints"}}}, {"type": "Feature", "geometry": {"type": "Polygon", "coordinates": [[[-97.4891073, 35.2224621], [-97.4890148, 35.2224635], [-97.4890162, 35.2225227], [-97.48898, 35.2225232], [-97.4889789, 35.2224772], [-97.4889173, 35.2224782], [-97.4889213, 35.2226491], [-97.4891117, 35.222646], [-97.4891073, 35.2224621]]]}, "properties": {"osm_id": 1269057207, "building": "yes", "name": "", "height": null, "height_m": null, "levels": null, "tract_id": "40027201512", "tract_name": "2015.12", "tags": {"building": "yes", "source": "microsoft/BuildingFootprints"}}}, {"type": "Feature", "geometry": {"type": "Polygon", "coordinates": [[[-97.4891339, 35.2224622], [-97.4891273, 35.2226405], [-97.4892198, 35.2226428], [-97.4892208, 35.2226165], [-97.4892837, 35.2226181], [-97.4892893, 35.222466], [-97.4891339, 35.2224622]]]}, "properties": {"osm_id": 1269057208, "building": "yes", "name": "", "height": null, "height_m": null, "levels": null, "tract_id": "40027201512", "tract_name": "2015.12", "tags": {"building": "yes", "source": "microsoft/BuildingFootprints"}}}, {"type": "Feature", "geometry": {"type": "Polygon", "coordinates": [[[-97.4894469, 35.2226489], [-97.4895475, 35.2226483], [-97.4895475, 35.222647], [-97.4897339, 35.2226459], [-97.4897336, 35.2226218], [-97.4897658, 35.2226216], [-97.4897645, 35.2224726], [-97.4895218, 35.2224741], [-97.4895224, 35.2225442], [-97.489446, 35.2225447], [-97.4894469, 35.2226489]]]}, "properties": {"osm_id": 1269057209, "building": "yes", "name": "", "height": null, "height_m": null, "levels": null, "tract_id": "40027201512", "tract_name": "2015.12", "tags": {"building": "yes", "source": "microsoft/BuildingFootprints"}}}, {"type": "Feature", "geometry": {"type": "Polygon", "coordinates": [[[-97.4878802, 35.2229886], [-97.4880357, 35.2229865], [-97.4880324, 35.2228179], [-97.4878849, 35.2228198], [-97.4878858, 35.2228658], [-97.4878402, 35.2228664], [-97.4878418, 35.2229496], [-97.4878794, 35.2229491], [-97.4878802, 35.2229886]]]}, "properties": {"osm_id": 1269057210, "building": "yes", "name": "", "height": null, "height_m": null, "levels": null, "tract_id": "40027201512", "tract_name": "2015.12", "tags": {"building": "yes", "source": "microsoft/BuildingFootprints"}}}, {"type": "Feature", "geometry": {"type": "Polygon", "coordinates": [[[-97.4886276, 35.2228094], [-97.4884547, 35.222813], [-97.4884602, 35.2229935], [-97.4885567, 35.2229916], [-97.4885566, 35.2229884], [-97.488633, 35.2229868], [-97.4886276, 35.2228094]]]}, "properties": {"osm_id": 1269057211, "building": "yes", "name": "", "height": null, "height_m": null, "levels": null, "tract_id": "40027201512", "tract_name": "2015.12", "tags": {"building": "yes", "source": "microsoft/BuildingFootprints"}}}, {"type": "Feature", "geometry": {"type": "Polygon", "coordinates": [[[-97.4889662, 35.2228115], [-97.4886792, 35.2228136], [-97.4886803, 35.2229144], [-97.4886562, 35.2229145], [-97.4886571, 35.2229934], [-97.4888743, 35.2229918], [-97.4888735, 35.2229217], [-97.4889138, 35.2229214], [-97.4889142, 35.2229586], [-97.489, 35.222958], [-97.488999, 35.2228682], [-97.4889668, 35.2228684], [-97.4889662, 35.2228115]]]}, "properties": {"osm_id": 1269057212, "building": "yes", "name": "", "height": null, "height_m": null, "levels": null, "tract_id": "40027201512", "tract_name": "2015.12", "tags": {"building": "yes", "source": "microsoft/BuildingFootprints"}}}, {"type": "Feature", "geometry": {"type": "Polygon", "coordinates": [[[-97.4881886, 35.2239022], [-97.4881862, 35.2237619], [-97.4881406, 35.2237625], [-97.4881401, 35.2237318], [-97.4880596, 35.2237327], [-97.4880598, 35.2237393], [-97.4877567, 35.2237427], [-97.4877576, 35.2237931], [-97.4877254, 35.2237935], [-97.4877275, 35.223914], [-97.487891, 35.2239121], [-97.4878903, 35.2238683], [-97.4879144, 35.223868], [-97.4879151, 35.2239053], [-97.4881886, 35.2239022]]]}, "properties": {"osm_id": 1269057259, "building": "yes", "name": "", "height": null, "height_m": null, "levels": null, "tract_id": "40027201512", "tract_name": "2015.12", "tags": {"building": "yes", "source": "microsoft/BuildingFootprints"}}}, {"type": "Feature", "geometry": {"type": "Polygon", "coordinates": [[[-97.4885659, 35.2239079], [-97.4885655, 35.2238816], [-97.4886057, 35.2238812], [-97.4886062, 35.2239097], [-97.4887563, 35.2239081], [-97.4887535, 35.2237263], [-97.4882171, 35.2237319], [-97.48822, 35.2239115], [-97.4885659, 35.2239079]]]}, "properties": {"osm_id": 1269057260, "building": "yes", "name": "", "height": null, "height_m": null, "levels": null, "tract_id": "40027201512", "tract_name": "2015.12", "tags": {"building": "yes", "source": "microsoft/BuildingFootprints"}}}, {"type": "Feature", "geometry": {"type": "Polygon", "coordinates": [[[-97.4888597, 35.2239095], [-97.4890086, 35.2239105], [-97.4890089, 35.2238842], [-97.4890599, 35.2238845], [-97.4890602, 35.2238538], [-97.4891124, 35.2238542], [-97.4891137, 35.2237239], [-97.4889622, 35.2237229], [-97.488962, 35.2237436], [-97.4888614, 35.223743], [-97.4888597, 35.2239095]]]}, "properties": {"osm_id": 1269057261, "building": "yes", "name": "", "height": null, "height_m": null, "levels": null, "tract_id": "40027201512", "tract_name": "2015.12", "tags": {"building": "yes", "source": "microsoft/BuildingFootprints"}}}, {"type": "Feature", "geometry": {"type": "Polygon", "coordinates": [[[-97.489663, 35.2239039], [-97.4896632, 35.2237299], [-97.4894459, 35.2237297], [-97.4894459, 35.2237263], [-97.4891603, 35.2237262], [-97.4891602, 35.2239037], [-97.489663, 35.2239039]]]}, "properties": {"osm_id": 1269057262, "building": "yes", "name": "", "height": null, "height_m": null, "levels": null, "tract_id": "40027201512", "tract_name": "2015.12", "tags": {"building": "yes", "source": "microsoft/BuildingFootprints"}}}, {"type": "Feature", "geometry": {"type": "Polygon", "coordinates": [[[-97.4901438, 35.2237131], [-97.4900338, 35.2237131], [-97.4900338, 35.2237284], [-97.4899641, 35.2237284], [-97.4899641, 35.2236649], [-97.4897656, 35.2236649], [-97.4897656, 35.223735], [-97.4898246, 35.223735], [-97.4898246, 35.2237832], [-97.4897709, 35.2237832], [-97.4897709, 35.2239015], [-97.4899909, 35.2239015], [-97.4899909, 35.2238621], [-97.4900767, 35.2238621], [-97.4900767, 35.2239015], [-97.4901438, 35.2239015], [-97.4901438, 35.2237131]]]}, "properties": {"osm_id": 1269057263, "building": "yes", "name": "", "height": null, "height_m": null, "levels": null, "tract_id": "40027201512", "tract_name": "2015.12", "tags": {"building": "yes", "source": "microsoft/BuildingFootprints"}}}, {"type": "Feature", "geometry": {"type": "Polygon", "coordinates": [[[-97.4902208, 35.2238949], [-97.4903589, 35.2238974], [-97.490362, 35.2237857], [-97.49037, 35.2237858], [-97.4903725, 35.2236939], [-97.4901674, 35.2236901], [-97.4901632, 35.2238412], [-97.4902222, 35.2238423], [-97.4902208, 35.2238949]]]}, "properties": {"osm_id": 1269057264, "building": "yes", "name": "", "height": null, "height_m": null, "levels": null, "tract_id": "40027201512", "tract_name": "2015.12", "tags": {"building": "yes", "source": "microsoft/BuildingFootprints"}}}, {"type": "Feature", "geometry": {"type": "Polygon", "coordinates": [[[-97.4905891, 35.2236908], [-97.4903854, 35.2236959], [-97.4903925, 35.2238864], [-97.4905961, 35.2238813], [-97.4905891, 35.2236908]]]}, "properties": {"osm_id": 1269057265, "building": "yes", "name": "", "height": null, "height_m": null, "levels": null, "tract_id": "40027201512", "tract_name": "2015.12", "tags": {"building": "yes", "source": "microsoft/BuildingFootprints"}}}, {"type": "Feature", "geometry": {"type": "Polygon", "coordinates": [[[-97.4910862, 35.223686], [-97.4906853, 35.223693], [-97.490687, 35.2237578], [-97.4906173, 35.223759], [-97.4906195, 35.2238431], [-97.4907026, 35.2238417], [-97.490704, 35.2238955], [-97.4908192, 35.2238935], [-97.4908168, 35.2237994], [-97.4908611, 35.2237986], [-97.4908631, 35.2238774], [-97.4909851, 35.2238753], [-97.4909856, 35.223895], [-97.4910915, 35.2238932], [-97.4910862, 35.223686]]]}, "properties": {"osm_id": 1269057266, "building": "yes", "name": "", "height": null, "height_m": null, "levels": null, "tract_id": "40027201512", "tract_name": "2015.12", "tags": {"building": "yes", "source": "microsoft/BuildingFootprints"}}}, {"type": "Feature", "geometry": {"type": "Polygon", "coordinates": [[[-97.4921435, 35.2236935], [-97.4919887, 35.2236897], [-97.4919233, 35.2237098], [-97.4919121, 35.2236856], [-97.4918193, 35.2236833], [-97.4918163, 35.2237654], [-97.4918364, 35.2238089], [-97.491753, 35.2238347], [-97.4917496, 35.2238273], [-97.4917546, 35.2236905], [-97.4914491, 35.223683], [-97.4914477, 35.2237229], [-97.4914205, 35.2237313], [-97.4914226, 35.2236758], [-97.4913505, 35.223674], [-97.491311, 35.2236862], [-97.4912847, 35.2236855], [-97.4912041, 35.2237104], [-97.4912011, 35.2237897], [-97.4912441, 35.2238826], [-97.4915193, 35.2238893], [-97.4915219, 35.2238205], [-97.4915682, 35.2238062], [-97.4916042, 35.223884], [-97.4918921, 35.2238911], [-97.4918938, 35.2238438], [-97.4918966, 35.223843], [-97.4920591, 35.223847], [-97.4920798, 35.2238916], [-97.4922136, 35.2238504], [-97.492182, 35.2237821], [-97.4921402, 35.223781], [-97.4921435, 35.2236935]]]}, "properties": {"osm_id": 1269057267, "building": "yes", "name": "", "height": null, "height_m": null, "levels": null, "tract_id": "40027201512", "tract_name": "2015.12", "tags": {"building": "yes", "source": "microsoft/BuildingFootprints"}}}, {"type": "Feature", "geometry": {"type": "Polygon", "coordinates": [[[-97.4911082, 35.223489], [-97.4911442, 35.2234749], [-97.4911676, 35.2235148], [-97.4913322, 35.2234503], [-97.4912544, 35.2233178], [-97.4910538, 35.2233964], [-97.4911082, 35.223489]]]}, "properties": {"osm_id": 1269057268, "building": "yes", "name": "", "height": null, "height_m": null, "levels": null, "tract_id": "40027201512", "tract_name": "2015.12", "tags": {"building": "yes", "source": "microsoft/BuildingFootprints"}}}, {"type": "Feature", "geometry": {"type": "Polygon", "coordinates": [[[-97.4909521, 35.223277], [-97.4910329, 35.2233861], [-97.4912293, 35.2232891], [-97.4911485, 35.22318], [-97.4909521, 35.223277]]]}, "properties": {"osm_id": 1269057269, "building": "yes", "name": "", "height": null, "height_m": null, "levels": null, "tract_id": "40027201512", "tract_name": "2015.12", "tags": {"building": "yes", "source": "microsoft/BuildingFootprints"}}}, {"type": "Feature", "geometry": {"type": "Polygon", "coordinates": [[[-97.4907728, 35.2230551], [-97.4909017, 35.2232239], [-97.4909297, 35.2232097], [-97.4909574, 35.2232459], [-97.4911186, 35.2231638], [-97.4910415, 35.2230628], [-97.4910396, 35.2230638], [-97.4909601, 35.2229597], [-97.4907728, 35.2230551]]]}, "properties": {"osm_id": 1269057270, "building": "yes", "name": "", "height": null, "height_m": null, "levels": null, "tract_id": "40027201512", "tract_name": "2015.12", "tags": {"building": "yes", "source": "microsoft/BuildingFootprints"}}}, {"type": "Feature", "geometry": {"type": "Polygon", "coordinates": [[[-97.4905801, 35.2228185], [-97.4907455, 35.2230281], [-97.490935, 35.2229283], [-97.4906186, 35.2225274], [-97.4905561, 35.2225603], [-97.4905329, 35.2225309], [-97.4904249, 35.2225877], [-97.4904823, 35.2226605], [-97.4904709, 35.2226665], [-97.4905877, 35.2228145], [-97.4905801, 35.2228185]]]}, "properties": {"osm_id": 1269057271, "building": "yes", "name": "", "height": null, "height_m": null, "levels": null, "tract_id": "40027201512", "tract_name": "2015.12", "tags": {"building": "yes", "source": "microsoft/BuildingFootprints"}}}, {"type": "Feature", "geometry": {"type": "Polygon", "coordinates": [[[-97.4905556, 35.2229573], [-97.4903964, 35.222739], [-97.4903825, 35.2227458], [-97.4903259, 35.2226681], [-97.4902517, 35.2227043], [-97.4902954, 35.2227641], [-97.4902221, 35.2227997], [-97.490303, 35.2229106], [-97.4902842, 35.2229198], [-97.4903755, 35.223045], [-97.4905556, 35.2229573]]]}, "properties": {"osm_id": 1269057272, "building": "yes", "name": "", "height": null, "height_m": null, "levels": null, "tract_id": "40027201512", "tract_name": "2015.12", "tags": {"building": "yes", "source": "microsoft/BuildingFootprints"}}}, {"type": "Feature", "geometry": {"type": "Polygon", "coordinates": [[[-97.490585, 35.2229738], [-97.4903931, 35.2230616], [-97.4905337, 35.2232667], [-97.4907256, 35.2231789], [-97.490585, 35.2229738]]]}, "properties": {"osm_id": 1269057273, "building": "yes", "name": "", "height": null, "height_m": null, "levels": null, "tract_id": "40027201512", "tract_name": "2015.12", "tags": {"building": "yes", "source": "microsoft/BuildingFootprints"}}}, {"type": "Feature", "geometry": {"type": "Polygon", "coordinates": [[[-97.4905621, 35.2232771], [-97.4906604, 35.2234206], [-97.4908525, 35.2233329], [-97.4907542, 35.2231893], [-97.4905621, 35.2232771]]]}, "properties": {"osm_id": 1269057274, "building": "yes", "name": "", "height": null, "height_m": null, "levels": null, "tract_id": "40027201512", "tract_name": "2015.12", "tags": {"building": "yes", "source": "microsoft/BuildingFootprints"}}}, {"type": "Feature", "geometry": {"type": "Polygon", "coordinates": [[[-97.4908777, 35.2233433], [-97.4907335, 35.2234128], [-97.4907593, 35.2234486], [-97.4907275, 35.2234639], [-97.490758, 35.2235062], [-97.4908137, 35.2234793], [-97.4908619, 35.2235459], [-97.4909822, 35.2234879], [-97.4908777, 35.2233433]]]}, "properties": {"osm_id": 1269057275, "building": "yes", "name": "", "height": null, "height_m": null, "levels": null, "tract_id": "40027201512", "tract_name": "2015.12", "tags": {"building": "yes", "source": "microsoft/BuildingFootprints"}}}, {"type": "Feature", "geometry": {"type": "Polygon", "coordinates": [[[-97.4897595, 35.2228053], [-97.4897567, 35.2229105], [-97.4898425, 35.222912], [-97.4898405, 35.2229886], [-97.4900523, 35.2229924], [-97.4900545, 35.2229091], [-97.4899741, 35.2229077], [-97.4899758, 35.222842], [-97.4898498, 35.2228398], [-97.4898507, 35.222807], [-97.4897595, 35.2228053]]]}, "properties": {"osm_id": 1269057276, "building": "yes", "name": "", "height": null, "height_m": null, "levels": null, "tract_id": "40027201512", "tract_name": "2015.12", "tags": {"building": "yes", "source": "microsoft/BuildingFootprints"}}}, {"type": "Feature", "geometry": {"type": "Polygon", "coordinates": [[[-97.4897592, 35.2230721], [-97.4897625, 35.223232], [-97.4897826, 35.2232317], [-97.4897839, 35.2232952], [-97.4900052, 35.2232922], [-97.490001, 35.2230894], [-97.4900694, 35.2230885], [-97.4900675, 35.2229965], [-97.4899522, 35.222998], [-97.4899534, 35.2230594], [-97.4899025, 35.2230601], [-97.4899027, 35.2230701], [-97.4897592, 35.2230721]]]}, "properties": {"osm_id": 1269057277, "building": "yes", "name": "", "height": null, "height_m": null, "levels": null, "tract_id": "40027201512", "tract_name": "2015.12", "tags": {"building": "yes", "source": "microsoft/BuildingFootprints"}}}, {"type": "Feature", "geometry": {"type": "Polygon", "coordinates": [[[-97.4899869, 35.2233192], [-97.489759, 35.2233238], [-97.4897638, 35.2234802], [-97.4899916, 35.2234757], [-97.4899869, 35.2233192]]]}, "properties": {"osm_id": 1269057278, "building": "yes", "name": "", "height": null, "height_m": null, "levels": null, "tract_id": "40027201512", "tract_name": "2015.12", "tags": {"building": "yes", "source": "microsoft/BuildingFootprints"}}}, {"type": "Feature", "geometry": {"type": "Polygon", "coordinates": [[[-97.4897628, 35.2234846], [-97.4897622, 35.2235537], [-97.4898333, 35.2235542], [-97.4898329, 35.2235924], [-97.4897712, 35.223592], [-97.4897707, 35.2236468], [-97.489996, 35.2236482], [-97.4899975, 35.223486], [-97.4897628, 35.2234846]]]}, "properties": {"osm_id": 1269057279, "building": "yes", "name": "", "height": null, "height_m": null, "levels": null, "tract_id": "40027201512", "tract_name": "2015.12", "tags": {"building": "yes", "source": "microsoft/BuildingFootprints"}}}, {"type": "Feature", "geometry": {"type": "Polygon", "coordinates": [[[-97.4890206, 35.2229936], [-97.4891333, 35.2229934], [-97.489133, 35.2229189], [-97.4892055, 35.2229187], [-97.4892056, 35.2229703], [-97.48927, 35.2229702], [-97.4892696, 35.2228375], [-97.4890201, 35.222838], [-97.4890206, 35.2229936]]]}, "properties": {"osm_id": 1269057280, "building": "yes", "name": "", "height": null, "height_m": null, "levels": null, "tract_id": "40027201512", "tract_name": "2015.12", "tags": {"building": "yes", "source": "microsoft/BuildingFootprints"}}}, {"type": "Feature", "geometry": {"type": "Polygon", "coordinates": [[[-97.4895437, 35.2228227], [-97.4895434, 35.2228665], [-97.4894979, 35.2228663], [-97.4894977, 35.2228917], [-97.4894467, 35.2228915], [-97.4894463, 35.2229691], [-97.4896582, 35.2229699], [-97.489659, 35.2228231], [-97.4895437, 35.2228227]]]}, "properties": {"osm_id": 1269057281, "building": "yes", "name": "", "height": null, "height_m": null, "levels": null, "tract_id": "40027201512", "tract_name": "2015.12", "tags": {"building": "yes", "source": "microsoft/BuildingFootprints"}}}, {"type": "Feature", "geometry": {"type": "Polygon", "coordinates": [[[-97.489543, 35.223139], [-97.4896556, 35.223139], [-97.4896556, 35.2229813], [-97.4894303, 35.2229813], [-97.4894303, 35.2230755], [-97.489543, 35.2230755], [-97.489543, 35.223139]]]}, "properties": {"osm_id": 1269057282, "building": "yes", "name": "", "height": null, "height_m": null, "levels": null, "tract_id": "40027201512", "tract_name": "2015.12", "tags": {"building": "yes", "source": "microsoft/BuildingFootprints"}}}, {"type": "Feature", "geometry": {"type": "Polygon", "coordinates": [[[-97.4894363, 35.2231612], [-97.4894408, 35.2233123], [-97.4896418, 35.2233083], [-97.4896398, 35.2232404], [-97.4896586, 35.22324], [-97.4896561, 35.2231568], [-97.4894363, 35.2231612]]]}, "properties": {"osm_id": 1269057283, "building": "yes", "name": "", "height": null, "height_m": null, "levels": null, "tract_id": "40027201512", "tract_name": "2015.12", "tags": {"building": "yes", "source": "microsoft/BuildingFootprints"}}}, {"type": "Feature", "geometry": {"type": "Polygon", "coordinates": [[[-97.4896556, 35.2233218], [-97.489437, 35.2233246], [-97.4894418, 35.2235734], [-97.4896537, 35.2235707], [-97.4896519, 35.2234787], [-97.4896251, 35.223479], [-97.4896236, 35.2234011], [-97.4896571, 35.2234007], [-97.4896556, 35.2233218]]]}, "properties": {"osm_id": 1269057284, "building": "yes", "name": "", "height": null, "height_m": null, "levels": null, "tract_id": "40027201512", "tract_name": "2015.12", "tags": {"building": "yes", "source": "microsoft/BuildingFootprints"}}}, {"type": "Feature", "geometry": {"type": "Polygon", "coordinates": [[[-97.4896629, 35.2235873], [-97.4894459, 35.2235817], [-97.4894413, 35.2236999], [-97.4896584, 35.2237055], [-97.4896629, 35.2235873]]]}, "properties": {"osm_id": 1269057285, "building": "yes", "name": "", "height": null, "height_m": null, "levels": null, "tract_id": "40027201512", "tract_name": "2015.12", "tags": {"building": "yes", "source": "microsoft/BuildingFootprints"}}}, {"type": "Feature", "geometry": {"type": "Polygon", "coordinates": [[[-97.4890079, 35.2230821], [-97.4890079, 35.2233056], [-97.4891058, 35.2233056], [-97.4891058, 35.2233253], [-97.4890642, 35.2233253], [-97.4890642, 35.2233538], [-97.4890172, 35.2233538], [-97.4890172, 35.2234107], [-97.489193, 35.2234107], [-97.4891929, 35.2233713], [-97.4892613, 35.2233713], [-97.4892613, 35.223299], [-97.489268, 35.223299], [-97.489268, 35.2230843], [-97.4891983, 35.2230843], [-97.4891983, 35.2231566], [-97.4891232, 35.2231566], [-97.4891232, 35.2230821], [-97.4890079, 35.2230821]]]}, "properties": {"osm_id": 1269057286, "building": "yes", "name": "", "height": null, "height_m": null, "levels": null, "tract_id": "40027201512", "tract_name": "2015.12", "tags": {"building": "yes", "source": "microsoft/BuildingFootprints"}}}, {"type": "Feature", "geometry": {"type": "Polygon", "coordinates": [[[-97.4890083, 35.2234241], [-97.4890079, 35.2235173], [-97.4890294, 35.2235174], [-97.4890291, 35.2235863], [-97.4892638, 35.2235869], [-97.4892644, 35.2234247], [-97.4890083, 35.2234241]]]}, "properties": {"osm_id": 1269057287, "building": "yes", "name": "", "height": null, "height_m": null, "levels": null, "tract_id": "40027201512", "tract_name": "2015.12", "tags": {"building": "yes", "source": "microsoft/BuildingFootprints"}}}, {"type": "Feature", "geometry": {"type": "Polygon", "coordinates": [[[-97.4889025, 35.2235843], [-97.4888979, 35.2234222], [-97.4888175, 35.2234237], [-97.4888181, 35.2234456], [-97.4887618, 35.2234467], [-97.4887596, 35.2233678], [-97.4886496, 35.2233699], [-97.4886521, 35.2234553], [-97.4886655, 35.2234551], [-97.4886692, 35.2235887], [-97.4889025, 35.2235843]]]}, "properties": {"osm_id": 1269057288, "building": "yes", "name": "", "height": null, "height_m": null, "levels": null, "tract_id": "40027201512", "tract_name": "2015.12", "tags": {"building": "yes", "source": "microsoft/BuildingFootprints"}}}, {"type": "Feature", "geometry": {"type": "Polygon", "coordinates": [[[-97.4889053, 35.2230905], [-97.4887229, 35.2230896], [-97.4887229, 35.2230843], [-97.4886264, 35.2230838], [-97.4886258, 35.2231659], [-97.4886687, 35.2231661], [-97.4886682, 35.2232274], [-97.4889043, 35.2232286], [-97.4889053, 35.2230905]]]}, "properties": {"osm_id": 1269057289, "building": "yes", "name": "", "height": null, "height_m": null, "levels": null, "tract_id": "40027201512", "tract_name": "2015.12", "tags": {"building": "yes", "source": "microsoft/BuildingFootprints"}}}, {"type": "Feature", "geometry": {"type": "Polygon", "coordinates": [[[-97.4885945, 35.2230846], [-97.4882351, 35.2230853], [-97.4882354, 35.2231807], [-97.4881978, 35.2231808], [-97.4881975, 35.2230832], [-97.4879159, 35.2230838], [-97.4879163, 35.2232208], [-97.4879807, 35.2232207], [-97.4879808, 35.2232677], [-97.488351, 35.2232669], [-97.488351, 35.2232647], [-97.4885951, 35.2232642], [-97.4885945, 35.2230846]]]}, "properties": {"osm_id": 1269057290, "building": "yes", "name": "", "height": null, "height_m": null, "levels": null, "tract_id": "40027201512", "tract_name": "2015.12", "tags": {"building": "yes", "source": "microsoft/BuildingFootprints"}}}, {"type": "Feature", "geometry": {"type": "Polygon", "coordinates": [[[-97.4909402, 35.222184], [-97.4911014, 35.222398], [-97.4911753, 35.2223608], [-97.4911327, 35.2223042], [-97.4912261, 35.2222573], [-97.491177, 35.2221921], [-97.4911984, 35.2221813], [-97.491129, 35.2220891], [-97.4909402, 35.222184]]]}, "properties": {"osm_id": 1269057291, "building": "yes", "name": "", "height": null, "height_m": null, "levels": null, "tract_id": "40027201512", "tract_name": "2015.12", "tags": {"building": "yes", "source": "microsoft/BuildingFootprints"}}}, {"type": "Feature", "geometry": {"type": "Polygon", "coordinates": [[[-97.4918897, 35.2219423], [-97.4918939, 35.2219473], [-97.4919611, 35.2219094], [-97.4918791, 35.2218124], [-97.4918482, 35.2218298], [-97.4918056, 35.2217794], [-97.491515, 35.2219433], [-97.4914841, 35.2219068], [-97.4913915, 35.221959], [-97.491386, 35.2219525], [-97.4912697, 35.2220181], [-97.4912635, 35.2220107], [-97.4911826, 35.2220563], [-97.4912252, 35.2221067], [-97.4911689, 35.2221385], [-97.4912843, 35.222275], [-97.4915876, 35.2221039], [-97.4915838, 35.2220995], [-97.4916647, 35.2220538], [-97.4916735, 35.2220642], [-97.4918897, 35.2219423]]]}, "properties": {"osm_id": 1269057292, "building": "yes", "name": "", "height": null, "height_m": null, "levels": null, "tract_id": "40027201512", "tract_name": "2015.12", "tags": {"building": "yes", "source": "microsoft/BuildingFootprints"}}}, {"type": "Feature", "geometry": {"type": "Polygon", "coordinates": [[[-97.4921466, 35.2217814], [-97.4920835, 35.2216988], [-97.4921213, 35.2216796], [-97.4920623, 35.2216022], [-97.4919608, 35.2216539], [-97.4919697, 35.2216656], [-97.4918576, 35.2217226], [-97.4919768, 35.2218788], [-97.4920367, 35.2218483], [-97.4920307, 35.2218405], [-97.4921466, 35.2217814]]]}, "properties": {"osm_id": 1269057293, "building": "yes", "name": "", "height": null, "height_m": null, "levels": null, "tract_id": "40027201512", "tract_name": "2015.12", "tags": {"building": "yes", "source": "microsoft/BuildingFootprints"}}}, {"type": "Feature", "geometry": {"type": "Polygon", "coordinates": [[[-97.4923512, 35.221946], [-97.4921433, 35.2220232], [-97.4921888, 35.222105], [-97.4922433, 35.2220847], [-97.4923076, 35.2222003], [-97.4922965, 35.2222044], [-97.4923379, 35.2222788], [-97.4923868, 35.2222607], [-97.4923983, 35.2222813], [-97.4923583, 35.2222962], [-97.4923906, 35.2223543], [-97.4925573, 35.2222924], [-97.4924967, 35.2221834], [-97.4924856, 35.2221876], [-97.4923512, 35.221946]]]}, "properties": {"osm_id": 1269057294, "building": "yes", "name": "", "height": null, "height_m": null, "levels": null, "tract_id": "40027201512", "tract_name": "2015.12", "tags": {"building": "yes", "source": "microsoft/BuildingFootprints"}}}, {"type": "Feature", "geometry": {"type": "Polygon", "coordinates": [[[-97.4924337, 35.2223835], [-97.4925043, 35.222505], [-97.4925052, 35.2224811], [-97.4925406, 35.222542], [-97.4926134, 35.2225438], [-97.492568, 35.2225614], [-97.4926048, 35.2226247], [-97.4926438, 35.2226095], [-97.492847, 35.2226147], [-97.4928546, 35.2226277], [-97.4928798, 35.2226179], [-97.4928297, 35.2225317], [-97.4927823, 35.2225305], [-97.4927829, 35.2225158], [-97.4927236, 35.2224139], [-97.4927237, 35.2224118], [-97.4926985, 35.2223684], [-97.4926416, 35.2223905], [-97.4926, 35.222319], [-97.4924337, 35.2223835]]]}, "properties": {"osm_id": 1269057295, "building": "yes", "name": "", "height": null, "height_m": null, "levels": null, "tract_id": "40027201512", "tract_name": "2015.12", "tags": {"building": "yes", "source": "microsoft/BuildingFootprints"}}}, {"type": "Feature", "geometry": {"type": "Polygon", "coordinates": [[[-97.4927322, 35.2215871], [-97.4927333, 35.2217645], [-97.4928004, 35.2217642], [-97.4928003, 35.2217519], [-97.4930537, 35.2217507], [-97.4930532, 35.2216806], [-97.4930907, 35.2216805], [-97.4930913, 35.2217651], [-97.4932174, 35.2217645], [-97.4932165, 35.2216339], [-97.4931911, 35.221634], [-97.4931908, 35.221585], [-97.4927322, 35.2215871]]]}, "properties": {"osm_id": 1269057296, "building": "yes", "name": "", "height": null, "height_m": null, "levels": null, "tract_id": "40027201512", "tract_name": "2015.12", "tags": {"building": "yes", "source": "microsoft/BuildingFootprints"}}}, {"type": "Feature", "geometry": {"type": "Polygon", "coordinates": [[[-97.4939042, 35.221901], [-97.4939798, 35.2220162], [-97.4939785, 35.2220285], [-97.4940074, 35.2220724], [-97.4940184, 35.2220732], [-97.4940814, 35.2220456], [-97.4940863, 35.2219977], [-97.4941369, 35.2220012], [-97.4941431, 35.2219421], [-97.4941418, 35.2219402], [-97.4941511, 35.22185], [-97.4941037, 35.2217776], [-97.4940638, 35.2217748], [-97.4940714, 35.2217022], [-97.4940393, 35.2216999], [-97.4939904, 35.2216253], [-97.4938853, 35.2216713], [-97.4938796, 35.2217264], [-97.4938088, 35.2217574], [-97.4938731, 35.2218555], [-97.4939773, 35.2218098], [-97.493991, 35.2218307], [-97.4939875, 35.2218645], [-97.4939042, 35.221901]]]}, "properties": {"osm_id": 1269057297, "building": "yes", "name": "", "height": null, "height_m": null, "levels": null, "tract_id": "40027201512", "tract_name": "2015.12", "tags": {"building": "yes", "source": "microsoft/BuildingFootprints"}}}, {"type": "Feature", "geometry": {"type": "Polygon", "coordinates": [[[-97.4941327, 35.2222812], [-97.4941033, 35.2222333], [-97.4941319, 35.2222215], [-97.4941223, 35.2221217], [-97.4939749, 35.2221311], [-97.4939491, 35.2221417], [-97.4939835, 35.2221977], [-97.4939589, 35.2222078], [-97.4939129, 35.2221329], [-97.4938249, 35.2221386], [-97.4938291, 35.2221821], [-97.4937755, 35.2222041], [-97.4938176, 35.2222728], [-97.4938204, 35.2223012], [-97.4937816, 35.222238], [-97.4936937, 35.222274], [-97.4937025, 35.2222883], [-97.4937035, 35.2222987], [-97.4937852, 35.2224317], [-97.4938661, 35.2224265], [-97.4938639, 35.2224037], [-97.4939852, 35.222354], [-97.4939496, 35.2223563], [-97.4941327, 35.2222812]]]}, "properties": {"osm_id": 1269057298, "building": "yes", "name": "", "height": null, "height_m": null, "levels": null, "tract_id": "40027201512", "tract_name": "2015.12", "tags": {"building": "yes", "source": "microsoft/BuildingFootprints"}}}, {"type": "Feature", "geometry": {"type": "Polygon", "coordinates": [[[-97.493631, 35.2224958], [-97.493475, 35.2222729], [-97.4933456, 35.2223333], [-97.4933271, 35.2223069], [-97.4932554, 35.2223404], [-97.4933478, 35.2224725], [-97.4933609, 35.2224664], [-97.4934384, 35.222577], [-97.4935435, 35.2225279], [-97.4935481, 35.2225345], [-97.493631, 35.2224958]]]}, "properties": {"osm_id": 1269057299, "building": "yes", "name": "", "height": null, "height_m": null, "levels": null, "tract_id": "40027201512", "tract_name": "2015.12", "tags": {"building": "yes", "source": "microsoft/BuildingFootprints"}}}, {"type": "Feature", "geometry": {"type": "Polygon", "coordinates": [[[-97.4934484, 35.222242], [-97.493206, 35.2219579], [-97.4931113, 35.2220118], [-97.4932434, 35.2221667], [-97.493247, 35.2221646], [-97.4933074, 35.2222354], [-97.493301, 35.2222391], [-97.4933509, 35.2222975], [-97.4934484, 35.222242]]]}, "properties": {"osm_id": 1269057300, "building": "yes", "name": "", "height": null, "height_m": null, "levels": null, "tract_id": "40027201512", "tract_name": "2015.12", "tags": {"building": "yes", "source": "microsoft/BuildingFootprints"}}}, {"type": "Feature", "geometry": {"type": "Polygon", "coordinates": [[[-97.493229, 35.2224809], [-97.4931872, 35.2224251], [-97.4931472, 35.2224451], [-97.4931273, 35.2224186], [-97.4931527, 35.2224059], [-97.4929815, 35.2221774], [-97.4928127, 35.2222618], [-97.4930456, 35.2225726], [-97.493229, 35.2224809]]]}, "properties": {"osm_id": 1269057301, "building": "yes", "name": "", "height": null, "height_m": null, "levels": null, "tract_id": "40027201512", "tract_name": "2015.12", "tags": {"building": "yes", "source": "microsoft/BuildingFootprints"}}}, {"type": "Feature", "geometry": {"type": "Polygon", "coordinates": [[[-97.4930658, 35.2225826], [-97.4932757, 35.2228691], [-97.493335, 35.2228402], [-97.4933851, 35.2229085], [-97.4934739, 35.2228651], [-97.4934191, 35.2227902], [-97.4934595, 35.2227705], [-97.4934146, 35.2227092], [-97.4934077, 35.2227125], [-97.4933503, 35.2226341], [-97.4933483, 35.2226351], [-97.4933034, 35.2225738], [-97.493252, 35.2225989], [-97.4932296, 35.2225682], [-97.493275, 35.222546], [-97.4932395, 35.2224976], [-97.4930658, 35.2225826]]]}, "properties": {"osm_id": 1269057302, "building": "yes", "name": "", "height": null, "height_m": null, "levels": null, "tract_id": "40027201512", "tract_name": "2015.12", "tags": {"building": "yes", "source": "microsoft/BuildingFootprints"}}}, {"type": "Feature", "geometry": {"type": "Polygon", "coordinates": [[[-97.4927115, 35.2227172], [-97.4927943, 35.2228689], [-97.4930046, 35.2227923], [-97.4929218, 35.2226406], [-97.4927115, 35.2227172]]]}, "properties": {"osm_id": 1269057303, "building": "yes", "name": "", "height": null, "height_m": null, "levels": null, "tract_id": "40027201512", "tract_name": "2015.12", "tags": {"building": "yes", "source": "microsoft/BuildingFootprints"}}}, {"type": "Feature", "geometry": {"type": "Polygon", "coordinates": [[[-97.4928189, 35.2228726], [-97.4928554, 35.2229379], [-97.4928865, 35.2229263], [-97.4929443, 35.2230296], [-97.493134, 35.2229588], [-97.4930397, 35.2227902], [-97.4928189, 35.2228726]]]}, "properties": {"osm_id": 1269057304, "building": "yes", "name": "", "height": null, "height_m": null, "levels": null, "tract_id": "40027201512", "tract_name": "2015.12", "tags": {"building": "yes", "source": "microsoft/BuildingFootprints"}}}, {"type": "Feature", "geometry": {"type": "Polygon", "coordinates": [[[-97.4928752, 35.2231037], [-97.4927072, 35.2228784], [-97.492669, 35.2228974], [-97.4925708, 35.2227658], [-97.4924604, 35.2228208], [-97.4925021, 35.2228767], [-97.4924659, 35.2228948], [-97.4925422, 35.222997], [-97.4925217, 35.2230072], [-97.4925693, 35.2230711], [-97.4925996, 35.223056], [-97.4927002, 35.2231908], [-97.4928752, 35.2231037]]]}, "properties": {"osm_id": 1269057305, "building": "yes", "name": "", "height": null, "height_m": null, "levels": null, "tract_id": "40027201512", "tract_name": "2015.12", "tags": {"building": "yes", "source": "microsoft/BuildingFootprints"}}}, {"type": "Feature", "geometry": {"type": "Polygon", "coordinates": [[[-97.4923399, 35.2227885], [-97.4924816, 35.222795], [-97.4924938, 35.2226195], [-97.4923975, 35.222615], [-97.4923947, 35.2226565], [-97.4923492, 35.2226544], [-97.4923399, 35.2227885]]]}, "properties": {"osm_id": 1269057306, "building": "yes", "name": "", "height": null, "height_m": null, "levels": null, "tract_id": "40027201512", "tract_name": "2015.12", "tags": {"building": "yes", "source": "microsoft/BuildingFootprints"}}}, {"type": "Feature", "geometry": {"type": "Polygon", "coordinates": [[[-97.4918848, 35.2221919], [-97.4919542, 35.2222941], [-97.492025, 35.222262], [-97.4920739, 35.2223341], [-97.4922032, 35.2222755], [-97.4921656, 35.2222202], [-97.4921502, 35.2222272], [-97.4920432, 35.2220697], [-97.4919274, 35.2221222], [-97.4919536, 35.2221607], [-97.4918848, 35.2221919]]]}, "properties": {"osm_id": 1269057307, "building": "yes", "name": "", "height": null, "height_m": null, "levels": null, "tract_id": "40027201512", "tract_name": "2015.12", "tags": {"building": "yes", "source": "microsoft/BuildingFootprints"}}}, {"type": "Feature", "geometry": {"type": "Polygon", "coordinates": [[[-97.4913812, 35.2227299], [-97.4915216, 35.2229225], [-97.4917078, 35.222832], [-97.4916606, 35.2227673], [-97.4917002, 35.222748], [-97.4917354, 35.2227448], [-97.4917704, 35.2227928], [-97.491913, 35.2227234], [-97.4918572, 35.2226468], [-97.4919502, 35.2226383], [-97.4919792, 35.2226781], [-97.4921535, 35.2225934], [-97.4921251, 35.2225544], [-97.4921176, 35.2224999], [-97.4921714, 35.2225737], [-97.4922545, 35.2225333], [-97.4922468, 35.2225226], [-97.4922194, 35.222323], [-97.4921943, 35.2222886], [-97.4921229, 35.2223234], [-97.4921354, 35.2224145], [-97.4919288, 35.2224334], [-97.4919327, 35.2224619], [-97.4917265, 35.2225621], [-97.4917367, 35.222636], [-97.4917037, 35.2225908], [-97.4915779, 35.2226519], [-97.4915816, 35.2226786], [-97.4914849, 35.2226875], [-97.4914894, 35.22272], [-97.4913812, 35.2227299]]]}, "properties": {"osm_id": 1269057308, "building": "yes", "name": "", "height": null, "height_m": null, "levels": null, "tract_id": "40027201512", "tract_name": "2015.12", "tags": {"building": "yes", "source": "microsoft/BuildingFootprints"}}}, {"type": "Feature", "geometry": {"type": "Polygon", "coordinates": [[[-97.4941414, 35.222486], [-97.4939031, 35.222494], [-97.4939086, 35.2226042], [-97.4940412, 35.2225998], [-97.4940427, 35.2226296], [-97.4939209, 35.2226336], [-97.4939262, 35.2227408], [-97.4940414, 35.222737], [-97.4940431, 35.222772], [-97.4939414, 35.2227754], [-97.4939452, 35.2228519], [-97.4941126, 35.2228463], [-97.4941107, 35.2228092], [-97.4941576, 35.2228076], [-97.4941414, 35.222486]]]}, "properties": {"osm_id": 1269057467, "building": "yes", "name": "", "height": null, "height_m": null, "levels": null, "tract_id": "40027201512", "tract_name": "2015.12", "tags": {"building": "yes", "source": "microsoft/BuildingFootprints"}}}, {"type": "Feature", "geometry": {"type": "Polygon", "coordinates": [[[-97.4937888, 35.2231239], [-97.4937896, 35.2231581], [-97.4937065, 35.2231594], [-97.4937077, 35.223212], [-97.4937989, 35.2232105], [-97.4937992, 35.2232223], [-97.4941584, 35.2232167], [-97.4941561, 35.2231182], [-97.4937888, 35.2231239]]]}, "properties": {"osm_id": 1269057468, "building": "yes", "name": "", "height": null, "height_m": null, "levels": null, "tract_id": "40027201512", "tract_name": "2015.12", "tags": {"building": "yes", "source": "microsoft/BuildingFootprints"}}}, {"type": "Feature", "geometry": {"type": "Polygon", "coordinates": [[[-97.4936115, 35.2231244], [-97.4934318, 35.2231251], [-97.4934323, 35.2231996], [-97.493392, 35.2231998], [-97.4933927, 35.223305], [-97.4934624, 35.2233047], [-97.4934622, 35.223271], [-97.4935051, 35.2232708], [-97.4935053, 35.2233023], [-97.4936179, 35.2233019], [-97.4936174, 35.2232186], [-97.4935625, 35.2232188], [-97.4935623, 35.2231881], [-97.4936119, 35.223188], [-97.4936115, 35.2231244]]]}, "properties": {"osm_id": 1269057469, "building": "yes", "name": "", "height": null, "height_m": null, "levels": null, "tract_id": "40027201512", "tract_name": "2015.12", "tags": {"building": "yes", "source": "microsoft/BuildingFootprints"}}}, {"type": "Feature", "geometry": {"type": "Polygon", "coordinates": [[[-97.4928909, 35.2233478], [-97.4927726, 35.2233542], [-97.4927776, 35.2234151], [-97.4927914, 35.2234361], [-97.4927921, 35.2234446], [-97.4927643, 35.2234725], [-97.4928175, 35.2235533], [-97.4928856, 35.2235234], [-97.4928829, 35.2234907], [-97.4929369, 35.2234878], [-97.492966, 35.2234584], [-97.4929967, 35.2234788], [-97.493008, 35.2234674], [-97.4930604, 35.2234444], [-97.4930872, 35.2234175], [-97.4931044, 35.2234165], [-97.4930854, 35.223404], [-97.4930637, 35.223371], [-97.4930867, 35.2233478], [-97.4931303, 35.2233768], [-97.4931723, 35.2233345], [-97.4931877, 35.2233447], [-97.493257, 35.2233143], [-97.4932003, 35.2232281], [-97.4931498, 35.2232308], [-97.4931248, 35.2231927], [-97.4930461, 35.223197], [-97.4929873, 35.2232562], [-97.4929883, 35.223268], [-97.4929563, 35.223282], [-97.4928909, 35.2233478]]]}, "properties": {"osm_id": 1269057470, "building": "yes", "name": "", "height": null, "height_m": null, "levels": null, "tract_id": "40027201512", "tract_name": "2015.12", "tags": {"building": "yes", "source": "microsoft/BuildingFootprints"}}}, {"type": "Feature", "geometry": {"type": "Polygon", "coordinates": [[[-97.4921512, 35.2234194], [-97.492169, 35.2234092], [-97.4921314, 35.2233659], [-97.4921273, 35.2233683], [-97.4921116, 35.2233501], [-97.4921203, 35.2233451], [-97.4920885, 35.2233083], [-97.4920828, 35.2233116], [-97.4920687, 35.2232953], [-97.4920457, 35.2233087], [-97.4920017, 35.2232579], [-97.4920336, 35.2232395], [-97.4920021, 35.2232032], [-97.4918412, 35.2232961], [-97.4918593, 35.223317], [-97.4918388, 35.2233289], [-97.4919113, 35.2234126], [-97.491961, 35.2233839], [-97.49201, 35.2234404], [-97.4919646, 35.2234667], [-97.4920109, 35.2235202], [-97.4920744, 35.2234836], [-97.4920822, 35.2234926], [-97.4921201, 35.2234707], [-97.492112, 35.2234613], [-97.4921358, 35.2234475], [-97.4921248, 35.2234347], [-97.4921512, 35.2234194]]]}, "properties": {"osm_id": 1269057471, "building": "yes", "name": "", "height": null, "height_m": null, "levels": null, "tract_id": "40027201512", "tract_name": "2015.12", "tags": {"building": "yes", "source": "microsoft/BuildingFootprints"}}}, {"type": "Feature", "geometry": {"type": "Polygon", "coordinates": [[[-97.4919263, 35.2231242], [-97.4919008, 35.223121], [-97.4917412, 35.2232057], [-97.4918125, 35.2232966], [-97.4919932, 35.2232035], [-97.491966, 35.2231632], [-97.49193, 35.2231844], [-97.4919216, 35.223169], [-97.491952, 35.223155], [-97.4919263, 35.2231242]]]}, "properties": {"osm_id": 1269057472, "building": "yes", "name": "", "height": null, "height_m": null, "levels": null, "tract_id": "40027201512", "tract_name": "2015.12", "tags": {"building": "yes", "source": "microsoft/BuildingFootprints"}}}, {"type": "Feature", "geometry": {"type": "Polygon", "coordinates": [[[-97.4919315, 35.2230415], [-97.4921149, 35.2229534], [-97.4920897, 35.2229184], [-97.4920973, 35.2228954], [-97.4920175, 35.2227843], [-97.4919953, 35.2227794], [-97.4919295, 35.222811], [-97.4919194, 35.2228415], [-97.4918953, 35.2228362], [-97.4918264, 35.2228692], [-97.491859, 35.2229145], [-97.491853, 35.2229324], [-97.4918202, 35.2228867], [-97.4916517, 35.2229676], [-97.4917596, 35.2229915], [-97.4917321, 35.2230744], [-97.4917105, 35.2230848], [-97.4917667, 35.223163], [-97.4918374, 35.2231291], [-97.491887, 35.2229796], [-97.4919315, 35.2230415]]]}, "properties": {"osm_id": 1269057473, "building": "yes", "name": "", "height": null, "height_m": null, "levels": null, "tract_id": "40027201512", "tract_name": "2015.12", "tags": {"building": "yes", "source": "microsoft/BuildingFootprints"}}}, {"type": "Feature", "geometry": {"type": "Polygon", "coordinates": [[[-97.4922348, 35.2226556], [-97.4921512, 35.222694], [-97.4921604, 35.2227073], [-97.4920677, 35.2227499], [-97.4921051, 35.2228042], [-97.4920765, 35.2228173], [-97.4921556, 35.2229322], [-97.4923604, 35.2228381], [-97.4922348, 35.2226556]]]}, "properties": {"osm_id": 1269057474, "building": "yes", "name": "", "height": null, "height_m": null, "levels": null, "tract_id": "40027201512", "tract_name": "2015.12", "tags": {"building": "yes", "source": "microsoft/BuildingFootprints"}}}, {"type": "Feature", "geometry": {"type": "Polygon", "coordinates": [[[-97.490751, 35.2224366], [-97.4908894, 35.2226365], [-97.4910896, 35.2225441], [-97.4910447, 35.2224793], [-97.490993, 35.2225032], [-97.490973, 35.2224744], [-97.4910187, 35.2224533], [-97.4909761, 35.2223918], [-97.4909152, 35.22242], [-97.4908841, 35.2223751], [-97.490751, 35.2224366]]]}, "properties": {"osm_id": 1269057475, "building": "yes", "name": "", "height": null, "height_m": null, "levels": null, "tract_id": "40027201512", "tract_name": "2015.12", "tags": {"building": "yes", "source": "microsoft/BuildingFootprints"}}}, {"type": "Feature", "geometry": {"type": "Polygon", "coordinates": [[[-97.4911771, 35.2226714], [-97.491109, 35.2225615], [-97.490919, 35.2226402], [-97.4909871, 35.22275], [-97.4911771, 35.2226714]]]}, "properties": {"osm_id": 1269057476, "building": "yes", "name": "", "height": null, "height_m": null, "levels": null, "tract_id": "40027201512", "tract_name": "2015.12", "tags": {"building": "yes", "source": "microsoft/BuildingFootprints"}}}, {"type": "Feature", "geometry": {"type": "Polygon", "coordinates": [[[-97.4912077, 35.2226809], [-97.491027, 35.2227645], [-97.4911029, 35.222874], [-97.4911008, 35.2228749], [-97.4911814, 35.222991], [-97.491356, 35.2229102], [-97.4913111, 35.2228455], [-97.4913193, 35.2228418], [-97.4912077, 35.2226809]]]}, "properties": {"osm_id": 1269057477, "building": "yes", "name": "", "height": null, "height_m": null, "levels": null, "tract_id": "40027201512", "tract_name": "2015.12", "tags": {"building": "yes", "source": "microsoft/BuildingFootprints"}}}, {"type": "Feature", "geometry": {"type": "Polygon", "coordinates": [[[-97.4913647, 35.2223648], [-97.4912703, 35.2223685], [-97.4911501, 35.2224236], [-97.4911509, 35.222438], [-97.491236, 35.2225617], [-97.4913076, 35.2225288], [-97.4913118, 35.2226014], [-97.491284, 35.2226141], [-97.4913386, 35.2226934], [-97.4915302, 35.2226055], [-97.4914371, 35.22247], [-97.4914374, 35.2224751], [-97.4913812, 35.2224773], [-97.4913756, 35.2223807], [-97.4913647, 35.2223648]]]}, "properties": {"osm_id": 1269057478, "building": "yes", "name": "", "height": null, "height_m": null, "levels": null, "tract_id": "40027201512", "tract_name": "2015.12", "tags": {"building": "yes", "source": "microsoft/BuildingFootprints"}}}, {"type": "Feature", "geometry": {"type": "Polygon", "coordinates": [[[-97.4928134, 35.2220873], [-97.4928145, 35.2220544], [-97.4927234, 35.2220523], [-97.4927184, 35.2221968], [-97.4928899, 35.2222008], [-97.4928938, 35.2220891], [-97.4928134, 35.2220873]]]}, "properties": {"osm_id": 1269057479, "building": "yes", "name": "", "height": null, "height_m": null, "levels": null, "tract_id": "40027201512", "tract_name": "2015.12", "tags": {"building": "yes", "source": "microsoft/BuildingFootprints"}}}, {"type": "Feature", "geometry": {"type": "Polygon", "coordinates": [[[-97.4948283, 35.2212659], [-97.4948222, 35.2210512], [-97.4945782, 35.2210559], [-97.4945844, 35.2212705], [-97.4947008, 35.2212683], [-97.4946986, 35.2211894], [-97.4947296, 35.2211889], [-97.4947318, 35.2212677], [-97.4948283, 35.2212659]]]}, "properties": {"osm_id": 1269057480, "building": "yes", "name": "", "height": null, "height_m": null, "levels": null, "tract_id": "40027201512", "tract_name": "2015.12", "tags": {"building": "yes", "source": "microsoft/BuildingFootprints"}}}, {"type": "Feature", "geometry": {"type": "Polygon", "coordinates": [[[-97.4948574, 35.2212688], [-97.4949527, 35.2212675], [-97.4949487, 35.2210625], [-97.4948468, 35.2210639], [-97.4948495, 35.221201], [-97.494856, 35.2212009], [-97.4948574, 35.2212688]]]}, "properties": {"osm_id": 1269057481, "building": "yes", "name": "", "height": null, "height_m": null, "levels": null, "tract_id": "40027201512", "tract_name": "2015.12", "tags": {"building": "yes", "source": "microsoft/BuildingFootprints"}}}, {"type": "Feature", "geometry": {"type": "Polygon", "coordinates": [[[-97.495192, 35.2212661], [-97.4951884, 35.2211741], [-97.4952072, 35.2211737], [-97.4952027, 35.2210567], [-97.4950071, 35.2210617], [-97.4950151, 35.2212706], [-97.495192, 35.2212661]]]}, "properties": {"osm_id": 1269057482, "building": "yes", "name": "", "height": null, "height_m": null, "levels": null, "tract_id": "40027201512", "tract_name": "2015.12", "tags": {"building": "yes", "source": "microsoft/BuildingFootprints"}}}, {"type": "Feature", "geometry": {"type": "Polygon", "coordinates": [[[-97.4952811, 35.2212624], [-97.495442, 35.2212645], [-97.4954437, 35.2211747], [-97.4954651, 35.2211749], [-97.4954668, 35.2210873], [-97.4952186, 35.2210841], [-97.4952169, 35.2211739], [-97.4952827, 35.2211748], [-97.4952811, 35.2212624]]]}, "properties": {"osm_id": 1269057483, "building": "yes", "name": "", "height": null, "height_m": null, "levels": null, "tract_id": "40027201512", "tract_name": "2015.12", "tags": {"building": "yes", "source": "microsoft/BuildingFootprints"}}}, {"type": "Feature", "geometry": {"type": "Polygon", "coordinates": [[[-97.4955518, 35.2212641], [-97.4957115, 35.2212626], [-97.4957103, 35.221175], [-97.4957317, 35.2211748], [-97.4957303, 35.2210774], [-97.495489, 35.2210797], [-97.4954903, 35.2211739], [-97.4955505, 35.2211734], [-97.4955518, 35.2212641]]]}, "properties": {"osm_id": 1269057484, "building": "yes", "name": "", "height": null, "height_m": null, "levels": null, "tract_id": "40027201512", "tract_name": "2015.12", "tags": {"building": "yes", "source": "microsoft/BuildingFootprints"}}}, {"type": "Feature", "geometry": {"type": "Polygon", "coordinates": [[[-97.4960349, 35.2212613], [-97.4960317, 35.2210509], [-97.4957972, 35.2210534], [-97.4958004, 35.2212615], [-97.495913, 35.2212603], [-97.4959131, 35.2212625], [-97.4960349, 35.2212613]]]}, "properties": {"osm_id": 1269057485, "building": "yes", "name": "", "height": null, "height_m": null, "levels": null, "tract_id": "40027201512", "tract_name": "2015.12", "tags": {"building": "yes", "source": "microsoft/BuildingFootprints"}}}, {"type": "Feature", "geometry": {"type": "Polygon", "coordinates": [[[-97.4960666, 35.2212628], [-97.4962153, 35.2212632], [-97.4962156, 35.2211996], [-97.4962505, 35.2211997], [-97.4962511, 35.2210507], [-97.4960676, 35.2210502], [-97.4960666, 35.2212628]]]}, "properties": {"osm_id": 1269057486, "building": "yes", "name": "", "height": null, "height_m": null, "levels": null, "tract_id": "40027201512", "tract_name": "2015.12", "tags": {"building": "yes", "source": "microsoft/BuildingFootprints"}}}, {"type": "Feature", "geometry": {"type": "Polygon", "coordinates": [[[-97.4963433, 35.2212603], [-97.4965256, 35.221258], [-97.4965217, 35.2210521], [-97.4963394, 35.2210544], [-97.4963433, 35.2212603]]]}, "properties": {"osm_id": 1269057487, "building": "yes", "name": "", "height": null, "height_m": null, "levels": null, "tract_id": "40027201512", "tract_name": "2015.12", "tags": {"building": "yes", "source": "microsoft/BuildingFootprints"}}}, {"type": "Feature", "geometry": {"type": "Polygon", "coordinates": [[[-97.4948685, 35.221721], [-97.4948735, 35.2215897], [-97.4946363, 35.2215836], [-97.4946306, 35.2217315], [-97.4947217, 35.2217339], [-97.4947223, 35.2217172], [-97.4948685, 35.221721]]]}, "properties": {"osm_id": 1269057488, "building": "yes", "name": "", "height": null, "height_m": null, "levels": null, "tract_id": "40027201512", "tract_name": "2015.12", "tags": {"building": "yes", "source": "microsoft/BuildingFootprints"}}}, {"type": "Feature", "geometry": {"type": "Polygon", "coordinates": [[[-97.4946014, 35.2220683], [-97.4947918, 35.2220707], [-97.4947923, 35.2220444], [-97.4948768, 35.2220455], [-97.4948781, 35.2219807], [-97.4947533, 35.2219791], [-97.4947543, 35.2219256], [-97.4948696, 35.2219271], [-97.4948716, 35.2218207], [-97.4948126, 35.2218199], [-97.4948132, 35.2217892], [-97.4946497, 35.2217871], [-97.4946481, 35.2218704], [-97.4946052, 35.2218698], [-97.4946014, 35.2220683]]]}, "properties": {"osm_id": 1269057489, "building": "yes", "name": "", "height": null, "height_m": null, "levels": null, "tract_id": "40027201512", "tract_name": "2015.12", "tags": {"building": "yes", "source": "microsoft/BuildingFootprints"}}}, {"type": "Feature", "geometry": {"type": "Polygon", "coordinates": [[[-97.4946109, 35.2222054], [-97.4947932, 35.2222024], [-97.4947914, 35.2221289], [-97.4947083, 35.2221302], [-97.4947074, 35.2220974], [-97.4946082, 35.222099], [-97.4946109, 35.2222054]]]}, "properties": {"osm_id": 1269057490, "building": "yes", "name": "", "height": null, "height_m": null, "levels": null, "tract_id": "40027201512", "tract_name": "2015.12", "tags": {"building": "yes", "source": "microsoft/BuildingFootprints"}}}, {"type": "Feature", "geometry": {"type": "Polygon", "coordinates": [[[-97.4946175, 35.2223972], [-97.4946608, 35.2224668], [-97.4948772, 35.2223771], [-97.4948246, 35.2222924], [-97.4947958, 35.2223044], [-97.4947471, 35.222226], [-97.4945903, 35.222291], [-97.4946483, 35.2223844], [-97.4946175, 35.2223972]]]}, "properties": {"osm_id": 1269057491, "building": "yes", "name": "", "height": null, "height_m": null, "levels": null, "tract_id": "40027201512", "tract_name": "2015.12", "tags": {"building": "yes", "source": "microsoft/BuildingFootprints"}}}, {"type": "Feature", "geometry": {"type": "Polygon", "coordinates": [[[-97.495103, 35.2224127], [-97.4949103, 35.222406], [-97.4949079, 35.222452], [-97.4948624, 35.2224504], [-97.4948584, 35.222526], [-97.4951556, 35.2225363], [-97.4951605, 35.2224423], [-97.4951016, 35.2224402], [-97.495103, 35.2224127]]]}, "properties": {"osm_id": 1269057492, "building": "yes", "name": "", "height": null, "height_m": null, "levels": null, "tract_id": "40027201512", "tract_name": "2015.12", "tags": {"building": "yes", "source": "microsoft/BuildingFootprints"}}}, {"type": "Feature", "geometry": {"type": "Polygon", "coordinates": [[[-97.4953231, 35.2225474], [-97.4954358, 35.2225474], [-97.4954358, 35.2223458], [-97.4953124, 35.2223458], [-97.4953124, 35.2223415], [-97.4952239, 35.2223415], [-97.4952239, 35.2224094], [-97.4952614, 35.2224094], [-97.4952614, 35.2224401], [-97.4952802, 35.2224401], [-97.4952802, 35.2224685], [-97.4953231, 35.2224685], [-97.4953231, 35.2225474]]]}, "properties": {"osm_id": 1269057493, "building": "yes", "name": "", "height": null, "height_m": null, "levels": null, "tract_id": "40027201512", "tract_name": "2015.12", "tags": {"building": "yes", "source": "microsoft/BuildingFootprints"}}}, {"type": "Feature", "geometry": {"type": "Polygon", "coordinates": [[[-97.4954542, 35.2225196], [-97.4955722, 35.2225181], [-97.4955697, 35.2223792], [-97.4955267, 35.2223797], [-97.495526, 35.2223381], [-97.4954509, 35.222339], [-97.4954542, 35.2225196]]]}, "properties": {"osm_id": 1269057494, "building": "yes", "name": "", "height": null, "height_m": null, "levels": null, "tract_id": "40027201512", "tract_name": "2015.12", "tags": {"building": "yes", "source": "microsoft/BuildingFootprints"}}}, {"type": "Feature", "geometry": {"type": "Polygon", "coordinates": [[[-97.4956196, 35.2223401], [-97.495626, 35.2225328], [-97.4957184, 35.2225307], [-97.495712, 35.222338], [-97.4956196, 35.2223401]]]}, "properties": {"osm_id": 1269057495, "building": "yes", "name": "", "height": null, "height_m": null, "levels": null, "tract_id": "40027201512", "tract_name": "2015.12", "tags": {"building": "yes", "source": "microsoft/BuildingFootprints"}}}, {"type": "Feature", "geometry": {"type": "Polygon", "coordinates": [[[-97.4958452, 35.2223415], [-97.4957608, 35.2223406], [-97.4957588, 35.2224721], [-97.4958607, 35.2224731], [-97.4958599, 35.2225279], [-97.4959806, 35.2225291], [-97.4959815, 35.2224711], [-97.4959385, 35.2224707], [-97.4959391, 35.2224301], [-97.4958439, 35.2224291], [-97.4958452, 35.2223415]]]}, "properties": {"osm_id": 1269057496, "building": "yes", "name": "", "height": null, "height_m": null, "levels": null, "tract_id": "40027201512", "tract_name": "2015.12", "tags": {"building": "yes", "source": "microsoft/BuildingFootprints"}}}, {"type": "Feature", "geometry": {"type": "Polygon", "coordinates": [[[-97.4959934, 35.2224757], [-97.4960255, 35.222475], [-97.4960276, 35.2225353], [-97.4961053, 35.2225335], [-97.4960986, 35.2223365], [-97.4960342, 35.2223379], [-97.496036, 35.2223905], [-97.4959905, 35.2223915], [-97.4959934, 35.2224757]]]}, "properties": {"osm_id": 1269057497, "building": "yes", "name": "", "height": null, "height_m": null, "levels": null, "tract_id": "40027201512", "tract_name": "2015.12", "tags": {"building": "yes", "source": "microsoft/BuildingFootprints"}}}, {"type": "Feature", "geometry": {"type": "Polygon", "coordinates": [[[-97.4962423, 35.2223275], [-97.4961351, 35.2223295], [-97.4961401, 35.2225122], [-97.4962474, 35.2225103], [-97.4962423, 35.2223275]]]}, "properties": {"osm_id": 1269057498, "building": "yes", "name": "", "height": null, "height_m": null, "levels": null, "tract_id": "40027201512", "tract_name": "2015.12", "tags": {"building": "yes", "source": "microsoft/BuildingFootprints"}}}, {"type": "Feature", "geometry": {"type": "Polygon", "coordinates": [[[-97.4945902, 35.2226594], [-97.49459, 35.2228632], [-97.4947777, 35.2228633], [-97.4947778, 35.2227647], [-97.4946759, 35.2227646], [-97.494676, 35.2226595], [-97.4945902, 35.2226594]]]}, "properties": {"osm_id": 1269057499, "building": "yes", "name": "", "height": null, "height_m": null, "levels": null, "tract_id": "40027201512", "tract_name": "2015.12", "tags": {"building": "yes", "source": "microsoft/BuildingFootprints"}}}, {"type": "Feature", "geometry": {"type": "Polygon", "coordinates": [[[-97.4948062, 35.222645], [-97.4948053, 35.2228839], [-97.4949608, 35.2228843], [-97.4949613, 35.222766], [-97.4949935, 35.222766], [-97.4949937, 35.2227178], [-97.4949508, 35.2227177], [-97.4949506, 35.2227506], [-97.4948728, 35.2227504], [-97.4948733, 35.2226452], [-97.4948062, 35.222645]]]}, "properties": {"osm_id": 1269057500, "building": "yes", "name": "", "height": null, "height_m": null, "levels": null, "tract_id": "40027201512", "tract_name": "2015.12", "tags": {"building": "yes", "source": "microsoft/BuildingFootprints"}}}, {"type": "Feature", "geometry": {"type": "Polygon", "coordinates": [[[-97.4950153, 35.2226342], [-97.4950329, 35.2227773], [-97.4951843, 35.2227649], [-97.4951782, 35.222715], [-97.4952247, 35.2227112], [-97.4952181, 35.2226579], [-97.4952619, 35.2226543], [-97.495257, 35.2226143], [-97.4950153, 35.2226342]]]}, "properties": {"osm_id": 1269057501, "building": "yes", "name": "", "height": null, "height_m": null, "levels": null, "tract_id": "40027201512", "tract_name": "2015.12", "tags": {"building": "yes", "source": "microsoft/BuildingFootprints"}}}, {"type": "Feature", "geometry": {"type": "Polygon", "coordinates": [[[-97.4957342, 35.2228134], [-97.4958534, 35.222871], [-97.495891, 35.2228191], [-97.4959306, 35.2228219], [-97.4959804, 35.2227531], [-97.4959837, 35.2227217], [-97.4960098, 35.2227235], [-97.4960309, 35.2226944], [-97.496036, 35.2226465], [-97.4958587, 35.222634], [-97.4958229, 35.2226835], [-97.4958219, 35.2226921], [-97.4957342, 35.2228134]]]}, "properties": {"osm_id": 1269057502, "building": "yes", "name": "", "height": null, "height_m": null, "levels": null, "tract_id": "40027201512", "tract_name": "2015.12", "tags": {"building": "yes", "source": "microsoft/BuildingFootprints"}}}, {"type": "Feature", "geometry": {"type": "Polygon", "coordinates": [[[-97.4956617, 35.2228548], [-97.4957258, 35.2229632], [-97.4958084, 35.2229306], [-97.4957444, 35.2228222], [-97.4956617, 35.2228548]]]}, "properties": {"osm_id": 1269057503, "building": "yes", "name": "", "height": null, "height_m": null, "levels": null, "tract_id": "40027201512", "tract_name": "2015.12", "tags": {"building": "yes", "source": "microsoft/BuildingFootprints"}}}, {"type": "Feature", "geometry": {"type": "Polygon", "coordinates": [[[-97.4954704, 35.2231292], [-97.4954718, 35.2230591], [-97.4955764, 35.2230605], [-97.4955778, 35.2229882], [-97.4954451, 35.2229865], [-97.4954441, 35.223039], [-97.4952993, 35.2230371], [-97.4952975, 35.2231269], [-97.4954704, 35.2231292]]]}, "properties": {"osm_id": 1269057504, "building": "yes", "name": "", "height": null, "height_m": null, "levels": null, "tract_id": "40027201512", "tract_name": "2015.12", "tags": {"building": "yes", "source": "microsoft/BuildingFootprints"}}}, {"type": "Feature", "geometry": {"type": "Polygon", "coordinates": [[[-97.4947718, 35.2233462], [-97.4947739, 35.2232836], [-97.4947257, 35.2232825], [-97.4947239, 35.2233328], [-97.4946811, 35.2233319], [-97.4946786, 35.2234019], [-97.4947269, 35.223403], [-97.4947228, 35.2235234], [-97.4949077, 35.2235277], [-97.494909, 35.2234905], [-97.4949384, 35.2234911], [-97.4949419, 35.2233895], [-97.4949071, 35.2233887], [-97.4949084, 35.2233493], [-97.4947718, 35.2233462]]]}, "properties": {"osm_id": 1269057505, "building": "yes", "name": "", "height": null, "height_m": null, "levels": null, "tract_id": "40027201512", "tract_name": "2015.12", "tags": {"building": "yes", "source": "microsoft/BuildingFootprints"}}}, {"type": "Feature", "geometry": {"type": "Polygon", "coordinates": [[[-97.4949754, 35.2236369], [-97.4946011, 35.223791], [-97.494656, 35.2238801], [-97.4946132, 35.2238977], [-97.4946542, 35.2239641], [-97.4949366, 35.2238479], [-97.4949512, 35.2238717], [-97.4950111, 35.223847], [-97.4949922, 35.2238163], [-97.495067, 35.2237855], [-97.4949754, 35.2236369]]]}, "properties": {"osm_id": 1269057506, "building": "yes", "name": "", "height": null, "height_m": null, "levels": null, "tract_id": "40027201512", "tract_name": "2015.12", "tags": {"building": "yes", "source": "microsoft/BuildingFootprints"}}}, {"type": "Feature", "geometry": {"type": "Polygon", "coordinates": [[[-97.4938264, 35.2253019], [-97.4938277, 35.2251911], [-97.4937043, 35.2251901], [-97.493701, 35.2254653], [-97.4939278, 35.2254671], [-97.4939284, 35.2254211], [-97.4939552, 35.2254213], [-97.4939561, 35.2253455], [-97.4939266, 35.2253452], [-97.4939271, 35.2253028], [-97.4938264, 35.2253019]]]}, "properties": {"osm_id": 1269057507, "building": "yes", "name": "", "height": null, "height_m": null, "levels": null, "tract_id": "40027201512", "tract_name": "2015.12", "tags": {"building": "yes", "source": "microsoft/BuildingFootprints"}}}, {"type": "Feature", "geometry": {"type": "Polygon", "coordinates": [[[-97.4934149, 35.2256958], [-97.4934166, 35.2258725], [-97.4933989, 35.2258726], [-97.4933996, 35.2259369], [-97.4934693, 35.2259365], [-97.4934701, 35.2260241], [-97.4934406, 35.2260243], [-97.4934431, 35.2262798], [-97.4936228, 35.2262787], [-97.493622, 35.2261998], [-97.4935619, 35.2262002], [-97.4935616, 35.2261703], [-97.4936459, 35.2261698], [-97.4936444, 35.2260142], [-97.4936497, 35.2260142], [-97.4936484, 35.225871], [-97.4935545, 35.2258716], [-97.4935542, 35.2258431], [-97.4936481, 35.2258425], [-97.4936475, 35.2257833], [-97.493669, 35.2257832], [-97.4936681, 35.2256942], [-97.4934149, 35.2256958]]]}, "properties": {"osm_id": 1269057508, "building": "yes", "name": "", "height": null, "height_m": null, "levels": null, "tract_id": "40027201512", "tract_name": "2015.12", "tags": {"building": "yes", "source": "microsoft/BuildingFootprints"}}}, {"type": "Feature", "geometry": {"type": "Polygon", "coordinates": [[[-97.4940717, 35.225992], [-97.4941027, 35.2259916], [-97.4940982, 35.2257419], [-97.4939384, 35.2257438], [-97.4939403, 35.2258467], [-97.4939001, 35.2258472], [-97.4939024, 35.2259765], [-97.4939668, 35.2259757], [-97.4939674, 35.2260129], [-97.4939057, 35.2260137], [-97.4939071, 35.226086], [-97.4939515, 35.2260854], [-97.4939533, 35.2261796], [-97.4939023, 35.2261802], [-97.493904, 35.2262723], [-97.4939399, 35.2262718], [-97.4939411, 35.2263367], [-97.4939373, 35.2263367], [-97.4939403, 35.2264975], [-97.4941253, 35.2264953], [-97.4941221, 35.2263222], [-97.4941195, 35.2263222], [-97.4941165, 35.2261579], [-97.494131, 35.2261578], [-97.4941296, 35.2260802], [-97.4940733, 35.2260809], [-97.4940717, 35.225992]]]}, "properties": {"osm_id": 1269057509, "building": "yes", "name": "", "height": null, "height_m": null, "levels": null, "tract_id": "40027201512", "tract_name": "2015.12", "tags": {"building": "yes", "source": "microsoft/BuildingFootprints"}}}, {"type": "Feature", "geometry": {"type": "Polygon", "coordinates": [[[-97.4936826, 35.2263165], [-97.4934255, 35.2263085], [-97.4934201, 35.2264245], [-97.49353, 35.2264279], [-97.4935278, 35.2264738], [-97.4936751, 35.2264784], [-97.4936826, 35.2263165]]]}, "properties": {"osm_id": 1269057510, "building": "yes", "name": "", "height": null, "height_m": null, "levels": null, "tract_id": "40027201512", "tract_name": "2015.12", "tags": {"building": "yes", "source": "microsoft/BuildingFootprints"}}}, {"type": "Feature", "geometry": {"type": "Polygon", "coordinates": [[[-97.4935732, 35.2268296], [-97.4936922, 35.2267893], [-97.493676, 35.2267575], [-97.4937492, 35.2267327], [-97.4936881, 35.2266123], [-97.4934959, 35.2266775], [-97.4935732, 35.2268296]]]}, "properties": {"osm_id": 1269057511, "building": "yes", "name": "", "height": null, "height_m": null, "levels": null, "tract_id": "40027201512", "tract_name": "2015.12", "tags": {"building": "yes", "source": "microsoft/BuildingFootprints"}}}, {"type": "Feature", "geometry": {"type": "Polygon", "coordinates": [[[-97.4937712, 35.2267736], [-97.4935963, 35.2268535], [-97.4936586, 35.2269447], [-97.4936832, 35.2269335], [-97.493706, 35.2269669], [-97.4937878, 35.2269295], [-97.4937722, 35.2269068], [-97.4938409, 35.2268754], [-97.4937712, 35.2267736]]]}, "properties": {"osm_id": 1269057512, "building": "yes", "name": "", "height": null, "height_m": null, "levels": null, "tract_id": "40027201512", "tract_name": "2015.12", "tags": {"building": "yes", "source": "microsoft/BuildingFootprints"}}}, {"type": "Feature", "geometry": {"type": "Polygon", "coordinates": [[[-97.4937027, 35.2269871], [-97.4937603, 35.227085], [-97.4937799, 35.2270773], [-97.4937998, 35.2271112], [-97.4938826, 35.2270787], [-97.4938665, 35.2270513], [-97.4939319, 35.2270256], [-97.4938706, 35.2269213], [-97.4937027, 35.2269871]]]}, "properties": {"osm_id": 1269057513, "building": "yes", "name": "", "height": null, "height_m": null, "levels": null, "tract_id": "40027201512", "tract_name": "2015.12", "tags": {"building": "yes", "source": "microsoft/BuildingFootprints"}}}, {"type": "Feature", "geometry": {"type": "Polygon", "coordinates": [[[-97.4939307, 35.2271018], [-97.4937872, 35.2271458], [-97.4938467, 35.2272752], [-97.4939446, 35.2272452], [-97.4939243, 35.227201], [-97.4939698, 35.2271871], [-97.4939307, 35.2271018]]]}, "properties": {"osm_id": 1269057514, "building": "yes", "name": "", "height": null, "height_m": null, "levels": null, "tract_id": "40027201512", "tract_name": "2015.12", "tags": {"building": "yes", "source": "microsoft/BuildingFootprints"}}}, {"type": "Feature", "geometry": {"type": "Polygon", "coordinates": [[[-97.494156, 35.2271178], [-97.4940649, 35.2271168], [-97.4940622, 35.2272767], [-97.4941534, 35.2272777], [-97.494156, 35.2271178]]]}, "properties": {"osm_id": 1269057515, "building": "yes", "name": "", "height": null, "height_m": null, "levels": null, "tract_id": "40027201512", "tract_name": "2015.12", "tags": {"building": "yes", "source": "microsoft/BuildingFootprints"}}}, {"type": "Feature", "geometry": {"type": "Polygon", "coordinates": [[[-97.4939576, 35.226627], [-97.493958, 35.2266818], [-97.4939956, 35.2266816], [-97.4939965, 35.2268043], [-97.4940367, 35.2268041], [-97.4940371, 35.2268479], [-97.4941149, 35.2268475], [-97.4941142, 35.226762], [-97.49414, 35.2267619], [-97.4941389, 35.2266261], [-97.4939576, 35.226627]]]}, "properties": {"osm_id": 1269057516, "building": "yes", "name": "", "height": null, "height_m": null, "levels": null, "tract_id": "40027201512", "tract_name": "2015.12", "tags": {"building": "yes", "source": "microsoft/BuildingFootprints"}}}, {"type": "Feature", "geometry": {"type": "Polygon", "coordinates": [[[-97.4927623, 35.2302917], [-97.4926946, 35.2304297], [-97.4924909, 35.230363], [-97.492468, 35.2304096], [-97.4922432, 35.230336], [-97.4923648, 35.2300883], [-97.4925398, 35.2301455], [-97.4925088, 35.2302087], [-97.4927623, 35.2302917]]]}, "properties": {"osm_id": 1278786648, "building": "yes", "name": "", "height": null, "height_m": null, "levels": null, "tract_id": "40027201512", "tract_name": "2015.12", "tags": {"building": "yes", "shop": "yes"}}}]}