{"type": "FeatureCollection", "features": [{"type": "Feature", "geometry": {"type": "Polygon", "coordinates": [[[-95.9506551, 36.0266966], [-95.9504811, 36.0267773], [-95.9502119, 36.0263979], [-95.9503859, 36.0263172], [-95.9506551, 36.0266966]]]}, "properties": {"osm_id": 80291053, "building": "roof", "name": "QuikTrip", "height": null, "height_m": null, "levels": null, "tract_id": "40143007634", "tract_name": "76.34", "tags": {"amenity": "fuel", "brand": "QuikTrip", "brand:wikidata": "Q7271953", "building": "roof", "name": "QuikTrip", "opening_hours": "24/7", "operator": "QuikTrip", "short_name": "QT", "wheelchair": "yes"}}}, {"type": "Feature", "geometry": {"type": "Polygon", "coordinates": [[[-95.9502784, 36.0268417], [-95.950174, 36.026889], [-95.950044, 36.0267012], [-95.9499708, 36.0265955], [-95.9500751, 36.0265482], [-95.9501736, 36.0266904], [-95.9502784, 36.0268417]]]}, "properties": {"osm_id": 80291326, "building": "retail", "name": "QuikTrip", "height": null, "height_m": 3.0, "levels": 1, "tract_id": "40143007634", "tract_name": "76.34", "tags": {"addr:housenumber": "9555", "addr:street": "Riverside Parkway", "brand": "QuikTrip", "brand:wikidata": "Q7271953", "building": "retail", "building:levels": "1", "name": "QuikTrip", "opening_hours": "24/7", "operator": "QuikTrip", "roof:levels": "0", "shop": "convenience", "short_name": "QT", "wheelchair": "yes"}}}, {"type": "Feature", "geometry": {"type": "Polygon", "coordinates": [[[-95.949375, 36.0250066], [-95.9494371, 36.0250054], [-95.9494382, 36.0251274], [-95.9492276, 36.0251286], [-95.9492269, 36.025008], [-95.949375, 36.0250066]]]}, "properties": {"osm_id": 94056452, "building": "retail", "name": "Starbucks", "height": null, "height_m": null, "levels": null, "tract_id": "40143007634", "tract_name": "76.34", "tags": {"addr:city": "Riverside Market", "addr:housenumber": "9627", "addr:postcode": "74137", "addr:state": "OK", "addr:street": "Riverside Parkway", "amenity": "cafe", "branch": "Riverside Parkway & South Delaware Avenue", "brand": "Starbucks", "brand:wikidata": "Q37158", "building": "retail", "cuisine": "coffee_shop", "name": "Starbucks", "official_name": "Starbucks Coffee", "phone": "+1 918-298-2275", "ref": "15595", "takeaway": "yes", "website": "https://www.starbucks.com/store-locator/store/15595/riverside-pkwy-s-delaware-av-9627-s-riverside-drive-tulsa-ok-741377398-us"}}}, {"type": "Feature", "geometry": {"type": "Polygon", "coordinates": [[[-95.9273405, 36.030023], [-95.9276365, 36.030023], [-95.9276365, 36.0300386], [-95.927693, 36.0300386], [-95.927693, 36.0301008], [-95.9276383, 36.0301008], [-95.9276383, 36.0301253], [-95.9273912, 36.0301253], [-95.9273912, 36.0301436], [-95.9273405, 36.0301436], [-95.9273405, 36.030023]]]}, "properties": {"osm_id": 109311246, "building": "yes", "name": "Addison Technical", "height": null, "height_m": null, "levels": null, "tract_id": "40143007634", "tract_name": "76.34", "tags": {"addr:housenumber": "9216", "addr:state": "OK", "addr:street": "South Toledo Avenue", "building": "yes", "contact:website": "http://www.addisontechnical.com/", "name": "Addison Technical", "office": "employment_agency"}}}, {"type": "Feature", "geometry": {"type": "Polygon", "coordinates": [[[-95.9331268, 36.0315119], [-95.9331684, 36.0315428], [-95.9332438, 36.031542], [-95.933244, 36.0315534], [-95.9333897, 36.0315519], [-95.9333871, 36.0313811], [-95.9331107, 36.0313839], [-95.9331117, 36.0314487], [-95.9331258, 36.0314486], [-95.9331268, 36.0315119]]]}, "properties": {"osm_id": 195669400, "building": "commercial", "name": "Chinowth & Cohen Realtors", "height": null, "height_m": null, "levels": null, "tract_id": "40143007634", "tract_name": "76.34", "tags": {"addr:city": "Tulsa", "addr:country": "US", "addr:housenumber": "2912", "addr:postcode": "74137", "addr:state": "OK", "addr:street": "East 91st Street South", "building": "commercial", "name": "Chinowth & Cohen Realtors"}}}, {"type": "Feature", "geometry": {"type": "Polygon", "coordinates": [[[-95.9329151, 36.030836], [-95.9329165, 36.0309759], [-95.9328791, 36.0309762], [-95.9328793, 36.0309997], [-95.9329348, 36.0309994], [-95.9329355, 36.0310604], [-95.9328776, 36.0310608], [-95.9328786, 36.0310966], [-95.932783, 36.0310973], [-95.9327828, 36.0310858], [-95.932618, 36.0310869], [-95.9326167, 36.0309609], [-95.9326378, 36.0309608], [-95.9326366, 36.0308378], [-95.9329151, 36.030836]]]}, "properties": {"osm_id": 195669401, "building": "yes", "name": "", "height": null, "height_m": null, "levels": null, "tract_id": "40143007634", "tract_name": "76.34", "tags": {"building": "yes"}}}, {"type": "Feature", "geometry": {"type": "Polygon", "coordinates": [[[-95.9326141, 36.0315318], [-95.9326163, 36.0312902], [-95.9328386, 36.0312915], [-95.932837, 36.0314737], [-95.9328053, 36.0314735], [-95.9328047, 36.031533], [-95.9326141, 36.0315318]]]}, "properties": {"osm_id": 195669402, "building": "yes", "name": "", "height": null, "height_m": null, "levels": null, "tract_id": "40143007634", "tract_name": "76.34", "tags": {"building": "yes"}}}, {"type": "Feature", "geometry": {"type": "Polygon", "coordinates": [[[-95.9482422, 36.0207768], [-95.9479661, 36.0207833], [-95.9479614, 36.0206423], [-95.9482337, 36.0206347], [-95.9482422, 36.0207768]]]}, "properties": {"osm_id": 220670679, "building": "yes", "name": "", "height": null, "height_m": null, "levels": null, "tract_id": "40143007634", "tract_name": "76.34", "tags": {"building": "yes"}}}, {"type": "Feature", "geometry": {"type": "Polygon", "coordinates": [[[-95.9482249, 36.0205561], [-95.9481199, 36.020561], [-95.9481055, 36.0203591], [-95.9482104, 36.0203542], [-95.9482249, 36.0205561]]]}, "properties": {"osm_id": 220670680, "building": "yes", "name": "", "height": null, "height_m": null, "levels": null, "tract_id": "40143007634", "tract_name": "76.34", "tags": {"building": "yes"}}}, {"type": "Feature", "geometry": {"type": "Polygon", "coordinates": [[[-95.947761, 36.0204746], [-95.9475499, 36.0205165], [-95.9475191, 36.020415], [-95.9477302, 36.020373], [-95.947761, 36.0204746]]]}, "properties": {"osm_id": 220670681, "building": "yes", "name": "", "height": null, "height_m": null, "levels": null, "tract_id": "40143007634", "tract_name": "76.34", "tags": {"building": "yes"}}}, {"type": "Feature", "geometry": {"type": "Polygon", "coordinates": [[[-95.9478365, 36.0209334], [-95.9478327, 36.020794], [-95.9479403, 36.0207921], [-95.9479441, 36.0209315], [-95.9478365, 36.0209334]]]}, "properties": {"osm_id": 220670682, "building": "yes", "name": "", "height": null, "height_m": null, "levels": null, "tract_id": "40143007634", "tract_name": "76.34", "tags": {"building": "yes"}}}, {"type": "Feature", "geometry": {"type": "Polygon", "coordinates": [[[-95.9482143, 36.020333], [-95.9481086, 36.0203387], [-95.9480992, 36.0202249], [-95.9482049, 36.0202192], [-95.9482143, 36.020333]]]}, "properties": {"osm_id": 220670683, "building": "yes", "name": "", "height": null, "height_m": null, "levels": null, "tract_id": "40143007634", "tract_name": "76.34", "tags": {"building": "yes"}}}, {"type": "Feature", "geometry": {"type": "Polygon", "coordinates": [[[-95.9482595, 36.0211885], [-95.9479864, 36.0211963], [-95.9479803, 36.0210565], [-95.9482534, 36.0210487], [-95.9482595, 36.0211885]]]}, "properties": {"osm_id": 220670684, "building": "yes", "name": "", "height": null, "height_m": null, "levels": null, "tract_id": "40143007634", "tract_name": "76.34", "tags": {"building": "yes"}}}, {"type": "Feature", "geometry": {"type": "Polygon", "coordinates": [[[-95.9436675, 36.0181309], [-95.9435883, 36.0180658], [-95.9434994, 36.0179927], [-95.9429224, 36.0184499], [-95.9428902, 36.0184326], [-95.9427288, 36.0184297], [-95.9425588, 36.0184301], [-95.9425106, 36.0184607], [-95.9419419, 36.017994], [-95.9418576, 36.0180646], [-95.9417784, 36.018131], [-95.9423422, 36.0185989], [-95.9423084, 36.0186227], [-95.9422506, 36.0186236], [-95.9422122, 36.0186238], [-95.9422109, 36.0186067], [-95.9419525, 36.0186054], [-95.9419516, 36.0185455], [-95.9419131, 36.0185461], [-95.9419139, 36.0184869], [-95.9418163, 36.0184864], [-95.9416854, 36.0184846], [-95.941683, 36.0185944], [-95.941596, 36.0185931], [-95.9415931, 36.0185074], [-95.9415613, 36.0185067], [-95.9413224, 36.0185067], [-95.9411423, 36.0185066], [-95.941141, 36.0185955], [-95.9410629, 36.0185972], [-95.9410662, 36.0189338], [-95.9411583, 36.0189323], [-95.9411637, 36.0190612], [-95.9413982, 36.0190592], [-95.9413985, 36.0190404], [-95.9416118, 36.0190393], [-95.9416081, 36.0189326], [-95.9416797, 36.0189336], [-95.9416845, 36.0190407], [-95.9418165, 36.0190406], [-95.9419095, 36.0190404], [-95.9419089, 36.0189816], [-95.9419771, 36.0189833], [-95.9419757, 36.0189189], [-95.9421998, 36.0189209], [-95.9421997, 36.018903], [-95.9422537, 36.018904], [-95.9423105, 36.0189051], [-95.942343, 36.0189309], [-95.9417719, 36.0193925], [-95.9418571, 36.0194627], [-95.9419388, 36.0195301], [-95.9425105, 36.0190665], [-95.9425345, 36.0190854], [-95.9425309, 36.0194012], [-95.9427347, 36.0193973], [-95.9429008, 36.0194009], [-95.9429062, 36.0191341], [-95.9428632, 36.0191341], [-95.9428606, 36.0190994], [-95.9429008, 36.019095], [-95.9429169, 36.0190777], [-95.9434185, 36.0194899], [-95.9434453, 36.019492], [-95.9435499, 36.0195875], [-95.9437242, 36.0194551], [-95.9436116, 36.019364], [-95.9436277, 36.0193467], [-95.9436148, 36.0193362], [-95.9430993, 36.0189171], [-95.943137, 36.0188947], [-95.9433517, 36.0189004], [-95.9434777, 36.0189037], [-95.9434775, 36.0189366], [-95.9438664, 36.0189323], [-95.9438664, 36.0187826], [-95.943832, 36.0187826], [-95.9438327, 36.0187457], [-95.9438005, 36.0187462], [-95.9437993, 36.0186655], [-95.9436673, 36.0186667], [-95.9436397, 36.0186669], [-95.9436379, 36.0186264], [-95.9435873, 36.018626], [-95.9435845, 36.0184188], [-95.9435175, 36.0184204], [-95.9433203, 36.0185785], [-95.9433217, 36.0186238], [-95.9432542, 36.0186232], [-95.9431207, 36.0186221], [-95.9430993, 36.0185852], [-95.9436675, 36.0181309]]]}, "properties": {"osm_id": 239024236, "building": "school", "name": "", "height": null, "height_m": null, "levels": null, "tract_id": "40143007634", "tract_name": "76.34", "tags": {"building": "school"}}}, {"type": "Feature", "geometry": {"type": "Polygon", "coordinates": [[[-95.9495397, 36.0184964], [-95.9495422, 36.0180055], [-95.94962, 36.0180058], [-95.9496174, 36.0184966], [-95.9495397, 36.0184964]]]}, "properties": {"osm_id": 248891618, "building": "roof", "name": "Kum & Go", "height": null, "height_m": null, "levels": null, "tract_id": "40143007634", "tract_name": "76.34", "tags": {"addr:city": "Tulsa", "addr:country": "US", "addr:housenumber": "10010", "addr:state": "OK", "addr:street": "Riverside Parkway", "amenity": "fuel", "brand": "Kum & Go", "brand:wikidata": "Q6443340", "building": "roof", "fuel:e10": "yes", "name": "Kum & Go", "opening_hours": "24/7", "website": "https://www.kumandgo.com/store-locator?details=0874"}}}, {"type": "Feature", "geometry": {"type": "Polygon", "coordinates": [[[-95.94999, 36.0182122], [-95.9498338, 36.0182108], [-95.9498327, 36.0183962], [-95.9499889, 36.0183968], [-95.94999, 36.0182122]]]}, "properties": {"osm_id": 248891621, "building": "retail", "name": "Kum & Go", "height": null, "height_m": 3.0, "levels": 1, "tract_id": "40143007634", "tract_name": "76.34", "tags": {"addr:city": "Tulsa", "addr:housenumber": "10010", "addr:postcode": "74137", "addr:state": "OK", "addr:street": "Riverside Parkway", "brand": "Kum & Go", "brand:wikidata": "Q6443340", "building": "retail", "building:levels": "1", "name": "Kum & Go", "opening_hours": "24/7", "phone": "+1 918 298 1278", "roof:levels": "0", "shop": "convenience", "website": "https://www.kumandgo.com/store-locator?details=0874"}}}, {"type": "Feature", "geometry": {"type": "Polygon", "coordinates": [[[-95.94999, 36.0182122], [-95.9498338, 36.0182108], [-95.9498345, 36.0181], [-95.9499906, 36.0181006], [-95.94999, 36.0182122]]]}, "properties": {"osm_id": 248891649, "building": "retail", "name": "Spirits on Riverside", "height": null, "height_m": 3.0, "levels": 1, "tract_id": "40143007634", "tract_name": "76.34", "tags": {"addr:city": "Tulsa", "addr:country": "US", "addr:housenumber": "10030", "addr:state": "OK", "addr:street": "Riverside Parkway", "building": "retail", "building:levels": "1", "check_date": "2024-07-26", "name": "Spirits on Riverside", "opening_hours": "Mo-Sa 10:00-21:00", "roof:levels": "0", "shop": "alcohol"}}}, {"type": "Feature", "geometry": {"type": "Polygon", "coordinates": [[[-95.9364108, 36.0312288], [-95.9364514, 36.0313478], [-95.9365757, 36.0313201], [-95.9366743, 36.0312959], [-95.9366651, 36.0312617], [-95.9367816, 36.0312303], [-95.9367759, 36.0312119], [-95.9368261, 36.031198], [-95.9367553, 36.0309921], [-95.9366629, 36.0310069], [-95.9365866, 36.0310313], [-95.9365526, 36.0310421], [-95.9362802, 36.0311055], [-95.9363013, 36.0311689], [-95.9361501, 36.0312027], [-95.9362078, 36.0313715], [-95.9363934, 36.03133], [-95.9363626, 36.0312396], [-95.9364108, 36.0312288]]]}, "properties": {"osm_id": 257129769, "building": "yes", "name": "", "height": null, "height_m": null, "levels": null, "tract_id": "40143007634", "tract_name": "76.34", "tags": {"building": "yes", "shop": "funeral_directors"}}}, {"type": "Feature", "geometry": {"type": "Polygon", "coordinates": [[[-95.937236, 36.0310366], [-95.9372478, 36.0308999], [-95.9370887, 36.030891], [-95.9370769, 36.0310277], [-95.937236, 36.0310366]]]}, "properties": {"osm_id": 257130714, "building": "chapel", "name": "", "height": null, "height_m": null, "levels": null, "tract_id": "40143007634", "tract_name": "76.34", "tags": {"building": "chapel"}}}, {"type": "Feature", "geometry": {"type": "Polygon", "coordinates": [[[-95.94283, 36.0298104], [-95.9426266, 36.0299143], [-95.9424091, 36.029636], [-95.9424388, 36.0296209], [-95.9424138, 36.029589], [-95.9425586, 36.0295151], [-95.9425833, 36.0295467], [-95.9426124, 36.0295319], [-95.94283, 36.0298104]]]}, "properties": {"osm_id": 257130715, "building": "yes", "name": "Trinity Christian Church", "height": null, "height_m": null, "levels": null, "tract_id": "40143007634", "tract_name": "76.34", "tags": {"amenity": "place_of_worship", "building": "yes", "ele": "200", "gnis:feature_id": "1789978", "name": "Trinity Christian Church", "religion": "christian"}}}, {"type": "Feature", "geometry": {"type": "Polygon", "coordinates": [[[-95.9424392, 36.0298499], [-95.9423529, 36.029895], [-95.9422289, 36.0297398], [-95.9421837, 36.0297634], [-95.9421638, 36.0297385], [-95.9419539, 36.0298482], [-95.9418965, 36.0297763], [-95.9420495, 36.0296963], [-95.9420286, 36.0296702], [-95.9421221, 36.0296213], [-95.9421089, 36.0296049], [-95.9422451, 36.0295337], [-95.9423328, 36.0296435], [-95.9422918, 36.029665], [-95.9423636, 36.0297548], [-95.9423774, 36.0297476], [-95.942428, 36.0298109], [-95.9424139, 36.0298182], [-95.9424392, 36.0298499]]]}, "properties": {"osm_id": 257132557, "building": "yes", "name": "", "height": null, "height_m": null, "levels": null, "tract_id": "40143007634", "tract_name": "76.34", "tags": {"building": "yes"}}}, {"type": "Feature", "geometry": {"type": "Polygon", "coordinates": [[[-95.9498623, 36.0274939], [-95.9496584, 36.0274465], [-95.9497105, 36.0273], [-95.9496911, 36.0272955], [-95.9497214, 36.0272103], [-95.949781, 36.0272242], [-95.9498072, 36.0271505], [-95.9497946, 36.0271475], [-95.9498226, 36.0270687], [-95.9499001, 36.0270868], [-95.9498777, 36.0271496], [-95.9498947, 36.0271535], [-95.9498741, 36.0272112], [-95.9499155, 36.0272208], [-95.9499042, 36.0272528], [-95.9499864, 36.027272], [-95.9499537, 36.027364], [-95.949912, 36.0273543], [-95.9498623, 36.0274939]]]}, "properties": {"osm_id": 397355255, "building": "yes", "name": "Bank of Oklahoma", "height": null, "height_m": null, "levels": null, "tract_id": "40143007634", "tract_name": "76.34", "tags": {"amenity": "bank", "building": "yes", "name": "Bank of Oklahoma"}}}, {"type": "Feature", "geometry": {"type": "Polygon", "coordinates": [[[-95.9507874, 36.0275442], [-95.9504307, 36.0275464], [-95.9504303, 36.0274942], [-95.95043, 36.0274646], [-95.9507866, 36.0274624], [-95.9507869, 36.0274916], [-95.9507874, 36.0275442]]]}, "properties": {"osm_id": 397355257, "building": "yes", "name": "Zip's Car Wash", "height": null, "height_m": null, "levels": null, "tract_id": "40143007634", "tract_name": "76.34", "tags": {"addr:city": "Tulsa", "addr:country": "US", "addr:housenumber": "9553", "addr:state": "OK", "addr:street": "Riverside Parkway", "amenity": "car_wash", "automated": "yes", "building": "yes", "name": "Zip's Car Wash", "self_service": "no"}}}, {"type": "Feature", "geometry": {"type": "Polygon", "coordinates": [[[-95.9492269, 36.025008], [-95.9492252, 36.0248894], [-95.9493733, 36.024888], [-95.949375, 36.0250066], [-95.9492269, 36.025008]]]}, "properties": {"osm_id": 397355328, "building": "retail", "name": "Five Guys", "height": null, "height_m": null, "levels": null, "tract_id": "40143007634", "tract_name": "76.34", "tags": {"addr:city": "Tulsa", "addr:housenumber": "9635", "addr:postcode": "74137", "addr:state": "OK", "addr:street": "Riverside Parkway", "amenity": "fast_food", "branch": "Riverside Market", "brand": "Five Guys", "brand:wikidata": "Q1131810", "building": "retail", "cuisine": "burger", "name": "Five Guys", "official_name": "Five Guys Burgers and Fries", "opening_hours": "11:00-21:30", "phone": "+1 918-296-5509", "takeaway": "yes", "website": "https://restaurants.fiveguys.com/9635-riverside-parkway"}}}, {"type": "Feature", "geometry": {"type": "Polygon", "coordinates": [[[-95.9483896, 36.024308], [-95.9483901, 36.0241487], [-95.9483356, 36.0241486], [-95.9483354, 36.0241979], [-95.9480526, 36.0241957], [-95.9480519, 36.0244139], [-95.9480524, 36.0245905], [-95.9482076, 36.0245908], [-95.9483896, 36.0245913], [-95.9483895, 36.0244236], [-95.9483896, 36.024308]]]}, "properties": {"osm_id": 397356478, "building": "retail", "name": "Petco", "height": null, "height_m": 3.0, "levels": 1, "tract_id": "40143007634", "tract_name": "76.34", "tags": {"addr:city": "Tulsa", "addr:country": "US", "addr:housenumber": "9645", "addr:postcode": "74137", "addr:state": "OK", "addr:street": "Riverside Parkway", "addr:suite": "A", "addr:unit": "A", "brand": "Petco", "brand:wikidata": "Q7171798", "building": "retail", "building:levels": "1", "name": "Petco", "opening_hours": "Mo-Sa 09:00-21:00; Su 10:00-19:00", "phone": "+1 918-296-3312", "ref": "1430", "roof:levels": "0", "roof:shape": "flat", "shop": "pet", "website": "https://stores.petco.com/ok/tulsa/pet-supplies-tulsa-ok-1430.html"}}}, {"type": "Feature", "geometry": {"type": "Polygon", "coordinates": [[[-95.9496466, 36.0315344], [-95.9494899, 36.0315362], [-95.9494876, 36.031406], [-95.9496443, 36.0314042], [-95.9496466, 36.0315344]]]}, "properties": {"osm_id": 427908410, "building": "yes", "name": "Fiesta Mart", "height": null, "height_m": null, "levels": null, "tract_id": "40143007634", "tract_name": "76.34", "tags": {"building": "yes", "name": "Fiesta Mart", "shop": "convenience"}}}, {"type": "Feature", "geometry": {"type": "Polygon", "coordinates": [[[-95.9498745, 36.0315677], [-95.9497911, 36.0315681], [-95.94979, 36.0313973], [-95.9498733, 36.0313969], [-95.9498745, 36.0315677]]]}, "properties": {"osm_id": 427908411, "building": "yes", "name": "Fiesta Wash", "height": null, "height_m": null, "levels": null, "tract_id": "40143007634", "tract_name": "76.34", "tags": {"amenity": "car_wash", "building": "yes", "name": "Fiesta Wash"}}}, {"type": "Feature", "geometry": {"type": "Polygon", "coordinates": [[[-95.9497589, 36.0315353], [-95.9496801, 36.0315362], [-95.9496779, 36.0313968], [-95.9497566, 36.031396], [-95.9497589, 36.0315353]]]}, "properties": {"osm_id": 427908414, "building": "yes", "name": "Sinclair", "height": null, "height_m": null, "levels": null, "tract_id": "40143007634", "tract_name": "76.34", "tags": {"amenity": "fuel", "brand": "Sinclair", "brand:wikidata": "Q1290900", "building": "yes", "description": "Gasoline only", "fuel:octane_80": "yes", "fuel:octane_92": "yes", "fuel:octane_98": "yes", "name": "Sinclair"}}}, {"type": "Feature", "geometry": {"type": "Polygon", "coordinates": [[[-95.9494498, 36.0315362], [-95.9492787, 36.0315389], [-95.9492755, 36.0314052], [-95.9494466, 36.0314025], [-95.9494498, 36.0315362]]]}, "properties": {"osm_id": 427908415, "building": "yes", "name": "Sinclair", "height": null, "height_m": null, "levels": null, "tract_id": "40143007634", "tract_name": "76.34", "tags": {"amenity": "fuel", "brand": "Sinclair", "brand:wikidata": "Q1290900", "building": "yes", "check_date": "2024-09-25", "compressed_air": "yes", "fuel:e10": "yes", "name": "Sinclair", "phone": "+1 918-299-8131", "website": "https://stations.sinclairoil.com/ok/tulsa/2738-e-91st-st"}}}, {"type": "Feature", "geometry": {"type": "Polygon", "coordinates": [[[-95.9474068, 36.0315587], [-95.9474059, 36.0314147], [-95.9482561, 36.0314112], [-95.9482898, 36.0314428], [-95.9482905, 36.0315551], [-95.9474068, 36.0315587]]]}, "properties": {"osm_id": 427908431, "building": "retail", "name": "", "height": null, "height_m": 3.0, "levels": 1, "tract_id": "40143007634", "tract_name": "76.34", "tags": {"building": "retail", "building:levels": "1"}}}, {"type": "Feature", "geometry": {"type": "Polygon", "coordinates": [[[-95.9507122, 36.0243988], [-95.950677, 36.0243673], [-95.9506495, 36.0243427], [-95.9506905, 36.0243127], [-95.9507532, 36.0243688], [-95.9507122, 36.0243988]]]}, "properties": {"osm_id": 430385001, "building": "yes", "name": "", "height": null, "height_m": null, "levels": null, "tract_id": "40143007634", "tract_name": "76.34", "tags": {"access": "yes", "amenity": "toilets", "building": "yes", "building:colour": "orange", "drinking_water": "yes", "fee": "no", "female": "yes", "male": "yes", "toilets:disposal": "flush", "wheelchair": "limited"}}}, {"type": "Feature", "geometry": {"type": "Polygon", "coordinates": [[[-95.9328341, 36.0176443], [-95.9328428, 36.0176443], [-95.9333143, 36.0176454], [-95.9333133, 36.0179261], [-95.9331943, 36.0179257], [-95.9331587, 36.0179261], [-95.9330634, 36.0179258], [-95.9329814, 36.0179249], [-95.9328927, 36.0179249], [-95.932833, 36.0179249], [-95.9328336, 36.0177864], [-95.9328341, 36.0176443]]]}, "properties": {"osm_id": 430449011, "building": "yes", "name": "Saint Bernards Catholic Church", "height": null, "height_m": null, "levels": null, "tract_id": "40143007634", "tract_name": "76.34", "tags": {"amenity": "place_of_worship", "building": "yes", "denomination": "catholic", "ele": "221", "gnis:feature_id": "1789905", "name": "Saint Bernards Catholic Church", "religion": "christian"}}}, {"type": "Feature", "geometry": {"type": "Polygon", "coordinates": [[[-95.9329233, 36.0183453], [-95.932923, 36.018266], [-95.9329555, 36.0182659], [-95.9329555, 36.0182734], [-95.9330854, 36.0182731], [-95.9330853, 36.018266], [-95.9331175, 36.0182659], [-95.9331178, 36.0183445], [-95.9330337, 36.0183447], [-95.9330338, 36.0183552], [-95.9329941, 36.0183553], [-95.932994, 36.0183451], [-95.9329233, 36.0183453]]]}, "properties": {"osm_id": 430449012, "building": "yes", "name": "", "height": null, "height_m": null, "levels": null, "tract_id": "40143007634", "tract_name": "76.34", "tags": {"building": "yes"}}}, {"type": "Feature", "geometry": {"type": "Polygon", "coordinates": [[[-95.9333988, 36.0182625], [-95.9333989, 36.0182905], [-95.9333993, 36.0183435], [-95.9333995, 36.0183697], [-95.9331708, 36.0183685], [-95.9331707, 36.0183812], [-95.9331273, 36.018381], [-95.9331275, 36.0183487], [-95.9331173, 36.0183486], [-95.9331178, 36.0183445], [-95.9331175, 36.0182659], [-95.933123, 36.0182661], [-95.933123, 36.0182604], [-95.9333988, 36.0182625]]]}, "properties": {"osm_id": 430449013, "building": "yes", "name": "", "height": null, "height_m": null, "levels": null, "tract_id": "40143007634", "tract_name": "76.34", "tags": {"building": "yes"}}}, {"type": "Feature", "geometry": {"type": "Polygon", "coordinates": [[[-95.9332545, 36.017986], [-95.9331953, 36.0179858], [-95.9331596, 36.0179862], [-95.9330623, 36.017986], [-95.9330622, 36.0179917], [-95.9329803, 36.0179907], [-95.9329804, 36.017985], [-95.9328927, 36.0179841], [-95.9328907, 36.017984], [-95.9327753, 36.0179828], [-95.9327736, 36.0180833], [-95.9327734, 36.0180974], [-95.9329584, 36.0180995], [-95.9329581, 36.0181164], [-95.9329555, 36.0182659], [-95.9329555, 36.0182734], [-95.9330854, 36.0182731], [-95.9330853, 36.018266], [-95.9330871, 36.0181376], [-95.9330875, 36.0181228], [-95.933088, 36.0181009], [-95.9331537, 36.0181017], [-95.9332525, 36.0181028], [-95.9332545, 36.017986]]]}, "properties": {"osm_id": 430449014, "building": "yes", "name": "", "height": null, "height_m": null, "levels": null, "tract_id": "40143007634", "tract_name": "76.34", "tags": {"building": "yes"}}}, {"type": "Feature", "geometry": {"type": "Polygon", "coordinates": [[[-95.9332193, 36.0184451], [-95.9330676, 36.018447], [-95.9330688, 36.0185127], [-95.9332205, 36.0185108], [-95.9332193, 36.0184451]]]}, "properties": {"osm_id": 430449015, "building": "yes", "name": "", "height": null, "height_m": null, "levels": null, "tract_id": "40143007634", "tract_name": "76.34", "tags": {"building": "yes"}}}, {"type": "Feature", "geometry": {"type": "Polygon", "coordinates": [[[-95.9331587, 36.0179261], [-95.9331943, 36.0179257], [-95.9331945, 36.0179402], [-95.9331953, 36.0179858], [-95.9331596, 36.0179862], [-95.9331587, 36.0179261]]]}, "properties": {"osm_id": 430449017, "building": "yes", "name": "", "height": null, "height_m": null, "levels": null, "tract_id": "40143007634", "tract_name": "76.34", "tags": {"building": "yes"}}}, {"type": "Feature", "geometry": {"type": "Polygon", "coordinates": [[[-95.9330622, 36.0179917], [-95.9329803, 36.0179907], [-95.9329804, 36.017985], [-95.9329814, 36.0179249], [-95.9330634, 36.0179258], [-95.9330623, 36.017986], [-95.9330622, 36.0179917]]]}, "properties": {"osm_id": 430449018, "building": "yes", "name": "", "height": null, "height_m": null, "levels": null, "tract_id": "40143007634", "tract_name": "76.34", "tags": {"building": "yes"}}}, {"type": "Feature", "geometry": {"type": "Polygon", "coordinates": [[[-95.9331244, 36.0181379], [-95.9330871, 36.0181376], [-95.9330853, 36.018266], [-95.9331175, 36.0182659], [-95.933123, 36.0182661], [-95.933123, 36.0182604], [-95.9331244, 36.0181379]]]}, "properties": {"osm_id": 430449019, "building": "yes", "name": "", "height": null, "height_m": null, "levels": null, "tract_id": "40143007634", "tract_name": "76.34", "tags": {"building": "yes"}}}, {"type": "Feature", "geometry": {"type": "Polygon", "coordinates": [[[-95.9322897, 36.0180697], [-95.9322904, 36.0179281], [-95.9323691, 36.0179285], [-95.9326321, 36.0179297], [-95.9326314, 36.0179717], [-95.9326297, 36.0180735], [-95.9322897, 36.0180697]]]}, "properties": {"osm_id": 430449020, "building": "yes", "name": "", "height": null, "height_m": null, "levels": null, "tract_id": "40143007634", "tract_name": "76.34", "tags": {"building": "yes"}}}, {"type": "Feature", "geometry": {"type": "Polygon", "coordinates": [[[-95.9323695, 36.0178772], [-95.9322683, 36.0178767], [-95.9322681, 36.0179027], [-95.9322679, 36.0179279], [-95.9322904, 36.0179281], [-95.9323691, 36.0179285], [-95.9323695, 36.0178821], [-95.9323695, 36.0178772]]]}, "properties": {"osm_id": 430449021, "building": "yes", "name": "", "height": null, "height_m": null, "levels": null, "tract_id": "40143007634", "tract_name": "76.34", "tags": {"building": "yes"}}}, {"type": "Feature", "geometry": {"type": "Polygon", "coordinates": [[[-95.9333989, 36.0182905], [-95.9333993, 36.0183435], [-95.9334394, 36.0183412], [-95.9334579, 36.0183343], [-95.9334679, 36.0183187], [-95.933465, 36.018302], [-95.9334429, 36.018291], [-95.9333989, 36.0182905]]]}, "properties": {"osm_id": 430449022, "building": "yes", "name": "", "height": null, "height_m": null, "levels": null, "tract_id": "40143007634", "tract_name": "76.34", "tags": {"building": "yes"}}}, {"type": "Feature", "geometry": {"type": "Polygon", "coordinates": [[[-95.9325505, 36.0178841], [-95.9323695, 36.0178821], [-95.9323691, 36.0179285], [-95.9326321, 36.0179297], [-95.9326538, 36.0179299], [-95.9326547, 36.017878], [-95.9326269, 36.0178776], [-95.9325498, 36.0178769], [-95.9325505, 36.0178841]]]}, "properties": {"osm_id": 430449023, "building": "yes", "name": "", "height": null, "height_m": null, "levels": null, "tract_id": "40143007634", "tract_name": "76.34", "tags": {"building": "yes"}}}, {"type": "Feature", "geometry": {"type": "Polygon", "coordinates": [[[-95.933257, 36.018189], [-95.9331522, 36.0181879], [-95.9331533, 36.018124], [-95.9331537, 36.0181017], [-95.9332525, 36.0181028], [-95.9332584, 36.0181028], [-95.9332598, 36.018123], [-95.9332605, 36.0181351], [-95.933257, 36.018189]]]}, "properties": {"osm_id": 430449024, "building": "yes", "name": "", "height": null, "height_m": null, "levels": null, "tract_id": "40143007634", "tract_name": "76.34", "tags": {"amenity": "parking", "building": "yes"}}}, {"type": "Feature", "geometry": {"type": "Polygon", "coordinates": [[[-95.9239067, 36.0315112], [-95.9234316, 36.0315069], [-95.9234315, 36.0315172], [-95.9234005, 36.031517], [-95.9233683, 36.0315016], [-95.9233489, 36.0314736], [-95.9233493, 36.0314454], [-95.9233606, 36.0314455], [-95.9233635, 36.0312326], [-95.9237844, 36.0312363], [-95.9239091, 36.0313394], [-95.9239067, 36.0315112]]]}, "properties": {"osm_id": 461280505, "building": "yes", "name": "CVS Pharmacy", "height": null, "height_m": null, "levels": null, "tract_id": "40143007634", "tract_name": "76.34", "tags": {"addr:city": "Tulsa", "addr:state": "OK", "brand": "CVS Pharmacy", "brand:website": "https://www.cvs.com/", "brand:wikidata": "Q2078880", "building": "yes", "dispensing": "yes", "name": "CVS Pharmacy", "opening_hours": "Mo-Th 09:00-21:00; Fr 09:00-22:00; Sa 08:00-22:00; Su 10:00-20:00", "shop": "chemist", "short_name": "CVS"}}}, {"type": "Feature", "geometry": {"type": "Polygon", "coordinates": [[[-95.9227423, 36.029218], [-95.9227421, 36.0292015], [-95.9227418, 36.0291738], [-95.9227413, 36.0291361], [-95.922741, 36.0291077], [-95.9227405, 36.0290708], [-95.9227402, 36.0290415], [-95.9227398, 36.0290052], [-95.9227394, 36.0289748], [-95.922739, 36.0289414], [-95.9226109, 36.0289424], [-95.9226113, 36.0289748], [-95.9226117, 36.0290052], [-95.9226121, 36.0290415], [-95.9226125, 36.0290708], [-95.9226129, 36.0291077], [-95.9226133, 36.0291361], [-95.9226137, 36.0291738], [-95.9226141, 36.0292015], [-95.9226143, 36.029219], [-95.922564, 36.0292194], [-95.9225657, 36.0293655], [-95.9226161, 36.0293651], [-95.9226163, 36.0293812], [-95.9227269, 36.0293803], [-95.9227267, 36.0293643], [-95.9228195, 36.0293635], [-95.9228177, 36.0292174], [-95.9227423, 36.029218]]]}, "properties": {"osm_id": 461280508, "building": "retail", "name": "Bank of America", "height": null, "height_m": null, "levels": null, "tract_id": "40143007634", "tract_name": "76.34", "tags": {"addr:city": "Tulsa", "addr:country": "US", "addr:housenumber": "9242", "addr:postcode": "74137", "addr:state": "OK", "addr:street": "South Yale Avenue East", "amenity": "bank", "atm": "yes", "brand": "Bank of America", "brand:wikidata": "Q487907", "building": "retail", "name": "Bank of America", "website": "https://locators.bankofamerica.com/ok/tulsa/financial-centers-tulsa-11896.html"}}}, {"type": "Feature", "geometry": {"type": "Polygon", "coordinates": [[[-95.9224902, 36.0315902], [-95.9224915, 36.0314177], [-95.9224825, 36.0314177], [-95.9224827, 36.0313882], [-95.922587, 36.0313887], [-95.9227075, 36.0313893], [-95.9227072, 36.0314188], [-95.9227822, 36.0314192], [-95.9227823, 36.0314058], [-95.9228288, 36.031406], [-95.9228785, 36.0314063], [-95.9228778, 36.031488], [-95.9228684, 36.0314879], [-95.9228676, 36.0315921], [-95.9227618, 36.0315916], [-95.9227618, 36.0315864], [-95.9226005, 36.0315856], [-95.9226004, 36.0315907], [-95.9224902, 36.0315902]]]}, "properties": {"osm_id": 461280510, "building": "retail", "name": "", "height": null, "height_m": 3.0, "levels": 1, "tract_id": "40143007634", "tract_name": "76.34", "tags": {"building": "retail", "building:colour": "beige", "building:levels": "1", "roof:levels": "0", "roof:shape": "flat"}}}, {"type": "Feature", "geometry": {"type": "Polygon", "coordinates": [[[-95.9231705, 36.0297768], [-95.9231116, 36.0297762], [-95.9230526, 36.0297755], [-95.9229713, 36.0297746], [-95.9229714, 36.0297684], [-95.9229269, 36.0297679], [-95.9228277, 36.0297668], [-95.9227739, 36.0297662], [-95.9227734, 36.0297947], [-95.9226903, 36.0297938], [-95.9226016, 36.0297928], [-95.9225203, 36.0297919], [-95.9225227, 36.0296488], [-95.9225512, 36.0296491], [-95.9225526, 36.0295653], [-95.9226431, 36.0295656], [-95.9227124, 36.0295658], [-95.9227879, 36.0295661], [-95.922925, 36.0295666], [-95.923042, 36.029567], [-95.9231727, 36.0295674], [-95.9232003, 36.0295675], [-95.9232316, 36.0295676], [-95.9232838, 36.0295678], [-95.9234073, 36.0296704], [-95.9233874, 36.029686], [-95.9233947, 36.029692], [-95.9232271, 36.0298239], [-95.9231971, 36.029799], [-95.9231705, 36.0297768]]]}, "properties": {"osm_id": 461280512, "building": "retail", "name": "", "height": null, "height_m": null, "levels": null, "tract_id": "40143007634", "tract_name": "76.34", "tags": {"addr:housenumber": "9168", "addr:postcode": "74137", "addr:street": "South Yale Avenue East", "building": "retail"}}}, {"type": "Feature", "geometry": {"type": "Polygon", "coordinates": [[[-95.9228479, 36.0192175], [-95.9227882, 36.0190901], [-95.9226551, 36.0191309], [-95.9226064, 36.0190268], [-95.9227395, 36.018986], [-95.9227246, 36.0189542], [-95.9228294, 36.018922], [-95.9228133, 36.0188876], [-95.9230181, 36.0188249], [-95.9230104, 36.0188085], [-95.9231018, 36.0187805], [-95.9231095, 36.0187969], [-95.92314, 36.0187875], [-95.9231818, 36.0188768], [-95.9231551, 36.018885], [-95.9231679, 36.0189122], [-95.9230726, 36.0189413], [-95.9230629, 36.0189206], [-95.9229772, 36.0189469], [-95.9230079, 36.0190124], [-95.9229437, 36.019032], [-95.9230077, 36.0191686], [-95.9229712, 36.0191798], [-95.9229778, 36.0191939], [-95.9228953, 36.0192191], [-95.9228887, 36.019205], [-95.9228479, 36.0192175]]]}, "properties": {"osm_id": 461484188, "building": "church", "name": "Joy Lutheran Church", "height": null, "height_m": null, "levels": null, "tract_id": "40143007634", "tract_name": "76.34", "tags": {"addr:city": "Tulsa", "addr:country": "US", "addr:housenumber": "9940", "addr:postcode": "74137", "addr:state": "OK", "addr:street": "South Yale Avenue East", "amenity": "place_of_worship", "building": "church", "denomination": "lutheran", "ele": "203", "gnis:feature_id": "1789770", "name": "Joy Lutheran Church", "religion": "christian"}}}, {"type": "Feature", "geometry": {"type": "Polygon", "coordinates": [[[-95.9228211, 36.0180705], [-95.9228203, 36.0181193], [-95.922919, 36.0181203], [-95.9229197, 36.0180715], [-95.9229632, 36.0180719], [-95.9229687, 36.0177146], [-95.9226559, 36.0177115], [-95.9226041, 36.0177523], [-95.9225993, 36.0180682], [-95.9228211, 36.0180705]]]}, "properties": {"osm_id": 461484190, "building": "yes", "name": "Walgreens", "height": null, "height_m": null, "levels": null, "tract_id": "40143007634", "tract_name": "76.34", "tags": {"addr:city": "Tulsa", "addr:country": "US", "addr:housenumber": "10018", "addr:postcode": "74137", "addr:state": "OK", "addr:street": "South Yale Avenue East", "building": "yes", "name": "Walgreens"}}}, {"type": "Feature", "geometry": {"type": "Polygon", "coordinates": [[[-95.9232958, 36.0305814], [-95.9233284, 36.0305813], [-95.9233437, 36.0305812], [-95.9233459, 36.0309156], [-95.9233259, 36.0309157], [-95.923298, 36.0309158], [-95.9232958, 36.0305814]]]}, "properties": {"osm_id": 462186804, "building": "roof", "name": "", "height": null, "height_m": null, "levels": null, "tract_id": "40143007634", "tract_name": "76.34", "tags": {"building": "roof"}}}, {"type": "Feature", "geometry": {"type": "Polygon", "coordinates": [[[-95.9485558, 36.0279845], [-95.9484171, 36.0279836], [-95.9484198, 36.0277081], [-95.9485584, 36.027709], [-95.9485558, 36.0279845]]]}, "properties": {"osm_id": 464837047, "building": "retail", "name": "Sherwin-Williams", "height": null, "height_m": 3.0, "levels": 1, "tract_id": "40143007634", "tract_name": "76.34", "tags": {"addr:housenumber": "9425", "addr:street": "South Delaware Avenue", "brand": "Sherwin-Williams", "brand:wikidata": "Q48881", "building": "retail", "building:levels": "1", "check_date": "2025-04-17", "name": "Sherwin-Williams", "opening_hours": "Mo-Fr 07:00-19:00; Sa 08:00-19:00; Su 10:00-19:00", "roof:levels": "0", "roof:shape": "flat", "shop": "paint", "wheelchair": "yes"}}}, {"type": "Feature", "geometry": {"type": "Polygon", "coordinates": [[[-95.946748, 36.0273001], [-95.946748, 36.0277036], [-95.9467131, 36.0277025], [-95.9467144, 36.028081], [-95.9468311, 36.0280821], [-95.9468311, 36.0279715], [-95.9472844, 36.0279704], [-95.9472857, 36.02785], [-95.9473293, 36.0278506], [-95.947332, 36.0277247], [-95.9473146, 36.0277247], [-95.9473179, 36.0275013], [-95.947332, 36.0275013], [-95.9473307, 36.027395], [-95.9472857, 36.0273966], [-95.9472857, 36.0273001], [-95.946748, 36.0273001]]]}, "properties": {"osm_id": 464837050, "building": "retail", "name": "Walmart Neighborhood Market", "height": null, "height_m": 3.0, "levels": 1, "tract_id": "40143007634", "tract_name": "76.34", "tags": {"addr:city": "Tulsa", "addr:country": "US", "addr:housenumber": "9411", "addr:postcode": "74137", "addr:state": "OK", "addr:street": "South Delaware Avenue", "brand": "Walmart", "brand:wikidata": "Q483551", "building": "retail", "building:levels": "1", "check_date:opening_hours": "2020-10-17", "name": "Walmart Neighborhood Market", "opening_hours": "Mo-Su 06:00-24:00", "operator": "Walmart", "operator:wikidata": "Q483551", "payment:app:walmart": "yes", "payment:apple_pay": "no", "payment:google_pay": "no", "payment:samsung_pay": "no", "phone": "+1 918-299-8316", "ref": "2395", "ref:walmart": "2395", "roof:levels": "0", "roof:shape": "flat", "sensory_friendly:accommodation": "dimmed_light;static_screens;no_pa", "sensory_friendly:conditional": "yes @ 08:00-10:00", "shop": "supermarket", "website": "https://www.walmart.com/store/2395-tulsa-ok", "wheelchair": "yes"}}}, {"type": "Feature", "geometry": {"type": "Polygon", "coordinates": [[[-95.9502976, 36.022504], [-95.9503277, 36.0224773], [-95.9503791, 36.0225153], [-95.950349, 36.022542], [-95.950349, 36.0226971], [-95.9498595, 36.0226971], [-95.9498595, 36.022504], [-95.9502976, 36.022504]]]}, "properties": {"osm_id": 480060575, "building": "yes", "name": "", "height": null, "height_m": null, "levels": null, "tract_id": "40143007634", "tract_name": "76.34", "tags": {"building": "yes"}}}, {"type": "Feature", "geometry": {"type": "Polygon", "coordinates": [[[-95.9511557, 36.0227248], [-95.9509156, 36.0227248], [-95.9509156, 36.022644], [-95.9508814, 36.022644], [-95.9508814, 36.0226093], [-95.9509156, 36.0226093], [-95.9509156, 36.0225653], [-95.9512357, 36.0225653], [-95.9512357, 36.0226338], [-95.9511557, 36.0226338], [-95.9511557, 36.0227248]]]}, "properties": {"osm_id": 480060615, "building": "yes", "name": "Feline Specialties", "height": null, "height_m": null, "levels": null, "tract_id": "40143007634", "tract_name": "76.34", "tags": {"addr:city": "Tulsa", "addr:housenumber": "9702", "addr:postcode": "74137", "addr:state": "OK", "addr:street": "Riverside Parkway", "amenity": "veterinary", "building": "yes", "name": "Feline Specialties", "opening_hours": "Mo-Fr 08:00-18:00, Sa 09:00-12:00"}}}, {"type": "Feature", "geometry": {"type": "Polygon", "coordinates": [[[-95.9496946, 36.0197191], [-95.9505037, 36.0197183], [-95.9506002, 36.0200103], [-95.9507176, 36.0199843], [-95.9507303, 36.0200261], [-95.9507746, 36.0200147], [-95.9508235, 36.0201725], [-95.9505516, 36.0202332], [-95.9505687, 36.0202816], [-95.9505784, 36.0202794], [-95.9505942, 36.0203238], [-95.9508295, 36.0203238], [-95.9508295, 36.0205001], [-95.9507491, 36.0205001], [-95.9507491, 36.0207468], [-95.9504446, 36.0207468], [-95.9504446, 36.0205001], [-95.9504165, 36.0204128], [-95.9504594, 36.0203515], [-95.9505104, 36.0203401], [-95.9504956, 36.0202932], [-95.9505059, 36.0202911], [-95.9504808, 36.020211], [-95.9504705, 36.0202131], [-95.9504547, 36.0201627], [-95.9503997, 36.0201747], [-95.9503219, 36.0201372], [-95.9502871, 36.0200179], [-95.9502569, 36.0200233], [-95.9502086, 36.0199908], [-95.9502069, 36.0199654], [-95.9496919, 36.0199697], [-95.9496946, 36.0197191]]]}, "properties": {"osm_id": 480060617, "building": "retail", "name": "", "height": null, "height_m": null, "levels": null, "tract_id": "40143007634", "tract_name": "76.34", "tags": {"building": "retail"}}}, {"type": "Feature", "geometry": {"type": "Polygon", "coordinates": [[[-95.9500956, 36.0213174], [-95.9498284, 36.0213679], [-95.9497707, 36.0211683], [-95.9500379, 36.0211178], [-95.9500956, 36.0213174]]]}, "properties": {"osm_id": 480060620, "building": "yes", "name": "Red Robin", "height": null, "height_m": null, "levels": null, "tract_id": "40143007634", "tract_name": "76.34", "tags": {"amenity": "restaurant", "brand": "Red Robin", "brand:wikidata": "Q7304886", "building": "yes", "cuisine": "burger", "name": "Red Robin", "official_name": "Red Robin Gourmet Burgers and Brews", "opening_hours": "Su-Th 11:00-22:00, Fr,Sa 11:00-23:00"}}}, {"type": "Feature", "geometry": {"type": "Polygon", "coordinates": [[[-95.950103, 36.0221526], [-95.9497569, 36.0221667], [-95.9497439, 36.0219572], [-95.9500899, 36.0219431], [-95.950103, 36.0221526]]]}, "properties": {"osm_id": 480060623, "building": "retail", "name": "Outback Steakhouse", "height": null, "height_m": 3.0, "levels": 1, "tract_id": "40143007634", "tract_name": "76.34", "tags": {"addr:city": "Tulsa", "addr:country": "US", "addr:housenumber": "9710", "addr:state": "OK", "addr:street": "Riverside Parkway", "amenity": "restaurant", "brand": "Outback Steakhouse", "brand:wikidata": "Q1064893", "building": "retail", "building:levels": "1", "cuisine": "american;steak", "name": "Outback Steakhouse", "opening_hours": "Mo-Th 16:00-22:00, Fr 16:00-23:00, Sa 11:00-23:00, Su 11:00-21:00", "roof:levels": "0"}}}, {"type": "Feature", "geometry": {"type": "Polygon", "coordinates": [[[-95.950737, 36.0215398], [-95.950916, 36.0215316], [-95.9509148, 36.0215148], [-95.9510072, 36.0215106], [-95.9510091, 36.0215379], [-95.9510356, 36.0215367], [-95.9510439, 36.0216554], [-95.9510585, 36.0216547], [-95.951063, 36.0217186], [-95.9510129, 36.0217209], [-95.9510148, 36.0217485], [-95.950955, 36.0217513], [-95.9509558, 36.0217624], [-95.9509067, 36.0217647], [-95.9509081, 36.0217852], [-95.9508149, 36.0217894], [-95.9508127, 36.0217578], [-95.9507497, 36.0217606], [-95.950738, 36.0217485], [-95.9507328, 36.0216742], [-95.950726, 36.0216745], [-95.9507231, 36.0216329], [-95.9507435, 36.021632], [-95.950737, 36.0215398]]]}, "properties": {"osm_id": 480060626, "building": "retail", "name": "Smitty's Garage Burgers & Beer", "height": null, "height_m": 3.0, "levels": 1, "tract_id": "40143007634", "tract_name": "76.34", "tags": {"addr:city": "Tulsa", "addr:country": "US", "addr:housenumber": "9718", "addr:state": "OK", "addr:street": "Riverside Parkway", "amenity": "restaurant", "building": "retail", "building:levels": "1", "cuisine": "burger", "name": "Smitty's Garage Burgers & Beer", "opening_hours": "Mo-Su 11:00-22:00; Th-Sa 11:00-23:00", "roof:levels": "0"}}}, {"type": "Feature", "geometry": {"type": "Polygon", "coordinates": [[[-95.9509331, 36.022247], [-95.9509157, 36.0219525], [-95.9510787, 36.0219462], [-95.9510748, 36.0218815], [-95.9511533, 36.0218785], [-95.9511571, 36.0219431], [-95.9511804, 36.0219422], [-95.9511868, 36.0220501], [-95.9512225, 36.0220488], [-95.9512343, 36.0222486], [-95.9511088, 36.0222534], [-95.951108, 36.0222402], [-95.9509331, 36.022247]]]}, "properties": {"osm_id": 480060629, "building": "office", "name": "", "height": null, "height_m": null, "levels": null, "tract_id": "40143007634", "tract_name": "76.34", "tags": {"addr:city": "Tulsa", "addr:housenumber": "9716", "addr:postcode": "74137", "addr:state": "OK", "addr:street": "Riverside Parkway", "building": "office"}}}, {"type": "Feature", "geometry": {"type": "Polygon", "coordinates": [[[-95.9470403, 36.0251545], [-95.9470401, 36.0255352], [-95.9468709, 36.0255352], [-95.9468709, 36.025648], [-95.946933, 36.025648], [-95.9469328, 36.0260313], [-95.9475344, 36.0260314], [-95.9478806, 36.0260317], [-95.9478807, 36.0258747], [-95.9478905, 36.0258747], [-95.9478905, 36.0258508], [-95.9478985, 36.0258508], [-95.9478985, 36.0258253], [-95.9479069, 36.0258253], [-95.9479069, 36.0258023], [-95.9479166, 36.0258023], [-95.9479167, 36.0257291], [-95.9479167, 36.0256513], [-95.9479062, 36.0256513], [-95.9479062, 36.0255382], [-95.9479168, 36.0255382], [-95.9479168, 36.0254623], [-95.9479168, 36.0253858], [-95.9479071, 36.0253858], [-95.9479072, 36.0253617], [-95.9478988, 36.0253617], [-95.9478988, 36.0253365], [-95.9478908, 36.0253364], [-95.9478908, 36.025312], [-95.947881, 36.025312], [-95.9478811, 36.0251548], [-95.9470403, 36.0251545]]]}, "properties": {"osm_id": 495187822, "building": "retail", "name": "Kohl's", "height": null, "height_m": null, "levels": null, "tract_id": "40143007634", "tract_name": "76.34", "tags": {"addr:city": "Tulsa", "addr:country": "US", "addr:housenumber": "9595", "addr:postcode": "74137", "addr:state": "OK", "addr:street": "Riverside Parkway", "brand": "Kohl's", "brand:wikidata": "Q967265", "building": "retail", "name": "Kohl's", "opening_hours": "Su 09:00-21:00; Mo-Th 09:00-23:00; Fr 09:00-23:00; Sa 08:00-23:00", "phone": "+1 918-299-5073", "ref": "426", "roof:shape": "flat", "shop": "department_store", "website": "https://www.kohls.com/stores/ok/tulsa-426.shtml"}}}, {"type": "Feature", "geometry": {"type": "Polygon", "coordinates": [[[-95.9475338, 36.0265274], [-95.9479137, 36.0265274], [-95.9479137, 36.0265588], [-95.9479137, 36.026587], [-95.9476023, 36.0265882], [-95.9475337, 36.0265881], [-95.9475338, 36.0265274]]]}, "properties": {"osm_id": 495188719, "building": "retail", "name": "", "height": null, "height_m": 3.0, "levels": 1, "tract_id": "40143007634", "tract_name": "76.34", "tags": {"addr:city": "Tulsa", "addr:country": "US", "addr:housenumber": "9591", "addr:state": "OK", "addr:street": "Riverside Parkway", "building": "retail", "building:levels": "1", "roof:levels": "0", "roof:shape": "flat"}}}, {"type": "Feature", "geometry": {"type": "Polygon", "coordinates": [[[-95.9475341, 36.0262546], [-95.9479141, 36.0262546], [-95.9479139, 36.0263809], [-95.9479137, 36.0265274], [-95.9475338, 36.0265274], [-95.9475341, 36.0262546]]]}, "properties": {"osm_id": 495188720, "building": "retail", "name": "Shoe Carnival", "height": null, "height_m": 3.0, "levels": 1, "tract_id": "40143007634", "tract_name": "76.34", "tags": {"addr:city": "Tulsa", "addr:country": "US", "addr:housenumber": "9591-C", "addr:state": "OK", "addr:street": "Riverside Parkway", "brand": "Shoe Carnival", "brand:wikidata": "Q7500007", "building": "retail", "building:levels": "1", "check_date": "2025-04-17", "name": "Shoe Carnival", "opening_hours": "Su 11:00-19:00; Mo-Th 10:00-21:00; Fr,Sa 09:30-21:30", "roof:levels": "0", "roof:shape": "flat", "shop": "shoes", "website": "https://stores.shoecarnival.com/ok/tulsa/shoe-store-tulsa-ok-226.html"}}}, {"type": "Feature", "geometry": {"type": "Polygon", "coordinates": [[[-95.9476023, 36.0265882], [-95.9479137, 36.026587], [-95.9479136, 36.0266271], [-95.9479136, 36.0266694], [-95.9476694, 36.0266695], [-95.9476022, 36.0266694], [-95.9476023, 36.0265882]]]}, "properties": {"osm_id": 495188721, "building": "retail", "name": "", "height": null, "height_m": 3.0, "levels": 1, "tract_id": "40143007634", "tract_name": "76.34", "tags": {"addr:city": "Tulsa", "addr:country": "US", "addr:housenumber": "9591-2", "addr:state": "OK", "addr:street": "Riverside Parkway", "building": "retail", "building:levels": "1", "roof:levels": "0", "roof:shape": "flat"}}}, {"type": "Feature", "geometry": {"type": "Polygon", "coordinates": [[[-95.9476694, 36.0266695], [-95.9479136, 36.0266694], [-95.9479135, 36.0267117], [-95.9479135, 36.0267515], [-95.9477159, 36.0267514], [-95.9476693, 36.0267513], [-95.9476694, 36.0266695]]]}, "properties": {"osm_id": 495188722, "building": "retail", "name": "UBuildIt", "height": null, "height_m": 3.0, "levels": 1, "tract_id": "40143007634", "tract_name": "76.34", "tags": {"addr:state": "OK", "addr:unit": "L", "building": "retail", "building:levels": "1", "name": "UBuildIt", "office": "construction_company", "roof:levels": "0", "roof:shape": "flatz"}}}, {"type": "Feature", "geometry": {"type": "Polygon", "coordinates": [[[-95.9475341, 36.0262546], [-95.9475344, 36.0260314], [-95.9478806, 36.0260317], [-95.9479143, 36.0260317], [-95.9479142, 36.0261445], [-95.9479141, 36.0262546], [-95.9475341, 36.0262546]]]}, "properties": {"osm_id": 495188723, "building": "retail", "name": "Dollar Tree", "height": null, "height_m": 3.0, "levels": 1, "tract_id": "40143007634", "tract_name": "76.34", "tags": {"addr:city": "Tulsa", "addr:country": "US", "addr:housenumber": "9591-E", "addr:state": "OK", "addr:street": "Riverside Parkway", "brand": "Dollar Tree", "brand:wikidata": "Q5289230", "building": "retail", "building:levels": "1", "check_date": "2024-07-11", "name": "Dollar Tree", "opening_hours": "Su 10:00-20:00; Mo-Sa 09:00-21:00", "roof:levels": "0", "roof:shape": "flat", "shop": "variety_store", "website": "https://www.dollartree.com/locations/ok/tulsa/2289/"}}}, {"type": "Feature", "geometry": {"type": "Polygon", "coordinates": [[[-95.9485302, 36.027234], [-95.948236, 36.0271631], [-95.9483554, 36.0268393], [-95.9486495, 36.0269102], [-95.9485302, 36.027234]]]}, "properties": {"osm_id": 495189412, "building": "retail", "name": "", "height": null, "height_m": 3.0, "levels": 1, "tract_id": "40143007634", "tract_name": "76.34", "tags": {"building": "retail", "building:levels": "1", "roof:levels": "0", "roof:shape": "flat"}}}, {"type": "Feature", "geometry": {"type": "Polygon", "coordinates": [[[-95.9479626, 36.0245903], [-95.9480072, 36.0245904], [-95.9480524, 36.0245905], [-95.9480519, 36.0244139], [-95.9479626, 36.0244137], [-95.9479626, 36.0245903]]]}, "properties": {"osm_id": 495189506, "building": "retail", "name": "", "height": null, "height_m": 3.0, "levels": 1, "tract_id": "40143007634", "tract_name": "76.34", "tags": {"addr:city": "Tulsa", "addr:country": "US", "addr:housenumber": "9645", "addr:state": "OK", "addr:street": "Riverside Parkway", "addr:suite": "B", "building": "retail", "building:levels": "1", "disused:shop": "money_lender", "roof:levels": "0", "roof:shape": "flat"}}}, {"type": "Feature", "geometry": {"type": "Polygon", "coordinates": [[[-95.9479626, 36.0245903], [-95.9479626, 36.0244137], [-95.947664, 36.0244132], [-95.9476634, 36.0245897], [-95.9477296, 36.0245898], [-95.9479626, 36.0245903]]]}, "properties": {"osm_id": 495189509, "building": "retail", "name": "Riverside Primary Care", "height": null, "height_m": 3.0, "levels": 1, "tract_id": "40143007634", "tract_name": "76.34", "tags": {"addr:city": "Tulsa", "addr:country": "US", "addr:housenumber": "9645", "addr:state": "OK", "addr:street": "Riverside Parkway", "addr:suite": "C", "amenity": "doctors", "building": "retail", "building:levels": "1", "check_date": "2025-04-17", "healthcare": "doctor", "name": "Riverside Primary Care", "opening_hours": "Mo-Fr 08:00-17:00", "roof:levels": "0", "roof:shape": "flat"}}}, {"type": "Feature", "geometry": {"type": "Polygon", "coordinates": [[[-95.9485842, 36.0245916], [-95.9486378, 36.0245917], [-95.9486891, 36.0245918], [-95.9486889, 36.0244245], [-95.9485848, 36.0244242], [-95.9485842, 36.0245916]]]}, "properties": {"osm_id": 495189830, "building": "retail", "name": "", "height": null, "height_m": 3.0, "levels": 1, "tract_id": "40143007634", "tract_name": "76.34", "tags": {"addr:city": "Tulsa", "addr:country": "US", "addr:housenumber": "9637", "addr:state": "OK", "addr:street": "Riverside Parkway", "building": "retail", "building:levels": "1", "disused:amenity": "cafe", "roof:levels": "0", "roof:shape": "flat"}}}, {"type": "Feature", "geometry": {"type": "Polygon", "coordinates": [[[-95.9485848, 36.0244242], [-95.9484752, 36.0244236], [-95.9484752, 36.0245913], [-95.9485305, 36.0245914], [-95.9485842, 36.0245916], [-95.9485848, 36.0244242]]]}, "properties": {"osm_id": 495189832, "building": "retail", "name": "", "height": null, "height_m": 3.0, "levels": 1, "tract_id": "40143007634", "tract_name": "76.34", "tags": {"addr:city": "Tulsa", "addr:country": "US", "addr:housenumber": "9641-A", "addr:state": "OK", "addr:street": "Riverside Parkway", "building": "retail", "building:levels": "1", "disused:amenity": "doctors", "disused:healthcare": "doctor", "roof:levels": "0", "roof:shape": "flat"}}}, {"type": "Feature", "geometry": {"type": "Polygon", "coordinates": [[[-95.9484752, 36.0244236], [-95.9483895, 36.0244236], [-95.9483896, 36.0245913], [-95.9484326, 36.0245913], [-95.9484752, 36.0245913], [-95.9484752, 36.0244236]]]}, "properties": {"osm_id": 495189833, "building": "retail", "name": "", "height": null, "height_m": 3.0, "levels": 1, "tract_id": "40143007634", "tract_name": "76.34", "tags": {"addr:city": "Tulsa", "addr:country": "US", "addr:housenumber": "9641", "addr:state": "OK", "addr:street": "Riverside Parkway", "addr:suite": "B", "building": "retail", "building:levels": "1", "disused:shop": "hairdresser", "roof:levels": "0", "roof:shape": "flat"}}}, {"type": "Feature", "geometry": {"type": "Polygon", "coordinates": [[[-95.9486889, 36.0244245], [-95.9486895, 36.0243652], [-95.9486899, 36.0243085], [-95.9484714, 36.0243082], [-95.9483896, 36.024308], [-95.9483895, 36.0244236], [-95.9484752, 36.0244236], [-95.9485848, 36.0244242], [-95.9486889, 36.0244245]]]}, "properties": {"osm_id": 495189834, "building": "retail", "name": "Riverside Pediatrics", "height": null, "height_m": 3.0, "levels": 1, "tract_id": "40143007634", "tract_name": "76.34", "tags": {"addr:city": "Tulsa", "addr:country": "US", "addr:housenumber": "9659", "addr:state": "OK", "addr:street": "Riverside Parkway", "amenity": "doctors", "building": "retail", "building:levels": "1", "check_date": "2025-04-17", "healthcare": "doctor", "name": "Riverside Pediatrics", "opening_hours": "Mo-Fr 08:00-17:00", "roof:levels": "0", "roof:shape": "flat"}}}, {"type": "Feature", "geometry": {"type": "Polygon", "coordinates": [[[-95.9486902, 36.0241505], [-95.9484717, 36.0241503], [-95.9484714, 36.0243082], [-95.9486899, 36.0243085], [-95.9486901, 36.0242364], [-95.9486902, 36.0241505]]]}, "properties": {"osm_id": 495189835, "building": "retail", "name": "Infinity Nails & Spa", "height": null, "height_m": 3.0, "levels": 1, "tract_id": "40143007634", "tract_name": "76.34", "tags": {"addr:city": "Tulsa", "addr:housenumber": "9667", "addr:postcode": "74137", "addr:street": "Riverside Parkway", "addr:suite": "A", "beauty": "nails", "building": "retail", "building:levels": "1", "check_date": "2025-04-17", "name": "Infinity Nails & Spa", "opening_hours": "Mo-Sa 09:00-19:00, Su 11:30-18:00", "operator": "Nghi Trung", "payment:american_express": "yes", "payment:cash": "yes", "payment:cheque": "yes", "payment:discover_card": "yes", "payment:mastercard": "yes", "payment:visa": "yes", "phone": "+1-918-298-4521", "roof:levels": "0", "roof:shape": "flat", "shop": "beauty", "website": "https://infinitynailstulsa.com"}}}, {"type": "Feature", "geometry": {"type": "Polygon", "coordinates": [[[-95.9484719, 36.0240794], [-95.9484717, 36.0241503], [-95.9486902, 36.0241505], [-95.9486902, 36.024116], [-95.9486905, 36.0240793], [-95.9484719, 36.0240794]]]}, "properties": {"osm_id": 495189912, "building": "retail", "name": "T-Town Vape & Smoke", "height": null, "height_m": 3.0, "levels": 1, "tract_id": "40143007634", "tract_name": "76.34", "tags": {"addr:city": "Tulsa", "addr:country": "US", "addr:housenumber": "9669", "addr:state": "OK", "addr:street": "Riverside Parkway", "building": "retail", "building:levels": "1", "name": "T-Town Vape & Smoke", "roof:levels": "0", "roof:shape": "flat", "shop": "e-cigarette"}}}, {"type": "Feature", "geometry": {"type": "Polygon", "coordinates": [[[-95.9484719, 36.0240157], [-95.9484719, 36.0240794], [-95.9486905, 36.0240793], [-95.9486905, 36.0240451], [-95.9486904, 36.0240156], [-95.9484719, 36.0240157]]]}, "properties": {"osm_id": 495189991, "building": "retail", "name": "", "height": null, "height_m": 3.0, "levels": 1, "tract_id": "40143007634", "tract_name": "76.34", "tags": {"addr:city": "Tulsa", "addr:country": "US", "addr:state": "OK", "addr:street": "South Riverside Parkway", "building": "retail", "building:levels": "1", "disused:amenity": "dentist", "disused:healthcare": "dentist", "roof:levels": "0", "roof:shape": "flat"}}}, {"type": "Feature", "geometry": {"type": "Polygon", "coordinates": [[[-95.9484721, 36.0239651], [-95.9484719, 36.0240157], [-95.9486904, 36.0240156], [-95.9486906, 36.0239905], [-95.9486907, 36.0239653], [-95.9484721, 36.0239651]]]}, "properties": {"osm_id": 495190329, "building": "retail", "name": "", "height": null, "height_m": 3.0, "levels": 1, "tract_id": "40143007634", "tract_name": "76.34", "tags": {"addr:city": "Tulsa", "addr:country": "US", "addr:housenumber": "9673", "addr:state": "OK", "addr:street": "Riverside Parkway", "building": "retail", "building:levels": "1", "disused:office": "insurance", "roof:levels": "0", "roof:shape": "flat"}}}, {"type": "Feature", "geometry": {"type": "Polygon", "coordinates": [[[-95.9484724, 36.0239145], [-95.9484721, 36.0239651], [-95.9486907, 36.0239653], [-95.9486909, 36.02394], [-95.948691, 36.0239145], [-95.9484724, 36.0239145]]]}, "properties": {"osm_id": 495190716, "building": "retail", "name": "Donuts at Riverside", "height": null, "height_m": 3.0, "levels": 1, "tract_id": "40143007634", "tract_name": "76.34", "tags": {"addr:city": "Tulsa", "addr:country": "US", "addr:housenumber": "9675", "addr:state": "OK", "addr:street": "Riverside Parkway", "building": "retail", "building:levels": "1", "check_date": "2025-04-17", "name": "Donuts at Riverside", "opening_hours": "Tu-Sa 05:00-11:30; Su 05:00-11:00", "phone": "+1-918-298-4445", "roof:levels": "0", "roof:shape": "flat", "shop": "bakery"}}}, {"type": "Feature", "geometry": {"type": "Polygon", "coordinates": [[[-95.948691, 36.0239145], [-95.9486912, 36.0238885], [-95.9486913, 36.023864], [-95.9484726, 36.0238636], [-95.9484724, 36.0239145], [-95.948691, 36.0239145]]]}, "properties": {"osm_id": 495190717, "building": "retail", "name": "Smoothie King", "height": null, "height_m": 3.0, "levels": 1, "tract_id": "40143007634", "tract_name": "76.34", "tags": {"addr:city": "Tulsa", "addr:country": "US", "addr:housenumber": "9679", "addr:state": "OK", "addr:street": "Riverside Parkway", "amenity": "fast_food", "brand": "Smoothie King", "brand:wikidata": "Q5491421", "building": "retail", "building:levels": "1", "cuisine": "juice", "name": "Smoothie King", "roof:levels": "0", "roof:shape": "flat", "takeaway": "yes"}}}, {"type": "Feature", "geometry": {"type": "Polygon", "coordinates": [[[-95.9494056, 36.0279137], [-95.9494056, 36.0278025], [-95.9496155, 36.0278025], [-95.9496155, 36.0279137], [-95.9494056, 36.0279137]]]}, "properties": {"osm_id": 495744359, "building": "house", "name": "", "height": null, "height_m": null, "levels": null, "tract_id": "40143007634", "tract_name": "76.34", "tags": {"addr:housenumber": "9404", "addr:street": "South Delaware Avenue", "building": "house"}}}, {"type": "Feature", "geometry": {"type": "Polygon", "coordinates": [[[-95.9497315, 36.0277683], [-95.9496523, 36.0277689], [-95.9496517, 36.0277082], [-95.9497308, 36.0277077], [-95.9497315, 36.0277683]]]}, "properties": {"osm_id": 495744360, "building": "garage", "name": "", "height": null, "height_m": null, "levels": null, "tract_id": "40143007634", "tract_name": "76.34", "tags": {"building": "garage"}}}, {"type": "Feature", "geometry": {"type": "Polygon", "coordinates": [[[-95.9474931, 36.0311488], [-95.9471501, 36.0311516], [-95.9471484, 36.0310139], [-95.9474914, 36.0310111], [-95.9474931, 36.0311488]]]}, "properties": {"osm_id": 666090357, "building": "yes", "name": "", "height": null, "height_m": 3.0, "levels": 1, "tract_id": "40143007634", "tract_name": "76.34", "tags": {"addr:city": "Tulsa", "addr:housenumber": "2914", "addr:postcode": "74137", "addr:state": "OK", "addr:street": "East 91st Street", "building": "yes", "building:levels": "1"}}}, {"type": "Feature", "geometry": {"type": "Polygon", "coordinates": [[[-95.9462155, 36.0262807], [-95.946215, 36.0262944], [-95.9461473, 36.0262927], [-95.9461467, 36.0263074], [-95.946083, 36.0263058], [-95.9460816, 36.0263426], [-95.9459959, 36.0263404], [-95.9459932, 36.0264105], [-95.9460792, 36.0264127], [-95.9460782, 36.0264386], [-95.9460986, 36.0264391], [-95.9461777, 36.0264411], [-95.946325, 36.0264448], [-95.9463284, 36.0263563], [-95.9463305, 36.0263016], [-95.9462669, 36.0263], [-95.9462675, 36.026282], [-95.9462155, 36.0262807]]]}, "properties": {"osm_id": 732995891, "building": "yes", "name": "Crown Chase Apartments Leasing Office", "height": null, "height_m": null, "levels": null, "tract_id": "40143007634", "tract_name": "76.34", "tags": {"addr:city": "Tulsa", "addr:housenumber": "2929", "addr:postcode": "74137", "addr:state": "OK", "addr:street": "East 95th Street", "building": "yes", "name": "Crown Chase Apartments Leasing Office"}}}, {"type": "Feature", "geometry": {"type": "Polygon", "coordinates": [[[-95.9458454, 36.0263555], [-95.9458171, 36.0263613], [-95.9458106, 36.0263406], [-95.9456924, 36.0263651], [-95.9456965, 36.026378], [-95.9456135, 36.0263952], [-95.945619, 36.0264126], [-95.9455819, 36.0264202], [-95.9455763, 36.0264025], [-95.9454913, 36.0264201], [-95.9454853, 36.0264009], [-95.9453487, 36.0264291], [-95.9453545, 36.0264473], [-95.9453297, 36.0264524], [-95.9453708, 36.0265826], [-95.9453992, 36.0265767], [-95.9454051, 36.0265952], [-95.9454893, 36.0265779], [-95.9454932, 36.0265904], [-95.94579, 36.0265294], [-95.9457836, 36.026509], [-95.9458588, 36.0264936], [-95.9458535, 36.0264767], [-95.9458818, 36.0264708], [-95.9458454, 36.0263555]]]}, "properties": {"osm_id": 732995892, "building": "apartments", "name": "", "height": null, "height_m": null, "levels": null, "tract_id": "40143007634", "tract_name": "76.34", "tags": {"building": "apartments"}}}, {"type": "Feature", "geometry": {"type": "Polygon", "coordinates": [[[-95.9452017, 36.0265145], [-95.9450646, 36.0265578], [-95.9450731, 36.0265754], [-95.9450325, 36.0265882], [-95.9450641, 36.0266537], [-95.9450414, 36.0266609], [-95.9450922, 36.0267659], [-95.9451288, 36.0267543], [-95.9451442, 36.0267862], [-95.9451032, 36.0267992], [-95.945157, 36.0269104], [-95.9451785, 36.0269036], [-95.9452123, 36.0269736], [-95.9452455, 36.0269632], [-95.9452573, 36.0269878], [-95.9454166, 36.0269376], [-95.9454054, 36.0269142], [-95.9454426, 36.0269025], [-95.945398, 36.0268099], [-95.9453869, 36.0267867], [-95.9453678, 36.0267927], [-95.9453347, 36.0267237], [-95.9452924, 36.026737], [-95.9452787, 36.0267083], [-95.9453119, 36.0266979], [-95.9452774, 36.0266262], [-95.9452939, 36.026621], [-95.9452858, 36.0266043], [-95.9452458, 36.0265211], [-95.9452103, 36.0265323], [-95.9452017, 36.0265145]]]}, "properties": {"osm_id": 732995893, "building": "apartments", "name": "", "height": null, "height_m": null, "levels": null, "tract_id": "40143007634", "tract_name": "76.34", "tags": {"building": "apartments"}}}, {"type": "Feature", "geometry": {"type": "Polygon", "coordinates": [[[-95.9456994, 36.0267876], [-95.9456272, 36.0267876], [-95.9456153, 36.0267876], [-95.9456153, 36.0267722], [-95.9455552, 36.0267722], [-95.9455552, 36.0267939], [-95.9454922, 36.0267939], [-95.9454922, 36.0269271], [-95.9455564, 36.0269271], [-95.9455564, 36.0269631], [-95.9456047, 36.0269631], [-95.9456047, 36.0269728], [-95.9457067, 36.0269728], [-95.9457067, 36.0269425], [-95.9458218, 36.0269426], [-95.9458218, 36.0269741], [-95.9459188, 36.0269741], [-95.9459188, 36.026959], [-95.9459686, 36.026959], [-95.9459686, 36.0269265], [-95.9460277, 36.0269265], [-95.9460278, 36.0268053], [-95.9459649, 36.0268053], [-95.9459649, 36.0267715], [-95.9458947, 36.0267715], [-95.9458667, 36.0267715], [-95.9458667, 36.0267856], [-95.94582, 36.0267856], [-95.94582, 36.0268228], [-95.9456994, 36.0268228], [-95.9456994, 36.0267876]]]}, "properties": {"osm_id": 732995900, "building": "apartments", "name": "", "height": null, "height_m": null, "levels": null, "tract_id": "40143007634", "tract_name": "76.34", "tags": {"building": "apartments"}}}, {"type": "Feature", "geometry": {"type": "Polygon", "coordinates": [[[-95.944593, 36.0272675], [-95.9443818, 36.0271591], [-95.9444129, 36.0271195], [-95.9443959, 36.0271108], [-95.9444371, 36.0270583], [-95.9444553, 36.0270352], [-95.9444715, 36.0270435], [-95.9445177, 36.0269846], [-95.9445472, 36.0269998], [-95.9445646, 36.0269776], [-95.9445328, 36.0269613], [-95.9445734, 36.0269097], [-95.9445564, 36.026901], [-95.9445793, 36.0268718], [-95.9446295, 36.0268079], [-95.944643, 36.0268148], [-95.9446641, 36.0267879], [-95.9448777, 36.0268975], [-95.9448394, 36.0269463], [-95.9448594, 36.0269565], [-95.9448254, 36.0269999], [-95.9448032, 36.0270282], [-95.9447858, 36.0270193], [-95.944743, 36.0270738], [-95.9447092, 36.0270564], [-95.9446958, 36.0270735], [-95.9447321, 36.0270921], [-95.9446891, 36.027147], [-95.9447053, 36.0271554], [-95.9446816, 36.0271856], [-95.9446485, 36.0272278], [-95.9446312, 36.0272189], [-95.944593, 36.0272675]]]}, "properties": {"osm_id": 732995901, "building": "apartments", "name": "", "height": null, "height_m": null, "levels": null, "tract_id": "40143007634", "tract_name": "76.34", "tags": {"building": "apartments"}}}, {"type": "Feature", "geometry": {"type": "Polygon", "coordinates": [[[-95.9445617, 36.0277453], [-95.9443133, 36.0277407], [-95.9443148, 36.0276896], [-95.9442964, 36.0276893], [-95.944298, 36.0276331], [-95.9442987, 36.0276074], [-95.9443234, 36.0276079], [-95.9443252, 36.0275422], [-95.9443677, 36.0275429], [-95.9443688, 36.0275038], [-95.9443268, 36.027503], [-95.9443286, 36.0274408], [-95.9443036, 36.0274403], [-95.9443043, 36.0274156], [-95.9443064, 36.0273405], [-95.9443258, 36.0273408], [-95.9443266, 36.027311], [-95.9445734, 36.0273154], [-95.9445722, 36.0273575], [-95.9445906, 36.0273579], [-95.944589, 36.0274177], [-95.9445883, 36.0274426], [-95.9445704, 36.0274423], [-95.9445686, 36.027508], [-95.9445234, 36.0275071], [-95.9445222, 36.0275467], [-95.9445615, 36.0275475], [-95.9445598, 36.0276052], [-95.9445822, 36.0276056], [-95.9445813, 36.0276363], [-95.9445795, 36.0277012], [-95.9445629, 36.0277008], [-95.9445617, 36.0277453]]]}, "properties": {"osm_id": 732995902, "building": "apartments", "name": "", "height": null, "height_m": null, "levels": null, "tract_id": "40143007634", "tract_name": "76.34", "tags": {"building": "apartments"}}}, {"type": "Feature", "geometry": {"type": "Polygon", "coordinates": [[[-95.9446967, 36.0273068], [-95.9447342, 36.027324], [-95.9447206, 36.0273436], [-95.9447913, 36.027376], [-95.9448358, 36.0273963], [-95.944845, 36.0273832], [-95.9449147, 36.0274151], [-95.9449356, 36.0273854], [-95.944967, 36.0273998], [-95.9449495, 36.0274248], [-95.9450185, 36.0274565], [-95.945007, 36.0274729], [-95.9450368, 36.0274866], [-95.9451152, 36.0275227], [-95.9451273, 36.027514], [-95.9451515, 36.0275262], [-95.9452818, 36.0273567], [-95.9452308, 36.027331], [-95.9452428, 36.0273154], [-95.9451885, 36.027288], [-95.9451583, 36.0272729], [-95.9451427, 36.0272931], [-95.9450765, 36.0272599], [-95.9450559, 36.0272867], [-95.9450126, 36.027265], [-95.9450322, 36.0272393], [-95.9449675, 36.0272068], [-95.9449813, 36.0271889], [-95.9449547, 36.0271756], [-95.9448899, 36.0271431], [-95.9448765, 36.0271528], [-95.9448217, 36.0271278], [-95.9446967, 36.0273068]]]}, "properties": {"osm_id": 732995903, "building": "apartments", "name": "", "height": null, "height_m": null, "levels": null, "tract_id": "40143007634", "tract_name": "76.34", "tags": {"building": "apartments"}}}, {"type": "Feature", "geometry": {"type": "Polygon", "coordinates": [[[-95.9463751, 36.0269526], [-95.9461307, 36.0269499], [-95.9461324, 36.0268494], [-95.946134, 36.0267588], [-95.9461761, 36.0267593], [-95.9461767, 36.0267206], [-95.946129, 36.0267201], [-95.9461305, 36.0266309], [-95.9461325, 36.0265179], [-95.9461758, 36.0265184], [-95.9463235, 36.02652], [-95.9463837, 36.0265207], [-95.9463802, 36.0267215], [-95.9463341, 36.026721], [-95.9463334, 36.0267577], [-95.9463784, 36.0267582], [-95.9463751, 36.0269526]]]}, "properties": {"osm_id": 732995904, "building": "apartments", "name": "", "height": null, "height_m": null, "levels": null, "tract_id": "40143007634", "tract_name": "76.34", "tags": {"building": "apartments"}}}, {"type": "Feature", "geometry": {"type": "Polygon", "coordinates": [[[-95.9461333, 36.0276378], [-95.9459572, 36.0276368], [-95.945958, 36.0275506], [-95.9459257, 36.0275504], [-95.9459259, 36.02753], [-95.9459267, 36.0274415], [-95.9459577, 36.0274417], [-95.9459581, 36.0274029], [-95.9459328, 36.0274027], [-95.9459336, 36.0273196], [-95.9459338, 36.027303], [-95.9459527, 36.0273032], [-95.9459537, 36.027205], [-95.9461357, 36.0272062], [-95.9461355, 36.0272247], [-95.9461608, 36.0272249], [-95.9461596, 36.0273392], [-95.946138, 36.027339], [-95.9461373, 36.0274079], [-95.946113, 36.0274077], [-95.9461127, 36.0274384], [-95.9461406, 36.0274385], [-95.94614, 36.0275095], [-95.946156, 36.0275096], [-95.9461551, 36.0276142], [-95.9461335, 36.0276141], [-95.9461333, 36.0276378]]]}, "properties": {"osm_id": 732995905, "building": "apartments", "name": "", "height": null, "height_m": null, "levels": null, "tract_id": "40143007634", "tract_name": "76.34", "tags": {"building": "apartments"}}}, {"type": "Feature", "geometry": {"type": "Polygon", "coordinates": [[[-95.9454664, 36.0276647], [-95.9452646, 36.0275456], [-95.9453467, 36.0274546], [-95.9454074, 36.0273873], [-95.9454412, 36.0274073], [-95.9454683, 36.0273773], [-95.945431, 36.0273552], [-95.945495, 36.0272843], [-95.9455776, 36.0271926], [-95.945784, 36.0273143], [-95.9456403, 36.0274737], [-95.9455984, 36.0274489], [-95.9455689, 36.0274816], [-95.9456098, 36.0275057], [-95.9454664, 36.0276647]]]}, "properties": {"osm_id": 732995906, "building": "apartments", "name": "", "height": null, "height_m": null, "levels": null, "tract_id": "40143007634", "tract_name": "76.34", "tags": {"building": "apartments"}}}, {"type": "Feature", "geometry": {"type": "Polygon", "coordinates": [[[-95.9449162, 36.0277029], [-95.9448609, 36.0277839], [-95.9448976, 36.0278003], [-95.9448636, 36.0278501], [-95.9448516, 36.0278447], [-95.9448127, 36.0279018], [-95.9447754, 36.0278852], [-95.9447431, 36.0279326], [-95.9446041, 36.0278706], [-95.9446349, 36.0278254], [-95.9446032, 36.0278112], [-95.9446302, 36.0277715], [-95.9446449, 36.0277781], [-95.9446868, 36.0277165], [-95.9447245, 36.0277334], [-95.9447861, 36.0276431], [-95.9447477, 36.0276259], [-95.9447805, 36.0275779], [-95.9447877, 36.0275673], [-95.9447617, 36.0275557], [-95.9447927, 36.0275103], [-95.944827, 36.0275256], [-95.9448565, 36.0274824], [-95.9449962, 36.0275447], [-95.944969, 36.0275845], [-95.9450012, 36.0276138], [-95.9449697, 36.0276599], [-95.9449616, 36.0276717], [-95.9449754, 36.0276779], [-95.9449485, 36.0277173], [-95.9449162, 36.0277029]]]}, "properties": {"osm_id": 732995907, "building": "apartments", "name": "", "height": null, "height_m": null, "levels": null, "tract_id": "40143007634", "tract_name": "76.34", "tags": {"building": "apartments"}}}, {"type": "Feature", "geometry": {"type": "Polygon", "coordinates": [[[-95.9454033, 36.0279216], [-95.9450935, 36.0279188], [-95.9450936, 36.0279057], [-95.9450061, 36.0279048], [-95.9450063, 36.0278862], [-95.9449799, 36.0278859], [-95.9449817, 36.0277553], [-95.9450048, 36.0277555], [-95.9450051, 36.0277351], [-95.9451155, 36.0277362], [-95.945138, 36.0277364], [-95.9451447, 36.0277515], [-95.9452312, 36.0277521], [-95.945231, 36.0277739], [-95.9452719, 36.0277742], [-95.9452721, 36.0277559], [-95.9453586, 36.0277564], [-95.9453587, 36.0277391], [-95.9453777, 36.0277393], [-95.9454834, 36.02774], [-95.9454832, 36.0277566], [-95.9455083, 36.0277568], [-95.9455068, 36.0278827], [-95.9454852, 36.0278825], [-95.9454849, 36.0279052], [-95.9454035, 36.0279045], [-95.9454033, 36.0279216]]]}, "properties": {"osm_id": 732995908, "building": "apartments", "name": "", "height": null, "height_m": null, "levels": null, "tract_id": "40143007634", "tract_name": "76.34", "tags": {"building": "apartments"}}}, {"type": "Feature", "geometry": {"type": "Polygon", "coordinates": [[[-95.9461403, 36.02792], [-95.945884, 36.0279193], [-95.9458842, 36.0278867], [-95.9458442, 36.0278866], [-95.945844, 36.0279168], [-95.945597, 36.0279161], [-95.9455973, 36.0278442], [-95.9456133, 36.0278442], [-95.9456136, 36.0277933], [-95.9455949, 36.0277932], [-95.9455954, 36.0277146], [-95.9457284, 36.0277151], [-95.9458467, 36.0277155], [-95.9458466, 36.027747], [-95.9458796, 36.0277471], [-95.9458798, 36.027718], [-95.9459953, 36.0277184], [-95.9461333, 36.0277189], [-95.9461329, 36.0277959], [-95.9461154, 36.0277958], [-95.9461152, 36.027843], [-95.9461406, 36.0278431], [-95.9461403, 36.02792]]]}, "properties": {"osm_id": 732995909, "building": "apartments", "name": "", "height": null, "height_m": null, "levels": null, "tract_id": "40143007634", "tract_name": "76.34", "tags": {"building": "apartments"}}}, {"type": "Feature", "geometry": {"type": "Polygon", "coordinates": [[[-95.9465296, 36.0311897], [-95.9465102, 36.0311897], [-95.9462957, 36.0311897], [-95.9461541, 36.0311897], [-95.9461541, 36.0313007], [-95.9462082, 36.0313007], [-95.9462082, 36.0313817], [-95.9462958, 36.0313817], [-95.9465104, 36.0313817], [-95.9465372, 36.0313817], [-95.9465372, 36.0315706], [-95.9461894, 36.0315706], [-95.9461894, 36.0313954], [-95.946022, 36.0313954], [-95.9460221, 36.0314994], [-95.9459568, 36.0314995], [-95.9459568, 36.0314171], [-95.9458897, 36.0314171], [-95.9458897, 36.0311935], [-95.945466, 36.0311935], [-95.9454661, 36.0308562], [-95.9465296, 36.0308562], [-95.9465296, 36.0311897]]]}, "properties": {"osm_id": 732995966, "building": "yes", "name": "Racquet & Health 91", "height": null, "height_m": null, "levels": null, "tract_id": "40143007634", "tract_name": "76.34", "tags": {"building": "yes", "club": "sport", "name": "Racquet & Health 91"}}}, {"type": "Feature", "geometry": {"type": "Polygon", "coordinates": [[[-95.9443377, 36.027864], [-95.9442609, 36.0278786], [-95.9442208, 36.0277403], [-95.9442977, 36.0277258], [-95.9443377, 36.027864]]]}, "properties": {"osm_id": 733454650, "building": "garages", "name": "", "height": null, "height_m": null, "levels": null, "tract_id": "40143007634", "tract_name": "76.34", "tags": {"building": "garages"}}}, {"type": "Feature", "geometry": {"type": "Polygon", "coordinates": [[[-95.9440899, 36.0274614], [-95.9440299, 36.0274565], [-95.9440128, 36.0274551], [-95.9440281, 36.0273339], [-95.9441052, 36.0273402], [-95.9440899, 36.0274614]]]}, "properties": {"osm_id": 733454651, "building": "garages", "name": "", "height": null, "height_m": null, "levels": null, "tract_id": "40143007634", "tract_name": "76.34", "tags": {"building": "garages"}}}, {"type": "Feature", "geometry": {"type": "Polygon", "coordinates": [[[-95.9442215, 36.0272883], [-95.9443, 36.0273054], [-95.9443393, 36.0271872], [-95.9442607, 36.0271702], [-95.9442215, 36.0272883]]]}, "properties": {"osm_id": 733454652, "building": "garages", "name": "", "height": null, "height_m": null, "levels": null, "tract_id": "40143007634", "tract_name": "76.34", "tags": {"building": "garages"}}}, {"type": "Feature", "geometry": {"type": "Polygon", "coordinates": [[[-95.9441715, 36.0271327], [-95.9440988, 36.0271081], [-95.9441579, 36.0269937], [-95.9442307, 36.0270183], [-95.9441715, 36.0271327]]]}, "properties": {"osm_id": 733454653, "building": "garages", "name": "", "height": null, "height_m": null, "levels": null, "tract_id": "40143007634", "tract_name": "76.34", "tags": {"building": "garages"}}}, {"type": "Feature", "geometry": {"type": "Polygon", "coordinates": [[[-95.9443995, 36.0268017], [-95.9443415, 36.0267602], [-95.944441, 36.0266693], [-95.944499, 36.0267109], [-95.9443995, 36.0268017]]]}, "properties": {"osm_id": 733454654, "building": "garages", "name": "", "height": null, "height_m": null, "levels": null, "tract_id": "40143007634", "tract_name": "76.34", "tags": {"building": "garages"}}}, {"type": "Feature", "geometry": {"type": "Polygon", "coordinates": [[[-95.9446684, 36.0267856], [-95.944617, 36.0267369], [-95.9447315, 36.0266579], [-95.9447829, 36.0267065], [-95.9446684, 36.0267856]]]}, "properties": {"osm_id": 733454655, "building": "garages", "name": "", "height": null, "height_m": null, "levels": null, "tract_id": "40143007634", "tract_name": "76.34", "tags": {"building": "garages"}}}, {"type": "Feature", "geometry": {"type": "Polygon", "coordinates": [[[-95.9447092, 36.026564], [-95.9446625, 36.0265128], [-95.9447843, 36.02644], [-95.944831, 36.0264912], [-95.9447092, 36.026564]]]}, "properties": {"osm_id": 733454656, "building": "garages", "name": "", "height": null, "height_m": null, "levels": null, "tract_id": "40143007634", "tract_name": "76.34", "tags": {"building": "garages"}}}, {"type": "Feature", "geometry": {"type": "Polygon", "coordinates": [[[-95.9449168, 36.0264453], [-95.9448771, 36.0263892], [-95.9450084, 36.0263284], [-95.9450482, 36.0263845], [-95.9449168, 36.0264453]]]}, "properties": {"osm_id": 733454657, "building": "garages", "name": "", "height": null, "height_m": null, "levels": null, "tract_id": "40143007634", "tract_name": "76.34", "tags": {"building": "garages"}}}, {"type": "Feature", "geometry": {"type": "Polygon", "coordinates": [[[-95.9450711, 36.0265432], [-95.945034, 36.0264858], [-95.9451863, 36.0264214], [-95.9452233, 36.0264788], [-95.9450711, 36.0265432]]]}, "properties": {"osm_id": 733454658, "building": "garages", "name": "", "height": null, "height_m": null, "levels": null, "tract_id": "40143007634", "tract_name": "76.34", "tags": {"building": "garages"}}}, {"type": "Feature", "geometry": {"type": "Polygon", "coordinates": [[[-95.9451636, 36.0263345], [-95.9451312, 36.0262756], [-95.94527, 36.0262256], [-95.9453024, 36.0262845], [-95.9451636, 36.0263345]]]}, "properties": {"osm_id": 733454659, "building": "garages", "name": "", "height": null, "height_m": null, "levels": null, "tract_id": "40143007634", "tract_name": "76.34", "tags": {"building": "garages"}}}, {"type": "Feature", "geometry": {"type": "Polygon", "coordinates": [[[-95.9455271, 36.0262211], [-95.9455075, 36.0261581], [-95.9456563, 36.0261278], [-95.9456758, 36.0261908], [-95.9455271, 36.0262211]]]}, "properties": {"osm_id": 733454660, "building": "garages", "name": "", "height": null, "height_m": null, "levels": null, "tract_id": "40143007634", "tract_name": "76.34", "tags": {"building": "garages"}}}, {"type": "Feature", "geometry": {"type": "Polygon", "coordinates": [[[-95.945006, 36.0271548], [-95.9450759, 36.0271291], [-95.9450127, 36.0270168], [-95.9449428, 36.0270425], [-95.945006, 36.0271548]]]}, "properties": {"osm_id": 733454661, "building": "garages", "name": "", "height": null, "height_m": null, "levels": null, "tract_id": "40143007634", "tract_name": "76.34", "tags": {"building": "garages"}}}, {"type": "Feature", "geometry": {"type": "Polygon", "coordinates": [[[-95.9453386, 36.0271986], [-95.945339, 36.0271337], [-95.94549, 36.0271344], [-95.9454896, 36.0271993], [-95.9454289, 36.027199], [-95.9453386, 36.0271986]]]}, "properties": {"osm_id": 733454662, "building": "garages", "name": "", "height": null, "height_m": null, "levels": null, "tract_id": "40143007634", "tract_name": "76.34", "tags": {"building": "garages"}}}, {"type": "Feature", "geometry": {"type": "Polygon", "coordinates": [[[-95.9459124, 36.0272027], [-95.9458737, 36.0272025], [-95.9458276, 36.0272023], [-95.9457635, 36.0272021], [-95.9457639, 36.0271369], [-95.9459128, 36.0271375], [-95.9459124, 36.0272027]]]}, "properties": {"osm_id": 733454663, "building": "garages", "name": "", "height": null, "height_m": null, "levels": null, "tract_id": "40143007634", "tract_name": "76.34", "tags": {"building": "garages"}}}, {"type": "Feature", "geometry": {"type": "Polygon", "coordinates": [[[-95.9464151, 36.0272746], [-95.9463369, 36.0272742], [-95.9463379, 36.0271512], [-95.9464161, 36.0271516], [-95.9464151, 36.0272746]]]}, "properties": {"osm_id": 733454664, "building": "garages", "name": "", "height": null, "height_m": null, "levels": null, "tract_id": "40143007634", "tract_name": "76.34", "tags": {"building": "garages"}}}, {"type": "Feature", "geometry": {"type": "Polygon", "coordinates": [[[-95.946338, 36.027591], [-95.9463367, 36.0274694], [-95.9464161, 36.0274688], [-95.9464174, 36.0275904], [-95.946338, 36.027591]]]}, "properties": {"osm_id": 733454665, "building": "garages", "name": "", "height": null, "height_m": null, "levels": null, "tract_id": "40143007634", "tract_name": "76.34", "tags": {"building": "garages"}}}, {"type": "Feature", "geometry": {"type": "Polygon", "coordinates": [[[-95.9464154, 36.0278564], [-95.9463334, 36.0278554], [-95.9463359, 36.0277331], [-95.9464178, 36.0277341], [-95.9464154, 36.0278564]]]}, "properties": {"osm_id": 733454666, "building": "garages", "name": "", "height": null, "height_m": null, "levels": null, "tract_id": "40143007634", "tract_name": "76.34", "tags": {"building": "garages"}}}, {"type": "Feature", "geometry": {"type": "Polygon", "coordinates": [[[-95.9463255, 36.0281563], [-95.9460578, 36.0281528], [-95.946058, 36.0280867], [-95.9463131, 36.028087], [-95.9463255, 36.0281563]]]}, "properties": {"osm_id": 733454667, "building": "garages", "name": "", "height": null, "height_m": null, "levels": null, "tract_id": "40143007634", "tract_name": "76.34", "tags": {"building": "garages"}}}, {"type": "Feature", "geometry": {"type": "Polygon", "coordinates": [[[-95.9458054, 36.0281525], [-95.9456554, 36.028152], [-95.9456557, 36.0280876], [-95.9458057, 36.028088], [-95.9458054, 36.0281525]]]}, "properties": {"osm_id": 733454668, "building": "garages", "name": "", "height": null, "height_m": null, "levels": null, "tract_id": "40143007634", "tract_name": "76.34", "tags": {"building": "garages"}}}, {"type": "Feature", "geometry": {"type": "Polygon", "coordinates": [[[-95.9456173, 36.0280027], [-95.9454644, 36.0280039], [-95.9454636, 36.0279388], [-95.9456165, 36.0279375], [-95.9456173, 36.0280027]]]}, "properties": {"osm_id": 733454669, "building": "garages", "name": "", "height": null, "height_m": null, "levels": null, "tract_id": "40143007634", "tract_name": "76.34", "tags": {"building": "garages"}}}, {"type": "Feature", "geometry": {"type": "Polygon", "coordinates": [[[-95.94499, 36.0281534], [-95.9449894, 36.0280911], [-95.9451394, 36.0280902], [-95.94514, 36.0281524], [-95.94499, 36.0281534]]]}, "properties": {"osm_id": 733454670, "building": "garages", "name": "", "height": null, "height_m": null, "levels": null, "tract_id": "40143007634", "tract_name": "76.34", "tags": {"building": "garages"}}}, {"type": "Feature", "geometry": {"type": "Polygon", "coordinates": [[[-95.9448788, 36.028005], [-95.9447285, 36.0280047], [-95.9447287, 36.0279388], [-95.944879, 36.0279391], [-95.9448788, 36.028005]]]}, "properties": {"osm_id": 733454671, "building": "garages", "name": "", "height": null, "height_m": null, "levels": null, "tract_id": "40143007634", "tract_name": "76.34", "tags": {"building": "garages"}}}, {"type": "Feature", "geometry": {"type": "Polygon", "coordinates": [[[-95.9447096, 36.0281401], [-95.9445587, 36.0281387], [-95.9445596, 36.0280749], [-95.9447105, 36.0280763], [-95.9447096, 36.0281401]]]}, "properties": {"osm_id": 733454672, "building": "garages", "name": "", "height": null, "height_m": null, "levels": null, "tract_id": "40143007634", "tract_name": "76.34", "tags": {"building": "garages"}}}, {"type": "Feature", "geometry": {"type": "Polygon", "coordinates": [[[-95.9512514, 36.0239795], [-95.9512699, 36.0239551], [-95.9512553, 36.0239328], [-95.9512352, 36.023932], [-95.9512235, 36.0239315], [-95.9512044, 36.023952], [-95.9512216, 36.023978], [-95.9512392, 36.0239789], [-95.9512514, 36.0239795]]]}, "properties": {"osm_id": 754841480, "building": "yes", "name": "", "height": null, "height_m": null, "levels": null, "tract_id": "40143007634", "tract_name": "76.34", "tags": {"amenity": "shelter", "building": "yes", "shelter_type": "picnic_shelter"}}}, {"type": "Feature", "geometry": {"type": "Polygon", "coordinates": [[[-95.9464058, 36.0176377], [-95.9465694, 36.0176377], [-95.9465694, 36.0176556], [-95.9466928, 36.0176556], [-95.9466928, 36.0178362], [-95.9465721, 36.0178362], [-95.9465721, 36.0178172], [-95.946558, 36.0178172], [-95.946558, 36.0178682], [-95.9466391, 36.0178682], [-95.9466391, 36.0179555], [-95.9465037, 36.0179555], [-95.9465037, 36.0179246], [-95.9464212, 36.0179246], [-95.9464212, 36.0178172], [-95.9464058, 36.0178172], [-95.9464058, 36.0176377]]]}, "properties": {"osm_id": 827973799, "building": "yes", "name": "", "height": null, "height_m": null, "levels": null, "tract_id": "40143007634", "tract_name": "76.34", "tags": {"building": "yes"}}}, {"type": "Feature", "geometry": {"type": "Polygon", "coordinates": [[[-95.9464198, 36.0180754], [-95.9464198, 36.0179994], [-95.9464674, 36.0179994], [-95.9464674, 36.0180754], [-95.9464198, 36.0180754]]]}, "properties": {"osm_id": 827973800, "building": "yes", "name": "", "height": null, "height_m": null, "levels": null, "tract_id": "40143007634", "tract_name": "76.34", "tags": {"building": "yes"}}}, {"type": "Feature", "geometry": {"type": "Polygon", "coordinates": [[[-95.9472077, 36.0182999], [-95.9471448, 36.0183002], [-95.9471441, 36.0182216], [-95.9472071, 36.0182212], [-95.9472077, 36.0182999]]]}, "properties": {"osm_id": 827973804, "building": "yes", "name": "", "height": null, "height_m": null, "levels": null, "tract_id": "40143007634", "tract_name": "76.34", "tags": {"building": "yes"}}}, {"type": "Feature", "geometry": {"type": "Polygon", "coordinates": [[[-95.9471776, 36.0181453], [-95.946849, 36.0181464], [-95.9468486, 36.0180753], [-95.9471772, 36.0180743], [-95.9471776, 36.0181453]]]}, "properties": {"osm_id": 827973805, "building": "yes", "name": "", "height": null, "height_m": null, "levels": null, "tract_id": "40143007634", "tract_name": "76.34", "tags": {"building": "yes"}}}, {"type": "Feature", "geometry": {"type": "Polygon", "coordinates": [[[-95.9473888, 36.0180672], [-95.9472594, 36.018067], [-95.9472596, 36.0179978], [-95.9468261, 36.017997], [-95.9468263, 36.0179048], [-95.9469335, 36.017905], [-95.9469336, 36.0178768], [-95.9469986, 36.0178769], [-95.9469985, 36.0179051], [-95.9472598, 36.0179056], [-95.94726, 36.0178386], [-95.9473895, 36.0178389], [-95.9473888, 36.0180672]]]}, "properties": {"osm_id": 827973806, "building": "yes", "name": "", "height": null, "height_m": null, "levels": null, "tract_id": "40143007634", "tract_name": "76.34", "tags": {"amenity": "car_wash", "building": "yes"}}}, {"type": "Feature", "geometry": {"type": "Polygon", "coordinates": [[[-95.9472989, 36.017642], [-95.9472988, 36.0177082], [-95.9470823, 36.0177079], [-95.9470823, 36.0177635], [-95.9470199, 36.0177635], [-95.94702, 36.0177079], [-95.9467979, 36.0177076], [-95.946798, 36.0176415], [-95.9472989, 36.017642]]]}, "properties": {"osm_id": 827973807, "building": "yes", "name": "", "height": null, "height_m": null, "levels": null, "tract_id": "40143007634", "tract_name": "76.34", "tags": {"amenity": "fuel", "building": "yes"}}}, {"type": "Feature", "geometry": {"type": "Polygon", "coordinates": [[[-95.9480134, 36.0179605], [-95.9478396, 36.0179603], [-95.9478399, 36.0178115], [-95.9478035, 36.0178115], [-95.9478036, 36.0177418], [-95.9478413, 36.0177418], [-95.9478415, 36.0176428], [-95.9479272, 36.0176429], [-95.9479273, 36.0176205], [-95.9479799, 36.0176206], [-95.9479798, 36.0176504], [-95.948014, 36.0176504], [-95.9480134, 36.0179605]]]}, "properties": {"osm_id": 827973813, "building": "commercial", "name": "Braum's", "height": null, "height_m": null, "levels": null, "tract_id": "40143007634", "tract_name": "76.34", "tags": {"addr:housenumber": "2825", "addr:postcode": "74137", "addr:street": "East 101st Street", "amenity": "fast_food", "brand": "Braum's", "brand:wikidata": "Q4958263", "building": "commercial", "cuisine": "ice_cream;burger", "name": "Braum's", "phone": "+1-918-296-9120", "ref": "68", "shop": "dairy", "takeaway": "yes"}}}, {"type": "Feature", "geometry": {"type": "Polygon", "coordinates": [[[-95.9498417, 36.0172634], [-95.9497424, 36.0172634], [-95.9497424, 36.0172786], [-95.9493528, 36.0172786], [-95.9493528, 36.0171685], [-95.9493729, 36.0171685], [-95.9493729, 36.017149], [-95.9493602, 36.017149], [-95.9493602, 36.0170899], [-95.9493729, 36.0170899], [-95.9493729, 36.017002], [-95.9497418, 36.017002], [-95.9497418, 36.017021], [-95.9498417, 36.017021], [-95.9498417, 36.0172634]]]}, "properties": {"osm_id": 827973820, "building": "yes", "name": "", "height": null, "height_m": null, "levels": null, "tract_id": "40143007634", "tract_name": "76.34", "tags": {"amenity": "animal_boarding", "building": "yes"}}}, {"type": "Feature", "geometry": {"type": "Polygon", "coordinates": [[[-95.9486347, 36.0178752], [-95.9484509, 36.017874], [-95.9484508, 36.0178874], [-95.9484601, 36.0178875], [-95.9484597, 36.0179293], [-95.9482689, 36.017928], [-95.9482693, 36.0178855], [-95.9482778, 36.0178855], [-95.9482779, 36.0178728], [-95.9482417, 36.0178725], [-95.9482425, 36.0177983], [-95.9482808, 36.0177985], [-95.9482809, 36.0177863], [-95.9482704, 36.0177862], [-95.9482708, 36.017743], [-95.9483155, 36.0177433], [-95.9483157, 36.0177231], [-95.9483697, 36.0177234], [-95.9483695, 36.0177437], [-95.9484613, 36.0177443], [-95.9484609, 36.0177872], [-95.9484524, 36.0177871], [-95.9484523, 36.0177997], [-95.9485287, 36.0178002], [-95.9485288, 36.01779], [-95.9486356, 36.0177907], [-95.9486347, 36.0178752]]]}, "properties": {"osm_id": 827973823, "building": "yes", "name": "", "height": null, "height_m": null, "levels": null, "tract_id": "40143007634", "tract_name": "76.34", "tags": {"amenity": "bank", "building": "yes"}}}, {"type": "Feature", "geometry": {"type": "Polygon", "coordinates": [[[-95.947537, 36.0209444], [-95.9471749, 36.0210182], [-95.9471497, 36.0209373], [-95.9475118, 36.0208635], [-95.947537, 36.0209444]]]}, "properties": {"osm_id": 827973824, "building": "yes", "name": "", "height": null, "height_m": null, "levels": null, "tract_id": "40143007634", "tract_name": "76.34", "tags": {"building": "yes"}}}, {"type": "Feature", "geometry": {"type": "Polygon", "coordinates": [[[-95.9369362, 36.0291862], [-95.9368941, 36.0290973], [-95.9368907, 36.0290901], [-95.9365258, 36.029203], [-95.9365713, 36.0292992], [-95.9369362, 36.0291862]]]}, "properties": {"osm_id": 837232741, "building": "yes", "name": "", "height": null, "height_m": null, "levels": null, "tract_id": "40143007634", "tract_name": "76.34", "tags": {"building": "yes"}}}, {"type": "Feature", "geometry": {"type": "Polygon", "coordinates": [[[-95.9370821, 36.0288871], [-95.9370612, 36.0287981], [-95.9370587, 36.0287875], [-95.9366699, 36.0288472], [-95.9366933, 36.0289468], [-95.9368843, 36.0289175], [-95.9370821, 36.0288871]]]}, "properties": {"osm_id": 837232742, "building": "yes", "name": "", "height": null, "height_m": null, "levels": null, "tract_id": "40143007634", "tract_name": "76.34", "tags": {"building": "yes"}}}, {"type": "Feature", "geometry": {"type": "Polygon", "coordinates": [[[-95.9369769, 36.0290817], [-95.9369771, 36.0290883], [-95.9369788, 36.0291832], [-95.9371661, 36.0291809], [-95.937167, 36.029226], [-95.9370748, 36.0292271], [-95.9370755, 36.0292678], [-95.9370591, 36.029268], [-95.9370602, 36.0293265], [-95.9370816, 36.0293262], [-95.9370822, 36.0293577], [-95.9370593, 36.0293579], [-95.9370604, 36.0294243], [-95.9371487, 36.0294233], [-95.9371484, 36.029406], [-95.9372345, 36.029405], [-95.9372348, 36.0294217], [-95.9373306, 36.0294206], [-95.9373294, 36.0293524], [-95.9373036, 36.0293527], [-95.9373031, 36.0293231], [-95.9373289, 36.0293228], [-95.9373279, 36.0292679], [-95.9373095, 36.0292682], [-95.9373086, 36.0292241], [-95.9372143, 36.0292253], [-95.9372135, 36.0291784], [-95.9374046, 36.0291761], [-95.9374042, 36.0291578], [-95.9374027, 36.0290765], [-95.9369769, 36.0290817]]]}, "properties": {"osm_id": 837232743, "building": "chapel", "name": "", "height": null, "height_m": null, "levels": null, "tract_id": "40143007634", "tract_name": "76.34", "tags": {"building": "chapel"}}}, {"type": "Feature", "geometry": {"type": "Polygon", "coordinates": [[[-95.9346099, 36.0295453], [-95.9346189, 36.0294853], [-95.9345493, 36.0294785], [-95.9345403, 36.0295385], [-95.9346099, 36.0295453]]]}, "properties": {"osm_id": 837236639, "building": "yes", "name": "", "height": null, "height_m": null, "levels": null, "tract_id": "40143007634", "tract_name": "76.34", "tags": {"amenity": "place_of_worship", "building": "yes"}}}, {"type": "Feature", "geometry": {"type": "Polygon", "coordinates": [[[-95.9307971, 36.0300426], [-95.9307692, 36.0299319], [-95.9306396, 36.0299532], [-95.9306675, 36.0300639], [-95.9307971, 36.0300426]]]}, "properties": {"osm_id": 837238265, "building": "yes", "name": "", "height": null, "height_m": null, "levels": null, "tract_id": "40143007634", "tract_name": "76.34", "tags": {"building": "yes"}}}, {"type": "Feature", "geometry": {"type": "Polygon", "coordinates": [[[-95.9416497, 36.0308998], [-95.9415945, 36.0308829], [-95.9416043, 36.0308619], [-95.9416595, 36.0308788], [-95.9416497, 36.0308998]]]}, "properties": {"osm_id": 844072459, "building": "yes", "name": "", "height": null, "height_m": null, "levels": null, "tract_id": "40143007634", "tract_name": "76.34", "tags": {"building": "yes"}}}, {"type": "Feature", "geometry": {"type": "Polygon", "coordinates": [[[-95.9415449, 36.0308675], [-95.9414913, 36.0308504], [-95.9415018, 36.0308288], [-95.9415554, 36.0308459], [-95.9415449, 36.0308675]]]}, "properties": {"osm_id": 844072460, "building": "yes", "name": "", "height": null, "height_m": null, "levels": null, "tract_id": "40143007634", "tract_name": "76.34", "tags": {"building": "yes"}}}, {"type": "Feature", "geometry": {"type": "Polygon", "coordinates": [[[-95.941121, 36.0313133], [-95.9411698, 36.0312914], [-95.9411565, 36.031272], [-95.9411077, 36.0312938], [-95.941121, 36.0313133]]]}, "properties": {"osm_id": 844072461, "building": "yes", "name": "", "height": null, "height_m": null, "levels": null, "tract_id": "40143007634", "tract_name": "76.34", "tags": {"building": "yes"}}}, {"type": "Feature", "geometry": {"type": "Polygon", "coordinates": [[[-95.9504505, 36.0271843], [-95.950686, 36.0270743], [-95.9506239, 36.0269873], [-95.9503884, 36.0270973], [-95.9504505, 36.0271843]]]}, "properties": {"osm_id": 923911030, "building": "yes", "name": "AT&T", "height": null, "height_m": null, "levels": null, "tract_id": "40143007634", "tract_name": "76.34", "tags": {"addr:housenumber": "9545", "addr:street": "Riverside Parkway", "brand": "AT&T", "brand:wikidata": "Q298594", "building": "yes", "name": "AT&T", "opening_hours": "Mo-Sa 09:00-19:00; Su 12:00-18:00", "shop": "mobile_phone", "wheelchair": "yes"}}}, {"type": "Feature", "geometry": {"type": "Polygon", "coordinates": [[[-95.9511352, 36.0306214], [-95.9511338, 36.0311019], [-95.9510359, 36.0311017], [-95.9510346, 36.0315707], [-95.9506899, 36.03157], [-95.9506926, 36.0306206], [-95.9511352, 36.0306214]]]}, "properties": {"osm_id": 1169747597, "building": "yes", "name": "Extra Space Storage", "height": null, "height_m": null, "levels": null, "tract_id": "40143007634", "tract_name": "76.34", "tags": {"brand": "Extra Space Storage", "brand:wikidata": "Q5422162", "building": "yes", "name": "Extra Space Storage", "shop": "storage_rental"}}}, {"type": "Feature", "geometry": {"type": "Polygon", "coordinates": [[[-95.9486737, 36.0178809], [-95.9486732, 36.0177808], [-95.9486525, 36.0177809], [-95.948653, 36.017881], [-95.9486737, 36.0178809]]]}, "properties": {"osm_id": 1211383988, "building": "yes", "name": "Cirque", "height": null, "height_m": null, "levels": null, "tract_id": "40143007634", "tract_name": "76.34", "tags": {"addr:city": "Tulsa", "addr:housenumber": "2809", "addr:postcode": "74137", "addr:state": "OK", "addr:street": "East 101st Street", "amenity": "cafe", "building": "yes", "cuisine": "coffee_shop", "drive_through": "yes", "internet_access": "no", "name": "Cirque", "opening_hours": "Mo-Su 06:00-18:00", "outdoor_seating": "no", "takeaway": "only", "website": "https://www.cirquecoffee.com/"}}}, {"type": "Feature", "geometry": {"type": "Polygon", "coordinates": [[[-95.9315286, 36.0307763], [-95.9315287, 36.0310952], [-95.9316789, 36.0310951], [-95.9316789, 36.0311233], [-95.9317325, 36.0311233], [-95.9317325, 36.031093], [-95.9317889, 36.0310929], [-95.9317888, 36.0309953], [-95.9316359, 36.0309954], [-95.9316359, 36.0308631], [-95.9318719, 36.030863], [-95.9318719, 36.0307762], [-95.9315286, 36.0307763]]]}, "properties": {"osm_id": 1305780620, "building": "church", "name": "All Saints Anglican Church", "height": null, "height_m": null, "levels": null, "tract_id": "40143007634", "tract_name": "76.34", "tags": {"amenity": "place_of_worship", "building": "church", "ele": "206", "gnis:feature_id": "1810172", "name": "All Saints Anglican Church", "religion": "christian", "source": "microsoft/BuildingFootprints"}}}, {"type": "Feature", "geometry": {"type": "Polygon", "coordinates": [[[-95.9506035, 36.0281526], [-95.9507751, 36.0281516], [-95.9507744, 36.0280692], [-95.9508107, 36.028069], [-95.9508104, 36.0280364], [-95.9507848, 36.0280366], [-95.9507834, 36.0278749], [-95.9508102, 36.0278747], [-95.9508098, 36.0278304], [-95.9508058, 36.0278304], [-95.9508052, 36.027761], [-95.9506026, 36.0277622], [-95.9506033, 36.0278381], [-95.9506342, 36.0278379], [-95.9506346, 36.0278791], [-95.950601, 36.0278793], [-95.9506024, 36.0280333], [-95.9506333, 36.0280331], [-95.9506337, 36.0280722], [-95.9506028, 36.0280724], [-95.9506035, 36.0281526]]]}, "properties": {"osm_id": 1341431177, "building": "yes", "name": "", "height": null, "height_m": null, "levels": null, "tract_id": "40143007634", "tract_name": "76.34", "tags": {"building": "yes", "source": "microsoft/BuildingFootprints"}}}, {"type": "Feature", "geometry": {"type": "Polygon", "coordinates": [[[-95.9511416, 36.0280296], [-95.9510563, 36.0277425], [-95.9509675, 36.0277598], [-95.9510529, 36.0280469], [-95.9511416, 36.0280296]]]}, "properties": {"osm_id": 1341431178, "building": "yes", "name": "", "height": null, "height_m": null, "levels": null, "tract_id": "40143007634", "tract_name": "76.34", "tags": {"building": "yes", "source": "microsoft/BuildingFootprints"}}}, {"type": "Feature", "geometry": {"type": "Polygon", "coordinates": [[[-95.9506563, 36.0286241], [-95.9506666, 36.0290187], [-95.9506881, 36.0290183], [-95.950692, 36.0291689], [-95.9507296, 36.0291683], [-95.9507299, 36.0291825], [-95.9509027, 36.0291795], [-95.9509014, 36.0291306], [-95.9508907, 36.0291308], [-95.9508855, 36.0289347], [-95.9508629, 36.0289351], [-95.950862, 36.0289004], [-95.9508942, 36.0288998], [-95.9508877, 36.0286527], [-95.9507414, 36.0286552], [-95.95074, 36.0286019], [-95.9509077, 36.0285991], [-95.9509037, 36.0284463], [-95.9506142, 36.0284513], [-95.950614, 36.0284426], [-95.9504022, 36.0284462], [-95.950406, 36.0285936], [-95.9504972, 36.0285921], [-95.9504981, 36.0286268], [-95.9506563, 36.0286241]]]}, "properties": {"osm_id": 1341431179, "building": "yes", "name": "", "height": null, "height_m": null, "levels": null, "tract_id": "40143007634", "tract_name": "76.34", "tags": {"building": "yes", "source": "microsoft/BuildingFootprints"}}}, {"type": "Feature", "geometry": {"type": "Polygon", "coordinates": [[[-95.9513275, 36.0290519], [-95.9513054, 36.0292805], [-95.9513145, 36.0292811], [-95.9513095, 36.0293338], [-95.9512828, 36.0293321], [-95.9512758, 36.0294044], [-95.9512998, 36.0294059], [-95.9512853, 36.0295557], [-95.9514533, 36.0295663], [-95.9514641, 36.0294541], [-95.9514988, 36.0294563], [-95.9515018, 36.0294252], [-95.9514767, 36.0294236], [-95.9514846, 36.0293417], [-95.9514644, 36.0293404], [-95.9514692, 36.0292908], [-95.9515038, 36.029293], [-95.9515149, 36.0291787], [-95.9515095, 36.0291784], [-95.9515172, 36.0290986], [-95.9514879, 36.0290968], [-95.9514912, 36.0290623], [-95.9513275, 36.0290519]]]}, "properties": {"osm_id": 1341431180, "building": "yes", "name": "", "height": null, "height_m": null, "levels": null, "tract_id": "40143007634", "tract_name": "76.34", "tags": {"building": "yes", "source": "microsoft/BuildingFootprints"}}}, {"type": "Feature", "geometry": {"type": "Polygon", "coordinates": [[[-95.9514294, 36.0290095], [-95.9515175, 36.0289913], [-95.9514258, 36.028701], [-95.9513377, 36.0287192], [-95.9514294, 36.0290095]]]}, "properties": {"osm_id": 1341431181, "building": "yes", "name": "", "height": null, "height_m": null, "levels": null, "tract_id": "40143007634", "tract_name": "76.34", "tags": {"building": "yes", "source": "microsoft/BuildingFootprints"}}}, {"type": "Feature", "geometry": {"type": "Polygon", "coordinates": [[[-95.9512221, 36.0283774], [-95.9513066, 36.0286615], [-95.9513914, 36.0286451], [-95.9513069, 36.0283609], [-95.9512221, 36.0283774]]]}, "properties": {"osm_id": 1341431182, "building": "yes", "name": "", "height": null, "height_m": null, "levels": null, "tract_id": "40143007634", "tract_name": "76.34", "tags": {"building": "yes", "source": "microsoft/BuildingFootprints"}}}, {"type": "Feature", "geometry": {"type": "Polygon", "coordinates": [[[-95.9509272, 36.0293004], [-95.9507614, 36.0292935], [-95.9507603, 36.0293109], [-95.9507201, 36.0293092], [-95.9507141, 36.0294044], [-95.950674, 36.0294027], [-95.9506711, 36.0294481], [-95.9507005, 36.0294494], [-95.9506873, 36.0296571], [-95.9506124, 36.0296539], [-95.9506112, 36.0296734], [-95.9505256, 36.0296699], [-95.9505227, 36.0297153], [-95.9504291, 36.0297114], [-95.950421, 36.0298391], [-95.9509239, 36.0298599], [-95.9509331, 36.029715], [-95.950901, 36.0297136], [-95.9509027, 36.0296877], [-95.9508732, 36.0296865], [-95.9508754, 36.0296518], [-95.9509182, 36.0296536], [-95.950923, 36.0295779], [-95.9508936, 36.0295767], [-95.9508958, 36.0295421], [-95.9509119, 36.0295427], [-95.9509272, 36.0293004]]]}, "properties": {"osm_id": 1341431183, "building": "yes", "name": "", "height": null, "height_m": null, "levels": null, "tract_id": "40143007634", "tract_name": "76.34", "tags": {"building": "yes", "source": "microsoft/BuildingFootprints"}}}, {"type": "Feature", "geometry": {"type": "Polygon", "coordinates": [[[-95.9497609, 36.029598], [-95.9495893, 36.0295987], [-95.9495886, 36.0294989], [-95.9493687, 36.0294999], [-95.9493706, 36.0298014], [-95.9495906, 36.0298004], [-95.9495898, 36.0296887], [-95.9497615, 36.029688], [-95.9497609, 36.029598]]]}, "properties": {"osm_id": 1341431184, "building": "yes", "name": "", "height": null, "height_m": null, "levels": null, "tract_id": "40143007634", "tract_name": "76.34", "tags": {"building": "yes", "source": "microsoft/BuildingFootprints"}}}, {"type": "Feature", "geometry": {"type": "Polygon", "coordinates": [[[-95.9517012, 36.0296412], [-95.9515167, 36.0295583], [-95.9514865, 36.0296023], [-95.9515172, 36.0296161], [-95.9514757, 36.0296765], [-95.9514593, 36.0296692], [-95.9513443, 36.0298365], [-95.9513246, 36.0298277], [-95.9512745, 36.0299006], [-95.9514323, 36.0299715], [-95.9514813, 36.0299003], [-95.951503, 36.02991], [-95.9516385, 36.0297128], [-95.9516488, 36.0297174], [-95.9517012, 36.0296412]]]}, "properties": {"osm_id": 1341431185, "building": "yes", "name": "", "height": null, "height_m": null, "levels": null, "tract_id": "40143007634", "tract_name": "76.34", "tags": {"building": "yes", "source": "microsoft/BuildingFootprints"}}}, {"type": "Feature", "geometry": {"type": "Polygon", "coordinates": [[[-95.951634, 36.0298829], [-95.9516522, 36.030053], [-95.9516591, 36.0300525], [-95.9516714, 36.0301666], [-95.9517523, 36.0301609], [-95.95175, 36.0301394], [-95.9518022, 36.0301357], [-95.9517897, 36.0300195], [-95.9518296, 36.0300167], [-95.9518217, 36.0299426], [-95.9518164, 36.0299429], [-95.9518086, 36.0298706], [-95.951634, 36.0298829]]]}, "properties": {"osm_id": 1341431186, "building": "yes", "name": "", "height": null, "height_m": null, "levels": null, "tract_id": "40143007634", "tract_name": "76.34", "tags": {"building": "yes", "source": "microsoft/BuildingFootprints"}}}, {"type": "Feature", "geometry": {"type": "Polygon", "coordinates": [[[-95.9512699, 36.030277], [-95.9512645, 36.0304222], [-95.9513743, 36.0304248], [-95.9513734, 36.0304508], [-95.9514109, 36.0304517], [-95.951412, 36.0304226], [-95.9516264, 36.0304278], [-95.9516253, 36.0304569], [-95.9516601, 36.0304578], [-95.9516612, 36.0304274], [-95.9517728, 36.0304301], [-95.951778, 36.0302893], [-95.9512699, 36.030277]]]}, "properties": {"osm_id": 1341431187, "building": "yes", "name": "", "height": null, "height_m": null, "levels": null, "tract_id": "40143007634", "tract_name": "76.34", "tags": {"building": "yes", "source": "microsoft/BuildingFootprints"}}}, {"type": "Feature", "geometry": {"type": "Polygon", "coordinates": [[[-95.9518427, 36.0302423], [-95.9519359, 36.0304113], [-95.9519538, 36.0304048], [-95.9520676, 36.030611], [-95.9522331, 36.0305513], [-95.9521403, 36.0303831], [-95.9521202, 36.0303903], [-95.9520643, 36.030289], [-95.9520978, 36.0302769], [-95.9520838, 36.0302516], [-95.9520525, 36.0302629], [-95.9520082, 36.0301825], [-95.9518427, 36.0302423]]]}, "properties": {"osm_id": 1341431188, "building": "yes", "name": "", "height": null, "height_m": null, "levels": null, "tract_id": "40143007634", "tract_name": "76.34", "tags": {"building": "yes", "source": "microsoft/BuildingFootprints"}}}, {"type": "Feature", "geometry": {"type": "Polygon", "coordinates": [[[-95.9518805, 36.0307159], [-95.9517065, 36.0307816], [-95.9517162, 36.0307983], [-95.9517769, 36.0308526], [-95.9517955, 36.0308456], [-95.951811, 36.0308724], [-95.9517719, 36.0309009], [-95.9518405, 36.0309624], [-95.9518845, 36.0310385], [-95.9519746, 36.0310044], [-95.951905, 36.0310553], [-95.9519288, 36.0310967], [-95.9519552, 36.0311202], [-95.952101, 36.0310651], [-95.9520547, 36.0309849], [-95.9520791, 36.0309671], [-95.9520482, 36.0309394], [-95.9520463, 36.0309362], [-95.9520297, 36.0309213], [-95.9519477, 36.0307794], [-95.9519266, 36.0307874], [-95.9519166, 36.0307784], [-95.9518805, 36.0307159]]]}, "properties": {"osm_id": 1341431189, "building": "yes", "name": "", "height": null, "height_m": null, "levels": null, "tract_id": "40143007634", "tract_name": "76.34", "tags": {"building": "yes", "source": "microsoft/BuildingFootprints"}}}, {"type": "Feature", "geometry": {"type": "Polygon", "coordinates": [[[-95.9528591, 36.031311], [-95.9523496, 36.0313052], [-95.9523469, 36.0314561], [-95.9524596, 36.0314574], [-95.9524591, 36.0314843], [-95.9524993, 36.0314847], [-95.9525, 36.0314457], [-95.9528567, 36.0314498], [-95.9528591, 36.031311]]]}, "properties": {"osm_id": 1341431190, "building": "yes", "name": "", "height": null, "height_m": null, "levels": null, "tract_id": "40143007634", "tract_name": "76.34", "tags": {"building": "yes", "source": "microsoft/BuildingFootprints"}}}, {"type": "Feature", "geometry": {"type": "Polygon", "coordinates": [[[-95.9514704, 36.0313956], [-95.9515432, 36.0315178], [-95.951663, 36.0314712], [-95.9516777, 36.0314959], [-95.9517147, 36.0314814], [-95.9517038, 36.0314631], [-95.9517952, 36.0314275], [-95.9517868, 36.0314134], [-95.9518478, 36.0313896], [-95.9518545, 36.031401], [-95.9519482, 36.0313645], [-95.9519565, 36.0313786], [-95.9520371, 36.0313472], [-95.9520235, 36.0313243], [-95.9520975, 36.0312955], [-95.9520226, 36.0311697], [-95.9519007, 36.0312172], [-95.9519032, 36.0312215], [-95.9517138, 36.0312953], [-95.9517023, 36.0312759], [-95.9516152, 36.0313098], [-95.9516294, 36.0313337], [-95.9514704, 36.0313956]]]}, "properties": {"osm_id": 1341431191, "building": "yes", "name": "", "height": null, "height_m": null, "levels": null, "tract_id": "40143007634", "tract_name": "76.34", "tags": {"building": "yes", "source": "microsoft/BuildingFootprints"}}}, {"type": "Feature", "geometry": {"type": "Polygon", "coordinates": [[[-95.9514207, 36.0312445], [-95.95159, 36.0312535], [-95.9516011, 36.0311165], [-95.9516188, 36.0311174], [-95.9516352, 36.0309153], [-95.9516539, 36.0309163], [-95.9516604, 36.0308354], [-95.951583, 36.0308313], [-95.9515862, 36.0307912], [-95.9515097, 36.0307872], [-95.9515075, 36.0308153], [-95.9514728, 36.0308134], [-95.9514644, 36.0309162], [-95.9514618, 36.030916], [-95.951447, 36.0310984], [-95.9513989, 36.0310958], [-95.9513965, 36.0311251], [-95.9514303, 36.0311269], [-95.9514207, 36.0312445]]]}, "properties": {"osm_id": 1341431192, "building": "yes", "name": "", "height": null, "height_m": null, "levels": null, "tract_id": "40143007634", "tract_name": "76.34", "tags": {"building": "yes", "source": "microsoft/BuildingFootprints"}}}, {"type": "Feature", "geometry": {"type": "Polygon", "coordinates": [[[-95.9522167, 36.0307965], [-95.9524918, 36.0312209], [-95.9525297, 36.0312048], [-95.9525396, 36.0312201], [-95.9526574, 36.0311702], [-95.952642, 36.0311463], [-95.9526812, 36.0311297], [-95.9526404, 36.0310668], [-95.9526277, 36.0310721], [-95.9525384, 36.0309343], [-95.9525005, 36.0309504], [-95.9524763, 36.0309129], [-95.9525183, 36.0308951], [-95.9524797, 36.0308355], [-95.9524629, 36.0308427], [-95.952383, 36.0307195], [-95.9523578, 36.0307302], [-95.9523395, 36.0307019], [-95.952209, 36.0307573], [-95.9522306, 36.0307906], [-95.9522167, 36.0307965]]]}, "properties": {"osm_id": 1341431193, "building": "yes", "name": "", "height": null, "height_m": null, "levels": null, "tract_id": "40143007634", "tract_name": "76.34", "tags": {"building": "yes", "source": "microsoft/BuildingFootprints"}}}, {"type": "Feature", "geometry": {"type": "Polygon", "coordinates": [[[-95.9479636, 36.0222655], [-95.9483811, 36.0222651], [-95.9483809, 36.022174], [-95.9483551, 36.022174], [-95.948355, 36.0220731], [-95.9482011, 36.0220732], [-95.9482011, 36.0221036], [-95.9481153, 36.0221037], [-95.9481153, 36.022069], [-95.9479634, 36.0220691], [-95.9479636, 36.0222655]]]}, "properties": {"osm_id": 1341431194, "building": "yes", "name": "", "height": null, "height_m": null, "levels": null, "tract_id": "40143007634", "tract_name": "76.34", "tags": {"building": "yes", "source": "microsoft/BuildingFootprints"}}}, {"type": "Feature", "geometry": {"type": "Polygon", "coordinates": [[[-95.9473496, 36.0223224], [-95.9477627, 36.0223216], [-95.9477621, 36.0221393], [-95.9476458, 36.0221396], [-95.9476459, 36.0221613], [-95.9475252, 36.0221615], [-95.9475251, 36.0221278], [-95.9474017, 36.0221281], [-95.947402, 36.0222235], [-95.9473493, 36.0222236], [-95.9473496, 36.0223224]]]}, "properties": {"osm_id": 1341431195, "building": "yes", "name": "", "height": null, "height_m": null, "levels": null, "tract_id": "40143007634", "tract_name": "76.34", "tags": {"building": "yes", "source": "microsoft/BuildingFootprints"}}}, {"type": "Feature", "geometry": {"type": "Polygon", "coordinates": [[[-95.947187, 36.0222546], [-95.9471825, 36.0220604], [-95.9470323, 36.0220627], [-95.9470331, 36.0220964], [-95.9469393, 36.0220979], [-95.9469384, 36.022061], [-95.9467829, 36.0220634], [-95.9467875, 36.0222607], [-95.947187, 36.0222546]]]}, "properties": {"osm_id": 1341431196, "building": "yes", "name": "", "height": null, "height_m": null, "levels": null, "tract_id": "40143007634", "tract_name": "76.34", "tags": {"building": "yes", "source": "microsoft/BuildingFootprints"}}}, {"type": "Feature", "geometry": {"type": "Polygon", "coordinates": [[[-95.9462245, 36.022148], [-95.9462242, 36.0222434], [-95.9466373, 36.0222443], [-95.9466379, 36.022062], [-95.9465172, 36.0220618], [-95.9465171, 36.022077], [-95.9464018, 36.0220767], [-95.9464019, 36.0220507], [-95.9462758, 36.0220505], [-95.9462755, 36.0221481], [-95.9462245, 36.022148]]]}, "properties": {"osm_id": 1341431197, "building": "yes", "name": "", "height": null, "height_m": null, "levels": null, "tract_id": "40143007634", "tract_name": "76.34", "tags": {"building": "yes", "source": "microsoft/BuildingFootprints"}}}, {"type": "Feature", "geometry": {"type": "Polygon", "coordinates": [[[-95.9461242, 36.0222519], [-95.9460802, 36.0220643], [-95.9459576, 36.0220831], [-95.9459625, 36.022104], [-95.9458563, 36.0221203], [-95.9458517, 36.0221006], [-95.9457232, 36.0221203], [-95.9457479, 36.0222259], [-95.9457013, 36.022233], [-95.9457203, 36.0223138], [-95.9461242, 36.0222519]]]}, "properties": {"osm_id": 1341431198, "building": "yes", "name": "", "height": null, "height_m": null, "levels": null, "tract_id": "40143007634", "tract_name": "76.34", "tags": {"building": "yes", "source": "microsoft/BuildingFootprints"}}}, {"type": "Feature", "geometry": {"type": "Polygon", "coordinates": [[[-95.9445814, 36.0225677], [-95.9447156, 36.022729], [-95.9450481, 36.0225482], [-95.9449077, 36.0223794], [-95.9447784, 36.0224497], [-95.9448008, 36.0224766], [-95.9447239, 36.0225184], [-95.9447077, 36.022499], [-95.9445814, 36.0225677]]]}, "properties": {"osm_id": 1341431199, "building": "apartments", "name": "", "height": null, "height_m": null, "levels": null, "tract_id": "40143007634", "tract_name": "76.34", "tags": {"building": "apartments", "source": "microsoft/BuildingFootprints"}}}, {"type": "Feature", "geometry": {"type": "Polygon", "coordinates": [[[-95.9441718, 36.0228868], [-95.9442407, 36.0229352], [-95.9442102, 36.0229636], [-95.9443296, 36.0230474], [-95.9446017, 36.0227936], [-95.9444211, 36.0226669], [-95.9443282, 36.0227536], [-95.9443465, 36.0227665], [-95.9442841, 36.0228246], [-95.9442581, 36.0228064], [-95.9441718, 36.0228868]]]}, "properties": {"osm_id": 1341431200, "building": "apartments", "name": "", "height": null, "height_m": null, "levels": null, "tract_id": "40143007634", "tract_name": "76.34", "tags": {"building": "apartments", "source": "microsoft/BuildingFootprints"}}}, {"type": "Feature", "geometry": {"type": "Polygon", "coordinates": [[[-95.9456033, 36.0224062], [-95.945546, 36.0222189], [-95.9454272, 36.0222427], [-95.9454345, 36.0222664], [-95.9453814, 36.022277], [-95.9453854, 36.0222901], [-95.9453314, 36.0223009], [-95.9453208, 36.0222662], [-95.9451928, 36.0222918], [-95.9452247, 36.022396], [-95.9451817, 36.0224046], [-95.9452065, 36.0224856], [-95.9456033, 36.0224062]]]}, "properties": {"osm_id": 1341431201, "building": "yes", "name": "", "height": null, "height_m": null, "levels": null, "tract_id": "40143007634", "tract_name": "76.34", "tags": {"building": "yes", "source": "microsoft/BuildingFootprints"}}}, {"type": "Feature", "geometry": {"type": "Polygon", "coordinates": [[[-95.9438862, 36.0233126], [-95.9440028, 36.0233718], [-95.9442238, 36.0230871], [-95.9440399, 36.0229937], [-95.9439807, 36.0230699], [-95.9439903, 36.0230748], [-95.9439348, 36.0231463], [-95.9438982, 36.0231278], [-95.9438306, 36.0232149], [-95.9439248, 36.0232628], [-95.9438862, 36.0233126]]]}, "properties": {"osm_id": 1341431202, "building": "apartments", "name": "", "height": null, "height_m": null, "levels": null, "tract_id": "40143007634", "tract_name": "76.34", "tags": {"building": "apartments", "source": "microsoft/BuildingFootprints"}}}, {"type": "Feature", "geometry": {"type": "Polygon", "coordinates": [[[-95.9443535, 36.0236923], [-95.9443531, 36.0236063], [-95.944389, 36.0236062], [-95.9443885, 36.0234969], [-95.9439663, 36.0234983], [-95.9439673, 36.0236892], [-95.9441319, 36.0236886], [-95.9441319, 36.0236713], [-95.9442311, 36.023671], [-95.9442312, 36.0236927], [-95.9443535, 36.0236923]]]}, "properties": {"osm_id": 1341431203, "building": "yes", "name": "", "height": null, "height_m": null, "levels": null, "tract_id": "40143007634", "tract_name": "76.34", "tags": {"building": "yes", "source": "microsoft/BuildingFootprints"}}}, {"type": "Feature", "geometry": {"type": "Polygon", "coordinates": [[[-95.9445623, 36.0235357], [-95.9445437, 36.0237145], [-95.9446593, 36.0237224], [-95.9446606, 36.0237094], [-95.9447794, 36.0237175], [-95.9447765, 36.0237455], [-95.9448921, 36.0237534], [-95.9448978, 36.0236982], [-95.9449191, 36.0236996], [-95.9449229, 36.023663], [-95.9449655, 36.0236659], [-95.9449761, 36.0235638], [-95.9445623, 36.0235357]]]}, "properties": {"osm_id": 1341431204, "building": "yes", "name": "", "height": null, "height_m": null, "levels": null, "tract_id": "40143007634", "tract_name": "76.34", "tags": {"building": "yes", "source": "microsoft/BuildingFootprints"}}}, {"type": "Feature", "geometry": {"type": "Polygon", "coordinates": [[[-95.9451298, 36.0237616], [-95.9452885, 36.0237699], [-95.9452897, 36.0237548], [-95.9453858, 36.0237598], [-95.9453838, 36.0237857], [-95.9455093, 36.0237923], [-95.9455155, 36.0237145], [-95.9455582, 36.0237167], [-95.9455681, 36.0235936], [-95.945145, 36.0235715], [-95.9451298, 36.0237616]]]}, "properties": {"osm_id": 1341431205, "building": "yes", "name": "", "height": null, "height_m": null, "levels": null, "tract_id": "40143007634", "tract_name": "76.34", "tags": {"building": "yes", "source": "microsoft/BuildingFootprints"}}}, {"type": "Feature", "geometry": {"type": "Polygon", "coordinates": [[[-95.9457124, 36.0236069], [-95.9456978, 36.0238036], [-95.9458513, 36.023811], [-95.9458527, 36.0237916], [-95.9459559, 36.0237966], [-95.945954, 36.0238216], [-95.9460753, 36.0238275], [-95.946081, 36.0237506], [-95.9461227, 36.0237526], [-95.946132, 36.0236272], [-95.9457124, 36.0236069]]]}, "properties": {"osm_id": 1341431206, "building": "yes", "name": "", "height": null, "height_m": null, "levels": null, "tract_id": "40143007634", "tract_name": "76.34", "tags": {"building": "yes", "source": "microsoft/BuildingFootprints"}}}, {"type": "Feature", "geometry": {"type": "Polygon", "coordinates": [[[-95.9463796, 36.0236866], [-95.9464162, 36.0238626], [-95.9466483, 36.023831], [-95.9466514, 36.0238458], [-95.9467766, 36.0238287], [-95.9467564, 36.0237317], [-95.946806, 36.023725], [-95.9467865, 36.0236312], [-95.9463796, 36.0236866]]]}, "properties": {"osm_id": 1341431207, "building": "apartments", "name": "", "height": null, "height_m": 6.0, "levels": 2, "tract_id": "40143007634", "tract_name": "76.34", "tags": {"building": "apartments", "building:levels": "2", "roof:levels": "0", "roof:shape": "gabled", "source": "microsoft/BuildingFootprints"}}}, {"type": "Feature", "geometry": {"type": "Polygon", "coordinates": [[[-95.9472195, 36.0234187], [-95.9468775, 36.0235995], [-95.9470058, 36.0237582], [-95.9471042, 36.0237062], [-95.9470907, 36.0236895], [-95.9471809, 36.0236418], [-95.9471957, 36.02366], [-95.9473077, 36.0236008], [-95.947242, 36.0235195], [-95.9472833, 36.0234977], [-95.9472195, 36.0234187]]]}, "properties": {"osm_id": 1341431208, "building": "yes", "name": "", "height": null, "height_m": null, "levels": null, "tract_id": "40143007634", "tract_name": "76.34", "tags": {"building": "yes", "source": "microsoft/BuildingFootprints"}}}, {"type": "Feature", "geometry": {"type": "Polygon", "coordinates": [[[-95.9474336, 36.0234516], [-95.9475951, 36.0233074], [-95.9476128, 36.0233203], [-95.9477215, 36.0232232], [-95.9475357, 36.0230872], [-95.9472655, 36.0233286], [-95.9474336, 36.0234516]]]}, "properties": {"osm_id": 1341431209, "building": "yes", "name": "", "height": null, "height_m": null, "levels": null, "tract_id": "40143007634", "tract_name": "76.34", "tags": {"building": "yes", "source": "microsoft/BuildingFootprints"}}}, {"type": "Feature", "geometry": {"type": "Polygon", "coordinates": [[[-95.9478465, 36.0225658], [-95.9478089, 36.0228993], [-95.9480483, 36.022917], [-95.9480632, 36.0227847], [-95.9480383, 36.0227829], [-95.9480458, 36.0227162], [-95.9480777, 36.0227186], [-95.9480873, 36.0226335], [-95.9480315, 36.0226294], [-95.9480371, 36.0225799], [-95.9478465, 36.0225658]]]}, "properties": {"osm_id": 1341431210, "building": "yes", "name": "", "height": null, "height_m": null, "levels": null, "tract_id": "40143007634", "tract_name": "76.34", "tags": {"building": "yes", "source": "microsoft/BuildingFootprints"}}}, {"type": "Feature", "geometry": {"type": "Polygon", "coordinates": [[[-95.9475851, 36.0228713], [-95.9476177, 36.0225361], [-95.9473947, 36.022522], [-95.9473666, 36.0228119], [-95.9474679, 36.0228183], [-95.9474635, 36.0228636], [-95.9475851, 36.0228713]]]}, "properties": {"osm_id": 1341431211, "building": "yes", "name": "", "height": null, "height_m": null, "levels": null, "tract_id": "40143007634", "tract_name": "76.34", "tags": {"building": "yes", "source": "microsoft/BuildingFootprints"}}}, {"type": "Feature", "geometry": {"type": "Polygon", "coordinates": [[[-95.9468669, 36.0224667], [-95.9468703, 36.0226563], [-95.9470349, 36.0226544], [-95.9470346, 36.0226392], [-95.9471338, 36.022638], [-95.9471343, 36.0226619], [-95.947254, 36.0226605], [-95.9472525, 36.0225802], [-95.9472927, 36.0225797], [-95.9472906, 36.0224616], [-95.9468669, 36.0224667]]]}, "properties": {"osm_id": 1341431212, "building": "yes", "name": "", "height": null, "height_m": null, "levels": null, "tract_id": "40143007634", "tract_name": "76.34", "tags": {"building": "yes", "source": "microsoft/BuildingFootprints"}}}, {"type": "Feature", "geometry": {"type": "Polygon", "coordinates": [[[-95.9463463, 36.0224743], [-95.9463469, 36.0226652], [-95.9465088, 36.0226648], [-95.9465088, 36.0226475], [-95.9466097, 36.0226473], [-95.9466098, 36.0226711], [-95.9467332, 36.0226709], [-95.9467329, 36.0225884], [-95.9467678, 36.0225884], [-95.9467674, 36.0224734], [-95.9463463, 36.0224743]]]}, "properties": {"osm_id": 1341431213, "building": "yes", "name": "", "height": null, "height_m": null, "levels": null, "tract_id": "40143007634", "tract_name": "76.34", "tags": {"building": "yes", "source": "microsoft/BuildingFootprints"}}}, {"type": "Feature", "geometry": {"type": "Polygon", "coordinates": [[[-95.9464317, 36.0228272], [-95.9465187, 36.0231594], [-95.9467625, 36.0231177], [-95.9467297, 36.0229922], [-95.9466973, 36.0229977], [-95.9466771, 36.0229209], [-95.9467028, 36.0229165], [-95.9466767, 36.0228169], [-95.9465689, 36.0228353], [-95.946561, 36.0228051], [-95.9464317, 36.0228272]]]}, "properties": {"osm_id": 1341431214, "building": "yes", "name": "", "height": null, "height_m": null, "levels": null, "tract_id": "40143007634", "tract_name": "76.34", "tags": {"building": "yes", "source": "microsoft/BuildingFootprints"}}}, {"type": "Feature", "geometry": {"type": "Polygon", "coordinates": [[[-95.9469041, 36.0233602], [-95.9468399, 36.0231752], [-95.9467206, 36.0232023], [-95.9467282, 36.0232244], [-95.9466238, 36.0232481], [-95.9466175, 36.02323], [-95.9464932, 36.0232583], [-95.9465261, 36.0233528], [-95.9464813, 36.0233629], [-95.9465113, 36.0234494], [-95.9469041, 36.0233602]]]}, "properties": {"osm_id": 1341431215, "building": "yes", "name": "", "height": null, "height_m": null, "levels": null, "tract_id": "40143007634", "tract_name": "76.34", "tags": {"building": "yes", "source": "microsoft/BuildingFootprints"}}}, {"type": "Feature", "geometry": {"type": "Polygon", "coordinates": [[[-95.9473382, 36.0229612], [-95.9471699, 36.0228323], [-95.9470595, 36.0229266], [-95.9470722, 36.0229363], [-95.9470206, 36.0229804], [-95.9470008, 36.0229653], [-95.9468843, 36.0230648], [-95.9470596, 36.0231991], [-95.9473382, 36.0229612]]]}, "properties": {"osm_id": 1341431216, "building": "yes", "name": "", "height": null, "height_m": null, "levels": null, "tract_id": "40143007634", "tract_name": "76.34", "tags": {"building": "yes", "source": "microsoft/BuildingFootprints"}}}, {"type": "Feature", "geometry": {"type": "Polygon", "coordinates": [[[-95.9460059, 36.0232163], [-95.9460906, 36.0232018], [-95.9460985, 36.0232321], [-95.9462475, 36.0232067], [-95.9461609, 36.0228744], [-95.9459246, 36.0229147], [-95.9459582, 36.0230434], [-95.9459967, 36.0230369], [-95.946017, 36.0231146], [-95.945981, 36.0231207], [-95.9460059, 36.0232163]]]}, "properties": {"osm_id": 1341431217, "building": "yes", "name": "", "height": null, "height_m": null, "levels": null, "tract_id": "40143007634", "tract_name": "76.34", "tags": {"building": "yes", "source": "microsoft/BuildingFootprints"}}}, {"type": "Feature", "geometry": {"type": "Polygon", "coordinates": [[[-95.946118, 36.0224474], [-95.9458862, 36.0224626], [-95.9458957, 36.0225574], [-95.9459187, 36.0225559], [-95.9459277, 36.0226452], [-95.9459011, 36.0226469], [-95.9459118, 36.0227538], [-95.9460327, 36.0227458], [-95.9460365, 36.0227834], [-95.946151, 36.0227759], [-95.946118, 36.0224474]]]}, "properties": {"osm_id": 1341431218, "building": "yes", "name": "", "height": null, "height_m": null, "levels": null, "tract_id": "40143007634", "tract_name": "76.34", "tags": {"building": "yes", "source": "microsoft/BuildingFootprints"}}}, {"type": "Feature", "geometry": {"type": "Polygon", "coordinates": [[[-95.945758, 36.0228069], [-95.945731, 36.0227274], [-95.9457634, 36.0227202], [-95.9457271, 36.0226133], [-95.9453281, 36.0227019], [-95.9453941, 36.0228964], [-95.9455513, 36.0228615], [-95.9455427, 36.0228364], [-95.9456375, 36.0228154], [-95.9456433, 36.0228323], [-95.945758, 36.0228069]]]}, "properties": {"osm_id": 1341431219, "building": "yes", "name": "", "height": null, "height_m": null, "levels": null, "tract_id": "40143007634", "tract_name": "76.34", "tags": {"building": "yes", "source": "microsoft/BuildingFootprints"}}}, {"type": "Feature", "geometry": {"type": "Polygon", "coordinates": [[[-95.9452642, 36.0229279], [-95.9451981, 36.0228455], [-95.9452434, 36.0228217], [-95.9451821, 36.0227454], [-95.944838, 36.0229261], [-95.9449642, 36.0230833], [-95.9450642, 36.0230308], [-95.9450507, 36.023014], [-95.9451432, 36.0229654], [-95.9451579, 36.0229838], [-95.9452642, 36.0229279]]]}, "properties": {"osm_id": 1341431220, "building": "yes", "name": "", "height": null, "height_m": null, "levels": null, "tract_id": "40143007634", "tract_name": "76.34", "tags": {"building": "yes", "source": "microsoft/BuildingFootprints"}}}, {"type": "Feature", "geometry": {"type": "Polygon", "coordinates": [[[-95.9444321, 36.0232278], [-95.9446102, 36.0233619], [-95.9447141, 36.0232718], [-95.9446925, 36.0232555], [-95.9447572, 36.0231993], [-95.9447779, 36.0232149], [-95.9448822, 36.0231243], [-95.944705, 36.0229908], [-95.9444321, 36.0232278]]]}, "properties": {"osm_id": 1341431221, "building": "yes", "name": "", "height": null, "height_m": null, "levels": null, "tract_id": "40143007634", "tract_name": "76.34", "tags": {"building": "yes", "source": "microsoft/BuildingFootprints"}}}, {"type": "Feature", "geometry": {"type": "Polygon", "coordinates": [[[-95.9450047, 36.0231305], [-95.9449997, 36.0232084], [-95.9449586, 36.0232067], [-95.9449508, 36.0233287], [-95.9453708, 36.0233462], [-95.9453833, 36.0231506], [-95.9452281, 36.0231441], [-95.9452259, 36.0231788], [-95.945136, 36.023175], [-95.9451384, 36.0231361], [-95.9450047, 36.0231305]]]}, "properties": {"osm_id": 1341431222, "building": "yes", "name": "", "height": null, "height_m": null, "levels": null, "tract_id": "40143007634", "tract_name": "76.34", "tags": {"building": "yes", "source": "microsoft/BuildingFootprints"}}}, {"type": "Feature", "geometry": {"type": "Polygon", "coordinates": [[[-95.9455031, 36.0233738], [-95.9459143, 36.0233888], [-95.9459244, 36.0232069], [-95.9458076, 36.0232027], [-95.9458063, 36.0232265], [-95.9457046, 36.0232228], [-95.9457067, 36.0231847], [-95.9455665, 36.0231796], [-95.9455611, 36.0232762], [-95.9455086, 36.0232742], [-95.9455031, 36.0233738]]]}, "properties": {"osm_id": 1341431223, "building": "yes", "name": "", "height": null, "height_m": null, "levels": null, "tract_id": "40143007634", "tract_name": "76.34", "tags": {"building": "yes", "source": "microsoft/BuildingFootprints"}}}]}