{"type": "FeatureCollection", "features": [{"type": "Feature", "geometry": {"type": "Polygon", "coordinates": [[[-97.3724298, 35.4629596], [-97.3723842, 35.4629552], [-97.3723788, 35.4629181], [-97.372344, 35.4629203], [-97.372344, 35.4629006], [-97.3722627, 35.4628383], [-97.372234, 35.4628656], [-97.3722018, 35.4628438], [-97.3721313, 35.4628995], [-97.3721213, 35.4629203], [-97.3720275, 35.4629181], [-97.3720248, 35.4628919], [-97.3720436, 35.4628744], [-97.3721777, 35.4627608], [-97.3721871, 35.4627552], [-97.3722305, 35.4627291], [-97.372278, 35.4627569], [-97.3722957, 35.4627673], [-97.3724003, 35.4628547], [-97.3724298, 35.4628656], [-97.3724298, 35.4629148], [-97.3724298, 35.4629596]]]}, "properties": {"osm_id": 191594417, "building": "yes", "name": "", "height": null, "height_m": null, "levels": null, "tract_id": "40109107703", "tract_name": "1077.03", "tags": {"building": "yes"}}}, {"type": "Feature", "geometry": {"type": "Polygon", "coordinates": [[[-97.3790924, 35.4555905], [-97.3789717, 35.455691], [-97.3791595, 35.4558352], [-97.3792721, 35.4557281], [-97.3790924, 35.4555905]]]}, "properties": {"osm_id": 191606471, "building": "yes", "name": "", "height": null, "height_m": null, "levels": null, "tract_id": "40109107703", "tract_name": "1077.03", "tags": {"building": "yes", "source": "Bing"}}}, {"type": "Feature", "geometry": {"type": "Polygon", "coordinates": [[[-97.3881134, 35.4499438], [-97.3880185, 35.4499466], [-97.3880244, 35.4500797], [-97.3881194, 35.4500769], [-97.3881134, 35.4499438]]]}, "properties": {"osm_id": 243848494, "building": "yes", "name": "", "height": null, "height_m": null, "levels": null, "tract_id": "40109107703", "tract_name": "1077.03", "tags": {"building": "yes", "source": "Bing"}}}, {"type": "Feature", "geometry": {"type": "Polygon", "coordinates": [[[-97.3877397, 35.4499271], [-97.3874637, 35.4499316], [-97.3874662, 35.4500298], [-97.3877422, 35.4500252], [-97.3877397, 35.4499271]]]}, "properties": {"osm_id": 243848756, "building": "yes", "name": "", "height": null, "height_m": null, "levels": null, "tract_id": "40109107703", "tract_name": "1077.03", "tags": {"building": "yes", "source": "Bing"}}}, {"type": "Feature", "geometry": {"type": "Polygon", "coordinates": [[[-97.3804609, 35.4601911], [-97.3803804, 35.460178], [-97.3803642, 35.4602436], [-97.3804448, 35.4602567], [-97.3804609, 35.4601911]]]}, "properties": {"osm_id": 243876754, "building": "yes", "name": "", "height": null, "height_m": null, "levels": null, "tract_id": "40109107703", "tract_name": "1077.03", "tags": {"building": "yes"}}}, {"type": "Feature", "geometry": {"type": "Polygon", "coordinates": [[[-97.370418, 35.4632567], [-97.3702342, 35.4632531], [-97.3702317, 35.4633362], [-97.3704156, 35.4633397], [-97.370418, 35.4632567]]]}, "properties": {"osm_id": 243879272, "building": "yes", "name": "", "height": null, "height_m": null, "levels": null, "tract_id": "40109107703", "tract_name": "1077.03", "tags": {"building": "yes", "source": "Bing"}}}, {"type": "Feature", "geometry": {"type": "Polygon", "coordinates": [[[-97.3704181, 35.4634598], [-97.3700318, 35.4634641], [-97.3699537, 35.463532], [-97.3699537, 35.4637111], [-97.3703698, 35.4637154], [-97.3704016, 35.4637111], [-97.3704204, 35.4636893], [-97.3704181, 35.4634598]]]}, "properties": {"osm_id": 243879273, "building": "yes", "name": "CVS Pharmacy", "height": null, "height_m": null, "levels": null, "tract_id": "40109107703", "tract_name": "1077.03", "tags": {"addr:city": "Midwest City", "addr:housenumber": "100", "addr:postcode": "73130", "addr:state": "OK", "addr:street": "South Douglas Boulevard", "amenity": "pharmacy", "brand": "CVS Pharmacy", "brand:website": "https://www.cvs.com/", "brand:wikidata": "Q2078880", "building": "yes", "healthcare": "pharmacy", "name": "CVS Pharmacy", "opening_hours": "08:00-22:00 open", "short_name": "CVS", "source": "Bing", "website": "https://www.cvs.com/store-locator/midwest-city-ok-pharmacies/100-s-douglas-blvd-midwest-city-ok-73130/storeid=2489"}}}, {"type": "Feature", "geometry": {"type": "Polygon", "coordinates": [[[-97.3738531, 35.4594947], [-97.3735977, 35.4594331], [-97.3735581, 35.4595418], [-97.3738135, 35.4596035], [-97.3738531, 35.4594947]]]}, "properties": {"osm_id": 243916816, "building": "yes", "name": "", "height": null, "height_m": null, "levels": null, "tract_id": "40109107703", "tract_name": "1077.03", "tags": {"building": "yes", "source": "Bing"}}}, {"type": "Feature", "geometry": {"type": "Polygon", "coordinates": [[[-97.37328, 35.4593657], [-97.3730788, 35.4593635], [-97.3730815, 35.4594771], [-97.3732827, 35.4594771], [-97.37328, 35.4593657]]]}, "properties": {"osm_id": 243916835, "building": "yes", "name": "", "height": null, "height_m": null, "levels": null, "tract_id": "40109107703", "tract_name": "1077.03", "tags": {"building": "yes", "source": "Bing"}}}, {"type": "Feature", "geometry": {"type": "Polygon", "coordinates": [[[-97.3732229, 35.4591532], [-97.3731667, 35.4591278], [-97.3731309, 35.4591803], [-97.3731871, 35.4592057], [-97.3732229, 35.4591532]]]}, "properties": {"osm_id": 243916837, "building": "yes", "name": "", "height": null, "height_m": null, "levels": null, "tract_id": "40109107703", "tract_name": "1077.03", "tags": {"building": "yes", "source": "Bing"}}}, {"type": "Feature", "geometry": {"type": "Polygon", "coordinates": [[[-97.3732726, 35.4592691], [-97.3732759, 35.4593473], [-97.3730091, 35.4593548], [-97.3730058, 35.4592767], [-97.3732726, 35.4592691]]]}, "properties": {"osm_id": 243916840, "building": "yes", "name": "", "height": null, "height_m": null, "levels": null, "tract_id": "40109107703", "tract_name": "1077.03", "tags": {"building": "yes", "source": "Bing"}}}, {"type": "Feature", "geometry": {"type": "Polygon", "coordinates": [[[-97.3872185, 35.4630984], [-97.3869859, 35.4631033], [-97.3869813, 35.4629602], [-97.3872139, 35.4629553], [-97.3872185, 35.4630984]]]}, "properties": {"osm_id": 247779182, "building": "apartments", "name": "", "height": null, "height_m": null, "levels": null, "tract_id": "40109107703", "tract_name": "1077.03", "tags": {"building": "apartments", "source": "Bing"}}}, {"type": "Feature", "geometry": {"type": "Polygon", "coordinates": [[[-97.3874789, 35.4626493], [-97.3873427, 35.4626499], [-97.3873402, 35.4622508], [-97.3874764, 35.4622502], [-97.3874789, 35.4626493]]]}, "properties": {"osm_id": 247779183, "building": "apartments", "name": "", "height": null, "height_m": null, "levels": null, "tract_id": "40109107703", "tract_name": "1077.03", "tags": {"building": "apartments", "source": "Bing"}}}, {"type": "Feature", "geometry": {"type": "Polygon", "coordinates": [[[-97.3872092, 35.4628986], [-97.3868189, 35.4629034], [-97.3868167, 35.46278], [-97.3872069, 35.4627753], [-97.3872092, 35.4628986]]]}, "properties": {"osm_id": 247779184, "building": "apartments", "name": "", "height": null, "height_m": null, "levels": null, "tract_id": "40109107703", "tract_name": "1077.03", "tags": {"building": "apartments", "source": "Bing"}}}, {"type": "Feature", "geometry": {"type": "Polygon", "coordinates": [[[-97.3869183, 35.4633604], [-97.3869089, 35.4629591], [-97.3867603, 35.4629614], [-97.3867697, 35.4633627], [-97.3869183, 35.4633604]]]}, "properties": {"osm_id": 247779185, "building": "apartments", "name": "", "height": null, "height_m": null, "levels": null, "tract_id": "40109107703", "tract_name": "1077.03", "tags": {"building": "apartments", "source": "Bing"}}}, {"type": "Feature", "geometry": {"type": "Polygon", "coordinates": [[[-97.3874249, 35.4638015], [-97.3872835, 35.4638003], [-97.3872755, 35.4634049], [-97.3874222, 35.4634039], [-97.3874249, 35.4638015]]]}, "properties": {"osm_id": 247779186, "building": "apartments", "name": "", "height": null, "height_m": null, "levels": null, "tract_id": "40109107703", "tract_name": "1077.03", "tags": {"building": "apartments", "source": "Bing"}}}, {"type": "Feature", "geometry": {"type": "Polygon", "coordinates": [[[-97.3871575, 35.463632], [-97.3869795, 35.4636305], [-97.3869807, 35.4635361], [-97.3871587, 35.4635376], [-97.3871575, 35.463632]]]}, "properties": {"osm_id": 247779187, "building": "yes", "name": "", "height": null, "height_m": null, "levels": null, "tract_id": "40109107703", "tract_name": "1077.03", "tags": {"building": "yes", "source": "Bing"}}}, {"type": "Feature", "geometry": {"type": "Polygon", "coordinates": [[[-97.3869138, 35.4638073], [-97.3867723, 35.4638064], [-97.3867763, 35.4634115], [-97.3869178, 35.4634124], [-97.3869138, 35.4638073]]]}, "properties": {"osm_id": 247779188, "building": "apartments", "name": "", "height": null, "height_m": null, "levels": null, "tract_id": "40109107703", "tract_name": "1077.03", "tags": {"building": "apartments", "source": "Bing"}}}, {"type": "Feature", "geometry": {"type": "Polygon", "coordinates": [[[-97.3874191, 35.4633599], [-97.3872853, 35.4633602], [-97.3872841, 35.4629664], [-97.3874178, 35.4629661], [-97.3874191, 35.4633599]]]}, "properties": {"osm_id": 247779189, "building": "apartments", "name": "", "height": null, "height_m": null, "levels": null, "tract_id": "40109107703", "tract_name": "1077.03", "tags": {"building": "apartments", "source": "Bing"}}}, {"type": "Feature", "geometry": {"type": "Polygon", "coordinates": [[[-97.3875113, 35.4629043], [-97.3875058, 35.4626979], [-97.3873261, 35.4627011], [-97.3873315, 35.4629075], [-97.3875113, 35.4629043]]]}, "properties": {"osm_id": 247779191, "building": "apartments", "name": "", "height": null, "height_m": null, "levels": null, "tract_id": "40109107703", "tract_name": "1077.03", "tags": {"building": "apartments", "source": "Bing"}}}, {"type": "Feature", "geometry": {"type": "Polygon", "coordinates": [[[-97.3872013, 35.4627283], [-97.3871969, 35.4623248], [-97.3870578, 35.4623257], [-97.3870622, 35.4627293], [-97.3872013, 35.4627283]]]}, "properties": {"osm_id": 247779192, "building": "apartments", "name": "", "height": null, "height_m": null, "levels": null, "tract_id": "40109107703", "tract_name": "1077.03", "tags": {"building": "apartments", "source": "Bing"}}}, {"type": "Feature", "geometry": {"type": "Polygon", "coordinates": [[[-97.3872275, 35.4638311], [-97.3872248, 35.4636825], [-97.3869808, 35.4636847], [-97.3869834, 35.4638333], [-97.3872275, 35.4638311]]]}, "properties": {"osm_id": 247779193, "building": "apartments", "name": "", "height": null, "height_m": null, "levels": null, "tract_id": "40109107703", "tract_name": "1077.03", "tags": {"building": "apartments", "source": "Bing"}}}, {"type": "Feature", "geometry": {"type": "Polygon", "coordinates": [[[-97.3875074, 35.4621933], [-97.3872655, 35.4621939], [-97.387265, 35.4620443], [-97.3875068, 35.4620437], [-97.3875074, 35.4621933]]]}, "properties": {"osm_id": 247779194, "building": "apartments", "name": "", "height": null, "height_m": null, "levels": null, "tract_id": "40109107703", "tract_name": "1077.03", "tags": {"building": "apartments", "source": "Bing"}}}, {"type": "Feature", "geometry": {"type": "Polygon", "coordinates": [[[-97.3874, 35.4618745], [-97.3873036, 35.4618728], [-97.3873056, 35.4617974], [-97.387402, 35.4617991], [-97.3874, 35.4618745]]]}, "properties": {"osm_id": 247779195, "building": "apartments", "name": "", "height": null, "height_m": null, "levels": null, "tract_id": "40109107703", "tract_name": "1077.03", "tags": {"building": "apartments", "source": "Bing"}}}, {"type": "Feature", "geometry": {"type": "Polygon", "coordinates": [[[-97.355195, 35.4501031], [-97.3547647, 35.4501026], [-97.3547643, 35.4502967], [-97.3551947, 35.4502971], [-97.355195, 35.4501031]]]}, "properties": {"osm_id": 269442908, "building": "yes", "name": "", "height": null, "height_m": null, "levels": null, "tract_id": "40109107703", "tract_name": "1077.03", "tags": {"building": "yes", "roof:shape": "flat", "source": "Bing"}}}, {"type": "Feature", "geometry": {"type": "Polygon", "coordinates": [[[-97.3541558, 35.4502915], [-97.3539829, 35.4502906], [-97.3539829, 35.4504869], [-97.3538866, 35.450486], [-97.3538956, 35.4501522], [-97.3541265, 35.4501522], [-97.3541585, 35.4501522], [-97.3541558, 35.4502915]]]}, "properties": {"osm_id": 269442911, "building": "yes", "name": "", "height": null, "height_m": null, "levels": null, "tract_id": "40109107703", "tract_name": "1077.03", "tags": {"building": "yes", "roof:shape": "hipped", "source": "Bing"}}}, {"type": "Feature", "geometry": {"type": "Polygon", "coordinates": [[[-97.3538876, 35.4506831], [-97.353893, 35.450504], [-97.3535711, 35.4505018], [-97.3535711, 35.4506875], [-97.3538876, 35.4506831]]]}, "properties": {"osm_id": 269442913, "building": "yes", "name": "", "height": null, "height_m": null, "levels": null, "tract_id": "40109107703", "tract_name": "1077.03", "tags": {"building": "yes", "roof:shape": "hipped", "source": "Bing"}}}, {"type": "Feature", "geometry": {"type": "Polygon", "coordinates": [[[-97.3538537, 35.4501662], [-97.3536405, 35.4501655], [-97.3536411, 35.4500497], [-97.3538543, 35.4500504], [-97.3538537, 35.4501662]]]}, "properties": {"osm_id": 269442915, "building": "yes", "name": "", "height": null, "height_m": null, "levels": null, "tract_id": "40109107703", "tract_name": "1077.03", "tags": {"building": "yes", "roof:shape": "flat", "source": "Bing"}}}, {"type": "Feature", "geometry": {"type": "Polygon", "coordinates": [[[-97.3545327, 35.4502821], [-97.3544865, 35.4502825], [-97.3544868, 35.4502235], [-97.354488, 35.44997], [-97.3544886, 35.4498442], [-97.3545408, 35.4498451], [-97.3545327, 35.4502821]]]}, "properties": {"osm_id": 269482619, "building": "roof", "name": "", "height": null, "height_m": null, "levels": null, "tract_id": "40109107703", "tract_name": "1077.03", "tags": {"building": "roof", "roof:material": "metal", "source": "Bing"}}}, {"type": "Feature", "geometry": {"type": "Polygon", "coordinates": [[[-97.354488, 35.44997], [-97.3544078, 35.4499701], [-97.3544033, 35.4502235], [-97.3544868, 35.4502235], [-97.354488, 35.44997]]]}, "properties": {"osm_id": 269482622, "building": "yes", "name": "", "height": null, "height_m": null, "levels": null, "tract_id": "40109107703", "tract_name": "1077.03", "tags": {"building": "yes", "source": "Bing"}}}, {"type": "Feature", "geometry": {"type": "Polygon", "coordinates": [[[-97.35441, 35.4498437], [-97.3544078, 35.4499701], [-97.3544033, 35.4502235], [-97.3544022, 35.4502856], [-97.354353, 35.4502842], [-97.3543591, 35.4498433], [-97.35441, 35.4498437]]]}, "properties": {"osm_id": 269482623, "building": "roof", "name": "", "height": null, "height_m": null, "levels": null, "tract_id": "40109107703", "tract_name": "1077.03", "tags": {"building": "roof", "roof:material": "metal", "source": "Bing"}}}, {"type": "Feature", "geometry": {"type": "Polygon", "coordinates": [[[-97.3537009, 35.4498158], [-97.353358, 35.4498176], [-97.3533585, 35.4498829], [-97.3537014, 35.4498812], [-97.3537009, 35.4498158]]]}, "properties": {"osm_id": 269482793, "building": "roof", "name": "", "height": null, "height_m": null, "levels": null, "tract_id": "40109107703", "tract_name": "1077.03", "tags": {"amenity": "fuel", "building": "roof", "roof:material": "metal", "roof:shape": "flat", "source": "Bing"}}}, {"type": "Feature", "geometry": {"type": "Polygon", "coordinates": [[[-97.3864804, 35.4504611], [-97.3864783, 35.4503678], [-97.3864758, 35.4502521], [-97.3865811, 35.4502505], [-97.3867254, 35.4502484], [-97.3867254, 35.4502565], [-97.3868032, 35.4502572], [-97.3868032, 35.4502879], [-97.3869071, 35.4502885], [-97.3869048, 35.450355], [-97.3868355, 35.4503557], [-97.3868347, 35.4503739], [-97.3867677, 35.4503745], [-97.3867677, 35.4504162], [-97.3867677, 35.4504598], [-97.3864804, 35.4504611]]]}, "properties": {"osm_id": 489705477, "building": "yes", "name": "", "height": null, "height_m": null, "levels": null, "tract_id": "40109107703", "tract_name": "1077.03", "tags": {"building": "yes"}}}, {"type": "Feature", "geometry": {"type": "Polygon", "coordinates": [[[-97.3872761, 35.4500677], [-97.3872776, 35.4498964], [-97.3872183, 35.4498964], [-97.3872183, 35.4499064], [-97.3871937, 35.4499064], [-97.3871937, 35.4499001], [-97.387062, 35.4498995], [-97.3870635, 35.4500244], [-97.3872022, 35.4500269], [-97.3872014, 35.4500664], [-97.3872761, 35.4500677]]]}, "properties": {"osm_id": 489705478, "building": "yes", "name": "", "height": null, "height_m": null, "levels": null, "tract_id": "40109107703", "tract_name": "1077.03", "tags": {"building": "yes"}}}, {"type": "Feature", "geometry": {"type": "Polygon", "coordinates": [[[-97.3878783, 35.4506711], [-97.3879972, 35.4506165], [-97.3880074, 35.4506256], [-97.3880877, 35.4506256], [-97.3880917, 35.4504964], [-97.3880653, 35.4504948], [-97.3880663, 35.4504517], [-97.3881121, 35.4504294], [-97.3881111, 35.4503656], [-97.3880978, 35.4503664], [-97.3880999, 35.4503557], [-97.3880267, 35.4503565], [-97.3878925, 35.4502936], [-97.3877401, 35.4503664], [-97.3877096, 35.4503656], [-97.3877096, 35.4503474], [-97.387674, 35.4503474], [-97.387674, 35.450359], [-97.387547, 35.4503582], [-97.387549, 35.4504252], [-97.3875277, 35.4504252], [-97.3875297, 35.4506041], [-97.3876395, 35.4506024], [-97.3876395, 35.4506148], [-97.3877065, 35.4506157], [-97.3877076, 35.4506032], [-97.387736, 35.4506049], [-97.3878783, 35.4506711]]]}, "properties": {"osm_id": 489705479, "building": "yes", "name": "Bank of Oklahoma", "height": null, "height_m": null, "levels": null, "tract_id": "40109107703", "tract_name": "1077.03", "tags": {"amenity": "bank", "building": "yes", "name": "Bank of Oklahoma"}}}, {"type": "Feature", "geometry": {"type": "Polygon", "coordinates": [[[-97.3880799, 35.4636381], [-97.3878385, 35.4636381], [-97.3878385, 35.4633769], [-97.3880799, 35.4633769], [-97.3880799, 35.4636381]]]}, "properties": {"osm_id": 490726662, "building": "retail", "name": "", "height": null, "height_m": null, "levels": null, "tract_id": "40109107703", "tract_name": "1077.03", "tags": {"building": "retail", "shop": "convenience"}}}, {"type": "Feature", "geometry": {"type": "Polygon", "coordinates": [[[-97.3882088, 35.4631685], [-97.3876921, 35.4631674], [-97.3876927, 35.4629816], [-97.3882094, 35.4629826], [-97.3882088, 35.4631685]]]}, "properties": {"osm_id": 490726663, "building": "yes", "name": "Sprint", "height": null, "height_m": null, "levels": null, "tract_id": "40109107703", "tract_name": "1077.03", "tags": {"addr:city": "Midwest City", "addr:housenumber": "140", "addr:postcode": "73110", "addr:state": "OK", "addr:street": "South Midwest Boulevard", "building": "yes", "name": "Sprint", "operator": "Sprint", "shop": "mobile_phone"}}}, {"type": "Feature", "geometry": {"type": "Polygon", "coordinates": [[[-97.3882139, 35.4628008], [-97.3879725, 35.4628008], [-97.3879725, 35.4626503], [-97.3882139, 35.4626503], [-97.3882139, 35.4628008]]]}, "properties": {"osm_id": 490726664, "building": "commercial", "name": "", "height": null, "height_m": null, "levels": null, "tract_id": "40109107703", "tract_name": "1077.03", "tags": {"building": "commercial"}}}, {"type": "Feature", "geometry": {"type": "Polygon", "coordinates": [[[-97.3882045, 35.4624646], [-97.3879971, 35.4624612], [-97.3880005, 35.4623259], [-97.3882078, 35.4623293], [-97.3882045, 35.4624646]]]}, "properties": {"osm_id": 490726665, "building": "yes", "name": "Burger King", "height": null, "height_m": null, "levels": null, "tract_id": "40109107703", "tract_name": "1077.03", "tags": {"addr:city": "Midwest City", "addr:housenumber": "300", "addr:postcode": "73110-4642", "addr:state": "OK", "addr:street": "South Midwest Boulevard", "amenity": "fast_food", "brand": "Burger King", "brand:wikidata": "Q177054", "building": "yes", "cuisine": "burger", "delivery": "yes", "drive_through": "yes", "internet_access": "wlan", "name": "Burger King", "opening_hours": "06:00-22:00", "phone": "+1 405-737-2991", "ref": "6371", "takeaway": "yes", "website": "https://www.bk.com/store-locator/store/restaurant_3621"}}}, {"type": "Feature", "geometry": {"type": "Polygon", "coordinates": [[[-97.3805286, 35.4565063], [-97.3830694, 35.4542829], [-97.3826367, 35.4539192], [-97.3834653, 35.4532443], [-97.3829958, 35.4528768], [-97.3828162, 35.4530268], [-97.3829405, 35.4531168], [-97.3827288, 35.4532968], [-97.3825907, 35.4531955], [-97.3823237, 35.4534317], [-97.3824388, 35.453548], [-97.3819417, 35.4540054], [-97.3818082, 35.4539229], [-97.3814906, 35.4542191], [-97.3819187, 35.4545641], [-97.3816517, 35.4548153], [-97.381219, 35.4544891], [-97.3810579, 35.4546053], [-97.3811223, 35.4546541], [-97.3807495, 35.4550028], [-97.3806528, 35.454954], [-97.3796218, 35.4558352], [-97.3805286, 35.4565063]]]}, "properties": {"osm_id": 490738795, "building": "warehouse", "name": "", "height": null, "height_m": null, "levels": null, "tract_id": "40109107703", "tract_name": "1077.03", "tags": {"building": "warehouse"}}}, {"type": "Feature", "geometry": {"type": "Polygon", "coordinates": [[[-97.384232, 35.4503399], [-97.3842267, 35.4500646], [-97.383756, 35.4500646], [-97.3837519, 35.4503443], [-97.384232, 35.4503399]]]}, "properties": {"osm_id": 491011299, "building": "yes", "name": "", "height": null, "height_m": null, "levels": null, "tract_id": "40109107703", "tract_name": "1077.03", "tags": {"building": "yes"}}}, {"type": "Feature", "geometry": {"type": "Polygon", "coordinates": [[[-97.3837265, 35.450069], [-97.3837305, 35.4498996], [-97.3834743, 35.4498985], [-97.3834757, 35.4500668], [-97.3837265, 35.450069]]]}, "properties": {"osm_id": 491011300, "building": "yes", "name": "", "height": null, "height_m": null, "levels": null, "tract_id": "40109107703", "tract_name": "1077.03", "tags": {"building": "yes"}}}, {"type": "Feature", "geometry": {"type": "Polygon", "coordinates": [[[-97.3838995, 35.4506076], [-97.3838995, 35.4504579], [-97.3834743, 35.4504557], [-97.383473, 35.4505748], [-97.383539, 35.4505749], [-97.3835387, 35.4506065], [-97.3838995, 35.4506076]]]}, "properties": {"osm_id": 491011301, "building": "yes", "name": "", "height": null, "height_m": null, "levels": null, "tract_id": "40109107703", "tract_name": "1077.03", "tags": {"building": "yes"}}}, {"type": "Feature", "geometry": {"type": "Polygon", "coordinates": [[[-97.3839126, 35.4510505], [-97.3839115, 35.4509677], [-97.3834818, 35.4509668], [-97.3834795, 35.4510505], [-97.3839126, 35.4510505]]]}, "properties": {"osm_id": 491011302, "building": "yes", "name": "", "height": null, "height_m": null, "levels": null, "tract_id": "40109107703", "tract_name": "1077.03", "tags": {"building": "yes"}}}, {"type": "Feature", "geometry": {"type": "Polygon", "coordinates": [[[-97.3839115, 35.4509126], [-97.3839103, 35.4507975], [-97.383483, 35.4507984], [-97.3834818, 35.4509116], [-97.3839115, 35.4509126]]]}, "properties": {"osm_id": 491011303, "building": "yes", "name": "", "height": null, "height_m": null, "levels": null, "tract_id": "40109107703", "tract_name": "1077.03", "tags": {"building": "yes"}}}, {"type": "Feature", "geometry": {"type": "Polygon", "coordinates": [[[-97.3839115, 35.4507537], [-97.3839126, 35.4506539], [-97.383483, 35.4506529], [-97.3834807, 35.4507547], [-97.3839115, 35.4507537]]]}, "properties": {"osm_id": 491011304, "building": "yes", "name": "", "height": null, "height_m": null, "levels": null, "tract_id": "40109107703", "tract_name": "1077.03", "tags": {"building": "yes"}}}, {"type": "Feature", "geometry": {"type": "Polygon", "coordinates": [[[-97.3840084, 35.4510457], [-97.3840072, 35.4508479], [-97.3841648, 35.4508469], [-97.3841637, 35.4510457], [-97.3840084, 35.4510457]]]}, "properties": {"osm_id": 491011305, "building": "yes", "name": "", "height": null, "height_m": null, "levels": null, "tract_id": "40109107703", "tract_name": "1077.03", "tags": {"building": "yes"}}}, {"type": "Feature", "geometry": {"type": "Polygon", "coordinates": [[[-97.3843318, 35.451041], [-97.3843294, 35.4508517], [-97.3842185, 35.4508536], [-97.3842174, 35.451041], [-97.3843318, 35.451041]]]}, "properties": {"osm_id": 491011306, "building": "yes", "name": "", "height": null, "height_m": null, "levels": null, "tract_id": "40109107703", "tract_name": "1077.03", "tags": {"building": "yes"}}}, {"type": "Feature", "geometry": {"type": "Polygon", "coordinates": [[[-97.3840224, 35.4507166], [-97.3840236, 35.4504247], [-97.3841508, 35.4504228], [-97.3841485, 35.450613], [-97.384138, 35.4506149], [-97.384138, 35.4507147], [-97.3840224, 35.4507166]]]}, "properties": {"osm_id": 491011307, "building": "yes", "name": "", "height": null, "height_m": null, "levels": null, "tract_id": "40109107703", "tract_name": "1077.03", "tags": {"building": "yes"}}}, {"type": "Feature", "geometry": {"type": "Polygon", "coordinates": [[[-97.384236, 35.4507851], [-97.3842325, 35.4504323], [-97.3843224, 35.4504304], [-97.3843271, 35.4507851], [-97.384236, 35.4507851]]]}, "properties": {"osm_id": 491011308, "building": "yes", "name": "", "height": null, "height_m": null, "levels": null, "tract_id": "40109107703", "tract_name": "1077.03", "tags": {"building": "yes"}}}, {"type": "Feature", "geometry": {"type": "Polygon", "coordinates": [[[-97.3848011, 35.4510362], [-97.3847941, 35.4507632], [-97.3848105, 35.4507642], [-97.3848069, 35.450419], [-97.3847883, 35.450419], [-97.3847834, 35.4502647], [-97.3847146, 35.4502647], [-97.3847146, 35.4504235], [-97.3847029, 35.4504235], [-97.3847076, 35.4507697], [-97.3847204, 35.4507697], [-97.3847287, 35.4510363], [-97.3848011, 35.4510362]]]}, "properties": {"osm_id": 491011309, "building": "yes", "name": "", "height": null, "height_m": null, "levels": null, "tract_id": "40109107703", "tract_name": "1077.03", "tags": {"building": "yes"}}}, {"type": "Feature", "geometry": {"type": "Polygon", "coordinates": [[[-97.3846574, 35.4510227], [-97.384653, 35.4508461], [-97.3845433, 35.4508461], [-97.3845486, 35.4510227], [-97.3846574, 35.4510227]]]}, "properties": {"osm_id": 491011310, "building": "yes", "name": "", "height": null, "height_m": null, "levels": null, "tract_id": "40109107703", "tract_name": "1077.03", "tags": {"building": "yes"}}}, {"type": "Feature", "geometry": {"type": "Polygon", "coordinates": [[[-97.3844964, 35.4510234], [-97.3844902, 35.4508497], [-97.3843876, 35.4508512], [-97.3843902, 35.4510242], [-97.3844964, 35.4510234]]]}, "properties": {"osm_id": 491011311, "building": "yes", "name": "", "height": null, "height_m": null, "levels": null, "tract_id": "40109107703", "tract_name": "1077.03", "tags": {"building": "yes"}}}, {"type": "Feature", "geometry": {"type": "Polygon", "coordinates": [[[-97.3846512, 35.4507741], [-97.3846441, 35.4502814], [-97.3845353, 35.4502823], [-97.3845414, 35.4507757], [-97.3846512, 35.4507741]]]}, "properties": {"osm_id": 491011312, "building": "yes", "name": "", "height": null, "height_m": null, "levels": null, "tract_id": "40109107703", "tract_name": "1077.03", "tags": {"building": "yes"}}}, {"type": "Feature", "geometry": {"type": "Polygon", "coordinates": [[[-97.3844916, 35.4507774], [-97.3844815, 35.4502293], [-97.3843747, 35.4502309], [-97.3843839, 35.450779], [-97.3844916, 35.4507774]]]}, "properties": {"osm_id": 491011313, "building": "yes", "name": "", "height": null, "height_m": null, "levels": null, "tract_id": "40109107703", "tract_name": "1077.03", "tags": {"building": "yes"}}}, {"type": "Feature", "geometry": {"type": "Polygon", "coordinates": [[[-97.3821886, 35.4503297], [-97.3821899, 35.4501374], [-97.3826486, 35.4501429], [-97.3826499, 35.450298], [-97.3824219, 35.4502936], [-97.3824233, 35.4503657], [-97.3823026, 35.4503657], [-97.3823026, 35.4503308], [-97.3821886, 35.4503297]]]}, "properties": {"osm_id": 491011314, "building": "yes", "name": "", "height": null, "height_m": null, "levels": null, "tract_id": "40109107703", "tract_name": "1077.03", "tags": {"building": "yes"}}}, {"type": "Feature", "geometry": {"type": "Polygon", "coordinates": [[[-97.3816401, 35.4504083], [-97.3816401, 35.4503198], [-97.3814765, 35.450322], [-97.3814778, 35.4504094], [-97.3816401, 35.4504083]]]}, "properties": {"osm_id": 491011315, "building": "yes", "name": "", "height": null, "height_m": null, "levels": null, "tract_id": "40109107703", "tract_name": "1077.03", "tags": {"building": "yes"}}}, {"type": "Feature", "geometry": {"type": "Polygon", "coordinates": [[[-97.3805833, 35.4502805], [-97.3805806, 35.4501068], [-97.3804411, 35.4501079], [-97.3804398, 35.4500828], [-97.3803821, 35.4500839], [-97.3803821, 35.4501079], [-97.3803298, 35.4501079], [-97.3803298, 35.4502587], [-97.3804961, 35.4502576], [-97.3804961, 35.4502794], [-97.3805833, 35.4502805]]]}, "properties": {"osm_id": 491011316, "building": "yes", "name": "", "height": null, "height_m": null, "levels": null, "tract_id": "40109107703", "tract_name": "1077.03", "tags": {"building": "yes"}}}, {"type": "Feature", "geometry": {"type": "Polygon", "coordinates": [[[-97.3807768, 35.4537184], [-97.3813829, 35.453181], [-97.3814232, 35.4532072], [-97.3814071, 35.4532247], [-97.3814178, 35.4532596], [-97.3813052, 35.4533601], [-97.3814366, 35.4534497], [-97.3820025, 35.4529603], [-97.381804, 35.4528117], [-97.3818443, 35.4527746], [-97.3813668, 35.4523922], [-97.380994, 35.4527352], [-97.3809001, 35.4526631], [-97.3808385, 35.4527309], [-97.3809726, 35.4528248], [-97.3805783, 35.4531853], [-97.3805112, 35.4531395], [-97.3802859, 35.4533405], [-97.380589, 35.4535742], [-97.3805515, 35.4535983], [-97.3806534, 35.4536791], [-97.3806829, 35.4536485], [-97.3807768, 35.4537184]]]}, "properties": {"osm_id": 491011317, "building": "commercial", "name": "Chromalloy Gas Turbine Corporation", "height": null, "height_m": null, "levels": null, "tract_id": "40109107703", "tract_name": "1077.03", "tags": {"addr:city": "Midwest City", "addr:housenumber": "1720", "addr:postcode": "73110", "addr:state": "OK", "addr:street": "National Boulevard", "building": "commercial", "name": "Chromalloy Gas Turbine Corporation"}}}, {"type": "Feature", "geometry": {"type": "Polygon", "coordinates": [[[-97.3804731, 35.4530906], [-97.3805054, 35.4530661], [-97.380497, 35.4530598], [-97.3805278, 35.4530316], [-97.3805047, 35.4530134], [-97.3806633, 35.4528729], [-97.3806318, 35.4528496], [-97.380651, 35.4528352], [-97.3806287, 35.4528176], [-97.3804307, 35.4529921], [-97.3804538, 35.4530096], [-97.380413, 35.453046], [-97.3804731, 35.4530906]]]}, "properties": {"osm_id": 491011318, "building": "yes", "name": "", "height": null, "height_m": null, "levels": null, "tract_id": "40109107703", "tract_name": "1077.03", "tags": {"building": "yes"}}}, {"type": "Feature", "geometry": {"type": "Polygon", "coordinates": [[[-97.3839211, 35.4531642], [-97.3842713, 35.4528589], [-97.3841429, 35.4527553], [-97.3837961, 35.453071], [-97.3839211, 35.4531642]]]}, "properties": {"osm_id": 491011319, "building": "yes", "name": "Tumble Stars Gymnastics Center", "height": null, "height_m": null, "levels": null, "tract_id": "40109107703", "tract_name": "1077.03", "tags": {"addr:city": "Oklahoma City", "addr:housenumber": "1700", "addr:postcode": "73110", "addr:state": "OK", "addr:street": "Republic Avenue Circle", "building": "yes", "leisure": "fitness_centre", "name": "Tumble Stars Gymnastics Center", "sport": "gymnastics"}}}, {"type": "Feature", "geometry": {"type": "Polygon", "coordinates": [[[-97.3839244, 35.4519156], [-97.3842283, 35.4517815], [-97.3840778, 35.4515356], [-97.3837628, 35.4516673], [-97.3839244, 35.4519156]]]}, "properties": {"osm_id": 491011320, "building": "yes", "name": "", "height": null, "height_m": null, "levels": null, "tract_id": "40109107703", "tract_name": "1077.03", "tags": {"building": "yes"}}}, {"type": "Feature", "geometry": {"type": "Polygon", "coordinates": [[[-97.384276, 35.4514595], [-97.384276, 35.4511862], [-97.3836316, 35.4511813], [-97.3836316, 35.4514595], [-97.3838898, 35.4514603], [-97.3838888, 35.4514735], [-97.3839731, 35.4514727], [-97.3839742, 35.4514595], [-97.384276, 35.4514595]]]}, "properties": {"osm_id": 491011321, "building": "yes", "name": "", "height": null, "height_m": null, "levels": null, "tract_id": "40109107703", "tract_name": "1077.03", "tags": {"building": "yes"}}}, {"type": "Feature", "geometry": {"type": "Polygon", "coordinates": [[[-97.3843858, 35.4512309], [-97.3843838, 35.451149], [-97.3847913, 35.4511498], [-97.3847903, 35.4512318], [-97.3843858, 35.4512309]]]}, "properties": {"osm_id": 491011322, "building": "yes", "name": "", "height": null, "height_m": null, "levels": null, "tract_id": "40109107703", "tract_name": "1077.03", "tags": {"building": "yes"}}}, {"type": "Feature", "geometry": {"type": "Polygon", "coordinates": [[[-97.3841806, 35.4523372], [-97.384243, 35.4523096], [-97.3842261, 35.4522845], [-97.3842438, 35.4522757], [-97.3841583, 35.4521433], [-97.3840397, 35.4521954], [-97.3841267, 35.4523259], [-97.3841621, 35.4523108], [-97.3841806, 35.4523372]]]}, "properties": {"osm_id": 491011323, "building": "yes", "name": "", "height": null, "height_m": null, "levels": null, "tract_id": "40109107703", "tract_name": "1077.03", "tags": {"building": "yes"}}}, {"type": "Feature", "geometry": {"type": "Polygon", "coordinates": [[[-97.3832693, 35.4522166], [-97.3836008, 35.4520501], [-97.3835284, 35.4519569], [-97.3835098, 35.4519655], [-97.3834677, 35.4519056], [-97.3834946, 35.4518885], [-97.3834327, 35.4518], [-97.3832225, 35.4519073], [-97.383142, 35.4519484], [-97.3832039, 35.452033], [-97.383149, 35.4520635], [-97.3832693, 35.4522166]]]}, "properties": {"osm_id": 491011324, "building": "yes", "name": "", "height": null, "height_m": null, "levels": null, "tract_id": "40109107703", "tract_name": "1077.03", "tags": {"building": "yes"}}}, {"type": "Feature", "geometry": {"type": "Polygon", "coordinates": [[[-97.3825571, 35.4520701], [-97.3827731, 35.4519389], [-97.3825758, 35.4517154], [-97.3823551, 35.4518504], [-97.3825571, 35.4520701]]]}, "properties": {"osm_id": 491011325, "building": "yes", "name": "", "height": null, "height_m": null, "levels": null, "tract_id": "40109107703", "tract_name": "1077.03", "tags": {"building": "yes"}}}, {"type": "Feature", "geometry": {"type": "Polygon", "coordinates": [[[-97.3831432, 35.4518], [-97.3833673, 35.4516878], [-97.3831443, 35.4513911], [-97.3829342, 35.4515057], [-97.3828046, 35.4515765], [-97.3829867, 35.4518124], [-97.3831046, 35.4517496], [-97.3831432, 35.4518]]]}, "properties": {"osm_id": 491011326, "building": "yes", "name": "", "height": null, "height_m": null, "levels": null, "tract_id": "40109107703", "tract_name": "1077.03", "tags": {"building": "yes"}}}, {"type": "Feature", "geometry": {"type": "Polygon", "coordinates": [[[-97.382208, 35.451489], [-97.3822967, 35.4512826], [-97.3821368, 35.4512332], [-97.3820434, 35.4514377], [-97.382208, 35.451489]]]}, "properties": {"osm_id": 491011327, "building": "yes", "name": "", "height": null, "height_m": null, "levels": null, "tract_id": "40109107703", "tract_name": "1077.03", "tags": {"building": "yes"}}}, {"type": "Feature", "geometry": {"type": "Polygon", "coordinates": [[[-97.3819383, 35.4516859], [-97.3819955, 35.4515556], [-97.3815846, 35.4514348], [-97.3815262, 35.4515632], [-97.381686, 35.4516108], [-97.3819383, 35.4516859]]]}, "properties": {"osm_id": 491011328, "building": "yes", "name": "", "height": null, "height_m": null, "levels": null, "tract_id": "40109107703", "tract_name": "1077.03", "tags": {"building": "yes"}}}, {"type": "Feature", "geometry": {"type": "Polygon", "coordinates": [[[-97.3807616, 35.4515745], [-97.3809446, 35.451577], [-97.3809507, 35.451428], [-97.3807677, 35.4514247], [-97.3807647, 35.4514553], [-97.380724, 35.4514536], [-97.380722, 35.4515629], [-97.3807626, 35.4515638], [-97.3807616, 35.4515745]]]}, "properties": {"osm_id": 491011329, "building": "yes", "name": "", "height": null, "height_m": null, "levels": null, "tract_id": "40109107703", "tract_name": "1077.03", "tags": {"building": "yes"}}}, {"type": "Feature", "geometry": {"type": "Polygon", "coordinates": [[[-97.3807823, 35.4512247], [-97.3811135, 35.4512323], [-97.3811197, 35.4511482], [-97.3809502, 35.4511457], [-97.3809541, 35.4510591], [-97.3807854, 35.4510578], [-97.3807823, 35.4512247]]]}, "properties": {"osm_id": 491011330, "building": "yes", "name": "", "height": null, "height_m": null, "levels": null, "tract_id": "40109107703", "tract_name": "1077.03", "tags": {"building": "yes"}}}, {"type": "Feature", "geometry": {"type": "Polygon", "coordinates": [[[-97.3812129, 35.4514412], [-97.3812156, 35.4513437], [-97.3811108, 35.4513418], [-97.3811082, 35.4514393], [-97.3812129, 35.4514412]]]}, "properties": {"osm_id": 491011331, "building": "yes", "name": "", "height": null, "height_m": null, "levels": null, "tract_id": "40109107703", "tract_name": "1077.03", "tags": {"addr:city": "Midwest City", "addr:housenumber": "1545", "addr:postcode": "73110", "addr:state": "OK", "addr:street": "Republic Circle", "building": "yes"}}}, {"type": "Feature", "geometry": {"type": "Polygon", "coordinates": [[[-97.3798132, 35.4516687], [-97.3800291, 35.4516701], [-97.3800291, 35.4515476], [-97.38016, 35.4515483], [-97.38016, 35.4513746], [-97.3797309, 35.4513739], [-97.3797309, 35.4515461], [-97.379815, 35.4515476], [-97.3798132, 35.4516687]]]}, "properties": {"osm_id": 491011332, "building": "yes", "name": "", "height": null, "height_m": null, "levels": null, "tract_id": "40109107703", "tract_name": "1077.03", "tags": {"building": "yes"}}}, {"type": "Feature", "geometry": {"type": "Polygon", "coordinates": [[[-97.3719233, 35.463587], [-97.3718533, 35.4635867], [-97.371854, 35.4635004], [-97.371924, 35.4635008], [-97.3719234, 35.4635775], [-97.3719233, 35.463587]]]}, "properties": {"osm_id": 491251256, "building": "yes", "name": "", "height": null, "height_m": null, "levels": null, "tract_id": "40109107703", "tract_name": "1077.03", "tags": {"building": "yes"}}}, {"type": "Feature", "geometry": {"type": "Polygon", "coordinates": [[[-97.3727624, 35.4535739], [-97.3727499, 35.4530739], [-97.3720782, 35.4530851], [-97.3720907, 35.453585], [-97.3727624, 35.4535739]]]}, "properties": {"osm_id": 491252309, "building": "yes", "name": "LabCorp", "height": null, "height_m": null, "levels": null, "tract_id": "40109107703", "tract_name": "1077.03", "tags": {"addr:city": "Midwest City", "addr:housenumber": "1201", "addr:postcode": "73130", "addr:state": "OK", "addr:street": "South Douglas Boulevard", "brand": "LabCorp", "brand:wikidata": "Q6466630", "building": "yes", "healthcare": "laboratory", "name": "LabCorp"}}}, {"type": "Feature", "geometry": {"type": "Polygon", "coordinates": [[[-97.3794551, 35.4570376], [-97.3795588, 35.4569466], [-97.3794802, 35.4568873], [-97.3794686, 35.4568975], [-97.3793829, 35.4568326], [-97.3793541, 35.4568579], [-97.3793822, 35.4568791], [-97.379319, 35.4569346], [-97.3794551, 35.4570376]]]}, "properties": {"osm_id": 491253478, "building": "yes", "name": "Midwest City Soccer Club", "height": null, "height_m": null, "levels": null, "tract_id": "40109107703", "tract_name": "1077.03", "tags": {"addr:city": "Midwest City", "addr:housenumber": "1799", "addr:postcode": "73110", "addr:state": "OK", "addr:street": "National Boulevard", "building": "yes", "name": "Midwest City Soccer Club", "website": "https://mwcsoccer.net/"}}}, {"type": "Feature", "geometry": {"type": "Polygon", "coordinates": [[[-97.3791409, 35.4559682], [-97.379214, 35.4558949], [-97.3791412, 35.4558467], [-97.3790681, 35.45592], [-97.3791409, 35.4559682]]]}, "properties": {"osm_id": 491253479, "building": "yes", "name": "", "height": null, "height_m": null, "levels": null, "tract_id": "40109107703", "tract_name": "1077.03", "tags": {"building": "yes"}}}, {"type": "Feature", "geometry": {"type": "Polygon", "coordinates": [[[-97.3805032, 35.4569938], [-97.3805404, 35.4569646], [-97.3805191, 35.4569435], [-97.3804806, 35.4569765], [-97.3805032, 35.4569938]]]}, "properties": {"osm_id": 491253482, "building": "yes", "name": "Referee Building", "height": null, "height_m": null, "levels": null, "tract_id": "40109107703", "tract_name": "1077.03", "tags": {"addr:city": "Midwest City", "addr:postcode": "73110", "addr:state": "OK", "building": "yes", "name": "Referee Building"}}}, {"type": "Feature", "geometry": {"type": "Polygon", "coordinates": [[[-97.379235, 35.4568057], [-97.3792803, 35.4567641], [-97.379203, 35.4567084], [-97.3791578, 35.4567501], [-97.379235, 35.4568057]]]}, "properties": {"osm_id": 491253483, "building": "yes", "name": "", "height": null, "height_m": null, "levels": null, "tract_id": "40109107703", "tract_name": "1077.03", "tags": {"building": "yes"}}}, {"type": "Feature", "geometry": {"type": "Polygon", "coordinates": [[[-97.3715415, 35.4503729], [-97.3715387, 35.44998], [-97.3712648, 35.4499812], [-97.3712675, 35.4503742], [-97.3715415, 35.4503729]]]}, "properties": {"osm_id": 491839272, "building": "commercial", "name": "", "height": null, "height_m": null, "levels": null, "tract_id": "40109107703", "tract_name": "1077.03", "tags": {"building": "commercial"}}}, {"type": "Feature", "geometry": {"type": "Polygon", "coordinates": [[[-97.3715614, 35.4509791], [-97.3712943, 35.4509773], [-97.3712982, 35.4505931], [-97.3717365, 35.450596], [-97.3717342, 35.4508205], [-97.3715631, 35.4508193], [-97.3715614, 35.4509791]]]}, "properties": {"osm_id": 491839273, "building": "commercial", "name": "", "height": null, "height_m": null, "levels": null, "tract_id": "40109107703", "tract_name": "1077.03", "tags": {"building": "commercial"}}}, {"type": "Feature", "geometry": {"type": "Polygon", "coordinates": [[[-97.3712879, 35.4510468], [-97.3712876, 35.451429], [-97.3715045, 35.4514291], [-97.3715044, 35.4515452], [-97.3712872, 35.451545], [-97.371287, 35.4517602], [-97.37173, 35.4517605], [-97.3717305, 35.4512222], [-97.3715652, 35.4512221], [-97.3715653, 35.4510469], [-97.3712879, 35.4510468]]]}, "properties": {"osm_id": 491839274, "building": "commercial", "name": "", "height": null, "height_m": null, "levels": null, "tract_id": "40109107703", "tract_name": "1077.03", "tags": {"building": "commercial"}}}, {"type": "Feature", "geometry": {"type": "Polygon", "coordinates": [[[-97.3704417, 35.4560529], [-97.3702575, 35.4560539], [-97.3702581, 35.4561211], [-97.3701702, 35.4561215], [-97.3701697, 35.4560538], [-97.3700406, 35.4560545], [-97.3700403, 35.45602], [-97.3698835, 35.4560209], [-97.3698829, 35.4559407], [-97.3697761, 35.4559413], [-97.3697756, 35.4558722], [-97.3698773, 35.4558717], [-97.3698757, 35.4556665], [-97.3704524, 35.4556635], [-97.3704865, 35.4557643], [-97.3705164, 35.4557643], [-97.3705164, 35.4558147], [-97.3705676, 35.4558147], [-97.3705676, 35.4559034], [-97.3705164, 35.4559034], [-97.3705164, 35.4559364], [-97.3704908, 35.4559364], [-97.3704417, 35.4560529]]]}, "properties": {"osm_id": 491841148, "building": "yes", "name": "", "height": null, "height_m": null, "levels": null, "tract_id": "40109107703", "tract_name": "1077.03", "tags": {"amenity": "place_of_worship", "building": "yes", "religion": "christian"}}}, {"type": "Feature", "geometry": {"type": "Polygon", "coordinates": [[[-97.3721832, 35.4557222], [-97.3720401, 35.455849], [-97.3720163, 35.4558326], [-97.3719598, 35.455851], [-97.3719573, 35.4558827], [-97.3714918, 35.4558796], [-97.3714805, 35.4558755], [-97.3714805, 35.4558071], [-97.3714968, 35.4557948], [-97.3714993, 35.4556773], [-97.3715884, 35.4555771], [-97.3719548, 35.4555761], [-97.3719786, 35.4555638], [-97.3720602, 35.4555638], [-97.3721543, 35.455479], [-97.3721855, 35.4555022], [-97.3721832, 35.4557222]]]}, "properties": {"osm_id": 491841166, "building": "yes", "name": "AllianceHealth: Douglas Family Practice", "height": null, "height_m": null, "levels": null, "tract_id": "40109107703", "tract_name": "1077.03", "tags": {"amenity": "doctors", "building": "yes", "healthcare": "doctor", "name": "AllianceHealth: Douglas Family Practice"}}}, {"type": "Feature", "geometry": {"type": "Polygon", "coordinates": [[[-97.3693137, 35.4557313], [-97.3690449, 35.4557347], [-97.3690483, 35.455912], [-97.3689533, 35.4559132], [-97.3689564, 35.4560734], [-97.3693278, 35.4560687], [-97.3693249, 35.4559187], [-97.3694012, 35.4559177], [-97.3693996, 35.4558359], [-97.3693158, 35.4558369], [-97.3693137, 35.4557313]]]}, "properties": {"osm_id": 491841167, "building": "yes", "name": "", "height": null, "height_m": null, "levels": null, "tract_id": "40109107703", "tract_name": "1077.03", "tags": {"building": "yes"}}}, {"type": "Feature", "geometry": {"type": "Polygon", "coordinates": [[[-97.3698045, 35.4548748], [-97.3697945, 35.4539985], [-97.3698874, 35.4539471], [-97.3705277, 35.4539422], [-97.3705295, 35.4540995], [-97.3700029, 35.4541035], [-97.3700117, 35.4548732], [-97.3698045, 35.4548748]]]}, "properties": {"osm_id": 491841168, "building": "yes", "name": "", "height": null, "height_m": null, "levels": null, "tract_id": "40109107703", "tract_name": "1077.03", "tags": {"building": "yes"}}}, {"type": "Feature", "geometry": {"type": "Polygon", "coordinates": [[[-97.3715835, 35.454042], [-97.3715844, 35.4538162], [-97.371231, 35.4538153], [-97.3712301, 35.4540411], [-97.3715835, 35.454042]]]}, "properties": {"osm_id": 491841174, "building": "yes", "name": "", "height": null, "height_m": null, "levels": null, "tract_id": "40109107703", "tract_name": "1077.03", "tags": {"building": "yes"}}}, {"type": "Feature", "geometry": {"type": "Polygon", "coordinates": [[[-97.371996, 35.454071], [-97.3716398, 35.4540702], [-97.3716407, 35.4538135], [-97.3719969, 35.4538143], [-97.371996, 35.454071]]]}, "properties": {"osm_id": 491841175, "building": "yes", "name": "", "height": null, "height_m": null, "levels": null, "tract_id": "40109107703", "tract_name": "1077.03", "tags": {"building": "yes"}}}, {"type": "Feature", "geometry": {"type": "Polygon", "coordinates": [[[-97.3728047, 35.4539827], [-97.3723943, 35.4539823], [-97.3723949, 35.4536452], [-97.3728052, 35.4536457], [-97.3728047, 35.4539827]]]}, "properties": {"osm_id": 491841176, "building": "yes", "name": "", "height": null, "height_m": null, "levels": null, "tract_id": "40109107703", "tract_name": "1077.03", "tags": {"building": "yes"}}}, {"type": "Feature", "geometry": {"type": "Polygon", "coordinates": [[[-97.3674916, 35.4505596], [-97.3675032, 35.4500332], [-97.3671205, 35.4500275], [-97.3671137, 35.4503357], [-97.3671749, 35.4503366], [-97.36717, 35.4505548], [-97.3674916, 35.4505596]]]}, "properties": {"osm_id": 491841177, "building": "yes", "name": "", "height": null, "height_m": null, "levels": null, "tract_id": "40109107703", "tract_name": "1077.03", "tags": {"building": "yes"}}}, {"type": "Feature", "geometry": {"type": "Polygon", "coordinates": [[[-97.3882999, 35.462065], [-97.3879233, 35.462065], [-97.3879233, 35.4620224], [-97.3879556, 35.4620224], [-97.3879556, 35.4619615], [-97.3882999, 35.4619615], [-97.3882999, 35.462065]]]}, "properties": {"osm_id": 492127573, "building": "yes", "name": "", "height": null, "height_m": null, "levels": null, "tract_id": "40109107703", "tract_name": "1077.03", "tags": {"amenity": "restaurant", "building": "yes"}}}, {"type": "Feature", "geometry": {"type": "Polygon", "coordinates": [[[-97.38829, 35.4614974], [-97.3879672, 35.4614983], [-97.3879666, 35.4613643], [-97.3879438, 35.4613644], [-97.3879436, 35.4613177], [-97.3881837, 35.461317], [-97.3881835, 35.4612811], [-97.3882463, 35.4612809], [-97.3882464, 35.4613116], [-97.3882891, 35.4613115], [-97.38829, 35.4614974]]]}, "properties": {"osm_id": 492127574, "building": "yes", "name": "", "height": null, "height_m": null, "levels": null, "tract_id": "40109107703", "tract_name": "1077.03", "tags": {"amenity": "restaurant", "building": "yes"}}}, {"type": "Feature", "geometry": {"type": "Polygon", "coordinates": [[[-97.3536071, 35.4520029], [-97.3536053, 35.4519531], [-97.3537442, 35.451951], [-97.3537407, 35.4518183], [-97.3536947, 35.4518176], [-97.3536956, 35.4516958], [-97.3536416, 35.4516958], [-97.3536398, 35.4516172], [-97.353654, 35.4516172], [-97.3536513, 35.4515654], [-97.3536903, 35.4515646], [-97.3536903, 35.4515423], [-97.3538371, 35.4515423], [-97.353838, 35.4515603], [-97.3539389, 35.4515603], [-97.3539407, 35.4517174], [-97.3539044, 35.4517167], [-97.3539044, 35.451814], [-97.3538274, 35.4518147], [-97.3538281, 35.4518669], [-97.3538292, 35.451951], [-97.3539486, 35.451951], [-97.3539469, 35.4520007], [-97.3537942, 35.4520017], [-97.3536071, 35.4520029]]]}, "properties": {"osm_id": 492463202, "building": "yes", "name": "", "height": null, "height_m": null, "levels": null, "tract_id": "40109107703", "tract_name": "1077.03", "tags": {"building": "yes"}}}, {"type": "Feature", "geometry": {"type": "Polygon", "coordinates": [[[-97.3535274, 35.4539858], [-97.3535309, 35.4538413], [-97.3537551, 35.4538441], [-97.3537562, 35.4539906], [-97.3535274, 35.4539858]]]}, "properties": {"osm_id": 492463205, "building": "yes", "name": "", "height": null, "height_m": null, "levels": null, "tract_id": "40109107703", "tract_name": "1077.03", "tags": {"building": "yes"}}}, {"type": "Feature", "geometry": {"type": "Polygon", "coordinates": [[[-97.353685, 35.454604], [-97.3536873, 35.4544005], [-97.3536371, 35.4543995], [-97.3536383, 35.4543615], [-97.3535075, 35.4543586], [-97.3535075, 35.4542017], [-97.3538239, 35.4542027], [-97.3538251, 35.454255], [-97.3539227, 35.4542535], [-97.35395, 35.4542531], [-97.3539489, 35.4542074], [-97.3543003, 35.4542093], [-97.3543003, 35.4543482], [-97.3539477, 35.4543501], [-97.3539465, 35.4543092], [-97.3539233, 35.454309], [-97.3538309, 35.4543082], [-97.3538309, 35.454604], [-97.353685, 35.454604]]]}, "properties": {"osm_id": 492463207, "building": "yes", "name": "", "height": null, "height_m": null, "levels": null, "tract_id": "40109107703", "tract_name": "1077.03", "tags": {"amenity": "place_of_worship", "building": "yes", "religion": "christian"}}}, {"type": "Feature", "geometry": {"type": "Polygon", "coordinates": [[[-97.3536621, 35.4553394], [-97.3536621, 35.4552765], [-97.3536255, 35.4552765], [-97.3536255, 35.4552351], [-97.3536662, 35.4552359], [-97.3536652, 35.4551639], [-97.3537607, 35.455163], [-97.3537607, 35.4551771], [-97.3539091, 35.4551771], [-97.3539081, 35.4552881], [-97.3539599, 35.4552881], [-97.3539599, 35.4553295], [-97.3539355, 35.4553295], [-97.3539365, 35.4553452], [-97.3536621, 35.4553394]]]}, "properties": {"osm_id": 492463210, "building": "yes", "name": "", "height": null, "height_m": null, "levels": null, "tract_id": "40109107703", "tract_name": "1077.03", "tags": {"building": "yes"}}}, {"type": "Feature", "geometry": {"type": "Polygon", "coordinates": [[[-97.3534442, 35.4638354], [-97.3534454, 35.4636308], [-97.3535741, 35.463633], [-97.3535734, 35.4636778], [-97.3536278, 35.4636789], [-97.3536264, 35.4638302], [-97.3535512, 35.4638284], [-97.3535513, 35.4638378], [-97.3534442, 35.4638354]]]}, "properties": {"osm_id": 492463224, "building": "yes", "name": "", "height": null, "height_m": null, "levels": null, "tract_id": "40109107703", "tract_name": "1077.03", "tags": {"building": "yes"}}}, {"type": "Feature", "geometry": {"type": "Polygon", "coordinates": [[[-97.3537869, 35.4636306], [-97.3537881, 35.4634889], [-97.3540578, 35.4634936], [-97.3540584, 35.4636339], [-97.3537869, 35.4636306]]]}, "properties": {"osm_id": 492463226, "building": "yes", "name": "", "height": null, "height_m": null, "levels": null, "tract_id": "40109107703", "tract_name": "1077.03", "tags": {"building": "yes"}}}, {"type": "Feature", "geometry": {"type": "Polygon", "coordinates": [[[-97.3560802, 35.4638363], [-97.3560813, 35.4637377], [-97.3559227, 35.4637377], [-97.3559217, 35.4638363], [-97.3560802, 35.4638363]]]}, "properties": {"osm_id": 492463229, "building": "yes", "name": "", "height": null, "height_m": null, "levels": null, "tract_id": "40109107703", "tract_name": "1077.03", "tags": {"building": "yes"}}}, {"type": "Feature", "geometry": {"type": "Polygon", "coordinates": [[[-97.3554074, 35.4637411], [-97.3554044, 35.4636492], [-97.3555771, 35.4636483], [-97.3555792, 35.4637435], [-97.3554074, 35.4637411]]]}, "properties": {"osm_id": 492463230, "building": "yes", "name": "", "height": null, "height_m": null, "levels": null, "tract_id": "40109107703", "tract_name": "1077.03", "tags": {"building": "yes"}}}, {"type": "Feature", "geometry": {"type": "Polygon", "coordinates": [[[-97.3829641, 35.4588723], [-97.3827146, 35.4586855], [-97.3827822, 35.4586255], [-97.3827438, 35.4585969], [-97.3826785, 35.458655], [-97.3821339, 35.4582496], [-97.3820983, 35.4582814], [-97.3820217, 35.4582247], [-97.3813634, 35.4588147], [-97.3814984, 35.4589147], [-97.3820642, 35.4584072], [-97.3824931, 35.4587243], [-97.3823445, 35.4588576], [-97.3821409, 35.458707], [-97.3820596, 35.4587799], [-97.3820931, 35.4587944], [-97.3820326, 35.4588474], [-97.3821924, 35.4589684], [-97.3821081, 35.4590422], [-97.3824529, 35.4593032], [-97.3826069, 35.4591681], [-97.3824417, 35.4590431], [-97.3824708, 35.4590175], [-97.3824452, 35.4589982], [-97.3826193, 35.458845], [-97.3826351, 35.458857], [-97.3826783, 35.4588188], [-97.3828658, 35.4589594], [-97.3829641, 35.4588723]]]}, "properties": {"osm_id": 493340723, "building": "school", "name": "", "height": null, "height_m": null, "levels": null, "tract_id": "40109107703", "tract_name": "1077.03", "tags": {"building": "school"}}}, {"type": "Feature", "geometry": {"type": "Polygon", "coordinates": [[[-97.3693292, 35.4636659], [-97.3693292, 35.4632875], [-97.3692708, 35.4632875], [-97.3692708, 35.46323], [-97.3690665, 35.46323], [-97.3690664, 35.4632934], [-97.3690032, 35.4632934], [-97.3690031, 35.463666], [-97.3690835, 35.463666], [-97.3690835, 35.463783], [-97.3692271, 35.463783], [-97.369227, 35.4636659], [-97.3693292, 35.4636659]]]}, "properties": {"osm_id": 493340734, "building": "yes", "name": "", "height": null, "height_m": null, "levels": null, "tract_id": "40109107703", "tract_name": "1077.03", "tags": {"building": "yes"}}}, {"type": "Feature", "geometry": {"type": "Polygon", "coordinates": [[[-97.3705596, 35.4538578], [-97.3697399, 35.4538479], [-97.3697316, 35.4534451], [-97.3699038, 35.4534524], [-97.3699018, 35.4537083], [-97.3705614, 35.4537116], [-97.3705596, 35.4538578]]]}, "properties": {"osm_id": 493547036, "building": "commercial", "name": "", "height": null, "height_m": null, "levels": null, "tract_id": "40109107703", "tract_name": "1077.03", "tags": {"building": "commercial"}}}, {"type": "Feature", "geometry": {"type": "Polygon", "coordinates": [[[-97.3812473, 35.4638251], [-97.3811731, 35.4638242], [-97.3811742, 35.4637589], [-97.3812484, 35.4637598], [-97.3812473, 35.4638251]]]}, "properties": {"osm_id": 493547042, "building": "roof", "name": "Small Dogs", "height": null, "height_m": null, "levels": null, "tract_id": "40109107703", "tract_name": "1077.03", "tags": {"building": "roof", "name": "Small Dogs"}}}, {"type": "Feature", "geometry": {"type": "Polygon", "coordinates": [[[-97.3812552, 35.463621], [-97.3812538, 35.4636842], [-97.3811789, 35.4636823], [-97.3811803, 35.4636189], [-97.3812552, 35.463621]]]}, "properties": {"osm_id": 493547043, "building": "roof", "name": "Large Dogs", "height": null, "height_m": null, "levels": null, "tract_id": "40109107703", "tract_name": "1077.03", "tags": {"building": "roof", "name": "Large Dogs"}}}, {"type": "Feature", "geometry": {"type": "Polygon", "coordinates": [[[-97.3757444, 35.463503], [-97.3756536, 35.4635036], [-97.3756524, 35.4633744], [-97.3757432, 35.4633738], [-97.3757444, 35.463503]]]}, "properties": {"osm_id": 493547047, "building": "yes", "name": "", "height": null, "height_m": null, "levels": null, "tract_id": "40109107703", "tract_name": "1077.03", "tags": {"building": "yes"}}}, {"type": "Feature", "geometry": {"type": "Polygon", "coordinates": [[[-97.377132, 35.4599746], [-97.3771449, 35.4599276], [-97.3771143, 35.459922], [-97.3771013, 35.459969], [-97.377132, 35.4599746]]]}, "properties": {"osm_id": 495770543, "building": "yes", "name": "", "height": null, "height_m": null, "levels": null, "tract_id": "40109107703", "tract_name": "1077.03", "tags": {"building": "yes"}}}, {"type": "Feature", "geometry": {"type": "Polygon", "coordinates": [[[-97.3776647, 35.4600895], [-97.3776755, 35.460061], [-97.3776236, 35.460048], [-97.3776129, 35.4600765], [-97.3776647, 35.4600895]]]}, "properties": {"osm_id": 495770544, "building": "yes", "name": "", "height": null, "height_m": null, "levels": null, "tract_id": "40109107703", "tract_name": "1077.03", "tags": {"building": "yes"}}}, {"type": "Feature", "geometry": {"type": "Polygon", "coordinates": [[[-97.373317, 35.4501817], [-97.3733222, 35.4501507], [-97.373272, 35.4501452], [-97.3732669, 35.4501762], [-97.373317, 35.4501817]]]}, "properties": {"osm_id": 495771684, "building": "yes", "name": "", "height": null, "height_m": null, "levels": null, "tract_id": "40109107703", "tract_name": "1077.03", "tags": {"building": "yes"}}}, {"type": "Feature", "geometry": {"type": "Polygon", "coordinates": [[[-97.3774999, 35.4511325], [-97.3774511, 35.4511637], [-97.3774288, 35.4511406], [-97.3774776, 35.4511093], [-97.3774999, 35.4511325]]]}, "properties": {"osm_id": 495771692, "building": "yes", "name": "", "height": null, "height_m": null, "levels": null, "tract_id": "40109107703", "tract_name": "1077.03", "tags": {"building": "yes"}}}, {"type": "Feature", "geometry": {"type": "Polygon", "coordinates": [[[-97.3778511, 35.450966], [-97.3778053, 35.4509765], [-97.3777941, 35.4509442], [-97.3778399, 35.4509337], [-97.3778511, 35.450966]]]}, "properties": {"osm_id": 495771693, "building": "yes", "name": "", "height": null, "height_m": null, "levels": null, "tract_id": "40109107703", "tract_name": "1077.03", "tags": {"building": "yes"}}}, {"type": "Feature", "geometry": {"type": "Polygon", "coordinates": [[[-97.3753781, 35.4538535], [-97.3753904, 35.4538154], [-97.3753503, 35.4538068], [-97.375338, 35.4538448], [-97.3753781, 35.4538535]]]}, "properties": {"osm_id": 495772136, "building": "yes", "name": "", "height": null, "height_m": null, "levels": null, "tract_id": "40109107703", "tract_name": "1077.03", "tags": {"building": "yes"}}}, {"type": "Feature", "geometry": {"type": "Polygon", "coordinates": [[[-97.3754378, 35.4499928], [-97.3753923, 35.449998], [-97.3753862, 35.4499621], [-97.3754317, 35.449957], [-97.3754378, 35.4499928]]]}, "properties": {"osm_id": 495772144, "building": "yes", "name": "", "height": null, "height_m": null, "levels": null, "tract_id": "40109107703", "tract_name": "1077.03", "tags": {"building": "yes"}}}, {"type": "Feature", "geometry": {"type": "Polygon", "coordinates": [[[-97.3729191, 35.4574962], [-97.3728177, 35.4576391], [-97.3726256, 35.4575486], [-97.3727042, 35.4574378], [-97.3727618, 35.457465], [-97.3727846, 35.4574328], [-97.3728345, 35.4574579], [-97.3728714, 35.4574757], [-97.3729191, 35.4574962]]]}, "properties": {"osm_id": 495773676, "building": "yes", "name": "", "height": null, "height_m": null, "levels": null, "tract_id": "40109107703", "tract_name": "1077.03", "tags": {"building": "yes"}}}, {"type": "Feature", "geometry": {"type": "Polygon", "coordinates": [[[-97.3730118, 35.4569845], [-97.3728488, 35.4572092], [-97.3730272, 35.457295], [-97.3729048, 35.4574639], [-97.3728864, 35.4574551], [-97.3728714, 35.4574757], [-97.3728345, 35.4574579], [-97.3728441, 35.4574446], [-97.3728509, 35.4574352], [-97.3727182, 35.4573714], [-97.372779, 35.4572876], [-97.3727567, 35.4572768], [-97.3725986, 35.4572008], [-97.3726017, 35.4571966], [-97.3726546, 35.4571236], [-97.3726595, 35.4571169], [-97.3728156, 35.457192], [-97.3728211, 35.4571843], [-97.3728299, 35.4571722], [-97.3728441, 35.4571526], [-97.3727273, 35.4570997], [-97.3728647, 35.456912], [-97.3730118, 35.4569845]]]}, "properties": {"osm_id": 495773677, "building": "yes", "name": "", "height": null, "height_m": null, "levels": null, "tract_id": "40109107703", "tract_name": "1077.03", "tags": {"building": "yes", "golf": "clubhouse"}}}, {"type": "Feature", "geometry": {"type": "Polygon", "coordinates": [[[-97.3692966, 35.4513961], [-97.3692963, 35.4513696], [-97.3691939, 35.4513703], [-97.3691931, 35.4512963], [-97.3689604, 35.451298], [-97.36896, 35.4512638], [-97.3688768, 35.4512645], [-97.368874, 35.4510432], [-97.3689672, 35.4510424], [-97.3689663, 35.450977], [-97.3688736, 35.4509778], [-97.3688702, 35.4507447], [-97.3689631, 35.4507438], [-97.3689624, 35.4506943], [-97.368879, 35.4506951], [-97.3688739, 35.4503775], [-97.3693692, 35.4503723], [-97.3693762, 35.4503953], [-97.3697185, 35.4503968], [-97.3697136, 35.4511534], [-97.3695524, 35.4511527], [-97.3695508, 35.4513949], [-97.3692966, 35.4513961]]]}, "properties": {"osm_id": 495775530, "building": "school", "name": "", "height": null, "height_m": null, "levels": null, "tract_id": "40109107703", "tract_name": "1077.03", "tags": {"building": "school"}}}, {"type": "Feature", "geometry": {"type": "Polygon", "coordinates": [[[-97.3704208, 35.4530556], [-97.3700313, 35.4530516], [-97.3700353, 35.4527928], [-97.3704337, 35.4527969], [-97.3704325, 35.4528737], [-97.3704979, 35.4528743], [-97.3704964, 35.4529727], [-97.3704221, 35.452972], [-97.3704208, 35.4530556]]]}, "properties": {"osm_id": 495775533, "building": "yes", "name": "", "height": null, "height_m": null, "levels": null, "tract_id": "40109107703", "tract_name": "1077.03", "tags": {"building": "yes"}}}, {"type": "Feature", "geometry": {"type": "Polygon", "coordinates": [[[-97.3680358, 35.4505712], [-97.3680368, 35.4502259], [-97.3678625, 35.4502255], [-97.3678896, 35.4502015], [-97.3680643, 35.4502022], [-97.368213, 35.4502022], [-97.368213, 35.4498951], [-97.3678163, 35.4498951], [-97.3678163, 35.4501498], [-97.3678029, 35.4501497], [-97.3678032, 35.4500272], [-97.3676311, 35.450027], [-97.3676298, 35.4505775], [-97.3678199, 35.4505778], [-97.3678205, 35.4503557], [-97.367865, 35.4503558], [-97.3678644, 35.4505708], [-97.3680358, 35.4505712]]]}, "properties": {"osm_id": 495776666, "building": "yes", "name": "", "height": null, "height_m": null, "levels": null, "tract_id": "40109107703", "tract_name": "1077.03", "tags": {"amenity": "place_of_worship", "building": "yes", "religion": "christian"}}}, {"type": "Feature", "geometry": {"type": "Polygon", "coordinates": [[[-97.3880702, 35.4569577], [-97.3876527, 35.456958], [-97.3876525, 35.456823], [-97.3879362, 35.4568228], [-97.387936, 35.456687], [-97.3878782, 35.4566871], [-97.3878781, 35.4566515], [-97.3877641, 35.4566516], [-97.387764, 35.456527], [-97.3880855, 35.4565268], [-97.3880857, 35.4566579], [-97.3881489, 35.4566579], [-97.3881489, 35.4566863], [-97.3880824, 35.4566864], [-97.3880825, 35.4567221], [-97.3880261, 35.4567222], [-97.3880262, 35.4568463], [-97.3880701, 35.4568463], [-97.3880702, 35.4569577]]]}, "properties": {"osm_id": 495790832, "building": "yes", "name": "St. Christopher's Episcopal Church", "height": null, "height_m": null, "levels": null, "tract_id": "40109107703", "tract_name": "1077.03", "tags": {"amenity": "place_of_worship", "building": "yes", "denomination": "episcopal", "name": "St. Christopher's Episcopal Church", "religion": "christian"}}}, {"type": "Feature", "geometry": {"type": "Polygon", "coordinates": [[[-97.3881724, 35.4539519], [-97.3878811, 35.4539508], [-97.3878818, 35.453828], [-97.3880751, 35.4538288], [-97.3880749, 35.4538669], [-97.388206, 35.4538674], [-97.3882056, 35.4539364], [-97.3881725, 35.4539362], [-97.3881724, 35.4539519]]]}, "properties": {"osm_id": 495790839, "building": "yes", "name": "First Church of Christ, Scientist", "height": null, "height_m": null, "levels": null, "tract_id": "40109107703", "tract_name": "1077.03", "tags": {"amenity": "place_of_worship", "building": "yes", "denomination": "christ_scientist", "name": "First Church of Christ, Scientist", "religion": "christian"}}}, {"type": "Feature", "geometry": {"type": "Polygon", "coordinates": [[[-97.3880477, 35.4549693], [-97.3876036, 35.4549717], [-97.3876042, 35.4550458], [-97.3873736, 35.4550471], [-97.3873711, 35.4547345], [-97.3874116, 35.4547343], [-97.387409, 35.4544181], [-97.3877702, 35.4544162], [-97.3877709, 35.4545023], [-97.3878567, 35.4545018], [-97.3878571, 35.4545535], [-97.3879518, 35.454553], [-97.3879534, 35.4547535], [-97.3878952, 35.4547538], [-97.3878954, 35.4547683], [-97.3878213, 35.4547687], [-97.3878221, 35.4548595], [-97.3880468, 35.4548583], [-97.3880477, 35.4549693]]]}, "properties": {"osm_id": 495790840, "building": "yes", "name": "Country Estates Baptist Church", "height": null, "height_m": null, "levels": null, "tract_id": "40109107703", "tract_name": "1077.03", "tags": {"amenity": "place_of_worship", "building": "yes", "denomination": "baptist", "ele": "372", "gnis:feature_id": "1801507", "name": "Country Estates Baptist Church", "religion": "christian"}}}, {"type": "Feature", "geometry": {"type": "Polygon", "coordinates": [[[-97.3584379, 35.4503653], [-97.358298, 35.4503723], [-97.3582967, 35.450354], [-97.3581245, 35.4503625], [-97.3581176, 35.4502695], [-97.3583218, 35.4502594], [-97.3583232, 35.4502777], [-97.3584311, 35.4502724], [-97.3584379, 35.4503653]]]}, "properties": {"osm_id": 495792491, "building": "yes", "name": "", "height": null, "height_m": null, "levels": null, "tract_id": "40109107703", "tract_name": "1077.03", "tags": {"building": "yes", "shop": "yes"}}}, {"type": "Feature", "geometry": {"type": "Polygon", "coordinates": [[[-97.3656659, 35.4505778], [-97.3656675, 35.4502758], [-97.3654488, 35.450275], [-97.3654471, 35.450577], [-97.3656659, 35.4505778]]]}, "properties": {"osm_id": 498720542, "building": "yes", "name": "", "height": null, "height_m": null, "levels": null, "tract_id": "40109107703", "tract_name": "1077.03", "tags": {"building": "yes"}}}, {"type": "Feature", "geometry": {"type": "Polygon", "coordinates": [[[-97.3657932, 35.4502343], [-97.3654348, 35.4502306], [-97.3654385, 35.4499906], [-97.3655889, 35.4499921], [-97.3655875, 35.4500867], [-97.3657955, 35.4500888], [-97.3657932, 35.4502343]]]}, "properties": {"osm_id": 498720543, "building": "yes", "name": "", "height": null, "height_m": null, "levels": null, "tract_id": "40109107703", "tract_name": "1077.03", "tags": {"amenity": "place_of_worship", "building": "yes", "religion": "christian"}}}, {"type": "Feature", "geometry": {"type": "Polygon", "coordinates": [[[-97.3666159, 35.4500179], [-97.3666205, 35.4503214], [-97.3664715, 35.4503229], [-97.3664668, 35.4500194], [-97.3666159, 35.4500179]]]}, "properties": {"osm_id": 498720545, "building": "yes", "name": "", "height": null, "height_m": null, "levels": null, "tract_id": "40109107703", "tract_name": "1077.03", "tags": {"building": "yes"}}}, {"type": "Feature", "geometry": {"type": "Polygon", "coordinates": [[[-97.3655726, 35.462934], [-97.365574, 35.4627511], [-97.3652517, 35.4627495], [-97.3652519, 35.4627168], [-97.3651206, 35.4627161], [-97.3651212, 35.4626415], [-97.3653852, 35.4626429], [-97.3653856, 35.4625952], [-97.3654192, 35.4625954], [-97.3654201, 35.4624924], [-97.3653936, 35.4624922], [-97.3653941, 35.4624415], [-97.3651633, 35.4624401], [-97.365163, 35.4624807], [-97.3650858, 35.4624802], [-97.3650862, 35.4624445], [-97.3649756, 35.4624438], [-97.3649754, 35.4624708], [-97.3648492, 35.46247], [-97.3648495, 35.4624425], [-97.3647358, 35.4624418], [-97.3647355, 35.4624674], [-97.3645331, 35.4624661], [-97.3645313, 35.4626541], [-97.3648116, 35.4626559], [-97.3648108, 35.462744], [-97.3645327, 35.4627421], [-97.3645309, 35.4629307], [-97.3647351, 35.462932], [-97.364735, 35.4629484], [-97.3650253, 35.4629502], [-97.3650254, 35.4629391], [-97.3651253, 35.4629396], [-97.3651251, 35.4629602], [-97.3652426, 35.4629607], [-97.3652428, 35.4629324], [-97.3655726, 35.462934]]]}, "properties": {"osm_id": 499039192, "building": "yes", "name": "Arbor House Assisted Living", "height": null, "height_m": null, "levels": null, "tract_id": "40109107703", "tract_name": "1077.03", "tags": {"amenity": "social_facility", "building": "yes", "name": "Arbor House Assisted Living", "social_facility": "nursing_home", "social_facility:for": "senior"}}}, {"type": "Feature", "geometry": {"type": "Polygon", "coordinates": [[[-97.3852046, 35.4500666], [-97.3852239, 35.450016], [-97.3852579, 35.4500246], [-97.3852935, 35.4499313], [-97.3851335, 35.4498909], [-97.3851007, 35.449977], [-97.3851146, 35.4499805], [-97.3850926, 35.4500383], [-97.3852046, 35.4500666]]]}, "properties": {"osm_id": 506283581, "building": "yes", "name": "", "height": null, "height_m": null, "levels": null, "tract_id": "40109107703", "tract_name": "1077.03", "tags": {"building": "yes"}}}, {"type": "Feature", "geometry": {"type": "Polygon", "coordinates": [[[-97.3714126, 35.4527082], [-97.3712701, 35.452707], [-97.3712708, 35.452657], [-97.3712268, 35.4526566], [-97.3712274, 35.4526133], [-97.371271, 35.4526137], [-97.3712715, 35.4525702], [-97.3712851, 35.4525704], [-97.3712868, 35.4524399], [-97.3713359, 35.4524403], [-97.3713351, 35.4525014], [-97.3713592, 35.4525016], [-97.3713583, 35.4525671], [-97.3714144, 35.4525675], [-97.3714126, 35.4527082]]]}, "properties": {"osm_id": 589380698, "building": "yes", "name": "FNB Community Bank", "height": null, "height_m": null, "levels": null, "tract_id": "40109107703", "tract_name": "1077.03", "tags": {"amenity": "bank", "building": "yes", "name": "FNB Community Bank"}}}, {"type": "Feature", "geometry": {"type": "Polygon", "coordinates": [[[-97.3714939, 35.4547225], [-97.3713358, 35.4547209], [-97.3713389, 35.4545195], [-97.3713735, 35.4545198], [-97.3713775, 35.4542653], [-97.371489, 35.4542664], [-97.3714885, 35.4542971], [-97.3715956, 35.4542982], [-97.3715934, 35.4544412], [-97.3715559, 35.4544408], [-97.3715542, 35.4545532], [-97.3715282, 35.4545529], [-97.3715271, 35.4546264], [-97.3714954, 35.454626], [-97.3714939, 35.4547225]]]}, "properties": {"osm_id": 589380699, "building": "yes", "name": "Evans Hardware", "height": null, "height_m": null, "levels": null, "tract_id": "40109107703", "tract_name": "1077.03", "tags": {"building": "yes", "name": "Evans Hardware", "shop": "hardware"}}}, {"type": "Feature", "geometry": {"type": "Polygon", "coordinates": [[[-97.3868611, 35.4619844], [-97.3867658, 35.4619526], [-97.3867391, 35.4620058], [-97.3867209, 35.4619997], [-97.3866803, 35.4620802], [-97.3867938, 35.4621181], [-97.3868611, 35.4619844]]]}, "properties": {"osm_id": 685004379, "building": "detached", "name": "", "height": null, "height_m": null, "levels": null, "tract_id": "40109107703", "tract_name": "1077.03", "tags": {"building": "detached"}}}, {"type": "Feature", "geometry": {"type": "Polygon", "coordinates": [[[-97.3869262, 35.461825], [-97.3868324, 35.4617941], [-97.3868032, 35.4618526], [-97.3867832, 35.461846], [-97.386746, 35.4619207], [-97.3868598, 35.4619583], [-97.3869262, 35.461825]]]}, "properties": {"osm_id": 685004380, "building": "detached", "name": "", "height": null, "height_m": null, "levels": null, "tract_id": "40109107703", "tract_name": "1077.03", "tags": {"building": "detached"}}}, {"type": "Feature", "geometry": {"type": "Polygon", "coordinates": [[[-97.3866082, 35.4624557], [-97.3865129, 35.4624239], [-97.3864862, 35.4624771], [-97.386468, 35.462471], [-97.3864274, 35.4625516], [-97.3865409, 35.4625894], [-97.3866082, 35.4624557]]]}, "properties": {"osm_id": 685004381, "building": "detached", "name": "", "height": null, "height_m": null, "levels": null, "tract_id": "40109107703", "tract_name": "1077.03", "tags": {"building": "detached"}}}, {"type": "Feature", "geometry": {"type": "Polygon", "coordinates": [[[-97.3864594, 35.4627663], [-97.3863641, 35.4627345], [-97.3863374, 35.4627877], [-97.3863191, 35.4627816], [-97.3862786, 35.4628622], [-97.3863921, 35.4629], [-97.3864594, 35.4627663]]]}, "properties": {"osm_id": 685004382, "building": "detached", "name": "", "height": null, "height_m": null, "levels": null, "tract_id": "40109107703", "tract_name": "1077.03", "tags": {"building": "detached"}}}, {"type": "Feature", "geometry": {"type": "Polygon", "coordinates": [[[-97.3874047, 35.4612765], [-97.387351, 35.4612049], [-97.3874112, 35.461175], [-97.3874009, 35.4611613], [-97.3874921, 35.4611159], [-97.3875561, 35.4612012], [-97.3874047, 35.4612765]]]}, "properties": {"osm_id": 685004383, "building": "detached", "name": "", "height": null, "height_m": null, "levels": null, "tract_id": "40109107703", "tract_name": "1077.03", "tags": {"building": "detached"}}}, {"type": "Feature", "geometry": {"type": "Polygon", "coordinates": [[[-97.3872498, 35.4613788], [-97.3871824, 35.4613154], [-97.3872357, 35.4612778], [-97.3872228, 35.4612657], [-97.3873037, 35.4612087], [-97.3873839, 35.4612843], [-97.3872498, 35.4613788]]]}, "properties": {"osm_id": 685004384, "building": "detached", "name": "", "height": null, "height_m": null, "levels": null, "tract_id": "40109107703", "tract_name": "1077.03", "tags": {"building": "detached"}}}, {"type": "Feature", "geometry": {"type": "Polygon", "coordinates": [[[-97.3877656, 35.4611264], [-97.3877419, 35.4610448], [-97.3878105, 35.4610315], [-97.3878059, 35.4610159], [-97.3879099, 35.4609959], [-97.3879382, 35.4610931], [-97.3877656, 35.4611264]]]}, "properties": {"osm_id": 685004385, "building": "detached", "name": "", "height": null, "height_m": null, "levels": null, "tract_id": "40109107703", "tract_name": "1077.03", "tags": {"building": "detached"}}}, {"type": "Feature", "geometry": {"type": "Polygon", "coordinates": [[[-97.3881673, 35.4610898], [-97.3881662, 35.4610059], [-97.3882367, 35.4610053], [-97.3882365, 35.4609893], [-97.3883434, 35.4609883], [-97.3883447, 35.4610882], [-97.3881673, 35.4610898]]]}, "properties": {"osm_id": 685004386, "building": "detached", "name": "", "height": null, "height_m": null, "levels": null, "tract_id": "40109107703", "tract_name": "1077.03", "tags": {"building": "detached"}}}, {"type": "Feature", "geometry": {"type": "Polygon", "coordinates": [[[-97.387738, 35.4611471], [-97.3877032, 35.4610716], [-97.3876374, 35.4610918], [-97.3876206, 35.4610553], [-97.3875245, 35.4610848], [-97.3875762, 35.4611967], [-97.387738, 35.4611471]]]}, "properties": {"osm_id": 685004387, "building": "detached", "name": "", "height": null, "height_m": null, "levels": null, "tract_id": "40109107703", "tract_name": "1077.03", "tags": {"building": "detached"}}}, {"type": "Feature", "geometry": {"type": "Polygon", "coordinates": [[[-97.3881469, 35.461103], [-97.3881456, 35.4610198], [-97.3880444, 35.4610209], [-97.3880437, 35.4609805], [-97.3879531, 35.4609815], [-97.3879552, 35.4611052], [-97.3881469, 35.461103]]]}, "properties": {"osm_id": 685004388, "building": "detached", "name": "", "height": null, "height_m": null, "levels": null, "tract_id": "40109107703", "tract_name": "1077.03", "tags": {"building": "detached"}}}, {"type": "Feature", "geometry": {"type": "Polygon", "coordinates": [[[-97.3871701, 35.4615311], [-97.387154, 35.4615199], [-97.3870936, 35.4614761], [-97.3870151, 35.4614135], [-97.3870732, 35.4613627], [-97.3870865, 35.4613728], [-97.3871477, 35.4613193], [-97.3872277, 35.46138], [-97.3871882, 35.4614145], [-97.3872499, 35.4614613], [-97.3871701, 35.4615311]]]}, "properties": {"osm_id": 685004389, "building": "detached", "name": "", "height": null, "height_m": null, "levels": null, "tract_id": "40109107703", "tract_name": "1077.03", "tags": {"building": "detached"}}}, {"type": "Feature", "geometry": {"type": "Polygon", "coordinates": [[[-97.3869884, 35.4618075], [-97.3868121, 35.4617555], [-97.3868433, 35.4616852], [-97.386862, 35.4616907], [-97.3868853, 35.4616382], [-97.3869408, 35.4616546], [-97.3869357, 35.4616661], [-97.3869702, 35.4616763], [-97.3869505, 35.4617206], [-97.3870181, 35.4617405], [-97.3869884, 35.4618075]]]}, "properties": {"osm_id": 685004390, "building": "detached", "name": "", "height": null, "height_m": null, "levels": null, "tract_id": "40109107703", "tract_name": "1077.03", "tags": {"building": "detached"}}}, {"type": "Feature", "geometry": {"type": "Polygon", "coordinates": [[[-97.3867081, 35.4622746], [-97.3865918, 35.4622357], [-97.3866213, 35.4621766], [-97.3866278, 35.4621642], [-97.3866518, 35.4621722], [-97.3866838, 35.4621083], [-97.3868081, 35.4621495], [-97.386785, 35.4621956], [-97.3868188, 35.4622068], [-97.3867841, 35.4622761], [-97.3867183, 35.4622542], [-97.3867081, 35.4622746]]]}, "properties": {"osm_id": 685004391, "building": "detached", "name": "", "height": null, "height_m": null, "levels": null, "tract_id": "40109107703", "tract_name": "1077.03", "tags": {"building": "detached"}}}, {"type": "Feature", "geometry": {"type": "Polygon", "coordinates": [[[-97.3865918, 35.4622357], [-97.3865303, 35.4622154], [-97.3865599, 35.4621562], [-97.3866213, 35.4621766], [-97.3865918, 35.4622357]]]}, "properties": {"osm_id": 685004392, "building": "carport", "name": "", "height": null, "height_m": null, "levels": null, "tract_id": "40109107703", "tract_name": "1077.03", "tags": {"building": "carport"}}}, {"type": "Feature", "geometry": {"type": "Polygon", "coordinates": [[[-97.3871147, 35.4615558], [-97.3870544, 35.461512], [-97.3870936, 35.4614761], [-97.387154, 35.4615199], [-97.3871147, 35.4615558]]]}, "properties": {"osm_id": 685004393, "building": "carport", "name": "", "height": null, "height_m": null, "levels": null, "tract_id": "40109107703", "tract_name": "1077.03", "tags": {"building": "carport"}}}, {"type": "Feature", "geometry": {"type": "Polygon", "coordinates": [[[-97.3872089, 35.4615311], [-97.3872492, 35.4615648], [-97.3872032, 35.4616013], [-97.3871629, 35.4615676], [-97.3872089, 35.4615311]]]}, "properties": {"osm_id": 685004394, "building": "carport", "name": "", "height": null, "height_m": null, "levels": null, "tract_id": "40109107703", "tract_name": "1077.03", "tags": {"building": "carport"}}}, {"type": "Feature", "geometry": {"type": "Polygon", "coordinates": [[[-97.388124, 35.4607709], [-97.3880563, 35.4607725], [-97.3880543, 35.4607151], [-97.388122, 35.4607136], [-97.388124, 35.4607709]]]}, "properties": {"osm_id": 685004395, "building": "carport", "name": "", "height": null, "height_m": null, "levels": null, "tract_id": "40109107703", "tract_name": "1077.03", "tags": {"building": "carport"}}}, {"type": "Feature", "geometry": {"type": "Polygon", "coordinates": [[[-97.3866946, 35.4622955], [-97.3865993, 35.4622637], [-97.3865726, 35.4623169], [-97.3865543, 35.4623108], [-97.3865138, 35.4623914], [-97.3866273, 35.4624292], [-97.3866946, 35.4622955]]]}, "properties": {"osm_id": 685004396, "building": "detached", "name": "", "height": null, "height_m": null, "levels": null, "tract_id": "40109107703", "tract_name": "1077.03", "tags": {"building": "detached"}}}, {"type": "Feature", "geometry": {"type": "Polygon", "coordinates": [[[-97.3863676, 35.4627052], [-97.3864629, 35.462737], [-97.3864897, 35.4626839], [-97.3865079, 35.46269], [-97.3865484, 35.4626094], [-97.3864349, 35.4625715], [-97.3863676, 35.4627052]]]}, "properties": {"osm_id": 685004397, "building": "detached", "name": "", "height": null, "height_m": null, "levels": null, "tract_id": "40109107703", "tract_name": "1077.03", "tags": {"building": "detached"}}}, {"type": "Feature", "geometry": {"type": "Polygon", "coordinates": [[[-97.3861978, 35.4630315], [-97.3863024, 35.4630651], [-97.386337, 35.4629937], [-97.3863641, 35.4630024], [-97.3863945, 35.4629395], [-97.3862629, 35.4628972], [-97.3861978, 35.4630315]]]}, "properties": {"osm_id": 685004398, "building": "detached", "name": "", "height": null, "height_m": null, "levels": null, "tract_id": "40109107703", "tract_name": "1077.03", "tags": {"building": "detached"}}}, {"type": "Feature", "geometry": {"type": "Polygon", "coordinates": [[[-97.3863876, 35.4631029], [-97.3862534, 35.4630825], [-97.3862376, 35.4631517], [-97.3862034, 35.4631465], [-97.386186, 35.4632229], [-97.3863171, 35.4632428], [-97.3863374, 35.4631542], [-97.3863746, 35.4631599], [-97.3863876, 35.4631029]]]}, "properties": {"osm_id": 685004399, "building": "detached", "name": "", "height": null, "height_m": null, "levels": null, "tract_id": "40109107703", "tract_name": "1077.03", "tags": {"building": "detached"}}}, {"type": "Feature", "geometry": {"type": "Polygon", "coordinates": [[[-97.3864071, 35.4633975], [-97.3861917, 35.463399], [-97.3861909, 35.4633216], [-97.3862028, 35.4633215], [-97.3862024, 35.4632801], [-97.3863428, 35.4632791], [-97.3863432, 35.4633208], [-97.3864063, 35.4633204], [-97.3864071, 35.4633975]]]}, "properties": {"osm_id": 685004400, "building": "detached", "name": "", "height": null, "height_m": null, "levels": null, "tract_id": "40109107703", "tract_name": "1077.03", "tags": {"building": "detached"}}}, {"type": "Feature", "geometry": {"type": "Polygon", "coordinates": [[[-97.3705279, 35.45669], [-97.37041, 35.4566891], [-97.3704126, 35.4564722], [-97.3705296, 35.4564731], [-97.370529, 35.4565175], [-97.370545, 35.4565176], [-97.3705441, 35.4565924], [-97.3705292, 35.4565923], [-97.3705279, 35.45669]]]}, "properties": {"osm_id": 687710582, "building": "detached", "name": "", "height": null, "height_m": null, "levels": null, "tract_id": "40109107703", "tract_name": "1077.03", "tags": {"building": "detached"}}}, {"type": "Feature", "geometry": {"type": "Polygon", "coordinates": [[[-97.369851, 35.455858], [-97.3697791, 35.4558589], [-97.3697769, 35.4557411], [-97.3698488, 35.4557401], [-97.369851, 35.455858]]]}, "properties": {"osm_id": 687710583, "building": "yes", "name": "", "height": null, "height_m": null, "levels": null, "tract_id": "40109107703", "tract_name": "1077.03", "tags": {"building": "yes"}}}, {"type": "Feature", "geometry": {"type": "Polygon", "coordinates": [[[-97.3695536, 35.4562682], [-97.3694521, 35.4562684], [-97.369452, 35.456223], [-97.3695535, 35.4562227], [-97.3695536, 35.4562682]]]}, "properties": {"osm_id": 687710585, "building": "yes", "name": "", "height": null, "height_m": null, "levels": null, "tract_id": "40109107703", "tract_name": "1077.03", "tags": {"building": "yes"}}}, {"type": "Feature", "geometry": {"type": "Polygon", "coordinates": [[[-97.3729781, 35.4518837], [-97.372978, 35.4518644], [-97.3729866, 35.4518644], [-97.3729865, 35.4517869], [-97.3729779, 35.4517869], [-97.3729777, 35.4517072], [-97.3729261, 35.4517073], [-97.3729014, 35.4516892], [-97.3729225, 35.45167], [-97.3729204, 35.4516443], [-97.3728939, 35.4516234], [-97.3728996, 35.4516094], [-97.3728996, 35.4515913], [-97.3728739, 35.4515721], [-97.3728581, 35.4515662], [-97.3728367, 35.4515674], [-97.3728174, 35.4515744], [-97.3728174, 35.451554], [-97.3727723, 35.4515539], [-97.3727723, 35.451547], [-97.3727131, 35.4515469], [-97.3727131, 35.4515205], [-97.3725923, 35.4515204], [-97.3725921, 35.4516057], [-97.37268, 35.4516059], [-97.37268, 35.4516164], [-97.3726993, 35.4516292], [-97.3726993, 35.4516595], [-97.37271, 35.4516671], [-97.37271, 35.4516793], [-97.3726113, 35.4516793], [-97.3726113, 35.4517545], [-97.3726671, 35.4517545], [-97.3726671, 35.4517154], [-97.3727251, 35.4517154], [-97.3727365, 35.4517201], [-97.3727229, 35.4517294], [-97.3727229, 35.4517446], [-97.3727415, 35.4517562], [-97.3727651, 35.451758], [-97.3727815, 35.4517686], [-97.3727759, 35.4517743], [-97.3727973, 35.451804], [-97.3728381, 35.4518358], [-97.372846, 35.4518291], [-97.3728603, 35.4518402], [-97.3728603, 35.4518605], [-97.3728826, 35.4518605], [-97.3728826, 35.4518838], [-97.3729781, 35.4518837]]]}, "properties": {"osm_id": 687710591, "building": "detached", "name": "", "height": null, "height_m": null, "levels": null, "tract_id": "40109107703", "tract_name": "1077.03", "tags": {"building": "detached"}}}, {"type": "Feature", "geometry": {"type": "Polygon", "coordinates": [[[-97.3720369, 35.4512582], [-97.3718079, 35.4512581], [-97.371808, 35.4511978], [-97.3718576, 35.4511978], [-97.3718578, 35.451067], [-97.3719928, 35.4510671], [-97.3719927, 35.4511068], [-97.3720145, 35.4511068], [-97.3720144, 35.451184], [-97.372037, 35.451184], [-97.3720369, 35.4512582]]]}, "properties": {"osm_id": 687710592, "building": "detached", "name": "", "height": null, "height_m": null, "levels": null, "tract_id": "40109107703", "tract_name": "1077.03", "tags": {"building": "detached"}}}, {"type": "Feature", "geometry": {"type": "Polygon", "coordinates": [[[-97.372905, 35.4509884], [-97.3729918, 35.4509153], [-97.3729953, 35.4508983], [-97.3729727, 35.4508799], [-97.3729588, 35.4508792], [-97.3729664, 35.4508728], [-97.3728575, 35.450786], [-97.3728606, 35.4507798], [-97.3727954, 35.4507273], [-97.3727161, 35.4507927], [-97.37274, 35.4508119], [-97.3727002, 35.4508446], [-97.3727869, 35.4509144], [-97.3727931, 35.4509094], [-97.3728124, 35.4509249], [-97.372808, 35.4509286], [-97.3728712, 35.4509795], [-97.3728822, 35.4509704], [-97.372905, 35.4509884]]]}, "properties": {"osm_id": 687710593, "building": "detached", "name": "", "height": null, "height_m": null, "levels": null, "tract_id": "40109107703", "tract_name": "1077.03", "tags": {"building": "detached"}}}, {"type": "Feature", "geometry": {"type": "Polygon", "coordinates": [[[-97.3703422, 35.4630152], [-97.3702517, 35.4630161], [-97.3702509, 35.4629589], [-97.3700146, 35.4629611], [-97.3700102, 35.4626495], [-97.3702411, 35.4626474], [-97.3702403, 35.4625907], [-97.3703031, 35.4625901], [-97.3703041, 35.4626563], [-97.370332, 35.462656], [-97.3703526, 35.4626337], [-97.3705564, 35.4626317], [-97.3705591, 35.4628186], [-97.3704639, 35.4628195], [-97.3704648, 35.4628818], [-97.3703403, 35.4628829], [-97.3703422, 35.4630152]]]}, "properties": {"osm_id": 689748798, "building": "church", "name": "", "height": null, "height_m": null, "levels": null, "tract_id": "40109107703", "tract_name": "1077.03", "tags": {"building": "church"}}}, {"type": "Feature", "geometry": {"type": "Polygon", "coordinates": [[[-97.3697545, 35.4629038], [-97.3697552, 35.4626297], [-97.3695595, 35.4626293], [-97.3695588, 35.4629035], [-97.3697545, 35.4629038]]]}, "properties": {"osm_id": 689748800, "building": "church", "name": "", "height": null, "height_m": null, "levels": null, "tract_id": "40109107703", "tract_name": "1077.03", "tags": {"building": "church"}}}, {"type": "Feature", "geometry": {"type": "Polygon", "coordinates": [[[-97.3736506, 35.4635999], [-97.3735767, 35.4636017], [-97.3735749, 35.4635537], [-97.3736488, 35.4635519], [-97.3736506, 35.4635999]]]}, "properties": {"osm_id": 689748802, "building": "yes", "name": "", "height": null, "height_m": null, "levels": null, "tract_id": "40109107703", "tract_name": "1077.03", "tags": {"building": "yes"}}}, {"type": "Feature", "geometry": {"type": "Polygon", "coordinates": [[[-97.3741621, 35.4637885], [-97.3741263, 35.4637892], [-97.3741248, 35.4637426], [-97.3741606, 35.4637419], [-97.3741621, 35.4637885]]]}, "properties": {"osm_id": 689748803, "building": "shed", "name": "", "height": null, "height_m": null, "levels": null, "tract_id": "40109107703", "tract_name": "1077.03", "tags": {"building": "shed"}}}, {"type": "Feature", "geometry": {"type": "Polygon", "coordinates": [[[-97.3745772, 35.4635154], [-97.3744754, 35.4635223], [-97.3744592, 35.4633624], [-97.374561, 35.4633555], [-97.3745772, 35.4635154]]]}, "properties": {"osm_id": 689748804, "building": "yes", "name": "", "height": null, "height_m": null, "levels": null, "tract_id": "40109107703", "tract_name": "1077.03", "tags": {"building": "yes"}}}, {"type": "Feature", "geometry": {"type": "Polygon", "coordinates": [[[-97.3701586, 35.4524881], [-97.3704029, 35.4524897], [-97.3704019, 35.452594], [-97.3703819, 35.4525939], [-97.3703816, 35.4526156], [-97.3702981, 35.452615], [-97.3702983, 35.4525944], [-97.3702265, 35.4525939], [-97.3702267, 35.4525685], [-97.3701578, 35.452568], [-97.3701586, 35.4524881]]]}, "properties": {"osm_id": 964432381, "building": "commercial", "name": "H. G. Martin, Jr., CPA Firm", "height": null, "height_m": 6.0, "levels": 2, "tract_id": "40109107703", "tract_name": "1077.03", "tags": {"addr:city": "Midwest City", "addr:housenumber": "1300", "addr:postcode": "73130", "addr:state": "OK", "addr:street": "South Douglas Boulevard", "building": "commercial", "building:levels": "2", "description": "Accounting Firm", "name": "H. G. Martin, Jr., CPA Firm", "smoking": "outside"}}}, {"type": "Feature", "geometry": {"type": "Polygon", "coordinates": [[[-97.3702057, 35.4523465], [-97.3702065, 35.4524645], [-97.37042, 35.4524635], [-97.3704192, 35.4523482], [-97.3704063, 35.4523483], [-97.3704046, 35.452344], [-97.3703786, 35.4523442], [-97.3703787, 35.4523486], [-97.3703549, 35.4523488], [-97.3703548, 35.4523403], [-97.3702857, 35.4523409], [-97.3702858, 35.4523485], [-97.3702769, 35.4523486], [-97.3702768, 35.4523414], [-97.3702509, 35.4523416], [-97.370251, 35.4523463], [-97.3702057, 35.4523465]]]}, "properties": {"osm_id": 964432387, "building": "commercial", "name": "American Guaranty Title Company", "height": null, "height_m": null, "levels": null, "tract_id": "40109107703", "tract_name": "1077.03", "tags": {"building": "commercial", "name": "American Guaranty Title Company"}}}, {"type": "Feature", "geometry": {"type": "Polygon", "coordinates": [[[-97.3700567, 35.4525779], [-97.3701382, 35.4525798], [-97.3701425, 35.45246], [-97.3701605, 35.4524604], [-97.3701609, 35.4524509], [-97.370176, 35.4524513], [-97.3701772, 35.4524209], [-97.3701586, 35.4524204], [-97.3701641, 35.4522771], [-97.3700221, 35.4522735], [-97.3700107, 35.4525693], [-97.3700459, 35.4525702], [-97.3700567, 35.4525779]]]}, "properties": {"osm_id": 964435005, "building": "house", "name": "", "height": null, "height_m": null, "levels": null, "tract_id": "40109107703", "tract_name": "1077.03", "tags": {"building": "house"}}}, {"type": "Feature", "geometry": {"type": "Polygon", "coordinates": [[[-97.3702332, 35.4520986], [-97.3702801, 35.4520987], [-97.3702801, 35.4521162], [-97.3704048, 35.4521164], [-97.3704051, 35.4520002], [-97.3703542, 35.4520001], [-97.3703543, 35.4519749], [-97.3702658, 35.4519748], [-97.3702657, 35.4520042], [-97.3702334, 35.4520041], [-97.3702332, 35.4520986]]]}, "properties": {"osm_id": 964435006, "building": "commercial", "name": "", "height": null, "height_m": null, "levels": null, "tract_id": "40109107703", "tract_name": "1077.03", "tags": {"building": "commercial"}}}, {"type": "Feature", "geometry": {"type": "Polygon", "coordinates": [[[-97.3700331, 35.4518563], [-97.3700352, 35.451975], [-97.3704083, 35.4519707], [-97.3704064, 35.4518647], [-97.3703683, 35.4518651], [-97.3703679, 35.4518425], [-97.3701772, 35.4518447], [-97.3701774, 35.4518546], [-97.3700331, 35.4518563]]]}, "properties": {"osm_id": 964435007, "building": "commercial", "name": "", "height": null, "height_m": null, "levels": null, "tract_id": "40109107703", "tract_name": "1077.03", "tags": {"building": "commercial"}}}, {"type": "Feature", "geometry": {"type": "Polygon", "coordinates": [[[-97.3588865, 35.4509535], [-97.3588746, 35.4509884], [-97.358819, 35.4509759], [-97.3588309, 35.4509409], [-97.3588865, 35.4509535]]]}, "properties": {"osm_id": 1188573725, "building": "yes", "name": "", "height": null, "height_m": null, "levels": null, "tract_id": "40109107703", "tract_name": "1077.03", "tags": {"building": "yes"}}}, {"type": "Feature", "geometry": {"type": "Polygon", "coordinates": [[[-97.3588118, 35.4509547], [-97.3587682, 35.4509437], [-97.3587837, 35.450903], [-97.3588273, 35.4509141], [-97.3588118, 35.4509547]]]}, "properties": {"osm_id": 1188573726, "building": "yes", "name": "", "height": null, "height_m": null, "levels": null, "tract_id": "40109107703", "tract_name": "1077.03", "tags": {"building": "yes"}}}, {"type": "Feature", "geometry": {"type": "Polygon", "coordinates": [[[-97.3589155, 35.4499706], [-97.358977, 35.450023], [-97.3590394, 35.4499744], [-97.3589067, 35.4498615], [-97.3587626, 35.4499739], [-97.3588722, 35.4500672], [-97.3589183, 35.4500312], [-97.3589041, 35.4500191], [-97.3589223, 35.4500049], [-97.358898, 35.4499842], [-97.3589155, 35.4499706]]]}, "properties": {"osm_id": 1188573735, "building": "yes", "name": "", "height": null, "height_m": null, "levels": null, "tract_id": "40109107703", "tract_name": "1077.03", "tags": {"building": "yes", "source": "microsoft/BuildingFootprints"}}}, {"type": "Feature", "geometry": {"type": "Polygon", "coordinates": [[[-97.3592646, 35.4513545], [-97.3594308, 35.4513522], [-97.3594271, 35.4511701], [-97.3593493, 35.4511711], [-97.3593505, 35.4512301], [-97.359262, 35.4512313], [-97.3592646, 35.4513545]]]}, "properties": {"osm_id": 1188573738, "building": "yes", "name": "", "height": null, "height_m": null, "levels": null, "tract_id": "40109107703", "tract_name": "1077.03", "tags": {"building": "yes", "source": "microsoft/BuildingFootprints"}}}, {"type": "Feature", "geometry": {"type": "Polygon", "coordinates": [[[-97.3556329, 35.4508779], [-97.3557445, 35.4508768], [-97.3557405, 35.4506168], [-97.355601, 35.4506182], [-97.3556027, 35.4507253], [-97.3556306, 35.450725], [-97.3556329, 35.4508779]]]}, "properties": {"osm_id": 1188573740, "building": "yes", "name": "", "height": null, "height_m": null, "levels": null, "tract_id": "40109107703", "tract_name": "1077.03", "tags": {"building": "yes", "source": "microsoft/BuildingFootprints"}}}, {"type": "Feature", "geometry": {"type": "Polygon", "coordinates": [[[-97.3594389, 35.4505153], [-97.3594417, 35.4503755], [-97.359372, 35.4503745], [-97.3593714, 35.4504021], [-97.3593232, 35.4504014], [-97.3593238, 35.450373], [-97.359246, 35.450372], [-97.3592423, 35.4505533], [-97.3593458, 35.4505547], [-97.3593466, 35.450514], [-97.3594389, 35.4505153]]]}, "properties": {"osm_id": 1188573750, "building": "yes", "name": "", "height": null, "height_m": null, "levels": null, "tract_id": "40109107703", "tract_name": "1077.03", "tags": {"building": "yes", "source": "microsoft/BuildingFootprints"}}}, {"type": "Feature", "geometry": {"type": "Polygon", "coordinates": [[[-97.3587755, 35.4508007], [-97.3588637, 35.4508872], [-97.3589522, 35.4508273], [-97.3589819, 35.4508564], [-97.3590386, 35.450818], [-97.3589207, 35.4507024], [-97.3587755, 35.4508007]]]}, "properties": {"osm_id": 1188573751, "building": "yes", "name": "", "height": null, "height_m": null, "levels": null, "tract_id": "40109107703", "tract_name": "1077.03", "tags": {"building": "yes", "source": "microsoft/BuildingFootprints"}}}, {"type": "Feature", "geometry": {"type": "Polygon", "coordinates": [[[-97.3561567, 35.4515724], [-97.3568031, 35.4515724], [-97.3568031, 35.4514697], [-97.3561567, 35.4514697], [-97.3561567, 35.4515724]]]}, "properties": {"osm_id": 1188573754, "building": "yes", "name": "", "height": null, "height_m": null, "levels": null, "tract_id": "40109107703", "tract_name": "1077.03", "tags": {"building": "yes", "source": "microsoft/BuildingFootprints"}}}, {"type": "Feature", "geometry": {"type": "Polygon", "coordinates": [[[-97.3592531, 35.4498263], [-97.3592559, 35.4499123], [-97.3593213, 35.4499109], [-97.3593241, 35.4499974], [-97.3594287, 35.4499951], [-97.359423, 35.4498226], [-97.3592531, 35.4498263]]]}, "properties": {"osm_id": 1188573756, "building": "yes", "name": "", "height": null, "height_m": null, "levels": null, "tract_id": "40109107703", "tract_name": "1077.03", "tags": {"building": "yes", "source": "microsoft/BuildingFootprints"}}}, {"type": "Feature", "geometry": {"type": "Polygon", "coordinates": [[[-97.3589821, 35.4503894], [-97.3588293, 35.4502877], [-97.3587176, 35.4503991], [-97.3587803, 35.4504408], [-97.3588119, 35.4504094], [-97.3589019, 35.4504694], [-97.3589821, 35.4503894]]]}, "properties": {"osm_id": 1188573760, "building": "yes", "name": "", "height": null, "height_m": null, "levels": null, "tract_id": "40109107703", "tract_name": "1077.03", "tags": {"building": "yes", "source": "microsoft/BuildingFootprints"}}}, {"type": "Feature", "geometry": {"type": "Polygon", "coordinates": [[[-97.358999, 35.4511638], [-97.3588949, 35.4510997], [-97.3587956, 35.4512067], [-97.3589286, 35.4512887], [-97.3590035, 35.4512081], [-97.3589745, 35.4511902], [-97.358999, 35.4511638]]]}, "properties": {"osm_id": 1188573761, "building": "yes", "name": "", "height": null, "height_m": null, "levels": null, "tract_id": "40109107703", "tract_name": "1077.03", "tags": {"building": "yes", "source": "microsoft/BuildingFootprints"}}}, {"type": "Feature", "geometry": {"type": "Polygon", "coordinates": [[[-97.3592137, 35.4503819], [-97.3591321, 35.4503729], [-97.3591239, 35.4504222], [-97.3590528, 35.4504144], [-97.3590356, 35.4505174], [-97.3591884, 35.4505342], [-97.3592137, 35.4503819]]]}, "properties": {"osm_id": 1188573762, "building": "yes", "name": "", "height": null, "height_m": null, "levels": null, "tract_id": "40109107703", "tract_name": "1077.03", "tags": {"building": "yes", "source": "microsoft/BuildingFootprints"}}}, {"type": "Feature", "geometry": {"type": "Polygon", "coordinates": [[[-97.3587166, 35.4502411], [-97.3589391, 35.4502361], [-97.3589365, 35.4501597], [-97.3589071, 35.4501604], [-97.3589052, 35.4501036], [-97.3587604, 35.4501068], [-97.3587623, 35.4501614], [-97.358714, 35.4501625], [-97.3587166, 35.4502411]]]}, "properties": {"osm_id": 1188573765, "building": "yes", "name": "", "height": null, "height_m": null, "levels": null, "tract_id": "40109107703", "tract_name": "1077.03", "tags": {"building": "yes", "source": "microsoft/BuildingFootprints"}}}, {"type": "Feature", "geometry": {"type": "Polygon", "coordinates": [[[-97.3590356, 35.4499313], [-97.3591107, 35.4499325], [-97.3591097, 35.449974], [-97.3592008, 35.4499755], [-97.3592048, 35.4498117], [-97.3590386, 35.449809], [-97.3590356, 35.4499313]]]}, "properties": {"osm_id": 1188573771, "building": "yes", "name": "", "height": null, "height_m": null, "levels": null, "tract_id": "40109107703", "tract_name": "1077.03", "tags": {"building": "yes", "source": "microsoft/BuildingFootprints"}}}, {"type": "Feature", "geometry": {"type": "Polygon", "coordinates": [[[-97.3595248, 35.4515489], [-97.359526, 35.4514782], [-97.3593185, 35.451476], [-97.3593166, 35.4515961], [-97.3593434, 35.4515964], [-97.3593423, 35.451665], [-97.3594855, 35.4516665], [-97.3594869, 35.4515769], [-97.3594691, 35.4515768], [-97.3594696, 35.4515483], [-97.3595248, 35.4515489]]]}, "properties": {"osm_id": 1188573778, "building": "yes", "name": "", "height": null, "height_m": null, "levels": null, "tract_id": "40109107703", "tract_name": "1077.03", "tags": {"building": "yes", "source": "microsoft/BuildingFootprints"}}}, {"type": "Feature", "geometry": {"type": "Polygon", "coordinates": [[[-97.3591522, 35.4507973], [-97.3591349, 35.4507513], [-97.3592036, 35.4507342], [-97.3591621, 35.4506235], [-97.3590076, 35.4506619], [-97.3590663, 35.4508186], [-97.3591522, 35.4507973]]]}, "properties": {"osm_id": 1188573787, "building": "yes", "name": "", "height": null, "height_m": null, "levels": null, "tract_id": "40109107703", "tract_name": "1077.03", "tags": {"building": "yes", "source": "microsoft/BuildingFootprints"}}}, {"type": "Feature", "geometry": {"type": "Polygon", "coordinates": [[[-97.359035, 35.4513589], [-97.359205, 35.4513612], [-97.3592081, 35.4512118], [-97.3591303, 35.4512107], [-97.3591294, 35.4512522], [-97.3590373, 35.451251], [-97.359035, 35.4513589]]]}, "properties": {"osm_id": 1188573788, "building": "yes", "name": "", "height": null, "height_m": null, "levels": null, "tract_id": "40109107703", "tract_name": "1077.03", "tags": {"building": "yes", "source": "microsoft/BuildingFootprints"}}}, {"type": "Feature", "geometry": {"type": "Polygon", "coordinates": [[[-97.3557631, 35.4514687], [-97.3557626, 35.4515724], [-97.3560898, 35.4515733], [-97.3560903, 35.4514696], [-97.3557631, 35.4514687]]]}, "properties": {"osm_id": 1188573797, "building": "yes", "name": "", "height": null, "height_m": null, "levels": null, "tract_id": "40109107703", "tract_name": "1077.03", "tags": {"building": "yes", "source": "microsoft/BuildingFootprints"}}}, {"type": "Feature", "geometry": {"type": "Polygon", "coordinates": [[[-97.3593393, 35.4508329], [-97.359417, 35.4508316], [-97.3594131, 35.4506752], [-97.3592549, 35.4506779], [-97.3592579, 35.450795], [-97.3593383, 35.4507936], [-97.3593393, 35.4508329]]]}, "properties": {"osm_id": 1188573798, "building": "yes", "name": "", "height": null, "height_m": null, "levels": null, "tract_id": "40109107703", "tract_name": "1077.03", "tags": {"building": "yes", "source": "microsoft/BuildingFootprints"}}}, {"type": "Feature", "geometry": {"type": "Polygon", "coordinates": [[[-97.3719529, 35.4498719], [-97.3718269, 35.449872], [-97.3718268, 35.4498501], [-97.3717356, 35.4498502], [-97.3717359, 35.4501583], [-97.3718244, 35.4501582], [-97.3718244, 35.4501386], [-97.3718769, 35.4501385], [-97.3718769, 35.4500992], [-97.3719665, 35.4500992], [-97.3719665, 35.4500292], [-97.3720281, 35.4500292], [-97.3720281, 35.4499418], [-97.371953, 35.4499419], [-97.3719529, 35.4498719]]]}, "properties": {"osm_id": 1252719614, "building": "yes", "name": "", "height": null, "height_m": null, "levels": null, "tract_id": "40109107703", "tract_name": "1077.03", "tags": {"building": "yes", "source": "microsoft/BuildingFootprints"}}}, {"type": "Feature", "geometry": {"type": "Polygon", "coordinates": [[[-97.3719641, 35.4501881], [-97.3718247, 35.4501891], [-97.3718246, 35.4501782], [-97.3717725, 35.4501786], [-97.3717732, 35.4502376], [-97.3718091, 35.4502373], [-97.3718107, 35.4503749], [-97.3719662, 35.4503738], [-97.3719641, 35.4501881]]]}, "properties": {"osm_id": 1252719615, "building": "yes", "name": "", "height": null, "height_m": null, "levels": null, "tract_id": "40109107703", "tract_name": "1077.03", "tags": {"building": "yes", "source": "microsoft/BuildingFootprints"}}}, {"type": "Feature", "geometry": {"type": "Polygon", "coordinates": [[[-97.3718728, 35.4506904], [-97.3719603, 35.4506897], [-97.3719599, 35.4506547], [-97.3720548, 35.450654], [-97.372054, 35.4505884], [-97.3720047, 35.4505888], [-97.3720034, 35.4504752], [-97.3718693, 35.4504763], [-97.3718701, 35.4505505], [-97.3718192, 35.4505509], [-97.3718199, 35.4506121], [-97.3718719, 35.4506117], [-97.3718728, 35.4506904]]]}, "properties": {"osm_id": 1252719616, "building": "yes", "name": "", "height": null, "height_m": null, "levels": null, "tract_id": "40109107703", "tract_name": "1077.03", "tags": {"building": "yes", "source": "microsoft/BuildingFootprints"}}}, {"type": "Feature", "geometry": {"type": "Polygon", "coordinates": [[[-97.3720495, 35.4507515], [-97.371828, 35.4507538], [-97.3718289, 35.4508098], [-97.3718798, 35.4508093], [-97.3718809, 35.450877], [-97.3718262, 35.4508776], [-97.3718254, 35.4508237], [-97.3717969, 35.450824], [-97.3717989, 35.4509486], [-97.3719668, 35.4509468], [-97.3719665, 35.4509285], [-97.3720094, 35.4509281], [-97.3720087, 35.450883], [-97.3720516, 35.4508826], [-97.3720495, 35.4507515]]]}, "properties": {"osm_id": 1252719617, "building": "yes", "name": "", "height": null, "height_m": null, "levels": null, "tract_id": "40109107703", "tract_name": "1077.03", "tags": {"building": "yes", "source": "microsoft/BuildingFootprints"}}}, {"type": "Feature", "geometry": {"type": "Polygon", "coordinates": [[[-97.3726569, 35.4505545], [-97.3727143, 35.4505536], [-97.3727155, 35.4506083], [-97.372819, 35.4506067], [-97.3728179, 35.4505543], [-97.3728661, 35.4505536], [-97.3728634, 35.4504305], [-97.3729546, 35.4504291], [-97.3729533, 35.4503701], [-97.3728916, 35.4503711], [-97.3728906, 35.450326], [-97.372822, 35.450327], [-97.3728231, 35.4503786], [-97.3727684, 35.4503794], [-97.3727693, 35.4504209], [-97.372654, 35.4504226], [-97.3726569, 35.4505545]]]}, "properties": {"osm_id": 1252719618, "building": "yes", "name": "", "height": null, "height_m": null, "levels": null, "tract_id": "40109107703", "tract_name": "1077.03", "tags": {"building": "yes", "source": "microsoft/BuildingFootprints"}}}, {"type": "Feature", "geometry": {"type": "Polygon", "coordinates": [[[-97.372721, 35.4500211], [-97.3728346, 35.4500536], [-97.3728027, 35.4501275], [-97.3728896, 35.4501524], [-97.3729749, 35.4499548], [-97.3727743, 35.4498974], [-97.372721, 35.4500211]]]}, "properties": {"osm_id": 1252719619, "building": "yes", "name": "", "height": null, "height_m": null, "levels": null, "tract_id": "40109107703", "tract_name": "1077.03", "tags": {"building": "yes", "source": "microsoft/BuildingFootprints"}}}, {"type": "Feature", "geometry": {"type": "Polygon", "coordinates": [[[-97.3726133, 35.4500662], [-97.3725945, 35.449948], [-97.3725233, 35.4499555], [-97.3725137, 35.4498954], [-97.3723502, 35.4499127], [-97.3723786, 35.450091], [-97.3726133, 35.4500662]]]}, "properties": {"osm_id": 1252719620, "building": "yes", "name": "", "height": null, "height_m": null, "levels": null, "tract_id": "40109107703", "tract_name": "1077.03", "tags": {"building": "yes", "source": "microsoft/BuildingFootprints"}}}, {"type": "Feature", "geometry": {"type": "Polygon", "coordinates": [[[-97.3725675, 35.4508698], [-97.3725163, 35.4507588], [-97.3725577, 35.4507461], [-97.3725313, 35.4506886], [-97.3724937, 35.4507001], [-97.3724728, 35.4506549], [-97.3723186, 35.4507021], [-97.3723733, 35.4508208], [-97.37233, 35.450834], [-97.3723592, 35.4508972], [-97.3724659, 35.4508646], [-97.3724805, 35.4508964], [-97.3725675, 35.4508698]]]}, "properties": {"osm_id": 1252719621, "building": "yes", "name": "", "height": null, "height_m": null, "levels": null, "tract_id": "40109107703", "tract_name": "1077.03", "tags": {"building": "yes", "source": "microsoft/BuildingFootprints"}}}]}