{"type": "FeatureCollection", "features": [{"type": "Feature", "geometry": {"type": "Polygon", "coordinates": [[[-95.8226473, 36.1102736], [-95.8225734, 36.1102747], [-95.8225711, 36.1101688], [-95.8226451, 36.1101678], [-95.8226473, 36.1102736]]]}, "properties": {"osm_id": 370952940, "building": "yes", "name": "", "height": null, "height_m": null, "levels": null, "tract_id": "40143009014", "tract_name": "90.14", "tags": {"building": "yes"}}}, {"type": "Feature", "geometry": {"type": "Polygon", "coordinates": [[[-95.822707, 36.1106895], [-95.8223487, 36.1106945], [-95.8223458, 36.1105586], [-95.8224888, 36.1105566], [-95.8224903, 36.1106277], [-95.8225624, 36.1106266], [-95.8225608, 36.1105556], [-95.8227041, 36.1105536], [-95.822707, 36.1106895]]]}, "properties": {"osm_id": 370952945, "building": "yes", "name": "", "height": null, "height_m": null, "levels": null, "tract_id": "40143009014", "tract_name": "90.14", "tags": {"addr:city": "Tulsa", "addr:country": "US", "addr:housenumber": "3607", "addr:postcode": "74134", "addr:state": "OK", "addr:street": "South 139th Avenue East", "building": "yes"}}}, {"type": "Feature", "geometry": {"type": "Polygon", "coordinates": [[[-95.8222885, 36.1133008], [-95.822289, 36.1132701], [-95.8223286, 36.1132705], [-95.8223281, 36.1133012], [-95.8222885, 36.1133008]]]}, "properties": {"osm_id": 1056200744, "building": "yes", "name": "", "height": null, "height_m": null, "levels": null, "tract_id": "40143009014", "tract_name": "90.14", "tags": {"building": "yes"}}}, {"type": "Feature", "geometry": {"type": "Polygon", "coordinates": [[[-95.8226674, 36.1132856], [-95.8225163, 36.1132861], [-95.8225155, 36.1131443], [-95.8226319, 36.1131439], [-95.8226322, 36.1132026], [-95.8226669, 36.1132025], [-95.8226674, 36.1132856]]]}, "properties": {"osm_id": 1056200745, "building": "detached", "name": "", "height": null, "height_m": null, "levels": null, "tract_id": "40143009014", "tract_name": "90.14", "tags": {"addr:city": "Tulsa", "addr:country": "US", "addr:housenumber": "3345", "addr:postcode": "74134", "addr:state": "OK", "addr:street": "South 138th Avenue East", "building": "detached"}}}, {"type": "Feature", "geometry": {"type": "Polygon", "coordinates": [[[-95.8212149, 36.1132366], [-95.8212138, 36.1132865], [-95.8210696, 36.1132844], [-95.8210727, 36.113144], [-95.8211939, 36.1131457], [-95.821192, 36.1132362], [-95.8212149, 36.1132366]]]}, "properties": {"osm_id": 1056200746, "building": "detached", "name": "", "height": null, "height_m": null, "levels": null, "tract_id": "40143009014", "tract_name": "90.14", "tags": {"addr:city": "Tulsa", "addr:country": "US", "addr:housenumber": "3352", "addr:postcode": "74134", "addr:state": "OK", "addr:street": "South 140th Avenue East", "building": "detached"}}}, {"type": "Feature", "geometry": {"type": "Polygon", "coordinates": [[[-95.8197637, 36.1129561], [-95.8195943, 36.1129563], [-95.819594, 36.1128167], [-95.8197273, 36.1128165], [-95.8197274, 36.1128796], [-95.8197636, 36.1128796], [-95.8197637, 36.1129561]]]}, "properties": {"osm_id": 1056200747, "building": "detached", "name": "", "height": null, "height_m": null, "levels": null, "tract_id": "40143009014", "tract_name": "90.14", "tags": {"addr:city": "Tulsa", "addr:country": "US", "addr:housenumber": "3377", "addr:postcode": "74134", "addr:state": "OK", "addr:street": "South 141st Avenue East", "building": "detached"}}}, {"type": "Feature", "geometry": {"type": "Polygon", "coordinates": [[[-95.8193861, 36.1129083], [-95.8194309, 36.1129065], [-95.8194336, 36.1129501], [-95.8193887, 36.1129519], [-95.8193861, 36.1129083]]]}, "properties": {"osm_id": 1056200748, "building": "yes", "name": "", "height": null, "height_m": null, "levels": null, "tract_id": "40143009014", "tract_name": "90.14", "tags": {"building": "yes"}}}, {"type": "Feature", "geometry": {"type": "Polygon", "coordinates": [[[-95.8187516, 36.1113872], [-95.8186489, 36.1113417], [-95.8186559, 36.1113314], [-95.8185917, 36.1113029], [-95.8185282, 36.1113965], [-95.8186068, 36.1114314], [-95.8186228, 36.1114078], [-95.8187111, 36.1114469], [-95.8187516, 36.1113872]]]}, "properties": {"osm_id": 1314247124, "building": "detached", "name": "", "height": null, "height_m": null, "levels": null, "tract_id": "40143009014", "tract_name": "90.14", "tags": {"building": "detached"}}}, {"type": "Feature", "geometry": {"type": "Polygon", "coordinates": [[[-95.8185356, 36.1113382], [-95.8184455, 36.1112988], [-95.8184706, 36.1112613], [-95.8184096, 36.1112346], [-95.8183336, 36.111348], [-95.8184847, 36.1114141], [-95.8185356, 36.1113382]]]}, "properties": {"osm_id": 1314247125, "building": "detached", "name": "", "height": null, "height_m": null, "levels": null, "tract_id": "40143009014", "tract_name": "90.14", "tags": {"building": "detached"}}}, {"type": "Feature", "geometry": {"type": "Polygon", "coordinates": [[[-95.8183822, 36.1112222], [-95.8182865, 36.1111816], [-95.8182758, 36.1111981], [-95.8182062, 36.1111686], [-95.8181533, 36.11125], [-95.8183186, 36.1113201], [-95.8183822, 36.1112222]]]}, "properties": {"osm_id": 1314247126, "building": "detached", "name": "", "height": null, "height_m": null, "levels": null, "tract_id": "40143009014", "tract_name": "90.14", "tags": {"building": "detached"}}}, {"type": "Feature", "geometry": {"type": "Polygon", "coordinates": [[[-95.8181765, 36.1111541], [-95.8181064, 36.1111241], [-95.8181164, 36.1111087], [-95.8180213, 36.1110681], [-95.8179616, 36.1111593], [-95.8179878, 36.1111705], [-95.8179696, 36.1111983], [-95.8180225, 36.1112208], [-95.8180429, 36.1111896], [-95.8181292, 36.1112265], [-95.8181765, 36.1111541]]]}, "properties": {"osm_id": 1314247127, "building": "detached", "name": "", "height": null, "height_m": null, "levels": null, "tract_id": "40143009014", "tract_name": "90.14", "tags": {"building": "detached"}}}, {"type": "Feature", "geometry": {"type": "Polygon", "coordinates": [[[-95.8178021, 36.1109736], [-95.8177184, 36.1109388], [-95.817712, 36.1109489], [-95.8176327, 36.1109158], [-95.8175702, 36.1110137], [-95.817613, 36.1110316], [-95.8175969, 36.1110568], [-95.8176563, 36.1110816], [-95.8176781, 36.1110474], [-95.8177388, 36.1110727], [-95.8178021, 36.1109736]]]}, "properties": {"osm_id": 1314247128, "building": "detached", "name": "", "height": null, "height_m": null, "levels": null, "tract_id": "40143009014", "tract_name": "90.14", "tags": {"building": "detached"}}}, {"type": "Feature", "geometry": {"type": "Polygon", "coordinates": [[[-95.8173955, 36.1112942], [-95.8172093, 36.111287], [-95.8172008, 36.1114289], [-95.817387, 36.1114361], [-95.8173955, 36.1112942]]]}, "properties": {"osm_id": 1314247129, "building": "detached", "name": "", "height": null, "height_m": null, "levels": null, "tract_id": "40143009014", "tract_name": "90.14", "tags": {"building": "detached"}}}, {"type": "Feature", "geometry": {"type": "Polygon", "coordinates": [[[-95.817196, 36.1112492], [-95.8171228, 36.1111918], [-95.8170866, 36.1112219], [-95.8170376, 36.1111835], [-95.8169701, 36.1112396], [-95.8170174, 36.1112767], [-95.8169767, 36.1113105], [-95.8170516, 36.1113693], [-95.817196, 36.1112492]]]}, "properties": {"osm_id": 1314247130, "building": "detached", "name": "", "height": null, "height_m": null, "levels": null, "tract_id": "40143009014", "tract_name": "90.14", "tags": {"building": "detached"}}}, {"type": "Feature", "geometry": {"type": "Polygon", "coordinates": [[[-95.8190484, 36.1110241], [-95.8189648, 36.1109926], [-95.818989, 36.1109508], [-95.8189418, 36.1109329], [-95.8189116, 36.1109852], [-95.8188863, 36.1109756], [-95.8188156, 36.1110978], [-95.8189049, 36.1111315], [-95.8189295, 36.1110891], [-95.8189963, 36.1111143], [-95.8190484, 36.1110241]]]}, "properties": {"osm_id": 1314247131, "building": "detached", "name": "", "height": null, "height_m": null, "levels": null, "tract_id": "40143009014", "tract_name": "90.14", "tags": {"building": "detached"}}}, {"type": "Feature", "geometry": {"type": "Polygon", "coordinates": [[[-95.8187759, 36.1110884], [-95.8186837, 36.111051], [-95.8187047, 36.1110171], [-95.8186289, 36.1109865], [-95.8186791, 36.1109054], [-95.8188472, 36.1109734], [-95.8187759, 36.1110884]]]}, "properties": {"osm_id": 1314247132, "building": "detached", "name": "", "height": null, "height_m": null, "levels": null, "tract_id": "40143009014", "tract_name": "90.14", "tags": {"building": "detached"}}}, {"type": "Feature", "geometry": {"type": "Polygon", "coordinates": [[[-95.8186443, 36.1108865], [-95.8185807, 36.1109969], [-95.8184975, 36.1109657], [-95.8185158, 36.1109339], [-95.8184499, 36.1109091], [-95.8184952, 36.1108305], [-95.8186443, 36.1108865]]]}, "properties": {"osm_id": 1314247133, "building": "detached", "name": "", "height": null, "height_m": null, "levels": null, "tract_id": "40143009014", "tract_name": "90.14", "tags": {"building": "detached"}}}, {"type": "Feature", "geometry": {"type": "Polygon", "coordinates": [[[-95.8185056, 36.1107632], [-95.8183782, 36.1107102], [-95.8183404, 36.1107695], [-95.8183235, 36.1107624], [-95.8182618, 36.1108591], [-95.8183412, 36.1108922], [-95.818367, 36.1108518], [-95.8184319, 36.1108788], [-95.8185056, 36.1107632]]]}, "properties": {"osm_id": 1314247134, "building": "detached", "name": "", "height": null, "height_m": null, "levels": null, "tract_id": "40143009014", "tract_name": "90.14", "tags": {"building": "detached"}}}, {"type": "Feature", "geometry": {"type": "Polygon", "coordinates": [[[-95.8182802, 36.1107282], [-95.8182065, 36.1108402], [-95.8181262, 36.1108057], [-95.8181458, 36.1107759], [-95.8180778, 36.1107467], [-95.8181319, 36.1106645], [-95.8182802, 36.1107282]]]}, "properties": {"osm_id": 1314247135, "building": "detached", "name": "", "height": null, "height_m": null, "levels": null, "tract_id": "40143009014", "tract_name": "90.14", "tags": {"building": "detached"}}}, {"type": "Feature", "geometry": {"type": "Polygon", "coordinates": [[[-95.8243049, 36.1181955], [-95.8243043, 36.1182225], [-95.8242634, 36.118222], [-95.824264, 36.1181949], [-95.8243049, 36.1181955]]]}, "properties": {"osm_id": 1382101114, "building": "shed", "name": "", "height": null, "height_m": null, "levels": null, "tract_id": "40143009014", "tract_name": "90.14", "tags": {"building": "shed"}}}, {"type": "Feature", "geometry": {"type": "Polygon", "coordinates": [[[-95.8243646, 36.1184506], [-95.8243143, 36.1184506], [-95.8243143, 36.1184062], [-95.8243646, 36.1184062], [-95.8243646, 36.1184506]]]}, "properties": {"osm_id": 1382101115, "building": "shed", "name": "", "height": null, "height_m": null, "levels": null, "tract_id": "40143009014", "tract_name": "90.14", "tags": {"building": "shed"}}}, {"type": "Feature", "geometry": {"type": "Polygon", "coordinates": [[[-95.824353, 36.1187738], [-95.8243129, 36.1187732], [-95.8243139, 36.1187315], [-95.824354, 36.1187321], [-95.824353, 36.1187738]]]}, "properties": {"osm_id": 1382101116, "building": "shed", "name": "", "height": null, "height_m": null, "levels": null, "tract_id": "40143009014", "tract_name": "90.14", "tags": {"building": "shed"}}}, {"type": "Feature", "geometry": {"type": "Polygon", "coordinates": [[[-95.823635, 36.1187604], [-95.8236347, 36.1187824], [-95.8236062, 36.1187821], [-95.8236065, 36.1187602], [-95.823635, 36.1187604]]]}, "properties": {"osm_id": 1382101117, "building": "shed", "name": "", "height": null, "height_m": null, "levels": null, "tract_id": "40143009014", "tract_name": "90.14", "tags": {"building": "shed"}}}, {"type": "Feature", "geometry": {"type": "Polygon", "coordinates": [[[-95.8233504, 36.1188019], [-95.823351, 36.1187699], [-95.8233843, 36.1187704], [-95.8233836, 36.1188023], [-95.8233504, 36.1188019]]]}, "properties": {"osm_id": 1382101118, "building": "shed", "name": "", "height": null, "height_m": null, "levels": null, "tract_id": "40143009014", "tract_name": "90.14", "tags": {"building": "shed"}}}, {"type": "Feature", "geometry": {"type": "Polygon", "coordinates": [[[-95.8225004, 36.1187826], [-95.8224555, 36.1187816], [-95.8224567, 36.1187503], [-95.8225016, 36.1187513], [-95.8225004, 36.1187826]]]}, "properties": {"osm_id": 1382101119, "building": "shed", "name": "", "height": null, "height_m": null, "levels": null, "tract_id": "40143009014", "tract_name": "90.14", "tags": {"building": "shed"}}}, {"type": "Feature", "geometry": {"type": "Polygon", "coordinates": [[[-95.8230181, 36.1187198], [-95.8229774, 36.11872], [-95.8229772, 36.1186971], [-95.8230179, 36.1186969], [-95.8230181, 36.1187198]]]}, "properties": {"osm_id": 1382101120, "building": "shed", "name": "", "height": null, "height_m": null, "levels": null, "tract_id": "40143009014", "tract_name": "90.14", "tags": {"building": "shed"}}}, {"type": "Feature", "geometry": {"type": "Polygon", "coordinates": [[[-95.8223209, 36.1186684], [-95.8224415, 36.1186669], [-95.8224395, 36.1185585], [-95.8223488, 36.1185597], [-95.8223491, 36.1185749], [-95.8223191, 36.1185753], [-95.8223209, 36.1186684]]]}, "properties": {"osm_id": 1382101121, "building": "detached", "name": "", "height": null, "height_m": null, "levels": null, "tract_id": "40143009014", "tract_name": "90.14", "tags": {"addr:city": "Tulsa", "addr:country": "US", "addr:housenumber": "13737", "addr:postcode": "74134", "addr:state": "OK", "addr:street": "East 31st Place South", "building": "detached"}}}, {"type": "Feature", "geometry": {"type": "Polygon", "coordinates": [[[-95.8234287, 36.1181228], [-95.8236486, 36.1181211], [-95.8236477, 36.1180439], [-95.823594, 36.1180443], [-95.8235932, 36.1179785], [-95.8234538, 36.1179796], [-95.8234551, 36.1180923], [-95.8234283, 36.1180925], [-95.8234287, 36.1181228]]]}, "properties": {"osm_id": 1382101122, "building": "detached", "name": "", "height": null, "height_m": null, "levels": null, "tract_id": "40143009014", "tract_name": "90.14", "tags": {"addr:city": "Tulsa", "addr:country": "US", "addr:housenumber": "3111", "addr:postcode": "74134", "addr:state": "OK", "addr:street": "South 137th Avenue East", "building": "detached"}}}, {"type": "Feature", "geometry": {"type": "Polygon", "coordinates": [[[-95.8236695, 36.1187299], [-95.8238528, 36.1187243], [-95.8238481, 36.1186234], [-95.8236648, 36.1186289], [-95.8236695, 36.1187299]]]}, "properties": {"osm_id": 1382101123, "building": "detached", "name": "", "height": null, "height_m": null, "levels": null, "tract_id": "40143009014", "tract_name": "90.14", "tags": {"addr:city": "Tulsa", "addr:country": "US", "addr:housenumber": "13707", "addr:postcode": "74134", "addr:state": "OK", "addr:street": "East 31st Place South", "building": "detached"}}}, {"type": "Feature", "geometry": {"type": "Polygon", "coordinates": [[[-95.823, 36.1186898], [-95.8230657, 36.1186895], [-95.8230659, 36.1187161], [-95.8231511, 36.1187157], [-95.8231509, 36.1186891], [-95.8231662, 36.1186891], [-95.8231653, 36.1185579], [-95.822999, 36.1185587], [-95.823, 36.1186898]]]}, "properties": {"osm_id": 1382101124, "building": "detached", "name": "", "height": null, "height_m": null, "levels": null, "tract_id": "40143009014", "tract_name": "90.14", "tags": {"addr:city": "Tulsa", "addr:country": "US", "addr:housenumber": "13723", "addr:postcode": "74134", "addr:state": "OK", "addr:street": "East 31st Place South", "building": "detached"}}}, {"type": "Feature", "geometry": {"type": "Polygon", "coordinates": [[[-95.82268, 36.1181603], [-95.8225057, 36.1181613], [-95.8225067, 36.1182718], [-95.8226113, 36.1182712], [-95.8226115, 36.1182885], [-95.8226812, 36.1182881], [-95.82268, 36.1181603]]]}, "properties": {"osm_id": 1382101125, "building": "detached", "name": "", "height": null, "height_m": null, "levels": null, "tract_id": "40143009014", "tract_name": "90.14", "tags": {"addr:city": "Tulsa", "addr:country": "US", "addr:housenumber": "13734", "addr:postcode": "74134", "addr:state": "OK", "addr:street": "East 31st Place South", "building": "detached"}}}, {"type": "Feature", "geometry": {"type": "Polygon", "coordinates": [[[-95.8224766, 36.1181382], [-95.8222985, 36.1181409], [-95.822301, 36.1182472], [-95.8223789, 36.1182461], [-95.8223799, 36.1182863], [-95.82248, 36.1182847], [-95.8224766, 36.1181382]]]}, "properties": {"osm_id": 1382101126, "building": "detached", "name": "", "height": null, "height_m": null, "levels": null, "tract_id": "40143009014", "tract_name": "90.14", "tags": {"addr:city": "Tulsa", "addr:country": "US", "addr:housenumber": "13738", "addr:postcode": "74134", "addr:state": "OK", "addr:street": "East 31st Place South", "building": "detached"}}}, {"type": "Feature", "geometry": {"type": "Polygon", "coordinates": [[[-95.8227296, 36.1187067], [-95.8227261, 36.1185576], [-95.8226362, 36.118559], [-95.8226376, 36.1186157], [-95.8225484, 36.118617], [-95.8225505, 36.1187094], [-95.8227296, 36.1187067]]]}, "properties": {"osm_id": 1382101127, "building": "detached", "name": "", "height": null, "height_m": null, "levels": null, "tract_id": "40143009014", "tract_name": "90.14", "tags": {"addr:city": "Tulsa", "addr:country": "US", "addr:housenumber": "13733", "addr:postcode": "74134", "addr:state": "OK", "addr:street": "East 31st Place South", "building": "detached"}}}, {"type": "Feature", "geometry": {"type": "Polygon", "coordinates": [[[-95.8229546, 36.1185551], [-95.822857, 36.1185543], [-95.8228564, 36.1185976], [-95.8227813, 36.1185971], [-95.82278, 36.1187097], [-95.8229527, 36.1187111], [-95.8229546, 36.1185551]]]}, "properties": {"osm_id": 1382101128, "building": "detached", "name": "", "height": null, "height_m": null, "levels": null, "tract_id": "40143009014", "tract_name": "90.14", "tags": {"addr:city": "Tulsa", "addr:country": "US", "addr:housenumber": "13727", "addr:postcode": "74134", "addr:state": "OK", "addr:street": "East 31st Place South", "building": "detached"}}}, {"type": "Feature", "geometry": {"type": "Polygon", "coordinates": [[[-95.823449, 36.1186988], [-95.8236314, 36.1187003], [-95.8236331, 36.1185573], [-95.8235312, 36.1185565], [-95.8235306, 36.1186033], [-95.8234502, 36.1186027], [-95.823449, 36.1186988]]]}, "properties": {"osm_id": 1382101129, "building": "detached", "name": "", "height": null, "height_m": null, "levels": null, "tract_id": "40143009014", "tract_name": "90.14", "tags": {"addr:city": "Tulsa", "addr:country": "US", "addr:housenumber": "13711", "addr:postcode": "74134", "addr:state": "OK", "addr:street": "East 31st Place South", "building": "detached"}}}, {"type": "Feature", "geometry": {"type": "Polygon", "coordinates": [[[-95.8227106, 36.1181485], [-95.8227098, 36.118256], [-95.8227822, 36.1182564], [-95.822782, 36.1182831], [-95.8228785, 36.1182836], [-95.8228795, 36.1181493], [-95.8227106, 36.1181485]]]}, "properties": {"osm_id": 1382101130, "building": "detached", "name": "", "height": null, "height_m": null, "levels": null, "tract_id": "40143009014", "tract_name": "90.14", "tags": {"addr:city": "Tulsa", "addr:country": "US", "addr:housenumber": "13728", "addr:postcode": "74134", "addr:state": "OK", "addr:street": "East 31st Place South", "building": "detached"}}}, {"type": "Feature", "geometry": {"type": "Polygon", "coordinates": [[[-95.8232306, 36.118289], [-95.8233057, 36.1182888], [-95.8233051, 36.118148], [-95.8231415, 36.1181485], [-95.8231419, 36.1182481], [-95.8232304, 36.1182479], [-95.8232306, 36.118289]]]}, "properties": {"osm_id": 1382101131, "building": "detached", "name": "", "height": null, "height_m": null, "levels": null, "tract_id": "40143009014", "tract_name": "90.14", "tags": {"addr:city": "Tulsa", "addr:country": "US", "addr:housenumber": "13718", "addr:postcode": "74134", "addr:state": "OK", "addr:street": "East 31st Place South", "building": "detached"}}}, {"type": "Feature", "geometry": {"type": "Polygon", "coordinates": [[[-95.8236412, 36.1181399], [-95.8234604, 36.1181389], [-95.8234602, 36.1181684], [-95.8234264, 36.1181682], [-95.8234261, 36.1182081], [-95.8234652, 36.1182083], [-95.8234645, 36.1182884], [-95.8235825, 36.1182891], [-95.8235833, 36.1182002], [-95.8236407, 36.1182006], [-95.8236412, 36.1181399]]]}, "properties": {"osm_id": 1382101132, "building": "detached", "name": "", "height": null, "height_m": null, "levels": null, "tract_id": "40143009014", "tract_name": "90.14", "tags": {"addr:city": "Tulsa", "addr:country": "US", "addr:housenumber": "3107", "addr:postcode": "74134", "addr:state": "OK", "addr:street": "South 137th Avenue East", "building": "detached"}}}, {"type": "Feature", "geometry": {"type": "Polygon", "coordinates": [[[-95.822758, 36.1178417], [-95.8227574, 36.1179898], [-95.8228137, 36.11799], [-95.8228138, 36.117961], [-95.8229307, 36.1179613], [-95.8229311, 36.1178681], [-95.8228303, 36.1178679], [-95.8228304, 36.1178419], [-95.822758, 36.1178417]]]}, "properties": {"osm_id": 1382101133, "building": "detached", "name": "", "height": null, "height_m": null, "levels": null, "tract_id": "40143009014", "tract_name": "90.14", "tags": {"addr:city": "Tulsa", "addr:country": "US", "addr:housenumber": "13805", "addr:postcode": "74134", "addr:state": "OK", "addr:street": "East 32nd Street South", "building": "detached"}}}, {"type": "Feature", "geometry": {"type": "Polygon", "coordinates": [[[-95.8232259, 36.1187104], [-95.8234029, 36.1187077], [-95.8233993, 36.1185582], [-95.8233028, 36.1185597], [-95.8233036, 36.1185922], [-95.8232231, 36.1185935], [-95.8232259, 36.1187104]]]}, "properties": {"osm_id": 1382101134, "building": "detached", "name": "", "height": null, "height_m": null, "levels": null, "tract_id": "40143009014", "tract_name": "90.14", "tags": {"addr:city": "Tulsa", "addr:country": "US", "addr:housenumber": "13717", "addr:postcode": "74134", "addr:state": "OK", "addr:street": "East 31st Place South", "building": "detached"}}}, {"type": "Feature", "geometry": {"type": "Polygon", "coordinates": [[[-95.8240437, 36.1183835], [-95.8241804, 36.1183823], [-95.8241784, 36.1182371], [-95.8240067, 36.1182387], [-95.8240078, 36.1183145], [-95.8240427, 36.1183142], [-95.8240437, 36.1183835]]]}, "properties": {"osm_id": 1382101135, "building": "detached", "name": "", "height": null, "height_m": null, "levels": null, "tract_id": "40143009014", "tract_name": "90.14", "tags": {"addr:city": "Tulsa", "addr:country": "US", "addr:housenumber": "3106", "addr:postcode": "74134", "addr:state": "OK", "addr:street": "South 137th Avenue East", "building": "detached"}}}, {"type": "Feature", "geometry": {"type": "Polygon", "coordinates": [[[-95.8240115, 36.1182212], [-95.8241401, 36.1182191], [-95.8241383, 36.1181463], [-95.8241865, 36.1181455], [-95.8241847, 36.1180754], [-95.8239692, 36.118079], [-95.8239707, 36.1181404], [-95.8240094, 36.1181398], [-95.8240115, 36.1182212]]]}, "properties": {"osm_id": 1382101136, "building": "detached", "name": "", "height": null, "height_m": null, "levels": null, "tract_id": "40143009014", "tract_name": "90.14", "tags": {"addr:city": "Tulsa", "addr:country": "US", "addr:housenumber": "3110", "addr:postcode": "74134", "addr:state": "OK", "addr:street": "South 137th Avenue East", "building": "detached"}}}, {"type": "Feature", "geometry": {"type": "Polygon", "coordinates": [[[-95.8245432, 36.1179839], [-95.8244295, 36.1179847], [-95.8244303, 36.1180691], [-95.8244046, 36.1180693], [-95.8244051, 36.118117], [-95.8246223, 36.1181156], [-95.8246216, 36.1180441], [-95.8245438, 36.1180446], [-95.8245432, 36.1179839]]]}, "properties": {"osm_id": 1382101137, "building": "detached", "name": "", "height": null, "height_m": null, "levels": null, "tract_id": "40143009014", "tract_name": "90.14", "tags": {"addr:city": "Tulsa", "addr:country": "US", "addr:housenumber": "3125", "addr:postcode": "74134", "addr:state": "OK", "addr:street": "South 136th Avenue East", "building": "detached"}}}, {"type": "Feature", "geometry": {"type": "Polygon", "coordinates": [[[-95.8240455, 36.1184596], [-95.824012, 36.1185169], [-95.8241094, 36.1185541], [-95.8241278, 36.1185227], [-95.8241858, 36.1185448], [-95.8242333, 36.1184636], [-95.8241396, 36.1184278], [-95.8241072, 36.1184832], [-95.8240455, 36.1184596]]]}, "properties": {"osm_id": 1382101138, "building": "detached", "name": "", "height": null, "height_m": null, "levels": null, "tract_id": "40143009014", "tract_name": "90.14", "tags": {"addr:city": "Tulsa", "addr:country": "US", "addr:housenumber": "3102", "addr:postcode": "74134", "addr:state": "OK", "addr:street": "South 137th Avenue East", "building": "detached"}}}, {"type": "Feature", "geometry": {"type": "Polygon", "coordinates": [[[-95.8239696, 36.1179074], [-95.8239682, 36.1179954], [-95.8240096, 36.1179958], [-95.8240086, 36.1180551], [-95.8241389, 36.1180565], [-95.8241402, 36.1179777], [-95.8241723, 36.117978], [-95.8241729, 36.1179433], [-95.8241407, 36.117943], [-95.8241413, 36.1179092], [-95.8239696, 36.1179074]]]}, "properties": {"osm_id": 1382101139, "building": "detached", "name": "", "height": null, "height_m": null, "levels": null, "tract_id": "40143009014", "tract_name": "90.14", "tags": {"addr:city": "Tulsa", "addr:country": "US", "addr:housenumber": "3114", "addr:postcode": "74134", "addr:state": "OK", "addr:street": "South 137th Avenue East", "building": "detached"}}}, {"type": "Feature", "geometry": {"type": "Polygon", "coordinates": [[[-95.8229123, 36.1182892], [-95.8229981, 36.1182896], [-95.8229983, 36.1182484], [-95.8230814, 36.1182488], [-95.8230821, 36.1181383], [-95.8230017, 36.118138], [-95.8230019, 36.1181098], [-95.8229134, 36.1181095], [-95.8229123, 36.1182892]]]}, "properties": {"osm_id": 1382101140, "building": "detached", "name": "", "height": null, "height_m": null, "levels": null, "tract_id": "40143009014", "tract_name": "90.14", "tags": {"addr:city": "Tulsa", "addr:country": "US", "addr:housenumber": "13724", "addr:postcode": "74134", "addr:state": "OK", "addr:street": "East 31st Place South", "building": "detached"}}}, {"type": "Feature", "geometry": {"type": "Polygon", "coordinates": [[[-95.8246253, 36.1187837], [-95.8246246, 36.1187001], [-95.824579, 36.1187003], [-95.8245785, 36.1186332], [-95.8244552, 36.1186338], [-95.8244558, 36.1187074], [-95.8244075, 36.1187077], [-95.8244081, 36.1187848], [-95.8246253, 36.1187837]]]}, "properties": {"osm_id": 1382101141, "building": "detached", "name": "", "height": null, "height_m": null, "levels": null, "tract_id": "40143009014", "tract_name": "90.14", "tags": {"addr:city": "Tulsa", "addr:country": "US", "addr:housenumber": "3105", "addr:postcode": "74134", "addr:state": "OK", "addr:street": "South 136th Avenue East", "building": "detached"}}}, {"type": "Feature", "geometry": {"type": "Polygon", "coordinates": [[[-95.8244652, 36.1184747], [-95.8244638, 36.1186112], [-95.8246204, 36.1186123], [-95.8246213, 36.1185365], [-95.824596, 36.1185363], [-95.8245967, 36.1184757], [-95.8244652, 36.1184747]]]}, "properties": {"osm_id": 1382101142, "building": "detached", "name": "", "height": null, "height_m": null, "levels": null, "tract_id": "40143009014", "tract_name": "90.14", "tags": {"addr:city": "Tulsa", "addr:country": "US", "addr:housenumber": "3109", "addr:postcode": "74134", "addr:state": "OK", "addr:street": "South 136th Avenue East", "building": "detached"}}}, {"type": "Feature", "geometry": {"type": "Polygon", "coordinates": [[[-95.8245837, 36.1183161], [-95.8244711, 36.1183151], [-95.8244711, 36.1184442], [-95.8246232, 36.1184456], [-95.8246243, 36.1183719], [-95.8245829, 36.1183715], [-95.8245837, 36.1183161]]]}, "properties": {"osm_id": 1382101143, "building": "detached", "name": "", "height": null, "height_m": null, "levels": null, "tract_id": "40143009014", "tract_name": "90.14", "tags": {"addr:city": "Tulsa", "addr:country": "US", "addr:housenumber": "3115", "addr:postcode": "74134", "addr:state": "OK", "addr:street": "South 136th Avenue East", "building": "detached"}}}, {"type": "Feature", "geometry": {"type": "Polygon", "coordinates": [[[-95.8244757, 36.1182883], [-95.8246178, 36.1182863], [-95.824616, 36.1182031], [-95.8245945, 36.1182034], [-95.8245932, 36.1181427], [-95.8244725, 36.1181445], [-95.8244757, 36.1182883]]]}, "properties": {"osm_id": 1382101144, "building": "detached", "name": "", "height": null, "height_m": null, "levels": null, "tract_id": "40143009014", "tract_name": "90.14", "tags": {"addr:city": "Tulsa", "addr:country": "US", "addr:housenumber": "3119", "addr:postcode": "74134", "addr:state": "OK", "addr:street": "South 136th Avenue East", "building": "detached"}}}, {"type": "Feature", "geometry": {"type": "Polygon", "coordinates": [[[-95.8238923, 36.1186259], [-95.8239694, 36.1187728], [-95.824139, 36.1187147], [-95.8240802, 36.1186027], [-95.8240038, 36.1186288], [-95.8239855, 36.1185939], [-95.8238923, 36.1186259]]]}, "properties": {"osm_id": 1382101145, "building": "detached", "name": "", "height": null, "height_m": null, "levels": null, "tract_id": "40143009014", "tract_name": "90.14", "tags": {"addr:city": "Tulsa", "addr:country": "US", "addr:housenumber": "13703", "addr:postcode": "74134", "addr:state": "OK", "addr:street": "East 31st Place South", "building": "detached"}}}]}