{"type": "FeatureCollection", "features": [{"type": "Feature", "geometry": {"type": "Polygon", "coordinates": [[[-97.898569, 36.117047], [-97.8984478, 36.1169476], [-97.8984982, 36.1169075], [-97.8986194, 36.1170068], [-97.898569, 36.117047]]]}, "properties": {"osm_id": 244632224, "building": "roof", "name": "", "height": null, "height_m": null, "levels": null, "tract_id": "40073958100", "tract_name": "9581", "tags": {"building": "roof", "layer": "1"}}}, {"type": "Feature", "geometry": {"type": "Polygon", "coordinates": [[[-97.8981132, 36.1171375], [-97.8979832, 36.1171347], [-97.8979846, 36.1170921], [-97.8981147, 36.117095], [-97.8981132, 36.1171375]]]}, "properties": {"osm_id": 244632225, "building": "roof", "name": "", "height": null, "height_m": null, "levels": null, "tract_id": "40073958100", "tract_name": "9581", "tags": {"building": "roof", "layer": "1"}}}, {"type": "Feature", "geometry": {"type": "Polygon", "coordinates": [[[-97.8984719, 36.1171545], [-97.8983269, 36.1172625], [-97.898181, 36.1171348], [-97.8983261, 36.1170268], [-97.8984719, 36.1171545]]]}, "properties": {"osm_id": 244632226, "building": "yes", "name": "Main Street Truck Stop", "height": null, "height_m": null, "levels": null, "tract_id": "40073958100", "tract_name": "9581", "tags": {"building": "yes", "name": "Main Street Truck Stop", "shop": "convenience"}}}, {"type": "Feature", "geometry": {"type": "Polygon", "coordinates": [[[-97.8890938, 36.1171996], [-97.8886908, 36.1172005], [-97.8886905, 36.1171153], [-97.8887622, 36.1171152], [-97.8887621, 36.1170681], [-97.8887208, 36.1170682], [-97.8887205, 36.1169759], [-97.8886761, 36.116976], [-97.8886758, 36.1169001], [-97.8887202, 36.1169], [-97.8887201, 36.1168613], [-97.8887632, 36.1168612], [-97.888763, 36.1168223], [-97.8890926, 36.1168216], [-97.889093, 36.1169289], [-97.8891431, 36.1169288], [-97.8891438, 36.1171367], [-97.8890936, 36.1171368], [-97.8890938, 36.1171996]]]}, "properties": {"osm_id": 244632243, "building": "retail", "name": "4T Food Market", "height": null, "height_m": null, "levels": null, "tract_id": "40073958100", "tract_name": "9581", "tags": {"building": "retail", "name": "4T Food Market", "shop": "supermarket"}}}, {"type": "Feature", "geometry": {"type": "Polygon", "coordinates": [[[-97.8973842, 36.1107594], [-97.8970247, 36.1107523], [-97.8970285, 36.1106281], [-97.8971308, 36.1106302], [-97.897163, 36.1106308], [-97.8973879, 36.1106352], [-97.8973842, 36.1107594]]]}, "properties": {"osm_id": 367530010, "building": "church", "name": "St. Joseph Catholic Church", "height": null, "height_m": null, "levels": null, "tract_id": "40073958100", "tract_name": "9581", "tags": {"addr:city": "Hennessey", "addr:housenumber": "211", "addr:postcode": "73742", "addr:state": "OK", "addr:street": "North Cherokee Street", "amenity": "place_of_worship", "building": "church", "denomination": "roman_catholic", "name": "St. Joseph Catholic Church", "religion": "christian"}}}, {"type": "Feature", "geometry": {"type": "Polygon", "coordinates": [[[-97.8973965, 36.1114096], [-97.8973965, 36.1111336], [-97.8973168, 36.1111336], [-97.8973225, 36.1110784], [-97.8970435, 36.111083], [-97.8970378, 36.1114096], [-97.8973965, 36.1114096]]]}, "properties": {"osm_id": 367532189, "building": "yes", "name": "Parish Hall", "height": null, "height_m": null, "levels": null, "tract_id": "40073958100", "tract_name": "9581", "tags": {"building": "yes", "name": "Parish Hall"}}}, {"type": "Feature", "geometry": {"type": "Polygon", "coordinates": [[[-97.8981402, 36.1088839], [-97.8981381, 36.1085652], [-97.8980689, 36.1085655], [-97.8980686, 36.1085083], [-97.8980056, 36.1085086], [-97.8980055, 36.1084943], [-97.8977564, 36.1084954], [-97.8977565, 36.1085065], [-97.8977418, 36.1085065], [-97.8977434, 36.1087516], [-97.8978182, 36.1087513], [-97.8978183, 36.1087762], [-97.8980056, 36.1087754], [-97.8980064, 36.1088845], [-97.8981402, 36.1088839]]]}, "properties": {"osm_id": 370333189, "building": "church", "name": "First Baptist Church", "height": null, "height_m": null, "levels": null, "tract_id": "40073958100", "tract_name": "9581", "tags": {"amenity": "place_of_worship", "building": "church", "denomination": "baptist", "name": "First Baptist Church", "religion": "christian"}}}, {"type": "Feature", "geometry": {"type": "Polygon", "coordinates": [[[-97.8960083, 36.1164936], [-97.8958855, 36.1164946], [-97.8958831, 36.1162892], [-97.8960058, 36.1162883], [-97.8960068, 36.1163684], [-97.8960169, 36.1163683], [-97.8960172, 36.1163976], [-97.8960071, 36.1163976], [-97.8960083, 36.1164936]]]}, "properties": {"osm_id": 370333194, "building": "yes", "name": "Pizza Hut", "height": null, "height_m": null, "levels": null, "tract_id": "40073958100", "tract_name": "9581", "tags": {"addr:city": "Hennessey", "addr:housenumber": "302", "addr:postcode": "73742", "addr:state": "OK", "addr:street": "East Jack Choate Avenue", "amenity": "restaurant", "brand": "Pizza Hut", "brand:wikidata": "Q191615", "building": "yes", "cuisine": "pizza", "name": "Pizza Hut", "phone": "+1 405-853-7868", "website": "https://locations.pizzahut.com/ok/hennessey/302-e-jack-ave"}}}, {"type": "Feature", "geometry": {"type": "Polygon", "coordinates": [[[-97.8986893, 36.1151547], [-97.8985973, 36.1151547], [-97.8985973, 36.1151624], [-97.8985456, 36.1151624], [-97.8985456, 36.1151547], [-97.8983741, 36.1151547], [-97.8983741, 36.1150773], [-97.8986893, 36.1150773], [-97.8986893, 36.1151547]]]}, "properties": {"osm_id": 370333196, "building": "yes", "name": "Sonic", "height": null, "height_m": null, "levels": null, "tract_id": "40073958100", "tract_name": "9581", "tags": {"addr:city": "Hennessey", "addr:housenumber": "527", "addr:postcode": "73742", "addr:state": "OK", "addr:street": "North Main Street", "amenity": "fast_food", "brand": "Sonic", "brand:wikidata": "Q7561808", "building": "yes", "cuisine": "burger", "drive_in": "yes", "name": "Sonic", "opening_hours": "Mo-Fr 06:00-22:00; Sa-Su 07:00-22:00", "phone": "+1 405-853-7884", "takeaway": "yes", "website": "https://locations.sonicdrivein.com/ok/hennessey/527-north-main-street.html"}}}, {"type": "Feature", "geometry": {"type": "Polygon", "coordinates": [[[-97.8994137, 36.1162808], [-97.8992098, 36.1162809], [-97.8992097, 36.1161919], [-97.8994136, 36.1161917], [-97.8994136, 36.1162016], [-97.8994603, 36.1162015], [-97.8994603, 36.1162306], [-97.8994137, 36.1162306], [-97.8994137, 36.1162377], [-97.899482, 36.1162377], [-97.8994821, 36.1162807], [-97.8994137, 36.1162808]]]}, "properties": {"osm_id": 370333197, "building": "yes", "name": "Golden Chick", "height": null, "height_m": null, "levels": null, "tract_id": "40073958100", "tract_name": "9581", "tags": {"addr:city": "Hennessey", "addr:housenumber": "618", "addr:postcode": "73742", "addr:street": "North Main Street", "amenity": "fast_food", "brand": "Golden Chick", "brand:wikidata": "Q3772930", "building": "yes", "cuisine": "chicken", "name": "Golden Chick", "opening_hours": "Mo-Su 10:30-21:00; Fr,Sa 10:30-22:00", "takeaway": "yes"}}}, {"type": "Feature", "geometry": {"type": "Polygon", "coordinates": [[[-97.8986153, 36.1107663], [-97.8986113, 36.110623], [-97.8984018, 36.1106269], [-97.8984033, 36.1106812], [-97.8984163, 36.1106809], [-97.8984175, 36.110723], [-97.8984365, 36.1107227], [-97.8984386, 36.1107986], [-97.8985931, 36.1107957], [-97.8985923, 36.1107668], [-97.8986153, 36.1107663]]]}, "properties": {"osm_id": 370333209, "building": "yes", "name": "", "height": null, "height_m": null, "levels": null, "tract_id": "40073958100", "tract_name": "9581", "tags": {"building": "yes"}}}, {"type": "Feature", "geometry": {"type": "Polygon", "coordinates": [[[-97.8993096, 36.1147029], [-97.8993096, 36.1147618], [-97.8993096, 36.1149452], [-97.8992311, 36.1149452], [-97.8992311, 36.1147618], [-97.8992081, 36.1147618], [-97.8992081, 36.1147029], [-97.8992081, 36.1146511], [-97.8993355, 36.1146511], [-97.8993355, 36.1147029], [-97.8993096, 36.1147029]]]}, "properties": {"osm_id": 370333211, "building": "yes", "name": "", "height": null, "height_m": null, "levels": null, "tract_id": "40073958100", "tract_name": "9581", "tags": {"amenity": "car_wash", "building": "yes"}}}, {"type": "Feature", "geometry": {"type": "Polygon", "coordinates": [[[-97.8972976, 36.1137157], [-97.8972974, 36.1136942], [-97.89736, 36.1136939], [-97.897359, 36.1135497], [-97.8972973, 36.11355], [-97.8972971, 36.113528], [-97.8972033, 36.1135284], [-97.8972034, 36.113548], [-97.8971405, 36.1135483], [-97.8971416, 36.1136928], [-97.8972016, 36.1136925], [-97.8972018, 36.1137161], [-97.8972976, 36.1137157]]]}, "properties": {"osm_id": 370333212, "building": "apartments", "name": "", "height": null, "height_m": null, "levels": null, "tract_id": "40073958100", "tract_name": "9581", "tags": {"building": "apartments"}}}, {"type": "Feature", "geometry": {"type": "Polygon", "coordinates": [[[-97.8986555, 36.1155497], [-97.8983341, 36.115549], [-97.8983342, 36.1155063], [-97.8983537, 36.1155064], [-97.8983539, 36.1154464], [-97.8983612, 36.1154465], [-97.8983613, 36.115413], [-97.8986841, 36.1154137], [-97.8986839, 36.1154501], [-97.8985615, 36.1154499], [-97.8985613, 36.1155139], [-97.8986556, 36.1155141], [-97.8986555, 36.1155497]]]}, "properties": {"osm_id": 370333213, "building": "yes", "name": "", "height": null, "height_m": null, "levels": null, "tract_id": "40073958100", "tract_name": "9581", "tags": {"building": "yes"}}}, {"type": "Feature", "geometry": {"type": "Polygon", "coordinates": [[[-97.8979424, 36.113831], [-97.8979423, 36.1138095], [-97.8980048, 36.1138092], [-97.8980038, 36.113665], [-97.8979421, 36.1136653], [-97.8979419, 36.1136434], [-97.8978481, 36.1136438], [-97.8978483, 36.1136634], [-97.8977853, 36.1136637], [-97.8977864, 36.1138082], [-97.8978464, 36.1138079], [-97.8978466, 36.1138315], [-97.8979424, 36.113831]]]}, "properties": {"osm_id": 370333215, "building": "apartments", "name": "", "height": null, "height_m": null, "levels": null, "tract_id": "40073958100", "tract_name": "9581", "tags": {"building": "apartments"}}}, {"type": "Feature", "geometry": {"type": "Polygon", "coordinates": [[[-97.8995727, 36.1142849], [-97.8992355, 36.1142876], [-97.8992364, 36.114365], [-97.899216, 36.1143651], [-97.8992166, 36.1144195], [-97.8992356, 36.1144194], [-97.8992357, 36.1144286], [-97.8992677, 36.1144284], [-97.8992679, 36.1144525], [-97.8993705, 36.1144517], [-97.8993703, 36.1144386], [-97.8995745, 36.114437], [-97.8995727, 36.1142849]]]}, "properties": {"osm_id": 370333216, "building": "yes", "name": "Healthy Families", "height": null, "height_m": null, "levels": null, "tract_id": "40073958100", "tract_name": "9581", "tags": {"addr:city": "Hennessey", "addr:housenumber": "500", "addr:postcode": "73742", "addr:street": "North Main Street", "amenity": "doctors", "building": "yes", "name": "Healthy Families"}}}, {"type": "Feature", "geometry": {"type": "Polygon", "coordinates": [[[-97.8972976, 36.1140035], [-97.8972974, 36.113982], [-97.89736, 36.1139817], [-97.897359, 36.1138375], [-97.8972973, 36.1138378], [-97.8972971, 36.1138159], [-97.8972033, 36.1138163], [-97.8972034, 36.1138359], [-97.8971405, 36.1138362], [-97.8971416, 36.1139807], [-97.8972016, 36.1139804], [-97.8972018, 36.114004], [-97.8972976, 36.1140035]]]}, "properties": {"osm_id": 370333218, "building": "apartments", "name": "", "height": null, "height_m": null, "levels": null, "tract_id": "40073958100", "tract_name": "9581", "tags": {"building": "apartments"}}}, {"type": "Feature", "geometry": {"type": "Polygon", "coordinates": [[[-97.8979413, 36.1141235], [-97.8979412, 36.114102], [-97.8980037, 36.1141017], [-97.8980027, 36.1139575], [-97.897941, 36.1139578], [-97.8979408, 36.1139358], [-97.897847, 36.1139363], [-97.8978472, 36.1139559], [-97.8977842, 36.1139562], [-97.8977853, 36.1141006], [-97.8978453, 36.1141003], [-97.8978455, 36.114124], [-97.8979413, 36.1141235]]]}, "properties": {"osm_id": 370333220, "building": "apartments", "name": "", "height": null, "height_m": null, "levels": null, "tract_id": "40073958100", "tract_name": "9581", "tags": {"building": "apartments"}}}, {"type": "Feature", "geometry": {"type": "Polygon", "coordinates": [[[-97.899113, 36.1097539], [-97.8993271, 36.1097539], [-97.8995354, 36.1097539], [-97.8995354, 36.1098266], [-97.899113, 36.1098266], [-97.899113, 36.1097539]]]}, "properties": {"osm_id": 370333221, "building": "yes", "name": "", "height": null, "height_m": null, "levels": null, "tract_id": "40073958100", "tract_name": "9581", "tags": {"building": "yes"}}}, {"type": "Feature", "geometry": {"type": "Polygon", "coordinates": [[[-97.8979292, 36.1098064], [-97.8977702, 36.1098064], [-97.8977702, 36.1095587], [-97.8979292, 36.1095587], [-97.8979292, 36.1098064]]]}, "properties": {"osm_id": 370333222, "building": "yes", "name": "", "height": null, "height_m": null, "levels": null, "tract_id": "40073958100", "tract_name": "9581", "tags": {"building": "yes"}}}, {"type": "Feature", "geometry": {"type": "Polygon", "coordinates": [[[-97.8991255, 36.1088517], [-97.8995719, 36.1088509], [-97.8995978, 36.1088509], [-97.899598, 36.1089259], [-97.8994453, 36.1089261], [-97.8991257, 36.1089266], [-97.8991255, 36.1088517]]]}, "properties": {"osm_id": 370333224, "building": "yes", "name": "", "height": null, "height_m": null, "levels": null, "tract_id": "40073958100", "tract_name": "9581", "tags": {"building": "yes"}}}, {"type": "Feature", "geometry": {"type": "Polygon", "coordinates": [[[-97.899815, 36.1089469], [-97.899815, 36.109323], [-97.8996655, 36.109323], [-97.8996655, 36.1089469], [-97.899815, 36.1089469]]]}, "properties": {"osm_id": 370333225, "building": "yes", "name": "", "height": null, "height_m": null, "levels": null, "tract_id": "40073958100", "tract_name": "9581", "tags": {"building": "yes"}}}, {"type": "Feature", "geometry": {"type": "Polygon", "coordinates": [[[-97.889181, 36.1128945], [-97.8890637, 36.1128825], [-97.8890982, 36.1126627], [-97.8892155, 36.1126747], [-97.889181, 36.1128945]]]}, "properties": {"osm_id": 370333226, "building": "yes", "name": "", "height": null, "height_m": null, "levels": null, "tract_id": "40073958100", "tract_name": "9581", "tags": {"building": "yes"}}}, {"type": "Feature", "geometry": {"type": "Polygon", "coordinates": [[[-97.9000033, 36.1121591], [-97.9000033, 36.1124299], [-97.8996852, 36.1124299], [-97.8996852, 36.1121591], [-97.9000033, 36.1121591]]]}, "properties": {"osm_id": 370333227, "building": "yes", "name": "", "height": null, "height_m": null, "levels": null, "tract_id": "40073958100", "tract_name": "9581", "tags": {"building": "yes"}}}, {"type": "Feature", "geometry": {"type": "Polygon", "coordinates": [[[-97.8920986, 36.1019105], [-97.8918954, 36.1019105], [-97.8918954, 36.1016829], [-97.8920986, 36.1016829], [-97.8920986, 36.1019105]]]}, "properties": {"osm_id": 370333229, "building": "yes", "name": "", "height": null, "height_m": null, "levels": null, "tract_id": "40073958100", "tract_name": "9581", "tags": {"building": "yes"}}}, {"type": "Feature", "geometry": {"type": "Polygon", "coordinates": [[[-97.9000795, 36.1095612], [-97.9000795, 36.1098174], [-97.8999607, 36.1098174], [-97.8999607, 36.1095612], [-97.9000795, 36.1095612]]]}, "properties": {"osm_id": 370333230, "building": "yes", "name": "", "height": null, "height_m": null, "levels": null, "tract_id": "40073958100", "tract_name": "9581", "tags": {"building": "yes"}}}, {"type": "Feature", "geometry": {"type": "Polygon", "coordinates": [[[-97.8991131, 36.1080229], [-97.8991127, 36.1079532], [-97.8994904, 36.1079511], [-97.8995226, 36.1079509], [-97.8995232, 36.1080208], [-97.8993568, 36.1080214], [-97.8991131, 36.1080229]]]}, "properties": {"osm_id": 370333231, "building": "yes", "name": "", "height": null, "height_m": null, "levels": null, "tract_id": "40073958100", "tract_name": "9581", "tags": {"building": "yes"}}}, {"type": "Feature", "geometry": {"type": "Polygon", "coordinates": [[[-97.8981185, 36.109071], [-97.8980581, 36.109071], [-97.8980581, 36.1090083], [-97.8981185, 36.1090083], [-97.8981185, 36.109071]]]}, "properties": {"osm_id": 370333233, "building": "yes", "name": "", "height": null, "height_m": null, "levels": null, "tract_id": "40073958100", "tract_name": "9581", "tags": {"building": "yes"}}}, {"type": "Feature", "geometry": {"type": "Polygon", "coordinates": [[[-97.8987927, 36.1081486], [-97.898515, 36.1081492], [-97.898515, 36.1080832], [-97.8987917, 36.108083], [-97.8987927, 36.1081486]]]}, "properties": {"osm_id": 370333234, "building": "yes", "name": "", "height": null, "height_m": null, "levels": null, "tract_id": "40073958100", "tract_name": "9581", "tags": {"building": "yes"}}}, {"type": "Feature", "geometry": {"type": "Polygon", "coordinates": [[[-97.9002796, 36.1086992], [-97.9001359, 36.1086992], [-97.9001359, 36.1085251], [-97.9002796, 36.1085251], [-97.9002796, 36.1086992]]]}, "properties": {"osm_id": 370333236, "building": "yes", "name": "", "height": null, "height_m": null, "levels": null, "tract_id": "40073958100", "tract_name": "9581", "tags": {"building": "yes"}}}, {"type": "Feature", "geometry": {"type": "Polygon", "coordinates": [[[-97.8991268, 36.1091949], [-97.8995194, 36.1091938], [-97.8995754, 36.1091936], [-97.8995757, 36.1092663], [-97.8994521, 36.1092667], [-97.8991271, 36.1092677], [-97.8991268, 36.1091949]]]}, "properties": {"osm_id": 370333237, "building": "yes", "name": "", "height": null, "height_m": null, "levels": null, "tract_id": "40073958100", "tract_name": "9581", "tags": {"building": "yes"}}}, {"type": "Feature", "geometry": {"type": "Polygon", "coordinates": [[[-97.8981268, 36.1093343], [-97.8980358, 36.1093343], [-97.8980358, 36.1092239], [-97.8981268, 36.1092239], [-97.8981268, 36.1093343]]]}, "properties": {"osm_id": 370333238, "building": "yes", "name": "", "height": null, "height_m": null, "levels": null, "tract_id": "40073958100", "tract_name": "9581", "tags": {"building": "yes"}}}, {"type": "Feature", "geometry": {"type": "Polygon", "coordinates": [[[-97.8987756, 36.1093243], [-97.8983066, 36.1093257], [-97.8983063, 36.1092647], [-97.8987754, 36.1092633], [-97.8987756, 36.1093243]]]}, "properties": {"osm_id": 370333239, "building": "yes", "name": "", "height": null, "height_m": null, "levels": null, "tract_id": "40073958100", "tract_name": "9581", "tags": {"building": "yes"}}}, {"type": "Feature", "geometry": {"type": "Polygon", "coordinates": [[[-97.8991152, 36.1077437], [-97.8991154, 36.1076703], [-97.8994072, 36.1076715], [-97.899407, 36.1077444], [-97.8991152, 36.1077437]]]}, "properties": {"osm_id": 370333241, "building": "yes", "name": "", "height": null, "height_m": null, "levels": null, "tract_id": "40073958100", "tract_name": "9581", "tags": {"building": "yes"}}}, {"type": "Feature", "geometry": {"type": "Polygon", "coordinates": [[[-97.8984235, 36.1145987], [-97.8983314, 36.1145987], [-97.8983314, 36.1145265], [-97.8984235, 36.1145265], [-97.8984235, 36.1145987]]]}, "properties": {"osm_id": 370333242, "building": "yes", "name": "", "height": null, "height_m": null, "levels": null, "tract_id": "40073958100", "tract_name": "9581", "tags": {"building": "yes"}}}, {"type": "Feature", "geometry": {"type": "Polygon", "coordinates": [[[-97.8995838, 36.1082956], [-97.8991156, 36.1082958], [-97.8991155, 36.1082256], [-97.8992888, 36.1082255], [-97.8995838, 36.1082253], [-97.8995838, 36.1082956]]]}, "properties": {"osm_id": 370333243, "building": "yes", "name": "", "height": null, "height_m": null, "levels": null, "tract_id": "40073958100", "tract_name": "9581", "tags": {"building": "yes"}}}, {"type": "Feature", "geometry": {"type": "Polygon", "coordinates": [[[-97.8993184, 36.1081339], [-97.8992552, 36.1081339], [-97.8992552, 36.1081007], [-97.8993184, 36.1081007], [-97.8993184, 36.1081339]]]}, "properties": {"osm_id": 370333246, "building": "yes", "name": "", "height": null, "height_m": null, "levels": null, "tract_id": "40073958100", "tract_name": "9581", "tags": {"building": "yes"}}}, {"type": "Feature", "geometry": {"type": "Polygon", "coordinates": [[[-97.901318, 36.1003214], [-97.9012468, 36.100288], [-97.9012707, 36.1002549], [-97.9013418, 36.1002883], [-97.901318, 36.1003214]]]}, "properties": {"osm_id": 370333247, "building": "yes", "name": "", "height": null, "height_m": null, "levels": null, "tract_id": "40073958100", "tract_name": "9581", "tags": {"building": "yes"}}}, {"type": "Feature", "geometry": {"type": "Polygon", "coordinates": [[[-97.8994524, 36.1093369], [-97.8991275, 36.109338], [-97.8991271, 36.1092677], [-97.8994521, 36.1092667], [-97.8994524, 36.1093369]]]}, "properties": {"osm_id": 370333248, "building": "yes", "name": "", "height": null, "height_m": null, "levels": null, "tract_id": "40073958100", "tract_name": "9581", "tags": {"building": "yes"}}}, {"type": "Feature", "geometry": {"type": "Polygon", "coordinates": [[[-97.8987754, 36.1091348], [-97.8985196, 36.1091349], [-97.8985196, 36.1090601], [-97.8985321, 36.10906], [-97.8987756, 36.1090602], [-97.8987754, 36.1091348]]]}, "properties": {"osm_id": 370333250, "building": "yes", "name": "", "height": null, "height_m": null, "levels": null, "tract_id": "40073958100", "tract_name": "9581", "tags": {"building": "yes"}}}, {"type": "Feature", "geometry": {"type": "Polygon", "coordinates": [[[-97.8987892, 36.1097545], [-97.8983198, 36.1097545], [-97.8983198, 36.1095463], [-97.8987892, 36.1095463], [-97.8987892, 36.1097545]]]}, "properties": {"osm_id": 370333251, "building": "yes", "name": "", "height": null, "height_m": null, "levels": null, "tract_id": "40073958100", "tract_name": "9581", "tags": {"building": "yes"}}}, {"type": "Feature", "geometry": {"type": "Polygon", "coordinates": [[[-97.8882074, 36.1118447], [-97.8879127, 36.1118414], [-97.8879162, 36.1116342], [-97.8882109, 36.1116374], [-97.8882074, 36.1118447]]]}, "properties": {"osm_id": 370333252, "building": "yes", "name": "", "height": null, "height_m": null, "levels": null, "tract_id": "40073958100", "tract_name": "9581", "tags": {"building": "yes"}}}, {"type": "Feature", "geometry": {"type": "Polygon", "coordinates": [[[-97.8986203, 36.1137904], [-97.8983641, 36.1137924], [-97.8983616, 36.1135803], [-97.8986178, 36.1135783], [-97.8986203, 36.1137904]]]}, "properties": {"osm_id": 370333254, "building": "yes", "name": "", "height": null, "height_m": null, "levels": null, "tract_id": "40073958100", "tract_name": "9581", "tags": {"building": "yes"}}}, {"type": "Feature", "geometry": {"type": "Polygon", "coordinates": [[[-97.8995801, 36.112989], [-97.8995801, 36.1130277], [-97.8992304, 36.1130277], [-97.8992304, 36.112989], [-97.8995801, 36.112989]]]}, "properties": {"osm_id": 370333255, "building": "yes", "name": "", "height": null, "height_m": null, "levels": null, "tract_id": "40073958100", "tract_name": "9581", "tags": {"building": "yes"}}}, {"type": "Feature", "geometry": {"type": "Polygon", "coordinates": [[[-97.8991127, 36.1079532], [-97.8991122, 36.107879], [-97.8992984, 36.1078774], [-97.8994885, 36.1078758], [-97.8994904, 36.1079511], [-97.8991127, 36.1079532]]]}, "properties": {"osm_id": 370333256, "building": "yes", "name": "", "height": null, "height_m": null, "levels": null, "tract_id": "40073958100", "tract_name": "9581", "tags": {"building": "yes"}}}, {"type": "Feature", "geometry": {"type": "Polygon", "coordinates": [[[-97.8987763, 36.1087094], [-97.8985001, 36.1087088], [-97.8985005, 36.1085729], [-97.8987767, 36.1085734], [-97.8987763, 36.1087094]]]}, "properties": {"osm_id": 370333258, "building": "yes", "name": "", "height": null, "height_m": null, "levels": null, "tract_id": "40073958100", "tract_name": "9581", "tags": {"building": "yes"}}}, {"type": "Feature", "geometry": {"type": "Polygon", "coordinates": [[[-97.8987917, 36.108083], [-97.898515, 36.1080832], [-97.8983141, 36.1080833], [-97.8983142, 36.1079426], [-97.8987911, 36.1079428], [-97.8987917, 36.108083]]]}, "properties": {"osm_id": 370333260, "building": "yes", "name": "", "height": null, "height_m": null, "levels": null, "tract_id": "40073958100", "tract_name": "9581", "tags": {"addr:city": "Hennessey", "addr:housenumber": "209", "addr:postcode": "73742", "addr:state": "OK", "addr:street": "South Main Street", "building": "yes"}}}, {"type": "Feature", "geometry": {"type": "Polygon", "coordinates": [[[-97.8991251, 36.1086531], [-97.899569, 36.1086525], [-97.8995691, 36.1087224], [-97.8995565, 36.1087224], [-97.8991254, 36.1087232], [-97.8991251, 36.1086531]]]}, "properties": {"osm_id": 370333262, "building": "yes", "name": "", "height": null, "height_m": null, "levels": null, "tract_id": "40073958100", "tract_name": "9581", "tags": {"building": "yes"}}}, {"type": "Feature", "geometry": {"type": "Polygon", "coordinates": [[[-97.899113, 36.1095565], [-97.8995642, 36.1095565], [-97.8995642, 36.1096881], [-97.8993271, 36.1096881], [-97.899113, 36.1096881], [-97.899113, 36.1095565]]]}, "properties": {"osm_id": 370333264, "building": "yes", "name": "", "height": null, "height_m": null, "levels": null, "tract_id": "40073958100", "tract_name": "9581", "tags": {"building": "yes"}}}, {"type": "Feature", "geometry": {"type": "Polygon", "coordinates": [[[-97.8995762, 36.1128582], [-97.8995762, 36.1129464], [-97.8992352, 36.1129464], [-97.8992352, 36.1128582], [-97.8995762, 36.1128582]]]}, "properties": {"osm_id": 370333265, "building": "yes", "name": "", "height": null, "height_m": null, "levels": null, "tract_id": "40073958100", "tract_name": "9581", "tags": {"building": "yes"}}}, {"type": "Feature", "geometry": {"type": "Polygon", "coordinates": [[[-97.8987754, 36.1092633], [-97.8983437, 36.1092644], [-97.8983435, 36.1091907], [-97.8987753, 36.1091898], [-97.8987754, 36.1092633]]]}, "properties": {"osm_id": 370333267, "building": "yes", "name": "", "height": null, "height_m": null, "levels": null, "tract_id": "40073958100", "tract_name": "9581", "tags": {"building": "yes"}}}, {"type": "Feature", "geometry": {"type": "Polygon", "coordinates": [[[-97.8985255, 36.1089415], [-97.8985255, 36.1089902], [-97.898407, 36.1089902], [-97.898407, 36.1089415], [-97.8985255, 36.1089415]]]}, "properties": {"osm_id": 370333268, "building": "yes", "name": "", "height": null, "height_m": null, "levels": null, "tract_id": "40073958100", "tract_name": "9581", "tags": {"building": "yes"}}}, {"type": "Feature", "geometry": {"type": "Polygon", "coordinates": [[[-97.8991154, 36.1076703], [-97.8991156, 36.1075984], [-97.8992545, 36.1075987], [-97.8995896, 36.1076002], [-97.8995891, 36.1076722], [-97.8994072, 36.1076715], [-97.8991154, 36.1076703]]]}, "properties": {"osm_id": 370333269, "building": "yes", "name": "", "height": null, "height_m": null, "levels": null, "tract_id": "40073958100", "tract_name": "9581", "tags": {"building": "yes"}}}, {"type": "Feature", "geometry": {"type": "Polygon", "coordinates": [[[-97.8993857, 36.1150771], [-97.8993857, 36.1152161], [-97.8991961, 36.1152161], [-97.8991961, 36.1150771], [-97.8993857, 36.1150771]]]}, "properties": {"osm_id": 370333271, "building": "yes", "name": "Hennessey Event Center", "height": null, "height_m": null, "levels": null, "tract_id": "40073958100", "tract_name": "9581", "tags": {"building": "yes", "name": "Hennessey Event Center"}}}, {"type": "Feature", "geometry": {"type": "Polygon", "coordinates": [[[-97.8991155, 36.1082256], [-97.8991149, 36.1081576], [-97.8992253, 36.1081567], [-97.8992879, 36.1081561], [-97.8992888, 36.1082255], [-97.8991155, 36.1082256]]]}, "properties": {"osm_id": 370333274, "building": "yes", "name": "", "height": null, "height_m": null, "levels": null, "tract_id": "40073958100", "tract_name": "9581", "tags": {"building": "yes"}}}, {"type": "Feature", "geometry": {"type": "Polygon", "coordinates": [[[-97.8991138, 36.1080874], [-97.8991131, 36.1080229], [-97.8993568, 36.1080214], [-97.8993574, 36.1080859], [-97.8992252, 36.1080873], [-97.8991138, 36.1080874]]]}, "properties": {"osm_id": 370333275, "building": "yes", "name": "", "height": null, "height_m": null, "levels": null, "tract_id": "40073958100", "tract_name": "9581", "tags": {"building": "yes"}}}, {"type": "Feature", "geometry": {"type": "Polygon", "coordinates": [[[-97.8997625, 36.1097175], [-97.8996782, 36.1097175], [-97.8996782, 36.1095689], [-97.8997625, 36.1095689], [-97.8997625, 36.1097175]]]}, "properties": {"osm_id": 370333276, "building": "yes", "name": "", "height": null, "height_m": null, "levels": null, "tract_id": "40073958100", "tract_name": "9581", "tags": {"building": "yes"}}}, {"type": "Feature", "geometry": {"type": "Polygon", "coordinates": [[[-97.8995437, 36.1127413], [-97.8995437, 36.1128226], [-97.8992027, 36.1128226], [-97.8992027, 36.1127413], [-97.8995437, 36.1127413]]]}, "properties": {"osm_id": 370333277, "building": "yes", "name": "", "height": null, "height_m": null, "levels": null, "tract_id": "40073958100", "tract_name": "9581", "tags": {"building": "yes"}}}, {"type": "Feature", "geometry": {"type": "Polygon", "coordinates": [[[-97.8986507, 36.1078127], [-97.8983547, 36.1078127], [-97.8983547, 36.1076773], [-97.8986507, 36.1076773], [-97.8986507, 36.1078127]]]}, "properties": {"osm_id": 370333279, "building": "yes", "name": "", "height": null, "height_m": null, "levels": null, "tract_id": "40073958100", "tract_name": "9581", "tags": {"building": "yes"}}}, {"type": "Feature", "geometry": {"type": "Polygon", "coordinates": [[[-97.8991257, 36.1089266], [-97.8994453, 36.1089261], [-97.8994455, 36.1089994], [-97.899126, 36.1090002], [-97.8991257, 36.1089266]]]}, "properties": {"osm_id": 370333280, "building": "yes", "name": "", "height": null, "height_m": null, "levels": null, "tract_id": "40073958100", "tract_name": "9581", "tags": {"building": "yes"}}}, {"type": "Feature", "geometry": {"type": "Polygon", "coordinates": [[[-97.8994067, 36.1107969], [-97.8994067, 36.1108635], [-97.8992659, 36.1108635], [-97.8992659, 36.1107969], [-97.8994067, 36.1107969]]]}, "properties": {"osm_id": 370333281, "building": "yes", "name": "", "height": null, "height_m": null, "levels": null, "tract_id": "40073958100", "tract_name": "9581", "tags": {"amenity": "shelter", "building": "yes", "shelter_type": "picnic_shelter"}}}, {"type": "Feature", "geometry": {"type": "Polygon", "coordinates": [[[-97.8983372, 36.1132618], [-97.8982537, 36.1132604], [-97.8982618, 36.1129529], [-97.8983453, 36.1129543], [-97.8983372, 36.1132618]]]}, "properties": {"osm_id": 370333283, "building": "yes", "name": "", "height": null, "height_m": null, "levels": null, "tract_id": "40073958100", "tract_name": "9581", "tags": {"building": "yes"}}}, {"type": "Feature", "geometry": {"type": "Polygon", "coordinates": [[[-97.8987756, 36.1090602], [-97.8985321, 36.10906], [-97.8985323, 36.1089182], [-97.8987758, 36.1089186], [-97.8987756, 36.1090602]]]}, "properties": {"osm_id": 370333284, "building": "yes", "name": "", "height": null, "height_m": null, "levels": null, "tract_id": "40073958100", "tract_name": "9581", "tags": {"building": "yes"}}}, {"type": "Feature", "geometry": {"type": "Polygon", "coordinates": [[[-97.8978962, 36.1093022], [-97.8977727, 36.1093022], [-97.8977727, 36.1091444], [-97.8978962, 36.1091444], [-97.8978962, 36.1093022]]]}, "properties": {"osm_id": 370333285, "building": "yes", "name": "", "height": null, "height_m": null, "levels": null, "tract_id": "40073958100", "tract_name": "9581", "tags": {"building": "yes"}}}, {"type": "Feature", "geometry": {"type": "Polygon", "coordinates": [[[-97.8892723, 36.1108379], [-97.8892715, 36.1108867], [-97.8888498, 36.110882], [-97.8888506, 36.1108333], [-97.8892723, 36.1108379]]]}, "properties": {"osm_id": 370333287, "building": "yes", "name": "", "height": null, "height_m": null, "levels": null, "tract_id": "40073958100", "tract_name": "9581", "tags": {"building": "yes"}}}, {"type": "Feature", "geometry": {"type": "Polygon", "coordinates": [[[-97.8998046, 36.1101743], [-97.8998046, 36.1103004], [-97.8996686, 36.1103004], [-97.8996686, 36.1101743], [-97.8998046, 36.1101743]]]}, "properties": {"osm_id": 370333288, "building": "yes", "name": "", "height": null, "height_m": null, "levels": null, "tract_id": "40073958100", "tract_name": "9581", "tags": {"building": "yes"}}}, {"type": "Feature", "geometry": {"type": "Polygon", "coordinates": [[[-97.8991122, 36.107879], [-97.8991147, 36.1078116], [-97.8992996, 36.1078118], [-97.8992984, 36.1078774], [-97.8991122, 36.107879]]]}, "properties": {"osm_id": 370333289, "building": "yes", "name": "", "height": null, "height_m": null, "levels": null, "tract_id": "40073958100", "tract_name": "9581", "tags": {"building": "yes"}}}, {"type": "Feature", "geometry": {"type": "Polygon", "coordinates": [[[-97.8986813, 36.1132684], [-97.8985828, 36.1132673], [-97.8985869, 36.1130178], [-97.8986853, 36.1130189], [-97.8986813, 36.1132684]]]}, "properties": {"osm_id": 370333291, "building": "yes", "name": "", "height": null, "height_m": null, "levels": null, "tract_id": "40073958100", "tract_name": "9581", "tags": {"building": "yes"}}}, {"type": "Feature", "geometry": {"type": "Polygon", "coordinates": [[[-97.8992383, 36.1075321], [-97.8992384, 36.1074631], [-97.8996105, 36.1074635], [-97.8996104, 36.1075168], [-97.8994792, 36.1075167], [-97.8994792, 36.1075323], [-97.8992383, 36.1075321]]]}, "properties": {"osm_id": 370333292, "building": "yes", "name": "", "height": null, "height_m": null, "levels": null, "tract_id": "40073958100", "tract_name": "9581", "tags": {"building": "yes"}}}, {"type": "Feature", "geometry": {"type": "Polygon", "coordinates": [[[-97.8991242, 36.108513], [-97.8995777, 36.108513], [-97.8995777, 36.1085845], [-97.8991247, 36.1085847], [-97.8991242, 36.108513]]]}, "properties": {"osm_id": 370333293, "building": "yes", "name": "", "height": null, "height_m": null, "levels": null, "tract_id": "40073958100", "tract_name": "9581", "tags": {"building": "yes"}}}, {"type": "Feature", "geometry": {"type": "Polygon", "coordinates": [[[-97.8978203, 36.1090118], [-97.897759, 36.1090118], [-97.897759, 36.1089746], [-97.8978203, 36.1089746], [-97.8978203, 36.1090118]]]}, "properties": {"osm_id": 370333295, "building": "yes", "name": "", "height": null, "height_m": null, "levels": null, "tract_id": "40073958100", "tract_name": "9581", "tags": {"building": "yes"}}}, {"type": "Feature", "geometry": {"type": "Polygon", "coordinates": [[[-97.8987794, 36.1109459], [-97.8987794, 36.1110893], [-97.8983133, 36.1110893], [-97.8983133, 36.1109459], [-97.8987794, 36.1109459]]]}, "properties": {"osm_id": 370333296, "building": "yes", "name": "", "height": null, "height_m": null, "levels": null, "tract_id": "40073958100", "tract_name": "9581", "tags": {"building": "yes"}}}, {"type": "Feature", "geometry": {"type": "Polygon", "coordinates": [[[-97.8991254, 36.1087232], [-97.8995565, 36.1087224], [-97.8995567, 36.1087836], [-97.8991254, 36.1087845], [-97.8991254, 36.1087232]]]}, "properties": {"osm_id": 370333297, "building": "yes", "name": "", "height": null, "height_m": null, "levels": null, "tract_id": "40073958100", "tract_name": "9581", "tags": {"building": "yes"}}}, {"type": "Feature", "geometry": {"type": "Polygon", "coordinates": [[[-97.889757, 36.1107003], [-97.8893965, 36.1106963], [-97.8893994, 36.1105252], [-97.8897599, 36.1105291], [-97.889757, 36.1107003]]]}, "properties": {"osm_id": 370333299, "building": "yes", "name": "", "height": null, "height_m": null, "levels": null, "tract_id": "40073958100", "tract_name": "9581", "tags": {"building": "yes"}}}, {"type": "Feature", "geometry": {"type": "Polygon", "coordinates": [[[-97.8986755, 36.1150333], [-97.8986755, 36.1150744], [-97.8984322, 36.1150744], [-97.8984322, 36.1150333], [-97.8986755, 36.1150333]]]}, "properties": {"osm_id": 370333300, "building": "roof", "name": "", "height": null, "height_m": null, "levels": null, "tract_id": "40073958100", "tract_name": "9581", "tags": {"building": "roof", "layer": "1"}}}, {"type": "Feature", "geometry": {"type": "Polygon", "coordinates": [[[-97.8987753, 36.1091898], [-97.8984938, 36.1091902], [-97.8984937, 36.109135], [-97.8985196, 36.1091349], [-97.8987754, 36.1091348], [-97.8987753, 36.1091898]]]}, "properties": {"osm_id": 370333301, "building": "yes", "name": "", "height": null, "height_m": null, "levels": null, "tract_id": "40073958100", "tract_name": "9581", "tags": {"building": "yes"}}}, {"type": "Feature", "geometry": {"type": "Polygon", "coordinates": [[[-97.8976172, 36.1172039], [-97.8974362, 36.1172009], [-97.8974416, 36.1169821], [-97.8976226, 36.116985], [-97.8976172, 36.1172039]]]}, "properties": {"osm_id": 370333303, "building": "yes", "name": "", "height": null, "height_m": null, "levels": null, "tract_id": "40073958100", "tract_name": "9581", "tags": {"building": "yes"}}}, {"type": "Feature", "geometry": {"type": "Polygon", "coordinates": [[[-97.8991156, 36.1075984], [-97.8991158, 36.1075357], [-97.8992546, 36.1075359], [-97.8992545, 36.1075987], [-97.8991156, 36.1075984]]]}, "properties": {"osm_id": 370333304, "building": "yes", "name": "", "height": null, "height_m": null, "levels": null, "tract_id": "40073958100", "tract_name": "9581", "tags": {"building": "yes"}}}, {"type": "Feature", "geometry": {"type": "Polygon", "coordinates": [[[-97.8983675, 36.1113563], [-97.8983052, 36.1113563], [-97.8983052, 36.1112348], [-97.8983675, 36.1112348], [-97.8983675, 36.1113563]]]}, "properties": {"osm_id": 370333305, "building": "yes", "name": "", "height": null, "height_m": null, "levels": null, "tract_id": "40073958100", "tract_name": "9581", "tags": {"building": "yes"}}}, {"type": "Feature", "geometry": {"type": "Polygon", "coordinates": [[[-97.8982433, 36.1080341], [-97.8982433, 36.1082584], [-97.8978125, 36.1082584], [-97.8978125, 36.1080341], [-97.8982433, 36.1080341]]]}, "properties": {"osm_id": 370333306, "building": "yes", "name": "", "height": null, "height_m": null, "levels": null, "tract_id": "40073958100", "tract_name": "9581", "tags": {"addr:city": "Hennessey", "addr:housenumber": "100-198", "addr:postcode": "73742", "addr:state": "OK", "addr:street": "East 1st Street", "building": "yes"}}}, {"type": "Feature", "geometry": {"type": "Polygon", "coordinates": [[[-97.897872, 36.1091232], [-97.8977887, 36.1091232], [-97.8977887, 36.1090288], [-97.897872, 36.1090288], [-97.897872, 36.1091232]]]}, "properties": {"osm_id": 370333308, "building": "yes", "name": "", "height": null, "height_m": null, "levels": null, "tract_id": "40073958100", "tract_name": "9581", "tags": {"building": "yes"}}}, {"type": "Feature", "geometry": {"type": "Polygon", "coordinates": [[[-97.899126, 36.1090002], [-97.8994455, 36.1089994], [-97.8995186, 36.1089993], [-97.8995189, 36.1090881], [-97.8995194, 36.1091938], [-97.8991268, 36.1091949], [-97.899126, 36.1090002]]]}, "properties": {"osm_id": 370333309, "building": "yes", "name": "", "height": null, "height_m": null, "levels": null, "tract_id": "40073958100", "tract_name": "9581", "tags": {"building": "yes"}}}, {"type": "Feature", "geometry": {"type": "Polygon", "coordinates": [[[-97.8986717, 36.1152542], [-97.8986717, 36.1152991], [-97.8984351, 36.1152991], [-97.8984351, 36.1152542], [-97.8986717, 36.1152542]]]}, "properties": {"osm_id": 370333310, "building": "roof", "name": "", "height": null, "height_m": null, "levels": null, "tract_id": "40073958100", "tract_name": "9581", "tags": {"building": "roof", "layer": "1"}}}, {"type": "Feature", "geometry": {"type": "Polygon", "coordinates": [[[-97.8982685, 36.1178066], [-97.8982567, 36.1180242], [-97.8977337, 36.1180056], [-97.8977455, 36.117788], [-97.8982685, 36.1178066]]]}, "properties": {"osm_id": 370333312, "building": "retail", "name": "Dollar General", "height": null, "height_m": null, "levels": null, "tract_id": "40073958100", "tract_name": "9581", "tags": {"brand": "Dollar General", "brand:wikidata": "Q145168", "building": "retail", "name": "Dollar General", "shop": "variety_store", "website": "https://www.dollargeneral.com/store-directory/ok/hennessey/8076"}}}, {"type": "Feature", "geometry": {"type": "Polygon", "coordinates": [[[-97.8999669, 36.1113589], [-97.899758, 36.1113589], [-97.899758, 36.1110926], [-97.8999669, 36.1110926], [-97.8999669, 36.1113589]]]}, "properties": {"osm_id": 370333314, "building": "yes", "name": "", "height": null, "height_m": null, "levels": null, "tract_id": "40073958100", "tract_name": "9581", "tags": {"building": "yes"}}}, {"type": "Feature", "geometry": {"type": "Polygon", "coordinates": [[[-97.8987315, 36.1148948], [-97.8987315, 36.1149296], [-97.8983042, 36.1149296], [-97.8983042, 36.1148948], [-97.8987315, 36.1148948]]]}, "properties": {"osm_id": 370333316, "building": "roof", "name": "", "height": null, "height_m": null, "levels": null, "tract_id": "40073958100", "tract_name": "9581", "tags": {"building": "roof"}}}, {"type": "Feature", "geometry": {"type": "Polygon", "coordinates": [[[-97.8982135, 36.1079914], [-97.8978843, 36.1079914], [-97.8978843, 36.1078743], [-97.8982135, 36.1078743], [-97.8982135, 36.1079914]]]}, "properties": {"osm_id": 370333317, "building": "yes", "name": "", "height": null, "height_m": null, "levels": null, "tract_id": "40073958100", "tract_name": "9581", "tags": {"addr:city": "Hennessey", "addr:housenumber": "216", "addr:postcode": "73742", "addr:state": "OK", "addr:street": "South Cherokee Street", "building": "yes"}}}, {"type": "Feature", "geometry": {"type": "Polygon", "coordinates": [[[-97.8991147, 36.1078116], [-97.8991152, 36.1077437], [-97.899407, 36.1077444], [-97.8994652, 36.1077442], [-97.8994652, 36.1078115], [-97.8992996, 36.1078118], [-97.8991147, 36.1078116]]]}, "properties": {"osm_id": 370333318, "building": "yes", "name": "", "height": null, "height_m": null, "levels": null, "tract_id": "40073958100", "tract_name": "9581", "tags": {"building": "yes"}}}, {"type": "Feature", "geometry": {"type": "Polygon", "coordinates": [[[-97.899113, 36.1096881], [-97.8993271, 36.1096881], [-97.8993271, 36.1097539], [-97.899113, 36.1097539], [-97.899113, 36.1096881]]]}, "properties": {"osm_id": 370333320, "building": "yes", "name": "", "height": null, "height_m": null, "levels": null, "tract_id": "40073958100", "tract_name": "9581", "tags": {"building": "yes"}}}, {"type": "Feature", "geometry": {"type": "Polygon", "coordinates": [[[-97.8991247, 36.1085847], [-97.8995777, 36.1085845], [-97.8995936, 36.1085845], [-97.8995936, 36.1086526], [-97.899569, 36.1086525], [-97.8991251, 36.1086531], [-97.8991247, 36.1085847]]]}, "properties": {"osm_id": 370333321, "building": "yes", "name": "", "height": null, "height_m": null, "levels": null, "tract_id": "40073958100", "tract_name": "9581", "tags": {"building": "yes"}}}, {"type": "Feature", "geometry": {"type": "Polygon", "coordinates": [[[-97.8991105, 36.110103], [-97.8994238, 36.1101027], [-97.899482, 36.1101027], [-97.8994816, 36.1101963], [-97.8991118, 36.1101952], [-97.8991105, 36.110103]]]}, "properties": {"osm_id": 370333322, "building": "yes", "name": "", "height": null, "height_m": null, "levels": null, "tract_id": "40073958100", "tract_name": "9581", "tags": {"building": "yes"}}}, {"type": "Feature", "geometry": {"type": "Polygon", "coordinates": [[[-97.8991254, 36.1087845], [-97.8995567, 36.1087836], [-97.8995717, 36.1087836], [-97.8995719, 36.1088509], [-97.8991255, 36.1088517], [-97.8991254, 36.1087845]]]}, "properties": {"osm_id": 370333323, "building": "yes", "name": "", "height": null, "height_m": null, "levels": null, "tract_id": "40073958100", "tract_name": "9581", "tags": {"building": "yes"}}}, {"type": "Feature", "geometry": {"type": "Polygon", "coordinates": [[[-97.8986917, 36.114718], [-97.8984302, 36.114718], [-97.8984302, 36.1144181], [-97.8986917, 36.1144181], [-97.8986917, 36.114718]]]}, "properties": {"osm_id": 370333325, "building": "yes", "name": "", "height": null, "height_m": null, "levels": null, "tract_id": "40073958100", "tract_name": "9581", "tags": {"building": "yes"}}}, {"type": "Feature", "geometry": {"type": "Polygon", "coordinates": [[[-97.8987804, 36.1076665], [-97.8985314, 36.1076665], [-97.8985314, 36.1075272], [-97.8987804, 36.1075272], [-97.8987804, 36.1076665]]]}, "properties": {"osm_id": 370333328, "building": "yes", "name": "", "height": null, "height_m": null, "levels": null, "tract_id": "40073958100", "tract_name": "9581", "tags": {"building": "yes"}}}, {"type": "Feature", "geometry": {"type": "Polygon", "coordinates": [[[-97.8991149, 36.1081576], [-97.8991138, 36.1080874], [-97.8992252, 36.1080873], [-97.8992253, 36.1081567], [-97.8991149, 36.1081576]]]}, "properties": {"osm_id": 370333329, "building": "yes", "name": "", "height": null, "height_m": null, "levels": null, "tract_id": "40073958100", "tract_name": "9581", "tags": {"building": "yes"}}}, {"type": "Feature", "geometry": {"type": "Polygon", "coordinates": [[[-97.8995473, 36.1126296], [-97.8995473, 36.1126977], [-97.8991986, 36.1126977], [-97.8991986, 36.1126296], [-97.8995473, 36.1126296]]]}, "properties": {"osm_id": 370333330, "building": "yes", "name": "", "height": null, "height_m": null, "levels": null, "tract_id": "40073958100", "tract_name": "9581", "tags": {"building": "yes"}}}, {"type": "Feature", "geometry": {"type": "Polygon", "coordinates": [[[-97.8987927, 36.1081486], [-97.8987932, 36.1082894], [-97.8983035, 36.1082905], [-97.898303, 36.1081497], [-97.898515, 36.1081492], [-97.8987927, 36.1081486]]]}, "properties": {"osm_id": 370333332, "building": "yes", "name": "Hennessey Auto Supply", "height": null, "height_m": null, "levels": null, "tract_id": "40073958100", "tract_name": "9581", "tags": {"addr:city": "Hennessey", "addr:housenumber": "201", "addr:postcode": "73742", "addr:state": "OK", "addr:street": "South Main Street", "building": "yes", "name": "Hennessey Auto Supply", "shop": "car_parts"}}}, {"type": "Feature", "geometry": {"type": "Polygon", "coordinates": [[[-97.8995194, 36.1091938], [-97.8995189, 36.1090881], [-97.899601, 36.1090878], [-97.8996016, 36.1091936], [-97.8995754, 36.1091936], [-97.8995194, 36.1091938]]]}, "properties": {"osm_id": 370333333, "building": "yes", "name": "", "height": null, "height_m": null, "levels": null, "tract_id": "40073958100", "tract_name": "9581", "tags": {"building": "yes"}}}, {"type": "Feature", "geometry": {"type": "Polygon", "coordinates": [[[-97.8980358, 36.1093343], [-97.897919, 36.1093343], [-97.897919, 36.1091192], [-97.8980358, 36.1091192], [-97.8980358, 36.1092239], [-97.8980358, 36.1093343]]]}, "properties": {"osm_id": 370333334, "building": "yes", "name": "", "height": null, "height_m": null, "levels": null, "tract_id": "40073958100", "tract_name": "9581", "tags": {"building": "yes"}}}, {"type": "Feature", "geometry": {"type": "Polygon", "coordinates": [[[-97.8991109, 36.1099], [-97.8995236, 36.1099011], [-97.8995234, 36.1099663], [-97.8994485, 36.1099661], [-97.8991106, 36.1099651], [-97.8991109, 36.1099]]]}, "properties": {"osm_id": 370333336, "building": "yes", "name": "", "height": null, "height_m": null, "levels": null, "tract_id": "40073958100", "tract_name": "9581", "tags": {"building": "yes"}}}, {"type": "Feature", "geometry": {"type": "Polygon", "coordinates": [[[-97.8982341, 36.1093343], [-97.8981268, 36.1093343], [-97.8981268, 36.1092239], [-97.8981268, 36.1089489], [-97.8982341, 36.1089489], [-97.8982341, 36.1093343]]]}, "properties": {"osm_id": 370333337, "building": "yes", "name": "", "height": null, "height_m": null, "levels": null, "tract_id": "40073958100", "tract_name": "9581", "tags": {"building": "yes"}}}, {"type": "Feature", "geometry": {"type": "Polygon", "coordinates": [[[-97.9001397, 36.1093222], [-97.9000047, 36.1093222], [-97.9000047, 36.1090567], [-97.9001397, 36.1090567], [-97.9001397, 36.1093222]]]}, "properties": {"osm_id": 370333338, "building": "yes", "name": "", "height": null, "height_m": null, "levels": null, "tract_id": "40073958100", "tract_name": "9581", "tags": {"building": "yes"}}}, {"type": "Feature", "geometry": {"type": "Polygon", "coordinates": [[[-97.898484, 36.1090744], [-97.8984831, 36.109129], [-97.8984067, 36.1091282], [-97.8984075, 36.1090736], [-97.898484, 36.1090744]]]}, "properties": {"osm_id": 370333339, "building": "yes", "name": "", "height": null, "height_m": null, "levels": null, "tract_id": "40073958100", "tract_name": "9581", "tags": {"building": "yes"}}}, {"type": "Feature", "geometry": {"type": "Polygon", "coordinates": [[[-97.899896, 36.1126296], [-97.899896, 36.1128401], [-97.8997542, 36.1128401], [-97.8997542, 36.1126296], [-97.899896, 36.1126296]]]}, "properties": {"osm_id": 370333341, "building": "yes", "name": "", "height": null, "height_m": null, "levels": null, "tract_id": "40073958100", "tract_name": "9581", "tags": {"building": "yes"}}}, {"type": "Feature", "geometry": {"type": "Polygon", "coordinates": [[[-97.8904571, 36.1018573], [-97.8903513, 36.1018558], [-97.8903561, 36.1016437], [-97.8904619, 36.1016453], [-97.8904571, 36.1018573]]]}, "properties": {"osm_id": 370333343, "building": "yes", "name": "", "height": null, "height_m": null, "levels": null, "tract_id": "40073958100", "tract_name": "9581", "tags": {"building": "yes"}}}, {"type": "Feature", "geometry": {"type": "Polygon", "coordinates": [[[-97.8991393, 36.1137718], [-97.8991368, 36.1135626], [-97.8992516, 36.1135617], [-97.8992526, 36.1136451], [-97.8992772, 36.1136449], [-97.8992787, 36.1137707], [-97.8991393, 36.1137718]]]}, "properties": {"osm_id": 370333346, "building": "yes", "name": "", "height": null, "height_m": null, "levels": null, "tract_id": "40073958100", "tract_name": "9581", "tags": {"building": "yes"}}}, {"type": "Feature", "geometry": {"type": "Polygon", "coordinates": [[[-97.8977567, 36.11637], [-97.8977693, 36.115699], [-97.8979318, 36.115701], [-97.8979314, 36.115723], [-97.8980145, 36.115724], [-97.8980023, 36.116373], [-97.8977567, 36.11637]]]}, "properties": {"osm_id": 370333348, "building": "yes", "name": "Beck Oilfield Supply", "height": null, "height_m": null, "levels": null, "tract_id": "40073958100", "tract_name": "9581", "tags": {"building": "yes", "name": "Beck Oilfield Supply", "shop": "trade"}}}, {"type": "Feature", "geometry": {"type": "Polygon", "coordinates": [[[-97.8986093, 36.1102131], [-97.8986093, 36.110305], [-97.8985538, 36.110305], [-97.8985538, 36.1103149], [-97.8984644, 36.1103149], [-97.8984644, 36.110305], [-97.8983763, 36.110305], [-97.8983763, 36.1102131], [-97.8986093, 36.1102131]]]}, "properties": {"osm_id": 370333349, "building": "yes", "name": "", "height": null, "height_m": null, "levels": null, "tract_id": "40073958100", "tract_name": "9581", "tags": {"building": "yes"}}}, {"type": "Feature", "geometry": {"type": "Polygon", "coordinates": [[[-97.8984464, 36.1087451], [-97.8984465, 36.1087089], [-97.8985001, 36.1087088], [-97.8987763, 36.1087094], [-97.8987758, 36.1089186], [-97.8985323, 36.1089182], [-97.8984458, 36.1089181], [-97.8984461, 36.1087847], [-97.8983849, 36.1087846], [-97.898385, 36.108745], [-97.8984464, 36.1087451]]]}, "properties": {"osm_id": 370333350, "building": "yes", "name": "", "height": null, "height_m": null, "levels": null, "tract_id": "40073958100", "tract_name": "9581", "tags": {"building": "yes"}}}, {"type": "Feature", "geometry": {"type": "Polygon", "coordinates": [[[-97.8987739, 36.1113651], [-97.8987739, 36.1114132], [-97.898694, 36.1114132], [-97.8986601, 36.1114132], [-97.8986601, 36.1113651], [-97.898694, 36.1113651], [-97.898694, 36.1113082], [-97.8987739, 36.1113082], [-97.8987739, 36.1113651]]]}, "properties": {"osm_id": 370333352, "building": "yes", "name": "", "height": null, "height_m": null, "levels": null, "tract_id": "40073958100", "tract_name": "9581", "tags": {"building": "yes"}}}, {"type": "Feature", "geometry": {"type": "Polygon", "coordinates": [[[-97.8994485, 36.1099661], [-97.8994486, 36.1100374], [-97.8994237, 36.1100375], [-97.8994238, 36.1101027], [-97.8991105, 36.110103], [-97.8991106, 36.1099651], [-97.8994485, 36.1099661]]]}, "properties": {"osm_id": 370333353, "building": "yes", "name": "", "height": null, "height_m": null, "levels": null, "tract_id": "40073958100", "tract_name": "9581", "tags": {"building": "yes"}}}, {"type": "Feature", "geometry": {"type": "Polygon", "coordinates": [[[-97.8991118, 36.1101952], [-97.8994816, 36.1101963], [-97.8995622, 36.110195], [-97.8995622, 36.1103134], [-97.8994502, 36.1103134], [-97.8994502, 36.1103715], [-97.899112, 36.1103715], [-97.8991118, 36.1101952]]]}, "properties": {"osm_id": 370333354, "building": "yes", "name": "", "height": null, "height_m": null, "levels": null, "tract_id": "40073958100", "tract_name": "9581", "tags": {"building": "yes"}}}, {"type": "Feature", "geometry": {"type": "Polygon", "coordinates": [[[-97.888969, 36.1116055], [-97.888848, 36.1116042], [-97.8888498, 36.1114937], [-97.8892551, 36.1114982], [-97.8892532, 36.1116086], [-97.8891502, 36.1116075], [-97.8891499, 36.1116294], [-97.8889687, 36.1116274], [-97.888969, 36.1116055]]]}, "properties": {"osm_id": 370333356, "building": "yes", "name": "", "height": null, "height_m": null, "levels": null, "tract_id": "40073958100", "tract_name": "9581", "tags": {"building": "yes"}}}, {"type": "Feature", "geometry": {"type": "Polygon", "coordinates": [[[-97.8984247, 36.1127882], [-97.8984268, 36.1126575], [-97.8985431, 36.1126587], [-97.8985394, 36.1128832], [-97.8985391, 36.1128998], [-97.8985078, 36.1128995], [-97.8985081, 36.1128829], [-97.8983925, 36.1128817], [-97.898394, 36.1127879], [-97.8984247, 36.1127882]]]}, "properties": {"osm_id": 370333357, "building": "yes", "name": "", "height": null, "height_m": null, "levels": null, "tract_id": "40073958100", "tract_name": "9581", "tags": {"building": "yes"}}}, {"type": "Feature", "geometry": {"type": "Polygon", "coordinates": [[[-97.8974887, 36.1103297], [-97.8974887, 36.1102503], [-97.8974694, 36.1102503], [-97.8974694, 36.1101987], [-97.8973608, 36.1101987], [-97.8973607, 36.1102299], [-97.8973355, 36.1102299], [-97.8973355, 36.110275], [-97.89736, 36.110275], [-97.89736, 36.1103297], [-97.8974887, 36.1103297]]]}, "properties": {"osm_id": 517733233, "building": "yes", "name": "", "height": null, "height_m": null, "levels": null, "tract_id": "40073958100", "tract_name": "9581", "tags": {"addr:city": "Hennessey", "addr:housenumber": "121", "addr:postcode": "73742", "addr:state": "OK", "addr:street": "North Cherokee Street", "building": "yes"}}}, {"type": "Feature", "geometry": {"type": "Polygon", "coordinates": [[[-97.8972176, 36.1103371], [-97.8971649, 36.1103368], [-97.8971661, 36.1101561], [-97.8972188, 36.1101564], [-97.8972176, 36.1103371]]]}, "properties": {"osm_id": 517733236, "building": "yes", "name": "", "height": null, "height_m": null, "levels": null, "tract_id": "40073958100", "tract_name": "9581", "tags": {"addr:city": "Hennessey", "addr:housenumber": "200-298", "addr:postcode": "73742", "addr:state": "OK", "addr:street": "East Kansas Street", "building": "yes"}}}, {"type": "Feature", "geometry": {"type": "Polygon", "coordinates": [[[-97.8969762, 36.1103126], [-97.8968061, 36.1103134], [-97.8968056, 36.1102407], [-97.8969757, 36.1102399], [-97.8969762, 36.1103126]]]}, "properties": {"osm_id": 517733239, "building": "yes", "name": "", "height": null, "height_m": null, "levels": null, "tract_id": "40073958100", "tract_name": "9581", "tags": {"addr:city": "Hennessey", "addr:housenumber": "118", "addr:postcode": "73742", "addr:state": "OK", "addr:street": "North Cheyenne Street", "building": "yes"}}}, {"type": "Feature", "geometry": {"type": "Polygon", "coordinates": [[[-97.896789, 36.1102418], [-97.8967888, 36.110295], [-97.896763, 36.1102949], [-97.8967629, 36.110321], [-97.896613, 36.1103207], [-97.8966131, 36.1103066], [-97.8965889, 36.1103066], [-97.896589, 36.1102747], [-97.8965491, 36.1102746], [-97.8965492, 36.1102435], [-97.8965911, 36.1102435], [-97.8965912, 36.1102163], [-97.8967111, 36.1102166], [-97.896711, 36.1102417], [-97.896789, 36.1102418]]]}, "properties": {"osm_id": 517733242, "building": "yes", "name": "", "height": null, "height_m": null, "levels": null, "tract_id": "40073958100", "tract_name": "9581", "tags": {"addr:city": "Hennessey", "addr:housenumber": "118", "addr:postcode": "73742", "addr:state": "OK", "addr:street": "North Cheyenne Street", "building": "yes"}}}, {"type": "Feature", "geometry": {"type": "Polygon", "coordinates": [[[-97.896139, 36.1102829], [-97.8961501, 36.1102828], [-97.8961483, 36.1101763], [-97.8960278, 36.1101776], [-97.8960296, 36.110286], [-97.896041, 36.1102858], [-97.8960416, 36.1103195], [-97.8961396, 36.1103184], [-97.896139, 36.1102829]]]}, "properties": {"osm_id": 517733244, "building": "yes", "name": "", "height": null, "height_m": null, "levels": null, "tract_id": "40073958100", "tract_name": "9581", "tags": {"addr:city": "Hennessey", "addr:housenumber": "302", "addr:postcode": "73742", "addr:state": "OK", "addr:street": "East Kansas Street", "building": "yes"}}}, {"type": "Feature", "geometry": {"type": "Polygon", "coordinates": [[[-97.8958574, 36.1103756], [-97.8957707, 36.1103757], [-97.8957704, 36.1102348], [-97.895857, 36.1102346], [-97.8958574, 36.1103756]]]}, "properties": {"osm_id": 517733245, "building": "shed", "name": "", "height": null, "height_m": null, "levels": null, "tract_id": "40073958100", "tract_name": "9581", "tags": {"building": "shed"}}}, {"type": "Feature", "geometry": {"type": "Polygon", "coordinates": [[[-97.8954541, 36.1102631], [-97.8954202, 36.1102633], [-97.8954202, 36.1102719], [-97.8953531, 36.1102723], [-97.8953531, 36.110263], [-97.8953024, 36.1102633], [-97.8953019, 36.1101984], [-97.8953247, 36.1101982], [-97.8953246, 36.1101878], [-97.8954534, 36.1101871], [-97.8954541, 36.1102631]]]}, "properties": {"osm_id": 517733246, "building": "yes", "name": "", "height": null, "height_m": null, "levels": null, "tract_id": "40073958100", "tract_name": "9581", "tags": {"addr:city": "Hennessey", "addr:housenumber": "120", "addr:postcode": "73742", "addr:state": "OK", "addr:street": "North Cimarron Street", "building": "yes"}}}, {"type": "Feature", "geometry": {"type": "Polygon", "coordinates": [[[-97.8954702, 36.1101111], [-97.8954711, 36.1100834], [-97.8953973, 36.1100818], [-97.8953999, 36.1100063], [-97.8953218, 36.1100046], [-97.8953182, 36.1101077], [-97.8954702, 36.1101111]]]}, "properties": {"osm_id": 517733247, "building": "yes", "name": "", "height": null, "height_m": null, "levels": null, "tract_id": "40073958100", "tract_name": "9581", "tags": {"addr:city": "Hennessey", "addr:housenumber": "114", "addr:postcode": "73742", "addr:state": "OK", "addr:street": "North Cimarron Street", "building": "yes"}}}, {"type": "Feature", "geometry": {"type": "Polygon", "coordinates": [[[-97.895656, 36.1101313], [-97.8955347, 36.1101318], [-97.8955342, 36.1100471], [-97.8956555, 36.1100467], [-97.895656, 36.1101313]]]}, "properties": {"osm_id": 517733248, "building": "yes", "name": "", "height": null, "height_m": null, "levels": null, "tract_id": "40073958100", "tract_name": "9581", "tags": {"addr:city": "Hennessey", "addr:housenumber": "114", "addr:postcode": "73742", "addr:state": "OK", "addr:street": "North Cimarron Street", "building": "yes"}}}, {"type": "Feature", "geometry": {"type": "Polygon", "coordinates": [[[-97.8969811, 36.1101142], [-97.8968541, 36.1101137], [-97.8968541, 36.1101052], [-97.8968112, 36.110105], [-97.8968116, 36.1100341], [-97.8968594, 36.1100343], [-97.8968595, 36.110027], [-97.8969817, 36.1100275], [-97.8969811, 36.1101142]]]}, "properties": {"osm_id": 517733249, "building": "yes", "name": "", "height": null, "height_m": null, "levels": null, "tract_id": "40073958100", "tract_name": "9581", "tags": {"addr:city": "Hennessey", "addr:housenumber": "118", "addr:postcode": "73742", "addr:state": "OK", "addr:street": "North Cheyenne Street", "building": "yes"}}}, {"type": "Feature", "geometry": {"type": "Polygon", "coordinates": [[[-97.8967136, 36.1101135], [-97.8967129, 36.1099947], [-97.8966636, 36.1099949], [-97.8966634, 36.1099716], [-97.8965889, 36.1099719], [-97.8965898, 36.110114], [-97.8967136, 36.1101135]]]}, "properties": {"osm_id": 517733250, "building": "yes", "name": "", "height": null, "height_m": null, "levels": null, "tract_id": "40073958100", "tract_name": "9581", "tags": {"addr:city": "Hennessey", "addr:housenumber": "114", "addr:postcode": "73742", "addr:state": "OK", "addr:street": "North Cheyenne Street", "building": "yes"}}}, {"type": "Feature", "geometry": {"type": "Polygon", "coordinates": [[[-97.8961802, 36.1082383], [-97.8959763, 36.1082385], [-97.8959761, 36.1081455], [-97.8960846, 36.1081454], [-97.8960844, 36.1080573], [-97.8961799, 36.1080572], [-97.8961802, 36.1082383]]]}, "properties": {"osm_id": 517733252, "building": "yes", "name": "", "height": null, "height_m": null, "levels": null, "tract_id": "40073958100", "tract_name": "9581", "tags": {"addr:city": "Hennessey", "addr:housenumber": "300", "addr:postcode": "73742", "addr:state": "OK", "addr:street": "East 1st Street", "building": "yes"}}}, {"type": "Feature", "geometry": {"type": "Polygon", "coordinates": [[[-97.8973738, 36.1081698], [-97.8973429, 36.1081696], [-97.8973429, 36.108178], [-97.8974198, 36.1081785], [-97.8974187, 36.1082985], [-97.8970347, 36.1082961], [-97.8970359, 36.1081739], [-97.897288, 36.1081755], [-97.8972881, 36.108167], [-97.8970403, 36.1081654], [-97.8970415, 36.108049], [-97.8972046, 36.1080501], [-97.897205, 36.1080127], [-97.8970548, 36.1080118], [-97.8970558, 36.1079125], [-97.8973354, 36.1079143], [-97.897334, 36.1080501], [-97.897375, 36.1080503], [-97.8973738, 36.1081698]]]}, "properties": {"osm_id": 517733254, "building": "church", "name": "United Methodist Church", "height": null, "height_m": null, "levels": null, "tract_id": "40073958100", "tract_name": "9581", "tags": {"addr:city": "Hennessey", "addr:housenumber": "207", "addr:postcode": "73742", "addr:state": "OK", "addr:street": "South Cherokee Street", "amenity": "place_of_worship", "building": "church", "denomination": "united_methodist", "name": "United Methodist Church", "religion": "christian"}}}, {"type": "Feature", "geometry": {"type": "Polygon", "coordinates": [[[-97.8973525, 36.10887], [-97.8972173, 36.1088718], [-97.8972219, 36.1085806], [-97.8973548, 36.1085806], [-97.8973525, 36.10887]]]}, "properties": {"osm_id": 517733256, "building": "yes", "name": "Pioneer Telephone Coop", "height": null, "height_m": null, "levels": null, "tract_id": "40073958100", "tract_name": "9581", "tags": {"addr:city": "Hennessey", "addr:housenumber": "201", "addr:postcode": "73742", "addr:state": "OK", "addr:street": "East 1st Street", "building": "yes", "name": "Pioneer Telephone Coop", "opening_hours": "Mo-Fr 08:30-17:00", "shop": "mobile_phone"}}}, {"type": "Feature", "geometry": {"type": "Polygon", "coordinates": [[[-97.9837904, 36.1155985], [-97.9834042, 36.1157756], [-97.983367, 36.1157227], [-97.9833366, 36.1157367], [-97.9832804, 36.1156568], [-97.9834563, 36.1155761], [-97.9834345, 36.1155451], [-97.9834796, 36.1155244], [-97.9835279, 36.1155932], [-97.9836539, 36.1155354], [-97.9836377, 36.1155124], [-97.9837075, 36.1154804], [-97.9837904, 36.1155985]]]}, "properties": {"osm_id": 724467659, "building": "yes", "name": "Turkey Creek Golf Club", "height": null, "height_m": null, "levels": null, "tract_id": "40073958100", "tract_name": "9581", "tags": {"building": "yes", "golf": "clubhouse", "name": "Turkey Creek Golf Club"}}}, {"type": "Feature", "geometry": {"type": "Polygon", "coordinates": [[[-97.9019415, 36.1154772], [-97.9019289, 36.1154868], [-97.9019207, 36.1154992], [-97.9019179, 36.115513], [-97.9019207, 36.1155268], [-97.9019289, 36.1155392], [-97.9019415, 36.1155488], [-97.9019573, 36.1155546], [-97.9019745, 36.115556], [-97.9019919, 36.1155528], [-97.902007, 36.1155451], [-97.9020181, 36.1155338], [-97.902024, 36.1155202], [-97.902024, 36.1155057], [-97.9020181, 36.1154921], [-97.902007, 36.1154808], [-97.9019919, 36.1154731], [-97.9019744, 36.1154699], [-97.9019572, 36.1154713], [-97.9019415, 36.1154772]]]}, "properties": {"osm_id": 724467663, "building": "yes", "name": "", "height": null, "height_m": null, "levels": null, "tract_id": "40073958100", "tract_name": "9581", "tags": {"building": "yes", "content": "water", "man_made": "storage_tank"}}}, {"type": "Feature", "geometry": {"type": "Polygon", "coordinates": [[[-97.8992976, 36.115809], [-97.8994897, 36.1158082], [-97.8994895, 36.1157807], [-97.8995012, 36.1157806], [-97.8994986, 36.1153832], [-97.8994919, 36.1153832], [-97.8994918, 36.1153587], [-97.8993216, 36.1153594], [-97.8993218, 36.1153819], [-97.8992948, 36.115382], [-97.8992976, 36.115809]]]}, "properties": {"osm_id": 724467664, "building": "yes", "name": "Sleep Inn & Suites", "height": null, "height_m": null, "levels": null, "tract_id": "40073958100", "tract_name": "9581", "tags": {"addr:city": "Hennessey", "addr:housenumber": "600", "addr:postcode": "73742", "addr:state": "OK", "addr:street": "North Main Street", "branch": "Hennessey North", "brand": "Sleep Inn & Suites", "brand:wikidata": "Q69588194", "building": "yes", "name": "Sleep Inn & Suites", "phone": "+1 405-792-4692", "ref": "OK223", "tourism": "hotel", "website": "https://www.choicehotels.com/oklahoma/hennessey/sleep-inn-hotels"}}}, {"type": "Feature", "geometry": {"type": "Polygon", "coordinates": [[[-98.0872415, 36.116249], [-98.0875151, 36.1162447], [-98.0875312, 36.1165047], [-98.0872576, 36.1165134], [-98.0872415, 36.116249]]]}, "properties": {"osm_id": 878438266, "building": "yes", "name": "", "height": null, "height_m": null, "levels": null, "tract_id": "40073958100", "tract_name": "9581", "tags": {"building": "yes"}}}, {"type": "Feature", "geometry": {"type": "Polygon", "coordinates": [[[-98.0872308, 36.1166737], [-98.0871396, 36.1166651], [-98.0871343, 36.1164787], [-98.0872201, 36.1164744], [-98.0872308, 36.1166737]]]}, "properties": {"osm_id": 878438267, "building": "yes", "name": "", "height": null, "height_m": null, "levels": null, "tract_id": "40073958100", "tract_name": "9581", "tags": {"building": "yes"}}}, {"type": "Feature", "geometry": {"type": "Polygon", "coordinates": [[[-98.0867748, 36.115391], [-98.0871128, 36.115378], [-98.0871128, 36.1153303], [-98.0867802, 36.1153303], [-98.0867748, 36.115391]]]}, "properties": {"osm_id": 878438268, "building": "yes", "name": "", "height": null, "height_m": null, "levels": null, "tract_id": "40073958100", "tract_name": "9581", "tags": {"building": "yes"}}}, {"type": "Feature", "geometry": {"type": "Polygon", "coordinates": [[[-98.0874668, 36.1153737], [-98.0873113, 36.1153737], [-98.0873166, 36.1152783], [-98.0874454, 36.115274], [-98.0874668, 36.1153737]]]}, "properties": {"osm_id": 878438269, "building": "yes", "name": "", "height": null, "height_m": null, "levels": null, "tract_id": "40073958100", "tract_name": "9581", "tags": {"building": "yes"}}}, {"type": "Feature", "geometry": {"type": "Polygon", "coordinates": [[[-98.0863295, 36.115709], [-98.0861301, 36.1157115], [-98.0861286, 36.1156337], [-98.0861465, 36.1156285], [-98.0861448, 36.1155438], [-98.0862458, 36.1155425], [-98.0862468, 36.1155927], [-98.0863273, 36.1155917], [-98.0863295, 36.115709]]]}, "properties": {"osm_id": 878438271, "building": "yes", "name": "", "height": null, "height_m": null, "levels": null, "tract_id": "40073958100", "tract_name": "9581", "tags": {"building": "yes"}}}, {"type": "Feature", "geometry": {"type": "Polygon", "coordinates": [[[-98.0860441, 36.115734], [-98.085969, 36.1157307], [-98.085969, 36.1157925], [-98.0860455, 36.1157903], [-98.0860441, 36.115734]]]}, "properties": {"osm_id": 878438272, "building": "yes", "name": "", "height": null, "height_m": null, "levels": null, "tract_id": "40073958100", "tract_name": "9581", "tags": {"building": "yes"}}}, {"type": "Feature", "geometry": {"type": "Polygon", "coordinates": [[[-98.0857596, 36.1155979], [-98.0857319, 36.1155954], [-98.0857319, 36.1155183], [-98.0857688, 36.1155133], [-98.0857596, 36.1155979]]]}, "properties": {"osm_id": 878438273, "building": "yes", "name": "", "height": null, "height_m": null, "levels": null, "tract_id": "40073958100", "tract_name": "9581", "tags": {"building": "yes"}}}, {"type": "Feature", "geometry": {"type": "Polygon", "coordinates": [[[-98.0862765, 36.1152969], [-98.0861482, 36.1152962], [-98.0861491, 36.1153291], [-98.0862765, 36.1153312], [-98.0862765, 36.1152969]]]}, "properties": {"osm_id": 878438274, "building": "yes", "name": "", "height": null, "height_m": null, "levels": null, "tract_id": "40073958100", "tract_name": "9581", "tags": {"building": "yes"}}}, {"type": "Feature", "geometry": {"type": "Polygon", "coordinates": [[[-98.0813076, 36.1158101], [-98.0812507, 36.1157871], [-98.0812669, 36.115751], [-98.0812324, 36.115733], [-98.0813076, 36.1156098], [-98.081399, 36.1156311], [-98.0813076, 36.1158101]]]}, "properties": {"osm_id": 878438275, "building": "yes", "name": "", "height": null, "height_m": null, "levels": null, "tract_id": "40073958100", "tract_name": "9581", "tags": {"building": "yes"}}}, {"type": "Feature", "geometry": {"type": "Polygon", "coordinates": [[[-98.0813665, 36.1155671], [-98.0812059, 36.1155802], [-98.0812059, 36.1155375], [-98.0813706, 36.1155228], [-98.0813665, 36.1155671]]]}, "properties": {"osm_id": 878438276, "building": "yes", "name": "", "height": null, "height_m": null, "levels": null, "tract_id": "40073958100", "tract_name": "9581", "tags": {"building": "yes"}}}, {"type": "Feature", "geometry": {"type": "Polygon", "coordinates": [[[-98.0804762, 36.1157018], [-98.0803623, 36.1157001], [-98.0803522, 36.1156508], [-98.0804782, 36.1156492], [-98.0804762, 36.1157018]]]}, "properties": {"osm_id": 878438277, "building": "yes", "name": "", "height": null, "height_m": null, "levels": null, "tract_id": "40073958100", "tract_name": "9581", "tags": {"building": "yes"}}}, {"type": "Feature", "geometry": {"type": "Polygon", "coordinates": [[[-98.084193, 36.1155118], [-98.0841219, 36.1155151], [-98.0841165, 36.1154641], [-98.084193, 36.1154696], [-98.084193, 36.1155118]]]}, "properties": {"osm_id": 878438293, "building": "yes", "name": "", "height": null, "height_m": null, "levels": null, "tract_id": "40073958100", "tract_name": "9581", "tags": {"building": "yes"}}}, {"type": "Feature", "geometry": {"type": "Polygon", "coordinates": [[[-98.0840991, 36.1154425], [-98.0841045, 36.1154176], [-98.0841004, 36.1154002], [-98.0840736, 36.1153883], [-98.0840522, 36.1154295], [-98.0840615, 36.1154501], [-98.0840991, 36.1154425]]]}, "properties": {"osm_id": 878438294, "building": "yes", "name": "", "height": null, "height_m": null, "levels": null, "tract_id": "40073958100", "tract_name": "9581", "tags": {"building": "yes"}}}, {"type": "Feature", "geometry": {"type": "Polygon", "coordinates": [[[-98.0834987, 36.1155664], [-98.0835689, 36.1155681], [-98.0835648, 36.1156297], [-98.0834926, 36.115628], [-98.0834987, 36.1155664]]]}, "properties": {"osm_id": 878438295, "building": "yes", "name": "", "height": null, "height_m": null, "levels": null, "tract_id": "40073958100", "tract_name": "9581", "tags": {"building": "yes"}}}, {"type": "Feature", "geometry": {"type": "Polygon", "coordinates": [[[-98.083326, 36.1154868], [-98.083389, 36.115486], [-98.0833991, 36.1155213], [-98.0835231, 36.1155155], [-98.0835211, 36.1154581], [-98.0833249, 36.1154646], [-98.083326, 36.1154868]]]}, "properties": {"osm_id": 878438296, "building": "yes", "name": "", "height": null, "height_m": null, "levels": null, "tract_id": "40073958100", "tract_name": "9581", "tags": {"building": "yes"}}}, {"type": "Feature", "geometry": {"type": "Polygon", "coordinates": [[[-98.0816457, 36.1154924], [-98.0816121, 36.1154948], [-98.081608, 36.115476], [-98.0816446, 36.1154686], [-98.0816457, 36.1154924]]]}, "properties": {"osm_id": 878438297, "building": "yes", "name": "", "height": null, "height_m": null, "levels": null, "tract_id": "40073958100", "tract_name": "9581", "tags": {"building": "yes"}}}, {"type": "Feature", "geometry": {"type": "Polygon", "coordinates": [[[-98.0889373, 36.1252483], [-98.0889373, 36.125419], [-98.0882787, 36.1253731], [-98.0883193, 36.1252089], [-98.0889373, 36.1252483]]]}, "properties": {"osm_id": 878438298, "building": "yes", "name": "", "height": null, "height_m": null, "levels": null, "tract_id": "40073958100", "tract_name": "9581", "tags": {"building": "yes"}}}, {"type": "Feature", "geometry": {"type": "Polygon", "coordinates": [[[-98.0883112, 36.1249856], [-98.0889129, 36.1249921], [-98.0889048, 36.1248477], [-98.0882949, 36.124828], [-98.0883112, 36.1249856]]]}, "properties": {"osm_id": 878438299, "building": "yes", "name": "", "height": null, "height_m": null, "levels": null, "tract_id": "40073958100", "tract_name": "9581", "tags": {"building": "yes"}}}, {"type": "Feature", "geometry": {"type": "Polygon", "coordinates": [[[-98.1172687, 36.116196], [-98.1172126, 36.1161998], [-98.117208, 36.11613], [-98.1172733, 36.1161376], [-98.1172687, 36.116196]]]}, "properties": {"osm_id": 878438300, "building": "yes", "name": "", "height": null, "height_m": null, "levels": null, "tract_id": "40073958100", "tract_name": "9581", "tags": {"building": "yes"}}}, {"type": "Feature", "geometry": {"type": "Polygon", "coordinates": [[[-98.1174648, 36.1160659], [-98.1175816, 36.1160678], [-98.1175839, 36.1159206], [-98.1175045, 36.1159206], [-98.1175022, 36.1159772], [-98.1174625, 36.1159791], [-98.1174648, 36.1160659]]]}, "properties": {"osm_id": 878438301, "building": "yes", "name": "", "height": null, "height_m": null, "levels": null, "tract_id": "40073958100", "tract_name": "9581", "tags": {"building": "yes"}}}, {"type": "Feature", "geometry": {"type": "Polygon", "coordinates": [[[-98.1180458, 36.1162891], [-98.118188, 36.1162891], [-98.118188, 36.1164538], [-98.1180431, 36.1164582], [-98.1180458, 36.1162891]]]}, "properties": {"osm_id": 878438302, "building": "yes", "name": "", "height": null, "height_m": null, "levels": null, "tract_id": "40073958100", "tract_name": "9581", "tags": {"building": "yes"}}}, {"type": "Feature", "geometry": {"type": "Polygon", "coordinates": [[[-98.1178052, 36.1165243], [-98.1178398, 36.1164964], [-98.1178235, 36.1164783], [-98.1177828, 36.1165013], [-98.1178052, 36.1165243]]]}, "properties": {"osm_id": 878438306, "building": "yes", "name": "", "height": null, "height_m": null, "levels": null, "tract_id": "40073958100", "tract_name": "9581", "tags": {"building": "yes"}}}, {"type": "Feature", "geometry": {"type": "Polygon", "coordinates": [[[-98.1174027, 36.1165719], [-98.1173214, 36.1165817], [-98.1173194, 36.1166113], [-98.1174068, 36.1166179], [-98.1174027, 36.1165719]]]}, "properties": {"osm_id": 878438307, "building": "yes", "name": "", "height": null, "height_m": null, "levels": null, "tract_id": "40073958100", "tract_name": "9581", "tags": {"building": "yes"}}}, {"type": "Feature", "geometry": {"type": "Polygon", "coordinates": [[[-97.7715573, 35.9690415], [-97.7714306, 35.9690454], [-97.771429, 35.9690111], [-97.7714043, 35.9690118], [-97.7714014, 35.9689479], [-97.7714446, 35.9689466], [-97.7714417, 35.9688852], [-97.7715499, 35.9688819], [-97.7715573, 35.9690415]]]}, "properties": {"osm_id": 985702636, "building": "yes", "name": "", "height": null, "height_m": null, "levels": null, "tract_id": "40073958100", "tract_name": "9581", "tags": {"building": "yes"}}}, {"type": "Feature", "geometry": {"type": "Polygon", "coordinates": [[[-97.7712235, 35.9690282], [-97.7710967, 35.968929], [-97.7711353, 35.9688968], [-97.7711199, 35.9688848], [-97.7711414, 35.9688669], [-97.7712834, 35.9689781], [-97.7712235, 35.9690282]]]}, "properties": {"osm_id": 985702637, "building": "yes", "name": "", "height": null, "height_m": null, "levels": null, "tract_id": "40073958100", "tract_name": "9581", "tags": {"building": "yes"}}}, {"type": "Feature", "geometry": {"type": "Polygon", "coordinates": [[[-97.7832352, 36.0515078], [-97.7832398, 36.0512091], [-97.7829898, 36.0512355], [-97.7829776, 36.0515157], [-97.7832352, 36.0515078]]]}, "properties": {"osm_id": 1135935700, "building": "yes", "name": "", "height": null, "height_m": null, "levels": null, "tract_id": "40073958100", "tract_name": "9581", "tags": {"building": "yes"}}}, {"type": "Feature", "geometry": {"type": "Polygon", "coordinates": [[[-97.9083036, 36.1113926], [-97.9084368, 36.1113941], [-97.908434, 36.1115649], [-97.9083008, 36.1115634], [-97.9083036, 36.1113926]]]}, "properties": {"osm_id": 1163635570, "building": "yes", "name": "", "height": null, "height_m": null, "levels": null, "tract_id": "40073958100", "tract_name": "9581", "tags": {"building": "yes"}}}, {"type": "Feature", "geometry": {"type": "Polygon", "coordinates": [[[-97.9050557, 36.1096895], [-97.9050557, 36.1098849], [-97.9049153, 36.1098849], [-97.9049153, 36.1096895], [-97.9050557, 36.1096895]]]}, "properties": {"osm_id": 1163635571, "building": "yes", "name": "", "height": null, "height_m": null, "levels": null, "tract_id": "40073958100", "tract_name": "9581", "tags": {"building": "yes"}}}, {"type": "Feature", "geometry": {"type": "Polygon", "coordinates": [[[-97.9028231, 36.1082925], [-97.9028204, 36.1082062], [-97.9029786, 36.1082029], [-97.9029813, 36.1082892], [-97.9028231, 36.1082925]]]}, "properties": {"osm_id": 1163635572, "building": "yes", "name": "", "height": null, "height_m": null, "levels": null, "tract_id": "40073958100", "tract_name": "9581", "tags": {"building": "yes"}}}, {"type": "Feature", "geometry": {"type": "Polygon", "coordinates": [[[-97.9035252, 36.1086858], [-97.9033904, 36.1086836], [-97.9033922, 36.1086111], [-97.9035269, 36.1086133], [-97.9035252, 36.1086858]]]}, "properties": {"osm_id": 1163635573, "building": "yes", "name": "", "height": null, "height_m": null, "levels": null, "tract_id": "40073958100", "tract_name": "9581", "tags": {"building": "yes"}}}, {"type": "Feature", "geometry": {"type": "Polygon", "coordinates": [[[-97.9029087, 36.1087939], [-97.9026005, 36.108787], [-97.9026043, 36.1086767], [-97.9029125, 36.1086836], [-97.9029087, 36.1087939]]]}, "properties": {"osm_id": 1163635574, "building": "yes", "name": "", "height": null, "height_m": null, "levels": null, "tract_id": "40073958100", "tract_name": "9581", "tags": {"building": "yes"}}}, {"type": "Feature", "geometry": {"type": "Polygon", "coordinates": [[[-97.9031154, 36.1091073], [-97.9024981, 36.1090919], [-97.9025057, 36.1088921], [-97.903123, 36.1089074], [-97.9031154, 36.1091073]]]}, "properties": {"osm_id": 1163635575, "building": "yes", "name": "", "height": null, "height_m": null, "levels": null, "tract_id": "40073958100", "tract_name": "9581", "tags": {"building": "yes"}}}, {"type": "Feature", "geometry": {"type": "Polygon", "coordinates": [[[-97.9022008, 36.1075146], [-97.9021981, 36.1079046], [-97.9019857, 36.1079037], [-97.9019884, 36.1075136], [-97.9022008, 36.1075146]]]}, "properties": {"osm_id": 1163635576, "building": "yes", "name": "", "height": null, "height_m": null, "levels": null, "tract_id": "40073958100", "tract_name": "9581", "tags": {"building": "yes"}}}, {"type": "Feature", "geometry": {"type": "Polygon", "coordinates": [[[-97.8992255, 36.1070195], [-97.8992243, 36.1069127], [-97.8994387, 36.1069111], [-97.8994398, 36.107018], [-97.8992255, 36.1070195]]]}, "properties": {"osm_id": 1163635577, "building": "yes", "name": "", "height": null, "height_m": null, "levels": null, "tract_id": "40073958100", "tract_name": "9581", "tags": {"building": "yes"}}}, {"type": "Feature", "geometry": {"type": "Polygon", "coordinates": [[[-97.8984873, 36.1071635], [-97.8984873, 36.1072437], [-97.8983881, 36.1072437], [-97.8983881, 36.1071635], [-97.8984873, 36.1071635]]]}, "properties": {"osm_id": 1163635578, "building": "yes", "name": "", "height": null, "height_m": null, "levels": null, "tract_id": "40073958100", "tract_name": "9581", "tags": {"building": "yes"}}}, {"type": "Feature", "geometry": {"type": "Polygon", "coordinates": [[[-97.8985088, 36.1071895], [-97.8984886, 36.1070064], [-97.8986846, 36.1069923], [-97.8987047, 36.1071755], [-97.8985088, 36.1071895]]]}, "properties": {"osm_id": 1163635579, "building": "yes", "name": "", "height": null, "height_m": null, "levels": null, "tract_id": "40073958100", "tract_name": "9581", "tags": {"building": "yes"}}}, {"type": "Feature", "geometry": {"type": "Polygon", "coordinates": [[[-97.8987163, 36.1069759], [-97.8985067, 36.1069782], [-97.8985049, 36.1068701], [-97.8987144, 36.1068678], [-97.8987163, 36.1069759]]]}, "properties": {"osm_id": 1163635580, "building": "yes", "name": "", "height": null, "height_m": null, "levels": null, "tract_id": "40073958100", "tract_name": "9581", "tags": {"building": "yes"}}}, {"type": "Feature", "geometry": {"type": "Polygon", "coordinates": [[[-97.8889614, 36.1235887], [-97.8887576, 36.1235887], [-97.8887576, 36.1234782], [-97.8889614, 36.1234782], [-97.8889614, 36.1235887]]]}, "properties": {"osm_id": 1163635587, "building": "yes", "name": "", "height": null, "height_m": null, "levels": null, "tract_id": "40073958100", "tract_name": "9581", "tags": {"building": "yes"}}}, {"type": "Feature", "geometry": {"type": "Polygon", "coordinates": [[[-97.8893006, 36.1245272], [-97.889293, 36.1243449], [-97.8894059, 36.1243418], [-97.8894135, 36.1245241], [-97.8893006, 36.1245272]]]}, "properties": {"osm_id": 1163635588, "building": "yes", "name": "", "height": null, "height_m": null, "levels": null, "tract_id": "40073958100", "tract_name": "9581", "tags": {"building": "yes"}}}, {"type": "Feature", "geometry": {"type": "Polygon", "coordinates": [[[-97.8880753, 36.1243265], [-97.8880698, 36.1241289], [-97.8884055, 36.1241228], [-97.888411, 36.1243204], [-97.8880753, 36.1243265]]]}, "properties": {"osm_id": 1163635589, "building": "yes", "name": "", "height": null, "height_m": null, "levels": null, "tract_id": "40073958100", "tract_name": "9581", "tags": {"building": "yes"}}}, {"type": "Feature", "geometry": {"type": "Polygon", "coordinates": [[[-97.890962, 36.0864748], [-97.8906737, 36.0864825], [-97.89067, 36.0863909], [-97.8909583, 36.0863832], [-97.890962, 36.0864748]]]}, "properties": {"osm_id": 1163635590, "building": "yes", "name": "", "height": null, "height_m": null, "levels": null, "tract_id": "40073958100", "tract_name": "9581", "tags": {"building": "yes"}}}, {"type": "Feature", "geometry": {"type": "Polygon", "coordinates": [[[-97.8910303, 36.0861759], [-97.8910341, 36.0863322], [-97.8908567, 36.0863351], [-97.8908529, 36.0861787], [-97.8910303, 36.0861759]]]}, "properties": {"osm_id": 1163635591, "building": "yes", "name": "", "height": null, "height_m": null, "levels": null, "tract_id": "40073958100", "tract_name": "9581", "tags": {"building": "yes"}}}, {"type": "Feature", "geometry": {"type": "Polygon", "coordinates": [[[-97.8850199, 36.1313966], [-97.885214, 36.1313951], [-97.8852166, 36.1316215], [-97.8850226, 36.131623], [-97.8850199, 36.1313966]]]}, "properties": {"osm_id": 1163635594, "building": "yes", "name": "", "height": null, "height_m": null, "levels": null, "tract_id": "40073958100", "tract_name": "9581", "tags": {"building": "yes"}}}, {"type": "Feature", "geometry": {"type": "Polygon", "coordinates": [[[-97.8905654, 36.1344565], [-97.8906937, 36.1344602], [-97.8906857, 36.1346389], [-97.8905573, 36.1346352], [-97.8905654, 36.1344565]]]}, "properties": {"osm_id": 1163635595, "building": "yes", "name": "", "height": null, "height_m": null, "levels": null, "tract_id": "40073958100", "tract_name": "9581", "tags": {"building": "yes"}}}, {"type": "Feature", "geometry": {"type": "Polygon", "coordinates": [[[-97.8889896, 36.1351107], [-97.8887858, 36.1351096], [-97.8887863, 36.1350466], [-97.8889901, 36.1350477], [-97.8889896, 36.1351107]]]}, "properties": {"osm_id": 1163635596, "building": "yes", "name": "", "height": null, "height_m": null, "levels": null, "tract_id": "40073958100", "tract_name": "9581", "tags": {"building": "yes"}}}, {"type": "Feature", "geometry": {"type": "Polygon", "coordinates": [[[-97.889121, 36.1346731], [-97.8891218, 36.1348031], [-97.8888509, 36.1348042], [-97.8888501, 36.1346742], [-97.889121, 36.1346731]]]}, "properties": {"osm_id": 1163635597, "building": "yes", "name": "", "height": null, "height_m": null, "levels": null, "tract_id": "40073958100", "tract_name": "9581", "tags": {"building": "yes"}}}, {"type": "Feature", "geometry": {"type": "Polygon", "coordinates": [[[-97.8851394, 36.1097654], [-97.8854182, 36.1097583], [-97.8854333, 36.1101475], [-97.8851546, 36.1101546], [-97.8851394, 36.1097654]]]}, "properties": {"osm_id": 1163635598, "building": "yes", "name": "", "height": null, "height_m": null, "levels": null, "tract_id": "40073958100", "tract_name": "9581", "tags": {"building": "yes"}}}, {"type": "Feature", "geometry": {"type": "Polygon", "coordinates": [[[-97.8874902, 36.1160672], [-97.8872247, 36.1160672], [-97.8872247, 36.1158299], [-97.8874902, 36.1158299], [-97.8874902, 36.1160672]]]}, "properties": {"osm_id": 1163635599, "building": "yes", "name": "", "height": null, "height_m": null, "levels": null, "tract_id": "40073958100", "tract_name": "9581", "tags": {"building": "yes"}}}, {"type": "Feature", "geometry": {"type": "Polygon", "coordinates": [[[-97.8931583, 36.1199343], [-97.8931603, 36.1196484], [-97.8934884, 36.11965], [-97.8934864, 36.1199358], [-97.8931583, 36.1199343]]]}, "properties": {"osm_id": 1163635600, "building": "yes", "name": "", "height": null, "height_m": null, "levels": null, "tract_id": "40073958100", "tract_name": "9581", "tags": {"building": "yes"}}}, {"type": "Feature", "geometry": {"type": "Polygon", "coordinates": [[[-97.8914892, 36.1199343], [-97.8914903, 36.1196618], [-97.8927382, 36.1196649], [-97.8927372, 36.1199373], [-97.8914892, 36.1199343]]]}, "properties": {"osm_id": 1163635601, "building": "yes", "name": "", "height": null, "height_m": null, "levels": null, "tract_id": "40073958100", "tract_name": "9581", "tags": {"building": "yes"}}}, {"type": "Feature", "geometry": {"type": "Polygon", "coordinates": [[[-97.901018, 36.1172459], [-97.9010046, 36.1175157], [-97.900875, 36.1175115], [-97.9008884, 36.1172417], [-97.901018, 36.1172459]]]}, "properties": {"osm_id": 1163635602, "building": "yes", "name": "", "height": null, "height_m": null, "levels": null, "tract_id": "40073958100", "tract_name": "9581", "tags": {"building": "yes"}}}, {"type": "Feature", "geometry": {"type": "Polygon", "coordinates": [[[-97.9010899, 36.1178277], [-97.9010978, 36.1175911], [-97.9015198, 36.1176003], [-97.9015119, 36.1178369], [-97.9010899, 36.1178277]]]}, "properties": {"osm_id": 1163635603, "building": "yes", "name": "", "height": null, "height_m": null, "levels": null, "tract_id": "40073958100", "tract_name": "9581", "tags": {"building": "yes"}}}, {"type": "Feature", "geometry": {"type": "Polygon", "coordinates": [[[-97.9017262, 36.1175312], [-97.9015242, 36.1175318], [-97.9015232, 36.1173188], [-97.9017252, 36.1173182], [-97.9017262, 36.1175312]]]}, "properties": {"osm_id": 1163635604, "building": "yes", "name": "", "height": null, "height_m": null, "levels": null, "tract_id": "40073958100", "tract_name": "9581", "tags": {"building": "yes"}}}, {"type": "Feature", "geometry": {"type": "Polygon", "coordinates": [[[-97.8960402, 36.1159876], [-97.8958069, 36.1159868], [-97.8958078, 36.1157983], [-97.8960411, 36.1157991], [-97.8960402, 36.1159876]]]}, "properties": {"osm_id": 1163635605, "building": "yes", "name": "", "height": null, "height_m": null, "levels": null, "tract_id": "40073958100", "tract_name": "9581", "tags": {"building": "yes"}}}, {"type": "Feature", "geometry": {"type": "Polygon", "coordinates": [[[-97.8978637, 36.1088851], [-97.8977746, 36.1088851], [-97.8977746, 36.1088453], [-97.8978637, 36.1088453], [-97.8978637, 36.1088851]]]}, "properties": {"osm_id": 1163635606, "building": "yes", "name": "", "height": null, "height_m": null, "levels": null, "tract_id": "40073958100", "tract_name": "9581", "tags": {"building": "yes"}}}, {"type": "Feature", "geometry": {"type": "Polygon", "coordinates": [[[-97.8925328, 36.1065437], [-97.892341, 36.1065448], [-97.8923402, 36.1064551], [-97.892532, 36.106454], [-97.8925328, 36.1065437]]]}, "properties": {"osm_id": 1163635607, "building": "yes", "name": "", "height": null, "height_m": null, "levels": null, "tract_id": "40073958100", "tract_name": "9581", "tags": {"building": "yes"}}}, {"type": "Feature", "geometry": {"type": "Polygon", "coordinates": [[[-97.8920648, 36.1065427], [-97.892062, 36.1064556], [-97.8922203, 36.1064523], [-97.892223, 36.1065394], [-97.8920648, 36.1065427]]]}, "properties": {"osm_id": 1163635608, "building": "yes", "name": "", "height": null, "height_m": null, "levels": null, "tract_id": "40073958100", "tract_name": "9581", "tags": {"building": "yes"}}}, {"type": "Feature", "geometry": {"type": "Polygon", "coordinates": [[[-97.892282, 36.1059768], [-97.8922121, 36.1059753], [-97.8922139, 36.1059186], [-97.8922839, 36.1059201], [-97.892282, 36.1059768]]]}, "properties": {"osm_id": 1163635609, "building": "yes", "name": "", "height": null, "height_m": null, "levels": null, "tract_id": "40073958100", "tract_name": "9581", "tags": {"building": "yes"}}}, {"type": "Feature", "geometry": {"type": "Polygon", "coordinates": [[[-97.8923863, 36.1056604], [-97.8923863, 36.1057117], [-97.8923427, 36.1057117], [-97.8923427, 36.1056604], [-97.8923863, 36.1056604]]]}, "properties": {"osm_id": 1163635610, "building": "yes", "name": "", "height": null, "height_m": null, "levels": null, "tract_id": "40073958100", "tract_name": "9581", "tags": {"building": "yes"}}}, {"type": "Feature", "geometry": {"type": "Polygon", "coordinates": [[[-97.8926263, 36.1057416], [-97.8925172, 36.1057423], [-97.8925165, 36.1056804], [-97.8926256, 36.1056796], [-97.8926263, 36.1057416]]]}, "properties": {"osm_id": 1163635611, "building": "yes", "name": "", "height": null, "height_m": null, "levels": null, "tract_id": "40073958100", "tract_name": "9581", "tags": {"building": "yes"}}}, {"type": "Feature", "geometry": {"type": "Polygon", "coordinates": [[[-97.9018447, 36.106258], [-97.9017414, 36.1062595], [-97.9017396, 36.1061823], [-97.901843, 36.1061808], [-97.9018447, 36.106258]]]}, "properties": {"osm_id": 1163673248, "building": "yes", "name": "", "height": null, "height_m": null, "levels": null, "tract_id": "40073958100", "tract_name": "9581", "tags": {"building": "yes"}}}, {"type": "Feature", "geometry": {"type": "Polygon", "coordinates": [[[-97.9015128, 36.1066456], [-97.9014726, 36.1069121], [-97.9013104, 36.1068961], [-97.9013506, 36.1066296], [-97.9015128, 36.1066456]]]}, "properties": {"osm_id": 1163673249, "building": "yes", "name": "", "height": null, "height_m": null, "levels": null, "tract_id": "40073958100", "tract_name": "9581", "tags": {"building": "yes"}}}, {"type": "Feature", "geometry": {"type": "Polygon", "coordinates": [[[-97.901478, 36.1069858], [-97.9014404, 36.1072155], [-97.9013023, 36.1072008], [-97.9013398, 36.1069711], [-97.901478, 36.1069858]]]}, "properties": {"osm_id": 1163673250, "building": "yes", "name": "", "height": null, "height_m": null, "levels": null, "tract_id": "40073958100", "tract_name": "9581", "tags": {"building": "yes"}}}, {"type": "Feature", "geometry": {"type": "Polygon", "coordinates": [[[-97.8999464, 36.108663], [-97.8996903, 36.1086641], [-97.8996893, 36.1085181], [-97.8999455, 36.108517], [-97.8999464, 36.108663]]]}, "properties": {"osm_id": 1163673251, "building": "yes", "name": "", "height": null, "height_m": null, "levels": null, "tract_id": "40073958100", "tract_name": "9581", "tags": {"building": "yes"}}}, {"type": "Feature", "geometry": {"type": "Polygon", "coordinates": [[[-97.8953868, 36.1116745], [-97.8954606, 36.111739], [-97.8953335, 36.111834], [-97.8952597, 36.1117695], [-97.8953868, 36.1116745]]]}, "properties": {"osm_id": 1163673252, "building": "yes", "name": "", "height": null, "height_m": null, "levels": null, "tract_id": "40073958100", "tract_name": "9581", "tags": {"building": "yes"}}}, {"type": "Feature", "geometry": {"type": "Polygon", "coordinates": [[[-97.8967466, 36.112921], [-97.8966053, 36.112921], [-97.8966053, 36.1128352], [-97.8967466, 36.1128352], [-97.8967466, 36.112921]]]}, "properties": {"osm_id": 1163673253, "building": "yes", "name": "", "height": null, "height_m": null, "levels": null, "tract_id": "40073958100", "tract_name": "9581", "tags": {"building": "yes"}}}, {"type": "Feature", "geometry": {"type": "Polygon", "coordinates": [[[-97.8956281, 36.1134129], [-97.8956287, 36.1134616], [-97.8955859, 36.113462], [-97.8955853, 36.1134133], [-97.8956281, 36.1134129]]]}, "properties": {"osm_id": 1163673254, "building": "yes", "name": "", "height": null, "height_m": null, "levels": null, "tract_id": "40073958100", "tract_name": "9581", "tags": {"building": "yes"}}}, {"type": "Feature", "geometry": {"type": "Polygon", "coordinates": [[[-97.8955235, 36.11383], [-97.8955242, 36.1137994], [-97.8955899, 36.1138004], [-97.8955892, 36.1138311], [-97.8955235, 36.11383]]]}, "properties": {"osm_id": 1163673255, "building": "yes", "name": "", "height": null, "height_m": null, "levels": null, "tract_id": "40073958100", "tract_name": "9581", "tags": {"building": "yes"}}}, {"type": "Feature", "geometry": {"type": "Polygon", "coordinates": [[[-97.8954852, 36.1138376], [-97.8954282, 36.113837], [-97.8954289, 36.1137925], [-97.8954859, 36.1137931], [-97.8954852, 36.1138376]]]}, "properties": {"osm_id": 1163673256, "building": "yes", "name": "", "height": null, "height_m": null, "levels": null, "tract_id": "40073958100", "tract_name": "9581", "tags": {"building": "yes"}}}, {"type": "Feature", "geometry": {"type": "Polygon", "coordinates": [[[-97.8958701, 36.1140185], [-97.8957494, 36.1140218], [-97.8957464, 36.1139488], [-97.8958671, 36.1139456], [-97.8958701, 36.1140185]]]}, "properties": {"osm_id": 1163673258, "building": "yes", "name": "", "height": null, "height_m": null, "levels": null, "tract_id": "40073958100", "tract_name": "9581", "tags": {"building": "yes"}}}, {"type": "Feature", "geometry": {"type": "Polygon", "coordinates": [[[-97.8956126, 36.1153354], [-97.8956119, 36.1153786], [-97.8955649, 36.115378], [-97.8955657, 36.1153348], [-97.8956126, 36.1153354]]]}, "properties": {"osm_id": 1163673259, "building": "yes", "name": "", "height": null, "height_m": null, "levels": null, "tract_id": "40073958100", "tract_name": "9581", "tags": {"building": "yes"}}}, {"type": "Feature", "geometry": {"type": "Polygon", "coordinates": [[[-97.895618, 36.1152715], [-97.8955161, 36.1152747], [-97.8955126, 36.115204], [-97.8956146, 36.1152007], [-97.895618, 36.1152715]]]}, "properties": {"osm_id": 1163673260, "building": "yes", "name": "", "height": null, "height_m": null, "levels": null, "tract_id": "40073958100", "tract_name": "9581", "tags": {"building": "yes"}}}, {"type": "Feature", "geometry": {"type": "Polygon", "coordinates": [[[-97.894648, 36.115433], [-97.894648, 36.1154996], [-97.8945831, 36.1154996], [-97.8945831, 36.115433], [-97.894648, 36.115433]]]}, "properties": {"osm_id": 1163673261, "building": "yes", "name": "", "height": null, "height_m": null, "levels": null, "tract_id": "40073958100", "tract_name": "9581", "tags": {"building": "yes"}}}, {"type": "Feature", "geometry": {"type": "Polygon", "coordinates": [[[-97.9029572, 36.1057902], [-97.9027889, 36.1057896], [-97.9027893, 36.1057056], [-97.9029576, 36.1057061], [-97.9029572, 36.1057902]]]}, "properties": {"osm_id": 1163673262, "building": "yes", "name": "", "height": null, "height_m": null, "levels": null, "tract_id": "40073958100", "tract_name": "9581", "tags": {"building": "yes"}}}, {"type": "Feature", "geometry": {"type": "Polygon", "coordinates": [[[-97.9011843, 36.1049553], [-97.9010475, 36.104951], [-97.901052, 36.104858], [-97.9011888, 36.1048624], [-97.9011843, 36.1049553]]]}, "properties": {"osm_id": 1163673263, "building": "yes", "name": "", "height": null, "height_m": null, "levels": null, "tract_id": "40073958100", "tract_name": "9581", "tags": {"building": "yes"}}}, {"type": "Feature", "geometry": {"type": "Polygon", "coordinates": [[[-97.9016067, 36.1050691], [-97.9017276, 36.1050671], [-97.9017317, 36.1052274], [-97.9016107, 36.1052294], [-97.9016067, 36.1050691]]]}, "properties": {"osm_id": 1163673264, "building": "yes", "name": "", "height": null, "height_m": null, "levels": null, "tract_id": "40073958100", "tract_name": "9581", "tags": {"building": "yes"}}}, {"type": "Feature", "geometry": {"type": "Polygon", "coordinates": [[[-97.9033762, 36.1111727], [-97.9033829, 36.1112769], [-97.903276, 36.1112814], [-97.9032694, 36.1111772], [-97.9033762, 36.1111727]]]}, "properties": {"osm_id": 1163673265, "building": "yes", "name": "", "height": null, "height_m": null, "levels": null, "tract_id": "40073958100", "tract_name": "9581", "tags": {"building": "yes"}}}, {"type": "Feature", "geometry": {"type": "Polygon", "coordinates": [[[-97.9025267, 36.1117834], [-97.9026758, 36.1117823], [-97.9026785, 36.1120141], [-97.9025294, 36.1120153], [-97.9025267, 36.1117834]]]}, "properties": {"osm_id": 1163673266, "building": "yes", "name": "", "height": null, "height_m": null, "levels": null, "tract_id": "40073958100", "tract_name": "9581", "tags": {"building": "yes"}}}, {"type": "Feature", "geometry": {"type": "Polygon", "coordinates": [[[-97.9036143, 36.1120729], [-97.9036256, 36.1119463], [-97.9038361, 36.1119586], [-97.9038248, 36.1120852], [-97.9036143, 36.1120729]]]}, "properties": {"osm_id": 1163673267, "building": "yes", "name": "", "height": null, "height_m": null, "levels": null, "tract_id": "40073958100", "tract_name": "9581", "tags": {"building": "yes"}}}, {"type": "Feature", "geometry": {"type": "Polygon", "coordinates": [[[-97.9082704, 36.1130374], [-97.9082723, 36.1127417], [-97.9084396, 36.1127424], [-97.9084377, 36.1130381], [-97.9082704, 36.1130374]]]}, "properties": {"osm_id": 1163673268, "building": "yes", "name": "", "height": null, "height_m": null, "levels": null, "tract_id": "40073958100", "tract_name": "9581", "tags": {"building": "yes"}}}, {"type": "Feature", "geometry": {"type": "Polygon", "coordinates": [[[-97.9081149, 36.1123227], [-97.9081135, 36.1121873], [-97.9084425, 36.1121851], [-97.908444, 36.1123204], [-97.9081149, 36.1123227]]]}, "properties": {"osm_id": 1163673269, "building": "yes", "name": "", "height": null, "height_m": null, "levels": null, "tract_id": "40073958100", "tract_name": "9581", "tags": {"building": "yes"}}}, {"type": "Feature", "geometry": {"type": "Polygon", "coordinates": [[[-97.9069946, 36.1129958], [-97.9069943, 36.1128879], [-97.9072967, 36.1128874], [-97.907297, 36.1129952], [-97.9069946, 36.1129958]]]}, "properties": {"osm_id": 1163673270, "building": "yes", "name": "", "height": null, "height_m": null, "levels": null, "tract_id": "40073958100", "tract_name": "9581", "tags": {"building": "yes"}}}, {"type": "Feature", "geometry": {"type": "Polygon", "coordinates": [[[-97.9076303, 36.1133966], [-97.9076303, 36.1134421], [-97.907584, 36.1134421], [-97.907584, 36.1133966], [-97.9076303, 36.1133966]]]}, "properties": {"osm_id": 1163673271, "building": "yes", "name": "", "height": null, "height_m": null, "levels": null, "tract_id": "40073958100", "tract_name": "9581", "tags": {"building": "yes"}}}, {"type": "Feature", "geometry": {"type": "Polygon", "coordinates": [[[-97.9081674, 36.1135981], [-97.908166, 36.1134872], [-97.9083706, 36.1134856], [-97.9083719, 36.1135965], [-97.9081674, 36.1135981]]]}, "properties": {"osm_id": 1163673272, "building": "yes", "name": "", "height": null, "height_m": null, "levels": null, "tract_id": "40073958100", "tract_name": "9581", "tags": {"building": "yes"}}}, {"type": "Feature", "geometry": {"type": "Polygon", "coordinates": [[[-97.9083384, 36.1139465], [-97.9083381, 36.1138587], [-97.908564, 36.1138581], [-97.9085644, 36.1139459], [-97.9083384, 36.1139465]]]}, "properties": {"osm_id": 1163673273, "building": "yes", "name": "", "height": null, "height_m": null, "levels": null, "tract_id": "40073958100", "tract_name": "9581", "tags": {"building": "yes"}}}, {"type": "Feature", "geometry": {"type": "Polygon", "coordinates": [[[-97.9079423, 36.1160485], [-97.9079437, 36.1159393], [-97.9080242, 36.11594], [-97.9080228, 36.1160492], [-97.9079423, 36.1160485]]]}, "properties": {"osm_id": 1163673274, "building": "yes", "name": "", "height": null, "height_m": null, "levels": null, "tract_id": "40073958100", "tract_name": "9581", "tags": {"building": "yes"}}}, {"type": "Feature", "geometry": {"type": "Polygon", "coordinates": [[[-97.9082515, 36.1156544], [-97.9082543, 36.1154276], [-97.9085, 36.1154296], [-97.9084972, 36.1156564], [-97.9082515, 36.1156544]]]}, "properties": {"osm_id": 1163673275, "building": "yes", "name": "", "height": null, "height_m": null, "levels": null, "tract_id": "40073958100", "tract_name": "9581", "tags": {"building": "yes"}}}, {"type": "Feature", "geometry": {"type": "Polygon", "coordinates": [[[-97.9082143, 36.116], [-97.9082171, 36.1158843], [-97.9084934, 36.1158886], [-97.9084906, 36.1160044], [-97.9082143, 36.116]]]}, "properties": {"osm_id": 1163673276, "building": "yes", "name": "", "height": null, "height_m": null, "levels": null, "tract_id": "40073958100", "tract_name": "9581", "tags": {"building": "yes"}}}, {"type": "Feature", "geometry": {"type": "Polygon", "coordinates": [[[-97.9148769, 36.1152882], [-97.9152105, 36.1153017], [-97.9151917, 36.1156051], [-97.9148582, 36.1155916], [-97.9148769, 36.1152882]]]}, "properties": {"osm_id": 1163673277, "building": "yes", "name": "", "height": null, "height_m": null, "levels": null, "tract_id": "40073958100", "tract_name": "9581", "tags": {"building": "yes"}}}, {"type": "Feature", "geometry": {"type": "Polygon", "coordinates": [[[-97.9137459, 36.1157057], [-97.9136151, 36.1157057], [-97.9136151, 36.1156222], [-97.9137459, 36.1156222], [-97.9137459, 36.1157057]]]}, "properties": {"osm_id": 1163673278, "building": "yes", "name": "", "height": null, "height_m": null, "levels": null, "tract_id": "40073958100", "tract_name": "9581", "tags": {"building": "yes"}}}, {"type": "Feature", "geometry": {"type": "Polygon", "coordinates": [[[-97.9142017, 36.1162806], [-97.9142024, 36.1163635], [-97.9141135, 36.116364], [-97.9141128, 36.1162811], [-97.9142017, 36.1162806]]]}, "properties": {"osm_id": 1163673279, "building": "yes", "name": "", "height": null, "height_m": null, "levels": null, "tract_id": "40073958100", "tract_name": "9581", "tags": {"building": "yes"}}}, {"type": "Feature", "geometry": {"type": "Polygon", "coordinates": [[[-97.9133126, 36.1165529], [-97.9132272, 36.1165545], [-97.9132256, 36.1164973], [-97.913311, 36.1164958], [-97.9133126, 36.1165529]]]}, "properties": {"osm_id": 1163673280, "building": "yes", "name": "", "height": null, "height_m": null, "levels": null, "tract_id": "40073958100", "tract_name": "9581", "tags": {"building": "yes"}}}, {"type": "Feature", "geometry": {"type": "Polygon", "coordinates": [[[-97.9133334, 36.1165629], [-97.9133342, 36.1164864], [-97.9135524, 36.1164879], [-97.9135515, 36.1165644], [-97.9133334, 36.1165629]]]}, "properties": {"osm_id": 1163673281, "building": "yes", "name": "", "height": null, "height_m": null, "levels": null, "tract_id": "40073958100", "tract_name": "9581", "tags": {"building": "yes"}}}, {"type": "Feature", "geometry": {"type": "Polygon", "coordinates": [[[-97.9128304, 36.1165135], [-97.9126802, 36.1165168], [-97.912677, 36.1164212], [-97.9128272, 36.116418], [-97.9128304, 36.1165135]]]}, "properties": {"osm_id": 1163673282, "building": "yes", "name": "", "height": null, "height_m": null, "levels": null, "tract_id": "40073958100", "tract_name": "9581", "tags": {"building": "yes"}}}, {"type": "Feature", "geometry": {"type": "Polygon", "coordinates": [[[-97.9013061, 36.1257819], [-97.9013916, 36.1258549], [-97.9012954, 36.1259284], [-97.9013107, 36.1259415], [-97.9011882, 36.126035], [-97.9012119, 36.1260552], [-97.9011344, 36.1261144], [-97.9010059, 36.1260046], [-97.9010877, 36.1259421], [-97.901074, 36.1259305], [-97.9010883, 36.1259195], [-97.9010681, 36.1259022], [-97.9011335, 36.1258522], [-97.9011534, 36.1258693], [-97.9011676, 36.1258585], [-97.901175, 36.1258649], [-97.9011968, 36.1258482], [-97.9012074, 36.1258573], [-97.9013061, 36.1257819]]]}, "properties": {"osm_id": 1163673283, "building": "yes", "name": "", "height": null, "height_m": null, "levels": null, "tract_id": "40073958100", "tract_name": "9581", "tags": {"building": "yes"}}}, {"type": "Feature", "geometry": {"type": "Polygon", "coordinates": [[[-97.9012994, 36.1261702], [-97.9012563, 36.1262057], [-97.9012047, 36.1261647], [-97.9012478, 36.1261292], [-97.9012994, 36.1261702]]]}, "properties": {"osm_id": 1163673284, "building": "yes", "name": "", "height": null, "height_m": null, "levels": null, "tract_id": "40073958100", "tract_name": "9581", "tags": {"building": "yes"}}}, {"type": "Feature", "geometry": {"type": "Polygon", "coordinates": [[[-97.8993649, 36.1261258], [-97.8993578, 36.1260247], [-97.8994915, 36.1260186], [-97.8994986, 36.1261197], [-97.8993649, 36.1261258]]]}, "properties": {"osm_id": 1163673286, "building": "yes", "name": "", "height": null, "height_m": null, "levels": null, "tract_id": "40073958100", "tract_name": "9581", "tags": {"building": "yes"}}}, {"type": "Feature", "geometry": {"type": "Polygon", "coordinates": [[[-97.9017594, 36.1248413], [-97.9017549, 36.1246412], [-97.9021779, 36.124635], [-97.9021823, 36.1248351], [-97.9017594, 36.1248413]]]}, "properties": {"osm_id": 1163673287, "building": "yes", "name": "", "height": null, "height_m": null, "levels": null, "tract_id": "40073958100", "tract_name": "9581", "tags": {"building": "yes"}}}, {"type": "Feature", "geometry": {"type": "Polygon", "coordinates": [[[-97.9003654, 36.1244123], [-97.9001017, 36.1244108], [-97.9001033, 36.1242345], [-97.9003669, 36.124236], [-97.9003654, 36.1244123]]]}, "properties": {"osm_id": 1163673288, "building": "yes", "name": "", "height": null, "height_m": null, "levels": null, "tract_id": "40073958100", "tract_name": "9581", "tags": {"building": "yes"}}}, {"type": "Feature", "geometry": {"type": "Polygon", "coordinates": [[[-97.9013099, 36.1244169], [-97.9005854, 36.1244138], [-97.9005857, 36.1243648], [-97.9013102, 36.1243679], [-97.9013099, 36.1244169]]]}, "properties": {"osm_id": 1163673289, "building": "yes", "name": "", "height": null, "height_m": null, "levels": null, "tract_id": "40073958100", "tract_name": "9581", "tags": {"building": "yes"}}}, {"type": "Feature", "geometry": {"type": "Polygon", "coordinates": [[[-97.8978078, 36.0886888], [-97.8978078, 36.0885983], [-97.898005, 36.0885983], [-97.898005, 36.0886888], [-97.8978078, 36.0886888]]]}, "properties": {"osm_id": 1163673290, "building": "yes", "name": "", "height": null, "height_m": null, "levels": null, "tract_id": "40073958100", "tract_name": "9581", "tags": {"building": "yes"}}}, {"type": "Feature", "geometry": {"type": "Polygon", "coordinates": [[[-97.8983069, 36.0899724], [-97.8982466, 36.0899741], [-97.8982452, 36.0899419], [-97.8983056, 36.0899403], [-97.8983069, 36.0899724]]]}, "properties": {"osm_id": 1163673291, "building": "yes", "name": "", "height": null, "height_m": null, "levels": null, "tract_id": "40073958100", "tract_name": "9581", "tags": {"building": "yes"}}}, {"type": "Feature", "geometry": {"type": "Polygon", "coordinates": [[[-97.8984982, 36.0901494], [-97.8982393, 36.0901463], [-97.8982402, 36.0900941], [-97.8984991, 36.0900972], [-97.8984982, 36.0901494]]]}, "properties": {"osm_id": 1163673292, "building": "yes", "name": "", "height": null, "height_m": null, "levels": null, "tract_id": "40073958100", "tract_name": "9581", "tags": {"building": "yes"}}}, {"type": "Feature", "geometry": {"type": "Polygon", "coordinates": [[[-97.8958721, 36.0902049], [-97.895561, 36.0902006], [-97.8955641, 36.0900562], [-97.8958752, 36.0900605], [-97.8958721, 36.0902049]]]}, "properties": {"osm_id": 1163673293, "building": "yes", "name": "", "height": null, "height_m": null, "levels": null, "tract_id": "40073958100", "tract_name": "9581", "tags": {"building": "yes"}}}, {"type": "Feature", "geometry": {"type": "Polygon", "coordinates": [[[-97.8937775, 36.0872411], [-97.8937775, 36.0874327], [-97.8936656, 36.0874327], [-97.8936656, 36.0872411], [-97.8937775, 36.0872411]]]}, "properties": {"osm_id": 1163673294, "building": "yes", "name": "", "height": null, "height_m": null, "levels": null, "tract_id": "40073958100", "tract_name": "9581", "tags": {"building": "yes"}}}, {"type": "Feature", "geometry": {"type": "Polygon", "coordinates": [[[-97.8930491, 36.0874142], [-97.8927916, 36.0874099], [-97.892794, 36.0873196], [-97.8930514, 36.087324], [-97.8930491, 36.0874142]]]}, "properties": {"osm_id": 1163673295, "building": "yes", "name": "", "height": null, "height_m": null, "levels": null, "tract_id": "40073958100", "tract_name": "9581", "tags": {"building": "yes"}}}, {"type": "Feature", "geometry": {"type": "Polygon", "coordinates": [[[-97.8922009, 36.0873725], [-97.8921711, 36.0874163], [-97.892098, 36.0873837], [-97.8921278, 36.08734], [-97.8922009, 36.0873725]]]}, "properties": {"osm_id": 1163673296, "building": "yes", "name": "", "height": null, "height_m": null, "levels": null, "tract_id": "40073958100", "tract_name": "9581", "tags": {"building": "yes"}}}, {"type": "Feature", "geometry": {"type": "Polygon", "coordinates": [[[-97.8921734, 36.087301], [-97.8921517, 36.0873318], [-97.8919613, 36.0872446], [-97.8919829, 36.0872137], [-97.8921734, 36.087301]]]}, "properties": {"osm_id": 1163673297, "building": "yes", "name": "", "height": null, "height_m": null, "levels": null, "tract_id": "40073958100", "tract_name": "9581", "tags": {"building": "yes"}}}, {"type": "Feature", "geometry": {"type": "Polygon", "coordinates": [[[-97.8909775, 36.0870447], [-97.8909762, 36.0869902], [-97.8910493, 36.0869891], [-97.8910505, 36.0870436], [-97.8909775, 36.0870447]]]}, "properties": {"osm_id": 1163673298, "building": "yes", "name": "", "height": null, "height_m": null, "levels": null, "tract_id": "40073958100", "tract_name": "9581", "tags": {"building": "yes"}}}, {"type": "Feature", "geometry": {"type": "Polygon", "coordinates": [[[-97.8908564, 36.0869027], [-97.8908564, 36.0867976], [-97.8910428, 36.0867976], [-97.8910428, 36.0869027], [-97.8908564, 36.0869027]]]}, "properties": {"osm_id": 1163673299, "building": "yes", "name": "", "height": null, "height_m": null, "levels": null, "tract_id": "40073958100", "tract_name": "9581", "tags": {"building": "yes"}}}, {"type": "Feature", "geometry": {"type": "Polygon", "coordinates": [[[-97.8922337, 36.0833478], [-97.8922391, 36.0832128], [-97.8924067, 36.0832172], [-97.8924014, 36.0833521], [-97.8922337, 36.0833478]]]}, "properties": {"osm_id": 1163673300, "building": "yes", "name": "", "height": null, "height_m": null, "levels": null, "tract_id": "40073958100", "tract_name": "9581", "tags": {"building": "yes"}}}, {"type": "Feature", "geometry": {"type": "Polygon", "coordinates": [[[-97.893837, 36.0810815], [-97.8938303, 36.0811514], [-97.8937479, 36.0811462], [-97.8937546, 36.0810763], [-97.893837, 36.0810815]]]}, "properties": {"osm_id": 1163673301, "building": "yes", "name": "", "height": null, "height_m": null, "levels": null, "tract_id": "40073958100", "tract_name": "9581", "tags": {"building": "yes"}}}, {"type": "Feature", "geometry": {"type": "Polygon", "coordinates": [[[-97.8944679, 36.0808695], [-97.8942924, 36.0808595], [-97.8942996, 36.0807765], [-97.8944751, 36.0807865], [-97.8944679, 36.0808695]]]}, "properties": {"osm_id": 1163673302, "building": "yes", "name": "", "height": null, "height_m": null, "levels": null, "tract_id": "40073958100", "tract_name": "9581", "tags": {"building": "yes"}}}, {"type": "Feature", "geometry": {"type": "Polygon", "coordinates": [[[-97.8940525, 36.0807438], [-97.8940354, 36.0809093], [-97.8939026, 36.0809004], [-97.8939196, 36.0807349], [-97.8940525, 36.0807438]]]}, "properties": {"osm_id": 1163673303, "building": "yes", "name": "", "height": null, "height_m": null, "levels": null, "tract_id": "40073958100", "tract_name": "9581", "tags": {"building": "yes"}}}, {"type": "Feature", "geometry": {"type": "Polygon", "coordinates": [[[-97.8957246, 36.0813026], [-97.8957262, 36.0812196], [-97.8959851, 36.0812229], [-97.8959835, 36.0813058], [-97.8957246, 36.0813026]]]}, "properties": {"osm_id": 1163673304, "building": "yes", "name": "", "height": null, "height_m": null, "levels": null, "tract_id": "40073958100", "tract_name": "9581", "tags": {"building": "yes"}}}, {"type": "Feature", "geometry": {"type": "Polygon", "coordinates": [[[-97.8929961, 36.0779663], [-97.892997, 36.0781548], [-97.8929393, 36.078155], [-97.8929384, 36.0779665], [-97.8929961, 36.0779663]]]}, "properties": {"osm_id": 1163673305, "building": "yes", "name": "", "height": null, "height_m": null, "levels": null, "tract_id": "40073958100", "tract_name": "9581", "tags": {"building": "yes"}}}, {"type": "Feature", "geometry": {"type": "Polygon", "coordinates": [[[-97.8922981, 36.0763958], [-97.8923579, 36.0763958], [-97.8923579, 36.0766066], [-97.8922981, 36.0766066], [-97.8922981, 36.0763958]]]}, "properties": {"osm_id": 1163673306, "building": "yes", "name": "", "height": null, "height_m": null, "levels": null, "tract_id": "40073958100", "tract_name": "9581", "tags": {"building": "yes"}}}, {"type": "Feature", "geometry": {"type": "Polygon", "coordinates": [[[-97.892301, 36.0763506], [-97.8923002, 36.0762665], [-97.8924273, 36.0762658], [-97.8924281, 36.0763499], [-97.892301, 36.0763506]]]}, "properties": {"osm_id": 1163673307, "building": "yes", "name": "", "height": null, "height_m": null, "levels": null, "tract_id": "40073958100", "tract_name": "9581", "tags": {"building": "yes"}}}, {"type": "Feature", "geometry": {"type": "Polygon", "coordinates": [[[-97.8929814, 36.0759839], [-97.8929787, 36.0760717], [-97.8929027, 36.0760702], [-97.8929054, 36.0759824], [-97.8929814, 36.0759839]]]}, "properties": {"osm_id": 1163673308, "building": "yes", "name": "", "height": null, "height_m": null, "levels": null, "tract_id": "40073958100", "tract_name": "9581", "tags": {"building": "yes"}}}, {"type": "Feature", "geometry": {"type": "Polygon", "coordinates": [[[-97.8935896, 36.0758246], [-97.8935892, 36.0757372], [-97.8937803, 36.0757367], [-97.8937807, 36.0758241], [-97.8935896, 36.0758246]]]}, "properties": {"osm_id": 1163673309, "building": "yes", "name": "", "height": null, "height_m": null, "levels": null, "tract_id": "40073958100", "tract_name": "9581", "tags": {"building": "yes"}}}, {"type": "Feature", "geometry": {"type": "Polygon", "coordinates": [[[-97.8946209, 36.0757861], [-97.8947311, 36.075785], [-97.8947331, 36.0759178], [-97.8946229, 36.0759189], [-97.8946209, 36.0757861]]]}, "properties": {"osm_id": 1163673310, "building": "yes", "name": "", "height": null, "height_m": null, "levels": null, "tract_id": "40073958100", "tract_name": "9581", "tags": {"building": "yes"}}}, {"type": "Feature", "geometry": {"type": "Polygon", "coordinates": [[[-97.8954541, 36.0759804], [-97.8954541, 36.0760732], [-97.89531, 36.0760732], [-97.89531, 36.0759804], [-97.8954541, 36.0759804]]]}, "properties": {"osm_id": 1163673311, "building": "yes", "name": "", "height": null, "height_m": null, "levels": null, "tract_id": "40073958100", "tract_name": "9581", "tags": {"building": "yes"}}}, {"type": "Feature", "geometry": {"type": "Polygon", "coordinates": [[[-97.8959719, 36.0768051], [-97.8959738, 36.0766403], [-97.8960766, 36.0766411], [-97.8960747, 36.0768059], [-97.8959719, 36.0768051]]]}, "properties": {"osm_id": 1163673312, "building": "yes", "name": "", "height": null, "height_m": null, "levels": null, "tract_id": "40073958100", "tract_name": "9581", "tags": {"building": "yes"}}}, {"type": "Feature", "geometry": {"type": "Polygon", "coordinates": [[[-97.8976836, 36.0782422], [-97.8977768, 36.0782807], [-97.8976896, 36.0784187], [-97.8975963, 36.0783802], [-97.8976836, 36.0782422]]]}, "properties": {"osm_id": 1163673313, "building": "yes", "name": "", "height": null, "height_m": null, "levels": null, "tract_id": "40073958100", "tract_name": "9581", "tags": {"building": "yes"}}}, {"type": "Feature", "geometry": {"type": "Polygon", "coordinates": [[[-97.8984766, 36.0790026], [-97.898152, 36.0790037], [-97.8981506, 36.0787242], [-97.8984751, 36.0787231], [-97.8984766, 36.0790026]]]}, "properties": {"osm_id": 1163673314, "building": "yes", "name": "", "height": null, "height_m": null, "levels": null, "tract_id": "40073958100", "tract_name": "9581", "tags": {"building": "yes"}}}, {"type": "Feature", "geometry": {"type": "Polygon", "coordinates": [[[-97.8976692, 36.0771578], [-97.8976739, 36.0770657], [-97.8977389, 36.0770678], [-97.8977342, 36.07716], [-97.8976692, 36.0771578]]]}, "properties": {"osm_id": 1163673315, "building": "yes", "name": "", "height": null, "height_m": null, "levels": null, "tract_id": "40073958100", "tract_name": "9581", "tags": {"building": "yes"}}}, {"type": "Feature", "geometry": {"type": "Polygon", "coordinates": [[[-97.8987502, 36.0761639], [-97.8988747, 36.0761648], [-97.8988733, 36.0762797], [-97.8987488, 36.0762788], [-97.8987502, 36.0761639]]]}, "properties": {"osm_id": 1163673316, "building": "yes", "name": "", "height": null, "height_m": null, "levels": null, "tract_id": "40073958100", "tract_name": "9581", "tags": {"building": "yes"}}}, {"type": "Feature", "geometry": {"type": "Polygon", "coordinates": [[[-97.8983626, 36.0766603], [-97.8985469, 36.0766623], [-97.8985429, 36.0769062], [-97.8983586, 36.0769042], [-97.8983626, 36.0766603]]]}, "properties": {"osm_id": 1163673317, "building": "yes", "name": "", "height": null, "height_m": null, "levels": null, "tract_id": "40073958100", "tract_name": "9581", "tags": {"building": "yes"}}}, {"type": "Feature", "geometry": {"type": "Polygon", "coordinates": [[[-97.8983277, 36.0772359], [-97.8983277, 36.0774516], [-97.8981547, 36.0774516], [-97.8981547, 36.0772359], [-97.8983277, 36.0772359]]]}, "properties": {"osm_id": 1163673318, "building": "yes", "name": "", "height": null, "height_m": null, "levels": null, "tract_id": "40073958100", "tract_name": "9581", "tags": {"building": "yes"}}}, {"type": "Feature", "geometry": {"type": "Polygon", "coordinates": [[[-97.8989486, 36.0773052], [-97.8986697, 36.0772987], [-97.8986738, 36.0771835], [-97.8989528, 36.07719], [-97.8989486, 36.0773052]]]}, "properties": {"osm_id": 1163673319, "building": "yes", "name": "", "height": null, "height_m": null, "levels": null, "tract_id": "40073958100", "tract_name": "9581", "tags": {"building": "yes"}}}, {"type": "Feature", "geometry": {"type": "Polygon", "coordinates": [[[-97.9067531, 36.083056], [-97.9067566, 36.0829389], [-97.9069576, 36.0829428], [-97.9069542, 36.0830599], [-97.9067531, 36.083056]]]}, "properties": {"osm_id": 1163673321, "building": "yes", "name": "", "height": null, "height_m": null, "levels": null, "tract_id": "40073958100", "tract_name": "9581", "tags": {"building": "yes"}}}, {"type": "Feature", "geometry": {"type": "Polygon", "coordinates": [[[-97.9073433, 36.082924], [-97.9073528, 36.082738], [-97.907564, 36.082745], [-97.9075545, 36.0829311], [-97.9073433, 36.082924]]]}, "properties": {"osm_id": 1163673322, "building": "yes", "name": "", "height": null, "height_m": null, "levels": null, "tract_id": "40073958100", "tract_name": "9581", "tags": {"building": "yes"}}}, {"type": "Feature", "geometry": {"type": "Polygon", "coordinates": [[[-97.910864, 36.0799713], [-97.9109019, 36.0798592], [-97.9110963, 36.0799021], [-97.9110584, 36.0800142], [-97.910864, 36.0799713]]]}, "properties": {"osm_id": 1163673323, "building": "yes", "name": "", "height": null, "height_m": null, "levels": null, "tract_id": "40073958100", "tract_name": "9581", "tags": {"building": "yes"}}}, {"type": "Feature", "geometry": {"type": "Polygon", "coordinates": [[[-97.9103624, 36.0823494], [-97.9103611, 36.0822356], [-97.9105621, 36.0822341], [-97.9105634, 36.0823479], [-97.9103624, 36.0823494]]]}, "properties": {"osm_id": 1163673324, "building": "yes", "name": "", "height": null, "height_m": null, "levels": null, "tract_id": "40073958100", "tract_name": "9581", "tags": {"building": "yes"}}}, {"type": "Feature", "geometry": {"type": "Polygon", "coordinates": [[[-97.9112652, 36.0823785], [-97.911066, 36.0823755], [-97.9110687, 36.0822608], [-97.9112679, 36.0822639], [-97.9112652, 36.0823785]]]}, "properties": {"osm_id": 1163673325, "building": "yes", "name": "", "height": null, "height_m": null, "levels": null, "tract_id": "40073958100", "tract_name": "9581", "tags": {"building": "yes"}}}, {"type": "Feature", "geometry": {"type": "Polygon", "coordinates": [[[-97.9084866, 36.0836903], [-97.908653, 36.0836896], [-97.9086543, 36.0839107], [-97.9084879, 36.0839114], [-97.9084866, 36.0836903]]]}, "properties": {"osm_id": 1163673326, "building": "yes", "name": "", "height": null, "height_m": null, "levels": null, "tract_id": "40073958100", "tract_name": "9581", "tags": {"building": "yes"}}}, {"type": "Feature", "geometry": {"type": "Polygon", "coordinates": [[[-97.9098569, 36.085887], [-97.9097166, 36.0860633], [-97.9095727, 36.0859884], [-97.9097131, 36.0858122], [-97.9098569, 36.085887]]]}, "properties": {"osm_id": 1163673327, "building": "yes", "name": "", "height": null, "height_m": null, "levels": null, "tract_id": "40073958100", "tract_name": "9581", "tags": {"building": "yes"}}}, {"type": "Feature", "geometry": {"type": "Polygon", "coordinates": [[[-97.9096028, 36.0850701], [-97.9096722, 36.0851625], [-97.9094864, 36.0852537], [-97.9094169, 36.0851613], [-97.9096028, 36.0850701]]]}, "properties": {"osm_id": 1163673328, "building": "yes", "name": "", "height": null, "height_m": null, "levels": null, "tract_id": "40073958100", "tract_name": "9581", "tags": {"building": "yes"}}}, {"type": "Feature", "geometry": {"type": "Polygon", "coordinates": [[[-97.9030548, 36.0884336], [-97.9030598, 36.0883245], [-97.9032646, 36.0883306], [-97.9032596, 36.0884397], [-97.9030548, 36.0884336]]]}, "properties": {"osm_id": 1163673329, "building": "yes", "name": "", "height": null, "height_m": null, "levels": null, "tract_id": "40073958100", "tract_name": "9581", "tags": {"building": "yes"}}}, {"type": "Feature", "geometry": {"type": "Polygon", "coordinates": [[[-97.9027304, 36.0878879], [-97.9027115, 36.0883585], [-97.902428, 36.088351], [-97.902447, 36.0878805], [-97.9027304, 36.0878879]]]}, "properties": {"osm_id": 1163673330, "building": "yes", "name": "", "height": null, "height_m": null, "levels": null, "tract_id": "40073958100", "tract_name": "9581", "tags": {"building": "yes"}}}, {"type": "Feature", "geometry": {"type": "Polygon", "coordinates": [[[-97.8945077, 36.0843068], [-97.894597, 36.0841908], [-97.8947951, 36.0842904], [-97.8947059, 36.0844064], [-97.8945077, 36.0843068]]]}, "properties": {"osm_id": 1163673331, "building": "yes", "name": "", "height": null, "height_m": null, "levels": null, "tract_id": "40073958100", "tract_name": "9581", "tags": {"building": "yes"}}}, {"type": "Feature", "geometry": {"type": "Polygon", "coordinates": [[[-97.8929539, 36.0857788], [-97.8927809, 36.0857777], [-97.8927818, 36.0856841], [-97.8929548, 36.0856852], [-97.8929539, 36.0857788]]]}, "properties": {"osm_id": 1163673332, "building": "yes", "name": "", "height": null, "height_m": null, "levels": null, "tract_id": "40073958100", "tract_name": "9581", "tags": {"building": "yes"}}}, {"type": "Feature", "geometry": {"type": "Polygon", "coordinates": [[[-97.8996143, 36.0887324], [-97.8996111, 36.0886149], [-97.8999601, 36.0886087], [-97.8999633, 36.0887263], [-97.8996143, 36.0887324]]]}, "properties": {"osm_id": 1163673333, "building": "yes", "name": "", "height": null, "height_m": null, "levels": null, "tract_id": "40073958100", "tract_name": "9581", "tags": {"building": "yes"}}}, {"type": "Feature", "geometry": {"type": "Polygon", "coordinates": [[[-97.8997788, 36.0896479], [-97.8994891, 36.0896489], [-97.8994886, 36.0895547], [-97.8997782, 36.0895536], [-97.8997788, 36.0896479]]]}, "properties": {"osm_id": 1163673334, "building": "yes", "name": "", "height": null, "height_m": null, "levels": null, "tract_id": "40073958100", "tract_name": "9581", "tags": {"building": "yes"}}}, {"type": "Feature", "geometry": {"type": "Polygon", "coordinates": [[[-97.8986858, 36.0899838], [-97.8983894, 36.0899849], [-97.8983886, 36.0898376], [-97.898685, 36.0898366], [-97.8986858, 36.0899838]]]}, "properties": {"osm_id": 1163673335, "building": "yes", "name": "", "height": null, "height_m": null, "levels": null, "tract_id": "40073958100", "tract_name": "9581", "tags": {"building": "yes"}}}, {"type": "Feature", "geometry": {"type": "Polygon", "coordinates": [[[-97.8998163, 36.0904563], [-97.899815, 36.0905286], [-97.8994676, 36.0905242], [-97.899469, 36.090452], [-97.8998163, 36.0904563]]]}, "properties": {"osm_id": 1163673336, "building": "yes", "name": "", "height": null, "height_m": null, "levels": null, "tract_id": "40073958100", "tract_name": "9581", "tags": {"building": "yes"}}}, {"type": "Feature", "geometry": {"type": "Polygon", "coordinates": [[[-97.8975968, 36.0906611], [-97.8976016, 36.0905359], [-97.8978188, 36.0905413], [-97.8978141, 36.0906666], [-97.8975968, 36.0906611]]]}, "properties": {"osm_id": 1163673337, "building": "yes", "name": "", "height": null, "height_m": null, "levels": null, "tract_id": "40073958100", "tract_name": "9581", "tags": {"building": "yes"}}}, {"type": "Feature", "geometry": {"type": "Polygon", "coordinates": [[[-97.8994898, 36.0914566], [-97.8994889, 36.0914113], [-97.8998336, 36.091407], [-97.8998344, 36.0914523], [-97.8994898, 36.0914566]]]}, "properties": {"osm_id": 1163673338, "building": "yes", "name": "", "height": null, "height_m": null, "levels": null, "tract_id": "40073958100", "tract_name": "9581", "tags": {"building": "yes"}}}, {"type": "Feature", "geometry": {"type": "Polygon", "coordinates": [[[-97.9000396, 36.0912425], [-97.8999377, 36.0912452], [-97.8999342, 36.0911584], [-97.9000361, 36.0911557], [-97.9000396, 36.0912425]]]}, "properties": {"osm_id": 1163673339, "building": "yes", "name": "", "height": null, "height_m": null, "levels": null, "tract_id": "40073958100", "tract_name": "9581", "tags": {"building": "yes"}}}, {"type": "Feature", "geometry": {"type": "Polygon", "coordinates": [[[-97.8998244, 36.0912464], [-97.8994851, 36.0912539], [-97.8994821, 36.091168], [-97.8998214, 36.0911604], [-97.8998244, 36.0912464]]]}, "properties": {"osm_id": 1163673340, "building": "yes", "name": "", "height": null, "height_m": null, "levels": null, "tract_id": "40073958100", "tract_name": "9581", "tags": {"building": "yes"}}}, {"type": "Feature", "geometry": {"type": "Polygon", "coordinates": [[[-97.8986308, 36.0917286], [-97.8986281, 36.0919887], [-97.8985315, 36.091988], [-97.8985342, 36.091728], [-97.8986308, 36.0917286]]]}, "properties": {"osm_id": 1163673341, "building": "yes", "name": "", "height": null, "height_m": null, "levels": null, "tract_id": "40073958100", "tract_name": "9581", "tags": {"building": "yes"}}}, {"type": "Feature", "geometry": {"type": "Polygon", "coordinates": [[[-97.8996485, 36.0917854], [-97.8996447, 36.0921962], [-97.8994813, 36.0921952], [-97.8994851, 36.0917844], [-97.8996485, 36.0917854]]]}, "properties": {"osm_id": 1163673342, "building": "yes", "name": "", "height": null, "height_m": null, "levels": null, "tract_id": "40073958100", "tract_name": "9581", "tags": {"building": "yes"}}}, {"type": "Feature", "geometry": {"type": "Polygon", "coordinates": [[[-97.8996561, 36.0971161], [-97.8994844, 36.097115], [-97.8994852, 36.0970304], [-97.8996569, 36.0970315], [-97.8996561, 36.0971161]]]}, "properties": {"osm_id": 1163673343, "building": "yes", "name": "", "height": null, "height_m": null, "levels": null, "tract_id": "40073958100", "tract_name": "9581", "tags": {"building": "yes"}}}, {"type": "Feature", "geometry": {"type": "Polygon", "coordinates": [[[-97.8980382, 36.0967126], [-97.898123, 36.096714], [-97.8981202, 36.0968221], [-97.8980354, 36.0968206], [-97.8980382, 36.0967126]]]}, "properties": {"osm_id": 1163673344, "building": "yes", "name": "", "height": null, "height_m": null, "levels": null, "tract_id": "40073958100", "tract_name": "9581", "tags": {"building": "yes"}}}, {"type": "Feature", "geometry": {"type": "Polygon", "coordinates": [[[-97.9008936, 36.0973455], [-97.9008123, 36.0974353], [-97.9007099, 36.0973748], [-97.9007912, 36.097285], [-97.9008936, 36.0973455]]]}, "properties": {"osm_id": 1163673345, "building": "yes", "name": "", "height": null, "height_m": null, "levels": null, "tract_id": "40073958100", "tract_name": "9581", "tags": {"building": "yes"}}}, {"type": "Feature", "geometry": {"type": "Polygon", "coordinates": [[[-97.8997366, 36.0974528], [-97.8997412, 36.0973205], [-97.9000115, 36.0973267], [-97.9000069, 36.0974589], [-97.8997366, 36.0974528]]]}, "properties": {"osm_id": 1163673346, "building": "yes", "name": "", "height": null, "height_m": null, "levels": null, "tract_id": "40073958100", "tract_name": "9581", "tags": {"building": "yes"}}}, {"type": "Feature", "geometry": {"type": "Polygon", "coordinates": [[[-97.9008604, 36.0963172], [-97.9008597, 36.0962111], [-97.9012048, 36.0962096], [-97.9012056, 36.0963157], [-97.9008604, 36.0963172]]]}, "properties": {"osm_id": 1163673347, "building": "yes", "name": "", "height": null, "height_m": null, "levels": null, "tract_id": "40073958100", "tract_name": "9581", "tags": {"building": "yes"}}}, {"type": "Feature", "geometry": {"type": "Polygon", "coordinates": [[[-97.8996617, 36.0966191], [-97.8996655, 36.0964575], [-97.8999652, 36.0964621], [-97.8999614, 36.0966237], [-97.8996617, 36.0966191]]]}, "properties": {"osm_id": 1163673348, "building": "yes", "name": "", "height": null, "height_m": null, "levels": null, "tract_id": "40073958100", "tract_name": "9581", "tags": {"building": "yes"}}}, {"type": "Feature", "geometry": {"type": "Polygon", "coordinates": [[[-97.9009438, 36.0970467], [-97.9005911, 36.0970421], [-97.9005956, 36.0968147], [-97.9009484, 36.0968193], [-97.9009438, 36.0970467]]]}, "properties": {"osm_id": 1163673349, "building": "yes", "name": "", "height": null, "height_m": null, "levels": null, "tract_id": "40073958100", "tract_name": "9581", "tags": {"building": "yes"}}}, {"type": "Feature", "geometry": {"type": "Polygon", "coordinates": [[[-97.898844, 36.0938711], [-97.8985007, 36.0938743], [-97.8984997, 36.0938029], [-97.898843, 36.0937997], [-97.898844, 36.0938711]]]}, "properties": {"osm_id": 1163673350, "building": "yes", "name": "", "height": null, "height_m": null, "levels": null, "tract_id": "40073958100", "tract_name": "9581", "tags": {"building": "yes"}}}, {"type": "Feature", "geometry": {"type": "Polygon", "coordinates": [[[-97.8980344, 36.0939326], [-97.8980325, 36.0938153], [-97.898317, 36.0938122], [-97.8983189, 36.0939295], [-97.8980344, 36.0939326]]]}, "properties": {"osm_id": 1163673351, "building": "yes", "name": "", "height": null, "height_m": null, "levels": null, "tract_id": "40073958100", "tract_name": "9581", "tags": {"building": "yes"}}}, {"type": "Feature", "geometry": {"type": "Polygon", "coordinates": [[[-97.8986777, 36.0944541], [-97.8985195, 36.0944552], [-97.8985186, 36.0943687], [-97.8986768, 36.0943676], [-97.8986777, 36.0944541]]]}, "properties": {"osm_id": 1163673352, "building": "yes", "name": "", "height": null, "height_m": null, "levels": null, "tract_id": "40073958100", "tract_name": "9581", "tags": {"building": "yes"}}}, {"type": "Feature", "geometry": {"type": "Polygon", "coordinates": [[[-97.898199, 36.0943338], [-97.8981977, 36.0942174], [-97.8986752, 36.0942142], [-97.8986764, 36.0943306], [-97.898199, 36.0943338]]]}, "properties": {"osm_id": 1163673353, "building": "yes", "name": "", "height": null, "height_m": null, "levels": null, "tract_id": "40073958100", "tract_name": "9581", "tags": {"building": "yes"}}}, {"type": "Feature", "geometry": {"type": "Polygon", "coordinates": [[[-97.8982241, 36.0949019], [-97.8982254, 36.094786], [-97.898434, 36.0947875], [-97.8984327, 36.0949034], [-97.8982241, 36.0949019]]]}, "properties": {"osm_id": 1163673354, "building": "yes", "name": "", "height": null, "height_m": null, "levels": null, "tract_id": "40073958100", "tract_name": "9581", "tags": {"building": "yes"}}}, {"type": "Feature", "geometry": {"type": "Polygon", "coordinates": [[[-97.8986395, 36.0951368], [-97.8986415, 36.0950292], [-97.8987769, 36.0950308], [-97.898775, 36.0951384], [-97.8986395, 36.0951368]]]}, "properties": {"osm_id": 1163673355, "building": "yes", "name": "", "height": null, "height_m": null, "levels": null, "tract_id": "40073958100", "tract_name": "9581", "tags": {"building": "yes"}}}, {"type": "Feature", "geometry": {"type": "Polygon", "coordinates": [[[-97.899473, 36.0948598], [-97.8994726, 36.0947523], [-97.8998121, 36.0947515], [-97.8998125, 36.094859], [-97.899473, 36.0948598]]]}, "properties": {"osm_id": 1163673356, "building": "yes", "name": "", "height": null, "height_m": null, "levels": null, "tract_id": "40073958100", "tract_name": "9581", "tags": {"building": "yes"}}}, {"type": "Feature", "geometry": {"type": "Polygon", "coordinates": [[[-97.8996681, 36.0950534], [-97.89967, 36.0949684], [-97.8998993, 36.0949717], [-97.8998975, 36.0950566], [-97.8996681, 36.0950534]]]}, "properties": {"osm_id": 1163673357, "building": "yes", "name": "", "height": null, "height_m": null, "levels": null, "tract_id": "40073958100", "tract_name": "9581", "tags": {"building": "yes"}}}, {"type": "Feature", "geometry": {"type": "Polygon", "coordinates": [[[-97.9073269, 36.098098], [-97.9073278, 36.0981673], [-97.9071447, 36.0981688], [-97.9071438, 36.0980995], [-97.9073269, 36.098098]]]}, "properties": {"osm_id": 1163673358, "building": "yes", "name": "", "height": null, "height_m": null, "levels": null, "tract_id": "40073958100", "tract_name": "9581", "tags": {"building": "yes"}}}, {"type": "Feature", "geometry": {"type": "Polygon", "coordinates": [[[-97.9075203, 36.0982213], [-97.907517, 36.0983098], [-97.9073624, 36.098306], [-97.9073657, 36.0982175], [-97.9075203, 36.0982213]]]}, "properties": {"osm_id": 1163673359, "building": "yes", "name": "", "height": null, "height_m": null, "levels": null, "tract_id": "40073958100", "tract_name": "9581", "tags": {"building": "yes"}}}, {"type": "Feature", "geometry": {"type": "Polygon", "coordinates": [[[-97.907527, 36.0981723], [-97.9073553, 36.09817], [-97.9073582, 36.0980275], [-97.9075299, 36.0980298], [-97.907527, 36.0981723]]]}, "properties": {"osm_id": 1163673360, "building": "yes", "name": "", "height": null, "height_m": null, "levels": null, "tract_id": "40073958100", "tract_name": "9581", "tags": {"building": "yes"}}}, {"type": "Feature", "geometry": {"type": "Polygon", "coordinates": [[[-97.9075649, 36.1004227], [-97.9073449, 36.1004227], [-97.9073449, 36.1003323], [-97.9075649, 36.1003323], [-97.9075649, 36.1004227]]]}, "properties": {"osm_id": 1163673361, "building": "yes", "name": "", "height": null, "height_m": null, "levels": null, "tract_id": "40073958100", "tract_name": "9581", "tags": {"building": "yes"}}}, {"type": "Feature", "geometry": {"type": "Polygon", "coordinates": [[[-97.9073795, 36.1000771], [-97.9074312, 36.1000082], [-97.9076545, 36.1001177], [-97.9076028, 36.1001865], [-97.9073795, 36.1000771]]]}, "properties": {"osm_id": 1163673362, "building": "yes", "name": "", "height": null, "height_m": null, "levels": null, "tract_id": "40073958100", "tract_name": "9581", "tags": {"building": "yes"}}}, {"type": "Feature", "geometry": {"type": "Polygon", "coordinates": [[[-97.9013658, 36.1039572], [-97.9013402, 36.1041732], [-97.9011678, 36.1041599], [-97.9011934, 36.1039438], [-97.9013658, 36.1039572]]]}, "properties": {"osm_id": 1163673363, "building": "yes", "name": "", "height": null, "height_m": null, "levels": null, "tract_id": "40073958100", "tract_name": "9581", "tags": {"building": "yes"}}}, {"type": "Feature", "geometry": {"type": "Polygon", "coordinates": [[[-97.8986831, 36.1049088], [-97.8986831, 36.1051869], [-97.8984744, 36.1051869], [-97.8984744, 36.1049088], [-97.8986831, 36.1049088]]]}, "properties": {"osm_id": 1163673365, "building": "yes", "name": "", "height": null, "height_m": null, "levels": null, "tract_id": "40073958100", "tract_name": "9581", "tags": {"building": "yes"}}}, {"type": "Feature", "geometry": {"type": "Polygon", "coordinates": [[[-97.8981353, 36.1056661], [-97.8979683, 36.1056672], [-97.8979674, 36.1055791], [-97.8981344, 36.105578], [-97.8981353, 36.1056661]]]}, "properties": {"osm_id": 1163673366, "building": "yes", "name": "", "height": null, "height_m": null, "levels": null, "tract_id": "40073958100", "tract_name": "9581", "tags": {"building": "yes"}}}, {"type": "Feature", "geometry": {"type": "Polygon", "coordinates": [[[-97.8981353, 36.1057799], [-97.8979596, 36.1057777], [-97.8979612, 36.1056929], [-97.8981369, 36.1056951], [-97.8981353, 36.1057799]]]}, "properties": {"osm_id": 1163673367, "building": "yes", "name": "", "height": null, "height_m": null, "levels": null, "tract_id": "40073958100", "tract_name": "9581", "tags": {"building": "yes"}}}, {"type": "Feature", "geometry": {"type": "Polygon", "coordinates": [[[-97.8965447, 36.1078358], [-97.8965453, 36.1077406], [-97.8966888, 36.1077411], [-97.8966882, 36.1078363], [-97.8965447, 36.1078358]]]}, "properties": {"osm_id": 1163673368, "building": "yes", "name": "", "height": null, "height_m": null, "levels": null, "tract_id": "40073958100", "tract_name": "9581", "tags": {"building": "yes"}}}, {"type": "Feature", "geometry": {"type": "Polygon", "coordinates": [[[-97.8969444, 36.1078136], [-97.8968693, 36.107812], [-97.8968704, 36.1077763], [-97.8969455, 36.107778], [-97.8969444, 36.1078136]]]}, "properties": {"osm_id": 1163673369, "building": "yes", "name": "", "height": null, "height_m": null, "levels": null, "tract_id": "40073958100", "tract_name": "9581", "tags": {"building": "yes"}}}, {"type": "Feature", "geometry": {"type": "Polygon", "coordinates": [[[-97.8910056, 36.1119825], [-97.8909942, 36.112387], [-97.8907213, 36.112382], [-97.8907327, 36.1119775], [-97.8910056, 36.1119825]]]}, "properties": {"osm_id": 1163673370, "building": "yes", "name": "", "height": null, "height_m": null, "levels": null, "tract_id": "40073958100", "tract_name": "9581", "tags": {"building": "yes"}}}, {"type": "Feature", "geometry": {"type": "Polygon", "coordinates": [[[-97.8886235, 36.1016461], [-97.8886188, 36.1018119], [-97.8885102, 36.1018099], [-97.8885149, 36.1016441], [-97.8886235, 36.1016461]]]}, "properties": {"osm_id": 1163673371, "building": "yes", "name": "", "height": null, "height_m": null, "levels": null, "tract_id": "40073958100", "tract_name": "9581", "tags": {"building": "yes"}}}, {"type": "Feature", "geometry": {"type": "Polygon", "coordinates": [[[-97.8887556, 36.1015963], [-97.8888768, 36.101597], [-97.8888748, 36.1018137], [-97.8887536, 36.101813], [-97.8887556, 36.1015963]]]}, "properties": {"osm_id": 1163673372, "building": "yes", "name": "", "height": null, "height_m": null, "levels": null, "tract_id": "40073958100", "tract_name": "9581", "tags": {"building": "yes"}}}, {"type": "Feature", "geometry": {"type": "Polygon", "coordinates": [[[-97.8902934, 36.1015483], [-97.8902942, 36.1014643], [-97.890426, 36.1014651], [-97.8904252, 36.101549], [-97.8902934, 36.1015483]]]}, "properties": {"osm_id": 1163673373, "building": "yes", "name": "", "height": null, "height_m": null, "levels": null, "tract_id": "40073958100", "tract_name": "9581", "tags": {"building": "yes"}}}, {"type": "Feature", "geometry": {"type": "Polygon", "coordinates": [[[-97.8906476, 36.1019467], [-97.8905405, 36.1019467], [-97.8905405, 36.101867], [-97.8906476, 36.101867], [-97.8906476, 36.1019467]]]}, "properties": {"osm_id": 1163673374, "building": "yes", "name": "", "height": null, "height_m": null, "levels": null, "tract_id": "40073958100", "tract_name": "9581", "tags": {"building": "yes"}}}, {"type": "Feature", "geometry": {"type": "Polygon", "coordinates": [[[-97.8905362, 36.1023053], [-97.8904779, 36.1023145], [-97.8904666, 36.1022677], [-97.8905249, 36.1022585], [-97.8905362, 36.1023053]]]}, "properties": {"osm_id": 1163673376, "building": "yes", "name": "", "height": null, "height_m": null, "levels": null, "tract_id": "40073958100", "tract_name": "9581", "tags": {"building": "yes"}}}, {"type": "Feature", "geometry": {"type": "Polygon", "coordinates": [[[-97.8923823, 36.1082374], [-97.8920756, 36.108222], [-97.892084, 36.1081118], [-97.8921006, 36.1081126], [-97.8921031, 36.1080802], [-97.8921655, 36.1080834], [-97.8921632, 36.1081124], [-97.8921878, 36.1081136], [-97.8922007, 36.107945], [-97.8923027, 36.1079501], [-97.89229, 36.1081155], [-97.8923913, 36.1081206], [-97.8923823, 36.1082374]]]}, "properties": {"osm_id": 1163673377, "building": "church", "name": "", "height": null, "height_m": null, "levels": null, "tract_id": "40073958100", "tract_name": "9581", "tags": {"building": "church"}}}, {"type": "Feature", "geometry": {"type": "Polygon", "coordinates": [[[-97.8919568, 36.1075428], [-97.8919554, 36.1076744], [-97.8916235, 36.1076721], [-97.8916248, 36.1075405], [-97.8919568, 36.1075428]]]}, "properties": {"osm_id": 1163673378, "building": "yes", "name": "", "height": null, "height_m": null, "levels": null, "tract_id": "40073958100", "tract_name": "9581", "tags": {"building": "yes"}}}, {"type": "Feature", "geometry": {"type": "Polygon", "coordinates": [[[-97.8902784, 36.1088657], [-97.8904661, 36.1088663], [-97.8904647, 36.109135], [-97.8902771, 36.1091344], [-97.8902784, 36.1088657]]]}, "properties": {"osm_id": 1163673379, "building": "yes", "name": "", "height": null, "height_m": null, "levels": null, "tract_id": "40073958100", "tract_name": "9581", "tags": {"building": "yes"}}}, {"type": "Feature", "geometry": {"type": "Polygon", "coordinates": [[[-97.8919131, 36.1089456], [-97.8920482, 36.1089463], [-97.8920463, 36.1091831], [-97.8919112, 36.1091824], [-97.8919131, 36.1089456]]]}, "properties": {"osm_id": 1163673380, "building": "yes", "name": "", "height": null, "height_m": null, "levels": null, "tract_id": "40073958100", "tract_name": "9581", "tags": {"building": "yes"}}}, {"type": "Feature", "geometry": {"type": "Polygon", "coordinates": [[[-97.8965153, 36.1092597], [-97.8965165, 36.1091667], [-97.8967129, 36.1091683], [-97.8967117, 36.1092613], [-97.8965153, 36.1092597]]]}, "properties": {"osm_id": 1163673381, "building": "yes", "name": "", "height": null, "height_m": null, "levels": null, "tract_id": "40073958100", "tract_name": "9581", "tags": {"building": "yes"}}}, {"type": "Feature", "geometry": {"type": "Polygon", "coordinates": [[[-97.8971402, 36.1097474], [-97.8971392, 36.1098041], [-97.897096, 36.1098036], [-97.8970969, 36.1097469], [-97.8971402, 36.1097474]]]}, "properties": {"osm_id": 1163673382, "building": "yes", "name": "", "height": null, "height_m": null, "levels": null, "tract_id": "40073958100", "tract_name": "9581", "tags": {"building": "yes"}}}, {"type": "Feature", "geometry": {"type": "Polygon", "coordinates": [[[-97.8966875, 36.1109611], [-97.8965353, 36.1109611], [-97.8965353, 36.1108749], [-97.8966875, 36.1108749], [-97.8966875, 36.1109611]]]}, "properties": {"osm_id": 1163673383, "building": "yes", "name": "", "height": null, "height_m": null, "levels": null, "tract_id": "40073958100", "tract_name": "9581", "tags": {"building": "yes"}}}, {"type": "Feature", "geometry": {"type": "Polygon", "coordinates": [[[-97.8982063, 36.1108541], [-97.8982057, 36.1109278], [-97.8980675, 36.1109269], [-97.8980682, 36.1108533], [-97.8982063, 36.1108541]]]}, "properties": {"osm_id": 1163673385, "building": "yes", "name": "", "height": null, "height_m": null, "levels": null, "tract_id": "40073958100", "tract_name": "9581", "tags": {"building": "yes"}}}, {"type": "Feature", "geometry": {"type": "Polygon", "coordinates": [[[-97.8982399, 36.1107503], [-97.8982389, 36.11084], [-97.8981645, 36.1108395], [-97.8981655, 36.1107498], [-97.8982399, 36.1107503]]]}, "properties": {"osm_id": 1163673386, "building": "yes", "name": "", "height": null, "height_m": null, "levels": null, "tract_id": "40073958100", "tract_name": "9581", "tags": {"building": "yes"}}}, {"type": "Feature", "geometry": {"type": "Polygon", "coordinates": [[[-97.9024503, 36.1145819], [-97.9025731, 36.1145826], [-97.9025704, 36.1148654], [-97.9024476, 36.1148646], [-97.9024503, 36.1145819]]]}, "properties": {"osm_id": 1163673387, "building": "yes", "name": "", "height": null, "height_m": null, "levels": null, "tract_id": "40073958100", "tract_name": "9581", "tags": {"building": "yes"}}}, {"type": "Feature", "geometry": {"type": "Polygon", "coordinates": [[[-97.9020211, 36.1150905], [-97.9020183, 36.1153678], [-97.9018158, 36.1153665], [-97.9018187, 36.1150892], [-97.9020211, 36.1150905]]]}, "properties": {"osm_id": 1163673388, "building": "yes", "name": "", "height": null, "height_m": null, "levels": null, "tract_id": "40073958100", "tract_name": "9581", "tags": {"building": "yes"}}}, {"type": "Feature", "geometry": {"type": "Polygon", "coordinates": [[[-97.8992346, 36.1173881], [-97.8992086, 36.1188461], [-97.8990103, 36.1188438], [-97.8990393, 36.1172145], [-97.8991386, 36.1172156], [-97.8991356, 36.117387], [-97.8992346, 36.1173881]]]}, "properties": {"osm_id": 1163673389, "building": "yes", "name": "", "height": null, "height_m": null, "levels": null, "tract_id": "40073958100", "tract_name": "9581", "tags": {"building": "yes"}}}, {"type": "Feature", "geometry": {"type": "Polygon", "coordinates": [[[-97.8939985, 36.1172332], [-97.8939941, 36.1171059], [-97.8942008, 36.1171013], [-97.8942052, 36.1172286], [-97.8939985, 36.1172332]]]}, "properties": {"osm_id": 1163673390, "building": "yes", "name": "", "height": null, "height_m": null, "levels": null, "tract_id": "40073958100", "tract_name": "9581", "tags": {"building": "yes"}}}, {"type": "Feature", "geometry": {"type": "Polygon", "coordinates": [[[-97.8947215, 36.1169501], [-97.894721, 36.1168914], [-97.8949154, 36.1168904], [-97.8949159, 36.1169491], [-97.8947215, 36.1169501]]]}, "properties": {"osm_id": 1163673391, "building": "yes", "name": "", "height": null, "height_m": null, "levels": null, "tract_id": "40073958100", "tract_name": "9581", "tags": {"building": "yes"}}}, {"type": "Feature", "geometry": {"type": "Polygon", "coordinates": [[[-97.8944219, 36.1154636], [-97.8943795, 36.1154652], [-97.8943767, 36.1154162], [-97.894419, 36.1154146], [-97.8944219, 36.1154636]]]}, "properties": {"osm_id": 1163673393, "building": "yes", "name": "", "height": null, "height_m": null, "levels": null, "tract_id": "40073958100", "tract_name": "9581", "tags": {"building": "yes"}}}, {"type": "Feature", "geometry": {"type": "Polygon", "coordinates": [[[-97.8919045, 36.1158359], [-97.8919045, 36.1159437], [-97.8917999, 36.1159437], [-97.8917999, 36.1158359], [-97.8919045, 36.1158359]]]}, "properties": {"osm_id": 1163673394, "building": "yes", "name": "", "height": null, "height_m": null, "levels": null, "tract_id": "40073958100", "tract_name": "9581", "tags": {"building": "yes"}}}, {"type": "Feature", "geometry": {"type": "Polygon", "coordinates": [[[-97.8924963, 36.1159585], [-97.8922934, 36.1159577], [-97.8922938, 36.1158857], [-97.8924968, 36.1158864], [-97.8924963, 36.1159585]]]}, "properties": {"osm_id": 1163673395, "building": "yes", "name": "", "height": null, "height_m": null, "levels": null, "tract_id": "40073958100", "tract_name": "9581", "tags": {"building": "yes"}}}, {"type": "Feature", "geometry": {"type": "Polygon", "coordinates": [[[-97.8919046, 36.1154828], [-97.8919046, 36.1152843], [-97.8920165, 36.1152843], [-97.8920165, 36.1154828], [-97.8919046, 36.1154828]]]}, "properties": {"osm_id": 1163673396, "building": "yes", "name": "", "height": null, "height_m": null, "levels": null, "tract_id": "40073958100", "tract_name": "9581", "tags": {"building": "yes"}}}, {"type": "Feature", "geometry": {"type": "Polygon", "coordinates": [[[-97.8914447, 36.1147558], [-97.8914437, 36.1145811], [-97.89158, 36.1145806], [-97.891581, 36.1147553], [-97.8914447, 36.1147558]]]}, "properties": {"osm_id": 1163673397, "building": "yes", "name": "", "height": null, "height_m": null, "levels": null, "tract_id": "40073958100", "tract_name": "9581", "tags": {"building": "yes"}}}, {"type": "Feature", "geometry": {"type": "Polygon", "coordinates": [[[-97.8910236, 36.1138027], [-97.8910255, 36.1139452], [-97.8909045, 36.1139463], [-97.8909027, 36.1138038], [-97.8910236, 36.1138027]]]}, "properties": {"osm_id": 1163673398, "building": "yes", "name": "", "height": null, "height_m": null, "levels": null, "tract_id": "40073958100", "tract_name": "9581", "tags": {"building": "yes"}}}, {"type": "Feature", "geometry": {"type": "Polygon", "coordinates": [[[-97.8902435, 36.113941], [-97.8902435, 36.1138798], [-97.8903696, 36.1138798], [-97.8903696, 36.113941], [-97.8902435, 36.113941]]]}, "properties": {"osm_id": 1163673399, "building": "yes", "name": "", "height": null, "height_m": null, "levels": null, "tract_id": "40073958100", "tract_name": "9581", "tags": {"building": "yes"}}}, {"type": "Feature", "geometry": {"type": "Polygon", "coordinates": [[[-97.8903797, 36.113772], [-97.8903802, 36.1138555], [-97.8902474, 36.113856], [-97.8902469, 36.1137726], [-97.8903797, 36.113772]]]}, "properties": {"osm_id": 1163673400, "building": "yes", "name": "", "height": null, "height_m": null, "levels": null, "tract_id": "40073958100", "tract_name": "9581", "tags": {"building": "yes"}}}, {"type": "Feature", "geometry": {"type": "Polygon", "coordinates": [[[-97.8905661, 36.1137189], [-97.8902925, 36.1137195], [-97.8902922, 36.1136155], [-97.8905658, 36.113615], [-97.8905661, 36.1137189]]]}, "properties": {"osm_id": 1163673401, "building": "yes", "name": "", "height": null, "height_m": null, "levels": null, "tract_id": "40073958100", "tract_name": "9581", "tags": {"building": "yes"}}}, {"type": "Feature", "geometry": {"type": "Polygon", "coordinates": [[[-97.892282, 36.1138679], [-97.8922803, 36.1137943], [-97.8924587, 36.1137915], [-97.8924604, 36.1138652], [-97.892282, 36.1138679]]]}, "properties": {"osm_id": 1163673403, "building": "yes", "name": "", "height": null, "height_m": null, "levels": null, "tract_id": "40073958100", "tract_name": "9581", "tags": {"building": "yes"}}}, {"type": "Feature", "geometry": {"type": "Polygon", "coordinates": [[[-97.8934669, 36.1136043], [-97.8934124, 36.1136043], [-97.8934124, 36.1135565], [-97.8934669, 36.1135565], [-97.8934669, 36.1136043]]]}, "properties": {"osm_id": 1163673404, "building": "yes", "name": "", "height": null, "height_m": null, "levels": null, "tract_id": "40073958100", "tract_name": "9581", "tags": {"building": "yes"}}}, {"type": "Feature", "geometry": {"type": "Polygon", "coordinates": [[[-97.8941622, 36.1126935], [-97.8941622, 36.1128105], [-97.8940536, 36.1128105], [-97.8940536, 36.1126935], [-97.8941622, 36.1126935]]]}, "properties": {"osm_id": 1163673406, "building": "yes", "name": "", "height": null, "height_m": null, "levels": null, "tract_id": "40073958100", "tract_name": "9581", "tags": {"building": "yes"}}}, {"type": "Feature", "geometry": {"type": "Polygon", "coordinates": [[[-97.8944573, 36.1132504], [-97.8944261, 36.1132533], [-97.894421, 36.1132188], [-97.8944522, 36.1132159], [-97.8944573, 36.1132504]]]}, "properties": {"osm_id": 1163673407, "building": "yes", "name": "", "height": null, "height_m": null, "levels": null, "tract_id": "40073958100", "tract_name": "9581", "tags": {"building": "yes"}}}, {"type": "Feature", "geometry": {"type": "Polygon", "coordinates": [[[-97.8944291, 36.1130765], [-97.8944311, 36.1131897], [-97.8943211, 36.113191], [-97.8943191, 36.1130778], [-97.8944291, 36.1130765]]]}, "properties": {"osm_id": 1163673408, "building": "yes", "name": "", "height": null, "height_m": null, "levels": null, "tract_id": "40073958100", "tract_name": "9581", "tags": {"building": "yes"}}}, {"type": "Feature", "geometry": {"type": "Polygon", "coordinates": [[[-97.8943983, 36.1136507], [-97.894399, 36.113626], [-97.8944527, 36.1136271], [-97.8944519, 36.1136518], [-97.8943983, 36.1136507]]]}, "properties": {"osm_id": 1163673409, "building": "yes", "name": "", "height": null, "height_m": null, "levels": null, "tract_id": "40073958100", "tract_name": "9581", "tags": {"building": "yes"}}}, {"type": "Feature", "geometry": {"type": "Polygon", "coordinates": [[[-97.8944137, 36.1137325], [-97.8944157, 36.1137764], [-97.8943739, 36.1137776], [-97.8943719, 36.1137337], [-97.8944137, 36.1137325]]]}, "properties": {"osm_id": 1163673410, "building": "yes", "name": "", "height": null, "height_m": null, "levels": null, "tract_id": "40073958100", "tract_name": "9581", "tags": {"building": "yes"}}}, {"type": "Feature", "geometry": {"type": "Polygon", "coordinates": [[[-97.8945605, 36.1137569], [-97.8945223, 36.1137574], [-97.8945215, 36.1137212], [-97.8945598, 36.1137206], [-97.8945605, 36.1137569]]]}, "properties": {"osm_id": 1163673411, "building": "yes", "name": "", "height": null, "height_m": null, "levels": null, "tract_id": "40073958100", "tract_name": "9581", "tags": {"building": "yes"}}}, {"type": "Feature", "geometry": {"type": "Polygon", "coordinates": [[[-97.894527, 36.1139681], [-97.894525, 36.1138983], [-97.8946101, 36.1138967], [-97.8946122, 36.1139665], [-97.894527, 36.1139681]]]}, "properties": {"osm_id": 1163673412, "building": "yes", "name": "", "height": null, "height_m": null, "levels": null, "tract_id": "40073958100", "tract_name": "9581", "tags": {"building": "yes"}}}, {"type": "Feature", "geometry": {"type": "Polygon", "coordinates": [[[-97.8942675, 36.1145981], [-97.8942679, 36.1145429], [-97.8943919, 36.1145435], [-97.8943916, 36.1145987], [-97.8942675, 36.1145981]]]}, "properties": {"osm_id": 1163673415, "building": "yes", "name": "", "height": null, "height_m": null, "levels": null, "tract_id": "40073958100", "tract_name": "9581", "tags": {"building": "yes"}}}, {"type": "Feature", "geometry": {"type": "Polygon", "coordinates": [[[-97.8949776, 36.116337], [-97.8949833, 36.116165], [-97.8951845, 36.1161693], [-97.8951788, 36.1163413], [-97.8949776, 36.116337]]]}, "properties": {"osm_id": 1163673417, "building": "yes", "name": "", "height": null, "height_m": null, "levels": null, "tract_id": "40073958100", "tract_name": "9581", "tags": {"building": "yes"}}}, {"type": "Feature", "geometry": {"type": "Polygon", "coordinates": [[[-97.8953071, 36.1165307], [-97.8953084, 36.11646], [-97.8954421, 36.1164615], [-97.8954408, 36.1165323], [-97.8953071, 36.1165307]]]}, "properties": {"osm_id": 1163673418, "building": "roof", "name": "", "height": null, "height_m": null, "levels": null, "tract_id": "40073958100", "tract_name": "9581", "tags": {"building": "roof", "layer": "1"}}}, {"type": "Feature", "geometry": {"type": "Polygon", "coordinates": [[[-97.8952787, 36.116353], [-97.8952803, 36.1162279], [-97.8955515, 36.1162302], [-97.8955499, 36.1163553], [-97.8952787, 36.116353]]]}, "properties": {"osm_id": 1163673419, "building": "yes", "name": "", "height": null, "height_m": null, "levels": null, "tract_id": "40073958100", "tract_name": "9581", "tags": {"building": "yes"}}}, {"type": "Feature", "geometry": {"type": "Polygon", "coordinates": [[[-97.8966822, 36.116366], [-97.8967595, 36.116368], [-97.8967528, 36.1165396], [-97.8966755, 36.1165376], [-97.8966822, 36.116366]]]}, "properties": {"osm_id": 1163673420, "building": "yes", "name": "", "height": null, "height_m": null, "levels": null, "tract_id": "40073958100", "tract_name": "9581", "tags": {"building": "yes"}}}, {"type": "Feature", "geometry": {"type": "Polygon", "coordinates": [[[-97.8967637, 36.116006], [-97.8967628, 36.1157333], [-97.8968916, 36.115733], [-97.8968925, 36.1160057], [-97.8967637, 36.116006]]]}, "properties": {"osm_id": 1163673421, "building": "yes", "name": "", "height": null, "height_m": null, "levels": null, "tract_id": "40073958100", "tract_name": "9581", "tags": {"building": "yes"}}}, {"type": "Feature", "geometry": {"type": "Polygon", "coordinates": [[[-97.8970729, 36.1145489], [-97.8970748, 36.1144911], [-97.8971819, 36.1144934], [-97.89718, 36.1145512], [-97.8970729, 36.1145489]]]}, "properties": {"osm_id": 1163673422, "building": "yes", "name": "", "height": null, "height_m": null, "levels": null, "tract_id": "40073958100", "tract_name": "9581", "tags": {"building": "yes"}}}, {"type": "Feature", "geometry": {"type": "Polygon", "coordinates": [[[-97.896869, 36.1143352], [-97.8968681, 36.1144063], [-97.896777, 36.1144056], [-97.8967779, 36.1143344], [-97.896869, 36.1143352]]]}, "properties": {"osm_id": 1163673423, "building": "yes", "name": "", "height": null, "height_m": null, "levels": null, "tract_id": "40073958100", "tract_name": "9581", "tags": {"building": "yes"}}}, {"type": "Feature", "geometry": {"type": "Polygon", "coordinates": [[[-97.8966803, 36.1150269], [-97.8966803, 36.1149798], [-97.8967471, 36.1149798], [-97.8967471, 36.1150269], [-97.8966803, 36.1150269]]]}, "properties": {"osm_id": 1163673424, "building": "yes", "name": "", "height": null, "height_m": null, "levels": null, "tract_id": "40073958100", "tract_name": "9581", "tags": {"building": "yes"}}}, {"type": "Feature", "geometry": {"type": "Polygon", "coordinates": [[[-97.8970644, 36.1149708], [-97.8970622, 36.115003], [-97.8970139, 36.1150008], [-97.8970161, 36.1149686], [-97.8970644, 36.1149708]]]}, "properties": {"osm_id": 1163673425, "building": "yes", "name": "", "height": null, "height_m": null, "levels": null, "tract_id": "40073958100", "tract_name": "9581", "tags": {"building": "yes"}}}, {"type": "Feature", "geometry": {"type": "Polygon", "coordinates": [[[-97.8971341, 36.1149345], [-97.8970812, 36.114934], [-97.8970816, 36.1149041], [-97.8971346, 36.1149046], [-97.8971341, 36.1149345]]]}, "properties": {"osm_id": 1163673426, "building": "yes", "name": "", "height": null, "height_m": null, "levels": null, "tract_id": "40073958100", "tract_name": "9581", "tags": {"building": "yes"}}}, {"type": "Feature", "geometry": {"type": "Polygon", "coordinates": [[[-97.8969126, 36.115133], [-97.8969116, 36.1151633], [-97.896876, 36.1151626], [-97.8968769, 36.1151323], [-97.8969126, 36.115133]]]}, "properties": {"osm_id": 1163673427, "building": "yes", "name": "", "height": null, "height_m": null, "levels": null, "tract_id": "40073958100", "tract_name": "9581", "tags": {"building": "yes"}}}, {"type": "Feature", "geometry": {"type": "Polygon", "coordinates": [[[-97.8969102, 36.1151993], [-97.8969102, 36.1152663], [-97.8968713, 36.1152663], [-97.8968713, 36.1151993], [-97.8969102, 36.1151993]]]}, "properties": {"osm_id": 1163673428, "building": "yes", "name": "", "height": null, "height_m": null, "levels": null, "tract_id": "40073958100", "tract_name": "9581", "tags": {"building": "yes"}}}, {"type": "Feature", "geometry": {"type": "Polygon", "coordinates": [[[-97.8970738, 36.1151825], [-97.8970326, 36.1151828], [-97.897032, 36.1151461], [-97.8970733, 36.1151458], [-97.8970738, 36.1151825]]]}, "properties": {"osm_id": 1163673429, "building": "yes", "name": "", "height": null, "height_m": null, "levels": null, "tract_id": "40073958100", "tract_name": "9581", "tags": {"building": "yes"}}}, {"type": "Feature", "geometry": {"type": "Polygon", "coordinates": [[[-97.8981781, 36.1172141], [-97.8982048, 36.1171904], [-97.8982427, 36.1172184], [-97.898216, 36.117242], [-97.8981781, 36.1172141]]]}, "properties": {"osm_id": 1163673432, "building": "yes", "name": "", "height": null, "height_m": null, "levels": null, "tract_id": "40073958100", "tract_name": "9581", "tags": {"building": "yes"}}}, {"type": "Feature", "geometry": {"type": "Polygon", "coordinates": [[[-97.8967586, 36.1171094], [-97.8967546, 36.1174203], [-97.8964414, 36.1174177], [-97.8964454, 36.1171068], [-97.8967586, 36.1171094]]]}, "properties": {"osm_id": 1163673433, "building": "yes", "name": "", "height": null, "height_m": null, "levels": null, "tract_id": "40073958100", "tract_name": "9581", "tags": {"building": "yes"}}}, {"type": "Feature", "geometry": {"type": "Polygon", "coordinates": [[[-97.8960847, 36.1183516], [-97.8957272, 36.1183509], [-97.8957278, 36.1181807], [-97.8960853, 36.1181815], [-97.8960847, 36.1183516]]]}, "properties": {"osm_id": 1163673434, "building": "yes", "name": "", "height": null, "height_m": null, "levels": null, "tract_id": "40073958100", "tract_name": "9581", "tags": {"building": "yes"}}}, {"type": "Feature", "geometry": {"type": "Polygon", "coordinates": [[[-97.894704, 36.118033], [-97.8944375, 36.1180483], [-97.8944325, 36.1179911], [-97.894699, 36.1179758], [-97.894704, 36.118033]]]}, "properties": {"osm_id": 1163673435, "building": "yes", "name": "", "height": null, "height_m": null, "levels": null, "tract_id": "40073958100", "tract_name": "9581", "tags": {"building": "yes"}}}, {"type": "Feature", "geometry": {"type": "Polygon", "coordinates": [[[-97.8938645, 36.1179555], [-97.893595, 36.1179707], [-97.8935856, 36.1178619], [-97.8938551, 36.1178468], [-97.8938645, 36.1179555]]]}, "properties": {"osm_id": 1163673436, "building": "yes", "name": "", "height": null, "height_m": null, "levels": null, "tract_id": "40073958100", "tract_name": "9581", "tags": {"building": "yes"}}}, {"type": "Feature", "geometry": {"type": "Polygon", "coordinates": [[[-97.8907173, 36.1215444], [-97.8908984, 36.1215449], [-97.8908974, 36.121803], [-97.8907164, 36.1218026], [-97.8907173, 36.1215444]]]}, "properties": {"osm_id": 1163673437, "building": "yes", "name": "", "height": null, "height_m": null, "levels": null, "tract_id": "40073958100", "tract_name": "9581", "tags": {"building": "yes"}}}, {"type": "Feature", "geometry": {"type": "Polygon", "coordinates": [[[-97.9000215, 36.0871541], [-97.8997292, 36.0871498], [-97.8997306, 36.0870875], [-97.9000229, 36.0870919], [-97.9000215, 36.0871541]]]}, "properties": {"osm_id": 1163673438, "building": "roof", "name": "", "height": null, "height_m": null, "levels": null, "tract_id": "40073958100", "tract_name": "9581", "tags": {"building": "roof", "layer": "1"}}}, {"type": "Feature", "geometry": {"type": "Polygon", "coordinates": [[[-97.8987998, 36.0873113], [-97.8988004, 36.0873779], [-97.8987336, 36.0873784], [-97.8987329, 36.0873117], [-97.8987998, 36.0873113]]]}, "properties": {"osm_id": 1163673439, "building": "roof", "name": "", "height": null, "height_m": null, "levels": null, "tract_id": "40073958100", "tract_name": "9581", "tags": {"building": "roof", "layer": "1"}}}, {"type": "Feature", "geometry": {"type": "Polygon", "coordinates": [[[-97.8983578, 36.0874925], [-97.8983654, 36.0869982], [-97.8985301, 36.0869999], [-97.8985225, 36.0874942], [-97.8983578, 36.0874925]]]}, "properties": {"osm_id": 1163673440, "building": "yes", "name": "", "height": null, "height_m": null, "levels": null, "tract_id": "40073958100", "tract_name": "9581", "tags": {"building": "yes"}}}, {"type": "Feature", "geometry": {"type": "Polygon", "coordinates": [[[-97.8988784, 36.0869246], [-97.8983787, 36.0869246], [-97.8983787, 36.0867783], [-97.8988784, 36.0867783], [-97.8988784, 36.0869246]]]}, "properties": {"osm_id": 1163673441, "building": "yes", "name": "", "height": null, "height_m": null, "levels": null, "tract_id": "40073958100", "tract_name": "9581", "tags": {"building": "yes"}}}, {"type": "Feature", "geometry": {"type": "Polygon", "coordinates": [[[-97.8979434, 36.086333], [-97.8977869, 36.0863361], [-97.8977844, 36.0862515], [-97.8979409, 36.0862484], [-97.8979434, 36.086333]]]}, "properties": {"osm_id": 1163673442, "building": "yes", "name": "", "height": null, "height_m": null, "levels": null, "tract_id": "40073958100", "tract_name": "9581", "tags": {"building": "yes"}}}, {"type": "Feature", "geometry": {"type": "Polygon", "coordinates": [[[-97.896336, 36.0861698], [-97.8963341, 36.0859981], [-97.8964629, 36.0859972], [-97.8964648, 36.0861689], [-97.896336, 36.0861698]]]}, "properties": {"osm_id": 1163673443, "building": "yes", "name": "", "height": null, "height_m": null, "levels": null, "tract_id": "40073958100", "tract_name": "9581", "tags": {"building": "yes"}}}, {"type": "Feature", "geometry": {"type": "Polygon", "coordinates": [[[-97.8973581, 36.0859208], [-97.8973554, 36.0860898], [-97.8972062, 36.0860883], [-97.8972089, 36.0859192], [-97.8973581, 36.0859208]]]}, "properties": {"osm_id": 1163673444, "building": "yes", "name": "", "height": null, "height_m": null, "levels": null, "tract_id": "40073958100", "tract_name": "9581", "tags": {"building": "yes"}}}, {"type": "Feature", "geometry": {"type": "Polygon", "coordinates": [[[-97.8944043, 36.0861289], [-97.8943996, 36.0862156], [-97.8943441, 36.0862136], [-97.8943488, 36.0861269], [-97.8944043, 36.0861289]]]}, "properties": {"osm_id": 1163673445, "building": "yes", "name": "", "height": null, "height_m": null, "levels": null, "tract_id": "40073958100", "tract_name": "9581", "tags": {"building": "yes"}}}, {"type": "Feature", "geometry": {"type": "Polygon", "coordinates": [[[-97.8940478, 36.0860196], [-97.8939318, 36.0860183], [-97.8939347, 36.0858444], [-97.8940506, 36.0858456], [-97.8940478, 36.0860196]]]}, "properties": {"osm_id": 1163673446, "building": "yes", "name": "", "height": null, "height_m": null, "levels": null, "tract_id": "40073958100", "tract_name": "9581", "tags": {"building": "yes"}}}, {"type": "Feature", "geometry": {"type": "Polygon", "coordinates": [[[-97.8954148, 36.0866946], [-97.895305, 36.0866938], [-97.895307, 36.0865214], [-97.8954168, 36.0865223], [-97.8954148, 36.0866946]]]}, "properties": {"osm_id": 1163673447, "building": "yes", "name": "", "height": null, "height_m": null, "levels": null, "tract_id": "40073958100", "tract_name": "9581", "tags": {"building": "yes"}}}, {"type": "Feature", "geometry": {"type": "Polygon", "coordinates": [[[-97.8974685, 36.1092728], [-97.8974515, 36.1092727], [-97.8974513, 36.109285], [-97.8973997, 36.1092846], [-97.8973999, 36.1092662], [-97.8973398, 36.1092657], [-97.8973405, 36.1092102], [-97.8973954, 36.1092106], [-97.897396, 36.1091578], [-97.8975243, 36.1091587], [-97.8975239, 36.1091921], [-97.8974694, 36.1091917], [-97.8974685, 36.1092728]]]}, "properties": {"osm_id": 1182574084, "building": "yes", "name": "", "height": null, "height_m": null, "levels": null, "tract_id": "40073958100", "tract_name": "9581", "tags": {"building": "yes"}}}, {"type": "Feature", "geometry": {"type": "Polygon", "coordinates": [[[-97.897508, 36.1090473], [-97.8974073, 36.1090454], [-97.8974051, 36.1091247], [-97.8975058, 36.1091265], [-97.897508, 36.1090473]]]}, "properties": {"osm_id": 1182574085, "building": "yes", "name": "", "height": null, "height_m": null, "levels": null, "tract_id": "40073958100", "tract_name": "9581", "tags": {"building": "yes", "source": "microsoft/BuildingFootprints"}}}, {"type": "Feature", "geometry": {"type": "Polygon", "coordinates": [[[-97.8971866, 36.109268], [-97.8972955, 36.1092671], [-97.8972937, 36.1091358], [-97.8972573, 36.1091361], [-97.8972568, 36.1091015], [-97.8971844, 36.1091021], [-97.8971866, 36.109268]]]}, "properties": {"osm_id": 1182574086, "building": "yes", "name": "", "height": null, "height_m": null, "levels": null, "tract_id": "40073958100", "tract_name": "9581", "tags": {"building": "yes", "source": "microsoft/BuildingFootprints"}}}, {"type": "Feature", "geometry": {"type": "Polygon", "coordinates": [[[-97.8971438, 36.1091207], [-97.8970902, 36.1091212], [-97.8970905, 36.1091407], [-97.8970032, 36.1091416], [-97.8970049, 36.1092542], [-97.8971458, 36.1092528], [-97.8971438, 36.1091207]]]}, "properties": {"osm_id": 1182574087, "building": "yes", "name": "", "height": null, "height_m": null, "levels": null, "tract_id": "40073958100", "tract_name": "9581", "tags": {"building": "yes", "source": "microsoft/BuildingFootprints"}}}, {"type": "Feature", "geometry": {"type": "Polygon", "coordinates": [[[-97.896776, 36.1092414], [-97.896894, 36.1092401], [-97.8968923, 36.1091383], [-97.8968065, 36.1091392], [-97.8968062, 36.1091219], [-97.8967499, 36.1091225], [-97.8967513, 36.109207], [-97.8967754, 36.1092067], [-97.896776, 36.1092414]]]}, "properties": {"osm_id": 1182574088, "building": "yes", "name": "", "height": null, "height_m": null, "levels": null, "tract_id": "40073958100", "tract_name": "9581", "tags": {"building": "yes", "source": "microsoft/BuildingFootprints"}}}, {"type": "Feature", "geometry": {"type": "Polygon", "coordinates": [[[-97.8969785, 36.1090867], [-97.8969115, 36.1090865], [-97.8969112, 36.1091546], [-97.8969782, 36.1091548], [-97.8969785, 36.1090867]]]}, "properties": {"osm_id": 1182574089, "building": "yes", "name": "", "height": null, "height_m": null, "levels": null, "tract_id": "40073958100", "tract_name": "9581", "tags": {"building": "yes", "source": "microsoft/BuildingFootprints"}}}, {"type": "Feature", "geometry": {"type": "Polygon", "coordinates": [[[-97.8966339, 36.1091413], [-97.8967331, 36.1091409], [-97.8967327, 36.1090608], [-97.8966335, 36.1090611], [-97.8966339, 36.1091413]]]}, "properties": {"osm_id": 1182574090, "building": "yes", "name": "", "height": null, "height_m": null, "levels": null, "tract_id": "40073958100", "tract_name": "9581", "tags": {"building": "yes", "source": "microsoft/BuildingFootprints"}}}, {"type": "Feature", "geometry": {"type": "Polygon", "coordinates": [[[-97.897259, 36.1090784], [-97.8973287, 36.1090797], [-97.8973315, 36.1089823], [-97.8972618, 36.108981], [-97.897259, 36.1090784]]]}, "properties": {"osm_id": 1182574091, "building": "yes", "name": "", "height": null, "height_m": null, "levels": null, "tract_id": "40073958100", "tract_name": "9581", "tags": {"building": "yes", "source": "microsoft/BuildingFootprints"}}}, {"type": "Feature", "geometry": {"type": "Polygon", "coordinates": [[[-97.9068891, 36.0757414], [-97.9066863, 36.0757423], [-97.9066846, 36.0754862], [-97.9068874, 36.0754854], [-97.9068891, 36.0757414]]]}, "properties": {"osm_id": 1321551497, "building": "yes", "name": "", "height": null, "height_m": null, "levels": null, "tract_id": "40073958100", "tract_name": "9581", "tags": {"building": "yes"}}}, {"type": "Feature", "geometry": {"type": "Polygon", "coordinates": [[[-97.9072008, 36.0809323], [-97.9070623, 36.0809274], [-97.907067, 36.0808414], [-97.9072055, 36.0808463], [-97.9072008, 36.0809323]]]}, "properties": {"osm_id": 1321551498, "building": "yes", "name": "", "height": null, "height_m": null, "levels": null, "tract_id": "40073958100", "tract_name": "9581", "tags": {"building": "yes"}}}, {"type": "Feature", "geometry": {"type": "Polygon", "coordinates": [[[-97.9070191, 36.0811315], [-97.9067947, 36.0811267], [-97.906793, 36.0811788], [-97.9067724, 36.0811784], [-97.9067694, 36.0812697], [-97.9067887, 36.0812701], [-97.906788, 36.0812926], [-97.9069176, 36.0812954], [-97.906919, 36.0812556], [-97.9069599, 36.0812565], [-97.9069615, 36.0812078], [-97.9070166, 36.081209], [-97.9070191, 36.0811315]]]}, "properties": {"osm_id": 1321551499, "building": "house", "name": "", "height": null, "height_m": null, "levels": null, "tract_id": "40073958100", "tract_name": "9581", "tags": {"building": "house"}}}, {"type": "Feature", "geometry": {"type": "Polygon", "coordinates": [[[-97.9108883, 36.0822299], [-97.9107102, 36.0822312], [-97.9107072, 36.0819479], [-97.9105572, 36.0819489], [-97.9105579, 36.0820209], [-97.9103191, 36.0820225], [-97.9103166, 36.081772], [-97.9105154, 36.0817707], [-97.9105168, 36.081899], [-97.9106556, 36.081898], [-97.9106547, 36.0818167], [-97.9108453, 36.0818154], [-97.9108449, 36.0817778], [-97.9108835, 36.0817775], [-97.9108883, 36.0822299]]]}, "properties": {"osm_id": 1321551501, "building": "house", "name": "", "height": null, "height_m": null, "levels": null, "tract_id": "40073958100", "tract_name": "9581", "tags": {"building": "house"}}}, {"type": "Feature", "geometry": {"type": "Polygon", "coordinates": [[[-97.8984645, 36.1025088], [-97.8986107, 36.1025128], [-97.8986046, 36.1026595], [-97.8984584, 36.1026555], [-97.8984645, 36.1025088]]]}, "properties": {"osm_id": 1352099702, "building": "yes", "name": "", "height": null, "height_m": null, "levels": null, "tract_id": "40073958100", "tract_name": "9581", "tags": {"building": "yes"}}}, {"type": "Feature", "geometry": {"type": "Polygon", "coordinates": [[[-97.8987021, 36.1023946], [-97.8987021, 36.1023306], [-97.8987826, 36.1023306], [-97.8987826, 36.1023946], [-97.8987021, 36.1023946]]]}, "properties": {"osm_id": 1352099703, "building": "roof", "name": "", "height": null, "height_m": null, "levels": null, "tract_id": "40073958100", "tract_name": "9581", "tags": {"building": "roof"}}}, {"type": "Feature", "geometry": {"type": "Polygon", "coordinates": [[[-97.8177, 35.9998398], [-97.8177001, 35.999793], [-97.8176698, 35.999793], [-97.8176698, 35.9998398], [-97.8177, 35.9998398]]]}, "properties": {"osm_id": 1366636744, "building": "yes", "name": "", "height": null, "height_m": null, "levels": null, "tract_id": "40073958100", "tract_name": "9581", "tags": {"building": "yes"}}}, {"type": "Feature", "geometry": {"type": "Polygon", "coordinates": [[[-97.9887855, 36.1151378], [-97.9887116, 36.1151005], [-97.9886761, 36.115149], [-97.9885945, 36.1151092], [-97.9887085, 36.1149636], [-97.9887948, 36.1150159], [-97.9887732, 36.115047], [-97.9888317, 36.1150744], [-97.9887855, 36.1151378]]]}, "properties": {"osm_id": 1434024705, "building": "yes", "name": "", "height": null, "height_m": null, "levels": null, "tract_id": "40073958100", "tract_name": "9581", "tags": {"building": "yes"}}}, {"type": "Feature", "geometry": {"type": "Polygon", "coordinates": [[[-97.9885683, 36.1152797], [-97.9884404, 36.115215], [-97.9884959, 36.1151378], [-97.9886268, 36.1152075], [-97.9885683, 36.1152797]]]}, "properties": {"osm_id": 1434024706, "building": "yes", "name": "", "height": null, "height_m": null, "levels": null, "tract_id": "40073958100", "tract_name": "9581", "tags": {"building": "yes"}}}, {"type": "Feature", "geometry": {"type": "Polygon", "coordinates": [[[-97.9886083, 36.1153705], [-97.9885406, 36.1153394], [-97.9886022, 36.1152672], [-97.9886638, 36.1153021], [-97.9886083, 36.1153705]]]}, "properties": {"osm_id": 1434024707, "building": "yes", "name": "", "height": null, "height_m": null, "levels": null, "tract_id": "40073958100", "tract_name": "9581", "tags": {"building": "yes"}}}, {"type": "Feature", "geometry": {"type": "Polygon", "coordinates": [[[-97.9900748, 36.1162045], [-97.9899406, 36.116198], [-97.9899528, 36.1160173], [-97.990087, 36.1160173], [-97.9900748, 36.1162045]]]}, "properties": {"osm_id": 1434024711, "building": "yes", "name": "", "height": null, "height_m": null, "levels": null, "tract_id": "40073958100", "tract_name": "9581", "tags": {"building": "yes"}}}, {"type": "Feature", "geometry": {"type": "Polygon", "coordinates": [[[-97.991018, 36.1160633], [-97.9908188, 36.11606], [-97.990831, 36.1156429], [-97.9910464, 36.1156495], [-97.991018, 36.1160633]]]}, "properties": {"osm_id": 1434024712, "building": "yes", "name": "", "height": null, "height_m": null, "levels": null, "tract_id": "40073958100", "tract_name": "9581", "tags": {"building": "yes"}}}, {"type": "Feature", "geometry": {"type": "Polygon", "coordinates": [[[-97.981836, 36.1134277], [-97.9817636, 36.1134289], [-97.9817605, 36.1134588], [-97.9816373, 36.1134588], [-97.9816357, 36.1134314], [-97.9815464, 36.1134314], [-97.9815433, 36.1133916], [-97.9818345, 36.1133854], [-97.981836, 36.1134277]]]}, "properties": {"osm_id": 1434024718, "building": "yes", "name": "", "height": null, "height_m": null, "levels": null, "tract_id": "40073958100", "tract_name": "9581", "tags": {"building": "yes"}}}, {"type": "Feature", "geometry": {"type": "Polygon", "coordinates": [[[-97.9815787, 36.1133456], [-97.9815787, 36.1132821], [-97.9818776, 36.1132734], [-97.9818745, 36.1133418], [-97.9815787, 36.1133456]]]}, "properties": {"osm_id": 1434024719, "building": "yes", "name": "", "height": null, "height_m": null, "levels": null, "tract_id": "40073958100", "tract_name": "9581", "tags": {"building": "yes"}}}, {"type": "Feature", "geometry": {"type": "Polygon", "coordinates": [[[-97.981511, 36.1134252], [-97.9814093, 36.1134264], [-97.9812814, 36.1133207], [-97.9813323, 36.1132808], [-97.981437, 36.1133692], [-97.9815079, 36.1133692], [-97.981511, 36.1134252]]]}, "properties": {"osm_id": 1434024720, "building": "yes", "name": "", "height": null, "height_m": null, "levels": null, "tract_id": "40073958100", "tract_name": "9581", "tags": {"building": "yes"}}}, {"type": "Feature", "geometry": {"type": "Polygon", "coordinates": [[[-97.9834666, 36.1153458], [-97.9832996, 36.1153494], [-97.9832886, 36.1151293], [-97.9834446, 36.1151239], [-97.9834666, 36.1153458]]]}, "properties": {"osm_id": 1434024721, "building": "yes", "name": "", "height": null, "height_m": null, "levels": null, "tract_id": "40073958100", "tract_name": "9581", "tags": {"building": "yes"}}}, {"type": "Feature", "geometry": {"type": "Polygon", "coordinates": [[[-97.9818567, 36.1131826], [-97.9816453, 36.1131798], [-97.9816453, 36.1131126], [-97.9818602, 36.1131126], [-97.9818567, 36.1131826]]]}, "properties": {"osm_id": 1434029741, "building": "yes", "name": "", "height": null, "height_m": null, "levels": null, "tract_id": "40073958100", "tract_name": "9581", "tags": {"building": "yes"}}}, {"type": "Feature", "geometry": {"type": "Polygon", "coordinates": [[[-97.9828029, 36.1130342], [-97.9825153, 36.1130286], [-97.9825222, 36.1128718], [-97.9828064, 36.1128718], [-97.9828029, 36.1130342]]]}, "properties": {"osm_id": 1434029742, "building": "yes", "name": "", "height": null, "height_m": null, "levels": null, "tract_id": "40073958100", "tract_name": "9581", "tags": {"building": "yes"}}}, {"type": "Feature", "geometry": {"type": "Polygon", "coordinates": [[[-97.9824252, 36.1130174], [-97.9823246, 36.1130174], [-97.9823142, 36.1128606], [-97.9824217, 36.1128634], [-97.9824252, 36.1130174]]]}, "properties": {"osm_id": 1434029743, "building": "yes", "name": "", "height": null, "height_m": null, "levels": null, "tract_id": "40073958100", "tract_name": "9581", "tags": {"building": "yes"}}}, {"type": "Feature", "geometry": {"type": "Polygon", "coordinates": [[[-97.9836486, 36.1131574], [-97.9834199, 36.1131434], [-97.9834199, 36.1129698], [-97.9836521, 36.112967], [-97.9836486, 36.1131574]]]}, "properties": {"osm_id": 1434029744, "building": "yes", "name": "", "height": null, "height_m": null, "levels": null, "tract_id": "40073958100", "tract_name": "9581", "tags": {"building": "yes"}}}, {"type": "Feature", "geometry": {"type": "Polygon", "coordinates": [[[-97.9838219, 36.1131014], [-97.9836729, 36.1130986], [-97.9836798, 36.1129754], [-97.9838219, 36.1129726], [-97.9838219, 36.1131014]]]}, "properties": {"osm_id": 1434029745, "building": "yes", "name": "", "height": null, "height_m": null, "levels": null, "tract_id": "40073958100", "tract_name": "9581", "tags": {"building": "yes"}}}, {"type": "Feature", "geometry": {"type": "Polygon", "coordinates": [[[-97.9852984, 36.1130258], [-97.9851875, 36.1130286], [-97.9851771, 36.1129978], [-97.9850627, 36.1130034], [-97.9850696, 36.1128354], [-97.9852914, 36.1128298], [-97.9852984, 36.1130258]]]}, "properties": {"osm_id": 1434029746, "building": "yes", "name": "", "height": null, "height_m": null, "levels": null, "tract_id": "40073958100", "tract_name": "9581", "tags": {"building": "yes"}}}, {"type": "Feature", "geometry": {"type": "Polygon", "coordinates": [[[-97.9855306, 36.1130818], [-97.9853781, 36.1130874], [-97.9853781, 36.112995], [-97.9855306, 36.112995], [-97.9855306, 36.1130818]]]}, "properties": {"osm_id": 1434029747, "building": "yes", "name": "", "height": null, "height_m": null, "levels": null, "tract_id": "40073958100", "tract_name": "9581", "tags": {"building": "yes"}}}, {"type": "Feature", "geometry": {"type": "Polygon", "coordinates": [[[-97.9870417, 36.1130314], [-97.9868441, 36.113037], [-97.9868372, 36.112953], [-97.9870382, 36.1129558], [-97.9870417, 36.1130314]]]}, "properties": {"osm_id": 1434029748, "building": "yes", "name": "", "height": null, "height_m": null, "levels": null, "tract_id": "40073958100", "tract_name": "9581", "tags": {"building": "yes"}}}, {"type": "Feature", "geometry": {"type": "Polygon", "coordinates": [[[-97.9866709, 36.1129502], [-97.9866605, 36.1128298], [-97.9868407, 36.1128298], [-97.9868372, 36.112953], [-97.9866709, 36.1129502]]]}, "properties": {"osm_id": 1434029749, "building": "yes", "name": "", "height": null, "height_m": null, "levels": null, "tract_id": "40073958100", "tract_name": "9581", "tags": {"building": "yes"}}}, {"type": "Feature", "geometry": {"type": "Polygon", "coordinates": [[[-97.9877418, 36.1129754], [-97.9875027, 36.1130202], [-97.9874368, 36.1128858], [-97.9876794, 36.1128326], [-97.9877418, 36.1129754]]]}, "properties": {"osm_id": 1434029750, "building": "yes", "name": "", "height": null, "height_m": null, "levels": null, "tract_id": "40073958100", "tract_name": "9581", "tags": {"building": "yes"}}}, {"type": "Feature", "geometry": {"type": "Polygon", "coordinates": [[[-97.9880225, 36.1129558], [-97.987877, 36.1128746], [-97.9879359, 36.1127934], [-97.9880884, 36.1128662], [-97.9880225, 36.1129558]]]}, "properties": {"osm_id": 1434029751, "building": "yes", "name": "", "height": null, "height_m": null, "levels": null, "tract_id": "40073958100", "tract_name": "9581", "tags": {"building": "yes"}}}, {"type": "Feature", "geometry": {"type": "Polygon", "coordinates": [[[-97.9877938, 36.1125274], [-97.9875928, 36.1123902], [-97.9877037, 36.1122951], [-97.9879151, 36.1124294], [-97.9877938, 36.1125274]]]}, "properties": {"osm_id": 1434029752, "building": "yes", "name": "", "height": null, "height_m": null, "levels": null, "tract_id": "40073958100", "tract_name": "9581", "tags": {"building": "yes"}}}, {"type": "Feature", "geometry": {"type": "Polygon", "coordinates": [[[-97.9877453, 36.1120347], [-97.987669, 36.1119815], [-97.9876413, 36.1119899], [-97.9875581, 36.1119283], [-97.9876968, 36.1117967], [-97.9878804, 36.1119227], [-97.9877453, 36.1120347]]]}, "properties": {"osm_id": 1434029753, "building": "yes", "name": "", "height": null, "height_m": null, "levels": null, "tract_id": "40073958100", "tract_name": "9581", "tags": {"building": "yes"}}}, {"type": "Feature", "geometry": {"type": "Polygon", "coordinates": [[[-97.9871838, 36.1119479], [-97.9869689, 36.1119535], [-97.9869551, 36.1117911], [-97.9871699, 36.1117715], [-97.9871838, 36.1119479]]]}, "properties": {"osm_id": 1434029754, "building": "yes", "name": "", "height": null, "height_m": null, "levels": null, "tract_id": "40073958100", "tract_name": "9581", "tags": {"building": "yes"}}}, {"type": "Feature", "geometry": {"type": "Polygon", "coordinates": [[[-97.9868268, 36.1125274], [-97.9868199, 36.1123762], [-97.9870798, 36.1123762], [-97.9870868, 36.1125218], [-97.9868268, 36.1125274]]]}, "properties": {"osm_id": 1434029755, "building": "yes", "name": "", "height": null, "height_m": null, "levels": null, "tract_id": "40073958100", "tract_name": "9581", "tags": {"building": "yes"}}}, {"type": "Feature", "geometry": {"type": "Polygon", "coordinates": [[[-97.9861683, 36.112505], [-97.9858737, 36.1125078], [-97.9858772, 36.112393], [-97.9861648, 36.1123958], [-97.9861683, 36.112505]]]}, "properties": {"osm_id": 1434029756, "building": "yes", "name": "", "height": null, "height_m": null, "levels": null, "tract_id": "40073958100", "tract_name": "9581", "tags": {"building": "yes"}}}, {"type": "Feature", "geometry": {"type": "Polygon", "coordinates": [[[-97.9852048, 36.112477], [-97.9851389, 36.1124714], [-97.985132, 36.112505], [-97.9850038, 36.1125078], [-97.9849968, 36.1124798], [-97.9849379, 36.1124798], [-97.9849171, 36.1123342], [-97.9852083, 36.1123538], [-97.9852048, 36.112477]]]}, "properties": {"osm_id": 1434029757, "building": "yes", "name": "", "height": null, "height_m": null, "levels": null, "tract_id": "40073958100", "tract_name": "9581", "tags": {"building": "yes"}}}, {"type": "Feature", "geometry": {"type": "Polygon", "coordinates": [[[-97.9834407, 36.1125358], [-97.9833401, 36.1125386], [-97.9833471, 36.1124966], [-97.983198, 36.1124966], [-97.9831842, 36.112379], [-97.9834372, 36.1123902], [-97.9834407, 36.1125358]]]}, "properties": {"osm_id": 1434029758, "building": "yes", "name": "", "height": null, "height_m": null, "levels": null, "tract_id": "40073958100", "tract_name": "9581", "tags": {"building": "yes"}}}, {"type": "Feature", "geometry": {"type": "Polygon", "coordinates": [[[-97.9826123, 36.1125918], [-97.9823697, 36.1125946], [-97.9823593, 36.1124322], [-97.9826054, 36.1124294], [-97.9826123, 36.1125918]]]}, "properties": {"osm_id": 1434029759, "building": "yes", "name": "", "height": null, "height_m": null, "levels": null, "tract_id": "40073958100", "tract_name": "9581", "tags": {"building": "yes"}}}, {"type": "Feature", "geometry": {"type": "Polygon", "coordinates": [[[-97.9810908, 36.1125918], [-97.9809071, 36.1125834], [-97.9809002, 36.1124182], [-97.9809833, 36.1124154], [-97.9809937, 36.1124686], [-97.9810908, 36.1124574], [-97.9810908, 36.1125918]]]}, "properties": {"osm_id": 1434029760, "building": "yes", "name": "", "height": null, "height_m": null, "levels": null, "tract_id": "40073958100", "tract_name": "9581", "tags": {"building": "yes"}}}, {"type": "Feature", "geometry": {"type": "Polygon", "coordinates": [[[-97.980006, 36.1130342], [-97.9797252, 36.113037], [-97.9797148, 36.1129278], [-97.9800094, 36.1129222], [-97.980006, 36.1130342]]]}, "properties": {"osm_id": 1434029761, "building": "yes", "name": "", "height": null, "height_m": null, "levels": null, "tract_id": "40073958100", "tract_name": "9581", "tags": {"building": "yes"}}}, {"type": "Feature", "geometry": {"type": "Polygon", "coordinates": [[[-97.9797738, 36.1122839], [-97.9796559, 36.1122839], [-97.9796524, 36.1120263], [-97.9797738, 36.1120207], [-97.9797738, 36.1122839]]]}, "properties": {"osm_id": 1434029762, "building": "yes", "name": "", "height": null, "height_m": null, "levels": null, "tract_id": "40073958100", "tract_name": "9581", "tags": {"building": "yes"}}}, {"type": "Feature", "geometry": {"type": "Polygon", "coordinates": [[[-97.9959435, 36.1134334], [-97.9957883, 36.1134302], [-97.9957763, 36.1132693], [-97.995629, 36.1132693], [-97.995637, 36.1131536], [-97.995848, 36.1131503], [-97.9958559, 36.1132114], [-97.9959356, 36.1132243], [-97.9959435, 36.1134334]]]}, "properties": {"osm_id": 1434029764, "building": "yes", "name": "", "height": null, "height_m": null, "levels": null, "tract_id": "40073958100", "tract_name": "9581", "tags": {"building": "yes"}}}, {"type": "Feature", "geometry": {"type": "Polygon", "coordinates": [[[-97.996481, 36.1133497], [-97.9962819, 36.1133497], [-97.9962819, 36.1131857], [-97.996485, 36.1131825], [-97.996481, 36.1133497]]]}, "properties": {"osm_id": 1434029765, "building": "yes", "name": "", "height": null, "height_m": null, "levels": null, "tract_id": "40073958100", "tract_name": "9581", "tags": {"building": "yes"}}}, {"type": "Feature", "geometry": {"type": "Polygon", "coordinates": [[[-97.9967079, 36.1150611], [-97.9964816, 36.1150587], [-97.9964846, 36.1149465], [-97.9967049, 36.114949], [-97.9967079, 36.1150611]]]}, "properties": {"osm_id": 1434029766, "building": "yes", "name": "", "height": null, "height_m": null, "levels": null, "tract_id": "40073958100", "tract_name": "9581", "tags": {"building": "yes"}}}, {"type": "Feature", "geometry": {"type": "Polygon", "coordinates": [[[-97.99672, 36.1152122], [-97.9966023, 36.1152171], [-97.9966023, 36.1150928], [-97.996717, 36.1151001], [-97.99672, 36.1152122]]]}, "properties": {"osm_id": 1434029767, "building": "yes", "name": "", "height": null, "height_m": null, "levels": null, "tract_id": "40073958100", "tract_name": "9581", "tags": {"building": "yes"}}}, {"type": "Feature", "geometry": {"type": "Polygon", "coordinates": [[[-97.9946935, 36.117503], [-97.9943435, 36.1175128], [-97.9943435, 36.1172837], [-97.9946935, 36.1172739], [-97.9946935, 36.117503]]]}, "properties": {"osm_id": 1434029768, "building": "yes", "name": "", "height": null, "height_m": null, "levels": null, "tract_id": "40073958100", "tract_name": "9581", "tags": {"building": "yes"}}}, {"type": "Feature", "geometry": {"type": "Polygon", "coordinates": [[[-97.9953754, 36.1175859], [-97.9951642, 36.1175859], [-97.9951522, 36.117347], [-97.9953754, 36.117347], [-97.9953754, 36.1175859]]]}, "properties": {"osm_id": 1434029769, "building": "yes", "name": "", "height": null, "height_m": null, "levels": null, "tract_id": "40073958100", "tract_name": "9581", "tags": {"building": "yes"}}}, {"type": "Feature", "geometry": {"type": "Polygon", "coordinates": [[[-97.9959366, 36.1175956], [-97.9957556, 36.1175274], [-97.9958461, 36.1174007], [-97.9960272, 36.1174689], [-97.9959366, 36.1175956]]]}, "properties": {"osm_id": 1434029770, "building": "yes", "name": "", "height": null, "height_m": null, "levels": null, "tract_id": "40073958100", "tract_name": "9581", "tags": {"building": "yes"}}}, {"type": "Feature", "geometry": {"type": "Polygon", "coordinates": [[[-97.9929255, 36.1169961], [-97.9926901, 36.1170009], [-97.9926841, 36.1168888], [-97.9929315, 36.1168742], [-97.9929255, 36.1169961]]]}, "properties": {"osm_id": 1434029771, "building": "yes", "name": "", "height": null, "height_m": null, "levels": null, "tract_id": "40073958100", "tract_name": "9581", "tags": {"building": "yes"}}}, {"type": "Feature", "geometry": {"type": "Polygon", "coordinates": [[[-97.9914934, 36.1178277], [-97.9913381, 36.1178277], [-97.9913341, 36.1177023], [-97.9914973, 36.1177023], [-97.9914934, 36.1178277]]]}, "properties": {"osm_id": 1434029772, "building": "yes", "name": "", "height": null, "height_m": null, "levels": null, "tract_id": "40073958100", "tract_name": "9581", "tags": {"building": "yes"}}}, {"type": "Feature", "geometry": {"type": "Polygon", "coordinates": [[[-97.9914894, 36.1174739], [-97.9913381, 36.1174836], [-97.9913381, 36.1174096], [-97.9914615, 36.1174064], [-97.9914894, 36.1174739]]]}, "properties": {"osm_id": 1434029773, "building": "yes", "name": "", "height": null, "height_m": null, "levels": null, "tract_id": "40073958100", "tract_name": "9581", "tags": {"building": "yes"}}}, {"type": "Feature", "geometry": {"type": "Polygon", "coordinates": [[[-97.9913023, 36.1174385], [-97.9912067, 36.1174032], [-97.9913023, 36.1172681], [-97.9913898, 36.117297], [-97.9913023, 36.1174385]]]}, "properties": {"osm_id": 1434029774, "building": "yes", "name": "", "height": null, "height_m": null, "levels": null, "tract_id": "40073958100", "tract_name": "9581", "tags": {"building": "yes"}}}, {"type": "Feature", "geometry": {"type": "Polygon", "coordinates": [[[-97.9918437, 36.1176798], [-97.9917044, 36.1176862], [-97.9916964, 36.1176122], [-97.9918397, 36.1176058], [-97.9918437, 36.1176798]]]}, "properties": {"osm_id": 1434029775, "building": "yes", "name": "", "height": null, "height_m": null, "levels": null, "tract_id": "40073958100", "tract_name": "9581", "tags": {"building": "yes"}}}, {"type": "Feature", "geometry": {"type": "Polygon", "coordinates": [[[-97.9848964, 36.1171555], [-97.9847491, 36.117162], [-97.9847491, 36.1170462], [-97.9849004, 36.1170526], [-97.9848964, 36.1171555]]]}, "properties": {"osm_id": 1434029776, "building": "yes", "name": "", "height": null, "height_m": null, "levels": null, "tract_id": "40073958100", "tract_name": "9581", "tags": {"building": "yes"}}}, {"type": "Feature", "geometry": {"type": "Polygon", "coordinates": [[[-97.9842813, 36.1176283], [-97.9842475, 36.1175833], [-97.9842097, 36.1175913], [-97.9841937, 36.1175608], [-97.9842893, 36.1175206], [-97.984343, 36.1175945], [-97.9842813, 36.1176283]]]}, "properties": {"osm_id": 1434029777, "building": "yes", "name": "", "height": null, "height_m": null, "levels": null, "tract_id": "40073958100", "tract_name": "9581", "tags": {"building": "yes"}}}, {"type": "Feature", "geometry": {"type": "Polygon", "coordinates": [[[-97.981408, 36.1180141], [-97.9811619, 36.1180197], [-97.9811584, 36.1179329], [-97.9814045, 36.1179273], [-97.981408, 36.1180141]]]}, "properties": {"osm_id": 1434029779, "building": "yes", "name": "", "height": null, "height_m": null, "levels": null, "tract_id": "40073958100", "tract_name": "9581", "tags": {"building": "yes"}}}, {"type": "Feature", "geometry": {"type": "Polygon", "coordinates": [[[-97.9808846, 36.1177985], [-97.9807148, 36.1178097], [-97.9807113, 36.1176642], [-97.9808742, 36.1176614], [-97.9808846, 36.1177985]]]}, "properties": {"osm_id": 1434029780, "building": "yes", "name": "", "height": null, "height_m": null, "levels": null, "tract_id": "40073958100", "tract_name": "9581", "tags": {"building": "yes"}}}, {"type": "Feature", "geometry": {"type": "Polygon", "coordinates": [[[-97.9810371, 36.1176614], [-97.9809297, 36.1176614], [-97.9809331, 36.1175998], [-97.9810267, 36.1176026], [-97.9810371, 36.1176614]]]}, "properties": {"osm_id": 1434029781, "building": "yes", "name": "", "height": null, "height_m": null, "levels": null, "tract_id": "40073958100", "tract_name": "9581", "tags": {"building": "yes"}}}, {"type": "Feature", "geometry": {"type": "Polygon", "coordinates": [[[-97.9812633, 36.1176366], [-97.981155, 36.1176436], [-97.9811506, 36.1176107], [-97.9812572, 36.1176044], [-97.9812633, 36.1176366]]]}, "properties": {"osm_id": 1434029782, "building": "yes", "name": "", "height": null, "height_m": null, "levels": null, "tract_id": "40073958100", "tract_name": "9581", "tags": {"building": "yes"}}}, {"type": "Feature", "geometry": {"type": "Polygon", "coordinates": [[[-97.9930911, 36.1151886], [-97.9929438, 36.1153286], [-97.9928381, 36.1152586], [-97.9928, 36.1152936], [-97.9927238, 36.1152474], [-97.9928087, 36.1151634], [-97.9928364, 36.115183], [-97.9928832, 36.1151256], [-97.9929092, 36.1151382], [-97.9929421, 36.1150962], [-97.9930911, 36.1151886]]]}, "properties": {"osm_id": 1434031824, "building": "yes", "name": "", "height": null, "height_m": null, "levels": null, "tract_id": "40073958100", "tract_name": "9581", "tags": {"building": "yes"}}}, {"type": "Feature", "geometry": {"type": "Polygon", "coordinates": [[[-97.9920427, 36.1154224], [-97.9919231, 36.1153664], [-97.9920306, 36.1152222], [-97.9921484, 36.1152698], [-97.9920427, 36.1154224]]]}, "properties": {"osm_id": 1434031825, "building": "yes", "name": "", "height": null, "height_m": null, "levels": null, "tract_id": "40073958100", "tract_name": "9581", "tags": {"building": "yes"}}}, {"type": "Feature", "geometry": {"type": "Polygon", "coordinates": [[[-97.7946073, 36.0296234], [-97.7946049, 36.0294925], [-97.7945325, 36.0294934], [-97.7945348, 36.0296243], [-97.7946073, 36.0296234]]]}, "properties": {"osm_id": 1443047093, "building": "yes", "name": "", "height": null, "height_m": null, "levels": null, "tract_id": "40073958100", "tract_name": "9581", "tags": {"building": "yes"}}}, {"type": "Feature", "geometry": {"type": "Polygon", "coordinates": [[[-97.7952676, 36.0295516], [-97.7952668, 36.0295102], [-97.795194, 36.0295111], [-97.7951931, 36.0294636], [-97.7950889, 36.0294649], [-97.7950905, 36.0295538], [-97.7952676, 36.0295516]]]}, "properties": {"osm_id": 1443047094, "building": "yes", "name": "", "height": null, "height_m": null, "levels": null, "tract_id": "40073958100", "tract_name": "9581", "tags": {"building": "yes"}}}]}