{"type": "FeatureCollection", "features": [{"type": "Feature", "geometry": {"type": "Polygon", "coordinates": [[[-97.9595385, 34.501895], [-97.9595903, 34.5015051], [-97.9594086, 34.5014887], [-97.9593568, 34.5018786], [-97.9595385, 34.501895]]]}, "properties": {"osm_id": 737129135, "building": "yes", "name": "Palace Theater", "height": null, "height_m": null, "levels": null, "tract_id": "40137000300", "tract_name": "3", "tags": {"addr:city": "Duncan", "addr:housenumber": "926", "addr:postcode": "73533", "addr:state": "OK", "addr:street": "West Main Street", "amenity": "cinema", "building": "yes", "name": "Palace Theater", "screen": "2", "wikidata": "Q43192127"}}}, {"type": "Feature", "geometry": {"type": "Polygon", "coordinates": [[[-97.9667868, 34.5063911], [-97.9668035, 34.5063986], [-97.9668223, 34.5064014], [-97.9668412, 34.5063991], [-97.9668582, 34.506392], [-97.9668722, 34.5063802], [-97.9668806, 34.5063652], [-97.9668825, 34.5063488], [-97.9668777, 34.5063328], [-97.9668668, 34.506319], [-97.9668509, 34.506309], [-97.9668318, 34.5063039], [-97.9668118, 34.5063043], [-97.9667931, 34.5063102], [-97.9667778, 34.5063208], [-97.966768, 34.5063343], [-97.9667639, 34.5063496], [-97.9667659, 34.5063653], [-97.9667738, 34.5063796], [-97.9667868, 34.5063911]]]}, "properties": {"osm_id": 821275688, "building": "yes", "name": "", "height": null, "height_m": null, "levels": null, "tract_id": "40137000300", "tract_name": "3", "tags": {"building": "yes"}}}, {"type": "Feature", "geometry": {"type": "Polygon", "coordinates": [[[-97.9659958, 34.5058843], [-97.9660699, 34.5054895], [-97.9656088, 34.5054408], [-97.9655571, 34.505839], [-97.9659958, 34.5058843]]]}, "properties": {"osm_id": 821275689, "building": "yes", "name": "Stephens County Historical Museum", "height": null, "height_m": null, "levels": null, "tract_id": "40137000300", "tract_name": "3", "tags": {"addr:city": "Duncan", "addr:housenumber": "1402", "addr:postcode": "73533", "addr:street": "West Beech Avenue", "building": "yes", "name": "Stephens County Historical Museum", "tourism": "museum", "website": "http://www.stcomuseum.com/"}}}, {"type": "Feature", "geometry": {"type": "Polygon", "coordinates": [[[-97.9658042, 34.5063296], [-97.9658049, 34.5063445], [-97.9658114, 34.5063585], [-97.9658232, 34.5063698], [-97.9658389, 34.5063774], [-97.9658567, 34.5063803], [-97.9658746, 34.5063782], [-97.9658904, 34.5063716], [-97.9659028, 34.5063613], [-97.9659105, 34.5063481], [-97.9659127, 34.5063337], [-97.9659092, 34.5063194], [-97.9659003, 34.5063068], [-97.965887, 34.5062972], [-97.9658707, 34.5062917], [-97.9658526, 34.5062907], [-97.9658351, 34.5062947], [-97.9658202, 34.5063032], [-97.9658095, 34.5063153], [-97.9658042, 34.5063296]]]}, "properties": {"osm_id": 821275690, "building": "yes", "name": "", "height": null, "height_m": null, "levels": null, "tract_id": "40137000300", "tract_name": "3", "tags": {"amenity": "shelter", "building": "yes", "shelter_type": "gazebo"}}}, {"type": "Feature", "geometry": {"type": "Polygon", "coordinates": [[[-97.9567223, 34.5060492], [-97.9567317, 34.5059387], [-97.9564259, 34.5059188], [-97.9564178, 34.506026], [-97.9567223, 34.5060492]]]}, "properties": {"osm_id": 1026602835, "building": "yes", "name": "Stephens County Genealogy Library", "height": null, "height_m": null, "levels": null, "tract_id": "40137000300", "tract_name": "3", "tags": {"addr:city": "Duncan", "addr:housenumber": "321", "addr:postcode": "73533", "addr:state": "OK", "addr:street": "North 8th Street", "amenity": "library", "building": "yes", "name": "Stephens County Genealogy Library", "website": "http://www.scgslib.com/"}}}, {"type": "Feature", "geometry": {"type": "Polygon", "coordinates": [[[-97.9578476, 34.5017535], [-97.9577501, 34.5017445], [-97.9577879, 34.5014719], [-97.9577903, 34.5014582], [-97.9578883, 34.5014677], [-97.9578476, 34.5017535]]]}, "properties": {"osm_id": 1026626781, "building": "yes", "name": "Duncan Little Theatre", "height": null, "height_m": null, "levels": null, "tract_id": "40137000300", "tract_name": "3", "tags": {"addr:city": "Duncan", "addr:housenumber": "824", "addr:postcode": "73533", "addr:state": "OK", "addr:street": "West Main Street", "amenity": "theatre", "building": "yes", "name": "Duncan Little Theatre"}}}, {"type": "Feature", "geometry": {"type": "Polygon", "coordinates": [[[-97.9579501, 34.503919], [-97.9577675, 34.503908], [-97.9577787, 34.503781], [-97.9579613, 34.5037919], [-97.9579501, 34.503919]]]}, "properties": {"osm_id": 1026628590, "building": "yes", "name": "The Foreman Prairie House", "height": null, "height_m": null, "levels": null, "tract_id": "40137000300", "tract_name": "3", "tags": {"addr:city": "Duncan", "addr:housenumber": "814", "addr:postcode": "73533", "addr:state": "OK", "addr:street": "West Oak Avenue", "building": "yes", "name": "The Foreman Prairie House", "tourism": "museum"}}}, {"type": "Feature", "geometry": {"type": "Polygon", "coordinates": [[[-97.9663675, 34.5058328], [-97.9663858, 34.5055782], [-97.9662577, 34.5055681], [-97.9662455, 34.5058278], [-97.9663675, 34.5058328]]]}, "properties": {"osm_id": 1026666456, "building": "yes", "name": "Rock Island 905 Railroad Museum", "height": null, "height_m": null, "levels": null, "tract_id": "40137000300", "tract_name": "3", "tags": {"addr:city": "Duncan", "addr:housenumber": "314", "addr:postcode": "73533", "addr:state": "OK", "addr:street": "North 15th Street", "building": "yes", "name": "Rock Island 905 Railroad Museum", "tourism": "museum", "website": "https://905railroadmuseum.com/"}}}, {"type": "Feature", "geometry": {"type": "Polygon", "coordinates": [[[-97.9665819, 34.5137808], [-97.9665331, 34.5138086], [-97.9664406, 34.5138013], [-97.9664335, 34.5135919], [-97.9665678, 34.5135888], [-97.9665706, 34.5136704], [-97.9665823, 34.5136701], [-97.9665819, 34.5137808]]]}, "properties": {"osm_id": 1056660239, "building": "yes", "name": "Chisholm Corner", "height": null, "height_m": null, "levels": null, "tract_id": "40137000300", "tract_name": "3", "tags": {"addr:city": "Duncan", "addr:housenumber": "908", "addr:postcode": "73533", "addr:street": "North Highway 81", "building": "yes", "name": "Chisholm Corner", "shop": "convenience"}}}, {"type": "Feature", "geometry": {"type": "Polygon", "coordinates": [[[-97.955254, 34.5084628], [-97.955237, 34.5085887], [-97.9551696, 34.5085826], [-97.9551713, 34.5085703], [-97.9551326, 34.5085668], [-97.9551479, 34.5084531], [-97.955254, 34.5084628]]]}, "properties": {"osm_id": 1119486355, "building": "yes", "name": "", "height": null, "height_m": null, "levels": null, "tract_id": "40137000300", "tract_name": "3", "tags": {"building": "yes"}}}, {"type": "Feature", "geometry": {"type": "Polygon", "coordinates": [[[-97.9557375, 34.5085028], [-97.9553315, 34.5084663], [-97.9553108, 34.5086233], [-97.9553258, 34.5086246], [-97.9553011, 34.5088112], [-97.9553734, 34.5088177], [-97.955371, 34.5088364], [-97.9556896, 34.5088651], [-97.9557375, 34.5085028]]]}, "properties": {"osm_id": 1119486358, "building": "church", "name": "Assumption of the Blessed Virgin Mary Catholic Church", "height": null, "height_m": null, "levels": null, "tract_id": "40137000300", "tract_name": "3", "tags": {"addr:city": "Duncan", "addr:housenumber": "711", "addr:postcode": "73533", "addr:state": "OK", "addr:street": "West Hickory Avenue", "amenity": "place_of_worship", "building": "church", "denomination": "roman_catholic", "diocese": "Oklahoma_City", "loc_name": "Assumption Catholic Church", "name": "Assumption of the Blessed Virgin Mary Catholic Church", "phone": "+1-580-255-0590", "religion": "christian", "website": "https://assumptionduncanok.com/"}}}, {"type": "Feature", "geometry": {"type": "Polygon", "coordinates": [[[-97.9664317, 34.5083602], [-97.9663817, 34.5087075], [-97.9659069, 34.5086611], [-97.9659569, 34.5083138], [-97.9664317, 34.5083602]]]}, "properties": {"osm_id": 1164367830, "building": "yes", "name": "", "height": null, "height_m": null, "levels": null, "tract_id": "40137000300", "tract_name": "3", "tags": {"building": "yes"}}}, {"type": "Feature", "geometry": {"type": "Polygon", "coordinates": [[[-97.966631, 34.513957], [-97.9666319, 34.5140883], [-97.9664795, 34.514089], [-97.9664786, 34.5139578], [-97.966631, 34.513957]]]}, "properties": {"osm_id": 1164367839, "building": "yes", "name": "", "height": null, "height_m": null, "levels": null, "tract_id": "40137000300", "tract_name": "3", "tags": {"building": "yes"}}}, {"type": "Feature", "geometry": {"type": "Polygon", "coordinates": [[[-97.9618686, 34.5002675], [-97.962213, 34.5002994], [-97.9621257, 34.5009387], [-97.9617813, 34.5009068], [-97.9618686, 34.5002675]]]}, "properties": {"osm_id": 1164435837, "building": "yes", "name": "", "height": null, "height_m": null, "levels": null, "tract_id": "40137000300", "tract_name": "3", "tags": {"building": "yes"}}}, {"type": "Feature", "geometry": {"type": "Polygon", "coordinates": [[[-97.9622763, 34.5007004], [-97.9626955, 34.5007442], [-97.9626435, 34.5010824], [-97.9622244, 34.5010386], [-97.9622763, 34.5007004]]]}, "properties": {"osm_id": 1164435838, "building": "yes", "name": "", "height": null, "height_m": null, "levels": null, "tract_id": "40137000300", "tract_name": "3", "tags": {"building": "yes"}}}, {"type": "Feature", "geometry": {"type": "Polygon", "coordinates": [[[-97.9648626, 34.5022], [-97.9648478, 34.5023404], [-97.9647396, 34.5023326], [-97.9647544, 34.5021923], [-97.9648626, 34.5022]]]}, "properties": {"osm_id": 1164435839, "building": "yes", "name": "", "height": null, "height_m": null, "levels": null, "tract_id": "40137000300", "tract_name": "3", "tags": {"building": "yes"}}}, {"type": "Feature", "geometry": {"type": "Polygon", "coordinates": [[[-97.9660857, 34.5080088], [-97.9661232, 34.5075933], [-97.9655734, 34.5075402], [-97.9654849, 34.5075689], [-97.9653695, 34.5075667], [-97.96534, 34.5078375], [-97.965285, 34.5078331], [-97.9652797, 34.5079325], [-97.9660857, 34.5080088]]]}, "properties": {"osm_id": 1164435842, "building": "yes", "name": "", "height": null, "height_m": null, "levels": null, "tract_id": "40137000300", "tract_name": "3", "tags": {"building": "yes"}}}, {"type": "Feature", "geometry": {"type": "Polygon", "coordinates": [[[-97.9583474, 34.5020463], [-97.9596782, 34.5021868], [-97.9596503, 34.5023661], [-97.9592164, 34.5023202], [-97.959184, 34.5025285], [-97.9584576, 34.5024517], [-97.9584532, 34.50248], [-97.9582828, 34.502462], [-97.9583474, 34.5020463]]]}, "properties": {"osm_id": 1348765350, "building": "yes", "name": "", "height": null, "height_m": null, "levels": null, "tract_id": "40137000300", "tract_name": "3", "tags": {"building": "yes"}}}, {"type": "Feature", "geometry": {"type": "Polygon", "coordinates": [[[-97.9588797, 34.5025735], [-97.9595476, 34.5026286], [-97.9595332, 34.5027477], [-97.9594078, 34.5027373], [-97.9593813, 34.502955], [-97.9592388, 34.5029432], [-97.9592344, 34.502979], [-97.9588345, 34.502946], [-97.9588797, 34.5025735]]]}, "properties": {"osm_id": 1348765351, "building": "yes", "name": "", "height": null, "height_m": null, "levels": null, "tract_id": "40137000300", "tract_name": "3", "tags": {"building": "yes"}}}, {"type": "Feature", "geometry": {"type": "Polygon", "coordinates": [[[-97.9593568, 34.5018786], [-97.9584072, 34.5017936], [-97.9584579, 34.50143], [-97.9585477, 34.5014385], [-97.9585295, 34.5015688], [-97.9587477, 34.5015895], [-97.9587656, 34.5014614], [-97.9592949, 34.5015117], [-97.9592851, 34.5014742], [-97.9594086, 34.5014887], [-97.9593568, 34.5018786]]]}, "properties": {"osm_id": 1348765352, "building": "yes", "name": "", "height": null, "height_m": null, "levels": null, "tract_id": "40137000300", "tract_name": "3", "tags": {"building": "yes"}}}, {"type": "Feature", "geometry": {"type": "Polygon", "coordinates": [[[-97.9578008, 34.504856], [-97.9578625, 34.504415], [-97.9575891, 34.504389], [-97.9575274, 34.50483], [-97.9578008, 34.504856]]]}, "properties": {"osm_id": 1348765353, "building": "yes", "name": "", "height": null, "height_m": null, "levels": null, "tract_id": "40137000300", "tract_name": "3", "tags": {"building": "yes"}}}, {"type": "Feature", "geometry": {"type": "Polygon", "coordinates": [[[-97.9570218, 34.5048079], [-97.9577551, 34.5048819], [-97.9577204, 34.5051152], [-97.9569871, 34.505041], [-97.9570218, 34.5048079]]]}, "properties": {"osm_id": 1348765354, "building": "yes", "name": "", "height": null, "height_m": null, "levels": null, "tract_id": "40137000300", "tract_name": "3", "tags": {"building": "yes"}}}, {"type": "Feature", "geometry": {"type": "Polygon", "coordinates": [[[-97.9567564, 34.5048758], [-97.9568389, 34.504239], [-97.9566172, 34.5042195], [-97.9565348, 34.5048563], [-97.9567564, 34.5048758]]]}, "properties": {"osm_id": 1348765355, "building": "yes", "name": "", "height": null, "height_m": null, "levels": null, "tract_id": "40137000300", "tract_name": "3", "tags": {"building": "yes"}}}, {"type": "Feature", "geometry": {"type": "Polygon", "coordinates": [[[-97.9581561, 34.5020377], [-97.9581029, 34.502454], [-97.9579098, 34.5024372], [-97.9579253, 34.5023159], [-97.9578862, 34.5023125], [-97.9578729, 34.5024173], [-97.9577315, 34.502405], [-97.9577472, 34.5022818], [-97.9575983, 34.502269], [-97.9575815, 34.5024007], [-97.957412, 34.502386], [-97.9574283, 34.5022579], [-97.9573652, 34.5022525], [-97.9573538, 34.5023416], [-97.957114, 34.5023209], [-97.9571211, 34.5022648], [-97.9569987, 34.5022542], [-97.956992, 34.5023066], [-97.9567633, 34.5022867], [-97.9568101, 34.5019208], [-97.9581561, 34.5020377]]]}, "properties": {"osm_id": 1348765356, "building": "yes", "name": "", "height": null, "height_m": null, "levels": null, "tract_id": "40137000300", "tract_name": "3", "tags": {"building": "yes"}}}, {"type": "Feature", "geometry": {"type": "Polygon", "coordinates": [[[-97.9578476, 34.5017535], [-97.9581884, 34.5017864], [-97.9582441, 34.501398], [-97.9579031, 34.5013648], [-97.9578883, 34.5014677], [-97.9578476, 34.5017535]]]}, "properties": {"osm_id": 1348765357, "building": "yes", "name": "", "height": null, "height_m": null, "levels": null, "tract_id": "40137000300", "tract_name": "3", "tags": {"building": "yes"}}}, {"type": "Feature", "geometry": {"type": "Polygon", "coordinates": [[[-97.9584246, 34.5013585], [-97.958482, 34.5009527], [-97.9589927, 34.5010017], [-97.9589352, 34.5014076], [-97.9584246, 34.5013585]]]}, "properties": {"osm_id": 1348765358, "building": "yes", "name": "", "height": null, "height_m": null, "levels": null, "tract_id": "40137000300", "tract_name": "3", "tags": {"building": "yes"}}}, {"type": "Feature", "geometry": {"type": "Polygon", "coordinates": [[[-97.959899, 34.5004644], [-97.9598583, 34.5008044], [-97.9598063, 34.5008205], [-97.9591143, 34.5007658], [-97.9591517, 34.5004446], [-97.959344, 34.5004598], [-97.9593271, 34.5006042], [-97.9594864, 34.5006169], [-97.9595015, 34.5004881], [-97.9595504, 34.500492], [-97.9595318, 34.5006492], [-97.9596109, 34.5006556], [-97.9596363, 34.5004431], [-97.959899, 34.5004644]]]}, "properties": {"osm_id": 1348765359, "building": "yes", "name": "", "height": null, "height_m": null, "levels": null, "tract_id": "40137000300", "tract_name": "3", "tags": {"building": "yes"}}}, {"type": "Feature", "geometry": {"type": "Polygon", "coordinates": [[[-97.9582477, 34.5013375], [-97.9582789, 34.5010939], [-97.9577962, 34.5010519], [-97.957765, 34.5012956], [-97.9582477, 34.5013375]]]}, "properties": {"osm_id": 1348765360, "building": "yes", "name": "", "height": null, "height_m": null, "levels": null, "tract_id": "40137000300", "tract_name": "3", "tags": {"building": "yes"}}}, {"type": "Feature", "geometry": {"type": "Polygon", "coordinates": [[[-97.9577501, 34.5017445], [-97.956852, 34.50166], [-97.9569034, 34.5012893], [-97.9571378, 34.5013114], [-97.9571237, 34.5014127], [-97.9575387, 34.5014518], [-97.9575526, 34.5013519], [-97.9577467, 34.5013702], [-97.9577333, 34.5014667], [-97.9577879, 34.5014719], [-97.9577501, 34.5017445]]]}, "properties": {"osm_id": 1348765361, "building": "yes", "name": "", "height": null, "height_m": null, "levels": null, "tract_id": "40137000300", "tract_name": "3", "tags": {"building": "yes"}}}, {"type": "Feature", "geometry": {"type": "Polygon", "coordinates": [[[-97.9562877, 34.5018887], [-97.9566466, 34.501919], [-97.956607, 34.5022369], [-97.9562481, 34.5022066], [-97.9562877, 34.5018887]]]}, "properties": {"osm_id": 1348765362, "building": "yes", "name": "", "height": null, "height_m": null, "levels": null, "tract_id": "40137000300", "tract_name": "3", "tags": {"building": "yes"}}}, {"type": "Feature", "geometry": {"type": "Polygon", "coordinates": [[[-97.9567345, 34.5012522], [-97.9566739, 34.5016425], [-97.9565431, 34.5016287], [-97.9566039, 34.5012384], [-97.9567345, 34.5012522]]]}, "properties": {"osm_id": 1348765363, "building": "yes", "name": "", "height": null, "height_m": null, "levels": null, "tract_id": "40137000300", "tract_name": "3", "tags": {"building": "yes"}}}, {"type": "Feature", "geometry": {"type": "Polygon", "coordinates": [[[-97.9586882, 34.5025551], [-97.9586673, 34.5027056], [-97.9582494, 34.5026663], [-97.9582703, 34.5025157], [-97.9586882, 34.5025551]]]}, "properties": {"osm_id": 1348765364, "building": "yes", "name": "", "height": null, "height_m": null, "levels": null, "tract_id": "40137000300", "tract_name": "3", "tags": {"building": "yes"}}}, {"type": "Feature", "geometry": {"type": "Polygon", "coordinates": [[[-97.9568421, 34.5029895], [-97.9580259, 34.5031203], [-97.9579777, 34.5034168], [-97.9578895, 34.5034071], [-97.9578811, 34.5034588], [-97.9577063, 34.5034395], [-97.957696, 34.5035025], [-97.9567752, 34.5034008], [-97.9568421, 34.5029895]]]}, "properties": {"osm_id": 1348765365, "building": "yes", "name": "", "height": null, "height_m": null, "levels": null, "tract_id": "40137000300", "tract_name": "3", "tags": {"building": "yes"}}}, {"type": "Feature", "geometry": {"type": "Polygon", "coordinates": [[[-97.9554716, 34.5015289], [-97.955752, 34.5015546], [-97.9558089, 34.5011333], [-97.9555283, 34.5011076], [-97.9554716, 34.5015289]]]}, "properties": {"osm_id": 1348765366, "building": "yes", "name": "", "height": null, "height_m": null, "levels": null, "tract_id": "40137000300", "tract_name": "3", "tags": {"building": "yes"}}}, {"type": "Feature", "geometry": {"type": "Polygon", "coordinates": [[[-97.9559029, 34.5018674], [-97.9561451, 34.5018884], [-97.9560996, 34.5022452], [-97.9559534, 34.5022325], [-97.9559655, 34.5021381], [-97.9558694, 34.5021297], [-97.9559029, 34.5018674]]]}, "properties": {"osm_id": 1348765367, "building": "yes", "name": "", "height": null, "height_m": null, "levels": null, "tract_id": "40137000300", "tract_name": "3", "tags": {"building": "yes"}}}, {"type": "Feature", "geometry": {"type": "Polygon", "coordinates": [[[-97.9600775, 34.5003634], [-97.9601175, 34.5000076], [-97.9604188, 34.5000306], [-97.9603913, 34.5002757], [-97.9602894, 34.5002679], [-97.9602769, 34.5003786], [-97.9600775, 34.5003634]]]}, "properties": {"osm_id": 1348765368, "building": "yes", "name": "", "height": null, "height_m": null, "levels": null, "tract_id": "40137000300", "tract_name": "3", "tags": {"building": "yes"}}}, {"type": "Feature", "geometry": {"type": "Polygon", "coordinates": [[[-97.9604025, 34.5022681], [-97.9606111, 34.5022882], [-97.9605684, 34.5025892], [-97.9603599, 34.5025691], [-97.9604025, 34.5022681]]]}, "properties": {"osm_id": 1348765369, "building": "yes", "name": "", "height": null, "height_m": null, "levels": null, "tract_id": "40137000300", "tract_name": "3", "tags": {"building": "yes"}}}, {"type": "Feature", "geometry": {"type": "Polygon", "coordinates": [[[-97.9554457, 34.501812], [-97.9557577, 34.5018417], [-97.955721, 34.5021033], [-97.955409, 34.5020735], [-97.9554457, 34.501812]]]}, "properties": {"osm_id": 1348765370, "building": "yes", "name": "", "height": null, "height_m": null, "levels": null, "tract_id": "40137000300", "tract_name": "3", "tags": {"building": "yes"}}}, {"type": "Feature", "geometry": {"type": "Polygon", "coordinates": [[[-97.9560605, 34.5012382], [-97.9560096, 34.5016108], [-97.9558641, 34.5015973], [-97.9559149, 34.5012247], [-97.9560605, 34.5012382]]]}, "properties": {"osm_id": 1348765371, "building": "yes", "name": "", "height": null, "height_m": null, "levels": null, "tract_id": "40137000300", "tract_name": "3", "tags": {"building": "yes"}}}, {"type": "Feature", "geometry": {"type": "Polygon", "coordinates": [[[-97.9563468, 34.500789], [-97.9568033, 34.5008334], [-97.9567526, 34.501187], [-97.9562961, 34.5011425], [-97.9563468, 34.500789]]]}, "properties": {"osm_id": 1348765372, "building": "yes", "name": "", "height": null, "height_m": null, "levels": null, "tract_id": "40137000300", "tract_name": "3", "tags": {"building": "yes"}}}, {"type": "Feature", "geometry": {"type": "Polygon", "coordinates": [[[-97.9606258, 34.5019786], [-97.9609725, 34.5020172], [-97.9609798, 34.5019723], [-97.9612104, 34.5019979], [-97.9612619, 34.5016832], [-97.960996, 34.5016536], [-97.9609815, 34.5017424], [-97.9606702, 34.5017078], [-97.9606258, 34.5019786]]]}, "properties": {"osm_id": 1348765373, "building": "yes", "name": "", "height": null, "height_m": null, "levels": null, "tract_id": "40137000300", "tract_name": "3", "tags": {"building": "yes"}}}, {"type": "Feature", "geometry": {"type": "Polygon", "coordinates": [[[-97.9598077, 34.5036687], [-97.9598613, 34.5032747], [-97.9602326, 34.503309], [-97.960179, 34.503703], [-97.9598077, 34.5036687]]]}, "properties": {"osm_id": 1348765374, "building": "yes", "name": "", "height": null, "height_m": null, "levels": null, "tract_id": "40137000300", "tract_name": "3", "tags": {"building": "yes"}}}]}