{"type": "FeatureCollection", "features": [{"type": "Feature", "geometry": {"type": "Polygon", "coordinates": [[[-95.6044907, 36.33033], [-95.6040136, 36.3303283], [-95.6040121, 36.3306213], [-95.6038503, 36.3306207], [-95.6038518, 36.3303295], [-95.6036829, 36.3303289], [-95.6036823, 36.3304472], [-95.6036389, 36.3304471], [-95.6036411, 36.3300407], [-95.6032659, 36.3300394], [-95.6032662, 36.3299903], [-95.6030577, 36.3299895], [-95.6030576, 36.3300076], [-95.6029782, 36.3300073], [-95.6029796, 36.3297608], [-95.6027203, 36.3297598], [-95.6027187, 36.330033], [-95.6022611, 36.3300313], [-95.6022602, 36.3301774], [-95.6023952, 36.3301779], [-95.6023936, 36.3304576], [-95.6024789, 36.3304579], [-95.6024761, 36.3309515], [-95.6024015, 36.3309512], [-95.6024012, 36.3310091], [-95.6025122, 36.3310095], [-95.6025119, 36.3310663], [-95.6025877, 36.3310666], [-95.6025837, 36.3317791], [-95.6026845, 36.3317795], [-95.6026839, 36.3318908], [-95.6027224, 36.331891], [-95.6027227, 36.3318326], [-95.603449, 36.3318351], [-95.6034493, 36.3317798], [-95.6036252, 36.3317804], [-95.6036262, 36.331578], [-95.6036705, 36.3315782], [-95.6036707, 36.3315409], [-95.6037728, 36.3315413], [-95.6038043, 36.3314931], [-95.6038337, 36.3314935], [-95.6039128, 36.3313827], [-95.6038713, 36.3313825], [-95.6038715, 36.331331], [-95.6038398, 36.3313309], [-95.6038429, 36.3306667], [-95.6040144, 36.3306672], [-95.604013, 36.3309632], [-95.6040587, 36.3309634], [-95.6040587, 36.3309714], [-95.6044258, 36.3309726], [-95.6044259, 36.3309629], [-95.6044754, 36.3309631], [-95.6044763, 36.3307979], [-95.6045468, 36.3307981], [-95.6045477, 36.330629], [-95.6044892, 36.3306288], [-95.6044907, 36.33033]]]}, "properties": {"osm_id": 195652596, "building": "industrial", "name": "", "height": null, "height_m": null, "levels": null, "tract_id": "40131050201", "tract_name": "502.01", "tags": {"building": "industrial"}}}, {"type": "Feature", "geometry": {"type": "Polygon", "coordinates": [[[-95.6033516, 36.3221877], [-95.6033507, 36.3223084], [-95.6032221, 36.3223077], [-95.6032218, 36.3223502], [-95.6030619, 36.3223494], [-95.6030631, 36.3221862], [-95.6033516, 36.3221877]]]}, "properties": {"osm_id": 195654657, "building": "commercial", "name": "Davita", "height": null, "height_m": null, "levels": null, "tract_id": "40131050201", "tract_name": "502.01", "tags": {"amenity": "doctors", "building": "commercial", "name": "Davita"}}}, {"type": "Feature", "geometry": {"type": "Polygon", "coordinates": [[[-95.6056852, 36.3344846], [-95.605558, 36.334443], [-95.6055898, 36.3343798], [-95.6054991, 36.3343502], [-95.6055155, 36.3343177], [-95.6055729, 36.3343365], [-95.6056182, 36.3342466], [-95.6055608, 36.3342278], [-95.6056513, 36.3340481], [-95.6053973, 36.3339651], [-95.6054298, 36.3339007], [-95.6052731, 36.3338494], [-95.6051524, 36.3340889], [-95.6050214, 36.3340461], [-95.6043996, 36.3352799], [-95.6042908, 36.3354959], [-95.6041473, 36.335449], [-95.603828, 36.3360825], [-95.6039783, 36.3361317], [-95.6040007, 36.3360873], [-95.6040669, 36.3361089], [-95.6041329, 36.335978], [-95.6046029, 36.3361317], [-95.6048565, 36.3356284], [-95.6050731, 36.3356992], [-95.6051649, 36.335517], [-95.6056852, 36.3344846]]]}, "properties": {"osm_id": 354122610, "building": "industrial", "name": "AXH Air Coolers", "height": null, "height_m": null, "levels": null, "tract_id": "40131050201", "tract_name": "502.01", "tags": {"addr:city": "Claremore", "addr:country": "US", "addr:housenumber": "401", "addr:postcode": "74017", "addr:state": "OK", "addr:street": "East Lowry Road", "building": "industrial", "name": "AXH Air Coolers"}}}, {"type": "Feature", "geometry": {"type": "Polygon", "coordinates": [[[-95.6102457, 36.3306819], [-95.6102478, 36.3304689], [-95.6101948, 36.3304261], [-95.6101955, 36.3304067], [-95.6102484, 36.3304069], [-95.6102498, 36.3302642], [-95.6100225, 36.3302627], [-95.6100215, 36.3303688], [-95.609934, 36.3303683], [-95.6099376, 36.3300037], [-95.6098383, 36.3300031], [-95.6098386, 36.3299699], [-95.6099379, 36.3299706], [-95.6099425, 36.3295023], [-95.6097751, 36.3295013], [-95.6097767, 36.3293405], [-95.6094448, 36.3293384], [-95.6094441, 36.3294191], [-95.609252, 36.3294179], [-95.6092512, 36.329498], [-95.6088753, 36.3294956], [-95.608876, 36.329427], [-95.6086129, 36.3294254], [-95.6086015, 36.3305893], [-95.6084561, 36.3305884], [-95.6084544, 36.3307588], [-95.6084738, 36.3307589], [-95.6084732, 36.3308244], [-95.6098551, 36.3308332], [-95.6098559, 36.3307511], [-95.6099298, 36.3307516], [-95.6099331, 36.3304115], [-95.610021, 36.3304121], [-95.6100184, 36.3306804], [-95.6102457, 36.3306819]]]}, "properties": {"osm_id": 354122660, "building": "industrial", "name": "Baker Hughes", "height": null, "height_m": null, "levels": null, "tract_id": "40131050201", "tract_name": "502.01", "tags": {"addr:city": "Claremore", "addr:country": "US", "addr:housenumber": "2210", "addr:postcode": "74017", "addr:state": "OK", "addr:street": "E. L. Anderson Boulevard", "building": "industrial", "name": "Baker Hughes"}}}, {"type": "Feature", "geometry": {"type": "Polygon", "coordinates": [[[-95.5708499, 36.3321453], [-95.5709729, 36.3321532], [-95.570985, 36.33203], [-95.5710831, 36.3320363], [-95.5710684, 36.3321857], [-95.571053, 36.3321847], [-95.5710481, 36.3322341], [-95.5710141, 36.332232], [-95.5710058, 36.3323169], [-95.5708342, 36.332306], [-95.5708499, 36.3321453]]]}, "properties": {"osm_id": 354122743, "building": "house", "name": "", "height": null, "height_m": null, "levels": null, "tract_id": "40131050201", "tract_name": "502.01", "tags": {"addr:city": "Claremore", "addr:country": "US", "addr:housenumber": "14525", "addr:postcode": "74017", "addr:state": "OK", "addr:street": "East Quail Run", "building": "house"}}}, {"type": "Feature", "geometry": {"type": "Polygon", "coordinates": [[[-95.6113079, 36.3301643], [-95.6111946, 36.3303626], [-95.6108644, 36.3302401], [-95.6108358, 36.3302901], [-95.610647, 36.3302201], [-95.6107606, 36.3300214], [-95.6108947, 36.3300712], [-95.6109231, 36.3300215], [-95.6113079, 36.3301643]]]}, "properties": {"osm_id": 354122864, "building": "yes", "name": "", "height": null, "height_m": null, "levels": null, "tract_id": "40131050201", "tract_name": "502.01", "tags": {"building": "yes"}}}, {"type": "Feature", "geometry": {"type": "Polygon", "coordinates": [[[-95.5826272, 36.3262997], [-95.5825657, 36.3263248], [-95.5825174, 36.3262481], [-95.5825789, 36.326223], [-95.5826272, 36.3262997]]]}, "properties": {"osm_id": 418603778, "building": "roof", "name": "", "height": null, "height_m": null, "levels": null, "tract_id": "40131050201", "tract_name": "502.01", "tags": {"building": "roof", "tourism": "picnic_site"}}}, {"type": "Feature", "geometry": {"type": "Polygon", "coordinates": [[[-95.6080377, 36.335784], [-95.6080323, 36.336], [-95.607828, 36.3359967], [-95.6078334, 36.3357807], [-95.6080377, 36.335784]]]}, "properties": {"osm_id": 502714280, "building": "yes", "name": "", "height": null, "height_m": null, "levels": null, "tract_id": "40131050201", "tract_name": "502.01", "tags": {"building": "yes"}}}, {"type": "Feature", "geometry": {"type": "Polygon", "coordinates": [[[-95.6091133, 36.335959], [-95.6088424, 36.3358941], [-95.6089254, 36.3356689], [-95.6091963, 36.3357337], [-95.6091133, 36.335959]]]}, "properties": {"osm_id": 502714281, "building": "yes", "name": "", "height": null, "height_m": null, "levels": null, "tract_id": "40131050201", "tract_name": "502.01", "tags": {"building": "yes"}}}, {"type": "Feature", "geometry": {"type": "Polygon", "coordinates": [[[-95.6003036, 36.3269052], [-95.6000367, 36.3269031], [-95.6000394, 36.3266824], [-95.6003063, 36.3266846], [-95.6003036, 36.3269052]]]}, "properties": {"osm_id": 502714350, "building": "yes", "name": "", "height": null, "height_m": null, "levels": null, "tract_id": "40131050201", "tract_name": "502.01", "tags": {"building": "yes"}}}, {"type": "Feature", "geometry": {"type": "Polygon", "coordinates": [[[-95.5999468, 36.3273374], [-95.5995982, 36.3273356], [-95.5996009, 36.327005], [-95.5999495, 36.3270068], [-95.5999468, 36.3273374]]]}, "properties": {"osm_id": 502714351, "building": "yes", "name": "", "height": null, "height_m": null, "levels": null, "tract_id": "40131050201", "tract_name": "502.01", "tags": {"building": "yes"}}}, {"type": "Feature", "geometry": {"type": "Polygon", "coordinates": [[[-95.5997014, 36.3264666], [-95.5992803, 36.3264666], [-95.5992803, 36.326244], [-95.5997014, 36.326244], [-95.5997014, 36.3264666]]]}, "properties": {"osm_id": 502714352, "building": "yes", "name": "", "height": null, "height_m": null, "levels": null, "tract_id": "40131050201", "tract_name": "502.01", "tags": {"building": "yes"}}}, {"type": "Feature", "geometry": {"type": "Polygon", "coordinates": [[[-95.5992562, 36.3257232], [-95.5992535, 36.3261295], [-95.5989795, 36.3261283], [-95.5989822, 36.325722], [-95.5992562, 36.3257232]]]}, "properties": {"osm_id": 502714353, "building": "yes", "name": "", "height": null, "height_m": null, "levels": null, "tract_id": "40131050201", "tract_name": "502.01", "tags": {"building": "yes"}}}, {"type": "Feature", "geometry": {"type": "Polygon", "coordinates": [[[-95.5973853, 36.3320459], [-95.5971117, 36.3320455], [-95.5971131, 36.3314394], [-95.5973867, 36.3314398], [-95.5973853, 36.3320459]]]}, "properties": {"osm_id": 674342663, "building": "yes", "name": "Claremore Community Center", "height": null, "height_m": null, "levels": null, "tract_id": "40131050201", "tract_name": "502.01", "tags": {"amenity": "community_centre", "building": "yes", "name": "Claremore Community Center"}}}, {"type": "Feature", "geometry": {"type": "Polygon", "coordinates": [[[-95.6012918, 36.333985], [-95.6012945, 36.3336544], [-95.6012033, 36.3336566], [-95.601206, 36.3333173], [-95.6025712, 36.3333152], [-95.6025685, 36.3336112], [-95.6027804, 36.3336069], [-95.6027777, 36.3339331], [-95.6025712, 36.333931], [-95.6025712, 36.3339828], [-95.6012918, 36.333985]]]}, "properties": {"osm_id": 705565787, "building": "yes", "name": "", "height": null, "height_m": null, "levels": null, "tract_id": "40131050201", "tract_name": "502.01", "tags": {"building": "yes"}}}, {"type": "Feature", "geometry": {"type": "Polygon", "coordinates": [[[-95.6046955, 36.3287213], [-95.6052454, 36.328717], [-95.6052427, 36.3283151], [-95.6056987, 36.3283086], [-95.6057094, 36.3278375], [-95.6056504, 36.3278375], [-95.6056531, 36.327347], [-95.6051381, 36.3273491], [-95.6051381, 36.3277273], [-95.6046902, 36.3277251], [-95.6046955, 36.3279499], [-95.6045855, 36.3279477], [-95.6045909, 36.3280255], [-95.6046767, 36.3280277], [-95.6046767, 36.3283086], [-95.6047009, 36.3283086], [-95.6046955, 36.3287213]]]}, "properties": {"osm_id": 705565801, "building": "yes", "name": "", "height": null, "height_m": null, "levels": null, "tract_id": "40131050201", "tract_name": "502.01", "tags": {"building": "yes"}}}, {"type": "Feature", "geometry": {"type": "Polygon", "coordinates": [[[-95.6070382, 36.3275465], [-95.6070372, 36.3275538], [-95.6070186, 36.327552], [-95.6070256, 36.327651], [-95.6070442, 36.3276527], [-95.6070424, 36.3277057], [-95.6072379, 36.3277237], [-95.6072434, 36.3276728], [-95.6073219, 36.3276789], [-95.6073215, 36.3277258], [-95.6073635, 36.3277302], [-95.6073685, 36.3276787], [-95.6074798, 36.327688], [-95.6074919, 36.3275872], [-95.6070382, 36.3275465]]]}, "properties": {"osm_id": 705586932, "building": "yes", "name": "", "height": null, "height_m": null, "levels": null, "tract_id": "40131050201", "tract_name": "502.01", "tags": {"amenity": "veterinary", "building": "yes"}}}, {"type": "Feature", "geometry": {"type": "Polygon", "coordinates": [[[-95.6071135, 36.327197], [-95.6070875, 36.3273215], [-95.6071451, 36.3273309], [-95.6071349, 36.3273762], [-95.6072419, 36.3273904], [-95.6072569, 36.3273141], [-95.6077784, 36.3273899], [-95.6077987, 36.3272997], [-95.6071135, 36.327197]]]}, "properties": {"osm_id": 705586935, "building": "yes", "name": "Claremore Motor Inn", "height": null, "height_m": null, "levels": null, "tract_id": "40131050201", "tract_name": "502.01", "tags": {"building": "yes", "name": "Claremore Motor Inn", "tourism": "motel"}}}, {"type": "Feature", "geometry": {"type": "Polygon", "coordinates": [[[-95.6071503, 36.327139], [-95.6072149, 36.3269763], [-95.6073852, 36.3270207], [-95.6073175, 36.3271798], [-95.6071503, 36.327139]]]}, "properties": {"osm_id": 705586937, "building": "commercial", "name": "", "height": null, "height_m": null, "levels": null, "tract_id": "40131050201", "tract_name": "502.01", "tags": {"building": "commercial"}}}, {"type": "Feature", "geometry": {"type": "Polygon", "coordinates": [[[-95.6074032, 36.3271811], [-95.6074675, 36.3270199], [-95.6078561, 36.3271211], [-95.6077929, 36.3272825], [-95.6074032, 36.3271811]]]}, "properties": {"osm_id": 705586938, "building": "commercial", "name": "", "height": null, "height_m": null, "levels": null, "tract_id": "40131050201", "tract_name": "502.01", "tags": {"building": "commercial"}}}, {"type": "Feature", "geometry": {"type": "Polygon", "coordinates": [[[-95.6076124, 36.3268386], [-95.6077318, 36.3268705], [-95.6077888, 36.3267376], [-95.6076714, 36.3267041], [-95.6076124, 36.3268386]]]}, "properties": {"osm_id": 705586941, "building": "commercial", "name": "", "height": null, "height_m": null, "levels": null, "tract_id": "40131050201", "tract_name": "502.01", "tags": {"building": "commercial"}}}, {"type": "Feature", "geometry": {"type": "Polygon", "coordinates": [[[-95.6077821, 36.3269715], [-95.6079504, 36.3270137], [-95.6080382, 36.3267894], [-95.6078693, 36.3267473], [-95.6077821, 36.3269715]]]}, "properties": {"osm_id": 705586942, "building": "commercial", "name": "", "height": null, "height_m": null, "levels": null, "tract_id": "40131050201", "tract_name": "502.01", "tags": {"building": "commercial"}}}, {"type": "Feature", "geometry": {"type": "Polygon", "coordinates": [[[-95.6061252, 36.326958], [-95.6058596, 36.326958], [-95.6058543, 36.3265734], [-95.6061198, 36.3265755], [-95.6061252, 36.326958]]]}, "properties": {"osm_id": 705586943, "building": "commercial", "name": "Dollar General", "height": null, "height_m": null, "levels": null, "tract_id": "40131050201", "tract_name": "502.01", "tags": {"brand": "Dollar General", "brand:wikidata": "Q145168", "building": "commercial", "name": "Dollar General", "shop": "variety_store"}}}, {"type": "Feature", "geometry": {"type": "Polygon", "coordinates": [[[-95.6076433, 36.3265738], [-95.6077528, 36.3263954], [-95.6078461, 36.326434], [-95.6077379, 36.3266124], [-95.6076433, 36.3265738]]]}, "properties": {"osm_id": 705586944, "building": "commercial", "name": "", "height": null, "height_m": null, "levels": null, "tract_id": "40131050201", "tract_name": "502.01", "tags": {"building": "commercial"}}}, {"type": "Feature", "geometry": {"type": "Polygon", "coordinates": [[[-95.6075877, 36.3259649], [-95.6076491, 36.3259894], [-95.6076959, 36.3259153], [-95.6076318, 36.3258887], [-95.6075877, 36.3259649]]]}, "properties": {"osm_id": 705586953, "building": "roof", "name": "Sinclair", "height": null, "height_m": null, "levels": null, "tract_id": "40131050201", "tract_name": "502.01", "tags": {"amenity": "fuel", "brand": "Sinclair", "brand:wikidata": "Q1290900", "building": "roof", "name": "Sinclair"}}}, {"type": "Feature", "geometry": {"type": "Polygon", "coordinates": [[[-95.6078168, 36.3258608], [-95.6079683, 36.3258795], [-95.6079944, 36.3257396], [-95.6078415, 36.3257186], [-95.6078168, 36.3258608]]]}, "properties": {"osm_id": 705586954, "building": "yes", "name": "Sinclair", "height": null, "height_m": null, "levels": null, "tract_id": "40131050201", "tract_name": "502.01", "tags": {"amenity": "fuel", "atm": "yes", "brand": "Sinclair", "brand:wikidata": "Q1290900", "building": "yes", "car_wash": "yes", "check_date": "2024-09-25", "compressed_air": "yes", "name": "Sinclair", "phone": "+1 918-341-3299", "website": "https://stations.sinclairoil.com/ok/claremore/1699-n-lynn-riggs-blvd"}}}, {"type": "Feature", "geometry": {"type": "Polygon", "coordinates": [[[-95.6079748, 36.3260225], [-95.6080447, 36.3260493], [-95.6081807, 36.3258322], [-95.6080999, 36.3257988], [-95.6080561, 36.3258693], [-95.6080678, 36.3258738], [-95.6079748, 36.3260225]]]}, "properties": {"osm_id": 705586956, "building": "commercial", "name": "", "height": null, "height_m": null, "levels": null, "tract_id": "40131050201", "tract_name": "502.01", "tags": {"building": "commercial"}}}, {"type": "Feature", "geometry": {"type": "Polygon", "coordinates": [[[-95.6065355, 36.32532], [-95.6061037, 36.3252184], [-95.6062324, 36.324864], [-95.6061037, 36.3248338], [-95.606109, 36.32481], [-95.6060661, 36.3248014], [-95.6060769, 36.3247668], [-95.6061171, 36.3247754], [-95.6063799, 36.3240169], [-95.6064229, 36.3239932], [-95.6069566, 36.3241207], [-95.6065355, 36.32532]]]}, "properties": {"osm_id": 705586957, "building": "commercial", "name": "", "height": null, "height_m": null, "levels": null, "tract_id": "40131050201", "tract_name": "502.01", "tags": {"building": "commercial"}}}, {"type": "Feature", "geometry": {"type": "Polygon", "coordinates": [[[-95.6085049, 36.3253168], [-95.6084057, 36.3252714], [-95.6084298, 36.3252369], [-95.6083685, 36.3252058], [-95.6084141, 36.3251445], [-95.6085746, 36.3252137], [-95.6085049, 36.3253168]]]}, "properties": {"osm_id": 705586964, "building": "commercial", "name": "", "height": null, "height_m": null, "levels": null, "tract_id": "40131050201", "tract_name": "502.01", "tags": {"building": "commercial"}}}, {"type": "Feature", "geometry": {"type": "Polygon", "coordinates": [[[-95.6085577, 36.3248638], [-95.6085921, 36.3248371], [-95.6085909, 36.3247816], [-95.6086008, 36.3247813], [-95.6085988, 36.324721], [-95.6090864, 36.3247124], [-95.6090895, 36.3248405], [-95.6088854, 36.3248454], [-95.608887, 36.3248722], [-95.6086359, 36.3248767], [-95.6086043, 36.3248995], [-95.6085577, 36.3248638]]]}, "properties": {"osm_id": 705586967, "building": "commercial", "name": "", "height": null, "height_m": null, "levels": null, "tract_id": "40131050201", "tract_name": "502.01", "tags": {"building": "commercial"}}}, {"type": "Feature", "geometry": {"type": "Polygon", "coordinates": [[[-95.6079329, 36.3238657], [-95.6081073, 36.3238635], [-95.6081073, 36.3237684], [-95.6083862, 36.3237663], [-95.6083809, 36.3236301], [-95.60811, 36.3236323], [-95.6081073, 36.3236863], [-95.6079839, 36.3236863], [-95.6079839, 36.323723], [-95.6079303, 36.3237209], [-95.6079329, 36.3238657]]]}, "properties": {"osm_id": 705586968, "building": "commercial", "name": "", "height": null, "height_m": null, "levels": null, "tract_id": "40131050201", "tract_name": "502.01", "tags": {"building": "commercial"}}}, {"type": "Feature", "geometry": {"type": "Polygon", "coordinates": [[[-95.6087753, 36.3245932], [-95.6087762, 36.3245089], [-95.6095272, 36.3245197], [-95.6095236, 36.324604], [-95.6087753, 36.3245932]]]}, "properties": {"osm_id": 705586971, "building": "yes", "name": "", "height": null, "height_m": null, "levels": null, "tract_id": "40131050201", "tract_name": "502.01", "tags": {"building": "yes", "shop": "storage_rental"}}}, {"type": "Feature", "geometry": {"type": "Polygon", "coordinates": [[[-95.6091347, 36.3244333], [-95.6091347, 36.3243511], [-95.6096479, 36.3243562], [-95.6096469, 36.3244391], [-95.6091347, 36.3244333]]]}, "properties": {"osm_id": 705586972, "building": "yes", "name": "", "height": null, "height_m": null, "levels": null, "tract_id": "40131050201", "tract_name": "502.01", "tags": {"building": "yes", "shop": "storage_rental"}}}, {"type": "Feature", "geometry": {"type": "Polygon", "coordinates": [[[-95.6092365, 36.3242709], [-95.6092392, 36.3241823], [-95.6097511, 36.3241915], [-95.6097488, 36.3242764], [-95.6092365, 36.3242709]]]}, "properties": {"osm_id": 705586973, "building": "yes", "name": "", "height": null, "height_m": null, "levels": null, "tract_id": "40131050201", "tract_name": "502.01", "tags": {"building": "yes", "shop": "storage_rental"}}}, {"type": "Feature", "geometry": {"type": "Polygon", "coordinates": [[[-95.6092475, 36.3241158], [-95.6092475, 36.3240272], [-95.609553, 36.3240326], [-95.6095524, 36.3240589], [-95.6096886, 36.3240596], [-95.6096873, 36.3241202], [-95.6092475, 36.3241158]]]}, "properties": {"osm_id": 705586974, "building": "yes", "name": "", "height": null, "height_m": null, "levels": null, "tract_id": "40131050201", "tract_name": "502.01", "tags": {"building": "yes", "shop": "storage_rental"}}}, {"type": "Feature", "geometry": {"type": "Polygon", "coordinates": [[[-95.6088542, 36.3243173], [-95.6090366, 36.3244146], [-95.6091531, 36.3242774], [-95.6089707, 36.3241744], [-95.6088542, 36.3243173]]]}, "properties": {"osm_id": 705586975, "building": "yes", "name": "", "height": null, "height_m": null, "levels": null, "tract_id": "40131050201", "tract_name": "502.01", "tags": {"building": "yes", "shop": "storage_rental"}}}, {"type": "Feature", "geometry": {"type": "Polygon", "coordinates": [[[-95.6093518, 36.3238484], [-95.609899, 36.3240688], [-95.6099982, 36.3239132], [-95.6099097, 36.3238765], [-95.6098963, 36.3238981], [-95.6094269, 36.3236993], [-95.6093518, 36.3238484]]]}, "properties": {"osm_id": 705586976, "building": "commercial", "name": "", "height": null, "height_m": null, "levels": null, "tract_id": "40131050201", "tract_name": "502.01", "tags": {"building": "commercial"}}}, {"type": "Feature", "geometry": {"type": "Polygon", "coordinates": [[[-95.6097703, 36.3233125], [-95.6098266, 36.3232066], [-95.609907, 36.3232411], [-95.609848, 36.3233405], [-95.6097703, 36.3233125]]]}, "properties": {"osm_id": 705586981, "building": "commercial", "name": "", "height": null, "height_m": null, "levels": null, "tract_id": "40131050201", "tract_name": "502.01", "tags": {"building": "commercial"}}}, {"type": "Feature", "geometry": {"type": "Polygon", "coordinates": [[[-95.6089093, 36.3229861], [-95.6090809, 36.3229861], [-95.6090817, 36.3229535], [-95.6090917, 36.3225453], [-95.60892, 36.3225453], [-95.6089093, 36.3229861]]]}, "properties": {"osm_id": 705640835, "building": "commercial", "name": "", "height": null, "height_m": null, "levels": null, "tract_id": "40131050201", "tract_name": "502.01", "tags": {"building": "commercial"}}}, {"type": "Feature", "geometry": {"type": "Polygon", "coordinates": [[[-95.6099285, 36.3231439], [-95.6100492, 36.3229451], [-95.6104354, 36.3231007], [-95.6103067, 36.3233016], [-95.6099285, 36.3231439]]]}, "properties": {"osm_id": 705640837, "building": "commercial", "name": "", "height": null, "height_m": null, "levels": null, "tract_id": "40131050201", "tract_name": "502.01", "tags": {"building": "commercial"}}}, {"type": "Feature", "geometry": {"type": "Polygon", "coordinates": [[[-95.6105642, 36.32285], [-95.6102584, 36.3227247], [-95.6103523, 36.3225712], [-95.6104676, 36.3225431], [-95.6106876, 36.3226447], [-95.6105642, 36.32285]]]}, "properties": {"osm_id": 705640842, "building": "commercial", "name": "", "height": null, "height_m": null, "levels": null, "tract_id": "40131050201", "tract_name": "502.01", "tags": {"building": "commercial"}}}, {"type": "Feature", "geometry": {"type": "Polygon", "coordinates": [[[-95.610589, 36.3220828], [-95.6105937, 36.3219889], [-95.6110644, 36.321991], [-95.6110631, 36.3220834], [-95.610589, 36.3220828]]]}, "properties": {"osm_id": 705640850, "building": "roof", "name": "Phillips 66", "height": null, "height_m": null, "levels": null, "tract_id": "40131050201", "tract_name": "502.01", "tags": {"amenity": "fuel", "brand": "Phillips 66", "brand:wikidata": "Q1656230", "building": "roof", "name": "Phillips 66"}}}, {"type": "Feature", "geometry": {"type": "Polygon", "coordinates": [[[-95.6022477, 36.3315755], [-95.6022514, 36.3313765], [-95.6021384, 36.3313753], [-95.6021387, 36.3313312], [-95.6019715, 36.3313338], [-95.6019691, 36.331424], [-95.6020124, 36.3314241], [-95.6020114, 36.3314821], [-95.6021361, 36.3314838], [-95.6021331, 36.3315756], [-95.6022477, 36.3315755]]]}, "properties": {"osm_id": 717727551, "building": "industrial", "name": "", "height": null, "height_m": null, "levels": null, "tract_id": "40131050201", "tract_name": "502.01", "tags": {"building": "industrial"}}}, {"type": "Feature", "geometry": {"type": "Polygon", "coordinates": [[[-95.6021563, 36.3353248], [-95.6019428, 36.3355481], [-95.6018697, 36.3355044], [-95.6020845, 36.3352821], [-95.6021563, 36.3353248]]]}, "properties": {"osm_id": 731908357, "building": "yes", "name": "", "height": null, "height_m": null, "levels": null, "tract_id": "40131050201", "tract_name": "502.01", "tags": {"building": "yes"}}}, {"type": "Feature", "geometry": {"type": "Polygon", "coordinates": [[[-95.601752, 36.3352892], [-95.6011297, 36.3352892], [-95.6011297, 36.3352265], [-95.601752, 36.3352265], [-95.601752, 36.3352892]]]}, "properties": {"osm_id": 731908358, "building": "yes", "name": "", "height": null, "height_m": null, "levels": null, "tract_id": "40131050201", "tract_name": "502.01", "tags": {"building": "yes"}}}, {"type": "Feature", "geometry": {"type": "Polygon", "coordinates": [[[-95.6016353, 36.3357602], [-95.6015494, 36.3357072], [-95.6015935, 36.3356609], [-95.6015119, 36.3356106], [-95.6015712, 36.3355482], [-95.6016433, 36.3355927], [-95.6017191, 36.335513], [-95.6018269, 36.3355795], [-95.6017018, 36.3357111], [-95.6016893, 36.3357034], [-95.6016353, 36.3357602]]]}, "properties": {"osm_id": 731908359, "building": "yes", "name": "", "height": null, "height_m": null, "levels": null, "tract_id": "40131050201", "tract_name": "502.01", "tags": {"building": "yes"}}}, {"type": "Feature", "geometry": {"type": "Polygon", "coordinates": [[[-95.6011042, 36.335838], [-95.6009202, 36.3357241], [-95.6010047, 36.3356355], [-95.6011887, 36.3357494], [-95.6011042, 36.335838]]]}, "properties": {"osm_id": 731908360, "building": "yes", "name": "", "height": null, "height_m": null, "levels": null, "tract_id": "40131050201", "tract_name": "502.01", "tags": {"building": "yes"}}}, {"type": "Feature", "geometry": {"type": "Polygon", "coordinates": [[[-95.5998845, 36.3359984], [-95.5997925, 36.3359999], [-95.599791, 36.3359406], [-95.5997095, 36.335942], [-95.5997073, 36.3358583], [-95.5997997, 36.3358567], [-95.5997988, 36.3358216], [-95.5998798, 36.3358202], [-95.5998845, 36.3359984]]]}, "properties": {"osm_id": 731908361, "building": "yes", "name": "", "height": null, "height_m": null, "levels": null, "tract_id": "40131050201", "tract_name": "502.01", "tags": {"building": "yes"}}}, {"type": "Feature", "geometry": {"type": "Polygon", "coordinates": [[[-95.5993688, 36.3360092], [-95.5992729, 36.3360108], [-95.5992712, 36.3359465], [-95.5991917, 36.3359479], [-95.5991898, 36.3358736], [-95.5993652, 36.3358706], [-95.5993688, 36.3360092]]]}, "properties": {"osm_id": 731908362, "building": "yes", "name": "", "height": null, "height_m": null, "levels": null, "tract_id": "40131050201", "tract_name": "502.01", "tags": {"building": "yes"}}}, {"type": "Feature", "geometry": {"type": "Polygon", "coordinates": [[[-95.5962809, 36.3358272], [-95.5964385, 36.3358336], [-95.5964331, 36.3359196], [-95.5964154, 36.3359189], [-95.596408, 36.3360345], [-95.5964257, 36.3360352], [-95.596421, 36.336109], [-95.5962635, 36.3361025], [-95.5962726, 36.3359584], [-95.5962068, 36.3359557], [-95.5962133, 36.3358528], [-95.5962791, 36.3358555], [-95.5962809, 36.3358272]]]}, "properties": {"osm_id": 731908366, "building": "yes", "name": "", "height": null, "height_m": null, "levels": null, "tract_id": "40131050201", "tract_name": "502.01", "tags": {"building": "yes"}}}, {"type": "Feature", "geometry": {"type": "Polygon", "coordinates": [[[-95.5983295, 36.3352076], [-95.5984034, 36.3352078], [-95.5984032, 36.3352567], [-95.5983292, 36.3352565], [-95.5983295, 36.3352076]]]}, "properties": {"osm_id": 731908367, "building": "yes", "name": "", "height": null, "height_m": null, "levels": null, "tract_id": "40131050201", "tract_name": "502.01", "tags": {"building": "yes"}}}, {"type": "Feature", "geometry": {"type": "Polygon", "coordinates": [[[-95.5983301, 36.3351363], [-95.5984001, 36.3351365], [-95.5983999, 36.3351871], [-95.5983299, 36.3351869], [-95.5983301, 36.3351363]]]}, "properties": {"osm_id": 731908368, "building": "yes", "name": "", "height": null, "height_m": null, "levels": null, "tract_id": "40131050201", "tract_name": "502.01", "tags": {"building": "yes"}}}, {"type": "Feature", "geometry": {"type": "Polygon", "coordinates": [[[-95.5980921, 36.3350817], [-95.5980907, 36.3353939], [-95.5979969, 36.3353937], [-95.5979967, 36.3354348], [-95.5978337, 36.3354344], [-95.5978339, 36.3353932], [-95.5977457, 36.335393], [-95.5977466, 36.3352027], [-95.5976801, 36.3352025], [-95.5976804, 36.3351231], [-95.5977469, 36.3351233], [-95.5977471, 36.3350808], [-95.5980921, 36.3350817]]]}, "properties": {"osm_id": 731908369, "building": "yes", "name": "", "height": null, "height_m": null, "levels": null, "tract_id": "40131050201", "tract_name": "502.01", "tags": {"building": "yes"}}}, {"type": "Feature", "geometry": {"type": "Polygon", "coordinates": [[[-95.5974242, 36.3348192], [-95.5975616, 36.334822], [-95.5975589, 36.3349084], [-95.5974215, 36.3349056], [-95.5974242, 36.3348192]]]}, "properties": {"osm_id": 731908370, "building": "yes", "name": "", "height": null, "height_m": null, "levels": null, "tract_id": "40131050201", "tract_name": "502.01", "tags": {"building": "yes"}}}, {"type": "Feature", "geometry": {"type": "Polygon", "coordinates": [[[-95.5980103, 36.3330593], [-95.5979439, 36.3329429], [-95.5982892, 36.3328151], [-95.5983556, 36.3329315], [-95.5982786, 36.33296], [-95.5982672, 36.3329399], [-95.5980725, 36.333012], [-95.5980839, 36.333032], [-95.5980103, 36.3330593]]]}, "properties": {"osm_id": 731908371, "building": "yes", "name": "", "height": null, "height_m": null, "levels": null, "tract_id": "40131050201", "tract_name": "502.01", "tags": {"building": "yes"}}}, {"type": "Feature", "geometry": {"type": "Polygon", "coordinates": [[[-95.5982181, 36.3333996], [-95.5980693, 36.3334547], [-95.5979111, 36.3331774], [-95.59806, 36.3331223], [-95.5980951, 36.3331839], [-95.5980649, 36.3331951], [-95.5981532, 36.33335], [-95.5981835, 36.3333389], [-95.5982181, 36.3333996]]]}, "properties": {"osm_id": 731908372, "building": "yes", "name": "", "height": null, "height_m": null, "levels": null, "tract_id": "40131050201", "tract_name": "502.01", "tags": {"building": "yes"}}}, {"type": "Feature", "geometry": {"type": "Polygon", "coordinates": [[[-95.5987881, 36.3330841], [-95.598646, 36.333136], [-95.5986107, 36.3330735], [-95.5986296, 36.3330666], [-95.5985429, 36.332913], [-95.598524, 36.3329199], [-95.5984887, 36.3328574], [-95.5986315, 36.332805], [-95.5987881, 36.3330841]]]}, "properties": {"osm_id": 731908373, "building": "yes", "name": "", "height": null, "height_m": null, "levels": null, "tract_id": "40131050201", "tract_name": "502.01", "tags": {"building": "yes"}}}, {"type": "Feature", "geometry": {"type": "Polygon", "coordinates": [[[-95.5992347, 36.3329669], [-95.5991515, 36.3329666], [-95.5991516, 36.3329492], [-95.5989398, 36.3329484], [-95.5989397, 36.3329659], [-95.5988532, 36.3329656], [-95.5988538, 36.3328427], [-95.5992354, 36.332844], [-95.5992347, 36.3329669]]]}, "properties": {"osm_id": 731908374, "building": "yes", "name": "", "height": null, "height_m": null, "levels": null, "tract_id": "40131050201", "tract_name": "502.01", "tags": {"building": "yes"}}}, {"type": "Feature", "geometry": {"type": "Polygon", "coordinates": [[[-95.5997135, 36.3329675], [-95.5996303, 36.3329672], [-95.5996304, 36.3329497], [-95.5994185, 36.332949], [-95.5994184, 36.3329664], [-95.599332, 36.3329661], [-95.5993326, 36.3328432], [-95.5997141, 36.3328445], [-95.5997135, 36.3329675]]]}, "properties": {"osm_id": 731908375, "building": "yes", "name": "", "height": null, "height_m": null, "levels": null, "tract_id": "40131050201", "tract_name": "502.01", "tags": {"building": "yes"}}}, {"type": "Feature", "geometry": {"type": "Polygon", "coordinates": [[[-95.5999535, 36.3332613], [-95.5997963, 36.3332608], [-95.5997967, 36.3331943], [-95.5998214, 36.3331944], [-95.5998223, 36.3330253], [-95.5997976, 36.3330253], [-95.599798, 36.3329523], [-95.5999552, 36.3329529], [-95.5999535, 36.3332613]]]}, "properties": {"osm_id": 731908376, "building": "yes", "name": "", "height": null, "height_m": null, "levels": null, "tract_id": "40131050201", "tract_name": "502.01", "tags": {"building": "yes"}}}, {"type": "Feature", "geometry": {"type": "Polygon", "coordinates": [[[-95.5999562, 36.333647], [-95.5998017, 36.3336465], [-95.599802, 36.3335773], [-95.599822, 36.3335774], [-95.5998229, 36.3334072], [-95.599803, 36.3334072], [-95.5998033, 36.3333359], [-95.5999579, 36.3333364], [-95.5999562, 36.333647]]]}, "properties": {"osm_id": 731908377, "building": "yes", "name": "", "height": null, "height_m": null, "levels": null, "tract_id": "40131050201", "tract_name": "502.01", "tags": {"building": "yes"}}}, {"type": "Feature", "geometry": {"type": "Polygon", "coordinates": [[[-95.5993185, 36.3336648], [-95.5993192, 36.3335377], [-95.5994037, 36.333538], [-95.5994036, 36.3335556], [-95.5996135, 36.3335564], [-95.5996136, 36.3335387], [-95.5996987, 36.333539], [-95.599698, 36.3336661], [-95.5993185, 36.3336648]]]}, "properties": {"osm_id": 731908378, "building": "yes", "name": "", "height": null, "height_m": null, "levels": null, "tract_id": "40131050201", "tract_name": "502.01", "tags": {"building": "yes"}}}, {"type": "Feature", "geometry": {"type": "Polygon", "coordinates": [[[-95.5988867, 36.3332613], [-95.5989745, 36.3332616], [-95.5989744, 36.3332802], [-95.5991843, 36.3332809], [-95.5991844, 36.3332623], [-95.5992695, 36.3332626], [-95.5992688, 36.333389], [-95.598886, 36.3333877], [-95.5988867, 36.3332613]]]}, "properties": {"osm_id": 731908379, "building": "yes", "name": "", "height": null, "height_m": null, "levels": null, "tract_id": "40131050201", "tract_name": "502.01", "tags": {"building": "yes"}}}, {"type": "Feature", "geometry": {"type": "Polygon", "coordinates": [[[-95.5988002, 36.3334385], [-95.598513, 36.3336459], [-95.5984084, 36.3335519], [-95.5984736, 36.3335048], [-95.5984892, 36.3335189], [-95.5986486, 36.3334037], [-95.598633, 36.3333897], [-95.5986956, 36.3333445], [-95.5988002, 36.3334385]]]}, "properties": {"osm_id": 731908380, "building": "yes", "name": "", "height": null, "height_m": null, "levels": null, "tract_id": "40131050201", "tract_name": "502.01", "tags": {"building": "yes"}}}, {"type": "Feature", "geometry": {"type": "Polygon", "coordinates": [[[-95.5981487, 36.3340195], [-95.5980646, 36.3339144], [-95.598134, 36.3338783], [-95.5981422, 36.3338886], [-95.5983212, 36.3337956], [-95.5983129, 36.3337853], [-95.5983856, 36.3337475], [-95.5984698, 36.3338526], [-95.5981487, 36.3340195]]]}, "properties": {"osm_id": 731908381, "building": "yes", "name": "", "height": null, "height_m": null, "levels": null, "tract_id": "40131050201", "tract_name": "502.01", "tags": {"building": "yes"}}}, {"type": "Feature", "geometry": {"type": "Polygon", "coordinates": [[[-95.5973035, 36.3341072], [-95.5972532, 36.3341078], [-95.5972529, 36.3340862], [-95.5973032, 36.3340856], [-95.5973035, 36.3341072]]]}, "properties": {"osm_id": 731908382, "building": "yes", "name": "", "height": null, "height_m": null, "levels": null, "tract_id": "40131050201", "tract_name": "502.01", "tags": {"building": "yes"}}}, {"type": "Feature", "geometry": {"type": "Polygon", "coordinates": [[[-95.5974256, 36.3341742], [-95.5973833, 36.3341737], [-95.5973847, 36.3341025], [-95.597427, 36.334103], [-95.5974256, 36.3341742]]]}, "properties": {"osm_id": 731908383, "building": "yes", "name": "", "height": null, "height_m": null, "levels": null, "tract_id": "40131050201", "tract_name": "502.01", "tags": {"building": "yes"}}}, {"type": "Feature", "geometry": {"type": "Polygon", "coordinates": [[[-95.5977005, 36.3341775], [-95.5976361, 36.3340608], [-95.5977129, 36.3340333], [-95.5977213, 36.3340485], [-95.5979137, 36.3339796], [-95.5979053, 36.3339644], [-95.5979859, 36.3339356], [-95.5980503, 36.3340522], [-95.5977005, 36.3341775]]]}, "properties": {"osm_id": 731908384, "building": "yes", "name": "", "height": null, "height_m": null, "levels": null, "tract_id": "40131050201", "tract_name": "502.01", "tags": {"building": "yes"}}}, {"type": "Feature", "geometry": {"type": "Polygon", "coordinates": [[[-95.5972981, 36.3342315], [-95.5972293, 36.3342851], [-95.5972176, 36.3342754], [-95.5971903, 36.3342966], [-95.5971452, 36.334259], [-95.5971288, 36.3342719], [-95.5970851, 36.3342355], [-95.597126, 36.3342036], [-95.5971059, 36.3341869], [-95.5971624, 36.3341429], [-95.5972026, 36.3341764], [-95.5972178, 36.3341645], [-95.5972981, 36.3342315]]]}, "properties": {"osm_id": 731908385, "building": "yes", "name": "", "height": null, "height_m": null, "levels": null, "tract_id": "40131050201", "tract_name": "502.01", "tags": {"building": "yes"}}}, {"type": "Feature", "geometry": {"type": "Polygon", "coordinates": [[[-95.5972076, 36.3334304], [-95.5973203, 36.3334299], [-95.597321, 36.3335255], [-95.5973817, 36.3335252], [-95.5973823, 36.333596], [-95.5973215, 36.3335963], [-95.597322, 36.3336686], [-95.5972242, 36.3336691], [-95.5972236, 36.3335962], [-95.5972088, 36.3335962], [-95.5972086, 36.33356], [-95.5971652, 36.3335602], [-95.5971647, 36.3334895], [-95.5972081, 36.3334893], [-95.5972076, 36.3334304]]]}, "properties": {"osm_id": 731908386, "building": "yes", "name": "", "height": null, "height_m": null, "levels": null, "tract_id": "40131050201", "tract_name": "502.01", "tags": {"building": "yes"}}}, {"type": "Feature", "geometry": {"type": "Polygon", "coordinates": [[[-95.5972358, 36.333049], [-95.5973132, 36.3330493], [-95.5973128, 36.3331136], [-95.5972354, 36.3331133], [-95.5972358, 36.333049]]]}, "properties": {"osm_id": 731908387, "building": "yes", "name": "", "height": null, "height_m": null, "levels": null, "tract_id": "40131050201", "tract_name": "502.01", "tags": {"building": "yes"}}}, {"type": "Feature", "geometry": {"type": "Polygon", "coordinates": [[[-95.5973625, 36.3328454], [-95.597362, 36.3329307], [-95.5973855, 36.3329308], [-95.5973851, 36.3329848], [-95.5973616, 36.3329847], [-95.5973615, 36.3330049], [-95.5972327, 36.3330016], [-95.5972331, 36.332944], [-95.597213, 36.3329435], [-95.5972204, 36.3328389], [-95.5973625, 36.3328454]]]}, "properties": {"osm_id": 731908388, "building": "yes", "name": "", "height": null, "height_m": null, "levels": null, "tract_id": "40131050201", "tract_name": "502.01", "tags": {"building": "yes"}}}, {"type": "Feature", "geometry": {"type": "Polygon", "coordinates": [[[-95.5976113, 36.3280657], [-95.5975651, 36.3280506], [-95.5975656, 36.3279257], [-95.5972932, 36.327925], [-95.5972917, 36.3282862], [-95.5972552, 36.3282861], [-95.597255, 36.3283471], [-95.5972865, 36.3283472], [-95.597286, 36.3284857], [-95.5973158, 36.3284858], [-95.5973157, 36.3285169], [-95.5973089, 36.3285169], [-95.5973087, 36.3285792], [-95.597257, 36.328579], [-95.5972569, 36.328617], [-95.5973102, 36.3286172], [-95.5973099, 36.3286872], [-95.5981495, 36.3286894], [-95.5981521, 36.3280537], [-95.5980373, 36.3280534], [-95.5980373, 36.3280704], [-95.5978982, 36.3280701], [-95.5978964, 36.3285214], [-95.5976086, 36.3285207], [-95.5976087, 36.3284866], [-95.5976304, 36.3284866], [-95.5976309, 36.3283701], [-95.5977596, 36.3283705], [-95.5977604, 36.3281751], [-95.59775, 36.3281751], [-95.5977503, 36.3281066], [-95.5976111, 36.3281062], [-95.5976113, 36.3280657]]]}, "properties": {"osm_id": 942935735, "building": "school", "name": "", "height": null, "height_m": null, "levels": null, "tract_id": "40131050201", "tract_name": "502.01", "tags": {"building": "school"}}}, {"type": "Feature", "geometry": {"type": "Polygon", "coordinates": [[[-95.6089072, 36.3222767], [-95.6089054, 36.3220024], [-95.6090997, 36.3220039], [-95.6091033, 36.3222767], [-95.6089072, 36.3222767]]]}, "properties": {"osm_id": 944039777, "building": "yes", "name": "Maverik", "height": null, "height_m": null, "levels": null, "tract_id": "40131050201", "tract_name": "502.01", "tags": {"brand": "Maverik", "brand:wikidata": "Q64149010", "building": "yes", "name": "Maverik", "shop": "convenience"}}}, {"type": "Feature", "geometry": {"type": "Polygon", "coordinates": [[[-95.6094856, 36.3222865], [-95.6094856, 36.3220439], [-95.6093173, 36.3220439], [-95.6093173, 36.3222865], [-95.6094856, 36.3222865]]]}, "properties": {"osm_id": 944039778, "building": "yes", "name": "Maverik", "height": null, "height_m": null, "levels": null, "tract_id": "40131050201", "tract_name": "502.01", "tags": {"amenity": "fuel", "brand": "Maverik", "brand:wikidata": "Q64149010", "building": "yes", "name": "Maverik"}}}, {"type": "Feature", "geometry": {"type": "Polygon", "coordinates": [[[-95.5359423, 36.3431555], [-95.5357123, 36.3431469], [-95.5357206, 36.3430043], [-95.535802, 36.3430074], [-95.5358007, 36.3430297], [-95.5358344, 36.343031], [-95.5358358, 36.3430073], [-95.5358755, 36.3430088], [-95.5358743, 36.3430295], [-95.535892, 36.3430302], [-95.5358927, 36.3430195], [-95.5359501, 36.3430216], [-95.5359423, 36.3431555]]]}, "properties": {"osm_id": 974953714, "building": "yes", "name": "", "height": null, "height_m": null, "levels": null, "tract_id": "40131050201", "tract_name": "502.01", "tags": {"building": "yes"}}}, {"type": "Feature", "geometry": {"type": "Polygon", "coordinates": [[[-95.5368794, 36.3431261], [-95.5368211, 36.3431256], [-95.5368207, 36.3431537], [-95.5367307, 36.3431529], [-95.5367311, 36.3431276], [-95.5366768, 36.3431271], [-95.5366793, 36.3429553], [-95.5367847, 36.3429563], [-95.536784, 36.3429997], [-95.5368093, 36.343], [-95.5368098, 36.3429651], [-95.5368816, 36.3429658], [-95.5368794, 36.3431261]]]}, "properties": {"osm_id": 974953715, "building": "yes", "name": "", "height": null, "height_m": null, "levels": null, "tract_id": "40131050201", "tract_name": "502.01", "tags": {"building": "yes"}}}, {"type": "Feature", "geometry": {"type": "Polygon", "coordinates": [[[-95.6002883, 36.3279453], [-95.5995775, 36.3279413], [-95.5995804, 36.327617], [-95.6002912, 36.3276212], [-95.6002883, 36.3279453]]]}, "properties": {"osm_id": 1039352268, "building": "yes", "name": "Frank Mobra Gymnasium", "height": null, "height_m": null, "levels": null, "tract_id": "40131050201", "tract_name": "502.01", "tags": {"building": "yes", "leisure": "sports_hall", "name": "Frank Mobra Gymnasium"}}}, {"type": "Feature", "geometry": {"type": "Polygon", "coordinates": [[[-95.6021863, 36.3277846], [-95.6014943, 36.327776], [-95.6014889, 36.3278105], [-95.6014406, 36.3277976], [-95.6014084, 36.327776], [-95.6013119, 36.3278321], [-95.601049, 36.3278365], [-95.6010436, 36.3281044], [-95.600931, 36.3281001], [-95.600931, 36.3281779], [-95.6006896, 36.3281779], [-95.6006789, 36.3281217], [-95.6005877, 36.3281174], [-95.6005823, 36.3266696], [-95.6010383, 36.3266782], [-95.6010544, 36.3274691], [-95.6011509, 36.3274734], [-95.6011563, 36.3271968], [-95.6014889, 36.3271839], [-95.6014943, 36.3274043], [-95.6021863, 36.3274086], [-95.6021863, 36.3277846]]]}, "properties": {"osm_id": 1039352269, "building": "yes", "name": "", "height": null, "height_m": null, "levels": null, "tract_id": "40131050201", "tract_name": "502.01", "tags": {"building": "yes"}}}, {"type": "Feature", "geometry": {"type": "Polygon", "coordinates": [[[-95.5517429, 36.3421335], [-95.5516166, 36.3419678], [-95.5515295, 36.3420109], [-95.5515547, 36.3420439], [-95.5513979, 36.3421214], [-95.5514991, 36.3422541], [-95.5517429, 36.3421335]]]}, "properties": {"osm_id": 1231392778, "building": "house", "name": "", "height": null, "height_m": 6.0, "levels": 2, "tract_id": "40131050201", "tract_name": "502.01", "tags": {"addr:city": "Claremore", "addr:housenumber": "18685", "addr:postcode": "74017", "addr:state": "OK", "addr:street": "Timberlake Drive", "building": "house", "building:levels": "2"}}}, {"type": "Feature", "geometry": {"type": "Polygon", "coordinates": [[[-95.5508574, 36.3422498], [-95.5508343, 36.3420752], [-95.5506271, 36.342093], [-95.5506501, 36.3422675], [-95.5508574, 36.3422498]]]}, "properties": {"osm_id": 1231414346, "building": "house", "name": "", "height": null, "height_m": null, "levels": null, "tract_id": "40131050201", "tract_name": "502.01", "tags": {"addr:city": "Claremore", "addr:housenumber": "18705", "addr:postcode": "74017", "addr:state": "OK", "addr:street": "Timberlake Drive", "building": "house"}}}, {"type": "Feature", "geometry": {"type": "Polygon", "coordinates": [[[-95.5498591, 36.3422925], [-95.5498769, 36.3421376], [-95.5496092, 36.3421176], [-95.5495914, 36.3422725], [-95.5498591, 36.3422925]]]}, "properties": {"osm_id": 1231414347, "building": "house", "name": "", "height": null, "height_m": null, "levels": null, "tract_id": "40131050201", "tract_name": "502.01", "tags": {"addr:city": "Claremore", "addr:housenumber": "18725", "addr:postcode": "74017", "addr:state": "OK", "addr:street": "Timberlake Drive", "building": "house"}}}, {"type": "Feature", "geometry": {"type": "Polygon", "coordinates": [[[-95.5493169, 36.3422922], [-95.5493377, 36.3420711], [-95.5491441, 36.3420593], [-95.549141, 36.3420927], [-95.5489434, 36.3420806], [-95.5489342, 36.3421778], [-95.5489932, 36.3421814], [-95.5489908, 36.3422073], [-95.5491285, 36.3422157], [-95.5491176, 36.342331], [-95.5492112, 36.3423367], [-95.5492159, 36.342286], [-95.5493169, 36.3422922]]]}, "properties": {"osm_id": 1231414348, "building": "house", "name": "", "height": null, "height_m": null, "levels": null, "tract_id": "40131050201", "tract_name": "502.01", "tags": {"addr:city": "Claremore", "addr:housenumber": "18745", "addr:postcode": "74017", "addr:state": "OK", "addr:street": "Timberlake Drive", "building": "house"}}}, {"type": "Feature", "geometry": {"type": "Polygon", "coordinates": [[[-95.5483067, 36.342479], [-95.5484174, 36.3422794], [-95.5481102, 36.3421688], [-95.5479995, 36.3423685], [-95.5483067, 36.342479]]]}, "properties": {"osm_id": 1231414349, "building": "house", "name": "", "height": null, "height_m": null, "levels": null, "tract_id": "40131050201", "tract_name": "502.01", "tags": {"addr:city": "Claremore", "addr:housenumber": "18765", "addr:postcode": "74017", "addr:state": "OK", "addr:street": "Timberlake Drive", "building": "house"}}}, {"type": "Feature", "geometry": {"type": "Polygon", "coordinates": [[[-95.5482985, 36.3417584], [-95.5482856, 36.3415264], [-95.5480336, 36.3415355], [-95.5480465, 36.3417675], [-95.5482985, 36.3417584]]]}, "properties": {"osm_id": 1231414350, "building": "house", "name": "", "height": null, "height_m": null, "levels": null, "tract_id": "40131050201", "tract_name": "502.01", "tags": {"addr:city": "Claremore", "addr:housenumber": "18785", "addr:postcode": "74017", "addr:state": "OK", "addr:street": "Timberlake Drive", "building": "house"}}}, {"type": "Feature", "geometry": {"type": "Polygon", "coordinates": [[[-95.5483039, 36.3411237], [-95.5482849, 36.340795], [-95.5480936, 36.3408022], [-95.5481127, 36.3411309], [-95.5483039, 36.3411237]]]}, "properties": {"osm_id": 1231414351, "building": "house", "name": "", "height": null, "height_m": null, "levels": null, "tract_id": "40131050201", "tract_name": "502.01", "tags": {"addr:city": "Claremore", "addr:housenumber": "18805", "addr:postcode": "74017", "addr:state": "OK", "addr:street": "Timberlake Drive", "building": "house"}}}, {"type": "Feature", "geometry": {"type": "Polygon", "coordinates": [[[-95.5488169, 36.3403413], [-95.5487564, 36.3402211], [-95.5488581, 36.3401879], [-95.5488134, 36.340099], [-95.5485411, 36.3401879], [-95.5486463, 36.3403969], [-95.5488169, 36.3403413]]]}, "properties": {"osm_id": 1231414352, "building": "house", "name": "", "height": null, "height_m": null, "levels": null, "tract_id": "40131050201", "tract_name": "502.01", "tags": {"addr:city": "Claremore", "addr:housenumber": "18825", "addr:postcode": "74017", "addr:state": "OK", "addr:street": "Timberlake Drive", "building": "house"}}}, {"type": "Feature", "geometry": {"type": "Polygon", "coordinates": [[[-95.5497824, 36.3404806], [-95.5497792, 36.3402966], [-95.5495046, 36.3402998], [-95.549509, 36.3405465], [-95.549614, 36.3405453], [-95.5496129, 36.3404825], [-95.5497824, 36.3404806]]]}, "properties": {"osm_id": 1231414353, "building": "house", "name": "", "height": null, "height_m": null, "levels": null, "tract_id": "40131050201", "tract_name": "502.01", "tags": {"addr:city": "Claremore", "addr:housenumber": "18845", "addr:postcode": "74017", "addr:state": "OK", "addr:street": "Timberlake Drive", "building": "house"}}}, {"type": "Feature", "geometry": {"type": "Polygon", "coordinates": [[[-95.5493729, 36.3411422], [-95.549361, 36.3409638], [-95.5492433, 36.3409689], [-95.5492233, 36.3409285], [-95.5491285, 36.3409326], [-95.5491353, 36.3410353], [-95.5490572, 36.3410387], [-95.5490628, 36.3411239], [-95.5492068, 36.3411177], [-95.5492089, 36.3411493], [-95.5493729, 36.3411422]]]}, "properties": {"osm_id": 1231414354, "building": "house", "name": "", "height": null, "height_m": null, "levels": null, "tract_id": "40131050201", "tract_name": "502.01", "tags": {"addr:city": "Claremore", "addr:housenumber": "18810", "addr:postcode": "74017", "addr:state": "OK", "addr:street": "Timberlake Drive", "building": "house"}}}, {"type": "Feature", "geometry": {"type": "Polygon", "coordinates": [[[-95.5492903, 36.3415781], [-95.5492885, 36.3414476], [-95.5490542, 36.3414497], [-95.5490553, 36.341526], [-95.5490766, 36.3415258], [-95.5490779, 36.3416225], [-95.54917, 36.3416217], [-95.5491694, 36.3415792], [-95.5492903, 36.3415781]]]}, "properties": {"osm_id": 1231414355, "building": "house", "name": "", "height": null, "height_m": null, "levels": null, "tract_id": "40131050201", "tract_name": "502.01", "tags": {"addr:city": "Claremore", "addr:housenumber": "18780", "addr:postcode": "74017", "addr:state": "OK", "addr:street": "Timberlake Drive", "building": "house"}}}, {"type": "Feature", "geometry": {"type": "Polygon", "coordinates": [[[-95.5502872, 36.3411886], [-95.5503056, 36.3409938], [-95.5504343, 36.3410017], [-95.5504157, 36.3411965], [-95.5502872, 36.3411886]]]}, "properties": {"osm_id": 1231414356, "building": "house", "name": "", "height": null, "height_m": null, "levels": null, "tract_id": "40131050201", "tract_name": "502.01", "tags": {"addr:city": "Claremore", "addr:housenumber": "18710", "addr:postcode": "74017", "addr:state": "OK", "addr:street": "Timberlake Drive", "building": "house"}}}, {"type": "Feature", "geometry": {"type": "Polygon", "coordinates": [[[-95.5522224, 36.3398052], [-95.5520475, 36.3396935], [-95.5522648, 36.3394726], [-95.5523406, 36.339521], [-95.5523225, 36.3395394], [-95.5524217, 36.3396027], [-95.5522224, 36.3398052]]]}, "properties": {"osm_id": 1231414357, "building": "house", "name": "", "height": null, "height_m": null, "levels": null, "tract_id": "40131050201", "tract_name": "502.01", "tags": {"addr:city": "Claremore", "addr:housenumber": "18870", "addr:postcode": "74017", "addr:state": "OK", "addr:street": "Timberlake Drive", "building": "house"}}}, {"type": "Feature", "geometry": {"type": "Polygon", "coordinates": [[[-95.5507518, 36.3402667], [-95.550681, 36.340126], [-95.5503932, 36.3402199], [-95.5504781, 36.3403889], [-95.5505973, 36.34035], [-95.5505973, 36.3403171], [-95.5507518, 36.3402667]]]}, "properties": {"osm_id": 1231414358, "building": "house", "name": "", "height": null, "height_m": null, "levels": null, "tract_id": "40131050201", "tract_name": "502.01", "tags": {"addr:city": "Claremore", "addr:housenumber": "18865", "addr:postcode": "74017", "addr:state": "OK", "addr:street": "Timberlake Drive", "building": "house"}}}, {"type": "Feature", "geometry": {"type": "Polygon", "coordinates": [[[-95.5513869, 36.3391261], [-95.5513815, 36.339212], [-95.5511611, 36.339203], [-95.5511723, 36.3390253], [-95.5514842, 36.3390381], [-95.5514784, 36.3391299], [-95.5513869, 36.3391261]]]}, "properties": {"osm_id": 1231414359, "building": "house", "name": "", "height": null, "height_m": null, "levels": null, "tract_id": "40131050201", "tract_name": "502.01", "tags": {"addr:city": "Claremore", "addr:housenumber": "18905", "addr:postcode": "74017", "addr:state": "OK", "addr:street": "Timberlake Drive", "building": "house"}}}, {"type": "Feature", "geometry": {"type": "Polygon", "coordinates": [[[-95.5513778, 36.3385675], [-95.5513443, 36.3384748], [-95.5513889, 36.3384643], [-95.5513551, 36.3383708], [-95.5511063, 36.3384291], [-95.5511736, 36.3386154], [-95.5513778, 36.3385675]]]}, "properties": {"osm_id": 1231414360, "building": "house", "name": "", "height": null, "height_m": null, "levels": null, "tract_id": "40131050201", "tract_name": "502.01", "tags": {"addr:city": "Claremore", "addr:housenumber": "18945", "addr:postcode": "74017", "addr:state": "OK", "addr:street": "Timberlake Drive", "building": "house"}}}, {"type": "Feature", "geometry": {"type": "Polygon", "coordinates": [[[-95.5520015, 36.3414938], [-95.5520392, 36.3414254], [-95.5518696, 36.3413546], [-95.5518581, 36.3412808], [-95.5515115, 36.3413166], [-95.5515334, 36.3414432], [-95.5517031, 36.3414254], [-95.5517031, 36.34139], [-95.5518052, 36.3413938], [-95.5517965, 36.3414134], [-95.5520015, 36.3414938]]]}, "properties": {"osm_id": 1231414361, "building": "house", "name": "", "height": null, "height_m": null, "levels": null, "tract_id": "40131050201", "tract_name": "502.01", "tags": {"addr:city": "Claremore", "addr:housenumber": "18680", "addr:postcode": "74017", "addr:state": "OK", "addr:street": "Timberlake Drive", "building": "house"}}}, {"type": "Feature", "geometry": {"type": "Polygon", "coordinates": [[[-95.5521384, 36.3391464], [-95.5521541, 36.3390087], [-95.5519848, 36.3389962], [-95.5519691, 36.3391338], [-95.5521384, 36.3391464]]]}, "properties": {"osm_id": 1231414362, "building": "house", "name": "", "height": null, "height_m": null, "levels": null, "tract_id": "40131050201", "tract_name": "502.01", "tags": {"addr:city": "Claremore", "addr:housenumber": "15502", "addr:postcode": "74017", "addr:state": "OK", "addr:street": "Timberlake Drive", "building": "house"}}}, {"type": "Feature", "geometry": {"type": "Polygon", "coordinates": [[[-95.5526724, 36.3382949], [-95.5524936, 36.3382103], [-95.5526663, 36.3379736], [-95.5528451, 36.3380582], [-95.5526724, 36.3382949]]]}, "properties": {"osm_id": 1231414363, "building": "house", "name": "", "height": null, "height_m": null, "levels": null, "tract_id": "40131050201", "tract_name": "502.01", "tags": {"addr:city": "Claremore", "addr:housenumber": "15493", "addr:postcode": "74017", "addr:state": "OK", "addr:street": "Summerhill Lane", "building": "house"}}}, {"type": "Feature", "geometry": {"type": "Polygon", "coordinates": [[[-95.5526435, 36.3377817], [-95.5524007, 36.3376424], [-95.5525589, 36.3375149], [-95.5527759, 36.337672], [-95.5526435, 36.3377817]]]}, "properties": {"osm_id": 1231414364, "building": "house", "name": "", "height": null, "height_m": null, "levels": null, "tract_id": "40131050201", "tract_name": "502.01", "tags": {"addr:city": "Claremore", "addr:housenumber": "15496", "addr:postcode": "74017", "addr:state": "OK", "addr:street": "Summerhill Lane", "building": "house"}}}, {"type": "Feature", "geometry": {"type": "Polygon", "coordinates": [[[-95.5520257, 36.3377557], [-95.552061, 36.337681], [-95.5517865, 36.3375967], [-95.5517762, 36.3376186], [-95.551682, 36.3375896], [-95.5516036, 36.3377554], [-95.5518183, 36.3378213], [-95.5517986, 36.3378628], [-95.551932, 36.3379037], [-95.551961, 36.3378425], [-95.5518565, 36.3378104], [-95.5519005, 36.3377173], [-95.5520257, 36.3377557]]]}, "properties": {"osm_id": 1231414365, "building": "house", "name": "", "height": null, "height_m": null, "levels": null, "tract_id": "40131050201", "tract_name": "502.01", "tags": {"addr:city": "Claremore", "addr:housenumber": "15506", "addr:postcode": "74017", "addr:state": "OK", "addr:street": "Summerhill Lane", "building": "house"}}}, {"type": "Feature", "geometry": {"type": "Polygon", "coordinates": [[[-95.5812102, 36.3323889], [-95.5811386, 36.3323965], [-95.5811514, 36.3324753], [-95.581223, 36.3324678], [-95.5812102, 36.3323889]]]}, "properties": {"osm_id": 1320945647, "building": "yes", "name": "", "height": null, "height_m": null, "levels": null, "tract_id": "40131050201", "tract_name": "502.01", "tags": {"amenity": "shelter", "building": "yes"}}}, {"type": "Feature", "geometry": {"type": "Polygon", "coordinates": [[[-95.5830116, 36.3302366], [-95.5829236, 36.3302169], [-95.5829455, 36.3301535], [-95.5830336, 36.3301733], [-95.5830116, 36.3302366]]]}, "properties": {"osm_id": 1374481153, "building": "yes", "name": "", "height": null, "height_m": null, "levels": null, "tract_id": "40131050201", "tract_name": "502.01", "tags": {"access": "yes", "amenity": "toilets", "building": "yes", "toilets:disposal": "flush"}}}, {"type": "Feature", "geometry": {"type": "Polygon", "coordinates": [[[-95.5834367, 36.3296166], [-95.5834947, 36.3296829], [-95.5833483, 36.3297659], [-95.5832904, 36.3296995], [-95.5834367, 36.3296166]]]}, "properties": {"osm_id": 1374481158, "building": "yes", "name": "", "height": null, "height_m": null, "levels": null, "tract_id": "40131050201", "tract_name": "502.01", "tags": {"amenity": "shelter", "bin": "yes", "building": "yes", "description": "Usually has a sign saying it is by reservation only.", "shelter_type": "picnic_shelter"}}}, {"type": "Feature", "geometry": {"type": "Polygon", "coordinates": [[[-95.6127543, 36.3224866], [-95.6124143, 36.3224973], [-95.612411, 36.3224288], [-95.6124569, 36.3224274], [-95.6124535, 36.3223558], [-95.6125381, 36.3223532], [-95.6125369, 36.3223286], [-95.6127464, 36.322322], [-95.6127543, 36.3224866]]]}, "properties": {"osm_id": 1374791935, "building": "yes", "name": "", "height": null, "height_m": null, "levels": null, "tract_id": "40131050201", "tract_name": "502.01", "tags": {"building": "yes", "shop": "groundskeeping"}}}, {"type": "Feature", "geometry": {"type": "Polygon", "coordinates": [[[-95.6074629, 36.3268555], [-95.6073929, 36.3268384], [-95.6074117, 36.3267884], [-95.6072807, 36.3267534], [-95.6073307, 36.3266155], [-95.6076132, 36.3266871], [-95.6075607, 36.3268264], [-95.6074812, 36.326807], [-95.6074629, 36.3268555]]]}, "properties": {"osm_id": 1376228923, "building": "yes", "name": "", "height": null, "height_m": null, "levels": null, "tract_id": "40131050201", "tract_name": "502.01", "tags": {"building": "yes"}}}, {"type": "Feature", "geometry": {"type": "Polygon", "coordinates": [[[-95.6070826, 36.3279576], [-95.6070486, 36.3279535], [-95.6070506, 36.3279363], [-95.6069688, 36.3279285], [-95.6069708, 36.3279072], [-95.6069302, 36.3279039], [-95.6069463, 36.3277854], [-95.6069895, 36.3277897], [-95.6069918, 36.3277699], [-95.6070402, 36.3277751], [-95.6070448, 36.3277415], [-95.6073268, 36.3277698], [-95.6073217, 36.3278059], [-95.607375, 36.3278108], [-95.6073511, 36.3279647], [-95.6072449, 36.3279553], [-95.6072433, 36.3279726], [-95.6072067, 36.3279692], [-95.6071846, 36.3281082], [-95.6070597, 36.3280964], [-95.6070826, 36.3279576]]]}, "properties": {"osm_id": 1376228924, "building": "yes", "name": "", "height": null, "height_m": null, "levels": null, "tract_id": "40131050201", "tract_name": "502.01", "tags": {"building": "yes"}}}, {"type": "Feature", "geometry": {"type": "Polygon", "coordinates": [[[-95.6059995, 36.3279217], [-95.6058821, 36.3279037], [-95.6059075, 36.3277882], [-95.6060254, 36.3278071], [-95.6059995, 36.3279217]]]}, "properties": {"osm_id": 1376228925, "building": "yes", "name": "", "height": null, "height_m": null, "levels": null, "tract_id": "40131050201", "tract_name": "502.01", "tags": {"building": "yes"}}}, {"type": "Feature", "geometry": {"type": "Polygon", "coordinates": [[[-95.6067468, 36.3288516], [-95.6067459, 36.3287682], [-95.6067335, 36.3287689], [-95.6067344, 36.3286991], [-95.6067468, 36.3286991], [-95.6067477, 36.3286142], [-95.6068229, 36.3286121], [-95.6068226, 36.3286275], [-95.6069792, 36.3286308], [-95.606969, 36.3288437], [-95.6068181, 36.3288416], [-95.6068176, 36.3288531], [-95.6067468, 36.3288516]]]}, "properties": {"osm_id": 1376228926, "building": "yes", "name": "", "height": null, "height_m": null, "levels": null, "tract_id": "40131050201", "tract_name": "502.01", "tags": {"building": "yes"}}}, {"type": "Feature", "geometry": {"type": "Polygon", "coordinates": [[[-95.6031474, 36.3296527], [-95.603092, 36.3296527], [-95.603092, 36.3296347], [-95.6030396, 36.3296353], [-95.6030388, 36.3295869], [-95.6029518, 36.3295863], [-95.6029518, 36.3294895], [-95.6032137, 36.3294907], [-95.6032129, 36.3295888], [-95.6031482, 36.3295907], [-95.6031474, 36.3296527]]]}, "properties": {"osm_id": 1376228928, "building": "industrial", "name": "", "height": null, "height_m": null, "levels": null, "tract_id": "40131050201", "tract_name": "502.01", "tags": {"building": "industrial"}}}, {"type": "Feature", "geometry": {"type": "Polygon", "coordinates": [[[-95.6029687, 36.3296401], [-95.6029192, 36.3296394], [-95.6029196, 36.3295884], [-95.6029696, 36.3295892], [-95.6029687, 36.3296401]]]}, "properties": {"osm_id": 1376228929, "building": "industrial", "name": "", "height": null, "height_m": null, "levels": null, "tract_id": "40131050201", "tract_name": "502.01", "tags": {"building": "industrial"}}}, {"type": "Feature", "geometry": {"type": "Polygon", "coordinates": [[[-95.6028596, 36.3296555], [-95.602812, 36.3296555], [-95.602812, 36.3296023], [-95.6028596, 36.3296023], [-95.6028596, 36.3296555]]]}, "properties": {"osm_id": 1376228930, "building": "industrial", "name": "", "height": null, "height_m": null, "levels": null, "tract_id": "40131050201", "tract_name": "502.01", "tags": {"building": "industrial"}}}, {"type": "Feature", "geometry": {"type": "Polygon", "coordinates": [[[-95.6025727, 36.3296174], [-95.6022234, 36.3296179], [-95.6022227, 36.3293055], [-95.6027468, 36.3293047], [-95.6027472, 36.3294515], [-95.6025723, 36.3294517], [-95.6025727, 36.3296174]]]}, "properties": {"osm_id": 1376228931, "building": "industrial", "name": "", "height": null, "height_m": null, "levels": null, "tract_id": "40131050201", "tract_name": "502.01", "tags": {"building": "industrial"}}}, {"type": "Feature", "geometry": {"type": "Polygon", "coordinates": [[[-95.6013203, 36.3302793], [-95.6011394, 36.3302802], [-95.6011371, 36.3300065], [-95.601318, 36.3300056], [-95.6013203, 36.3302793]]]}, "properties": {"osm_id": 1376228932, "building": "industrial", "name": "", "height": null, "height_m": null, "levels": null, "tract_id": "40131050201", "tract_name": "502.01", "tags": {"building": "industrial"}}}, {"type": "Feature", "geometry": {"type": "Polygon", "coordinates": [[[-95.6022749, 36.3307332], [-95.6020035, 36.3307336], [-95.6020041, 36.3309542], [-95.6019899, 36.3309542], [-95.6019902, 36.3310512], [-95.6019298, 36.3310513], [-95.6019295, 36.3309499], [-95.6019209, 36.3309499], [-95.6019194, 36.3304607], [-95.6022741, 36.3304601], [-95.6022749, 36.3307332]]]}, "properties": {"osm_id": 1376228933, "building": "industrial", "name": "", "height": null, "height_m": null, "levels": null, "tract_id": "40131050201", "tract_name": "502.01", "tags": {"building": "industrial"}}}, {"type": "Feature", "geometry": {"type": "Polygon", "coordinates": [[[-95.6023661, 36.3309828], [-95.6020935, 36.3309819], [-95.6020999, 36.330791], [-95.6023714, 36.3307938], [-95.6023661, 36.3309828]]]}, "properties": {"osm_id": 1376228934, "building": "industrial", "name": "", "height": null, "height_m": null, "levels": null, "tract_id": "40131050201", "tract_name": "502.01", "tags": {"building": "industrial"}}}, {"type": "Feature", "geometry": {"type": "Polygon", "coordinates": [[[-95.6021716, 36.331153], [-95.6020858, 36.331153], [-95.6020871, 36.3310255], [-95.6021756, 36.3310261], [-95.6021716, 36.331153]]]}, "properties": {"osm_id": 1376228935, "building": "industrial", "name": "", "height": null, "height_m": null, "levels": null, "tract_id": "40131050201", "tract_name": "502.01", "tags": {"building": "industrial"}}}, {"type": "Feature", "geometry": {"type": "Polygon", "coordinates": [[[-95.602191, 36.3311525], [-95.6021964, 36.3310261], [-95.6024579, 36.3310261], [-95.6024526, 36.331153], [-95.602191, 36.3311525]]]}, "properties": {"osm_id": 1376228936, "building": "industrial", "name": "", "height": null, "height_m": null, "levels": null, "tract_id": "40131050201", "tract_name": "502.01", "tags": {"building": "industrial"}}}, {"type": "Feature", "geometry": {"type": "Polygon", "coordinates": [[[-95.6013606, 36.3320966], [-95.600915, 36.3320983], [-95.6009144, 36.331984], [-95.6008686, 36.3319842], [-95.6008664, 36.3315925], [-95.6009447, 36.3315923], [-95.6009412, 36.330968], [-95.6013955, 36.3309663], [-95.6013983, 36.3314786], [-95.6015032, 36.3314783], [-95.6015055, 36.3318859], [-95.6015371, 36.3318858], [-95.6015377, 36.3319941], [-95.6014099, 36.3319945], [-95.6014097, 36.331966], [-95.6012574, 36.3319666], [-95.6012575, 36.3319801], [-95.6013599, 36.3319797], [-95.6013606, 36.3320966]]]}, "properties": {"osm_id": 1376228937, "building": "industrial", "name": "", "height": null, "height_m": null, "levels": null, "tract_id": "40131050201", "tract_name": "502.01", "tags": {"building": "industrial"}}}, {"type": "Feature", "geometry": {"type": "Polygon", "coordinates": [[[-95.6106811, 36.3225027], [-95.6105486, 36.3224518], [-95.6105864, 36.3223966], [-95.610715, 36.3224462], [-95.6106811, 36.3225027]]]}, "properties": {"osm_id": 1376228938, "building": "yes", "name": "", "height": null, "height_m": null, "levels": null, "tract_id": "40131050201", "tract_name": "502.01", "tags": {"building": "yes", "shop": "cannabis"}}}, {"type": "Feature", "geometry": {"type": "Polygon", "coordinates": [[[-95.610946, 36.3223464], [-95.6106335, 36.3223464], [-95.6106322, 36.3222351], [-95.6106885, 36.3222335], [-95.6106885, 36.3222237], [-95.6109145, 36.3222227], [-95.6109145, 36.3222318], [-95.6109467, 36.3222324], [-95.610946, 36.3223464]]]}, "properties": {"osm_id": 1376228939, "building": "yes", "name": "", "height": null, "height_m": null, "levels": null, "tract_id": "40131050201", "tract_name": "502.01", "tags": {"building": "yes", "shop": "convenience"}}}, {"type": "Feature", "geometry": {"type": "Polygon", "coordinates": [[[-95.5943052, 36.325402], [-95.5941347, 36.3253944], [-95.5941499, 36.3251311], [-95.593969, 36.3252618], [-95.5938534, 36.3251621], [-95.594033, 36.3250277], [-95.5934499, 36.3250043], [-95.5934604, 36.3248656], [-95.5940442, 36.3248899], [-95.5938729, 36.3247381], [-95.5938907, 36.32472], [-95.5938379, 36.3246754], [-95.593916, 36.3246168], [-95.5939677, 36.3246624], [-95.5939958, 36.3246435], [-95.5941693, 36.3247934], [-95.5941744, 36.3246085], [-95.594345, 36.3246135], [-95.5943396, 36.324805], [-95.5943664, 36.3248308], [-95.5944885, 36.3247402], [-95.5945368, 36.3247824], [-95.5944138, 36.3248733], [-95.5944525, 36.3249042], [-95.5946832, 36.3249128], [-95.5946748, 36.3250469], [-95.5944491, 36.3250408], [-95.5946131, 36.3251906], [-95.5945875, 36.3252064], [-95.5946384, 36.3252527], [-95.5945587, 36.3253076], [-95.5945079, 36.3252655], [-95.5944888, 36.3252787], [-95.5943221, 36.3251361], [-95.5943052, 36.325402]]]}, "properties": {"osm_id": 1376305393, "building": "residential", "name": "", "height": null, "height_m": null, "levels": null, "tract_id": "40131050201", "tract_name": "502.01", "tags": {"building": "residential"}}}, {"type": "Feature", "geometry": {"type": "Polygon", "coordinates": [[[-95.5953661, 36.3240345], [-95.5952768, 36.3240346], [-95.5952767, 36.3240083], [-95.5950722, 36.3240085], [-95.5950718, 36.3237895], [-95.5949582, 36.3237897], [-95.5949584, 36.3239141], [-95.5947796, 36.3239142], [-95.5947788, 36.3234101], [-95.5948341, 36.32341], [-95.5948341, 36.3233941], [-95.5949132, 36.323394], [-95.5949132, 36.3234119], [-95.5949621, 36.3234119], [-95.5949627, 36.3236475], [-95.595075, 36.3236473], [-95.5950743, 36.323369], [-95.5955697, 36.3233683], [-95.5955703, 36.3236499], [-95.5957037, 36.3236497], [-95.5957041, 36.3237869], [-95.5955696, 36.3237871], [-95.5955702, 36.3240102], [-95.595366, 36.3240105], [-95.5953661, 36.3240345]]]}, "properties": {"osm_id": 1376305394, "building": "residential", "name": "", "height": null, "height_m": null, "levels": null, "tract_id": "40131050201", "tract_name": "502.01", "tags": {"building": "residential"}}}, {"type": "Feature", "geometry": {"type": "Polygon", "coordinates": [[[-95.5953957, 36.3238725], [-95.5952455, 36.3238725], [-95.5952532, 36.3234608], [-95.5953996, 36.32346], [-95.5953957, 36.3238725]]]}, "properties": {"osm_id": 1376305395, "building": "residential", "name": "", "height": null, "height_m": null, "levels": null, "tract_id": "40131050201", "tract_name": "502.01", "tags": {"building": "residential"}}}]}