{"type": "FeatureCollection", "features": [{"type": "Feature", "geometry": {"type": "Polygon", "coordinates": [[[-96.3939442, 36.121679], [-96.3937906, 36.1217003], [-96.3937463, 36.1214913], [-96.3939, 36.12147], [-96.3939442, 36.121679]]]}, "properties": {"osm_id": 64784642, "building": "commercial", "name": "In'N'Out Mart", "height": null, "height_m": null, "levels": null, "tract_id": "40037020706", "tract_name": "207.06", "tags": {"building": "commercial", "name": "In'N'Out Mart", "opening_hours": "24/7", "shop": "convenience"}}}, {"type": "Feature", "geometry": {"type": "Polygon", "coordinates": [[[-96.39433, 36.1215764], [-96.3941849, 36.1216518], [-96.3941414, 36.1215972], [-96.3942866, 36.1215218], [-96.39433, 36.1215764]]]}, "properties": {"osm_id": 64784780, "building": "yes", "name": "Sinclair", "height": null, "height_m": null, "levels": null, "tract_id": "40037020706", "tract_name": "207.06", "tags": {"amenity": "fuel", "building": "yes", "name": "Sinclair", "opening_hours": "24/7"}}}, {"type": "Feature", "geometry": {"type": "Polygon", "coordinates": [[[-96.3535328, 36.1538376], [-96.3534254, 36.1537743], [-96.3535121, 36.1536784], [-96.3534904, 36.1536656], [-96.3535869, 36.153559], [-96.3536085, 36.1535718], [-96.3536435, 36.153533], [-96.353751, 36.1535964], [-96.3535328, 36.1538376]]]}, "properties": {"osm_id": 448843821, "building": "house", "name": "", "height": null, "height_m": null, "levels": null, "tract_id": "40037020706", "tract_name": "207.06", "tags": {"addr:city": "Mannford", "addr:country": "US", "addr:housenumber": "590", "addr:state": "OK", "addr:street": "Keystone Loop", "building": "house"}}}, {"type": "Feature", "geometry": {"type": "Polygon", "coordinates": [[[-96.3534725, 36.1539881], [-96.3533976, 36.1539703], [-96.3534285, 36.1538859], [-96.3535033, 36.1539037], [-96.3534725, 36.1539881]]]}, "properties": {"osm_id": 448843822, "building": "yes", "name": "", "height": null, "height_m": null, "levels": null, "tract_id": "40037020706", "tract_name": "207.06", "tags": {"building": "yes"}}}, {"type": "Feature", "geometry": {"type": "Polygon", "coordinates": [[[-96.3539935, 36.153725], [-96.3538621, 36.1537369], [-96.3538491, 36.1536439], [-96.3539806, 36.153632], [-96.3539935, 36.153725]]]}, "properties": {"osm_id": 448843823, "building": "yes", "name": "", "height": null, "height_m": null, "levels": null, "tract_id": "40037020706", "tract_name": "207.06", "tags": {"building": "yes"}}}, {"type": "Feature", "geometry": {"type": "Polygon", "coordinates": [[[-96.3514754, 36.141704], [-96.3514785, 36.1413653], [-96.3515029, 36.1413655], [-96.3515047, 36.1411755], [-96.3514464, 36.1411751], [-96.3514485, 36.1409459], [-96.3514052, 36.1409456], [-96.3514066, 36.1407843], [-96.3512309, 36.1407833], [-96.3512282, 36.1410853], [-96.3513961, 36.1410863], [-96.3513952, 36.1411813], [-96.3510353, 36.1411791], [-96.3510336, 36.1413653], [-96.3512579, 36.1413666], [-96.3512548, 36.1417027], [-96.3514754, 36.141704]]]}, "properties": {"osm_id": 598074418, "building": "church", "name": "Lakeside Baptist Church", "height": null, "height_m": null, "levels": null, "tract_id": "40037020706", "tract_name": "207.06", "tags": {"amenity": "place_of_worship", "building": "church", "name": "Lakeside Baptist Church", "religion": "christian"}}}, {"type": "Feature", "geometry": {"type": "Polygon", "coordinates": [[[-96.3578126, 36.126324], [-96.3575604, 36.1262636], [-96.3576631, 36.1259241], [-96.3579153, 36.125992], [-96.3578126, 36.126324]]]}, "properties": {"osm_id": 628371441, "building": "yes", "name": "Mannford Post Office", "height": null, "height_m": null, "levels": null, "tract_id": "40037020706", "tract_name": "207.06", "tags": {"amenity": "post_office", "building": "yes", "name": "Mannford Post Office"}}}, {"type": "Feature", "geometry": {"type": "Polygon", "coordinates": [[[-96.351438, 36.1191756], [-96.351438, 36.1187154], [-96.3509337, 36.1187305], [-96.3509524, 36.1191832], [-96.351438, 36.1191756]]]}, "properties": {"osm_id": 628371442, "building": "yes", "name": "First Methodist", "height": null, "height_m": null, "levels": null, "tract_id": "40037020706", "tract_name": "207.06", "tags": {"amenity": "place_of_worship", "building": "yes", "name": "First Methodist", "religion": "christian"}}}, {"type": "Feature", "geometry": {"type": "Polygon", "coordinates": [[[-96.3528726, 36.1192285], [-96.3523562, 36.1192149], [-96.3523979, 36.1183761], [-96.3528821, 36.1183788], [-96.3528726, 36.1192285]]]}, "properties": {"osm_id": 628371445, "building": "yes", "name": "Mannford First Baptist", "height": null, "height_m": null, "levels": null, "tract_id": "40037020706", "tract_name": "207.06", "tags": {"amenity": "place_of_worship", "building": "yes", "name": "Mannford First Baptist", "religion": "christian"}}}, {"type": "Feature", "geometry": {"type": "Polygon", "coordinates": [[[-96.3543436, 36.119475], [-96.3545028, 36.1193237], [-96.3543006, 36.1191848], [-96.3542243, 36.1192573], [-96.3543069, 36.119314], [-96.3542239, 36.1193928], [-96.3543436, 36.119475]]]}, "properties": {"osm_id": 640770580, "building": "yes", "name": "", "height": null, "height_m": null, "levels": null, "tract_id": "40037020706", "tract_name": "207.06", "tags": {"amenity": "place_of_worship", "building": "yes"}}}, {"type": "Feature", "geometry": {"type": "Polygon", "coordinates": [[[-96.3582892, 36.1222236], [-96.3581806, 36.1223298], [-96.3580141, 36.1222187], [-96.3579041, 36.1223262], [-96.3577865, 36.1222477], [-96.3580051, 36.122034], [-96.3582892, 36.1222236]]]}, "properties": {"osm_id": 640770612, "building": "yes", "name": "", "height": null, "height_m": null, "levels": null, "tract_id": "40037020706", "tract_name": "207.06", "tags": {"amenity": "place_of_worship", "building": "yes"}}}, {"type": "Feature", "geometry": {"type": "Polygon", "coordinates": [[[-96.3589586, 36.1229425], [-96.3584163, 36.1229936], [-96.3583963, 36.122855], [-96.3584152, 36.1228532], [-96.3584073, 36.1227984], [-96.3587027, 36.1227706], [-96.3587056, 36.122791], [-96.3587584, 36.122786], [-96.3587394, 36.1226539], [-96.3590117, 36.1226283], [-96.359037, 36.1228036], [-96.3590094, 36.1228062], [-96.3590184, 36.1228689], [-96.3589489, 36.1228754], [-96.3589586, 36.1229425]]]}, "properties": {"osm_id": 640770626, "building": "yes", "name": "", "height": null, "height_m": null, "levels": null, "tract_id": "40037020706", "tract_name": "207.06", "tags": {"amenity": "place_of_worship", "building": "yes"}}}, {"type": "Feature", "geometry": {"type": "Polygon", "coordinates": [[[-96.3575944, 36.1227644], [-96.3576694, 36.1228429], [-96.3576279, 36.1228687], [-96.3577259, 36.1229714], [-96.3576238, 36.123035], [-96.3575258, 36.1229323], [-96.3574467, 36.1229815], [-96.3573718, 36.122903], [-96.3575944, 36.1227644]]]}, "properties": {"osm_id": 641028166, "building": "yes", "name": "New Mannford", "height": null, "height_m": null, "levels": null, "tract_id": "40037020706", "tract_name": "207.06", "tags": {"amenity": "place_of_worship", "building": "yes", "ele": "249", "gnis:feature_id": "1095830", "name": "New Mannford"}}}, {"type": "Feature", "geometry": {"type": "Polygon", "coordinates": [[[-96.3615239, 36.1291598], [-96.361379, 36.1291577], [-96.3613798, 36.1291213], [-96.3613171, 36.1291204], [-96.3613203, 36.1289738], [-96.3615279, 36.1289767], [-96.3615239, 36.1291598]]]}, "properties": {"osm_id": 641032430, "building": "yes", "name": "McDonald's", "height": null, "height_m": null, "levels": null, "tract_id": "40037020706", "tract_name": "207.06", "tags": {"amenity": "fast_food", "brand": "McDonald's", "brand:wikidata": "Q38076", "building": "yes", "cuisine": "burger", "name": "McDonald's", "takeaway": "yes", "website": "https://www.mcdonalds.com/us/en-us/location/ok/mannford/30001-w-highway-51/34241.html"}}}, {"type": "Feature", "geometry": {"type": "Polygon", "coordinates": [[[-96.3615232, 36.1303553], [-96.3615178, 36.1299375], [-96.3615855, 36.1299369], [-96.3615849, 36.1298886], [-96.3619873, 36.1298852], [-96.3619879, 36.1299334], [-96.3621648, 36.1299319], [-96.3621702, 36.1303495], [-96.3619598, 36.1303513], [-96.3619611, 36.1304514], [-96.3618404, 36.1304525], [-96.3618397, 36.1303998], [-96.3618082, 36.1304001], [-96.3618076, 36.1303529], [-96.3615232, 36.1303553]]]}, "properties": {"osm_id": 641032431, "building": "yes", "name": "Phelps", "height": null, "height_m": null, "levels": null, "tract_id": "40037020706", "tract_name": "207.06", "tags": {"building": "yes", "name": "Phelps", "shop": "supermarket"}}}, {"type": "Feature", "geometry": {"type": "Polygon", "coordinates": [[[-96.3500625, 36.1207935], [-96.3500567, 36.1204581], [-96.3504383, 36.1204538], [-96.350438, 36.1204365], [-96.3502528, 36.1204385], [-96.3502498, 36.1202651], [-96.3503363, 36.1202641], [-96.3503303, 36.1199131], [-96.3505749, 36.1199103], [-96.3505799, 36.1202002], [-96.350736, 36.1201984], [-96.3507315, 36.1199334], [-96.3510526, 36.1199298], [-96.3510544, 36.1200333], [-96.3509492, 36.1200345], [-96.350952, 36.120196], [-96.3511129, 36.1201942], [-96.3511084, 36.1199317], [-96.3512827, 36.1199298], [-96.3512872, 36.1201923], [-96.3513136, 36.120192], [-96.3513163, 36.1203523], [-96.3505827, 36.1203605], [-96.3505834, 36.1204016], [-96.3504858, 36.1204027], [-96.3504866, 36.1204529], [-96.3505784, 36.1204519], [-96.3505842, 36.1207877], [-96.3500625, 36.1207935]]]}, "properties": {"osm_id": 641032689, "building": "school", "name": "Mannford High School", "height": null, "height_m": null, "levels": null, "tract_id": "40037020706", "tract_name": "207.06", "tags": {"amenity": "school", "building": "school", "name": "Mannford High School"}}}, {"type": "Feature", "geometry": {"type": "Polygon", "coordinates": [[[-96.3527733, 36.1257299], [-96.3527849, 36.1253358], [-96.3525618, 36.1253315], [-96.3525501, 36.1257256], [-96.3527733, 36.1257299]]]}, "properties": {"osm_id": 747815369, "building": "yes", "name": "", "height": null, "height_m": null, "levels": null, "tract_id": "40037020706", "tract_name": "207.06", "tags": {"building": "yes", "shop": "yes"}}}, {"type": "Feature", "geometry": {"type": "Polygon", "coordinates": [[[-96.3529653, 36.1258438], [-96.3529685, 36.1255031], [-96.3528564, 36.1255024], [-96.3528531, 36.1258431], [-96.3529653, 36.1258438]]]}, "properties": {"osm_id": 747815370, "building": "yes", "name": "", "height": null, "height_m": null, "levels": null, "tract_id": "40037020706", "tract_name": "207.06", "tags": {"building": "yes"}}}, {"type": "Feature", "geometry": {"type": "Polygon", "coordinates": [[[-96.3531322, 36.1248299], [-96.3531358, 36.1247329], [-96.3528809, 36.1247266], [-96.3528772, 36.1248236], [-96.3531322, 36.1248299]]]}, "properties": {"osm_id": 747815371, "building": "yes", "name": "", "height": null, "height_m": null, "levels": null, "tract_id": "40037020706", "tract_name": "207.06", "tags": {"building": "yes", "shop": "yes"}}}, {"type": "Feature", "geometry": {"type": "Polygon", "coordinates": [[[-96.3534712, 36.1257543], [-96.353475, 36.125598], [-96.3531184, 36.125595], [-96.353117, 36.1257523], [-96.3534712, 36.1257543]]]}, "properties": {"osm_id": 747815372, "building": "yes", "name": "", "height": null, "height_m": null, "levels": null, "tract_id": "40037020706", "tract_name": "207.06", "tags": {"building": "yes"}}}, {"type": "Feature", "geometry": {"type": "Polygon", "coordinates": [[[-96.3533352, 36.125458], [-96.3533413, 36.1252722], [-96.3529683, 36.1252641], [-96.3529621, 36.1254499], [-96.3533352, 36.125458]]]}, "properties": {"osm_id": 747816787, "building": "yes", "name": "", "height": null, "height_m": null, "levels": null, "tract_id": "40037020706", "tract_name": "207.06", "tags": {"building": "yes", "shop": "yes"}}}, {"type": "Feature", "geometry": {"type": "Polygon", "coordinates": [[[-96.3539651, 36.1256469], [-96.3539696, 36.125436], [-96.3538229, 36.1254339], [-96.3538183, 36.1256448], [-96.3539651, 36.1256469]]]}, "properties": {"osm_id": 747816788, "building": "yes", "name": "", "height": null, "height_m": null, "levels": null, "tract_id": "40037020706", "tract_name": "207.06", "tags": {"building": "yes"}}}, {"type": "Feature", "geometry": {"type": "Polygon", "coordinates": [[[-96.3533938, 36.1260298], [-96.3533984, 36.1258244], [-96.3532927, 36.1258228], [-96.3532881, 36.1260282], [-96.3533938, 36.1260298]]]}, "properties": {"osm_id": 747816789, "building": "yes", "name": "", "height": null, "height_m": null, "levels": null, "tract_id": "40037020706", "tract_name": "207.06", "tags": {"building": "yes"}}}, {"type": "Feature", "geometry": {"type": "Polygon", "coordinates": [[[-96.3134921, 35.9927534], [-96.3134798, 35.9926489], [-96.3135861, 35.9926407], [-96.3135984, 35.9927451], [-96.3134921, 35.9927534]]]}, "properties": {"osm_id": 854324718, "building": "yes", "name": "", "height": null, "height_m": null, "levels": null, "tract_id": "40037020706", "tract_name": "207.06", "tags": {"building": "yes"}}}, {"type": "Feature", "geometry": {"type": "Polygon", "coordinates": [[[-96.3126554, 36.0931671], [-96.3125077, 36.0932328], [-96.312431, 36.0931167], [-96.3125811, 36.0930465], [-96.3126554, 36.0931671]]]}, "properties": {"osm_id": 976583818, "building": "yes", "name": "", "height": null, "height_m": null, "levels": null, "tract_id": "40037020706", "tract_name": "207.06", "tags": {"building": "yes"}}}, {"type": "Feature", "geometry": {"type": "Polygon", "coordinates": [[[-96.3124703, 36.0930906], [-96.3124301, 36.0931087], [-96.3123672, 36.0930176], [-96.3124074, 36.0929995], [-96.3124703, 36.0930906]]]}, "properties": {"osm_id": 976583819, "building": "yes", "name": "", "height": null, "height_m": null, "levels": null, "tract_id": "40037020706", "tract_name": "207.06", "tags": {"building": "yes"}}}, {"type": "Feature", "geometry": {"type": "Polygon", "coordinates": [[[-96.3671848, 36.1575266], [-96.367008, 36.1574648], [-96.3670512, 36.1573841], [-96.3671316, 36.1574122], [-96.3671601, 36.1573589], [-96.3672567, 36.1573927], [-96.3671848, 36.1575266]]]}, "properties": {"osm_id": 987309739, "building": "yes", "name": "", "height": null, "height_m": null, "levels": null, "tract_id": "40037020706", "tract_name": "207.06", "tags": {"building": "yes"}}}, {"type": "Feature", "geometry": {"type": "Polygon", "coordinates": [[[-96.3672701, 36.1581359], [-96.3671831, 36.1581797], [-96.3671862, 36.1581837], [-96.3670787, 36.1582378], [-96.3670632, 36.1582178], [-96.366983, 36.1582581], [-96.3669273, 36.1581858], [-96.3670061, 36.1581462], [-96.3669989, 36.1581369], [-96.367118, 36.158077], [-96.3671259, 36.1580872], [-96.3672027, 36.1580486], [-96.3672701, 36.1581359]]]}, "properties": {"osm_id": 987309740, "building": "yes", "name": "", "height": null, "height_m": null, "levels": null, "tract_id": "40037020706", "tract_name": "207.06", "tags": {"building": "yes"}}}, {"type": "Feature", "geometry": {"type": "Polygon", "coordinates": [[[-96.3581875, 36.126992], [-96.3582309, 36.1268382], [-96.357775, 36.1267543], [-96.3577317, 36.1269081], [-96.3581875, 36.126992]]]}, "properties": {"osm_id": 1282892177, "building": "yes", "name": "Mannford Police Department", "height": null, "height_m": null, "levels": null, "tract_id": "40037020706", "tract_name": "207.06", "tags": {"addr:city": "Mannford", "addr:housenumber": "300", "addr:postcode": "74044", "addr:state": "OK", "addr:street": "Coonrod Drive", "amenity": "police", "building": "yes", "emergency": "psap", "name": "Mannford Police Department"}}}, {"type": "Feature", "geometry": {"type": "Polygon", "coordinates": [[[-96.3545497, 36.1268262], [-96.3543914, 36.1268068], [-96.3543786, 36.126875], [-96.3545369, 36.1268944], [-96.3545497, 36.1268262]]]}, "properties": {"osm_id": 1328290898, "building": "roof", "name": "", "height": null, "height_m": null, "levels": null, "tract_id": "40037020706", "tract_name": "207.06", "tags": {"building": "roof", "source": "microsoft/BuildingFootprints"}}}, {"type": "Feature", "geometry": {"type": "Polygon", "coordinates": [[[-96.3545473, 36.1260502], [-96.3544051, 36.1260499], [-96.3544044, 36.126247], [-96.3545466, 36.1262473], [-96.3545473, 36.1260502]]]}, "properties": {"osm_id": 1328290899, "building": "yes", "name": "", "height": null, "height_m": null, "levels": null, "tract_id": "40037020706", "tract_name": "207.06", "tags": {"building": "yes", "source": "microsoft/BuildingFootprints"}}}, {"type": "Feature", "geometry": {"type": "Polygon", "coordinates": [[[-96.3543706, 36.1257274], [-96.3542196, 36.1256117], [-96.3541018, 36.125712], [-96.3542528, 36.1258277], [-96.3543706, 36.1257274]]]}, "properties": {"osm_id": 1328290900, "building": "yes", "name": "", "height": null, "height_m": null, "levels": null, "tract_id": "40037020706", "tract_name": "207.06", "tags": {"building": "yes", "source": "microsoft/BuildingFootprints"}}}, {"type": "Feature", "geometry": {"type": "Polygon", "coordinates": [[[-96.354208, 36.1260677], [-96.3542046, 36.1262367], [-96.3542958, 36.1262379], [-96.3542991, 36.1260689], [-96.354208, 36.1260677]]]}, "properties": {"osm_id": 1328290901, "building": "yes", "name": "", "height": null, "height_m": null, "levels": null, "tract_id": "40037020706", "tract_name": "207.06", "tags": {"building": "yes", "source": "microsoft/BuildingFootprints"}}}, {"type": "Feature", "geometry": {"type": "Polygon", "coordinates": [[[-96.3525012, 36.1243085], [-96.3524017, 36.1244005], [-96.3525718, 36.1245206], [-96.3525598, 36.1245317], [-96.3526378, 36.1245868], [-96.3527493, 36.1244837], [-96.3525012, 36.1243085]]]}, "properties": {"osm_id": 1328290902, "building": "yes", "name": "", "height": null, "height_m": null, "levels": null, "tract_id": "40037020706", "tract_name": "207.06", "tags": {"building": "yes", "shop": "yes", "source": "microsoft/BuildingFootprints"}}}, {"type": "Feature", "geometry": {"type": "Polygon", "coordinates": [[[-96.3530948, 36.123942], [-96.3530027, 36.1240238], [-96.3531436, 36.1241274], [-96.3532358, 36.1240456], [-96.3530948, 36.123942]]]}, "properties": {"osm_id": 1328290903, "building": "semidetached_house", "name": "", "height": null, "height_m": null, "levels": null, "tract_id": "40037020706", "tract_name": "207.06", "tags": {"building": "semidetached_house", "source": "microsoft/BuildingFootprints"}}}, {"type": "Feature", "geometry": {"type": "Polygon", "coordinates": [[[-96.3535803, 36.124441], [-96.3536829, 36.1245171], [-96.3537484, 36.1244594], [-96.3536457, 36.1243833], [-96.3535803, 36.124441]]]}, "properties": {"osm_id": 1328290904, "building": "yes", "name": "", "height": null, "height_m": null, "levels": null, "tract_id": "40037020706", "tract_name": "207.06", "tags": {"building": "yes", "source": "microsoft/BuildingFootprints"}}}, {"type": "Feature", "geometry": {"type": "Polygon", "coordinates": [[[-96.3541891, 36.126676], [-96.3540295, 36.1266568], [-96.3540015, 36.1268083], [-96.3541612, 36.1268275], [-96.3541891, 36.126676]]]}, "properties": {"osm_id": 1328290905, "building": "roof", "name": "", "height": null, "height_m": null, "levels": null, "tract_id": "40037020706", "tract_name": "207.06", "tags": {"building": "roof", "source": "microsoft/BuildingFootprints"}}}, {"type": "Feature", "geometry": {"type": "Polygon", "coordinates": [[[-96.3532233, 36.1249324], [-96.3530785, 36.1249343], [-96.3530832, 36.1251605], [-96.3532266, 36.1251586], [-96.3532256, 36.1251088], [-96.3532845, 36.125108], [-96.3532819, 36.1249802], [-96.3532243, 36.124981], [-96.3532233, 36.1249324]]]}, "properties": {"osm_id": 1328290906, "building": "yes", "name": "", "height": null, "height_m": null, "levels": null, "tract_id": "40037020706", "tract_name": "207.06", "tags": {"building": "yes", "shop": "yes", "source": "microsoft/BuildingFootprints"}}}, {"type": "Feature", "geometry": {"type": "Polygon", "coordinates": [[[-96.3543661, 36.1258073], [-96.3545178, 36.1260252], [-96.3546106, 36.1259831], [-96.3545537, 36.1259014], [-96.3545347, 36.12591], [-96.3544399, 36.1257738], [-96.3543661, 36.1258073]]]}, "properties": {"osm_id": 1328290907, "building": "yes", "name": "", "height": null, "height_m": null, "levels": null, "tract_id": "40037020706", "tract_name": "207.06", "tags": {"building": "yes", "source": "microsoft/BuildingFootprints"}}}, {"type": "Feature", "geometry": {"type": "Polygon", "coordinates": [[[-96.3528516, 36.1239022], [-96.3529867, 36.1240072], [-96.3530859, 36.1239239], [-96.3530079, 36.1238633], [-96.3530059, 36.1238649], [-96.3529488, 36.1238205], [-96.3528516, 36.1239022]]]}, "properties": {"osm_id": 1328290908, "building": "semidetached_house", "name": "", "height": null, "height_m": null, "levels": null, "tract_id": "40037020706", "tract_name": "207.06", "tags": {"building": "semidetached_house", "source": "microsoft/BuildingFootprints"}}}, {"type": "Feature", "geometry": {"type": "Polygon", "coordinates": [[[-96.3535516, 36.1242944], [-96.3534141, 36.1241883], [-96.3533196, 36.1242683], [-96.353457, 36.1243743], [-96.3535516, 36.1242944]]]}, "properties": {"osm_id": 1328290909, "building": "semidetached_house", "name": "", "height": null, "height_m": null, "levels": null, "tract_id": "40037020706", "tract_name": "207.06", "tags": {"building": "semidetached_house", "source": "microsoft/BuildingFootprints"}}}, {"type": "Feature", "geometry": {"type": "Polygon", "coordinates": [[[-96.3546435, 36.126585], [-96.3544014, 36.126551], [-96.354374, 36.1266783], [-96.3546161, 36.1267123], [-96.3546435, 36.126585]]]}, "properties": {"osm_id": 1328290910, "building": "yes", "name": "Jiffy Trip", "height": null, "height_m": null, "levels": null, "tract_id": "40037020706", "tract_name": "207.06", "tags": {"addr:postcode": "74044", "addr:street": "East Trower Boulevard", "building": "yes", "name": "Jiffy Trip", "phone": "+1 918 215 4752", "ref": "820", "shop": "convenience", "source": "microsoft/BuildingFootprints"}}}, {"type": "Feature", "geometry": {"type": "Polygon", "coordinates": [[[-96.3532565, 36.1240643], [-96.3531601, 36.1241465], [-96.3532987, 36.1242525], [-96.3533951, 36.1241703], [-96.3532565, 36.1240643]]]}, "properties": {"osm_id": 1328290911, "building": "semidetached_house", "name": "", "height": null, "height_m": null, "levels": null, "tract_id": "40037020706", "tract_name": "207.06", "tags": {"building": "semidetached_house", "source": "microsoft/BuildingFootprints"}}}, {"type": "Feature", "geometry": {"type": "Polygon", "coordinates": [[[-96.353604, 36.123804], [-96.3536871, 36.1238059], [-96.3536836, 36.1239062], [-96.3536005, 36.1239043], [-96.353604, 36.123804]]]}, "properties": {"osm_id": 1350746569, "building": "detached", "name": "", "height": null, "height_m": null, "levels": null, "tract_id": "40037020706", "tract_name": "207.06", "tags": {"building": "detached"}}}, {"type": "Feature", "geometry": {"type": "Polygon", "coordinates": [[[-96.3538749, 36.1238444], [-96.3538058, 36.1238866], [-96.353732, 36.1238079], [-96.3538011, 36.1237657], [-96.3538749, 36.1238444]]]}, "properties": {"osm_id": 1350746570, "building": "semidetached_house", "name": "", "height": null, "height_m": null, "levels": null, "tract_id": "40037020706", "tract_name": "207.06", "tags": {"building": "semidetached_house"}}}, {"type": "Feature", "geometry": {"type": "Polygon", "coordinates": [[[-96.3538856, 36.1236061], [-96.3539097, 36.1235405], [-96.354038, 36.1235713], [-96.3540138, 36.1236369], [-96.3538856, 36.1236061]]]}, "properties": {"osm_id": 1350746571, "building": "semidetached_house", "name": "", "height": null, "height_m": null, "levels": null, "tract_id": "40037020706", "tract_name": "207.06", "tags": {"building": "semidetached_house"}}}, {"type": "Feature", "geometry": {"type": "Polygon", "coordinates": [[[-96.3533334, 36.1238238], [-96.3532687, 36.1237794], [-96.3533509, 36.1237013], [-96.3534156, 36.1237457], [-96.3533334, 36.1238238]]]}, "properties": {"osm_id": 1350746572, "building": "semidetached_house", "name": "", "height": null, "height_m": null, "levels": null, "tract_id": "40037020706", "tract_name": "207.06", "tags": {"building": "semidetached_house"}}}, {"type": "Feature", "geometry": {"type": "Polygon", "coordinates": [[[-96.3540201, 36.12342], [-96.3540338, 36.1234901], [-96.3539077, 36.1235063], [-96.3538939, 36.1234361], [-96.3540201, 36.12342]]]}, "properties": {"osm_id": 1350746573, "building": "semidetached_house", "name": "", "height": null, "height_m": null, "levels": null, "tract_id": "40037020706", "tract_name": "207.06", "tags": {"building": "semidetached_house"}}}, {"type": "Feature", "geometry": {"type": "Polygon", "coordinates": [[[-96.3533173, 36.1235982], [-96.3533378, 36.1236635], [-96.3532129, 36.123689], [-96.3531924, 36.1236237], [-96.3533173, 36.1235982]]]}, "properties": {"osm_id": 1350746574, "building": "semidetached_house", "name": "", "height": null, "height_m": null, "levels": null, "tract_id": "40037020706", "tract_name": "207.06", "tags": {"building": "semidetached_house"}}}, {"type": "Feature", "geometry": {"type": "Polygon", "coordinates": [[[-96.3538333, 36.1232859], [-96.353779, 36.1232318], [-96.3538876, 36.1231607], [-96.3539419, 36.1232149], [-96.3538333, 36.1232859]]]}, "properties": {"osm_id": 1350746575, "building": "semidetached_house", "name": "", "height": null, "height_m": null, "levels": null, "tract_id": "40037020706", "tract_name": "207.06", "tags": {"building": "semidetached_house"}}}, {"type": "Feature", "geometry": {"type": "Polygon", "coordinates": [[[-96.3536804, 36.1231172], [-96.3537656, 36.1231359], [-96.3537292, 36.123244], [-96.3536441, 36.1232254], [-96.3536804, 36.1231172]]]}, "properties": {"osm_id": 1350746576, "building": "semidetached_house", "name": "", "height": null, "height_m": null, "levels": null, "tract_id": "40037020706", "tract_name": "207.06", "tags": {"building": "semidetached_house"}}}, {"type": "Feature", "geometry": {"type": "Polygon", "coordinates": [[[-96.3534404, 36.1232142], [-96.3533552, 36.1232134], [-96.3533569, 36.1230993], [-96.353442, 36.1231001], [-96.3534404, 36.1232142]]]}, "properties": {"osm_id": 1350746577, "building": "semidetached_house", "name": "", "height": null, "height_m": null, "levels": null, "tract_id": "40037020706", "tract_name": "207.06", "tags": {"building": "semidetached_house"}}}, {"type": "Feature", "geometry": {"type": "Polygon", "coordinates": [[[-96.353213, 36.1231102], [-96.3533009, 36.1231175], [-96.3532874, 36.1232232], [-96.3531996, 36.1232158], [-96.353213, 36.1231102]]]}, "properties": {"osm_id": 1350746578, "building": "semidetached_house", "name": "", "height": null, "height_m": null, "levels": null, "tract_id": "40037020706", "tract_name": "207.06", "tags": {"building": "semidetached_house"}}}, {"type": "Feature", "geometry": {"type": "Polygon", "coordinates": [[[-96.3529663, 36.1232069], [-96.3528811, 36.123221], [-96.3528531, 36.1231102], [-96.3529382, 36.1230961], [-96.3529663, 36.1232069]]]}, "properties": {"osm_id": 1350746579, "building": "semidetached_house", "name": "", "height": null, "height_m": null, "levels": null, "tract_id": "40037020706", "tract_name": "207.06", "tags": {"building": "semidetached_house"}}}, {"type": "Feature", "geometry": {"type": "Polygon", "coordinates": [[[-96.3528154, 36.1232998], [-96.3527665, 36.123358], [-96.3526483, 36.1232932], [-96.3526972, 36.1232349], [-96.3528154, 36.1232998]]]}, "properties": {"osm_id": 1350746580, "building": "semidetached_house", "name": "", "height": null, "height_m": null, "levels": null, "tract_id": "40037020706", "tract_name": "207.06", "tags": {"building": "semidetached_house"}}}, {"type": "Feature", "geometry": {"type": "Polygon", "coordinates": [[[-96.3532969, 36.1235329], [-96.3533173, 36.1235982], [-96.3531924, 36.1236237], [-96.353172, 36.1235585], [-96.3532969, 36.1235329]]]}, "properties": {"osm_id": 1350746581, "building": "semidetached_house", "name": "", "height": null, "height_m": null, "levels": null, "tract_id": "40037020706", "tract_name": "207.06", "tags": {"building": "semidetached_house"}}}, {"type": "Feature", "geometry": {"type": "Polygon", "coordinates": [[[-96.3533981, 36.1238682], [-96.3533334, 36.1238238], [-96.3534156, 36.1237457], [-96.3534803, 36.1237901], [-96.3533981, 36.1238682]]]}, "properties": {"osm_id": 1350746582, "building": "semidetached_house", "name": "", "height": null, "height_m": null, "levels": null, "tract_id": "40037020706", "tract_name": "207.06", "tags": {"building": "semidetached_house"}}}, {"type": "Feature", "geometry": {"type": "Polygon", "coordinates": [[[-96.3535208, 36.1238021], [-96.353604, 36.123804], [-96.3536005, 36.1239043], [-96.3535173, 36.1239024], [-96.3535208, 36.1238021]]]}, "properties": {"osm_id": 1350746583, "building": "detached", "name": "", "height": null, "height_m": null, "levels": null, "tract_id": "40037020706", "tract_name": "207.06", "tags": {"building": "detached"}}}, {"type": "Feature", "geometry": {"type": "Polygon", "coordinates": [[[-96.3539439, 36.1238021], [-96.3538749, 36.1238444], [-96.3538011, 36.1237657], [-96.3538702, 36.1237234], [-96.3539439, 36.1238021]]]}, "properties": {"osm_id": 1350746584, "building": "semidetached_house", "name": "", "height": null, "height_m": null, "levels": null, "tract_id": "40037020706", "tract_name": "207.06", "tags": {"building": "semidetached_house"}}}, {"type": "Feature", "geometry": {"type": "Polygon", "coordinates": [[[-96.3538615, 36.1236716], [-96.3538856, 36.1236061], [-96.3540138, 36.1236369], [-96.3539897, 36.1237024], [-96.3538615, 36.1236716]]]}, "properties": {"osm_id": 1350746585, "building": "semidetached_house", "name": "", "height": null, "height_m": null, "levels": null, "tract_id": "40037020706", "tract_name": "207.06", "tags": {"building": "semidetached_house"}}}, {"type": "Feature", "geometry": {"type": "Polygon", "coordinates": [[[-96.3540063, 36.1233499], [-96.3540201, 36.12342], [-96.3538939, 36.1234361], [-96.3538802, 36.123366], [-96.3540063, 36.1233499]]]}, "properties": {"osm_id": 1350746586, "building": "semidetached_house", "name": "", "height": null, "height_m": null, "levels": null, "tract_id": "40037020706", "tract_name": "207.06", "tags": {"building": "semidetached_house"}}}, {"type": "Feature", "geometry": {"type": "Polygon", "coordinates": [[[-96.3538876, 36.1233401], [-96.3538333, 36.1232859], [-96.3539419, 36.1232149], [-96.3539962, 36.1232691], [-96.3538876, 36.1233401]]]}, "properties": {"osm_id": 1350746587, "building": "semidetached_house", "name": "", "height": null, "height_m": null, "levels": null, "tract_id": "40037020706", "tract_name": "207.06", "tags": {"building": "semidetached_house"}}}, {"type": "Feature", "geometry": {"type": "Polygon", "coordinates": [[[-96.3535953, 36.1230985], [-96.3536804, 36.1231172], [-96.3536441, 36.1232254], [-96.3535589, 36.1232067], [-96.3535953, 36.1230985]]]}, "properties": {"osm_id": 1350746588, "building": "semidetached_house", "name": "", "height": null, "height_m": null, "levels": null, "tract_id": "40037020706", "tract_name": "207.06", "tags": {"building": "semidetached_house"}}}, {"type": "Feature", "geometry": {"type": "Polygon", "coordinates": [[[-96.3535255, 36.123215], [-96.3534404, 36.1232142], [-96.353442, 36.1231001], [-96.3535272, 36.123101], [-96.3535255, 36.123215]]]}, "properties": {"osm_id": 1350746589, "building": "semidetached_house", "name": "", "height": null, "height_m": null, "levels": null, "tract_id": "40037020706", "tract_name": "207.06", "tags": {"building": "semidetached_house"}}}, {"type": "Feature", "geometry": {"type": "Polygon", "coordinates": [[[-96.3531252, 36.1231029], [-96.353213, 36.1231102], [-96.3531996, 36.1232158], [-96.3531117, 36.1232085], [-96.3531252, 36.1231029]]]}, "properties": {"osm_id": 1350746590, "building": "semidetached_house", "name": "", "height": null, "height_m": null, "levels": null, "tract_id": "40037020706", "tract_name": "207.06", "tags": {"building": "semidetached_house"}}}, {"type": "Feature", "geometry": {"type": "Polygon", "coordinates": [[[-96.3530514, 36.1231928], [-96.3529663, 36.1232069], [-96.3529382, 36.1230961], [-96.3530234, 36.123082], [-96.3530514, 36.1231928]]]}, "properties": {"osm_id": 1350746591, "building": "semidetached_house", "name": "", "height": null, "height_m": null, "levels": null, "tract_id": "40037020706", "tract_name": "207.06", "tags": {"building": "semidetached_house"}}}, {"type": "Feature", "geometry": {"type": "Polygon", "coordinates": [[[-96.3528644, 36.1232415], [-96.3528154, 36.1232998], [-96.3526972, 36.1232349], [-96.3527462, 36.1231767], [-96.3528644, 36.1232415]]]}, "properties": {"osm_id": 1350746592, "building": "semidetached_house", "name": "", "height": null, "height_m": null, "levels": null, "tract_id": "40037020706", "tract_name": "207.06", "tags": {"building": "semidetached_house"}}}, {"type": "Feature", "geometry": {"type": "Polygon", "coordinates": [[[-96.3536154, 36.1235217], [-96.3536068, 36.1235126], [-96.3536071, 36.1235008], [-96.3536161, 36.1234936], [-96.3536298, 36.1234938], [-96.3536378, 36.1235011], [-96.3536375, 36.1235139], [-96.3536291, 36.123522], [-96.3536154, 36.1235217]]]}, "properties": {"osm_id": 1350746593, "building": "gazebo", "name": "", "height": null, "height_m": null, "levels": null, "tract_id": "40037020706", "tract_name": "207.06", "tags": {"building": "gazebo"}}}]}