{"type": "FeatureCollection", "features": [{"type": "Feature", "geometry": {"type": "Polygon", "coordinates": [[[-97.0246541, 34.9004396], [-97.024495, 34.9004588], [-97.0244728, 34.900335], [-97.0246319, 34.9003158], [-97.0246541, 34.9004396]]]}, "properties": {"osm_id": 867815597, "building": "yes", "name": "", "height": null, "height_m": null, "levels": null, "tract_id": "40087400400", "tract_name": "4004", "tags": {"building": "yes"}}}, {"type": "Feature", "geometry": {"type": "Polygon", "coordinates": [[[-97.0252671, 34.8986638], [-97.0249289, 34.8986927], [-97.0249143, 34.8985774], [-97.0252525, 34.8985485], [-97.0252671, 34.8986638]]]}, "properties": {"osm_id": 867815600, "building": "yes", "name": "", "height": null, "height_m": null, "levels": null, "tract_id": "40087400400", "tract_name": "4004", "tags": {"building": "yes"}}}, {"type": "Feature", "geometry": {"type": "Polygon", "coordinates": [[[-97.0243311, 34.8990206], [-97.0244849, 34.898964], [-97.024433, 34.8988692], [-97.0242792, 34.8989259], [-97.0243311, 34.8990206]]]}, "properties": {"osm_id": 867815601, "building": "yes", "name": "", "height": null, "height_m": null, "levels": null, "tract_id": "40087400400", "tract_name": "4004", "tags": {"building": "yes"}}}, {"type": "Feature", "geometry": {"type": "Polygon", "coordinates": [[[-97.0488564, 34.8742105], [-97.0488566, 34.8741193], [-97.048802, 34.8741192], [-97.0488018, 34.8742104], [-97.0488564, 34.8742105]]]}, "properties": {"osm_id": 1065133876, "building": "yes", "name": "", "height": null, "height_m": null, "levels": null, "tract_id": "40087400400", "tract_name": "4004", "tags": {"addr:city": "Byars", "addr:housenumber": "550", "addr:postcode": "74831", "addr:state": "OK", "addr:street": "East Ripley Street", "building": "yes"}}}, {"type": "Feature", "geometry": {"type": "Polygon", "coordinates": [[[-97.0534005, 34.8758185], [-97.0532546, 34.8758167], [-97.0532565, 34.8757066], [-97.0534025, 34.8757083], [-97.0534005, 34.8758185]]]}, "properties": {"osm_id": 1168138414, "building": "yes", "name": "Byars Town Hall", "height": null, "height_m": null, "levels": null, "tract_id": "40087400400", "tract_name": "4004", "tags": {"addr:city": "Byars", "addr:housenumber": "231", "addr:postcode": "74831", "addr:state": "OK", "addr:street": "East Main Street", "amenity": "townhall", "building": "yes", "name": "Byars Town Hall", "townhall:type": "village"}}}, {"type": "Feature", "geometry": {"type": "Polygon", "coordinates": [[[-97.0495479, 34.8748785], [-97.0494279, 34.8748808], [-97.0494247, 34.8747708], [-97.0495447, 34.8747685], [-97.0495479, 34.8748785]]]}, "properties": {"osm_id": 1168138415, "building": "yes", "name": "", "height": null, "height_m": null, "levels": null, "tract_id": "40087400400", "tract_name": "4004", "tags": {"building": "yes"}}}, {"type": "Feature", "geometry": {"type": "Polygon", "coordinates": [[[-97.0495174, 34.8747239], [-97.0492882, 34.8747217], [-97.0492892, 34.8746542], [-97.0493484, 34.8746547], [-97.0493487, 34.8746367], [-97.0494882, 34.874638], [-97.0494875, 34.8746941], [-97.0495178, 34.8746944], [-97.0495174, 34.8747239]]]}, "properties": {"osm_id": 1168138416, "building": "house", "name": "", "height": null, "height_m": null, "levels": null, "tract_id": "40087400400", "tract_name": "4004", "tags": {"addr:city": "Byars", "addr:housenumber": "502", "addr:postcode": "74831", "addr:state": "OK", "addr:street": "East Ripley Street", "building": "house"}}}, {"type": "Feature", "geometry": {"type": "Polygon", "coordinates": [[[-97.0502262, 34.8747421], [-97.0500725, 34.8747404], [-97.0500744, 34.8746259], [-97.0501771, 34.874627], [-97.0501767, 34.8746544], [-97.0502276, 34.874655], [-97.0502262, 34.8747421]]]}, "properties": {"osm_id": 1168138417, "building": "house", "name": "", "height": null, "height_m": null, "levels": null, "tract_id": "40087400400", "tract_name": "4004", "tags": {"building": "house"}}}, {"type": "Feature", "geometry": {"type": "Polygon", "coordinates": [[[-97.0500586, 34.8747637], [-97.0498285, 34.8747627], [-97.0498293, 34.8746423], [-97.0500594, 34.8746433], [-97.0500586, 34.8747637]]]}, "properties": {"osm_id": 1168138418, "building": "yes", "name": "", "height": null, "height_m": null, "levels": null, "tract_id": "40087400400", "tract_name": "4004", "tags": {"addr:city": "Byars", "addr:housenumber": "479", "addr:postcode": "74831", "addr:state": "OK", "addr:street": "East Ripley Street", "building": "yes"}}}, {"type": "Feature", "geometry": {"type": "Polygon", "coordinates": [[[-97.0505316, 34.874748], [-97.0504276, 34.8747468], [-97.0504245, 34.8746393], [-97.05053, 34.8746387], [-97.0505316, 34.874748]]]}, "properties": {"osm_id": 1168138419, "building": "yes", "name": "", "height": null, "height_m": null, "levels": null, "tract_id": "40087400400", "tract_name": "4004", "tags": {"building": "yes"}}}, {"type": "Feature", "geometry": {"type": "Polygon", "coordinates": [[[-97.0515459, 34.8746404], [-97.0514034, 34.8746397], [-97.051407, 34.8745511], [-97.0515459, 34.8745525], [-97.0515459, 34.8746404]]]}, "properties": {"osm_id": 1168138420, "building": "yes", "name": "Blue Branch BBQ", "height": null, "height_m": null, "levels": null, "tract_id": "40087400400", "tract_name": "4004", "tags": {"amenity": "restaurant", "building": "yes", "cuisine": "barbecue", "name": "Blue Branch BBQ"}}}, {"type": "Feature", "geometry": {"type": "Polygon", "coordinates": [[[-97.0518458, 34.874766], [-97.0517635, 34.874766], [-97.0517644, 34.8746774], [-97.0518485, 34.8746781], [-97.0518458, 34.874766]]]}, "properties": {"osm_id": 1168138421, "building": "yes", "name": "", "height": null, "height_m": null, "levels": null, "tract_id": "40087400400", "tract_name": "4004", "tags": {"building": "yes"}}}, {"type": "Feature", "geometry": {"type": "Polygon", "coordinates": [[[-97.0520507, 34.8747852], [-97.0519636, 34.8747855], [-97.0519631, 34.8746843], [-97.0520502, 34.874684], [-97.0520507, 34.8747852]]]}, "properties": {"osm_id": 1168138422, "building": "yes", "name": "", "height": null, "height_m": null, "levels": null, "tract_id": "40087400400", "tract_name": "4004", "tags": {"building": "yes"}}}, {"type": "Feature", "geometry": {"type": "Polygon", "coordinates": [[[-97.0539964, 34.8745737], [-97.0537045, 34.8745693], [-97.053708, 34.8754085], [-97.0539982, 34.8754099], [-97.0539964, 34.8745737]]]}, "properties": {"osm_id": 1168138423, "building": "yes", "name": "", "height": null, "height_m": 6.0, "levels": 2, "tract_id": "40087400400", "tract_name": "4004", "tags": {"building": "yes", "building:levels": "2"}}}, {"type": "Feature", "geometry": {"type": "Polygon", "coordinates": [[[-97.0532375, 34.8765711], [-97.0530833, 34.8764128], [-97.0531682, 34.8763571], [-97.0533224, 34.8765154], [-97.0532375, 34.8765711]]]}, "properties": {"osm_id": 1168138424, "building": "house", "name": "", "height": null, "height_m": null, "levels": null, "tract_id": "40087400400", "tract_name": "4004", "tags": {"building": "house"}}}, {"type": "Feature", "geometry": {"type": "Polygon", "coordinates": [[[-97.052736, 34.8763988], [-97.0526752, 34.8763995], [-97.052669, 34.8761758], [-97.0527322, 34.8761751], [-97.052736, 34.8763988]]]}, "properties": {"osm_id": 1168138425, "building": "yes", "name": "", "height": null, "height_m": null, "levels": null, "tract_id": "40087400400", "tract_name": "4004", "tags": {"building": "yes"}}}, {"type": "Feature", "geometry": {"type": "Polygon", "coordinates": [[[-97.0530012, 34.87586], [-97.0528603, 34.8758582], [-97.0528623, 34.8757549], [-97.0530032, 34.8757567], [-97.0530012, 34.87586]]]}, "properties": {"osm_id": 1168138426, "building": "house", "name": "", "height": null, "height_m": null, "levels": null, "tract_id": "40087400400", "tract_name": "4004", "tags": {"building": "house"}}}, {"type": "Feature", "geometry": {"type": "Polygon", "coordinates": [[[-97.052728, 34.8758153], [-97.0525524, 34.8758164], [-97.0525517, 34.8757427], [-97.0527273, 34.8757417], [-97.052728, 34.8758153]]]}, "properties": {"osm_id": 1168138427, "building": "house", "name": "", "height": null, "height_m": null, "levels": null, "tract_id": "40087400400", "tract_name": "4004", "tags": {"building": "house"}}}, {"type": "Feature", "geometry": {"type": "Polygon", "coordinates": [[[-97.0525187, 34.8758054], [-97.0523801, 34.8758054], [-97.0523801, 34.8757144], [-97.0525187, 34.8757144], [-97.0525187, 34.8758054]]]}, "properties": {"osm_id": 1168138428, "building": "house", "name": "", "height": null, "height_m": null, "levels": null, "tract_id": "40087400400", "tract_name": "4004", "tags": {"building": "house"}}}, {"type": "Feature", "geometry": {"type": "Polygon", "coordinates": [[[-97.0515622, 34.8758853], [-97.0515052, 34.8758871], [-97.0514998, 34.8757045], [-97.051556, 34.8757033], [-97.0515622, 34.8758853]]]}, "properties": {"osm_id": 1168138429, "building": "static_caravan", "name": "", "height": null, "height_m": null, "levels": null, "tract_id": "40087400400", "tract_name": "4004", "tags": {"building": "static_caravan"}}}, {"type": "Feature", "geometry": {"type": "Polygon", "coordinates": [[[-97.0508418, 34.8759506], [-97.0505768, 34.8759485], [-97.0505773, 34.8759042], [-97.0508423, 34.8759063], [-97.0508418, 34.8759506]]]}, "properties": {"osm_id": 1168138430, "building": "static_caravan", "name": "", "height": null, "height_m": null, "levels": null, "tract_id": "40087400400", "tract_name": "4004", "tags": {"building": "static_caravan"}}}, {"type": "Feature", "geometry": {"type": "Polygon", "coordinates": [[[-97.0503228, 34.8759847], [-97.0500546, 34.8759829], [-97.0500551, 34.8759389], [-97.0503233, 34.8759408], [-97.0503228, 34.8759847]]]}, "properties": {"osm_id": 1168138431, "building": "static_caravan", "name": "", "height": null, "height_m": null, "levels": null, "tract_id": "40087400400", "tract_name": "4004", "tags": {"building": "static_caravan"}}}, {"type": "Feature", "geometry": {"type": "Polygon", "coordinates": [[[-97.0499874, 34.8764042], [-97.0498051, 34.8764045], [-97.0498054, 34.8765326], [-97.0499025, 34.8765324], [-97.0499023, 34.8764786], [-97.0499876, 34.8764784], [-97.0499874, 34.8764042]]]}, "properties": {"osm_id": 1168138432, "building": "house", "name": "", "height": null, "height_m": null, "levels": null, "tract_id": "40087400400", "tract_name": "4004", "tags": {"building": "house"}}}, {"type": "Feature", "geometry": {"type": "Polygon", "coordinates": [[[-97.0492728, 34.8765018], [-97.0489161, 34.8765159], [-97.0489072, 34.8763637], [-97.0492638, 34.8763495], [-97.0492728, 34.8765018]]]}, "properties": {"osm_id": 1168138433, "building": "yes", "name": "", "height": null, "height_m": null, "levels": null, "tract_id": "40087400400", "tract_name": "4004", "tags": {"building": "yes"}}}, {"type": "Feature", "geometry": {"type": "Polygon", "coordinates": [[[-97.0495141, 34.8758188], [-97.0493856, 34.8758176], [-97.0493825, 34.8760388], [-97.0495109, 34.87604], [-97.0495141, 34.8758188]]]}, "properties": {"osm_id": 1168138434, "building": "yes", "name": "", "height": null, "height_m": null, "levels": null, "tract_id": "40087400400", "tract_name": "4004", "tags": {"building": "yes"}}}, {"type": "Feature", "geometry": {"type": "Polygon", "coordinates": [[[-97.0491827, 34.8759757], [-97.049052, 34.8759805], [-97.0490542, 34.8760197], [-97.048883, 34.876026], [-97.0488745, 34.8758695], [-97.0491763, 34.8758585], [-97.0491827, 34.8759757]]]}, "properties": {"osm_id": 1168138435, "building": "house", "name": "", "height": null, "height_m": null, "levels": null, "tract_id": "40087400400", "tract_name": "4004", "tags": {"building": "house"}}}, {"type": "Feature", "geometry": {"type": "Polygon", "coordinates": [[[-97.0479976, 34.8758112], [-97.0478172, 34.8758095], [-97.0478182, 34.8757382], [-97.0479986, 34.8757399], [-97.0479976, 34.8758112]]]}, "properties": {"osm_id": 1168138436, "building": "yes", "name": "", "height": null, "height_m": null, "levels": null, "tract_id": "40087400400", "tract_name": "4004", "tags": {"building": "yes"}}}, {"type": "Feature", "geometry": {"type": "Polygon", "coordinates": [[[-97.0468884, 34.8759866], [-97.0466879, 34.8759581], [-97.0466963, 34.8759179], [-97.0468968, 34.8759464], [-97.0468884, 34.8759866]]]}, "properties": {"osm_id": 1168138437, "building": "static_caravan", "name": "", "height": null, "height_m": null, "levels": null, "tract_id": "40087400400", "tract_name": "4004", "tags": {"building": "static_caravan"}}}, {"type": "Feature", "geometry": {"type": "Polygon", "coordinates": [[[-97.0457131, 34.8758469], [-97.0455087, 34.8756964], [-97.0455463, 34.8756619], [-97.0457508, 34.8758124], [-97.0457131, 34.8758469]]]}, "properties": {"osm_id": 1168138438, "building": "static_caravan", "name": "", "height": null, "height_m": null, "levels": null, "tract_id": "40087400400", "tract_name": "4004", "tags": {"building": "static_caravan"}}}, {"type": "Feature", "geometry": {"type": "Polygon", "coordinates": [[[-97.0455772, 34.8751341], [-97.0453958, 34.8751571], [-97.0453731, 34.8750366], [-97.0455545, 34.8750136], [-97.0455772, 34.8751341]]]}, "properties": {"osm_id": 1168138439, "building": "yes", "name": "", "height": null, "height_m": null, "levels": null, "tract_id": "40087400400", "tract_name": "4004", "tags": {"building": "yes"}}}, {"type": "Feature", "geometry": {"type": "Polygon", "coordinates": [[[-97.0454755, 34.8753294], [-97.0453658, 34.8753423], [-97.0453512, 34.8752589], [-97.0454608, 34.8752459], [-97.0454755, 34.8753294]]]}, "properties": {"osm_id": 1168138440, "building": "yes", "name": "", "height": null, "height_m": null, "levels": null, "tract_id": "40087400400", "tract_name": "4004", "tags": {"building": "yes"}}}, {"type": "Feature", "geometry": {"type": "Polygon", "coordinates": [[[-97.046799, 34.8752929], [-97.046642, 34.8752918], [-97.0466426, 34.875233], [-97.0467996, 34.8752342], [-97.046799, 34.8752929]]]}, "properties": {"osm_id": 1168138441, "building": "house", "name": "", "height": null, "height_m": null, "levels": null, "tract_id": "40087400400", "tract_name": "4004", "tags": {"building": "house"}}}, {"type": "Feature", "geometry": {"type": "Polygon", "coordinates": [[[-97.046416, 34.8753656], [-97.0462701, 34.8753647], [-97.0462707, 34.8752929], [-97.0464167, 34.8752938], [-97.046416, 34.8753656]]]}, "properties": {"osm_id": 1168138442, "building": "yes", "name": "Henderson's Cheap ATV & Auto Repair", "height": null, "height_m": null, "levels": null, "tract_id": "40087400400", "tract_name": "4004", "tags": {"addr:city": "Byars", "addr:housenumber": "752", "addr:postcode": "74831", "addr:state": "OK", "addr:street": "East Main Street", "building": "yes", "name": "Henderson's Cheap ATV & Auto Repair", "phone": "(580) 399-0697", "shop": "car_repair"}}}, {"type": "Feature", "geometry": {"type": "Polygon", "coordinates": [[[-97.0478535, 34.875197], [-97.0477105, 34.875199], [-97.0477088, 34.8751156], [-97.0478518, 34.8751137], [-97.0478535, 34.875197]]]}, "properties": {"osm_id": 1168138443, "building": "yes", "name": "", "height": null, "height_m": null, "levels": null, "tract_id": "40087400400", "tract_name": "4004", "tags": {"building": "yes"}}}, {"type": "Feature", "geometry": {"type": "Polygon", "coordinates": [[[-97.0484479, 34.8753293], [-97.0482512, 34.875331], [-97.0482503, 34.8752611], [-97.0484471, 34.8752594], [-97.0484479, 34.8753293]]]}, "properties": {"osm_id": 1168138444, "building": "house", "name": "", "height": null, "height_m": null, "levels": null, "tract_id": "40087400400", "tract_name": "4004", "tags": {"building": "house"}}}, {"type": "Feature", "geometry": {"type": "Polygon", "coordinates": [[[-97.0486723, 34.8753295], [-97.0485526, 34.8753309], [-97.0485502, 34.8751997], [-97.0486699, 34.8751982], [-97.0486723, 34.8753295]]]}, "properties": {"osm_id": 1168138445, "building": "yes", "name": "", "height": null, "height_m": null, "levels": null, "tract_id": "40087400400", "tract_name": "4004", "tags": {"building": "yes"}}}, {"type": "Feature", "geometry": {"type": "Polygon", "coordinates": [[[-97.0490326, 34.8752925], [-97.0489552, 34.8752962], [-97.0489572, 34.8753238], [-97.0488853, 34.8753271], [-97.0488835, 34.8753008], [-97.0488454, 34.8753026], [-97.0488398, 34.8752226], [-97.0488752, 34.8752209], [-97.0488729, 34.8751882], [-97.0489755, 34.8751834], [-97.0489776, 34.875214], [-97.049027, 34.8752117], [-97.0490326, 34.8752925]]]}, "properties": {"osm_id": 1168138446, "building": "house", "name": "", "height": null, "height_m": null, "levels": null, "tract_id": "40087400400", "tract_name": "4004", "tags": {"building": "house"}}}, {"type": "Feature", "geometry": {"type": "Polygon", "coordinates": [[[-97.0495139, 34.8753015], [-97.0493656, 34.8753008], [-97.0493665, 34.8751749], [-97.0495147, 34.8751756], [-97.0495139, 34.8753015]]]}, "properties": {"osm_id": 1168138447, "building": "yes", "name": "", "height": null, "height_m": null, "levels": null, "tract_id": "40087400400", "tract_name": "4004", "tags": {"building": "yes"}}}, {"type": "Feature", "geometry": {"type": "Polygon", "coordinates": [[[-97.0491856, 34.875076], [-97.049107, 34.8750747], [-97.0491081, 34.8750251], [-97.0491867, 34.8750264], [-97.0491856, 34.875076]]]}, "properties": {"osm_id": 1168138448, "building": "shed", "name": "", "height": null, "height_m": null, "levels": null, "tract_id": "40087400400", "tract_name": "4004", "tags": {"building": "shed"}}}, {"type": "Feature", "geometry": {"type": "Polygon", "coordinates": [[[-97.0499608, 34.8753031], [-97.0497868, 34.8753025], [-97.0497872, 34.875222], [-97.0499612, 34.8752226], [-97.0499608, 34.8753031]]]}, "properties": {"osm_id": 1168138449, "building": "yes", "name": "", "height": null, "height_m": null, "levels": null, "tract_id": "40087400400", "tract_name": "4004", "tags": {"building": "yes"}}}, {"type": "Feature", "geometry": {"type": "Polygon", "coordinates": [[[-97.0504976, 34.8749748], [-97.050421, 34.8749753], [-97.0504205, 34.8749317], [-97.0504972, 34.8749312], [-97.0504976, 34.8749748]]]}, "properties": {"osm_id": 1168138450, "building": "shed", "name": "", "height": null, "height_m": null, "levels": null, "tract_id": "40087400400", "tract_name": "4004", "tags": {"building": "shed"}}}, {"type": "Feature", "geometry": {"type": "Polygon", "coordinates": [[[-97.0519719, 34.8752356], [-97.0517022, 34.8752425], [-97.0517004, 34.8751943], [-97.0519701, 34.8751875], [-97.0519719, 34.8752356]]]}, "properties": {"osm_id": 1168138451, "building": "yes", "name": "", "height": null, "height_m": null, "levels": null, "tract_id": "40087400400", "tract_name": "4004", "tags": {"building": "yes"}}}, {"type": "Feature", "geometry": {"type": "Polygon", "coordinates": [[[-97.0519805, 34.874952], [-97.0518042, 34.874953], [-97.0518034, 34.8748592], [-97.0519797, 34.8748582], [-97.0519805, 34.874952]]]}, "properties": {"osm_id": 1168138452, "building": "yes", "name": "", "height": null, "height_m": null, "levels": null, "tract_id": "40087400400", "tract_name": "4004", "tags": {"building": "yes"}}}, {"type": "Feature", "geometry": {"type": "Polygon", "coordinates": [[[-97.0483509, 34.8748304], [-97.0482358, 34.8748304], [-97.0482358, 34.8746355], [-97.0483509, 34.8746355], [-97.0483509, 34.8748304]]]}, "properties": {"osm_id": 1168138453, "building": "house", "name": "", "height": null, "height_m": null, "levels": null, "tract_id": "40087400400", "tract_name": "4004", "tags": {"building": "house"}}}, {"type": "Feature", "geometry": {"type": "Polygon", "coordinates": [[[-97.0483284, 34.8748868], [-97.0482525, 34.8748877], [-97.0482517, 34.8748378], [-97.0483275, 34.8748369], [-97.0483284, 34.8748868]]]}, "properties": {"osm_id": 1168138454, "building": "shed", "name": "", "height": null, "height_m": null, "levels": null, "tract_id": "40087400400", "tract_name": "4004", "tags": {"building": "shed"}}}, {"type": "Feature", "geometry": {"type": "Polygon", "coordinates": [[[-97.0477718, 34.8747379], [-97.0476156, 34.8747341], [-97.0476182, 34.8746619], [-97.0477468, 34.8746651], [-97.0477455, 34.8746989], [-97.0477732, 34.8746995], [-97.0477718, 34.8747379]]]}, "properties": {"osm_id": 1168138455, "building": "house", "name": "", "height": null, "height_m": null, "levels": null, "tract_id": "40087400400", "tract_name": "4004", "tags": {"building": "house"}}}, {"type": "Feature", "geometry": {"type": "Polygon", "coordinates": [[[-97.0480539, 34.8746559], [-97.0479234, 34.8746553], [-97.0479238, 34.8745976], [-97.0480543, 34.8745983], [-97.0480539, 34.8746559]]]}, "properties": {"osm_id": 1168138456, "building": "yes", "name": "", "height": null, "height_m": null, "levels": null, "tract_id": "40087400400", "tract_name": "4004", "tags": {"building": "yes"}}}, {"type": "Feature", "geometry": {"type": "Polygon", "coordinates": [[[-97.0473879, 34.8746857], [-97.047336, 34.8746845], [-97.0473365, 34.8746663], [-97.0471715, 34.8746627], [-97.0471737, 34.8745951], [-97.0473907, 34.8745998], [-97.0473879, 34.8746857]]]}, "properties": {"osm_id": 1168138457, "building": "house", "name": "", "height": null, "height_m": null, "levels": null, "tract_id": "40087400400", "tract_name": "4004", "tags": {"building": "house"}}}, {"type": "Feature", "geometry": {"type": "Polygon", "coordinates": [[[-97.0413203, 34.8742022], [-97.041167, 34.8742065], [-97.0411618, 34.8740797], [-97.041272, 34.8740767], [-97.0412743, 34.8741323], [-97.0413174, 34.8741311], [-97.0413203, 34.8742022]]]}, "properties": {"osm_id": 1168138459, "building": "house", "name": "", "height": null, "height_m": null, "levels": null, "tract_id": "40087400400", "tract_name": "4004", "tags": {"building": "house"}}}, {"type": "Feature", "geometry": {"type": "Polygon", "coordinates": [[[-97.0421158, 34.8742082], [-97.0417933, 34.8742086], [-97.0417931, 34.8740887], [-97.0421156, 34.8740883], [-97.0421158, 34.8742082]]]}, "properties": {"osm_id": 1168138461, "building": "house", "name": "", "height": null, "height_m": null, "levels": null, "tract_id": "40087400400", "tract_name": "4004", "tags": {"building": "house"}}}, {"type": "Feature", "geometry": {"type": "Polygon", "coordinates": [[[-97.0425654, 34.8742005], [-97.0423913, 34.8741997], [-97.0423918, 34.8741223], [-97.042566, 34.8741232], [-97.0425654, 34.8742005]]]}, "properties": {"osm_id": 1168138464, "building": "house", "name": "", "height": null, "height_m": null, "levels": null, "tract_id": "40087400400", "tract_name": "4004", "tags": {"building": "house"}}}, {"type": "Feature", "geometry": {"type": "Polygon", "coordinates": [[[-97.0426126, 34.8740441], [-97.0425404, 34.8740432], [-97.0425414, 34.8739907], [-97.0426135, 34.8739915], [-97.0426126, 34.8740441]]]}, "properties": {"osm_id": 1168138465, "building": "shed", "name": "", "height": null, "height_m": null, "levels": null, "tract_id": "40087400400", "tract_name": "4004", "tags": {"building": "shed"}}}, {"type": "Feature", "geometry": {"type": "Polygon", "coordinates": [[[-97.0437475, 34.8740261], [-97.0435107, 34.8740176], [-97.0435156, 34.8739268], [-97.0437524, 34.8739353], [-97.0437475, 34.8740261]]]}, "properties": {"osm_id": 1168138467, "building": "house", "name": "", "height": null, "height_m": null, "levels": null, "tract_id": "40087400400", "tract_name": "4004", "tags": {"building": "house"}}}, {"type": "Feature", "geometry": {"type": "Polygon", "coordinates": [[[-97.04377, 34.8738194], [-97.0437011, 34.8738198], [-97.0437006, 34.8737607], [-97.0437695, 34.8737603], [-97.04377, 34.8738194]]]}, "properties": {"osm_id": 1168138468, "building": "shed", "name": "", "height": null, "height_m": null, "levels": null, "tract_id": "40087400400", "tract_name": "4004", "tags": {"building": "shed"}}}, {"type": "Feature", "geometry": {"type": "Polygon", "coordinates": [[[-97.044222, 34.8741828], [-97.0439531, 34.8741867], [-97.0439516, 34.8741162], [-97.0442205, 34.8741124], [-97.044222, 34.8741828]]]}, "properties": {"osm_id": 1168138470, "building": "house", "name": "", "height": null, "height_m": null, "levels": null, "tract_id": "40087400400", "tract_name": "4004", "tags": {"building": "house"}}}, {"type": "Feature", "geometry": {"type": "Polygon", "coordinates": [[[-97.0443825, 34.8739812], [-97.0442612, 34.8739839], [-97.0442588, 34.8739139], [-97.0443801, 34.8739111], [-97.0443825, 34.8739812]]]}, "properties": {"osm_id": 1168138471, "building": "shed", "name": "", "height": null, "height_m": null, "levels": null, "tract_id": "40087400400", "tract_name": "4004", "tags": {"building": "shed"}}}, {"type": "Feature", "geometry": {"type": "Polygon", "coordinates": [[[-97.0452063, 34.8741332], [-97.0450669, 34.8741378], [-97.0450632, 34.8740616], [-97.0452025, 34.874057], [-97.0452063, 34.8741332]]]}, "properties": {"osm_id": 1168138472, "building": "house", "name": "", "height": null, "height_m": null, "levels": null, "tract_id": "40087400400", "tract_name": "4004", "tags": {"building": "house"}}}, {"type": "Feature", "geometry": {"type": "Polygon", "coordinates": [[[-97.0457579, 34.8740855], [-97.0455299, 34.874106], [-97.0455248, 34.8740673], [-97.0457528, 34.8740469], [-97.0457579, 34.8740855]]]}, "properties": {"osm_id": 1168138473, "building": "static_caravan", "name": "", "height": null, "height_m": null, "levels": null, "tract_id": "40087400400", "tract_name": "4004", "tags": {"building": "static_caravan"}}}, {"type": "Feature", "geometry": {"type": "Polygon", "coordinates": [[[-97.046517, 34.8742264], [-97.0463519, 34.8742276], [-97.0463507, 34.8741158], [-97.0465159, 34.8741147], [-97.046517, 34.8742264]]]}, "properties": {"osm_id": 1168138474, "building": "house", "name": "", "height": null, "height_m": null, "levels": null, "tract_id": "40087400400", "tract_name": "4004", "tags": {"building": "house"}}}, {"type": "Feature", "geometry": {"type": "Polygon", "coordinates": [[[-97.0473395, 34.874209], [-97.0471007, 34.8742085], [-97.047101, 34.8741025], [-97.0473399, 34.874103], [-97.0473395, 34.874209]]]}, "properties": {"osm_id": 1168138475, "building": "house", "name": "", "height": null, "height_m": null, "levels": null, "tract_id": "40087400400", "tract_name": "4004", "tags": {"building": "house"}}}, {"type": "Feature", "geometry": {"type": "Polygon", "coordinates": [[[-97.0467369, 34.8737433], [-97.0466658, 34.8737408], [-97.0466759, 34.873529], [-97.0467481, 34.8735331], [-97.0467369, 34.8737433]]]}, "properties": {"osm_id": 1168138476, "building": "static_caravan", "name": "", "height": null, "height_m": null, "levels": null, "tract_id": "40087400400", "tract_name": "4004", "tags": {"building": "static_caravan"}}}, {"type": "Feature", "geometry": {"type": "Polygon", "coordinates": [[[-97.0480323, 34.8742618], [-97.0478837, 34.874262], [-97.0478831, 34.8740385], [-97.0480317, 34.8740382], [-97.0480323, 34.8742618]]]}, "properties": {"osm_id": 1168138477, "building": "church", "name": "Byars Baptist Church", "height": null, "height_m": 6.0, "levels": 2, "tract_id": "40087400400", "tract_name": "4004", "tags": {"building": "church", "building:levels": "2", "name": "Byars Baptist Church"}}}, {"type": "Feature", "geometry": {"type": "Polygon", "coordinates": [[[-97.0484661, 34.8742231], [-97.0482758, 34.8742206], [-97.0482775, 34.8741334], [-97.0484678, 34.8741359], [-97.0484661, 34.8742231]]]}, "properties": {"osm_id": 1168138478, "building": "yes", "name": "", "height": null, "height_m": null, "levels": null, "tract_id": "40087400400", "tract_name": "4004", "tags": {"building": "yes"}}}, {"type": "Feature", "geometry": {"type": "Polygon", "coordinates": [[[-97.0482907, 34.8740514], [-97.048211, 34.8740508], [-97.0482122, 34.8739389], [-97.0482919, 34.8739395], [-97.0482907, 34.8740514]]]}, "properties": {"osm_id": 1168138479, "building": "yes", "name": "", "height": null, "height_m": null, "levels": null, "tract_id": "40087400400", "tract_name": "4004", "tags": {"building": "yes"}}}, {"type": "Feature", "geometry": {"type": "Polygon", "coordinates": [[[-97.0490481, 34.8742258], [-97.0489189, 34.8742249], [-97.0489196, 34.8741539], [-97.0489678, 34.8741543], [-97.0489684, 34.8740948], [-97.0490155, 34.8740951], [-97.0490149, 34.8741518], [-97.0490753, 34.8741523], [-97.0490748, 34.8741978], [-97.0490484, 34.8741977], [-97.0490481, 34.8742258]]]}, "properties": {"osm_id": 1168138480, "building": "house", "name": "", "height": null, "height_m": null, "levels": null, "tract_id": "40087400400", "tract_name": "4004", "tags": {"building": "house"}}}, {"type": "Feature", "geometry": {"type": "Polygon", "coordinates": [[[-97.0495285, 34.8742149], [-97.0494164, 34.8742188], [-97.04941, 34.8740965], [-97.0495221, 34.8740926], [-97.0495285, 34.8742149]]]}, "properties": {"osm_id": 1168138481, "building": "house", "name": "", "height": null, "height_m": null, "levels": null, "tract_id": "40087400400", "tract_name": "4004", "tags": {"building": "house"}}}, {"type": "Feature", "geometry": {"type": "Polygon", "coordinates": [[[-97.0499353, 34.8742634], [-97.049807, 34.8742635], [-97.0498068, 34.8740691], [-97.0497634, 34.8740691], [-97.0497633, 34.8739677], [-97.049935, 34.8739676], [-97.0499353, 34.8742634]]]}, "properties": {"osm_id": 1168138482, "building": "church", "name": "Byars Pentecostal Holiness Church", "height": null, "height_m": null, "levels": null, "tract_id": "40087400400", "tract_name": "4004", "tags": {"building": "church", "name": "Byars Pentecostal Holiness Church"}}}, {"type": "Feature", "geometry": {"type": "Polygon", "coordinates": [[[-97.0504944, 34.8742314], [-97.0503113, 34.8742285], [-97.0503122, 34.874193], [-97.0504953, 34.8741959], [-97.0504944, 34.8742314]]]}, "properties": {"osm_id": 1168138483, "building": "yes", "name": "", "height": null, "height_m": null, "levels": null, "tract_id": "40087400400", "tract_name": "4004", "tags": {"building": "yes"}}}, {"type": "Feature", "geometry": {"type": "Polygon", "coordinates": [[[-97.0500781, 34.8737707], [-97.0499777, 34.8737702], [-97.0499788, 34.8736101], [-97.0500792, 34.8736106], [-97.0500781, 34.8737707]]]}, "properties": {"osm_id": 1168138484, "building": "yes", "name": "", "height": null, "height_m": null, "levels": null, "tract_id": "40087400400", "tract_name": "4004", "tags": {"building": "yes"}}}, {"type": "Feature", "geometry": {"type": "Polygon", "coordinates": [[[-97.0504761, 34.8738598], [-97.0503651, 34.8738582], [-97.0503666, 34.8737896], [-97.0504776, 34.8737912], [-97.0504761, 34.8738598]]]}, "properties": {"osm_id": 1168138485, "building": "yes", "name": "", "height": null, "height_m": null, "levels": null, "tract_id": "40087400400", "tract_name": "4004", "tags": {"building": "yes"}}}, {"type": "Feature", "geometry": {"type": "Polygon", "coordinates": [[[-97.0500542, 34.8735695], [-97.0499073, 34.8735644], [-97.0499108, 34.8734948], [-97.0500577, 34.8734998], [-97.0500542, 34.8735695]]]}, "properties": {"osm_id": 1168138486, "building": "yes", "name": "", "height": null, "height_m": null, "levels": null, "tract_id": "40087400400", "tract_name": "4004", "tags": {"building": "yes"}}}, {"type": "Feature", "geometry": {"type": "Polygon", "coordinates": [[[-97.0485903, 34.8736999], [-97.0484191, 34.8736943], [-97.0484135, 34.8738101], [-97.0484714, 34.873812], [-97.0484741, 34.8737547], [-97.0485874, 34.8737584], [-97.0485903, 34.8736999]]]}, "properties": {"osm_id": 1168138487, "building": "yes", "name": "", "height": null, "height_m": null, "levels": null, "tract_id": "40087400400", "tract_name": "4004", "tags": {"building": "yes"}}}, {"type": "Feature", "geometry": {"type": "Polygon", "coordinates": [[[-97.0495045, 34.8736522], [-97.0493183, 34.8736413], [-97.0493249, 34.873565], [-97.0495111, 34.8735759], [-97.0495045, 34.8736522]]]}, "properties": {"osm_id": 1168138488, "building": "yes", "name": "", "height": null, "height_m": null, "levels": null, "tract_id": "40087400400", "tract_name": "4004", "tags": {"building": "yes"}}}, {"type": "Feature", "geometry": {"type": "Polygon", "coordinates": [[[-97.0472059, 34.873642], [-97.0471044, 34.8736436], [-97.0471016, 34.8735239], [-97.0472031, 34.8735223], [-97.0472059, 34.873642]]]}, "properties": {"osm_id": 1168138489, "building": "yes", "name": "", "height": null, "height_m": null, "levels": null, "tract_id": "40087400400", "tract_name": "4004", "tags": {"building": "yes"}}}, {"type": "Feature", "geometry": {"type": "Polygon", "coordinates": [[[-97.0512779, 34.8741393], [-97.0511654, 34.874136], [-97.0511729, 34.8739648], [-97.0512854, 34.8739681], [-97.0512779, 34.8741393]]]}, "properties": {"osm_id": 1168138490, "building": "house", "name": "", "height": null, "height_m": null, "levels": null, "tract_id": "40087400400", "tract_name": "4004", "tags": {"building": "house"}}}, {"type": "Feature", "geometry": {"type": "Polygon", "coordinates": [[[-97.0519749, 34.8741942], [-97.0517781, 34.8741946], [-97.0517778, 34.8741008], [-97.0519746, 34.8741004], [-97.0519749, 34.8741942]]]}, "properties": {"osm_id": 1168138491, "building": "house", "name": "", "height": null, "height_m": null, "levels": null, "tract_id": "40087400400", "tract_name": "4004", "tags": {"building": "house"}}}, {"type": "Feature", "geometry": {"type": "Polygon", "coordinates": [[[-97.0527024, 34.8740782], [-97.0524929, 34.8740784], [-97.0524893, 34.8739282], [-97.0527029, 34.87393], [-97.0527024, 34.8740782]]]}, "properties": {"osm_id": 1168138492, "building": "yes", "name": "Byars Community Center", "height": null, "height_m": null, "levels": null, "tract_id": "40087400400", "tract_name": "4004", "tags": {"addr:city": "Byars", "addr:housenumber": "282", "addr:postcode": "74831", "addr:state": "OK", "addr:street": "East Ripley Street", "amenity": "community_centre", "building": "yes", "name": "Byars Community Center"}}}, {"type": "Feature", "geometry": {"type": "Polygon", "coordinates": [[[-97.0528933, 34.874024], [-97.0527466, 34.8740224], [-97.0527481, 34.8739279], [-97.052941, 34.87393], [-97.0529402, 34.873982], [-97.052894, 34.8739815], [-97.0528933, 34.874024]]]}, "properties": {"osm_id": 1168138493, "building": "yes", "name": "Byars USPS", "height": null, "height_m": null, "levels": null, "tract_id": "40087400400", "tract_name": "4004", "tags": {"addr:city": "Byars", "addr:housenumber": "252", "addr:postcode": "74831", "addr:state": "OK", "addr:street": "East Ripley Street", "amenity": "post_office", "building": "yes", "name": "Byars USPS", "operator": "United States Postal Service", "operator:short": "USPS", "operator:type": "public", "operator:website": "https://www.usps.com", "operator:wikidata": "Q668687", "operator:wikipedia": "en:United States Postal Service"}}}, {"type": "Feature", "geometry": {"type": "Polygon", "coordinates": [[[-97.0533973, 34.8743044], [-97.0532957, 34.8743038], [-97.0532984, 34.8740011], [-97.0534, 34.8740017], [-97.0533973, 34.8743044]]]}, "properties": {"osm_id": 1168138494, "building": "yes", "name": "Fowlers General Store", "height": null, "height_m": null, "levels": null, "tract_id": "40087400400", "tract_name": "4004", "tags": {"addr:city": "Byars", "addr:housenumber": "214", "addr:postcode": "74831", "addr:state": "OK", "addr:street": "East Ripley Street", "building": "yes", "name": "Fowlers General Store", "opening_hours": "7:00 - 7:00", "phone": "(405) 267-5023", "shop": "convenience"}}}, {"type": "Feature", "geometry": {"type": "Polygon", "coordinates": [[[-97.0530689, 34.8743031], [-97.0529779, 34.8743021], [-97.0529825, 34.8740244], [-97.0530735, 34.8740254], [-97.0530689, 34.8743031]]]}, "properties": {"osm_id": 1168138495, "building": "yes", "name": "", "height": null, "height_m": null, "levels": null, "tract_id": "40087400400", "tract_name": "4004", "tags": {"building": "yes"}}}, {"type": "Feature", "geometry": {"type": "Polygon", "coordinates": [[[-97.053398, 34.8738086], [-97.0532652, 34.8738089], [-97.0532644, 34.8735911], [-97.0533971, 34.8735907], [-97.053398, 34.8738086]]]}, "properties": {"osm_id": 1168138496, "building": "fire_station", "name": "Byars Fire Department", "height": null, "height_m": null, "levels": null, "tract_id": "40087400400", "tract_name": "4004", "tags": {"building": "fire_station", "name": "Byars Fire Department"}}}, {"type": "Feature", "geometry": {"type": "Polygon", "coordinates": [[[-97.051813, 34.8738661], [-97.0516168, 34.8737116], [-97.0516507, 34.8736825], [-97.051847, 34.873837], [-97.051813, 34.8738661]]]}, "properties": {"osm_id": 1168138497, "building": "yes", "name": "", "height": null, "height_m": null, "levels": null, "tract_id": "40087400400", "tract_name": "4004", "tags": {"building": "yes"}}}, {"type": "Feature", "geometry": {"type": "Polygon", "coordinates": [[[-97.0520421, 34.8736025], [-97.051874, 34.8736022], [-97.0518742, 34.8735413], [-97.0520423, 34.8735417], [-97.0520421, 34.8736025]]]}, "properties": {"osm_id": 1168138498, "building": "house", "name": "", "height": null, "height_m": null, "levels": null, "tract_id": "40087400400", "tract_name": "4004", "tags": {"building": "house"}}}, {"type": "Feature", "geometry": {"type": "Polygon", "coordinates": [[[-97.0526257, 34.8736273], [-97.0524482, 34.8736195], [-97.0524533, 34.8735414], [-97.0526308, 34.8735492], [-97.0526257, 34.8736273]]]}, "properties": {"osm_id": 1168138499, "building": "house", "name": "", "height": null, "height_m": null, "levels": null, "tract_id": "40087400400", "tract_name": "4004", "tags": {"building": "house"}}}, {"type": "Feature", "geometry": {"type": "Polygon", "coordinates": [[[-97.054105, 34.8736201], [-97.0539632, 34.8736199], [-97.0539634, 34.8735481], [-97.0541052, 34.8735484], [-97.054105, 34.8736201]]]}, "properties": {"osm_id": 1168138500, "building": "house", "name": "", "height": null, "height_m": null, "levels": null, "tract_id": "40087400400", "tract_name": "4004", "tags": {"building": "house"}}}, {"type": "Feature", "geometry": {"type": "Polygon", "coordinates": [[[-97.05462, 34.8736447], [-97.0544792, 34.8736434], [-97.0544803, 34.8735609], [-97.0546211, 34.8735622], [-97.05462, 34.8736447]]]}, "properties": {"osm_id": 1168138501, "building": "house", "name": "", "height": null, "height_m": null, "levels": null, "tract_id": "40087400400", "tract_name": "4004", "tags": {"building": "house"}}}, {"type": "Feature", "geometry": {"type": "Polygon", "coordinates": [[[-97.0555186, 34.8736892], [-97.0552839, 34.8736851], [-97.0552859, 34.8736094], [-97.0555206, 34.8736136], [-97.0555186, 34.8736892]]]}, "properties": {"osm_id": 1168138510, "building": "house", "name": "", "height": null, "height_m": null, "levels": null, "tract_id": "40087400400", "tract_name": "4004", "tags": {"building": "house"}}}, {"type": "Feature", "geometry": {"type": "Polygon", "coordinates": [[[-97.0552842, 34.873584], [-97.0552176, 34.8735842], [-97.0552173, 34.8735263], [-97.0552839, 34.8735261], [-97.0552842, 34.873584]]]}, "properties": {"osm_id": 1168138511, "building": "shed", "name": "", "height": null, "height_m": null, "levels": null, "tract_id": "40087400400", "tract_name": "4004", "tags": {"building": "shed"}}}, {"type": "Feature", "geometry": {"type": "Polygon", "coordinates": [[[-97.0553504, 34.8733102], [-97.0552687, 34.8733102], [-97.0552687, 34.8732372], [-97.0553504, 34.8732372], [-97.0553504, 34.8733102]]]}, "properties": {"osm_id": 1168138513, "building": "shed", "name": "", "height": null, "height_m": null, "levels": null, "tract_id": "40087400400", "tract_name": "4004", "tags": {"building": "shed"}}}, {"type": "Feature", "geometry": {"type": "Polygon", "coordinates": [[[-97.05525, 34.8732719], [-97.055168, 34.8732711], [-97.0551684, 34.8732415], [-97.0550449, 34.8732403], [-97.0550464, 34.8731432], [-97.0550772, 34.8731436], [-97.0550777, 34.8731114], [-97.0552014, 34.8731127], [-97.0552008, 34.8731532], [-97.0552181, 34.8731632], [-97.0552181, 34.8731866], [-97.0552039, 34.8731982], [-97.0552033, 34.8732345], [-97.0552505, 34.873235], [-97.05525, 34.8732719]]]}, "properties": {"osm_id": 1168138514, "building": "house", "name": "", "height": null, "height_m": null, "levels": null, "tract_id": "40087400400", "tract_name": "4004", "tags": {"building": "house"}}}, {"type": "Feature", "geometry": {"type": "Polygon", "coordinates": [[[-97.0538807, 34.8732281], [-97.0537666, 34.8732295], [-97.0537701, 34.8730096], [-97.0538807, 34.8730132], [-97.0538807, 34.8732281]]]}, "properties": {"osm_id": 1168138515, "building": "house", "name": "", "height": null, "height_m": null, "levels": null, "tract_id": "40087400400", "tract_name": "4004", "tags": {"building": "house"}}}, {"type": "Feature", "geometry": {"type": "Polygon", "coordinates": [[[-97.0539359, 34.872735], [-97.0538236, 34.8727336], [-97.0538259, 34.8726131], [-97.0539051, 34.8726141], [-97.0539044, 34.8726514], [-97.0539375, 34.8726519], [-97.0539359, 34.872735]]]}, "properties": {"osm_id": 1168138516, "building": "house", "name": "", "height": null, "height_m": null, "levels": null, "tract_id": "40087400400", "tract_name": "4004", "tags": {"building": "house"}}}, {"type": "Feature", "geometry": {"type": "Polygon", "coordinates": [[[-97.0541527, 34.8728078], [-97.0540796, 34.8728114], [-97.0540744, 34.8727409], [-97.0541475, 34.8727373], [-97.0541527, 34.8728078]]]}, "properties": {"osm_id": 1168138517, "building": "shed", "name": "", "height": null, "height_m": null, "levels": null, "tract_id": "40087400400", "tract_name": "4004", "tags": {"building": "shed"}}}, {"type": "Feature", "geometry": {"type": "Polygon", "coordinates": [[[-97.0531616, 34.8731948], [-97.0530148, 34.8731938], [-97.0530162, 34.8730566], [-97.053163, 34.8730577], [-97.0531616, 34.8731948]]]}, "properties": {"osm_id": 1168138518, "building": "house", "name": "", "height": null, "height_m": null, "levels": null, "tract_id": "40087400400", "tract_name": "4004", "tags": {"building": "house"}}}, {"type": "Feature", "geometry": {"type": "Polygon", "coordinates": [[[-97.0529304, 34.8731068], [-97.0528273, 34.8731081], [-97.0528263, 34.8730496], [-97.0529293, 34.8730484], [-97.0529304, 34.8731068]]]}, "properties": {"osm_id": 1168138520, "building": "shed", "name": "", "height": null, "height_m": null, "levels": null, "tract_id": "40087400400", "tract_name": "4004", "tags": {"building": "shed"}}}, {"type": "Feature", "geometry": {"type": "Polygon", "coordinates": [[[-97.0530207, 34.8730473], [-97.0529478, 34.8730463], [-97.0529492, 34.8729748], [-97.0530222, 34.8729758], [-97.0530207, 34.8730473]]]}, "properties": {"osm_id": 1168138521, "building": "shed", "name": "", "height": null, "height_m": null, "levels": null, "tract_id": "40087400400", "tract_name": "4004", "tags": {"building": "shed"}}}, {"type": "Feature", "geometry": {"type": "Polygon", "coordinates": [[[-97.0528517, 34.8730415], [-97.0527849, 34.8730371], [-97.0527893, 34.8729931], [-97.052856, 34.8729975], [-97.0528517, 34.8730415]]]}, "properties": {"osm_id": 1168138522, "building": "shed", "name": "", "height": null, "height_m": null, "levels": null, "tract_id": "40087400400", "tract_name": "4004", "tags": {"building": "shed"}}}, {"type": "Feature", "geometry": {"type": "Polygon", "coordinates": [[[-97.0527689, 34.8729946], [-97.0526534, 34.872996], [-97.0526525, 34.8729449], [-97.0527679, 34.8729434], [-97.0527689, 34.8729946]]]}, "properties": {"osm_id": 1168138523, "building": "shed", "name": "", "height": null, "height_m": null, "levels": null, "tract_id": "40087400400", "tract_name": "4004", "tags": {"building": "shed"}}}, {"type": "Feature", "geometry": {"type": "Polygon", "coordinates": [[[-97.052627, 34.8730735], [-97.0525527, 34.8730735], [-97.0525527, 34.8729879], [-97.052627, 34.8729879], [-97.052627, 34.8730735]]]}, "properties": {"osm_id": 1168138524, "building": "shed", "name": "", "height": null, "height_m": null, "levels": null, "tract_id": "40087400400", "tract_name": "4004", "tags": {"building": "shed"}}}, {"type": "Feature", "geometry": {"type": "Polygon", "coordinates": [[[-97.0532905, 34.8727859], [-97.0531878, 34.8727862], [-97.0531868, 34.8725907], [-97.0532894, 34.8725904], [-97.0532905, 34.8727859]]]}, "properties": {"osm_id": 1168138525, "building": "house", "name": "", "height": null, "height_m": null, "levels": null, "tract_id": "40087400400", "tract_name": "4004", "tags": {"building": "house"}}}, {"type": "Feature", "geometry": {"type": "Polygon", "coordinates": [[[-97.0531771, 34.872672], [-97.0530094, 34.8726733], [-97.0530085, 34.8725937], [-97.0531762, 34.8725924], [-97.0531771, 34.872672]]]}, "properties": {"osm_id": 1168138526, "building": "yes", "name": "", "height": null, "height_m": null, "levels": null, "tract_id": "40087400400", "tract_name": "4004", "tags": {"building": "yes"}}}, {"type": "Feature", "geometry": {"type": "Polygon", "coordinates": [[[-97.0526021, 34.8727068], [-97.0524765, 34.8727065], [-97.052477, 34.8725584], [-97.0526027, 34.8725587], [-97.0526021, 34.8727068]]]}, "properties": {"osm_id": 1168138527, "building": "yes", "name": "", "height": null, "height_m": null, "levels": null, "tract_id": "40087400400", "tract_name": "4004", "tags": {"building": "yes"}}}, {"type": "Feature", "geometry": {"type": "Polygon", "coordinates": [[[-97.0546569, 34.8727106], [-97.0545704, 34.8727075], [-97.0545772, 34.8725791], [-97.0546638, 34.8725822], [-97.0546569, 34.8727106]]]}, "properties": {"osm_id": 1168138528, "building": "house", "name": "", "height": null, "height_m": null, "levels": null, "tract_id": "40087400400", "tract_name": "4004", "tags": {"building": "house"}}}, {"type": "Feature", "geometry": {"type": "Polygon", "coordinates": [[[-97.0539453, 34.8723148], [-97.0538263, 34.8723133], [-97.0538276, 34.8722403], [-97.0539466, 34.8722418], [-97.0539453, 34.8723148]]]}, "properties": {"osm_id": 1168138529, "building": "house", "name": "", "height": null, "height_m": null, "levels": null, "tract_id": "40087400400", "tract_name": "4004", "tags": {"building": "house"}}}, {"type": "Feature", "geometry": {"type": "Polygon", "coordinates": [[[-97.0551364, 34.8723084], [-97.0550272, 34.8723093], [-97.0550256, 34.8721739], [-97.0551348, 34.8721731], [-97.0551364, 34.8723084]]]}, "properties": {"osm_id": 1168138530, "building": "house", "name": "", "height": null, "height_m": null, "levels": null, "tract_id": "40087400400", "tract_name": "4004", "tags": {"building": "house"}}}, {"type": "Feature", "geometry": {"type": "Polygon", "coordinates": [[[-97.0554467, 34.8723183], [-97.0552756, 34.8723278], [-97.0552684, 34.8722417], [-97.0554396, 34.8722322], [-97.0554467, 34.8723183]]]}, "properties": {"osm_id": 1168138531, "building": "house", "name": "", "height": null, "height_m": null, "levels": null, "tract_id": "40087400400", "tract_name": "4004", "tags": {"building": "house"}}}, {"type": "Feature", "geometry": {"type": "Polygon", "coordinates": [[[-97.0555707, 34.8723334], [-97.0554708, 34.8723379], [-97.0554638, 34.8722325], [-97.0555637, 34.8722281], [-97.0555707, 34.8723334]]]}, "properties": {"osm_id": 1168138532, "building": "shed", "name": "", "height": null, "height_m": null, "levels": null, "tract_id": "40087400400", "tract_name": "4004", "tags": {"building": "shed"}}}, {"type": "Feature", "geometry": {"type": "Polygon", "coordinates": [[[-97.0556565, 34.8727214], [-97.0555278, 34.8727184], [-97.0555287, 34.8726935], [-97.0554555, 34.8726917], [-97.0554573, 34.8726388], [-97.0556592, 34.8726435], [-97.0556565, 34.8727214]]]}, "properties": {"osm_id": 1168138533, "building": "house", "name": "", "height": null, "height_m": null, "levels": null, "tract_id": "40087400400", "tract_name": "4004", "tags": {"building": "house"}}}, {"type": "Feature", "geometry": {"type": "Polygon", "coordinates": [[[-97.0560821, 34.8727624], [-97.0558176, 34.8727661], [-97.0558167, 34.8727235], [-97.0560813, 34.8727198], [-97.0560821, 34.8727624]]]}, "properties": {"osm_id": 1168138534, "building": "static_caravan", "name": "", "height": null, "height_m": null, "levels": null, "tract_id": "40087400400", "tract_name": "4004", "tags": {"building": "static_caravan"}}}, {"type": "Feature", "geometry": {"type": "Polygon", "coordinates": [[[-97.0566537, 34.8725155], [-97.0565925, 34.8726804], [-97.056478, 34.8726518], [-97.0565392, 34.8724869], [-97.0566537, 34.8725155]]]}, "properties": {"osm_id": 1168138535, "building": "house", "name": "", "height": null, "height_m": null, "levels": null, "tract_id": "40087400400", "tract_name": "4004", "tags": {"building": "house"}}}, {"type": "Feature", "geometry": {"type": "Polygon", "coordinates": [[[-97.0573355, 34.871814], [-97.0571775, 34.8717972], [-97.0571985, 34.8716642], [-97.0573566, 34.8716811], [-97.0573355, 34.871814]]]}, "properties": {"osm_id": 1168138536, "building": "house", "name": "", "height": null, "height_m": null, "levels": null, "tract_id": "40087400400", "tract_name": "4004", "tags": {"building": "house"}}}, {"type": "Feature", "geometry": {"type": "Polygon", "coordinates": [[[-97.05692, 34.8720946], [-97.0567594, 34.8720346], [-97.056823, 34.87192], [-97.0569836, 34.87198], [-97.05692, 34.8720946]]]}, "properties": {"osm_id": 1168138537, "building": "yes", "name": "", "height": null, "height_m": null, "levels": null, "tract_id": "40087400400", "tract_name": "4004", "tags": {"building": "yes"}}}, {"type": "Feature", "geometry": {"type": "Polygon", "coordinates": [[[-97.0558564, 34.8717406], [-97.0556165, 34.8717386], [-97.055617, 34.8716955], [-97.0558569, 34.8716975], [-97.0558564, 34.8717406]]]}, "properties": {"osm_id": 1168138538, "building": "house", "name": "", "height": null, "height_m": null, "levels": null, "tract_id": "40087400400", "tract_name": "4004", "tags": {"building": "house"}}}, {"type": "Feature", "geometry": {"type": "Polygon", "coordinates": [[[-97.0563055, 34.8707968], [-97.0559716, 34.870792], [-97.0559745, 34.8706574], [-97.0563084, 34.8706623], [-97.0563055, 34.8707968]]]}, "properties": {"osm_id": 1168138539, "building": "house", "name": "", "height": null, "height_m": null, "levels": null, "tract_id": "40087400400", "tract_name": "4004", "tags": {"building": "house"}}}, {"type": "Feature", "geometry": {"type": "Polygon", "coordinates": [[[-97.0553993, 34.8712505], [-97.0552827, 34.8712483], [-97.0552838, 34.871209], [-97.0552449, 34.8712083], [-97.0552473, 34.8711172], [-97.0554028, 34.87112], [-97.0553993, 34.8712505]]]}, "properties": {"osm_id": 1168138540, "building": "house", "name": "", "height": null, "height_m": null, "levels": null, "tract_id": "40087400400", "tract_name": "4004", "tags": {"building": "house"}}}, {"type": "Feature", "geometry": {"type": "Polygon", "coordinates": [[[-97.0550149, 34.8713163], [-97.0549247, 34.8713153], [-97.0549278, 34.8711299], [-97.0550179, 34.8711309], [-97.0550149, 34.8713163]]]}, "properties": {"osm_id": 1168138541, "building": "house", "name": "", "height": null, "height_m": null, "levels": null, "tract_id": "40087400400", "tract_name": "4004", "tags": {"building": "house"}}}, {"type": "Feature", "geometry": {"type": "Polygon", "coordinates": [[[-97.0547522, 34.8712664], [-97.0545966, 34.8712679], [-97.054595, 34.8711539], [-97.0547506, 34.8711524], [-97.0547522, 34.8712664]]]}, "properties": {"osm_id": 1168138542, "building": "yes", "name": "", "height": null, "height_m": null, "levels": null, "tract_id": "40087400400", "tract_name": "4004", "tags": {"building": "yes"}}}, {"type": "Feature", "geometry": {"type": "Polygon", "coordinates": [[[-97.0554909, 34.8716413], [-97.055294, 34.8716374], [-97.055295, 34.8716019], [-97.0554919, 34.8716058], [-97.0554909, 34.8716413]]]}, "properties": {"osm_id": 1168138543, "building": "static_caravan", "name": "", "height": null, "height_m": null, "levels": null, "tract_id": "40087400400", "tract_name": "4004", "tags": {"building": "static_caravan"}}}, {"type": "Feature", "geometry": {"type": "Polygon", "coordinates": [[[-97.0550903, 34.8717518], [-97.0550041, 34.8717493], [-97.055003, 34.8717731], [-97.0549285, 34.871771], [-97.0549309, 34.8717169], [-97.0549943, 34.8717187], [-97.0549995, 34.8715982], [-97.0550969, 34.871601], [-97.0550903, 34.8717518]]]}, "properties": {"osm_id": 1168138544, "building": "house", "name": "", "height": null, "height_m": null, "levels": null, "tract_id": "40087400400", "tract_name": "4004", "tags": {"building": "house"}}}, {"type": "Feature", "geometry": {"type": "Polygon", "coordinates": [[[-97.0550204, 34.871919], [-97.0549342, 34.8719145], [-97.0549375, 34.871872], [-97.0550237, 34.8718765], [-97.0550204, 34.871919]]]}, "properties": {"osm_id": 1168138545, "building": "shed", "name": "", "height": null, "height_m": null, "levels": null, "tract_id": "40087400400", "tract_name": "4004", "tags": {"building": "shed"}}}, {"type": "Feature", "geometry": {"type": "Polygon", "coordinates": [[[-97.0546796, 34.8716771], [-97.054566, 34.8716775], [-97.0545657, 34.8716032], [-97.0546793, 34.8716029], [-97.0546796, 34.8716771]]]}, "properties": {"osm_id": 1168138546, "building": "house", "name": "", "height": null, "height_m": null, "levels": null, "tract_id": "40087400400", "tract_name": "4004", "tags": {"building": "house"}}}, {"type": "Feature", "geometry": {"type": "Polygon", "coordinates": [[[-97.0545539, 34.8718483], [-97.0544418, 34.8718483], [-97.0544418, 34.8717519], [-97.0545539, 34.8717519], [-97.0545539, 34.8718483]]]}, "properties": {"osm_id": 1168138547, "building": "house", "name": "", "height": null, "height_m": null, "levels": null, "tract_id": "40087400400", "tract_name": "4004", "tags": {"building": "house"}}}, {"type": "Feature", "geometry": {"type": "Polygon", "coordinates": [[[-97.0539668, 34.8716899], [-97.0538296, 34.8716918], [-97.0538285, 34.8716094], [-97.0539662, 34.8716099], [-97.0539668, 34.8716899]]]}, "properties": {"osm_id": 1168138548, "building": "house", "name": "", "height": null, "height_m": null, "levels": null, "tract_id": "40087400400", "tract_name": "4004", "tags": {"building": "house"}}}, {"type": "Feature", "geometry": {"type": "Polygon", "coordinates": [[[-97.0529451, 34.8712277], [-97.0528365, 34.8712335], [-97.052815, 34.870963], [-97.0529237, 34.8709572], [-97.0529451, 34.8712277]]]}, "properties": {"osm_id": 1168142213, "building": "house", "name": "", "height": null, "height_m": null, "levels": null, "tract_id": "40087400400", "tract_name": "4004", "tags": {"building": "house"}}}, {"type": "Feature", "geometry": {"type": "Polygon", "coordinates": [[[-97.0526448, 34.8707498], [-97.0525356, 34.8707475], [-97.052541, 34.8705775], [-97.0526502, 34.8705798], [-97.0526448, 34.8707498]]]}, "properties": {"osm_id": 1168142214, "building": "house", "name": "", "height": null, "height_m": null, "levels": null, "tract_id": "40087400400", "tract_name": "4004", "tags": {"building": "house"}}}, {"type": "Feature", "geometry": {"type": "Polygon", "coordinates": [[[-97.0520085, 34.871291], [-97.0518997, 34.8712905], [-97.0519011, 34.8710921], [-97.0520099, 34.8710926], [-97.0520085, 34.871291]]]}, "properties": {"osm_id": 1168142215, "building": "house", "name": "", "height": null, "height_m": null, "levels": null, "tract_id": "40087400400", "tract_name": "4004", "tags": {"building": "house"}}}, {"type": "Feature", "geometry": {"type": "Polygon", "coordinates": [[[-97.0518152, 34.8712798], [-97.0517023, 34.8712833], [-97.0516989, 34.8712097], [-97.0518117, 34.8712062], [-97.0518152, 34.8712798]]]}, "properties": {"osm_id": 1168142216, "building": "shed", "name": "", "height": null, "height_m": null, "levels": null, "tract_id": "40087400400", "tract_name": "4004", "tags": {"building": "shed"}}}, {"type": "Feature", "geometry": {"type": "Polygon", "coordinates": [[[-97.0525655, 34.8722236], [-97.0524756, 34.8722224], [-97.0524787, 34.8720748], [-97.0525686, 34.8720761], [-97.0525655, 34.8722236]]]}, "properties": {"osm_id": 1168142217, "building": "house", "name": "", "height": null, "height_m": null, "levels": null, "tract_id": "40087400400", "tract_name": "4004", "tags": {"building": "house"}}}, {"type": "Feature", "geometry": {"type": "Polygon", "coordinates": [[[-97.0526702, 34.8719149], [-97.0524419, 34.8719099], [-97.0524434, 34.8718649], [-97.0526716, 34.8718699], [-97.0526702, 34.8719149]]]}, "properties": {"osm_id": 1168142218, "building": "static_caravan", "name": "", "height": null, "height_m": null, "levels": null, "tract_id": "40087400400", "tract_name": "4004", "tags": {"building": "static_caravan"}}}, {"type": "Feature", "geometry": {"type": "Polygon", "coordinates": [[[-97.0529786, 34.8719438], [-97.0529045, 34.8719442], [-97.0529038, 34.871847], [-97.0529779, 34.8718466], [-97.0529786, 34.8719438]]]}, "properties": {"osm_id": 1168142219, "building": "yes", "name": "", "height": null, "height_m": null, "levels": null, "tract_id": "40087400400", "tract_name": "4004", "tags": {"building": "yes"}}}, {"type": "Feature", "geometry": {"type": "Polygon", "coordinates": [[[-97.0532396, 34.871879], [-97.0531538, 34.871879], [-97.0531537, 34.8717527], [-97.0532396, 34.8717527], [-97.0532396, 34.871879]]]}, "properties": {"osm_id": 1168142220, "building": "house", "name": "", "height": null, "height_m": null, "levels": null, "tract_id": "40087400400", "tract_name": "4004", "tags": {"building": "house"}}}, {"type": "Feature", "geometry": {"type": "Polygon", "coordinates": [[[-97.0520531, 34.8716213], [-97.0518698, 34.871622], [-97.0518694, 34.8715463], [-97.0520527, 34.8715457], [-97.0520531, 34.8716213]]]}, "properties": {"osm_id": 1168142221, "building": "yes", "name": "", "height": null, "height_m": null, "levels": null, "tract_id": "40087400400", "tract_name": "4004", "tags": {"building": "yes"}}}, {"type": "Feature", "geometry": {"type": "Polygon", "coordinates": [[[-97.0508902, 34.8706072], [-97.0507043, 34.8706092], [-97.0507025, 34.8704958], [-97.0508185, 34.8704945], [-97.0508193, 34.870549], [-97.0508893, 34.8705482], [-97.0508902, 34.8706072]]]}, "properties": {"osm_id": 1168142222, "building": "yes", "name": "", "height": null, "height_m": null, "levels": null, "tract_id": "40087400400", "tract_name": "4004", "tags": {"building": "yes"}}}, {"type": "Feature", "geometry": {"type": "Polygon", "coordinates": [[[-97.0505381, 34.8705838], [-97.0504352, 34.8705789], [-97.0504413, 34.8704925], [-97.0505443, 34.8704974], [-97.0505381, 34.8705838]]]}, "properties": {"osm_id": 1168142223, "building": "shed", "name": "", "height": null, "height_m": null, "levels": null, "tract_id": "40087400400", "tract_name": "4004", "tags": {"building": "shed"}}}, {"type": "Feature", "geometry": {"type": "Polygon", "coordinates": [[[-97.0507399, 34.8698955], [-97.050592, 34.8698969], [-97.0505901, 34.8697593], [-97.050738, 34.869758], [-97.0507399, 34.8698955]]]}, "properties": {"osm_id": 1168142225, "building": "yes", "name": "", "height": null, "height_m": null, "levels": null, "tract_id": "40087400400", "tract_name": "4004", "tags": {"building": "yes"}}}, {"type": "Feature", "geometry": {"type": "Polygon", "coordinates": [[[-97.0514073, 34.8702967], [-97.0511855, 34.8702981], [-97.0511841, 34.8701519], [-97.0512974, 34.8701512], [-97.0512979, 34.8702025], [-97.0514064, 34.8702018], [-97.0514073, 34.8702967]]]}, "properties": {"osm_id": 1168142226, "building": "house", "name": "", "height": null, "height_m": null, "levels": null, "tract_id": "40087400400", "tract_name": "4004", "tags": {"building": "house"}}}, {"type": "Feature", "geometry": {"type": "Polygon", "coordinates": [[[-97.0515618, 34.870295], [-97.0514332, 34.8702925], [-97.0514357, 34.8702074], [-97.0515643, 34.87021], [-97.0515618, 34.870295]]]}, "properties": {"osm_id": 1168142227, "building": "yes", "name": "", "height": null, "height_m": null, "levels": null, "tract_id": "40087400400", "tract_name": "4004", "tags": {"building": "yes"}}}, {"type": "Feature", "geometry": {"type": "Polygon", "coordinates": [[[-97.0516633, 34.8699861], [-97.0516639, 34.869922], [-97.0516131, 34.8699216], [-97.0516125, 34.8699858], [-97.0516633, 34.8699861]]]}, "properties": {"osm_id": 1168142228, "building": "shed", "name": "", "height": null, "height_m": null, "levels": null, "tract_id": "40087400400", "tract_name": "4004", "tags": {"building": "shed"}}}, {"type": "Feature", "geometry": {"type": "Polygon", "coordinates": [[[-97.052053, 34.870109], [-97.0519239, 34.8700882], [-97.0519371, 34.8700328], [-97.0519905, 34.8700414], [-97.0519951, 34.8700223], [-97.0520708, 34.8700345], [-97.052053, 34.870109]]]}, "properties": {"osm_id": 1168142229, "building": "yes", "name": "", "height": null, "height_m": null, "levels": null, "tract_id": "40087400400", "tract_name": "4004", "tags": {"building": "yes"}}}, {"type": "Feature", "geometry": {"type": "Polygon", "coordinates": [[[-97.0525782, 34.870262], [-97.0524596, 34.8702621], [-97.0524594, 34.8701442], [-97.052578, 34.8701441], [-97.0525782, 34.870262]]]}, "properties": {"osm_id": 1168142230, "building": "house", "name": "", "height": null, "height_m": null, "levels": null, "tract_id": "40087400400", "tract_name": "4004", "tags": {"building": "house"}}}, {"type": "Feature", "geometry": {"type": "Polygon", "coordinates": [[[-97.052437, 34.8701198], [-97.0523455, 34.8701209], [-97.0523445, 34.8700665], [-97.052436, 34.8700654], [-97.052437, 34.8701198]]]}, "properties": {"osm_id": 1168142231, "building": "yes", "name": "", "height": null, "height_m": null, "levels": null, "tract_id": "40087400400", "tract_name": "4004", "tags": {"building": "yes"}}}, {"type": "Feature", "geometry": {"type": "Polygon", "coordinates": [[[-97.0525814, 34.8698654], [-97.0525243, 34.8698668], [-97.0525173, 34.8696826], [-97.0525744, 34.8696811], [-97.0525814, 34.8698654]]]}, "properties": {"osm_id": 1168142232, "building": "static_caravan", "name": "", "height": null, "height_m": null, "levels": null, "tract_id": "40087400400", "tract_name": "4004", "tags": {"building": "static_caravan"}}}, {"type": "Feature", "geometry": {"type": "Polygon", "coordinates": [[[-97.0520427, 34.869754], [-97.0518667, 34.8697524], [-97.0518676, 34.8696819], [-97.0518907, 34.8696821], [-97.0518908, 34.869669], [-97.0520438, 34.8696704], [-97.0520427, 34.869754]]]}, "properties": {"osm_id": 1168142233, "building": "house", "name": "", "height": null, "height_m": null, "levels": null, "tract_id": "40087400400", "tract_name": "4004", "tags": {"building": "house"}}}, {"type": "Feature", "geometry": {"type": "Polygon", "coordinates": [[[-97.0532516, 34.8698809], [-97.0531959, 34.8698785], [-97.0532072, 34.8696992], [-97.0532628, 34.8697016], [-97.0532516, 34.8698809]]]}, "properties": {"osm_id": 1168142234, "building": "static_caravan", "name": "", "height": null, "height_m": null, "levels": null, "tract_id": "40087400400", "tract_name": "4004", "tags": {"building": "static_caravan"}}}, {"type": "Feature", "geometry": {"type": "Polygon", "coordinates": [[[-97.0539769, 34.8699534], [-97.0539232, 34.8699531], [-97.0539252, 34.8697329], [-97.0539788, 34.8697333], [-97.0539769, 34.8699534]]]}, "properties": {"osm_id": 1168142235, "building": "static_caravan", "name": "", "height": null, "height_m": null, "levels": null, "tract_id": "40087400400", "tract_name": "4004", "tags": {"building": "static_caravan"}}}, {"type": "Feature", "geometry": {"type": "Polygon", "coordinates": [[[-97.0546801, 34.8693702], [-97.0545642, 34.86937], [-97.0545644, 34.8692753], [-97.0546803, 34.8692754], [-97.0546801, 34.8693702]]]}, "properties": {"osm_id": 1168142236, "building": "house", "name": "", "height": null, "height_m": null, "levels": null, "tract_id": "40087400400", "tract_name": "4004", "tags": {"building": "house"}}}, {"type": "Feature", "geometry": {"type": "Polygon", "coordinates": [[[-97.0551474, 34.8692687], [-97.055045, 34.8692578], [-97.0550587, 34.8691712], [-97.0551611, 34.8691821], [-97.0551474, 34.8692687]]]}, "properties": {"osm_id": 1168142237, "building": "yes", "name": "", "height": null, "height_m": null, "levels": null, "tract_id": "40087400400", "tract_name": "4004", "tags": {"building": "yes"}}}, {"type": "Feature", "geometry": {"type": "Polygon", "coordinates": [[[-97.0536748, 34.8693459], [-97.0535758, 34.8693458], [-97.0535761, 34.869148], [-97.0536752, 34.8691481], [-97.0536748, 34.8693459]]]}, "properties": {"osm_id": 1168142238, "building": "house", "name": "", "height": null, "height_m": null, "levels": null, "tract_id": "40087400400", "tract_name": "4004", "tags": {"building": "house"}}}, {"type": "Feature", "geometry": {"type": "Polygon", "coordinates": [[[-97.0510338, 34.8692808], [-97.0508149, 34.8692793], [-97.0508179, 34.8689789], [-97.0510368, 34.8689804], [-97.0510338, 34.8692808]]]}, "properties": {"osm_id": 1168142239, "building": "yes", "name": "", "height": null, "height_m": null, "levels": null, "tract_id": "40087400400", "tract_name": "4004", "tags": {"building": "yes"}}}, {"type": "Feature", "geometry": {"type": "Polygon", "coordinates": [[[-97.0507857, 34.8692797], [-97.0500706, 34.8692753], [-97.050072, 34.869128], [-97.050787, 34.8691324], [-97.0507857, 34.8692797]]]}, "properties": {"osm_id": 1168142240, "building": "yes", "name": "", "height": null, "height_m": null, "levels": null, "tract_id": "40087400400", "tract_name": "4004", "tags": {"building": "yes"}}}, {"type": "Feature", "geometry": {"type": "Polygon", "coordinates": [[[-97.0508219, 34.8716728], [-97.050767, 34.8716724], [-97.0507667, 34.8717017], [-97.0506802, 34.871701], [-97.0506814, 34.8715984], [-97.0508228, 34.8715994], [-97.0508219, 34.8716728]]]}, "properties": {"osm_id": 1168142241, "building": "house", "name": "", "height": null, "height_m": null, "levels": null, "tract_id": "40087400400", "tract_name": "4004", "tags": {"building": "house"}}}, {"type": "Feature", "geometry": {"type": "Polygon", "coordinates": [[[-97.0505775, 34.8716332], [-97.0504701, 34.8716358], [-97.050468, 34.8715787], [-97.0505754, 34.8715761], [-97.0505775, 34.8716332]]]}, "properties": {"osm_id": 1168142242, "building": "yes", "name": "", "height": null, "height_m": null, "levels": null, "tract_id": "40087400400", "tract_name": "4004", "tags": {"building": "yes"}}}, {"type": "Feature", "geometry": {"type": "Polygon", "coordinates": [[[-97.0503103, 34.871624], [-97.0501142, 34.8716198], [-97.0501153, 34.8715861], [-97.0503114, 34.8715902], [-97.0503103, 34.871624]]]}, "properties": {"osm_id": 1168142243, "building": "static_caravan", "name": "", "height": null, "height_m": null, "levels": null, "tract_id": "40087400400", "tract_name": "4004", "tags": {"building": "static_caravan"}}}, {"type": "Feature", "geometry": {"type": "Polygon", "coordinates": [[[-97.0495024, 34.8718235], [-97.0494089, 34.8718237], [-97.0494084, 34.8716781], [-97.0495019, 34.8716779], [-97.0495024, 34.8718235]]]}, "properties": {"osm_id": 1168142244, "building": "house", "name": "", "height": null, "height_m": null, "levels": null, "tract_id": "40087400400", "tract_name": "4004", "tags": {"building": "house"}}}, {"type": "Feature", "geometry": {"type": "Polygon", "coordinates": [[[-97.0495306, 34.8722777], [-97.0494611, 34.8722792], [-97.0494542, 34.8720654], [-97.0495238, 34.8720639], [-97.0495306, 34.8722777]]]}, "properties": {"osm_id": 1168142245, "building": "static_caravan", "name": "", "height": null, "height_m": null, "levels": null, "tract_id": "40087400400", "tract_name": "4004", "tags": {"building": "static_caravan"}}}, {"type": "Feature", "geometry": {"type": "Polygon", "coordinates": [[[-97.0500598, 34.8723089], [-97.0499127, 34.8723073], [-97.0499138, 34.8722387], [-97.0500609, 34.8722402], [-97.0500598, 34.8723089]]]}, "properties": {"osm_id": 1168142246, "building": "house", "name": "", "height": null, "height_m": null, "levels": null, "tract_id": "40087400400", "tract_name": "4004", "tags": {"building": "house"}}}, {"type": "Feature", "geometry": {"type": "Polygon", "coordinates": [[[-97.0504345, 34.8722991], [-97.0503303, 34.8722981], [-97.0503324, 34.8721411], [-97.0504366, 34.8721421], [-97.0504345, 34.8722991]]]}, "properties": {"osm_id": 1168142247, "building": "house", "name": "", "height": null, "height_m": null, "levels": null, "tract_id": "40087400400", "tract_name": "4004", "tags": {"building": "house"}}}, {"type": "Feature", "geometry": {"type": "Polygon", "coordinates": [[[-97.0505892, 34.8727043], [-97.0505902, 34.8725994], [-97.0507844, 34.8726007], [-97.0507837, 34.8726732], [-97.05069, 34.8726726], [-97.0506897, 34.872705], [-97.0505892, 34.8727043]]]}, "properties": {"osm_id": 1168142248, "building": "house", "name": "", "height": null, "height_m": null, "levels": null, "tract_id": "40087400400", "tract_name": "4004", "tags": {"building": "house"}}}, {"type": "Feature", "geometry": {"type": "Polygon", "coordinates": [[[-97.0506391, 34.872891], [-97.0505323, 34.8728926], [-97.0505312, 34.8728386], [-97.050638, 34.8728371], [-97.0506391, 34.872891]]]}, "properties": {"osm_id": 1168142249, "building": "yes", "name": "", "height": null, "height_m": null, "levels": null, "tract_id": "40087400400", "tract_name": "4004", "tags": {"building": "yes"}}}, {"type": "Feature", "geometry": {"type": "Polygon", "coordinates": [[[-97.0512499, 34.8727259], [-97.0511225, 34.8727259], [-97.0511234, 34.8725859], [-97.0512481, 34.8725866], [-97.0512499, 34.8727259]]]}, "properties": {"osm_id": 1168142250, "building": "yes", "name": "", "height": null, "height_m": null, "levels": null, "tract_id": "40087400400", "tract_name": "4004", "tags": {"building": "yes"}}}, {"type": "Feature", "geometry": {"type": "Polygon", "coordinates": [[[-97.051971, 34.8728023], [-97.0518669, 34.8728006], [-97.0518708, 34.872641], [-97.0519749, 34.8726427], [-97.051971, 34.8728023]]]}, "properties": {"osm_id": 1168142251, "building": "house", "name": "", "height": null, "height_m": null, "levels": null, "tract_id": "40087400400", "tract_name": "4004", "tags": {"building": "house"}}}, {"type": "Feature", "geometry": {"type": "Polygon", "coordinates": [[[-97.0519793, 34.8726069], [-97.0519141, 34.8726109], [-97.0519086, 34.8725503], [-97.0519738, 34.8725463], [-97.0519793, 34.8726069]]]}, "properties": {"osm_id": 1168142252, "building": "shed", "name": "", "height": null, "height_m": null, "levels": null, "tract_id": "40087400400", "tract_name": "4004", "tags": {"building": "shed"}}}, {"type": "Feature", "geometry": {"type": "Polygon", "coordinates": [[[-97.0520377, 34.8732241], [-97.0519463, 34.8732213], [-97.0519425, 34.8733055], [-97.0518446, 34.8733025], [-97.0518485, 34.8732171], [-97.0517829, 34.8732151], [-97.051785, 34.8731697], [-97.0520399, 34.8731776], [-97.0520377, 34.8732241]]]}, "properties": {"osm_id": 1168142253, "building": "static_caravan", "name": "", "height": null, "height_m": null, "levels": null, "tract_id": "40087400400", "tract_name": "4004", "tags": {"building": "static_caravan"}}}, {"type": "Feature", "geometry": {"type": "Polygon", "coordinates": [[[-97.0475053, 34.8732433], [-97.0473702, 34.8732339], [-97.0473775, 34.8731631], [-97.0475126, 34.8731726], [-97.0475053, 34.8732433]]]}, "properties": {"osm_id": 1168142254, "building": "house", "name": "", "height": null, "height_m": null, "levels": null, "tract_id": "40087400400", "tract_name": "4004", "tags": {"building": "house"}}}, {"type": "Feature", "geometry": {"type": "Polygon", "coordinates": [[[-97.0463805, 34.8733324], [-97.0463228, 34.8733279], [-97.0463439, 34.8731458], [-97.0464016, 34.8731502], [-97.0463805, 34.8733324]]]}, "properties": {"osm_id": 1168142255, "building": "static_caravan", "name": "", "height": null, "height_m": null, "levels": null, "tract_id": "40087400400", "tract_name": "4004", "tags": {"building": "static_caravan"}}}, {"type": "Feature", "geometry": {"type": "Polygon", "coordinates": [[[-97.0560044, 34.8752971], [-97.0559031, 34.8752941], [-97.05591, 34.8751385], [-97.0560113, 34.8751415], [-97.0560044, 34.8752971]]]}, "properties": {"osm_id": 1168142256, "building": "house", "name": "", "height": null, "height_m": null, "levels": null, "tract_id": "40087400400", "tract_name": "4004", "tags": {"building": "house"}}}, {"type": "Feature", "geometry": {"type": "Polygon", "coordinates": [[[-97.05627, 34.8751438], [-97.0561661, 34.8751355], [-97.056176, 34.875052], [-97.0562799, 34.8750603], [-97.05627, 34.8751438]]]}, "properties": {"osm_id": 1168142257, "building": "yes", "name": "", "height": null, "height_m": null, "levels": null, "tract_id": "40087400400", "tract_name": "4004", "tags": {"building": "yes"}}}, {"type": "Feature", "geometry": {"type": "Polygon", "coordinates": [[[-97.0560565, 34.8764482], [-97.055917, 34.8764217], [-97.0559523, 34.8762963], [-97.056056, 34.8763159], [-97.0560415, 34.8763673], [-97.0560773, 34.8763741], [-97.0560565, 34.8764482]]]}, "properties": {"osm_id": 1168142258, "building": "house", "name": "", "height": null, "height_m": null, "levels": null, "tract_id": "40087400400", "tract_name": "4004", "tags": {"building": "house"}}}, {"type": "Feature", "geometry": {"type": "Polygon", "coordinates": [[[-97.0561526, 34.8764622], [-97.0560874, 34.8764508], [-97.0561018, 34.8763954], [-97.0561669, 34.8764068], [-97.0561526, 34.8764622]]]}, "properties": {"osm_id": 1168142259, "building": "garage", "name": "", "height": null, "height_m": null, "levels": null, "tract_id": "40087400400", "tract_name": "4004", "tags": {"building": "garage"}}}, {"type": "Feature", "geometry": {"type": "Polygon", "coordinates": [[[-97.0489156, 34.8771252], [-97.0488246, 34.8771352], [-97.0487961, 34.8769617], [-97.048887, 34.8769516], [-97.0489156, 34.8771252]]]}, "properties": {"osm_id": 1168142260, "building": "house", "name": "", "height": null, "height_m": null, "levels": null, "tract_id": "40087400400", "tract_name": "4004", "tags": {"building": "house"}}}, {"type": "Feature", "geometry": {"type": "Polygon", "coordinates": [[[-97.0436973, 34.8746837], [-97.0435183, 34.8746842], [-97.043518, 34.8746207], [-97.043697, 34.8746202], [-97.0436973, 34.8746837]]]}, "properties": {"osm_id": 1168142261, "building": "house", "name": "", "height": null, "height_m": null, "levels": null, "tract_id": "40087400400", "tract_name": "4004", "tags": {"building": "house"}}}, {"type": "Feature", "geometry": {"type": "Polygon", "coordinates": [[[-97.0424519, 34.8750682], [-97.0423772, 34.8750667], [-97.0423785, 34.8750239], [-97.0424532, 34.8750254], [-97.0424519, 34.8750682]]]}, "properties": {"osm_id": 1168142265, "building": "house", "name": "", "height": null, "height_m": null, "levels": null, "tract_id": "40087400400", "tract_name": "4004", "tags": {"building": "house"}}}, {"type": "Feature", "geometry": {"type": "Polygon", "coordinates": [[[-97.0448338, 34.8706553], [-97.0446736, 34.8706877], [-97.0446359, 34.8705623], [-97.0447961, 34.87053], [-97.0448338, 34.8706553]]]}, "properties": {"osm_id": 1168142266, "building": "house", "name": "", "height": null, "height_m": null, "levels": null, "tract_id": "40087400400", "tract_name": "4004", "tags": {"building": "house"}}}, {"type": "Feature", "geometry": {"type": "Polygon", "coordinates": [[[-97.0534463, 34.879223], [-97.0533026, 34.8792241], [-97.0533005, 34.8790394], [-97.0534782, 34.8790381], [-97.053479, 34.8791056], [-97.0534178, 34.8791061], [-97.0534179, 34.8791172], [-97.0534451, 34.879117], [-97.0534463, 34.879223]]]}, "properties": {"osm_id": 1168142269, "building": "house", "name": "", "height": null, "height_m": null, "levels": null, "tract_id": "40087400400", "tract_name": "4004", "tags": {"building": "house"}}}, {"type": "Feature", "geometry": {"type": "Polygon", "coordinates": [[[-97.0530006, 34.8790834], [-97.0527583, 34.8790876], [-97.0527551, 34.8789624], [-97.0529974, 34.8789582], [-97.0530006, 34.8790834]]]}, "properties": {"osm_id": 1168142270, "building": "yes", "name": "", "height": null, "height_m": null, "levels": null, "tract_id": "40087400400", "tract_name": "4004", "tags": {"building": "yes"}}}, {"type": "Feature", "geometry": {"type": "Polygon", "coordinates": [[[-97.0545861, 34.8789648], [-97.0544216, 34.8789625], [-97.0544233, 34.8788783], [-97.0545879, 34.8788806], [-97.0545861, 34.8789648]]]}, "properties": {"osm_id": 1168142271, "building": "house", "name": "", "height": null, "height_m": null, "levels": null, "tract_id": "40087400400", "tract_name": "4004", "tags": {"building": "house"}}}, {"type": "Feature", "geometry": {"type": "Polygon", "coordinates": [[[-97.0545974, 34.8785013], [-97.0545019, 34.878502], [-97.0544999, 34.8783311], [-97.054591, 34.8783304], [-97.054592, 34.8784129], [-97.0546403, 34.8784125], [-97.054641, 34.8784766], [-97.0545971, 34.8784769], [-97.0545974, 34.8785013]]]}, "properties": {"osm_id": 1168142272, "building": "house", "name": "", "height": null, "height_m": null, "levels": null, "tract_id": "40087400400", "tract_name": "4004", "tags": {"building": "house"}}}, {"type": "Feature", "geometry": {"type": "Polygon", "coordinates": [[[-96.9656783, 34.8831848], [-96.9653602, 34.8831783], [-96.9653638, 34.8830608], [-96.9656819, 34.8830673], [-96.9656783, 34.8831848]]]}, "properties": {"osm_id": 1168143990, "building": "yes", "name": "", "height": null, "height_m": null, "levels": null, "tract_id": "40087400400", "tract_name": "4004", "tags": {"building": "yes"}}}, {"type": "Feature", "geometry": {"type": "Polygon", "coordinates": [[[-96.9655421, 34.8851136], [-96.9652912, 34.8851148], [-96.9652903, 34.884997], [-96.9653839, 34.8849966], [-96.9653841, 34.8850204], [-96.9655414, 34.8850196], [-96.9655421, 34.8851136]]]}, "properties": {"osm_id": 1168143991, "building": "yes", "name": "", "height": null, "height_m": null, "levels": null, "tract_id": "40087400400", "tract_name": "4004", "tags": {"building": "yes"}}}, {"type": "Feature", "geometry": {"type": "Polygon", "coordinates": [[[-96.9655123, 34.884856], [-96.9654082, 34.8848586], [-96.9654028, 34.8847168], [-96.9655069, 34.8847142], [-96.9655123, 34.884856]]]}, "properties": {"osm_id": 1168143992, "building": "house", "name": "", "height": null, "height_m": null, "levels": null, "tract_id": "40087400400", "tract_name": "4004", "tags": {"building": "house"}}}, {"type": "Feature", "geometry": {"type": "Polygon", "coordinates": [[[-96.9652514, 34.884592], [-96.9651612, 34.884591], [-96.9651629, 34.8844918], [-96.9652532, 34.8844929], [-96.9652514, 34.884592]]]}, "properties": {"osm_id": 1168143993, "building": "yes", "name": "", "height": null, "height_m": null, "levels": null, "tract_id": "40087400400", "tract_name": "4004", "tags": {"building": "yes"}}}, {"type": "Feature", "geometry": {"type": "Polygon", "coordinates": [[[-96.9657563, 34.8845851], [-96.965644, 34.8845843], [-96.9656451, 34.8844822], [-96.9657574, 34.884483], [-96.9657563, 34.8845851]]]}, "properties": {"osm_id": 1168143994, "building": "yes", "name": "", "height": null, "height_m": null, "levels": null, "tract_id": "40087400400", "tract_name": "4004", "tags": {"building": "yes"}}}, {"type": "Feature", "geometry": {"type": "Polygon", "coordinates": [[[-96.9663117, 34.884504], [-96.9662238, 34.8845051], [-96.9662212, 34.8843967], [-96.9663083, 34.8843961], [-96.9663117, 34.884504]]]}, "properties": {"osm_id": 1168143995, "building": "yes", "name": "", "height": null, "height_m": null, "levels": null, "tract_id": "40087400400", "tract_name": "4004", "tags": {"building": "yes"}}}, {"type": "Feature", "geometry": {"type": "Polygon", "coordinates": [[[-96.966431, 34.8844918], [-96.9663418, 34.884493], [-96.9663406, 34.8844386], [-96.9664298, 34.8844373], [-96.966431, 34.8844918]]]}, "properties": {"osm_id": 1168143996, "building": "yes", "name": "", "height": null, "height_m": null, "levels": null, "tract_id": "40087400400", "tract_name": "4004", "tags": {"building": "yes"}}}, {"type": "Feature", "geometry": {"type": "Polygon", "coordinates": [[[-96.9664056, 34.8845557], [-96.966354, 34.8845567], [-96.9663525, 34.8845028], [-96.9664041, 34.8845018], [-96.9664056, 34.8845557]]]}, "properties": {"osm_id": 1168143997, "building": "shed", "name": "", "height": null, "height_m": null, "levels": null, "tract_id": "40087400400", "tract_name": "4004", "tags": {"building": "shed"}}}, {"type": "Feature", "geometry": {"type": "Polygon", "coordinates": [[[-97.0537965, 34.8853248], [-97.0535672, 34.8853191], [-97.0535751, 34.8851068], [-97.0538043, 34.8851125], [-97.0537965, 34.8853248]]]}, "properties": {"osm_id": 1172311379, "building": "yes", "name": "", "height": null, "height_m": null, "levels": null, "tract_id": "40087400400", "tract_name": "4004", "tags": {"building": "yes"}}}, {"type": "Feature", "geometry": {"type": "Polygon", "coordinates": [[[-97.0546486, 34.8844014], [-97.0545043, 34.8843999], [-97.0545065, 34.8842617], [-97.0546507, 34.8842632], [-97.0546486, 34.8844014]]]}, "properties": {"osm_id": 1172311380, "building": "house", "name": "", "height": null, "height_m": null, "levels": null, "tract_id": "40087400400", "tract_name": "4004", "tags": {"building": "house"}}}, {"type": "Feature", "geometry": {"type": "Polygon", "coordinates": [[[-97.0547017, 34.8861761], [-97.0545569, 34.8861756], [-97.0545582, 34.8859506], [-97.054703, 34.8859512], [-97.0547017, 34.8861761]]]}, "properties": {"osm_id": 1172311381, "building": "yes", "name": "", "height": null, "height_m": null, "levels": null, "tract_id": "40087400400", "tract_name": "4004", "tags": {"building": "yes"}}}, {"type": "Feature", "geometry": {"type": "Polygon", "coordinates": [[[-97.1847807, 34.9177728], [-97.1847811, 34.9177135], [-97.1846696, 34.9177129], [-97.1846692, 34.9177723], [-97.1847807, 34.9177728]]]}, "properties": {"osm_id": 1321518306, "building": "service", "name": "", "height": null, "height_m": null, "levels": null, "tract_id": "40087400400", "tract_name": "4004", "tags": {"building": "service"}}}, {"type": "Feature", "geometry": {"type": "Polygon", "coordinates": [[[-97.1846762, 34.9179365], [-97.1847537, 34.9179373], [-97.1847542, 34.9179041], [-97.1847788, 34.9179043], [-97.1847976, 34.9179045], [-97.1847971, 34.9179366], [-97.1848877, 34.9179376], [-97.1848859, 34.9180487], [-97.1849389, 34.9180493], [-97.1849384, 34.9180803], [-97.184938, 34.9181033], [-97.184884, 34.9181027], [-97.184882, 34.9182208], [-97.1848009, 34.9182199], [-97.1848003, 34.9182529], [-97.1847739, 34.9182526], [-97.1847454, 34.9182523], [-97.1847459, 34.9182178], [-97.1846717, 34.918217], [-97.1846762, 34.9179365]]]}, "properties": {"osm_id": 1321518308, "building": "yes", "name": "", "height": null, "height_m": null, "levels": null, "tract_id": "40087400400", "tract_name": "4004", "tags": {"addr:city": "Rosedale", "addr:housenumber": "14296", "addr:street": "Main Street", "amenity": "community_centre", "building": "yes", "community_centre": "community_hall"}}}, {"type": "Feature", "geometry": {"type": "Polygon", "coordinates": [[[-97.1855275, 34.918096], [-97.1855276, 34.9180494], [-97.1855795, 34.9180495], [-97.1855799, 34.9178719], [-97.1852194, 34.9178713], [-97.185219, 34.9180473], [-97.1854371, 34.9180476], [-97.185437, 34.9180959], [-97.1854827, 34.918096], [-97.1855275, 34.918096]]]}, "properties": {"osm_id": 1321518309, "building": "yes", "name": "Rosedale Baptist Church", "height": null, "height_m": null, "levels": null, "tract_id": "40087400400", "tract_name": "4004", "tags": {"addr:city": "Rosedale", "addr:housenumber": "37740", "addr:street": "Waterloo Street", "amenity": "place_of_worship", "building": "yes", "denomination": "baptist", "name": "Rosedale Baptist Church", "religion": "christian"}}}, {"type": "Feature", "geometry": {"type": "Polygon", "coordinates": [[[-97.1860788, 34.9182148], [-97.185897, 34.9182118], [-97.1858976, 34.9181848], [-97.1858755, 34.9181844], [-97.1858759, 34.918169], [-97.1858763, 34.9181509], [-97.1858985, 34.9181513], [-97.1858993, 34.9181186], [-97.1859383, 34.9181192], [-97.1859387, 34.9181003], [-97.1859403, 34.9180346], [-97.1860483, 34.9180364], [-97.1860463, 34.91812], [-97.1861068, 34.918121], [-97.1861053, 34.9181835], [-97.1860796, 34.9181831], [-97.1860788, 34.9182148]]]}, "properties": {"osm_id": 1321518313, "building": "yes", "name": "Rosedale First Baptist Church", "height": null, "height_m": null, "levels": null, "tract_id": "40087400400", "tract_name": "4004", "tags": {"amenity": "place_of_worship", "building": "yes", "denomination": "baptist", "name": "Rosedale First Baptist Church", "religion": "christian"}}}, {"type": "Feature", "geometry": {"type": "Polygon", "coordinates": [[[-97.1881228, 34.9174507], [-97.1880534, 34.9174108], [-97.188113, 34.9173409], [-97.1881825, 34.9173808], [-97.1881228, 34.9174507]]]}, "properties": {"osm_id": 1321518318, "building": "shed", "name": "", "height": null, "height_m": null, "levels": null, "tract_id": "40087400400", "tract_name": "4004", "tags": {"building": "shed"}}}, {"type": "Feature", "geometry": {"type": "Polygon", "coordinates": [[[-97.187914, 34.9174989], [-97.1878671, 34.9174454], [-97.187933, 34.9174066], [-97.1879798, 34.9174601], [-97.187914, 34.9174989]]]}, "properties": {"osm_id": 1321518319, "building": "roof", "name": "", "height": null, "height_m": null, "levels": null, "tract_id": "40087400400", "tract_name": "4004", "tags": {"building": "roof", "layer": "1"}}}, {"type": "Feature", "geometry": {"type": "Polygon", "coordinates": [[[-97.1880161, 34.9174626], [-97.1879022, 34.9175269], [-97.1879716, 34.9176095], [-97.1880855, 34.9175452], [-97.1880161, 34.9174626]]]}, "properties": {"osm_id": 1321518320, "building": "yes", "name": "Riggles Trading Post", "height": null, "height_m": null, "levels": null, "tract_id": "40087400400", "tract_name": "4004", "tags": {"addr:city": "Rosedale", "addr:housenumber": "37287", "addr:street": "Oklahoma Avenue", "building": "yes", "name": "Riggles Trading Post", "shop": "convenience"}}}, {"type": "Feature", "geometry": {"type": "Polygon", "coordinates": [[[-97.1842768, 34.9178562], [-97.1841057, 34.9178526], [-97.1841108, 34.9176899], [-97.1841122, 34.917645], [-97.1841135, 34.9176035], [-97.1841144, 34.9175763], [-97.1842854, 34.9175799], [-97.1842781, 34.9178162], [-97.1842768, 34.9178562]]]}, "properties": {"osm_id": 1321518323, "building": "fire_station", "name": "Rosedale Fire Department", "height": null, "height_m": 3.0, "levels": 1, "tract_id": "40087400400", "tract_name": "4004", "tags": {"addr:city": "Rosedale", "addr:housenumber": "14320", "addr:street": "Main Street", "amenity": "fire_station", "building": "fire_station", "building:levels": "1", "name": "Rosedale Fire Department"}}}, {"type": "Feature", "geometry": {"type": "Polygon", "coordinates": [[[-97.1810246, 34.9173661], [-97.1810298, 34.9172424], [-97.1812762, 34.9172494], [-97.1812752, 34.9172729], [-97.1813504, 34.917275], [-97.1813469, 34.9173584], [-97.1812744, 34.9173564], [-97.1812737, 34.9173733], [-97.1810246, 34.9173661]]]}, "properties": {"osm_id": 1321518328, "building": "house", "name": "", "height": null, "height_m": null, "levels": null, "tract_id": "40087400400", "tract_name": "4004", "tags": {"addr:city": "Rosedale", "addr:housenumber": "37768", "addr:street": "Oklahoma Avenue", "building": "house"}}}, {"type": "Feature", "geometry": {"type": "Polygon", "coordinates": [[[-97.1814085, 34.9171934], [-97.1814093, 34.9171643], [-97.1813429, 34.917163], [-97.181342, 34.9171921], [-97.1814085, 34.9171934]]]}, "properties": {"osm_id": 1321518329, "building": "shed", "name": "", "height": null, "height_m": null, "levels": null, "tract_id": "40087400400", "tract_name": "4004", "tags": {"building": "shed"}}}, {"type": "Feature", "geometry": {"type": "Polygon", "coordinates": [[[-97.1810679, 34.9171972], [-97.1810678, 34.9171436], [-97.1809961, 34.9171437], [-97.1809962, 34.9171973], [-97.1810679, 34.9171972]]]}, "properties": {"osm_id": 1321518330, "building": "shed", "name": "", "height": null, "height_m": null, "levels": null, "tract_id": "40087400400", "tract_name": "4004", "tags": {"building": "shed"}}}]}