{"type": "FeatureCollection", "features": [{"type": "Feature", "geometry": {"type": "Polygon", "coordinates": [[[-94.6533266, 33.8456124], [-94.6533411, 33.845529], [-94.6532382, 33.8455166], [-94.6532237, 33.8456], [-94.6533266, 33.8456124]]]}, "properties": {"osm_id": 1062633009, "building": "yes", "name": "", "height": null, "height_m": null, "levels": null, "tract_id": "40089098900", "tract_name": "989", "tags": {"addr:city": "Haworth", "addr:housenumber": "102", "addr:postcode": "74740", "addr:state": "OK", "addr:street": "South Main Street", "building": "yes"}}}, {"type": "Feature", "geometry": {"type": "Polygon", "coordinates": [[[-94.6867599, 33.8739018], [-94.6867651, 33.8739785], [-94.686844, 33.8739747], [-94.6868388, 33.8738981], [-94.6867599, 33.8739018]]]}, "properties": {"osm_id": 1326338313, "building": "yes", "name": "", "height": null, "height_m": null, "levels": null, "tract_id": "40089098900", "tract_name": "989", "tags": {"building": "yes"}}}, {"type": "Feature", "geometry": {"type": "Polygon", "coordinates": [[[-94.6867835, 33.8741651], [-94.68688, 33.8741632], [-94.6868759, 33.8740163], [-94.6867793, 33.8740182], [-94.6867835, 33.8741651]]]}, "properties": {"osm_id": 1326338314, "building": "yes", "name": "", "height": null, "height_m": null, "levels": null, "tract_id": "40089098900", "tract_name": "989", "tags": {"building": "yes"}}}, {"type": "Feature", "geometry": {"type": "Polygon", "coordinates": [[[-94.6868758, 33.8716001], [-94.6868744, 33.8716758], [-94.6869832, 33.8716772], [-94.6869846, 33.8716015], [-94.6868758, 33.8716001]]]}, "properties": {"osm_id": 1326338315, "building": "detached", "name": "", "height": null, "height_m": null, "levels": null, "tract_id": "40089098900", "tract_name": "989", "tags": {"building": "detached"}}}, {"type": "Feature", "geometry": {"type": "Polygon", "coordinates": [[[-94.7353743, 33.7389566], [-94.7352429, 33.7388869], [-94.7352917, 33.7388232], [-94.7353561, 33.7388574], [-94.7353745, 33.7388333], [-94.7354415, 33.7388689], [-94.7353743, 33.7389566]]]}, "properties": {"osm_id": 1363238768, "building": "yes", "name": "", "height": null, "height_m": null, "levels": null, "tract_id": "40089098900", "tract_name": "989", "tags": {"building": "yes"}}}, {"type": "Feature", "geometry": {"type": "Polygon", "coordinates": [[[-94.7163815, 33.7279857], [-94.7162053, 33.7279881], [-94.716204, 33.7279183], [-94.7162379, 33.7279178], [-94.7162346, 33.7277502], [-94.7163769, 33.7277483], [-94.7163815, 33.7279857]]]}, "properties": {"osm_id": 1363258820, "building": "yes", "name": "", "height": null, "height_m": null, "levels": null, "tract_id": "40089098900", "tract_name": "989", "tags": {"building": "yes"}}}, {"type": "Feature", "geometry": {"type": "Polygon", "coordinates": [[[-94.5119711, 33.6483074], [-94.5117661, 33.6483467], [-94.5117225, 33.6481893], [-94.5119275, 33.6481499], [-94.5119711, 33.6483074]]]}, "properties": {"osm_id": 1363510960, "building": "yes", "name": "", "height": null, "height_m": null, "levels": null, "tract_id": "40089098900", "tract_name": "989", "tags": {"building": "yes"}}}, {"type": "Feature", "geometry": {"type": "Polygon", "coordinates": [[[-94.5162727, 33.6470433], [-94.5162231, 33.6470427], [-94.5162237, 33.6470012], [-94.5162734, 33.6470018], [-94.5162727, 33.6470433]]]}, "properties": {"osm_id": 1363510961, "building": "yes", "name": "", "height": null, "height_m": null, "levels": null, "tract_id": "40089098900", "tract_name": "989", "tags": {"building": "yes"}}}, {"type": "Feature", "geometry": {"type": "Polygon", "coordinates": [[[-94.5158073, 33.6471494], [-94.5156112, 33.6471742], [-94.515596, 33.6470911], [-94.5157921, 33.6470662], [-94.5158073, 33.6471494]]]}, "properties": {"osm_id": 1363510962, "building": "yes", "name": "", "height": null, "height_m": null, "levels": null, "tract_id": "40089098900", "tract_name": "989", "tags": {"building": "yes"}}}, {"type": "Feature", "geometry": {"type": "Polygon", "coordinates": [[[-94.5160749, 33.6470793], [-94.5159274, 33.6470877], [-94.5159229, 33.6470328], [-94.5160704, 33.6470244], [-94.5160749, 33.6470793]]]}, "properties": {"osm_id": 1363510963, "building": "yes", "name": "", "height": null, "height_m": null, "levels": null, "tract_id": "40089098900", "tract_name": "989", "tags": {"building": "yes"}}}, {"type": "Feature", "geometry": {"type": "Polygon", "coordinates": [[[-94.5175729, 33.6472289], [-94.5175822, 33.6473428], [-94.5174146, 33.6473522], [-94.5174053, 33.6472384], [-94.5175729, 33.6472289]]]}, "properties": {"osm_id": 1363510964, "building": "yes", "name": "", "height": null, "height_m": null, "levels": null, "tract_id": "40089098900", "tract_name": "989", "tags": {"building": "yes"}}}, {"type": "Feature", "geometry": {"type": "Polygon", "coordinates": [[[-94.5217464, 33.6468917], [-94.5217554, 33.6470273], [-94.5215609, 33.6470362], [-94.521552, 33.6469007], [-94.5217464, 33.6468917]]]}, "properties": {"osm_id": 1363510965, "building": "yes", "name": "", "height": null, "height_m": null, "levels": null, "tract_id": "40089098900", "tract_name": "989", "tags": {"building": "yes"}}}, {"type": "Feature", "geometry": {"type": "Polygon", "coordinates": [[[-94.5083436, 33.6626208], [-94.5082983, 33.6626183], [-94.5083205, 33.6623403], [-94.5085171, 33.6623512], [-94.508495, 33.6626291], [-94.5084361, 33.6626259], [-94.5084326, 33.6626693], [-94.5083401, 33.6626642], [-94.5083436, 33.6626208]]]}, "properties": {"osm_id": 1363510966, "building": "yes", "name": "", "height": null, "height_m": null, "levels": null, "tract_id": "40089098900", "tract_name": "989", "tags": {"building": "yes"}}}, {"type": "Feature", "geometry": {"type": "Polygon", "coordinates": [[[-94.5062741, 33.6560426], [-94.5060387, 33.6560354], [-94.5060429, 33.6559418], [-94.5062783, 33.655949], [-94.5062741, 33.6560426]]]}, "properties": {"osm_id": 1363510967, "building": "yes", "name": "Mount Zion Missionary Baptist Church", "height": null, "height_m": null, "levels": null, "tract_id": "40089098900", "tract_name": "989", "tags": {"amenity": "place_of_worship", "building": "yes", "denomination": "baptist", "name": "Mount Zion Missionary Baptist Church", "religion": "christian"}}}, {"type": "Feature", "geometry": {"type": "Polygon", "coordinates": [[[-94.4871606, 33.6636227], [-94.48716, 33.6636477], [-94.4870339, 33.6636454], [-94.4870358, 33.6635725], [-94.4871619, 33.6635747], [-94.4871614, 33.6635941], [-94.4871872, 33.6635946], [-94.4871865, 33.6636231], [-94.4871606, 33.6636227]]]}, "properties": {"osm_id": 1363510969, "building": "yes", "name": "", "height": null, "height_m": null, "levels": null, "tract_id": "40089098900", "tract_name": "989", "tags": {"building": "yes"}}}, {"type": "Feature", "geometry": {"type": "Polygon", "coordinates": [[[-94.4855325, 33.6636294], [-94.485574, 33.6636323], [-94.4855631, 33.6637403], [-94.4854934, 33.6637355], [-94.4854908, 33.6637611], [-94.485416, 33.6637559], [-94.4854295, 33.6636222], [-94.4854977, 33.663627], [-94.4854988, 33.6636162], [-94.4855336, 33.6636187], [-94.4855325, 33.6636294]]]}, "properties": {"osm_id": 1363510970, "building": "yes", "name": "", "height": null, "height_m": null, "levels": null, "tract_id": "40089098900", "tract_name": "989", "tags": {"building": "yes"}}}, {"type": "Feature", "geometry": {"type": "Polygon", "coordinates": [[[-94.4863721, 33.6925359], [-94.4860096, 33.6925295], [-94.4860127, 33.6924087], [-94.4863752, 33.6924151], [-94.4863721, 33.6925359]]]}, "properties": {"osm_id": 1363512369, "building": "yes", "name": "", "height": null, "height_m": null, "levels": null, "tract_id": "40089098900", "tract_name": "989", "tags": {"building": "yes"}}}, {"type": "Feature", "geometry": {"type": "Polygon", "coordinates": [[[-94.4865328, 33.6927277], [-94.4865283, 33.6929036], [-94.4859939, 33.6928941], [-94.4859984, 33.6927182], [-94.4865328, 33.6927277]]]}, "properties": {"osm_id": 1363512370, "building": "yes", "name": "", "height": null, "height_m": null, "levels": null, "tract_id": "40089098900", "tract_name": "989", "tags": {"building": "yes"}}}, {"type": "Feature", "geometry": {"type": "Polygon", "coordinates": [[[-94.4806895, 33.8375412], [-94.4806841, 33.8374713], [-94.4807403, 33.8374683], [-94.4807457, 33.8375382], [-94.4806895, 33.8375412]]]}, "properties": {"osm_id": 1369002397, "building": "yes", "name": "", "height": null, "height_m": null, "levels": null, "tract_id": "40089098900", "tract_name": "989", "tags": {"building": "yes"}}}, {"type": "Feature", "geometry": {"type": "Polygon", "coordinates": [[[-94.4805732, 33.8374691], [-94.4805252, 33.8374712], [-94.4805171, 33.8373442], [-94.4805651, 33.8373421], [-94.4805732, 33.8374691]]]}, "properties": {"osm_id": 1369002398, "building": "yes", "name": "", "height": null, "height_m": null, "levels": null, "tract_id": "40089098900", "tract_name": "989", "tags": {"building": "yes"}}}, {"type": "Feature", "geometry": {"type": "Polygon", "coordinates": [[[-94.4810674, 33.8375582], [-94.4809426, 33.8375597], [-94.4809406, 33.8374419], [-94.4810653, 33.8374404], [-94.4810674, 33.8375582]]]}, "properties": {"osm_id": 1369002399, "building": "yes", "name": "", "height": null, "height_m": null, "levels": null, "tract_id": "40089098900", "tract_name": "989", "tags": {"building": "yes"}}}, {"type": "Feature", "geometry": {"type": "Polygon", "coordinates": [[[-94.6310666, 33.7932654], [-94.6294179, 33.7932676], [-94.6294176, 33.7931447], [-94.6310664, 33.7931426], [-94.6310666, 33.7932654]]]}, "properties": {"osm_id": 1379091628, "building": "yes", "name": "", "height": null, "height_m": null, "levels": null, "tract_id": "40089098900", "tract_name": "989", "tags": {"building": "yes"}}}, {"type": "Feature", "geometry": {"type": "Polygon", "coordinates": [[[-94.6315473, 33.7935647], [-94.6299016, 33.7935668], [-94.6299014, 33.7934388], [-94.631547, 33.7934367], [-94.6315473, 33.7935647]]]}, "properties": {"osm_id": 1379091629, "building": "yes", "name": "", "height": null, "height_m": null, "levels": null, "tract_id": "40089098900", "tract_name": "989", "tags": {"building": "yes"}}}, {"type": "Feature", "geometry": {"type": "Polygon", "coordinates": [[[-94.6309013, 33.7938113], [-94.6299153, 33.7938126], [-94.629915, 33.7936906], [-94.630901, 33.7936893], [-94.6309013, 33.7938113]]]}, "properties": {"osm_id": 1379091630, "building": "yes", "name": "", "height": null, "height_m": null, "levels": null, "tract_id": "40089098900", "tract_name": "989", "tags": {"building": "yes"}}}]}