{"type": "FeatureCollection", "features": [{"type": "Feature", "geometry": {"type": "Polygon", "coordinates": [[[-96.0136323, 35.8144223], [-96.0136317, 35.814133], [-96.0143431, 35.814132], [-96.0143436, 35.814363], [-96.0144051, 35.8143629], [-96.0144053, 35.8144212], [-96.0140571, 35.8144217], [-96.0140572, 35.8144788], [-96.0139821, 35.8144789], [-96.013982, 35.8144218], [-96.0136323, 35.8144223]]]}, "properties": {"osm_id": 220670639, "building": "yes", "name": "Creek Nation Casino Duck Creek", "height": null, "height_m": null, "levels": null, "tract_id": "40111000601", "tract_name": "6.01", "tags": {"building": "yes", "name": "Creek Nation Casino Duck Creek"}}}, {"type": "Feature", "geometry": {"type": "Polygon", "coordinates": [[[-95.9257376, 35.8323269], [-95.9255955, 35.8323184], [-95.9255993, 35.8322761], [-95.9256406, 35.8322786], [-95.9256512, 35.8321616], [-95.925752, 35.8321676], [-95.9257376, 35.8323269]]]}, "properties": {"osm_id": 390610758, "building": "house", "name": "", "height": null, "height_m": null, "levels": null, "tract_id": "40111000601", "tract_name": "6.01", "tags": {"addr:city": "Mounds", "addr:country": "US", "addr:housenumber": "1690", "addr:postcode": "74047", "addr:state": "OK", "addr:street": "CR N250", "building": "house"}}}, {"type": "Feature", "geometry": {"type": "Polygon", "coordinates": [[[-95.9188616, 35.8440453], [-95.918768, 35.8440591], [-95.9187404, 35.843936], [-95.918834, 35.8439222], [-95.9188616, 35.8440453]]]}, "properties": {"osm_id": 390618754, "building": "yes", "name": "", "height": null, "height_m": null, "levels": null, "tract_id": "40111000601", "tract_name": "6.01", "tags": {"addr:city": "Mounds", "addr:country": "US", "addr:housenumber": "860", "addr:postcode": "74047", "addr:state": "OK", "addr:street": "North 254 Road", "building": "yes"}}}, {"type": "Feature", "geometry": {"type": "Polygon", "coordinates": [[[-96.0147659, 35.795592], [-96.0146238, 35.7955879], [-96.0146312, 35.7954193], [-96.0147732, 35.7954234], [-96.0147659, 35.795592]]]}, "properties": {"osm_id": 448698698, "building": "yes", "name": "Winchester Station", "height": null, "height_m": null, "levels": null, "tract_id": "40111000601", "tract_name": "6.01", "tags": {"amenity": "fire_station", "building": "yes", "name": "Winchester Station"}}}, {"type": "Feature", "geometry": {"type": "Polygon", "coordinates": [[[-95.9783183, 35.7531341], [-95.9782884, 35.7530362], [-95.9782344, 35.753047], [-95.9782009, 35.7529373], [-95.9782651, 35.7529244], [-95.978245, 35.7528586], [-95.9783647, 35.7528345], [-95.9784198, 35.753015], [-95.9784842, 35.7530021], [-95.9785204, 35.7531207], [-95.978394, 35.7531461], [-95.9783862, 35.7531204], [-95.9783183, 35.7531341]]]}, "properties": {"osm_id": 852964145, "building": "yes", "name": "", "height": null, "height_m": null, "levels": null, "tract_id": "40111000601", "tract_name": "6.01", "tags": {"building": "yes"}}}, {"type": "Feature", "geometry": {"type": "Polygon", "coordinates": [[[-95.9980789, 35.757024], [-95.9980616, 35.7568822], [-95.9982285, 35.7568689], [-95.9982457, 35.7570106], [-95.9980789, 35.757024]]]}, "properties": {"osm_id": 879860931, "building": "yes", "name": "", "height": null, "height_m": null, "levels": null, "tract_id": "40111000601", "tract_name": "6.01", "tags": {"building": "yes"}}}, {"type": "Feature", "geometry": {"type": "Polygon", "coordinates": [[[-95.99708, 35.7568319], [-95.9968517, 35.7567681], [-95.9968224, 35.7568374], [-95.9969621, 35.7568764], [-95.9969451, 35.7569165], [-95.9970336, 35.7569412], [-95.99708, 35.7568319]]]}, "properties": {"osm_id": 879860933, "building": "yes", "name": "", "height": null, "height_m": null, "levels": null, "tract_id": "40111000601", "tract_name": "6.01", "tags": {"building": "yes"}}}, {"type": "Feature", "geometry": {"type": "Polygon", "coordinates": [[[-95.9967019, 35.7570588], [-95.9965989, 35.757035], [-95.9965701, 35.757117], [-95.9966731, 35.7571408], [-95.9967019, 35.7570588]]]}, "properties": {"osm_id": 879860934, "building": "yes", "name": "", "height": null, "height_m": null, "levels": null, "tract_id": "40111000601", "tract_name": "6.01", "tags": {"building": "yes"}}}, {"type": "Feature", "geometry": {"type": "Polygon", "coordinates": [[[-95.9971511, 35.7574369], [-95.9969187, 35.7574236], [-95.9969269, 35.7573374], [-95.9971639, 35.7573497], [-95.9971511, 35.7574369]]]}, "properties": {"osm_id": 879860935, "building": "yes", "name": "", "height": null, "height_m": null, "levels": null, "tract_id": "40111000601", "tract_name": "6.01", "tags": {"building": "yes"}}}, {"type": "Feature", "geometry": {"type": "Polygon", "coordinates": [[[-95.9964422, 35.7574234], [-95.9963268, 35.7574069], [-95.9963426, 35.7573342], [-95.996458, 35.7573507], [-95.9964422, 35.7574234]]]}, "properties": {"osm_id": 879860938, "building": "yes", "name": "", "height": null, "height_m": null, "levels": null, "tract_id": "40111000601", "tract_name": "6.01", "tags": {"building": "yes"}}}, {"type": "Feature", "geometry": {"type": "Polygon", "coordinates": [[[-95.9963065, 35.7573069], [-95.9961095, 35.7572656], [-95.9960871, 35.757336], [-95.9962177, 35.7573633], [-95.9962072, 35.7573963], [-95.9962736, 35.7574102], [-95.9963065, 35.7573069]]]}, "properties": {"osm_id": 879860939, "building": "yes", "name": "", "height": null, "height_m": null, "levels": null, "tract_id": "40111000601", "tract_name": "6.01", "tags": {"building": "yes"}}}, {"type": "Feature", "geometry": {"type": "Polygon", "coordinates": [[[-95.9958452, 35.7572847], [-95.9956932, 35.7571675], [-95.9957265, 35.757139], [-95.9958785, 35.7572563], [-95.9958452, 35.7572847]]]}, "properties": {"osm_id": 879860940, "building": "yes", "name": "", "height": null, "height_m": null, "levels": null, "tract_id": "40111000601", "tract_name": "6.01", "tags": {"building": "yes"}}}, {"type": "Feature", "geometry": {"type": "Polygon", "coordinates": [[[-95.9956681, 35.7568789], [-95.9957303, 35.7567522], [-95.9958429, 35.7567886], [-95.9957807, 35.7569153], [-95.9956681, 35.7568789]]]}, "properties": {"osm_id": 879860941, "building": "yes", "name": "", "height": null, "height_m": null, "levels": null, "tract_id": "40111000601", "tract_name": "6.01", "tags": {"building": "yes"}}}, {"type": "Feature", "geometry": {"type": "Polygon", "coordinates": [[[-95.9956568, 35.7593794], [-95.9956121, 35.7592751], [-95.9956894, 35.7592533], [-95.9957341, 35.7593576], [-95.9956568, 35.7593794]]]}, "properties": {"osm_id": 879860947, "building": "yes", "name": "", "height": null, "height_m": null, "levels": null, "tract_id": "40111000601", "tract_name": "6.01", "tags": {"building": "yes"}}}, {"type": "Feature", "geometry": {"type": "Polygon", "coordinates": [[[-95.9959247, 35.759532], [-95.9958464, 35.7593709], [-95.9957441, 35.7594036], [-95.9958223, 35.7595647], [-95.9959247, 35.759532]]]}, "properties": {"osm_id": 879860948, "building": "yes", "name": "", "height": null, "height_m": null, "levels": null, "tract_id": "40111000601", "tract_name": "6.01", "tags": {"building": "yes"}}}, {"type": "Feature", "geometry": {"type": "Polygon", "coordinates": [[[-95.9956997, 35.7594901], [-95.9956802, 35.7594405], [-95.9956166, 35.759457], [-95.995636, 35.7595066], [-95.9956997, 35.7594901]]]}, "properties": {"osm_id": 879860949, "building": "yes", "name": "", "height": null, "height_m": null, "levels": null, "tract_id": "40111000601", "tract_name": "6.01", "tags": {"building": "yes"}}}, {"type": "Feature", "geometry": {"type": "Polygon", "coordinates": [[[-95.995412, 35.7599771], [-95.9954452, 35.7598795], [-95.9955622, 35.7599057], [-95.995529, 35.7600033], [-95.995412, 35.7599771]]]}, "properties": {"osm_id": 879860950, "building": "yes", "name": "", "height": null, "height_m": null, "levels": null, "tract_id": "40111000601", "tract_name": "6.01", "tags": {"building": "yes"}}}, {"type": "Feature", "geometry": {"type": "Polygon", "coordinates": [[[-95.9960444, 35.7601365], [-95.9958766, 35.7601003], [-95.9958417, 35.7602067], [-95.9960095, 35.760243], [-95.9960444, 35.7601365]]]}, "properties": {"osm_id": 879860951, "building": "yes", "name": "", "height": null, "height_m": null, "levels": null, "tract_id": "40111000601", "tract_name": "6.01", "tags": {"building": "yes"}}}, {"type": "Feature", "geometry": {"type": "Polygon", "coordinates": [[[-95.9967465, 35.7593519], [-95.9965901, 35.759347], [-95.9965854, 35.7594451], [-95.9967418, 35.75945], [-95.9967465, 35.7593519]]]}, "properties": {"osm_id": 879860952, "building": "yes", "name": "", "height": null, "height_m": null, "levels": null, "tract_id": "40111000601", "tract_name": "6.01", "tags": {"building": "yes"}}}, {"type": "Feature", "geometry": {"type": "Polygon", "coordinates": [[[-95.9968175, 35.7594905], [-95.9968187, 35.7594174], [-95.9968958, 35.7594182], [-95.9968945, 35.7594914], [-95.9968175, 35.7594905]]]}, "properties": {"osm_id": 879860953, "building": "yes", "name": "", "height": null, "height_m": null, "levels": null, "tract_id": "40111000601", "tract_name": "6.01", "tags": {"building": "yes"}}}, {"type": "Feature", "geometry": {"type": "Polygon", "coordinates": [[[-95.9969163, 35.7595652], [-95.9969229, 35.7594531], [-95.9971364, 35.7594614], [-95.9971377, 35.7594388], [-95.9972428, 35.7594429], [-95.9972384, 35.7595165], [-95.9971072, 35.7595114], [-95.9971036, 35.7595725], [-95.9969163, 35.7595652]]]}, "properties": {"osm_id": 879860954, "building": "yes", "name": "", "height": null, "height_m": null, "levels": null, "tract_id": "40111000601", "tract_name": "6.01", "tags": {"building": "yes"}}}, {"type": "Feature", "geometry": {"type": "Polygon", "coordinates": [[[-95.9158554, 35.8422316], [-95.9156995, 35.8423195], [-95.9156424, 35.8422519], [-95.9157987, 35.842165], [-95.9158554, 35.8422316]]]}, "properties": {"osm_id": 987368821, "building": "yes", "name": "", "height": null, "height_m": null, "levels": null, "tract_id": "40111000601", "tract_name": "6.01", "tags": {"building": "yes"}}}, {"type": "Feature", "geometry": {"type": "Polygon", "coordinates": [[[-95.9339486, 35.8046525], [-95.9338549, 35.8046525], [-95.93386, 35.80452], [-95.9339552, 35.804523], [-95.9339486, 35.8046525]]]}, "properties": {"osm_id": 989791344, "building": "yes", "name": "", "height": null, "height_m": null, "levels": null, "tract_id": "40111000601", "tract_name": "6.01", "tags": {"building": "yes"}}}, {"type": "Feature", "geometry": {"type": "Polygon", "coordinates": [[[-96.0147712, 35.8033765], [-96.0147783, 35.8030416], [-96.0146101, 35.8030393], [-96.0146029, 35.8033742], [-96.0147712, 35.8033765]]]}, "properties": {"osm_id": 1343012147, "building": "yes", "name": "", "height": null, "height_m": null, "levels": null, "tract_id": "40111000601", "tract_name": "6.01", "tags": {"building": "yes"}}}, {"type": "Feature", "geometry": {"type": "Polygon", "coordinates": [[[-96.0145186, 35.7962944], [-96.0147279, 35.7962962], [-96.0147314, 35.7960221], [-96.0145222, 35.7960203], [-96.0145186, 35.7962944]]]}, "properties": {"osm_id": 1343012148, "building": "yes", "name": "", "height": null, "height_m": null, "levels": null, "tract_id": "40111000601", "tract_name": "6.01", "tags": {"building": "yes"}}}, {"type": "Feature", "geometry": {"type": "Polygon", "coordinates": [[[-96.0146015, 35.79531], [-96.0145997, 35.7954144], [-96.0147727, 35.7954163], [-96.0147744, 35.7953119], [-96.0146015, 35.79531]]]}, "properties": {"osm_id": 1343012149, "building": "yes", "name": "", "height": null, "height_m": null, "levels": null, "tract_id": "40111000601", "tract_name": "6.01", "tags": {"building": "yes"}}}, {"type": "Feature", "geometry": {"type": "Polygon", "coordinates": [[[-96.0148036, 35.8025219], [-96.0146055, 35.802519], [-96.0145963, 35.8029322], [-96.0147944, 35.8029351], [-96.0148036, 35.8025219]]]}, "properties": {"osm_id": 1343012150, "building": "yes", "name": "", "height": null, "height_m": null, "levels": null, "tract_id": "40111000601", "tract_name": "6.01", "tags": {"building": "yes"}}}, {"type": "Feature", "geometry": {"type": "Polygon", "coordinates": [[[-96.0144581, 35.8146018], [-96.0143562, 35.8146018], [-96.0143562, 35.8145387], [-96.0144581, 35.8145387], [-96.0144581, 35.8146018]]]}, "properties": {"osm_id": 1343028499, "building": "yes", "name": "", "height": null, "height_m": null, "levels": null, "tract_id": "40111000601", "tract_name": "6.01", "tags": {"building": "yes"}}}, {"type": "Feature", "geometry": {"type": "Polygon", "coordinates": [[[-96.0144554, 35.8149128], [-96.0142864, 35.8149128], [-96.0142864, 35.8148084], [-96.0144554, 35.8148084], [-96.0144554, 35.8149128]]]}, "properties": {"osm_id": 1343028500, "building": "yes", "name": "", "height": null, "height_m": null, "levels": null, "tract_id": "40111000601", "tract_name": "6.01", "tags": {"building": "yes"}}}, {"type": "Feature", "geometry": {"type": "Polygon", "coordinates": [[[-96.0144541, 35.81504], [-96.0142542, 35.815039], [-96.0142552, 35.8149282], [-96.014455, 35.8149293], [-96.0144541, 35.81504]]]}, "properties": {"osm_id": 1343028501, "building": "yes", "name": "", "height": null, "height_m": null, "levels": null, "tract_id": "40111000601", "tract_name": "6.01", "tags": {"building": "yes"}}}, {"type": "Feature", "geometry": {"type": "Polygon", "coordinates": [[[-96.0142717, 35.8146159], [-96.0142061, 35.814616], [-96.014206, 35.8145387], [-96.0142715, 35.8145386], [-96.0142717, 35.8146159]]]}, "properties": {"osm_id": 1343028502, "building": "yes", "name": "", "height": null, "height_m": null, "levels": null, "tract_id": "40111000601", "tract_name": "6.01", "tags": {"building": "yes"}}}, {"type": "Feature", "geometry": {"type": "Polygon", "coordinates": [[[-96.0147511, 35.8089492], [-96.0147506, 35.8090155], [-96.0145347, 35.8090144], [-96.0145352, 35.8089481], [-96.0147511, 35.8089492]]]}, "properties": {"osm_id": 1343203248, "building": "yes", "name": "", "height": null, "height_m": null, "levels": null, "tract_id": "40111000601", "tract_name": "6.01", "tags": {"building": "yes"}}}, {"type": "Feature", "geometry": {"type": "Polygon", "coordinates": [[[-96.0131496, 35.8081969], [-96.0130936, 35.8083116], [-96.0131808, 35.8083397], [-96.0132368, 35.8082249], [-96.0131496, 35.8081969]]]}, "properties": {"osm_id": 1343203249, "building": "yes", "name": "", "height": null, "height_m": null, "levels": null, "tract_id": "40111000601", "tract_name": "6.01", "tags": {"building": "yes"}}}, {"type": "Feature", "geometry": {"type": "Polygon", "coordinates": [[[-96.0124271, 35.8086992], [-96.0128208, 35.8086933], [-96.0128187, 35.808602], [-96.012425, 35.8086079], [-96.0124271, 35.8086992]]]}, "properties": {"osm_id": 1343203250, "building": "yes", "name": "", "height": null, "height_m": null, "levels": null, "tract_id": "40111000601", "tract_name": "6.01", "tags": {"building": "yes"}}}, {"type": "Feature", "geometry": {"type": "Polygon", "coordinates": [[[-96.0133484, 35.8094675], [-96.0131697, 35.8094652], [-96.0131678, 35.8095598], [-96.0133465, 35.8095622], [-96.0133484, 35.8094675]]]}, "properties": {"osm_id": 1343203251, "building": "yes", "name": "", "height": null, "height_m": null, "levels": null, "tract_id": "40111000601", "tract_name": "6.01", "tags": {"building": "yes"}}}, {"type": "Feature", "geometry": {"type": "Polygon", "coordinates": [[[-96.0132078, 35.8081375], [-96.0131858, 35.8081876], [-96.0132524, 35.8082069], [-96.0132745, 35.8081567], [-96.0132078, 35.8081375]]]}, "properties": {"osm_id": 1343203253, "building": "yes", "name": "", "height": null, "height_m": null, "levels": null, "tract_id": "40111000601", "tract_name": "6.01", "tags": {"building": "yes"}}}, {"type": "Feature", "geometry": {"type": "Polygon", "coordinates": [[[-96.0128675, 35.8087647], [-96.0131302, 35.8087596], [-96.0131255, 35.8085999], [-96.0128628, 35.808605], [-96.0128675, 35.8087647]]]}, "properties": {"osm_id": 1343203254, "building": "yes", "name": "", "height": null, "height_m": null, "levels": null, "tract_id": "40111000601", "tract_name": "6.01", "tags": {"building": "yes"}}}, {"type": "Feature", "geometry": {"type": "Polygon", "coordinates": [[[-96.0140993, 35.8074862], [-96.0142182, 35.8075168], [-96.0142451, 35.8074481], [-96.0142667, 35.8074536], [-96.0143425, 35.8072596], [-96.0142337, 35.8072317], [-96.0142159, 35.8072771], [-96.0141843, 35.807269], [-96.0140993, 35.8074862]]]}, "properties": {"osm_id": 1343203257, "building": "detached", "name": "", "height": null, "height_m": null, "levels": null, "tract_id": "40111000601", "tract_name": "6.01", "tags": {"building": "detached"}}}, {"type": "Feature", "geometry": {"type": "Polygon", "coordinates": [[[-96.0133123, 35.8088911], [-96.0136205, 35.8088847], [-96.0136114, 35.8085968], [-96.0133032, 35.8086032], [-96.0133123, 35.8088911]]]}, "properties": {"osm_id": 1343203260, "building": "yes", "name": "", "height": null, "height_m": null, "levels": null, "tract_id": "40111000601", "tract_name": "6.01", "tags": {"building": "yes"}}}, {"type": "Feature", "geometry": {"type": "Polygon", "coordinates": [[[-96.0131701, 35.8090471], [-96.01317, 35.809456], [-96.0136778, 35.8094561], [-96.0136779, 35.8093233], [-96.0137297, 35.8093233], [-96.0137297, 35.8092113], [-96.0137715, 35.8092113], [-96.0137716, 35.8090427], [-96.0136518, 35.8090427], [-96.0136518, 35.8090014], [-96.013515, 35.8090014], [-96.013515, 35.8090472], [-96.0131701, 35.8090471]]]}, "properties": {"osm_id": 1343203262, "building": "yes", "name": "", "height": null, "height_m": null, "levels": null, "tract_id": "40111000601", "tract_name": "6.01", "tags": {"building": "yes"}}}, {"type": "Feature", "geometry": {"type": "Polygon", "coordinates": [[[-96.0126469, 35.7601657], [-96.0125703, 35.7601357], [-96.0125993, 35.7600868], [-96.012676, 35.7601168], [-96.0126469, 35.7601657]]]}, "properties": {"osm_id": 1344488301, "building": "yes", "name": "", "height": null, "height_m": null, "levels": null, "tract_id": "40111000601", "tract_name": "6.01", "tags": {"building": "yes"}}}, {"type": "Feature", "geometry": {"type": "Polygon", "coordinates": [[[-96.0138326, 35.7603185], [-96.0139568, 35.7605059], [-96.0140515, 35.7604646], [-96.0139273, 35.7602772], [-96.0138326, 35.7603185]]]}, "properties": {"osm_id": 1344488302, "building": "detached", "name": "", "height": null, "height_m": null, "levels": null, "tract_id": "40111000601", "tract_name": "6.01", "tags": {"building": "detached"}}}, {"type": "Feature", "geometry": {"type": "Polygon", "coordinates": [[[-96.0133941, 35.759866], [-96.0135723, 35.7599912], [-96.0136387, 35.7599289], [-96.0134605, 35.7598038], [-96.0133941, 35.759866]]]}, "properties": {"osm_id": 1344488303, "building": "detached", "name": "", "height": null, "height_m": null, "levels": null, "tract_id": "40111000601", "tract_name": "6.01", "tags": {"building": "detached"}}}, {"type": "Feature", "geometry": {"type": "Polygon", "coordinates": [[[-96.0135988, 35.7712495], [-96.0135658, 35.771203], [-96.0134451, 35.7712596], [-96.0134781, 35.771306], [-96.0135988, 35.7712495]]]}, "properties": {"osm_id": 1344488304, "building": "ruins", "name": "", "height": null, "height_m": null, "levels": null, "tract_id": "40111000601", "tract_name": "6.01", "tags": {"building": "ruins"}}}, {"type": "Feature", "geometry": {"type": "Polygon", "coordinates": [[[-96.0139966, 35.7601866], [-96.0139523, 35.7601248], [-96.0138612, 35.7601679], [-96.0139055, 35.7602297], [-96.0139966, 35.7601866]]]}, "properties": {"osm_id": 1344488305, "building": "garage", "name": "", "height": null, "height_m": null, "levels": null, "tract_id": "40111000601", "tract_name": "6.01", "tags": {"building": "garage"}}}, {"type": "Feature", "geometry": {"type": "Polygon", "coordinates": [[[-96.0139643, 35.7598596], [-96.0138088, 35.7597843], [-96.0137372, 35.7598816], [-96.0138927, 35.7599569], [-96.0139643, 35.7598596]]]}, "properties": {"osm_id": 1344488306, "building": "yes", "name": "", "height": null, "height_m": null, "levels": null, "tract_id": "40111000601", "tract_name": "6.01", "tags": {"building": "yes"}}}, {"type": "Feature", "geometry": {"type": "Polygon", "coordinates": [[[-96.0126519, 35.7601893], [-96.0128698, 35.7602746], [-96.0129139, 35.7602004], [-96.0128469, 35.7601742], [-96.0128716, 35.7601327], [-96.0128087, 35.760108], [-96.012784, 35.7601496], [-96.012696, 35.7601152], [-96.0126519, 35.7601893]]]}, "properties": {"osm_id": 1344488307, "building": "detached", "name": "", "height": null, "height_m": null, "levels": null, "tract_id": "40111000601", "tract_name": "6.01", "tags": {"building": "detached"}}}, {"type": "Feature", "geometry": {"type": "Polygon", "coordinates": [[[-96.0103455, 35.7572675], [-96.0102197, 35.7572558], [-96.0102174, 35.7572723], [-96.0101331, 35.7572644], [-96.0101214, 35.7573468], [-96.0103314, 35.7573665], [-96.0103455, 35.7572675]]]}, "properties": {"osm_id": 1344488308, "building": "yes", "name": "", "height": null, "height_m": null, "levels": null, "tract_id": "40111000601", "tract_name": "6.01", "tags": {"building": "yes"}}}, {"type": "Feature", "geometry": {"type": "Polygon", "coordinates": [[[-96.0103343, 35.7570268], [-96.0102086, 35.7570321], [-96.0102195, 35.7572037], [-96.0103452, 35.7571984], [-96.0103343, 35.7570268]]]}, "properties": {"osm_id": 1344488311, "building": "detached", "name": "", "height": null, "height_m": null, "levels": null, "tract_id": "40111000601", "tract_name": "6.01", "tags": {"building": "detached"}}}, {"type": "Feature", "geometry": {"type": "Polygon", "coordinates": [[[-96.0138033, 35.7732162], [-96.0137963, 35.7732933], [-96.0139023, 35.7732996], [-96.0139093, 35.7732225], [-96.0138033, 35.7732162]]]}, "properties": {"osm_id": 1344637086, "building": "yes", "name": "", "height": null, "height_m": null, "levels": null, "tract_id": "40111000601", "tract_name": "6.01", "tags": {"building": "yes"}}}, {"type": "Feature", "geometry": {"type": "Polygon", "coordinates": [[[-96.0139075, 35.7728265], [-96.0137621, 35.7727412], [-96.0136662, 35.7728489], [-96.0138115, 35.7729341], [-96.0139075, 35.7728265]]]}, "properties": {"osm_id": 1344637087, "building": "yes", "name": "", "height": null, "height_m": null, "levels": null, "tract_id": "40111000601", "tract_name": "6.01", "tags": {"building": "yes"}}}, {"type": "Feature", "geometry": {"type": "Polygon", "coordinates": [[[-96.0063905, 35.7490782], [-96.0063155, 35.7490769], [-96.0063132, 35.7491627], [-96.0063882, 35.749164], [-96.0063905, 35.7490782]]]}, "properties": {"osm_id": 1344637089, "building": "yes", "name": "", "height": null, "height_m": null, "levels": null, "tract_id": "40111000601", "tract_name": "6.01", "tags": {"building": "yes"}}}, {"type": "Feature", "geometry": {"type": "Polygon", "coordinates": [[[-96.0062513, 35.748977], [-96.0062452, 35.7490443], [-96.0063816, 35.7490523], [-96.0063876, 35.7489851], [-96.0062513, 35.748977]]]}, "properties": {"osm_id": 1344637092, "building": "yes", "name": "", "height": null, "height_m": null, "levels": null, "tract_id": "40111000601", "tract_name": "6.01", "tags": {"building": "yes"}}}, {"type": "Feature", "geometry": {"type": "Polygon", "coordinates": [[[-96.0139505, 35.8284795], [-96.0139522, 35.8285535], [-96.0139655, 35.8285533], [-96.0139653, 35.828544], [-96.0140435, 35.8285429], [-96.0140448, 35.8285969], [-96.013967, 35.8285981], [-96.0139676, 35.8286234], [-96.0139537, 35.8286236], [-96.0139545, 35.8286553], [-96.0139398, 35.8286601], [-96.0139364, 35.8286785], [-96.0139478, 35.8287035], [-96.0139672, 35.8286959], [-96.0140162, 35.8287932], [-96.013927, 35.8288209], [-96.0138747, 35.828697], [-96.0137668, 35.8287356], [-96.0137305, 35.8286682], [-96.0138371, 35.8286317], [-96.0138364, 35.8286032], [-96.0138071, 35.8286037], [-96.0138043, 35.8284817], [-96.0139505, 35.8284795]]]}, "properties": {"osm_id": 1347874649, "building": "detached", "name": "", "height": null, "height_m": null, "levels": null, "tract_id": "40111000601", "tract_name": "6.01", "tags": {"building": "detached"}}}, {"type": "Feature", "geometry": {"type": "Polygon", "coordinates": [[[-96.0071491, 35.8247145], [-96.0070471, 35.8247731], [-96.0069197, 35.8246274], [-96.0070217, 35.8245688], [-96.0071491, 35.8247145]]]}, "properties": {"osm_id": 1347874650, "building": "yes", "name": "", "height": null, "height_m": null, "levels": null, "tract_id": "40111000601", "tract_name": "6.01", "tags": {"building": "yes"}}}, {"type": "Feature", "geometry": {"type": "Polygon", "coordinates": [[[-96.005922, 35.8154427], [-96.0061207, 35.8154438], [-96.00612, 35.815525], [-96.0061373, 35.8155251], [-96.0061368, 35.8155921], [-96.0060555, 35.8155917], [-96.0060554, 35.8156074], [-96.0058955, 35.8156065], [-96.0058959, 35.8155568], [-96.005921, 35.8155569], [-96.005922, 35.8154427]]]}, "properties": {"osm_id": 1347874651, "building": "detached", "name": "", "height": null, "height_m": null, "levels": null, "tract_id": "40111000601", "tract_name": "6.01", "tags": {"building": "detached"}}}, {"type": "Feature", "geometry": {"type": "Polygon", "coordinates": [[[-96.0061285, 35.8141842], [-96.0061204, 35.814375], [-96.0059977, 35.8143716], [-96.0059993, 35.8143337], [-96.0059805, 35.8143331], [-96.005984, 35.8142494], [-96.0058938, 35.8142469], [-96.0058967, 35.8141777], [-96.0061285, 35.8141842]]]}, "properties": {"osm_id": 1347874654, "building": "detached", "name": "", "height": null, "height_m": null, "levels": null, "tract_id": "40111000601", "tract_name": "6.01", "tags": {"building": "detached"}}}, {"type": "Feature", "geometry": {"type": "Polygon", "coordinates": [[[-96.0106799, 35.8178566], [-96.0107807, 35.817846], [-96.0107503, 35.8176566], [-96.0106494, 35.8176673], [-96.0106799, 35.8178566]]]}, "properties": {"osm_id": 1347874661, "building": "semidetached_house", "name": "", "height": null, "height_m": null, "levels": null, "tract_id": "40111000601", "tract_name": "6.01", "tags": {"building": "semidetached_house"}}}, {"type": "Feature", "geometry": {"type": "Polygon", "coordinates": [[[-96.0108323, 35.8178307], [-96.010848, 35.8179122], [-96.0110807, 35.8178826], [-96.0110649, 35.8178011], [-96.0108323, 35.8178307]]]}, "properties": {"osm_id": 1347874662, "building": "semidetached_house", "name": "", "height": null, "height_m": null, "levels": null, "tract_id": "40111000601", "tract_name": "6.01", "tags": {"building": "semidetached_house"}}}, {"type": "Feature", "geometry": {"type": "Polygon", "coordinates": [[[-96.0111032, 35.8177981], [-96.0111189, 35.8178796], [-96.0113516, 35.81785], [-96.0113358, 35.8177685], [-96.0111032, 35.8177981]]]}, "properties": {"osm_id": 1347874663, "building": "semidetached_house", "name": "", "height": null, "height_m": null, "levels": null, "tract_id": "40111000601", "tract_name": "6.01", "tags": {"building": "semidetached_house"}}}, {"type": "Feature", "geometry": {"type": "Polygon", "coordinates": [[[-96.0113714, 35.8177633], [-96.0113871, 35.8178448], [-96.0116198, 35.8178152], [-96.0116041, 35.8177337], [-96.0113714, 35.8177633]]]}, "properties": {"osm_id": 1347874664, "building": "semidetached_house", "name": "", "height": null, "height_m": null, "levels": null, "tract_id": "40111000601", "tract_name": "6.01", "tags": {"building": "semidetached_house"}}}, {"type": "Feature", "geometry": {"type": "Polygon", "coordinates": [[[-96.0116396, 35.8177328], [-96.0116553, 35.8178143], [-96.011888, 35.8177847], [-96.0118723, 35.8177033], [-96.0116396, 35.8177328]]]}, "properties": {"osm_id": 1347874665, "building": "semidetached_house", "name": "", "height": null, "height_m": null, "levels": null, "tract_id": "40111000601", "tract_name": "6.01", "tags": {"building": "semidetached_house"}}}, {"type": "Feature", "geometry": {"type": "Polygon", "coordinates": [[[-96.0119132, 35.8177002], [-96.0119289, 35.8177817], [-96.0121616, 35.8177521], [-96.0121459, 35.8176706], [-96.0119132, 35.8177002]]]}, "properties": {"osm_id": 1347874666, "building": "semidetached_house", "name": "", "height": null, "height_m": null, "levels": null, "tract_id": "40111000601", "tract_name": "6.01", "tags": {"building": "semidetached_house"}}}, {"type": "Feature", "geometry": {"type": "Polygon", "coordinates": [[[-96.011225, 35.8194722], [-96.0112086, 35.8193878], [-96.0112566, 35.8193817], [-96.011273, 35.8194661], [-96.011225, 35.8194722]]]}, "properties": {"osm_id": 1347874669, "building": "bungalow", "name": "", "height": null, "height_m": null, "levels": null, "tract_id": "40111000601", "tract_name": "6.01", "tags": {"building": "bungalow"}}}, {"type": "Feature", "geometry": {"type": "Polygon", "coordinates": [[[-96.0111727, 35.8194798], [-96.0111563, 35.8193954], [-96.0112043, 35.8193893], [-96.0112207, 35.8194737], [-96.0111727, 35.8194798]]]}, "properties": {"osm_id": 1347874670, "building": "bungalow", "name": "", "height": null, "height_m": null, "levels": null, "tract_id": "40111000601", "tract_name": "6.01", "tags": {"building": "bungalow"}}}, {"type": "Feature", "geometry": {"type": "Polygon", "coordinates": [[[-96.0109655, 35.8195038], [-96.0109491, 35.8194193], [-96.0109971, 35.8194132], [-96.0110135, 35.8194976], [-96.0109655, 35.8195038]]]}, "properties": {"osm_id": 1347874671, "building": "bungalow", "name": "", "height": null, "height_m": null, "levels": null, "tract_id": "40111000601", "tract_name": "6.01", "tags": {"building": "bungalow"}}}, {"type": "Feature", "geometry": {"type": "Polygon", "coordinates": [[[-96.0109098, 35.8195103], [-96.0108934, 35.8194259], [-96.0109414, 35.8194197], [-96.0109578, 35.8195042], [-96.0109098, 35.8195103]]]}, "properties": {"osm_id": 1347874672, "building": "bungalow", "name": "", "height": null, "height_m": null, "levels": null, "tract_id": "40111000601", "tract_name": "6.01", "tags": {"building": "bungalow"}}}, {"type": "Feature", "geometry": {"type": "Polygon", "coordinates": [[[-96.0108555, 35.8195157], [-96.0108391, 35.8194313], [-96.0108871, 35.8194252], [-96.0109035, 35.8195096], [-96.0108555, 35.8195157]]]}, "properties": {"osm_id": 1347874673, "building": "bungalow", "name": "", "height": null, "height_m": null, "levels": null, "tract_id": "40111000601", "tract_name": "6.01", "tags": {"building": "bungalow"}}}, {"type": "Feature", "geometry": {"type": "Polygon", "coordinates": [[[-96.0108052, 35.8195217], [-96.0107888, 35.8194373], [-96.0108368, 35.8194312], [-96.0108532, 35.8195156], [-96.0108052, 35.8195217]]]}, "properties": {"osm_id": 1347874674, "building": "bungalow", "name": "", "height": null, "height_m": null, "levels": null, "tract_id": "40111000601", "tract_name": "6.01", "tags": {"building": "bungalow"}}}, {"type": "Feature", "geometry": {"type": "Polygon", "coordinates": [[[-96.0107522, 35.8195282], [-96.0107358, 35.8194438], [-96.0107839, 35.8194377], [-96.0108002, 35.8195221], [-96.0107522, 35.8195282]]]}, "properties": {"osm_id": 1347874675, "building": "bungalow", "name": "", "height": null, "height_m": null, "levels": null, "tract_id": "40111000601", "tract_name": "6.01", "tags": {"building": "bungalow"}}}, {"type": "Feature", "geometry": {"type": "Polygon", "coordinates": [[[-96.0106979, 35.8195342], [-96.0106815, 35.8194498], [-96.0107296, 35.8194437], [-96.0107459, 35.8195281], [-96.0106979, 35.8195342]]]}, "properties": {"osm_id": 1347874676, "building": "bungalow", "name": "", "height": null, "height_m": null, "levels": null, "tract_id": "40111000601", "tract_name": "6.01", "tags": {"building": "bungalow"}}}, {"type": "Feature", "geometry": {"type": "Polygon", "coordinates": [[[-96.0106429, 35.8195413], [-96.0106265, 35.8194569], [-96.0106746, 35.8194507], [-96.0106909, 35.8195352], [-96.0106429, 35.8195413]]]}, "properties": {"osm_id": 1347874677, "building": "bungalow", "name": "", "height": null, "height_m": null, "levels": null, "tract_id": "40111000601", "tract_name": "6.01", "tags": {"building": "bungalow"}}}, {"type": "Feature", "geometry": {"type": "Polygon", "coordinates": [[[-96.0105464, 35.8195516], [-96.01053, 35.8194672], [-96.010578, 35.8194611], [-96.0105944, 35.8195455], [-96.0105464, 35.8195516]]]}, "properties": {"osm_id": 1347874678, "building": "bungalow", "name": "", "height": null, "height_m": null, "levels": null, "tract_id": "40111000601", "tract_name": "6.01", "tags": {"building": "bungalow"}}}, {"type": "Feature", "geometry": {"type": "Polygon", "coordinates": [[[-96.0104424, 35.8195658], [-96.0104261, 35.8194813], [-96.0104741, 35.8194752], [-96.0104904, 35.8195596], [-96.0104424, 35.8195658]]]}, "properties": {"osm_id": 1347874679, "building": "bungalow", "name": "", "height": null, "height_m": null, "levels": null, "tract_id": "40111000601", "tract_name": "6.01", "tags": {"building": "bungalow"}}}, {"type": "Feature", "geometry": {"type": "Polygon", "coordinates": [[[-96.0103901, 35.8195712], [-96.0103737, 35.8194868], [-96.0104218, 35.8194806], [-96.0104381, 35.8195651], [-96.0103901, 35.8195712]]]}, "properties": {"osm_id": 1347874680, "building": "bungalow", "name": "", "height": null, "height_m": null, "levels": null, "tract_id": "40111000601", "tract_name": "6.01", "tags": {"building": "bungalow"}}}, {"type": "Feature", "geometry": {"type": "Polygon", "coordinates": [[[-96.010336, 35.8195776], [-96.0103205, 35.8194931], [-96.0103686, 35.8194873], [-96.0103841, 35.8195718], [-96.010336, 35.8195776]]]}, "properties": {"osm_id": 1347874681, "building": "bungalow", "name": "", "height": null, "height_m": null, "levels": null, "tract_id": "40111000601", "tract_name": "6.01", "tags": {"building": "bungalow"}}}, {"type": "Feature", "geometry": {"type": "Polygon", "coordinates": [[[-96.0102828, 35.8195837], [-96.0102665, 35.8194993], [-96.0103145, 35.8194932], [-96.0103309, 35.8195776], [-96.0102828, 35.8195837]]]}, "properties": {"osm_id": 1347874682, "building": "bungalow", "name": "", "height": null, "height_m": null, "levels": null, "tract_id": "40111000601", "tract_name": "6.01", "tags": {"building": "bungalow"}}}, {"type": "Feature", "geometry": {"type": "Polygon", "coordinates": [[[-96.010229, 35.8195905], [-96.0102126, 35.8195061], [-96.0102607, 35.8195], [-96.010277, 35.8195844], [-96.010229, 35.8195905]]]}, "properties": {"osm_id": 1347874683, "building": "bungalow", "name": "", "height": null, "height_m": null, "levels": null, "tract_id": "40111000601", "tract_name": "6.01", "tags": {"building": "bungalow"}}}, {"type": "Feature", "geometry": {"type": "Polygon", "coordinates": [[[-96.0099955, 35.8121075], [-96.0098174, 35.8121034], [-96.0098105, 35.812299], [-96.0099886, 35.8123031], [-96.0099955, 35.8121075]]]}, "properties": {"osm_id": 1347874685, "building": "yes", "name": "", "height": null, "height_m": null, "levels": null, "tract_id": "40111000601", "tract_name": "6.01", "tags": {"building": "yes"}}}, {"type": "Feature", "geometry": {"type": "Polygon", "coordinates": [[[-96.0080697, 35.8166426], [-96.0083594, 35.8166402], [-96.0083571, 35.816467], [-96.0080675, 35.8164695], [-96.0080697, 35.8166426]]]}, "properties": {"osm_id": 1347874687, "building": "yes", "name": "", "height": null, "height_m": null, "levels": null, "tract_id": "40111000601", "tract_name": "6.01", "tags": {"building": "yes"}}}, {"type": "Feature", "geometry": {"type": "Polygon", "coordinates": [[[-96.0096203, 35.8121409], [-96.0094131, 35.8121369], [-96.0094075, 35.8123282], [-96.0096146, 35.8123322], [-96.0096203, 35.8121409]]]}, "properties": {"osm_id": 1347874688, "building": "yes", "name": "", "height": null, "height_m": null, "levels": null, "tract_id": "40111000601", "tract_name": "6.01", "tags": {"building": "yes"}}}, {"type": "Feature", "geometry": {"type": "Polygon", "coordinates": [[[-96.0038233, 35.8137988], [-96.0039157, 35.813799], [-96.0039158, 35.813772], [-96.0039351, 35.813772], [-96.003935, 35.8138073], [-96.0040132, 35.8138075], [-96.0040137, 35.8136818], [-96.003939, 35.8136817], [-96.0039388, 35.8137295], [-96.0038235, 35.8137292], [-96.0038233, 35.8137988]]]}, "properties": {"osm_id": 1347874692, "building": "detached", "name": "", "height": null, "height_m": null, "levels": null, "tract_id": "40111000601", "tract_name": "6.01", "tags": {"building": "detached"}}}, {"type": "Feature", "geometry": {"type": "Polygon", "coordinates": [[[-96.0051352, 35.8137955], [-96.0052214, 35.8137964], [-96.0052219, 35.8137595], [-96.0053128, 35.8137604], [-96.0053142, 35.8136582], [-96.0052338, 35.8136574], [-96.0052345, 35.8136052], [-96.005138, 35.8136043], [-96.0051352, 35.8137955]]]}, "properties": {"osm_id": 1347874693, "building": "detached", "name": "", "height": null, "height_m": null, "levels": null, "tract_id": "40111000601", "tract_name": "6.01", "tags": {"building": "detached"}}}, {"type": "Feature", "geometry": {"type": "Polygon", "coordinates": [[[-96.0086979, 35.8164771], [-96.0084941, 35.8164799], [-96.0084952, 35.8165321], [-96.008699, 35.8165292], [-96.0086979, 35.8164771]]]}, "properties": {"osm_id": 1347874694, "building": "yes", "name": "", "height": null, "height_m": null, "levels": null, "tract_id": "40111000601", "tract_name": "6.01", "tags": {"building": "yes"}}}, {"type": "Feature", "geometry": {"type": "Polygon", "coordinates": [[[-96.0037508, 35.8141629], [-96.003854, 35.8141602], [-96.0038489, 35.8140331], [-96.0037456, 35.8140358], [-96.0037508, 35.8141629]]]}, "properties": {"osm_id": 1347874695, "building": "yes", "name": "", "height": null, "height_m": null, "levels": null, "tract_id": "40111000601", "tract_name": "6.01", "tags": {"building": "yes"}}}, {"type": "Feature", "geometry": {"type": "Polygon", "coordinates": [[[-96.0057728, 35.8138278], [-96.0058653, 35.8138292], [-96.0058681, 35.8137108], [-96.0057756, 35.8137094], [-96.0057728, 35.8138278]]]}, "properties": {"osm_id": 1347874697, "building": "yes", "name": "", "height": null, "height_m": null, "levels": null, "tract_id": "40111000601", "tract_name": "6.01", "tags": {"building": "yes"}}}, {"type": "Feature", "geometry": {"type": "Polygon", "coordinates": [[[-96.0058292, 35.8163363], [-96.0060357, 35.8163391], [-96.0060375, 35.8162521], [-96.005831, 35.8162493], [-96.0058292, 35.8163363]]]}, "properties": {"osm_id": 1347874698, "building": "yes", "name": "", "height": null, "height_m": null, "levels": null, "tract_id": "40111000601", "tract_name": "6.01", "tags": {"building": "yes"}}}, {"type": "Feature", "geometry": {"type": "Polygon", "coordinates": [[[-96.0061824, 35.8138594], [-96.0060973, 35.8137422], [-96.0061413, 35.8137212], [-96.0061061, 35.8136728], [-96.0060551, 35.8136972], [-96.0060372, 35.8136726], [-96.0059164, 35.8137304], [-96.0060546, 35.8139205], [-96.0061824, 35.8138594]]]}, "properties": {"osm_id": 1347874699, "building": "detached", "name": "", "height": null, "height_m": null, "levels": null, "tract_id": "40111000601", "tract_name": "6.01", "tags": {"building": "detached"}}}, {"type": "Feature", "geometry": {"type": "Polygon", "coordinates": [[[-96.0069288, 35.8186793], [-96.006926, 35.8187923], [-96.0069501, 35.8187927], [-96.0069492, 35.8188297], [-96.0070441, 35.8188312], [-96.0070478, 35.8186812], [-96.0069288, 35.8186793]]]}, "properties": {"osm_id": 1347874700, "building": "detached", "name": "", "height": null, "height_m": null, "levels": null, "tract_id": "40111000601", "tract_name": "6.01", "tags": {"building": "detached"}}}, {"type": "Feature", "geometry": {"type": "Polygon", "coordinates": [[[-96.0045276, 35.8281669], [-96.004651, 35.8281692], [-96.0046543, 35.8280507], [-96.004531, 35.8280484], [-96.0045276, 35.8281669]]]}, "properties": {"osm_id": 1347874701, "building": "yes", "name": "", "height": null, "height_m": null, "levels": null, "tract_id": "40111000601", "tract_name": "6.01", "tags": {"building": "yes"}}}, {"type": "Feature", "geometry": {"type": "Polygon", "coordinates": [[[-96.0041055, 35.828184], [-96.004104, 35.8282395], [-96.0041871, 35.828241], [-96.0041887, 35.8281855], [-96.0041055, 35.828184]]]}, "properties": {"osm_id": 1347874702, "building": "yes", "name": "", "height": null, "height_m": null, "levels": null, "tract_id": "40111000601", "tract_name": "6.01", "tags": {"building": "yes"}}}, {"type": "Feature", "geometry": {"type": "Polygon", "coordinates": [[[-96.0069421, 35.824376], [-96.0070252, 35.8243743], [-96.0070217, 35.8242634], [-96.0069386, 35.8242652], [-96.0069421, 35.824376]]]}, "properties": {"osm_id": 1347874705, "building": "yes", "name": "", "height": null, "height_m": null, "levels": null, "tract_id": "40111000601", "tract_name": "6.01", "tags": {"building": "yes"}}}, {"type": "Feature", "geometry": {"type": "Polygon", "coordinates": [[[-96.0070538, 35.8252534], [-96.006932, 35.8252507], [-96.0069231, 35.825515], [-96.0070448, 35.8255177], [-96.0070538, 35.8252534]]]}, "properties": {"osm_id": 1347874707, "building": "yes", "name": "", "height": null, "height_m": null, "levels": null, "tract_id": "40111000601", "tract_name": "6.01", "tags": {"building": "yes"}}}, {"type": "Feature", "geometry": {"type": "Polygon", "coordinates": [[[-96.0136247, 35.8272178], [-96.0137293, 35.827217], [-96.0137268, 35.8270061], [-96.0136232, 35.8270069], [-96.013624, 35.8270743], [-96.0135811, 35.8270746], [-96.0135819, 35.827142], [-96.0136238, 35.8271417], [-96.0136247, 35.8272178]]]}, "properties": {"osm_id": 1347874708, "building": "detached", "name": "", "height": null, "height_m": null, "levels": null, "tract_id": "40111000601", "tract_name": "6.01", "tags": {"building": "detached"}}}, {"type": "Feature", "geometry": {"type": "Polygon", "coordinates": [[[-96.0041785, 35.8283882], [-96.0041785, 35.828472], [-96.004315, 35.828472], [-96.004315, 35.8283882], [-96.0041785, 35.8283882]]]}, "properties": {"osm_id": 1347874710, "building": "yes", "name": "", "height": null, "height_m": null, "levels": null, "tract_id": "40111000601", "tract_name": "6.01", "tags": {"building": "yes"}}}, {"type": "Feature", "geometry": {"type": "Polygon", "coordinates": [[[-96.008837, 35.8261923], [-96.008947, 35.8261933], [-96.0089482, 35.8261093], [-96.0088382, 35.8261083], [-96.008837, 35.8261923]]]}, "properties": {"osm_id": 1347874711, "building": "yes", "name": "", "height": null, "height_m": null, "levels": null, "tract_id": "40111000601", "tract_name": "6.01", "tags": {"building": "yes"}}}, {"type": "Feature", "geometry": {"type": "Polygon", "coordinates": [[[-96.0101256, 35.8258777], [-96.0101195, 35.8257909], [-96.0099445, 35.825799], [-96.0099506, 35.8258858], [-96.0101256, 35.8258777]]]}, "properties": {"osm_id": 1347874712, "building": "yes", "name": "", "height": null, "height_m": null, "levels": null, "tract_id": "40111000601", "tract_name": "6.01", "tags": {"building": "yes"}}}, {"type": "Feature", "geometry": {"type": "Polygon", "coordinates": [[[-96.0114872, 35.8239917], [-96.0113593, 35.8238246], [-96.0112644, 35.8238723], [-96.0113922, 35.8240394], [-96.0114872, 35.8239917]]]}, "properties": {"osm_id": 1347874714, "building": "detached", "name": "", "height": null, "height_m": null, "levels": null, "tract_id": "40111000601", "tract_name": "6.01", "tags": {"building": "detached"}}}, {"type": "Feature", "geometry": {"type": "Polygon", "coordinates": [[[-96.0132148, 35.8243611], [-96.013078, 35.8243591], [-96.0130766, 35.8244243], [-96.0132133, 35.8244263], [-96.0132148, 35.8243611]]]}, "properties": {"osm_id": 1347874716, "building": "yes", "name": "", "height": null, "height_m": null, "levels": null, "tract_id": "40111000601", "tract_name": "6.01", "tags": {"building": "yes"}}}, {"type": "Feature", "geometry": {"type": "Polygon", "coordinates": [[[-96.0100416, 35.8265182], [-96.0101632, 35.8265188], [-96.0101648, 35.8263079], [-96.0100431, 35.8263073], [-96.0100416, 35.8265182]]]}, "properties": {"osm_id": 1347874717, "building": "yes", "name": "", "height": null, "height_m": null, "levels": null, "tract_id": "40111000601", "tract_name": "6.01", "tags": {"building": "yes"}}}, {"type": "Feature", "geometry": {"type": "Polygon", "coordinates": [[[-96.0083945, 35.8228694], [-96.0082283, 35.8228439], [-96.0081964, 35.8229806], [-96.0083626, 35.8230061], [-96.0083945, 35.8228694]]]}, "properties": {"osm_id": 1347874718, "building": "yes", "name": "", "height": null, "height_m": null, "levels": null, "tract_id": "40111000601", "tract_name": "6.01", "tags": {"building": "yes"}}}, {"type": "Feature", "geometry": {"type": "Polygon", "coordinates": [[[-96.0131666, 35.8274379], [-96.0132792, 35.8274369], [-96.0132775, 35.8273098], [-96.0130656, 35.8273117], [-96.0130673, 35.8274366], [-96.0129574, 35.8274376], [-96.0129615, 35.8277377], [-96.0131707, 35.8277358], [-96.0131666, 35.8274379]]]}, "properties": {"osm_id": 1347874721, "building": "yes", "name": "", "height": null, "height_m": null, "levels": null, "tract_id": "40111000601", "tract_name": "6.01", "tags": {"building": "yes"}}}, {"type": "Feature", "geometry": {"type": "Polygon", "coordinates": [[[-96.0144563, 35.8242308], [-96.0144551, 35.8241177], [-96.0138677, 35.8241218], [-96.0138692, 35.8242622], [-96.0140167, 35.8242611], [-96.0140165, 35.8242339], [-96.0144563, 35.8242308]]]}, "properties": {"osm_id": 1347874722, "building": "yes", "name": "", "height": null, "height_m": null, "levels": null, "tract_id": "40111000601", "tract_name": "6.01", "tags": {"building": "yes"}}}, {"type": "Feature", "geometry": {"type": "Polygon", "coordinates": [[[-96.0124734, 35.8264488], [-96.0124734, 35.8266088], [-96.0125514, 35.8266078], [-96.0125514, 35.8265278], [-96.0126144, 35.8265278], [-96.0126144, 35.8264478], [-96.0124734, 35.8264488]]]}, "properties": {"osm_id": 1347874723, "building": "ruins", "name": "", "height": null, "height_m": null, "levels": null, "tract_id": "40111000601", "tract_name": "6.01", "tags": {"building": "ruins"}}}, {"type": "Feature", "geometry": {"type": "Polygon", "coordinates": [[[-96.0118095, 35.8240282], [-96.0115982, 35.8240045], [-96.0115805, 35.8241082], [-96.0117918, 35.8241319], [-96.0118095, 35.8240282]]]}, "properties": {"osm_id": 1347874724, "building": "yes", "name": "", "height": null, "height_m": null, "levels": null, "tract_id": "40111000601", "tract_name": "6.01", "tags": {"building": "yes"}}}, {"type": "Feature", "geometry": {"type": "Polygon", "coordinates": [[[-96.0136564, 35.8274184], [-96.0136041, 35.8274228], [-96.0136212, 35.8275558], [-96.0136735, 35.8275513], [-96.0136564, 35.8274184]]]}, "properties": {"osm_id": 1347874726, "building": "yes", "name": "", "height": null, "height_m": null, "levels": null, "tract_id": "40111000601", "tract_name": "6.01", "tags": {"building": "yes"}}}, {"type": "Feature", "geometry": {"type": "Polygon", "coordinates": [[[-96.0069437, 35.8232094], [-96.006941, 35.8233507], [-96.0072789, 35.8233549], [-96.0072816, 35.8232135], [-96.0069437, 35.8232094]]]}, "properties": {"osm_id": 1347874727, "building": "yes", "name": "", "height": null, "height_m": null, "levels": null, "tract_id": "40111000601", "tract_name": "6.01", "tags": {"building": "yes"}}}, {"type": "Feature", "geometry": {"type": "Polygon", "coordinates": [[[-96.0134137, 35.8269865], [-96.0133672, 35.8269855], [-96.0133639, 35.8270854], [-96.0134104, 35.8270865], [-96.0134137, 35.8269865]]]}, "properties": {"osm_id": 1347874729, "building": "yes", "name": "", "height": null, "height_m": null, "levels": null, "tract_id": "40111000601", "tract_name": "6.01", "tags": {"building": "yes"}}}, {"type": "Feature", "geometry": {"type": "Polygon", "coordinates": [[[-96.0121875, 35.8176673], [-96.0122032, 35.8177488], [-96.0124359, 35.8177192], [-96.0124201, 35.8176378], [-96.0121875, 35.8176673]]]}, "properties": {"osm_id": 1347874730, "building": "semidetached_house", "name": "", "height": null, "height_m": null, "levels": null, "tract_id": "40111000601", "tract_name": "6.01", "tags": {"building": "semidetached_house"}}}, {"type": "Feature", "geometry": {"type": "Polygon", "coordinates": [[[-96.0136152, 35.818408], [-96.0137503, 35.8183993], [-96.0137691, 35.8185918], [-96.013634, 35.8186005], [-96.0136152, 35.818408]]]}, "properties": {"osm_id": 1347874739, "building": "yes", "name": "", "height": null, "height_m": null, "levels": null, "tract_id": "40111000601", "tract_name": "6.01", "tags": {"building": "yes"}}}, {"type": "Feature", "geometry": {"type": "Polygon", "coordinates": [[[-96.0135971, 35.8189615], [-96.0133114, 35.8189931], [-96.013285, 35.8188355], [-96.0135707, 35.818804], [-96.0135971, 35.8189615]]]}, "properties": {"osm_id": 1347874740, "building": "retail", "name": "", "height": null, "height_m": null, "levels": null, "tract_id": "40111000601", "tract_name": "6.01", "tags": {"building": "retail"}}}, {"type": "Feature", "geometry": {"type": "Polygon", "coordinates": [[[-96.0131103, 35.8187223], [-96.0131545, 35.818532], [-96.01327, 35.8185496], [-96.0132257, 35.8187399], [-96.0131103, 35.8187223]]]}, "properties": {"osm_id": 1347874741, "building": "detached", "name": "", "height": null, "height_m": null, "levels": null, "tract_id": "40111000601", "tract_name": "6.01", "tags": {"building": "detached"}}}, {"type": "Feature", "geometry": {"type": "Polygon", "coordinates": [[[-96.0121648, 35.8206112], [-96.0119623, 35.820609], [-96.0119639, 35.8205114], [-96.0121664, 35.8205136], [-96.0121648, 35.8206112]]]}, "properties": {"osm_id": 1347874742, "building": "industrial", "name": "", "height": null, "height_m": null, "levels": null, "tract_id": "40111000601", "tract_name": "6.01", "tags": {"building": "industrial"}}}, {"type": "Feature", "geometry": {"type": "Polygon", "coordinates": [[[-96.0123834, 35.8210201], [-96.0120148, 35.8210662], [-96.0119519, 35.8207357], [-96.0123205, 35.8206896], [-96.0123834, 35.8210201]]]}, "properties": {"osm_id": 1347874743, "building": "industrial", "name": "", "height": null, "height_m": null, "levels": null, "tract_id": "40111000601", "tract_name": "6.01", "tags": {"building": "industrial"}}}, {"type": "Feature", "geometry": {"type": "Polygon", "coordinates": [[[-96.0113052, 35.8195596], [-96.0125551, 35.8193856], [-96.0125653, 35.8194339], [-96.0127148, 35.8194131], [-96.0127622, 35.8196368], [-96.0127848, 35.8196336], [-96.0128455, 35.8199203], [-96.0127204, 35.8199377], [-96.0127277, 35.8199722], [-96.0126806, 35.8199787], [-96.0126922, 35.8200334], [-96.0116967, 35.820172], [-96.0116748, 35.8200683], [-96.010663, 35.8202092], [-96.0106172, 35.8199928], [-96.0113745, 35.8198873], [-96.0113052, 35.8195596]]]}, "properties": {"osm_id": 1347874744, "building": "industrial", "name": "", "height": null, "height_m": null, "levels": null, "tract_id": "40111000601", "tract_name": "6.01", "tags": {"building": "industrial"}}}, {"type": "Feature", "geometry": {"type": "Polygon", "coordinates": [[[-96.0147545, 35.8433316], [-96.0147545, 35.8431626], [-96.0148725, 35.8431626], [-96.0148725, 35.8433311], [-96.0147545, 35.8433316]]]}, "properties": {"osm_id": 1347892192, "building": "warehouse", "name": "", "height": null, "height_m": null, "levels": null, "tract_id": "40111000601", "tract_name": "6.01", "tags": {"building": "warehouse"}}}, {"type": "Feature", "geometry": {"type": "Polygon", "coordinates": [[[-96.0145533, 35.8435778], [-96.0145533, 35.8431636], [-96.0146713, 35.8431636], [-96.0146713, 35.8435778], [-96.0145533, 35.8435778]]]}, "properties": {"osm_id": 1347892193, "building": "warehouse", "name": "", "height": null, "height_m": null, "levels": null, "tract_id": "40111000601", "tract_name": "6.01", "tags": {"building": "warehouse"}}}, {"type": "Feature", "geometry": {"type": "Polygon", "coordinates": [[[-96.014383, 35.8435941], [-96.014383, 35.8432397], [-96.0144702, 35.8432397], [-96.0144702, 35.8435941], [-96.014383, 35.8435941]]]}, "properties": {"osm_id": 1347892194, "building": "warehouse", "name": "", "height": null, "height_m": null, "levels": null, "tract_id": "40111000601", "tract_name": "6.01", "tags": {"building": "warehouse"}}}, {"type": "Feature", "geometry": {"type": "Polygon", "coordinates": [[[-96.0141684, 35.8435941], [-96.0141684, 35.8432919], [-96.0142368, 35.8432919], [-96.0142368, 35.8435941], [-96.0141684, 35.8435941]]]}, "properties": {"osm_id": 1347892195, "building": "warehouse", "name": "", "height": null, "height_m": null, "levels": null, "tract_id": "40111000601", "tract_name": "6.01", "tags": {"building": "warehouse"}}}, {"type": "Feature", "geometry": {"type": "Polygon", "coordinates": [[[-96.0148752, 35.843729], [-96.0144688, 35.843729], [-96.0144688, 35.8436485], [-96.0148752, 35.8436485], [-96.0148752, 35.843729]]]}, "properties": {"osm_id": 1347892196, "building": "warehouse", "name": "", "height": null, "height_m": null, "levels": null, "tract_id": "40111000601", "tract_name": "6.01", "tags": {"building": "warehouse"}}}, {"type": "Feature", "geometry": {"type": "Polygon", "coordinates": [[[-96.0148752, 35.8438692], [-96.0144728, 35.8438692], [-96.0144728, 35.8437833], [-96.0148752, 35.8437833], [-96.0148752, 35.8438692]]]}, "properties": {"osm_id": 1347892197, "building": "warehouse", "name": "", "height": null, "height_m": null, "levels": null, "tract_id": "40111000601", "tract_name": "6.01", "tags": {"building": "warehouse"}}}, {"type": "Feature", "geometry": {"type": "Polygon", "coordinates": [[[-96.0145198, 35.8443551], [-96.0139471, 35.8443551], [-96.0139471, 35.8442932], [-96.0145198, 35.8442932], [-96.0145198, 35.8443551]]]}, "properties": {"osm_id": 1347892198, "building": "warehouse", "name": "", "height": null, "height_m": null, "levels": null, "tract_id": "40111000601", "tract_name": "6.01", "tags": {"building": "warehouse"}}}, {"type": "Feature", "geometry": {"type": "Polygon", "coordinates": [[[-96.0143146, 35.8442269], [-96.0143146, 35.8436822], [-96.0143857, 35.8436822], [-96.0143857, 35.8442269], [-96.0143146, 35.8442269]]]}, "properties": {"osm_id": 1347892199, "building": "warehouse", "name": "", "height": null, "height_m": null, "levels": null, "tract_id": "40111000601", "tract_name": "6.01", "tags": {"building": "warehouse"}}}, {"type": "Feature", "geometry": {"type": "Polygon", "coordinates": [[[-96.0141644, 35.8442269], [-96.0141644, 35.8436768], [-96.0142341, 35.8436768], [-96.0142341, 35.8442269], [-96.0141644, 35.8442269]]]}, "properties": {"osm_id": 1347892200, "building": "warehouse", "name": "", "height": null, "height_m": null, "levels": null, "tract_id": "40111000601", "tract_name": "6.01", "tags": {"building": "warehouse"}}}, {"type": "Feature", "geometry": {"type": "Polygon", "coordinates": [[[-96.0140021, 35.8442258], [-96.0140021, 35.8436779], [-96.0140839, 35.8436779], [-96.0140839, 35.8442258], [-96.0140021, 35.8442258]]]}, "properties": {"osm_id": 1347892201, "building": "warehouse", "name": "", "height": null, "height_m": null, "levels": null, "tract_id": "40111000601", "tract_name": "6.01", "tags": {"building": "warehouse"}}}, {"type": "Feature", "geometry": {"type": "Polygon", "coordinates": [[[-96.0140021, 35.8435931], [-96.0140021, 35.8433202], [-96.0140839, 35.8433202], [-96.0140839, 35.8435931], [-96.0140021, 35.8435931]]]}, "properties": {"osm_id": 1347892202, "building": "warehouse", "name": "", "height": null, "height_m": null, "levels": null, "tract_id": "40111000601", "tract_name": "6.01", "tags": {"building": "warehouse"}}}, {"type": "Feature", "geometry": {"type": "Polygon", "coordinates": [[[-96.0140008, 35.8432376], [-96.0140008, 35.8429614], [-96.0140893, 35.8429614], [-96.0140893, 35.8432376], [-96.0140008, 35.8432376]]]}, "properties": {"osm_id": 1347892203, "building": "warehouse", "name": "", "height": null, "height_m": null, "levels": null, "tract_id": "40111000601", "tract_name": "6.01", "tags": {"building": "warehouse"}}}, {"type": "Feature", "geometry": {"type": "Polygon", "coordinates": [[[-96.0140732, 35.8428821], [-96.0139605, 35.8428821], [-96.0139605, 35.8426146], [-96.0140732, 35.8426146], [-96.0140732, 35.8428821]]]}, "properties": {"osm_id": 1347892204, "building": "construction", "name": "", "height": null, "height_m": null, "levels": null, "tract_id": "40111000601", "tract_name": "6.01", "tags": {"building": "construction", "construction": "warehouse"}}}, {"type": "Feature", "geometry": {"type": "Polygon", "coordinates": [[[-96.010988, 35.8416569], [-96.0108799, 35.8416568], [-96.01088, 35.8415666], [-96.0109881, 35.8415667], [-96.010988, 35.8416569]]]}, "properties": {"osm_id": 1347892205, "building": "yes", "name": "", "height": null, "height_m": null, "levels": null, "tract_id": "40111000601", "tract_name": "6.01", "tags": {"building": "yes"}}}, {"type": "Feature", "geometry": {"type": "Polygon", "coordinates": [[[-96.0110324, 35.8426366], [-96.0109695, 35.8427145], [-96.0110821, 35.8427743], [-96.0110608, 35.8428006], [-96.0111404, 35.8428429], [-96.0112195, 35.842745], [-96.0111432, 35.8427045], [-96.0111483, 35.8426982], [-96.0110324, 35.8426366]]]}, "properties": {"osm_id": 1347892209, "building": "detached", "name": "", "height": null, "height_m": null, "levels": null, "tract_id": "40111000601", "tract_name": "6.01", "tags": {"building": "detached"}}}, {"type": "Feature", "geometry": {"type": "Polygon", "coordinates": [[[-96.01229, 35.8428981], [-96.0122919, 35.842985], [-96.0123873, 35.8429837], [-96.0123855, 35.8428967], [-96.01229, 35.8428981]]]}, "properties": {"osm_id": 1347892210, "building": "yes", "name": "", "height": null, "height_m": null, "levels": null, "tract_id": "40111000601", "tract_name": "6.01", "tags": {"building": "yes"}}}, {"type": "Feature", "geometry": {"type": "Polygon", "coordinates": [[[-96.0110801, 35.8414288], [-96.0112674, 35.8414319], [-96.011269, 35.8413711], [-96.0110817, 35.8413679], [-96.0110801, 35.8414288]]]}, "properties": {"osm_id": 1347892211, "building": "yes", "name": "", "height": null, "height_m": null, "levels": null, "tract_id": "40111000601", "tract_name": "6.01", "tags": {"building": "yes"}}}, {"type": "Feature", "geometry": {"type": "Polygon", "coordinates": [[[-96.0141531, 35.8426259], [-96.0141534, 35.842739], [-96.0143277, 35.8427386], [-96.0143282, 35.8429039], [-96.0145052, 35.8429036], [-96.0145044, 35.8426253], [-96.0141531, 35.8426259]]]}, "properties": {"osm_id": 1347892213, "building": "retail", "name": "Zoe's Buds Dispensary", "height": null, "height_m": null, "levels": null, "tract_id": "40111000601", "tract_name": "6.01", "tags": {"addr:city": "Mounds", "addr:country": "US", "addr:housenumber": "10001", "addr:postcode": "74047", "addr:state": "OK", "addr:street": "221st Street South", "building": "retail", "name": "Zoe's Buds Dispensary", "shop": "cannabis"}}}, {"type": "Feature", "geometry": {"type": "Polygon", "coordinates": [[[-96.0122015, 35.8426475], [-96.0120602, 35.8426484], [-96.0120624, 35.8428745], [-96.0122036, 35.8428736], [-96.0122015, 35.8426475]]]}, "properties": {"osm_id": 1347892215, "building": "yes", "name": "", "height": null, "height_m": null, "levels": null, "tract_id": "40111000601", "tract_name": "6.01", "tags": {"building": "yes"}}}, {"type": "Feature", "geometry": {"type": "Polygon", "coordinates": [[[-96.0112187, 35.8415662], [-96.0110014, 35.8415661], [-96.0110013, 35.8416555], [-96.0110381, 35.8416555], [-96.011038, 35.8417751], [-96.0111212, 35.8417751], [-96.0111213, 35.8416773], [-96.0111865, 35.8416773], [-96.0111865, 35.8416534], [-96.0112186, 35.8416534], [-96.0112187, 35.8415662]]]}, "properties": {"osm_id": 1347892217, "building": "yes", "name": "", "height": null, "height_m": null, "levels": null, "tract_id": "40111000601", "tract_name": "6.01", "tags": {"building": "yes"}}}, {"type": "Feature", "geometry": {"type": "Polygon", "coordinates": [[[-96.0114022, 35.8414778], [-96.0114044, 35.841617], [-96.0115185, 35.8416158], [-96.0115163, 35.8414766], [-96.0114022, 35.8414778]]]}, "properties": {"osm_id": 1347892220, "building": "yes", "name": "", "height": null, "height_m": null, "levels": null, "tract_id": "40111000601", "tract_name": "6.01", "tags": {"building": "yes"}}}, {"type": "Feature", "geometry": {"type": "Polygon", "coordinates": [[[-96.0122797, 35.8427594], [-96.0126579, 35.8427626], [-96.0126597, 35.8426235], [-96.0122815, 35.8426203], [-96.0122797, 35.8427594]]]}, "properties": {"osm_id": 1347892222, "building": "detached", "name": "", "height": null, "height_m": null, "levels": null, "tract_id": "40111000601", "tract_name": "6.01", "tags": {"building": "detached"}}}, {"type": "Feature", "geometry": {"type": "Polygon", "coordinates": [[[-96.0109012, 35.8419741], [-96.0109599, 35.8420216], [-96.0110134, 35.8419781], [-96.0110387, 35.8419985], [-96.0111093, 35.8419411], [-96.0110919, 35.841927], [-96.0111231, 35.8419017], [-96.0110502, 35.8418427], [-96.0109498, 35.8419243], [-96.0109562, 35.8419295], [-96.0109012, 35.8419741]]]}, "properties": {"osm_id": 1347892226, "building": "detached", "name": "", "height": null, "height_m": null, "levels": null, "tract_id": "40111000601", "tract_name": "6.01", "tags": {"building": "detached"}}}, {"type": "Feature", "geometry": {"type": "Polygon", "coordinates": [[[-96.0105136, 35.8418877], [-96.0103513, 35.8420221], [-96.0104458, 35.8420971], [-96.0105031, 35.8420497], [-96.0104928, 35.8420415], [-96.0105417, 35.842001], [-96.010532, 35.8419933], [-96.0105882, 35.8419469], [-96.0105136, 35.8418877]]]}, "properties": {"osm_id": 1347892229, "building": "detached", "name": "", "height": null, "height_m": null, "levels": null, "tract_id": "40111000601", "tract_name": "6.01", "tags": {"building": "detached"}}}, {"type": "Feature", "geometry": {"type": "Polygon", "coordinates": [[[-96.0133557, 35.8438991], [-96.0133541, 35.8440126], [-96.0131827, 35.8440111], [-96.0131843, 35.8438975], [-96.0133557, 35.8438991]]]}, "properties": {"osm_id": 1347902765, "building": "yes", "name": "", "height": null, "height_m": null, "levels": null, "tract_id": "40111000601", "tract_name": "6.01", "tags": {"building": "yes"}}}, {"type": "Feature", "geometry": {"type": "Polygon", "coordinates": [[[-96.0118991, 35.8482193], [-96.0118449, 35.8482055], [-96.0117667, 35.8484069], [-96.0118208, 35.8484208], [-96.0118991, 35.8482193]]]}, "properties": {"osm_id": 1347902770, "building": "detached", "name": "", "height": null, "height_m": null, "levels": null, "tract_id": "40111000601", "tract_name": "6.01", "tags": {"building": "detached"}}}, {"type": "Feature", "geometry": {"type": "Polygon", "coordinates": [[[-96.0131729, 35.8483661], [-96.0131564, 35.8484145], [-96.013246, 35.8484347], [-96.0132626, 35.8483862], [-96.0131729, 35.8483661]]]}, "properties": {"osm_id": 1347902771, "building": "yes", "name": "", "height": null, "height_m": null, "levels": null, "tract_id": "40111000601", "tract_name": "6.01", "tags": {"building": "yes"}}}, {"type": "Feature", "geometry": {"type": "Polygon", "coordinates": [[[-96.0145765, 35.8486318], [-96.0145734, 35.8489079], [-96.014746, 35.8489092], [-96.0147468, 35.8488397], [-96.0147816, 35.8488399], [-96.0147833, 35.8486986], [-96.0147457, 35.8486983], [-96.014748, 35.8484972], [-96.0146801, 35.8484967], [-96.0146786, 35.8486326], [-96.0145765, 35.8486318]]]}, "properties": {"osm_id": 1347902772, "building": "industrial", "name": "JH Manufacturing", "height": null, "height_m": null, "levels": null, "tract_id": "40111000601", "tract_name": "6.01", "tags": {"building": "industrial", "man_made": "works", "name": "JH Manufacturing", "phone": "+1 918 260 2772"}}}, {"type": "Feature", "geometry": {"type": "Polygon", "coordinates": [[[-96.0109024, 35.8444286], [-96.0109085, 35.8445859], [-96.0109573, 35.8445846], [-96.0109512, 35.8444273], [-96.0109024, 35.8444286]]]}, "properties": {"osm_id": 1347902774, "building": "yes", "name": "", "height": null, "height_m": null, "levels": null, "tract_id": "40111000601", "tract_name": "6.01", "tags": {"building": "yes"}}}, {"type": "Feature", "geometry": {"type": "Polygon", "coordinates": [[[-96.0109137, 35.8448123], [-96.0109563, 35.8448115], [-96.0109528, 35.844682], [-96.0109102, 35.8446827], [-96.0109137, 35.8448123]]]}, "properties": {"osm_id": 1347902775, "building": "yes", "name": "", "height": null, "height_m": null, "levels": null, "tract_id": "40111000601", "tract_name": "6.01", "tags": {"building": "yes"}}}, {"type": "Feature", "geometry": {"type": "Polygon", "coordinates": [[[-96.0135911, 35.8481166], [-96.0138995, 35.8481139], [-96.013896, 35.8478475], [-96.0137914, 35.8478484], [-96.0137932, 35.8479844], [-96.0137476, 35.8479848], [-96.0137468, 35.8479304], [-96.0135887, 35.8479318], [-96.0135911, 35.8481166]]]}, "properties": {"osm_id": 1347902776, "building": "yes", "name": "", "height": null, "height_m": null, "levels": null, "tract_id": "40111000601", "tract_name": "6.01", "tags": {"building": "yes"}}}, {"type": "Feature", "geometry": {"type": "Polygon", "coordinates": [[[-96.0117195, 35.8482884], [-96.011686, 35.848373], [-96.0117537, 35.8483907], [-96.0117873, 35.8483061], [-96.0117195, 35.8482884]]]}, "properties": {"osm_id": 1347902777, "building": "yes", "name": "", "height": null, "height_m": null, "levels": null, "tract_id": "40111000601", "tract_name": "6.01", "tags": {"building": "yes"}}}, {"type": "Feature", "geometry": {"type": "Polygon", "coordinates": [[[-96.0134469, 35.8441767], [-96.0135178, 35.8441774], [-96.0135195, 35.8440568], [-96.0134486, 35.8440562], [-96.0134469, 35.8441767]]]}, "properties": {"osm_id": 1347902780, "building": "detached", "name": "", "height": null, "height_m": null, "levels": null, "tract_id": "40111000601", "tract_name": "6.01", "tags": {"building": "detached"}}}, {"type": "Feature", "geometry": {"type": "Polygon", "coordinates": [[[-96.0146236, 35.849449], [-96.0147067, 35.8494483], [-96.0147039, 35.8492331], [-96.0146208, 35.8492338], [-96.0146236, 35.849449]]]}, "properties": {"osm_id": 1347902782, "building": "yes", "name": "", "height": null, "height_m": null, "levels": null, "tract_id": "40111000601", "tract_name": "6.01", "tags": {"building": "yes"}}}, {"type": "Feature", "geometry": {"type": "Polygon", "coordinates": [[[-96.0134585, 35.8481029], [-96.0135631, 35.8481013], [-96.0135613, 35.8480274], [-96.0134568, 35.848029], [-96.0134585, 35.8481029]]]}, "properties": {"osm_id": 1347902784, "building": "yes", "name": "", "height": null, "height_m": null, "levels": null, "tract_id": "40111000601", "tract_name": "6.01", "tags": {"building": "yes"}}}, {"type": "Feature", "geometry": {"type": "Polygon", "coordinates": [[[-96.0125078, 35.848119], [-96.0124559, 35.8480407], [-96.0122706, 35.8481213], [-96.0123225, 35.8481997], [-96.0125078, 35.848119]]]}, "properties": {"osm_id": 1347902785, "building": "detached", "name": "", "height": null, "height_m": null, "levels": null, "tract_id": "40111000601", "tract_name": "6.01", "tags": {"building": "detached"}}}, {"type": "Feature", "geometry": {"type": "Polygon", "coordinates": [[[-96.0132202, 35.8481481], [-96.0131806, 35.8482799], [-96.0132107, 35.8482859], [-96.0131985, 35.8483265], [-96.0132793, 35.8483425], [-96.0132984, 35.8482791], [-96.013327, 35.8482847], [-96.0133591, 35.848178], [-96.0133369, 35.8481507], [-96.0132524, 35.848134], [-96.0132202, 35.8481481]]]}, "properties": {"osm_id": 1347902787, "building": "detached", "name": "", "height": null, "height_m": null, "levels": null, "tract_id": "40111000601", "tract_name": "6.01", "tags": {"building": "detached"}}}, {"type": "Feature", "geometry": {"type": "Polygon", "coordinates": [[[-96.0142931, 35.8467652], [-96.014218, 35.846763], [-96.0142232, 35.8466506], [-96.0142983, 35.8466528], [-96.0142931, 35.8467652]]]}, "properties": {"osm_id": 1347902789, "building": "commercial", "name": "M-T Equipment Sales", "height": null, "height_m": null, "levels": null, "tract_id": "40111000601", "tract_name": "6.01", "tags": {"building": "commercial", "name": "M-T Equipment Sales", "phone": "+1 918 827 6990", "shop": "trade", "trade": "construction_equipment"}}}, {"type": "Feature", "geometry": {"type": "Polygon", "coordinates": [[[-96.0144474, 35.8470772], [-96.0142731, 35.8470783], [-96.0142718, 35.8469403], [-96.014446, 35.8469392], [-96.0144474, 35.8470772]]]}, "properties": {"osm_id": 1347902790, "building": "yes", "name": "", "height": null, "height_m": null, "levels": null, "tract_id": "40111000601", "tract_name": "6.01", "tags": {"building": "yes"}}}, {"type": "Feature", "geometry": {"type": "Polygon", "coordinates": [[[-96.0137875, 35.8468892], [-96.0135502, 35.8468881], [-96.0135514, 35.8467044], [-96.0137888, 35.8467055], [-96.0137875, 35.8468892]]]}, "properties": {"osm_id": 1347902791, "building": "yes", "name": "", "height": null, "height_m": null, "levels": null, "tract_id": "40111000601", "tract_name": "6.01", "tags": {"building": "yes"}}}, {"type": "Feature", "geometry": {"type": "Polygon", "coordinates": [[[-96.0144433, 35.8465543], [-96.0144466, 35.8464486], [-96.0145131, 35.84645], [-96.0145098, 35.8465557], [-96.0144433, 35.8465543]]]}, "properties": {"osm_id": 1347902792, "building": "yes", "name": "", "height": null, "height_m": null, "levels": null, "tract_id": "40111000601", "tract_name": "6.01", "tags": {"building": "yes"}}}, {"type": "Feature", "geometry": {"type": "Polygon", "coordinates": [[[-96.0144071, 35.8464478], [-96.0143012, 35.8464456], [-96.0143018, 35.846425], [-96.0142708, 35.8464243], [-96.0142723, 35.8463777], [-96.0143033, 35.8463784], [-96.014304, 35.8463562], [-96.0144099, 35.8463584], [-96.0144094, 35.846376], [-96.0145099, 35.8463781], [-96.014508, 35.846439], [-96.0144075, 35.8464369], [-96.0144071, 35.8464478]]]}, "properties": {"osm_id": 1347902793, "building": "yes", "name": "", "height": null, "height_m": null, "levels": null, "tract_id": "40111000601", "tract_name": "6.01", "tags": {"building": "yes"}}}, {"type": "Feature", "geometry": {"type": "Polygon", "coordinates": [[[-96.0140866, 35.8463684], [-96.0139203, 35.8463684], [-96.0139203, 35.8462521], [-96.0140866, 35.8462521], [-96.0140866, 35.8463684]]]}, "properties": {"osm_id": 1347902794, "building": "yes", "name": "", "height": null, "height_m": null, "levels": null, "tract_id": "40111000601", "tract_name": "6.01", "tags": {"building": "yes", "office": "transportation"}}}, {"type": "Feature", "geometry": {"type": "Polygon", "coordinates": [[[-96.0140718, 35.8450547], [-96.0140651, 35.8452667], [-96.0141102, 35.8453326], [-96.0139944, 35.8453846], [-96.0139307, 35.8452929], [-96.0139014, 35.8453065], [-96.0138618, 35.8452489], [-96.0138935, 35.8452346], [-96.0138966, 35.8451673], [-96.0139195, 35.8451678], [-96.0139204, 35.8451375], [-96.0139638, 35.8451384], [-96.0139665, 35.8450526], [-96.0140718, 35.8450547]]]}, "properties": {"osm_id": 1347902797, "building": "detached", "name": "", "height": null, "height_m": null, "levels": null, "tract_id": "40111000601", "tract_name": "6.01", "tags": {"building": "detached"}}}, {"type": "Feature", "geometry": {"type": "Polygon", "coordinates": [[[-96.0110369, 35.845003], [-96.0110375, 35.8451506], [-96.0109109, 35.8451509], [-96.0109103, 35.8450034], [-96.0110369, 35.845003]]]}, "properties": {"osm_id": 1347902798, "building": "yes", "name": "", "height": null, "height_m": null, "levels": null, "tract_id": "40111000601", "tract_name": "6.01", "tags": {"building": "yes"}}}, {"type": "Feature", "geometry": {"type": "Polygon", "coordinates": [[[-96.0127629, 35.8448095], [-96.0127616, 35.8444638], [-96.0130458, 35.8444631], [-96.0130463, 35.8445769], [-96.0131116, 35.8445767], [-96.0131116, 35.8445683], [-96.0134384, 35.8445674], [-96.0134389, 35.8447033], [-96.0131143, 35.8447041], [-96.0131143, 35.8446941], [-96.0130467, 35.8446943], [-96.0130472, 35.8448088], [-96.0127629, 35.8448095]]]}, "properties": {"osm_id": 1347902799, "building": "yes", "name": "", "height": null, "height_m": null, "levels": null, "tract_id": "40111000601", "tract_name": "6.01", "tags": {"building": "yes"}}}, {"type": "Feature", "geometry": {"type": "Polygon", "coordinates": [[[-96.0147547, 35.8433462], [-96.0148727, 35.8433464], [-96.0148723, 35.8435736], [-96.0147543, 35.8435734], [-96.0147547, 35.8433462]]]}, "properties": {"osm_id": 1347902800, "building": "warehouse", "name": "", "height": null, "height_m": null, "levels": null, "tract_id": "40111000601", "tract_name": "6.01", "tags": {"building": "warehouse"}}}, {"type": "Feature", "geometry": {"type": "Polygon", "coordinates": [[[-95.9731696, 35.8428499], [-95.9732982, 35.842853], [-95.9733024, 35.84274], [-95.9731738, 35.8427369], [-95.9731696, 35.8428499]]]}, "properties": {"osm_id": 1348785892, "building": "yes", "name": "", "height": null, "height_m": null, "levels": null, "tract_id": "40111000601", "tract_name": "6.01", "tags": {"building": "yes"}}}, {"type": "Feature", "geometry": {"type": "Polygon", "coordinates": [[[-95.9738844, 35.8425759], [-95.9738949, 35.8425198], [-95.9738231, 35.8425109], [-95.9738125, 35.842567], [-95.9738844, 35.8425759]]]}, "properties": {"osm_id": 1348785893, "building": "yes", "name": "", "height": null, "height_m": null, "levels": null, "tract_id": "40111000601", "tract_name": "6.01", "tags": {"building": "yes"}}}, {"type": "Feature", "geometry": {"type": "Polygon", "coordinates": [[[-95.977835, 35.8443185], [-95.9778355, 35.8444728], [-95.9780312, 35.8444724], [-95.9780307, 35.8443181], [-95.977835, 35.8443185]]]}, "properties": {"osm_id": 1348785894, "building": "yes", "name": "", "height": null, "height_m": null, "levels": null, "tract_id": "40111000601", "tract_name": "6.01", "tags": {"building": "yes"}}}, {"type": "Feature", "geometry": {"type": "Polygon", "coordinates": [[[-95.9783044, 35.8439163], [-95.9783089, 35.8440153], [-95.9786401, 35.8440052], [-95.9786355, 35.8439062], [-95.9783044, 35.8439163]]]}, "properties": {"osm_id": 1348785895, "building": "yes", "name": "", "height": null, "height_m": null, "levels": null, "tract_id": "40111000601", "tract_name": "6.01", "tags": {"building": "yes"}}}, {"type": "Feature", "geometry": {"type": "Polygon", "coordinates": [[[-95.9741612, 35.844419], [-95.9739432, 35.8444249], [-95.973946, 35.8444922], [-95.974164, 35.8444863], [-95.9741612, 35.844419]]]}, "properties": {"osm_id": 1348785896, "building": "yes", "name": "", "height": null, "height_m": null, "levels": null, "tract_id": "40111000601", "tract_name": "6.01", "tags": {"building": "yes"}}}, {"type": "Feature", "geometry": {"type": "Polygon", "coordinates": [[[-95.9792022, 35.8443844], [-95.9790856, 35.844397], [-95.9790983, 35.8444744], [-95.979215, 35.8444617], [-95.9792022, 35.8443844]]]}, "properties": {"osm_id": 1348785897, "building": "yes", "name": "", "height": null, "height_m": null, "levels": null, "tract_id": "40111000601", "tract_name": "6.01", "tags": {"building": "yes"}}}, {"type": "Feature", "geometry": {"type": "Polygon", "coordinates": [[[-95.9785542, 35.8435854], [-95.9784738, 35.8435843], [-95.9784735, 35.8435995], [-95.9784172, 35.8435987], [-95.9784152, 35.8436887], [-95.9786097, 35.8436915], [-95.97861, 35.8436789], [-95.9787871, 35.8436815], [-95.9787887, 35.8436073], [-95.9785538, 35.8436039], [-95.9785542, 35.8435854]]]}, "properties": {"osm_id": 1348785898, "building": "detached", "name": "", "height": null, "height_m": null, "levels": null, "tract_id": "40111000601", "tract_name": "6.01", "tags": {"building": "detached"}}}, {"type": "Feature", "geometry": {"type": "Polygon", "coordinates": [[[-96.0042362, 35.8566016], [-96.0041732, 35.8566005], [-96.0041744, 35.8565526], [-96.0042374, 35.8565537], [-96.0042362, 35.8566016]]]}, "properties": {"osm_id": 1356307284, "building": "yes", "name": "", "height": null, "height_m": null, "levels": null, "tract_id": "40111000601", "tract_name": "6.01", "tags": {"building": "yes"}}}, {"type": "Feature", "geometry": {"type": "Polygon", "coordinates": [[[-96.0039036, 35.8565831], [-96.0038111, 35.8565831], [-96.0038111, 35.8565614], [-96.0037775, 35.8565614], [-96.0037775, 35.8565054], [-96.0038111, 35.8565054], [-96.0038111, 35.856469], [-96.0038419, 35.856469], [-96.0038419, 35.8564473], [-96.0039036, 35.8564473], [-96.0039036, 35.8565831]]]}, "properties": {"osm_id": 1356307285, "building": "detached", "name": "", "height": null, "height_m": null, "levels": null, "tract_id": "40111000601", "tract_name": "6.01", "tags": {"building": "detached"}}}, {"type": "Feature", "geometry": {"type": "Polygon", "coordinates": [[[-96.0037009, 35.8565894], [-96.0036996, 35.8566622], [-96.0037869, 35.8566632], [-96.0037882, 35.8565904], [-96.0037009, 35.8565894]]]}, "properties": {"osm_id": 1356307289, "building": "garage", "name": "", "height": null, "height_m": null, "levels": null, "tract_id": "40111000601", "tract_name": "6.01", "tags": {"building": "garage"}}}, {"type": "Feature", "geometry": {"type": "Polygon", "coordinates": [[[-96.0021925, 35.855855], [-96.002187, 35.8559309], [-96.0024252, 35.8559421], [-96.0024307, 35.8558663], [-96.0021925, 35.855855]]]}, "properties": {"osm_id": 1356307290, "building": "yes", "name": "", "height": null, "height_m": null, "levels": null, "tract_id": "40111000601", "tract_name": "6.01", "tags": {"building": "yes"}}}, {"type": "Feature", "geometry": {"type": "Polygon", "coordinates": [[[-96.0019493, 35.8562215], [-96.0020485, 35.8562199], [-96.0020492, 35.8562491], [-96.0020962, 35.8562484], [-96.0020946, 35.8561788], [-96.0020555, 35.8561795], [-96.0020541, 35.8561208], [-96.0019469, 35.8561225], [-96.0019493, 35.8562215]]]}, "properties": {"osm_id": 1356307291, "building": "yes", "name": "", "height": null, "height_m": null, "levels": null, "tract_id": "40111000601", "tract_name": "6.01", "tags": {"building": "yes"}}}]}