{"type": "FeatureCollection", "features": [{"type": "Feature", "geometry": {"type": "Polygon", "coordinates": [[[-97.564271, 35.5250523], [-97.5642706, 35.5246161], [-97.5643761, 35.5246154], [-97.5643757, 35.5245791], [-97.564395, 35.5245789], [-97.564394, 35.5245572], [-97.5644365, 35.5245596], [-97.5644382, 35.5245275], [-97.5644383, 35.5244565], [-97.5644238, 35.5243905], [-97.5643971, 35.524395], [-97.5643994, 35.5242644], [-97.5643355, 35.5242639], [-97.5643394, 35.5239412], [-97.5642822, 35.5239412], [-97.5642709, 35.5235032], [-97.5634304, 35.5235006], [-97.5634314, 35.5247708], [-97.5635993, 35.5247709], [-97.5635999, 35.525051], [-97.564271, 35.5250523]]]}, "properties": {"osm_id": 182627020, "building": "yes", "name": "Target", "height": null, "height_m": null, "levels": null, "tract_id": "40109106502", "tract_name": "1065.02", "tags": {"addr:city": "Oklahoma City", "addr:housenumber": "5400", "addr:postcode": "73112-5407", "addr:state": "OK", "addr:street": "North May Avenue", "brand": "Target", "brand:wikidata": "Q1046951", "building": "yes", "name": "Target", "opening_hours": "Mo-Su 08:00-22:00", "phone": "+1 405-947-6761", "ref": "43", "shop": "department_store", "website": "https://www.target.com/sl/oklahoma-city-north/43"}}}, {"type": "Feature", "geometry": {"type": "Polygon", "coordinates": [[[-97.5647287, 35.5229071], [-97.564728, 35.5228528], [-97.5647298, 35.5227753], [-97.5647314, 35.5226037], [-97.5652061, 35.5226059], [-97.5652008, 35.5229093], [-97.5647287, 35.5229071]]]}, "properties": {"osm_id": 187510847, "building": "yes", "name": "Walgreens", "height": null, "height_m": null, "levels": null, "tract_id": "40109106502", "tract_name": "1065.02", "tags": {"addr:city": "Oklahoma City", "addr:housenumber": "5120", "addr:postcode": "73112", "addr:state": "OK", "addr:street": "North May Avenue", "brand": "Walgreens", "brand:wikidata": "Q1591889", "building": "yes", "name": "Walgreens", "opening_hours": "24/7", "phone": "+1 405 942 2471", "ref": "4098", "shop": "chemist", "website": "https://www.walgreens.com/locator/walgreens-5120+n+may+ave-oklahoma+city-ok-73112/id=4098"}}}, {"type": "Feature", "geometry": {"type": "Polygon", "coordinates": [[[-97.5631091, 35.5248915], [-97.5625279, 35.5248933], [-97.5625351, 35.5251972], [-97.5630716, 35.5251972], [-97.5631091, 35.5251622], [-97.5631091, 35.5248915]]]}, "properties": {"osm_id": 188226355, "building": "yes", "name": "Office Depot", "height": null, "height_m": null, "levels": null, "tract_id": "40109106502", "tract_name": "1065.02", "tags": {"addr:city": "Oklahoma City", "addr:housenumber": "2724", "addr:postcode": "73112", "addr:state": "OK", "addr:street": "Northwest Expressway", "brand": "Office Depot", "brand:wikidata": "Q1337797", "building": "yes", "name": "Office Depot", "opening_hours": "Mo-Fr 08:00-20:00; Sa 10:00-19:00; Su 10:00-18:00", "phone": "+1 405-946-8040", "ref": "2252", "shop": "stationery", "website": "https://www.officedepot.com/storelocator/ok/oklahoma-city/office-depot-2252"}}}, {"type": "Feature", "geometry": {"type": "Polygon", "coordinates": [[[-97.5649162, 35.5223747], [-97.564848, 35.5223757], [-97.5647814, 35.5223767], [-97.5647774, 35.5222483], [-97.5649169, 35.5222473], [-97.5649162, 35.5223747]]]}, "properties": {"osm_id": 188227582, "building": "yes", "name": "Mayfair Liquor", "height": null, "height_m": null, "levels": null, "tract_id": "40109106502", "tract_name": "1065.02", "tags": {"addr:city": "Oklahoma City", "addr:postcode": "73112", "addr:state": "OK", "building": "yes", "name": "Mayfair Liquor", "shop": "alcohol"}}}, {"type": "Feature", "geometry": {"type": "Polygon", "coordinates": [[[-97.5643471, 35.5231106], [-97.5643444, 35.5229447], [-97.5636104, 35.522953], [-97.5636122, 35.5231259], [-97.5643471, 35.5231106]]]}, "properties": {"osm_id": 188227583, "building": "yes", "name": "", "height": null, "height_m": null, "levels": null, "tract_id": "40109106502", "tract_name": "1065.02", "tags": {"building": "yes"}}}, {"type": "Feature", "geometry": {"type": "Polygon", "coordinates": [[[-97.5644518, 35.5222423], [-97.5644241, 35.5222426], [-97.5640969, 35.5222467], [-97.5640972, 35.5224771], [-97.5644276, 35.5224771], [-97.5644522, 35.5224771], [-97.5644518, 35.5222423]]]}, "properties": {"osm_id": 188227585, "building": "commercial", "name": "", "height": null, "height_m": null, "levels": null, "tract_id": "40109106502", "tract_name": "1065.02", "tags": {"building": "commercial"}}}, {"type": "Feature", "geometry": {"type": "Polygon", "coordinates": [[[-97.5636217, 35.5224786], [-97.5633601, 35.5224796], [-97.5633615, 35.5223255], [-97.5633615, 35.5223106], [-97.5633468, 35.5223092], [-97.5633468, 35.5222593], [-97.5636189, 35.5222592], [-97.5636217, 35.5224786]]]}, "properties": {"osm_id": 188227587, "building": "yes", "name": "", "height": null, "height_m": null, "levels": null, "tract_id": "40109106502", "tract_name": "1065.02", "tags": {"building": "yes"}}}, {"type": "Feature", "geometry": {"type": "Polygon", "coordinates": [[[-97.5644259, 35.5227774], [-97.5644246, 35.5226502], [-97.5641007, 35.5226524], [-97.564102, 35.5227796], [-97.5644259, 35.5227774]]]}, "properties": {"osm_id": 188227589, "building": "yes", "name": "", "height": null, "height_m": null, "levels": null, "tract_id": "40109106502", "tract_name": "1065.02", "tags": {"building": "yes"}}}, {"type": "Feature", "geometry": {"type": "Polygon", "coordinates": [[[-97.5637575, 35.5227849], [-97.5637596, 35.5226339], [-97.5633549, 35.5226252], [-97.5633582, 35.5227728], [-97.5633564, 35.5227813], [-97.5637575, 35.5227849]]]}, "properties": {"osm_id": 188227591, "building": "yes", "name": "", "height": null, "height_m": null, "levels": null, "tract_id": "40109106502", "tract_name": "1065.02", "tags": {"building": "yes"}}}, {"type": "Feature", "geometry": {"type": "Polygon", "coordinates": [[[-97.5653301, 35.5232395], [-97.5651456, 35.5232454], [-97.5651405, 35.5231397], [-97.565325, 35.5231338], [-97.5653301, 35.5232395]]]}, "properties": {"osm_id": 188227592, "building": "commercial", "name": "Popeyes", "height": null, "height_m": null, "levels": null, "tract_id": "40109106502", "tract_name": "1065.02", "tags": {"addr:city": "Oklahoma City", "addr:housenumber": "5200", "addr:postcode": "73112", "addr:state": "OK", "addr:street": "North May Avenue", "amenity": "fast_food", "brand": "Popeyes", "brand:wikidata": "Q1330910", "building": "commercial", "cuisine": "chicken", "delivery": "yes", "drive_through": "yes", "indoor_seating": "yes", "name": "Popeyes", "official_name": "Popeyes Louisiana Kitchen", "opening_hours": "10:00-22:00", "phone": "+1 405-948-9272", "takeaway": "yes", "website": "https://www.popeyes.com/store-locator/store/restaurant_83841"}}}, {"type": "Feature", "geometry": {"type": "Polygon", "coordinates": [[[-97.5608551, 35.5246267], [-97.5605272, 35.5246222], [-97.5605226, 35.5248448], [-97.5606526, 35.5248466], [-97.5606551, 35.5247263], [-97.5607235, 35.5247273], [-97.5607211, 35.5248422], [-97.5608506, 35.5248439], [-97.5608551, 35.5246267]]]}, "properties": {"osm_id": 230877033, "building": "yes", "name": "", "height": null, "height_m": null, "levels": null, "tract_id": "40109106502", "tract_name": "1065.02", "tags": {"building": "yes", "source": "Bing"}}}, {"type": "Feature", "geometry": {"type": "Polygon", "coordinates": [[[-97.5585476, 35.5242069], [-97.5585473, 35.5242721], [-97.5585988, 35.5242723], [-97.558598, 35.524472], [-97.5584262, 35.5244716], [-97.558427, 35.5242697], [-97.5584542, 35.5242697], [-97.5584544, 35.5242067], [-97.5585476, 35.5242069]]]}, "properties": {"osm_id": 230877034, "building": "yes", "name": "", "height": null, "height_m": null, "levels": null, "tract_id": "40109106502", "tract_name": "1065.02", "tags": {"building": "yes", "source": "Bing"}}}, {"type": "Feature", "geometry": {"type": "Polygon", "coordinates": [[[-97.5581011, 35.5242954], [-97.5581022, 35.5244567], [-97.5580552, 35.5244569], [-97.5580553, 35.5244767], [-97.5578119, 35.5244778], [-97.5578117, 35.5244588], [-97.5577626, 35.524459], [-97.5577615, 35.5242975], [-97.5578489, 35.5242971], [-97.5578491, 35.5243234], [-97.5580228, 35.5243226], [-97.5580227, 35.5242957], [-97.5581011, 35.5242954]]]}, "properties": {"osm_id": 230877035, "building": "yes", "name": "", "height": null, "height_m": null, "levels": null, "tract_id": "40109106502", "tract_name": "1065.02", "tags": {"building": "yes", "source": "Bing"}}}, {"type": "Feature", "geometry": {"type": "Polygon", "coordinates": [[[-97.5603564, 35.5245886], [-97.5601006, 35.5245865], [-97.5600995, 35.5246776], [-97.5601823, 35.5246782], [-97.5601815, 35.5247441], [-97.5600959, 35.5247434], [-97.5600948, 35.5248275], [-97.5603535, 35.5248296], [-97.5603564, 35.5245886]]]}, "properties": {"osm_id": 230877036, "building": "yes", "name": "", "height": null, "height_m": null, "levels": null, "tract_id": "40109106502", "tract_name": "1065.02", "tags": {"building": "yes", "source": "Bing"}}}, {"type": "Feature", "geometry": {"type": "Polygon", "coordinates": [[[-97.5593578, 35.524584], [-97.5593587, 35.5246678], [-97.5589887, 35.5246706], [-97.5589877, 35.5245868], [-97.5593578, 35.524584]]]}, "properties": {"osm_id": 230877037, "building": "yes", "name": "", "height": null, "height_m": null, "levels": null, "tract_id": "40109106502", "tract_name": "1065.02", "tags": {"building": "yes", "source": "Bing"}}}, {"type": "Feature", "geometry": {"type": "Polygon", "coordinates": [[[-97.5599312, 35.5245859], [-97.5599292, 35.5247554], [-97.5597537, 35.524754], [-97.5597545, 35.5246905], [-97.5595335, 35.5246887], [-97.5595348, 35.5245827], [-97.5599312, 35.5245859]]]}, "properties": {"osm_id": 230877038, "building": "yes", "name": "", "height": null, "height_m": null, "levels": null, "tract_id": "40109106502", "tract_name": "1065.02", "tags": {"building": "yes", "source": "Bing"}}}, {"type": "Feature", "geometry": {"type": "Polygon", "coordinates": [[[-97.5575997, 35.524204], [-97.5575983, 35.524456], [-97.5574623, 35.5244556], [-97.557463, 35.5243175], [-97.5573503, 35.5243171], [-97.5573505, 35.5242845], [-97.5572438, 35.5242842], [-97.5572442, 35.5242027], [-97.5575997, 35.524204]]]}, "properties": {"osm_id": 230877115, "building": "yes", "name": "", "height": null, "height_m": null, "levels": null, "tract_id": "40109106502", "tract_name": "1065.02", "tags": {"building": "yes", "source": "Bing"}}}, {"type": "Feature", "geometry": {"type": "Polygon", "coordinates": [[[-97.5519627, 35.5133415], [-97.5517192, 35.5133412], [-97.5517196, 35.5131532], [-97.5515401, 35.513153], [-97.5515405, 35.5129673], [-97.5519634, 35.5129678], [-97.5519627, 35.5133415]]]}, "properties": {"osm_id": 246411528, "building": "office", "name": "", "height": null, "height_m": null, "levels": null, "tract_id": "40109106502", "tract_name": "1065.02", "tags": {"building": "office", "source": "Bing"}}}, {"type": "Feature", "geometry": {"type": "Polygon", "coordinates": [[[-97.551374, 35.5133318], [-97.5510844, 35.5133318], [-97.5510844, 35.5134563], [-97.5507839, 35.5134563], [-97.5507839, 35.5133143], [-97.5508725, 35.5133143], [-97.5508725, 35.5131637], [-97.551374, 35.5131637], [-97.551374, 35.5133318]]]}, "properties": {"osm_id": 246411540, "building": "office", "name": "", "height": null, "height_m": null, "levels": null, "tract_id": "40109106502", "tract_name": "1065.02", "tags": {"building": "office", "source": "Bing"}}}, {"type": "Feature", "geometry": {"type": "Polygon", "coordinates": [[[-97.5526155, 35.5133905], [-97.5526148, 35.5131536], [-97.5523494, 35.5131541], [-97.5523501, 35.513391], [-97.5526155, 35.5133905]]]}, "properties": {"osm_id": 246411561, "building": "office", "name": "", "height": null, "height_m": null, "levels": null, "tract_id": "40109106502", "tract_name": "1065.02", "tags": {"building": "office", "source": "Bing"}}}, {"type": "Feature", "geometry": {"type": "Polygon", "coordinates": [[[-97.5501155, 35.511912], [-97.5500134, 35.5119117], [-97.5500137, 35.511825], [-97.5496966, 35.5118242], [-97.5496979, 35.5115102], [-97.5500025, 35.511511], [-97.5500023, 35.5115681], [-97.5500463, 35.5115682], [-97.5500464, 35.5115471], [-97.550117, 35.5115473], [-97.5501155, 35.511912]]]}, "properties": {"osm_id": 246411563, "building": "retail", "name": "", "height": null, "height_m": null, "levels": null, "tract_id": "40109106502", "tract_name": "1065.02", "tags": {"building": "retail", "source": "Bing"}}}, {"type": "Feature", "geometry": {"type": "Polygon", "coordinates": [[[-97.5504379, 35.5132554], [-97.5500866, 35.5133733], [-97.5501375, 35.513489], [-97.5502475, 35.5134541], [-97.5502824, 35.5135152], [-97.5505157, 35.5134453], [-97.5504379, 35.5132554]]]}, "properties": {"osm_id": 246411568, "building": "office", "name": "", "height": null, "height_m": null, "levels": null, "tract_id": "40109106502", "tract_name": "1065.02", "tags": {"building": "office", "source": "Bing"}}}, {"type": "Feature", "geometry": {"type": "Polygon", "coordinates": [[[-97.5494878, 35.5115625], [-97.5494029, 35.5115624], [-97.5494023, 35.5118155], [-97.5493097, 35.5118154], [-97.5493096, 35.5118833], [-97.5494871, 35.5118835], [-97.5494878, 35.5115625]]]}, "properties": {"osm_id": 246411572, "building": "yes", "name": "Tramps", "height": null, "height_m": null, "levels": null, "tract_id": "40109106502", "tract_name": "1065.02", "tags": {"amenity": "bar", "building": "yes", "name": "Tramps", "source": "Bing"}}}, {"type": "Feature", "geometry": {"type": "Polygon", "coordinates": [[[-97.5508524, 35.5119658], [-97.5508516, 35.5117825], [-97.5507086, 35.5117829], [-97.5507093, 35.5119662], [-97.5508524, 35.5119658]]]}, "properties": {"osm_id": 248099424, "building": "yes", "name": "", "height": null, "height_m": null, "levels": null, "tract_id": "40109106502", "tract_name": "1065.02", "tags": {"building": "yes", "roof:colour": "aqua", "roof:shape": "hipped", "source": "Bing"}}}, {"type": "Feature", "geometry": {"type": "Polygon", "coordinates": [[[-97.5518939, 35.5120162], [-97.5518957, 35.5117482], [-97.551907, 35.5117482], [-97.5519067, 35.5116428], [-97.5518956, 35.5116428], [-97.5518952, 35.5116259], [-97.5518751, 35.5116259], [-97.5518748, 35.5116168], [-97.5515825, 35.5116177], [-97.5515827, 35.5116261], [-97.5515608, 35.5116261], [-97.5515614, 35.5116444], [-97.5515509, 35.5116444], [-97.5515513, 35.5117502], [-97.5516756, 35.5117488], [-97.5516756, 35.5117773], [-97.5516757, 35.5120024], [-97.5516757, 35.5120176], [-97.5518939, 35.5120162]]]}, "properties": {"osm_id": 248099425, "building": "yes", "name": "Expressions Church", "height": null, "height_m": null, "levels": null, "tract_id": "40109106502", "tract_name": "1065.02", "tags": {"addr:city": "Oklahoma City", "addr:housenumber": "2245", "addr:postcode": "73112", "addr:state": "OK", "addr:street": "Northwest 39th Street", "amenity": "place_of_worship", "building": "yes", "name": "Expressions Church", "roof:shape": "flat", "source": "Bing"}}}, {"type": "Feature", "geometry": {"type": "Polygon", "coordinates": [[[-97.5513483, 35.5121662], [-97.5511308, 35.5122455], [-97.5510184, 35.5120413], [-97.5512358, 35.5119619], [-97.5513483, 35.5121662]]]}, "properties": {"osm_id": 248099426, "building": "yes", "name": "", "height": null, "height_m": null, "levels": null, "tract_id": "40109106502", "tract_name": "1065.02", "tags": {"building": "yes", "source": "Bing"}}}, {"type": "Feature", "geometry": {"type": "Polygon", "coordinates": [[[-97.5516757, 35.5120024], [-97.5515389, 35.512002], [-97.5515377, 35.5117776], [-97.5516756, 35.5117773], [-97.5516757, 35.5120024]]]}, "properties": {"osm_id": 248099427, "building": "yes", "name": "", "height": null, "height_m": null, "levels": null, "tract_id": "40109106502", "tract_name": "1065.02", "tags": {"building": "yes", "roof:colour": "green", "roof:shape": "gabled", "source": "Bing"}}}, {"type": "Feature", "geometry": {"type": "Polygon", "coordinates": [[[-97.5511924, 35.5118343], [-97.5510258, 35.5118349], [-97.5510243, 35.5115604], [-97.5511908, 35.5115597], [-97.5511924, 35.5118343]]]}, "properties": {"osm_id": 248099428, "building": "yes", "name": "", "height": null, "height_m": null, "levels": null, "tract_id": "40109106502", "tract_name": "1065.02", "tags": {"building": "yes", "source": "Bing"}}}, {"type": "Feature", "geometry": {"type": "Polygon", "coordinates": [[[-97.5652287, 35.5144015], [-97.564815, 35.5144013], [-97.5648149, 35.5145135], [-97.5648148, 35.5146257], [-97.5652285, 35.5146259], [-97.5652286, 35.5145137], [-97.5652287, 35.5144015]]]}, "properties": {"osm_id": 264981466, "building": "yes", "name": "", "height": null, "height_m": null, "levels": null, "tract_id": "40109106502", "tract_name": "1065.02", "tags": {"building": "yes", "source": "Bing"}}}, {"type": "Feature", "geometry": {"type": "Polygon", "coordinates": [[[-97.5652395, 35.514191], [-97.5648553, 35.5141917], [-97.5648546, 35.5139311], [-97.5652388, 35.5139304], [-97.5652395, 35.514191]]]}, "properties": {"osm_id": 264981467, "building": "yes", "name": "O'Reilly Auto Parts", "height": null, "height_m": null, "levels": null, "tract_id": "40109106502", "tract_name": "1065.02", "tags": {"addr:city": "Oklahoma City", "addr:housenumber": "4200", "addr:postcode": "73112", "addr:state": "OK", "addr:street": "North May Avenue", "brand": "O'Reilly Auto Parts", "brand:wikidata": "Q7071951", "building": "yes", "contact:facebook": "https://www.facebook.com/384127021602319/", "name": "O'Reilly Auto Parts", "note": "The official store locator lists two stores for this address, I called to confirm this is correct. - Xanadu_Contractor", "opening_hours": "Mo-Sa 07:30-22:00; Su 09:00-22:00", "phone": "+1 405 942 3903", "ref": "180", "shop": "car_parts", "source": "Bing", "website": "https://locations.oreillyauto.com/ok/oklahomacity/autoparts-180.html"}}}, {"type": "Feature", "geometry": {"type": "Polygon", "coordinates": [[[-97.5646956, 35.5146335], [-97.563722, 35.5146335], [-97.563722, 35.5145025], [-97.5646956, 35.5145025], [-97.5646956, 35.5146335]]]}, "properties": {"osm_id": 264981469, "building": "yes", "name": "", "height": null, "height_m": null, "levels": null, "tract_id": "40109106502", "tract_name": "1065.02", "tags": {"building": "yes", "source": "Bing"}}}, {"type": "Feature", "geometry": {"type": "Polygon", "coordinates": [[[-97.5646961, 35.5144441], [-97.5637203, 35.5144471], [-97.5637198, 35.5143392], [-97.5646956, 35.5143361], [-97.5646961, 35.5144441]]]}, "properties": {"osm_id": 264981470, "building": "yes", "name": "", "height": null, "height_m": null, "levels": null, "tract_id": "40109106502", "tract_name": "1065.02", "tags": {"building": "yes", "source": "Bing"}}}, {"type": "Feature", "geometry": {"type": "Polygon", "coordinates": [[[-97.5634162, 35.5118238], [-97.5628583, 35.5118275], [-97.5628603, 35.5120275], [-97.5634182, 35.5120238], [-97.5634162, 35.5118238]]]}, "properties": {"osm_id": 268204521, "building": "hotel", "name": "", "height": null, "height_m": 6.0, "levels": 2, "tract_id": "40109106502", "tract_name": "1065.02", "tags": {"building": "hotel", "building:colour": "yellow", "building:levels": "2", "roof:colour": "green", "roof:shape": "hipped", "source": "Bing;local_knowledge"}}}, {"type": "Feature", "geometry": {"type": "Polygon", "coordinates": [[[-97.5644811, 35.5124828], [-97.5642773, 35.5124826], [-97.5642773, 35.5124459], [-97.563824, 35.5124456], [-97.5638244, 35.5120616], [-97.5637508, 35.5120616], [-97.563751, 35.5118581], [-97.5638158, 35.5118582], [-97.5638158, 35.5118343], [-97.5641057, 35.5118346], [-97.5641057, 35.511861], [-97.5642209, 35.5118611], [-97.5642207, 35.5119998], [-97.5640189, 35.5119996], [-97.5640185, 35.5122828], [-97.5642894, 35.5122831], [-97.56429, 35.5118535], [-97.5644819, 35.5118537], [-97.5644811, 35.5124828]]]}, "properties": {"osm_id": 268204525, "building": "yes", "name": "Days Inn", "height": null, "height_m": 6.0, "levels": 2, "tract_id": "40109106502", "tract_name": "1065.02", "tags": {"addr:city": "Oklahoma City", "addr:housenumber": "2801", "addr:postcode": "73112", "addr:state": "OK", "addr:street": "Northwest 39th Street", "branch": "Oklahoma City Fairground", "brand": "Days Inn", "brand:wikidata": "Q1047239", "breakfast": "yes", "building": "yes", "building:levels": "2", "internet_access": "wlan", "internet_access:fee": "no", "name": "Days Inn", "official_name": "Days Inn by Wyndham", "phone": "+1 405-492-6923", "ref": "06005", "roof:colour": "gray", "roof:shape": "flat", "source": "Bing;local_knowledge", "tourism": "hotel", "website": "https://www.wyndhamhotels.com/days-inn/oklahoma-city-oklahoma/days-inn-oklahoma-city-fairground/overview"}}}, {"type": "Feature", "geometry": {"type": "Polygon", "coordinates": [[[-97.5652392, 35.5120381], [-97.5652275, 35.5120381], [-97.5652277, 35.5120702], [-97.5651008, 35.5120707], [-97.5651, 35.5119203], [-97.5652386, 35.5119197], [-97.5652392, 35.5120381]]]}, "properties": {"osm_id": 268204526, "building": "yes", "name": "Spiva Mobile Auto Detailing", "height": null, "height_m": null, "levels": null, "tract_id": "40109106502", "tract_name": "1065.02", "tags": {"addr:city": "Oklahoma City", "addr:housenumber": "4000", "addr:postcode": "73112", "addr:state": "OK", "addr:street": "North May Avenue", "building": "yes", "name": "Spiva Mobile Auto Detailing", "shop": "car_repair", "source": "Bing"}}}, {"type": "Feature", "geometry": {"type": "Polygon", "coordinates": [[[-97.56311, 35.5123502], [-97.5630083, 35.5123516], [-97.5630115, 35.512502], [-97.5631132, 35.5125006], [-97.56311, 35.5123502]]]}, "properties": {"osm_id": 268204528, "building": "yes", "name": "", "height": null, "height_m": null, "levels": null, "tract_id": "40109106502", "tract_name": "1065.02", "tags": {"building": "yes", "building:colour": "yellow", "roof:colour": "green", "roof:shape": "hipped", "source": "Bing;local_knowledge"}}}, {"type": "Feature", "geometry": {"type": "Polygon", "coordinates": [[[-97.5624076, 35.51173], [-97.562185, 35.5117313], [-97.5621861, 35.5118622], [-97.5622053, 35.5118621], [-97.5622062, 35.5119638], [-97.5623884, 35.5119628], [-97.5623876, 35.5118638], [-97.5624088, 35.5118637], [-97.5624076, 35.51173]]]}, "properties": {"osm_id": 268204653, "building": "office", "name": "", "height": null, "height_m": null, "levels": null, "tract_id": "40109106502", "tract_name": "1065.02", "tags": {"building": "office", "roof:colour": "white", "roof:shape": "flat"}}}, {"type": "Feature", "geometry": {"type": "Polygon", "coordinates": [[[-97.5615664, 35.5117947], [-97.561219, 35.5117969], [-97.5612214, 35.5120641], [-97.5615688, 35.512062], [-97.5615664, 35.5117947]]]}, "properties": {"osm_id": 268204654, "building": "office", "name": "", "height": null, "height_m": 6.0, "levels": 2, "tract_id": "40109106502", "tract_name": "1065.02", "tags": {"building": "office", "building:levels": "2", "roof:colour": "silver", "roof:shape": "flat", "source": "Bing;local_knowledge"}}}, {"type": "Feature", "geometry": {"type": "Polygon", "coordinates": [[[-97.562121, 35.5117909], [-97.5618554, 35.5117909], [-97.5618554, 35.5119132], [-97.562121, 35.5119153], [-97.562121, 35.5117909]]]}, "properties": {"osm_id": 268204655, "building": "office", "name": "", "height": null, "height_m": null, "levels": null, "tract_id": "40109106502", "tract_name": "1065.02", "tags": {"building": "office", "roof:colour": "white", "roof:shape": "flat"}}}, {"type": "Feature", "geometry": {"type": "Polygon", "coordinates": [[[-97.5550784, 35.5121991], [-97.5550373, 35.5120267], [-97.5548601, 35.5120549], [-97.5546805, 35.5120834], [-97.5547288, 35.5122625], [-97.5550784, 35.5121991]]]}, "properties": {"osm_id": 268205022, "building": "office", "name": "", "height": null, "height_m": 6.0, "levels": 2, "tract_id": "40109106502", "tract_name": "1065.02", "tags": {"building": "office", "building:levels": "2", "building:material": "stone", "roof:shape": "flat", "source": "Bing;local_knowledge"}}}, {"type": "Feature", "geometry": {"type": "Polygon", "coordinates": [[[-97.5556059, 35.5121118], [-97.5555549, 35.5119306], [-97.5554073, 35.5119542], [-97.5553967, 35.5119219], [-97.5553188, 35.5119389], [-97.5553805, 35.5121529], [-97.5556059, 35.5121118]]]}, "properties": {"osm_id": 268205023, "building": "office", "name": "", "height": null, "height_m": null, "levels": null, "tract_id": "40109106502", "tract_name": "1065.02", "tags": {"building": "office", "roof:colour": "silver", "source": "Bing;local_knowledge"}}}, {"type": "Feature", "geometry": {"type": "Polygon", "coordinates": [[[-97.5632794, 35.5129174], [-97.5631052, 35.5129152], [-97.5631013, 35.5130589], [-97.5632749, 35.5130587], [-97.5632794, 35.5129174]]]}, "properties": {"osm_id": 268205327, "building": "yes", "name": "Rissho Kosei-kai Dharma Center", "height": null, "height_m": null, "levels": null, "tract_id": "40109106502", "tract_name": "1065.02", "tags": {"amenity": "place_of_worship", "building": "yes", "building:colour": "white", "name": "Rissho Kosei-kai Dharma Center", "religion": "buddhist", "roof:colour": "red", "roof:shape": "gabled", "source": "Bing;local_knowledge"}}}, {"type": "Feature", "geometry": {"type": "Polygon", "coordinates": [[[-97.5647298, 35.5227753], [-97.5646408, 35.5227727], [-97.5646418, 35.5228531], [-97.564728, 35.5228528], [-97.5647298, 35.5227753]]]}, "properties": {"osm_id": 268557598, "building": "roof", "name": "", "height": null, "height_m": null, "levels": null, "tract_id": "40109106502", "tract_name": "1065.02", "tags": {"building": "roof", "layer": "1", "source": "Bing"}}}, {"type": "Feature", "geometry": {"type": "Polygon", "coordinates": [[[-97.5631494, 35.5236518], [-97.5627967, 35.5236576], [-97.5627918, 35.5234612], [-97.5631445, 35.5234554], [-97.5631494, 35.5236518]]]}, "properties": {"osm_id": 268557599, "building": "yes", "name": "", "height": null, "height_m": null, "levels": null, "tract_id": "40109106502", "tract_name": "1065.02", "tags": {"building": "yes", "roof:colour": "white", "roof:shape": "gabled", "source": "Bing"}}}, {"type": "Feature", "geometry": {"type": "Polygon", "coordinates": [[[-97.5627551, 35.5229127], [-97.5625771, 35.5229147], [-97.562576, 35.5228522], [-97.5625347, 35.5228527], [-97.5625361, 35.5229369], [-97.5623083, 35.5229395], [-97.5623043, 35.5227029], [-97.5625719, 35.5226999], [-97.5625709, 35.5226379], [-97.5627505, 35.522636], [-97.5627551, 35.5229127]]]}, "properties": {"osm_id": 268557600, "building": "yes", "name": "Mayfair Baptist Church", "height": null, "height_m": null, "levels": null, "tract_id": "40109106502", "tract_name": "1065.02", "tags": {"amenity": "place_of_worship", "building": "yes", "denomination": "baptist", "name": "Mayfair Baptist Church", "religion": "christian", "source": "Bing"}}}, {"type": "Feature", "geometry": {"type": "Polygon", "coordinates": [[[-97.551122, 35.5219046], [-97.5510893, 35.5218535], [-97.5510889, 35.5218108], [-97.5510225, 35.5218112], [-97.5510232, 35.5218746], [-97.5507177, 35.5218766], [-97.5507171, 35.5218123], [-97.550713, 35.5216316], [-97.5505534, 35.5216342], [-97.5505386, 35.5214709], [-97.5507009, 35.5214736], [-97.5513163, 35.5214691], [-97.5513157, 35.5214423], [-97.5513851, 35.5214413], [-97.5513857, 35.5214671], [-97.5514686, 35.521466], [-97.5514733, 35.5216851], [-97.5515029, 35.5216847], [-97.5515074, 35.5218993], [-97.551122, 35.5219046]]]}, "properties": {"osm_id": 317589409, "building": "commercial", "name": "The Registry", "height": null, "height_m": 6.0, "levels": 2, "tract_id": "40109106502", "tract_name": "1065.02", "tags": {"addr:city": "Oklahoma City", "addr:housenumber": "2200", "addr:postcode": "73112", "addr:state": "OK", "addr:street": "Northwest 50th Street", "building": "commercial", "building:levels": "2", "name": "The Registry"}}}, {"type": "Feature", "geometry": {"type": "Polygon", "coordinates": [[[-97.555953, 35.521967], [-97.5557935, 35.5219686], [-97.5557923, 35.5218894], [-97.5556469, 35.5218909], [-97.5556476, 35.521934], [-97.5556265, 35.5219342], [-97.5555959, 35.5219346], [-97.5555963, 35.5219606], [-97.5555965, 35.5219702], [-97.5554477, 35.5219717], [-97.5554416, 35.5215757], [-97.5555878, 35.5215742], [-97.5556229, 35.5215739], [-97.5559469, 35.5215706], [-97.55595, 35.5217705], [-97.5559529, 35.5219588], [-97.555953, 35.521967]]]}, "properties": {"osm_id": 317705683, "building": "yes", "name": "Saint Stephens Presbyterian Church", "height": null, "height_m": null, "levels": null, "tract_id": "40109106502", "tract_name": "1065.02", "tags": {"addr:city": "Oklahoma City", "addr:housenumber": "2424", "addr:postcode": "73112", "addr:state": "OK", "addr:street": "Northwest 50th Street", "amenity": "place_of_worship", "building": "yes", "denomination": "presbyterian", "name": "Saint Stephens Presbyterian Church", "religion": "christian"}}}, {"type": "Feature", "geometry": {"type": "Polygon", "coordinates": [[[-97.5485612, 35.5201046], [-97.548875, 35.5199965], [-97.54893, 35.5199758], [-97.5489407, 35.519954], [-97.548934, 35.5199267], [-97.5489193, 35.5199103], [-97.5488925, 35.5199005], [-97.548871, 35.5199005], [-97.5488199, 35.5199184], [-97.5486685, 35.5199714], [-97.5485813, 35.519799], [-97.5486283, 35.5197848], [-97.5485719, 35.5196713], [-97.5485796, 35.519667], [-97.5485631, 35.5196328], [-97.5485284, 35.5196438], [-97.5485161, 35.5196203], [-97.5482461, 35.5197088], [-97.5482921, 35.5197959], [-97.5483231, 35.5197909], [-97.5483399, 35.5198233], [-97.5483213, 35.5198269], [-97.5481886, 35.5199205], [-97.5481629, 35.5199529], [-97.5481585, 35.5199882], [-97.5481673, 35.5200328], [-97.5481797, 35.5200674], [-97.5482231, 35.5201041], [-97.5482726, 35.52013], [-97.5483018, 35.5201336], [-97.5483231, 35.5201862], [-97.5482532, 35.520341], [-97.5482063, 35.5203281], [-97.5480762, 35.5206169], [-97.5483195, 35.5207018], [-97.548316, 35.5207112], [-97.5483691, 35.5207285], [-97.5483629, 35.5207458], [-97.5485752, 35.5208185], [-97.5487009, 35.5205737], [-97.5484876, 35.5204988], [-97.5484779, 35.5205175], [-97.5484275, 35.5204988], [-97.5484124, 35.5205261], [-97.5483558, 35.520506], [-97.5484921, 35.5202345], [-97.5485213, 35.5202453], [-97.5485505, 35.5201949], [-97.5485266, 35.5201488], [-97.5485752, 35.5201329], [-97.5485612, 35.5201046]]]}, "properties": {"osm_id": 318274382, "building": "yes", "name": "Temple B'nai Israel", "height": null, "height_m": null, "levels": null, "tract_id": "40109106502", "tract_name": "1065.02", "tags": {"amenity": "place_of_worship", "building": "yes", "name": "Temple B'nai Israel", "religion": "jewish"}}}, {"type": "Feature", "geometry": {"type": "Polygon", "coordinates": [[[-97.5499279, 35.518945], [-97.5497117, 35.5189486], [-97.5497101, 35.5188823], [-97.5497967, 35.5188808], [-97.5497914, 35.5186724], [-97.549921, 35.5186702], [-97.5499279, 35.518945]]]}, "properties": {"osm_id": 318282858, "building": "apartments", "name": "", "height": null, "height_m": null, "levels": null, "tract_id": "40109106502", "tract_name": "1065.02", "tags": {"addr:city": "Oklahoma City", "addr:housenumber": "2124", "addr:postcode": "73112", "addr:state": "OK", "addr:street": "Northwest 47th Street", "building": "apartments"}}}, {"type": "Feature", "geometry": {"type": "Polygon", "coordinates": [[[-97.549652, 35.5189895], [-97.5494344, 35.5189905], [-97.5494323, 35.5186937], [-97.5495652, 35.5186931], [-97.5495668, 35.5189198], [-97.5496515, 35.5189194], [-97.549652, 35.5189895]]]}, "properties": {"osm_id": 318282859, "building": "apartments", "name": "", "height": null, "height_m": null, "levels": null, "tract_id": "40109106502", "tract_name": "1065.02", "tags": {"addr:city": "Oklahoma City", "addr:housenumber": "2120", "addr:postcode": "73112", "addr:state": "OK", "addr:street": "Northwest 47th Street", "building": "apartments"}}}, {"type": "Feature", "geometry": {"type": "Polygon", "coordinates": [[[-97.549341, 35.5189896], [-97.5491217, 35.518994], [-97.5491198, 35.5189303], [-97.549205, 35.5189286], [-97.5491979, 35.5186928], [-97.5493321, 35.5186902], [-97.549341, 35.5189896]]]}, "properties": {"osm_id": 318282860, "building": "apartments", "name": "", "height": null, "height_m": null, "levels": null, "tract_id": "40109106502", "tract_name": "1065.02", "tags": {"addr:city": "Oklahoma City", "addr:housenumber": "2116", "addr:postcode": "73112", "addr:state": "OK", "addr:street": "Northwest 47th Street", "building": "apartments"}}}, {"type": "Feature", "geometry": {"type": "Polygon", "coordinates": [[[-97.5490682, 35.518991], [-97.5487004, 35.5189992], [-97.5486961, 35.5188734], [-97.549064, 35.5188653], [-97.5490682, 35.518991]]]}, "properties": {"osm_id": 318282861, "building": "apartments", "name": "", "height": null, "height_m": null, "levels": null, "tract_id": "40109106502", "tract_name": "1065.02", "tags": {"addr:city": "Oklahoma City", "addr:housenumber": "2112", "addr:postcode": "73112", "addr:state": "OK", "addr:street": "Northwest 47th Street", "building": "apartments"}}}, {"type": "Feature", "geometry": {"type": "Polygon", "coordinates": [[[-97.5486473, 35.5189992], [-97.548427, 35.5190017], [-97.5484219, 35.5187015], [-97.5485536, 35.5187001], [-97.5485576, 35.5189367], [-97.5486462, 35.5189357], [-97.5486473, 35.5189992]]]}, "properties": {"osm_id": 318282862, "building": "apartments", "name": "", "height": null, "height_m": null, "levels": null, "tract_id": "40109106502", "tract_name": "1065.02", "tags": {"addr:city": "Oklahoma City", "addr:housenumber": "2108", "addr:postcode": "73112", "addr:state": "OK", "addr:street": "Northwest 47th Street", "building": "apartments"}}}, {"type": "Feature", "geometry": {"type": "Polygon", "coordinates": [[[-97.5483314, 35.5190109], [-97.5481143, 35.5190129], [-97.5481133, 35.5189415], [-97.5482021, 35.5189407], [-97.5481988, 35.5187077], [-97.5483271, 35.5187065], [-97.5483314, 35.5190109]]]}, "properties": {"osm_id": 318282863, "building": "apartments", "name": "", "height": null, "height_m": null, "levels": null, "tract_id": "40109106502", "tract_name": "1065.02", "tags": {"addr:city": "Oklahoma City", "addr:housenumber": "2104", "addr:postcode": "73112", "addr:state": "OK", "addr:street": "Northwest 47th Street", "building": "apartments"}}}, {"type": "Feature", "geometry": {"type": "Polygon", "coordinates": [[[-97.5480534, 35.5190075], [-97.5478369, 35.5190105], [-97.5478312, 35.5187415], [-97.5479643, 35.5187397], [-97.5479687, 35.5189479], [-97.5480521, 35.5189468], [-97.5480534, 35.5190075]]]}, "properties": {"osm_id": 318282864, "building": "apartments", "name": "", "height": null, "height_m": null, "levels": null, "tract_id": "40109106502", "tract_name": "1065.02", "tags": {"addr:city": "Oklahoma City", "addr:housenumber": "2100", "addr:postcode": "73112", "addr:state": "OK", "addr:street": "Northwest 47th Street", "building": "apartments"}}}, {"type": "Feature", "geometry": {"type": "Polygon", "coordinates": [[[-97.5561982, 35.5217657], [-97.5559859, 35.5217685], [-97.5559831, 35.5216309], [-97.5561954, 35.5216281], [-97.5561982, 35.5217657]]]}, "properties": {"osm_id": 318283496, "building": "yes", "name": "", "height": null, "height_m": null, "levels": null, "tract_id": "40109106502", "tract_name": "1065.02", "tags": {"building": "yes"}}}, {"type": "Feature", "geometry": {"type": "Polygon", "coordinates": [[[-97.5628634, 35.5245978], [-97.5630622, 35.5245981], [-97.5630634, 35.5239949], [-97.5625785, 35.5239942], [-97.5625781, 35.5241582], [-97.5628642, 35.5241586], [-97.5628634, 35.5245978]]]}, "properties": {"osm_id": 318296839, "building": "yes", "name": "Extended Stay America", "height": null, "height_m": null, "levels": null, "tract_id": "40109106502", "tract_name": "1065.02", "tags": {"branch": "Oklahoma City - Northwest Expressway", "brand": "Extended Stay America", "brand:wikidata": "Q5421850", "building": "yes", "name": "Extended Stay America", "tourism": "hotel"}}}, {"type": "Feature", "geometry": {"type": "Polygon", "coordinates": [[[-97.5631029, 35.5233301], [-97.5630385, 35.5233306], [-97.5630391, 35.5233824], [-97.5629017, 35.5233834], [-97.5629009, 35.5233195], [-97.5628436, 35.5233199], [-97.5628407, 35.5230703], [-97.56308, 35.5230685], [-97.5630999, 35.5230683], [-97.5631029, 35.5233301]]]}, "properties": {"osm_id": 318315893, "building": "yes", "name": "", "height": null, "height_m": null, "levels": null, "tract_id": "40109106502", "tract_name": "1065.02", "tags": {"building": "yes"}}}, {"type": "Feature", "geometry": {"type": "Polygon", "coordinates": [[[-97.5634494, 35.521812], [-97.5634476, 35.5216555], [-97.5634475, 35.5214625], [-97.5634206, 35.5214619], [-97.5633951, 35.5214619], [-97.5633944, 35.5214389], [-97.5633792, 35.52144], [-97.5633787, 35.5212939], [-97.5634123, 35.5212936], [-97.5634561, 35.5212933], [-97.5634546, 35.521162], [-97.5633596, 35.5211627], [-97.56336, 35.5211935], [-97.5632722, 35.5211942], [-97.5632733, 35.521288], [-97.5632753, 35.5214608], [-97.5632764, 35.5215603], [-97.5633523, 35.5215597], [-97.5633552, 35.5218127], [-97.5634494, 35.521812]]]}, "properties": {"osm_id": 318315894, "building": "apartments", "name": "", "height": null, "height_m": null, "levels": null, "tract_id": "40109106502", "tract_name": "1065.02", "tags": {"building": "apartments"}}}, {"type": "Feature", "geometry": {"type": "Polygon", "coordinates": [[[-97.5639452, 35.5216134], [-97.5639455, 35.5214909], [-97.5638712, 35.5214908], [-97.5638718, 35.5213131], [-97.563905, 35.5213132], [-97.5639463, 35.5213133], [-97.5639467, 35.5211861], [-97.563841, 35.5211858], [-97.5638409, 35.5212203], [-97.5637557, 35.5212201], [-97.5637554, 35.521314], [-97.5637549, 35.5214896], [-97.5637546, 35.5215856], [-97.5638449, 35.5215858], [-97.5638448, 35.5216132], [-97.5639452, 35.5216134]]]}, "properties": {"osm_id": 318315895, "building": "apartments", "name": "", "height": null, "height_m": null, "levels": null, "tract_id": "40109106502", "tract_name": "1065.02", "tags": {"building": "apartments"}}}, {"type": "Feature", "geometry": {"type": "Polygon", "coordinates": [[[-97.5639463, 35.5211103], [-97.5639446, 35.5209876], [-97.5639198, 35.5209883], [-97.5638765, 35.5209882], [-97.5638741, 35.5208124], [-97.5639171, 35.520812], [-97.5639458, 35.5208117], [-97.5639441, 35.5206883], [-97.5638397, 35.5206893], [-97.56384, 35.5207171], [-97.5637597, 35.5207178], [-97.563761, 35.5208112], [-97.5637635, 35.5209896], [-97.5637647, 35.5210763], [-97.5638595, 35.5210755], [-97.56386, 35.5211111], [-97.5639463, 35.5211103]]]}, "properties": {"osm_id": 318315896, "building": "apartments", "name": "", "height": null, "height_m": null, "levels": null, "tract_id": "40109106502", "tract_name": "1065.02", "tags": {"building": "apartments"}}}, {"type": "Feature", "geometry": {"type": "Polygon", "coordinates": [[[-97.5634512, 35.5209459], [-97.5634503, 35.5208152], [-97.5633828, 35.5208155], [-97.5633797, 35.5203715], [-97.5634566, 35.5203712], [-97.5634556, 35.5202397], [-97.5633535, 35.5202402], [-97.5633537, 35.5202717], [-97.5632771, 35.5202721], [-97.5632815, 35.5209105], [-97.5633605, 35.5209101], [-97.5633608, 35.5209463], [-97.5634512, 35.5209459]]]}, "properties": {"osm_id": 318315897, "building": "apartments", "name": "", "height": null, "height_m": null, "levels": null, "tract_id": "40109106502", "tract_name": "1065.02", "tags": {"building": "apartments"}}}, {"type": "Feature", "geometry": {"type": "Polygon", "coordinates": [[[-97.5631615, 35.5208299], [-97.5630776, 35.5208308], [-97.5630702, 35.5203607], [-97.5631541, 35.5203598], [-97.5631615, 35.5208299]]]}, "properties": {"osm_id": 318315898, "building": "apartments", "name": "", "height": null, "height_m": null, "levels": null, "tract_id": "40109106502", "tract_name": "1065.02", "tags": {"building": "apartments"}}}, {"type": "Feature", "geometry": {"type": "Polygon", "coordinates": [[[-97.5639153, 35.5202795], [-97.5638227, 35.5202804], [-97.5638223, 35.5202493], [-97.563738, 35.5202501], [-97.5637327, 35.519891], [-97.5638192, 35.5198902], [-97.5638187, 35.51986], [-97.5639092, 35.5198592], [-97.5639111, 35.5199833], [-97.5638328, 35.519984], [-97.5638353, 35.5201543], [-97.5639135, 35.5201536], [-97.5639153, 35.5202795]]]}, "properties": {"osm_id": 318315899, "building": "apartments", "name": "", "height": null, "height_m": null, "levels": null, "tract_id": "40109106502", "tract_name": "1065.02", "tags": {"building": "apartments"}}}, {"type": "Feature", "geometry": {"type": "Polygon", "coordinates": [[[-97.5634409, 35.519966], [-97.5633523, 35.5199698], [-97.5633503, 35.51994], [-97.5632773, 35.5199431], [-97.5632539, 35.519585], [-97.5633097, 35.5195826], [-97.5632924, 35.5193192], [-97.563397, 35.5193147], [-97.5634202, 35.5196694], [-97.5633508, 35.5196724], [-97.563362, 35.5198427], [-97.5634326, 35.5198396], [-97.5634409, 35.519966]]]}, "properties": {"osm_id": 318315900, "building": "apartments", "name": "", "height": null, "height_m": null, "levels": null, "tract_id": "40109106502", "tract_name": "1065.02", "tags": {"building": "apartments"}}}, {"type": "Feature", "geometry": {"type": "Polygon", "coordinates": [[[-97.5639125, 35.5197393], [-97.5638075, 35.51974], [-97.5638072, 35.5197121], [-97.5637252, 35.5197128], [-97.5637211, 35.5193485], [-97.5638178, 35.5193478], [-97.5638175, 35.5193194], [-97.5639044, 35.5193187], [-97.5639057, 35.519436], [-97.5638353, 35.5194365], [-97.5638372, 35.5196082], [-97.563911, 35.5196077], [-97.5639125, 35.5197393]]]}, "properties": {"osm_id": 318315901, "building": "apartments", "name": "", "height": null, "height_m": null, "levels": null, "tract_id": "40109106502", "tract_name": "1065.02", "tags": {"building": "apartments"}}}, {"type": "Feature", "geometry": {"type": "Polygon", "coordinates": [[[-97.5642504, 35.519913], [-97.5641274, 35.5199137], [-97.5641247, 35.5197927], [-97.5642504, 35.5197927], [-97.5642504, 35.519913]]]}, "properties": {"osm_id": 318315902, "building": "yes", "name": "", "height": null, "height_m": null, "levels": null, "tract_id": "40109106502", "tract_name": "1065.02", "tags": {"building": "yes"}}}, {"type": "Feature", "geometry": {"type": "Polygon", "coordinates": [[[-97.5642497, 35.5199723], [-97.5641697, 35.5199729], [-97.5641692, 35.5199333], [-97.5642492, 35.5199327], [-97.5642497, 35.5199723]]]}, "properties": {"osm_id": 318315903, "building": "yes", "name": "", "height": null, "height_m": null, "levels": null, "tract_id": "40109106502", "tract_name": "1065.02", "tags": {"building": "yes"}}}, {"type": "Feature", "geometry": {"type": "Polygon", "coordinates": [[[-97.5631868, 35.5214464], [-97.5631107, 35.5214464], [-97.5631107, 35.5214133], [-97.5631868, 35.5214133], [-97.5631868, 35.5214464]]]}, "properties": {"osm_id": 318315904, "building": "yes", "name": "", "height": null, "height_m": null, "levels": null, "tract_id": "40109106502", "tract_name": "1065.02", "tags": {"building": "yes"}}}, {"type": "Feature", "geometry": {"type": "Polygon", "coordinates": [[[-97.5624323, 35.5218686], [-97.5625322, 35.5218671], [-97.5625286, 35.5217019], [-97.5624311, 35.5217033], [-97.5624309, 35.5216958], [-97.5622421, 35.5216985], [-97.5622457, 35.5218656], [-97.5622776, 35.5218651], [-97.5622784, 35.5218989], [-97.5624329, 35.5218967], [-97.5624323, 35.5218686]]]}, "properties": {"osm_id": 318315905, "building": "yes", "name": "Oklahoma City Fire Station 17", "height": null, "height_m": null, "levels": null, "tract_id": "40109106502", "tract_name": "1065.02", "tags": {"amenity": "fire_station", "building": "yes", "name": "Oklahoma City Fire Station 17"}}}, {"type": "Feature", "geometry": {"type": "Polygon", "coordinates": [[[-97.5522595, 35.5231339], [-97.5522688, 35.5230789], [-97.5522752, 35.5230387], [-97.5521964, 35.5230304], [-97.5520187, 35.5230111], [-97.5520056, 35.5230924], [-97.5520907, 35.5231015], [-97.5520897, 35.5231077], [-97.5521715, 35.5231164], [-97.5521703, 35.5231244], [-97.5522595, 35.5231339]]]}, "properties": {"osm_id": 335512117, "building": "house", "name": "", "height": null, "height_m": 3.0, "levels": 1, "tract_id": "40109106502", "tract_name": "1065.02", "tags": {"addr:city": "Oklahoma City", "addr:housenumber": "2252", "addr:postcode": "73112", "addr:state": "OK", "addr:street": "Northwest 52nd Street", "building": "house", "building:levels": "1"}}}, {"type": "Feature", "geometry": {"type": "Polygon", "coordinates": [[[-97.5522388, 35.522977], [-97.5522381, 35.5229451], [-97.5522447, 35.522945], [-97.552244, 35.5229104], [-97.5523017, 35.5229096], [-97.5523, 35.5228285], [-97.5521518, 35.5228306], [-97.5521549, 35.5229782], [-97.5522388, 35.522977]]]}, "properties": {"osm_id": 335512118, "building": "house", "name": "", "height": null, "height_m": 3.0, "levels": 1, "tract_id": "40109106502", "tract_name": "1065.02", "tags": {"addr:city": "Oklahoma City", "addr:housenumber": "5114", "addr:postcode": "73112", "addr:state": "OK", "addr:street": "North Youngs Boulevard", "building": "house", "building:levels": "1"}}}, {"type": "Feature", "geometry": {"type": "Polygon", "coordinates": [[[-97.5522402, 35.5228146], [-97.55214, 35.5228159], [-97.5521371, 35.5226658], [-97.5522773, 35.522664], [-97.5522787, 35.5227385], [-97.5522387, 35.522739], [-97.5522402, 35.5228146]]]}, "properties": {"osm_id": 335512119, "building": "house", "name": "", "height": null, "height_m": 3.0, "levels": 1, "tract_id": "40109106502", "tract_name": "1065.02", "tags": {"addr:city": "Oklahoma City", "addr:housenumber": "5110", "addr:postcode": "73112", "addr:state": "OK", "addr:street": "North Youngs Boulevard", "building": "house", "building:levels": "1"}}}, {"type": "Feature", "geometry": {"type": "Polygon", "coordinates": [[[-97.5523107, 35.5225793], [-97.5522149, 35.5225803], [-97.5522135, 35.5224881], [-97.5521635, 35.5224886], [-97.552162, 35.5223915], [-97.5522909, 35.5223902], [-97.5522914, 35.522421], [-97.5523083, 35.5224209], [-97.5523107, 35.5225793]]]}, "properties": {"osm_id": 335512120, "building": "house", "name": "", "height": null, "height_m": 3.0, "levels": 1, "tract_id": "40109106502", "tract_name": "1065.02", "tags": {"addr:city": "Oklahoma City", "addr:housenumber": "5100", "addr:postcode": "73112", "addr:state": "OK", "addr:street": "North Youngs Boulevard", "building": "house", "building:levels": "1"}}}, {"type": "Feature", "geometry": {"type": "Polygon", "coordinates": [[[-97.5521372, 35.5224946], [-97.5520667, 35.522495], [-97.5520669, 35.5225157], [-97.5519723, 35.5225162], [-97.5519713, 35.5224032], [-97.5520886, 35.5224025], [-97.5520887, 35.5224186], [-97.5521365, 35.5224183], [-97.5521372, 35.5224946]]]}, "properties": {"osm_id": 335512121, "building": "house", "name": "", "height": null, "height_m": 3.0, "levels": 1, "tract_id": "40109106502", "tract_name": "1065.02", "tags": {"addr:city": "Oklahoma City", "addr:housenumber": "2237", "addr:postcode": "73112", "addr:state": "OK", "addr:street": "Northwest 50th Street", "building": "house", "building:levels": "1"}}}, {"type": "Feature", "geometry": {"type": "Polygon", "coordinates": [[[-97.5519572, 35.5225093], [-97.5519418, 35.5225093], [-97.5519418, 35.5225444], [-97.5517858, 35.5225444], [-97.5517858, 35.5224285], [-97.5518946, 35.5224285], [-97.5518946, 35.5223953], [-97.5519572, 35.5223953], [-97.5519572, 35.5225093]]]}, "properties": {"osm_id": 335512122, "building": "house", "name": "", "height": null, "height_m": 3.0, "levels": 1, "tract_id": "40109106502", "tract_name": "1065.02", "tags": {"addr:city": "Oklahoma City", "addr:housenumber": "2233", "addr:postcode": "73112", "addr:state": "OK", "addr:street": "Northwest 50th Street", "building": "house", "building:levels": "1"}}}, {"type": "Feature", "geometry": {"type": "Polygon", "coordinates": [[[-97.5519209, 35.5230776], [-97.5518615, 35.523068], [-97.5518653, 35.5230527], [-97.5517467, 35.5230335], [-97.5517715, 35.5229322], [-97.5518669, 35.5229479], [-97.5519496, 35.5229613], [-97.5519209, 35.5230776]]]}, "properties": {"osm_id": 335513675, "building": "house", "name": "", "height": null, "height_m": 3.0, "levels": 1, "tract_id": "40109106502", "tract_name": "1065.02", "tags": {"addr:city": "Oklahoma City", "addr:housenumber": "2248", "addr:postcode": "73112", "addr:state": "OK", "addr:street": "Northwest 52nd Street", "building": "house", "building:levels": "1"}}}, {"type": "Feature", "geometry": {"type": "Polygon", "coordinates": [[[-97.551728, 35.5230439], [-97.5516512, 35.5230301], [-97.5516571, 35.5230081], [-97.5515677, 35.522992], [-97.5515898, 35.5229103], [-97.5516904, 35.5229282], [-97.5517477, 35.5229388], [-97.5517561, 35.5229402], [-97.551728, 35.5230439]]]}, "properties": {"osm_id": 335513676, "building": "house", "name": "", "height": null, "height_m": 3.0, "levels": 1, "tract_id": "40109106502", "tract_name": "1065.02", "tags": {"addr:city": "Oklahoma City", "addr:housenumber": "2244", "addr:postcode": "73112", "addr:state": "OK", "addr:street": "Northwest 52nd Street", "building": "house", "building:levels": "1"}}}, {"type": "Feature", "geometry": {"type": "Polygon", "coordinates": [[[-97.5515447, 35.523009], [-97.5514471, 35.5229928], [-97.5514511, 35.5229769], [-97.5513931, 35.5229672], [-97.5514161, 35.5228757], [-97.5515717, 35.5229016], [-97.5515447, 35.523009]]]}, "properties": {"osm_id": 335514035, "building": "house", "name": "", "height": null, "height_m": 3.0, "levels": 1, "tract_id": "40109106502", "tract_name": "1065.02", "tags": {"addr:city": "Oklahoma City", "addr:housenumber": "2240", "addr:postcode": "73112", "addr:state": "OK", "addr:street": "Northwest 52nd Street", "building": "house", "building:levels": "1"}}}, {"type": "Feature", "geometry": {"type": "Polygon", "coordinates": [[[-97.5513702, 35.5229811], [-97.5514006, 35.5228618], [-97.5512387, 35.5228345], [-97.5512124, 35.5229374], [-97.5512784, 35.5229485], [-97.5512801, 35.5229417], [-97.5513018, 35.5229454], [-97.5513052, 35.5229319], [-97.5513184, 35.5229342], [-97.551309, 35.5229708], [-97.5513702, 35.5229811]]]}, "properties": {"osm_id": 335514036, "building": "house", "name": "", "height": null, "height_m": 3.0, "levels": 1, "tract_id": "40109106502", "tract_name": "1065.02", "tags": {"addr:city": "Oklahoma City", "addr:housenumber": "2236", "addr:postcode": "73112", "addr:state": "OK", "addr:street": "Northwest 52nd Street", "building": "house", "building:levels": "1"}}}, {"type": "Feature", "geometry": {"type": "Polygon", "coordinates": [[[-97.551185, 35.5229472], [-97.5510849, 35.5229302], [-97.5510888, 35.5229141], [-97.5510323, 35.5229039], [-97.5510538, 35.5228183], [-97.5512093, 35.5228436], [-97.551185, 35.5229472]]]}, "properties": {"osm_id": 335514037, "building": "house", "name": "", "height": null, "height_m": 3.0, "levels": 1, "tract_id": "40109106502", "tract_name": "1065.02", "tags": {"addr:city": "Oklahoma City", "addr:housenumber": "2232", "addr:postcode": "73112", "addr:state": "OK", "addr:street": "Northwest 52nd Street", "building": "house", "building:levels": "1"}}}, {"type": "Feature", "geometry": {"type": "Polygon", "coordinates": [[[-97.5517668, 35.5225826], [-97.5516988, 35.5225828], [-97.5516987, 35.5225548], [-97.551609, 35.522555], [-97.5516087, 35.5224637], [-97.5516796, 35.5224635], [-97.5516796, 35.5224477], [-97.5517054, 35.5224476], [-97.5517052, 35.5223984], [-97.5517661, 35.5223983], [-97.5517668, 35.5225826]]]}, "properties": {"osm_id": 335514687, "building": "house", "name": "", "height": null, "height_m": 3.0, "levels": 1, "tract_id": "40109106502", "tract_name": "1065.02", "tags": {"addr:city": "Oklahoma City", "addr:housenumber": "2229", "addr:postcode": "73112", "addr:state": "OK", "addr:street": "Northwest 50th Street", "building": "house", "building:levels": "1"}}}, {"type": "Feature", "geometry": {"type": "Polygon", "coordinates": [[[-97.5515865, 35.5225093], [-97.5514801, 35.5225112], [-97.5514814, 35.5225577], [-97.5514174, 35.5225589], [-97.5514136, 35.5224177], [-97.5514549, 35.522417], [-97.5514545, 35.5224013], [-97.5515835, 35.522399], [-97.5515865, 35.5225093]]]}, "properties": {"osm_id": 335514688, "building": "house", "name": "", "height": null, "height_m": 3.0, "levels": 1, "tract_id": "40109106502", "tract_name": "1065.02", "tags": {"addr:city": "Oklahoma City", "addr:housenumber": "2225", "addr:postcode": "73112", "addr:state": "OK", "addr:street": "Northwest 50th Street", "building": "house", "building:levels": "1"}}}, {"type": "Feature", "geometry": {"type": "Polygon", "coordinates": [[[-97.551401, 35.5225195], [-97.5513993, 35.5224131], [-97.5513609, 35.5224135], [-97.5513608, 35.5224052], [-97.5513166, 35.5224057], [-97.5513165, 35.5223996], [-97.5512421, 35.5224004], [-97.5512427, 35.5224373], [-97.5512313, 35.5224374], [-97.5512326, 35.5225212], [-97.551401, 35.5225195]]]}, "properties": {"osm_id": 335514927, "building": "house", "name": "", "height": null, "height_m": 3.0, "levels": 1, "tract_id": "40109106502", "tract_name": "1065.02", "tags": {"addr:city": "Oklahoma City", "addr:housenumber": "2221", "addr:postcode": "73112", "addr:state": "OK", "addr:street": "Northwest 50th Street", "building": "house", "building:levels": "1"}}}, {"type": "Feature", "geometry": {"type": "Polygon", "coordinates": [[[-97.5512122, 35.5225169], [-97.5512101, 35.5223999], [-97.551156, 35.5224005], [-97.5511561, 35.522411], [-97.5511073, 35.5224115], [-97.5511075, 35.5224225], [-97.5510456, 35.5224232], [-97.5510474, 35.522528], [-97.5511028, 35.5225274], [-97.5511026, 35.5225181], [-97.5512122, 35.5225169]]]}, "properties": {"osm_id": 335515144, "building": "house", "name": "", "height": null, "height_m": 3.0, "levels": 1, "tract_id": "40109106502", "tract_name": "1065.02", "tags": {"addr:city": "Oklahoma City", "addr:housenumber": "2217", "addr:postcode": "73112", "addr:state": "OK", "addr:street": "Northwest 50th Street", "building": "house", "building:levels": "1"}}}, {"type": "Feature", "geometry": {"type": "Polygon", "coordinates": [[[-97.5510037, 35.5229232], [-97.5509511, 35.5229143], [-97.5509545, 35.522901], [-97.5509019, 35.5228921], [-97.550904, 35.5228838], [-97.5508501, 35.5228747], [-97.5508766, 35.5227711], [-97.5509422, 35.5227822], [-97.5509395, 35.5227926], [-97.551033, 35.5228084], [-97.5510037, 35.5229232]]]}, "properties": {"osm_id": 335515887, "building": "house", "name": "", "height": null, "height_m": 3.0, "levels": 1, "tract_id": "40109106502", "tract_name": "1065.02", "tags": {"addr:city": "Oklahoma City", "addr:housenumber": "2228", "addr:postcode": "73112", "addr:state": "OK", "addr:street": "Northwest 52nd Street", "building": "house", "building:levels": "1"}}}, {"type": "Feature", "geometry": {"type": "Polygon", "coordinates": [[[-97.5510305, 35.5225212], [-97.550866, 35.5225236], [-97.5508643, 35.5224447], [-97.550877, 35.5224445], [-97.5508761, 35.5224045], [-97.5509425, 35.5224035], [-97.5509427, 35.5224128], [-97.551028, 35.5224115], [-97.5510305, 35.5225212]]]}, "properties": {"osm_id": 335516617, "building": "house", "name": "", "height": null, "height_m": 3.0, "levels": 1, "tract_id": "40109106502", "tract_name": "1065.02", "tags": {"addr:city": "Oklahoma City", "addr:housenumber": "2213", "addr:postcode": "73112", "addr:state": "OK", "addr:street": "Northwest 50th Street", "building": "house", "building:levels": "1"}}}, {"type": "Feature", "geometry": {"type": "Polygon", "coordinates": [[[-97.5509873, 35.5232866], [-97.550908, 35.5232732], [-97.5509041, 35.5232884], [-97.5508121, 35.5232728], [-97.5508326, 35.5231923], [-97.5508509, 35.5231954], [-97.5508582, 35.5231667], [-97.5510112, 35.5231926], [-97.5509873, 35.5232866]]]}, "properties": {"osm_id": 336938495, "building": "house", "name": "", "height": null, "height_m": 3.0, "levels": 1, "tract_id": "40109106502", "tract_name": "1065.02", "tags": {"addr:city": "Oklahoma City", "addr:housenumber": "2233", "addr:postcode": "73112", "addr:state": "OK", "addr:street": "Northwest 52nd Street", "building": "house", "building:levels": "1"}}}, {"type": "Feature", "geometry": {"type": "Polygon", "coordinates": [[[-97.5511611, 35.5233348], [-97.5510085, 35.523307], [-97.551031, 35.523225], [-97.5510644, 35.5232311], [-97.5510683, 35.5232172], [-97.5511352, 35.5232294], [-97.5511379, 35.5232195], [-97.5511902, 35.523229], [-97.5511611, 35.5233348]]]}, "properties": {"osm_id": 336938496, "building": "house", "name": "", "height": null, "height_m": 3.0, "levels": 1, "tract_id": "40109106502", "tract_name": "1065.02", "tags": {"addr:city": "Oklahoma City", "addr:housenumber": "2237", "addr:postcode": "73112", "addr:state": "OK", "addr:street": "Northwest 52nd Street", "building": "house", "building:levels": "1"}}}, {"type": "Feature", "geometry": {"type": "Polygon", "coordinates": [[[-97.551348, 35.5233453], [-97.5512699, 35.5233317], [-97.5512648, 35.5233509], [-97.5511799, 35.5233362], [-97.5512011, 35.5232554], [-97.5512149, 35.5232578], [-97.551222, 35.5232307], [-97.5513713, 35.5232566], [-97.551348, 35.5233453]]]}, "properties": {"osm_id": 336938497, "building": "house", "name": "", "height": null, "height_m": 3.0, "levels": 1, "tract_id": "40109106502", "tract_name": "1065.02", "tags": {"addr:city": "Oklahoma City", "addr:housenumber": "2241", "addr:postcode": "73112", "addr:state": "OK", "addr:street": "Northwest 52nd Street", "building": "house", "building:levels": "1"}}}, {"type": "Feature", "geometry": {"type": "Polygon", "coordinates": [[[-97.5515547, 35.5232847], [-97.5515167, 35.5234308], [-97.5514387, 35.5234174], [-97.5514471, 35.5233849], [-97.5513619, 35.5233703], [-97.551385, 35.5232816], [-97.5514576, 35.5232941], [-97.5514641, 35.5232691], [-97.5515547, 35.5232847]]]}, "properties": {"osm_id": 336938498, "building": "house", "name": "", "height": null, "height_m": 3.0, "levels": 1, "tract_id": "40109106502", "tract_name": "1065.02", "tags": {"addr:city": "Oklahoma City", "addr:housenumber": "2245", "addr:postcode": "73112", "addr:state": "OK", "addr:street": "Northwest 52nd Street", "building": "house", "building:levels": "1"}}}, {"type": "Feature", "geometry": {"type": "Polygon", "coordinates": [[[-97.5516909, 35.5234636], [-97.5515924, 35.5234464], [-97.5516048, 35.5233991], [-97.551545, 35.5233887], [-97.5515715, 35.5232875], [-97.5516242, 35.5232967], [-97.5516275, 35.5232838], [-97.5517332, 35.5233021], [-97.5516909, 35.5234636]]]}, "properties": {"osm_id": 336938499, "building": "house", "name": "", "height": null, "height_m": 3.0, "levels": 1, "tract_id": "40109106502", "tract_name": "1065.02", "tags": {"addr:city": "Oklahoma City", "addr:housenumber": "2249", "addr:postcode": "73112", "addr:state": "OK", "addr:street": "Northwest 52nd Street", "building": "house", "building:levels": "1"}}}, {"type": "Feature", "geometry": {"type": "Polygon", "coordinates": [[[-97.5518847, 35.5234704], [-97.5517254, 35.5234457], [-97.5517509, 35.5233368], [-97.551784, 35.5233419], [-97.5517863, 35.5233325], [-97.5518365, 35.5233403], [-97.5518317, 35.5233607], [-97.5519076, 35.5233725], [-97.5518847, 35.5234704]]]}, "properties": {"osm_id": 336938500, "building": "house", "name": "", "height": null, "height_m": 3.0, "levels": 1, "tract_id": "40109106502", "tract_name": "1065.02", "tags": {"addr:city": "Oklahoma City", "addr:housenumber": "2253", "addr:postcode": "73112", "addr:state": "OK", "addr:street": "Northwest 52nd Street", "building": "house", "building:levels": "1"}}}, {"type": "Feature", "geometry": {"type": "Polygon", "coordinates": [[[-97.5520552, 35.5235435], [-97.551989, 35.5235328], [-97.5520045, 35.5234698], [-97.5519903, 35.5234675], [-97.5519873, 35.5234799], [-97.5519754, 35.5234779], [-97.5519655, 35.5235182], [-97.5518926, 35.5235064], [-97.5519174, 35.5234054], [-97.55193, 35.5234074], [-97.5519409, 35.5233627], [-97.5520386, 35.5233786], [-97.5520401, 35.5233727], [-97.552095, 35.5233816], [-97.5520552, 35.5235435]]]}, "properties": {"osm_id": 336938501, "building": "house", "name": "", "height": null, "height_m": 3.0, "levels": 1, "tract_id": "40109106502", "tract_name": "1065.02", "tags": {"addr:city": "Oklahoma City", "addr:housenumber": "2257", "addr:postcode": "73112", "addr:state": "OK", "addr:street": "Northwest 52nd Street", "building": "house", "building:levels": "1"}}}, {"type": "Feature", "geometry": {"type": "Polygon", "coordinates": [[[-97.5521619, 35.5234951], [-97.5521568, 35.5235162], [-97.5520835, 35.5235045], [-97.5521131, 35.5233822], [-97.5522947, 35.5234113], [-97.5522702, 35.5235125], [-97.5521619, 35.5234951]]]}, "properties": {"osm_id": 336938502, "building": "house", "name": "", "height": null, "height_m": 3.0, "levels": 1, "tract_id": "40109106502", "tract_name": "1065.02", "tags": {"addr:city": "Oklahoma City", "addr:housenumber": "2261", "addr:postcode": "73112", "addr:state": "OK", "addr:street": "Northwest 52nd Street", "building": "house", "building:levels": "1"}}}, {"type": "Feature", "geometry": {"type": "Polygon", "coordinates": [[[-97.5523908, 35.5236744], [-97.5524046, 35.5236175], [-97.5523334, 35.5236061], [-97.5523196, 35.523663], [-97.5523908, 35.5236744]]]}, "properties": {"osm_id": 336938503, "building": "shed", "name": "", "height": null, "height_m": null, "levels": null, "tract_id": "40109106502", "tract_name": "1065.02", "tags": {"building": "shed"}}}, {"type": "Feature", "geometry": {"type": "Polygon", "coordinates": [[[-97.5527914, 35.5237676], [-97.5527431, 35.5237604], [-97.5527516, 35.5237227], [-97.5527998, 35.5237299], [-97.5527914, 35.5237676]]]}, "properties": {"osm_id": 336938504, "building": "shed", "name": "", "height": null, "height_m": null, "levels": null, "tract_id": "40109106502", "tract_name": "1065.02", "tags": {"building": "shed"}}}, {"type": "Feature", "geometry": {"type": "Polygon", "coordinates": [[[-97.5523495, 35.5235491], [-97.5522836, 35.5235389], [-97.552311, 35.5234209], [-97.5524823, 35.5234472], [-97.5524592, 35.5235467], [-97.5523538, 35.5235305], [-97.5523495, 35.5235491]]]}, "properties": {"osm_id": 336938505, "building": "house", "name": "", "height": null, "height_m": 3.0, "levels": 1, "tract_id": "40109106502", "tract_name": "1065.02", "tags": {"addr:city": "Oklahoma City", "addr:housenumber": "2265", "addr:postcode": "73112", "addr:state": "OK", "addr:street": "Northwest 52nd Street", "building": "house", "building:levels": "1"}}}, {"type": "Feature", "geometry": {"type": "Polygon", "coordinates": [[[-97.5526436, 35.5235964], [-97.5524766, 35.5235672], [-97.5525087, 35.5234457], [-97.5525954, 35.5234609], [-97.5525893, 35.5234839], [-97.5526696, 35.523498], [-97.5526436, 35.5235964]]]}, "properties": {"osm_id": 336938506, "building": "house", "name": "", "height": null, "height_m": 3.0, "levels": 1, "tract_id": "40109106502", "tract_name": "1065.02", "tags": {"addr:city": "Oklahoma City", "addr:housenumber": "2301", "addr:postcode": "73112", "addr:state": "OK", "addr:street": "Northwest 52nd Street", "building": "house", "building:levels": "1"}}}, {"type": "Feature", "geometry": {"type": "Polygon", "coordinates": [[[-97.5528155, 35.5236304], [-97.5527892, 35.5236258], [-97.5527911, 35.5236186], [-97.5526631, 35.5235961], [-97.5526895, 35.5234965], [-97.5527943, 35.523515], [-97.5527979, 35.5235014], [-97.5528475, 35.5235101], [-97.5528155, 35.5236304]]]}, "properties": {"osm_id": 336938827, "building": "house", "name": "", "height": null, "height_m": 3.0, "levels": 1, "tract_id": "40109106502", "tract_name": "1065.02", "tags": {"addr:city": "Oklahoma City", "addr:housenumber": "2305", "addr:postcode": "73112", "addr:state": "OK", "addr:street": "Northwest 52nd Street", "building": "house", "building:levels": "1"}}}, {"type": "Feature", "geometry": {"type": "Polygon", "coordinates": [[[-97.5530048, 35.5236491], [-97.5529074, 35.523632], [-97.5529023, 35.5236513], [-97.5528331, 35.5236392], [-97.5528623, 35.523529], [-97.5529339, 35.5235416], [-97.5529365, 35.5235317], [-97.552974, 35.5235383], [-97.5529766, 35.5235286], [-97.5530341, 35.5235387], [-97.5530048, 35.5236491]]]}, "properties": {"osm_id": 336938828, "building": "house", "name": "", "height": null, "height_m": 3.0, "levels": 1, "tract_id": "40109106502", "tract_name": "1065.02", "tags": {"addr:city": "Oklahoma City", "addr:housenumber": "2309", "addr:postcode": "73112", "addr:state": "OK", "addr:street": "Northwest 52nd Street", "building": "house", "building:levels": "1"}}}, {"type": "Feature", "geometry": {"type": "Polygon", "coordinates": [[[-97.5523066, 35.5229763], [-97.5522388, 35.522977], [-97.5522381, 35.5229451], [-97.5522447, 35.522945], [-97.5523063, 35.5229447], [-97.5523066, 35.5229763]]]}, "properties": {"osm_id": 336938829, "building": "roof", "name": "", "height": null, "height_m": null, "levels": null, "tract_id": "40109106502", "tract_name": "1065.02", "tags": {"building": "roof", "layer": "1"}}}, {"type": "Feature", "geometry": {"type": "Polygon", "coordinates": [[[-97.5519496, 35.5229613], [-97.5519545, 35.5229412], [-97.5518718, 35.5229279], [-97.5518669, 35.5229479], [-97.5519496, 35.5229613]]]}, "properties": {"osm_id": 336938830, "building": "roof", "name": "", "height": null, "height_m": null, "levels": null, "tract_id": "40109106502", "tract_name": "1065.02", "tags": {"building": "roof", "layer": "1"}}}, {"type": "Feature", "geometry": {"type": "Polygon", "coordinates": [[[-97.5517477, 35.5229388], [-97.5517565, 35.5229072], [-97.5516992, 35.5228966], [-97.5516904, 35.5229282], [-97.5517477, 35.5229388]]]}, "properties": {"osm_id": 336938831, "building": "roof", "name": "", "height": null, "height_m": null, "levels": null, "tract_id": "40109106502", "tract_name": "1065.02", "tags": {"building": "roof", "layer": "1"}}}, {"type": "Feature", "geometry": {"type": "Polygon", "coordinates": [[[-97.5522688, 35.5230789], [-97.5522818, 35.5230803], [-97.552291, 35.5230231], [-97.5521991, 35.5230133], [-97.5521964, 35.5230304], [-97.5522752, 35.5230387], [-97.5522688, 35.5230789]]]}, "properties": {"osm_id": 336938832, "building": "roof", "name": "", "height": null, "height_m": null, "levels": null, "tract_id": "40109106502", "tract_name": "1065.02", "tags": {"building": "roof", "layer": "1"}}}, {"type": "Feature", "geometry": {"type": "Polygon", "coordinates": [[[-97.5528017, 35.5227144], [-97.5527267, 35.522715], [-97.5527276, 35.5227894], [-97.552601, 35.5227904], [-97.5526, 35.5227072], [-97.5526188, 35.5227071], [-97.5526182, 35.5226616], [-97.552801, 35.5226601], [-97.5528017, 35.5227144]]]}, "properties": {"osm_id": 337282259, "building": "house", "name": "", "height": null, "height_m": 3.0, "levels": 1, "tract_id": "40109106502", "tract_name": "1065.02", "tags": {"addr:city": "Oklahoma City", "addr:housenumber": "5111", "addr:postcode": "73112", "addr:state": "OK", "addr:street": "North Youngs Boulevard", "building": "house", "building:levels": "1"}}}, {"type": "Feature", "geometry": {"type": "Polygon", "coordinates": [[[-97.5526559, 35.52259], [-97.5525715, 35.5225914], [-97.5525702, 35.5225351], [-97.55256, 35.5225352], [-97.5525597, 35.5225216], [-97.5525517, 35.5225217], [-97.5525497, 35.5224397], [-97.5525581, 35.5224396], [-97.552557, 35.5223922], [-97.5526958, 35.52239], [-97.5526976, 35.5224651], [-97.5526529, 35.5224658], [-97.5526559, 35.52259]]]}, "properties": {"osm_id": 337282260, "building": "house", "name": "", "height": null, "height_m": 3.0, "levels": 1, "tract_id": "40109106502", "tract_name": "1065.02", "tags": {"addr:city": "Oklahoma City", "addr:housenumber": "5101", "addr:postcode": "73112", "addr:state": "OK", "addr:street": "North Youngs Boulevard", "building": "house", "building:levels": "1"}}}, {"type": "Feature", "geometry": {"type": "Polygon", "coordinates": [[[-97.552745, 35.5229351], [-97.5527434, 35.5228635], [-97.5527542, 35.5228634], [-97.5527528, 35.5228055], [-97.5526156, 35.5228076], [-97.5526176, 35.5228919], [-97.5526046, 35.5228921], [-97.5526057, 35.5229373], [-97.552745, 35.5229351]]]}, "properties": {"osm_id": 337282261, "building": "house", "name": "", "height": null, "height_m": 3.0, "levels": 1, "tract_id": "40109106502", "tract_name": "1065.02", "tags": {"addr:city": "Oklahoma City", "addr:housenumber": "5115", "addr:postcode": "73112", "addr:state": "OK", "addr:street": "North Youngs Boulevard", "building": "house", "building:levels": "1"}}}, {"type": "Feature", "geometry": {"type": "Polygon", "coordinates": [[[-97.5527876, 35.5230814], [-97.5526051, 35.5230824], [-97.5526047, 35.5230383], [-97.5526234, 35.5230382], [-97.5526228, 35.5229571], [-97.5527866, 35.5229562], [-97.5527876, 35.5230814]]]}, "properties": {"osm_id": 337282262, "building": "house", "name": "", "height": null, "height_m": 3.0, "levels": 1, "tract_id": "40109106502", "tract_name": "1065.02", "tags": {"addr:city": "Oklahoma City", "addr:housenumber": "5119", "addr:postcode": "73112", "addr:state": "OK", "addr:street": "North Youngs Boulevard", "building": "house", "building:levels": "1"}}}, {"type": "Feature", "geometry": {"type": "Polygon", "coordinates": [[[-97.5528798, 35.523273], [-97.5528995, 35.5231946], [-97.5528171, 35.5231809], [-97.5528149, 35.52319], [-97.5527939, 35.5231865], [-97.5527562, 35.5231587], [-97.5527643, 35.5231514], [-97.5527238, 35.5231214], [-97.5527075, 35.523136], [-97.5526582, 35.5230996], [-97.55261, 35.5231428], [-97.5526306, 35.523158], [-97.5526016, 35.5231841], [-97.5526657, 35.5232315], [-97.5526851, 35.5232142], [-97.5527313, 35.5232484], [-97.5528798, 35.523273]]]}, "properties": {"osm_id": 337282263, "building": "house", "name": "", "height": null, "height_m": 3.0, "levels": 1, "tract_id": "40109106502", "tract_name": "1065.02", "tags": {"addr:city": "Oklahoma City", "addr:housenumber": "2300", "addr:postcode": "73112", "addr:state": "OK", "addr:street": "Northwest 52nd Street", "building": "house", "building:levels": "1"}}}, {"type": "Feature", "geometry": {"type": "Polygon", "coordinates": [[[-97.5532854, 35.5232828], [-97.553211, 35.5232834], [-97.5532111, 35.5232891], [-97.5531736, 35.5232894], [-97.5531738, 35.5233084], [-97.5530864, 35.523309], [-97.5530862, 35.5232899], [-97.5530059, 35.5232905], [-97.5530055, 35.5232486], [-97.5530284, 35.5232485], [-97.553028, 35.5232179], [-97.5532847, 35.523216], [-97.5532854, 35.5232828]]]}, "properties": {"osm_id": 337282264, "building": "house", "name": "", "height": null, "height_m": 3.0, "levels": 1, "tract_id": "40109106502", "tract_name": "1065.02", "tags": {"addr:city": "Oklahoma City", "addr:housenumber": "2312", "addr:postcode": "73112", "addr:state": "OK", "addr:street": "Northwest 52nd Street", "building": "house", "building:levels": "1"}}}, {"type": "Feature", "geometry": {"type": "Polygon", "coordinates": [[[-97.553263, 35.5231328], [-97.5531182, 35.5231341], [-97.553117, 35.5230446], [-97.5531102, 35.5230447], [-97.5531095, 35.522989], [-97.5532738, 35.5229876], [-97.5532749, 35.523072], [-97.5532622, 35.5230721], [-97.553263, 35.5231328]]]}, "properties": {"osm_id": 337282265, "building": "house", "name": "", "height": null, "height_m": 3.0, "levels": 1, "tract_id": "40109106502", "tract_name": "1065.02", "tags": {"addr:city": "Oklahoma City", "addr:housenumber": "5118", "addr:postcode": "73112", "addr:state": "OK", "addr:street": "North Cross Avenue", "building": "house", "building:levels": "1"}}}, {"type": "Feature", "geometry": {"type": "Polygon", "coordinates": [[[-97.5532612, 35.5229678], [-97.5532603, 35.5229399], [-97.553271, 35.5229396], [-97.5532692, 35.5228805], [-97.5532866, 35.5228801], [-97.5532846, 35.5228139], [-97.5531388, 35.5228168], [-97.5531405, 35.522876], [-97.5531565, 35.5228757], [-97.5531593, 35.5229698], [-97.5532612, 35.5229678]]]}, "properties": {"osm_id": 337282266, "building": "house", "name": "", "height": null, "height_m": 3.0, "levels": 1, "tract_id": "40109106502", "tract_name": "1065.02", "tags": {"addr:city": "Oklahoma City", "addr:housenumber": "5114", "addr:postcode": "73112", "addr:state": "OK", "addr:street": "North Cross Avenue", "building": "house", "building:levels": "1"}}}, {"type": "Feature", "geometry": {"type": "Polygon", "coordinates": [[[-97.5532656, 35.5228005], [-97.5531414, 35.5228018], [-97.5531392, 35.5226616], [-97.553277, 35.5226602], [-97.5532783, 35.5227468], [-97.5532647, 35.522747], [-97.5532656, 35.5228005]]]}, "properties": {"osm_id": 337282267, "building": "house", "name": "", "height": null, "height_m": 3.0, "levels": 1, "tract_id": "40109106502", "tract_name": "1065.02", "tags": {"addr:city": "Oklahoma City", "addr:housenumber": "5110", "addr:postcode": "73112", "addr:state": "OK", "addr:street": "North Cross Avenue", "building": "house", "building:levels": "1"}}}, {"type": "Feature", "geometry": {"type": "Polygon", "coordinates": [[[-97.553278, 35.5225984], [-97.5531954, 35.5225991], [-97.5531928, 35.5223897], [-97.5533061, 35.5223888], [-97.5533067, 35.5224421], [-97.5532867, 35.5224422], [-97.5532878, 35.5225347], [-97.5532772, 35.5225348], [-97.553278, 35.5225984]]]}, "properties": {"osm_id": 337282268, "building": "house", "name": "", "height": null, "height_m": 3.0, "levels": 1, "tract_id": "40109106502", "tract_name": "1065.02", "tags": {"addr:city": "Oklahoma City", "addr:housenumber": "5100", "addr:postcode": "73112", "addr:state": "OK", "addr:street": "North Cross Avenue", "building": "house", "building:levels": "1"}}}, {"type": "Feature", "geometry": {"type": "Polygon", "coordinates": [[[-97.5529281, 35.5225084], [-97.5527495, 35.5225102], [-97.5527477, 35.5223986], [-97.5528445, 35.5223976], [-97.5528444, 35.5223869], [-97.5529262, 35.5223861], [-97.5529281, 35.5225084]]]}, "properties": {"osm_id": 337282269, "building": "house", "name": "", "height": null, "height_m": 3.0, "levels": 1, "tract_id": "40109106502", "tract_name": "1065.02", "tags": {"addr:city": "Oklahoma City", "addr:housenumber": "2305", "addr:postcode": "73112", "addr:state": "OK", "addr:street": "Northwest 50th Street", "building": "house", "building:levels": "1"}}}, {"type": "Feature", "geometry": {"type": "Polygon", "coordinates": [[[-97.5531096, 35.5225417], [-97.5530182, 35.5225425], [-97.5530182, 35.5225489], [-97.5529526, 35.5225494], [-97.5529512, 35.5224425], [-97.5530093, 35.522442], [-97.5530092, 35.5224366], [-97.553027, 35.5224364], [-97.5530265, 35.5223959], [-97.5531077, 35.5223952], [-97.5531096, 35.5225417]]]}, "properties": {"osm_id": 337282270, "building": "house", "name": "", "height": null, "height_m": 3.0, "levels": 1, "tract_id": "40109106502", "tract_name": "1065.02", "tags": {"addr:city": "Oklahoma City", "addr:housenumber": "2309", "addr:postcode": "73112", "addr:state": "OK", "addr:street": "Northwest 50th Street", "building": "house", "building:levels": "1"}}}, {"type": "Feature", "geometry": {"type": "Polygon", "coordinates": [[[-97.5531907, 35.5236724], [-97.5530359, 35.5236443], [-97.5530579, 35.5235642], [-97.5531513, 35.5235812], [-97.5531566, 35.523562], [-97.553218, 35.5235731], [-97.5531907, 35.5236724]]]}, "properties": {"osm_id": 337285111, "building": "house", "name": "", "height": null, "height_m": 3.0, "levels": 1, "tract_id": "40109106502", "tract_name": "1065.02", "tags": {"addr:city": "Oklahoma City", "addr:housenumber": "2313", "addr:postcode": "73112", "addr:state": "OK", "addr:street": "Northwest 52nd Street", "building": "house", "building:levels": "1"}}}, {"type": "Feature", "geometry": {"type": "Polygon", "coordinates": [[[-97.5533689, 35.5237143], [-97.5533993, 35.5235982], [-97.5533029, 35.5235815], [-97.5532966, 35.5236054], [-97.5532295, 35.5235937], [-97.5532053, 35.5236859], [-97.5533689, 35.5237143]]]}, "properties": {"osm_id": 337285112, "building": "house", "name": "", "height": null, "height_m": 3.0, "levels": 1, "tract_id": "40109106502", "tract_name": "1065.02", "tags": {"addr:city": "Oklahoma City", "addr:housenumber": "2317", "addr:postcode": "73112", "addr:state": "OK", "addr:street": "Northwest 52nd Street", "building": "house", "building:levels": "1"}}}, {"type": "Feature", "geometry": {"type": "Polygon", "coordinates": [[[-97.5538727, 35.5219304], [-97.5538727, 35.5219433], [-97.5538648, 35.5219523], [-97.5538577, 35.5219566], [-97.5538438, 35.5219616], [-97.5538276, 35.5219611], [-97.5538136, 35.5219555], [-97.5538073, 35.5219499], [-97.5538026, 35.5219434], [-97.5537999, 35.521937], [-97.5537996, 35.5219312], [-97.5538727, 35.5219304]]]}, "properties": {"osm_id": 337286635, "building": "roof", "name": "", "height": null, "height_m": null, "levels": null, "tract_id": "40109106502", "tract_name": "1065.02", "tags": {"building": "roof"}}}, {"type": "Feature", "geometry": {"type": "Polygon", "coordinates": [[[-97.5532282, 35.5220014], [-97.5531735, 35.5220017], [-97.5531657, 35.5220017], [-97.5531657, 35.5219972], [-97.5531656, 35.5219865], [-97.5531655, 35.5219694], [-97.5531655, 35.5219601], [-97.5531654, 35.5219528], [-97.5531735, 35.5219523], [-97.5532279, 35.5219525], [-97.5532282, 35.5220014]]]}, "properties": {"osm_id": 337913802, "building": "roof", "name": "", "height": null, "height_m": null, "levels": null, "tract_id": "40109106502", "tract_name": "1065.02", "tags": {"building": "roof"}}}, {"type": "Feature", "geometry": {"type": "Polygon", "coordinates": [[[-97.5538311, 35.5215297], [-97.5538312, 35.521535], [-97.5538019, 35.5215352], [-97.5537707, 35.5215359], [-97.5537705, 35.5215147], [-97.5537697, 35.5214846], [-97.5538308, 35.5214843], [-97.5538311, 35.5215297]]]}, "properties": {"osm_id": 337913805, "building": "roof", "name": "", "height": null, "height_m": null, "levels": null, "tract_id": "40109106502", "tract_name": "1065.02", "tags": {"building": "roof"}}}, {"type": "Feature", "geometry": {"type": "Polygon", "coordinates": [[[-97.5534985, 35.5215371], [-97.5534984, 35.5215159], [-97.5534973, 35.5214741], [-97.553423, 35.5214746], [-97.5534234, 35.5215163], [-97.5534235, 35.5215277], [-97.5534236, 35.5215381], [-97.5534612, 35.5215376], [-97.5534985, 35.5215371]]]}, "properties": {"osm_id": 337913810, "building": "roof", "name": "", "height": null, "height_m": null, "levels": null, "tract_id": "40109106502", "tract_name": "1065.02", "tags": {"building": "roof"}}}, {"type": "Feature", "geometry": {"type": "Polygon", "coordinates": [[[-97.5534413, 35.5220419], [-97.5532702, 35.5220432], [-97.5532699, 35.5220161], [-97.5533069, 35.5220159], [-97.5533573, 35.5220151], [-97.553411, 35.5220146], [-97.5534413, 35.5220135], [-97.5534413, 35.5220419]]]}, "properties": {"osm_id": 337913819, "building": "roof", "name": "", "height": null, "height_m": null, "levels": null, "tract_id": "40109106502", "tract_name": "1065.02", "tags": {"building": "roof"}}}, {"type": "Feature", "geometry": {"type": "Polygon", "coordinates": [[[-97.5537356, 35.5224785], [-97.5536589, 35.5224785], [-97.5536589, 35.5225105], [-97.5535487, 35.5225105], [-97.5535487, 35.5223968], [-97.553651, 35.5223968], [-97.553651, 35.5223832], [-97.5537356, 35.5223832], [-97.5537356, 35.5224785]]]}, "properties": {"osm_id": 340472159, "building": "house", "name": "", "height": null, "height_m": null, "levels": null, "tract_id": "40109106502", "tract_name": "1065.02", "tags": {"addr:city": "Oklahoma City", "addr:housenumber": "2321", "addr:postcode": "73112", "addr:state": "OK", "addr:street": "Northwest 50th Street", "building": "house"}}}, {"type": "Feature", "geometry": {"type": "Polygon", "coordinates": [[[-97.5539367, 35.52249], [-97.5537631, 35.5224912], [-97.5537622, 35.522408], [-97.5538346, 35.5224075], [-97.5538345, 35.5223972], [-97.5538813, 35.5223969], [-97.5538811, 35.5223806], [-97.5539356, 35.5223802], [-97.5539367, 35.52249]]]}, "properties": {"osm_id": 340472160, "building": "house", "name": "", "height": null, "height_m": null, "levels": null, "tract_id": "40109106502", "tract_name": "1065.02", "tags": {"addr:city": "Oklahoma City", "addr:housenumber": "2325", "addr:postcode": "73112", "addr:state": "OK", "addr:street": "Northwest 50th Street", "building": "house"}}}, {"type": "Feature", "geometry": {"type": "Polygon", "coordinates": [[[-97.5541319, 35.5224703], [-97.5540538, 35.5224709], [-97.5540541, 35.5224999], [-97.5539589, 35.5225006], [-97.5539577, 35.522392], [-97.5540584, 35.5223913], [-97.5540583, 35.5223797], [-97.5541309, 35.5223792], [-97.5541319, 35.5224703]]]}, "properties": {"osm_id": 340472161, "building": "house", "name": "", "height": null, "height_m": null, "levels": null, "tract_id": "40109106502", "tract_name": "1065.02", "tags": {"addr:city": "Oklahoma City", "addr:housenumber": "2329", "addr:postcode": "73112", "addr:state": "OK", "addr:street": "Northwest 50th Street", "building": "house"}}}, {"type": "Feature", "geometry": {"type": "Polygon", "coordinates": [[[-97.5543417, 35.5224882], [-97.554331, 35.5224882], [-97.5543316, 35.5225488], [-97.5542578, 35.5225493], [-97.5542578, 35.5224887], [-97.554155, 35.5224882], [-97.5541525, 35.5223783], [-97.5542168, 35.5223783], [-97.5542168, 35.5223881], [-97.5542484, 35.5223896], [-97.5542484, 35.5224081], [-97.5543417, 35.5224086], [-97.5543417, 35.5224882]]]}, "properties": {"osm_id": 340472162, "building": "house", "name": "", "height": null, "height_m": null, "levels": null, "tract_id": "40109106502", "tract_name": "1065.02", "tags": {"addr:city": "Oklahoma City", "addr:housenumber": "2333", "addr:postcode": "73112", "addr:state": "OK", "addr:street": "Northwest 50th Street", "building": "house"}}}, {"type": "Feature", "geometry": {"type": "Polygon", "coordinates": [[[-97.5542879, 35.5227928], [-97.5542873, 35.5227261], [-97.5542812, 35.5227261], [-97.5542784, 35.5226433], [-97.5541408, 35.5226461], [-97.5541435, 35.522709], [-97.5541632, 35.522709], [-97.5541666, 35.5227945], [-97.5542879, 35.5227928]]]}, "properties": {"osm_id": 340477690, "building": "house", "name": "", "height": null, "height_m": null, "levels": null, "tract_id": "40109106502", "tract_name": "1065.02", "tags": {"addr:city": "Oklahoma City", "addr:housenumber": "5110", "addr:postcode": "73112", "addr:state": "OK", "addr:street": "North Billen Avenue", "building": "house"}}}, {"type": "Feature", "geometry": {"type": "Polygon", "coordinates": [[[-97.5542822, 35.5229539], [-97.5542812, 35.5229083], [-97.5543009, 35.522908], [-97.5542998, 35.5228554], [-97.5542911, 35.5228556], [-97.5542902, 35.5228129], [-97.5541315, 35.522815], [-97.5541328, 35.5228814], [-97.5541686, 35.5228809], [-97.5541702, 35.5229555], [-97.5542822, 35.5229539]]]}, "properties": {"osm_id": 340477692, "building": "house", "name": "", "height": null, "height_m": null, "levels": null, "tract_id": "40109106502", "tract_name": "1065.02", "tags": {"addr:city": "Oklahoma City", "addr:housenumber": "5114", "addr:postcode": "73112", "addr:state": "OK", "addr:street": "North Billen Avenue", "building": "house"}}}, {"type": "Feature", "geometry": {"type": "Polygon", "coordinates": [[[-97.5540455, 35.5231233], [-97.553986, 35.523124], [-97.5539846, 35.5230529], [-97.5540441, 35.5230522], [-97.5540455, 35.5231233]]]}, "properties": {"osm_id": 340477694, "building": "shed", "name": "", "height": null, "height_m": null, "levels": null, "tract_id": "40109106502", "tract_name": "1065.02", "tags": {"building": "shed"}}}, {"type": "Feature", "geometry": {"type": "Polygon", "coordinates": [[[-97.5555963, 35.5219606], [-97.5556399, 35.5219897], [-97.5556946, 35.5219861], [-97.5556265, 35.5219342], [-97.5555959, 35.5219346], [-97.5555963, 35.5219606]]]}, "properties": {"osm_id": 340477696, "building": "roof", "name": "", "height": null, "height_m": null, "levels": null, "tract_id": "40109106502", "tract_name": "1065.02", "tags": {"building": "roof"}}}, {"type": "Feature", "geometry": {"type": "Polygon", "coordinates": [[[-97.5556229, 35.5215739], [-97.5556232, 35.5215074], [-97.5555875, 35.5215082], [-97.5555878, 35.5215742], [-97.5556229, 35.5215739]]]}, "properties": {"osm_id": 340477713, "building": "roof", "name": "", "height": null, "height_m": null, "levels": null, "tract_id": "40109106502", "tract_name": "1065.02", "tags": {"building": "roof"}}}, {"type": "Feature", "geometry": {"type": "Polygon", "coordinates": [[[-97.5542744, 35.5231187], [-97.5541688, 35.5231199], [-97.5541662, 35.5229697], [-97.5542873, 35.5229683], [-97.5542889, 35.5230597], [-97.5542734, 35.5230599], [-97.5542744, 35.5231187]]]}, "properties": {"osm_id": 340477716, "building": "house", "name": "", "height": null, "height_m": null, "levels": null, "tract_id": "40109106502", "tract_name": "1065.02", "tags": {"addr:city": "Oklahoma City", "addr:housenumber": "5200", "addr:postcode": "73112", "addr:state": "OK", "addr:street": "North Billen Avenue", "building": "house"}}}, {"type": "Feature", "geometry": {"type": "Polygon", "coordinates": [[[-97.5537471, 35.5227815], [-97.5536155, 35.522784], [-97.5536144, 35.5227446], [-97.5536336, 35.5227442], [-97.553631, 35.5226539], [-97.5537682, 35.5226514], [-97.5537695, 35.5226959], [-97.5537447, 35.5226963], [-97.5537471, 35.5227815]]]}, "properties": {"osm_id": 340477717, "building": "house", "name": "", "height": null, "height_m": null, "levels": null, "tract_id": "40109106502", "tract_name": "1065.02", "tags": {"addr:city": "Oklahoma City", "addr:housenumber": "5111", "addr:postcode": "73112", "addr:state": "OK", "addr:street": "North Cross Avenue", "building": "house"}}}, {"type": "Feature", "geometry": {"type": "Polygon", "coordinates": [[[-97.5537565, 35.5229367], [-97.5536117, 35.5229382], [-97.5536108, 35.5228579], [-97.5536389, 35.5228579], [-97.553638, 35.5227998], [-97.5537529, 35.5227968], [-97.5537565, 35.5229367]]]}, "properties": {"osm_id": 340477718, "building": "house", "name": "", "height": null, "height_m": null, "levels": null, "tract_id": "40109106502", "tract_name": "1065.02", "tags": {"addr:city": "Oklahoma City", "addr:housenumber": "5115", "addr:postcode": "73112", "addr:state": "OK", "addr:street": "North Cross Avenue", "building": "house"}}}, {"type": "Feature", "geometry": {"type": "Polygon", "coordinates": [[[-97.5537552, 35.523086], [-97.5536257, 35.5230874], [-97.5536251, 35.5230478], [-97.5536439, 35.5230476], [-97.5536424, 35.5229574], [-97.5537791, 35.5229559], [-97.5537799, 35.5230074], [-97.5537539, 35.5230077], [-97.5537552, 35.523086]]]}, "properties": {"osm_id": 340477719, "building": "house", "name": "", "height": null, "height_m": null, "levels": null, "tract_id": "40109106502", "tract_name": "1065.02", "tags": {"addr:city": "Oklahoma City", "addr:housenumber": "5119", "addr:postcode": "73112", "addr:state": "OK", "addr:street": "North Cross Avenue", "building": "house"}}}, {"type": "Feature", "geometry": {"type": "Polygon", "coordinates": [[[-97.5537593, 35.5232376], [-97.5536089, 35.5232383], [-97.5536083, 35.5231596], [-97.5536389, 35.5231595], [-97.5536385, 35.523101], [-97.5537583, 35.5231004], [-97.5537593, 35.5232376]]]}, "properties": {"osm_id": 340477720, "building": "house", "name": "", "height": null, "height_m": null, "levels": null, "tract_id": "40109106502", "tract_name": "1065.02", "tags": {"addr:city": "Oklahoma City", "addr:housenumber": "5123", "addr:postcode": "73112", "addr:state": "OK", "addr:street": "North Cross Avenue", "building": "house"}}}, {"type": "Feature", "geometry": {"type": "Polygon", "coordinates": [[[-97.5542939, 35.523283], [-97.5541606, 35.5232841], [-97.5541589, 35.5231445], [-97.5542922, 35.5231434], [-97.5542939, 35.523283]]]}, "properties": {"osm_id": 340477721, "building": "house", "name": "", "height": null, "height_m": null, "levels": null, "tract_id": "40109106502", "tract_name": "1065.02", "tags": {"addr:city": "Oklahoma City", "addr:housenumber": "5204", "addr:postcode": "73112", "addr:state": "OK", "addr:street": "North Billen Avenue", "building": "house"}}}, {"type": "Feature", "geometry": {"type": "Polygon", "coordinates": [[[-97.5538403, 35.5234375], [-97.553869, 35.5233293], [-97.5536198, 35.5232856], [-97.5535974, 35.5233703], [-97.5537427, 35.5233958], [-97.5537364, 35.5234193], [-97.5538403, 35.5234375]]]}, "properties": {"osm_id": 340477722, "building": "house", "name": "", "height": null, "height_m": null, "levels": null, "tract_id": "40109106502", "tract_name": "1065.02", "tags": {"addr:city": "Oklahoma City", "addr:housenumber": "2326", "addr:postcode": "73112", "addr:state": "OK", "addr:street": "Northwest 52nd Street", "building": "house"}}}, {"type": "Feature", "geometry": {"type": "Polygon", "coordinates": [[[-97.5543069, 35.5234769], [-97.5540886, 35.5234803], [-97.5540868, 35.5234066], [-97.5541868, 35.523405], [-97.5541849, 35.5233244], [-97.5543032, 35.5233225], [-97.5543069, 35.5234769]]]}, "properties": {"osm_id": 340477723, "building": "house", "name": "", "height": null, "height_m": null, "levels": null, "tract_id": "40109106502", "tract_name": "1065.02", "tags": {"addr:city": "Oklahoma City", "addr:housenumber": "5208", "addr:postcode": "73112", "addr:state": "OK", "addr:street": "North Billen Avenue", "building": "house"}}}, {"type": "Feature", "geometry": {"type": "Polygon", "coordinates": [[[-97.5482474, 35.511768], [-97.5480398, 35.5117662], [-97.5480424, 35.5115689], [-97.54825, 35.5115707], [-97.5482474, 35.511768]]]}, "properties": {"osm_id": 406837612, "building": "yes", "name": "Angles", "height": null, "height_m": null, "levels": null, "tract_id": "40109106502", "tract_name": "1065.02", "tags": {"addr:housenumber": "2117", "addr:street": "Northwest 39th Street", "amenity": "nightclub", "building": "yes", "contact:facebook": "angles.okc.5", "contact:instagram": "anglesokc", "lgbtq": "primary", "min_age": "21", "name": "Angles", "opening_hours": "Su 13:00+; Fr 18:00-02:00; Sa 09:00-02:00", "phone": "+1 405 525 0730", "website": "https://anglesokc.com"}}}, {"type": "Feature", "geometry": {"type": "Polygon", "coordinates": [[[-97.5474353, 35.5118805], [-97.5474313, 35.5115618], [-97.5472717, 35.5115628], [-97.547265, 35.5118772], [-97.5474353, 35.5118805]]]}, "properties": {"osm_id": 470504924, "building": "commercial", "name": "", "height": null, "height_m": null, "levels": null, "tract_id": "40109106502", "tract_name": "1065.02", "tags": {"building": "commercial"}}}, {"type": "Feature", "geometry": {"type": "Polygon", "coordinates": [[[-97.5478309, 35.5123364], [-97.5478295, 35.5119501], [-97.54743, 35.5119511], [-97.5474306, 35.5121176], [-97.5476122, 35.5121171], [-97.547613, 35.512337], [-97.5478309, 35.5123364]]]}, "properties": {"osm_id": 470803273, "building": "commercial", "name": "", "height": null, "height_m": null, "levels": null, "tract_id": "40109106502", "tract_name": "1065.02", "tags": {"building": "commercial"}}}, {"type": "Feature", "geometry": {"type": "Polygon", "coordinates": [[[-97.5477297, 35.5127502], [-97.5477294, 35.5126505], [-97.5476367, 35.5126507], [-97.5476365, 35.5125812], [-97.5472998, 35.5125819], [-97.5473003, 35.5127512], [-97.5477297, 35.5127502]]]}, "properties": {"osm_id": 470803275, "building": "yes", "name": "", "height": null, "height_m": null, "levels": null, "tract_id": "40109106502", "tract_name": "1065.02", "tags": {"amenity": "car_wash", "building": "yes"}}}, {"type": "Feature", "geometry": {"type": "Polygon", "coordinates": [[[-97.5489474, 35.5120367], [-97.5489469, 35.5119218], [-97.5485234, 35.5119231], [-97.5485236, 35.511966], [-97.5484792, 35.5119661], [-97.5484795, 35.5120338], [-97.5485242, 35.5120337], [-97.5485242, 35.512038], [-97.5489474, 35.5120367]]]}, "properties": {"osm_id": 471715078, "building": "yes", "name": "", "height": null, "height_m": null, "levels": null, "tract_id": "40109106502", "tract_name": "1065.02", "tags": {"building": "yes"}}}, {"type": "Feature", "geometry": {"type": "Polygon", "coordinates": [[[-97.5481921, 35.5148649], [-97.5481898, 35.514532], [-97.5480041, 35.5145328], [-97.5480064, 35.5148658], [-97.5481921, 35.5148649]]]}, "properties": {"osm_id": 471715091, "building": "residential", "name": "", "height": null, "height_m": null, "levels": null, "tract_id": "40109106502", "tract_name": "1065.02", "tags": {"building": "residential"}}}, {"type": "Feature", "geometry": {"type": "Polygon", "coordinates": [[[-97.5482798, 35.5145847], [-97.5485142, 35.5144383], [-97.5486793, 35.5144371], [-97.5486817, 35.5146621], [-97.5487975, 35.5146613], [-97.5487932, 35.5142604], [-97.5486828, 35.5142612], [-97.5486837, 35.5143449], [-97.5484458, 35.5143466], [-97.5484153, 35.5143143], [-97.5481696, 35.5144678], [-97.5482798, 35.5145847]]]}, "properties": {"osm_id": 471715093, "building": "residential", "name": "", "height": null, "height_m": null, "levels": null, "tract_id": "40109106502", "tract_name": "1065.02", "tags": {"building": "residential"}}}, {"type": "Feature", "geometry": {"type": "Polygon", "coordinates": [[[-97.5478882, 35.5150144], [-97.547888, 35.5148958], [-97.5483113, 35.5148953], [-97.5483109, 35.514621], [-97.5484146, 35.5146208], [-97.5484148, 35.5147015], [-97.5489371, 35.5147009], [-97.5489373, 35.514799], [-97.5484417, 35.5147995], [-97.5484419, 35.5149285], [-97.5483241, 35.5149287], [-97.5483243, 35.515014], [-97.5478882, 35.5150144]]]}, "properties": {"osm_id": 471715095, "building": "residential", "name": "", "height": null, "height_m": null, "levels": null, "tract_id": "40109106502", "tract_name": "1065.02", "tags": {"building": "residential"}}}, {"type": "Feature", "geometry": {"type": "Polygon", "coordinates": [[[-97.5639055, 35.5128811], [-97.5639038, 35.5127671], [-97.5637637, 35.5127685], [-97.5637644, 35.5128137], [-97.5637273, 35.5128141], [-97.5637284, 35.5128829], [-97.5639055, 35.5128811]]]}, "properties": {"osm_id": 473704518, "building": "house", "name": "", "height": null, "height_m": null, "levels": null, "tract_id": "40109106502", "tract_name": "1065.02", "tags": {"building": "house"}}}, {"type": "Feature", "geometry": {"type": "Polygon", "coordinates": [[[-97.5486549, 35.5179146], [-97.5486549, 35.5178458], [-97.5486549, 35.517777], [-97.5483598, 35.5177781], [-97.5483612, 35.5179178], [-97.5486549, 35.5179146]]]}, "properties": {"osm_id": 473704522, "building": "apartments", "name": "", "height": 10.0, "height_m": 10.0, "levels": 2, "tract_id": "40109106502", "tract_name": "1065.02", "tags": {"addr:city": "Oklahoma City", "addr:housenumber": "4601", "addr:postcode": "73112", "addr:state": "OK", "addr:street": "North Pennsylvania Avenue", "building": "apartments", "building:levels": "2", "height": "10"}}}, {"type": "Feature", "geometry": {"type": "Polygon", "coordinates": [[[-97.5485123, 35.5177138], [-97.5485116, 35.5175768], [-97.5482749, 35.517585], [-97.5482782, 35.5177176], [-97.5485123, 35.5177138]]]}, "properties": {"osm_id": 473704523, "building": "apartments", "name": "", "height": 10.0, "height_m": 10.0, "levels": 2, "tract_id": "40109106502", "tract_name": "1065.02", "tags": {"addr:city": "Oklahoma City", "addr:housenumber": "4515", "addr:postcode": "73112", "addr:state": "OK", "addr:street": "North Pennsylvania Avenue", "building": "apartments", "building:levels": "2", "height": "10"}}}, {"type": "Feature", "geometry": {"type": "Polygon", "coordinates": [[[-97.5484034, 35.5175182], [-97.5484012, 35.5174192], [-97.5480315, 35.5174216], [-97.548033, 35.5175201], [-97.5484034, 35.5175182]]]}, "properties": {"osm_id": 473704524, "building": "apartments", "name": "", "height": 10.0, "height_m": 10.0, "levels": 2, "tract_id": "40109106502", "tract_name": "1065.02", "tags": {"addr:city": "Oklahoma City", "addr:housenumber": "4509", "addr:postcode": "73112", "addr:state": "OK", "addr:street": "North Pennsylvania Avenue", "building": "apartments", "building:levels": "2", "height": "10"}}}, {"type": "Feature", "geometry": {"type": "Polygon", "coordinates": [[[-97.5484381, 35.517348], [-97.5485102, 35.5172697], [-97.5483074, 35.5171461], [-97.5482353, 35.5172245], [-97.5484381, 35.517348]]]}, "properties": {"osm_id": 473704525, "building": "apartments", "name": "", "height": 30.0, "height_m": 30.0, "levels": 2, "tract_id": "40109106502", "tract_name": "1065.02", "tags": {"addr:city": "Oklahoma City", "addr:housenumber": "4507", "addr:postcode": "73112", "addr:state": "OK", "addr:street": "North Pennsylvania Avenue", "building": "apartments", "building:levels": "2", "height": "30"}}}, {"type": "Feature", "geometry": {"type": "Polygon", "coordinates": [[[-97.5486128, 35.5183087], [-97.5486099, 35.5181718], [-97.5482988, 35.5181762], [-97.5483017, 35.5183131], [-97.5486128, 35.5183087]]]}, "properties": {"osm_id": 473704528, "building": "apartments", "name": "", "height": 10.0, "height_m": 10.0, "levels": 2, "tract_id": "40109106502", "tract_name": "1065.02", "tags": {"addr:city": "Oklahoma City", "addr:housenumber": "4613", "addr:postcode": "73112", "addr:state": "OK", "addr:street": "North Pennsylvania Avenue", "building": "apartments", "building:levels": "2", "height": "10"}}}, {"type": "Feature", "geometry": {"type": "Polygon", "coordinates": [[[-97.5485226, 35.5185082], [-97.5485203, 35.5183777], [-97.5482703, 35.5183789], [-97.5482707, 35.5185097], [-97.5485226, 35.5185082]]]}, "properties": {"osm_id": 473704529, "building": "apartments", "name": "", "height": 10.0, "height_m": 10.0, "levels": 2, "tract_id": "40109106502", "tract_name": "1065.02", "tags": {"addr:city": "Oklahoma City", "addr:housenumber": "4619", "addr:postcode": "73112", "addr:state": "OK", "addr:street": "North Pennsylvania Avenue", "building": "apartments", "building:levels": "2", "height": "10"}}}, {"type": "Feature", "geometry": {"type": "Polygon", "coordinates": [[[-97.5489626, 35.5128663], [-97.5489636, 35.5126447], [-97.5486083, 35.5126436], [-97.5486081, 35.512689], [-97.5484484, 35.5126885], [-97.5484476, 35.5128647], [-97.5489626, 35.5128663]]]}, "properties": {"osm_id": 495808238, "building": "commercial", "name": "", "height": null, "height_m": null, "levels": null, "tract_id": "40109106502", "tract_name": "1065.02", "tags": {"building": "commercial"}}}, {"type": "Feature", "geometry": {"type": "Polygon", "coordinates": [[[-97.5583268, 35.5193369], [-97.558273, 35.5193372], [-97.5582732, 35.5193615], [-97.5584586, 35.5193603], [-97.5584599, 35.5194914], [-97.558444, 35.5194915], [-97.5584442, 35.5195067], [-97.5584133, 35.519566], [-97.5582003, 35.5195644], [-97.5581995, 35.5196304], [-97.5582368, 35.5196292], [-97.5582254, 35.5196776], [-97.55824, 35.5196855], [-97.5582282, 35.5196955], [-97.558243, 35.5197468], [-97.5582067, 35.5197473], [-97.5582076, 35.5197843], [-97.5577368, 35.5197915], [-97.5572204, 35.5197995], [-97.5572156, 35.5195918], [-97.5575259, 35.519587], [-97.5581055, 35.519578], [-97.5581054, 35.5195744], [-97.5580194, 35.519576], [-97.5580177, 35.5195152], [-97.5575711, 35.519524], [-97.5575708, 35.5195132], [-97.5575704, 35.5195014], [-97.5575324, 35.5195021], [-97.5575298, 35.5194146], [-97.5580789, 35.5194039], [-97.5580793, 35.5194188], [-97.5581266, 35.519418], [-97.5581236, 35.5193116], [-97.5577475, 35.5193184], [-97.557747, 35.5192988], [-97.5574167, 35.5193045], [-97.5574141, 35.5192031], [-97.5573574, 35.519204], [-97.5573555, 35.5191276], [-97.5582883, 35.5191121], [-97.5582886, 35.5191292], [-97.5582903, 35.5192913], [-97.5583264, 35.5192911], [-97.5583266, 35.5193127], [-97.5583268, 35.5193369]]]}, "properties": {"osm_id": 594287187, "building": "school", "name": "", "height": null, "height_m": null, "levels": null, "tract_id": "40109106502", "tract_name": "1065.02", "tags": {"building": "school"}}}, {"type": "Feature", "geometry": {"type": "Polygon", "coordinates": [[[-97.5584842, 35.5190891], [-97.5580977, 35.519093], [-97.5580905, 35.5189283], [-97.5584818, 35.5189205], [-97.5584842, 35.5190891]]]}, "properties": {"osm_id": 594287188, "building": "school", "name": "", "height": null, "height_m": null, "levels": null, "tract_id": "40109106502", "tract_name": "1065.02", "tags": {"building": "school"}}}, {"type": "Feature", "geometry": {"type": "Polygon", "coordinates": [[[-97.5487659, 35.517516], [-97.5487667, 35.5174131], [-97.5484012, 35.5174192], [-97.5484034, 35.5175182], [-97.5487659, 35.517516]]]}, "properties": {"osm_id": 669192813, "building": "apartments", "name": "", "height": 10.0, "height_m": 10.0, "levels": 2, "tract_id": "40109106502", "tract_name": "1065.02", "tags": {"addr:city": "Oklahoma City", "addr:housenumber": "4511", "addr:postcode": "73112", "addr:state": "OK", "addr:street": "North Pennsylvania Avenue", "building": "apartments", "building:levels": "2", "height": "10"}}}, {"type": "Feature", "geometry": {"type": "Polygon", "coordinates": [[[-97.5487594, 35.517717], [-97.5487621, 35.5175817], [-97.5485116, 35.5175768], [-97.5485123, 35.5177138], [-97.5487594, 35.517717]]]}, "properties": {"osm_id": 669197706, "building": "apartments", "name": "", "height": 10.0, "height_m": 10.0, "levels": 2, "tract_id": "40109106502", "tract_name": "1065.02", "tags": {"addr:city": "Oklahoma City", "addr:housenumber": "4513", "addr:postcode": "73112", "addr:state": "OK", "addr:street": "North Pennsylvania Avenue", "building": "apartments", "building:levels": "2", "height": "10"}}}, {"type": "Feature", "geometry": {"type": "Polygon", "coordinates": [[[-97.5489416, 35.5179082], [-97.5489376, 35.5177729], [-97.5486549, 35.517777], [-97.5486549, 35.5179146], [-97.5489416, 35.5179082]]]}, "properties": {"osm_id": 669197707, "building": "apartments", "name": "", "height": 10.0, "height_m": 10.0, "levels": 2, "tract_id": "40109106502", "tract_name": "1065.02", "tags": {"addr:city": "Oklahoma City", "addr:housenumber": "4603", "addr:postcode": "73112", "addr:state": "OK", "addr:street": "North Pennsylvania Avenue", "building": "apartments", "building:levels": "2", "height": "10"}}}, {"type": "Feature", "geometry": {"type": "Polygon", "coordinates": [[[-97.5488866, 35.5183065], [-97.548886, 35.5181706], [-97.5486099, 35.5181718], [-97.5486128, 35.5183087], [-97.5488866, 35.5183065]]]}, "properties": {"osm_id": 669199013, "building": "apartments", "name": "", "height": 10.0, "height_m": 10.0, "levels": 2, "tract_id": "40109106502", "tract_name": "1065.02", "tags": {"addr:city": "Oklahoma City", "addr:housenumber": "4611", "addr:postcode": "73112", "addr:state": "OK", "building": "apartments", "building:levels": "2", "height": "10"}}}, {"type": "Feature", "geometry": {"type": "Polygon", "coordinates": [[[-97.5487702, 35.5181035], [-97.5487648, 35.5179856], [-97.5485127, 35.5179921], [-97.548518, 35.5181056], [-97.5487702, 35.5181035]]]}, "properties": {"osm_id": 669199025, "building": "apartments", "name": "", "height": 10.0, "height_m": 10.0, "levels": 2, "tract_id": "40109106502", "tract_name": "1065.02", "tags": {"addr:city": "Oklahoma City", "addr:housenumber": "4607", "addr:postcode": "73112", "addr:state": "OK", "addr:street": "North Pennsylvania Avenue", "building": "apartments", "building:levels": "2", "height": "10"}}}, {"type": "Feature", "geometry": {"type": "Polygon", "coordinates": [[[-97.5487674, 35.5185052], [-97.548765, 35.5183748], [-97.5485203, 35.5183777], [-97.5485226, 35.5185082], [-97.5487674, 35.5185052]]]}, "properties": {"osm_id": 669202419, "building": "apartments", "name": "", "height": 10.0, "height_m": 10.0, "levels": 2, "tract_id": "40109106502", "tract_name": "1065.02", "tags": {"addr:city": "Oklahoma City", "addr:housenumber": "4517", "addr:postcode": "73112", "addr:state": "OK", "addr:street": "North Pennsylvania Avenue", "building": "apartments", "building:levels": "2", "height": "10"}}}, {"type": "Feature", "geometry": {"type": "Polygon", "coordinates": [[[-97.5480323, 35.5183723], [-97.548186, 35.5183727], [-97.5481853, 35.518574], [-97.5480316, 35.5185736], [-97.5480323, 35.5183723]]]}, "properties": {"osm_id": 669202420, "building": "apartments", "name": "", "height": 10.0, "height_m": 10.0, "levels": 2, "tract_id": "40109106502", "tract_name": "1065.02", "tags": {"addr:city": "Oklahoma City", "addr:housenumber": "4621", "addr:postcode": "73112", "addr:state": "OK", "addr:street": "North Pennsylvania Avenue", "building": "apartments", "building:levels": "2", "height": "10"}}}, {"type": "Feature", "geometry": {"type": "Polygon", "coordinates": [[[-97.5480327, 35.5181759], [-97.5480323, 35.5183723], [-97.548186, 35.5183727], [-97.5481844, 35.5181753], [-97.5480327, 35.5181759]]]}, "properties": {"osm_id": 669202421, "building": "apartments", "name": "", "height": 10.0, "height_m": 10.0, "levels": 2, "tract_id": "40109106502", "tract_name": "1065.02", "tags": {"addr:city": "Oklahoma City", "addr:housenumber": "4615", "addr:postcode": "73112", "addr:state": "OK", "addr:street": "North Pennsylvania Avenue", "building": "apartments", "building:levels": "2", "height": "10"}}}, {"type": "Feature", "geometry": {"type": "Polygon", "coordinates": [[[-97.5481853, 35.517978], [-97.548034, 35.5179782], [-97.5480327, 35.5181759], [-97.5481844, 35.5181753], [-97.5481853, 35.517978]]]}, "properties": {"osm_id": 669202423, "building": "apartments", "name": "", "height": 10.0, "height_m": 10.0, "levels": 2, "tract_id": "40109106502", "tract_name": "1065.02", "tags": {"addr:city": "Oklahoma City", "addr:housenumber": "4609", "addr:postcode": "73112", "addr:state": "OK", "addr:street": "North Pennsylvania Avenue", "building": "apartments", "building:levels": "2", "height": "10"}}}, {"type": "Feature", "geometry": {"type": "Polygon", "coordinates": [[[-97.5481862, 35.5177785], [-97.5480347, 35.5177808], [-97.548034, 35.5179782], [-97.5481853, 35.517978], [-97.5481862, 35.5177785]]]}, "properties": {"osm_id": 669202424, "building": "apartments", "name": "", "height": 10.0, "height_m": 10.0, "levels": 2, "tract_id": "40109106502", "tract_name": "1065.02", "tags": {"addr:city": "Oklahoma City", "addr:housenumber": "4519", "addr:postcode": "73112", "addr:state": "OK", "addr:street": "North Pennsylvania Avenue", "building": "apartments", "building:levels": "2", "height": "10"}}}, {"type": "Feature", "geometry": {"type": "Polygon", "coordinates": [[[-97.5481862, 35.5177785], [-97.5481862, 35.5175369], [-97.5480337, 35.5175388], [-97.5480347, 35.5177808], [-97.5481862, 35.5177785]]]}, "properties": {"osm_id": 669202425, "building": "apartments", "name": "", "height": 10.0, "height_m": 10.0, "levels": 2, "tract_id": "40109106502", "tract_name": "1065.02", "tags": {"addr:city": "Oklahoma City", "addr:housenumber": "4517", "addr:postcode": "73112", "addr:state": "OK", "addr:street": "North Pennsylvania Avenue", "building": "apartments", "building:levels": "2", "height": "10"}}}, {"type": "Feature", "geometry": {"type": "Polygon", "coordinates": [[[-97.548518, 35.5181056], [-97.5482827, 35.5181067], [-97.5482746, 35.517991], [-97.5485127, 35.5179921], [-97.548518, 35.5181056]]]}, "properties": {"osm_id": 669212760, "building": "apartments", "name": "", "height": 10.0, "height_m": 10.0, "levels": 2, "tract_id": "40109106502", "tract_name": "1065.02", "tags": {"addr:city": "Oklahoma City", "addr:housenumber": "4605", "addr:postcode": "73112", "addr:state": "OK", "addr:street": "North Pennsylvania Avenue", "building": "apartments", "building:levels": "2", "height": "10"}}}, {"type": "Feature", "geometry": {"type": "Polygon", "coordinates": [[[-97.5652595, 35.5124492], [-97.5652588, 35.5124124], [-97.5653221, 35.5124117], [-97.5653209, 35.5123381], [-97.5652528, 35.5123388], [-97.5652521, 35.5122985], [-97.5651234, 35.5122999], [-97.565124, 35.5123355], [-97.5650936, 35.5123358], [-97.5650948, 35.5124142], [-97.565116, 35.5124139], [-97.5651167, 35.5124508], [-97.5652595, 35.5124492]]]}, "properties": {"osm_id": 867053861, "building": "yes", "name": "Azteca Mexican Grill", "height": null, "height_m": null, "levels": null, "tract_id": "40109106502", "tract_name": "1065.02", "tags": {"addr:city": "Oklahoma City", "addr:housenumber": "4024", "addr:postcode": "73112", "addr:state": "OK", "addr:street": "North May Avenue", "amenity": "restaurant", "building": "yes", "cuisine": "mexican", "name": "Azteca Mexican Grill"}}}, {"type": "Feature", "geometry": {"type": "Polygon", "coordinates": [[[-97.5503539, 35.5233068], [-97.5505242, 35.5226953], [-97.5503949, 35.5226966], [-97.549532, 35.5226858], [-97.549429, 35.5231379], [-97.5503539, 35.5233068]]]}, "properties": {"osm_id": 1189734465, "building": "apartments", "name": "", "height": null, "height_m": 12.0, "levels": 4, "tract_id": "40109106502", "tract_name": "1065.02", "tags": {"building": "apartments", "building:levels": "4"}}}, {"type": "Feature", "geometry": {"type": "Polygon", "coordinates": [[[-97.550388, 35.5226155], [-97.5503773, 35.5221132], [-97.5494688, 35.5221225], [-97.5494791, 35.5226315], [-97.550388, 35.5226155]]]}, "properties": {"osm_id": 1189734467, "building": "yes", "name": "", "height": null, "height_m": null, "levels": null, "tract_id": "40109106502", "tract_name": "1065.02", "tags": {"amenity": "parking", "building": "yes", "parking": "multi-storey"}}}, {"type": "Feature", "geometry": {"type": "Polygon", "coordinates": [[[-97.5505242, 35.5226953], [-97.5505118, 35.5218733], [-97.549479, 35.5218836], [-97.5494811, 35.5220206], [-97.5494126, 35.5220213], [-97.5493143, 35.5220223], [-97.5493118, 35.5218629], [-97.5489989, 35.5218661], [-97.5490109, 35.522652], [-97.5492945, 35.5226491], [-97.5492864, 35.5221186], [-97.5494126, 35.5221173], [-97.5503859, 35.5221074], [-97.5503949, 35.5226966], [-97.5505242, 35.5226953]]]}, "properties": {"osm_id": 1189734468, "building": "apartments", "name": "", "height": null, "height_m": null, "levels": null, "tract_id": "40109106502", "tract_name": "1065.02", "tags": {"building": "apartments"}}}, {"type": "Feature", "geometry": {"type": "Polygon", "coordinates": [[[-97.548101, 35.5224264], [-97.5482673, 35.5218746], [-97.5485888, 35.5219361], [-97.5484595, 35.5224332], [-97.5483284, 35.522407], [-97.5483131, 35.5224698], [-97.548101, 35.5224264]]]}, "properties": {"osm_id": 1189734469, "building": "yes", "name": "", "height": null, "height_m": null, "levels": null, "tract_id": "40109106502", "tract_name": "1065.02", "tags": {"building": "yes", "tourism": "hotel"}}}, {"type": "Feature", "geometry": {"type": "Polygon", "coordinates": [[[-97.5653655, 35.5128144], [-97.5653655, 35.5129295], [-97.5653656, 35.5129722], [-97.5652728, 35.5129721], [-97.5652729, 35.5129301], [-97.565273, 35.5128145], [-97.5653655, 35.5128144]]]}, "properties": {"osm_id": 1251633798, "building": "yes", "name": "Take 5 Oil Change", "height": null, "height_m": null, "levels": null, "tract_id": "40109106502", "tract_name": "1065.02", "tags": {"addr:city": "Oklahoma City", "addr:housenumber": "4100", "addr:postcode": "73112", "addr:state": "OK", "addr:street": "North May Avenue", "brand": "Take 5 Oil Change", "building": "yes", "name": "Take 5 Oil Change", "not:brand:wikidata": "Q112359190", "shop": "car_repair"}}}, {"type": "Feature", "geometry": {"type": "Polygon", "coordinates": [[[-97.5652287, 35.5144015], [-97.5652655, 35.5144015], [-97.5652655, 35.514626], [-97.5652285, 35.5146259], [-97.5652286, 35.5145137], [-97.5652287, 35.5144015]]]}, "properties": {"osm_id": 1251633802, "building": "roof", "name": "", "height": null, "height_m": null, "levels": null, "tract_id": "40109106502", "tract_name": "1065.02", "tags": {"building": "roof", "layer": "1"}}}, {"type": "Feature", "geometry": {"type": "Polygon", "coordinates": [[[-97.5654379, 35.5136067], [-97.5654379, 35.5136909], [-97.5652827, 35.5136909], [-97.5652827, 35.5136067], [-97.5654379, 35.5136067]]]}, "properties": {"osm_id": 1251633805, "building": "yes", "name": "City Glass", "height": null, "height_m": null, "levels": null, "tract_id": "40109106502", "tract_name": "1065.02", "tags": {"addr:city": "Oklahoma City", "addr:housenumber": "4116", "addr:postcode": "73112", "addr:state": "OK", "addr:street": "North May Avenue", "building": "yes", "contact:facebook": "CityGlassCo", "craft": "window_construction", "email": "contact@cityglasscompanyok.com", "fax": "+1 405 946 3928", "name": "City Glass", "payment:cash": "yes", "payment:cheque": "yes", "payment:credit_cards": "yes", "payment:debit_cards": "yes", "phone": "+1 405 946 3363", "website": "https://www.cityglasscompanyok.com/"}}}, {"type": "Feature", "geometry": {"type": "Polygon", "coordinates": [[[-97.5652832, 35.5134315], [-97.5652827, 35.5136067], [-97.5652827, 35.5136909], [-97.5651793, 35.5136908], [-97.5651798, 35.5134314], [-97.5652832, 35.5134315]]]}, "properties": {"osm_id": 1251633806, "building": "retail", "name": "", "height": null, "height_m": null, "levels": null, "tract_id": "40109106502", "tract_name": "1065.02", "tags": {"building": "retail"}}}, {"type": "Feature", "geometry": {"type": "Polygon", "coordinates": [[[-97.5651798, 35.5134314], [-97.5651803, 35.5132653], [-97.5652834, 35.5132654], [-97.5652832, 35.5134315], [-97.5651798, 35.5134314]]]}, "properties": {"osm_id": 1251633807, "building": "retail", "name": "", "height": null, "height_m": null, "levels": null, "tract_id": "40109106502", "tract_name": "1065.02", "tags": {"building": "retail"}}}, {"type": "Feature", "geometry": {"type": "Polygon", "coordinates": [[[-97.5609471, 35.511757], [-97.5609472, 35.511735], [-97.5608605, 35.511735], [-97.5608605, 35.5116754], [-97.5609112, 35.5116753], [-97.5609113, 35.511664], [-97.5609429, 35.5116639], [-97.5609428, 35.5116762], [-97.5609875, 35.5116761], [-97.5609875, 35.5117357], [-97.5609808, 35.5117357], [-97.5609807, 35.5117571], [-97.5609471, 35.511757]]]}, "properties": {"osm_id": 1305494920, "building": "detached", "name": "", "height": null, "height_m": null, "levels": null, "tract_id": "40109106502", "tract_name": "1065.02", "tags": {"building": "detached"}}}, {"type": "Feature", "geometry": {"type": "Polygon", "coordinates": [[[-97.5610314, 35.5117165], [-97.5610326, 35.5116695], [-97.56108, 35.5116702], [-97.56108, 35.5116658], [-97.5611553, 35.5116664], [-97.5611586, 35.5117897], [-97.5610857, 35.5117886], [-97.5610863, 35.5117559], [-97.5610133, 35.5117549], [-97.5610142, 35.5117164], [-97.5610314, 35.5117165]]]}, "properties": {"osm_id": 1305494938, "building": "detached", "name": "", "height": null, "height_m": null, "levels": null, "tract_id": "40109106502", "tract_name": "1065.02", "tags": {"building": "detached"}}}, {"type": "Feature", "geometry": {"type": "Polygon", "coordinates": [[[-97.5653067, 35.521784], [-97.5653063, 35.5214891], [-97.5651138, 35.5214893], [-97.5651143, 35.5217842], [-97.5653067, 35.521784]]]}, "properties": {"osm_id": 1363641931, "building": "roof", "name": "", "height": null, "height_m": null, "levels": null, "tract_id": "40109106502", "tract_name": "1065.02", "tags": {"building": "roof", "layer": "1"}}}, {"type": "Feature", "geometry": {"type": "Polygon", "coordinates": [[[-97.5643965, 35.5216005], [-97.5648219, 35.5215996], [-97.5648224, 35.5217485], [-97.5643971, 35.5217495], [-97.5643965, 35.5216005]]]}, "properties": {"osm_id": 1363641932, "building": "retail", "name": "", "height": null, "height_m": null, "levels": null, "tract_id": "40109106502", "tract_name": "1065.02", "tags": {"building": "retail"}}}, {"type": "Feature", "geometry": {"type": "Polygon", "coordinates": [[[-97.565191, 35.5203526], [-97.5649962, 35.520352], [-97.5649958, 35.5204548], [-97.5651905, 35.5204554], [-97.565191, 35.5203526]]]}, "properties": {"osm_id": 1363641948, "building": "retail", "name": "", "height": null, "height_m": null, "levels": null, "tract_id": "40109106502", "tract_name": "1065.02", "tags": {"amenity": "fast_food", "building": "retail"}}}, {"type": "Feature", "geometry": {"type": "Polygon", "coordinates": [[[-97.5641312, 35.5217952], [-97.5641312, 35.5217711], [-97.5641312, 35.5217018], [-97.5637844, 35.5217018], [-97.5637843, 35.5217711], [-97.5637843, 35.5217952], [-97.5641312, 35.5217952]]]}, "properties": {"osm_id": 1363641991, "building": "industrial", "name": "", "height": null, "height_m": null, "levels": null, "tract_id": "40109106502", "tract_name": "1065.02", "tags": {"amenity": "car_wash", "automated": "yes", "building": "industrial"}}}, {"type": "Feature", "geometry": {"type": "Polygon", "coordinates": [[[-97.5482664, 35.5118782], [-97.5483546, 35.5118785], [-97.5483565, 35.5115409], [-97.5482682, 35.5115405], [-97.5482664, 35.5118782]]]}, "properties": {"osm_id": 1420635636, "building": "yes", "name": "", "height": null, "height_m": null, "levels": null, "tract_id": "40109106502", "tract_name": "1065.02", "tags": {"building": "yes"}}}, {"type": "Feature", "geometry": {"type": "Polygon", "coordinates": [[[-97.5497168, 35.5119631], [-97.5498854, 35.5119637], [-97.5498856, 35.5119147], [-97.549717, 35.5119142], [-97.5497168, 35.5119631]]]}, "properties": {"osm_id": 1420635639, "building": "yes", "name": "", "height": null, "height_m": null, "levels": null, "tract_id": "40109106502", "tract_name": "1065.02", "tags": {"building": "yes"}}}, {"type": "Feature", "geometry": {"type": "Polygon", "coordinates": [[[-97.5482784, 35.5129385], [-97.5481766, 35.512939], [-97.5481759, 35.5128278], [-97.5482777, 35.5128273], [-97.5482784, 35.5129385]]]}, "properties": {"osm_id": 1420635640, "building": "yes", "name": "", "height": null, "height_m": null, "levels": null, "tract_id": "40109106502", "tract_name": "1065.02", "tags": {"building": "yes"}}}, {"type": "Feature", "geometry": {"type": "Polygon", "coordinates": [[[-97.5481747, 35.5128096], [-97.5482774, 35.5128093], [-97.5482767, 35.512658], [-97.5481741, 35.5126582], [-97.5481747, 35.5128096]]]}, "properties": {"osm_id": 1420635641, "building": "yes", "name": "", "height": null, "height_m": null, "levels": null, "tract_id": "40109106502", "tract_name": "1065.02", "tags": {"building": "yes"}}}, {"type": "Feature", "geometry": {"type": "Polygon", "coordinates": [[[-97.5481736, 35.5126409], [-97.5482755, 35.5126407], [-97.5482751, 35.512419], [-97.5481731, 35.5124191], [-97.5481736, 35.5126409]]]}, "properties": {"osm_id": 1420635642, "building": "yes", "name": "", "height": null, "height_m": null, "levels": null, "tract_id": "40109106502", "tract_name": "1065.02", "tags": {"building": "yes"}}}, {"type": "Feature", "geometry": {"type": "Polygon", "coordinates": [[[-97.5481721, 35.5124012], [-97.5482744, 35.5124011], [-97.5482741, 35.5121797], [-97.5481718, 35.5121798], [-97.5481721, 35.5124012]]]}, "properties": {"osm_id": 1420635643, "building": "yes", "name": "", "height": null, "height_m": null, "levels": null, "tract_id": "40109106502", "tract_name": "1065.02", "tags": {"building": "yes"}}}, {"type": "Feature", "geometry": {"type": "Polygon", "coordinates": [[[-97.5481707, 35.512162], [-97.5482731, 35.5121617], [-97.5482725, 35.5119952], [-97.54817, 35.5119955], [-97.5481707, 35.512162]]]}, "properties": {"osm_id": 1420635644, "building": "yes", "name": "", "height": null, "height_m": null, "levels": null, "tract_id": "40109106502", "tract_name": "1065.02", "tags": {"building": "yes"}}}, {"type": "Feature", "geometry": {"type": "Polygon", "coordinates": [[[-97.5480228, 35.5129427], [-97.5480939, 35.5129428], [-97.548094, 35.5128163], [-97.5480228, 35.5128163], [-97.5480228, 35.5129427]]]}, "properties": {"osm_id": 1420635645, "building": "yes", "name": "", "height": null, "height_m": null, "levels": null, "tract_id": "40109106502", "tract_name": "1065.02", "tags": {"building": "yes"}}}, {"type": "Feature", "geometry": {"type": "Polygon", "coordinates": [[[-97.548023, 35.5127979], [-97.5480933, 35.5127977], [-97.5480925, 35.5126458], [-97.5480222, 35.512646], [-97.548023, 35.5127979]]]}, "properties": {"osm_id": 1420635646, "building": "yes", "name": "", "height": null, "height_m": null, "levels": null, "tract_id": "40109106502", "tract_name": "1065.02", "tags": {"building": "yes"}}}, {"type": "Feature", "geometry": {"type": "Polygon", "coordinates": [[[-97.5480235, 35.5126269], [-97.5480929, 35.5126265], [-97.548091, 35.5124049], [-97.5480216, 35.5124053], [-97.5480235, 35.5126269]]]}, "properties": {"osm_id": 1420635647, "building": "yes", "name": "", "height": null, "height_m": null, "levels": null, "tract_id": "40109106502", "tract_name": "1065.02", "tags": {"building": "yes"}}}, {"type": "Feature", "geometry": {"type": "Polygon", "coordinates": [[[-97.5480203, 35.5123862], [-97.5480899, 35.5123861], [-97.5480891, 35.5121648], [-97.5480196, 35.512165], [-97.5480203, 35.5123862]]]}, "properties": {"osm_id": 1420635648, "building": "yes", "name": "", "height": null, "height_m": null, "levels": null, "tract_id": "40109106502", "tract_name": "1065.02", "tags": {"building": "yes"}}}, {"type": "Feature", "geometry": {"type": "Polygon", "coordinates": [[[-97.5480191, 35.5121479], [-97.5480885, 35.5121478], [-97.5480879, 35.5119262], [-97.5480185, 35.5119263], [-97.5480191, 35.5121479]]]}, "properties": {"osm_id": 1420635649, "building": "yes", "name": "", "height": null, "height_m": null, "levels": null, "tract_id": "40109106502", "tract_name": "1065.02", "tags": {"building": "yes"}}}, {"type": "Feature", "geometry": {"type": "Polygon", "coordinates": [[[-97.5483565, 35.51212], [-97.5484258, 35.5121198], [-97.5484253, 35.511927], [-97.548356, 35.5119272], [-97.5483565, 35.51212]]]}, "properties": {"osm_id": 1420635650, "building": "yes", "name": "", "height": null, "height_m": null, "levels": null, "tract_id": "40109106502", "tract_name": "1065.02", "tags": {"building": "yes"}}}, {"type": "Feature", "geometry": {"type": "Polygon", "coordinates": [[[-97.5483576, 35.5121892], [-97.5484935, 35.5121883], [-97.5484929, 35.5121314], [-97.5483571, 35.5121324], [-97.5483576, 35.5121892]]]}, "properties": {"osm_id": 1420635651, "building": "yes", "name": "", "height": null, "height_m": null, "levels": null, "tract_id": "40109106502", "tract_name": "1065.02", "tags": {"building": "yes"}}}, {"type": "Feature", "geometry": {"type": "Polygon", "coordinates": [[[-97.5485086, 35.5121898], [-97.5487122, 35.5121886], [-97.5487117, 35.5121302], [-97.548508, 35.5121315], [-97.5485086, 35.5121898]]]}, "properties": {"osm_id": 1420635652, "building": "yes", "name": "", "height": null, "height_m": null, "levels": null, "tract_id": "40109106502", "tract_name": "1065.02", "tags": {"building": "yes"}}}, {"type": "Feature", "geometry": {"type": "Polygon", "coordinates": [[[-97.5487271, 35.512188], [-97.5489462, 35.5121867], [-97.5489457, 35.5121287], [-97.5487266, 35.5121299], [-97.5487271, 35.512188]]]}, "properties": {"osm_id": 1420635653, "building": "yes", "name": "", "height": null, "height_m": null, "levels": null, "tract_id": "40109106502", "tract_name": "1065.02", "tags": {"building": "yes"}}}, {"type": "Feature", "geometry": {"type": "Polygon", "coordinates": [[[-97.5489482, 35.5123117], [-97.5487275, 35.5123131], [-97.5487267, 35.5122287], [-97.5489474, 35.5122273], [-97.5489482, 35.5123117]]]}, "properties": {"osm_id": 1420635654, "building": "yes", "name": "", "height": null, "height_m": null, "levels": null, "tract_id": "40109106502", "tract_name": "1065.02", "tags": {"building": "yes"}}}, {"type": "Feature", "geometry": {"type": "Polygon", "coordinates": [[[-97.5487142, 35.512314], [-97.5485093, 35.5123148], [-97.5485088, 35.5122298], [-97.5487137, 35.5122291], [-97.5487142, 35.512314]]]}, "properties": {"osm_id": 1420635655, "building": "yes", "name": "", "height": null, "height_m": null, "levels": null, "tract_id": "40109106502", "tract_name": "1065.02", "tags": {"building": "yes"}}}, {"type": "Feature", "geometry": {"type": "Polygon", "coordinates": [[[-97.5484953, 35.5123151], [-97.5483593, 35.5123159], [-97.5483585, 35.5122299], [-97.5484946, 35.5122291], [-97.5484953, 35.5123151]]]}, "properties": {"osm_id": 1420635656, "building": "yes", "name": "", "height": null, "height_m": null, "levels": null, "tract_id": "40109106502", "tract_name": "1065.02", "tags": {"building": "yes"}}}, {"type": "Feature", "geometry": {"type": "Polygon", "coordinates": [[[-97.5483586, 35.5125238], [-97.5484951, 35.5125237], [-97.5484949, 35.512357], [-97.5483584, 35.5123571], [-97.5483586, 35.5125238]]]}, "properties": {"osm_id": 1420635657, "building": "yes", "name": "", "height": null, "height_m": null, "levels": null, "tract_id": "40109106502", "tract_name": "1065.02", "tags": {"building": "yes"}}}, {"type": "Feature", "geometry": {"type": "Polygon", "coordinates": [[[-97.5485095, 35.5124687], [-97.5487151, 35.5124681], [-97.5487146, 35.5123554], [-97.548509, 35.512356], [-97.5485095, 35.5124687]]]}, "properties": {"osm_id": 1420635658, "building": "yes", "name": "", "height": null, "height_m": null, "levels": null, "tract_id": "40109106502", "tract_name": "1065.02", "tags": {"building": "yes"}}}, {"type": "Feature", "geometry": {"type": "Polygon", "coordinates": [[[-97.5487285, 35.5124676], [-97.5489493, 35.512467], [-97.5489489, 35.5123543], [-97.5487281, 35.512355], [-97.5487285, 35.5124676]]]}, "properties": {"osm_id": 1420635659, "building": "yes", "name": "", "height": null, "height_m": null, "levels": null, "tract_id": "40109106502", "tract_name": "1065.02", "tags": {"building": "yes"}}}, {"type": "Feature", "geometry": {"type": "Polygon", "coordinates": [[[-97.548481, 35.5115391], [-97.5484814, 35.5116432], [-97.5485224, 35.5116431], [-97.5485227, 35.5117227], [-97.5486147, 35.5117225], [-97.548615, 35.5118137], [-97.5486777, 35.5118136], [-97.5486775, 35.5117573], [-97.5487398, 35.5117572], [-97.5487396, 35.5117088], [-97.548769, 35.5117087], [-97.548769, 35.5117025], [-97.5488008, 35.5117025], [-97.5488009, 35.5117238], [-97.5489274, 35.5117235], [-97.5489267, 35.511538], [-97.548481, 35.5115391]]]}, "properties": {"osm_id": 1420637144, "building": "yes", "name": "", "height": null, "height_m": null, "levels": null, "tract_id": "40109106502", "tract_name": "1065.02", "tags": {"building": "yes"}}}, {"type": "Feature", "geometry": {"type": "Polygon", "coordinates": [[[-97.5489621, 35.5115957], [-97.5490332, 35.5115961], [-97.549034, 35.5114958], [-97.548963, 35.5114954], [-97.5489621, 35.5115957]]]}, "properties": {"osm_id": 1420637145, "building": "yes", "name": "", "height": null, "height_m": null, "levels": null, "tract_id": "40109106502", "tract_name": "1065.02", "tags": {"building": "yes"}}}]}