{"type": "FeatureCollection", "features": [{"type": "Feature", "geometry": {"type": "Polygon", "coordinates": [[[-95.7898471, 36.4175049], [-95.7896898, 36.4175476], [-95.7896939, 36.4175574], [-95.789655, 36.417568], [-95.7896509, 36.4175581], [-95.7896464, 36.4175594], [-95.7896117, 36.4174766], [-95.7896551, 36.4174648], [-95.78965, 36.4174525], [-95.7897308, 36.4174305], [-95.7897359, 36.4174429], [-95.7898124, 36.4174221], [-95.7898471, 36.4175049]]]}, "properties": {"osm_id": 307996927, "building": "yes", "name": "", "height": null, "height_m": null, "levels": null, "tract_id": "40131050801", "tract_name": "508.01", "tags": {"building": "yes"}}}, {"type": "Feature", "geometry": {"type": "Polygon", "coordinates": [[[-95.7919518, 36.4153713], [-95.7920571, 36.4153713], [-95.7920571, 36.4154607], [-95.7920998, 36.4154607], [-95.7920998, 36.4155612], [-95.7920571, 36.4155612], [-95.7920571, 36.4156571], [-95.7919371, 36.4156571], [-95.7919371, 36.4155745], [-95.7919518, 36.4155745], [-95.7919518, 36.4155242], [-95.7919214, 36.4155242], [-95.7919214, 36.4154633], [-95.7919518, 36.4154633], [-95.7919518, 36.4153713]]]}, "properties": {"osm_id": 307996929, "building": "yes", "name": "", "height": null, "height_m": null, "levels": null, "tract_id": "40131050801", "tract_name": "508.01", "tags": {"building": "yes"}}}, {"type": "Feature", "geometry": {"type": "Polygon", "coordinates": [[[-95.7891272, 36.4172362], [-95.7889645, 36.4171205], [-95.7891807, 36.4169236], [-95.7893434, 36.4170393], [-95.7891272, 36.4172362]]]}, "properties": {"osm_id": 307996930, "building": "yes", "name": "", "height": null, "height_m": null, "levels": null, "tract_id": "40131050801", "tract_name": "508.01", "tags": {"building": "yes"}}}, {"type": "Feature", "geometry": {"type": "Polygon", "coordinates": [[[-95.791942, 36.4161652], [-95.7917595, 36.4161652], [-95.7917595, 36.4160369], [-95.791942, 36.4160369], [-95.791942, 36.4161652]]]}, "properties": {"osm_id": 307996932, "building": "yes", "name": "", "height": null, "height_m": null, "levels": null, "tract_id": "40131050801", "tract_name": "508.01", "tags": {"building": "yes"}}}, {"type": "Feature", "geometry": {"type": "Polygon", "coordinates": [[[-95.7918466, 36.4157815], [-95.7915753, 36.4157815], [-95.7915753, 36.4156584], [-95.7918466, 36.4156584], [-95.7918466, 36.4157815]]]}, "properties": {"osm_id": 307996933, "building": "yes", "name": "", "height": null, "height_m": null, "levels": null, "tract_id": "40131050801", "tract_name": "508.01", "tags": {"building": "yes"}}}, {"type": "Feature", "geometry": {"type": "Polygon", "coordinates": [[[-95.7929379, 36.414058], [-95.7930932, 36.4140585], [-95.7930924, 36.4142257], [-95.7930266, 36.4142255], [-95.7930262, 36.4143081], [-95.7929367, 36.4143078], [-95.7929379, 36.414058]]]}, "properties": {"osm_id": 307996936, "building": "yes", "name": "", "height": null, "height_m": null, "levels": null, "tract_id": "40131050801", "tract_name": "508.01", "tags": {"building": "yes"}}}, {"type": "Feature", "geometry": {"type": "Polygon", "coordinates": [[[-95.7093627, 36.4428497], [-95.7092044, 36.4428477], [-95.7092084, 36.442636], [-95.7093667, 36.4426379], [-95.7093627, 36.4428497]]]}, "properties": {"osm_id": 391241251, "building": "retail", "name": "Ranchland Wine and Spirits", "height": null, "height_m": null, "levels": null, "tract_id": "40131050801", "tract_name": "508.01", "tags": {"building": "retail", "name": "Ranchland Wine and Spirits", "shop": "alcohol"}}}, {"type": "Feature", "geometry": {"type": "Polygon", "coordinates": [[[-95.7257166, 36.4174662], [-95.7255911, 36.4174663], [-95.7255911, 36.4175463], [-95.7257166, 36.4175463], [-95.7257166, 36.4174662]]]}, "properties": {"osm_id": 480530586, "building": "yes", "name": "", "height": null, "height_m": null, "levels": null, "tract_id": "40131050801", "tract_name": "508.01", "tags": {"building": "yes"}}}, {"type": "Feature", "geometry": {"type": "Polygon", "coordinates": [[[-95.7100097, 36.4475916], [-95.7100233, 36.4474192], [-95.7098546, 36.4474082], [-95.7098409, 36.4475843], [-95.7100097, 36.4475916]]]}, "properties": {"osm_id": 552169900, "building": "yes", "name": "Water RWD Department", "height": null, "height_m": null, "levels": null, "tract_id": "40131050801", "tract_name": "508.01", "tags": {"building": "yes", "name": "Water RWD Department"}}}, {"type": "Feature", "geometry": {"type": "Polygon", "coordinates": [[[-95.7102232, 36.4373688], [-95.7101508, 36.4373677], [-95.7101535, 36.4372437], [-95.7102259, 36.4372447], [-95.7102232, 36.4373688]]]}, "properties": {"osm_id": 676446348, "building": "roof", "name": "", "height": null, "height_m": null, "levels": null, "tract_id": "40131050801", "tract_name": "508.01", "tags": {"amenity": "fuel", "building": "roof"}}}, {"type": "Feature", "geometry": {"type": "Polygon", "coordinates": [[[-95.7098222, 36.4376191], [-95.7098168, 36.4373936], [-95.7099747, 36.4373911], [-95.70998, 36.4376166], [-95.7098222, 36.4376191]]]}, "properties": {"osm_id": 676446349, "building": "roof", "name": "", "height": null, "height_m": null, "levels": null, "tract_id": "40131050801", "tract_name": "508.01", "tags": {"amenity": "fuel", "building": "roof"}}}, {"type": "Feature", "geometry": {"type": "Polygon", "coordinates": [[[-95.710364, 36.4376148], [-95.7101615, 36.4376156], [-95.7101601, 36.437402], [-95.7103626, 36.4374011], [-95.710364, 36.4376148]]]}, "properties": {"osm_id": 676446350, "building": "retail", "name": "", "height": null, "height_m": null, "levels": null, "tract_id": "40131050801", "tract_name": "508.01", "tags": {"building": "retail", "shop": "convenience"}}}, {"type": "Feature", "geometry": {"type": "Polygon", "coordinates": [[[-95.6989383, 36.4249436], [-95.6987297, 36.4249422], [-95.6987254, 36.4237138], [-95.6989465, 36.4237113], [-95.6989383, 36.4249436]]]}, "properties": {"osm_id": 866461794, "building": "industrial", "name": "", "height": null, "height_m": null, "levels": null, "tract_id": "40131050801", "tract_name": "508.01", "tags": {"building": "industrial", "industrial": "cooling"}}}, {"type": "Feature", "geometry": {"type": "Polygon", "coordinates": [[[-95.6974027, 36.4253597], [-95.6971878, 36.4253595], [-95.697189, 36.4241292], [-95.6974039, 36.4241293], [-95.6974027, 36.4253597]]]}, "properties": {"osm_id": 866461795, "building": "industrial", "name": "", "height": null, "height_m": null, "levels": null, "tract_id": "40131050801", "tract_name": "508.01", "tags": {"building": "industrial", "industrial": "cooling"}}}, {"type": "Feature", "geometry": {"type": "Polygon", "coordinates": [[[-95.6979109, 36.4301326], [-95.6974036, 36.4305488], [-95.6972636, 36.4304383], [-95.6977708, 36.4300221], [-95.6979109, 36.4301326]]]}, "properties": {"osm_id": 866461796, "building": "industrial", "name": "", "height": null, "height_m": null, "levels": null, "tract_id": "40131050801", "tract_name": "508.01", "tags": {"building": "industrial", "industrial": "cooling"}}}, {"type": "Feature", "geometry": {"type": "Polygon", "coordinates": [[[-95.6979093, 36.4312156], [-95.6974021, 36.4316319], [-95.6972621, 36.4315214], [-95.6977693, 36.4311051], [-95.6979093, 36.4312156]]]}, "properties": {"osm_id": 866461797, "building": "industrial", "name": "", "height": null, "height_m": null, "levels": null, "tract_id": "40131050801", "tract_name": "508.01", "tags": {"building": "industrial", "industrial": "cooling"}}}, {"type": "Feature", "geometry": {"type": "Polygon", "coordinates": [[[-95.6979061, 36.4323077], [-95.6973989, 36.4327239], [-95.6972589, 36.4326134], [-95.697766, 36.4321972], [-95.6979061, 36.4323077]]]}, "properties": {"osm_id": 866461798, "building": "industrial", "name": "", "height": null, "height_m": null, "levels": null, "tract_id": "40131050801", "tract_name": "508.01", "tags": {"building": "industrial", "industrial": "cooling"}}}, {"type": "Feature", "geometry": {"type": "Polygon", "coordinates": [[[-95.6988852, 36.4323367], [-95.698378, 36.432753], [-95.6982379, 36.4326425], [-95.6987452, 36.4322263], [-95.6988852, 36.4323367]]]}, "properties": {"osm_id": 866461799, "building": "industrial", "name": "", "height": null, "height_m": null, "levels": null, "tract_id": "40131050801", "tract_name": "508.01", "tags": {"building": "industrial", "industrial": "cooling"}}}, {"type": "Feature", "geometry": {"type": "Polygon", "coordinates": [[[-95.7064386, 36.4464852], [-95.7064208, 36.4466825], [-95.7059769, 36.4466566], [-95.7059947, 36.4464593], [-95.7064386, 36.4464852]]]}, "properties": {"osm_id": 938061979, "building": "church", "name": "", "height": null, "height_m": null, "levels": null, "tract_id": "40131050801", "tract_name": "508.01", "tags": {"building": "church"}}}, {"type": "Feature", "geometry": {"type": "Polygon", "coordinates": [[[-95.7076415, 36.446634], [-95.7072956, 36.4466138], [-95.7073814, 36.4456666], [-95.7077274, 36.4456868], [-95.7076415, 36.446634]]]}, "properties": {"osm_id": 938062011, "building": "yes", "name": "", "height": null, "height_m": null, "levels": null, "tract_id": "40131050801", "tract_name": "508.01", "tags": {"building": "yes"}}}, {"type": "Feature", "geometry": {"type": "Polygon", "coordinates": [[[-95.7075824, 36.4469072], [-95.7076002, 36.4467302], [-95.7076873, 36.4467359], [-95.7076695, 36.4469129], [-95.7075824, 36.4469072]]]}, "properties": {"osm_id": 938062012, "building": "yes", "name": "", "height": null, "height_m": null, "levels": null, "tract_id": "40131050801", "tract_name": "508.01", "tags": {"building": "yes"}}}, {"type": "Feature", "geometry": {"type": "Polygon", "coordinates": [[[-95.7802772, 36.4364524], [-95.7803409, 36.4364274], [-95.7803327, 36.4364139], [-95.7803778, 36.4363962], [-95.7803323, 36.4363212], [-95.7802833, 36.4363404], [-95.780278, 36.4363316], [-95.7802323, 36.4363495], [-95.7802384, 36.4363595], [-95.7802093, 36.436371], [-95.780185, 36.4363308], [-95.7801055, 36.436362], [-95.7801398, 36.4364187], [-95.7800809, 36.4364418], [-95.7801281, 36.4365197], [-95.7801845, 36.4364976], [-95.7802084, 36.4365371], [-95.7802617, 36.4365162], [-95.7802503, 36.4364974], [-95.780294, 36.4364802], [-95.7802772, 36.4364524]]]}, "properties": {"osm_id": 963907792, "building": "yes", "name": "", "height": null, "height_m": null, "levels": null, "tract_id": "40131050801", "tract_name": "508.01", "tags": {"building": "yes"}}}, {"type": "Feature", "geometry": {"type": "Polygon", "coordinates": [[[-95.7313871, 36.4173822], [-95.7311974, 36.4174547], [-95.7311138, 36.4173129], [-95.7309954, 36.4173582], [-95.7308854, 36.4171717], [-95.7311936, 36.417054], [-95.7313871, 36.4173822]]]}, "properties": {"osm_id": 964119878, "building": "yes", "name": "Iron Horse", "height": null, "height_m": null, "levels": null, "tract_id": "40131050801", "tract_name": "508.01", "tags": {"addr:city": "Oologah", "addr:housenumber": "13573", "addr:postcode": "74053", "addr:state": "OK", "addr:street": "South Highway 169", "amenity": "bar", "building": "yes", "name": "Iron Horse"}}}, {"type": "Feature", "geometry": {"type": "Polygon", "coordinates": [[[-95.7100892, 36.4468374], [-95.7101023, 36.4467132], [-95.7100092, 36.4467068], [-95.7100047, 36.4467496], [-95.7099412, 36.4467453], [-95.7099348, 36.4468056], [-95.7099971, 36.4468098], [-95.7099949, 36.446831], [-95.7100892, 36.4468374]]]}, "properties": {"osm_id": 1101465461, "building": "yes", "name": "", "height": null, "height_m": null, "levels": null, "tract_id": "40131050801", "tract_name": "508.01", "tags": {"addr:city": "Oologah", "addr:housenumber": "113", "addr:postcode": "74053", "addr:state": "OK", "addr:street": "South Maple Street", "building": "yes", "telecom": "exchange"}}}, {"type": "Feature", "geometry": {"type": "Polygon", "coordinates": [[[-95.7105388, 36.438693], [-95.7105388, 36.438855], [-95.7104872, 36.438855], [-95.7104872, 36.4390598], [-95.7100278, 36.4390598], [-95.7100278, 36.4389821], [-95.7099524, 36.4389821], [-95.7099524, 36.4387925], [-95.7099955, 36.4387925], [-95.7099955, 36.4387225], [-95.7100278, 36.4387225], [-95.7100278, 36.438693], [-95.7105388, 36.438693]]]}, "properties": {"osm_id": 1261915496, "building": "retail", "name": "Doc's Apple Market", "height": null, "height_m": null, "levels": null, "tract_id": "40131050801", "tract_name": "508.01", "tags": {"addr:city": "Oologah", "addr:housenumber": "645", "addr:postcode": "74053", "addr:street": "South Elm Street", "building": "retail", "name": "Doc's Apple Market", "operator": "Doc's Foods", "shop": "supermarket"}}}, {"type": "Feature", "geometry": {"type": "Polygon", "coordinates": [[[-95.7062704, 36.3768081], [-95.7060404, 36.3768215], [-95.7060248, 36.3766482], [-95.7062549, 36.3766348], [-95.7062704, 36.3768081]]]}, "properties": {"osm_id": 1322049594, "building": "hangar", "name": "", "height": null, "height_m": null, "levels": null, "tract_id": "40131050801", "tract_name": "508.01", "tags": {"aeroway": "hangar", "building": "hangar"}}}, {"type": "Feature", "geometry": {"type": "Polygon", "coordinates": [[[-95.706537, 36.3766273], [-95.7063642, 36.3766231], [-95.7063711, 36.3764415], [-95.7065439, 36.3764457], [-95.706537, 36.3766273]]]}, "properties": {"osm_id": 1322049595, "building": "house", "name": "", "height": null, "height_m": null, "levels": null, "tract_id": "40131050801", "tract_name": "508.01", "tags": {"building": "house"}}}, {"type": "Feature", "geometry": {"type": "Polygon", "coordinates": [[[-95.7065874, 36.376251], [-95.7064146, 36.3762468], [-95.7064214, 36.3760653], [-95.7065942, 36.3760695], [-95.7065874, 36.376251]]]}, "properties": {"osm_id": 1322049596, "building": "house", "name": "", "height": null, "height_m": null, "levels": null, "tract_id": "40131050801", "tract_name": "508.01", "tags": {"building": "house"}}}, {"type": "Feature", "geometry": {"type": "Polygon", "coordinates": [[[-95.706581, 36.375758], [-95.7063078, 36.3757594], [-95.7063065, 36.3756022], [-95.7065125, 36.3756012], [-95.706513, 36.375661], [-95.7065803, 36.3756607], [-95.706581, 36.375758]]]}, "properties": {"osm_id": 1322049597, "building": "house", "name": "", "height": null, "height_m": null, "levels": null, "tract_id": "40131050801", "tract_name": "508.01", "tags": {"building": "house"}}}, {"type": "Feature", "geometry": {"type": "Polygon", "coordinates": [[[-95.7065174, 36.3754833], [-95.7063223, 36.3754814], [-95.7063247, 36.3753308], [-95.7065198, 36.3753328], [-95.7065174, 36.3754833]]]}, "properties": {"osm_id": 1322049598, "building": "hangar", "name": "", "height": null, "height_m": null, "levels": null, "tract_id": "40131050801", "tract_name": "508.01", "tags": {"aeroway": "hangar", "building": "hangar"}}}, {"type": "Feature", "geometry": {"type": "Polygon", "coordinates": [[[-95.7065282, 36.3749674], [-95.7062806, 36.3749667], [-95.7062813, 36.3748048], [-95.7063817, 36.3748051], [-95.7063819, 36.3747533], [-95.706529, 36.3747537], [-95.7065282, 36.3749674]]]}, "properties": {"osm_id": 1322049599, "building": "house", "name": "", "height": null, "height_m": null, "levels": null, "tract_id": "40131050801", "tract_name": "508.01", "tags": {"building": "house"}}}, {"type": "Feature", "geometry": {"type": "Polygon", "coordinates": [[[-95.7062405, 36.3744951], [-95.7059443, 36.3744971], [-95.7059468, 36.3747395], [-95.7061784, 36.374738], [-95.7061772, 36.3746146], [-95.7062418, 36.3746142], [-95.7062405, 36.3744951]]]}, "properties": {"osm_id": 1322049600, "building": "hangar", "name": "", "height": null, "height_m": null, "levels": null, "tract_id": "40131050801", "tract_name": "508.01", "tags": {"aeroway": "hangar", "building": "hangar"}}}, {"type": "Feature", "geometry": {"type": "Polygon", "coordinates": [[[-95.7080595, 36.3760316], [-95.7078913, 36.3761038], [-95.7079068, 36.3761273], [-95.707861, 36.376147], [-95.7079148, 36.3762283], [-95.7078613, 36.3762513], [-95.7079105, 36.3763255], [-95.708178, 36.3762107], [-95.7080595, 36.3760316]]]}, "properties": {"osm_id": 1322049601, "building": "house", "name": "", "height": null, "height_m": null, "levels": null, "tract_id": "40131050801", "tract_name": "508.01", "tags": {"building": "house"}}}, {"type": "Feature", "geometry": {"type": "Polygon", "coordinates": [[[-95.7083779, 36.3764762], [-95.7081822, 36.3764776], [-95.7081809, 36.3763635], [-95.7083766, 36.3763621], [-95.7083779, 36.3764762]]]}, "properties": {"osm_id": 1322049602, "building": "hangar", "name": "", "height": null, "height_m": null, "levels": null, "tract_id": "40131050801", "tract_name": "508.01", "tags": {"aeroway": "hangar", "building": "hangar"}}}, {"type": "Feature", "geometry": {"type": "Polygon", "coordinates": [[[-95.7075451, 36.3754107], [-95.7073494, 36.3754121], [-95.7073481, 36.375298], [-95.7075438, 36.3752966], [-95.7075451, 36.3754107]]]}, "properties": {"osm_id": 1322049603, "building": "hangar", "name": "", "height": null, "height_m": null, "levels": null, "tract_id": "40131050801", "tract_name": "508.01", "tags": {"aeroway": "hangar", "building": "hangar"}}}, {"type": "Feature", "geometry": {"type": "Polygon", "coordinates": [[[-95.7076642, 36.3755127], [-95.7077005, 36.3757802], [-95.707509, 36.3757971], [-95.7074987, 36.375721], [-95.7075591, 36.3757157], [-95.7075391, 36.375568], [-95.7076025, 36.3755624], [-95.7075966, 36.3755187], [-95.7076642, 36.3755127]]]}, "properties": {"osm_id": 1322049604, "building": "house", "name": "", "height": null, "height_m": null, "levels": null, "tract_id": "40131050801", "tract_name": "508.01", "tags": {"building": "house"}}}, {"type": "Feature", "geometry": {"type": "Polygon", "coordinates": [[[-95.7074147, 36.3750339], [-95.7072397, 36.3750351], [-95.7072416, 36.3752217], [-95.7072881, 36.3752214], [-95.7072887, 36.3752745], [-95.7073698, 36.3752739], [-95.7073689, 36.3751789], [-95.7074163, 36.3751786], [-95.7074147, 36.3750339]]]}, "properties": {"osm_id": 1322049605, "building": "house", "name": "", "height": null, "height_m": null, "levels": null, "tract_id": "40131050801", "tract_name": "508.01", "tags": {"building": "house"}}}, {"type": "Feature", "geometry": {"type": "Polygon", "coordinates": [[[-95.7068401, 36.3732498], [-95.7065689, 36.3732528], [-95.7065731, 36.373499], [-95.7067741, 36.3734967], [-95.7067733, 36.373453], [-95.7068436, 36.3734522], [-95.7068401, 36.3732498]]]}, "properties": {"osm_id": 1322049606, "building": "yes", "name": "", "height": null, "height_m": null, "levels": null, "tract_id": "40131050801", "tract_name": "508.01", "tags": {"building": "yes"}}}, {"type": "Feature", "geometry": {"type": "Polygon", "coordinates": [[[-95.7066763, 36.3730965], [-95.7063519, 36.373101], [-95.7063462, 36.3728344], [-95.7066707, 36.37283], [-95.7066763, 36.3730965]]]}, "properties": {"osm_id": 1322049607, "building": "yes", "name": "", "height": null, "height_m": null, "levels": null, "tract_id": "40131050801", "tract_name": "508.01", "tags": {"building": "yes"}}}, {"type": "Feature", "geometry": {"type": "Polygon", "coordinates": [[[-95.7058026, 36.3717794], [-95.7056565, 36.3718722], [-95.7057731, 36.3719914], [-95.7059193, 36.3718986], [-95.7058026, 36.3717794]]]}, "properties": {"osm_id": 1322049608, "building": "hangar", "name": "", "height": null, "height_m": null, "levels": null, "tract_id": "40131050801", "tract_name": "508.01", "tags": {"aeroway": "hangar", "building": "hangar"}}}, {"type": "Feature", "geometry": {"type": "Polygon", "coordinates": [[[-95.7062193, 36.372278], [-95.7060783, 36.3723292], [-95.7060494, 36.3722776], [-95.7060093, 36.3722921], [-95.7059482, 36.372183], [-95.7060789, 36.3721356], [-95.7061364, 36.3722384], [-95.7061869, 36.3722201], [-95.7062193, 36.372278]]]}, "properties": {"osm_id": 1322049609, "building": "house", "name": "", "height": null, "height_m": null, "levels": null, "tract_id": "40131050801", "tract_name": "508.01", "tags": {"building": "house"}}}, {"type": "Feature", "geometry": {"type": "Polygon", "coordinates": [[[-95.705083, 36.3739391], [-95.7049598, 36.3739395], [-95.7049593, 36.3738539], [-95.7050825, 36.3738535], [-95.705083, 36.3739391]]]}, "properties": {"osm_id": 1322049610, "building": "hangar", "name": "", "height": null, "height_m": null, "levels": null, "tract_id": "40131050801", "tract_name": "508.01", "tags": {"aeroway": "hangar", "building": "hangar"}}}, {"type": "Feature", "geometry": {"type": "Polygon", "coordinates": [[[-95.705161, 36.3742001], [-95.7050034, 36.3741999], [-95.7050036, 36.3741089], [-95.7049643, 36.3741089], [-95.7049644, 36.3740477], [-95.705141, 36.3740479], [-95.7051409, 36.3741029], [-95.7051612, 36.3741029], [-95.705161, 36.3742001]]]}, "properties": {"osm_id": 1322049611, "building": "house", "name": "", "height": null, "height_m": null, "levels": null, "tract_id": "40131050801", "tract_name": "508.01", "tags": {"building": "house"}}}, {"type": "Feature", "geometry": {"type": "Polygon", "coordinates": [[[-95.7040281, 36.374034], [-95.7037874, 36.3740357], [-95.7037887, 36.3741551], [-95.7040293, 36.3741535], [-95.7040281, 36.374034]]]}, "properties": {"osm_id": 1322049612, "building": "house", "name": "", "height": null, "height_m": null, "levels": null, "tract_id": "40131050801", "tract_name": "508.01", "tags": {"building": "house"}}}, {"type": "Feature", "geometry": {"type": "Polygon", "coordinates": [[[-95.704995, 36.3761667], [-95.7048278, 36.3761662], [-95.7048273, 36.376282], [-95.7049945, 36.3762825], [-95.704995, 36.3761667]]]}, "properties": {"osm_id": 1322049613, "building": "house", "name": "", "height": null, "height_m": null, "levels": null, "tract_id": "40131050801", "tract_name": "508.01", "tags": {"building": "house"}}}, {"type": "Feature", "geometry": {"type": "Polygon", "coordinates": [[[-95.7052041, 36.3765522], [-95.7050085, 36.3765536], [-95.7050072, 36.3764395], [-95.7052028, 36.3764381], [-95.7052041, 36.3765522]]]}, "properties": {"osm_id": 1322049614, "building": "hangar", "name": "", "height": null, "height_m": null, "levels": null, "tract_id": "40131050801", "tract_name": "508.01", "tags": {"aeroway": "hangar", "building": "hangar"}}}, {"type": "Feature", "geometry": {"type": "Polygon", "coordinates": [[[-95.7048703, 36.3773218], [-95.7048702, 36.3774096], [-95.7048016, 36.3774096], [-95.7048015, 36.3774916], [-95.7050144, 36.3774917], [-95.7050145, 36.3774226], [-95.7050724, 36.3774226], [-95.7050725, 36.3773863], [-95.7050347, 36.3773863], [-95.7050348, 36.3773219], [-95.7048703, 36.3773218]]]}, "properties": {"osm_id": 1322049615, "building": "house", "name": "", "height": null, "height_m": null, "levels": null, "tract_id": "40131050801", "tract_name": "508.01", "tags": {"building": "house"}}}, {"type": "Feature", "geometry": {"type": "Polygon", "coordinates": [[[-95.7050397, 36.3787332], [-95.7048056, 36.3787359], [-95.7048042, 36.3786557], [-95.7048546, 36.3786552], [-95.7048533, 36.3785795], [-95.7050294, 36.3785775], [-95.7050572, 36.3786122], [-95.7050585, 36.3786917], [-95.7050389, 36.3786919], [-95.7050397, 36.3787332]]]}, "properties": {"osm_id": 1322049616, "building": "house", "name": "", "height": null, "height_m": null, "levels": null, "tract_id": "40131050801", "tract_name": "508.01", "tags": {"building": "house"}}}, {"type": "Feature", "geometry": {"type": "Polygon", "coordinates": [[[-95.7065428, 36.3790705], [-95.7063359, 36.3790733], [-95.7063326, 36.3789207], [-95.7063697, 36.3789201], [-95.7063688, 36.37888], [-95.7064587, 36.3788787], [-95.7064743, 36.3789057], [-95.7065309, 36.3789049], [-95.7065321, 36.3789589], [-95.7064477, 36.37896], [-95.7064484, 36.3789949], [-95.7065411, 36.3789936], [-95.7065428, 36.3790705]]]}, "properties": {"osm_id": 1322049617, "building": "house", "name": "", "height": null, "height_m": null, "levels": null, "tract_id": "40131050801", "tract_name": "508.01", "tags": {"building": "house"}}}, {"type": "Feature", "geometry": {"type": "Polygon", "coordinates": [[[-95.7065915, 36.3785059], [-95.7062881, 36.3785122], [-95.7062938, 36.3786939], [-95.7065067, 36.3786895], [-95.7065055, 36.3786508], [-95.7065367, 36.3786238], [-95.7065355, 36.3785851], [-95.706594, 36.3785839], [-95.7065915, 36.3785059]]]}, "properties": {"osm_id": 1322049618, "building": "house", "name": "", "height": null, "height_m": null, "levels": null, "tract_id": "40131050801", "tract_name": "508.01", "tags": {"building": "house"}}}, {"type": "Feature", "geometry": {"type": "Polygon", "coordinates": [[[-95.7076505, 36.37969], [-95.707646, 36.3795022], [-95.7073803, 36.3795063], [-95.7073824, 36.3795948], [-95.7074551, 36.3795937], [-95.7074575, 36.3796929], [-95.7076505, 36.37969]]]}, "properties": {"osm_id": 1322049619, "building": "house", "name": "", "height": null, "height_m": null, "levels": null, "tract_id": "40131050801", "tract_name": "508.01", "tags": {"building": "house"}}}, {"type": "Feature", "geometry": {"type": "Polygon", "coordinates": [[[-95.7075514, 36.3786547], [-95.707372, 36.3786679], [-95.7073594, 36.3785575], [-95.7074406, 36.3785515], [-95.707432, 36.3784757], [-95.707534, 36.3784682], [-95.7075414, 36.3785329], [-95.7075898, 36.3785293], [-95.7075957, 36.3785809], [-95.7075434, 36.3785848], [-95.7075514, 36.3786547]]]}, "properties": {"osm_id": 1322049620, "building": "house", "name": "", "height": null, "height_m": null, "levels": null, "tract_id": "40131050801", "tract_name": "508.01", "tags": {"building": "house"}}}, {"type": "Feature", "geometry": {"type": "Polygon", "coordinates": [[[-95.7078445, 36.3782341], [-95.7076145, 36.378248], [-95.7076298, 36.3784118], [-95.7077303, 36.3784057], [-95.7077341, 36.3784467], [-95.7078636, 36.3784388], [-95.7078445, 36.3782341]]]}, "properties": {"osm_id": 1322049621, "building": "hangar", "name": "", "height": null, "height_m": null, "levels": null, "tract_id": "40131050801", "tract_name": "508.01", "tags": {"aeroway": "hangar", "building": "hangar"}}}, {"type": "Feature", "geometry": {"type": "Polygon", "coordinates": [[[-95.7086137, 36.3778009], [-95.7086169, 36.377969], [-95.7083329, 36.3779726], [-95.7083314, 36.3779002], [-95.7083885, 36.3778995], [-95.7083866, 36.3778038], [-95.7086137, 36.3778009]]]}, "properties": {"osm_id": 1322049622, "building": "house", "name": "", "height": null, "height_m": null, "levels": null, "tract_id": "40131050801", "tract_name": "508.01", "tags": {"building": "house"}}}, {"type": "Feature", "geometry": {"type": "Polygon", "coordinates": [[[-95.7848677, 36.3998216], [-95.7849142, 36.3998978], [-95.7847613, 36.3999583], [-95.7847148, 36.3998821], [-95.7848677, 36.3998216]]]}, "properties": {"osm_id": 1426306197, "building": "yes", "name": "", "height": null, "height_m": null, "levels": null, "tract_id": "40131050801", "tract_name": "508.01", "tags": {"building": "yes"}}}]}