{"type": "FeatureCollection", "features": [{"type": "Feature", "geometry": {"type": "Polygon", "coordinates": [[[-95.3178271, 36.3053503], [-95.3174599, 36.3052642], [-95.3175289, 36.3050733], [-95.317896, 36.3051594], [-95.3178271, 36.3053503]]]}, "properties": {"osm_id": 110155434, "building": "yes", "name": "Pryor", "height": null, "height_m": null, "levels": null, "tract_id": "40097040100", "tract_name": "401", "tags": {"amenity": "post_office", "building": "yes", "name": "Pryor", "operator": "United States Postal Service", "operator:short": "USPS", "operator:type": "public", "operator:website": "https://www.usps.com", "operator:wikidata": "Q668687", "operator:wikipedia": "en:United States Postal Service"}}}, {"type": "Feature", "geometry": {"type": "Polygon", "coordinates": [[[-95.3121413, 36.3109876], [-95.3121182, 36.31105], [-95.3118473, 36.3109848], [-95.3118704, 36.3109225], [-95.3120702, 36.3109705], [-95.3121413, 36.3109876]]]}, "properties": {"osm_id": 194201371, "building": "house", "name": "", "height": null, "height_m": null, "levels": null, "tract_id": "40097040100", "tract_name": "401", "tags": {"building": "house"}}}, {"type": "Feature", "geometry": {"type": "Polygon", "coordinates": [[[-95.3140181, 36.3142981], [-95.3140779, 36.3142976], [-95.3140771, 36.3142341], [-95.3141236, 36.3142337], [-95.3141242, 36.3142796], [-95.3141707, 36.3142793], [-95.3141727, 36.3144299], [-95.3141114, 36.3144304], [-95.3141106, 36.3143668], [-95.314019, 36.3143675], [-95.3140181, 36.3142981]]]}, "properties": {"osm_id": 258559783, "building": "yes", "name": "", "height": null, "height_m": null, "levels": null, "tract_id": "40097040100", "tract_name": "401", "tags": {"addr:city": "Pryor Creek", "addr:country": "US", "addr:housenumber": "206", "addr:postcode": "74361-2008", "addr:street": "Northeast 5th Street", "building": "yes"}}}, {"type": "Feature", "geometry": {"type": "Polygon", "coordinates": [[[-95.3168337, 36.3075826], [-95.3167099, 36.3075542], [-95.3168107, 36.3072708], [-95.3169342, 36.3072993], [-95.3168337, 36.3075826]]]}, "properties": {"osm_id": 359624930, "building": "yes", "name": "Stanley's Today", "height": null, "height_m": null, "levels": null, "tract_id": "40097040100", "tract_name": "401", "tags": {"addr:city": "Pryor Creek", "addr:country": "US", "addr:housenumber": "206", "addr:postcode": "74361", "addr:state": "OK", "addr:street": "East Graham Avenue", "building": "yes", "name": "Stanley's Today", "shop": "electronics"}}}, {"type": "Feature", "geometry": {"type": "Polygon", "coordinates": [[[-95.3188074, 36.3073422], [-95.3189846, 36.3073851], [-95.3188768, 36.307674], [-95.3186996, 36.3076311], [-95.3188074, 36.3073422]]]}, "properties": {"osm_id": 380273469, "building": "yes", "name": "", "height": null, "height_m": null, "levels": null, "tract_id": "40097040100", "tract_name": "401", "tags": {"building": "yes"}}}, {"type": "Feature", "geometry": {"type": "Polygon", "coordinates": [[[-95.3177141, 36.3071607], [-95.3176686, 36.3072829], [-95.3173713, 36.307211], [-95.317428, 36.3070895], [-95.3177141, 36.3071607]]]}, "properties": {"osm_id": 380273470, "building": "yes", "name": "", "height": null, "height_m": null, "levels": null, "tract_id": "40097040100", "tract_name": "401", "tags": {"building": "yes"}}}, {"type": "Feature", "geometry": {"type": "Polygon", "coordinates": [[[-95.3192681, 36.3065594], [-95.3193951, 36.306589], [-95.3193162, 36.3068091], [-95.3191893, 36.3067796], [-95.3192681, 36.3065594]]]}, "properties": {"osm_id": 380273472, "building": "yes", "name": "", "height": null, "height_m": null, "levels": null, "tract_id": "40097040100", "tract_name": "401", "tags": {"building": "yes"}}}, {"type": "Feature", "geometry": {"type": "Polygon", "coordinates": [[[-95.3184637, 36.3073481], [-95.318413, 36.3074741], [-95.3179374, 36.3073498], [-95.3179881, 36.3072239], [-95.3184637, 36.3073481]]]}, "properties": {"osm_id": 380273473, "building": "yes", "name": "", "height": null, "height_m": null, "levels": null, "tract_id": "40097040100", "tract_name": "401", "tags": {"building": "yes"}}}, {"type": "Feature", "geometry": {"type": "Polygon", "coordinates": [[[-95.3205596, 36.3013501], [-95.3205416, 36.3013998], [-95.3205218, 36.3014544], [-95.3202851, 36.3013988], [-95.3203229, 36.3012944], [-95.3205596, 36.3013501]]]}, "properties": {"osm_id": 401858978, "building": "commercial", "name": "Arby's", "height": null, "height_m": null, "levels": null, "tract_id": "40097040100", "tract_name": "401", "tags": {"addr:city": "Pryor Creek", "addr:housenumber": "315", "addr:postcode": "74361", "addr:state": "OK", "addr:street": "South Mill Street", "amenity": "fast_food", "brand": "Arby's", "brand:wikidata": "Q630866", "building": "commercial", "check_date": "2024-06-21", "cuisine": "sandwich", "name": "Arby's", "opening_hours": "09:30-23:30", "phone": "+1 918-825-3192", "takeaway": "yes", "website": "https://www.arbys.com/locations/us/ok/pryor/315-s-mill-st/store-1418/"}}}, {"type": "Feature", "geometry": {"type": "Polygon", "coordinates": [[[-95.31967, 36.3039152], [-95.3196377, 36.3040057], [-95.3194993, 36.3039737], [-95.3194822, 36.3040216], [-95.3194278, 36.304009], [-95.3194419, 36.3039694], [-95.319349, 36.3039479], [-95.3193842, 36.303849], [-95.31967, 36.3039152]]]}, "properties": {"osm_id": 401858979, "building": "yes", "name": "Carl's Jr.", "height": null, "height_m": null, "levels": null, "tract_id": "40097040100", "tract_name": "401", "tags": {"addr:city": "Pryor Creek", "addr:housenumber": "201", "addr:postcode": "74361", "addr:state": "OK", "addr:street": "South Mill Street", "amenity": "fast_food", "brand": "Carl's Jr.", "brand:wikidata": "Q1043486", "building": "yes", "cuisine": "burger", "name": "Carl's Jr.", "phone": "+1 918-825-2611", "ref": "1101673", "takeaway": "yes", "website": "https://locations.carlsjr.com/ok/pryor/201-s-mill-st"}}}, {"type": "Feature", "geometry": {"type": "Polygon", "coordinates": [[[-95.3187898, 36.3086465], [-95.3185457, 36.3086917], [-95.3185146, 36.308575], [-95.3186683, 36.3085478], [-95.3187571, 36.3085318], [-95.3187898, 36.3086465]]]}, "properties": {"osm_id": 401858981, "building": "yes", "name": "Pryor Sinclair", "height": null, "height_m": null, "levels": null, "tract_id": "40097040100", "tract_name": "401", "tags": {"brand": "Sinclair", "building": "yes", "name": "Pryor Sinclair", "shop": "convenience"}}}, {"type": "Feature", "geometry": {"type": "Polygon", "coordinates": [[[-95.3168514, 36.3113424], [-95.3167685, 36.3115647], [-95.3164822, 36.3114954], [-95.3165651, 36.3112731], [-95.3168514, 36.3113424]]]}, "properties": {"osm_id": 401883396, "building": "yes", "name": "", "height": null, "height_m": null, "levels": null, "tract_id": "40097040100", "tract_name": "401", "tags": {"building": "yes"}}}, {"type": "Feature", "geometry": {"type": "Polygon", "coordinates": [[[-95.3213097, 36.3015658], [-95.3210444, 36.3014994], [-95.3210875, 36.3013875], [-95.3213529, 36.3014539], [-95.3213097, 36.3015658]]]}, "properties": {"osm_id": 402074291, "building": "yes", "name": "Bill & Ruth's Subs and Burgers", "height": null, "height_m": null, "levels": null, "tract_id": "40097040100", "tract_name": "401", "tags": {"addr:city": "Pryor", "addr:housenumber": "310", "addr:postcode": "74361", "addr:state": "OK", "addr:street": "South Mill Street", "amenity": "restaurant", "building": "yes", "check_date": "2025-07-21", "cuisine": "american", "name": "Bill & Ruth's Subs and Burgers", "phone": "+1 918 825 1009"}}}, {"type": "Feature", "geometry": {"type": "Polygon", "coordinates": [[[-95.3205207, 36.3019174], [-95.3204554, 36.3020853], [-95.3199896, 36.3019675], [-95.320055, 36.3017996], [-95.3205207, 36.3019174]]]}, "properties": {"osm_id": 402074428, "building": "yes", "name": "O'Reilly Auto Parts", "height": null, "height_m": null, "levels": null, "tract_id": "40097040100", "tract_name": "401", "tags": {"addr:city": "Pryor Creek", "addr:housenumber": "301", "addr:postcode": "74361", "addr:state": "OK", "addr:street": "South Mill Street", "brand": "O'Reilly Auto Parts", "brand:wikidata": "Q7071951", "building": "yes", "name": "O'Reilly Auto Parts", "shop": "car_parts", "website": "https://locations.oreillyauto.com/ok/pryor/autoparts-160.html"}}}, {"type": "Feature", "geometry": {"type": "Polygon", "coordinates": [[[-95.320279, 36.3025208], [-95.3202097, 36.3026929], [-95.3198933, 36.3026101], [-95.3199626, 36.302438], [-95.320279, 36.3025208]]]}, "properties": {"osm_id": 402074431, "building": "yes", "name": "Thomas Restaurant", "height": null, "height_m": null, "levels": null, "tract_id": "40097040100", "tract_name": "401", "tags": {"addr:city": "Pryor Creek", "addr:housenumber": "215", "addr:postcode": "74361", "addr:state": "OK", "addr:street": "South Mill Street", "amenity": "restaurant", "building": "yes", "name": "Thomas Restaurant"}}}, {"type": "Feature", "geometry": {"type": "Polygon", "coordinates": [[[-95.3202787, 36.304198], [-95.3202337, 36.3043096], [-95.3200322, 36.3042567], [-95.3200772, 36.3041451], [-95.3202787, 36.304198]]]}, "properties": {"osm_id": 402074840, "building": "yes", "name": "El Humilde Mexican Restaurant", "height": null, "height_m": null, "levels": null, "tract_id": "40097040100", "tract_name": "401", "tags": {"addr:city": "Pryor Creek", "addr:housenumber": "200", "addr:postcode": "74361", "addr:state": "OK", "addr:street": "South Mill Street", "amenity": "restaurant", "building": "yes", "cuisine": "mexican", "name": "El Humilde Mexican Restaurant"}}}, {"type": "Feature", "geometry": {"type": "Polygon", "coordinates": [[[-95.3207299, 36.3031211], [-95.3204722, 36.3030571], [-95.320625, 36.3026571], [-95.3208827, 36.3027211], [-95.3207299, 36.3031211]]]}, "properties": {"osm_id": 402075003, "building": "yes", "name": "Pryor Police Department", "height": null, "height_m": null, "levels": null, "tract_id": "40097040100", "tract_name": "401", "tags": {"addr:city": "Pryor Creek", "addr:housenumber": "214", "addr:postcode": "74361", "addr:state": "OK", "addr:street": "South Mill Street", "amenity": "police", "building": "yes", "name": "Pryor Police Department"}}}, {"type": "Feature", "geometry": {"type": "Polygon", "coordinates": [[[-95.3210418, 36.3022802], [-95.3209575, 36.3022607], [-95.3209672, 36.3022369], [-95.3208919, 36.3022189], [-95.3209984, 36.3019202], [-95.321207, 36.3019684], [-95.3211749, 36.3020585], [-95.3211249, 36.3020469], [-95.3210418, 36.3022802]]]}, "properties": {"osm_id": 402075127, "building": "yes", "name": "China Buffet", "height": null, "height_m": null, "levels": null, "tract_id": "40097040100", "tract_name": "401", "tags": {"addr:city": "Pryor Creek", "addr:housenumber": "304", "addr:postcode": "74361", "addr:state": "OK", "addr:street": "South Mill Street", "amenity": "restaurant", "building": "yes", "cuisine": "chinese", "name": "China Buffet"}}}, {"type": "Feature", "geometry": {"type": "Polygon", "coordinates": [[[-95.3186683, 36.3085478], [-95.3186021, 36.3083047], [-95.3184484, 36.308332], [-95.3185146, 36.308575], [-95.3186683, 36.3085478]]]}, "properties": {"osm_id": 436337705, "building": "roof", "name": "Pryor Sinclair", "height": null, "height_m": null, "levels": null, "tract_id": "40097040100", "tract_name": "401", "tags": {"amenity": "fuel", "brand": "Sinclair", "building": "roof", "name": "Pryor Sinclair", "old_name": "Phillips 66"}}}, {"type": "Feature", "geometry": {"type": "Polygon", "coordinates": [[[-95.3183801, 36.3097912], [-95.3184658, 36.3095477], [-95.3184088, 36.3095347], [-95.3183231, 36.3097782], [-95.3183801, 36.3097912]]]}, "properties": {"osm_id": 436337706, "building": "roof", "name": "", "height": null, "height_m": null, "levels": null, "tract_id": "40097040100", "tract_name": "401", "tags": {"building": "roof"}}}, {"type": "Feature", "geometry": {"type": "Polygon", "coordinates": [[[-95.3172379, 36.3105867], [-95.317304, 36.310418], [-95.3172158, 36.3103956], [-95.3171498, 36.3105643], [-95.3172379, 36.3105867]]]}, "properties": {"osm_id": 436337707, "building": "roof", "name": "", "height": null, "height_m": null, "levels": null, "tract_id": "40097040100", "tract_name": "401", "tags": {"building": "roof"}}}, {"type": "Feature", "geometry": {"type": "Polygon", "coordinates": [[[-95.3166158, 36.3142102], [-95.316643, 36.3141406], [-95.3165711, 36.3141212], [-95.3165468, 36.3141951], [-95.3166158, 36.3142102]]]}, "properties": {"osm_id": 436337708, "building": "roof", "name": "", "height": null, "height_m": null, "levels": null, "tract_id": "40097040100", "tract_name": "401", "tags": {"building": "roof"}}}, {"type": "Feature", "geometry": {"type": "Polygon", "coordinates": [[[-95.3179307, 36.3088204], [-95.3179541, 36.3087575], [-95.3178712, 36.3087375], [-95.3178478, 36.3088004], [-95.3179307, 36.3088204]]]}, "properties": {"osm_id": 436337709, "building": "roof", "name": "", "height": null, "height_m": null, "levels": null, "tract_id": "40097040100", "tract_name": "401", "tags": {"building": "roof"}}}, {"type": "Feature", "geometry": {"type": "Polygon", "coordinates": [[[-95.3193396, 36.304982], [-95.3193613, 36.3049119], [-95.3192768, 36.3048948], [-95.319255, 36.304965], [-95.3193396, 36.304982]]]}, "properties": {"osm_id": 436337710, "building": "roof", "name": "", "height": null, "height_m": null, "levels": null, "tract_id": "40097040100", "tract_name": "401", "tags": {"amenity": "fuel", "building": "roof"}}}, {"type": "Feature", "geometry": {"type": "Polygon", "coordinates": [[[-95.3190221, 36.3051495], [-95.319086, 36.3049688], [-95.3189053, 36.3049273], [-95.3188414, 36.305108], [-95.3190221, 36.3051495]]]}, "properties": {"osm_id": 436337711, "building": "yes", "name": "", "height": null, "height_m": null, "levels": null, "tract_id": "40097040100", "tract_name": "401", "tags": {"building": "yes"}}}, {"type": "Feature", "geometry": {"type": "Polygon", "coordinates": [[[-95.3209508, 36.3024007], [-95.320985, 36.3023033], [-95.3208592, 36.3022746], [-95.320825, 36.302372], [-95.3209508, 36.3024007]]]}, "properties": {"osm_id": 436337712, "building": "roof", "name": "", "height": null, "height_m": null, "levels": null, "tract_id": "40097040100", "tract_name": "401", "tags": {"amenity": "fue", "building": "roof"}}}, {"type": "Feature", "geometry": {"type": "Polygon", "coordinates": [[[-95.3210426, 36.3085997], [-95.3211, 36.3084453], [-95.3209697, 36.3084138], [-95.3209122, 36.3085682], [-95.3210426, 36.3085997]]]}, "properties": {"osm_id": 436337713, "building": "roof", "name": "", "height": null, "height_m": null, "levels": null, "tract_id": "40097040100", "tract_name": "401", "tags": {"building": "roof"}}}, {"type": "Feature", "geometry": {"type": "Polygon", "coordinates": [[[-95.3156595, 36.3094176], [-95.3157293, 36.3092302], [-95.3156524, 36.3092116], [-95.3156906, 36.309109], [-95.3157473, 36.3091227], [-95.3158017, 36.3089766], [-95.3157447, 36.3089628], [-95.3157859, 36.3088522], [-95.3158654, 36.3088714], [-95.3159245, 36.3087128], [-95.3155178, 36.3086145], [-95.3152551, 36.3093198], [-95.3156595, 36.3094176]]]}, "properties": {"osm_id": 436339462, "building": "yes", "name": "", "height": null, "height_m": null, "levels": null, "tract_id": "40097040100", "tract_name": "401", "tags": {"building": "yes"}}}, {"type": "Feature", "geometry": {"type": "Polygon", "coordinates": [[[-95.3103316, 36.306501], [-95.3103228, 36.3064302], [-95.3101426, 36.3064447], [-95.3101514, 36.3065155], [-95.3103316, 36.306501]]]}, "properties": {"osm_id": 436339475, "building": "roof", "name": "", "height": null, "height_m": null, "levels": null, "tract_id": "40097040100", "tract_name": "401", "tags": {"amenity": "fuel", "building": "roof"}}}, {"type": "Feature", "geometry": {"type": "Polygon", "coordinates": [[[-95.310218, 36.3067881], [-95.3102382, 36.3066641], [-95.3100033, 36.3066393], [-95.3099832, 36.3067633], [-95.310218, 36.3067881]]]}, "properties": {"osm_id": 436339476, "building": "yes", "name": "", "height": null, "height_m": null, "levels": null, "tract_id": "40097040100", "tract_name": "401", "tags": {"building": "yes"}}}, {"type": "Feature", "geometry": {"type": "Polygon", "coordinates": [[[-95.3179356, 36.3144268], [-95.3176428, 36.3144266], [-95.317643, 36.3142125], [-95.3178026, 36.3142126], [-95.3178025, 36.3143112], [-95.3179358, 36.3143113], [-95.3179356, 36.3144268]]]}, "properties": {"osm_id": 632309530, "building": "church", "name": "Victory Baptist Church", "height": null, "height_m": null, "levels": null, "tract_id": "40097040100", "tract_name": "401", "tags": {"addr:city": "Pryor Creek", "addr:housenumber": "10", "addr:postcode": "74361", "addr:state": "OK", "addr:street": "Northwest 5th Street", "amenity": "place_of_worship", "building": "church", "denomination": "baptist", "gnis:feature_id": "1809860", "name": "Victory Baptist Church", "religion": "christian"}}}, {"type": "Feature", "geometry": {"type": "Polygon", "coordinates": [[[-95.316136, 36.3081027], [-95.3161801, 36.3079624], [-95.3162595, 36.307731], [-95.3161077, 36.3076959], [-95.3159868, 36.3080716], [-95.316136, 36.3081027]]]}, "properties": {"osm_id": 740550102, "building": "yes", "name": "Allred 5 Theatre", "height": null, "height_m": null, "levels": null, "tract_id": "40097040100", "tract_name": "401", "tags": {"addr:city": "Pryor", "addr:housenumber": "225", "addr:postcode": "74361", "addr:state": "OK", "addr:street": "East Graham Avenue", "amenity": "cinema", "building": "yes", "name": "Allred 5 Theatre", "screen": "5", "wikidata": "Q43194341"}}}, {"type": "Feature", "geometry": {"type": "Polygon", "coordinates": [[[-95.3159067, 36.3079211], [-95.3160013, 36.3076689], [-95.3158226, 36.3076253], [-95.3157279, 36.3078775], [-95.3159067, 36.3079211]]]}, "properties": {"osm_id": 740550107, "building": "retail", "name": "", "height": null, "height_m": null, "levels": null, "tract_id": "40097040100", "tract_name": "401", "tags": {"building": "retail"}}}, {"type": "Feature", "geometry": {"type": "Polygon", "coordinates": [[[-95.3161801, 36.3079624], [-95.3162581, 36.3079845], [-95.3163433, 36.3077481], [-95.3162595, 36.307731], [-95.3161801, 36.3079624]]]}, "properties": {"osm_id": 740550108, "building": "retail", "name": "", "height": null, "height_m": null, "levels": null, "tract_id": "40097040100", "tract_name": "401", "tags": {"building": "retail"}}}, {"type": "Feature", "geometry": {"type": "Polygon", "coordinates": [[[-95.3198525, 36.3056202], [-95.3200065, 36.3052238], [-95.3199003, 36.3051981], [-95.3197428, 36.3055974], [-95.3198525, 36.3056202]]]}, "properties": {"osm_id": 742017827, "building": "yes", "name": "Las Fuentes", "height": null, "height_m": null, "levels": null, "tract_id": "40097040100", "tract_name": "401", "tags": {"building": "yes", "description": "Mexican Restaurant", "name": "Las Fuentes"}}}, {"type": "Feature", "geometry": {"type": "Polygon", "coordinates": [[[-95.318406, 36.3092497], [-95.3182291, 36.3092085], [-95.3182076, 36.3092684], [-95.3183845, 36.3093095], [-95.318406, 36.3092497]]]}, "properties": {"osm_id": 742017828, "building": "yes", "name": "Four Feathers Smoke Shop", "height": null, "height_m": null, "levels": null, "tract_id": "40097040100", "tract_name": "401", "tags": {"building": "yes", "name": "Four Feathers Smoke Shop", "shop": "tobacco"}}}, {"type": "Feature", "geometry": {"type": "Polygon", "coordinates": [[[-95.316738, 36.3139687], [-95.3166065, 36.3139406], [-95.3166816, 36.3137569], [-95.3168023, 36.3137958], [-95.3167621, 36.3138909], [-95.316738, 36.3139687]]]}, "properties": {"osm_id": 753809105, "building": "yes", "name": "The Liquor Cabinet", "height": null, "height_m": null, "levels": null, "tract_id": "40097040100", "tract_name": "401", "tags": {"addr:city": "Pryor Creek", "addr:housenumber": "220", "addr:postcode": "74361", "addr:state": "OK", "addr:street": "North Mill Street", "building": "yes", "drive_through": "no", "name": "The Liquor Cabinet", "shop": "alcohol"}}}, {"type": "Feature", "geometry": {"type": "Polygon", "coordinates": [[[-95.3152237, 36.3156019], [-95.3149796, 36.3155998], [-95.3149877, 36.3150184], [-95.3151593, 36.3150163], [-95.3151566, 36.3152648], [-95.315221, 36.315267], [-95.3152237, 36.3156019]]]}, "properties": {"osm_id": 753809106, "building": "yes", "name": "Northstar Church", "height": null, "height_m": null, "levels": null, "tract_id": "40097040100", "tract_name": "401", "tags": {"amenity": "place_of_worship", "building": "yes", "name": "Northstar Church"}}}, {"type": "Feature", "geometry": {"type": "Polygon", "coordinates": [[[-95.3161624, 36.305012], [-95.316202, 36.3050702], [-95.3162138, 36.305065], [-95.3162374, 36.3050997], [-95.3162256, 36.3051048], [-95.3162513, 36.3051425], [-95.3160836, 36.3052167], [-95.3160565, 36.3051769], [-95.3160456, 36.3051817], [-95.3160214, 36.3051461], [-95.3160323, 36.3051412], [-95.3159948, 36.3050861], [-95.3161624, 36.305012]]]}, "properties": {"osm_id": 833052866, "building": "yes", "name": "Spa 101", "height": null, "height_m": null, "levels": null, "tract_id": "40097040100", "tract_name": "401", "tags": {"addr:city": "Pryor Creek", "addr:country": "US", "addr:housenumber": "101", "addr:state": "OK", "addr:street": "South Vann Street", "building": "yes", "clothes": "women", "name": "Spa 101", "phone": "+1 918 530 5651", "shop": "clothes", "website": "https://spa101pryor.com/"}}}, {"type": "Feature", "geometry": {"type": "Polygon", "coordinates": [[[-95.3190156, 36.3091976], [-95.3193621, 36.3092819], [-95.3193882, 36.3092108], [-95.3191316, 36.309148], [-95.3192228, 36.3089072], [-95.3191329, 36.3088857], [-95.3190156, 36.3091976]]]}, "properties": {"osm_id": 855601438, "building": "yes", "name": "", "height": null, "height_m": null, "levels": null, "tract_id": "40097040100", "tract_name": "401", "tags": {"building": "yes", "source": "microsoft/BuildingFootprints"}}}, {"type": "Feature", "geometry": {"type": "Polygon", "coordinates": [[[-95.319788, 36.309981], [-95.319612, 36.309945], [-95.319527, 36.310214], [-95.319703, 36.31025], [-95.319788, 36.309981]]]}, "properties": {"osm_id": 855601439, "building": "yes", "name": "", "height": null, "height_m": null, "levels": null, "tract_id": "40097040100", "tract_name": "401", "tags": {"building": "yes", "source": "microsoft/BuildingFootprints"}}}, {"type": "Feature", "geometry": {"type": "Polygon", "coordinates": [[[-95.321038, 36.310609], [-95.320887, 36.310568], [-95.320854, 36.310648], [-95.321005, 36.310688], [-95.321038, 36.310609]]]}, "properties": {"osm_id": 855601440, "building": "yes", "name": "", "height": null, "height_m": null, "levels": null, "tract_id": "40097040100", "tract_name": "401", "tags": {"building": "yes", "source": "microsoft/BuildingFootprints"}}}, {"type": "Feature", "geometry": {"type": "Polygon", "coordinates": [[[-95.319642, 36.31053], [-95.319502, 36.310501], [-95.319485, 36.310555], [-95.319625, 36.310584], [-95.319642, 36.31053]]]}, "properties": {"osm_id": 855601441, "building": "yes", "name": "", "height": null, "height_m": null, "levels": null, "tract_id": "40097040100", "tract_name": "401", "tags": {"building": "yes", "source": "microsoft/BuildingFootprints"}}}, {"type": "Feature", "geometry": {"type": "Polygon", "coordinates": [[[-95.322098, 36.309443], [-95.322074, 36.309518], [-95.322322, 36.309571], [-95.322346, 36.309496], [-95.322098, 36.309443]]]}, "properties": {"osm_id": 855601442, "building": "yes", "name": "", "height": null, "height_m": null, "levels": null, "tract_id": "40097040100", "tract_name": "401", "tags": {"building": "yes", "source": "microsoft/BuildingFootprints"}}}, {"type": "Feature", "geometry": {"type": "Polygon", "coordinates": [[[-95.322662, 36.309322], [-95.322605, 36.30948], [-95.322708, 36.309504], [-95.322765, 36.309347], [-95.322662, 36.309322]]]}, "properties": {"osm_id": 855601443, "building": "yes", "name": "", "height": null, "height_m": null, "levels": null, "tract_id": "40097040100", "tract_name": "401", "tags": {"building": "yes", "source": "microsoft/BuildingFootprints"}}}, {"type": "Feature", "geometry": {"type": "Polygon", "coordinates": [[[-95.325068, 36.310374], [-95.325412, 36.310396], [-95.325456, 36.309954], [-95.325191, 36.309937], [-95.325195, 36.309894], [-95.325117, 36.309889], [-95.325068, 36.310374]]]}, "properties": {"osm_id": 855601444, "building": "yes", "name": "", "height": null, "height_m": null, "levels": null, "tract_id": "40097040100", "tract_name": "401", "tags": {"building": "yes", "source": "microsoft/BuildingFootprints"}}}, {"type": "Feature", "geometry": {"type": "Polygon", "coordinates": [[[-95.3263424, 36.3106339], [-95.3262402, 36.3106078], [-95.3261335, 36.3108771], [-95.3262347, 36.3109031], [-95.3263424, 36.3106339]]]}, "properties": {"osm_id": 855601445, "building": "yes", "name": "", "height": null, "height_m": null, "levels": null, "tract_id": "40097040100", "tract_name": "401", "tags": {"building": "yes", "source": "microsoft/BuildingFootprints"}}}, {"type": "Feature", "geometry": {"type": "Polygon", "coordinates": [[[-95.325942, 36.3108319], [-95.3260448, 36.3108572], [-95.3261441, 36.3105841], [-95.3260422, 36.3105599], [-95.325942, 36.3108319]]]}, "properties": {"osm_id": 855601446, "building": "yes", "name": "", "height": null, "height_m": null, "levels": null, "tract_id": "40097040100", "tract_name": "401", "tags": {"building": "yes", "source": "microsoft/BuildingFootprints"}}}, {"type": "Feature", "geometry": {"type": "Polygon", "coordinates": [[[-95.3259658, 36.3105399], [-95.3258601, 36.3105156], [-95.3257632, 36.3107881], [-95.3258689, 36.3108124], [-95.3259658, 36.3105399]]]}, "properties": {"osm_id": 855601447, "building": "yes", "name": "", "height": null, "height_m": null, "levels": null, "tract_id": "40097040100", "tract_name": "401", "tags": {"building": "yes", "source": "microsoft/BuildingFootprints"}}}, {"type": "Feature", "geometry": {"type": "Polygon", "coordinates": [[[-95.3256712, 36.3107652], [-95.3257709, 36.3104956], [-95.3256648, 36.3104699], [-95.3255641, 36.3107404], [-95.3256712, 36.3107652]]]}, "properties": {"osm_id": 855601448, "building": "yes", "name": "", "height": null, "height_m": null, "levels": null, "tract_id": "40097040100", "tract_name": "401", "tags": {"building": "yes", "source": "microsoft/BuildingFootprints"}}}, {"type": "Feature", "geometry": {"type": "Polygon", "coordinates": [[[-95.3262535, 36.3102674], [-95.3261512, 36.3102444], [-95.3260561, 36.3105167], [-95.3261594, 36.3105397], [-95.3262535, 36.3102674]]]}, "properties": {"osm_id": 855601449, "building": "yes", "name": "", "height": null, "height_m": null, "levels": null, "tract_id": "40097040100", "tract_name": "401", "tags": {"building": "yes", "source": "microsoft/BuildingFootprints"}}}, {"type": "Feature", "geometry": {"type": "Polygon", "coordinates": [[[-95.327567, 36.3116], [-95.327567, 36.311457], [-95.32721, 36.311457], [-95.32721, 36.3116], [-95.327567, 36.3116]]]}, "properties": {"osm_id": 855601450, "building": "yes", "name": "", "height": null, "height_m": null, "levels": null, "tract_id": "40097040100", "tract_name": "401", "tags": {"building": "yes", "source": "microsoft/BuildingFootprints"}}}, {"type": "Feature", "geometry": {"type": "Polygon", "coordinates": [[[-95.327385, 36.311846], [-95.327562, 36.311846], [-95.327562, 36.311732], [-95.327385, 36.311732], [-95.327385, 36.311846]]]}, "properties": {"osm_id": 855601451, "building": "yes", "name": "", "height": null, "height_m": null, "levels": null, "tract_id": "40097040100", "tract_name": "401", "tags": {"building": "yes", "source": "microsoft/BuildingFootprints"}}}, {"type": "Feature", "geometry": {"type": "Polygon", "coordinates": [[[-95.327406, 36.312361], [-95.327582, 36.312363], [-95.32759, 36.311947], [-95.327414, 36.311945], [-95.327406, 36.312361]]]}, "properties": {"osm_id": 855601452, "building": "yes", "name": "", "height": null, "height_m": null, "levels": null, "tract_id": "40097040100", "tract_name": "401", "tags": {"building": "yes", "source": "microsoft/BuildingFootprints"}}}, {"type": "Feature", "geometry": {"type": "Polygon", "coordinates": [[[-95.327417, 36.312426], [-95.327417, 36.312648], [-95.327564, 36.312648], [-95.327564, 36.312426], [-95.327417, 36.312426]]]}, "properties": {"osm_id": 855601453, "building": "yes", "name": "", "height": null, "height_m": null, "levels": null, "tract_id": "40097040100", "tract_name": "401", "tags": {"building": "yes", "source": "microsoft/BuildingFootprints"}}}, {"type": "Feature", "geometry": {"type": "Polygon", "coordinates": [[[-95.326867, 36.313405], [-95.326867, 36.313206], [-95.32676, 36.313206], [-95.32676, 36.313405], [-95.326867, 36.313405]]]}, "properties": {"osm_id": 855601454, "building": "yes", "name": "", "height": null, "height_m": null, "levels": null, "tract_id": "40097040100", "tract_name": "401", "tags": {"building": "yes", "source": "microsoft/BuildingFootprints"}}}, {"type": "Feature", "geometry": {"type": "Polygon", "coordinates": [[[-95.327589, 36.313422], [-95.327685, 36.313422], [-95.327685, 36.313266], [-95.327589, 36.313266], [-95.327589, 36.313422]]]}, "properties": {"osm_id": 855601455, "building": "yes", "name": "", "height": null, "height_m": null, "levels": null, "tract_id": "40097040100", "tract_name": "401", "tags": {"building": "yes", "source": "microsoft/BuildingFootprints"}}}, {"type": "Feature", "geometry": {"type": "Polygon", "coordinates": [[[-95.325706, 36.312333], [-95.325706, 36.312581], [-95.325816, 36.312581], [-95.325816, 36.312333], [-95.325706, 36.312333]]]}, "properties": {"osm_id": 855601456, "building": "yes", "name": "", "height": null, "height_m": null, "levels": null, "tract_id": "40097040100", "tract_name": "401", "tags": {"building": "yes", "source": "microsoft/BuildingFootprints"}}}, {"type": "Feature", "geometry": {"type": "Polygon", "coordinates": [[[-95.328708, 36.313947], [-95.328428, 36.313944], [-95.328429, 36.313888], [-95.32867, 36.31389], [-95.328672, 36.313781], [-95.328342, 36.313777], [-95.328338, 36.314064], [-95.328706, 36.314068], [-95.328708, 36.313947]]]}, "properties": {"osm_id": 855601457, "building": "yes", "name": "", "height": null, "height_m": null, "levels": null, "tract_id": "40097040100", "tract_name": "401", "tags": {"building": "yes", "source": "microsoft/BuildingFootprints"}}}, {"type": "Feature", "geometry": {"type": "Polygon", "coordinates": [[[-95.328745, 36.313809], [-95.328745, 36.314062], [-95.328951, 36.314062], [-95.328951, 36.313809], [-95.328745, 36.313809]]]}, "properties": {"osm_id": 855601458, "building": "yes", "name": "", "height": null, "height_m": null, "levels": null, "tract_id": "40097040100", "tract_name": "401", "tags": {"building": "yes", "source": "microsoft/BuildingFootprints"}}}, {"type": "Feature", "geometry": {"type": "Polygon", "coordinates": [[[-95.328289, 36.314189], [-95.328489, 36.314189], [-95.328489, 36.314116], [-95.328289, 36.314116], [-95.328289, 36.314189]]]}, "properties": {"osm_id": 855601459, "building": "yes", "name": "", "height": null, "height_m": null, "levels": null, "tract_id": "40097040100", "tract_name": "401", "tags": {"building": "yes", "source": "microsoft/BuildingFootprints"}}}, {"type": "Feature", "geometry": {"type": "Polygon", "coordinates": [[[-95.318491, 36.314185], [-95.318491, 36.314341], [-95.318601, 36.314341], [-95.318601, 36.314185], [-95.318491, 36.314185]]]}, "properties": {"osm_id": 855601460, "building": "yes", "name": "", "height": null, "height_m": null, "levels": null, "tract_id": "40097040100", "tract_name": "401", "tags": {"building": "yes", "source": "microsoft/BuildingFootprints"}}}, {"type": "Feature", "geometry": {"type": "Polygon", "coordinates": [[[-95.318592, 36.313182], [-95.318472, 36.313182], [-95.318472, 36.313327], [-95.318592, 36.313327], [-95.318592, 36.313182]]]}, "properties": {"osm_id": 855601461, "building": "yes", "name": "", "height": null, "height_m": null, "levels": null, "tract_id": "40097040100", "tract_name": "401", "tags": {"building": "yes", "source": "microsoft/BuildingFootprints"}}}, {"type": "Feature", "geometry": {"type": "Polygon", "coordinates": [[[-95.318584, 36.313132], [-95.318584, 36.312975], [-95.318474, 36.312975], [-95.318474, 36.313132], [-95.318584, 36.313132]]]}, "properties": {"osm_id": 855601462, "building": "yes", "name": "", "height": null, "height_m": null, "levels": null, "tract_id": "40097040100", "tract_name": "401", "tags": {"building": "yes", "source": "microsoft/BuildingFootprints"}}}, {"type": "Feature", "geometry": {"type": "Polygon", "coordinates": [[[-95.318324, 36.312713], [-95.318474, 36.312713], [-95.318474, 36.312642], [-95.318324, 36.312642], [-95.318324, 36.312713]]]}, "properties": {"osm_id": 855601463, "building": "yes", "name": "", "height": null, "height_m": null, "levels": null, "tract_id": "40097040100", "tract_name": "401", "tags": {"building": "yes", "source": "microsoft/BuildingFootprints"}}}, {"type": "Feature", "geometry": {"type": "Polygon", "coordinates": [[[-95.320054, 36.313037], [-95.320164, 36.313037], [-95.320164, 36.312882], [-95.320054, 36.312882], [-95.320054, 36.313037]]]}, "properties": {"osm_id": 855601464, "building": "yes", "name": "", "height": null, "height_m": null, "levels": null, "tract_id": "40097040100", "tract_name": "401", "tags": {"building": "yes", "source": "microsoft/BuildingFootprints"}}}, {"type": "Feature", "geometry": {"type": "Polygon", "coordinates": [[[-95.317969, 36.311697], [-95.318581, 36.311835], [-95.318647, 36.311643], [-95.318035, 36.311505], [-95.317969, 36.311697]]]}, "properties": {"osm_id": 855601465, "building": "yes", "name": "", "height": null, "height_m": null, "levels": null, "tract_id": "40097040100", "tract_name": "401", "tags": {"building": "yes", "source": "microsoft/BuildingFootprints"}}}, {"type": "Feature", "geometry": {"type": "Polygon", "coordinates": [[[-95.317462, 36.311614], [-95.317538, 36.311648], [-95.317598, 36.31156], [-95.317522, 36.311526], [-95.317462, 36.311614]]]}, "properties": {"osm_id": 855601466, "building": "yes", "name": "", "height": null, "height_m": null, "levels": null, "tract_id": "40097040100", "tract_name": "401", "tags": {"building": "yes", "source": "microsoft/BuildingFootprints"}}}, {"type": "Feature", "geometry": {"type": "Polygon", "coordinates": [[[-95.317775, 36.31085], [-95.317683, 36.311135], [-95.317892, 36.311179], [-95.317984, 36.310893], [-95.317775, 36.31085]]]}, "properties": {"osm_id": 855601467, "building": "yes", "name": "", "height": null, "height_m": null, "levels": null, "tract_id": "40097040100", "tract_name": "401", "tags": {"building": "yes", "source": "microsoft/BuildingFootprints"}}}, {"type": "Feature", "geometry": {"type": "Polygon", "coordinates": [[[-95.31754, 36.311117], [-95.317424, 36.311086], [-95.317406, 36.31113], [-95.317522, 36.311161], [-95.31754, 36.311117]]]}, "properties": {"osm_id": 855601468, "building": "yes", "name": "", "height": null, "height_m": null, "levels": null, "tract_id": "40097040100", "tract_name": "401", "tags": {"building": "yes", "source": "microsoft/BuildingFootprints"}}}, {"type": "Feature", "geometry": {"type": "Polygon", "coordinates": [[[-95.316377, 36.310776], [-95.316169, 36.31073], [-95.316114, 36.310893], [-95.316322, 36.310939], [-95.316377, 36.310776]]]}, "properties": {"osm_id": 855601469, "building": "yes", "name": "", "height": null, "height_m": null, "levels": null, "tract_id": "40097040100", "tract_name": "401", "tags": {"building": "yes", "source": "microsoft/BuildingFootprints"}}}, {"type": "Feature", "geometry": {"type": "Polygon", "coordinates": [[[-95.315734, 36.310417], [-95.315676, 36.310572], [-95.315801, 36.310602], [-95.315859, 36.310448], [-95.315734, 36.310417]]]}, "properties": {"osm_id": 855601470, "building": "yes", "name": "", "height": null, "height_m": null, "levels": null, "tract_id": "40097040100", "tract_name": "401", "tags": {"building": "yes", "source": "microsoft/BuildingFootprints"}}}, {"type": "Feature", "geometry": {"type": "Polygon", "coordinates": [[[-95.31516, 36.310245], [-95.314971, 36.310206], [-95.314918, 36.310371], [-95.315107, 36.31041], [-95.31516, 36.310245]]]}, "properties": {"osm_id": 855601471, "building": "yes", "name": "", "height": null, "height_m": null, "levels": null, "tract_id": "40097040100", "tract_name": "401", "tags": {"building": "yes", "source": "microsoft/BuildingFootprints"}}}, {"type": "Feature", "geometry": {"type": "Polygon", "coordinates": [[[-95.314989, 36.310134], [-95.315099, 36.310162], [-95.315132, 36.310077], [-95.315022, 36.31005], [-95.314989, 36.310134]]]}, "properties": {"osm_id": 855601472, "building": "yes", "name": "", "height": null, "height_m": null, "levels": null, "tract_id": "40097040100", "tract_name": "401", "tags": {"building": "yes", "source": "microsoft/BuildingFootprints"}}}, {"type": "Feature", "geometry": {"type": "Polygon", "coordinates": [[[-95.312426, 36.309397], [-95.312397, 36.309479], [-95.312662, 36.309539], [-95.312691, 36.309456], [-95.312426, 36.309397]]]}, "properties": {"osm_id": 855601473, "building": "yes", "name": "", "height": null, "height_m": null, "levels": null, "tract_id": "40097040100", "tract_name": "401", "tags": {"building": "yes", "source": "microsoft/BuildingFootprints"}}}, {"type": "Feature", "geometry": {"type": "Polygon", "coordinates": [[[-95.31234, 36.309693], [-95.312549, 36.309744], [-95.312581, 36.309657], [-95.312373, 36.309606], [-95.31234, 36.309693]]]}, "properties": {"osm_id": 855601474, "building": "yes", "name": "", "height": null, "height_m": null, "levels": null, "tract_id": "40097040100", "tract_name": "401", "tags": {"building": "yes", "source": "microsoft/BuildingFootprints"}}}, {"type": "Feature", "geometry": {"type": "Polygon", "coordinates": [[[-95.310012, 36.31063], [-95.310152, 36.31063], [-95.310152, 36.310535], [-95.310194, 36.310535], [-95.310194, 36.310457], [-95.310122, 36.310457], [-95.310122, 36.310401], [-95.310012, 36.310401], [-95.310012, 36.31063]]]}, "properties": {"osm_id": 855601475, "building": "yes", "name": "", "height": null, "height_m": null, "levels": null, "tract_id": "40097040100", "tract_name": "401", "tags": {"building": "yes", "source": "microsoft/BuildingFootprints"}}}, {"type": "Feature", "geometry": {"type": "Polygon", "coordinates": [[[-95.311341, 36.310711], [-95.311144, 36.3107], [-95.311141, 36.310738], [-95.311095, 36.310736], [-95.311088, 36.310827], [-95.311128, 36.310829], [-95.311125, 36.310866], [-95.311261, 36.310873], [-95.311269, 36.310783], [-95.311335, 36.310786], [-95.311341, 36.310711]]]}, "properties": {"osm_id": 855601476, "building": "yes", "name": "", "height": null, "height_m": null, "levels": null, "tract_id": "40097040100", "tract_name": "401", "tags": {"building": "yes", "source": "microsoft/BuildingFootprints"}}}, {"type": "Feature", "geometry": {"type": "Polygon", "coordinates": [[[-95.310162, 36.311918], [-95.309975, 36.311918], [-95.309975, 36.312002], [-95.310082, 36.312002], [-95.310082, 36.312052], [-95.310162, 36.312052], [-95.310162, 36.311918]]]}, "properties": {"osm_id": 855601477, "building": "yes", "name": "", "height": null, "height_m": null, "levels": null, "tract_id": "40097040100", "tract_name": "401", "tags": {"building": "yes", "source": "microsoft/BuildingFootprints"}}}, {"type": "Feature", "geometry": {"type": "Polygon", "coordinates": [[[-95.309993, 36.312676], [-95.310082, 36.312676], [-95.310082, 36.312529], [-95.309993, 36.312529], [-95.309993, 36.312676]]]}, "properties": {"osm_id": 855601478, "building": "yes", "name": "", "height": null, "height_m": null, "levels": null, "tract_id": "40097040100", "tract_name": "401", "tags": {"building": "yes", "source": "microsoft/BuildingFootprints"}}}, {"type": "Feature", "geometry": {"type": "Polygon", "coordinates": [[[-95.311485, 36.312426], [-95.311391, 36.312426], [-95.311391, 36.312536], [-95.311485, 36.312536], [-95.311485, 36.312426]]]}, "properties": {"osm_id": 855601479, "building": "yes", "name": "", "height": null, "height_m": null, "levels": null, "tract_id": "40097040100", "tract_name": "401", "tags": {"building": "yes", "source": "microsoft/BuildingFootprints"}}}, {"type": "Feature", "geometry": {"type": "Polygon", "coordinates": [[[-95.310099, 36.313048], [-95.310197, 36.313049], [-95.310199, 36.312874], [-95.310035, 36.312873], [-95.310034, 36.312957], [-95.3101, 36.312958], [-95.310099, 36.313048]]]}, "properties": {"osm_id": 855601480, "building": "yes", "name": "", "height": null, "height_m": null, "levels": null, "tract_id": "40097040100", "tract_name": "401", "tags": {"building": "yes", "source": "microsoft/BuildingFootprints"}}}, {"type": "Feature", "geometry": {"type": "Polygon", "coordinates": [[[-95.310594, 36.313424], [-95.310766, 36.313424], [-95.310766, 36.313359], [-95.310699, 36.313359], [-95.310699, 36.313247], [-95.310594, 36.313247], [-95.310594, 36.313424]]]}, "properties": {"osm_id": 855601481, "building": "yes", "name": "", "height": null, "height_m": null, "levels": null, "tract_id": "40097040100", "tract_name": "401", "tags": {"building": "yes", "source": "microsoft/BuildingFootprints"}}}, {"type": "Feature", "geometry": {"type": "Polygon", "coordinates": [[[-95.310034, 36.31444], [-95.310162, 36.31444], [-95.310162, 36.314235], [-95.310034, 36.314235], [-95.310034, 36.31444]]]}, "properties": {"osm_id": 855601483, "building": "yes", "name": "", "height": null, "height_m": null, "levels": null, "tract_id": "40097040100", "tract_name": "401", "tags": {"building": "yes", "source": "microsoft/BuildingFootprints"}}}, {"type": "Feature", "geometry": {"type": "Polygon", "coordinates": [[[-95.31119, 36.315021], [-95.311407, 36.315021], [-95.311407, 36.314892], [-95.31119, 36.314892], [-95.31119, 36.315021]]]}, "properties": {"osm_id": 855601484, "building": "yes", "name": "", "height": null, "height_m": null, "levels": null, "tract_id": "40097040100", "tract_name": "401", "tags": {"building": "yes", "source": "microsoft/BuildingFootprints"}}}, {"type": "Feature", "geometry": {"type": "Polygon", "coordinates": [[[-95.310923, 36.314998], [-95.310851, 36.314998], [-95.31085, 36.31507], [-95.310923, 36.315071], [-95.310923, 36.314998]]]}, "properties": {"osm_id": 855601485, "building": "yes", "name": "", "height": null, "height_m": null, "levels": null, "tract_id": "40097040100", "tract_name": "401", "tags": {"building": "yes", "source": "microsoft/BuildingFootprints"}}}, {"type": "Feature", "geometry": {"type": "Polygon", "coordinates": [[[-95.303521, 36.315071], [-95.303615, 36.315071], [-95.303615, 36.314989], [-95.303521, 36.314989], [-95.303521, 36.315071]]]}, "properties": {"osm_id": 855601486, "building": "yes", "name": "", "height": null, "height_m": null, "levels": null, "tract_id": "40097040100", "tract_name": "401", "tags": {"building": "yes", "source": "microsoft/BuildingFootprints"}}}, {"type": "Feature", "geometry": {"type": "Polygon", "coordinates": [[[-95.303969, 36.314987], [-95.304119, 36.314987], [-95.304119, 36.31489], [-95.303969, 36.31489], [-95.303969, 36.314987]]]}, "properties": {"osm_id": 855601487, "building": "yes", "name": "", "height": null, "height_m": null, "levels": null, "tract_id": "40097040100", "tract_name": "401", "tags": {"building": "yes", "source": "microsoft/BuildingFootprints"}}}, {"type": "Feature", "geometry": {"type": "Polygon", "coordinates": [[[-95.303371, 36.313839], [-95.303256, 36.313839], [-95.303256, 36.313973], [-95.303371, 36.313973], [-95.303371, 36.313839]]]}, "properties": {"osm_id": 855602596, "building": "yes", "name": "", "height": null, "height_m": null, "levels": null, "tract_id": "40097040100", "tract_name": "401", "tags": {"building": "yes", "source": "microsoft/BuildingFootprints"}}}, {"type": "Feature", "geometry": {"type": "Polygon", "coordinates": [[[-95.302666, 36.313809], [-95.302666, 36.314008], [-95.302743, 36.314008], [-95.302743, 36.313809], [-95.302666, 36.313809]]]}, "properties": {"osm_id": 855602597, "building": "yes", "name": "", "height": null, "height_m": null, "levels": null, "tract_id": "40097040100", "tract_name": "401", "tags": {"building": "yes", "source": "microsoft/BuildingFootprints"}}}, {"type": "Feature", "geometry": {"type": "Polygon", "coordinates": [[[-95.302472, 36.31425], [-95.302625, 36.31425], [-95.302625, 36.314129], [-95.302379, 36.314129], [-95.302379, 36.314295], [-95.302472, 36.314295], [-95.302472, 36.31425]]]}, "properties": {"osm_id": 855602598, "building": "yes", "name": "", "height": null, "height_m": null, "levels": null, "tract_id": "40097040100", "tract_name": "401", "tags": {"building": "yes", "source": "microsoft/BuildingFootprints"}}}, {"type": "Feature", "geometry": {"type": "Polygon", "coordinates": [[[-95.302287, 36.313923], [-95.302395, 36.313923], [-95.302395, 36.313809], [-95.302287, 36.313809], [-95.302287, 36.313923]]]}, "properties": {"osm_id": 855602599, "building": "yes", "name": "", "height": null, "height_m": null, "levels": null, "tract_id": "40097040100", "tract_name": "401", "tags": {"building": "yes", "source": "microsoft/BuildingFootprints"}}}, {"type": "Feature", "geometry": {"type": "Polygon", "coordinates": [[[-95.30196, 36.313683], [-95.302219, 36.313681], [-95.302217, 36.313533], [-95.301958, 36.313535], [-95.30196, 36.313683]]]}, "properties": {"osm_id": 855602600, "building": "yes", "name": "", "height": null, "height_m": null, "levels": null, "tract_id": "40097040100", "tract_name": "401", "tags": {"building": "yes", "source": "microsoft/BuildingFootprints"}}}, {"type": "Feature", "geometry": {"type": "Polygon", "coordinates": [[[-95.301084, 36.313593], [-95.301238, 36.313594], [-95.301239, 36.313522], [-95.301198, 36.313521], [-95.301199, 36.313451], [-95.301085, 36.313451], [-95.301084, 36.313593]]]}, "properties": {"osm_id": 855602601, "building": "yes", "name": "", "height": null, "height_m": null, "levels": null, "tract_id": "40097040100", "tract_name": "401", "tags": {"building": "yes", "source": "microsoft/BuildingFootprints"}}}, {"type": "Feature", "geometry": {"type": "Polygon", "coordinates": [[[-95.301236, 36.313701], [-95.301196, 36.313701], [-95.301196, 36.31363], [-95.301088, 36.31363], [-95.301088, 36.31377], [-95.301236, 36.31377], [-95.301236, 36.313701]]]}, "properties": {"osm_id": 855602602, "building": "yes", "name": "", "height": null, "height_m": null, "levels": null, "tract_id": "40097040100", "tract_name": "401", "tags": {"building": "yes", "source": "microsoft/BuildingFootprints"}}}, {"type": "Feature", "geometry": {"type": "Polygon", "coordinates": [[[-95.301123, 36.314133], [-95.301123, 36.314278], [-95.301233, 36.314278], [-95.301233, 36.314133], [-95.301123, 36.314133]]]}, "properties": {"osm_id": 855602603, "building": "yes", "name": "", "height": null, "height_m": null, "levels": null, "tract_id": "40097040100", "tract_name": "401", "tags": {"building": "yes", "source": "microsoft/BuildingFootprints"}}}, {"type": "Feature", "geometry": {"type": "Polygon", "coordinates": [[[-95.30124, 36.313974], [-95.301138, 36.313973], [-95.301137, 36.31411], [-95.301239, 36.314111], [-95.30124, 36.313974]]]}, "properties": {"osm_id": 855602604, "building": "yes", "name": "", "height": null, "height_m": null, "levels": null, "tract_id": "40097040100", "tract_name": "401", "tags": {"building": "yes", "source": "microsoft/BuildingFootprints"}}}, {"type": "Feature", "geometry": {"type": "Polygon", "coordinates": [[[-95.300925, 36.314799], [-95.301121, 36.314799], [-95.301121, 36.314727], [-95.300925, 36.314727], [-95.300925, 36.314799]]]}, "properties": {"osm_id": 855602605, "building": "yes", "name": "", "height": null, "height_m": null, "levels": null, "tract_id": "40097040100", "tract_name": "401", "tags": {"building": "yes", "source": "microsoft/BuildingFootprints"}}}, {"type": "Feature", "geometry": {"type": "Polygon", "coordinates": [[[-95.301375, 36.314721], [-95.301182, 36.314721], [-95.301182, 36.314801], [-95.301257, 36.314801], [-95.301257, 36.31484], [-95.301375, 36.31484], [-95.301375, 36.314721]]]}, "properties": {"osm_id": 855602606, "building": "yes", "name": "", "height": null, "height_m": null, "levels": null, "tract_id": "40097040100", "tract_name": "401", "tags": {"building": "yes", "source": "microsoft/BuildingFootprints"}}}, {"type": "Feature", "geometry": {"type": "Polygon", "coordinates": [[[-95.30176, 36.31294], [-95.301642, 36.312939], [-95.301642, 36.312917], [-95.301545, 36.312916], [-95.301544, 36.313033], [-95.301615, 36.313033], [-95.301615, 36.313058], [-95.301678, 36.313058], [-95.301678, 36.313112], [-95.301759, 36.313113], [-95.30176, 36.31294]]]}, "properties": {"osm_id": 855602607, "building": "yes", "name": "", "height": null, "height_m": null, "levels": null, "tract_id": "40097040100", "tract_name": "401", "tags": {"building": "yes", "source": "microsoft/BuildingFootprints"}}}, {"type": "Feature", "geometry": {"type": "Polygon", "coordinates": [[[-95.302057, 36.312908], [-95.302057, 36.312988], [-95.302231, 36.312988], [-95.302231, 36.312908], [-95.302057, 36.312908]]]}, "properties": {"osm_id": 855602608, "building": "yes", "name": "", "height": null, "height_m": null, "levels": null, "tract_id": "40097040100", "tract_name": "401", "tags": {"building": "yes", "source": "microsoft/BuildingFootprints"}}}, {"type": "Feature", "geometry": {"type": "Polygon", "coordinates": [[[-95.304092, 36.313107], [-95.304146, 36.313107], [-95.304146, 36.313037], [-95.304264, 36.313037], [-95.304264, 36.31291], [-95.304092, 36.31291], [-95.304092, 36.313107]]]}, "properties": {"osm_id": 855602609, "building": "yes", "name": "", "height": null, "height_m": null, "levels": null, "tract_id": "40097040100", "tract_name": "401", "tags": {"building": "yes", "source": "microsoft/BuildingFootprints"}}}, {"type": "Feature", "geometry": {"type": "Polygon", "coordinates": [[[-95.303653, 36.31291], [-95.303492, 36.31291], [-95.303492, 36.312992], [-95.303653, 36.312992], [-95.303653, 36.31291]]]}, "properties": {"osm_id": 855602610, "building": "yes", "name": "", "height": null, "height_m": null, "levels": null, "tract_id": "40097040100", "tract_name": "401", "tags": {"building": "yes", "source": "microsoft/BuildingFootprints"}}}, {"type": "Feature", "geometry": {"type": "Polygon", "coordinates": [[[-95.303262, 36.312088], [-95.303189, 36.312016], [-95.303025, 36.312125], [-95.303097, 36.312196], [-95.303262, 36.312088]]]}, "properties": {"osm_id": 855602611, "building": "yes", "name": "", "height": null, "height_m": null, "levels": null, "tract_id": "40097040100", "tract_name": "401", "tags": {"building": "yes", "source": "microsoft/BuildingFootprints"}}}, {"type": "Feature", "geometry": {"type": "Polygon", "coordinates": [[[-95.305369, 36.311635], [-95.305155, 36.311635], [-95.305155, 36.311741], [-95.305369, 36.311741], [-95.305369, 36.311635]]]}, "properties": {"osm_id": 855602612, "building": "yes", "name": "", "height": null, "height_m": null, "levels": null, "tract_id": "40097040100", "tract_name": "401", "tags": {"building": "yes", "source": "microsoft/BuildingFootprints"}}}, {"type": "Feature", "geometry": {"type": "Polygon", "coordinates": [[[-95.305586, 36.311736], [-95.305586, 36.311598], [-95.305436, 36.311598], [-95.305436, 36.311736], [-95.305586, 36.311736]]]}, "properties": {"osm_id": 855602613, "building": "yes", "name": "", "height": null, "height_m": null, "levels": null, "tract_id": "40097040100", "tract_name": "401", "tags": {"building": "yes", "source": "microsoft/BuildingFootprints"}}}, {"type": "Feature", "geometry": {"type": "Polygon", "coordinates": [[[-95.303773, 36.311278], [-95.303883, 36.311278], [-95.303883, 36.311125], [-95.303773, 36.311125], [-95.303773, 36.311278]]]}, "properties": {"osm_id": 855602614, "building": "yes", "name": "", "height": null, "height_m": null, "levels": null, "tract_id": "40097040100", "tract_name": "401", "tags": {"building": "yes", "source": "microsoft/BuildingFootprints"}}}, {"type": "Feature", "geometry": {"type": "Polygon", "coordinates": [[[-95.301469, 36.31034], [-95.301456, 36.310405], [-95.301513, 36.310412], [-95.301498, 36.310486], [-95.301626, 36.310503], [-95.301655, 36.310366], [-95.301469, 36.31034]]]}, "properties": {"osm_id": 855602615, "building": "yes", "name": "", "height": null, "height_m": null, "levels": null, "tract_id": "40097040100", "tract_name": "401", "tags": {"building": "yes", "source": "microsoft/BuildingFootprints"}}}, {"type": "Feature", "geometry": {"type": "Polygon", "coordinates": [[[-95.300962, 36.310516], [-95.30092, 36.310438], [-95.300972, 36.31042], [-95.300939, 36.310358], [-95.30078, 36.310413], [-95.300854, 36.310554], [-95.300962, 36.310516]]]}, "properties": {"osm_id": 855602616, "building": "yes", "name": "", "height": null, "height_m": null, "levels": null, "tract_id": "40097040100", "tract_name": "401", "tags": {"building": "yes", "source": "microsoft/BuildingFootprints"}}}, {"type": "Feature", "geometry": {"type": "Polygon", "coordinates": [[[-95.301585, 36.31013], [-95.301566, 36.310235], [-95.301757, 36.310258], [-95.301784, 36.310105], [-95.301678, 36.310093], [-95.301669, 36.31014], [-95.301585, 36.31013]]]}, "properties": {"osm_id": 855602617, "building": "yes", "name": "", "height": null, "height_m": null, "levels": null, "tract_id": "40097040100", "tract_name": "401", "tags": {"building": "yes", "source": "microsoft/BuildingFootprints"}}}, {"type": "Feature", "geometry": {"type": "Polygon", "coordinates": [[[-95.300004, 36.310278], [-95.300001, 36.310418], [-95.300111, 36.310419], [-95.300114, 36.310279], [-95.300004, 36.310278]]]}, "properties": {"osm_id": 855602618, "building": "yes", "name": "", "height": null, "height_m": null, "levels": null, "tract_id": "40097040100", "tract_name": "401", "tags": {"building": "yes", "source": "microsoft/BuildingFootprints"}}}, {"type": "Feature", "geometry": {"type": "Polygon", "coordinates": [[[-95.299994, 36.310472], [-95.299994, 36.310612], [-95.300107, 36.310612], [-95.300107, 36.310472], [-95.299994, 36.310472]]]}, "properties": {"osm_id": 855602619, "building": "yes", "name": "", "height": null, "height_m": null, "levels": null, "tract_id": "40097040100", "tract_name": "401", "tags": {"building": "yes", "source": "microsoft/BuildingFootprints"}}}, {"type": "Feature", "geometry": {"type": "Polygon", "coordinates": [[[-95.299987, 36.310655], [-95.299983, 36.310813], [-95.30009, 36.310815], [-95.300095, 36.310657], [-95.299987, 36.310655]]]}, "properties": {"osm_id": 855602620, "building": "yes", "name": "", "height": null, "height_m": null, "levels": null, "tract_id": "40097040100", "tract_name": "401", "tags": {"building": "yes", "source": "microsoft/BuildingFootprints"}}}, {"type": "Feature", "geometry": {"type": "Polygon", "coordinates": [[[-95.300002, 36.310225], [-95.300115, 36.310225], [-95.300115, 36.310083], [-95.300002, 36.310083], [-95.300002, 36.310225]]]}, "properties": {"osm_id": 855602621, "building": "yes", "name": "", "height": null, "height_m": null, "levels": null, "tract_id": "40097040100", "tract_name": "401", "tags": {"building": "yes", "source": "microsoft/BuildingFootprints"}}}, {"type": "Feature", "geometry": {"type": "Polygon", "coordinates": [[[-95.300443, 36.310277], [-95.300557, 36.310277], [-95.300557, 36.310113], [-95.300443, 36.310113], [-95.300443, 36.310277]]]}, "properties": {"osm_id": 855602622, "building": "yes", "name": "", "height": null, "height_m": null, "levels": null, "tract_id": "40097040100", "tract_name": "401", "tags": {"building": "yes", "source": "microsoft/BuildingFootprints"}}}, {"type": "Feature", "geometry": {"type": "Polygon", "coordinates": [[[-95.300534, 36.309625], [-95.300532, 36.309737], [-95.300646, 36.309738], [-95.300647, 36.309722], [-95.300732, 36.309722], [-95.300734, 36.309625], [-95.30066, 36.309624], [-95.300661, 36.309583], [-95.300576, 36.309583], [-95.300576, 36.309626], [-95.300534, 36.309625]]]}, "properties": {"osm_id": 855602623, "building": "yes", "name": "", "height": null, "height_m": null, "levels": null, "tract_id": "40097040100", "tract_name": "401", "tags": {"building": "yes", "source": "microsoft/BuildingFootprints"}}}, {"type": "Feature", "geometry": {"type": "Polygon", "coordinates": [[[-95.30137, 36.309594], [-95.30137, 36.309702], [-95.301512, 36.309702], [-95.301512, 36.309674], [-95.301574, 36.309674], [-95.301574, 36.309594], [-95.30137, 36.309594]]]}, "properties": {"osm_id": 855602624, "building": "yes", "name": "", "height": null, "height_m": null, "levels": null, "tract_id": "40097040100", "tract_name": "401", "tags": {"building": "yes", "source": "microsoft/BuildingFootprints"}}}, {"type": "Feature", "geometry": {"type": "Polygon", "coordinates": [[[-95.30186, 36.309703], [-95.301708, 36.30966], [-95.301655, 36.309783], [-95.301767, 36.309814], [-95.30179, 36.309762], [-95.301829, 36.309773], [-95.30186, 36.309703]]]}, "properties": {"osm_id": 855602625, "building": "yes", "name": "", "height": null, "height_m": null, "levels": null, "tract_id": "40097040100", "tract_name": "401", "tags": {"building": "yes", "source": "microsoft/BuildingFootprints"}}}, {"type": "Feature", "geometry": {"type": "Polygon", "coordinates": [[[-95.301887, 36.309563], [-95.301929, 36.309647], [-95.302014, 36.309619], [-95.301972, 36.309535], [-95.301887, 36.309563]]]}, "properties": {"osm_id": 855602626, "building": "yes", "name": "", "height": null, "height_m": null, "levels": null, "tract_id": "40097040100", "tract_name": "401", "tags": {"building": "yes", "source": "microsoft/BuildingFootprints"}}}, {"type": "Feature", "geometry": {"type": "Polygon", "coordinates": [[[-95.30224, 36.309583], [-95.302342, 36.309693], [-95.302456, 36.309625], [-95.302354, 36.309515], [-95.30224, 36.309583]]]}, "properties": {"osm_id": 855602627, "building": "yes", "name": "", "height": null, "height_m": null, "levels": null, "tract_id": "40097040100", "tract_name": "401", "tags": {"building": "yes", "source": "microsoft/BuildingFootprints"}}}, {"type": "Feature", "geometry": {"type": "Polygon", "coordinates": [[[-95.30303, 36.310392], [-95.303207, 36.310392], [-95.303207, 36.310301], [-95.30303, 36.310301], [-95.30303, 36.310392]]]}, "properties": {"osm_id": 855602628, "building": "yes", "name": "", "height": null, "height_m": null, "levels": null, "tract_id": "40097040100", "tract_name": "401", "tags": {"building": "yes", "source": "microsoft/BuildingFootprints"}}}, {"type": "Feature", "geometry": {"type": "Polygon", "coordinates": [[[-95.303459, 36.310392], [-95.303459, 36.310301], [-95.303282, 36.310301], [-95.303282, 36.310392], [-95.303459, 36.310392]]]}, "properties": {"osm_id": 855602629, "building": "yes", "name": "", "height": null, "height_m": null, "levels": null, "tract_id": "40097040100", "tract_name": "401", "tags": {"building": "yes", "source": "microsoft/BuildingFootprints"}}}, {"type": "Feature", "geometry": {"type": "Polygon", "coordinates": [[[-95.300914, 36.31136], [-95.300914, 36.311522], [-95.301021, 36.311522], [-95.301021, 36.31136], [-95.300914, 36.31136]]]}, "properties": {"osm_id": 855602630, "building": "yes", "name": "", "height": null, "height_m": null, "levels": null, "tract_id": "40097040100", "tract_name": "401", "tags": {"building": "yes", "source": "microsoft/BuildingFootprints"}}}, {"type": "Feature", "geometry": {"type": "Polygon", "coordinates": [[[-95.30061, 36.311335], [-95.300593, 36.311251], [-95.300393, 36.311278], [-95.30041, 36.311362], [-95.30061, 36.311335]]]}, "properties": {"osm_id": 855602631, "building": "yes", "name": "", "height": null, "height_m": null, "levels": null, "tract_id": "40097040100", "tract_name": "401", "tags": {"building": "yes", "source": "microsoft/BuildingFootprints"}}}, {"type": "Feature", "geometry": {"type": "Polygon", "coordinates": [[[-95.300458, 36.312041], [-95.300359, 36.312041], [-95.300359, 36.312203], [-95.300458, 36.312203], [-95.300458, 36.312041]]]}, "properties": {"osm_id": 855602632, "building": "yes", "name": "", "height": null, "height_m": null, "levels": null, "tract_id": "40097040100", "tract_name": "401", "tags": {"building": "yes", "source": "microsoft/BuildingFootprints"}}}, {"type": "Feature", "geometry": {"type": "Polygon", "coordinates": [[[-95.299914, 36.311568], [-95.299914, 36.311725], [-95.300029, 36.311725], [-95.300029, 36.311568], [-95.299914, 36.311568]]]}, "properties": {"osm_id": 855602633, "building": "yes", "name": "", "height": null, "height_m": null, "levels": null, "tract_id": "40097040100", "tract_name": "401", "tags": {"building": "yes", "source": "microsoft/BuildingFootprints"}}}, {"type": "Feature", "geometry": {"type": "Polygon", "coordinates": [[[-95.29982, 36.312335], [-95.29982, 36.312493], [-95.29993, 36.312493], [-95.29993, 36.312335], [-95.29982, 36.312335]]]}, "properties": {"osm_id": 855602634, "building": "yes", "name": "", "height": null, "height_m": null, "levels": null, "tract_id": "40097040100", "tract_name": "401", "tags": {"building": "yes", "source": "microsoft/BuildingFootprints"}}}, {"type": "Feature", "geometry": {"type": "Polygon", "coordinates": [[[-95.300395, 36.31257], [-95.300481, 36.312615], [-95.300589, 36.312483], [-95.300503, 36.312437], [-95.300395, 36.31257]]]}, "properties": {"osm_id": 855602635, "building": "yes", "name": "", "height": null, "height_m": null, "levels": null, "tract_id": "40097040100", "tract_name": "401", "tags": {"building": "yes", "source": "microsoft/BuildingFootprints"}}}, {"type": "Feature", "geometry": {"type": "Polygon", "coordinates": [[[-95.299347, 36.312576], [-95.299441, 36.312631], [-95.299484, 36.312583], [-95.299565, 36.312631], [-95.299627, 36.312561], [-95.299452, 36.312459], [-95.299347, 36.312576]]]}, "properties": {"osm_id": 855602636, "building": "yes", "name": "", "height": null, "height_m": null, "levels": null, "tract_id": "40097040100", "tract_name": "401", "tags": {"building": "yes", "source": "microsoft/BuildingFootprints"}}}, {"type": "Feature", "geometry": {"type": "Polygon", "coordinates": [[[-95.299487, 36.312243], [-95.299387, 36.312276], [-95.299462, 36.312421], [-95.299561, 36.312387], [-95.299487, 36.312243]]]}, "properties": {"osm_id": 855602637, "building": "yes", "name": "", "height": null, "height_m": null, "levels": null, "tract_id": "40097040100", "tract_name": "401", "tags": {"building": "yes", "source": "microsoft/BuildingFootprints"}}}, {"type": "Feature", "geometry": {"type": "Polygon", "coordinates": [[[-95.29881, 36.312432], [-95.298917, 36.312454], [-95.298964, 36.312301], [-95.298857, 36.31228], [-95.29881, 36.312432]]]}, "properties": {"osm_id": 855602638, "building": "yes", "name": "", "height": null, "height_m": null, "levels": null, "tract_id": "40097040100", "tract_name": "401", "tags": {"building": "yes", "source": "microsoft/BuildingFootprints"}}}, {"type": "Feature", "geometry": {"type": "Polygon", "coordinates": [[[-95.298905, 36.312079], [-95.298904, 36.312238], [-95.299016, 36.312238], [-95.299016, 36.312079], [-95.298905, 36.312079]]]}, "properties": {"osm_id": 855602639, "building": "yes", "name": "", "height": null, "height_m": null, "levels": null, "tract_id": "40097040100", "tract_name": "401", "tags": {"building": "yes", "source": "microsoft/BuildingFootprints"}}}, {"type": "Feature", "geometry": {"type": "Polygon", "coordinates": [[[-95.299334, 36.312194], [-95.299452, 36.312194], [-95.299452, 36.31205], [-95.299334, 36.31205], [-95.299334, 36.312194]]]}, "properties": {"osm_id": 855602640, "building": "yes", "name": "", "height": null, "height_m": null, "levels": null, "tract_id": "40097040100", "tract_name": "401", "tags": {"building": "yes", "source": "microsoft/BuildingFootprints"}}}, {"type": "Feature", "geometry": {"type": "Polygon", "coordinates": [[[-95.299334, 36.311849], [-95.299334, 36.312006], [-95.299436, 36.312006], [-95.299436, 36.311849], [-95.299334, 36.311849]]]}, "properties": {"osm_id": 855602641, "building": "yes", "name": "", "height": null, "height_m": null, "levels": null, "tract_id": "40097040100", "tract_name": "401", "tags": {"building": "yes", "source": "microsoft/BuildingFootprints"}}}, {"type": "Feature", "geometry": {"type": "Polygon", "coordinates": [[[-95.299332, 36.311814], [-95.299433, 36.311814], [-95.299433, 36.311658], [-95.299332, 36.311658], [-95.299332, 36.311814]]]}, "properties": {"osm_id": 855602642, "building": "yes", "name": "", "height": null, "height_m": null, "levels": null, "tract_id": "40097040100", "tract_name": "401", "tags": {"building": "yes", "source": "microsoft/BuildingFootprints"}}}, {"type": "Feature", "geometry": {"type": "Polygon", "coordinates": [[[-95.298825, 36.311604], [-95.299026, 36.311604], [-95.299026, 36.311514], [-95.298825, 36.311514], [-95.298825, 36.311604]]]}, "properties": {"osm_id": 855602643, "building": "yes", "name": "", "height": null, "height_m": null, "levels": null, "tract_id": "40097040100", "tract_name": "401", "tags": {"building": "yes", "source": "microsoft/BuildingFootprints"}}}, {"type": "Feature", "geometry": {"type": "Polygon", "coordinates": [[[-95.299612, 36.311187], [-95.299594, 36.311103], [-95.2994, 36.311129], [-95.299418, 36.311213], [-95.299612, 36.311187]]]}, "properties": {"osm_id": 855602644, "building": "yes", "name": "", "height": null, "height_m": null, "levels": null, "tract_id": "40097040100", "tract_name": "401", "tags": {"building": "yes", "source": "microsoft/BuildingFootprints"}}}, {"type": "Feature", "geometry": {"type": "Polygon", "coordinates": [[[-95.300421, 36.310552], [-95.300421, 36.310697], [-95.300533, 36.310697], [-95.300533, 36.310552], [-95.300421, 36.310552]]]}, "properties": {"osm_id": 855602645, "building": "yes", "name": "", "height": null, "height_m": null, "levels": null, "tract_id": "40097040100", "tract_name": "401", "tags": {"building": "yes", "source": "microsoft/BuildingFootprints"}}}, {"type": "Feature", "geometry": {"type": "Polygon", "coordinates": [[[-95.306804, 36.310748], [-95.306608, 36.310748], [-95.306608, 36.310841], [-95.306804, 36.310841], [-95.306804, 36.310748]]]}, "properties": {"osm_id": 855603916, "building": "yes", "name": "", "height": null, "height_m": null, "levels": null, "tract_id": "40097040100", "tract_name": "401", "tags": {"building": "yes", "source": "microsoft/BuildingFootprints"}}}, {"type": "Feature", "geometry": {"type": "Polygon", "coordinates": [[[-95.306211, 36.311209], [-95.306313, 36.311209], [-95.306313, 36.311092], [-95.306211, 36.311092], [-95.306211, 36.311209]]]}, "properties": {"osm_id": 855603917, "building": "yes", "name": "", "height": null, "height_m": null, "levels": null, "tract_id": "40097040100", "tract_name": "401", "tags": {"building": "yes", "source": "microsoft/BuildingFootprints"}}}, {"type": "Feature", "geometry": {"type": "Polygon", "coordinates": [[[-95.307861, 36.311278], [-95.307861, 36.311354], [-95.307971, 36.311354], [-95.307971, 36.311278], [-95.307861, 36.311278]]]}, "properties": {"osm_id": 855603918, "building": "yes", "name": "", "height": null, "height_m": null, "levels": null, "tract_id": "40097040100", "tract_name": "401", "tags": {"building": "yes", "source": "microsoft/BuildingFootprints"}}}, {"type": "Feature", "geometry": {"type": "Polygon", "coordinates": [[[-95.301955, 36.312555], [-95.301955, 36.312644], [-95.302137, 36.312644], [-95.302137, 36.312555], [-95.301955, 36.312555]]]}, "properties": {"osm_id": 855603919, "building": "yes", "name": "", "height": null, "height_m": null, "levels": null, "tract_id": "40097040100", "tract_name": "401", "tags": {"building": "yes", "source": "microsoft/BuildingFootprints"}}}, {"type": "Feature", "geometry": {"type": "Polygon", "coordinates": [[[-95.303178, 36.306698], [-95.303178, 36.306867], [-95.303451, 36.306867], [-95.303451, 36.306698], [-95.303178, 36.306698]]]}, "properties": {"osm_id": 855603920, "building": "yes", "name": "", "height": null, "height_m": null, "levels": null, "tract_id": "40097040100", "tract_name": "401", "tags": {"building": "yes", "source": "microsoft/BuildingFootprints"}}}, {"type": "Feature", "geometry": {"type": "Polygon", "coordinates": [[[-95.304047, 36.307009], [-95.304047, 36.307091], [-95.304194, 36.307091], [-95.304194, 36.307009], [-95.304047, 36.307009]]]}, "properties": {"osm_id": 855603921, "building": "yes", "name": "", "height": null, "height_m": null, "levels": null, "tract_id": "40097040100", "tract_name": "401", "tags": {"building": "yes", "source": "microsoft/BuildingFootprints"}}}, {"type": "Feature", "geometry": {"type": "Polygon", "coordinates": [[[-95.2993291, 36.3052358], [-95.299324, 36.306191], [-95.29943, 36.306192], [-95.2994402, 36.3052343], [-95.2993291, 36.3052358]]]}, "properties": {"osm_id": 855603922, "building": "yes", "name": "", "height": null, "height_m": null, "levels": null, "tract_id": "40097040100", "tract_name": "401", "tags": {"building": "yes", "source": "microsoft/BuildingFootprints"}}}, {"type": "Feature", "geometry": {"type": "Polygon", "coordinates": [[[-95.2996252, 36.3052338], [-95.299514, 36.3052338], [-95.299514, 36.306192], [-95.299619, 36.306192], [-95.2996252, 36.3052338]]]}, "properties": {"osm_id": 855603923, "building": "yes", "name": "", "height": null, "height_m": null, "levels": null, "tract_id": "40097040100", "tract_name": "401", "tags": {"building": "yes", "source": "microsoft/BuildingFootprints"}}}, {"type": "Feature", "geometry": {"type": "Polygon", "coordinates": [[[-95.299707, 36.30619], [-95.299755, 36.30619], [-95.2997673, 36.3052293], [-95.299707, 36.3052268], [-95.299707, 36.30619]]]}, "properties": {"osm_id": 855603924, "building": "yes", "name": "", "height": null, "height_m": null, "levels": null, "tract_id": "40097040100", "tract_name": "401", "tags": {"building": "yes", "source": "microsoft/BuildingFootprints"}}}, {"type": "Feature", "geometry": {"type": "Polygon", "coordinates": [[[-95.299954, 36.305211], [-95.300061, 36.305211], [-95.300061, 36.304932], [-95.299954, 36.304932], [-95.299954, 36.305211]]]}, "properties": {"osm_id": 855603925, "building": "yes", "name": "", "height": null, "height_m": null, "levels": null, "tract_id": "40097040100", "tract_name": "401", "tags": {"building": "yes", "source": "microsoft/BuildingFootprints"}}}, {"type": "Feature", "geometry": {"type": "Polygon", "coordinates": [[[-95.300061, 36.305239], [-95.299954, 36.305239], [-95.299957, 36.306199], [-95.300064, 36.306198], [-95.300061, 36.305239]]]}, "properties": {"osm_id": 855603926, "building": "yes", "name": "", "height": null, "height_m": null, "levels": null, "tract_id": "40097040100", "tract_name": "401", "tags": {"building": "yes", "source": "microsoft/BuildingFootprints"}}}, {"type": "Feature", "geometry": {"type": "Polygon", "coordinates": [[[-95.30025, 36.305231], [-95.300148, 36.305231], [-95.30015, 36.306194], [-95.300252, 36.306194], [-95.30025, 36.305231]]]}, "properties": {"osm_id": 855603927, "building": "yes", "name": "", "height": null, "height_m": null, "levels": null, "tract_id": "40097040100", "tract_name": "401", "tags": {"building": "yes", "source": "microsoft/BuildingFootprints"}}}, {"type": "Feature", "geometry": {"type": "Polygon", "coordinates": [[[-95.300142, 36.30501], [-95.300142, 36.305207], [-95.300252, 36.305207], [-95.300252, 36.30501], [-95.300142, 36.30501]]]}, "properties": {"osm_id": 855603928, "building": "yes", "name": "", "height": null, "height_m": null, "levels": null, "tract_id": "40097040100", "tract_name": "401", "tags": {"building": "yes", "source": "microsoft/BuildingFootprints"}}}, {"type": "Feature", "geometry": {"type": "Polygon", "coordinates": [[[-95.299061, 36.306428], [-95.299058, 36.306154], [-95.298747, 36.306156], [-95.29875, 36.30643], [-95.299061, 36.306428]]]}, "properties": {"osm_id": 855603929, "building": "yes", "name": "", "height": null, "height_m": null, "levels": null, "tract_id": "40097040100", "tract_name": "401", "tags": {"building": "yes", "source": "microsoft/BuildingFootprints"}}}, {"type": "Feature", "geometry": {"type": "Polygon", "coordinates": [[[-95.298125, 36.30696], [-95.29802, 36.30696], [-95.29802, 36.307091], [-95.298125, 36.307091], [-95.298125, 36.30696]]]}, "properties": {"osm_id": 855603930, "building": "yes", "name": "", "height": null, "height_m": null, "levels": null, "tract_id": "40097040100", "tract_name": "401", "tags": {"building": "yes", "source": "microsoft/BuildingFootprints"}}}, {"type": "Feature", "geometry": {"type": "Polygon", "coordinates": [[[-95.299066, 36.306994], [-95.299066, 36.30689], [-95.298988, 36.30689], [-95.298988, 36.306994], [-95.299066, 36.306994]]]}, "properties": {"osm_id": 855603931, "building": "yes", "name": "", "height": null, "height_m": null, "levels": null, "tract_id": "40097040100", "tract_name": "401", "tags": {"building": "yes", "source": "microsoft/BuildingFootprints"}}}, {"type": "Feature", "geometry": {"type": "Polygon", "coordinates": [[[-95.299447, 36.306575], [-95.299348, 36.306575], [-95.299348, 36.306659], [-95.299447, 36.306659], [-95.299447, 36.306575]]]}, "properties": {"osm_id": 855603932, "building": "yes", "name": "", "height": null, "height_m": null, "levels": null, "tract_id": "40097040100", "tract_name": "401", "tags": {"building": "yes", "source": "microsoft/BuildingFootprints"}}}, {"type": "Feature", "geometry": {"type": "Polygon", "coordinates": [[[-95.299935, 36.30632], [-95.299825, 36.30632], [-95.299825, 36.306462], [-95.299935, 36.306462], [-95.299935, 36.30632]]]}, "properties": {"osm_id": 855603933, "building": "yes", "name": "", "height": null, "height_m": null, "levels": null, "tract_id": "40097040100", "tract_name": "401", "tags": {"building": "yes", "source": "microsoft/BuildingFootprints"}}}, {"type": "Feature", "geometry": {"type": "Polygon", "coordinates": [[[-95.301365, 36.308425], [-95.301182, 36.308425], [-95.301182, 36.308527], [-95.301365, 36.308527], [-95.301365, 36.308425]]]}, "properties": {"osm_id": 855603934, "building": "yes", "name": "", "height": null, "height_m": null, "levels": null, "tract_id": "40097040100", "tract_name": "401", "tags": {"building": "yes", "source": "microsoft/BuildingFootprints"}}}, {"type": "Feature", "geometry": {"type": "Polygon", "coordinates": [[[-95.299237, 36.308466], [-95.299377, 36.308487], [-95.299413, 36.308323], [-95.299273, 36.308303], [-95.299237, 36.308466]]]}, "properties": {"osm_id": 855603935, "building": "yes", "name": "", "height": null, "height_m": null, "levels": null, "tract_id": "40097040100", "tract_name": "401", "tags": {"building": "yes", "source": "microsoft/BuildingFootprints"}}}, {"type": "Feature", "geometry": {"type": "Polygon", "coordinates": [[[-95.303005, 36.308841], [-95.303006, 36.309114], [-95.303262, 36.309114], [-95.303261, 36.308842], [-95.303165, 36.308842], [-95.303164, 36.308786], [-95.303095, 36.308786], [-95.303095, 36.30884], [-95.303005, 36.308841]]]}, "properties": {"osm_id": 855603936, "building": "yes", "name": "", "height": null, "height_m": null, "levels": null, "tract_id": "40097040100", "tract_name": "401", "tags": {"building": "yes", "source": "microsoft/BuildingFootprints"}}}, {"type": "Feature", "geometry": {"type": "Polygon", "coordinates": [[[-95.303122, 36.308635], [-95.303435, 36.308634], [-95.303434, 36.30841], [-95.303118, 36.308411], [-95.303118, 36.308448], [-95.303072, 36.308448], [-95.303072, 36.308497], [-95.303121, 36.308497], [-95.303122, 36.308635]]]}, "properties": {"osm_id": 855603937, "building": "yes", "name": "", "height": null, "height_m": null, "levels": null, "tract_id": "40097040100", "tract_name": "401", "tags": {"building": "yes", "source": "microsoft/BuildingFootprints"}}}, {"type": "Feature", "geometry": {"type": "Polygon", "coordinates": [[[-95.302479, 36.307779], [-95.303319, 36.307778], [-95.303318, 36.30759], [-95.302479, 36.307591], [-95.302479, 36.307779]]]}, "properties": {"osm_id": 855603938, "building": "yes", "name": "", "height": null, "height_m": null, "levels": null, "tract_id": "40097040100", "tract_name": "401", "tags": {"building": "yes", "source": "microsoft/BuildingFootprints"}}}, {"type": "Feature", "geometry": {"type": "Polygon", "coordinates": [[[-95.306056, 36.307638], [-95.306171, 36.307638], [-95.306171, 36.307418], [-95.306056, 36.307418], [-95.306056, 36.307638]]]}, "properties": {"osm_id": 855603939, "building": "yes", "name": "", "height": null, "height_m": null, "levels": null, "tract_id": "40097040100", "tract_name": "401", "tags": {"building": "yes", "source": "microsoft/BuildingFootprints"}}}, {"type": "Feature", "geometry": {"type": "Polygon", "coordinates": [[[-95.306729, 36.307107], [-95.306394, 36.307107], [-95.306394, 36.30718], [-95.306729, 36.30718], [-95.306729, 36.307107]]]}, "properties": {"osm_id": 855603940, "building": "yes", "name": "", "height": null, "height_m": null, "levels": null, "tract_id": "40097040100", "tract_name": "401", "tags": {"building": "yes", "source": "microsoft/BuildingFootprints"}}}, {"type": "Feature", "geometry": {"type": "Polygon", "coordinates": [[[-95.307593, 36.307081], [-95.30773, 36.307081], [-95.30773, 36.306923], [-95.307593, 36.306923], [-95.307593, 36.307081]]]}, "properties": {"osm_id": 855603941, "building": "yes", "name": "", "height": null, "height_m": null, "levels": null, "tract_id": "40097040100", "tract_name": "401", "tags": {"building": "yes", "source": "microsoft/BuildingFootprints"}}}, {"type": "Feature", "geometry": {"type": "Polygon", "coordinates": [[[-95.308477, 36.307085], [-95.308456, 36.307021], [-95.308328, 36.307048], [-95.308349, 36.307112], [-95.308477, 36.307085]]]}, "properties": {"osm_id": 855603942, "building": "yes", "name": "", "height": null, "height_m": null, "levels": null, "tract_id": "40097040100", "tract_name": "401", "tags": {"building": "yes", "source": "microsoft/BuildingFootprints"}}}, {"type": "Feature", "geometry": {"type": "Polygon", "coordinates": [[[-95.309712, 36.308907], [-95.309712, 36.308827], [-95.309537, 36.308827], [-95.309537, 36.308907], [-95.309712, 36.308907]]]}, "properties": {"osm_id": 855603943, "building": "yes", "name": "", "height": null, "height_m": null, "levels": null, "tract_id": "40097040100", "tract_name": "401", "tags": {"building": "yes", "source": "microsoft/BuildingFootprints"}}}, {"type": "Feature", "geometry": {"type": "Polygon", "coordinates": [[[-95.31042, 36.309782], [-95.310084, 36.309706], [-95.310027, 36.309869], [-95.31014, 36.309895], [-95.310123, 36.309943], [-95.310176, 36.309955], [-95.310192, 36.309909], [-95.310363, 36.309948], [-95.31042, 36.309782]]]}, "properties": {"osm_id": 855603944, "building": "yes", "name": "", "height": null, "height_m": null, "levels": null, "tract_id": "40097040100", "tract_name": "401", "tags": {"building": "yes", "source": "microsoft/BuildingFootprints"}}}, {"type": "Feature", "geometry": {"type": "Polygon", "coordinates": [[[-95.312239, 36.312044], [-95.31221, 36.312127], [-95.312372, 36.312163], [-95.312401, 36.31208], [-95.312239, 36.312044]]]}, "properties": {"osm_id": 855603945, "building": "yes", "name": "", "height": null, "height_m": null, "levels": null, "tract_id": "40097040100", "tract_name": "401", "tags": {"building": "yes", "source": "microsoft/BuildingFootprints"}}}, {"type": "Feature", "geometry": {"type": "Polygon", "coordinates": [[[-95.316204, 36.31264], [-95.316353, 36.312663], [-95.316401, 36.312458], [-95.316252, 36.312436], [-95.316204, 36.31264]]]}, "properties": {"osm_id": 855603946, "building": "yes", "name": "", "height": null, "height_m": null, "levels": null, "tract_id": "40097040100", "tract_name": "401", "tags": {"building": "yes", "source": "microsoft/BuildingFootprints"}}}, {"type": "Feature", "geometry": {"type": "Polygon", "coordinates": [[[-95.314623, 36.313932], [-95.314623, 36.314003], [-95.314768, 36.314003], [-95.314768, 36.313932], [-95.314623, 36.313932]]]}, "properties": {"osm_id": 855603947, "building": "yes", "name": "", "height": null, "height_m": null, "levels": null, "tract_id": "40097040100", "tract_name": "401", "tags": {"building": "yes", "source": "microsoft/BuildingFootprints"}}}, {"type": "Feature", "geometry": {"type": "Polygon", "coordinates": [[[-95.314639, 36.314297], [-95.314784, 36.314297], [-95.314784, 36.314224], [-95.314639, 36.314224], [-95.314639, 36.314297]]]}, "properties": {"osm_id": 855603948, "building": "yes", "name": "", "height": null, "height_m": null, "levels": null, "tract_id": "40097040100", "tract_name": "401", "tags": {"building": "yes", "source": "microsoft/BuildingFootprints"}}}, {"type": "Feature", "geometry": {"type": "Polygon", "coordinates": [[[-95.315892, 36.314148], [-95.315811, 36.314148], [-95.315811, 36.314382], [-95.315892, 36.314382], [-95.315892, 36.314148]]]}, "properties": {"osm_id": 855603949, "building": "yes", "name": "", "height": null, "height_m": null, "levels": null, "tract_id": "40097040100", "tract_name": "401", "tags": {"building": "yes", "source": "microsoft/BuildingFootprints"}}}, {"type": "Feature", "geometry": {"type": "Polygon", "coordinates": [[[-95.312466, 36.314849], [-95.312465, 36.314736], [-95.312212, 36.314736], [-95.312213, 36.31485], [-95.312466, 36.314849]]]}, "properties": {"osm_id": 855603950, "building": "yes", "name": "", "height": null, "height_m": null, "levels": null, "tract_id": "40097040100", "tract_name": "401", "tags": {"building": "yes", "source": "microsoft/BuildingFootprints"}}}, {"type": "Feature", "geometry": {"type": "Polygon", "coordinates": [[[-95.309077, 36.318372], [-95.309078, 36.318264], [-95.308807, 36.318263], [-95.308806, 36.318371], [-95.309077, 36.318372]]]}, "properties": {"osm_id": 855603951, "building": "yes", "name": "", "height": null, "height_m": null, "levels": null, "tract_id": "40097040100", "tract_name": "401", "tags": {"building": "yes", "source": "microsoft/BuildingFootprints"}}}, {"type": "Feature", "geometry": {"type": "Polygon", "coordinates": [[[-95.308795, 36.318443], [-95.308522, 36.318399], [-95.308478, 36.318574], [-95.308602, 36.318594], [-95.308621, 36.318517], [-95.308771, 36.318541], [-95.308795, 36.318443]]]}, "properties": {"osm_id": 855603952, "building": "yes", "name": "", "height": null, "height_m": null, "levels": null, "tract_id": "40097040100", "tract_name": "401", "tags": {"building": "yes", "source": "microsoft/BuildingFootprints"}}}, {"type": "Feature", "geometry": {"type": "Polygon", "coordinates": [[[-95.308793, 36.318638], [-95.308692, 36.318678], [-95.308778, 36.318816], [-95.308879, 36.318776], [-95.308793, 36.318638]]]}, "properties": {"osm_id": 855603953, "building": "yes", "name": "", "height": null, "height_m": null, "levels": null, "tract_id": "40097040100", "tract_name": "401", "tags": {"building": "yes", "source": "microsoft/BuildingFootprints"}}}, {"type": "Feature", "geometry": {"type": "Polygon", "coordinates": [[[-95.309095, 36.318842], [-95.308913, 36.31879], [-95.308854, 36.318925], [-95.309036, 36.318977], [-95.309095, 36.318842]]]}, "properties": {"osm_id": 855603954, "building": "yes", "name": "", "height": null, "height_m": null, "levels": null, "tract_id": "40097040100", "tract_name": "401", "tags": {"building": "yes", "source": "microsoft/BuildingFootprints"}}}, {"type": "Feature", "geometry": {"type": "Polygon", "coordinates": [[[-95.309454, 36.318896], [-95.309454, 36.318793], [-95.309167, 36.318793], [-95.309167, 36.318896], [-95.309454, 36.318896]]]}, "properties": {"osm_id": 855603955, "building": "yes", "name": "", "height": null, "height_m": null, "levels": null, "tract_id": "40097040100", "tract_name": "401", "tags": {"building": "yes", "source": "microsoft/BuildingFootprints"}}}, {"type": "Feature", "geometry": {"type": "Polygon", "coordinates": [[[-95.309678, 36.319763], [-95.309404, 36.319736], [-95.309391, 36.319821], [-95.309665, 36.319848], [-95.309678, 36.319763]]]}, "properties": {"osm_id": 855603956, "building": "yes", "name": "", "height": null, "height_m": null, "levels": null, "tract_id": "40097040100", "tract_name": "401", "tags": {"building": "yes", "source": "microsoft/BuildingFootprints"}}}, {"type": "Feature", "geometry": {"type": "Polygon", "coordinates": [[[-95.307389, 36.319817], [-95.307582, 36.319817], [-95.307582, 36.319674], [-95.307496, 36.319674], [-95.307496, 36.319728], [-95.307389, 36.319728], [-95.307389, 36.319817]]]}, "properties": {"osm_id": 855603957, "building": "yes", "name": "", "height": null, "height_m": null, "levels": null, "tract_id": "40097040100", "tract_name": "401", "tags": {"building": "yes", "source": "microsoft/BuildingFootprints"}}}, {"type": "Feature", "geometry": {"type": "Polygon", "coordinates": [[[-95.307601, 36.319266], [-95.307405, 36.319266], [-95.307405, 36.319363], [-95.30751, 36.319363], [-95.30751, 36.319402], [-95.307601, 36.319402], [-95.307601, 36.319266]]]}, "properties": {"osm_id": 855603958, "building": "yes", "name": "", "height": null, "height_m": null, "levels": null, "tract_id": "40097040100", "tract_name": "401", "tags": {"building": "yes", "source": "microsoft/BuildingFootprints"}}}, {"type": "Feature", "geometry": {"type": "Polygon", "coordinates": [[[-95.306954, 36.318324], [-95.306954, 36.318423], [-95.307059, 36.318423], [-95.307059, 36.318471], [-95.30715, 36.318471], [-95.30715, 36.318319], [-95.307062, 36.318319], [-95.307062, 36.318296], [-95.307003, 36.318296], [-95.307003, 36.318324], [-95.306954, 36.318324]]]}, "properties": {"osm_id": 855603959, "building": "yes", "name": "", "height": null, "height_m": null, "levels": null, "tract_id": "40097040100", "tract_name": "401", "tags": {"building": "yes", "source": "microsoft/BuildingFootprints"}}}, {"type": "Feature", "geometry": {"type": "Polygon", "coordinates": [[[-95.305549, 36.318717], [-95.305549, 36.318845], [-95.305715, 36.318845], [-95.305715, 36.318717], [-95.305549, 36.318717]]]}, "properties": {"osm_id": 855603960, "building": "yes", "name": "", "height": null, "height_m": null, "levels": null, "tract_id": "40097040100", "tract_name": "401", "tags": {"building": "yes", "source": "microsoft/BuildingFootprints"}}}, {"type": "Feature", "geometry": {"type": "Polygon", "coordinates": [[[-95.306129, 36.319231], [-95.306074, 36.319231], [-95.306074, 36.319264], [-95.306012, 36.319264], [-95.306011, 36.319356], [-95.306121, 36.319356], [-95.306121, 36.319408], [-95.306207, 36.319409], [-95.306208, 36.319266], [-95.306129, 36.319266], [-95.306129, 36.319231]]]}, "properties": {"osm_id": 855603961, "building": "yes", "name": "", "height": null, "height_m": null, "levels": null, "tract_id": "40097040100", "tract_name": "401", "tags": {"building": "yes", "source": "microsoft/BuildingFootprints"}}}, {"type": "Feature", "geometry": {"type": "Polygon", "coordinates": [[[-95.306301, 36.319275], [-95.306301, 36.319247], [-95.306248, 36.319247], [-95.306249, 36.319408], [-95.30641, 36.319408], [-95.306409, 36.319275], [-95.306301, 36.319275]]]}, "properties": {"osm_id": 855603962, "building": "yes", "name": "", "height": null, "height_m": null, "levels": null, "tract_id": "40097040100", "tract_name": "401", "tags": {"building": "yes", "source": "microsoft/BuildingFootprints"}}}, {"type": "Feature", "geometry": {"type": "Polygon", "coordinates": [[[-95.306417, 36.319827], [-95.30647, 36.319827], [-95.306471, 36.319801], [-95.30657, 36.319803], [-95.306572, 36.319682], [-95.306419, 36.31968], [-95.306417, 36.319827]]]}, "properties": {"osm_id": 855603963, "building": "yes", "name": "", "height": null, "height_m": null, "levels": null, "tract_id": "40097040100", "tract_name": "401", "tags": {"building": "yes", "source": "microsoft/BuildingFootprints"}}}, {"type": "Feature", "geometry": {"type": "Polygon", "coordinates": [[[-95.309179, 36.321558], [-95.309253, 36.321617], [-95.309403, 36.321496], [-95.309329, 36.321437], [-95.309179, 36.321558]]]}, "properties": {"osm_id": 855603964, "building": "yes", "name": "", "height": null, "height_m": null, "levels": null, "tract_id": "40097040100", "tract_name": "401", "tags": {"building": "yes", "source": "microsoft/BuildingFootprints"}}}, {"type": "Feature", "geometry": {"type": "Polygon", "coordinates": [[[-95.311933, 36.319683], [-95.311855, 36.319683], [-95.311855, 36.319661], [-95.311785, 36.319661], [-95.311785, 36.319685], [-95.311729, 36.319685], [-95.311729, 36.319787], [-95.311833, 36.319787], [-95.311833, 36.319808], [-95.311933, 36.319808], [-95.311933, 36.319683]]]}, "properties": {"osm_id": 855603965, "building": "yes", "name": "", "height": null, "height_m": null, "levels": null, "tract_id": "40097040100", "tract_name": "401", "tags": {"building": "yes", "source": "microsoft/BuildingFootprints"}}}, {"type": "Feature", "geometry": {"type": "Polygon", "coordinates": [[[-95.3148012, 36.3057756], [-95.3145692, 36.3057276], [-95.3145342, 36.3058386], [-95.3147652, 36.3058866], [-95.3148012, 36.3057756]]]}, "properties": {"osm_id": 909532956, "building": "yes", "name": "", "height": null, "height_m": null, "levels": null, "tract_id": "40097040100", "tract_name": "401", "tags": {"building": "yes", "source": "microsoft/BuildingFootprints"}}}, {"type": "Feature", "geometry": {"type": "Polygon", "coordinates": [[[-95.3136299, 36.3066558], [-95.3137298, 36.3063869], [-95.3134856, 36.306328], [-95.3133858, 36.3065969], [-95.3136299, 36.3066558]]]}, "properties": {"osm_id": 985844594, "building": "yes", "name": "", "height": null, "height_m": null, "levels": null, "tract_id": "40097040100", "tract_name": "401", "tags": {"addr:city": "Pryor", "addr:housenumber": "2", "addr:postcode": "74361", "addr:state": "OK", "addr:street": "South Coo-Y-Yah Street", "building": "yes"}}}, {"type": "Feature", "geometry": {"type": "Polygon", "coordinates": [[[-95.3142064, 36.3006894], [-95.3141105, 36.300684], [-95.3141147, 36.3006352], [-95.3142106, 36.3006406], [-95.3142064, 36.3006894]]]}, "properties": {"osm_id": 1082210604, "building": "yes", "name": "", "height": null, "height_m": null, "levels": null, "tract_id": "40097040100", "tract_name": "401", "tags": {"building": "yes"}}}, {"type": "Feature", "geometry": {"type": "Polygon", "coordinates": [[[-95.3141715, 36.3003089], [-95.3141206, 36.3003093], [-95.3141199, 36.300246], [-95.3141709, 36.3002457], [-95.3141715, 36.3003089]]]}, "properties": {"osm_id": 1082210605, "building": "yes", "name": "", "height": null, "height_m": null, "levels": null, "tract_id": "40097040100", "tract_name": "401", "tags": {"building": "yes"}}}, {"type": "Feature", "geometry": {"type": "Polygon", "coordinates": [[[-95.3147596, 36.3003132], [-95.3147117, 36.3003162], [-95.3146909, 36.3002905], [-95.3147043, 36.30026], [-95.3147529, 36.300256], [-95.314775, 36.3002827], [-95.3147596, 36.3003132]]]}, "properties": {"osm_id": 1082210607, "building": "yes", "name": "", "height": null, "height_m": null, "levels": null, "tract_id": "40097040100", "tract_name": "401", "tags": {"building": "yes"}}}, {"type": "Feature", "geometry": {"type": "Polygon", "coordinates": [[[-95.3166398, 36.3062616], [-95.3167216, 36.3060476], [-95.3165633, 36.3060084], [-95.3165054, 36.30616], [-95.3164711, 36.3061515], [-95.3164576, 36.3061869], [-95.3164382, 36.3061821], [-95.3163919, 36.3063033], [-95.3165043, 36.3063311], [-95.3165402, 36.3062369], [-95.3166398, 36.3062616]]]}, "properties": {"osm_id": 1101555659, "building": "yes", "name": "", "height": null, "height_m": null, "levels": null, "tract_id": "40097040100", "tract_name": "401", "tags": {"addr:city": "Pryor", "addr:housenumber": "20", "addr:postcode": "74361", "addr:state": "OK", "addr:street": "South Vann Street", "building": "yes", "telecom": "exchange"}}}, {"type": "Feature", "geometry": {"type": "Polygon", "coordinates": [[[-95.3095894, 36.318116], [-95.3095889, 36.3179875], [-95.3094215, 36.3179879], [-95.3094213, 36.3179254], [-95.3094211, 36.3178943], [-95.309309, 36.3178946], [-95.3093091, 36.3179211], [-95.3093098, 36.3181167], [-95.3095894, 36.318116]]]}, "properties": {"osm_id": 1150058055, "building": "yes", "name": "Kingdom Hall Jehovahs Witnesses", "height": null, "height_m": null, "levels": null, "tract_id": "40097040100", "tract_name": "401", "tags": {"amenity": "place_of_worship", "building": "yes", "denomination": "jehovahs_witness", "ele": "193", "gnis:feature_id": "1809852", "name": "Kingdom Hall Jehovahs Witnesses", "religion": "christian"}}}, {"type": "Feature", "geometry": {"type": "Polygon", "coordinates": [[[-95.3050911, 36.3071701], [-95.3050911, 36.3072091], [-95.3049164, 36.3072091], [-95.3049164, 36.3071991], [-95.3045673, 36.3071991], [-95.3045673, 36.3071024], [-95.3044758, 36.3071024], [-95.3044758, 36.3070152], [-95.3045792, 36.3070152], [-95.3045792, 36.3069788], [-95.3047916, 36.3069788], [-95.3047916, 36.3070662], [-95.3048356, 36.3070662], [-95.3048356, 36.3070037], [-95.3049027, 36.3070037], [-95.3049027, 36.3069611], [-95.3049509, 36.3069611], [-95.3049509, 36.3070006], [-95.3050442, 36.3070006], [-95.3050442, 36.3071701], [-95.3050911, 36.3071701]]]}, "properties": {"osm_id": 1194741904, "building": "yes", "name": "", "height": null, "height_m": null, "levels": null, "tract_id": "40097040100", "tract_name": "401", "tags": {"building": "yes"}}}, {"type": "Feature", "geometry": {"type": "Polygon", "coordinates": [[[-95.3060293, 36.3085325], [-95.3059335, 36.3085318], [-95.3059336, 36.3085264], [-95.3059076, 36.3085262], [-95.305908, 36.3084834], [-95.3058913, 36.3084833], [-95.305892, 36.3084076], [-95.3059494, 36.308408], [-95.3059497, 36.3083795], [-95.306019, 36.30838], [-95.306018, 36.3084733], [-95.3060299, 36.3084734], [-95.3060293, 36.3085325]]]}, "properties": {"osm_id": 1194741905, "building": "house", "name": "", "height": null, "height_m": null, "levels": null, "tract_id": "40097040100", "tract_name": "401", "tags": {"building": "house"}}}, {"type": "Feature", "geometry": {"type": "Polygon", "coordinates": [[[-95.3055146, 36.3086363], [-95.3055131, 36.3083574], [-95.3056421, 36.3083569], [-95.3056436, 36.3086358], [-95.3055146, 36.3086363]]]}, "properties": {"osm_id": 1194741906, "building": "yes", "name": "", "height": null, "height_m": null, "levels": null, "tract_id": "40097040100", "tract_name": "401", "tags": {"building": "yes"}}}, {"type": "Feature", "geometry": {"type": "Polygon", "coordinates": [[[-95.3066805, 36.307579], [-95.3064338, 36.3075807], [-95.3064321, 36.3074218], [-95.306543, 36.307421], [-95.3065436, 36.3074775], [-95.3066794, 36.3074766], [-95.3066805, 36.307579]]]}, "properties": {"osm_id": 1194741907, "building": "yes", "name": "", "height": null, "height_m": null, "levels": null, "tract_id": "40097040100", "tract_name": "401", "tags": {"building": "yes"}}}, {"type": "Feature", "geometry": {"type": "Polygon", "coordinates": [[[-95.3060946, 36.3079544], [-95.305937, 36.307955], [-95.3059366, 36.3079005], [-95.305965, 36.3079004], [-95.3059645, 36.3078275], [-95.306074, 36.3078271], [-95.3060744, 36.3078989], [-95.3060942, 36.3078989], [-95.3060946, 36.3079544]]]}, "properties": {"osm_id": 1194741908, "building": "house", "name": "", "height": null, "height_m": null, "levels": null, "tract_id": "40097040100", "tract_name": "401", "tags": {"building": "house"}}}, {"type": "Feature", "geometry": {"type": "Polygon", "coordinates": [[[-95.3059861, 36.3077813], [-95.3059817, 36.3074261], [-95.3056495, 36.3074288], [-95.3056522, 36.3076478], [-95.3056684, 36.3076477], [-95.3056701, 36.3077838], [-95.3059861, 36.3077813]]]}, "properties": {"osm_id": 1194741909, "building": "yes", "name": "", "height": null, "height_m": null, "levels": null, "tract_id": "40097040100", "tract_name": "401", "tags": {"building": "yes"}}}, {"type": "Feature", "geometry": {"type": "Polygon", "coordinates": [[[-95.3194298, 36.3048421], [-95.3189333, 36.304714], [-95.3190688, 36.3043729], [-95.3191738, 36.3044], [-95.3190785, 36.3046401], [-95.3193616, 36.3047131], [-95.3194, 36.3046163], [-95.3195084, 36.3046442], [-95.3194298, 36.3048421]]]}, "properties": {"osm_id": 1206834571, "building": "yes", "name": "Americas Best Value Inn Pryor", "height": null, "height_m": null, "levels": null, "tract_id": "40097040100", "tract_name": "401", "tags": {"addr:city": "Pryor Creek", "addr:housenumber": "123", "addr:postcode": "74361", "addr:state": "OK", "addr:street": "South Mill Street", "building": "yes", "name": "Americas Best Value Inn Pryor", "tourism": "hotel"}}}, {"type": "Feature", "geometry": {"type": "Polygon", "coordinates": [[[-95.3073644, 36.2980598], [-95.3073591, 36.2977488], [-95.3073817, 36.2977485], [-95.3073807, 36.2976885], [-95.3071051, 36.2976916], [-95.3071061, 36.2977522], [-95.3071139, 36.2977521], [-95.3071187, 36.2980308], [-95.3071298, 36.2980307], [-95.3071303, 36.2980606], [-95.307199, 36.2980598], [-95.3071993, 36.2980807], [-95.3072918, 36.2980797], [-95.3072915, 36.2980606], [-95.3073644, 36.2980598]]]}, "properties": {"osm_id": 1210205525, "building": "yes", "name": "", "height": null, "height_m": null, "levels": null, "tract_id": "40097040100", "tract_name": "401", "tags": {"building": "yes"}}}, {"type": "Feature", "geometry": {"type": "Polygon", "coordinates": [[[-95.3065338, 36.2976327], [-95.3064354, 36.2979847], [-95.3064914, 36.2979949], [-95.3064844, 36.2980201], [-95.3065846, 36.2980383], [-95.3066685, 36.2977381], [-95.3066883, 36.2977417], [-95.3067098, 36.2976647], [-95.3065338, 36.2976327]]]}, "properties": {"osm_id": 1210205526, "building": "yes", "name": "Whitaker State Childrens Home", "height": null, "height_m": null, "levels": null, "tract_id": "40097040100", "tract_name": "401", "tags": {"addr:state": "OK", "building": "yes", "ele": "194", "gnis:feature_id": "1102101", "name": "Whitaker State Childrens Home", "source": "USGS Geonames"}}}, {"type": "Feature", "geometry": {"type": "Polygon", "coordinates": [[[-95.3175721, 36.3080314], [-95.3181793, 36.3081935], [-95.3180199, 36.308581], [-95.3176989, 36.3084953], [-95.317766, 36.3083322], [-95.3176701, 36.3083065], [-95.317612, 36.3084477], [-95.3174965, 36.3084168], [-95.3175173, 36.3083662], [-95.3174427, 36.3083463], [-95.3175721, 36.3080314]]]}, "properties": {"osm_id": 1336671495, "building": "yes", "name": "", "height": null, "height_m": null, "levels": null, "tract_id": "40097040100", "tract_name": "401", "tags": {"building": "yes"}}}, {"type": "Feature", "geometry": {"type": "Polygon", "coordinates": [[[-95.3159319, 36.3073579], [-95.3167099, 36.3075542], [-95.3168273, 36.307211], [-95.3167, 36.3071835], [-95.3166482, 36.307316], [-95.3165802, 36.3072987], [-95.3165584, 36.3073544], [-95.3165055, 36.307341], [-95.3165273, 36.3072852], [-95.3160116, 36.3071542], [-95.3159319, 36.3073579]]]}, "properties": {"osm_id": 1336671496, "building": "yes", "name": "", "height": null, "height_m": null, "levels": null, "tract_id": "40097040100", "tract_name": "401", "tags": {"building": "yes"}}}, {"type": "Feature", "geometry": {"type": "Polygon", "coordinates": [[[-95.3163433, 36.3077481], [-95.3168654, 36.3078703], [-95.3167261, 36.3082569], [-95.3164847, 36.3082004], [-95.3165389, 36.3080502], [-95.3162581, 36.3079845], [-95.3163433, 36.3077481]]]}, "properties": {"osm_id": 1336671497, "building": "yes", "name": "", "height": null, "height_m": null, "levels": null, "tract_id": "40097040100", "tract_name": "401", "tags": {"building": "yes"}}}, {"type": "Feature", "geometry": {"type": "Polygon", "coordinates": [[[-95.3166799, 36.3083426], [-95.3165167, 36.3087735], [-95.3160513, 36.308659], [-95.316078, 36.3085886], [-95.3163596, 36.3086578], [-95.316496, 36.3082974], [-95.3166799, 36.3083426]]]}, "properties": {"osm_id": 1336671498, "building": "yes", "name": "", "height": null, "height_m": null, "levels": null, "tract_id": "40097040100", "tract_name": "401", "tags": {"building": "yes"}}}, {"type": "Feature", "geometry": {"type": "Polygon", "coordinates": [[[-95.3183785, 36.3076427], [-95.3182861, 36.3078926], [-95.3182072, 36.3079243], [-95.3172484, 36.30769], [-95.3172336, 36.3076204], [-95.3173644, 36.3072678], [-95.3175505, 36.3073127], [-95.3174974, 36.3074561], [-95.3178084, 36.3075309], [-95.3178403, 36.307445], [-95.3179039, 36.3074603], [-95.3179182, 36.3074215], [-95.318139, 36.3074745], [-95.3181014, 36.3075762], [-95.3183785, 36.3076427]]]}, "properties": {"osm_id": 1336671499, "building": "yes", "name": "", "height": null, "height_m": null, "levels": null, "tract_id": "40097040100", "tract_name": "401", "tags": {"building": "yes"}}}, {"type": "Feature", "geometry": {"type": "Polygon", "coordinates": [[[-95.315801, 36.3069102], [-95.3156531, 36.3072993], [-95.3153114, 36.3072149], [-95.3154593, 36.3068258], [-95.315801, 36.3069102]]]}, "properties": {"osm_id": 1336671500, "building": "yes", "name": "", "height": null, "height_m": null, "levels": null, "tract_id": "40097040100", "tract_name": "401", "tags": {"building": "yes"}}}, {"type": "Feature", "geometry": {"type": "Polygon", "coordinates": [[[-95.3154051, 36.3075076], [-95.3155781, 36.3075497], [-95.3154354, 36.3079305], [-95.3150433, 36.3078351], [-95.3151818, 36.3074653], [-95.3152889, 36.3074913], [-95.3152014, 36.3077249], [-95.3153134, 36.3077522], [-95.3154051, 36.3075076]]]}, "properties": {"osm_id": 1336671501, "building": "yes", "name": "", "height": null, "height_m": null, "levels": null, "tract_id": "40097040100", "tract_name": "401", "tags": {"building": "yes"}}}, {"type": "Feature", "geometry": {"type": "Polygon", "coordinates": [[[-95.3168337, 36.3075826], [-95.3169691, 36.3076147], [-95.3171147, 36.3072162], [-95.3169792, 36.3071841], [-95.3168337, 36.3075826]]]}, "properties": {"osm_id": 1336671502, "building": "yes", "name": "", "height": null, "height_m": null, "levels": null, "tract_id": "40097040100", "tract_name": "401", "tags": {"building": "yes"}}}, {"type": "Feature", "geometry": {"type": "Polygon", "coordinates": [[[-95.3156612, 36.3080752], [-95.3155811, 36.3083125], [-95.3158574, 36.308373], [-95.3158932, 36.3082667], [-95.3160807, 36.3083078], [-95.3161249, 36.3081768], [-95.3156612, 36.3080752]]]}, "properties": {"osm_id": 1377889877, "building": "yes", "name": "", "height": null, "height_m": null, "levels": null, "tract_id": "40097040100", "tract_name": "401", "tags": {"building": "yes"}}}, {"type": "Feature", "geometry": {"type": "Polygon", "coordinates": [[[-95.3169535, 36.308402], [-95.3174498, 36.3085265], [-95.317381, 36.3087045], [-95.3172287, 36.3086663], [-95.3172421, 36.3086315], [-95.3168982, 36.3085452], [-95.3169535, 36.308402]]]}, "properties": {"osm_id": 1377889878, "building": "yes", "name": "", "height": null, "height_m": null, "levels": null, "tract_id": "40097040100", "tract_name": "401", "tags": {"building": "yes"}}}, {"type": "Feature", "geometry": {"type": "Polygon", "coordinates": [[[-95.3171489, 36.3079667], [-95.3173417, 36.3080163], [-95.3173118, 36.3080919], [-95.317119, 36.3080423], [-95.3171489, 36.3079667]]]}, "properties": {"osm_id": 1377889879, "building": "yes", "name": "", "height": null, "height_m": null, "levels": null, "tract_id": "40097040100", "tract_name": "401", "tags": {"building": "yes"}}}, {"type": "Feature", "geometry": {"type": "Polygon", "coordinates": [[[-95.3184611, 36.3068053], [-95.3186837, 36.3068596], [-95.3185988, 36.3070857], [-95.3181172, 36.3069682], [-95.3181585, 36.3068581], [-95.3184176, 36.3069213], [-95.3184611, 36.3068053]]]}, "properties": {"osm_id": 1377889880, "building": "yes", "name": "", "height": null, "height_m": null, "levels": null, "tract_id": "40097040100", "tract_name": "401", "tags": {"building": "yes"}}}, {"type": "Feature", "geometry": {"type": "Polygon", "coordinates": [[[-95.317428, 36.3070895], [-95.3177087, 36.3063564], [-95.3179602, 36.3064189], [-95.3178557, 36.3066919], [-95.3179534, 36.3067162], [-95.317932, 36.3067721], [-95.317853, 36.3067525], [-95.3178079, 36.3068704], [-95.3176779, 36.3068381], [-95.3176174, 36.3069962], [-95.3179167, 36.3070706], [-95.3178676, 36.3071988], [-95.3177141, 36.3071607], [-95.317428, 36.3070895]]]}, "properties": {"osm_id": 1377889881, "building": "yes", "name": "", "height": null, "height_m": null, "levels": null, "tract_id": "40097040100", "tract_name": "401", "tags": {"building": "yes"}}}, {"type": "Feature", "geometry": {"type": "Polygon", "coordinates": [[[-95.3167894, 36.3069832], [-95.3169151, 36.3070138], [-95.3168887, 36.3070842], [-95.3171404, 36.3071454], [-95.3172238, 36.3069225], [-95.3168464, 36.3068308], [-95.3167894, 36.3069832]]]}, "properties": {"osm_id": 1377889882, "building": "yes", "name": "", "height": null, "height_m": null, "levels": null, "tract_id": "40097040100", "tract_name": "401", "tags": {"building": "yes"}}}, {"type": "Feature", "geometry": {"type": "Polygon", "coordinates": [[[-95.316187, 36.307163], [-95.3160171, 36.3071174], [-95.3160843, 36.3069548], [-95.3162542, 36.3070005], [-95.316187, 36.307163]]]}, "properties": {"osm_id": 1377889883, "building": "yes", "name": "", "height": null, "height_m": null, "levels": null, "tract_id": "40097040100", "tract_name": "401", "tags": {"building": "yes"}}}, {"type": "Feature", "geometry": {"type": "Polygon", "coordinates": [[[-95.3150168, 36.3078383], [-95.3148674, 36.3078031], [-95.3150078, 36.3074158], [-95.3151572, 36.307451], [-95.3150168, 36.3078383]]]}, "properties": {"osm_id": 1377889884, "building": "yes", "name": "", "height": null, "height_m": null, "levels": null, "tract_id": "40097040100", "tract_name": "401", "tags": {"building": "yes"}}}, {"type": "Feature", "geometry": {"type": "Polygon", "coordinates": [[[-95.3168558, 36.3086456], [-95.3167813, 36.308869], [-95.3170009, 36.3089166], [-95.3170219, 36.3088535], [-95.3171873, 36.3088894], [-95.3172066, 36.3088316], [-95.3170177, 36.3087907], [-95.317052, 36.3086881], [-95.3168558, 36.3086456]]]}, "properties": {"osm_id": 1377889885, "building": "yes", "name": "", "height": null, "height_m": null, "levels": null, "tract_id": "40097040100", "tract_name": "401", "tags": {"building": "yes"}}}, {"type": "Feature", "geometry": {"type": "Polygon", "coordinates": [[[-95.3063884, 36.3184764], [-95.3063079, 36.3184757], [-95.3063082, 36.3184497], [-95.306283, 36.3184495], [-95.3062829, 36.3184604], [-95.3062582, 36.3184602], [-95.3062581, 36.3184723], [-95.3062067, 36.3184719], [-95.3062082, 36.3183615], [-95.3062409, 36.3183618], [-95.3062414, 36.3183266], [-95.306293, 36.3183271], [-95.3062925, 36.3183602], [-95.30639, 36.3183611], [-95.3063884, 36.3184764]]]}, "properties": {"osm_id": 1410912291, "building": "residential", "name": "", "height": null, "height_m": null, "levels": null, "tract_id": "40097040100", "tract_name": "401", "tags": {"addr:city": "Pryor Creek", "addr:housenumber": "820", "addr:postcode": "74361", "addr:state": "OK", "addr:street": "Mable Clayton Circle", "building": "residential"}}}, {"type": "Feature", "geometry": {"type": "Polygon", "coordinates": [[[-95.2998819, 36.3062332], [-95.2998111, 36.3062357], [-95.2998172, 36.3047658], [-95.2998881, 36.3047633], [-95.2998819, 36.3062332]]]}, "properties": {"osm_id": 1410912772, "building": "yes", "name": "", "height": null, "height_m": null, "levels": null, "tract_id": "40097040100", "tract_name": "401", "tags": {"building": "yes"}}}, {"type": "Feature", "geometry": {"type": "Polygon", "coordinates": [[[-95.2997649, 36.305178], [-95.2997032, 36.3051705], [-95.2997125, 36.3047832], [-95.2997618, 36.3047757], [-95.2997649, 36.305178]]]}, "properties": {"osm_id": 1410912773, "building": "yes", "name": "", "height": null, "height_m": null, "levels": null, "tract_id": "40097040100", "tract_name": "401", "tags": {"building": "yes"}}}, {"type": "Feature", "geometry": {"type": "Polygon", "coordinates": [[[-95.2996293, 36.3051556], [-95.2993304, 36.3051606], [-95.2993243, 36.3047683], [-95.2996324, 36.3047608], [-95.2996293, 36.3051556]]]}, "properties": {"osm_id": 1410912774, "building": "yes", "name": "", "height": null, "height_m": null, "levels": null, "tract_id": "40097040100", "tract_name": "401", "tags": {"building": "yes"}}}]}