{"type": "FeatureCollection", "features": [{"type": "Feature", "geometry": {"type": "Polygon", "coordinates": [[[-95.3401357, 35.7431973], [-95.3400592, 35.743197], [-95.3400589, 35.743232], [-95.3400155, 35.7432318], [-95.3400157, 35.7431956], [-95.3398931, 35.7431951], [-95.3398942, 35.7429982], [-95.339945, 35.7429983], [-95.3399451, 35.7429815], [-95.3400113, 35.7429818], [-95.3400112, 35.7429994], [-95.3401024, 35.7429998], [-95.3401025, 35.7429831], [-95.3401491, 35.7429832], [-95.3401489, 35.7430218], [-95.3401367, 35.7430217], [-95.3401357, 35.7431973]]]}, "properties": {"osm_id": 205585561, "building": "commercial", "name": "Economy Pharmacy", "height": null, "height_m": null, "levels": null, "tract_id": "40101000801", "tract_name": "8.01", "tags": {"addr:city": "Muskogee", "addr:country": "US", "addr:housenumber": "412", "addr:postcode": "74403", "addr:street": "North York Street", "amenity": "pharmacy", "building": "commercial", "dispensing": "yes", "drive_through": "yes", "healthcare": "pharmacy", "name": "Economy Pharmacy", "website": "http://EconomyPharmacy.com"}}}, {"type": "Feature", "geometry": {"type": "Polygon", "coordinates": [[[-95.3348456, 35.740288], [-95.3342442, 35.740288], [-95.3342442, 35.7401227], [-95.3348456, 35.7401227], [-95.3348456, 35.740288]]]}, "properties": {"osm_id": 231047079, "building": "yes", "name": "", "height": null, "height_m": null, "levels": null, "tract_id": "40101000801", "tract_name": "8.01", "tags": {"addr:city": "Muskogee", "addr:country": "US", "addr:housenumber": "3101", "addr:postcode": "74403", "addr:street": "Chandler Road", "building": "yes"}}}, {"type": "Feature", "geometry": {"type": "Polygon", "coordinates": [[[-95.3392983, 35.7268673], [-95.3392894, 35.7261927], [-95.3397004, 35.7261891], [-95.3397227, 35.7268709], [-95.3392983, 35.7268673]]]}, "properties": {"osm_id": 1055477200, "building": "yes", "name": "Casey's General Store", "height": null, "height_m": null, "levels": null, "tract_id": "40101000801", "tract_name": "8.01", "tags": {"brand": "Casey's General Store", "brand:wikidata": "Q2940968", "building": "yes", "name": "Casey's General Store", "shop": "convenience"}}}, {"type": "Feature", "geometry": {"type": "Polygon", "coordinates": [[[-95.3395708, 35.7421913], [-95.3395725, 35.7416363], [-95.3391498, 35.7416355], [-95.3391499, 35.7415983], [-95.338761, 35.7415977], [-95.338761, 35.7416298], [-95.3387018, 35.7416297], [-95.3387007, 35.7421851], [-95.3388935, 35.7421853], [-95.3388935, 35.7422158], [-95.3389684, 35.742216], [-95.3389684, 35.7422334], [-95.3390727, 35.7422336], [-95.3390726, 35.7422575], [-95.3392668, 35.7422579], [-95.339267, 35.7421907], [-95.3395708, 35.7421913]]]}, "properties": {"osm_id": 1171450084, "building": "yes", "name": "Homeland", "height": null, "height_m": null, "levels": null, "tract_id": "40101000801", "tract_name": "8.01", "tags": {"addr:city": "Muskogee", "addr:housenumber": "2410", "addr:postcode": "74403", "addr:state": "OK", "addr:street": "Chandler Road", "air_conditioning": "yes", "building": "yes", "check_date": "2025-08-16", "name": "Homeland", "operator": "Homeland", "payment:apple_pay": "yes", "payment:cash": "yes", "payment:contactless": "yes", "payment:credit_cards": "yes", "payment:debit_cards": "yes", "phone": "+1-918-686-6730", "shop": "supermarket"}}}, {"type": "Feature", "geometry": {"type": "Polygon", "coordinates": [[[-95.3400835, 35.742132], [-95.3399695, 35.7421307], [-95.3399649, 35.7417856], [-95.3401313, 35.7417856], [-95.3401328, 35.7418857], [-95.3400882, 35.7418907], [-95.3400835, 35.742132]]]}, "properties": {"osm_id": 1171450085, "building": "yes", "name": "Sonic", "height": null, "height_m": null, "levels": null, "tract_id": "40101000801", "tract_name": "8.01", "tags": {"addr:city": "Muskogee", "addr:housenumber": "320", "addr:postcode": "74403", "addr:state": "OK", "addr:street": "North York Street", "amenity": "fast_food", "brand": "Sonic", "brand:wikidata": "Q7561808", "building": "yes", "cuisine": "burger", "drive_in": "yes", "name": "Sonic", "opening_hours": "Mo-Th 06:00-23:00; Sa 06:00-24:00; Su 07:00-23:00", "phone": "+1 918-682-6463", "takeaway": "yes", "website": "https://locations.sonicdrivein.com/ok/muskogee/320-n.-york-street.html"}}}, {"type": "Feature", "geometry": {"type": "Polygon", "coordinates": [[[-95.339931, 35.7413568], [-95.3399279, 35.7409766], [-95.3399218, 35.7409629], [-95.3399048, 35.7409541], [-95.339891, 35.7409529], [-95.3395906, 35.7409516], [-95.3395998, 35.7412792], [-95.3396907, 35.7413555], [-95.339931, 35.7413568]]]}, "properties": {"osm_id": 1171450086, "building": "yes", "name": "CVS Pharmacy", "height": null, "height_m": null, "levels": null, "tract_id": "40101000801", "tract_name": "8.01", "tags": {"addr:city": "Muskogee", "addr:housenumber": "304", "addr:postcode": "74403", "addr:state": "OK", "addr:street": "North York Street", "brand": "CVS Pharmacy", "brand:website": "https://www.cvs.com/", "brand:wikidata": "Q2078880", "building": "yes", "check_date": "2025-08-16", "drive_through": "yes", "name": "CVS Pharmacy", "payment:apple_pay": "yes", "payment:cash": "yes", "payment:contactless": "yes", "payment:credit_cards": "yes", "payment:debit_cards": "yes", "shop": "chemist", "short_name": "CVS", "website": "https://www.cvs.com/store-locator/muskogee-ok-pharmacies/304-north-york-st-muskogee-ok-74403/storeid=10437"}}}, {"type": "Feature", "geometry": {"type": "Polygon", "coordinates": [[[-95.3400294, 35.7393536], [-95.3400297, 35.739273], [-95.3399546, 35.739273], [-95.3399532, 35.7392567], [-95.3397507, 35.7392545], [-95.339748, 35.7393558], [-95.3400294, 35.7393536]]]}, "properties": {"osm_id": 1171450093, "building": "yes", "name": "Chicken Express", "height": null, "height_m": null, "levels": null, "tract_id": "40101000801", "tract_name": "8.01", "tags": {"addr:city": "Muskogee", "addr:housenumber": "100", "addr:postcode": "74403", "addr:state": "OK", "addr:street": "North York Street", "amenity": "fast_food", "brand": "Chicken Express", "brand:wikidata": "Q5096235", "building": "yes", "check_date": "2025-08-16", "cuisine": "chicken", "drive_through": "yes", "name": "Chicken Express", "opening_hours": "10:30-22:00", "opening_hours:drive_through": "10:30-22:00", "payment:apple_pay": "yes", "payment:cash": "yes", "payment:contactless": "yes", "payment:credit_cards": "yes", "payment:debit_cards": "yes", "takeaway": "yes"}}}, {"type": "Feature", "geometry": {"type": "Polygon", "coordinates": [[[-95.3392366, 35.7403391], [-95.3392219, 35.7400484], [-95.3391146, 35.7400473], [-95.3391226, 35.7403391], [-95.3392366, 35.7403391]]]}, "properties": {"osm_id": 1171450097, "building": "yes", "name": "McDonald's", "height": null, "height_m": null, "levels": null, "tract_id": "40101000801", "tract_name": "8.01", "tags": {"addr:city": "Muskogee", "addr:housenumber": "2415", "addr:postcode": "74403", "addr:state": "OK", "addr:street": "Chandler Road", "amenity": "fast_food", "brand": "McDonald's", "brand:wikidata": "Q38076", "building": "yes", "check_date": "2025-08-16", "cuisine": "burger", "drive_through": "yes", "internet_access": "wlan", "name": "McDonald's", "opening_hours": "05:00-23:00", "payment:apple_pay": "yes", "payment:cash": "yes", "payment:contactless": "yes", "payment:credit_cards": "yes", "payment:debit_cards": "yes", "phone": "+1 918-781-1358", "takeaway": "yes", "website": "https://www.mcdonalds.com/us/en-us/location/21192.html"}}}, {"type": "Feature", "geometry": {"type": "Polygon", "coordinates": [[[-95.3364567, 35.7403101], [-95.33645, 35.7401283], [-95.3363065, 35.7401283], [-95.3363079, 35.7401631], [-95.3362113, 35.740161], [-95.33621, 35.7401958], [-95.3362314, 35.7401969], [-95.3362341, 35.7402579], [-95.3362086, 35.7402589], [-95.33621, 35.7403221], [-95.3362328, 35.7403221], [-95.3362368, 35.7403961], [-95.3363991, 35.740395], [-95.3363964, 35.7403101], [-95.3364567, 35.7403101]]]}, "properties": {"osm_id": 1171450098, "building": "yes", "name": "Charlie's Chicken", "height": null, "height_m": null, "levels": null, "tract_id": "40101000801", "tract_name": "8.01", "tags": {"addr:city": "Muskogee", "addr:housenumber": "2601", "addr:postcode": "74403", "addr:state": "OK", "addr:street": "Chandler Road", "amenity": "fast_food", "building": "yes", "check_date": "2025-08-16", "cuisine": "chicken", "drive_through": "yes", "name": "Charlie's Chicken", "payment:apple_pay": "yes", "payment:cash": "yes", "payment:contactless": "yes", "payment:credit_cards": "yes", "payment:debit_cards": "yes"}}}, {"type": "Feature", "geometry": {"type": "Polygon", "coordinates": [[[-95.3400609, 35.7507886], [-95.3400569, 35.7505098], [-95.3398231, 35.7505065], [-95.3398272, 35.7507869], [-95.3400609, 35.7507886]]]}, "properties": {"osm_id": 1171583740, "building": "yes", "name": "Advance Auto Parts", "height": null, "height_m": null, "levels": null, "tract_id": "40101000801", "tract_name": "8.01", "tags": {"addr:city": "Muskogee", "addr:housenumber": "800", "addr:postcode": "74403", "addr:state": "OK", "addr:street": "North York Street", "brand": "Advance Auto Parts", "brand:wikidata": "Q4686051", "building": "yes", "name": "Advance Auto Parts", "shop": "car_parts", "website": "https://stores.advanceautoparts.com/ok/muskogee/800-n-york-st"}}}, {"type": "Feature", "geometry": {"type": "Polygon", "coordinates": [[[-95.3400101, 35.7500297], [-95.3400121, 35.7497608], [-95.3398556, 35.7497575], [-95.3398515, 35.7500281], [-95.3400101, 35.7500297]]]}, "properties": {"osm_id": 1171583742, "building": "retail", "name": "", "height": null, "height_m": null, "levels": null, "tract_id": "40101000801", "tract_name": "8.01", "tags": {"building": "retail"}}}, {"type": "Feature", "geometry": {"type": "Polygon", "coordinates": [[[-95.3401463, 35.7496371], [-95.3401422, 35.749543], [-95.339943, 35.7495414], [-95.3399451, 35.7496371], [-95.3401463, 35.7496371]]]}, "properties": {"osm_id": 1171583744, "building": "yes", "name": "China Express", "height": null, "height_m": null, "levels": null, "tract_id": "40101000801", "tract_name": "8.01", "tags": {"addr:city": "Muskogee", "addr:housenumber": "744", "addr:postcode": "74403", "addr:state": "OK", "addr:street": "North York Street", "amenity": "restaurant", "building": "yes", "cuisine": "chinese", "name": "China Express"}}}, {"type": "Feature", "geometry": {"type": "Polygon", "coordinates": [[[-95.3402032, 35.7489079], [-95.3402052, 35.7486934], [-95.3398817, 35.7486935], [-95.3398778, 35.7489071], [-95.3402032, 35.7489079]]]}, "properties": {"osm_id": 1171583745, "building": "retail", "name": "", "height": null, "height_m": null, "levels": null, "tract_id": "40101000801", "tract_name": "8.01", "tags": {"building": "retail"}}}, {"type": "Feature", "geometry": {"type": "Polygon", "coordinates": [[[-95.3401856, 35.7483174], [-95.3401896, 35.7479313], [-95.3393359, 35.7479297], [-95.3393359, 35.7483141], [-95.3401856, 35.7483174]]]}, "properties": {"osm_id": 1171583746, "building": "yes", "name": "Eastern Heights Baptist Church", "height": null, "height_m": null, "levels": null, "tract_id": "40101000801", "tract_name": "8.01", "tags": {"addr:city": "Muskogee", "addr:housenumber": "2401", "addr:postcode": "74403", "addr:state": "OK", "addr:street": "Haskell Boulevard", "amenity": "place_of_worship", "building": "yes", "denomination": "baptist", "ele": "187", "gnis:feature_id": "1798873", "name": "Eastern Heights Baptist Church", "religion": "christian"}}}, {"type": "Feature", "geometry": {"type": "Polygon", "coordinates": [[[-95.3394246, 35.7430334], [-95.3394299, 35.7427002], [-95.3394759, 35.7427002], [-95.3394759, 35.7426543], [-95.3394157, 35.7426543], [-95.3394157, 35.742683], [-95.3391344, 35.7426801], [-95.3391344, 35.7428668], [-95.3392246, 35.7428683], [-95.3392228, 35.7430306], [-95.3394246, 35.7430334]]]}, "properties": {"osm_id": 1171583753, "building": "yes", "name": "Optimum", "height": null, "height_m": null, "levels": null, "tract_id": "40101000801", "tract_name": "8.01", "tags": {"addr:city": "Muskogee", "addr:housenumber": "2510", "addr:postcode": "74403", "addr:state": "OK", "addr:street": "Elliott Street", "building": "yes", "name": "Optimum", "office": "telecommunication", "phone": "+1-844-874-7558"}}}, {"type": "Feature", "geometry": {"type": "Polygon", "coordinates": [[[-95.3399001, 35.7427803], [-95.3398993, 35.7426438], [-95.3397046, 35.7426446], [-95.3397054, 35.7427811], [-95.3399001, 35.7427803]]]}, "properties": {"osm_id": 1171583754, "building": "yes", "name": "AT&T", "height": null, "height_m": null, "levels": null, "tract_id": "40101000801", "tract_name": "8.01", "tags": {"addr:city": "Muskogee", "addr:housenumber": "402", "addr:postcode": "74403", "addr:state": "OK", "addr:street": "North York Street", "brand": "AT&T", "brand:wikidata": "Q298594", "building": "yes", "name": "AT&T", "shop": "mobile_phone"}}}, {"type": "Feature", "geometry": {"type": "Polygon", "coordinates": [[[-95.3395593, 35.7282098], [-95.3395512, 35.7277633], [-95.3390739, 35.727769], [-95.3389804, 35.7277701], [-95.3389884, 35.7282165], [-95.3395593, 35.7282098]]]}, "properties": {"osm_id": 1171583758, "building": "yes", "name": "Homeland", "height": null, "height_m": null, "levels": null, "tract_id": "40101000801", "tract_name": "8.01", "tags": {"addr:city": "Muskogee", "addr:housenumber": "1300", "addr:postcode": "74403", "addr:state": "OK", "addr:street": "South York Street", "building": "yes", "name": "Homeland", "shop": "supermarket"}}}, {"type": "Feature", "geometry": {"type": "Polygon", "coordinates": [[[-95.3395512, 35.7277633], [-95.3395502, 35.7274478], [-95.3391064, 35.7274531], [-95.3390715, 35.7274535], [-95.3390739, 35.727769], [-95.3395512, 35.7277633]]]}, "properties": {"osm_id": 1171583759, "building": "yes", "name": "The Brick Church", "height": null, "height_m": null, "levels": null, "tract_id": "40101000801", "tract_name": "8.01", "tags": {"addr:city": "Muskogee", "addr:housenumber": "1302", "addr:postcode": "74403", "addr:state": "OK", "addr:street": "South York Street", "amenity": "place_of_worship", "building": "yes", "name": "The Brick Church", "religion": "christian"}}}, {"type": "Feature", "geometry": {"type": "Polygon", "coordinates": [[[-95.3395502, 35.7274478], [-95.3395525, 35.727389], [-95.3392762, 35.7271511], [-95.3391322, 35.727027], [-95.338294, 35.7270175], [-95.338301, 35.7272165], [-95.3391042, 35.7272128], [-95.3391064, 35.7274531], [-95.3395502, 35.7274478]]]}, "properties": {"osm_id": 1171583760, "building": "retail", "name": "", "height": null, "height_m": null, "levels": null, "tract_id": "40101000801", "tract_name": "8.01", "tags": {"building": "retail"}}}, {"type": "Feature", "geometry": {"type": "Polygon", "coordinates": [[[-95.3360284, 35.7313816], [-95.3360282, 35.7308949], [-95.3360282, 35.7307939], [-95.3360229, 35.7307939], [-95.3360229, 35.7306251], [-95.3357972, 35.7306251], [-95.3357972, 35.7306539], [-95.3357317, 35.7306539], [-95.3357318, 35.7307583], [-95.3357694, 35.7307583], [-95.3357695, 35.7308345], [-95.3356077, 35.7308346], [-95.3356077, 35.7307927], [-95.3356308, 35.7307927], [-95.3356308, 35.7305288], [-95.3354413, 35.7305288], [-95.3354414, 35.7305551], [-95.3354051, 35.7305551], [-95.3354052, 35.7307308], [-95.3354406, 35.7307308], [-95.3354406, 35.7307889], [-95.3355653, 35.7307889], [-95.3355653, 35.7308427], [-95.3355121, 35.7308428], [-95.3355122, 35.7309671], [-95.3354922, 35.7309672], [-95.3354922, 35.7308676], [-95.3349183, 35.7308678], [-95.3349184, 35.7310009], [-95.3348706, 35.7310009], [-95.3348706, 35.7312341], [-95.334916, 35.7312341], [-95.334916, 35.7313705], [-95.3354937, 35.7313704], [-95.3354937, 35.7312641], [-95.3357033, 35.7312641], [-95.3357032, 35.7311116], [-95.3358002, 35.7311115], [-95.3358003, 35.7313817], [-95.3360284, 35.7313816]]]}, "properties": {"osm_id": 1171640426, "building": "school", "name": "Grant Foreman School", "height": null, "height_m": null, "levels": null, "tract_id": "40101000801", "tract_name": "8.01", "tags": {"addr:city": "Muskogee", "addr:housenumber": "800", "addr:postcode": "74403", "addr:state": "OK", "addr:street": "Bacone Street", "building": "school", "ele": "175", "gnis:feature_id": "1092931", "grades": "K-5", "name": "Grant Foreman School", "operator": "Muskogee Public Schools", "operator:type": "public"}}}, {"type": "Feature", "geometry": {"type": "Polygon", "coordinates": [[[-95.3372033, 35.7401872], [-95.3372026, 35.7399674], [-95.3370144, 35.7399678], [-95.3370149, 35.7401093], [-95.3369743, 35.7401094], [-95.3369745, 35.74016], [-95.3370132, 35.7401599], [-95.3370134, 35.7401961], [-95.3370317, 35.7401961], [-95.3370317, 35.7402125], [-95.3370859, 35.7402124], [-95.3370859, 35.7402016], [-95.3371375, 35.7402015], [-95.3371374, 35.7401873], [-95.3372033, 35.7401872]]]}, "properties": {"osm_id": 1171640427, "building": "yes", "name": "Xpress Wellness Urgent Care", "height": null, "height_m": null, "levels": null, "tract_id": "40101000801", "tract_name": "8.01", "tags": {"addr:city": "Muskogee", "addr:housenumber": "2525", "addr:postcode": "74403", "addr:state": "OK", "addr:street": "Chandler Road", "amenity": "clinic", "building": "yes", "healthcare": "clinic", "name": "Xpress Wellness Urgent Care"}}}, {"type": "Feature", "geometry": {"type": "Polygon", "coordinates": [[[-95.3370485, 35.739171], [-95.3371317, 35.7390403], [-95.3369264, 35.7389541], [-95.3368397, 35.7390862], [-95.3370485, 35.739171]]]}, "properties": {"osm_id": 1171640428, "building": "yes", "name": "Muskogee County EMS", "height": null, "height_m": null, "levels": null, "tract_id": "40101000801", "tract_name": "8.01", "tags": {"building": "yes", "emergency": "ambulance_station", "name": "Muskogee County EMS"}}}, {"type": "Feature", "geometry": {"type": "Polygon", "coordinates": [[[-95.3366379, 35.739079], [-95.3366309, 35.7388894], [-95.3362628, 35.738888], [-95.3362663, 35.7390805], [-95.3366379, 35.739079]]]}, "properties": {"osm_id": 1171640429, "building": "yes", "name": "", "height": null, "height_m": null, "levels": null, "tract_id": "40101000801", "tract_name": "8.01", "tags": {"building": "yes", "office": "government"}}}, {"type": "Feature", "geometry": {"type": "Polygon", "coordinates": [[[-95.3371936, 35.7398733], [-95.3371954, 35.7395415], [-95.3370326, 35.7395401], [-95.3370255, 35.7398719], [-95.3371936, 35.7398733]]]}, "properties": {"osm_id": 1171640430, "building": "commercial", "name": "", "height": null, "height_m": null, "levels": null, "tract_id": "40101000801", "tract_name": "8.01", "tags": {"building": "commercial"}}}, {"type": "Feature", "geometry": {"type": "Polygon", "coordinates": [[[-95.3356313, 35.740304], [-95.3356328, 35.7400627], [-95.3350952, 35.7400589], [-95.3350983, 35.7403015], [-95.3353139, 35.7403027], [-95.3353124, 35.7402377], [-95.3354172, 35.740239], [-95.3354172, 35.740304], [-95.3356313, 35.740304]]]}, "properties": {"osm_id": 1171640431, "building": "yes", "name": "Lescher-Millsap Funeral Home", "height": null, "height_m": null, "levels": null, "tract_id": "40101000801", "tract_name": "8.01", "tags": {"addr:city": "Muskogee", "addr:housenumber": "2801", "addr:postcode": "74403", "addr:state": "OK", "addr:street": "Chandler Road", "building": "yes", "name": "Lescher-Millsap Funeral Home", "shop": "funeral_directors"}}}, {"type": "Feature", "geometry": {"type": "Polygon", "coordinates": [[[-95.3334554, 35.7396832], [-95.3329417, 35.7396811], [-95.3329431, 35.7401829], [-95.3332944, 35.7401829], [-95.3332938, 35.7402], [-95.3333862, 35.7401994], [-95.3333854, 35.7401844], [-95.3333908, 35.7401681], [-95.3334332, 35.7401688], [-95.3334393, 35.7401556], [-95.3334971, 35.7401544], [-95.3334956, 35.7400756], [-95.3334432, 35.7400762], [-95.3334378, 35.740055], [-95.3334247, 35.7400544], [-95.3334232, 35.7400043], [-95.3334486, 35.740005], [-95.3334486, 35.7399137], [-95.3334554, 35.7396832]]]}, "properties": {"osm_id": 1171640432, "building": "yes", "name": "Azalea Gardens", "height": null, "height_m": null, "levels": null, "tract_id": "40101000801", "tract_name": "8.01", "tags": {"addr:city": "Muskogee", "addr:housenumber": "3211", "addr:postcode": "74403", "addr:state": "OK", "addr:street": "Chandler Road", "amenity": "social_facility", "building": "yes", "name": "Azalea Gardens", "social_facility": "assisted_living", "social_facility:for": "senior"}}}, {"type": "Feature", "geometry": {"type": "Polygon", "coordinates": [[[-95.3327315, 35.7403598], [-95.3327304, 35.7402413], [-95.3324747, 35.7402394], [-95.332477, 35.7403588], [-95.3327315, 35.7403598]]]}, "properties": {"osm_id": 1171640433, "building": "yes", "name": "Valvoline", "height": null, "height_m": null, "levels": null, "tract_id": "40101000801", "tract_name": "8.01", "tags": {"addr:city": "Muskogee", "addr:housenumber": "3211", "addr:postcode": "74403", "addr:state": "OK", "addr:street": "Chandler Road", "brand": "Valvoline", "brand:wikidata": "Q7912852", "building": "yes", "name": "Valvoline", "official_name": "Valvoline Instant Oil Change", "shop": "car_repair", "website": "https://store.vioc.com/ok/muskogee/oil-change-ij0003.html"}}}, {"type": "Feature", "geometry": {"type": "Polygon", "coordinates": [[[-95.3327957, 35.7399911], [-95.3327981, 35.7398499], [-95.3327058, 35.7398509], [-95.3327047, 35.7399248], [-95.3324221, 35.7399257], [-95.3324245, 35.7399902], [-95.3327957, 35.7399911]]]}, "properties": {"osm_id": 1171640434, "building": "yes", "name": "Sun Up Car Wash", "height": null, "height_m": null, "levels": null, "tract_id": "40101000801", "tract_name": "8.01", "tags": {"addr:city": "Muskogee", "addr:housenumber": "141", "addr:postcode": "74403", "addr:state": "OK", "addr:street": "North Anthony Street", "amenity": "car_wash", "building": "yes", "name": "Sun Up Car Wash"}}}, {"type": "Feature", "geometry": {"type": "Polygon", "coordinates": [[[-95.3326673, 35.7398149], [-95.3326498, 35.7397476], [-95.3324548, 35.7397485], [-95.3324723, 35.739813], [-95.3326673, 35.7398149]]]}, "properties": {"osm_id": 1171640435, "building": "yes", "name": "", "height": null, "height_m": null, "levels": null, "tract_id": "40101000801", "tract_name": "8.01", "tags": {"amenity": "car_wash", "building": "yes"}}}, {"type": "Feature", "geometry": {"type": "Polygon", "coordinates": [[[-95.3327315, 35.7392861], [-95.332735, 35.739124], [-95.332449, 35.7391184], [-95.3324513, 35.7392804], [-95.3326143, 35.7392808], [-95.3326159, 35.7393477], [-95.3327128, 35.7393477], [-95.3327152, 35.7392861], [-95.3327315, 35.7392861]]]}, "properties": {"osm_id": 1171640436, "building": "yes", "name": "Oak Tree Academy", "height": null, "height_m": null, "levels": null, "tract_id": "40101000801", "tract_name": "8.01", "tags": {"addr:city": "Muskogee", "addr:housenumber": "131", "addr:postcode": "74403", "addr:state": "OK", "addr:street": "North Anthony Street", "amenity": "childcare", "building": "yes", "name": "Oak Tree Academy"}}}, {"type": "Feature", "geometry": {"type": "Polygon", "coordinates": [[[-95.3308295, 35.7402798], [-95.3309942, 35.7402781], [-95.3310511, 35.7401519], [-95.3310318, 35.740095], [-95.3308285, 35.7400925], [-95.3308285, 35.7400991], [-95.3307503, 35.7400991], [-95.3307513, 35.7401766], [-95.3308133, 35.7401758], [-95.3308143, 35.7402162], [-95.3308275, 35.7402162], [-95.3308295, 35.7402798]]]}, "properties": {"osm_id": 1171640437, "building": "yes", "name": "Mahylons", "height": null, "height_m": null, "levels": null, "tract_id": "40101000801", "tract_name": "8.01", "tags": {"addr:city": "Muskogee", "addr:housenumber": "3301", "addr:postcode": "74403", "addr:state": "OK", "addr:street": "Chandler Road", "amenity": "restaurant", "building": "yes", "cuisine": "barbecue", "name": "Mahylons"}}}, {"type": "Feature", "geometry": {"type": "Polygon", "coordinates": [[[-95.3312888, 35.7403207], [-95.3312861, 35.7400998], [-95.3313867, 35.7401008], [-95.3313867, 35.740177], [-95.3315222, 35.7401727], [-95.3315235, 35.7403001], [-95.3314109, 35.7403011], [-95.3314109, 35.7403164], [-95.3313291, 35.7403186], [-95.3312888, 35.7403207]]]}, "properties": {"osm_id": 1171640438, "building": "yes", "name": "McLaughlin Mortgage Team", "height": null, "height_m": null, "levels": null, "tract_id": "40101000801", "tract_name": "8.01", "tags": {"addr:city": "Muskogee", "addr:housenumber": "3241", "addr:postcode": "74403", "addr:state": "OK", "addr:street": "Chandler Road", "building": "yes", "name": "McLaughlin Mortgage Team", "shop": "money_lender", "website": "https://muskogeemortgage.com"}}}, {"type": "Feature", "geometry": {"type": "Polygon", "coordinates": [[[-95.3316952, 35.7413045], [-95.3316952, 35.7409179], [-95.3315014, 35.7409179], [-95.3314967, 35.7411681], [-95.3312375, 35.7411681], [-95.3312352, 35.7413026], [-95.3316952, 35.7413045]]]}, "properties": {"osm_id": 1171640439, "building": "retail", "name": "", "height": null, "height_m": null, "levels": null, "tract_id": "40101000801", "tract_name": "8.01", "tags": {"building": "retail"}}}, {"type": "Feature", "geometry": {"type": "Polygon", "coordinates": [[[-95.3310888, 35.7413051], [-95.3310886, 35.7411715], [-95.3308407, 35.7411718], [-95.3308403, 35.7409124], [-95.3306613, 35.7409126], [-95.3306616, 35.7411245], [-95.3306619, 35.7413055], [-95.3308966, 35.7413053], [-95.3310888, 35.7413051]]]}, "properties": {"osm_id": 1171640440, "building": "retail", "name": "", "height": null, "height_m": null, "levels": null, "tract_id": "40101000801", "tract_name": "8.01", "tags": {"building": "retail"}}}, {"type": "Feature", "geometry": {"type": "Polygon", "coordinates": [[[-95.3284659, 35.740247], [-95.3284566, 35.7400897], [-95.3279779, 35.7400935], [-95.3279825, 35.7402527], [-95.3284659, 35.740247]]]}, "properties": {"osm_id": 1171640442, "building": "retail", "name": "", "height": null, "height_m": null, "levels": null, "tract_id": "40101000801", "tract_name": "8.01", "tags": {"building": "retail"}}}, {"type": "Feature", "geometry": {"type": "Polygon", "coordinates": [[[-95.3278696, 35.7402901], [-95.3278651, 35.740113], [-95.3277474, 35.7401149], [-95.3277519, 35.7402921], [-95.3278696, 35.7402901]]]}, "properties": {"osm_id": 1171640443, "building": "yes", "name": "Chandler Road Donuts", "height": null, "height_m": null, "levels": null, "tract_id": "40101000801", "tract_name": "8.01", "tags": {"addr:city": "Muskogee", "addr:housenumber": "3425", "addr:postcode": "74403", "addr:state": "OK", "addr:street": "Chandler Road", "amenity": "fast_food", "building": "yes", "cuisine": "donut", "name": "Chandler Road Donuts"}}}, {"type": "Feature", "geometry": {"type": "Polygon", "coordinates": [[[-95.3275897, 35.7402679], [-95.3275857, 35.7401481], [-95.3275642, 35.7401471], [-95.3275642, 35.7401296], [-95.32752, 35.7401285], [-95.32752, 35.7401481], [-95.3273953, 35.7401438], [-95.3274006, 35.7402668], [-95.3274945, 35.7402668], [-95.3274958, 35.7402918], [-95.3275468, 35.7402918], [-95.3275468, 35.7402679], [-95.3275897, 35.7402679]]]}, "properties": {"osm_id": 1171640444, "building": "yes", "name": "Muskogee Dental and Implants", "height": null, "height_m": null, "levels": null, "tract_id": "40101000801", "tract_name": "8.01", "tags": {"addr:city": "Muskogee", "addr:housenumber": "3503", "addr:postcode": "74403", "addr:state": "OK", "addr:street": "Chandler Road", "amenity": "dentist", "building": "yes", "healthcare": "dentist", "name": "Muskogee Dental and Implants"}}}, {"type": "Feature", "geometry": {"type": "Polygon", "coordinates": [[[-95.3278928, 35.7410289], [-95.3278917, 35.7409531], [-95.3277726, 35.7409531], [-95.3277726, 35.7409285], [-95.3277317, 35.7409256], [-95.3277282, 35.7409152], [-95.3276465, 35.7409143], [-95.3276453, 35.7409266], [-95.3275309, 35.7409247], [-95.3275286, 35.7410232], [-95.3275799, 35.7410242], [-95.3275799, 35.7410526], [-95.3277737, 35.7410564], [-95.3277737, 35.741028], [-95.3278928, 35.7410289]]]}, "properties": {"osm_id": 1171640445, "building": "yes", "name": "Muskogee Federal Credit Union", "height": null, "height_m": null, "levels": null, "tract_id": "40101000801", "tract_name": "8.01", "tags": {"addr:city": "Muskogee", "addr:housenumber": "3502", "addr:postcode": "74403", "addr:state": "OK", "addr:street": "Chandler Road", "amenity": "bank", "atm": "yes", "building": "yes", "drive_through": "yes", "name": "Muskogee Federal Credit Union"}}}, {"type": "Feature", "geometry": {"type": "Polygon", "coordinates": [[[-95.3395394, 35.749322], [-95.3395393, 35.7492411], [-95.3395658, 35.7492411], [-95.3395657, 35.7491473], [-95.3393867, 35.7491475], [-95.3393866, 35.7489941], [-95.3391892, 35.7489943], [-95.3391892, 35.748953], [-95.3389509, 35.7489532], [-95.3389509, 35.7490325], [-95.3383519, 35.749033], [-95.3383525, 35.749482], [-95.3385918, 35.7494818], [-95.3385915, 35.7492456], [-95.3388615, 35.7492454], [-95.3388616, 35.7493047], [-95.3390122, 35.7493046], [-95.3390125, 35.7496804], [-95.3392613, 35.7496803], [-95.339261, 35.7493221], [-95.3395394, 35.749322]]]}, "properties": {"osm_id": 1171730507, "building": "school", "name": "Tony Goetz Elementary School", "height": null, "height_m": null, "levels": null, "tract_id": "40101000801", "tract_name": "8.01", "tags": {"addr:city": "Muskogee", "addr:housenumber": "2412", "addr:postcode": "74403", "addr:state": "OK", "addr:street": "Haskell Boulevard", "amenity": "school", "building": "school", "ele": "188", "gnis:feature_id": "1098946", "grades": "K-5", "name": "Tony Goetz Elementary School", "operator": "Muskogee Public Schools", "operator:type": "public"}}}, {"type": "Feature", "geometry": {"type": "Polygon", "coordinates": [[[-95.340042, 35.7295628], [-95.340043, 35.7292877], [-95.3398766, 35.7292873], [-95.3398755, 35.7295624], [-95.340042, 35.7295628]]]}, "properties": {"osm_id": 1171753521, "building": "apartments", "name": "", "height": null, "height_m": null, "levels": null, "tract_id": "40101000801", "tract_name": "8.01", "tags": {"addr:city": "Muskogee", "addr:housenumber": "826", "addr:postcode": "74403", "addr:state": "OK", "addr:street": "South York Street", "building": "apartments"}}}, {"type": "Feature", "geometry": {"type": "Polygon", "coordinates": [[[-95.3395942, 35.7294132], [-95.3395926, 35.7292919], [-95.3389937, 35.729292], [-95.3390054, 35.7297033], [-95.3391181, 35.7297033], [-95.3391135, 35.7294119], [-95.3395942, 35.7294132]]]}, "properties": {"osm_id": 1171753522, "building": "apartments", "name": "", "height": null, "height_m": null, "levels": null, "tract_id": "40101000801", "tract_name": "8.01", "tags": {"addr:city": "Muskogee", "addr:housenumber": "826", "addr:postcode": "74403", "addr:state": "OK", "addr:street": "South York Street", "building": "apartments"}}}, {"type": "Feature", "geometry": {"type": "Polygon", "coordinates": [[[-95.3372218, 35.7285261], [-95.3372197, 35.728273], [-95.3370454, 35.728274], [-95.3370475, 35.7285271], [-95.3372218, 35.7285261]]]}, "properties": {"osm_id": 1171753523, "building": "apartments", "name": "", "height": null, "height_m": null, "levels": null, "tract_id": "40101000801", "tract_name": "8.01", "tags": {"addr:city": "Muskogee", "addr:housenumber": "1201", "addr:postcode": "74403", "addr:state": "OK", "addr:street": "Foxcroft Circle", "building": "apartments"}}}, {"type": "Feature", "geometry": {"type": "Polygon", "coordinates": [[[-95.3375369, 35.7282713], [-95.3373646, 35.7282708], [-95.3373633, 35.7285255], [-95.3375356, 35.7285261], [-95.3375369, 35.7282713]]]}, "properties": {"osm_id": 1171753524, "building": "apartments", "name": "", "height": null, "height_m": null, "levels": null, "tract_id": "40101000801", "tract_name": "8.01", "tags": {"addr:city": "Muskogee", "addr:housenumber": "1203", "addr:postcode": "74403", "addr:state": "OK", "addr:street": "Foxcroft Circle", "building": "apartments"}}}, {"type": "Feature", "geometry": {"type": "Polygon", "coordinates": [[[-95.337844, 35.7282681], [-95.3376717, 35.7282675], [-95.3376704, 35.7285222], [-95.3378427, 35.7285228], [-95.337844, 35.7282681]]]}, "properties": {"osm_id": 1171753525, "building": "apartments", "name": "", "height": null, "height_m": null, "levels": null, "tract_id": "40101000801", "tract_name": "8.01", "tags": {"addr:city": "Muskogee", "addr:housenumber": "1205", "addr:postcode": "74403", "addr:state": "OK", "addr:street": "Foxcroft Circle", "building": "apartments"}}}, {"type": "Feature", "geometry": {"type": "Polygon", "coordinates": [[[-95.3381471, 35.7282692], [-95.3379748, 35.7282686], [-95.3379735, 35.7285233], [-95.3381458, 35.7285239], [-95.3381471, 35.7282692]]]}, "properties": {"osm_id": 1171753526, "building": "apartments", "name": "", "height": null, "height_m": null, "levels": null, "tract_id": "40101000801", "tract_name": "8.01", "tags": {"addr:city": "Muskogee", "addr:housenumber": "1207", "addr:postcode": "74403", "addr:state": "OK", "addr:street": "Foxcroft Circle", "building": "apartments"}}}, {"type": "Feature", "geometry": {"type": "Polygon", "coordinates": [[[-95.3376066, 35.7273546], [-95.3374343, 35.7273541], [-95.337433, 35.7276088], [-95.3376053, 35.7276094], [-95.3376066, 35.7273546]]]}, "properties": {"osm_id": 1171753527, "building": "apartments", "name": "", "height": null, "height_m": null, "levels": null, "tract_id": "40101000801", "tract_name": "8.01", "tags": {"addr:city": "Muskogee", "addr:housenumber": "1225", "addr:postcode": "74403", "addr:state": "OK", "addr:street": "Foxcroft Circle", "building": "apartments"}}}, {"type": "Feature", "geometry": {"type": "Polygon", "coordinates": [[[-95.3379446, 35.7273536], [-95.3377535, 35.727353], [-95.3377535, 35.7276077], [-95.3379433, 35.7276083], [-95.3379446, 35.7273536]]]}, "properties": {"osm_id": 1171753528, "building": "apartments", "name": "", "height": null, "height_m": null, "levels": null, "tract_id": "40101000801", "tract_name": "8.01", "tags": {"addr:city": "Muskogee", "addr:housenumber": "1223", "addr:postcode": "74403", "addr:state": "OK", "addr:street": "Foxcroft Circle", "building": "apartments"}}}, {"type": "Feature", "geometry": {"type": "Polygon", "coordinates": [[[-95.3382222, 35.7273546], [-95.3380848, 35.727353], [-95.3380915, 35.7276099], [-95.3382209, 35.7276094], [-95.3382222, 35.7273546]]]}, "properties": {"osm_id": 1171753529, "building": "apartments", "name": "", "height": null, "height_m": null, "levels": null, "tract_id": "40101000801", "tract_name": "8.01", "tags": {"addr:city": "Muskogee", "addr:housenumber": "1221", "addr:postcode": "74403", "addr:state": "OK", "addr:street": "Foxcroft Circle", "building": "apartments"}}}, {"type": "Feature", "geometry": {"type": "Polygon", "coordinates": [[[-95.3384737, 35.7276491], [-95.3383262, 35.7275566], [-95.3385246, 35.7273573], [-95.3386695, 35.727451], [-95.3384737, 35.7276491]]]}, "properties": {"osm_id": 1171753530, "building": "apartments", "name": "", "height": null, "height_m": null, "levels": null, "tract_id": "40101000801", "tract_name": "8.01", "tags": {"addr:city": "Muskogee", "addr:housenumber": "1219", "addr:postcode": "74403", "addr:state": "OK", "addr:street": "Foxcroft Circle", "building": "apartments"}}}, {"type": "Feature", "geometry": {"type": "Polygon", "coordinates": [[[-95.3383825, 35.7285299], [-95.3382497, 35.7283012], [-95.3383959, 35.7282435], [-95.3385287, 35.7284743], [-95.3383825, 35.7285299]]]}, "properties": {"osm_id": 1171753531, "building": "apartments", "name": "", "height": null, "height_m": null, "levels": null, "tract_id": "40101000801", "tract_name": "8.01", "tags": {"addr:city": "Muskogee", "addr:housenumber": "1209", "addr:postcode": "74403", "addr:state": "OK", "addr:street": "Foxcroft Circle", "building": "apartments"}}}, {"type": "Feature", "geometry": {"type": "Polygon", "coordinates": [[[-95.3387258, 35.7283949], [-95.3385407, 35.7282773], [-95.3386333, 35.7281771], [-95.3388237, 35.7282991], [-95.3387258, 35.7283949]]]}, "properties": {"osm_id": 1171753532, "building": "apartments", "name": "", "height": null, "height_m": null, "levels": null, "tract_id": "40101000801", "tract_name": "8.01", "tags": {"addr:city": "Muskogee", "addr:housenumber": "1211", "addr:postcode": "74403", "addr:state": "OK", "addr:street": "Foxcroft Circle", "building": "apartments"}}}, {"type": "Feature", "geometry": {"type": "Polygon", "coordinates": [[[-95.3385394, 35.7278603], [-95.3384831, 35.727746], [-95.3387044, 35.7276633], [-95.3387701, 35.7277885], [-95.3385394, 35.7278603]]]}, "properties": {"osm_id": 1171753533, "building": "apartments", "name": "", "height": null, "height_m": null, "levels": null, "tract_id": "40101000801", "tract_name": "8.01", "tags": {"addr:city": "Muskogee", "addr:housenumber": "1217", "addr:postcode": "74403", "addr:state": "OK", "addr:street": "Foxcroft Circle", "building": "apartments"}}}, {"type": "Feature", "geometry": {"type": "Polygon", "coordinates": [[[-95.3385657, 35.7280645], [-95.3385923, 35.7279374], [-95.3387784, 35.7279631], [-95.3387518, 35.7280902], [-95.3385657, 35.7280645]]]}, "properties": {"osm_id": 1171753534, "building": "apartments", "name": "", "height": null, "height_m": null, "levels": null, "tract_id": "40101000801", "tract_name": "8.01", "tags": {"addr:city": "Muskogee", "addr:housenumber": "1213", "addr:postcode": "74403", "addr:state": "OK", "addr:street": "Foxcroft Circle", "building": "apartments"}}}, {"type": "Feature", "geometry": {"type": "Polygon", "coordinates": [[[-95.3377803, 35.7280628], [-95.337779, 35.7278538], [-95.3379037, 35.7278516], [-95.3379037, 35.7278908], [-95.3380244, 35.7278886], [-95.3380204, 35.727992], [-95.3378983, 35.727992], [-95.3378997, 35.728065], [-95.3377803, 35.7280628]]]}, "properties": {"osm_id": 1171753535, "building": "yes", "name": "", "height": null, "height_m": null, "levels": null, "tract_id": "40101000801", "tract_name": "8.01", "tags": {"addr:city": "Muskogee", "addr:housenumber": "1215", "addr:postcode": "74403", "addr:state": "OK", "addr:street": "Foxcroft Circle", "building": "yes", "office": "property_management"}}}, {"type": "Feature", "geometry": {"type": "Polygon", "coordinates": [[[-95.328984, 35.7399252], [-95.3289893, 35.739793], [-95.3284761, 35.7397887], [-95.3284779, 35.7399223], [-95.328984, 35.7399252]]]}, "properties": {"osm_id": 1171753539, "building": "apartments", "name": "", "height": null, "height_m": null, "levels": null, "tract_id": "40101000801", "tract_name": "8.01", "tags": {"building": "apartments"}}}, {"type": "Feature", "geometry": {"type": "Polygon", "coordinates": [[[-95.3283965, 35.7399252], [-95.3283947, 35.7397945], [-95.3278939, 35.7397902], [-95.3278975, 35.7399237], [-95.3283965, 35.7399252]]]}, "properties": {"osm_id": 1171753540, "building": "apartments", "name": "", "height": null, "height_m": null, "levels": null, "tract_id": "40101000801", "tract_name": "8.01", "tags": {"building": "apartments"}}}, {"type": "Feature", "geometry": {"type": "Polygon", "coordinates": [[[-95.3278408, 35.739737], [-95.3277187, 35.739602], [-95.3274427, 35.7397643], [-95.3275595, 35.7399036], [-95.3278408, 35.739737]]]}, "properties": {"osm_id": 1171753541, "building": "apartments", "name": "", "height": null, "height_m": null, "levels": null, "tract_id": "40101000801", "tract_name": "8.01", "tags": {"building": "apartments"}}}, {"type": "Feature", "geometry": {"type": "Polygon", "coordinates": [[[-95.327632, 35.7395172], [-95.3276798, 35.7392415], [-95.3274887, 35.7392199], [-95.3274356, 35.7394971], [-95.327632, 35.7395172]]]}, "properties": {"osm_id": 1171753542, "building": "apartments", "name": "", "height": null, "height_m": null, "levels": null, "tract_id": "40101000801", "tract_name": "8.01", "tags": {"building": "apartments"}}}, {"type": "Feature", "geometry": {"type": "Polygon", "coordinates": [[[-95.3277577, 35.739184], [-95.3274462, 35.7390691], [-95.3275206, 35.7389154], [-95.3278373, 35.7390375], [-95.3277577, 35.739184]]]}, "properties": {"osm_id": 1171753543, "building": "apartments", "name": "", "height": null, "height_m": null, "levels": null, "tract_id": "40101000801", "tract_name": "8.01", "tags": {"building": "apartments"}}}, {"type": "Feature", "geometry": {"type": "Polygon", "coordinates": [[[-95.3281116, 35.7394727], [-95.3279736, 35.7394095], [-95.3282178, 35.739049], [-95.3283646, 35.7391165], [-95.3281116, 35.7394727]]]}, "properties": {"osm_id": 1171753544, "building": "apartments", "name": "", "height": null, "height_m": null, "levels": null, "tract_id": "40101000801", "tract_name": "8.01", "tags": {"building": "apartments"}}}, {"type": "Feature", "geometry": {"type": "Polygon", "coordinates": [[[-95.32886, 35.7392141], [-95.3285167, 35.73921], [-95.3285196, 35.7390484], [-95.3288629, 35.7390525], [-95.32886, 35.7392141]]]}, "properties": {"osm_id": 1171753545, "building": "apartments", "name": "", "height": null, "height_m": null, "levels": null, "tract_id": "40101000801", "tract_name": "8.01", "tags": {"building": "apartments"}}}, {"type": "Feature", "geometry": {"type": "Polygon", "coordinates": [[[-95.329161, 35.7394612], [-95.3289964, 35.7394612], [-95.3290035, 35.7390533], [-95.329168, 35.7390519], [-95.329161, 35.7394612]]]}, "properties": {"osm_id": 1171753546, "building": "apartments", "name": "", "height": null, "height_m": null, "levels": null, "tract_id": "40101000801", "tract_name": "8.01", "tags": {"building": "apartments"}}}, {"type": "Feature", "geometry": {"type": "Polygon", "coordinates": [[[-95.3286548, 35.7395401], [-95.3283144, 35.7395363], [-95.3283221, 35.7393838], [-95.3286579, 35.7393875], [-95.3286548, 35.7395401]]]}, "properties": {"osm_id": 1171753547, "building": "apartments", "name": "", "height": null, "height_m": null, "levels": null, "tract_id": "40101000801", "tract_name": "8.01", "tags": {"building": "apartments"}}}, {"type": "Feature", "geometry": {"type": "Polygon", "coordinates": [[[-95.3288712, 35.7395402], [-95.3288758, 35.7395021], [-95.3289074, 35.7394852], [-95.3289005, 35.7394421], [-95.3288404, 35.7394421], [-95.3288196, 35.7394258], [-95.3287695, 35.7394271], [-95.328748, 35.7394633], [-95.3287456, 35.7395402], [-95.3288712, 35.7395402]]]}, "properties": {"osm_id": 1171753548, "building": "yes", "name": "", "height": null, "height_m": null, "levels": null, "tract_id": "40101000801", "tract_name": "8.01", "tags": {"addr:city": "Muskogee", "addr:housenumber": "100", "addr:postcode": "74403", "addr:state": "OK", "addr:street": "North David Lane", "building": "yes", "office": "property_management"}}}, {"type": "Feature", "geometry": {"type": "Polygon", "coordinates": [[[-95.3310801, 35.739831], [-95.3313977, 35.7394784], [-95.3312576, 35.7393875], [-95.3309353, 35.7397533], [-95.3310801, 35.739831]]]}, "properties": {"osm_id": 1171753549, "building": "apartments", "name": "", "height": null, "height_m": null, "levels": null, "tract_id": "40101000801", "tract_name": "8.01", "tags": {"building": "apartments"}}}, {"type": "Feature", "geometry": {"type": "Polygon", "coordinates": [[[-95.331463, 35.7393041], [-95.3313673, 35.7388795], [-95.3311922, 35.7389004], [-95.3312926, 35.7393287], [-95.331463, 35.7393041]]]}, "properties": {"osm_id": 1171753550, "building": "apartments", "name": "", "height": null, "height_m": null, "levels": null, "tract_id": "40101000801", "tract_name": "8.01", "tags": {"building": "apartments"}}}, {"type": "Feature", "geometry": {"type": "Polygon", "coordinates": [[[-95.3306435, 35.7394292], [-95.3309353, 35.7390539], [-95.3307859, 35.7389781], [-95.3304847, 35.7393515], [-95.3306435, 35.7394292]]]}, "properties": {"osm_id": 1171753551, "building": "apartments", "name": "", "height": null, "height_m": null, "levels": null, "tract_id": "40101000801", "tract_name": "8.01", "tags": {"building": "apartments"}}}, {"type": "Feature", "geometry": {"type": "Polygon", "coordinates": [[[-95.3307603, 35.7395957], [-95.330676, 35.7394688], [-95.3302095, 35.739673], [-95.3302938, 35.7398], [-95.3307603, 35.7395957]]]}, "properties": {"osm_id": 1171753552, "building": "apartments", "name": "", "height": null, "height_m": null, "levels": null, "tract_id": "40101000801", "tract_name": "8.01", "tags": {"building": "apartments"}}}, {"type": "Feature", "geometry": {"type": "Polygon", "coordinates": [[[-95.3301438, 35.7398461], [-95.3301414, 35.7394007], [-95.3299686, 35.7394026], [-95.3299686, 35.7398461], [-95.3301438, 35.7398461]]]}, "properties": {"osm_id": 1171753553, "building": "apartments", "name": "", "height": null, "height_m": null, "levels": null, "tract_id": "40101000801", "tract_name": "8.01", "tags": {"building": "apartments"}}}, {"type": "Feature", "geometry": {"type": "Polygon", "coordinates": [[[-95.3305687, 35.7391771], [-95.3305664, 35.739033], [-95.330041, 35.7390293], [-95.3300434, 35.7391714], [-95.3305687, 35.7391771]]]}, "properties": {"osm_id": 1171753554, "building": "apartments", "name": "", "height": null, "height_m": null, "levels": null, "tract_id": "40101000801", "tract_name": "8.01", "tags": {"building": "apartments"}}}, {"type": "Feature", "geometry": {"type": "Polygon", "coordinates": [[[-95.3300831, 35.739342], [-95.3301181, 35.7392302], [-95.3300364, 35.7392112], [-95.3299967, 35.7393249], [-95.3300831, 35.739342]]]}, "properties": {"osm_id": 1171753555, "building": "yes", "name": "", "height": null, "height_m": null, "levels": null, "tract_id": "40101000801", "tract_name": "8.01", "tags": {"building": "yes", "office": "property_management"}}}, {"type": "Feature", "geometry": {"type": "Polygon", "coordinates": [[[-95.3233896, 35.728554], [-95.323163, 35.728554], [-95.3231626, 35.7285439], [-95.323127, 35.7285439], [-95.3231229, 35.7283894], [-95.323158, 35.728389], [-95.3231568, 35.7283776], [-95.323388, 35.7283766], [-95.3233903, 35.7284183], [-95.323423, 35.7284179], [-95.323423, 35.7284686], [-95.3233897, 35.7284695], [-95.3233896, 35.728554]]]}, "properties": {"osm_id": 1173132980, "building": "yes", "name": "", "height": null, "height_m": null, "levels": null, "tract_id": "40101000801", "tract_name": "8.01", "tags": {"addr:city": "Muskogee", "addr:housenumber": "1305", "addr:postcode": "74403", "addr:state": "OK", "addr:street": "South Country Club Road", "building": "yes", "office": "yes"}}}, {"type": "Feature", "geometry": {"type": "Polygon", "coordinates": [[[-95.3374309, 35.7411892], [-95.3373106, 35.7411892], [-95.3373071, 35.7410613], [-95.3371744, 35.7410599], [-95.3371761, 35.7409536], [-95.3373053, 35.7409522], [-95.3373035, 35.7409249], [-95.3373584, 35.7409249], [-95.3373602, 35.7409522], [-95.3374327, 35.7409507], [-95.3374309, 35.7411892]]]}, "properties": {"osm_id": 1173412125, "building": "yes", "name": "Armstrong Bank", "height": null, "height_m": null, "levels": null, "tract_id": "40101000801", "tract_name": "8.01", "tags": {"addr:city": "Muskogee", "addr:housenumber": "2520", "addr:postcode": "74403", "addr:state": "OK", "addr:street": "Chandler Road", "amenity": "bank", "atm": "yes", "building": "yes", "drive_through": "yes", "name": "Armstrong Bank"}}}, {"type": "Feature", "geometry": {"type": "Polygon", "coordinates": [[[-95.3380485, 35.7412107], [-95.3378663, 35.7412107], [-95.3378645, 35.7409565], [-95.3378486, 35.7409565], [-95.3378433, 35.7408631], [-95.3380627, 35.7408617], [-95.3380627, 35.7409536], [-95.3380485, 35.740955], [-95.3380485, 35.7412107]]]}, "properties": {"osm_id": 1173412126, "building": "yes", "name": "Hogle Eye Care Center", "height": null, "height_m": null, "levels": null, "tract_id": "40101000801", "tract_name": "8.01", "tags": {"addr:city": "Muskogee", "addr:housenumber": "2500", "addr:postcode": "74403", "addr:state": "OK", "addr:street": "Chandler Road", "building": "yes", "name": "Hogle Eye Care Center", "shop": "optician"}}}, {"type": "Feature", "geometry": {"type": "Polygon", "coordinates": [[[-95.3364434, 35.7412185], [-95.3363082, 35.7412197], [-95.3363089, 35.7412695], [-95.3364159, 35.7412686], [-95.3364205, 35.7416049], [-95.3362328, 35.7416066], [-95.3362283, 35.7412703], [-95.3362643, 35.74127], [-95.3362637, 35.7412202], [-95.3362366, 35.7412204], [-95.3362335, 35.7409857], [-95.3362118, 35.7409859], [-95.3362112, 35.7409363], [-95.3362391, 35.740936], [-95.3362382, 35.7408711], [-95.3363749, 35.7408698], [-95.3363781, 35.7411055], [-95.3364419, 35.741105], [-95.3364434, 35.7412185]]]}, "properties": {"osm_id": 1173412127, "building": "yes", "name": "B-Sew Inn", "height": null, "height_m": null, "levels": null, "tract_id": "40101000801", "tract_name": "8.01", "tags": {"addr:city": "Muskogee", "addr:housenumber": "2530", "addr:postcode": "74403", "addr:state": "OK", "addr:street": "Chandler Road", "building": "yes", "name": "B-Sew Inn", "phone": "+1-918-687-3488", "shop": "sewing"}}}, {"type": "Feature", "geometry": {"type": "Polygon", "coordinates": [[[-95.3360753, 35.7411584], [-95.3360707, 35.7410234], [-95.3360199, 35.7410246], [-95.3360183, 35.7409658], [-95.3360183, 35.7408896], [-95.335912, 35.7408883], [-95.335912, 35.7410259], [-95.3358581, 35.7410234], [-95.3358596, 35.7411596], [-95.3360753, 35.7411584]]]}, "properties": {"osm_id": 1173412128, "building": "yes", "name": "Young Chiropractic", "height": null, "height_m": null, "levels": null, "tract_id": "40101000801", "tract_name": "8.01", "tags": {"addr:city": "Muskogee", "addr:housenumber": "2602", "addr:postcode": "74403", "addr:state": "OK", "addr:street": "Chandler Road", "building": "yes", "healthcare": "alternative", "healthcare:speciality": "chiropractic", "name": "Young Chiropractic", "phone": "+1-918-687-5551"}}}, {"type": "Feature", "geometry": {"type": "Polygon", "coordinates": [[[-95.3355454, 35.7410471], [-95.3353436, 35.7410471], [-95.335342, 35.7409371], [-95.3355469, 35.7409396], [-95.3355454, 35.7410471]]]}, "properties": {"osm_id": 1173412129, "building": "yes", "name": "Kush Gardens", "height": null, "height_m": null, "levels": null, "tract_id": "40101000801", "tract_name": "8.01", "tags": {"addr:city": "Muskogee", "addr:housenumber": "2604", "addr:postcode": "74403", "addr:state": "OK", "addr:street": "Chandler Road", "building": "yes", "name": "Kush Gardens", "shop": "cannabis"}}}, {"type": "Feature", "geometry": {"type": "Polygon", "coordinates": [[[-95.3356994, 35.7416373], [-95.3352496, 35.7416373], [-95.3352588, 35.7411221], [-95.3357056, 35.7411184], [-95.3356994, 35.7416373]]]}, "properties": {"osm_id": 1173412130, "building": "yes", "name": "", "height": null, "height_m": null, "levels": null, "tract_id": "40101000801", "tract_name": "8.01", "tags": {"addr:city": "Muskogee", "addr:housenumber": "2608", "addr:postcode": "74403", "addr:state": "OK", "addr:street": "Chandler Road", "building": "yes", "shop": "storage_rental"}}}, {"type": "Feature", "geometry": {"type": "Polygon", "coordinates": [[[-95.3270802, 35.7393615], [-95.3270813, 35.7393236], [-95.3271525, 35.7393226], [-95.3271525, 35.7392525], [-95.3270778, 35.7392534], [-95.3270778, 35.7390459], [-95.3268023, 35.739044], [-95.3268046, 35.7392667], [-95.3267439, 35.7392677], [-95.3267381, 35.738971], [-95.326375, 35.738972], [-95.3263752, 35.738983], [-95.3263808, 35.7393567], [-95.3267509, 35.7393567], [-95.3267509, 35.7393473], [-95.3268105, 35.7393463], [-95.3268105, 35.7393624], [-95.3270802, 35.7393615]]]}, "properties": {"osm_id": 1173412133, "building": "yes", "name": "Chandler Road Church of Christ", "height": null, "height_m": null, "levels": null, "tract_id": "40101000801", "tract_name": "8.01", "tags": {"addr:city": "Muskogee", "addr:housenumber": "3507", "addr:postcode": "74403", "addr:state": "OK", "addr:street": "Chandler Road", "amenity": "place_of_worship", "building": "yes", "denomination": "church_of_christ", "ele": "174", "gnis:feature_id": "1798870", "name": "Chandler Road Church of Christ", "religion": "christian"}}}, {"type": "Feature", "geometry": {"type": "Polygon", "coordinates": [[[-95.3244457, 35.7492533], [-95.3242917, 35.7492545], [-95.3242897, 35.7490837], [-95.3239285, 35.7492859], [-95.3239166, 35.7492719], [-95.3238727, 35.7492964], [-95.3238073, 35.7492196], [-95.3238519, 35.7491946], [-95.3238408, 35.7491817], [-95.3242189, 35.7489702], [-95.3242189, 35.7489472], [-95.3238411, 35.7487344], [-95.3238506, 35.7487234], [-95.3237981, 35.7486938], [-95.3238671, 35.7486133], [-95.3239256, 35.7486463], [-95.3239359, 35.7486343], [-95.3242915, 35.7488352], [-95.3242929, 35.748608], [-95.3244468, 35.7486086], [-95.3244454, 35.7488309], [-95.324768, 35.7486521], [-95.3248613, 35.748763], [-95.3246314, 35.7488904], [-95.3246489, 35.7489113], [-95.3247823, 35.7489151], [-95.3247784, 35.7490049], [-95.3247492, 35.7490041], [-95.3247477, 35.7490376], [-95.3246661, 35.7490352], [-95.3246675, 35.7490039], [-95.3246436, 35.7490032], [-95.3246243, 35.7490259], [-95.3248139, 35.7491321], [-95.324791, 35.7491591], [-95.3248513, 35.7491929], [-95.3248105, 35.7492409], [-95.3247433, 35.7492033], [-95.3247205, 35.74923], [-95.3244437, 35.749075], [-95.3244457, 35.7492533]]]}, "properties": {"osm_id": 1173422788, "building": "yes", "name": "Eastgate Village Health Care Center", "height": null, "height_m": null, "levels": null, "tract_id": "40101000801", "tract_name": "8.01", "tags": {"addr:city": "Muskogee", "addr:housenumber": "3500", "addr:postcode": "74403", "addr:state": "OK", "addr:street": "Haskell Boulevard", "amenity": "social_facility", "building": "yes", "name": "Eastgate Village Health Care Center", "social_facility": "nursing_home", "social_facility:for": "senior"}}}, {"type": "Feature", "geometry": {"type": "Polygon", "coordinates": [[[-95.3237479, 35.7382935], [-95.3236313, 35.738293], [-95.3236316, 35.7382374], [-95.3236137, 35.7382373], [-95.3236141, 35.7381757], [-95.3236289, 35.7381757], [-95.3236292, 35.738125], [-95.3236146, 35.738125], [-95.323615, 35.7380612], [-95.3236293, 35.7380613], [-95.3236296, 35.7380086], [-95.3236145, 35.7380086], [-95.3236148, 35.7379456], [-95.3236311, 35.7379457], [-95.3236314, 35.7378956], [-95.3237502, 35.7378961], [-95.3237479, 35.7382935]]]}, "properties": {"osm_id": 1173425749, "building": "apartments", "name": "", "height": null, "height_m": null, "levels": null, "tract_id": "40101000801", "tract_name": "8.01", "tags": {"building": "apartments"}}}, {"type": "Feature", "geometry": {"type": "Polygon", "coordinates": [[[-95.3235681, 35.7382546], [-95.3235667, 35.7381492], [-95.3234975, 35.7381498], [-95.3234977, 35.7381584], [-95.3234304, 35.738159], [-95.3234302, 35.7381461], [-95.32335, 35.7381467], [-95.3233501, 35.7381534], [-95.3232819, 35.738154], [-95.3232833, 35.738257], [-95.3235681, 35.7382546]]]}, "properties": {"osm_id": 1173425750, "building": "apartments", "name": "", "height": null, "height_m": null, "levels": null, "tract_id": "40101000801", "tract_name": "8.01", "tags": {"building": "apartments"}}}, {"type": "Feature", "geometry": {"type": "Polygon", "coordinates": [[[-95.3232258, 35.7382955], [-95.3231065, 35.7382956], [-95.3231058, 35.7378893], [-95.3232313, 35.7378891], [-95.3232314, 35.737953], [-95.3232438, 35.7379529], [-95.3232439, 35.7380085], [-95.3232288, 35.7380085], [-95.323229, 35.7380612], [-95.3232423, 35.7380612], [-95.3232424, 35.7381222], [-95.3232264, 35.7381222], [-95.3232265, 35.7381789], [-95.3232398, 35.7381789], [-95.3232399, 35.7382372], [-95.3232257, 35.7382372], [-95.3232258, 35.7382955]]]}, "properties": {"osm_id": 1173425751, "building": "apartments", "name": "", "height": null, "height_m": null, "levels": null, "tract_id": "40101000801", "tract_name": "8.01", "tags": {"building": "apartments"}}}, {"type": "Feature", "geometry": {"type": "Polygon", "coordinates": [[[-95.3237463, 35.737775], [-95.3237418, 35.7370266], [-95.3236301, 35.7370271], [-95.3236304, 35.7370812], [-95.3236119, 35.7370813], [-95.3236124, 35.7371395], [-95.3236275, 35.7371394], [-95.323628, 35.7371963], [-95.3236131, 35.7371964], [-95.3236137, 35.737257], [-95.3236262, 35.7372569], [-95.3236268, 35.7373095], [-95.3236108, 35.7373096], [-95.3236116, 35.737375], [-95.3236268, 35.7373749], [-95.3236274, 35.7374264], [-95.3236134, 35.7374265], [-95.3236141, 35.7374885], [-95.3236293, 35.7374884], [-95.3236299, 35.7375426], [-95.3236105, 35.7375427], [-95.3236112, 35.7376096], [-95.3236254, 35.7376095], [-95.3236258, 35.7376535], [-95.32361, 35.7376536], [-95.3236105, 35.737722], [-95.3236258, 35.7377219], [-95.3236262, 35.7377755], [-95.3237463, 35.737775]]]}, "properties": {"osm_id": 1173425752, "building": "apartments", "name": "", "height": null, "height_m": null, "levels": null, "tract_id": "40101000801", "tract_name": "8.01", "tags": {"building": "apartments"}}}, {"type": "Feature", "geometry": {"type": "Polygon", "coordinates": [[[-95.3235667, 35.7371693], [-95.3235673, 35.7370602], [-95.3232835, 35.7370592], [-95.3232829, 35.7371561], [-95.3233483, 35.7371564], [-95.3233483, 35.7371678], [-95.3234258, 35.7371681], [-95.3234258, 35.7371562], [-95.3234917, 35.7371565], [-95.3234916, 35.737169], [-95.3235667, 35.7371693]]]}, "properties": {"osm_id": 1173425753, "building": "apartments", "name": "", "height": null, "height_m": null, "levels": null, "tract_id": "40101000801", "tract_name": "8.01", "tags": {"building": "apartments"}}}, {"type": "Feature", "geometry": {"type": "Polygon", "coordinates": [[[-95.3231085, 35.7377749], [-95.3231014, 35.7370213], [-95.3232267, 35.7370205], [-95.3232273, 35.7370778], [-95.3232386, 35.7370777], [-95.3232392, 35.7371431], [-95.323222, 35.7371432], [-95.3232225, 35.7371964], [-95.3232389, 35.7371963], [-95.3232394, 35.7372563], [-95.3232263, 35.7372564], [-95.3232268, 35.7373108], [-95.3232392, 35.7373108], [-95.3232397, 35.7373712], [-95.3232266, 35.7373713], [-95.3232271, 35.7374269], [-95.3232394, 35.7374269], [-95.3232399, 35.7374853], [-95.3232249, 35.7374853], [-95.3232253, 35.737543], [-95.3232408, 35.7375429], [-95.3232413, 35.7376052], [-95.3232292, 35.7376052], [-95.3232297, 35.7376567], [-95.3232388, 35.7376542], [-95.3232394, 35.7377184], [-95.3232254, 35.7377185], [-95.3232259, 35.7377741], [-95.3231085, 35.7377749]]]}, "properties": {"osm_id": 1173425754, "building": "apartments", "name": "", "height": null, "height_m": null, "levels": null, "tract_id": "40101000801", "tract_name": "8.01", "tags": {"building": "apartments"}}}, {"type": "Feature", "geometry": {"type": "Polygon", "coordinates": [[[-95.3235385, 35.7377159], [-95.3235397, 35.7376069], [-95.3233213, 35.7376069], [-95.323319, 35.7377159], [-95.3233996, 35.7377159], [-95.3233996, 35.7377036], [-95.3234591, 35.7377036], [-95.3234591, 35.7377159], [-95.3235385, 35.7377159]]]}, "properties": {"osm_id": 1173425755, "building": "apartments", "name": "", "height": null, "height_m": null, "levels": null, "tract_id": "40101000801", "tract_name": "8.01", "tags": {"building": "apartments"}}}, {"type": "Feature", "geometry": {"type": "Polygon", "coordinates": [[[-95.3401892, 35.7344472], [-95.3400111, 35.7344472], [-95.3400112, 35.7347459], [-95.3399461, 35.7347459], [-95.3399461, 35.7347979], [-95.3398587, 35.7347979], [-95.3398588, 35.7349456], [-95.3399472, 35.7349456], [-95.3399472, 35.7350983], [-95.3399351, 35.7350983], [-95.3399351, 35.7351742], [-95.3401821, 35.7351742], [-95.3401821, 35.7351048], [-95.3401221, 35.7351048], [-95.3401221, 35.7348781], [-95.3401821, 35.7348781], [-95.3401821, 35.7347915], [-95.3401893, 35.7347915], [-95.3401892, 35.7344472]]]}, "properties": {"osm_id": 1175049384, "building": "yes", "name": "York Manor", "height": null, "height_m": null, "levels": null, "tract_id": "40101000801", "tract_name": "8.01", "tags": {"addr:city": "Muskogee", "addr:housenumber": "500", "addr:postcode": "74403", "addr:state": "OK", "addr:street": "South York Street", "amenity": "social_facility", "building": "yes", "name": "York Manor", "social_facility": "nursing_home", "social_facility:for": "senior"}}}, {"type": "Feature", "geometry": {"type": "Polygon", "coordinates": [[[-95.3401293, 35.7288298], [-95.3401289, 35.7287063], [-95.3400095, 35.7287065], [-95.3400099, 35.7288301], [-95.3401293, 35.7288298]]]}, "properties": {"osm_id": 1175049402, "building": "yes", "name": "Albert L. Murrie, CPA, PC", "height": null, "height_m": null, "levels": null, "tract_id": "40101000801", "tract_name": "8.01", "tags": {"addr:city": "Muskogee", "addr:housenumber": "830", "addr:postcode": "74403", "addr:state": "OK", "addr:street": "South York Street", "building": "yes", "name": "Albert L. Murrie, CPA, PC", "office": "accountant"}}}, {"type": "Feature", "geometry": {"type": "Polygon", "coordinates": [[[-95.3391225, 35.7289603], [-95.3391164, 35.7287389], [-95.3390078, 35.7287409], [-95.3390139, 35.7289623], [-95.3391225, 35.7289603]]]}, "properties": {"osm_id": 1175049403, "building": "yes", "name": "", "height": null, "height_m": null, "levels": null, "tract_id": "40101000801", "tract_name": "8.01", "tags": {"addr:city": "Muskogee", "addr:housenumber": "2436", "addr:postcode": "74403", "addr:state": "OK", "addr:street": "Kansas Avenue", "building": "yes"}}}, {"type": "Feature", "geometry": {"type": "Polygon", "coordinates": [[[-95.338844, 35.7293029], [-95.3388414, 35.7291461], [-95.3384886, 35.729145], [-95.3384766, 35.7291918], [-95.3384243, 35.7291929], [-95.3384229, 35.7292593], [-95.338486, 35.7292615], [-95.3384913, 35.729305], [-95.338844, 35.7293029]]]}, "properties": {"osm_id": 1175049404, "building": "church", "name": "", "height": null, "height_m": null, "levels": null, "tract_id": "40101000801", "tract_name": "8.01", "tags": {"building": "church"}}}, {"type": "Feature", "geometry": {"type": "Polygon", "coordinates": [[[-95.3387113, 35.7296012], [-95.3387099, 35.7293399], [-95.3386013, 35.7293388], [-95.3386, 35.7293943], [-95.3384967, 35.7293943], [-95.3384953, 35.729489], [-95.3386, 35.7294912], [-95.3386013, 35.7296001], [-95.3387113, 35.7296012]]]}, "properties": {"osm_id": 1175049405, "building": "church", "name": "Bible Baptist Church", "height": null, "height_m": null, "levels": null, "tract_id": "40101000801", "tract_name": "8.01", "tags": {"addr:city": "Muskogee", "addr:housenumber": "917", "addr:postcode": "74403", "addr:state": "OK", "addr:street": "Admiral Street", "amenity": "place_of_worship", "building": "church", "denomination": "baptist", "ele": "173", "gnis:feature_id": "1798861", "name": "Bible Baptist Church", "religion": "christian"}}}, {"type": "Feature", "geometry": {"type": "Polygon", "coordinates": [[[-95.3293816, 35.7276545], [-95.3292022, 35.7274836], [-95.3290838, 35.7275655], [-95.3292631, 35.7277364], [-95.3293816, 35.7276545]]]}, "properties": {"osm_id": 1175101340, "building": "apartments", "name": "", "height": null, "height_m": null, "levels": null, "tract_id": "40101000801", "tract_name": "8.01", "tags": {"building": "apartments"}}}, {"type": "Feature", "geometry": {"type": "Polygon", "coordinates": [[[-95.3293865, 35.7274318], [-95.3293936, 35.7270631], [-95.3292521, 35.7270613], [-95.329245, 35.7274299], [-95.3293865, 35.7274318]]]}, "properties": {"osm_id": 1175101341, "building": "apartments", "name": "", "height": null, "height_m": null, "levels": null, "tract_id": "40101000801", "tract_name": "8.01", "tags": {"building": "apartments"}}}, {"type": "Feature", "geometry": {"type": "Polygon", "coordinates": [[[-95.3290625, 35.7274248], [-95.3289293, 35.727423], [-95.3289366, 35.7270574], [-95.32907, 35.7270592], [-95.3290625, 35.7274248]]]}, "properties": {"osm_id": 1175101342, "building": "apartments", "name": "", "height": null, "height_m": null, "levels": null, "tract_id": "40101000801", "tract_name": "8.01", "tags": {"building": "apartments"}}}, {"type": "Feature", "geometry": {"type": "Polygon", "coordinates": [[[-95.3291977, 35.7274253], [-95.3290965, 35.727423], [-95.3290994, 35.7273373], [-95.3292006, 35.7273395], [-95.3291977, 35.7274253]]]}, "properties": {"osm_id": 1175101343, "building": "apartments", "name": "", "height": null, "height_m": null, "levels": null, "tract_id": "40101000801", "tract_name": "8.01", "tags": {"building": "apartments"}}}, {"type": "Feature", "geometry": {"type": "Polygon", "coordinates": [[[-95.3293963, 35.7269884], [-95.3292593, 35.7269881], [-95.3292604, 35.7266212], [-95.3293975, 35.7266215], [-95.3293963, 35.7269884]]]}, "properties": {"osm_id": 1175101344, "building": "apartments", "name": "", "height": null, "height_m": null, "levels": null, "tract_id": "40101000801", "tract_name": "8.01", "tags": {"building": "apartments"}}}, {"type": "Feature", "geometry": {"type": "Polygon", "coordinates": [[[-95.3290711, 35.726983], [-95.3289366, 35.7269812], [-95.328944, 35.7266184], [-95.3290785, 35.7266202], [-95.3290711, 35.726983]]]}, "properties": {"osm_id": 1175101345, "building": "apartments", "name": "", "height": null, "height_m": null, "levels": null, "tract_id": "40101000801", "tract_name": "8.01", "tags": {"building": "apartments"}}}, {"type": "Feature", "geometry": {"type": "Polygon", "coordinates": [[[-95.3292117, 35.7268191], [-95.3291973, 35.7268178], [-95.3291101, 35.7268165], [-95.3291031, 35.7268166], [-95.3291063, 35.7267263], [-95.3292148, 35.7267288], [-95.3292117, 35.7268191]]]}, "properties": {"osm_id": 1175101346, "building": "apartments", "name": "", "height": null, "height_m": null, "levels": null, "tract_id": "40101000801", "tract_name": "8.01", "tags": {"building": "apartments"}}}, {"type": "Feature", "geometry": {"type": "Polygon", "coordinates": [[[-95.329397, 35.7265477], [-95.3293992, 35.7263954], [-95.3289569, 35.7263913], [-95.3289548, 35.7265436], [-95.329397, 35.7265477]]]}, "properties": {"osm_id": 1175101347, "building": "apartments", "name": "", "height": null, "height_m": null, "levels": null, "tract_id": "40101000801", "tract_name": "8.01", "tags": {"building": "apartments"}}}, {"type": "Feature", "geometry": {"type": "Polygon", "coordinates": [[[-95.3270994, 35.7296597], [-95.3270975, 35.7294169], [-95.3270817, 35.7294177], [-95.3270798, 35.729385], [-95.3269027, 35.7293834], [-95.3269027, 35.7294177], [-95.326884, 35.7294177], [-95.32688, 35.7296573], [-95.3268987, 35.7296573], [-95.3268987, 35.7296909], [-95.3270807, 35.7296917], [-95.3270807, 35.7296589], [-95.3270994, 35.7296597]]]}, "properties": {"osm_id": 1175101350, "building": "apartments", "name": "Briarwood Condominiums", "height": null, "height_m": 6.0, "levels": 2, "tract_id": "40101000801", "tract_name": "8.01", "tags": {"addr:city": "Muskogee", "addr:housenumber": "1123", "addr:postcode": "74403", "addr:state": "OK", "addr:street": "Jeannie Lane", "building": "apartments", "building:levels": "2", "name": "Briarwood Condominiums"}}}, {"type": "Feature", "geometry": {"type": "Polygon", "coordinates": [[[-95.3401633, 35.7442117], [-95.3401631, 35.7440959], [-95.3401812, 35.7440959], [-95.3401812, 35.7440578], [-95.3399639, 35.744058], [-95.3399639, 35.7440727], [-95.3399289, 35.7440728], [-95.339929, 35.744135], [-95.339963, 35.744135], [-95.3399631, 35.7442119], [-95.3401633, 35.7442117]]]}, "properties": {"osm_id": 1175114948, "building": "yes", "name": "State Farm", "height": null, "height_m": null, "levels": null, "tract_id": "40101000801", "tract_name": "8.01", "tags": {"addr:city": "Muskogee", "addr:housenumber": "607", "addr:postcode": "74403", "addr:state": "OK", "addr:street": "North York Street", "brand": "State Farm", "brand:wikidata": "Q2007336", "building": "yes", "name": "State Farm", "office": "insurance"}}}, {"type": "Feature", "geometry": {"type": "Polygon", "coordinates": [[[-95.34016, 35.7444905], [-95.3401577, 35.744319], [-95.3400391, 35.7443172], [-95.3400368, 35.7444896], [-95.34016, 35.7444905]]]}, "properties": {"osm_id": 1175114949, "building": "yes", "name": "Economy Pharmacy Corporate Office", "height": null, "height_m": null, "levels": null, "tract_id": "40101000801", "tract_name": "8.01", "tags": {"addr:city": "Muskogee", "addr:housenumber": "514", "addr:postcode": "74403", "addr:state": "OK", "addr:street": "North York Street", "building": "yes", "name": "Economy Pharmacy Corporate Office", "office": "company"}}}, {"type": "Feature", "geometry": {"type": "Polygon", "coordinates": [[[-95.3401713, 35.7450546], [-95.34003, 35.7450537], [-95.3400278, 35.7449216], [-95.3401702, 35.7449198], [-95.3401724, 35.7449574], [-95.3402097, 35.7449592], [-95.3402109, 35.7450216], [-95.3401815, 35.7450225], [-95.3401826, 35.7450436], [-95.3401713, 35.7450546]]]}, "properties": {"osm_id": 1175114950, "building": "yes", "name": "Wild West Hair & Nail Salon", "height": null, "height_m": null, "levels": null, "tract_id": "40101000801", "tract_name": "8.01", "tags": {"addr:city": "Muskogee", "addr:housenumber": "604", "addr:postcode": "74403", "addr:state": "OK", "addr:street": "North York Street", "building": "yes", "name": "Wild West Hair & Nail Salon", "shop": "hairdresser"}}}, {"type": "Feature", "geometry": {"type": "Polygon", "coordinates": [[[-95.3401807, 35.7452346], [-95.3401807, 35.7451736], [-95.3401694, 35.7451736], [-95.3401694, 35.7450965], [-95.3400738, 35.7450965], [-95.3400738, 35.7451782], [-95.3400467, 35.7451782], [-95.3400467, 35.7452346], [-95.3401807, 35.7452346]]]}, "properties": {"osm_id": 1175114951, "building": "yes", "name": "Lillian Jayne Real Estate", "height": null, "height_m": null, "levels": null, "tract_id": "40101000801", "tract_name": "8.01", "tags": {"addr:city": "Muskogee", "addr:housenumber": "606", "addr:postcode": "74403", "addr:state": "OK", "addr:street": "North York Street", "building": "yes", "name": "Lillian Jayne Real Estate", "office": "estate_agent"}}}, {"type": "Feature", "geometry": {"type": "Polygon", "coordinates": [[[-95.3401432, 35.7454179], [-95.3401447, 35.7452826], [-95.3400627, 35.745282], [-95.3400612, 35.7454173], [-95.3401432, 35.7454179]]]}, "properties": {"osm_id": 1175114952, "building": "yes", "name": "Farmers Insurance", "height": null, "height_m": null, "levels": null, "tract_id": "40101000801", "tract_name": "8.01", "tags": {"addr:city": "Muskogee", "addr:housenumber": "610", "addr:postcode": "74403", "addr:state": "OK", "addr:street": "North York Street", "building": "yes", "name": "Farmers Insurance"}}}, {"type": "Feature", "geometry": {"type": "Polygon", "coordinates": [[[-95.340161, 35.7455461], [-95.340161, 35.7454583], [-95.34002, 35.7454582], [-95.34002, 35.745505], [-95.339977, 35.745505], [-95.339977, 35.7456003], [-95.3401034, 35.7456003], [-95.3401034, 35.7455461], [-95.340161, 35.7455461]]]}, "properties": {"osm_id": 1175114953, "building": "yes", "name": "", "height": null, "height_m": null, "levels": null, "tract_id": "40101000801", "tract_name": "8.01", "tags": {"building": "yes"}}}, {"type": "Feature", "geometry": {"type": "Polygon", "coordinates": [[[-95.340177, 35.7457603], [-95.3400666, 35.7457613], [-95.3400652, 35.7456474], [-95.3401571, 35.7456467], [-95.3401581, 35.7457296], [-95.3401766, 35.7457294], [-95.340177, 35.7457603]]]}, "properties": {"osm_id": 1175114954, "building": "house", "name": "", "height": null, "height_m": null, "levels": null, "tract_id": "40101000801", "tract_name": "8.01", "tags": {"addr:city": "Muskogee", "addr:housenumber": "614", "addr:postcode": "74403", "addr:state": "OK", "addr:street": "North York Street", "building": "house"}}}, {"type": "Feature", "geometry": {"type": "Polygon", "coordinates": [[[-95.3401759, 35.745974], [-95.3400492, 35.7459726], [-95.3400483, 35.7458844], [-95.3400303, 35.7458844], [-95.3400303, 35.7458426], [-95.3400706, 35.745842], [-95.3400697, 35.7458322], [-95.3401168, 35.7458308], [-95.3401168, 35.7458426], [-95.3401554, 35.7458426], [-95.3401562, 35.7459295], [-95.3401751, 35.7459288], [-95.3401759, 35.745974]]]}, "properties": {"osm_id": 1175114955, "building": "house", "name": "", "height": null, "height_m": null, "levels": null, "tract_id": "40101000801", "tract_name": "8.01", "tags": {"addr:city": "Muskogee", "addr:housenumber": "616", "addr:postcode": "74403", "addr:state": "OK", "addr:street": "North York Street", "building": "house"}}}, {"type": "Feature", "geometry": {"type": "Polygon", "coordinates": [[[-95.3402241, 35.7463273], [-95.3402251, 35.7462219], [-95.3399979, 35.7462203], [-95.3399998, 35.7463249], [-95.3402241, 35.7463273]]]}, "properties": {"osm_id": 1175114956, "building": "yes", "name": "Farmers Insurance", "height": null, "height_m": null, "levels": null, "tract_id": "40101000801", "tract_name": "8.01", "tags": {"addr:city": "Muskogee", "addr:housenumber": "628", "addr:postcode": "74403", "addr:state": "OK", "addr:street": "North York Street", "brand": "Farmers Insurance", "brand:wikidata": "Q1396863", "building": "yes", "name": "Farmers Insurance", "office": "insurance"}}}, {"type": "Feature", "geometry": {"type": "Polygon", "coordinates": [[[-95.3401928, 35.7466605], [-95.3401917, 35.7466031], [-95.3401589, 35.7466045], [-95.3401584, 35.7465843], [-95.3401166, 35.7465839], [-95.3401166, 35.7466031], [-95.3400425, 35.7466031], [-95.3400408, 35.7466715], [-95.3401561, 35.7466715], [-95.3401561, 35.7466605], [-95.3401928, 35.7466605]]]}, "properties": {"osm_id": 1175114957, "building": "yes", "name": "NuAge Medical Spa", "height": null, "height_m": null, "levels": null, "tract_id": "40101000801", "tract_name": "8.01", "tags": {"addr:city": "Muskogee", "addr:housenumber": "636", "addr:postcode": "74403", "addr:state": "OK", "addr:street": "North York Street", "building": "yes", "name": "NuAge Medical Spa"}}}, {"type": "Feature", "geometry": {"type": "Polygon", "coordinates": [[[-95.3401166, 35.7473808], [-95.3400431, 35.7473815], [-95.3400413, 35.7472652], [-95.3400486, 35.7472652], [-95.3400484, 35.7472511], [-95.3400723, 35.7472508], [-95.3400725, 35.7472652], [-95.3401147, 35.7472647], [-95.3401166, 35.7473808]]]}, "properties": {"osm_id": 1175114958, "building": "yes", "name": "Erly Rush Drive Thru", "height": null, "height_m": null, "levels": null, "tract_id": "40101000801", "tract_name": "8.01", "tags": {"addr:city": "Muskogee", "addr:housenumber": "704", "addr:postcode": "74403", "addr:state": "OK", "addr:street": "North York Street", "amenity": "cafe", "building": "yes", "cuisine": "coffee_shop", "name": "Erly Rush Drive Thru"}}}, {"type": "Feature", "geometry": {"type": "Polygon", "coordinates": [[[-95.3401621, 35.7494202], [-95.3398715, 35.7494197], [-95.3398717, 35.7493332], [-95.3401624, 35.7493337], [-95.3401621, 35.7494202]]]}, "properties": {"osm_id": 1217774796, "building": "commercial", "name": "", "height": null, "height_m": null, "levels": null, "tract_id": "40101000801", "tract_name": "8.01", "tags": {"building": "commercial"}}}, {"type": "Feature", "geometry": {"type": "Polygon", "coordinates": [[[-95.3398886, 35.7402325], [-95.3398838, 35.7400144], [-95.339644, 35.7400092], [-95.3396456, 35.7402299], [-95.3398886, 35.7402325]]]}, "properties": {"osm_id": 1423624806, "building": "yes", "name": "American Bank", "height": null, "height_m": null, "levels": null, "tract_id": "40101000801", "tract_name": "8.01", "tags": {"amenity": "bank", "building": "yes", "name": "American Bank"}}}, {"type": "Feature", "geometry": {"type": "Polygon", "coordinates": [[[-95.3301353, 35.7402448], [-95.3301337, 35.7401312], [-95.3299228, 35.7401312], [-95.3299212, 35.7402435], [-95.3301353, 35.7402448]]]}, "properties": {"osm_id": 1433431660, "building": "commercial", "name": "", "height": null, "height_m": null, "levels": null, "tract_id": "40101000801", "tract_name": "8.01", "tags": {"addr:city": "Muskogee", "addr:housenumber": "3305", "addr:postcode": "74403", "addr:state": "OK", "addr:street": "Chandler Road", "building": "commercial"}}}, {"type": "Feature", "geometry": {"type": "Polygon", "coordinates": [[[-95.3247947, 35.7412233], [-95.3247864, 35.7408403], [-95.324476, 35.7408414], [-95.3244829, 35.7412211], [-95.3247947, 35.7412233]]]}, "properties": {"osm_id": 1433431661, "building": "commercial", "name": "", "height": null, "height_m": null, "levels": null, "tract_id": "40101000801", "tract_name": "8.01", "tags": {"addr:city": "Muskogee", "addr:housenumber": "3520", "addr:postcode": "74403", "addr:state": "OK", "addr:street": "Chandler Road", "building": "commercial"}}}, {"type": "Feature", "geometry": {"type": "Polygon", "coordinates": [[[-95.3244221, 35.7410951], [-95.3244201, 35.7409381], [-95.3243481, 35.7409387], [-95.3243479, 35.7409219], [-95.3242575, 35.7409227], [-95.324259, 35.7410378], [-95.3243292, 35.7410372], [-95.3243299, 35.7410959], [-95.3244221, 35.7410951]]]}, "properties": {"osm_id": 1433431662, "building": "commercial", "name": "", "height": null, "height_m": null, "levels": null, "tract_id": "40101000801", "tract_name": "8.01", "tags": {"addr:city": "Muskogee", "addr:housenumber": "3524", "addr:postcode": "74403", "addr:state": "OK", "addr:street": "Chandler Road", "building": "commercial"}}}, {"type": "Feature", "geometry": {"type": "Polygon", "coordinates": [[[-95.3253925, 35.7410568], [-95.3253921, 35.7409941], [-95.3254076, 35.740994], [-95.3254072, 35.7409322], [-95.3253361, 35.7409325], [-95.325336, 35.7409193], [-95.3252769, 35.7409195], [-95.3252769, 35.7409153], [-95.3252288, 35.7409155], [-95.325229, 35.7409355], [-95.3252, 35.7409356], [-95.3252002, 35.7409684], [-95.3251565, 35.7409686], [-95.3251571, 35.7410579], [-95.3253925, 35.7410568]]]}, "properties": {"osm_id": 1433431663, "building": "yes", "name": "Stevens General Dentistry", "height": null, "height_m": null, "levels": null, "tract_id": "40101000801", "tract_name": "8.01", "tags": {"addr:city": "Muskogee", "addr:housenumber": "3518", "addr:postcode": "74403", "addr:state": "OK", "addr:street": "Chandler Road", "amenity": "dentist", "building": "yes", "healthcare": "dentist", "name": "Stevens General Dentistry"}}}, {"type": "Feature", "geometry": {"type": "Polygon", "coordinates": [[[-95.3238429, 35.7432984], [-95.3233736, 35.7428961], [-95.3232872, 35.7429616], [-95.3237585, 35.7433624], [-95.3238429, 35.7432984]]]}, "properties": {"osm_id": 1433431664, "building": "yes", "name": "", "height": null, "height_m": null, "levels": null, "tract_id": "40101000801", "tract_name": "8.01", "tags": {"building": "yes", "shop": "storage_rental"}}}, {"type": "Feature", "geometry": {"type": "Polygon", "coordinates": [[[-95.3238467, 35.7430774], [-95.3233773, 35.7426751], [-95.323291, 35.7427406], [-95.3237622, 35.7431414], [-95.3238467, 35.7430774]]]}, "properties": {"osm_id": 1433431665, "building": "yes", "name": "", "height": null, "height_m": null, "levels": null, "tract_id": "40101000801", "tract_name": "8.01", "tags": {"building": "yes", "shop": "storage_rental"}}}, {"type": "Feature", "geometry": {"type": "Polygon", "coordinates": [[[-95.3238551, 35.7428686], [-95.3233774, 35.7424587], [-95.3232939, 35.7425228], [-95.3237716, 35.7429328], [-95.3238551, 35.7428686]]]}, "properties": {"osm_id": 1433431666, "building": "yes", "name": "", "height": null, "height_m": null, "levels": null, "tract_id": "40101000801", "tract_name": "8.01", "tags": {"building": "yes", "shop": "storage_rental"}}}, {"type": "Feature", "geometry": {"type": "Polygon", "coordinates": [[[-95.3238573, 35.7426492], [-95.3233793, 35.7422351], [-95.3232934, 35.7423004], [-95.3237715, 35.7427145], [-95.3238573, 35.7426492]]]}, "properties": {"osm_id": 1433431667, "building": "yes", "name": "", "height": null, "height_m": null, "levels": null, "tract_id": "40101000801", "tract_name": "8.01", "tags": {"building": "yes", "shop": "storage_rental"}}}, {"type": "Feature", "geometry": {"type": "Polygon", "coordinates": [[[-95.32386, 35.7424314], [-95.3233829, 35.7420179], [-95.3232961, 35.7420839], [-95.3237734, 35.7424973], [-95.32386, 35.7424314]]]}, "properties": {"osm_id": 1433431668, "building": "yes", "name": "", "height": null, "height_m": null, "levels": null, "tract_id": "40101000801", "tract_name": "8.01", "tags": {"building": "yes", "shop": "storage_rental"}}}, {"type": "Feature", "geometry": {"type": "Polygon", "coordinates": [[[-95.3238624, 35.7422074], [-95.3234599, 35.7418629], [-95.3233727, 35.7419301], [-95.3237753, 35.7422744], [-95.3238624, 35.7422074]]]}, "properties": {"osm_id": 1433431669, "building": "yes", "name": "", "height": null, "height_m": null, "levels": null, "tract_id": "40101000801", "tract_name": "8.01", "tags": {"building": "yes", "shop": "storage_rental"}}}, {"type": "Feature", "geometry": {"type": "Polygon", "coordinates": [[[-95.3236051, 35.7413317], [-95.3236023, 35.7412399], [-95.3232519, 35.7412343], [-95.3232533, 35.7413261], [-95.3236051, 35.7413317]]]}, "properties": {"osm_id": 1433431670, "building": "yes", "name": "", "height": null, "height_m": null, "levels": null, "tract_id": "40101000801", "tract_name": "8.01", "tags": {"building": "yes", "shop": "storage_rental"}}}, {"type": "Feature", "geometry": {"type": "Polygon", "coordinates": [[[-95.323108, 35.7413795], [-95.3231087, 35.7413179], [-95.3231884, 35.7413185], [-95.3231892, 35.7412429], [-95.3229883, 35.7412414], [-95.3229876, 35.7413097], [-95.3230153, 35.7413099], [-95.3230146, 35.7413788], [-95.323108, 35.7413795]]]}, "properties": {"osm_id": 1433431671, "building": "commercial", "name": "A-Avanti Self Storage", "height": null, "height_m": null, "levels": null, "tract_id": "40101000801", "tract_name": "8.01", "tags": {"addr:city": "Muskogee", "addr:housenumber": "121", "addr:postcode": "74403", "addr:state": "OK", "addr:street": "North Country Club Road", "building": "commercial", "name": "A-Avanti Self Storage"}}}, {"type": "Feature", "geometry": {"type": "Polygon", "coordinates": [[[-95.3233175, 35.7410277], [-95.3233137, 35.7408891], [-95.3230678, 35.740883], [-95.3230659, 35.7410262], [-95.3233175, 35.7410277]]]}, "properties": {"osm_id": 1433431675, "building": "commercial", "name": "", "height": null, "height_m": null, "levels": null, "tract_id": "40101000801", "tract_name": "8.01", "tags": {"building": "commercial"}}}]}