{"type": "FeatureCollection", "features": [{"type": "Feature", "geometry": {"type": "Polygon", "coordinates": [[[-97.0518909, 36.1259635], [-97.0518907, 36.1258603], [-97.0521991, 36.1258605], [-97.0521993, 36.1259636], [-97.0518909, 36.1259635]]]}, "properties": {"osm_id": 198275087, "building": "yes", "name": "", "height": null, "height_m": null, "levels": null, "tract_id": "40119010501", "tract_name": "105.01", "tags": {"addr:city": "Stillwater", "addr:housenumber": "310", "addr:postcode": "74075", "addr:state": "OK", "addr:street": "North Perkins Road", "building": "yes"}}}, {"type": "Feature", "geometry": {"type": "Polygon", "coordinates": [[[-97.0612078, 36.1301585], [-97.0614331, 36.1301609], [-97.0614404, 36.1297112], [-97.0612058, 36.1297087], [-97.0612047, 36.1297749], [-97.0612873, 36.1297758], [-97.0612822, 36.1300908], [-97.0612089, 36.13009], [-97.0612078, 36.1301585]]]}, "properties": {"osm_id": 209319090, "building": "apartments", "name": "", "height": null, "height_m": null, "levels": null, "tract_id": "40119010501", "tract_name": "105.01", "tags": {"building": "apartments", "wheelchair": "yes"}}}, {"type": "Feature", "geometry": {"type": "Polygon", "coordinates": [[[-97.0610258, 36.1304043], [-97.0606994, 36.1304021], [-97.0607005, 36.1302947], [-97.0610269, 36.1302969], [-97.0610258, 36.1304043]]]}, "properties": {"osm_id": 209319091, "building": "office", "name": "", "height": null, "height_m": null, "levels": null, "tract_id": "40119010501", "tract_name": "105.01", "tags": {"building": "office", "wheelchair": "yes"}}}, {"type": "Feature", "geometry": {"type": "Polygon", "coordinates": [[[-97.060905, 36.1301437], [-97.0606924, 36.1301457], [-97.060686, 36.1297046], [-97.0609079, 36.1297025], [-97.060909, 36.1297745], [-97.0608188, 36.1297753], [-97.0608234, 36.1300941], [-97.0609043, 36.1300933], [-97.060905, 36.1301437]]]}, "properties": {"osm_id": 209319092, "building": "apartments", "name": "", "height": null, "height_m": null, "levels": null, "tract_id": "40119010501", "tract_name": "105.01", "tags": {"building": "apartments", "wheelchair": "yes"}}}, {"type": "Feature", "geometry": {"type": "Polygon", "coordinates": [[[-97.0614422, 36.130281], [-97.0610866, 36.1302838], [-97.0610882, 36.130417], [-97.0614438, 36.1304142], [-97.0614422, 36.130281]]]}, "properties": {"osm_id": 209319093, "building": "office", "name": "", "height": null, "height_m": null, "levels": null, "tract_id": "40119010501", "tract_name": "105.01", "tags": {"building": "office", "wheelchair": "yes"}}}, {"type": "Feature", "geometry": {"type": "Polygon", "coordinates": [[[-97.0601238, 36.1302492], [-97.0597725, 36.1302496], [-97.0597716, 36.129772], [-97.060123, 36.1297716], [-97.0601238, 36.1302492]]]}, "properties": {"osm_id": 209320274, "building": "retail", "name": "", "height": null, "height_m": null, "levels": null, "tract_id": "40119010501", "tract_name": "105.01", "tags": {"building": "retail", "wheelchair": "yes"}}}, {"type": "Feature", "geometry": {"type": "Polygon", "coordinates": [[[-97.059374, 36.1303023], [-97.0592831, 36.1303026], [-97.0592819, 36.1300697], [-97.0593728, 36.1300694], [-97.059374, 36.1303023]]]}, "properties": {"osm_id": 209320275, "building": "roof", "name": "Phillips 66", "height": null, "height_m": null, "levels": null, "tract_id": "40119010501", "tract_name": "105.01", "tags": {"addr:city": "Stillwater", "addr:postcode": "74075", "addr:state": "OK", "addr:street": "North Main Street", "amenity": "fuel", "brand": "Phillips 66", "brand:wikidata": "Q1656230", "building": "roof", "fuel:e10": "yes", "fuel:octane_87": "yes", "fuel:octane_89": "yes", "fuel:octane_91": "yes", "name": "Phillips 66", "website": "https://www.phillips66gas.com/station/P66-COWBOY-CORNER-3-0000839549/", "wheelchair": "yes"}}}, {"type": "Feature", "geometry": {"type": "Polygon", "coordinates": [[[-97.0596989, 36.1302895], [-97.059522, 36.1302895], [-97.059522, 36.1301357], [-97.0596989, 36.1301357], [-97.0596989, 36.1302895]]]}, "properties": {"osm_id": 209320278, "building": "retail", "name": "OnCue", "height": null, "height_m": null, "levels": null, "tract_id": "40119010501", "tract_name": "105.01", "tags": {"addr:city": "Stillwater", "addr:postcode": "74075", "addr:state": "OK", "addr:street": "North Main Street", "building": "retail", "name": "OnCue", "shop": "convenience", "wheelchair": "yes"}}}, {"type": "Feature", "geometry": {"type": "Polygon", "coordinates": [[[-97.0618861, 36.1299272], [-97.0617931, 36.1299238], [-97.061798, 36.1298359], [-97.061891, 36.1298393], [-97.0618861, 36.1299272]]]}, "properties": {"osm_id": 209320757, "building": "house", "name": "", "height": null, "height_m": null, "levels": null, "tract_id": "40119010501", "tract_name": "105.01", "tags": {"building": "house"}}}, {"type": "Feature", "geometry": {"type": "Polygon", "coordinates": [[[-97.0619813, 36.1300859], [-97.061776, 36.1300873], [-97.061775, 36.1299951], [-97.0619147, 36.1299941], [-97.061915, 36.1300265], [-97.0619807, 36.130026], [-97.0619813, 36.1300859]]]}, "properties": {"osm_id": 209320758, "building": "house", "name": "", "height": null, "height_m": null, "levels": null, "tract_id": "40119010501", "tract_name": "105.01", "tags": {"building": "house"}}}, {"type": "Feature", "geometry": {"type": "Polygon", "coordinates": [[[-97.062541, 36.1297814], [-97.0625375, 36.129708], [-97.0623549, 36.1297137], [-97.0623584, 36.1297871], [-97.062541, 36.1297814]]]}, "properties": {"osm_id": 209320759, "building": "house", "name": "", "height": null, "height_m": null, "levels": null, "tract_id": "40119010501", "tract_name": "105.01", "tags": {"building": "house"}}}, {"type": "Feature", "geometry": {"type": "Polygon", "coordinates": [[[-97.062531, 36.1299211], [-97.0624199, 36.1299223], [-97.0624185, 36.1298411], [-97.0625296, 36.1298398], [-97.062531, 36.1299211]]]}, "properties": {"osm_id": 209320760, "building": "house", "name": "", "height": null, "height_m": null, "levels": null, "tract_id": "40119010501", "tract_name": "105.01", "tags": {"building": "house"}}}, {"type": "Feature", "geometry": {"type": "Polygon", "coordinates": [[[-97.0625474, 36.1302116], [-97.0624404, 36.1302135], [-97.0624384, 36.1301409], [-97.0625455, 36.1301391], [-97.0625474, 36.1302116]]]}, "properties": {"osm_id": 209320761, "building": "house", "name": "", "height": null, "height_m": null, "levels": null, "tract_id": "40119010501", "tract_name": "105.01", "tags": {"building": "house"}}}, {"type": "Feature", "geometry": {"type": "Polygon", "coordinates": [[[-97.061979, 36.1297], [-97.0617951, 36.1296992], [-97.0617945, 36.1297816], [-97.0619784, 36.1297824], [-97.061979, 36.1297]]]}, "properties": {"osm_id": 209320762, "building": "house", "name": "", "height": null, "height_m": null, "levels": null, "tract_id": "40119010501", "tract_name": "105.01", "tags": {"building": "house"}}}, {"type": "Feature", "geometry": {"type": "Polygon", "coordinates": [[[-97.0618234, 36.1302787], [-97.0617651, 36.1303636], [-97.0618638, 36.1304078], [-97.0618864, 36.130375], [-97.06195, 36.1304036], [-97.0619858, 36.1303515], [-97.0618234, 36.1302787]]]}, "properties": {"osm_id": 209320763, "building": "house", "name": "", "height": null, "height_m": null, "levels": null, "tract_id": "40119010501", "tract_name": "105.01", "tags": {"building": "house"}}}, {"type": "Feature", "geometry": {"type": "Polygon", "coordinates": [[[-97.062539, 36.1300818], [-97.062435, 36.1300813], [-97.0624357, 36.129987], [-97.0625397, 36.1299875], [-97.062539, 36.1300818]]]}, "properties": {"osm_id": 209320764, "building": "house", "name": "", "height": null, "height_m": null, "levels": null, "tract_id": "40119010501", "tract_name": "105.01", "tags": {"building": "house"}}}, {"type": "Feature", "geometry": {"type": "Polygon", "coordinates": [[[-97.0625524, 36.1303781], [-97.0624304, 36.1303797], [-97.0624284, 36.1302779], [-97.0625503, 36.1302763], [-97.0625524, 36.1303781]]]}, "properties": {"osm_id": 209320765, "building": "house", "name": "", "height": null, "height_m": null, "levels": null, "tract_id": "40119010501", "tract_name": "105.01", "tags": {"building": "house"}}}, {"type": "Feature", "geometry": {"type": "Polygon", "coordinates": [[[-97.061896, 36.1301218], [-97.0617916, 36.1301255], [-97.0617989, 36.1302589], [-97.0619032, 36.1302552], [-97.061896, 36.1301218]]]}, "properties": {"osm_id": 209320766, "building": "house", "name": "", "height": null, "height_m": null, "levels": null, "tract_id": "40119010501", "tract_name": "105.01", "tags": {"building": "house"}}}, {"type": "Feature", "geometry": {"type": "Polygon", "coordinates": [[[-97.0619728, 36.1294706], [-97.0617973, 36.1294612], [-97.0618032, 36.1293897], [-97.0619787, 36.1293991], [-97.0619728, 36.1294706]]]}, "properties": {"osm_id": 209322783, "building": "house", "name": "", "height": null, "height_m": null, "levels": null, "tract_id": "40119010501", "tract_name": "105.01", "tags": {"building": "house"}}}, {"type": "Feature", "geometry": {"type": "Polygon", "coordinates": [[[-97.0624652, 36.1264952], [-97.0622147, 36.1264959], [-97.0622143, 36.1264037], [-97.0622609, 36.1264036], [-97.0622604, 36.1263584], [-97.0624636, 36.1263568], [-97.0624652, 36.1264952]]]}, "properties": {"osm_id": 209322784, "building": "retail", "name": "OnCue", "height": null, "height_m": null, "levels": null, "tract_id": "40119010501", "tract_name": "105.01", "tags": {"addr:city": "Stillwater", "addr:housenumber": "1120", "addr:postcode": "74075", "addr:street": "North Duck Street", "building": "retail", "name": "OnCue", "shop": "convenience"}}}, {"type": "Feature", "geometry": {"type": "Polygon", "coordinates": [[[-97.0625358, 36.1291951], [-97.0624249, 36.1291968], [-97.0624229, 36.1291103], [-97.0625339, 36.1291087], [-97.0625358, 36.1291951]]]}, "properties": {"osm_id": 209322785, "building": "house", "name": "", "height": null, "height_m": null, "levels": null, "tract_id": "40119010501", "tract_name": "105.01", "tags": {"building": "house"}}}, {"type": "Feature", "geometry": {"type": "Polygon", "coordinates": [[[-97.0624909, 36.1285845], [-97.0624106, 36.1285845], [-97.0624105, 36.1284762], [-97.0624907, 36.1284762], [-97.0624909, 36.1285845]]]}, "properties": {"osm_id": 209322786, "building": "house", "name": "", "height": null, "height_m": null, "levels": null, "tract_id": "40119010501", "tract_name": "105.01", "tags": {"building": "house"}}}, {"type": "Feature", "geometry": {"type": "Polygon", "coordinates": [[[-97.0625259, 36.1282336], [-97.0624213, 36.1282314], [-97.0624239, 36.1281513], [-97.0625285, 36.1281535], [-97.0625259, 36.1282336]]]}, "properties": {"osm_id": 209322787, "building": "house", "name": "", "height": null, "height_m": null, "levels": null, "tract_id": "40119010501", "tract_name": "105.01", "tags": {"building": "house"}}}, {"type": "Feature", "geometry": {"type": "Polygon", "coordinates": [[[-97.0625331, 36.1288894], [-97.0624418, 36.1288907], [-97.0624395, 36.1287901], [-97.0625308, 36.1287887], [-97.0625331, 36.1288894]]]}, "properties": {"osm_id": 209322789, "building": "house", "name": "", "height": null, "height_m": null, "levels": null, "tract_id": "40119010501", "tract_name": "105.01", "tags": {"building": "house"}}}, {"type": "Feature", "geometry": {"type": "Polygon", "coordinates": [[[-97.062541, 36.1290313], [-97.0624483, 36.1290348], [-97.0624419, 36.1289242], [-97.0625345, 36.1289207], [-97.062541, 36.1290313]]]}, "properties": {"osm_id": 209322790, "building": "house", "name": "", "height": null, "height_m": null, "levels": null, "tract_id": "40119010501", "tract_name": "105.01", "tags": {"building": "house"}}}, {"type": "Feature", "geometry": {"type": "Polygon", "coordinates": [[[-97.0624608, 36.1270128], [-97.0623321, 36.127015], [-97.0623321, 36.1269478], [-97.0624152, 36.12695], [-97.0624152, 36.126924], [-97.062515, 36.1269215], [-97.0625118, 36.1269911], [-97.0624554, 36.1269933], [-97.0624608, 36.1270128]]]}, "properties": {"osm_id": 209322792, "building": "retail", "name": "OKState Tickets", "height": null, "height_m": null, "levels": null, "tract_id": "40119010501", "tract_name": "105.01", "tags": {"building": "retail", "name": "OKState Tickets", "shop": "ticket"}}}, {"type": "Feature", "geometry": {"type": "Polygon", "coordinates": [[[-97.0625321, 36.1293897], [-97.062363, 36.1293889], [-97.0623624, 36.129481], [-97.0625315, 36.1294818], [-97.0625321, 36.1293897]]]}, "properties": {"osm_id": 209322793, "building": "house", "name": "", "height": null, "height_m": null, "levels": null, "tract_id": "40119010501", "tract_name": "105.01", "tags": {"building": "house"}}}, {"type": "Feature", "geometry": {"type": "Polygon", "coordinates": [[[-97.0625421, 36.1284075], [-97.0624286, 36.1284118], [-97.062423, 36.1283152], [-97.0625365, 36.1283109], [-97.0625421, 36.1284075]]]}, "properties": {"osm_id": 209322794, "building": "house", "name": "", "height": null, "height_m": null, "levels": null, "tract_id": "40119010501", "tract_name": "105.01", "tags": {"building": "house"}}}, {"type": "Feature", "geometry": {"type": "Polygon", "coordinates": [[[-97.0624608, 36.126124], [-97.0624636, 36.1263568], [-97.0622604, 36.1263584], [-97.0622577, 36.1261256], [-97.0624608, 36.126124]]]}, "properties": {"osm_id": 209322795, "building": "yes", "name": "Conoco", "height": null, "height_m": null, "levels": null, "tract_id": "40119010501", "tract_name": "105.01", "tags": {"addr:city": "Stillwater", "addr:housenumber": "1120", "addr:postcode": "74075", "addr:street": "North Duck Street", "amenity": "fuel", "brand": "Conoco", "brand:wikidata": "Q1126518", "building": "yes", "name": "Conoco"}}}, {"type": "Feature", "geometry": {"type": "Polygon", "coordinates": [[[-97.0625335, 36.1255491], [-97.0623007, 36.1255502], [-97.0623001, 36.1254624], [-97.0625329, 36.1254613], [-97.0625335, 36.1255491]]]}, "properties": {"osm_id": 209460688, "building": "residential", "name": "", "height": null, "height_m": null, "levels": null, "tract_id": "40119010501", "tract_name": "105.01", "tags": {"building": "residential"}}}, {"type": "Feature", "geometry": {"type": "Polygon", "coordinates": [[[-97.0619339, 36.1266117], [-97.0619346, 36.1265036], [-97.0617565, 36.1265029], [-97.0617561, 36.1265699], [-97.061804, 36.12657], [-97.0618037, 36.1266112], [-97.0619339, 36.1266117]]]}, "properties": {"osm_id": 209460690, "building": "yes", "name": "Wave Lengths", "height": null, "height_m": null, "levels": null, "tract_id": "40119010501", "tract_name": "105.01", "tags": {"addr:city": "Stillwater", "addr:housenumber": "303", "addr:postcode": "74075", "addr:state": "OK", "addr:street": "West Hall of Fame Avenue", "building": "yes", "name": "Wave Lengths", "note": "Ask for Tammy", "shop": "hairdresser"}}}, {"type": "Feature", "geometry": {"type": "Polygon", "coordinates": [[[-97.0623297, 36.1256985], [-97.0621516, 36.1257001], [-97.0621507, 36.1256364], [-97.0623289, 36.1256349], [-97.0623297, 36.1256985]]]}, "properties": {"osm_id": 209460692, "building": "residential", "name": "", "height": null, "height_m": null, "levels": null, "tract_id": "40119010501", "tract_name": "105.01", "tags": {"building": "residential"}}}, {"type": "Feature", "geometry": {"type": "Polygon", "coordinates": [[[-97.0622786, 36.1254004], [-97.0621809, 36.1254008], [-97.0621819, 36.1255457], [-97.0622795, 36.1255452], [-97.0622786, 36.1254004]]]}, "properties": {"osm_id": 209460693, "building": "residential", "name": "", "height": null, "height_m": null, "levels": null, "tract_id": "40119010501", "tract_name": "105.01", "tags": {"building": "residential"}}}, {"type": "Feature", "geometry": {"type": "Polygon", "coordinates": [[[-97.0621124, 36.1255317], [-97.0620041, 36.1255319], [-97.0620039, 36.1254699], [-97.0621122, 36.1254697], [-97.0621124, 36.1255317]]]}, "properties": {"osm_id": 209460694, "building": "residential", "name": "", "height": null, "height_m": null, "levels": null, "tract_id": "40119010501", "tract_name": "105.01", "tags": {"building": "residential"}}}, {"type": "Feature", "geometry": {"type": "Polygon", "coordinates": [[[-97.0625352, 36.1254247], [-97.0623611, 36.1254256], [-97.0623604, 36.1253289], [-97.0625344, 36.125328], [-97.0625352, 36.1254247]]]}, "properties": {"osm_id": 209460695, "building": "residential", "name": "", "height": null, "height_m": null, "levels": null, "tract_id": "40119010501", "tract_name": "105.01", "tags": {"building": "residential"}}}, {"type": "Feature", "geometry": {"type": "Polygon", "coordinates": [[[-97.0620738, 36.1259078], [-97.0617602, 36.1259122], [-97.0617627, 36.1260293], [-97.0620763, 36.1260249], [-97.0620738, 36.1259078]]]}, "properties": {"osm_id": 209460696, "building": "residential", "name": "", "height": null, "height_m": null, "levels": null, "tract_id": "40119010501", "tract_name": "105.01", "tags": {"building": "residential"}}}, {"type": "Feature", "geometry": {"type": "Polygon", "coordinates": [[[-97.0620793, 36.1257366], [-97.0617565, 36.1257363], [-97.0617567, 36.1256323], [-97.0620795, 36.1256326], [-97.0620793, 36.1257366]]]}, "properties": {"osm_id": 209460697, "building": "residential", "name": "", "height": null, "height_m": null, "levels": null, "tract_id": "40119010501", "tract_name": "105.01", "tags": {"building": "residential"}}}, {"type": "Feature", "geometry": {"type": "Polygon", "coordinates": [[[-97.061908, 36.1255681], [-97.0617485, 36.1255707], [-97.0617464, 36.125485], [-97.0619059, 36.1254824], [-97.061908, 36.1255681]]]}, "properties": {"osm_id": 209460698, "building": "residential", "name": "", "height": null, "height_m": null, "levels": null, "tract_id": "40119010501", "tract_name": "105.01", "tags": {"building": "residential"}}}, {"type": "Feature", "geometry": {"type": "Polygon", "coordinates": [[[-97.0625476, 36.125601], [-97.062381, 36.1256036], [-97.0623816, 36.1256277], [-97.0623527, 36.1256282], [-97.0623538, 36.1256775], [-97.0625493, 36.1256746], [-97.0625476, 36.125601]]]}, "properties": {"osm_id": 209460699, "building": "residential", "name": "", "height": null, "height_m": null, "levels": null, "tract_id": "40119010501", "tract_name": "105.01", "tags": {"building": "residential"}}}, {"type": "Feature", "geometry": {"type": "Polygon", "coordinates": [[[-97.0620547, 36.1254418], [-97.06173, 36.1254437], [-97.061729, 36.1253193], [-97.0619026, 36.1253183], [-97.0619032, 36.1253809], [-97.0620542, 36.12538], [-97.0620547, 36.1254418]]]}, "properties": {"osm_id": 209460700, "building": "residential", "name": "", "height": null, "height_m": null, "levels": null, "tract_id": "40119010501", "tract_name": "105.01", "tags": {"building": "residential"}}}, {"type": "Feature", "geometry": {"type": "Polygon", "coordinates": [[[-97.0619208, 36.1261483], [-97.061728, 36.1261514], [-97.061726, 36.1260665], [-97.0619188, 36.1260634], [-97.0619208, 36.1261483]]]}, "properties": {"osm_id": 209460702, "building": "residential", "name": "", "height": null, "height_m": null, "levels": null, "tract_id": "40119010501", "tract_name": "105.01", "tags": {"building": "residential"}}}, {"type": "Feature", "geometry": {"type": "Polygon", "coordinates": [[[-97.0619562, 36.1262958], [-97.0617383, 36.1262947], [-97.0617388, 36.1262372], [-97.0617739, 36.1262374], [-97.0617742, 36.1261965], [-97.0619569, 36.1261974], [-97.0619562, 36.1262958]]]}, "properties": {"osm_id": 209460704, "building": "residential", "name": "", "height": null, "height_m": null, "levels": null, "tract_id": "40119010501", "tract_name": "105.01", "tags": {"building": "residential"}}}, {"type": "Feature", "geometry": {"type": "Polygon", "coordinates": [[[-97.0625402, 36.1257177], [-97.0624168, 36.1257189], [-97.0624179, 36.1257925], [-97.0625413, 36.1257913], [-97.0625402, 36.1257177]]]}, "properties": {"osm_id": 209460705, "building": "residential", "name": "", "height": null, "height_m": null, "levels": null, "tract_id": "40119010501", "tract_name": "105.01", "tags": {"building": "residential"}}}, {"type": "Feature", "geometry": {"type": "Polygon", "coordinates": [[[-97.0623246, 36.12582], [-97.0622269, 36.1258191], [-97.0622283, 36.1257208], [-97.062326, 36.1257217], [-97.0623246, 36.12582]]]}, "properties": {"osm_id": 209460707, "building": "residential", "name": "", "height": null, "height_m": null, "levels": null, "tract_id": "40119010501", "tract_name": "105.01", "tags": {"building": "residential"}}}, {"type": "Feature", "geometry": {"type": "Polygon", "coordinates": [[[-97.0619532, 36.1263563], [-97.0617711, 36.1263563], [-97.0617711, 36.1264473], [-97.0619532, 36.1264473], [-97.0619532, 36.1263563]]]}, "properties": {"osm_id": 209460708, "building": "residential", "name": "", "height": null, "height_m": null, "levels": null, "tract_id": "40119010501", "tract_name": "105.01", "tags": {"building": "residential"}}}, {"type": "Feature", "geometry": {"type": "Polygon", "coordinates": [[[-97.0583796, 36.1273319], [-97.0583078, 36.1273328], [-97.0583081, 36.1273455], [-97.0582479, 36.1273463], [-97.0582477, 36.1273344], [-97.0581978, 36.1273351], [-97.0581935, 36.1271267], [-97.0582425, 36.127126], [-97.0582423, 36.1271166], [-97.0583108, 36.1271157], [-97.058311, 36.1271263], [-97.0583754, 36.1271254], [-97.0583796, 36.1273319]]]}, "properties": {"osm_id": 209490461, "building": "yes", "name": "", "height": 9.0, "height_m": 9.0, "levels": 1, "tract_id": "40119010501", "tract_name": "105.01", "tags": {"addr:city": "Stillwater", "addr:housenumber": "102", "addr:postcode": "74075", "addr:street": "East Hall of Fame Avenue", "amenity": "restaurant", "building": "yes", "building:levels": "1", "cuisine": "asian", "height": "9", "opening_hours": "24/7 closed", "wheelchair": "yes"}}}, {"type": "Feature", "geometry": {"type": "Polygon", "coordinates": [[[-97.0572339, 36.1280023], [-97.0566408, 36.1280018], [-97.0566411, 36.1277115], [-97.0565389, 36.1277114], [-97.0565391, 36.1275532], [-97.0566172, 36.1275533], [-97.0566176, 36.127283], [-97.0572355, 36.1272835], [-97.0572351, 36.1276295], [-97.0573064, 36.1276296], [-97.057306, 36.127895], [-97.0572341, 36.127895], [-97.0572339, 36.1280023]]]}, "properties": {"osm_id": 209490469, "building": "yes", "name": "Homeland", "height": null, "height_m": null, "levels": null, "tract_id": "40119010501", "tract_name": "105.01", "tags": {"addr:city": "Stillwater", "addr:housenumber": "421", "addr:postcode": "74075", "addr:state": "OK", "addr:street": "North Main Street", "air_conditioning": "yes", "building": "yes", "description": "A bit of a pricier retailer, but the company's local, with its HQ in OKC. H.A.C., Inc. is also employee-owned.", "name": "Homeland", "opening_hours": "Mo-Su 06:00-00:00", "operator": "Homeland Acquisition Corporation", "shop": "supermarket", "wheelchair": "yes"}}}, {"type": "Feature", "geometry": {"type": "Polygon", "coordinates": [[[-97.0569667, 36.1266616], [-97.0567871, 36.1266622], [-97.0567851, 36.1262311], [-97.0569647, 36.1262305], [-97.0569667, 36.1266616]]]}, "properties": {"osm_id": 209490470, "building": "retail", "name": "McAlister's Deli", "height": null, "height_m": null, "levels": null, "tract_id": "40119010501", "tract_name": "105.01", "tags": {"addr:city": "Stillwater", "addr:housenumber": "205", "addr:postcode": "74075", "addr:street": "East Hall of Fame Avenue", "amenity": "restaurant", "brand": "McAlister's Deli", "brand:wikidata": "Q17020829", "building": "retail", "cuisine": "sandwich", "name": "McAlister's Deli", "phone": "405-743-3700", "takeaway": "yes"}}}, {"type": "Feature", "geometry": {"type": "Polygon", "coordinates": [[[-97.0583214, 36.1177275], [-97.0583147, 36.1175721], [-97.0581989, 36.1175753], [-97.0582057, 36.1177308], [-97.0583214, 36.1177275]]]}, "properties": {"osm_id": 232796781, "building": "yes", "name": "International Tours", "height": null, "height_m": null, "levels": null, "tract_id": "40119010501", "tract_name": "105.01", "tags": {"addr:city": "Stillwater", "addr:housename": "International Tours", "addr:housenumber": "401", "addr:postcode": "74074", "addr:state": "OK", "addr:street": "South Main Street", "building": "yes", "name": "International Tours"}}}, {"type": "Feature", "geometry": {"type": "Polygon", "coordinates": [[[-97.0584084, 36.1175584], [-97.0584064, 36.1174546], [-97.0582186, 36.1174498], [-97.0582127, 36.1175073], [-97.0582245, 36.11756], [-97.0584084, 36.1175584]]]}, "properties": {"osm_id": 232796782, "building": "yes", "name": "Shelter Insurance", "height": null, "height_m": null, "levels": null, "tract_id": "40119010501", "tract_name": "105.01", "tags": {"addr:city": "Stillwater", "addr:housename": "Shelter Insurance", "addr:housenumber": "405", "addr:postcode": "74074", "addr:state": "OK", "addr:street": "South Main Street", "building": "yes", "name": "Shelter Insurance"}}}, {"type": "Feature", "geometry": {"type": "Polygon", "coordinates": [[[-97.0583768, 36.1174386], [-97.0583689, 36.1173875], [-97.0583966, 36.1173875], [-97.0583966, 36.1173348], [-97.0583689, 36.1173284], [-97.0583728, 36.1172437], [-97.0581059, 36.1172437], [-97.0581079, 36.1174386], [-97.0583768, 36.1174386]]]}, "properties": {"osm_id": 232796783, "building": "yes", "name": "Chamber Of Commerce", "height": null, "height_m": null, "levels": null, "tract_id": "40119010501", "tract_name": "105.01", "tags": {"addr:city": "Stillwater", "addr:housename": "Chamber Of Commerce", "addr:housenumber": "409", "addr:postcode": "74074", "addr:state": "OK", "addr:street": "South Main Street", "building": "yes", "name": "Chamber Of Commerce"}}}, {"type": "Feature", "geometry": {"type": "Polygon", "coordinates": [[[-97.0584722, 36.1165462], [-97.0584702, 36.1164064], [-97.0581292, 36.1164096], [-97.0581312, 36.1165494], [-97.058361, 36.1165473], [-97.0584722, 36.1165462]]]}, "properties": {"osm_id": 232796785, "building": "yes", "name": "Butter Bean Children's Boutique", "height": null, "height_m": null, "levels": null, "tract_id": "40119010501", "tract_name": "105.01", "tags": {"addr:city": "Stillwater", "addr:country": "US", "addr:housenumber": "505", "addr:postcode": "74074", "addr:state": "OK", "addr:street": "South Main Street", "building": "yes", "clothes": "children", "name": "Butter Bean Children's Boutique", "phone": "+1 405 362 6001", "shop": "clothes"}}}, {"type": "Feature", "geometry": {"type": "Polygon", "coordinates": [[[-97.0584722, 36.1165462], [-97.0584756, 36.116616], [-97.0583629, 36.116616], [-97.058361, 36.1165473], [-97.0584722, 36.1165462]]]}, "properties": {"osm_id": 232796786, "building": "yes", "name": "", "height": null, "height_m": null, "levels": null, "tract_id": "40119010501", "tract_name": "105.01", "tags": {"addr:city": "Stillwater", "addr:housenumber": "501", "addr:postcode": "74074", "addr:state": "OK", "addr:street": "South Main Street", "building": "yes"}}}, {"type": "Feature", "geometry": {"type": "Polygon", "coordinates": [[[-97.0584702, 36.1164064], [-97.0584697, 36.1162631], [-97.0581296, 36.1162726], [-97.0581292, 36.1164096], [-97.0584702, 36.1164064]]]}, "properties": {"osm_id": 232798136, "building": "yes", "name": "Mattress King", "height": null, "height_m": null, "levels": null, "tract_id": "40119010501", "tract_name": "105.01", "tags": {"addr:city": "Stillwater", "addr:housename": "Mattress King", "addr:housenumber": "511", "addr:postcode": "74074", "addr:state": "OK", "addr:street": "South Main Street", "building": "yes", "name": "Mattress King", "shop": "furniture"}}}, {"type": "Feature", "geometry": {"type": "Polygon", "coordinates": [[[-97.057845, 36.1159915], [-97.0578704, 36.116012], [-97.0578958, 36.1160326], [-97.0578958, 36.116247], [-97.0578806, 36.1162476], [-97.057882, 36.1163796], [-97.0574819, 36.1163839], [-97.057482, 36.1163578], [-97.0574613, 36.1163576], [-97.057422, 36.1163572], [-97.0574226, 36.1162811], [-97.0574613, 36.1162809], [-97.0574826, 36.1162805], [-97.05748, 36.1160096], [-97.0575755, 36.1160106], [-97.0575768, 36.1159926], [-97.057845, 36.1159915]]]}, "properties": {"osm_id": 232798137, "building": "yes", "name": "Walgreens", "height": null, "height_m": null, "levels": null, "tract_id": "40119010501", "tract_name": "105.01", "tags": {"addr:city": "Stillwater", "addr:housename": "Walgreens", "addr:housenumber": "519", "addr:postcode": "74074", "addr:state": "OK", "addr:street": "South Main Street", "brand": "Walgreens", "brand:wikidata": "Q1591889", "building": "yes", "name": "Walgreens", "shop": "chemist", "website": "https://www.walgreens.com/locator/walgreens-519+s+main+st-stillwater-ok-74074/id=5530"}}}, {"type": "Feature", "geometry": {"type": "Polygon", "coordinates": [[[-97.0568248, 36.1159245], [-97.0568245, 36.1158903], [-97.0567731, 36.1158905], [-97.0567734, 36.1159247], [-97.0568248, 36.1159245]]]}, "properties": {"osm_id": 232893515, "building": "yes", "name": "TFCU ATM", "height": null, "height_m": null, "levels": null, "tract_id": "40119010501", "tract_name": "105.01", "tags": {"addr:city": "Stillwater", "addr:postcode": "74074", "addr:state": "OK", "amenity": "bank", "building": "yes", "name": "TFCU ATM", "wheelchair": "yes"}}}, {"type": "Feature", "geometry": {"type": "Polygon", "coordinates": [[[-97.0570702, 36.1160717], [-97.0570708, 36.1160293], [-97.0570198, 36.1160288], [-97.0570208, 36.1159546], [-97.0568522, 36.115953], [-97.056851, 36.1160373], [-97.0569193, 36.1160379], [-97.0569188, 36.1160703], [-97.0570702, 36.1160717]]]}, "properties": {"osm_id": 232893602, "building": "house", "name": "", "height": null, "height_m": null, "levels": null, "tract_id": "40119010501", "tract_name": "105.01", "tags": {"addr:city": "Stillwater", "addr:housenumber": "519", "addr:postcode": "74074", "addr:state": "OK", "addr:street": "South Lewis Street", "building": "house"}}}, {"type": "Feature", "geometry": {"type": "Polygon", "coordinates": [[[-97.0569954, 36.1163237], [-97.0569957, 36.1162466], [-97.0568178, 36.1162461], [-97.0568174, 36.1163231], [-97.0569954, 36.1163237]]]}, "properties": {"osm_id": 232893603, "building": "house", "name": "", "height": null, "height_m": null, "levels": null, "tract_id": "40119010501", "tract_name": "105.01", "tags": {"addr:city": "Stillwater", "addr:housenumber": "511", "addr:postcode": "74074", "addr:state": "OK", "addr:street": "South Lewis Street", "building": "house"}}}, {"type": "Feature", "geometry": {"type": "Polygon", "coordinates": [[[-97.0570449, 36.1166089], [-97.057043, 36.1165044], [-97.0568562, 36.1165065], [-97.0568581, 36.1166111], [-97.0570449, 36.1166089]]]}, "properties": {"osm_id": 232893604, "building": "yes", "name": "Board Of Realtors", "height": null, "height_m": null, "levels": null, "tract_id": "40119010501", "tract_name": "105.01", "tags": {"addr:city": "Stillwater", "addr:housename": "Board Of Realtors", "addr:housenumber": "501", "addr:postcode": "74074", "addr:state": "OK", "addr:street": "South Lewis Street", "building": "yes", "name": "Board Of Realtors"}}}, {"type": "Feature", "geometry": {"type": "Polygon", "coordinates": [[[-97.0570857, 36.1169851], [-97.0570838, 36.1169132], [-97.0570264, 36.1169116], [-97.0568979, 36.1169276], [-97.056888, 36.1169691], [-97.0569019, 36.1170218], [-97.0570462, 36.1170122], [-97.0570442, 36.1169819], [-97.0570857, 36.1169851]]]}, "properties": {"osm_id": 232893749, "building": "house", "name": "", "height": null, "height_m": null, "levels": null, "tract_id": "40119010501", "tract_name": "105.01", "tags": {"addr:city": "Stillwater", "addr:housenumber": "423", "addr:postcode": "74074", "addr:state": "OK", "addr:street": "South Lewis Street", "building": "house"}}}, {"type": "Feature", "geometry": {"type": "Polygon", "coordinates": [[[-97.0570738, 36.117093], [-97.0570701, 36.1171752], [-97.0569489, 36.1171717], [-97.0569526, 36.1170895], [-97.0570738, 36.117093]]]}, "properties": {"osm_id": 232893750, "building": "house", "name": "", "height": null, "height_m": null, "levels": null, "tract_id": "40119010501", "tract_name": "105.01", "tags": {"addr:city": "Stillwater", "addr:housenumber": "419", "addr:postcode": "74074", "addr:state": "OK", "addr:street": "South Lewis Street", "building": "house"}}}, {"type": "Feature", "geometry": {"type": "Polygon", "coordinates": [[[-97.0570763, 36.1173043], [-97.0570793, 36.1172208], [-97.0570593, 36.1172204], [-97.0570606, 36.1171856], [-97.0569834, 36.1171838], [-97.0569824, 36.1172116], [-97.0568713, 36.117209], [-97.0568695, 36.1172584], [-97.056868, 36.1172994], [-97.0570048, 36.1173026], [-97.0570521, 36.1173037], [-97.0570763, 36.1173043]]]}, "properties": {"osm_id": 232893751, "building": "house", "name": "", "height": null, "height_m": null, "levels": null, "tract_id": "40119010501", "tract_name": "105.01", "tags": {"addr:city": "Stillwater", "addr:housenumber": "417", "addr:postcode": "74074", "addr:state": "OK", "addr:street": "South Lewis Street", "building": "house"}}}, {"type": "Feature", "geometry": {"type": "Polygon", "coordinates": [[[-97.057073, 36.117424], [-97.0570774, 36.1173595], [-97.0569049, 36.1173517], [-97.0569029, 36.1173804], [-97.05687, 36.1173789], [-97.0568665, 36.1174294], [-97.0570487, 36.1174376], [-97.0570497, 36.117423], [-97.057073, 36.117424]]]}, "properties": {"osm_id": 232893752, "building": "house", "name": "", "height": null, "height_m": null, "levels": null, "tract_id": "40119010501", "tract_name": "105.01", "tags": {"addr:city": "Stillwater", "addr:housenumber": "409", "addr:postcode": "74074", "addr:state": "OK", "addr:street": "South Lewis Street", "building": "house"}}}, {"type": "Feature", "geometry": {"type": "Polygon", "coordinates": [[[-97.0570739, 36.1175616], [-97.0570798, 36.1175041], [-97.0570561, 36.1174977], [-97.0569538, 36.1174948], [-97.0569508, 36.1175651], [-97.0570541, 36.117568], [-97.0570739, 36.1175616]]]}, "properties": {"osm_id": 232893753, "building": "house", "name": "", "height": null, "height_m": null, "levels": null, "tract_id": "40119010501", "tract_name": "105.01", "tags": {"addr:city": "Stillwater", "addr:housenumber": "405", "addr:postcode": "74074", "addr:state": "OK", "addr:street": "South Lewis Street", "building": "house"}}}, {"type": "Feature", "geometry": {"type": "Polygon", "coordinates": [[[-97.056912, 36.1176879], [-97.0569096, 36.1175969], [-97.0567316, 36.1175999], [-97.056734, 36.1176909], [-97.056912, 36.1176879]]]}, "properties": {"osm_id": 232893754, "building": "house", "name": "", "height": null, "height_m": null, "levels": null, "tract_id": "40119010501", "tract_name": "105.01", "tags": {"addr:city": "Stillwater", "addr:housenumber": "401", "addr:postcode": "74074", "addr:state": "OK", "addr:street": "South Lewis Street", "building": "house"}}}, {"type": "Feature", "geometry": {"type": "Polygon", "coordinates": [[[-97.0565578, 36.1177197], [-97.0565559, 36.1176303], [-97.0565282, 36.1176079], [-97.0564669, 36.1176048], [-97.0564689, 36.1177229], [-97.0565578, 36.1177197]]]}, "properties": {"osm_id": 232894052, "building": "house", "name": "", "height": null, "height_m": null, "levels": null, "tract_id": "40119010501", "tract_name": "105.01", "tags": {"addr:city": "Stillwater", "addr:housenumber": "215", "addr:postcode": "74074", "addr:state": "OK", "addr:street": "East 4th Avenue", "building": "house"}}}, {"type": "Feature", "geometry": {"type": "Polygon", "coordinates": [[[-97.0563089, 36.117504], [-97.0562277, 36.1175042], [-97.0562276, 36.1174761], [-97.0561845, 36.1174762], [-97.0561841, 36.1173845], [-97.056279, 36.1173842], [-97.0562792, 36.1174323], [-97.0563086, 36.1174322], [-97.0563089, 36.117504]]]}, "properties": {"osm_id": 232894053, "building": "house", "name": "", "height": null, "height_m": null, "levels": null, "tract_id": "40119010501", "tract_name": "105.01", "tags": {"addr:city": "Stillwater", "addr:housenumber": "410", "addr:postcode": "74074", "addr:state": "OK", "addr:street": "South Lowry Street", "building": "house"}}}, {"type": "Feature", "geometry": {"type": "Polygon", "coordinates": [[[-97.0562886, 36.1173183], [-97.0562873, 36.1172391], [-97.056163, 36.1172405], [-97.0561644, 36.1173196], [-97.0562886, 36.1173183]]]}, "properties": {"osm_id": 232894054, "building": "house", "name": "", "height": null, "height_m": null, "levels": null, "tract_id": "40119010501", "tract_name": "105.01", "tags": {"addr:city": "Stillwater", "addr:housenumber": "412", "addr:postcode": "74074", "addr:state": "OK", "addr:street": "South Lowry Street", "building": "house"}}}, {"type": "Feature", "geometry": {"type": "Polygon", "coordinates": [[[-97.0562637, 36.117223], [-97.0562627, 36.1171817], [-97.0562847, 36.1171813], [-97.0562833, 36.1171214], [-97.0561622, 36.1171234], [-97.0561647, 36.1172246], [-97.0562637, 36.117223]]]}, "properties": {"osm_id": 232894055, "building": "house", "name": "", "height": null, "height_m": null, "levels": null, "tract_id": "40119010501", "tract_name": "105.01", "tags": {"addr:city": "Stillwater", "addr:housenumber": "418", "addr:postcode": "74074", "addr:state": "OK", "addr:street": "South Lowry Street", "building": "house"}}}, {"type": "Feature", "geometry": {"type": "Polygon", "coordinates": [[[-97.0564433, 36.1163543], [-97.0564411, 36.1162121], [-97.0560744, 36.1162159], [-97.0560766, 36.1163581], [-97.0564433, 36.1163543]]]}, "properties": {"osm_id": 232894058, "building": "yes", "name": "", "height": null, "height_m": null, "levels": null, "tract_id": "40119010501", "tract_name": "105.01", "tags": {"addr:city": "Stillwater", "addr:housenumber": "520", "addr:postcode": "74074", "addr:state": "OK", "addr:street": "South Lowry Street", "building": "yes"}}}, {"type": "Feature", "geometry": {"type": "Polygon", "coordinates": [[[-97.0562791, 36.1160783], [-97.0562789, 36.1159952], [-97.0565369, 36.1159946], [-97.0565371, 36.1160777], [-97.0562791, 36.1160783]]]}, "properties": {"osm_id": 232894244, "building": "yes", "name": "", "height": null, "height_m": null, "levels": null, "tract_id": "40119010501", "tract_name": "105.01", "tags": {"addr:city": "Stillwater", "addr:housenumber": "224", "addr:postcode": "74074", "addr:state": "OK", "addr:street": "East 6th Avenue", "building": "yes"}}}, {"type": "Feature", "geometry": {"type": "Polygon", "coordinates": [[[-97.0577044, 36.1170209], [-97.0577042, 36.1169577], [-97.0577041, 36.1168945], [-97.0575424, 36.1168947], [-97.0575425, 36.1169192], [-97.0575195, 36.1169192], [-97.0575197, 36.1170211], [-97.0577044, 36.1170209]]]}, "properties": {"osm_id": 232894842, "building": "yes", "name": "Edward Jones", "height": null, "height_m": null, "levels": null, "tract_id": "40119010501", "tract_name": "105.01", "tags": {"addr:city": "Stillwater", "addr:housename": "Edward Jones", "addr:housenumber": "424", "addr:postcode": "74074", "addr:state": "OK", "addr:street": "South Lewis Street", "alt_name": "Edward Jones Investments", "amenity": "bank", "brand": "Edward Jones", "brand:wikidata": "Q5343830", "building": "yes", "name": "Edward Jones", "office": "financial_advisor"}}}, {"type": "Feature", "geometry": {"type": "Polygon", "coordinates": [[[-97.0576365, 36.1172974], [-97.0576353, 36.1171752], [-97.0575354, 36.1171759], [-97.0575366, 36.117298], [-97.0576365, 36.1172974]]]}, "properties": {"osm_id": 232894843, "building": "yes", "name": "", "height": null, "height_m": null, "levels": null, "tract_id": "40119010501", "tract_name": "105.01", "tags": {"addr:city": "Stillwater", "addr:housenumber": "416", "addr:postcode": "74074", "addr:state": "OK", "addr:street": "South Lewis Street", "building": "yes"}}}, {"type": "Feature", "geometry": {"type": "Polygon", "coordinates": [[[-97.0577346, 36.1174451], [-97.0577346, 36.1173332], [-97.0575182, 36.1173332], [-97.0575182, 36.1174451], [-97.0577346, 36.1174451]]]}, "properties": {"osm_id": 232894844, "building": "yes", "name": "", "height": null, "height_m": null, "levels": null, "tract_id": "40119010501", "tract_name": "105.01", "tags": {"addr:city": "Stillwater", "addr:housenumber": "410", "addr:postcode": "74074", "addr:state": "OK", "addr:street": "South Lewis Street", "building": "yes"}}}, {"type": "Feature", "geometry": {"type": "Polygon", "coordinates": [[[-97.0578076, 36.1175925], [-97.0578052, 36.1176948], [-97.0577196, 36.1176935], [-97.0577192, 36.1177107], [-97.0576629, 36.1177098], [-97.0576633, 36.1176935], [-97.0575432, 36.1176917], [-97.0575457, 36.1175884], [-97.0578076, 36.1175925]]]}, "properties": {"osm_id": 232894845, "building": "yes", "name": "Parent Assistance", "height": null, "height_m": null, "levels": null, "tract_id": "40119010501", "tract_name": "105.01", "tags": {"addr:city": "Stillwater", "addr:housename": "Parent Assistance", "addr:housenumber": "402", "addr:postcode": "74074", "addr:state": "OK", "addr:street": "South Lewis Street", "building": "yes", "name": "Parent Assistance"}}}, {"type": "Feature", "geometry": {"type": "Polygon", "coordinates": [[[-97.0519139, 36.1223821], [-97.0519107, 36.1222208], [-97.0517851, 36.1222224], [-97.0517883, 36.1223837], [-97.0519139, 36.1223821]]]}, "properties": {"osm_id": 236346517, "building": "commercial", "name": "Express Lube", "height": null, "height_m": null, "levels": null, "tract_id": "40119010501", "tract_name": "105.01", "tags": {"addr:city": "Stillwater", "addr:housenumber": "116", "addr:postcode": "74074", "addr:state": "OK", "addr:street": "South Perkins Road", "building": "commercial", "name": "Express Lube"}}}, {"type": "Feature", "geometry": {"type": "Polygon", "coordinates": [[[-97.0518353, 36.1225271], [-97.0520726, 36.1225291], [-97.0520692, 36.1227958], [-97.0518319, 36.1227938], [-97.0518353, 36.1225271]]]}, "properties": {"osm_id": 236346518, "building": "yes", "name": "Firestone", "height": null, "height_m": null, "levels": null, "tract_id": "40119010501", "tract_name": "105.01", "tags": {"brand": "Firestone", "brand:wikidata": "Q420837", "building": "yes", "name": "Firestone", "official_name": "Firestone Complete Auto Care", "shop": "car_repair"}}}, {"type": "Feature", "geometry": {"type": "Polygon", "coordinates": [[[-97.0520745, 36.1229954], [-97.0520731, 36.1228102], [-97.0518368, 36.1228114], [-97.0518383, 36.1229966], [-97.0520745, 36.1229954]]]}, "properties": {"osm_id": 236346519, "building": "yes", "name": "", "height": null, "height_m": null, "levels": null, "tract_id": "40119010501", "tract_name": "105.01", "tags": {"building": "yes"}}}, {"type": "Feature", "geometry": {"type": "Polygon", "coordinates": [[[-97.0518583, 36.1243855], [-97.0520817, 36.1243839], [-97.052234, 36.1246106], [-97.0518524, 36.124617], [-97.0518583, 36.1243855]]]}, "properties": {"osm_id": 236346521, "building": "yes", "name": "", "height": null, "height_m": null, "levels": null, "tract_id": "40119010501", "tract_name": "105.01", "tags": {"building": "yes"}}}, {"type": "Feature", "geometry": {"type": "Polygon", "coordinates": [[[-97.0519433, 36.124863], [-97.0519394, 36.1246474], [-97.0522874, 36.1246426], [-97.0522973, 36.1248598], [-97.0519433, 36.124863]]]}, "properties": {"osm_id": 236346522, "building": "yes", "name": "O'Reilly Auto Parts", "height": null, "height_m": null, "levels": null, "tract_id": "40119010501", "tract_name": "105.01", "tags": {"addr:city": "Stillwater", "addr:postcode": "74075", "addr:street": "North Perkins Road", "brand": "O'Reilly Auto Parts", "brand:wikidata": "Q7071951", "building": "yes", "name": "O'Reilly Auto Parts", "shop": "car_parts", "website": "https://locations.oreillyauto.com/ok/stillwater/autoparts-164.html"}}}, {"type": "Feature", "geometry": {"type": "Polygon", "coordinates": [[[-97.0520861, 36.1252996], [-97.0520577, 36.1252158], [-97.0520807, 36.1251226], [-97.0522955, 36.1251243], [-97.0522963, 36.1252977], [-97.0520861, 36.1252996]]]}, "properties": {"osm_id": 236346523, "building": "commercial", "name": "IQ Car Wash", "height": null, "height_m": null, "levels": null, "tract_id": "40119010501", "tract_name": "105.01", "tags": {"addr:city": "Stillwater", "addr:housenumber": "206", "addr:postcode": "74075", "addr:state": "OK", "addr:street": "North Perkins Road", "amenity": "car_wash", "automated": "yes", "building": "commercial", "name": "IQ Car Wash", "opening_hours": "24/7", "operator": "Car Wash Innovations LLC", "payment:cash": "yes", "payment:credit_cards": "yes", "payment:debit_cards": "yes", "phone": "14053341566", "self_service": "no", "website": "https://www.iqcarwash.com"}}}, {"type": "Feature", "geometry": {"type": "Polygon", "coordinates": [[[-97.0522083, 36.1265638], [-97.0522018, 36.1263994], [-97.051922, 36.126401], [-97.0519216, 36.1265302], [-97.0519651, 36.1265654], [-97.0522083, 36.1265638]]]}, "properties": {"osm_id": 236346528, "building": "yes", "name": "Verizon", "height": null, "height_m": null, "levels": null, "tract_id": "40119010501", "tract_name": "105.01", "tags": {"addr:city": "Stillwater", "addr:postcode": "74075", "addr:street": "North Perkins Road", "alt_name": "Verizon Wireless", "brand": "Verizon", "brand:wikidata": "Q919641", "building": "yes", "name": "Verizon", "shop": "mobile_phone"}}}, {"type": "Feature", "geometry": {"type": "Polygon", "coordinates": [[[-97.0522985, 36.1274257], [-97.0522973, 36.1272592], [-97.0521388, 36.12726], [-97.0521386, 36.1272344], [-97.0520885, 36.1272346], [-97.0520899, 36.1274267], [-97.0522985, 36.1274257]]]}, "properties": {"osm_id": 236346554, "building": "yes", "name": "Ruth's", "height": null, "height_m": null, "levels": null, "tract_id": "40119010501", "tract_name": "105.01", "tags": {"addr:city": "Stillwater", "addr:postcode": "74075", "addr:street": "East Hall of Fame Avenue", "building": "yes", "name": "Ruth's", "shop": "books", "wheelchair": "yes"}}}, {"type": "Feature", "geometry": {"type": "Polygon", "coordinates": [[[-97.0520899, 36.1274267], [-97.0520448, 36.1274259], [-97.0518882, 36.127423], [-97.051891, 36.1272619], [-97.0520504, 36.1272637], [-97.0520509, 36.127233], [-97.0520885, 36.1272346], [-97.0520899, 36.1274267]]]}, "properties": {"osm_id": 236346555, "building": "yes", "name": "AT&T", "height": null, "height_m": null, "levels": null, "tract_id": "40119010501", "tract_name": "105.01", "tags": {"addr:city": "Stillwater", "addr:postcode": "74075", "addr:street": "East Hall of Fame Avenue", "brand": "AT&T", "brand:wikidata": "Q298594", "building": "yes", "name": "AT&T", "shop": "mobile_phone", "wheelchair": "yes"}}}, {"type": "Feature", "geometry": {"type": "Polygon", "coordinates": [[[-97.0521846, 36.1276193], [-97.0521859, 36.1275011], [-97.0519185, 36.1274991], [-97.0519181, 36.1275377], [-97.0518858, 36.1275375], [-97.0518854, 36.1275687], [-97.0519126, 36.1275689], [-97.051912, 36.1276173], [-97.0521846, 36.1276193]]]}, "properties": {"osm_id": 236346556, "building": "yes", "name": "", "height": null, "height_m": null, "levels": null, "tract_id": "40119010501", "tract_name": "105.01", "tags": {"building": "yes", "shop": "jewelry", "wheelchair": "yes"}}}, {"type": "Feature", "geometry": {"type": "Polygon", "coordinates": [[[-97.0520086, 36.12814], [-97.0520125, 36.1280601], [-97.0519928, 36.1280553], [-97.0519849, 36.1280378], [-97.0519888, 36.1280138], [-97.0520066, 36.1280138], [-97.0520066, 36.1279403], [-97.05223, 36.1279372], [-97.0522379, 36.1281384], [-97.0520086, 36.12814]]]}, "properties": {"osm_id": 236346557, "building": "commercial", "name": "Braum's", "height": null, "height_m": null, "levels": null, "tract_id": "40119010501", "tract_name": "105.01", "tags": {"addr:city": "Stillwater", "addr:housenumber": "504", "addr:postcode": "74075", "addr:street": "North Perkins Road", "amenity": "fast_food", "brand": "Braum's", "brand:wikidata": "Q4958263", "building": "commercial", "cuisine": "ice_cream;burger", "name": "Braum's", "phone": "+1-405-372-2076", "shop": "dairy", "takeaway": "yes", "wheelchair": "yes"}}}, {"type": "Feature", "geometry": {"type": "Polygon", "coordinates": [[[-97.0518542, 36.1285542], [-97.0518573, 36.1287281], [-97.0517298, 36.1287296], [-97.0517267, 36.1285557], [-97.0518542, 36.1285542]]]}, "properties": {"osm_id": 236346559, "building": "yes", "name": "Cowboy Camp", "height": null, "height_m": null, "levels": null, "tract_id": "40119010501", "tract_name": "105.01", "tags": {"building": "yes", "name": "Cowboy Camp", "wheelchair": "yes"}}}, {"type": "Feature", "geometry": {"type": "Polygon", "coordinates": [[[-97.0523165, 36.1294102], [-97.0523155, 36.1292146], [-97.0522729, 36.1292148], [-97.0522722, 36.1290966], [-97.0527726, 36.1290957], [-97.0527732, 36.1294869], [-97.0527008, 36.1294871], [-97.0527004, 36.1294089], [-97.0523165, 36.1294102]]]}, "properties": {"osm_id": 236346604, "building": "yes", "name": "Harbor Freight Tools", "height": null, "height_m": null, "levels": null, "tract_id": "40119010501", "tract_name": "105.01", "tags": {"addr:city": "Stillwater", "addr:housenumber": "616", "addr:postcode": "74075", "addr:state": "OK", "addr:street": "North Perkins Road", "brand": "Harbor Freight Tools", "brand:wikidata": "Q5654601", "building": "yes", "name": "Harbor Freight Tools", "opening_hours": "Mo-Sa 08:00-20:00; Su 09:00-18:00", "phone": "+1 405-780-9090", "shop": "hardware", "website": "https://www.harborfreight.com/storelocator/616-n-perkins-rd-stillwater-74075?number=3547", "wheelchair": "yes"}}}, {"type": "Feature", "geometry": {"type": "Polygon", "coordinates": [[[-97.052036, 36.1302467], [-97.0522821, 36.130243], [-97.0522781, 36.1300697], [-97.0520361, 36.1300734], [-97.052036, 36.1302467]]]}, "properties": {"osm_id": 237051366, "building": "yes", "name": "OnCue", "height": null, "height_m": null, "levels": null, "tract_id": "40119010501", "tract_name": "105.01", "tags": {"addr:city": "Stillwater", "addr:housenumber": "724", "addr:postcode": "74075", "addr:state": "OK", "addr:street": "North Perkins Road", "building": "yes", "name": "OnCue", "shop": "convenience", "wheelchair": "yes"}}}, {"type": "Feature", "geometry": {"type": "Polygon", "coordinates": [[[-97.052094, 36.1298659], [-97.0520907, 36.1296208], [-97.0519242, 36.1296199], [-97.0519259, 36.1296572], [-97.0519061, 36.129657], [-97.051907, 36.1298333], [-97.0519262, 36.1298334], [-97.051926, 36.1298687], [-97.052094, 36.1298659]]]}, "properties": {"osm_id": 237051370, "building": "yes", "name": "EZPAWN", "height": null, "height_m": null, "levels": null, "tract_id": "40119010501", "tract_name": "105.01", "tags": {"brand": "EZPAWN", "brand:wikidata": "Q110831813", "building": "yes", "name": "EZPAWN", "shop": "pawnbroker", "wheelchair": "yes"}}}, {"type": "Feature", "geometry": {"type": "Polygon", "coordinates": [[[-97.0572761, 36.1283077], [-97.0572783, 36.128367], [-97.0570041, 36.1283698], [-97.0570043, 36.1283106], [-97.0572761, 36.1283077]]]}, "properties": {"osm_id": 238019610, "building": "yes", "name": "Sally Beauty", "height": null, "height_m": null, "levels": null, "tract_id": "40119010501", "tract_name": "105.01", "tags": {"addr:housenumber": "503", "addr:street": "North Main Street", "alt_name": "Sally Beauty Supply", "brand": "Sally Beauty", "brand:wikidata": "Q7405065", "building": "yes", "name": "Sally Beauty", "opening_hours": "Mo-Sa 09:00-20:00; Su 12:00-18:00", "shop": "hairdresser_supply", "wheelchair": "yes"}}}, {"type": "Feature", "geometry": {"type": "Polygon", "coordinates": [[[-97.0572909, 36.1292859], [-97.0568782, 36.1292908], [-97.0566805, 36.1292931], [-97.0566736, 36.1289086], [-97.057284, 36.1289015], [-97.0572909, 36.1292859]]]}, "properties": {"osm_id": 238019611, "building": "yes", "name": "TJ Maxx", "height": null, "height_m": null, "levels": null, "tract_id": "40119010501", "tract_name": "105.01", "tags": {"addr:housenumber": "605", "addr:street": "North Main Street", "brand": "TJ Maxx", "brand:wikidata": "Q10860683", "building": "yes", "name": "TJ Maxx", "opening_hours": "Mo-Sa 09:30-21:30; Su 11:00-20:00", "shop": "department_store", "wheelchair": "yes"}}}, {"type": "Feature", "geometry": {"type": "Polygon", "coordinates": [[[-97.0572951, 36.1295019], [-97.0569882, 36.129507], [-97.0568838, 36.1295087], [-97.0568782, 36.1292908], [-97.0572909, 36.1292859], [-97.0572951, 36.1295019]]]}, "properties": {"osm_id": 238019612, "building": "yes", "name": "Old Navy", "height": null, "height_m": null, "levels": null, "tract_id": "40119010501", "tract_name": "105.01", "tags": {"addr:housenumber": "619", "addr:street": "North Main Street", "brand": "Old Navy", "brand:wikidata": "Q2735242", "building": "yes", "name": "Old Navy", "opening_hours": "Mo-Fr 09:30-21:00; Sa 09:00-21:00; Su 11:00-19:00", "shop": "clothes", "wheelchair": "yes"}}}, {"type": "Feature", "geometry": {"type": "Polygon", "coordinates": [[[-97.0572771, 36.1284252], [-97.0572785, 36.1284861], [-97.0570042, 36.1284878], [-97.0570054, 36.128427], [-97.0572771, 36.1284252]]]}, "properties": {"osm_id": 238019613, "building": "yes", "name": "The Riviera", "height": null, "height_m": null, "levels": null, "tract_id": "40119010501", "tract_name": "105.01", "tags": {"addr:street": "North Main Street", "building": "yes", "name": "The Riviera", "opening_hours": "Jan-Dec: Mo-Fr 07:00-23:00; Sa, Su 08:00-20:00", "phone": "1-866-918-8286", "shop": "beauty", "wheelchair": "yes"}}}, {"type": "Feature", "geometry": {"type": "Polygon", "coordinates": [[[-97.0572971, 36.1300488], [-97.0570261, 36.1300493], [-97.0570241, 36.129891], [-97.0572962, 36.129892], [-97.0572971, 36.1300488]]]}, "properties": {"osm_id": 238019614, "building": "retail", "name": "", "height": null, "height_m": null, "levels": null, "tract_id": "40119010501", "tract_name": "105.01", "tags": {"addr:housenumber": "715", "addr:street": "North Main Street", "building": "retail"}}}, {"type": "Feature", "geometry": {"type": "Polygon", "coordinates": [[[-97.0572968, 36.1302076], [-97.0570314, 36.1302104], [-97.0570303, 36.1301405], [-97.0570261, 36.1300493], [-97.0572971, 36.1300488], [-97.0572968, 36.1302076]]]}, "properties": {"osm_id": 238019615, "building": "commercial", "name": "", "height": null, "height_m": null, "levels": null, "tract_id": "40119010501", "tract_name": "105.01", "tags": {"addr:housenumber": "721", "addr:street": "North Main Street", "amenity": "restaurant", "building": "commercial", "cuisine": "mexican"}}}, {"type": "Feature", "geometry": {"type": "Polygon", "coordinates": [[[-97.0572971, 36.1296725], [-97.0570254, 36.1296741], [-97.0569897, 36.1296743], [-97.0569882, 36.129507], [-97.0572951, 36.1295019], [-97.0572971, 36.1296725]]]}, "properties": {"osm_id": 238019616, "building": "yes", "name": "Famous Footwear", "height": null, "height_m": null, "levels": null, "tract_id": "40119010501", "tract_name": "105.01", "tags": {"addr:housenumber": "623", "addr:street": "North Main Street", "brand": "Famous Footwear", "brand:wikidata": "Q5433457", "building": "yes", "name": "Famous Footwear", "shop": "shoes", "wheelchair": "yes"}}}, {"type": "Feature", "geometry": {"type": "Polygon", "coordinates": [[[-97.057284, 36.1289015], [-97.0566736, 36.1289086], [-97.0566004, 36.1289071], [-97.0565964, 36.1284903], [-97.0570042, 36.1284878], [-97.0572785, 36.1284861], [-97.057284, 36.1289015]]]}, "properties": {"osm_id": 238019617, "building": "yes", "name": "Ulta Beauty", "height": null, "height_m": null, "levels": null, "tract_id": "40119010501", "tract_name": "105.01", "tags": {"addr:city": "Stillwater", "addr:housenumber": "601", "addr:postcode": "74075", "addr:state": "OK", "addr:street": "North Main Street", "alt_name": "Ulta Skin Bar", "beauty": "skin_care", "brand": "Ulta Beauty", "brand:wikidata": "Q7880076", "building": "yes", "name": "Ulta Beauty", "opening_hours": "Jan-Dec: Mo-Sa 10:00-21:00; Su 11:00-18:00", "phone": "+1 405-372-7142", "ref": "564", "shop": "cosmetics", "website": "https://www.ulta.com/stores/stillwater-ok-564", "wheelchair": "yes"}}}, {"type": "Feature", "geometry": {"type": "Polygon", "coordinates": [[[-97.0569631, 36.1302202], [-97.0568053, 36.1302189], [-97.0568083, 36.1299753], [-97.0568919, 36.129976], [-97.056891, 36.1300437], [-97.0569653, 36.1300443], [-97.0569641, 36.1301423], [-97.0569631, 36.1302202]]]}, "properties": {"osm_id": 238019618, "building": "yes", "name": "Just Wafflin", "height": null, "height_m": null, "levels": null, "tract_id": "40119010501", "tract_name": "105.01", "tags": {"addr:housenumber": "211", "addr:street": "East McElroy Road", "amenity": "restaurant", "building": "yes", "name": "Just Wafflin", "wheelchair": "yes"}}}, {"type": "Feature", "geometry": {"type": "Polygon", "coordinates": [[[-97.0572991, 36.1297246], [-97.0572962, 36.129892], [-97.0570241, 36.129891], [-97.0570245, 36.1297213], [-97.0572991, 36.1297246]]]}, "properties": {"osm_id": 238019619, "building": "yes", "name": "Cato", "height": null, "height_m": null, "levels": null, "tract_id": "40119010501", "tract_name": "105.01", "tags": {"addr:housenumber": "703", "addr:street": "North Main Street", "brand": "Cato", "brand:wikidata": "Q16956136", "building": "yes", "clothes": "women", "name": "Cato", "official_name": "Cato Fashions", "opening_hours": "Jan-Dec: Mo-Sa 10:00-21:00; Su 13:00-18:00", "shop": "clothes", "website": "https://stores.catofashions.com/ok/stillwater/703-north-main-street", "wheelchair": "yes"}}}, {"type": "Feature", "geometry": {"type": "Polygon", "coordinates": [[[-97.0569671, 36.1302118], [-97.0569641, 36.1301423], [-97.0570303, 36.1301405], [-97.0570314, 36.1302104], [-97.0569671, 36.1302118]]]}, "properties": {"osm_id": 238019620, "building": "yes", "name": "Fancy Nails", "height": null, "height_m": null, "levels": null, "tract_id": "40119010501", "tract_name": "105.01", "tags": {"addr:housenumber": "205", "addr:street": "East McElroy Road", "building": "yes", "name": "Fancy Nails", "opening_hours": "Mo-Sa 09:30-19:30", "phone": "405-372-2359", "shop": "beauty", "wheelchair": "yes"}}}, {"type": "Feature", "geometry": {"type": "Polygon", "coordinates": [[[-97.0553271, 36.1298878], [-97.0552286, 36.1298869], [-97.0552246, 36.1301473], [-97.0553087, 36.1301481], [-97.0553084, 36.1301681], [-97.0553603, 36.1301686], [-97.0553607, 36.1301435], [-97.0556473, 36.1301464], [-97.0556502, 36.1299575], [-97.0556619, 36.1299577], [-97.0556629, 36.1298912], [-97.0553271, 36.1298878]]]}, "properties": {"osm_id": 238019805, "building": "yes", "name": "University & Community Federal Credit Union", "height": null, "height_m": null, "levels": null, "tract_id": "40119010501", "tract_name": "105.01", "tags": {"addr:city": "Stillwater", "addr:housenumber": "311", "addr:postcode": "74075", "addr:street": "East McElroy Road", "amenity": "bank", "atm": "yes", "building": "yes", "name": "University & Community Federal Credit Union", "opening_hours": "Mo-Fr 08:00-17:00", "website": "https://home.cuintouch.com/", "wheelchair": "yes"}}}, {"type": "Feature", "geometry": {"type": "Polygon", "coordinates": [[[-97.0526855, 36.1275172], [-97.0526851, 36.1274643], [-97.0526685, 36.1274644], [-97.0526669, 36.1272687], [-97.0528103, 36.1272679], [-97.0528123, 36.1275166], [-97.0526855, 36.1275172]]]}, "properties": {"osm_id": 241542899, "building": "yes", "name": "Starbucks", "height": null, "height_m": null, "levels": null, "tract_id": "40119010501", "tract_name": "105.01", "tags": {"addr:city": "Stillwater", "addr:housenumber": "508", "addr:postcode": "74075", "addr:street": "East Hall of Fame Avenue", "brand:wikidata": "Q37158", "building": "yes", "name": "Starbucks"}}}, {"type": "Feature", "geometry": {"type": "Polygon", "coordinates": [[[-97.0531387, 36.1272876], [-97.0531592, 36.1272629], [-97.0533411, 36.1272619], [-97.0533451, 36.1277403], [-97.0531471, 36.1277414], [-97.0531469, 36.1277157], [-97.0531308, 36.1277157], [-97.05313, 36.1276325], [-97.0531446, 36.127629], [-97.0531446, 36.127569], [-97.0531242, 36.1275019], [-97.0531475, 36.1274254], [-97.0531431, 36.1273618], [-97.0531285, 36.1273312], [-97.0531387, 36.1272876]]]}, "properties": {"osm_id": 241542906, "building": "hotel", "name": "Fairfield Inn", "height": null, "height_m": 9.0, "levels": 3, "tract_id": "40119010501", "tract_name": "105.01", "tags": {"addr:city": "Stillwater", "addr:housenumber": "418", "addr:postcode": "74075", "addr:state": "OK", "addr:street": "East Hall of Fame Avenue", "alt_name": "Fairfield by Marriott", "branch": "Stillwater", "brand": "Fairfield Inn", "brand:wikidata": "Q5430314", "building": "hotel", "building:levels": "3", "name": "Fairfield Inn", "official_name": "Fairfield by Marriott", "operator": "Marriott", "phone": "+1 405-372-6300", "ref": "PNCST", "tourism": "hotel", "website": "https://www.marriott.com/hotels/travel/pncst-fairfield-inn-and-suites-stillwater/", "wheelchair": "yes"}}}, {"type": "Feature", "geometry": {"type": "Polygon", "coordinates": [[[-97.0535471, 36.1273569], [-97.053547, 36.1273111], [-97.0536034, 36.127311], [-97.0536035, 36.1273461], [-97.0536882, 36.1273459], [-97.0536884, 36.1273974], [-97.0537185, 36.1273974], [-97.0537186, 36.1274414], [-97.0536976, 36.1274414], [-97.0536976, 36.1274623], [-97.0537206, 36.1274623], [-97.0537206, 36.1275724], [-97.0536906, 36.1275724], [-97.0536904, 36.1277916], [-97.0537174, 36.1277917], [-97.0537172, 36.1278919], [-97.0537034, 36.1278919], [-97.0537031, 36.1279613], [-97.0536887, 36.1279613], [-97.0536885, 36.1280022], [-97.0534512, 36.1280012], [-97.0534514, 36.1279647], [-97.0534133, 36.1279645], [-97.0534146, 36.1277751], [-97.0534367, 36.1277752], [-97.0534381, 36.1275833], [-97.0534206, 36.1275797], [-97.0534162, 36.1274444], [-97.0534308, 36.1274408], [-97.0534304, 36.1273572], [-97.0535471, 36.1273569]]]}, "properties": {"osm_id": 241542910, "building": "yes", "name": "", "height": null, "height_m": null, "levels": null, "tract_id": "40119010501", "tract_name": "105.01", "tags": {"building": "yes", "office": "yes", "wheelchair": "yes"}}}, {"type": "Feature", "geometry": {"type": "Polygon", "coordinates": [[[-97.0528505, 36.1265382], [-97.0528535, 36.126437], [-97.052785, 36.1264287], [-97.0527893, 36.1262404], [-97.0526363, 36.126238], [-97.0526334, 36.1264334], [-97.0525766, 36.1264381], [-97.0525751, 36.1264946], [-97.0525139, 36.1264958], [-97.0525139, 36.1265311], [-97.0525693, 36.1265288], [-97.0525678, 36.1265453], [-97.0526246, 36.1265453], [-97.0526276, 36.1265582], [-97.0527937, 36.1265594], [-97.0527923, 36.1265417], [-97.0528505, 36.1265382]]]}, "properties": {"osm_id": 241543653, "building": "yes", "name": "BancFirst", "height": null, "height_m": null, "levels": null, "tract_id": "40119010501", "tract_name": "105.01", "tags": {"addr:city": "Stillwater", "addr:housenumber": "505", "addr:postcode": "74075", "addr:state": "OK", "addr:street": "East Hall of Fame Avenue", "amenity": "bank", "atm": "yes", "building": "yes", "name": "BancFirst", "phone": "(405) 742-6200", "website": "https://www.bancfirst.com/"}}}, {"type": "Feature", "geometry": {"type": "Polygon", "coordinates": [[[-97.0531218, 36.1259884], [-97.0531215, 36.1258655], [-97.0532172, 36.1258654], [-97.053217, 36.1257136], [-97.053151, 36.1257136], [-97.0531506, 36.1254363], [-97.0531297, 36.1254363], [-97.0531296, 36.1253715], [-97.0531093, 36.1253716], [-97.0531092, 36.1253427], [-97.0529635, 36.1253428], [-97.0529635, 36.1253757], [-97.0529413, 36.1253757], [-97.052942, 36.1258072], [-97.0529598, 36.1258071], [-97.0529599, 36.1258778], [-97.0530246, 36.1258778], [-97.0530248, 36.1259885], [-97.0531218, 36.1259884]]]}, "properties": {"osm_id": 241543659, "building": "yes", "name": "Microtel Inn & Suites", "height": null, "height_m": null, "levels": null, "tract_id": "40119010501", "tract_name": "105.01", "tags": {"addr:city": "Stillwater", "addr:housenumber": "423", "addr:postcode": "74075", "addr:street": "East Hall of Fame Avenue", "brand": "Microtel Inn & Suites", "brand:wikidata": "Q6840402", "building": "yes", "name": "Microtel Inn & Suites", "official_name": "Microtel Inn & Suites by Wyndham", "phone": "405-372-7100", "tourism": "hotel", "website": "http://microtelinn.com"}}}, {"type": "Feature", "geometry": {"type": "Polygon", "coordinates": [[[-97.0534125, 36.1265724], [-97.0534108, 36.1263846], [-97.0532981, 36.1263852], [-97.0532997, 36.126562], [-97.0533532, 36.1265616], [-97.0533533, 36.1265728], [-97.0534125, 36.1265724]]]}, "properties": {"osm_id": 241573344, "building": "yes", "name": "Chipotle", "height": null, "height_m": null, "levels": null, "tract_id": "40119010501", "tract_name": "105.01", "tags": {"addr:city": "Stillwater", "addr:housenumber": "415", "addr:postcode": "74075", "addr:state": "OK", "addr:street": "East Hall of Fame Avenue", "amenity": "fast_food", "brand": "Chipotle", "brand:wikidata": "Q465751", "building": "yes", "cuisine": "mexican", "name": "Chipotle", "official_name": "Chipotle Mexican Grill", "phone": "+1 405-372-1642", "takeaway": "yes", "website": "https://locations.chipotle.com/ok/stillwater/415-e-hall-of-fame-ave"}}}, {"type": "Feature", "geometry": {"type": "Polygon", "coordinates": [[[-97.0551396, 36.1264544], [-97.0551455, 36.1265303], [-97.0551584, 36.1265414], [-97.0551693, 36.1265446], [-97.0553037, 36.1265446], [-97.0553452, 36.1265598], [-97.0553848, 36.1265159], [-97.0554006, 36.1265271], [-97.0555014, 36.1265215], [-97.0554985, 36.1264608], [-97.0554036, 36.126464], [-97.0553937, 36.1264576], [-97.0554115, 36.126448], [-97.0554283, 36.126436], [-97.0554401, 36.1264217], [-97.055454, 36.1264057], [-97.0554589, 36.1263833], [-97.0554609, 36.1263626], [-97.0554619, 36.1263562], [-97.0554995, 36.1263546], [-97.0554925, 36.1262716], [-97.0554075, 36.1262724], [-97.0554115, 36.1262229], [-97.0552157, 36.1262213], [-97.0552108, 36.1262843], [-97.0552098, 36.1264544], [-97.0551396, 36.1264544]]]}, "properties": {"osm_id": 241573353, "building": "yes", "name": "Mexico Joe's", "height": null, "height_m": null, "levels": null, "tract_id": "40119010501", "tract_name": "105.01", "tags": {"addr:city": "Stillwater", "addr:housenumber": "311", "addr:postcode": "74075", "addr:street": "East Hall of Fame Avenue", "amenity": "restaurant", "building": "yes", "cuisine": "mexican", "name": "Mexico Joe's", "website": "https://mexicojoes.com/"}}}, {"type": "Feature", "geometry": {"type": "Polygon", "coordinates": [[[-97.0564683, 36.1265518], [-97.0564643, 36.1264872], [-97.056487, 36.1264864], [-97.0564805, 36.1262321], [-97.0563211, 36.1262338], [-97.0563186, 36.1262848], [-97.056214, 36.126284], [-97.0562099, 36.1262661], [-97.0562415, 36.1262665], [-97.0562447, 36.1262279], [-97.0561008, 36.1262287], [-97.0561022, 36.1265646], [-97.0562135, 36.1265638], [-97.0562114, 36.1265734], [-97.0563051, 36.1265726], [-97.0563071, 36.1265135], [-97.056403, 36.1265127], [-97.056408, 36.1265534], [-97.0564683, 36.1265518]]]}, "properties": {"osm_id": 241573360, "building": "yes", "name": "", "height": null, "height_m": null, "levels": null, "tract_id": "40119010501", "tract_name": "105.01", "tags": {"addr:city": "Stillwater", "addr:housenumber": "233", "addr:postcode": "74075", "addr:state": "OK", "addr:street": "East Hall of Fame Avenue", "building": "yes", "opening_hours": "24/7 closed"}}}, {"type": "Feature", "geometry": {"type": "Polygon", "coordinates": [[[-97.0580097, 36.126431], [-97.0575779, 36.1264267], [-97.0575806, 36.1262154], [-97.0576195, 36.1261883], [-97.057603, 36.1261686], [-97.0575833, 36.1261461], [-97.0576302, 36.1261179], [-97.0576495, 36.1261396], [-97.0576678, 36.1261569], [-97.0580687, 36.126158], [-97.0580634, 36.1263985], [-97.0580097, 36.126431]]]}, "properties": {"osm_id": 241573376, "building": "yes", "name": "CVS Pharmacy", "height": null, "height_m": null, "levels": null, "tract_id": "40119010501", "tract_name": "105.01", "tags": {"addr:city": "Stillwater", "addr:housenumber": "101", "addr:postcode": "74075", "addr:state": "OK", "addr:street": "East Hall of Fame Avenue", "brand": "CVS Pharmacy", "brand:website": "https://www.cvs.com/", "brand:wikidata": "Q2078880", "building": "yes", "name": "CVS Pharmacy", "opening_hours": "07:00-22:00", "opening_hours:pharmacy": "Mo-Fr 08:00-22:00;Sa 09:00-18:00;Su 10:00-18:00", "phone": "(405) 707-0287", "shop": "chemist", "short_name": "CVS", "website": "https://www.cvs.com/store-locator/stillwater-ok-pharmacies/101-e-hall-of-fame-ave-stillwater-ok-74075/storeid=10101"}}}, {"type": "Feature", "geometry": {"type": "Polygon", "coordinates": [[[-97.0581399, 36.1282654], [-97.0581429, 36.1283708], [-97.058395, 36.12837], [-97.058394, 36.128263], [-97.0581399, 36.1282654]]]}, "properties": {"osm_id": 241573470, "building": "yes", "name": "", "height": null, "height_m": null, "levels": null, "tract_id": "40119010501", "tract_name": "105.01", "tags": {"amenity": "fuel", "building": "yes", "wheelchair": "yes"}}}, {"type": "Feature", "geometry": {"type": "Polygon", "coordinates": [[[-97.0583258, 36.1286175], [-97.0583297, 36.1285121], [-97.0582586, 36.1285153], [-97.0582566, 36.1284977], [-97.0581963, 36.1284953], [-97.0582002, 36.1285145], [-97.058137, 36.1285161], [-97.058138, 36.1286175], [-97.0583258, 36.1286175]]]}, "properties": {"osm_id": 241573471, "building": "yes", "name": "Express Convenience", "height": null, "height_m": null, "levels": null, "tract_id": "40119010501", "tract_name": "105.01", "tags": {"building": "yes", "name": "Express Convenience", "shop": "supermarket", "wheelchair": "yes"}}}, {"type": "Feature", "geometry": {"type": "Polygon", "coordinates": [[[-97.0563032, 36.1273439], [-97.0563002, 36.127209], [-97.056318, 36.1272098], [-97.056314, 36.1271834], [-97.0562943, 36.1271794], [-97.0562943, 36.1271419], [-97.0562231, 36.1271411], [-97.056229, 36.1272258], [-97.0562092, 36.127225], [-97.0562122, 36.1272808], [-97.0562211, 36.12728], [-97.0562241, 36.1273431], [-97.0563032, 36.1273439]]]}, "properties": {"osm_id": 241573502, "building": "yes", "name": "", "height": null, "height_m": null, "levels": null, "tract_id": "40119010501", "tract_name": "105.01", "tags": {"addr:city": "Stillwater", "addr:housenumber": "300", "addr:postcode": "74075", "addr:state": "OK", "addr:street": "East Hall of Fame Avenue", "branch": "Main & Hall of Fame", "building": "yes", "wheelchair": "yes"}}}, {"type": "Feature", "geometry": {"type": "Polygon", "coordinates": [[[-97.0552849, 36.1275595], [-97.055281, 36.1275196], [-97.0553947, 36.1275164], [-97.0553927, 36.1273335], [-97.0553195, 36.1273319], [-97.0553215, 36.1273176], [-97.0552523, 36.1273208], [-97.0552543, 36.1273343], [-97.0551238, 36.1273319], [-97.0551228, 36.1275204], [-97.0551673, 36.1275276], [-97.0551673, 36.1275571], [-97.0552849, 36.1275595]]]}, "properties": {"osm_id": 241573516, "building": "yes", "name": "Chili's", "height": null, "height_m": null, "levels": null, "tract_id": "40119010501", "tract_name": "105.01", "tags": {"addr:city": "Stillwater", "addr:housenumber": "310", "addr:postcode": "74075", "addr:street": "East Hall of Fame Avenue", "amenity": "restaurant", "brand": "Chili's", "brand:wikidata": "Q1072948", "building": "yes", "cuisine": "tex-mex", "name": "Chili's", "official_name": "Chili's Grill & Bar", "phone": "405-624-2100", "wheelchair": "yes"}}}, {"type": "Feature", "geometry": {"type": "Polygon", "coordinates": [[[-97.0590913, 36.1281363], [-97.0592711, 36.1281353], [-97.0592656, 36.1278795], [-97.0590889, 36.1278809], [-97.0590913, 36.1281363]]]}, "properties": {"osm_id": 241573774, "building": "yes", "name": "", "height": null, "height_m": null, "levels": null, "tract_id": "40119010501", "tract_name": "105.01", "tags": {"addr:city": "Stillwater", "addr:housenumber": "502", "addr:postcode": "74075", "addr:street": "North Main Street", "building": "yes", "wheelchair": "yes"}}}, {"type": "Feature", "geometry": {"type": "Polygon", "coordinates": [[[-97.0591034, 36.1284442], [-97.0592304, 36.1284403], [-97.0592288, 36.1284126], [-97.0592988, 36.128414], [-97.0592955, 36.1283324], [-97.0592271, 36.1283311], [-97.0592239, 36.1281759], [-97.059105, 36.1281798], [-97.059105, 36.1283179], [-97.0590545, 36.1283166], [-97.0590529, 36.1284205], [-97.0590985, 36.1284205], [-97.0591034, 36.1284442]]]}, "properties": {"osm_id": 241573776, "building": "yes", "name": "", "height": null, "height_m": null, "levels": null, "tract_id": "40119010501", "tract_name": "105.01", "tags": {"building": "yes", "wheelchair": "yes"}}}, {"type": "Feature", "geometry": {"type": "Polygon", "coordinates": [[[-97.0589813, 36.1288901], [-97.0589764, 36.1288375], [-97.0591783, 36.1288414], [-97.0591685, 36.1289532], [-97.0590741, 36.1289571], [-97.0590692, 36.1288901], [-97.0589813, 36.1288901]]]}, "properties": {"osm_id": 241573779, "building": "yes", "name": "Jimmy John's", "height": null, "height_m": null, "levels": null, "tract_id": "40119010501", "tract_name": "105.01", "tags": {"addr:city": "Stillwater", "addr:housenumber": "602", "addr:postcode": "74075", "addr:state": "OK", "addr:street": "North Main Street", "amenity": "fast_food", "brand": "Jimmy John's", "brand:wikidata": "Q1689380", "building": "yes", "cuisine": "sandwich", "name": "Jimmy John's", "official_name": "Jimmy John's Gourmet Sandwiches", "phone": "+1 405-372-7827", "takeaway": "yes", "website": "https://locations.jimmyjohns.com/ok/stillwater/sandwiches-4254.html", "wheelchair": "yes"}}}, {"type": "Feature", "geometry": {"type": "Polygon", "coordinates": [[[-97.0589878, 36.129328], [-97.0589796, 36.1291978], [-97.0594274, 36.1291978], [-97.0594193, 36.1293307], [-97.0589878, 36.129328]]]}, "properties": {"osm_id": 241573780, "building": "yes", "name": "", "height": null, "height_m": null, "levels": null, "tract_id": "40119010501", "tract_name": "105.01", "tags": {"building": "yes", "wheelchair": "yes"}}}, {"type": "Feature", "geometry": {"type": "Polygon", "coordinates": [[[-97.059219, 36.1295779], [-97.0592206, 36.1298738], [-97.0592988, 36.1298712], [-97.0593004, 36.1298488], [-97.059517, 36.1298515], [-97.0595186, 36.1296871], [-97.0593835, 36.1296884], [-97.0593835, 36.129574], [-97.059219, 36.1295779]]]}, "properties": {"osm_id": 241573782, "building": "yes", "name": "", "height": null, "height_m": null, "levels": null, "tract_id": "40119010501", "tract_name": "105.01", "tags": {"building": "yes", "wheelchair": "yes"}}}, {"type": "Feature", "geometry": {"type": "Polygon", "coordinates": [[[-97.0583402, 36.1292224], [-97.0583402, 36.1291468], [-97.058369, 36.1291468], [-97.0583666, 36.1290973], [-97.058339, 36.1290954], [-97.0583354, 36.1290392], [-97.0581962, 36.1290353], [-97.0581986, 36.1290595], [-97.0581229, 36.1290537], [-97.0581241, 36.1291991], [-97.0581962, 36.1291972], [-97.0581998, 36.1292272], [-97.0583402, 36.1292224]]]}, "properties": {"osm_id": 241574664, "building": "yes", "name": "IHOP", "height": null, "height_m": null, "levels": null, "tract_id": "40119010501", "tract_name": "105.01", "tags": {"addr:city": "Stillwater", "addr:housenumber": "611", "addr:postcode": "74075", "addr:street": "North Main Street", "amenity": "restaurant", "brand": "IHOP", "brand:wikidata": "Q1185675", "building": "yes", "cuisine": "breakfast;pancake", "name": "IHOP", "phone": "405-533-4467", "wheelchair": "yes"}}}, {"type": "Feature", "geometry": {"type": "Polygon", "coordinates": [[[-97.0583246, 36.1179684], [-97.0584432, 36.1179636], [-97.0584551, 36.1186991], [-97.0584126, 36.1186871], [-97.0584146, 36.1186727], [-97.0583226, 36.1186751], [-97.0583236, 36.1187031], [-97.0583147, 36.1187262], [-97.0583088, 36.1187366], [-97.0580597, 36.1186895], [-97.0580537, 36.1186128], [-97.05829, 36.1185601], [-97.0583029, 36.1185777], [-97.0583088, 36.118604], [-97.0583375, 36.1186024], [-97.0583355, 36.1185194], [-97.0582643, 36.118521], [-97.0582584, 36.1182958], [-97.0583266, 36.1182966], [-97.0583246, 36.1179684]]]}, "properties": {"osm_id": 260052300, "building": "yes", "name": "Board of Education", "height": null, "height_m": null, "levels": null, "tract_id": "40119010501", "tract_name": "105.01", "tags": {"addr:city": "Stillwater", "addr:housenumber": "303", "addr:postcode": "74074", "addr:state": "OK", "addr:street": "South Main Street", "building": "yes", "name": "Board of Education", "office": "government", "phone": "+1-405-533-6300", "website": "https://www.stillwaterschools.com/"}}}, {"type": "Feature", "geometry": {"type": "Polygon", "coordinates": [[[-97.0582461, 36.1194098], [-97.0582462, 36.1191737], [-97.0580304, 36.1191737], [-97.0580304, 36.1194098], [-97.0582461, 36.1194098]]]}, "properties": {"osm_id": 260052305, "building": "yes", "name": "Golden Peach", "height": null, "height_m": null, "levels": null, "tract_id": "40119010501", "tract_name": "105.01", "tags": {"addr:city": "Stillwater", "addr:state": "OK", "beauty": "tanning", "building": "yes", "name": "Golden Peach", "shop": "beauty"}}}, {"type": "Feature", "geometry": {"type": "Polygon", "coordinates": [[[-97.05829, 36.1198455], [-97.0582886, 36.1197105], [-97.0581703, 36.1197113], [-97.0581717, 36.1198469], [-97.05829, 36.1198455]]]}, "properties": {"osm_id": 260052306, "building": "yes", "name": "Enterprise", "height": null, "height_m": null, "levels": null, "tract_id": "40119010501", "tract_name": "105.01", "tags": {"addr:city": "Stillwater", "addr:housenumber": "221", "addr:postcode": "74074", "addr:state": "OK", "addr:street": "South Main Street", "amenity": "car_rental", "brand": "Enterprise", "brand:wikidata": "Q17085454", "building": "yes", "name": "Enterprise", "official_name": "Enterprise Rent-A-Car"}}}, {"type": "Feature", "geometry": {"type": "Polygon", "coordinates": [[[-97.058415, 36.1201081], [-97.0584131, 36.1199589], [-97.0582642, 36.1199601], [-97.0582643, 36.1199725], [-97.0580702, 36.1199741], [-97.0580718, 36.1201108], [-97.058415, 36.1201081]]]}, "properties": {"osm_id": 260052317, "building": "yes", "name": "", "height": null, "height_m": null, "levels": null, "tract_id": "40119010501", "tract_name": "105.01", "tags": {"addr:city": "Stillwater", "addr:state": "OK", "building": "yes"}}}, {"type": "Feature", "geometry": {"type": "Polygon", "coordinates": [[[-97.0584367, 36.1209068], [-97.0584373, 36.1207928], [-97.0581684, 36.1207943], [-97.0581738, 36.1209087], [-97.0584367, 36.1209068]]]}, "properties": {"osm_id": 260052318, "building": "yes", "name": "", "height": null, "height_m": null, "levels": null, "tract_id": "40119010501", "tract_name": "105.01", "tags": {"building": "yes"}}}, {"type": "Feature", "geometry": {"type": "Polygon", "coordinates": [[[-97.0584341, 36.1210394], [-97.058432, 36.1209111], [-97.058159, 36.120914], [-97.0581611, 36.1210423], [-97.0584341, 36.1210394]]]}, "properties": {"osm_id": 260052320, "building": "yes", "name": "", "height": null, "height_m": null, "levels": null, "tract_id": "40119010501", "tract_name": "105.01", "tags": {"building": "yes"}}}, {"type": "Feature", "geometry": {"type": "Polygon", "coordinates": [[[-97.0585052, 36.121041], [-97.0585065, 36.1211737], [-97.0584244, 36.1211742], [-97.0584232, 36.1210415], [-97.0585052, 36.121041]]]}, "properties": {"osm_id": 260052321, "building": "yes", "name": "", "height": null, "height_m": null, "levels": null, "tract_id": "40119010501", "tract_name": "105.01", "tags": {"building": "yes"}}}, {"type": "Feature", "geometry": {"type": "Polygon", "coordinates": [[[-97.0584366, 36.1213025], [-97.0581316, 36.1213052], [-97.05813, 36.1211847], [-97.0581299, 36.1211803], [-97.0584349, 36.1211776], [-97.0584366, 36.1213025]]]}, "properties": {"osm_id": 260052323, "building": "yes", "name": "Himalayan Grocery Store & Kitchen", "height": null, "height_m": null, "levels": null, "tract_id": "40119010501", "tract_name": "105.01", "tags": {"addr:city": "Stillwater", "addr:housenumber": "125", "addr:postcode": "74074", "addr:state": "OK", "addr:street": "South Main Street", "building": "yes", "name": "Himalayan Grocery Store & Kitchen", "shop": "supermarket"}}}, {"type": "Feature", "geometry": {"type": "Polygon", "coordinates": [[[-97.0584384, 36.1214402], [-97.0584366, 36.1213025], [-97.0581316, 36.1213052], [-97.0581334, 36.1214428], [-97.0584384, 36.1214402]]]}, "properties": {"osm_id": 260052325, "building": "yes", "name": "", "height": null, "height_m": null, "levels": null, "tract_id": "40119010501", "tract_name": "105.01", "tags": {"building": "yes"}}}, {"type": "Feature", "geometry": {"type": "Polygon", "coordinates": [[[-97.0584362, 36.1215831], [-97.0584343, 36.1214815], [-97.0583027, 36.1214831], [-97.0583047, 36.1215847], [-97.0584362, 36.1215831]]]}, "properties": {"osm_id": 260052327, "building": "yes", "name": "", "height": null, "height_m": null, "levels": null, "tract_id": "40119010501", "tract_name": "105.01", "tags": {"building": "yes"}}}, {"type": "Feature", "geometry": {"type": "Polygon", "coordinates": [[[-97.0584359, 36.121714], [-97.0584357, 36.121587], [-97.0581512, 36.1215874], [-97.0581514, 36.1217144], [-97.0584359, 36.121714]]]}, "properties": {"osm_id": 260052328, "building": "yes", "name": "Field Electric", "height": null, "height_m": null, "levels": null, "tract_id": "40119010501", "tract_name": "105.01", "tags": {"addr:housenumber": "901", "addr:street": "South Main Street", "building": "yes", "name": "Field Electric", "opening_hours": "Mo-Fr 08:00-18:00", "phone": "+1 405 372 5413", "shop": "doityourself"}}}, {"type": "Feature", "geometry": {"type": "Polygon", "coordinates": [[[-97.0584403, 36.1217804], [-97.0583376, 36.1217794], [-97.0583412, 36.122063], [-97.0584415, 36.1220591], [-97.0584403, 36.1217804]]]}, "properties": {"osm_id": 260052329, "building": "yes", "name": "", "height": null, "height_m": null, "levels": null, "tract_id": "40119010501", "tract_name": "105.01", "tags": {"amenity": "fuel", "building": "yes"}}}, {"type": "Feature", "geometry": {"type": "Polygon", "coordinates": [[[-97.0581942, 36.1220601], [-97.058193, 36.1219428], [-97.0582074, 36.1219418], [-97.0582056, 36.1219064], [-97.0582056, 36.1218715], [-97.0581924, 36.1218701], [-97.0581924, 36.1217857], [-97.058085, 36.1217896], [-97.058088, 36.122063], [-97.0581942, 36.1220601]]]}, "properties": {"osm_id": 260052330, "building": "yes", "name": "", "height": null, "height_m": null, "levels": null, "tract_id": "40119010501", "tract_name": "105.01", "tags": {"addr:city": "Stillwater", "addr:postcode": "74074", "addr:street": "South Main Street", "building": "yes", "shop": "convenience"}}}, {"type": "Feature", "geometry": {"type": "Polygon", "coordinates": [[[-97.058382, 36.1249277], [-97.0583778, 36.1247629], [-97.0583166, 36.1247619], [-97.0583172, 36.1247488], [-97.0582602, 36.1247478], [-97.058262, 36.1248268], [-97.058289, 36.1248254], [-97.0582902, 36.1249039], [-97.0583052, 36.1249049], [-97.058307, 36.1249311], [-97.058382, 36.1249277]]]}, "properties": {"osm_id": 260052580, "building": "yes", "name": "Shortcakes Diner", "height": null, "height_m": null, "levels": null, "tract_id": "40119010501", "tract_name": "105.01", "tags": {"addr:city": "Stillwater", "addr:housenumber": "219", "addr:postcode": "74075", "addr:street": "North Main Street", "amenity": "restaurant", "building": "yes", "cuisine": "american", "name": "Shortcakes Diner", "phone": "405-624-1057"}}}, {"type": "Feature", "geometry": {"type": "Polygon", "coordinates": [[[-97.0591669, 36.127449], [-97.0589666, 36.1274438], [-97.0589796, 36.1272794], [-97.0591213, 36.1273293], [-97.0591669, 36.127449]]]}, "properties": {"osm_id": 260053203, "building": "yes", "name": "", "height": null, "height_m": null, "levels": null, "tract_id": "40119010501", "tract_name": "105.01", "tags": {"addr:city": "Stillwater", "addr:housenumber": "414", "addr:postcode": "74075", "addr:street": "North Main Street", "amenity": "restaurant", "building": "yes", "wheelchair": "yes"}}}, {"type": "Feature", "geometry": {"type": "Polygon", "coordinates": [[[-97.0585326, 36.1244551], [-97.0585324, 36.1244155], [-97.0584395, 36.1244159], [-97.0584392, 36.1243583], [-97.0585348, 36.1243579], [-97.0585345, 36.124311], [-97.0582182, 36.1243122], [-97.058219, 36.1244563], [-97.0585326, 36.1244551]]]}, "properties": {"osm_id": 260551011, "building": "yes", "name": "Sonic", "height": null, "height_m": null, "levels": null, "tract_id": "40119010501", "tract_name": "105.01", "tags": {"addr:city": "Stillwater", "addr:housenumber": "215", "addr:postcode": "74075", "addr:state": "OK", "addr:street": "North Main Street", "amenity": "fast_food", "brand": "Sonic", "brand:wikidata": "Q7561808", "building": "yes", "cuisine": "burger", "drive_in": "yes", "name": "Sonic", "opening_hours": "Mo-Fr 06:00-24:00; Sa 07:00-24:00; Su 08:00-24:00", "phone": "+1 405-377-0930", "takeaway": "yes", "website": "https://locations.sonicdrivein.com/ok/stillwater/215-n.-main-street.html"}}}, {"type": "Feature", "geometry": {"type": "Polygon", "coordinates": [[[-97.0585299, 36.1245906], [-97.0585323, 36.1245407], [-97.0582172, 36.1245455], [-97.0582214, 36.1245896], [-97.0585299, 36.1245906]]]}, "properties": {"osm_id": 260551012, "building": "yes", "name": "", "height": null, "height_m": null, "levels": null, "tract_id": "40119010501", "tract_name": "105.01", "tags": {"building": "yes"}}}, {"type": "Feature", "geometry": {"type": "Polygon", "coordinates": [[[-97.0583669, 36.1242185], [-97.0583652, 36.1241054], [-97.0583262, 36.1241054], [-97.0583245, 36.1238844], [-97.0582171, 36.1238818], [-97.0582236, 36.1242185], [-97.0583669, 36.1242185]]]}, "properties": {"osm_id": 260551013, "building": "yes", "name": "", "height": null, "height_m": null, "levels": null, "tract_id": "40119010501", "tract_name": "105.01", "tags": {"amenity": "car_wash", "building": "yes"}}}, {"type": "Feature", "geometry": {"type": "Polygon", "coordinates": [[[-97.0582644, 36.1236866], [-97.0581655, 36.1236874], [-97.0581615, 36.1233943], [-97.0582624, 36.1233943], [-97.0582644, 36.1236866]]]}, "properties": {"osm_id": 260551018, "building": "yes", "name": "", "height": null, "height_m": null, "levels": null, "tract_id": "40119010501", "tract_name": "105.01", "tags": {"building": "yes"}}}, {"type": "Feature", "geometry": {"type": "Polygon", "coordinates": [[[-97.0582857, 36.1236078], [-97.0582864, 36.1235088], [-97.058529, 36.12351], [-97.0585287, 36.1235489], [-97.0585463, 36.123549], [-97.0585458, 36.1236091], [-97.0582857, 36.1236078]]]}, "properties": {"osm_id": 260551019, "building": "yes", "name": "Century 21", "height": null, "height_m": null, "levels": null, "tract_id": "40119010501", "tract_name": "105.01", "tags": {"addr:city": "Stillwater", "addr:housenumber": "131", "addr:postcode": "74074", "addr:street": "North Main Street", "branch": "Global Realtors", "brand": "Century 21", "brand:wikidata": "Q1054480", "building": "yes", "fax": "405-624-2212", "name": "Century 21", "office": "estate_agent", "phone": "405-624-2626", "website": "https://c21stillwater.com/"}}}, {"type": "Feature", "geometry": {"type": "Polygon", "coordinates": [[[-97.0585323, 36.122991], [-97.0585283, 36.1228177], [-97.0584453, 36.1228129], [-97.0584453, 36.1228353], [-97.0583435, 36.1228281], [-97.0583464, 36.1229007], [-97.0581181, 36.1228936], [-97.0581161, 36.1229918], [-97.0585323, 36.122991]]]}, "properties": {"osm_id": 260551024, "building": "yes", "name": "", "height": null, "height_m": null, "levels": null, "tract_id": "40119010501", "tract_name": "105.01", "tags": {"addr:city": "Stillwater", "addr:postcode": "74074", "addr:street": "South Main Street", "building": "yes", "shop": "music"}}}, {"type": "Feature", "geometry": {"type": "Polygon", "coordinates": [[[-97.0582888, 36.122754], [-97.0582936, 36.1226753], [-97.058497, 36.1226832], [-97.0584953, 36.1227121], [-97.0585308, 36.1227135], [-97.0585294, 36.1227366], [-97.0585021, 36.1227356], [-97.0585005, 36.1227623], [-97.0582888, 36.122754]]]}, "properties": {"osm_id": 260551025, "building": "yes", "name": "The Little Shop Of Flowers", "height": null, "height_m": null, "levels": null, "tract_id": "40119010501", "tract_name": "105.01", "tags": {"building": "yes", "name": "The Little Shop Of Flowers", "shop": "florist"}}}, {"type": "Feature", "geometry": {"type": "Polygon", "coordinates": [[[-97.0522018, 36.1263994], [-97.0521978, 36.1261647], [-97.051921, 36.1261655], [-97.051922, 36.126401], [-97.0522018, 36.1263994]]]}, "properties": {"osm_id": 260555496, "building": "yes", "name": "Department of Veteran Affairs Outpatient Clinic", "height": null, "height_m": null, "levels": null, "tract_id": "40119010501", "tract_name": "105.01", "tags": {"addr:city": "Stillwater", "addr:postcode": "74075", "addr:street": "North Perkins Road", "amenity": "clinic", "building": "yes", "healthcare": "clinic", "name": "Department of Veteran Affairs Outpatient Clinic"}}}, {"type": "Feature", "geometry": {"type": "Polygon", "coordinates": [[[-97.0544392, 36.1174768], [-97.0544328, 36.1168181], [-97.0539902, 36.1168209], [-97.0539917, 36.1169474], [-97.0539928, 36.1170363], [-97.0538778, 36.1170375], [-97.0538821, 36.1174803], [-97.0544392, 36.1174768]]]}, "properties": {"osm_id": 269102147, "building": "yes", "name": "Stillwater Milling Company", "height": null, "height_m": null, "levels": null, "tract_id": "40119010501", "tract_name": "105.01", "tags": {"addr:city": "Stillwater", "addr:housenumber": "502", "addr:postcode": "74074", "addr:state": "OK", "addr:street": "East 6th Avenue", "building": "yes", "name": "Stillwater Milling Company", "phone": "405.372.2766", "website": "http://www.stillwatermillingcompany.com"}}}, {"type": "Feature", "geometry": {"type": "Polygon", "coordinates": [[[-97.0538387, 36.1183942], [-97.0538568, 36.1182353], [-97.0541712, 36.1182577], [-97.0541498, 36.1184141], [-97.0538387, 36.1183942]]]}, "properties": {"osm_id": 269102148, "building": "yes", "name": "", "height": null, "height_m": null, "levels": null, "tract_id": "40119010501", "tract_name": "105.01", "tags": {"addr:city": "Stillwater", "addr:state": "OK", "building": "yes"}}}, {"type": "Feature", "geometry": {"type": "Polygon", "coordinates": [[[-97.0543562, 36.1185246], [-97.0543659, 36.1184529], [-97.0542204, 36.1184478], [-97.0542129, 36.1185169], [-97.0543562, 36.1185246]]]}, "properties": {"osm_id": 269102149, "building": "yes", "name": "", "height": null, "height_m": null, "levels": null, "tract_id": "40119010501", "tract_name": "105.01", "tags": {"addr:city": "Stillwater", "addr:state": "OK", "building": "yes"}}}, {"type": "Feature", "geometry": {"type": "Polygon", "coordinates": [[[-97.0535839, 36.1184673], [-97.0535834, 36.1182914], [-97.053583, 36.1181245], [-97.0533385, 36.1181263], [-97.0533436, 36.1184681], [-97.0534077, 36.1184684], [-97.0534078, 36.1184823], [-97.053408, 36.1184971], [-97.0534847, 36.1184971], [-97.0534842, 36.1184671], [-97.0535839, 36.1184673]]]}, "properties": {"osm_id": 269102150, "building": "yes", "name": "Stillwater Electric Utility Warehouse", "height": 5.0, "height_m": 5.0, "levels": 2, "tract_id": "40119010501", "tract_name": "105.01", "tags": {"addr:city": "Stillwater", "addr:housenumber": "411", "addr:postcode": "74074", "addr:state": "OK", "addr:street": "East 3rd Avenue", "building": "yes", "building:levels": "2", "building:material": "concrete", "height": "5", "name": "Stillwater Electric Utility Warehouse", "roof:shape": "flat"}}}, {"type": "Feature", "geometry": {"type": "Polygon", "coordinates": [[[-97.053967, 36.1182266], [-97.0538504, 36.1182206], [-97.053874, 36.1180012], [-97.0539959, 36.1180081], [-97.053967, 36.1182266]]]}, "properties": {"osm_id": 269102151, "building": "yes", "name": "", "height": null, "height_m": null, "levels": null, "tract_id": "40119010501", "tract_name": "105.01", "tags": {"addr:city": "Stillwater", "addr:state": "OK", "building": "yes"}}}, {"type": "Feature", "geometry": {"type": "Polygon", "coordinates": [[[-97.0543316, 36.1181022], [-97.0543295, 36.1178828], [-97.0544813, 36.1178846], [-97.0544835, 36.1181057], [-97.0543316, 36.1181022]]]}, "properties": {"osm_id": 269102152, "building": "yes", "name": "", "height": null, "height_m": null, "levels": null, "tract_id": "40119010501", "tract_name": "105.01", "tags": {"addr:city": "Stillwater", "addr:state": "OK", "building": "yes"}}}, {"type": "Feature", "geometry": {"type": "Polygon", "coordinates": [[[-97.0526, 36.1172559], [-97.0525961, 36.1169666], [-97.0524137, 36.1169682], [-97.0524177, 36.1172575], [-97.0526, 36.1172559]]]}, "properties": {"osm_id": 269102153, "building": "yes", "name": "", "height": null, "height_m": null, "levels": null, "tract_id": "40119010501", "tract_name": "105.01", "tags": {"addr:city": "Stillwater", "addr:state": "OK", "building": "yes"}}}, {"type": "Feature", "geometry": {"type": "Polygon", "coordinates": [[[-97.053122, 36.1165959], [-97.053121, 36.1162694], [-97.0530825, 36.1162695], [-97.0530824, 36.1162444], [-97.0529749, 36.1162446], [-97.052975, 36.1162674], [-97.052926, 36.1162675], [-97.052927, 36.1165963], [-97.053122, 36.1165959]]]}, "properties": {"osm_id": 269102154, "building": "yes", "name": "", "height": null, "height_m": null, "levels": null, "tract_id": "40119010501", "tract_name": "105.01", "tags": {"addr:city": "Stillwater", "addr:state": "OK", "building": "yes"}}}, {"type": "Feature", "geometry": {"type": "Polygon", "coordinates": [[[-97.0570043, 36.1283106], [-97.0570023, 36.1282511], [-97.0572764, 36.1282483], [-97.0572761, 36.1283077], [-97.0570043, 36.1283106]]]}, "properties": {"osm_id": 270260075, "building": "yes", "name": "Game X change", "height": null, "height_m": null, "levels": null, "tract_id": "40119010501", "tract_name": "105.01", "tags": {"addr:housenumber": "601", "addr:street": "North Main Street", "building": "yes", "name": "Game X change", "opening_hours": "Mo-Sa 10:00-21:00; Su 12:00-18:00", "shop": "electronics", "wheelchair": "yes"}}}, {"type": "Feature", "geometry": {"type": "Polygon", "coordinates": [[[-97.0570245, 36.1297213], [-97.0570254, 36.1296741], [-97.0572971, 36.1296725], [-97.0572991, 36.1297246], [-97.0570245, 36.1297213]]]}, "properties": {"osm_id": 270260081, "building": "yes", "name": "Regional Finance", "height": null, "height_m": null, "levels": null, "tract_id": "40119010501", "tract_name": "105.01", "tags": {"addr:street": "North Main Street", "building": "yes", "name": "Regional Finance", "office": "insurance", "opening_hours": "Mo-Fr 09:00-18:00", "wheelchair": "yes"}}}, {"type": "Feature", "geometry": {"type": "Polygon", "coordinates": [[[-97.0570054, 36.128427], [-97.0570041, 36.1283698], [-97.0572783, 36.128367], [-97.0572771, 36.1284252], [-97.0570054, 36.128427]]]}, "properties": {"osm_id": 270260084, "building": "yes", "name": "Supercuts", "height": null, "height_m": null, "levels": null, "tract_id": "40119010501", "tract_name": "105.01", "tags": {"addr:housenumber": "505", "addr:street": "North Main Street", "brand": "Supercuts", "brand:wikidata": "Q7643239", "building": "yes", "name": "Supercuts", "opening_hours": "Mo-Fr 09:00-20:00; Sa 08:00-19:00; Su 10:00-18:00", "phone": "405-372-2900", "shop": "hairdresser", "wheelchair": "yes"}}}, {"type": "Feature", "geometry": {"type": "Polygon", "coordinates": [[[-97.0520361, 36.1300734], [-97.0517644, 36.1300774], [-97.0517684, 36.1302507], [-97.052036, 36.1302467], [-97.0520361, 36.1300734]]]}, "properties": {"osm_id": 270261734, "building": "yes", "name": "Phillips 66", "height": null, "height_m": null, "levels": null, "tract_id": "40119010501", "tract_name": "105.01", "tags": {"addr:city": "Stillwater", "addr:postcode": "74075", "addr:street": "North Perkins Road", "amenity": "fuel", "brand": "Phillips 66", "brand:wikidata": "Q1656230", "building": "yes", "fuel:e10": "yes", "fuel:octane_87": "yes", "fuel:octane_89": "yes", "fuel:octane_91": "yes", "name": "Phillips 66", "website": "https://www.phillips66gas.com/station/P66-ONCUE-EXPRESS-0006-0000715485/", "wheelchair": "yes"}}}, {"type": "Feature", "geometry": {"type": "Polygon", "coordinates": [[[-97.0543882, 36.1302425], [-97.054392, 36.1301059], [-97.0541518, 36.1301015], [-97.0541501, 36.1302399], [-97.0543882, 36.1302425]]]}, "properties": {"osm_id": 301016649, "building": "yes", "name": "", "height": null, "height_m": null, "levels": null, "tract_id": "40119010501", "tract_name": "105.01", "tags": {"building": "yes"}}}, {"type": "Feature", "geometry": {"type": "Polygon", "coordinates": [[[-97.0541501, 36.1302399], [-97.0539982, 36.1302387], [-97.0540001, 36.1300832], [-97.0541624, 36.1300845], [-97.0541518, 36.1301015], [-97.0541501, 36.1302399]]]}, "properties": {"osm_id": 301016650, "building": "yes", "name": "", "height": null, "height_m": null, "levels": null, "tract_id": "40119010501", "tract_name": "105.01", "tags": {"building": "yes"}}}, {"type": "Feature", "geometry": {"type": "Polygon", "coordinates": [[[-97.0531127, 36.1236239], [-97.0531132, 36.1237524], [-97.0530902, 36.1237525], [-97.0530912, 36.1240109], [-97.0531097, 36.1240146], [-97.0531106, 36.1241371], [-97.0532496, 36.1241364], [-97.0532494, 36.1241126], [-97.0532632, 36.1241125], [-97.0532626, 36.1240318], [-97.0532346, 36.1240319], [-97.0532342, 36.1239884], [-97.0532525, 36.1239883], [-97.0532518, 36.1239072], [-97.0532333, 36.1239073], [-97.0532329, 36.1238603], [-97.053256, 36.1238665], [-97.0532556, 36.1237722], [-97.053234, 36.1237722], [-97.0532339, 36.1237392], [-97.0532676, 36.1237391], [-97.0532672, 36.1236235], [-97.0531127, 36.1236239]]]}, "properties": {"osm_id": 354179298, "building": "apartments", "name": "", "height": null, "height_m": null, "levels": null, "tract_id": "40119010501", "tract_name": "105.01", "tags": {"building": "apartments"}}}, {"type": "Feature", "geometry": {"type": "Polygon", "coordinates": [[[-97.0535317, 36.1242505], [-97.0534342, 36.124153], [-97.0534171, 36.1241642], [-97.0533054, 36.1240525], [-97.0534162, 36.1239802], [-97.0534332, 36.1239972], [-97.0534532, 36.1239959], [-97.0535504, 36.1240941], [-97.0535672, 36.1240833], [-97.0536396, 36.1241565], [-97.0536396, 36.1241801], [-97.0535317, 36.1242505]]]}, "properties": {"osm_id": 354179299, "building": "apartments", "name": "", "height": null, "height_m": null, "levels": null, "tract_id": "40119010501", "tract_name": "105.01", "tags": {"building": "apartments"}}}, {"type": "Feature", "geometry": {"type": "Polygon", "coordinates": [[[-97.0535767, 36.1236626], [-97.0534693, 36.1237327], [-97.0534839, 36.1237472], [-97.0534615, 36.1237619], [-97.0535437, 36.1238439], [-97.0535605, 36.1238329], [-97.0535843, 36.1238567], [-97.0535691, 36.1238667], [-97.0536332, 36.1239307], [-97.0536587, 36.1239141], [-97.0536771, 36.1239324], [-97.0536862, 36.1239265], [-97.0537023, 36.1239426], [-97.0536794, 36.1239576], [-97.053745, 36.1240232], [-97.0537698, 36.1240069], [-97.0537864, 36.1240235], [-97.0538734, 36.1239666], [-97.0537775, 36.1238709], [-97.0537654, 36.1238788], [-97.0536669, 36.1237805], [-97.0536838, 36.1237694], [-97.0535767, 36.1236626]]]}, "properties": {"osm_id": 354179300, "building": "apartments", "name": "", "height": null, "height_m": null, "levels": null, "tract_id": "40119010501", "tract_name": "105.01", "tags": {"building": "apartments"}}}, {"type": "Feature", "geometry": {"type": "Polygon", "coordinates": [[[-97.054015, 36.1247111], [-97.053709, 36.1244073], [-97.053806, 36.1243435], [-97.0538245, 36.1243619], [-97.0538468, 36.1243472], [-97.0539108, 36.1244107], [-97.0538854, 36.1244274], [-97.05392, 36.1244618], [-97.0539468, 36.1244442], [-97.0540175, 36.1245144], [-97.053999, 36.1245266], [-97.0540223, 36.1245497], [-97.0540451, 36.1245347], [-97.05412, 36.1246091], [-97.0541055, 36.1246187], [-97.0541255, 36.1246385], [-97.054015, 36.1247111]]]}, "properties": {"osm_id": 354179301, "building": "apartments", "name": "", "height": null, "height_m": null, "levels": null, "tract_id": "40119010501", "tract_name": "105.01", "tags": {"building": "apartments"}}}, {"type": "Feature", "geometry": {"type": "Polygon", "coordinates": [[[-97.0540779, 36.1252656], [-97.0542079, 36.1252642], [-97.0542075, 36.1252423], [-97.0542341, 36.125242], [-97.0542326, 36.1251492], [-97.054203, 36.1251495], [-97.0542026, 36.1251289], [-97.0540757, 36.1251302], [-97.0540779, 36.1252656]]]}, "properties": {"osm_id": 354179302, "building": "apartments", "name": "", "height": null, "height_m": null, "levels": null, "tract_id": "40119010501", "tract_name": "105.01", "tags": {"building": "apartments"}}}, {"type": "Feature", "geometry": {"type": "Polygon", "coordinates": [[[-97.0544917, 36.1254519], [-97.0544901, 36.1253088], [-97.0544702, 36.1253089], [-97.0544677, 36.1250695], [-97.0544817, 36.1250658], [-97.0544796, 36.1249364], [-97.0543582, 36.1249376], [-97.0543586, 36.1249616], [-97.0543274, 36.1249619], [-97.0543287, 36.1250422], [-97.0543559, 36.1250419], [-97.0543567, 36.1250901], [-97.0543095, 36.1250906], [-97.0543107, 36.125166], [-97.0543403, 36.1251657], [-97.054341, 36.1252106], [-97.05431, 36.1252109], [-97.0543113, 36.1252957], [-97.0543384, 36.1252955], [-97.0543388, 36.1253227], [-97.0543518, 36.1253225], [-97.0543519, 36.1253336], [-97.0543173, 36.1253339], [-97.0543185, 36.1254345], [-97.0543479, 36.1254343], [-97.0543481, 36.125453], [-97.0544917, 36.1254519]]]}, "properties": {"osm_id": 354179303, "building": "apartments", "name": "", "height": null, "height_m": null, "levels": null, "tract_id": "40119010501", "tract_name": "105.01", "tags": {"building": "apartments"}}}, {"type": "Feature", "geometry": {"type": "Polygon", "coordinates": [[[-97.0543525, 36.1247835], [-97.0544695, 36.1247825], [-97.054469, 36.1247481], [-97.0544794, 36.124748], [-97.054478, 36.1246501], [-97.0544603, 36.1246503], [-97.0544585, 36.1245285], [-97.0544747, 36.1245283], [-97.0544727, 36.1243922], [-97.0543522, 36.1243934], [-97.0543526, 36.1244175], [-97.0543215, 36.1244178], [-97.0543228, 36.1245038], [-97.0543513, 36.1245035], [-97.0543515, 36.1245184], [-97.0543307, 36.1245186], [-97.0543311, 36.1245453], [-97.0543057, 36.1245455], [-97.054307, 36.1246354], [-97.0543354, 36.1246351], [-97.0543357, 36.1246556], [-97.0543583, 36.1246554], [-97.0543585, 36.1246749], [-97.0543263, 36.1246752], [-97.0543275, 36.1247603], [-97.0543522, 36.1247601], [-97.0543525, 36.1247835]]]}, "properties": {"osm_id": 354179304, "building": "apartments", "name": "", "height": null, "height_m": null, "levels": null, "tract_id": "40119010501", "tract_name": "105.01", "tags": {"building": "apartments"}}}, {"type": "Feature", "geometry": {"type": "Polygon", "coordinates": [[[-97.054083, 36.1242307], [-97.0539201, 36.1242321], [-97.0539184, 36.1241034], [-97.0540813, 36.124102], [-97.054083, 36.1242307]]]}, "properties": {"osm_id": 354179305, "building": "apartments", "name": "", "height": null, "height_m": null, "levels": null, "tract_id": "40119010501", "tract_name": "105.01", "tags": {"building": "apartments"}}}, {"type": "Feature", "geometry": {"type": "Polygon", "coordinates": [[[-97.0543599, 36.1242465], [-97.0543594, 36.1242234], [-97.0543226, 36.1242239], [-97.0543209, 36.12414], [-97.0543519, 36.1241396], [-97.0543511, 36.1241], [-97.0543192, 36.1241004], [-97.0543173, 36.1240089], [-97.0543519, 36.1240085], [-97.0543515, 36.1239893], [-97.0544677, 36.1239878], [-97.0544729, 36.124245], [-97.0543599, 36.1242465]]]}, "properties": {"osm_id": 354179306, "building": "apartments", "name": "", "height": null, "height_m": null, "levels": null, "tract_id": "40119010501", "tract_name": "105.01", "tags": {"building": "apartments"}}}, {"type": "Feature", "geometry": {"type": "Polygon", "coordinates": [[[-97.0540648, 36.1240556], [-97.0540652, 36.1240312], [-97.0540875, 36.1240315], [-97.0540887, 36.1239516], [-97.0540622, 36.1239513], [-97.0540625, 36.1239312], [-97.0540849, 36.1239314], [-97.0540853, 36.1239072], [-97.0541148, 36.1239075], [-97.0541161, 36.1238211], [-97.0540804, 36.1238207], [-97.054081, 36.1237839], [-97.054101, 36.1237841], [-97.0541024, 36.1236926], [-97.0540724, 36.1236923], [-97.0540728, 36.1236685], [-97.0539423, 36.1236672], [-97.0539401, 36.1238113], [-97.0539562, 36.1238115], [-97.0539546, 36.1239213], [-97.0539392, 36.1239212], [-97.0539372, 36.1240543], [-97.0540648, 36.1240556]]]}, "properties": {"osm_id": 354179307, "building": "apartments", "name": "", "height": null, "height_m": null, "levels": null, "tract_id": "40119010501", "tract_name": "105.01", "tags": {"building": "apartments"}}}, {"type": "Feature", "geometry": {"type": "Polygon", "coordinates": [[[-97.0543488, 36.1238048], [-97.0543484, 36.1237881], [-97.0543235, 36.1237885], [-97.0543216, 36.1236927], [-97.0543505, 36.1236923], [-97.0543498, 36.1236559], [-97.0543225, 36.1236563], [-97.0543207, 36.1235683], [-97.0543518, 36.1235679], [-97.0543513, 36.1235412], [-97.0544728, 36.1235396], [-97.0544782, 36.1238031], [-97.0543488, 36.1238048]]]}, "properties": {"osm_id": 354179308, "building": "apartments", "name": "", "height": null, "height_m": null, "levels": null, "tract_id": "40119010501", "tract_name": "105.01", "tags": {"building": "apartments"}}}, {"type": "Feature", "geometry": {"type": "Polygon", "coordinates": [[[-97.0540133, 36.123618], [-97.0538597, 36.1236193], [-97.0538598, 36.1236319], [-97.0536915, 36.1236332], [-97.0536913, 36.1236191], [-97.0535369, 36.1236204], [-97.0535357, 36.1235161], [-97.0535682, 36.1235159], [-97.0535679, 36.1234921], [-97.0536768, 36.1234912], [-97.0536771, 36.1235156], [-97.0537089, 36.1235153], [-97.0537091, 36.1235283], [-97.0537223, 36.1235282], [-97.053722, 36.1235034], [-97.0538341, 36.1235025], [-97.0538344, 36.1235283], [-97.0538867, 36.1235279], [-97.0538863, 36.1235], [-97.0539813, 36.1234992], [-97.0539815, 36.1235188], [-97.054012, 36.1235186], [-97.0540133, 36.123618]]]}, "properties": {"osm_id": 354179309, "building": "apartments", "name": "", "height": null, "height_m": null, "levels": null, "tract_id": "40119010501", "tract_name": "105.01", "tags": {"building": "apartments"}}}, {"type": "Feature", "geometry": {"type": "Polygon", "coordinates": [[[-97.0549503, 36.1166938], [-97.0549497, 36.1164683], [-97.054989, 36.1164682], [-97.0549888, 36.1163646], [-97.0548576, 36.1163648], [-97.0548577, 36.1164054], [-97.0548159, 36.1164055], [-97.0548164, 36.1166187], [-97.054849, 36.1166186], [-97.0548492, 36.1166939], [-97.0549503, 36.1166938]]]}, "properties": {"osm_id": 370968272, "building": "yes", "name": "Club Carwash", "height": null, "height_m": null, "levels": null, "tract_id": "40119010501", "tract_name": "105.01", "tags": {"amenity": "car_wash", "automated": "yes", "building": "yes", "name": "Club Carwash", "self_service": "no"}}}, {"type": "Feature", "geometry": {"type": "Polygon", "coordinates": [[[-97.0551073, 36.1164503], [-97.0551679, 36.1164498], [-97.0551721, 36.1167907], [-97.0551116, 36.1167912], [-97.0551073, 36.1164503]]]}, "properties": {"osm_id": 370968273, "building": "roof", "name": "", "height": null, "height_m": null, "levels": null, "tract_id": "40119010501", "tract_name": "105.01", "tags": {"building": "roof", "layer": "1"}}}, {"type": "Feature", "geometry": {"type": "Polygon", "coordinates": [[[-97.0550794, 36.1163823], [-97.0550775, 36.116283], [-97.0551421, 36.1162821], [-97.0551441, 36.1163815], [-97.0550794, 36.1163823]]]}, "properties": {"osm_id": 370968276, "building": "roof", "name": "", "height": null, "height_m": null, "levels": null, "tract_id": "40119010501", "tract_name": "105.01", "tags": {"building": "roof", "layer": "1"}}}, {"type": "Feature", "geometry": {"type": "Polygon", "coordinates": [[[-97.0555793, 36.1161052], [-97.0558533, 36.1161032], [-97.0558563, 36.1163797], [-97.0556686, 36.1163811], [-97.0556698, 36.1164811], [-97.0558614, 36.1164797], [-97.0558635, 36.1166665], [-97.0553618, 36.1166701], [-97.0553603, 36.1165355], [-97.055517, 36.1165343], [-97.0555153, 36.1163886], [-97.0555399, 36.1163885], [-97.055539, 36.1163088], [-97.0555816, 36.1163085], [-97.0555793, 36.1161052]]]}, "properties": {"osm_id": 373249431, "building": "yes", "name": "Willis Granite", "height": null, "height_m": null, "levels": null, "tract_id": "40119010501", "tract_name": "105.01", "tags": {"addr:city": "Stillwater", "addr:country": "US", "addr:housenumber": "302", "addr:postcode": "74074", "addr:state": "OK", "addr:street": "East 6th Avenue", "building": "yes", "name": "Willis Granite", "shop": "granite"}}}, {"type": "Feature", "geometry": {"type": "Polygon", "coordinates": [[[-97.0556523, 36.1169967], [-97.0553671, 36.1169995], [-97.0553654, 36.1168856], [-97.0553991, 36.1168852], [-97.0553981, 36.1168215], [-97.0553663, 36.1168218], [-97.0553647, 36.1167199], [-97.0556515, 36.116717], [-97.0556527, 36.1168306], [-97.0556653, 36.1168356], [-97.0556766, 36.1168424], [-97.0556826, 36.1168489], [-97.055686, 36.1168578], [-97.0556847, 36.1168674], [-97.0556782, 36.116877], [-97.0556662, 36.1168856], [-97.0556504, 36.116887], [-97.0556523, 36.1169967]]]}, "properties": {"osm_id": 373249432, "building": "yes", "name": "", "height": null, "height_m": null, "levels": null, "tract_id": "40119010501", "tract_name": "105.01", "tags": {"building": "yes"}}}, {"type": "Feature", "geometry": {"type": "Polygon", "coordinates": [[[-97.0555362, 36.1161074], [-97.0553671, 36.1161094], [-97.0553694, 36.1162318], [-97.0555385, 36.1162297], [-97.0555362, 36.1161074]]]}, "properties": {"osm_id": 373249433, "building": "yes", "name": "", "height": null, "height_m": null, "levels": null, "tract_id": "40119010501", "tract_name": "105.01", "tags": {"building": "yes"}}}, {"type": "Feature", "geometry": {"type": "Polygon", "coordinates": [[[-97.0524131, 36.1186406], [-97.0524131, 36.1184981], [-97.052051, 36.1184981], [-97.052051, 36.1186401], [-97.0521641, 36.1186403], [-97.0524131, 36.1186406]]]}, "properties": {"osm_id": 473354741, "building": "yes", "name": "City of Stillwater Fleet Maintenance", "height": null, "height_m": 6.0, "levels": 2, "tract_id": "40119010501", "tract_name": "105.01", "tags": {"addr:city": "Stillwater", "addr:housenumber": "505", "addr:postcode": "74074", "addr:state": "OK", "addr:street": "East 3rd Avenue", "building": "yes", "building:levels": "2", "name": "City of Stillwater Fleet Maintenance", "roof:shape": "flat"}}}, {"type": "Feature", "geometry": {"type": "Polygon", "coordinates": [[[-97.0543792, 36.11773], [-97.0541727, 36.117574], [-97.0540681, 36.1176585], [-97.0542773, 36.1178145], [-97.0543792, 36.11773]]]}, "properties": {"osm_id": 473354748, "building": "yes", "name": "", "height": null, "height_m": null, "levels": null, "tract_id": "40119010501", "tract_name": "105.01", "tags": {"building": "yes"}}}, {"type": "Feature", "geometry": {"type": "Polygon", "coordinates": [[[-97.053765, 36.1175783], [-97.053765, 36.1175046], [-97.0539286, 36.1175046], [-97.0539286, 36.1175783], [-97.053765, 36.1175783]]]}, "properties": {"osm_id": 473354751, "building": "yes", "name": "", "height": null, "height_m": null, "levels": null, "tract_id": "40119010501", "tract_name": "105.01", "tags": {"building": "yes"}}}, {"type": "Feature", "geometry": {"type": "Polygon", "coordinates": [[[-97.0552286, 36.1298869], [-97.0553271, 36.1298878], [-97.0553231, 36.1296758], [-97.0552005, 36.1296774], [-97.0552045, 36.1298853], [-97.0552286, 36.1298869]]]}, "properties": {"osm_id": 688597226, "building": "roof", "name": "", "height": null, "height_m": null, "levels": null, "tract_id": "40119010501", "tract_name": "105.01", "tags": {"building": "roof", "layer": "1"}}}, {"type": "Feature", "geometry": {"type": "Polygon", "coordinates": [[[-97.0540971, 36.1192187], [-97.0539372, 36.1192181], [-97.0539377, 36.1191408], [-97.0540165, 36.1191411], [-97.0540166, 36.1191285], [-97.0540363, 36.1191286], [-97.0540365, 36.1191046], [-97.0540977, 36.1191048], [-97.0540971, 36.1192187]]]}, "properties": {"osm_id": 985412564, "building": "yes", "name": "", "height": null, "height_m": null, "levels": null, "tract_id": "40119010501", "tract_name": "105.01", "tags": {"building": "yes"}}}, {"type": "Feature", "geometry": {"type": "Polygon", "coordinates": [[[-97.0543329, 36.1196448], [-97.054203, 36.1196472], [-97.0542008, 36.1195692], [-97.0542741, 36.1195678], [-97.0542742, 36.1195731], [-97.0543309, 36.1195721], [-97.0543329, 36.1196448]]]}, "properties": {"osm_id": 985412565, "building": "yes", "name": "", "height": null, "height_m": null, "levels": null, "tract_id": "40119010501", "tract_name": "105.01", "tags": {"building": "yes"}}}, {"type": "Feature", "geometry": {"type": "Polygon", "coordinates": [[[-97.0544483, 36.1167338], [-97.0539232, 36.1167325], [-97.0539246, 36.1163466], [-97.0539563, 36.1163467], [-97.0544497, 36.1163478], [-97.0544483, 36.1167338]]]}, "properties": {"osm_id": 1144964829, "building": "yes", "name": "Agri-Center", "height": null, "height_m": null, "levels": null, "tract_id": "40119010501", "tract_name": "105.01", "tags": {"addr:city": "Stillwater", "addr:housenumber": "502", "addr:postcode": "74074", "addr:state": "OK", "addr:street": "East 6th Avenue", "building": "yes", "name": "Agri-Center", "opening_hours": "Mo-Fr 07:30-18:00; Sa 07:30-17:00", "operator": "Stillwater Milling Company", "phone": "+1-405-372-2766", "roof:shape": "gabled", "shop": "agrarian"}}}, {"type": "Feature", "geometry": {"type": "Polygon", "coordinates": [[[-97.0559769, 36.1279236], [-97.0559741, 36.1277832], [-97.0559599, 36.1277834], [-97.0559584, 36.1277054], [-97.056072, 36.1277039], [-97.0560687, 36.1275419], [-97.0559644, 36.1275432], [-97.0559619, 36.1274187], [-97.0557163, 36.1274218], [-97.0557264, 36.1279286], [-97.05581, 36.1279275], [-97.0558102, 36.1279363], [-97.0558751, 36.1279355], [-97.0558749, 36.1279249], [-97.0559769, 36.1279236]]]}, "properties": {"osm_id": 1193827833, "building": "commercial", "name": "Home2 Suites by Hilton Stillwater;Home2 Suites by Hilton", "height": 20.0, "height_m": 20.0, "levels": 5, "tract_id": "40119010501", "tract_name": "105.01", "tags": {"addr:city": "Stillwater", "addr:housenumber": "306", "addr:postcode": "74074", "addr:state": "OK", "addr:street": "East Hall of Fame Avenue", "branch": "Stillwater", "brand": "Home2 Suites", "brand:wikidata": "Q5887912", "building": "commercial", "building:levels": "5", "contact:fax": "+1 405-372-2552", "contact:phone": "+1 405-372-2550", "fax": "+1 405-372-2552", "height": "20", "internet_access": "yes", "internet_access:fee": "no", "name": "Home2 Suites by Hilton Stillwater;Home2 Suites by Hilton", "official_name": "Home2 Suites by Hilton", "phone": "+1 405-372-2550", "ref": "SWOHTHT", "tourism": "hotel", "website": "https://www.hilton.com/en/hotels/swohtht-home2-suites-stillwater/"}}}, {"type": "Feature", "geometry": {"type": "Polygon", "coordinates": [[[-97.0578107, 36.1231561], [-97.0578661, 36.1230864], [-97.057823, 36.1230506], [-97.0578908, 36.12296], [-97.0578218, 36.1229212], [-97.0578119, 36.1228515], [-97.0577121, 36.1228615], [-97.0577293, 36.1229351], [-97.0576689, 36.1230118], [-97.0577491, 36.1230486], [-97.0577145, 36.1230944], [-97.0578107, 36.1231561]]]}, "properties": {"osm_id": 1229585918, "building": "house", "name": "", "height": null, "height_m": null, "levels": null, "tract_id": "40119010501", "tract_name": "105.01", "tags": {"building": "house"}}}, {"type": "Feature", "geometry": {"type": "Polygon", "coordinates": [[[-97.0575727, 36.1231913], [-97.0577296, 36.1231912], [-97.0577248, 36.1231114], [-97.0576494, 36.1231092], [-97.0576494, 36.1230853], [-97.0575841, 36.1230854], [-97.057584, 36.1230665], [-97.0575371, 36.1230665], [-97.0575371, 36.1230477], [-97.0574804, 36.1230477], [-97.0574804, 36.1230615], [-97.0574471, 36.1230615], [-97.057437, 36.1230616], [-97.0574372, 36.123187], [-97.0575345, 36.1231869], [-97.0575345, 36.1231571], [-97.0575727, 36.123157], [-97.0575727, 36.1231913]]]}, "properties": {"osm_id": 1229585919, "building": "house", "name": "", "height": null, "height_m": null, "levels": null, "tract_id": "40119010501", "tract_name": "105.01", "tags": {"building": "house"}}}, {"type": "Feature", "geometry": {"type": "Polygon", "coordinates": [[[-97.0577309, 36.1236072], [-97.0579324, 36.1236052], [-97.05793, 36.1234573], [-97.0577846, 36.1234573], [-97.0577821, 36.123523], [-97.0577069, 36.123524], [-97.0577118, 36.1236067], [-97.0577309, 36.1236072]]]}, "properties": {"osm_id": 1229585920, "building": "house", "name": "", "height": null, "height_m": null, "levels": null, "tract_id": "40119010501", "tract_name": "105.01", "tags": {"building": "house"}}}, {"type": "Feature", "geometry": {"type": "Polygon", "coordinates": [[[-97.0576638, 36.1235907], [-97.0576625, 36.1234842], [-97.0575313, 36.1234837], [-97.0575307, 36.1235912], [-97.0576638, 36.1235907]]]}, "properties": {"osm_id": 1229585921, "building": "house", "name": "", "height": null, "height_m": null, "levels": null, "tract_id": "40119010501", "tract_name": "105.01", "tags": {"building": "house"}}}, {"type": "Feature", "geometry": {"type": "Polygon", "coordinates": [[[-97.0574587, 36.1235999], [-97.0574594, 36.1235501], [-97.0575024, 36.1235505], [-97.0575033, 36.1234865], [-97.0574546, 36.123486], [-97.0574547, 36.1234782], [-97.0574101, 36.1234778], [-97.0574095, 36.1235178], [-97.0573597, 36.1235174], [-97.0573585, 36.1236084], [-97.0574269, 36.123609], [-97.057427, 36.1235996], [-97.0574587, 36.1235999]]]}, "properties": {"osm_id": 1229585922, "building": "house", "name": "", "height": null, "height_m": null, "levels": null, "tract_id": "40119010501", "tract_name": "105.01", "tags": {"building": "house"}}}, {"type": "Feature", "geometry": {"type": "Polygon", "coordinates": [[[-97.0572891, 36.1235972], [-97.0572876, 36.1235388], [-97.0572736, 36.1235391], [-97.0572764, 36.123512], [-97.0572349, 36.1235101], [-97.0572335, 36.123515], [-97.0572241, 36.1235082], [-97.0571961, 36.1235063], [-97.0571863, 36.1235165], [-97.0571905, 36.1235957], [-97.057226, 36.1235935], [-97.0572269, 36.1236063], [-97.057262, 36.1236059], [-97.0572615, 36.1235968], [-97.0572891, 36.1235972]]]}, "properties": {"osm_id": 1229585923, "building": "house", "name": "", "height": null, "height_m": null, "levels": null, "tract_id": "40119010501", "tract_name": "105.01", "tags": {"building": "house"}}}, {"type": "Feature", "geometry": {"type": "Polygon", "coordinates": [[[-97.0573425, 36.1235103], [-97.057284, 36.1235113], [-97.0572821, 36.1234536], [-97.0573425, 36.1234531], [-97.0573425, 36.1235103]]]}, "properties": {"osm_id": 1229585924, "building": "shed", "name": "", "height": null, "height_m": null, "levels": null, "tract_id": "40119010501", "tract_name": "105.01", "tags": {"building": "shed"}}}, {"type": "Feature", "geometry": {"type": "Polygon", "coordinates": [[[-97.057143, 36.1236596], [-97.0571387, 36.1235378], [-97.0571696, 36.1235378], [-97.0571654, 36.1234465], [-97.0570832, 36.1234465], [-97.0570832, 36.123534], [-97.0570337, 36.1235313], [-97.0570327, 36.1235683], [-97.0570206, 36.1235687], [-97.0570206, 36.1236053], [-97.0570696, 36.1236075], [-97.0570706, 36.1236619], [-97.057143, 36.1236596]]]}, "properties": {"osm_id": 1229585925, "building": "house", "name": "", "height": null, "height_m": null, "levels": null, "tract_id": "40119010501", "tract_name": "105.01", "tags": {"building": "house"}}}, {"type": "Feature", "geometry": {"type": "Polygon", "coordinates": [[[-97.0569538, 36.123604], [-97.0568476, 36.1236046], [-97.0568512, 36.1235251], [-97.0569524, 36.1235177], [-97.0569538, 36.123604]]]}, "properties": {"osm_id": 1229585926, "building": "house", "name": "", "height": null, "height_m": null, "levels": null, "tract_id": "40119010501", "tract_name": "105.01", "tags": {"building": "house"}}}, {"type": "Feature", "geometry": {"type": "Polygon", "coordinates": [[[-97.0566806, 36.1236051], [-97.0567202, 36.1236046], [-97.0567209, 36.1236154], [-97.0567967, 36.1236154], [-97.0567974, 36.1235188], [-97.0566792, 36.1235171], [-97.0566806, 36.1236051]]]}, "properties": {"osm_id": 1229585927, "building": "house", "name": "", "height": null, "height_m": null, "levels": null, "tract_id": "40119010501", "tract_name": "105.01", "tags": {"building": "house"}}}, {"type": "Feature", "geometry": {"type": "Polygon", "coordinates": [[[-97.0565222, 36.1235896], [-97.0566056, 36.1235896], [-97.0566056, 36.1236069], [-97.0566594, 36.1236069], [-97.0566596, 36.12351], [-97.0565223, 36.1235099], [-97.0565222, 36.1235896]]]}, "properties": {"osm_id": 1229585928, "building": "house", "name": "", "height": null, "height_m": null, "levels": null, "tract_id": "40119010501", "tract_name": "105.01", "tags": {"building": "house"}}}, {"type": "Feature", "geometry": {"type": "Polygon", "coordinates": [[[-97.0564819, 36.1236047], [-97.056482, 36.1235133], [-97.0563382, 36.1235132], [-97.0563381, 36.1235925], [-97.0564313, 36.1235926], [-97.0564313, 36.1236046], [-97.0564819, 36.1236047]]]}, "properties": {"osm_id": 1229585929, "building": "house", "name": "", "height": null, "height_m": null, "levels": null, "tract_id": "40119010501", "tract_name": "105.01", "tags": {"building": "house"}}}, {"type": "Feature", "geometry": {"type": "Polygon", "coordinates": [[[-97.0561218, 36.1236001], [-97.0562552, 36.1236028], [-97.0562573, 36.1235034], [-97.0561249, 36.1235016], [-97.0561218, 36.1236001]]]}, "properties": {"osm_id": 1229585930, "building": "house", "name": "", "height": null, "height_m": null, "levels": null, "tract_id": "40119010501", "tract_name": "105.01", "tags": {"building": "house"}}}, {"type": "Feature", "geometry": {"type": "Polygon", "coordinates": [[[-97.0568809, 36.1224378], [-97.0568793, 36.1224048], [-97.0569179, 36.1224044], [-97.056919, 36.1223598], [-97.0567463, 36.1223632], [-97.0567404, 36.1223806], [-97.0566765, 36.122381], [-97.0566776, 36.1224352], [-97.0567484, 36.1224321], [-97.0567484, 36.1224412], [-97.0568809, 36.1224378]]]}, "properties": {"osm_id": 1229585931, "building": "house", "name": "", "height": null, "height_m": null, "levels": null, "tract_id": "40119010501", "tract_name": "105.01", "tags": {"building": "house"}}}, {"type": "Feature", "geometry": {"type": "Polygon", "coordinates": [[[-97.0567762, 36.12245], [-97.0566786, 36.1224503], [-97.056679, 36.1225402], [-97.0567766, 36.1225399], [-97.0567762, 36.12245]]]}, "properties": {"osm_id": 1229585932, "building": "house", "name": "", "height": null, "height_m": null, "levels": null, "tract_id": "40119010501", "tract_name": "105.01", "tags": {"building": "house"}}}, {"type": "Feature", "geometry": {"type": "Polygon", "coordinates": [[[-97.0570626, 36.1221133], [-97.0570086, 36.1221143], [-97.0570081, 36.1220979], [-97.0569744, 36.1220927], [-97.056974, 36.1220473], [-97.0569675, 36.122047], [-97.0569679, 36.1219987], [-97.0569756, 36.1220001], [-97.056976, 36.1219932], [-97.0570825, 36.1219879], [-97.0571021, 36.1219876], [-97.0571017, 36.1220716], [-97.0571021, 36.1220966], [-97.0570626, 36.1220982], [-97.0570626, 36.1221133]]]}, "properties": {"osm_id": 1229585933, "building": "house", "name": "", "height": null, "height_m": null, "levels": null, "tract_id": "40119010501", "tract_name": "105.01", "tags": {"building": "house"}}}, {"type": "Feature", "geometry": {"type": "Polygon", "coordinates": [[[-97.0568963, 36.1219882], [-97.0568996, 36.1220457], [-97.0568203, 36.1220477], [-97.0568187, 36.1219922], [-97.0568963, 36.1219882]]]}, "properties": {"osm_id": 1229585934, "building": "shed", "name": "", "height": null, "height_m": null, "levels": null, "tract_id": "40119010501", "tract_name": "105.01", "tags": {"building": "shed"}}}, {"type": "Feature", "geometry": {"type": "Polygon", "coordinates": [[[-97.0571031, 36.1219424], [-97.0571024, 36.1219081], [-97.057085, 36.1219084], [-97.0570841, 36.1218631], [-97.0570462, 36.1218636], [-97.0570459, 36.1218444], [-97.0569424, 36.1218457], [-97.0569429, 36.1218705], [-97.0569177, 36.1218708], [-97.0569191, 36.1219448], [-97.0571031, 36.1219424]]]}, "properties": {"osm_id": 1229585935, "building": "house", "name": "", "height": null, "height_m": null, "levels": null, "tract_id": "40119010501", "tract_name": "105.01", "tags": {"building": "house"}}}, {"type": "Feature", "geometry": {"type": "Polygon", "coordinates": [[[-97.0569047, 36.1216305], [-97.0569042, 36.1215295], [-97.0571386, 36.1215278], [-97.0571365, 36.1216287], [-97.0569047, 36.1216305]]]}, "properties": {"osm_id": 1229585936, "building": "house", "name": "", "height": null, "height_m": null, "levels": null, "tract_id": "40119010501", "tract_name": "105.01", "tags": {"building": "house"}}}, {"type": "Feature", "geometry": {"type": "Polygon", "coordinates": [[[-97.0567836, 36.1215604], [-97.0567023, 36.1215608], [-97.0567021, 36.1215296], [-97.0567833, 36.1215292], [-97.0567836, 36.1215604]]]}, "properties": {"osm_id": 1229585937, "building": "greenhouse", "name": "", "height": null, "height_m": null, "levels": null, "tract_id": "40119010501", "tract_name": "105.01", "tags": {"building": "greenhouse"}}}, {"type": "Feature", "geometry": {"type": "Polygon", "coordinates": [[[-97.0570034, 36.1217752], [-97.0570038, 36.1218042], [-97.0570792, 36.1218036], [-97.0570789, 36.1217784], [-97.0571228, 36.121778], [-97.0571214, 36.1216684], [-97.0569824, 36.1216696], [-97.0569826, 36.1216853], [-97.0569485, 36.1216856], [-97.0569496, 36.1217683], [-97.056979, 36.121768], [-97.0569791, 36.1217754], [-97.0570034, 36.1217752]]]}, "properties": {"osm_id": 1229585938, "building": "house", "name": "", "height": null, "height_m": null, "levels": null, "tract_id": "40119010501", "tract_name": "105.01", "tags": {"building": "house"}}}, {"type": "Feature", "geometry": {"type": "Polygon", "coordinates": [[[-97.0566172, 36.1220569], [-97.0566168, 36.1220432], [-97.0566591, 36.1220422], [-97.0566551, 36.121926], [-97.0565233, 36.1219289], [-97.0565272, 36.122044], [-97.0565661, 36.1220432], [-97.0565666, 36.122058], [-97.0566172, 36.1220569]]]}, "properties": {"osm_id": 1229585939, "building": "house", "name": "", "height": null, "height_m": null, "levels": null, "tract_id": "40119010501", "tract_name": "105.01", "tags": {"building": "house"}}}, {"type": "Feature", "geometry": {"type": "Polygon", "coordinates": [[[-97.0576815, 36.1215514], [-97.0576834, 36.1215227], [-97.0577011, 36.1215234], [-97.0576946, 36.121454], [-97.0574994, 36.1214518], [-97.0575003, 36.1215491], [-97.0575321, 36.1215491], [-97.0575339, 36.1215574], [-97.0576815, 36.1215514]]]}, "properties": {"osm_id": 1229585940, "building": "house", "name": "", "height": null, "height_m": null, "levels": null, "tract_id": "40119010501", "tract_name": "105.01", "tags": {"building": "house"}}}, {"type": "Feature", "geometry": {"type": "Polygon", "coordinates": [[[-97.0579159, 36.1217249], [-97.0579159, 36.1216675], [-97.0577693, 36.1216683], [-97.057774, 36.1216261], [-97.0576955, 36.121623], [-97.057688, 36.1217241], [-97.0579159, 36.1217249]]]}, "properties": {"osm_id": 1229585941, "building": "house", "name": "", "height": null, "height_m": null, "levels": null, "tract_id": "40119010501", "tract_name": "105.01", "tags": {"building": "house"}}}, {"type": "Feature", "geometry": {"type": "Polygon", "coordinates": [[[-97.0576689, 36.1216037], [-97.0576678, 36.1217037], [-97.0575259, 36.1217027], [-97.0575262, 36.12167], [-97.057522, 36.12167], [-97.0575222, 36.1216487], [-97.057499, 36.1216486], [-97.0574995, 36.1216025], [-97.0576689, 36.1216037]]]}, "properties": {"osm_id": 1229585942, "building": "house", "name": "", "height": null, "height_m": null, "levels": null, "tract_id": "40119010501", "tract_name": "105.01", "tags": {"building": "house"}}}, {"type": "Feature", "geometry": {"type": "Polygon", "coordinates": [[[-97.0575153, 36.1218177], [-97.0575139, 36.1217894], [-97.0575022, 36.1217877], [-97.0575026, 36.1217402], [-97.0575971, 36.1217417], [-97.0575984, 36.1218181], [-97.0575153, 36.1218177]]]}, "properties": {"osm_id": 1229585943, "building": "house", "name": "", "height": null, "height_m": null, "levels": null, "tract_id": "40119010501", "tract_name": "105.01", "tags": {"building": "house"}}}, {"type": "Feature", "geometry": {"type": "Polygon", "coordinates": [[[-97.0575033, 36.1219635], [-97.0576448, 36.1219657], [-97.0576462, 36.1218775], [-97.0575028, 36.121876], [-97.0575009, 36.1219348], [-97.0575033, 36.1219635]]]}, "properties": {"osm_id": 1229585944, "building": "house", "name": "", "height": null, "height_m": null, "levels": null, "tract_id": "40119010501", "tract_name": "105.01", "tags": {"building": "house"}}}, {"type": "Feature", "geometry": {"type": "Polygon", "coordinates": [[[-97.0576434, 36.1221165], [-97.0576431, 36.1220994], [-97.0576829, 36.1220989], [-97.0576813, 36.1220152], [-97.0576013, 36.1220162], [-97.057601, 36.1220007], [-97.0575358, 36.1220015], [-97.0575362, 36.1220225], [-97.0574958, 36.122023], [-97.0574969, 36.1220814], [-97.0575395, 36.1220809], [-97.0575402, 36.1221177], [-97.0576434, 36.1221165]]]}, "properties": {"osm_id": 1229585945, "building": "house", "name": "", "height": null, "height_m": null, "levels": null, "tract_id": "40119010501", "tract_name": "105.01", "tags": {"building": "house"}}}, {"type": "Feature", "geometry": {"type": "Polygon", "coordinates": [[[-97.0578339, 36.1221479], [-97.0577966, 36.1221483], [-97.0577975, 36.1221178], [-97.0578344, 36.1221178], [-97.0578339, 36.1221479]]]}, "properties": {"osm_id": 1229585946, "building": "shed", "name": "", "height": null, "height_m": null, "levels": null, "tract_id": "40119010501", "tract_name": "105.01", "tags": {"building": "shed"}}}, {"type": "Feature", "geometry": {"type": "Polygon", "coordinates": [[[-97.0578418, 36.1217773], [-97.0578423, 36.1217399], [-97.0577737, 36.1217384], [-97.0577718, 36.1217765], [-97.0578418, 36.1217773]]]}, "properties": {"osm_id": 1229585947, "building": "shed", "name": "", "height": null, "height_m": null, "levels": null, "tract_id": "40119010501", "tract_name": "105.01", "tags": {"building": "shed"}}}, {"type": "Feature", "geometry": {"type": "Polygon", "coordinates": [[[-97.0578714, 36.119462], [-97.0578359, 36.119462], [-97.0578359, 36.1194684], [-97.0578107, 36.1194685], [-97.0578107, 36.1194603], [-97.0577823, 36.1194604], [-97.0577821, 36.1193938], [-97.0578711, 36.1193936], [-97.0578714, 36.119462]]]}, "properties": {"osm_id": 1229585972, "building": "house", "name": "", "height": null, "height_m": null, "levels": null, "tract_id": "40119010501", "tract_name": "105.01", "tags": {"building": "house"}}}, {"type": "Feature", "geometry": {"type": "Polygon", "coordinates": [[[-97.0577093, 36.1194838], [-97.0575466, 36.1194868], [-97.0575459, 36.1194634], [-97.0575543, 36.1194632], [-97.057553, 36.1194172], [-97.0575452, 36.1194174], [-97.0575448, 36.1194042], [-97.0577069, 36.1194012], [-97.0577093, 36.1194838]]]}, "properties": {"osm_id": 1229585973, "building": "house", "name": "", "height": null, "height_m": null, "levels": null, "tract_id": "40119010501", "tract_name": "105.01", "tags": {"building": "house"}}}, {"type": "Feature", "geometry": {"type": "Polygon", "coordinates": [[[-97.0575743, 36.1197609], [-97.057654, 36.1197583], [-97.0576545, 36.1197673], [-97.0577339, 36.1197647], [-97.0577296, 36.1196797], [-97.0575703, 36.119685], [-97.0575714, 36.1197064], [-97.0575567, 36.1197069], [-97.0575581, 36.1197346], [-97.057573, 36.1197341], [-97.0575743, 36.1197609]]]}, "properties": {"osm_id": 1229585974, "building": "house", "name": "", "height": null, "height_m": null, "levels": null, "tract_id": "40119010501", "tract_name": "105.01", "tags": {"building": "house"}}}, {"type": "Feature", "geometry": {"type": "Polygon", "coordinates": [[[-97.0575322, 36.1195992], [-97.0575319, 36.1196164], [-97.0576583, 36.1196178], [-97.0576594, 36.1195497], [-97.0576249, 36.1195493], [-97.057625, 36.1195432], [-97.0576012, 36.1195429], [-97.057601, 36.1195522], [-97.0575305, 36.1195514], [-97.0575302, 36.1195681], [-97.057512, 36.1195679], [-97.0575115, 36.119599], [-97.0575322, 36.1195992]]]}, "properties": {"osm_id": 1229585975, "building": "house", "name": "", "height": null, "height_m": null, "levels": null, "tract_id": "40119010501", "tract_name": "105.01", "tags": {"building": "house"}}}, {"type": "Feature", "geometry": {"type": "Polygon", "coordinates": [[[-97.0578141, 36.1195555], [-97.0577122, 36.1195539], [-97.0577131, 36.1195151], [-97.057815, 36.1195166], [-97.0578141, 36.1195555]]]}, "properties": {"osm_id": 1229585976, "building": "house", "name": "", "height": null, "height_m": null, "levels": null, "tract_id": "40119010501", "tract_name": "105.01", "tags": {"building": "house"}}}, {"type": "Feature", "geometry": {"type": "Polygon", "coordinates": [[[-97.0579023, 36.1196691], [-97.0578248, 36.1196696], [-97.0578245, 36.1196313], [-97.057902, 36.1196309], [-97.0579023, 36.1196691]]]}, "properties": {"osm_id": 1229585977, "building": "yes", "name": "", "height": null, "height_m": null, "levels": null, "tract_id": "40119010501", "tract_name": "105.01", "tags": {"building": "yes"}}}, {"type": "Feature", "geometry": {"type": "Polygon", "coordinates": [[[-97.0584044, 36.1202199], [-97.0584033, 36.1201223], [-97.0582582, 36.1201259], [-97.0582609, 36.120221], [-97.0584044, 36.1202199]]]}, "properties": {"osm_id": 1229585978, "building": "yes", "name": "STILLWATER SMOKE AND VAPE", "height": null, "height_m": null, "levels": null, "tract_id": "40119010501", "tract_name": "105.01", "tags": {"building": "yes", "name": "STILLWATER SMOKE AND VAPE", "shop": "e-cigarette"}}}, {"type": "Feature", "geometry": {"type": "Polygon", "coordinates": [[[-97.0582609, 36.120221], [-97.058263, 36.1202646], [-97.0581022, 36.1202674], [-97.0580993, 36.1201288], [-97.0582582, 36.1201259], [-97.0582609, 36.120221]]]}, "properties": {"osm_id": 1229585979, "building": "yes", "name": "CMC SOLUTIONS", "height": null, "height_m": null, "levels": null, "tract_id": "40119010501", "tract_name": "105.01", "tags": {"building": "yes", "government": "register_office", "name": "CMC SOLUTIONS", "office": "government"}}}, {"type": "Feature", "geometry": {"type": "Polygon", "coordinates": [[[-97.058263, 36.1202646], [-97.0582663, 36.1203656], [-97.0581032, 36.1203675], [-97.0581022, 36.1202674], [-97.058263, 36.1202646]]]}, "properties": {"osm_id": 1229585980, "building": "yes", "name": "Oklahoma Green Stop, llc", "height": null, "height_m": null, "levels": null, "tract_id": "40119010501", "tract_name": "105.01", "tags": {"building": "yes", "name": "Oklahoma Green Stop, llc", "shop": "cannabis"}}}, {"type": "Feature", "geometry": {"type": "Polygon", "coordinates": [[[-97.0582663, 36.1203656], [-97.0582685, 36.1204946], [-97.0581054, 36.1204964], [-97.0581032, 36.1203675], [-97.0582663, 36.1203656]]]}, "properties": {"osm_id": 1229585981, "building": "yes", "name": "Anne Marie Salon", "height": null, "height_m": null, "levels": null, "tract_id": "40119010501", "tract_name": "105.01", "tags": {"building": "yes", "name": "Anne Marie Salon", "shop": "hairdresser"}}}, {"type": "Feature", "geometry": {"type": "Polygon", "coordinates": [[[-97.0579541, 36.1201163], [-97.0579522, 36.1200788], [-97.0578952, 36.1200806], [-97.0578926, 36.1200282], [-97.0578068, 36.120031], [-97.0578113, 36.1201211], [-97.0579541, 36.1201163]]]}, "properties": {"osm_id": 1229585982, "building": "house", "name": "", "height": null, "height_m": null, "levels": null, "tract_id": "40119010501", "tract_name": "105.01", "tags": {"building": "house"}}}, {"type": "Feature", "geometry": {"type": "Polygon", "coordinates": [[[-97.0576295, 36.120248], [-97.05763, 36.120242], [-97.0576987, 36.1202407], [-97.0576987, 36.1201679], [-97.05763, 36.120167], [-97.0576311, 36.1201596], [-97.0575126, 36.1201601], [-97.0575142, 36.1201683], [-97.057489, 36.1201687], [-97.0574884, 36.1202402], [-97.057511, 36.1202394], [-97.057511, 36.1202493], [-97.0576295, 36.120248]]]}, "properties": {"osm_id": 1229585983, "building": "house", "name": "", "height": null, "height_m": null, "levels": null, "tract_id": "40119010501", "tract_name": "105.01", "tags": {"building": "house"}}}, {"type": "Feature", "geometry": {"type": "Polygon", "coordinates": [[[-97.0576678, 36.1203587], [-97.0574935, 36.120361], [-97.057492, 36.1202877], [-97.0576663, 36.1202855], [-97.0576678, 36.1203587]]]}, "properties": {"osm_id": 1229585984, "building": "house", "name": "", "height": null, "height_m": null, "levels": null, "tract_id": "40119010501", "tract_name": "105.01", "tags": {"building": "house"}}}, {"type": "Feature", "geometry": {"type": "Polygon", "coordinates": [[[-97.0574887, 36.1205156], [-97.0575054, 36.1205155], [-97.0575055, 36.1205294], [-97.0575822, 36.1205292], [-97.0575822, 36.1205244], [-97.0576968, 36.1205243], [-97.0576966, 36.1204404], [-97.0576069, 36.1204406], [-97.0576068, 36.1204111], [-97.0575644, 36.1204112], [-97.0575644, 36.1204386], [-97.0575088, 36.1204387], [-97.0575056, 36.1204474], [-97.0574885, 36.1204474], [-97.0574887, 36.1205156]]]}, "properties": {"osm_id": 1229585985, "building": "house", "name": "", "height": null, "height_m": null, "levels": null, "tract_id": "40119010501", "tract_name": "105.01", "tags": {"building": "house"}}}, {"type": "Feature", "geometry": {"type": "Polygon", "coordinates": [[[-97.0579129, 36.1205528], [-97.0579127, 36.1205463], [-97.0579132, 36.1205363], [-97.0579501, 36.1205353], [-97.0579505, 36.1204281], [-97.0578469, 36.1204303], [-97.0578516, 36.1205346], [-97.0578633, 36.1205348], [-97.0578633, 36.1205532], [-97.0579129, 36.1205528]]]}, "properties": {"osm_id": 1229585986, "building": "house", "name": "", "height": null, "height_m": null, "levels": null, "tract_id": "40119010501", "tract_name": "105.01", "tags": {"building": "house"}}}, {"type": "Feature", "geometry": {"type": "Polygon", "coordinates": [[[-97.057759, 36.1203005], [-97.0577084, 36.1203009], [-97.0577081, 36.1202749], [-97.0577587, 36.1202746], [-97.057759, 36.1203005]]]}, "properties": {"osm_id": 1229585987, "building": "shed", "name": "", "height": null, "height_m": null, "levels": null, "tract_id": "40119010501", "tract_name": "105.01", "tags": {"building": "shed"}}}, {"type": "Feature", "geometry": {"type": "Polygon", "coordinates": [[[-97.0577583, 36.1193756], [-97.0577567, 36.1193254], [-97.057725, 36.1193267], [-97.057724, 36.119282], [-97.0575019, 36.1192894], [-97.0574997, 36.1193795], [-97.0577583, 36.1193756]]]}, "properties": {"osm_id": 1229585988, "building": "house", "name": "", "height": null, "height_m": null, "levels": null, "tract_id": "40119010501", "tract_name": "105.01", "tags": {"building": "house"}}}, {"type": "Feature", "geometry": {"type": "Polygon", "coordinates": [[[-97.0579215, 36.1191052], [-97.0578664, 36.1191059], [-97.0578659, 36.1190804], [-97.0577979, 36.1190813], [-97.0577984, 36.1191057], [-97.057685, 36.1191072], [-97.0576862, 36.1191656], [-97.0579226, 36.1191626], [-97.0579215, 36.1191052]]]}, "properties": {"osm_id": 1229585989, "building": "house", "name": "", "height": null, "height_m": null, "levels": null, "tract_id": "40119010501", "tract_name": "105.01", "tags": {"building": "house"}}}, {"type": "Feature", "geometry": {"type": "Polygon", "coordinates": [[[-97.0576383, 36.1192106], [-97.0576377, 36.1191837], [-97.0576694, 36.1191832], [-97.057668, 36.1191222], [-97.0575065, 36.1191246], [-97.0575066, 36.1191312], [-97.0574924, 36.1191314], [-97.057494, 36.1192025], [-97.0575088, 36.1192023], [-97.0575091, 36.1192125], [-97.0576383, 36.1192106]]]}, "properties": {"osm_id": 1229585990, "building": "house", "name": "", "height": null, "height_m": null, "levels": null, "tract_id": "40119010501", "tract_name": "105.01", "tags": {"building": "house"}}}, {"type": "Feature", "geometry": {"type": "Polygon", "coordinates": [[[-97.0570767, 36.1195903], [-97.0570761, 36.119504], [-97.0570895, 36.1195006], [-97.0570894, 36.11948], [-97.0571133, 36.1194798], [-97.0571131, 36.119451], [-97.0568865, 36.1194521], [-97.056887, 36.1195213], [-97.0569461, 36.119521], [-97.0569466, 36.1195909], [-97.0570767, 36.1195903]]]}, "properties": {"osm_id": 1229585991, "building": "house", "name": "", "height": null, "height_m": null, "levels": null, "tract_id": "40119010501", "tract_name": "105.01", "tags": {"building": "house"}}}, {"type": "Feature", "geometry": {"type": "Polygon", "coordinates": [[[-97.0569547, 36.119721], [-97.057073, 36.11972], [-97.0570721, 36.1196479], [-97.0569994, 36.1196485], [-97.0569995, 36.119656], [-97.0569539, 36.1196564], [-97.0569547, 36.119721]]]}, "properties": {"osm_id": 1229585992, "building": "house", "name": "", "height": null, "height_m": null, "levels": null, "tract_id": "40119010501", "tract_name": "105.01", "tags": {"building": "house"}}}, {"type": "Feature", "geometry": {"type": "Polygon", "coordinates": [[[-97.0569399, 36.1194071], [-97.0569622, 36.1194072], [-97.0569622, 36.1194128], [-97.0570766, 36.1194131], [-97.0570766, 36.119406], [-97.057097, 36.119406], [-97.0570973, 36.1193328], [-97.0570707, 36.1193327], [-97.0570707, 36.1193237], [-97.0569639, 36.1193234], [-97.0569638, 36.1193462], [-97.0569401, 36.1193462], [-97.0569399, 36.1194071]]]}, "properties": {"osm_id": 1229585993, "building": "house", "name": "", "height": null, "height_m": null, "levels": null, "tract_id": "40119010501", "tract_name": "105.01", "tags": {"building": "house"}}}, {"type": "Feature", "geometry": {"type": "Polygon", "coordinates": [[[-97.0570445, 36.1192823], [-97.0570441, 36.1192239], [-97.0570553, 36.1192238], [-97.057055, 36.1191843], [-97.0570433, 36.1191844], [-97.057043, 36.1191329], [-97.0569385, 36.1191333], [-97.0569387, 36.1191579], [-97.0568884, 36.1191581], [-97.056889, 36.119253], [-97.0569303, 36.1192528], [-97.0569305, 36.1192827], [-97.0570445, 36.1192823]]]}, "properties": {"osm_id": 1229585994, "building": "house", "name": "", "height": null, "height_m": null, "levels": null, "tract_id": "40119010501", "tract_name": "105.01", "tags": {"building": "house"}}}, {"type": "Feature", "geometry": {"type": "Polygon", "coordinates": [[[-97.0568035, 36.1191808], [-97.0566616, 36.1191811], [-97.0566615, 36.1191465], [-97.0566508, 36.1191465], [-97.0566506, 36.1190896], [-97.0568033, 36.1190893], [-97.0568035, 36.1191808]]]}, "properties": {"osm_id": 1229585995, "building": "house", "name": "", "height": null, "height_m": null, "levels": null, "tract_id": "40119010501", "tract_name": "105.01", "tags": {"building": "house"}}}, {"type": "Feature", "geometry": {"type": "Polygon", "coordinates": [[[-97.0553058, 36.1184097], [-97.055116, 36.1184103], [-97.0551143, 36.1180978], [-97.0553042, 36.1180972], [-97.0553058, 36.1184097]]]}, "properties": {"osm_id": 1229585996, "building": "yes", "name": "", "height": null, "height_m": null, "levels": null, "tract_id": "40119010501", "tract_name": "105.01", "tags": {"building": "yes"}}}, {"type": "Feature", "geometry": {"type": "Polygon", "coordinates": [[[-97.0555896, 36.1186843], [-97.0554389, 36.118686], [-97.0554381, 36.1186197], [-97.0555875, 36.1186214], [-97.0555896, 36.1186843]]]}, "properties": {"osm_id": 1229585997, "building": "yes", "name": "", "height": null, "height_m": null, "levels": null, "tract_id": "40119010501", "tract_name": "105.01", "tags": {"building": "yes"}}}, {"type": "Feature", "geometry": {"type": "Polygon", "coordinates": [[[-97.0554424, 36.1185635], [-97.0558904, 36.1185643], [-97.0558907, 36.1184562], [-97.0557011, 36.1184559], [-97.055701, 36.1184795], [-97.055674, 36.1184794], [-97.0556739, 36.1185286], [-97.0556417, 36.1185286], [-97.0556416, 36.1185374], [-97.0555972, 36.1185373], [-97.0555974, 36.1184733], [-97.0554426, 36.118473], [-97.0554424, 36.1185635]]]}, "properties": {"osm_id": 1229585998, "building": "house", "name": "", "height": null, "height_m": null, "levels": null, "tract_id": "40119010501", "tract_name": "105.01", "tags": {"building": "house"}}}, {"type": "Feature", "geometry": {"type": "Polygon", "coordinates": [[[-97.0558498, 36.1186887], [-97.0557192, 36.1186917], [-97.0557166, 36.1186183], [-97.0558472, 36.1186152], [-97.0558498, 36.1186887]]]}, "properties": {"osm_id": 1229585999, "building": "yes", "name": "", "height": null, "height_m": null, "levels": null, "tract_id": "40119010501", "tract_name": "105.01", "tags": {"building": "yes"}}}, {"type": "Feature", "geometry": {"type": "Polygon", "coordinates": [[[-97.0563036, 36.1187988], [-97.0561513, 36.1187989], [-97.0561499, 36.1187171], [-97.0562992, 36.1187171], [-97.0563036, 36.1187988]]]}, "properties": {"osm_id": 1229586000, "building": "yes", "name": "", "height": null, "height_m": null, "levels": null, "tract_id": "40119010501", "tract_name": "105.01", "tags": {"building": "yes"}}}, {"type": "Feature", "geometry": {"type": "Polygon", "coordinates": [[[-97.0565451, 36.119377], [-97.0564417, 36.1193788], [-97.05644, 36.119317], [-97.0565434, 36.1193151], [-97.0565451, 36.119377]]]}, "properties": {"osm_id": 1229586001, "building": "yes", "name": "", "height": null, "height_m": null, "levels": null, "tract_id": "40119010501", "tract_name": "105.01", "tags": {"building": "yes"}}}, {"type": "Feature", "geometry": {"type": "Polygon", "coordinates": [[[-97.0561511, 36.1193508], [-97.0563329, 36.1193522], [-97.0563347, 36.1193348], [-97.0563649, 36.1193323], [-97.0563655, 36.1193114], [-97.0563378, 36.1193079], [-97.0563384, 36.1192756], [-97.0561498, 36.1192736], [-97.0561511, 36.1193508]]]}, "properties": {"osm_id": 1229586002, "building": "yes", "name": "", "height": null, "height_m": null, "levels": null, "tract_id": "40119010501", "tract_name": "105.01", "tags": {"building": "yes"}}}, {"type": "Feature", "geometry": {"type": "Polygon", "coordinates": [[[-97.0562763, 36.1192515], [-97.0561789, 36.1192491], [-97.0561812, 36.1191896], [-97.0562785, 36.1191921], [-97.0562763, 36.1192515]]]}, "properties": {"osm_id": 1229586003, "building": "house", "name": "", "height": null, "height_m": null, "levels": null, "tract_id": "40119010501", "tract_name": "105.01", "tags": {"building": "house"}}}, {"type": "Feature", "geometry": {"type": "Polygon", "coordinates": [[[-97.0568791, 36.118678], [-97.0570535, 36.1186794], [-97.057056, 36.1185978], [-97.0570363, 36.1185968], [-97.0570356, 36.1185913], [-97.0568804, 36.1185874], [-97.0568791, 36.118678]]]}, "properties": {"osm_id": 1229586004, "building": "house", "name": "", "height": null, "height_m": null, "levels": null, "tract_id": "40119010501", "tract_name": "105.01", "tags": {"building": "house"}}}, {"type": "Feature", "geometry": {"type": "Polygon", "coordinates": [[[-97.0571192, 36.1188038], [-97.0569914, 36.1188073], [-97.0569905, 36.1187866], [-97.0568661, 36.11879], [-97.0568627, 36.1187107], [-97.057115, 36.1187037], [-97.0571192, 36.1188038]]]}, "properties": {"osm_id": 1229586005, "building": "house", "name": "", "height": null, "height_m": null, "levels": null, "tract_id": "40119010501", "tract_name": "105.01", "tags": {"building": "house"}}}, {"type": "Feature", "geometry": {"type": "Polygon", "coordinates": [[[-97.0566433, 36.1188238], [-97.056695, 36.1188206], [-97.0566979, 36.1188521], [-97.0567739, 36.1188474], [-97.0567659, 36.1187627], [-97.0566939, 36.1187672], [-97.0566923, 36.1187507], [-97.056649, 36.1187534], [-97.0566505, 36.1187694], [-97.0566382, 36.1187702], [-97.0566433, 36.1188238]]]}, "properties": {"osm_id": 1229586006, "building": "house", "name": "", "height": null, "height_m": null, "levels": null, "tract_id": "40119010501", "tract_name": "105.01", "tags": {"building": "house"}}}, {"type": "Feature", "geometry": {"type": "Polygon", "coordinates": [[[-97.0565422, 36.1188231], [-97.0565405, 36.1187854], [-97.0565789, 36.1187843], [-97.0565765, 36.1187303], [-97.0565301, 36.1187316], [-97.0565308, 36.1187472], [-97.0564736, 36.1187489], [-97.056477, 36.118825], [-97.0565422, 36.1188231]]]}, "properties": {"osm_id": 1229586007, "building": "house", "name": "", "height": null, "height_m": null, "levels": null, "tract_id": "40119010501", "tract_name": "105.01", "tags": {"building": "house"}}}, {"type": "Feature", "geometry": {"type": "Polygon", "coordinates": [[[-97.0561823, 36.118667], [-97.0561749, 36.1186506], [-97.0561465, 36.118651], [-97.056145, 36.1185897], [-97.0561691, 36.1185893], [-97.0561688, 36.1185766], [-97.0563946, 36.1185731], [-97.0563968, 36.1186636], [-97.0561823, 36.118667]]]}, "properties": {"osm_id": 1229586008, "building": "house", "name": "", "height": null, "height_m": null, "levels": null, "tract_id": "40119010501", "tract_name": "105.01", "tags": {"building": "house"}}}, {"type": "Feature", "geometry": {"type": "Polygon", "coordinates": [[[-97.0565026, 36.1184695], [-97.0561773, 36.1184656], [-97.0561765, 36.1183625], [-97.0565115, 36.1183638], [-97.0565026, 36.1184695]]]}, "properties": {"osm_id": 1229586009, "building": "yes", "name": "", "height": null, "height_m": null, "levels": null, "tract_id": "40119010501", "tract_name": "105.01", "tags": {"building": "yes"}}}, {"type": "Feature", "geometry": {"type": "Polygon", "coordinates": [[[-97.0583523, 36.1170819], [-97.058356, 36.1170346], [-97.0582845, 36.1170332], [-97.0582821, 36.117079], [-97.0583523, 36.1170819]]]}, "properties": {"osm_id": 1229586010, "building": "yes", "name": "", "height": null, "height_m": null, "levels": null, "tract_id": "40119010501", "tract_name": "105.01", "tags": {"building": "yes"}}}, {"type": "Feature", "geometry": {"type": "Polygon", "coordinates": [[[-97.0527726, 36.1290957], [-97.0527727, 36.1289304], [-97.0523158, 36.1289304], [-97.0523166, 36.1290762], [-97.052273, 36.1290762], [-97.0522722, 36.1290966], [-97.0527726, 36.1290957]]]}, "properties": {"osm_id": 1271577158, "building": "yes", "name": "", "height": null, "height_m": null, "levels": null, "tract_id": "40119010501", "tract_name": "105.01", "tags": {"building": "yes", "shop": "vacant"}}}, {"type": "Feature", "geometry": {"type": "Polygon", "coordinates": [[[-97.0574931, 36.1256267], [-97.0574097, 36.1255625], [-97.0574618, 36.1255184], [-97.0575452, 36.1255825], [-97.0574931, 36.1256267]]]}, "properties": {"osm_id": 1275407107, "building": "yes", "name": "", "height": null, "height_m": null, "levels": null, "tract_id": "40119010501", "tract_name": "105.01", "tags": {"amenity": "shelter", "building": "yes"}}}, {"type": "Feature", "geometry": {"type": "Polygon", "coordinates": [[[-97.0522673, 36.1186405], [-97.0521193, 36.1186401], [-97.0521211, 36.118791], [-97.0522691, 36.1187899], [-97.0522673, 36.1186405]]]}, "properties": {"osm_id": 1281257028, "building": "roof", "name": "", "height": null, "height_m": null, "levels": null, "tract_id": "40119010501", "tract_name": "105.01", "tags": {"building": "roof", "layer": "1"}}}, {"type": "Feature", "geometry": {"type": "Polygon", "coordinates": [[[-97.0534555, 36.1164517], [-97.0534462, 36.116453], [-97.0534371, 36.1164564], [-97.0534297, 36.116462], [-97.0534249, 36.1164691], [-97.0534231, 36.1164778], [-97.053425, 36.1164864], [-97.0534304, 36.116494], [-97.0534386, 36.1164997], [-97.0534487, 36.1165029], [-97.0534572, 36.1165034], [-97.0534472, 36.1165044], [-97.0534381, 36.1165079], [-97.0534308, 36.1165134], [-97.053426, 36.1165206], [-97.0534242, 36.1165292], [-97.053426, 36.1165378], [-97.0534314, 36.1165455], [-97.0534396, 36.1165512], [-97.0534497, 36.1165543], [-97.0534606, 36.1165546], [-97.0534997, 36.1165543], [-97.0534999, 36.1165788], [-97.0534965, 36.1165869], [-97.0534964, 36.116595], [-97.0534953, 36.1165869], [-97.0534911, 36.1165795], [-97.0534843, 36.1165735], [-97.0534755, 36.1165695], [-97.0534648, 36.116568], [-97.0534541, 36.1165694], [-97.0534447, 36.1165737], [-97.0534375, 36.1165802], [-97.0534335, 36.1165884], [-97.0534331, 36.1165971], [-97.0534316, 36.1165896], [-97.0534274, 36.1165822], [-97.0534206, 36.1165762], [-97.0534118, 36.1165722], [-97.0534011, 36.1165707], [-97.0533904, 36.1165721], [-97.0533809, 36.1165764], [-97.0533738, 36.1165829], [-97.0533697, 36.1165911], [-97.053369, 36.1165979], [-97.0533079, 36.1165983], [-97.0533075, 36.1167066], [-97.0533677, 36.1167057], [-97.0533713, 36.116716], [-97.0533778, 36.1167229], [-97.0533869, 36.1167278], [-97.0533974, 36.1167298], [-97.0534074, 36.1167291], [-97.0534167, 36.1167259], [-97.0534242, 36.1167205], [-97.0534293, 36.1167134], [-97.0534318, 36.1167049], [-97.053435, 36.1167132], [-97.0534416, 36.1167202], [-97.0534506, 36.116725], [-97.0534611, 36.1167271], [-97.0534712, 36.1167264], [-97.0534804, 36.1167232], [-97.053488, 36.1167178], [-97.053493, 36.1167107], [-97.0534951, 36.1167028], [-97.0534975, 36.1167118], [-97.053504, 36.1167188], [-97.053513, 36.1167236], [-97.0535236, 36.1167257], [-97.0535336, 36.1167249], [-97.0535429, 36.1167217], [-97.0535504, 36.1167163], [-97.0535555, 36.1167093], [-97.0535565, 36.1167015], [-97.0535571, 36.1167052], [-97.0535604, 36.1167135], [-97.0535669, 36.1167205], [-97.053576, 36.1167253], [-97.0535865, 36.1167274], [-97.0535965, 36.1167267], [-97.0536058, 36.1167235], [-97.0536133, 36.1167181], [-97.0536184, 36.116711], [-97.0536217, 36.1167029], [-97.0536213, 36.1165953], [-97.0536207, 36.1165872], [-97.0536165, 36.1165798], [-97.0536097, 36.1165738], [-97.0536009, 36.1165698], [-97.0535902, 36.1165683], [-97.0535795, 36.1165697], [-97.05357, 36.116574], [-97.0535629, 36.1165805], [-97.0535591, 36.1165888], [-97.0535585, 36.1165932], [-97.0535577, 36.1165854], [-97.0535536, 36.116578], [-97.0535467, 36.116572], [-97.0535461, 36.1165548], [-97.053594, 36.1165544], [-97.0536043, 36.1165517], [-97.0536129, 36.1165463], [-97.0536138, 36.1165451], [-97.0536187, 36.116539], [-97.0536212, 36.1165304], [-97.0536202, 36.1165223], [-97.0536161, 36.1165149], [-97.0536093, 36.1165089], [-97.0536005, 36.1165049], [-97.0535906, 36.1165033], [-97.0536033, 36.1165002], [-97.0536118, 36.1164949], [-97.0536177, 36.1164875], [-97.0536202, 36.116479], [-97.0536191, 36.1164709], [-97.053615, 36.1164635], [-97.0536083, 36.1164574], [-97.0535995, 36.1164534], [-97.0535889, 36.1164515], [-97.0535992, 36.1164488], [-97.0536078, 36.1164434], [-97.0536136, 36.1164361], [-97.0536161, 36.1164275], [-97.0536151, 36.1164194], [-97.053611, 36.116412], [-97.0536042, 36.116406], [-97.0535954, 36.116402], [-97.0535856, 36.1164004], [-97.0535967, 36.1163984], [-97.0536053, 36.116393], [-97.0536111, 36.1163856], [-97.0536136, 36.1163771], [-97.0536126, 36.116369], [-97.0536085, 36.1163616], [-97.0536017, 36.1163556], [-97.0535929, 36.1163515], [-97.0535833, 36.1163508], [-97.0535879, 36.1163502], [-97.0535982, 36.1163475], [-97.0536068, 36.1163422], [-97.0536126, 36.1163348], [-97.0536151, 36.1163263], [-97.0536141, 36.1163182], [-97.05361, 36.1163107], [-97.0536032, 36.1163047], [-97.0535944, 36.1163007], [-97.0535843, 36.1162981], [-97.0534511, 36.1162996], [-97.0534411, 36.1163002], [-97.053432, 36.1163037], [-97.0534247, 36.1163093], [-97.0534199, 36.1163164], [-97.0534181, 36.1163251], [-97.05342, 36.1163337], [-97.0534253, 36.1163413], [-97.0534335, 36.116347], [-97.0534437, 36.11635], [-97.0534492, 36.1163504], [-97.0534396, 36.1163511], [-97.0534305, 36.1163545], [-97.0534232, 36.1163601], [-97.0534184, 36.1163673], [-97.0534166, 36.1163759], [-97.0534185, 36.1163845], [-97.0534238, 36.1163921], [-97.053432, 36.1163978], [-97.0534421, 36.1164005], [-97.0534521, 36.1164005], [-97.0534421, 36.1164015], [-97.053433, 36.116405], [-97.0534257, 36.1164105], [-97.0534209, 36.1164177], [-97.0534191, 36.1164263], [-97.053421, 36.1164349], [-97.0534263, 36.1164426], [-97.0534345, 36.1164483], [-97.0534446, 36.1164514], [-97.0534555, 36.1164517]]]}, "properties": {"osm_id": 1289145159, "building": "yes", "name": "", "height": 32.0, "height_m": 32.0, "levels": null, "tract_id": "40119010501", "tract_name": "105.01", "tags": {"building": "yes", "height": "32"}}}, {"type": "Feature", "geometry": {"type": "Polygon", "coordinates": [[[-97.0566717, 36.1163229], [-97.0566749, 36.1162697], [-97.0566979, 36.1162706], [-97.0566999, 36.1162386], [-97.0566705, 36.1162374], [-97.0566719, 36.1162146], [-97.0566146, 36.1162123], [-97.056608, 36.1163203], [-97.0566717, 36.1163229]]]}, "properties": {"osm_id": 1289651856, "building": "yes", "name": "", "height": null, "height_m": null, "levels": null, "tract_id": "40119010501", "tract_name": "105.01", "tags": {"building": "yes"}}}, {"type": "Feature", "geometry": {"type": "Polygon", "coordinates": [[[-97.0582397, 36.1302078], [-97.0580547, 36.1302078], [-97.0580547, 36.1299581], [-97.0582397, 36.1299581], [-97.0582397, 36.1302078]]]}, "properties": {"osm_id": 1417653975, "building": "yes", "name": "7-Eleven", "height": null, "height_m": null, "levels": null, "tract_id": "40119010501", "tract_name": "105.01", "tags": {"building": "yes", "name": "7-Eleven", "shop": "convenience"}}}]}