{"type": "FeatureCollection", "features": [{"type": "Feature", "geometry": {"type": "Polygon", "coordinates": [[[-95.5372285, 35.2461919], [-95.5370189, 35.2461149], [-95.5369177, 35.2462983], [-95.5371273, 35.2463754], [-95.5372285, 35.2461919]]]}, "properties": {"osm_id": 873232754, "building": "yes", "name": "", "height": null, "height_m": null, "levels": null, "tract_id": "40121485601", "tract_name": "4856.01", "tags": {"building": "yes"}}}, {"type": "Feature", "geometry": {"type": "Polygon", "coordinates": [[[-95.5225072, 35.2394331], [-95.5225021, 35.2402697], [-95.5223948, 35.2402692], [-95.5223999, 35.2394327], [-95.5225072, 35.2394331]]]}, "properties": {"osm_id": 1031061101, "building": "yes", "name": "", "height": null, "height_m": null, "levels": null, "tract_id": "40121485601", "tract_name": "4856.01", "tags": {"building": "yes"}}}, {"type": "Feature", "geometry": {"type": "Polygon", "coordinates": [[[-95.5211958, 35.2402368], [-95.5210671, 35.2402371], [-95.5210644, 35.2393981], [-95.5211931, 35.2393978], [-95.5211958, 35.2402368]]]}, "properties": {"osm_id": 1031061103, "building": "yes", "name": "", "height": null, "height_m": null, "levels": null, "tract_id": "40121485601", "tract_name": "4856.01", "tags": {"building": "yes"}}}, {"type": "Feature", "geometry": {"type": "Polygon", "coordinates": [[[-95.5216786, 35.2402434], [-95.5215767, 35.2402436], [-95.521574, 35.2394265], [-95.5216759, 35.2394263], [-95.5216786, 35.2402434]]]}, "properties": {"osm_id": 1031061104, "building": "yes", "name": "", "height": null, "height_m": null, "levels": null, "tract_id": "40121485601", "tract_name": "4856.01", "tags": {"building": "yes"}}}, {"type": "Feature", "geometry": {"type": "Polygon", "coordinates": [[[-95.5230224, 35.2395676], [-95.5228105, 35.2395665], [-95.5228112, 35.23948], [-95.5230231, 35.239481], [-95.5230224, 35.2395676]]]}, "properties": {"osm_id": 1031061105, "building": "yes", "name": "", "height": null, "height_m": null, "levels": null, "tract_id": "40121485601", "tract_name": "4856.01", "tags": {"building": "yes"}}}, {"type": "Feature", "geometry": {"type": "Polygon", "coordinates": [[[-95.5233201, 35.2397165], [-95.5232198, 35.2397122], [-95.5232319, 35.2395238], [-95.5233322, 35.2395281], [-95.5233201, 35.2397165]]]}, "properties": {"osm_id": 1031061106, "building": "yes", "name": "", "height": null, "height_m": null, "levels": null, "tract_id": "40121485601", "tract_name": "4856.01", "tags": {"building": "yes"}}}, {"type": "Feature", "geometry": {"type": "Polygon", "coordinates": [[[-95.5237184, 35.2395413], [-95.5237184, 35.2396267], [-95.523461, 35.2396267], [-95.523461, 35.2395413], [-95.5237184, 35.2395413]]]}, "properties": {"osm_id": 1031061107, "building": "yes", "name": "", "height": null, "height_m": null, "levels": null, "tract_id": "40121485601", "tract_name": "4856.01", "tags": {"building": "yes"}}}, {"type": "Feature", "geometry": {"type": "Polygon", "coordinates": [[[-95.5255564, 35.2395725], [-95.5253734, 35.2395714], [-95.5253742, 35.2394739], [-95.5253505, 35.2394738], [-95.5253509, 35.2394295], [-95.5254907, 35.2394303], [-95.5254904, 35.2394636], [-95.5255574, 35.239464], [-95.5255564, 35.2395725]]]}, "properties": {"osm_id": 1031061115, "building": "yes", "name": "Plumb Theater", "height": null, "height_m": null, "levels": null, "tract_id": "40121485601", "tract_name": "4856.01", "tags": {"amenity": "theatre", "building": "yes", "name": "Plumb Theater"}}}, {"type": "Feature", "geometry": {"type": "Polygon", "coordinates": [[[-95.5258414, 35.2395435], [-95.5257342, 35.2395426], [-95.5257355, 35.2394287], [-95.5258428, 35.2394295], [-95.5258414, 35.2395435]]]}, "properties": {"osm_id": 1031061116, "building": "yes", "name": "Discount Smokeshop #2", "height": null, "height_m": null, "levels": null, "tract_id": "40121485601", "tract_name": "4856.01", "tags": {"building": "yes", "name": "Discount Smokeshop #2", "shop": "tobacco"}}}, {"type": "Feature", "geometry": {"type": "Polygon", "coordinates": [[[-95.5263544, 35.2394909], [-95.5262317, 35.2394854], [-95.5262337, 35.2394131], [-95.5262759, 35.2394148], [-95.5262773, 35.2393879], [-95.5263088, 35.2393709], [-95.526353, 35.239372], [-95.5263779, 35.2393983], [-95.5263765, 35.2394268], [-95.5264047, 35.2394547], [-95.5263544, 35.2394909]]]}, "properties": {"osm_id": 1031061117, "building": "yes", "name": "Billy's Bar", "height": null, "height_m": null, "levels": null, "tract_id": "40121485601", "tract_name": "4856.01", "tags": {"amenity": "bar", "building": "yes", "name": "Billy's Bar"}}}, {"type": "Feature", "geometry": {"type": "Polygon", "coordinates": [[[-95.5271316, 35.2395161], [-95.5267909, 35.2395183], [-95.5267898, 35.2394055], [-95.5271305, 35.2394033], [-95.5271316, 35.2395161]]]}, "properties": {"osm_id": 1031061121, "building": "yes", "name": "", "height": null, "height_m": null, "levels": null, "tract_id": "40121485601", "tract_name": "4856.01", "tags": {"building": "yes"}}}, {"type": "Feature", "geometry": {"type": "Polygon", "coordinates": [[[-95.5275178, 35.2396979], [-95.5273368, 35.2396974], [-95.5273381, 35.239406], [-95.5275191, 35.2394066], [-95.5275178, 35.2396979]]]}, "properties": {"osm_id": 1031061122, "building": "yes", "name": "", "height": null, "height_m": null, "levels": null, "tract_id": "40121485601", "tract_name": "4856.01", "tags": {"building": "yes"}}}, {"type": "Feature", "geometry": {"type": "Polygon", "coordinates": [[[-95.5277693, 35.2399641], [-95.5274823, 35.2399663], [-95.5274804, 35.2398055], [-95.5275714, 35.2398048], [-95.527572, 35.239853], [-95.527768, 35.2398515], [-95.5277693, 35.2399641]]]}, "properties": {"osm_id": 1031061123, "building": "yes", "name": "", "height": null, "height_m": null, "levels": null, "tract_id": "40121485601", "tract_name": "4856.01", "tags": {"building": "yes"}}}, {"type": "Feature", "geometry": {"type": "Polygon", "coordinates": [[[-95.5279473, 35.2395974], [-95.5278624, 35.2395971], [-95.527863, 35.2394788], [-95.5279478, 35.2394791], [-95.5279473, 35.2395974]]]}, "properties": {"osm_id": 1031061127, "building": "yes", "name": "BB Boutique", "height": null, "height_m": null, "levels": null, "tract_id": "40121485601", "tract_name": "4856.01", "tags": {"building": "yes", "name": "BB Boutique", "shop": "boutique"}}}, {"type": "Feature", "geometry": {"type": "Polygon", "coordinates": [[[-95.5280321, 35.2395976], [-95.5279473, 35.2395974], [-95.5279478, 35.2394791], [-95.5280327, 35.2394793], [-95.5280321, 35.2395976]]]}, "properties": {"osm_id": 1031061128, "building": "yes", "name": "", "height": null, "height_m": null, "levels": null, "tract_id": "40121485601", "tract_name": "4856.01", "tags": {"building": "yes", "shop": "vacant"}}}, {"type": "Feature", "geometry": {"type": "Polygon", "coordinates": [[[-95.5281169, 35.2395979], [-95.5280321, 35.2395976], [-95.5280327, 35.2394793], [-95.5281175, 35.2394796], [-95.5281169, 35.2395979]]]}, "properties": {"osm_id": 1031061129, "building": "yes", "name": "", "height": null, "height_m": null, "levels": null, "tract_id": "40121485601", "tract_name": "4856.01", "tags": {"building": "yes", "shop": "yes"}}}, {"type": "Feature", "geometry": {"type": "Polygon", "coordinates": [[[-95.5282017, 35.2395982], [-95.5281169, 35.2395979], [-95.5281175, 35.2394796], [-95.5282023, 35.2394799], [-95.5282017, 35.2395982]]]}, "properties": {"osm_id": 1031061130, "building": "yes", "name": "Cannaisseurs II", "height": null, "height_m": null, "levels": null, "tract_id": "40121485601", "tract_name": "4856.01", "tags": {"building": "yes", "name": "Cannaisseurs II", "shop": "cannabis"}}}, {"type": "Feature", "geometry": {"type": "Polygon", "coordinates": [[[-95.5288294, 35.2396497], [-95.5287221, 35.2396497], [-95.5287221, 35.2394482], [-95.5288294, 35.2394482], [-95.5288294, 35.2396497]]]}, "properties": {"osm_id": 1031061134, "building": "yes", "name": "Odom's Insurance Agency", "height": null, "height_m": null, "levels": null, "tract_id": "40121485601", "tract_name": "4856.01", "tags": {"building": "yes", "name": "Odom's Insurance Agency", "office": "insurance"}}}, {"type": "Feature", "geometry": {"type": "Polygon", "coordinates": [[[-95.5310375, 35.2395544], [-95.5308343, 35.2395544], [-95.5308343, 35.2394372], [-95.5310375, 35.2394372], [-95.5310375, 35.2395544]]]}, "properties": {"osm_id": 1031061145, "building": "yes", "name": "", "height": null, "height_m": null, "levels": null, "tract_id": "40121485601", "tract_name": "4856.01", "tags": {"building": "yes", "shop": "vacant"}}}, {"type": "Feature", "geometry": {"type": "Polygon", "coordinates": [[[-95.5315138, 35.2395504], [-95.5315827, 35.2395385], [-95.5315523, 35.2394208], [-95.5314834, 35.2394326], [-95.5315138, 35.2395504]]]}, "properties": {"osm_id": 1031061146, "building": "yes", "name": "Local Nutrition and Fitness", "height": null, "height_m": null, "levels": null, "tract_id": "40121485601", "tract_name": "4856.01", "tags": {"building": "yes", "name": "Local Nutrition and Fitness", "shop": "yes"}}}, {"type": "Feature", "geometry": {"type": "Polygon", "coordinates": [[[-95.531445, 35.2395623], [-95.5315138, 35.2395504], [-95.5314834, 35.2394326], [-95.5314146, 35.2394445], [-95.531445, 35.2395623]]]}, "properties": {"osm_id": 1031061147, "building": "yes", "name": "", "height": null, "height_m": null, "levels": null, "tract_id": "40121485601", "tract_name": "4856.01", "tags": {"building": "yes", "shop": "vacant"}}}, {"type": "Feature", "geometry": {"type": "Polygon", "coordinates": [[[-95.5313762, 35.2395741], [-95.531445, 35.2395623], [-95.5314146, 35.2394445], [-95.5313457, 35.2394564], [-95.5313762, 35.2395741]]]}, "properties": {"osm_id": 1031061148, "building": "yes", "name": "", "height": null, "height_m": null, "levels": null, "tract_id": "40121485601", "tract_name": "4856.01", "tags": {"building": "yes", "shop": "vacant"}}}, {"type": "Feature", "geometry": {"type": "Polygon", "coordinates": [[[-95.5324041, 35.2394421], [-95.532321, 35.2394431], [-95.5323197, 35.2393626], [-95.5324028, 35.2393616], [-95.5324041, 35.2394421]]]}, "properties": {"osm_id": 1031061153, "building": "roof", "name": "C&C", "height": null, "height_m": null, "levels": null, "tract_id": "40121485601", "tract_name": "4856.01", "tags": {"amenity": "fuel", "building": "roof", "name": "C&C"}}}, {"type": "Feature", "geometry": {"type": "Polygon", "coordinates": [[[-95.5326274, 35.2393468], [-95.5326281, 35.2394904], [-95.5324632, 35.2394909], [-95.5324624, 35.2393474], [-95.5326274, 35.2393468]]]}, "properties": {"osm_id": 1031061154, "building": "yes", "name": "Simple Simon's Pizza", "height": null, "height_m": null, "levels": null, "tract_id": "40121485601", "tract_name": "4856.01", "tags": {"amenity": "fast_food", "building": "yes", "cuisine": "pizza", "name": "Simple Simon's Pizza"}}}, {"type": "Feature", "geometry": {"type": "Polygon", "coordinates": [[[-95.5347557, 35.2398041], [-95.5347437, 35.2396464], [-95.5348483, 35.2396411], [-95.5348554, 35.2397336], [-95.5348262, 35.2397351], [-95.5348312, 35.2398003], [-95.5347557, 35.2398041]]]}, "properties": {"osm_id": 1031061156, "building": "yes", "name": "", "height": null, "height_m": null, "levels": null, "tract_id": "40121485601", "tract_name": "4856.01", "tags": {"building": "yes"}}}, {"type": "Feature", "geometry": {"type": "Polygon", "coordinates": [[[-95.5362122, 35.2402028], [-95.5362175, 35.2400966], [-95.5363418, 35.2401008], [-95.5363365, 35.240207], [-95.5362122, 35.2402028]]]}, "properties": {"osm_id": 1031061158, "building": "yes", "name": "", "height": null, "height_m": null, "levels": null, "tract_id": "40121485601", "tract_name": "4856.01", "tags": {"building": "yes"}}}, {"type": "Feature", "geometry": {"type": "Polygon", "coordinates": [[[-95.5354866, 35.239504], [-95.53537, 35.2395029], [-95.5353709, 35.2394351], [-95.5354876, 35.2394361], [-95.5354866, 35.239504]]]}, "properties": {"osm_id": 1031061160, "building": "yes", "name": "", "height": null, "height_m": null, "levels": null, "tract_id": "40121485601", "tract_name": "4856.01", "tags": {"building": "yes", "shop": "car_repair"}}}, {"type": "Feature", "geometry": {"type": "Polygon", "coordinates": [[[-95.5350521, 35.240216], [-95.5350441, 35.2394339], [-95.5351554, 35.2394332], [-95.5351635, 35.2402152], [-95.5350521, 35.240216]]]}, "properties": {"osm_id": 1031061161, "building": "yes", "name": "", "height": null, "height_m": null, "levels": null, "tract_id": "40121485601", "tract_name": "4856.01", "tags": {"building": "yes"}}}, {"type": "Feature", "geometry": {"type": "Polygon", "coordinates": [[[-95.5358943, 35.2395215], [-95.5356905, 35.2395237], [-95.5356893, 35.2394526], [-95.5358932, 35.2394504], [-95.5358943, 35.2395215]]]}, "properties": {"osm_id": 1031061162, "building": "yes", "name": "", "height": null, "height_m": null, "levels": null, "tract_id": "40121485601", "tract_name": "4856.01", "tags": {"amenity": "car_wash", "building": "yes", "self_service": "yes"}}}, {"type": "Feature", "geometry": {"type": "Polygon", "coordinates": [[[-95.5363362, 35.2395774], [-95.536184, 35.2395769], [-95.5361845, 35.2394849], [-95.5363367, 35.2394854], [-95.5363362, 35.2395774]]]}, "properties": {"osm_id": 1031061165, "building": "yes", "name": "Eufaula Lakeshore Realty", "height": null, "height_m": null, "levels": null, "tract_id": "40121485601", "tract_name": "4856.01", "tags": {"building": "yes", "name": "Eufaula Lakeshore Realty", "office": "estate_agent", "phone": "+1 888 788 5945"}}}, {"type": "Feature", "geometry": {"type": "Polygon", "coordinates": [[[-95.5366051, 35.2401108], [-95.5365899, 35.2402268], [-95.5364143, 35.2402115], [-95.5364294, 35.2400955], [-95.5366051, 35.2401108]]]}, "properties": {"osm_id": 1031061168, "building": "yes", "name": "", "height": null, "height_m": null, "levels": null, "tract_id": "40121485601", "tract_name": "4856.01", "tags": {"building": "yes"}}}, {"type": "Feature", "geometry": {"type": "Polygon", "coordinates": [[[-95.5371067, 35.2401218], [-95.537111, 35.2402132], [-95.5366255, 35.2402285], [-95.5366212, 35.2401371], [-95.5371067, 35.2401218]]]}, "properties": {"osm_id": 1031061169, "building": "yes", "name": "", "height": null, "height_m": null, "levels": null, "tract_id": "40121485601", "tract_name": "4856.01", "tags": {"building": "yes"}}}, {"type": "Feature", "geometry": {"type": "Polygon", "coordinates": [[[-95.5372234, 35.2399531], [-95.536986, 35.2399575], [-95.5369837, 35.2398754], [-95.5372211, 35.239871], [-95.5372234, 35.2399531]]]}, "properties": {"osm_id": 1031061170, "building": "yes", "name": "", "height": null, "height_m": null, "levels": null, "tract_id": "40121485601", "tract_name": "4856.01", "tags": {"building": "yes"}}}, {"type": "Feature", "geometry": {"type": "Polygon", "coordinates": [[[-95.5370021, 35.2397702], [-95.5371389, 35.2397647], [-95.5371422, 35.2398204], [-95.5370054, 35.2398259], [-95.5370021, 35.2397702]]]}, "properties": {"osm_id": 1031061171, "building": "yes", "name": "", "height": null, "height_m": null, "levels": null, "tract_id": "40121485601", "tract_name": "4856.01", "tags": {"building": "yes"}}}, {"type": "Feature", "geometry": {"type": "Polygon", "coordinates": [[[-95.5368264, 35.2399717], [-95.5368117, 35.2397351], [-95.5369118, 35.239731], [-95.5369265, 35.2399676], [-95.5368264, 35.2399717]]]}, "properties": {"osm_id": 1031061172, "building": "yes", "name": "", "height": null, "height_m": null, "levels": null, "tract_id": "40121485601", "tract_name": "4856.01", "tags": {"building": "yes"}}}, {"type": "Feature", "geometry": {"type": "Polygon", "coordinates": [[[-95.53653, 35.2397625], [-95.53653, 35.2394832], [-95.5365984, 35.2394832], [-95.5365984, 35.2397625], [-95.53653, 35.2397625]]]}, "properties": {"osm_id": 1031061173, "building": "yes", "name": "Poppa's Storage", "height": null, "height_m": null, "levels": null, "tract_id": "40121485601", "tract_name": "4856.01", "tags": {"building": "yes", "name": "Poppa's Storage", "shop": "storage_rental"}}}, {"type": "Feature", "geometry": {"type": "Polygon", "coordinates": [[[-95.5370571, 35.2395128], [-95.537061, 35.2396364], [-95.5368545, 35.2396407], [-95.5368505, 35.2395172], [-95.5370571, 35.2395128]]]}, "properties": {"osm_id": 1031061174, "building": "yes", "name": "Dobber's Roadhouse", "height": null, "height_m": null, "levels": null, "tract_id": "40121485601", "tract_name": "4856.01", "tags": {"amenity": "restaurant", "building": "yes", "name": "Dobber's Roadhouse"}}}, {"type": "Feature", "geometry": {"type": "Polygon", "coordinates": [[[-95.5382466, 35.2399674], [-95.5382409, 35.2393506], [-95.5384076, 35.2393496], [-95.5384133, 35.2399663], [-95.5382466, 35.2399674]]]}, "properties": {"osm_id": 1031061175, "building": "yes", "name": "", "height": null, "height_m": null, "levels": null, "tract_id": "40121485601", "tract_name": "4856.01", "tags": {"building": "yes"}}}, {"type": "Feature", "geometry": {"type": "Polygon", "coordinates": [[[-95.5390111, 35.2402302], [-95.5379516, 35.2402368], [-95.5379434, 35.2393517], [-95.5380401, 35.2393511], [-95.5380475, 35.2401562], [-95.5390103, 35.2401502], [-95.5390111, 35.2402302]]]}, "properties": {"osm_id": 1031061176, "building": "yes", "name": "", "height": null, "height_m": null, "levels": null, "tract_id": "40121485601", "tract_name": "4856.01", "tags": {"building": "yes"}}}, {"type": "Feature", "geometry": {"type": "Polygon", "coordinates": [[[-95.5122828, 35.2395144], [-95.5123834, 35.2395139], [-95.5123844, 35.2396375], [-95.5122839, 35.2396381], [-95.5122828, 35.2395144]]]}, "properties": {"osm_id": 1032433868, "building": "yes", "name": "", "height": null, "height_m": null, "levels": null, "tract_id": "40121485601", "tract_name": "4856.01", "tags": {"building": "yes", "shop": "yes"}}}, {"type": "Feature", "geometry": {"type": "Polygon", "coordinates": [[[-95.5107151, 35.2400835], [-95.5108805, 35.2400813], [-95.5108819, 35.2401516], [-95.5108211, 35.2401524], [-95.5108238, 35.2402836], [-95.5107191, 35.240285], [-95.5107151, 35.2400835]]]}, "properties": {"osm_id": 1032433869, "building": "yes", "name": "", "height": null, "height_m": null, "levels": null, "tract_id": "40121485601", "tract_name": "4856.01", "tags": {"building": "yes"}}}, {"type": "Feature", "geometry": {"type": "Polygon", "coordinates": [[[-95.511041, 35.2403387], [-95.5109324, 35.2403387], [-95.5109324, 35.2402445], [-95.511041, 35.2402445], [-95.511041, 35.2403387]]]}, "properties": {"osm_id": 1032433870, "building": "yes", "name": "", "height": null, "height_m": null, "levels": null, "tract_id": "40121485601", "tract_name": "4856.01", "tags": {"building": "yes"}}}, {"type": "Feature", "geometry": {"type": "Polygon", "coordinates": [[[-95.5121823, 35.239515], [-95.5122828, 35.2395144], [-95.5122839, 35.2396381], [-95.5121833, 35.2396386], [-95.5121823, 35.239515]]]}, "properties": {"osm_id": 1032433872, "building": "yes", "name": "", "height": null, "height_m": null, "levels": null, "tract_id": "40121485601", "tract_name": "4856.01", "tags": {"building": "yes", "shop": "yes"}}}, {"type": "Feature", "geometry": {"type": "Polygon", "coordinates": [[[-95.5117773, 35.24009], [-95.5116056, 35.2400933], [-95.5116023, 35.2399795], [-95.5116231, 35.2399791], [-95.5116217, 35.23993], [-95.5116395, 35.2399297], [-95.5116373, 35.2398541], [-95.5117704, 35.2398516], [-95.5117773, 35.24009]]]}, "properties": {"osm_id": 1032433876, "building": "yes", "name": "", "height": null, "height_m": null, "levels": null, "tract_id": "40121485601", "tract_name": "4856.01", "tags": {"building": "yes"}}}, {"type": "Feature", "geometry": {"type": "Polygon", "coordinates": [[[-95.5118591, 35.2397899], [-95.5117396, 35.2397911], [-95.5117378, 35.2396672], [-95.511686, 35.2396677], [-95.5116873, 35.2397611], [-95.5115573, 35.2397603], [-95.5115955, 35.2396639], [-95.5115944, 35.2395888], [-95.5117474, 35.2395873], [-95.5117464, 35.2395193], [-95.511855, 35.2395183], [-95.5118591, 35.2397899]]]}, "properties": {"osm_id": 1032433878, "building": "yes", "name": "", "height": null, "height_m": null, "levels": null, "tract_id": "40121485601", "tract_name": "4856.01", "tags": {"building": "yes"}}}, {"type": "Feature", "geometry": {"type": "Polygon", "coordinates": [[[-95.5126473, 35.2395457], [-95.5126503, 35.2394515], [-95.5125646, 35.2394497], [-95.5125666, 35.2393877], [-95.5127308, 35.2393912], [-95.5127259, 35.239547], [-95.5126473, 35.2395457]]]}, "properties": {"osm_id": 1032433881, "building": "yes", "name": "Sinclair", "height": null, "height_m": null, "levels": null, "tract_id": "40121485601", "tract_name": "4856.01", "tags": {"amenity": "fuel", "brand": "Sinclair", "brand:wikidata": "Q1290900", "building": "yes", "check_date": "2024-09-25", "compressed_air": "yes", "name": "Sinclair", "phone": "+1 918-452-3997", "website": "https://stations.sinclairoil.com/ok/eufaula/15879-state-highway-9-e"}}}, {"type": "Feature", "geometry": {"type": "Polygon", "coordinates": [[[-95.5127522, 35.2396771], [-95.5125578, 35.2396738], [-95.5125611, 35.2395442], [-95.5126473, 35.2395457], [-95.5127259, 35.239547], [-95.5127555, 35.2395475], [-95.5127522, 35.2396771]]]}, "properties": {"osm_id": 1032433882, "building": "yes", "name": "", "height": null, "height_m": null, "levels": null, "tract_id": "40121485601", "tract_name": "4856.01", "tags": {"building": "yes", "shop": "convenience"}}}, {"type": "Feature", "geometry": {"type": "Polygon", "coordinates": [[[-95.5137983, 35.240411], [-95.513671, 35.2404117], [-95.5136656, 35.2398038], [-95.5137929, 35.2398031], [-95.5137983, 35.240411]]]}, "properties": {"osm_id": 1032433883, "building": "yes", "name": "", "height": null, "height_m": null, "levels": null, "tract_id": "40121485601", "tract_name": "4856.01", "tags": {"building": "yes"}}}, {"type": "Feature", "geometry": {"type": "Polygon", "coordinates": [[[-95.513801, 35.2397757], [-95.5136521, 35.2397761], [-95.5136517, 35.2396716], [-95.5136068, 35.2396718], [-95.5136059, 35.2394619], [-95.5137996, 35.2394613], [-95.513801, 35.2397757]]]}, "properties": {"osm_id": 1032433887, "building": "yes", "name": "", "height": null, "height_m": null, "levels": null, "tract_id": "40121485601", "tract_name": "4856.01", "tags": {"building": "yes", "shop": "yes"}}}, {"type": "Feature", "geometry": {"type": "Polygon", "coordinates": [[[-95.5139901, 35.2398633], [-95.5139029, 35.2398633], [-95.5139029, 35.2398009], [-95.5139901, 35.2398009], [-95.5139901, 35.2398633]]]}, "properties": {"osm_id": 1032433889, "building": "yes", "name": "", "height": null, "height_m": null, "levels": null, "tract_id": "40121485601", "tract_name": "4856.01", "tags": {"building": "yes"}}}, {"type": "Feature", "geometry": {"type": "Polygon", "coordinates": [[[-95.5140866, 35.2399849], [-95.5140799, 35.239722], [-95.5141466, 35.2397209], [-95.5141533, 35.2399837], [-95.5140866, 35.2399849]]]}, "properties": {"osm_id": 1032433890, "building": "yes", "name": "", "height": null, "height_m": null, "levels": null, "tract_id": "40121485601", "tract_name": "4856.01", "tags": {"building": "yes"}}}, {"type": "Feature", "geometry": {"type": "Polygon", "coordinates": [[[-95.5141483, 35.2401536], [-95.5141493, 35.2402423], [-95.5138422, 35.2402444], [-95.5138412, 35.2401558], [-95.5141483, 35.2401536]]]}, "properties": {"osm_id": 1032433891, "building": "yes", "name": "", "height": null, "height_m": null, "levels": null, "tract_id": "40121485601", "tract_name": "4856.01", "tags": {"building": "yes"}}}, {"type": "Feature", "geometry": {"type": "Polygon", "coordinates": [[[-95.5141336, 35.2395588], [-95.514136, 35.239665], [-95.513916, 35.2396682], [-95.5139136, 35.2395621], [-95.5141336, 35.2395588]]]}, "properties": {"osm_id": 1032433893, "building": "yes", "name": "Lake & Bake", "height": null, "height_m": null, "levels": null, "tract_id": "40121485601", "tract_name": "4856.01", "tags": {"building": "yes", "name": "Lake & Bake", "shop": "cannabis"}}}, {"type": "Feature", "geometry": {"type": "Polygon", "coordinates": [[[-95.5170746, 35.2396114], [-95.5170754, 35.2397535], [-95.5169675, 35.2397538], [-95.5169673, 35.2397114], [-95.5167627, 35.2397122], [-95.5167621, 35.2396125], [-95.5170116, 35.2396116], [-95.5170397, 35.2396115], [-95.5170746, 35.2396114]]]}, "properties": {"osm_id": 1032433895, "building": "yes", "name": "", "height": null, "height_m": null, "levels": null, "tract_id": "40121485601", "tract_name": "4856.01", "tags": {"building": "yes", "shop": "convenience"}}}, {"type": "Feature", "geometry": {"type": "Polygon", "coordinates": [[[-95.5170679, 35.2394449], [-95.5170679, 35.2395226], [-95.5170397, 35.2395226], [-95.5170397, 35.2396115], [-95.5170116, 35.2396116], [-95.5170116, 35.2395226], [-95.5169781, 35.2395226], [-95.5169781, 35.2394449], [-95.5170679, 35.2394449]]]}, "properties": {"osm_id": 1032433896, "building": "yes", "name": "Sinclair", "height": null, "height_m": null, "levels": null, "tract_id": "40121485601", "tract_name": "4856.01", "tags": {"amenity": "fuel", "atm": "yes", "brand": "Sinclair", "brand:wikidata": "Q1290900", "building": "yes", "check_date": "2024-09-25", "compressed_air": "yes", "name": "Sinclair", "phone": "+1 918-452-3585", "website": "https://stations.sinclairoil.com/ok/eufaula/16019-state-highway-9-e"}}}, {"type": "Feature", "geometry": {"type": "Polygon", "coordinates": [[[-95.517367, 35.239745], [-95.5173643, 35.2394712], [-95.5174943, 35.2394703], [-95.5174949, 35.2395315], [-95.5176377, 35.2395305], [-95.5176386, 35.2396236], [-95.5174958, 35.2396245], [-95.5174964, 35.2396793], [-95.517572, 35.2396788], [-95.5175726, 35.2397437], [-95.517367, 35.239745]]]}, "properties": {"osm_id": 1032433900, "building": "yes", "name": "", "height": null, "height_m": null, "levels": null, "tract_id": "40121485601", "tract_name": "4856.01", "tags": {"building": "yes"}}}, {"type": "Feature", "geometry": {"type": "Polygon", "coordinates": [[[-95.5180013, 35.2396278], [-95.5178404, 35.23963], [-95.5178382, 35.2395228], [-95.5179991, 35.2395206], [-95.5180013, 35.2396278]]]}, "properties": {"osm_id": 1032433901, "building": "yes", "name": "", "height": null, "height_m": null, "levels": null, "tract_id": "40121485601", "tract_name": "4856.01", "tags": {"building": "yes"}}}, {"type": "Feature", "geometry": {"type": "Polygon", "coordinates": [[[-95.5181958, 35.2399827], [-95.5180591, 35.2399836], [-95.5180577, 35.2398522], [-95.5181944, 35.2398512], [-95.5181958, 35.2399827]]]}, "properties": {"osm_id": 1032433905, "building": "yes", "name": "", "height": null, "height_m": null, "levels": null, "tract_id": "40121485601", "tract_name": "4856.01", "tags": {"building": "yes"}}}, {"type": "Feature", "geometry": {"type": "Polygon", "coordinates": [[[-95.5186719, 35.2402499], [-95.5185538, 35.2402505], [-95.5185498, 35.2397116], [-95.5186678, 35.239711], [-95.5186719, 35.2402499]]]}, "properties": {"osm_id": 1032433906, "building": "yes", "name": "", "height": null, "height_m": null, "levels": null, "tract_id": "40121485601", "tract_name": "4856.01", "tags": {"building": "yes"}}}, {"type": "Feature", "geometry": {"type": "Polygon", "coordinates": [[[-95.5185632, 35.2395752], [-95.5183648, 35.2395763], [-95.5183639, 35.2394745], [-95.5184198, 35.2394742], [-95.5184195, 35.2394408], [-95.5184999, 35.2394403], [-95.5185002, 35.2394737], [-95.5185624, 35.2394734], [-95.5185632, 35.2395752]]]}, "properties": {"osm_id": 1032433907, "building": "yes", "name": "", "height": null, "height_m": null, "levels": null, "tract_id": "40121485601", "tract_name": "4856.01", "tags": {"building": "yes", "shop": "vacant"}}}, {"type": "Feature", "geometry": {"type": "Polygon", "coordinates": [[[-95.5192526, 35.2400232], [-95.5189805, 35.2400215], [-95.5189845, 35.2395943], [-95.5192566, 35.239596], [-95.5192526, 35.2400232]]]}, "properties": {"osm_id": 1032433911, "building": "yes", "name": "Dollar General Market", "height": null, "height_m": null, "levels": null, "tract_id": "40121485601", "tract_name": "4856.01", "tags": {"brand": "Dollar General Market", "brand:wikidata": "Q145168", "building": "yes", "name": "Dollar General Market", "shop": "supermarket", "website": "https://www.dollargeneral.com/store-directory/ok/eufaula/13689"}}}, {"type": "Feature", "geometry": {"type": "Polygon", "coordinates": [[[-95.5198158, 35.2396848], [-95.5194108, 35.2396826], [-95.5194127, 35.2394491], [-95.5198177, 35.2394513], [-95.5198158, 35.2396848]]]}, "properties": {"osm_id": 1032433915, "building": "yes", "name": "", "height": null, "height_m": null, "levels": null, "tract_id": "40121485601", "tract_name": "4856.01", "tags": {"building": "yes"}}}, {"type": "Feature", "geometry": {"type": "Polygon", "coordinates": [[[-95.5198937, 35.2401985], [-95.5198856, 35.2398414], [-95.5199821, 35.23984], [-95.5199902, 35.2401971], [-95.5198937, 35.2401985]]]}, "properties": {"osm_id": 1032433916, "building": "yes", "name": "", "height": null, "height_m": null, "levels": null, "tract_id": "40121485601", "tract_name": "4856.01", "tags": {"building": "yes"}}}, {"type": "Feature", "geometry": {"type": "Polygon", "coordinates": [[[-95.5199097, 35.2396705], [-95.5199111, 35.2394449], [-95.5200116, 35.2394453], [-95.5200103, 35.2396709], [-95.5199097, 35.2396705]]]}, "properties": {"osm_id": 1032433917, "building": "yes", "name": "", "height": null, "height_m": null, "levels": null, "tract_id": "40121485601", "tract_name": "4856.01", "tags": {"building": "yes"}}}, {"type": "Feature", "geometry": {"type": "Polygon", "coordinates": [[[-95.5209772, 35.2399816], [-95.5208723, 35.2399797], [-95.520879, 35.2397376], [-95.5209839, 35.2397395], [-95.5209772, 35.2399816]]]}, "properties": {"osm_id": 1032433923, "building": "yes", "name": "", "height": null, "height_m": null, "levels": null, "tract_id": "40121485601", "tract_name": "4856.01", "tags": {"building": "yes", "shop": "yes"}}}, {"type": "Feature", "geometry": {"type": "Polygon", "coordinates": [[[-95.5208793, 35.2397242], [-95.520878, 35.2395884], [-95.5209852, 35.2395877], [-95.5209865, 35.2397235], [-95.5208793, 35.2397242]]]}, "properties": {"osm_id": 1032433924, "building": "yes", "name": "", "height": null, "height_m": null, "levels": null, "tract_id": "40121485601", "tract_name": "4856.01", "tags": {"building": "yes", "shop": "yes"}}}, {"type": "Feature", "geometry": {"type": "Polygon", "coordinates": [[[-95.5210108, 35.2394197], [-95.521012, 35.2394864], [-95.5210034, 35.2394865], [-95.5210048, 35.2395615], [-95.5209645, 35.239562], [-95.5209631, 35.239487], [-95.5209262, 35.2394875], [-95.5209249, 35.2394208], [-95.5210108, 35.2394197]]]}, "properties": {"osm_id": 1032433925, "building": "yes", "name": "", "height": null, "height_m": null, "levels": null, "tract_id": "40121485601", "tract_name": "4856.01", "tags": {"building": "yes", "shop": "yes"}}}, {"type": "Feature", "geometry": {"type": "Polygon", "coordinates": [[[-95.4647608, 35.2363001], [-95.4646616, 35.2362574], [-95.4647028, 35.2361934], [-95.4648021, 35.2362362], [-95.4647608, 35.2363001]]]}, "properties": {"osm_id": 1033596040, "building": "yes", "name": "", "height": null, "height_m": null, "levels": null, "tract_id": "40121485601", "tract_name": "4856.01", "tags": {"building": "yes"}}}, {"type": "Feature", "geometry": {"type": "Polygon", "coordinates": [[[-95.464557, 35.2366878], [-95.4646254, 35.2365739], [-95.4647158, 35.2366101], [-95.4646474, 35.2367241], [-95.464557, 35.2366878]]]}, "properties": {"osm_id": 1033596041, "building": "yes", "name": "", "height": null, "height_m": null, "levels": null, "tract_id": "40121485601", "tract_name": "4856.01", "tags": {"building": "yes"}}}, {"type": "Feature", "geometry": {"type": "Polygon", "coordinates": [[[-95.4650478, 35.236506], [-95.4648091, 35.2363866], [-95.4648898, 35.2362789], [-95.4651286, 35.2363983], [-95.4650478, 35.236506]]]}, "properties": {"osm_id": 1033596042, "building": "yes", "name": "", "height": null, "height_m": null, "levels": null, "tract_id": "40121485601", "tract_name": "4856.01", "tags": {"building": "yes"}}}, {"type": "Feature", "geometry": {"type": "Polygon", "coordinates": [[[-95.4655078, 35.2367755], [-95.4653851, 35.2367154], [-95.4654817, 35.2365839], [-95.4656044, 35.236644], [-95.4655078, 35.2367755]]]}, "properties": {"osm_id": 1033596043, "building": "yes", "name": "", "height": null, "height_m": null, "levels": null, "tract_id": "40121485601", "tract_name": "4856.01", "tags": {"building": "yes"}}}, {"type": "Feature", "geometry": {"type": "Polygon", "coordinates": [[[-95.4785138, 35.2398425], [-95.4781102, 35.2398414], [-95.4781114, 35.239538], [-95.4785151, 35.2395391], [-95.4785138, 35.2398425]]]}, "properties": {"osm_id": 1033596059, "building": "yes", "name": "Pixie Woods Furniture", "height": null, "height_m": null, "levels": null, "tract_id": "40121485601", "tract_name": "4856.01", "tags": {"building": "yes", "name": "Pixie Woods Furniture", "shop": "furniture"}}}]}