{"type": "FeatureCollection", "features": [{"type": "Feature", "geometry": {"type": "Polygon", "coordinates": [[[-97.3390581, 35.4922581], [-97.3398758, 35.4922516], [-97.3398714, 35.491888], [-97.3400143, 35.4918868], [-97.340009, 35.4914416], [-97.3395003, 35.4914457], [-97.3395061, 35.491932], [-97.3391926, 35.4919344], [-97.3391942, 35.4920683], [-97.3390558, 35.4920694], [-97.3390581, 35.4922581]]]}, "properties": {"osm_id": 501244935, "building": "industrial", "name": "", "height": null, "height_m": null, "levels": null, "tract_id": "40109108805", "tract_name": "1088.05", "tags": {"building": "industrial"}}}, {"type": "Feature", "geometry": {"type": "Polygon", "coordinates": [[[-97.3526809, 35.4858326], [-97.352679, 35.4854879], [-97.3518988, 35.4854909], [-97.3519003, 35.4857387], [-97.3525083, 35.4857364], [-97.3525089, 35.4858332], [-97.3526809, 35.4858326]]]}, "properties": {"osm_id": 501894977, "building": "yes", "name": "", "height": null, "height_m": null, "levels": null, "tract_id": "40109108805", "tract_name": "1088.05", "tags": {"building": "yes"}}}, {"type": "Feature", "geometry": {"type": "Polygon", "coordinates": [[[-97.3088033, 35.5064544], [-97.3087131, 35.5064005], [-97.3087506, 35.5063492], [-97.3086609, 35.5063023], [-97.3086212, 35.5063483], [-97.308526, 35.5062991], [-97.3083706, 35.5064769], [-97.3083996, 35.5064914], [-97.3083163, 35.506581], [-97.3083651, 35.5066084], [-97.3082972, 35.5066838], [-97.3083648, 35.5067215], [-97.3085095, 35.5068023], [-97.3085787, 35.5067243], [-97.3085541, 35.5067069], [-97.3086349, 35.5066164], [-97.308653, 35.5066275], [-97.3088033, 35.5064544]]]}, "properties": {"osm_id": 553178445, "building": "yes", "name": "Minnis Lakeview Recreation Center", "height": null, "height_m": null, "levels": null, "tract_id": "40109108805", "tract_name": "1088.05", "tags": {"addr:city": "Oklahoma City", "addr:housenumber": "12520", "addr:postcode": "73084", "addr:state": "OK", "addr:street": "Northeast 36th Street", "building": "yes", "name": "Minnis Lakeview Recreation Center"}}}, {"type": "Feature", "geometry": {"type": "Polygon", "coordinates": [[[-97.3243275, 35.4927246], [-97.3241021, 35.4927296], [-97.3240772, 35.4924189], [-97.3243072, 35.4924143], [-97.3243088, 35.492439], [-97.3243275, 35.4927246]]]}, "properties": {"osm_id": 588259760, "building": "yes", "name": "Nicoma Park Fire Station", "height": null, "height_m": null, "levels": null, "tract_id": "40109108805", "tract_name": "1088.05", "tags": {"addr:city": "Nicoma Park", "addr:housenumber": "11600", "addr:postcode": "73066", "addr:state": "OK", "addr:street": "Northeast 23rd Street", "amenity": "fire_station", "building": "yes", "name": "Nicoma Park Fire Station"}}}, {"type": "Feature", "geometry": {"type": "Polygon", "coordinates": [[[-97.3383921, 35.4922847], [-97.3379522, 35.4922869], [-97.3379495, 35.4919178], [-97.3383894, 35.4919157], [-97.3383921, 35.4922847]]]}, "properties": {"osm_id": 689587677, "building": "industrial", "name": "", "height": null, "height_m": null, "levels": null, "tract_id": "40109108805", "tract_name": "1088.05", "tags": {"building": "industrial"}}}, {"type": "Feature", "geometry": {"type": "Polygon", "coordinates": [[[-97.3388354, 35.4926141], [-97.3386464, 35.4926138], [-97.3386474, 35.4921902], [-97.3388364, 35.4921904], [-97.3388354, 35.4926141]]]}, "properties": {"osm_id": 689587678, "building": "industrial", "name": "", "height": null, "height_m": null, "levels": null, "tract_id": "40109108805", "tract_name": "1088.05", "tags": {"building": "industrial"}}}, {"type": "Feature", "geometry": {"type": "Polygon", "coordinates": [[[-97.338552, 35.4926278], [-97.3379631, 35.4926253], [-97.3379639, 35.4925093], [-97.3382388, 35.4925105], [-97.3382396, 35.4923997], [-97.3385535, 35.4924011], [-97.338552, 35.4926278]]]}, "properties": {"osm_id": 689587679, "building": "industrial", "name": "", "height": null, "height_m": null, "levels": null, "tract_id": "40109108805", "tract_name": "1088.05", "tags": {"building": "industrial"}}}, {"type": "Feature", "geometry": {"type": "Polygon", "coordinates": [[[-97.3362554, 35.4917081], [-97.3359873, 35.4917148], [-97.3359808, 35.4915411], [-97.3362488, 35.4915344], [-97.3362554, 35.4917081]]]}, "properties": {"osm_id": 689587680, "building": "industrial", "name": "", "height": null, "height_m": null, "levels": null, "tract_id": "40109108805", "tract_name": "1088.05", "tags": {"building": "industrial"}}}, {"type": "Feature", "geometry": {"type": "Polygon", "coordinates": [[[-97.3362508, 35.4914751], [-97.3359827, 35.4914817], [-97.3359762, 35.491308], [-97.3362442, 35.4913013], [-97.3362508, 35.4914751]]]}, "properties": {"osm_id": 689587681, "building": "industrial", "name": "", "height": null, "height_m": null, "levels": null, "tract_id": "40109108805", "tract_name": "1088.05", "tags": {"building": "industrial"}}}, {"type": "Feature", "geometry": {"type": "Polygon", "coordinates": [[[-97.3361653, 35.4920668], [-97.3360151, 35.4920694], [-97.3360092, 35.491848], [-97.3361594, 35.4918454], [-97.3361653, 35.4920668]]]}, "properties": {"osm_id": 689587682, "building": "industrial", "name": "", "height": null, "height_m": null, "levels": null, "tract_id": "40109108805", "tract_name": "1088.05", "tags": {"building": "industrial"}}}, {"type": "Feature", "geometry": {"type": "Polygon", "coordinates": [[[-97.3226859, 35.4911242], [-97.3226272, 35.4909735], [-97.3224622, 35.4910161], [-97.3224238, 35.4909176], [-97.3223207, 35.4909442], [-97.3223905, 35.4911233], [-97.3223388, 35.4911366], [-97.3223662, 35.4912068], [-97.3226859, 35.4911242]]]}, "properties": {"osm_id": 1044737988, "building": "yes", "name": "", "height": null, "height_m": null, "levels": null, "tract_id": "40109108805", "tract_name": "1088.05", "tags": {"addr:city": "Choctaw", "addr:housenumber": "2002", "addr:postcode": "73020", "addr:state": "OK", "addr:street": "Nichols Drive", "building": "yes"}}}, {"type": "Feature", "geometry": {"type": "Polygon", "coordinates": [[[-97.3519138, 35.4918221], [-97.3518001, 35.4918269], [-97.3518073, 35.4919393], [-97.351921, 35.4919344], [-97.3519138, 35.4918221]]]}, "properties": {"osm_id": 1265994991, "building": "yes", "name": "", "height": null, "height_m": null, "levels": null, "tract_id": "40109108805", "tract_name": "1088.05", "tags": {"building": "yes"}}}, {"type": "Feature", "geometry": {"type": "Polygon", "coordinates": [[[-97.3515157, 35.491357], [-97.3513986, 35.4914651], [-97.3514733, 35.4915187], [-97.3515904, 35.4914107], [-97.3515157, 35.491357]]]}, "properties": {"osm_id": 1265994992, "building": "yes", "name": "", "height": null, "height_m": null, "levels": null, "tract_id": "40109108805", "tract_name": "1088.05", "tags": {"building": "yes"}}}, {"type": "Feature", "geometry": {"type": "Polygon", "coordinates": [[[-97.3526943, 35.4918666], [-97.3526913, 35.4919473], [-97.3528253, 35.4919506], [-97.3528283, 35.4918698], [-97.3526943, 35.4918666]]]}, "properties": {"osm_id": 1265994993, "building": "yes", "name": "", "height": null, "height_m": null, "levels": null, "tract_id": "40109108805", "tract_name": "1088.05", "tags": {"building": "yes"}}}, {"type": "Feature", "geometry": {"type": "Polygon", "coordinates": [[[-97.3519936, 35.4917753], [-97.3521518, 35.4917731], [-97.3521502, 35.4916945], [-97.351992, 35.4916967], [-97.3519936, 35.4917753]]]}, "properties": {"osm_id": 1265994994, "building": "yes", "name": "", "height": null, "height_m": null, "levels": null, "tract_id": "40109108805", "tract_name": "1088.05", "tags": {"building": "yes"}}}, {"type": "Feature", "geometry": {"type": "Polygon", "coordinates": [[[-97.3514474, 35.4919056], [-97.3512422, 35.4919045], [-97.3512413, 35.4920181], [-97.3514465, 35.4920191], [-97.3514474, 35.4919056]]]}, "properties": {"osm_id": 1265994995, "building": "yes", "name": "", "height": null, "height_m": null, "levels": null, "tract_id": "40109108805", "tract_name": "1088.05", "tags": {"building": "yes"}}}, {"type": "Feature", "geometry": {"type": "Polygon", "coordinates": [[[-97.3516295, 35.4925383], [-97.351631, 35.4926518], [-97.3517195, 35.4926511], [-97.351718, 35.4925375], [-97.3516295, 35.4925383]]]}, "properties": {"osm_id": 1265994996, "building": "yes", "name": "", "height": null, "height_m": null, "levels": null, "tract_id": "40109108805", "tract_name": "1088.05", "tags": {"building": "yes", "shop": "yes"}}}, {"type": "Feature", "geometry": {"type": "Polygon", "coordinates": [[[-97.3527494, 35.4910457], [-97.3527477, 35.4910959], [-97.35282, 35.4910975], [-97.3528218, 35.4910473], [-97.3527494, 35.4910457]]]}, "properties": {"osm_id": 1265994997, "building": "yes", "name": "", "height": null, "height_m": null, "levels": null, "tract_id": "40109108805", "tract_name": "1088.05", "tags": {"building": "yes"}}}, {"type": "Feature", "geometry": {"type": "Polygon", "coordinates": [[[-97.352701, 35.4921755], [-97.3526977, 35.4923436], [-97.3526615, 35.4923431], [-97.3526601, 35.492413], [-97.3528183, 35.492415], [-97.352823, 35.492177], [-97.352701, 35.4921755]]]}, "properties": {"osm_id": 1265994998, "building": "detached", "name": "", "height": null, "height_m": null, "levels": null, "tract_id": "40109108805", "tract_name": "1088.05", "tags": {"building": "detached"}}}, {"type": "Feature", "geometry": {"type": "Polygon", "coordinates": [[[-97.3528122, 35.4925963], [-97.352713, 35.4925957], [-97.3527125, 35.4926459], [-97.3525087, 35.4926448], [-97.352508, 35.4927234], [-97.3524732, 35.4927232], [-97.3524729, 35.4927582], [-97.3528108, 35.4927601], [-97.3528122, 35.4925963]]]}, "properties": {"osm_id": 1265994999, "building": "yes", "name": "", "height": null, "height_m": null, "levels": null, "tract_id": "40109108805", "tract_name": "1088.05", "tags": {"building": "yes", "shop": "yes"}}}, {"type": "Feature", "geometry": {"type": "Polygon", "coordinates": [[[-97.3527693, 35.491384], [-97.3527719, 35.4914888], [-97.3528537, 35.4914874], [-97.3528512, 35.4913827], [-97.3527693, 35.491384]]]}, "properties": {"osm_id": 1265995000, "building": "yes", "name": "", "height": null, "height_m": null, "levels": null, "tract_id": "40109108805", "tract_name": "1088.05", "tags": {"building": "yes"}}}, {"type": "Feature", "geometry": {"type": "Polygon", "coordinates": [[[-97.3515142, 35.4924497], [-97.3512461, 35.4924468], [-97.3512428, 35.4926446], [-97.351511, 35.4926475], [-97.3515142, 35.4924497]]]}, "properties": {"osm_id": 1265995001, "building": "yes", "name": "", "height": null, "height_m": null, "levels": null, "tract_id": "40109108805", "tract_name": "1088.05", "tags": {"building": "yes", "shop": "yes"}}}, {"type": "Feature", "geometry": {"type": "Polygon", "coordinates": [[[-97.3525019, 35.4914023], [-97.3524054, 35.4914041], [-97.3524071, 35.4914643], [-97.3525036, 35.4914625], [-97.3525019, 35.4914023]]]}, "properties": {"osm_id": 1265995002, "building": "yes", "name": "", "height": null, "height_m": null, "levels": null, "tract_id": "40109108805", "tract_name": "1088.05", "tags": {"building": "yes"}}}, {"type": "Feature", "geometry": {"type": "Polygon", "coordinates": [[[-97.3526136, 35.4917822], [-97.3527128, 35.4917835], [-97.3527165, 35.4916001], [-97.3526575, 35.4915993], [-97.3526571, 35.4916168], [-97.3526089, 35.4916161], [-97.352608, 35.4916598], [-97.3525704, 35.4916593], [-97.3525694, 35.4917117], [-97.352615, 35.4917123], [-97.3526136, 35.4917822]]]}, "properties": {"osm_id": 1265995003, "building": "yes", "name": "", "height": null, "height_m": null, "levels": null, "tract_id": "40109108805", "tract_name": "1088.05", "tags": {"building": "yes"}}}, {"type": "Feature", "geometry": {"type": "Polygon", "coordinates": [[[-97.3527052, 35.4911088], [-97.3527031, 35.4911852], [-97.3528264, 35.4911875], [-97.3528285, 35.4911111], [-97.3527052, 35.4911088]]]}, "properties": {"osm_id": 1265995004, "building": "yes", "name": "", "height": null, "height_m": null, "levels": null, "tract_id": "40109108805", "tract_name": "1088.05", "tags": {"building": "yes"}}}, {"type": "Feature", "geometry": {"type": "Polygon", "coordinates": [[[-97.3518049, 35.4912355], [-97.3518041, 35.4912683], [-97.3518939, 35.4912698], [-97.3518969, 35.4911541], [-97.3515925, 35.491149], [-97.3515904, 35.4912319], [-97.3518049, 35.4912355]]]}, "properties": {"osm_id": 1265995005, "building": "yes", "name": "", "height": null, "height_m": null, "levels": null, "tract_id": "40109108805", "tract_name": "1088.05", "tags": {"building": "yes"}}}]}