{"type": "FeatureCollection", "features": [{"type": "Feature", "geometry": {"type": "Polygon", "coordinates": [[[-95.3223833, 34.8995644], [-95.3222027, 34.8995663], [-95.3222024, 34.8995458], [-95.3218619, 34.8995494], [-95.321858, 34.8992985], [-95.3217811, 34.8992993], [-95.3217797, 34.8992108], [-95.322197, 34.8992063], [-95.3221966, 34.8991818], [-95.3222403, 34.8991813], [-95.3222393, 34.8991175], [-95.3223381, 34.8991165], [-95.3223391, 34.8991803], [-95.3223772, 34.8991799], [-95.3223775, 34.8992007], [-95.322407, 34.8992004], [-95.3224346, 34.8991783], [-95.3224746, 34.8992118], [-95.322447, 34.899234], [-95.3224484, 34.8993244], [-95.3224106, 34.8993583], [-95.32238, 34.8993586], [-95.3223833, 34.8995644]]]}, "properties": {"osm_id": 281197740, "building": "office", "name": "Kiamichi Electric Cooperative", "height": null, "height_m": null, "levels": null, "tract_id": "40077087200", "tract_name": "872", "tags": {"addr:city": "Wilburton", "addr:housenumber": "1950", "addr:postcode": "74578", "addr:street": "Highway 2", "building": "office", "name": "Kiamichi Electric Cooperative"}}}, {"type": "Feature", "geometry": {"type": "Polygon", "coordinates": [[[-95.3213665, 34.8996579], [-95.3210991, 34.8996593], [-95.3210984, 34.8995755], [-95.3213658, 34.8995741], [-95.3213665, 34.8996579]]]}, "properties": {"osm_id": 281197756, "building": "yes", "name": "", "height": null, "height_m": null, "levels": null, "tract_id": "40077087200", "tract_name": "872", "tags": {"building": "yes"}}}, {"type": "Feature", "geometry": {"type": "Polygon", "coordinates": [[[-95.3214567, 34.8996146], [-95.3214567, 34.8994107], [-95.321547, 34.8994107], [-95.321547, 34.8996146], [-95.3214567, 34.8996146]]]}, "properties": {"osm_id": 281197757, "building": "yes", "name": "", "height": null, "height_m": null, "levels": null, "tract_id": "40077087200", "tract_name": "872", "tags": {"building": "yes"}}}, {"type": "Feature", "geometry": {"type": "Polygon", "coordinates": [[[-95.3215057, 34.8991736], [-95.3215032, 34.8988984], [-95.3216309, 34.8988977], [-95.3216334, 34.8991729], [-95.3215057, 34.8991736]]]}, "properties": {"osm_id": 281197758, "building": "yes", "name": "", "height": null, "height_m": null, "levels": null, "tract_id": "40077087200", "tract_name": "872", "tags": {"building": "yes"}}}, {"type": "Feature", "geometry": {"type": "Polygon", "coordinates": [[[-95.3363336, 35.005698], [-95.3363352, 35.0056758], [-95.3363065, 35.0056744], [-95.3363049, 35.0056967], [-95.3363336, 35.005698]]]}, "properties": {"osm_id": 389786511, "building": "shed", "name": "", "height": null, "height_m": null, "levels": null, "tract_id": "40077087200", "tract_name": "872", "tags": {"building": "shed", "building:colour": "brown"}}}, {"type": "Feature", "geometry": {"type": "Polygon", "coordinates": [[[-95.3369263, 35.0046567], [-95.3369272, 35.0046118], [-95.3368795, 35.0046112], [-95.3368322, 35.0046106], [-95.3368313, 35.0046555], [-95.3369263, 35.0046567]]]}, "properties": {"osm_id": 389793600, "building": "cabin", "name": "Quinton", "height": null, "height_m": 3.0, "levels": 1, "tract_id": "40077087200", "tract_name": "872", "tags": {"building": "cabin", "building:colour": "orange", "building:levels": "1", "name": "Quinton", "ref": "7", "roof:colour": "brown", "roof:levels": "0", "roof:shape": "gabled"}}}, {"type": "Feature", "geometry": {"type": "Polygon", "coordinates": [[[-95.3364193, 35.0038032], [-95.3364326, 35.0037764], [-95.336445, 35.0037515], [-95.3363236, 35.0037109], [-95.3363312, 35.0036957], [-95.3363392, 35.0036796], [-95.3362825, 35.0036607], [-95.3362239, 35.0037784], [-95.3362367, 35.0037827], [-95.3362549, 35.0037887], [-95.3362862, 35.0037992], [-95.3363034, 35.0037645], [-95.3364193, 35.0038032]]]}, "properties": {"osm_id": 389793601, "building": "yes", "name": "American Legion Post 79 McAlester", "height": null, "height_m": null, "levels": null, "tract_id": "40077087200", "tract_name": "872", "tags": {"building": "yes", "building:colour": "orange", "description": "Dining Hall", "name": "American Legion Post 79 McAlester"}}}, {"type": "Feature", "geometry": {"type": "Polygon", "coordinates": [[[-95.3370507, 35.0026047], [-95.3369996, 35.0026733], [-95.3369095, 35.0026282], [-95.3369607, 35.0025596], [-95.3370062, 35.0025824], [-95.3370507, 35.0026047]]]}, "properties": {"osm_id": 389793605, "building": "hut", "name": "Hartshorne Haileyville", "height": null, "height_m": null, "levels": null, "tract_id": "40077087200", "tract_name": "872", "tags": {"building": "hut", "building:colour": "orange", "name": "Hartshorne Haileyville", "ref": "3"}}}, {"type": "Feature", "geometry": {"type": "Polygon", "coordinates": [[[-95.3364914, 35.0034538], [-95.3365455, 35.0034633], [-95.3365979, 35.0034725], [-95.3365705, 35.0035774], [-95.3365578, 35.0036257], [-95.3365368, 35.003622], [-95.3364514, 35.0036071], [-95.3364637, 35.0035602], [-95.3364914, 35.0034538]]]}, "properties": {"osm_id": 389793606, "building": "chapel", "name": "Tabernacle", "height": null, "height_m": null, "levels": null, "tract_id": "40077087200", "tract_name": "872", "tags": {"amenity": "place_of_worship", "building": "chapel", "building:colour": "#85552e", "check_date": "2024-04-28", "name": "Tabernacle", "religion": "christian", "wheelchair": "yes"}}}, {"type": "Feature", "geometry": {"type": "Polygon", "coordinates": [[[-95.3374611, 35.0044049], [-95.3374561, 35.0044244], [-95.3374323, 35.0044204], [-95.3374373, 35.0044008], [-95.3374611, 35.0044049]]]}, "properties": {"osm_id": 389793607, "building": "shed", "name": "", "height": null, "height_m": null, "levels": null, "tract_id": "40077087200", "tract_name": "872", "tags": {"building": "shed", "building:colour": "orange"}}}, {"type": "Feature", "geometry": {"type": "Polygon", "coordinates": [[[-95.3367081, 35.0035657], [-95.3367254, 35.0034885], [-95.3367271, 35.0034813], [-95.3367731, 35.0034879], [-95.336771, 35.0034978], [-95.336755, 35.0035724], [-95.3367081, 35.0035657]]]}, "properties": {"osm_id": 389793608, "building": "yes", "name": "", "height": null, "height_m": null, "levels": null, "tract_id": "40077087200", "tract_name": "872", "tags": {"amenity": "shower", "building": "yes", "building:colour": "grey", "female": "no", "male": "yes"}}}, {"type": "Feature", "geometry": {"type": "Polygon", "coordinates": [[[-95.3367081, 35.0035657], [-95.336755, 35.0035724], [-95.3367395, 35.0036447], [-95.3367374, 35.0036545], [-95.3366896, 35.0036476], [-95.3366915, 35.0036391], [-95.3367081, 35.0035657]]]}, "properties": {"osm_id": 389793609, "building": "yes", "name": "", "height": null, "height_m": null, "levels": null, "tract_id": "40077087200", "tract_name": "872", "tags": {"amenity": "shower", "building": "yes", "building:colour": "grey", "female": "yes", "male": "no"}}}, {"type": "Feature", "geometry": {"type": "Polygon", "coordinates": [[[-95.3367081, 35.0035657], [-95.3367254, 35.0034885], [-95.3367271, 35.0034813], [-95.3366809, 35.0034746], [-95.3366791, 35.0034831], [-95.3366628, 35.0035591], [-95.3367081, 35.0035657]]]}, "properties": {"osm_id": 389793610, "building": "yes", "name": "", "height": null, "height_m": null, "levels": null, "tract_id": "40077087200", "tract_name": "872", "tags": {"amenity": "toilets", "building": "yes", "building:colour": "grey", "changing_table": "no", "fee": "no", "female": "no", "male": "yes", "operator": "Oklahoma Department of Tourism and Recreation", "toilets:disposal": "flush", "toilets:position": "seated;urinal", "unisex": "no", "wheelchair": "yes"}}}, {"type": "Feature", "geometry": {"type": "Polygon", "coordinates": [[[-95.3366896, 35.0036476], [-95.3366452, 35.0036412], [-95.3366472, 35.0036318], [-95.3366628, 35.0035591], [-95.3367081, 35.0035657], [-95.3366915, 35.0036391], [-95.3366896, 35.0036476]]]}, "properties": {"osm_id": 389793611, "building": "yes", "name": "", "height": null, "height_m": null, "levels": null, "tract_id": "40077087200", "tract_name": "872", "tags": {"amenity": "toilets", "building": "yes", "building:colour": "grey", "changing_table": "no", "fee": "no", "female": "yes", "male": "no", "operator": "Oklahoma Department of Tourism and Recreation", "toilets:disposal": "flush", "toilets:position": "seated", "unisex": "no", "wheelchair": "yes"}}}, {"type": "Feature", "geometry": {"type": "Polygon", "coordinates": [[[-95.3362441, 35.005337], [-95.3362423, 35.0052455], [-95.3361844, 35.0052462], [-95.3361849, 35.0052727], [-95.3361553, 35.0052731], [-95.3361271, 35.0052734], [-95.3361265, 35.005247], [-95.3360629, 35.0052478], [-95.3360647, 35.0053393], [-95.3361063, 35.0053388], [-95.3362441, 35.005337]]]}, "properties": {"osm_id": 389920917, "building": "cabin", "name": "Boy Scouts of America", "height": null, "height_m": 3.0, "levels": 1, "tract_id": "40077087200", "tract_name": "872", "tags": {"building": "cabin", "building:colour": "orange", "building:levels": "1", "name": "Boy Scouts of America", "ref": "9", "roof:colour": "brown", "roof:levels": "0", "roof:shape": "gabled"}}}, {"type": "Feature", "geometry": {"type": "Polygon", "coordinates": [[[-95.3359138, 35.0047719], [-95.3360007, 35.0047761], [-95.3359951, 35.0048552], [-95.3359895, 35.0049342], [-95.3359026, 35.00493], [-95.3359138, 35.0047719]]]}, "properties": {"osm_id": 389926674, "building": "cabin", "name": "", "height": null, "height_m": 3.0, "levels": 1, "tract_id": "40077087200", "tract_name": "872", "tags": {"building": "cabin", "building:colour": "orange", "building:levels": "1", "ref": "10", "roof:colour": "brown", "roof:levels": "0", "roof:shape": "gabled"}}}, {"type": "Feature", "geometry": {"type": "Polygon", "coordinates": [[[-95.336642, 35.0033988], [-95.3367182, 35.0033452], [-95.3367914, 35.0032937], [-95.3367603, 35.0032641], [-95.3367271, 35.0032324], [-95.3366541, 35.0032836], [-95.3365777, 35.0033373], [-95.3366097, 35.0033678], [-95.336642, 35.0033988]]]}, "properties": {"osm_id": 389926676, "building": "cabin", "name": "", "height": null, "height_m": 3.0, "levels": 1, "tract_id": "40077087200", "tract_name": "872", "tags": {"building": "cabin", "building:colour": "grey", "building:levels": "1", "ref": "2", "roof:colour": "brown", "roof:levels": "0", "roof:shape": "hipped"}}}, {"type": "Feature", "geometry": {"type": "Polygon", "coordinates": [[[-95.3367087, 35.0050029], [-95.33679, 35.0050147], [-95.3367632, 35.0051384], [-95.3366819, 35.0051266], [-95.3366957, 35.0050627], [-95.3367087, 35.0050029]]]}, "properties": {"osm_id": 389926677, "building": "cabin", "name": "", "height": null, "height_m": 3.0, "levels": 1, "tract_id": "40077087200", "tract_name": "872", "tags": {"building": "cabin", "building:colour": "orange", "building:levels": "1", "ref": "8", "roof:colour": "brown", "roof:levels": "0", "roof:shape": "gabled"}}}, {"type": "Feature", "geometry": {"type": "Polygon", "coordinates": [[[-95.3368627, 35.0033858], [-95.3368335, 35.0034139], [-95.3368215, 35.0034255], [-95.3367489, 35.0033749], [-95.33679, 35.0033352], [-95.3368263, 35.0033605], [-95.3368627, 35.0033858]]]}, "properties": {"osm_id": 389926678, "building": "cabin", "name": "Wilburton", "height": null, "height_m": 3.0, "levels": 1, "tract_id": "40077087200", "tract_name": "872", "tags": {"building": "cabin", "building:colour": "orange", "building:levels": "1", "name": "Wilburton", "ref": "4", "roof:colour": "brown", "roof:levels": "0", "roof:shape": "gabled"}}}, {"type": "Feature", "geometry": {"type": "Polygon", "coordinates": [[[-95.3168273, 34.9179739], [-95.3167248, 34.9179011], [-95.3165812, 34.9180371], [-95.3166205, 34.9180651], [-95.3166139, 34.9180713], [-95.3166771, 34.9181162], [-95.3168273, 34.9179739]]]}, "properties": {"osm_id": 389949450, "building": "retail", "name": "McDonald's", "height": null, "height_m": null, "levels": null, "tract_id": "40077087200", "tract_name": "872", "tags": {"amenity": "fast_food", "brand": "McDonald's", "brand:wikidata": "Q38076", "building": "retail", "cuisine": "burger", "name": "McDonald's", "takeaway": "yes", "website": "https://www.mcdonalds.com/us/en-us/location/ok/wilburton/417-w-main/31355.html"}}}, {"type": "Feature", "geometry": {"type": "Polygon", "coordinates": [[[-95.3951261, 34.9163085], [-95.3948268, 34.9163118], [-95.3948234, 34.9161076], [-95.3951228, 34.9161043], [-95.3951261, 34.9163085]]]}, "properties": {"osm_id": 389952199, "building": "hangar", "name": "", "height": null, "height_m": null, "levels": null, "tract_id": "40077087200", "tract_name": "872", "tags": {"building": "hangar"}}}, {"type": "Feature", "geometry": {"type": "Polygon", "coordinates": [[[-95.317511, 34.9195416], [-95.317666, 34.9192765], [-95.3176857, 34.9192842], [-95.3177559, 34.9191641], [-95.3172555, 34.9189675], [-95.3172036, 34.9190562], [-95.3172884, 34.9190895], [-95.3172609, 34.9191366], [-95.3171913, 34.9191093], [-95.3171673, 34.9191505], [-95.3172102, 34.9191673], [-95.317198, 34.9191882], [-95.317228, 34.9192], [-95.3171589, 34.9193183], [-95.3170859, 34.9192897], [-95.3170309, 34.9193839], [-95.31711, 34.9194149], [-95.3170859, 34.9194562], [-95.3174722, 34.919608], [-95.317511, 34.9195416]]]}, "properties": {"osm_id": 389953049, "building": "retail", "name": "Roy's Cardinal Discount Foods", "height": null, "height_m": null, "levels": null, "tract_id": "40077087200", "tract_name": "872", "tags": {"building": "retail", "name": "Roy's Cardinal Discount Foods", "shop": "supermarket"}}}, {"type": "Feature", "geometry": {"type": "Polygon", "coordinates": [[[-95.317511, 34.9195416], [-95.3179956, 34.919732], [-95.3181505, 34.9194668], [-95.3176857, 34.9192842], [-95.317666, 34.9192765], [-95.317511, 34.9195416]]]}, "properties": {"osm_id": 389953050, "building": "retail", "name": "", "height": null, "height_m": null, "levels": null, "tract_id": "40077087200", "tract_name": "872", "tags": {"building": "retail"}}}, {"type": "Feature", "geometry": {"type": "Polygon", "coordinates": [[[-95.3199297, 34.9204839], [-95.3200183, 34.9203928], [-95.3197696, 34.9202302], [-95.319681, 34.9203213], [-95.3199297, 34.9204839]]]}, "properties": {"osm_id": 390081639, "building": "retail", "name": "Pizza Hut", "height": null, "height_m": null, "levels": null, "tract_id": "40077087200", "tract_name": "872", "tags": {"addr:city": "Wilburton", "addr:housenumber": "805", "addr:postcode": "74578", "addr:state": "OK", "addr:street": "Highway 2 North", "amenity": "restaurant", "brand": "Pizza Hut", "brand:wikidata": "Q191615", "building": "retail", "cuisine": "pizza", "name": "Pizza Hut", "phone": "+1 918-465-2386", "takeaway": "yes", "website": "https://locations.pizzahut.com/ok/wilburton/805-hwy-2-north"}}}, {"type": "Feature", "geometry": {"type": "Polygon", "coordinates": [[[-95.3170455, 34.9180211], [-95.3168696, 34.9181553], [-95.3167539, 34.9182662], [-95.3168782, 34.9183539], [-95.3169999, 34.918242], [-95.3171377, 34.9180927], [-95.3171045, 34.9180655], [-95.3169864, 34.9181926], [-95.3169384, 34.9181573], [-95.3170774, 34.9180514], [-95.3170455, 34.9180211]]]}, "properties": {"osm_id": 390082813, "building": "retail", "name": "Sonic", "height": null, "height_m": null, "levels": null, "tract_id": "40077087200", "tract_name": "872", "tags": {"addr:city": "Wilburton", "addr:housenumber": "503", "addr:postcode": "74578", "addr:state": "OK", "addr:street": "Highway 2 North", "amenity": "fast_food", "brand": "Sonic", "brand:wikidata": "Q7561808", "building": "retail", "cuisine": "burger", "drive_in": "yes", "name": "Sonic", "opening_hours": "Mo-Sa 06:00-23:00; Su 07:00-23:00", "phone": "+1 918-465-3832", "smoking": "yes", "takeaway": "yes", "website": "https://locations.sonicdrivein.com/ok/wilburton/503-highway-2-north.html"}}}, {"type": "Feature", "geometry": {"type": "Polygon", "coordinates": [[[-95.3174582, 34.9183878], [-95.3173373, 34.9185982], [-95.317226, 34.9185553], [-95.3173469, 34.9183449], [-95.3174582, 34.9183878]]]}, "properties": {"osm_id": 390082815, "building": "retail", "name": "Suds Your Duds", "height": null, "height_m": null, "levels": null, "tract_id": "40077087200", "tract_name": "872", "tags": {"addr:housenumber": "609", "addr:street": "OK 2", "building": "retail", "name": "Suds Your Duds", "opening_hours": "Mo-Su 08:00-19:30", "shop": "laundry"}}}, {"type": "Feature", "geometry": {"type": "Polygon", "coordinates": [[[-95.3167798, 34.9186959], [-95.3168792, 34.918605], [-95.3166443, 34.9184324], [-95.3165449, 34.9185233], [-95.3167798, 34.9186959]]]}, "properties": {"osm_id": 390082817, "building": "yes", "name": "", "height": null, "height_m": null, "levels": null, "tract_id": "40077087200", "tract_name": "872", "tags": {"building": "yes"}}}, {"type": "Feature", "geometry": {"type": "Polygon", "coordinates": [[[-95.3364206, 35.004116], [-95.3364434, 35.0041325], [-95.3365062, 35.0041778], [-95.336531, 35.0041548], [-95.3365515, 35.0041357], [-95.3365087, 35.0041047], [-95.3364659, 35.0040738], [-95.3364206, 35.004116]]]}, "properties": {"osm_id": 390095211, "building": "cabin", "name": "", "height": null, "height_m": 3.0, "levels": 1, "tract_id": "40077087200", "tract_name": "872", "tags": {"building": "cabin", "building:colour": "orange", "building:levels": "1", "ref": "1", "roof:colour": "brown", "roof:levels": "0", "roof:shape": "gabled"}}}, {"type": "Feature", "geometry": {"type": "Polygon", "coordinates": [[[-95.3372579, 35.0037887], [-95.3371799, 35.0038715], [-95.3371661, 35.0038628], [-95.3371106, 35.0038276], [-95.3371481, 35.0037879], [-95.3371887, 35.0037449], [-95.3372431, 35.0037794], [-95.3372579, 35.0037887]]]}, "properties": {"osm_id": 390095212, "building": "cabin", "name": "", "height": null, "height_m": 3.0, "levels": 1, "tract_id": "40077087200", "tract_name": "872", "tags": {"building": "cabin", "building:colour": "orange", "building:levels": "1", "ref": "5", "roof:colour": "brown", "roof:levels": "0", "roof:shape": "hipped"}}}, {"type": "Feature", "geometry": {"type": "Polygon", "coordinates": [[[-95.3368525, 35.0041279], [-95.3368749, 35.0040479], [-95.3368966, 35.0039708], [-95.3368501, 35.0039621], [-95.3368004, 35.0039526], [-95.3367788, 35.0040294], [-95.3367561, 35.0041097], [-95.3368039, 35.0041188], [-95.3368525, 35.0041279]]]}, "properties": {"osm_id": 390095213, "building": "cabin", "name": "", "height": null, "height_m": 3.0, "levels": 1, "tract_id": "40077087200", "tract_name": "872", "tags": {"building": "cabin", "building:colour": "grey", "building:levels": "1", "ref": "6", "roof:colour": "brown", "roof:levels": "0", "roof:shape": "hipped"}}}, {"type": "Feature", "geometry": {"type": "Polygon", "coordinates": [[[-95.3533317, 34.9974633], [-95.3533184, 34.9974684], [-95.3531481, 34.9975333], [-95.3531306, 34.99754], [-95.3530412, 34.9973826], [-95.3532423, 34.9973059], [-95.3533317, 34.9974633]]]}, "properties": {"osm_id": 390106123, "building": "barn", "name": "Robbers Cave Stables", "height": null, "height_m": null, "levels": null, "tract_id": "40077087200", "tract_name": "872", "tags": {"building": "barn", "leisure": "horse_riding", "name": "Robbers Cave Stables"}}}, {"type": "Feature", "geometry": {"type": "Polygon", "coordinates": [[[-95.3044744, 34.9186868], [-95.3044671, 34.9185303], [-95.3041109, 34.9185353], [-95.3041145, 34.9186898], [-95.3044744, 34.9186868]]]}, "properties": {"osm_id": 393112412, "building": "yes", "name": "Eastern Electric, Inc.", "height": null, "height_m": null, "levels": null, "tract_id": "40077087200", "tract_name": "872", "tags": {"addr:city": "Wilburton", "addr:country": "US", "addr:housenumber": "218", "addr:postcode": "74578", "addr:state": "OK", "addr:street": "East Main Street", "building": "yes", "craft": "electrician", "description:en": "Electrician, Electrical Contractor, Heating Contractor, Air Conditioning, Plumbing Contractors, Plumber, AC Service, Cooling, AC Repair, Electrical Services", "email": "easternelectric@sbcglobal.net", "name": "Eastern Electric, Inc.", "opening_hours": "Mo-Fr 08:00-17:00; Sa-Su off", "operator": "Mark Tullier", "phone": "+1 918 4650150", "website": "https://www.easternelectricok.com/"}}}, {"type": "Feature", "geometry": {"type": "Polygon", "coordinates": [[[-95.3036373, 34.9193291], [-95.303636, 34.9191053], [-95.3035278, 34.9191057], [-95.3035291, 34.9193296], [-95.3036373, 34.9193291]]]}, "properties": {"osm_id": 393112414, "building": "yes", "name": "", "height": null, "height_m": null, "levels": null, "tract_id": "40077087200", "tract_name": "872", "tags": {"building": "yes"}}}, {"type": "Feature", "geometry": {"type": "Polygon", "coordinates": [[[-95.304782, 34.9187013], [-95.3047796, 34.9185205], [-95.3046027, 34.9185221], [-95.3046039, 34.9186128], [-95.3046696, 34.9186122], [-95.3046708, 34.9187022], [-95.304782, 34.9187013]]]}, "properties": {"osm_id": 393112417, "building": "yes", "name": "", "height": null, "height_m": null, "levels": null, "tract_id": "40077087200", "tract_name": "872", "tags": {"building": "yes"}}}, {"type": "Feature", "geometry": {"type": "Polygon", "coordinates": [[[-95.3038374, 34.9193747], [-95.3038287, 34.9191014], [-95.3036775, 34.9191047], [-95.3036822, 34.9192518], [-95.3036523, 34.9192524], [-95.3036563, 34.9193786], [-95.3038374, 34.9193747]]]}, "properties": {"osm_id": 393112419, "building": "yes", "name": "", "height": null, "height_m": null, "levels": null, "tract_id": "40077087200", "tract_name": "872", "tags": {"building": "yes"}}}, {"type": "Feature", "geometry": {"type": "Polygon", "coordinates": [[[-95.3045725, 34.9191742], [-95.3045733, 34.9190762], [-95.304523, 34.919076], [-95.3045231, 34.9190554], [-95.3044502, 34.919055], [-95.30445, 34.9190762], [-95.3044207, 34.919076], [-95.3044199, 34.9191734], [-95.3045725, 34.9191742]]]}, "properties": {"osm_id": 393112421, "building": "yes", "name": "", "height": null, "height_m": null, "levels": null, "tract_id": "40077087200", "tract_name": "872", "tags": {"building": "yes"}}}, {"type": "Feature", "geometry": {"type": "Polygon", "coordinates": [[[-95.3042993, 34.9192301], [-95.3042981, 34.9191663], [-95.3043163, 34.9191673], [-95.3043176, 34.9191155], [-95.3043005, 34.9191165], [-95.3043018, 34.9190716], [-95.3041352, 34.9190706], [-95.3041303, 34.9192301], [-95.3042993, 34.9192301]]]}, "properties": {"osm_id": 393112423, "building": "yes", "name": "", "height": null, "height_m": null, "levels": null, "tract_id": "40077087200", "tract_name": "872", "tags": {"building": "yes"}}}, {"type": "Feature", "geometry": {"type": "Polygon", "coordinates": [[[-95.3502405, 34.9945905], [-95.3503145, 34.994631], [-95.3502788, 34.9946748], [-95.3503127, 34.9946934], [-95.3501609, 34.9948793], [-95.3500224, 34.9948034], [-95.3500926, 34.9947174], [-95.3500161, 34.9946755], [-95.3500671, 34.994613], [-95.3501742, 34.9946717], [-95.3502405, 34.9945905]]]}, "properties": {"osm_id": 397141008, "building": "yes", "name": "", "height": null, "height_m": null, "levels": null, "tract_id": "40077087200", "tract_name": "872", "tags": {"building": "yes"}}}, {"type": "Feature", "geometry": {"type": "Polygon", "coordinates": [[[-95.350779, 34.9945232], [-95.3507319, 34.9945861], [-95.350578, 34.9945086], [-95.3506251, 34.9944458], [-95.350779, 34.9945232]]]}, "properties": {"osm_id": 397141009, "building": "yes", "name": "", "height": null, "height_m": null, "levels": null, "tract_id": "40077087200", "tract_name": "872", "tags": {"building": "yes"}}}, {"type": "Feature", "geometry": {"type": "Polygon", "coordinates": [[[-95.3494283, 34.9956251], [-95.3494172, 34.9954719], [-95.3495124, 34.9954673], [-95.3495235, 34.9956205], [-95.3494283, 34.9956251]]]}, "properties": {"osm_id": 397141010, "building": "yes", "name": "", "height": null, "height_m": null, "levels": null, "tract_id": "40077087200", "tract_name": "872", "tags": {"building": "yes"}}}, {"type": "Feature", "geometry": {"type": "Polygon", "coordinates": [[[-95.3501218, 34.9953225], [-95.34998, 34.9952828], [-95.3500353, 34.9951502], [-95.3501771, 34.9951899], [-95.3501218, 34.9953225]]]}, "properties": {"osm_id": 397141011, "building": "yes", "name": "", "height": null, "height_m": null, "levels": null, "tract_id": "40077087200", "tract_name": "872", "tags": {"building": "yes"}}}, {"type": "Feature", "geometry": {"type": "Polygon", "coordinates": [[[-95.349547, 34.9952269], [-95.349413, 34.9952369], [-95.3493858, 34.9949931], [-95.3495199, 34.9949831], [-95.349547, 34.9952269]]]}, "properties": {"osm_id": 397141012, "building": "yes", "name": "", "height": null, "height_m": null, "levels": null, "tract_id": "40077087200", "tract_name": "872", "tags": {"building": "yes"}}}, {"type": "Feature", "geometry": {"type": "Polygon", "coordinates": [[[-95.3503325, 34.9951035], [-95.3502906, 34.9950839], [-95.3503419, 34.9950102], [-95.3503838, 34.9950298], [-95.3503325, 34.9951035]]]}, "properties": {"osm_id": 397141013, "building": "yes", "name": "", "height": null, "height_m": null, "levels": null, "tract_id": "40077087200", "tract_name": "872", "tags": {"building": "yes"}}}, {"type": "Feature", "geometry": {"type": "Polygon", "coordinates": [[[-95.3499871, 34.9947124], [-95.3499659, 34.9947385], [-95.3499318, 34.9947198], [-95.3499531, 34.9946937], [-95.3499871, 34.9947124]]]}, "properties": {"osm_id": 397141014, "building": "yes", "name": "", "height": null, "height_m": null, "levels": null, "tract_id": "40077087200", "tract_name": "872", "tags": {"building": "yes"}}}, {"type": "Feature", "geometry": {"type": "Polygon", "coordinates": [[[-95.3498271, 34.9950877], [-95.3498758, 34.9951791], [-95.3498272, 34.9951965], [-95.3497784, 34.9951051], [-95.3498271, 34.9950877]]]}, "properties": {"osm_id": 397141015, "building": "yes", "name": "", "height": null, "height_m": null, "levels": null, "tract_id": "40077087200", "tract_name": "872", "tags": {"building": "yes"}}}, {"type": "Feature", "geometry": {"type": "Polygon", "coordinates": [[[-95.3499811, 34.9946012], [-95.3498936, 34.9947083], [-95.3497831, 34.9946477], [-95.3498229, 34.9945988], [-95.3498618, 34.9946201], [-95.3499094, 34.9945618], [-95.3499811, 34.9946012]]]}, "properties": {"osm_id": 397141016, "building": "yes", "name": "", "height": null, "height_m": null, "levels": null, "tract_id": "40077087200", "tract_name": "872", "tags": {"building": "yes"}}}, {"type": "Feature", "geometry": {"type": "Polygon", "coordinates": [[[-95.3104292, 34.919141], [-95.3102951, 34.9191419], [-95.3102936, 34.9190034], [-95.3102735, 34.9190035], [-95.3102722, 34.9188814], [-95.3104265, 34.9188803], [-95.3104292, 34.919141]]]}, "properties": {"osm_id": 398786269, "building": "yes", "name": "Adelita's Mexican Restaurant", "height": null, "height_m": null, "levels": null, "tract_id": "40077087200", "tract_name": "872", "tags": {"amenity": "restaurant", "building": "yes", "name": "Adelita's Mexican Restaurant", "opening_hours": "Mo-Su 11:00-21:00"}}}, {"type": "Feature", "geometry": {"type": "Polygon", "coordinates": [[[-95.3068192, 34.9187139], [-95.3066552, 34.9187166], [-95.3066484, 34.9184375], [-95.3068124, 34.9184348], [-95.3068192, 34.9187139]]]}, "properties": {"osm_id": 398786270, "building": "retail", "name": "Bumper to Bumper", "height": null, "height_m": null, "levels": null, "tract_id": "40077087200", "tract_name": "872", "tags": {"addr:housenumber": "212", "addr:street": "East Main Street", "building": "retail", "name": "Bumper to Bumper", "opening_hours": "Mo-Fr 07:30-17:30; Sa 08:00-12:00", "phone": "+1-918-465-9293", "shop": "car_parts"}}}, {"type": "Feature", "geometry": {"type": "Polygon", "coordinates": [[[-95.3156729, 34.9189045], [-95.3155214, 34.9189628], [-95.3154654, 34.918865], [-95.3155092, 34.9188482], [-95.3155825, 34.91882], [-95.315617, 34.9188067], [-95.3156729, 34.9189045]]]}, "properties": {"osm_id": 398786271, "building": "yes", "name": "EZ Mart", "height": null, "height_m": null, "levels": null, "tract_id": "40077087200", "tract_name": "872", "tags": {"brand": "EZ Mart", "building": "yes", "name": "EZ Mart", "shop": "convenience"}}}, {"type": "Feature", "geometry": {"type": "Polygon", "coordinates": [[[-95.3095526, 34.9186566], [-95.3093521, 34.9186641], [-95.309351, 34.918645], [-95.3093467, 34.9185681], [-95.3093444, 34.9185268], [-95.3093386, 34.9184235], [-95.3093373, 34.9184002], [-95.3095378, 34.9183926], [-95.3095526, 34.9186566]]]}, "properties": {"osm_id": 398786276, "building": "yes", "name": "El Jimador Mexican Grill", "height": null, "height_m": null, "levels": null, "tract_id": "40077087200", "tract_name": "872", "tags": {"addr:city": "Wilburton", "addr:housenumber": "102", "addr:postcode": "74578", "addr:state": "OK", "addr:street": "East Main Street", "amenity": "restaurant", "building": "yes", "cuisine": "mexican", "name": "El Jimador Mexican Grill", "opening_hours": "Mo-Sa 11:00-21:00; Su 11:00-20:00", "opening_hours:lunch": "11:00-15:00", "phone": "(918) 917-1020"}}}, {"type": "Feature", "geometry": {"type": "Polygon", "coordinates": [[[-95.3071952, 34.9189921], [-95.3072003, 34.9192312], [-95.3070578, 34.9192344], [-95.3070447, 34.9189837], [-95.3071918, 34.9189773], [-95.3071952, 34.9189921]]]}, "properties": {"osm_id": 398786277, "building": "yes", "name": "Federal Building", "height": null, "height_m": null, "levels": null, "tract_id": "40077087200", "tract_name": "872", "tags": {"addr:housenumber": "207", "addr:street": "East Main Street", "building": "yes", "name": "Federal Building", "office": "government"}}}, {"type": "Feature", "geometry": {"type": "Polygon", "coordinates": [[[-95.3129103, 34.9185867], [-95.3129062, 34.9184185], [-95.312982, 34.9184173], [-95.3129834, 34.9184755], [-95.3130094, 34.9184751], [-95.313012, 34.9185851], [-95.3129103, 34.9185867]]]}, "properties": {"osm_id": 398786278, "building": "retail", "name": "Grantham Eye Clinic", "height": null, "height_m": null, "levels": null, "tract_id": "40077087200", "tract_name": "872", "tags": {"addr:housenumber": "218", "addr:street": "West Main Street", "building": "retail", "name": "Grantham Eye Clinic", "opening_hours": "Mo-Th 08:00-17:00; Fr 08:00-12:00", "shop": "optician"}}}, {"type": "Feature", "geometry": {"type": "Polygon", "coordinates": [[[-95.3233179, 34.9210186], [-95.3232739, 34.9210962], [-95.3231487, 34.9210485], [-95.3230981, 34.9211378], [-95.3232778, 34.9212063], [-95.3232717, 34.9212171], [-95.3233128, 34.9212327], [-95.3232938, 34.9212662], [-95.3235304, 34.9213564], [-95.3234994, 34.9214111], [-95.3236329, 34.921462], [-95.3236851, 34.9213699], [-95.3237673, 34.9214012], [-95.3237994, 34.9213445], [-95.3239136, 34.9213881], [-95.3239717, 34.9212857], [-95.3237876, 34.9212155], [-95.3238641, 34.9210805], [-95.3237594, 34.9210406], [-95.3236752, 34.921189], [-95.3236452, 34.9211776], [-95.3236612, 34.9211495], [-95.3233179, 34.9210186]]]}, "properties": {"osm_id": 398786279, "building": "school", "name": "Kiamichi Technology Center", "height": null, "height_m": null, "levels": null, "tract_id": "40077087200", "tract_name": "872", "tags": {"amenity": "school", "building": "school", "ele": "201", "gnis:feature_id": "1819466", "name": "Kiamichi Technology Center"}}}, {"type": "Feature", "geometry": {"type": "Polygon", "coordinates": [[[-95.3199871, 34.9189469], [-95.3203606, 34.9191679], [-95.3203274, 34.9192057], [-95.3203699, 34.9192308], [-95.3204973, 34.9190861], [-95.320643, 34.9191722], [-95.3205699, 34.9192553], [-95.3207541, 34.9193643], [-95.3208925, 34.919207], [-95.3210084, 34.9192755], [-95.3209682, 34.9193212], [-95.3209828, 34.9193299], [-95.3209449, 34.9193729], [-95.3210418, 34.9194302], [-95.3210151, 34.9194606], [-95.3210273, 34.9194678], [-95.3209937, 34.919506], [-95.3210505, 34.9195396], [-95.3210944, 34.9194896], [-95.3211626, 34.91953], [-95.3209834, 34.9197337], [-95.3208744, 34.9196693], [-95.3209272, 34.9196093], [-95.3208799, 34.9195813], [-95.3208471, 34.9196187], [-95.3206488, 34.9195014], [-95.3206732, 34.9194738], [-95.3204826, 34.919361], [-95.3204332, 34.9194172], [-95.3203711, 34.9193804], [-95.3203587, 34.9193946], [-95.3203341, 34.9193801], [-95.3203466, 34.9193659], [-95.3202984, 34.9193375], [-95.3202903, 34.9193467], [-95.3202138, 34.9193014], [-95.3202375, 34.9192744], [-95.3198833, 34.9190649], [-95.3199871, 34.9189469]]]}, "properties": {"osm_id": 398786280, "building": "hospital", "name": "", "height": null, "height_m": null, "levels": null, "tract_id": "40077087200", "tract_name": "872", "tags": {"building": "hospital"}}}, {"type": "Feature", "geometry": {"type": "Polygon", "coordinates": [[[-95.3136278, 34.9188265], [-95.3141025, 34.9188199], [-95.3141064, 34.9190092], [-95.3136317, 34.9190158], [-95.3136278, 34.9188265]]]}, "properties": {"osm_id": 398786282, "building": "yes", "name": "Latimer State Bank", "height": null, "height_m": null, "levels": null, "tract_id": "40077087200", "tract_name": "872", "tags": {"addr:housenumber": "301", "addr:street": "West Main Street", "amenity": "bank", "building": "yes", "name": "Latimer State Bank", "opening_hours": "Mo 09:00-16:30; Tu-Fr 09:00-15:00"}}}, {"type": "Feature", "geometry": {"type": "Polygon", "coordinates": [[[-95.308158, 34.9186825], [-95.3081574, 34.9185455], [-95.3082244, 34.9185453], [-95.3082251, 34.9186823], [-95.308158, 34.9186825]]]}, "properties": {"osm_id": 398786283, "building": "yes", "name": "Main Street Daylight Donuts Bakery", "height": null, "height_m": null, "levels": null, "tract_id": "40077087200", "tract_name": "872", "tags": {"building": "yes", "name": "Main Street Daylight Donuts Bakery", "phone": "+1-918-465-5333", "shop": "bakery"}}}, {"type": "Feature", "geometry": {"type": "Polygon", "coordinates": [[[-95.3190639, 34.9181298], [-95.3192426, 34.9182549], [-95.3189771, 34.91851], [-95.3187984, 34.9183849], [-95.3190639, 34.9181298]]]}, "properties": {"osm_id": 398786284, "building": "retail", "name": "O'Reilly Auto Parts", "height": null, "height_m": null, "levels": null, "tract_id": "40077087200", "tract_name": "872", "tags": {"addr:housenumber": "626", "addr:street": "OK 2", "brand": "O'Reilly Auto Parts", "brand:wikidata": "Q7071951", "building": "retail", "name": "O'Reilly Auto Parts", "opening_hours": "Mo-Fr 07:30-21:00; Sa 07:30-18:00; Su 09:00-18:00", "shop": "car_parts", "website": "https://locations.oreillyauto.com/ok/wilburton/autoparts-254.html"}}}, {"type": "Feature", "geometry": {"type": "Polygon", "coordinates": [[[-95.3155737, 34.9185592], [-95.3156078, 34.918616], [-95.3154888, 34.9186641], [-95.3155825, 34.91882], [-95.3155092, 34.9188482], [-95.3154161, 34.9186935], [-95.315298, 34.9187413], [-95.3152639, 34.9186846], [-95.3155737, 34.9185592]]]}, "properties": {"osm_id": 398786285, "building": "roof", "name": "Phillips 66", "height": null, "height_m": null, "levels": null, "tract_id": "40077087200", "tract_name": "872", "tags": {"amenity": "fuel", "brand": "Phillips 66", "brand:wikidata": "Q1656230", "building": "roof", "name": "Phillips 66"}}}, {"type": "Feature", "geometry": {"type": "Polygon", "coordinates": [[[-95.3183987, 34.9181144], [-95.3188104, 34.9177427], [-95.3190108, 34.917892], [-95.3185991, 34.9182637], [-95.3183987, 34.9181144]]]}, "properties": {"osm_id": 398786286, "building": "retail", "name": "Southeast True Value Hardware", "height": null, "height_m": null, "levels": null, "tract_id": "40077087200", "tract_name": "872", "tags": {"addr:city": "Wilburton", "addr:housenumber": "612", "addr:postcode": "74578-3621", "addr:state": "OK", "addr:street": "Highway 2 North", "brand": "True Value", "brand:wikidata": "Q7847545", "building": "retail", "name": "Southeast True Value Hardware", "opening_hours": "Mo-Fr 08:00-17:30; Sa 08:00-14:30", "phone": "+1 918-465-5417", "ref": "11924", "shop": "hardware", "website": "https://www.truevalue.com/southeast"}}}, {"type": "Feature", "geometry": {"type": "Polygon", "coordinates": [[[-95.3122424, 34.9188397], [-95.3123376, 34.9188397], [-95.3123376, 34.9191135], [-95.3122424, 34.9191135], [-95.3122424, 34.9188397]]]}, "properties": {"osm_id": 398786287, "building": "retail", "name": "Subway", "height": null, "height_m": null, "levels": null, "tract_id": "40077087200", "tract_name": "872", "tags": {"addr:city": "Wilburton", "addr:housenumber": "213", "addr:postcode": "74578", "addr:state": "OK", "addr:street": "East Main Street", "amenity": "fast_food", "brand": "Subway", "brand:wikidata": "Q244457", "building": "retail", "cuisine": "sandwich", "name": "Subway", "opening_hours": "Mo-Sa 08:00-21:00; Su 10:00-15:00", "phone": "+1 918-465-2300", "takeaway": "yes", "website": "https://restaurants.subway.com/united-states/ok/wilburton/209-w-main"}}}, {"type": "Feature", "geometry": {"type": "Polygon", "coordinates": [[[-95.3229397, 34.9207734], [-95.3224608, 34.9207761], [-95.3224597, 34.9206491], [-95.3224163, 34.9206494], [-95.3224158, 34.9205899], [-95.3224152, 34.9205218], [-95.3224586, 34.9205216], [-95.3224567, 34.9202989], [-95.3229357, 34.9202961], [-95.3229397, 34.9207734]]]}, "properties": {"osm_id": 398786288, "building": "retail", "name": "Tractor Supply Company", "height": null, "height_m": null, "levels": null, "tract_id": "40077087200", "tract_name": "872", "tags": {"addr:city": "Wilburton", "addr:housenumber": "920", "addr:postcode": "74578", "addr:state": "OK", "addr:street": "Highway 2 North", "brand": "Tractor Supply Company", "brand:wikidata": "Q15109925", "building": "retail", "name": "Tractor Supply Company", "opening_hours": "Mo-Sa 08:00-21:00; Su 09:00-19:00", "phone": "+1 918-465-5695", "ref": "2054", "shop": "country_store"}}}, {"type": "Feature", "geometry": {"type": "Polygon", "coordinates": [[[-95.3222021, 34.9197001], [-95.3224904, 34.9197309], [-95.3224716, 34.9198492], [-95.3221833, 34.9198184], [-95.3222021, 34.9197001]]]}, "properties": {"osm_id": 398786289, "building": "yes", "name": "", "height": null, "height_m": null, "levels": null, "tract_id": "40077087200", "tract_name": "872", "tags": {"building": "yes"}}}, {"type": "Feature", "geometry": {"type": "Polygon", "coordinates": [[[-95.3218494, 34.9201565], [-95.3219218, 34.9196748], [-95.3220417, 34.919687], [-95.3219693, 34.9201686], [-95.3218494, 34.9201565]]]}, "properties": {"osm_id": 398786290, "building": "yes", "name": "", "height": null, "height_m": null, "levels": null, "tract_id": "40077087200", "tract_name": "872", "tags": {"building": "yes"}}}, {"type": "Feature", "geometry": {"type": "Polygon", "coordinates": [[[-95.3108812, 34.9186186], [-95.3107529, 34.9186211], [-95.3107449, 34.9183418], [-95.3108731, 34.9183393], [-95.3108812, 34.9186186]]]}, "properties": {"osm_id": 398786291, "building": "retail", "name": "U.S. Cellular", "height": null, "height_m": null, "levels": null, "tract_id": "40077087200", "tract_name": "872", "tags": {"brand": "U.S. Cellular", "brand:wikidata": "Q2466256", "building": "retail", "name": "U.S. Cellular", "opening_hours": "Mo-Fr 10:00-19:00; Sa 10:00-17:00; Su 12:00-17:00", "shop": "mobile_phone"}}}, {"type": "Feature", "geometry": {"type": "Polygon", "coordinates": [[[-95.3247838, 34.9212561], [-95.3247434, 34.9213275], [-95.3247801, 34.9213415], [-95.324699, 34.9214848], [-95.3243875, 34.9213664], [-95.3245089, 34.9211517], [-95.3247838, 34.9212561]]]}, "properties": {"osm_id": 398786293, "building": "school", "name": "Choctaw Nation of Oklahoma Head Start", "height": null, "height_m": null, "levels": null, "tract_id": "40077087200", "tract_name": "872", "tags": {"amenity": "school", "building": "school", "name": "Choctaw Nation of Oklahoma Head Start"}}}, {"type": "Feature", "geometry": {"type": "Polygon", "coordinates": [[[-95.3188219, 34.9198326], [-95.3188294, 34.9198258], [-95.3187575, 34.9197722], [-95.3188617, 34.9196783], [-95.3189336, 34.9197319], [-95.3189426, 34.9197238], [-95.3189589, 34.9197359], [-95.318997, 34.9197015], [-95.3190257, 34.9197228], [-95.3190419, 34.9197082], [-95.319103, 34.9197537], [-95.3190867, 34.9197684], [-95.3191172, 34.9197911], [-95.319079, 34.9198255], [-95.3190982, 34.9198398], [-95.3190879, 34.9198492], [-95.3191336, 34.9198887], [-95.3191714, 34.9199169], [-95.3191958, 34.919935], [-95.3192149, 34.9199493], [-95.3191368, 34.9200198], [-95.319119, 34.9200065], [-95.3190932, 34.9199873], [-95.3190567, 34.9199601], [-95.3190097, 34.9199197], [-95.3189775, 34.9199487], [-95.3188219, 34.9198326]]]}, "properties": {"osm_id": 398786294, "building": "yes", "name": "First National Bank", "height": null, "height_m": null, "levels": null, "tract_id": "40077087200", "tract_name": "872", "tags": {"amenity": "bank", "building": "yes", "name": "First National Bank", "opening_hours": "Mo-Fr 08:00-17:00; Sa 08:00-13:00"}}}, {"type": "Feature", "geometry": {"type": "Polygon", "coordinates": [[[-95.3090522, 34.9191316], [-95.3088833, 34.9191329], [-95.3088827, 34.9190846], [-95.3087127, 34.9190859], [-95.308713, 34.9191062], [-95.3086574, 34.9191066], [-95.3086551, 34.9189037], [-95.3090496, 34.9189006], [-95.3090522, 34.9191316]]]}, "properties": {"osm_id": 398786295, "building": "yes", "name": "First National Bank", "height": null, "height_m": null, "levels": null, "tract_id": "40077087200", "tract_name": "872", "tags": {"addr:housenumber": "123", "addr:street": "East Main Street", "amenity": "bank", "building": "yes", "name": "First National Bank", "opening_hours": "Mo 09:00-16:30; Tu-Fr 09:00-15:00"}}}, {"type": "Feature", "geometry": {"type": "Polygon", "coordinates": [[[-95.3135962, 34.9181529], [-95.3137583, 34.9181505], [-95.3137637, 34.9183905], [-95.3139118, 34.9183882], [-95.3139139, 34.9184806], [-95.3137658, 34.9184829], [-95.3137664, 34.9185079], [-95.3136043, 34.9185103], [-95.3136026, 34.9184334], [-95.3136453, 34.9184327], [-95.3136421, 34.9182908], [-95.3135994, 34.9182914], [-95.3135962, 34.9181529]]]}, "properties": {"osm_id": 398786296, "building": "yes", "name": "Wilburton", "height": null, "height_m": null, "levels": null, "tract_id": "40077087200", "tract_name": "872", "tags": {"amenity": "townhall", "building": "yes", "name": "Wilburton"}}}, {"type": "Feature", "geometry": {"type": "Polygon", "coordinates": [[[-95.3072003, 34.9192312], [-95.3071952, 34.9189921], [-95.3074457, 34.9189946], [-95.307449, 34.9191882], [-95.307373, 34.9191899], [-95.3073737, 34.91925], [-95.3072593, 34.9192504], [-95.3072561, 34.9192303], [-95.3072003, 34.9192312]]]}, "properties": {"osm_id": 398786297, "building": "yes", "name": "Wilburton", "height": null, "height_m": null, "levels": null, "tract_id": "40077087200", "tract_name": "872", "tags": {"addr:housenumber": "205", "addr:street": "East Main Street", "amenity": "post_office", "building": "yes", "name": "Wilburton", "opening_hours": "Mo-Fr 08:30-16:00; Sa 09:00-11:30"}}}, {"type": "Feature", "geometry": {"type": "Polygon", "coordinates": [[[-95.3094199, 34.9188925], [-95.3094212, 34.9191365], [-95.3093179, 34.9191369], [-95.3093182, 34.9192001], [-95.309231, 34.9192004], [-95.3092308, 34.91916], [-95.309187, 34.9191602], [-95.3091869, 34.9191364], [-95.3091481, 34.9191365], [-95.3091468, 34.9188934], [-95.3094199, 34.9188925]]]}, "properties": {"osm_id": 398786298, "building": "yes", "name": "", "height": null, "height_m": null, "levels": null, "tract_id": "40077087200", "tract_name": "872", "tags": {"building": "yes"}}}, {"type": "Feature", "geometry": {"type": "Polygon", "coordinates": [[[-95.3162107, 34.9182755], [-95.3163039, 34.9182021], [-95.3164173, 34.9182989], [-95.3164073, 34.9183067], [-95.3164589, 34.9183507], [-95.3163757, 34.9184163], [-95.3162107, 34.9182755]]]}, "properties": {"osm_id": 398786299, "building": "yes", "name": "", "height": null, "height_m": null, "levels": null, "tract_id": "40077087200", "tract_name": "872", "tags": {"building": "yes"}}}, {"type": "Feature", "geometry": {"type": "Polygon", "coordinates": [[[-95.3499071, 34.9803918], [-95.3495891, 34.9806608], [-95.3494895, 34.9805818], [-95.3498373, 34.9802876], [-95.349763, 34.9802286], [-95.3498411, 34.9801625], [-95.3499157, 34.9802213], [-95.3503191, 34.9798802], [-95.3504186, 34.9799592], [-95.3500639, 34.9802592], [-95.3501162, 34.9803007], [-95.3499594, 34.9804334], [-95.3499071, 34.9803918]]]}, "properties": {"osm_id": 399279844, "building": "hotel", "name": "Belle Starr View Lodge", "height": null, "height_m": null, "levels": null, "tract_id": "40077087200", "tract_name": "872", "tags": {"addr:housenumber": "2084", "building": "hotel", "name": "Belle Starr View Lodge", "tourism": "hotel"}}}, {"type": "Feature", "geometry": {"type": "Polygon", "coordinates": [[[-95.3610761, 34.9797031], [-95.3610899, 34.9797199], [-95.3611142, 34.9797065], [-95.3611818, 34.9797892], [-95.3611645, 34.9797988], [-95.3612363, 34.9798866], [-95.3612293, 34.9798904], [-95.3612558, 34.9799228], [-95.3611917, 34.9799581], [-95.3610256, 34.979755], [-95.3610022, 34.9797791], [-95.3608111, 34.9796544], [-95.360885, 34.9795783], [-95.3610761, 34.9797031]]]}, "properties": {"osm_id": 399283567, "building": "government", "name": "", "height": null, "height_m": null, "levels": null, "tract_id": "40077087200", "tract_name": "872", "tags": {"building": "government", "building:colour": "orange"}}}, {"type": "Feature", "geometry": {"type": "Polygon", "coordinates": [[[-95.3610424, 34.9791582], [-95.3606189, 34.9793758], [-95.3604729, 34.979185], [-95.3607427, 34.9790463], [-95.3607788, 34.9790935], [-95.3609325, 34.9790146], [-95.3610424, 34.9791582]]]}, "properties": {"osm_id": 399283568, "building": "retail", "name": "The Lookout Kitchen", "height": null, "height_m": null, "levels": null, "tract_id": "40077087200", "tract_name": "872", "tags": {"air_conditioning": "yes", "amenity": "restaurant", "building": "retail", "building:colour": "orange", "check_date": "2024-10-06", "indoor_seating": "yes", "name": "The Lookout Kitchen", "outdoor_seating": "yes", "smoking": "no"}}}, {"type": "Feature", "geometry": {"type": "Polygon", "coordinates": [[[-95.3605988, 34.9783598], [-95.360554, 34.9783937], [-95.3604394, 34.9782921], [-95.3604842, 34.9782582], [-95.3605988, 34.9783598]]]}, "properties": {"osm_id": 399720764, "building": "yes", "name": "", "height": null, "height_m": null, "levels": null, "tract_id": "40077087200", "tract_name": "872", "tags": {"building": "yes", "ref": "1", "tourism": "picnic_site"}}}, {"type": "Feature", "geometry": {"type": "Polygon", "coordinates": [[[-95.3547205, 34.9856033], [-95.3546861, 34.9856331], [-95.3546121, 34.9855759], [-95.3546465, 34.985546], [-95.3547205, 34.9856033]]]}, "properties": {"osm_id": 399720765, "building": "roof", "name": "", "height": null, "height_m": null, "levels": null, "tract_id": "40077087200", "tract_name": "872", "tags": {"building": "roof", "ref": "3"}}}, {"type": "Feature", "geometry": {"type": "Polygon", "coordinates": [[[-95.3548608, 34.9874959], [-95.3547564, 34.9874943], [-95.3547603, 34.9873229], [-95.3548647, 34.9873245], [-95.3548608, 34.9874959]]]}, "properties": {"osm_id": 399720766, "building": "yes", "name": "", "height": null, "height_m": null, "levels": null, "tract_id": "40077087200", "tract_name": "872", "tags": {"building": "yes", "ref": "4", "tourism": "picnic_site"}}}, {"type": "Feature", "geometry": {"type": "Polygon", "coordinates": [[[-95.3552664, 34.9821555], [-95.355094, 34.9821666], [-95.3550851, 34.9820744], [-95.3552576, 34.9820633], [-95.3552664, 34.9821555]]]}, "properties": {"osm_id": 399720767, "building": "yes", "name": "", "height": null, "height_m": null, "levels": null, "tract_id": "40077087200", "tract_name": "872", "tags": {"building": "yes", "ref": "7", "tourism": "picnic_site"}}}, {"type": "Feature", "geometry": {"type": "Polygon", "coordinates": [[[-95.3541517, 34.9822819], [-95.3541627, 34.9824536], [-95.354142, 34.9824545], [-95.3541446, 34.9824946], [-95.3540435, 34.9824989], [-95.3540409, 34.9824588], [-95.3540063, 34.9824603], [-95.3539954, 34.9822886], [-95.3541517, 34.9822819]]]}, "properties": {"osm_id": 399720768, "building": "yes", "name": "Cabin Office", "height": null, "height_m": null, "levels": null, "tract_id": "40077087200", "tract_name": "872", "tags": {"amenity": "ranger_station", "building": "yes", "name": "Cabin Office"}}}, {"type": "Feature", "geometry": {"type": "Polygon", "coordinates": [[[-95.3610005, 34.9788636], [-95.3610357, 34.9788057], [-95.3609752, 34.9787811], [-95.36094, 34.9788391], [-95.3610005, 34.9788636]]]}, "properties": {"osm_id": 399720774, "building": "retail", "name": "Lake Carlton Boathouse", "height": null, "height_m": 3.0, "levels": 1, "tract_id": "40077087200", "tract_name": "872", "tags": {"building": "retail", "building:levels": "1", "name": "Lake Carlton Boathouse", "roof:levels": "0", "sport": "canoe"}}}, {"type": "Feature", "geometry": {"type": "Polygon", "coordinates": [[[-95.3606634, 34.9810294], [-95.3605877, 34.9810076], [-95.3606007, 34.9809774], [-95.3605853, 34.980973], [-95.3606026, 34.9809326], [-95.360619, 34.9808943], [-95.3606344, 34.9808987], [-95.3606466, 34.9808703], [-95.3607222, 34.9808921], [-95.3607109, 34.9809187], [-95.3607235, 34.9809223], [-95.3607049, 34.9809656], [-95.3606872, 34.981007], [-95.3606746, 34.9810034], [-95.3606634, 34.9810294]]]}, "properties": {"osm_id": 399720781, "building": "government", "name": "Robbers Cave Bath House", "height": null, "height_m": null, "levels": null, "tract_id": "40077087200", "tract_name": "872", "tags": {"building": "government", "name": "Robbers Cave Bath House"}}}, {"type": "Feature", "geometry": {"type": "Polygon", "coordinates": [[[-95.3627725, 34.9812368], [-95.3627079, 34.9812411], [-95.3626953, 34.981115], [-95.36276, 34.9811107], [-95.3627725, 34.9812368]]]}, "properties": {"osm_id": 399720786, "building": "roof", "name": "", "height": null, "height_m": null, "levels": null, "tract_id": "40077087200", "tract_name": "872", "tags": {"building": "roof"}}}, {"type": "Feature", "geometry": {"type": "Polygon", "coordinates": [[[-95.3547962, 34.9881555], [-95.3547951, 34.9881859], [-95.3547266, 34.9881842], [-95.3547277, 34.9881538], [-95.3547962, 34.9881555]]]}, "properties": {"osm_id": 399720787, "building": "yes", "name": "", "height": null, "height_m": null, "levels": null, "tract_id": "40077087200", "tract_name": "872", "tags": {"amenity": "toilets", "building": "yes"}}}, {"type": "Feature", "geometry": {"type": "Polygon", "coordinates": [[[-95.3609239, 34.9813558], [-95.3608431, 34.9813702], [-95.3608008, 34.9812107], [-95.3608815, 34.9811963], [-95.3609239, 34.9813558]]]}, "properties": {"osm_id": 399720788, "building": "yes", "name": "", "height": null, "height_m": null, "levels": null, "tract_id": "40077087200", "tract_name": "872", "tags": {"building": "yes", "tourism": "picnic_site"}}}, {"type": "Feature", "geometry": {"type": "Polygon", "coordinates": [[[-95.3557146, 34.9712088], [-95.3556587, 34.9712075], [-95.3556626, 34.9710962], [-95.3557185, 34.9710975], [-95.3557146, 34.9712088]]]}, "properties": {"osm_id": 399720789, "building": "yes", "name": "", "height": null, "height_m": null, "levels": null, "tract_id": "40077087200", "tract_name": "872", "tags": {"amenity": "toilets", "building": "yes"}}}, {"type": "Feature", "geometry": {"type": "Polygon", "coordinates": [[[-95.3551051, 34.9876613], [-95.3550158, 34.9876599], [-95.3550177, 34.9875758], [-95.355107, 34.9875771], [-95.3551051, 34.9876613]]]}, "properties": {"osm_id": 399720790, "building": "yes", "name": "", "height": null, "height_m": null, "levels": null, "tract_id": "40077087200", "tract_name": "872", "tags": {"amenity": "toilets", "building": "yes"}}}, {"type": "Feature", "geometry": {"type": "Polygon", "coordinates": [[[-95.3611515, 34.9811127], [-95.3612181, 34.981101], [-95.3612448, 34.9812026], [-95.3611782, 34.9812143], [-95.3611515, 34.9811127]]]}, "properties": {"osm_id": 399720791, "building": "yes", "name": "", "height": null, "height_m": null, "levels": null, "tract_id": "40077087200", "tract_name": "872", "tags": {"building": "yes", "tourism": "picnic_site"}}}, {"type": "Feature", "geometry": {"type": "Polygon", "coordinates": [[[-95.3546935, 34.9822154], [-95.3545819, 34.9822274], [-95.3545688, 34.9821461], [-95.3546804, 34.9821341], [-95.3546935, 34.9822154]]]}, "properties": {"osm_id": 399720792, "building": "yes", "name": "", "height": null, "height_m": null, "levels": null, "tract_id": "40077087200", "tract_name": "872", "tags": {"amenity": "toilets", "building": "yes", "changing_table": "no", "fee": "no", "wheelchair": "yes"}}}, {"type": "Feature", "geometry": {"type": "Polygon", "coordinates": [[[-95.3615407, 34.9814173], [-95.3614659, 34.9814229], [-95.3614548, 34.9813229], [-95.3615296, 34.9813173], [-95.3615407, 34.9814173]]]}, "properties": {"osm_id": 399720793, "building": "yes", "name": "", "height": null, "height_m": null, "levels": null, "tract_id": "40077087200", "tract_name": "872", "tags": {"amenity": "toilets", "building": "yes"}}}, {"type": "Feature", "geometry": {"type": "Polygon", "coordinates": [[[-95.322545, 34.9126185], [-95.3224576, 34.9126536], [-95.3223549, 34.9126948], [-95.3222602, 34.9127328], [-95.3221661, 34.9127705], [-95.3221226, 34.9126972], [-95.3222197, 34.9126583], [-95.3223147, 34.9126202], [-95.3224182, 34.9125787], [-95.3225015, 34.9125453], [-95.322545, 34.9126185]]]}, "properties": {"osm_id": 404089365, "building": "roof", "name": "Choctaw Travel Plaza", "height": null, "height_m": null, "levels": null, "tract_id": "40077087200", "tract_name": "872", "tags": {"amenity": "fuel", "building": "roof", "name": "Choctaw Travel Plaza"}}}, {"type": "Feature", "geometry": {"type": "Polygon", "coordinates": [[[-95.322002, 34.9121751], [-95.3223882, 34.9121751], [-95.3223882, 34.9123929], [-95.3223312, 34.9123929], [-95.322289, 34.9124319], [-95.3221978, 34.9124319], [-95.3221528, 34.9123929], [-95.322002, 34.9123929], [-95.322002, 34.9121751]]]}, "properties": {"osm_id": 404089366, "building": "yes", "name": "Choctaw Travel Plaza", "height": null, "height_m": null, "levels": null, "tract_id": "40077087200", "tract_name": "872", "tags": {"amenity": "casino", "building": "yes", "name": "Choctaw Travel Plaza"}}}, {"type": "Feature", "geometry": {"type": "Polygon", "coordinates": [[[-95.3226148, 34.9121597], [-95.3226135, 34.9119244], [-95.3227195, 34.911924], [-95.3227208, 34.9121593], [-95.3226148, 34.9121597]]]}, "properties": {"osm_id": 404089367, "building": "yes", "name": "The Bottle Shop", "height": null, "height_m": null, "levels": null, "tract_id": "40077087200", "tract_name": "872", "tags": {"addr:city": "Wilburton", "addr:country": "US", "addr:housenumber": "68", "addr:postcode": "74578", "addr:state": "OK", "addr:street": "Southwest Highway 2", "building": "yes", "name": "The Bottle Shop", "phone": "+1-918-465-2723", "shop": "alcohol"}}}, {"type": "Feature", "geometry": {"type": "Polygon", "coordinates": [[[-95.3128646, 35.022065], [-95.3126983, 35.0221298], [-95.3126528, 35.0220514], [-95.3128191, 35.0219866], [-95.3128646, 35.022065]]]}, "properties": {"osm_id": 1033670765, "building": "yes", "name": "", "height": null, "height_m": null, "levels": null, "tract_id": "40077087200", "tract_name": "872", "tags": {"building": "yes"}}}, {"type": "Feature", "geometry": {"type": "Polygon", "coordinates": [[[-95.3115356, 35.0222858], [-95.3115302, 35.0221727], [-95.3116227, 35.0221697], [-95.3116281, 35.0222828], [-95.3115356, 35.0222858]]]}, "properties": {"osm_id": 1033670766, "building": "yes", "name": "", "height": null, "height_m": null, "levels": null, "tract_id": "40077087200", "tract_name": "872", "tags": {"building": "yes"}}}, {"type": "Feature", "geometry": {"type": "Polygon", "coordinates": [[[-95.311207, 35.0226669], [-95.3111185, 35.0225208], [-95.3112094, 35.0224839], [-95.3112979, 35.02263], [-95.311207, 35.0226669]]]}, "properties": {"osm_id": 1033670767, "building": "yes", "name": "", "height": null, "height_m": null, "levels": null, "tract_id": "40077087200", "tract_name": "872", "tags": {"building": "yes"}}}, {"type": "Feature", "geometry": {"type": "Polygon", "coordinates": [[[-95.3100195, 35.0223489], [-95.3100161, 35.0221869], [-95.3101178, 35.0221855], [-95.3101211, 35.0223475], [-95.3100195, 35.0223489]]]}, "properties": {"osm_id": 1033670768, "building": "yes", "name": "", "height": null, "height_m": null, "levels": null, "tract_id": "40077087200", "tract_name": "872", "tags": {"building": "yes"}}}, {"type": "Feature", "geometry": {"type": "Polygon", "coordinates": [[[-95.3098539, 35.0223196], [-95.3098598, 35.0223441], [-95.3098155, 35.0223513], [-95.3098096, 35.0223267], [-95.3098539, 35.0223196]]]}, "properties": {"osm_id": 1033670769, "building": "yes", "name": "", "height": null, "height_m": null, "levels": null, "tract_id": "40077087200", "tract_name": "872", "tags": {"building": "yes"}}}, {"type": "Feature", "geometry": {"type": "Polygon", "coordinates": [[[-95.3097962, 35.022322], [-95.3097868, 35.0222666], [-95.3098432, 35.0222602], [-95.3098526, 35.0223156], [-95.3097962, 35.022322]]]}, "properties": {"osm_id": 1033670770, "building": "yes", "name": "", "height": null, "height_m": null, "levels": null, "tract_id": "40077087200", "tract_name": "872", "tags": {"building": "yes"}}}, {"type": "Feature", "geometry": {"type": "Polygon", "coordinates": [[[-95.3097674, 35.0221842], [-95.3098297, 35.0221787], [-95.3098358, 35.0222248], [-95.3097734, 35.0222303], [-95.3097674, 35.0221842]]]}, "properties": {"osm_id": 1033670771, "building": "yes", "name": "", "height": null, "height_m": null, "levels": null, "tract_id": "40077087200", "tract_name": "872", "tags": {"building": "yes"}}}, {"type": "Feature", "geometry": {"type": "Polygon", "coordinates": [[[-95.3098471, 35.0221194], [-95.309855, 35.0221683], [-95.3097631, 35.0221782], [-95.3097553, 35.0221293], [-95.3098471, 35.0221194]]]}, "properties": {"osm_id": 1033670772, "building": "yes", "name": "", "height": null, "height_m": null, "levels": null, "tract_id": "40077087200", "tract_name": "872", "tags": {"building": "yes"}}}, {"type": "Feature", "geometry": {"type": "Polygon", "coordinates": [[[-95.3098639, 35.0220376], [-95.3098734, 35.0220858], [-95.3097735, 35.0220989], [-95.309764, 35.0220508], [-95.3098639, 35.0220376]]]}, "properties": {"osm_id": 1033670773, "building": "yes", "name": "", "height": null, "height_m": null, "levels": null, "tract_id": "40077087200", "tract_name": "872", "tags": {"building": "yes"}}}, {"type": "Feature", "geometry": {"type": "Polygon", "coordinates": [[[-95.3083263, 35.0218278], [-95.3081439, 35.0217641], [-95.3081892, 35.0216771], [-95.3083716, 35.0217408], [-95.3083263, 35.0218278]]]}, "properties": {"osm_id": 1033670774, "building": "yes", "name": "", "height": null, "height_m": null, "levels": null, "tract_id": "40077087200", "tract_name": "872", "tags": {"building": "yes"}}}, {"type": "Feature", "geometry": {"type": "Polygon", "coordinates": [[[-95.3067023, 35.0300579], [-95.306649, 35.0300148], [-95.3067456, 35.0299347], [-95.3067988, 35.0299777], [-95.3067023, 35.0300579]]]}, "properties": {"osm_id": 1033670778, "building": "farm_auxiliary", "name": "", "height": null, "height_m": null, "levels": null, "tract_id": "40077087200", "tract_name": "872", "tags": {"building": "farm_auxiliary"}}}, {"type": "Feature", "geometry": {"type": "Polygon", "coordinates": [[[-95.3215925, 35.0393566], [-95.3215319, 35.0393743], [-95.3215051, 35.0393128], [-95.3215657, 35.0392951], [-95.3215925, 35.0393566]]]}, "properties": {"osm_id": 1033670779, "building": "yes", "name": "", "height": null, "height_m": null, "levels": null, "tract_id": "40077087200", "tract_name": "872", "tags": {"building": "yes"}}}, {"type": "Feature", "geometry": {"type": "Polygon", "coordinates": [[[-95.3217763, 35.0392358], [-95.3217956, 35.0392795], [-95.3216065, 35.0393355], [-95.3215872, 35.0392918], [-95.3217763, 35.0392358]]]}, "properties": {"osm_id": 1033670780, "building": "yes", "name": "", "height": null, "height_m": null, "levels": null, "tract_id": "40077087200", "tract_name": "872", "tags": {"building": "yes"}}}, {"type": "Feature", "geometry": {"type": "Polygon", "coordinates": [[[-95.316027, 35.0387988], [-95.3160118, 35.0388451], [-95.3157557, 35.0387891], [-95.3157708, 35.0387428], [-95.316027, 35.0387988]]]}, "properties": {"osm_id": 1033670781, "building": "yes", "name": "", "height": null, "height_m": null, "levels": null, "tract_id": "40077087200", "tract_name": "872", "tags": {"building": "yes"}}}, {"type": "Feature", "geometry": {"type": "Polygon", "coordinates": [[[-95.3182814, 35.041534], [-95.3182505, 35.0414769], [-95.3182876, 35.0414634], [-95.3183185, 35.0415205], [-95.3182814, 35.041534]]]}, "properties": {"osm_id": 1033670782, "building": "yes", "name": "", "height": null, "height_m": null, "levels": null, "tract_id": "40077087200", "tract_name": "872", "tags": {"building": "yes"}}}, {"type": "Feature", "geometry": {"type": "Polygon", "coordinates": [[[-95.3176738, 35.0416668], [-95.3177771, 35.0416163], [-95.3178238, 35.0416804], [-95.3177206, 35.0417309], [-95.3176738, 35.0416668]]]}, "properties": {"osm_id": 1033670783, "building": "yes", "name": "", "height": null, "height_m": null, "levels": null, "tract_id": "40077087200", "tract_name": "872", "tags": {"building": "yes"}}}, {"type": "Feature", "geometry": {"type": "Polygon", "coordinates": [[[-95.3179823, 35.0417722], [-95.3179313, 35.0417045], [-95.3181097, 35.0416145], [-95.3181607, 35.0416822], [-95.3179823, 35.0417722]]]}, "properties": {"osm_id": 1033670784, "building": "yes", "name": "", "height": null, "height_m": null, "levels": null, "tract_id": "40077087200", "tract_name": "872", "tags": {"building": "yes"}}}, {"type": "Feature", "geometry": {"type": "Polygon", "coordinates": [[[-95.3180802, 35.0410212], [-95.3179839, 35.0408722], [-95.3184479, 35.0406712], [-95.3185442, 35.0408203], [-95.3180802, 35.0410212]]]}, "properties": {"osm_id": 1033670785, "building": "yes", "name": "", "height": null, "height_m": null, "levels": null, "tract_id": "40077087200", "tract_name": "872", "tags": {"building": "yes"}}}, {"type": "Feature", "geometry": {"type": "Polygon", "coordinates": [[[-95.3185348, 35.0414428], [-95.3184919, 35.0413407], [-95.3185473, 35.0413251], [-95.3185902, 35.0414273], [-95.3185348, 35.0414428]]]}, "properties": {"osm_id": 1033670786, "building": "yes", "name": "", "height": null, "height_m": null, "levels": null, "tract_id": "40077087200", "tract_name": "872", "tags": {"building": "yes"}}}, {"type": "Feature", "geometry": {"type": "Polygon", "coordinates": [[[-95.3188057, 35.0412057], [-95.3188549, 35.0411981], [-95.3188871, 35.0413387], [-95.3188379, 35.0413462], [-95.3188057, 35.0412057]]]}, "properties": {"osm_id": 1033670787, "building": "yes", "name": "", "height": null, "height_m": null, "levels": null, "tract_id": "40077087200", "tract_name": "872", "tags": {"building": "yes"}}}, {"type": "Feature", "geometry": {"type": "Polygon", "coordinates": [[[-95.3189009, 35.0408818], [-95.3189152, 35.0409285], [-95.318824, 35.0409472], [-95.3188097, 35.0409004], [-95.3189009, 35.0408818]]]}, "properties": {"osm_id": 1033670788, "building": "yes", "name": "", "height": null, "height_m": null, "levels": null, "tract_id": "40077087200", "tract_name": "872", "tags": {"building": "yes"}}}, {"type": "Feature", "geometry": {"type": "Polygon", "coordinates": [[[-95.3192054, 35.040929], [-95.3192325, 35.041013], [-95.3190958, 35.0410427], [-95.3190686, 35.0409586], [-95.3192054, 35.040929]]]}, "properties": {"osm_id": 1033670789, "building": "yes", "name": "", "height": null, "height_m": null, "levels": null, "tract_id": "40077087200", "tract_name": "872", "tags": {"building": "yes"}}}, {"type": "Feature", "geometry": {"type": "Polygon", "coordinates": [[[-95.3192443, 35.0406995], [-95.319276, 35.0408091], [-95.3190721, 35.0408486], [-95.3190404, 35.040739], [-95.3192443, 35.0406995]]]}, "properties": {"osm_id": 1033670790, "building": "yes", "name": "", "height": null, "height_m": null, "levels": null, "tract_id": "40077087200", "tract_name": "872", "tags": {"building": "yes"}}}, {"type": "Feature", "geometry": {"type": "Polygon", "coordinates": [[[-95.3194736, 35.0405524], [-95.3195023, 35.0406401], [-95.3193723, 35.0406687], [-95.3193435, 35.0405809], [-95.3194736, 35.0405524]]]}, "properties": {"osm_id": 1033670791, "building": "yes", "name": "", "height": null, "height_m": null, "levels": null, "tract_id": "40077087200", "tract_name": "872", "tags": {"building": "yes"}}}, {"type": "Feature", "geometry": {"type": "Polygon", "coordinates": [[[-95.3182653, 35.0420522], [-95.3183945, 35.0424878], [-95.3185028, 35.0424662], [-95.3185331, 35.0425682], [-95.3185057, 35.0425737], [-95.3185174, 35.042613], [-95.3184547, 35.0426255], [-95.318443, 35.0425861], [-95.3182977, 35.042615], [-95.3182742, 35.042536], [-95.3182351, 35.0425438], [-95.3182152, 35.0424768], [-95.3182543, 35.042469], [-95.3182168, 35.0423423], [-95.3181065, 35.0423642], [-95.3180279, 35.0420995], [-95.3182653, 35.0420522]]]}, "properties": {"osm_id": 1033670792, "building": "yes", "name": "", "height": null, "height_m": null, "levels": null, "tract_id": "40077087200", "tract_name": "872", "tags": {"building": "yes"}}}, {"type": "Feature", "geometry": {"type": "Polygon", "coordinates": [[[-95.31909, 35.0429427], [-95.3189552, 35.042937], [-95.3189686, 35.042724], [-95.3191035, 35.0427297], [-95.31909, 35.0429427]]]}, "properties": {"osm_id": 1033670793, "building": "yes", "name": "", "height": null, "height_m": null, "levels": null, "tract_id": "40077087200", "tract_name": "872", "tags": {"building": "yes"}}}, {"type": "Feature", "geometry": {"type": "Polygon", "coordinates": [[[-95.3191517, 35.0427308], [-95.3192577, 35.0427342], [-95.319251, 35.0428726], [-95.319145, 35.0428692], [-95.3191517, 35.0427308]]]}, "properties": {"osm_id": 1033670794, "building": "yes", "name": "", "height": null, "height_m": null, "levels": null, "tract_id": "40077087200", "tract_name": "872", "tags": {"building": "yes"}}}, {"type": "Feature", "geometry": {"type": "Polygon", "coordinates": [[[-95.3193167, 35.0427099], [-95.3192456, 35.0425156], [-95.3193191, 35.0424976], [-95.3193901, 35.0426919], [-95.3193167, 35.0427099]]]}, "properties": {"osm_id": 1033670795, "building": "yes", "name": "", "height": null, "height_m": null, "levels": null, "tract_id": "40077087200", "tract_name": "872", "tags": {"building": "yes"}}}, {"type": "Feature", "geometry": {"type": "Polygon", "coordinates": [[[-95.318398, 35.0435993], [-95.3180601, 35.0436191], [-95.3180523, 35.0435297], [-95.3183902, 35.04351], [-95.318398, 35.0435993]]]}, "properties": {"osm_id": 1033670796, "building": "yes", "name": "", "height": null, "height_m": null, "levels": null, "tract_id": "40077087200", "tract_name": "872", "tags": {"building": "yes"}}}, {"type": "Feature", "geometry": {"type": "Polygon", "coordinates": [[[-95.3167632, 35.0418052], [-95.3166291, 35.0415021], [-95.3166965, 35.0414821], [-95.3166551, 35.0413885], [-95.3168876, 35.0413195], [-95.316929, 35.0414132], [-95.3170045, 35.0413908], [-95.3171386, 35.0416938], [-95.3170681, 35.0417148], [-95.3170887, 35.0417615], [-95.3168976, 35.0418182], [-95.3169097, 35.0418456], [-95.3168486, 35.0418637], [-95.3168158, 35.0417896], [-95.3167632, 35.0418052]]]}, "properties": {"osm_id": 1033670797, "building": "farm_auxiliary", "name": "", "height": null, "height_m": null, "levels": null, "tract_id": "40077087200", "tract_name": "872", "tags": {"building": "farm_auxiliary"}}}, {"type": "Feature", "geometry": {"type": "Polygon", "coordinates": [[[-95.3240857, 35.0576391], [-95.3239261, 35.0574755], [-95.3239822, 35.0574388], [-95.3241418, 35.0576024], [-95.3240857, 35.0576391]]]}, "properties": {"osm_id": 1033670814, "building": "yes", "name": "", "height": null, "height_m": null, "levels": null, "tract_id": "40077087200", "tract_name": "872", "tags": {"building": "yes"}}}, {"type": "Feature", "geometry": {"type": "Polygon", "coordinates": [[[-95.3543879, 34.982544], [-95.3543624, 34.9824776], [-95.3544085, 34.9824657], [-95.354434, 34.9825322], [-95.3543879, 34.982544]]]}, "properties": {"osm_id": 1033675011, "building": "yes", "name": "", "height": null, "height_m": null, "levels": null, "tract_id": "40077087200", "tract_name": "872", "tags": {"building": "yes"}}}, {"type": "Feature", "geometry": {"type": "Polygon", "coordinates": [[[-95.354178, 34.9825907], [-95.354058, 34.9825935], [-95.3540553, 34.9825156], [-95.3541754, 34.9825129], [-95.354178, 34.9825907]]]}, "properties": {"osm_id": 1033675012, "building": "yes", "name": "", "height": null, "height_m": null, "levels": null, "tract_id": "40077087200", "tract_name": "872", "tags": {"building": "yes"}}}, {"type": "Feature", "geometry": {"type": "Polygon", "coordinates": [[[-95.357168, 34.9805074], [-95.3571668, 34.9805691], [-95.3571479, 34.9805688], [-95.3571472, 34.9806032], [-95.3570414, 34.9806018], [-95.3570433, 34.9805057], [-95.357168, 34.9805074]]]}, "properties": {"osm_id": 1033675018, "building": "yes", "name": "", "height": null, "height_m": null, "levels": null, "tract_id": "40077087200", "tract_name": "872", "tags": {"building": "yes"}}}, {"type": "Feature", "geometry": {"type": "Polygon", "coordinates": [[[-95.3511867, 34.9799728], [-95.3513074, 34.9800277], [-95.3512636, 34.9800923], [-95.3511429, 34.9800373], [-95.3511867, 34.9799728]]]}, "properties": {"osm_id": 1035826431, "building": "yes", "name": "", "height": null, "height_m": null, "levels": null, "tract_id": "40077087200", "tract_name": "872", "tags": {"building": "yes"}}}, {"type": "Feature", "geometry": {"type": "Polygon", "coordinates": [[[-95.3515702, 34.979764], [-95.3515649, 34.9798447], [-95.3514415, 34.9798392], [-95.3514469, 34.9797585], [-95.3515702, 34.979764]]]}, "properties": {"osm_id": 1035826432, "building": "yes", "name": "", "height": null, "height_m": null, "levels": null, "tract_id": "40077087200", "tract_name": "872", "tags": {"building": "yes"}}}, {"type": "Feature", "geometry": {"type": "Polygon", "coordinates": [[[-95.3510761, 34.9794767], [-95.3511538, 34.9795215], [-95.3510613, 34.9796292], [-95.3509835, 34.9795844], [-95.3510761, 34.9794767]]]}, "properties": {"osm_id": 1035826433, "building": "yes", "name": "", "height": null, "height_m": null, "levels": null, "tract_id": "40077087200", "tract_name": "872", "tags": {"building": "yes"}}}, {"type": "Feature", "geometry": {"type": "Polygon", "coordinates": [[[-95.3513724, 34.9793388], [-95.3513879, 34.9792196], [-95.3514533, 34.9792252], [-95.3514379, 34.9793445], [-95.3513724, 34.9793388]]]}, "properties": {"osm_id": 1035826434, "building": "yes", "name": "", "height": null, "height_m": null, "levels": null, "tract_id": "40077087200", "tract_name": "872", "tags": {"building": "yes"}}}, {"type": "Feature", "geometry": {"type": "Polygon", "coordinates": [[[-95.3516065, 34.9790838], [-95.3516963, 34.9790179], [-95.3517581, 34.9790745], [-95.3516683, 34.9791404], [-95.3516065, 34.9790838]]]}, "properties": {"osm_id": 1035826435, "building": "yes", "name": "", "height": null, "height_m": null, "levels": null, "tract_id": "40077087200", "tract_name": "872", "tags": {"building": "yes"}}}, {"type": "Feature", "geometry": {"type": "Polygon", "coordinates": [[[-95.3519672, 34.9788921], [-95.3518796, 34.9788543], [-95.3519453, 34.9787521], [-95.3520329, 34.9787899], [-95.3519672, 34.9788921]]]}, "properties": {"osm_id": 1035826436, "building": "yes", "name": "", "height": null, "height_m": null, "levels": null, "tract_id": "40077087200", "tract_name": "872", "tags": {"building": "yes"}}}, {"type": "Feature", "geometry": {"type": "Polygon", "coordinates": [[[-95.3520943, 34.9785219], [-95.3521675, 34.9784495], [-95.3522391, 34.9784981], [-95.3521659, 34.9785705], [-95.3520943, 34.9785219]]]}, "properties": {"osm_id": 1035826437, "building": "yes", "name": "", "height": null, "height_m": null, "levels": null, "tract_id": "40077087200", "tract_name": "872", "tags": {"building": "yes"}}}, {"type": "Feature", "geometry": {"type": "Polygon", "coordinates": [[[-95.3524621, 34.9783377], [-95.3524017, 34.9782806], [-95.3524581, 34.9782406], [-95.3525184, 34.9782978], [-95.3524621, 34.9783377]]]}, "properties": {"osm_id": 1035826438, "building": "yes", "name": "", "height": null, "height_m": null, "levels": null, "tract_id": "40077087200", "tract_name": "872", "tags": {"building": "yes"}}}, {"type": "Feature", "geometry": {"type": "Polygon", "coordinates": [[[-95.3527323, 34.9780053], [-95.3527397, 34.9780843], [-95.3526526, 34.9780898], [-95.3526451, 34.9780108], [-95.3527323, 34.9780053]]]}, "properties": {"osm_id": 1035826439, "building": "yes", "name": "", "height": null, "height_m": null, "levels": null, "tract_id": "40077087200", "tract_name": "872", "tags": {"building": "yes"}}}, {"type": "Feature", "geometry": {"type": "Polygon", "coordinates": [[[-95.3531232, 34.9776713], [-95.3531639, 34.9777082], [-95.3530961, 34.9777582], [-95.3530555, 34.9777213], [-95.3531232, 34.9776713]]]}, "properties": {"osm_id": 1035826441, "building": "yes", "name": "", "height": null, "height_m": null, "levels": null, "tract_id": "40077087200", "tract_name": "872", "tags": {"building": "yes"}}}, {"type": "Feature", "geometry": {"type": "Polygon", "coordinates": [[[-95.3534465, 34.9775515], [-95.3533727, 34.9775954], [-95.3533371, 34.9775553], [-95.3534109, 34.9775114], [-95.3534465, 34.9775515]]]}, "properties": {"osm_id": 1035826442, "building": "yes", "name": "", "height": null, "height_m": null, "levels": null, "tract_id": "40077087200", "tract_name": "872", "tags": {"building": "yes"}}}, {"type": "Feature", "geometry": {"type": "Polygon", "coordinates": [[[-95.3535725, 34.9772487], [-95.353602, 34.9771784], [-95.3536578, 34.9771941], [-95.3536283, 34.9772644], [-95.3535725, 34.9772487]]]}, "properties": {"osm_id": 1035826443, "building": "yes", "name": "", "height": null, "height_m": null, "levels": null, "tract_id": "40077087200", "tract_name": "872", "tags": {"building": "yes"}}}, {"type": "Feature", "geometry": {"type": "Polygon", "coordinates": [[[-95.3538964, 34.9770564], [-95.3538267, 34.9770086], [-95.3538715, 34.9769647], [-95.3539413, 34.9770125], [-95.3538964, 34.9770564]]]}, "properties": {"osm_id": 1035826444, "building": "yes", "name": "", "height": null, "height_m": null, "levels": null, "tract_id": "40077087200", "tract_name": "872", "tags": {"building": "yes"}}}, {"type": "Feature", "geometry": {"type": "Polygon", "coordinates": [[[-95.3541405, 34.9767878], [-95.3541976, 34.9767988], [-95.3541788, 34.9768642], [-95.3541217, 34.9768531], [-95.3541405, 34.9767878]]]}, "properties": {"osm_id": 1035826445, "building": "yes", "name": "", "height": null, "height_m": null, "levels": null, "tract_id": "40077087200", "tract_name": "872", "tags": {"building": "yes"}}}, {"type": "Feature", "geometry": {"type": "Polygon", "coordinates": [[[-95.3543805, 34.9766482], [-95.3544047, 34.9765713], [-95.3544599, 34.9765829], [-95.3544357, 34.9766598], [-95.3543805, 34.9766482]]]}, "properties": {"osm_id": 1035826446, "building": "yes", "name": "", "height": null, "height_m": null, "levels": null, "tract_id": "40077087200", "tract_name": "872", "tags": {"building": "yes"}}}, {"type": "Feature", "geometry": {"type": "Polygon", "coordinates": [[[-95.3548653, 34.9763493], [-95.3548411, 34.9764195], [-95.3547224, 34.9763921], [-95.3547467, 34.9763218], [-95.3548653, 34.9763493]]]}, "properties": {"osm_id": 1035826447, "building": "yes", "name": "", "height": null, "height_m": null, "levels": null, "tract_id": "40077087200", "tract_name": "872", "tags": {"building": "yes"}}}, {"type": "Feature", "geometry": {"type": "Polygon", "coordinates": [[[-95.3550169, 34.9761625], [-95.3549626, 34.976118], [-95.3550149, 34.9760751], [-95.3550692, 34.9761196], [-95.3550169, 34.9761625]]]}, "properties": {"osm_id": 1035826448, "building": "yes", "name": "", "height": null, "height_m": null, "levels": null, "tract_id": "40077087200", "tract_name": "872", "tags": {"building": "yes"}}}, {"type": "Feature", "geometry": {"type": "Polygon", "coordinates": [[[-95.355387, 34.9758455], [-95.3553386, 34.9758191], [-95.3552937, 34.9758746], [-95.3553421, 34.975901], [-95.355387, 34.9758455]]]}, "properties": {"osm_id": 1035826449, "building": "yes", "name": "", "height": null, "height_m": null, "levels": null, "tract_id": "40077087200", "tract_name": "872", "tags": {"building": "yes"}}}, {"type": "Feature", "geometry": {"type": "Polygon", "coordinates": [[[-95.3555802, 34.9756729], [-95.3555694, 34.9756169], [-95.3556164, 34.9756109], [-95.3556271, 34.9756669], [-95.3555802, 34.9756729]]]}, "properties": {"osm_id": 1035826450, "building": "yes", "name": "", "height": null, "height_m": null, "levels": null, "tract_id": "40077087200", "tract_name": "872", "tags": {"building": "yes"}}}, {"type": "Feature", "geometry": {"type": "Polygon", "coordinates": [[[-95.3559248, 34.9755251], [-95.3558625, 34.9755279], [-95.3558583, 34.9754644], [-95.3559207, 34.9754617], [-95.3559248, 34.9755251]]]}, "properties": {"osm_id": 1035826451, "building": "yes", "name": "", "height": null, "height_m": null, "levels": null, "tract_id": "40077087200", "tract_name": "872", "tags": {"building": "yes"}}}, {"type": "Feature", "geometry": {"type": "Polygon", "coordinates": [[[-95.3561776, 34.9754718], [-95.356124, 34.9754389], [-95.3561583, 34.9754013], [-95.356212, 34.9754343], [-95.3561776, 34.9754718]]]}, "properties": {"osm_id": 1035826452, "building": "yes", "name": "", "height": null, "height_m": null, "levels": null, "tract_id": "40077087200", "tract_name": "872", "tags": {"building": "yes"}}}, {"type": "Feature", "geometry": {"type": "Polygon", "coordinates": [[[-95.3428276, 34.9563411], [-95.3424253, 34.9563059], [-95.3424421, 34.9561766], [-95.3427232, 34.9562011], [-95.3427209, 34.9562188], [-95.3428421, 34.9562294], [-95.3428276, 34.9563411]]]}, "properties": {"osm_id": 1035840424, "building": "yes", "name": "", "height": null, "height_m": null, "levels": null, "tract_id": "40077087200", "tract_name": "872", "tags": {"building": "yes"}}}, {"type": "Feature", "geometry": {"type": "Polygon", "coordinates": [[[-95.3448922, 34.9566247], [-95.3448439, 34.9566251], [-95.3448419, 34.9564734], [-95.3448902, 34.956473], [-95.3448922, 34.9566247]]]}, "properties": {"osm_id": 1035840426, "building": "yes", "name": "", "height": null, "height_m": null, "levels": null, "tract_id": "40077087200", "tract_name": "872", "tags": {"building": "yes"}}}, {"type": "Feature", "geometry": {"type": "Polygon", "coordinates": [[[-95.3486869, 34.9587691], [-95.3486594, 34.9587565], [-95.348671, 34.9587395], [-95.3486985, 34.9587521], [-95.3486869, 34.9587691]]]}, "properties": {"osm_id": 1035840434, "building": "yes", "name": "", "height": null, "height_m": null, "levels": null, "tract_id": "40077087200", "tract_name": "872", "tags": {"building": "yes"}}}, {"type": "Feature", "geometry": {"type": "Polygon", "coordinates": [[[-95.401395, 34.9124258], [-95.4010007, 34.9124225], [-95.4010024, 34.9122818], [-95.4013967, 34.9122851], [-95.401395, 34.9124258]]]}, "properties": {"osm_id": 1035874545, "building": "yes", "name": "", "height": null, "height_m": null, "levels": null, "tract_id": "40077087200", "tract_name": "872", "tags": {"building": "yes"}}}, {"type": "Feature", "geometry": {"type": "Polygon", "coordinates": [[[-95.4016028, 34.9124269], [-95.4014339, 34.9124269], [-95.4014339, 34.9122587], [-95.4016028, 34.9122587], [-95.4016028, 34.9124269]]]}, "properties": {"osm_id": 1035874546, "building": "yes", "name": "", "height": null, "height_m": null, "levels": null, "tract_id": "40077087200", "tract_name": "872", "tags": {"building": "yes"}}}, {"type": "Feature", "geometry": {"type": "Polygon", "coordinates": [[[-95.3358874, 34.9125578], [-95.3358874, 34.9121696], [-95.3360282, 34.9121696], [-95.3360282, 34.9125578], [-95.3358874, 34.9125578]]]}, "properties": {"osm_id": 1035874565, "building": "yes", "name": "", "height": null, "height_m": null, "levels": null, "tract_id": "40077087200", "tract_name": "872", "tags": {"building": "yes"}}}, {"type": "Feature", "geometry": {"type": "Polygon", "coordinates": [[[-95.3354046, 34.9121597], [-95.3355937, 34.9121597], [-95.3355937, 34.9125611], [-95.3354046, 34.9125611], [-95.3354046, 34.9121597]]]}, "properties": {"osm_id": 1035874566, "building": "yes", "name": "", "height": null, "height_m": null, "levels": null, "tract_id": "40077087200", "tract_name": "872", "tags": {"building": "yes"}}}, {"type": "Feature", "geometry": {"type": "Polygon", "coordinates": [[[-95.3347756, 34.9119991], [-95.3351082, 34.9119991], [-95.3351082, 34.9123466], [-95.3350425, 34.9123466], [-95.3350425, 34.9127623], [-95.3347756, 34.9127623], [-95.3347756, 34.9119991]]]}, "properties": {"osm_id": 1035874567, "building": "yes", "name": "", "height": null, "height_m": null, "levels": null, "tract_id": "40077087200", "tract_name": "872", "tags": {"building": "yes"}}}, {"type": "Feature", "geometry": {"type": "Polygon", "coordinates": [[[-95.3225615, 34.9131209], [-95.3225715, 34.9131996], [-95.3224797, 34.9132075], [-95.322477, 34.9131863], [-95.3223053, 34.913201], [-95.322298, 34.9131434], [-95.3225615, 34.9131209]]]}, "properties": {"osm_id": 1035874583, "building": "yes", "name": "", "height": null, "height_m": null, "levels": null, "tract_id": "40077087200", "tract_name": "872", "tags": {"amenity": "car_wash", "building": "yes"}}}, {"type": "Feature", "geometry": {"type": "Polygon", "coordinates": [[[-95.3213498, 34.9134057], [-95.3213498, 34.913277], [-95.321437, 34.913277], [-95.321437, 34.9134057], [-95.3213498, 34.9134057]]]}, "properties": {"osm_id": 1035874592, "building": "yes", "name": "Three Sisters Handy Stop", "height": null, "height_m": null, "levels": null, "tract_id": "40077087200", "tract_name": "872", "tags": {"amenity": "fuel", "building": "yes", "name": "Three Sisters Handy Stop"}}}, {"type": "Feature", "geometry": {"type": "Polygon", "coordinates": [[[-95.3215134, 34.9136608], [-95.3212532, 34.9136597], [-95.3212541, 34.9135244], [-95.3215143, 34.9135255], [-95.3215134, 34.9136608]]]}, "properties": {"osm_id": 1035874593, "building": "yes", "name": "Three Sisters Handy Stop", "height": null, "height_m": null, "levels": null, "tract_id": "40077087200", "tract_name": "872", "tags": {"building": "yes", "name": "Three Sisters Handy Stop", "shop": "convenience"}}}, {"type": "Feature", "geometry": {"type": "Polygon", "coordinates": [[[-95.3209218, 34.9136441], [-95.3207217, 34.9136512], [-95.3207185, 34.9135905], [-95.3208098, 34.9135872], [-95.3209187, 34.9135834], [-95.3209218, 34.9136441]]]}, "properties": {"osm_id": 1035874595, "building": "yes", "name": "Empire Finance", "height": null, "height_m": null, "levels": null, "tract_id": "40077087200", "tract_name": "872", "tags": {"building": "yes", "name": "Empire Finance", "shop": "money_lender"}}}, {"type": "Feature", "geometry": {"type": "Polygon", "coordinates": [[[-95.3207185, 34.9135905], [-95.3207129, 34.9134831], [-95.3208042, 34.9134799], [-95.3208098, 34.9135872], [-95.3207185, 34.9135905]]]}, "properties": {"osm_id": 1035874596, "building": "yes", "name": "Sky Nails", "height": null, "height_m": null, "levels": null, "tract_id": "40077087200", "tract_name": "872", "tags": {"beauty": "nails", "building": "yes", "name": "Sky Nails", "shop": "beauty"}}}, {"type": "Feature", "geometry": {"type": "Polygon", "coordinates": [[[-95.3200892, 34.9142948], [-95.319825, 34.9142992], [-95.3198227, 34.9142073], [-95.3200869, 34.9142029], [-95.3200892, 34.9142948]]]}, "properties": {"osm_id": 1035874600, "building": "yes", "name": "", "height": null, "height_m": null, "levels": null, "tract_id": "40077087200", "tract_name": "872", "tags": {"building": "yes"}}}, {"type": "Feature", "geometry": {"type": "Polygon", "coordinates": [[[-95.317867, 34.9161786], [-95.3179313, 34.9161344], [-95.3179371, 34.91614], [-95.3179694, 34.9161177], [-95.3180039, 34.9161515], [-95.3179715, 34.9161737], [-95.3179757, 34.9161778], [-95.3179113, 34.916222], [-95.3179061, 34.9162169], [-95.3178705, 34.9162412], [-95.3178372, 34.9162086], [-95.3178727, 34.9161842], [-95.317867, 34.9161786]]]}, "properties": {"osm_id": 1035874607, "building": "yes", "name": "", "height": null, "height_m": null, "levels": null, "tract_id": "40077087200", "tract_name": "872", "tags": {"building": "yes"}}}, {"type": "Feature", "geometry": {"type": "Polygon", "coordinates": [[[-95.3180306, 34.9160554], [-95.3181144, 34.9159735], [-95.3181664, 34.9160093], [-95.3180826, 34.9160912], [-95.3180756, 34.9160864], [-95.318047, 34.9161143], [-95.3180089, 34.9160881], [-95.3180375, 34.9160602], [-95.3180306, 34.9160554]]]}, "properties": {"osm_id": 1035874608, "building": "yes", "name": "", "height": null, "height_m": null, "levels": null, "tract_id": "40077087200", "tract_name": "872", "tags": {"building": "yes"}}}, {"type": "Feature", "geometry": {"type": "Polygon", "coordinates": [[[-95.3178307, 34.9162133], [-95.3178599, 34.9163024], [-95.3176346, 34.9163519], [-95.3176054, 34.9162627], [-95.3178307, 34.9162133]]]}, "properties": {"osm_id": 1035874609, "building": "yes", "name": "", "height": null, "height_m": null, "levels": null, "tract_id": "40077087200", "tract_name": "872", "tags": {"building": "yes"}}}, {"type": "Feature", "geometry": {"type": "Polygon", "coordinates": [[[-95.3179662, 34.91594], [-95.3178649, 34.9159402], [-95.3178643, 34.9157478], [-95.3179655, 34.9157475], [-95.3179662, 34.91594]]]}, "properties": {"osm_id": 1035874610, "building": "yes", "name": "", "height": null, "height_m": null, "levels": null, "tract_id": "40077087200", "tract_name": "872", "tags": {"building": "yes"}}}, {"type": "Feature", "geometry": {"type": "Polygon", "coordinates": [[[-95.318453, 34.9154039], [-95.3183028, 34.9159097], [-95.3181848, 34.9158862], [-95.318335, 34.9153803], [-95.318453, 34.9154039]]]}, "properties": {"osm_id": 1035874611, "building": "yes", "name": "", "height": null, "height_m": null, "levels": null, "tract_id": "40077087200", "tract_name": "872", "tags": {"building": "yes"}}}, {"type": "Feature", "geometry": {"type": "Polygon", "coordinates": [[[-95.3189553, 34.9157079], [-95.3186549, 34.9157228], [-95.3186527, 34.9156935], [-95.3186208, 34.9156951], [-95.3186164, 34.9156342], [-95.3188453, 34.9156229], [-95.3188326, 34.9154503], [-95.3189101, 34.9154464], [-95.3189116, 34.9154677], [-95.3189375, 34.9154664], [-95.3189553, 34.9157079]]]}, "properties": {"osm_id": 1035874612, "building": "yes", "name": "", "height": null, "height_m": null, "levels": null, "tract_id": "40077087200", "tract_name": "872", "tags": {"building": "yes"}}}, {"type": "Feature", "geometry": {"type": "Polygon", "coordinates": [[[-95.317352, 34.9166663], [-95.3172378, 34.9166494], [-95.317266, 34.9165218], [-95.3173801, 34.9165388], [-95.317352, 34.9166663]]]}, "properties": {"osm_id": 1035874618, "building": "yes", "name": "Mark's Hair Care", "height": null, "height_m": null, "levels": null, "tract_id": "40077087200", "tract_name": "872", "tags": {"building": "yes", "name": "Mark's Hair Care", "shop": "hairdresser"}}}, {"type": "Feature", "geometry": {"type": "Polygon", "coordinates": [[[-95.317812, 34.9171106], [-95.3174512, 34.9169764], [-95.3171803, 34.9169335], [-95.3172209, 34.9167615], [-95.3173206, 34.916776], [-95.3173029, 34.9168573], [-95.3173585, 34.9168654], [-95.3173543, 34.9168847], [-95.3174909, 34.9169047], [-95.3178517, 34.9170388], [-95.317812, 34.9171106]]]}, "properties": {"osm_id": 1035874619, "building": "yes", "name": "A-OK Motel", "height": null, "height_m": null, "levels": null, "tract_id": "40077087200", "tract_name": "872", "tags": {"addr:housenumber": "509", "addr:street": "West Main Street", "building": "yes", "name": "A-OK Motel", "tourism": "motel"}}}, {"type": "Feature", "geometry": {"type": "Polygon", "coordinates": [[[-95.3181003, 34.9170688], [-95.318008, 34.9170903], [-95.3179101, 34.916807], [-95.3175317, 34.91663], [-95.3175786, 34.9165575], [-95.3179917, 34.9167543], [-95.3181003, 34.9170688]]]}, "properties": {"osm_id": 1035874620, "building": "yes", "name": "", "height": null, "height_m": null, "levels": null, "tract_id": "40077087200", "tract_name": "872", "tags": {"building": "yes"}}}, {"type": "Feature", "geometry": {"type": "Polygon", "coordinates": [[[-95.3113076, 34.9183301], [-95.3114026, 34.9183276], [-95.3114133, 34.9186037], [-95.3113183, 34.9186061], [-95.3113076, 34.9183301]]]}, "properties": {"osm_id": 1035874622, "building": "yes", "name": "Xtreme Liquor", "height": null, "height_m": null, "levels": null, "tract_id": "40077087200", "tract_name": "872", "tags": {"addr:housenumber": "132", "addr:street": "West Main Street", "building": "yes", "name": "Xtreme Liquor", "opening_hours": "Mo-Sa 10:00-21:00", "shop": "alcohol"}}}, {"type": "Feature", "geometry": {"type": "Polygon", "coordinates": [[[-95.3160122, 34.9171051], [-95.3158804, 34.9170671], [-95.3159769, 34.9168417], [-95.3161088, 34.9168797], [-95.3160122, 34.9171051]]]}, "properties": {"osm_id": 1035874633, "building": "yes", "name": "Casey's General Store", "height": null, "height_m": null, "levels": null, "tract_id": "40077087200", "tract_name": "872", "tags": {"brand": "Casey's General Store", "brand:wikidata": "Q2940968", "building": "yes", "name": "Casey's General Store", "shop": "convenience"}}}, {"type": "Feature", "geometry": {"type": "Polygon", "coordinates": [[[-95.3162415, 34.9172975], [-95.3161644, 34.9172752], [-95.3163602, 34.91682], [-95.3164373, 34.9168423], [-95.3162415, 34.9172975]]]}, "properties": {"osm_id": 1035874634, "building": "yes", "name": "Casey's General Store", "height": null, "height_m": null, "levels": null, "tract_id": "40077087200", "tract_name": "872", "tags": {"amenity": "fuel", "brand": "Casey's General Store", "brand:wikidata": "Q2940968", "building": "yes", "name": "Casey's General Store"}}}, {"type": "Feature", "geometry": {"type": "Polygon", "coordinates": [[[-95.3156045, 34.9174823], [-95.3158058, 34.9176323], [-95.3154839, 34.9179226], [-95.3152826, 34.9177726], [-95.3156045, 34.9174823]]]}, "properties": {"osm_id": 1035874637, "building": "yes", "name": "Dollar General", "height": null, "height_m": null, "levels": null, "tract_id": "40077087200", "tract_name": "872", "tags": {"addr:city": "Wilburton", "addr:country": "US", "addr:housenumber": "420", "addr:postcode": "74578", "addr:state": "OK", "addr:street": "West Main Street", "brand": "Dollar General", "brand:wikidata": "Q145168", "building": "yes", "name": "Dollar General", "opening_hours": "Mo-Su 07:00-22:00", "post_office": "post_partner", "post_office:brand": "FedEx OnSite", "post_office:service_provider": "FedEx", "post_office:website": "https://local.fedex.com/en-us/ok/wilburton/rvsab", "shop": "variety_store", "website": "https://www.dollargeneral.com/store-directory/ok/wilburton/241"}}}, {"type": "Feature", "geometry": {"type": "Polygon", "coordinates": [[[-95.317071, 34.9173465], [-95.3170017, 34.9173269], [-95.3170214, 34.9172799], [-95.3170907, 34.9172995], [-95.317071, 34.9173465]]]}, "properties": {"osm_id": 1035874638, "building": "yes", "name": "", "height": null, "height_m": null, "levels": null, "tract_id": "40077087200", "tract_name": "872", "tags": {"building": "yes"}}}, {"type": "Feature", "geometry": {"type": "Polygon", "coordinates": [[[-95.3171025, 34.9172398], [-95.3170371, 34.9172213], [-95.3170583, 34.9171711], [-95.3171236, 34.9171895], [-95.3171025, 34.9172398]]]}, "properties": {"osm_id": 1035874639, "building": "yes", "name": "", "height": null, "height_m": null, "levels": null, "tract_id": "40077087200", "tract_name": "872", "tags": {"building": "yes"}}}, {"type": "Feature", "geometry": {"type": "Polygon", "coordinates": [[[-95.317297, 34.9173382], [-95.3172151, 34.9173151], [-95.317253, 34.917225], [-95.3171313, 34.9171907], [-95.3172169, 34.9169871], [-95.3174204, 34.9170446], [-95.317297, 34.9173382]]]}, "properties": {"osm_id": 1035874640, "building": "yes", "name": "East Branch Gun & Pawn", "height": null, "height_m": null, "levels": null, "tract_id": "40077087200", "tract_name": "872", "tags": {"building": "yes", "name": "East Branch Gun & Pawn", "shop": "pawnbroker"}}}, {"type": "Feature", "geometry": {"type": "Polygon", "coordinates": [[[-95.3177463, 34.9176758], [-95.3174941, 34.9174911], [-95.3176667, 34.9173327], [-95.3179189, 34.9175174], [-95.3177463, 34.9176758]]]}, "properties": {"osm_id": 1035874643, "building": "yes", "name": "Family Dollar", "height": null, "height_m": null, "levels": null, "tract_id": "40077087200", "tract_name": "872", "tags": {"addr:housenumber": "504", "addr:street": "OK 2", "brand": "Family Dollar", "brand:wikidata": "Q5433101", "building": "yes", "name": "Family Dollar", "opening_hours": "Mo-Su 09:00-21:00", "shop": "variety_store"}}}, {"type": "Feature", "geometry": {"type": "Polygon", "coordinates": [[[-95.3173373, 34.9185982], [-95.3172164, 34.9188086], [-95.3171051, 34.9187656], [-95.317226, 34.9185553], [-95.3173373, 34.9185982]]]}, "properties": {"osm_id": 1035874644, "building": "retail", "name": "China Wok", "height": null, "height_m": null, "levels": null, "tract_id": "40077087200", "tract_name": "872", "tags": {"addr:housenumber": "609", "addr:street": "OK 2", "amenity": "fast_food", "brand": "China Wok", "brand:wikidata": "Q5766542", "building": "retail", "cuisine": "chinese", "name": "China Wok", "takeaway": "yes"}}}, {"type": "Feature", "geometry": {"type": "Polygon", "coordinates": [[[-95.3183994, 34.9193143], [-95.3184584, 34.9192286], [-95.3185475, 34.9192698], [-95.3184885, 34.9193555], [-95.3183994, 34.9193143]]]}, "properties": {"osm_id": 1035874649, "building": "yes", "name": "", "height": null, "height_m": null, "levels": null, "tract_id": "40077087200", "tract_name": "872", "tags": {"building": "yes"}}}, {"type": "Feature", "geometry": {"type": "Polygon", "coordinates": [[[-95.3185911, 34.9199158], [-95.3185844, 34.9198323], [-95.3186586, 34.9198283], [-95.3186653, 34.9199118], [-95.3185911, 34.9199158]]]}, "properties": {"osm_id": 1035874650, "building": "yes", "name": "", "height": null, "height_m": null, "levels": null, "tract_id": "40077087200", "tract_name": "872", "tags": {"building": "yes"}}}, {"type": "Feature", "geometry": {"type": "Polygon", "coordinates": [[[-95.3203923, 34.9194584], [-95.3203227, 34.9195374], [-95.3202985, 34.9195231], [-95.3202941, 34.9195281], [-95.3202387, 34.9194952], [-95.3202308, 34.9195042], [-95.3201918, 34.9194811], [-95.3201997, 34.9194722], [-95.3201679, 34.9194534], [-95.3201757, 34.9194974], [-95.3201372, 34.9195014], [-95.3201506, 34.9195878], [-95.3201592, 34.9196437], [-95.3200754, 34.9196524], [-95.3200663, 34.9196001], [-95.3200587, 34.919556], [-95.3200317, 34.9195589], [-95.3200214, 34.9194995], [-95.320029, 34.9194987], [-95.3200202, 34.9194477], [-95.3200613, 34.9194434], [-95.3200583, 34.9194259], [-95.3200751, 34.9194232], [-95.3200852, 34.9194044], [-95.3200495, 34.9193833], [-95.320042, 34.9193918], [-95.3200061, 34.9193706], [-95.3200136, 34.9193621], [-95.3199589, 34.9193297], [-95.3199633, 34.9193248], [-95.3199324, 34.9193065], [-95.320002, 34.9192275], [-95.3200349, 34.9192469], [-95.3200411, 34.9192398], [-95.3200889, 34.9192682], [-95.3200952, 34.919261], [-95.3201332, 34.9192835], [-95.3201269, 34.9192907], [-95.3202764, 34.9193791], [-95.3202843, 34.9193701], [-95.3203284, 34.9193962], [-95.3203205, 34.9194052], [-95.3203696, 34.9194342], [-95.3203634, 34.9194413], [-95.3203923, 34.9194584]]]}, "properties": {"osm_id": 1035874665, "building": "yes", "name": "Health & Wellness Center", "height": null, "height_m": null, "levels": null, "tract_id": "40077087200", "tract_name": "872", "tags": {"building": "yes", "name": "Health & Wellness Center"}}}, {"type": "Feature", "geometry": {"type": "Polygon", "coordinates": [[[-95.3208683, 34.9206647], [-95.3208278, 34.9207123], [-95.3206796, 34.9206275], [-95.3206682, 34.9206409], [-95.3206432, 34.9206265], [-95.3206546, 34.9206131], [-95.3205573, 34.9205575], [-95.3205301, 34.9205894], [-95.3204586, 34.9205485], [-95.3205264, 34.9204689], [-95.3208683, 34.9206647]]]}, "properties": {"osm_id": 1035874667, "building": "yes", "name": "", "height": null, "height_m": null, "levels": null, "tract_id": "40077087200", "tract_name": "872", "tags": {"amenity": "car_wash", "automated": "yes", "building": "yes", "self_service": "yes"}}}, {"type": "Feature", "geometry": {"type": "Polygon", "coordinates": [[[-95.3210829, 34.9208918], [-95.321039, 34.920877], [-95.3210678, 34.9208193], [-95.3211118, 34.920834], [-95.3210829, 34.9208918]]]}, "properties": {"osm_id": 1035874668, "building": "yes", "name": "", "height": null, "height_m": null, "levels": null, "tract_id": "40077087200", "tract_name": "872", "tags": {"building": "yes"}}}, {"type": "Feature", "geometry": {"type": "Polygon", "coordinates": [[[-95.3213833, 34.9203315], [-95.3214256, 34.9200606], [-95.321373, 34.9200551], [-95.3213911, 34.9199395], [-95.3214436, 34.919945], [-95.3214866, 34.9196695], [-95.3216279, 34.9196843], [-95.3215919, 34.9199148], [-95.3216435, 34.9199202], [-95.3216101, 34.920134], [-95.3215588, 34.9201286], [-95.3215249, 34.9203463], [-95.3213833, 34.9203315]]]}, "properties": {"osm_id": 1035874669, "building": "yes", "name": "", "height": null, "height_m": null, "levels": null, "tract_id": "40077087200", "tract_name": "872", "tags": {"building": "yes"}}}, {"type": "Feature", "geometry": {"type": "Polygon", "coordinates": [[[-95.3215724, 34.9215114], [-95.3213555, 34.9214468], [-95.3214003, 34.9213456], [-95.3215061, 34.9213772], [-95.3215592, 34.9212573], [-95.3216703, 34.9212904], [-95.3215724, 34.9215114]]]}, "properties": {"osm_id": 1035874671, "building": "yes", "name": "Wilburton Seventh-day Adventist Church", "height": null, "height_m": null, "levels": null, "tract_id": "40077087200", "tract_name": "872", "tags": {"addr:city": "Wilburton", "addr:housenumber": "121", "addr:postcode": "74578", "addr:street": "Jensen Street", "amenity": "place_of_worship", "building": "yes", "denomination": "seventh_day_adventist", "gnis:feature_id": "1790138", "name": "Wilburton Seventh-day Adventist Church", "phone": "+1 918 465 0247", "religion": "christian", "website": "http://wilburton22.adventistchurchconnect.org/"}}}, {"type": "Feature", "geometry": {"type": "Polygon", "coordinates": [[[-95.3224515, 34.9216538], [-95.3224048, 34.9217404], [-95.3223538, 34.921722], [-95.3223431, 34.9217419], [-95.3222178, 34.9216965], [-95.3222602, 34.9216179], [-95.3222862, 34.9216273], [-95.3223013, 34.9215994], [-95.3224515, 34.9216538]]]}, "properties": {"osm_id": 1035874675, "building": "yes", "name": "", "height": null, "height_m": null, "levels": null, "tract_id": "40077087200", "tract_name": "872", "tags": {"building": "yes"}}}, {"type": "Feature", "geometry": {"type": "Polygon", "coordinates": [[[-95.3224757, 34.9216928], [-95.3226393, 34.9217594], [-95.3225613, 34.9218882], [-95.3225098, 34.9218672], [-95.3225381, 34.9218204], [-95.3224666, 34.9217913], [-95.322472, 34.9217823], [-95.3224315, 34.9217658], [-95.3224757, 34.9216928]]]}, "properties": {"osm_id": 1035874676, "building": "yes", "name": "", "height": null, "height_m": null, "levels": null, "tract_id": "40077087200", "tract_name": "872", "tags": {"building": "yes"}}}, {"type": "Feature", "geometry": {"type": "Polygon", "coordinates": [[[-95.3228163, 34.9218968], [-95.3226987, 34.9218526], [-95.3226912, 34.921866], [-95.3226244, 34.9218409], [-95.3226835, 34.9217352], [-95.3227809, 34.9217718], [-95.3227919, 34.9217521], [-95.3228683, 34.9217808], [-95.3228573, 34.9218005], [-95.3228679, 34.9218045], [-95.3228163, 34.9218968]]]}, "properties": {"osm_id": 1035874677, "building": "yes", "name": "", "height": null, "height_m": null, "levels": null, "tract_id": "40077087200", "tract_name": "872", "tags": {"building": "yes"}}}, {"type": "Feature", "geometry": {"type": "Polygon", "coordinates": [[[-95.32299, 34.9219859], [-95.3228371, 34.9219271], [-95.322882, 34.9218485], [-95.322954, 34.9218762], [-95.3229651, 34.9218568], [-95.323019, 34.9218776], [-95.3230079, 34.921897], [-95.3230349, 34.9219074], [-95.32299, 34.9219859]]]}, "properties": {"osm_id": 1035874678, "building": "yes", "name": "", "height": null, "height_m": null, "levels": null, "tract_id": "40077087200", "tract_name": "872", "tags": {"building": "yes"}}}, {"type": "Feature", "geometry": {"type": "Polygon", "coordinates": [[[-95.3232803, 34.9221041], [-95.3230141, 34.9219991], [-95.3230614, 34.9219185], [-95.3233276, 34.9220235], [-95.3232803, 34.9221041]]]}, "properties": {"osm_id": 1035874679, "building": "yes", "name": "", "height": null, "height_m": null, "levels": null, "tract_id": "40077087200", "tract_name": "872", "tags": {"building": "yes"}}}, {"type": "Feature", "geometry": {"type": "Polygon", "coordinates": [[[-95.3235861, 34.922219], [-95.3234547, 34.922169], [-95.3234965, 34.9220951], [-95.3236279, 34.9221451], [-95.3235861, 34.922219]]]}, "properties": {"osm_id": 1035874680, "building": "yes", "name": "", "height": null, "height_m": null, "levels": null, "tract_id": "40077087200", "tract_name": "872", "tags": {"building": "yes"}}}, {"type": "Feature", "geometry": {"type": "Polygon", "coordinates": [[[-95.3239958, 34.9223867], [-95.323737, 34.9222811], [-95.3237869, 34.9221988], [-95.3238682, 34.9222319], [-95.3238894, 34.922197], [-95.323999, 34.9222417], [-95.3239811, 34.9222712], [-95.3239937, 34.9222764], [-95.324009, 34.9222512], [-95.3240584, 34.9222713], [-95.3240398, 34.9223019], [-95.3240458, 34.9223043], [-95.3239958, 34.9223867]]]}, "properties": {"osm_id": 1035874681, "building": "yes", "name": "", "height": null, "height_m": null, "levels": null, "tract_id": "40077087200", "tract_name": "872", "tags": {"building": "yes"}}}, {"type": "Feature", "geometry": {"type": "Polygon", "coordinates": [[[-95.3241004, 34.9222009], [-95.3239837, 34.9221536], [-95.3240233, 34.9220879], [-95.32414, 34.9221352], [-95.3241004, 34.9222009]]]}, "properties": {"osm_id": 1035874682, "building": "yes", "name": "", "height": null, "height_m": null, "levels": null, "tract_id": "40077087200", "tract_name": "872", "tags": {"building": "yes"}}}, {"type": "Feature", "geometry": {"type": "Polygon", "coordinates": [[[-95.3244571, 34.922434], [-95.3243561, 34.9223941], [-95.3244259, 34.9222753], [-95.3245269, 34.9223152], [-95.3244571, 34.922434]]]}, "properties": {"osm_id": 1035874683, "building": "yes", "name": "", "height": null, "height_m": null, "levels": null, "tract_id": "40077087200", "tract_name": "872", "tags": {"building": "yes"}}}, {"type": "Feature", "geometry": {"type": "Polygon", "coordinates": [[[-95.3239542, 34.9209407], [-95.3237169, 34.9208494], [-95.3237464, 34.9207978], [-95.3239838, 34.920889], [-95.3239542, 34.9209407]]]}, "properties": {"osm_id": 1035874686, "building": "yes", "name": "", "height": null, "height_m": null, "levels": null, "tract_id": "40077087200", "tract_name": "872", "tags": {"building": "yes"}}}, {"type": "Feature", "geometry": {"type": "Polygon", "coordinates": [[[-95.3243981, 34.9233917], [-95.3242908, 34.9233598], [-95.3243324, 34.9232659], [-95.3244396, 34.9232978], [-95.3243981, 34.9233917]]]}, "properties": {"osm_id": 1035874700, "building": "yes", "name": "", "height": null, "height_m": null, "levels": null, "tract_id": "40077087200", "tract_name": "872", "tags": {"building": "yes"}}}, {"type": "Feature", "geometry": {"type": "Polygon", "coordinates": [[[-95.3253637, 34.9230564], [-95.3254454, 34.9230877], [-95.3252859, 34.923367], [-95.3252041, 34.9233356], [-95.3253637, 34.9230564]]]}, "properties": {"osm_id": 1035874701, "building": "yes", "name": "", "height": null, "height_m": null, "levels": null, "tract_id": "40077087200", "tract_name": "872", "tags": {"building": "yes"}}}, {"type": "Feature", "geometry": {"type": "Polygon", "coordinates": [[[-95.3253503, 34.9230322], [-95.3254053, 34.9229277], [-95.3254566, 34.9229459], [-95.3254016, 34.9230503], [-95.3253503, 34.9230322]]]}, "properties": {"osm_id": 1035874702, "building": "yes", "name": "", "height": null, "height_m": null, "levels": null, "tract_id": "40077087200", "tract_name": "872", "tags": {"building": "yes"}}}, {"type": "Feature", "geometry": {"type": "Polygon", "coordinates": [[[-95.3252336, 34.9227089], [-95.3251775, 34.9228083], [-95.324908, 34.9227061], [-95.3249641, 34.9226066], [-95.3252336, 34.9227089]]]}, "properties": {"osm_id": 1035874703, "building": "yes", "name": "", "height": null, "height_m": null, "levels": null, "tract_id": "40077087200", "tract_name": "872", "tags": {"building": "yes"}}}, {"type": "Feature", "geometry": {"type": "Polygon", "coordinates": [[[-95.325518, 34.9233252], [-95.3254607, 34.9233021], [-95.3254975, 34.9232406], [-95.3255548, 34.9232636], [-95.325518, 34.9233252]]]}, "properties": {"osm_id": 1035874704, "building": "yes", "name": "", "height": null, "height_m": null, "levels": null, "tract_id": "40077087200", "tract_name": "872", "tags": {"building": "yes"}}}, {"type": "Feature", "geometry": {"type": "Polygon", "coordinates": [[[-95.3264406, 34.9237183], [-95.3262609, 34.9236677], [-95.3262915, 34.9235947], [-95.3262226, 34.9235753], [-95.3262494, 34.9235114], [-95.326498, 34.9235813], [-95.3264406, 34.9237183]]]}, "properties": {"osm_id": 1035874709, "building": "yes", "name": "", "height": null, "height_m": null, "levels": null, "tract_id": "40077087200", "tract_name": "872", "tags": {"building": "yes"}}}, {"type": "Feature", "geometry": {"type": "Polygon", "coordinates": [[[-95.3262529, 34.9231696], [-95.3261649, 34.9233253], [-95.3260389, 34.9232774], [-95.3259648, 34.9234086], [-95.3258527, 34.923366], [-95.3259268, 34.9232348], [-95.325835, 34.9231999], [-95.325923, 34.9230443], [-95.3262529, 34.9231696]]]}, "properties": {"osm_id": 1035874711, "building": "yes", "name": "The Community State Bank", "height": null, "height_m": null, "levels": null, "tract_id": "40077087200", "tract_name": "872", "tags": {"amenity": "bank", "building": "yes", "name": "The Community State Bank"}}}, {"type": "Feature", "geometry": {"type": "Polygon", "coordinates": [[[-95.3266673, 34.9237513], [-95.3265238, 34.9237106], [-95.3265585, 34.9236282], [-95.326702, 34.9236689], [-95.3266673, 34.9237513]]]}, "properties": {"osm_id": 1035874713, "building": "yes", "name": "", "height": null, "height_m": null, "levels": null, "tract_id": "40077087200", "tract_name": "872", "tags": {"building": "yes"}}}, {"type": "Feature", "geometry": {"type": "Polygon", "coordinates": [[[-95.3266767, 34.9235875], [-95.3267826, 34.9233686], [-95.3269779, 34.9234322], [-95.326872, 34.923651], [-95.3266767, 34.9235875]]]}, "properties": {"osm_id": 1035874714, "building": "church", "name": "", "height": null, "height_m": null, "levels": null, "tract_id": "40077087200", "tract_name": "872", "tags": {"amenity": "place_of_worship", "building": "church", "religion": "christian"}}}, {"type": "Feature", "geometry": {"type": "Polygon", "coordinates": [[[-95.3268631, 34.9226297], [-95.3266458, 34.9225483], [-95.326741, 34.9223775], [-95.3269583, 34.9224588], [-95.3268631, 34.9226297]]]}, "properties": {"osm_id": 1035874715, "building": "church", "name": "First Baptist Church", "height": null, "height_m": null, "levels": null, "tract_id": "40077087200", "tract_name": "872", "tags": {"amenity": "place_of_worship", "building": "church", "denomination": "baptist", "name": "First Baptist Church", "religion": "christian"}}}, {"type": "Feature", "geometry": {"type": "Polygon", "coordinates": [[[-95.3278736, 34.9227699], [-95.3278378, 34.922841], [-95.3277111, 34.9227982], [-95.3277469, 34.922727], [-95.3278736, 34.9227699]]]}, "properties": {"osm_id": 1035874716, "building": "yes", "name": "", "height": null, "height_m": null, "levels": null, "tract_id": "40077087200", "tract_name": "872", "tags": {"building": "yes"}}}, {"type": "Feature", "geometry": {"type": "Polygon", "coordinates": [[[-95.328341, 34.9229398], [-95.3284805, 34.9226891], [-95.3286139, 34.922739], [-95.3284744, 34.9229897], [-95.328341, 34.9229398]]]}, "properties": {"osm_id": 1035874717, "building": "yes", "name": "", "height": null, "height_m": null, "levels": null, "tract_id": "40077087200", "tract_name": "872", "tags": {"building": "yes"}}}, {"type": "Feature", "geometry": {"type": "Polygon", "coordinates": [[[-95.3287939, 34.9232963], [-95.3288055, 34.9232754], [-95.3287565, 34.9232571], [-95.3287868, 34.9232027], [-95.3288358, 34.923221], [-95.3289163, 34.9230761], [-95.3291129, 34.9231496], [-95.3290423, 34.9232766], [-95.3291054, 34.9233002], [-95.3290536, 34.9233934], [-95.3287939, 34.9232963]]]}, "properties": {"osm_id": 1035874718, "building": "yes", "name": "", "height": null, "height_m": null, "levels": null, "tract_id": "40077087200", "tract_name": "872", "tags": {"building": "yes"}}}, {"type": "Feature", "geometry": {"type": "Polygon", "coordinates": [[[-95.3293642, 34.9237106], [-95.3293937, 34.9236523], [-95.3294366, 34.9236669], [-95.3294071, 34.9237252], [-95.3293642, 34.9237106]]]}, "properties": {"osm_id": 1035874719, "building": "yes", "name": "", "height": null, "height_m": null, "levels": null, "tract_id": "40077087200", "tract_name": "872", "tags": {"building": "yes"}}}, {"type": "Feature", "geometry": {"type": "Polygon", "coordinates": [[[-95.3301622, 34.9237348], [-95.3298618, 34.9236292], [-95.329928, 34.9235025], [-95.3302284, 34.9236081], [-95.3301622, 34.9237348]]]}, "properties": {"osm_id": 1035874720, "building": "yes", "name": "", "height": null, "height_m": null, "levels": null, "tract_id": "40077087200", "tract_name": "872", "tags": {"building": "yes"}}}, {"type": "Feature", "geometry": {"type": "Polygon", "coordinates": [[[-95.3371386, 34.9322001], [-95.3370574, 34.9320844], [-95.337037, 34.932094], [-95.3370083, 34.9320532], [-95.3369889, 34.9320624], [-95.3369567, 34.9320165], [-95.3369761, 34.9320074], [-95.3369456, 34.9319639], [-95.336966, 34.9319543], [-95.3368422, 34.9317779], [-95.3370738, 34.9316687], [-95.3371125, 34.9317239], [-95.3372285, 34.9316692], [-95.3373175, 34.931796], [-95.337274, 34.9318165], [-95.3372854, 34.9318327], [-95.3373551, 34.9317998], [-95.3374127, 34.931882], [-95.337343, 34.9319149], [-95.337356, 34.9319333], [-95.3373995, 34.9319128], [-95.3374861, 34.9320362], [-95.3371386, 34.9322001]]]}, "properties": {"osm_id": 1035874723, "building": "yes", "name": "", "height": null, "height_m": null, "levels": null, "tract_id": "40077087200", "tract_name": "872", "tags": {"building": "yes"}}}, {"type": "Feature", "geometry": {"type": "Polygon", "coordinates": [[[-95.3072096, 34.9207669], [-95.3072072, 34.9206935], [-95.3071107, 34.9206956], [-95.3071089, 34.9206404], [-95.30715, 34.9206395], [-95.307147, 34.9205486], [-95.3070458, 34.9205509], [-95.3070531, 34.9207704], [-95.3072096, 34.9207669]]]}, "properties": {"osm_id": 1064148751, "building": "yes", "name": "", "height": null, "height_m": null, "levels": null, "tract_id": "40077087200", "tract_name": "872", "tags": {"addr:city": "Wilburton", "addr:housenumber": "206", "addr:postcode": "74578", "addr:state": "OK", "addr:street": "East Blair Avenue", "building": "yes"}}}, {"type": "Feature", "geometry": {"type": "Polygon", "coordinates": [[[-95.309351, 34.918645], [-95.3092231, 34.9186482], [-95.3092179, 34.9185702], [-95.3093467, 34.9185681], [-95.309351, 34.918645]]]}, "properties": {"osm_id": 1095419298, "building": "yes", "name": "", "height": null, "height_m": null, "levels": null, "tract_id": "40077087200", "tract_name": "872", "tags": {"building": "yes"}}}, {"type": "Feature", "geometry": {"type": "Polygon", "coordinates": [[[-95.3092089, 34.9184256], [-95.3092093, 34.9184552], [-95.3092102, 34.9185301], [-95.3093444, 34.9185268], [-95.3093386, 34.9184235], [-95.3092089, 34.9184256]]]}, "properties": {"osm_id": 1095419299, "building": "yes", "name": "", "height": null, "height_m": null, "levels": null, "tract_id": "40077087200", "tract_name": "872", "tags": {"building": "yes"}}}, {"type": "Feature", "geometry": {"type": "Polygon", "coordinates": [[[-95.3092231, 34.9186482], [-95.3091408, 34.9186472], [-95.309142, 34.9184531], [-95.3092093, 34.9184552], [-95.3092102, 34.9185301], [-95.3092231, 34.9186482]]]}, "properties": {"osm_id": 1095419300, "building": "yes", "name": "", "height": null, "height_m": null, "levels": null, "tract_id": "40077087200", "tract_name": "872", "tags": {"building": "yes"}}}, {"type": "Feature", "geometry": {"type": "Polygon", "coordinates": [[[-95.3091408, 34.9186472], [-95.3089864, 34.9186503], [-95.3089787, 34.918375], [-95.3091395, 34.9183718], [-95.309142, 34.9184531], [-95.3091408, 34.9186472]]]}, "properties": {"osm_id": 1095419301, "building": "yes", "name": "", "height": null, "height_m": null, "levels": null, "tract_id": "40077087200", "tract_name": "872", "tags": {"building": "yes"}}}, {"type": "Feature", "geometry": {"type": "Polygon", "coordinates": [[[-95.3089864, 34.9186503], [-95.3088757, 34.9186545], [-95.3088654, 34.9183771], [-95.3089787, 34.918375], [-95.3089864, 34.9186503]]]}, "properties": {"osm_id": 1095419302, "building": "yes", "name": "", "height": null, "height_m": null, "levels": null, "tract_id": "40077087200", "tract_name": "872", "tags": {"building": "yes"}}}, {"type": "Feature", "geometry": {"type": "Polygon", "coordinates": [[[-95.3088757, 34.9186545], [-95.3087921, 34.9186577], [-95.3087829, 34.9184352], [-95.3087805, 34.9183792], [-95.3088654, 34.9183771], [-95.3088757, 34.9186545]]]}, "properties": {"osm_id": 1095419303, "building": "yes", "name": "", "height": null, "height_m": null, "levels": null, "tract_id": "40077087200", "tract_name": "872", "tags": {"building": "yes"}}}, {"type": "Feature", "geometry": {"type": "Polygon", "coordinates": [[[-95.3087921, 34.9186577], [-95.3087265, 34.9186588], [-95.3087201, 34.9184372], [-95.3087829, 34.9184352], [-95.3087921, 34.9186577]]]}, "properties": {"osm_id": 1095419304, "building": "yes", "name": "", "height": null, "height_m": null, "levels": null, "tract_id": "40077087200", "tract_name": "872", "tags": {"building": "yes"}}}, {"type": "Feature", "geometry": {"type": "Polygon", "coordinates": [[[-95.3087265, 34.9186588], [-95.3086017, 34.9186619], [-95.3085966, 34.9184383], [-95.3087201, 34.9184372], [-95.3087265, 34.9186588]]]}, "properties": {"osm_id": 1095419305, "building": "yes", "name": "", "height": null, "height_m": null, "levels": null, "tract_id": "40077087200", "tract_name": "872", "tags": {"building": "yes"}}}, {"type": "Feature", "geometry": {"type": "Polygon", "coordinates": [[[-95.3086017, 34.9186619], [-95.3085181, 34.918663], [-95.3085117, 34.9184404], [-95.3085966, 34.9184383], [-95.3086017, 34.9186619]]]}, "properties": {"osm_id": 1095419306, "building": "yes", "name": "", "height": null, "height_m": null, "levels": null, "tract_id": "40077087200", "tract_name": "872", "tags": {"building": "yes"}}}, {"type": "Feature", "geometry": {"type": "Polygon", "coordinates": [[[-95.3085181, 34.918663], [-95.3084255, 34.9186619], [-95.3084178, 34.9183908], [-95.308513, 34.9183898], [-95.3085117, 34.9184404], [-95.3085181, 34.918663]]]}, "properties": {"osm_id": 1095419307, "building": "yes", "name": "", "height": null, "height_m": null, "levels": null, "tract_id": "40077087200", "tract_name": "872", "tags": {"building": "yes"}}}, {"type": "Feature", "geometry": {"type": "Polygon", "coordinates": [[[-95.3082891, 34.9183908], [-95.3082917, 34.9184552], [-95.3083817, 34.9184541], [-95.3083792, 34.9183866], [-95.3082891, 34.9183908]]]}, "properties": {"osm_id": 1095419308, "building": "yes", "name": "", "height": null, "height_m": null, "levels": null, "tract_id": "40077087200", "tract_name": "872", "tags": {"building": "yes"}}}, {"type": "Feature", "geometry": {"type": "Polygon", "coordinates": [[[-95.3291684, 34.914297], [-95.3289231, 34.9142986], [-95.3289229, 34.9142766], [-95.3288514, 34.9142771], [-95.328851, 34.9142314], [-95.3287843, 34.9142319], [-95.3287835, 34.9141452], [-95.3287672, 34.9141453], [-95.3287651, 34.913941], [-95.328947, 34.9139398], [-95.328967, 34.9139019], [-95.3289893, 34.9138893], [-95.3290147, 34.9138823], [-95.3290448, 34.9138829], [-95.3290902, 34.9139013], [-95.3291079, 34.9139152], [-95.3291149, 34.9139379], [-95.3292921, 34.9139366], [-95.3292934, 34.9140537], [-95.329319, 34.9140535], [-95.3293198, 34.9141229], [-95.3293371, 34.9141228], [-95.329338, 34.9142143], [-95.3292929, 34.9142146], [-95.329293, 34.9142261], [-95.3292342, 34.9142265], [-95.3292346, 34.9142723], [-95.3291682, 34.9142728], [-95.3291684, 34.914297]]]}, "properties": {"osm_id": 1113429587, "building": "college", "name": "E.E. Tourtellotte Student Center", "height": null, "height_m": null, "levels": null, "tract_id": "40077087200", "tract_name": "872", "tags": {"building": "college", "name": "E.E. Tourtellotte Student Center"}}}, {"type": "Feature", "geometry": {"type": "Polygon", "coordinates": [[[-95.3278858, 34.9136751], [-95.3278003, 34.9136751], [-95.3278002, 34.9137079], [-95.3276914, 34.9137079], [-95.3276914, 34.9136624], [-95.3276153, 34.9136624], [-95.3276153, 34.9136187], [-95.3275953, 34.9136187], [-95.3275951, 34.913373], [-95.3276145, 34.913373], [-95.3276144, 34.9133244], [-95.3276875, 34.9133243], [-95.3276874, 34.9132806], [-95.3277928, 34.9132805], [-95.3277929, 34.913312], [-95.3278824, 34.9133119], [-95.3278825, 34.9133794], [-95.3279041, 34.9133882], [-95.327904, 34.9134319], [-95.3279538, 34.9134319], [-95.3279537, 34.9134581], [-95.3278859, 34.9134581], [-95.3278858, 34.9136751]]]}, "properties": {"osm_id": 1113429588, "building": "college", "name": "Pratt Hall", "height": null, "height_m": null, "levels": null, "tract_id": "40077087200", "tract_name": "872", "tags": {"building": "college", "name": "Pratt Hall"}}}, {"type": "Feature", "geometry": {"type": "Polygon", "coordinates": [[[-95.3278923, 34.9141511], [-95.3277137, 34.9141526], [-95.3277097, 34.9138421], [-95.3278817, 34.9138406], [-95.3278832, 34.9139587], [-95.3279245, 34.9139583], [-95.3279254, 34.9140301], [-95.3278908, 34.9140304], [-95.3278923, 34.9141511]]]}, "properties": {"osm_id": 1113429589, "building": "college", "name": "Gunning Hall", "height": null, "height_m": null, "levels": null, "tract_id": "40077087200", "tract_name": "872", "tags": {"building": "college", "name": "Gunning Hall"}}}, {"type": "Feature", "geometry": {"type": "Polygon", "coordinates": [[[-95.3285149, 34.9149514], [-95.3282978, 34.9149527], [-95.3282974, 34.9149014], [-95.328264, 34.9149016], [-95.3282643, 34.9149318], [-95.328035, 34.9149332], [-95.3280347, 34.9149034], [-95.3280023, 34.9149036], [-95.3280028, 34.9149557], [-95.3277843, 34.9149571], [-95.3277816, 34.9146602], [-95.3279945, 34.9146588], [-95.327995, 34.9147126], [-95.3280353, 34.9147124], [-95.3280344, 34.9146182], [-95.3282542, 34.9146169], [-95.328255, 34.9147111], [-95.3282998, 34.9147109], [-95.3282994, 34.9146605], [-95.3285124, 34.9146593], [-95.3285149, 34.9149514]]]}, "properties": {"osm_id": 1113429590, "building": "college", "name": "Mitchell Hall", "height": null, "height_m": null, "levels": null, "tract_id": "40077087200", "tract_name": "872", "tags": {"building": "college", "name": "Mitchell Hall"}}}, {"type": "Feature", "geometry": {"type": "Polygon", "coordinates": [[[-95.3272993, 34.9146311], [-95.3272983, 34.9145669], [-95.3272611, 34.9145673], [-95.3272604, 34.9145209], [-95.3267066, 34.9145266], [-95.3267056, 34.9144628], [-95.3265509, 34.9144644], [-95.3265543, 34.9146841], [-95.326152, 34.9146883], [-95.3261527, 34.9147334], [-95.3261152, 34.9147338], [-95.3261163, 34.9147999], [-95.3267226, 34.9147935], [-95.3267224, 34.9147794], [-95.326758, 34.914779], [-95.3267572, 34.9147292], [-95.3267825, 34.914729], [-95.3267819, 34.9146854], [-95.3268746, 34.9146844], [-95.3268739, 34.9146355], [-95.3272993, 34.9146311]]]}, "properties": {"osm_id": 1113429591, "building": "college", "name": "Miller Hall", "height": null, "height_m": null, "levels": null, "tract_id": "40077087200", "tract_name": "872", "tags": {"building": "college", "name": "Miller Hall"}}}, {"type": "Feature", "geometry": {"type": "Polygon", "coordinates": [[[-95.3304405, 34.9146034], [-95.3304425, 34.9147464], [-95.3301784, 34.9147489], [-95.3301787, 34.9147712], [-95.3300494, 34.9147724], [-95.3300492, 34.9147587], [-95.3297843, 34.9147613], [-95.3297821, 34.914604], [-95.3298949, 34.9146029], [-95.3298955, 34.914646], [-95.3300617, 34.9146444], [-95.3300612, 34.9146104], [-95.3301808, 34.9146092], [-95.3301812, 34.9146442], [-95.3303522, 34.9146426], [-95.3303517, 34.9146042], [-95.3304405, 34.9146034]]]}, "properties": {"osm_id": 1113429592, "building": "college", "name": "Johnston Hall", "height": null, "height_m": null, "levels": null, "tract_id": "40077087200", "tract_name": "872", "tags": {"building": "college", "name": "Johnston Hall"}}}, {"type": "Feature", "geometry": {"type": "Polygon", "coordinates": [[[-95.3310689, 34.9138816], [-95.331067, 34.9137738], [-95.3308275, 34.9137767], [-95.3308261, 34.913702], [-95.3308657, 34.9137015], [-95.3308633, 34.9135688], [-95.3308184, 34.9135693], [-95.3308164, 34.9134587], [-95.3310676, 34.9134557], [-95.3310656, 34.9133436], [-95.3306896, 34.9133481], [-95.3306991, 34.913886], [-95.3310689, 34.9138816]]]}, "properties": {"osm_id": 1113429593, "building": "college", "name": "Choctaw Hall", "height": null, "height_m": null, "levels": null, "tract_id": "40077087200", "tract_name": "872", "tags": {"building": "college", "name": "Choctaw Hall"}}}, {"type": "Feature", "geometry": {"type": "Polygon", "coordinates": [[[-95.3316526, 34.9153261], [-95.3311708, 34.9153339], [-95.331169, 34.9152594], [-95.3311347, 34.9152599], [-95.3311322, 34.9151552], [-95.3311641, 34.9151547], [-95.3311557, 34.914802], [-95.331356, 34.9147988], [-95.3313553, 34.9147674], [-95.3315032, 34.9147651], [-95.331504, 34.9147991], [-95.3316415, 34.914797], [-95.3316498, 34.9151528], [-95.3316773, 34.915147], [-95.3316798, 34.9152481], [-95.3316507, 34.9152486], [-95.3316526, 34.9153261]]]}, "properties": {"osm_id": 1113429594, "building": "college", "name": "Baker Hall", "height": null, "height_m": null, "levels": null, "tract_id": "40077087200", "tract_name": "872", "tags": {"building": "college", "name": "Baker Hall"}}}, {"type": "Feature", "geometry": {"type": "Polygon", "coordinates": [[[-95.3316509, 34.9157236], [-95.3311412, 34.9157387], [-95.3311453, 34.9158329], [-95.3308408, 34.9158419], [-95.3308382, 34.9157826], [-95.3307836, 34.9157842], [-95.3307764, 34.9156232], [-95.3310156, 34.915616], [-95.3310167, 34.9156418], [-95.3316, 34.9156244], [-95.3316021, 34.9156704], [-95.3316485, 34.915669], [-95.3316509, 34.9157236]]]}, "properties": {"osm_id": 1113429595, "building": "college", "name": "Salmon Hall", "height": null, "height_m": null, "levels": null, "tract_id": "40077087200", "tract_name": "872", "tags": {"building": "college", "name": "Salmon Hall"}}}, {"type": "Feature", "geometry": {"type": "Polygon", "coordinates": [[[-95.3300884, 34.9155471], [-95.3296504, 34.9155621], [-95.3296413, 34.9153841], [-95.3297283, 34.9153811], [-95.3297265, 34.915345], [-95.329769, 34.9153435], [-95.3297711, 34.9153837], [-95.3300101, 34.9153756], [-95.3300081, 34.9153362], [-95.3300489, 34.9153348], [-95.330051, 34.9153775], [-95.33008, 34.9153765], [-95.330082, 34.9154148], [-95.3301138, 34.9154137], [-95.3301155, 34.9154467], [-95.3300834, 34.9154478], [-95.3300884, 34.9155471]]]}, "properties": {"osm_id": 1113429596, "building": "college", "name": "Sullivan Hall", "height": null, "height_m": null, "levels": null, "tract_id": "40077087200", "tract_name": "872", "tags": {"building": "college", "name": "Sullivan Hall"}}}, {"type": "Feature", "geometry": {"type": "Polygon", "coordinates": [[[-95.328119, 34.9157713], [-95.3280052, 34.9157725], [-95.3280048, 34.9157469], [-95.3279452, 34.9157476], [-95.3279451, 34.9157385], [-95.3278901, 34.9157391], [-95.3278879, 34.9155981], [-95.3280666, 34.9155962], [-95.3280687, 34.9157267], [-95.3281183, 34.9157262], [-95.328119, 34.9157713]]]}, "properties": {"osm_id": 1113429597, "building": "college", "name": "White Hall", "height": null, "height_m": null, "levels": null, "tract_id": "40077087200", "tract_name": "872", "tags": {"building": "college", "name": "White Hall"}}}, {"type": "Feature", "geometry": {"type": "Polygon", "coordinates": [[[-95.3323508, 34.9152317], [-95.3319193, 34.9152296], [-95.3319205, 34.9150628], [-95.332352, 34.9150649], [-95.3323508, 34.9152317]]]}, "properties": {"osm_id": 1113454156, "building": "yes", "name": "Physical Plant", "height": null, "height_m": null, "levels": null, "tract_id": "40077087200", "tract_name": "872", "tags": {"building": "yes", "name": "Physical Plant"}}}, {"type": "Feature", "geometry": {"type": "Polygon", "coordinates": [[[-95.3316522, 34.914519], [-95.3313802, 34.9145216], [-95.3313805, 34.9145447], [-95.3310073, 34.9145482], [-95.331007, 34.9145246], [-95.3309432, 34.9145252], [-95.3309399, 34.9142922], [-95.3308948, 34.9142927], [-95.3308942, 34.9142508], [-95.3308086, 34.9142516], [-95.3308066, 34.9141111], [-95.3309024, 34.9141101], [-95.3309005, 34.9139774], [-95.331431, 34.9139723], [-95.331435, 34.9142513], [-95.3316484, 34.9142493], [-95.3316522, 34.914519]]]}, "properties": {"osm_id": 1113454157, "building": "yes", "name": "C. C. Dunlap Field House", "height": null, "height_m": null, "levels": null, "tract_id": "40077087200", "tract_name": "872", "tags": {"building": "yes", "leisure": "sports_hall", "name": "C. C. Dunlap Field House"}}}, {"type": "Feature", "geometry": {"type": "Polygon", "coordinates": [[[-95.3293738, 34.9153482], [-95.3293674, 34.9151732], [-95.3293056, 34.9151747], [-95.3293033, 34.915111], [-95.3292273, 34.9151129], [-95.3291957, 34.9151274], [-95.3291242, 34.915128], [-95.329098, 34.9151148], [-95.3290419, 34.9151173], [-95.3290149, 34.9151293], [-95.3289465, 34.9151337], [-95.3288849, 34.9151072], [-95.3288133, 34.915109], [-95.3288164, 34.9151937], [-95.3287575, 34.9151952], [-95.3287636, 34.9153631], [-95.3293738, 34.9153482]]]}, "properties": {"osm_id": 1113454158, "building": "yes", "name": "Library/Administration", "height": null, "height_m": null, "levels": null, "tract_id": "40077087200", "tract_name": "872", "tags": {"amenity": "library", "building": "yes", "name": "Library/Administration"}}}, {"type": "Feature", "geometry": {"type": "Polygon", "coordinates": [[[-95.3157078, 34.9243704], [-95.315676, 34.9244353], [-95.3155539, 34.9243952], [-95.3155857, 34.9243302], [-95.3157078, 34.9243704]]]}, "properties": {"osm_id": 1134953461, "building": "yes", "name": "", "height": null, "height_m": null, "levels": null, "tract_id": "40077087200", "tract_name": "872", "tags": {"building": "yes"}}}, {"type": "Feature", "geometry": {"type": "Polygon", "coordinates": [[[-95.3143761, 34.9239135], [-95.3143805, 34.9238252], [-95.3145434, 34.9238307], [-95.314539, 34.923919], [-95.3143761, 34.9239135]]]}, "properties": {"osm_id": 1134953462, "building": "yes", "name": "", "height": null, "height_m": null, "levels": null, "tract_id": "40077087200", "tract_name": "872", "tags": {"building": "yes"}}}, {"type": "Feature", "geometry": {"type": "Polygon", "coordinates": [[[-95.3147081, 34.918851], [-95.3147137, 34.9191621], [-95.3144452, 34.9191654], [-95.3144395, 34.9188543], [-95.3147081, 34.918851]]]}, "properties": {"osm_id": 1134953463, "building": "yes", "name": "", "height": null, "height_m": null, "levels": null, "tract_id": "40077087200", "tract_name": "872", "tags": {"building": "yes"}}}, {"type": "Feature", "geometry": {"type": "Polygon", "coordinates": [[[-95.3130352, 34.918823], [-95.3130381, 34.9189824], [-95.31292, 34.9189839], [-95.3129172, 34.9188245], [-95.3130352, 34.918823]]]}, "properties": {"osm_id": 1134953464, "building": "yes", "name": "", "height": null, "height_m": null, "levels": null, "tract_id": "40077087200", "tract_name": "872", "tags": {"building": "yes"}}}, {"type": "Feature", "geometry": {"type": "Polygon", "coordinates": [[[-95.3129039, 34.9188261], [-95.3129058, 34.91897], [-95.3127821, 34.9189711], [-95.3127802, 34.9188272], [-95.3129039, 34.9188261]]]}, "properties": {"osm_id": 1134953465, "building": "yes", "name": "", "height": null, "height_m": null, "levels": null, "tract_id": "40077087200", "tract_name": "872", "tags": {"building": "yes"}}}, {"type": "Feature", "geometry": {"type": "Polygon", "coordinates": [[[-95.3122303, 34.9185973], [-95.3122252, 34.9184305], [-95.3124136, 34.9184266], [-95.3124187, 34.9185935], [-95.3122303, 34.9185973]]]}, "properties": {"osm_id": 1134953466, "building": "yes", "name": "", "height": null, "height_m": null, "levels": null, "tract_id": "40077087200", "tract_name": "872", "tags": {"building": "yes"}}}, {"type": "Feature", "geometry": {"type": "Polygon", "coordinates": [[[-95.3121948, 34.918428], [-95.3120606, 34.9184307], [-95.3120572, 34.9183194], [-95.3121914, 34.9183166], [-95.3121948, 34.918428]]]}, "properties": {"osm_id": 1134953467, "building": "yes", "name": "", "height": null, "height_m": null, "levels": null, "tract_id": "40077087200", "tract_name": "872", "tags": {"building": "yes"}}}, {"type": "Feature", "geometry": {"type": "Polygon", "coordinates": [[[-95.3119138, 34.9186023], [-95.3117106, 34.9186061], [-95.311706, 34.9184408], [-95.3119091, 34.918437], [-95.3119138, 34.9186023]]]}, "properties": {"osm_id": 1134953468, "building": "yes", "name": "", "height": null, "height_m": null, "levels": null, "tract_id": "40077087200", "tract_name": "872", "tags": {"building": "yes"}}}, {"type": "Feature", "geometry": {"type": "Polygon", "coordinates": [[[-95.3120828, 34.9185968], [-95.3120787, 34.9184549], [-95.3122036, 34.9184526], [-95.3122076, 34.9185944], [-95.3120828, 34.9185968]]]}, "properties": {"osm_id": 1134953469, "building": "yes", "name": "", "height": null, "height_m": null, "levels": null, "tract_id": "40077087200", "tract_name": "872", "tags": {"building": "yes"}}}, {"type": "Feature", "geometry": {"type": "Polygon", "coordinates": [[[-95.3143814, 34.9195156], [-95.3144959, 34.9195144], [-95.3144979, 34.9196486], [-95.3143834, 34.9196497], [-95.3143814, 34.9195156]]]}, "properties": {"osm_id": 1134953470, "building": "yes", "name": "", "height": null, "height_m": null, "levels": null, "tract_id": "40077087200", "tract_name": "872", "tags": {"building": "yes"}}}, {"type": "Feature", "geometry": {"type": "Polygon", "coordinates": [[[-95.3149702, 34.9195145], [-95.3149648, 34.9197465], [-95.3147852, 34.9197437], [-95.3147906, 34.9195117], [-95.3149702, 34.9195145]]]}, "properties": {"osm_id": 1134953471, "building": "yes", "name": "", "height": null, "height_m": null, "levels": null, "tract_id": "40077087200", "tract_name": "872", "tags": {"building": "yes"}}}, {"type": "Feature", "geometry": {"type": "Polygon", "coordinates": [[[-95.316381, 34.9194386], [-95.3161557, 34.9194298], [-95.3161608, 34.9193422], [-95.3163861, 34.919351], [-95.316381, 34.9194386]]]}, "properties": {"osm_id": 1134953472, "building": "yes", "name": "", "height": null, "height_m": null, "levels": null, "tract_id": "40077087200", "tract_name": "872", "tags": {"building": "yes"}}}, {"type": "Feature", "geometry": {"type": "Polygon", "coordinates": [[[-95.3158526, 34.9195035], [-95.3153068, 34.9194903], [-95.3153122, 34.9193389], [-95.3158581, 34.9193521], [-95.3158526, 34.9195035]]]}, "properties": {"osm_id": 1134953473, "building": "yes", "name": "", "height": null, "height_m": null, "levels": null, "tract_id": "40077087200", "tract_name": "872", "tags": {"building": "yes"}}}, {"type": "Feature", "geometry": {"type": "Polygon", "coordinates": [[[-95.3176966, 34.919885], [-95.3178464, 34.9199015], [-95.3178115, 34.9201148], [-95.3176618, 34.9200984], [-95.3176966, 34.919885]]]}, "properties": {"osm_id": 1134953474, "building": "yes", "name": "", "height": null, "height_m": null, "levels": null, "tract_id": "40077087200", "tract_name": "872", "tags": {"building": "yes"}}}, {"type": "Feature", "geometry": {"type": "Polygon", "coordinates": [[[-95.3170998, 34.9198048], [-95.3170851, 34.9200775], [-95.3168753, 34.9200699], [-95.3168901, 34.9197971], [-95.3170998, 34.9198048]]]}, "properties": {"osm_id": 1134953475, "building": "yes", "name": "", "height": null, "height_m": null, "levels": null, "tract_id": "40077087200", "tract_name": "872", "tags": {"building": "yes"}}}, {"type": "Feature", "geometry": {"type": "Polygon", "coordinates": [[[-95.3176738, 34.9198828], [-95.3176256, 34.9201534], [-95.3173509, 34.9201204], [-95.3173992, 34.9198499], [-95.3176738, 34.9198828]]]}, "properties": {"osm_id": 1134953476, "building": "yes", "name": "", "height": null, "height_m": null, "levels": null, "tract_id": "40077087200", "tract_name": "872", "tags": {"building": "yes"}}}, {"type": "Feature", "geometry": {"type": "Polygon", "coordinates": [[[-95.3179664, 34.9211215], [-95.3178232, 34.9211013], [-95.3178442, 34.9210012], [-95.3179874, 34.9210215], [-95.3179664, 34.9211215]]]}, "properties": {"osm_id": 1134953477, "building": "yes", "name": "", "height": null, "height_m": null, "levels": null, "tract_id": "40077087200", "tract_name": "872", "tags": {"building": "yes"}}}, {"type": "Feature", "geometry": {"type": "Polygon", "coordinates": [[[-95.3111306, 34.9194023], [-95.3111386, 34.9196662], [-95.3109656, 34.9196698], [-95.3109576, 34.9194058], [-95.3111306, 34.9194023]]]}, "properties": {"osm_id": 1134953478, "building": "yes", "name": "", "height": null, "height_m": null, "levels": null, "tract_id": "40077087200", "tract_name": "872", "tags": {"building": "yes"}}}, {"type": "Feature", "geometry": {"type": "Polygon", "coordinates": [[[-95.2945329, 34.9109147], [-95.2945281, 34.9110415], [-95.2943544, 34.9110371], [-95.2943592, 34.9109103], [-95.2945329, 34.9109147]]]}, "properties": {"osm_id": 1134953484, "building": "yes", "name": "", "height": null, "height_m": null, "levels": null, "tract_id": "40077087200", "tract_name": "872", "tags": {"building": "yes"}}}, {"type": "Feature", "geometry": {"type": "Polygon", "coordinates": [[[-95.2899827, 34.9137955], [-95.2899919, 34.9136832], [-95.2901214, 34.9136903], [-95.2901121, 34.9138027], [-95.2899827, 34.9137955]]]}, "properties": {"osm_id": 1134953485, "building": "yes", "name": "", "height": null, "height_m": null, "levels": null, "tract_id": "40077087200", "tract_name": "872", "tags": {"building": "yes"}}}, {"type": "Feature", "geometry": {"type": "Polygon", "coordinates": [[[-95.29996, 34.9175175], [-95.2999515, 34.9174088], [-95.3000691, 34.9174026], [-95.3000776, 34.9175113], [-95.29996, 34.9175175]]]}, "properties": {"osm_id": 1134953486, "building": "yes", "name": "", "height": null, "height_m": null, "levels": null, "tract_id": "40077087200", "tract_name": "872", "tags": {"building": "yes"}}}, {"type": "Feature", "geometry": {"type": "Polygon", "coordinates": [[[-95.3019752, 34.9190641], [-95.3019809, 34.9192981], [-95.3018368, 34.9193005], [-95.3018311, 34.9190664], [-95.3019752, 34.9190641]]]}, "properties": {"osm_id": 1134953487, "building": "yes", "name": "", "height": null, "height_m": null, "levels": null, "tract_id": "40077087200", "tract_name": "872", "tags": {"building": "yes"}}}, {"type": "Feature", "geometry": {"type": "Polygon", "coordinates": [[[-95.3018149, 34.9200913], [-95.3019331, 34.9200927], [-95.3019302, 34.9202451], [-95.3018121, 34.9202437], [-95.3018149, 34.9200913]]]}, "properties": {"osm_id": 1134953488, "building": "yes", "name": "", "height": null, "height_m": null, "levels": null, "tract_id": "40077087200", "tract_name": "872", "tags": {"building": "yes"}}}, {"type": "Feature", "geometry": {"type": "Polygon", "coordinates": [[[-95.3030296, 34.9204953], [-95.30286, 34.9204959], [-95.3028593, 34.9203504], [-95.3030289, 34.9203498], [-95.3030296, 34.9204953]]]}, "properties": {"osm_id": 1134953489, "building": "yes", "name": "", "height": null, "height_m": null, "levels": null, "tract_id": "40077087200", "tract_name": "872", "tags": {"building": "yes"}}}, {"type": "Feature", "geometry": {"type": "Polygon", "coordinates": [[[-95.3081875, 34.9202126], [-95.3079988, 34.9202164], [-95.3079953, 34.9201014], [-95.308184, 34.9200975], [-95.3081875, 34.9202126]]]}, "properties": {"osm_id": 1134953490, "building": "yes", "name": "", "height": null, "height_m": null, "levels": null, "tract_id": "40077087200", "tract_name": "872", "tags": {"building": "yes"}}}, {"type": "Feature", "geometry": {"type": "Polygon", "coordinates": [[[-95.3084739, 34.9201192], [-95.3082871, 34.9201247], [-95.3082833, 34.920038], [-95.3084701, 34.9200326], [-95.3084739, 34.9201192]]]}, "properties": {"osm_id": 1134953491, "building": "yes", "name": "", "height": null, "height_m": null, "levels": null, "tract_id": "40077087200", "tract_name": "872", "tags": {"building": "yes"}}}, {"type": "Feature", "geometry": {"type": "Polygon", "coordinates": [[[-95.310389, 34.9199939], [-95.3105602, 34.9199899], [-95.3105696, 34.9202627], [-95.3103983, 34.9202666], [-95.310389, 34.9199939]]]}, "properties": {"osm_id": 1134953492, "building": "yes", "name": "", "height": null, "height_m": null, "levels": null, "tract_id": "40077087200", "tract_name": "872", "tags": {"building": "yes"}}}, {"type": "Feature", "geometry": {"type": "Polygon", "coordinates": [[[-95.3226529, 34.9267469], [-95.3226542, 34.9266254], [-95.3229786, 34.9266277], [-95.3229773, 34.9267493], [-95.3226529, 34.9267469]]]}, "properties": {"osm_id": 1134953493, "building": "yes", "name": "", "height": null, "height_m": null, "levels": null, "tract_id": "40077087200", "tract_name": "872", "tags": {"building": "yes"}}}, {"type": "Feature", "geometry": {"type": "Polygon", "coordinates": [[[-95.3231797, 34.926625], [-95.3231784, 34.9265473], [-95.3232709, 34.9265462], [-95.3232723, 34.9266239], [-95.3231797, 34.926625]]]}, "properties": {"osm_id": 1134953494, "building": "yes", "name": "", "height": null, "height_m": null, "levels": null, "tract_id": "40077087200", "tract_name": "872", "tags": {"building": "yes"}}}, {"type": "Feature", "geometry": {"type": "Polygon", "coordinates": [[[-95.323515, 34.9264958], [-95.3235172, 34.9264271], [-95.323644, 34.9264298], [-95.3236417, 34.9264986], [-95.323515, 34.9264958]]]}, "properties": {"osm_id": 1134953495, "building": "yes", "name": "", "height": null, "height_m": null, "levels": null, "tract_id": "40077087200", "tract_name": "872", "tags": {"building": "yes"}}}, {"type": "Feature", "geometry": {"type": "Polygon", "coordinates": [[[-95.325999, 34.9251456], [-95.3259578, 34.9252339], [-95.3258903, 34.9252127], [-95.3259315, 34.9251244], [-95.325999, 34.9251456]]]}, "properties": {"osm_id": 1134953496, "building": "yes", "name": "", "height": null, "height_m": null, "levels": null, "tract_id": "40077087200", "tract_name": "872", "tags": {"building": "yes"}}}, {"type": "Feature", "geometry": {"type": "Polygon", "coordinates": [[[-95.3261664, 34.9252012], [-95.3262141, 34.9252171], [-95.3261875, 34.9252708], [-95.3261399, 34.9252549], [-95.3261664, 34.9252012]]]}, "properties": {"osm_id": 1134953497, "building": "yes", "name": "", "height": null, "height_m": null, "levels": null, "tract_id": "40077087200", "tract_name": "872", "tags": {"building": "yes"}}}, {"type": "Feature", "geometry": {"type": "Polygon", "coordinates": [[[-95.3258582, 34.9253548], [-95.3258954, 34.9252759], [-95.3260229, 34.9253164], [-95.3259858, 34.9253952], [-95.3258582, 34.9253548]]]}, "properties": {"osm_id": 1134953498, "building": "yes", "name": "", "height": null, "height_m": null, "levels": null, "tract_id": "40077087200", "tract_name": "872", "tags": {"building": "yes"}}}, {"type": "Feature", "geometry": {"type": "Polygon", "coordinates": [[[-95.3269449, 34.9253633], [-95.3266338, 34.9252621], [-95.3267132, 34.9250979], [-95.3270243, 34.9251991], [-95.3269449, 34.9253633]]]}, "properties": {"osm_id": 1134953499, "building": "yes", "name": "", "height": null, "height_m": null, "levels": null, "tract_id": "40077087200", "tract_name": "872", "tags": {"building": "yes"}}}, {"type": "Feature", "geometry": {"type": "Polygon", "coordinates": [[[-95.3271461, 34.9251621], [-95.3272669, 34.9252003], [-95.3271583, 34.9254312], [-95.3270374, 34.925393], [-95.3271461, 34.9251621]]]}, "properties": {"osm_id": 1134953500, "building": "yes", "name": "", "height": null, "height_m": null, "levels": null, "tract_id": "40077087200", "tract_name": "872", "tags": {"building": "yes"}}}, {"type": "Feature", "geometry": {"type": "Polygon", "coordinates": [[[-95.3109566, 34.918124], [-95.3109516, 34.9180359], [-95.3113613, 34.9180203], [-95.3113662, 34.9181084], [-95.3109566, 34.918124]]]}, "properties": {"osm_id": 1134953501, "building": "yes", "name": "", "height": null, "height_m": null, "levels": null, "tract_id": "40077087200", "tract_name": "872", "tags": {"building": "yes"}}}, {"type": "Feature", "geometry": {"type": "Polygon", "coordinates": [[[-95.3121552, 34.9181528], [-95.3119153, 34.9181582], [-95.3119107, 34.9180211], [-95.3121506, 34.9180157], [-95.3121552, 34.9181528]]]}, "properties": {"osm_id": 1134953502, "building": "yes", "name": "", "height": null, "height_m": null, "levels": null, "tract_id": "40077087200", "tract_name": "872", "tags": {"building": "yes"}}}, {"type": "Feature", "geometry": {"type": "Polygon", "coordinates": [[[-95.3300938, 34.9034118], [-95.3300978, 34.9036901], [-95.3298923, 34.9036921], [-95.3298883, 34.9034138], [-95.3300938, 34.9034118]]]}, "properties": {"osm_id": 1134953505, "building": "yes", "name": "", "height": null, "height_m": null, "levels": null, "tract_id": "40077087200", "tract_name": "872", "tags": {"building": "yes"}}}, {"type": "Feature", "geometry": {"type": "Polygon", "coordinates": [[[-95.3223514, 34.9024814], [-95.3223523, 34.902686], [-95.3222898, 34.9026862], [-95.3222889, 34.9024816], [-95.3223514, 34.9024814]]]}, "properties": {"osm_id": 1134953506, "building": "yes", "name": "", "height": null, "height_m": null, "levels": null, "tract_id": "40077087200", "tract_name": "872", "tags": {"building": "yes"}}}, {"type": "Feature", "geometry": {"type": "Polygon", "coordinates": [[[-95.3210484, 34.9028244], [-95.3210461, 34.9027421], [-95.3219315, 34.9027251], [-95.3219339, 34.9028075], [-95.3210484, 34.9028244]]]}, "properties": {"osm_id": 1134953507, "building": "yes", "name": "", "height": null, "height_m": null, "levels": null, "tract_id": "40077087200", "tract_name": "872", "tags": {"building": "yes"}}}, {"type": "Feature", "geometry": {"type": "Polygon", "coordinates": [[[-95.3217141, 34.9023963], [-95.3217064, 34.9025437], [-95.321374, 34.9025321], [-95.3213817, 34.9023846], [-95.3217141, 34.9023963]]]}, "properties": {"osm_id": 1134953508, "building": "yes", "name": "", "height": null, "height_m": null, "levels": null, "tract_id": "40077087200", "tract_name": "872", "tags": {"building": "yes"}}}, {"type": "Feature", "geometry": {"type": "Polygon", "coordinates": [[[-95.3222148, 34.902217], [-95.3220517, 34.9022139], [-95.3220556, 34.9020784], [-95.3222187, 34.9020815], [-95.3222148, 34.902217]]]}, "properties": {"osm_id": 1134953509, "building": "yes", "name": "", "height": null, "height_m": null, "levels": null, "tract_id": "40077087200", "tract_name": "872", "tags": {"building": "yes"}}}, {"type": "Feature", "geometry": {"type": "Polygon", "coordinates": [[[-95.3378347, 34.9030247], [-95.3374457, 34.9032491], [-95.3372049, 34.9029683], [-95.3375938, 34.9027439], [-95.3378347, 34.9030247]]]}, "properties": {"osm_id": 1134953516, "building": "yes", "name": "", "height": null, "height_m": null, "levels": null, "tract_id": "40077087200", "tract_name": "872", "tags": {"building": "yes"}}}, {"type": "Feature", "geometry": {"type": "Polygon", "coordinates": [[[-95.3238469, 34.9081579], [-95.3235662, 34.9081595], [-95.3235644, 34.9079443], [-95.3238451, 34.9079427], [-95.3238469, 34.9081579]]]}, "properties": {"osm_id": 1134953517, "building": "yes", "name": "", "height": null, "height_m": null, "levels": null, "tract_id": "40077087200", "tract_name": "872", "tags": {"building": "yes"}}}, {"type": "Feature", "geometry": {"type": "Polygon", "coordinates": [[[-95.3238739, 34.9088559], [-95.3237582, 34.9088586], [-95.3237562, 34.908802], [-95.3238719, 34.9087992], [-95.3238739, 34.9088559]]]}, "properties": {"osm_id": 1134953518, "building": "shed", "name": "", "height": null, "height_m": null, "levels": null, "tract_id": "40077087200", "tract_name": "872", "tags": {"building": "shed"}}}, {"type": "Feature", "geometry": {"type": "Polygon", "coordinates": [[[-95.3234996, 34.9092222], [-95.3234975, 34.9090745], [-95.323971, 34.9090701], [-95.323973, 34.9092178], [-95.3234996, 34.9092222]]]}, "properties": {"osm_id": 1134953519, "building": "yes", "name": "", "height": null, "height_m": null, "levels": null, "tract_id": "40077087200", "tract_name": "872", "tags": {"building": "yes"}}}, {"type": "Feature", "geometry": {"type": "Polygon", "coordinates": [[[-95.3268644, 34.9083765], [-95.3268725, 34.9086712], [-95.3266895, 34.9086746], [-95.3266815, 34.9083798], [-95.3268644, 34.9083765]]]}, "properties": {"osm_id": 1134953520, "building": "yes", "name": "", "height": null, "height_m": null, "levels": null, "tract_id": "40077087200", "tract_name": "872", "tags": {"building": "yes"}}}, {"type": "Feature", "geometry": {"type": "Polygon", "coordinates": [[[-95.3184919, 34.9080157], [-95.3184912, 34.907938], [-95.3185831, 34.9079375], [-95.3185838, 34.9080152], [-95.3184919, 34.9080157]]]}, "properties": {"osm_id": 1134953521, "building": "yes", "name": "", "height": null, "height_m": null, "levels": null, "tract_id": "40077087200", "tract_name": "872", "tags": {"building": "yes"}}}, {"type": "Feature", "geometry": {"type": "Polygon", "coordinates": [[[-95.3191475, 34.9082446], [-95.3190475, 34.908245], [-95.3190471, 34.9081793], [-95.3191472, 34.9081789], [-95.3191475, 34.9082446]]]}, "properties": {"osm_id": 1134953522, "building": "yes", "name": "", "height": null, "height_m": null, "levels": null, "tract_id": "40077087200", "tract_name": "872", "tags": {"building": "yes"}}}, {"type": "Feature", "geometry": {"type": "Polygon", "coordinates": [[[-95.3193054, 34.9083309], [-95.3192011, 34.9083305], [-95.3192014, 34.9082717], [-95.3193058, 34.9082721], [-95.3193054, 34.9083309]]]}, "properties": {"osm_id": 1134953523, "building": "yes", "name": "", "height": null, "height_m": null, "levels": null, "tract_id": "40077087200", "tract_name": "872", "tags": {"building": "yes"}}}, {"type": "Feature", "geometry": {"type": "Polygon", "coordinates": [[[-95.2972171, 34.9187717], [-95.2972277, 34.919016], [-95.2973759, 34.9190117], [-95.2973749, 34.9189893], [-95.2974574, 34.9189869], [-95.2974542, 34.9189129], [-95.2973728, 34.9189153], [-95.2973664, 34.9187673], [-95.2972171, 34.9187717]]]}, "properties": {"osm_id": 1150324159, "building": "yes", "name": "", "height": null, "height_m": null, "levels": null, "tract_id": "40077087200", "tract_name": "872", "tags": {"amenity": "place_of_worship", "building": "yes", "denomination": "jehovahs_witness", "religion": "christian"}}}, {"type": "Feature", "geometry": {"type": "Polygon", "coordinates": [[[-95.3099765, 34.9197654], [-95.3099662, 34.9195054], [-95.3102231, 34.9194985], [-95.3102264, 34.9195815], [-95.310263, 34.9195806], [-95.3102656, 34.9196448], [-95.3102185, 34.9196461], [-95.310223, 34.9197588], [-95.3099765, 34.9197654]]]}, "properties": {"osm_id": 1285555728, "building": "yes", "name": "Latimer County Courthouse", "height": null, "height_m": null, "levels": null, "tract_id": "40077087200", "tract_name": "872", "tags": {"addr:city": "Wilburton", "addr:housenumber": "109", "addr:postcode": "74578", "addr:state": "OK", "addr:street": "North Central Avenue", "amenity": "courthouse", "building": "yes", "emergency": "psap", "name": "Latimer County Courthouse"}}}, {"type": "Feature", "geometry": {"type": "Polygon", "coordinates": [[[-95.3563323, 34.9753446], [-95.3563098, 34.9753251], [-95.3563449, 34.975298], [-95.3563674, 34.9753175], [-95.3563323, 34.9753446]]]}, "properties": {"osm_id": 1351846303, "building": "cabin", "name": "", "height": null, "height_m": null, "levels": null, "tract_id": "40077087200", "tract_name": "872", "tags": {"building": "cabin"}}}, {"type": "Feature", "geometry": {"type": "Polygon", "coordinates": [[[-95.3144552, 34.916897], [-95.3143442, 34.916901], [-95.3143425, 34.9168701], [-95.3143223, 34.9168708], [-95.3143191, 34.9168108], [-95.3143432, 34.91681], [-95.314337, 34.9166929], [-95.3144441, 34.916689], [-95.3144552, 34.916897]]]}, "properties": {"osm_id": 1357072383, "building": "house", "name": "", "height": null, "height_m": null, "levels": null, "tract_id": "40077087200", "tract_name": "872", "tags": {"building": "house"}}}, {"type": "Feature", "geometry": {"type": "Polygon", "coordinates": [[[-95.3151168, 34.9166262], [-95.3150175, 34.916676], [-95.3149646, 34.9166049], [-95.315064, 34.9165552], [-95.3151168, 34.9166262]]]}, "properties": {"osm_id": 1357072384, "building": "yes", "name": "", "height": null, "height_m": null, "levels": null, "tract_id": "40077087200", "tract_name": "872", "tags": {"building": "yes"}}}, {"type": "Feature", "geometry": {"type": "Polygon", "coordinates": [[[-95.3116669, 34.916644], [-95.3119694, 34.916644], [-95.3119694, 34.9167057], [-95.311885, 34.9167057], [-95.3118849, 34.9168695], [-95.3117937, 34.9168695], [-95.3117937, 34.9168871], [-95.3117635, 34.9168871], [-95.3117635, 34.9168706], [-95.3116669, 34.9168706], [-95.3116669, 34.916644]]]}, "properties": {"osm_id": 1357072385, "building": "yes", "name": "", "height": null, "height_m": null, "levels": null, "tract_id": "40077087200", "tract_name": "872", "tags": {"amenity": "place_of_worship", "building": "yes", "religion": "christian"}}}, {"type": "Feature", "geometry": {"type": "Polygon", "coordinates": [[[-95.3116022, 34.916668], [-95.3116008, 34.9166284], [-95.311511, 34.9166306], [-95.3115124, 34.9166702], [-95.3116022, 34.916668]]]}, "properties": {"osm_id": 1357072386, "building": "yes", "name": "", "height": null, "height_m": null, "levels": null, "tract_id": "40077087200", "tract_name": "872", "tags": {"building": "yes"}}}, {"type": "Feature", "geometry": {"type": "Polygon", "coordinates": [[[-95.3115947, 34.9166123], [-95.3115943, 34.9165809], [-95.3115263, 34.9165815], [-95.3115267, 34.9166128], [-95.3115947, 34.9166123]]]}, "properties": {"osm_id": 1357072387, "building": "yes", "name": "", "height": null, "height_m": null, "levels": null, "tract_id": "40077087200", "tract_name": "872", "tags": {"building": "yes"}}}, {"type": "Feature", "geometry": {"type": "Polygon", "coordinates": [[[-95.3141457, 34.9183859], [-95.3142564, 34.9183492], [-95.3142149, 34.918265], [-95.3141042, 34.9183017], [-95.3141457, 34.9183859]]]}, "properties": {"osm_id": 1357072388, "building": "yes", "name": "", "height": null, "height_m": null, "levels": null, "tract_id": "40077087200", "tract_name": "872", "tags": {"building": "yes"}}}, {"type": "Feature", "geometry": {"type": "Polygon", "coordinates": [[[-95.3146512, 34.9184883], [-95.3145541, 34.9184895], [-95.3145495, 34.9182262], [-95.3147375, 34.918223], [-95.3147513, 34.9181542], [-95.3147488, 34.918064], [-95.3148289, 34.9180622], [-95.3148289, 34.9181582], [-95.3148127, 34.9182346], [-95.3147996, 34.9182339], [-95.3147973, 34.9183072], [-95.3146579, 34.9183123], [-95.3146512, 34.9184883]]]}, "properties": {"osm_id": 1357072389, "building": "yes", "name": "", "height": null, "height_m": null, "levels": null, "tract_id": "40077087200", "tract_name": "872", "tags": {"building": "yes"}}}, {"type": "Feature", "geometry": {"type": "Polygon", "coordinates": [[[-95.3148681, 34.9202281], [-95.3145143, 34.9202305], [-95.3145127, 34.920076], [-95.3145793, 34.9200755], [-95.3145787, 34.9200132], [-95.3146722, 34.9200126], [-95.3146729, 34.9200773], [-95.3148665, 34.9200759], [-95.3148681, 34.9202281]]]}, "properties": {"osm_id": 1357072390, "building": "yes", "name": "", "height": null, "height_m": null, "levels": null, "tract_id": "40077087200", "tract_name": "872", "tags": {"building": "yes"}}}, {"type": "Feature", "geometry": {"type": "Polygon", "coordinates": [[[-95.3187131, 34.9132802], [-95.3187133, 34.9132547], [-95.3187428, 34.9132549], [-95.3187433, 34.913196], [-95.3187101, 34.9131958], [-95.3187112, 34.9130744], [-95.3185852, 34.9130737], [-95.3185808, 34.9130737], [-95.3185803, 34.9131251], [-95.318537, 34.9131248], [-95.3185357, 34.9132792], [-95.3187131, 34.9132802]]]}, "properties": {"osm_id": 1435232724, "building": "industrial", "name": "", "height": null, "height_m": null, "levels": null, "tract_id": "40077087200", "tract_name": "872", "tags": {"building": "industrial"}}}, {"type": "Feature", "geometry": {"type": "Polygon", "coordinates": [[[-95.3261998, 34.9085351], [-95.3260979, 34.9085346], [-95.3260988, 34.9084025], [-95.3262008, 34.908403], [-95.3261998, 34.9085351]]]}, "properties": {"osm_id": 1436606003, "building": "service", "name": "", "height": null, "height_m": 3.0, "levels": 1, "tract_id": "40077087200", "tract_name": "872", "tags": {"building": "service", "building:levels": "1", "layer": "1"}}}, {"type": "Feature", "geometry": {"type": "Polygon", "coordinates": [[[-95.3218733, 34.9049724], [-95.3221352, 34.9049702], [-95.3221309, 34.9046277], [-95.321869, 34.90463], [-95.3218733, 34.9049724]]]}, "properties": {"osm_id": 1436606014, "building": "industrial", "name": "", "height": null, "height_m": null, "levels": null, "tract_id": "40077087200", "tract_name": "872", "tags": {"building": "industrial"}}}, {"type": "Feature", "geometry": {"type": "Polygon", "coordinates": [[[-95.3275389, 34.9081607], [-95.3275402, 34.9078637], [-95.3283262, 34.9078659], [-95.3283267, 34.9077368], [-95.3285447, 34.9077374], [-95.3285508, 34.9062705], [-95.3280038, 34.9062689], [-95.3280052, 34.9059434], [-95.3276641, 34.9059424], [-95.3276627, 34.9062723], [-95.3266197, 34.9062692], [-95.3266192, 34.9063725], [-95.3267195, 34.9063729], [-95.3267122, 34.9079824], [-95.3271502, 34.9079838], [-95.3271494, 34.9081596], [-95.3275389, 34.9081607]]]}, "properties": {"osm_id": 1436606022, "building": "yes", "name": "", "height": null, "height_m": null, "levels": null, "tract_id": "40077087200", "tract_name": "872", "tags": {"building": "yes"}}}]}