{"type": "FeatureCollection", "features": [{"type": "Feature", "geometry": {"type": "Polygon", "coordinates": [[[-99.0276686, 34.3921075], [-99.0276698, 34.3919627], [-99.0273503, 34.391961], [-99.0273491, 34.3921057], [-99.0276686, 34.3921075]]]}, "properties": {"osm_id": 1079303237, "building": "church", "name": "Jackson Funeral Home", "height": null, "height_m": null, "levels": null, "tract_id": "40141070300", "tract_name": "703", "tags": {"building": "church", "name": "Jackson Funeral Home", "shop": "funeral_directors"}}}, {"type": "Feature", "geometry": {"type": "Polygon", "coordinates": [[[-99.0229672, 34.3932455], [-99.0229667, 34.3931253], [-99.0225502, 34.3931265], [-99.0225511, 34.3933477], [-99.0226923, 34.3933473], [-99.0226918, 34.3932463], [-99.0229672, 34.3932455]]]}, "properties": {"osm_id": 1079303238, "building": "church", "name": "Church of the Living God", "height": null, "height_m": null, "levels": null, "tract_id": "40141070300", "tract_name": "703", "tags": {"amenity": "place_of_worship", "building": "church", "ele": "403", "gnis:feature_id": "1798201", "name": "Church of the Living God", "religion": "christian"}}}, {"type": "Feature", "geometry": {"type": "Polygon", "coordinates": [[[-99.0258198, 34.3933021], [-99.0258234, 34.3930813], [-99.0257176, 34.3930801], [-99.0257157, 34.3931982], [-99.0256218, 34.3931971], [-99.0256202, 34.3932999], [-99.0258198, 34.3933021]]]}, "properties": {"osm_id": 1079303239, "building": "church", "name": "", "height": null, "height_m": null, "levels": null, "tract_id": "40141070300", "tract_name": "703", "tags": {"amenity": "place_of_worship", "building": "church", "religion": "christian"}}}, {"type": "Feature", "geometry": {"type": "Polygon", "coordinates": [[[-99.0255612, 34.3962279], [-99.0255648, 34.3959943], [-99.0254011, 34.3959926], [-99.0253995, 34.3960992], [-99.0252452, 34.3960976], [-99.0252433, 34.3962245], [-99.0255612, 34.3962279]]]}, "properties": {"osm_id": 1079303240, "building": "church", "name": "", "height": null, "height_m": null, "levels": null, "tract_id": "40141070300", "tract_name": "703", "tags": {"amenity": "place_of_worship", "building": "church", "religion": "christian"}}}, {"type": "Feature", "geometry": {"type": "Polygon", "coordinates": [[[-99.0211001, 34.3977326], [-99.0210976, 34.3975914], [-99.0209967, 34.3975927], [-99.020998, 34.3976661], [-99.0208748, 34.3976676], [-99.020876, 34.3977354], [-99.0211001, 34.3977326]]]}, "properties": {"osm_id": 1079303241, "building": "church", "name": "", "height": null, "height_m": null, "levels": null, "tract_id": "40141070300", "tract_name": "703", "tags": {"amenity": "place_of_worship", "building": "church", "religion": "christian"}}}, {"type": "Feature", "geometry": {"type": "Polygon", "coordinates": [[[-99.0155818, 34.3923171], [-99.0155828, 34.3921207], [-99.0154307, 34.3921202], [-99.0154297, 34.3923166], [-99.0155818, 34.3923171]]]}, "properties": {"osm_id": 1079304339, "building": "church", "name": "", "height": null, "height_m": null, "levels": null, "tract_id": "40141070300", "tract_name": "703", "tags": {"building": "church"}}}, {"type": "Feature", "geometry": {"type": "Polygon", "coordinates": [[[-99.0106217, 34.3945557], [-99.010618, 34.3943652], [-99.0105647, 34.3943659], [-99.010566, 34.3944291], [-99.0102031, 34.3944339], [-99.0102056, 34.3945611], [-99.0106217, 34.3945557]]]}, "properties": {"osm_id": 1079304341, "building": "church", "name": "First Christian Church", "height": null, "height_m": null, "levels": null, "tract_id": "40141070300", "tract_name": "703", "tags": {"amenity": "place_of_worship", "building": "church", "ele": "394", "gnis:feature_id": "1798205", "name": "First Christian Church", "religion": "christian"}}}, {"type": "Feature", "geometry": {"type": "Polygon", "coordinates": [[[-99.0113351, 34.3984783], [-99.0113323, 34.3981621], [-99.0111501, 34.3981632], [-99.0111516, 34.3983328], [-99.0110236, 34.3983336], [-99.0110237, 34.3983506], [-99.0109871, 34.3983509], [-99.0109883, 34.3984804], [-99.0113351, 34.3984783]]]}, "properties": {"osm_id": 1079304470, "building": "church", "name": "", "height": null, "height_m": null, "levels": null, "tract_id": "40141070300", "tract_name": "703", "tags": {"amenity": "place_of_worship", "building": "church", "religion": "christian"}}}, {"type": "Feature", "geometry": {"type": "Polygon", "coordinates": [[[-99.0166476, 34.3989209], [-99.0166446, 34.3985673], [-99.0164055, 34.3985687], [-99.0164086, 34.3989223], [-99.0166476, 34.3989209]]]}, "properties": {"osm_id": 1079304473, "building": "yes", "name": "Dollar General", "height": null, "height_m": null, "levels": null, "tract_id": "40141070300", "tract_name": "703", "tags": {"addr:city": "Frederick", "addr:housenumber": "914", "addr:postcode": "73542", "addr:street": "North Main Street", "brand": "Dollar General", "brand:wikidata": "Q145168", "building": "yes", "name": "Dollar General", "opening_hours": "Mo-Su 08:00-22:00", "shop": "variety_store", "website": "https://www.dollargeneral.com/store-directory/ok/frederick/3837"}}}, {"type": "Feature", "geometry": {"type": "Polygon", "coordinates": [[[-99.0128666, 34.4031556], [-99.0131106, 34.4029576], [-99.0127868, 34.4026858], [-99.0125427, 34.4028838], [-99.0128666, 34.4031556]]]}, "properties": {"osm_id": 1079304476, "building": "church", "name": "Church of Christ", "height": null, "height_m": null, "levels": null, "tract_id": "40141070300", "tract_name": "703", "tags": {"amenity": "place_of_worship", "building": "church", "ele": "400", "gnis:feature_id": "1798198", "name": "Church of Christ", "religion": "christian"}}}, {"type": "Feature", "geometry": {"type": "Polygon", "coordinates": [[[-99.0103538, 34.4063016], [-99.0103513, 34.4061837], [-99.0102149, 34.4061857], [-99.0102115, 34.4060241], [-99.0102465, 34.4060236], [-99.0102441, 34.4059076], [-99.0100525, 34.4059103], [-99.0100608, 34.4063052], [-99.0100735, 34.406305], [-99.0100752, 34.4063813], [-99.0101604, 34.40638], [-99.0101588, 34.4063045], [-99.0103538, 34.4063016]]]}, "properties": {"osm_id": 1079304620, "building": "church", "name": "Bible Baptist Church", "height": null, "height_m": null, "levels": null, "tract_id": "40141070300", "tract_name": "703", "tags": {"amenity": "place_of_worship", "building": "church", "denomination": "baptist", "ele": "391", "gnis:feature_id": "1798200", "name": "Bible Baptist Church", "old_name": "Bible Baptist Church", "religion": "christian"}}}, {"type": "Feature", "geometry": {"type": "Polygon", "coordinates": [[[-99.0114253, 34.4070801], [-99.0114252, 34.4070679], [-99.0114541, 34.4070676], [-99.0114534, 34.407009], [-99.0114244, 34.4070092], [-99.0114225, 34.4068598], [-99.0113111, 34.4068608], [-99.0113128, 34.4069924], [-99.0110496, 34.4069947], [-99.0110506, 34.4070724], [-99.0111329, 34.4070717], [-99.0111347, 34.4072067], [-99.0112832, 34.4072053], [-99.0112816, 34.4070814], [-99.0114253, 34.4070801]]]}, "properties": {"osm_id": 1079304621, "building": "church", "name": "", "height": null, "height_m": null, "levels": null, "tract_id": "40141070300", "tract_name": "703", "tags": {"addr:city": "Frederick", "addr:housenumber": "507", "addr:postcode": "73542", "addr:state": "OK", "addr:street": "East Highview Avenue", "building": "church"}}}, {"type": "Feature", "geometry": {"type": "Polygon", "coordinates": [[[-99.0098495, 34.4093154], [-99.0098571, 34.4090435], [-99.0092812, 34.4090325], [-99.0092736, 34.4093045], [-99.0098495, 34.4093154]]]}, "properties": {"osm_id": 1079304622, "building": "church", "name": "", "height": null, "height_m": null, "levels": null, "tract_id": "40141070300", "tract_name": "703", "tags": {"amenity": "place_of_worship", "building": "church", "religion": "christian"}}}, {"type": "Feature", "geometry": {"type": "Polygon", "coordinates": [[[-99.0119738, 34.3975894], [-99.0119719, 34.3973919], [-99.0117508, 34.3973933], [-99.0117492, 34.3972238], [-99.01177, 34.3972237], [-99.0117691, 34.3971161], [-99.011537, 34.3971174], [-99.0115378, 34.3972148], [-99.0115257, 34.3972149], [-99.0115272, 34.3974023], [-99.0112258, 34.397404], [-99.0112257, 34.3973842], [-99.0110498, 34.3973853], [-99.0110518, 34.3976101], [-99.0112375, 34.397609], [-99.0112372, 34.3975814], [-99.0115259, 34.3975796], [-99.0115281, 34.3978098], [-99.0117581, 34.3978083], [-99.011756, 34.3975908], [-99.0119738, 34.3975894]]]}, "properties": {"osm_id": 1079530633, "building": "school", "name": "", "height": null, "height_m": null, "levels": null, "tract_id": "40141070300", "tract_name": "703", "tags": {"building": "school"}}}, {"type": "Feature", "geometry": {"type": "Polygon", "coordinates": [[[-99.011346, 34.397784], [-99.011345, 34.397673], [-99.0109449, 34.3976755], [-99.0109454, 34.3977298], [-99.0109767, 34.3977296], [-99.0109772, 34.3977863], [-99.011346, 34.397784]]]}, "properties": {"osm_id": 1079530634, "building": "school", "name": "", "height": null, "height_m": null, "levels": null, "tract_id": "40141070300", "tract_name": "703", "tags": {"building": "school"}}}, {"type": "Feature", "geometry": {"type": "Polygon", "coordinates": [[[-99.0284283, 34.4014283], [-99.0282472, 34.4014315], [-99.0282502, 34.4015457], [-99.0282127, 34.4015464], [-99.0282147, 34.4016192], [-99.0282515, 34.4016185], [-99.0282542, 34.4017221], [-99.0285091, 34.4017175], [-99.0285059, 34.4015981], [-99.0284328, 34.4015994], [-99.0284283, 34.4014283]]]}, "properties": {"osm_id": 1080102834, "building": "yes", "name": "", "height": null, "height_m": null, "levels": null, "tract_id": "40141070300", "tract_name": "703", "tags": {"building": "yes", "club": "yes", "golf": "clubhouse"}}}, {"type": "Feature", "geometry": {"type": "Polygon", "coordinates": [[[-99.0117788, 34.4068109], [-99.0117806, 34.4069601], [-99.0116766, 34.406961], [-99.0116763, 34.4069335], [-99.0115677, 34.4069345], [-99.0115667, 34.4068509], [-99.0116759, 34.40685], [-99.0116757, 34.4068346], [-99.0117095, 34.4068343], [-99.0117092, 34.4068115], [-99.0117788, 34.4068109]]]}, "properties": {"osm_id": 1160715044, "building": "yes", "name": "", "height": null, "height_m": null, "levels": null, "tract_id": "40141070300", "tract_name": "703", "tags": {"building": "yes"}}}, {"type": "Feature", "geometry": {"type": "Polygon", "coordinates": [[[-99.0129129, 34.4054778], [-99.0129121, 34.4053752], [-99.0130638, 34.4053744], [-99.0130646, 34.4054771], [-99.0129129, 34.4054778]]]}, "properties": {"osm_id": 1161308571, "building": "yes", "name": "", "height": null, "height_m": null, "levels": null, "tract_id": "40141070300", "tract_name": "703", "tags": {"building": "yes"}}}, {"type": "Feature", "geometry": {"type": "Polygon", "coordinates": [[[-99.0195313, 34.4069251], [-99.0195273, 34.406799], [-99.0196069, 34.4067973], [-99.0196109, 34.4069234], [-99.0195313, 34.4069251]]]}, "properties": {"osm_id": 1161308572, "building": "yes", "name": "", "height": null, "height_m": null, "levels": null, "tract_id": "40141070300", "tract_name": "703", "tags": {"building": "yes"}}}, {"type": "Feature", "geometry": {"type": "Polygon", "coordinates": [[[-99.0193509, 34.405864], [-99.0193473, 34.4057602], [-99.0195109, 34.4057563], [-99.0195145, 34.4058602], [-99.0193509, 34.405864]]]}, "properties": {"osm_id": 1161308573, "building": "yes", "name": "", "height": null, "height_m": null, "levels": null, "tract_id": "40141070300", "tract_name": "703", "tags": {"building": "yes"}}}, {"type": "Feature", "geometry": {"type": "Polygon", "coordinates": [[[-99.0271086, 34.3989482], [-99.0269597, 34.3989549], [-99.0269507, 34.3988181], [-99.0270996, 34.3988115], [-99.0271086, 34.3989482]]]}, "properties": {"osm_id": 1161308574, "building": "yes", "name": "", "height": null, "height_m": null, "levels": null, "tract_id": "40141070300", "tract_name": "703", "tags": {"building": "yes"}}}, {"type": "Feature", "geometry": {"type": "Polygon", "coordinates": [[[-99.0251488, 34.3976425], [-99.0251479, 34.3975799], [-99.0253054, 34.3975783], [-99.0253063, 34.3976409], [-99.0251488, 34.3976425]]]}, "properties": {"osm_id": 1161308575, "building": "yes", "name": "", "height": null, "height_m": null, "levels": null, "tract_id": "40141070300", "tract_name": "703", "tags": {"building": "yes"}}}, {"type": "Feature", "geometry": {"type": "Polygon", "coordinates": [[[-99.022931, 34.3999652], [-99.0229345, 34.3998786], [-99.0230552, 34.399882], [-99.0230517, 34.3999685], [-99.022931, 34.3999652]]]}, "properties": {"osm_id": 1161308576, "building": "yes", "name": "", "height": null, "height_m": null, "levels": null, "tract_id": "40141070300", "tract_name": "703", "tags": {"building": "yes"}}}, {"type": "Feature", "geometry": {"type": "Polygon", "coordinates": [[[-99.0228988, 34.3998755], [-99.0227138, 34.3998799], [-99.0227093, 34.399752], [-99.0228943, 34.3997475], [-99.0228988, 34.3998755]]]}, "properties": {"osm_id": 1161308577, "building": "yes", "name": "", "height": null, "height_m": null, "levels": null, "tract_id": "40141070300", "tract_name": "703", "tags": {"building": "yes"}}}, {"type": "Feature", "geometry": {"type": "Polygon", "coordinates": [[[-99.0244319, 34.3997942], [-99.0245765, 34.3996818], [-99.024732, 34.399818], [-99.0245875, 34.3999304], [-99.0244319, 34.3997942]]]}, "properties": {"osm_id": 1161308578, "building": "yes", "name": "", "height": null, "height_m": null, "levels": null, "tract_id": "40141070300", "tract_name": "703", "tags": {"building": "yes"}}}, {"type": "Feature", "geometry": {"type": "Polygon", "coordinates": [[[-99.0240401, 34.3996664], [-99.0240971, 34.3996134], [-99.0242044, 34.3996919], [-99.0241474, 34.3997449], [-99.0240401, 34.3996664]]]}, "properties": {"osm_id": 1161308579, "building": "yes", "name": "", "height": null, "height_m": null, "levels": null, "tract_id": "40141070300", "tract_name": "703", "tags": {"building": "yes"}}}, {"type": "Feature", "geometry": {"type": "Polygon", "coordinates": [[[-99.0229829, 34.4005783], [-99.02278, 34.4005814], [-99.022776, 34.4004065], [-99.022979, 34.4004034], [-99.0229829, 34.4005783]]]}, "properties": {"osm_id": 1161308580, "building": "yes", "name": "", "height": null, "height_m": null, "levels": null, "tract_id": "40141070300", "tract_name": "703", "tags": {"building": "yes"}}}, {"type": "Feature", "geometry": {"type": "Polygon", "coordinates": [[[-99.0275917, 34.4017512], [-99.0275926, 34.4018638], [-99.0274943, 34.4018644], [-99.0274933, 34.4017517], [-99.0275917, 34.4017512]]]}, "properties": {"osm_id": 1161308581, "building": "yes", "name": "", "height": null, "height_m": null, "levels": null, "tract_id": "40141070300", "tract_name": "703", "tags": {"building": "yes"}}}, {"type": "Feature", "geometry": {"type": "Polygon", "coordinates": [[[-99.0284088, 34.4058275], [-99.0284095, 34.4057894], [-99.0284491, 34.40579], [-99.0284483, 34.4058281], [-99.0284088, 34.4058275]]]}, "properties": {"osm_id": 1161308582, "building": "yes", "name": "", "height": null, "height_m": null, "levels": null, "tract_id": "40141070300", "tract_name": "703", "tags": {"building": "yes"}}}, {"type": "Feature", "geometry": {"type": "Polygon", "coordinates": [[[-99.0220539, 34.4056073], [-99.0220539, 34.405542], [-99.0222725, 34.405542], [-99.0222725, 34.4056073], [-99.0220539, 34.4056073]]]}, "properties": {"osm_id": 1161308583, "building": "yes", "name": "", "height": null, "height_m": null, "levels": null, "tract_id": "40141070300", "tract_name": "703", "tags": {"building": "yes"}}}, {"type": "Feature", "geometry": {"type": "Polygon", "coordinates": [[[-99.0219601, 34.4053495], [-99.0217616, 34.405355], [-99.0217552, 34.4051993], [-99.0219537, 34.4051938], [-99.0219601, 34.4053495]]]}, "properties": {"osm_id": 1161308584, "building": "yes", "name": "", "height": null, "height_m": null, "levels": null, "tract_id": "40141070300", "tract_name": "703", "tags": {"building": "yes"}}}, {"type": "Feature", "geometry": {"type": "Polygon", "coordinates": [[[-99.0184343, 34.4072272], [-99.0182385, 34.4072128], [-99.0182556, 34.4070545], [-99.0184514, 34.4070689], [-99.0184343, 34.4072272]]]}, "properties": {"osm_id": 1161308585, "building": "yes", "name": "", "height": null, "height_m": null, "levels": null, "tract_id": "40141070300", "tract_name": "703", "tags": {"building": "yes"}}}, {"type": "Feature", "geometry": {"type": "Polygon", "coordinates": [[[-99.0147751, 34.4034148], [-99.0147744, 34.4035752], [-99.0146671, 34.4035749], [-99.0146678, 34.4034145], [-99.0147751, 34.4034148]]]}, "properties": {"osm_id": 1161308586, "building": "yes", "name": "", "height": null, "height_m": null, "levels": null, "tract_id": "40141070300", "tract_name": "703", "tags": {"building": "yes"}}}, {"type": "Feature", "geometry": {"type": "Polygon", "coordinates": [[[-99.0149394, 34.4035431], [-99.0148173, 34.4035454], [-99.0148142, 34.4034265], [-99.0149362, 34.4034243], [-99.0149394, 34.4035431]]]}, "properties": {"osm_id": 1161308587, "building": "yes", "name": "", "height": null, "height_m": null, "levels": null, "tract_id": "40141070300", "tract_name": "703", "tags": {"building": "yes"}}}, {"type": "Feature", "geometry": {"type": "Polygon", "coordinates": [[[-99.0134781, 34.4031556], [-99.0134743, 34.4029538], [-99.0136557, 34.4029514], [-99.0136595, 34.4031533], [-99.0134781, 34.4031556]]]}, "properties": {"osm_id": 1161308588, "building": "yes", "name": "", "height": null, "height_m": null, "levels": null, "tract_id": "40141070300", "tract_name": "703", "tags": {"building": "yes"}}}, {"type": "Feature", "geometry": {"type": "Polygon", "coordinates": [[[-99.01348, 34.402924], [-99.0134781, 34.4027316], [-99.0136475, 34.4027304], [-99.0136493, 34.4029229], [-99.01348, 34.402924]]]}, "properties": {"osm_id": 1161308589, "building": "yes", "name": "", "height": null, "height_m": null, "levels": null, "tract_id": "40141070300", "tract_name": "703", "tags": {"building": "yes"}}}, {"type": "Feature", "geometry": {"type": "Polygon", "coordinates": [[[-99.0137758, 34.4029186], [-99.013773, 34.4027323], [-99.0138437, 34.4027316], [-99.0138465, 34.4029178], [-99.0137758, 34.4029186]]]}, "properties": {"osm_id": 1161308590, "building": "yes", "name": "", "height": null, "height_m": null, "levels": null, "tract_id": "40141070300", "tract_name": "703", "tags": {"building": "yes"}}}, {"type": "Feature", "geometry": {"type": "Polygon", "coordinates": [[[-99.0137777, 34.4031509], [-99.0137777, 34.4029452], [-99.0138574, 34.4029452], [-99.0138574, 34.4031509], [-99.0137777, 34.4031509]]]}, "properties": {"osm_id": 1161308591, "building": "yes", "name": "", "height": null, "height_m": null, "levels": null, "tract_id": "40141070300", "tract_name": "703", "tags": {"building": "yes"}}}, {"type": "Feature", "geometry": {"type": "Polygon", "coordinates": [[[-99.0129921, 34.4011967], [-99.0129934, 34.4010424], [-99.013099, 34.401043], [-99.0130977, 34.4011974], [-99.0129921, 34.4011967]]]}, "properties": {"osm_id": 1161308592, "building": "yes", "name": "", "height": null, "height_m": null, "levels": null, "tract_id": "40141070300", "tract_name": "703", "tags": {"building": "yes"}}}, {"type": "Feature", "geometry": {"type": "Polygon", "coordinates": [[[-99.0137057, 34.4002277], [-99.0137069, 34.400143], [-99.0138596, 34.4001446], [-99.0138583, 34.4002293], [-99.0137057, 34.4002277]]]}, "properties": {"osm_id": 1161308593, "building": "yes", "name": "", "height": null, "height_m": null, "levels": null, "tract_id": "40141070300", "tract_name": "703", "tags": {"building": "yes"}}}, {"type": "Feature", "geometry": {"type": "Polygon", "coordinates": [[[-99.0010381, 34.4007337], [-99.0010368, 34.4008709], [-99.0009163, 34.4008701], [-99.0009176, 34.4007329], [-99.0010381, 34.4007337]]]}, "properties": {"osm_id": 1161308595, "building": "yes", "name": "", "height": null, "height_m": null, "levels": null, "tract_id": "40141070300", "tract_name": "703", "tags": {"building": "yes"}}}, {"type": "Feature", "geometry": {"type": "Polygon", "coordinates": [[[-99.0011273, 34.4010617], [-99.0011287, 34.4009421], [-99.0014157, 34.4009443], [-99.0014143, 34.401064], [-99.0011273, 34.4010617]]]}, "properties": {"osm_id": 1161308596, "building": "yes", "name": "", "height": null, "height_m": null, "levels": null, "tract_id": "40141070300", "tract_name": "703", "tags": {"building": "yes"}}}, {"type": "Feature", "geometry": {"type": "Polygon", "coordinates": [[[-99.0018376, 34.4003654], [-99.0016091, 34.4003615], [-99.0016131, 34.4002017], [-99.0018417, 34.4002056], [-99.0018376, 34.4003654]]]}, "properties": {"osm_id": 1161308597, "building": "yes", "name": "", "height": null, "height_m": null, "levels": null, "tract_id": "40141070300", "tract_name": "703", "tags": {"building": "yes"}}}, {"type": "Feature", "geometry": {"type": "Polygon", "coordinates": [[[-99.0022966, 34.4008686], [-99.0022985, 34.401043], [-99.002222, 34.4010436], [-99.0022201, 34.4008691], [-99.0022966, 34.4008686]]]}, "properties": {"osm_id": 1161308598, "building": "yes", "name": "", "height": null, "height_m": null, "levels": null, "tract_id": "40141070300", "tract_name": "703", "tags": {"building": "yes"}}}, {"type": "Feature", "geometry": {"type": "Polygon", "coordinates": [[[-99.0096649, 34.4026588], [-99.009535, 34.402658], [-99.0095357, 34.4025804], [-99.0096656, 34.4025812], [-99.0096649, 34.4026588]]]}, "properties": {"osm_id": 1161308600, "building": "yes", "name": "", "height": null, "height_m": null, "levels": null, "tract_id": "40141070300", "tract_name": "703", "tags": {"building": "yes"}}}, {"type": "Feature", "geometry": {"type": "Polygon", "coordinates": [[[-99.005536, 34.4051039], [-99.0053407, 34.4051086], [-99.0053351, 34.4049502], [-99.0055304, 34.4049455], [-99.005536, 34.4051039]]]}, "properties": {"osm_id": 1161308601, "building": "yes", "name": "", "height": null, "height_m": null, "levels": null, "tract_id": "40141070300", "tract_name": "703", "tags": {"building": "yes"}}}, {"type": "Feature", "geometry": {"type": "Polygon", "coordinates": [[[-99.0071033, 34.4069949], [-99.0067761, 34.4069982], [-99.0067734, 34.4068203], [-99.0071006, 34.4068169], [-99.0071033, 34.4069949]]]}, "properties": {"osm_id": 1161308602, "building": "yes", "name": "", "height": null, "height_m": null, "levels": null, "tract_id": "40141070300", "tract_name": "703", "tags": {"building": "yes"}}}, {"type": "Feature", "geometry": {"type": "Polygon", "coordinates": [[[-99.014529, 34.4055155], [-99.0143131, 34.4055232], [-99.014305, 34.4053703], [-99.0145209, 34.4053625], [-99.014529, 34.4055155]]]}, "properties": {"osm_id": 1161308603, "building": "yes", "name": "", "height": null, "height_m": null, "levels": null, "tract_id": "40141070300", "tract_name": "703", "tags": {"building": "yes"}}}, {"type": "Feature", "geometry": {"type": "Polygon", "coordinates": [[[-99.0110166, 34.4011801], [-99.0111301, 34.4011813], [-99.0111274, 34.4013595], [-99.011014, 34.4013583], [-99.0110166, 34.4011801]]]}, "properties": {"osm_id": 1161308606, "building": "yes", "name": "", "height": null, "height_m": null, "levels": null, "tract_id": "40141070300", "tract_name": "703", "tags": {"building": "yes"}}}, {"type": "Feature", "geometry": {"type": "Polygon", "coordinates": [[[-99.0110059, 34.401449], [-99.0111281, 34.4014519], [-99.0111214, 34.4016477], [-99.0109992, 34.4016449], [-99.0110059, 34.401449]]]}, "properties": {"osm_id": 1161308607, "building": "yes", "name": "", "height": null, "height_m": null, "levels": null, "tract_id": "40141070300", "tract_name": "703", "tags": {"building": "yes"}}}, {"type": "Feature", "geometry": {"type": "Polygon", "coordinates": [[[-99.0209033, 34.3920528], [-99.0210028, 34.3920522], [-99.0210041, 34.3921872], [-99.0209046, 34.3921879], [-99.0209033, 34.3920528]]]}, "properties": {"osm_id": 1161308609, "building": "yes", "name": "", "height": null, "height_m": null, "levels": null, "tract_id": "40141070300", "tract_name": "703", "tags": {"building": "yes"}}}, {"type": "Feature", "geometry": {"type": "Polygon", "coordinates": [[[-99.0205814, 34.3920307], [-99.0205868, 34.3922642], [-99.0204961, 34.3922656], [-99.0204907, 34.3920321], [-99.0205814, 34.3920307]]]}, "properties": {"osm_id": 1161308610, "building": "yes", "name": "", "height": null, "height_m": null, "levels": null, "tract_id": "40141070300", "tract_name": "703", "tags": {"building": "yes"}}}, {"type": "Feature", "geometry": {"type": "Polygon", "coordinates": [[[-99.0215121, 34.3920163], [-99.021699, 34.3920143], [-99.0217017, 34.3921859], [-99.0215148, 34.3921879], [-99.0215121, 34.3920163]]]}, "properties": {"osm_id": 1161308611, "building": "yes", "name": "", "height": null, "height_m": null, "levels": null, "tract_id": "40141070300", "tract_name": "703", "tags": {"building": "yes"}}}, {"type": "Feature", "geometry": {"type": "Polygon", "coordinates": [[[-99.021146, 34.3920739], [-99.021145, 34.3920128], [-99.0212402, 34.3920117], [-99.0212412, 34.3920728], [-99.021146, 34.3920739]]]}, "properties": {"osm_id": 1161308612, "building": "yes", "name": "", "height": null, "height_m": null, "levels": null, "tract_id": "40141070300", "tract_name": "703", "tags": {"building": "yes"}}}, {"type": "Feature", "geometry": {"type": "Polygon", "coordinates": [[[-99.0233816, 34.392314], [-99.0234857, 34.3923129], [-99.023491, 34.3926427], [-99.023387, 34.3926438], [-99.0233816, 34.392314]]]}, "properties": {"osm_id": 1161308613, "building": "yes", "name": "", "height": null, "height_m": null, "levels": null, "tract_id": "40141070300", "tract_name": "703", "tags": {"building": "yes"}}}, {"type": "Feature", "geometry": {"type": "Polygon", "coordinates": [[[-99.0235774, 34.3924402], [-99.0236364, 34.3924402], [-99.0236364, 34.392625], [-99.0235774, 34.392625], [-99.0235774, 34.3924402]]]}, "properties": {"osm_id": 1161308614, "building": "yes", "name": "", "height": null, "height_m": null, "levels": null, "tract_id": "40141070300", "tract_name": "703", "tags": {"building": "yes"}}}, {"type": "Feature", "geometry": {"type": "Polygon", "coordinates": [[[-99.026229, 34.3920632], [-99.0262271, 34.3919248], [-99.026559, 34.3919217], [-99.0265609, 34.3920601], [-99.026229, 34.3920632]]]}, "properties": {"osm_id": 1161308615, "building": "yes", "name": "", "height": null, "height_m": null, "levels": null, "tract_id": "40141070300", "tract_name": "703", "tags": {"building": "yes"}}}, {"type": "Feature", "geometry": {"type": "Polygon", "coordinates": [[[-99.0188044, 34.3920495], [-99.0188943, 34.3920495], [-99.0188943, 34.3921513], [-99.0188044, 34.3921513], [-99.0188044, 34.3920495]]]}, "properties": {"osm_id": 1162830532, "building": "yes", "name": "", "height": null, "height_m": null, "levels": null, "tract_id": "40141070300", "tract_name": "703", "tags": {"building": "yes"}}}, {"type": "Feature", "geometry": {"type": "Polygon", "coordinates": [[[-99.01907, 34.3920506], [-99.019074, 34.3922731], [-99.0189726, 34.3922743], [-99.0189686, 34.3920519], [-99.01907, 34.3920506]]]}, "properties": {"osm_id": 1162830533, "building": "yes", "name": "", "height": null, "height_m": null, "levels": null, "tract_id": "40141070300", "tract_name": "703", "tags": {"building": "yes"}}}, {"type": "Feature", "geometry": {"type": "Polygon", "coordinates": [[[-98.9926234, 34.4059326], [-98.9926242, 34.4058864], [-98.9927181, 34.4058875], [-98.9927173, 34.4059337], [-98.9926234, 34.4059326]]]}, "properties": {"osm_id": 1162830534, "building": "yes", "name": "", "height": null, "height_m": null, "levels": null, "tract_id": "40141070300", "tract_name": "703", "tags": {"building": "yes"}}}, {"type": "Feature", "geometry": {"type": "Polygon", "coordinates": [[[-98.9928836, 34.4055509], [-98.9927521, 34.4055509], [-98.9927521, 34.4054878], [-98.9928836, 34.4054878], [-98.9928836, 34.4055509]]]}, "properties": {"osm_id": 1162830535, "building": "yes", "name": "", "height": null, "height_m": null, "levels": null, "tract_id": "40141070300", "tract_name": "703", "tags": {"building": "yes"}}}, {"type": "Feature", "geometry": {"type": "Polygon", "coordinates": [[[-98.9925013, 34.4057368], [-98.9925914, 34.4057386], [-98.9925874, 34.405878], [-98.9924973, 34.4058762], [-98.9925013, 34.4057368]]]}, "properties": {"osm_id": 1162830536, "building": "yes", "name": "", "height": null, "height_m": null, "levels": null, "tract_id": "40141070300", "tract_name": "703", "tags": {"building": "yes"}}}, {"type": "Feature", "geometry": {"type": "Polygon", "coordinates": [[[-99.0059258, 34.4077373], [-99.0059258, 34.4076565], [-99.0061779, 34.4076565], [-99.0061779, 34.4077373], [-99.0059258, 34.4077373]]]}, "properties": {"osm_id": 1162830537, "building": "yes", "name": "", "height": null, "height_m": null, "levels": null, "tract_id": "40141070300", "tract_name": "703", "tags": {"building": "yes"}}}, {"type": "Feature", "geometry": {"type": "Polygon", "coordinates": [[[-98.9989358, 34.4096245], [-98.9989369, 34.4095592], [-98.999082, 34.4095607], [-98.9990809, 34.4096261], [-98.9989358, 34.4096245]]]}, "properties": {"osm_id": 1162830538, "building": "yes", "name": "", "height": null, "height_m": null, "levels": null, "tract_id": "40141070300", "tract_name": "703", "tags": {"building": "yes"}}}, {"type": "Feature", "geometry": {"type": "Polygon", "coordinates": [[[-98.9998557, 34.4098968], [-98.9996584, 34.4099015], [-98.9996542, 34.4097794], [-98.9998514, 34.4097747], [-98.9998557, 34.4098968]]]}, "properties": {"osm_id": 1162830539, "building": "yes", "name": "", "height": null, "height_m": null, "levels": null, "tract_id": "40141070300", "tract_name": "703", "tags": {"building": "yes"}}}, {"type": "Feature", "geometry": {"type": "Polygon", "coordinates": [[[-99.0493467, 34.4062419], [-99.0493986, 34.4062411], [-99.0493996, 34.4062837], [-99.0493477, 34.4062845], [-99.0493467, 34.4062419]]]}, "properties": {"osm_id": 1162830541, "building": "yes", "name": "", "height": null, "height_m": null, "levels": null, "tract_id": "40141070300", "tract_name": "703", "tags": {"building": "yes"}}}, {"type": "Feature", "geometry": {"type": "Polygon", "coordinates": [[[-99.0493266, 34.4061274], [-99.049328, 34.40629], [-99.0491672, 34.4062909], [-99.0491659, 34.4061283], [-99.0493266, 34.4061274]]]}, "properties": {"osm_id": 1162830542, "building": "yes", "name": "", "height": null, "height_m": null, "levels": null, "tract_id": "40141070300", "tract_name": "703", "tags": {"building": "yes"}}}, {"type": "Feature", "geometry": {"type": "Polygon", "coordinates": [[[-99.0125998, 34.4140328], [-99.0125998, 34.4139642], [-99.0127145, 34.4139642], [-99.0127145, 34.4140328], [-99.0125998, 34.4140328]]]}, "properties": {"osm_id": 1162830543, "building": "yes", "name": "", "height": null, "height_m": null, "levels": null, "tract_id": "40141070300", "tract_name": "703", "tags": {"building": "yes"}}}, {"type": "Feature", "geometry": {"type": "Polygon", "coordinates": [[[-99.0118857, 34.4136555], [-99.0116349, 34.4136611], [-99.0116296, 34.4134969], [-99.0118804, 34.4134914], [-99.0118857, 34.4136555]]]}, "properties": {"osm_id": 1162830544, "building": "yes", "name": "", "height": null, "height_m": null, "levels": null, "tract_id": "40141070300", "tract_name": "703", "tags": {"building": "yes"}}}, {"type": "Feature", "geometry": {"type": "Polygon", "coordinates": [[[-98.9922693, 34.4106583], [-98.9919354, 34.4106627], [-98.9919333, 34.4105524], [-98.9922672, 34.410548], [-98.9922693, 34.4106583]]]}, "properties": {"osm_id": 1162830546, "building": "yes", "name": "", "height": null, "height_m": null, "levels": null, "tract_id": "40141070300", "tract_name": "703", "tags": {"building": "yes"}}}, {"type": "Feature", "geometry": {"type": "Polygon", "coordinates": [[[-98.9921915, 34.4050835], [-98.9921953, 34.40495], [-98.9925215, 34.4049562], [-98.9925177, 34.4050898], [-98.9921915, 34.4050835]]]}, "properties": {"osm_id": 1162830547, "building": "yes", "name": "", "height": null, "height_m": null, "levels": null, "tract_id": "40141070300", "tract_name": "703", "tags": {"building": "yes"}}}, {"type": "Feature", "geometry": {"type": "Polygon", "coordinates": [[[-98.9921877, 34.4054732], [-98.9921877, 34.4053026], [-98.9925215, 34.4053026], [-98.9925215, 34.4054732], [-98.9921877, 34.4054732]]]}, "properties": {"osm_id": 1162830548, "building": "yes", "name": "", "height": null, "height_m": null, "levels": null, "tract_id": "40141070300", "tract_name": "703", "tags": {"building": "yes"}}}, {"type": "Feature", "geometry": {"type": "Polygon", "coordinates": [[[-99.0066218, 34.3991662], [-99.0066487, 34.3990925], [-99.0067446, 34.3991163], [-99.0067177, 34.39919], [-99.0066218, 34.3991662]]]}, "properties": {"osm_id": 1162830549, "building": "yes", "name": "", "height": null, "height_m": null, "levels": null, "tract_id": "40141070300", "tract_name": "703", "tags": {"building": "yes"}}}, {"type": "Feature", "geometry": {"type": "Polygon", "coordinates": [[[-99.016369, 34.4011956], [-99.0163662, 34.4010483], [-99.0167068, 34.4010438], [-99.0167096, 34.4011912], [-99.016369, 34.4011956]]]}, "properties": {"osm_id": 1162830551, "building": "yes", "name": "", "height": null, "height_m": null, "levels": null, "tract_id": "40141070300", "tract_name": "703", "tags": {"building": "yes"}}}, {"type": "Feature", "geometry": {"type": "Polygon", "coordinates": [[[-99.0167753, 34.3998044], [-99.0165639, 34.3998029], [-99.0165651, 34.39969], [-99.0167766, 34.3996916], [-99.0167753, 34.3998044]]]}, "properties": {"osm_id": 1162830552, "building": "yes", "name": "", "height": null, "height_m": null, "levels": null, "tract_id": "40141070300", "tract_name": "703", "tags": {"building": "yes"}}}, {"type": "Feature", "geometry": {"type": "Polygon", "coordinates": [[[-99.0189439, 34.3972474], [-99.0187964, 34.3972518], [-99.0187919, 34.3971494], [-99.0189394, 34.3971449], [-99.0189439, 34.3972474]]]}, "properties": {"osm_id": 1162830553, "building": "yes", "name": "", "height": null, "height_m": null, "levels": null, "tract_id": "40141070300", "tract_name": "703", "tags": {"building": "yes"}}}, {"type": "Feature", "geometry": {"type": "Polygon", "coordinates": [[[-99.0416266, 34.3930398], [-99.0415052, 34.3930351], [-99.0415101, 34.3929479], [-99.0416315, 34.3929526], [-99.0416266, 34.3930398]]]}, "properties": {"osm_id": 1162830554, "building": "yes", "name": "", "height": null, "height_m": null, "levels": null, "tract_id": "40141070300", "tract_name": "703", "tags": {"building": "yes"}}}, {"type": "Feature", "geometry": {"type": "Polygon", "coordinates": [[[-99.0324679, 34.3929631], [-99.0324661, 34.392881], [-99.0326766, 34.3928779], [-99.0326784, 34.39296], [-99.0324679, 34.3929631]]]}, "properties": {"osm_id": 1162830555, "building": "yes", "name": "", "height": null, "height_m": null, "levels": null, "tract_id": "40141070300", "tract_name": "703", "tags": {"building": "yes"}}}, {"type": "Feature", "geometry": {"type": "Polygon", "coordinates": [[[-99.0298377, 34.392812], [-99.0297331, 34.3928541], [-99.0297045, 34.3928057], [-99.0298091, 34.3927636], [-99.0298377, 34.392812]]]}, "properties": {"osm_id": 1162830556, "building": "yes", "name": "", "height": null, "height_m": null, "levels": null, "tract_id": "40141070300", "tract_name": "703", "tags": {"building": "yes"}}}, {"type": "Feature", "geometry": {"type": "Polygon", "coordinates": [[[-99.0298028, 34.3927235], [-99.02969, 34.3927719], [-99.0296001, 34.3926291], [-99.029713, 34.3925807], [-99.0298028, 34.3927235]]]}, "properties": {"osm_id": 1162830557, "building": "yes", "name": "", "height": null, "height_m": null, "levels": null, "tract_id": "40141070300", "tract_name": "703", "tags": {"building": "yes"}}}, {"type": "Feature", "geometry": {"type": "Polygon", "coordinates": [[[-99.0304195, 34.3923245], [-99.0301274, 34.3924529], [-99.0300606, 34.3923493], [-99.0303527, 34.392221], [-99.0304195, 34.3923245]]]}, "properties": {"osm_id": 1162830558, "building": "yes", "name": "", "height": null, "height_m": null, "levels": null, "tract_id": "40141070300", "tract_name": "703", "tags": {"building": "yes"}}}, {"type": "Feature", "geometry": {"type": "Polygon", "coordinates": [[[-99.0240355, 34.3965454], [-99.023936, 34.3965485], [-99.0239332, 34.3964881], [-99.0240328, 34.396485], [-99.0240355, 34.3965454]]]}, "properties": {"osm_id": 1162830588, "building": "yes", "name": "", "height": null, "height_m": null, "levels": null, "tract_id": "40141070300", "tract_name": "703", "tags": {"building": "yes"}}}, {"type": "Feature", "geometry": {"type": "Polygon", "coordinates": [[[-99.0239284, 34.3964445], [-99.0239284, 34.3963028], [-99.024046, 34.3963028], [-99.024046, 34.3964445], [-99.0239284, 34.3964445]]]}, "properties": {"osm_id": 1162830589, "building": "yes", "name": "", "height": null, "height_m": null, "levels": null, "tract_id": "40141070300", "tract_name": "703", "tags": {"building": "yes"}}}, {"type": "Feature", "geometry": {"type": "Polygon", "coordinates": [[[-99.0256742, 34.3946705], [-99.0256718, 34.3945892], [-99.025907, 34.3945845], [-99.0259094, 34.3946658], [-99.0256742, 34.3946705]]]}, "properties": {"osm_id": 1162830590, "building": "yes", "name": "", "height": null, "height_m": null, "levels": null, "tract_id": "40141070300", "tract_name": "703", "tags": {"building": "yes"}}}, {"type": "Feature", "geometry": {"type": "Polygon", "coordinates": [[[-99.0252655, 34.393917], [-99.025367, 34.3939166], [-99.025368, 34.3940935], [-99.0252664, 34.3940938], [-99.0252655, 34.393917]]]}, "properties": {"osm_id": 1162830591, "building": "yes", "name": "", "height": null, "height_m": null, "levels": null, "tract_id": "40141070300", "tract_name": "703", "tags": {"building": "yes"}}}, {"type": "Feature", "geometry": {"type": "Polygon", "coordinates": [[[-99.0232707, 34.3921426], [-99.0232687, 34.3920667], [-99.023465, 34.3920632], [-99.023467, 34.3921391], [-99.0232707, 34.3921426]]]}, "properties": {"osm_id": 1162830592, "building": "yes", "name": "", "height": null, "height_m": null, "levels": null, "tract_id": "40141070300", "tract_name": "703", "tags": {"building": "yes"}}}, {"type": "Feature", "geometry": {"type": "Polygon", "coordinates": [[[-99.0236532, 34.3921627], [-99.0235828, 34.3921654], [-99.0235802, 34.3921203], [-99.0236506, 34.3921175], [-99.0236532, 34.3921627]]]}, "properties": {"osm_id": 1162830593, "building": "yes", "name": "", "height": null, "height_m": null, "levels": null, "tract_id": "40141070300", "tract_name": "703", "tags": {"building": "yes"}}}, {"type": "Feature", "geometry": {"type": "Polygon", "coordinates": [[[-99.0236545, 34.3920412], [-99.0235546, 34.3920445], [-99.0235522, 34.3919951], [-99.0236521, 34.3919917], [-99.0236545, 34.3920412]]]}, "properties": {"osm_id": 1162830597, "building": "roof", "name": "", "height": null, "height_m": null, "levels": null, "tract_id": "40141070300", "tract_name": "703", "tags": {"building": "roof", "layer": "1"}}}, {"type": "Feature", "geometry": {"type": "Polygon", "coordinates": [[[-99.0247308, 34.3928087], [-99.0246718, 34.3928087], [-99.0246718, 34.3927644], [-99.0247308, 34.3927644], [-99.0247308, 34.3928087]]]}, "properties": {"osm_id": 1162830598, "building": "yes", "name": "", "height": null, "height_m": null, "levels": null, "tract_id": "40141070300", "tract_name": "703", "tags": {"building": "yes"}}}, {"type": "Feature", "geometry": {"type": "Polygon", "coordinates": [[[-99.0245175, 34.3927578], [-99.0245236, 34.392667], [-99.0246121, 34.3926711], [-99.024606, 34.3927618], [-99.0245175, 34.3927578]]]}, "properties": {"osm_id": 1162830599, "building": "yes", "name": "", "height": null, "height_m": null, "levels": null, "tract_id": "40141070300", "tract_name": "703", "tags": {"building": "yes"}}}, {"type": "Feature", "geometry": {"type": "Polygon", "coordinates": [[[-99.0245195, 34.392625], [-99.0245236, 34.3925282], [-99.0246044, 34.3925304], [-99.0246003, 34.3926273], [-99.0245195, 34.392625]]]}, "properties": {"osm_id": 1162830600, "building": "yes", "name": "", "height": null, "height_m": null, "levels": null, "tract_id": "40141070300", "tract_name": "703", "tags": {"building": "yes"}}}, {"type": "Feature", "geometry": {"type": "Polygon", "coordinates": [[[-99.0245236, 34.3924878], [-99.0245195, 34.3923992], [-99.024596, 34.3923969], [-99.0246, 34.3924854], [-99.0245236, 34.3924878]]]}, "properties": {"osm_id": 1162830601, "building": "yes", "name": "", "height": null, "height_m": null, "levels": null, "tract_id": "40141070300", "tract_name": "703", "tags": {"building": "yes"}}}, {"type": "Feature", "geometry": {"type": "Polygon", "coordinates": [[[-99.025073, 34.3923441], [-99.0249971, 34.3923472], [-99.0249939, 34.3922944], [-99.0250698, 34.3922913], [-99.025073, 34.3923441]]]}, "properties": {"osm_id": 1162830602, "building": "yes", "name": "", "height": null, "height_m": null, "levels": null, "tract_id": "40141070300", "tract_name": "703", "tags": {"building": "yes"}}}, {"type": "Feature", "geometry": {"type": "Polygon", "coordinates": [[[-99.0251982, 34.3922385], [-99.0251887, 34.3920765], [-99.0253298, 34.3920709], [-99.0253393, 34.3922328], [-99.0251982, 34.3922385]]]}, "properties": {"osm_id": 1162830603, "building": "yes", "name": "", "height": null, "height_m": null, "levels": null, "tract_id": "40141070300", "tract_name": "703", "tags": {"building": "yes"}}}, {"type": "Feature", "geometry": {"type": "Polygon", "coordinates": [[[-99.0248625, 34.3921453], [-99.0246254, 34.3921446], [-99.0246262, 34.3919715], [-99.0248633, 34.3919723], [-99.0248625, 34.3921453]]]}, "properties": {"osm_id": 1162830604, "building": "yes", "name": "", "height": null, "height_m": null, "levels": null, "tract_id": "40141070300", "tract_name": "703", "tags": {"building": "yes"}}}, {"type": "Feature", "geometry": {"type": "Polygon", "coordinates": [[[-99.0115767, 34.4070677], [-99.0116388, 34.4070695], [-99.011636, 34.4071368], [-99.0115739, 34.407135], [-99.0115767, 34.4070677]]]}, "properties": {"osm_id": 1163938384, "building": "yes", "name": "", "height": null, "height_m": null, "levels": null, "tract_id": "40141070300", "tract_name": "703", "tags": {"building": "yes"}}}, {"type": "Feature", "geometry": {"type": "Polygon", "coordinates": [[[-99.009475, 34.4068184], [-99.0094738, 34.4067301], [-99.0096448, 34.4067284], [-99.009646, 34.4068167], [-99.009475, 34.4068184]]]}, "properties": {"osm_id": 1163938385, "building": "yes", "name": "", "height": null, "height_m": null, "levels": null, "tract_id": "40141070300", "tract_name": "703", "tags": {"building": "yes"}}}, {"type": "Feature", "geometry": {"type": "Polygon", "coordinates": [[[-99.0076318, 34.4070802], [-99.0075104, 34.407081], [-99.0075098, 34.4070176], [-99.0076312, 34.4070168], [-99.0076318, 34.4070802]]]}, "properties": {"osm_id": 1163938386, "building": "yes", "name": "", "height": null, "height_m": null, "levels": null, "tract_id": "40141070300", "tract_name": "703", "tags": {"building": "yes"}}}, {"type": "Feature", "geometry": {"type": "Polygon", "coordinates": [[[-99.007793, 34.4070262], [-99.0077941, 34.4070851], [-99.0077344, 34.4070859], [-99.0077332, 34.407027], [-99.007793, 34.4070262]]]}, "properties": {"osm_id": 1163938387, "building": "yes", "name": "", "height": null, "height_m": null, "levels": null, "tract_id": "40141070300", "tract_name": "703", "tags": {"building": "yes"}}}, {"type": "Feature", "geometry": {"type": "Polygon", "coordinates": [[[-99.0059895, 34.4078214], [-99.0058923, 34.407823], [-99.0058905, 34.407754], [-99.0059878, 34.4077524], [-99.0059895, 34.4078214]]]}, "properties": {"osm_id": 1163938388, "building": "yes", "name": "", "height": null, "height_m": null, "levels": null, "tract_id": "40141070300", "tract_name": "703", "tags": {"building": "yes"}}}, {"type": "Feature", "geometry": {"type": "Polygon", "coordinates": [[[-99.009186, 34.4249646], [-99.0088617, 34.4248973], [-99.0088839, 34.4248246], [-99.0092082, 34.4248919], [-99.009186, 34.4249646]]]}, "properties": {"osm_id": 1163938390, "building": "yes", "name": "", "height": null, "height_m": null, "levels": null, "tract_id": "40141070300", "tract_name": "703", "tags": {"building": "yes"}}}, {"type": "Feature", "geometry": {"type": "Polygon", "coordinates": [[[-99.0092249, 34.4249176], [-99.0092611, 34.4247982], [-99.0094508, 34.4248373], [-99.0094146, 34.4249567], [-99.0092249, 34.4249176]]]}, "properties": {"osm_id": 1163938391, "building": "yes", "name": "", "height": null, "height_m": null, "levels": null, "tract_id": "40141070300", "tract_name": "703", "tags": {"building": "yes"}}}, {"type": "Feature", "geometry": {"type": "Polygon", "coordinates": [[[-99.0090969, 34.4245641], [-99.009134, 34.4244513], [-99.0092877, 34.4244857], [-99.0092505, 34.4245985], [-99.0090969, 34.4245641]]]}, "properties": {"osm_id": 1163938392, "building": "yes", "name": "", "height": null, "height_m": null, "levels": null, "tract_id": "40141070300", "tract_name": "703", "tags": {"building": "yes"}}}, {"type": "Feature", "geometry": {"type": "Polygon", "coordinates": [[[-99.0105996, 34.4249399], [-99.0105996, 34.4251656], [-99.0104426, 34.4251656], [-99.0104426, 34.4249399], [-99.0105996, 34.4249399]]]}, "properties": {"osm_id": 1163938394, "building": "yes", "name": "", "height": null, "height_m": null, "levels": null, "tract_id": "40141070300", "tract_name": "703", "tags": {"building": "yes"}}}, {"type": "Feature", "geometry": {"type": "Polygon", "coordinates": [[[-99.0096246, 34.4222097], [-99.0096589, 34.4221009], [-99.0101685, 34.4222104], [-99.0101342, 34.4223192], [-99.0096246, 34.4222097]]]}, "properties": {"osm_id": 1163938395, "building": "yes", "name": "", "height": null, "height_m": null, "levels": null, "tract_id": "40141070300", "tract_name": "703", "tags": {"building": "yes"}}}, {"type": "Feature", "geometry": {"type": "Polygon", "coordinates": [[[-99.0095951, 34.4179017], [-99.0097302, 34.4178991], [-99.0097329, 34.4179943], [-99.0095977, 34.4179969], [-99.0095951, 34.4179017]]]}, "properties": {"osm_id": 1163938396, "building": "yes", "name": "", "height": null, "height_m": null, "levels": null, "tract_id": "40141070300", "tract_name": "703", "tags": {"building": "yes"}}}, {"type": "Feature", "geometry": {"type": "Polygon", "coordinates": [[[-99.0112916, 34.4186961], [-99.011018, 34.4186972], [-99.0110172, 34.41857], [-99.0112908, 34.4185689], [-99.0112916, 34.4186961]]]}, "properties": {"osm_id": 1163938397, "building": "yes", "name": "", "height": null, "height_m": null, "levels": null, "tract_id": "40141070300", "tract_name": "703", "tags": {"building": "yes"}}}, {"type": "Feature", "geometry": {"type": "Polygon", "coordinates": [[[-99.0111038, 34.4184704], [-99.0111052, 34.4183492], [-99.0113975, 34.4183514], [-99.0113962, 34.4184726], [-99.0111038, 34.4184704]]]}, "properties": {"osm_id": 1163938398, "building": "yes", "name": "", "height": null, "height_m": null, "levels": null, "tract_id": "40141070300", "tract_name": "703", "tags": {"building": "yes"}}}, {"type": "Feature", "geometry": {"type": "Polygon", "coordinates": [[[-98.9919023, 34.4105101], [-98.9918986, 34.410429], [-98.9920276, 34.4104251], [-98.9920312, 34.4105062], [-98.9919023, 34.4105101]]]}, "properties": {"osm_id": 1163938399, "building": "yes", "name": "", "height": null, "height_m": null, "levels": null, "tract_id": "40141070300", "tract_name": "703", "tags": {"building": "yes"}}}, {"type": "Feature", "geometry": {"type": "Polygon", "coordinates": [[[-98.9976867, 34.408254], [-98.997695, 34.4081693], [-98.997803, 34.4081765], [-98.9977947, 34.4082612], [-98.9976867, 34.408254]]]}, "properties": {"osm_id": 1163938400, "building": "yes", "name": "", "height": null, "height_m": null, "levels": null, "tract_id": "40141070300", "tract_name": "703", "tags": {"building": "yes"}}}, {"type": "Feature", "geometry": {"type": "Polygon", "coordinates": [[[-98.9917335, 34.4049137], [-98.9917316, 34.4051164], [-98.9916535, 34.4051159], [-98.9916554, 34.4049132], [-98.9917335, 34.4049137]]]}, "properties": {"osm_id": 1163938401, "building": "yes", "name": "", "height": null, "height_m": null, "levels": null, "tract_id": "40141070300", "tract_name": "703", "tags": {"building": "yes"}}}, {"type": "Feature", "geometry": {"type": "Polygon", "coordinates": [[[-98.9944486, 34.399039], [-98.9944463, 34.3988887], [-98.9946528, 34.3988865], [-98.9946552, 34.3990367], [-98.9944486, 34.399039]]]}, "properties": {"osm_id": 1163938425, "building": "yes", "name": "", "height": null, "height_m": null, "levels": null, "tract_id": "40141070300", "tract_name": "703", "tags": {"building": "yes"}}}, {"type": "Feature", "geometry": {"type": "Polygon", "coordinates": [[[-98.9943749, 34.3986417], [-98.9943725, 34.3985411], [-98.9947145, 34.3985356], [-98.9947169, 34.3986362], [-98.9943749, 34.3986417]]]}, "properties": {"osm_id": 1163938426, "building": "yes", "name": "", "height": null, "height_m": null, "levels": null, "tract_id": "40141070300", "tract_name": "703", "tags": {"building": "yes"}}}, {"type": "Feature", "geometry": {"type": "Polygon", "coordinates": [[[-99.0172876, 34.3987535], [-99.0172864, 34.3986669], [-99.0174608, 34.3986652], [-99.017462, 34.3987518], [-99.0172876, 34.3987535]]]}, "properties": {"osm_id": 1163938430, "building": "yes", "name": "", "height": null, "height_m": null, "levels": null, "tract_id": "40141070300", "tract_name": "703", "tags": {"building": "yes"}}}, {"type": "Feature", "geometry": {"type": "Polygon", "coordinates": [[[-99.0175022, 34.3986627], [-99.017502, 34.3986278], [-99.0176099, 34.3986272], [-99.0176102, 34.3986622], [-99.0175022, 34.3986627]]]}, "properties": {"osm_id": 1163938431, "building": "yes", "name": "", "height": null, "height_m": null, "levels": null, "tract_id": "40141070300", "tract_name": "703", "tags": {"building": "yes"}}}, {"type": "Feature", "geometry": {"type": "Polygon", "coordinates": [[[-99.0177215, 34.3986528], [-99.0177203, 34.3985782], [-99.0178195, 34.3985771], [-99.0178207, 34.3986516], [-99.0177215, 34.3986528]]]}, "properties": {"osm_id": 1163938432, "building": "yes", "name": "", "height": null, "height_m": null, "levels": null, "tract_id": "40141070300", "tract_name": "703", "tags": {"building": "yes"}}}, {"type": "Feature", "geometry": {"type": "Polygon", "coordinates": [[[-99.0183491, 34.3990318], [-99.0183499, 34.398949], [-99.0185176, 34.3989501], [-99.0185168, 34.3990329], [-99.0183491, 34.3990318]]]}, "properties": {"osm_id": 1163938433, "building": "yes", "name": "", "height": null, "height_m": null, "levels": null, "tract_id": "40141070300", "tract_name": "703", "tags": {"building": "yes"}}}, {"type": "Feature", "geometry": {"type": "Polygon", "coordinates": [[[-99.0181359, 34.3990279], [-99.0181346, 34.3989389], [-99.0182968, 34.3989372], [-99.0182982, 34.3990262], [-99.0181359, 34.3990279]]]}, "properties": {"osm_id": 1163938434, "building": "yes", "name": "", "height": null, "height_m": null, "levels": null, "tract_id": "40141070300", "tract_name": "703", "tags": {"building": "yes"}}}, {"type": "Feature", "geometry": {"type": "Polygon", "coordinates": [[[-99.0199759, 34.3982173], [-99.0199764, 34.3981649], [-99.0200635, 34.3981655], [-99.0200631, 34.3982179], [-99.0199759, 34.3982173]]]}, "properties": {"osm_id": 1163938435, "building": "yes", "name": "", "height": null, "height_m": null, "levels": null, "tract_id": "40141070300", "tract_name": "703", "tags": {"building": "yes"}}}, {"type": "Feature", "geometry": {"type": "Polygon", "coordinates": [[[-99.0220881, 34.398339], [-99.0221611, 34.3983367], [-99.0221658, 34.3984346], [-99.0220928, 34.398437], [-99.0220881, 34.398339]]]}, "properties": {"osm_id": 1163938436, "building": "yes", "name": "", "height": null, "height_m": null, "levels": null, "tract_id": "40141070300", "tract_name": "703", "tags": {"building": "yes"}}}, {"type": "Feature", "geometry": {"type": "Polygon", "coordinates": [[[-99.0288928, 34.393496], [-99.0291213, 34.3934929], [-99.0291238, 34.3936168], [-99.0288952, 34.3936199], [-99.0288928, 34.393496]]]}, "properties": {"osm_id": 1163938437, "building": "yes", "name": "", "height": null, "height_m": null, "levels": null, "tract_id": "40141070300", "tract_name": "703", "tags": {"building": "yes"}}}, {"type": "Feature", "geometry": {"type": "Polygon", "coordinates": [[[-99.0091605, 34.3943862], [-99.009298, 34.3943838], [-99.0093027, 34.394563], [-99.0091652, 34.3945655], [-99.0091605, 34.3943862]]]}, "properties": {"osm_id": 1163938440, "building": "yes", "name": "", "height": null, "height_m": null, "levels": null, "tract_id": "40141070300", "tract_name": "703", "tags": {"building": "yes"}}}, {"type": "Feature", "geometry": {"type": "Polygon", "coordinates": [[[-99.0092913, 34.3945907], [-99.009296, 34.394748], [-99.0091438, 34.3947511], [-99.0091391, 34.3945938], [-99.0092913, 34.3945907]]]}, "properties": {"osm_id": 1163938441, "building": "yes", "name": "", "height": null, "height_m": null, "levels": null, "tract_id": "40141070300", "tract_name": "703", "tags": {"building": "yes"}}}, {"type": "Feature", "geometry": {"type": "Polygon", "coordinates": [[[-99.0079333, 34.3955524], [-99.0079362, 34.3956948], [-99.007829, 34.3956963], [-99.0078262, 34.3955539], [-99.0079333, 34.3955524]]]}, "properties": {"osm_id": 1163938442, "building": "yes", "name": "", "height": null, "height_m": null, "levels": null, "tract_id": "40141070300", "tract_name": "703", "tags": {"building": "yes"}}}, {"type": "Feature", "geometry": {"type": "Polygon", "coordinates": [[[-99.0063751, 34.3943812], [-99.0062436, 34.3943812], [-99.0062436, 34.3942484], [-99.0063751, 34.3942484], [-99.0063751, 34.3943812]]]}, "properties": {"osm_id": 1163938443, "building": "yes", "name": "", "height": null, "height_m": null, "levels": null, "tract_id": "40141070300", "tract_name": "703", "tags": {"building": "yes"}}}, {"type": "Feature", "geometry": {"type": "Polygon", "coordinates": [[[-98.9806366, 34.3929116], [-98.980637, 34.3928426], [-98.9807858, 34.3928432], [-98.9807855, 34.3929122], [-98.9806366, 34.3929116]]]}, "properties": {"osm_id": 1163938449, "building": "yes", "name": "", "height": null, "height_m": null, "levels": null, "tract_id": "40141070300", "tract_name": "703", "tags": {"building": "yes"}}}, {"type": "Feature", "geometry": {"type": "Polygon", "coordinates": [[[-98.9809968, 34.3924404], [-98.9808962, 34.3924427], [-98.9808932, 34.392353], [-98.9809937, 34.3923506], [-98.9809968, 34.3924404]]]}, "properties": {"osm_id": 1163938450, "building": "yes", "name": "", "height": null, "height_m": null, "levels": null, "tract_id": "40141070300", "tract_name": "703", "tags": {"building": "yes"}}}, {"type": "Feature", "geometry": {"type": "Polygon", "coordinates": [[[-98.9813372, 34.3929396], [-98.9813372, 34.3928567], [-98.9814083, 34.3928567], [-98.9814083, 34.3929396], [-98.9813372, 34.3929396]]]}, "properties": {"osm_id": 1163938451, "building": "yes", "name": "", "height": null, "height_m": null, "levels": null, "tract_id": "40141070300", "tract_name": "703", "tags": {"building": "yes"}}}, {"type": "Feature", "geometry": {"type": "Polygon", "coordinates": [[[-98.9894499, 34.3924873], [-98.9894499, 34.3923832], [-98.9896861, 34.3923832], [-98.9896861, 34.3924873], [-98.9894499, 34.3924873]]]}, "properties": {"osm_id": 1163938462, "building": "yes", "name": "", "height": null, "height_m": null, "levels": null, "tract_id": "40141070300", "tract_name": "703", "tags": {"building": "yes"}}}, {"type": "Feature", "geometry": {"type": "Polygon", "coordinates": [[[-98.9951634, 34.393502], [-98.9951668, 34.3936968], [-98.9950697, 34.3936979], [-98.9950663, 34.3935032], [-98.9951634, 34.393502]]]}, "properties": {"osm_id": 1163938467, "building": "yes", "name": "", "height": null, "height_m": null, "levels": null, "tract_id": "40141070300", "tract_name": "703", "tags": {"building": "yes"}}}, {"type": "Feature", "geometry": {"type": "Polygon", "coordinates": [[[-98.9948704, 34.3936647], [-98.9948668, 34.3935571], [-98.995062, 34.3935527], [-98.9950655, 34.3936603], [-98.9948704, 34.3936647]]]}, "properties": {"osm_id": 1163938468, "building": "yes", "name": "", "height": null, "height_m": null, "levels": null, "tract_id": "40141070300", "tract_name": "703", "tags": {"building": "yes"}}}, {"type": "Feature", "geometry": {"type": "Polygon", "coordinates": [[[-98.9946431, 34.3935319], [-98.9947605, 34.3935303], [-98.9947631, 34.3936681], [-98.9946458, 34.3936697], [-98.9946431, 34.3935319]]]}, "properties": {"osm_id": 1163938469, "building": "yes", "name": "", "height": null, "height_m": null, "levels": null, "tract_id": "40141070300", "tract_name": "703", "tags": {"building": "yes"}}}, {"type": "Feature", "geometry": {"type": "Polygon", "coordinates": [[[-98.9974508, 34.393075], [-98.9975317, 34.3930727], [-98.997536, 34.3931772], [-98.997455, 34.3931795], [-98.9974508, 34.393075]]]}, "properties": {"osm_id": 1163938470, "building": "yes", "name": "", "height": null, "height_m": null, "levels": null, "tract_id": "40141070300", "tract_name": "703", "tags": {"building": "yes"}}}, {"type": "Feature", "geometry": {"type": "Polygon", "coordinates": [[[-99.0023518, 34.3958005], [-99.0023531, 34.3958968], [-99.0022723, 34.3958975], [-99.0022709, 34.3958013], [-99.0023518, 34.3958005]]]}, "properties": {"osm_id": 1163938471, "building": "yes", "name": "", "height": null, "height_m": null, "levels": null, "tract_id": "40141070300", "tract_name": "703", "tags": {"building": "yes"}}}, {"type": "Feature", "geometry": {"type": "Polygon", "coordinates": [[[-99.0120907, 34.3998275], [-99.0121731, 34.3998261], [-99.0121764, 34.3999615], [-99.012094, 34.3999629], [-99.0120907, 34.3998275]]]}, "properties": {"osm_id": 1163938472, "building": "yes", "name": "", "height": null, "height_m": null, "levels": null, "tract_id": "40141070300", "tract_name": "703", "tags": {"building": "yes"}}}, {"type": "Feature", "geometry": {"type": "Polygon", "coordinates": [[[-99.011777, 34.4009013], [-99.0119023, 34.4009051], [-99.0118942, 34.4010844], [-99.011769, 34.4010806], [-99.011777, 34.4009013]]]}, "properties": {"osm_id": 1163938473, "building": "yes", "name": "", "height": null, "height_m": null, "levels": null, "tract_id": "40141070300", "tract_name": "703", "tags": {"building": "yes"}}}, {"type": "Feature", "geometry": {"type": "Polygon", "coordinates": [[[-99.0158781, 34.3979108], [-99.0158781, 34.397809], [-99.0160726, 34.397809], [-99.0160726, 34.3979108], [-99.0158781, 34.3979108]]]}, "properties": {"osm_id": 1163938474, "building": "yes", "name": "", "height": null, "height_m": null, "levels": null, "tract_id": "40141070300", "tract_name": "703", "tags": {"building": "yes"}}}, {"type": "Feature", "geometry": {"type": "Polygon", "coordinates": [[[-99.0167204, 34.398333], [-99.0165748, 34.3983346], [-99.0165735, 34.3980906], [-99.0167036, 34.3980878], [-99.016721, 34.3981039], [-99.0167204, 34.398333]]]}, "properties": {"osm_id": 1163938475, "building": "yes", "name": "", "height": null, "height_m": null, "levels": null, "tract_id": "40141070300", "tract_name": "703", "tags": {"building": "yes"}}}, {"type": "Feature", "geometry": {"type": "Polygon", "coordinates": [[[-99.0205599, 34.3989371], [-99.0205619, 34.3990733], [-99.0204712, 34.3990742], [-99.0204692, 34.3989381], [-99.0205599, 34.3989371]]]}, "properties": {"osm_id": 1163938476, "building": "yes", "name": "", "height": null, "height_m": null, "levels": null, "tract_id": "40141070300", "tract_name": "703", "tags": {"building": "yes"}}}, {"type": "Feature", "geometry": {"type": "Polygon", "coordinates": [[[-99.0196963, 34.3987905], [-99.0197945, 34.3987896], [-99.0197958, 34.3988887], [-99.0196976, 34.3988896], [-99.0196963, 34.3987905]]]}, "properties": {"osm_id": 1163938477, "building": "yes", "name": "", "height": null, "height_m": null, "levels": null, "tract_id": "40141070300", "tract_name": "703", "tags": {"building": "yes"}}}, {"type": "Feature", "geometry": {"type": "Polygon", "coordinates": [[[-99.0193462, 34.3989432], [-99.0193482, 34.3990827], [-99.0192477, 34.3990836], [-99.0192457, 34.3989442], [-99.0193462, 34.3989432]]]}, "properties": {"osm_id": 1163938478, "building": "yes", "name": "", "height": null, "height_m": null, "levels": null, "tract_id": "40141070300", "tract_name": "703", "tags": {"building": "yes"}}}, {"type": "Feature", "geometry": {"type": "Polygon", "coordinates": [[[-99.0188218, 34.3994022], [-99.0188192, 34.3993216], [-99.0190023, 34.3993177], [-99.0190048, 34.3993983], [-99.0188218, 34.3994022]]]}, "properties": {"osm_id": 1163938479, "building": "yes", "name": "", "height": null, "height_m": null, "levels": null, "tract_id": "40141070300", "tract_name": "703", "tags": {"building": "yes"}}}, {"type": "Feature", "geometry": {"type": "Polygon", "coordinates": [[[-99.0186188, 34.3993999], [-99.0186183, 34.3993183], [-99.018789, 34.3993175], [-99.0187895, 34.3993991], [-99.0186188, 34.3993999]]]}, "properties": {"osm_id": 1163938480, "building": "yes", "name": "", "height": null, "height_m": null, "levels": null, "tract_id": "40141070300", "tract_name": "703", "tags": {"building": "yes"}}}, {"type": "Feature", "geometry": {"type": "Polygon", "coordinates": [[[-99.0185638, 34.3993169], [-99.0185669, 34.3994011], [-99.0184095, 34.399405], [-99.0184064, 34.3993209], [-99.0185638, 34.3993169]]]}, "properties": {"osm_id": 1163938481, "building": "yes", "name": "", "height": null, "height_m": null, "levels": null, "tract_id": "40141070300", "tract_name": "703", "tags": {"building": "yes"}}}, {"type": "Feature", "geometry": {"type": "Polygon", "coordinates": [[[-99.018207, 34.3994036], [-99.0182066, 34.3993243], [-99.0183789, 34.3993238], [-99.0183793, 34.399403], [-99.018207, 34.3994036]]]}, "properties": {"osm_id": 1163938482, "building": "yes", "name": "", "height": null, "height_m": null, "levels": null, "tract_id": "40141070300", "tract_name": "703", "tags": {"building": "yes"}}}, {"type": "Feature", "geometry": {"type": "Polygon", "coordinates": [[[-99.0179978, 34.3994063], [-99.0179966, 34.3993209], [-99.0181696, 34.3993192], [-99.0181708, 34.3994047], [-99.0179978, 34.3994063]]]}, "properties": {"osm_id": 1163938483, "building": "yes", "name": "", "height": null, "height_m": null, "levels": null, "tract_id": "40141070300", "tract_name": "703", "tags": {"building": "yes"}}}, {"type": "Feature", "geometry": {"type": "Polygon", "coordinates": [[[-99.0189292, 34.3982262], [-99.0187608, 34.3982256], [-99.0187613, 34.3981403], [-99.0189296, 34.3981409], [-99.0189292, 34.3982262]]]}, "properties": {"osm_id": 1163938484, "building": "yes", "name": "", "height": null, "height_m": null, "levels": null, "tract_id": "40141070300", "tract_name": "703", "tags": {"building": "yes"}}}, {"type": "Feature", "geometry": {"type": "Polygon", "coordinates": [[[-99.0187208, 34.3982184], [-99.0185543, 34.3982199], [-99.0185532, 34.3981392], [-99.0187197, 34.3981377], [-99.0187208, 34.3982184]]]}, "properties": {"osm_id": 1163938485, "building": "yes", "name": "", "height": null, "height_m": null, "levels": null, "tract_id": "40141070300", "tract_name": "703", "tags": {"building": "yes"}}}, {"type": "Feature", "geometry": {"type": "Polygon", "coordinates": [[[-99.0183565, 34.3982262], [-99.0183557, 34.3981434], [-99.018526, 34.3981423], [-99.0185268, 34.3982251], [-99.0183565, 34.3982262]]]}, "properties": {"osm_id": 1163938486, "building": "yes", "name": "", "height": null, "height_m": null, "levels": null, "tract_id": "40141070300", "tract_name": "703", "tags": {"building": "yes"}}}, {"type": "Feature", "geometry": {"type": "Polygon", "coordinates": [[[-99.0192476, 34.3980853], [-99.0193486, 34.3980847], [-99.0193501, 34.3982282], [-99.019249, 34.3982289], [-99.0192476, 34.3980853]]]}, "properties": {"osm_id": 1163938487, "building": "yes", "name": "", "height": null, "height_m": null, "levels": null, "tract_id": "40141070300", "tract_name": "703", "tags": {"building": "yes"}}}, {"type": "Feature", "geometry": {"type": "Polygon", "coordinates": [[[-99.019251, 34.3982549], [-99.0193526, 34.3982537], [-99.0193553, 34.3983992], [-99.0192537, 34.3984005], [-99.019251, 34.3982549]]]}, "properties": {"osm_id": 1163938488, "building": "yes", "name": "", "height": null, "height_m": null, "levels": null, "tract_id": "40141070300", "tract_name": "703", "tags": {"building": "yes"}}}, {"type": "Feature", "geometry": {"type": "Polygon", "coordinates": [[[-99.0192523, 34.3984296], [-99.0193576, 34.3984296], [-99.0193576, 34.3985736], [-99.0192523, 34.3985736], [-99.0192523, 34.3984296]]]}, "properties": {"osm_id": 1163938489, "building": "yes", "name": "", "height": null, "height_m": null, "levels": null, "tract_id": "40141070300", "tract_name": "703", "tags": {"building": "yes"}}}, {"type": "Feature", "geometry": {"type": "Polygon", "coordinates": [[[-99.0192504, 34.3987723], [-99.0193492, 34.3987706], [-99.019353, 34.398913], [-99.0192542, 34.3989148], [-99.0192504, 34.3987723]]]}, "properties": {"osm_id": 1163938490, "building": "yes", "name": "", "height": null, "height_m": null, "levels": null, "tract_id": "40141070300", "tract_name": "703", "tags": {"building": "yes"}}}, {"type": "Feature", "geometry": {"type": "Polygon", "coordinates": [[[-99.0192542, 34.3985971], [-99.0193566, 34.3985971], [-99.0193566, 34.3987418], [-99.0192542, 34.3987418], [-99.0192542, 34.3985971]]]}, "properties": {"osm_id": 1163938491, "building": "yes", "name": "", "height": null, "height_m": null, "levels": null, "tract_id": "40141070300", "tract_name": "703", "tags": {"building": "yes"}}}, {"type": "Feature", "geometry": {"type": "Polygon", "coordinates": [[[-99.0173185, 34.3921491], [-99.0172897, 34.392205], [-99.017229, 34.3921837], [-99.0172578, 34.3921278], [-99.0173185, 34.3921491]]]}, "properties": {"osm_id": 1163938492, "building": "yes", "name": "", "height": null, "height_m": null, "levels": null, "tract_id": "40141070300", "tract_name": "703", "tags": {"building": "yes"}}}, {"type": "Feature", "geometry": {"type": "Polygon", "coordinates": [[[-99.0122832, 34.3928614], [-99.0124302, 34.3928614], [-99.0124302, 34.3929451], [-99.0122832, 34.3929451], [-99.0122832, 34.3928614]]]}, "properties": {"osm_id": 1163938495, "building": "yes", "name": "", "height": null, "height_m": null, "levels": null, "tract_id": "40141070300", "tract_name": "703", "tags": {"building": "yes"}}}, {"type": "Feature", "geometry": {"type": "Polygon", "coordinates": [[[-99.0123885, 34.3926156], [-99.0123838, 34.3927027], [-99.0122776, 34.3926988], [-99.0122823, 34.3926117], [-99.0123885, 34.3926156]]]}, "properties": {"osm_id": 1163938496, "building": "yes", "name": "", "height": null, "height_m": null, "levels": null, "tract_id": "40141070300", "tract_name": "703", "tags": {"building": "yes"}}}, {"type": "Feature", "geometry": {"type": "Polygon", "coordinates": [[[-99.0117688, 34.3929122], [-99.0117727, 34.3927519], [-99.0119609, 34.3927551], [-99.011957, 34.3929154], [-99.0117688, 34.3929122]]]}, "properties": {"osm_id": 1163938497, "building": "yes", "name": "", "height": null, "height_m": null, "levels": null, "tract_id": "40141070300", "tract_name": "703", "tags": {"building": "yes"}}}, {"type": "Feature", "geometry": {"type": "Polygon", "coordinates": [[[-99.0111111, 34.3922627], [-99.011279, 34.3922627], [-99.011279, 34.3925288], [-99.0111111, 34.3925288], [-99.0111111, 34.3922627]]]}, "properties": {"osm_id": 1163938498, "building": "yes", "name": "", "height": null, "height_m": null, "levels": null, "tract_id": "40141070300", "tract_name": "703", "tags": {"building": "yes"}}}, {"type": "Feature", "geometry": {"type": "Polygon", "coordinates": [[[-99.017572, 34.3941217], [-99.017642, 34.3941208], [-99.0176434, 34.3941872], [-99.0175733, 34.3941881], [-99.017572, 34.3941217]]]}, "properties": {"osm_id": 1163938514, "building": "yes", "name": "", "height": null, "height_m": null, "levels": null, "tract_id": "40141070300", "tract_name": "703", "tags": {"building": "yes"}}}, {"type": "Feature", "geometry": {"type": "Polygon", "coordinates": [[[-99.0179806, 34.3942636], [-99.0181058, 34.3942636], [-99.0181058, 34.3943708], [-99.0179806, 34.3943708], [-99.0179806, 34.3942636]]]}, "properties": {"osm_id": 1163938515, "building": "yes", "name": "", "height": null, "height_m": null, "levels": null, "tract_id": "40141070300", "tract_name": "703", "tags": {"building": "yes"}}}, {"type": "Feature", "geometry": {"type": "Polygon", "coordinates": [[[-99.0186549, 34.3932784], [-99.0185159, 34.3932796], [-99.0185148, 34.3931879], [-99.0186537, 34.3931867], [-99.0186549, 34.3932784]]]}, "properties": {"osm_id": 1163938516, "building": "yes", "name": "", "height": null, "height_m": null, "levels": null, "tract_id": "40141070300", "tract_name": "703", "tags": {"building": "yes"}}}, {"type": "Feature", "geometry": {"type": "Polygon", "coordinates": [[[-99.0097922, 34.4086612], [-99.0098626, 34.408609], [-99.0099458, 34.4086853], [-99.0098754, 34.4087375], [-99.0097922, 34.4086612]]]}, "properties": {"osm_id": 1163938533, "building": "yes", "name": "", "height": null, "height_m": null, "levels": null, "tract_id": "40141070300", "tract_name": "703", "tags": {"building": "yes"}}}, {"type": "Feature", "geometry": {"type": "Polygon", "coordinates": [[[-99.0101114, 34.4086048], [-99.0102563, 34.4086038], [-99.0102577, 34.4087477], [-99.0101127, 34.4087486], [-99.0101114, 34.4086048]]]}, "properties": {"osm_id": 1163938534, "building": "yes", "name": "", "height": null, "height_m": null, "levels": null, "tract_id": "40141070300", "tract_name": "703", "tags": {"building": "yes"}}}, {"type": "Feature", "geometry": {"type": "Polygon", "coordinates": [[[-99.0095037, 34.4076615], [-99.0093397, 34.407703], [-99.0093105, 34.4076243], [-99.0094745, 34.4075829], [-99.0095037, 34.4076615]]]}, "properties": {"osm_id": 1163938535, "building": "yes", "name": "", "height": null, "height_m": null, "levels": null, "tract_id": "40141070300", "tract_name": "703", "tags": {"building": "yes"}}}, {"type": "Feature", "geometry": {"type": "Polygon", "coordinates": [[[-99.0095428, 34.4078324], [-99.0094918, 34.4078407], [-99.0094833, 34.4078054], [-99.0095343, 34.4077971], [-99.0095428, 34.4078324]]]}, "properties": {"osm_id": 1163938536, "building": "yes", "name": "", "height": null, "height_m": null, "levels": null, "tract_id": "40141070300", "tract_name": "703", "tags": {"building": "yes"}}}, {"type": "Feature", "geometry": {"type": "Polygon", "coordinates": [[[-99.009608, 34.4081059], [-99.0094677, 34.4081536], [-99.0094242, 34.4080666], [-99.0095646, 34.4080189], [-99.009608, 34.4081059]]]}, "properties": {"osm_id": 1163938537, "building": "yes", "name": "", "height": null, "height_m": null, "levels": null, "tract_id": "40141070300", "tract_name": "703", "tags": {"building": "yes"}}}, {"type": "Feature", "geometry": {"type": "Polygon", "coordinates": [[[-99.0088162, 34.4079987], [-99.0087845, 34.4078973], [-99.0089277, 34.4078668], [-99.0089594, 34.4079682], [-99.0088162, 34.4079987]]]}, "properties": {"osm_id": 1163938538, "building": "yes", "name": "", "height": null, "height_m": null, "levels": null, "tract_id": "40141070300", "tract_name": "703", "tags": {"building": "yes"}}}, {"type": "Feature", "geometry": {"type": "Polygon", "coordinates": [[[-99.0091728, 34.407843], [-99.0090514, 34.4079205], [-99.0089765, 34.4078406], [-99.0090979, 34.4077632], [-99.0091728, 34.407843]]]}, "properties": {"osm_id": 1163938539, "building": "yes", "name": "", "height": null, "height_m": null, "levels": null, "tract_id": "40141070300", "tract_name": "703", "tags": {"building": "yes"}}}, {"type": "Feature", "geometry": {"type": "Polygon", "coordinates": [[[-99.0067063, 34.4040461], [-99.006713, 34.4042452], [-99.006509, 34.4042499], [-99.0065023, 34.4040507], [-99.0067063, 34.4040461]]]}, "properties": {"osm_id": 1163938540, "building": "yes", "name": "", "height": null, "height_m": null, "levels": null, "tract_id": "40141070300", "tract_name": "703", "tags": {"building": "yes"}}}, {"type": "Feature", "geometry": {"type": "Polygon", "coordinates": [[[-99.014177, 34.4044325], [-99.0142325, 34.4043709], [-99.0143103, 34.4044187], [-99.0142547, 34.4044803], [-99.014177, 34.4044325]]]}, "properties": {"osm_id": 1163938543, "building": "yes", "name": "", "height": null, "height_m": null, "levels": null, "tract_id": "40141070300", "tract_name": "703", "tags": {"building": "yes"}}}, {"type": "Feature", "geometry": {"type": "Polygon", "coordinates": [[[-99.0117958, 34.4026322], [-99.0119023, 34.4026301], [-99.011908, 34.4028312], [-99.0118015, 34.4028333], [-99.0117958, 34.4026322]]]}, "properties": {"osm_id": 1163938544, "building": "yes", "name": "", "height": null, "height_m": null, "levels": null, "tract_id": "40141070300", "tract_name": "703", "tags": {"building": "yes"}}}, {"type": "Feature", "geometry": {"type": "Polygon", "coordinates": [[[-99.0165942, 34.4005603], [-99.0163903, 34.4005634], [-99.0163876, 34.4004427], [-99.0165915, 34.4004395], [-99.0165942, 34.4005603]]]}, "properties": {"osm_id": 1163938545, "building": "yes", "name": "", "height": null, "height_m": null, "levels": null, "tract_id": "40141070300", "tract_name": "703", "tags": {"building": "yes"}}}, {"type": "Feature", "geometry": {"type": "Polygon", "coordinates": [[[-99.0173078, 34.3998965], [-99.017428, 34.3999207], [-99.0173516, 34.4001796], [-99.0172313, 34.4001555], [-99.0173078, 34.3998965]]]}, "properties": {"osm_id": 1163938546, "building": "yes", "name": "", "height": null, "height_m": null, "levels": null, "tract_id": "40141070300", "tract_name": "703", "tags": {"building": "yes"}}}, {"type": "Feature", "geometry": {"type": "Polygon", "coordinates": [[[-99.0222129, 34.3999609], [-99.0220365, 34.3999695], [-99.0220334, 34.3999259], [-99.0222098, 34.3999173], [-99.0222129, 34.3999609]]]}, "properties": {"osm_id": 1163938547, "building": "yes", "name": "", "height": null, "height_m": null, "levels": null, "tract_id": "40141070300", "tract_name": "703", "tags": {"building": "yes"}}}, {"type": "Feature", "geometry": {"type": "Polygon", "coordinates": [[[-99.0196594, 34.397617], [-99.0196615, 34.3975582], [-99.0197755, 34.397561], [-99.0197734, 34.3976198], [-99.0196594, 34.397617]]]}, "properties": {"osm_id": 1163938548, "building": "yes", "name": "", "height": null, "height_m": null, "levels": null, "tract_id": "40141070300", "tract_name": "703", "tags": {"building": "yes"}}}, {"type": "Feature", "geometry": {"type": "Polygon", "coordinates": [[[-99.0203528, 34.3972766], [-99.0203512, 34.3972416], [-99.0204527, 34.3972384], [-99.0204543, 34.3972735], [-99.0203528, 34.3972766]]]}, "properties": {"osm_id": 1163938549, "building": "yes", "name": "", "height": null, "height_m": null, "levels": null, "tract_id": "40141070300", "tract_name": "703", "tags": {"building": "yes"}}}, {"type": "Feature", "geometry": {"type": "Polygon", "coordinates": [[[-99.0211587, 34.3973055], [-99.0211595, 34.3972139], [-99.0212641, 34.3972144], [-99.0212633, 34.397306], [-99.0211587, 34.3973055]]]}, "properties": {"osm_id": 1163938550, "building": "yes", "name": "", "height": null, "height_m": null, "levels": null, "tract_id": "40141070300", "tract_name": "703", "tags": {"building": "yes"}}}, {"type": "Feature", "geometry": {"type": "Polygon", "coordinates": [[[-99.0213861, 34.3970482], [-99.0213844, 34.3970013], [-99.0214528, 34.3969997], [-99.0214545, 34.3970465], [-99.0213861, 34.3970482]]]}, "properties": {"osm_id": 1163938551, "building": "yes", "name": "", "height": null, "height_m": null, "levels": null, "tract_id": "40141070300", "tract_name": "703", "tags": {"building": "yes"}}}, {"type": "Feature", "geometry": {"type": "Polygon", "coordinates": [[[-99.0221038, 34.3969562], [-99.0221975, 34.3969536], [-99.0222022, 34.3970686], [-99.0221086, 34.3970712], [-99.0221038, 34.3969562]]]}, "properties": {"osm_id": 1163938552, "building": "yes", "name": "", "height": null, "height_m": null, "levels": null, "tract_id": "40141070300", "tract_name": "703", "tags": {"building": "yes"}}}, {"type": "Feature", "geometry": {"type": "Polygon", "coordinates": [[[-99.0055999, 34.4002844], [-99.0057717, 34.4002822], [-99.0057757, 34.4005002], [-99.0056039, 34.4005024], [-99.0055999, 34.4002844]]]}, "properties": {"osm_id": 1163938571, "building": "yes", "name": "", "height": null, "height_m": null, "levels": null, "tract_id": "40141070300", "tract_name": "703", "tags": {"building": "yes"}}}]}