{"type": "FeatureCollection", "features": [{"type": "Feature", "geometry": {"type": "Polygon", "coordinates": [[[-95.7675592, 35.996919], [-95.7675325, 35.9969231], [-95.7675265, 35.9968979], [-95.7675532, 35.9968937], [-95.7675592, 35.996919]]]}, "properties": {"osm_id": 734855178, "building": "yes", "name": "", "height": null, "height_m": null, "levels": null, "tract_id": "40143007535", "tract_name": "75.35", "tags": {"building": "yes"}}}, {"type": "Feature", "geometry": {"type": "Polygon", "coordinates": [[[-95.765698, 35.9969952], [-95.7656811, 35.9969683], [-95.7657076, 35.9969574], [-95.7657245, 35.9969843], [-95.765698, 35.9969952]]]}, "properties": {"osm_id": 734855179, "building": "yes", "name": "", "height": null, "height_m": null, "levels": null, "tract_id": "40143007535", "tract_name": "75.35", "tags": {"building": "yes"}}}, {"type": "Feature", "geometry": {"type": "Polygon", "coordinates": [[[-95.7658778, 35.9974193], [-95.7658327, 35.9974205], [-95.7658311, 35.9973792], [-95.7658762, 35.997378], [-95.7658778, 35.9974193]]]}, "properties": {"osm_id": 734855180, "building": "yes", "name": "", "height": null, "height_m": null, "levels": null, "tract_id": "40143007535", "tract_name": "75.35", "tags": {"building": "yes"}}}, {"type": "Feature", "geometry": {"type": "Polygon", "coordinates": [[[-95.7657379, 35.9974195], [-95.7655921, 35.9974197], [-95.765592, 35.9973824], [-95.7657378, 35.9973821], [-95.7657379, 35.9974195]]]}, "properties": {"osm_id": 734855181, "building": "yes", "name": "", "height": null, "height_m": null, "levels": null, "tract_id": "40143007535", "tract_name": "75.35", "tags": {"building": "yes"}}}, {"type": "Feature", "geometry": {"type": "Polygon", "coordinates": [[[-95.7671343, 35.9994375], [-95.7670207, 35.9994397], [-95.7670186, 35.9993691], [-95.7671322, 35.9993669], [-95.7671343, 35.9994375]]]}, "properties": {"osm_id": 734855182, "building": "yes", "name": "", "height": null, "height_m": null, "levels": null, "tract_id": "40143007535", "tract_name": "75.35", "tags": {"building": "yes"}}}, {"type": "Feature", "geometry": {"type": "Polygon", "coordinates": [[[-95.7671397, 35.9995716], [-95.7670552, 35.9995737], [-95.7670523, 35.9995015], [-95.7671368, 35.9994993], [-95.7671397, 35.9995716]]]}, "properties": {"osm_id": 734855183, "building": "yes", "name": "", "height": null, "height_m": null, "levels": null, "tract_id": "40143007535", "tract_name": "75.35", "tags": {"building": "yes"}}}, {"type": "Feature", "geometry": {"type": "Polygon", "coordinates": [[[-95.7669029, 35.9995061], [-95.7667947, 35.9995072], [-95.7667935, 35.9994282], [-95.7669018, 35.9994271], [-95.7669029, 35.9995061]]]}, "properties": {"osm_id": 734855184, "building": "yes", "name": "", "height": null, "height_m": null, "levels": null, "tract_id": "40143007535", "tract_name": "75.35", "tags": {"building": "yes"}}}, {"type": "Feature", "geometry": {"type": "Polygon", "coordinates": [[[-95.7666515, 35.9997337], [-95.7666525, 35.9999122], [-95.766568, 35.9999125], [-95.766568, 35.9999279], [-95.7664789, 35.9999282], [-95.7664788, 35.9999133], [-95.766395, 35.9999136], [-95.7663946, 35.9998347], [-95.7665575, 35.9998342], [-95.7665569, 35.999734], [-95.7666515, 35.9997337]]]}, "properties": {"osm_id": 734855185, "building": "yes", "name": "", "height": null, "height_m": null, "levels": null, "tract_id": "40143007535", "tract_name": "75.35", "tags": {"building": "yes"}}}, {"type": "Feature", "geometry": {"type": "Polygon", "coordinates": [[[-95.7659799, 35.9999316], [-95.7659105, 35.9999319], [-95.7659106, 35.9999474], [-95.7658059, 35.9999479], [-95.7658058, 35.9999323], [-95.7657168, 35.9999327], [-95.7657162, 35.9998331], [-95.7658196, 35.9998326], [-95.7658192, 35.999784], [-95.7659345, 35.9997834], [-95.7659349, 35.999834], [-95.7659792, 35.9998338], [-95.7659799, 35.9999316]]]}, "properties": {"osm_id": 734855186, "building": "yes", "name": "", "height": null, "height_m": null, "levels": null, "tract_id": "40143007535", "tract_name": "75.35", "tags": {"building": "yes"}}}, {"type": "Feature", "geometry": {"type": "Polygon", "coordinates": [[[-95.7656578, 35.9997036], [-95.7656103, 35.9997035], [-95.7656104, 35.9996743], [-95.7656579, 35.9996744], [-95.7656578, 35.9997036]]]}, "properties": {"osm_id": 734855187, "building": "yes", "name": "", "height": null, "height_m": null, "levels": null, "tract_id": "40143007535", "tract_name": "75.35", "tags": {"building": "yes"}}}, {"type": "Feature", "geometry": {"type": "Polygon", "coordinates": [[[-95.7651664, 35.9996316], [-95.7651649, 35.9995346], [-95.7651251, 35.999535], [-95.765124, 35.9994594], [-95.7652418, 35.9994582], [-95.7652434, 35.9995651], [-95.7653015, 35.9995645], [-95.7653021, 35.9996023], [-95.7652435, 35.9996029], [-95.7652439, 35.9996308], [-95.7651664, 35.9996316]]]}, "properties": {"osm_id": 734855188, "building": "yes", "name": "", "height": null, "height_m": null, "levels": null, "tract_id": "40143007535", "tract_name": "75.35", "tags": {"building": "yes"}}}, {"type": "Feature", "geometry": {"type": "Polygon", "coordinates": [[[-95.7645002, 35.9996397], [-95.7645006, 35.999497], [-95.764338, 35.9994967], [-95.7643376, 35.9996394], [-95.7645002, 35.9996397]]]}, "properties": {"osm_id": 734855189, "building": "yes", "name": "", "height": null, "height_m": null, "levels": null, "tract_id": "40143007535", "tract_name": "75.35", "tags": {"building": "yes"}}}, {"type": "Feature", "geometry": {"type": "Polygon", "coordinates": [[[-95.7640518, 35.9999457], [-95.7640527, 35.9997592], [-95.7640619, 35.9997592], [-95.7640619, 35.9997375], [-95.7641516, 35.9997377], [-95.7641515, 35.999761], [-95.7641584, 35.999761], [-95.7641582, 35.9997912], [-95.7641985, 35.9997913], [-95.7641988, 35.9997213], [-95.764276, 35.9997215], [-95.7642757, 35.9997938], [-95.7643437, 35.999794], [-95.7643433, 35.9998834], [-95.7642662, 35.9998832], [-95.7642662, 35.9998758], [-95.7641565, 35.9998755], [-95.7641562, 35.999946], [-95.7640518, 35.9999457]]]}, "properties": {"osm_id": 734855190, "building": "yes", "name": "", "height": null, "height_m": null, "levels": null, "tract_id": "40143007535", "tract_name": "75.35", "tags": {"building": "yes"}}}, {"type": "Feature", "geometry": {"type": "Polygon", "coordinates": [[[-95.7624341, 36.0000648], [-95.762436, 35.9999624], [-95.7625179, 35.9999633], [-95.762516, 36.0000658], [-95.7624341, 36.0000648]]]}, "properties": {"osm_id": 734855191, "building": "yes", "name": "", "height": null, "height_m": null, "levels": null, "tract_id": "40143007535", "tract_name": "75.35", "tags": {"building": "yes"}}}, {"type": "Feature", "geometry": {"type": "Polygon", "coordinates": [[[-95.7790716, 35.989149], [-95.7788664, 35.9891497], [-95.7788646, 35.9890645], [-95.7787292, 35.9890645], [-95.7787266, 35.9889958], [-95.7786637, 35.9889951], [-95.7786629, 35.9888447], [-95.7787776, 35.988845], [-95.7787776, 35.9888388], [-95.7788772, 35.9888388], [-95.7788777, 35.9888466], [-95.778891, 35.9888466], [-95.778892, 35.9888738], [-95.7790271, 35.9888713], [-95.7790271, 35.9888816], [-95.7790688, 35.9888795], [-95.7790698, 35.9889729], [-95.7790587, 35.9889729], [-95.7790581, 35.9889877], [-95.7790708, 35.9889877], [-95.7790716, 35.989149]]]}, "properties": {"osm_id": 803414018, "building": "yes", "name": "Top Dog Ranch", "height": null, "height_m": null, "levels": null, "tract_id": "40143007535", "tract_name": "75.35", "tags": {"amenity": "animal_boarding", "animal_boarding": "dog", "building": "yes", "name": "Top Dog Ranch", "opening_hours": "Mo-Fr 07:30-18:00; Sa,Su 08:00-09:00,15:00-18:00"}}}, {"type": "Feature", "geometry": {"type": "Polygon", "coordinates": [[[-95.7969094, 35.9899697], [-95.7968752, 35.9899698], [-95.7968755, 35.9899664], [-95.796645, 35.9899667], [-95.7966426, 35.9893796], [-95.7967151, 35.9893787], [-95.7967149, 35.9893577], [-95.7968076, 35.9893572], [-95.7968088, 35.9893643], [-95.7968757, 35.9893617], [-95.7968759, 35.9893482], [-95.796924, 35.989348], [-95.7969216, 35.9893844], [-95.7969067, 35.9893843], [-95.7969068, 35.9893952], [-95.796907, 35.9894406], [-95.7969141, 35.9894401], [-95.7969136, 35.9894627], [-95.7969123, 35.9895153], [-95.7969058, 35.9895147], [-95.7969062, 35.9895298], [-95.7969078, 35.989597], [-95.7969086, 35.9896325], [-95.7969221, 35.989633], [-95.7969228, 35.9896638], [-95.7969239, 35.9897145], [-95.7969081, 35.9897148], [-95.7969074, 35.9897978], [-95.7969071, 35.9898328], [-95.796913, 35.9898329], [-95.796913, 35.9898667], [-95.796913, 35.9899053], [-95.7969066, 35.9899058], [-95.7969078, 35.9899332], [-95.7969094, 35.9899697]]]}, "properties": {"osm_id": 869890880, "building": "commercial", "name": "", "height": null, "height_m": null, "levels": null, "tract_id": "40143007535", "tract_name": "75.35", "tags": {"building": "commercial", "nohousenumber": "yes"}}}, {"type": "Feature", "geometry": {"type": "Polygon", "coordinates": [[[-95.7962465, 35.9890023], [-95.7962186, 35.9890019], [-95.7962184, 35.9889817], [-95.7961447, 35.9889821], [-95.7961434, 35.9887756], [-95.7962461, 35.988775], [-95.7962465, 35.9890023]]]}, "properties": {"osm_id": 902530698, "building": "commercial", "name": "Daylight Donuts", "height": null, "height_m": null, "levels": null, "tract_id": "40143007535", "tract_name": "75.35", "tags": {"addr:housenumber": "500", "addr:street": "West Tucson Street", "amenity": "fast_food", "brand": "Daylight Donuts", "brand:wikidata": "Q48970508", "building": "commercial", "cuisine": "donut", "email": "tddonuts@att.net", "name": "Daylight Donuts", "opening_hours": "Mo-Su 05:00-11:00", "phone": "+1 918 455 4599", "takeaway": "yes"}}}, {"type": "Feature", "geometry": {"type": "Polygon", "coordinates": [[[-95.796762, 35.9890073], [-95.7966506, 35.9890037], [-95.7966522, 35.9888966], [-95.7966532, 35.9888341], [-95.7966214, 35.9888326], [-95.7966205, 35.9887496], [-95.7966045, 35.9887489], [-95.7966019, 35.9886916], [-95.7966107, 35.9886923], [-95.796609, 35.9886766], [-95.7966603, 35.9886801], [-95.7966603, 35.9886902], [-95.7969098, 35.9886959], [-95.796908, 35.9887732], [-95.7969293, 35.9887768], [-95.7969284, 35.9888333], [-95.7967629, 35.9888333], [-95.7967626, 35.9888966], [-95.796762, 35.9890073]]]}, "properties": {"osm_id": 902530701, "building": "commercial", "name": "AVB Bank", "height": null, "height_m": null, "levels": null, "tract_id": "40143007535", "tract_name": "75.35", "tags": {"addr:housenumber": "6401", "addr:street": "South Elm Place", "amenity": "bank", "atm": "yes", "building": "commercial", "name": "AVB Bank", "opening_hours": "Mo-Fr 07:30-18:00"}}}, {"type": "Feature", "geometry": {"type": "Polygon", "coordinates": [[[-95.7941885, 35.9933323], [-95.7940591, 35.993366], [-95.7940637, 35.9933872], [-95.7938018, 35.993457], [-95.793788, 35.9934308], [-95.7937541, 35.993437], [-95.7936431, 35.9931591], [-95.7935538, 35.9929559], [-95.7935923, 35.9929472], [-95.7935291, 35.9927864], [-95.7939959, 35.9926617], [-95.7941238, 35.9929721], [-95.7941007, 35.9929783], [-95.7940745, 35.9930182], [-95.7940575, 35.993022], [-95.7941885, 35.9933323]]]}, "properties": {"osm_id": 902530705, "building": "church", "name": "Life.Church", "height": null, "height_m": null, "levels": null, "tract_id": "40143007535", "tract_name": "75.35", "tags": {"building": "church", "name": "Life.Church"}}}, {"type": "Feature", "geometry": {"type": "Polygon", "coordinates": [[[-95.7970591, 35.9987278], [-95.7970046, 35.9987279], [-95.7970047, 35.9987627], [-95.796597, 35.9987637], [-95.7965964, 35.9986108], [-95.7966688, 35.9986106], [-95.7967553, 35.9986104], [-95.7967551, 35.9985666], [-95.796755, 35.9985561], [-95.7969736, 35.9985555], [-95.7969739, 35.9986098], [-95.7970041, 35.9986097], [-95.7970044, 35.9986987], [-95.797059, 35.9986986], [-95.7970591, 35.9987278]]]}, "properties": {"osm_id": 902873699, "building": "yes", "name": "Kinetic", "height": null, "height_m": null, "levels": null, "tract_id": "40143007535", "tract_name": "75.35", "tags": {"alt_name": "Windstream", "building": "yes", "name": "Kinetic", "telecom": "exchange"}}}, {"type": "Feature", "geometry": {"type": "Polygon", "coordinates": [[[-95.7950047, 35.9948772], [-95.7949291, 35.994868], [-95.7949165, 35.9949559], [-95.7949921, 35.9949642], [-95.7950047, 35.9948772]]]}, "properties": {"osm_id": 910634334, "building": "yes", "name": "", "height": null, "height_m": null, "levels": null, "tract_id": "40143007535", "tract_name": "75.35", "tags": {"amenity": "toilets", "building": "yes"}}}, {"type": "Feature", "geometry": {"type": "Polygon", "coordinates": [[[-95.7723261, 35.9894496], [-95.7723077, 35.9895126], [-95.7723013, 35.9895112], [-95.7722942, 35.9895348], [-95.7722155, 35.9895188], [-95.7722226, 35.9894967], [-95.7721002, 35.9894714], [-95.7721111, 35.9894341], [-95.7721164, 35.9894348], [-95.7721258, 35.9894019], [-95.7721219, 35.9894013], [-95.7721354, 35.9893558], [-95.7723074, 35.9893886], [-95.7722968, 35.9894258], [-95.7723132, 35.9894287], [-95.7723081, 35.989447], [-95.7723261, 35.9894496]]]}, "properties": {"osm_id": 950831200, "building": "yes", "name": "", "height": null, "height_m": null, "levels": null, "tract_id": "40143007535", "tract_name": "75.35", "tags": {"building": "yes"}}}, {"type": "Feature", "geometry": {"type": "Polygon", "coordinates": [[[-95.7788254, 35.9901932], [-95.7788968, 35.9901935], [-95.7788974, 35.9901471], [-95.778826, 35.9901465], [-95.7788254, 35.9901932]]]}, "properties": {"osm_id": 972106293, "building": "service", "name": "", "height": null, "height_m": null, "levels": null, "tract_id": "40143007535", "tract_name": "75.35", "tags": {"building": "service"}}}, {"type": "Feature", "geometry": {"type": "Polygon", "coordinates": [[[-95.7968431, 35.9928028], [-95.7967943, 35.9928022], [-95.7967918, 35.9927985], [-95.7965895, 35.9927933], [-95.7965898, 35.9927555], [-95.796582, 35.9927546], [-95.7965807, 35.9927466], [-95.7965796, 35.9926592], [-95.7965969, 35.9926604], [-95.7965964, 35.9926456], [-95.7967687, 35.9926506], [-95.7967689, 35.9926416], [-95.796852, 35.9926441], [-95.7968431, 35.9928028]]]}, "properties": {"osm_id": 1157796198, "building": "yes", "name": "", "height": null, "height_m": null, "levels": null, "tract_id": "40143007535", "tract_name": "75.35", "tags": {"addr:city": "Broken Arrow", "addr:housenumber": "5795", "addr:postcode": "74011", "addr:state": "OK", "addr:street": "South Elm Place", "amenity": "clinic", "building": "yes", "healthcare": "clinic", "website": "https://www.life.church/"}}}, {"type": "Feature", "geometry": {"type": "Polygon", "coordinates": [[[-95.7623278, 35.9960679], [-95.7623133, 35.9960678], [-95.7623125, 35.9961187], [-95.7623116, 35.9961786], [-95.7623097, 35.9963003], [-95.7620732, 35.9962979], [-95.762075, 35.9961762], [-95.7620759, 35.9961164], [-95.7620767, 35.9960655], [-95.7620508, 35.9960652], [-95.7620537, 35.9958738], [-95.7623308, 35.9958766], [-95.7623278, 35.9960679]]]}, "properties": {"osm_id": 1273496281, "building": "fire_station", "name": "Broken Arrow Fire Station #3", "height": null, "height_m": null, "levels": null, "tract_id": "40143007535", "tract_name": "75.35", "tags": {"addr:housenumber": "5420", "addr:postcode": "74011", "addr:street": "South 23rd Street", "amenity": "fire_station", "building": "fire_station", "name": "Broken Arrow Fire Station #3", "operator": "City of Broken Arrow", "operator:type": "government", "operator:wikidata": "Q835810", "ref": "3"}}}, {"type": "Feature", "geometry": {"type": "Polygon", "coordinates": [[[-95.7949015, 35.9891959], [-95.7950869, 35.9891958], [-95.7950869, 35.9891447], [-95.7950678, 35.9891447], [-95.7950678, 35.9891199], [-95.7951053, 35.9891198], [-95.7951053, 35.9890536], [-95.7948719, 35.9890537], [-95.7948719, 35.9891102], [-95.7949015, 35.9891101], [-95.7949015, 35.9891959]]]}, "properties": {"osm_id": 1317039358, "building": "house", "name": "", "height": null, "height_m": null, "levels": null, "tract_id": "40143007535", "tract_name": "75.35", "tags": {"addr:housenumber": "6319", "addr:postcode": "74011", "addr:street": "South Date Place", "building": "house"}}}, {"type": "Feature", "geometry": {"type": "Polygon", "coordinates": [[[-95.7967465, 35.9902957], [-95.7968188, 35.9902935], [-95.796817, 35.9902545], [-95.7969175, 35.9902514], [-95.7969135, 35.9901659], [-95.7968478, 35.9901679], [-95.7968455, 35.9901191], [-95.7967384, 35.9901224], [-95.7967465, 35.9902957]]]}, "properties": {"osm_id": 1317039359, "building": "house", "name": "", "height": null, "height_m": null, "levels": null, "tract_id": "40143007535", "tract_name": "75.35", "tags": {"addr:postcode": "74011", "addr:street": "West Quanah Place", "building": "house"}}}, {"type": "Feature", "geometry": {"type": "Polygon", "coordinates": [[[-95.7957938, 35.9903003], [-95.7957533, 35.990319], [-95.7958087, 35.9903976], [-95.7959484, 35.9903331], [-95.7958935, 35.9902553], [-95.7958503, 35.9902753], [-95.7958341, 35.9902523], [-95.7957781, 35.9902781], [-95.7957938, 35.9903003]]]}, "properties": {"osm_id": 1317039360, "building": "house", "name": "", "height": null, "height_m": null, "levels": null, "tract_id": "40143007535", "tract_name": "75.35", "tags": {"addr:housenumber": "507", "addr:postcode": "74011", "addr:street": "West Quanah Place", "building": "house"}}}, {"type": "Feature", "geometry": {"type": "Polygon", "coordinates": [[[-95.7955901, 35.9890384], [-95.7954748, 35.9890396], [-95.7954755, 35.9890787], [-95.7954379, 35.9890791], [-95.7954392, 35.9891572], [-95.7956537, 35.9891549], [-95.7956514, 35.9890095], [-95.7955897, 35.9890102], [-95.7955901, 35.9890384]]]}, "properties": {"osm_id": 1317039361, "building": "house", "name": "", "height": null, "height_m": null, "levels": null, "tract_id": "40143007535", "tract_name": "75.35", "tags": {"addr:housenumber": "6318", "addr:postcode": "74011", "addr:street": "South Date Place", "building": "house"}}}, {"type": "Feature", "geometry": {"type": "Polygon", "coordinates": [[[-95.7954839, 35.9889306], [-95.795654, 35.9889284], [-95.7956517, 35.9888091], [-95.795436, 35.9888118], [-95.7954372, 35.9888715], [-95.7954828, 35.9888709], [-95.7954839, 35.9889306]]]}, "properties": {"osm_id": 1317039362, "building": "house", "name": "", "height": null, "height_m": null, "levels": null, "tract_id": "40143007535", "tract_name": "75.35", "tags": {"addr:housenumber": "6402", "addr:postcode": "74011", "addr:street": "South Date Place", "building": "house"}}}, {"type": "Feature", "geometry": {"type": "Polygon", "coordinates": [[[-95.7956078, 35.9895945], [-95.7954749, 35.989597], [-95.7954771, 35.9896718], [-95.7954449, 35.9896724], [-95.7954467, 35.9897353], [-95.7956117, 35.9897323], [-95.7956078, 35.9895945]]]}, "properties": {"osm_id": 1317039363, "building": "house", "name": "", "height": null, "height_m": null, "levels": null, "tract_id": "40143007535", "tract_name": "75.35", "tags": {"addr:housenumber": "6306", "addr:postcode": "74011", "addr:street": "South Date Place", "building": "house"}}}, {"type": "Feature", "geometry": {"type": "Polygon", "coordinates": [[[-95.7956635, 35.9894181], [-95.795485, 35.989416], [-95.7954844, 35.9894529], [-95.7954415, 35.9894524], [-95.7954403, 35.9895219], [-95.7956617, 35.9895244], [-95.7956635, 35.9894181]]]}, "properties": {"osm_id": 1317039364, "building": "house", "name": "", "height": null, "height_m": null, "levels": null, "tract_id": "40143007535", "tract_name": "75.35", "tags": {"addr:housenumber": "6310", "addr:postcode": "74011", "addr:street": "South Date Place", "building": "house"}}}, {"type": "Feature", "geometry": {"type": "Polygon", "coordinates": [[[-95.796356, 35.9907595], [-95.7963578, 35.9908224], [-95.7963042, 35.9908234], [-95.7963063, 35.990895], [-95.7964645, 35.9908919], [-95.7964624, 35.9908225], [-95.7965147, 35.9908215], [-95.7965128, 35.9907565], [-95.796356, 35.9907595]]]}, "properties": {"osm_id": 1317039365, "building": "yes", "name": "", "height": null, "height_m": null, "levels": null, "tract_id": "40143007535", "tract_name": "75.35", "tags": {"building": "yes"}}}, {"type": "Feature", "geometry": {"type": "Polygon", "coordinates": [[[-95.7952722, 35.9905972], [-95.7952151, 35.9905145], [-95.7950669, 35.9905815], [-95.795148, 35.9906989], [-95.7952349, 35.9906597], [-95.7952109, 35.990625], [-95.7952722, 35.9905972]]]}, "properties": {"osm_id": 1317039366, "building": "house", "name": "", "height": null, "height_m": null, "levels": null, "tract_id": "40143007535", "tract_name": "75.35", "tags": {"addr:postcode": "74011", "addr:street": "West Quanah Place", "building": "house"}}}, {"type": "Feature", "geometry": {"type": "Polygon", "coordinates": [[[-95.79508, 35.9902375], [-95.7949475, 35.9902806], [-95.7950179, 35.9904223], [-95.7951505, 35.9903792], [-95.79508, 35.9902375]]]}, "properties": {"osm_id": 1317039367, "building": "house", "name": "", "height": null, "height_m": null, "levels": null, "tract_id": "40143007535", "tract_name": "75.35", "tags": {"addr:housenumber": "6227", "addr:postcode": "74011", "addr:street": "South Date Place", "building": "house"}}}, {"type": "Feature", "geometry": {"type": "Polygon", "coordinates": [[[-95.7970105, 35.9907135], [-95.7970117, 35.9905911], [-95.79689, 35.9905902], [-95.7968897, 35.9906205], [-95.7968776, 35.9906204], [-95.7968774, 35.9906487], [-95.7968628, 35.9906486], [-95.7968621, 35.9907125], [-95.7970105, 35.9907135]]]}, "properties": {"osm_id": 1317039368, "building": "detached", "name": "", "height": null, "height_m": null, "levels": null, "tract_id": "40143007535", "tract_name": "75.35", "tags": {"building": "detached"}}}, {"type": "Feature", "geometry": {"type": "Polygon", "coordinates": [[[-95.7961278, 35.9901673], [-95.7959936, 35.9901955], [-95.7960378, 35.9903334], [-95.796141, 35.9903117], [-95.7961246, 35.9902605], [-95.7961556, 35.990254], [-95.7961278, 35.9901673]]]}, "properties": {"osm_id": 1317039369, "building": "house", "name": "", "height": null, "height_m": null, "levels": null, "tract_id": "40143007535", "tract_name": "75.35", "tags": {"addr:housenumber": "511", "addr:postcode": "74011", "addr:street": "West Quanah Place", "building": "house"}}}, {"type": "Feature", "geometry": {"type": "Polygon", "coordinates": [[[-95.7965186, 35.9905739], [-95.7963256, 35.9905698], [-95.796323, 35.99065], [-95.7963459, 35.9906505], [-95.7963445, 35.9906939], [-95.7964744, 35.9906966], [-95.7964765, 35.9906316], [-95.7965167, 35.9906324], [-95.7965186, 35.9905739]]]}, "properties": {"osm_id": 1317039370, "building": "yes", "name": "", "height": null, "height_m": null, "levels": null, "tract_id": "40143007535", "tract_name": "75.35", "tags": {"building": "yes"}}}, {"type": "Feature", "geometry": {"type": "Polygon", "coordinates": [[[-95.795852, 35.9906908], [-95.7957518, 35.9907358], [-95.7957661, 35.9907565], [-95.795733, 35.9907714], [-95.7958118, 35.9908861], [-95.795945, 35.9908261], [-95.795852, 35.9906908]]]}, "properties": {"osm_id": 1317039371, "building": "house", "name": "", "height": null, "height_m": null, "levels": null, "tract_id": "40143007535", "tract_name": "75.35", "tags": {"addr:housenumber": "510", "addr:postcode": "74011", "addr:street": "West Quanah Place", "building": "house"}}}, {"type": "Feature", "geometry": {"type": "Polygon", "coordinates": [[[-95.7965049, 35.9902852], [-95.7966792, 35.9902816], [-95.7966765, 35.9901948], [-95.7965022, 35.9901984], [-95.7965049, 35.9902852]]]}, "properties": {"osm_id": 1317039372, "building": "house", "name": "", "height": null, "height_m": null, "levels": null, "tract_id": "40143007535", "tract_name": "75.35", "tags": {"addr:housenumber": "519", "addr:postcode": "74011", "addr:street": "West Quanah Place", "building": "house"}}}, {"type": "Feature", "geometry": {"type": "Polygon", "coordinates": [[[-95.7968706, 35.9907689], [-95.79687, 35.990886], [-95.7969973, 35.9908864], [-95.7969979, 35.9907693], [-95.7968706, 35.9907689]]]}, "properties": {"osm_id": 1317039373, "building": "detached", "name": "", "height": null, "height_m": null, "levels": null, "tract_id": "40143007535", "tract_name": "75.35", "tags": {"building": "detached"}}}, {"type": "Feature", "geometry": {"type": "Polygon", "coordinates": [[[-95.7969514, 35.9901614], [-95.7969559, 35.990267], [-95.7970386, 35.9902647], [-95.7970395, 35.990284], [-95.7971309, 35.9902814], [-95.7971255, 35.9901565], [-95.7969514, 35.9901614]]]}, "properties": {"osm_id": 1317039374, "building": "house", "name": "", "height": null, "height_m": null, "levels": null, "tract_id": "40143007535", "tract_name": "75.35", "tags": {"addr:postcode": "74011", "addr:street": "West Quanah Place", "building": "house"}}}, {"type": "Feature", "geometry": {"type": "Polygon", "coordinates": [[[-95.7948175, 35.9905994], [-95.7948196, 35.9907046], [-95.7950099, 35.9907022], [-95.7950079, 35.9905969], [-95.7948175, 35.9905994]]]}, "properties": {"osm_id": 1317039375, "building": "house", "name": "", "height": null, "height_m": null, "levels": null, "tract_id": "40143007535", "tract_name": "75.35", "tags": {"addr:postcode": "74011", "addr:street": "West Quanah Place", "building": "house"}}}, {"type": "Feature", "geometry": {"type": "Polygon", "coordinates": [[[-95.7956139, 35.9899849], [-95.7955207, 35.989986], [-95.7955217, 35.9900398], [-95.7955076, 35.99004], [-95.7955083, 35.990073], [-95.7954493, 35.9900737], [-95.7954505, 35.990141], [-95.7956168, 35.9901389], [-95.7956139, 35.9899849]]]}, "properties": {"osm_id": 1317039376, "building": "house", "name": "", "height": null, "height_m": null, "levels": null, "tract_id": "40143007535", "tract_name": "75.35", "tags": {"addr:housenumber": "6226", "addr:postcode": "74011", "addr:street": "South Date Place", "building": "house"}}}, {"type": "Feature", "geometry": {"type": "Polygon", "coordinates": [[[-95.7954486, 35.9892069], [-95.7954457, 35.9893273], [-95.7955836, 35.9893295], [-95.7955865, 35.9892091], [-95.7954486, 35.9892069]]]}, "properties": {"osm_id": 1317039377, "building": "house", "name": "", "height": null, "height_m": null, "levels": null, "tract_id": "40143007535", "tract_name": "75.35", "tags": {"addr:housenumber": "6314", "addr:postcode": "74011", "addr:street": "South Date Place", "building": "house"}}}, {"type": "Feature", "geometry": {"type": "Polygon", "coordinates": [[[-95.7951089, 35.989911], [-95.7951076, 35.9898459], [-95.7949333, 35.9898482], [-95.794934, 35.9898829], [-95.7948884, 35.9898835], [-95.7948902, 35.9899703], [-95.7950591, 35.9899681], [-95.795058, 35.9899117], [-95.7951089, 35.989911]]]}, "properties": {"osm_id": 1317039378, "building": "house", "name": "", "height": null, "height_m": null, "levels": null, "tract_id": "40143007535", "tract_name": "75.35", "tags": {"addr:housenumber": "6303", "addr:postcode": "74011", "addr:street": "South Date Place", "building": "house"}}}, {"type": "Feature", "geometry": {"type": "Polygon", "coordinates": [[[-95.795991, 35.9906454], [-95.7960157, 35.9907822], [-95.7960719, 35.9907755], [-95.7960765, 35.9908012], [-95.7961595, 35.9907914], [-95.7961313, 35.990635], [-95.796067, 35.9906426], [-95.7960659, 35.9906365], [-95.795991, 35.9906454]]]}, "properties": {"osm_id": 1317039379, "building": "house", "name": "", "height": null, "height_m": null, "levels": null, "tract_id": "40143007535", "tract_name": "75.35", "tags": {"addr:housenumber": "514", "addr:postcode": "74011", "addr:street": "West Quanah Place", "building": "house"}}}, {"type": "Feature", "geometry": {"type": "Polygon", "coordinates": [[[-95.7951031, 35.9896819], [-95.7950576, 35.9896812], [-95.7950589, 35.9896291], [-95.7948861, 35.9896262], [-95.7948832, 35.989739], [-95.7951016, 35.9897427], [-95.7951031, 35.9896819]]]}, "properties": {"osm_id": 1317039380, "building": "house", "name": "", "height": null, "height_m": null, "levels": null, "tract_id": "40143007535", "tract_name": "75.35", "tags": {"addr:housenumber": "6307", "addr:postcode": "74011", "addr:street": "South Date Place", "building": "house"}}}, {"type": "Feature", "geometry": {"type": "Polygon", "coordinates": [[[-95.7956779, 35.9903211], [-95.7955218, 35.9903951], [-95.7955894, 35.9904885], [-95.7957455, 35.9904145], [-95.7956779, 35.9903211]]]}, "properties": {"osm_id": 1317039381, "building": "house", "name": "", "height": null, "height_m": null, "levels": null, "tract_id": "40143007535", "tract_name": "75.35", "tags": {"addr:housenumber": "503", "addr:postcode": "74011", "addr:street": "West Quanah Place", "building": "house"}}}, {"type": "Feature", "geometry": {"type": "Polygon", "coordinates": [[[-95.7949926, 35.9893916], [-95.7951158, 35.9893896], [-95.7951142, 35.9893279], [-95.7951036, 35.9893281], [-95.7951017, 35.9892553], [-95.7949891, 35.9892572], [-95.7949926, 35.9893916]]]}, "properties": {"osm_id": 1317039382, "building": "house", "name": "", "height": null, "height_m": null, "levels": null, "tract_id": "40143007535", "tract_name": "75.35", "tags": {"addr:housenumber": "6315", "addr:postcode": "74011", "addr:street": "South Date Place", "building": "house"}}}, {"type": "Feature", "geometry": {"type": "Polygon", "coordinates": [[[-95.7963419, 35.990152], [-95.7963425, 35.9901812], [-95.7962433, 35.9901826], [-95.7962457, 35.9902944], [-95.796408, 35.9902921], [-95.796405, 35.9901511], [-95.7963419, 35.990152]]]}, "properties": {"osm_id": 1317039383, "building": "house", "name": "", "height": null, "height_m": null, "levels": null, "tract_id": "40143007535", "tract_name": "75.35", "tags": {"addr:housenumber": "515", "addr:postcode": "74011", "addr:street": "West Quanah Place", "building": "house"}}}, {"type": "Feature", "geometry": {"type": "Polygon", "coordinates": [[[-95.7954672, 35.9897874], [-95.7954645, 35.9898795], [-95.7954543, 35.9898793], [-95.7954524, 35.989939], [-95.7955892, 35.9899417], [-95.7955902, 35.9899086], [-95.7956147, 35.9899091], [-95.795616, 35.9898657], [-95.7955915, 35.9898652], [-95.7955937, 35.9897899], [-95.7954672, 35.9897874]]]}, "properties": {"osm_id": 1317039384, "building": "house", "name": "", "height": null, "height_m": null, "levels": null, "tract_id": "40143007535", "tract_name": "75.35", "tags": {"addr:housenumber": "6302", "addr:postcode": "74011", "addr:street": "South Date Place", "building": "house"}}}, {"type": "Feature", "geometry": {"type": "Polygon", "coordinates": [[[-95.7956002, 35.9908144], [-95.7955356, 35.9908403], [-95.7956097, 35.9909614], [-95.7957346, 35.9909114], [-95.795676, 35.9908155], [-95.7956157, 35.9908397], [-95.7956002, 35.9908144]]]}, "properties": {"osm_id": 1317039385, "building": "house", "name": "", "height": null, "height_m": null, "levels": null, "tract_id": "40143007535", "tract_name": "75.35", "tags": {"addr:postcode": "74011", "addr:street": "West Quanah Place", "building": "house"}}}, {"type": "Feature", "geometry": {"type": "Polygon", "coordinates": [[[-95.7949723, 35.9894537], [-95.7949694, 35.9895817], [-95.7950981, 35.9895836], [-95.7951001, 35.9894974], [-95.7950851, 35.9894972], [-95.795086, 35.9894553], [-95.7949723, 35.9894537]]]}, "properties": {"osm_id": 1317039386, "building": "house", "name": "", "height": null, "height_m": null, "levels": null, "tract_id": "40143007535", "tract_name": "75.35", "tags": {"addr:housenumber": "6311", "addr:postcode": "74011", "addr:street": "South Date Place", "building": "house"}}}]}