{"type": "FeatureCollection", "features": [{"type": "Feature", "geometry": {"type": "Polygon", "coordinates": [[[-95.888628, 36.0031871], [-95.8885442, 36.0031871], [-95.8884668, 36.0031871], [-95.8884028, 36.0031871], [-95.8883344, 36.0031871], [-95.8882505, 36.0031871], [-95.8882505, 36.0031246], [-95.8883344, 36.0031246], [-95.8884028, 36.0031246], [-95.8884669, 36.0031246], [-95.8885441, 36.0031246], [-95.888628, 36.0031246], [-95.888628, 36.0031871]]]}, "properties": {"osm_id": 182302038, "building": "roof", "name": "Murphy USA", "height": null, "height_m": null, "levels": null, "tract_id": "40143007636", "tract_name": "76.36", "tags": {"addr:city": "Tulsa", "addr:country": "US", "addr:housenumber": "11028", "addr:postcode": "74133", "addr:state": "OK", "addr:street": "South Memorial Drive East", "amenity": "fuel", "brand": "Murphy USA", "brand:wikidata": "Q19604459", "building": "roof", "layer": "1", "name": "Murphy USA"}}}, {"type": "Feature", "geometry": {"type": "Polygon", "coordinates": [[[-95.8894783, 36.0007463], [-95.890585, 36.0007463], [-95.890585, 36.001174], [-95.8903717, 36.001174], [-95.8903717, 36.0012923], [-95.8905215, 36.0012923], [-95.8905215, 36.0015475], [-95.890585, 36.0015475], [-95.890585, 36.001941], [-95.8903735, 36.001941], [-95.8903735, 36.0022889], [-95.8901092, 36.0022889], [-95.8901092, 36.0020465], [-95.8894783, 36.0020465], [-95.8894783, 36.0007463]]]}, "properties": {"osm_id": 248891640, "building": "warehouse", "name": "Lowe's", "height": null, "height_m": null, "levels": null, "tract_id": "40143007636", "tract_name": "76.36", "tags": {"addr:city": "Bixby", "addr:country": "US", "addr:housenumber": "11114", "addr:postcode": "74008", "addr:state": "OK", "addr:street": "South Memorial Drive East", "brand": "Lowe's", "brand:wikidata": "Q1373493", "building": "warehouse", "name": "Lowe's", "phone": "+1 918 369 8844", "shop": "doityourself", "website": "https://www.lowes.com/store/OK-Bixby/1532"}}}, {"type": "Feature", "geometry": {"type": "Polygon", "coordinates": [[[-95.8891329, 36.0053874], [-95.8902851, 36.0053839], [-95.8902832, 36.0049758], [-95.8904729, 36.0049752], [-95.890471, 36.0045738], [-95.8902937, 36.0045744], [-95.8902907, 36.0039168], [-95.8904347, 36.0039164], [-95.890434, 36.0037577], [-95.8892446, 36.0037613], [-95.889244, 36.0036338], [-95.8890583, 36.0036344], [-95.8890596, 36.0039254], [-95.8892351, 36.0039249], [-95.8892365, 36.0042419], [-95.8890632, 36.0042424], [-95.8890643, 36.0044874], [-95.8891287, 36.0044872], [-95.8891306, 36.0048839], [-95.8890607, 36.0048841], [-95.8890624, 36.0052411], [-95.8891322, 36.0052409], [-95.8891329, 36.0053874]]]}, "properties": {"osm_id": 287708083, "building": "yes", "name": "Walmart Supercenter", "height": null, "height_m": null, "levels": null, "tract_id": "40143007636", "tract_name": "76.36", "tags": {"addr:city": "Tulsa", "addr:country": "US", "addr:housenumber": "10938", "addr:postcode": "74133", "addr:state": "OK", "addr:street": "South Memorial Drive East", "brand": "Walmart", "brand:wikidata": "Q483551", "building": "yes", "name": "Walmart Supercenter", "opening_hours": "24/7", "operator": "Walmart", "payment:app:walmart": "yes", "payment:apple_pay": "no", "payment:google_pay": "no", "payment:samsung_pay": "no", "phone": "+1 918-394-4000", "ref": "1597", "ref:walmart": "1597", "sensory_friendly:accommodation": "dimmed_light;static_screens;no_pa", "sensory_friendly:conditional": "yes @ 08:00-10:00", "shop": "supermarket", "surface": "asphalt", "website": "https://www.walmart.com/store/1597-tulsa-ok"}}}, {"type": "Feature", "geometry": {"type": "Polygon", "coordinates": [[[-95.8897461, 36.0097932], [-95.8897479, 36.009444], [-95.8897246, 36.0094439], [-95.8897255, 36.0092607], [-95.8897127, 36.0092607], [-95.8896708, 36.0092276], [-95.8896711, 36.0091688], [-95.8897087, 36.0091342], [-95.8897261, 36.0091343], [-95.8897271, 36.0089516], [-95.8897489, 36.0089517], [-95.8897496, 36.0088161], [-95.8903974, 36.0088183], [-95.8903968, 36.0091546], [-95.8903942, 36.00949], [-95.8903924, 36.0097954], [-95.8897461, 36.0097932]]]}, "properties": {"osm_id": 318394587, "building": "yes", "name": "Life Time", "height": null, "height_m": null, "levels": null, "tract_id": "40143007636", "tract_name": "76.36", "tags": {"addr:city": "Tulsa", "addr:country": "US", "addr:housenumber": "10642", "addr:postcode": "74133", "addr:state": "OK", "addr:street": "South Memorial Drive East", "brand": "Life Time", "brand:wikidata": "Q6545004", "building": "yes", "leisure": "fitness_centre", "name": "Life Time", "opening_hours": "Mo-Su 04:00-24:00", "phone": "+1-918-364-8500", "website": "https://www.lifetime.life/life-time-locations/ok-south-tulsa.html"}}}, {"type": "Feature", "geometry": {"type": "Polygon", "coordinates": [[[-95.8874767, 36.0109411], [-95.8874754, 36.0108036], [-95.8876128, 36.0108028], [-95.8876123, 36.0107464], [-95.8876497, 36.0107462], [-95.8876488, 36.010637], [-95.8877335, 36.0106365], [-95.8877334, 36.0106203], [-95.8877977, 36.0106199], [-95.8877975, 36.010604], [-95.8878733, 36.0106036], [-95.8878754, 36.0108334], [-95.887857, 36.0108335], [-95.887858, 36.0109388], [-95.8874767, 36.0109411]]]}, "properties": {"osm_id": 328465865, "building": "commercial", "name": "", "height": null, "height_m": null, "levels": null, "tract_id": "40143007636", "tract_name": "76.36", "tags": {"addr:city": "Tulsa", "addr:housenumber": "8005", "addr:postcode": "74133", "addr:state": "OK", "addr:street": "East 106th Street", "building": "commercial"}}}, {"type": "Feature", "geometry": {"type": "Polygon", "coordinates": [[[-95.8872686, 36.0094318], [-95.8872682, 36.0095494], [-95.8875284, 36.00955], [-95.887528, 36.0096451], [-95.8872679, 36.0096445], [-95.8872675, 36.0097584], [-95.8869894, 36.0097578], [-95.8869896, 36.0097164], [-95.8869749, 36.0097164], [-95.8869751, 36.0096436], [-95.8869546, 36.0096436], [-95.8869549, 36.0095465], [-95.8869755, 36.0095466], [-95.8869758, 36.00947], [-95.8869905, 36.00947], [-95.8869906, 36.0094311], [-95.8872686, 36.0094318]]]}, "properties": {"osm_id": 335394413, "building": "yes", "name": "First Pryority Bank", "height": null, "height_m": null, "levels": null, "tract_id": "40143007636", "tract_name": "76.36", "tags": {"addr:city": "Tulsa", "addr:country": "US", "addr:housenumber": "10632", "addr:postcode": "74133", "addr:state": "OK", "addr:street": "South Memorial Drive East", "amenity": "bank", "atm": "yes", "building": "yes", "name": "First Pryority Bank"}}}, {"type": "Feature", "geometry": {"type": "Polygon", "coordinates": [[[-95.9036432, 36.0161818], [-95.9028611, 36.0161805], [-95.9028601, 36.0156884], [-95.9036506, 36.0156881], [-95.9036432, 36.0161818]]]}, "properties": {"osm_id": 490964898, "building": "yes", "name": "Sky Gym", "height": null, "height_m": null, "levels": null, "tract_id": "40143007636", "tract_name": "76.36", "tags": {"building": "yes", "leisure": "fitness_centre", "name": "Sky Gym"}}}, {"type": "Feature", "geometry": {"type": "Polygon", "coordinates": [[[-95.8869593, 36.0101434], [-95.88754, 36.0101467], [-95.887539, 36.0102595], [-95.887595, 36.0103105], [-95.8875319, 36.0103593], [-95.887481, 36.0103125], [-95.8869579, 36.0103095], [-95.8869593, 36.0101434]]]}, "properties": {"osm_id": 541986154, "building": "yes", "name": "", "height": null, "height_m": null, "levels": null, "tract_id": "40143007636", "tract_name": "76.36", "tags": {"building": "yes"}}}, {"type": "Feature", "geometry": {"type": "Polygon", "coordinates": [[[-95.8901189, 36.0107726], [-95.8903147, 36.0108073], [-95.8903077, 36.0108333], [-95.8903276, 36.0108369], [-95.8903115, 36.0108964], [-95.8902916, 36.0108929], [-95.8902795, 36.0109374], [-95.8900837, 36.0109027], [-95.8901189, 36.0107726]]]}, "properties": {"osm_id": 556597137, "building": "yes", "name": "", "height": null, "height_m": null, "levels": null, "tract_id": "40143007636", "tract_name": "76.36", "tags": {"building": "yes"}}}, {"type": "Feature", "geometry": {"type": "Polygon", "coordinates": [[[-95.8902812, 36.0103268], [-95.8899701, 36.0103268], [-95.8899701, 36.0101521], [-95.8902812, 36.0101521], [-95.8902812, 36.0103268]]]}, "properties": {"osm_id": 556597141, "building": "yes", "name": "", "height": null, "height_m": null, "levels": null, "tract_id": "40143007636", "tract_name": "76.36", "tags": {"building": "yes"}}}, {"type": "Feature", "geometry": {"type": "Polygon", "coordinates": [[[-95.8887135, 36.010864], [-95.8887147, 36.010692], [-95.8888413, 36.0106925], [-95.8888407, 36.0107704], [-95.8889103, 36.0107707], [-95.8889097, 36.0108595], [-95.8888702, 36.0108593], [-95.8888699, 36.0109088], [-95.8887891, 36.0109084], [-95.8887894, 36.0108644], [-95.8887135, 36.010864]]]}, "properties": {"osm_id": 556597142, "building": "yes", "name": "", "height": null, "height_m": null, "levels": null, "tract_id": "40143007636", "tract_name": "76.36", "tags": {"building": "yes"}}}, {"type": "Feature", "geometry": {"type": "Polygon", "coordinates": [[[-95.888464, 36.0089935], [-95.8884774, 36.007862], [-95.8886853, 36.0076982], [-95.8891627, 36.0077003], [-95.8891594, 36.0076097], [-95.8891728, 36.0075929], [-95.8891238, 36.007549], [-95.8891111, 36.0075588], [-95.8882206, 36.0075528], [-95.8882199, 36.0075924], [-95.888232, 36.0076125], [-95.8882313, 36.0077334], [-95.8881783, 36.0077329], [-95.888177, 36.0079802], [-95.8881609, 36.0079927], [-95.8881636, 36.0080274], [-95.8881542, 36.0080356], [-95.8881576, 36.0081647], [-95.8883299, 36.0081668], [-95.8883279, 36.0083149], [-95.8881529, 36.0083133], [-95.8881515, 36.0083773], [-95.8881596, 36.0083811], [-95.8881602, 36.0084917], [-95.8881757, 36.0085031], [-95.888177, 36.0087499], [-95.8881991, 36.0087499], [-95.8882099, 36.0087586], [-95.8882092, 36.0089409], [-95.8881998, 36.0089496], [-95.8882018, 36.0090033], [-95.8882675, 36.0090043], [-95.8882682, 36.0089935], [-95.888464, 36.0089935]]]}, "properties": {"osm_id": 556597153, "building": "retail", "name": "", "height": null, "height_m": null, "levels": null, "tract_id": "40143007636", "tract_name": "76.36", "tags": {"building": "retail"}}}, {"type": "Feature", "geometry": {"type": "Polygon", "coordinates": [[[-95.8871658, 36.0151346], [-95.8870572, 36.0151346], [-95.8870572, 36.0151272], [-95.8870572, 36.0150491], [-95.8870572, 36.0149644], [-95.8870572, 36.0148808], [-95.8870572, 36.0147985], [-95.8870572, 36.0147956], [-95.8871658, 36.0147956], [-95.8871658, 36.0147982], [-95.8871658, 36.0148805], [-95.8871658, 36.014964], [-95.8871658, 36.0150496], [-95.8871658, 36.0151274], [-95.8871658, 36.0151346]]]}, "properties": {"osm_id": 556599867, "building": "roof", "name": "", "height": null, "height_m": null, "levels": null, "tract_id": "40143007636", "tract_name": "76.36", "tags": {"building": "roof"}}}, {"type": "Feature", "geometry": {"type": "Polygon", "coordinates": [[[-95.889722, 36.0103799], [-95.8896281, 36.0103795], [-95.8896282, 36.0103605], [-95.8895706, 36.0103603], [-95.8895707, 36.0103463], [-95.8895005, 36.010346], [-95.8895009, 36.0102798], [-95.8895711, 36.0102801], [-95.8895718, 36.0101926], [-95.8897233, 36.0101933], [-95.889722, 36.0103799]]]}, "properties": {"osm_id": 562080865, "building": "yes", "name": "", "height": null, "height_m": null, "levels": null, "tract_id": "40143007636", "tract_name": "76.36", "tags": {"building": "yes"}}}, {"type": "Feature", "geometry": {"type": "Polygon", "coordinates": [[[-95.887937, 36.0101293], [-95.888232, 36.0101282], [-95.8882326, 36.010228], [-95.8879375, 36.0102291], [-95.887937, 36.0101293]]]}, "properties": {"osm_id": 562080868, "building": "yes", "name": "", "height": null, "height_m": null, "levels": null, "tract_id": "40143007636", "tract_name": "76.36", "tags": {"building": "yes"}}}, {"type": "Feature", "geometry": {"type": "Polygon", "coordinates": [[[-95.8892157, 36.0063567], [-95.887754, 36.0063513], [-95.8877553, 36.0061365], [-95.8892169, 36.0061419], [-95.8892157, 36.0063567]]]}, "properties": {"osm_id": 600450199, "building": "retail", "name": "", "height": null, "height_m": null, "levels": null, "tract_id": "40143007636", "tract_name": "76.36", "tags": {"building": "retail"}}}, {"type": "Feature", "geometry": {"type": "Polygon", "coordinates": [[[-95.8892031, 36.0060872], [-95.8892056, 36.0056325], [-95.8896732, 36.0056343], [-95.8896721, 36.0058327], [-95.889513, 36.0058322], [-95.8895115, 36.0060883], [-95.8892031, 36.0060872]]]}, "properties": {"osm_id": 600450200, "building": "retail", "name": "", "height": null, "height_m": null, "levels": null, "tract_id": "40143007636", "tract_name": "76.36", "tags": {"building": "retail"}}}, {"type": "Feature", "geometry": {"type": "Polygon", "coordinates": [[[-95.8874323, 36.0014071], [-95.8871393, 36.0014056], [-95.8871411, 36.0011696], [-95.8874341, 36.0011711], [-95.8874323, 36.0014071]]]}, "properties": {"osm_id": 704183507, "building": "retail", "name": "Advance Auto Parts", "height": null, "height_m": null, "levels": null, "tract_id": "40143007636", "tract_name": "76.36", "tags": {"addr:city": "Bixby", "addr:country": "US", "addr:housenumber": "11126", "addr:postcode": "74008", "addr:state": "OK", "addr:street": "South Memorial Drive East", "brand": "Advance Auto Parts", "brand:wikidata": "Q4686051", "building": "retail", "name": "Advance Auto Parts", "opening_hours": "Mo-Sa 07:30-20:00; Su 09:00-18:00", "shop": "car_parts", "website": "https://stores.advanceautoparts.com/ok/bixby/11126-s-memorial-dr"}}}, {"type": "Feature", "geometry": {"type": "Polygon", "coordinates": [[[-95.8947055, 36.0141984], [-95.8948884, 36.0142502], [-95.8948623, 36.0143105], [-95.8948411, 36.0143045], [-95.8948085, 36.0143797], [-95.8947969, 36.0143764], [-95.8947905, 36.0143911], [-95.8947724, 36.0143967], [-95.8947323, 36.0143854], [-95.8947075, 36.0144425], [-95.8946116, 36.0144154], [-95.8947055, 36.0141984]]]}, "properties": {"osm_id": 723006260, "building": "yes", "name": "", "height": null, "height_m": null, "levels": null, "tract_id": "40143007636", "tract_name": "76.36", "tags": {"building": "yes"}}}, {"type": "Feature", "geometry": {"type": "Polygon", "coordinates": [[[-95.8941738, 36.014071], [-95.8940034, 36.0140298], [-95.8940364, 36.0139408], [-95.8939879, 36.013929], [-95.8939961, 36.0139069], [-95.8940445, 36.0139186], [-95.8940555, 36.0138889], [-95.894172, 36.0139171], [-95.8941425, 36.013997], [-95.8941963, 36.0140101], [-95.8941738, 36.014071]]]}, "properties": {"osm_id": 723006261, "building": "yes", "name": "", "height": null, "height_m": null, "levels": null, "tract_id": "40143007636", "tract_name": "76.36", "tags": {"building": "yes"}}}, {"type": "Feature", "geometry": {"type": "Polygon", "coordinates": [[[-95.8948798, 36.0140477], [-95.8947136, 36.0140455], [-95.894715, 36.0139712], [-95.8947296, 36.0139714], [-95.8947322, 36.0138423], [-95.8948596, 36.013844], [-95.894857, 36.013973], [-95.8948813, 36.0139733], [-95.8948798, 36.0140477]]]}, "properties": {"osm_id": 723006262, "building": "yes", "name": "", "height": null, "height_m": null, "levels": null, "tract_id": "40143007636", "tract_name": "76.36", "tags": {"building": "yes"}}}, {"type": "Feature", "geometry": {"type": "Polygon", "coordinates": [[[-95.8952889, 36.0141564], [-95.8952433, 36.0141545], [-95.8952451, 36.0141267], [-95.8952907, 36.0141286], [-95.8952889, 36.0141564]]]}, "properties": {"osm_id": 723006263, "building": "yes", "name": "", "height": null, "height_m": null, "levels": null, "tract_id": "40143007636", "tract_name": "76.36", "tags": {"building": "yes"}}}, {"type": "Feature", "geometry": {"type": "Polygon", "coordinates": [[[-95.8948985, 36.0136291], [-95.8948047, 36.0136368], [-95.8947944, 36.0135546], [-95.8947135, 36.0135613], [-95.8946951, 36.0134151], [-95.894708, 36.0134141], [-95.8946979, 36.0133336], [-95.8947999, 36.0133252], [-95.8948105, 36.0134093], [-95.8948421, 36.0134067], [-95.8948604, 36.0135512], [-95.8948452, 36.0135525], [-95.8948459, 36.0135576], [-95.894889, 36.013554], [-95.8948985, 36.0136291]]]}, "properties": {"osm_id": 723006264, "building": "yes", "name": "", "height": null, "height_m": null, "levels": null, "tract_id": "40143007636", "tract_name": "76.36", "tags": {"building": "yes"}}}, {"type": "Feature", "geometry": {"type": "Polygon", "coordinates": [[[-95.8955008, 36.0139573], [-95.8954217, 36.0138494], [-95.895498, 36.0138128], [-95.8955468, 36.0138792], [-95.8955924, 36.0138573], [-95.8956206, 36.0138959], [-95.8956688, 36.0138728], [-95.8956549, 36.0138538], [-95.8957226, 36.0138213], [-95.895746, 36.0138532], [-95.8957541, 36.0138494], [-95.8958226, 36.0139429], [-95.8957467, 36.0139793], [-95.8957321, 36.0139594], [-95.8956243, 36.0140112], [-95.895563, 36.0139275], [-95.8955008, 36.0139573]]]}, "properties": {"osm_id": 723006265, "building": "yes", "name": "", "height": null, "height_m": null, "levels": null, "tract_id": "40143007636", "tract_name": "76.36", "tags": {"building": "yes"}}}, {"type": "Feature", "geometry": {"type": "Polygon", "coordinates": [[[-95.8955242, 36.0144018], [-95.8955045, 36.0143533], [-95.8955358, 36.0143449], [-95.8955237, 36.0143154], [-95.8955145, 36.0143178], [-95.895498, 36.0142773], [-95.8955618, 36.0142603], [-95.895538, 36.014202], [-95.8956481, 36.0141726], [-95.8956905, 36.0142768], [-95.8956546, 36.0142863], [-95.8957119, 36.014427], [-95.8956022, 36.0144562], [-95.8955746, 36.0143884], [-95.8955242, 36.0144018]]]}, "properties": {"osm_id": 723006266, "building": "yes", "name": "", "height": null, "height_m": null, "levels": null, "tract_id": "40143007636", "tract_name": "76.36", "tags": {"building": "yes"}}}, {"type": "Feature", "geometry": {"type": "Polygon", "coordinates": [[[-95.8951849, 36.0145857], [-95.8951809, 36.0144843], [-95.8952284, 36.014483], [-95.8952324, 36.0145845], [-95.8951849, 36.0145857]]]}, "properties": {"osm_id": 723006267, "building": "yes", "name": "", "height": null, "height_m": null, "levels": null, "tract_id": "40143007636", "tract_name": "76.36", "tags": {"building": "yes"}}}, {"type": "Feature", "geometry": {"type": "Polygon", "coordinates": [[[-95.895708, 36.0146003], [-95.8957068, 36.0146687], [-95.8956288, 36.0146679], [-95.8956282, 36.0147029], [-95.8956115, 36.0147027], [-95.8956112, 36.0147194], [-95.8956355, 36.0147197], [-95.8956343, 36.0147918], [-95.8957158, 36.0147927], [-95.8957154, 36.0148143], [-95.8957242, 36.0148144], [-95.8957237, 36.0148478], [-95.8957149, 36.0148477], [-95.8957146, 36.0148612], [-95.8955845, 36.0148598], [-95.8955846, 36.0148514], [-95.8954962, 36.0148504], [-95.8954995, 36.014654], [-95.8954576, 36.0146535], [-95.8954585, 36.0145976], [-95.895708, 36.0146003]]]}, "properties": {"osm_id": 723006268, "building": "yes", "name": "", "height": null, "height_m": null, "levels": null, "tract_id": "40143007636", "tract_name": "76.36", "tags": {"building": "yes"}}}, {"type": "Feature", "geometry": {"type": "Polygon", "coordinates": [[[-95.8872879, 36.0156678], [-95.8869164, 36.0156661], [-95.8869152, 36.0158331], [-95.8871578, 36.0158341], [-95.8872867, 36.0158347], [-95.8872876, 36.0157046], [-95.8872879, 36.0156678]]]}, "properties": {"osm_id": 728085767, "building": "commercial", "name": "Jeh Rapha Building", "height": null, "height_m": null, "levels": null, "tract_id": "40143007636", "tract_name": "76.36", "tags": {"addr:city": "Tulsa", "addr:country": "US", "addr:housenumber": "10130;10126", "addr:postcode": "74133", "addr:state": "OK", "addr:street": "South Memorial Drive East", "building": "commercial", "name": "Jeh Rapha Building"}}}, {"type": "Feature", "geometry": {"type": "Polygon", "coordinates": [[[-95.8872164, 36.0162592], [-95.8871326, 36.0162584], [-95.8871328, 36.0162443], [-95.8870581, 36.0162436], [-95.8870579, 36.0162588], [-95.8869969, 36.0162582], [-95.8869968, 36.0162685], [-95.8869327, 36.0162679], [-95.8869316, 36.0163442], [-95.8869941, 36.0163448], [-95.886994, 36.0163542], [-95.8870565, 36.0163548], [-95.8870562, 36.0163713], [-95.8871581, 36.0163722], [-95.8871582, 36.0163631], [-95.8872149, 36.0163636], [-95.8872164, 36.0162592]]]}, "properties": {"osm_id": 728085768, "building": "retail", "name": "Arby's", "height": null, "height_m": null, "levels": null, "tract_id": "40143007636", "tract_name": "76.36", "tags": {"addr:city": "Tulsa", "addr:country": "US", "addr:housenumber": "10118", "addr:postcode": "74133", "addr:state": "OK", "addr:street": "South Memorial Drive East", "amenity": "fast_food", "brand": "Arby's", "brand:wikidata": "Q630866", "building": "retail", "check_date": "2024-06-21", "cuisine": "sandwich", "drive-through": "yes", "name": "Arby's", "opening_hours": "Su-Sa 09:30-23:00", "phone": "+1 918-420-1908", "takeaway": "yes", "website": "https://www.arbys.com/locations/us/ok/tulsa/10118-s-memorial-dr/store-802/"}}}, {"type": "Feature", "geometry": {"type": "Polygon", "coordinates": [[[-95.8873242, 36.0168017], [-95.8869808, 36.0167997], [-95.8869826, 36.0166035], [-95.887326, 36.0166056], [-95.8873242, 36.0168017]]]}, "properties": {"osm_id": 728085771, "building": "yes", "name": "U.S. Cellular", "height": null, "height_m": null, "levels": null, "tract_id": "40143007636", "tract_name": "76.36", "tags": {"brand": "U.S. Cellular", "brand:wikidata": "Q2466256", "building": "yes", "name": "U.S. Cellular", "shop": "mobile_phone"}}}, {"type": "Feature", "geometry": {"type": "Polygon", "coordinates": [[[-95.887031, 36.0086366], [-95.8870302, 36.0086896], [-95.8870456, 36.0086898], [-95.8870452, 36.0087139], [-95.8870637, 36.008714], [-95.8870607, 36.0089167], [-95.8870434, 36.0089166], [-95.8870429, 36.0089506], [-95.8872068, 36.0089521], [-95.8872074, 36.0089129], [-95.8871971, 36.0089128], [-95.8871975, 36.0088847], [-95.8871805, 36.0088845], [-95.8871824, 36.0087475], [-95.88721, 36.0087477], [-95.8872108, 36.0086845], [-95.8872254, 36.0086846], [-95.8872261, 36.0086384], [-95.887031, 36.0086366]]]}, "properties": {"osm_id": 728090601, "building": "yes", "name": "McGraw Realtors", "height": null, "height_m": null, "levels": null, "tract_id": "40143007636", "tract_name": "76.36", "tags": {"addr:city": "Tulsa", "addr:country": "US", "addr:housenumber": "10712", "addr:postcode": "74133", "addr:state": "OK", "addr:street": "South Memorial Drive East", "building": "yes", "name": "McGraw Realtors", "office": "estate_agent"}}}, {"type": "Feature", "geometry": {"type": "Polygon", "coordinates": [[[-95.8873076, 36.0077729], [-95.8873067, 36.0075842], [-95.8872764, 36.0075843], [-95.8872763, 36.0075739], [-95.8872073, 36.0075741], [-95.8872074, 36.0075858], [-95.8870671, 36.0075863], [-95.8870681, 36.0077737], [-95.8873076, 36.0077729]]]}, "properties": {"osm_id": 728090602, "building": "retail", "name": "Panera Bread", "height": null, "height_m": null, "levels": null, "tract_id": "40143007636", "tract_name": "76.36", "tags": {"addr:city": "Tulsa", "addr:country": "US", "addr:housenumber": "10752", "addr:postcode": "74133", "addr:state": "OK", "addr:street": "South Memorial Drive East", "amenity": "fast_food", "brand": "Panera Bread", "brand:wikidata": "Q7130852", "building": "retail", "cuisine": "sandwich;bakery", "name": "Panera Bread", "opening_hours": "Mo-Sa 06:00-21:00; Su 07:00-20:00", "phone": "+1 918-970-4039", "short_name": "Panera", "takeaway": "yes", "website": "https://locations.panerabread.com/ok/tulsa/10752-s-memorial-dr.html"}}}, {"type": "Feature", "geometry": {"type": "Polygon", "coordinates": [[[-95.8873713, 36.0071029], [-95.8873297, 36.0071028], [-95.8873299, 36.0070414], [-95.8873301, 36.0069897], [-95.8872291, 36.0069894], [-95.8872289, 36.0070401], [-95.8872287, 36.0070994], [-95.887103, 36.0070991], [-95.8871022, 36.0072903], [-95.8873705, 36.007291], [-95.8873713, 36.0071029]]]}, "properties": {"osm_id": 728090603, "building": "retail", "name": "Tulsa Federal Credit Union", "height": null, "height_m": null, "levels": null, "tract_id": "40143007636", "tract_name": "76.36", "tags": {"addr:city": "Tulsa", "addr:country": "US", "addr:housenumber": "10790", "addr:postcode": "74133", "addr:state": "OK", "addr:street": "South Memorial Drive East", "amenity": "bank", "building": "retail", "name": "Tulsa Federal Credit Union"}}}, {"type": "Feature", "geometry": {"type": "Polygon", "coordinates": [[[-95.8873731, 36.0066645], [-95.8873726, 36.0066015], [-95.8871695, 36.0066027], [-95.88717, 36.0066681], [-95.8872429, 36.0066677], [-95.887243, 36.006674], [-95.8872736, 36.0066739], [-95.8872736, 36.0066651], [-95.8873731, 36.0066645]]]}, "properties": {"osm_id": 728090604, "building": "yes", "name": "Tropical Smoothie Cafe", "height": null, "height_m": null, "levels": null, "tract_id": "40143007636", "tract_name": "76.36", "tags": {"addr:city": "Tulsa", "addr:country": "US", "addr:housenumber": "10826", "addr:postcode": "74133", "addr:state": "OK", "addr:street": "South Memorial Drive East", "amenity": "fast_food", "brand": "Tropical Smoothie Cafe", "brand:wikidata": "Q7845817", "building": "yes", "cuisine": "juice", "name": "Tropical Smoothie Cafe", "outdoor_seating": "yes", "takeaway": "yes"}}}, {"type": "Feature", "geometry": {"type": "Polygon", "coordinates": [[[-95.8873902, 36.0062912], [-95.8873903, 36.0062439], [-95.8873553, 36.0062439], [-95.8873555, 36.0061847], [-95.8871975, 36.0061844], [-95.8871976, 36.0061683], [-95.8871538, 36.0061682], [-95.8871538, 36.006179], [-95.8870399, 36.0061789], [-95.8870396, 36.0062906], [-95.8873902, 36.0062912]]]}, "properties": {"osm_id": 728090605, "building": "yes", "name": "Sonic", "height": null, "height_m": null, "levels": null, "tract_id": "40143007636", "tract_name": "76.36", "tags": {"addr:city": "Tulsa", "addr:country": "US", "addr:housenumber": "10830", "addr:postcode": "74133", "addr:state": "OK", "addr:street": "South Memorial Drive East", "amenity": "fast_food", "brand": "Sonic", "brand:wikidata": "Q7561808", "building": "yes", "cuisine": "burger", "drive_in": "yes", "name": "Sonic", "opening_hours": "Mo-Sa 06:00-21:00; Su 07:00-21:00", "phone": "+1 918-369-8558", "takeaway": "yes", "website": "https://locations.sonicdrivein.com/ok/tulsa/10830-s-memorial.html"}}}, {"type": "Feature", "geometry": {"type": "Polygon", "coordinates": [[[-95.8873354, 36.0058337], [-95.8873392, 36.0057177], [-95.8871892, 36.0057144], [-95.8871896, 36.0057045], [-95.8871042, 36.0057027], [-95.8871038, 36.0057129], [-95.8870056, 36.0057108], [-95.8870014, 36.0058398], [-95.8871456, 36.0058429], [-95.8871453, 36.0058519], [-95.8871978, 36.005853], [-95.8871985, 36.0058308], [-95.8873354, 36.0058337]]]}, "properties": {"osm_id": 728090606, "building": "yes", "name": "Charlie's Chicken", "height": null, "height_m": null, "levels": null, "tract_id": "40143007636", "tract_name": "76.36", "tags": {"addr:city": "Tulsa", "addr:country": "US", "addr:housenumber": "10840", "addr:postcode": "74133", "addr:state": "OK", "addr:street": "South Memorial Drive East", "amenity": "fast_food", "building": "yes", "cuisine": "chicken", "name": "Charlie's Chicken"}}}, {"type": "Feature", "geometry": {"type": "Polygon", "coordinates": [[[-95.8873395, 36.004622], [-95.8873395, 36.0044599], [-95.8870193, 36.0044599], [-95.8870193, 36.0045744], [-95.8871239, 36.0045744], [-95.8871239, 36.004622], [-95.8873395, 36.004622]]]}, "properties": {"osm_id": 728090607, "building": "commercial", "name": "Braum's", "height": null, "height_m": null, "levels": null, "tract_id": "40143007636", "tract_name": "76.36", "tags": {"addr:city": "Tulsa", "addr:country": "US", "addr:housenumber": "10934", "addr:postcode": "74133", "addr:state": "OK", "addr:street": "South Memorial Drive East", "amenity": "fast_food", "brand": "Braum's", "brand:wikidata": "Q4958263", "building": "commercial", "cuisine": "ice_cream;burger", "name": "Braum's", "phone": "+1-918-369-7878", "ref": "138", "shop": "dairy", "takeaway": "yes"}}}, {"type": "Feature", "geometry": {"type": "Polygon", "coordinates": [[[-95.8873201, 36.0038714], [-95.8873192, 36.0037713], [-95.8870392, 36.0037728], [-95.8870399, 36.0038607], [-95.8871528, 36.0038601], [-95.8871529, 36.0038723], [-95.8873201, 36.0038714]]]}, "properties": {"osm_id": 728090608, "building": "yes", "name": "Burger King", "height": null, "height_m": null, "levels": null, "tract_id": "40143007636", "tract_name": "76.36", "tags": {"addr:city": "Tulsa", "addr:country": "US", "addr:housenumber": "11020", "addr:postcode": "74133-7312", "addr:state": "OK", "addr:street": "South Memorial Drive East", "amenity": "fast_food", "brand": "Burger King", "brand:wikidata": "Q177054", "building": "yes", "cuisine": "burger", "delivery": "yes", "drive_through": "yes", "internet_access": "wlan", "name": "Burger King", "opening_hours": "Mo-Sa 06:00-22:00; Su 07:00-22:00", "phone": "+1 918-369-8027", "ref": "14366", "takeaway": "yes", "website": "https://www.bk.com/store-locator/store/restaurant_8523"}}}, {"type": "Feature", "geometry": {"type": "Polygon", "coordinates": [[[-95.8874759, 36.0054532], [-95.8874765, 36.0053334], [-95.8874607, 36.0053334], [-95.8874626, 36.0049656], [-95.8872127, 36.0049647], [-95.8872103, 36.0054278], [-95.8872303, 36.0054279], [-95.8872303, 36.0054419], [-95.8872975, 36.0054421], [-95.8872975, 36.0054526], [-95.8874759, 36.0054532]]]}, "properties": {"osm_id": 728090609, "building": "retail", "name": "", "height": null, "height_m": null, "levels": null, "tract_id": "40143007636", "tract_name": "76.36", "tags": {"addr:city": "Tulsa", "addr:country": "US", "addr:housenumber": "10912", "addr:postcode": "74133", "addr:state": "OK", "addr:street": "South Memorial Drive East", "building": "retail"}}}, {"type": "Feature", "geometry": {"type": "Polygon", "coordinates": [[[-95.8872464, 36.0024573], [-95.887511, 36.002454], [-95.8875106, 36.0024355], [-95.8875742, 36.0024347], [-95.8875689, 36.0021509], [-95.8876427, 36.00215], [-95.8876415, 36.0020833], [-95.8875855, 36.002084], [-95.8875849, 36.0020523], [-95.8872168, 36.0020569], [-95.8872193, 36.0021877], [-95.8871897, 36.0021881], [-95.8871941, 36.002413], [-95.8872464, 36.0024573]]]}, "properties": {"osm_id": 732433699, "building": "retail", "name": "Walgreens", "height": null, "height_m": null, "levels": null, "tract_id": "40143007636", "tract_name": "76.36", "tags": {"addr:city": "Bixby", "addr:country": "US", "addr:housenumber": "11118", "addr:postcode": "74008", "addr:state": "OK", "addr:street": "South Memorial Drive East", "brand": "Walgreens", "brand:wikidata": "Q1591889", "building": "retail", "healthcare": "pharmacy", "name": "Walgreens", "shop": "chemist", "website": "https://www.walgreens.com/locator/walgreens-11118+s+memorial+dr-bixby-ok-74008/id=6839"}}}, {"type": "Feature", "geometry": {"type": "Polygon", "coordinates": [[[-95.887367, 36.0015239], [-95.887142, 36.0015237], [-95.8871417, 36.0017197], [-95.8871655, 36.0017197], [-95.8871655, 36.0017419], [-95.8872079, 36.0017419], [-95.8872078, 36.0017516], [-95.8872702, 36.0017517], [-95.8872702, 36.0017394], [-95.8873652, 36.0017396], [-95.8873652, 36.0017202], [-95.8873914, 36.0017202], [-95.8873916, 36.0016711], [-95.8874257, 36.0016712], [-95.8874259, 36.0016256], [-95.8875001, 36.0016257], [-95.8875001, 36.001608], [-95.8876244, 36.0016083], [-95.8876246, 36.0015476], [-95.8874882, 36.0015474], [-95.8874881, 36.0015605], [-95.8874553, 36.0015605], [-95.8874553, 36.0015798], [-95.8873669, 36.0015797], [-95.887367, 36.0015239]]]}, "properties": {"osm_id": 737355245, "building": "yes", "name": "MidFirst Bank", "height": null, "height_m": null, "levels": null, "tract_id": "40143007636", "tract_name": "76.36", "tags": {"addr:city": "Bixby", "addr:country": "US", "addr:housenumber": "11122", "addr:postcode": "74008", "addr:state": "OK", "addr:street": "South Memorial Drive East", "amenity": "bank", "brand": "MidFirst Bank", "brand:wikidata": "Q17081131", "building": "yes", "name": "MidFirst Bank"}}}, {"type": "Feature", "geometry": {"type": "Polygon", "coordinates": [[[-95.8882697, 36.0024629], [-95.88827, 36.0024427], [-95.8882949, 36.002443], [-95.8882956, 36.0023996], [-95.8882691, 36.0023993], [-95.8882693, 36.0023883], [-95.8880511, 36.0023859], [-95.8880499, 36.0024605], [-95.8882697, 36.0024629]]]}, "properties": {"osm_id": 737355250, "building": "yes", "name": "Taco Bell", "height": null, "height_m": null, "levels": null, "tract_id": "40143007636", "tract_name": "76.36", "tags": {"addr:city": "Bixby", "addr:housenumber": "7980", "addr:postcode": "74008", "addr:state": "OK", "addr:street": "East 111th Street South", "amenity": "fast_food", "brand": "Taco Bell", "brand:wikidata": "Q752941", "building": "yes", "cuisine": "tex-mex", "drive-through": "yes", "name": "Taco Bell", "opening_hours": "Mo-Th 08:00-03:00; Fr-Sa 08:00-04:00; Su 08:00-03:00", "phone": "+1 918-364-8226", "takeaway": "yes", "website": "https://locations.tacobell.com/ok/bixby/7980-south-111th-street-south.html"}}}, {"type": "Feature", "geometry": {"type": "Polygon", "coordinates": [[[-95.894322, 36.0156603], [-95.894216, 36.0156528], [-95.8942128, 36.0156825], [-95.8941381, 36.0156772], [-95.8941412, 36.0156486], [-95.8940275, 36.0156405], [-95.894038, 36.0155436], [-95.8943324, 36.0155644], [-95.894322, 36.0156603]]]}, "properties": {"osm_id": 739825842, "building": "yes", "name": "", "height": null, "height_m": null, "levels": null, "tract_id": "40143007636", "tract_name": "76.36", "tags": {"building": "yes"}}}, {"type": "Feature", "geometry": {"type": "Polygon", "coordinates": [[[-95.8935297, 36.0156596], [-95.8935574, 36.0155738], [-95.8934993, 36.0155615], [-95.8935205, 36.0154959], [-95.8937479, 36.0155439], [-95.8937296, 36.0156007], [-95.8936829, 36.0155908], [-95.8936522, 36.0156855], [-95.8935297, 36.0156596]]]}, "properties": {"osm_id": 739825843, "building": "yes", "name": "", "height": null, "height_m": null, "levels": null, "tract_id": "40143007636", "tract_name": "76.36", "tags": {"building": "yes"}}}, {"type": "Feature", "geometry": {"type": "Polygon", "coordinates": [[[-95.8940686, 36.0148849], [-95.8939912, 36.0149411], [-95.8939978, 36.0149471], [-95.8938309, 36.0150684], [-95.893913, 36.0151423], [-95.8939993, 36.0150797], [-95.8940401, 36.0151165], [-95.8941031, 36.0150707], [-95.8940598, 36.0150317], [-95.8941549, 36.0149627], [-95.8940686, 36.0148849]]]}, "properties": {"osm_id": 739825844, "building": "yes", "name": "", "height": null, "height_m": null, "levels": null, "tract_id": "40143007636", "tract_name": "76.36", "tags": {"building": "yes"}}}, {"type": "Feature", "geometry": {"type": "Polygon", "coordinates": [[[-95.8933076, 36.014679], [-95.893242, 36.0147386], [-95.8932678, 36.0147572], [-95.8932072, 36.0148123], [-95.8931819, 36.0147941], [-95.8931345, 36.0148066], [-95.8931317, 36.0147997], [-95.8930933, 36.0148099], [-95.8930962, 36.0148172], [-95.8930495, 36.0148296], [-95.8929705, 36.0149053], [-95.8930284, 36.0149448], [-95.893051, 36.0149232], [-95.8930648, 36.0149327], [-95.8931356, 36.0148648], [-95.8931975, 36.0148493], [-95.8932725, 36.0149033], [-95.8933156, 36.0148641], [-95.8933063, 36.0148575], [-95.8933462, 36.0148213], [-95.8933667, 36.014836], [-95.893437, 36.0147721], [-95.8933076, 36.014679]]]}, "properties": {"osm_id": 739825845, "building": "yes", "name": "", "height": null, "height_m": null, "levels": null, "tract_id": "40143007636", "tract_name": "76.36", "tags": {"building": "yes"}}}, {"type": "Feature", "geometry": {"type": "Polygon", "coordinates": [[[-95.8928083, 36.0152385], [-95.8929365, 36.0150715], [-95.8930143, 36.0151105], [-95.8928861, 36.0152776], [-95.8928083, 36.0152385]]]}, "properties": {"osm_id": 739825846, "building": "yes", "name": "", "height": null, "height_m": null, "levels": null, "tract_id": "40143007636", "tract_name": "76.36", "tags": {"building": "yes"}}}, {"type": "Feature", "geometry": {"type": "Polygon", "coordinates": [[[-95.8869979, 36.0063781], [-95.8869981, 36.0064097], [-95.8874612, 36.006408], [-95.887461, 36.0063764], [-95.8869979, 36.0063781]]]}, "properties": {"osm_id": 825412971, "building": "yes", "name": "", "height": null, "height_m": null, "levels": null, "tract_id": "40143007636", "tract_name": "76.36", "tags": {"building": "yes", "source": "microsoft/BuildingFootprints"}}}, {"type": "Feature", "geometry": {"type": "Polygon", "coordinates": [[[-95.8875286, 36.0002057], [-95.8875286, 36.0003858], [-95.887428, 36.0003858], [-95.887428, 36.0003695], [-95.8873489, 36.0003695], [-95.8873489, 36.0003896], [-95.887312, 36.0003896], [-95.887312, 36.0003695], [-95.8872329, 36.0003695], [-95.8872329, 36.0003858], [-95.8870773, 36.0003858], [-95.8870773, 36.0002057], [-95.8875286, 36.0002057]]]}, "properties": {"osm_id": 827672177, "building": "office", "name": "BTC Broadband", "height": null, "height_m": null, "levels": null, "tract_id": "40143007636", "tract_name": "76.36", "tags": {"addr:city": "Bixby", "addr:country": "US", "addr:housenumber": "11134", "addr:postcode": "74008", "addr:state": "OK", "addr:street": "South Memorial Drive East", "building": "office", "fax": "+1 918 366 8000", "name": "BTC Broadband", "office": "telecommunication", "opening_hours": "Mo-Fr 09:00-18:00", "website": "https://www.btcbroadband.com/"}}}, {"type": "Feature", "geometry": {"type": "Polygon", "coordinates": [[[-95.8909612, 36.0137622], [-95.8910895, 36.0136531], [-95.8911472, 36.0136975], [-95.8911599, 36.0136867], [-95.8912058, 36.013722], [-95.8911988, 36.013728], [-95.891223, 36.0137466], [-95.8912417, 36.0137306], [-95.8912883, 36.0137664], [-95.8911781, 36.0138601], [-95.8911365, 36.0138281], [-95.8911103, 36.0138503], [-95.8910577, 36.0138099], [-95.8910781, 36.0137925], [-95.8910688, 36.0137853], [-95.8910319, 36.0138166], [-95.8909612, 36.0137622]]]}, "properties": {"osm_id": 836238494, "building": "detached", "name": "", "height": null, "height_m": null, "levels": null, "tract_id": "40143007636", "tract_name": "76.36", "tags": {"addr:city": "Tulsa", "addr:country": "US", "addr:housenumber": "7733", "addr:postcode": "74133", "addr:state": "OK", "addr:street": "East 104th Street South", "building": "detached"}}}, {"type": "Feature", "geometry": {"type": "Polygon", "coordinates": [[[-95.8910526, 36.0139097], [-95.890947, 36.0139945], [-95.890968, 36.0140116], [-95.8909318, 36.0140406], [-95.8909907, 36.0140571], [-95.8910097, 36.0140418], [-95.8910154, 36.0140465], [-95.8911187, 36.0139637], [-95.8910526, 36.0139097]]]}, "properties": {"osm_id": 836238497, "building": "yes", "name": "", "height": null, "height_m": null, "levels": null, "tract_id": "40143007636", "tract_name": "76.36", "tags": {"building": "yes"}}}, {"type": "Feature", "geometry": {"type": "Polygon", "coordinates": [[[-95.8913671, 36.0142196], [-95.8913183, 36.0143445], [-95.8913107, 36.0143426], [-95.891286, 36.0144056], [-95.8913087, 36.0144114], [-95.891279, 36.0144875], [-95.8913585, 36.0145079], [-95.8913885, 36.0144312], [-95.8914083, 36.0144363], [-95.8914269, 36.0143887], [-95.891449, 36.0143944], [-95.8914614, 36.0143628], [-95.891437, 36.0143566], [-95.8914566, 36.0143064], [-95.8914415, 36.0143026], [-95.8914571, 36.0142626], [-95.8914369, 36.0142575], [-95.891444, 36.0142393], [-95.8913671, 36.0142196]]]}, "properties": {"osm_id": 836238498, "building": "yes", "name": "", "height": null, "height_m": null, "levels": null, "tract_id": "40143007636", "tract_name": "76.36", "tags": {"addr:city": "Tulsa", "addr:country": "US", "addr:housenumber": "10187", "addr:postcode": "74133", "addr:state": "OK", "addr:street": "South 77th Avenue East", "building": "yes"}}}, {"type": "Feature", "geometry": {"type": "Polygon", "coordinates": [[[-95.89118, 36.0146137], [-95.8911562, 36.0146961], [-95.8911134, 36.014688], [-95.8911016, 36.014729], [-95.8911265, 36.0147337], [-95.8911191, 36.0147595], [-95.8910403, 36.0147447], [-95.8910241, 36.0148006], [-95.8911113, 36.0148171], [-95.8910984, 36.0148618], [-95.8911944, 36.01488], [-95.8912117, 36.0148202], [-95.8912209, 36.014822], [-95.8912384, 36.0147613], [-95.8912645, 36.0147662], [-95.8913019, 36.0146368], [-95.89118, 36.0146137]]]}, "properties": {"osm_id": 836238499, "building": "yes", "name": "", "height": null, "height_m": null, "levels": null, "tract_id": "40143007636", "tract_name": "76.36", "tags": {"addr:city": "Tulsa", "addr:country": "US", "addr:housenumber": "10177", "addr:postcode": "74133", "addr:state": "OK", "addr:street": "South 77th Avenue East", "building": "yes"}}}, {"type": "Feature", "geometry": {"type": "Polygon", "coordinates": [[[-95.8872597, 36.0082875], [-95.887259, 36.0082027], [-95.8872895, 36.0082025], [-95.8872886, 36.0081078], [-95.8870834, 36.0081091], [-95.8870851, 36.0082886], [-95.8872597, 36.0082875]]]}, "properties": {"osm_id": 838584099, "building": "retail", "name": "Tacos 4 Life", "height": null, "height_m": null, "levels": null, "tract_id": "40143007636", "tract_name": "76.36", "tags": {"addr:city": "Tulsa", "addr:country": "US", "addr:housenumber": "10732", "addr:postcode": "74133", "addr:state": "OK", "addr:street": "South Memorial Drive East", "amenity": "fast_food", "building": "retail", "cuisine": "mexican", "name": "Tacos 4 Life"}}}, {"type": "Feature", "geometry": {"type": "Polygon", "coordinates": [[[-95.887496, 36.0031005], [-95.8874129, 36.0031003], [-95.8874126, 36.0032084], [-95.8873212, 36.0032082], [-95.8873216, 36.0030975], [-95.8872386, 36.0030973], [-95.8872385, 36.0031172], [-95.8871374, 36.003117], [-95.8871373, 36.0031533], [-95.8871243, 36.0031532], [-95.8871241, 36.0032052], [-95.887081, 36.0032051], [-95.8870807, 36.0033116], [-95.8871263, 36.0033117], [-95.8871261, 36.0033659], [-95.887137, 36.0033659], [-95.8871369, 36.0034019], [-95.8872073, 36.003402], [-95.8872073, 36.0034115], [-95.8873212, 36.0034117], [-95.8873215, 36.0033111], [-95.8874126, 36.0033113], [-95.8874122, 36.003419], [-95.8874949, 36.0034191], [-95.887496, 36.0031005]]]}, "properties": {"osm_id": 840963060, "building": "yes", "name": "Arvest Bank", "height": null, "height_m": null, "levels": null, "tract_id": "40143007636", "tract_name": "76.36", "tags": {"addr:city": "Tulsa", "addr:country": "US", "addr:housenumber": "11032", "addr:postcode": "74133", "addr:state": "OK", "addr:street": "South Memorial Drive East", "amenity": "bank", "brand": "Arvest Bank", "brand:wikidata": "Q4802393", "building": "yes", "name": "Arvest Bank"}}}, {"type": "Feature", "geometry": {"type": "Polygon", "coordinates": [[[-95.8873, 35.9999334], [-95.8872999, 35.9999231], [-95.887379, 35.9999227], [-95.8873783, 35.99983], [-95.8874279, 35.9998298], [-95.8874272, 35.9997347], [-95.8873744, 35.999735], [-95.8873742, 35.9997034], [-95.8871469, 35.9997046], [-95.8871478, 35.9998118], [-95.8871359, 35.9998119], [-95.8871364, 35.9998738], [-95.8871491, 35.9998737], [-95.8871496, 35.9999342], [-95.8873, 35.9999334]]]}, "properties": {"osm_id": 840963061, "building": "retail", "name": "Chili's", "height": null, "height_m": 3.0, "levels": 1, "tract_id": "40143007636", "tract_name": "76.36", "tags": {"addr:city": "Bixby", "addr:country": "US", "addr:housenumber": "11138", "addr:postcode": "74008", "addr:state": "OK", "addr:street": "South Memorial Drive East", "amenity": "restaurant", "brand": "Chili's", "brand:wikidata": "Q1072948", "building": "retail", "building:levels": "1", "cuisine": "tex-mex", "name": "Chili's", "official_name": "Chili's Grill & Bar", "roof:levels": "0", "roof:shape": "flat"}}}, {"type": "Feature", "geometry": {"type": "Polygon", "coordinates": [[[-95.887525, 35.9994702], [-95.8875243, 35.9992947], [-95.8870815, 35.9992958], [-95.8870822, 35.9994714], [-95.887525, 35.9994702]]]}, "properties": {"osm_id": 840963062, "building": "garages", "name": "Robertson Tire", "height": null, "height_m": null, "levels": null, "tract_id": "40143007636", "tract_name": "76.36", "tags": {"addr:city": "Bixby", "addr:country": "US", "addr:housenumber": "11142", "addr:postcode": "74008", "addr:state": "OK", "addr:street": "South Memorial Drive East", "building": "garages", "name": "Robertson Tire", "shop": "tyres"}}}, {"type": "Feature", "geometry": {"type": "Polygon", "coordinates": [[[-95.8875041, 35.9991289], [-95.8875005, 35.998832], [-95.8874529, 35.9988324], [-95.8874538, 35.9989107], [-95.8873311, 35.9989117], [-95.88733, 35.9988196], [-95.8871424, 35.9988212], [-95.8871435, 35.9989139], [-95.8871293, 35.998914], [-95.8871296, 35.9989359], [-95.887105, 35.9989361], [-95.8871058, 35.9990031], [-95.8871208, 35.9990029], [-95.8871211, 35.9990281], [-95.8871327, 35.999028], [-95.8871333, 35.9990717], [-95.8873337, 35.9990702], [-95.887333, 35.9990059], [-95.8874457, 35.999005], [-95.8874472, 35.9991294], [-95.8875041, 35.9991289]]]}, "properties": {"osm_id": 840963063, "building": "retail", "name": "Mabrey Bank", "height": null, "height_m": null, "levels": null, "tract_id": "40143007636", "tract_name": "76.36", "tags": {"addr:city": "Bixby", "addr:country": "US", "addr:housenumber": "11402", "addr:postcode": "74008", "addr:state": "OK", "addr:street": "South Memorial Drive East", "amenity": "bank", "building": "retail", "name": "Mabrey Bank"}}}, {"type": "Feature", "geometry": {"type": "Polygon", "coordinates": [[[-95.8891489, 36.0003274], [-95.889149, 36.0003087], [-95.8896445, 36.0003102], [-95.8896452, 36.0001767], [-95.8899163, 36.0001775], [-95.889918, 35.999831], [-95.8900142, 35.9998314], [-95.8900148, 35.9997244], [-95.8899282, 35.9997241], [-95.88993, 35.9994267], [-95.889893, 35.9994266], [-95.8898932, 35.9993995], [-95.8897571, 35.9993988], [-95.8897568, 35.9994303], [-95.889246, 35.9994275], [-95.8892464, 35.9993778], [-95.8891377, 35.9993772], [-95.8891372, 35.9994285], [-95.8891198, 35.9994332], [-95.8891196, 35.9995494], [-95.8889685, 35.9995492], [-95.8889683, 35.9996649], [-95.8890729, 35.9996651], [-95.8890728, 35.9997147], [-95.8889928, 35.9997146], [-95.8889921, 36.000043], [-95.889076, 36.0000431], [-95.8890756, 36.0002046], [-95.888994, 36.0002045], [-95.8889936, 36.0003271], [-95.8891489, 36.0003274]]]}, "properties": {"osm_id": 840963073, "building": "retail", "name": "Reasor's", "height": null, "height_m": null, "levels": null, "tract_id": "40143007636", "tract_name": "76.36", "tags": {"addr:city": "Bixby", "addr:country": "US", "addr:housenumber": "11116", "addr:postcode": "74008", "addr:state": "OK", "addr:street": "South Memorial Drive East", "building": "retail", "name": "Reasor's", "shop": "supermarket"}}}, {"type": "Feature", "geometry": {"type": "Polygon", "coordinates": [[[-95.8874493, 36.0007489], [-95.8874491, 36.0007238], [-95.8874487, 36.0006886], [-95.887043, 36.0006912], [-95.8870433, 36.0007207], [-95.8870436, 36.0007527], [-95.8870572, 36.0007527], [-95.8870577, 36.000808], [-95.8870877, 36.0008078], [-95.887088, 36.0008375], [-95.8870884, 36.0008894], [-95.8872471, 36.0008884], [-95.8872466, 36.0008396], [-95.8872463, 36.0008079], [-95.8874108, 36.0008069], [-95.8874103, 36.0007491], [-95.8874493, 36.0007489]]]}, "properties": {"osm_id": 840963074, "building": "industrial", "name": "Bixby Cruise-In Auto Spa", "height": null, "height_m": null, "levels": null, "tract_id": "40143007636", "tract_name": "76.36", "tags": {"addr:city": "Bixby", "addr:country": "US", "addr:housenumber": "11130", "addr:postcode": "74008", "addr:state": "OK", "addr:street": "South Memorial Drive East", "amenity": "car_wash", "building": "industrial", "name": "Bixby Cruise-In Auto Spa"}}}, {"type": "Feature", "geometry": {"type": "Polygon", "coordinates": [[[-95.8870385, 36.0010133], [-95.8870363, 36.0009317], [-95.8869798, 36.0009326], [-95.886982, 36.0010143], [-95.8870385, 36.0010133]]]}, "properties": {"osm_id": 840963075, "building": "carport", "name": "", "height": null, "height_m": null, "levels": null, "tract_id": "40143007636", "tract_name": "76.36", "tags": {"building": "carport"}}}, {"type": "Feature", "geometry": {"type": "Polygon", "coordinates": [[[-95.8876059, 36.0009128], [-95.8876032, 36.000783], [-95.8875376, 36.0007839], [-95.8875403, 36.0009137], [-95.8876059, 36.0009128]]]}, "properties": {"osm_id": 840963076, "building": "carport", "name": "", "height": null, "height_m": null, "levels": null, "tract_id": "40143007636", "tract_name": "76.36", "tags": {"building": "carport"}}}, {"type": "Feature", "geometry": {"type": "Polygon", "coordinates": [[[-95.895083, 36.0033873], [-95.8950005, 36.0033873], [-95.8950005, 36.0032951], [-95.895083, 36.0032951], [-95.895083, 36.0033873]]]}, "properties": {"osm_id": 972277347, "building": "service", "name": "", "height": null, "height_m": null, "levels": null, "tract_id": "40143007636", "tract_name": "76.36", "tags": {"building": "service"}}}, {"type": "Feature", "geometry": {"type": "Polygon", "coordinates": [[[-95.8875233, 35.9910202], [-95.8870588, 35.9910184], [-95.887059, 35.9909849], [-95.8870593, 35.9909325], [-95.8875238, 35.9909342], [-95.8875235, 35.9909856], [-95.8875233, 35.9910202]]]}, "properties": {"osm_id": 1081224575, "building": "industrial", "name": "Clear Blue Express", "height": null, "height_m": null, "levels": null, "tract_id": "40143007636", "tract_name": "76.36", "tags": {"addr:city": "Bixby", "addr:country": "US", "addr:housenumber": "11890", "addr:postcode": "74008", "addr:state": "OK", "addr:street": "South Memorial Drive East", "amenity": "car_wash", "building": "industrial", "name": "Clear Blue Express", "surface": "concrete"}}}, {"type": "Feature", "geometry": {"type": "Polygon", "coordinates": [[[-95.8873205, 35.9931118], [-95.8873249, 35.9929341], [-95.8869397, 35.9929279], [-95.8868739, 35.9929268], [-95.8868695, 35.9931045], [-95.8873205, 35.9931118]]]}, "properties": {"osm_id": 1181196351, "building": "yes", "name": "Discount Tire", "height": null, "height_m": null, "levels": null, "tract_id": "40143007636", "tract_name": "76.36", "tags": {"addr:city": "Bixby", "addr:housenumber": "7749", "addr:postcode": "74008", "addr:state": "OK", "addr:street": "East 118th Street South", "air_conditioning": "yes", "brand": "Discount Tire", "brand:wikidata": "Q5281735", "building": "yes", "name": "Discount Tire", "phone": "9183644980", "shop": "tyres"}}}, {"type": "Feature", "geometry": {"type": "Polygon", "coordinates": [[[-95.8889114, 36.0106628], [-95.8889124, 36.0105938], [-95.8888747, 36.0105934], [-95.8888737, 36.0106625], [-95.8889114, 36.0106628]]]}, "properties": {"osm_id": 1211835431, "building": "yes", "name": "", "height": null, "height_m": null, "levels": null, "tract_id": "40143007636", "tract_name": "76.36", "tags": {"building": "yes"}}}, {"type": "Feature", "geometry": {"type": "Polygon", "coordinates": [[[-95.8923893, 35.9889988], [-95.8929149, 35.9890057], [-95.89292, 35.9887475], [-95.892794, 35.9887459], [-95.8927932, 35.9887849], [-95.8923937, 35.9887797], [-95.8923893, 35.9889988]]]}, "properties": {"osm_id": 1235070884, "building": "yes", "name": "", "height": null, "height_m": null, "levels": null, "tract_id": "40143007636", "tract_name": "76.36", "tags": {"building": "yes", "source": "microsoft/BuildingFootprints"}}}, {"type": "Feature", "geometry": {"type": "Polygon", "coordinates": [[[-95.898831, 35.9889593], [-95.898469, 35.9889592], [-95.8984689, 35.9890229], [-95.8980788, 35.9890228], [-95.8980788, 35.9891369], [-95.8980573, 35.9891369], [-95.8980571, 35.9893635], [-95.8985506, 35.9893637], [-95.8985507, 35.9893572], [-95.8988308, 35.9893573], [-95.898831, 35.9889593]]]}, "properties": {"osm_id": 1235070885, "building": "yes", "name": "", "height": null, "height_m": null, "levels": null, "tract_id": "40143007636", "tract_name": "76.36", "tags": {"building": "yes", "source": "microsoft/BuildingFootprints"}}}, {"type": "Feature", "geometry": {"type": "Polygon", "coordinates": [[[-95.9000681, 35.9894339], [-95.8997967, 35.9896754], [-95.8997445, 35.989637], [-95.8997002, 35.9896764], [-95.8995856, 35.9899215], [-95.8996714, 35.9899846], [-95.8996661, 35.9901297], [-95.8995482, 35.9901269], [-95.8995395, 35.9903654], [-95.8996346, 35.9903677], [-95.8996327, 35.9904197], [-95.8995081, 35.9904168], [-95.8995012, 35.9906076], [-95.8996552, 35.9906113], [-95.8996624, 35.9904142], [-95.8996899, 35.9904344], [-95.8996821, 35.9906488], [-95.9000505, 35.9906576], [-95.9000589, 35.9904255], [-95.9001876, 35.9904286], [-95.9001936, 35.9902616], [-95.8997441, 35.990124], [-95.8997468, 35.9900501], [-95.8999091, 35.9899057], [-95.9000809, 35.9900321], [-95.9001721, 35.9899509], [-95.9000071, 35.9898294], [-95.9003658, 35.9895104], [-95.900389, 35.9888708], [-95.9002979, 35.9888687], [-95.9002996, 35.9888218], [-95.9000905, 35.9888168], [-95.9000681, 35.9894339]]]}, "properties": {"osm_id": 1235070886, "building": "yes", "name": "", "height": null, "height_m": null, "levels": null, "tract_id": "40143007636", "tract_name": "76.36", "tags": {"building": "yes", "source": "microsoft/BuildingFootprints"}}}, {"type": "Feature", "geometry": {"type": "Polygon", "coordinates": [[[-95.8973369, 35.9906929], [-95.897416, 35.9906944], [-95.8974171, 35.9906572], [-95.8974522, 35.9906257], [-95.8982879, 35.9906416], [-95.898287, 35.9906711], [-95.8981812, 35.9906691], [-95.8981668, 35.9911615], [-95.8984496, 35.9911669], [-95.8984639, 35.9906754], [-95.8983486, 35.9906732], [-95.8983495, 35.990642], [-95.8986163, 35.9906471], [-95.8986322, 35.9901056], [-95.8983519, 35.9901003], [-95.8983435, 35.9903888], [-95.898306, 35.9903881], [-95.8983052, 35.9904141], [-95.8974447, 35.9903977], [-95.8974471, 35.9903165], [-95.8972681, 35.9903131], [-95.8972329, 35.9903446], [-95.8971418, 35.9902782], [-95.8970738, 35.9903393], [-95.8971153, 35.9903695], [-95.8969959, 35.9904767], [-95.8969939, 35.9905453], [-95.8969201, 35.9905439], [-95.8969167, 35.9906609], [-95.897048, 35.9907567], [-95.8970188, 35.9917602], [-95.8973056, 35.9917657], [-95.8973369, 35.9906929]]]}, "properties": {"osm_id": 1235070887, "building": "yes", "name": "", "height": null, "height_m": null, "levels": null, "tract_id": "40143007636", "tract_name": "76.36", "tags": {"building": "yes", "source": "microsoft/BuildingFootprints"}}}, {"type": "Feature", "geometry": {"type": "Polygon", "coordinates": [[[-95.9038028, 35.9914443], [-95.9038819, 35.9914454], [-95.9038824, 35.9914205], [-95.9040406, 35.9914226], [-95.9040431, 35.9913022], [-95.9038058, 35.991299], [-95.9038028, 35.9914443]]]}, "properties": {"osm_id": 1235072115, "building": "yes", "name": "", "height": null, "height_m": null, "levels": null, "tract_id": "40143007636", "tract_name": "76.36", "tags": {"building": "yes", "source": "microsoft/BuildingFootprints"}}}, {"type": "Feature", "geometry": {"type": "Polygon", "coordinates": [[[-95.9036159, 35.9917624], [-95.9037291, 35.9918795], [-95.9037674, 35.9918552], [-95.9037908, 35.9918794], [-95.903839, 35.9918489], [-95.9038364, 35.9918462], [-95.9039221, 35.9917919], [-95.9037607, 35.9916251], [-95.9036625, 35.9916872], [-95.9036899, 35.9917155], [-95.9036159, 35.9917624]]]}, "properties": {"osm_id": 1235072116, "building": "yes", "name": "", "height": null, "height_m": null, "levels": null, "tract_id": "40143007636", "tract_name": "76.36", "tags": {"building": "yes", "source": "microsoft/BuildingFootprints"}}}, {"type": "Feature", "geometry": {"type": "Polygon", "coordinates": [[[-95.9032891, 35.9916434], [-95.9032735, 35.9915889], [-95.9033194, 35.9915803], [-95.9032958, 35.9914979], [-95.9030845, 35.9915374], [-95.9031116, 35.9916322], [-95.903081, 35.9916379], [-95.903093, 35.99168], [-95.9032891, 35.9916434]]]}, "properties": {"osm_id": 1235072117, "building": "yes", "name": "", "height": null, "height_m": null, "levels": null, "tract_id": "40143007636", "tract_name": "76.36", "tags": {"building": "yes", "source": "microsoft/BuildingFootprints"}}}, {"type": "Feature", "geometry": {"type": "Polygon", "coordinates": [[[-95.903515, 35.9909925], [-95.9035981, 35.9909937], [-95.9035971, 35.9910381], [-95.9037124, 35.9910398], [-95.9037161, 35.9908771], [-95.9035177, 35.9908742], [-95.903515, 35.9909925]]]}, "properties": {"osm_id": 1235072118, "building": "yes", "name": "", "height": null, "height_m": null, "levels": null, "tract_id": "40143007636", "tract_name": "76.36", "tags": {"building": "yes", "source": "microsoft/BuildingFootprints"}}}, {"type": "Feature", "geometry": {"type": "Polygon", "coordinates": [[[-95.9037493, 35.9910229], [-95.9038552, 35.9910252], [-95.9038548, 35.9910403], [-95.9039566, 35.9910425], [-95.9039592, 35.9909622], [-95.9039324, 35.9909617], [-95.9039353, 35.9908706], [-95.9037543, 35.9908668], [-95.9037493, 35.9910229]]]}, "properties": {"osm_id": 1235072119, "building": "yes", "name": "", "height": null, "height_m": null, "levels": null, "tract_id": "40143007636", "tract_name": "76.36", "tags": {"building": "yes", "source": "microsoft/BuildingFootprints"}}}, {"type": "Feature", "geometry": {"type": "Polygon", "coordinates": [[[-95.9025709, 35.9908551], [-95.9025774, 35.9910493], [-95.9026926, 35.9910468], [-95.9026925, 35.9910434], [-95.9027515, 35.9910421], [-95.9027451, 35.9908513], [-95.9025709, 35.9908551]]]}, "properties": {"osm_id": 1235072120, "building": "yes", "name": "", "height": null, "height_m": null, "levels": null, "tract_id": "40143007636", "tract_name": "76.36", "tags": {"building": "yes", "source": "microsoft/BuildingFootprints"}}}, {"type": "Feature", "geometry": {"type": "Polygon", "coordinates": [[[-95.9025411, 35.9908556], [-95.9023627, 35.9908528], [-95.9023598, 35.9909752], [-95.9023263, 35.9909747], [-95.9023247, 35.9910441], [-95.9024426, 35.991046], [-95.9024434, 35.9910156], [-95.9024836, 35.9910162], [-95.9024828, 35.9910487], [-95.9025364, 35.9910496], [-95.9025411, 35.9908556]]]}, "properties": {"osm_id": 1235072121, "building": "yes", "name": "", "height": null, "height_m": null, "levels": null, "tract_id": "40143007636", "tract_name": "76.36", "tags": {"building": "yes", "source": "microsoft/BuildingFootprints"}}}, {"type": "Feature", "geometry": {"type": "Polygon", "coordinates": [[[-95.9024882, 35.9914895], [-95.9024785, 35.9916279], [-95.9027137, 35.9916388], [-95.9027235, 35.9915003], [-95.9024882, 35.9914895]]]}, "properties": {"osm_id": 1235072122, "building": "yes", "name": "", "height": null, "height_m": null, "levels": null, "tract_id": "40143007636", "tract_name": "76.36", "tags": {"building": "yes", "source": "microsoft/BuildingFootprints"}}}, {"type": "Feature", "geometry": {"type": "Polygon", "coordinates": [[[-95.9019515, 35.9918064], [-95.902068, 35.9918506], [-95.9020825, 35.9918257], [-95.9021419, 35.9918482], [-95.9022181, 35.9917166], [-95.9020279, 35.9916444], [-95.9019923, 35.991706], [-95.9020065, 35.9917114], [-95.9019515, 35.9918064]]]}, "properties": {"osm_id": 1235072123, "building": "yes", "name": "", "height": null, "height_m": null, "levels": null, "tract_id": "40143007636", "tract_name": "76.36", "tags": {"building": "yes", "source": "microsoft/BuildingFootprints"}}}, {"type": "Feature", "geometry": {"type": "Polygon", "coordinates": [[[-95.9017608, 35.9915303], [-95.9017868, 35.99163], [-95.9017457, 35.991637], [-95.9017563, 35.9916774], [-95.9019591, 35.9916427], [-95.9019448, 35.9915879], [-95.9019923, 35.9915798], [-95.9019701, 35.9914946], [-95.9017608, 35.9915303]]]}, "properties": {"osm_id": 1235072124, "building": "yes", "name": "", "height": null, "height_m": null, "levels": null, "tract_id": "40143007636", "tract_name": "76.36", "tags": {"building": "yes", "source": "microsoft/BuildingFootprints"}}}, {"type": "Feature", "geometry": {"type": "Polygon", "coordinates": [[[-95.9017311, 35.9912876], [-95.9017298, 35.9913679], [-95.9017472, 35.991368], [-95.901746, 35.991444], [-95.9019927, 35.9914466], [-95.9019942, 35.9913555], [-95.9019446, 35.9913549], [-95.9019456, 35.9912898], [-95.9017311, 35.9912876]]]}, "properties": {"osm_id": 1235072125, "building": "yes", "name": "", "height": null, "height_m": null, "levels": null, "tract_id": "40143007636", "tract_name": "76.36", "tags": {"building": "yes", "source": "microsoft/BuildingFootprints"}}}, {"type": "Feature", "geometry": {"type": "Polygon", "coordinates": [[[-95.9020614, 35.9910418], [-95.9020596, 35.9909746], [-95.9020315, 35.9909751], [-95.9020279, 35.9908427], [-95.9018523, 35.9908458], [-95.9018564, 35.9909986], [-95.9019489, 35.990997], [-95.9019502, 35.9910438], [-95.9020614, 35.9910418]]]}, "properties": {"osm_id": 1235072126, "building": "yes", "name": "", "height": null, "height_m": null, "levels": null, "tract_id": "40143007636", "tract_name": "76.36", "tags": {"building": "yes", "source": "microsoft/BuildingFootprints"}}}, {"type": "Feature", "geometry": {"type": "Polygon", "coordinates": [[[-95.9018274, 35.9908565], [-95.9016491, 35.9908541], [-95.9016466, 35.9909747], [-95.9016171, 35.9909743], [-95.9016157, 35.9910425], [-95.9017283, 35.991044], [-95.9017289, 35.991017], [-95.9017731, 35.9910176], [-95.9017725, 35.9910467], [-95.9018234, 35.9910474], [-95.9018274, 35.9908565]]]}, "properties": {"osm_id": 1235072182, "building": "yes", "name": "", "height": null, "height_m": null, "levels": null, "tract_id": "40143007636", "tract_name": "76.36", "tags": {"building": "yes", "source": "microsoft/BuildingFootprints"}}}, {"type": "Feature", "geometry": {"type": "Polygon", "coordinates": [[[-95.9007653, 35.991566], [-95.9010188, 35.9915675], [-95.9010185, 35.9915936], [-95.9011231, 35.9915942], [-95.9011243, 35.9914596], [-95.9010666, 35.9914593], [-95.901067, 35.9914246], [-95.9009409, 35.9914238], [-95.9009406, 35.9914542], [-95.9008548, 35.9914537], [-95.9008546, 35.9914732], [-95.9007661, 35.9914727], [-95.9007653, 35.991566]]]}, "properties": {"osm_id": 1235072183, "building": "yes", "name": "", "height": null, "height_m": null, "levels": null, "tract_id": "40143007636", "tract_name": "76.36", "tags": {"building": "yes", "source": "microsoft/BuildingFootprints"}}}, {"type": "Feature", "geometry": {"type": "Polygon", "coordinates": [[[-95.9012472, 35.9910642], [-95.9014402, 35.9910672], [-95.9014441, 35.9909002], [-95.9012028, 35.9908965], [-95.9012007, 35.9909867], [-95.901249, 35.9909875], [-95.9012472, 35.9910642]]]}, "properties": {"osm_id": 1235072184, "building": "yes", "name": "", "height": null, "height_m": null, "levels": null, "tract_id": "40143007636", "tract_name": "76.36", "tags": {"building": "yes", "source": "microsoft/BuildingFootprints"}}}, {"type": "Feature", "geometry": {"type": "Polygon", "coordinates": [[[-95.9006746, 35.9911712], [-95.9008194, 35.9911703], [-95.9008189, 35.9911109], [-95.9008711, 35.9911106], [-95.9008703, 35.9910181], [-95.9006195, 35.9910196], [-95.9006207, 35.9911455], [-95.9006743, 35.9911451], [-95.9006746, 35.9911712]]]}, "properties": {"osm_id": 1235072185, "building": "yes", "name": "", "height": null, "height_m": null, "levels": null, "tract_id": "40143007636", "tract_name": "76.36", "tags": {"building": "yes", "source": "microsoft/BuildingFootprints"}}}, {"type": "Feature", "geometry": {"type": "Polygon", "coordinates": [[[-95.9006388, 35.9909913], [-95.9008587, 35.9909919], [-95.9008591, 35.9909008], [-95.9008216, 35.9909007], [-95.9008218, 35.9908443], [-95.9006073, 35.9908436], [-95.900607, 35.9909066], [-95.9006392, 35.9909067], [-95.9006388, 35.9909913]]]}, "properties": {"osm_id": 1235072186, "building": "yes", "name": "", "height": null, "height_m": null, "levels": null, "tract_id": "40143007636", "tract_name": "76.36", "tags": {"building": "yes", "source": "microsoft/BuildingFootprints"}}}, {"type": "Feature", "geometry": {"type": "Polygon", "coordinates": [[[-95.9012087, 35.9905197], [-95.9015158, 35.9905162], [-95.9015134, 35.9903773], [-95.9013323, 35.9903794], [-95.9013336, 35.990451], [-95.9012075, 35.9904525], [-95.9012087, 35.9905197]]]}, "properties": {"osm_id": 1235072187, "building": "yes", "name": "", "height": null, "height_m": null, "levels": null, "tract_id": "40143007636", "tract_name": "76.36", "tags": {"building": "yes", "source": "microsoft/BuildingFootprints"}}}, {"type": "Feature", "geometry": {"type": "Polygon", "coordinates": [[[-95.9014435, 35.9903336], [-95.9014472, 35.9901939], [-95.9012128, 35.9901897], [-95.901209, 35.9903294], [-95.9014435, 35.9903336]]]}, "properties": {"osm_id": 1235072188, "building": "yes", "name": "", "height": null, "height_m": null, "levels": null, "tract_id": "40143007636", "tract_name": "76.36", "tags": {"building": "yes", "source": "microsoft/BuildingFootprints"}}}, {"type": "Feature", "geometry": {"type": "Polygon", "coordinates": [[[-95.901459, 35.9901564], [-95.9014555, 35.9900102], [-95.9012558, 35.9900134], [-95.901257, 35.9900611], [-95.901226, 35.9900616], [-95.9012284, 35.9901601], [-95.901459, 35.9901564]]]}, "properties": {"osm_id": 1235072189, "building": "yes", "name": "", "height": null, "height_m": null, "levels": null, "tract_id": "40143007636", "tract_name": "76.36", "tags": {"building": "yes", "source": "microsoft/BuildingFootprints"}}}, {"type": "Feature", "geometry": {"type": "Polygon", "coordinates": [[[-95.9006212, 35.990568], [-95.9006507, 35.9905682], [-95.9006499, 35.9906298], [-95.900835, 35.9906313], [-95.9008355, 35.9905836], [-95.9008665, 35.9905838], [-95.9008676, 35.9904905], [-95.9006221, 35.9904885], [-95.9006212, 35.990568]]]}, "properties": {"osm_id": 1235072190, "building": "yes", "name": "", "height": null, "height_m": null, "levels": null, "tract_id": "40143007636", "tract_name": "76.36", "tags": {"building": "yes", "source": "microsoft/BuildingFootprints"}}}, {"type": "Feature", "geometry": {"type": "Polygon", "coordinates": [[[-95.9006502, 35.9900996], [-95.9008647, 35.9901019], [-95.9008673, 35.9899501], [-95.9006528, 35.9899477], [-95.9006502, 35.9900996]]]}, "properties": {"osm_id": 1235072191, "building": "yes", "name": "", "height": null, "height_m": null, "levels": null, "tract_id": "40143007636", "tract_name": "76.36", "tags": {"building": "yes", "source": "microsoft/BuildingFootprints"}}}, {"type": "Feature", "geometry": {"type": "Polygon", "coordinates": [[[-95.9008074, 35.9895525], [-95.9008079, 35.9894991], [-95.9008643, 35.9894995], [-95.9008651, 35.9894105], [-95.9006076, 35.9894089], [-95.9006069, 35.989487], [-95.9006242, 35.9894871], [-95.9006235, 35.9895514], [-95.9008074, 35.9895525]]]}, "properties": {"osm_id": 1235072192, "building": "yes", "name": "", "height": null, "height_m": null, "levels": null, "tract_id": "40143007636", "tract_name": "76.36", "tags": {"building": "yes", "source": "microsoft/BuildingFootprints"}}}, {"type": "Feature", "geometry": {"type": "Polygon", "coordinates": [[[-95.9006411, 35.9893123], [-95.9006652, 35.9893126], [-95.9006638, 35.989382], [-95.9008676, 35.9893848], [-95.9008706, 35.9892372], [-95.9006427, 35.9892342], [-95.9006411, 35.9893123]]]}, "properties": {"osm_id": 1235072193, "building": "yes", "name": "", "height": null, "height_m": null, "levels": null, "tract_id": "40143007636", "tract_name": "76.36", "tags": {"building": "yes", "source": "microsoft/BuildingFootprints"}}}, {"type": "Feature", "geometry": {"type": "Polygon", "coordinates": [[[-95.9012205, 35.9897387], [-95.9014577, 35.9897413], [-95.9014601, 35.9895981], [-95.9012229, 35.9895955], [-95.9012205, 35.9897387]]]}, "properties": {"osm_id": 1235072194, "building": "yes", "name": "", "height": null, "height_m": null, "levels": null, "tract_id": "40143007636", "tract_name": "76.36", "tags": {"building": "yes", "source": "microsoft/BuildingFootprints"}}}, {"type": "Feature", "geometry": {"type": "Polygon", "coordinates": [[[-95.9006683, 35.9895943], [-95.9006733, 35.9897418], [-95.9008809, 35.9897371], [-95.9008777, 35.9896438], [-95.9008884, 35.9896436], [-95.9008866, 35.9895894], [-95.9006683, 35.9895943]]]}, "properties": {"osm_id": 1235072195, "building": "yes", "name": "", "height": null, "height_m": null, "levels": null, "tract_id": "40143007636", "tract_name": "76.36", "tags": {"building": "yes", "source": "microsoft/BuildingFootprints"}}}, {"type": "Feature", "geometry": {"type": "Polygon", "coordinates": [[[-95.9012748, 35.9895712], [-95.9014545, 35.9895701], [-95.901453, 35.9894117], [-95.9012185, 35.9894131], [-95.9012194, 35.9895034], [-95.9012742, 35.9895031], [-95.9012748, 35.9895712]]]}, "properties": {"osm_id": 1235072196, "building": "yes", "name": "", "height": null, "height_m": null, "levels": null, "tract_id": "40143007636", "tract_name": "76.36", "tags": {"building": "yes", "source": "microsoft/BuildingFootprints"}}}, {"type": "Feature", "geometry": {"type": "Polygon", "coordinates": [[[-95.9012486, 35.9892341], [-95.9012485, 35.9893751], [-95.9014711, 35.9893753], [-95.9014712, 35.9892342], [-95.9012486, 35.9892341]]]}, "properties": {"osm_id": 1235072197, "building": "yes", "name": "", "height": null, "height_m": null, "levels": null, "tract_id": "40143007636", "tract_name": "76.36", "tags": {"building": "yes", "source": "microsoft/BuildingFootprints"}}}, {"type": "Feature", "geometry": {"type": "Polygon", "coordinates": [[[-95.9014712, 35.9890629], [-95.9012282, 35.9890625], [-95.9012278, 35.9892079], [-95.9014708, 35.9892084], [-95.9014712, 35.9890629]]]}, "properties": {"osm_id": 1235072198, "building": "yes", "name": "", "height": null, "height_m": null, "levels": null, "tract_id": "40143007636", "tract_name": "76.36", "tags": {"building": "yes", "source": "microsoft/BuildingFootprints"}}}, {"type": "Feature", "geometry": {"type": "Polygon", "coordinates": [[[-95.9012496, 35.9890172], [-95.9014626, 35.9890183], [-95.9014631, 35.9889532], [-95.9014835, 35.9889533], [-95.9014841, 35.9888773], [-95.9012507, 35.9888761], [-95.9012496, 35.9890172]]]}, "properties": {"osm_id": 1235072199, "building": "yes", "name": "", "height": null, "height_m": null, "levels": null, "tract_id": "40143007636", "tract_name": "76.36", "tags": {"building": "yes", "source": "microsoft/BuildingFootprints"}}}, {"type": "Feature", "geometry": {"type": "Polygon", "coordinates": [[[-95.9012263, 35.9888464], [-95.9014584, 35.9888511], [-95.9014629, 35.9887066], [-95.9012308, 35.9887019], [-95.9012263, 35.9888464]]]}, "properties": {"osm_id": 1235072200, "building": "yes", "name": "", "height": null, "height_m": null, "levels": null, "tract_id": "40143007636", "tract_name": "76.36", "tags": {"building": "yes", "source": "microsoft/BuildingFootprints"}}}, {"type": "Feature", "geometry": {"type": "Polygon", "coordinates": [[[-95.9006697, 35.9888457], [-95.9008816, 35.9888452], [-95.9008811, 35.9886976], [-95.9006692, 35.9886981], [-95.9006697, 35.9888457]]]}, "properties": {"osm_id": 1235072201, "building": "yes", "name": "", "height": null, "height_m": null, "levels": null, "tract_id": "40143007636", "tract_name": "76.36", "tags": {"building": "yes", "source": "microsoft/BuildingFootprints"}}}, {"type": "Feature", "geometry": {"type": "Polygon", "coordinates": [[[-95.9008418, 35.9888753], [-95.9006687, 35.9888724], [-95.9006647, 35.9890277], [-95.9008872, 35.9890315], [-95.9008895, 35.9889412], [-95.9008401, 35.9889404], [-95.9008418, 35.9888753]]]}, "properties": {"osm_id": 1235072202, "building": "yes", "name": "", "height": null, "height_m": null, "levels": null, "tract_id": "40143007636", "tract_name": "76.36", "tags": {"building": "yes", "source": "microsoft/BuildingFootprints"}}}, {"type": "Feature", "geometry": {"type": "Polygon", "coordinates": [[[-95.9024095, 36.016227], [-95.9021708, 36.0162271], [-95.9021717, 36.0170472], [-95.9024104, 36.017047], [-95.9024099, 36.0165511], [-95.902434, 36.0165511], [-95.9024339, 36.0164678], [-95.9024098, 36.0164678], [-95.9024095, 36.016227]]]}, "properties": {"osm_id": 1235074752, "building": "yes", "name": "", "height": null, "height_m": null, "levels": null, "tract_id": "40143007636", "tract_name": "76.36", "tags": {"building": "yes", "source": "microsoft/BuildingFootprints"}}}, {"type": "Feature", "geometry": {"type": "Polygon", "coordinates": [[[-95.9031719, 36.0170674], [-95.9031715, 36.0168439], [-95.9030708, 36.016844], [-95.9030708, 36.0167984], [-95.9029891, 36.0167985], [-95.9029891, 36.0168453], [-95.9029489, 36.0168453], [-95.902949, 36.0168735], [-95.9026646, 36.0168738], [-95.9026646, 36.0168422], [-95.9025627, 36.0168423], [-95.902563, 36.017067], [-95.9028285, 36.0170667], [-95.9028286, 36.0170928], [-95.9029064, 36.0170927], [-95.9029063, 36.0170676], [-95.9031719, 36.0170674]]]}, "properties": {"osm_id": 1235074753, "building": "yes", "name": "", "height": null, "height_m": null, "levels": null, "tract_id": "40143007636", "tract_name": "76.36", "tags": {"building": "yes", "source": "microsoft/BuildingFootprints"}}}, {"type": "Feature", "geometry": {"type": "Polygon", "coordinates": [[[-95.9035745, 36.0169177], [-95.9035749, 36.0170153], [-95.9038525, 36.0170146], [-95.9038521, 36.016917], [-95.9035745, 36.0169177]]]}, "properties": {"osm_id": 1235074754, "building": "retail", "name": "Fiesta Mart", "height": null, "height_m": null, "levels": null, "tract_id": "40143007636", "tract_name": "76.36", "tags": {"addr:city": "Tulsa", "addr:housenumber": "6506", "addr:postcode": "74133", "addr:street": "East 101st Street", "building": "retail", "name": "Fiesta Mart", "ref": "43", "shop": "convenience"}}}, {"type": "Feature", "geometry": {"type": "Polygon", "coordinates": [[[-95.8870716, 35.9915473], [-95.8870591, 35.9915472], [-95.8870595, 35.9914455], [-95.887072, 35.9914455], [-95.8870723, 35.9913976], [-95.8872572, 35.9913982], [-95.887257, 35.9914505], [-95.8873353, 35.9914508], [-95.887421, 35.991451], [-95.8874205, 35.9915483], [-95.8873339, 35.9915481], [-95.8872565, 35.9915478], [-95.8872561, 35.9916307], [-95.8870712, 35.9916302], [-95.8870716, 35.9915473]]]}, "properties": {"osm_id": 1315569030, "building": "commercial", "name": "IBC Bank", "height": null, "height_m": null, "levels": null, "tract_id": "40143007636", "tract_name": "76.36", "tags": {"addr:city": "Bixby", "addr:country": "US", "addr:housenumber": "11886", "addr:postcode": "74008", "addr:state": "OK", "addr:street": "South Memorial Drive East", "amenity": "bank", "brand": "IBC Bank", "brand:wikidata": "Q6048697", "building": "commercial", "name": "IBC Bank", "phone": "+1 918 943 3229"}}}, {"type": "Feature", "geometry": {"type": "Polygon", "coordinates": [[[-95.9037803, 36.0171672], [-95.9036475, 36.0171675], [-95.903647, 36.0170367], [-95.9037798, 36.0170363], [-95.9037803, 36.0171672]]]}, "properties": {"osm_id": 1338768389, "building": "roof", "name": "Sinclair", "height": null, "height_m": null, "levels": null, "tract_id": "40143007636", "tract_name": "76.36", "tags": {"amenity": "fuel", "brand": "Sinclair", "brand:wikidata": "Q1290900", "building": "roof", "check_date": "2024-09-25", "name": "Sinclair", "phone": "+1 918-252-0508", "website": "https://stations.sinclairoil.com/ok/tulsa/6506-e-101st-st"}}}, {"type": "Feature", "geometry": {"type": "Polygon", "coordinates": [[[-95.9038692, 36.0168733], [-95.9036984, 36.0168738], [-95.9036981, 36.0168064], [-95.9038689, 36.0168059], [-95.9038692, 36.0168733]]]}, "properties": {"osm_id": 1338768390, "building": "yes", "name": "", "height": null, "height_m": null, "levels": null, "tract_id": "40143007636", "tract_name": "76.36", "tags": {"amenity": "car_wash", "building": "yes"}}}, {"type": "Feature", "geometry": {"type": "Polygon", "coordinates": [[[-95.8878065, 35.9978611], [-95.8874077, 35.997863], [-95.8874062, 35.9976533], [-95.8878049, 35.9976513], [-95.8878065, 35.9978611]]]}, "properties": {"osm_id": 1418116655, "building": "retail", "name": "Buffalo Wild Wings", "height": null, "height_m": null, "levels": null, "tract_id": "40143007636", "tract_name": "76.36", "tags": {"amenity": "restaurant", "brand": "Buffalo Wild Wings", "brand:wikidata": "Q509255", "building": "retail", "cuisine": "wings", "name": "Buffalo Wild Wings", "short_name": "BW3"}}}, {"type": "Feature", "geometry": {"type": "Polygon", "coordinates": [[[-95.887396, 35.9896119], [-95.8873993, 35.9893827], [-95.8871272, 35.9893802], [-95.887124, 35.9896094], [-95.887396, 35.9896119]]]}, "properties": {"osm_id": 1418116656, "building": "retail", "name": "Jimmy John's", "height": null, "height_m": null, "levels": null, "tract_id": "40143007636", "tract_name": "76.36", "tags": {"addr:city": "Bixby", "addr:country": "US", "addr:housenumber": "11982", "addr:postcode": "74008", "addr:state": "OK", "addr:street": "South Memorial Drive East", "amenity": "fast_food", "brand": "Jimmy John's", "brand:wikidata": "Q1689380", "building": "retail", "cuisine": "sandwich", "name": "Jimmy John's", "official_name": "Jimmy John's Gourmet Sandwiches", "takeaway": "yes"}}}, {"type": "Feature", "geometry": {"type": "Polygon", "coordinates": [[[-95.887263, 35.9889668], [-95.8871624, 35.9889668], [-95.8871624, 35.9888485], [-95.8870779, 35.9888485], [-95.8870779, 35.9887899], [-95.8870967, 35.9887899], [-95.8870967, 35.988651], [-95.8872992, 35.988651], [-95.8872992, 35.9887313], [-95.8873609, 35.9887313], [-95.8873609, 35.9888441], [-95.887263, 35.9888441], [-95.887263, 35.9889668]]]}, "properties": {"osm_id": 1431431035, "building": "retail", "name": "Bank of Oklahoma", "height": null, "height_m": null, "levels": null, "tract_id": "40143007636", "tract_name": "76.36", "tags": {"addr:city": "Bixby", "addr:country": "US", "addr:housenumber": "12052", "addr:postcode": "74008", "addr:state": "OK", "addr:street": "South Memorial Drive East", "amenity": "bank", "building": "retail", "name": "Bank of Oklahoma"}}}, {"type": "Feature", "geometry": {"type": "Polygon", "coordinates": [[[-95.887157, 35.9967168], [-95.8872401, 35.9967158], [-95.8872362, 35.996501], [-95.8871531, 35.996502], [-95.887157, 35.9967168]]]}, "properties": {"osm_id": 1431559069, "building": "roof", "name": "", "height": null, "height_m": null, "levels": null, "tract_id": "40143007636", "tract_name": "76.36", "tags": {"building": "roof"}}}, {"type": "Feature", "geometry": {"type": "Polygon", "coordinates": [[[-95.8870685, 35.996475], [-95.8873581, 35.9964725], [-95.8873567, 35.9963597], [-95.887067, 35.9963608], [-95.8870685, 35.996475]]]}, "properties": {"osm_id": 1431559070, "building": "retail", "name": "Enterprise Sod Store", "height": null, "height_m": null, "levels": null, "tract_id": "40143007636", "tract_name": "76.36", "tags": {"addr:city": "Bixby", "addr:country": "US", "addr:housenumber": "11590", "addr:postcode": "74008", "addr:state": "OK", "addr:street": "South Memorial Drive East", "building": "retail", "name": "Enterprise Sod Store", "shop": "garden_centre"}}}, {"type": "Feature", "geometry": {"type": "Polygon", "coordinates": [[[-95.8889095, 35.9932312], [-95.8888965, 35.9932309], [-95.888894, 35.9932919], [-95.8887979, 35.9932893], [-95.8887995, 35.9932497], [-95.8887647, 35.9932488], [-95.8887674, 35.9931814], [-95.8888022, 35.9931824], [-95.8888057, 35.9930965], [-95.8889148, 35.9930994], [-95.8889095, 35.9932312]]]}, "properties": {"osm_id": 1431859005, "building": "detached", "name": "", "height": null, "height_m": null, "levels": null, "tract_id": "40143007636", "tract_name": "76.36", "tags": {"addr:city": "Bixby", "addr:country": "US", "addr:housenumber": "11769", "addr:postcode": "74008", "addr:state": "OK", "addr:street": "South 77th Avenue East", "building": "detached"}}}, {"type": "Feature", "geometry": {"type": "Polygon", "coordinates": [[[-95.8886913, 35.9935724], [-95.8887041, 35.9933744], [-95.8888228, 35.9933794], [-95.88881, 35.9935774], [-95.8886913, 35.9935724]]]}, "properties": {"osm_id": 1431859006, "building": "detached", "name": "", "height": null, "height_m": null, "levels": null, "tract_id": "40143007636", "tract_name": "76.36", "tags": {"addr:city": "Bixby", "addr:country": "US", "addr:housenumber": "11759", "addr:postcode": "74008", "addr:state": "OK", "addr:street": "South 77th Avenue East", "building": "detached"}}}, {"type": "Feature", "geometry": {"type": "Polygon", "coordinates": [[[-95.8885176, 35.9943222], [-95.8883788, 35.9943217], [-95.8883794, 35.9942311], [-95.8885182, 35.9942316], [-95.8885176, 35.9943222]]]}, "properties": {"osm_id": 1431859007, "building": "yes", "name": "", "height": null, "height_m": null, "levels": null, "tract_id": "40143007636", "tract_name": "76.36", "tags": {"building": "yes"}}}, {"type": "Feature", "geometry": {"type": "Polygon", "coordinates": [[[-95.8887818, 35.994115], [-95.8887863, 35.9940281], [-95.8887387, 35.9940265], [-95.8887423, 35.9939572], [-95.8886055, 35.9939526], [-95.8885974, 35.9941087], [-95.8887818, 35.994115]]]}, "properties": {"osm_id": 1431859008, "building": "detached", "name": "", "height": null, "height_m": null, "levels": null, "tract_id": "40143007636", "tract_name": "76.36", "tags": {"building": "detached"}}}, {"type": "Feature", "geometry": {"type": "Polygon", "coordinates": [[[-95.8886246, 35.9946198], [-95.8887384, 35.9946186], [-95.8887397, 35.9946998], [-95.8887675, 35.9946995], [-95.8887685, 35.9947626], [-95.8886141, 35.9947642], [-95.888613, 35.9947013], [-95.8886259, 35.9947012], [-95.8886246, 35.9946198]]]}, "properties": {"osm_id": 1431859009, "building": "detached", "name": "", "height": null, "height_m": null, "levels": null, "tract_id": "40143007636", "tract_name": "76.36", "tags": {"addr:city": "Bixby", "addr:country": "US", "addr:housenumber": "11641", "addr:postcode": "74008", "addr:state": "OK", "addr:street": "South 77th Avenue East", "building": "detached"}}}, {"type": "Feature", "geometry": {"type": "Polygon", "coordinates": [[[-95.8885763, 35.9953357], [-95.8887321, 35.9953371], [-95.8887324, 35.9953096], [-95.8887481, 35.9953097], [-95.8887488, 35.9952629], [-95.888769, 35.9952631], [-95.88877, 35.995189], [-95.8885783, 35.9951873], [-95.8885763, 35.9953357]]]}, "properties": {"osm_id": 1431859010, "building": "detached", "name": "", "height": null, "height_m": null, "levels": null, "tract_id": "40143007636", "tract_name": "76.36", "tags": {"addr:city": "Bixby", "addr:country": "US", "addr:housenumber": "11607", "addr:postcode": "74008", "addr:state": "OK", "addr:street": "South 77th Avenue East", "building": "detached"}}}, {"type": "Feature", "geometry": {"type": "Polygon", "coordinates": [[[-95.8895215, 35.9928319], [-95.8894193, 35.9928279], [-95.8894229, 35.9927667], [-95.8894087, 35.9927662], [-95.8894179, 35.9926125], [-95.8895342, 35.992617], [-95.8895292, 35.9927016], [-95.889566, 35.992703], [-95.8895623, 35.992765], [-95.8895255, 35.9927636], [-95.8895215, 35.9928319]]]}, "properties": {"osm_id": 1431860762, "building": "detached", "name": "", "height": null, "height_m": null, "levels": null, "tract_id": "40143007636", "tract_name": "76.36", "tags": {"addr:city": "Bixby", "addr:country": "US", "addr:housenumber": "11786", "addr:postcode": "74008", "addr:state": "OK", "addr:street": "South 77th Avenue East", "building": "detached"}}}, {"type": "Feature", "geometry": {"type": "Polygon", "coordinates": [[[-95.8895262, 35.9931129], [-95.8893772, 35.9931064], [-95.8893812, 35.9930459], [-95.889391, 35.9930463], [-95.889394, 35.993002], [-95.8894135, 35.9930029], [-95.8894173, 35.9929471], [-95.8895369, 35.9929523], [-95.8895313, 35.993036], [-95.8895694, 35.9930376], [-95.8895655, 35.9930961], [-95.8895274, 35.9930944], [-95.8895262, 35.9931129]]]}, "properties": {"osm_id": 1431860763, "building": "detached", "name": "", "height": null, "height_m": null, "levels": null, "tract_id": "40143007636", "tract_name": "76.36", "tags": {"addr:city": "Bixby", "addr:country": "US", "addr:housenumber": "11774", "addr:postcode": "74008", "addr:state": "OK", "addr:street": "South 77th Avenue East", "building": "detached"}}}, {"type": "Feature", "geometry": {"type": "Polygon", "coordinates": [[[-95.8893498, 35.9933939], [-95.8894602, 35.9934015], [-95.8894644, 35.9933618], [-95.8895315, 35.9933664], [-95.8895402, 35.9932834], [-95.8894731, 35.9932788], [-95.8894797, 35.993216], [-95.8893693, 35.9932084], [-95.8893663, 35.9932368], [-95.8893441, 35.9932353], [-95.8893341, 35.993331], [-95.8893562, 35.9933325], [-95.8893498, 35.9933939]]]}, "properties": {"osm_id": 1431860764, "building": "detached", "name": "", "height": null, "height_m": null, "levels": null, "tract_id": "40143007636", "tract_name": "76.36", "tags": {"addr:city": "Bixby", "addr:country": "US", "addr:housenumber": "11766", "addr:postcode": "74008", "addr:state": "OK", "addr:street": "South 77th Avenue East", "building": "detached"}}}, {"type": "Feature", "geometry": {"type": "Polygon", "coordinates": [[[-95.889505, 35.9936308], [-95.8894276, 35.9936299], [-95.8894272, 35.993655], [-95.8893328, 35.9936541], [-95.8893339, 35.993584], [-95.8893995, 35.9935847], [-95.8894008, 35.9935027], [-95.889507, 35.9935038], [-95.889505, 35.9936308]]]}, "properties": {"osm_id": 1431860765, "building": "detached", "name": "", "height": null, "height_m": null, "levels": null, "tract_id": "40143007636", "tract_name": "76.36", "tags": {"addr:city": "Bixby", "addr:country": "US", "addr:housenumber": "11758", "addr:postcode": "74008", "addr:state": "OK", "addr:street": "South 77th Avenue East", "building": "detached"}}}, {"type": "Feature", "geometry": {"type": "Polygon", "coordinates": [[[-95.8875903, 35.9923647], [-95.8873978, 35.9923639], [-95.8873998, 35.9920633], [-95.8875923, 35.9920642], [-95.8875903, 35.9923647]]]}, "properties": {"osm_id": 1432175201, "building": "yes", "name": "", "height": null, "height_m": null, "levels": null, "tract_id": "40143007636", "tract_name": "76.36", "tags": {"building": "yes"}}}, {"type": "Feature", "geometry": {"type": "Polygon", "coordinates": [[[-95.8871725, 35.9923653], [-95.88706, 35.9923662], [-95.8870566, 35.9921047], [-95.8871692, 35.9921038], [-95.8871725, 35.9923653]]]}, "properties": {"osm_id": 1432175202, "building": "garage", "name": "Jiffy Lube", "height": null, "height_m": null, "levels": null, "tract_id": "40143007636", "tract_name": "76.36", "tags": {"addr:city": "Bixby", "addr:country": "US", "addr:housenumber": "11800", "addr:postcode": "74008", "addr:state": "OK", "addr:street": "South Memorial Drive East", "brand": "Jiffy Lube", "brand:wikidata": "Q6192247", "building": "garage", "name": "Jiffy Lube", "shop": "car_repair"}}}, {"type": "Feature", "geometry": {"type": "Polygon", "coordinates": [[[-95.8879088, 35.9899607], [-95.8879128, 35.9893617], [-95.8883916, 35.9893638], [-95.8883876, 35.9899628], [-95.8879088, 35.9899607]]]}, "properties": {"osm_id": 1432175225, "building": "yes", "name": "", "height": null, "height_m": null, "levels": null, "tract_id": "40143007636", "tract_name": "76.36", "tags": {"building": "yes"}}}, {"type": "Feature", "geometry": {"type": "Polygon", "coordinates": [[[-95.8890353, 35.9905651], [-95.8894209, 35.9903023], [-95.888977, 35.9898759], [-95.8885914, 35.9901387], [-95.8890353, 35.9905651]]]}, "properties": {"osm_id": 1432175228, "building": "church", "name": "The Bridge Church", "height": null, "height_m": null, "levels": null, "tract_id": "40143007636", "tract_name": "76.36", "tags": {"addr:city": "Bixby", "addr:country": "US", "addr:housenumber": "7731", "addr:postcode": "74008", "addr:state": "OK", "addr:street": "East 119th Street South", "amenity": "place_of_worship", "building": "church", "name": "The Bridge Church"}}}, {"type": "Feature", "geometry": {"type": "Polygon", "coordinates": [[[-95.8870579, 35.9914118], [-95.8870324, 35.9914118], [-95.8870324, 35.9913939], [-95.8870448, 35.9913939], [-95.8870579, 35.9913939], [-95.8870579, 35.9914118]]]}, "properties": {"osm_id": 1433621320, "building": "kiosk", "name": "", "height": null, "height_m": null, "levels": null, "tract_id": "40143007636", "tract_name": "76.36", "tags": {"building": "kiosk"}}}, {"type": "Feature", "geometry": {"type": "Polygon", "coordinates": [[[-95.887655, 35.9961995], [-95.8876558, 35.9962437], [-95.887248, 35.9962491], [-95.8872471, 35.9962049], [-95.887655, 35.9961995]]]}, "properties": {"osm_id": 1433630729, "building": "yes", "name": "", "height": null, "height_m": null, "levels": null, "tract_id": "40143007636", "tract_name": "76.36", "tags": {"building": "yes"}}}, {"type": "Feature", "geometry": {"type": "Polygon", "coordinates": [[[-95.8870626, 35.9960773], [-95.8870205, 35.9960774], [-95.8870203, 35.9960339], [-95.8870623, 35.9960337], [-95.8870626, 35.9960773]]]}, "properties": {"osm_id": 1433630730, "building": "yes", "name": "", "height": null, "height_m": null, "levels": null, "tract_id": "40143007636", "tract_name": "76.36", "tags": {"building": "yes"}}}, {"type": "Feature", "geometry": {"type": "Polygon", "coordinates": [[[-95.8877221, 35.9961243], [-95.8872766, 35.9961258], [-95.887276, 35.9960045], [-95.8874007, 35.996004], [-95.8874011, 35.9960794], [-95.8877218, 35.9960783], [-95.8877221, 35.9961243]]]}, "properties": {"osm_id": 1433630731, "building": "yes", "name": "", "height": null, "height_m": null, "levels": null, "tract_id": "40143007636", "tract_name": "76.36", "tags": {"building": "yes"}}}, {"type": "Feature", "geometry": {"type": "Polygon", "coordinates": [[[-95.8878364, 35.9960735], [-95.8876077, 35.9960751], [-95.8876048, 35.9958113], [-95.8877058, 35.9958106], [-95.8877072, 35.9959409], [-95.8878349, 35.99594], [-95.8878364, 35.9960735]]]}, "properties": {"osm_id": 1433630732, "building": "yes", "name": "", "height": null, "height_m": null, "levels": null, "tract_id": "40143007636", "tract_name": "76.36", "tags": {"building": "yes"}}}, {"type": "Feature", "geometry": {"type": "Polygon", "coordinates": [[[-95.8874575, 35.9958657], [-95.8873643, 35.9958619], [-95.8873675, 35.9958097], [-95.8874608, 35.9958135], [-95.8874575, 35.9958657]]]}, "properties": {"osm_id": 1433630733, "building": "yes", "name": "", "height": null, "height_m": null, "levels": null, "tract_id": "40143007636", "tract_name": "76.36", "tags": {"building": "yes"}}}, {"type": "Feature", "geometry": {"type": "Polygon", "coordinates": [[[-95.8871645, 35.9958456], [-95.8869801, 35.9958489], [-95.8869763, 35.995709], [-95.8871607, 35.9957057], [-95.8871645, 35.9958456]]]}, "properties": {"osm_id": 1433630734, "building": "retail", "name": "Materials Hardscape", "height": null, "height_m": null, "levels": null, "tract_id": "40143007636", "tract_name": "76.36", "tags": {"addr:city": "Bixby", "addr:country": "US", "addr:housenumber": "11610;11704", "addr:postcode": "74008", "addr:state": "OK", "addr:street": "South Memorial Drive East", "building": "retail", "name": "Materials Hardscape", "shop": "trade"}}}, {"type": "Feature", "geometry": {"type": "Polygon", "coordinates": [[[-95.8874039, 35.9955592], [-95.8874015, 35.9953299], [-95.8874548, 35.9953296], [-95.8874572, 35.9955588], [-95.8874039, 35.9955592]]]}, "properties": {"osm_id": 1433630735, "building": "yes", "name": "", "height": null, "height_m": null, "levels": null, "tract_id": "40143007636", "tract_name": "76.36", "tags": {"building": "yes"}}}, {"type": "Feature", "geometry": {"type": "Polygon", "coordinates": [[[-95.8872689, 35.9953588], [-95.8871982, 35.9953594], [-95.8871975, 35.9953043], [-95.8872682, 35.9953038], [-95.8872689, 35.9953588]]]}, "properties": {"osm_id": 1433630736, "building": "carport", "name": "", "height": null, "height_m": null, "levels": null, "tract_id": "40143007636", "tract_name": "76.36", "tags": {"building": "carport"}}}, {"type": "Feature", "geometry": {"type": "Polygon", "coordinates": [[[-95.8873425, 35.9953582], [-95.8872718, 35.9953587], [-95.8872711, 35.9953037], [-95.8873418, 35.9953031], [-95.8873425, 35.9953582]]]}, "properties": {"osm_id": 1433630737, "building": "carport", "name": "", "height": null, "height_m": null, "levels": null, "tract_id": "40143007636", "tract_name": "76.36", "tags": {"building": "carport"}}}, {"type": "Feature", "geometry": {"type": "Polygon", "coordinates": [[[-95.8873402, 35.9951235], [-95.8869314, 35.9951245], [-95.8869311, 35.9950579], [-95.8873399, 35.9950568], [-95.8873402, 35.9951235]]]}, "properties": {"osm_id": 1433630738, "building": "warehouse", "name": "", "height": null, "height_m": null, "levels": null, "tract_id": "40143007636", "tract_name": "76.36", "tags": {"building": "warehouse"}}}, {"type": "Feature", "geometry": {"type": "Polygon", "coordinates": [[[-95.8873576, 35.9954848], [-95.8873571, 35.9953683], [-95.8869246, 35.9953693], [-95.8869251, 35.9954859], [-95.8873576, 35.9954848]]]}, "properties": {"osm_id": 1433630739, "building": "garages", "name": "South Manufacturing Company", "height": null, "height_m": null, "levels": null, "tract_id": "40143007636", "tract_name": "76.36", "tags": {"addr:city": "Bixby", "addr:country": "US", "addr:housenumber": "11640", "addr:postcode": "74008", "addr:state": "OK", "addr:street": "South Memorial Drive East", "building": "garages", "name": "South Manufacturing Company", "office": "company"}}}, {"type": "Feature", "geometry": {"type": "Polygon", "coordinates": [[[-95.8876992, 35.9939461], [-95.8875046, 35.9939504], [-95.8875001, 35.9938178], [-95.8876947, 35.9938135], [-95.8876992, 35.9939461]]]}, "properties": {"osm_id": 1433630745, "building": "yes", "name": "", "height": null, "height_m": null, "levels": null, "tract_id": "40143007636", "tract_name": "76.36", "tags": {"building": "yes"}}}, {"type": "Feature", "geometry": {"type": "Polygon", "coordinates": [[[-95.8872999, 35.9940081], [-95.8872999, 35.9940411], [-95.8869653, 35.9940406], [-95.8869654, 35.9940076], [-95.8872999, 35.9940081]]]}, "properties": {"osm_id": 1433630746, "building": "yes", "name": "", "height": null, "height_m": null, "levels": null, "tract_id": "40143007636", "tract_name": "76.36", "tags": {"building": "yes"}}}, {"type": "Feature", "geometry": {"type": "Polygon", "coordinates": [[[-95.88732, 35.9943813], [-95.8871049, 35.9943811], [-95.8871055, 35.9940479], [-95.8873207, 35.9940482], [-95.88732, 35.9943813]]]}, "properties": {"osm_id": 1433630747, "building": "greenhouse", "name": "", "height": null, "height_m": null, "levels": null, "tract_id": "40143007636", "tract_name": "76.36", "tags": {"building": "greenhouse"}}}, {"type": "Feature", "geometry": {"type": "Polygon", "coordinates": [[[-95.8869968, 35.9942557], [-95.8871032, 35.9942551], [-95.8871022, 35.9941447], [-95.8869958, 35.9941453], [-95.8869968, 35.9942557]]]}, "properties": {"osm_id": 1433630748, "building": "detached", "name": "The Garden Center", "height": null, "height_m": null, "levels": null, "tract_id": "40143007636", "tract_name": "76.36", "tags": {"addr:city": "Bixby", "addr:country": "US", "addr:housenumber": "11610", "addr:postcode": "74008", "addr:state": "OK", "addr:street": "South Memorial Drive East", "building": "detached", "name": "The Garden Center", "shop": "garden_centre"}}}, {"type": "Feature", "geometry": {"type": "Polygon", "coordinates": [[[-95.8873564, 35.9902742], [-95.8871913, 35.990274], [-95.8871913, 35.9902564], [-95.8871011, 35.9902564], [-95.8871014, 35.9900976], [-95.8871571, 35.9900977], [-95.8871571, 35.9900812], [-95.8872356, 35.9900812], [-95.8872356, 35.9900681], [-95.8873181, 35.9900682], [-95.887318, 35.9900978], [-95.8873567, 35.9900979], [-95.8873564, 35.9902742]]]}, "properties": {"osm_id": 1434653386, "building": "office", "name": "Nowlin Orthodontics", "height": null, "height_m": null, "levels": null, "tract_id": "40143007636", "tract_name": "76.36", "tags": {"addr:city": "Bixby", "addr:country": "US", "addr:housenumber": "11910", "addr:postcode": "74008", "addr:state": "OK", "addr:street": "South Memorial Drive East", "amenity": "dentist", "building": "office", "healthcare": "dentist", "healthcare:speciality": "orthodontics", "name": "Nowlin Orthodontics"}}}, {"type": "Feature", "geometry": {"type": "Polygon", "coordinates": [[[-95.8873522, 35.9900193], [-95.8870921, 35.9900182], [-95.887093, 35.9898669], [-95.8873532, 35.989868], [-95.8873522, 35.9900193]]]}, "properties": {"osm_id": 1434653387, "building": "office", "name": "The Eye Center", "height": null, "height_m": null, "levels": null, "tract_id": "40143007636", "tract_name": "76.36", "tags": {"addr:city": "Bixby", "addr:country": "US", "addr:housenumber": "11920", "addr:postcode": "74008", "addr:state": "OK", "addr:street": "South Memorial Drive East", "branch": "South Tulsa", "building": "office", "healthcare": "optometrist", "name": "The Eye Center"}}}]}