{"type": "FeatureCollection", "features": [{"type": "Feature", "geometry": {"type": "Polygon", "coordinates": [[[-95.3079115, 35.7284885], [-95.3079537, 35.7271421], [-95.3080647, 35.7271443], [-95.3080613, 35.7272534], [-95.30829, 35.7272581], [-95.3082857, 35.7273948], [-95.308375, 35.7273966], [-95.308362, 35.7278104], [-95.3082863, 35.7278088], [-95.3082647, 35.7284958], [-95.3079115, 35.7284885]]]}, "properties": {"osm_id": 392837245, "building": "factory", "name": "", "height": null, "height_m": null, "levels": null, "tract_id": "40101001301", "tract_name": "13.01", "tags": {"building": "factory"}}}, {"type": "Feature", "geometry": {"type": "Polygon", "coordinates": [[[-95.3085468, 35.7268016], [-95.3084605, 35.7268355], [-95.3082635, 35.7265042], [-95.3083498, 35.7264704], [-95.3085468, 35.7268016]]]}, "properties": {"osm_id": 392837248, "building": "industrial", "name": "", "height": null, "height_m": null, "levels": null, "tract_id": "40101001301", "tract_name": "13.01", "tags": {"building": "industrial"}}}, {"type": "Feature", "geometry": {"type": "Polygon", "coordinates": [[[-95.2974468, 35.7315185], [-95.2974402, 35.7308241], [-95.297786, 35.730822], [-95.2977926, 35.7315166], [-95.2975874, 35.7315179], [-95.297588, 35.7315807], [-95.2974474, 35.7315815], [-95.2974468, 35.7315185]]]}, "properties": {"osm_id": 607537480, "building": "yes", "name": "", "height": null, "height_m": null, "levels": null, "tract_id": "40101001301", "tract_name": "13.01", "tags": {"building": "yes"}}}, {"type": "Feature", "geometry": {"type": "Polygon", "coordinates": [[[-95.2966482, 35.7312977], [-95.2965663, 35.7312975], [-95.2950346, 35.7312979], [-95.2949635, 35.7313001], [-95.2947202, 35.7313003], [-95.2947144, 35.730996], [-95.2947165, 35.7301402], [-95.2947103, 35.7282762], [-95.2977115, 35.7282761], [-95.2977123, 35.7301384], [-95.2966922, 35.730145], [-95.2966971, 35.7309855], [-95.2966969, 35.7312993], [-95.2966482, 35.7312977]]]}, "properties": {"osm_id": 607537481, "building": "yes", "name": "", "height": null, "height_m": null, "levels": null, "tract_id": "40101001301", "tract_name": "13.01", "tags": {"building": "yes"}}}, {"type": "Feature", "geometry": {"type": "Polygon", "coordinates": [[[-95.2972294, 35.7327609], [-95.2972404, 35.7329117], [-95.2969346, 35.7329056], [-95.2969487, 35.7346102], [-95.2969372, 35.7355334], [-95.2957553, 35.735535], [-95.2957361, 35.7367111], [-95.2948421, 35.7367101], [-95.2948485, 35.7355394], [-95.2948544, 35.7346109], [-95.2946819, 35.7346151], [-95.2946859, 35.7327443], [-95.2947205, 35.7327422], [-95.2947213, 35.732772], [-95.2953711, 35.7327653], [-95.2962528, 35.7327603], [-95.2965835, 35.7327692], [-95.2969296, 35.7327678], [-95.2972294, 35.7327609]]]}, "properties": {"osm_id": 607537482, "building": "yes", "name": "", "height": null, "height_m": null, "levels": null, "tract_id": "40101001301", "tract_name": "13.01", "tags": {"building": "yes"}}}, {"type": "Feature", "geometry": {"type": "Polygon", "coordinates": [[[-95.3042793, 35.7353087], [-95.3042823, 35.7355626], [-95.3034339, 35.7355692], [-95.3034274, 35.7350183], [-95.3042756, 35.7350118], [-95.3042759, 35.7350311], [-95.3043698, 35.7350304], [-95.304373, 35.735308], [-95.3042793, 35.7353087]]]}, "properties": {"osm_id": 607537486, "building": "yes", "name": "Advantage TerraFab", "height": null, "height_m": null, "levels": null, "tract_id": "40101001301", "tract_name": "13.01", "tags": {"addr:city": "Muskogee", "addr:housenumber": "400", "addr:postcode": "74403", "addr:state": "OK", "addr:street": "South 45th Street East", "building": "yes", "name": "Advantage TerraFab"}}}, {"type": "Feature", "geometry": {"type": "Polygon", "coordinates": [[[-95.3024353, 35.7354289], [-95.3024386, 35.7347531], [-95.3027569, 35.7347541], [-95.3027536, 35.73543], [-95.3027528, 35.7356008], [-95.3020822, 35.7355987], [-95.302083, 35.7354278], [-95.3024353, 35.7354289]]]}, "properties": {"osm_id": 607537487, "building": "yes", "name": "Advantage Controls", "height": null, "height_m": null, "levels": null, "tract_id": "40101001301", "tract_name": "13.01", "tags": {"addr:city": "Muskogee", "addr:housenumber": "4700", "addr:postcode": "74403", "addr:state": "OK", "addr:street": "Harold Abitz Drive", "building": "yes", "name": "Advantage Controls"}}}, {"type": "Feature", "geometry": {"type": "Polygon", "coordinates": [[[-95.3013875, 35.7355432], [-95.3016382, 35.7351817], [-95.3019406, 35.73532], [-95.3016898, 35.7356814], [-95.3013875, 35.7355432]]]}, "properties": {"osm_id": 607537488, "building": "yes", "name": "Advantage Controls Engineering Group", "height": null, "height_m": null, "levels": null, "tract_id": "40101001301", "tract_name": "13.01", "tags": {"addr:city": "Muskogee", "addr:housenumber": "4704", "addr:postcode": "74403", "addr:state": "OK", "addr:street": "Harold Abitz Drive", "building": "yes", "name": "Advantage Controls Engineering Group"}}}, {"type": "Feature", "geometry": {"type": "Polygon", "coordinates": [[[-95.3221554, 35.7265273], [-95.3222451, 35.7264839], [-95.3221891, 35.7264075], [-95.3219416, 35.7265271], [-95.3220829, 35.7267199], [-95.3222407, 35.7266437], [-95.3221554, 35.7265273]]]}, "properties": {"osm_id": 851927547, "building": "yes", "name": "", "height": null, "height_m": null, "levels": null, "tract_id": "40101001301", "tract_name": "13.01", "tags": {"building": "yes"}}}, {"type": "Feature", "geometry": {"type": "Polygon", "coordinates": [[[-95.3188881, 35.7284085], [-95.3189955, 35.7284076], [-95.3189951, 35.728375], [-95.3190589, 35.7283744], [-95.3190576, 35.7282781], [-95.3189983, 35.7282786], [-95.318998, 35.728251], [-95.3188862, 35.7282519], [-95.3188881, 35.7284085]]]}, "properties": {"osm_id": 851927557, "building": "yes", "name": "", "height": null, "height_m": null, "levels": null, "tract_id": "40101001301", "tract_name": "13.01", "tags": {"building": "yes"}}}, {"type": "Feature", "geometry": {"type": "Polygon", "coordinates": [[[-95.3217529, 35.728436], [-95.3217542, 35.7283274], [-95.3214792, 35.7283253], [-95.3214779, 35.7284338], [-95.3217529, 35.728436]]]}, "properties": {"osm_id": 851927558, "building": "yes", "name": "", "height": null, "height_m": null, "levels": null, "tract_id": "40101001301", "tract_name": "13.01", "tags": {"building": "yes"}}}, {"type": "Feature", "geometry": {"type": "Polygon", "coordinates": [[[-95.3223879, 35.7285221], [-95.3223869, 35.7284766], [-95.3224528, 35.7284756], [-95.3224505, 35.728369], [-95.3222019, 35.7283725], [-95.3222052, 35.7285247], [-95.3223879, 35.7285221]]]}, "properties": {"osm_id": 851927559, "building": "yes", "name": "", "height": null, "height_m": null, "levels": null, "tract_id": "40101001301", "tract_name": "13.01", "tags": {"building": "yes"}}}, {"type": "Feature", "geometry": {"type": "Polygon", "coordinates": [[[-95.3224295, 35.7286139], [-95.3222237, 35.7286164], [-95.3222251, 35.7286887], [-95.3221969, 35.7286891], [-95.3221978, 35.7287381], [-95.322216, 35.7287379], [-95.3222168, 35.728778], [-95.3222367, 35.7287777], [-95.3222372, 35.7288049], [-95.3224331, 35.7288025], [-95.3224295, 35.7286139]]]}, "properties": {"osm_id": 851927560, "building": "yes", "name": "", "height": null, "height_m": null, "levels": null, "tract_id": "40101001301", "tract_name": "13.01", "tags": {"building": "yes"}}}, {"type": "Feature", "geometry": {"type": "Polygon", "coordinates": [[[-95.2932948, 35.7327012], [-95.293092, 35.7326997], [-95.2930888, 35.7324794], [-95.293295, 35.7324802], [-95.2932948, 35.7327012]]]}, "properties": {"osm_id": 880014873, "building": "industrial", "name": "", "height": null, "height_m": null, "levels": null, "tract_id": "40101001301", "tract_name": "13.01", "tags": {"building": "industrial", "industrial": "cooling"}}}, {"type": "Feature", "geometry": {"type": "Polygon", "coordinates": [[[-95.2931633, 35.732368], [-95.2929605, 35.7323665], [-95.2929573, 35.7321462], [-95.2931635, 35.732147], [-95.2931633, 35.732368]]]}, "properties": {"osm_id": 880014874, "building": "industrial", "name": "", "height": null, "height_m": null, "levels": null, "tract_id": "40101001301", "tract_name": "13.01", "tags": {"building": "industrial", "industrial": "cooling"}}}, {"type": "Feature", "geometry": {"type": "Polygon", "coordinates": [[[-95.2931335, 35.7320234], [-95.2929596, 35.7320215], [-95.29296, 35.7317402], [-95.2931304, 35.731737], [-95.2931335, 35.7320234]]]}, "properties": {"osm_id": 880014875, "building": "industrial", "name": "", "height": null, "height_m": null, "levels": null, "tract_id": "40101001301", "tract_name": "13.01", "tags": {"building": "industrial", "industrial": "cooling"}}}, {"type": "Feature", "geometry": {"type": "Polygon", "coordinates": [[[-95.2958966, 35.7317996], [-95.2961218, 35.7317975], [-95.2962499, 35.7317975], [-95.2962499, 35.7317616], [-95.2959018, 35.7317678], [-95.2958966, 35.7317996]]]}, "properties": {"osm_id": 957685788, "building": "yes", "name": "", "height": null, "height_m": null, "levels": null, "tract_id": "40101001301", "tract_name": "13.01", "tags": {"bridge": "yes", "building": "yes", "highway": "pedestrian", "layer": "1"}}}, {"type": "Feature", "geometry": {"type": "Polygon", "coordinates": [[[-95.2949565, 35.7317289], [-95.2949635, 35.7313001], [-95.2950346, 35.7312979], [-95.2950319, 35.7317279], [-95.2949565, 35.7317289]]]}, "properties": {"osm_id": 957685789, "building": "yes", "name": "", "height": null, "height_m": null, "levels": null, "tract_id": "40101001301", "tract_name": "13.01", "tags": {"bridge": "yes", "building": "yes", "highway": "pedestrian", "layer": "1"}}}, {"type": "Feature", "geometry": {"type": "Polygon", "coordinates": [[[-95.2965663, 35.7312975], [-95.2966482, 35.7312977], [-95.2966451, 35.7317481], [-95.2969749, 35.7317412], [-95.2969749, 35.7317803], [-95.2965767, 35.7317845], [-95.2965601, 35.7317887], [-95.2965663, 35.7312975]]]}, "properties": {"osm_id": 957685790, "building": "yes", "name": "", "height": null, "height_m": null, "levels": null, "tract_id": "40101001301", "tract_name": "13.01", "tags": {"bridge": "yes", "building": "yes", "highway": "pedestrian", "layer": "1"}}}, {"type": "Feature", "geometry": {"type": "Polygon", "coordinates": [[[-95.2954913, 35.7317819], [-95.2952599, 35.7317768], [-95.2952598, 35.7317404], [-95.2954939, 35.7317423], [-95.2954913, 35.7317819]]]}, "properties": {"osm_id": 957685791, "building": "yes", "name": "", "height": null, "height_m": null, "levels": null, "tract_id": "40101001301", "tract_name": "13.01", "tags": {"bridge": "yes", "building": "yes", "highway": "pedestrian", "layer": "1"}}}, {"type": "Feature", "geometry": {"type": "Polygon", "coordinates": [[[-95.2969779, 35.7327374], [-95.2969749, 35.7317803], [-95.2969749, 35.7317412], [-95.2972704, 35.7317412], [-95.2972704, 35.7317778], [-95.2972996, 35.7317886], [-95.2973025, 35.732737], [-95.2969779, 35.7327374]]]}, "properties": {"osm_id": 983575783, "building": "yes", "name": "", "height": null, "height_m": null, "levels": null, "tract_id": "40101001301", "tract_name": "13.01", "tags": {"building": "yes"}}}, {"type": "Feature", "geometry": {"type": "Polygon", "coordinates": [[[-95.2961231, 35.7327384], [-95.2961218, 35.7317975], [-95.2962499, 35.7317975], [-95.2962499, 35.7317616], [-95.2964483, 35.7317679], [-95.2964484, 35.7317972], [-95.2965601, 35.7317887], [-95.2965767, 35.7317845], [-95.2965796, 35.7327397], [-95.2961231, 35.7327384]]]}, "properties": {"osm_id": 983575784, "building": "yes", "name": "", "height": null, "height_m": null, "levels": null, "tract_id": "40101001301", "tract_name": "13.01", "tags": {"building": "yes"}}}, {"type": "Feature", "geometry": {"type": "Polygon", "coordinates": [[[-95.2954864, 35.732738], [-95.2954913, 35.7317819], [-95.2954939, 35.7317423], [-95.2958978, 35.7317381], [-95.2959018, 35.7317678], [-95.2958966, 35.7317996], [-95.2959032, 35.7323421], [-95.2959817, 35.7323442], [-95.2959857, 35.7327405], [-95.2954864, 35.732738]]]}, "properties": {"osm_id": 983575785, "building": "yes", "name": "", "height": null, "height_m": null, "levels": null, "tract_id": "40101001301", "tract_name": "13.01", "tags": {"building": "yes"}}}, {"type": "Feature", "geometry": {"type": "Polygon", "coordinates": [[[-95.2947205, 35.7327422], [-95.2947281, 35.7322248], [-95.2947268, 35.7318132], [-95.2947112, 35.7318119], [-95.294706, 35.7317443], [-95.294765, 35.7317195], [-95.2949565, 35.7317289], [-95.2950319, 35.7317279], [-95.29526, 35.7317289], [-95.2952598, 35.7317404], [-95.2952599, 35.7317768], [-95.2952586, 35.7319903], [-95.2953644, 35.7319892], [-95.2953697, 35.7321617], [-95.2952533, 35.7321618], [-95.2952561, 35.7327383], [-95.2947205, 35.7327422]]]}, "properties": {"osm_id": 983575786, "building": "yes", "name": "", "height": null, "height_m": null, "levels": null, "tract_id": "40101001301", "tract_name": "13.01", "tags": {"building": "yes"}}}, {"type": "Feature", "geometry": {"type": "Polygon", "coordinates": [[[-95.3220539, 35.7618781], [-95.3220056, 35.7618781], [-95.3220056, 35.7618302], [-95.3220539, 35.7618302], [-95.3220539, 35.7618781]]]}, "properties": {"osm_id": 1086114994, "building": "service", "name": "", "height": null, "height_m": null, "levels": null, "tract_id": "40101001301", "tract_name": "13.01", "tags": {"building": "service"}}}, {"type": "Feature", "geometry": {"type": "Polygon", "coordinates": [[[-95.3232944, 35.785515], [-95.3232877, 35.785515], [-95.3232877, 35.7855422], [-95.3233936, 35.7855422], [-95.3233936, 35.785613], [-95.3232113, 35.785613], [-95.3232113, 35.7856119], [-95.3231348, 35.7856119], [-95.3231348, 35.7855216], [-95.3231536, 35.7855216], [-95.3231536, 35.7854835], [-95.3230986, 35.7854835], [-95.3230986, 35.7854139], [-95.3232971, 35.7854139], [-95.3232971, 35.7854476], [-95.3233051, 35.7854476], [-95.3233051, 35.7854715], [-95.3232971, 35.7854715], [-95.3232971, 35.7854835], [-95.3232944, 35.7854835], [-95.3232944, 35.785515]]]}, "properties": {"osm_id": 1102561496, "building": "house", "name": "", "height": null, "height_m": null, "levels": null, "tract_id": "40101001301", "tract_name": "13.01", "tags": {"addr:housenumber": "3002", "addr:postcode": "74403", "addr:street": "Michael Road", "building": "house"}}}, {"type": "Feature", "geometry": {"type": "Polygon", "coordinates": [[[-95.3237671, 35.7855107], [-95.3238228, 35.7855107], [-95.3238228, 35.7854873], [-95.3238007, 35.7854873], [-95.3238007, 35.7854449], [-95.3238228, 35.7854449], [-95.3238228, 35.7854122], [-95.323798, 35.7854122], [-95.323798, 35.78536], [-95.3240152, 35.78536], [-95.3240152, 35.7854122], [-95.3239536, 35.7854122], [-95.3239536, 35.7854503], [-95.3239683, 35.7854503], [-95.3239683, 35.7854993], [-95.3239536, 35.7854993], [-95.3239536, 35.7855286], [-95.323975, 35.7855286], [-95.323975, 35.7855994], [-95.3238275, 35.7855994], [-95.3237987, 35.7855994], [-95.3237591, 35.7855994], [-95.3237591, 35.7855406], [-95.3237671, 35.7855406], [-95.3237671, 35.7855107]]]}, "properties": {"osm_id": 1102561497, "building": "house", "name": "", "height": null, "height_m": null, "levels": null, "tract_id": "40101001301", "tract_name": "13.01", "tags": {"addr:housenumber": "3003", "addr:postcode": "74403", "addr:street": "Michael Road", "building": "house"}}}, {"type": "Feature", "geometry": {"type": "Polygon", "coordinates": [[[-95.3231563, 35.7857631], [-95.3231254, 35.7857631], [-95.3231254, 35.7856924], [-95.3233024, 35.7856924], [-95.3233024, 35.7857141], [-95.3233172, 35.7857141], [-95.3233172, 35.7857957], [-95.3233011, 35.7857957], [-95.3233011, 35.7858262], [-95.3232931, 35.7858262], [-95.3232931, 35.7858556], [-95.3233172, 35.7858556], [-95.3233172, 35.7859208], [-95.3231965, 35.7859208], [-95.3231965, 35.7859524], [-95.3231093, 35.7859524], [-95.3231093, 35.7859208], [-95.3231093, 35.7858773], [-95.3231093, 35.7858556], [-95.3231563, 35.7858556], [-95.3231563, 35.7857631]]]}, "properties": {"osm_id": 1102561498, "building": "house", "name": "", "height": null, "height_m": null, "levels": null, "tract_id": "40101001301", "tract_name": "13.01", "tags": {"addr:housenumber": "3004", "addr:postcode": "74403", "addr:street": "Michael Road", "building": "house"}}}, {"type": "Feature", "geometry": {"type": "Polygon", "coordinates": [[[-95.3237242, 35.7863544], [-95.3236521, 35.7863451], [-95.3236587, 35.7863112], [-95.3235851, 35.7863017], [-95.3235807, 35.7863239], [-95.3235202, 35.7863161], [-95.3235245, 35.7862939], [-95.3235287, 35.7862725], [-95.3235492, 35.7861678], [-95.323718, 35.7861895], [-95.3237222, 35.7861678], [-95.3238148, 35.7861798], [-95.3237879, 35.7863168], [-95.323733, 35.7863098], [-95.3237242, 35.7863544]]]}, "properties": {"osm_id": 1102561499, "building": "house", "name": "", "height": null, "height_m": null, "levels": null, "tract_id": "40101001301", "tract_name": "13.01", "tags": {"addr:housenumber": "3008", "addr:postcode": "74403", "addr:street": "Michael Road", "building": "house"}}}, {"type": "Feature", "geometry": {"type": "Polygon", "coordinates": [[[-95.3242647, 35.7863565], [-95.3241803, 35.7863711], [-95.3241666, 35.7863187], [-95.3241217, 35.7863264], [-95.3241284, 35.786352], [-95.3240233, 35.7863701], [-95.3240172, 35.7863467], [-95.3240012, 35.7863495], [-95.3239981, 35.7863376], [-95.3239402, 35.7863476], [-95.3239194, 35.7862679], [-95.3239933, 35.7862551], [-95.3239884, 35.7862363], [-95.3240636, 35.7862234], [-95.3240686, 35.7862421], [-95.3240983, 35.786237], [-95.3240945, 35.7862227], [-95.3241394, 35.786215], [-95.3241548, 35.7862123], [-95.3242238, 35.7862004], [-95.3242647, 35.7863565]]]}, "properties": {"osm_id": 1102561500, "building": "house", "name": "", "height": null, "height_m": null, "levels": null, "tract_id": "40101001301", "tract_name": "13.01", "tags": {"addr:housenumber": "3010", "addr:postcode": "74403", "addr:street": "Michael Road", "building": "house"}}}, {"type": "Feature", "geometry": {"type": "Polygon", "coordinates": [[[-95.3240836, 35.7858045], [-95.3240811, 35.7858245], [-95.3239985, 35.7858175], [-95.3239998, 35.7858071], [-95.3239361, 35.7858017], [-95.3239372, 35.7857937], [-95.3238765, 35.7857885], [-95.3238746, 35.7858034], [-95.3237772, 35.7857952], [-95.3237879, 35.785712], [-95.3238754, 35.7857194], [-95.3238853, 35.7857202], [-95.323895, 35.785721], [-95.3239039, 35.7856516], [-95.3239959, 35.7856594], [-95.3239913, 35.7856952], [-95.3241185, 35.785706], [-95.3241166, 35.7857209], [-95.3241383, 35.7857227], [-95.3241272, 35.7858082], [-95.3240836, 35.7858045]]]}, "properties": {"osm_id": 1102561501, "building": "house", "name": "", "height": null, "height_m": null, "levels": null, "tract_id": "40101001301", "tract_name": "13.01", "tags": {"addr:housenumber": "3005", "addr:postcode": "74403", "addr:street": "Michael Road", "building": "house"}}}, {"type": "Feature", "geometry": {"type": "Polygon", "coordinates": [[[-95.3237908, 35.7852182], [-95.3237906, 35.7851582], [-95.3240175, 35.7851577], [-95.3240174, 35.78513], [-95.3240662, 35.7851299], [-95.3240667, 35.7852691], [-95.32403, 35.7852691], [-95.3240179, 35.7852692], [-95.3239986, 35.7852692], [-95.3239985, 35.7852518], [-95.3239528, 35.785252], [-95.3239529, 35.7852626], [-95.323908, 35.7852627], [-95.323908, 35.7852521], [-95.3238578, 35.7852522], [-95.3238579, 35.7852891], [-95.3237671, 35.7852893], [-95.3237669, 35.7852182], [-95.3237908, 35.7852182]]]}, "properties": {"osm_id": 1102561502, "building": "house", "name": "", "height": null, "height_m": null, "levels": null, "tract_id": "40101001301", "tract_name": "13.01", "tags": {"building": "house"}}}, {"type": "Feature", "geometry": {"type": "Polygon", "coordinates": [[[-95.3243763, 35.7859988], [-95.3244001, 35.7859959], [-95.3244285, 35.7861494], [-95.3243043, 35.7861645], [-95.3242845, 35.7860577], [-95.3242607, 35.7860606], [-95.3242242, 35.7858632], [-95.324248, 35.7858603], [-95.3242421, 35.7858281], [-95.3243425, 35.7858158], [-95.3243763, 35.7859988]]]}, "properties": {"osm_id": 1102561503, "building": "house", "name": "", "height": null, "height_m": null, "levels": null, "tract_id": "40101001301", "tract_name": "13.01", "tags": {"addr:postcode": "74403", "addr:street": "Michael Road", "building": "house"}}}, {"type": "Feature", "geometry": {"type": "Polygon", "coordinates": [[[-95.3233071, 35.7861061], [-95.3233682, 35.7861689], [-95.3232032, 35.7862744], [-95.3231743, 35.7862447], [-95.3231482, 35.7862613], [-95.3231132, 35.7862254], [-95.3230949, 35.7862371], [-95.3230423, 35.786183], [-95.3231251, 35.78613], [-95.3231655, 35.7861715], [-95.3232201, 35.7861365], [-95.3231737, 35.7860888], [-95.3232408, 35.7860459], [-95.3232638, 35.7860697], [-95.3232733, 35.7860636], [-95.3233117, 35.7861032], [-95.3233071, 35.7861061]]]}, "properties": {"osm_id": 1102561504, "building": "house", "name": "", "height": null, "height_m": null, "levels": null, "tract_id": "40101001301", "tract_name": "13.01", "tags": {"addr:housenumber": "3006", "addr:postcode": "74403", "addr:street": "Michael Road", "building": "house"}}}, {"type": "Feature", "geometry": {"type": "Polygon", "coordinates": [[[-95.323218, 35.7851506], [-95.323218, 35.785131], [-95.3232837, 35.785131], [-95.3232837, 35.7851397], [-95.3233641, 35.7851397], [-95.3233641, 35.7853105], [-95.3232689, 35.7853105], [-95.3232689, 35.7852746], [-95.3231254, 35.7852746], [-95.3231254, 35.7851506], [-95.323218, 35.7851506]]]}, "properties": {"osm_id": 1102561505, "building": "house", "name": "", "height": null, "height_m": null, "levels": null, "tract_id": "40101001301", "tract_name": "13.01", "tags": {"building": "house"}}}, {"type": "Feature", "geometry": {"type": "Polygon", "coordinates": [[[-95.3046718, 35.7424881], [-95.3045942, 35.7424867], [-95.3045969, 35.7423941], [-95.3046745, 35.7423956], [-95.3046718, 35.7424881]]]}, "properties": {"osm_id": 1108032790, "building": "service", "name": "", "height": null, "height_m": null, "levels": null, "tract_id": "40101001301", "tract_name": "13.01", "tags": {"building": "service"}}}, {"type": "Feature", "geometry": {"type": "Polygon", "coordinates": [[[-95.3121717, 35.737036], [-95.3121707, 35.7368716], [-95.3123455, 35.7368709], [-95.3123436, 35.7365807], [-95.3121652, 35.7365815], [-95.3121622, 35.7361305], [-95.3122724, 35.73613], [-95.3122718, 35.7360473], [-95.312179, 35.7360478], [-95.3121779, 35.735881], [-95.3117504, 35.735883], [-95.3117493, 35.7357245], [-95.3113722, 35.7357262], [-95.3113743, 35.7360348], [-95.3114909, 35.7360342], [-95.3114975, 35.7370389], [-95.3121717, 35.737036]]]}, "properties": {"osm_id": 1112409692, "building": "retail", "name": "Custom Seating", "height": null, "height_m": null, "levels": null, "tract_id": "40101001301", "tract_name": "13.01", "tags": {"building": "retail", "name": "Custom Seating"}}}, {"type": "Feature", "geometry": {"type": "Polygon", "coordinates": [[[-95.3123777, 35.7371809], [-95.3123767, 35.7370723], [-95.312241, 35.7370731], [-95.312242, 35.7371817], [-95.3123777, 35.7371809]]]}, "properties": {"osm_id": 1112409693, "building": "yes", "name": "", "height": null, "height_m": null, "levels": null, "tract_id": "40101001301", "tract_name": "13.01", "tags": {"building": "yes"}}}, {"type": "Feature", "geometry": {"type": "Polygon", "coordinates": [[[-95.3077512, 35.7412027], [-95.3077501, 35.741121], [-95.3077519, 35.7410398], [-95.3077533, 35.7409315], [-95.3076118, 35.7409308], [-95.3076097, 35.741202], [-95.3077512, 35.7412027]]]}, "properties": {"osm_id": 1112409694, "building": "retail", "name": "Sinclair", "height": null, "height_m": null, "levels": null, "tract_id": "40101001301", "tract_name": "13.01", "tags": {"addr:city": "Muskogee", "addr:housenumber": "4300", "addr:postcode": "74403", "addr:state": "OK", "addr:street": "Chandler Road", "building": "retail", "name": "Sinclair", "shop": "convenience"}}}, {"type": "Feature", "geometry": {"type": "Polygon", "coordinates": [[[-95.3076333, 35.7410677], [-95.3075958, 35.7410084], [-95.3073015, 35.7411307], [-95.307339, 35.7411901], [-95.3076333, 35.7410677]]]}, "properties": {"osm_id": 1112409695, "building": "roof", "name": "Sinclair", "height": null, "height_m": null, "levels": null, "tract_id": "40101001301", "tract_name": "13.01", "tags": {"amenity": "fuel", "brand": "Sinclair", "brand:wikidata": "Q1290900", "building": "roof", "layer": "1", "name": "Sinclair"}}}, {"type": "Feature", "geometry": {"type": "Polygon", "coordinates": [[[-95.3077501, 35.741121], [-95.3079521, 35.741124], [-95.307954, 35.7410428], [-95.3077519, 35.7410398], [-95.3077501, 35.741121]]]}, "properties": {"osm_id": 1112409696, "building": "roof", "name": "Sinclair", "height": null, "height_m": null, "levels": null, "tract_id": "40101001301", "tract_name": "13.01", "tags": {"amenity": "fuel", "brand": "Sinclair", "brand:wikidata": "Q1290900", "building": "roof", "name": "Sinclair"}}}, {"type": "Feature", "geometry": {"type": "Polygon", "coordinates": [[[-95.3119755, 35.7459333], [-95.3119744, 35.745654], [-95.3113698, 35.7456555], [-95.3113709, 35.7459348], [-95.3119755, 35.7459333]]]}, "properties": {"osm_id": 1112409697, "building": "retail", "name": "Southern Material Handling Company", "height": null, "height_m": null, "levels": null, "tract_id": "40101001301", "tract_name": "13.01", "tags": {"addr:city": "Muskogee", "addr:housenumber": "601", "addr:postcode": "74403", "addr:state": "OK", "addr:street": "North 41st Street East", "building": "retail", "name": "Southern Material Handling Company", "shop": "trade", "trade": "building_supplies"}}}, {"type": "Feature", "geometry": {"type": "Polygon", "coordinates": [[[-95.3089381, 35.7471848], [-95.308921, 35.7470977], [-95.3091127, 35.747073], [-95.3090807, 35.7469096], [-95.3089161, 35.7469308], [-95.308885, 35.7467723], [-95.3087339, 35.7467918], [-95.308751, 35.7468791], [-95.3085437, 35.7469059], [-95.3086068, 35.7472276], [-95.3089381, 35.7471848]]]}, "properties": {"osm_id": 1112409698, "building": "yes", "name": "P&K Equipment", "height": null, "height_m": null, "levels": null, "tract_id": "40101001301", "tract_name": "13.01", "tags": {"addr:city": "Muskogee", "addr:housenumber": "540", "addr:postcode": "74403", "addr:state": "OK", "addr:street": "North 43rd Street East", "building": "yes", "check_date": "2025-05-31", "name": "P&K Equipment", "shop": "trade", "trade": "agricultural_equipment"}}}, {"type": "Feature", "geometry": {"type": "Polygon", "coordinates": [[[-95.3116917, 35.747716], [-95.3116915, 35.7475049], [-95.3111699, 35.7475053], [-95.3111701, 35.7477164], [-95.3116917, 35.747716]]]}, "properties": {"osm_id": 1112409699, "building": "retail", "name": "Motor Sports of Muskogee", "height": null, "height_m": null, "levels": null, "tract_id": "40101001301", "tract_name": "13.01", "tags": {"addr:city": "Muskogee", "addr:housenumber": "701", "addr:postcode": "74403", "addr:state": "OK", "addr:street": "North 41st Street East", "building": "retail", "check_date": "2024-11-29", "name": "Motor Sports of Muskogee", "opening_hours": "Tu-Fr 09:00-17:00, Sa 09:00-15:00", "operator": "David Bower", "payment:american_express": "yes", "payment:cash": "yes", "payment:cheque": "yes", "payment:discover_card": "yes", "payment:mastercard": "yes", "payment:visa": "yes", "phone": "+1-918-687-1343", "shop": "motorcycle", "website": "http://motorsportsmuskogee.com"}}}, {"type": "Feature", "geometry": {"type": "Polygon", "coordinates": [[[-95.3117786, 35.7473608], [-95.3117771, 35.7472165], [-95.31152, 35.7472183], [-95.3115216, 35.7473626], [-95.3117786, 35.7473608]]]}, "properties": {"osm_id": 1112409700, "building": "retail", "name": "", "height": null, "height_m": null, "levels": null, "tract_id": "40101001301", "tract_name": "13.01", "tags": {"building": "retail"}}}, {"type": "Feature", "geometry": {"type": "Polygon", "coordinates": [[[-95.3101136, 35.750087], [-95.3101228, 35.7496793], [-95.3100229, 35.7496778], [-95.3100135, 35.7500855], [-95.3101136, 35.750087]]]}, "properties": {"osm_id": 1112409701, "building": "yes", "name": "", "height": null, "height_m": null, "levels": null, "tract_id": "40101001301", "tract_name": "13.01", "tags": {"building": "yes"}}}, {"type": "Feature", "geometry": {"type": "Polygon", "coordinates": [[[-95.3101035, 35.749664], [-95.3101016, 35.7495389], [-95.3098267, 35.7495416], [-95.3098286, 35.7496667], [-95.3101035, 35.749664]]]}, "properties": {"osm_id": 1112409702, "building": "yes", "name": "", "height": null, "height_m": null, "levels": null, "tract_id": "40101001301", "tract_name": "13.01", "tags": {"building": "yes"}}}, {"type": "Feature", "geometry": {"type": "Polygon", "coordinates": [[[-95.3099605, 35.7493241], [-95.3099469, 35.7491802], [-95.3098813, 35.7491843], [-95.3098684, 35.7490485], [-95.3097719, 35.7490545], [-95.3097844, 35.7491857], [-95.3096832, 35.749192], [-95.3096973, 35.7493405], [-95.3099605, 35.7493241]]]}, "properties": {"osm_id": 1112409703, "building": "yes", "name": "", "height": null, "height_m": null, "levels": null, "tract_id": "40101001301", "tract_name": "13.01", "tags": {"building": "yes"}}}, {"type": "Feature", "geometry": {"type": "Polygon", "coordinates": [[[-95.3088085, 35.7499527], [-95.3090778, 35.7499533], [-95.3090779, 35.7499174], [-95.3091241, 35.7499175], [-95.3091244, 35.7498154], [-95.308809, 35.7498146], [-95.3088085, 35.7499527]]]}, "properties": {"osm_id": 1112409705, "building": "yes", "name": "Paws Promoting Animal Welfare", "height": null, "height_m": null, "levels": null, "tract_id": "40101001301", "tract_name": "13.01", "tags": {"addr:city": "Muskogee", "addr:housenumber": "4321", "addr:postcode": "74403", "addr:state": "OK", "addr:street": "East Hayes Street", "amenity": "animal_shelter", "building": "yes", "name": "Paws Promoting Animal Welfare"}}}, {"type": "Feature", "geometry": {"type": "Polygon", "coordinates": [[[-95.3070365, 35.7526189], [-95.3070335, 35.7517603], [-95.3053127, 35.7517642], [-95.305317, 35.7529931], [-95.3059066, 35.7529917], [-95.3059053, 35.7526216], [-95.3070365, 35.7526189]]]}, "properties": {"osm_id": 1112409706, "building": "warehouse", "name": "Graham Packaging Warehouse", "height": null, "height_m": null, "levels": null, "tract_id": "40101001301", "tract_name": "13.01", "tags": {"addr:city": "Muskogee", "addr:housenumber": "924", "addr:postcode": "74403", "addr:state": "OK", "addr:street": "North 43rd Street East", "building": "warehouse", "name": "Graham Packaging Warehouse"}}}, {"type": "Feature", "geometry": {"type": "Polygon", "coordinates": [[[-95.3081738, 35.7526685], [-95.3089464, 35.7526625], [-95.3089459, 35.7526214], [-95.3090326, 35.7526207], [-95.3090317, 35.7525518], [-95.3089433, 35.7525525], [-95.3089427, 35.7524998], [-95.3081719, 35.7525058], [-95.3081738, 35.7526685]]]}, "properties": {"osm_id": 1112409707, "building": "hotel", "name": "Knights Inn", "height": null, "height_m": null, "levels": null, "tract_id": "40101001301", "tract_name": "13.01", "tags": {"addr:city": "Muskogee", "addr:housenumber": "910", "addr:postcode": "74403", "addr:state": "OK", "addr:street": "North 43rd Street East", "brand": "Knights Inn", "brand:wikidata": "Q6422409", "building": "hotel", "check_date": "2024-11-29", "name": "Knights Inn", "tourism": "motel"}}}, {"type": "Feature", "geometry": {"type": "Polygon", "coordinates": [[[-95.3127674, 35.7547399], [-95.3127671, 35.7544921], [-95.3126064, 35.7544923], [-95.3126065, 35.7545946], [-95.3123416, 35.7545948], [-95.3123418, 35.7547402], [-95.3127674, 35.7547399]]]}, "properties": {"osm_id": 1112409708, "building": "yes", "name": "New Life Christian Church", "height": null, "height_m": null, "levels": null, "tract_id": "40101001301", "tract_name": "13.01", "tags": {"addr:city": "Muskogee", "addr:housenumber": "4025", "addr:postcode": "74403", "addr:state": "OK", "addr:street": "Gibson Street", "amenity": "place_of_worship", "building": "yes", "name": "New Life Christian Church", "religion": "christian"}}}, {"type": "Feature", "geometry": {"type": "Polygon", "coordinates": [[[-95.3133017, 35.7547837], [-95.3132933, 35.754367], [-95.3130836, 35.7543698], [-95.3130921, 35.7547865], [-95.3133017, 35.7547837]]]}, "properties": {"osm_id": 1112409709, "building": "yes", "name": "", "height": null, "height_m": null, "levels": null, "tract_id": "40101001301", "tract_name": "13.01", "tags": {"building": "yes"}}}, {"type": "Feature", "geometry": {"type": "Polygon", "coordinates": [[[-95.3099234, 35.7630962], [-95.3099179, 35.7628336], [-95.3098832, 35.762834], [-95.3098776, 35.7625589], [-95.3098527, 35.7625592], [-95.3098517, 35.7625064], [-95.3097224, 35.7625081], [-95.3097248, 35.7626306], [-95.309515, 35.7626334], [-95.3095184, 35.7628031], [-95.3096884, 35.7628008], [-95.3096899, 35.7628702], [-95.3097211, 35.7628698], [-95.3097258, 35.7630988], [-95.3099234, 35.7630962]]]}, "properties": {"osm_id": 1112409710, "building": "church", "name": "New Hope Baptist Church", "height": null, "height_m": null, "levels": null, "tract_id": "40101001301", "tract_name": "13.01", "tags": {"addr:city": "Muskogee", "addr:housenumber": "1501", "addr:postcode": "74403", "addr:state": "OK", "addr:street": "North 43rd Street East", "amenity": "place_of_worship", "building": "church", "check_date": "2024-12-15", "denomination": "baptist", "name": "New Hope Baptist Church", "religion": "christian"}}}, {"type": "Feature", "geometry": {"type": "Polygon", "coordinates": [[[-95.3113242, 35.7780086], [-95.3115822, 35.7776847], [-95.31123, 35.7775], [-95.3112486, 35.7774766], [-95.3110527, 35.7773738], [-95.3110517, 35.7772658], [-95.3107722, 35.7772674], [-95.3107735, 35.7774121], [-95.3107417, 35.7774519], [-95.3107905, 35.7774775], [-95.3105412, 35.7777905], [-95.310683, 35.7778648], [-95.3107295, 35.7778064], [-95.3108771, 35.7778838], [-95.3109388, 35.7778064], [-95.3113242, 35.7780086]]]}, "properties": {"osm_id": 1112411067, "building": "college", "name": "Nursing Allied Health Building", "height": null, "height_m": null, "levels": null, "tract_id": "40101001301", "tract_name": "13.01", "tags": {"building": "college", "name": "Nursing Allied Health Building"}}}, {"type": "Feature", "geometry": {"type": "Polygon", "coordinates": [[[-95.3126852, 35.7779054], [-95.312693, 35.7777416], [-95.3126196, 35.7777384], [-95.3126248, 35.777632], [-95.3125605, 35.777632], [-95.3125617, 35.7775683], [-95.3124691, 35.7775683], [-95.3124653, 35.7775109], [-95.3123237, 35.7775099], [-95.3123199, 35.777441], [-95.3122646, 35.7774399], [-95.3122659, 35.7776393], [-95.3122388, 35.7776403], [-95.3122131, 35.7776476], [-95.3121771, 35.7776602], [-95.3121449, 35.7776779], [-95.3121166, 35.7776977], [-95.3121012, 35.7777186], [-95.3120755, 35.7777656], [-95.3120767, 35.7778345], [-95.3120986, 35.7778919], [-95.3121231, 35.77792], [-95.3121462, 35.7779399], [-95.3121719, 35.7779545], [-95.312208, 35.7779649], [-95.3122337, 35.7779691], [-95.312262, 35.7779701], [-95.3122633, 35.7780714], [-95.312105, 35.7780672], [-95.3121025, 35.7781924], [-95.3122234, 35.7781966], [-95.3122208, 35.7782822], [-95.3122697, 35.7782822], [-95.3122774, 35.7781121], [-95.3124305, 35.7781183], [-95.3124305, 35.7780787], [-95.3125334, 35.7780818], [-95.3125373, 35.7780067], [-95.3126042, 35.7780098], [-95.3126083, 35.7779035], [-95.3126852, 35.7779054]]]}, "properties": {"osm_id": 1112411068, "building": "college", "name": "Garber Science Building", "height": null, "height_m": null, "levels": null, "tract_id": "40101001301", "tract_name": "13.01", "tags": {"building": "college", "name": "Garber Science Building"}}}, {"type": "Feature", "geometry": {"type": "Polygon", "coordinates": [[[-95.3120108, 35.7760166], [-95.3120096, 35.7755447], [-95.3119007, 35.7755449], [-95.3119002, 35.7753173], [-95.31183, 35.7753174], [-95.3118299, 35.7752468], [-95.3123549, 35.7752465], [-95.3123543, 35.7746073], [-95.3109679, 35.7746081], [-95.3109681, 35.774792], [-95.3107734, 35.7747921], [-95.3107735, 35.774892], [-95.3109549, 35.7748918], [-95.3109552, 35.7752719], [-95.3111253, 35.7752717], [-95.3111253, 35.7753215], [-95.3111586, 35.7753215], [-95.3111584, 35.7752111], [-95.3114811, 35.7752107], [-95.3114816, 35.7754329], [-95.3114523, 35.7754329], [-95.3114525, 35.7755045], [-95.3115454, 35.7755043], [-95.3115466, 35.7759259], [-95.3118463, 35.7759253], [-95.3118466, 35.7760169], [-95.3120108, 35.7760166]]]}, "properties": {"osm_id": 1112411070, "building": "college", "name": "", "height": null, "height_m": null, "levels": null, "tract_id": "40101001301", "tract_name": "13.01", "tags": {"building": "college"}}}, {"type": "Feature", "geometry": {"type": "Polygon", "coordinates": [[[-95.3129839, 35.7755045], [-95.3129817, 35.7753014], [-95.3126812, 35.7753036], [-95.3126827, 35.7754343], [-95.3127242, 35.775434], [-95.312725, 35.7755064], [-95.3129839, 35.7755045]]]}, "properties": {"osm_id": 1112411071, "building": "yes", "name": "", "height": null, "height_m": null, "levels": null, "tract_id": "40101001301", "tract_name": "13.01", "tags": {"building": "yes"}}}, {"type": "Feature", "geometry": {"type": "Polygon", "coordinates": [[[-95.3129888, 35.7752527], [-95.312983, 35.7749777], [-95.3127566, 35.7749808], [-95.3127624, 35.7752559], [-95.3129888, 35.7752527]]]}, "properties": {"osm_id": 1112411072, "building": "yes", "name": "", "height": null, "height_m": null, "levels": null, "tract_id": "40101001301", "tract_name": "13.01", "tags": {"building": "yes"}}}, {"type": "Feature", "geometry": {"type": "Polygon", "coordinates": [[[-95.3126007, 35.7764895], [-95.3125994, 35.7764004], [-95.312533, 35.7764011], [-95.3125308, 35.7762522], [-95.3123488, 35.776254], [-95.3123509, 35.7763964], [-95.3122668, 35.7763972], [-95.3122682, 35.7764927], [-95.3126007, 35.7764895]]]}, "properties": {"osm_id": 1112411073, "building": "yes", "name": "", "height": null, "height_m": null, "levels": null, "tract_id": "40101001301", "tract_name": "13.01", "tags": {"building": "yes"}}}, {"type": "Feature", "geometry": {"type": "Polygon", "coordinates": [[[-95.311961, 35.7765061], [-95.3119597, 35.776408], [-95.311741, 35.77641], [-95.3117424, 35.7765081], [-95.311961, 35.7765061]]]}, "properties": {"osm_id": 1112411074, "building": "yes", "name": "", "height": null, "height_m": null, "levels": null, "tract_id": "40101001301", "tract_name": "13.01", "tags": {"building": "yes"}}}, {"type": "Feature", "geometry": {"type": "Polygon", "coordinates": [[[-95.3113023, 35.7768316], [-95.3113018, 35.7765847], [-95.310829, 35.7765854], [-95.3108295, 35.7768322], [-95.3113023, 35.7768316]]]}, "properties": {"osm_id": 1112411075, "building": "yes", "name": "", "height": null, "height_m": null, "levels": null, "tract_id": "40101001301", "tract_name": "13.01", "tags": {"addr:unit": "E", "building": "yes"}}}, {"type": "Feature", "geometry": {"type": "Polygon", "coordinates": [[[-95.3107873, 35.776541], [-95.31126, 35.7765385], [-95.3112597, 35.7764922], [-95.3116355, 35.7764903], [-95.3116349, 35.7764137], [-95.3115519, 35.7764142], [-95.3115516, 35.7763779], [-95.3112577, 35.7763794], [-95.3112567, 35.7762622], [-95.310964, 35.7762638], [-95.3109654, 35.7764393], [-95.3107865, 35.7764403], [-95.3107873, 35.776541]]]}, "properties": {"osm_id": 1112411076, "building": "yes", "name": "", "height": null, "height_m": null, "levels": null, "tract_id": "40101001301", "tract_name": "13.01", "tags": {"building": "yes"}}}, {"type": "Feature", "geometry": {"type": "Polygon", "coordinates": [[[-95.3141582, 35.7751461], [-95.3141446, 35.7746305], [-95.3139691, 35.7746336], [-95.3139827, 35.7751492], [-95.3141582, 35.7751461]]]}, "properties": {"osm_id": 1112411077, "building": "yes", "name": "", "height": null, "height_m": null, "levels": null, "tract_id": "40101001301", "tract_name": "13.01", "tags": {"building": "yes"}}}, {"type": "Feature", "geometry": {"type": "Polygon", "coordinates": [[[-95.3141762, 35.7745782], [-95.3141693, 35.7743329], [-95.3139661, 35.7743367], [-95.313973, 35.774582], [-95.3141762, 35.7745782]]]}, "properties": {"osm_id": 1112411078, "building": "yes", "name": "", "height": null, "height_m": null, "levels": null, "tract_id": "40101001301", "tract_name": "13.01", "tags": {"building": "yes"}}}, {"type": "Feature", "geometry": {"type": "Polygon", "coordinates": [[[-95.3135543, 35.7748303], [-95.3135523, 35.7745049], [-95.3129441, 35.7745073], [-95.3129444, 35.7745673], [-95.3128858, 35.7745675], [-95.3128855, 35.7745218], [-95.3127501, 35.7745224], [-95.3127518, 35.7747848], [-95.3129263, 35.7747841], [-95.3129267, 35.7748329], [-95.3135543, 35.7748303]]]}, "properties": {"osm_id": 1112411079, "building": "yes", "name": "", "height": null, "height_m": null, "levels": null, "tract_id": "40101001301", "tract_name": "13.01", "tags": {"building": "yes"}}}, {"type": "Feature", "geometry": {"type": "Polygon", "coordinates": [[[-95.3132388, 35.7744032], [-95.3132376, 35.7743155], [-95.3130671, 35.7743171], [-95.3130684, 35.7744048], [-95.3132388, 35.7744032]]]}, "properties": {"osm_id": 1112411080, "building": "yes", "name": "", "height": null, "height_m": null, "levels": null, "tract_id": "40101001301", "tract_name": "13.01", "tags": {"building": "yes"}}}, {"type": "Feature", "geometry": {"type": "Polygon", "coordinates": [[[-95.312886, 35.7743456], [-95.3128853, 35.77426], [-95.3126254, 35.7742615], [-95.3126262, 35.7743471], [-95.312886, 35.7743456]]]}, "properties": {"osm_id": 1112411081, "building": "yes", "name": "", "height": null, "height_m": null, "levels": null, "tract_id": "40101001301", "tract_name": "13.01", "tags": {"building": "yes"}}}, {"type": "Feature", "geometry": {"type": "Polygon", "coordinates": [[[-95.3135721, 35.7754445], [-95.3135732, 35.7751675], [-95.3131354, 35.7751663], [-95.3131342, 35.7754433], [-95.3135721, 35.7754445]]]}, "properties": {"osm_id": 1112411082, "building": "yes", "name": "", "height": null, "height_m": null, "levels": null, "tract_id": "40101001301", "tract_name": "13.01", "tags": {"building": "yes"}}}, {"type": "Feature", "geometry": {"type": "Polygon", "coordinates": [[[-95.3135608, 35.7751499], [-95.3135595, 35.7749788], [-95.3131401, 35.7749809], [-95.3131414, 35.775152], [-95.3135608, 35.7751499]]]}, "properties": {"osm_id": 1112411083, "building": "yes", "name": "", "height": null, "height_m": null, "levels": null, "tract_id": "40101001301", "tract_name": "13.01", "tags": {"building": "yes"}}}, {"type": "Feature", "geometry": {"type": "Polygon", "coordinates": [[[-95.3136575, 35.7751096], [-95.3136562, 35.7749971], [-95.3135786, 35.7749976], [-95.3135799, 35.7751101], [-95.3136575, 35.7751096]]]}, "properties": {"osm_id": 1112411084, "building": "yes", "name": "", "height": null, "height_m": null, "levels": null, "tract_id": "40101001301", "tract_name": "13.01", "tags": {"building": "yes"}}}, {"type": "Feature", "geometry": {"type": "Polygon", "coordinates": [[[-95.3224732, 35.7706654], [-95.3224728, 35.7705255], [-95.3220477, 35.7705265], [-95.3220482, 35.7706663], [-95.3224732, 35.7706654]]]}, "properties": {"osm_id": 1112412704, "building": "roof", "name": "Casey's General Store", "height": null, "height_m": null, "levels": null, "tract_id": "40101001301", "tract_name": "13.01", "tags": {"addr:postcode": "74403", "amenity": "fuel", "brand": "Casey's General Store", "brand:wikidata": "Q2940968", "building": "roof", "check_date": "2025-08-07", "compressed_air": "yes", "fuel:diesel": "yes", "fuel:octane_87": "yes", "fuel:octane_88": "yes", "fuel:octane_89": "yes", "fuel:octane_91": "yes", "name": "Casey's General Store", "opening_hours": "24/7", "payment:cash": "yes", "payment:credit_cards": "yes", "payment:debit_cards": "yes", "self_service": "yes"}}}, {"type": "Feature", "geometry": {"type": "Polygon", "coordinates": [[[-95.3225235, 35.7709684], [-95.3225226, 35.7708562], [-95.3221403, 35.7708583], [-95.3221412, 35.7709704], [-95.3225235, 35.7709684]]]}, "properties": {"osm_id": 1112412705, "building": "yes", "name": "Casey's General Store", "height": null, "height_m": null, "levels": null, "tract_id": "40101001301", "tract_name": "13.01", "tags": {"addr:city": "Muskogee", "addr:housenumber": "3500", "addr:postcode": "74403", "addr:state": "OK", "addr:street": "East Shawnee Road", "brand": "Casey's General Store", "brand:wikidata": "Q2940968", "building": "yes", "check_date": "2025-08-07", "name": "Casey's General Store", "payment:cash": "yes", "payment:credit_cards": "yes", "payment:debit_cards": "yes", "shop": "convenience"}}}, {"type": "Feature", "geometry": {"type": "Polygon", "coordinates": [[[-95.3226265, 35.7712857], [-95.3226256, 35.7712047], [-95.3224449, 35.7712061], [-95.3224458, 35.771287], [-95.3226265, 35.7712857]]]}, "properties": {"osm_id": 1112412706, "building": "yes", "name": "Edward Jones", "height": null, "height_m": null, "levels": null, "tract_id": "40101001301", "tract_name": "13.01", "tags": {"addr:city": "Muskogee", "addr:housenumber": "2108", "addr:postcode": "74403", "addr:state": "OK", "addr:street": "North Country Club Road", "alt_name": "Edward Jones Investments", "brand": "Edward Jones", "brand:wikidata": "Q5343830", "building": "yes", "name": "Edward Jones", "office": "financial_advisor"}}}, {"type": "Feature", "geometry": {"type": "Polygon", "coordinates": [[[-95.3219421, 35.7400722], [-95.3219382, 35.7399539], [-95.3222899, 35.7399603], [-95.3222925, 35.740068], [-95.3221945, 35.7400678], [-95.3221935, 35.7400851], [-95.3220462, 35.7400827], [-95.3220449, 35.7400734], [-95.3219421, 35.7400722]]]}, "properties": {"osm_id": 1171450099, "building": "yes", "name": "Casey's General Store", "height": null, "height_m": null, "levels": null, "tract_id": "40101001301", "tract_name": "13.01", "tags": {"addr:city": "Muskogee", "addr:housenumber": "3607", "addr:postcode": "74403", "addr:state": "OK", "addr:street": "Chandler Road", "brand": "Casey's General Store", "brand:wikidata": "Q2940968", "building": "yes", "name": "Casey's General Store", "shop": "convenience"}}}, {"type": "Feature", "geometry": {"type": "Polygon", "coordinates": [[[-95.3224008, 35.7440656], [-95.3224008, 35.7439197], [-95.3220199, 35.7439197], [-95.3220199, 35.7440655], [-95.3224008, 35.7440656]]]}, "properties": {"osm_id": 1171753556, "building": "apartments", "name": "", "height": null, "height_m": null, "levels": null, "tract_id": "40101001301", "tract_name": "13.01", "tags": {"building": "apartments"}}}, {"type": "Feature", "geometry": {"type": "Polygon", "coordinates": [[[-95.3223943, 35.7438556], [-95.3223939, 35.7437055], [-95.3219822, 35.7437062], [-95.3219826, 35.7438564], [-95.3223943, 35.7438556]]]}, "properties": {"osm_id": 1171753557, "building": "apartments", "name": "", "height": null, "height_m": null, "levels": null, "tract_id": "40101001301", "tract_name": "13.01", "tags": {"building": "apartments"}}}, {"type": "Feature", "geometry": {"type": "Polygon", "coordinates": [[[-95.3223932, 35.7436371], [-95.3223937, 35.7434836], [-95.3220316, 35.7434829], [-95.3220311, 35.7436363], [-95.3223932, 35.7436371]]]}, "properties": {"osm_id": 1171753558, "building": "apartments", "name": "", "height": null, "height_m": null, "levels": null, "tract_id": "40101001301", "tract_name": "13.01", "tags": {"building": "apartments"}}}, {"type": "Feature", "geometry": {"type": "Polygon", "coordinates": [[[-95.3218362, 35.7440666], [-95.3216619, 35.7440666], [-95.3216618, 35.7437532], [-95.3218362, 35.7437532], [-95.3218362, 35.7440666]]]}, "properties": {"osm_id": 1171753559, "building": "apartments", "name": "", "height": null, "height_m": null, "levels": null, "tract_id": "40101001301", "tract_name": "13.01", "tags": {"building": "apartments"}}}, {"type": "Feature", "geometry": {"type": "Polygon", "coordinates": [[[-95.3212757, 35.7440623], [-95.3210946, 35.7440634], [-95.3210918, 35.743739], [-95.3212728, 35.743738], [-95.3212757, 35.7440623]]]}, "properties": {"osm_id": 1171753560, "building": "apartments", "name": "", "height": null, "height_m": null, "levels": null, "tract_id": "40101001301", "tract_name": "13.01", "tags": {"building": "apartments"}}}, {"type": "Feature", "geometry": {"type": "Polygon", "coordinates": [[[-95.3215283, 35.7436318], [-95.3215311, 35.7434871], [-95.32111, 35.7434817], [-95.3211072, 35.7436264], [-95.3215283, 35.7436318]]]}, "properties": {"osm_id": 1171753561, "building": "apartments", "name": "", "height": null, "height_m": null, "levels": null, "tract_id": "40101001301", "tract_name": "13.01", "tags": {"building": "apartments"}}}, {"type": "Feature", "geometry": {"type": "Polygon", "coordinates": [[[-95.3207871, 35.7440533], [-95.3203043, 35.7440517], [-95.3203051, 35.7439037], [-95.3207878, 35.7439052], [-95.3207871, 35.7440533]]]}, "properties": {"osm_id": 1171753562, "building": "apartments", "name": "", "height": null, "height_m": null, "levels": null, "tract_id": "40101001301", "tract_name": "13.01", "tags": {"building": "apartments"}}}, {"type": "Feature", "geometry": {"type": "Polygon", "coordinates": [[[-95.3207283, 35.7438401], [-95.3207299, 35.7436975], [-95.3204537, 35.7436956], [-95.3204521, 35.7438381], [-95.3207283, 35.7438401]]]}, "properties": {"osm_id": 1171753563, "building": "apartments", "name": "", "height": null, "height_m": null, "levels": null, "tract_id": "40101001301", "tract_name": "13.01", "tags": {"building": "apartments"}}}, {"type": "Feature", "geometry": {"type": "Polygon", "coordinates": [[[-95.3207897, 35.7436223], [-95.3207878, 35.7434699], [-95.3203091, 35.7434738], [-95.320311, 35.7436261], [-95.3207897, 35.7436223]]]}, "properties": {"osm_id": 1171753564, "building": "apartments", "name": "", "height": null, "height_m": null, "levels": null, "tract_id": "40101001301", "tract_name": "13.01", "tags": {"building": "apartments"}}}, {"type": "Feature", "geometry": {"type": "Polygon", "coordinates": [[[-95.3202155, 35.7439616], [-95.3200371, 35.7439616], [-95.3200371, 35.7435665], [-95.3202155, 35.7435665], [-95.3202155, 35.7439616]]]}, "properties": {"osm_id": 1171753565, "building": "apartments", "name": "", "height": null, "height_m": null, "levels": null, "tract_id": "40101001301", "tract_name": "13.01", "tags": {"building": "apartments"}}}, {"type": "Feature", "geometry": {"type": "Polygon", "coordinates": [[[-95.3199608, 35.7437267], [-95.3199603, 35.7435689], [-95.3196815, 35.7435696], [-95.319682, 35.7437273], [-95.3199608, 35.7437267]]]}, "properties": {"osm_id": 1171753566, "building": "apartments", "name": "", "height": null, "height_m": null, "levels": null, "tract_id": "40101001301", "tract_name": "13.01", "tags": {"building": "apartments"}}}, {"type": "Feature", "geometry": {"type": "Polygon", "coordinates": [[[-95.322584, 35.772559], [-95.3225821, 35.7720971], [-95.3224604, 35.7720975], [-95.3224623, 35.7725593], [-95.322584, 35.772559]]]}, "properties": {"osm_id": 1171753567, "building": "apartments", "name": "", "height": null, "height_m": null, "levels": null, "tract_id": "40101001301", "tract_name": "13.01", "tags": {"addr:city": "Muskogee", "addr:postcode": "74403", "addr:state": "OK", "addr:street": "Club Estates Drive", "building": "apartments"}}}, {"type": "Feature", "geometry": {"type": "Polygon", "coordinates": [[[-95.3225862, 35.772762], [-95.3225852, 35.7726008], [-95.3224835, 35.7726012], [-95.3224845, 35.7727625], [-95.3225862, 35.772762]]]}, "properties": {"osm_id": 1171753568, "building": "apartments", "name": "", "height": null, "height_m": null, "levels": null, "tract_id": "40101001301", "tract_name": "13.01", "tags": {"addr:city": "Muskogee", "addr:housenumber": "3601", "addr:postcode": "74403", "addr:state": "OK", "addr:street": "Club Estates Drive", "building": "apartments"}}}, {"type": "Feature", "geometry": {"type": "Polygon", "coordinates": [[[-95.3221953, 35.7727011], [-95.3221935, 35.7723749], [-95.3220696, 35.7723753], [-95.3220713, 35.7727015], [-95.3221953, 35.7727011]]]}, "properties": {"osm_id": 1171753569, "building": "apartments", "name": "", "height": null, "height_m": null, "levels": null, "tract_id": "40101001301", "tract_name": "13.01", "tags": {"addr:city": "Muskogee", "addr:postcode": "74403", "addr:state": "OK", "addr:street": "Club Estates Drive", "building": "apartments"}}}, {"type": "Feature", "geometry": {"type": "Polygon", "coordinates": [[[-95.3220075, 35.772605], [-95.3220084, 35.7725214], [-95.3212089, 35.7725158], [-95.321208, 35.7725995], [-95.3220075, 35.772605]]]}, "properties": {"osm_id": 1171753570, "building": "apartments", "name": "", "height": null, "height_m": null, "levels": null, "tract_id": "40101001301", "tract_name": "13.01", "tags": {"addr:city": "Muskogee", "addr:postcode": "74403", "addr:state": "OK", "addr:street": "Club Estates Drive", "building": "apartments"}}}, {"type": "Feature", "geometry": {"type": "Polygon", "coordinates": [[[-95.3221923, 35.7722999], [-95.322192, 35.7722037], [-95.3219817, 35.7722041], [-95.321982, 35.7723003], [-95.3221923, 35.7722999]]]}, "properties": {"osm_id": 1171753571, "building": "apartments", "name": "", "height": null, "height_m": null, "levels": null, "tract_id": "40101001301", "tract_name": "13.01", "tags": {"addr:city": "Muskogee", "addr:housenumber": "3617", "addr:postcode": "74403", "addr:state": "OK", "addr:street": "Club Estates Drive", "building": "apartments"}}}, {"type": "Feature", "geometry": {"type": "Polygon", "coordinates": [[[-95.321892, 35.7724625], [-95.3217641, 35.7724633], [-95.3217613, 35.7721477], [-95.3218891, 35.7721469], [-95.321892, 35.7724625]]]}, "properties": {"osm_id": 1171753572, "building": "apartments", "name": "", "height": null, "height_m": null, "levels": null, "tract_id": "40101001301", "tract_name": "13.01", "tags": {"addr:city": "Muskogee", "addr:postcode": "74403", "addr:state": "OK", "addr:street": "Club Estates Drive", "building": "apartments"}}}, {"type": "Feature", "geometry": {"type": "Polygon", "coordinates": [[[-95.3225897, 35.7720599], [-95.3224834, 35.7720597], [-95.3224839, 35.7719091], [-95.3225902, 35.7719093], [-95.3225897, 35.7720599]]]}, "properties": {"osm_id": 1171753573, "building": "apartments", "name": "", "height": null, "height_m": null, "levels": null, "tract_id": "40101001301", "tract_name": "13.01", "tags": {"addr:city": "Muskogee", "addr:housenumber": "3609", "addr:postcode": "74403", "addr:state": "OK", "addr:street": "Club Estates Drive", "building": "apartments"}}}, {"type": "Feature", "geometry": {"type": "Polygon", "coordinates": [[[-95.3223205, 35.7719828], [-95.3223201, 35.7718851], [-95.3217425, 35.7718868], [-95.3217429, 35.7719844], [-95.3223205, 35.7719828]]]}, "properties": {"osm_id": 1171753574, "building": "apartments", "name": "", "height": null, "height_m": null, "levels": null, "tract_id": "40101001301", "tract_name": "13.01", "tags": {"addr:city": "Muskogee", "addr:postcode": "74403", "addr:state": "OK", "addr:street": "Club Estates Drive", "building": "apartments"}}}, {"type": "Feature", "geometry": {"type": "Polygon", "coordinates": [[[-95.3214459, 35.7724592], [-95.3213149, 35.7724591], [-95.3213155, 35.7721435], [-95.3214464, 35.7721436], [-95.3214459, 35.7724592]]]}, "properties": {"osm_id": 1171753575, "building": "apartments", "name": "", "height": null, "height_m": null, "levels": null, "tract_id": "40101001301", "tract_name": "13.01", "tags": {"addr:city": "Muskogee", "addr:postcode": "74403", "addr:state": "OK", "addr:street": "Club Estates Drive", "building": "apartments"}}}, {"type": "Feature", "geometry": {"type": "Polygon", "coordinates": [[[-95.3211471, 35.7726993], [-95.3210192, 35.772699], [-95.3210204, 35.772369], [-95.3211482, 35.7723693], [-95.3211471, 35.7726993]]]}, "properties": {"osm_id": 1171753576, "building": "apartments", "name": "", "height": null, "height_m": null, "levels": null, "tract_id": "40101001301", "tract_name": "13.01", "tags": {"addr:city": "Muskogee", "addr:postcode": "74403", "addr:state": "OK", "addr:street": "Club Estates Drive", "building": "apartments"}}}, {"type": "Feature", "geometry": {"type": "Polygon", "coordinates": [[[-95.3212477, 35.7722984], [-95.3210205, 35.772298], [-95.3210207, 35.7722105], [-95.3212479, 35.7722109], [-95.3212477, 35.7722984]]]}, "properties": {"osm_id": 1171753577, "building": "apartments", "name": "", "height": null, "height_m": null, "levels": null, "tract_id": "40101001301", "tract_name": "13.01", "tags": {"addr:city": "Muskogee", "addr:housenumber": "3637", "addr:postcode": "74403", "addr:state": "OK", "addr:street": "Club Estates Drive", "building": "apartments"}}}, {"type": "Feature", "geometry": {"type": "Polygon", "coordinates": [[[-95.3214706, 35.7719831], [-95.3214692, 35.7718852], [-95.3208628, 35.7718907], [-95.3208642, 35.7719887], [-95.3214706, 35.7719831]]]}, "properties": {"osm_id": 1171753578, "building": "apartments", "name": "", "height": null, "height_m": null, "levels": null, "tract_id": "40101001301", "tract_name": "13.01", "tags": {"addr:city": "Muskogee", "addr:postcode": "74403", "addr:state": "OK", "addr:street": "Club Estates Drive", "building": "apartments"}}}, {"type": "Feature", "geometry": {"type": "Polygon", "coordinates": [[[-95.3207269, 35.7727008], [-95.3207265, 35.7725902], [-95.3205863, 35.7725905], [-95.3205867, 35.7727011], [-95.3207269, 35.7727008]]]}, "properties": {"osm_id": 1171753579, "building": "apartments", "name": "", "height": null, "height_m": null, "levels": null, "tract_id": "40101001301", "tract_name": "13.01", "tags": {"addr:city": "Muskogee", "addr:housenumber": "3701", "addr:postcode": "74403", "addr:state": "OK", "addr:street": "Club Estates Drive", "building": "apartments"}}}, {"type": "Feature", "geometry": {"type": "Polygon", "coordinates": [[[-95.3205292, 35.7727454], [-95.3205298, 35.7726561], [-95.3202371, 35.7726547], [-95.3202365, 35.7727441], [-95.3205292, 35.7727454]]]}, "properties": {"osm_id": 1171753580, "building": "apartments", "name": "", "height": null, "height_m": null, "levels": null, "tract_id": "40101001301", "tract_name": "13.01", "tags": {"addr:city": "Muskogee", "addr:housenumber": "3703", "addr:postcode": "74403", "addr:state": "OK", "addr:street": "Club Estates Drive", "building": "apartments"}}}, {"type": "Feature", "geometry": {"type": "Polygon", "coordinates": [[[-95.3201858, 35.7726606], [-95.3200526, 35.7726608], [-95.3200521, 35.772422], [-95.3201853, 35.7724219], [-95.3201858, 35.7726606]]]}, "properties": {"osm_id": 1171753581, "building": "apartments", "name": "", "height": null, "height_m": null, "levels": null, "tract_id": "40101001301", "tract_name": "13.01", "tags": {"addr:city": "Muskogee", "addr:housenumber": "3705", "addr:postcode": "74403", "addr:state": "OK", "addr:street": "Club Estates Drive", "building": "apartments"}}}, {"type": "Feature", "geometry": {"type": "Polygon", "coordinates": [[[-95.3205096, 35.772342], [-95.320511, 35.7722589], [-95.320276, 35.7722563], [-95.3202746, 35.7723394], [-95.3205096, 35.772342]]]}, "properties": {"osm_id": 1171753582, "building": "apartments", "name": "", "height": null, "height_m": null, "levels": null, "tract_id": "40101001301", "tract_name": "13.01", "tags": {"addr:city": "Muskogee", "addr:housenumber": "3707", "addr:postcode": "74403", "addr:state": "OK", "addr:street": "Club Estates Drive", "building": "apartments"}}}, {"type": "Feature", "geometry": {"type": "Polygon", "coordinates": [[[-95.3205105, 35.7720506], [-95.3205112, 35.77197], [-95.320277, 35.7719687], [-95.3202763, 35.7720492], [-95.3205105, 35.7720506]]]}, "properties": {"osm_id": 1171753583, "building": "apartments", "name": "", "height": null, "height_m": null, "levels": null, "tract_id": "40101001301", "tract_name": "13.01", "tags": {"addr:city": "Muskogee", "addr:housenumber": "3713", "addr:postcode": "74403", "addr:state": "OK", "addr:street": "Club Estates Drive", "building": "apartments"}}}, {"type": "Feature", "geometry": {"type": "Polygon", "coordinates": [[[-95.3201986, 35.7723538], [-95.3201975, 35.7722369], [-95.3200435, 35.7722379], [-95.3200446, 35.7723548], [-95.3201986, 35.7723538]]]}, "properties": {"osm_id": 1171753584, "building": "apartments", "name": "", "height": null, "height_m": null, "levels": null, "tract_id": "40101001301", "tract_name": "13.01", "tags": {"addr:city": "Muskogee", "addr:housenumber": "3709", "addr:postcode": "74403", "addr:state": "OK", "addr:street": "Club Estates Drive", "building": "apartments"}}}, {"type": "Feature", "geometry": {"type": "Polygon", "coordinates": [[[-95.3207436, 35.7717748], [-95.3207425, 35.7716573], [-95.3205738, 35.7716583], [-95.3205749, 35.7717758], [-95.3207436, 35.7717748]]]}, "properties": {"osm_id": 1171753585, "building": "apartments", "name": "", "height": null, "height_m": null, "levels": null, "tract_id": "40101001301", "tract_name": "13.01", "tags": {"addr:city": "Muskogee", "addr:housenumber": "3717", "addr:postcode": "74403", "addr:state": "OK", "addr:street": "Club Estates Drive", "building": "apartments"}}}, {"type": "Feature", "geometry": {"type": "Polygon", "coordinates": [[[-95.320505, 35.7717536], [-95.3205067, 35.7716498], [-95.3202395, 35.7716469], [-95.3202377, 35.7717506], [-95.320505, 35.7717536]]]}, "properties": {"osm_id": 1171753586, "building": "apartments", "name": "", "height": null, "height_m": null, "levels": null, "tract_id": "40101001301", "tract_name": "13.01", "tags": {"addr:city": "Muskogee", "addr:housenumber": "3719", "addr:postcode": "74403", "addr:state": "OK", "addr:street": "Club Estates Drive", "building": "apartments"}}}, {"type": "Feature", "geometry": {"type": "Polygon", "coordinates": [[[-95.3201802, 35.7718314], [-95.3201775, 35.7715983], [-95.320065, 35.7715991], [-95.3200678, 35.7718323], [-95.3201802, 35.7718314]]]}, "properties": {"osm_id": 1171753587, "building": "apartments", "name": "", "height": null, "height_m": null, "levels": null, "tract_id": "40101001301", "tract_name": "13.01", "tags": {"addr:city": "Muskogee", "addr:housenumber": "3721", "addr:postcode": "74403", "addr:state": "OK", "addr:street": "Club Estates Drive", "building": "apartments"}}}, {"type": "Feature", "geometry": {"type": "Polygon", "coordinates": [[[-95.3201956, 35.7720376], [-95.3201952, 35.7719376], [-95.3200635, 35.7719379], [-95.3200639, 35.7720379], [-95.3201956, 35.7720376]]]}, "properties": {"osm_id": 1171753588, "building": "apartments", "name": "", "height": null, "height_m": null, "levels": null, "tract_id": "40101001301", "tract_name": "13.01", "tags": {"addr:city": "Muskogee", "addr:housenumber": "3715", "addr:postcode": "74403", "addr:state": "OK", "addr:street": "Club Estates Drive", "building": "apartments"}}}, {"type": "Feature", "geometry": {"type": "Polygon", "coordinates": [[[-95.3199719, 35.7723499], [-95.3199714, 35.7721513], [-95.3198883, 35.7721514], [-95.3198888, 35.77235], [-95.3199719, 35.7723499]]]}, "properties": {"osm_id": 1171753590, "building": "apartments", "name": "", "height": null, "height_m": null, "levels": null, "tract_id": "40101001301", "tract_name": "13.01", "tags": {"addr:city": "Muskogee", "addr:housenumber": "3723", "addr:postcode": "74403", "addr:state": "OK", "addr:street": "Club Estates Drive", "building": "apartments"}}}, {"type": "Feature", "geometry": {"type": "Polygon", "coordinates": [[[-95.3199692, 35.7721072], [-95.3199702, 35.7719119], [-95.3198917, 35.7719116], [-95.3198907, 35.7721069], [-95.3199692, 35.7721072]]]}, "properties": {"osm_id": 1171753591, "building": "apartments", "name": "", "height": null, "height_m": null, "levels": null, "tract_id": "40101001301", "tract_name": "13.01", "tags": {"addr:city": "Muskogee", "addr:housenumber": "3739", "addr:postcode": "74403", "addr:state": "OK", "addr:street": "Club Estates Drive", "building": "apartments"}}}, {"type": "Feature", "geometry": {"type": "Polygon", "coordinates": [[[-95.3197786, 35.7718415], [-95.3197752, 35.7715956], [-95.3196606, 35.7715967], [-95.319664, 35.7718426], [-95.3197786, 35.7718415]]]}, "properties": {"osm_id": 1171753592, "building": "apartments", "name": "", "height": null, "height_m": null, "levels": null, "tract_id": "40101001301", "tract_name": "13.01", "tags": {"addr:city": "Muskogee", "addr:housenumber": "3745", "addr:postcode": "74403", "addr:state": "OK", "addr:street": "Club Estates Drive", "building": "apartments"}}}, {"type": "Feature", "geometry": {"type": "Polygon", "coordinates": [[[-95.3196039, 35.771739], [-95.3196043, 35.7716505], [-95.3193383, 35.7716497], [-95.3193379, 35.7717383], [-95.3196039, 35.771739]]]}, "properties": {"osm_id": 1171753593, "building": "apartments", "name": "", "height": null, "height_m": null, "levels": null, "tract_id": "40101001301", "tract_name": "13.01", "tags": {"addr:city": "Muskogee", "addr:housenumber": "3747", "addr:postcode": "74403", "addr:state": "OK", "addr:street": "Club Estates Drive", "building": "apartments"}}}, {"type": "Feature", "geometry": {"type": "Polygon", "coordinates": [[[-95.3192718, 35.7717841], [-95.3192692, 35.7716461], [-95.3191375, 35.7716477], [-95.3191401, 35.7717857], [-95.3192718, 35.7717841]]]}, "properties": {"osm_id": 1171759878, "building": "apartments", "name": "", "height": null, "height_m": null, "levels": null, "tract_id": "40101001301", "tract_name": "13.01", "tags": {"addr:city": "Muskogee", "addr:housenumber": "3749", "addr:postcode": "74403", "addr:state": "OK", "addr:street": "Club Estates Drive", "building": "apartments"}}}, {"type": "Feature", "geometry": {"type": "Polygon", "coordinates": [[[-95.3198338, 35.7720939], [-95.319832, 35.7719595], [-95.3196548, 35.7719612], [-95.3196567, 35.7720955], [-95.3198338, 35.7720939]]]}, "properties": {"osm_id": 1171759879, "building": "apartments", "name": "", "height": null, "height_m": null, "levels": null, "tract_id": "40101001301", "tract_name": "13.01", "tags": {"addr:city": "Muskogee", "addr:housenumber": "3739", "addr:postcode": "74403", "addr:state": "OK", "addr:street": "Club Estates Drive", "building": "apartments"}}}, {"type": "Feature", "geometry": {"type": "Polygon", "coordinates": [[[-95.3195736, 35.7720402], [-95.3195738, 35.7719765], [-95.3193373, 35.771976], [-95.3193371, 35.7720398], [-95.3195736, 35.7720402]]]}, "properties": {"osm_id": 1171759880, "building": "apartments", "name": "", "height": null, "height_m": null, "levels": null, "tract_id": "40101001301", "tract_name": "13.01", "tags": {"addr:city": "Muskogee", "addr:housenumber": "3741", "addr:postcode": "74403", "addr:state": "OK", "addr:street": "Club Estates Drive", "building": "apartments"}}}, {"type": "Feature", "geometry": {"type": "Polygon", "coordinates": [[[-95.3198328, 35.7722668], [-95.3198338, 35.7721593], [-95.319662, 35.7721582], [-95.319661, 35.7722657], [-95.3198328, 35.7722668]]]}, "properties": {"osm_id": 1171759881, "building": "apartments", "name": "", "height": null, "height_m": null, "levels": null, "tract_id": "40101001301", "tract_name": "13.01", "tags": {"addr:city": "Muskogee", "addr:housenumber": "3733", "addr:postcode": "74403", "addr:state": "OK", "addr:street": "Club Estates Drive", "building": "apartments"}}}, {"type": "Feature", "geometry": {"type": "Polygon", "coordinates": [[[-95.3195685, 35.7723023], [-95.3195689, 35.7722417], [-95.3193432, 35.7722408], [-95.3193428, 35.7723014], [-95.3195685, 35.7723023]]]}, "properties": {"osm_id": 1171759882, "building": "apartments", "name": "", "height": null, "height_m": null, "levels": null, "tract_id": "40101001301", "tract_name": "13.01", "tags": {"addr:city": "Muskogee", "addr:housenumber": "3735", "addr:postcode": "74403", "addr:state": "OK", "addr:street": "Club Estates Drive", "building": "apartments"}}}, {"type": "Feature", "geometry": {"type": "Polygon", "coordinates": [[[-95.3192679, 35.7721059], [-95.3192679, 35.7719634], [-95.3191354, 35.7719634], [-95.3191354, 35.7721059], [-95.3192679, 35.7721059]]]}, "properties": {"osm_id": 1171759883, "building": "apartments", "name": "", "height": null, "height_m": null, "levels": null, "tract_id": "40101001301", "tract_name": "13.01", "tags": {"addr:city": "Muskogee", "addr:housenumber": "3743", "addr:postcode": "74403", "addr:state": "OK", "addr:street": "Club Estates Drive", "building": "apartments"}}}, {"type": "Feature", "geometry": {"type": "Polygon", "coordinates": [[[-95.3192666, 35.7723149], [-95.3191311, 35.7723157], [-95.3191298, 35.7721688], [-95.3192653, 35.772168], [-95.3192666, 35.7723149]]]}, "properties": {"osm_id": 1171759884, "building": "apartments", "name": "", "height": null, "height_m": null, "levels": null, "tract_id": "40101001301", "tract_name": "13.01", "tags": {"addr:city": "Muskogee", "addr:housenumber": "3737", "addr:postcode": "74403", "addr:state": "OK", "addr:street": "Club Estates Drive", "building": "apartments"}}}, {"type": "Feature", "geometry": {"type": "Polygon", "coordinates": [[[-95.3197791, 35.7726682], [-95.3197796, 35.772422], [-95.3196633, 35.7724218], [-95.3196628, 35.772668], [-95.3197791, 35.7726682]]]}, "properties": {"osm_id": 1171759885, "building": "apartments", "name": "", "height": null, "height_m": null, "levels": null, "tract_id": "40101001301", "tract_name": "13.01", "tags": {"addr:city": "Muskogee", "addr:housenumber": "3727", "addr:postcode": "74403", "addr:state": "OK", "addr:street": "Club Estates Drive", "building": "apartments"}}}, {"type": "Feature", "geometry": {"type": "Polygon", "coordinates": [[[-95.3195974, 35.772752], [-95.3195977, 35.7726583], [-95.3193119, 35.7726578], [-95.3193117, 35.7727516], [-95.3195974, 35.772752]]]}, "properties": {"osm_id": 1171759886, "building": "apartments", "name": "", "height": null, "height_m": null, "levels": null, "tract_id": "40101001301", "tract_name": "13.01", "tags": {"addr:city": "Muskogee", "addr:housenumber": "3729", "addr:postcode": "74403", "addr:state": "OK", "addr:street": "Club Estates Drive", "building": "apartments"}}}, {"type": "Feature", "geometry": {"type": "Polygon", "coordinates": [[[-95.3192681, 35.7726973], [-95.3192677, 35.7725835], [-95.3191267, 35.7725839], [-95.3191271, 35.7726976], [-95.3192681, 35.7726973]]]}, "properties": {"osm_id": 1171759887, "building": "apartments", "name": "", "height": null, "height_m": null, "levels": null, "tract_id": "40101001301", "tract_name": "13.01", "tags": {"addr:city": "Muskogee", "addr:housenumber": "3731", "addr:postcode": "74403", "addr:state": "OK", "addr:street": "Club Estates Drive", "building": "apartments"}}}, {"type": "Feature", "geometry": {"type": "Polygon", "coordinates": [[[-95.320516, 35.7721461], [-95.320515, 35.7720983], [-95.3203382, 35.7720966], [-95.3203422, 35.7721371], [-95.3202853, 35.7721659], [-95.3202833, 35.7722022], [-95.3204611, 35.7722014], [-95.3204611, 35.772161], [-95.320516, 35.7721461]]]}, "properties": {"osm_id": 1171759888, "building": "yes", "name": "", "height": null, "height_m": null, "levels": null, "tract_id": "40101001301", "tract_name": "13.01", "tags": {"addr:city": "Muskogee", "addr:housenumber": "3711", "addr:postcode": "74403", "addr:state": "OK", "addr:street": "Club Estates Drive", "building": "yes", "office": "property_management"}}}, {"type": "Feature", "geometry": {"type": "Polygon", "coordinates": [[[-95.3180176, 35.7714205], [-95.3180129, 35.7711477], [-95.3179802, 35.7711477], [-95.3179732, 35.7709525], [-95.3180666, 35.7709507], [-95.3180666, 35.7708852], [-95.3181529, 35.7708849], [-95.3181553, 35.7709544], [-95.3184192, 35.7709488], [-95.3184262, 35.7712557], [-95.3182534, 35.7712576], [-95.3182557, 35.7714186], [-95.3180176, 35.7714205]]]}, "properties": {"osm_id": 1173106761, "building": "yes", "name": "New Community Church", "height": null, "height_m": null, "levels": null, "tract_id": "40101001301", "tract_name": "13.01", "tags": {"addr:city": "Muskogee", "addr:housenumber": "3600", "addr:postcode": "74403", "addr:state": "OK", "addr:street": "East Shawnee Road", "amenity": "place_of_worship", "building": "yes", "layer": "1", "name": "New Community Church", "religion": "christian"}}}, {"type": "Feature", "geometry": {"type": "Polygon", "coordinates": [[[-95.3209167, 35.7383824], [-95.3208522, 35.7381726], [-95.3206622, 35.738211], [-95.3206149, 35.7380569], [-95.3208571, 35.7380079], [-95.3208946, 35.7380275], [-95.3209241, 35.7379535], [-95.3206212, 35.7380114], [-95.3207133, 35.7378963], [-95.3206786, 35.737878], [-95.3206103, 35.7379633], [-95.3205714, 35.7378445], [-95.3205424, 35.7378508], [-95.3205908, 35.737999], [-95.320581, 35.7380065], [-95.3205537, 35.7379172], [-95.3205345, 35.737921], [-95.320489, 35.7377721], [-95.3204792, 35.7377741], [-95.3204399, 35.7376453], [-95.3202641, 35.7376807], [-95.3202794, 35.7377308], [-95.3202725, 35.7377322], [-95.3202744, 35.7377387], [-95.3202656, 35.7377405], [-95.3202677, 35.7377475], [-95.3202588, 35.7377493], [-95.3202608, 35.737756], [-95.3202498, 35.7377582], [-95.3202515, 35.7377637], [-95.3202386, 35.7377663], [-95.3202404, 35.737772], [-95.3201354, 35.7377934], [-95.3201757, 35.7379236], [-95.3201393, 35.737931], [-95.3201485, 35.7379609], [-95.3199166, 35.7380081], [-95.3199073, 35.7379779], [-95.3198629, 35.7379869], [-95.3198654, 35.7379952], [-95.3197753, 35.7380134], [-95.3198394, 35.7382233], [-95.3200809, 35.7381748], [-95.3201254, 35.7383206], [-95.3198818, 35.7383696], [-95.3199454, 35.738578], [-95.3200519, 35.7385566], [-95.3200536, 35.7385623], [-95.3200804, 35.7385569], [-95.3200717, 35.7385286], [-95.3207727, 35.7383871], [-95.320782, 35.7384172], [-95.3208196, 35.7384096], [-95.3208174, 35.7384025], [-95.3209167, 35.7383824]]]}, "properties": {"osm_id": 1173132973, "building": "school", "name": "Creek Elementary", "height": null, "height_m": null, "levels": null, "tract_id": "40101001301", "tract_name": "13.01", "tags": {"addr:city": "Muskogee", "addr:housenumber": "200", "addr:postcode": "74403", "addr:state": "OK", "addr:street": "North Country Club Road", "building": "school", "name": "Creek Elementary", "operator": "Muskogee Public Schools"}}}, {"type": "Feature", "geometry": {"type": "Polygon", "coordinates": [[[-95.3223062, 35.7393066], [-95.3221241, 35.7393076], [-95.3221217, 35.7390223], [-95.3223015, 35.7390233], [-95.3223027, 35.7390792], [-95.3223319, 35.7391086], [-95.3223003, 35.7391417], [-95.3223062, 35.7393066]]]}, "properties": {"osm_id": 1173132974, "building": "yes", "name": "Muskogee Fire Department", "height": null, "height_m": null, "levels": null, "tract_id": "40101001301", "tract_name": "13.01", "tags": {"addr:city": "Muskogee", "addr:housenumber": "104", "addr:postcode": "74403", "addr:state": "OK", "addr:street": "South Country Club Road", "amenity": "fire_station", "building": "yes", "name": "Muskogee Fire Department", "operator": "City of Muskogee"}}}, {"type": "Feature", "geometry": {"type": "Polygon", "coordinates": [[[-95.3119491, 35.7409904], [-95.3118706, 35.7409903], [-95.3118706, 35.7409601], [-95.3118853, 35.7409601], [-95.3118854, 35.740827], [-95.3118029, 35.7408269], [-95.3118027, 35.7409617], [-95.3118166, 35.7409617], [-95.3118165, 35.74099], [-95.3117425, 35.7409899], [-95.3117424, 35.741053], [-95.3117085, 35.7410529], [-95.3117084, 35.7411101], [-95.311793, 35.7411102], [-95.3117929, 35.7411822], [-95.3119087, 35.7411823], [-95.3119088, 35.7411155], [-95.3119419, 35.7411155], [-95.311942, 35.7410905], [-95.311949, 35.7410905], [-95.3119491, 35.7409904]]]}, "properties": {"osm_id": 1173412108, "building": "yes", "name": "Eagles Lodge", "height": null, "height_m": null, "levels": null, "tract_id": "40101001301", "tract_name": "13.01", "tags": {"addr:city": "Muskogee", "addr:housenumber": "4090", "addr:postcode": "74403", "addr:state": "OK", "addr:street": "Chandler Road", "alt_name": "Aeries Lodge", "amenity": "social_centre", "brand": "Fraternal Order of Eagles", "brand:short": "FOE", "brand:wikidata": "Q5493810", "building": "yes", "name": "Eagles Lodge", "official_name": "Fraternal Order of Eagles", "ref": "4043", "short_name": "FOE"}}}, {"type": "Feature", "geometry": {"type": "Polygon", "coordinates": [[[-95.3147647, 35.7400385], [-95.3147647, 35.7396445], [-95.3143785, 35.7396423], [-95.3143785, 35.7400353], [-95.3145193, 35.7400363], [-95.314518, 35.7400995], [-95.3146253, 35.7401006], [-95.3146253, 35.7400374], [-95.3147647, 35.7400385]]]}, "properties": {"osm_id": 1173412109, "building": "yes", "name": "Chandler Road Assembly of God", "height": null, "height_m": null, "levels": null, "tract_id": "40101001301", "tract_name": "13.01", "tags": {"addr:city": "Muskogee", "addr:housenumber": "4043", "addr:postcode": "74403", "addr:state": "OK", "addr:street": "Chandler Road", "amenity": "place_of_worship", "building": "yes", "denomination": "assemblies_of_god", "name": "Chandler Road Assembly of God", "religion": "christian"}}}, {"type": "Feature", "geometry": {"type": "Polygon", "coordinates": [[[-95.3218384, 35.7502055], [-95.3215963, 35.7502087], [-95.3215911, 35.749946], [-95.3218255, 35.749943], [-95.3218263, 35.749984], [-95.3218786, 35.7499833], [-95.3218795, 35.7500318], [-95.3219637, 35.7500307], [-95.3219655, 35.7501239], [-95.3218862, 35.7501249], [-95.321887, 35.7501654], [-95.3218377, 35.750166], [-95.3218384, 35.7502055]]]}, "properties": {"osm_id": 1173422789, "building": "yes", "name": "Eight Ten Ranch & Cattle Company", "height": null, "height_m": null, "levels": null, "tract_id": "40101001301", "tract_name": "13.01", "tags": {"addr:city": "Muskogee", "addr:housenumber": "800", "addr:postcode": "74403", "addr:state": "OK", "addr:street": "North Country Club Road", "amenity": "events_venue", "building": "yes", "name": "Eight Ten Ranch & Cattle Company"}}}, {"type": "Feature", "geometry": {"type": "Polygon", "coordinates": [[[-95.3225899, 35.7522823], [-95.3223276, 35.7522773], [-95.3223364, 35.7519753], [-95.3225977, 35.7519803], [-95.3225975, 35.7519881], [-95.3226656, 35.7519894], [-95.3226639, 35.752048], [-95.3225968, 35.7520467], [-95.3225899, 35.7522823]]]}, "properties": {"osm_id": 1173422790, "building": "yes", "name": "Thrive Family Church", "height": null, "height_m": null, "levels": null, "tract_id": "40101001301", "tract_name": "13.01", "tags": {"addr:city": "Muskogee", "addr:housenumber": "808", "addr:postcode": "74403", "addr:state": "OK", "addr:street": "North Country Club Road", "amenity": "place_of_worship", "building": "yes", "name": "Thrive Family Church", "religion": "christian"}}}, {"type": "Feature", "geometry": {"type": "Polygon", "coordinates": [[[-95.3208502, 35.7786749], [-95.3206341, 35.7788868], [-95.3205246, 35.7788129], [-95.3205153, 35.7788233], [-95.3202257, 35.7786348], [-95.3203612, 35.7784937], [-95.320639, 35.7786765], [-95.3207266, 35.7785912], [-95.3207987, 35.7786401], [-95.3208502, 35.7786749]]]}, "properties": {"osm_id": 1173487358, "building": "yes", "name": "", "height": null, "height_m": null, "levels": null, "tract_id": "40101001301", "tract_name": "13.01", "tags": {"addr:city": "Muskogee", "addr:housenumber": "2400", "addr:postcode": "74403", "addr:state": "OK", "addr:street": "North Country Club Road", "building": "yes", "golf": "clubhouse"}}}, {"type": "Feature", "geometry": {"type": "Polygon", "coordinates": [[[-95.3207263, 35.7794503], [-95.3205476, 35.7794228], [-95.3206153, 35.7791441], [-95.320791, 35.7791779], [-95.3207263, 35.7794503]]]}, "properties": {"osm_id": 1173487359, "building": "yes", "name": "", "height": null, "height_m": null, "levels": null, "tract_id": "40101001301", "tract_name": "13.01", "tags": {"building": "yes"}}}, {"type": "Feature", "geometry": {"type": "Polygon", "coordinates": [[[-95.3187492, 35.7840874], [-95.3187462, 35.7838384], [-95.3185876, 35.7838367], [-95.3185846, 35.7840865], [-95.3187492, 35.7840874]]]}, "properties": {"osm_id": 1173487360, "building": "yes", "name": "", "height": null, "height_m": null, "levels": null, "tract_id": "40101001301", "tract_name": "13.01", "tags": {"building": "yes"}}}, {"type": "Feature", "geometry": {"type": "Polygon", "coordinates": [[[-95.318113, 35.7840379], [-95.318115, 35.7838714], [-95.3179788, 35.7838697], [-95.3179747, 35.7840354], [-95.318113, 35.7840379]]]}, "properties": {"osm_id": 1173487361, "building": "yes", "name": "", "height": null, "height_m": null, "levels": null, "tract_id": "40101001301", "tract_name": "13.01", "tags": {"building": "yes"}}}, {"type": "Feature", "geometry": {"type": "Polygon", "coordinates": [[[-95.3114826, 35.7487226], [-95.311207, 35.7487218], [-95.3112075, 35.7486195], [-95.3114831, 35.7486203], [-95.3114826, 35.7487226]]]}, "properties": {"osm_id": 1341358365, "building": "yes", "name": "", "height": null, "height_m": null, "levels": null, "tract_id": "40101001301", "tract_name": "13.01", "tags": {"building": "yes"}}}, {"type": "Feature", "geometry": {"type": "Polygon", "coordinates": [[[-95.3124449, 35.7476248], [-95.3124446, 35.7477009], [-95.3122092, 35.7477004], [-95.3122095, 35.7476242], [-95.3124449, 35.7476248]]]}, "properties": {"osm_id": 1341358366, "building": "yes", "name": "", "height": null, "height_m": null, "levels": null, "tract_id": "40101001301", "tract_name": "13.01", "tags": {"building": "yes"}}}, {"type": "Feature", "geometry": {"type": "Polygon", "coordinates": [[[-95.3084024, 35.7446507], [-95.3082949, 35.7446487], [-95.308299, 35.7445059], [-95.3084065, 35.7445078], [-95.3084024, 35.7446507]]]}, "properties": {"osm_id": 1341358367, "building": "yes", "name": "", "height": null, "height_m": null, "levels": null, "tract_id": "40101001301", "tract_name": "13.01", "tags": {"building": "yes"}}}, {"type": "Feature", "geometry": {"type": "Polygon", "coordinates": [[[-95.3053068, 35.7432629], [-95.3051677, 35.7432644], [-95.3051644, 35.7430663], [-95.3053035, 35.7430648], [-95.3053068, 35.7432629]]]}, "properties": {"osm_id": 1341358368, "building": "yes", "name": "", "height": null, "height_m": null, "levels": null, "tract_id": "40101001301", "tract_name": "13.01", "tags": {"building": "yes"}}}, {"type": "Feature", "geometry": {"type": "Polygon", "coordinates": [[[-95.317561, 35.7409241], [-95.317561, 35.7408873], [-95.317639, 35.7408873], [-95.317639, 35.740924], [-95.3176533, 35.740924], [-95.3176535, 35.7412789], [-95.3175475, 35.7412789], [-95.3175473, 35.7409241], [-95.317561, 35.7409241]]]}, "properties": {"osm_id": 1341358369, "building": "yes", "name": "", "height": null, "height_m": null, "levels": null, "tract_id": "40101001301", "tract_name": "13.01", "tags": {"building": "yes"}}}, {"type": "Feature", "geometry": {"type": "Polygon", "coordinates": [[[-95.3177711, 35.7414843], [-95.3175954, 35.7414826], [-95.317597, 35.74137], [-95.3177727, 35.7413717], [-95.3177711, 35.7414843]]]}, "properties": {"osm_id": 1341358370, "building": "yes", "name": "", "height": null, "height_m": null, "levels": null, "tract_id": "40101001301", "tract_name": "13.01", "tags": {"building": "yes"}}}, {"type": "Feature", "geometry": {"type": "Polygon", "coordinates": [[[-95.3181439, 35.7387115], [-95.3176966, 35.7387088], [-95.3176983, 35.7385292], [-95.3181455, 35.7385319], [-95.3181439, 35.7387115]]]}, "properties": {"osm_id": 1341358371, "building": "commercial", "name": "Fastenal Fulfillment Center", "height": null, "height_m": null, "levels": null, "tract_id": "40101001301", "tract_name": "13.01", "tags": {"addr:city": "Muskogee", "addr:housenumber": "201", "addr:postcode": "74403", "addr:state": "OK", "addr:street": "Eastpoint Drive", "building": "commercial", "name": "Fastenal Fulfillment Center"}}}, {"type": "Feature", "geometry": {"type": "Polygon", "coordinates": [[[-95.3182304, 35.7376561], [-95.317824, 35.7376534], [-95.3178249, 35.7375649], [-95.3182313, 35.7375676], [-95.3182304, 35.7376561]]]}, "properties": {"osm_id": 1341358372, "building": "yes", "name": "", "height": null, "height_m": null, "levels": null, "tract_id": "40101001301", "tract_name": "13.01", "tags": {"building": "yes"}}}, {"type": "Feature", "geometry": {"type": "Polygon", "coordinates": [[[-95.3175562, 35.737861], [-95.3175569, 35.7377762], [-95.3182318, 35.73778], [-95.3182311, 35.7378648], [-95.3175562, 35.737861]]]}, "properties": {"osm_id": 1341358373, "building": "yes", "name": "", "height": null, "height_m": null, "levels": null, "tract_id": "40101001301", "tract_name": "13.01", "tags": {"building": "yes"}}}, {"type": "Feature", "geometry": {"type": "Polygon", "coordinates": [[[-95.3182297, 35.7380034], [-95.3175582, 35.738002], [-95.3175584, 35.7379157], [-95.31823, 35.7379171], [-95.3182297, 35.7380034]]]}, "properties": {"osm_id": 1341358374, "building": "yes", "name": "", "height": null, "height_m": null, "levels": null, "tract_id": "40101001301", "tract_name": "13.01", "tags": {"building": "yes"}}}, {"type": "Feature", "geometry": {"type": "Polygon", "coordinates": [[[-95.318229, 35.738174], [-95.3175548, 35.7381705], [-95.3175557, 35.7380583], [-95.3182299, 35.7380618], [-95.318229, 35.738174]]]}, "properties": {"osm_id": 1341358375, "building": "yes", "name": "", "height": null, "height_m": null, "levels": null, "tract_id": "40101001301", "tract_name": "13.01", "tags": {"building": "yes"}}}, {"type": "Feature", "geometry": {"type": "Polygon", "coordinates": [[[-95.3182441, 35.7383291], [-95.317535, 35.7383245], [-95.3175359, 35.7382391], [-95.318245, 35.7382437], [-95.3182441, 35.7383291]]]}, "properties": {"osm_id": 1341358376, "building": "yes", "name": "", "height": null, "height_m": null, "levels": null, "tract_id": "40101001301", "tract_name": "13.01", "tags": {"building": "yes"}}}, {"type": "Feature", "geometry": {"type": "Polygon", "coordinates": [[[-95.3182435, 35.7384682], [-95.3175344, 35.7384668], [-95.3175346, 35.7383803], [-95.3182437, 35.7383816], [-95.3182435, 35.7384682]]]}, "properties": {"osm_id": 1341358377, "building": "yes", "name": "", "height": null, "height_m": null, "levels": null, "tract_id": "40101001301", "tract_name": "13.01", "tags": {"building": "yes"}}}, {"type": "Feature", "geometry": {"type": "Polygon", "coordinates": [[[-95.3153855, 35.7351707], [-95.3153857, 35.7350878], [-95.315722, 35.7350882], [-95.3157244, 35.7339204], [-95.3153338, 35.7339199], [-95.315334, 35.7338344], [-95.3143495, 35.7338331], [-95.3143493, 35.7339144], [-95.3151542, 35.7339156], [-95.3151536, 35.7341953], [-95.3147497, 35.7341948], [-95.3147478, 35.7350854], [-95.3150775, 35.7350859], [-95.3150774, 35.7351702], [-95.3153855, 35.7351707]]]}, "properties": {"osm_id": 1341358378, "building": "yes", "name": "Captive-Aire Systems", "height": null, "height_m": null, "levels": null, "tract_id": "40101001301", "tract_name": "13.01", "tags": {"addr:city": "Muskogee", "addr:housenumber": "4031", "addr:postcode": "74403", "addr:state": "OK", "addr:street": "Tull Avenue", "building": "yes", "name": "Captive-Aire Systems"}}}, {"type": "Feature", "geometry": {"type": "Polygon", "coordinates": [[[-95.3130071, 35.7348628], [-95.3127208, 35.7348636], [-95.31272, 35.7346759], [-95.3130063, 35.7346751], [-95.3130071, 35.7348628]]]}, "properties": {"osm_id": 1341358379, "building": "yes", "name": "", "height": null, "height_m": null, "levels": null, "tract_id": "40101001301", "tract_name": "13.01", "tags": {"building": "yes"}}}, {"type": "Feature", "geometry": {"type": "Polygon", "coordinates": [[[-95.3161262, 35.735944], [-95.3158503, 35.7359381], [-95.3158585, 35.7356875], [-95.3161344, 35.7356935], [-95.3161262, 35.735944]]]}, "properties": {"osm_id": 1341358380, "building": "yes", "name": "", "height": null, "height_m": null, "levels": null, "tract_id": "40101001301", "tract_name": "13.01", "tags": {"building": "yes"}}}, {"type": "Feature", "geometry": {"type": "Polygon", "coordinates": [[[-95.3151785, 35.7372165], [-95.3150681, 35.7372162], [-95.3150691, 35.736919], [-95.3151795, 35.7369193], [-95.3151785, 35.7372165]]]}, "properties": {"osm_id": 1341358381, "building": "yes", "name": "", "height": null, "height_m": null, "levels": null, "tract_id": "40101001301", "tract_name": "13.01", "tags": {"building": "yes"}}}, {"type": "Feature", "geometry": {"type": "Polygon", "coordinates": [[[-95.3158885, 35.7371815], [-95.315464, 35.7371809], [-95.3154648, 35.7367636], [-95.3158893, 35.7367642], [-95.3158885, 35.7371815]]]}, "properties": {"osm_id": 1341358382, "building": "yes", "name": "", "height": null, "height_m": null, "levels": null, "tract_id": "40101001301", "tract_name": "13.01", "tags": {"building": "yes"}}}, {"type": "Feature", "geometry": {"type": "Polygon", "coordinates": [[[-95.3177867, 35.7348706], [-95.3177866, 35.7350521], [-95.3174295, 35.735052], [-95.3174296, 35.7348701], [-95.3173451, 35.7348701], [-95.317346, 35.7334716], [-95.3178429, 35.7334719], [-95.317842, 35.7348707], [-95.3177867, 35.7348706]]]}, "properties": {"osm_id": 1341358383, "building": "industrial", "name": "A&B Distributors", "height": null, "height_m": null, "levels": null, "tract_id": "40101001301", "tract_name": "13.01", "tags": {"building": "industrial", "name": "A&B Distributors"}}}, {"type": "Feature", "geometry": {"type": "Polygon", "coordinates": [[[-95.3078375, 35.7284884], [-95.3076, 35.7284833], [-95.3076248, 35.7277299], [-95.3078623, 35.727735], [-95.3078375, 35.7284884]]]}, "properties": {"osm_id": 1341358384, "building": "industrial", "name": "", "height": null, "height_m": null, "levels": null, "tract_id": "40101001301", "tract_name": "13.01", "tags": {"building": "industrial"}}}, {"type": "Feature", "geometry": {"type": "Polygon", "coordinates": [[[-95.3059415, 35.7290924], [-95.3054309, 35.7290997], [-95.3054275, 35.7289454], [-95.3059381, 35.7289381], [-95.3059415, 35.7290924]]]}, "properties": {"osm_id": 1341358385, "building": "yes", "name": "", "height": null, "height_m": null, "levels": null, "tract_id": "40101001301", "tract_name": "13.01", "tags": {"building": "yes"}}}, {"type": "Feature", "geometry": {"type": "Polygon", "coordinates": [[[-95.3059378, 35.7294919], [-95.3052669, 35.729493], [-95.3052665, 35.7293243], [-95.3059374, 35.7293232], [-95.3059378, 35.7294919]]]}, "properties": {"osm_id": 1341358386, "building": "yes", "name": "", "height": null, "height_m": null, "levels": null, "tract_id": "40101001301", "tract_name": "13.01", "tags": {"building": "yes"}}}, {"type": "Feature", "geometry": {"type": "Polygon", "coordinates": [[[-95.3039285, 35.731046], [-95.3035862, 35.7310468], [-95.3035857, 35.7309054], [-95.303928, 35.7309046], [-95.3039285, 35.731046]]]}, "properties": {"osm_id": 1341358387, "building": "yes", "name": "", "height": null, "height_m": null, "levels": null, "tract_id": "40101001301", "tract_name": "13.01", "tags": {"building": "yes"}}}, {"type": "Feature", "geometry": {"type": "Polygon", "coordinates": [[[-95.3039305, 35.7312235], [-95.3035252, 35.7312243], [-95.3035247, 35.731081], [-95.3039301, 35.7310802], [-95.3039305, 35.7312235]]]}, "properties": {"osm_id": 1341358388, "building": "yes", "name": "", "height": null, "height_m": null, "levels": null, "tract_id": "40101001301", "tract_name": "13.01", "tags": {"building": "yes"}}}, {"type": "Feature", "geometry": {"type": "Polygon", "coordinates": [[[-95.3034404, 35.7316788], [-95.3032338, 35.7316755], [-95.3032366, 35.7315611], [-95.3034431, 35.7315643], [-95.3034404, 35.7316788]]]}, "properties": {"osm_id": 1341358389, "building": "yes", "name": "", "height": null, "height_m": null, "levels": null, "tract_id": "40101001301", "tract_name": "13.01", "tags": {"building": "yes"}}}, {"type": "Feature", "geometry": {"type": "Polygon", "coordinates": [[[-95.3035044, 35.7318473], [-95.3032321, 35.7318416], [-95.3032358, 35.7317271], [-95.303508, 35.7317328], [-95.3035044, 35.7318473]]]}, "properties": {"osm_id": 1341358390, "building": "yes", "name": "", "height": null, "height_m": null, "levels": null, "tract_id": "40101001301", "tract_name": "13.01", "tags": {"building": "yes"}}}, {"type": "Feature", "geometry": {"type": "Polygon", "coordinates": [[[-95.2990818, 35.7365697], [-95.29838, 35.7365713], [-95.2983788, 35.7362361], [-95.2990806, 35.7362344], [-95.2990818, 35.7365697]]]}, "properties": {"osm_id": 1341358391, "building": "yes", "name": "", "height": null, "height_m": null, "levels": null, "tract_id": "40101001301", "tract_name": "13.01", "tags": {"building": "yes"}}}, {"type": "Feature", "geometry": {"type": "Polygon", "coordinates": [[[-95.305968, 35.7364445], [-95.3054235, 35.7364435], [-95.3054262, 35.7354948], [-95.3059707, 35.7354958], [-95.305968, 35.7364445]]]}, "properties": {"osm_id": 1341358392, "building": "yes", "name": "", "height": null, "height_m": null, "levels": null, "tract_id": "40101001301", "tract_name": "13.01", "tags": {"addr:city": "Muskogee", "addr:housenumber": "403", "addr:postcode": "74403", "addr:state": "OK", "addr:street": "South 45th Street East", "building": "yes"}}}, {"type": "Feature", "geometry": {"type": "Polygon", "coordinates": [[[-95.3060076, 35.7372174], [-95.3054604, 35.7372164], [-95.3054624, 35.7365273], [-95.3060096, 35.7365283], [-95.3060076, 35.7372174]]]}, "properties": {"osm_id": 1341358393, "building": "yes", "name": "", "height": null, "height_m": null, "levels": null, "tract_id": "40101001301", "tract_name": "13.01", "tags": {"addr:city": "Muskogee", "addr:housenumber": "401", "addr:postcode": "74403", "addr:state": "OK", "addr:street": "South 45th Street East", "building": "yes"}}}, {"type": "Feature", "geometry": {"type": "Polygon", "coordinates": [[[-95.3061511, 35.7381906], [-95.3054658, 35.7381928], [-95.3054618, 35.7373677], [-95.306147, 35.7373655], [-95.3061511, 35.7381906]]]}, "properties": {"osm_id": 1341358394, "building": "yes", "name": "", "height": null, "height_m": null, "levels": null, "tract_id": "40101001301", "tract_name": "13.01", "tags": {"addr:city": "Muskogee", "addr:housenumber": "331", "addr:postcode": "74403", "addr:state": "OK", "addr:street": "South 45th Street East", "building": "yes"}}}, {"type": "Feature", "geometry": {"type": "Polygon", "coordinates": [[[-95.3112714, 35.737732], [-95.3110671, 35.737734], [-95.3110631, 35.737457], [-95.3112674, 35.737455], [-95.3112714, 35.737732]]]}, "properties": {"osm_id": 1341358395, "building": "yes", "name": "", "height": null, "height_m": null, "levels": null, "tract_id": "40101001301", "tract_name": "13.01", "tags": {"building": "yes"}}}, {"type": "Feature", "geometry": {"type": "Polygon", "coordinates": [[[-95.312058, 35.7375745], [-95.3115182, 35.7375734], [-95.3115187, 35.7374041], [-95.3120585, 35.7374052], [-95.312058, 35.7375745]]]}, "properties": {"osm_id": 1341358396, "building": "yes", "name": "", "height": null, "height_m": null, "levels": null, "tract_id": "40101001301", "tract_name": "13.01", "tags": {"building": "yes"}}}, {"type": "Feature", "geometry": {"type": "Polygon", "coordinates": [[[-95.3122504, 35.7382679], [-95.3120437, 35.7382633], [-95.3120584, 35.7378252], [-95.3122652, 35.7378297], [-95.3122504, 35.7382679]]]}, "properties": {"osm_id": 1341358397, "building": "yes", "name": "", "height": null, "height_m": null, "levels": null, "tract_id": "40101001301", "tract_name": "13.01", "tags": {"building": "yes"}}}, {"type": "Feature", "geometry": {"type": "Polygon", "coordinates": [[[-95.3004849, 35.7449519], [-95.3002902, 35.7449484], [-95.3002979, 35.7446687], [-95.3004926, 35.7446722], [-95.3004849, 35.7449519]]]}, "properties": {"osm_id": 1341358398, "building": "yes", "name": "", "height": null, "height_m": null, "levels": null, "tract_id": "40101001301", "tract_name": "13.01", "tags": {"building": "yes"}}}, {"type": "Feature", "geometry": {"type": "Polygon", "coordinates": [[[-95.3015095, 35.7432952], [-95.3014852, 35.7440822], [-95.3013418, 35.7440792], [-95.3013661, 35.7432927], [-95.3012749, 35.7432908], [-95.3012904, 35.7427908], [-95.301637, 35.7427979], [-95.3016216, 35.7432975], [-95.3015095, 35.7432952]]]}, "properties": {"osm_id": 1341358399, "building": "yes", "name": "", "height": null, "height_m": null, "levels": null, "tract_id": "40101001301", "tract_name": "13.01", "tags": {"building": "yes"}}}, {"type": "Feature", "geometry": {"type": "Polygon", "coordinates": [[[-95.3010562, 35.7439767], [-95.3007205, 35.7439718], [-95.3007332, 35.7433943], [-95.3010689, 35.7433992], [-95.3010562, 35.7439767]]]}, "properties": {"osm_id": 1341358400, "building": "yes", "name": "", "height": null, "height_m": null, "levels": null, "tract_id": "40101001301", "tract_name": "13.01", "tags": {"building": "yes"}}}, {"type": "Feature", "geometry": {"type": "Polygon", "coordinates": [[[-95.3069286, 35.7439193], [-95.3065873, 35.7439258], [-95.3065831, 35.743783], [-95.3069244, 35.7437764], [-95.3069286, 35.7439193]]]}, "properties": {"osm_id": 1341358401, "building": "yes", "name": "", "height": null, "height_m": null, "levels": null, "tract_id": "40101001301", "tract_name": "13.01", "tags": {"building": "yes"}}}, {"type": "Feature", "geometry": {"type": "Polygon", "coordinates": [[[-95.3082834, 35.7568758], [-95.3080286, 35.756865], [-95.3080345, 35.7567734], [-95.3082894, 35.7567843], [-95.3082834, 35.7568758]]]}, "properties": {"osm_id": 1341358402, "building": "yes", "name": "", "height": null, "height_m": null, "levels": null, "tract_id": "40101001301", "tract_name": "13.01", "tags": {"building": "yes"}}}, {"type": "Feature", "geometry": {"type": "Polygon", "coordinates": [[[-95.3082211, 35.7570902], [-95.3082202, 35.7569476], [-95.3088991, 35.7569449], [-95.3089, 35.7570875], [-95.3082211, 35.7570902]]]}, "properties": {"osm_id": 1341358403, "building": "yes", "name": "", "height": null, "height_m": null, "levels": null, "tract_id": "40101001301", "tract_name": "13.01", "tags": {"building": "yes"}}}, {"type": "Feature", "geometry": {"type": "Polygon", "coordinates": [[[-95.3087082, 35.7534906], [-95.3080346, 35.7534832], [-95.3080384, 35.7532585], [-95.3087119, 35.7532658], [-95.3087082, 35.7534906]]]}, "properties": {"osm_id": 1341358404, "building": "yes", "name": "", "height": null, "height_m": null, "levels": null, "tract_id": "40101001301", "tract_name": "13.01", "tags": {"building": "yes"}}}, {"type": "Feature", "geometry": {"type": "Polygon", "coordinates": [[[-95.3090546, 35.7512355], [-95.3081265, 35.7512453], [-95.3081238, 35.7510771], [-95.3090519, 35.7510673], [-95.3090546, 35.7512355]]]}, "properties": {"osm_id": 1341358405, "building": "yes", "name": "", "height": null, "height_m": null, "levels": null, "tract_id": "40101001301", "tract_name": "13.01", "tags": {"building": "yes"}}}, {"type": "Feature", "geometry": {"type": "Polygon", "coordinates": [[[-95.3058051, 35.7495661], [-95.3055271, 35.7495958], [-95.3055056, 35.749463], [-95.3057835, 35.7494333], [-95.3058051, 35.7495661]]]}, "properties": {"osm_id": 1341358406, "building": "yes", "name": "", "height": null, "height_m": null, "levels": null, "tract_id": "40101001301", "tract_name": "13.01", "tags": {"building": "yes"}}}, {"type": "Feature", "geometry": {"type": "Polygon", "coordinates": [[[-95.3119272, 35.7500994], [-95.3116925, 35.7500984], [-95.3116932, 35.7499962], [-95.3119279, 35.7499973], [-95.3119272, 35.7500994]]]}, "properties": {"osm_id": 1341358407, "building": "yes", "name": "", "height": null, "height_m": null, "levels": null, "tract_id": "40101001301", "tract_name": "13.01", "tags": {"building": "yes"}}}, {"type": "Feature", "geometry": {"type": "Polygon", "coordinates": [[[-95.312123, 35.7502831], [-95.3116784, 35.7502744], [-95.311681, 35.7501874], [-95.3121256, 35.7501961], [-95.312123, 35.7502831]]]}, "properties": {"osm_id": 1341358408, "building": "yes", "name": "", "height": null, "height_m": null, "levels": null, "tract_id": "40101001301", "tract_name": "13.01", "tags": {"building": "yes"}}}, {"type": "Feature", "geometry": {"type": "Polygon", "coordinates": [[[-95.3123406, 35.7501082], [-95.3120033, 35.7501068], [-95.312004, 35.7499938], [-95.3123413, 35.7499951], [-95.3123406, 35.7501082]]]}, "properties": {"osm_id": 1341358409, "building": "yes", "name": "", "height": null, "height_m": null, "levels": null, "tract_id": "40101001301", "tract_name": "13.01", "tags": {"building": "yes"}}}, {"type": "Feature", "geometry": {"type": "Polygon", "coordinates": [[[-95.312124, 35.7498516], [-95.3117857, 35.7498502], [-95.3117863, 35.7497511], [-95.3121246, 35.7497524], [-95.312124, 35.7498516]]]}, "properties": {"osm_id": 1341358410, "building": "yes", "name": "", "height": null, "height_m": null, "levels": null, "tract_id": "40101001301", "tract_name": "13.01", "tags": {"building": "yes"}}}, {"type": "Feature", "geometry": {"type": "Polygon", "coordinates": [[[-95.3125364, 35.7498529], [-95.3121927, 35.7498516], [-95.3121934, 35.749737], [-95.3125371, 35.7497384], [-95.3125364, 35.7498529]]]}, "properties": {"osm_id": 1341358411, "building": "yes", "name": "", "height": null, "height_m": null, "levels": null, "tract_id": "40101001301", "tract_name": "13.01", "tags": {"building": "yes"}}}, {"type": "Feature", "geometry": {"type": "Polygon", "coordinates": [[[-95.3129481, 35.7501054], [-95.3126112, 35.750106], [-95.3126109, 35.7499933], [-95.3129478, 35.7499928], [-95.3129481, 35.7501054]]]}, "properties": {"osm_id": 1341358412, "building": "yes", "name": "", "height": null, "height_m": null, "levels": null, "tract_id": "40101001301", "tract_name": "13.01", "tags": {"building": "yes"}}}, {"type": "Feature", "geometry": {"type": "Polygon", "coordinates": [[[-95.3133702, 35.7501049], [-95.3130346, 35.7501052], [-95.3130345, 35.7499931], [-95.3133701, 35.7499928], [-95.3133702, 35.7501049]]]}, "properties": {"osm_id": 1341358413, "building": "yes", "name": "", "height": null, "height_m": null, "levels": null, "tract_id": "40101001301", "tract_name": "13.01", "tags": {"building": "yes"}}}, {"type": "Feature", "geometry": {"type": "Polygon", "coordinates": [[[-95.3128029, 35.7502709], [-95.312466, 35.7502698], [-95.3124664, 35.7501846], [-95.3128034, 35.7501856], [-95.3128029, 35.7502709]]]}, "properties": {"osm_id": 1341358414, "building": "yes", "name": "", "height": null, "height_m": null, "levels": null, "tract_id": "40101001301", "tract_name": "13.01", "tags": {"building": "yes"}}}, {"type": "Feature", "geometry": {"type": "Polygon", "coordinates": [[[-95.3132234, 35.7502709], [-95.3128891, 35.7502698], [-95.3128895, 35.7501849], [-95.3132238, 35.7501859], [-95.3132234, 35.7502709]]]}, "properties": {"osm_id": 1341358415, "building": "yes", "name": "", "height": null, "height_m": null, "levels": null, "tract_id": "40101001301", "tract_name": "13.01", "tags": {"building": "yes"}}}, {"type": "Feature", "geometry": {"type": "Polygon", "coordinates": [[[-95.3136452, 35.7502736], [-95.3133089, 35.7502722], [-95.3133094, 35.750187], [-95.3136457, 35.7501884], [-95.3136452, 35.7502736]]]}, "properties": {"osm_id": 1341358416, "building": "yes", "name": "", "height": null, "height_m": null, "levels": null, "tract_id": "40101001301", "tract_name": "13.01", "tags": {"building": "yes"}}}, {"type": "Feature", "geometry": {"type": "Polygon", "coordinates": [[[-95.3225752, 35.7732042], [-95.3225727, 35.7730553], [-95.322503, 35.7730561], [-95.3225036, 35.7730935], [-95.3223425, 35.7730953], [-95.3223418, 35.7730545], [-95.3222566, 35.7730554], [-95.3222592, 35.7732077], [-95.3225752, 35.7732042]]]}, "properties": {"osm_id": 1424652607, "building": "house", "name": "", "height": null, "height_m": null, "levels": null, "tract_id": "40101001301", "tract_name": "13.01", "tags": {"addr:city": "Muskogee", "addr:postcode": "74403", "addr:state": "OK", "addr:street": "Club Estates Drive", "building": "house", "house": "duplex"}}}, {"type": "Feature", "geometry": {"type": "Polygon", "coordinates": [[[-95.3222241, 35.7732035], [-95.3222216, 35.7730546], [-95.3221519, 35.7730554], [-95.3221525, 35.7730928], [-95.3219913, 35.7730946], [-95.3219906, 35.7730537], [-95.3219055, 35.7730547], [-95.321908, 35.773207], [-95.3222241, 35.7732035]]]}, "properties": {"osm_id": 1424652608, "building": "house", "name": "", "height": null, "height_m": null, "levels": null, "tract_id": "40101001301", "tract_name": "13.01", "tags": {"addr:city": "Muskogee", "addr:postcode": "74403", "addr:state": "OK", "addr:street": "Club Estates Drive", "building": "house", "house": "duplex"}}}, {"type": "Feature", "geometry": {"type": "Polygon", "coordinates": [[[-95.3218819, 35.773199], [-95.3218794, 35.7730501], [-95.3218097, 35.7730509], [-95.3218103, 35.7730883], [-95.3216492, 35.7730901], [-95.3216485, 35.7730493], [-95.3215633, 35.7730502], [-95.3215659, 35.7732025], [-95.3218819, 35.773199]]]}, "properties": {"osm_id": 1424652609, "building": "house", "name": "", "height": null, "height_m": null, "levels": null, "tract_id": "40101001301", "tract_name": "13.01", "tags": {"addr:city": "Muskogee", "addr:postcode": "74403", "addr:state": "OK", "addr:street": "Club Estates Drive", "building": "house", "house": "duplex"}}}, {"type": "Feature", "geometry": {"type": "Polygon", "coordinates": [[[-95.3215315, 35.773199], [-95.321529, 35.7730501], [-95.3214593, 35.7730509], [-95.3214599, 35.7730883], [-95.3212987, 35.7730901], [-95.321298, 35.7730493], [-95.3212129, 35.7730502], [-95.3212155, 35.7732025], [-95.3215315, 35.773199]]]}, "properties": {"osm_id": 1424652610, "building": "house", "name": "", "height": null, "height_m": null, "levels": null, "tract_id": "40101001301", "tract_name": "13.01", "tags": {"addr:city": "Muskogee", "addr:postcode": "74403", "addr:state": "OK", "addr:street": "Club Estates Drive", "building": "house", "house": "duplex"}}}, {"type": "Feature", "geometry": {"type": "Polygon", "coordinates": [[[-95.3211866, 35.7732024], [-95.3211841, 35.7730535], [-95.3211144, 35.7730542], [-95.321115, 35.7730916], [-95.3209538, 35.7730935], [-95.3209531, 35.7730526], [-95.320868, 35.7730536], [-95.3208705, 35.7732058], [-95.3211866, 35.7732024]]]}, "properties": {"osm_id": 1424652611, "building": "house", "name": "", "height": null, "height_m": null, "levels": null, "tract_id": "40101001301", "tract_name": "13.01", "tags": {"addr:city": "Muskogee", "addr:postcode": "74403", "addr:state": "OK", "addr:street": "Club Estates Drive", "building": "house", "house": "duplex"}}}, {"type": "Feature", "geometry": {"type": "Polygon", "coordinates": [[[-95.3208458, 35.7732046], [-95.3208433, 35.7730557], [-95.3207736, 35.7730565], [-95.3207742, 35.7730939], [-95.320613, 35.7730957], [-95.3206123, 35.7730549], [-95.3205272, 35.7730558], [-95.3205298, 35.7732081], [-95.3208458, 35.7732046]]]}, "properties": {"osm_id": 1424652612, "building": "house", "name": "", "height": null, "height_m": null, "levels": null, "tract_id": "40101001301", "tract_name": "13.01", "tags": {"addr:city": "Muskogee", "addr:postcode": "74403", "addr:state": "OK", "addr:street": "Club Estates Drive", "building": "house", "house": "duplex"}}}, {"type": "Feature", "geometry": {"type": "Polygon", "coordinates": [[[-95.3204871, 35.773199], [-95.3204846, 35.7730501], [-95.3204149, 35.7730509], [-95.3204155, 35.7730883], [-95.3202543, 35.7730901], [-95.3202536, 35.7730493], [-95.3201685, 35.7730502], [-95.3201711, 35.7732025], [-95.3204871, 35.773199]]]}, "properties": {"osm_id": 1424652613, "building": "house", "name": "", "height": null, "height_m": null, "levels": null, "tract_id": "40101001301", "tract_name": "13.01", "tags": {"addr:city": "Muskogee", "addr:postcode": "74403", "addr:state": "OK", "addr:street": "Club Estates Drive", "building": "house", "house": "duplex"}}}, {"type": "Feature", "geometry": {"type": "Polygon", "coordinates": [[[-95.3201284, 35.773199], [-95.3201259, 35.7730501], [-95.3200562, 35.7730509], [-95.3200568, 35.7730883], [-95.3198956, 35.7730901], [-95.3198949, 35.7730493], [-95.3198098, 35.7730502], [-95.3198123, 35.7732025], [-95.3201284, 35.773199]]]}, "properties": {"osm_id": 1424652614, "building": "house", "name": "", "height": null, "height_m": null, "levels": null, "tract_id": "40101001301", "tract_name": "13.01", "tags": {"addr:city": "Muskogee", "addr:postcode": "74403", "addr:state": "OK", "addr:street": "Club Estates Drive", "building": "house", "house": "duplex"}}}, {"type": "Feature", "geometry": {"type": "Polygon", "coordinates": [[[-95.3197586, 35.773199], [-95.3197561, 35.7730501], [-95.3196864, 35.7730509], [-95.319687, 35.7730883], [-95.3195259, 35.7730901], [-95.3195252, 35.7730493], [-95.31944, 35.7730502], [-95.3194426, 35.7732025], [-95.3197586, 35.773199]]]}, "properties": {"osm_id": 1424652615, "building": "house", "name": "", "height": null, "height_m": null, "levels": null, "tract_id": "40101001301", "tract_name": "13.01", "tags": {"addr:city": "Muskogee", "addr:postcode": "74403", "addr:state": "OK", "addr:street": "Club Estates Drive", "building": "house", "house": "duplex"}}}, {"type": "Feature", "geometry": {"type": "Polygon", "coordinates": [[[-95.319382, 35.7731979], [-95.3193795, 35.773049], [-95.3193098, 35.7730498], [-95.3193104, 35.7730872], [-95.3191492, 35.773089], [-95.3191485, 35.7730481], [-95.3190634, 35.7730491], [-95.3190659, 35.7732014], [-95.319382, 35.7731979]]]}, "properties": {"osm_id": 1424652616, "building": "house", "name": "", "height": null, "height_m": null, "levels": null, "tract_id": "40101001301", "tract_name": "13.01", "tags": {"addr:city": "Muskogee", "addr:postcode": "74403", "addr:state": "OK", "addr:street": "Club Estates Drive", "building": "house", "house": "duplex"}}}, {"type": "Feature", "geometry": {"type": "Polygon", "coordinates": [[[-95.3190116, 35.7731974], [-95.3190081, 35.7730481], [-95.3189392, 35.7730491], [-95.3189401, 35.7730867], [-95.3188159, 35.7730886], [-95.3188149, 35.7730446], [-95.3187254, 35.773046], [-95.3187291, 35.7732017], [-95.3190116, 35.7731974]]]}, "properties": {"osm_id": 1424652617, "building": "house", "name": "", "height": null, "height_m": null, "levels": null, "tract_id": "40101001301", "tract_name": "13.01", "tags": {"addr:city": "Muskogee", "addr:postcode": "74403", "addr:state": "OK", "addr:street": "Club Estates Drive", "building": "house", "house": "duplex"}}}, {"type": "Feature", "geometry": {"type": "Polygon", "coordinates": [[[-95.3187004, 35.7731984], [-95.3186997, 35.7730537], [-95.3186327, 35.773054], [-95.3186329, 35.773091], [-95.3185109, 35.7730914], [-95.3185107, 35.7730468], [-95.3184297, 35.773047], [-95.3184304, 35.7731993], [-95.3187004, 35.7731984]]]}, "properties": {"osm_id": 1424652618, "building": "house", "name": "", "height": null, "height_m": null, "levels": null, "tract_id": "40101001301", "tract_name": "13.01", "tags": {"addr:city": "Muskogee", "addr:postcode": "74403", "addr:state": "OK", "addr:street": "Club Estates Drive", "building": "house", "house": "duplex"}}}, {"type": "Feature", "geometry": {"type": "Polygon", "coordinates": [[[-95.3119209, 35.7322348], [-95.3115528, 35.7320145], [-95.3116247, 35.7319353], [-95.3116017, 35.7319216], [-95.3115659, 35.7319193], [-95.3115383, 35.7319261], [-95.3115405, 35.731854], [-95.3116534, 35.7318563], [-95.3116541, 35.731834], [-95.3116114, 35.7318331], [-95.3115479, 35.7317984], [-95.311519, 35.7317659], [-95.3115052, 35.7317166], [-95.3115065, 35.7316875], [-95.3115245, 35.7316517], [-95.3115879, 35.7316046], [-95.3116564, 35.7315913], [-95.3116533, 35.7315812], [-95.3116362, 35.7315845], [-95.3115478, 35.731579], [-95.3115545, 35.7315083], [-95.3115907, 35.7315106], [-95.3116183, 35.7315094], [-95.3116371, 35.7314993], [-95.3115706, 35.7314182], [-95.3119572, 35.7312092], [-95.3119748, 35.7312307], [-95.31204, 35.7311955], [-95.3122129, 35.7314064], [-95.3122254, 35.73144], [-95.3122209, 35.731595], [-95.3123773, 35.731598], [-95.3123728, 35.7317536], [-95.3122187, 35.7317507], [-95.3122109, 35.7320174], [-95.3121784, 35.7320168], [-95.3121545, 35.7320432], [-95.312116, 35.7320201], [-95.3119209, 35.7322348]]]}, "properties": {"osm_id": 1424654373, "building": "yes", "name": "Cherokee Nation Three Rivers Health Center", "height": null, "height_m": null, "levels": null, "tract_id": "40101001301", "tract_name": "13.01", "tags": {"addr:city": "Muskogee", "addr:housenumber": "1001", "addr:postcode": "74403", "addr:state": "OK", "addr:street": "South 41st Street East", "amenity": "clinic", "building": "yes", "healthcare": "clinic", "healthcare:speciality": "behavior;diabetology;paediatrics;physiatry;podiatry;radiology", "name": "Cherokee Nation Three Rivers Health Center", "opening_hours": "Mo-Fr 08:00-17:00", "operator": "Cherokee Nation", "operator:type": "government"}}}, {"type": "Feature", "geometry": {"type": "Polygon", "coordinates": [[[-95.3339225, 35.7877919], [-95.3334789, 35.7877931], [-95.3334775, 35.787405], [-95.3338277, 35.7874041], [-95.3338273, 35.7873031], [-95.3336301, 35.7873036], [-95.3336298, 35.7872189], [-95.3335363, 35.7872191], [-95.3335362, 35.7871666], [-95.3336253, 35.7871664], [-95.3336252, 35.787127], [-95.3339968, 35.7871262], [-95.3339972, 35.7872649], [-95.3340765, 35.7872648], [-95.3340767, 35.7873368], [-95.333976, 35.787337], [-95.3339759, 35.7873204], [-95.3338792, 35.7873206], [-95.3338793, 35.7873428], [-95.3339165, 35.7873428], [-95.3339168, 35.7874439], [-95.3339633, 35.7874438], [-95.3339634, 35.7874883], [-95.3339211, 35.7874884], [-95.3339219, 35.7877021], [-95.3339603, 35.787702], [-95.3339604, 35.7877357], [-95.3339223, 35.7877358], [-95.3339225, 35.7877919]]]}, "properties": {"osm_id": 1427784563, "building": "yes", "name": "Muskogee Church of Christ", "height": null, "height_m": null, "levels": null, "tract_id": "40101001301", "tract_name": "13.01", "tags": {"addr:city": "Muskogee", "addr:housenumber": "3206", "addr:postcode": "74403", "addr:state": "OK", "addr:street": "North York Street", "amenity": "place_of_worship", "building": "yes", "denomination": "church_of_christ", "name": "Muskogee Church of Christ", "phone": "+1-918-683-4531", "religion": "christian", "service_times": "Su 09:30", "website": "https://www.mccweb.org/"}}}, {"type": "Feature", "geometry": {"type": "Polygon", "coordinates": [[[-95.3154998, 35.771154], [-95.3153662, 35.7711564], [-95.3153638, 35.7710704], [-95.3153117, 35.7710714], [-95.3153065, 35.7708877], [-95.3153918, 35.7708861], [-95.3153915, 35.7708776], [-95.3154171, 35.7708558], [-95.3154426, 35.7708569], [-95.3154835, 35.770889], [-95.3155386, 35.770888], [-95.3155435, 35.7710661], [-95.3154974, 35.771067], [-95.3154998, 35.771154]]]}, "properties": {"osm_id": 1427785287, "building": "commercial", "name": "Security Alarms Company", "height": null, "height_m": null, "levels": null, "tract_id": "40101001301", "tract_name": "13.01", "tags": {"addr:city": "Muskogee", "addr:housenumber": "4008", "addr:postcode": "74403", "addr:state": "OK", "addr:street": "East Shawnee Road", "building": "commercial", "name": "Security Alarms Company", "phone": "+1-918-683-5600", "start_date": "1973", "website": "https://www.securityalarmsco.com/"}}}, {"type": "Feature", "geometry": {"type": "Polygon", "coordinates": [[[-95.3130227, 35.7329087], [-95.3128135, 35.7329087], [-95.3128135, 35.7327833], [-95.3130227, 35.7327833], [-95.3130227, 35.7329087]]]}, "properties": {"osm_id": 1427967323, "building": "yes", "name": "", "height": null, "height_m": null, "levels": null, "tract_id": "40101001301", "tract_name": "13.01", "tags": {"building": "yes"}}}, {"type": "Feature", "geometry": {"type": "Polygon", "coordinates": [[[-95.3114695, 35.7335682], [-95.3108699, 35.7335694], [-95.3108712, 35.733991], [-95.3107963, 35.7339912], [-95.3107965, 35.7340736], [-95.3105679, 35.7340741], [-95.3105715, 35.7351627], [-95.3108382, 35.7351621], [-95.3108378, 35.7350381], [-95.3107925, 35.7350382], [-95.3107911, 35.7346393], [-95.3110421, 35.7346387], [-95.3110416, 35.7344981], [-95.3112101, 35.7344978], [-95.3112094, 35.7342473], [-95.3114716, 35.7342467], [-95.3114695, 35.7335682]]]}, "properties": {"osm_id": 1427967325, "building": "industrial", "name": "Customized Distribution Services", "height": null, "height_m": null, "levels": null, "tract_id": "40101001301", "tract_name": "13.01", "tags": {"addr:city": "Muskogee", "addr:housenumber": "401", "addr:postcode": "74403", "addr:state": "OK", "addr:street": "South 41st Street East", "building": "industrial", "name": "Customized Distribution Services"}}}, {"type": "Feature", "geometry": {"type": "Polygon", "coordinates": [[[-95.3181812, 35.7374434], [-95.3181816, 35.7371262], [-95.3177727, 35.7371258], [-95.3177727, 35.7371612], [-95.3175344, 35.737161], [-95.3175344, 35.7371879], [-95.3174909, 35.7371878], [-95.3174908, 35.7372679], [-95.3175325, 35.7372679], [-95.3175325, 35.7373018], [-95.3177669, 35.7373019], [-95.3177669, 35.7373344], [-95.3178157, 35.7373344], [-95.3178156, 35.7374431], [-95.3181812, 35.7374434]]]}, "properties": {"osm_id": 1427967326, "building": "industrial", "name": "Texoma Contracting, Inc.", "height": null, "height_m": null, "levels": null, "tract_id": "40101001301", "tract_name": "13.01", "tags": {"addr:city": "Muskogee", "addr:housenumber": "207", "addr:postcode": "74403", "addr:state": "OK", "addr:street": "Eastpoint Drive", "building": "industrial", "name": "Texoma Contracting, Inc."}}}, {"type": "Feature", "geometry": {"type": "Polygon", "coordinates": [[[-95.3041295, 35.7392058], [-95.304134, 35.738182], [-95.3043436, 35.7381826], [-95.3043451, 35.7378624], [-95.3041205, 35.7378617], [-95.3041239, 35.7370963], [-95.3029212, 35.7370927], [-95.3029197, 35.7374191], [-95.3024681, 35.7374178], [-95.3024643, 35.738323], [-95.3028772, 35.7383241], [-95.3028734, 35.7392022], [-95.3041295, 35.7392058]]]}, "properties": {"osm_id": 1427967327, "building": "industrial", "name": "", "height": null, "height_m": null, "levels": null, "tract_id": "40101001301", "tract_name": "13.01", "tags": {"addr:city": "Muskogee", "addr:housenumber": "300", "addr:postcode": "74403", "addr:state": "OK", "addr:street": "South 45th Street East", "building": "industrial"}}}, {"type": "Feature", "geometry": {"type": "Polygon", "coordinates": [[[-95.3014779, 35.7345117], [-95.3014228, 35.7345112], [-95.3014232, 35.7344784], [-95.3014784, 35.7344789], [-95.3014779, 35.7345117]]]}, "properties": {"osm_id": 1427968665, "building": "yes", "name": "", "height": null, "height_m": null, "levels": null, "tract_id": "40101001301", "tract_name": "13.01", "tags": {"building": "yes", "office": "security"}}}, {"type": "Feature", "geometry": {"type": "Polygon", "coordinates": [[[-95.3136679, 35.7630751], [-95.3136632, 35.7627373], [-95.3135875, 35.7627335], [-95.313578, 35.7625723], [-95.3134574, 35.7625665], [-95.3134692, 35.7628947], [-95.3135496, 35.7628986], [-95.3135473, 35.7630751], [-95.3136679, 35.7630751]]]}, "properties": {"osm_id": 1430426444, "building": "yes", "name": "", "height": null, "height_m": null, "levels": null, "tract_id": "40101001301", "tract_name": "13.01", "tags": {"building": "yes"}}}, {"type": "Feature", "geometry": {"type": "Polygon", "coordinates": [[[-95.3154643, 35.7365588], [-95.3154694, 35.7360154], [-95.3155409, 35.7360134], [-95.3155358, 35.7359698], [-95.31573, 35.7359677], [-95.3157376, 35.7360092], [-95.3158066, 35.7360092], [-95.3158092, 35.7361482], [-95.3159113, 35.7361419], [-95.3159113, 35.7365629], [-95.3154643, 35.7365588]]]}, "properties": {"osm_id": 1433423860, "building": "warehouse", "name": "", "height": null, "height_m": null, "levels": null, "tract_id": "40101001301", "tract_name": "13.01", "tags": {"building": "warehouse"}}}, {"type": "Feature", "geometry": {"type": "Polygon", "coordinates": [[[-95.3192098, 35.7382157], [-95.319209, 35.7381296], [-95.3191084, 35.7381303], [-95.3191092, 35.7382163], [-95.3192098, 35.7382157]]]}, "properties": {"osm_id": 1433423878, "building": "yes", "name": "", "height": null, "height_m": null, "levels": null, "tract_id": "40101001301", "tract_name": "13.01", "tags": {"amenity": "shelter", "building": "yes", "shelter_type": "picnic_shelter"}}}, {"type": "Feature", "geometry": {"type": "Polygon", "coordinates": [[[-95.3222831, 35.7430596], [-95.3220074, 35.7430628], [-95.3220019, 35.7427485], [-95.3222753, 35.7427453], [-95.3222762, 35.7427945], [-95.3223015, 35.7427942], [-95.3223027, 35.7428623], [-95.3223865, 35.7428613], [-95.3223879, 35.7429413], [-95.3223054, 35.7429423], [-95.3223067, 35.7430135], [-95.3222823, 35.7430138], [-95.3222831, 35.7430596]]]}, "properties": {"osm_id": 1433431673, "building": "yes", "name": "Muskogee Seventh-day Adventist Church", "height": null, "height_m": null, "levels": null, "tract_id": "40101001301", "tract_name": "13.01", "tags": {"addr:city": "Muskogee", "addr:housenumber": "170", "addr:postcode": "74403", "addr:state": "OK", "addr:street": "North Country Club Road", "amenity": "place_of_worship", "building": "yes", "denomination": "seventh_day_adventist", "name": "Muskogee Seventh-day Adventist Church", "religion": "christian", "service_times": "Sa 11:00", "website": "https://www.muskogeesdachurch.org/"}}}, {"type": "Feature", "geometry": {"type": "Polygon", "coordinates": [[[-95.3205183, 35.7403068], [-95.3205183, 35.7402533], [-95.3205052, 35.7402533], [-95.3205052, 35.7401217], [-95.3202882, 35.7401233], [-95.3202933, 35.7402072], [-95.3202781, 35.7402056], [-95.3202841, 35.7403052], [-95.3205183, 35.7403068]]]}, "properties": {"osm_id": 1433431676, "building": "yes", "name": "OakDen Family Medical", "height": null, "height_m": null, "levels": null, "tract_id": "40101001301", "tract_name": "13.01", "tags": {"addr:city": "Muskogee", "addr:housenumber": "3711", "addr:postcode": "74403", "addr:state": "OK", "addr:street": "Chandler Road", "amenity": "clinic", "building": "yes", "healthcare": "clinic", "name": "OakDen Family Medical", "phone": "+1-918-686-6932"}}}, {"type": "Feature", "geometry": {"type": "Polygon", "coordinates": [[[-95.3338038, 35.788866], [-95.3338553, 35.7885906], [-95.3336026, 35.7885462], [-95.3335704, 35.7886963], [-95.3336203, 35.7887068], [-95.333601, 35.7887969], [-95.3335833, 35.7887955], [-95.3335752, 35.7888243], [-95.3338038, 35.788866]]]}, "properties": {"osm_id": 1434929837, "building": "yes", "name": "", "height": null, "height_m": null, "levels": null, "tract_id": "40101001301", "tract_name": "13.01", "tags": {"addr:city": "Muskogee", "addr:housenumber": "3210", "addr:postcode": "74403", "addr:state": "OK", "addr:street": "North York Street", "building": "yes", "leisure": "sports_centre"}}}, {"type": "Feature", "geometry": {"type": "Polygon", "coordinates": [[[-95.3339872, 35.7888456], [-95.3340391, 35.7886243], [-95.3339064, 35.7886038], [-95.3338545, 35.7888251], [-95.3339872, 35.7888456]]]}, "properties": {"osm_id": 1434929838, "building": "yes", "name": "", "height": null, "height_m": null, "levels": null, "tract_id": "40101001301", "tract_name": "13.01", "tags": {"building": "yes"}}}]}