{"type": "FeatureCollection", "features": [{"type": "Feature", "geometry": {"type": "Polygon", "coordinates": [[[-96.1132684, 35.9860055], [-96.1130211, 35.9860078], [-96.1130155, 35.9856146], [-96.1132629, 35.9856123], [-96.1132684, 35.9860055]]]}, "properties": {"osm_id": 65050675, "building": "yes", "name": "Locke Supply", "height": null, "height_m": null, "levels": null, "tract_id": "40037021600", "tract_name": "216", "tags": {"building": "yes", "name": "Locke Supply", "shop": "hardware"}}}, {"type": "Feature", "geometry": {"type": "Polygon", "coordinates": [[[-96.1031804, 35.9882179], [-96.1030529, 35.9882169], [-96.1030561, 35.9879534], [-96.1031836, 35.9879544], [-96.1031804, 35.9882179]]]}, "properties": {"osm_id": 65050682, "building": "yes", "name": "", "height": null, "height_m": null, "levels": null, "tract_id": "40037021600", "tract_name": "216", "tags": {"building": "yes"}}}, {"type": "Feature", "geometry": {"type": "Polygon", "coordinates": [[[-96.1038561, 35.9882018], [-96.1037257, 35.9882016], [-96.1037262, 35.9879768], [-96.1038565, 35.9879769], [-96.1038561, 35.9882018]]]}, "properties": {"osm_id": 65050683, "building": "yes", "name": "", "height": null, "height_m": null, "levels": null, "tract_id": "40037021600", "tract_name": "216", "tags": {"building": "yes"}}}, {"type": "Feature", "geometry": {"type": "Polygon", "coordinates": [[[-96.1023751, 35.9882457], [-96.1022064, 35.9882457], [-96.1022064, 35.9878597], [-96.1023751, 35.9878597], [-96.1023751, 35.9882457]]]}, "properties": {"osm_id": 65050687, "building": "yes", "name": "", "height": null, "height_m": null, "levels": null, "tract_id": "40037021600", "tract_name": "216", "tags": {"building": "yes"}}}, {"type": "Feature", "geometry": {"type": "Polygon", "coordinates": [[[-96.1037151, 35.9872202], [-96.1032623, 35.9872146], [-96.1032661, 35.9870132], [-96.1037189, 35.9870188], [-96.1037151, 35.9872202]]]}, "properties": {"osm_id": 65050781, "building": "yes", "name": "", "height": null, "height_m": null, "levels": null, "tract_id": "40037021600", "tract_name": "216", "tags": {"building": "yes"}}}, {"type": "Feature", "geometry": {"type": "Polygon", "coordinates": [[[-96.1022225, 35.9872069], [-96.1022244, 35.9866696], [-96.1032517, 35.9866718], [-96.1032499, 35.9872091], [-96.1022225, 35.9872069]]]}, "properties": {"osm_id": 65050828, "building": "yes", "name": "Atwood's Farm & Ranch", "height": null, "height_m": null, "levels": null, "tract_id": "40037021600", "tract_name": "216", "tags": {"building": "yes", "name": "Atwood's Farm & Ranch", "shop": "doityourself"}}}, {"type": "Feature", "geometry": {"type": "Polygon", "coordinates": [[[-96.0995221, 35.9881922], [-96.0989857, 35.9881876], [-96.0989867, 35.9881104], [-96.0995231, 35.988115], [-96.0995221, 35.9881922]]]}, "properties": {"osm_id": 182299046, "building": "yes", "name": "QuikTrip", "height": null, "height_m": null, "levels": null, "tract_id": "40037021600", "tract_name": "216", "tags": {"addr:city": "Sapulpa", "addr:country": "US", "addr:housenumber": "1040", "addr:postcode": "74066", "addr:state": "OK", "addr:street": "East Taft Avenue", "amenity": "fuel", "brand": "QuikTrip", "brand:wikidata": "Q7271953", "building": "yes", "fuel:e10": "yes", "name": "QuikTrip", "opening_hours": "24/7"}}}, {"type": "Feature", "geometry": {"type": "Polygon", "coordinates": [[[-96.0994407, 35.98784], [-96.0994415, 35.9879376], [-96.0993396, 35.9879382], [-96.0993397, 35.987956], [-96.0991768, 35.9879569], [-96.0991767, 35.9879392], [-96.0990455, 35.9879399], [-96.0990447, 35.9878422], [-96.0994407, 35.98784]]]}, "properties": {"osm_id": 182299058, "building": "yes", "name": "QuikTrip", "height": null, "height_m": null, "levels": null, "tract_id": "40037021600", "tract_name": "216", "tags": {"addr:city": "Sapulpa", "addr:country": "US", "addr:housenumber": "1040", "addr:postcode": "74066", "addr:state": "OK", "addr:street": "East Taft Avenue", "brand": "QuikTrip", "brand:wikidata": "Q7271953", "building": "yes", "name": "QuikTrip", "shop": "convenience", "short_name": "QT"}}}, {"type": "Feature", "geometry": {"type": "Polygon", "coordinates": [[[-96.1132804, 35.98822], [-96.1131325, 35.9882204], [-96.1131321, 35.9881361], [-96.1131159, 35.9881361], [-96.1131155, 35.9880488], [-96.1131317, 35.9880487], [-96.1131312, 35.9879516], [-96.1131145, 35.9879516], [-96.1131144, 35.9879321], [-96.1131433, 35.9879321], [-96.1131432, 35.9879105], [-96.113241, 35.9879102], [-96.1132413, 35.9879684], [-96.1132598, 35.9879684], [-96.1132601, 35.9880177], [-96.1132416, 35.9880178], [-96.1132417, 35.9880525], [-96.1132585, 35.9880525], [-96.1132589, 35.9881221], [-96.1132799, 35.988122], [-96.1132804, 35.98822]]]}, "properties": {"osm_id": 187126778, "building": "retail", "name": "McDonald's", "height": null, "height_m": null, "levels": null, "tract_id": "40037021600", "tract_name": "216", "tags": {"addr:city": "Sapulpa", "addr:housenumber": "16", "addr:postcode": "74066", "addr:state": "OK", "addr:street": "East Taft Avenue", "amenity": "fast_food", "brand": "McDonald's", "brand:website": "https://www.mcdonalds.com/", "brand:wikidata": "Q38076", "building": "retail", "cuisine": "burger", "drive_through": "yes", "internet_access": "wlan", "internet_access:fee": "no", "name": "McDonald's", "opening_hours": "24/7", "phone": "+1 918-224-6916", "smoking": "no", "takeaway": "yes", "website": "https://www.mcdonalds.com/us/en-us/location/22714.html", "wheelchair": "yes"}}}, {"type": "Feature", "geometry": {"type": "Polygon", "coordinates": [[[-96.112817, 35.979375], [-96.1125553, 35.9793756], [-96.1125554, 35.9793992], [-96.1123998, 35.9793996], [-96.1124001, 35.9794729], [-96.1124505, 35.9794728], [-96.1124512, 35.9796817], [-96.1125094, 35.9796816], [-96.1125095, 35.9797202], [-96.1124848, 35.9797202], [-96.1124856, 35.9799444], [-96.11264, 35.9799441], [-96.1126393, 35.9797213], [-96.1126086, 35.9797214], [-96.1126084, 35.9796613], [-96.112631, 35.9796612], [-96.1126309, 35.9796492], [-96.1127863, 35.9796488], [-96.1127863, 35.9796605], [-96.1128079, 35.9796605], [-96.1128078, 35.9796505], [-96.1128179, 35.9796505], [-96.112817, 35.979375]]]}, "properties": {"osm_id": 187332822, "building": "yes", "name": "", "height": null, "height_m": null, "levels": null, "tract_id": "40037021600", "tract_name": "216", "tags": {"building": "yes"}}}, {"type": "Feature", "geometry": {"type": "Polygon", "coordinates": [[[-96.1126522, 35.9800827], [-96.1125408, 35.9800827], [-96.1125408, 35.9800148], [-96.1126522, 35.9800148], [-96.1126522, 35.9800827]]]}, "properties": {"osm_id": 187332823, "building": "yes", "name": "", "height": null, "height_m": null, "levels": null, "tract_id": "40037021600", "tract_name": "216", "tags": {"building": "yes"}}}, {"type": "Feature", "geometry": {"type": "Polygon", "coordinates": [[[-96.1128256, 35.9798203], [-96.1127292, 35.9798212], [-96.1127279, 35.9797301], [-96.1128244, 35.9797292], [-96.1128256, 35.9798203]]]}, "properties": {"osm_id": 187332824, "building": "yes", "name": "", "height": null, "height_m": null, "levels": null, "tract_id": "40037021600", "tract_name": "216", "tags": {"building": "yes"}}}, {"type": "Feature", "geometry": {"type": "Polygon", "coordinates": [[[-96.1127719, 35.9800846], [-96.1126725, 35.9800846], [-96.1126725, 35.9799925], [-96.1127719, 35.9799925], [-96.1127719, 35.9800846]]]}, "properties": {"osm_id": 187332825, "building": "yes", "name": "", "height": null, "height_m": null, "levels": null, "tract_id": "40037021600", "tract_name": "216", "tags": {"building": "yes"}}}, {"type": "Feature", "geometry": {"type": "Polygon", "coordinates": [[[-96.0711031, 35.9880171], [-96.0710175, 35.9880383], [-96.0710135, 35.9880278], [-96.070938, 35.9880464], [-96.0709465, 35.9880689], [-96.0708651, 35.988089], [-96.0708239, 35.9879799], [-96.0708923, 35.9879631], [-96.0708793, 35.9879288], [-96.0709932, 35.9879007], [-96.0710059, 35.9879342], [-96.0710662, 35.9879193], [-96.0711031, 35.9880171]]]}, "properties": {"osm_id": 305937582, "building": "house", "name": "", "height": null, "height_m": null, "levels": null, "tract_id": "40037021600", "tract_name": "216", "tags": {"building": "house"}}}, {"type": "Feature", "geometry": {"type": "Polygon", "coordinates": [[[-96.0703163, 35.9874753], [-96.0702036, 35.9874813], [-96.070199, 35.9874239], [-96.0701812, 35.9874248], [-96.0701745, 35.9873419], [-96.0701923, 35.987341], [-96.0701864, 35.9872693], [-96.0703013, 35.9872632], [-96.0703073, 35.9873365], [-96.0703393, 35.9873348], [-96.0703443, 35.9873971], [-96.0703101, 35.9873989], [-96.0703163, 35.9874753]]]}, "properties": {"osm_id": 305937583, "building": "house", "name": "", "height": null, "height_m": null, "levels": null, "tract_id": "40037021600", "tract_name": "216", "tags": {"building": "house"}}}, {"type": "Feature", "geometry": {"type": "Polygon", "coordinates": [[[-96.0729137, 35.9879776], [-96.0729151, 35.9878246], [-96.0727889, 35.9878238], [-96.0727828, 35.9876007], [-96.072857, 35.9876012], [-96.07286, 35.9872896], [-96.0726855, 35.9872885], [-96.0726863, 35.9872079], [-96.0725872, 35.9872073], [-96.0725864, 35.9872879], [-96.0723755, 35.9872866], [-96.0723725, 35.9875981], [-96.0725246, 35.9875991], [-96.0725293, 35.9879752], [-96.0729137, 35.9879776]]]}, "properties": {"osm_id": 305937584, "building": "church", "name": "", "height": null, "height_m": null, "levels": null, "tract_id": "40037021600", "tract_name": "216", "tags": {"building": "church"}}}, {"type": "Feature", "geometry": {"type": "Polygon", "coordinates": [[[-96.0711072, 35.9874456], [-96.0708476, 35.9874456], [-96.0708476, 35.9873394], [-96.0711072, 35.9873394], [-96.0711072, 35.9874456]]]}, "properties": {"osm_id": 305937585, "building": "house", "name": "", "height": null, "height_m": null, "levels": null, "tract_id": "40037021600", "tract_name": "216", "tags": {"building": "house"}}}, {"type": "Feature", "geometry": {"type": "Polygon", "coordinates": [[[-96.0704982, 35.9880321], [-96.0703166, 35.9880426], [-96.0703154, 35.9880285], [-96.0702754, 35.9880308], [-96.0702656, 35.9879192], [-96.0703396, 35.9879149], [-96.0703416, 35.9879381], [-96.0704891, 35.9879296], [-96.0704982, 35.9880321]]]}, "properties": {"osm_id": 305937586, "building": "house", "name": "", "height": null, "height_m": null, "levels": null, "tract_id": "40037021600", "tract_name": "216", "tags": {"building": "house"}}}, {"type": "Feature", "geometry": {"type": "Polygon", "coordinates": [[[-96.1134117, 35.9866779], [-96.1132194, 35.9866795], [-96.1132087, 35.9865667], [-96.1134033, 35.9865654], [-96.1134117, 35.9866779]]]}, "properties": {"osm_id": 306461675, "building": "yes", "name": "Scott's Taste-T-Burger", "height": null, "height_m": null, "levels": null, "tract_id": "40037021600", "tract_name": "216", "tags": {"amenity": "restaurant", "building": "yes", "cuisine": "burger", "description": "Hamburgers,_Shakes,_Root_Beer,_Etc.", "name": "Scott's Taste-T-Burger", "note": "Taste-T-Burger", "smoking": "no"}}}, {"type": "Feature", "geometry": {"type": "Polygon", "coordinates": [[[-96.1016898, 35.9880787], [-96.1016879, 35.9879666], [-96.101653, 35.9879669], [-96.1016479, 35.987659], [-96.1012998, 35.9876628], [-96.101307, 35.9880964], [-96.1013619, 35.9880958], [-96.1013624, 35.9881303], [-96.1016188, 35.9881275], [-96.1016898, 35.9880787]]]}, "properties": {"osm_id": 306470332, "building": "yes", "name": "Walgreens", "height": null, "height_m": null, "levels": null, "tract_id": "40037021600", "tract_name": "216", "tags": {"amenity": "pharmacy", "brand": "Walgreens", "brand:wikidata": "Q1591889", "building": "yes", "dispensing": "yes", "healthcare": "pharmacy", "name": "Walgreens", "smoking": "no"}}}, {"type": "Feature", "geometry": {"type": "Polygon", "coordinates": [[[-96.1132475, 35.9800787], [-96.1130222, 35.980083], [-96.1130195, 35.9799593], [-96.1132488, 35.979956], [-96.1132475, 35.9800787]]]}, "properties": {"osm_id": 306472405, "building": "yes", "name": "", "height": null, "height_m": null, "levels": null, "tract_id": "40037021600", "tract_name": "216", "tags": {"amenity": "fuel", "building": "yes"}}}, {"type": "Feature", "geometry": {"type": "Polygon", "coordinates": [[[-96.1034392, 35.988067], [-96.1034386, 35.9878283], [-96.1035834, 35.987828], [-96.1035841, 35.9880667], [-96.1034392, 35.988067]]]}, "properties": {"osm_id": 494476834, "building": "yes", "name": "", "height": null, "height_m": null, "levels": null, "tract_id": "40037021600", "tract_name": "216", "tags": {"building": "yes"}}}, {"type": "Feature", "geometry": {"type": "Polygon", "coordinates": [[[-96.0827229, 35.9864053], [-96.0827231, 35.9862527], [-96.0827547, 35.9862528], [-96.0828182, 35.9862528], [-96.0828182, 35.9861806], [-96.0827593, 35.9861806], [-96.0827216, 35.9861806], [-96.0827217, 35.9861507], [-96.0823008, 35.9861505], [-96.0823007, 35.9862709], [-96.0825004, 35.986271], [-96.0825003, 35.9864052], [-96.0827229, 35.9864053]]]}, "properties": {"osm_id": 569137499, "building": "yes", "name": "Sapulpa Bible Church", "height": null, "height_m": null, "levels": null, "tract_id": "40037021600", "tract_name": "216", "tags": {"amenity": "place_of_worship", "building": "yes", "denomination": "southern_baptist", "name": "Sapulpa Bible Church", "religion": "christian", "service_times": "Su 10:00-12:00"}}}, {"type": "Feature", "geometry": {"type": "Polygon", "coordinates": [[[-96.0982213, 35.9881504], [-96.0978316, 35.9881435], [-96.0978316, 35.9879744], [-96.0982213, 35.987979], [-96.0982213, 35.9881504]]]}, "properties": {"osm_id": 614621739, "building": "yes", "name": "Steak and Eggs", "height": null, "height_m": null, "levels": null, "tract_id": "40037021600", "tract_name": "216", "tags": {"amenity": "restaurant", "building": "yes", "cuisine": "american;breakfast", "name": "Steak and Eggs"}}}, {"type": "Feature", "geometry": {"type": "Polygon", "coordinates": [[[-96.0803336, 35.9690126], [-96.0801984, 35.9689422], [-96.0802193, 35.9689159], [-96.080157, 35.9688835], [-96.0801434, 35.9689006], [-96.0801065, 35.9688814], [-96.0800897, 35.9689026], [-96.0800773, 35.9688962], [-96.0800239, 35.9689635], [-96.0800353, 35.9689694], [-96.0800241, 35.9689835], [-96.0800604, 35.9690024], [-96.0800448, 35.9690221], [-96.0801429, 35.9690731], [-96.0801569, 35.9690554], [-96.0801736, 35.9690641], [-96.0801624, 35.9690783], [-96.0802206, 35.9691086], [-96.0802134, 35.9691177], [-96.0802394, 35.9691312], [-96.0803336, 35.9690126]]]}, "properties": {"osm_id": 719446883, "building": "yes", "name": "", "height": null, "height_m": null, "levels": null, "tract_id": "40037021600", "tract_name": "216", "tags": {"building": "yes"}}}, {"type": "Feature", "geometry": {"type": "Polygon", "coordinates": [[[-96.0696723, 35.975658], [-96.0694641, 35.9756492], [-96.0694658, 35.9756223], [-96.0694128, 35.97562], [-96.0694198, 35.9755109], [-96.0695039, 35.9755144], [-96.069503, 35.9755281], [-96.0695328, 35.9755294], [-96.0695302, 35.9755689], [-96.0696777, 35.9755752], [-96.0696723, 35.975658]]]}, "properties": {"osm_id": 740433193, "building": "yes", "name": "", "height": null, "height_m": null, "levels": null, "tract_id": "40037021600", "tract_name": "216", "tags": {"building": "yes"}}}, {"type": "Feature", "geometry": {"type": "Polygon", "coordinates": [[[-96.0694075, 35.9755577], [-96.0693468, 35.9755567], [-96.0693458, 35.9755919], [-96.0694066, 35.975593], [-96.0694075, 35.9755577]]]}, "properties": {"osm_id": 740433194, "building": "yes", "name": "", "height": null, "height_m": null, "levels": null, "tract_id": "40037021600", "tract_name": "216", "tags": {"building": "yes"}}}, {"type": "Feature", "geometry": {"type": "Polygon", "coordinates": [[[-96.0693548, 35.9756364], [-96.0694051, 35.9756356], [-96.0694042, 35.9756023], [-96.0693539, 35.9756031], [-96.0693548, 35.9756364]]]}, "properties": {"osm_id": 740433195, "building": "yes", "name": "", "height": null, "height_m": null, "levels": null, "tract_id": "40037021600", "tract_name": "216", "tags": {"building": "yes"}}}, {"type": "Feature", "geometry": {"type": "Polygon", "coordinates": [[[-96.0691724, 35.9757561], [-96.0694174, 35.9757556], [-96.0694098, 35.9756631], [-96.0693347, 35.9756626], [-96.0693314, 35.9755961], [-96.0691762, 35.9755961], [-96.0691724, 35.9757561]]]}, "properties": {"osm_id": 740433196, "building": "yes", "name": "", "height": null, "height_m": null, "levels": null, "tract_id": "40037021600", "tract_name": "216", "tags": {"building": "yes"}}}, {"type": "Feature", "geometry": {"type": "Polygon", "coordinates": [[[-96.0692568, 35.9738726], [-96.06922, 35.9738692], [-96.0692251, 35.9738327], [-96.0692619, 35.973836], [-96.0692568, 35.9738726]]]}, "properties": {"osm_id": 740433197, "building": "yes", "name": "", "height": null, "height_m": null, "levels": null, "tract_id": "40037021600", "tract_name": "216", "tags": {"building": "yes"}}}, {"type": "Feature", "geometry": {"type": "Polygon", "coordinates": [[[-96.0993249, 35.973736], [-96.0991526, 35.97373], [-96.0991596, 35.9736006], [-96.0993318, 35.9736067], [-96.0993249, 35.973736]]]}, "properties": {"osm_id": 749649299, "building": "yes", "name": "", "height": null, "height_m": null, "levels": null, "tract_id": "40037021600", "tract_name": "216", "tags": {"building": "yes"}}}, {"type": "Feature", "geometry": {"type": "Polygon", "coordinates": [[[-96.0992441, 35.9735911], [-96.0991628, 35.9735883], [-96.0991702, 35.973451], [-96.0992514, 35.9734538], [-96.0992504, 35.9734734], [-96.0992985, 35.9734751], [-96.0992969, 35.9735049], [-96.0992488, 35.9735032], [-96.0992441, 35.9735911]]]}, "properties": {"osm_id": 749649300, "building": "yes", "name": "", "height": null, "height_m": null, "levels": null, "tract_id": "40037021600", "tract_name": "216", "tags": {"building": "yes"}}}, {"type": "Feature", "geometry": {"type": "Polygon", "coordinates": [[[-96.0988451, 35.9751695], [-96.0988779, 35.9751451], [-96.098895, 35.9751601], [-96.0988621, 35.9751845], [-96.0988451, 35.9751695]]]}, "properties": {"osm_id": 749649301, "building": "yes", "name": "", "height": null, "height_m": null, "levels": null, "tract_id": "40037021600", "tract_name": "216", "tags": {"building": "yes"}}}, {"type": "Feature", "geometry": {"type": "Polygon", "coordinates": [[[-96.113364, 35.9875128], [-96.113358, 35.9874093], [-96.1131499, 35.9874173], [-96.1131559, 35.9875207], [-96.113364, 35.9875128]]]}, "properties": {"osm_id": 1031366108, "building": "yes", "name": "Cacy's BBQ", "height": null, "height_m": null, "levels": null, "tract_id": "40037021600", "tract_name": "216", "tags": {"addr:city": "Sapulpa", "addr:housenumber": "919", "addr:postcode": "74066", "addr:state": "OK", "addr:street": "South Main Street", "amenity": "restaurant", "building": "yes", "check_date": "2025-11-05", "cuisine": "barbecue", "name": "Cacy's BBQ", "phone": "(918) 216-1188"}}}, {"type": "Feature", "geometry": {"type": "Polygon", "coordinates": [[[-96.1131559, 35.9875207], [-96.1130415, 35.9875249], [-96.1130339, 35.9874214], [-96.1131499, 35.9874173], [-96.1131559, 35.9875207]]]}, "properties": {"osm_id": 1031366109, "building": "yes", "name": "", "height": null, "height_m": null, "levels": null, "tract_id": "40037021600", "tract_name": "216", "tags": {"building": "yes"}}}, {"type": "Feature", "geometry": {"type": "Polygon", "coordinates": [[[-96.082637, 35.9860524], [-96.0826352, 35.9859234], [-96.0826444, 35.9859233], [-96.0826436, 35.9858715], [-96.0826618, 35.9858713], [-96.0826608, 35.985804], [-96.082787, 35.9858028], [-96.082788, 35.9858724], [-96.082801, 35.9858723], [-96.0828017, 35.9859224], [-96.082897, 35.9859216], [-96.0828988, 35.98605], [-96.082637, 35.9860524]]]}, "properties": {"osm_id": 1150289868, "building": "yes", "name": "", "height": null, "height_m": null, "levels": null, "tract_id": "40037021600", "tract_name": "216", "tags": {"amenity": "place_of_worship", "building": "yes", "denomination": "jehovahs_witness", "religion": "christian"}}}, {"type": "Feature", "geometry": {"type": "Polygon", "coordinates": [[[-96.1126882, 35.9762094], [-96.1126693, 35.9761915], [-96.1126906, 35.9761759], [-96.1125735, 35.9760801], [-96.112551, 35.976097], [-96.1125314, 35.9760804], [-96.1124065, 35.9761806], [-96.1124267, 35.9761962], [-96.1123984, 35.9762198], [-96.1125042, 35.9763028], [-96.1125357, 35.9762805], [-96.112564, 35.9763034], [-96.1126882, 35.9762094]]]}, "properties": {"osm_id": 1172269656, "building": "fire_station", "name": "Sapulpa Fire Department Station 3", "height": null, "height_m": null, "levels": null, "tract_id": "40037021600", "tract_name": "216", "tags": {"addr:city": "Sapulpa", "addr:housenumber": "10", "addr:postcode": "74066", "addr:state": "OK", "addr:street": "East Murphy Avenue", "amenity": "fire_station", "building": "fire_station", "name": "Sapulpa Fire Department Station 3"}}}, {"type": "Feature", "geometry": {"type": "Polygon", "coordinates": [[[-96.1123929, 35.9757787], [-96.1123924, 35.9754197], [-96.1126335, 35.9754195], [-96.112634, 35.9757785], [-96.1123929, 35.9757787]]]}, "properties": {"osm_id": 1293511393, "building": "retail", "name": "Dollar General", "height": null, "height_m": null, "levels": null, "tract_id": "40037021600", "tract_name": "216", "tags": {"brand": "Dollar General", "brand:wikidata": "Q145168", "building": "retail", "name": "Dollar General", "shop": "variety_store"}}}]}