{"type": "FeatureCollection", "features": [{"type": "Feature", "geometry": {"type": "Polygon", "coordinates": [[[-97.406554, 35.4369856], [-97.4065556, 35.4368777], [-97.406325, 35.4368755], [-97.4063234, 35.4369833], [-97.406554, 35.4369856]]]}, "properties": {"osm_id": 250003592, "building": "yes", "name": "", "height": null, "height_m": null, "levels": null, "tract_id": "40109107601", "tract_name": "1076.01", "tags": {"building": "yes", "source": "Bing"}}}, {"type": "Feature", "geometry": {"type": "Polygon", "coordinates": [[[-97.406853, 35.4357956], [-97.4066356, 35.4357919], [-97.4065875, 35.435835], [-97.4065766, 35.4358247], [-97.4065552, 35.4358465], [-97.4065044, 35.4358022], [-97.4064586, 35.4358334], [-97.4064319, 35.4358087], [-97.406472, 35.4357766], [-97.4064211, 35.4357395], [-97.4064427, 35.4357213], [-97.4064291, 35.4357067], [-97.406448, 35.4356973], [-97.4064425, 35.4354991], [-97.4067913, 35.435494], [-97.406794, 35.43547], [-97.4068799, 35.4354635], [-97.4068799, 35.4355399], [-97.4068504, 35.4355356], [-97.406853, 35.4357956]]]}, "properties": {"osm_id": 250005348, "building": "yes", "name": "FNB Community Bank", "height": null, "height_m": null, "levels": null, "tract_id": "40109107601", "tract_name": "1076.01", "tags": {"addr:city": "Midwest City", "addr:housenumber": "2911", "addr:postcode": "73110", "addr:state": "OK", "addr:street": "South Air Depot Boulevard", "amenity": "bank", "atm": "yes", "building": "yes", "drive_through": "no", "name": "FNB Community Bank", "source": "Bing"}}}, {"type": "Feature", "geometry": {"type": "Polygon", "coordinates": [[[-97.4201766, 35.444366], [-97.420178, 35.4442152], [-97.4199641, 35.4442139], [-97.4199523, 35.4441961], [-97.4197107, 35.4441943], [-97.4197103, 35.4442215], [-97.4194949, 35.4442198], [-97.4194943, 35.4442691], [-97.4194939, 35.4443055], [-97.4194932, 35.4443672], [-97.4197145, 35.4443689], [-97.4197143, 35.4443852], [-97.4198315, 35.444386], [-97.4198316, 35.4443685], [-97.4199201, 35.4443691], [-97.4199199, 35.4443837], [-97.4199633, 35.444384], [-97.4199635, 35.4443646], [-97.4201766, 35.444366]]]}, "properties": {"osm_id": 318135155, "building": "yes", "name": "Hawthorn Suites", "height": null, "height_m": null, "levels": null, "tract_id": "40109107601", "tract_name": "1076.01", "tags": {"addr:city": "Midwest City", "addr:housenumber": "5701", "addr:postcode": "73110", "addr:state": "OK", "addr:street": "Tinker Diagonal", "brand": "Hawthorn Suites", "brand:short": "Hawthorn", "brand:wikidata": "Q5685511", "building": "yes", "fax": "405-737-7773", "name": "Hawthorn Suites", "official_name": "Hawthorn Suites by Wyndham", "phone": "405-737-7777", "short_name": "Hawthorn", "tourism": "hotel", "website": "https://www.hawthornsuitesmidwestok.com/"}}}, {"type": "Feature", "geometry": {"type": "Polygon", "coordinates": [[[-97.4225046, 35.4473682], [-97.4225021, 35.447191], [-97.4229894, 35.4471864], [-97.422989, 35.4471635], [-97.4231331, 35.4471622], [-97.4231335, 35.4471846], [-97.4231806, 35.4471841], [-97.4231831, 35.4473618], [-97.4225046, 35.4473682]]]}, "properties": {"osm_id": 382666945, "building": "yes", "name": "Holiday Inn Express & Suites", "height": null, "height_m": null, "levels": null, "tract_id": "40109107601", "tract_name": "1076.01", "tags": {"addr:city": "Midwest City", "addr:housenumber": "1700", "addr:postcode": "73110", "addr:state": "OK", "addr:street": "South Sooner Road", "branch": "Midwest City", "brand": "Holiday Inn Express & Suites", "brand:wikidata": "Q5880423", "building": "yes", "internet_access": "wlan", "internet_access:ssid": "HI Express Midwest City", "name": "Holiday Inn Express & Suites", "phone": "+1 405-736-1000", "ref": "OKCMW", "smoking": "no", "tourism": "hotel", "website": "https://www.hiexpress.com/hotels/gb/en/midwest-city/okcmw/hoteldetail"}}}, {"type": "Feature", "geometry": {"type": "Polygon", "coordinates": [[[-97.4228963, 35.4474806], [-97.4228966, 35.4473721], [-97.4231122, 35.4473724], [-97.4231119, 35.447481], [-97.4228963, 35.4474806]]]}, "properties": {"osm_id": 382666946, "building": "roof", "name": "", "height": null, "height_m": null, "levels": null, "tract_id": "40109107601", "tract_name": "1076.01", "tags": {"building": "roof"}}}, {"type": "Feature", "geometry": {"type": "Polygon", "coordinates": [[[-97.4233281, 35.4473134], [-97.423273, 35.4473133], [-97.4232189, 35.4473132], [-97.4232192, 35.4472271], [-97.423276, 35.4472287], [-97.4233284, 35.4472273], [-97.4233281, 35.4473134]]]}, "properties": {"osm_id": 382666947, "building": "roof", "name": "", "height": null, "height_m": null, "levels": null, "tract_id": "40109107601", "tract_name": "1076.01", "tags": {"building": "roof"}}}, {"type": "Feature", "geometry": {"type": "Polygon", "coordinates": [[[-97.4217435, 35.4474646], [-97.4214151, 35.4474624], [-97.4213475, 35.447462], [-97.4213481, 35.4474047], [-97.4213082, 35.4474044], [-97.4213105, 35.4471731], [-97.4213373, 35.4471665], [-97.4213389, 35.4470062], [-97.4216372, 35.4470082], [-97.4217481, 35.4470089], [-97.4217435, 35.4474646]]]}, "properties": {"osm_id": 382673386, "building": "parking", "name": "", "height": null, "height_m": null, "levels": null, "tract_id": "40109107601", "tract_name": "1076.01", "tags": {"amenity": "parking", "building": "parking", "parking": "multi-storey"}}}, {"type": "Feature", "geometry": {"type": "Polygon", "coordinates": [[[-97.4206444, 35.4474607], [-97.4206204, 35.4473672], [-97.4206481, 35.4473625], [-97.4206288, 35.4472872], [-97.4208849, 35.4472435], [-97.4208628, 35.4471577], [-97.4208385, 35.4471619], [-97.4208161, 35.447075], [-97.4208435, 35.4470703], [-97.420803, 35.4469133], [-97.4207883, 35.4469159], [-97.4207866, 35.446906], [-97.4207482, 35.4467607], [-97.4207799, 35.4467551], [-97.4208804, 35.4467378], [-97.4210247, 35.4468463], [-97.4210483, 35.4469388], [-97.4210622, 35.4469364], [-97.4210842, 35.4470226], [-97.42114, 35.4470131], [-97.4211656, 35.4471134], [-97.4210897, 35.4471262], [-97.4210996, 35.447165], [-97.4210783, 35.4471686], [-97.4211217, 35.447339], [-97.4209582, 35.4473667], [-97.4209662, 35.447398], [-97.4208867, 35.4474114], [-97.4208927, 35.447435], [-97.4207756, 35.4474548], [-97.4207715, 35.4474391], [-97.4206444, 35.4474607]]]}, "properties": {"osm_id": 382673740, "building": "yes", "name": "Sheraton", "height": null, "height_m": null, "levels": null, "tract_id": "40109107601", "tract_name": "1076.01", "tags": {"brand": "Sheraton", "brand:wikidata": "Q634831", "building": "yes", "name": "Sheraton", "tourism": "hotel", "website": "http://sheratonmidwestcity.com"}}}, {"type": "Feature", "geometry": {"type": "Polygon", "coordinates": [[[-97.4202098, 35.4469494], [-97.4200893, 35.4464896], [-97.4203247, 35.4464487], [-97.4203516, 35.4465513], [-97.4204318, 35.4465373], [-97.4204051, 35.4464356], [-97.4206176, 35.4463986], [-97.4206275, 35.4464362], [-97.4206597, 35.4464306], [-97.4206697, 35.4464689], [-97.4207018, 35.4464634], [-97.4207469, 35.4465148], [-97.4207777, 35.4465901], [-97.4207854, 35.4466754], [-97.4207799, 35.4467551], [-97.4207482, 35.4467607], [-97.4207866, 35.446906], [-97.4204323, 35.446968], [-97.4204345, 35.4469764], [-97.4203393, 35.446993], [-97.4203227, 35.4469298], [-97.4202098, 35.4469494]]]}, "properties": {"osm_id": 382673743, "building": "yes", "name": "Reed Conference Center", "height": null, "height_m": null, "levels": null, "tract_id": "40109107601", "tract_name": "1076.01", "tags": {"amenity": "conference_centre", "building": "yes", "name": "Reed Conference Center"}}}, {"type": "Feature", "geometry": {"type": "Polygon", "coordinates": [[[-97.4207931, 35.4466076], [-97.420865, 35.4465971], [-97.4209302, 35.4465876], [-97.4208963, 35.4464759], [-97.4208307, 35.4464869], [-97.4207469, 35.446501], [-97.42077, 35.4465449], [-97.420787, 35.4465825], [-97.4207931, 35.4466076]]]}, "properties": {"osm_id": 382673746, "building": "roof", "name": "", "height": null, "height_m": null, "levels": null, "tract_id": "40109107601", "tract_name": "1076.01", "tags": {"building": "roof"}}}, {"type": "Feature", "geometry": {"type": "Polygon", "coordinates": [[[-97.4226452, 35.4461793], [-97.4226446, 35.446221], [-97.4221102, 35.446216], [-97.4221107, 35.4461756], [-97.4220874, 35.4461623], [-97.4220874, 35.4460634], [-97.4221364, 35.4460235], [-97.4226394, 35.4460286], [-97.4226389, 35.4460633], [-97.422678, 35.4460637], [-97.4226763, 35.4461796], [-97.4226452, 35.4461793]]]}, "properties": {"osm_id": 382676662, "building": "yes", "name": "La Quinta Inn & Suites", "height": null, "height_m": null, "levels": null, "tract_id": "40109107601", "tract_name": "1076.01", "tags": {"addr:city": "Midwest City", "addr:housenumber": "5653", "addr:postcode": "73110", "addr:state": "OK", "addr:street": "Tinker Diagonal", "branch": "Midwest City", "brand": "La Quinta Inn & Suites", "brand:wikidata": "Q6464734", "building": "yes", "name": "La Quinta Inn & Suites", "official_name": "La Quinta Inn & Suites by Wyndham", "phone": "+1 405-733-1339", "ref": "53322", "tourism": "hotel", "website": "https://www.wyndhamhotels.com/laquinta/midwest-city-oklahoma/la-quinta-midwest-city-tinker-afb/overview"}}}, {"type": "Feature", "geometry": {"type": "Polygon", "coordinates": [[[-97.4225183, 35.4463193], [-97.4222572, 35.4463141], [-97.4222599, 35.446223], [-97.4225211, 35.4462282], [-97.4225183, 35.4463193]]]}, "properties": {"osm_id": 382676663, "building": "roof", "name": "", "height": null, "height_m": null, "levels": null, "tract_id": "40109107601", "tract_name": "1076.01", "tags": {"building": "roof"}}}, {"type": "Feature", "geometry": {"type": "Polygon", "coordinates": [[[-97.4223212, 35.4460209], [-97.4223207, 35.4459755], [-97.4223203, 35.4459376], [-97.4224242, 35.4459369], [-97.4224246, 35.445977], [-97.4224251, 35.4460201], [-97.4223212, 35.4460209]]]}, "properties": {"osm_id": 382676664, "building": "roof", "name": "", "height": null, "height_m": null, "levels": null, "tract_id": "40109107601", "tract_name": "1076.01", "tags": {"building": "roof"}}}, {"type": "Feature", "geometry": {"type": "Polygon", "coordinates": [[[-97.4211206, 35.4452256], [-97.421126, 35.4452329], [-97.4203897, 35.4455931], [-97.4203349, 35.4455187], [-97.420349, 35.4455118], [-97.4203074, 35.4454554], [-97.4203403, 35.4454393], [-97.4203278, 35.4454225], [-97.4207926, 35.4451946], [-97.4207753, 35.4451712], [-97.4209198, 35.4451003], [-97.4209393, 35.4451267], [-97.4210884, 35.4450536], [-97.421099, 35.445068], [-97.4211259, 35.4450548], [-97.421217, 35.4451783], [-97.4211206, 35.4452256]]]}, "properties": {"osm_id": 382679682, "building": "yes", "name": "Hampton Inn", "height": null, "height_m": null, "levels": null, "tract_id": "40109107601", "tract_name": "1076.01", "tags": {"addr:city": "Midwest City", "addr:housenumber": "1833", "addr:postcode": "73110", "addr:state": "OK", "addr:street": "Warren Drive", "alt_name": "Hampton Inn", "branch": "Oklahoma City-I-40 East (Tinker Air Force Base)", "brand": "Hampton", "brand:wikidata": "Q5646230", "building": "yes", "name": "Hampton Inn", "official_name": "Hampton by Hilton", "phone": "+1 405-732-5500", "ref": "OKCMWHX", "tourism": "hotel", "website": "https://hamptoninn3.hilton.com/en/hotels/oklahoma/hampton-inn-oklahoma-city-i-40-e-tinker-air-force-base-OKCMWHX/index.html"}}}, {"type": "Feature", "geometry": {"type": "Polygon", "coordinates": [[[-97.4209242, 35.4450945], [-97.4208926, 35.4450516], [-97.4208629, 35.4450114], [-97.4209671, 35.4449604], [-97.420996, 35.4449996], [-97.4210237, 35.4450371], [-97.4210284, 35.4450435], [-97.4209242, 35.4450945]]]}, "properties": {"osm_id": 382679743, "building": "roof", "name": "", "height": null, "height_m": null, "levels": null, "tract_id": "40109107601", "tract_name": "1076.01", "tags": {"building": "roof"}}}, {"type": "Feature", "geometry": {"type": "Polygon", "coordinates": [[[-97.4211259, 35.4450548], [-97.4210922, 35.4450074], [-97.4210237, 35.4450371], [-97.4210284, 35.4450435], [-97.4209242, 35.4450945], [-97.4209198, 35.4451003], [-97.4209393, 35.4451267], [-97.4210884, 35.4450536], [-97.421099, 35.445068], [-97.4211259, 35.4450548]]]}, "properties": {"osm_id": 382679807, "building": "yes", "name": "", "height": null, "height_m": null, "levels": null, "tract_id": "40109107601", "tract_name": "1076.01", "tags": {"building": "yes"}}}, {"type": "Feature", "geometry": {"type": "Polygon", "coordinates": [[[-97.4220053, 35.4455337], [-97.4219316, 35.4455397], [-97.4219341, 35.4455605], [-97.4218527, 35.4455671], [-97.4218501, 35.4455456], [-97.4218347, 35.4455468], [-97.4218096, 35.4453417], [-97.4217706, 35.4453153], [-97.4218316, 35.4452555], [-97.4218652, 35.4452783], [-97.4219078, 35.4452366], [-97.4219789, 35.4452847], [-97.4219869, 35.4452769], [-97.4220535, 35.445322], [-97.422046, 35.4453293], [-97.4220711, 35.4453463], [-97.4220648, 35.4453525], [-97.4220761, 35.4453601], [-97.4220618, 35.4453741], [-97.4220512, 35.4453669], [-97.4220432, 35.4453747], [-97.4220215, 35.44536], [-97.422014, 35.4453673], [-97.4220093, 35.4453642], [-97.4219828, 35.44539], [-97.4219901, 35.4454497], [-97.422004, 35.4454486], [-97.4220105, 35.445501], [-97.4220014, 35.4455018], [-97.4220053, 35.4455337]]]}, "properties": {"osm_id": 382682397, "building": "yes", "name": "", "height": null, "height_m": null, "levels": null, "tract_id": "40109107601", "tract_name": "1076.01", "tags": {"building": "yes"}}}, {"type": "Feature", "geometry": {"type": "Polygon", "coordinates": [[[-97.423093, 35.446083], [-97.4230266, 35.4460224], [-97.4230332, 35.4459255], [-97.4230826, 35.4458844], [-97.4231155, 35.4459107], [-97.4231262, 35.4459018], [-97.4231704, 35.4459371], [-97.4231771, 35.4459349], [-97.4232129, 35.4459665], [-97.4232079, 35.4459703], [-97.4232533, 35.4460104], [-97.4232446, 35.4460169], [-97.4232767, 35.4460453], [-97.4232194, 35.4460884], [-97.423093, 35.446083]]]}, "properties": {"osm_id": 382683781, "building": "yes", "name": "", "height": null, "height_m": null, "levels": null, "tract_id": "40109107601", "tract_name": "1076.01", "tags": {"building": "yes"}}}, {"type": "Feature", "geometry": {"type": "Polygon", "coordinates": [[[-97.4233641, 35.4458921], [-97.4231033, 35.4457225], [-97.4231516, 35.4456732], [-97.4234123, 35.4458429], [-97.4233641, 35.4458921]]]}, "properties": {"osm_id": 382683782, "building": "roof", "name": "", "height": null, "height_m": null, "levels": null, "tract_id": "40109107601", "tract_name": "1076.01", "tags": {"building": "roof"}}}, {"type": "Feature", "geometry": {"type": "Polygon", "coordinates": [[[-97.4231674, 35.4461908], [-97.4231694, 35.4461279], [-97.4233021, 35.4461308], [-97.4233, 35.4461937], [-97.4231674, 35.4461908]]]}, "properties": {"osm_id": 382685060, "building": "yes", "name": "", "height": null, "height_m": null, "levels": null, "tract_id": "40109107601", "tract_name": "1076.01", "tags": {"building": "yes"}}}, {"type": "Feature", "geometry": {"type": "Polygon", "coordinates": [[[-97.4229825, 35.4466451], [-97.4229822, 35.4465196], [-97.4232383, 35.4465192], [-97.4232386, 35.4466446], [-97.4229825, 35.4466451]]]}, "properties": {"osm_id": 382685494, "building": "church", "name": "", "height": null, "height_m": null, "levels": null, "tract_id": "40109107601", "tract_name": "1076.01", "tags": {"building": "church"}}}, {"type": "Feature", "geometry": {"type": "Polygon", "coordinates": [[[-97.4232415, 35.4468702], [-97.4229999, 35.4468696], [-97.4230004, 35.4467478], [-97.423242, 35.4467485], [-97.4232415, 35.4468702]]]}, "properties": {"osm_id": 382686017, "building": "yes", "name": "", "height": null, "height_m": null, "levels": null, "tract_id": "40109107601", "tract_name": "1076.01", "tags": {"building": "yes"}}}, {"type": "Feature", "geometry": {"type": "Polygon", "coordinates": [[[-97.4222592, 35.4493485], [-97.4207283, 35.4493515], [-97.4207272, 35.4489946], [-97.4206336, 35.4489948], [-97.4206328, 35.4486704], [-97.4208568, 35.44867], [-97.4208565, 35.4485368], [-97.4210935, 35.4485364], [-97.4210938, 35.4486657], [-97.4212946, 35.4486654], [-97.4212945, 35.4486197], [-97.4220475, 35.4486191], [-97.4220476, 35.4486609], [-97.4222558, 35.4486586], [-97.4222564, 35.4491702], [-97.4222578, 35.4492554], [-97.4222583, 35.4492927], [-97.4222588, 35.4493258], [-97.4222592, 35.4493485]]]}, "properties": {"osm_id": 382686542, "building": "yes", "name": "The Home Depot", "height": null, "height_m": null, "levels": null, "tract_id": "40109107601", "tract_name": "1076.01", "tags": {"addr:city": "Midwest City", "addr:housenumber": "1600", "addr:postcode": "73110", "addr:state": "OK", "addr:street": "South Sooner Road", "alt_name": "Home Depot", "branch": "Midwest City", "brand": "The Home Depot", "brand:wikidata": "Q864407", "building": "yes", "name": "The Home Depot", "opening_hours": "Mo-Sa 06:00-22:00; Su 08:00-20:00", "phone": "+1 405-737-3410", "ref": "3911", "shop": "doityourself", "website": "https://www.homedepot.com/l/midwest-city/ok/midwest-city/73110/3911"}}}, {"type": "Feature", "geometry": {"type": "Polygon", "coordinates": [[[-97.4222564, 35.4491702], [-97.422378, 35.4491701], [-97.4223757, 35.4488612], [-97.4225148, 35.4488605], [-97.4225138, 35.4487189], [-97.4225695, 35.4487186], [-97.422569, 35.4486583], [-97.4222558, 35.4486586], [-97.4222564, 35.4491702]]]}, "properties": {"osm_id": 382686543, "building": "roof", "name": "", "height": null, "height_m": null, "levels": null, "tract_id": "40109107601", "tract_name": "1076.01", "tags": {"building": "roof", "layer": "1"}}}, {"type": "Feature", "geometry": {"type": "Polygon", "coordinates": [[[-97.4232137, 35.4484611], [-97.42302, 35.44846], [-97.4230235, 35.4480467], [-97.4232779, 35.4480482], [-97.4232764, 35.4482239], [-97.4232157, 35.4482236], [-97.4232137, 35.4484611]]]}, "properties": {"osm_id": 382686544, "building": "yes", "name": "", "height": null, "height_m": null, "levels": null, "tract_id": "40109107601", "tract_name": "1076.01", "tags": {"building": "yes"}}}, {"type": "Feature", "geometry": {"type": "Polygon", "coordinates": [[[-97.4233622, 35.4493549], [-97.4229659, 35.4493518], [-97.4229675, 35.4492149], [-97.4233638, 35.449218], [-97.4233622, 35.4493549]]]}, "properties": {"osm_id": 382686545, "building": "yes", "name": "", "height": null, "height_m": null, "levels": null, "tract_id": "40109107601", "tract_name": "1076.01", "tags": {"building": "yes"}}}, {"type": "Feature", "geometry": {"type": "Polygon", "coordinates": [[[-97.4196418, 35.4485247], [-97.4195781, 35.4484829], [-97.419571, 35.4484498], [-97.419525, 35.4483979], [-97.4195745, 35.4483431], [-97.4195692, 35.4483258], [-97.4195993, 35.4482984], [-97.4195621, 35.4482609], [-97.4196205, 35.4482177], [-97.4199072, 35.4482134], [-97.4199069, 35.4482684], [-97.4199067, 35.4482985], [-97.4199058, 35.4484475], [-97.4199054, 35.4485103], [-97.4196506, 35.4485103], [-97.4196418, 35.4485247]]]}, "properties": {"osm_id": 382690591, "building": "church", "name": "", "height": null, "height_m": null, "levels": null, "tract_id": "40109107601", "tract_name": "1076.01", "tags": {"building": "church"}}}, {"type": "Feature", "geometry": {"type": "Polygon", "coordinates": [[[-97.420268, 35.448834], [-97.4199621, 35.4488369], [-97.4199587, 35.4485991], [-97.4200064, 35.4485988], [-97.4201833, 35.448597], [-97.4202646, 35.4485962], [-97.420268, 35.448834]]]}, "properties": {"osm_id": 382691084, "building": "yes", "name": "", "height": null, "height_m": null, "levels": null, "tract_id": "40109107601", "tract_name": "1076.01", "tags": {"building": "yes"}}}, {"type": "Feature", "geometry": {"type": "Polygon", "coordinates": [[[-97.4203132, 35.4485227], [-97.4203016, 35.4485227], [-97.4201787, 35.4485225], [-97.4200003, 35.4485223], [-97.4200005, 35.4484425], [-97.4200007, 35.4482986], [-97.4200008, 35.4482672], [-97.420001, 35.4481371], [-97.4203139, 35.4481375], [-97.4203132, 35.4485227]]]}, "properties": {"osm_id": 382691085, "building": "yes", "name": "", "height": null, "height_m": null, "levels": null, "tract_id": "40109107601", "tract_name": "1076.01", "tags": {"building": "yes"}}}, {"type": "Feature", "geometry": {"type": "Polygon", "coordinates": [[[-97.4201833, 35.448597], [-97.4201787, 35.4485225], [-97.4203016, 35.4485227], [-97.4203047, 35.4485969], [-97.4202646, 35.4485962], [-97.4201833, 35.448597]]]}, "properties": {"osm_id": 382691087, "building": "yes", "name": "", "height": null, "height_m": null, "levels": null, "tract_id": "40109107601", "tract_name": "1076.01", "tags": {"building": "yes"}}}, {"type": "Feature", "geometry": {"type": "Polygon", "coordinates": [[[-97.4198934, 35.4486019], [-97.4198071, 35.4486672], [-97.4198487, 35.4486973], [-97.4199304, 35.448632], [-97.419926, 35.4486285], [-97.4198934, 35.4486019]]]}, "properties": {"osm_id": 382691088, "building": "yes", "name": "", "height": null, "height_m": null, "levels": null, "tract_id": "40109107601", "tract_name": "1076.01", "tags": {"building": "yes"}}}, {"type": "Feature", "geometry": {"type": "Polygon", "coordinates": [[[-97.4198934, 35.4486019], [-97.4199103, 35.4485831], [-97.4199054, 35.4485103], [-97.4199058, 35.4484475], [-97.4200005, 35.4484425], [-97.4200003, 35.4485223], [-97.4200064, 35.4485988], [-97.4199587, 35.4485991], [-97.419926, 35.4486285], [-97.4198934, 35.4486019]]]}, "properties": {"osm_id": 382691090, "building": "yes", "name": "", "height": null, "height_m": null, "levels": null, "tract_id": "40109107601", "tract_name": "1076.01", "tags": {"building": "yes"}}}, {"type": "Feature", "geometry": {"type": "Polygon", "coordinates": [[[-97.4199067, 35.4482985], [-97.4200007, 35.4482986], [-97.4200008, 35.4482672], [-97.4199069, 35.4482684], [-97.4199067, 35.4482985]]]}, "properties": {"osm_id": 382691092, "building": "yes", "name": "", "height": null, "height_m": null, "levels": null, "tract_id": "40109107601", "tract_name": "1076.01", "tags": {"building": "yes"}}}, {"type": "Feature", "geometry": {"type": "Polygon", "coordinates": [[[-97.4218002, 35.4397371], [-97.4231475, 35.4397333], [-97.4231381, 35.4393728], [-97.4218014, 35.4393795], [-97.4218002, 35.4397371]]]}, "properties": {"osm_id": 480976508, "building": "yes", "name": "", "height": null, "height_m": null, "levels": null, "tract_id": "40109107601", "tract_name": "1076.01", "tags": {"building": "yes"}}}, {"type": "Feature", "geometry": {"type": "Polygon", "coordinates": [[[-97.4217005, 35.438731], [-97.4231502, 35.4387244], [-97.4231449, 35.4383562], [-97.4217005, 35.4383573], [-97.4217005, 35.438731]]]}, "properties": {"osm_id": 480976509, "building": "yes", "name": "", "height": null, "height_m": null, "levels": null, "tract_id": "40109107601", "tract_name": "1076.01", "tags": {"building": "yes"}}}, {"type": "Feature", "geometry": {"type": "Polygon", "coordinates": [[[-97.4220765, 35.4379604], [-97.4231395, 35.4379567], [-97.4231318, 35.4372613], [-97.4229053, 35.4372626], [-97.4229053, 35.4373379], [-97.4227312, 35.4373379], [-97.4227297, 35.4375952], [-97.4224678, 35.4375964], [-97.4224678, 35.4373429], [-97.422303, 35.4373429], [-97.4222999, 35.4372638], [-97.4220719, 35.4372663], [-97.4220765, 35.4379604]]]}, "properties": {"osm_id": 480976510, "building": "yes", "name": "", "height": null, "height_m": null, "levels": null, "tract_id": "40109107601", "tract_name": "1076.01", "tags": {"building": "yes"}}}, {"type": "Feature", "geometry": {"type": "Polygon", "coordinates": [[[-97.4223824, 35.4371201], [-97.4223821, 35.4370868], [-97.4222017, 35.4370858], [-97.4222014, 35.4371189], [-97.4223824, 35.4371201]]]}, "properties": {"osm_id": 480976511, "building": "yes", "name": "", "height": null, "height_m": null, "levels": null, "tract_id": "40109107601", "tract_name": "1076.01", "tags": {"building": "yes"}}}, {"type": "Feature", "geometry": {"type": "Polygon", "coordinates": [[[-97.420367, 35.4365139], [-97.4203657, 35.4364767], [-97.4204783, 35.4364767], [-97.420475, 35.4364112], [-97.4203637, 35.4364084], [-97.4203623, 35.4363724], [-97.4200217, 35.4363724], [-97.4200237, 35.4365106], [-97.420367, 35.4365139]]]}, "properties": {"osm_id": 480976512, "building": "yes", "name": "Splish Splash Auto Restoration", "height": null, "height_m": null, "levels": null, "tract_id": "40109107601", "tract_name": "1076.01", "tags": {"building": "yes", "name": "Splish Splash Auto Restoration", "shop": "car_repair"}}}, {"type": "Feature", "geometry": {"type": "Polygon", "coordinates": [[[-97.4121836, 35.4365316], [-97.4121755, 35.4363668], [-97.4124743, 35.4363552], [-97.4124865, 35.43652], [-97.4121836, 35.4365316]]]}, "properties": {"osm_id": 480976513, "building": "yes", "name": "", "height": null, "height_m": null, "levels": null, "tract_id": "40109107601", "tract_name": "1076.01", "tags": {"building": "yes"}}}, {"type": "Feature", "geometry": {"type": "Polygon", "coordinates": [[[-97.4119062, 35.4360836], [-97.411895, 35.4359064], [-97.4120973, 35.4359039], [-97.4121074, 35.4358923], [-97.4121237, 35.4358799], [-97.4121684, 35.4358766], [-97.4121704, 35.435865], [-97.4122182, 35.4358625], [-97.4122139, 35.4358039], [-97.4123884, 35.4357981], [-97.4123869, 35.4357846], [-97.4124692, 35.435783], [-97.4124705, 35.4357971], [-97.4127272, 35.4357899], [-97.4127335, 35.4359072], [-97.4127965, 35.4359039], [-97.4128026, 35.4359867], [-97.4127284, 35.4359884], [-97.4127365, 35.4361838], [-97.4125495, 35.4361896], [-97.4125526, 35.4362451], [-97.4123778, 35.4362492], [-97.4123757, 35.4361954], [-97.4122314, 35.4362012], [-97.4122273, 35.4360737], [-97.4119062, 35.4360836]]]}, "properties": {"osm_id": 480976514, "building": "yes", "name": "Joe Cooper Hyundai", "height": null, "height_m": null, "levels": null, "tract_id": "40109107601", "tract_name": "1076.01", "tags": {"building": "yes", "name": "Joe Cooper Hyundai", "shop": "car"}}}, {"type": "Feature", "geometry": {"type": "Polygon", "coordinates": [[[-97.4132015, 35.4357425], [-97.4132021, 35.4356502], [-97.4133839, 35.4356508], [-97.4133832, 35.435742], [-97.4132015, 35.4357425]]]}, "properties": {"osm_id": 480976516, "building": "yes", "name": "Joe Cooper Easy Credit Auto", "height": null, "height_m": null, "levels": null, "tract_id": "40109107601", "tract_name": "1076.01", "tags": {"building": "yes", "name": "Joe Cooper Easy Credit Auto", "shop": "car"}}}, {"type": "Feature", "geometry": {"type": "Polygon", "coordinates": [[[-97.4158558, 35.4371979], [-97.4158477, 35.4359889], [-97.4152358, 35.4359856], [-97.4152318, 35.4359078], [-97.4145833, 35.4359111], [-97.4145996, 35.4365454], [-97.4146835, 35.4365473], [-97.4146804, 35.4369489], [-97.4157209, 35.436946], [-97.4157227, 35.4371983], [-97.4158558, 35.4371979]]]}, "properties": {"osm_id": 480976518, "building": "yes", "name": "", "height": null, "height_m": null, "levels": null, "tract_id": "40109107601", "tract_name": "1076.01", "tags": {"building": "yes"}}}, {"type": "Feature", "geometry": {"type": "Polygon", "coordinates": [[[-97.4131998, 35.4368834], [-97.4133007, 35.4368819], [-97.4132945, 35.4364119], [-97.4131936, 35.4364126], [-97.4131998, 35.4368834]]]}, "properties": {"osm_id": 480976520, "building": "yes", "name": "", "height": null, "height_m": null, "levels": null, "tract_id": "40109107601", "tract_name": "1076.01", "tags": {"building": "yes"}}}, {"type": "Feature", "geometry": {"type": "Polygon", "coordinates": [[[-97.4138514, 35.4376065], [-97.4144398, 35.4376056], [-97.414434, 35.437266], [-97.4141946, 35.4372669], [-97.4141911, 35.4374629], [-97.4138467, 35.4374619], [-97.4138514, 35.4376065]]]}, "properties": {"osm_id": 480976522, "building": "yes", "name": "Joe Cooper's Easy Credit", "height": null, "height_m": null, "levels": null, "tract_id": "40109107601", "tract_name": "1076.01", "tags": {"building": "yes", "name": "Joe Cooper's Easy Credit", "shop": "car"}}}, {"type": "Feature", "geometry": {"type": "Polygon", "coordinates": [[[-97.4160007, 35.4393719], [-97.4161247, 35.4392564], [-97.4159252, 35.4391146], [-97.4158874, 35.4391504], [-97.4158158, 35.4390945], [-97.4157473, 35.4391586], [-97.4158235, 35.439215], [-97.4158058, 35.439232], [-97.4160007, 35.4393719]]]}, "properties": {"osm_id": 480976524, "building": "yes", "name": "", "height": null, "height_m": null, "levels": null, "tract_id": "40109107601", "tract_name": "1076.01", "tags": {"building": "yes"}}}, {"type": "Feature", "geometry": {"type": "Polygon", "coordinates": [[[-97.4165502, 35.4397348], [-97.4169042, 35.4393917], [-97.4165837, 35.4391535], [-97.4162203, 35.4394977], [-97.4163182, 35.4395665], [-97.4165904, 35.4393032], [-97.4167285, 35.4394059], [-97.4164509, 35.4396649], [-97.4165502, 35.4397348]]]}, "properties": {"osm_id": 480976525, "building": "yes", "name": "Super 8 by Wyndham Midwest City OK", "height": null, "height_m": null, "levels": null, "tract_id": "40109107601", "tract_name": "1076.01", "tags": {"addr:city": "Midwest City", "addr:housenumber": "6166", "addr:postcode": "73110", "addr:state": "OK", "addr:street": "Tinker Diagonal", "branch": "Midwest City OK", "brand": "Super 8", "brand:wikidata": "Q5364003", "building": "yes", "name": "Super 8 by Wyndham Midwest City OK", "phone": "+1 405-778-3643", "ref": "46332", "tourism": "hotel", "website": "https://www.wyndhamhotels.com/super-8/midwest-city-oklahoma/super-8-midwest-city-ok/overview"}}}, {"type": "Feature", "geometry": {"type": "Polygon", "coordinates": [[[-97.4170906, 35.4401435], [-97.4172609, 35.4399872], [-97.4171577, 35.4399151], [-97.4172744, 35.4398146], [-97.4170786, 35.4396682], [-97.4168787, 35.4398627], [-97.4169029, 35.439879], [-97.4168278, 35.4399468], [-97.4170906, 35.4401435]]]}, "properties": {"osm_id": 480976527, "building": "yes", "name": "", "height": null, "height_m": null, "levels": null, "tract_id": "40109107601", "tract_name": "1076.01", "tags": {"building": "yes", "shop": "car"}}}, {"type": "Feature", "geometry": {"type": "Polygon", "coordinates": [[[-97.4193927, 35.4404998], [-97.4196102, 35.4402995], [-97.4186244, 35.439584], [-97.4179637, 35.4401951], [-97.4179902, 35.44021], [-97.4177909, 35.4403905], [-97.4182361, 35.4407035], [-97.4184394, 35.440528], [-97.4184089, 35.4405048], [-97.4185268, 35.4404005], [-97.4186406, 35.4404849], [-97.4189618, 35.4401951], [-97.4193927, 35.4404998]]]}, "properties": {"osm_id": 480976529, "building": "yes", "name": "Hudiburg Chevrolet", "height": null, "height_m": null, "levels": null, "tract_id": "40109107601", "tract_name": "1076.01", "tags": {"building": "yes", "name": "Hudiburg Chevrolet", "shop": "car"}}}, {"type": "Feature", "geometry": {"type": "Polygon", "coordinates": [[[-97.4190512, 35.4413958], [-97.4191569, 35.4412964], [-97.4188825, 35.4411027], [-97.4187992, 35.4411739], [-97.4189394, 35.4412716], [-97.418913, 35.4412981], [-97.4190512, 35.4413958]]]}, "properties": {"osm_id": 480976531, "building": "yes", "name": "", "height": null, "height_m": null, "levels": null, "tract_id": "40109107601", "tract_name": "1076.01", "tags": {"building": "yes", "shop": "car"}}}, {"type": "Feature", "geometry": {"type": "Polygon", "coordinates": [[[-97.4203793, 35.4422675], [-97.4204233, 35.4422288], [-97.4205494, 35.4423149], [-97.4208238, 35.4420632], [-97.4200839, 35.441525], [-97.4199985, 35.4416061], [-97.4199328, 35.4415575], [-97.4198122, 35.4416668], [-97.4199061, 35.4417312], [-97.4198858, 35.4417538], [-97.4198216, 35.4417038], [-97.4197099, 35.4418049], [-97.4201008, 35.4420875], [-97.4201144, 35.4420715], [-97.4203793, 35.4422675]]]}, "properties": {"osm_id": 480976532, "building": "yes", "name": "Hudiburg Toyota", "height": null, "height_m": null, "levels": null, "tract_id": "40109107601", "tract_name": "1076.01", "tags": {"building": "yes", "name": "Hudiburg Toyota", "shop": "car"}}}, {"type": "Feature", "geometry": {"type": "Polygon", "coordinates": [[[-97.4210003, 35.4431789], [-97.4209453, 35.4430117], [-97.4214563, 35.4429145], [-97.4215032, 35.4430718], [-97.4210003, 35.4431789]]]}, "properties": {"osm_id": 480976534, "building": "yes", "name": "", "height": null, "height_m": null, "levels": null, "tract_id": "40109107601", "tract_name": "1076.01", "tags": {"building": "yes"}}}, {"type": "Feature", "geometry": {"type": "Polygon", "coordinates": [[[-97.4215179, 35.4434859], [-97.4218653, 35.4433253], [-97.4217835, 35.4431985], [-97.4214294, 35.4433624], [-97.4215179, 35.4434859]]]}, "properties": {"osm_id": 480976536, "building": "yes", "name": "", "height": null, "height_m": null, "levels": null, "tract_id": "40109107601", "tract_name": "1076.01", "tags": {"building": "yes"}}}, {"type": "Feature", "geometry": {"type": "Polygon", "coordinates": [[[-97.4195932, 35.4414734], [-97.4198852, 35.4412024], [-97.4197206, 35.4410856], [-97.4194339, 35.4413696], [-97.4195932, 35.4414734]]]}, "properties": {"osm_id": 480976537, "building": "yes", "name": "", "height": null, "height_m": null, "levels": null, "tract_id": "40109107601", "tract_name": "1076.01", "tags": {"building": "yes"}}}, {"type": "Feature", "geometry": {"type": "Polygon", "coordinates": [[[-97.4177269, 35.4396899], [-97.4179863, 35.4394467], [-97.4180493, 35.4394931], [-97.418214, 35.439349], [-97.4179009, 35.4391139], [-97.4179782, 35.439046], [-97.4178034, 35.4389135], [-97.417407, 35.4392795], [-97.4175818, 35.439407], [-97.4174903, 35.4394948], [-97.4176164, 35.4395825], [-97.4175981, 35.4395984], [-97.4177269, 35.4396899]]]}, "properties": {"osm_id": 480976539, "building": "yes", "name": "", "height": null, "height_m": null, "levels": null, "tract_id": "40109107601", "tract_name": "1076.01", "tags": {"building": "yes"}}}, {"type": "Feature", "geometry": {"type": "Polygon", "coordinates": [[[-97.4158241, 35.4412889], [-97.4162416, 35.4412801], [-97.4162431, 35.4413128], [-97.4163417, 35.441309], [-97.4163417, 35.4412776], [-97.4165451, 35.4412751], [-97.4165389, 35.4411044], [-97.415821, 35.4411207], [-97.4158241, 35.4412889]]]}, "properties": {"osm_id": 480976682, "building": "yes", "name": "", "height": null, "height_m": null, "levels": null, "tract_id": "40109107601", "tract_name": "1076.01", "tags": {"building": "yes"}}}, {"type": "Feature", "geometry": {"type": "Polygon", "coordinates": [[[-97.4153841, 35.4407039], [-97.415418, 35.4406573], [-97.4155441, 35.4407144], [-97.4156456, 35.4405689], [-97.4155254, 35.4405099], [-97.4155585, 35.4404622], [-97.4155803, 35.4404309], [-97.4155196, 35.4404005], [-97.4154989, 35.4404342], [-97.4154693, 35.4404823], [-97.4151144, 35.4403234], [-97.4150152, 35.4404709], [-97.4153678, 35.4406335], [-97.4153363, 35.4406792], [-97.4153841, 35.4407039]]]}, "properties": {"osm_id": 480976683, "building": "yes", "name": "", "height": null, "height_m": null, "levels": null, "tract_id": "40109107601", "tract_name": "1076.01", "tags": {"building": "yes"}}}, {"type": "Feature", "geometry": {"type": "Polygon", "coordinates": [[[-97.4138315, 35.4397953], [-97.4141024, 35.4400007], [-97.4141963, 35.43991], [-97.4141802, 35.4396489], [-97.4140729, 35.4395757], [-97.4138315, 35.4397953]]]}, "properties": {"osm_id": 480976684, "building": "yes", "name": "", "height": null, "height_m": null, "levels": null, "tract_id": "40109107601", "tract_name": "1076.01", "tags": {"building": "yes"}}}, {"type": "Feature", "geometry": {"type": "Polygon", "coordinates": [[[-97.4188921, 35.4442749], [-97.418889, 35.4438695], [-97.4189276, 35.4438444], [-97.4190138, 35.4439147], [-97.4190292, 35.4439009], [-97.4190785, 35.4439009], [-97.4190801, 35.4439411], [-97.4190647, 35.4439536], [-97.4190847, 35.4439712], [-97.4190878, 35.4440867], [-97.4190154, 35.4441469], [-97.4190184, 35.4441657], [-97.4188921, 35.4442749]]]}, "properties": {"osm_id": 480976685, "building": "yes", "name": "", "height": null, "height_m": null, "levels": null, "tract_id": "40109107601", "tract_name": "1076.01", "tags": {"building": "yes"}}}, {"type": "Feature", "geometry": {"type": "Polygon", "coordinates": [[[-97.4194598, 35.4444662], [-97.419459, 35.4443049], [-97.4194939, 35.4443055], [-97.4194943, 35.4442691], [-97.4194413, 35.4442691], [-97.4194413, 35.4442861], [-97.4193173, 35.4442855], [-97.4193196, 35.4444417], [-97.4193905, 35.4444417], [-97.4193897, 35.4444649], [-97.4194598, 35.4444662]]]}, "properties": {"osm_id": 480976686, "building": "yes", "name": "", "height": null, "height_m": null, "levels": null, "tract_id": "40109107601", "tract_name": "1076.01", "tags": {"building": "yes"}}}, {"type": "Feature", "geometry": {"type": "Polygon", "coordinates": [[[-97.4206965, 35.4444656], [-97.4207707, 35.4443895], [-97.4207128, 35.4443514], [-97.420724, 35.4443381], [-97.4206945, 35.4443174], [-97.4207077, 35.4443033], [-97.4206518, 35.4442661], [-97.4206813, 35.4442371], [-97.4206315, 35.4442023], [-97.4206051, 35.4442297], [-97.4205715, 35.4442048], [-97.4205563, 35.4442205], [-97.4205268, 35.4441974], [-97.4205177, 35.4442081], [-97.4204018, 35.4441328], [-97.4203276, 35.4442106], [-97.4204384, 35.444286], [-97.4204059, 35.4443199], [-97.4206122, 35.4444549], [-97.4206386, 35.4444267], [-97.4206965, 35.4444656]]]}, "properties": {"osm_id": 480976687, "building": "yes", "name": "", "height": null, "height_m": null, "levels": null, "tract_id": "40109107601", "tract_name": "1076.01", "tags": {"building": "yes"}}}, {"type": "Feature", "geometry": {"type": "Polygon", "coordinates": [[[-97.4193847, 35.4433194], [-97.4193862, 35.4432867], [-97.4194771, 35.4432867], [-97.4194786, 35.4432177], [-97.4193847, 35.4432189], [-97.4193862, 35.4431863], [-97.4188547, 35.4431863], [-97.4188501, 35.4427747], [-97.418693, 35.4427772], [-97.418696, 35.4431926], [-97.4186406, 35.4431913], [-97.4186421, 35.4433244], [-97.4193847, 35.4433194]]]}, "properties": {"osm_id": 480976688, "building": "yes", "name": "Studio 6 Extended Stay", "height": null, "height_m": null, "levels": null, "tract_id": "40109107601", "tract_name": "1076.01", "tags": {"brand": "Motel 6", "brand:wikidata": "Q2188884", "building": "yes", "name": "Studio 6 Extended Stay", "tourism": "motel"}}}, {"type": "Feature", "geometry": {"type": "Polygon", "coordinates": [[[-97.4169559, 35.4432915], [-97.4170727, 35.443293], [-97.4170727, 35.4430061], [-97.4169489, 35.4430061], [-97.4169542, 35.4431148], [-97.4169127, 35.4431157], [-97.416918, 35.4432033], [-97.4169535, 35.4432045], [-97.4169559, 35.4432915]]]}, "properties": {"osm_id": 480976689, "building": "yes", "name": "", "height": null, "height_m": null, "levels": null, "tract_id": "40109107601", "tract_name": "1076.01", "tags": {"building": "yes"}}}, {"type": "Feature", "geometry": {"type": "Polygon", "coordinates": [[[-97.4181777, 35.4428379], [-97.4182039, 35.4428454], [-97.4182178, 35.4428667], [-97.4182178, 35.4428855], [-97.418207, 35.4428981], [-97.4181793, 35.4429081], [-97.4181469, 35.4429031], [-97.4181346, 35.4428855], [-97.41813, 35.4428755], [-97.4178373, 35.4428743], [-97.4178358, 35.4429245], [-97.4178157, 35.4429671], [-97.4177757, 35.4430198], [-97.4177248, 35.4430587], [-97.4176601, 35.4430876], [-97.41758, 35.4431052], [-97.4175061, 35.4431002], [-97.4174383, 35.4430826], [-97.4173628, 35.4430286], [-97.4173135, 35.4429721], [-97.417295, 35.4429219], [-97.4172889, 35.4428755], [-97.4172904, 35.4425994], [-97.4172935, 35.4425555], [-97.4173012, 35.4425065], [-97.4173135, 35.4424626], [-97.4173335, 35.4424262], [-97.4173659, 35.4423747], [-97.4173982, 35.4423358], [-97.4174522, 35.4422932], [-97.4175015, 35.4422505], [-97.4175862, 35.442204], [-97.4176309, 35.4421865], [-97.417694, 35.4421689], [-97.4177695, 35.4421551], [-97.4178542, 35.4421526], [-97.4178881, 35.4421526], [-97.4178866, 35.442199], [-97.4179467, 35.442199], [-97.4179451, 35.4422693], [-97.4181762, 35.4424551], [-97.4181777, 35.4428379]]]}, "properties": {"osm_id": 480976690, "building": "yes", "name": "Rose State College Hudiburg Chevrolet Center", "height": null, "height_m": null, "levels": null, "tract_id": "40109107601", "tract_name": "1076.01", "tags": {"addr:city": "Midwest City", "addr:housenumber": "6000", "addr:postcode": "73110", "addr:state": "OK", "addr:street": "Prosper Boulevard", "building": "yes", "name": "Rose State College Hudiburg Chevrolet Center"}}}, {"type": "Feature", "geometry": {"type": "Polygon", "coordinates": [[[-97.4189411, 35.4461374], [-97.4190146, 35.446138], [-97.4191793, 35.4459887], [-97.4192119, 35.4459611], [-97.4191594, 35.4459012], [-97.4191559, 35.4458803], [-97.4191466, 35.4458669], [-97.4191314, 35.4458565], [-97.419108, 35.4458498], [-97.4190835, 35.4458527], [-97.4190625, 35.4458318], [-97.4189878, 35.4458318], [-97.4187928, 35.4460049], [-97.4188442, 35.4460591], [-97.4188419, 35.4460752], [-97.4188489, 35.4460924], [-97.4188582, 35.4461038], [-97.4188769, 35.4461114], [-97.4188932, 35.4461142], [-97.4189026, 35.4461133], [-97.4189411, 35.4461374]]]}, "properties": {"osm_id": 481133009, "building": "yes", "name": "", "height": null, "height_m": null, "levels": null, "tract_id": "40109107601", "tract_name": "1076.01", "tags": {"building": "yes"}}}, {"type": "Feature", "geometry": {"type": "Polygon", "coordinates": [[[-97.4178368, 35.4466828], [-97.4178347, 35.4458383], [-97.4176823, 35.4458399], [-97.4176843, 35.4466845], [-97.4178368, 35.4466828]]]}, "properties": {"osm_id": 481133011, "building": "apartments", "name": "", "height": null, "height_m": null, "levels": null, "tract_id": "40109107601", "tract_name": "1076.01", "tags": {"building": "apartments"}}}, {"type": "Feature", "geometry": {"type": "Polygon", "coordinates": [[[-97.4174018, 35.4467126], [-97.4173977, 35.445835], [-97.4172188, 35.4458366], [-97.4172269, 35.4467126], [-97.4174018, 35.4467126]]]}, "properties": {"osm_id": 481133013, "building": "apartments", "name": "", "height": null, "height_m": null, "levels": null, "tract_id": "40109107601", "tract_name": "1076.01", "tags": {"building": "apartments"}}}, {"type": "Feature", "geometry": {"type": "Polygon", "coordinates": [[[-97.4176396, 35.4472806], [-97.4176335, 35.4470554], [-97.4177026, 35.4470538], [-97.4176945, 35.4468186], [-97.4175136, 35.4468219], [-97.4175258, 35.4470554], [-97.4174668, 35.4470554], [-97.4174688, 35.4472856], [-97.4176396, 35.4472806]]]}, "properties": {"osm_id": 481133015, "building": "apartments", "name": "", "height": null, "height_m": null, "levels": null, "tract_id": "40109107601", "tract_name": "1076.01", "tags": {"building": "apartments"}}}, {"type": "Feature", "geometry": {"type": "Polygon", "coordinates": [[[-97.4173833, 35.4473627], [-97.4173833, 35.4472447], [-97.4171701, 35.4472468], [-97.4171714, 35.4473627], [-97.4173833, 35.4473627]]]}, "properties": {"osm_id": 481133017, "building": "apartments", "name": "", "height": null, "height_m": null, "levels": null, "tract_id": "40109107601", "tract_name": "1076.01", "tags": {"building": "apartments"}}}, {"type": "Feature", "geometry": {"type": "Polygon", "coordinates": [[[-97.4171003, 35.4473616], [-97.4171017, 35.4472523], [-97.4168951, 35.4472512], [-97.4168938, 35.4473616], [-97.4171003, 35.4473616]]]}, "properties": {"osm_id": 481133019, "building": "apartments", "name": "", "height": null, "height_m": null, "levels": null, "tract_id": "40109107601", "tract_name": "1076.01", "tags": {"building": "apartments"}}}, {"type": "Feature", "geometry": {"type": "Polygon", "coordinates": [[[-97.4171111, 35.4471944], [-97.417107, 35.4469617], [-97.4169381, 35.446965], [-97.4169407, 35.4471955], [-97.4171111, 35.4471944]]]}, "properties": {"osm_id": 481133020, "building": "apartments", "name": "", "height": null, "height_m": null, "levels": null, "tract_id": "40109107601", "tract_name": "1076.01", "tags": {"building": "apartments"}}}, {"type": "Feature", "geometry": {"type": "Polygon", "coordinates": [[[-97.4173833, 35.4471223], [-97.4173833, 35.4470404], [-97.4172599, 35.4470393], [-97.4172572, 35.4471223], [-97.4173833, 35.4471223]]]}, "properties": {"osm_id": 481133022, "building": "apartments", "name": "", "height": null, "height_m": null, "levels": null, "tract_id": "40109107601", "tract_name": "1076.01", "tags": {"building": "apartments"}}}, {"type": "Feature", "geometry": {"type": "Polygon", "coordinates": [[[-97.4171768, 35.4469071], [-97.4171701, 35.4467629], [-97.4168871, 35.4467639], [-97.4168898, 35.4469093], [-97.4171768, 35.4469071]]]}, "properties": {"osm_id": 481133023, "building": "apartments", "name": "", "height": null, "height_m": null, "levels": null, "tract_id": "40109107601", "tract_name": "1076.01", "tags": {"building": "apartments"}}}, {"type": "Feature", "geometry": {"type": "Polygon", "coordinates": [[[-97.4191322, 35.4474745], [-97.419126, 35.4473892], [-97.4188723, 35.4474], [-97.4188764, 35.4474845], [-97.4191322, 35.4474745]]]}, "properties": {"osm_id": 481133024, "building": "apartments", "name": "", "height": null, "height_m": null, "levels": null, "tract_id": "40109107601", "tract_name": "1076.01", "tags": {"building": "apartments"}}}, {"type": "Feature", "geometry": {"type": "Polygon", "coordinates": [[[-97.418831, 35.4474835], [-97.418831, 35.4473983], [-97.4185809, 35.447395], [-97.418583, 35.4474835], [-97.418831, 35.4474835]]]}, "properties": {"osm_id": 481133025, "building": "apartments", "name": "", "height": null, "height_m": null, "levels": null, "tract_id": "40109107601", "tract_name": "1076.01", "tags": {"building": "apartments"}}}, {"type": "Feature", "geometry": {"type": "Polygon", "coordinates": [[[-97.4186897, 35.4473461], [-97.4186877, 35.4471416], [-97.4185789, 35.4471432], [-97.418585, 35.4473469], [-97.4186897, 35.4473461]]]}, "properties": {"osm_id": 481133026, "building": "apartments", "name": "", "height": null, "height_m": null, "levels": null, "tract_id": "40109107601", "tract_name": "1076.01", "tags": {"building": "apartments"}}}, {"type": "Feature", "geometry": {"type": "Polygon", "coordinates": [[[-97.4185799, 35.4470903], [-97.4186826, 35.4470894], [-97.4186795, 35.4468849], [-97.4185779, 35.4468857], [-97.4185799, 35.4470903]]]}, "properties": {"osm_id": 481133027, "building": "apartments", "name": "", "height": null, "height_m": null, "levels": null, "tract_id": "40109107601", "tract_name": "1076.01", "tags": {"building": "apartments"}}}, {"type": "Feature", "geometry": {"type": "Polygon", "coordinates": [[[-97.4191308, 35.4468394], [-97.4191288, 35.44675], [-97.4188767, 35.44675], [-97.4188787, 35.4468394], [-97.4191308, 35.4468394]]]}, "properties": {"osm_id": 481133029, "building": "apartments", "name": "", "height": null, "height_m": null, "levels": null, "tract_id": "40109107601", "tract_name": "1076.01", "tags": {"building": "apartments"}}}, {"type": "Feature", "geometry": {"type": "Polygon", "coordinates": [[[-97.418834, 35.4468419], [-97.418834, 35.4467557], [-97.4185779, 35.4467582], [-97.418582, 35.446846], [-97.418834, 35.4468419]]]}, "properties": {"osm_id": 481133030, "building": "apartments", "name": "", "height": null, "height_m": null, "levels": null, "tract_id": "40109107601", "tract_name": "1076.01", "tags": {"building": "apartments"}}}, {"type": "Feature", "geometry": {"type": "Polygon", "coordinates": [[[-97.4179666, 35.4492305], [-97.41817, 35.4492323], [-97.4181684, 35.4488973], [-97.4179035, 35.4489004], [-97.4179065, 35.4490027], [-97.4179628, 35.4490027], [-97.4179666, 35.4492305]]]}, "properties": {"osm_id": 481133038, "building": "yes", "name": "", "height": null, "height_m": null, "levels": null, "tract_id": "40109107601", "tract_name": "1076.01", "tags": {"building": "yes"}}}, {"type": "Feature", "geometry": {"type": "Polygon", "coordinates": [[[-97.4172169, 35.4493432], [-97.4174549, 35.4493432], [-97.4174531, 35.4491262], [-97.4172178, 35.4491262], [-97.4172169, 35.4493432]]]}, "properties": {"osm_id": 481133039, "building": "retail", "name": "", "height": null, "height_m": 3.0, "levels": 1, "tract_id": "40109107601", "tract_name": "1076.01", "tags": {"addr:housenumber": "6000", "addr:street": "Southeast 15th Street", "building": "retail", "building:levels": "1", "roof:levels": "0"}}}, {"type": "Feature", "geometry": {"type": "Polygon", "coordinates": [[[-97.4171119, 35.4493478], [-97.4171068, 35.4489239], [-97.4170723, 35.4489239], [-97.4170723, 35.448726], [-97.4168893, 35.4487285], [-97.4168873, 35.4489338], [-97.4169259, 35.4489338], [-97.416928, 35.4493494], [-97.4171119, 35.4493478]]]}, "properties": {"osm_id": 481133040, "building": "yes", "name": "", "height": null, "height_m": null, "levels": null, "tract_id": "40109107601", "tract_name": "1076.01", "tags": {"building": "yes"}}}, {"type": "Feature", "geometry": {"type": "Polygon", "coordinates": [[[-97.4155707, 35.449479], [-97.4158172, 35.4494815], [-97.4158157, 35.4492745], [-97.4156524, 35.449272], [-97.4156509, 35.4493498], [-97.4155723, 35.4493498], [-97.4155707, 35.449479]]]}, "properties": {"osm_id": 481133042, "building": "yes", "name": "", "height": null, "height_m": null, "levels": null, "tract_id": "40109107601", "tract_name": "1076.01", "tags": {"building": "yes"}}}, {"type": "Feature", "geometry": {"type": "Polygon", "coordinates": [[[-97.4151615, 35.449477], [-97.4154968, 35.4494792], [-97.4154941, 35.4491918], [-97.4153734, 35.4491929], [-97.4153721, 35.4493044], [-97.4152862, 35.4493055], [-97.4152862, 35.4492115], [-97.4151682, 35.4492115], [-97.4151642, 35.4486653], [-97.4149872, 35.4486653], [-97.4149912, 35.4494366], [-97.4151588, 35.4494377], [-97.4151615, 35.449477]]]}, "properties": {"osm_id": 481133053, "building": "yes", "name": "", "height": null, "height_m": null, "levels": null, "tract_id": "40109107601", "tract_name": "1076.01", "tags": {"building": "yes"}}}, {"type": "Feature", "geometry": {"type": "Polygon", "coordinates": [[[-97.4158915, 35.4461188], [-97.4160095, 35.4461177], [-97.4160108, 35.4461298], [-97.4160859, 35.4461287], [-97.4160859, 35.4460795], [-97.4161114, 35.4460795], [-97.4161235, 35.446026], [-97.4161516, 35.4459844], [-97.4161744, 35.4459123], [-97.4161838, 35.4458359], [-97.4161664, 35.4457528], [-97.4161369, 35.4456905], [-97.4161127, 35.4456534], [-97.4160819, 35.4456534], [-97.4160819, 35.4455332], [-97.4159907, 35.4455321], [-97.415992, 35.445507], [-97.4158955, 35.445507], [-97.4158955, 35.4455409], [-97.4156863, 35.4455387], [-97.4156876, 35.4455813], [-97.4156568, 35.4455813], [-97.4156594, 35.4456676], [-97.4157158, 35.4456676], [-97.4157185, 35.4457561], [-97.4158834, 35.4457572], [-97.4158915, 35.4461188]]]}, "properties": {"osm_id": 481133055, "building": "yes", "name": "", "height": null, "height_m": null, "levels": null, "tract_id": "40109107601", "tract_name": "1076.01", "tags": {"building": "yes"}}}, {"type": "Feature", "geometry": {"type": "Polygon", "coordinates": [[[-97.4156344, 35.4447087], [-97.415716, 35.4446622], [-97.4157614, 35.4447137], [-97.4157792, 35.4446924], [-97.4158423, 35.4447206], [-97.4159055, 35.4447319], [-97.4159725, 35.4447206], [-97.4159902, 35.4447156], [-97.4159532, 35.4446641], [-97.4159748, 35.4446553], [-97.4159987, 35.4446334], [-97.416011, 35.4446033], [-97.4160118, 35.4445631], [-97.4161135, 35.44456], [-97.416115, 35.4445794], [-97.4161628, 35.4445782], [-97.4161635, 35.4446309], [-97.4161227, 35.4447099], [-97.4160811, 35.4447438], [-97.4161689, 35.4448179], [-97.4160495, 35.4448825], [-97.4159024, 35.4449032], [-97.4159055, 35.4448392], [-97.4157961, 35.444826], [-97.4157707, 35.444885], [-97.4156451, 35.4448229], [-97.4156952, 35.4447658], [-97.4156344, 35.4447087]]]}, "properties": {"osm_id": 481133058, "building": "yes", "name": "", "height": null, "height_m": null, "levels": null, "tract_id": "40109107601", "tract_name": "1076.01", "tags": {"building": "yes"}}}, {"type": "Feature", "geometry": {"type": "Polygon", "coordinates": [[[-97.414848, 35.4436769], [-97.4148759, 35.4436769], [-97.4153218, 35.4436775], [-97.4153233, 35.4434786], [-97.414848, 35.443478], [-97.414848, 35.4436769]]]}, "properties": {"osm_id": 481133060, "building": "yes", "name": "", "height": null, "height_m": null, "levels": null, "tract_id": "40109107601", "tract_name": "1076.01", "tags": {"building": "yes"}}}, {"type": "Feature", "geometry": {"type": "Polygon", "coordinates": [[[-97.4142815, 35.4438054], [-97.4142815, 35.4437598], [-97.4142815, 35.4435444], [-97.4141505, 35.4435415], [-97.4141505, 35.4434738], [-97.4140532, 35.4434738], [-97.414055, 35.4435401], [-97.4139205, 35.4435372], [-97.413924, 35.4437109], [-97.4137648, 35.4437088], [-97.4137683, 35.4435545], [-97.4132215, 35.4435487], [-97.413225, 35.4437189], [-97.4130658, 35.4437174], [-97.4130693, 35.443556], [-97.4125225, 35.443556], [-97.4125243, 35.4437174], [-97.4123774, 35.4437174], [-97.4123756, 35.443556], [-97.4119209, 35.4435531], [-97.4119226, 35.4436713], [-97.4118962, 35.4436716], [-97.4118968, 35.4437219], [-97.4118979, 35.4438081], [-97.4142815, 35.4438054]]]}, "properties": {"osm_id": 481133062, "building": "yes", "name": "", "height": null, "height_m": null, "levels": null, "tract_id": "40109107601", "tract_name": "1076.01", "tags": {"building": "yes"}}}, {"type": "Feature", "geometry": {"type": "Polygon", "coordinates": [[[-97.4135779, 35.4447256], [-97.4139317, 35.4447246], [-97.413931, 35.4444909], [-97.4138938, 35.4444911], [-97.4138948, 35.4444006], [-97.4138967, 35.4442995], [-97.4138897, 35.4442586], [-97.4138722, 35.4442224], [-97.4138511, 35.4442015], [-97.4138243, 35.4441844], [-97.4137893, 35.444172], [-97.4137531, 35.4441701], [-97.4137157, 35.4441711], [-97.4136783, 35.4441815], [-97.4136492, 35.4441996], [-97.4136258, 35.4442215], [-97.413613, 35.4442453], [-97.4136025, 35.4442757], [-97.4136036, 35.4443983], [-97.4136075, 35.4444905], [-97.4135739, 35.4444899], [-97.4135779, 35.4447256]]]}, "properties": {"osm_id": 481133067, "building": "yes", "name": "", "height": null, "height_m": null, "levels": null, "tract_id": "40109107601", "tract_name": "1076.01", "tags": {"building": "yes"}}}, {"type": "Feature", "geometry": {"type": "Polygon", "coordinates": [[[-97.4120956, 35.4453616], [-97.4120956, 35.4452599], [-97.4120209, 35.4452602], [-97.4120189, 35.4453622], [-97.4120956, 35.4453616]]]}, "properties": {"osm_id": 481133068, "building": "yes", "name": "", "height": null, "height_m": null, "levels": null, "tract_id": "40109107601", "tract_name": "1076.01", "tags": {"building": "yes"}}}, {"type": "Feature", "geometry": {"type": "Polygon", "coordinates": [[[-97.4115409, 35.4454454], [-97.4115396, 35.4452782], [-97.4114578, 35.4452775], [-97.4114569, 35.4454458], [-97.4115409, 35.4454454]]]}, "properties": {"osm_id": 481133069, "building": "yes", "name": "", "height": null, "height_m": null, "levels": null, "tract_id": "40109107601", "tract_name": "1076.01", "tags": {"building": "yes"}}}, {"type": "Feature", "geometry": {"type": "Polygon", "coordinates": [[[-97.4134168, 35.4446538], [-97.4134148, 35.4445246], [-97.4134534, 35.4445246], [-97.4134529, 35.4444899], [-97.4134173, 35.4444894], [-97.4134178, 35.4443996], [-97.4118901, 35.4444076], [-97.411894, 35.4440141], [-97.4118543, 35.4440136], [-97.4115752, 35.4440102], [-97.4115759, 35.4446663], [-97.4119285, 35.4446644], [-97.4119285, 35.444496], [-97.412183, 35.4444979], [-97.4121818, 35.4446644], [-97.4127224, 35.4446596], [-97.4127189, 35.4444943], [-97.4128788, 35.444495], [-97.4128776, 35.4446529], [-97.4134168, 35.4446538]]]}, "properties": {"osm_id": 481133070, "building": "yes", "name": "", "height": null, "height_m": null, "levels": null, "tract_id": "40109107601", "tract_name": "1076.01", "tags": {"building": "yes"}}}, {"type": "Feature", "geometry": {"type": "Polygon", "coordinates": [[[-97.4121623, 35.4451724], [-97.4121609, 35.4449787], [-97.4121539, 35.4447257], [-97.4121259, 35.4447267], [-97.4121236, 35.4446392], [-97.4119881, 35.4446392], [-97.4119905, 35.4447286], [-97.4119543, 35.4447314], [-97.4119552, 35.4449802], [-97.4119558, 35.4451767], [-97.4121623, 35.4451724]]]}, "properties": {"osm_id": 481133071, "building": "yes", "name": "", "height": null, "height_m": null, "levels": null, "tract_id": "40109107601", "tract_name": "1076.01", "tags": {"building": "yes"}}}, {"type": "Feature", "geometry": {"type": "Polygon", "coordinates": [[[-97.4134173, 35.4444894], [-97.4134529, 35.4444899], [-97.4135739, 35.4444899], [-97.4136075, 35.4444905], [-97.4136036, 35.4443983], [-97.4134178, 35.4443996], [-97.4134173, 35.4444894]]]}, "properties": {"osm_id": 481133072, "building": "yes", "name": "", "height": null, "height_m": null, "levels": null, "tract_id": "40109107601", "tract_name": "1076.01", "tags": {"building": "yes"}}}, {"type": "Feature", "geometry": {"type": "Polygon", "coordinates": [[[-97.4148733, 35.4438792], [-97.4148759, 35.4436769], [-97.414848, 35.4436769], [-97.4148466, 35.4437586], [-97.4142815, 35.4437598], [-97.4142815, 35.4438054], [-97.4148466, 35.443805], [-97.4148443, 35.4438797], [-97.4148523, 35.4438792], [-97.4148733, 35.4438792]]]}, "properties": {"osm_id": 481133073, "building": "yes", "name": "", "height": null, "height_m": null, "levels": null, "tract_id": "40109107601", "tract_name": "1076.01", "tags": {"building": "yes"}}}, {"type": "Feature", "geometry": {"type": "Polygon", "coordinates": [[[-97.411894, 35.4440141], [-97.4118979, 35.4438081], [-97.4118968, 35.4437219], [-97.4118528, 35.4437206], [-97.4118543, 35.4440136], [-97.411894, 35.4440141]]]}, "properties": {"osm_id": 481133074, "building": "yes", "name": "", "height": null, "height_m": null, "levels": null, "tract_id": "40109107601", "tract_name": "1076.01", "tags": {"building": "yes"}}}, {"type": "Feature", "geometry": {"type": "Polygon", "coordinates": [[[-97.414303, 35.4452905], [-97.4147469, 35.4452861], [-97.4147442, 35.4451998], [-97.4148112, 35.4451965], [-97.4148126, 35.4447606], [-97.4147764, 35.4447606], [-97.4147832, 35.4446083], [-97.4147532, 35.4446076], [-97.414754, 35.4445651], [-97.4147266, 35.4445651], [-97.4147266, 35.4445204], [-97.4146992, 35.4445218], [-97.4147006, 35.4444759], [-97.4146731, 35.4444767], [-97.4146758, 35.4444327], [-97.4146466, 35.4444334], [-97.4146459, 35.4443935], [-97.4142725, 35.4443949], [-97.4142738, 35.4444903], [-97.4142778, 35.4447986], [-97.4142972, 35.4447993], [-97.414303, 35.4452905]]]}, "properties": {"osm_id": 481133075, "building": "yes", "name": "", "height": null, "height_m": null, "levels": null, "tract_id": "40109107601", "tract_name": "1076.01", "tags": {"building": "yes"}}}, {"type": "Feature", "geometry": {"type": "Polygon", "coordinates": [[[-97.4142738, 35.4444903], [-97.413931, 35.4444909], [-97.4138938, 35.4444911], [-97.4138948, 35.4444006], [-97.4142725, 35.4443949], [-97.4142738, 35.4444903]]]}, "properties": {"osm_id": 481133076, "building": "yes", "name": "", "height": null, "height_m": null, "levels": null, "tract_id": "40109107601", "tract_name": "1076.01", "tags": {"building": "yes"}}}, {"type": "Feature", "geometry": {"type": "Polygon", "coordinates": [[[-97.4111836, 35.4469818], [-97.4112665, 35.4469799], [-97.4112659, 35.4468958], [-97.4111812, 35.4468972], [-97.4111836, 35.4469818]]]}, "properties": {"osm_id": 481133077, "building": "yes", "name": "", "height": null, "height_m": null, "levels": null, "tract_id": "40109107601", "tract_name": "1076.01", "tags": {"building": "yes"}}}, {"type": "Feature", "geometry": {"type": "Polygon", "coordinates": [[[-97.4113138, 35.4469719], [-97.4116541, 35.4469738], [-97.4116535, 35.4467921], [-97.4113955, 35.4467916], [-97.4113955, 35.4467736], [-97.4113149, 35.4467736], [-97.4113138, 35.4469719]]]}, "properties": {"osm_id": 481133078, "building": "yes", "name": "", "height": null, "height_m": null, "levels": null, "tract_id": "40109107601", "tract_name": "1076.01", "tags": {"building": "yes"}}}, {"type": "Feature", "geometry": {"type": "Polygon", "coordinates": [[[-97.412428, 35.4468378], [-97.4125666, 35.4468378], [-97.4125682, 35.4466207], [-97.4124311, 35.4466207], [-97.412428, 35.4468378]]]}, "properties": {"osm_id": 481133079, "building": "yes", "name": "", "height": null, "height_m": null, "levels": null, "tract_id": "40109107601", "tract_name": "1076.01", "tags": {"building": "yes"}}}, {"type": "Feature", "geometry": {"type": "Polygon", "coordinates": [[[-97.4126193, 35.4465858], [-97.412718, 35.4465858], [-97.4127174, 35.4465364], [-97.4126859, 35.4465364], [-97.4126865, 35.4464826], [-97.4126182, 35.4464836], [-97.4126193, 35.4465858]]]}, "properties": {"osm_id": 481133080, "building": "yes", "name": "", "height": null, "height_m": null, "levels": null, "tract_id": "40109107601", "tract_name": "1076.01", "tags": {"building": "yes"}}}, {"type": "Feature", "geometry": {"type": "Polygon", "coordinates": [[[-97.4126269, 35.4463642], [-97.4126894, 35.4463638], [-97.41269, 35.4463224], [-97.4126269, 35.4463229], [-97.4126269, 35.4463642]]]}, "properties": {"osm_id": 481133081, "building": "yes", "name": "", "height": null, "height_m": null, "levels": null, "tract_id": "40109107601", "tract_name": "1076.01", "tags": {"building": "yes"}}}, {"type": "Feature", "geometry": {"type": "Polygon", "coordinates": [[[-97.4126152, 35.4461897], [-97.4126789, 35.4461431], [-97.4126374, 35.446106], [-97.4125738, 35.446154], [-97.4126152, 35.4461897]]]}, "properties": {"osm_id": 481133082, "building": "yes", "name": "", "height": null, "height_m": null, "levels": null, "tract_id": "40109107601", "tract_name": "1076.01", "tags": {"building": "yes"}}}, {"type": "Feature", "geometry": {"type": "Polygon", "coordinates": [[[-97.4131691, 35.4461967], [-97.4131687, 35.4461618], [-97.4132271, 35.4461607], [-97.4132274, 35.4461959], [-97.4131691, 35.4461967]]]}, "properties": {"osm_id": 481133083, "building": "yes", "name": "", "height": null, "height_m": null, "levels": null, "tract_id": "40109107601", "tract_name": "1076.01", "tags": {"building": "yes"}}}, {"type": "Feature", "geometry": {"type": "Polygon", "coordinates": [[[-97.4114892, 35.4492728], [-97.4114874, 35.4491402], [-97.4117263, 35.4491416], [-97.4117281, 35.4490782], [-97.4117547, 35.4490753], [-97.4117582, 35.4489845], [-97.4116538, 35.4489859], [-97.4116538, 35.4487149], [-97.4116803, 35.4487149], [-97.4116839, 35.4486399], [-97.4117173, 35.448641], [-97.4117184, 35.4486037], [-97.4117793, 35.4486046], [-97.4117783, 35.4486435], [-97.4118434, 35.4486426], [-97.4118424, 35.4486948], [-97.41188, 35.4486931], [-97.4118789, 35.448713], [-97.4119247, 35.4487114], [-97.4119247, 35.448737], [-97.4119633, 35.4487379], [-97.4119613, 35.4491022], [-97.4123597, 35.4490972], [-97.4123617, 35.449021], [-97.4122296, 35.449021], [-97.4122286, 35.4489978], [-97.4120314, 35.4489987], [-97.4120304, 35.4488587], [-97.4122662, 35.4488596], [-97.4122672, 35.448992], [-97.4123953, 35.4489896], [-97.4123932, 35.449098], [-97.4126605, 35.4490997], [-97.4126629, 35.4488035], [-97.4128521, 35.4488016], [-97.4128532, 35.4491944], [-97.4127727, 35.4491934], [-97.4127738, 35.4492077], [-97.4127423, 35.4492077], [-97.4127435, 35.4492609], [-97.4118826, 35.4492691], [-97.4118257, 35.4492696], [-97.4114892, 35.4492728]]]}, "properties": {"osm_id": 481133088, "building": "school", "name": "", "height": null, "height_m": null, "levels": null, "tract_id": "40109107601", "tract_name": "1076.01", "tags": {"building": "school"}}}, {"type": "Feature", "geometry": {"type": "Polygon", "coordinates": [[[-97.4127527, 35.4486873], [-97.412754, 35.4486092], [-97.4125488, 35.4486048], [-97.4125488, 35.4486829], [-97.4127527, 35.4486873]]]}, "properties": {"osm_id": 481133089, "building": "yes", "name": "", "height": null, "height_m": null, "levels": null, "tract_id": "40109107601", "tract_name": "1076.01", "tags": {"building": "yes"}}}, {"type": "Feature", "geometry": {"type": "Polygon", "coordinates": [[[-97.4126353, 35.4490604], [-97.4126353, 35.4488954], [-97.4125394, 35.4488954], [-97.4125401, 35.4490615], [-97.4126353, 35.4490604]]]}, "properties": {"osm_id": 481133090, "building": "yes", "name": "", "height": null, "height_m": null, "levels": null, "tract_id": "40109107601", "tract_name": "1076.01", "tags": {"building": "yes"}}}, {"type": "Feature", "geometry": {"type": "Polygon", "coordinates": [[[-97.4118826, 35.4492691], [-97.4118829, 35.4492816], [-97.4119456, 35.4492809], [-97.4119465, 35.4493239], [-97.4117635, 35.4493243], [-97.4117632, 35.4492818], [-97.4118262, 35.4492811], [-97.4118257, 35.4492696], [-97.4118826, 35.4492691]]]}, "properties": {"osm_id": 481133091, "building": "yes", "name": "", "height": null, "height_m": null, "levels": null, "tract_id": "40109107601", "tract_name": "1076.01", "tags": {"building": "yes"}}}, {"type": "Feature", "geometry": {"type": "Polygon", "coordinates": [[[-97.4116884, 35.4485459], [-97.4117524, 35.4485459], [-97.4117509, 35.4484834], [-97.4116889, 35.4484838], [-97.4116884, 35.4485459]]]}, "properties": {"osm_id": 481133092, "building": "school", "name": "", "height": null, "height_m": null, "levels": null, "tract_id": "40109107601", "tract_name": "1076.01", "tags": {"building": "school"}}}, {"type": "Feature", "geometry": {"type": "Polygon", "coordinates": [[[-97.4129377, 35.4400017], [-97.4131292, 35.4398343], [-97.4130837, 35.4397982], [-97.4131315, 35.4397544], [-97.4130883, 35.4397202], [-97.4130358, 35.4397668], [-97.4129798, 35.4397221], [-97.4130136, 35.4396869], [-97.4128653, 35.4395794], [-97.4128222, 35.4396203], [-97.4127568, 35.4395699], [-97.412577, 35.4397363], [-97.4129377, 35.4400017]]]}, "properties": {"osm_id": 481133178, "building": "yes", "name": "", "height": null, "height_m": null, "levels": null, "tract_id": "40109107601", "tract_name": "1076.01", "tags": {"building": "yes"}}}, {"type": "Feature", "geometry": {"type": "Polygon", "coordinates": [[[-97.4136581, 35.4413833], [-97.4138332, 35.4410523], [-97.4136581, 35.4409762], [-97.4134946, 35.4408944], [-97.4133055, 35.440767], [-97.4131747, 35.440649], [-97.41303, 35.4404949], [-97.4129249, 35.440356], [-97.4125373, 35.4405235], [-97.4126774, 35.4407118], [-97.4128408, 35.4408944], [-97.4129366, 35.44098], [-97.4129226, 35.4409933], [-97.4129856, 35.4410428], [-97.4129996, 35.4410295], [-97.4130743, 35.4410923], [-97.4132565, 35.4412007], [-97.4134386, 35.4412939], [-97.4136581, 35.4413833]]]}, "properties": {"osm_id": 481133179, "building": "college", "name": "", "height": null, "height_m": null, "levels": null, "tract_id": "40109107601", "tract_name": "1076.01", "tags": {"building": "college"}}}, {"type": "Feature", "geometry": {"type": "Polygon", "coordinates": [[[-97.4135009, 35.439097], [-97.4135761, 35.4390175], [-97.4135242, 35.4389808], [-97.4134826, 35.4389513], [-97.4134013, 35.4390275], [-97.413442, 35.4390559], [-97.4135009, 35.439097]]]}, "properties": {"osm_id": 481133180, "building": "yes", "name": "", "height": null, "height_m": null, "levels": null, "tract_id": "40109107601", "tract_name": "1076.01", "tags": {"building": "yes"}}}, {"type": "Feature", "geometry": {"type": "Polygon", "coordinates": [[[-97.4126856, 35.4384877], [-97.4127703, 35.4384112], [-97.4126626, 35.4383287], [-97.4125362, 35.4382317], [-97.4125782, 35.4381953], [-97.4124961, 35.4381347], [-97.4125161, 35.438115], [-97.4124299, 35.438051], [-97.4124063, 35.4380736], [-97.4122466, 35.4379581], [-97.4122157, 35.4379882], [-97.4121849, 35.4379644], [-97.4121156, 35.4380346], [-97.4121449, 35.4380543], [-97.4120725, 35.43812], [-97.4122296, 35.4382304], [-97.4121849, 35.4382656], [-97.4123113, 35.4383547], [-97.4122953, 35.4383694], [-97.4123498, 35.4384099], [-97.4124468, 35.4383145], [-97.412583, 35.4384133], [-97.4126856, 35.4384877]]]}, "properties": {"osm_id": 481133181, "building": "yes", "name": "TFCU", "height": null, "height_m": null, "levels": null, "tract_id": "40109107601", "tract_name": "1076.01", "tags": {"addr:city": "Midwest City", "addr:housenumber": "6501", "addr:postcode": "73110", "addr:state": "OK", "addr:street": "Tinker Diagonal", "amenity": "bank", "building": "yes", "name": "TFCU"}}}, {"type": "Feature", "geometry": {"type": "Polygon", "coordinates": [[[-97.4114278, 35.4372982], [-97.4114278, 35.437155], [-97.4110979, 35.4371572], [-97.4110965, 35.4372982], [-97.4114278, 35.4372982]]]}, "properties": {"osm_id": 481133199, "building": "yes", "name": "", "height": null, "height_m": null, "levels": null, "tract_id": "40109107601", "tract_name": "1076.01", "tags": {"building": "yes"}}}, {"type": "Feature", "geometry": {"type": "Polygon", "coordinates": [[[-97.4110362, 35.4373004], [-97.4110362, 35.4371594], [-97.4107036, 35.4371583], [-97.4107076, 35.4372982], [-97.4110362, 35.4373004]]]}, "properties": {"osm_id": 481133200, "building": "yes", "name": "", "height": null, "height_m": null, "levels": null, "tract_id": "40109107601", "tract_name": "1076.01", "tags": {"building": "yes"}}}, {"type": "Feature", "geometry": {"type": "Polygon", "coordinates": [[[-97.4108136, 35.4368862], [-97.4109678, 35.4367671], [-97.4107492, 35.4365847], [-97.4105977, 35.4367103], [-97.4108136, 35.4368862]]]}, "properties": {"osm_id": 481133201, "building": "yes", "name": "", "height": null, "height_m": null, "levels": null, "tract_id": "40109107601", "tract_name": "1076.01", "tags": {"building": "yes"}}}, {"type": "Feature", "geometry": {"type": "Polygon", "coordinates": [[[-97.4111968, 35.4381938], [-97.4111927, 35.4380791], [-97.4109943, 35.4380802], [-97.4109983, 35.4381938], [-97.4111968, 35.4381938]]]}, "properties": {"osm_id": 481133202, "building": "yes", "name": "", "height": null, "height_m": null, "levels": null, "tract_id": "40109107601", "tract_name": "1076.01", "tags": {"building": "yes"}}}, {"type": "Feature", "geometry": {"type": "Polygon", "coordinates": [[[-97.4108306, 35.4382277], [-97.410828, 35.438007], [-97.4108494, 35.438007], [-97.4108454, 35.4377994], [-97.4106442, 35.4377983], [-97.4106456, 35.438007], [-97.4106214, 35.4380059], [-97.4106228, 35.4382255], [-97.4108306, 35.4382277]]]}, "properties": {"osm_id": 481133203, "building": "yes", "name": "", "height": null, "height_m": null, "levels": null, "tract_id": "40109107601", "tract_name": "1076.01", "tags": {"building": "yes"}}}, {"type": "Feature", "geometry": {"type": "Polygon", "coordinates": [[[-97.4113652, 35.439058], [-97.4113626, 35.4386264], [-97.4119661, 35.4386253], [-97.4119607, 35.438763], [-97.4118333, 35.438763], [-97.4118373, 35.4390864], [-97.4117019, 35.4390875], [-97.4117019, 35.4390537], [-97.4113652, 35.439058]]]}, "properties": {"osm_id": 481133205, "building": "yes", "name": "Planet Bowl", "height": null, "height_m": null, "levels": null, "tract_id": "40109107601", "tract_name": "1076.01", "tags": {"building": "yes", "leisure": "bowling_alley", "name": "Planet Bowl"}}}, {"type": "Feature", "geometry": {"type": "Polygon", "coordinates": [[[-97.4113953, 35.4396174], [-97.411456, 35.4396174], [-97.4114536, 35.439217], [-97.4113976, 35.439217], [-97.4113953, 35.4396174]]]}, "properties": {"osm_id": 481133210, "building": "yes", "name": "", "height": null, "height_m": null, "levels": null, "tract_id": "40109107601", "tract_name": "1076.01", "tags": {"building": "yes"}}}, {"type": "Feature", "geometry": {"type": "Polygon", "coordinates": [[[-97.4113731, 35.4392617], [-97.4113731, 35.439217], [-97.4111688, 35.4392151], [-97.4111711, 35.4392607], [-97.4113731, 35.4392617]]]}, "properties": {"osm_id": 481133211, "building": "yes", "name": "", "height": null, "height_m": null, "levels": null, "tract_id": "40109107601", "tract_name": "1076.01", "tags": {"building": "yes"}}}, {"type": "Feature", "geometry": {"type": "Polygon", "coordinates": [[[-97.4113778, 35.4396184], [-97.4113766, 35.4395737], [-97.4113427, 35.4395727], [-97.4113427, 35.439548], [-97.410599, 35.4395432], [-97.410599, 35.4395603], [-97.4105165, 35.4395591], [-97.4105173, 35.4396155], [-97.4113778, 35.4396184]]]}, "properties": {"osm_id": 481133212, "building": "yes", "name": "", "height": null, "height_m": null, "levels": null, "tract_id": "40109107601", "tract_name": "1076.01", "tags": {"building": "yes"}}}, {"type": "Feature", "geometry": {"type": "Polygon", "coordinates": [[[-97.4113068, 35.4394877], [-97.4113052, 35.4394306], [-97.4106289, 35.4394306], [-97.4106312, 35.4394865], [-97.4113068, 35.4394877]]]}, "properties": {"osm_id": 481133213, "building": "yes", "name": "", "height": null, "height_m": null, "levels": null, "tract_id": "40109107601", "tract_name": "1076.01", "tags": {"building": "yes"}}}, {"type": "Feature", "geometry": {"type": "Polygon", "coordinates": [[[-97.411306, 35.4393729], [-97.4113044, 35.4393151], [-97.410632, 35.4393164], [-97.4106312, 35.4393735], [-97.411306, 35.4393729]]]}, "properties": {"osm_id": 481133214, "building": "yes", "name": "", "height": null, "height_m": null, "levels": null, "tract_id": "40109107601", "tract_name": "1076.01", "tags": {"building": "yes"}}}, {"type": "Feature", "geometry": {"type": "Polygon", "coordinates": [[[-97.412145, 35.4410796], [-97.4121427, 35.4409141], [-97.4118998, 35.4409103], [-97.4118975, 35.4410796], [-97.412145, 35.4410796]]]}, "properties": {"osm_id": 481133218, "building": "yes", "name": "", "height": null, "height_m": null, "levels": null, "tract_id": "40109107601", "tract_name": "1076.01", "tags": {"building": "yes"}}}, {"type": "Feature", "geometry": {"type": "Polygon", "coordinates": [[[-97.412089, 35.441266], [-97.4120913, 35.4411272], [-97.411594, 35.4411234], [-97.4115893, 35.4412641], [-97.412089, 35.441266]]]}, "properties": {"osm_id": 481133219, "building": "yes", "name": "", "height": null, "height_m": null, "levels": null, "tract_id": "40109107601", "tract_name": "1076.01", "tags": {"building": "yes"}}}, {"type": "Feature", "geometry": {"type": "Polygon", "coordinates": [[[-97.4109495, 35.4411785], [-97.4109472, 35.4407638], [-97.4107674, 35.4407638], [-97.4107744, 35.4411766], [-97.4109495, 35.4411785]]]}, "properties": {"osm_id": 481133220, "building": "yes", "name": "", "height": null, "height_m": null, "levels": null, "tract_id": "40109107601", "tract_name": "1076.01", "tags": {"building": "yes"}}}, {"type": "Feature", "geometry": {"type": "Polygon", "coordinates": [[[-97.4113791, 35.4408894], [-97.4113791, 35.4407201], [-97.4110055, 35.4407163], [-97.4110055, 35.4408856], [-97.4113791, 35.4408894]]]}, "properties": {"osm_id": 481133221, "building": "yes", "name": "", "height": null, "height_m": null, "levels": null, "tract_id": "40109107601", "tract_name": "1076.01", "tags": {"building": "yes"}}}, {"type": "Feature", "geometry": {"type": "Polygon", "coordinates": [[[-97.4115893, 35.4408837], [-97.4115846, 35.4407334], [-97.4114282, 35.4407334], [-97.4114282, 35.4408818], [-97.4115893, 35.4408837]]]}, "properties": {"osm_id": 481133222, "building": "yes", "name": "", "height": null, "height_m": null, "levels": null, "tract_id": "40109107601", "tract_name": "1076.01", "tags": {"building": "yes"}}}, {"type": "Feature", "geometry": {"type": "Polygon", "coordinates": [[[-97.4115216, 35.4404233], [-97.4115192, 35.4403377], [-97.4113675, 35.4403377], [-97.4113698, 35.4404233], [-97.4115216, 35.4404233]]]}, "properties": {"osm_id": 481133223, "building": "yes", "name": "", "height": null, "height_m": null, "levels": null, "tract_id": "40109107601", "tract_name": "1076.01", "tags": {"building": "yes"}}}, {"type": "Feature", "geometry": {"type": "Polygon", "coordinates": [[[-97.4110196, 35.4402378], [-97.4110172, 35.4400723], [-97.4107744, 35.4400685], [-97.410772, 35.4402378], [-97.4110196, 35.4402378]]]}, "properties": {"osm_id": 481133224, "building": "yes", "name": "", "height": null, "height_m": null, "levels": null, "tract_id": "40109107601", "tract_name": "1076.01", "tags": {"building": "yes"}}}, {"type": "Feature", "geometry": {"type": "Polygon", "coordinates": [[[-97.4121415, 35.4408599], [-97.4121439, 35.440721], [-97.4116465, 35.4407172], [-97.4116418, 35.440858], [-97.4121415, 35.4408599]]]}, "properties": {"osm_id": 481133225, "building": "yes", "name": "", "height": null, "height_m": null, "levels": null, "tract_id": "40109107601", "tract_name": "1076.01", "tags": {"building": "yes"}}}, {"type": "Feature", "geometry": {"type": "Polygon", "coordinates": [[[-97.4115064, 35.4412499], [-97.4115087, 35.441111], [-97.4110114, 35.4411072], [-97.4110067, 35.441248], [-97.4115064, 35.4412499]]]}, "properties": {"osm_id": 481133226, "building": "yes", "name": "", "height": null, "height_m": null, "levels": null, "tract_id": "40109107601", "tract_name": "1076.01", "tags": {"building": "yes"}}}, {"type": "Feature", "geometry": {"type": "Polygon", "coordinates": [[[-97.4120715, 35.4404737], [-97.4120738, 35.4403348], [-97.4115764, 35.440331], [-97.4115718, 35.4404718], [-97.4120715, 35.4404737]]]}, "properties": {"osm_id": 481133227, "building": "yes", "name": "", "height": null, "height_m": null, "levels": null, "tract_id": "40109107601", "tract_name": "1076.01", "tags": {"building": "yes"}}}, {"type": "Feature", "geometry": {"type": "Polygon", "coordinates": [[[-97.4112869, 35.4404509], [-97.4112892, 35.440312], [-97.4107919, 35.4403082], [-97.4107872, 35.440449], [-97.4112869, 35.4404509]]]}, "properties": {"osm_id": 481133228, "building": "yes", "name": "", "height": null, "height_m": null, "levels": null, "tract_id": "40109107601", "tract_name": "1076.01", "tags": {"building": "yes"}}}, {"type": "Feature", "geometry": {"type": "Polygon", "coordinates": [[[-97.4112846, 35.4399962], [-97.4112869, 35.4398573], [-97.4107896, 35.4398535], [-97.4107849, 35.4399943], [-97.4112846, 35.4399962]]]}, "properties": {"osm_id": 481133229, "building": "yes", "name": "", "height": null, "height_m": null, "levels": null, "tract_id": "40109107601", "tract_name": "1076.01", "tags": {"building": "yes"}}}, {"type": "Feature", "geometry": {"type": "Polygon", "coordinates": [[[-97.411894, 35.44], [-97.4118963, 35.4398611], [-97.411399, 35.4398573], [-97.4113943, 35.4399981], [-97.411894, 35.44]]]}, "properties": {"osm_id": 481133230, "building": "yes", "name": "", "height": null, "height_m": null, "levels": null, "tract_id": "40109107601", "tract_name": "1076.01", "tags": {"building": "yes"}}}, {"type": "Feature", "geometry": {"type": "Polygon", "coordinates": [[[-97.4121186, 35.4395293], [-97.4121209, 35.4393904], [-97.4116236, 35.4393866], [-97.4116189, 35.4395274], [-97.4121186, 35.4395293]]]}, "properties": {"osm_id": 481133231, "building": "yes", "name": "", "height": null, "height_m": null, "levels": null, "tract_id": "40109107601", "tract_name": "1076.01", "tags": {"building": "yes"}}}, {"type": "Feature", "geometry": {"type": "Polygon", "coordinates": [[[-97.4121489, 35.4402979], [-97.4121466, 35.4398832], [-97.4119668, 35.4398832], [-97.4119738, 35.440296], [-97.4121489, 35.4402979]]]}, "properties": {"osm_id": 481133232, "building": "yes", "name": "", "height": null, "height_m": null, "levels": null, "tract_id": "40109107601", "tract_name": "1076.01", "tags": {"building": "yes"}}}, {"type": "Feature", "geometry": {"type": "Polygon", "coordinates": [[[-97.4085561, 35.441942], [-97.4085545, 35.441783], [-97.4084261, 35.4417833], [-97.4081851, 35.441784], [-97.4081867, 35.4418251], [-97.4081478, 35.4418257], [-97.4081478, 35.4419411], [-97.4084287, 35.4419417], [-97.4085561, 35.441942]]]}, "properties": {"osm_id": 481137257, "building": "yes", "name": "", "height": null, "height_m": null, "levels": null, "tract_id": "40109107601", "tract_name": "1076.01", "tags": {"amenity": "fire_station", "building": "yes"}}}, {"type": "Feature", "geometry": {"type": "Polygon", "coordinates": [[[-97.4062676, 35.4409482], [-97.406784, 35.4409433], [-97.4067779, 35.44067], [-97.4062676, 35.4406684], [-97.4062676, 35.4409482]]]}, "properties": {"osm_id": 481137258, "building": "retail", "name": "", "height": null, "height_m": null, "levels": null, "tract_id": "40109107601", "tract_name": "1076.01", "tags": {"building": "retail"}}}, {"type": "Feature", "geometry": {"type": "Polygon", "coordinates": [[[-97.4064242, 35.4417498], [-97.4065949, 35.4417514], [-97.4065929, 35.4414732], [-97.4064282, 35.4414749], [-97.4064242, 35.4417498]]]}, "properties": {"osm_id": 481137259, "building": "yes", "name": "", "height": null, "height_m": null, "levels": null, "tract_id": "40109107601", "tract_name": "1076.01", "tags": {"building": "yes"}}}, {"type": "Feature", "geometry": {"type": "Polygon", "coordinates": [[[-97.4071194, 35.4418127], [-97.4073043, 35.4416173], [-97.4072596, 35.4415875], [-97.4073999, 35.4414384], [-97.4073552, 35.4414119], [-97.4075198, 35.441243], [-97.4081703, 35.4412463], [-97.4081662, 35.4413838], [-97.4083471, 35.4413854], [-97.4083471, 35.4408058], [-97.4080138, 35.4408058], [-97.4080138, 35.4408787], [-97.4080443, 35.4408787], [-97.4080422, 35.4409437], [-97.4081662, 35.4409449], [-97.4081642, 35.4412182], [-97.4075361, 35.4412198], [-97.4076438, 35.4411089], [-97.4075747, 35.44106], [-97.4076011, 35.441031], [-97.407532, 35.4409814], [-97.4072962, 35.4412248], [-97.4072535, 35.441195], [-97.4071255, 35.4413424], [-97.4071612, 35.4413704], [-97.4071605, 35.4414436], [-97.4070639, 35.4415485], [-97.4071022, 35.4415747], [-97.406996, 35.4416924], [-97.4070753, 35.4417394], [-97.4070429, 35.4417708], [-97.4071194, 35.4418127]]]}, "properties": {"osm_id": 481137260, "building": "yes", "name": "", "height": null, "height_m": null, "levels": null, "tract_id": "40109107601", "tract_name": "1076.01", "tags": {"amenity": "social_facility", "building": "yes", "social_facility": "group_home", "social_facility:for": "senior"}}}, {"type": "Feature", "geometry": {"type": "Polygon", "coordinates": [[[-97.4066888, 35.4420346], [-97.4066908, 35.4418607], [-97.4065252, 35.4418598], [-97.4065272, 35.4420346], [-97.4066888, 35.4420346]]]}, "properties": {"osm_id": 481137261, "building": "yes", "name": "", "height": null, "height_m": null, "levels": null, "tract_id": "40109107601", "tract_name": "1076.01", "tags": {"building": "yes"}}}, {"type": "Feature", "geometry": {"type": "Polygon", "coordinates": [[[-97.4068973, 35.4370105], [-97.4068938, 35.4368146], [-97.407055, 35.4368136], [-97.4070573, 35.4369144], [-97.4071344, 35.4369135], [-97.4071379, 35.4369877], [-97.4070211, 35.4369877], [-97.4070211, 35.4370105], [-97.4068973, 35.4370105]]]}, "properties": {"osm_id": 481137428, "building": "yes", "name": "", "height": null, "height_m": null, "levels": null, "tract_id": "40109107601", "tract_name": "1076.01", "tags": {"building": "yes"}}}, {"type": "Feature", "geometry": {"type": "Polygon", "coordinates": [[[-97.4077448, 35.436556], [-97.4078739, 35.4365568], [-97.4078742, 35.4364572], [-97.4078748, 35.4362857], [-97.4077023, 35.4362843], [-97.4077032, 35.4363455], [-97.4077439, 35.4363455], [-97.4077444, 35.4364584], [-97.4077448, 35.436556]]]}, "properties": {"osm_id": 481137429, "building": "yes", "name": "", "height": null, "height_m": null, "levels": null, "tract_id": "40109107601", "tract_name": "1076.01", "tags": {"building": "yes"}}}, {"type": "Feature", "geometry": {"type": "Polygon", "coordinates": [[[-97.4078288, 35.436192], [-97.4079456, 35.4361913], [-97.4079421, 35.4360283], [-97.4078279, 35.4360305], [-97.4078288, 35.436192]]]}, "properties": {"osm_id": 481137430, "building": "yes", "name": "", "height": null, "height_m": null, "levels": null, "tract_id": "40109107601", "tract_name": "1076.01", "tags": {"building": "yes"}}}, {"type": "Feature", "geometry": {"type": "Polygon", "coordinates": [[[-97.4072956, 35.4359052], [-97.4074637, 35.4359061], [-97.4074596, 35.4357311], [-97.4073283, 35.4357283], [-97.4073283, 35.435792], [-97.4072926, 35.435792], [-97.4072956, 35.4359052]]]}, "properties": {"osm_id": 481137431, "building": "yes", "name": "", "height": null, "height_m": null, "levels": null, "tract_id": "40109107601", "tract_name": "1076.01", "tags": {"building": "yes"}}}, {"type": "Feature", "geometry": {"type": "Polygon", "coordinates": [[[-97.4079391, 35.4358132], [-97.4081942, 35.435814], [-97.4081942, 35.4355664], [-97.4079401, 35.4355673], [-97.4079391, 35.4358132]]]}, "properties": {"osm_id": 481137432, "building": "yes", "name": "", "height": null, "height_m": null, "levels": null, "tract_id": "40109107601", "tract_name": "1076.01", "tags": {"building": "yes"}}}, {"type": "Feature", "geometry": {"type": "Polygon", "coordinates": [[[-97.4084208, 35.4366936], [-97.4088167, 35.4366949], [-97.4088182, 35.4361828], [-97.4085009, 35.436184], [-97.4084993, 35.4365631], [-97.4084208, 35.4365643], [-97.4084208, 35.4366936]]]}, "properties": {"osm_id": 481137433, "building": "yes", "name": "", "height": null, "height_m": null, "levels": null, "tract_id": "40109107601", "tract_name": "1076.01", "tags": {"building": "yes"}}}, {"type": "Feature", "geometry": {"type": "Polygon", "coordinates": [[[-97.4085612, 35.4356928], [-97.408561, 35.4354756], [-97.4086788, 35.4354756], [-97.408679, 35.4356928], [-97.4085612, 35.4356928]]]}, "properties": {"osm_id": 481137434, "building": "retail", "name": "", "height": null, "height_m": null, "levels": null, "tract_id": "40109107601", "tract_name": "1076.01", "tags": {"amenity": "fast_food", "building": "retail"}}}, {"type": "Feature", "geometry": {"type": "Polygon", "coordinates": [[[-97.4102608, 35.4365986], [-97.410394, 35.4364893], [-97.4103188, 35.4364264], [-97.410393, 35.4363659], [-97.4102253, 35.4362136], [-97.4101836, 35.4362525], [-97.4101077, 35.4361899], [-97.4100982, 35.4361821], [-97.4100413, 35.4362326], [-97.410047, 35.4362377], [-97.4101226, 35.4363047], [-97.4097465, 35.4365995], [-97.4099183, 35.4367469], [-97.4101836, 35.436534], [-97.4102608, 35.4365986]]]}, "properties": {"osm_id": 481137435, "building": "yes", "name": "Best Western Plus", "height": null, "height_m": null, "levels": null, "tract_id": "40109107601", "tract_name": "1076.01", "tags": {"addr:city": "Midwest City", "addr:housenumber": "6701", "addr:postcode": "73110", "addr:state": "OK", "addr:street": "Tinker Diagonal", "branch": "Midwest City Inn & Suites", "brand": "Best Western Plus", "brand:wikidata": "Q830334", "building": "yes", "name": "Best Western Plus", "phone": "+1 405-737-6060", "ref": "37111", "tourism": "hotel", "website": "https://www.bestwestern.com/en_US/book/hotels-in-midwest-city/best-western-plus-midwest-city-inn-suites/propertyCode.37111.html"}}}, {"type": "Feature", "geometry": {"type": "Polygon", "coordinates": [[[-97.4089193, 35.4370195], [-97.4090956, 35.4370176], [-97.4090897, 35.4366971], [-97.4089181, 35.4366942], [-97.4089193, 35.4370195]]]}, "properties": {"osm_id": 481137436, "building": "yes", "name": "", "height": null, "height_m": null, "levels": null, "tract_id": "40109107601", "tract_name": "1076.01", "tags": {"building": "yes", "tourism": "hotel"}}}, {"type": "Feature", "geometry": {"type": "Polygon", "coordinates": [[[-97.4101125, 35.4369126], [-97.4101098, 35.4368023], [-97.4099974, 35.436803], [-97.4099974, 35.4368218], [-97.4093639, 35.4368218], [-97.4093604, 35.4365824], [-97.4094046, 35.4365824], [-97.4094046, 35.4364902], [-97.4091958, 35.4364902], [-97.4091958, 35.4358615], [-97.4089976, 35.4358558], [-97.4089976, 35.4359452], [-97.4090808, 35.4359466], [-97.4090808, 35.4365824], [-97.4092471, 35.436581], [-97.4092454, 35.4369112], [-97.4101125, 35.4369126]]]}, "properties": {"osm_id": 481137437, "building": "yes", "name": "Travelers Inn Midwest City", "height": null, "height_m": null, "levels": null, "tract_id": "40109107601", "tract_name": "1076.01", "tags": {"addr:city": "Midwest City", "addr:housenumber": "6821", "addr:postcode": "73110", "addr:state": "OK", "addr:street": "Southeast 29th Street Trail", "building": "yes", "name": "Travelers Inn Midwest City", "tourism": "hotel"}}}, {"type": "Feature", "geometry": {"type": "Polygon", "coordinates": [[[-97.4102714, 35.4372787], [-97.4102725, 35.4371789], [-97.4099993, 35.4371779], [-97.4100005, 35.4372768], [-97.4102714, 35.4372787]]]}, "properties": {"osm_id": 481137438, "building": "yes", "name": "", "height": null, "height_m": null, "levels": null, "tract_id": "40109107601", "tract_name": "1076.01", "tags": {"building": "yes"}}}, {"type": "Feature", "geometry": {"type": "Polygon", "coordinates": [[[-97.4099363, 35.4372626], [-97.4099386, 35.4371389], [-97.4095475, 35.4371284], [-97.409544, 35.4372531], [-97.4099363, 35.4372626]]]}, "properties": {"osm_id": 481137439, "building": "yes", "name": "", "height": null, "height_m": null, "levels": null, "tract_id": "40109107601", "tract_name": "1076.01", "tags": {"building": "yes"}}}, {"type": "Feature", "geometry": {"type": "Polygon", "coordinates": [[[-97.4097253, 35.4359358], [-97.4095079, 35.4358435], [-97.4093986, 35.4360145], [-97.4096159, 35.4361068], [-97.4097253, 35.4359358]]]}, "properties": {"osm_id": 481137485, "building": "yes", "name": "On The Border", "height": null, "height_m": null, "levels": null, "tract_id": "40109107601", "tract_name": "1076.01", "tags": {"addr:city": "Midwest City", "addr:housenumber": "433", "addr:postcode": "73110", "addr:state": "OK", "addr:street": "Planet Court", "amenity": "restaurant", "brand": "On The Border", "brand:wikidata": "Q7091305", "building": "yes", "cuisine": "tex-mex", "name": "On The Border", "official_name": "On The Border Mexican Grill & Cantina"}}}, {"type": "Feature", "geometry": {"type": "Polygon", "coordinates": [[[-97.4187438, 35.446389], [-97.4187438, 35.4462235], [-97.4187239, 35.4457974], [-97.418585, 35.4457936], [-97.4184624, 35.4458069], [-97.4184519, 35.4462273], [-97.4184706, 35.4463966], [-97.418606, 35.4464014], [-97.4187438, 35.446389]]]}, "properties": {"osm_id": 484798182, "building": "house", "name": "", "height": null, "height_m": null, "levels": null, "tract_id": "40109107601", "tract_name": "1076.01", "tags": {"building": "house"}}}, {"type": "Feature", "geometry": {"type": "Polygon", "coordinates": [[[-97.4181693, 35.4466972], [-97.418167, 35.4457708], [-97.4178751, 35.4457689], [-97.4178728, 35.4466991], [-97.4181693, 35.4466972]]]}, "properties": {"osm_id": 484798183, "building": "house", "name": "", "height": null, "height_m": null, "levels": null, "tract_id": "40109107601", "tract_name": "1076.01", "tags": {"building": "house"}}}, {"type": "Feature", "geometry": {"type": "Polygon", "coordinates": [[[-97.4190893, 35.4466401], [-97.4189492, 35.4466458], [-97.4189399, 35.446526], [-97.4190987, 35.4465298], [-97.4190893, 35.4466401]]]}, "properties": {"osm_id": 484798184, "building": "house", "name": "", "height": null, "height_m": null, "levels": null, "tract_id": "40109107601", "tract_name": "1076.01", "tags": {"building": "house"}}}, {"type": "Feature", "geometry": {"type": "Polygon", "coordinates": [[[-97.418146, 35.44738], [-97.4181343, 35.4472317], [-97.4179218, 35.4470833], [-97.4178518, 35.4472412], [-97.4178308, 35.4473781], [-97.418146, 35.44738]]]}, "properties": {"osm_id": 484798185, "building": "house", "name": "", "height": null, "height_m": null, "levels": null, "tract_id": "40109107601", "tract_name": "1076.01", "tags": {"building": "house"}}}, {"type": "Feature", "geometry": {"type": "Polygon", "coordinates": [[[-97.4178214, 35.4455235], [-97.4178098, 35.4452572], [-97.4173568, 35.4452629], [-97.4173614, 35.4455349], [-97.4178214, 35.4455235]]]}, "properties": {"osm_id": 484798186, "building": "house", "name": "", "height": null, "height_m": null, "levels": null, "tract_id": "40109107601", "tract_name": "1076.01", "tags": {"building": "house"}}}, {"type": "Feature", "geometry": {"type": "Polygon", "coordinates": [[[-97.4071179, 35.4493946], [-97.4071221, 35.4492312], [-97.4071627, 35.4492323], [-97.4071789, 35.4492322], [-97.407181, 35.4491544], [-97.4071622, 35.449154], [-97.4071201, 35.4491534], [-97.4071218, 35.4490858], [-97.4066678, 35.4490779], [-97.4066657, 35.4491589], [-97.4066532, 35.4491587], [-97.406647, 35.4493941], [-97.4067047, 35.4493951], [-97.4069514, 35.4493994], [-97.4069516, 35.4493917], [-97.4071179, 35.4493946]]]}, "properties": {"osm_id": 488146870, "building": "yes", "name": "Walgreens", "height": null, "height_m": null, "levels": null, "tract_id": "40109107601", "tract_name": "1076.01", "tags": {"brand": "Walgreens", "brand:wikidata": "Q1591889", "building": "yes", "name": "Walgreens", "shop": "chemist", "website": "https://www.walgreens.com/locator/walgreens-1601+s+air+depot+blvd-midwest+city-ok-73110/id=5967"}}}, {"type": "Feature", "geometry": {"type": "Polygon", "coordinates": [[[-97.407119, 35.4490628], [-97.4071143, 35.4488495], [-97.4071025, 35.4488377], [-97.4071036, 35.4487591], [-97.4070789, 35.4487366], [-97.4068309, 35.4487366], [-97.4068309, 35.4487516], [-97.4067138, 35.4487516], [-97.4067153, 35.448847], [-97.4066691, 35.4488834], [-97.4066691, 35.4490039], [-97.406837, 35.4490026], [-97.406837, 35.4490164], [-97.407025, 35.4490152], [-97.4070435, 35.4490013], [-97.407119, 35.4490628]]]}, "properties": {"osm_id": 488146871, "building": "yes", "name": "AutoZone", "height": null, "height_m": null, "levels": null, "tract_id": "40109107601", "tract_name": "1076.01", "tags": {"building": "yes", "name": "AutoZone", "shop": "car_parts"}}}, {"type": "Feature", "geometry": {"type": "Polygon", "coordinates": [[[-97.4066854, 35.4485512], [-97.4066866, 35.4478806], [-97.4065722, 35.4478806], [-97.4065733, 35.4479225], [-97.4065617, 35.4479215], [-97.4065617, 35.4485141], [-97.4065757, 35.4485141], [-97.4065768, 35.4485512], [-97.4066854, 35.4485512]]]}, "properties": {"osm_id": 488146872, "building": "yes", "name": "", "height": null, "height_m": null, "levels": null, "tract_id": "40109107601", "tract_name": "1076.01", "tags": {"building": "yes"}}}, {"type": "Feature", "geometry": {"type": "Polygon", "coordinates": [[[-97.4065313, 35.4478312], [-97.4066959, 35.4478302], [-97.4066959, 35.4475687], [-97.4065301, 35.4475687], [-97.4065313, 35.4478312]]]}, "properties": {"osm_id": 488146873, "building": "yes", "name": "", "height": null, "height_m": null, "levels": null, "tract_id": "40109107601", "tract_name": "1076.01", "tags": {"building": "yes"}}}, {"type": "Feature", "geometry": {"type": "Polygon", "coordinates": [[[-97.406522, 35.4473414], [-97.4066947, 35.4473414], [-97.4066947, 35.4467916], [-97.4065266, 35.4467907], [-97.406522, 35.4473414]]]}, "properties": {"osm_id": 488146874, "building": "yes", "name": "", "height": null, "height_m": null, "levels": null, "tract_id": "40109107601", "tract_name": "1076.01", "tags": {"building": "yes"}}}, {"type": "Feature", "geometry": {"type": "Polygon", "coordinates": [[[-97.4063772, 35.4467117], [-97.4065687, 35.4467136], [-97.4065687, 35.4465948], [-97.406376, 35.4465929], [-97.4063772, 35.4467117]]]}, "properties": {"osm_id": 488146875, "building": "yes", "name": "", "height": null, "height_m": null, "levels": null, "tract_id": "40109107601", "tract_name": "1076.01", "tags": {"building": "yes"}}}, {"type": "Feature", "geometry": {"type": "Polygon", "coordinates": [[[-97.4064052, 35.446532], [-97.4065231, 35.4465329], [-97.4065231, 35.4463712], [-97.4064052, 35.4463712], [-97.4064052, 35.4463827], [-97.406383, 35.4463836], [-97.4063842, 35.4465158], [-97.406404, 35.4465168], [-97.4064052, 35.446532]]]}, "properties": {"osm_id": 488146876, "building": "yes", "name": "", "height": null, "height_m": null, "levels": null, "tract_id": "40109107601", "tract_name": "1076.01", "tags": {"building": "yes"}}}, {"type": "Feature", "geometry": {"type": "Polygon", "coordinates": [[[-97.4063924, 35.4463123], [-97.4065453, 35.4463104], [-97.4065453, 35.4461706], [-97.4065955, 35.4461706], [-97.4065932, 35.4459784], [-97.4063889, 35.4459784], [-97.4063924, 35.4463123]]]}, "properties": {"osm_id": 488146877, "building": "yes", "name": "", "height": null, "height_m": null, "levels": null, "tract_id": "40109107601", "tract_name": "1076.01", "tags": {"building": "yes"}}}, {"type": "Feature", "geometry": {"type": "Polygon", "coordinates": [[[-97.4062969, 35.4459359], [-97.4063915, 35.4459359], [-97.4063898, 35.4457038], [-97.4063446, 35.4457038], [-97.4063446, 35.4456952], [-97.4062588, 35.4456959], [-97.406257, 35.4457983], [-97.4062977, 35.445799], [-97.4062969, 35.4459359]]]}, "properties": {"osm_id": 488146878, "building": "yes", "name": "", "height": null, "height_m": null, "levels": null, "tract_id": "40109107601", "tract_name": "1076.01", "tags": {"building": "yes"}}}, {"type": "Feature", "geometry": {"type": "Polygon", "coordinates": [[[-97.4063738, 35.445422], [-97.4065756, 35.4454198], [-97.4065773, 35.4452122], [-97.4063756, 35.4452122], [-97.4063738, 35.445422]]]}, "properties": {"osm_id": 488146879, "building": "yes", "name": "", "height": null, "height_m": null, "levels": null, "tract_id": "40109107601", "tract_name": "1076.01", "tags": {"building": "yes"}}}, {"type": "Feature", "geometry": {"type": "Polygon", "coordinates": [[[-97.4063482, 35.4451784], [-97.4069932, 35.4451755], [-97.4069923, 35.4450767], [-97.4067313, 35.4450753], [-97.4067322, 35.445045], [-97.40658, 35.4450457], [-97.4065791, 35.4450753], [-97.4063464, 35.4450767], [-97.4063482, 35.4451784]]]}, "properties": {"osm_id": 488146880, "building": "yes", "name": "", "height": null, "height_m": null, "levels": null, "tract_id": "40109107601", "tract_name": "1076.01", "tags": {"building": "yes"}}}, {"type": "Feature", "geometry": {"type": "Polygon", "coordinates": [[[-97.4063924, 35.4449052], [-97.4066366, 35.4449037], [-97.4066331, 35.4446262], [-97.4064968, 35.4446262], [-97.4064951, 35.4447898], [-97.4063951, 35.4447898], [-97.4063924, 35.4449052]]]}, "properties": {"osm_id": 488146881, "building": "yes", "name": "", "height": null, "height_m": null, "levels": null, "tract_id": "40109107601", "tract_name": "1076.01", "tags": {"building": "yes"}}}, {"type": "Feature", "geometry": {"type": "Polygon", "coordinates": [[[-97.4063438, 35.4447163], [-97.4064331, 35.444717], [-97.4064314, 35.4446428], [-97.4063438, 35.4446421], [-97.4063438, 35.4447163]]]}, "properties": {"osm_id": 488146882, "building": "yes", "name": "", "height": null, "height_m": null, "levels": null, "tract_id": "40109107601", "tract_name": "1076.01", "tags": {"building": "yes"}}}, {"type": "Feature", "geometry": {"type": "Polygon", "coordinates": [[[-97.4063163, 35.4445815], [-97.4065154, 35.4445808], [-97.4065172, 35.4444503], [-97.4064897, 35.4444503], [-97.4064862, 35.4444691], [-97.406319, 35.4444676], [-97.4063163, 35.4445815]]]}, "properties": {"osm_id": 488146883, "building": "yes", "name": "", "height": null, "height_m": null, "levels": null, "tract_id": "40109107601", "tract_name": "1076.01", "tags": {"building": "yes"}}}, {"type": "Feature", "geometry": {"type": "Polygon", "coordinates": [[[-97.4067476, 35.4436733], [-97.4070212, 35.4436712], [-97.4070172, 35.4435062], [-97.4067409, 35.4435051], [-97.4067476, 35.4436733]]]}, "properties": {"osm_id": 488146884, "building": "yes", "name": "", "height": null, "height_m": null, "levels": null, "tract_id": "40109107601", "tract_name": "1076.01", "tags": {"building": "yes"}}}, {"type": "Feature", "geometry": {"type": "Polygon", "coordinates": [[[-97.4062943, 35.443964], [-97.4065424, 35.443964], [-97.4065397, 35.4437138], [-97.4064888, 35.4437127], [-97.4064874, 35.4436329], [-97.4062836, 35.443634], [-97.4062943, 35.443964]]]}, "properties": {"osm_id": 488146885, "building": "yes", "name": "", "height": null, "height_m": null, "levels": null, "tract_id": "40109107601", "tract_name": "1076.01", "tags": {"building": "yes"}}}, {"type": "Feature", "geometry": {"type": "Polygon", "coordinates": [[[-97.4062729, 35.4429595], [-97.4064978, 35.442957], [-97.4064963, 35.442824], [-97.4063853, 35.4428227], [-97.4063838, 35.4426897], [-97.4064223, 35.4426897], [-97.4064223, 35.4425554], [-97.4062698, 35.4425541], [-97.4062729, 35.4429595]]]}, "properties": {"osm_id": 488146886, "building": "yes", "name": "", "height": null, "height_m": null, "levels": null, "tract_id": "40109107601", "tract_name": "1076.01", "tags": {"building": "yes"}}}, {"type": "Feature", "geometry": {"type": "Polygon", "coordinates": [[[-97.4068003, 35.4432392], [-97.406966, 35.4432392], [-97.406966, 35.4430405], [-97.4068013, 35.443043], [-97.4068003, 35.4432392]]]}, "properties": {"osm_id": 488146887, "building": "yes", "name": "", "height": null, "height_m": null, "levels": null, "tract_id": "40109107601", "tract_name": "1076.01", "tags": {"building": "yes"}}}, {"type": "Feature", "geometry": {"type": "Polygon", "coordinates": [[[-97.4064873, 35.4432931], [-97.4066499, 35.443115], [-97.4065432, 35.4430438], [-97.4064182, 35.443178], [-97.4064365, 35.4431904], [-97.4063958, 35.4432351], [-97.4064873, 35.4432931]]]}, "properties": {"osm_id": 488146888, "building": "yes", "name": "", "height": null, "height_m": null, "levels": null, "tract_id": "40109107601", "tract_name": "1076.01", "tags": {"building": "yes"}}}, {"type": "Feature", "geometry": {"type": "Polygon", "coordinates": [[[-97.4073507, 35.4437006], [-97.4074818, 35.4437014], [-97.4074788, 35.443511], [-97.4073517, 35.4435085], [-97.4073507, 35.4437006]]]}, "properties": {"osm_id": 488146889, "building": "yes", "name": "", "height": null, "height_m": null, "levels": null, "tract_id": "40109107601", "tract_name": "1076.01", "tags": {"building": "yes"}}}, {"type": "Feature", "geometry": {"type": "Polygon", "coordinates": [[[-97.4076038, 35.4438372], [-97.4077014, 35.4438372], [-97.4077014, 35.4437255], [-97.4076058, 35.4437255], [-97.4076038, 35.4438372]]]}, "properties": {"osm_id": 488146890, "building": "yes", "name": "", "height": null, "height_m": null, "levels": null, "tract_id": "40109107601", "tract_name": "1076.01", "tags": {"building": "yes"}}}, {"type": "Feature", "geometry": {"type": "Polygon", "coordinates": [[[-97.4080327, 35.4442844], [-97.4081689, 35.4442835], [-97.4081669, 35.4441494], [-97.4080337, 35.4441502], [-97.4080327, 35.4442844]]]}, "properties": {"osm_id": 488146891, "building": "yes", "name": "", "height": null, "height_m": null, "levels": null, "tract_id": "40109107601", "tract_name": "1076.01", "tags": {"building": "yes"}}}, {"type": "Feature", "geometry": {"type": "Polygon", "coordinates": [[[-97.407365, 35.4442579], [-97.4076099, 35.4442579], [-97.4076119, 35.4441568], [-97.4075276, 35.4441585], [-97.4075296, 35.4440724], [-97.4075692, 35.4440724], [-97.4075692, 35.4440326], [-97.4073202, 35.4440335], [-97.4073233, 35.4440972], [-97.4073639, 35.4440972], [-97.407365, 35.4442579]]]}, "properties": {"osm_id": 488146892, "building": "yes", "name": "", "height": null, "height_m": null, "levels": null, "tract_id": "40109107601", "tract_name": "1076.01", "tags": {"building": "yes"}}}, {"type": "Feature", "geometry": {"type": "Polygon", "coordinates": [[[-97.4076702, 35.4451703], [-97.4081771, 35.4451659], [-97.4081758, 35.4451189], [-97.4079706, 35.4451211], [-97.4079692, 35.4451014], [-97.4076688, 35.4451036], [-97.4076702, 35.4451703]]]}, "properties": {"osm_id": 488146893, "building": "yes", "name": "", "height": null, "height_m": null, "levels": null, "tract_id": "40109107601", "tract_name": "1076.01", "tags": {"building": "yes"}}}, {"type": "Feature", "geometry": {"type": "Polygon", "coordinates": [[[-97.407359, 35.4451692], [-97.4075213, 35.445167], [-97.4075186, 35.4450239], [-97.4073577, 35.445026], [-97.407359, 35.4451692]]]}, "properties": {"osm_id": 488146894, "building": "yes", "name": "", "height": null, "height_m": null, "levels": null, "tract_id": "40109107601", "tract_name": "1076.01", "tags": {"building": "yes"}}}, {"type": "Feature", "geometry": {"type": "Polygon", "coordinates": [[[-97.4079635, 35.4450173], [-97.4080349, 35.4450184], [-97.4080349, 35.4450075], [-97.4081825, 35.4450086], [-97.4081798, 35.4445672], [-97.4080752, 35.4445694], [-97.4080752, 35.4448512], [-97.4080309, 35.4448512], [-97.4080304, 35.4448675], [-97.4080101, 35.4448675], [-97.4080101, 35.4449086], [-97.4079835, 35.4449086], [-97.4079835, 35.4448523], [-97.4077986, 35.4448516], [-97.4077977, 35.4448177], [-97.4073474, 35.4448192], [-97.4073491, 35.4449042], [-97.4077933, 35.4448992], [-97.4077933, 35.4449071], [-97.4079623, 35.4449064], [-97.4079635, 35.4450173]]]}, "properties": {"osm_id": 488146895, "building": "yes", "name": "", "height": null, "height_m": null, "levels": null, "tract_id": "40109107601", "tract_name": "1076.01", "tags": {"building": "yes"}}}, {"type": "Feature", "geometry": {"type": "Polygon", "coordinates": [[[-97.4074783, 35.4446757], [-97.4074748, 35.4445784], [-97.4079579, 35.4445712], [-97.4079579, 35.4446707], [-97.4078676, 35.4446707], [-97.4078685, 35.4446866], [-97.4078145, 35.4446866], [-97.4078137, 35.44467], [-97.4076252, 35.4446714], [-97.4076261, 35.4446887], [-97.4075739, 35.4446894], [-97.4075739, 35.4446743], [-97.4074783, 35.4446757]]]}, "properties": {"osm_id": 488146896, "building": "yes", "name": "", "height": null, "height_m": null, "levels": null, "tract_id": "40109107601", "tract_name": "1076.01", "tags": {"building": "yes"}}}, {"type": "Feature", "geometry": {"type": "Polygon", "coordinates": [[[-97.410254, 35.4379414], [-97.4099068, 35.4379419], [-97.4099066, 35.437877], [-97.4102539, 35.4378766], [-97.410254, 35.4379414]]]}, "properties": {"osm_id": 493743910, "building": "apartments", "name": "", "height": null, "height_m": null, "levels": null, "tract_id": "40109107601", "tract_name": "1076.01", "tags": {"building": "apartments"}}}, {"type": "Feature", "geometry": {"type": "Polygon", "coordinates": [[[-97.4098772, 35.4379448], [-97.4094356, 35.4379434], [-97.4094359, 35.4378808], [-97.4098775, 35.4378822], [-97.4098772, 35.4379448]]]}, "properties": {"osm_id": 493743911, "building": "apartments", "name": "", "height": null, "height_m": null, "levels": null, "tract_id": "40109107601", "tract_name": "1076.01", "tags": {"building": "apartments"}}}, {"type": "Feature", "geometry": {"type": "Polygon", "coordinates": [[[-97.4094024, 35.437943], [-97.4090467, 35.4379434], [-97.4090466, 35.4378823], [-97.4094023, 35.4378819], [-97.4094024, 35.437943]]]}, "properties": {"osm_id": 493743912, "building": "apartments", "name": "", "height": null, "height_m": null, "levels": null, "tract_id": "40109107601", "tract_name": "1076.01", "tags": {"building": "apartments"}}}, {"type": "Feature", "geometry": {"type": "Polygon", "coordinates": [[[-97.4081045, 35.4378046], [-97.4085091, 35.4378414], [-97.4085005, 35.437904], [-97.4080959, 35.4378672], [-97.4081045, 35.4378046]]]}, "properties": {"osm_id": 493743913, "building": "apartments", "name": "", "height": null, "height_m": null, "levels": null, "tract_id": "40109107601", "tract_name": "1076.01", "tags": {"building": "apartments"}}}, {"type": "Feature", "geometry": {"type": "Polygon", "coordinates": [[[-97.408545, 35.4378486], [-97.4089848, 35.4378833], [-97.4089773, 35.4379465], [-97.4085375, 35.4379119], [-97.408545, 35.4378486]]]}, "properties": {"osm_id": 493743914, "building": "apartments", "name": "", "height": null, "height_m": null, "levels": null, "tract_id": "40109107601", "tract_name": "1076.01", "tags": {"building": "apartments"}}}, {"type": "Feature", "geometry": {"type": "Polygon", "coordinates": [[[-97.4167375, 35.4453817], [-97.4167358, 35.4452164], [-97.4166102, 35.4452172], [-97.4166119, 35.4453826], [-97.4167375, 35.4453817]]]}, "properties": {"osm_id": 497377954, "building": "detached", "name": "", "height": null, "height_m": null, "levels": null, "tract_id": "40109107601", "tract_name": "1076.01", "tags": {"building": "detached"}}}, {"type": "Feature", "geometry": {"type": "Polygon", "coordinates": [[[-97.4195166, 35.4451907], [-97.4192947, 35.4451901], [-97.4192961, 35.4447827], [-97.4198647, 35.444784], [-97.419864, 35.4449978], [-97.4195913, 35.4449972], [-97.4195913, 35.4449777], [-97.4195174, 35.4449775], [-97.4195166, 35.4451907]]]}, "properties": {"osm_id": 1206793015, "building": "yes", "name": "Home2 Suites", "height": null, "height_m": null, "levels": null, "tract_id": "40109107601", "tract_name": "1076.01", "tags": {"addr:city": "Midwest City", "addr:housenumber": "1820", "addr:postcode": "73110", "addr:state": "OK", "addr:street": "Warren Drive", "branch": "OKC Midwest City Tinker AFB", "brand": "Home2 Suites", "brand:wikidata": "Q5887912", "building": "yes", "name": "Home2 Suites", "official_name": "Home2 Suites by Hilton", "phone": "+1 405-610-6994", "ref": "OKCMCHT", "tourism": "hotel", "website": "https://www.hilton.com/en/hotels/okcmcht-home2-suites-okc-midwest-city-tinker-afb/"}}}, {"type": "Feature", "geometry": {"type": "Polygon", "coordinates": [[[-97.4151938, 35.4444871], [-97.4151837, 35.444195], [-97.4152632, 35.4441764], [-97.4152442, 35.4440866], [-97.4152942, 35.4440226], [-97.4153766, 35.4439944], [-97.4153494, 35.4434976], [-97.4154122, 35.4434979], [-97.4154292, 35.4435378], [-97.4154504, 35.4435353], [-97.4155243, 35.4435352], [-97.4156516, 35.443727], [-97.4157223, 35.4439104], [-97.4157444, 35.4440648], [-97.4157405, 35.4442309], [-97.4157161, 35.4443024], [-97.4156689, 35.4444401], [-97.4155938, 35.4444437], [-97.4155944, 35.4444862], [-97.4154945, 35.444486], [-97.4154993, 35.4445504], [-97.4154147, 35.4445526], [-97.4154168, 35.4445298], [-97.4153039, 35.444529], [-97.415299, 35.4444866], [-97.4151938, 35.4444871]]]}, "properties": {"osm_id": 1216509901, "building": "yes", "name": "", "height": null, "height_m": null, "levels": null, "tract_id": "40109107601", "tract_name": "1076.01", "tags": {"building": "yes"}}}, {"type": "Feature", "geometry": {"type": "Polygon", "coordinates": [[[-97.4160203, 35.4469404], [-97.4160194, 35.4468223], [-97.4160596, 35.4468221], [-97.4160594, 35.4468067], [-97.4159938, 35.4468071], [-97.4159922, 35.4466527], [-97.4160501, 35.4466523], [-97.4160496, 35.4466057], [-97.4160265, 35.4465921], [-97.4160288, 35.4465129], [-97.4159193, 35.4465108], [-97.4159186, 35.4465359], [-97.4158407, 35.4465344], [-97.4158398, 35.4465634], [-97.4158003, 35.4465627], [-97.4157994, 35.4465938], [-97.4157471, 35.4465928], [-97.4157456, 35.4466463], [-97.415798, 35.4466473], [-97.4157964, 35.446704], [-97.4158298, 35.4467046], [-97.4158285, 35.4467504], [-97.4158, 35.4467595], [-97.4158002, 35.4468155], [-97.4157636, 35.4468156], [-97.4157637, 35.4468501], [-97.4158096, 35.4468499], [-97.4158098, 35.4468897], [-97.4158485, 35.4468896], [-97.4158486, 35.446917], [-97.4159361, 35.4469167], [-97.4159363, 35.4469409], [-97.4160203, 35.4469404]]]}, "properties": {"osm_id": 1216517382, "building": "yes", "name": "", "height": null, "height_m": null, "levels": null, "tract_id": "40109107601", "tract_name": "1076.01", "tags": {"building": "yes"}}}, {"type": "Feature", "geometry": {"type": "Polygon", "coordinates": [[[-97.4156247, 35.4466437], [-97.4156225, 35.4465726], [-97.4156522, 35.446572], [-97.4156488, 35.4464617], [-97.4155404, 35.4464639], [-97.4155412, 35.4464901], [-97.4154947, 35.446491], [-97.4154632, 35.4464863], [-97.41541, 35.4464988], [-97.4153725, 35.4464988], [-97.4153066, 35.4464799], [-97.4153065, 35.446453], [-97.4151151, 35.4464534], [-97.4151156, 35.4466121], [-97.4151382, 35.4466121], [-97.4151383, 35.446639], [-97.4151727, 35.4466389], [-97.4151727, 35.4466559], [-97.4152152, 35.4466559], [-97.4152153, 35.4466957], [-97.4152754, 35.4466956], [-97.4152753, 35.4466586], [-97.4153153, 35.4466585], [-97.4153246, 35.4466452], [-97.4153543, 35.4466457], [-97.4153547, 35.44663], [-97.4154166, 35.446631], [-97.4154162, 35.4466484], [-97.415495, 35.4466496], [-97.4154941, 35.4466865], [-97.4155389, 35.4466873], [-97.4155395, 35.4466596], [-97.4155633, 35.44666], [-97.4155689, 35.4466449], [-97.4156247, 35.4466437]]]}, "properties": {"osm_id": 1216518751, "building": "yes", "name": "", "height": null, "height_m": null, "levels": null, "tract_id": "40109107601", "tract_name": "1076.01", "tags": {"building": "yes"}}}, {"type": "Feature", "geometry": {"type": "Polygon", "coordinates": [[[-97.4184804, 35.4490542], [-97.4184707, 35.4488429], [-97.4185867, 35.4488443], [-97.4185899, 35.4490568], [-97.4184804, 35.4490542]]]}, "properties": {"osm_id": 1225206648, "building": "yes", "name": "Smoothie King", "height": null, "height_m": null, "levels": null, "tract_id": "40109107601", "tract_name": "1076.01", "tags": {"addr:city": "Midwest City", "addr:housenumber": "5914", "addr:postcode": "73110", "addr:state": "OK", "addr:street": "Southeast 15th Street", "amenity": "fast_food", "brand": "Smoothie King", "brand:wikidata": "Q5491421", "building": "yes", "cuisine": "juice", "name": "Smoothie King", "phone": "405-931-3464", "takeaway": "yes", "website": "https://www.smoothieking.com/menu/smoothies"}}}, {"type": "Feature", "geometry": {"type": "Polygon", "coordinates": [[[-97.4185899, 35.4490568], [-97.4186914, 35.4490594], [-97.4186865, 35.4488403], [-97.4185867, 35.4488443], [-97.4185899, 35.4490568]]]}, "properties": {"osm_id": 1225206649, "building": "yes", "name": "GoHealth Urgent Care", "height": null, "height_m": null, "levels": null, "tract_id": "40109107601", "tract_name": "1076.01", "tags": {"addr:city": "Midwest City", "addr:housenumber": "5912", "addr:postcode": "73110", "addr:state": "OK", "addr:street": "Southeast 15th Street", "addr:unit": "B", "amenity": "clinic", "brand": "GoHealth Urgent Care", "brand:wikidata": "Q110282081", "building": "yes", "healthcare": "clinic", "name": "GoHealth Urgent Care", "operator": "Mercy", "phone": "405-455-8010", "website": "https://www.gohealthuc.com/mercy-oklahoma/locations/midwest-city"}}}, {"type": "Feature", "geometry": {"type": "Polygon", "coordinates": [[[-97.4186914, 35.4490594], [-97.4187413, 35.4490599], [-97.4187348, 35.448839], [-97.4186865, 35.4488403], [-97.4186914, 35.4490594]]]}, "properties": {"osm_id": 1225206650, "building": "yes", "name": "Mariner Finance", "height": null, "height_m": null, "levels": null, "tract_id": "40109107601", "tract_name": "1076.01", "tags": {"addr:city": "Midwest City", "addr:housenumber": "5912", "addr:postcode": "73110", "addr:state": "OK", "addr:street": "Southeast 15th Street", "addr:unit": "A", "building": "yes", "name": "Mariner Finance", "phone": "405-694-4024", "shop": "money_lender", "website": "https://loans.marinerfinance.com/branch-locator/oklahoma/personal-loans-in-midwest-city-ok"}}}, {"type": "Feature", "geometry": {"type": "Polygon", "coordinates": [[[-97.4187413, 35.4490599], [-97.4188379, 35.449062], [-97.4188363, 35.4488429], [-97.4187348, 35.448839], [-97.4187413, 35.4490599]]]}, "properties": {"osm_id": 1225206651, "building": "yes", "name": "Teriyaki Madness", "height": null, "height_m": null, "levels": null, "tract_id": "40109107601", "tract_name": "1076.01", "tags": {"addr:city": "Midwest City", "addr:housenumber": "5910", "addr:postcode": "73110", "addr:state": "OK", "addr:street": "Southeast 15th Street", "addr:unit": "5", "amenity": "fast_food", "brand": "Teriyaki Madness", "brand:wikidata": "Q107692862", "building": "yes", "cuisine": "japanese", "name": "Teriyaki Madness", "phone": "405-455-3995", "takeaway": "yes"}}}, {"type": "Feature", "geometry": {"type": "Polygon", "coordinates": [[[-97.4188379, 35.449062], [-97.4189377, 35.4490605], [-97.4189315, 35.4488416], [-97.4188363, 35.4488429], [-97.4188379, 35.449062]]]}, "properties": {"osm_id": 1225206652, "building": "yes", "name": "Pearle Vision", "height": null, "height_m": null, "levels": null, "tract_id": "40109107601", "tract_name": "1076.01", "tags": {"addr:city": "Midwest City", "addr:housenumber": "5908", "addr:postcode": "73110", "addr:state": "OK", "addr:street": "Southeast 15th Street", "brand": "Pearle Vision", "brand:wikidata": "Q2231148", "building": "yes", "name": "Pearle Vision", "phone": "405-300-8070", "shop": "optician", "short_name": "Pearle", "website": "https://www.pearlevision.com/pv-us/stores/ok/midwest-city/9644?cid=Yext_9644&y_source=1_MjgwODAyMzEtNzE1LWxvY2F0aW9uLndlYnNpdGU%253D"}}}, {"type": "Feature", "geometry": {"type": "Polygon", "coordinates": [[[-97.4189377, 35.4490605], [-97.4190183, 35.4490625], [-97.4190167, 35.4488416], [-97.4189315, 35.4488416], [-97.4189377, 35.4490605]]]}, "properties": {"osm_id": 1225206653, "building": "yes", "name": "The Baked Bear", "height": null, "height_m": null, "levels": null, "tract_id": "40109107601", "tract_name": "1076.01", "tags": {"addr:city": "Midwest City", "addr:housenumber": "5906", "addr:postcode": "73110", "addr:state": "OK", "addr:street": "Southeast 15th Street", "amenity": "ice_cream", "brand": "The Baked Bear", "brand:wikidata": "Q110714390", "building": "yes", "cuisine": "ice_cream", "name": "The Baked Bear", "phone": "405-931-2404", "short_name": "Baked Bear", "takeaway": "yes", "website": "https://www.thebakedbear.com/midwest-city/"}}}, {"type": "Feature", "geometry": {"type": "Polygon", "coordinates": [[[-97.4190183, 35.4490625], [-97.4190762, 35.4490611], [-97.4190725, 35.4488414], [-97.4190167, 35.4488416], [-97.4190183, 35.4490625]]]}, "properties": {"osm_id": 1225206654, "building": "yes", "name": "Great Clips", "height": null, "height_m": null, "levels": null, "tract_id": "40109107601", "tract_name": "1076.01", "tags": {"addr:city": "Midwest City", "addr:housenumber": "5904", "addr:postcode": "73110", "addr:state": "OK", "addr:street": "Southeast 15th Street", "brand": "Great Clips", "brand:wikidata": "Q5598967", "building": "yes", "name": "Great Clips", "phone": "405-610-6015", "shop": "hairdresser", "website": "https://salons.greatclips.com/us/ok/midwest-city/5904-se-15th-st"}}}, {"type": "Feature", "geometry": {"type": "Polygon", "coordinates": [[[-97.4190762, 35.4490611], [-97.4191825, 35.4490633], [-97.4191777, 35.4488416], [-97.4190725, 35.4488414], [-97.4190762, 35.4490611]]]}, "properties": {"osm_id": 1225206655, "building": "yes", "name": "NASHBIRD", "height": null, "height_m": null, "levels": null, "tract_id": "40109107601", "tract_name": "1076.01", "tags": {"addr:city": "Midwest City", "addr:housenumber": "5900", "addr:postcode": "73110", "addr:state": "OK", "addr:street": "Southeast 15th Street", "amenity": "fast_food", "building": "yes", "cuisine": "chicken", "name": "NASHBIRD", "phone": "405-931-3356", "website": "https://www.nashbirdchicken.com/"}}}, {"type": "Feature", "geometry": {"type": "Polygon", "coordinates": [[[-97.4163053, 35.4493361], [-97.416305, 35.4492443], [-97.4162755, 35.4492443], [-97.4162752, 35.4491329], [-97.4160729, 35.4491333], [-97.4160732, 35.4492586], [-97.4159376, 35.4492588], [-97.4159378, 35.4493367], [-97.4163053, 35.4493361]]]}, "properties": {"osm_id": 1434697019, "building": "yes", "name": "", "height": null, "height_m": null, "levels": null, "tract_id": "40109107601", "tract_name": "1076.01", "tags": {"building": "yes", "source": "microsoft/BuildingFootprints"}}}, {"type": "Feature", "geometry": {"type": "Polygon", "coordinates": [[[-97.4151869, 35.4472786], [-97.4151872, 35.4473594], [-97.4151603, 35.4473595], [-97.4151606, 35.4474272], [-97.4151901, 35.4474271], [-97.4151903, 35.4475036], [-97.4156624, 35.4475025], [-97.4156621, 35.4474282], [-97.4156729, 35.4474282], [-97.4156724, 35.4472775], [-97.4151869, 35.4472786]]]}, "properties": {"osm_id": 1434697021, "building": "yes", "name": "", "height": null, "height_m": null, "levels": null, "tract_id": "40109107601", "tract_name": "1076.01", "tags": {"building": "yes", "source": "microsoft/BuildingFootprints"}}}, {"type": "Feature", "geometry": {"type": "Polygon", "coordinates": [[[-97.4150056, 35.4466817], [-97.4149952, 35.4467604], [-97.4149841, 35.4467831], [-97.4149791, 35.4468205], [-97.4150295, 35.446825], [-97.4150234, 35.4468711], [-97.4150529, 35.4468807], [-97.4150512, 35.4468933], [-97.4150273, 35.4469425], [-97.4150224, 35.4469795], [-97.4149826, 35.446976], [-97.4149779, 35.4470116], [-97.4150049, 35.4470203], [-97.4149929, 35.4471102], [-97.4151148, 35.4471209], [-97.4151271, 35.4470958], [-97.4152031, 35.4471025], [-97.4152047, 35.4470905], [-97.4152348, 35.4470288], [-97.4152662, 35.4470316], [-97.4152718, 35.4469892], [-97.4152228, 35.4469849], [-97.4152303, 35.4469284], [-97.4151995, 35.4469184], [-97.4152028, 35.4468933], [-97.4152424, 35.4468118], [-97.4152643, 35.4468137], [-97.4152696, 35.446774], [-97.4152086, 35.4467687], [-97.4152169, 35.4467068], [-97.4151258, 35.4466988], [-97.4150978, 35.4466898], [-97.4150056, 35.4466817]]]}, "properties": {"osm_id": 1434697022, "building": "yes", "name": "", "height": null, "height_m": null, "levels": null, "tract_id": "40109107601", "tract_name": "1076.01", "tags": {"building": "yes", "source": "microsoft/BuildingFootprints"}}}, {"type": "Feature", "geometry": {"type": "Polygon", "coordinates": [[[-97.4155656, 35.4468197], [-97.4154433, 35.4469244], [-97.4154827, 35.446955], [-97.4154626, 35.4469722], [-97.4155674, 35.4470535], [-97.4155853, 35.4470382], [-97.4156233, 35.4470676], [-97.4157478, 35.4469611], [-97.4155656, 35.4468197]]]}, "properties": {"osm_id": 1434697023, "building": "yes", "name": "", "height": null, "height_m": null, "levels": null, "tract_id": "40109107601", "tract_name": "1076.01", "tags": {"building": "yes", "source": "microsoft/BuildingFootprints"}}}, {"type": "Feature", "geometry": {"type": "Polygon", "coordinates": [[[-97.4105808, 35.4416223], [-97.4105824, 35.4417129], [-97.4106092, 35.4417126], [-97.4106107, 35.4417924], [-97.4107635, 35.4417906], [-97.4107621, 35.4417119], [-97.4107916, 35.4417116], [-97.41079, 35.4416198], [-97.4105808, 35.4416223]]]}, "properties": {"osm_id": 1434697024, "building": "yes", "name": "", "height": null, "height_m": null, "levels": null, "tract_id": "40109107601", "tract_name": "1076.01", "tags": {"building": "yes", "source": "microsoft/BuildingFootprints"}}}, {"type": "Feature", "geometry": {"type": "Polygon", "coordinates": [[[-97.4112482, 35.4417726], [-97.4112433, 35.4416198], [-97.4110638, 35.4416236], [-97.4110689, 35.4417852], [-97.4111573, 35.4417833], [-97.4111571, 35.4417746], [-97.4112482, 35.4417726]]]}, "properties": {"osm_id": 1434697025, "building": "yes", "name": "", "height": null, "height_m": null, "levels": null, "tract_id": "40109107601", "tract_name": "1076.01", "tags": {"building": "yes", "source": "microsoft/BuildingFootprints"}}}, {"type": "Feature", "geometry": {"type": "Polygon", "coordinates": [[[-97.410819, 35.4416202], [-97.4108205, 35.4417142], [-97.4108447, 35.4417139], [-97.4108459, 35.4417947], [-97.4109934, 35.4417932], [-97.4109923, 35.4417233], [-97.4110218, 35.441723], [-97.4110202, 35.4416181], [-97.410819, 35.4416202]]]}, "properties": {"osm_id": 1434697026, "building": "yes", "name": "", "height": null, "height_m": null, "levels": null, "tract_id": "40109107601", "tract_name": "1076.01", "tags": {"building": "yes", "source": "microsoft/BuildingFootprints"}}}, {"type": "Feature", "geometry": {"type": "Polygon", "coordinates": [[[-97.4117252, 35.441619], [-97.4115204, 35.4416231], [-97.4115228, 35.4417017], [-97.4115496, 35.4417012], [-97.4115524, 35.4417973], [-97.4116999, 35.4417943], [-97.4116972, 35.4417048], [-97.4117277, 35.4417042], [-97.4117252, 35.441619]]]}, "properties": {"osm_id": 1434697027, "building": "yes", "name": "", "height": null, "height_m": null, "levels": null, "tract_id": "40109107601", "tract_name": "1076.01", "tags": {"building": "yes", "source": "microsoft/BuildingFootprints"}}}, {"type": "Feature", "geometry": {"type": "Polygon", "coordinates": [[[-97.4117619, 35.4416206], [-97.4117599, 35.4417408], [-97.4117857, 35.4417411], [-97.4117847, 35.4417967], [-97.4119483, 35.4417985], [-97.4119513, 35.4416227], [-97.4117619, 35.4416206]]]}, "properties": {"osm_id": 1434697028, "building": "yes", "name": "", "height": null, "height_m": null, "levels": null, "tract_id": "40109107601", "tract_name": "1076.01", "tags": {"building": "yes", "source": "microsoft/BuildingFootprints"}}}, {"type": "Feature", "geometry": {"type": "Polygon", "coordinates": [[[-97.4122056, 35.4416229], [-97.4119927, 35.4416206], [-97.41199, 35.4417811], [-97.4120501, 35.4417818], [-97.4120508, 35.4417359], [-97.4121206, 35.4417366], [-97.4121198, 35.4417825], [-97.4122029, 35.4417834], [-97.4122056, 35.4416229]]]}, "properties": {"osm_id": 1434697029, "building": "yes", "name": "", "height": null, "height_m": null, "levels": null, "tract_id": "40109107601", "tract_name": "1076.01", "tags": {"building": "yes", "source": "microsoft/BuildingFootprints"}}}, {"type": "Feature", "geometry": {"type": "Polygon", "coordinates": [[[-97.4124343, 35.4416217], [-97.4122289, 35.4416239], [-97.4122301, 35.4416991], [-97.4122596, 35.4416988], [-97.4122611, 35.441795], [-97.4124076, 35.4417934], [-97.4124061, 35.4417029], [-97.4124356, 35.4417026], [-97.4124343, 35.4416217]]]}, "properties": {"osm_id": 1434697030, "building": "yes", "name": "", "height": null, "height_m": null, "levels": null, "tract_id": "40109107601", "tract_name": "1076.01", "tags": {"building": "yes", "source": "microsoft/BuildingFootprints"}}}, {"type": "Feature", "geometry": {"type": "Polygon", "coordinates": [[[-97.41249, 35.4417954], [-97.4125667, 35.4417939], [-97.4125668, 35.4417973], [-97.4126606, 35.4417955], [-97.4126579, 35.4417047], [-97.4126874, 35.4417041], [-97.412685, 35.4416233], [-97.412485, 35.4416273], [-97.41249, 35.4417954]]]}, "properties": {"osm_id": 1434697031, "building": "yes", "name": "", "height": null, "height_m": null, "levels": null, "tract_id": "40109107601", "tract_name": "1076.01", "tags": {"building": "yes", "source": "microsoft/BuildingFootprints"}}}, {"type": "Feature", "geometry": {"type": "Polygon", "coordinates": [[[-97.4127447, 35.4417961], [-97.4128922, 35.4417972], [-97.4128929, 35.4417404], [-97.4129143, 35.4417406], [-97.4129157, 35.4416204], [-97.4127253, 35.4416189], [-97.4127239, 35.4417413], [-97.4127453, 35.4417414], [-97.4127447, 35.4417961]]]}, "properties": {"osm_id": 1434697032, "building": "yes", "name": "", "height": null, "height_m": null, "levels": null, "tract_id": "40109107601", "tract_name": "1076.01", "tags": {"building": "yes", "source": "microsoft/BuildingFootprints"}}}, {"type": "Feature", "geometry": {"type": "Polygon", "coordinates": [[[-97.4133835, 35.4416237], [-97.4132022, 35.4416242], [-97.4132027, 35.4417771], [-97.4133841, 35.4417767], [-97.4133835, 35.4416237]]]}, "properties": {"osm_id": 1434697033, "building": "yes", "name": "", "height": null, "height_m": null, "levels": null, "tract_id": "40109107601", "tract_name": "1076.01", "tags": {"building": "yes", "source": "microsoft/BuildingFootprints"}}}, {"type": "Feature", "geometry": {"type": "Polygon", "coordinates": [[[-97.4134481, 35.4417972], [-97.4136037, 35.4417989], [-97.4136046, 35.4417474], [-97.4136287, 35.4417476], [-97.4136308, 35.4416222], [-97.413427, 35.4416199], [-97.4134248, 35.4417475], [-97.413449, 35.4417478], [-97.4134481, 35.4417972]]]}, "properties": {"osm_id": 1434697034, "building": "yes", "name": "", "height": null, "height_m": null, "levels": null, "tract_id": "40109107601", "tract_name": "1076.01", "tags": {"building": "yes", "source": "microsoft/BuildingFootprints"}}}, {"type": "Feature", "geometry": {"type": "Polygon", "coordinates": [[[-97.4130262, 35.4417819], [-97.4130271, 35.4417513], [-97.4130861, 35.4417525], [-97.4130852, 35.4417809], [-97.4131495, 35.4417822], [-97.4131544, 35.4416228], [-97.4129641, 35.4416189], [-97.4129592, 35.4417805], [-97.4130262, 35.4417819]]]}, "properties": {"osm_id": 1434697035, "building": "yes", "name": "", "height": null, "height_m": null, "levels": null, "tract_id": "40109107601", "tract_name": "1076.01", "tags": {"building": "yes", "source": "microsoft/BuildingFootprints"}}}, {"type": "Feature", "geometry": {"type": "Polygon", "coordinates": [[[-97.4112863, 35.44178], [-97.4113436, 35.4417788], [-97.411342, 35.4417297], [-97.4114385, 35.4417276], [-97.4114402, 35.44178], [-97.4114955, 35.4417788], [-97.4114903, 35.4416194], [-97.4112812, 35.4416239], [-97.4112863, 35.44178]]]}, "properties": {"osm_id": 1434697036, "building": "yes", "name": "", "height": null, "height_m": null, "levels": null, "tract_id": "40109107601", "tract_name": "1076.01", "tags": {"building": "yes", "source": "microsoft/BuildingFootprints"}}}, {"type": "Feature", "geometry": {"type": "Polygon", "coordinates": [[[-97.4107748, 35.4419808], [-97.4106112, 35.4419809], [-97.4106112, 35.4420399], [-97.410587, 35.4420399], [-97.4105871, 35.4421535], [-97.4107748, 35.4421535], [-97.4107748, 35.4419808]]]}, "properties": {"osm_id": 1434697037, "building": "yes", "name": "", "height": null, "height_m": null, "levels": null, "tract_id": "40109107601", "tract_name": "1076.01", "tags": {"building": "yes", "source": "microsoft/BuildingFootprints"}}}, {"type": "Feature", "geometry": {"type": "Polygon", "coordinates": [[[-97.4108244, 35.4420688], [-97.4108225, 35.4421518], [-97.4110236, 35.4421548], [-97.4110255, 35.4420696], [-97.410996, 35.4420692], [-97.4109979, 35.441984], [-97.4108504, 35.4419818], [-97.4108485, 35.4420692], [-97.4108244, 35.4420688]]]}, "properties": {"osm_id": 1434697038, "building": "yes", "name": "", "height": null, "height_m": null, "levels": null, "tract_id": "40109107601", "tract_name": "1076.01", "tags": {"building": "yes", "source": "microsoft/BuildingFootprints"}}}, {"type": "Feature", "geometry": {"type": "Polygon", "coordinates": [[[-97.4126735, 35.4420491], [-97.4126198, 35.4420486], [-97.4126206, 35.4419971], [-97.4125187, 35.4419961], [-97.412518, 35.4420432], [-97.4124697, 35.4420427], [-97.412468, 35.4421541], [-97.4126718, 35.4421562], [-97.4126735, 35.4420491]]]}, "properties": {"osm_id": 1434697039, "building": "yes", "name": "", "height": null, "height_m": null, "levels": null, "tract_id": "40109107601", "tract_name": "1076.01", "tags": {"building": "yes", "source": "microsoft/BuildingFootprints"}}}, {"type": "Feature", "geometry": {"type": "Polygon", "coordinates": [[[-97.4129686, 35.4419853], [-97.4129743, 35.4421587], [-97.4131244, 35.4421554], [-97.4131214, 35.4420659], [-97.4130963, 35.4420665], [-97.4130935, 35.4419825], [-97.4129686, 35.4419853]]]}, "properties": {"osm_id": 1434697040, "building": "yes", "name": "", "height": null, "height_m": null, "levels": null, "tract_id": "40109107601", "tract_name": "1076.01", "tags": {"building": "yes", "source": "microsoft/BuildingFootprints"}}}, {"type": "Feature", "geometry": {"type": "Polygon", "coordinates": [[[-97.4131676, 35.4419987], [-97.4131704, 35.4421582], [-97.4133661, 35.4421559], [-97.4133632, 35.4419855], [-97.4132666, 35.4419866], [-97.4132675, 35.4420391], [-97.413229, 35.4420395], [-97.4132282, 35.441998], [-97.4131676, 35.4419987]]]}, "properties": {"osm_id": 1434697041, "building": "yes", "name": "", "height": null, "height_m": null, "levels": null, "tract_id": "40109107601", "tract_name": "1076.01", "tags": {"building": "yes", "source": "microsoft/BuildingFootprints"}}}, {"type": "Feature", "geometry": {"type": "Polygon", "coordinates": [[[-97.413412, 35.4419867], [-97.41341, 35.44212], [-97.4135387, 35.4421213], [-97.4135408, 35.4419881], [-97.413412, 35.4419867]]]}, "properties": {"osm_id": 1434697042, "building": "yes", "name": "", "height": null, "height_m": null, "levels": null, "tract_id": "40109107601", "tract_name": "1076.01", "tags": {"building": "yes", "source": "microsoft/BuildingFootprints"}}}, {"type": "Feature", "geometry": {"type": "Polygon", "coordinates": [[[-97.4119951, 35.442155], [-97.4121909, 35.4421544], [-97.4121901, 35.4419818], [-97.4120935, 35.441982], [-97.4120938, 35.4420389], [-97.4120509, 35.442039], [-97.4120507, 35.4419953], [-97.4119943, 35.4419955], [-97.4119951, 35.442155]]]}, "properties": {"osm_id": 1434697043, "building": "yes", "name": "", "height": null, "height_m": null, "levels": null, "tract_id": "40109107601", "tract_name": "1076.01", "tags": {"building": "yes", "source": "microsoft/BuildingFootprints"}}}, {"type": "Feature", "geometry": {"type": "Polygon", "coordinates": [[[-97.4122361, 35.4421506], [-97.4124158, 35.4421526], [-97.4124188, 35.4419778], [-97.4122391, 35.4419758], [-97.4122361, 35.4421506]]]}, "properties": {"osm_id": 1434697044, "building": "yes", "name": "", "height": null, "height_m": null, "levels": null, "tract_id": "40109107601", "tract_name": "1076.01", "tags": {"building": "yes", "source": "microsoft/BuildingFootprints"}}}, {"type": "Feature", "geometry": {"type": "Polygon", "coordinates": [[[-97.4127288, 35.4420751], [-97.4127047, 35.4420749], [-97.4127034, 35.4421557], [-97.4129072, 35.4421579], [-97.4129086, 35.4420739], [-97.4128774, 35.4420736], [-97.4128789, 35.4419828], [-97.4127304, 35.4419812], [-97.4127288, 35.4420751]]]}, "properties": {"osm_id": 1434697045, "building": "yes", "name": "", "height": null, "height_m": null, "levels": null, "tract_id": "40109107601", "tract_name": "1076.01", "tags": {"building": "yes", "source": "microsoft/BuildingFootprints"}}}, {"type": "Feature", "geometry": {"type": "Polygon", "coordinates": [[[-97.4117689, 35.4421536], [-97.4119604, 35.4421526], [-97.4119592, 35.4419975], [-97.4118921, 35.4419978], [-97.4118923, 35.4420219], [-97.4118323, 35.4420222], [-97.4118321, 35.4419959], [-97.4117677, 35.4419963], [-97.4117689, 35.4421536]]]}, "properties": {"osm_id": 1434697046, "building": "yes", "name": "", "height": null, "height_m": null, "levels": null, "tract_id": "40109107601", "tract_name": "1076.01", "tags": {"building": "yes", "source": "microsoft/BuildingFootprints"}}}, {"type": "Feature", "geometry": {"type": "Polygon", "coordinates": [[[-97.4115565, 35.4419793], [-97.4115526, 35.4421376], [-97.4117312, 35.4421406], [-97.4117335, 35.4420488], [-97.4117174, 35.4420486], [-97.411719, 35.441983], [-97.4116503, 35.4419819], [-97.4116504, 35.4419809], [-97.4115565, 35.4419793]]]}, "properties": {"osm_id": 1434697047, "building": "yes", "name": "", "height": null, "height_m": null, "levels": null, "tract_id": "40109107601", "tract_name": "1076.01", "tags": {"building": "yes", "source": "microsoft/BuildingFootprints"}}}, {"type": "Feature", "geometry": {"type": "Polygon", "coordinates": [[[-97.4113238, 35.4421543], [-97.4114562, 35.4421551], [-97.4114577, 35.4419825], [-97.4113253, 35.4419817], [-97.4113238, 35.4421543]]]}, "properties": {"osm_id": 1434697048, "building": "yes", "name": "", "height": null, "height_m": null, "levels": null, "tract_id": "40109107601", "tract_name": "1076.01", "tags": {"building": "yes", "source": "microsoft/BuildingFootprints"}}}, {"type": "Feature", "geometry": {"type": "Polygon", "coordinates": [[[-97.4110557, 35.4419956], [-97.4110579, 35.4421529], [-97.4112671, 35.442151], [-97.4112649, 35.4419958], [-97.4111828, 35.4419966], [-97.4111837, 35.4420622], [-97.4111317, 35.4420626], [-97.4111308, 35.4419949], [-97.4110557, 35.4419956]]]}, "properties": {"osm_id": 1434697049, "building": "yes", "name": "", "height": null, "height_m": null, "levels": null, "tract_id": "40109107601", "tract_name": "1076.01", "tags": {"building": "yes", "source": "microsoft/BuildingFootprints"}}}, {"type": "Feature", "geometry": {"type": "Polygon", "coordinates": [[[-97.4097912, 35.4403784], [-97.409684, 35.440376], [-97.4096792, 35.4405213], [-97.4098346, 35.4405247], [-97.4098369, 35.4404548], [-97.4098664, 35.4404554], [-97.4098683, 35.4403987], [-97.4097906, 35.440397], [-97.4097912, 35.4403784]]]}, "properties": {"osm_id": 1434697050, "building": "yes", "name": "", "height": null, "height_m": null, "levels": null, "tract_id": "40109107601", "tract_name": "1076.01", "tags": {"building": "yes", "source": "microsoft/BuildingFootprints"}}}, {"type": "Feature", "geometry": {"type": "Polygon", "coordinates": [[[-97.4102763, 35.440436], [-97.4101798, 35.4404342], [-97.410181, 35.4403905], [-97.4100952, 35.4403888], [-97.4100905, 35.4405538], [-97.4101763, 35.4405554], [-97.4101775, 35.440515], [-97.410274, 35.4405168], [-97.4102763, 35.440436]]]}, "properties": {"osm_id": 1434697051, "building": "yes", "name": "", "height": null, "height_m": null, "levels": null, "tract_id": "40109107601", "tract_name": "1076.01", "tags": {"building": "yes", "source": "microsoft/BuildingFootprints"}}}, {"type": "Feature", "geometry": {"type": "Polygon", "coordinates": [[[-97.4098837, 35.4403811], [-97.4098867, 35.4405744], [-97.4100196, 35.440573], [-97.4100191, 35.4405359], [-97.4100578, 35.4405355], [-97.4100558, 35.4404099], [-97.409985, 35.4404106], [-97.4099845, 35.44038], [-97.4098837, 35.4403811]]]}, "properties": {"osm_id": 1434697052, "building": "yes", "name": "", "height": null, "height_m": null, "levels": null, "tract_id": "40109107601", "tract_name": "1076.01", "tags": {"building": "yes", "source": "microsoft/BuildingFootprints"}}}, {"type": "Feature", "geometry": {"type": "Polygon", "coordinates": [[[-97.4098845, 35.4399562], [-97.4098758, 35.4401428], [-97.4099642, 35.4401455], [-97.4099667, 35.440091], [-97.4100566, 35.4400937], [-97.4100628, 35.4399617], [-97.4098845, 35.4399562]]]}, "properties": {"osm_id": 1434697053, "building": "yes", "name": "", "height": null, "height_m": null, "levels": null, "tract_id": "40109107601", "tract_name": "1076.01", "tags": {"building": "yes", "source": "microsoft/BuildingFootprints"}}}, {"type": "Feature", "geometry": {"type": "Polygon", "coordinates": [[[-97.4100892, 35.4401059], [-97.4102259, 35.4401036], [-97.4102254, 35.440084], [-97.4102668, 35.4400833], [-97.4102648, 35.4400025], [-97.4100867, 35.4400054], [-97.4100892, 35.4401059]]]}, "properties": {"osm_id": 1434697054, "building": "yes", "name": "", "height": null, "height_m": null, "levels": null, "tract_id": "40109107601", "tract_name": "1076.01", "tags": {"building": "yes", "source": "microsoft/BuildingFootprints"}}}, {"type": "Feature", "geometry": {"type": "Polygon", "coordinates": [[[-97.4101025, 35.4396399], [-97.4102232, 35.4396389], [-97.4102237, 35.4396771], [-97.4102881, 35.4396766], [-97.4102858, 35.4395039], [-97.4101879, 35.4395048], [-97.4101881, 35.4395234], [-97.410101, 35.4395241], [-97.4101025, 35.4396399]]]}, "properties": {"osm_id": 1434697055, "building": "yes", "name": "", "height": null, "height_m": null, "levels": null, "tract_id": "40109107601", "tract_name": "1076.01", "tags": {"building": "yes", "source": "microsoft/BuildingFootprints"}}}, {"type": "Feature", "geometry": {"type": "Polygon", "coordinates": [[[-97.4099654, 35.4396704], [-97.4100566, 35.4396694], [-97.4100547, 35.4395557], [-97.4099781, 35.4395566], [-97.4099772, 35.439502], [-97.409878, 35.4395031], [-97.4098801, 35.4396287], [-97.4099647, 35.4396278], [-97.4099654, 35.4396704]]]}, "properties": {"osm_id": 1434697056, "building": "yes", "name": "", "height": null, "height_m": null, "levels": null, "tract_id": "40109107601", "tract_name": "1076.01", "tags": {"building": "yes", "source": "microsoft/BuildingFootprints"}}}, {"type": "Feature", "geometry": {"type": "Polygon", "coordinates": [[[-97.4098388, 35.4396293], [-97.4098363, 35.4395125], [-97.4096554, 35.4395151], [-97.4096578, 35.4396254], [-97.409726, 35.4396244], [-97.4097262, 35.4396309], [-97.4098388, 35.4396293]]]}, "properties": {"osm_id": 1434697057, "building": "yes", "name": "", "height": null, "height_m": null, "levels": null, "tract_id": "40109107601", "tract_name": "1076.01", "tags": {"building": "yes", "source": "microsoft/BuildingFootprints"}}}, {"type": "Feature", "geometry": {"type": "Polygon", "coordinates": [[[-97.4094437, 35.439499], [-97.4094379, 35.4396737], [-97.4096122, 35.4396775], [-97.409616, 35.4395596], [-97.4095329, 35.4395578], [-97.4095348, 35.439501], [-97.4094437, 35.439499]]]}, "properties": {"osm_id": 1434697058, "building": "yes", "name": "", "height": null, "height_m": null, "levels": null, "tract_id": "40109107601", "tract_name": "1076.01", "tags": {"building": "yes", "source": "microsoft/BuildingFootprints"}}}, {"type": "Feature", "geometry": {"type": "Polygon", "coordinates": [[[-97.4096727, 35.4399148], [-97.4096671, 35.4400851], [-97.4097609, 35.4400871], [-97.409762, 35.4400533], [-97.409829, 35.4400547], [-97.4098335, 35.4399183], [-97.4096727, 35.4399148]]]}, "properties": {"osm_id": 1434697059, "building": "yes", "name": "", "height": null, "height_m": null, "levels": null, "tract_id": "40109107601", "tract_name": "1076.01", "tags": {"building": "yes", "source": "microsoft/BuildingFootprints"}}}, {"type": "Feature", "geometry": {"type": "Polygon", "coordinates": [[[-97.4094661, 35.4399676], [-97.4094635, 35.4400506], [-97.40956, 35.4400527], [-97.4095591, 35.440081], [-97.4096422, 35.4400828], [-97.4096457, 35.4399714], [-97.4094661, 35.4399676]]]}, "properties": {"osm_id": 1434697060, "building": "yes", "name": "", "height": null, "height_m": null, "levels": null, "tract_id": "40109107601", "tract_name": "1076.01", "tags": {"building": "yes", "source": "microsoft/BuildingFootprints"}}}, {"type": "Feature", "geometry": {"type": "Polygon", "coordinates": [[[-97.4095412, 35.4403684], [-97.4095385, 35.4404295], [-97.4094554, 35.4404271], [-97.409452, 35.4405045], [-97.4096246, 35.4405096], [-97.4096307, 35.440371], [-97.4095412, 35.4403684]]]}, "properties": {"osm_id": 1434697061, "building": "yes", "name": "", "height": null, "height_m": null, "levels": null, "tract_id": "40109107601", "tract_name": "1076.01", "tags": {"building": "yes", "source": "microsoft/BuildingFootprints"}}}, {"type": "Feature", "geometry": {"type": "Polygon", "coordinates": [[[-97.4094054, 35.4403629], [-97.4093075, 35.4403604], [-97.4093076, 35.4403572], [-97.4092341, 35.4403554], [-97.4092289, 35.4404939], [-97.4094004, 35.4404982], [-97.4094054, 35.4403629]]]}, "properties": {"osm_id": 1434697062, "building": "yes", "name": "", "height": null, "height_m": null, "levels": null, "tract_id": "40109107601", "tract_name": "1076.01", "tags": {"building": "yes", "source": "microsoft/BuildingFootprints"}}}, {"type": "Feature", "geometry": {"type": "Polygon", "coordinates": [[[-97.4092753, 35.4399972], [-97.4093343, 35.4399984], [-97.4093321, 35.4400693], [-97.4094301, 35.4400713], [-97.4094345, 35.4399261], [-97.4092776, 35.4399229], [-97.4092753, 35.4399972]]]}, "properties": {"osm_id": 1434697063, "building": "yes", "name": "", "height": null, "height_m": null, "levels": null, "tract_id": "40109107601", "tract_name": "1076.01", "tags": {"building": "yes", "source": "microsoft/BuildingFootprints"}}}, {"type": "Feature", "geometry": {"type": "Polygon", "coordinates": [[[-97.4090454, 35.4400385], [-97.4092192, 35.4400463], [-97.4092257, 35.4399515], [-97.4090519, 35.4399437], [-97.4090454, 35.4400385]]]}, "properties": {"osm_id": 1434697064, "building": "yes", "name": "", "height": null, "height_m": null, "levels": null, "tract_id": "40109107601", "tract_name": "1076.01", "tags": {"building": "yes", "source": "microsoft/BuildingFootprints"}}}, {"type": "Feature", "geometry": {"type": "Polygon", "coordinates": [[[-97.4091073, 35.4403503], [-97.4091048, 35.4404005], [-97.4090095, 35.4403973], [-97.4090055, 35.440477], [-97.4091073, 35.4404804], [-97.4091052, 35.4405219], [-97.4091695, 35.440524], [-97.409178, 35.4403527], [-97.4091073, 35.4403503]]]}, "properties": {"osm_id": 1434697065, "building": "yes", "name": "", "height": null, "height_m": null, "levels": null, "tract_id": "40109107601", "tract_name": "1076.01", "tags": {"building": "yes", "source": "microsoft/BuildingFootprints"}}}, {"type": "Feature", "geometry": {"type": "Polygon", "coordinates": [[[-97.4089608, 35.4403365], [-97.4088028, 35.4403315], [-97.4087963, 35.4404668], [-97.4089543, 35.4404718], [-97.4089608, 35.4403365]]]}, "properties": {"osm_id": 1434697066, "building": "yes", "name": "", "height": null, "height_m": null, "levels": null, "tract_id": "40109107601", "tract_name": "1076.01", "tags": {"building": "yes", "source": "microsoft/BuildingFootprints"}}}, {"type": "Feature", "geometry": {"type": "Polygon", "coordinates": [[[-97.4064046, 35.4373102], [-97.4062239, 35.4373152], [-97.4062278, 35.4374104], [-97.4064086, 35.4374054], [-97.4064046, 35.4373102]]]}, "properties": {"osm_id": 1435960527, "building": "yes", "name": "", "height": null, "height_m": null, "levels": null, "tract_id": "40109107601", "tract_name": "1076.01", "tags": {"building": "yes", "source": "microsoft/BuildingFootprints"}}}, {"type": "Feature", "geometry": {"type": "Polygon", "coordinates": [[[-97.4064733, 35.437324], [-97.4064871, 35.4374064], [-97.406703, 35.4373824], [-97.4066892, 35.4373], [-97.4064733, 35.437324]]]}, "properties": {"osm_id": 1435960528, "building": "yes", "name": "", "height": null, "height_m": null, "levels": null, "tract_id": "40109107601", "tract_name": "1076.01", "tags": {"building": "yes", "source": "microsoft/BuildingFootprints"}}}, {"type": "Feature", "geometry": {"type": "Polygon", "coordinates": [[[-97.4070364, 35.4372133], [-97.4068611, 35.4372273], [-97.4068735, 35.4373303], [-97.4069731, 35.4373224], [-97.406981, 35.4373882], [-97.4070568, 35.4373821], [-97.4070364, 35.4372133]]]}, "properties": {"osm_id": 1435960529, "building": "yes", "name": "", "height": null, "height_m": null, "levels": null, "tract_id": "40109107601", "tract_name": "1076.01", "tags": {"building": "yes", "source": "microsoft/BuildingFootprints"}}}, {"type": "Feature", "geometry": {"type": "Polygon", "coordinates": [[[-97.4072628, 35.4371939], [-97.4070703, 35.437203], [-97.4070765, 35.4372901], [-97.4072194, 35.4372834], [-97.4072238, 35.4373453], [-97.4072761, 35.4373428], [-97.4072738, 35.4373114], [-97.4072711, 35.4373115], [-97.4072628, 35.4371939]]]}, "properties": {"osm_id": 1435960530, "building": "yes", "name": "", "height": null, "height_m": null, "levels": null, "tract_id": "40109107601", "tract_name": "1076.01", "tags": {"building": "yes", "source": "microsoft/BuildingFootprints"}}}, {"type": "Feature", "geometry": {"type": "Polygon", "coordinates": [[[-97.4076931, 35.43721], [-97.4075324, 35.4372051], [-97.4075281, 35.437299], [-97.4076192, 35.4373018], [-97.4076144, 35.4374043], [-97.4076841, 35.4374064], [-97.4076931, 35.43721]]]}, "properties": {"osm_id": 1435960531, "building": "yes", "name": "", "height": null, "height_m": null, "levels": null, "tract_id": "40109107601", "tract_name": "1076.01", "tags": {"building": "yes", "source": "microsoft/BuildingFootprints"}}}, {"type": "Feature", "geometry": {"type": "Polygon", "coordinates": [[[-97.4073037, 35.4371667], [-97.4073023, 35.4373088], [-97.4074123, 35.4373095], [-97.4074116, 35.4373794], [-97.4074894, 35.4373799], [-97.4074914, 35.4371679], [-97.4073037, 35.4371667]]]}, "properties": {"osm_id": 1435960532, "building": "yes", "name": "", "height": null, "height_m": null, "levels": null, "tract_id": "40109107601", "tract_name": "1076.01", "tags": {"building": "yes", "source": "microsoft/BuildingFootprints"}}}, {"type": "Feature", "geometry": {"type": "Polygon", "coordinates": [[[-97.4077323, 35.4372156], [-97.4077312, 35.4373074], [-97.4078331, 35.4373082], [-97.4078328, 35.4373344], [-97.4078906, 35.4373349], [-97.4078908, 35.437313], [-97.4079579, 35.4373136], [-97.4079586, 35.4372555], [-97.4078901, 35.437255], [-97.4078906, 35.4372147], [-97.4078476, 35.4372144], [-97.407848, 35.4371859], [-97.4077675, 35.4371853], [-97.4077672, 35.4372159], [-97.4077323, 35.4372156]]]}, "properties": {"osm_id": 1435960533, "building": "yes", "name": "", "height": null, "height_m": null, "levels": null, "tract_id": "40109107601", "tract_name": "1076.01", "tags": {"building": "yes", "source": "microsoft/BuildingFootprints"}}}, {"type": "Feature", "geometry": {"type": "Polygon", "coordinates": [[[-97.4075986, 35.4371871], [-97.4076856, 35.4371897], [-97.4076888, 35.4371164], [-97.4076019, 35.4371138], [-97.4075986, 35.4371871]]]}, "properties": {"osm_id": 1435960534, "building": "yes", "name": "", "height": null, "height_m": null, "levels": null, "tract_id": "40109107601", "tract_name": "1076.01", "tags": {"building": "yes", "source": "microsoft/BuildingFootprints"}}}, {"type": "Feature", "geometry": {"type": "Polygon", "coordinates": [[[-97.408077, 35.437789], [-97.4085112, 35.4378184], [-97.4085262, 35.4376718], [-97.408433, 35.4376655], [-97.4084326, 35.4376689], [-97.4082755, 35.4376582], [-97.4082759, 35.4376539], [-97.4081481, 35.4376452], [-97.4081487, 35.4376387], [-97.4080928, 35.4376349], [-97.408077, 35.437789]]]}, "properties": {"osm_id": 1435960535, "building": "yes", "name": "", "height": null, "height_m": null, "levels": null, "tract_id": "40109107601", "tract_name": "1076.01", "tags": {"building": "yes", "source": "microsoft/BuildingFootprints"}}}, {"type": "Feature", "geometry": {"type": "Polygon", "coordinates": [[[-97.4094229, 35.4378418], [-97.4095289, 35.4378418], [-97.4095289, 35.4378407], [-97.409773, 35.4378408], [-97.409773, 35.4378299], [-97.4098749, 35.4378299], [-97.409875, 35.4376933], [-97.4097168, 35.4376933], [-97.4097168, 35.4376998], [-97.4095705, 35.4376998], [-97.4095705, 35.4376932], [-97.409423, 35.4376932], [-97.4094229, 35.4378418]]]}, "properties": {"osm_id": 1435960676, "building": "yes", "name": "", "height": null, "height_m": null, "levels": null, "tract_id": "40109107601", "tract_name": "1076.01", "tags": {"building": "yes", "source": "microsoft/BuildingFootprints"}}}, {"type": "Feature", "geometry": {"type": "Polygon", "coordinates": [[[-97.4102606, 35.4376989], [-97.4102069, 35.4376987], [-97.4102069, 35.4376998], [-97.4098985, 35.4376985], [-97.4098976, 35.4378438], [-97.4102596, 35.4378453], [-97.4102606, 35.4376989]]]}, "properties": {"osm_id": 1435960677, "building": "yes", "name": "", "height": null, "height_m": null, "levels": null, "tract_id": "40109107601", "tract_name": "1076.01", "tags": {"building": "yes", "source": "microsoft/BuildingFootprints"}}}, {"type": "Feature", "geometry": {"type": "Polygon", "coordinates": [[[-97.407789, 35.4377843], [-97.4078855, 35.4377871], [-97.4078868, 35.4377566], [-97.4079592, 35.4377587], [-97.4079641, 35.4376474], [-97.4077953, 35.4376424], [-97.407789, 35.4377843]]]}, "properties": {"osm_id": 1435960678, "building": "yes", "name": "", "height": null, "height_m": null, "levels": null, "tract_id": "40109107601", "tract_name": "1076.01", "tags": {"building": "yes", "source": "microsoft/BuildingFootprints"}}}, {"type": "Feature", "geometry": {"type": "Polygon", "coordinates": [[[-97.4075763, 35.4377293], [-97.4076214, 35.4377329], [-97.4076163, 35.4377753], [-97.4076735, 35.4377799], [-97.4076782, 35.4377409], [-97.4077459, 35.4377464], [-97.4077582, 35.4376446], [-97.4075882, 35.437631], [-97.4075763, 35.4377293]]]}, "properties": {"osm_id": 1435960679, "building": "yes", "name": "", "height": null, "height_m": null, "levels": null, "tract_id": "40109107601", "tract_name": "1076.01", "tags": {"building": "yes", "source": "microsoft/BuildingFootprints"}}}, {"type": "Feature", "geometry": {"type": "Polygon", "coordinates": [[[-97.4073426, 35.4376238], [-97.4071657, 35.4376264], [-97.4071677, 35.4377181], [-97.4073446, 35.4377156], [-97.4073426, 35.4376238]]]}, "properties": {"osm_id": 1435960680, "building": "yes", "name": "", "height": null, "height_m": null, "levels": null, "tract_id": "40109107601", "tract_name": "1076.01", "tags": {"building": "yes", "source": "microsoft/BuildingFootprints"}}}, {"type": "Feature", "geometry": {"type": "Polygon", "coordinates": [[[-97.4073776, 35.4376233], [-97.4073742, 35.4377171], [-97.4075484, 35.4377213], [-97.4075524, 35.4376099], [-97.4074372, 35.4376072], [-97.4074365, 35.4376247], [-97.4073776, 35.4376233]]]}, "properties": {"osm_id": 1435960681, "building": "yes", "name": "", "height": null, "height_m": null, "levels": null, "tract_id": "40109107601", "tract_name": "1076.01", "tags": {"building": "yes", "source": "microsoft/BuildingFootprints"}}}, {"type": "Feature", "geometry": {"type": "Polygon", "coordinates": [[[-97.407128, 35.4375592], [-97.4070577, 35.4375691], [-97.4070681, 35.4376179], [-97.4069457, 35.4376352], [-97.4069724, 35.4377604], [-97.4070479, 35.4377497], [-97.4070581, 35.4377976], [-97.4071284, 35.4377876], [-97.4071177, 35.4377376], [-97.407136, 35.437735], [-97.407117, 35.4376459], [-97.4071456, 35.4376419], [-97.407128, 35.4375592]]]}, "properties": {"osm_id": 1435960682, "building": "yes", "name": "", "height": null, "height_m": null, "levels": null, "tract_id": "40109107601", "tract_name": "1076.01", "tags": {"building": "yes", "source": "microsoft/BuildingFootprints"}}}, {"type": "Feature", "geometry": {"type": "Polygon", "coordinates": [[[-97.4066322, 35.4377622], [-97.4066538, 35.4378604], [-97.4068253, 35.4378353], [-97.4067875, 35.4376638], [-97.4067199, 35.4376737], [-97.4067361, 35.4377469], [-97.4066322, 35.4377622]]]}, "properties": {"osm_id": 1435960683, "building": "yes", "name": "", "height": null, "height_m": null, "levels": null, "tract_id": "40109107601", "tract_name": "1076.01", "tags": {"building": "yes", "source": "microsoft/BuildingFootprints"}}}, {"type": "Feature", "geometry": {"type": "Polygon", "coordinates": [[[-97.4064354, 35.4377294], [-97.4064395, 35.4378189], [-97.406477, 35.4378178], [-97.4064784, 35.4378483], [-97.4066083, 35.4378443], [-97.4066013, 35.4376938], [-97.4064849, 35.4376973], [-97.4064863, 35.4377279], [-97.4064354, 35.4377294]]]}, "properties": {"osm_id": 1435960684, "building": "yes", "name": "", "height": null, "height_m": null, "levels": null, "tract_id": "40109107601", "tract_name": "1076.01", "tags": {"building": "yes", "source": "microsoft/BuildingFootprints"}}}, {"type": "Feature", "geometry": {"type": "Polygon", "coordinates": [[[-97.4062586, 35.4378891], [-97.4063953, 35.4378872], [-97.4063917, 35.4377102], [-97.4062549, 35.4377121], [-97.4062586, 35.4378891]]]}, "properties": {"osm_id": 1435960685, "building": "yes", "name": "", "height": null, "height_m": null, "levels": null, "tract_id": "40109107601", "tract_name": "1076.01", "tags": {"building": "yes", "source": "microsoft/BuildingFootprints"}}}, {"type": "Feature", "geometry": {"type": "Polygon", "coordinates": [[[-97.4064172, 35.4382262], [-97.4062241, 35.4382239], [-97.406222, 35.4383441], [-97.40634, 35.4383454], [-97.4063395, 35.4383717], [-97.4064146, 35.4383725], [-97.4064172, 35.4382262]]]}, "properties": {"osm_id": 1435960686, "building": "yes", "name": "", "height": null, "height_m": null, "levels": null, "tract_id": "40109107601", "tract_name": "1076.01", "tags": {"building": "yes", "source": "microsoft/BuildingFootprints"}}}, {"type": "Feature", "geometry": {"type": "Polygon", "coordinates": [[[-97.4066759, 35.4383141], [-97.4066689, 35.4381955], [-97.4066073, 35.4381979], [-97.4066055, 35.4381674], [-97.4065252, 35.4381705], [-97.4065291, 35.4382359], [-97.4064555, 35.4382388], [-97.4064604, 35.4383225], [-97.4066759, 35.4383141]]]}, "properties": {"osm_id": 1435960687, "building": "yes", "name": "", "height": null, "height_m": null, "levels": null, "tract_id": "40109107601", "tract_name": "1076.01", "tags": {"building": "yes", "source": "microsoft/BuildingFootprints"}}}, {"type": "Feature", "geometry": {"type": "Polygon", "coordinates": [[[-97.4067088, 35.4381836], [-97.4067215, 35.4382941], [-97.4068332, 35.4382855], [-97.4068333, 35.4382864], [-97.4069317, 35.4382789], [-97.4069141, 35.4381263], [-97.406817, 35.4381338], [-97.4068218, 35.4381749], [-97.4067088, 35.4381836]]]}, "properties": {"osm_id": 1435960688, "building": "yes", "name": "", "height": null, "height_m": null, "levels": null, "tract_id": "40109107601", "tract_name": "1076.01", "tags": {"building": "yes", "source": "microsoft/BuildingFootprints"}}}, {"type": "Feature", "geometry": {"type": "Polygon", "coordinates": [[[-97.4063853, 35.4386228], [-97.4063022, 35.4386244], [-97.406303, 35.4386506], [-97.4062092, 35.4386524], [-97.4062121, 35.4387529], [-97.406389, 35.4387495], [-97.4063853, 35.4386228]]]}, "properties": {"osm_id": 1435960689, "building": "yes", "name": "", "height": null, "height_m": null, "levels": null, "tract_id": "40109107601", "tract_name": "1076.01", "tags": {"building": "yes", "source": "microsoft/BuildingFootprints"}}}, {"type": "Feature", "geometry": {"type": "Polygon", "coordinates": [[[-97.4064364, 35.4386695], [-97.4064393, 35.4387415], [-97.4065465, 35.4387387], [-97.4065477, 35.4387679], [-97.4066186, 35.438766], [-97.4066119, 35.4385992], [-97.4065222, 35.4386016], [-97.4065248, 35.4386671], [-97.4064364, 35.4386695]]]}, "properties": {"osm_id": 1435960690, "building": "yes", "name": "", "height": null, "height_m": null, "levels": null, "tract_id": "40109107601", "tract_name": "1076.01", "tags": {"building": "yes", "source": "microsoft/BuildingFootprints"}}}, {"type": "Feature", "geometry": {"type": "Polygon", "coordinates": [[[-97.4068473, 35.4387377], [-97.4068289, 35.4385849], [-97.406639, 35.4386001], [-97.4066514, 35.438704], [-97.4067152, 35.4386989], [-97.4067211, 35.4387478], [-97.4068473, 35.4387377]]]}, "properties": {"osm_id": 1435960691, "building": "yes", "name": "", "height": null, "height_m": null, "levels": null, "tract_id": "40109107601", "tract_name": "1076.01", "tags": {"building": "yes", "source": "microsoft/BuildingFootprints"}}}, {"type": "Feature", "geometry": {"type": "Polygon", "coordinates": [[[-97.406853, 35.4385935], [-97.4068666, 35.4386826], [-97.4070528, 35.4386637], [-97.4070277, 35.4384993], [-97.4069392, 35.4385082], [-97.4069507, 35.4385836], [-97.406853, 35.4385935]]]}, "properties": {"osm_id": 1435960692, "building": "yes", "name": "", "height": null, "height_m": null, "levels": null, "tract_id": "40109107601", "tract_name": "1076.01", "tags": {"building": "yes", "source": "microsoft/BuildingFootprints"}}}, {"type": "Feature", "geometry": {"type": "Polygon", "coordinates": [[[-97.406221, 35.4392089], [-97.4063497, 35.4392097], [-97.4063492, 35.4392591], [-97.4064324, 35.4392596], [-97.4064331, 35.4391862], [-97.4064063, 35.439186], [-97.406407, 35.4391109], [-97.4063641, 35.4391106], [-97.4063646, 35.4390525], [-97.4063043, 35.4390521], [-97.4063053, 35.4389406], [-97.4062235, 35.4389401], [-97.406221, 35.4392089]]]}, "properties": {"osm_id": 1435960693, "building": "yes", "name": "", "height": null, "height_m": null, "levels": null, "tract_id": "40109107601", "tract_name": "1076.01", "tags": {"building": "yes", "source": "microsoft/BuildingFootprints"}}}, {"type": "Feature", "geometry": {"type": "Polygon", "coordinates": [[[-97.4064562, 35.4390801], [-97.4064562, 35.4391631], [-97.4065179, 35.4391631], [-97.4065179, 35.4392265], [-97.4065796, 35.4392265], [-97.4065796, 35.4392024], [-97.40666, 35.4392024], [-97.40666, 35.4390517], [-97.4065849, 35.4390517], [-97.4065849, 35.4390801], [-97.4064562, 35.4390801]]]}, "properties": {"osm_id": 1435960694, "building": "yes", "name": "", "height": null, "height_m": null, "levels": null, "tract_id": "40109107601", "tract_name": "1076.01", "tags": {"building": "yes", "source": "microsoft/BuildingFootprints"}}}, {"type": "Feature", "geometry": {"type": "Polygon", "coordinates": [[[-97.4069081, 35.4390761], [-97.4066912, 35.4390835], [-97.4066967, 35.4391904], [-97.4069136, 35.439183], [-97.4069081, 35.4390761]]]}, "properties": {"osm_id": 1435960695, "building": "yes", "name": "", "height": null, "height_m": null, "levels": null, "tract_id": "40109107601", "tract_name": "1076.01", "tags": {"building": "yes", "source": "microsoft/BuildingFootprints"}}}, {"type": "Feature", "geometry": {"type": "Polygon", "coordinates": [[[-97.4066143, 35.4394521], [-97.4065112, 35.4394507], [-97.4065101, 35.4395032], [-97.4064243, 35.439502], [-97.4064201, 35.4397008], [-97.4065113, 35.439702], [-97.4065124, 35.4396496], [-97.4065607, 35.4396503], [-97.4065614, 35.4396153], [-97.4066109, 35.439616], [-97.4066143, 35.4394521]]]}, "properties": {"osm_id": 1435960696, "building": "yes", "name": "", "height": null, "height_m": null, "levels": null, "tract_id": "40109107601", "tract_name": "1076.01", "tags": {"building": "yes", "source": "microsoft/BuildingFootprints"}}}, {"type": "Feature", "geometry": {"type": "Polygon", "coordinates": [[[-97.4066554, 35.4395022], [-97.4066614, 35.4396213], [-97.4067176, 35.4396194], [-97.4067195, 35.4396574], [-97.4068186, 35.4396541], [-97.4068167, 35.439617], [-97.4068462, 35.439616], [-97.4068389, 35.4394711], [-97.4067746, 35.4394733], [-97.4067759, 35.4394982], [-97.4066554, 35.4395022]]]}, "properties": {"osm_id": 1435960697, "building": "yes", "name": "", "height": null, "height_m": null, "levels": null, "tract_id": "40109107601", "tract_name": "1076.01", "tags": {"building": "yes", "source": "microsoft/BuildingFootprints"}}}, {"type": "Feature", "geometry": {"type": "Polygon", "coordinates": [[[-97.4069704, 35.43948], [-97.4069738, 35.4395116], [-97.4068819, 35.4395182], [-97.4068941, 35.439631], [-97.4069807, 35.4396247], [-97.4069763, 35.4395844], [-97.4070707, 35.4395777], [-97.4070595, 35.4394736], [-97.4069704, 35.43948]]]}, "properties": {"osm_id": 1435960698, "building": "yes", "name": "", "height": null, "height_m": null, "levels": null, "tract_id": "40109107601", "tract_name": "1076.01", "tags": {"building": "yes", "source": "microsoft/BuildingFootprints"}}}, {"type": "Feature", "geometry": {"type": "Polygon", "coordinates": [[[-97.4070934, 35.4394835], [-97.4071186, 35.4396305], [-97.4072963, 35.4396103], [-97.4072595, 35.4393959], [-97.4071818, 35.4394048], [-97.4071933, 35.4394721], [-97.4070934, 35.4394835]]]}, "properties": {"osm_id": 1435960699, "building": "yes", "name": "", "height": null, "height_m": null, "levels": null, "tract_id": "40109107601", "tract_name": "1076.01", "tags": {"building": "yes", "source": "microsoft/BuildingFootprints"}}}, {"type": "Feature", "geometry": {"type": "Polygon", "coordinates": [[[-97.4074089, 35.4400427], [-97.4073996, 35.4399076], [-97.4072284, 35.4399155], [-97.4072378, 35.4400506], [-97.4074089, 35.4400427]]]}, "properties": {"osm_id": 1435960700, "building": "yes", "name": "", "height": null, "height_m": null, "levels": null, "tract_id": "40109107601", "tract_name": "1076.01", "tags": {"building": "yes", "source": "microsoft/BuildingFootprints"}}}, {"type": "Feature", "geometry": {"type": "Polygon", "coordinates": [[[-97.4072091, 35.4399655], [-97.4070325, 35.4399729], [-97.4070384, 35.4400666], [-97.407215, 35.4400593], [-97.4072091, 35.4399655]]]}, "properties": {"osm_id": 1435960701, "building": "yes", "name": "", "height": null, "height_m": null, "levels": null, "tract_id": "40109107601", "tract_name": "1076.01", "tags": {"building": "yes", "source": "microsoft/BuildingFootprints"}}}, {"type": "Feature", "geometry": {"type": "Polygon", "coordinates": [[[-97.4068342, 35.4399864], [-97.4068372, 35.4400847], [-97.4069391, 35.4400826], [-97.4069395, 35.4400957], [-97.4069958, 35.4400946], [-97.4069924, 35.4399832], [-97.4068342, 35.4399864]]]}, "properties": {"osm_id": 1435960702, "building": "yes", "name": "", "height": null, "height_m": null, "levels": null, "tract_id": "40109107601", "tract_name": "1076.01", "tags": {"building": "yes", "source": "microsoft/BuildingFootprints"}}}, {"type": "Feature", "geometry": {"type": "Polygon", "coordinates": [[[-97.4066293, 35.4399843], [-97.4066318, 35.4400804], [-97.4068087, 35.4400774], [-97.4068063, 35.4399813], [-97.4066293, 35.4399843]]]}, "properties": {"osm_id": 1435960703, "building": "yes", "name": "", "height": null, "height_m": null, "levels": null, "tract_id": "40109107601", "tract_name": "1076.01", "tags": {"building": "yes", "source": "microsoft/BuildingFootprints"}}}, {"type": "Feature", "geometry": {"type": "Polygon", "coordinates": [[[-97.4066074, 35.4400271], [-97.4065752, 35.4400264], [-97.4065766, 35.4399827], [-97.4064223, 35.4399795], [-97.4064196, 35.4400646], [-97.4064935, 35.4400662], [-97.4064923, 35.4401033], [-97.4066049, 35.4401057], [-97.4066074, 35.4400271]]]}, "properties": {"osm_id": 1435960704, "building": "yes", "name": "", "height": null, "height_m": null, "levels": null, "tract_id": "40109107601", "tract_name": "1076.01", "tags": {"building": "yes", "source": "microsoft/BuildingFootprints"}}}, {"type": "Feature", "geometry": {"type": "Polygon", "coordinates": [[[-97.4063983, 35.4399795], [-97.4062159, 35.4399775], [-97.4062145, 35.4400627], [-97.4063245, 35.4400639], [-97.4063241, 35.4400901], [-97.4063965, 35.4400909], [-97.4063983, 35.4399795]]]}, "properties": {"osm_id": 1435960705, "building": "yes", "name": "", "height": null, "height_m": null, "levels": null, "tract_id": "40109107601", "tract_name": "1076.01", "tags": {"building": "yes", "source": "microsoft/BuildingFootprints"}}}, {"type": "Feature", "geometry": {"type": "Polygon", "coordinates": [[[-97.4062196, 35.4403953], [-97.4062161, 35.4405067], [-97.4063651, 35.4405098], [-97.4063693, 35.4403722], [-97.4062713, 35.4403702], [-97.4062705, 35.4403964], [-97.4062196, 35.4403953]]]}, "properties": {"osm_id": 1435960706, "building": "yes", "name": "", "height": null, "height_m": null, "levels": null, "tract_id": "40109107601", "tract_name": "1076.01", "tags": {"building": "yes", "source": "microsoft/BuildingFootprints"}}}, {"type": "Feature", "geometry": {"type": "Polygon", "coordinates": [[[-97.4064333, 35.4404639], [-97.4066038, 35.4404627], [-97.4066029, 35.4403744], [-97.4064324, 35.4403756], [-97.4064333, 35.4404639]]]}, "properties": {"osm_id": 1435960707, "building": "yes", "name": "", "height": null, "height_m": null, "levels": null, "tract_id": "40109107601", "tract_name": "1076.01", "tags": {"building": "yes", "source": "microsoft/BuildingFootprints"}}}, {"type": "Feature", "geometry": {"type": "Polygon", "coordinates": [[[-97.4068481, 35.4403696], [-97.4067677, 35.4403708], [-97.4067683, 35.440397], [-97.4066718, 35.4403984], [-97.4066736, 35.4404836], [-97.4068506, 35.440481], [-97.4068481, 35.4403696]]]}, "properties": {"osm_id": 1435960708, "building": "yes", "name": "", "height": null, "height_m": null, "levels": null, "tract_id": "40109107601", "tract_name": "1076.01", "tags": {"building": "yes", "source": "microsoft/BuildingFootprints"}}}, {"type": "Feature", "geometry": {"type": "Polygon", "coordinates": [[[-97.4068813, 35.4404744], [-97.4070583, 35.4404757], [-97.4070593, 35.4403818], [-97.4068823, 35.4403805], [-97.4068813, 35.4404744]]]}, "properties": {"osm_id": 1435960709, "building": "yes", "name": "", "height": null, "height_m": null, "levels": null, "tract_id": "40109107601", "tract_name": "1076.01", "tags": {"building": "yes", "source": "microsoft/BuildingFootprints"}}}, {"type": "Feature", "geometry": {"type": "Polygon", "coordinates": [[[-97.4071705, 35.4403657], [-97.4071722, 35.4404334], [-97.4071094, 35.4404345], [-97.4071111, 35.4405], [-97.4072812, 35.4404971], [-97.4072778, 35.4403639], [-97.4071705, 35.4403657]]]}, "properties": {"osm_id": 1435960710, "building": "yes", "name": "", "height": null, "height_m": null, "levels": null, "tract_id": "40109107601", "tract_name": "1076.01", "tags": {"building": "yes", "source": "microsoft/BuildingFootprints"}}}, {"type": "Feature", "geometry": {"type": "Polygon", "coordinates": [[[-97.4075266, 35.4404862], [-97.407519, 35.4403795], [-97.4074163, 35.4403843], [-97.4074126, 35.440332], [-97.4073309, 35.4403359], [-97.4073422, 35.4404949], [-97.4075266, 35.4404862]]]}, "properties": {"osm_id": 1435960711, "building": "yes", "name": "", "height": null, "height_m": null, "levels": null, "tract_id": "40109107601", "tract_name": "1076.01", "tags": {"building": "yes", "source": "microsoft/BuildingFootprints"}}}, {"type": "Feature", "geometry": {"type": "Polygon", "coordinates": [[[-97.4076962, 35.4402849], [-97.4077085, 35.440457], [-97.4078207, 35.4404517], [-97.4078182, 35.4404156], [-97.407877, 35.4404128], [-97.4078664, 35.4402638], [-97.4077862, 35.4402676], [-97.4077871, 35.4402806], [-97.4076962, 35.4402849]]]}, "properties": {"osm_id": 1435960712, "building": "yes", "name": "", "height": null, "height_m": null, "levels": null, "tract_id": "40109107601", "tract_name": "1076.01", "tags": {"building": "yes", "source": "microsoft/BuildingFootprints"}}}, {"type": "Feature", "geometry": {"type": "Polygon", "coordinates": [[[-97.4079326, 35.4402612], [-97.407936, 35.4404032], [-97.4080782, 35.4404009], [-97.4080734, 35.4402074], [-97.4080359, 35.4402081], [-97.4080365, 35.4402355], [-97.4079925, 35.4402362], [-97.4079931, 35.4402602], [-97.4079326, 35.4402612]]]}, "properties": {"osm_id": 1435960713, "building": "yes", "name": "", "height": null, "height_m": null, "levels": null, "tract_id": "40109107601", "tract_name": "1076.01", "tags": {"building": "yes", "source": "microsoft/BuildingFootprints"}}}, {"type": "Feature", "geometry": {"type": "Polygon", "coordinates": [[[-97.4083175, 35.4403289], [-97.4082511, 35.4403236], [-97.4082566, 35.4402781], [-97.408137, 35.4402686], [-97.408121, 35.4404018], [-97.408307, 35.4404167], [-97.4083175, 35.4403289]]]}, "properties": {"osm_id": 1435960714, "building": "yes", "name": "", "height": null, "height_m": null, "levels": null, "tract_id": "40109107601", "tract_name": "1076.01", "tags": {"building": "yes", "source": "microsoft/BuildingFootprints"}}}, {"type": "Feature", "geometry": {"type": "Polygon", "coordinates": [[[-97.4085311, 35.4404363], [-97.4085387, 35.4403021], [-97.4083513, 35.4402951], [-97.4083463, 35.4403835], [-97.4084064, 35.4403858], [-97.4084038, 35.4404316], [-97.4085311, 35.4404363]]]}, "properties": {"osm_id": 1435960715, "building": "yes", "name": "", "height": null, "height_m": null, "levels": null, "tract_id": "40109107601", "tract_name": "1076.01", "tags": {"building": "yes", "source": "microsoft/BuildingFootprints"}}}, {"type": "Feature", "geometry": {"type": "Polygon", "coordinates": [[[-97.4086821, 35.4403082], [-97.4085695, 35.4403062], [-97.4085659, 35.4404416], [-97.4087401, 35.4404447], [-97.4087421, 35.4403726], [-97.4086804, 35.4403715], [-97.4086821, 35.4403082]]]}, "properties": {"osm_id": 1435960716, "building": "yes", "name": "", "height": null, "height_m": null, "levels": null, "tract_id": "40109107601", "tract_name": "1076.01", "tags": {"building": "yes", "source": "microsoft/BuildingFootprints"}}}, {"type": "Feature", "geometry": {"type": "Polygon", "coordinates": [[[-97.4077392, 35.4397503], [-97.407657, 35.4397577], [-97.4076669, 35.4398311], [-97.4076166, 35.4398356], [-97.4076119, 35.4398011], [-97.407543, 35.4398073], [-97.4075587, 35.4399229], [-97.4076196, 35.4399175], [-97.4076218, 35.4399335], [-97.407688, 35.4399276], [-97.4076974, 35.4399966], [-97.4077716, 35.43999], [-97.4077392, 35.4397503]]]}, "properties": {"osm_id": 1435960717, "building": "yes", "name": "", "height": null, "height_m": null, "levels": null, "tract_id": "40109107601", "tract_name": "1076.01", "tags": {"building": "yes", "source": "microsoft/BuildingFootprints"}}}, {"type": "Feature", "geometry": {"type": "Polygon", "coordinates": [[[-97.407953, 35.4396943], [-97.4078672, 35.4396953], [-97.407868, 35.4397455], [-97.4078063, 35.4397462], [-97.407807, 35.4397899], [-97.4078687, 35.4397892], [-97.4078708, 35.4399159], [-97.4079566, 35.439915], [-97.407953, 35.4396943]]]}, "properties": {"osm_id": 1435960718, "building": "yes", "name": "", "height": null, "height_m": null, "levels": null, "tract_id": "40109107601", "tract_name": "1076.01", "tags": {"building": "yes", "source": "microsoft/BuildingFootprints"}}}, {"type": "Feature", "geometry": {"type": "Polygon", "coordinates": [[[-97.4080117, 35.4399819], [-97.4081699, 35.4399841], [-97.4081719, 35.4398846], [-97.4080137, 35.4398824], [-97.4080117, 35.4399819]]]}, "properties": {"osm_id": 1435960719, "building": "yes", "name": "", "height": null, "height_m": null, "levels": null, "tract_id": "40109107601", "tract_name": "1076.01", "tags": {"building": "yes", "source": "microsoft/BuildingFootprints"}}}, {"type": "Feature", "geometry": {"type": "Polygon", "coordinates": [[[-97.4082776, 35.4398489], [-97.4082764, 35.4398763], [-97.4082136, 35.4398745], [-97.4082093, 35.4399727], [-97.4083727, 35.4399774], [-97.4083782, 35.4398518], [-97.4082776, 35.4398489]]]}, "properties": {"osm_id": 1435960720, "building": "yes", "name": "", "height": null, "height_m": null, "levels": null, "tract_id": "40109107601", "tract_name": "1076.01", "tags": {"building": "yes", "source": "microsoft/BuildingFootprints"}}}, {"type": "Feature", "geometry": {"type": "Polygon", "coordinates": [[[-97.4085025, 35.4400079], [-97.4085975, 35.4400099], [-97.4086023, 35.4398614], [-97.4084442, 35.439858], [-97.4084417, 35.4399345], [-97.4085048, 35.4399358], [-97.4085025, 35.4400079]]]}, "properties": {"osm_id": 1435960721, "building": "yes", "name": "", "height": null, "height_m": null, "levels": null, "tract_id": "40109107601", "tract_name": "1076.01", "tags": {"building": "yes", "source": "microsoft/BuildingFootprints"}}}, {"type": "Feature", "geometry": {"type": "Polygon", "coordinates": [[[-97.4086233, 35.4399762], [-97.4086971, 35.439978], [-97.4086955, 35.4400216], [-97.4088081, 35.4400244], [-97.4088108, 35.4399511], [-97.4087867, 35.4399506], [-97.4087885, 35.4398993], [-97.4086263, 35.4398954], [-97.4086233, 35.4399762]]]}, "properties": {"osm_id": 1435960722, "building": "yes", "name": "", "height": null, "height_m": null, "levels": null, "tract_id": "40109107601", "tract_name": "1076.01", "tags": {"building": "yes", "source": "microsoft/BuildingFootprints"}}}, {"type": "Feature", "geometry": {"type": "Polygon", "coordinates": [[[-97.4088586, 35.4399646], [-97.4089161, 35.4399662], [-97.408913, 35.4400382], [-97.4090175, 35.4400412], [-97.409025, 35.4398654], [-97.4089702, 35.4398639], [-97.4089691, 35.4398901], [-97.4088619, 35.439887], [-97.4088586, 35.4399646]]]}, "properties": {"osm_id": 1435960723, "building": "yes", "name": "", "height": null, "height_m": null, "levels": null, "tract_id": "40109107601", "tract_name": "1076.01", "tags": {"building": "yes", "source": "microsoft/BuildingFootprints"}}}, {"type": "Feature", "geometry": {"type": "Polygon", "coordinates": [[[-97.407571, 35.439361], [-97.4075759, 35.4394229], [-97.4074717, 35.4394283], [-97.4074838, 35.4395828], [-97.4076575, 35.4395738], [-97.4076405, 35.4393574], [-97.407571, 35.439361]]]}, "properties": {"osm_id": 1435960724, "building": "yes", "name": "", "height": null, "height_m": null, "levels": null, "tract_id": "40109107601", "tract_name": "1076.01", "tags": {"building": "yes", "source": "microsoft/BuildingFootprints"}}}, {"type": "Feature", "geometry": {"type": "Polygon", "coordinates": [[[-97.4076779, 35.4393821], [-97.4076793, 35.4394988], [-97.4078778, 35.4394972], [-97.4078767, 35.4394098], [-97.4077721, 35.4394107], [-97.4077717, 35.4393813], [-97.4076779, 35.4393821]]]}, "properties": {"osm_id": 1435960725, "building": "yes", "name": "", "height": null, "height_m": null, "levels": null, "tract_id": "40109107601", "tract_name": "1076.01", "tags": {"building": "yes", "source": "microsoft/BuildingFootprints"}}}, {"type": "Feature", "geometry": {"type": "Polygon", "coordinates": [[[-97.4070935, 35.4381421], [-97.4071113, 35.438245], [-97.4072165, 35.4382329], [-97.4072298, 35.43831], [-97.4073061, 35.4383013], [-97.4072805, 35.4381534], [-97.4072621, 35.4381555], [-97.4072565, 35.4381234], [-97.4070935, 35.4381421]]]}, "properties": {"osm_id": 1435961139, "building": "yes", "name": "", "height": null, "height_m": null, "levels": null, "tract_id": "40109107601", "tract_name": "1076.01", "tags": {"building": "yes", "source": "microsoft/BuildingFootprints"}}}, {"type": "Feature", "geometry": {"type": "Polygon", "coordinates": [[[-97.4073366, 35.4380834], [-97.4073388, 35.438162], [-97.4074059, 35.4381607], [-97.4074077, 35.4382241], [-97.4075015, 35.4382223], [-97.4074957, 35.4380192], [-97.4074207, 35.4380206], [-97.4074213, 35.4380446], [-97.4073677, 35.4380456], [-97.4073688, 35.4380828], [-97.4073366, 35.4380834]]]}, "properties": {"osm_id": 1435961140, "building": "yes", "name": "", "height": null, "height_m": null, "levels": null, "tract_id": "40109107601", "tract_name": "1076.01", "tags": {"building": "yes", "source": "microsoft/BuildingFootprints"}}}, {"type": "Feature", "geometry": {"type": "Polygon", "coordinates": [[[-97.4078545, 35.4382006], [-97.4079456, 35.4382037], [-97.4079499, 35.4381209], [-97.4077491, 35.4381139], [-97.4077434, 35.438222], [-97.4078532, 35.4382258], [-97.4078545, 35.4382006]]]}, "properties": {"osm_id": 1435961141, "building": "yes", "name": "", "height": null, "height_m": null, "levels": null, "tract_id": "40109107601", "tract_name": "1076.01", "tags": {"building": "yes", "source": "microsoft/BuildingFootprints"}}}, {"type": "Feature", "geometry": {"type": "Polygon", "coordinates": [[[-97.4081635, 35.4381467], [-97.4079881, 35.4381404], [-97.4079829, 35.4382363], [-97.4081582, 35.4382427], [-97.4081635, 35.4381467]]]}, "properties": {"osm_id": 1435961142, "building": "yes", "name": "", "height": null, "height_m": null, "levels": null, "tract_id": "40109107601", "tract_name": "1076.01", "tags": {"building": "yes", "source": "microsoft/BuildingFootprints"}}}, {"type": "Feature", "geometry": {"type": "Polygon", "coordinates": [[[-97.4076217, 35.4382212], [-97.4077047, 35.4382193], [-97.4076998, 35.4380795], [-97.4075363, 35.4380834], [-97.4075399, 35.438186], [-97.4076203, 35.4381841], [-97.4076217, 35.4382212]]]}, "properties": {"osm_id": 1435961143, "building": "yes", "name": "", "height": null, "height_m": null, "levels": null, "tract_id": "40109107601", "tract_name": "1076.01", "tags": {"building": "yes", "source": "microsoft/BuildingFootprints"}}}, {"type": "Feature", "geometry": {"type": "Polygon", "coordinates": [[[-97.4083668, 35.438247], [-97.4083706, 35.4381662], [-97.4081912, 35.4381606], [-97.4081867, 35.4382566], [-97.4083219, 35.4382609], [-97.4083227, 35.4382456], [-97.4083668, 35.438247]]]}, "properties": {"osm_id": 1435961144, "building": "yes", "name": "", "height": null, "height_m": null, "levels": null, "tract_id": "40109107601", "tract_name": "1076.01", "tags": {"building": "yes", "source": "microsoft/BuildingFootprints"}}}, {"type": "Feature", "geometry": {"type": "Polygon", "coordinates": [[[-97.4085827, 35.4381631], [-97.4084956, 35.4381604], [-97.4084948, 35.4381768], [-97.4084038, 35.438174], [-97.4083998, 35.4382591], [-97.408456, 35.4382609], [-97.4084551, 35.4382805], [-97.4084953, 35.4382818], [-97.408493, 35.4383319], [-97.4085746, 35.4383345], [-97.4085827, 35.4381631]]]}, "properties": {"osm_id": 1435961145, "building": "yes", "name": "", "height": null, "height_m": null, "levels": null, "tract_id": "40109107601", "tract_name": "1076.01", "tags": {"building": "yes", "source": "microsoft/BuildingFootprints"}}}, {"type": "Feature", "geometry": {"type": "Polygon", "coordinates": [[[-97.4086829, 35.4382582], [-97.408681, 35.4382974], [-97.4087774, 35.4383006], [-97.4087833, 35.4381794], [-97.4086146, 35.4381739], [-97.4086106, 35.4382558], [-97.4086829, 35.4382582]]]}, "properties": {"osm_id": 1435961146, "building": "yes", "name": "", "height": null, "height_m": null, "levels": null, "tract_id": "40109107601", "tract_name": "1076.01", "tags": {"building": "yes", "source": "microsoft/BuildingFootprints"}}}, {"type": "Feature", "geometry": {"type": "Polygon", "coordinates": [[[-97.408911, 35.4382792], [-97.4089097, 35.4383141], [-97.4089955, 35.4383162], [-97.4089997, 35.4382027], [-97.4088469, 35.4381989], [-97.408844, 35.4382775], [-97.408911, 35.4382792]]]}, "properties": {"osm_id": 1435961147, "building": "yes", "name": "", "height": null, "height_m": null, "levels": null, "tract_id": "40109107601", "tract_name": "1076.01", "tags": {"building": "yes", "source": "microsoft/BuildingFootprints"}}}, {"type": "Feature", "geometry": {"type": "Polygon", "coordinates": [[[-97.4092161, 35.4381989], [-97.4090286, 35.4381937], [-97.4090242, 35.4382995], [-97.409118, 35.4383021], [-97.4091171, 35.4383239], [-97.4092109, 35.4383265], [-97.4092161, 35.4381989]]]}, "properties": {"osm_id": 1435961148, "building": "yes", "name": "", "height": null, "height_m": null, "levels": null, "tract_id": "40109107601", "tract_name": "1076.01", "tags": {"building": "yes", "source": "microsoft/BuildingFootprints"}}}, {"type": "Feature", "geometry": {"type": "Polygon", "coordinates": [[[-97.4093349, 35.4383272], [-97.409418, 35.4383283], [-97.4094202, 35.4382223], [-97.4092392, 35.4382198], [-97.4092376, 35.4382984], [-97.4093354, 35.4382998], [-97.4093349, 35.4383272]]]}, "properties": {"osm_id": 1435961149, "building": "yes", "name": "", "height": null, "height_m": null, "levels": null, "tract_id": "40109107601", "tract_name": "1076.01", "tags": {"building": "yes", "source": "microsoft/BuildingFootprints"}}}, {"type": "Feature", "geometry": {"type": "Polygon", "coordinates": [[[-97.4094639, 35.4381826], [-97.4094623, 35.4382591], [-97.4095267, 35.43826], [-97.4095253, 35.4383277], [-97.4096232, 35.4383291], [-97.4096262, 35.4381849], [-97.4094639, 35.4381826]]]}, "properties": {"osm_id": 1435961150, "building": "yes", "name": "", "height": null, "height_m": null, "levels": null, "tract_id": "40109107601", "tract_name": "1076.01", "tags": {"building": "yes", "source": "microsoft/BuildingFootprints"}}}, {"type": "Feature", "geometry": {"type": "Polygon", "coordinates": [[[-97.4096562, 35.4383088], [-97.4097742, 35.438308], [-97.409775, 35.4383823], [-97.4098448, 35.4383818], [-97.4098423, 35.4381632], [-97.4097351, 35.438164], [-97.4097358, 35.4382274], [-97.4096553, 35.438228], [-97.4096562, 35.4383088]]]}, "properties": {"osm_id": 1435961151, "building": "yes", "name": "", "height": null, "height_m": null, "levels": null, "tract_id": "40109107601", "tract_name": "1076.01", "tags": {"building": "yes", "source": "microsoft/BuildingFootprints"}}}, {"type": "Feature", "geometry": {"type": "Polygon", "coordinates": [[[-97.4100612, 35.4382392], [-97.4100063, 35.4382383], [-97.4100071, 35.4382055], [-97.4099401, 35.4382043], [-97.4099395, 35.4382273], [-97.4098725, 35.4382261], [-97.4098697, 35.4383287], [-97.4100587, 35.4383321], [-97.4100612, 35.4382392]]]}, "properties": {"osm_id": 1435961152, "building": "yes", "name": "", "height": null, "height_m": null, "levels": null, "tract_id": "40109107601", "tract_name": "1076.01", "tags": {"building": "yes", "source": "microsoft/BuildingFootprints"}}}, {"type": "Feature", "geometry": {"type": "Polygon", "coordinates": [[[-97.4102664, 35.4381632], [-97.4101914, 35.4381621], [-97.4101905, 35.4382036], [-97.4100953, 35.4382022], [-97.4100925, 35.4383289], [-97.4102628, 35.4383314], [-97.4102664, 35.4381632]]]}, "properties": {"osm_id": 1435961153, "building": "yes", "name": "", "height": null, "height_m": null, "levels": null, "tract_id": "40109107601", "tract_name": "1076.01", "tags": {"building": "yes", "source": "microsoft/BuildingFootprints"}}}, {"type": "Feature", "geometry": {"type": "Polygon", "coordinates": [[[-97.4101135, 35.4387553], [-97.4102798, 35.4387534], [-97.4102774, 35.4386223], [-97.4101112, 35.4386242], [-97.4101135, 35.4387553]]]}, "properties": {"osm_id": 1435961154, "building": "yes", "name": "", "height": null, "height_m": null, "levels": null, "tract_id": "40109107601", "tract_name": "1076.01", "tags": {"building": "yes", "source": "microsoft/BuildingFootprints"}}}, {"type": "Feature", "geometry": {"type": "Polygon", "coordinates": [[[-97.4100364, 35.4386805], [-97.4099546, 35.438681], [-97.4099541, 35.4386253], [-97.4098615, 35.4386259], [-97.4098627, 35.438758], [-97.4100371, 35.438757], [-97.4100364, 35.4386805]]]}, "properties": {"osm_id": 1435961155, "building": "yes", "name": "", "height": null, "height_m": null, "levels": null, "tract_id": "40109107601", "tract_name": "1076.01", "tags": {"building": "yes", "source": "microsoft/BuildingFootprints"}}}, {"type": "Feature", "geometry": {"type": "Polygon", "coordinates": [[[-97.4096437, 35.4386255], [-97.4096421, 35.4387556], [-97.4098164, 35.4387571], [-97.4098181, 35.438627], [-97.4096437, 35.4386255]]]}, "properties": {"osm_id": 1435961156, "building": "yes", "name": "", "height": null, "height_m": null, "levels": null, "tract_id": "40109107601", "tract_name": "1076.01", "tags": {"building": "yes", "source": "microsoft/BuildingFootprints"}}}, {"type": "Feature", "geometry": {"type": "Polygon", "coordinates": [[[-97.4095909, 35.4387464], [-97.4095951, 35.4386241], [-97.4095147, 35.4386223], [-97.4095138, 35.4386485], [-97.4094254, 35.4386465], [-97.4094221, 35.4387425], [-97.4095909, 35.4387464]]]}, "properties": {"osm_id": 1435961157, "building": "yes", "name": "", "height": null, "height_m": null, "levels": null, "tract_id": "40109107601", "tract_name": "1076.01", "tags": {"building": "yes", "source": "microsoft/BuildingFootprints"}}}, {"type": "Feature", "geometry": {"type": "Polygon", "coordinates": [[[-97.4093814, 35.4386197], [-97.409297, 35.4386172], [-97.4092942, 35.4386805], [-97.4092058, 35.4386779], [-97.4092026, 35.4387499], [-97.4093753, 35.4387551], [-97.4093814, 35.4386197]]]}, "properties": {"osm_id": 1435961158, "building": "yes", "name": "", "height": null, "height_m": null, "levels": null, "tract_id": "40109107601", "tract_name": "1076.01", "tags": {"building": "yes", "source": "microsoft/BuildingFootprints"}}}, {"type": "Feature", "geometry": {"type": "Polygon", "coordinates": [[[-97.409157, 35.4386133], [-97.4090606, 35.4386109], [-97.4090594, 35.4386404], [-97.4089871, 35.4386386], [-97.4089835, 35.4387313], [-97.4091523, 35.4387356], [-97.409157, 35.4386133]]]}, "properties": {"osm_id": 1435961159, "building": "yes", "name": "", "height": null, "height_m": null, "levels": null, "tract_id": "40109107601", "tract_name": "1076.01", "tags": {"building": "yes", "source": "microsoft/BuildingFootprints"}}}, {"type": "Feature", "geometry": {"type": "Polygon", "coordinates": [[[-97.4087602, 35.4387593], [-97.4088647, 35.4387625], [-97.4088658, 35.4387374], [-97.4089382, 35.4387396], [-97.4089417, 35.4386622], [-97.4088601, 35.4386597], [-97.4088629, 35.4385986], [-97.4087678, 35.4385957], [-97.4087602, 35.4387593]]]}, "properties": {"osm_id": 1435961160, "building": "yes", "name": "", "height": null, "height_m": null, "levels": null, "tract_id": "40109107601", "tract_name": "1076.01", "tags": {"building": "yes", "source": "microsoft/BuildingFootprints"}}}, {"type": "Feature", "geometry": {"type": "Polygon", "coordinates": [[[-97.4085484, 35.4386409], [-97.4085437, 35.4387216], [-97.4086388, 35.4387252], [-97.4086374, 35.4387492], [-97.408715, 35.4387522], [-97.4087238, 35.4385996], [-97.4086435, 35.4385965], [-97.4086407, 35.4386444], [-97.4085484, 35.4386409]]]}, "properties": {"osm_id": 1435961161, "building": "yes", "name": "", "height": null, "height_m": null, "levels": null, "tract_id": "40109107601", "tract_name": "1076.01", "tags": {"building": "yes", "source": "microsoft/BuildingFootprints"}}}, {"type": "Feature", "geometry": {"type": "Polygon", "coordinates": [[[-97.4083197, 35.4387258], [-97.4084215, 35.4387285], [-97.4084224, 35.4387066], [-97.4084947, 35.4387085], [-97.4084999, 35.4385753], [-97.4083257, 35.4385708], [-97.4083197, 35.4387258]]]}, "properties": {"osm_id": 1435961162, "building": "yes", "name": "", "height": null, "height_m": null, "levels": null, "tract_id": "40109107601", "tract_name": "1076.01", "tags": {"building": "yes", "source": "microsoft/BuildingFootprints"}}}, {"type": "Feature", "geometry": {"type": "Polygon", "coordinates": [[[-97.4082795, 35.4385622], [-97.4082019, 35.438559], [-97.4082007, 35.4385786], [-97.4081097, 35.4385748], [-97.4081035, 35.4386751], [-97.408173, 35.438678], [-97.4081701, 35.4387238], [-97.4082691, 35.4387279], [-97.4082795, 35.4385622]]]}, "properties": {"osm_id": 1435961163, "building": "yes", "name": "", "height": null, "height_m": null, "levels": null, "tract_id": "40109107601", "tract_name": "1076.01", "tags": {"building": "yes", "source": "microsoft/BuildingFootprints"}}}, {"type": "Feature", "geometry": {"type": "Polygon", "coordinates": [[[-97.4080708, 35.4385446], [-97.4079883, 35.4385384], [-97.4079826, 35.4385892], [-97.4078948, 35.4385826], [-97.4078855, 35.4386649], [-97.4080557, 35.4386777], [-97.4080708, 35.4385446]]]}, "properties": {"osm_id": 1435961164, "building": "yes", "name": "", "height": null, "height_m": null, "levels": null, "tract_id": "40109107601", "tract_name": "1076.01", "tags": {"building": "yes", "source": "microsoft/BuildingFootprints"}}}, {"type": "Feature", "geometry": {"type": "Polygon", "coordinates": [[[-97.4078483, 35.4386327], [-97.4078556, 35.4385247], [-97.4077887, 35.4385217], [-97.4077874, 35.4385413], [-97.4076778, 35.4385364], [-97.4076718, 35.4386248], [-97.4078483, 35.4386327]]]}, "properties": {"osm_id": 1435961165, "building": "yes", "name": "", "height": null, "height_m": null, "levels": null, "tract_id": "40109107601", "tract_name": "1076.01", "tags": {"building": "yes", "source": "microsoft/BuildingFootprints"}}}, {"type": "Feature", "geometry": {"type": "Polygon", "coordinates": [[[-97.4074521, 35.4385477], [-97.407449, 35.4386263], [-97.4076286, 35.4386309], [-97.4076352, 35.4384628], [-97.4075708, 35.4384612], [-97.4075673, 35.4385507], [-97.4074521, 35.4385477]]]}, "properties": {"osm_id": 1435961166, "building": "yes", "name": "", "height": null, "height_m": null, "levels": null, "tract_id": "40109107601", "tract_name": "1076.01", "tags": {"building": "yes", "source": "microsoft/BuildingFootprints"}}}, {"type": "Feature", "geometry": {"type": "Polygon", "coordinates": [[[-97.4074078, 35.43852], [-97.4072872, 35.4385232], [-97.4072879, 35.4385407], [-97.4072182, 35.4385425], [-97.4072218, 35.4386342], [-97.4073317, 35.4386313], [-97.4073334, 35.438674], [-97.4074137, 35.4386719], [-97.4074078, 35.43852]]]}, "properties": {"osm_id": 1435961167, "building": "yes", "name": "", "height": null, "height_m": null, "levels": null, "tract_id": "40109107601", "tract_name": "1076.01", "tags": {"building": "yes", "source": "microsoft/BuildingFootprints"}}}, {"type": "Feature", "geometry": {"type": "Polygon", "coordinates": [[[-97.4073221, 35.4389993], [-97.4073412, 35.4391098], [-97.407449, 35.4390975], [-97.4074538, 35.4391253], [-97.4075643, 35.4391127], [-97.4075404, 35.4389743], [-97.4073221, 35.4389993]]]}, "properties": {"osm_id": 1435961168, "building": "yes", "name": "", "height": null, "height_m": null, "levels": null, "tract_id": "40109107601", "tract_name": "1076.01", "tags": {"building": "yes", "source": "microsoft/BuildingFootprints"}}}, {"type": "Feature", "geometry": {"type": "Polygon", "coordinates": [[[-97.4075792, 35.4389468], [-97.4075942, 35.439101], [-97.4078208, 35.4390863], [-97.4078081, 35.438956], [-97.4076562, 35.4389658], [-97.4076538, 35.4389419], [-97.4075792, 35.4389468]]]}, "properties": {"osm_id": 1435961169, "building": "yes", "name": "", "height": null, "height_m": null, "levels": null, "tract_id": "40109107601", "tract_name": "1076.01", "tags": {"building": "yes", "source": "microsoft/BuildingFootprints"}}}, {"type": "Feature", "geometry": {"type": "Polygon", "coordinates": [[[-97.4079843, 35.4389673], [-97.4079824, 35.439], [-97.407886, 35.4389962], [-97.4078811, 35.439079], [-97.4080711, 35.4390865], [-97.4080684, 35.4391323], [-97.408138, 35.439135], [-97.4081384, 35.4391284], [-97.4081612, 35.4391293], [-97.4081703, 35.4389745], [-97.4079843, 35.4389673]]]}, "properties": {"osm_id": 1435961170, "building": "yes", "name": "", "height": null, "height_m": null, "levels": null, "tract_id": "40109107601", "tract_name": "1076.01", "tags": {"building": "yes", "source": "microsoft/BuildingFootprints"}}}, {"type": "Feature", "geometry": {"type": "Polygon", "coordinates": [[[-97.4080914, 35.4394566], [-97.4080123, 35.4394543], [-97.4080153, 35.4393876], [-97.4079203, 35.4393848], [-97.4079129, 35.4395497], [-97.4079826, 35.4395518], [-97.4079836, 35.4395278], [-97.4080881, 35.4395308], [-97.4080914, 35.4394566]]]}, "properties": {"osm_id": 1435961171, "building": "yes", "name": "", "height": null, "height_m": null, "levels": null, "tract_id": "40109107601", "tract_name": "1076.01", "tags": {"building": "yes", "source": "microsoft/BuildingFootprints"}}}, {"type": "Feature", "geometry": {"type": "Polygon", "coordinates": [[[-97.4083103, 35.4394069], [-97.4082273, 35.4394041], [-97.4082267, 35.4394172], [-97.4081303, 35.439414], [-97.4081252, 35.4395156], [-97.4083046, 35.4395216], [-97.4083103, 35.4394069]]]}, "properties": {"osm_id": 1435961172, "building": "yes", "name": "", "height": null, "height_m": null, "levels": null, "tract_id": "40109107601", "tract_name": "1076.01", "tags": {"building": "yes", "source": "microsoft/BuildingFootprints"}}}, {"type": "Feature", "geometry": {"type": "Polygon", "coordinates": [[[-97.4083516, 35.4394113], [-97.4083359, 35.43955], [-97.4085035, 35.4395625], [-97.4085124, 35.4394835], [-97.4084367, 35.4394779], [-97.4084434, 35.4394182], [-97.4083516, 35.4394113]]]}, "properties": {"osm_id": 1435961173, "building": "yes", "name": "", "height": null, "height_m": null, "levels": null, "tract_id": "40109107601", "tract_name": "1076.01", "tags": {"building": "yes", "source": "microsoft/BuildingFootprints"}}}, {"type": "Feature", "geometry": {"type": "Polygon", "coordinates": [[[-97.4087429, 35.4394858], [-97.4086558, 35.4394824], [-97.4086578, 35.4394475], [-97.4085588, 35.4394437], [-97.4085517, 35.4395658], [-97.4087378, 35.439573], [-97.4087429, 35.4394858]]]}, "properties": {"osm_id": 1435961174, "building": "yes", "name": "", "height": null, "height_m": null, "levels": null, "tract_id": "40109107601", "tract_name": "1076.01", "tags": {"building": "yes", "source": "microsoft/BuildingFootprints"}}}, {"type": "Feature", "geometry": {"type": "Polygon", "coordinates": [[[-97.4088726, 35.439608], [-97.4088713, 35.4396364], [-97.4089169, 35.4396377], [-97.408918, 35.4396115], [-97.4089582, 35.4396126], [-97.4089641, 35.4394751], [-97.4087846, 35.43947], [-97.4087788, 35.4396053], [-97.4088726, 35.439608]]]}, "properties": {"osm_id": 1435961175, "building": "yes", "name": "", "height": null, "height_m": null, "levels": null, "tract_id": "40109107601", "tract_name": "1076.01", "tags": {"building": "yes", "source": "microsoft/BuildingFootprints"}}}, {"type": "Feature", "geometry": {"type": "Polygon", "coordinates": [[[-97.4090061, 35.4394802], [-97.4090015, 35.4396091], [-97.4091742, 35.4396132], [-97.4091768, 35.4395411], [-97.4090964, 35.4395392], [-97.4090984, 35.4394824], [-97.4090061, 35.4394802]]]}, "properties": {"osm_id": 1435961176, "building": "yes", "name": "", "height": null, "height_m": null, "levels": null, "tract_id": "40109107601", "tract_name": "1076.01", "tags": {"building": "yes", "source": "microsoft/BuildingFootprints"}}}, {"type": "Feature", "geometry": {"type": "Polygon", "coordinates": [[[-97.409215, 35.4396081], [-97.4093972, 35.4396126], [-97.4094014, 35.4394969], [-97.409321, 35.4394949], [-97.4093205, 35.4395102], [-97.4092186, 35.4395077], [-97.409215, 35.4396081]]]}, "properties": {"osm_id": 1435961177, "building": "yes", "name": "", "height": null, "height_m": null, "levels": null, "tract_id": "40109107601", "tract_name": "1076.01", "tags": {"building": "yes", "source": "microsoft/BuildingFootprints"}}}, {"type": "Feature", "geometry": {"type": "Polygon", "coordinates": [[[-97.4096609, 35.4392047], [-97.4098459, 35.4392089], [-97.4098502, 35.4390834], [-97.4096653, 35.4390792], [-97.4096609, 35.4392047]]]}, "properties": {"osm_id": 1435961178, "building": "yes", "name": "", "height": null, "height_m": null, "levels": null, "tract_id": "40109107601", "tract_name": "1076.01", "tags": {"building": "yes", "source": "microsoft/BuildingFootprints"}}}, {"type": "Feature", "geometry": {"type": "Polygon", "coordinates": [[[-97.4099786, 35.4392092], [-97.4100509, 35.439211], [-97.4100576, 35.4390331], [-97.4099691, 35.4390309], [-97.4099668, 35.4390942], [-97.4098757, 35.4390919], [-97.4098725, 35.4391771], [-97.4099797, 35.4391797], [-97.4099786, 35.4392092]]]}, "properties": {"osm_id": 1435961179, "building": "yes", "name": "", "height": null, "height_m": null, "levels": null, "tract_id": "40109107601", "tract_name": "1076.01", "tags": {"building": "yes", "source": "microsoft/BuildingFootprints"}}}, {"type": "Feature", "geometry": {"type": "Polygon", "coordinates": [[[-97.4100838, 35.4391312], [-97.410086, 35.4392197], [-97.4102831, 35.4392166], [-97.41028, 35.4390866], [-97.4101861, 35.4390881], [-97.4101871, 35.4391296], [-97.4100838, 35.4391312]]]}, "properties": {"osm_id": 1435961180, "building": "yes", "name": "", "height": null, "height_m": null, "levels": null, "tract_id": "40109107601", "tract_name": "1076.01", "tags": {"building": "yes", "source": "microsoft/BuildingFootprints"}}}, {"type": "Feature", "geometry": {"type": "Polygon", "coordinates": [[[-97.4091183, 35.4391931], [-97.4092201, 35.4391961], [-97.4092269, 35.4390456], [-97.409042, 35.4390401], [-97.4090369, 35.4391557], [-97.4091199, 35.4391582], [-97.4091183, 35.4391931]]]}, "properties": {"osm_id": 1435961181, "building": "yes", "name": "", "height": null, "height_m": null, "levels": null, "tract_id": "40109107601", "tract_name": "1076.01", "tags": {"building": "yes", "source": "microsoft/BuildingFootprints"}}}, {"type": "Feature", "geometry": {"type": "Polygon", "coordinates": [[[-97.4086252, 35.4391297], [-97.4086947, 35.4391329], [-97.4086928, 35.4391603], [-97.4087409, 35.4391625], [-97.4087369, 35.4392201], [-97.4087889, 35.4392226], [-97.4088009, 35.4390517], [-97.4087903, 35.4390128], [-97.4087114, 35.4390092], [-97.4087088, 35.4390474], [-97.4086312, 35.4390438], [-97.4086252, 35.4391297]]]}, "properties": {"osm_id": 1435961182, "building": "yes", "name": "", "height": null, "height_m": null, "levels": null, "tract_id": "40109107601", "tract_name": "1076.01", "tags": {"building": "yes", "source": "microsoft/BuildingFootprints"}}}, {"type": "Feature", "geometry": {"type": "Polygon", "coordinates": [[[-97.4084327, 35.4390795], [-97.4084916, 35.4390819], [-97.4084871, 35.439156], [-97.4085834, 35.4391598], [-97.4085942, 35.4389811], [-97.4085273, 35.4389784], [-97.4085256, 35.4390067], [-97.4084373, 35.4390032], [-97.4084327, 35.4390795]]]}, "properties": {"osm_id": 1435961183, "building": "yes", "name": "", "height": null, "height_m": null, "levels": null, "tract_id": "40109107601", "tract_name": "1076.01", "tags": {"building": "yes", "source": "microsoft/BuildingFootprints"}}}, {"type": "Feature", "geometry": {"type": "Polygon", "coordinates": [[[-97.4082089, 35.4390207], [-97.408203, 35.4391341], [-97.4083824, 35.4391403], [-97.4083891, 35.4390106], [-97.4083463, 35.4390092], [-97.4083482, 35.4389709], [-97.4082666, 35.4389681], [-97.4082638, 35.4390226], [-97.4082089, 35.4390207]]]}, "properties": {"osm_id": 1435961184, "building": "yes", "name": "", "height": null, "height_m": null, "levels": null, "tract_id": "40109107601", "tract_name": "1076.01", "tags": {"building": "yes", "source": "microsoft/BuildingFootprints"}}}, {"type": "Feature", "geometry": {"type": "Polygon", "coordinates": [[[-97.40943, 35.4390437], [-97.4092852, 35.4390408], [-97.4092806, 35.4391948], [-97.4094254, 35.4391977], [-97.40943, 35.4390437]]]}, "properties": {"osm_id": 1435961185, "building": "yes", "name": "", "height": null, "height_m": null, "levels": null, "tract_id": "40109107601", "tract_name": "1076.01", "tags": {"building": "yes", "source": "microsoft/BuildingFootprints"}}}, {"type": "Feature", "geometry": {"type": "Polygon", "coordinates": [[[-97.4094568, 35.4391755], [-97.4095693, 35.4391783], [-97.4095683, 35.4392066], [-97.4096326, 35.4392082], [-97.4096381, 35.4390609], [-97.4095631, 35.439059], [-97.4095619, 35.4390907], [-97.4094601, 35.4390881], [-97.4094568, 35.4391755]]]}, "properties": {"osm_id": 1435961186, "building": "yes", "name": "", "height": null, "height_m": null, "levels": null, "tract_id": "40109107601", "tract_name": "1076.01", "tags": {"building": "yes", "source": "microsoft/BuildingFootprints"}}}, {"type": "Feature", "geometry": {"type": "Polygon", "coordinates": [[[-97.4088402, 35.4391476], [-97.4089301, 35.4391501], [-97.4089289, 35.4391775], [-97.4090013, 35.4391794], [-97.409006, 35.4390648], [-97.4088439, 35.4390603], [-97.4088402, 35.4391476]]]}, "properties": {"osm_id": 1435961187, "building": "yes", "name": "", "height": null, "height_m": null, "levels": null, "tract_id": "40109107601", "tract_name": "1076.01", "tags": {"building": "yes", "source": "microsoft/BuildingFootprints"}}}]}