{"type": "FeatureCollection", "features": [{"type": "Feature", "geometry": {"type": "Polygon", "coordinates": [[[-95.7519077, 36.0458705], [-95.7517339, 36.0459431], [-95.751538, 36.0456364], [-95.7517117, 36.0455638], [-95.7519077, 36.0458705]]]}, "properties": {"osm_id": 107608243, "building": "yes", "name": "QuikTrip", "height": null, "height_m": null, "levels": null, "tract_id": "40145030502", "tract_name": "305.02", "tags": {"amenity": "fuel", "brand": "QuikTrip", "brand:wikidata": "Q7271953", "building": "yes", "compressed_air": "no", "fuel:e10": "yes", "name": "QuikTrip", "opening_hours": "24/7", "short_name": "QT", "wheelchair": "yes"}}}, {"type": "Feature", "geometry": {"type": "Polygon", "coordinates": [[[-95.7522214, 36.0457485], [-95.7521046, 36.0457972], [-95.7520651, 36.0457355], [-95.7520492, 36.0457421], [-95.7519454, 36.0455799], [-95.7519613, 36.0455732], [-95.7519163, 36.0455029], [-95.7520331, 36.0454541], [-95.7522214, 36.0457485]]]}, "properties": {"osm_id": 107608255, "building": "yes", "name": "QuikTrip", "height": null, "height_m": null, "levels": null, "tract_id": "40145030502", "tract_name": "305.02", "tags": {"addr:city": "Broken Arrow", "addr:housenumber": "8100", "addr:postcode": "74014", "addr:street": "South State Highway 51", "brand": "QuikTrip", "brand:wikidata": "Q7271953", "building": "yes", "name": "QuikTrip", "opening_hours": "24/7", "phone": "+1 918 251 4331", "ref": "50", "shop": "convenience", "short_name": "QT", "wheelchair": "yes"}}}, {"type": "Feature", "geometry": {"type": "Polygon", "coordinates": [[[-95.7562792, 36.0605198], [-95.7559636, 36.0605185], [-95.7559658, 36.0601457], [-95.7562815, 36.0601469], [-95.7562792, 36.0605198]]]}, "properties": {"osm_id": 111244909, "building": "yes", "name": "Broken Arrow East", "height": null, "height_m": null, "levels": null, "tract_id": "40145030502", "tract_name": "305.02", "tags": {"addr:city": "Broken Arrow", "addr:housenumber": "2801", "addr:postcode": "74014-9998", "addr:street": "East Kenosha Street", "amenity": "post_office", "brand": "United States Postal Service", "brand:wikidata": "Q668687", "building": "yes", "name": "Broken Arrow East", "operator": "United States Postal Service", "operator:short": "USPS", "operator:type": "public", "operator:website": "https://www.usps.com", "operator:wikidata": "Q668687", "operator:wikipedia": "en:United States Postal Service", "short_name": "USPS"}}}, {"type": "Feature", "geometry": {"type": "Polygon", "coordinates": [[[-95.7299493, 36.033587], [-95.7294767, 36.0335853], [-95.7294771, 36.0335134], [-95.7292706, 36.0335127], [-95.7292709, 36.0334539], [-95.7289254, 36.0334527], [-95.7289272, 36.033127], [-95.7285879, 36.0331257], [-95.7285912, 36.0325338], [-95.7289352, 36.032535], [-95.7289333, 36.0328939], [-95.7292712, 36.0328952], [-95.7292705, 36.0330388], [-95.7299523, 36.0330412], [-95.7299493, 36.033587]]]}, "properties": {"osm_id": 195661854, "building": "yes", "name": "", "height": null, "height_m": null, "levels": null, "tract_id": "40145030502", "tract_name": "305.02", "tags": {"building": "yes"}}}, {"type": "Feature", "geometry": {"type": "Polygon", "coordinates": [[[-95.73292, 36.021329], [-95.7337686, 36.0213277], [-95.7337683, 36.0215456], [-95.7337571, 36.0215456], [-95.7337572, 36.0216148], [-95.7336254, 36.0216149], [-95.7336253, 36.0215458], [-95.7330534, 36.0215463], [-95.7330533, 36.0215062], [-95.7329208, 36.0215064], [-95.73292, 36.021329]]]}, "properties": {"osm_id": 376274550, "building": "yes", "name": "", "height": null, "height_m": null, "levels": null, "tract_id": "40145030502", "tract_name": "305.02", "tags": {"building": "yes"}}}, {"type": "Feature", "geometry": {"type": "Polygon", "coordinates": [[[-95.7348247, 36.0216178], [-95.7346378, 36.0216173], [-95.73464, 36.0210556], [-95.7345036, 36.0210553], [-95.734503, 36.0212216], [-95.7330482, 36.021218], [-95.7330484, 36.0211778], [-95.7329271, 36.0211775], [-95.7329277, 36.0210046], [-95.7348271, 36.0210094], [-95.7348247, 36.0216178]]]}, "properties": {"osm_id": 376274556, "building": "yes", "name": "", "height": null, "height_m": null, "levels": null, "tract_id": "40145030502", "tract_name": "305.02", "tags": {"building": "yes"}}}, {"type": "Feature", "geometry": {"type": "Polygon", "coordinates": [[[-95.7337357, 36.0232538], [-95.7330533, 36.0232524], [-95.7330537, 36.0231307], [-95.7329746, 36.0231305], [-95.7329751, 36.0229408], [-95.7332692, 36.0229414], [-95.7332691, 36.0229776], [-95.733388, 36.0229779], [-95.7333878, 36.0230338], [-95.7337364, 36.0230345], [-95.7337357, 36.0232538]]]}, "properties": {"osm_id": 376274563, "building": "yes", "name": "", "height": null, "height_m": null, "levels": null, "tract_id": "40145030502", "tract_name": "305.02", "tags": {"building": "yes"}}}, {"type": "Feature", "geometry": {"type": "Polygon", "coordinates": [[[-95.7335626, 36.0244753], [-95.7332757, 36.0244753], [-95.7332757, 36.0243015], [-95.7331976, 36.0243015], [-95.7331976, 36.0244029], [-95.7330569, 36.0244029], [-95.7330569, 36.0241963], [-95.7331988, 36.0241963], [-95.7331988, 36.0242776], [-95.7332757, 36.0242776], [-95.7332757, 36.0241959], [-95.7333568, 36.0241959], [-95.7333568, 36.023821], [-95.7335626, 36.023821], [-95.7335626, 36.0244753]]]}, "properties": {"osm_id": 376274569, "building": "yes", "name": "", "height": null, "height_m": null, "levels": null, "tract_id": "40145030502", "tract_name": "305.02", "tags": {"building": "yes"}}}, {"type": "Feature", "geometry": {"type": "Polygon", "coordinates": [[[-95.7338969, 36.0224361], [-95.7338941, 36.0227082], [-95.7330447, 36.0227146], [-95.7330542, 36.0224358], [-95.7338969, 36.0224361]]]}, "properties": {"osm_id": 376274573, "building": "yes", "name": "", "height": null, "height_m": null, "levels": null, "tract_id": "40145030502", "tract_name": "305.02", "tags": {"building": "yes"}}}, {"type": "Feature", "geometry": {"type": "Polygon", "coordinates": [[[-95.7306365, 36.025578], [-95.7303736, 36.0255019], [-95.7305581, 36.0250848], [-95.730821, 36.0251609], [-95.7306365, 36.025578]]]}, "properties": {"osm_id": 376274574, "building": "yes", "name": "", "height": null, "height_m": null, "levels": null, "tract_id": "40145030502", "tract_name": "305.02", "tags": {"building": "yes"}}}, {"type": "Feature", "geometry": {"type": "Polygon", "coordinates": [[[-95.7318198, 36.0243161], [-95.7314697, 36.0243161], [-95.7314697, 36.0242186], [-95.7318198, 36.0242186], [-95.7318198, 36.0243161]]]}, "properties": {"osm_id": 376274575, "building": "yes", "name": "", "height": null, "height_m": null, "levels": null, "tract_id": "40145030502", "tract_name": "305.02", "tags": {"building": "yes"}}}, {"type": "Feature", "geometry": {"type": "Polygon", "coordinates": [[[-95.732902, 36.025463], [-95.7323688, 36.0254657], [-95.7323677, 36.0253253], [-95.7329009, 36.0253226], [-95.732902, 36.025463]]]}, "properties": {"osm_id": 376274576, "building": "yes", "name": "", "height": null, "height_m": null, "levels": null, "tract_id": "40145030502", "tract_name": "305.02", "tags": {"building": "yes"}}}, {"type": "Feature", "geometry": {"type": "Polygon", "coordinates": [[[-95.7331444, 36.0251063], [-95.7327965, 36.025108], [-95.7327954, 36.0249676], [-95.7331433, 36.0249659], [-95.7331444, 36.0251063]]]}, "properties": {"osm_id": 376274577, "building": "yes", "name": "", "height": null, "height_m": null, "levels": null, "tract_id": "40145030502", "tract_name": "305.02", "tags": {"building": "yes"}}}, {"type": "Feature", "geometry": {"type": "Polygon", "coordinates": [[[-95.7321091, 36.0255414], [-95.7319387, 36.0255422], [-95.7319354, 36.0251085], [-95.7321059, 36.0251077], [-95.7321091, 36.0255414]]]}, "properties": {"osm_id": 376274578, "building": "yes", "name": "", "height": null, "height_m": null, "levels": null, "tract_id": "40145030502", "tract_name": "305.02", "tags": {"building": "yes"}}}, {"type": "Feature", "geometry": {"type": "Polygon", "coordinates": [[[-95.7324221, 36.0220817], [-95.7324188, 36.0223666], [-95.7316641, 36.0223609], [-95.7316675, 36.0220759], [-95.7324221, 36.0220817]]]}, "properties": {"osm_id": 376274580, "building": "yes", "name": "", "height": null, "height_m": null, "levels": null, "tract_id": "40145030502", "tract_name": "305.02", "tags": {"building": "yes"}}}, {"type": "Feature", "geometry": {"type": "Polygon", "coordinates": [[[-95.7326588, 36.0251062], [-95.7321256, 36.0251088], [-95.7321246, 36.0249684], [-95.7326578, 36.0249658], [-95.7326588, 36.0251062]]]}, "properties": {"osm_id": 376274581, "building": "yes", "name": "", "height": null, "height_m": null, "levels": null, "tract_id": "40145030502", "tract_name": "305.02", "tags": {"building": "yes"}}}, {"type": "Feature", "geometry": {"type": "Polygon", "coordinates": [[[-95.7330698, 36.0218404], [-95.7330663, 36.0217515], [-95.7332197, 36.0217475], [-95.7332233, 36.0218364], [-95.7330698, 36.0218404]]]}, "properties": {"osm_id": 376274582, "building": "yes", "name": "", "height": null, "height_m": null, "levels": null, "tract_id": "40145030502", "tract_name": "305.02", "tags": {"building": "yes"}}}, {"type": "Feature", "geometry": {"type": "Polygon", "coordinates": [[[-95.7333326, 36.0255478], [-95.7331622, 36.0255487], [-95.7331588, 36.0251055], [-95.7333293, 36.0251047], [-95.7333326, 36.0255478]]]}, "properties": {"osm_id": 376274583, "building": "yes", "name": "", "height": null, "height_m": null, "levels": null, "tract_id": "40145030502", "tract_name": "305.02", "tags": {"building": "yes"}}}, {"type": "Feature", "geometry": {"type": "Polygon", "coordinates": [[[-95.7339813, 36.0239243], [-95.7337188, 36.0239243], [-95.7337188, 36.0238171], [-95.7339813, 36.0238171], [-95.7339813, 36.0239243]]]}, "properties": {"osm_id": 376274584, "building": "yes", "name": "", "height": null, "height_m": null, "levels": null, "tract_id": "40145030502", "tract_name": "305.02", "tags": {"building": "yes"}}}, {"type": "Feature", "geometry": {"type": "Polygon", "coordinates": [[[-95.7336277, 36.0218315], [-95.7333686, 36.0218349], [-95.7333672, 36.0217652], [-95.7336263, 36.0217618], [-95.7336277, 36.0218315]]]}, "properties": {"osm_id": 376274585, "building": "yes", "name": "", "height": null, "height_m": null, "levels": null, "tract_id": "40145030502", "tract_name": "305.02", "tags": {"building": "yes"}}}, {"type": "Feature", "geometry": {"type": "Polygon", "coordinates": [[[-95.7335736, 36.0219454], [-95.7335739, 36.0221666], [-95.7329266, 36.0221672], [-95.7329263, 36.021946], [-95.7335736, 36.0219454]]]}, "properties": {"osm_id": 376274586, "building": "yes", "name": "", "height": null, "height_m": null, "levels": null, "tract_id": "40145030502", "tract_name": "305.02", "tags": {"building": "yes"}}}, {"type": "Feature", "geometry": {"type": "Polygon", "coordinates": [[[-95.732483, 36.0209972], [-95.7324827, 36.0211444], [-95.7323464, 36.0211442], [-95.7323463, 36.0212077], [-95.7321667, 36.0212075], [-95.7321672, 36.0209967], [-95.732483, 36.0209972]]]}, "properties": {"osm_id": 376274588, "building": "yes", "name": "", "height": null, "height_m": null, "levels": null, "tract_id": "40145030502", "tract_name": "305.02", "tags": {"building": "yes"}}}, {"type": "Feature", "geometry": {"type": "Polygon", "coordinates": [[[-95.7322078, 36.0242167], [-95.7318507, 36.0242202], [-95.7318477, 36.0240215], [-95.7317711, 36.0240222], [-95.731767, 36.0237484], [-95.7322007, 36.0237441], [-95.7322078, 36.0242167]]]}, "properties": {"osm_id": 376274590, "building": "yes", "name": "", "height": null, "height_m": null, "levels": null, "tract_id": "40145030502", "tract_name": "305.02", "tags": {"building": "yes"}}}, {"type": "Feature", "geometry": {"type": "Polygon", "coordinates": [[[-95.7339908, 36.0234935], [-95.7331404, 36.0234901], [-95.7331403, 36.0234993], [-95.7330374, 36.0234989], [-95.7330387, 36.0232866], [-95.7331356, 36.023287], [-95.7331357, 36.0232758], [-95.7339921, 36.0232792], [-95.7339908, 36.0234935]]]}, "properties": {"osm_id": 376274591, "building": "yes", "name": "", "height": null, "height_m": null, "levels": null, "tract_id": "40145030502", "tract_name": "305.02", "tags": {"building": "yes"}}}, {"type": "Feature", "geometry": {"type": "Polygon", "coordinates": [[[-95.7351677, 36.0305812], [-95.7349357, 36.0305807], [-95.7349364, 36.0303752], [-95.7351683, 36.0303757], [-95.7351677, 36.0305812]]]}, "properties": {"osm_id": 425097972, "building": "industrial", "name": "", "height": null, "height_m": null, "levels": null, "tract_id": "40145030502", "tract_name": "305.02", "tags": {"building": "industrial"}}}, {"type": "Feature", "geometry": {"type": "Polygon", "coordinates": [[[-95.7503584, 36.0461598], [-95.7502658, 36.0461592], [-95.7502657, 36.0461695], [-95.7502171, 36.0461692], [-95.7502172, 36.0461589], [-95.7501519, 36.0461585], [-95.7501537, 36.0459668], [-95.7503601, 36.045968], [-95.7503595, 36.0460422], [-95.7503795, 36.0460423], [-95.7503792, 36.0460781], [-95.7503591, 36.0460779], [-95.7503584, 36.0461598]]]}, "properties": {"osm_id": 425097973, "building": "commercial", "name": "Braum's", "height": null, "height_m": 3.0, "levels": 1, "tract_id": "40145030502", "tract_name": "305.02", "tags": {"addr:housenumber": "20200", "addr:street": "East 81st Street South", "amenity": "fast_food", "brand": "Braum's", "brand:wikidata": "Q4958263", "building": "commercial", "building:levels": "1", "cuisine": "ice_cream;burger", "name": "Braum's", "phone": "+1-918-251-4660", "ref": "170", "shop": "dairy", "takeaway": "yes"}}}, {"type": "Feature", "geometry": {"type": "Polygon", "coordinates": [[[-95.7508662, 36.0484427], [-95.7498173, 36.0484389], [-95.749818, 36.0483043], [-95.750867, 36.0483081], [-95.7508662, 36.0484427]]]}, "properties": {"osm_id": 425097974, "building": "yes", "name": "", "height": null, "height_m": null, "levels": null, "tract_id": "40145030502", "tract_name": "305.02", "tags": {"building": "yes"}}}, {"type": "Feature", "geometry": {"type": "Polygon", "coordinates": [[[-95.7505867, 36.0486829], [-95.749751, 36.0486798], [-95.7497516, 36.0485614], [-95.7505874, 36.0485644], [-95.7505867, 36.0486829]]]}, "properties": {"osm_id": 425097975, "building": "yes", "name": "", "height": null, "height_m": null, "levels": null, "tract_id": "40145030502", "tract_name": "305.02", "tags": {"building": "yes"}}}, {"type": "Feature", "geometry": {"type": "Polygon", "coordinates": [[[-95.751013, 36.047293], [-95.7498175, 36.0472886], [-95.749818, 36.0471856], [-95.7510136, 36.0471899], [-95.751013, 36.047293]]]}, "properties": {"osm_id": 425097976, "building": "yes", "name": "", "height": null, "height_m": null, "levels": null, "tract_id": "40145030502", "tract_name": "305.02", "tags": {"building": "yes"}}}, {"type": "Feature", "geometry": {"type": "Polygon", "coordinates": [[[-95.7499229, 36.0470189], [-95.7497742, 36.0470184], [-95.7497761, 36.0466799], [-95.7499247, 36.0466805], [-95.7499229, 36.0470189]]]}, "properties": {"osm_id": 425097977, "building": "yes", "name": "Chaco Valley", "height": null, "height_m": null, "levels": null, "tract_id": "40145030502", "tract_name": "305.02", "tags": {"building": "yes", "name": "Chaco Valley", "shop": "cannabis"}}}, {"type": "Feature", "geometry": {"type": "Polygon", "coordinates": [[[-95.7498215, 36.0478777], [-95.749822, 36.0477911], [-95.7511248, 36.0477958], [-95.7511243, 36.0478825], [-95.7498215, 36.0478777]]]}, "properties": {"osm_id": 425097978, "building": "yes", "name": "", "height": null, "height_m": null, "levels": null, "tract_id": "40145030502", "tract_name": "305.02", "tags": {"building": "yes"}}}, {"type": "Feature", "geometry": {"type": "Polygon", "coordinates": [[[-95.7458249, 36.0450508], [-95.7454488, 36.0450515], [-95.7454474, 36.0445311], [-95.7458217, 36.0445279], [-95.7458232, 36.0447672], [-95.745844, 36.0447666], [-95.7458427, 36.0448529], [-95.7458237, 36.0448533], [-95.7458249, 36.0450508]]]}, "properties": {"osm_id": 425097979, "building": "yes", "name": "", "height": null, "height_m": null, "levels": null, "tract_id": "40145030502", "tract_name": "305.02", "tags": {"building": "yes"}}}, {"type": "Feature", "geometry": {"type": "Polygon", "coordinates": [[[-95.7498285, 36.0473636], [-95.7509931, 36.0473678], [-95.750992, 36.0475613], [-95.7498274, 36.0475571], [-95.7498285, 36.0473636]]]}, "properties": {"osm_id": 425097980, "building": "yes", "name": "", "height": null, "height_m": null, "levels": null, "tract_id": "40145030502", "tract_name": "305.02", "tags": {"building": "yes"}}}, {"type": "Feature", "geometry": {"type": "Polygon", "coordinates": [[[-95.7456087, 36.0457464], [-95.7454045, 36.0457466], [-95.7454046, 36.0458165], [-95.7451025, 36.0458168], [-95.7451027, 36.0459712], [-95.7448408, 36.0459715], [-95.7448051, 36.0460008], [-95.7447684, 36.0459716], [-95.7445909, 36.0459719], [-95.7445887, 36.045159], [-95.7449654, 36.0451583], [-95.7449654, 36.045141], [-95.7450494, 36.0451409], [-95.7450494, 36.0451602], [-95.7450984, 36.0451602], [-95.7450985, 36.0452687], [-95.7456079, 36.0452681], [-95.7456087, 36.0457464]]]}, "properties": {"osm_id": 425097981, "building": "yes", "name": "", "height": null, "height_m": null, "levels": null, "tract_id": "40145030502", "tract_name": "305.02", "tags": {"building": "yes"}}}, {"type": "Feature", "geometry": {"type": "Polygon", "coordinates": [[[-95.7493444, 36.047058], [-95.7488264, 36.0470561], [-95.748828, 36.046769], [-95.749346, 36.0467709], [-95.7493444, 36.047058]]]}, "properties": {"osm_id": 425097982, "building": "office", "name": "", "height": null, "height_m": null, "levels": null, "tract_id": "40145030502", "tract_name": "305.02", "tags": {"building": "office"}}}, {"type": "Feature", "geometry": {"type": "Polygon", "coordinates": [[[-95.7511772, 36.0480416], [-95.7498176, 36.0480367], [-95.749818, 36.0479512], [-95.7511777, 36.0479561], [-95.7511772, 36.0480416]]]}, "properties": {"osm_id": 425097983, "building": "yes", "name": "", "height": null, "height_m": null, "levels": null, "tract_id": "40145030502", "tract_name": "305.02", "tags": {"building": "yes"}}}, {"type": "Feature", "geometry": {"type": "Polygon", "coordinates": [[[-95.7347719, 36.0298613], [-95.7342389, 36.0298602], [-95.7342417, 36.0290207], [-95.7347747, 36.0290219], [-95.7347719, 36.0298613]]]}, "properties": {"osm_id": 425097984, "building": "yes", "name": "", "height": null, "height_m": null, "levels": null, "tract_id": "40145030502", "tract_name": "305.02", "tags": {"building": "yes"}}}, {"type": "Feature", "geometry": {"type": "Polygon", "coordinates": [[[-95.7510759, 36.0477139], [-95.7498177, 36.0477093], [-95.749818, 36.0476433], [-95.7510762, 36.0476478], [-95.7510759, 36.0477139]]]}, "properties": {"osm_id": 425097985, "building": "yes", "name": "", "height": null, "height_m": null, "levels": null, "tract_id": "40145030502", "tract_name": "305.02", "tags": {"building": "yes"}}}, {"type": "Feature", "geometry": {"type": "Polygon", "coordinates": [[[-95.7470805, 36.0460966], [-95.7467721, 36.0460959], [-95.746773, 36.0458367], [-95.7470813, 36.0458373], [-95.7470805, 36.0460966]]]}, "properties": {"osm_id": 425097986, "building": "yes", "name": "", "height": null, "height_m": null, "levels": null, "tract_id": "40145030502", "tract_name": "305.02", "tags": {"building": "yes"}}}, {"type": "Feature", "geometry": {"type": "Polygon", "coordinates": [[[-95.7402866, 36.0314439], [-95.7402763, 36.0313083], [-95.7400093, 36.0313217], [-95.7400197, 36.0314572], [-95.7402866, 36.0314439]]]}, "properties": {"osm_id": 432995215, "building": "yes", "name": "", "height": null, "height_m": null, "levels": null, "tract_id": "40145030502", "tract_name": "305.02", "tags": {"building": "yes"}}}, {"type": "Feature", "geometry": {"type": "Polygon", "coordinates": [[[-95.7399195, 36.0313358], [-95.7396597, 36.0313408], [-95.7396499, 36.0310081], [-95.7399096, 36.0310031], [-95.7399195, 36.0313358]]]}, "properties": {"osm_id": 432995216, "building": "yes", "name": "", "height": null, "height_m": null, "levels": null, "tract_id": "40145030502", "tract_name": "305.02", "tags": {"building": "yes"}}}, {"type": "Feature", "geometry": {"type": "Polygon", "coordinates": [[[-95.7547106, 36.0437372], [-95.7548472, 36.0437599], [-95.7548894, 36.0435945], [-95.7547528, 36.0435717], [-95.7547106, 36.0437372]]]}, "properties": {"osm_id": 529508385, "building": "house", "name": "", "height": null, "height_m": 3.0, "levels": 1, "tract_id": "40145030502", "tract_name": "305.02", "tags": {"addr:city": "Broken Arrow", "addr:housenumber": "905", "addr:postcode": "74014", "addr:state": "OK", "addr:street": "South 30th Street", "building": "house", "building:levels": "1"}}}, {"type": "Feature", "geometry": {"type": "Polygon", "coordinates": [[[-95.7545845, 36.0436546], [-95.754575, 36.0436243], [-95.7545441, 36.0436306], [-95.7545537, 36.0436609], [-95.7545845, 36.0436546]]]}, "properties": {"osm_id": 529508386, "building": "shed", "name": "", "height": null, "height_m": null, "levels": null, "tract_id": "40145030502", "tract_name": "305.02", "tags": {"building": "shed"}}}, {"type": "Feature", "geometry": {"type": "Polygon", "coordinates": [[[-95.7565786, 36.0434892], [-95.7564474, 36.0434892], [-95.7564426, 36.0433288], [-95.7565746, 36.0433288], [-95.7565746, 36.0433733], [-95.7565893, 36.0433733], [-95.7565893, 36.0434382], [-95.7565786, 36.0434382], [-95.7565786, 36.0434892]]]}, "properties": {"osm_id": 529508387, "building": "house", "name": "", "height": null, "height_m": null, "levels": null, "tract_id": "40145030502", "tract_name": "305.02", "tags": {"addr:city": "Broken Arrow", "addr:postcode": "74014", "addr:state": "OK", "addr:street": "South 27th Street", "building": "house"}}}, {"type": "Feature", "geometry": {"type": "Polygon", "coordinates": [[[-95.7610987, 36.0605798], [-95.7609459, 36.0604502], [-95.7611165, 36.0603186], [-95.7612694, 36.0604482], [-95.7610987, 36.0605798]]]}, "properties": {"osm_id": 529508402, "building": "yes", "name": "First National Bank", "height": null, "height_m": null, "levels": null, "tract_id": "40145030502", "tract_name": "305.02", "tags": {"amenity": "bank", "building": "yes", "name": "First National Bank"}}}, {"type": "Feature", "geometry": {"type": "Polygon", "coordinates": [[[-95.7565363, 36.0561403], [-95.7562742, 36.0561483], [-95.756271, 36.0560801], [-95.7563396, 36.0560781], [-95.756341, 36.0561091], [-95.7565346, 36.0561032], [-95.7565363, 36.0561403]]]}, "properties": {"osm_id": 723179652, "building": "static_caravan", "name": "", "height": null, "height_m": null, "levels": null, "tract_id": "40145030502", "tract_name": "305.02", "tags": {"building": "static_caravan"}}}, {"type": "Feature", "geometry": {"type": "Polygon", "coordinates": [[[-95.7561429, 36.0560843], [-95.7561427, 36.0561268], [-95.7562316, 36.0561271], [-95.7562318, 36.0560845], [-95.7561429, 36.0560843]]]}, "properties": {"osm_id": 723179653, "building": "shed", "name": "", "height": null, "height_m": null, "levels": null, "tract_id": "40145030502", "tract_name": "305.02", "tags": {"building": "shed"}}}, {"type": "Feature", "geometry": {"type": "Polygon", "coordinates": [[[-95.756239, 36.0563149], [-95.7561932, 36.0563158], [-95.7561923, 36.056287], [-95.7562381, 36.0562861], [-95.756239, 36.0563149]]]}, "properties": {"osm_id": 723179654, "building": "shed", "name": "", "height": null, "height_m": null, "levels": null, "tract_id": "40145030502", "tract_name": "305.02", "tags": {"building": "shed"}}}, {"type": "Feature", "geometry": {"type": "Polygon", "coordinates": [[[-95.7565402, 36.0563555], [-95.7565391, 36.0562726], [-95.7565183, 36.0562728], [-95.7565175, 36.0562047], [-95.7564136, 36.0562056], [-95.7564141, 36.0562461], [-95.7563768, 36.0562464], [-95.7563774, 36.0562941], [-95.7564165, 36.0562938], [-95.7564172, 36.0563534], [-95.7564922, 36.0563528], [-95.7564922, 36.0563559], [-95.7565402, 36.0563555]]]}, "properties": {"osm_id": 723179655, "building": "house", "name": "", "height": null, "height_m": null, "levels": null, "tract_id": "40145030502", "tract_name": "305.02", "tags": {"building": "house"}}}, {"type": "Feature", "geometry": {"type": "Polygon", "coordinates": [[[-95.7565407, 36.0565951], [-95.7563942, 36.0565948], [-95.7563947, 36.056423], [-95.756492, 36.0564232], [-95.7564917, 36.0564862], [-95.7565184, 36.0564863], [-95.7565182, 36.0565332], [-95.7565409, 36.0565332], [-95.7565407, 36.0565951]]]}, "properties": {"osm_id": 723179656, "building": "house", "name": "", "height": null, "height_m": null, "levels": null, "tract_id": "40145030502", "tract_name": "305.02", "tags": {"building": "house"}}}, {"type": "Feature", "geometry": {"type": "Polygon", "coordinates": [[[-95.7564015, 36.0567022], [-95.7564019, 36.0568707], [-95.7564925, 36.0568706], [-95.7564924, 36.056778], [-95.7565582, 36.0567779], [-95.7565581, 36.056702], [-95.7564015, 36.0567022]]]}, "properties": {"osm_id": 723179657, "building": "house", "name": "", "height": null, "height_m": null, "levels": null, "tract_id": "40145030502", "tract_name": "305.02", "tags": {"building": "house"}}}, {"type": "Feature", "geometry": {"type": "Polygon", "coordinates": [[[-95.7562164, 36.0569095], [-95.7561664, 36.0569086], [-95.7561672, 36.0568808], [-95.7562172, 36.0568817], [-95.7562164, 36.0569095]]]}, "properties": {"osm_id": 723179658, "building": "shed", "name": "", "height": null, "height_m": null, "levels": null, "tract_id": "40145030502", "tract_name": "305.02", "tags": {"building": "shed"}}}, {"type": "Feature", "geometry": {"type": "Polygon", "coordinates": [[[-95.7562415, 36.0568411], [-95.7561829, 36.0568424], [-95.7561816, 36.0568051], [-95.7562401, 36.0568037], [-95.7562415, 36.0568411]]]}, "properties": {"osm_id": 723179659, "building": "shed", "name": "", "height": null, "height_m": null, "levels": null, "tract_id": "40145030502", "tract_name": "305.02", "tags": {"building": "shed"}}}, {"type": "Feature", "geometry": {"type": "Polygon", "coordinates": [[[-95.7564005, 36.0569308], [-95.7563514, 36.0569322], [-95.7563527, 36.0569629], [-95.7564018, 36.0569615], [-95.7564005, 36.0569308]]]}, "properties": {"osm_id": 723179660, "building": "shed", "name": "", "height": null, "height_m": null, "levels": null, "tract_id": "40145030502", "tract_name": "305.02", "tags": {"building": "shed"}}}, {"type": "Feature", "geometry": {"type": "Polygon", "coordinates": [[[-95.7565565, 36.0571727], [-95.7564166, 36.0571723], [-95.7564175, 36.0569755], [-95.7565338, 36.0569759], [-95.7565333, 36.0571012], [-95.7565569, 36.0571013], [-95.7565565, 36.0571727]]]}, "properties": {"osm_id": 723179661, "building": "house", "name": "", "height": null, "height_m": null, "levels": null, "tract_id": "40145030502", "tract_name": "305.02", "tags": {"building": "house"}}}, {"type": "Feature", "geometry": {"type": "Polygon", "coordinates": [[[-95.7565528, 36.0576125], [-95.7564106, 36.0576604], [-95.7563646, 36.057573], [-95.7563926, 36.0575646], [-95.7563357, 36.0574576], [-95.7564798, 36.0574108], [-95.7565144, 36.0574772], [-95.7564594, 36.0574967], [-95.7564742, 36.057523], [-95.7564694, 36.0575245], [-95.7564965, 36.0575751], [-95.7565281, 36.0575649], [-95.7565528, 36.0576125]]]}, "properties": {"osm_id": 723179662, "building": "house", "name": "", "height": null, "height_m": null, "levels": null, "tract_id": "40145030502", "tract_name": "305.02", "tags": {"building": "house"}}}, {"type": "Feature", "geometry": {"type": "Polygon", "coordinates": [[[-95.7455238, 36.0458076], [-95.7454544, 36.0458071], [-95.7454549, 36.0457538], [-95.7455243, 36.0457542], [-95.7455238, 36.0458076]]]}, "properties": {"osm_id": 723590027, "building": "yes", "name": "", "height": null, "height_m": null, "levels": null, "tract_id": "40145030502", "tract_name": "305.02", "tags": {"building": "yes"}}}, {"type": "Feature", "geometry": {"type": "Polygon", "coordinates": [[[-95.7432421, 36.0443635], [-95.7432485, 36.0441399], [-95.7430933, 36.044137], [-95.7430911, 36.0442142], [-95.743101, 36.0442144], [-95.7430968, 36.0443608], [-95.7432421, 36.0443635]]]}, "properties": {"osm_id": 723590028, "building": "yes", "name": "", "height": null, "height_m": null, "levels": null, "tract_id": "40145030502", "tract_name": "305.02", "tags": {"building": "yes"}}}, {"type": "Feature", "geometry": {"type": "Polygon", "coordinates": [[[-95.7421089, 36.0423047], [-95.7420069, 36.0423208], [-95.7420023, 36.042302], [-95.7418734, 36.0423223], [-95.7418568, 36.0422536], [-95.7420908, 36.0422167], [-95.7420954, 36.042236], [-95.7421196, 36.0422322], [-95.7421319, 36.0422833], [-95.7421048, 36.0422876], [-95.7421089, 36.0423047]]]}, "properties": {"osm_id": 723590029, "building": "yes", "name": "", "height": null, "height_m": null, "levels": null, "tract_id": "40145030502", "tract_name": "305.02", "tags": {"building": "yes"}}}, {"type": "Feature", "geometry": {"type": "Polygon", "coordinates": [[[-95.7609266, 36.037707], [-95.7608913, 36.0377073], [-95.7608911, 36.0376829], [-95.7609263, 36.0376826], [-95.7609266, 36.037707]]]}, "properties": {"osm_id": 726967861, "building": "yes", "name": "", "height": null, "height_m": null, "levels": null, "tract_id": "40145030502", "tract_name": "305.02", "tags": {"building": "yes"}}}, {"type": "Feature", "geometry": {"type": "Polygon", "coordinates": [[[-95.7608862, 36.037897], [-95.7608769, 36.0378147], [-95.760939, 36.0378101], [-95.7609483, 36.0378924], [-95.7608862, 36.037897]]]}, "properties": {"osm_id": 726967862, "building": "yes", "name": "", "height": null, "height_m": null, "levels": null, "tract_id": "40145030502", "tract_name": "305.02", "tags": {"building": "yes"}}}, {"type": "Feature", "geometry": {"type": "Polygon", "coordinates": [[[-95.7611112, 36.0379243], [-95.7611094, 36.0377733], [-95.761207, 36.0377725], [-95.7612072, 36.0377892], [-95.7612465, 36.0377889], [-95.761247, 36.037833], [-95.7612079, 36.0378333], [-95.761209, 36.0379236], [-95.7611112, 36.0379243]]]}, "properties": {"osm_id": 726967863, "building": "yes", "name": "", "height": null, "height_m": null, "levels": null, "tract_id": "40145030502", "tract_name": "305.02", "tags": {"building": "yes"}}}, {"type": "Feature", "geometry": {"type": "Polygon", "coordinates": [[[-95.75642, 36.0301329], [-95.7563169, 36.0302116], [-95.7560307, 36.0299857], [-95.756128, 36.0298958], [-95.75642, 36.0301329]]]}, "properties": {"osm_id": 731738507, "building": "yes", "name": "", "height": null, "height_m": null, "levels": null, "tract_id": "40145030502", "tract_name": "305.02", "tags": {"abandoned": "building", "building": "yes"}}}, {"type": "Feature", "geometry": {"type": "Polygon", "coordinates": [[[-95.7352265, 36.0598808], [-95.7352233, 36.0600188], [-95.735335, 36.0600205], [-95.7353382, 36.0598825], [-95.7352265, 36.0598808]]]}, "properties": {"osm_id": 731800951, "building": "yes", "name": "", "height": null, "height_m": null, "levels": null, "tract_id": "40145030502", "tract_name": "305.02", "tags": {"building": "yes"}}}, {"type": "Feature", "geometry": {"type": "Polygon", "coordinates": [[[-95.7355401, 36.0602238], [-95.7355554, 36.0602943], [-95.7356825, 36.0602764], [-95.7356672, 36.0602058], [-95.7355401, 36.0602238]]]}, "properties": {"osm_id": 731800952, "building": "yes", "name": "", "height": null, "height_m": null, "levels": null, "tract_id": "40145030502", "tract_name": "305.02", "tags": {"building": "yes"}}}, {"type": "Feature", "geometry": {"type": "Polygon", "coordinates": [[[-95.728599, 36.0337362], [-95.7284619, 36.0337348], [-95.7284632, 36.0336448], [-95.7286003, 36.0336462], [-95.728599, 36.0337362]]]}, "properties": {"osm_id": 733448241, "building": "yes", "name": "", "height": null, "height_m": null, "levels": null, "tract_id": "40145030502", "tract_name": "305.02", "tags": {"building": "yes"}}}, {"type": "Feature", "geometry": {"type": "Polygon", "coordinates": [[[-95.728308, 36.0327558], [-95.7279669, 36.0327486], [-95.7279736, 36.0325409], [-95.7283147, 36.0325481], [-95.728308, 36.0327558]]]}, "properties": {"osm_id": 733448242, "building": "yes", "name": "", "height": null, "height_m": null, "levels": null, "tract_id": "40145030502", "tract_name": "305.02", "tags": {"building": "yes"}}}, {"type": "Feature", "geometry": {"type": "Polygon", "coordinates": [[[-95.7277601, 36.0338755], [-95.7276233, 36.0338777], [-95.7276193, 36.033713], [-95.7277561, 36.0337108], [-95.7277601, 36.0338755]]]}, "properties": {"osm_id": 733448244, "building": "yes", "name": "", "height": null, "height_m": null, "levels": null, "tract_id": "40145030502", "tract_name": "305.02", "tags": {"building": "yes"}}}, {"type": "Feature", "geometry": {"type": "Polygon", "coordinates": [[[-95.7281772, 36.033997], [-95.7279197, 36.0339946], [-95.7279237, 36.0337156], [-95.7281812, 36.033718], [-95.7281772, 36.033997]]]}, "properties": {"osm_id": 733448245, "building": "yes", "name": "", "height": null, "height_m": null, "levels": null, "tract_id": "40145030502", "tract_name": "305.02", "tags": {"building": "yes"}}}, {"type": "Feature", "geometry": {"type": "Polygon", "coordinates": [[[-95.7278198, 36.0345832], [-95.7274132, 36.0345793], [-95.7274149, 36.0344671], [-95.7273604, 36.0344666], [-95.7273628, 36.0343001], [-95.7278238, 36.0343045], [-95.7278198, 36.0345832]]]}, "properties": {"osm_id": 733448246, "building": "yes", "name": "", "height": null, "height_m": null, "levels": null, "tract_id": "40145030502", "tract_name": "305.02", "tags": {"building": "yes"}}}, {"type": "Feature", "geometry": {"type": "Polygon", "coordinates": [[[-95.7290523, 36.0360624], [-95.7288001, 36.036057], [-95.7288092, 36.0357816], [-95.7290613, 36.035787], [-95.7290523, 36.0360624]]]}, "properties": {"osm_id": 733448247, "building": "yes", "name": "", "height": null, "height_m": null, "levels": null, "tract_id": "40145030502", "tract_name": "305.02", "tags": {"building": "yes"}}}, {"type": "Feature", "geometry": {"type": "Polygon", "coordinates": [[[-95.7314824, 36.0351303], [-95.7313469, 36.0351308], [-95.7313457, 36.0349377], [-95.7314812, 36.0349372], [-95.7314824, 36.0351303]]]}, "properties": {"osm_id": 733448248, "building": "yes", "name": "", "height": null, "height_m": null, "levels": null, "tract_id": "40145030502", "tract_name": "305.02", "tags": {"building": "yes"}}}, {"type": "Feature", "geometry": {"type": "Polygon", "coordinates": [[[-95.7267265, 36.0316067], [-95.7266725, 36.0316067], [-95.7266725, 36.03154], [-95.7267265, 36.03154], [-95.7267265, 36.0316067]]]}, "properties": {"osm_id": 733448249, "building": "yes", "name": "", "height": null, "height_m": null, "levels": null, "tract_id": "40145030502", "tract_name": "305.02", "tags": {"building": "yes"}}}, {"type": "Feature", "geometry": {"type": "Polygon", "coordinates": [[[-95.7263178, 36.0314343], [-95.7263182, 36.0313674], [-95.7265418, 36.031368], [-95.7265511, 36.0313757], [-95.7265521, 36.0313993], [-95.7265833, 36.0313979], [-95.7265833, 36.0314793], [-95.7265553, 36.0314793], [-95.7265551, 36.0315023], [-95.7265416, 36.0315132], [-95.7263875, 36.0315145], [-95.7263875, 36.0314728], [-95.7263976, 36.0314728], [-95.7263976, 36.0314343], [-95.7263178, 36.0314343]]]}, "properties": {"osm_id": 733448250, "building": "yes", "name": "", "height": null, "height_m": null, "levels": null, "tract_id": "40145030502", "tract_name": "305.02", "tags": {"building": "yes"}}}, {"type": "Feature", "geometry": {"type": "Polygon", "coordinates": [[[-95.7277494, 36.0394611], [-95.7277521, 36.0393608], [-95.7280269, 36.0393656], [-95.7280242, 36.0394659], [-95.7277494, 36.0394611]]]}, "properties": {"osm_id": 733448260, "building": "barn", "name": "", "height": null, "height_m": null, "levels": null, "tract_id": "40145030502", "tract_name": "305.02", "tags": {"building": "barn"}}}, {"type": "Feature", "geometry": {"type": "Polygon", "coordinates": [[[-95.7270386, 36.0396818], [-95.7268601, 36.0396825], [-95.7268596, 36.0396017], [-95.7269006, 36.0396015], [-95.7268998, 36.0394709], [-95.7270373, 36.0394703], [-95.7270379, 36.0395663], [-95.7270873, 36.0395661], [-95.7270879, 36.0396523], [-95.7270384, 36.0396525], [-95.7270386, 36.0396818]]]}, "properties": {"osm_id": 733448261, "building": "house", "name": "", "height": null, "height_m": null, "levels": null, "tract_id": "40145030502", "tract_name": "305.02", "tags": {"building": "house"}}}, {"type": "Feature", "geometry": {"type": "Polygon", "coordinates": [[[-95.7262789, 36.0402466], [-95.7262219, 36.0402534], [-95.7262112, 36.0401943], [-95.7262681, 36.0401875], [-95.7262789, 36.0402466]]]}, "properties": {"osm_id": 733448262, "building": "service", "name": "", "height": null, "height_m": null, "levels": null, "tract_id": "40145030502", "tract_name": "305.02", "tags": {"building": "service"}}}, {"type": "Feature", "geometry": {"type": "Polygon", "coordinates": [[[-95.7265874, 36.0401432], [-95.72673, 36.0401302], [-95.7267421, 36.040217], [-95.7265995, 36.04023], [-95.7265874, 36.0401432]]]}, "properties": {"osm_id": 733448263, "building": "barn", "name": "", "height": null, "height_m": null, "levels": null, "tract_id": "40145030502", "tract_name": "305.02", "tags": {"building": "barn"}}}, {"type": "Feature", "geometry": {"type": "Polygon", "coordinates": [[[-95.7459188, 36.0535522], [-95.7457892, 36.0535533], [-95.745788, 36.0534669], [-95.7459177, 36.0534658], [-95.7459188, 36.0535522]]]}, "properties": {"osm_id": 741036508, "building": "garage", "name": "", "height": null, "height_m": null, "levels": null, "tract_id": "40145030502", "tract_name": "305.02", "tags": {"building": "garage"}}}, {"type": "Feature", "geometry": {"type": "Polygon", "coordinates": [[[-95.7477207, 36.053504], [-95.7476212, 36.0535412], [-95.7476501, 36.0535917], [-95.7477496, 36.0535545], [-95.7477207, 36.053504]]]}, "properties": {"osm_id": 741036509, "building": "yes", "name": "", "height": null, "height_m": null, "levels": null, "tract_id": "40145030502", "tract_name": "305.02", "tags": {"building": "yes"}}}, {"type": "Feature", "geometry": {"type": "Polygon", "coordinates": [[[-95.7495015, 36.0533327], [-95.7494006, 36.0533659], [-95.7493861, 36.0533372], [-95.7493659, 36.0533439], [-95.7493758, 36.0533635], [-95.7492911, 36.0533915], [-95.749258, 36.0533259], [-95.7493433, 36.0532977], [-95.7493519, 36.0533146], [-95.7493687, 36.053309], [-95.7493456, 36.0532633], [-95.7493913, 36.0532482], [-95.7494012, 36.0532676], [-95.7494178, 36.0532621], [-95.7494099, 36.0532464], [-95.749473, 36.0532256], [-95.7495024, 36.0532839], [-95.7494805, 36.0532911], [-95.7495015, 36.0533327]]]}, "properties": {"osm_id": 741995576, "building": "yes", "name": "", "height": null, "height_m": null, "levels": null, "tract_id": "40145030502", "tract_name": "305.02", "tags": {"building": "yes"}}}, {"type": "Feature", "geometry": {"type": "Polygon", "coordinates": [[[-95.7486172, 36.0535212], [-95.7484063, 36.0534695], [-95.7484304, 36.0534051], [-95.7486414, 36.0534567], [-95.7486172, 36.0535212]]]}, "properties": {"osm_id": 741995577, "building": "yes", "name": "", "height": null, "height_m": null, "levels": null, "tract_id": "40145030502", "tract_name": "305.02", "tags": {"building": "yes"}}}, {"type": "Feature", "geometry": {"type": "Polygon", "coordinates": [[[-95.7487373, 36.0526198], [-95.7487471, 36.0524821], [-95.7486087, 36.0524756], [-95.7485989, 36.0526133], [-95.7487373, 36.0526198]]]}, "properties": {"osm_id": 741995578, "building": "yes", "name": "", "height": null, "height_m": null, "levels": null, "tract_id": "40145030502", "tract_name": "305.02", "tags": {"building": "yes"}}}, {"type": "Feature", "geometry": {"type": "Polygon", "coordinates": [[[-95.7483247, 36.0534476], [-95.7481477, 36.0534012], [-95.7480456, 36.0534428], [-95.7480438, 36.0534398], [-95.7479915, 36.0534611], [-95.7479402, 36.0533787], [-95.7479939, 36.0533568], [-95.7479898, 36.0533504], [-95.7481165, 36.0532987], [-95.7481193, 36.0533033], [-95.7481727, 36.0532815], [-95.7482066, 36.0533358], [-95.7483541, 36.0533745], [-95.7483247, 36.0534476]]]}, "properties": {"osm_id": 746784898, "building": "yes", "name": "", "height": null, "height_m": null, "levels": null, "tract_id": "40145030502", "tract_name": "305.02", "tags": {"building": "yes"}}}, {"type": "Feature", "geometry": {"type": "Polygon", "coordinates": [[[-95.7479364, 36.052332], [-95.7477502, 36.0524678], [-95.7476356, 36.0523651], [-95.747728, 36.0522977], [-95.7477961, 36.0523588], [-95.74789, 36.0522904], [-95.7479364, 36.052332]]]}, "properties": {"osm_id": 746784899, "building": "yes", "name": "", "height": null, "height_m": null, "levels": null, "tract_id": "40145030502", "tract_name": "305.02", "tags": {"building": "yes"}}}, {"type": "Feature", "geometry": {"type": "Polygon", "coordinates": [[[-95.7473279, 36.0526953], [-95.7472706, 36.0526957], [-95.7472708, 36.0527106], [-95.7472216, 36.0527109], [-95.7472214, 36.0526956], [-95.7471358, 36.0526962], [-95.7471355, 36.0526618], [-95.7470488, 36.0526623], [-95.7470489, 36.0526718], [-95.7469148, 36.0526726], [-95.7469138, 36.0525689], [-95.7472162, 36.0525669], [-95.7472161, 36.0525534], [-95.747273, 36.052553], [-95.7472731, 36.0525663], [-95.7473192, 36.052566], [-95.7473195, 36.0525964], [-95.7473268, 36.0525963], [-95.7473279, 36.0526953]]]}, "properties": {"osm_id": 746784900, "building": "house", "name": "", "height": null, "height_m": null, "levels": null, "tract_id": "40145030502", "tract_name": "305.02", "tags": {"building": "house"}}}, {"type": "Feature", "geometry": {"type": "Polygon", "coordinates": [[[-95.7299448, 36.0497601], [-95.7299216, 36.0497601], [-95.7299216, 36.0497406], [-95.7299448, 36.0497406], [-95.7299448, 36.0497601]]]}, "properties": {"osm_id": 834824504, "building": "yes", "name": "", "height": null, "height_m": null, "levels": null, "tract_id": "40145030502", "tract_name": "305.02", "tags": {"building": "yes"}}}, {"type": "Feature", "geometry": {"type": "Polygon", "coordinates": [[[-95.729839, 36.0497354], [-95.7296688, 36.0497369], [-95.7296682, 36.0496917], [-95.7296787, 36.0496916], [-95.7296786, 36.0496794], [-95.7296468, 36.0496796], [-95.7296459, 36.0496176], [-95.7297077, 36.049617], [-95.7297076, 36.0496123], [-95.7298086, 36.0496114], [-95.7298096, 36.0496822], [-95.7298382, 36.0496819], [-95.729839, 36.0497354]]]}, "properties": {"osm_id": 834824505, "building": "yes", "name": "", "height": null, "height_m": null, "levels": null, "tract_id": "40145030502", "tract_name": "305.02", "tags": {"building": "yes"}}}, {"type": "Feature", "geometry": {"type": "Polygon", "coordinates": [[[-95.7298582, 36.0499282], [-95.7296913, 36.0498992], [-95.7297075, 36.0498382], [-95.7297313, 36.0498423], [-95.7297325, 36.0498377], [-95.7297202, 36.0498356], [-95.7297297, 36.0498], [-95.7297359, 36.0498011], [-95.7297388, 36.0497898], [-95.7298881, 36.0498157], [-95.7298582, 36.0499282]]]}, "properties": {"osm_id": 834824507, "building": "yes", "name": "", "height": null, "height_m": null, "levels": null, "tract_id": "40145030502", "tract_name": "305.02", "tags": {"building": "yes"}}}, {"type": "Feature", "geometry": {"type": "Polygon", "coordinates": [[[-95.7297012, 36.0501626], [-95.7295697, 36.0500607], [-95.7295994, 36.0500355], [-95.7295926, 36.0500302], [-95.729637, 36.0499927], [-95.7296458, 36.0499996], [-95.7297027, 36.0499516], [-95.7297715, 36.0500049], [-95.7297646, 36.0500107], [-95.7298223, 36.0500553], [-95.7298177, 36.0500591], [-95.7298256, 36.0500652], [-95.7298056, 36.0500821], [-95.7298246, 36.0500967], [-95.7297904, 36.0501255], [-95.7297668, 36.0501072], [-95.7297012, 36.0501626]]]}, "properties": {"osm_id": 834824509, "building": "yes", "name": "", "height": null, "height_m": null, "levels": null, "tract_id": "40145030502", "tract_name": "305.02", "tags": {"building": "yes"}}}, {"type": "Feature", "geometry": {"type": "Polygon", "coordinates": [[[-95.7293323, 36.0501753], [-95.7293321, 36.0500116], [-95.7294105, 36.0500116], [-95.7294105, 36.0500306], [-95.7294394, 36.0500305], [-95.7294394, 36.0500252], [-95.7294907, 36.0500252], [-95.7294909, 36.0501668], [-95.7294497, 36.0501668], [-95.7294497, 36.0501752], [-95.7293323, 36.0501753]]]}, "properties": {"osm_id": 834824510, "building": "yes", "name": "", "height": null, "height_m": null, "levels": null, "tract_id": "40145030502", "tract_name": "305.02", "tags": {"building": "yes"}}}, {"type": "Feature", "geometry": {"type": "Polygon", "coordinates": [[[-95.7294984, 36.0501478], [-95.7294984, 36.0501252], [-95.7295271, 36.0501252], [-95.7295271, 36.0501478], [-95.7294984, 36.0501478]]]}, "properties": {"osm_id": 834824511, "building": "yes", "name": "", "height": null, "height_m": null, "levels": null, "tract_id": "40145030502", "tract_name": "305.02", "tags": {"building": "yes"}}}, {"type": "Feature", "geometry": {"type": "Polygon", "coordinates": [[[-95.7331036, 36.0598344], [-95.7331036, 36.0602465], [-95.7332659, 36.0602465], [-95.7332659, 36.0602786], [-95.7333706, 36.0602786], [-95.7333706, 36.0602474], [-95.7335294, 36.0602474], [-95.7335294, 36.0598344], [-95.7331036, 36.0598344]]]}, "properties": {"osm_id": 836237691, "building": "retail", "name": "Tractor Supply Company", "height": null, "height_m": null, "levels": null, "tract_id": "40145030502", "tract_name": "305.02", "tags": {"addr:city": "Broken Arrow", "addr:housenumber": "4777", "addr:postcode": "74014", "addr:state": "OK", "addr:street": "East Kenosha Street South", "brand": "Tractor Supply Company", "brand:wikidata": "Q15109925", "building": "retail", "name": "Tractor Supply Company", "opening_hours": "Mo-Sa 08:00-21:00; Su 09:00-19:00", "phone": "+1 918-355-9077", "ref": "1982", "shop": "country_store"}}}, {"type": "Feature", "geometry": {"type": "Polygon", "coordinates": [[[-95.7335437, 36.0599729], [-95.7335431, 36.0598969], [-95.7336254, 36.0598965], [-95.733626, 36.0599725], [-95.7335437, 36.0599729]]]}, "properties": {"osm_id": 836237692, "building": "yes", "name": "", "height": null, "height_m": null, "levels": null, "tract_id": "40145030502", "tract_name": "305.02", "tags": {"building": "yes"}}}, {"type": "Feature", "geometry": {"type": "Polygon", "coordinates": [[[-95.7302703, 36.0495063], [-95.7300955, 36.049506], [-95.7300957, 36.0494118], [-95.7300734, 36.0494117], [-95.7300735, 36.0493677], [-95.7302408, 36.0493679], [-95.7302407, 36.0494039], [-95.7302284, 36.0494038], [-95.7302283, 36.0494169], [-95.730209, 36.0494169], [-95.730209, 36.0494478], [-95.7302705, 36.0494479], [-95.7302703, 36.0495063]]]}, "properties": {"osm_id": 847584077, "building": "house", "name": "", "height": null, "height_m": null, "levels": null, "tract_id": "40145030502", "tract_name": "305.02", "tags": {"building": "house"}}}, {"type": "Feature", "geometry": {"type": "Polygon", "coordinates": [[[-95.7302753, 36.0493319], [-95.7300877, 36.0493296], [-95.7300897, 36.0492176], [-95.7302726, 36.0492198], [-95.7302719, 36.0492573], [-95.730263, 36.0492572], [-95.7302629, 36.0492642], [-95.7302534, 36.049264], [-95.7302533, 36.0492694], [-95.7302764, 36.0492696], [-95.7302753, 36.0493319]]]}, "properties": {"osm_id": 847584078, "building": "house", "name": "", "height": null, "height_m": null, "levels": null, "tract_id": "40145030502", "tract_name": "305.02", "tags": {"building": "house"}}}, {"type": "Feature", "geometry": {"type": "Polygon", "coordinates": [[[-95.7302737, 36.049179], [-95.7301042, 36.049179], [-95.7301042, 36.0490372], [-95.7302352, 36.0490372], [-95.7302352, 36.0490723], [-95.7302224, 36.0490723], [-95.7302224, 36.0491033], [-95.7302346, 36.0491033], [-95.7302346, 36.0491184], [-95.7302737, 36.0491184], [-95.7302737, 36.049179]]]}, "properties": {"osm_id": 847584079, "building": "house", "name": "", "height": null, "height_m": null, "levels": null, "tract_id": "40145030502", "tract_name": "305.02", "tags": {"building": "house"}}}, {"type": "Feature", "geometry": {"type": "Polygon", "coordinates": [[[-95.736716, 36.020315], [-95.7369057, 36.0203169], [-95.7369082, 36.0201511], [-95.7367185, 36.0201493], [-95.736716, 36.020315]]]}, "properties": {"osm_id": 941051210, "building": "barn", "name": "", "height": null, "height_m": null, "levels": null, "tract_id": "40145030502", "tract_name": "305.02", "tags": {"building": "barn"}}}, {"type": "Feature", "geometry": {"type": "Polygon", "coordinates": [[[-95.7531072, 36.0388299], [-95.7529454, 36.0388299], [-95.7529435, 36.0387115], [-95.7531306, 36.0387089], [-95.7531317, 36.0387698], [-95.7531076, 36.0387702], [-95.7531077, 36.0387786], [-95.7531063, 36.0387786], [-95.7531072, 36.0388299]]]}, "properties": {"osm_id": 942111471, "building": "yes", "name": "", "height": null, "height_m": null, "levels": null, "tract_id": "40145030502", "tract_name": "305.02", "tags": {"building": "yes"}}}, {"type": "Feature", "geometry": {"type": "Polygon", "coordinates": [[[-95.7530823, 36.0391468], [-95.7529385, 36.0391484], [-95.7529352, 36.0390341], [-95.7531294, 36.0390341], [-95.7531294, 36.0390927], [-95.7530984, 36.0390924], [-95.7530989, 36.0391271], [-95.7530816, 36.0391271], [-95.7530823, 36.0391468]]]}, "properties": {"osm_id": 942111472, "building": "yes", "name": "", "height": null, "height_m": null, "levels": null, "tract_id": "40145030502", "tract_name": "305.02", "tags": {"building": "yes"}}}, {"type": "Feature", "geometry": {"type": "Polygon", "coordinates": [[[-95.7565533, 36.0386695], [-95.756408, 36.0386707], [-95.7564073, 36.0386111], [-95.7564202, 36.038611], [-95.7564198, 36.038581], [-95.7564146, 36.038581], [-95.7564142, 36.0385498], [-95.7565518, 36.0385486], [-95.7565533, 36.0386695]]]}, "properties": {"osm_id": 950856449, "building": "yes", "name": "", "height": null, "height_m": null, "levels": null, "tract_id": "40145030502", "tract_name": "305.02", "tags": {"building": "yes"}}}, {"type": "Feature", "geometry": {"type": "Polygon", "coordinates": [[[-95.756594, 36.0388314], [-95.7564357, 36.0388318], [-95.7564355, 36.0387736], [-95.7564087, 36.0387736], [-95.7564085, 36.0387169], [-95.7565936, 36.0387165], [-95.756594, 36.0388314]]]}, "properties": {"osm_id": 950856450, "building": "yes", "name": "", "height": null, "height_m": null, "levels": null, "tract_id": "40145030502", "tract_name": "305.02", "tags": {"building": "yes"}}}, {"type": "Feature", "geometry": {"type": "Polygon", "coordinates": [[[-95.7560337, 36.0386482], [-95.7559019, 36.0386484], [-95.7559019, 36.0386136], [-95.7558792, 36.0386136], [-95.7558791, 36.0385464], [-95.7560714, 36.0385462], [-95.7560715, 36.0386064], [-95.7560336, 36.0386065], [-95.7560337, 36.0386482]]]}, "properties": {"osm_id": 950856451, "building": "yes", "name": "", "height": null, "height_m": null, "levels": null, "tract_id": "40145030502", "tract_name": "305.02", "tags": {"building": "yes"}}}, {"type": "Feature", "geometry": {"type": "Polygon", "coordinates": [[[-95.7560765, 36.0385176], [-95.7559205, 36.0385074], [-95.7559341, 36.0383709], [-95.7560657, 36.0383795], [-95.7560582, 36.0384546], [-95.7560826, 36.0384562], [-95.7560765, 36.0385176]]]}, "properties": {"osm_id": 950856452, "building": "yes", "name": "", "height": null, "height_m": null, "levels": null, "tract_id": "40145030502", "tract_name": "305.02", "tags": {"building": "yes"}}}, {"type": "Feature", "geometry": {"type": "Polygon", "coordinates": [[[-95.7564254, 36.0384949], [-95.7564246, 36.0384345], [-95.7564642, 36.0384342], [-95.7564637, 36.0383921], [-95.7565955, 36.0383909], [-95.756596, 36.0384267], [-95.7566187, 36.0384265], [-95.7566195, 36.0384933], [-95.7564254, 36.0384949]]]}, "properties": {"osm_id": 950856453, "building": "yes", "name": "", "height": null, "height_m": null, "levels": null, "tract_id": "40145030502", "tract_name": "305.02", "tags": {"building": "yes"}}}, {"type": "Feature", "geometry": {"type": "Polygon", "coordinates": [[[-95.7560921, 36.0383407], [-95.7559388, 36.0383201], [-95.7559494, 36.0382684], [-95.7559446, 36.0382678], [-95.7559545, 36.0382197], [-95.7559653, 36.0382211], [-95.7559718, 36.0381893], [-95.7561277, 36.0382102], [-95.7561205, 36.0382453], [-95.7560938, 36.0382418], [-95.7560854, 36.0382826], [-95.7561036, 36.038285], [-95.7560921, 36.0383407]]]}, "properties": {"osm_id": 950856454, "building": "yes", "name": "", "height": null, "height_m": null, "levels": null, "tract_id": "40145030502", "tract_name": "305.02", "tags": {"building": "yes"}}}, {"type": "Feature", "geometry": {"type": "Polygon", "coordinates": [[[-95.7565955, 36.0383436], [-95.7564667, 36.0383044], [-95.7564937, 36.0382464], [-95.7565042, 36.0382496], [-95.7565321, 36.0381894], [-95.7566504, 36.0382253], [-95.7565955, 36.0383436]]]}, "properties": {"osm_id": 950856455, "building": "yes", "name": "", "height": null, "height_m": null, "levels": null, "tract_id": "40145030502", "tract_name": "305.02", "tags": {"building": "yes"}}}, {"type": "Feature", "geometry": {"type": "Polygon", "coordinates": [[[-95.7497698, 36.0184208], [-95.7497697, 36.0182097], [-95.7495269, 36.0182098], [-95.7495269, 36.0181934], [-95.7494849, 36.0181934], [-95.7494849, 36.018177], [-95.7490839, 36.0181769], [-95.7490839, 36.0182096], [-95.7490397, 36.0182096], [-95.7490395, 36.0184204], [-95.749056, 36.0184204], [-95.7490556, 36.0187382], [-95.7490946, 36.0187382], [-95.7490945, 36.0187787], [-95.749084, 36.0187787], [-95.7490839, 36.0188765], [-95.74948, 36.0188766], [-95.74948, 36.0188099], [-95.7495602, 36.01881], [-95.7495602, 36.0187391], [-95.749513, 36.0187391], [-95.749513, 36.0185803], [-95.7494576, 36.0185803], [-95.7494576, 36.01853], [-95.7494816, 36.01853], [-95.7494815, 36.0184209], [-95.7497698, 36.0184208]]]}, "properties": {"osm_id": 956607024, "building": "university", "name": "", "height": null, "height_m": null, "levels": null, "tract_id": "40145030502", "tract_name": "305.02", "tags": {"building": "university"}}}, {"type": "Feature", "geometry": {"type": "Polygon", "coordinates": [[[-95.7513671, 36.0197599], [-95.7515094, 36.0195709], [-95.7513906, 36.0195124], [-95.7512483, 36.0197014], [-95.7513671, 36.0197599]]]}, "properties": {"osm_id": 956607048, "building": "yes", "name": "", "height": null, "height_m": null, "levels": null, "tract_id": "40145030502", "tract_name": "305.02", "tags": {"building": "yes"}}}, {"type": "Feature", "geometry": {"type": "Polygon", "coordinates": [[[-95.7480874, 36.0188114], [-95.7480865, 36.0187759], [-95.7481176, 36.0187737], [-95.7481258, 36.018443], [-95.7481532, 36.018443], [-95.7481541, 36.0183564], [-95.7480691, 36.0183564], [-95.7480691, 36.018389], [-95.7478358, 36.0183882], [-95.7478367, 36.0184015], [-95.7475181, 36.0184001], [-95.7474539, 36.0183998], [-95.7473501, 36.0183993], [-95.7473483, 36.018622], [-95.747834, 36.0186242], [-95.7478331, 36.018773], [-95.7478633, 36.018773], [-95.7478642, 36.0188122], [-95.7479892, 36.0188118], [-95.7480874, 36.0188114]]]}, "properties": {"osm_id": 956608608, "building": "university", "name": "", "height": null, "height_m": null, "levels": null, "tract_id": "40145030502", "tract_name": "305.02", "tags": {"building": "university"}}}, {"type": "Feature", "geometry": {"type": "Polygon", "coordinates": [[[-95.739115, 36.0180932], [-95.7390544, 36.0180647], [-95.7391043, 36.0179953], [-95.7391649, 36.0180238], [-95.739115, 36.0180932]]]}, "properties": {"osm_id": 965981810, "building": "roof", "name": "", "height": null, "height_m": null, "levels": null, "tract_id": "40145030502", "tract_name": "305.02", "tags": {"amenity": "shelter", "building": "roof", "shelter_type": "picnic_shelter"}}}, {"type": "Feature", "geometry": {"type": "Polygon", "coordinates": [[[-95.7391551, 36.0182592], [-95.7390944, 36.0182307], [-95.7391443, 36.0181613], [-95.7392049, 36.0181898], [-95.7391551, 36.0182592]]]}, "properties": {"osm_id": 965981811, "building": "roof", "name": "", "height": null, "height_m": null, "levels": null, "tract_id": "40145030502", "tract_name": "305.02", "tags": {"amenity": "shelter", "building": "roof", "shelter_type": "picnic_shelter"}}}, {"type": "Feature", "geometry": {"type": "Polygon", "coordinates": [[[-95.739114, 36.0184272], [-95.7390525, 36.0184], [-95.7391002, 36.0183296], [-95.7391617, 36.0183568], [-95.739114, 36.0184272]]]}, "properties": {"osm_id": 965981812, "building": "roof", "name": "", "height": null, "height_m": null, "levels": null, "tract_id": "40145030502", "tract_name": "305.02", "tags": {"amenity": "shelter", "building": "roof", "shelter_type": "picnic_shelter"}}}, {"type": "Feature", "geometry": {"type": "Polygon", "coordinates": [[[-95.7384448, 36.0184501], [-95.7383332, 36.0184521], [-95.7383315, 36.0183886], [-95.7384431, 36.0183866], [-95.7384448, 36.0184501]]]}, "properties": {"osm_id": 965981813, "building": "roof", "name": "", "height": null, "height_m": null, "levels": null, "tract_id": "40145030502", "tract_name": "305.02", "tags": {"amenity": "shelter", "building": "roof", "fixme": "I think this is bathrooms instead of a picnic shelter. Survey again to find out for sure.", "shelter_type": "picnic_shelter"}}}, {"type": "Feature", "geometry": {"type": "Polygon", "coordinates": [[[-95.7309572, 36.0504131], [-95.7309589, 36.0502922], [-95.7308999, 36.0502917], [-95.7309001, 36.0502745], [-95.7308443, 36.050274], [-95.7308441, 36.0502911], [-95.7307886, 36.0502906], [-95.7307862, 36.0504519], [-95.7308649, 36.0504526], [-95.7308656, 36.0504088], [-95.7309037, 36.0504092], [-95.7309048, 36.0504126], [-95.7309572, 36.0504131]]]}, "properties": {"osm_id": 987964117, "building": "yes", "name": "", "height": null, "height_m": null, "levels": null, "tract_id": "40145030502", "tract_name": "305.02", "tags": {"building": "yes"}}}, {"type": "Feature", "geometry": {"type": "Polygon", "coordinates": [[[-95.7307391, 36.0504945], [-95.7307412, 36.0503349], [-95.7307046, 36.0503346], [-95.7307048, 36.0503212], [-95.7306586, 36.0503208], [-95.7306588, 36.0503097], [-95.7306179, 36.0503094], [-95.7306175, 36.0503348], [-95.7306077, 36.0503348], [-95.7306076, 36.0503427], [-95.7305683, 36.0503423], [-95.7305668, 36.050451], [-95.7305964, 36.0504512], [-95.7305963, 36.0504616], [-95.7306314, 36.0504619], [-95.7306316, 36.0504467], [-95.7306579, 36.0504469], [-95.7306573, 36.0504938], [-95.7307391, 36.0504945]]]}, "properties": {"osm_id": 987964118, "building": "yes", "name": "", "height": null, "height_m": null, "levels": null, "tract_id": "40145030502", "tract_name": "305.02", "tags": {"building": "yes"}}}, {"type": "Feature", "geometry": {"type": "Polygon", "coordinates": [[[-95.730509, 36.0504897], [-95.7305103, 36.0504272], [-95.7304887, 36.0504269], [-95.7304903, 36.0503512], [-95.730417, 36.0503502], [-95.7304178, 36.0503147], [-95.7303382, 36.0503136], [-95.7303376, 36.0503382], [-95.7303018, 36.0503377], [-95.7302984, 36.0504908], [-95.7303528, 36.0504915], [-95.7303505, 36.0504851], [-95.7304007, 36.0504858], [-95.7304005, 36.0504962], [-95.7304789, 36.0504973], [-95.730479, 36.0504893], [-95.730509, 36.0504897]]]}, "properties": {"osm_id": 987964119, "building": "yes", "name": "", "height": null, "height_m": null, "levels": null, "tract_id": "40145030502", "tract_name": "305.02", "tags": {"building": "yes"}}}, {"type": "Feature", "geometry": {"type": "Polygon", "coordinates": [[[-95.7302693, 36.050492], [-95.7302662, 36.0503144], [-95.7302126, 36.050315], [-95.7302131, 36.050347], [-95.7301023, 36.0503482], [-95.7301046, 36.0504803], [-95.7301221, 36.0504801], [-95.7301222, 36.0504854], [-95.7301754, 36.0504848], [-95.7301753, 36.0504799], [-95.7301903, 36.0504797], [-95.7301905, 36.0504929], [-95.7302693, 36.050492]]]}, "properties": {"osm_id": 987964120, "building": "yes", "name": "", "height": null, "height_m": null, "levels": null, "tract_id": "40145030502", "tract_name": "305.02", "tags": {"building": "yes"}}}, {"type": "Feature", "geometry": {"type": "Polygon", "coordinates": [[[-95.7300652, 36.0504915], [-95.7300644, 36.0503288], [-95.7299393, 36.0503292], [-95.7299394, 36.0503491], [-95.7298999, 36.0503492], [-95.7299005, 36.0504782], [-95.7299374, 36.0504781], [-95.7299374, 36.0504863], [-95.7299932, 36.0504861], [-95.7299933, 36.0504917], [-95.7300652, 36.0504915]]]}, "properties": {"osm_id": 987964121, "building": "yes", "name": "", "height": null, "height_m": null, "levels": null, "tract_id": "40145030502", "tract_name": "305.02", "tags": {"building": "yes"}}}, {"type": "Feature", "geometry": {"type": "Polygon", "coordinates": [[[-95.7280341, 36.0479367], [-95.7279912, 36.0479147], [-95.7279969, 36.0479097], [-95.7279582, 36.0478889], [-95.7279506, 36.0478954], [-95.7278866, 36.0478615], [-95.7278895, 36.0478576], [-95.7278632, 36.0478426], [-95.7279048, 36.047792], [-95.727932, 36.047804], [-95.7280055, 36.0477272], [-95.7280623, 36.0477561], [-95.7280575, 36.0477596], [-95.7280685, 36.0477681], [-95.7280943, 36.0477465], [-95.7281373, 36.0477685], [-95.7281163, 36.0477908], [-95.7281401, 36.0478036], [-95.7281354, 36.0478074], [-95.7281435, 36.0478113], [-95.7280341, 36.0479367]]]}, "properties": {"osm_id": 988067589, "building": "yes", "name": "", "height": null, "height_m": null, "levels": null, "tract_id": "40145030502", "tract_name": "305.02", "tags": {"building": "yes"}}}, {"type": "Feature", "geometry": {"type": "Polygon", "coordinates": [[[-95.72815, 36.0481106], [-95.7279864, 36.048109], [-95.7279848, 36.0480523], [-95.7280112, 36.048052], [-95.728012, 36.0480425], [-95.7279949, 36.0480416], [-95.7279968, 36.0480068], [-95.7280046, 36.0480062], [-95.7280046, 36.0479946], [-95.72815, 36.047999], [-95.72815, 36.0481106]]]}, "properties": {"osm_id": 988067590, "building": "yes", "name": "", "height": null, "height_m": null, "levels": null, "tract_id": "40145030502", "tract_name": "305.02", "tags": {"building": "yes"}}}, {"type": "Feature", "geometry": {"type": "Polygon", "coordinates": [[[-95.7280967, 36.0482905], [-95.7279264, 36.0482905], [-95.7279272, 36.0482852], [-95.727921, 36.0482846], [-95.7279183, 36.0482394], [-95.7279253, 36.0482391], [-95.7279237, 36.0482313], [-95.7279369, 36.0482306], [-95.7279361, 36.0482056], [-95.7279416, 36.0482056], [-95.7279404, 36.0481971], [-95.727935, 36.0481965], [-95.727935, 36.0481751], [-95.7279431, 36.0481751], [-95.7279436, 36.0481583], [-95.7280963, 36.048161], [-95.7280967, 36.0482905]]]}, "properties": {"osm_id": 988067591, "building": "yes", "name": "", "height": null, "height_m": null, "levels": null, "tract_id": "40145030502", "tract_name": "305.02", "tags": {"building": "yes"}}}, {"type": "Feature", "geometry": {"type": "Polygon", "coordinates": [[[-95.7281078, 36.0484565], [-95.7279104, 36.0484551], [-95.7279068, 36.0483957], [-95.7279145, 36.0483957], [-95.7279145, 36.0483534], [-95.7279239, 36.0483477], [-95.7279192, 36.0483239], [-95.7280796, 36.0483258], [-95.7280779, 36.048408], [-95.7281108, 36.0484085], [-95.7281078, 36.0484565]]]}, "properties": {"osm_id": 988067592, "building": "yes", "name": "", "height": null, "height_m": null, "levels": null, "tract_id": "40145030502", "tract_name": "305.02", "tags": {"building": "yes"}}}, {"type": "Feature", "geometry": {"type": "Polygon", "coordinates": [[[-95.7280955, 36.0486378], [-95.7279233, 36.0486372], [-95.7279226, 36.048581], [-95.7279023, 36.048581], [-95.7279001, 36.0485284], [-95.7279054, 36.0485281], [-95.7279045, 36.0485009], [-95.7281085, 36.0484997], [-95.7281085, 36.0485477], [-95.7280933, 36.0485494], [-95.7280955, 36.0486378]]]}, "properties": {"osm_id": 988067593, "building": "yes", "name": "", "height": null, "height_m": null, "levels": null, "tract_id": "40145030502", "tract_name": "305.02", "tags": {"building": "yes"}}}, {"type": "Feature", "geometry": {"type": "Polygon", "coordinates": [[[-95.7614064, 36.0346292], [-95.761272, 36.0346284], [-95.7612731, 36.0345095], [-95.7613018, 36.0345083], [-95.7612992, 36.0344444], [-95.7614016, 36.0344438], [-95.7614064, 36.0346292]]]}, "properties": {"osm_id": 988070350, "building": "yes", "name": "", "height": null, "height_m": null, "levels": null, "tract_id": "40145030502", "tract_name": "305.02", "tags": {"building": "yes"}}}, {"type": "Feature", "geometry": {"type": "Polygon", "coordinates": [[[-95.7599132, 36.0342557], [-95.7598097, 36.0343382], [-95.7596383, 36.0341976], [-95.7597202, 36.0341353], [-95.7597743, 36.0341787], [-95.7597971, 36.0341605], [-95.7599132, 36.0342557]]]}, "properties": {"osm_id": 988070351, "building": "yes", "name": "", "height": null, "height_m": null, "levels": null, "tract_id": "40145030502", "tract_name": "305.02", "tags": {"building": "yes"}}}, {"type": "Feature", "geometry": {"type": "Polygon", "coordinates": [[[-95.7284201, 36.0485647], [-95.728346, 36.0485652], [-95.7283458, 36.0485474], [-95.7283389, 36.0485474], [-95.728339, 36.0485581], [-95.7282929, 36.0485584], [-95.7282929, 36.0485528], [-95.728276, 36.0485529], [-95.7282747, 36.0484304], [-95.7283102, 36.0484301], [-95.72831, 36.0484101], [-95.7283671, 36.0484097], [-95.7283673, 36.0484308], [-95.7284186, 36.0484304], [-95.7284201, 36.0485647]]]}, "properties": {"osm_id": 988192524, "building": "yes", "name": "", "height": null, "height_m": null, "levels": null, "tract_id": "40145030502", "tract_name": "305.02", "tags": {"building": "yes"}}}, {"type": "Feature", "geometry": {"type": "Polygon", "coordinates": [[[-95.7286523, 36.048617], [-95.7286134, 36.0486173], [-95.7286135, 36.0486217], [-95.7285342, 36.0486224], [-95.7285339, 36.0486], [-95.7285116, 36.0486001], [-95.7285114, 36.0485901], [-95.7284782, 36.0485904], [-95.7284764, 36.0484491], [-95.7285113, 36.0484489], [-95.7285112, 36.048435], [-95.7285579, 36.0484347], [-95.7285577, 36.0484197], [-95.72865, 36.048419], [-95.7286523, 36.048617]]]}, "properties": {"osm_id": 988192525, "building": "yes", "name": "", "height": null, "height_m": null, "levels": null, "tract_id": "40145030502", "tract_name": "305.02", "tags": {"building": "yes"}}}, {"type": "Feature", "geometry": {"type": "Polygon", "coordinates": [[[-95.7288523, 36.0486312], [-95.7287904, 36.0486317], [-95.7287904, 36.048627], [-95.7287435, 36.0486275], [-95.7287434, 36.0486216], [-95.7287285, 36.0486217], [-95.7287286, 36.0486258], [-95.7286826, 36.0486262], [-95.7286807, 36.0484871], [-95.7287616, 36.0484864], [-95.7287612, 36.0484583], [-95.7288499, 36.0484575], [-95.7288523, 36.0486312]]]}, "properties": {"osm_id": 988192526, "building": "yes", "name": "", "height": null, "height_m": null, "levels": null, "tract_id": "40145030502", "tract_name": "305.02", "tags": {"building": "yes"}}}, {"type": "Feature", "geometry": {"type": "Polygon", "coordinates": [[[-95.7290905, 36.0486172], [-95.729056, 36.0486174], [-95.7290561, 36.0486221], [-95.7289787, 36.0486226], [-95.7289786, 36.0486101], [-95.7289612, 36.0486102], [-95.7289612, 36.0486073], [-95.7289364, 36.0486075], [-95.7289364, 36.0486118], [-95.7288843, 36.0486121], [-95.7288827, 36.0484726], [-95.7289705, 36.0484719], [-95.7289701, 36.04844], [-95.7290709, 36.0484393], [-95.7290722, 36.0485538], [-95.7290898, 36.0485536], [-95.7290905, 36.0486172]]]}, "properties": {"osm_id": 988192527, "building": "yes", "name": "", "height": null, "height_m": null, "levels": null, "tract_id": "40145030502", "tract_name": "305.02", "tags": {"building": "yes"}}}, {"type": "Feature", "geometry": {"type": "Polygon", "coordinates": [[[-95.7292945, 36.0486235], [-95.729215, 36.0486236], [-95.7292149, 36.0485924], [-95.729171, 36.0485924], [-95.729171, 36.0486042], [-95.7291169, 36.0486043], [-95.7291165, 36.0484581], [-95.7291781, 36.048458], [-95.729178, 36.0484315], [-95.729288, 36.0484313], [-95.7292881, 36.0484594], [-95.7292942, 36.0484594], [-95.7292945, 36.0486235]]]}, "properties": {"osm_id": 988192528, "building": "yes", "name": "", "height": null, "height_m": null, "levels": null, "tract_id": "40145030502", "tract_name": "305.02", "tags": {"building": "yes"}}}, {"type": "Feature", "geometry": {"type": "Polygon", "coordinates": [[[-95.7278176, 36.0478264], [-95.72774, 36.0478264], [-95.72774, 36.0478064], [-95.7276284, 36.0478064], [-95.7276284, 36.0476756], [-95.7278196, 36.0476756], [-95.7278196, 36.0477573], [-95.727835, 36.0477573], [-95.7278351, 36.0478208], [-95.7278176, 36.0478208], [-95.7278176, 36.0478264]]]}, "properties": {"osm_id": 988192529, "building": "yes", "name": "", "height": null, "height_m": null, "levels": null, "tract_id": "40145030502", "tract_name": "305.02", "tags": {"building": "yes"}}}, {"type": "Feature", "geometry": {"type": "Polygon", "coordinates": [[[-95.7274671, 36.047952], [-95.7274059, 36.0479096], [-95.7274304, 36.0478865], [-95.7273498, 36.0478308], [-95.7273515, 36.0478169], [-95.7273883, 36.0477825], [-95.7273948, 36.047787], [-95.7273981, 36.0477839], [-95.7273729, 36.0477663], [-95.7274154, 36.0477267], [-95.727434, 36.0477397], [-95.7274577, 36.0477177], [-95.7276003, 36.0478176], [-95.7275715, 36.0478445], [-95.7275772, 36.0478484], [-95.7275396, 36.0478837], [-95.7275437, 36.0478866], [-95.7274925, 36.0479349], [-95.7274883, 36.047932], [-95.7274671, 36.047952]]]}, "properties": {"osm_id": 988192530, "building": "yes", "name": "", "height": null, "height_m": null, "levels": null, "tract_id": "40145030502", "tract_name": "305.02", "tags": {"building": "yes"}}}, {"type": "Feature", "geometry": {"type": "Polygon", "coordinates": [[[-95.7274678, 36.0481023], [-95.7273154, 36.0481022], [-95.7273155, 36.0479838], [-95.7274857, 36.0479839], [-95.7274857, 36.0480458], [-95.7274626, 36.0480458], [-95.7274626, 36.0480505], [-95.7274745, 36.0480505], [-95.7274745, 36.0480888], [-95.7274678, 36.0480888], [-95.7274678, 36.0481023]]]}, "properties": {"osm_id": 988192531, "building": "yes", "name": "", "height": null, "height_m": null, "levels": null, "tract_id": "40145030502", "tract_name": "305.02", "tags": {"building": "yes"}}}, {"type": "Feature", "geometry": {"type": "Polygon", "coordinates": [[[-95.7331172, 36.0290987], [-95.7326625, 36.0286941], [-95.7327923, 36.0285987], [-95.733247, 36.0290033], [-95.7331172, 36.0290987]]]}, "properties": {"osm_id": 1011751932, "building": "industrial", "name": "", "height": null, "height_m": null, "levels": null, "tract_id": "40145030502", "tract_name": "305.02", "tags": {"building": "industrial"}}}, {"type": "Feature", "geometry": {"type": "Polygon", "coordinates": [[[-95.7338172, 36.0297223], [-95.7333666, 36.0293167], [-95.733493, 36.0292248], [-95.7338878, 36.0295802], [-95.7338267, 36.0296246], [-95.7338825, 36.0296749], [-95.7338172, 36.0297223]]]}, "properties": {"osm_id": 1011751933, "building": "industrial", "name": "", "height": null, "height_m": null, "levels": null, "tract_id": "40145030502", "tract_name": "305.02", "tags": {"building": "industrial"}}}, {"type": "Feature", "geometry": {"type": "Polygon", "coordinates": [[[-95.737832, 36.0329002], [-95.7377294, 36.0328084], [-95.7379044, 36.0326804], [-95.738007, 36.0327722], [-95.737832, 36.0329002]]]}, "properties": {"osm_id": 1011751934, "building": "yes", "name": "", "height": null, "height_m": null, "levels": null, "tract_id": "40145030502", "tract_name": "305.02", "tags": {"building": "yes", "shop": "vacant"}}}, {"type": "Feature", "geometry": {"type": "Polygon", "coordinates": [[[-95.7293071, 36.025475], [-95.7286111, 36.0252364], [-95.7287701, 36.0249329], [-95.7290789, 36.0250388], [-95.7291202, 36.0249599], [-95.7294296, 36.0250659], [-95.7293882, 36.0251448], [-95.7294661, 36.0251715], [-95.7293071, 36.025475]]]}, "properties": {"osm_id": 1011937731, "building": "yes", "name": "", "height": null, "height_m": null, "levels": null, "tract_id": "40145030502", "tract_name": "305.02", "tags": {"building": "yes"}}}, {"type": "Feature", "geometry": {"type": "Polygon", "coordinates": [[[-95.7323179, 36.0271724], [-95.7315843, 36.0269208], [-95.7316524, 36.0267909], [-95.732386, 36.0270426], [-95.7323179, 36.0271724]]]}, "properties": {"osm_id": 1011937732, "building": "yes", "name": "", "height": null, "height_m": null, "levels": null, "tract_id": "40145030502", "tract_name": "305.02", "tags": {"building": "yes"}}}, {"type": "Feature", "geometry": {"type": "Polygon", "coordinates": [[[-95.7308574, 36.0267321], [-95.7309775, 36.0266327], [-95.7319954, 36.0274375], [-95.7318753, 36.0275369], [-95.7308574, 36.0267321]]]}, "properties": {"osm_id": 1011937733, "building": "yes", "name": "", "height": null, "height_m": null, "levels": null, "tract_id": "40145030502", "tract_name": "305.02", "tags": {"building": "yes"}}}, {"type": "Feature", "geometry": {"type": "Polygon", "coordinates": [[[-95.7306857, 36.0269783], [-95.7300407, 36.0265228], [-95.7301538, 36.026418], [-95.7307988, 36.0268735], [-95.7306857, 36.0269783]]]}, "properties": {"osm_id": 1011937734, "building": "industrial", "name": "", "height": null, "height_m": null, "levels": null, "tract_id": "40145030502", "tract_name": "305.02", "tags": {"building": "industrial"}}}, {"type": "Feature", "geometry": {"type": "Polygon", "coordinates": [[[-95.7314582, 36.0275933], [-95.7308024, 36.0270759], [-95.7309235, 36.0269755], [-95.7315793, 36.0274928], [-95.7314582, 36.0275933]]]}, "properties": {"osm_id": 1011937735, "building": "yes", "name": "", "height": null, "height_m": null, "levels": null, "tract_id": "40145030502", "tract_name": "305.02", "tags": {"building": "yes"}}}, {"type": "Feature", "geometry": {"type": "Polygon", "coordinates": [[[-95.7325231, 36.0285705], [-95.7319129, 36.0280217], [-95.7320456, 36.0279251], [-95.7326558, 36.0284739], [-95.7325231, 36.0285705]]]}, "properties": {"osm_id": 1011937736, "building": "industrial", "name": "", "height": null, "height_m": null, "levels": null, "tract_id": "40145030502", "tract_name": "305.02", "tags": {"building": "industrial"}}}, {"type": "Feature", "geometry": {"type": "Polygon", "coordinates": [[[-95.7328389, 36.0283411], [-95.7327577, 36.0283411], [-95.7327577, 36.0281903], [-95.7325821, 36.0281903], [-95.7325821, 36.0275884], [-95.7328389, 36.0275884], [-95.7328389, 36.0283411]]]}, "properties": {"osm_id": 1011937737, "building": "yes", "name": "", "height": null, "height_m": null, "levels": null, "tract_id": "40145030502", "tract_name": "305.02", "tags": {"building": "yes"}}}, {"type": "Feature", "geometry": {"type": "Polygon", "coordinates": [[[-95.7332768, 36.027616], [-95.7332781, 36.0287397], [-95.7331091, 36.0287398], [-95.7331089, 36.02859], [-95.732939, 36.0285901], [-95.7329379, 36.0276893], [-95.7330213, 36.0276892], [-95.7330213, 36.0276557], [-95.7331078, 36.0276556], [-95.7331078, 36.0276162], [-95.7332768, 36.027616]]]}, "properties": {"osm_id": 1011937738, "building": "yes", "name": "", "height": null, "height_m": null, "levels": null, "tract_id": "40145030502", "tract_name": "305.02", "tags": {"building": "yes"}}}, {"type": "Feature", "geometry": {"type": "Polygon", "coordinates": [[[-95.7339031, 36.0283514], [-95.7338186, 36.0283514], [-95.7338179, 36.0276687], [-95.7339024, 36.0276686], [-95.7339031, 36.0283514]]]}, "properties": {"osm_id": 1011937739, "building": "yes", "name": "", "height": null, "height_m": null, "levels": null, "tract_id": "40145030502", "tract_name": "305.02", "tags": {"building": "yes"}}}, {"type": "Feature", "geometry": {"type": "Polygon", "coordinates": [[[-95.7339044, 36.0291784], [-95.7338206, 36.0291783], [-95.7338219, 36.0284923], [-95.7339057, 36.0284924], [-95.7339044, 36.0291784]]]}, "properties": {"osm_id": 1011937740, "building": "yes", "name": "", "height": null, "height_m": null, "levels": null, "tract_id": "40145030502", "tract_name": "305.02", "tags": {"building": "yes"}}}, {"type": "Feature", "geometry": {"type": "Polygon", "coordinates": [[[-95.751865, 36.0429832], [-95.751905, 36.0430724], [-95.7517593, 36.0431261], [-95.7516964, 36.0430024], [-95.7517584, 36.042981], [-95.751773, 36.0430083], [-95.751865, 36.0429832]]]}, "properties": {"osm_id": 1058951339, "building": "house", "name": "", "height": null, "height_m": 3.0, "levels": 1, "tract_id": "40145030502", "tract_name": "305.02", "tags": {"addr:city": "Broken Arrow", "addr:housenumber": "3212", "addr:postcode": "74014", "addr:state": "OK", "addr:street": "East Louisville Street", "building": "house", "building:levels": "1"}}}, {"type": "Feature", "geometry": {"type": "Polygon", "coordinates": [[[-95.7483437, 36.0212265], [-95.748344, 36.0210856], [-95.7482381, 36.0210854], [-95.7482387, 36.0208696], [-95.7482554, 36.0208696], [-95.7482556, 36.0208283], [-95.7483534, 36.0208285], [-95.7483536, 36.0207484], [-95.7484017, 36.0207485], [-95.7484024, 36.0207551], [-95.7484406, 36.0207746], [-95.7484829, 36.020792], [-95.7485291, 36.0207996], [-95.7485714, 36.0208009], [-95.7486163, 36.0207963], [-95.7486559, 36.0207871], [-95.7486907, 36.0207714], [-95.7487196, 36.0207589], [-95.7487457, 36.0207589], [-95.7487457, 36.0207491], [-95.7487974, 36.0207492], [-95.7487972, 36.0208292], [-95.7488887, 36.0208294], [-95.7488886, 36.0208707], [-95.7489065, 36.0208707], [-95.748906, 36.0210865], [-95.7488031, 36.0210863], [-95.7488027, 36.0212272], [-95.7488323, 36.0212273], [-95.7488322, 36.0212741], [-95.7485642, 36.0212737], [-95.7483158, 36.0212733], [-95.7483159, 36.0212264], [-95.7483437, 36.0212265]]]}, "properties": {"osm_id": 1157658823, "building": "university", "name": "", "height": null, "height_m": null, "levels": null, "tract_id": "40145030502", "tract_name": "305.02", "tags": {"building": "university"}}}, {"type": "Feature", "geometry": {"type": "Polygon", "coordinates": [[[-95.7480276, 36.0203383], [-95.74799, 36.0203381], [-95.74799, 36.0203218], [-95.7479605, 36.0203218], [-95.7479458, 36.020293], [-95.7479397, 36.0202562], [-95.7479451, 36.0202209], [-95.7479605, 36.0201916], [-95.74799, 36.0201916], [-95.74799, 36.0201732], [-95.7480276, 36.0201732], [-95.7480276, 36.0201374], [-95.7480048, 36.0201374], [-95.7480048, 36.0200864], [-95.7480276, 36.0200864], [-95.7481774, 36.0200864], [-95.7482609, 36.0200864], [-95.7482609, 36.0200712], [-95.7483092, 36.0200712], [-95.7483092, 36.0201016], [-95.748336, 36.0201016], [-95.748336, 36.0201721], [-95.7483092, 36.0201721], [-95.7483092, 36.0202063], [-95.7483266, 36.0202063], [-95.7483353, 36.0202282], [-95.7483387, 36.0202532], [-95.748336, 36.0202773], [-95.7483266, 36.0202979], [-95.7483092, 36.0202979], [-95.7483092, 36.0203364], [-95.748336, 36.0203364], [-95.748336, 36.020408], [-95.7483092, 36.020408], [-95.7483092, 36.0205528], [-95.7483213, 36.0205528], [-95.7483213, 36.020594], [-95.7483092, 36.020594], [-95.7482609, 36.020594], [-95.7482609, 36.0206721], [-95.7480276, 36.0206721], [-95.7480276, 36.0206163], [-95.7479806, 36.0206163], [-95.7479806, 36.0205387], [-95.7480205, 36.0205387], [-95.7480205, 36.0205177], [-95.7480205, 36.0203383], [-95.7480276, 36.0203383]]]}, "properties": {"osm_id": 1158893638, "building": "university", "name": "", "height": null, "height_m": null, "levels": null, "tract_id": "40145030502", "tract_name": "305.02", "tags": {"building": "university"}}}, {"type": "Feature", "geometry": {"type": "Polygon", "coordinates": [[[-95.7488416, 36.0201011], [-95.7488416, 36.020043], [-95.7488416, 36.0200072], [-95.7489811, 36.0200072], [-95.7489811, 36.0199747], [-95.7490119, 36.0199747], [-95.7490119, 36.01994], [-95.7490683, 36.01994], [-95.7490683, 36.0199747], [-95.7491273, 36.0199747], [-95.7491273, 36.020043], [-95.749146, 36.020043], [-95.749146, 36.0200528], [-95.7492279, 36.0200528], [-95.7492279, 36.0201222], [-95.749258, 36.0201222], [-95.749258, 36.0204791], [-95.7492279, 36.0204791], [-95.7492279, 36.0205517], [-95.749146, 36.0205517], [-95.749146, 36.0205658], [-95.7491273, 36.0205658], [-95.7491273, 36.0206271], [-95.7490295, 36.0206271], [-95.7489818, 36.0206271], [-95.7489818, 36.0205658], [-95.7488416, 36.0205658], [-95.7488416, 36.0204091], [-95.7488081, 36.0204091], [-95.7488081, 36.0203364], [-95.7488416, 36.0203364], [-95.7488416, 36.0202985], [-95.7488155, 36.0202985], [-95.7488051, 36.0202781], [-95.7488014, 36.0202554], [-95.7488051, 36.0202323], [-95.7488155, 36.0202133], [-95.7488416, 36.0202133], [-95.7488416, 36.0201732], [-95.7488088, 36.0201732], [-95.7488088, 36.0201011], [-95.7488416, 36.0201011]]]}, "properties": {"osm_id": 1158893639, "building": "university", "name": "", "height": null, "height_m": null, "levels": null, "tract_id": "40145030502", "tract_name": "305.02", "tags": {"building": "university"}}}, {"type": "Feature", "geometry": {"type": "Polygon", "coordinates": [[[-95.7484489, 36.0197939], [-95.7484487, 36.0196862], [-95.7487012, 36.0196858], [-95.7487015, 36.0197935], [-95.7487235, 36.0197935], [-95.7487236, 36.0198277], [-95.7486472, 36.0198278], [-95.7486472, 36.0197936], [-95.7485151, 36.0197938], [-95.7485151, 36.0198265], [-95.7484379, 36.0198266], [-95.7484379, 36.0197939], [-95.7484489, 36.0197939]]]}, "properties": {"osm_id": 1158960554, "building": "university", "name": "", "height": null, "height_m": null, "levels": null, "tract_id": "40145030502", "tract_name": "305.02", "tags": {"building": "university"}}}, {"type": "Feature", "geometry": {"type": "Polygon", "coordinates": [[[-95.7489613, 36.0191045], [-95.7489836, 36.0191045], [-95.7489838, 36.0192078], [-95.748987, 36.0192078], [-95.7489878, 36.0195799], [-95.7487134, 36.0195802], [-95.7487134, 36.0196085], [-95.7487135, 36.0196664], [-95.7484361, 36.0196667], [-95.7484359, 36.0195806], [-95.7481791, 36.0195809], [-95.7481783, 36.0192089], [-95.7481909, 36.0192089], [-95.7481908, 36.0191502], [-95.7481905, 36.0190353], [-95.7482123, 36.0190353], [-95.7482123, 36.0190239], [-95.7482364, 36.0190239], [-95.7482364, 36.0190106], [-95.7483732, 36.0190104], [-95.7483733, 36.0190237], [-95.7484007, 36.0190237], [-95.7484007, 36.019035], [-95.7484235, 36.019035], [-95.7484238, 36.019179], [-95.748768, 36.0191785], [-95.7487679, 36.0191048], [-95.7487896, 36.0191047], [-95.7487896, 36.0190993], [-95.7489613, 36.0190991], [-95.7489613, 36.0191045]]]}, "properties": {"osm_id": 1158960555, "building": "university", "name": "", "height": null, "height_m": null, "levels": null, "tract_id": "40145030502", "tract_name": "305.02", "tags": {"building": "university"}}}, {"type": "Feature", "geometry": {"type": "Polygon", "coordinates": [[[-95.7507261, 36.0469806], [-95.7507259, 36.0470279], [-95.7505278, 36.0470272], [-95.7505287, 36.0468631], [-95.7505493, 36.0468632], [-95.7505502, 36.046707], [-95.7507053, 36.0467075], [-95.7507049, 36.046784], [-95.7507044, 36.0468638], [-95.7509076, 36.0468645], [-95.7509069, 36.0469813], [-95.7507261, 36.0469806]]]}, "properties": {"osm_id": 1237616460, "building": "industrial", "name": "Polar Bear Jack's", "height": null, "height_m": null, "levels": null, "tract_id": "40145030502", "tract_name": "305.02", "tags": {"addr:city": "Broken Arrow", "addr:housenumber": "3400", "addr:street": "East Houston Street", "building": "industrial", "craft": "hvac; insulation", "name": "Polar Bear Jack's"}}}, {"type": "Feature", "geometry": {"type": "Polygon", "coordinates": [[[-95.7571954, 36.0595766], [-95.7571939, 36.0595169], [-95.7572244, 36.0595164], [-95.7572259, 36.0595761], [-95.7571954, 36.0595766]]]}, "properties": {"osm_id": 1237618879, "building": "shed", "name": "", "height": null, "height_m": null, "levels": null, "tract_id": "40145030502", "tract_name": "305.02", "tags": {"building": "shed"}}}, {"type": "Feature", "geometry": {"type": "Polygon", "coordinates": [[[-95.7569642, 36.0596029], [-95.7569204, 36.059603], [-95.7569203, 36.0595678], [-95.7569641, 36.0595677], [-95.756964, 36.0595556], [-95.7571035, 36.0595553], [-95.7571042, 36.0597585], [-95.7569647, 36.0597588], [-95.7569642, 36.0596029]]]}, "properties": {"osm_id": 1237618880, "building": "church", "name": "Angus Acres Church of Christ", "height": null, "height_m": null, "levels": null, "tract_id": "40145030502", "tract_name": "305.02", "tags": {"amenity": "place_of_worship", "building": "church", "name": "Angus Acres Church of Christ", "religion": "christian", "service_times": "Su 10:00,14:00; We 19:30"}}}, {"type": "Feature", "geometry": {"type": "Polygon", "coordinates": [[[-95.7517565, 36.0450165], [-95.7513072, 36.0450197], [-95.7513063, 36.0449352], [-95.7517556, 36.0449319], [-95.7517565, 36.0450165]]]}, "properties": {"osm_id": 1238384765, "building": "yes", "name": "Quick-N-Clean", "height": null, "height_m": null, "levels": null, "tract_id": "40145030502", "tract_name": "305.02", "tags": {"amenity": "car_wash", "building": "yes", "name": "Quick-N-Clean"}}}, {"type": "Feature", "geometry": {"type": "Polygon", "coordinates": [[[-95.7336456, 36.028975], [-95.7334712, 36.028975], [-95.7334712, 36.0276171], [-95.7336456, 36.0276171], [-95.7336456, 36.028975]]]}, "properties": {"osm_id": 1238601983, "building": "industrial", "name": "", "height": null, "height_m": null, "levels": null, "tract_id": "40145030502", "tract_name": "305.02", "tags": {"building": "industrial"}}}, {"type": "Feature", "geometry": {"type": "Polygon", "coordinates": [[[-95.7470337, 36.0406396], [-95.7466856, 36.0408957], [-95.7465118, 36.0407412], [-95.7468599, 36.0404851], [-95.7470337, 36.0406396]]]}, "properties": {"osm_id": 1238606052, "building": "retail", "name": "Dollar General", "height": null, "height_m": null, "levels": null, "tract_id": "40145030502", "tract_name": "305.02", "tags": {"building": "retail", "name": "Dollar General", "shop": "variety_store"}}}, {"type": "Feature", "geometry": {"type": "Polygon", "coordinates": [[[-95.7392876, 36.0356091], [-95.7392311, 36.0356492], [-95.7391365, 36.0355619], [-95.7391931, 36.0355218], [-95.7392284, 36.0355544], [-95.7392413, 36.0355453], [-95.7392645, 36.0355668], [-95.7392516, 36.0355759], [-95.7392876, 36.0356091]]]}, "properties": {"osm_id": 1238606053, "building": "retail", "name": "Jimmy Long Truck Country", "height": null, "height_m": null, "levels": null, "tract_id": "40145030502", "tract_name": "305.02", "tags": {"building": "retail", "name": "Jimmy Long Truck Country", "phone": "+1 918 252 7777", "second_hand": "only", "shop": "car"}}}, {"type": "Feature", "geometry": {"type": "Polygon", "coordinates": [[[-95.7396328, 36.0359247], [-95.7394911, 36.0357986], [-95.7395867, 36.0357284], [-95.7397283, 36.0358544], [-95.7396328, 36.0359247]]]}, "properties": {"osm_id": 1242462313, "building": "roof", "name": "", "height": null, "height_m": null, "levels": null, "tract_id": "40145030502", "tract_name": "305.02", "tags": {"building": "roof", "layer": "1"}}}, {"type": "Feature", "geometry": {"type": "Polygon", "coordinates": [[[-95.7396869, 36.0359728], [-95.7396328, 36.0359247], [-95.7397283, 36.0358544], [-95.7397824, 36.0359025], [-95.7396869, 36.0359728]]]}, "properties": {"osm_id": 1242462314, "building": "retail", "name": "", "height": null, "height_m": null, "levels": null, "tract_id": "40145030502", "tract_name": "305.02", "tags": {"building": "retail"}}}, {"type": "Feature", "geometry": {"type": "Polygon", "coordinates": [[[-95.7397824, 36.0359025], [-95.7399085, 36.0360147], [-95.739813, 36.0360849], [-95.7396869, 36.0359728], [-95.7397824, 36.0359025]]]}, "properties": {"osm_id": 1242462315, "building": "roof", "name": "", "height": null, "height_m": null, "levels": null, "tract_id": "40145030502", "tract_name": "305.02", "tags": {"building": "roof", "layer": "1"}}}, {"type": "Feature", "geometry": {"type": "Polygon", "coordinates": [[[-95.7382254, 36.0361047], [-95.7379505, 36.0358629], [-95.7380279, 36.0358053], [-95.7383028, 36.0360472], [-95.7382254, 36.0361047]]]}, "properties": {"osm_id": 1242462322, "building": "industrial", "name": "", "height": null, "height_m": null, "levels": null, "tract_id": "40145030502", "tract_name": "305.02", "tags": {"building": "industrial"}}}, {"type": "Feature", "geometry": {"type": "Polygon", "coordinates": [[[-95.7379988, 36.0363162], [-95.7378982, 36.0362294], [-95.7379878, 36.0361615], [-95.7380884, 36.0362483], [-95.7379988, 36.0363162]]]}, "properties": {"osm_id": 1242462323, "building": "commercial", "name": "", "height": null, "height_m": null, "levels": null, "tract_id": "40145030502", "tract_name": "305.02", "tags": {"building": "commercial"}}}, {"type": "Feature", "geometry": {"type": "Polygon", "coordinates": [[[-95.7384494, 36.0363509], [-95.7383381, 36.0362511], [-95.7384017, 36.0362047], [-95.738513, 36.0363045], [-95.7384494, 36.0363509]]]}, "properties": {"osm_id": 1242462324, "building": "industrial", "name": "", "height": null, "height_m": null, "levels": null, "tract_id": "40145030502", "tract_name": "305.02", "tags": {"building": "industrial"}}}, {"type": "Feature", "geometry": {"type": "Polygon", "coordinates": [[[-95.7386559, 36.0367055], [-95.7384735, 36.0365439], [-95.738651, 36.036413], [-95.7388334, 36.0365746], [-95.7386559, 36.0367055]]]}, "properties": {"osm_id": 1242462325, "building": "industrial", "name": "", "height": null, "height_m": null, "levels": null, "tract_id": "40145030502", "tract_name": "305.02", "tags": {"building": "industrial"}}}, {"type": "Feature", "geometry": {"type": "Polygon", "coordinates": [[[-95.7392299, 36.0363845], [-95.7390207, 36.0365428], [-95.7388827, 36.0364236], [-95.7390919, 36.0362653], [-95.7392299, 36.0363845]]]}, "properties": {"osm_id": 1242462326, "building": "office", "name": "", "height": null, "height_m": null, "levels": null, "tract_id": "40145030502", "tract_name": "305.02", "tags": {"building": "office"}}}, {"type": "Feature", "geometry": {"type": "Polygon", "coordinates": [[[-95.7382942, 36.0372162], [-95.7378104, 36.0375915], [-95.7375064, 36.0373352], [-95.7379902, 36.03696], [-95.7382942, 36.0372162]]]}, "properties": {"osm_id": 1242462327, "building": "industrial", "name": "", "height": null, "height_m": null, "levels": null, "tract_id": "40145030502", "tract_name": "305.02", "tags": {"building": "industrial"}}}, {"type": "Feature", "geometry": {"type": "Polygon", "coordinates": [[[-95.7389067, 36.0355321], [-95.7386801, 36.0353315], [-95.7388084, 36.0352367], [-95.739035, 36.0354373], [-95.7389067, 36.0355321]]]}, "properties": {"osm_id": 1242462337, "building": "industrial", "name": "Diesel Worx", "height": null, "height_m": null, "levels": null, "tract_id": "40145030502", "tract_name": "305.02", "tags": {"addr:city": "Broken Arrow", "addr:housenumber": "8945", "addr:postcode": "74014", "addr:street": "South State Highway 51", "building": "industrial", "name": "Diesel Worx", "phone": "+1 918 237 7568", "shop": "car_repair"}}}, {"type": "Feature", "geometry": {"type": "Polygon", "coordinates": [[[-95.7384078, 36.0359019], [-95.7381785, 36.0357013], [-95.7382779, 36.035627], [-95.7385072, 36.0358277], [-95.7384078, 36.0359019]]]}, "properties": {"osm_id": 1242462338, "building": "industrial", "name": "MTW Powder Coating", "height": null, "height_m": null, "levels": null, "tract_id": "40145030502", "tract_name": "305.02", "tags": {"building": "industrial", "name": "MTW Powder Coating", "shop": "car_repair"}}}, {"type": "Feature", "geometry": {"type": "Polygon", "coordinates": [[[-95.743454, 36.0605899], [-95.7434541, 36.0605254], [-95.7433607, 36.0605257], [-95.7432685, 36.0605259], [-95.7431812, 36.060524], [-95.7431035, 36.060525], [-95.7430111, 36.060525], [-95.7429205, 36.0605249], [-95.7428303, 36.0605248], [-95.7427598, 36.0605247], [-95.7427597, 36.0605892], [-95.7428316, 36.0605894], [-95.74292, 36.0605904], [-95.7430115, 36.0605895], [-95.7431039, 36.0605895], [-95.7431819, 36.06059], [-95.7432686, 36.06059], [-95.7433618, 36.0605892], [-95.743454, 36.0605899]]]}, "properties": {"osm_id": 1245156649, "building": "roof", "name": "Casey's General Store", "height": null, "height_m": null, "levels": null, "tract_id": "40145030502", "tract_name": "305.02", "tags": {"amenity": "fuel", "brand": "Casey's General Store", "brand:wikidata": "Q2940968", "building": "roof", "layer": "1", "name": "Casey's General Store"}}}, {"type": "Feature", "geometry": {"type": "Polygon", "coordinates": [[[-95.7432871, 36.0602386], [-95.7432871, 36.0603534], [-95.7432101, 36.0603534], [-95.7432101, 36.0603576], [-95.7432026, 36.0603576], [-95.7432026, 36.0603665], [-95.7430098, 36.0603665], [-95.7430098, 36.0603584], [-95.743002, 36.0603584], [-95.743002, 36.060353], [-95.7429223, 36.0603531], [-95.7429223, 36.0602387], [-95.7432871, 36.0602386]]]}, "properties": {"osm_id": 1245156650, "building": "retail", "name": "Casey's General Store", "height": null, "height_m": null, "levels": null, "tract_id": "40145030502", "tract_name": "305.02", "tags": {"brand": "Casey's General Store", "brand:wikidata": "Q2940968", "building": "retail", "name": "Casey's General Store", "shop": "convenience"}}}, {"type": "Feature", "geometry": {"type": "Polygon", "coordinates": [[[-95.7270844, 36.0603526], [-95.727321, 36.0603524], [-95.7273212, 36.0605094], [-95.7270846, 36.0605096], [-95.7270844, 36.0603526]]]}, "properties": {"osm_id": 1253984096, "building": "retail", "name": "", "height": null, "height_m": null, "levels": null, "tract_id": "40145030502", "tract_name": "305.02", "tags": {"addr:city": "Broken Arrow", "addr:postcode": "74014", "addr:street": "East Kenosha Street", "building": "retail"}}}, {"type": "Feature", "geometry": {"type": "Polygon", "coordinates": [[[-95.7265478, 36.0604004], [-95.7265478, 36.0605099], [-95.726531, 36.0605099], [-95.726531, 36.0605185], [-95.7263647, 36.0605185], [-95.7263647, 36.0605099], [-95.7263479, 36.0605099], [-95.7263479, 36.0604004], [-95.7265478, 36.0604004]]]}, "properties": {"osm_id": 1253984097, "building": "retail", "name": "Houligan's Corner", "height": null, "height_m": null, "levels": null, "tract_id": "40145030502", "tract_name": "305.02", "tags": {"addr:city": "Broken Arrow", "addr:housenumber": "22431", "addr:postcode": "74014", "addr:state": "OK", "addr:street": "East Kenosha Street", "amenity": "restaurant", "building": "retail", "cuisine": "american", "name": "Houligan's Corner", "opening_hours": "Mo-Th 16:00-21:30; Fr-Sa 11:30-22:00", "phone": "+1 918-940-5000", "website": "https://houliganscorner.com"}}}, {"type": "Feature", "geometry": {"type": "Polygon", "coordinates": [[[-95.7269488, 36.0605239], [-95.7266926, 36.0605239], [-95.7266926, 36.0603987], [-95.7269488, 36.0603987], [-95.7269488, 36.0605239]]]}, "properties": {"osm_id": 1253984098, "building": "retail", "name": "", "height": null, "height_m": null, "levels": null, "tract_id": "40145030502", "tract_name": "305.02", "tags": {"addr:city": "Broken Arrow", "addr:postcode": "74014", "addr:street": "East Kenosha Street", "building": "retail"}}}, {"type": "Feature", "geometry": {"type": "Polygon", "coordinates": [[[-95.7586091, 36.0326598], [-95.7586082, 36.0327608], [-95.7581025, 36.032758], [-95.7581052, 36.032451], [-95.7581061, 36.0323433], [-95.7586118, 36.0323462], [-95.7586104, 36.0325151], [-95.7587281, 36.0325157], [-95.7587268, 36.0326605], [-95.7586091, 36.0326598]]]}, "properties": {"osm_id": 1266868182, "building": "industrial", "name": "Hi-Tec Industries", "height": null, "height_m": null, "levels": null, "tract_id": "40145030502", "tract_name": "305.02", "tags": {"addr:city": "Broken Arrow", "addr:housenumber": "19701", "addr:postcode": "74014", "addr:state": "OK", "addr:street": "East Washington Street", "building": "industrial", "name": "Hi-Tec Industries", "phone": "+1 918 455 7141"}}}, {"type": "Feature", "geometry": {"type": "Polygon", "coordinates": [[[-95.726976, 36.0411479], [-95.7269426, 36.0411316], [-95.7269911, 36.0410665], [-95.7270245, 36.0410828], [-95.726976, 36.0411479]]]}, "properties": {"osm_id": 1318881010, "building": "service", "name": "", "height": null, "height_m": null, "levels": null, "tract_id": "40145030502", "tract_name": "305.02", "tags": {"building": "service"}}}, {"type": "Feature", "geometry": {"type": "Polygon", "coordinates": [[[-95.7527706, 36.0473773], [-95.7526929, 36.0473964], [-95.7526579, 36.0473033], [-95.7527356, 36.0472842], [-95.7527706, 36.0473773]]]}, "properties": {"osm_id": 1323716209, "building": "retail", "name": "Hearth Homes", "height": null, "height_m": null, "levels": null, "tract_id": "40145030502", "tract_name": "305.02", "tags": {"addr:city": "Broken Arrow", "addr:housenumber": "7903", "addr:postcode": "74014", "addr:street": "State Highway 51", "building": "retail", "craft": "builder", "name": "Hearth Homes", "office": "estate_agent", "website": "https://hearthhomesrealtyok.com/"}}}, {"type": "Feature", "geometry": {"type": "Polygon", "coordinates": [[[-95.7422277, 36.0604804], [-95.7422264, 36.0603229], [-95.741939, 36.0603244], [-95.7419403, 36.0604819], [-95.7422277, 36.0604804]]]}, "properties": {"osm_id": 1327138738, "building": "retail", "name": "OReilley Auto Parts", "height": null, "height_m": null, "levels": null, "tract_id": "40145030502", "tract_name": "305.02", "tags": {"building": "retail", "fixme": "adjust position and size when newer imagery becomes available.", "name": "OReilley Auto Parts", "shop": "car_parts"}}}, {"type": "Feature", "geometry": {"type": "Polygon", "coordinates": [[[-95.7541846, 36.046797], [-95.7538654, 36.046797], [-95.7538654, 36.0467102], [-95.7541846, 36.0467102], [-95.7541846, 36.046797]]]}, "properties": {"osm_id": 1337377113, "building": "greenhouse", "name": "", "height": null, "height_m": null, "levels": null, "tract_id": "40145030502", "tract_name": "305.02", "tags": {"building": "greenhouse"}}}, {"type": "Feature", "geometry": {"type": "Polygon", "coordinates": [[[-95.7609057, 36.0534472], [-95.7609004, 36.0531753], [-95.7610035, 36.0531739], [-95.7610088, 36.0534459], [-95.7609057, 36.0534472]]]}, "properties": {"osm_id": 1337377114, "building": "industrial", "name": "", "height": null, "height_m": null, "levels": null, "tract_id": "40145030502", "tract_name": "305.02", "tags": {"building": "industrial"}}}, {"type": "Feature", "geometry": {"type": "Polygon", "coordinates": [[[-95.7610164, 36.0535944], [-95.760663, 36.0535944], [-95.760663, 36.0534438], [-95.7606481, 36.0534438], [-95.7606481, 36.0533904], [-95.7607301, 36.0533904], [-95.7607301, 36.0534747], [-95.7610164, 36.0534747], [-95.7610164, 36.0535944]]]}, "properties": {"osm_id": 1337377115, "building": "industrial", "name": "Abatement Systems Incorporated", "height": null, "height_m": null, "levels": null, "tract_id": "40145030502", "tract_name": "305.02", "tags": {"addr:city": "Broken Arrow", "addr:housenumber": "2400", "addr:postcode": "74014", "addr:street": "East College Street", "building": "industrial", "name": "Abatement Systems Incorporated", "short_name": "ASI"}}}, {"type": "Feature", "geometry": {"type": "Polygon", "coordinates": [[[-95.7325821, 36.0188539], [-95.7325091, 36.0188526], [-95.7325138, 36.0186871], [-95.7325868, 36.0186885], [-95.7325821, 36.0188539]]]}, "properties": {"osm_id": 1341385216, "building": "yes", "name": "", "height": null, "height_m": null, "levels": null, "tract_id": "40145030502", "tract_name": "305.02", "tags": {"building": "yes"}}}, {"type": "Feature", "geometry": {"type": "Polygon", "coordinates": [[[-95.7320731, 36.0184987], [-95.7319606, 36.0185004], [-95.7319566, 36.0183331], [-95.7320691, 36.0183313], [-95.7320731, 36.0184987]]]}, "properties": {"osm_id": 1341385217, "building": "yes", "name": "", "height": null, "height_m": null, "levels": null, "tract_id": "40145030502", "tract_name": "305.02", "tags": {"building": "yes"}}}, {"type": "Feature", "geometry": {"type": "Polygon", "coordinates": [[[-95.7348539, 36.0183842], [-95.7347466, 36.0183856], [-95.7347453, 36.0183167], [-95.7348526, 36.0183153], [-95.7348539, 36.0183842]]]}, "properties": {"osm_id": 1341385218, "building": "yes", "name": "", "height": null, "height_m": null, "levels": null, "tract_id": "40145030502", "tract_name": "305.02", "tags": {"building": "yes"}}}, {"type": "Feature", "geometry": {"type": "Polygon", "coordinates": [[[-95.7352864, 36.0185431], [-95.7351566, 36.018544], [-95.7351557, 36.0184434], [-95.7352854, 36.0184425], [-95.7352864, 36.0185431]]]}, "properties": {"osm_id": 1341385219, "building": "yes", "name": "", "height": null, "height_m": null, "levels": null, "tract_id": "40145030502", "tract_name": "305.02", "tags": {"building": "yes"}}}, {"type": "Feature", "geometry": {"type": "Polygon", "coordinates": [[[-95.7374194, 36.0192214], [-95.7373128, 36.0192214], [-95.7373128, 36.0190915], [-95.7374194, 36.0190915], [-95.7374194, 36.0192214]]]}, "properties": {"osm_id": 1341385220, "building": "yes", "name": "", "height": null, "height_m": null, "levels": null, "tract_id": "40145030502", "tract_name": "305.02", "tags": {"building": "yes"}}}, {"type": "Feature", "geometry": {"type": "Polygon", "coordinates": [[[-95.7359492, 36.0192195], [-95.7358241, 36.019221], [-95.735821, 36.0190564], [-95.7359462, 36.0190549], [-95.7359492, 36.0192195]]]}, "properties": {"osm_id": 1341385221, "building": "yes", "name": "", "height": null, "height_m": null, "levels": null, "tract_id": "40145030502", "tract_name": "305.02", "tags": {"building": "yes"}}}, {"type": "Feature", "geometry": {"type": "Polygon", "coordinates": [[[-95.732106, 36.0260867], [-95.7319289, 36.0260867], [-95.7319289, 36.0256491], [-95.732106, 36.0256491], [-95.732106, 36.0260867]]]}, "properties": {"osm_id": 1341385223, "building": "yes", "name": "", "height": null, "height_m": null, "levels": null, "tract_id": "40145030502", "tract_name": "305.02", "tags": {"building": "yes"}}}, {"type": "Feature", "geometry": {"type": "Polygon", "coordinates": [[[-95.7325304, 36.0260889], [-95.7323569, 36.0260882], [-95.7323596, 36.0256517], [-95.7325331, 36.0256524], [-95.7325304, 36.0260889]]]}, "properties": {"osm_id": 1341385224, "building": "yes", "name": "", "height": null, "height_m": null, "levels": null, "tract_id": "40145030502", "tract_name": "305.02", "tags": {"building": "yes"}}}, {"type": "Feature", "geometry": {"type": "Polygon", "coordinates": [[[-95.7328979, 36.0260873], [-95.7327235, 36.0260876], [-95.7327222, 36.0256527], [-95.7328966, 36.0256524], [-95.7328979, 36.0260873]]]}, "properties": {"osm_id": 1341385225, "building": "yes", "name": "", "height": null, "height_m": null, "levels": null, "tract_id": "40145030502", "tract_name": "305.02", "tags": {"building": "yes"}}}, {"type": "Feature", "geometry": {"type": "Polygon", "coordinates": [[[-95.7333331, 36.0260889], [-95.7331587, 36.0260893], [-95.7331573, 36.0256532], [-95.7333317, 36.0256529], [-95.7333331, 36.0260889]]]}, "properties": {"osm_id": 1341385226, "building": "yes", "name": "", "height": null, "height_m": null, "levels": null, "tract_id": "40145030502", "tract_name": "305.02", "tags": {"building": "yes"}}}, {"type": "Feature", "geometry": {"type": "Polygon", "coordinates": [[[-95.7357169, 36.0295309], [-95.7350323, 36.0295336], [-95.7350276, 36.028772], [-95.7357123, 36.0287693], [-95.7357169, 36.0295309]]]}, "properties": {"osm_id": 1341385227, "building": "yes", "name": "", "height": null, "height_m": null, "levels": null, "tract_id": "40145030502", "tract_name": "305.02", "tags": {"building": "yes"}}}, {"type": "Feature", "geometry": {"type": "Polygon", "coordinates": [[[-95.7391588, 36.0312138], [-95.7388661, 36.0312163], [-95.7388641, 36.0310583], [-95.7391568, 36.0310559], [-95.7391588, 36.0312138]]]}, "properties": {"osm_id": 1341385228, "building": "yes", "name": "Pura Verde", "height": null, "height_m": null, "levels": null, "tract_id": "40145030502", "tract_name": "305.02", "tags": {"addr:city": "Broken Arrow", "addr:housenumber": "4201", "addr:postcode": "74014", "addr:street": "East Washington Street", "building": "yes", "name": "Pura Verde", "phone": "+1 918 258 4685"}}}, {"type": "Feature", "geometry": {"type": "Polygon", "coordinates": [[[-95.7393332, 36.0309484], [-95.7391385, 36.0309498], [-95.7391331, 36.0304639], [-95.7393278, 36.0304625], [-95.7393332, 36.0309484]]]}, "properties": {"osm_id": 1341385229, "building": "yes", "name": "", "height": null, "height_m": null, "levels": null, "tract_id": "40145030502", "tract_name": "305.02", "tags": {"building": "yes"}}}, {"type": "Feature", "geometry": {"type": "Polygon", "coordinates": [[[-95.7404114, 36.0309229], [-95.7400031, 36.030924], [-95.7400022, 36.0307114], [-95.7404106, 36.0307103], [-95.7404114, 36.0309229]]]}, "properties": {"osm_id": 1341385230, "building": "yes", "name": "", "height": null, "height_m": null, "levels": null, "tract_id": "40145030502", "tract_name": "305.02", "tags": {"building": "yes"}}}, {"type": "Feature", "geometry": {"type": "Polygon", "coordinates": [[[-95.7338149, 36.0554245], [-95.7334759, 36.0554251], [-95.7334756, 36.0552836], [-95.7338145, 36.055283], [-95.7338149, 36.0554245]]]}, "properties": {"osm_id": 1342532268, "building": "yes", "name": "", "height": null, "height_m": null, "levels": null, "tract_id": "40145030502", "tract_name": "305.02", "tags": {"building": "yes"}}}, {"type": "Feature", "geometry": {"type": "Polygon", "coordinates": [[[-95.7605904, 36.0608015], [-95.760361, 36.0608031], [-95.7603598, 36.0606892], [-95.7605891, 36.0606875], [-95.7605904, 36.0608015]]]}, "properties": {"osm_id": 1342532269, "building": "yes", "name": "", "height": null, "height_m": null, "levels": null, "tract_id": "40145030502", "tract_name": "305.02", "tags": {"building": "yes"}}}, {"type": "Feature", "geometry": {"type": "Polygon", "coordinates": [[[-95.7433414, 36.055592], [-95.7432673, 36.055592], [-95.7432673, 36.0550979], [-95.7433414, 36.0550979], [-95.7433414, 36.055592]]]}, "properties": {"osm_id": 1342532290, "building": "yes", "name": "", "height": null, "height_m": null, "levels": null, "tract_id": "40145030502", "tract_name": "305.02", "tags": {"building": "yes"}}}, {"type": "Feature", "geometry": {"type": "Polygon", "coordinates": [[[-95.7434862, 36.0550431], [-95.7432696, 36.0550433], [-95.7432693, 36.0547961], [-95.7434859, 36.0547959], [-95.7434862, 36.0550431]]]}, "properties": {"osm_id": 1342532291, "building": "yes", "name": "", "height": null, "height_m": null, "levels": null, "tract_id": "40145030502", "tract_name": "305.02", "tags": {"building": "yes"}}}, {"type": "Feature", "geometry": {"type": "Polygon", "coordinates": [[[-95.7446936, 36.0530433], [-95.744638, 36.0530427], [-95.7446401, 36.052925], [-95.7446956, 36.0529256], [-95.7446936, 36.0530433]]]}, "properties": {"osm_id": 1342532292, "building": "yes", "name": "", "height": null, "height_m": null, "levels": null, "tract_id": "40145030502", "tract_name": "305.02", "tags": {"building": "yes"}}}, {"type": "Feature", "geometry": {"type": "Polygon", "coordinates": [[[-95.7467294, 36.0534526], [-95.746618, 36.0534528], [-95.7466177, 36.0533316], [-95.746729, 36.0533314], [-95.7467294, 36.0534526]]]}, "properties": {"osm_id": 1342532293, "building": "yes", "name": "", "height": null, "height_m": null, "levels": null, "tract_id": "40145030502", "tract_name": "305.02", "tags": {"building": "yes"}}}, {"type": "Feature", "geometry": {"type": "Polygon", "coordinates": [[[-95.7448701, 36.0511302], [-95.7447429, 36.0510861], [-95.7447927, 36.0509922], [-95.7449199, 36.0510364], [-95.7448701, 36.0511302]]]}, "properties": {"osm_id": 1342532294, "building": "yes", "name": "", "height": null, "height_m": null, "levels": null, "tract_id": "40145030502", "tract_name": "305.02", "tags": {"building": "yes"}}}, {"type": "Feature", "geometry": {"type": "Polygon", "coordinates": [[[-95.7428227, 36.0500255], [-95.7424472, 36.0500399], [-95.742439, 36.0498989], [-95.7428145, 36.0498845], [-95.7428227, 36.0500255]]]}, "properties": {"osm_id": 1342532295, "building": "yes", "name": "", "height": null, "height_m": null, "levels": null, "tract_id": "40145030502", "tract_name": "305.02", "tags": {"building": "yes"}}}, {"type": "Feature", "geometry": {"type": "Polygon", "coordinates": [[[-95.7431614, 36.0498447], [-95.7431028, 36.0498461], [-95.7431004, 36.0497846], [-95.743159, 36.0497831], [-95.7431614, 36.0498447]]]}, "properties": {"osm_id": 1342532296, "building": "yes", "name": "", "height": null, "height_m": null, "levels": null, "tract_id": "40145030502", "tract_name": "305.02", "tags": {"building": "yes"}}}, {"type": "Feature", "geometry": {"type": "Polygon", "coordinates": [[[-95.7433682, 36.0498216], [-95.7432036, 36.049829], [-95.7431988, 36.0497586], [-95.7433634, 36.0497513], [-95.7433682, 36.0498216]]]}, "properties": {"osm_id": 1342532297, "building": "yes", "name": "", "height": null, "height_m": null, "levels": null, "tract_id": "40145030502", "tract_name": "305.02", "tags": {"building": "yes"}}}, {"type": "Feature", "geometry": {"type": "Polygon", "coordinates": [[[-95.7512061, 36.043583], [-95.7509182, 36.0435823], [-95.7509184, 36.043542], [-95.7506114, 36.0435412], [-95.750612, 36.0433761], [-95.750924, 36.0433769], [-95.7509237, 36.0434714], [-95.7512065, 36.0434721], [-95.7512061, 36.043583]]]}, "properties": {"osm_id": 1342532298, "building": "yes", "name": "", "height": null, "height_m": null, "levels": null, "tract_id": "40145030502", "tract_name": "305.02", "tags": {"building": "yes"}}}, {"type": "Feature", "geometry": {"type": "Polygon", "coordinates": [[[-95.751531, 36.043502], [-95.751529, 36.0435424], [-95.7512426, 36.043533], [-95.7512509, 36.0433672], [-95.7515379, 36.0433767], [-95.7515367, 36.0434008], [-95.751579, 36.0434022], [-95.7515782, 36.0434181], [-95.7516306, 36.0434199], [-95.7516263, 36.0435051], [-95.751531, 36.043502]]]}, "properties": {"osm_id": 1342532299, "building": "yes", "name": "", "height": null, "height_m": null, "levels": null, "tract_id": "40145030502", "tract_name": "305.02", "tags": {"building": "yes"}}}, {"type": "Feature", "geometry": {"type": "Polygon", "coordinates": [[[-95.7537048, 36.0456272], [-95.7537032, 36.0457415], [-95.7534967, 36.0457396], [-95.7534983, 36.0456253], [-95.7537048, 36.0456272]]]}, "properties": {"osm_id": 1342532300, "building": "yes", "name": "", "height": null, "height_m": null, "levels": null, "tract_id": "40145030502", "tract_name": "305.02", "tags": {"building": "yes"}}}, {"type": "Feature", "geometry": {"type": "Polygon", "coordinates": [[[-95.7531747, 36.0454136], [-95.7530379, 36.0454144], [-95.7530365, 36.0452566], [-95.7531734, 36.0452558], [-95.7531747, 36.0454136]]]}, "properties": {"osm_id": 1342532301, "building": "yes", "name": "", "height": null, "height_m": null, "levels": null, "tract_id": "40145030502", "tract_name": "305.02", "tags": {"building": "yes"}}}, {"type": "Feature", "geometry": {"type": "Polygon", "coordinates": [[[-95.753167, 36.0450167], [-95.7530305, 36.0450173], [-95.7530295, 36.0448625], [-95.753166, 36.0448619], [-95.753167, 36.0450167]]]}, "properties": {"osm_id": 1342532302, "building": "yes", "name": "", "height": null, "height_m": null, "levels": null, "tract_id": "40145030502", "tract_name": "305.02", "tags": {"building": "yes"}}}, {"type": "Feature", "geometry": {"type": "Polygon", "coordinates": [[[-95.7536092, 36.043925], [-95.7534695, 36.0439249], [-95.7534698, 36.0437592], [-95.7536096, 36.0437594], [-95.7536092, 36.043925]]]}, "properties": {"osm_id": 1342532303, "building": "yes", "name": "", "height": null, "height_m": null, "levels": null, "tract_id": "40145030502", "tract_name": "305.02", "tags": {"building": "yes"}}}, {"type": "Feature", "geometry": {"type": "Polygon", "coordinates": [[[-95.7531362, 36.0440186], [-95.752998, 36.0440191], [-95.752997, 36.0438434], [-95.7531352, 36.0438429], [-95.7531362, 36.0440186]]]}, "properties": {"osm_id": 1342532304, "building": "yes", "name": "", "height": null, "height_m": null, "levels": null, "tract_id": "40145030502", "tract_name": "305.02", "tags": {"building": "yes"}}}, {"type": "Feature", "geometry": {"type": "Polygon", "coordinates": [[[-95.7503614, 36.0435423], [-95.7500161, 36.0435382], [-95.7500191, 36.0433698], [-95.7503645, 36.0433739], [-95.7503614, 36.0435423]]]}, "properties": {"osm_id": 1342532305, "building": "yes", "name": "", "height": null, "height_m": null, "levels": null, "tract_id": "40145030502", "tract_name": "305.02", "tags": {"building": "yes"}}}, {"type": "Feature", "geometry": {"type": "Polygon", "coordinates": [[[-95.7523315, 36.0438337], [-95.7519654, 36.0438302], [-95.7519675, 36.0436861], [-95.7523336, 36.0436897], [-95.7523315, 36.0438337]]]}, "properties": {"osm_id": 1342532306, "building": "yes", "name": "", "height": null, "height_m": null, "levels": null, "tract_id": "40145030502", "tract_name": "305.02", "tags": {"building": "yes"}}}, {"type": "Feature", "geometry": {"type": "Polygon", "coordinates": [[[-95.7522554, 36.0435268], [-95.7519758, 36.0435252], [-95.751977, 36.0433867], [-95.7522566, 36.0433884], [-95.7522554, 36.0435268]]]}, "properties": {"osm_id": 1342532307, "building": "yes", "name": "", "height": null, "height_m": null, "levels": null, "tract_id": "40145030502", "tract_name": "305.02", "tags": {"building": "yes"}}}, {"type": "Feature", "geometry": {"type": "Polygon", "coordinates": [[[-95.751504, 36.0439917], [-95.7511429, 36.0439757], [-95.7511524, 36.0438355], [-95.7515135, 36.0438515], [-95.751504, 36.0439917]]]}, "properties": {"osm_id": 1342532308, "building": "yes", "name": "", "height": null, "height_m": null, "levels": null, "tract_id": "40145030502", "tract_name": "305.02", "tags": {"building": "yes"}}}, {"type": "Feature", "geometry": {"type": "Polygon", "coordinates": [[[-95.7514886, 36.0442214], [-95.7512227, 36.0442119], [-95.7512276, 36.0441233], [-95.7514935, 36.0441327], [-95.7514886, 36.0442214]]]}, "properties": {"osm_id": 1342532309, "building": "yes", "name": "", "height": null, "height_m": null, "levels": null, "tract_id": "40145030502", "tract_name": "305.02", "tags": {"building": "yes"}}}, {"type": "Feature", "geometry": {"type": "Polygon", "coordinates": [[[-95.7527804, 36.0444271], [-95.7526055, 36.0444264], [-95.7526068, 36.0442014], [-95.7527818, 36.0442021], [-95.7527804, 36.0444271]]]}, "properties": {"osm_id": 1342532310, "building": "yes", "name": "", "height": null, "height_m": null, "levels": null, "tract_id": "40145030502", "tract_name": "305.02", "tags": {"building": "yes"}}}, {"type": "Feature", "geometry": {"type": "Polygon", "coordinates": [[[-95.752468, 36.0441349], [-95.7523764, 36.0441308], [-95.7523802, 36.0440756], [-95.7524717, 36.0440797], [-95.752468, 36.0441349]]]}, "properties": {"osm_id": 1342532311, "building": "yes", "name": "", "height": null, "height_m": null, "levels": null, "tract_id": "40145030502", "tract_name": "305.02", "tags": {"building": "yes"}}}, {"type": "Feature", "geometry": {"type": "Polygon", "coordinates": [[[-95.7523422, 36.0441162], [-95.751962, 36.044114], [-95.7519632, 36.0439747], [-95.7523434, 36.0439768], [-95.7523422, 36.0441162]]]}, "properties": {"osm_id": 1342532312, "building": "yes", "name": "", "height": null, "height_m": null, "levels": null, "tract_id": "40145030502", "tract_name": "305.02", "tags": {"building": "yes"}}}, {"type": "Feature", "geometry": {"type": "Polygon", "coordinates": [[[-95.7522306, 36.0443311], [-95.751961, 36.0443311], [-95.751961, 36.0442444], [-95.7522306, 36.0442444], [-95.7522306, 36.0443311]]]}, "properties": {"osm_id": 1342532313, "building": "yes", "name": "", "height": null, "height_m": null, "levels": null, "tract_id": "40145030502", "tract_name": "305.02", "tags": {"building": "yes"}}}, {"type": "Feature", "geometry": {"type": "Polygon", "coordinates": [[[-95.7524197, 36.0448137], [-95.7519644, 36.0448061], [-95.7519709, 36.0445493], [-95.7524262, 36.0445568], [-95.7524197, 36.0448137]]]}, "properties": {"osm_id": 1342532314, "building": "yes", "name": "", "height": null, "height_m": null, "levels": null, "tract_id": "40145030502", "tract_name": "305.02", "tags": {"building": "yes"}}}, {"type": "Feature", "geometry": {"type": "Polygon", "coordinates": [[[-95.7489297, 36.0445764], [-95.7489443, 36.0445692], [-95.7489942, 36.0446346], [-95.7489803, 36.0446415], [-95.7490231, 36.0446976], [-95.7488553, 36.0447814], [-95.7487198, 36.0446039], [-95.748887, 36.0445205], [-95.7489297, 36.0445764]]]}, "properties": {"osm_id": 1342532315, "building": "yes", "name": "", "height": null, "height_m": null, "levels": null, "tract_id": "40145030502", "tract_name": "305.02", "tags": {"building": "yes"}}}, {"type": "Feature", "geometry": {"type": "Polygon", "coordinates": [[[-95.7486502, 36.0481019], [-95.7485026, 36.0479827], [-95.7486034, 36.0479012], [-95.7487509, 36.0480205], [-95.7486502, 36.0481019]]]}, "properties": {"osm_id": 1342532316, "building": "yes", "name": "", "height": null, "height_m": null, "levels": null, "tract_id": "40145030502", "tract_name": "305.02", "tags": {"building": "yes"}}}, {"type": "Feature", "geometry": {"type": "Polygon", "coordinates": [[[-95.7476993, 36.0474093], [-95.7477738, 36.0473483], [-95.747924, 36.0474681], [-95.7478495, 36.0475291], [-95.7476993, 36.0474093]]]}, "properties": {"osm_id": 1342532317, "building": "yes", "name": "", "height": null, "height_m": null, "levels": null, "tract_id": "40145030502", "tract_name": "305.02", "tags": {"building": "yes"}}}, {"type": "Feature", "geometry": {"type": "Polygon", "coordinates": [[[-95.7487796, 36.0487119], [-95.7484155, 36.0485939], [-95.7484973, 36.0484287], [-95.7488615, 36.0485466], [-95.7487796, 36.0487119]]]}, "properties": {"osm_id": 1342532318, "building": "yes", "name": "", "height": null, "height_m": null, "levels": null, "tract_id": "40145030502", "tract_name": "305.02", "tags": {"building": "yes"}}}, {"type": "Feature", "geometry": {"type": "Polygon", "coordinates": [[[-95.7477265, 36.0481946], [-95.7471941, 36.0477544], [-95.747411, 36.0475829], [-95.7479434, 36.0480231], [-95.7477265, 36.0481946]]]}, "properties": {"osm_id": 1342532319, "building": "yes", "name": "", "height": null, "height_m": null, "levels": null, "tract_id": "40145030502", "tract_name": "305.02", "tags": {"building": "yes"}}}, {"type": "Feature", "geometry": {"type": "Polygon", "coordinates": [[[-95.7474891, 36.0475327], [-95.7476026, 36.0474431], [-95.7481364, 36.0478855], [-95.7480229, 36.0479751], [-95.7474891, 36.0475327]]]}, "properties": {"osm_id": 1342532320, "building": "yes", "name": "", "height": null, "height_m": null, "levels": null, "tract_id": "40145030502", "tract_name": "305.02", "tags": {"building": "yes"}}}, {"type": "Feature", "geometry": {"type": "Polygon", "coordinates": [[[-95.7467934, 36.0475197], [-95.7465453, 36.0474616], [-95.746592, 36.047331], [-95.7468401, 36.047389], [-95.7467934, 36.0475197]]]}, "properties": {"osm_id": 1342532321, "building": "yes", "name": "", "height": null, "height_m": null, "levels": null, "tract_id": "40145030502", "tract_name": "305.02", "tags": {"building": "yes"}}}, {"type": "Feature", "geometry": {"type": "Polygon", "coordinates": [[[-95.7382605, 36.0326305], [-95.7382115, 36.0325875], [-95.7382557, 36.0325546], [-95.7383047, 36.0325977], [-95.7382605, 36.0326305]]]}, "properties": {"osm_id": 1347699311, "building": "shed", "name": "", "height": null, "height_m": null, "levels": null, "tract_id": "40145030502", "tract_name": "305.02", "tags": {"building": "shed"}}}, {"type": "Feature", "geometry": {"type": "Polygon", "coordinates": [[[-95.7263098, 36.0181445], [-95.7263083, 36.0180403], [-95.7263286, 36.0180401], [-95.7263275, 36.0179638], [-95.7264054, 36.0179631], [-95.7264063, 36.0180275], [-95.7264655, 36.0180269], [-95.7264661, 36.018071], [-95.7264684, 36.018071], [-95.7264694, 36.018143], [-95.7263098, 36.0181445]]]}, "properties": {"osm_id": 1347839882, "building": "house", "name": "", "height": null, "height_m": null, "levels": null, "tract_id": "40145030502", "tract_name": "305.02", "tags": {"addr:city": "Broken Arrow", "addr:housenumber": "10070", "addr:postcode": "74014", "addr:street": "South 225th East Avenue", "building": "house"}}}, {"type": "Feature", "geometry": {"type": "Polygon", "coordinates": [[[-95.72646, 36.0188492], [-95.7264585, 36.0190596], [-95.7263713, 36.0190592], [-95.7263716, 36.019018], [-95.7263337, 36.0190178], [-95.726334, 36.0189722], [-95.726372, 36.0189724], [-95.7263729, 36.0188487], [-95.72646, 36.0188492]]]}, "properties": {"osm_id": 1347839883, "building": "house", "name": "", "height": null, "height_m": null, "levels": null, "tract_id": "40145030502", "tract_name": "305.02", "tags": {"addr:city": "Broken Arrow", "addr:postcode": "74014", "addr:street": "South 225th East Avenue", "building": "house"}}}, {"type": "Feature", "geometry": {"type": "Polygon", "coordinates": [[[-95.7261998, 36.0201924], [-95.7262843, 36.0201918], [-95.7262849, 36.0202514], [-95.7262004, 36.0202519], [-95.7261998, 36.0201924]]]}, "properties": {"osm_id": 1347839886, "building": "garage", "name": "", "height": null, "height_m": null, "levels": null, "tract_id": "40145030502", "tract_name": "305.02", "tags": {"building": "garage"}}}, {"type": "Feature", "geometry": {"type": "Polygon", "coordinates": [[[-95.7262967, 36.0202492], [-95.7264142, 36.0202484], [-95.7264151, 36.0203325], [-95.7263897, 36.0203327], [-95.7263904, 36.0203929], [-95.7262982, 36.0203936], [-95.7262978, 36.0203551], [-95.7262707, 36.0203552], [-95.7262698, 36.02027], [-95.7262969, 36.0202698], [-95.7262967, 36.0202492]]]}, "properties": {"osm_id": 1347839887, "building": "house", "name": "", "height": null, "height_m": null, "levels": null, "tract_id": "40145030502", "tract_name": "305.02", "tags": {"addr:city": "Broken Arrow", "addr:postcode": "74014", "addr:street": "South 225th East Avenue", "building": "house"}}}, {"type": "Feature", "geometry": {"type": "Polygon", "coordinates": [[[-95.7384955, 36.025743], [-95.7383884, 36.0257422], [-95.7383884, 36.0257573], [-95.7383709, 36.0257584], [-95.7383276, 36.0257609], [-95.7383276, 36.0257752], [-95.7382227, 36.0257761], [-95.7382238, 36.0259824], [-95.7381376, 36.0259833], [-95.7381387, 36.0258395], [-95.7379764, 36.0258404], [-95.7379749, 36.0258152], [-95.7379415, 36.0258156], [-95.7377404, 36.0258176], [-95.7377396, 36.0259325], [-95.7376514, 36.0259332], [-95.7376514, 36.0259582], [-95.737541, 36.0259588], [-95.7375402, 36.0257841], [-95.7374392, 36.0257862], [-95.7374375, 36.0257633], [-95.7374141, 36.0257637], [-95.7373767, 36.0257643], [-95.7373767, 36.0257557], [-95.7372676, 36.0257571], [-95.7372723, 36.0259599], [-95.7372535, 36.0259602], [-95.7372552, 36.0260447], [-95.7372257, 36.0260454], [-95.7372262, 36.0260694], [-95.7372269, 36.026099], [-95.7372535, 36.026099], [-95.737253, 36.0261821], [-95.7372719, 36.0261824], [-95.7372727, 36.0263835], [-95.737378, 36.0263825], [-95.737378, 36.0264053], [-95.7374224, 36.0264042], [-95.7374366, 36.0264039], [-95.7374366, 36.0264288], [-95.7375582, 36.0264267], [-95.7375582, 36.0264188], [-95.7375787, 36.0264261], [-95.7376142, 36.0264257], [-95.7376392, 36.0264189], [-95.7376392, 36.0263934], [-95.7378044, 36.026393], [-95.7378775, 36.0263929], [-95.7378799, 36.0265684], [-95.7381443, 36.0265684], [-95.7381418, 36.0260966], [-95.7382274, 36.0260973], [-95.7382286, 36.0264379], [-95.7383391, 36.0264372], [-95.7383385, 36.0264083], [-95.738394, 36.0264081], [-95.7383942, 36.0263861], [-95.738402, 36.0263858], [-95.7384022, 36.0263892], [-95.738501, 36.026388], [-95.7384994, 36.0261757], [-95.7387019, 36.0261747], [-95.7387009, 36.0260925], [-95.7387287, 36.0260927], [-95.738728, 36.0260642], [-95.7387275, 36.0260428], [-95.7387839, 36.0260425], [-95.7387825, 36.025976], [-95.7387821, 36.0259535], [-95.7384966, 36.025955], [-95.7384955, 36.025743]]]}, "properties": {"osm_id": 1426710245, "building": "school", "name": "", "height": null, "height_m": null, "levels": null, "tract_id": "40145030502", "tract_name": "305.02", "tags": {"building": "school"}}}, {"type": "Feature", "geometry": {"type": "Polygon", "coordinates": [[[-95.7474988, 36.0223978], [-95.7475352, 36.0223802], [-95.7475367, 36.0223544], [-95.7475371, 36.0223478], [-95.747528, 36.0223257], [-95.7474988, 36.0223066], [-95.7474697, 36.0223029], [-95.7474406, 36.022311], [-95.7474233, 36.022347], [-95.7474352, 36.0223735], [-95.7474579, 36.0223949], [-95.7474988, 36.0223978]]]}, "properties": {"osm_id": 1444555735, "building": "yes", "name": "", "height": null, "height_m": null, "levels": null, "tract_id": "40145030502", "tract_name": "305.02", "tags": {"amenity": "shelter", "building": "yes", "shelter_type": "picnic_shelter"}}}, {"type": "Feature", "geometry": {"type": "Polygon", "coordinates": [[[-95.7533773, 36.0190421], [-95.7532646, 36.0190736], [-95.7531846, 36.018908], [-95.7533031, 36.0188752], [-95.7533773, 36.0190421]]]}, "properties": {"osm_id": 1444555777, "building": "yes", "name": "", "height": null, "height_m": null, "levels": null, "tract_id": "40145030502", "tract_name": "305.02", "tags": {"amenity": "shelter", "building": "yes", "shelter_type": "picnic_shelter"}}}, {"type": "Feature", "geometry": {"type": "Polygon", "coordinates": [[[-95.7527623, 36.0186445], [-95.7527092, 36.0186459], [-95.7527081, 36.0186727], [-95.7526827, 36.0186722], [-95.7526816, 36.018691], [-95.7526148, 36.0186901], [-95.7526159, 36.0186709], [-95.7525894, 36.01867], [-95.7525888, 36.018645], [-95.7525209, 36.0186445], [-95.7525284, 36.0185983], [-95.7525215, 36.0185565], [-95.7525894, 36.0185574], [-95.7525933, 36.0184886], [-95.7526154, 36.0184882], [-95.7526159, 36.0184645], [-95.7526354, 36.0184627], [-95.7526551, 36.0184609], [-95.7526849, 36.0184641], [-95.7526838, 36.0184837], [-95.7527054, 36.018485], [-95.7527043, 36.0185596], [-95.7527623, 36.0185579], [-95.7527739, 36.0185994], [-95.7527623, 36.0186445]]]}, "properties": {"osm_id": 1444555778, "building": "yes", "name": "", "height": null, "height_m": null, "levels": null, "tract_id": "40145030502", "tract_name": "305.02", "tags": {"building": "yes"}}}, {"type": "Feature", "geometry": {"type": "Polygon", "coordinates": [[[-95.7553727, 36.0179674], [-95.7551761, 36.0179786], [-95.7551634, 36.0178752], [-95.7551593, 36.0178415], [-95.7552449, 36.0178382], [-95.7552493, 36.0178707], [-95.755261, 36.0178704], [-95.755259, 36.0178593], [-95.7552971, 36.0178579], [-95.7553236, 36.0178571], [-95.7553256, 36.0178749], [-95.7553652, 36.0178715], [-95.7553727, 36.0179674]]]}, "properties": {"osm_id": 1444555787, "building": "house", "name": "", "height": null, "height_m": null, "levels": null, "tract_id": "40145030502", "tract_name": "305.02", "tags": {"building": "house"}}}, {"type": "Feature", "geometry": {"type": "Polygon", "coordinates": [[[-95.7494866, 36.0207766], [-95.7494592, 36.0207552], [-95.7494587, 36.020714], [-95.7494831, 36.020694], [-95.7495291, 36.0206933], [-95.7495574, 36.0207165], [-95.7495574, 36.0207559], [-95.7495304, 36.0207763], [-95.7494866, 36.0207766]]]}, "properties": {"osm_id": 1445306051, "building": "yes", "name": "", "height": null, "height_m": null, "levels": null, "tract_id": "40145030502", "tract_name": "305.02", "tags": {"amenity": "shelter", "building": "yes", "layer": "1", "shelter_type": "picnic_shelter"}}}, {"type": "Feature", "geometry": {"type": "Polygon", "coordinates": [[[-95.7507318, 36.0210229], [-95.7505193, 36.0210262], [-95.7505153, 36.0208018], [-95.7507277, 36.0208026], [-95.7507318, 36.0210229]]]}, "properties": {"osm_id": 1445306053, "building": "yes", "name": "", "height": null, "height_m": null, "levels": null, "tract_id": "40145030502", "tract_name": "305.02", "tags": {"building": "yes"}}}, {"type": "Feature", "geometry": {"type": "Polygon", "coordinates": [[[-95.750688, 36.0211093], [-95.7505641, 36.0211109], [-95.750562, 36.0210542], [-95.750687, 36.0210525], [-95.750688, 36.0211093]]]}, "properties": {"osm_id": 1445306054, "building": "yes", "name": "", "height": null, "height_m": null, "levels": null, "tract_id": "40145030502", "tract_name": "305.02", "tags": {"building": "yes"}}}, {"type": "Feature", "geometry": {"type": "Polygon", "coordinates": [[[-95.7506301, 36.0207689], [-95.7505071, 36.0207681], [-95.7505163, 36.020741], [-95.7505112, 36.0207204], [-95.7506321, 36.0207196], [-95.7506423, 36.0207434], [-95.7506301, 36.0207689]]]}, "properties": {"osm_id": 1445306055, "building": "greenhouse", "name": "", "height": null, "height_m": null, "levels": null, "tract_id": "40145030502", "tract_name": "305.02", "tags": {"building": "greenhouse"}}}]}