{"type": "FeatureCollection", "features": [{"type": "Feature", "geometry": {"type": "Polygon", "coordinates": [[[-95.9361642, 36.7250133], [-95.9360346, 36.7250139], [-95.9360323, 36.724693], [-95.936162, 36.7246924], [-95.9361642, 36.7250133]]]}, "properties": {"osm_id": 231173009, "building": "yes", "name": "QuikTrip", "height": null, "height_m": null, "levels": null, "tract_id": "40147000700", "tract_name": "7", "tags": {"addr:city": "Bartlesville", "addr:housenumber": "1835", "addr:state": "OK", "addr:street": "Southeast Washington Boulevard", "brand": "QuikTrip", "brand:wikidata": "Q7271953", "building": "yes", "check_date": "2024-06-07", "name": "QuikTrip", "shop": "convenience", "short_name": "QT"}}}, {"type": "Feature", "geometry": {"type": "Polygon", "coordinates": [[[-95.9356838, 36.7250554], [-95.935565, 36.7250559], [-95.9355619, 36.7246259], [-95.9356807, 36.7246254], [-95.9356838, 36.7250554]]]}, "properties": {"osm_id": 231173010, "building": "yes", "name": "", "height": null, "height_m": null, "levels": null, "tract_id": "40147000700", "tract_name": "7", "tags": {"addr:city": "Bartlesville", "addr:housenumber": "1835", "addr:state": "OK", "addr:street": "Southeast Washington Boulevard", "amenity": "fuel", "building": "yes"}}}, {"type": "Feature", "geometry": {"type": "Polygon", "coordinates": [[[-95.9520827, 36.7413999], [-95.9507381, 36.7413962], [-95.9507411, 36.7406837], [-95.9513493, 36.7406854], [-95.95135, 36.7405333], [-95.9515707, 36.7405339], [-95.9515708, 36.7405018], [-95.9520618, 36.7405031], [-95.952061, 36.7406972], [-95.9523897, 36.7406981], [-95.9523884, 36.7410044], [-95.9520844, 36.7410035], [-95.9520827, 36.7413999]]]}, "properties": {"osm_id": 254569602, "building": "yes", "name": "Lowe's", "height": null, "height_m": null, "levels": null, "tract_id": "40147000700", "tract_name": "7", "tags": {"addr:city": "Bartlesville", "addr:housenumber": "2205", "addr:postcode": "74006", "addr:state": "OK", "addr:street": "Southeast Adams Boulevard", "brand": "Lowe's", "brand:wikidata": "Q1373493", "building": "yes", "name": "Lowe's", "opening_hours": "Mo-Sa 06:00-21:00; Su 08:00-20:00", "phone": "+1 918-331-2000", "ref": "0351", "shop": "doityourself", "start_date": "1996-11-21", "website": "https://www.lowes.com/store/ok-bartlesville/0351"}}}, {"type": "Feature", "geometry": {"type": "Polygon", "coordinates": [[[-95.9359471, 36.7050781], [-95.935941, 36.7046459], [-95.9358008, 36.7046472], [-95.9358069, 36.7050794], [-95.9359471, 36.7050781]]]}, "properties": {"osm_id": 623474137, "building": "yes", "name": "", "height": null, "height_m": null, "levels": null, "tract_id": "40147000700", "tract_name": "7", "tags": {"building": "yes"}}}, {"type": "Feature", "geometry": {"type": "Polygon", "coordinates": [[[-95.9359539, 36.7056849], [-95.9359475, 36.7051113], [-95.935808, 36.7051123], [-95.9358145, 36.7056859], [-95.9359539, 36.7056849]]]}, "properties": {"osm_id": 623474138, "building": "yes", "name": "", "height": null, "height_m": null, "levels": null, "tract_id": "40147000700", "tract_name": "7", "tags": {"building": "yes"}}}, {"type": "Feature", "geometry": {"type": "Polygon", "coordinates": [[[-95.9379019, 36.7132122], [-95.9379037, 36.7124353], [-95.9371399, 36.7124342], [-95.9371381, 36.713211], [-95.9379019, 36.7132122]]]}, "properties": {"osm_id": 623474189, "building": "retail", "name": "", "height": null, "height_m": null, "levels": null, "tract_id": "40147000700", "tract_name": "7", "tags": {"building": "retail"}}}, {"type": "Feature", "geometry": {"type": "Polygon", "coordinates": [[[-95.9371384, 36.7120815], [-95.9371364, 36.7118846], [-95.9368197, 36.7118856], [-95.9368186, 36.7120822], [-95.9371384, 36.7120815]]]}, "properties": {"osm_id": 623474190, "building": "retail", "name": "", "height": null, "height_m": null, "levels": null, "tract_id": "40147000700", "tract_name": "7", "tags": {"building": "retail"}}}, {"type": "Feature", "geometry": {"type": "Polygon", "coordinates": [[[-95.9368186, 36.7120822], [-95.9368197, 36.7118856], [-95.9364812, 36.7118844], [-95.9364801, 36.712081], [-95.9368186, 36.7120822]]]}, "properties": {"osm_id": 623474191, "building": "retail", "name": "", "height": null, "height_m": null, "levels": null, "tract_id": "40147000700", "tract_name": "7", "tags": {"building": "retail"}}}, {"type": "Feature", "geometry": {"type": "Polygon", "coordinates": [[[-95.9363866, 36.7120741], [-95.936387, 36.7118914], [-95.9361305, 36.711891], [-95.9361301, 36.7120738], [-95.9363866, 36.7120741]]]}, "properties": {"osm_id": 623474192, "building": "retail", "name": "", "height": null, "height_m": null, "levels": null, "tract_id": "40147000700", "tract_name": "7", "tags": {"building": "retail"}}}, {"type": "Feature", "geometry": {"type": "Polygon", "coordinates": [[[-95.9356139, 36.7102783], [-95.9356166, 36.7108084], [-95.9355127, 36.7108087], [-95.93551, 36.7102787], [-95.9356139, 36.7102783]]]}, "properties": {"osm_id": 930435998, "building": "roof", "name": "", "height": null, "height_m": null, "levels": null, "tract_id": "40147000700", "tract_name": "7", "tags": {"building": "roof"}}}, {"type": "Feature", "geometry": {"type": "Polygon", "coordinates": [[[-95.9363604, 36.7109264], [-95.9363634, 36.7114797], [-95.9361707, 36.7114804], [-95.9361708, 36.7114999], [-95.9359784, 36.7115005], [-95.9359776, 36.711343], [-95.9360067, 36.7113429], [-95.9360049, 36.711009], [-95.9362531, 36.7110082], [-95.9362527, 36.7109268], [-95.9363604, 36.7109264]]]}, "properties": {"osm_id": 930435999, "building": "retail", "name": "", "height": null, "height_m": null, "levels": null, "tract_id": "40147000700", "tract_name": "7", "tags": {"building": "retail"}}}, {"type": "Feature", "geometry": {"type": "Polygon", "coordinates": [[[-95.9371975, 36.7205359], [-95.9371647, 36.720536], [-95.9371646, 36.7205149], [-95.9368626, 36.7205157], [-95.9368625, 36.7204926], [-95.9366655, 36.7204929], [-95.9366656, 36.720512], [-95.9364706, 36.7205122], [-95.9364766, 36.7205242], [-95.9364065, 36.7205301], [-95.9363767, 36.7206138], [-95.936411, 36.7206759], [-95.9364289, 36.7206758], [-95.936429, 36.7206914], [-95.9364768, 36.7206911], [-95.9364769, 36.7207067], [-95.9371592, 36.7207023], [-95.937159, 36.7206814], [-95.9371985, 36.7206812], [-95.9371975, 36.7205359]]]}, "properties": {"osm_id": 1056625221, "building": "yes", "name": "Fairfield Inn & Suites", "height": null, "height_m": null, "levels": null, "tract_id": "40147000700", "tract_name": "7", "tags": {"addr:city": "Bartlesville", "addr:housenumber": "2107", "addr:postcode": "74006", "addr:state": "OK", "addr:street": "Southeast Washington Boulevard", "brand": "Fairfield Inn & Suites", "brand:wikidata": "Q5430314", "building": "yes", "name": "Fairfield Inn & Suites", "official_name": "Fairfield Inn & Suites by Marriott", "tourism": "hotel"}}}, {"type": "Feature", "geometry": {"type": "Polygon", "coordinates": [[[-95.9357895, 36.7204675], [-95.9355373, 36.7204672], [-95.9355371, 36.7206024], [-95.9357892, 36.7206027], [-95.9357895, 36.7204675]]]}, "properties": {"osm_id": 1120380549, "building": "yes", "name": "Freddy's Steakburgers", "height": null, "height_m": null, "levels": null, "tract_id": "40147000700", "tract_name": "7", "tags": {"addr:city": "Bartlesville", "addr:housenumber": "2103", "addr:postcode": "74006", "addr:street": "Southeast Washington Boulevard", "amenity": "fast_food", "building": "yes", "cuisine": "burger", "name": "Freddy's Steakburgers", "phone": "+1 918 876 4150"}}}, {"type": "Feature", "geometry": {"type": "Polygon", "coordinates": [[[-95.9359391, 36.7199152], [-95.9355211, 36.7199171], [-95.935523, 36.7201982], [-95.9359409, 36.7201965], [-95.9359391, 36.7199152]]]}, "properties": {"osm_id": 1120380550, "building": "yes", "name": "", "height": null, "height_m": null, "levels": null, "tract_id": "40147000700", "tract_name": "7", "tags": {"building": "yes"}}}, {"type": "Feature", "geometry": {"type": "Polygon", "coordinates": [[[-95.9355792, 36.7138327], [-95.9355817, 36.7139483], [-95.9358782, 36.7139442], [-95.9358757, 36.7138286], [-95.9355792, 36.7138327]]]}, "properties": {"osm_id": 1120380552, "building": "yes", "name": "McDonald's", "height": null, "height_m": null, "levels": null, "tract_id": "40147000700", "tract_name": "7", "tags": {"addr:city": "Bartlesville", "addr:housenumber": "2441", "addr:postcode": "74006", "addr:state": "OK", "addr:street": "Southeast Washington Boulevard", "amenity": "fast_food", "brand": "McDonald's", "brand:wikidata": "Q38076", "building": "yes", "cuisine": "burger", "drive_through": "yes", "internet_access": "wlan", "name": "McDonald's", "opening_hours": "Mo-Fr 06:00-21:00; Sa-Su 07:00-21:00", "phone": "+1 918-333-3232", "takeaway": "yes", "website": "https://www.mcdonalds.com/us/en-us/location/28296.html"}}}, {"type": "Feature", "geometry": {"type": "Polygon", "coordinates": [[[-95.9366016, 36.7419193], [-95.936033, 36.741929], [-95.9360293, 36.7417898], [-95.9361965, 36.7417869], [-95.9361931, 36.7416564], [-95.9361731, 36.7416567], [-95.9361736, 36.7416741], [-95.9360477, 36.7416763], [-95.9360459, 36.7416115], [-95.9361701, 36.7416094], [-95.9361705, 36.7416239], [-95.9361942, 36.7416235], [-95.9361916, 36.7415262], [-95.936218, 36.7415257], [-95.9362159, 36.7414466], [-95.9360483, 36.7414495], [-95.9360446, 36.7413125], [-95.936415, 36.7413062], [-95.9364219, 36.7415645], [-95.9366391, 36.7415607], [-95.9366429, 36.7417027], [-95.9363782, 36.7417072], [-95.9363803, 36.7417867], [-95.936598, 36.7417829], [-95.9366016, 36.7419193]]]}, "properties": {"osm_id": 1218723083, "building": "yes", "name": "Good Shepard Presbyterian Church", "height": null, "height_m": null, "levels": null, "tract_id": "40147000700", "tract_name": "7", "tags": {"amenity": "place_of_worship", "building": "yes", "name": "Good Shepard Presbyterian Church", "religion": "christian", "website": "https://www.gspcok.org/"}}}, {"type": "Feature", "geometry": {"type": "Polygon", "coordinates": [[[-95.9358829, 36.6998096], [-95.9355261, 36.6998207], [-95.9355187, 36.6996694], [-95.9358756, 36.6996582], [-95.9358829, 36.6998096]]]}, "properties": {"osm_id": 1218763276, "building": "yes", "name": "Car Mart of Bartlesville", "height": null, "height_m": null, "levels": null, "tract_id": "40147000700", "tract_name": "7", "tags": {"building": "yes", "name": "Car Mart of Bartlesville", "shop": "car"}}}, {"type": "Feature", "geometry": {"type": "Polygon", "coordinates": [[[-95.9492934, 36.7422683], [-95.9489699, 36.7422618], [-95.9489833, 36.7418374], [-95.9493069, 36.741844], [-95.9492934, 36.7422683]]]}, "properties": {"osm_id": 1218770833, "building": "yes", "name": "Discount Tire", "height": null, "height_m": null, "levels": null, "tract_id": "40147000700", "tract_name": "7", "tags": {"air_conditioning": "yes", "brand": "Discount Tire", "brand:wikidata": "Q5281735", "building": "yes", "name": "Discount Tire", "shop": "tyres"}}}, {"type": "Feature", "geometry": {"type": "Polygon", "coordinates": [[[-95.9503173, 36.7422439], [-95.9500899, 36.7422383], [-95.9500952, 36.7421004], [-95.9503226, 36.742106], [-95.9503173, 36.7422439]]]}, "properties": {"osm_id": 1218770834, "building": "yes", "name": "Panda Express", "height": null, "height_m": null, "levels": null, "tract_id": "40147000700", "tract_name": "7", "tags": {"addr:city": "Bartlesville", "addr:housenumber": "2307", "addr:postcode": "74006", "addr:state": "OK", "addr:street": "Southeast Adams Boulevard", "amenity": "fast_food", "branch": "Adams & Silver Lake", "brand": "Panda Express", "brand:wikidata": "Q1358690", "building": "yes", "cuisine": "chinese", "name": "Panda Express", "opening_hours": "Mo-Sa 10:00-21:30; Su 10:30-21:00", "phone": "+1 918-331-9919", "takeaway": "yes", "website": "https://www.pandaexpress.com/locations/ok/bartlesville/2931"}}}, {"type": "Feature", "geometry": {"type": "Polygon", "coordinates": [[[-95.9501388, 36.7410451], [-95.9489403, 36.7410377], [-95.948931, 36.7410772], [-95.947905, 36.7410525], [-95.9479081, 36.7410278], [-95.947751, 36.7410352], [-95.947751, 36.7406451], [-95.9478711, 36.740697], [-95.9480899, 36.7406871], [-95.9480899, 36.7405933], [-95.9484227, 36.7405735], [-95.9484257, 36.7405389], [-95.9485243, 36.7405365], [-95.9485367, 36.7404772], [-95.9486137, 36.7404797], [-95.9486075, 36.7405414], [-95.9487616, 36.7405439], [-95.9487708, 36.740655], [-95.9490081, 36.740655], [-95.9490111, 36.7407488], [-95.9492114, 36.7407513], [-95.9492022, 36.740692], [-95.9494795, 36.7406994], [-95.9494764, 36.7407389], [-95.9496551, 36.7407587], [-95.9496705, 36.7408105], [-95.9501357, 36.7408155], [-95.9501388, 36.7410451]]]}, "properties": {"osm_id": 1218770837, "building": "retail", "name": "", "height": null, "height_m": null, "levels": null, "tract_id": "40147000700", "tract_name": "7", "tags": {"building": "retail"}}}, {"type": "Feature", "geometry": {"type": "Polygon", "coordinates": [[[-95.9360732, 36.7335392], [-95.9358094, 36.7336627], [-95.9357382, 36.7335682], [-95.935967, 36.7334625], [-95.9360207, 36.7334616], [-95.9360732, 36.7335392]]]}, "properties": {"osm_id": 1311808720, "building": "retail", "name": "Axis Healthcare", "height": null, "height_m": null, "levels": null, "tract_id": "40147000700", "tract_name": "7", "tags": {"amenity": "clinic", "building": "retail", "healthcare": "clinic", "healthcare:speciality": "general;psychiatry;palliative", "name": "Axis Healthcare"}}}, {"type": "Feature", "geometry": {"type": "Polygon", "coordinates": [[[-95.9361499, 36.733146], [-95.9361539, 36.7334817], [-95.9360688, 36.7334823], [-95.9360681, 36.7334277], [-95.9359796, 36.7334284], [-95.9359762, 36.7331474], [-95.9361499, 36.733146]]]}, "properties": {"osm_id": 1311808721, "building": "retail", "name": "Luigi's", "height": null, "height_m": null, "levels": null, "tract_id": "40147000700", "tract_name": "7", "tags": {"amenity": "restaurant", "building": "retail", "cuisine": "italian", "name": "Luigi's"}}}, {"type": "Feature", "geometry": {"type": "Polygon", "coordinates": [[[-95.9355806, 36.7341183], [-95.9356454, 36.7339937], [-95.9356016, 36.7339151], [-95.9357194, 36.7338729], [-95.9357867, 36.7339937], [-95.935701, 36.7341585], [-95.9355806, 36.7341183]]]}, "properties": {"osm_id": 1311808724, "building": "detached", "name": "", "height": null, "height_m": null, "levels": null, "tract_id": "40147000700", "tract_name": "7", "tags": {"building": "detached"}}}, {"type": "Feature", "geometry": {"type": "Polygon", "coordinates": [[[-95.9361185, 36.7325496], [-95.9359867, 36.7326006], [-95.9359638, 36.7326009], [-95.9359635, 36.7325842], [-95.9358529, 36.7325857], [-95.9358532, 36.7326029], [-95.9358034, 36.7326036], [-95.9357999, 36.7324303], [-95.9358586, 36.7324296], [-95.9358589, 36.7324443], [-95.9359747, 36.7324428], [-95.9359744, 36.7324284], [-95.9361162, 36.7324267], [-95.9361185, 36.7325496]]]}, "properties": {"osm_id": 1311808736, "building": "retail", "name": "Stride Bank", "height": null, "height_m": null, "levels": null, "tract_id": "40147000700", "tract_name": "7", "tags": {"amenity": "bank", "building": "retail", "name": "Stride Bank"}}}, {"type": "Feature", "geometry": {"type": "Polygon", "coordinates": [[[-95.9358474, 36.7210571], [-95.9358478, 36.7211336], [-95.9357763, 36.7211339], [-95.9357764, 36.7211561], [-95.9355604, 36.7211569], [-95.9355594, 36.7209769], [-95.9357754, 36.720976], [-95.9358469, 36.7209758], [-95.9358471, 36.7210127], [-95.9359117, 36.7210125], [-95.9359119, 36.7210568], [-95.9358474, 36.7210571]]]}, "properties": {"osm_id": 1315385330, "building": "retail", "name": "RibCrib BBQ", "height": null, "height_m": null, "levels": null, "tract_id": "40147000700", "tract_name": "7", "tags": {"addr:city": "Bartlesville", "addr:housenumber": "2077", "addr:postcode": "74006", "addr:street": "Southeast Washington Boulevard", "amenity": "restaurant", "building": "retail", "cuisine": "barbecue", "name": "RibCrib BBQ", "phone": "+1 918 333 6200"}}}, {"type": "Feature", "geometry": {"type": "Polygon", "coordinates": [[[-95.9358755, 36.7214419], [-95.9356126, 36.7214402], [-95.9356135, 36.7213532], [-95.9355961, 36.7213531], [-95.9355964, 36.7213178], [-95.9356139, 36.721318], [-95.9356148, 36.7212286], [-95.9358776, 36.7212303], [-95.9358755, 36.7214419]]]}, "properties": {"osm_id": 1315385331, "building": "retail", "name": "Eggbert's", "height": null, "height_m": null, "levels": null, "tract_id": "40147000700", "tract_name": "7", "tags": {"addr:city": "Bartlesville", "addr:housenumber": "2073", "addr:postcode": "74006", "addr:street": "Southeast Washington Boulevard", "amenity": "restaurant", "building": "retail", "cuisine": "american; breakfast", "name": "Eggbert's", "phone": "+1 918 333 9690", "ref": "3"}}}, {"type": "Feature", "geometry": {"type": "Polygon", "coordinates": [[[-95.9370345, 36.7040255], [-95.9370352, 36.7031246], [-95.9363118, 36.7031242], [-95.936311, 36.7040251], [-95.9370345, 36.7040255]]]}, "properties": {"osm_id": 1341320578, "building": "retail", "name": "Atwoods", "height": null, "height_m": null, "levels": null, "tract_id": "40147000700", "tract_name": "7", "tags": {"brand": "Atwoods", "brand:wikidata": "Q4818874", "building": "retail", "check_date": "2019-05-23", "name": "Atwoods", "shop": "country_store"}}}, {"type": "Feature", "geometry": {"type": "Polygon", "coordinates": [[[-95.9360534, 36.7054632], [-95.9360529, 36.7052934], [-95.9361108, 36.7052933], [-95.9361113, 36.7054631], [-95.9360534, 36.7054632]]]}, "properties": {"osm_id": 1341331507, "building": "warehouse", "name": "", "height": null, "height_m": null, "levels": null, "tract_id": "40147000700", "tract_name": "7", "tags": {"building": "warehouse"}}}, {"type": "Feature", "geometry": {"type": "Polygon", "coordinates": [[[-95.9364985, 36.70507], [-95.9360578, 36.70507], [-95.9360578, 36.7052077], [-95.9362935, 36.7052077], [-95.9362935, 36.7051671], [-95.9364986, 36.7051671], [-95.9364985, 36.70507]]]}, "properties": {"osm_id": 1341331508, "building": "warehouse", "name": "", "height": null, "height_m": null, "levels": null, "tract_id": "40147000700", "tract_name": "7", "tags": {"building": "warehouse"}}}, {"type": "Feature", "geometry": {"type": "Polygon", "coordinates": [[[-95.937022, 36.7051692], [-95.9365765, 36.7051687], [-95.9365766, 36.7050706], [-95.9370221, 36.7050709], [-95.937022, 36.7051692]]]}, "properties": {"osm_id": 1341331509, "building": "warehouse", "name": "", "height": null, "height_m": null, "levels": null, "tract_id": "40147000700", "tract_name": "7", "tags": {"building": "warehouse"}}}, {"type": "Feature", "geometry": {"type": "Polygon", "coordinates": [[[-95.9370231, 36.7050026], [-95.9365796, 36.7050037], [-95.9365783, 36.704726], [-95.9370191, 36.704725], [-95.9370231, 36.7050026]]]}, "properties": {"osm_id": 1341331510, "building": "warehouse", "name": "", "height": null, "height_m": null, "levels": null, "tract_id": "40147000700", "tract_name": "7", "tags": {"building": "warehouse"}}}, {"type": "Feature", "geometry": {"type": "Polygon", "coordinates": [[[-95.9363569, 36.7050028], [-95.9363608, 36.7047204], [-95.9364973, 36.7047216], [-95.9364935, 36.705004], [-95.9363569, 36.7050028]]]}, "properties": {"osm_id": 1341331511, "building": "warehouse", "name": "", "height": null, "height_m": null, "levels": null, "tract_id": "40147000700", "tract_name": "7", "tags": {"building": "warehouse"}}}, {"type": "Feature", "geometry": {"type": "Polygon", "coordinates": [[[-95.9361312, 36.7050033], [-95.936135, 36.704722], [-95.9362729, 36.7047232], [-95.9362691, 36.7050045], [-95.9361312, 36.7050033]]]}, "properties": {"osm_id": 1341331512, "building": "warehouse", "name": "", "height": null, "height_m": null, "levels": null, "tract_id": "40147000700", "tract_name": "7", "tags": {"building": "warehouse"}}}, {"type": "Feature", "geometry": {"type": "Polygon", "coordinates": [[[-95.9368874, 36.7046566], [-95.9366187, 36.704656], [-95.9366189, 36.7045978], [-95.9366007, 36.7045978], [-95.9366009, 36.7045422], [-95.9366714, 36.7045424], [-95.9366714, 36.7045491], [-95.9368878, 36.7045496], [-95.9368874, 36.7046566]]]}, "properties": {"osm_id": 1341331513, "building": "commercial", "name": "", "height": null, "height_m": null, "levels": null, "tract_id": "40147000700", "tract_name": "7", "tags": {"building": "commercial", "shop": "storage_rental"}}}, {"type": "Feature", "geometry": {"type": "Polygon", "coordinates": [[[-95.9569271, 36.7172799], [-95.9567892, 36.7172149], [-95.9567765, 36.7172324], [-95.9567129, 36.717319], [-95.9568508, 36.7173841], [-95.9569127, 36.7172998], [-95.9569271, 36.7172799]]]}, "properties": {"osm_id": 1378370642, "building": "yes", "name": "ACE - Academic Center for Excellence)", "height": null, "height_m": null, "levels": null, "tract_id": "40147000700", "tract_name": "7", "tags": {"building": "yes", "name": "ACE - Academic Center for Excellence)"}}}, {"type": "Feature", "geometry": {"type": "Polygon", "coordinates": [[[-95.9569127, 36.7172998], [-95.9569831, 36.7173331], [-95.9567413, 36.717662], [-95.9566977, 36.7176414], [-95.9566812, 36.7176638], [-95.9564878, 36.7175725], [-95.9565084, 36.7175444], [-95.956463, 36.717523], [-95.9565133, 36.7174545], [-95.9565212, 36.7174437], [-95.9564167, 36.7173944], [-95.9564546, 36.7173427], [-95.9565631, 36.7173939], [-95.9565736, 36.7173796], [-95.9567062, 36.7171992], [-95.9567765, 36.7172324], [-95.9567129, 36.717319], [-95.9568508, 36.7173841], [-95.9569127, 36.7172998]]]}, "properties": {"osm_id": 1378370643, "building": "yes", "name": "Drake Library", "height": null, "height_m": null, "levels": null, "tract_id": "40147000700", "tract_name": "7", "tags": {"amenity": "library", "building": "yes", "name": "Drake Library"}}}, {"type": "Feature", "geometry": {"type": "Polygon", "coordinates": [[[-95.9544744, 36.7179911], [-95.9544741, 36.7178937], [-95.9544385, 36.7178938], [-95.9544384, 36.7178603], [-95.9543974, 36.7178603], [-95.9543974, 36.7178529], [-95.9543974, 36.7178452], [-95.954475, 36.717845], [-95.9544749, 36.7178203], [-95.9544896, 36.7178203], [-95.9544895, 36.7177912], [-95.9544995, 36.7177912], [-95.9544993, 36.7177196], [-95.9544885, 36.7177197], [-95.9544884, 36.7176852], [-95.9544737, 36.7176852], [-95.9544736, 36.7176587], [-95.954391, 36.7176589], [-95.954391, 36.7176489], [-95.954391, 36.7176398], [-95.9544371, 36.7176397], [-95.954437, 36.7176106], [-95.9544816, 36.7176105], [-95.9544812, 36.717473], [-95.9543681, 36.7174732], [-95.9542704, 36.7174734], [-95.9541043, 36.7173981], [-95.9540299, 36.7175037], [-95.9540031, 36.7174916], [-95.9540205, 36.7174669], [-95.9539113, 36.7174175], [-95.9538642, 36.7174844], [-95.9539747, 36.7175344], [-95.9539939, 36.7175071], [-95.9540201, 36.717519], [-95.9539223, 36.717658], [-95.9539207, 36.7178383], [-95.9540266, 36.7179828], [-95.9541119, 36.7180993], [-95.9542163, 36.7180502], [-95.9543413, 36.7179914], [-95.9544744, 36.7179911]]]}, "properties": {"osm_id": 1378402869, "building": "chapel", "name": "Lyon Chapel & Fine Arts Center", "height": null, "height_m": null, "levels": null, "tract_id": "40147000700", "tract_name": "7", "tags": {"building": "chapel", "name": "Lyon Chapel & Fine Arts Center"}}}, {"type": "Feature", "geometry": {"type": "Polygon", "coordinates": [[[-95.9540266, 36.7179828], [-95.9541348, 36.7179343], [-95.9542163, 36.7180502], [-95.9541119, 36.7180993], [-95.9540266, 36.7179828]]]}, "properties": {"osm_id": 1378402871, "building": "yes", "name": "Admissions Office", "height": null, "height_m": null, "levels": null, "tract_id": "40147000700", "tract_name": "7", "tags": {"building": "yes", "name": "Admissions Office"}}}, {"type": "Feature", "geometry": {"type": "Polygon", "coordinates": [[[-95.9536396, 36.7171178], [-95.9536398, 36.7170888], [-95.9536412, 36.7169046], [-95.9535211, 36.716904], [-95.9535208, 36.7169487], [-95.9535446, 36.7169488], [-95.9535439, 36.7170359], [-95.9535488, 36.7170359], [-95.9535487, 36.7170489], [-95.9535564, 36.7170489], [-95.9535558, 36.7171174], [-95.9536396, 36.7171178]]]}, "properties": {"osm_id": 1378403549, "building": "yes", "name": "eSports Building", "height": null, "height_m": null, "levels": null, "tract_id": "40147000700", "tract_name": "7", "tags": {"building": "yes", "name": "eSports Building"}}}, {"type": "Feature", "geometry": {"type": "Polygon", "coordinates": [[[-95.9555512, 36.7182075], [-95.9555516, 36.7180089], [-95.9552916, 36.7180086], [-95.9552917, 36.717977], [-95.9552424, 36.717977], [-95.9551748, 36.7179769], [-95.9551747, 36.7180126], [-95.955123, 36.7180125], [-95.9551226, 36.718207], [-95.9551355, 36.718207], [-95.9555512, 36.7182075]]]}, "properties": {"osm_id": 1378403843, "building": "yes", "name": "Keating Center", "height": null, "height_m": null, "levels": null, "tract_id": "40147000700", "tract_name": "7", "tags": {"building": "yes", "name": "Keating Center", "office": "educational_institution"}}}, {"type": "Feature", "geometry": {"type": "Polygon", "coordinates": [[[-95.9560624, 36.7182013], [-95.9560622, 36.7180942], [-95.9560621, 36.7180054], [-95.9557542, 36.7180058], [-95.9557541, 36.7179447], [-95.9557175, 36.7179447], [-95.955674, 36.7179448], [-95.9556741, 36.7180067], [-95.9556357, 36.7180067], [-95.9556361, 36.7182011], [-95.955645, 36.7182014], [-95.9560624, 36.7182013]]]}, "properties": {"osm_id": 1378403844, "building": "yes", "name": "Campbell Science Building", "height": null, "height_m": null, "levels": null, "tract_id": "40147000700", "tract_name": "7", "tags": {"building": "yes", "name": "Campbell Science Building", "office": "educational_institution"}}}, {"type": "Feature", "geometry": {"type": "Polygon", "coordinates": [[[-95.9570602, 36.7181088], [-95.9569245, 36.7179252], [-95.9568098, 36.7179797], [-95.9567654, 36.7179197], [-95.9568285, 36.7178897], [-95.9567751, 36.7178176], [-95.9566552, 36.7178745], [-95.9566454, 36.7178612], [-95.956552, 36.7179055], [-95.9565645, 36.7179225], [-95.9564755, 36.7179647], [-95.9564402, 36.7179169], [-95.9563364, 36.7179661], [-95.9563939, 36.7180439], [-95.956417, 36.718033], [-95.9564381, 36.7180617], [-95.956498, 36.7181428], [-95.9565148, 36.7181656], [-95.9565991, 36.7181256], [-95.9566294, 36.7181667], [-95.9566602, 36.7181521], [-95.9567454, 36.7182674], [-95.9568936, 36.7181971], [-95.9568886, 36.7181903], [-95.9570602, 36.7181088]]]}, "properties": {"osm_id": 1378408355, "building": "yes", "name": "Haltom Campus Center", "height": null, "height_m": null, "levels": null, "tract_id": "40147000700", "tract_name": "7", "tags": {"building": "yes", "name": "Haltom Campus Center", "office": "educational_institution"}}}, {"type": "Feature", "geometry": {"type": "Polygon", "coordinates": [[[-95.9575994, 36.7170388], [-95.9575945, 36.7167801], [-95.9576943, 36.7167789], [-95.9576902, 36.7165614], [-95.9574894, 36.7165638], [-95.9573135, 36.7165659], [-95.9570911, 36.7165686], [-95.9570915, 36.7165802], [-95.9570958, 36.7168602], [-95.9569869, 36.7168613], [-95.9569905, 36.7170493], [-95.9571975, 36.7170468], [-95.9571978, 36.7170643], [-95.9573868, 36.717062], [-95.9573864, 36.7170414], [-95.9575994, 36.7170388]]]}, "properties": {"osm_id": 1378416184, "building": "yes", "name": "Mueller Sports Center", "height": null, "height_m": null, "levels": null, "tract_id": "40147000700", "tract_name": "7", "tags": {"building": "yes", "leisure": "sports_hall", "name": "Mueller Sports Center"}}}, {"type": "Feature", "geometry": {"type": "Polygon", "coordinates": [[[-95.9570958, 36.7168602], [-95.9570915, 36.7165802], [-95.9567406, 36.7165836], [-95.9567448, 36.7168636], [-95.9569869, 36.7168613], [-95.9570958, 36.7168602]]]}, "properties": {"osm_id": 1378416185, "building": "yes", "name": "Roberts Family Fitness Annex", "height": null, "height_m": null, "levels": null, "tract_id": "40147000700", "tract_name": "7", "tags": {"building": "yes", "leisure": "fitness_centre", "name": "Roberts Family Fitness Annex"}}}, {"type": "Feature", "geometry": {"type": "Polygon", "coordinates": [[[-95.9572808, 36.7162708], [-95.9572795, 36.716127], [-95.9569343, 36.7161291], [-95.9569357, 36.716272], [-95.9570225, 36.7162715], [-95.9570227, 36.7162861], [-95.9570977, 36.7162857], [-95.9571936, 36.7162851], [-95.9571935, 36.7162713], [-95.9572808, 36.7162708]]]}, "properties": {"osm_id": 1378416689, "building": "yes", "name": "Buildings & Grounds", "height": null, "height_m": null, "levels": null, "tract_id": "40147000700", "tract_name": "7", "tags": {"building": "yes", "name": "Buildings & Grounds"}}}, {"type": "Feature", "geometry": {"type": "Polygon", "coordinates": [[[-95.958174, 36.7166028], [-95.9581727, 36.7164791], [-95.9578218, 36.7164815], [-95.9578232, 36.7166164], [-95.9579059, 36.7166158], [-95.9579058, 36.7166047], [-95.958174, 36.7166028]]]}, "properties": {"osm_id": 1378418458, "building": "dormitory", "name": "Piper Hall", "height": null, "height_m": null, "levels": null, "tract_id": "40147000700", "tract_name": "7", "tags": {"building": "dormitory", "name": "Piper Hall"}}}, {"type": "Feature", "geometry": {"type": "Polygon", "coordinates": [[[-95.9579307, 36.7171213], [-95.9577768, 36.7171217], [-95.9577757, 36.7168412], [-95.9578526, 36.716841], [-95.9579296, 36.7168408], [-95.9579299, 36.7169254], [-95.9579303, 36.7170279], [-95.9579307, 36.7171213]]]}, "properties": {"osm_id": 1378418459, "building": "dormitory", "name": "Drake Hall", "height": null, "height_m": null, "levels": null, "tract_id": "40147000700", "tract_name": "7", "tags": {"building": "dormitory", "name": "Drake Hall"}}}, {"type": "Feature", "geometry": {"type": "Polygon", "coordinates": [[[-95.9582568, 36.7169113], [-95.9582562, 36.7168338], [-95.9579754, 36.7168353], [-95.957976, 36.7169128], [-95.9581169, 36.716912], [-95.9582568, 36.7169113]]]}, "properties": {"osm_id": 1378418460, "building": "yes", "name": "Carriage House Game Room", "height": null, "height_m": null, "levels": null, "tract_id": "40147000700", "tract_name": "7", "tags": {"building": "yes", "name": "Carriage House Game Room"}}}, {"type": "Feature", "geometry": {"type": "Polygon", "coordinates": [[[-95.9586248, 36.7166007], [-95.9586244, 36.7164777], [-95.9582718, 36.7164785], [-95.9582722, 36.7166035], [-95.95838, 36.7166032], [-95.95838, 36.7166116], [-95.9584706, 36.7166114], [-95.9584706, 36.716601], [-95.9586248, 36.7166007]]]}, "properties": {"osm_id": 1378418461, "building": "dormitory", "name": "Adee Hall", "height": null, "height_m": null, "levels": null, "tract_id": "40147000700", "tract_name": "7", "tags": {"building": "dormitory", "name": "Adee Hall"}}}, {"type": "Feature", "geometry": {"type": "Polygon", "coordinates": [[[-95.9584691, 36.7172188], [-95.9583078, 36.7172185], [-95.9583079, 36.7171913], [-95.9582938, 36.7171912], [-95.9582938, 36.7171661], [-95.9583085, 36.7171661], [-95.958309, 36.7169168], [-95.9584673, 36.716917], [-95.958467, 36.7170958], [-95.9584964, 36.7170959], [-95.9584963, 36.7171434], [-95.9584962, 36.7171898], [-95.9584691, 36.7171898], [-95.9584691, 36.7172188]]]}, "properties": {"osm_id": 1378418462, "building": "dormitory", "name": "Colaw Hall", "height": null, "height_m": null, "levels": null, "tract_id": "40147000700", "tract_name": "7", "tags": {"building": "dormitory", "name": "Colaw Hall"}}}, {"type": "Feature", "geometry": {"type": "Polygon", "coordinates": [[[-95.9589692, 36.7169205], [-95.9589699, 36.7168207], [-95.9585132, 36.7168192], [-95.9585146, 36.7168487], [-95.9585181, 36.716921], [-95.9585936, 36.716921], [-95.9585942, 36.7169343], [-95.958634, 36.7169345], [-95.9586771, 36.7169348], [-95.9586771, 36.7169205], [-95.9589692, 36.7169205]]]}, "properties": {"osm_id": 1378418463, "building": "dormitory", "name": "Susanna Wesley Hall", "height": null, "height_m": null, "levels": null, "tract_id": "40147000700", "tract_name": "7", "tags": {"building": "dormitory", "name": "Susanna Wesley Hall"}}}, {"type": "Feature", "geometry": {"type": "Polygon", "coordinates": [[[-95.9590568, 36.7173425], [-95.9590559, 36.7169813], [-95.9588695, 36.7169816], [-95.9588697, 36.7170349], [-95.9588521, 36.7170349], [-95.9588522, 36.7170711], [-95.9588523, 36.7171078], [-95.9588714, 36.7171078], [-95.9588717, 36.7172128], [-95.9588534, 36.7172128], [-95.9588535, 36.7172497], [-95.9588536, 36.7172853], [-95.9588727, 36.7172853], [-95.9588728, 36.7173428], [-95.9590568, 36.7173425]]]}, "properties": {"osm_id": 1378418464, "building": "dormitory", "name": "Phillippe Hall", "height": null, "height_m": null, "levels": null, "tract_id": "40147000700", "tract_name": "7", "tags": {"building": "dormitory", "name": "Phillippe Hall"}}}, {"type": "Feature", "geometry": {"type": "Polygon", "coordinates": [[[-95.9582932, 36.7180879], [-95.9584293, 36.7180876], [-95.9584292, 36.7180704], [-95.9585087, 36.7180701], [-95.9585085, 36.7180173], [-95.9584833, 36.7180173], [-95.9584832, 36.718], [-95.958507, 36.7179999], [-95.9585063, 36.7178916], [-95.9584915, 36.7178917], [-95.9584913, 36.7178738], [-95.9585059, 36.7178737], [-95.9585051, 36.7177889], [-95.9585038, 36.7176608], [-95.9585321, 36.7176352], [-95.9587178, 36.7176354], [-95.9587176, 36.7177889], [-95.9585376, 36.7177887], [-95.9585374, 36.7178956], [-95.9586797, 36.7178957], [-95.9586797, 36.7179027], [-95.9587356, 36.7179026], [-95.9587356, 36.7178948], [-95.958803, 36.7178947], [-95.9588028, 36.7177898], [-95.9587922, 36.7177898], [-95.9587917, 36.7176348], [-95.9588321, 36.7176347], [-95.9588319, 36.7175613], [-95.9587347, 36.7175615], [-95.9587347, 36.7175684], [-95.958684, 36.7175686], [-95.9586834, 36.7174706], [-95.9586772, 36.7174707], [-95.9586769, 36.7174267], [-95.9586701, 36.7174267], [-95.9586117, 36.717427], [-95.9586119, 36.7174503], [-95.958612, 36.7174705], [-95.9586029, 36.7174706], [-95.9586033, 36.7175211], [-95.9585631, 36.7175213], [-95.9584812, 36.7175216], [-95.9584816, 36.7175672], [-95.9584651, 36.7175673], [-95.9584653, 36.7175984], [-95.9584655, 36.7176242], [-95.9584282, 36.7176244], [-95.958429, 36.71775], [-95.9584154, 36.7177496], [-95.9583981, 36.7177626], [-95.958398, 36.7177849], [-95.9584153, 36.7177971], [-95.9584292, 36.7177969], [-95.9584295, 36.717845], [-95.9584297, 36.7178681], [-95.9582715, 36.7178687], [-95.9582718, 36.7179197], [-95.9583949, 36.7179192], [-95.9584063, 36.7179192], [-95.9584063, 36.7179073], [-95.9584377, 36.7179072], [-95.958438, 36.7180115], [-95.9584297, 36.7180115], [-95.958293, 36.7180118], [-95.9582931, 36.7180639], [-95.9582932, 36.7180879]]]}, "properties": {"osm_id": 1378633621, "building": "yes", "name": "La Quinta Mansion", "height": null, "height_m": null, "levels": null, "tract_id": "40147000700", "tract_name": "7", "tags": {"building": "yes", "historic": "manor", "name": "La Quinta Mansion"}}}, {"type": "Feature", "geometry": {"type": "Polygon", "coordinates": [[[-95.9582384, 36.7183148], [-95.9582384, 36.7181644], [-95.9579333, 36.7181644], [-95.9579333, 36.7181546], [-95.957908, 36.7181546], [-95.9578777, 36.7181546], [-95.9578777, 36.7181764], [-95.9578777, 36.7181992], [-95.9578894, 36.7181992], [-95.9578894, 36.7183168], [-95.9579425, 36.7183168], [-95.9579425, 36.7182971], [-95.958152, 36.7182971], [-95.958152, 36.7183148], [-95.9582384, 36.7183148]]]}, "properties": {"osm_id": 1378635158, "building": "dormitory", "name": "Chapman Hall", "height": null, "height_m": null, "levels": null, "tract_id": "40147000700", "tract_name": "7", "tags": {"building": "dormitory", "name": "Chapman Hall"}}}, {"type": "Feature", "geometry": {"type": "Polygon", "coordinates": [[[-95.958434, 36.7181409], [-95.9583916, 36.7181413], [-95.958352, 36.7181416], [-95.9583565, 36.7184657], [-95.9584013, 36.7184653], [-95.9584016, 36.7184897], [-95.958476, 36.718489], [-95.9584756, 36.7184661], [-95.9584823, 36.7184661], [-95.9584809, 36.7183666], [-95.9584938, 36.7183664], [-95.9584923, 36.7182615], [-95.9584811, 36.7182616], [-95.9584796, 36.7181619], [-95.9584343, 36.7181623], [-95.958434, 36.7181409]]]}, "properties": {"osm_id": 1378635159, "building": "dormitory", "name": "Scott Hall", "height": null, "height_m": null, "levels": null, "tract_id": "40147000700", "tract_name": "7", "tags": {"building": "dormitory", "name": "Scott Hall"}}}, {"type": "Feature", "geometry": {"type": "Polygon", "coordinates": [[[-95.9584577, 36.7185033], [-95.958256, 36.7185044], [-95.9580903, 36.7185053], [-95.9580449, 36.7185056], [-95.9580458, 36.7186116], [-95.9584585, 36.7186094], [-95.9584577, 36.7185033]]]}, "properties": {"osm_id": 1378635160, "building": "dormitory", "name": "Wert Hall", "height": null, "height_m": null, "levels": null, "tract_id": "40147000700", "tract_name": "7", "tags": {"building": "dormitory", "name": "Wert Hall"}}}, {"type": "Feature", "geometry": {"type": "Polygon", "coordinates": [[[-95.9544736, 36.7273496], [-95.9542754, 36.7273504], [-95.9542745, 36.7272057], [-95.9544728, 36.727205], [-95.954473, 36.7272454], [-95.9544736, 36.7273496]]]}, "properties": {"osm_id": 1378638953, "building": "yes", "name": "", "height": null, "height_m": null, "levels": null, "tract_id": "40147000700", "tract_name": "7", "tags": {"building": "yes"}}}, {"type": "Feature", "geometry": {"type": "Polygon", "coordinates": [[[-95.9547823, 36.7256467], [-95.9547554, 36.7256468], [-95.9547444, 36.7256469], [-95.954743, 36.7254751], [-95.9547809, 36.7254749], [-95.9547823, 36.7256467]]]}, "properties": {"osm_id": 1378638955, "building": "yes", "name": "", "height": null, "height_m": null, "levels": null, "tract_id": "40147000700", "tract_name": "7", "tags": {"amenity": "shelter", "building": "yes"}}}, {"type": "Feature", "geometry": {"type": "Polygon", "coordinates": [[[-95.9545542, 36.7253164], [-95.9545543, 36.7253059], [-95.9545546, 36.7252842], [-95.9543412, 36.7252824], [-95.9543409, 36.7253003], [-95.9543407, 36.7253145], [-95.9545542, 36.7253164]]]}, "properties": {"osm_id": 1378638956, "building": "yes", "name": "", "height": null, "height_m": null, "levels": null, "tract_id": "40147000700", "tract_name": "7", "tags": {"amenity": "shelter", "building": "yes"}}}, {"type": "Feature", "geometry": {"type": "Polygon", "coordinates": [[[-95.9511275, 36.7263913], [-95.9509021, 36.7261308], [-95.950844, 36.7261631], [-95.9507687, 36.726205], [-95.9509731, 36.7264412], [-95.9507599, 36.7265597], [-95.9507369, 36.7265331], [-95.9506708, 36.7265699], [-95.9504898, 36.7263608], [-95.9503446, 36.7264416], [-95.9503226, 36.7264163], [-95.9503039, 36.7264267], [-95.9501658, 36.7262671], [-95.950188, 36.7262548], [-95.9501614, 36.7262242], [-95.9503063, 36.7261436], [-95.9501243, 36.7259334], [-95.9500355, 36.7259828], [-95.9499559, 36.7258908], [-95.9501182, 36.7258006], [-95.9503109, 36.7256935], [-95.9504907, 36.7259012], [-95.9505773, 36.7260012], [-95.9506624, 36.7259539], [-95.9507262, 36.7259184], [-95.9504157, 36.7255595], [-95.9505451, 36.7254876], [-95.9506333, 36.7255896], [-95.9506388, 36.7255959], [-95.9506445, 36.7256025], [-95.9507308, 36.7255546], [-95.9509705, 36.7258318], [-95.9510545, 36.7257851], [-95.9511713, 36.7259201], [-95.9510939, 36.7259631], [-95.9513343, 36.726241], [-95.9512489, 36.7262885], [-95.9512695, 36.7263124], [-95.9511275, 36.7263913]]]}, "properties": {"osm_id": 1378661539, "building": "yes", "name": "", "height": null, "height_m": null, "levels": null, "tract_id": "40147000700", "tract_name": "7", "tags": {"building": "yes"}}}, {"type": "Feature", "geometry": {"type": "Polygon", "coordinates": [[[-95.9524419, 36.7259319], [-95.9522848, 36.7260053], [-95.9521949, 36.7258818], [-95.9520373, 36.7259555], [-95.951986, 36.7258849], [-95.9520218, 36.7258682], [-95.9519915, 36.7258266], [-95.951962, 36.7258405], [-95.9519134, 36.7257738], [-95.9519734, 36.7257458], [-95.9519495, 36.725713], [-95.9520071, 36.7256859], [-95.9520299, 36.7257171], [-95.9520693, 36.7256987], [-95.9519773, 36.7255726], [-95.952129, 36.7255015], [-95.9522381, 36.725651], [-95.9522967, 36.7256235], [-95.9523905, 36.7256632], [-95.9523913, 36.725749], [-95.9523298, 36.7257778], [-95.9524419, 36.7259319]]]}, "properties": {"osm_id": 1378661552, "building": "church", "name": "First Wesleyan Church", "height": null, "height_m": null, "levels": null, "tract_id": "40147000700", "tract_name": "7", "tags": {"building": "church", "name": "First Wesleyan Church"}}}, {"type": "Feature", "geometry": {"type": "Polygon", "coordinates": [[[-95.9509107, 36.7253486], [-95.9509508, 36.7251634], [-95.9506842, 36.7251208], [-95.9506427, 36.7253054], [-95.9509107, 36.7253486]]]}, "properties": {"osm_id": 1378665036, "building": "yes", "name": "", "height": null, "height_m": null, "levels": null, "tract_id": "40147000700", "tract_name": "7", "tags": {"building": "yes"}}}, {"type": "Feature", "geometry": {"type": "Polygon", "coordinates": [[[-95.9365795, 36.7231371], [-95.9358281, 36.7231367], [-95.9358284, 36.7227538], [-95.936129, 36.722754], [-95.9361289, 36.7228074], [-95.9362756, 36.7228075], [-95.9362755, 36.7228764], [-95.9365797, 36.7228766], [-95.9365795, 36.7231371]]]}, "properties": {"osm_id": 1391228454, "building": "yes", "name": "", "height": null, "height_m": null, "levels": null, "tract_id": "40147000700", "tract_name": "7", "tags": {"building": "yes"}}}, {"type": "Feature", "geometry": {"type": "Polygon", "coordinates": [[[-95.9360457, 36.7234931], [-95.9362544, 36.7234922], [-95.936259, 36.7242143], [-95.9360484, 36.7242151], [-95.9360469, 36.7239881], [-95.9359771, 36.7239883], [-95.9359773, 36.7240259], [-95.9358333, 36.7240265], [-95.9358338, 36.7241091], [-95.9356567, 36.7241099], [-95.9356541, 36.7237291], [-95.935801, 36.7237285], [-95.9358014, 36.7237955], [-95.9359328, 36.723795], [-95.9359331, 36.7238359], [-95.9360479, 36.7238354], [-95.9360457, 36.7234931]]]}, "properties": {"osm_id": 1391228455, "building": "yes", "name": "", "height": null, "height_m": null, "levels": null, "tract_id": "40147000700", "tract_name": "7", "tags": {"building": "yes"}}}, {"type": "Feature", "geometry": {"type": "Polygon", "coordinates": [[[-95.936357, 36.7210461], [-95.9370245, 36.721031], [-95.9370419, 36.7215268], [-95.9363744, 36.7215418], [-95.936357, 36.7210461]]]}, "properties": {"osm_id": 1391228456, "building": "yes", "name": "", "height": null, "height_m": null, "levels": null, "tract_id": "40147000700", "tract_name": "7", "tags": {"building": "yes"}}}, {"type": "Feature", "geometry": {"type": "Polygon", "coordinates": [[[-95.9355984, 36.7191219], [-95.9358128, 36.7191182], [-95.9358176, 36.7192978], [-95.9356031, 36.7193015], [-95.9355984, 36.7191219]]]}, "properties": {"osm_id": 1391228457, "building": "yes", "name": "", "height": null, "height_m": null, "levels": null, "tract_id": "40147000700", "tract_name": "7", "tags": {"building": "yes"}}}, {"type": "Feature", "geometry": {"type": "Polygon", "coordinates": [[[-95.9355863, 36.719625], [-95.9357608, 36.7196242], [-95.9357622, 36.7198261], [-95.9355876, 36.7198268], [-95.9355863, 36.719625]]]}, "properties": {"osm_id": 1391228458, "building": "yes", "name": "", "height": null, "height_m": null, "levels": null, "tract_id": "40147000700", "tract_name": "7", "tags": {"building": "yes"}}}, {"type": "Feature", "geometry": {"type": "Polygon", "coordinates": [[[-95.9361441, 36.71656], [-95.9361901, 36.7166252], [-95.9359601, 36.7167217], [-95.9354292, 36.7167132], [-95.9354292, 36.7166054], [-95.9355248, 36.7166082], [-95.9355248, 36.7166337], [-95.9359495, 36.7166479], [-95.9361441, 36.71656]]]}, "properties": {"osm_id": 1391228460, "building": "yes", "name": "", "height": null, "height_m": null, "levels": null, "tract_id": "40147000700", "tract_name": "7", "tags": {"building": "yes"}}}, {"type": "Feature", "geometry": {"type": "Polygon", "coordinates": [[[-95.9354267, 36.7167424], [-95.9357115, 36.7167451], [-95.9357095, 36.7168783], [-95.9354248, 36.7168757], [-95.9354267, 36.7167424]]]}, "properties": {"osm_id": 1391228461, "building": "yes", "name": "", "height": null, "height_m": null, "levels": null, "tract_id": "40147000700", "tract_name": "7", "tags": {"building": "yes"}}}, {"type": "Feature", "geometry": {"type": "Polygon", "coordinates": [[[-95.9356298, 36.7141538], [-95.9358701, 36.7141526], [-95.9358715, 36.7143367], [-95.9358364, 36.7143369], [-95.9358368, 36.7143912], [-95.9356317, 36.7143923], [-95.9356298, 36.7141538]]]}, "properties": {"osm_id": 1391228462, "building": "yes", "name": "", "height": null, "height_m": null, "levels": null, "tract_id": "40147000700", "tract_name": "7", "tags": {"building": "yes"}}}, {"type": "Feature", "geometry": {"type": "Polygon", "coordinates": [[[-95.9355779, 36.7120103], [-95.9357088, 36.7120095], [-95.9357113, 36.7122705], [-95.9355804, 36.7122713], [-95.9355779, 36.7120103]]]}, "properties": {"osm_id": 1391228463, "building": "yes", "name": "", "height": null, "height_m": null, "levels": null, "tract_id": "40147000700", "tract_name": "7", "tags": {"building": "yes"}}}, {"type": "Feature", "geometry": {"type": "Polygon", "coordinates": [[[-95.9358251, 36.7104494], [-95.9360304, 36.7105885], [-95.9359985, 36.7106055], [-95.9360587, 36.7106537], [-95.9359631, 36.710719], [-95.9359348, 36.7106934], [-95.9358676, 36.7107417], [-95.9358109, 36.7107388], [-95.9358251, 36.7104494]]]}, "properties": {"osm_id": 1391228464, "building": "yes", "name": "", "height": null, "height_m": null, "levels": null, "tract_id": "40147000700", "tract_name": "7", "tags": {"building": "yes"}}}, {"type": "Feature", "geometry": {"type": "Polygon", "coordinates": [[[-95.9360314, 36.7089465], [-95.9357534, 36.7089465], [-95.9357534, 36.708857], [-95.9357994, 36.708857], [-95.9357993, 36.7084739], [-95.9360314, 36.7084739], [-95.9360314, 36.7089465]]]}, "properties": {"osm_id": 1391228466, "building": "yes", "name": "", "height": null, "height_m": null, "levels": null, "tract_id": "40147000700", "tract_name": "7", "tags": {"building": "yes"}}}, {"type": "Feature", "geometry": {"type": "Polygon", "coordinates": [[[-95.9581508, 36.7113748], [-95.9580939, 36.7111924], [-95.9576434, 36.7112437], [-95.9575178, 36.711086], [-95.9573494, 36.7111639], [-95.9574751, 36.7113387], [-95.9572688, 36.7114357], [-95.9573613, 36.7116067], [-95.9575344, 36.7115383], [-95.9576505, 36.7114832], [-95.9578307, 36.7114642], [-95.9578473, 36.7115668], [-95.9579255, 36.7115611], [-95.9579066, 36.7114566], [-95.9579682, 36.7114414], [-95.9579564, 36.7114053], [-95.9581508, 36.7113748]]]}, "properties": {"osm_id": 1424999620, "building": "yes", "name": "", "height": null, "height_m": null, "levels": null, "tract_id": "40147000700", "tract_name": "7", "tags": {"building": "yes", "layer": "1"}}}, {"type": "Feature", "geometry": {"type": "Polygon", "coordinates": [[[-95.958651, 36.7116428], [-95.9585656, 36.7116941], [-95.9583333, 36.7114851], [-95.9584187, 36.71143], [-95.958651, 36.7116428]]]}, "properties": {"osm_id": 1424999621, "building": "yes", "name": "", "height": null, "height_m": null, "levels": null, "tract_id": "40147000700", "tract_name": "7", "tags": {"building": "yes"}}}, {"type": "Feature", "geometry": {"type": "Polygon", "coordinates": [[[-95.9585799, 36.711753], [-95.9585704, 36.7118329], [-95.9584898, 36.7118842], [-95.9584352, 36.7118405], [-95.9584921, 36.7118006], [-95.9584945, 36.7117473], [-95.9585799, 36.711753]]]}, "properties": {"osm_id": 1424999622, "building": "yes", "name": "", "height": null, "height_m": null, "levels": null, "tract_id": "40147000700", "tract_name": "7", "tags": {"building": "yes"}}}, {"type": "Feature", "geometry": {"type": "Polygon", "coordinates": [[[-95.9649269, 36.7109325], [-95.9648179, 36.7109419], [-95.9647995, 36.7107846], [-95.9649151, 36.7107792], [-95.9649269, 36.7109325]]]}, "properties": {"osm_id": 1425014464, "building": "yes", "name": "", "height": null, "height_m": null, "levels": null, "tract_id": "40147000700", "tract_name": "7", "tags": {"building": "yes"}}}, {"type": "Feature", "geometry": {"type": "Polygon", "coordinates": [[[-95.9647559, 36.7111434], [-95.9646804, 36.7111502], [-95.9646536, 36.71104], [-95.9647391, 36.7110346], [-95.9647559, 36.7111434]]]}, "properties": {"osm_id": 1425014465, "building": "yes", "name": "", "height": null, "height_m": null, "levels": null, "tract_id": "40147000700", "tract_name": "7", "tags": {"building": "yes"}}}, {"type": "Feature", "geometry": {"type": "Polygon", "coordinates": [[[-95.9573663, 36.7106435], [-95.9572775, 36.7107508], [-95.9571464, 36.710674], [-95.9572324, 36.71057], [-95.9573663, 36.7106435]]]}, "properties": {"osm_id": 1425036420, "building": "yes", "name": "", "height": null, "height_m": null, "levels": null, "tract_id": "40147000700", "tract_name": "7", "tags": {"building": "yes"}}}, {"type": "Feature", "geometry": {"type": "Polygon", "coordinates": [[[-95.9569864, 36.71156], [-95.9566971, 36.7116978], [-95.9565952, 36.7115638], [-95.9569318, 36.7114156], [-95.9569864, 36.7114203], [-95.9569864, 36.71156]]]}, "properties": {"osm_id": 1425036421, "building": "yes", "name": "", "height": null, "height_m": null, "levels": null, "tract_id": "40147000700", "tract_name": "7", "tags": {"building": "yes"}}}, {"type": "Feature", "geometry": {"type": "Polygon", "coordinates": [[[-95.96275, 36.7113603], [-95.9625959, 36.7116758], [-95.96243, 36.7116302], [-95.962577, 36.7113109], [-95.96275, 36.7113603]]]}, "properties": {"osm_id": 1425042389, "building": "yes", "name": "", "height": null, "height_m": null, "levels": null, "tract_id": "40147000700", "tract_name": "7", "tags": {"building": "yes"}}}, {"type": "Feature", "geometry": {"type": "Polygon", "coordinates": [[[-95.9623968, 36.7118487], [-95.9623707, 36.7119571], [-95.962219, 36.7119399], [-95.962238, 36.7118278], [-95.9623968, 36.7118487]]]}, "properties": {"osm_id": 1425042390, "building": "yes", "name": "", "height": null, "height_m": null, "levels": null, "tract_id": "40147000700", "tract_name": "7", "tags": {"building": "yes"}}}, {"type": "Feature", "geometry": {"type": "Polygon", "coordinates": [[[-95.963944, 36.7091041], [-95.9638974, 36.7090855], [-95.9639228, 36.7090504], [-95.9639651, 36.7090691], [-95.963944, 36.7091041]]]}, "properties": {"osm_id": 1425050323, "building": "yes", "name": "", "height": null, "height_m": null, "levels": null, "tract_id": "40147000700", "tract_name": "7", "tags": {"building": "yes"}}}, {"type": "Feature", "geometry": {"type": "Polygon", "coordinates": [[[-95.9561999, 36.7122676], [-95.9559266, 36.7123605], [-95.9558097, 36.7124001], [-95.9556276, 36.712462], [-95.9554726, 36.7121546], [-95.9560421, 36.7119602], [-95.9561228, 36.7121174], [-95.9561999, 36.7122676]]]}, "properties": {"osm_id": 1425050343, "building": "yes", "name": "", "height": null, "height_m": null, "levels": null, "tract_id": "40147000700", "tract_name": "7", "tags": {"building": "yes"}}}, {"type": "Feature", "geometry": {"type": "Polygon", "coordinates": [[[-95.956466, 36.7124157], [-95.95644, 36.7123894], [-95.9564162, 36.7123654], [-95.9563992, 36.7123702], [-95.9563673, 36.7123358], [-95.9562976, 36.712379], [-95.9563255, 36.7124101], [-95.9562816, 36.7124421], [-95.9563295, 36.7124988], [-95.9563893, 36.7124693], [-95.9564261, 36.7125044], [-95.9564899, 36.7124693], [-95.9564501, 36.7124245], [-95.956466, 36.7124157]]]}, "properties": {"osm_id": 1425050349, "building": "yes", "name": "", "height": null, "height_m": null, "levels": null, "tract_id": "40147000700", "tract_name": "7", "tags": {"building": "yes"}}}]}