{"type": "FeatureCollection", "features": [{"type": "Feature", "geometry": {"type": "Polygon", "coordinates": [[[-95.7960279, 36.0189156], [-95.7956755, 36.0189156], [-95.7956755, 36.0186095], [-95.7960213, 36.0186095], [-95.7960279, 36.0189156]]]}, "properties": {"osm_id": 195664348, "building": "retail", "name": "", "height": null, "height_m": null, "levels": null, "tract_id": "40143007525", "tract_name": "75.25", "tags": {"addr:city": "Broken Arrow", "addr:housenumber": "3301", "addr:postcode": "74012", "addr:state": "OK", "addr:street": "South Elm Place", "building": "retail", "old_name": "American Freight", "shop": "vacant"}}}, {"type": "Feature", "geometry": {"type": "Polygon", "coordinates": [[[-95.7962449, 36.0179098], [-95.7961359, 36.0179103], [-95.7961345, 36.0177358], [-95.7962434, 36.0177352], [-95.7962449, 36.0179098]]]}, "properties": {"osm_id": 195664349, "building": "yes", "name": "Domino's", "height": null, "height_m": null, "levels": null, "tract_id": "40143007525", "tract_name": "75.25", "tags": {"addr:city": "Broken Arrow", "addr:housenumber": "620", "addr:postcode": "74012", "addr:state": "OK", "addr:street": "West New Orleans Street", "air_conditioning": "yes", "amenity": "fast_food", "brand": "Domino's", "brand:wikidata": "Q839466", "building": "yes", "check_date": "2023-08-18", "cuisine": "pizza", "description": "Formerly Sonic", "name": "Domino's", "opening_hours": "Mo-Th 10:30-24:00; Fr-Sa 10:30-01:00; Su 10:30-24:00", "phone": "+1 918-957-5418", "ref": "6485", "takeaway": "yes", "website": "https://pizza.dominos.com/oklahoma/broken-arrow/620-w-new-orleans-st", "wheelchair": "yes"}}}, {"type": "Feature", "geometry": {"type": "Polygon", "coordinates": [[[-95.7960279, 36.0189156], [-95.7960213, 36.0186095], [-95.7968794, 36.0186095], [-95.7968794, 36.018942], [-95.7969446, 36.018942], [-95.7969446, 36.0190766], [-95.7962464, 36.0190766], [-95.7962464, 36.019008], [-95.7960279, 36.019008], [-95.7960279, 36.0189156]]]}, "properties": {"osm_id": 195664352, "building": "retail", "name": "", "height": null, "height_m": null, "levels": null, "tract_id": "40143007525", "tract_name": "75.25", "tags": {"building": "retail"}}}, {"type": "Feature", "geometry": {"type": "Polygon", "coordinates": [[[-95.7972239, 36.0285929], [-95.7972239, 36.0285159], [-95.7972078, 36.0285159], [-95.7972065, 36.0284281], [-95.797071, 36.028427], [-95.797071, 36.0285929], [-95.7972239, 36.0285929]]]}, "properties": {"osm_id": 252347338, "building": "yes", "name": "", "height": null, "height_m": null, "levels": null, "tract_id": "40143007525", "tract_name": "75.25", "tags": {"addr:city": "Broken Arrow", "addr:housenumber": "2021", "addr:postcode": "74012", "addr:state": "OK", "addr:street": "South Elm Place", "building": "yes", "opening_hours": "Mo-Fr 10:00-18:00", "phone": "+1-918-895-1982"}}}, {"type": "Feature", "geometry": {"type": "Polygon", "coordinates": [[[-95.796972, 36.01782], [-95.7967648, 36.0178214], [-95.7967652, 36.0178644], [-95.7966849, 36.0178649], [-95.7966844, 36.0178219], [-95.7966207, 36.0178223], [-95.7966196, 36.0177084], [-95.7969708, 36.0177061], [-95.796972, 36.01782]]]}, "properties": {"osm_id": 381948068, "building": "commercial", "name": "Arby's", "height": null, "height_m": null, "levels": null, "tract_id": "40143007525", "tract_name": "75.25", "tags": {"addr:city": "Broken Arrow", "addr:housenumber": "3325", "addr:postcode": "74012", "addr:state": "OK", "addr:street": "South Elm Place", "air_conditioning": "yes", "amenity": "fast_food", "brand": "Arby's", "brand:wikidata": "Q630866", "building": "commercial", "check_date": "2024-06-21", "cuisine": "sandwich", "name": "Arby's", "opening_hours": "09:30-23:00", "phone": "+1 918-449-0025", "takeaway": "yes", "website": "https://www.arbys.com/locations/us/ok/broken-arrow/3325-s-elm-place/store-6761/", "wheelchair": "yes"}}}, {"type": "Feature", "geometry": {"type": "Polygon", "coordinates": [[[-95.7968223, 36.0182649], [-95.7968621, 36.0182246], [-95.7968204, 36.0181893], [-95.7967901, 36.0181863], [-95.7967907, 36.0181985], [-95.7967618, 36.0181948], [-95.7967624, 36.0181802], [-95.796726, 36.0181783], [-95.7966917, 36.0181779], [-95.7966912, 36.0181957], [-95.7966586, 36.0181971], [-95.7966606, 36.0182617], [-95.7968223, 36.0182649]]]}, "properties": {"osm_id": 869732908, "building": "yes", "name": "Pizza Hut", "height": null, "height_m": null, "levels": null, "tract_id": "40143007525", "tract_name": "75.25", "tags": {"addr:city": "Broken Arrow", "addr:housenumber": "3321", "addr:postcode": "74012", "addr:state": "OK", "addr:street": "South Elm Place", "amenity": "restaurant", "brand": "Pizza Hut", "brand:wikidata": "Q191615", "building": "yes", "cuisine": "pizza", "delivery": "yes", "name": "Pizza Hut", "phone": "+1 918-451-1190", "takeaway": "only", "website": "https://locations.pizzahut.com/ok/broken-arrow/3321-s-elm"}}}, {"type": "Feature", "geometry": {"type": "Polygon", "coordinates": [[[-95.797007, 36.028458], [-95.796802, 36.028457], [-95.796801, 36.028732], [-95.796719, 36.028732], [-95.796719, 36.028911], [-95.797157, 36.028912], [-95.797158, 36.028779], [-95.796936, 36.028779], [-95.796937, 36.028622], [-95.797007, 36.028622], [-95.797007, 36.028458]]]}, "properties": {"osm_id": 984373267, "building": "yes", "name": "", "height": null, "height_m": null, "levels": null, "tract_id": "40143007525", "tract_name": "75.25", "tags": {"addr:city": "Broken Arrow", "addr:housenumber": "2017", "addr:postcode": "74012", "addr:state": "OK", "addr:street": "South Elm Place", "building": "yes", "source": "microsoft/BuildingFootprints"}}}, {"type": "Feature", "geometry": {"type": "Polygon", "coordinates": [[[-95.797105, 36.029026], [-95.797103, 36.029089], [-95.797074, 36.029089], [-95.797073, 36.02913], [-95.797105, 36.029131], [-95.797104, 36.029167], [-95.797216, 36.029169], [-95.79722, 36.029028], [-95.797105, 36.029026]]]}, "properties": {"osm_id": 984373268, "building": "yes", "name": "Maxx Roofing", "height": null, "height_m": null, "levels": null, "tract_id": "40143007525", "tract_name": "75.25", "tags": {"building": "yes", "craft": "roofer", "name": "Maxx Roofing", "phone": "+1 918 893 9595", "source": "microsoft/BuildingFootprints"}}}, {"type": "Feature", "geometry": {"type": "Polygon", "coordinates": [[[-95.796406, 36.028753], [-95.796491, 36.028754], [-95.796493, 36.028663], [-95.796591, 36.028665], [-95.796594, 36.028526], [-95.796412, 36.028523], [-95.796406, 36.028753]]]}, "properties": {"osm_id": 984373269, "building": "yes", "name": "", "height": null, "height_m": null, "levels": null, "tract_id": "40143007525", "tract_name": "75.25", "tags": {"building": "yes", "source": "microsoft/BuildingFootprints"}}}, {"type": "Feature", "geometry": {"type": "Polygon", "coordinates": [[[-95.796687, 36.0309024], [-95.7966869, 36.030834], [-95.7970275, 36.0308334], [-95.7970277, 36.0309019], [-95.796687, 36.0309024]]]}, "properties": {"osm_id": 1005763228, "building": "retail", "name": "Broken Arrow House of Fire", "height": null, "height_m": null, "levels": null, "tract_id": "40143007525", "tract_name": "75.25", "tags": {"addr:city": "Broken Arrow", "addr:housenumber": "1923", "addr:postcode": "74012", "addr:street": "South Elm Place", "building": "retail", "name": "Broken Arrow House of Fire", "shop": "cannabis"}}}, {"type": "Feature", "geometry": {"type": "Polygon", "coordinates": [[[-95.7966872, 36.0309709], [-95.796687, 36.0309024], [-95.7970277, 36.0309019], [-95.7970279, 36.0309703], [-95.7966872, 36.0309709]]]}, "properties": {"osm_id": 1005763229, "building": "retail", "name": "Stay Buzzin", "height": null, "height_m": null, "levels": null, "tract_id": "40143007525", "tract_name": "75.25", "tags": {"addr:city": "Broken Arrow", "addr:housenumber": "1921", "addr:postcode": "74012", "addr:street": "South Elm Place", "building": "retail", "name": "Stay Buzzin", "opening_hours": "Mo-Sa 09:00-22:00; Su 10:00-21:00", "shop": "e-cigarette"}}}, {"type": "Feature", "geometry": {"type": "Polygon", "coordinates": [[[-95.7966874, 36.0310394], [-95.7966872, 36.0309709], [-95.7970279, 36.0309703], [-95.797028, 36.0310388], [-95.7966874, 36.0310394]]]}, "properties": {"osm_id": 1005763230, "building": "retail", "name": "Morning Glory Donut", "height": null, "height_m": null, "levels": null, "tract_id": "40143007525", "tract_name": "75.25", "tags": {"addr:city": "Broken Arrow", "addr:housenumber": "1917", "addr:postcode": "74012", "addr:street": "South Elm Place", "amenity": "cafe", "building": "retail", "name": "Morning Glory Donut", "opening_hours": "Mo-Sa 05:00-11:00"}}}, {"type": "Feature", "geometry": {"type": "Polygon", "coordinates": [[[-95.7966875, 36.0311078], [-95.7966874, 36.0310394], [-95.797028, 36.0310388], [-95.7970282, 36.0311073], [-95.7966875, 36.0311078]]]}, "properties": {"osm_id": 1005763231, "building": "retail", "name": "", "height": null, "height_m": null, "levels": null, "tract_id": "40143007525", "tract_name": "75.25", "tags": {"addr:city": "Broken Arrow", "addr:housenumber": "1915", "addr:postcode": "74012", "addr:street": "South Elm Place", "building": "retail", "shop": "vacant"}}}, {"type": "Feature", "geometry": {"type": "Polygon", "coordinates": [[[-95.7966877, 36.0311763], [-95.7966875, 36.0311078], [-95.7970282, 36.0311073], [-95.7970284, 36.0311757], [-95.7966877, 36.0311763]]]}, "properties": {"osm_id": 1005763232, "building": "retail", "name": "Ron's Hamburgers & Chili", "height": null, "height_m": null, "levels": null, "tract_id": "40143007525", "tract_name": "75.25", "tags": {"addr:city": "Broken Arrow", "addr:postcode": "74012", "addr:street": "South Elm Place", "amenity": "fast_food", "building": "retail", "cuisine": "burger; american", "name": "Ron's Hamburgers & Chili"}}}, {"type": "Feature", "geometry": {"type": "Polygon", "coordinates": [[[-95.7966879, 36.0312447], [-95.7966877, 36.0311763], [-95.7970284, 36.0311757], [-95.7970285, 36.0312442], [-95.7966879, 36.0312447]]]}, "properties": {"osm_id": 1005763233, "building": "retail", "name": "Nancy & Company", "height": null, "height_m": null, "levels": null, "tract_id": "40143007525", "tract_name": "75.25", "tags": {"addr:city": "Broken Arrow", "addr:postcode": "74012", "addr:street": "South Elm Place", "building": "retail", "name": "Nancy & Company", "shop": "hairdresser"}}}, {"type": "Feature", "geometry": {"type": "Polygon", "coordinates": [[[-95.796688, 36.0313132], [-95.7966879, 36.0312447], [-95.7970285, 36.0312442], [-95.7970287, 36.0313127], [-95.796688, 36.0313132]]]}, "properties": {"osm_id": 1005763234, "building": "retail", "name": "Romantic Nails", "height": null, "height_m": null, "levels": null, "tract_id": "40143007525", "tract_name": "75.25", "tags": {"addr:city": "Broken Arrow", "addr:postcode": "74012", "addr:street": "South Elm Place", "beauty": "nails", "building": "retail", "name": "Romantic Nails"}}}, {"type": "Feature", "geometry": {"type": "Polygon", "coordinates": [[[-95.7969805, 36.0315227], [-95.7969817, 36.0316626], [-95.7967819, 36.0316637], [-95.7967807, 36.0315237], [-95.7969805, 36.0315227]]]}, "properties": {"osm_id": 1005763235, "building": "yes", "name": "Harvard Meats on Elm", "height": null, "height_m": null, "levels": null, "tract_id": "40143007525", "tract_name": "75.25", "tags": {"addr:city": "Broken Arrow", "addr:postcode": "74012", "addr:street": "South Elm Place", "building": "yes", "name": "Harvard Meats on Elm", "payment:credit_cards": "yes", "payment:debit_cards": "yes", "phone": "+1 918 608 6328", "shop": "butcher", "website": "https://harvardmeats.com/"}}}, {"type": "Feature", "geometry": {"type": "Polygon", "coordinates": [[[-95.7966882, 36.0313817], [-95.796688, 36.0313132], [-95.7970287, 36.0313127], [-95.7970289, 36.0313811], [-95.7966882, 36.0313817]]]}, "properties": {"osm_id": 1005763236, "building": "retail", "name": "", "height": null, "height_m": null, "levels": null, "tract_id": "40143007525", "tract_name": "75.25", "tags": {"addr:city": "Broken Arrow", "addr:postcode": "74012", "addr:street": "South Elm Place", "building": "retail", "shop": "vacant"}}}, {"type": "Feature", "geometry": {"type": "Polygon", "coordinates": [[[-95.7880392, 36.0316527], [-95.7880424, 36.0313487], [-95.7879501, 36.0313481], [-95.7879498, 36.0313761], [-95.7878055, 36.0313751], [-95.7878052, 36.031406], [-95.787626, 36.0314047], [-95.787453, 36.0314035], [-95.787451, 36.0315911], [-95.7876289, 36.0315923], [-95.7878017, 36.0315935], [-95.7878012, 36.0316396], [-95.7879312, 36.0316405], [-95.7879311, 36.0316519], [-95.7880392, 36.0316527]]]}, "properties": {"osm_id": 1080297700, "building": "fire_station", "name": "Broken Arrow Fire Station #7", "height": null, "height_m": null, "levels": null, "tract_id": "40143007525", "tract_name": "75.25", "tags": {"addr:housenumber": "201", "addr:postcode": "74012", "addr:street": "East Washington Street", "amenity": "fire_station", "building": "fire_station", "name": "Broken Arrow Fire Station #7", "operator": "City of Broken Arrow", "operator:type": "government", "operator:wikidata": "Q835810", "ref": "7"}}}, {"type": "Feature", "geometry": {"type": "Polygon", "coordinates": [[[-95.7800042, 36.0314305], [-95.7801176, 36.0314749], [-95.7801007, 36.0315031], [-95.7801457, 36.0315208], [-95.7801074, 36.0315847], [-95.7800624, 36.0315671], [-95.7800243, 36.0316305], [-95.7800108, 36.0316252], [-95.7799742, 36.0316862], [-95.7798857, 36.0316515], [-95.779919, 36.031596], [-95.7799076, 36.0315915], [-95.7800042, 36.0314305]]]}, "properties": {"osm_id": 1135343778, "building": "yes", "name": "", "height": null, "height_m": null, "levels": null, "tract_id": "40143007525", "tract_name": "75.25", "tags": {"building": "yes", "shop": "yes"}}}, {"type": "Feature", "geometry": {"type": "Polygon", "coordinates": [[[-95.7891739, 36.0258467], [-95.7889202, 36.0258456], [-95.7889196, 36.0259353], [-95.7890059, 36.0259357], [-95.7890048, 36.0260998], [-95.7891722, 36.0261005], [-95.7891739, 36.0258467]]]}, "properties": {"osm_id": 1149656519, "building": "yes", "name": "Kingdom Hall Jehovahs Witness", "height": null, "height_m": null, "levels": null, "tract_id": "40143007525", "tract_name": "75.25", "tags": {"amenity": "place_of_worship", "building": "yes", "denomination": "jehovahs_witness", "ele": "216", "gnis:feature_id": "1782610", "name": "Kingdom Hall Jehovahs Witness", "religion": "christian", "source": "microsoft/BuildingFootprints"}}}, {"type": "Feature", "geometry": {"type": "Polygon", "coordinates": [[[-95.7965208, 36.0199479], [-95.7964619, 36.0199457], [-95.7964606, 36.0200134], [-95.7964916, 36.0200384], [-95.7965269, 36.0200417], [-95.7965272, 36.0200936], [-95.7968245, 36.0200934], [-95.7968253, 36.0200182], [-95.7968572, 36.0200204], [-95.7969731, 36.0199266], [-95.7969713, 36.0198388], [-95.7969943, 36.0198202], [-95.7969957, 36.0197733], [-95.7969713, 36.019754], [-95.7969713, 36.0196702], [-95.7968571, 36.0195762], [-95.7967565, 36.0195751], [-95.7967572, 36.0195909], [-95.7965701, 36.0195903], [-95.7965714, 36.0195844], [-95.7965406, 36.0195594], [-95.796495, 36.0195583], [-95.7964588, 36.0195876], [-95.7963984, 36.0195882], [-95.7963998, 36.0194954], [-95.7963498, 36.0194945], [-95.7963486, 36.0194404], [-95.7960545, 36.0194376], [-95.7960552, 36.0193719], [-95.7960244, 36.0193719], [-95.796023, 36.0193432], [-95.7958252, 36.0193432], [-95.7958306, 36.0194999], [-95.796019, 36.0195016], [-95.796019, 36.0195292], [-95.7956831, 36.0195325], [-95.7956824, 36.0196312], [-95.7956086, 36.0196306], [-95.7956127, 36.0197977], [-95.7956817, 36.0197977], [-95.7956831, 36.0199463], [-95.7960297, 36.0199458], [-95.7960271, 36.0197462], [-95.7960525, 36.0197456], [-95.7960525, 36.0197163], [-95.7960525, 36.019712], [-95.7960592, 36.019712], [-95.7960586, 36.0196518], [-95.7964562, 36.0196523], [-95.7965127, 36.0196493], [-95.7965308, 36.0197948], [-95.7965208, 36.0199479]]]}, "properties": {"osm_id": 1157796190, "building": "church", "name": "Arrow Heights Baptist Church", "height": null, "height_m": null, "levels": null, "tract_id": "40143007525", "tract_name": "75.25", "tags": {"addr:city": "Broken Arrow", "addr:housenumber": "3201", "addr:postcode": "74012", "addr:state": "OK", "addr:street": "South Elm Place", "amenity": "place_of_worship", "building": "church", "denomination": "baptist", "ele": "221", "gnis:feature_id": "1782577", "name": "Arrow Heights Baptist Church", "religion": "christian"}}}, {"type": "Feature", "geometry": {"type": "Polygon", "coordinates": [[[-95.7949675, 36.0190805], [-95.7946682, 36.0190826], [-95.7946537, 36.019094], [-95.7946346, 36.0191012], [-95.7946171, 36.0191009], [-95.7946041, 36.019095], [-95.7945895, 36.0190842], [-95.7945841, 36.0190782], [-95.794441, 36.0190804], [-95.7944399, 36.0190277], [-95.7944104, 36.0190277], [-95.794411, 36.0189506], [-95.7944422, 36.0189487], [-95.7944399, 36.0188849], [-95.7949691, 36.0188867], [-95.7949675, 36.0190805]]]}, "properties": {"osm_id": 1157796191, "building": "yes", "name": "Arrow Heights Baptist Church Youth Building", "height": null, "height_m": null, "levels": null, "tract_id": "40143007525", "tract_name": "75.25", "tags": {"building": "yes", "name": "Arrow Heights Baptist Church Youth Building"}}}, {"type": "Feature", "geometry": {"type": "Polygon", "coordinates": [[[-95.7948855, 36.0177764], [-95.794738, 36.0177736], [-95.7945897, 36.0177758], [-95.7945908, 36.0179923], [-95.7947422, 36.0179964], [-95.7948597, 36.0179973], [-95.7948597, 36.0179898], [-95.7948855, 36.0179908], [-95.7948855, 36.0177764]]]}, "properties": {"osm_id": 1157796192, "building": "church", "name": "", "height": null, "height_m": null, "levels": null, "tract_id": "40143007525", "tract_name": "75.25", "tags": {"building": "church"}}}, {"type": "Feature", "geometry": {"type": "Polygon", "coordinates": [[[-95.7947707, 36.0180004], [-95.7947707, 36.0180447], [-95.7948134, 36.0180456], [-95.7948131, 36.0180662], [-95.7948858, 36.0180671], [-95.7948851, 36.0182101], [-95.7948458, 36.0182101], [-95.7948469, 36.0182225], [-95.794855, 36.0182238], [-95.7948547, 36.0185016], [-95.7946294, 36.0185007], [-95.7946297, 36.0184879], [-95.794183, 36.0184864], [-95.7941868, 36.0183605], [-95.7941826, 36.0182443], [-95.7945354, 36.0182418], [-95.7945369, 36.0183929], [-95.7946332, 36.0183929], [-95.7946324, 36.0182104], [-95.7945951, 36.0182107], [-95.7945947, 36.0180415], [-95.794676, 36.0180412], [-95.7946775, 36.0179992], [-95.7947707, 36.0180004]]]}, "properties": {"osm_id": 1157796193, "building": "church", "name": "Saint Stephens United Methodist Church", "height": null, "height_m": null, "levels": null, "tract_id": "40143007525", "tract_name": "75.25", "tags": {"addr:city": "Broken Arrow", "addr:housenumber": "400", "addr:postcode": "74011", "addr:street": "West New Orleans Street", "amenity": "place_of_worship", "building": "church", "check_date": "2025-02-15", "denomination": "methodist", "description": "8am traditional worship, 9:15am modern worship, 11:15am traditional worship; Sunday School 10:15 to noon.", "ele": "218", "gnis:feature_id": "1782620", "name": "Saint Stephens United Methodist Church", "phone": "+1 918 455 4202", "religion": "christian", "service_times": "Su 08:00, 09:15, 11:15"}}}, {"type": "Feature", "geometry": {"type": "Polygon", "coordinates": [[[-95.7968942, 36.0277002], [-95.7968915, 36.0275379], [-95.7967933, 36.027539], [-95.7967961, 36.0277013], [-95.7968942, 36.0277002]]]}, "properties": {"osm_id": 1173183454, "building": "greenhouse", "name": "", "height": null, "height_m": null, "levels": null, "tract_id": "40143007525", "tract_name": "75.25", "tags": {"building": "greenhouse"}}}, {"type": "Feature", "geometry": {"type": "Polygon", "coordinates": [[[-95.7967818, 36.0277011], [-95.796779, 36.0275388], [-95.7966808, 36.0275399], [-95.7966836, 36.0277022], [-95.7967818, 36.0277011]]]}, "properties": {"osm_id": 1173183455, "building": "greenhouse", "name": "", "height": null, "height_m": null, "levels": null, "tract_id": "40143007525", "tract_name": "75.25", "tags": {"building": "greenhouse"}}}, {"type": "Feature", "geometry": {"type": "Polygon", "coordinates": [[[-95.7950952, 36.0271395], [-95.7950582, 36.0271007], [-95.795103, 36.0268808], [-95.7948604, 36.0268584], [-95.7948527, 36.0269621], [-95.7948821, 36.026977], [-95.7948573, 36.0270308], [-95.7946612, 36.0270195], [-95.794587, 36.0269496], [-95.7946457, 36.0269058], [-95.7943321, 36.0265885], [-95.7942811, 36.0266285], [-95.7941267, 36.0264823], [-95.7941313, 36.0264436], [-95.7939227, 36.0264223], [-95.7939135, 36.0264773], [-95.7935783, 36.0266797], [-95.7937142, 36.0267996], [-95.7939753, 36.0266397], [-95.7945438, 36.0271769], [-95.7949176, 36.0272119], [-95.7949377, 36.0272382], [-95.7950952, 36.0271395]]]}, "properties": {"osm_id": 1233813181, "building": "yes", "name": "", "height": null, "height_m": null, "levels": null, "tract_id": "40143007525", "tract_name": "75.25", "tags": {"building": "yes"}}}, {"type": "Feature", "geometry": {"type": "Polygon", "coordinates": [[[-95.7970874, 36.027072], [-95.796864, 36.0268515], [-95.7967861, 36.0269062], [-95.7970177, 36.0271466], [-95.7970874, 36.027072]]]}, "properties": {"osm_id": 1233813184, "building": "house", "name": "", "height": null, "height_m": null, "levels": null, "tract_id": "40143007525", "tract_name": "75.25", "tags": {"building": "house"}}}, {"type": "Feature", "geometry": {"type": "Polygon", "coordinates": [[[-95.7967144, 36.0271665], [-95.796452, 36.0269742], [-95.7963721, 36.0270256], [-95.7966406, 36.0272195], [-95.7967144, 36.0271665]]]}, "properties": {"osm_id": 1233813185, "building": "house", "name": "", "height": null, "height_m": null, "levels": null, "tract_id": "40143007525", "tract_name": "75.25", "tags": {"building": "house"}}}, {"type": "Feature", "geometry": {"type": "Polygon", "coordinates": [[[-95.7962327, 36.0270057], [-95.7958761, 36.0269394], [-95.7959007, 36.0268698], [-95.7962512, 36.0269162], [-95.7962327, 36.0270057]]]}, "properties": {"osm_id": 1233813186, "building": "house", "name": "", "height": null, "height_m": null, "levels": null, "tract_id": "40143007525", "tract_name": "75.25", "tags": {"building": "house"}}}, {"type": "Feature", "geometry": {"type": "Polygon", "coordinates": [[[-95.7965955, 36.0266692], [-95.7962368, 36.0266742], [-95.7962307, 36.0265929], [-95.7965976, 36.026573], [-95.7965955, 36.0266692]]]}, "properties": {"osm_id": 1233813187, "building": "house", "name": "", "height": null, "height_m": null, "levels": null, "tract_id": "40143007525", "tract_name": "75.25", "tags": {"building": "house"}}}, {"type": "Feature", "geometry": {"type": "Polygon", "coordinates": [[[-95.7958084, 36.0263824], [-95.795544, 36.0261901], [-95.7954477, 36.0262515], [-95.7956813, 36.0264288], [-95.7957449, 36.0264338], [-95.7958084, 36.0263824]]]}, "properties": {"osm_id": 1233813188, "building": "house", "name": "", "height": null, "height_m": null, "levels": null, "tract_id": "40143007525", "tract_name": "75.25", "tags": {"building": "house"}}}, {"type": "Feature", "geometry": {"type": "Polygon", "coordinates": [[[-95.7944474, 36.0266559], [-95.7944023, 36.0266091], [-95.7944352, 36.0265883], [-95.7945061, 36.0265437], [-95.7945512, 36.0265906], [-95.7944809, 36.0266348], [-95.7944474, 36.0266559]]]}, "properties": {"osm_id": 1233813189, "building": "roof", "name": "", "height": null, "height_m": null, "levels": null, "tract_id": "40143007525", "tract_name": "75.25", "tags": {"building": "roof", "layer": "1"}}}, {"type": "Feature", "geometry": {"type": "Polygon", "coordinates": [[[-95.7939502, 36.0261918], [-95.7937918, 36.0262925], [-95.7937545, 36.026258], [-95.7939146, 36.0261544], [-95.7939502, 36.0261918]]]}, "properties": {"osm_id": 1233813190, "building": "carport", "name": "", "height": null, "height_m": null, "levels": null, "tract_id": "40143007525", "tract_name": "75.25", "tags": {"building": "carport"}}}, {"type": "Feature", "geometry": {"type": "Polygon", "coordinates": [[[-95.7937616, 36.0263141], [-95.7936032, 36.0264149], [-95.7935659, 36.0263803], [-95.793726, 36.0262767], [-95.7937616, 36.0263141]]]}, "properties": {"osm_id": 1233813191, "building": "carport", "name": "", "height": null, "height_m": null, "levels": null, "tract_id": "40143007525", "tract_name": "75.25", "tags": {"building": "carport"}}}, {"type": "Feature", "geometry": {"type": "Polygon", "coordinates": [[[-95.7935801, 36.0264307], [-95.7934217, 36.0265314], [-95.7933844, 36.0264969], [-95.7935445, 36.0263933], [-95.7935801, 36.0264307]]]}, "properties": {"osm_id": 1233813192, "building": "carport", "name": "", "height": null, "height_m": null, "levels": null, "tract_id": "40143007525", "tract_name": "75.25", "tags": {"building": "carport"}}}, {"type": "Feature", "geometry": {"type": "Polygon", "coordinates": [[[-95.79642, 36.0297928], [-95.7964202, 36.0296969], [-95.7964395, 36.0296969], [-95.7964397, 36.0296065], [-95.7968164, 36.0296069], [-95.7968163, 36.0296973], [-95.7968344, 36.0296974], [-95.7968342, 36.0297933], [-95.7968161, 36.0297933], [-95.7968159, 36.0298781], [-95.7964392, 36.0298776], [-95.7964393, 36.0297928], [-95.79642, 36.0297928]]]}, "properties": {"osm_id": 1240439676, "building": "commercial", "name": "", "height": null, "height_m": null, "levels": null, "tract_id": "40143007525", "tract_name": "75.25", "tags": {"building": "commercial"}}}, {"type": "Feature", "geometry": {"type": "Polygon", "coordinates": [[[-95.7970718, 36.029937], [-95.796894, 36.0299368], [-95.7968947, 36.0295227], [-95.7970725, 36.0295229], [-95.7970718, 36.029937]]]}, "properties": {"osm_id": 1240439677, "building": "commercial", "name": "", "height": null, "height_m": null, "levels": null, "tract_id": "40143007525", "tract_name": "75.25", "tags": {"building": "commercial"}}}, {"type": "Feature", "geometry": {"type": "Polygon", "coordinates": [[[-95.7962918, 36.0306706], [-95.7964633, 36.0306705], [-95.7964633, 36.0308107], [-95.7962227, 36.0308108], [-95.7960034, 36.030633], [-95.7960032, 36.0303679], [-95.7961747, 36.0303678], [-95.7961748, 36.0305753], [-95.7962918, 36.0306706]]]}, "properties": {"osm_id": 1240439678, "building": "commercial", "name": "", "height": null, "height_m": null, "levels": null, "tract_id": "40143007525", "tract_name": "75.25", "tags": {"building": "commercial"}}}, {"type": "Feature", "geometry": {"type": "Polygon", "coordinates": [[[-95.7962081, 36.0310094], [-95.7965042, 36.031009], [-95.7965045, 36.0311561], [-95.7962084, 36.0311565], [-95.7962094, 36.0316558], [-95.7960284, 36.0316561], [-95.796027, 36.0310097], [-95.7962081, 36.0310094]]]}, "properties": {"osm_id": 1240439679, "building": "retail", "name": "", "height": null, "height_m": null, "levels": null, "tract_id": "40143007525", "tract_name": "75.25", "tags": {"building": "retail"}}}, {"type": "Feature", "geometry": {"type": "Polygon", "coordinates": [[[-95.7967947, 36.030721], [-95.7967936, 36.0306088], [-95.7968789, 36.0306082], [-95.7968785, 36.0305714], [-95.79711, 36.0305699], [-95.7971114, 36.030719], [-95.7970924, 36.0307191], [-95.7967947, 36.030721]]]}, "properties": {"osm_id": 1240439680, "building": "retail", "name": "Summer's Market", "height": null, "height_m": null, "levels": null, "tract_id": "40143007525", "tract_name": "75.25", "tags": {"addr:city": "Broken Arrow", "addr:housenumber": "1925", "addr:postcode": "74012", "addr:street": "South Elm Place", "building": "retail", "name": "Summer's Market", "opening_hours": "Mo-Fr 10:00-18:00; Sa 10:00-16:00", "shop": "boutique"}}}, {"type": "Feature", "geometry": {"type": "Polygon", "coordinates": [[[-95.7968585, 36.0304212], [-95.7968585, 36.0304161], [-95.7968276, 36.0304161], [-95.7968276, 36.0303785], [-95.7968585, 36.0303785], [-95.7968585, 36.0303303], [-95.7971364, 36.0303303], [-95.7971364, 36.0304212], [-95.7968585, 36.0304212]]]}, "properties": {"osm_id": 1240439681, "building": "commercial", "name": "No.1 Kitchen", "height": null, "height_m": null, "levels": null, "tract_id": "40143007525", "tract_name": "75.25", "tags": {"addr:city": "Broken Arrow", "addr:housenumber": "1933", "addr:postcode": "74012", "addr:street": "South Elm Place", "amenity": "restaurant", "building": "commercial", "cuisine": "chinese;japanese", "name": "No.1 Kitchen", "opening_hours": "Mo-Th 10:30-22:00; Fr-Sa 10:30-22:30; Su 11:00-22:00", "phone": "+1 918 455 9999", "website": "http://www.no1kitchen.com/"}}}, {"type": "Feature", "geometry": {"type": "Polygon", "coordinates": [[[-95.7890177, 36.0222062], [-95.7890179, 36.0222398], [-95.7888117, 36.0222406], [-95.7888101, 36.0219502], [-95.7889486, 36.0219497], [-95.7889485, 36.0219354], [-95.7890373, 36.0219351], [-95.7890374, 36.0219503], [-95.7890914, 36.0219501], [-95.7890928, 36.0222059], [-95.7890177, 36.0222062]]]}, "properties": {"osm_id": 1240653257, "building": "church", "name": "", "height": null, "height_m": null, "levels": null, "tract_id": "40143007525", "tract_name": "75.25", "tags": {"amenity": "place_of_worship", "building": "church", "religion": "christian"}}}, {"type": "Feature", "geometry": {"type": "Polygon", "coordinates": [[[-95.7890499, 36.0217876], [-95.78905, 36.0217991], [-95.7887661, 36.0218004], [-95.7887652, 36.0216705], [-95.789049, 36.0216692], [-95.7890491, 36.0216802], [-95.7890805, 36.02168], [-95.7890813, 36.0217875], [-95.7890499, 36.0217876]]]}, "properties": {"osm_id": 1240653258, "building": "yes", "name": "", "height": null, "height_m": null, "levels": null, "tract_id": "40143007525", "tract_name": "75.25", "tags": {"building": "yes"}}}, {"type": "Feature", "geometry": {"type": "Polygon", "coordinates": [[[-95.7890838, 36.0216556], [-95.7888236, 36.0216542], [-95.7888247, 36.0215169], [-95.7890849, 36.0215182], [-95.7890838, 36.0216556]]]}, "properties": {"osm_id": 1240653259, "building": "yes", "name": "", "height": null, "height_m": null, "levels": null, "tract_id": "40143007525", "tract_name": "75.25", "tags": {"building": "yes"}}}, {"type": "Feature", "geometry": {"type": "Polygon", "coordinates": [[[-95.7891658, 36.026437], [-95.7890632, 36.026437], [-95.7890632, 36.0264153], [-95.7890497, 36.0264153], [-95.7890497, 36.0263852], [-95.7890632, 36.0263852], [-95.7890632, 36.0263426], [-95.7891658, 36.0263426], [-95.7891658, 36.0263503], [-95.7892381, 36.0263503], [-95.7892381, 36.0264295], [-95.7891658, 36.0264295], [-95.7891658, 36.026437]]]}, "properties": {"osm_id": 1240653263, "building": "house", "name": "", "height": null, "height_m": null, "levels": null, "tract_id": "40143007525", "tract_name": "75.25", "tags": {"building": "house"}}}, {"type": "Feature", "geometry": {"type": "Polygon", "coordinates": [[[-95.7894858, 36.0227433], [-95.7893953, 36.0227428], [-95.7893959, 36.0226707], [-95.7894865, 36.0226712], [-95.7894858, 36.0227433]]]}, "properties": {"osm_id": 1240653264, "building": "shed", "name": "", "height": null, "height_m": null, "levels": null, "tract_id": "40143007525", "tract_name": "75.25", "tags": {"building": "shed"}}}, {"type": "Feature", "geometry": {"type": "Polygon", "coordinates": [[[-95.7890476, 36.0231162], [-95.788778, 36.0231151], [-95.7887794, 36.0228955], [-95.7890489, 36.0228965], [-95.7890476, 36.0231162]]]}, "properties": {"osm_id": 1240653265, "building": "commercial", "name": "", "height": null, "height_m": null, "levels": null, "tract_id": "40143007525", "tract_name": "75.25", "tags": {"building": "commercial"}}}, {"type": "Feature", "geometry": {"type": "Polygon", "coordinates": [[[-95.7893, 36.0231127], [-95.7892283, 36.0231126], [-95.7892283, 36.0228475], [-95.7893001, 36.0228475], [-95.7893, 36.0231127]]]}, "properties": {"osm_id": 1240653266, "building": "greenhouse", "name": "", "height": null, "height_m": null, "levels": null, "tract_id": "40143007525", "tract_name": "75.25", "tags": {"building": "greenhouse"}}}, {"type": "Feature", "geometry": {"type": "Polygon", "coordinates": [[[-95.7893772, 36.0228475], [-95.7893771, 36.0231127], [-95.7893, 36.0231127], [-95.7893001, 36.0228475], [-95.7893772, 36.0228475]]]}, "properties": {"osm_id": 1240653267, "building": "greenhouse", "name": "", "height": null, "height_m": null, "levels": null, "tract_id": "40143007525", "tract_name": "75.25", "tags": {"building": "greenhouse"}}}, {"type": "Feature", "geometry": {"type": "Polygon", "coordinates": [[[-95.7894932, 36.0228475], [-95.789567, 36.0228475], [-95.7895669, 36.0231127], [-95.7894932, 36.0231127], [-95.7894932, 36.0228475]]]}, "properties": {"osm_id": 1240653268, "building": "greenhouse", "name": "", "height": null, "height_m": null, "levels": null, "tract_id": "40143007525", "tract_name": "75.25", "tags": {"building": "greenhouse"}}}, {"type": "Feature", "geometry": {"type": "Polygon", "coordinates": [[[-95.789567, 36.0228475], [-95.7896421, 36.0228475], [-95.789642, 36.0231127], [-95.7895669, 36.0231127], [-95.789567, 36.0228475]]]}, "properties": {"osm_id": 1240653269, "building": "greenhouse", "name": "", "height": null, "height_m": null, "levels": null, "tract_id": "40143007525", "tract_name": "75.25", "tags": {"building": "greenhouse"}}}, {"type": "Feature", "geometry": {"type": "Polygon", "coordinates": [[[-95.7896421, 36.0228475], [-95.7897178, 36.0228475], [-95.7897178, 36.0231127], [-95.789642, 36.0231127], [-95.7896421, 36.0228475]]]}, "properties": {"osm_id": 1240653270, "building": "greenhouse", "name": "", "height": null, "height_m": null, "levels": null, "tract_id": "40143007525", "tract_name": "75.25", "tags": {"building": "greenhouse"}}}, {"type": "Feature", "geometry": {"type": "Polygon", "coordinates": [[[-95.7894932, 36.0231127], [-95.7893771, 36.0231127], [-95.7893772, 36.0228475], [-95.7894932, 36.0228475], [-95.7894932, 36.0231127]]]}, "properties": {"osm_id": 1240653271, "building": "greenhouse", "name": "", "height": null, "height_m": null, "levels": null, "tract_id": "40143007525", "tract_name": "75.25", "tags": {"building": "greenhouse"}}}, {"type": "Feature", "geometry": {"type": "Polygon", "coordinates": [[[-95.7871945, 36.0228448], [-95.7870885, 36.0228454], [-95.7870872, 36.0227055], [-95.7871932, 36.0227048], [-95.7871945, 36.0228448]]]}, "properties": {"osm_id": 1240653272, "building": "industrial", "name": "", "height": null, "height_m": null, "levels": null, "tract_id": "40143007525", "tract_name": "75.25", "tags": {"building": "industrial"}}}, {"type": "Feature", "geometry": {"type": "Polygon", "coordinates": [[[-95.7876438, 36.0232602], [-95.7876427, 36.0230075], [-95.7880236, 36.0230064], [-95.7880247, 36.0232591], [-95.7876438, 36.0232602]]]}, "properties": {"osm_id": 1240653273, "building": "industrial", "name": "ONG", "height": null, "height_m": null, "levels": null, "tract_id": "40143007525", "tract_name": "75.25", "tags": {"building": "industrial", "fixme": "Verify name. My notes from last time I drove by said this is \"OG&E\" but I think I meant to say \"ONG.\"", "name": "ONG"}}}, {"type": "Feature", "geometry": {"type": "Polygon", "coordinates": [[[-95.7969631, 36.0276941], [-95.7969591, 36.0275564], [-95.7970503, 36.0275546], [-95.7970513, 36.0275906], [-95.7970815, 36.02759], [-95.7970827, 36.0276285], [-95.7970524, 36.0276291], [-95.7970543, 36.0276924], [-95.7969631, 36.0276941]]]}, "properties": {"osm_id": 1294626485, "building": "yes", "name": "A New Leaf Garden Center", "height": null, "height_m": null, "levels": null, "tract_id": "40143007525", "tract_name": "75.25", "tags": {"building": "yes", "name": "A New Leaf Garden Center", "shop": "garden_centre", "surface": "asphalt"}}}, {"type": "Feature", "geometry": {"type": "Polygon", "coordinates": [[[-95.7965004, 36.0263156], [-95.7962858, 36.026317], [-95.796285, 36.0262375], [-95.7962555, 36.0262377], [-95.7962551, 36.0261995], [-95.7961911, 36.0261999], [-95.7961894, 36.026031], [-95.7962829, 36.0260303], [-95.7962817, 36.02592], [-95.7964964, 36.0259186], [-95.7964977, 36.0260412], [-95.7965684, 36.0260407], [-95.7965699, 36.0261926], [-95.7964992, 36.026193], [-95.7965004, 36.0263156]]]}, "properties": {"osm_id": 1294626486, "building": "yes", "name": "Utica Park Clinic", "height": null, "height_m": null, "levels": null, "tract_id": "40143007525", "tract_name": "75.25", "tags": {"amenity": "clinic", "building": "yes", "healthcare": "clinic", "name": "Utica Park Clinic"}}}, {"type": "Feature", "geometry": {"type": "Polygon", "coordinates": [[[-95.7971341, 36.0258357], [-95.7968022, 36.0258373], [-95.7968015, 36.0257385], [-95.796945, 36.0257378], [-95.7969449, 36.0257202], [-95.7970878, 36.0257195], [-95.7970878, 36.0257265], [-95.7971333, 36.0257263], [-95.7971341, 36.0258357]]]}, "properties": {"osm_id": 1294626487, "building": "yes", "name": "R2 Center for Dentistry", "height": null, "height_m": null, "levels": null, "tract_id": "40143007525", "tract_name": "75.25", "tags": {"amenity": "dentist", "building": "yes", "name": "R2 Center for Dentistry"}}}, {"type": "Feature", "geometry": {"type": "Polygon", "coordinates": [[[-95.7968384, 36.0255314], [-95.795791, 36.0255336], [-95.7957902, 36.0252678], [-95.7968376, 36.0252656], [-95.7968384, 36.0255314]]]}, "properties": {"osm_id": 1294626488, "building": "apartments", "name": "Canoe Brook", "height": null, "height_m": null, "levels": null, "tract_id": "40143007525", "tract_name": "75.25", "tags": {"amenity": "social_facility", "building": "apartments", "name": "Canoe Brook", "social_facility": "assisted_living"}}}, {"type": "Feature", "geometry": {"type": "Polygon", "coordinates": [[[-95.7967895, 36.0249712], [-95.7967874, 36.0247564], [-95.7970235, 36.024755], [-95.7970255, 36.0249698], [-95.7967895, 36.0249712]]]}, "properties": {"osm_id": 1294626489, "building": "yes", "name": "Chinowth & Cohen Realtors", "height": null, "height_m": null, "levels": null, "tract_id": "40143007525", "tract_name": "75.25", "tags": {"building": "yes", "name": "Chinowth & Cohen Realtors", "office": "estate_agent"}}}, {"type": "Feature", "geometry": {"type": "Polygon", "coordinates": [[[-95.7953374, 36.0178351], [-95.7953365, 36.0176947], [-95.7954378, 36.0176943], [-95.7955735, 36.0178037], [-95.7955736, 36.0178341], [-95.7955675, 36.0178342], [-95.7953374, 36.0178351]]]}, "properties": {"osm_id": 1347172124, "building": "retail", "name": "BA Family Drug", "height": null, "height_m": null, "levels": null, "tract_id": "40143007525", "tract_name": "75.25", "tags": {"addr:city": "Broken Arrow", "addr:housenumber": "3359", "addr:postcode": "74012", "addr:street": "South Elm Place", "amenity": "pharmacy", "building": "retail", "healthcare": "pharmacy", "name": "BA Family Drug", "opening_hours": "Mo-Fr 09:00-18:00, Sa 09:00-12:00", "phone": "+1 918 451 3784", "website": "https://www.bafamilydrug.com/"}}}, {"type": "Feature", "geometry": {"type": "Polygon", "coordinates": [[[-95.7954378, 36.0176943], [-95.7953365, 36.0176947], [-95.7953363, 36.0176632], [-95.7954376, 36.0176628], [-95.7954378, 36.0176943]]]}, "properties": {"osm_id": 1347172125, "building": "roof", "name": "", "height": null, "height_m": null, "levels": null, "tract_id": "40143007525", "tract_name": "75.25", "tags": {"building": "roof"}}}, {"type": "Feature", "geometry": {"type": "Polygon", "coordinates": [[[-95.7953377, 36.0186264], [-95.7953327, 36.0178351], [-95.7953374, 36.0178351], [-95.7955675, 36.0178342], [-95.7955737, 36.0186253], [-95.7953377, 36.0186264]]]}, "properties": {"osm_id": 1347172126, "building": "retail", "name": "", "height": null, "height_m": null, "levels": null, "tract_id": "40143007525", "tract_name": "75.25", "tags": {"building": "retail"}}}, {"type": "Feature", "geometry": {"type": "Polygon", "coordinates": [[[-95.7951561, 36.0189242], [-95.795073, 36.0189259], [-95.7950708, 36.018856], [-95.7951539, 36.0188542], [-95.7951561, 36.0189242]]]}, "properties": {"osm_id": 1360419187, "building": "shed", "name": "", "height": null, "height_m": null, "levels": null, "tract_id": "40143007525", "tract_name": "75.25", "tags": {"building": "shed"}}}, {"type": "Feature", "geometry": {"type": "Polygon", "coordinates": [[[-95.7950647, 36.0189845], [-95.7949712, 36.0189846], [-95.794971, 36.0188494], [-95.7950644, 36.0188493], [-95.7950647, 36.0189845]]]}, "properties": {"osm_id": 1360419188, "building": "carport", "name": "", "height": null, "height_m": null, "levels": null, "tract_id": "40143007525", "tract_name": "75.25", "tags": {"building": "carport"}}}]}