{"type": "FeatureCollection", "features": [{"type": "Feature", "geometry": {"type": "Polygon", "coordinates": [[[-96.4890357, 34.4197075], [-96.4889616, 34.4197079], [-96.4889611, 34.4196385], [-96.4890351, 34.4196381], [-96.4890357, 34.4197075]]]}, "properties": {"osm_id": 340114380, "building": "yes", "name": "", "height": null, "height_m": null, "levels": null, "tract_id": "40029388200", "tract_name": "3882", "tags": {"building": "yes"}}}, {"type": "Feature", "geometry": {"type": "Polygon", "coordinates": [[[-96.4889287, 34.4197922], [-96.4889293, 34.4198663], [-96.4887309, 34.4198674], [-96.4887303, 34.4197932], [-96.4889287, 34.4197922]]]}, "properties": {"osm_id": 340114384, "building": "yes", "name": "", "height": null, "height_m": null, "levels": null, "tract_id": "40029388200", "tract_name": "3882", "tags": {"building": "yes"}}}, {"type": "Feature", "geometry": {"type": "Polygon", "coordinates": [[[-96.4904597, 34.4198107], [-96.4904632, 34.4198831], [-96.4903425, 34.4198871], [-96.4903389, 34.4198147], [-96.4904597, 34.4198107]]]}, "properties": {"osm_id": 340114390, "building": "yes", "name": "", "height": null, "height_m": null, "levels": null, "tract_id": "40029388200", "tract_name": "3882", "tags": {"building": "yes"}}}, {"type": "Feature", "geometry": {"type": "Polygon", "coordinates": [[[-96.4907774, 34.4196708], [-96.4907774, 34.4198052], [-96.4906872, 34.4198052], [-96.4906872, 34.4196708], [-96.4907774, 34.4196708]]]}, "properties": {"osm_id": 340114391, "building": "yes", "name": "", "height": null, "height_m": null, "levels": null, "tract_id": "40029388200", "tract_name": "3882", "tags": {"building": "yes"}}}, {"type": "Feature", "geometry": {"type": "Polygon", "coordinates": [[[-96.4216174, 34.6044911], [-96.4216151, 34.6043595], [-96.4215649, 34.6043604], [-96.4215649, 34.6043325], [-96.42151, 34.6043316], [-96.4215112, 34.6044901], [-96.4216174, 34.6044911]]]}, "properties": {"osm_id": 574532761, "building": "yes", "name": "United States Postal Service", "height": null, "height_m": null, "levels": null, "tract_id": "40029388200", "tract_name": "3882", "tags": {"addr:city": "Tupelo", "addr:state": "OK", "amenity": "post_office", "building": "yes", "name": "United States Postal Service"}}}, {"type": "Feature", "geometry": {"type": "Polygon", "coordinates": [[[-96.4241525, 34.6080247], [-96.4241531, 34.6079066], [-96.4240153, 34.6079061], [-96.4240147, 34.6080243], [-96.4241525, 34.6080247]]]}, "properties": {"osm_id": 574532764, "building": "roof", "name": "", "height": null, "height_m": null, "levels": null, "tract_id": "40029388200", "tract_name": "3882", "tags": {"building": "roof"}}}, {"type": "Feature", "geometry": {"type": "Polygon", "coordinates": [[[-96.42386, 34.6083625], [-96.4238594, 34.6081083], [-96.423913, 34.6081082], [-96.423912, 34.6076919], [-96.4236971, 34.6076923], [-96.4236977, 34.6079041], [-96.4236254, 34.6079042], [-96.4236256, 34.6079717], [-96.4236936, 34.6079715], [-96.423694, 34.6081038], [-96.423722, 34.6081038], [-96.4237227, 34.6083627], [-96.42386, 34.6083625]]]}, "properties": {"osm_id": 574532765, "building": "yes", "name": "", "height": null, "height_m": null, "levels": null, "tract_id": "40029388200", "tract_name": "3882", "tags": {"building": "yes"}}}, {"type": "Feature", "geometry": {"type": "Polygon", "coordinates": [[[-96.3633717, 34.4771772], [-96.3632638, 34.4771797], [-96.3632592, 34.4770959], [-96.3633701, 34.4770934], [-96.3633717, 34.4771772]]]}, "properties": {"osm_id": 858254195, "building": "yes", "name": "", "height": null, "height_m": null, "levels": null, "tract_id": "40029388200", "tract_name": "3882", "tags": {"building": "yes"}}}, {"type": "Feature", "geometry": {"type": "Polygon", "coordinates": [[[-96.3629376, 34.4768701], [-96.3627773, 34.4768734], [-96.3627752, 34.476801], [-96.3629354, 34.4767978], [-96.3629376, 34.4768701]]]}, "properties": {"osm_id": 858254196, "building": "yes", "name": "", "height": null, "height_m": null, "levels": null, "tract_id": "40029388200", "tract_name": "3882", "tags": {"building": "yes"}}}, {"type": "Feature", "geometry": {"type": "Polygon", "coordinates": [[[-96.3626992, 34.4770065], [-96.3625598, 34.4770083], [-96.3625622, 34.4771308], [-96.3627016, 34.477129], [-96.3626992, 34.4770065]]]}, "properties": {"osm_id": 858254197, "building": "yes", "name": "", "height": null, "height_m": null, "levels": null, "tract_id": "40029388200", "tract_name": "3882", "tags": {"building": "yes"}}}, {"type": "Feature", "geometry": {"type": "Polygon", "coordinates": [[[-96.3665862, 34.4762536], [-96.3665867, 34.4761617], [-96.3665969, 34.4761617], [-96.3665971, 34.4761282], [-96.3666428, 34.4761284], [-96.3666426, 34.4761634], [-96.3667226, 34.4761638], [-96.366722, 34.4762555], [-96.3666735, 34.4762553], [-96.3666734, 34.4762784], [-96.3666294, 34.4762782], [-96.3666295, 34.4762538], [-96.3665862, 34.4762536]]]}, "properties": {"osm_id": 861148820, "building": "yes", "name": "", "height": null, "height_m": null, "levels": null, "tract_id": "40029388200", "tract_name": "3882", "tags": {"building": "yes"}}}, {"type": "Feature", "geometry": {"type": "Polygon", "coordinates": [[[-96.3677168, 34.4787052], [-96.3674993, 34.478699], [-96.367504, 34.4785868], [-96.3677215, 34.478593], [-96.3677168, 34.4787052]]]}, "properties": {"osm_id": 861148821, "building": "yes", "name": "", "height": null, "height_m": null, "levels": null, "tract_id": "40029388200", "tract_name": "3882", "tags": {"building": "yes"}}}, {"type": "Feature", "geometry": {"type": "Polygon", "coordinates": [[[-96.3679248, 34.4786285], [-96.3679248, 34.4785405], [-96.3679931, 34.4785405], [-96.3679931, 34.4786285], [-96.3679248, 34.4786285]]]}, "properties": {"osm_id": 861148822, "building": "yes", "name": "", "height": null, "height_m": null, "levels": null, "tract_id": "40029388200", "tract_name": "3882", "tags": {"building": "yes"}}}, {"type": "Feature", "geometry": {"type": "Polygon", "coordinates": [[[-96.3671938, 34.4767417], [-96.3670028, 34.476743], [-96.367002, 34.4766649], [-96.367193, 34.4766636], [-96.3671938, 34.4767417]]]}, "properties": {"osm_id": 861148823, "building": "yes", "name": "", "height": null, "height_m": null, "levels": null, "tract_id": "40029388200", "tract_name": "3882", "tags": {"building": "yes"}}}, {"type": "Feature", "geometry": {"type": "Polygon", "coordinates": [[[-96.367676, 34.476655], [-96.3675042, 34.4766556], [-96.3675047, 34.4767496], [-96.3675505, 34.4767494], [-96.3675507, 34.4767788], [-96.3676358, 34.4767785], [-96.3676356, 34.4767496], [-96.3676764, 34.4767494], [-96.367676, 34.476655]]]}, "properties": {"osm_id": 861148824, "building": "yes", "name": "", "height": null, "height_m": null, "levels": null, "tract_id": "40029388200", "tract_name": "3882", "tags": {"building": "yes"}}}, {"type": "Feature", "geometry": {"type": "Polygon", "coordinates": [[[-96.3679845, 34.4770487], [-96.3679853, 34.4769661], [-96.3680777, 34.4769668], [-96.3680769, 34.4770493], [-96.3679845, 34.4770487]]]}, "properties": {"osm_id": 861148825, "building": "yes", "name": "", "height": null, "height_m": null, "levels": null, "tract_id": "40029388200", "tract_name": "3882", "tags": {"building": "yes"}}}, {"type": "Feature", "geometry": {"type": "Polygon", "coordinates": [[[-96.3687546, 34.4770872], [-96.3685057, 34.477103], [-96.3684902, 34.4769367], [-96.3687391, 34.4769209], [-96.3687546, 34.4770872]]]}, "properties": {"osm_id": 861148826, "building": "yes", "name": "", "height": null, "height_m": null, "levels": null, "tract_id": "40029388200", "tract_name": "3882", "tags": {"building": "yes"}}}, {"type": "Feature", "geometry": {"type": "Polygon", "coordinates": [[[-96.3709762, 34.4794584], [-96.370977, 34.4793365], [-96.3708338, 34.4793359], [-96.3708334, 34.4793869], [-96.3707741, 34.4793866], [-96.3707738, 34.4794357], [-96.3708301, 34.4794359], [-96.37083, 34.4794577], [-96.3709762, 34.4794584]]]}, "properties": {"osm_id": 861148831, "building": "yes", "name": "", "height": null, "height_m": null, "levels": null, "tract_id": "40029388200", "tract_name": "3882", "tags": {"building": "yes"}}}, {"type": "Feature", "geometry": {"type": "Polygon", "coordinates": [[[-96.3705194, 34.4791554], [-96.3704674, 34.4791554], [-96.3704674, 34.4791345], [-96.370269, 34.4791347], [-96.3702689, 34.479005], [-96.3704121, 34.4790049], [-96.370412, 34.4789278], [-96.3705252, 34.4789277], [-96.3705252, 34.4789829], [-96.3705405, 34.4789829], [-96.3705406, 34.4790187], [-96.3705192, 34.4790187], [-96.3705194, 34.4791554]]]}, "properties": {"osm_id": 861148832, "building": "yes", "name": "", "height": null, "height_m": null, "levels": null, "tract_id": "40029388200", "tract_name": "3882", "tags": {"building": "yes"}}}, {"type": "Feature", "geometry": {"type": "Polygon", "coordinates": [[[-96.3761104, 34.6577988], [-96.3761158, 34.6576582], [-96.3762326, 34.6576613], [-96.3762272, 34.6578018], [-96.3761104, 34.6577988]]]}, "properties": {"osm_id": 861166425, "building": "yes", "name": "", "height": null, "height_m": null, "levels": null, "tract_id": "40029388200", "tract_name": "3882", "tags": {"building": "yes"}}}, {"type": "Feature", "geometry": {"type": "Polygon", "coordinates": [[[-96.3768139, 34.6577996], [-96.3768448, 34.6575997], [-96.3767922, 34.6575942], [-96.3767613, 34.6577941], [-96.3768139, 34.6577996]]]}, "properties": {"osm_id": 861166426, "building": "yes", "name": "", "height": null, "height_m": null, "levels": null, "tract_id": "40029388200", "tract_name": "3882", "tags": {"building": "yes"}}}, {"type": "Feature", "geometry": {"type": "Polygon", "coordinates": [[[-96.3762819, 34.6680427], [-96.3762318, 34.6678225], [-96.3760749, 34.6678466], [-96.3761249, 34.6680669], [-96.3762819, 34.6680427]]]}, "properties": {"osm_id": 867133368, "building": "yes", "name": "", "height": null, "height_m": null, "levels": null, "tract_id": "40029388200", "tract_name": "3882", "tags": {"building": "yes"}}}, {"type": "Feature", "geometry": {"type": "Polygon", "coordinates": [[[-96.4215697, 34.603987], [-96.4215712, 34.6038783], [-96.421495, 34.6038776], [-96.4214942, 34.6039383], [-96.4214309, 34.6039377], [-96.4214303, 34.6039858], [-96.4215697, 34.603987]]]}, "properties": {"osm_id": 1061555825, "building": "yes", "name": "", "height": null, "height_m": null, "levels": null, "tract_id": "40029388200", "tract_name": "3882", "tags": {"addr:city": "Tupelo", "addr:housenumber": "402", "addr:postcode": "74572", "addr:state": "OK", "addr:street": "Pine Street", "building": "yes"}}}, {"type": "Feature", "geometry": {"type": "Polygon", "coordinates": [[[-96.2678692, 34.625608], [-96.267847, 34.625608], [-96.267847, 34.6255864], [-96.2678692, 34.6255864], [-96.2678692, 34.625608]]]}, "properties": {"osm_id": 1091061344, "building": "service", "name": "", "height": null, "height_m": null, "levels": null, "tract_id": "40029388200", "tract_name": "3882", "tags": {"building": "service"}}}, {"type": "Feature", "geometry": {"type": "Polygon", "coordinates": [[[-96.2674528, 34.6258331], [-96.2674092, 34.6258325], [-96.2674096, 34.6258083], [-96.2674532, 34.6258089], [-96.2674528, 34.6258331]]]}, "properties": {"osm_id": 1091061345, "building": "service", "name": "", "height": null, "height_m": null, "levels": null, "tract_id": "40029388200", "tract_name": "3882", "tags": {"building": "service"}}}, {"type": "Feature", "geometry": {"type": "Polygon", "coordinates": [[[-96.3677229, 34.6084676], [-96.367622, 34.6082959], [-96.3675353, 34.6083304], [-96.3676363, 34.6085021], [-96.3677229, 34.6084676]]]}, "properties": {"osm_id": 1433348316, "building": "house", "name": "", "height": null, "height_m": null, "levels": null, "tract_id": "40029388200", "tract_name": "3882", "tags": {"building": "house"}}}]}