{"type": "FeatureCollection", "features": [{"type": "Feature", "geometry": {"type": "Polygon", "coordinates": [[[-95.8857149, 36.057172], [-95.8854525, 36.057174], [-95.8854515, 36.0570938], [-95.8857139, 36.0570918], [-95.8857149, 36.057172]]]}, "properties": {"osm_id": 97587154, "building": "yes", "name": "Taco Bell", "height": null, "height_m": null, "levels": null, "tract_id": "40143007646", "tract_name": "76.46", "tags": {"addr:city": "Tulsa", "addr:housenumber": "8109", "addr:postcode": "74133", "addr:state": "OK", "addr:street": "East 74th Place", "amenity": "fast_food", "brand": "Taco Bell", "brand:wikidata": "Q752941", "building": "yes", "check_date": "2024-10-26", "cuisine": "tex-mex", "name": "Taco Bell", "opening_hours": "24/7", "phone": "+1 918-254-6652", "takeaway": "yes", "website": "https://locations.tacobell.com/ok/tulsa/8109-e-74th-pl-.html"}}}, {"type": "Feature", "geometry": {"type": "Polygon", "coordinates": [[[-95.8798459, 36.0604693], [-95.8797415, 36.0603838], [-95.8797405, 36.0602619], [-95.8797006, 36.0602622], [-95.8797003, 36.060095], [-95.8797392, 36.0600956], [-95.8797382, 36.0599762], [-95.8798397, 36.0598914], [-95.8800125, 36.0598898], [-95.8801586, 36.0598892], [-95.8801636, 36.060468], [-95.8798459, 36.0604693]]]}, "properties": {"osm_id": 98084439, "building": "yes", "name": "Barnes & Noble", "height": null, "height_m": null, "levels": null, "tract_id": "40143007646", "tract_name": "76.46", "tags": {"addr:city": "Tulsa", "addr:country": "US", "addr:housenumber": "8620", "addr:postcode": "74133", "addr:state": "OK", "addr:street": "East 71st Street South", "brand": "Barnes & Noble", "brand:wikidata": "Q795454", "building": "yes", "name": "Barnes & Noble", "opening_hours": "Mo-Sa 09:00-21:00; Su 09:00-18:00", "shop": "books"}}}, {"type": "Feature", "geometry": {"type": "Polygon", "coordinates": [[[-95.8798397, 36.0598914], [-95.8797358, 36.0598065], [-95.8797371, 36.0594008], [-95.8797852, 36.0593649], [-95.8801121, 36.0593663], [-95.8801127, 36.0596232], [-95.8800124, 36.0596237], [-95.8800125, 36.0598898], [-95.8798397, 36.0598914]]]}, "properties": {"osm_id": 98084440, "building": "retail", "name": "", "height": null, "height_m": null, "levels": null, "tract_id": "40143007646", "tract_name": "76.46", "tags": {"addr:housenumber": "8624", "addr:street": "East 71st Street South", "building": "retail"}}}, {"type": "Feature", "geometry": {"type": "Polygon", "coordinates": [[[-95.8858378, 36.059937], [-95.8858378, 36.0599695], [-95.8858378, 36.0599925], [-95.8857565, 36.0599926], [-95.8857565, 36.0599699], [-95.8857565, 36.059937], [-95.8856815, 36.059937], [-95.8856814, 36.0598509], [-95.8859785, 36.0598508], [-95.8859786, 36.0599369], [-95.8858378, 36.059937]]]}, "properties": {"osm_id": 98242428, "building": "retail", "name": "Pizza Hut", "height": null, "height_m": null, "levels": null, "tract_id": "40143007646", "tract_name": "76.46", "tags": {"addr:city": "Tulsa", "addr:country": "US", "addr:housenumber": "7121", "addr:postcode": "74133", "addr:state": "OK", "addr:street": "South Memorial Drive East", "amenity": "restaurant", "brand": "Pizza Hut", "brand:wikidata": "Q191615", "building": "retail", "check_date": "2022-09-10", "cuisine": "pizza", "name": "Pizza Hut", "phone": "+1 918-461-0035", "survey:date": "2022-07-22", "website": "https://locations.pizzahut.com/ok/tulsa/7121-s-memorial-dr"}}}, {"type": "Feature", "geometry": {"type": "Polygon", "coordinates": [[[-95.882833, 36.0584361], [-95.8828327, 36.0583325], [-95.8838099, 36.0583307], [-95.883812, 36.0590663], [-95.8836102, 36.0590667], [-95.8836103, 36.059096], [-95.88288, 36.0590973], [-95.8828799, 36.0590683], [-95.8825859, 36.0590688], [-95.8825841, 36.0584365], [-95.882833, 36.0584361]]]}, "properties": {"osm_id": 98242434, "building": "yes", "name": "Incredible Pizza", "height": null, "height_m": null, "levels": null, "tract_id": "40143007646", "tract_name": "76.46", "tags": {"addr:city": "Tulsa", "addr:country": "US", "addr:housenumber": "8314", "addr:postcode": "74133", "addr:state": "OK", "addr:street": "East 71st Street South", "amenity": "restaurant", "building": "yes", "cuisine": "pizza", "name": "Incredible Pizza"}}}, {"type": "Feature", "geometry": {"type": "Polygon", "coordinates": [[[-95.8857117, 36.0587315], [-95.8855028, 36.0587339], [-95.885499, 36.0585186], [-95.8858627, 36.0585144], [-95.8858653, 36.0586652], [-95.8859315, 36.0586645], [-95.8859333, 36.0587661], [-95.8858207, 36.0587674], [-95.88582, 36.0587297], [-95.8857828, 36.0587301], [-95.8857825, 36.05871], [-95.8857114, 36.0587109], [-95.8857117, 36.0587315]]]}, "properties": {"osm_id": 98242440, "building": "retail", "name": "Lanna Thai", "height": null, "height_m": null, "levels": null, "tract_id": "40143007646", "tract_name": "76.46", "tags": {"addr:city": "Tulsa", "addr:country": "US", "addr:housenumber": "7227", "addr:postcode": "74133", "addr:state": "OK", "addr:street": "South Memorial Drive East", "amenity": "restaurant", "building": "retail", "check_date": "2022-09-10", "cuisine": "thai", "name": "Lanna Thai"}}}, {"type": "Feature", "geometry": {"type": "Polygon", "coordinates": [[[-95.8815876, 36.0599161], [-95.8815904, 36.0601674], [-95.8815649, 36.0601676], [-95.8815651, 36.0601845], [-95.8809336, 36.0601892], [-95.8809333, 36.0601688], [-95.8808993, 36.060169], [-95.8808965, 36.0599211], [-95.8815876, 36.0599161]]]}, "properties": {"osm_id": 102036744, "building": "retail", "name": "", "height": null, "height_m": null, "levels": null, "tract_id": "40143007646", "tract_name": "76.46", "tags": {"addr:city": "Tulsa", "addr:country": "US", "addr:housenumber": "8518", "addr:postcode": "74133", "addr:state": "OK", "addr:street": "East 71st Street South", "building": "retail"}}}, {"type": "Feature", "geometry": {"type": "Polygon", "coordinates": [[[-95.8832555, 36.060576], [-95.8830208, 36.060576], [-95.8830208, 36.0603846], [-95.8832555, 36.0603846], [-95.8832555, 36.060576]]]}, "properties": {"osm_id": 102036747, "building": "yes", "name": "Essential Cannabis", "height": null, "height_m": null, "levels": null, "tract_id": "40143007646", "tract_name": "76.46", "tags": {"addr:city": "Tulsa", "addr:country": "US", "addr:housenumber": "8320", "addr:postcode": "74133", "addr:state": "OK", "addr:street": "East 71st Street South", "building": "yes", "name": "Essential Cannabis", "shop": "cannabis", "wheelchair": "yes"}}}, {"type": "Feature", "geometry": {"type": "Polygon", "coordinates": [[[-95.8705652, 36.058389], [-95.8707739, 36.058389], [-95.8707739, 36.0585176], [-95.8705652, 36.0585176], [-95.8705652, 36.058389]]]}, "properties": {"osm_id": 244642536, "building": "yes", "name": "", "height": null, "height_m": null, "levels": null, "tract_id": "40143007646", "tract_name": "76.46", "tags": {"addr:city": "Tulsa", "addr:country": "US", "addr:housenumber": "7241", "addr:postcode": "74133", "addr:state": "OK", "addr:street": "South 92nd Avenue East", "building": "yes"}}}, {"type": "Feature", "geometry": {"type": "Polygon", "coordinates": [[[-95.8704062, 36.0585176], [-95.8704051, 36.058389], [-95.8705652, 36.058389], [-95.8705652, 36.0585176], [-95.8704062, 36.0585176]]]}, "properties": {"osm_id": 244642537, "building": "apartments", "name": "", "height": null, "height_m": null, "levels": null, "tract_id": "40143007646", "tract_name": "76.46", "tags": {"addr:city": "Tulsa", "addr:country": "US", "addr:housenumber": "7243", "addr:postcode": "74133", "addr:state": "OK", "addr:street": "South 92nd Avenue East", "building": "apartments"}}}, {"type": "Feature", "geometry": {"type": "Polygon", "coordinates": [[[-95.8704062, 36.0585176], [-95.8704051, 36.058389], [-95.8701745, 36.058389], [-95.8701745, 36.0585176], [-95.8704062, 36.0585176]]]}, "properties": {"osm_id": 244642538, "building": "apartments", "name": "", "height": null, "height_m": null, "levels": null, "tract_id": "40143007646", "tract_name": "76.46", "tags": {"addr:city": "Tulsa", "addr:country": "US", "addr:housenumber": "7245", "addr:postcode": "74133", "addr:state": "OK", "addr:street": "South 92nd Avenue East", "building": "apartments"}}}, {"type": "Feature", "geometry": {"type": "Polygon", "coordinates": [[[-95.8724617, 36.0606123], [-95.8724121, 36.0606125], [-95.8724108, 36.0603263], [-95.8724604, 36.0603261], [-95.8724617, 36.0606123]]]}, "properties": {"osm_id": 478941388, "building": "roof", "name": "", "height": null, "height_m": null, "levels": null, "tract_id": "40143007646", "tract_name": "76.46", "tags": {"building": "roof", "layer": "1"}}}, {"type": "Feature", "geometry": {"type": "Polygon", "coordinates": [[[-95.8727433, 36.0606221], [-95.872691, 36.0606219], [-95.8726912, 36.0605799], [-95.8726229, 36.0605797], [-95.8726227, 36.0606217], [-95.8725689, 36.0606216], [-95.8725703, 36.0603321], [-95.8727447, 36.0603326], [-95.8727433, 36.0606221]]]}, "properties": {"osm_id": 478941389, "building": "retail", "name": "Sonic", "height": null, "height_m": null, "levels": null, "tract_id": "40143007646", "tract_name": "76.46", "tags": {"addr:city": "Tulsa", "addr:country": "US", "addr:housenumber": "9310", "addr:postcode": "74133", "addr:state": "OK", "addr:street": "East 71st Street South", "amenity": "fast_food", "brand": "Sonic", "brand:wikidata": "Q7561808", "building": "retail", "check_date": "2023-11-18", "cuisine": "burger", "drive_in": "yes", "name": "Sonic", "opening_hours": "Mo-Sa 06:00-23:00; Su 07:00-23:00", "phone": "+1 918-254-0128", "takeaway": "yes", "website": "https://locations.sonicdrivein.com/ok/tulsa/9310-e.-71st-street.html"}}}, {"type": "Feature", "geometry": {"type": "Polygon", "coordinates": [[[-95.8734055, 36.0606443], [-95.872882, 36.0606477], [-95.8728812, 36.0605611], [-95.8734047, 36.0605578], [-95.8734055, 36.0606443]]]}, "properties": {"osm_id": 478941397, "building": "roof", "name": "QuikTrip", "height": null, "height_m": null, "levels": null, "tract_id": "40143007646", "tract_name": "76.46", "tags": {"amenity": "fuel", "brand": "QuikTrip", "brand:wikidata": "Q7271953", "building": "roof", "name": "QuikTrip", "opening_hours": "24/7", "short_name": "QT"}}}, {"type": "Feature", "geometry": {"type": "Polygon", "coordinates": [[[-95.8733358, 36.060305], [-95.8733366, 36.0603906], [-95.8732566, 36.0603911], [-95.8732568, 36.0604056], [-95.8730825, 36.0604067], [-95.8730823, 36.0603922], [-95.8729973, 36.0603928], [-95.8729965, 36.0603072], [-95.8731025, 36.0603065], [-95.8731023, 36.0602911], [-95.8732377, 36.0602903], [-95.8732379, 36.0603056], [-95.8733358, 36.060305]]]}, "properties": {"osm_id": 478941398, "building": "retail", "name": "QuikTrip", "height": null, "height_m": null, "levels": null, "tract_id": "40143007646", "tract_name": "76.46", "tags": {"addr:city": "Tulsa", "addr:country": "US", "addr:housenumber": "7103", "addr:postcode": "74133", "addr:state": "OK", "addr:street": "South 92nd Avenue East", "brand": "QuikTrip", "brand:wikidata": "Q7271953", "building": "retail", "check_date": "2023-11-18", "name": "QuikTrip", "opening_hours": "24/7", "shop": "convenience", "short_name": "QT"}}}, {"type": "Feature", "geometry": {"type": "Polygon", "coordinates": [[[-95.8763981, 36.0602301], [-95.8766576, 36.0602301], [-95.8766576, 36.0604849], [-95.8765436, 36.0604849], [-95.8765436, 36.0605332], [-95.876447, 36.0605332], [-95.876447, 36.0604849], [-95.8763981, 36.0604849], [-95.8763981, 36.0602301]]]}, "properties": {"osm_id": 625694178, "building": "yes", "name": "Black Bear Diner", "height": null, "height_m": null, "levels": null, "tract_id": "40143007646", "tract_name": "76.46", "tags": {"addr:city": "Tulsa", "addr:country": "US", "addr:housenumber": "9026", "addr:postcode": "74133", "addr:state": "OK", "addr:street": "East 71st Street South", "air_conditioning": "yes", "amenity": "restaurant", "brand": "Black Bear Diner", "brand:wikidata": "Q4920343", "brewery": "Budweiser;Molson Coors;Corona", "building": "yes", "building:colour": "#eecfaf", "check_date:opening_hours": "2024-11-28", "cuisine": "american", "indoor_seating": "yes", "name": "Black Bear Diner", "opening_hours": "Mo-Su 06:00-22:00", "outdoor_seating": "no", "smoking": "no", "wheelchair": "yes"}}}, {"type": "Feature", "geometry": {"type": "Polygon", "coordinates": [[[-95.8772202, 36.0605234], [-95.8769628, 36.0605242], [-95.8769615, 36.0602489], [-95.8772188, 36.060248], [-95.8772202, 36.0605234]]]}, "properties": {"osm_id": 625694184, "building": "yes", "name": "Outback Steakhouse", "height": null, "height_m": null, "levels": null, "tract_id": "40143007646", "tract_name": "76.46", "tags": {"addr:city": "Tulsa", "addr:country": "US", "addr:housenumber": "9006", "addr:postcode": "74133", "addr:state": "OK", "addr:street": "East 71st Street South", "amenity": "restaurant", "brand": "Outback Steakhouse", "brand:wikidata": "Q1064893", "building": "yes", "cuisine": "american;steak", "indoor_seating": "yes", "name": "Outback Steakhouse", "outdoor_seating": "no"}}}, {"type": "Feature", "geometry": {"type": "Polygon", "coordinates": [[[-95.8787664, 36.0602791], [-95.8787488, 36.0602791], [-95.8787489, 36.0602568], [-95.8786077, 36.0602565], [-95.8786076, 36.0602802], [-95.8785648, 36.0602801], [-95.8785646, 36.0603251], [-95.8785385, 36.060325], [-95.8785389, 36.0602442], [-95.878482, 36.0602441], [-95.8784813, 36.0603882], [-95.8784724, 36.0603882], [-95.8784718, 36.060515], [-95.8784762, 36.060515], [-95.8784761, 36.0605551], [-95.8786214, 36.0605554], [-95.8786215, 36.0605266], [-95.8786736, 36.0605267], [-95.8786736, 36.0605136], [-95.8787671, 36.0605138], [-95.8787671, 36.0604865], [-95.8787789, 36.0604865], [-95.8787792, 36.0604092], [-95.878766, 36.0604092], [-95.8787664, 36.0602791]]]}, "properties": {"osm_id": 742913705, "building": "yes", "name": "On The Border", "height": null, "height_m": null, "levels": null, "tract_id": "40143007646", "tract_name": "76.46", "tags": {"addr:city": "Tulsa", "addr:country": "US", "addr:housenumber": "8702", "addr:postcode": "74133", "addr:state": "OK", "addr:street": "East 71st Street South", "amenity": "restaurant", "brand": "On The Border", "brand:wikidata": "Q7091305", "building": "yes", "cuisine": "tex-mex", "name": "On The Border", "official_name": "On The Border Mexican Grill & Cantina"}}}, {"type": "Feature", "geometry": {"type": "Polygon", "coordinates": [[[-95.8783778, 36.0592913], [-95.8783759, 36.0588945], [-95.8786047, 36.0588937], [-95.8786042, 36.0587928], [-95.8789411, 36.0587918], [-95.8789408, 36.0587421], [-95.8797156, 36.0587397], [-95.8797183, 36.0592201], [-95.8796382, 36.0592874], [-95.8789395, 36.0592896], [-95.8789396, 36.0593175], [-95.878725, 36.0593182], [-95.8787249, 36.0592902], [-95.8783778, 36.0592913]]]}, "properties": {"osm_id": 782869554, "building": "retail", "name": "", "height": null, "height_m": null, "levels": null, "tract_id": "40143007646", "tract_name": "76.46", "tags": {"addr:housenumber": "8722", "addr:street": "East 71st Street South", "building": "retail"}}}, {"type": "Feature", "geometry": {"type": "Polygon", "coordinates": [[[-95.8774073, 36.0593097], [-95.8774076, 36.0593936], [-95.8773972, 36.0593936], [-95.8773974, 36.0594582], [-95.8773679, 36.0594582], [-95.8773679, 36.0594759], [-95.8772832, 36.0594761], [-95.8772832, 36.0594815], [-95.8771183, 36.0594819], [-95.8771185, 36.0595503], [-95.8770493, 36.0595505], [-95.877049, 36.0594821], [-95.8769319, 36.0594824], [-95.8769318, 36.059477], [-95.8768478, 36.0594773], [-95.8768477, 36.0594596], [-95.8768168, 36.0594597], [-95.8768165, 36.0593952], [-95.8768048, 36.0593952], [-95.8768044, 36.0593113], [-95.877016, 36.0593108], [-95.877016, 36.0593035], [-95.8772024, 36.059303], [-95.8772024, 36.0593102], [-95.8774073, 36.0593097]]]}, "properties": {"osm_id": 782869555, "building": "yes", "name": "Comfort Inn South Tulsa - Woodland Hills", "height": null, "height_m": null, "levels": null, "tract_id": "40143007646", "tract_name": "76.46", "tags": {"addr:city": "Tulsa", "addr:housenumber": "9010", "addr:postcode": "74133", "addr:state": "OK", "addr:street": "East 71st Street South", "branch": "South Tulsa - Woodland Hills", "brand": "Comfort Inn", "brand:wikidata": "Q113152349", "building": "yes", "name": "Comfort Inn South Tulsa - Woodland Hills", "phone": "+1 918-459-5321", "ref": "OK277", "tourism": "hotel", "website": "https://www.choicehotels.com/oklahoma/tulsa/quality-inn-hotels"}}}, {"type": "Feature", "geometry": {"type": "Polygon", "coordinates": [[[-95.8780443, 36.0596149], [-95.8783641, 36.0596138], [-95.8783661, 36.0599614], [-95.8783132, 36.0600044], [-95.8780523, 36.0600052], [-95.8780443, 36.0596149]]]}, "properties": {"osm_id": 782869556, "building": "yes", "name": "Five Below", "height": null, "height_m": null, "levels": null, "tract_id": "40143007646", "tract_name": "76.46", "tags": {"brand": "Five Below", "brand:wikidata": "Q5455836", "building": "yes", "check_date": "2024-09-23", "check_date:opening_hours": "2024-09-23", "name": "Five Below", "opening_hours": "Mo-Sa 10:00-21:00; Su 10:00-20:00", "phone": "+1 918-238-0033", "shop": "variety_store", "website": "https://locations.fivebelow.com/ok/tulsa/8802-e-71st-st"}}}, {"type": "Feature", "geometry": {"type": "Polygon", "coordinates": [[[-95.8820987, 36.0601665], [-95.8820855, 36.0601665], [-95.8820855, 36.0601781], [-95.8819206, 36.0601784], [-95.8819206, 36.0601874], [-95.8818039, 36.0601876], [-95.8818039, 36.0601793], [-95.8816363, 36.0601797], [-95.8816363, 36.0601679], [-95.8816236, 36.0601679], [-95.8816224, 36.0598527], [-95.8820975, 36.0598515], [-95.8820987, 36.0601665]]]}, "properties": {"osm_id": 998948096, "building": "retail", "name": "DSW", "height": null, "height_m": null, "levels": null, "tract_id": "40143007646", "tract_name": "76.46", "tags": {"addr:city": "Tulsa", "addr:housenumber": "8506", "addr:postcode": "74133", "addr:state": "OK", "addr:street": "East 71st Street South", "brand": "DSW", "brand:wikidata": "Q5206207", "building": "retail", "name": "DSW", "official_name": "Designer Shoe Warehouse", "opening_hours": "Mo-Sa 10:00-20:00; Su 11:00-19:00", "phone": "+1 918-615-2138", "ref": "Southern Trails", "shop": "shoes", "website": "https://stores.dsw.com/usa/ok/tulsa/dsw-designer-shoe-warehouse-southern-trails.html"}}}, {"type": "Feature", "geometry": {"type": "Polygon", "coordinates": [[[-95.8808054, 36.0604748], [-95.8806799, 36.0604752], [-95.8806801, 36.0605067], [-95.8805991, 36.0605069], [-95.880599, 36.0604757], [-95.8804741, 36.0604761], [-95.8804739, 36.0604233], [-95.8804619, 36.0604233], [-95.8804616, 36.0603565], [-95.8804757, 36.0603565], [-95.8804755, 36.0603045], [-95.8805987, 36.0603042], [-95.8805987, 36.0602927], [-95.8806811, 36.0602925], [-95.8806812, 36.0603033], [-95.880803, 36.0603029], [-95.8808032, 36.0603552], [-95.8808159, 36.0603551], [-95.8808162, 36.0604216], [-95.8808051, 36.0604216], [-95.8808054, 36.0604748]]]}, "properties": {"osm_id": 999058851, "building": "retail", "name": "Jared", "height": null, "height_m": null, "levels": null, "tract_id": "40143007646", "tract_name": "76.46", "tags": {"addr:city": "Tulsa", "addr:country": "US", "addr:housenumber": "8522", "addr:postcode": "74133", "addr:state": "OK", "addr:street": "East 71st Street South", "brand": "Jared", "brand:wikidata": "Q62029282", "building": "retail", "name": "Jared", "official_name": "Jared The Galleria of Jewelry", "opening_hours": "Mo-Sa 11:00-19:00; Su 12:00-18:00", "shop": "jewelry"}}}, {"type": "Feature", "geometry": {"type": "Polygon", "coordinates": [[[-95.8854405, 36.0603722], [-95.8854405, 36.0605597], [-95.8854049, 36.0605597], [-95.8854049, 36.0605776], [-95.8852829, 36.0605776], [-95.8852829, 36.0605597], [-95.8852467, 36.0605597], [-95.8852467, 36.0603722], [-95.8854405, 36.0603722]]]}, "properties": {"osm_id": 1005483012, "building": "yes", "name": "IBC Bank", "height": null, "height_m": null, "levels": null, "tract_id": "40143007646", "tract_name": "76.46", "tags": {"amenity": "bank", "building": "yes", "name": "IBC Bank"}}}, {"type": "Feature", "geometry": {"type": "Polygon", "coordinates": [[[-95.8715339, 36.0605039], [-95.8711893, 36.0605046], [-95.8711878, 36.0600345], [-95.8712655, 36.0600344], [-95.8712657, 36.0600881], [-95.8715326, 36.0600876], [-95.8715339, 36.0605039]]]}, "properties": {"osm_id": 1005605797, "building": "retail", "name": "Mattress Firm", "height": null, "height_m": null, "levels": null, "tract_id": "40143007646", "tract_name": "76.46", "tags": {"addr:city": "Tulsa", "addr:country": "US", "addr:housenumber": "9404", "addr:postcode": "74133", "addr:state": "OK", "addr:street": "East 71st Street South", "branch": "71st", "brand": "Mattress Firm", "brand:wikidata": "Q6791878", "building": "retail", "name": "Mattress Firm", "phone": "+1 918-770-9198", "ref": "241214", "shop": "bed", "website": "https://www.mattressfirm.com/en-us/stores/ok/tulsa/965005/"}}}, {"type": "Feature", "geometry": {"type": "Polygon", "coordinates": [[[-95.8723359, 36.0600572], [-95.8723412, 36.0604313], [-95.8722943, 36.0604317], [-95.8722945, 36.0604497], [-95.8719003, 36.0604534], [-95.8719, 36.0604354], [-95.8718763, 36.0604356], [-95.8718701, 36.0600028], [-95.8721044, 36.0600006], [-95.8721052, 36.0600594], [-95.8723359, 36.0600572]]]}, "properties": {"osm_id": 1005605798, "building": "retail", "name": "Saied Music", "height": null, "height_m": null, "levels": null, "tract_id": "40143007646", "tract_name": "76.46", "tags": {"addr:city": "Tulsa", "addr:country": "US", "addr:housenumber": "9318", "addr:postcode": "74133", "addr:state": "OK", "addr:street": "East 71st Street South", "building": "retail", "name": "Saied Music", "shop": "musical_instrument"}}}, {"type": "Feature", "geometry": {"type": "Polygon", "coordinates": [[[-95.8827201, 36.0605874], [-95.8825431, 36.0605878], [-95.8825417, 36.0602159], [-95.8827187, 36.0602155], [-95.8827201, 36.0605874]]]}, "properties": {"osm_id": 1005605799, "building": "yes", "name": "Firestone", "height": null, "height_m": null, "levels": null, "tract_id": "40143007646", "tract_name": "76.46", "tags": {"addr:city": "Tulsa", "addr:country": "US", "addr:housenumber": "8334", "addr:postcode": "74133", "addr:state": "OK", "addr:street": "East 71st Street South", "brand": "Firestone", "brand:wikidata": "Q420837", "building": "yes", "name": "Firestone", "official_name": "Firestone Complete Auto Care", "shop": "car_repair", "website": "https://www.firestonecompleteautocare.com/oklahoma/tulsa/8334-e-71st-st/"}}}, {"type": "Feature", "geometry": {"type": "Polygon", "coordinates": [[[-95.8839378, 36.0601711], [-95.8839405, 36.0605147], [-95.8838265, 36.0605153], [-95.8838238, 36.0601716], [-95.8839378, 36.0601711]]]}, "properties": {"osm_id": 1005605800, "building": "retail", "name": "Qdoba", "height": null, "height_m": null, "levels": null, "tract_id": "40143007646", "tract_name": "76.46", "tags": {"addr:city": "Tulsa", "addr:country": "US", "addr:housenumber": "8310", "addr:postcode": "74133", "addr:state": "OK", "addr:street": "East 71st Street South", "amenity": "fast_food", "brand": "Qdoba", "brand:wikidata": "Q1363885", "building": "retail", "cuisine": "mexican", "name": "Qdoba", "official_name": "Qdoba Mexican Eats", "takeaway": "yes"}}}, {"type": "Feature", "geometry": {"type": "Polygon", "coordinates": [[[-95.8780443, 36.0596149], [-95.8780523, 36.0600052], [-95.8780525, 36.0600322], [-95.8777078, 36.0600334], [-95.8777057, 36.059616], [-95.8780443, 36.0596149]]]}, "properties": {"osm_id": 1006327772, "building": "retail", "name": "", "height": null, "height_m": null, "levels": null, "tract_id": "40143007646", "tract_name": "76.46", "tags": {"building": "retail"}}}, {"type": "Feature", "geometry": {"type": "Polygon", "coordinates": [[[-95.8859863, 36.0595715], [-95.8857644, 36.0595726], [-95.8857636, 36.0594706], [-95.8859855, 36.0594695], [-95.8859863, 36.0595715]]]}, "properties": {"osm_id": 1070109642, "building": "retail", "name": "Domino's", "height": null, "height_m": null, "levels": null, "tract_id": "40143007646", "tract_name": "76.46", "tags": {"addr:city": "Tulsa", "addr:country": "US", "addr:housenumber": "7201", "addr:postcode": "74133", "addr:state": "OK", "addr:street": "South Memorial Drive East", "amenity": "fast_food", "brand": "Domino's", "brand:wikidata": "Q839466", "building": "retail", "check_date": "2024-10-26", "cuisine": "pizza", "name": "Domino's", "opening_hours": "Mo-Th 10:30-24:00; Fr-Sa 10:30-01:00; Su 10:30-24:00", "phone": "+1 918-481-6030", "ref": "6488", "takeaway": "yes", "website": "https://pizza.dominos.com/oklahoma/tulsa/7201-s-memorial-dr"}}}, {"type": "Feature", "geometry": {"type": "Polygon", "coordinates": [[[-95.8763193, 36.0598147], [-95.8763193, 36.059794], [-95.8763532, 36.0597939], [-95.8763516, 36.0593742], [-95.8763221, 36.0593742], [-95.876322, 36.0593542], [-95.8761769, 36.0593545], [-95.8761785, 36.059815], [-95.8763193, 36.0598147]]]}, "properties": {"osm_id": 1124035649, "building": "yes", "name": "Baymont Tulsa", "height": null, "height_m": null, "levels": null, "tract_id": "40143007646", "tract_name": "76.46", "tags": {"addr:city": "Tulsa", "addr:housenumber": "9020", "addr:postcode": "74133", "addr:state": "OK", "addr:street": "East 71st Street South", "branch": "Tulsa", "brand": "Baymont", "brand:wikidata": "Q4874634", "building": "yes", "name": "Baymont Tulsa", "official_name": "Baymont by Wyndham", "phone": "+1 918-615-4719", "ref": "53653", "tourism": "hotel", "website": "https://www.wyndhamhotels.com/baymont/tulsa-oklahoma/baymont-by-wyndham-tulsa/overview"}}}, {"type": "Feature", "geometry": {"type": "Polygon", "coordinates": [[[-95.8811371, 36.0596631], [-95.8812213, 36.0596623], [-95.8812216, 36.0596818], [-95.881407, 36.0596798], [-95.8814067, 36.0596579], [-95.8814939, 36.059657], [-95.8814944, 36.0596845], [-95.8815806, 36.0596836], [-95.8815802, 36.0596604], [-95.8817743, 36.0596582], [-95.8817739, 36.0596357], [-95.8818096, 36.0596353], [-95.8818046, 36.0593387], [-95.881576, 36.0593412], [-95.8815773, 36.0594144], [-95.8815432, 36.0594148], [-95.8815445, 36.0594938], [-95.8815929, 36.0594933], [-95.8815932, 36.0595069], [-95.8811346, 36.0595117], [-95.8811371, 36.0596631]]]}, "properties": {"osm_id": 1225896129, "building": "yes", "name": "Hampton Inn & Suites Tulsa-Woodland Hills 71st-Memorial", "height": null, "height_m": null, "levels": null, "tract_id": "40143007646", "tract_name": "76.46", "tags": {"addr:city": "Tulsa", "addr:housenumber": "7141", "addr:postcode": "74133", "addr:state": "OK", "addr:street": "South 85th East Avenue", "branch": "Tulsa-Woodland Hills 71st-Memorial", "brand": "Hampton Inn & Suites", "brand:wikidata": "Q5646230", "building": "yes", "name": "Hampton Inn & Suites Tulsa-Woodland Hills 71st-Memorial", "official_name": "Hampton Inn & Suites by Hilton", "phone": "+1 918-294-3300", "ref": "TULHSHX", "tourism": "hotel", "website": "https://www.hilton.com/en/hotels/tulhshx-hampton-suites-tulsa-woodland-hills-71st-memorial/"}}}, {"type": "Feature", "geometry": {"type": "Polygon", "coordinates": [[[-95.8849095, 36.0577408], [-95.8849104, 36.0578947], [-95.8849989, 36.0578944], [-95.8849997, 36.0580431], [-95.8854009, 36.0580416], [-95.8857362, 36.0580404], [-95.8858741, 36.0580399], [-95.8858724, 36.0577374], [-95.8849095, 36.0577408]]]}, "properties": {"osm_id": 1235075455, "building": "yes", "name": "", "height": null, "height_m": null, "levels": null, "tract_id": "40143007646", "tract_name": "76.46", "tags": {"addr:city": "Tulsa", "addr:country": "US", "addr:housenumber": "7309", "addr:postcode": "74133", "addr:state": "OK", "addr:street": "South Memorial Drive East", "building": "yes"}}}, {"type": "Feature", "geometry": {"type": "Polygon", "coordinates": [[[-95.8841248, 36.0571717], [-95.8845254, 36.0572248], [-95.8845455, 36.0571255], [-95.8845654, 36.0571282], [-95.8845763, 36.0570744], [-95.8840549, 36.0570053], [-95.8840303, 36.0571267], [-95.8841312, 36.0571401], [-95.8841248, 36.0571717]]]}, "properties": {"osm_id": 1235075456, "building": "yes", "name": "", "height": null, "height_m": null, "levels": null, "tract_id": "40143007646", "tract_name": "76.46", "tags": {"building": "yes", "source": "microsoft/BuildingFootprints"}}}, {"type": "Feature", "geometry": {"type": "Polygon", "coordinates": [[[-95.8855632, 36.0563847], [-95.8850043, 36.0563893], [-95.8850064, 36.0565606], [-95.8851711, 36.0565593], [-95.8851725, 36.0566698], [-95.8852396, 36.0566693], [-95.8852388, 36.0566129], [-95.8853112, 36.0566123], [-95.885311, 36.0566005], [-95.8855633, 36.0565984], [-95.8855624, 36.0565355], [-95.8855855, 36.0565353], [-95.8855843, 36.0564452], [-95.885564, 36.0564454], [-95.8855632, 36.0563847]]]}, "properties": {"osm_id": 1235075457, "building": "church", "name": "Hibachi Grill Super Buffet", "height": null, "height_m": null, "levels": null, "tract_id": "40143007646", "tract_name": "76.46", "tags": {"amenity": "restaurant", "building": "church", "check_date": "2022-09-10", "cuisine": "chinese", "name": "Hibachi Grill Super Buffet", "opening_hours": "11:00-21:00", "source": "microsoft/BuildingFootprints", "website": "https://hibachigrillok.com/"}}}, {"type": "Feature", "geometry": {"type": "Polygon", "coordinates": [[[-95.8857544, 36.0559407], [-95.8854793, 36.0559403], [-95.8854794, 36.0559172], [-95.8854794, 36.0558979], [-95.8854016, 36.0558978], [-95.8854016, 36.0559176], [-95.8854015, 36.0559402], [-95.8853264, 36.0559401], [-95.8853263, 36.0559987], [-95.8852887, 36.0559986], [-95.8852886, 36.0560442], [-95.8853316, 36.0560442], [-95.8853314, 36.0561006], [-95.8853663, 36.0561007], [-95.8853661, 36.0561939], [-95.8853516, 36.0561939], [-95.8853515, 36.0562719], [-95.8857001, 36.0562724], [-95.8857004, 36.0561596], [-95.8855046, 36.0561594], [-95.8855047, 36.056104], [-95.8857541, 36.0561043], [-95.8857544, 36.0559407]]]}, "properties": {"osm_id": 1235075458, "building": "church", "name": "", "height": null, "height_m": null, "levels": null, "tract_id": "40143007646", "tract_name": "76.46", "tags": {"addr:city": "Tulsa", "addr:country": "US", "addr:housenumber": "7401", "addr:postcode": "74133", "addr:state": "OK", "addr:street": "South Memorial Drive East", "amenity": "place_of_worship", "building": "church", "religion": "christian", "source": "microsoft/BuildingFootprints;INCOG"}}}, {"type": "Feature", "geometry": {"type": "Polygon", "coordinates": [[[-95.8858857, 36.0557052], [-95.885881, 36.0555687], [-95.8858515, 36.0555694], [-95.8858497, 36.0555152], [-95.88578, 36.0555168], [-95.8857817, 36.0555654], [-95.8857575, 36.0555659], [-95.8857559, 36.0555173], [-95.8856862, 36.0555189], [-95.8856878, 36.0555666], [-95.885661, 36.0555672], [-95.8856593, 36.0555173], [-95.8855896, 36.0555189], [-95.8855913, 36.0555666], [-95.8855671, 36.0555671], [-95.8855654, 36.0555173], [-95.8854957, 36.0555188], [-95.8854975, 36.0555687], [-95.8854707, 36.0555693], [-95.8854689, 36.0555173], [-95.8854019, 36.0555188], [-95.8854036, 36.0555686], [-95.8853768, 36.0555692], [-95.885375, 36.0555172], [-95.8853053, 36.0555188], [-95.8853122, 36.0557203], [-95.8857866, 36.0557096], [-95.8857871, 36.0557226], [-95.8858353, 36.0557215], [-95.8858348, 36.0557064], [-95.8858857, 36.0557052]]]}, "properties": {"osm_id": 1235075459, "building": "yes", "name": "", "height": null, "height_m": null, "levels": null, "tract_id": "40143007646", "tract_name": "76.46", "tags": {"building": "yes", "source": "microsoft/BuildingFootprints"}}}, {"type": "Feature", "geometry": {"type": "Polygon", "coordinates": [[[-95.885176, 36.0557416], [-95.8851785, 36.0555941], [-95.8851448, 36.0555938], [-95.8851456, 36.0555461], [-95.8850506, 36.055545], [-95.8850498, 36.0555915], [-95.8850257, 36.0555913], [-95.8850265, 36.0555426], [-95.8849552, 36.0555418], [-95.8849544, 36.0555926], [-95.8849291, 36.0555924], [-95.8849299, 36.0555415], [-95.8848614, 36.0555408], [-95.8848605, 36.0555928], [-95.8848364, 36.0555925], [-95.8848372, 36.0555427], [-95.8847663, 36.0555419], [-95.8847655, 36.0555906], [-95.8847398, 36.0555903], [-95.8847407, 36.0555416], [-95.8846709, 36.0555408], [-95.8846701, 36.0555928], [-95.8846459, 36.0555926], [-95.8846467, 36.055547], [-95.8845528, 36.055546], [-95.8845495, 36.0557411], [-95.8847212, 36.055743], [-95.8847213, 36.0557365], [-95.885176, 36.0557416]]]}, "properties": {"osm_id": 1235075460, "building": "yes", "name": "", "height": null, "height_m": null, "levels": null, "tract_id": "40143007646", "tract_name": "76.46", "tags": {"building": "yes", "source": "microsoft/BuildingFootprints"}}}, {"type": "Feature", "geometry": {"type": "Polygon", "coordinates": [[[-95.8837987, 36.0557497], [-95.8844263, 36.0557496], [-95.8844263, 36.0556022], [-95.8843941, 36.0556022], [-95.8843941, 36.0555545], [-95.8842841, 36.0555545], [-95.8842841, 36.0555502], [-95.8842037, 36.0555502], [-95.8842037, 36.0556022], [-95.8841768, 36.0556022], [-95.8841768, 36.0555502], [-95.8840937, 36.0555502], [-95.8840937, 36.0555523], [-95.8840132, 36.0555524], [-95.8840132, 36.0556022], [-95.8839864, 36.0556022], [-95.8839864, 36.0555524], [-95.8839193, 36.0555524], [-95.8839194, 36.0556001], [-95.8838925, 36.0556001], [-95.8838925, 36.0555545], [-95.8837987, 36.0555545], [-95.8837987, 36.0557497]]]}, "properties": {"osm_id": 1235075461, "building": "yes", "name": "", "height": null, "height_m": null, "levels": null, "tract_id": "40143007646", "tract_name": "76.46", "tags": {"building": "yes", "source": "microsoft/BuildingFootprints"}}}, {"type": "Feature", "geometry": {"type": "Polygon", "coordinates": [[[-95.8832876, 36.0557578], [-95.8834792, 36.0557547], [-95.8834792, 36.0557557], [-95.8835719, 36.0557542], [-95.8835721, 36.0557629], [-95.883623, 36.0557621], [-95.8836227, 36.055748], [-95.8836736, 36.0557472], [-95.8836702, 36.0556106], [-95.883638, 36.0556111], [-95.8836367, 36.0555569], [-95.883567, 36.0555581], [-95.8835683, 36.0556112], [-95.8835415, 36.0556116], [-95.8835401, 36.0555563], [-95.8834731, 36.0555574], [-95.8834743, 36.0556051], [-95.8834475, 36.0556055], [-95.8834462, 36.0555568], [-95.8833792, 36.0555579], [-95.8833805, 36.0556099], [-95.8833537, 36.0556103], [-95.8833524, 36.0555583], [-95.8832827, 36.0555594], [-95.8832876, 36.0557578]]]}, "properties": {"osm_id": 1235075462, "building": "yes", "name": "", "height": null, "height_m": null, "levels": null, "tract_id": "40143007646", "tract_name": "76.46", "tags": {"building": "yes", "source": "microsoft/BuildingFootprints"}}}, {"type": "Feature", "geometry": {"type": "Polygon", "coordinates": [[[-95.883377, 36.055916], [-95.8833774, 36.0559616], [-95.8833944, 36.0559615], [-95.8833946, 36.055991], [-95.8833801, 36.0559911], [-95.8833805, 36.0560381], [-95.8833954, 36.056038], [-95.8833956, 36.0560708], [-95.883383, 36.0560708], [-95.8833832, 36.0561151], [-95.8833954, 36.0561151], [-95.8833956, 36.0561474], [-95.8833826, 36.0561475], [-95.8833828, 36.0561913], [-95.8833962, 36.0561912], [-95.8833963, 36.0562233], [-95.8833794, 36.0562233], [-95.8833795, 36.0562657], [-95.8834006, 36.0562656], [-95.8834008, 36.0563028], [-95.883376, 36.0563029], [-95.8833762, 36.0563438], [-95.8834066, 36.0563437], [-95.8834067, 36.0563809], [-95.8835637, 36.0563804], [-95.8835635, 36.0563541], [-95.8836329, 36.0563539], [-95.8836326, 36.0563051], [-95.8835639, 36.0563053], [-95.8835638, 36.0562783], [-95.8836351, 36.056278], [-95.8836348, 36.0562264], [-95.8835648, 36.0562267], [-95.8835646, 36.0562024], [-95.8836383, 36.0562021], [-95.883638, 36.0561499], [-95.8835666, 36.0561502], [-95.8835665, 36.0561257], [-95.8836372, 36.0561253], [-95.8836368, 36.0560718], [-95.8835671, 36.0560721], [-95.8835669, 36.0560494], [-95.8836385, 36.0560491], [-95.883638, 36.0559939], [-95.8835741, 36.0559942], [-95.8835739, 36.055976], [-95.8836414, 36.0559757], [-95.8836409, 36.0559146], [-95.883377, 36.055916]]]}, "properties": {"osm_id": 1235075463, "building": "yes", "name": "", "height": null, "height_m": null, "levels": null, "tract_id": "40143007646", "tract_name": "76.46", "tags": {"building": "yes", "source": "microsoft/BuildingFootprints"}}}, {"type": "Feature", "geometry": {"type": "Polygon", "coordinates": [[[-95.8838565, 36.0566767], [-95.8838293, 36.0565326], [-95.8837926, 36.0565371], [-95.8837834, 36.0564883], [-95.8836759, 36.0565016], [-95.8836755, 36.0564995], [-95.8835943, 36.0565095], [-95.8836041, 36.0565614], [-95.8835805, 36.0565643], [-95.8835711, 36.0565145], [-95.8835029, 36.0565229], [-95.8835121, 36.0565717], [-95.8834859, 36.0565749], [-95.8834775, 36.0565304], [-95.8833873, 36.0565415], [-95.8834233, 36.0567322], [-95.8836419, 36.0567053], [-95.8836415, 36.0567032], [-95.8838565, 36.0566767]]]}, "properties": {"osm_id": 1235075464, "building": "yes", "name": "", "height": null, "height_m": null, "levels": null, "tract_id": "40143007646", "tract_name": "76.46", "tags": {"building": "yes", "source": "microsoft/BuildingFootprints"}}}, {"type": "Feature", "geometry": {"type": "Polygon", "coordinates": [[[-95.8831771, 36.0562557], [-95.8829889, 36.0562574], [-95.8829893, 36.056285], [-95.8829248, 36.0562855], [-95.8829259, 36.0563653], [-95.882994, 36.0563647], [-95.8829942, 36.0563843], [-95.8829231, 36.0563848], [-95.8829238, 36.0564445], [-95.8829932, 36.056444], [-95.8829933, 36.0564596], [-95.8829219, 36.05646], [-95.8829225, 36.0565213], [-95.8829929, 36.0565208], [-95.882993, 36.0565383], [-95.8829221, 36.0565387], [-95.8829226, 36.0565969], [-95.8829953, 36.0565965], [-95.8829955, 36.0566169], [-95.8829265, 36.0566173], [-95.8829269, 36.0566715], [-95.8830001, 36.0566711], [-95.8830003, 36.0566949], [-95.8829321, 36.0566953], [-95.8829328, 36.0567676], [-95.8831627, 36.0567662], [-95.8831625, 36.0567442], [-95.8831784, 36.0567441], [-95.8831776, 36.0566685], [-95.8831846, 36.0566684], [-95.883184, 36.0566306], [-95.8831638, 36.0566308], [-95.8831631, 36.0565923], [-95.8831835, 36.056592], [-95.8831829, 36.056552], [-95.8831628, 36.0565522], [-95.8831622, 36.0565147], [-95.8831845, 36.0565145], [-95.8831838, 36.0564741], [-95.8831657, 36.0564743], [-95.8831651, 36.0564407], [-95.8831864, 36.0564405], [-95.8831856, 36.0563962], [-95.8831668, 36.0563964], [-95.883166, 36.0563435], [-95.8831784, 36.0563434], [-95.8831771, 36.0562557]]]}, "properties": {"osm_id": 1235075465, "building": "yes", "name": "", "height": null, "height_m": null, "levels": null, "tract_id": "40143007646", "tract_name": "76.46", "tags": {"building": "yes", "source": "microsoft/BuildingFootprints"}}}, {"type": "Feature", "geometry": {"type": "Polygon", "coordinates": [[[-95.8825158, 36.0559295], [-95.8825165, 36.056075], [-95.8825563, 36.0560749], [-95.8825565, 36.056124], [-95.8826458, 36.0561237], [-95.8826456, 36.056074], [-95.8826729, 36.0560739], [-95.8826732, 36.0561293], [-95.882742, 36.0561291], [-95.8827418, 36.0560749], [-95.882768, 36.0560749], [-95.8827683, 36.0561293], [-95.8828346, 36.056129], [-95.8828344, 36.0560749], [-95.882862, 36.0560748], [-95.8828622, 36.0561303], [-95.8829329, 36.0561301], [-95.8829327, 36.0560762], [-95.8829542, 36.0560762], [-95.8829545, 36.0561313], [-95.8830274, 36.0561311], [-95.8830271, 36.056075], [-95.8830513, 36.056075], [-95.8830515, 36.0561254], [-95.8831485, 36.0561251], [-95.8831478, 36.0559395], [-95.8831185, 36.0559396], [-95.8831185, 36.0559299], [-95.8830239, 36.0559301], [-95.8830238, 36.0559225], [-95.8829745, 36.0559227], [-95.8829745, 36.0559383], [-95.8829297, 36.0559384], [-95.8829297, 36.0559225], [-95.8828814, 36.0559226], [-95.8828815, 36.0559389], [-95.8828323, 36.055939], [-95.8828323, 36.0559232], [-95.8827872, 36.0559233], [-95.8827872, 36.0559398], [-95.8827375, 36.0559399], [-95.8827374, 36.0559246], [-95.8826938, 36.0559247], [-95.8826939, 36.0559406], [-95.882618, 36.0559408], [-95.8826179, 36.0559292], [-95.8825158, 36.0559295]]]}, "properties": {"osm_id": 1235075466, "building": "yes", "name": "", "height": null, "height_m": null, "levels": null, "tract_id": "40143007646", "tract_name": "76.46", "tags": {"building": "yes", "source": "microsoft/BuildingFootprints"}}}, {"type": "Feature", "geometry": {"type": "Polygon", "coordinates": [[[-95.8825085, 36.0562637], [-95.8825134, 36.0565933], [-95.8825118, 36.0565933], [-95.8825144, 36.0567721], [-95.8826914, 36.0567704], [-95.882691, 36.0567444], [-95.8827543, 36.0567438], [-95.8827532, 36.0566657], [-95.8826953, 36.0566663], [-95.882695, 36.0566468], [-95.8827583, 36.0566461], [-95.8827574, 36.0565887], [-95.882693, 36.0565893], [-95.8826927, 36.0565698], [-95.8827609, 36.0565692], [-95.88276, 36.0565128], [-95.8826946, 36.0565134], [-95.8826943, 36.0564928], [-95.8827586, 36.0564922], [-95.8827576, 36.056425], [-95.8827587, 36.056425], [-95.8827577, 36.0563567], [-95.8826934, 36.0563573], [-95.8826931, 36.0563389], [-95.8827521, 36.0563383], [-95.8827509, 36.0562613], [-95.8825085, 36.0562637]]]}, "properties": {"osm_id": 1235075467, "building": "yes", "name": "", "height": null, "height_m": null, "levels": null, "tract_id": "40143007646", "tract_name": "76.46", "tags": {"building": "yes", "source": "microsoft/BuildingFootprints"}}}, {"type": "Feature", "geometry": {"type": "Polygon", "coordinates": [[[-95.8822814, 36.0559229], [-95.8821098, 36.0559257], [-95.8821104, 36.0559474], [-95.882046, 36.0559485], [-95.8820481, 36.0560308], [-95.8821044, 36.0560299], [-95.8821049, 36.0560494], [-95.8820486, 36.0560503], [-95.8820506, 36.0561284], [-95.8821069, 36.0561274], [-95.8821074, 36.0561469], [-95.8820484, 36.0561479], [-95.8820506, 36.0562346], [-95.8820479, 36.0562347], [-95.8820501, 36.0563235], [-95.8822914, 36.0563195], [-95.8822814, 36.0559229]]]}, "properties": {"osm_id": 1235075468, "building": "yes", "name": "", "height": null, "height_m": null, "levels": null, "tract_id": "40143007646", "tract_name": "76.46", "tags": {"building": "yes", "source": "microsoft/BuildingFootprints"}}}, {"type": "Feature", "geometry": {"type": "Polygon", "coordinates": [[[-95.8822935, 36.0563769], [-95.8821111, 36.0563747], [-95.8821106, 36.0564029], [-95.88205, 36.0564022], [-95.8820486, 36.0564824], [-95.8821049, 36.0564831], [-95.8821046, 36.0565004], [-95.8820499, 36.0564998], [-95.8820484, 36.0565788], [-95.8821074, 36.0565795], [-95.8821071, 36.056598], [-95.8820508, 36.0565974], [-95.8820494, 36.0566754], [-95.8821057, 36.0566761], [-95.8821053, 36.0566977], [-95.88205, 36.0566971], [-95.8820487, 36.0567708], [-95.8822863, 36.0567736], [-95.8822935, 36.0563769]]]}, "properties": {"osm_id": 1235075469, "building": "yes", "name": "", "height": null, "height_m": null, "levels": null, "tract_id": "40143007646", "tract_name": "76.46", "tags": {"building": "yes", "source": "microsoft/BuildingFootprints"}}}, {"type": "Feature", "geometry": {"type": "Polygon", "coordinates": [[[-95.8823953, 36.0569425], [-95.8823932, 36.057091], [-95.882428, 36.0570913], [-95.8824273, 36.057139], [-95.8825212, 36.0571399], [-95.8825219, 36.0570933], [-95.882546, 36.0570936], [-95.8825454, 36.0571391], [-95.8826419, 36.05714], [-95.8826426, 36.0570923], [-95.8826667, 36.0570925], [-95.8826661, 36.0571391], [-95.8827626, 36.0571401], [-95.8827633, 36.0570935], [-95.8827874, 36.0570937], [-95.8827868, 36.0571392], [-95.8828816, 36.0571401], [-95.8828823, 36.0570935], [-95.8829081, 36.0570937], [-95.8829075, 36.0571393], [-95.883004, 36.0571402], [-95.8830047, 36.0570936], [-95.8830288, 36.0570938], [-95.8830282, 36.0571394], [-95.883122, 36.0571403], [-95.8831248, 36.0569495], [-95.8823953, 36.0569425]]]}, "properties": {"osm_id": 1235075470, "building": "yes", "name": "", "height": null, "height_m": null, "levels": null, "tract_id": "40143007646", "tract_name": "76.46", "tags": {"building": "yes", "source": "microsoft/BuildingFootprints"}}}, {"type": "Feature", "geometry": {"type": "Polygon", "coordinates": [[[-95.8832512, 36.0569416], [-95.8832505, 36.0570847], [-95.8832853, 36.0570848], [-95.8832851, 36.0571325], [-95.88338, 36.0571328], [-95.8833802, 36.0570862], [-95.883406, 36.0570863], [-95.8834058, 36.0571372], [-95.8834862, 36.0571375], [-95.8834862, 36.0571364], [-95.8835677, 36.0571367], [-95.883568, 36.0570836], [-95.8835948, 36.0570836], [-95.8835945, 36.0571379], [-95.8836632, 36.0571381], [-95.8836643, 36.0569354], [-95.8834229, 36.0569346], [-95.8834228, 36.0569421], [-95.8832512, 36.0569416]]]}, "properties": {"osm_id": 1235075471, "building": "yes", "name": "", "height": null, "height_m": null, "levels": null, "tract_id": "40143007646", "tract_name": "76.46", "tags": {"building": "yes", "source": "microsoft/BuildingFootprints"}}}, {"type": "Feature", "geometry": {"type": "Polygon", "coordinates": [[[-95.8843271, 36.0577366], [-95.8843282, 36.0575154], [-95.8840663, 36.0575146], [-95.8840652, 36.0577357], [-95.8843271, 36.0577366]]]}, "properties": {"osm_id": 1235075475, "building": "yes", "name": "", "height": null, "height_m": 3.0, "levels": 1, "tract_id": "40143007646", "tract_name": "76.46", "tags": {"addr:city": "Tulsa", "addr:country": "US", "addr:housenumber": "8246", "addr:postcode": "74133", "addr:state": "OK", "addr:street": "East 73rd Street South", "building": "yes", "building:levels": "1", "roof:colour": "white", "roof:levels": "0", "roof:shape": "flat"}}}, {"type": "Feature", "geometry": {"type": "Polygon", "coordinates": [[[-95.884392, 36.0579583], [-95.8845153, 36.0579569], [-95.8845102, 36.0576577], [-95.8843869, 36.0576591], [-95.884392, 36.0579583]]]}, "properties": {"osm_id": 1235075476, "building": "office", "name": "", "height": null, "height_m": 3.0, "levels": 1, "tract_id": "40143007646", "tract_name": "76.46", "tags": {"addr:city": "Tulsa", "addr:country": "US", "addr:housenumber": "8208", "addr:postcode": "74133", "addr:state": "OK", "addr:street": "East 73rd Street South", "building": "office", "building:levels": "1", "roof:colour": "white", "roof:levels": "0", "roof:shape": "flat"}}}, {"type": "Feature", "geometry": {"type": "Polygon", "coordinates": [[[-95.8848667, 36.0598083], [-95.8843947, 36.0598106], [-95.8844002, 36.0605619], [-95.8848722, 36.0605597], [-95.8848667, 36.0598083]]]}, "properties": {"osm_id": 1235075477, "building": "retail", "name": "", "height": null, "height_m": 3.0, "levels": 1, "tract_id": "40143007646", "tract_name": "76.46", "tags": {"addr:city": "Tulsa", "addr:country": "US", "addr:housenumber": "8210", "addr:postcode": "74133", "addr:state": "OK", "addr:street": "East 71st Street South", "building": "retail", "building:levels": "1", "roof:levels": "0", "roof:shape": "flat"}}}, {"type": "Feature", "geometry": {"type": "Polygon", "coordinates": [[[-95.8844277, 36.0595604], [-95.8841182, 36.0595623], [-95.8841183, 36.0595786], [-95.8840229, 36.0595792], [-95.8840246, 36.0597581], [-95.8841185, 36.0597575], [-95.8841183, 36.0597423], [-95.8844294, 36.0597403], [-95.8844277, 36.0595604]]]}, "properties": {"osm_id": 1235075478, "building": "retail", "name": "", "height": null, "height_m": null, "levels": null, "tract_id": "40143007646", "tract_name": "76.46", "tags": {"building": "retail"}}}, {"type": "Feature", "geometry": {"type": "Polygon", "coordinates": [[[-95.8848712, 36.0595618], [-95.8848712, 36.0597396], [-95.8853191, 36.0597396], [-95.8853191, 36.0595618], [-95.8848712, 36.0595618]]]}, "properties": {"osm_id": 1235075479, "building": "retail", "name": "", "height": null, "height_m": null, "levels": null, "tract_id": "40143007646", "tract_name": "76.46", "tags": {"building": "retail"}}}, {"type": "Feature", "geometry": {"type": "Polygon", "coordinates": [[[-95.8705335, 36.0596833], [-95.8703469, 36.0596831], [-95.8703467, 36.0597621], [-95.8703521, 36.0597621], [-95.8703518, 36.0599368], [-95.8701602, 36.0599365], [-95.8701605, 36.0597619], [-95.870167, 36.0597619], [-95.8701672, 36.059686], [-95.8699875, 36.0596857], [-95.8699866, 36.0601119], [-95.8698728, 36.0601118], [-95.8698727, 36.0601865], [-95.8699892, 36.0601866], [-95.8699884, 36.0606138], [-95.8701696, 36.060614], [-95.8701697, 36.0605403], [-95.8701629, 36.0605403], [-95.8701632, 36.0603603], [-95.8703578, 36.0603606], [-95.8703575, 36.0605405], [-95.8703494, 36.0605405], [-95.8703493, 36.0606121], [-95.8705317, 36.0606123], [-95.8705335, 36.0596833]]]}, "properties": {"osm_id": 1235076318, "building": "yes", "name": "", "height": null, "height_m": null, "levels": null, "tract_id": "40143007646", "tract_name": "76.46", "tags": {"building": "yes", "source": "microsoft/BuildingFootprints"}}}, {"type": "Feature", "geometry": {"type": "Polygon", "coordinates": [[[-95.8725647, 36.0597588], [-95.8725649, 36.0599171], [-95.8733186, 36.0599165], [-95.8733184, 36.0597582], [-95.8725647, 36.0597588]]]}, "properties": {"osm_id": 1235076319, "building": "yes", "name": "", "height": null, "height_m": null, "levels": null, "tract_id": "40143007646", "tract_name": "76.46", "tags": {"addr:city": "Tulsa", "addr:country": "US", "addr:housenumber": "7123", "addr:postcode": "74133", "addr:state": "OK", "addr:street": "South 92nd Avenue East", "building": "yes"}}}, {"type": "Feature", "geometry": {"type": "Polygon", "coordinates": [[[-95.8693701, 36.0603392], [-95.8689463, 36.060342], [-95.8689481, 36.060525], [-95.8693719, 36.0605222], [-95.8693701, 36.0603392]]]}, "properties": {"osm_id": 1235076320, "building": "retail", "name": "", "height": null, "height_m": null, "levels": null, "tract_id": "40143007646", "tract_name": "76.46", "tags": {"addr:city": "Tulsa", "addr:country": "US", "addr:housenumber": "9606", "addr:postcode": "74133", "addr:state": "OK", "addr:street": "East 71st Street South", "building": "retail"}}}, {"type": "Feature", "geometry": {"type": "Polygon", "coordinates": [[[-95.8691147, 36.0599921], [-95.8690878, 36.0599925], [-95.8690857, 36.0598841], [-95.8689892, 36.0598853], [-95.86899, 36.0599252], [-95.8689524, 36.0599257], [-95.8689537, 36.0599929], [-95.8689216, 36.0599934], [-95.868925, 36.0601646], [-95.869118, 36.0601621], [-95.8691147, 36.0599921]]]}, "properties": {"osm_id": 1235076321, "building": "retail", "name": "", "height": null, "height_m": null, "levels": null, "tract_id": "40143007646", "tract_name": "76.46", "tags": {"building": "retail", "source": "microsoft/BuildingFootprints"}}}, {"type": "Feature", "geometry": {"type": "Polygon", "coordinates": [[[-95.8695709, 36.0593495], [-95.8693671, 36.0593502], [-95.8693675, 36.0594422], [-95.8693407, 36.0594423], [-95.8693416, 36.0596092], [-95.8693684, 36.0596091], [-95.8693692, 36.0597718], [-95.8693397, 36.0597719], [-95.8693406, 36.0599401], [-95.8693862, 36.0599399], [-95.8693872, 36.0601338], [-95.8695079, 36.0601334], [-95.8695081, 36.0601823], [-95.8695752, 36.0601821], [-95.8695709, 36.0593495]]]}, "properties": {"osm_id": 1235076322, "building": "yes", "name": "", "height": null, "height_m": null, "levels": null, "tract_id": "40143007646", "tract_name": "76.46", "tags": {"building": "yes", "source": "microsoft/BuildingFootprints"}}}, {"type": "Feature", "geometry": {"type": "Polygon", "coordinates": [[[-95.8695678, 36.0584553], [-95.8693666, 36.0584553], [-95.8693667, 36.0585659], [-95.8693345, 36.0585659], [-95.8693346, 36.0587329], [-95.8693684, 36.0587329], [-95.8693684, 36.0588955], [-95.8693389, 36.0588955], [-95.869339, 36.0590624], [-95.8693658, 36.0590624], [-95.8693658, 36.0592306], [-95.8694447, 36.0592306], [-95.8694447, 36.0592749], [-95.8695681, 36.0592749], [-95.8695678, 36.0584553]]]}, "properties": {"osm_id": 1235076323, "building": "yes", "name": "", "height": null, "height_m": null, "levels": null, "tract_id": "40143007646", "tract_name": "76.46", "tags": {"building": "yes", "source": "microsoft/BuildingFootprints"}}}, {"type": "Feature", "geometry": {"type": "Polygon", "coordinates": [[[-95.8691218, 36.0590458], [-95.8690859, 36.0590455], [-95.869087, 36.058935], [-95.8690049, 36.0589344], [-95.8690046, 36.0589605], [-95.8689258, 36.05896], [-95.8689255, 36.0589903], [-95.868948, 36.0589904], [-95.8689474, 36.059049], [-95.8689233, 36.0590488], [-95.8689217, 36.0592136], [-95.8689512, 36.0592138], [-95.8689495, 36.0593851], [-95.8689243, 36.0593849], [-95.8689228, 36.0595432], [-95.8689507, 36.0595434], [-95.8689502, 36.0595976], [-95.8689207, 36.0595974], [-95.8689201, 36.0596525], [-95.8690864, 36.0596536], [-95.8690875, 36.0595421], [-95.869117, 36.0595423], [-95.8691186, 36.0593775], [-95.8690837, 36.0593773], [-95.8690853, 36.0592125], [-95.8691202, 36.0592127], [-95.8691218, 36.0590458]]]}, "properties": {"osm_id": 1235076324, "building": "yes", "name": "", "height": null, "height_m": null, "levels": null, "tract_id": "40143007646", "tract_name": "76.46", "tags": {"building": "yes", "source": "microsoft/BuildingFootprints"}}}, {"type": "Feature", "geometry": {"type": "Polygon", "coordinates": [[[-95.869173, 36.0585536], [-95.8691704, 36.0584192], [-95.86893, 36.0584223], [-95.8689306, 36.0584526], [-95.8689226, 36.0584527], [-95.8689238, 36.0585134], [-95.8689854, 36.0585126], [-95.8689863, 36.058556], [-95.869173, 36.0585536]]]}, "properties": {"osm_id": 1235076325, "building": "yes", "name": "", "height": null, "height_m": null, "levels": null, "tract_id": "40143007646", "tract_name": "76.46", "tags": {"building": "yes", "source": "microsoft/BuildingFootprints"}}}, {"type": "Feature", "geometry": {"type": "Polygon", "coordinates": [[[-95.8694753, 36.0581988], [-95.8694753, 36.0577751], [-95.8694243, 36.0577751], [-95.8694243, 36.0577339], [-95.8692205, 36.0577339], [-95.8692205, 36.0577998], [-95.8689657, 36.0577998], [-95.8689657, 36.0580266], [-95.8689138, 36.0580266], [-95.8689138, 36.0580925], [-95.8689657, 36.0580925], [-95.8689657, 36.0581988], [-95.8694753, 36.0581988]]]}, "properties": {"osm_id": 1235076326, "building": "retail", "name": "", "height": null, "height_m": null, "levels": null, "tract_id": "40143007646", "tract_name": "76.46", "tags": {"addr:city": "Tulsa", "addr:country": "US", "addr:housenumber": "7222", "addr:postcode": "74133", "addr:state": "OK", "addr:street": "South Mingo Road East", "building": "retail", "source": "microsoft/BuildingFootprints;INCOG"}}}, {"type": "Feature", "geometry": {"type": "Polygon", "coordinates": [[[-95.8687855, 36.0576503], [-95.8693461, 36.0576505], [-95.8693462, 36.0574262], [-95.8688286, 36.0574261], [-95.8688285, 36.0575367], [-95.8687856, 36.0575367], [-95.8687855, 36.0576503]]]}, "properties": {"osm_id": 1235076327, "building": "yes", "name": "", "height": null, "height_m": null, "levels": null, "tract_id": "40143007646", "tract_name": "76.46", "tags": {"building": "yes", "source": "microsoft/BuildingFootprints"}}}, {"type": "Feature", "geometry": {"type": "Polygon", "coordinates": [[[-95.8708281, 36.0597973], [-95.8709139, 36.0597977], [-95.870918, 36.0592187], [-95.8708322, 36.0592184], [-95.8708281, 36.0597973]]]}, "properties": {"osm_id": 1235076328, "building": "yes", "name": "", "height": null, "height_m": null, "levels": null, "tract_id": "40143007646", "tract_name": "76.46", "tags": {"building": "yes", "source": "microsoft/BuildingFootprints"}}}, {"type": "Feature", "geometry": {"type": "Polygon", "coordinates": [[[-95.8711037, 36.0596923], [-95.8710007, 36.0596928], [-95.8710057, 36.0604365], [-95.8711088, 36.060436], [-95.8711037, 36.0596923]]]}, "properties": {"osm_id": 1235076329, "building": "yes", "name": "", "height": null, "height_m": null, "levels": null, "tract_id": "40143007646", "tract_name": "76.46", "tags": {"building": "yes", "source": "microsoft/BuildingFootprints"}}}, {"type": "Feature", "geometry": {"type": "Polygon", "coordinates": [[[-95.8709191, 36.0598281], [-95.8708348, 36.0598277], [-95.87083, 36.0605107], [-95.8709143, 36.060511], [-95.8709191, 36.0598281]]]}, "properties": {"osm_id": 1235076330, "building": "yes", "name": "", "height": null, "height_m": null, "levels": null, "tract_id": "40143007646", "tract_name": "76.46", "tags": {"building": "yes", "source": "microsoft/BuildingFootprints"}}}, {"type": "Feature", "geometry": {"type": "Polygon", "coordinates": [[[-95.8709982, 36.0593465], [-95.8710042, 36.059623], [-95.8711425, 36.059621], [-95.8711437, 36.059476], [-95.8711366, 36.0593446], [-95.8709982, 36.0593465]]]}, "properties": {"osm_id": 1235076331, "building": "yes", "name": "", "height": null, "height_m": null, "levels": null, "tract_id": "40143007646", "tract_name": "76.46", "tags": {"building": "yes", "source": "microsoft/BuildingFootprints"}}}, {"type": "Feature", "geometry": {"type": "Polygon", "coordinates": [[[-95.871223, 36.0596208], [-95.8713276, 36.0596197], [-95.8713231, 36.0593444], [-95.8712186, 36.0593455], [-95.871223, 36.0596208]]]}, "properties": {"osm_id": 1235076332, "building": "yes", "name": "", "height": null, "height_m": null, "levels": null, "tract_id": "40143007646", "tract_name": "76.46", "tags": {"building": "yes", "source": "microsoft/BuildingFootprints"}}}, {"type": "Feature", "geometry": {"type": "Polygon", "coordinates": [[[-95.8713921, 36.0596198], [-95.8714779, 36.0596193], [-95.8714754, 36.0593451], [-95.8713895, 36.0593456], [-95.8713921, 36.0596198]]]}, "properties": {"osm_id": 1235076333, "building": "yes", "name": "", "height": null, "height_m": null, "levels": null, "tract_id": "40143007646", "tract_name": "76.46", "tags": {"building": "yes", "source": "microsoft/BuildingFootprints"}}}, {"type": "Feature", "geometry": {"type": "Polygon", "coordinates": [[[-95.8715435, 36.0596197], [-95.8716293, 36.0596193], [-95.8716276, 36.0593439], [-95.8715418, 36.0593443], [-95.8715435, 36.0596197]]]}, "properties": {"osm_id": 1235076334, "building": "yes", "name": "", "height": null, "height_m": null, "levels": null, "tract_id": "40143007646", "tract_name": "76.46", "tags": {"building": "yes", "source": "microsoft/BuildingFootprints"}}}, {"type": "Feature", "geometry": {"type": "Polygon", "coordinates": [[[-95.8716946, 36.0596211], [-95.8717831, 36.0596206], [-95.8717806, 36.0593452], [-95.8716921, 36.0593458], [-95.8716946, 36.0596211]]]}, "properties": {"osm_id": 1235076335, "building": "yes", "name": "", "height": null, "height_m": null, "levels": null, "tract_id": "40143007646", "tract_name": "76.46", "tags": {"building": "yes", "source": "microsoft/BuildingFootprints"}}}, {"type": "Feature", "geometry": {"type": "Polygon", "coordinates": [[[-95.8718497, 36.0596189], [-95.871934, 36.0596182], [-95.8719303, 36.0593428], [-95.8718461, 36.0593436], [-95.8718497, 36.0596189]]]}, "properties": {"osm_id": 1235076336, "building": "yes", "name": "", "height": null, "height_m": null, "levels": null, "tract_id": "40143007646", "tract_name": "76.46", "tags": {"building": "yes", "source": "microsoft/BuildingFootprints"}}}, {"type": "Feature", "geometry": {"type": "Polygon", "coordinates": [[[-95.8720008, 36.059618], [-95.8720866, 36.0596171], [-95.8720822, 36.0593439], [-95.8719964, 36.0593448], [-95.8720008, 36.059618]]]}, "properties": {"osm_id": 1235076337, "building": "yes", "name": "", "height": null, "height_m": null, "levels": null, "tract_id": "40143007646", "tract_name": "76.46", "tags": {"building": "yes", "source": "microsoft/BuildingFootprints"}}}, {"type": "Feature", "geometry": {"type": "Polygon", "coordinates": [[[-95.8723073, 36.0596188], [-95.8723915, 36.0596177], [-95.8723859, 36.0593445], [-95.8723017, 36.0593457], [-95.8723073, 36.0596188]]]}, "properties": {"osm_id": 1235076338, "building": "yes", "name": "", "height": null, "height_m": null, "levels": null, "tract_id": "40143007646", "tract_name": "76.46", "tags": {"building": "yes", "source": "microsoft/BuildingFootprints"}}}, {"type": "Feature", "geometry": {"type": "Polygon", "coordinates": [[[-95.8724628, 36.059618], [-95.8725261, 36.0596175], [-95.872523, 36.059379], [-95.8724597, 36.0593795], [-95.8724628, 36.059618]]]}, "properties": {"osm_id": 1235076339, "building": "yes", "name": "", "height": null, "height_m": null, "levels": null, "tract_id": "40143007646", "tract_name": "76.46", "tags": {"building": "yes", "source": "microsoft/BuildingFootprints"}}}, {"type": "Feature", "geometry": {"type": "Polygon", "coordinates": [[[-95.8727295, 36.0596158], [-95.8727966, 36.0596154], [-95.8727939, 36.0593443], [-95.8727269, 36.0593448], [-95.8727295, 36.0596158]]]}, "properties": {"osm_id": 1235076340, "building": "yes", "name": "", "height": null, "height_m": null, "levels": null, "tract_id": "40143007646", "tract_name": "76.46", "tags": {"building": "yes", "source": "microsoft/BuildingFootprints"}}}, {"type": "Feature", "geometry": {"type": "Polygon", "coordinates": [[[-95.8730583, 36.0593379], [-95.8731687, 36.0596555], [-95.8732483, 36.0596374], [-95.8731379, 36.0593199], [-95.8730583, 36.0593379]]]}, "properties": {"osm_id": 1235076341, "building": "yes", "name": "", "height": null, "height_m": null, "levels": null, "tract_id": "40143007646", "tract_name": "76.46", "tags": {"building": "yes", "source": "microsoft/BuildingFootprints"}}}, {"type": "Feature", "geometry": {"type": "Polygon", "coordinates": [[[-95.8725863, 36.0592696], [-95.872586, 36.0592198], [-95.872004, 36.0592221], [-95.8720043, 36.059272], [-95.8725863, 36.0592696]]]}, "properties": {"osm_id": 1235076342, "building": "yes", "name": "", "height": null, "height_m": null, "levels": null, "tract_id": "40143007646", "tract_name": "76.46", "tags": {"building": "yes", "source": "microsoft/BuildingFootprints"}}}, {"type": "Feature", "geometry": {"type": "Polygon", "coordinates": [[[-95.8721497, 36.0596175], [-95.8722355, 36.0596187], [-95.8722413, 36.0593456], [-95.8721555, 36.0593444], [-95.8721497, 36.0596175]]]}, "properties": {"osm_id": 1235076343, "building": "yes", "name": "", "height": null, "height_m": null, "levels": null, "tract_id": "40143007646", "tract_name": "76.46", "tags": {"building": "yes", "source": "microsoft/BuildingFootprints"}}}, {"type": "Feature", "geometry": {"type": "Polygon", "coordinates": [[[-95.8725906, 36.0593423], [-95.8725934, 36.0596155], [-95.872662, 36.0596151], [-95.8726593, 36.0593419], [-95.8725906, 36.0593423]]]}, "properties": {"osm_id": 1235076344, "building": "yes", "name": "", "height": null, "height_m": null, "levels": null, "tract_id": "40143007646", "tract_name": "76.46", "tags": {"building": "yes", "source": "microsoft/BuildingFootprints"}}}, {"type": "Feature", "geometry": {"type": "Polygon", "coordinates": [[[-95.8728641, 36.0596167], [-95.8729848, 36.0596162], [-95.8729832, 36.0593408], [-95.8728625, 36.0593413], [-95.8728641, 36.0596167]]]}, "properties": {"osm_id": 1235076345, "building": "yes", "name": "", "height": null, "height_m": null, "levels": null, "tract_id": "40143007646", "tract_name": "76.46", "tags": {"building": "yes", "source": "microsoft/BuildingFootprints"}}}, {"type": "Feature", "geometry": {"type": "Polygon", "coordinates": [[[-95.8816249, 36.0586912], [-95.8816157, 36.0588056], [-95.8816664, 36.0588083], [-95.8816647, 36.0588299], [-95.8817785, 36.0588359], [-95.881775, 36.0588781], [-95.8818739, 36.0588834], [-95.8818785, 36.0588261], [-95.8820424, 36.0588348], [-95.8820449, 36.0588045], [-95.8820839, 36.0588066], [-95.8820902, 36.0587289], [-95.8820352, 36.058726], [-95.8820362, 36.058713], [-95.8816249, 36.0586912]]]}, "properties": {"osm_id": 1235076910, "building": "yes", "name": "", "height": null, "height_m": null, "levels": null, "tract_id": "40143007646", "tract_name": "76.46", "tags": {"building": "yes", "source": "microsoft/BuildingFootprints"}}}, {"type": "Feature", "geometry": {"type": "Polygon", "coordinates": [[[-95.8813362, 36.0586727], [-95.8812257, 36.0587004], [-95.8811777, 36.0587012], [-95.8811782, 36.0587228], [-95.8811219, 36.0587237], [-95.8811231, 36.0587783], [-95.8811325, 36.0588028], [-95.8811672, 36.0588023], [-95.8811763, 36.058826], [-95.8812616, 36.0588247], [-95.8812856, 36.0588872], [-95.8812855, 36.0588816], [-95.8813588, 36.0588805], [-95.8813845, 36.0588741], [-95.8813838, 36.0588417], [-95.881451, 36.0588249], [-95.8815523, 36.0588234], [-95.8815518, 36.0588029], [-95.8815958, 36.0588022], [-95.8815944, 36.0587456], [-95.8815854, 36.0587221], [-95.8815471, 36.0587227], [-95.8815367, 36.0586957], [-95.8813697, 36.0586982], [-95.8813598, 36.0586723], [-95.8813362, 36.0586727]]]}, "properties": {"osm_id": 1235076911, "building": "yes", "name": "", "height": null, "height_m": null, "levels": null, "tract_id": "40143007646", "tract_name": "76.46", "tags": {"building": "yes", "source": "microsoft/BuildingFootprints"}}}, {"type": "Feature", "geometry": {"type": "Polygon", "coordinates": [[[-95.8808985, 36.0588262], [-95.8810557, 36.0588428], [-95.8810616, 36.0588065], [-95.8810958, 36.0588101], [-95.8811084, 36.0587324], [-95.8810513, 36.0587264], [-95.8810526, 36.0587188], [-95.8806912, 36.0586808], [-95.8806828, 36.0587332], [-95.8806343, 36.0587281], [-95.8806218, 36.0588057], [-95.8806825, 36.0588121], [-95.8806797, 36.0588292], [-95.8807941, 36.0588412], [-95.8807884, 36.0588766], [-95.8808887, 36.0588871], [-95.8808985, 36.0588262]]]}, "properties": {"osm_id": 1235076912, "building": "yes", "name": "", "height": null, "height_m": null, "levels": null, "tract_id": "40143007646", "tract_name": "76.46", "tags": {"building": "yes", "source": "microsoft/BuildingFootprints"}}}, {"type": "Feature", "geometry": {"type": "Polygon", "coordinates": [[[-95.8801913, 36.0576157], [-95.88017, 36.057617], [-95.8801553, 36.0574574], [-95.8801153, 36.0574598], [-95.880106, 36.0573597], [-95.8799176, 36.0573711], [-95.8799314, 36.0575208], [-95.8799731, 36.0575183], [-95.8799834, 36.0576295], [-95.8800004, 36.0576285], [-95.8800113, 36.0577471], [-95.8800033, 36.0577476], [-95.8800155, 36.05788], [-95.8802066, 36.0578685], [-95.8801954, 36.0577468], [-95.8802034, 36.0577463], [-95.8801913, 36.0576157]]]}, "properties": {"osm_id": 1235076913, "building": "yes", "name": "", "height": null, "height_m": null, "levels": null, "tract_id": "40143007646", "tract_name": "76.46", "tags": {"building": "yes", "source": "microsoft/BuildingFootprints"}}}, {"type": "Feature", "geometry": {"type": "Polygon", "coordinates": [[[-95.8796396, 36.0576824], [-95.8796551, 36.0575439], [-95.8793917, 36.0575247], [-95.8793905, 36.0575354], [-95.8792681, 36.0575265], [-95.8792683, 36.0575252], [-95.8791336, 36.0575153], [-95.8791158, 36.0576745], [-95.8792611, 36.0576851], [-95.8792627, 36.0576714], [-95.8795989, 36.0576959], [-95.8796007, 36.0576796], [-95.8796396, 36.0576824]]]}, "properties": {"osm_id": 1235076914, "building": "yes", "name": "", "height": null, "height_m": null, "levels": null, "tract_id": "40143007646", "tract_name": "76.46", "tags": {"building": "yes", "source": "microsoft/BuildingFootprints"}}}, {"type": "Feature", "geometry": {"type": "Polygon", "coordinates": [[[-95.8787756, 36.058276], [-95.8789446, 36.0582752], [-95.8789445, 36.0582644], [-95.8790839, 36.0582637], [-95.879084, 36.0582746], [-95.8792235, 36.0582739], [-95.8792237, 36.0583086], [-95.8794088, 36.0583077], [-95.8794077, 36.058156], [-95.879279, 36.0581566], [-95.8792788, 36.0581262], [-95.8791178, 36.058127], [-95.879118, 36.0581443], [-95.8790804, 36.0581445], [-95.8790802, 36.0581141], [-95.8789675, 36.0581147], [-95.8789674, 36.0580995], [-95.8789192, 36.0580997], [-95.8789193, 36.0581192], [-95.8787745, 36.0581199], [-95.8787756, 36.058276]]]}, "properties": {"osm_id": 1235076915, "building": "yes", "name": "", "height": null, "height_m": null, "levels": null, "tract_id": "40143007646", "tract_name": "76.46", "tags": {"building": "yes", "source": "microsoft/BuildingFootprints"}}}, {"type": "Feature", "geometry": {"type": "Polygon", "coordinates": [[[-95.8783124, 36.0584381], [-95.8783485, 36.0584499], [-95.8785269, 36.0584378], [-95.8785116, 36.0582901], [-95.878476, 36.0582925], [-95.8784719, 36.0582529], [-95.8784995, 36.058251], [-95.8784928, 36.0581871], [-95.8783979, 36.058156], [-95.8784943, 36.0581495], [-95.878487, 36.0580789], [-95.8784675, 36.0580726], [-95.8784636, 36.0580345], [-95.8785009, 36.0580319], [-95.8784959, 36.0579843], [-95.8784776, 36.0579783], [-95.8785011, 36.0579313], [-95.8784974, 36.0578959], [-95.8784329, 36.0578748], [-95.8782711, 36.0578857], [-95.8782791, 36.0579632], [-95.8783109, 36.0579736], [-95.8782931, 36.0580092], [-95.878268, 36.0580109], [-95.878276, 36.0580882], [-95.8782663, 36.0581075], [-95.8782704, 36.0581469], [-95.8783595, 36.058176], [-95.8782723, 36.0581819], [-95.8782846, 36.0582996], [-95.878268, 36.0583326], [-95.8783012, 36.0583304], [-95.8783124, 36.0584381]]]}, "properties": {"osm_id": 1235076916, "building": "yes", "name": "", "height": null, "height_m": null, "levels": null, "tract_id": "40143007646", "tract_name": "76.46", "tags": {"building": "yes", "source": "microsoft/BuildingFootprints"}}}, {"type": "Feature", "geometry": {"type": "Polygon", "coordinates": [[[-95.8790484, 36.0579196], [-95.8790345, 36.0577752], [-95.8790425, 36.0577747], [-95.8790321, 36.0576669], [-95.8790561, 36.0576654], [-95.8790523, 36.0576266], [-95.879023, 36.0576285], [-95.8790117, 36.0575121], [-95.8788385, 36.057523], [-95.8788477, 36.0576192], [-95.8788237, 36.0576207], [-95.8788276, 36.0576603], [-95.8788569, 36.0576585], [-95.8788667, 36.0577598], [-95.8788827, 36.0577588], [-95.8788856, 36.0577889], [-95.8788589, 36.0577906], [-95.8788685, 36.0578898], [-95.8788338, 36.057892], [-95.8788484, 36.0580428], [-95.8790244, 36.0580317], [-95.8790137, 36.0579218], [-95.8790484, 36.0579196]]]}, "properties": {"osm_id": 1235076917, "building": "yes", "name": "", "height": null, "height_m": null, "levels": null, "tract_id": "40143007646", "tract_name": "76.46", "tags": {"building": "yes", "source": "microsoft/BuildingFootprints"}}}, {"type": "Feature", "geometry": {"type": "Polygon", "coordinates": [[[-95.8780398, 36.0574894], [-95.8778628, 36.0574927], [-95.8778657, 36.0575945], [-95.8778148, 36.0575955], [-95.8778186, 36.0577277], [-95.8778454, 36.0577272], [-95.8778463, 36.0577575], [-95.8778007, 36.0577584], [-95.8778044, 36.0578884], [-95.8778232, 36.0578881], [-95.8778265, 36.0580051], [-95.8780115, 36.0580016], [-95.8780077, 36.0578673], [-95.8779942, 36.0578675], [-95.8779905, 36.0577375], [-95.8780093, 36.0577371], [-95.8780065, 36.0576396], [-95.8780467, 36.0576389], [-95.8780456, 36.0575999], [-95.8780429, 36.0575999], [-95.8780398, 36.0574894]]]}, "properties": {"osm_id": 1235076918, "building": "yes", "name": "", "height": null, "height_m": null, "levels": null, "tract_id": "40143007646", "tract_name": "76.46", "tags": {"building": "yes", "source": "microsoft/BuildingFootprints"}}}, {"type": "Feature", "geometry": {"type": "Polygon", "coordinates": [[[-95.8777835, 36.0583789], [-95.877959, 36.0584503], [-95.8780635, 36.0582825], [-95.8780656, 36.0582834], [-95.878127, 36.0581848], [-95.8781505, 36.0581944], [-95.8782184, 36.0580854], [-95.8780429, 36.058014], [-95.8779212, 36.0582095], [-95.8778955, 36.058199], [-95.8777835, 36.0583789]]]}, "properties": {"osm_id": 1235076919, "building": "yes", "name": "", "height": null, "height_m": null, "levels": null, "tract_id": "40143007646", "tract_name": "76.46", "tags": {"building": "yes", "source": "microsoft/BuildingFootprints"}}}, {"type": "Feature", "geometry": {"type": "Polygon", "coordinates": [[[-95.8784569, 36.0574776], [-95.8783434, 36.0575518], [-95.8783512, 36.0575597], [-95.8782717, 36.0576116], [-95.8782691, 36.057609], [-95.8780517, 36.057751], [-95.878175, 36.0578743], [-95.8782902, 36.057799], [-95.8782802, 36.057789], [-95.8784651, 36.0576682], [-95.8784712, 36.0576743], [-95.8785815, 36.0576022], [-95.8784569, 36.0574776]]]}, "properties": {"osm_id": 1235076920, "building": "yes", "name": "", "height": null, "height_m": null, "levels": null, "tract_id": "40143007646", "tract_name": "76.46", "tags": {"building": "yes", "source": "microsoft/BuildingFootprints"}}}, {"type": "Feature", "geometry": {"type": "Polygon", "coordinates": [[[-95.8779857, 36.0586933], [-95.8779816, 36.0585698], [-95.8779102, 36.0585714], [-95.8779078, 36.0584977], [-95.877814, 36.0584997], [-95.8778171, 36.0585929], [-95.8777973, 36.0585933], [-95.8777985, 36.0586309], [-95.8778253, 36.0586303], [-95.8778275, 36.0586967], [-95.8779857, 36.0586933]]]}, "properties": {"osm_id": 1235076921, "building": "yes", "name": "", "height": null, "height_m": null, "levels": null, "tract_id": "40143007646", "tract_name": "76.46", "tags": {"building": "yes", "source": "microsoft/BuildingFootprints"}}}, {"type": "Feature", "geometry": {"type": "Polygon", "coordinates": [[[-95.8768858, 36.0587588], [-95.8768866, 36.0590711], [-95.8770932, 36.0590707], [-95.8770923, 36.0587585], [-95.8768858, 36.0587588]]]}, "properties": {"osm_id": 1235076922, "building": "yes", "name": "", "height": null, "height_m": null, "levels": null, "tract_id": "40143007646", "tract_name": "76.46", "tags": {"building": "yes", "source": "microsoft/BuildingFootprints"}}}, {"type": "Feature", "geometry": {"type": "Polygon", "coordinates": [[[-95.8773008, 36.0586652], [-95.8772971, 36.0581644], [-95.8771255, 36.0581652], [-95.8771267, 36.0583257], [-95.8771696, 36.0583254], [-95.8771699, 36.0583645], [-95.8771296, 36.0583647], [-95.8771304, 36.0584687], [-95.8771706, 36.0584686], [-95.8771709, 36.058504], [-95.877128, 36.0585043], [-95.8771292, 36.0586661], [-95.8773008, 36.0586652]]]}, "properties": {"osm_id": 1235076923, "building": "yes", "name": "", "height": null, "height_m": null, "levels": null, "tract_id": "40143007646", "tract_name": "76.46", "tags": {"building": "yes", "source": "microsoft/BuildingFootprints"}}}, {"type": "Feature", "geometry": {"type": "Polygon", "coordinates": [[[-95.8771166, 36.0577516], [-95.877124, 36.0580645], [-95.8773296, 36.0580613], [-95.8773221, 36.0577484], [-95.8771166, 36.0577516]]]}, "properties": {"osm_id": 1235076924, "building": "yes", "name": "", "height": null, "height_m": null, "levels": null, "tract_id": "40143007646", "tract_name": "76.46", "tags": {"building": "yes", "source": "microsoft/BuildingFootprints"}}}, {"type": "Feature", "geometry": {"type": "Polygon", "coordinates": [[[-95.8769866, 36.0573449], [-95.8769889, 36.0575118], [-95.877374, 36.0575083], [-95.8773717, 36.0573414], [-95.8769866, 36.0573449]]]}, "properties": {"osm_id": 1235076925, "building": "yes", "name": "", "height": null, "height_m": null, "levels": null, "tract_id": "40143007646", "tract_name": "76.46", "tags": {"building": "yes", "source": "microsoft/BuildingFootprints"}}}, {"type": "Feature", "geometry": {"type": "Polygon", "coordinates": [[[-95.8766221, 36.0568563], [-95.8767586, 36.0569734], [-95.8767907, 36.0569489], [-95.8768255, 36.0569788], [-95.8768, 36.0569982], [-95.8768862, 36.0570721], [-95.8769146, 36.0570505], [-95.8769489, 36.0570799], [-95.8769205, 36.0571016], [-95.8770535, 36.0572157], [-95.8771748, 36.0571233], [-95.8767499, 36.0567588], [-95.8766221, 36.0568563]]]}, "properties": {"osm_id": 1235076926, "building": "yes", "name": "", "height": null, "height_m": null, "levels": null, "tract_id": "40143007646", "tract_name": "76.46", "tags": {"building": "yes", "source": "microsoft/BuildingFootprints"}}}, {"type": "Feature", "geometry": {"type": "Polygon", "coordinates": [[[-95.8765167, 36.0576865], [-95.8766894, 36.0576871], [-95.8766902, 36.0575266], [-95.8766473, 36.0575265], [-95.8766475, 36.0574853], [-95.8766877, 36.0574854], [-95.8766885, 36.0573271], [-95.8765185, 36.0573265], [-95.8765167, 36.0576865]]]}, "properties": {"osm_id": 1235076927, "building": "yes", "name": "", "height": null, "height_m": null, "levels": null, "tract_id": "40143007646", "tract_name": "76.46", "tags": {"building": "yes", "source": "microsoft/BuildingFootprints"}}}, {"type": "Feature", "geometry": {"type": "Polygon", "coordinates": [[[-95.8766109, 36.0580051], [-95.8766146, 36.058316], [-95.8768184, 36.0583144], [-95.8768147, 36.0580035], [-95.8766109, 36.0580051]]]}, "properties": {"osm_id": 1235076928, "building": "yes", "name": "", "height": null, "height_m": null, "levels": null, "tract_id": "40143007646", "tract_name": "76.46", "tags": {"building": "yes", "source": "microsoft/BuildingFootprints"}}}, {"type": "Feature", "geometry": {"type": "Polygon", "coordinates": [[[-95.8761318, 36.0579045], [-95.8761261, 36.0580714], [-95.8765121, 36.05808], [-95.8765178, 36.0579132], [-95.8761318, 36.0579045]]]}, "properties": {"osm_id": 1235076929, "building": "yes", "name": "", "height": null, "height_m": null, "levels": null, "tract_id": "40143007646", "tract_name": "76.46", "tags": {"building": "yes", "source": "microsoft/BuildingFootprints"}}}, {"type": "Feature", "geometry": {"type": "Polygon", "coordinates": [[[-95.8767913, 36.0584282], [-95.8761754, 36.058433], [-95.8761771, 36.0585731], [-95.8763719, 36.0585716], [-95.8763715, 36.0585369], [-95.8764224, 36.0585365], [-95.8764228, 36.0585677], [-95.8765472, 36.0585667], [-95.8765468, 36.0585355], [-95.8765967, 36.0585351], [-95.8765972, 36.058572], [-95.876793, 36.0585704], [-95.8767913, 36.0584282]]]}, "properties": {"osm_id": 1235076930, "building": "yes", "name": "", "height": null, "height_m": null, "levels": null, "tract_id": "40143007646", "tract_name": "76.46", "tags": {"building": "yes", "source": "microsoft/BuildingFootprints"}}}, {"type": "Feature", "geometry": {"type": "Polygon", "coordinates": [[[-95.8761741, 36.0590011], [-95.8765577, 36.0590013], [-95.8765578, 36.0588365], [-95.8761742, 36.0588363], [-95.8761741, 36.0590011]]]}, "properties": {"osm_id": 1235076931, "building": "yes", "name": "", "height": null, "height_m": null, "levels": null, "tract_id": "40143007646", "tract_name": "76.46", "tags": {"building": "yes", "source": "microsoft/BuildingFootprints"}}}, {"type": "Feature", "geometry": {"type": "Polygon", "coordinates": [[[-95.8759873, 36.0582254], [-95.8758469, 36.0583653], [-95.8758437, 36.0583632], [-95.8757046, 36.0585018], [-95.8758405, 36.058591], [-95.87612, 36.0583124], [-95.8759873, 36.0582254]]]}, "properties": {"osm_id": 1235076932, "building": "yes", "name": "", "height": null, "height_m": null, "levels": null, "tract_id": "40143007646", "tract_name": "76.46", "tags": {"building": "yes", "source": "microsoft/BuildingFootprints"}}}, {"type": "Feature", "geometry": {"type": "Polygon", "coordinates": [[[-95.8754193, 36.057891], [-95.8755294, 36.0579208], [-95.8755015, 36.0579883], [-95.8756037, 36.0580159], [-95.8756432, 36.0579204], [-95.8755419, 36.0578929], [-95.8755669, 36.0578325], [-95.875456, 36.0578025], [-95.8754729, 36.0577615], [-95.8754045, 36.057743], [-95.8753803, 36.0578015], [-95.8754487, 36.05782], [-95.8754193, 36.057891]]]}, "properties": {"osm_id": 1235076933, "building": "yes", "name": "", "height": null, "height_m": null, "levels": null, "tract_id": "40143007646", "tract_name": "76.46", "tags": {"building": "yes", "source": "microsoft/BuildingFootprints"}}}, {"type": "Feature", "geometry": {"type": "Polygon", "coordinates": [[[-95.8754978, 36.0582973], [-95.8751947, 36.0581072], [-95.8750687, 36.0582385], [-95.8753718, 36.0584286], [-95.8754978, 36.0582973]]]}, "properties": {"osm_id": 1235076934, "building": "yes", "name": "", "height": null, "height_m": null, "levels": null, "tract_id": "40143007646", "tract_name": "76.46", "tags": {"building": "yes", "source": "microsoft/BuildingFootprints"}}}, {"type": "Feature", "geometry": {"type": "Polygon", "coordinates": [[[-95.8751824, 36.0586351], [-95.8755805, 36.0590158], [-95.8757088, 36.0589281], [-95.8755805, 36.0588055], [-95.8755508, 36.0588258], [-95.8755177, 36.0587942], [-95.875538, 36.0587803], [-95.875427, 36.058674], [-95.875441, 36.0586644], [-95.8753154, 36.0585443], [-95.8751824, 36.0586351]]]}, "properties": {"osm_id": 1235076935, "building": "yes", "name": "", "height": null, "height_m": null, "levels": null, "tract_id": "40143007646", "tract_name": "76.46", "tags": {"building": "yes", "source": "microsoft/BuildingFootprints"}}}, {"type": "Feature", "geometry": {"type": "Polygon", "coordinates": [[[-95.8759, 36.0590259], [-95.8758963, 36.0589405], [-95.8758106, 36.058943], [-95.8758143, 36.0590283], [-95.8759, 36.0590259]]]}, "properties": {"osm_id": 1235076936, "building": "yes", "name": "", "height": null, "height_m": null, "levels": null, "tract_id": "40143007646", "tract_name": "76.46", "tags": {"building": "yes", "source": "microsoft/BuildingFootprints"}}}, {"type": "Feature", "geometry": {"type": "Polygon", "coordinates": [[[-95.8754851, 36.0593148], [-95.8755682, 36.0593149], [-95.8755681, 36.0593496], [-95.8756819, 36.0593499], [-95.875682, 36.0593152], [-95.8758617, 36.0593155], [-95.875862, 36.0592223], [-95.8757348, 36.059222], [-95.8757348, 36.0592437], [-95.8756768, 36.0592436], [-95.8756769, 36.0592133], [-95.8754854, 36.0592129], [-95.8754851, 36.0593148]]]}, "properties": {"osm_id": 1235076937, "building": "yes", "name": "", "height": null, "height_m": null, "levels": null, "tract_id": "40143007646", "tract_name": "76.46", "tags": {"building": "yes", "source": "microsoft/BuildingFootprints"}}}, {"type": "Feature", "geometry": {"type": "Polygon", "coordinates": [[[-95.8758594, 36.0594611], [-95.8756996, 36.0594618], [-95.8757011, 36.0596743], [-95.875736, 36.0596741], [-95.8757364, 36.059737], [-95.8758464, 36.0597365], [-95.8758456, 36.0596346], [-95.8758606, 36.0596345], [-95.8758594, 36.0594611]]]}, "properties": {"osm_id": 1235076938, "building": "yes", "name": "", "height": null, "height_m": null, "levels": null, "tract_id": "40143007646", "tract_name": "76.46", "tags": {"building": "yes", "source": "microsoft/BuildingFootprints"}}}, {"type": "Feature", "geometry": {"type": "Polygon", "coordinates": [[[-95.8758655, 36.0602086], [-95.8758226, 36.0602083], [-95.8758239, 36.0601137], [-95.8758507, 36.060114], [-95.8758514, 36.0600611], [-95.8757361, 36.06006], [-95.875735, 36.0601381], [-95.8757189, 36.0601379], [-95.875718, 36.0602051], [-95.8756992, 36.060205], [-95.875698, 36.0602939], [-95.8757382, 36.0602942], [-95.8757376, 36.0603376], [-95.8758637, 36.0603387], [-95.8758655, 36.0602086]]]}, "properties": {"osm_id": 1235076939, "building": "yes", "name": "", "height": null, "height_m": null, "levels": null, "tract_id": "40143007646", "tract_name": "76.46", "tags": {"building": "yes", "source": "microsoft/BuildingFootprints"}}}, {"type": "Feature", "geometry": {"type": "Polygon", "coordinates": [[[-95.8756761, 36.0598982], [-95.8758585, 36.0598965], [-95.8758572, 36.0598097], [-95.8756748, 36.0598115], [-95.8756746, 36.0597964], [-95.8755083, 36.059798], [-95.8755098, 36.0598999], [-95.8755688, 36.0598993], [-95.8755693, 36.0599318], [-95.8756766, 36.0599308], [-95.8756761, 36.0598982]]]}, "properties": {"osm_id": 1235076940, "building": "yes", "name": "", "height": null, "height_m": null, "levels": null, "tract_id": "40143007646", "tract_name": "76.46", "tags": {"building": "yes", "source": "microsoft/BuildingFootprints"}}}, {"type": "Feature", "geometry": {"type": "Polygon", "coordinates": [[[-95.8755155, 36.0606385], [-95.8756791, 36.0606392], [-95.8756793, 36.0606045], [-95.8758054, 36.0606051], [-95.8758052, 36.0606268], [-95.8758669, 36.060627], [-95.8758675, 36.0605307], [-95.875681, 36.0605299], [-95.8756811, 36.0605039], [-95.8755164, 36.0605032], [-95.8755155, 36.0606385]]]}, "properties": {"osm_id": 1235076941, "building": "apartments", "name": "", "height": null, "height_m": null, "levels": null, "tract_id": "40143007646", "tract_name": "76.46", "tags": {"building": "apartments", "source": "microsoft/BuildingFootprints"}}}, {"type": "Feature", "geometry": {"type": "Polygon", "coordinates": [[[-95.8753843, 36.0604941], [-95.8753387, 36.0604944], [-95.8753385, 36.0604693], [-95.8751841, 36.0604701], [-95.8751845, 36.0605178], [-95.8751404, 36.0605181], [-95.875141, 36.0605896], [-95.8751812, 36.0605894], [-95.8751814, 36.0606111], [-95.8752255, 36.0606108], [-95.8752258, 36.0606489], [-95.8753331, 36.0606484], [-95.8753328, 36.0606093], [-95.8753852, 36.0606091], [-95.8753843, 36.0604941]]]}, "properties": {"osm_id": 1235076942, "building": "yes", "name": "", "height": null, "height_m": null, "levels": null, "tract_id": "40143007646", "tract_name": "76.46", "tags": {"building": "yes", "source": "microsoft/BuildingFootprints"}}}, {"type": "Feature", "geometry": {"type": "Polygon", "coordinates": [[[-95.8749281, 36.0603578], [-95.8749288, 36.0605412], [-95.8749461, 36.0605412], [-95.8749465, 36.0606397], [-95.8750538, 36.0606394], [-95.8750532, 36.0605062], [-95.8750923, 36.0605061], [-95.8750918, 36.0603999], [-95.8750528, 36.0604], [-95.8750526, 36.0603575], [-95.8749281, 36.0603578]]]}, "properties": {"osm_id": 1235076943, "building": "yes", "name": "", "height": null, "height_m": null, "levels": null, "tract_id": "40143007646", "tract_name": "76.46", "tags": {"building": "yes", "source": "microsoft/BuildingFootprints"}}}, {"type": "Feature", "geometry": {"type": "Polygon", "coordinates": [[[-95.8747064, 36.0606373], [-95.8748164, 36.0606379], [-95.8748172, 36.0605382], [-95.8748306, 36.0605382], [-95.874832, 36.0603648], [-95.8747857, 36.0603863], [-95.874671, 36.0603639], [-95.8746697, 36.0605374], [-95.8747072, 36.0605376], [-95.8747064, 36.0606373]]]}, "properties": {"osm_id": 1235076944, "building": "yes", "name": "", "height": null, "height_m": null, "levels": null, "tract_id": "40143007646", "tract_name": "76.46", "tags": {"building": "yes", "source": "microsoft/BuildingFootprints"}}}, {"type": "Feature", "geometry": {"type": "Polygon", "coordinates": [[[-95.8748723, 36.0601215], [-95.8750612, 36.0601226], [-95.8750611, 36.0601356], [-95.8752343, 36.0601366], [-95.8752352, 36.0600316], [-95.8751708, 36.0600312], [-95.8751711, 36.0599987], [-95.8750558, 36.059998], [-95.8750555, 36.0600262], [-95.8749992, 36.0600259], [-95.8749991, 36.0600345], [-95.8748731, 36.0600338], [-95.8748723, 36.0601215]]]}, "properties": {"osm_id": 1235076945, "building": "yes", "name": "", "height": null, "height_m": null, "levels": null, "tract_id": "40143007646", "tract_name": "76.46", "tags": {"building": "yes", "source": "microsoft/BuildingFootprints"}}}, {"type": "Feature", "geometry": {"type": "Polygon", "coordinates": [[[-95.8746404, 36.0600346], [-95.8746409, 36.0600021], [-95.87448, 36.0600003], [-95.8744777, 36.0601369], [-95.8746413, 36.0601387], [-95.8746418, 36.0601062], [-95.8747625, 36.0601076], [-95.8747622, 36.0601249], [-95.8748266, 36.0601256], [-95.8748281, 36.0600367], [-95.8746404, 36.0600346]]]}, "properties": {"osm_id": 1235076946, "building": "yes", "name": "", "height": null, "height_m": null, "levels": null, "tract_id": "40143007646", "tract_name": "76.46", "tags": {"building": "yes", "source": "microsoft/BuildingFootprints"}}}, {"type": "Feature", "geometry": {"type": "Polygon", "coordinates": [[[-95.8749646, 36.0598639], [-95.8749624, 36.0597728], [-95.8749195, 36.0597735], [-95.8749186, 36.0597366], [-95.8748838, 36.0597372], [-95.8748832, 36.0597133], [-95.8748242, 36.0597142], [-95.8748248, 36.0597368], [-95.8747846, 36.0597375], [-95.8747855, 36.0597755], [-95.8747479, 36.0597761], [-95.8747509, 36.0599028], [-95.8749171, 36.0599002], [-95.8749163, 36.0598646], [-95.8749646, 36.0598639]]]}, "properties": {"osm_id": 1235076947, "building": "yes", "name": "", "height": null, "height_m": null, "levels": null, "tract_id": "40143007646", "tract_name": "76.46", "tags": {"building": "yes", "source": "microsoft/BuildingFootprints"}}}, {"type": "Feature", "geometry": {"type": "Polygon", "coordinates": [[[-95.8748333, 36.0595307], [-95.874836, 36.0596239], [-95.8750183, 36.0596205], [-95.8750193, 36.0596573], [-95.8751909, 36.0596541], [-95.8751872, 36.0595241], [-95.8748333, 36.0595307]]]}, "properties": {"osm_id": 1235076948, "building": "yes", "name": "", "height": null, "height_m": null, "levels": null, "tract_id": "40143007646", "tract_name": "76.46", "tags": {"building": "yes", "source": "microsoft/BuildingFootprints"}}}, {"type": "Feature", "geometry": {"type": "Polygon", "coordinates": [[[-95.8751817, 36.0593667], [-95.8751191, 36.0592394], [-95.8749602, 36.0592905], [-95.8749792, 36.059329], [-95.8748147, 36.0593819], [-95.8748584, 36.0594707], [-95.8751817, 36.0593667]]]}, "properties": {"osm_id": 1235076949, "building": "yes", "name": "", "height": null, "height_m": null, "levels": null, "tract_id": "40143007646", "tract_name": "76.46", "tags": {"building": "yes", "source": "microsoft/BuildingFootprints"}}}, {"type": "Feature", "geometry": {"type": "Polygon", "coordinates": [[[-95.8748746, 36.059289], [-95.8748028, 36.0591481], [-95.8748326, 36.0591381], [-95.8747901, 36.0590547], [-95.8747709, 36.0590611], [-95.874753, 36.0590259], [-95.8746254, 36.0590683], [-95.8747576, 36.0593279], [-95.8748746, 36.059289]]]}, "properties": {"osm_id": 1235076950, "building": "yes", "name": "", "height": null, "height_m": null, "levels": null, "tract_id": "40143007646", "tract_name": "76.46", "tags": {"building": "yes", "source": "microsoft/BuildingFootprints"}}}, {"type": "Feature", "geometry": {"type": "Polygon", "coordinates": [[[-95.8747292, 36.0595661], [-95.8746963, 36.0594811], [-95.874667, 36.0594886], [-95.8746548, 36.059457], [-95.8746108, 36.0594681], [-95.8746054, 36.0594543], [-95.8744955, 36.0594821], [-95.874507, 36.0595117], [-95.8744703, 36.059521], [-95.8744841, 36.0595565], [-95.8744572, 36.0595633], [-95.8744763, 36.0596127], [-95.8745046, 36.0596055], [-95.8745138, 36.0596292], [-95.8745661, 36.059616], [-95.8745791, 36.0596496], [-95.8746793, 36.0596242], [-95.8746632, 36.0595827], [-95.8747292, 36.0595661]]]}, "properties": {"osm_id": 1235076951, "building": "yes", "name": "", "height": null, "height_m": null, "levels": null, "tract_id": "40143007646", "tract_name": "76.46", "tags": {"building": "yes", "source": "microsoft/BuildingFootprints"}}}, {"type": "Feature", "geometry": {"type": "Polygon", "coordinates": [[[-95.8745365, 36.0594359], [-95.8744546, 36.0592642], [-95.8743645, 36.0592923], [-95.8743766, 36.0593176], [-95.8743383, 36.0593296], [-95.8744081, 36.059476], [-95.8745365, 36.0594359]]]}, "properties": {"osm_id": 1235076952, "building": "yes", "name": "", "height": null, "height_m": null, "levels": null, "tract_id": "40143007646", "tract_name": "76.46", "tags": {"building": "yes", "source": "microsoft/BuildingFootprints"}}}, {"type": "Feature", "geometry": {"type": "Polygon", "coordinates": [[[-95.8742376, 36.0591225], [-95.8742878, 36.0592383], [-95.8744598, 36.0591896], [-95.8744451, 36.0591557], [-95.8744737, 36.0591476], [-95.8744357, 36.0590598], [-95.8744047, 36.0590686], [-95.8743908, 36.0590367], [-95.8743478, 36.0590488], [-95.8743424, 36.0590364], [-95.8742492, 36.0590628], [-95.874271, 36.059113], [-95.8742376, 36.0591225]]]}, "properties": {"osm_id": 1235076953, "building": "yes", "name": "", "height": null, "height_m": null, "levels": null, "tract_id": "40143007646", "tract_name": "76.46", "tags": {"building": "yes", "source": "microsoft/BuildingFootprints"}}}, {"type": "Feature", "geometry": {"type": "Polygon", "coordinates": [[[-95.874271, 36.0587822], [-95.8742256, 36.058853], [-95.8742501, 36.0588633], [-95.8742228, 36.0589061], [-95.8743462, 36.0589578], [-95.8744201, 36.0588425], [-95.8743855, 36.058828], [-95.8744124, 36.058786], [-95.874337, 36.0587544], [-95.874309, 36.0587981], [-95.874271, 36.0587822]]]}, "properties": {"osm_id": 1235076954, "building": "yes", "name": "", "height": null, "height_m": null, "levels": null, "tract_id": "40143007646", "tract_name": "76.46", "tags": {"building": "yes", "source": "microsoft/BuildingFootprints"}}}, {"type": "Feature", "geometry": {"type": "Polygon", "coordinates": [[[-95.8745275, 36.0588787], [-95.8745784, 36.0589763], [-95.8746877, 36.0589391], [-95.8746743, 36.0589133], [-95.8747358, 36.0588924], [-95.8747588, 36.0589366], [-95.8748637, 36.0589009], [-95.874846, 36.058867], [-95.8748984, 36.0588492], [-95.8748556, 36.0587671], [-95.8745275, 36.0588787]]]}, "properties": {"osm_id": 1235076955, "building": "yes", "name": "", "height": null, "height_m": null, "levels": null, "tract_id": "40143007646", "tract_name": "76.46", "tags": {"building": "yes", "source": "microsoft/BuildingFootprints"}}}, {"type": "Feature", "geometry": {"type": "Polygon", "coordinates": [[[-95.8748301, 36.0586486], [-95.874767, 36.0585333], [-95.8745179, 36.0586223], [-95.8745358, 36.0586549], [-95.8744685, 36.058679], [-95.8745137, 36.0587616], [-95.8748301, 36.0586486]]]}, "properties": {"osm_id": 1235076956, "building": "yes", "name": "", "height": null, "height_m": null, "levels": null, "tract_id": "40143007646", "tract_name": "76.46", "tags": {"building": "yes", "source": "microsoft/BuildingFootprints"}}}, {"type": "Feature", "geometry": {"type": "Polygon", "coordinates": [[[-95.8743263, 36.0581661], [-95.8743922, 36.058292], [-95.8743959, 36.0582908], [-95.8744628, 36.0584187], [-95.8746061, 36.0583698], [-95.874584, 36.0583274], [-95.8745954, 36.0583236], [-95.874555, 36.0582463], [-95.8745035, 36.0582639], [-95.8744333, 36.0581296], [-95.8743263, 36.0581661]]]}, "properties": {"osm_id": 1235076957, "building": "yes", "name": "", "height": null, "height_m": null, "levels": null, "tract_id": "40143007646", "tract_name": "76.46", "tags": {"building": "yes", "source": "microsoft/BuildingFootprints"}}}, {"type": "Feature", "geometry": {"type": "Polygon", "coordinates": [[[-95.8738818, 36.0584271], [-95.8739465, 36.0584927], [-95.8740881, 36.0584014], [-95.8741176, 36.0584312], [-95.8742055, 36.0583746], [-95.8741786, 36.0583473], [-95.8742212, 36.0583198], [-95.8741357, 36.0582331], [-95.8741111, 36.0582489], [-95.8741176, 36.0582556], [-95.8740094, 36.0583253], [-95.8740212, 36.0583373], [-95.8738818, 36.0584271]]]}, "properties": {"osm_id": 1235076958, "building": "yes", "name": "", "height": null, "height_m": null, "levels": null, "tract_id": "40143007646", "tract_name": "76.46", "tags": {"building": "yes", "source": "microsoft/BuildingFootprints"}}}, {"type": "Feature", "geometry": {"type": "Polygon", "coordinates": [[[-95.873679, 36.0586723], [-95.8738428, 36.0587257], [-95.873821, 36.0587695], [-95.8739719, 36.0588186], [-95.8740346, 36.0586928], [-95.8737199, 36.0585903], [-95.873679, 36.0586723]]]}, "properties": {"osm_id": 1235076959, "building": "yes", "name": "", "height": null, "height_m": null, "levels": null, "tract_id": "40143007646", "tract_name": "76.46", "tags": {"building": "yes", "source": "microsoft/BuildingFootprints"}}}, {"type": "Feature", "geometry": {"type": "Polygon", "coordinates": [[[-95.8736106, 36.0588372], [-95.8735888, 36.0591212], [-95.8737143, 36.0591275], [-95.8737173, 36.0590886], [-95.8737521, 36.0590904], [-95.8737593, 36.0589965], [-95.8737219, 36.0589946], [-95.8737252, 36.0589514], [-95.8737359, 36.058952], [-95.8737442, 36.058844], [-95.8736106, 36.0588372]]]}, "properties": {"osm_id": 1235076972, "building": "yes", "name": "", "height": null, "height_m": null, "levels": null, "tract_id": "40143007646", "tract_name": "76.46", "tags": {"building": "yes", "source": "microsoft/BuildingFootprints"}}}, {"type": "Feature", "geometry": {"type": "Polygon", "coordinates": [[[-95.8740237, 36.0593652], [-95.873997, 36.0592819], [-95.8739744, 36.0592867], [-95.8739613, 36.059246], [-95.873907, 36.0592574], [-95.8739044, 36.0592493], [-95.8738054, 36.0592701], [-95.8738126, 36.0592924], [-95.8737573, 36.059304], [-95.8737632, 36.0593223], [-95.8736476, 36.0593465], [-95.8736772, 36.0594389], [-95.8737375, 36.0594262], [-95.8737294, 36.0594009], [-95.8738525, 36.0593751], [-95.8738604, 36.0593995], [-95.8740237, 36.0593652]]]}, "properties": {"osm_id": 1235076973, "building": "yes", "name": "", "height": null, "height_m": null, "levels": null, "tract_id": "40143007646", "tract_name": "76.46", "tags": {"building": "yes", "source": "microsoft/BuildingFootprints"}}}, {"type": "Feature", "geometry": {"type": "Polygon", "coordinates": [[[-95.8738126, 36.059704], [-95.8738425, 36.059787], [-95.8740205, 36.0597451], [-95.8740309, 36.059774], [-95.8741383, 36.0597487], [-95.874126, 36.0597147], [-95.874178, 36.0597025], [-95.8741424, 36.0596037], [-95.8739767, 36.0596427], [-95.8739842, 36.0596636], [-95.8738126, 36.059704]]]}, "properties": {"osm_id": 1235076974, "building": "yes", "name": "", "height": null, "height_m": null, "levels": null, "tract_id": "40143007646", "tract_name": "76.46", "tags": {"building": "yes", "source": "microsoft/BuildingFootprints"}}}, {"type": "Feature", "geometry": {"type": "Polygon", "coordinates": [[[-95.8738741, 36.0601027], [-95.8740403, 36.0601042], [-95.8740422, 36.059971], [-95.8740046, 36.0599706], [-95.8740055, 36.0599087], [-95.8740001, 36.0599087], [-95.8740013, 36.059821], [-95.8738833, 36.0598199], [-95.8738818, 36.0599327], [-95.8739059, 36.0599329], [-95.8739054, 36.0599707], [-95.8738759, 36.0599705], [-95.8738741, 36.0601027]]]}, "properties": {"osm_id": 1235076975, "building": "yes", "name": "", "height": null, "height_m": null, "levels": null, "tract_id": "40143007646", "tract_name": "76.46", "tags": {"building": "yes", "source": "microsoft/BuildingFootprints"}}}, {"type": "Feature", "geometry": {"type": "Polygon", "coordinates": [[[-95.8740069, 36.0602026], [-95.8738809, 36.0602002], [-95.8738772, 36.0603303], [-95.8739025, 36.0603307], [-95.8738983, 36.0604781], [-95.8740017, 36.06048], [-95.8740057, 36.0603391], [-95.8740432, 36.0603398], [-95.8740459, 36.0602445], [-95.8740057, 36.0602437], [-95.8740069, 36.0602026]]]}, "properties": {"osm_id": 1235076976, "building": "yes", "name": "", "height": null, "height_m": null, "levels": null, "tract_id": "40143007646", "tract_name": "76.46", "tags": {"building": "yes", "source": "microsoft/BuildingFootprints"}}}, {"type": "Feature", "geometry": {"type": "Polygon", "coordinates": [[[-95.8738794, 36.0605367], [-95.8738805, 36.0606333], [-95.8739434, 36.0606328], [-95.8739431, 36.06061], [-95.8740611, 36.0606091], [-95.8740615, 36.0606428], [-95.8742239, 36.0606416], [-95.8742224, 36.060506], [-95.8740588, 36.0605072], [-95.8740591, 36.0605354], [-95.8738794, 36.0605367]]]}, "properties": {"osm_id": 1235076977, "building": "yes", "name": "", "height": null, "height_m": null, "levels": null, "tract_id": "40143007646", "tract_name": "76.46", "tags": {"building": "yes", "source": "microsoft/BuildingFootprints"}}}, {"type": "Feature", "geometry": {"type": "Polygon", "coordinates": [[[-95.8743661, 36.0604751], [-95.8743677, 36.0605218], [-95.8743206, 36.0605228], [-95.8743227, 36.0605866], [-95.8743629, 36.0605857], [-95.8743639, 36.0606151], [-95.8744095, 36.0606141], [-95.8744107, 36.0606498], [-95.8745206, 36.0606474], [-95.8745194, 36.0606127], [-95.8745703, 36.0606116], [-95.8745694, 36.0605834], [-95.8746042, 36.0605827], [-95.8746026, 36.0605328], [-95.8745651, 36.0605337], [-95.874563, 36.0604708], [-95.8743661, 36.0604751]]]}, "properties": {"osm_id": 1235076978, "building": "yes", "name": "", "height": null, "height_m": null, "levels": null, "tract_id": "40143007646", "tract_name": "76.46", "tags": {"building": "yes", "source": "microsoft/BuildingFootprints"}}}, {"type": "Feature", "geometry": {"type": "Polygon", "coordinates": [[[-95.8725172, 36.058976], [-95.8727291, 36.0589744], [-95.8727293, 36.0589972], [-95.8729315, 36.0589956], [-95.8729296, 36.0588341], [-95.8725156, 36.0588373], [-95.8725172, 36.058976]]]}, "properties": {"osm_id": 1235076979, "building": "yes", "name": "", "height": null, "height_m": null, "levels": null, "tract_id": "40143007646", "tract_name": "76.46", "tags": {"building": "yes", "source": "microsoft/BuildingFootprints"}}}, {"type": "Feature", "geometry": {"type": "Polygon", "coordinates": [[[-95.8728431, 36.0587601], [-95.8729316, 36.058759], [-95.8729309, 36.0587189], [-95.8730043, 36.058718], [-95.8730034, 36.0586725], [-95.8730426, 36.058672], [-95.8730409, 36.0585788], [-95.872889, 36.0585806], [-95.87289, 36.0586348], [-95.8728408, 36.0586354], [-95.8728431, 36.0587601]]]}, "properties": {"osm_id": 1235076980, "building": "yes", "name": "", "height": null, "height_m": null, "levels": null, "tract_id": "40143007646", "tract_name": "76.46", "tags": {"building": "yes", "source": "microsoft/BuildingFootprints"}}}, {"type": "Feature", "geometry": {"type": "Polygon", "coordinates": [[[-95.8725583, 36.0583288], [-95.8725584, 36.0584817], [-95.8728303, 36.0584815], [-95.8728304, 36.0585032], [-95.8731093, 36.058503], [-95.8731091, 36.0583512], [-95.8728292, 36.0583514], [-95.8728292, 36.0583286], [-95.8725583, 36.0583288]]]}, "properties": {"osm_id": 1235076981, "building": "yes", "name": "", "height": null, "height_m": null, "levels": null, "tract_id": "40143007646", "tract_name": "76.46", "tags": {"building": "yes", "source": "microsoft/BuildingFootprints"}}}, {"type": "Feature", "geometry": {"type": "Polygon", "coordinates": [[[-95.8722225, 36.0588199], [-95.8724012, 36.0588376], [-95.87243, 36.0586475], [-95.8724432, 36.0586488], [-95.872488, 36.0583529], [-95.8723109, 36.0583354], [-95.8722661, 36.0586313], [-95.8722513, 36.0586298], [-95.8722225, 36.0588199]]]}, "properties": {"osm_id": 1235076982, "building": "yes", "name": "", "height": null, "height_m": null, "levels": null, "tract_id": "40143007646", "tract_name": "76.46", "tags": {"building": "yes", "source": "microsoft/BuildingFootprints"}}}, {"type": "Feature", "geometry": {"type": "Polygon", "coordinates": [[[-95.8718978, 36.058986], [-95.8716699, 36.0589834], [-95.87167, 36.0589769], [-95.8715386, 36.0589754], [-95.8715384, 36.0589852], [-95.8713212, 36.0589828], [-95.8713189, 36.059116], [-95.8714798, 36.0591179], [-95.87148, 36.0591049], [-95.871539, 36.0591055], [-95.8715388, 36.0591207], [-95.8716755, 36.0591223], [-95.8716759, 36.0591017], [-95.8717349, 36.0591023], [-95.8717347, 36.0591142], [-95.8718956, 36.0591161], [-95.8718978, 36.058986]]]}, "properties": {"osm_id": 1235076983, "building": "yes", "name": "", "height": null, "height_m": null, "levels": null, "tract_id": "40143007646", "tract_name": "76.46", "tags": {"building": "yes", "source": "microsoft/BuildingFootprints"}}}, {"type": "Feature", "geometry": {"type": "Polygon", "coordinates": [[[-95.8717011, 36.058661], [-95.871893, 36.058683], [-95.8719317, 36.0584619], [-95.8719133, 36.0584598], [-95.871952, 36.0582387], [-95.8717784, 36.0582189], [-95.8717011, 36.058661]]]}, "properties": {"osm_id": 1235076984, "building": "yes", "name": "", "height": null, "height_m": null, "levels": null, "tract_id": "40143007646", "tract_name": "76.46", "tags": {"building": "yes", "source": "microsoft/BuildingFootprints"}}}, {"type": "Feature", "geometry": {"type": "Polygon", "coordinates": [[[-95.8715797, 36.0586664], [-95.8715633, 36.0584427], [-95.8715783, 36.058442], [-95.8715621, 36.0582206], [-95.871375, 36.0582296], [-95.8713912, 36.05845], [-95.8713778, 36.0584506], [-95.8713943, 36.0586753], [-95.8715797, 36.0586664]]]}, "properties": {"osm_id": 1235076985, "building": "yes", "name": "", "height": null, "height_m": null, "levels": null, "tract_id": "40143007646", "tract_name": "76.46", "tags": {"building": "yes", "source": "microsoft/BuildingFootprints"}}}, {"type": "Feature", "geometry": {"type": "Polygon", "coordinates": [[[-95.8710436, 36.0583822], [-95.8708639, 36.058382], [-95.8708632, 36.0588742], [-95.8710429, 36.0588744], [-95.8710436, 36.0583822]]]}, "properties": {"osm_id": 1235076986, "building": "yes", "name": "", "height": null, "height_m": null, "levels": null, "tract_id": "40143007646", "tract_name": "76.46", "tags": {"building": "yes", "source": "microsoft/BuildingFootprints"}}}, {"type": "Feature", "geometry": {"type": "Polygon", "coordinates": [[[-95.8707584, 36.0587068], [-95.8704885, 36.0587079], [-95.8704886, 36.0587296], [-95.870207, 36.0587307], [-95.870208, 36.0588825], [-95.8704778, 36.0588814], [-95.8704777, 36.0588597], [-95.8707593, 36.0588586], [-95.8707584, 36.0587068]]]}, "properties": {"osm_id": 1235076987, "building": "yes", "name": "", "height": null, "height_m": null, "levels": null, "tract_id": "40143007646", "tract_name": "76.46", "tags": {"building": "yes", "source": "microsoft/BuildingFootprints"}}}, {"type": "Feature", "geometry": {"type": "Polygon", "coordinates": [[[-95.8700857, 36.0587362], [-95.870085, 36.0586841], [-95.8701065, 36.0586839], [-95.870105, 36.0585777], [-95.870097, 36.0585778], [-95.8700945, 36.0583978], [-95.8699336, 36.0583993], [-95.8699354, 36.0585293], [-95.8699515, 36.0585292], [-95.8699521, 36.0585769], [-95.8699307, 36.0585771], [-95.8699321, 36.0586833], [-95.8699509, 36.0586832], [-95.8699516, 36.0587352], [-95.8699355, 36.0587353], [-95.8699373, 36.0588676], [-95.8701009, 36.0588661], [-95.8700991, 36.058736], [-95.8700857, 36.0587362]]]}, "properties": {"osm_id": 1235076988, "building": "yes", "name": "", "height": null, "height_m": null, "levels": null, "tract_id": "40143007646", "tract_name": "76.46", "tags": {"building": "yes", "source": "microsoft/BuildingFootprints"}}}, {"type": "Feature", "geometry": {"type": "Polygon", "coordinates": [[[-95.8843763, 36.0562355], [-95.884375, 36.0560317], [-95.8844877, 36.0560312], [-95.884489, 36.056235], [-95.8843763, 36.0562355]]]}, "properties": {"osm_id": 1290737396, "building": "yes", "name": "", "height": null, "height_m": null, "levels": null, "tract_id": "40143007646", "tract_name": "76.46", "tags": {"building": "yes"}}}, {"type": "Feature", "geometry": {"type": "Polygon", "coordinates": [[[-95.8858556, 36.0576238], [-95.8854157, 36.0576238], [-95.8854157, 36.057478], [-95.8855659, 36.057478], [-95.8855659, 36.0574644], [-95.8858556, 36.0574644], [-95.8858556, 36.0576238]]]}, "properties": {"osm_id": 1290737443, "building": "retail", "name": "Headies Dispensary", "height": null, "height_m": null, "levels": null, "tract_id": "40143007646", "tract_name": "76.46", "tags": {"addr:city": "Tulsa", "addr:country": "US", "addr:housenumber": "7315", "addr:postcode": "74133", "addr:state": "OK", "addr:street": "South Memorial Drive East", "building": "retail", "check_date": "2024-10-09", "name": "Headies Dispensary", "opening_hours": "Mo-Sa 09:00-22:00, Su 11:00-21:00", "phone": "+1 918 806 2338", "shop": "cannabis", "website": "https://www.headies.co/"}}}, {"type": "Feature", "geometry": {"type": "Polygon", "coordinates": [[[-95.8851381, 36.0592821], [-95.8846244, 36.0592821], [-95.8846244, 36.0593059], [-95.8843669, 36.0593059], [-95.8843669, 36.0590197], [-95.8842462, 36.0590197], [-95.8842462, 36.0586229], [-95.884607, 36.0586229], [-95.884607, 36.0588159], [-95.8851381, 36.0588159], [-95.8851381, 36.0592821]]]}, "properties": {"osm_id": 1290737470, "building": "retail", "name": "\u00bd of \u00bd Name Brand Clothing", "height": null, "height_m": null, "levels": null, "tract_id": "40143007646", "tract_name": "76.46", "tags": {"addr:city": "Tulsa", "addr:country": "US", "addr:housenumber": "7215", "addr:postcode": "74133", "addr:state": "OK", "addr:street": "South Memorial Drive East", "building": "retail", "check_date": "2022-09-10", "name": "\u00bd of \u00bd Name Brand Clothing", "roof:shape": "flat", "shop": "clothes"}}}, {"type": "Feature", "geometry": {"type": "Polygon", "coordinates": [[[-95.8846107, 36.0537913], [-95.8845025, 36.0538724], [-95.8845921, 36.0539506], [-95.8845733, 36.0539646], [-95.8846389, 36.0540218], [-95.8847658, 36.0539266], [-95.8846107, 36.0537913]]]}, "properties": {"osm_id": 1317304574, "building": "yes", "name": "", "height": null, "height_m": null, "levels": null, "tract_id": "40143007646", "tract_name": "76.46", "tags": {"addr:city": "Tulsa", "addr:country": "US", "addr:housenumber": "7524", "addr:postcode": "74133", "addr:state": "OK", "addr:street": "South 83rd Avenue East", "building": "yes"}}}, {"type": "Feature", "geometry": {"type": "Polygon", "coordinates": [[[-95.8854608, 36.053868], [-95.885499, 36.053923], [-95.8855564, 36.053897], [-95.885591, 36.0539469], [-95.8855442, 36.0539681], [-95.8855836, 36.0540248], [-95.885741, 36.0539534], [-95.8856289, 36.0537918], [-95.8854608, 36.053868]]]}, "properties": {"osm_id": 1317304575, "building": "yes", "name": "", "height": null, "height_m": null, "levels": null, "tract_id": "40143007646", "tract_name": "76.46", "tags": {"addr:city": "Tulsa", "addr:country": "US", "addr:housenumber": "7524", "addr:postcode": "74133", "addr:state": "OK", "addr:street": "South 82nd Avenue East", "building": "yes"}}}, {"type": "Feature", "geometry": {"type": "Polygon", "coordinates": [[[-95.8851568, 36.0539086], [-95.8851295, 36.0538722], [-95.8851696, 36.0538525], [-95.8851084, 36.053771], [-95.8849732, 36.0538374], [-95.8850618, 36.0539553], [-95.8851568, 36.0539086]]]}, "properties": {"osm_id": 1317304576, "building": "yes", "name": "", "height": null, "height_m": null, "levels": null, "tract_id": "40143007646", "tract_name": "76.46", "tags": {"addr:city": "Tulsa", "addr:country": "US", "addr:housenumber": "7523", "addr:postcode": "74133", "addr:state": "OK", "addr:street": "South 82nd Avenue East", "building": "yes"}}}, {"type": "Feature", "geometry": {"type": "Polygon", "coordinates": [[[-95.8852112, 36.0538462], [-95.8854178, 36.053845], [-95.8854153, 36.0537432], [-95.8852906, 36.0537451], [-95.8852898, 36.0537126], [-95.8852081, 36.0537139], [-95.8852112, 36.0538462]]]}, "properties": {"osm_id": 1317304577, "building": "yes", "name": "", "height": null, "height_m": null, "levels": null, "tract_id": "40143007646", "tract_name": "76.46", "tags": {"addr:city": "Tulsa", "addr:country": "US", "addr:housenumber": "7528", "addr:postcode": "74133", "addr:state": "OK", "addr:street": "South 82nd Avenue East", "building": "yes"}}}, {"type": "Feature", "geometry": {"type": "Polygon", "coordinates": [[[-95.8831324, 36.0577528], [-95.883132, 36.057581], [-95.8831177, 36.0575777], [-95.883107, 36.0575669], [-95.8831068, 36.0574894], [-95.883229, 36.0574892], [-95.8832585, 36.0575121], [-95.8834289, 36.0575118], [-95.8834293, 36.057678], [-95.8833751, 36.0576781], [-95.8833752, 36.0577206], [-95.883235, 36.0577208], [-95.8831928, 36.0577527], [-95.8831324, 36.0577528]]]}, "properties": {"osm_id": 1322795879, "building": "yes", "name": "", "height": null, "height_m": null, "levels": null, "tract_id": "40143007646", "tract_name": "76.46", "tags": {"addr:city": "Tulsa", "addr:country": "US", "addr:housenumber": "8316", "addr:postcode": "74133", "addr:state": "OK", "addr:street": "East 73rd Street South", "building": "yes"}}}, {"type": "Feature", "geometry": {"type": "Polygon", "coordinates": [[[-95.8822574, 36.0577608], [-95.8822547, 36.057494], [-95.8825228, 36.0574923], [-95.8825244, 36.0576534], [-95.8825723, 36.0576691], [-95.882488, 36.0578366], [-95.8822574, 36.0577608]]]}, "properties": {"osm_id": 1322795889, "building": "office", "name": "", "height": null, "height_m": 3.0, "levels": 1, "tract_id": "40143007646", "tract_name": "76.46", "tags": {"addr:city": "Tulsa", "addr:country": "US", "addr:housenumber": "8336", "addr:postcode": "74133", "addr:state": "OK", "addr:street": "East 73rd Street South", "building": "office", "building:levels": "1", "roof:colour": "beige", "roof:levels": "0", "roof:shape": "flat"}}}, {"type": "Feature", "geometry": {"type": "Polygon", "coordinates": [[[-95.8827697, 36.0577068], [-95.882767, 36.05744], [-95.8830351, 36.0574383], [-95.8830367, 36.0575994], [-95.8830846, 36.0576151], [-95.8830003, 36.0577826], [-95.8827697, 36.0577068]]]}, "properties": {"osm_id": 1322795890, "building": "office", "name": "", "height": null, "height_m": 3.0, "levels": 1, "tract_id": "40143007646", "tract_name": "76.46", "tags": {"addr:city": "Tulsa", "addr:country": "US", "addr:housenumber": "8332", "addr:postcode": "74133", "addr:state": "OK", "addr:street": "East 73rd Street South", "building": "office", "building:levels": "1", "roof:colour": "beige", "roof:levels": "0", "roof:shape": "flat"}}}, {"type": "Feature", "geometry": {"type": "Polygon", "coordinates": [[[-95.883809, 36.0577436], [-95.8835719, 36.0578209], [-95.8834912, 36.057659], [-95.883538, 36.0576438], [-95.8835356, 36.0574839], [-95.883805, 36.0574812], [-95.883809, 36.0577436]]]}, "properties": {"osm_id": 1322795891, "building": "office", "name": "", "height": null, "height_m": 3.0, "levels": 1, "tract_id": "40143007646", "tract_name": "76.46", "tags": {"addr:city": "Tulsa", "addr:country": "US", "addr:housenumber": "8310", "addr:postcode": "74133", "addr:state": "OK", "addr:street": "East 73rd Street South", "building": "office", "building:levels": "1", "roof:colour": "grey", "roof:levels": "0", "roof:shape": "flat"}}}]}