{"type": "FeatureCollection", "features": [{"type": "Feature", "geometry": {"type": "Polygon", "coordinates": [[[-96.9288903, 34.9792949], [-96.9288795, 34.9792026], [-96.9286701, 34.9792165], [-96.9286784, 34.9793081], [-96.9288903, 34.9792949]]]}, "properties": {"osm_id": 494756230, "building": "yes", "name": "", "height": null, "height_m": null, "levels": null, "tract_id": "40125501300", "tract_name": "5013", "tags": {"building": "yes"}}}, {"type": "Feature", "geometry": {"type": "Polygon", "coordinates": [[[-96.9288922, 34.9796389], [-96.9288745, 34.9794608], [-96.9286615, 34.979475], [-96.9286792, 34.9796531], [-96.9288922, 34.9796389]]]}, "properties": {"osm_id": 494756231, "building": "yes", "name": "", "height": null, "height_m": null, "levels": null, "tract_id": "40125501300", "tract_name": "5013", "tags": {"building": "yes"}}}, {"type": "Feature", "geometry": {"type": "Polygon", "coordinates": [[[-96.9289234, 34.9803356], [-96.9287505, 34.9803457], [-96.9287266, 34.9800687], [-96.9288994, 34.9800587], [-96.9289234, 34.9803356]]]}, "properties": {"osm_id": 494756232, "building": "yes", "name": "", "height": null, "height_m": null, "levels": null, "tract_id": "40125501300", "tract_name": "5013", "tags": {"building": "yes"}}}, {"type": "Feature", "geometry": {"type": "Polygon", "coordinates": [[[-96.9286328, 34.9804817], [-96.9285228, 34.9804839], [-96.9285201, 34.9803454], [-96.9286274, 34.9803432], [-96.9286328, 34.9804817]]]}, "properties": {"osm_id": 494756233, "building": "yes", "name": "", "height": null, "height_m": null, "levels": null, "tract_id": "40125501300", "tract_name": "5013", "tags": {"building": "yes"}}}, {"type": "Feature", "geometry": {"type": "Polygon", "coordinates": [[[-96.928879, 34.9805479], [-96.9288707, 34.9804352], [-96.9287955, 34.9804389], [-96.9288038, 34.9805516], [-96.928879, 34.9805479]]]}, "properties": {"osm_id": 494756234, "building": "yes", "name": "", "height": null, "height_m": null, "levels": null, "tract_id": "40125501300", "tract_name": "5013", "tags": {"building": "yes"}}}, {"type": "Feature", "geometry": {"type": "Polygon", "coordinates": [[[-96.9289919, 34.981122], [-96.9288052, 34.981135], [-96.9288021, 34.9811049], [-96.9287337, 34.9811097], [-96.9287293, 34.9810677], [-96.9287982, 34.9810629], [-96.9287941, 34.9810233], [-96.9289804, 34.9810104], [-96.9289919, 34.981122]]]}, "properties": {"osm_id": 494756235, "building": "yes", "name": "", "height": null, "height_m": null, "levels": null, "tract_id": "40125501300", "tract_name": "5013", "tags": {"building": "yes"}}}, {"type": "Feature", "geometry": {"type": "Polygon", "coordinates": [[[-96.9287698, 34.9814793], [-96.9290302, 34.981449], [-96.9290266, 34.9814282], [-96.9290498, 34.9814255], [-96.929032, 34.9813231], [-96.9289602, 34.9813315], [-96.9289541, 34.9812969], [-96.9288373, 34.9813105], [-96.9288432, 34.9813443], [-96.9287483, 34.9813553], [-96.9287698, 34.9814793]]]}, "properties": {"osm_id": 494756236, "building": "yes", "name": "", "height": null, "height_m": null, "levels": null, "tract_id": "40125501300", "tract_name": "5013", "tags": {"building": "yes"}}}, {"type": "Feature", "geometry": {"type": "Polygon", "coordinates": [[[-96.929037, 34.9816901], [-96.9289386, 34.9816995], [-96.9289192, 34.9815635], [-96.9290176, 34.9815541], [-96.929037, 34.9816901]]]}, "properties": {"osm_id": 494756237, "building": "yes", "name": "", "height": null, "height_m": null, "levels": null, "tract_id": "40125501300", "tract_name": "5013", "tags": {"building": "yes"}}}, {"type": "Feature", "geometry": {"type": "Polygon", "coordinates": [[[-96.929064, 34.9820892], [-96.9289767, 34.9820967], [-96.928933, 34.981756], [-96.9290444, 34.9817464], [-96.9290526, 34.9818111], [-96.9290286, 34.9818132], [-96.929064, 34.9820892]]]}, "properties": {"osm_id": 494756238, "building": "yes", "name": "", "height": null, "height_m": null, "levels": null, "tract_id": "40125501300", "tract_name": "5013", "tags": {"building": "yes"}}}, {"type": "Feature", "geometry": {"type": "Polygon", "coordinates": [[[-96.9292344, 34.9824011], [-96.9292207, 34.9822693], [-96.929123, 34.9822762], [-96.9291247, 34.9822928], [-96.9291087, 34.982294], [-96.9291151, 34.9823553], [-96.929143, 34.9823533], [-96.9291486, 34.9824071], [-96.9292344, 34.9824011]]]}, "properties": {"osm_id": 494756239, "building": "yes", "name": "", "height": null, "height_m": null, "levels": null, "tract_id": "40125501300", "tract_name": "5013", "tags": {"building": "yes"}}}, {"type": "Feature", "geometry": {"type": "Polygon", "coordinates": [[[-96.9292362, 34.983009], [-96.9290262, 34.9830241], [-96.929009, 34.9828628], [-96.929219, 34.9828478], [-96.9292362, 34.983009]]]}, "properties": {"osm_id": 494756240, "building": "yes", "name": "", "height": null, "height_m": null, "levels": null, "tract_id": "40125501300", "tract_name": "5013", "tags": {"building": "yes"}}}, {"type": "Feature", "geometry": {"type": "Polygon", "coordinates": [[[-96.9301757, 34.9831096], [-96.9300898, 34.9831183], [-96.9300587, 34.9829108], [-96.9300786, 34.9828897], [-96.9300743, 34.9828613], [-96.9301034, 34.9828583], [-96.9300888, 34.9827617], [-96.930196, 34.9827509], [-96.9302328, 34.982995], [-96.9301596, 34.9830024], [-96.9301757, 34.9831096]]]}, "properties": {"osm_id": 494756241, "building": "yes", "name": "", "height": null, "height_m": null, "levels": null, "tract_id": "40125501300", "tract_name": "5013", "tags": {"building": "yes"}}}, {"type": "Feature", "geometry": {"type": "Polygon", "coordinates": [[[-96.9302369, 34.9826802], [-96.9300369, 34.9827032], [-96.9300223, 34.9826179], [-96.9302223, 34.9825949], [-96.9302369, 34.9826802]]]}, "properties": {"osm_id": 494756242, "building": "yes", "name": "", "height": null, "height_m": null, "levels": null, "tract_id": "40125501300", "tract_name": "5013", "tags": {"building": "yes"}}}, {"type": "Feature", "geometry": {"type": "Polygon", "coordinates": [[[-96.9300173, 34.982566], [-96.9300037, 34.9824852], [-96.9302004, 34.9824629], [-96.9302141, 34.9825437], [-96.9300173, 34.982566]]]}, "properties": {"osm_id": 494756243, "building": "yes", "name": "", "height": null, "height_m": null, "levels": null, "tract_id": "40125501300", "tract_name": "5013", "tags": {"building": "yes"}}}, {"type": "Feature", "geometry": {"type": "Polygon", "coordinates": [[[-96.929858, 34.9818876], [-96.9300008, 34.9818693], [-96.9299652, 34.9816826], [-96.9298224, 34.9817009], [-96.929858, 34.9818876]]]}, "properties": {"osm_id": 494756244, "building": "yes", "name": "", "height": null, "height_m": null, "levels": null, "tract_id": "40125501300", "tract_name": "5013", "tags": {"building": "yes"}}}, {"type": "Feature", "geometry": {"type": "Polygon", "coordinates": [[[-96.9225508, 34.989981], [-96.9225508, 34.9897262], [-96.9225853, 34.9897279], [-96.9225874, 34.9895064], [-96.9225528, 34.9895064], [-96.9225569, 34.9892216], [-96.92238, 34.9892166], [-96.9223739, 34.9897329], [-96.9222845, 34.9897312], [-96.9222845, 34.9898245], [-96.9223719, 34.9898261], [-96.9223719, 34.9899793], [-96.9225508, 34.989981]]]}, "properties": {"osm_id": 494756245, "building": "school", "name": "Asher High School", "height": null, "height_m": null, "levels": null, "tract_id": "40125501300", "tract_name": "5013", "tags": {"building": "school", "name": "Asher High School"}}}, {"type": "Feature", "geometry": {"type": "Polygon", "coordinates": [[[-96.9221605, 34.9899462], [-96.9219949, 34.9899517], [-96.9219783, 34.989622], [-96.9221439, 34.9896164], [-96.9221605, 34.9899462]]]}, "properties": {"osm_id": 494756246, "building": "yes", "name": "", "height": null, "height_m": null, "levels": null, "tract_id": "40125501300", "tract_name": "5013", "tags": {"building": "yes"}}}, {"type": "Feature", "geometry": {"type": "Polygon", "coordinates": [[[-96.9221484, 34.9896014], [-96.921743, 34.9896137], [-96.9217366, 34.989472], [-96.922142, 34.9894598], [-96.9221484, 34.9896014]]]}, "properties": {"osm_id": 494756247, "building": "yes", "name": "", "height": null, "height_m": null, "levels": null, "tract_id": "40125501300", "tract_name": "5013", "tags": {"building": "yes"}}}, {"type": "Feature", "geometry": {"type": "Polygon", "coordinates": [[[-96.9222825, 34.9893865], [-96.9219836, 34.9893832], [-96.9219816, 34.9892083], [-96.9222825, 34.9892116], [-96.9222825, 34.9893865]]]}, "properties": {"osm_id": 494756248, "building": "yes", "name": "", "height": null, "height_m": null, "levels": null, "tract_id": "40125501300", "tract_name": "5013", "tags": {"building": "yes"}}}, {"type": "Feature", "geometry": {"type": "Polygon", "coordinates": [[[-96.9219877, 34.990384], [-96.9217458, 34.9903857], [-96.9217417, 34.9902691], [-96.9219836, 34.9902674], [-96.9219877, 34.990384]]]}, "properties": {"osm_id": 494756249, "building": "yes", "name": "", "height": null, "height_m": null, "levels": null, "tract_id": "40125501300", "tract_name": "5013", "tags": {"building": "yes"}}}, {"type": "Feature", "geometry": {"type": "Polygon", "coordinates": [[[-96.9219653, 34.9901625], [-96.9219674, 34.9900859], [-96.9219674, 34.9899843], [-96.9218576, 34.989981], [-96.9218576, 34.9901592], [-96.9219653, 34.9901625]]]}, "properties": {"osm_id": 494756250, "building": "yes", "name": "", "height": null, "height_m": null, "levels": null, "tract_id": "40125501300", "tract_name": "5013", "tags": {"building": "yes"}}}, {"type": "Feature", "geometry": {"type": "Polygon", "coordinates": [[[-96.9222906, 34.9904556], [-96.9224071, 34.9904573], [-96.9224078, 34.9904306], [-96.9227215, 34.990434], [-96.9227215, 34.9904189], [-96.9227784, 34.990419], [-96.9227784, 34.9902241], [-96.9228028, 34.9902241], [-96.9228028, 34.9901742], [-96.9226463, 34.9901709], [-96.9226463, 34.9902058], [-96.9224126, 34.9902058], [-96.9224099, 34.9901917], [-96.9222919, 34.9901929], [-96.9222906, 34.9904556]]]}, "properties": {"osm_id": 494756251, "building": "yes", "name": "", "height": null, "height_m": null, "levels": null, "tract_id": "40125501300", "tract_name": "5013", "tags": {"building": "yes"}}}, {"type": "Feature", "geometry": {"type": "Polygon", "coordinates": [[[-96.9235254, 34.9920643], [-96.9233856, 34.9921441], [-96.923221, 34.9919585], [-96.9233661, 34.9918802], [-96.9235254, 34.9920643]]]}, "properties": {"osm_id": 494756252, "building": "yes", "name": "", "height": null, "height_m": null, "levels": null, "tract_id": "40125501300", "tract_name": "5013", "tags": {"building": "yes"}}}, {"type": "Feature", "geometry": {"type": "Polygon", "coordinates": [[[-96.922154, 34.9952139], [-96.9219126, 34.995227], [-96.9219018, 34.9951084], [-96.9221406, 34.995093], [-96.922154, 34.9952139]]]}, "properties": {"osm_id": 494756254, "building": "yes", "name": "", "height": null, "height_m": null, "levels": null, "tract_id": "40125501300", "tract_name": "5013", "tags": {"building": "yes"}}}, {"type": "Feature", "geometry": {"type": "Polygon", "coordinates": [[[-96.928983, 34.9733171], [-96.9288382, 34.9733083], [-96.9288536, 34.9730924], [-96.9289999, 34.9731013], [-96.928983, 34.9733171]]]}, "properties": {"osm_id": 494756256, "building": "yes", "name": "", "height": null, "height_m": null, "levels": null, "tract_id": "40125501300", "tract_name": "5013", "tags": {"building": "yes"}}}, {"type": "Feature", "geometry": {"type": "Polygon", "coordinates": [[[-97.072033, 35.0137792], [-97.0719381, 35.0137717], [-97.0719595, 35.0135905], [-97.0720544, 35.013598], [-97.072033, 35.0137792]]]}, "properties": {"osm_id": 772765989, "building": "yes", "name": "", "height": null, "height_m": null, "levels": null, "tract_id": "40125501300", "tract_name": "5013", "tags": {"addr:city": "Wanette", "addr:country": "US", "addr:housenumber": "32985", "addr:postcode": "74878", "addr:state": "OK", "addr:street": "Highway 39", "building": "yes"}}}, {"type": "Feature", "geometry": {"type": "Polygon", "coordinates": [[[-96.9282649, 34.9851696], [-96.9281382, 34.9850125], [-96.927756, 34.9852195], [-96.9278827, 34.9853766], [-96.9282649, 34.9851696]]]}, "properties": {"osm_id": 919320734, "building": "yes", "name": "Dollar General", "height": null, "height_m": null, "levels": null, "tract_id": "40125501300", "tract_name": "5013", "tags": {"brand": "Dollar General", "brand:wikidata": "Q145168", "building": "yes", "name": "Dollar General", "shop": "variety_store", "website": "https://www.dollargeneral.com/store-directory/ok/asher/16470"}}}, {"type": "Feature", "geometry": {"type": "Polygon", "coordinates": [[[-96.9287065, 34.9846555], [-96.9287719, 34.9844871], [-96.9286715, 34.9844642], [-96.9286084, 34.9846306], [-96.9287065, 34.9846555]]]}, "properties": {"osm_id": 919320736, "building": "house", "name": "", "height": null, "height_m": null, "levels": null, "tract_id": "40125501300", "tract_name": "5013", "tags": {"building": "house"}}}, {"type": "Feature", "geometry": {"type": "Polygon", "coordinates": [[[-96.9270767, 34.9846813], [-96.9272828, 34.9845469], [-96.927238, 34.9845008], [-96.9270319, 34.9846352], [-96.9270767, 34.9846813]]]}, "properties": {"osm_id": 919320737, "building": "house", "name": "", "height": null, "height_m": null, "levels": null, "tract_id": "40125501300", "tract_name": "5013", "tags": {"building": "house"}}}, {"type": "Feature", "geometry": {"type": "Polygon", "coordinates": [[[-97.0329108, 34.9618529], [-97.0329104, 34.9618031], [-97.0328923, 34.9618032], [-97.0328918, 34.9617422], [-97.0328447, 34.9617424], [-97.0328452, 34.9618073], [-97.032831, 34.9618074], [-97.0328314, 34.9618533], [-97.0329108, 34.9618529]]]}, "properties": {"osm_id": 1126953637, "building": "yes", "name": "", "height": null, "height_m": null, "levels": null, "tract_id": "40125501300", "tract_name": "5013", "tags": {"addr:city": "Wanette", "addr:housenumber": "112", "addr:postcode": "74878", "addr:state": "OK", "addr:street": "North Clarady Avenue", "building": "yes", "clli": "WNTTOKMA", "telecom": "exchange"}}}, {"type": "Feature", "geometry": {"type": "Polygon", "coordinates": [[[-97.0553199, 35.1147159], [-97.0552092, 35.1147116], [-97.0552205, 35.1145719], [-97.0553321, 35.1145759], [-97.0553199, 35.1147159]]]}, "properties": {"osm_id": 1279303766, "building": "yes", "name": "", "height": null, "height_m": null, "levels": null, "tract_id": "40125501300", "tract_name": "5013", "tags": {"building": "yes"}}}, {"type": "Feature", "geometry": {"type": "Polygon", "coordinates": [[[-97.0553247, 35.1144268], [-97.0551252, 35.1144276], [-97.0551245, 35.1143142], [-97.0553241, 35.1143135], [-97.0553247, 35.1144268]]]}, "properties": {"osm_id": 1279303767, "building": "yes", "name": "", "height": null, "height_m": null, "levels": null, "tract_id": "40125501300", "tract_name": "5013", "tags": {"building": "yes"}}}, {"type": "Feature", "geometry": {"type": "Polygon", "coordinates": [[[-97.0545664, 35.1150336], [-97.0543508, 35.1150358], [-97.0543494, 35.1149475], [-97.054565, 35.1149452], [-97.0545664, 35.1150336]]]}, "properties": {"osm_id": 1279303768, "building": "yes", "name": "", "height": null, "height_m": null, "levels": null, "tract_id": "40125501300", "tract_name": "5013", "tags": {"building": "yes"}}}, {"type": "Feature", "geometry": {"type": "Polygon", "coordinates": [[[-97.0563773, 35.1145171], [-97.0563754, 35.1144316], [-97.0561194, 35.1144353], [-97.0561213, 35.1145209], [-97.0563773, 35.1145171]]]}, "properties": {"osm_id": 1279417949, "building": "yes", "name": "", "height": null, "height_m": null, "levels": null, "tract_id": "40125501300", "tract_name": "5013", "tags": {"building": "yes", "source": "microsoft/BuildingFootprints"}}}, {"type": "Feature", "geometry": {"type": "Polygon", "coordinates": [[[-97.0559366, 35.1147385], [-97.0558201, 35.1147356], [-97.0558169, 35.1148224], [-97.0558182, 35.1148224], [-97.0558132, 35.114957], [-97.055836, 35.1149576], [-97.0558341, 35.1150093], [-97.0558997, 35.1150109], [-97.0559016, 35.1149605], [-97.0559284, 35.1149612], [-97.0559366, 35.1147385]]]}, "properties": {"osm_id": 1279417950, "building": "yes", "name": "", "height": null, "height_m": null, "levels": null, "tract_id": "40125501300", "tract_name": "5013", "tags": {"building": "yes", "source": "microsoft/BuildingFootprints"}}}, {"type": "Feature", "geometry": {"type": "Polygon", "coordinates": [[[-97.0557161, 35.1142423], [-97.0557185, 35.1142883], [-97.0557893, 35.1142859], [-97.055787, 35.1142399], [-97.0557161, 35.1142423]]]}, "properties": {"osm_id": 1279417951, "building": "yes", "name": "", "height": null, "height_m": null, "levels": null, "tract_id": "40125501300", "tract_name": "5013", "tags": {"building": "yes", "source": "microsoft/BuildingFootprints"}}}, {"type": "Feature", "geometry": {"type": "Polygon", "coordinates": [[[-97.0545689, 35.1143944], [-97.0545709, 35.1144667], [-97.054646, 35.1144653], [-97.0546464, 35.1144807], [-97.0547081, 35.1144795], [-97.0547063, 35.1144159], [-97.0546915, 35.1144162], [-97.0546908, 35.1143921], [-97.0545689, 35.1143944]]]}, "properties": {"osm_id": 1279417952, "building": "yes", "name": "", "height": null, "height_m": null, "levels": null, "tract_id": "40125501300", "tract_name": "5013", "tags": {"building": "yes", "source": "microsoft/BuildingFootprints"}}}, {"type": "Feature", "geometry": {"type": "Polygon", "coordinates": [[[-97.0563665, 35.1140112], [-97.0565489, 35.1140095], [-97.0565474, 35.1139086], [-97.0563651, 35.1139103], [-97.0563665, 35.1140112]]]}, "properties": {"osm_id": 1279417953, "building": "yes", "name": "", "height": null, "height_m": null, "levels": null, "tract_id": "40125501300", "tract_name": "5013", "tags": {"building": "yes", "source": "microsoft/BuildingFootprints"}}}, {"type": "Feature", "geometry": {"type": "Polygon", "coordinates": [[[-97.0555988, 35.1136926], [-97.0555965, 35.1137759], [-97.0558485, 35.1137808], [-97.0558508, 35.1136974], [-97.0555988, 35.1136926]]]}, "properties": {"osm_id": 1279417954, "building": "yes", "name": "", "height": null, "height_m": null, "levels": null, "tract_id": "40125501300", "tract_name": "5013", "tags": {"building": "yes", "source": "microsoft/BuildingFootprints"}}}, {"type": "Feature", "geometry": {"type": "Polygon", "coordinates": [[[-97.056344, 35.1153324], [-97.0565223, 35.1153294], [-97.0565213, 35.1152909], [-97.0564449, 35.1152921], [-97.0564438, 35.1152461], [-97.0563419, 35.1152478], [-97.056344, 35.1153324]]]}, "properties": {"osm_id": 1279417955, "building": "yes", "name": "", "height": null, "height_m": null, "levels": null, "tract_id": "40125501300", "tract_name": "5013", "tags": {"building": "yes", "source": "microsoft/BuildingFootprints"}}}, {"type": "Feature", "geometry": {"type": "Polygon", "coordinates": [[[-97.0576456, 35.1153222], [-97.0576438, 35.1153638], [-97.0577483, 35.1153668], [-97.05775, 35.1153252], [-97.0576456, 35.1153222]]]}, "properties": {"osm_id": 1279417956, "building": "yes", "name": "", "height": null, "height_m": null, "levels": null, "tract_id": "40125501300", "tract_name": "5013", "tags": {"building": "yes", "source": "microsoft/BuildingFootprints"}}}, {"type": "Feature", "geometry": {"type": "Polygon", "coordinates": [[[-97.0558376, 35.1159431], [-97.0560039, 35.1159409], [-97.0560024, 35.1158641], [-97.0558361, 35.1158664], [-97.0558376, 35.1159431]]]}, "properties": {"osm_id": 1279417957, "building": "yes", "name": "", "height": null, "height_m": null, "levels": null, "tract_id": "40125501300", "tract_name": "5013", "tags": {"building": "yes", "source": "microsoft/BuildingFootprints"}}}, {"type": "Feature", "geometry": {"type": "Polygon", "coordinates": [[[-97.0556301, 35.1158654], [-97.0556339, 35.1159706], [-97.055772, 35.1159673], [-97.0557682, 35.115862], [-97.0556301, 35.1158654]]]}, "properties": {"osm_id": 1279417958, "building": "yes", "name": "", "height": null, "height_m": null, "levels": null, "tract_id": "40125501300", "tract_name": "5013", "tags": {"building": "yes", "source": "microsoft/BuildingFootprints"}}}, {"type": "Feature", "geometry": {"type": "Polygon", "coordinates": [[[-97.0552295, 35.1159435], [-97.0551035, 35.1159421], [-97.0551017, 35.1160509], [-97.0552277, 35.1160523], [-97.0552295, 35.1159435]]]}, "properties": {"osm_id": 1279417959, "building": "yes", "name": "", "height": null, "height_m": null, "levels": null, "tract_id": "40125501300", "tract_name": "5013", "tags": {"building": "yes", "source": "microsoft/BuildingFootprints"}}}, {"type": "Feature", "geometry": {"type": "Polygon", "coordinates": [[[-97.0549654, 35.1159262], [-97.0549667, 35.1160196], [-97.0550565, 35.1160188], [-97.0550552, 35.1159253], [-97.0549654, 35.1159262]]]}, "properties": {"osm_id": 1279417960, "building": "yes", "name": "", "height": null, "height_m": null, "levels": null, "tract_id": "40125501300", "tract_name": "5013", "tags": {"building": "yes", "source": "microsoft/BuildingFootprints"}}}, {"type": "Feature", "geometry": {"type": "Polygon", "coordinates": [[[-97.0547423, 35.1154009], [-97.0547411, 35.115493], [-97.0548323, 35.1154938], [-97.0548335, 35.1154017], [-97.0547423, 35.1154009]]]}, "properties": {"osm_id": 1279417961, "building": "yes", "name": "", "height": null, "height_m": null, "levels": null, "tract_id": "40125501300", "tract_name": "5013", "tags": {"building": "yes", "source": "microsoft/BuildingFootprints"}}}, {"type": "Feature", "geometry": {"type": "Polygon", "coordinates": [[[-97.0548398, 35.1153311], [-97.0547889, 35.1153301], [-97.0547871, 35.1153893], [-97.0548381, 35.1153903], [-97.0548398, 35.1153311]]]}, "properties": {"osm_id": 1279417962, "building": "yes", "name": "", "height": null, "height_m": null, "levels": null, "tract_id": "40125501300", "tract_name": "5013", "tags": {"building": "yes", "source": "microsoft/BuildingFootprints"}}}, {"type": "Feature", "geometry": {"type": "Polygon", "coordinates": [[[-97.054582, 35.1152401], [-97.0545244, 35.1152393], [-97.0545201, 35.115453], [-97.0545764, 35.1154537], [-97.0545783, 35.1153594], [-97.0546467, 35.1153603], [-97.0546474, 35.1153252], [-97.0545803, 35.1153243], [-97.054582, 35.1152401]]]}, "properties": {"osm_id": 1279417963, "building": "yes", "name": "", "height": null, "height_m": null, "levels": null, "tract_id": "40125501300", "tract_name": "5013", "tags": {"building": "yes", "source": "microsoft/BuildingFootprints"}}}, {"type": "Feature", "geometry": {"type": "Polygon", "coordinates": [[[-97.0549354, 35.1163651], [-97.0551338, 35.1163677], [-97.0551362, 35.1162471], [-97.0549378, 35.1162445], [-97.0549354, 35.1163651]]]}, "properties": {"osm_id": 1279417964, "building": "yes", "name": "", "height": null, "height_m": null, "levels": null, "tract_id": "40125501300", "tract_name": "5013", "tags": {"building": "yes", "source": "microsoft/BuildingFootprints"}}}, {"type": "Feature", "geometry": {"type": "Polygon", "coordinates": [[[-97.0552616, 35.1164007], [-97.0551972, 35.1164001], [-97.0551962, 35.1164791], [-97.0552605, 35.1164797], [-97.0552616, 35.1164007]]]}, "properties": {"osm_id": 1279417965, "building": "yes", "name": "", "height": null, "height_m": null, "levels": null, "tract_id": "40125501300", "tract_name": "5013", "tags": {"building": "yes", "source": "microsoft/BuildingFootprints"}}}, {"type": "Feature", "geometry": {"type": "Polygon", "coordinates": [[[-97.0551963, 35.1163005], [-97.0551989, 35.116361], [-97.055318, 35.1163575], [-97.0553154, 35.1162971], [-97.0551963, 35.1163005]]]}, "properties": {"osm_id": 1279417966, "building": "yes", "name": "", "height": null, "height_m": null, "levels": null, "tract_id": "40125501300", "tract_name": "5013", "tags": {"building": "yes", "source": "microsoft/BuildingFootprints"}}}, {"type": "Feature", "geometry": {"type": "Polygon", "coordinates": [[[-97.0544043, 35.1164223], [-97.0544051, 35.1164881], [-97.0545956, 35.1164866], [-97.0545948, 35.1164208], [-97.0544043, 35.1164223]]]}, "properties": {"osm_id": 1279417967, "building": "yes", "name": "", "height": null, "height_m": null, "levels": null, "tract_id": "40125501300", "tract_name": "5013", "tags": {"building": "yes", "source": "microsoft/BuildingFootprints"}}}, {"type": "Feature", "geometry": {"type": "Polygon", "coordinates": [[[-97.0546377, 35.1134297], [-97.0546682, 35.1133176], [-97.0545364, 35.1132936], [-97.0545087, 35.1133952], [-97.0544551, 35.1133855], [-97.0544309, 35.1134741], [-97.0544809, 35.1134832], [-97.0544658, 35.1135388], [-97.0545589, 35.1135558], [-97.0545953, 35.113422], [-97.0546377, 35.1134297]]]}, "properties": {"osm_id": 1279417972, "building": "yes", "name": "", "height": null, "height_m": null, "levels": null, "tract_id": "40125501300", "tract_name": "5013", "tags": {"building": "yes", "source": "microsoft/BuildingFootprints"}}}, {"type": "Feature", "geometry": {"type": "Polygon", "coordinates": [[[-97.0546517, 35.113131], [-97.054572, 35.113268], [-97.0546485, 35.1132978], [-97.0547283, 35.1131608], [-97.0546517, 35.113131]]]}, "properties": {"osm_id": 1279417973, "building": "yes", "name": "", "height": null, "height_m": null, "levels": null, "tract_id": "40125501300", "tract_name": "5013", "tags": {"building": "yes", "source": "microsoft/BuildingFootprints"}}}, {"type": "Feature", "geometry": {"type": "Polygon", "coordinates": [[[-97.0557578, 35.1128204], [-97.055621, 35.1128226], [-97.0556231, 35.1129125], [-97.0557599, 35.1129103], [-97.0557578, 35.1128204]]]}, "properties": {"osm_id": 1279417975, "building": "yes", "name": "", "height": null, "height_m": null, "levels": null, "tract_id": "40125501300", "tract_name": "5013", "tags": {"building": "yes", "source": "microsoft/BuildingFootprints"}}}, {"type": "Feature", "geometry": {"type": "Polygon", "coordinates": [[[-97.0562244, 35.1125997], [-97.0562175, 35.1128115], [-97.0562738, 35.1128127], [-97.0562807, 35.112601], [-97.0562244, 35.1125997]]]}, "properties": {"osm_id": 1279417976, "building": "yes", "name": "", "height": null, "height_m": null, "levels": null, "tract_id": "40125501300", "tract_name": "5013", "tags": {"building": "yes", "source": "microsoft/BuildingFootprints"}}}, {"type": "Feature", "geometry": {"type": "Polygon", "coordinates": [[[-97.0563898, 35.1126465], [-97.0563931, 35.1128198], [-97.0564441, 35.1128191], [-97.0564408, 35.1126458], [-97.0563898, 35.1126465]]]}, "properties": {"osm_id": 1279417977, "building": "yes", "name": "", "height": null, "height_m": null, "levels": null, "tract_id": "40125501300", "tract_name": "5013", "tags": {"building": "yes", "source": "microsoft/BuildingFootprints"}}}, {"type": "Feature", "geometry": {"type": "Polygon", "coordinates": [[[-97.0564501, 35.1128638], [-97.0565037, 35.1128647], [-97.0565079, 35.1126958], [-97.0564542, 35.1126949], [-97.0564501, 35.1128638]]]}, "properties": {"osm_id": 1279417978, "building": "yes", "name": "", "height": null, "height_m": null, "levels": null, "tract_id": "40125501300", "tract_name": "5013", "tags": {"building": "yes", "source": "microsoft/BuildingFootprints"}}}, {"type": "Feature", "geometry": {"type": "Polygon", "coordinates": [[[-97.0563834, 35.1122928], [-97.0563819, 35.1123323], [-97.056607, 35.112338], [-97.0566085, 35.1122986], [-97.0563834, 35.1122928]]]}, "properties": {"osm_id": 1279417979, "building": "yes", "name": "", "height": null, "height_m": null, "levels": null, "tract_id": "40125501300", "tract_name": "5013", "tags": {"building": "yes", "source": "microsoft/BuildingFootprints"}}}, {"type": "Feature", "geometry": {"type": "Polygon", "coordinates": [[[-97.0574875, 35.1130899], [-97.0577126, 35.1130955], [-97.0577156, 35.1130134], [-97.0576218, 35.113011], [-97.0576224, 35.1129945], [-97.0574911, 35.1129913], [-97.0574875, 35.1130899]]]}, "properties": {"osm_id": 1279417980, "building": "yes", "name": "", "height": null, "height_m": null, "levels": null, "tract_id": "40125501300", "tract_name": "5013", "tags": {"building": "yes", "source": "microsoft/BuildingFootprints"}}}, {"type": "Feature", "geometry": {"type": "Polygon", "coordinates": [[[-97.0545446, 35.1121858], [-97.0543892, 35.1121827], [-97.0543852, 35.1123142], [-97.0545407, 35.1123174], [-97.0545446, 35.1121858]]]}, "properties": {"osm_id": 1279417981, "building": "yes", "name": "", "height": null, "height_m": null, "levels": null, "tract_id": "40125501300", "tract_name": "5013", "tags": {"building": "yes", "source": "microsoft/BuildingFootprints"}}}, {"type": "Feature", "geometry": {"type": "Polygon", "coordinates": [[[-97.0543893, 35.1117399], [-97.0543883, 35.1118518], [-97.054516, 35.1118526], [-97.054517, 35.1117407], [-97.0543893, 35.1117399]]]}, "properties": {"osm_id": 1279417982, "building": "yes", "name": "", "height": null, "height_m": null, "levels": null, "tract_id": "40125501300", "tract_name": "5013", "tags": {"building": "yes", "source": "microsoft/BuildingFootprints"}}}, {"type": "Feature", "geometry": {"type": "Polygon", "coordinates": [[[-97.054436, 35.1115014], [-97.0543854, 35.1116014], [-97.0544023, 35.1116071], [-97.0543827, 35.1116457], [-97.0544743, 35.1116768], [-97.0544933, 35.1116393], [-97.0545139, 35.1116463], [-97.0545651, 35.1115451], [-97.054436, 35.1115014]]]}, "properties": {"osm_id": 1279417983, "building": "yes", "name": "", "height": null, "height_m": null, "levels": null, "tract_id": "40125501300", "tract_name": "5013", "tags": {"building": "yes", "source": "microsoft/BuildingFootprints"}}}, {"type": "Feature", "geometry": {"type": "Polygon", "coordinates": [[[-97.0546387, 35.1111385], [-97.054612, 35.1112308], [-97.0547262, 35.1112529], [-97.054753, 35.1111607], [-97.0546387, 35.1111385]]]}, "properties": {"osm_id": 1279417984, "building": "yes", "name": "", "height": null, "height_m": null, "levels": null, "tract_id": "40125501300", "tract_name": "5013", "tags": {"building": "yes", "source": "microsoft/BuildingFootprints"}}}, {"type": "Feature", "geometry": {"type": "Polygon", "coordinates": [[[-97.0548865, 35.1102681], [-97.0549949, 35.1103066], [-97.0550164, 35.1102659], [-97.054908, 35.1102275], [-97.0548865, 35.1102681]]]}, "properties": {"osm_id": 1279417985, "building": "yes", "name": "", "height": null, "height_m": null, "levels": null, "tract_id": "40125501300", "tract_name": "5013", "tags": {"building": "yes", "source": "microsoft/BuildingFootprints"}}}, {"type": "Feature", "geometry": {"type": "Polygon", "coordinates": [[[-97.0554247, 35.110115], [-97.0553977, 35.1101053], [-97.0553711, 35.110155], [-97.0554499, 35.1101832], [-97.0554903, 35.1101077], [-97.0554385, 35.1100892], [-97.0554247, 35.110115]]]}, "properties": {"osm_id": 1279417986, "building": "yes", "name": "", "height": null, "height_m": null, "levels": null, "tract_id": "40125501300", "tract_name": "5013", "tags": {"building": "yes", "source": "microsoft/BuildingFootprints"}}}, {"type": "Feature", "geometry": {"type": "Polygon", "coordinates": [[[-97.0587813, 35.1112335], [-97.0586616, 35.1112353], [-97.0586639, 35.111334], [-97.0587835, 35.1113322], [-97.0587813, 35.1112335]]]}, "properties": {"osm_id": 1279417990, "building": "yes", "name": "", "height": null, "height_m": null, "levels": null, "tract_id": "40125501300", "tract_name": "5013", "tags": {"building": "yes", "source": "microsoft/BuildingFootprints"}}}, {"type": "Feature", "geometry": {"type": "Polygon", "coordinates": [[[-97.0588036, 35.1114866], [-97.0588042, 35.1116555], [-97.0593417, 35.1116542], [-97.0593411, 35.1114875], [-97.0591962, 35.1114878], [-97.059196, 35.1114264], [-97.0591021, 35.1114266], [-97.0591024, 35.1114859], [-97.0588036, 35.1114866]]]}, "properties": {"osm_id": 1279417991, "building": "yes", "name": "", "height": null, "height_m": null, "levels": null, "tract_id": "40125501300", "tract_name": "5013", "tags": {"building": "yes", "source": "microsoft/BuildingFootprints"}}}, {"type": "Feature", "geometry": {"type": "Polygon", "coordinates": [[[-97.0590318, 35.112271], [-97.059109, 35.1123837], [-97.0591854, 35.1123487], [-97.0591081, 35.112236], [-97.0590318, 35.112271]]]}, "properties": {"osm_id": 1279417992, "building": "yes", "name": "", "height": null, "height_m": null, "levels": null, "tract_id": "40125501300", "tract_name": "5013", "tags": {"building": "yes", "source": "microsoft/BuildingFootprints"}}}, {"type": "Feature", "geometry": {"type": "Polygon", "coordinates": [[[-97.0593644, 35.1112656], [-97.0593617, 35.1113797], [-97.0596968, 35.111385], [-97.0596995, 35.111271], [-97.0593644, 35.1112656]]]}, "properties": {"osm_id": 1279417993, "building": "yes", "name": "", "height": null, "height_m": null, "levels": null, "tract_id": "40125501300", "tract_name": "5013", "tags": {"building": "yes", "source": "microsoft/BuildingFootprints"}}}, {"type": "Feature", "geometry": {"type": "Polygon", "coordinates": [[[-97.0599854, 35.1117017], [-97.0600846, 35.1117023], [-97.0600861, 35.1115334], [-97.0599869, 35.1115328], [-97.0599854, 35.1117017]]]}, "properties": {"osm_id": 1279417994, "building": "yes", "name": "", "height": null, "height_m": null, "levels": null, "tract_id": "40125501300", "tract_name": "5013", "tags": {"building": "yes", "source": "microsoft/BuildingFootprints"}}}, {"type": "Feature", "geometry": {"type": "Polygon", "coordinates": [[[-97.0609687, 35.1111216], [-97.0607439, 35.111113], [-97.0607415, 35.1111546], [-97.0609664, 35.1111632], [-97.0609687, 35.1111216]]]}, "properties": {"osm_id": 1279417995, "building": "yes", "name": "", "height": null, "height_m": null, "levels": null, "tract_id": "40125501300", "tract_name": "5013", "tags": {"building": "yes", "source": "microsoft/BuildingFootprints"}}}, {"type": "Feature", "geometry": {"type": "Polygon", "coordinates": [[[-97.0608699, 35.1109208], [-97.0609735, 35.1109185], [-97.060969, 35.1107826], [-97.0608655, 35.1107848], [-97.0608699, 35.1109208]]]}, "properties": {"osm_id": 1279417996, "building": "yes", "name": "", "height": null, "height_m": null, "levels": null, "tract_id": "40125501300", "tract_name": "5013", "tags": {"building": "yes", "source": "microsoft/BuildingFootprints"}}}, {"type": "Feature", "geometry": {"type": "Polygon", "coordinates": [[[-97.0611282, 35.1108533], [-97.0611333, 35.1109519], [-97.0614054, 35.1109426], [-97.0614004, 35.110844], [-97.0611282, 35.1108533]]]}, "properties": {"osm_id": 1279417997, "building": "yes", "name": "", "height": null, "height_m": null, "levels": null, "tract_id": "40125501300", "tract_name": "5013", "tags": {"building": "yes", "source": "microsoft/BuildingFootprints"}}}, {"type": "Feature", "geometry": {"type": "Polygon", "coordinates": [[[-97.0626867, 35.1120824], [-97.0625993, 35.1120844], [-97.0626016, 35.1121524], [-97.062689, 35.1121503], [-97.0626867, 35.1120824]]]}, "properties": {"osm_id": 1279417998, "building": "yes", "name": "", "height": null, "height_m": null, "levels": null, "tract_id": "40125501300", "tract_name": "5013", "tags": {"building": "yes", "source": "microsoft/BuildingFootprints"}}}, {"type": "Feature", "geometry": {"type": "Polygon", "coordinates": [[[-97.0625558, 35.1125227], [-97.0626305, 35.1125187], [-97.062625, 35.1124501], [-97.0625503, 35.1124541], [-97.0625558, 35.1125227]]]}, "properties": {"osm_id": 1279419239, "building": "yes", "name": "", "height": null, "height_m": null, "levels": null, "tract_id": "40125501300", "tract_name": "5013", "tags": {"building": "yes", "source": "microsoft/BuildingFootprints"}}}, {"type": "Feature", "geometry": {"type": "Polygon", "coordinates": [[[-97.0653514, 35.1115776], [-97.0653698, 35.1116567], [-97.0654232, 35.1116484], [-97.0654286, 35.1116717], [-97.0655331, 35.1116554], [-97.0655092, 35.1115529], [-97.0653514, 35.1115776]]]}, "properties": {"osm_id": 1279419243, "building": "yes", "name": "", "height": null, "height_m": null, "levels": null, "tract_id": "40125501300", "tract_name": "5013", "tags": {"building": "yes", "source": "microsoft/BuildingFootprints"}}}, {"type": "Feature", "geometry": {"type": "Polygon", "coordinates": [[[-97.0655456, 35.1116264], [-97.065633, 35.1116285], [-97.0656352, 35.1115702], [-97.0655478, 35.111568], [-97.0655456, 35.1116264]]]}, "properties": {"osm_id": 1279419244, "building": "yes", "name": "", "height": null, "height_m": null, "levels": null, "tract_id": "40125501300", "tract_name": "5013", "tags": {"building": "yes", "source": "microsoft/BuildingFootprints"}}}, {"type": "Feature", "geometry": {"type": "Polygon", "coordinates": [[[-97.0634108, 35.1097988], [-97.0634109, 35.1098668], [-97.0634056, 35.1098668], [-97.0634057, 35.1099393], [-97.0637464, 35.1099387], [-97.063746, 35.1097983], [-97.0634108, 35.1097988]]]}, "properties": {"osm_id": 1279419245, "building": "yes", "name": "", "height": null, "height_m": null, "levels": null, "tract_id": "40125501300", "tract_name": "5013", "tags": {"building": "yes", "source": "microsoft/BuildingFootprints"}}}, {"type": "Feature", "geometry": {"type": "Polygon", "coordinates": [[[-97.0632589, 35.1100703], [-97.0632387, 35.1099812], [-97.063109, 35.1100009], [-97.0631293, 35.11009], [-97.0632589, 35.1100703]]]}, "properties": {"osm_id": 1279419246, "building": "yes", "name": "", "height": null, "height_m": null, "levels": null, "tract_id": "40125501300", "tract_name": "5013", "tags": {"building": "yes", "source": "microsoft/BuildingFootprints"}}}, {"type": "Feature", "geometry": {"type": "Polygon", "coordinates": [[[-97.06691, 35.1071942], [-97.066843, 35.1071934], [-97.066841, 35.1073075], [-97.0667847, 35.1073068], [-97.0667834, 35.1073792], [-97.0668853, 35.1073804], [-97.0668874, 35.1072575], [-97.0669089, 35.1072578], [-97.06691, 35.1071942]]]}, "properties": {"osm_id": 1279419248, "building": "yes", "name": "", "height": null, "height_m": null, "levels": null, "tract_id": "40125501300", "tract_name": "5013", "tags": {"building": "yes", "source": "microsoft/BuildingFootprints"}}}, {"type": "Feature", "geometry": {"type": "Polygon", "coordinates": [[[-97.0686822, 35.1070495], [-97.0686676, 35.1070056], [-97.0685316, 35.107036], [-97.0685462, 35.1070798], [-97.0686822, 35.1070495]]]}, "properties": {"osm_id": 1279419249, "building": "yes", "name": "", "height": null, "height_m": null, "levels": null, "tract_id": "40125501300", "tract_name": "5013", "tags": {"building": "yes", "source": "microsoft/BuildingFootprints"}}}, {"type": "Feature", "geometry": {"type": "Polygon", "coordinates": [[[-97.0688125, 35.1069533], [-97.0687982, 35.1069139], [-97.0686726, 35.1069446], [-97.0686869, 35.1069839], [-97.0688125, 35.1069533]]]}, "properties": {"osm_id": 1279419250, "building": "yes", "name": "", "height": null, "height_m": null, "levels": null, "tract_id": "40125501300", "tract_name": "5013", "tags": {"building": "yes", "source": "microsoft/BuildingFootprints"}}}, {"type": "Feature", "geometry": {"type": "Polygon", "coordinates": [[[-97.0663606, 35.1059843], [-97.0663447, 35.1060298], [-97.0665481, 35.1060773], [-97.0665778, 35.105992], [-97.0664092, 35.1059527], [-97.0663953, 35.1059924], [-97.0663606, 35.1059843]]]}, "properties": {"osm_id": 1279419251, "building": "yes", "name": "", "height": null, "height_m": null, "levels": null, "tract_id": "40125501300", "tract_name": "5013", "tags": {"building": "yes", "source": "microsoft/BuildingFootprints"}}}, {"type": "Feature", "geometry": {"type": "Polygon", "coordinates": [[[-97.069057, 35.1055242], [-97.0688764, 35.1055181], [-97.0688735, 35.105574], [-97.0690542, 35.1055801], [-97.069057, 35.1055242]]]}, "properties": {"osm_id": 1279419252, "building": "yes", "name": "", "height": null, "height_m": null, "levels": null, "tract_id": "40125501300", "tract_name": "5013", "tags": {"building": "yes", "source": "microsoft/BuildingFootprints"}}}, {"type": "Feature", "geometry": {"type": "Polygon", "coordinates": [[[-97.0669524, 35.1044835], [-97.0668037, 35.104356], [-97.0667616, 35.1043889], [-97.0669103, 35.1045164], [-97.0669524, 35.1044835]]]}, "properties": {"osm_id": 1279419253, "building": "yes", "name": "", "height": null, "height_m": null, "levels": null, "tract_id": "40125501300", "tract_name": "5013", "tags": {"building": "yes", "source": "microsoft/BuildingFootprints"}}}, {"type": "Feature", "geometry": {"type": "Polygon", "coordinates": [[[-97.0697316, 35.1094484], [-97.0698726, 35.1094378], [-97.069854, 35.1092724], [-97.0697131, 35.109283], [-97.0697316, 35.1094484]]]}, "properties": {"osm_id": 1279419255, "building": "yes", "name": "", "height": null, "height_m": null, "levels": null, "tract_id": "40125501300", "tract_name": "5013", "tags": {"building": "yes", "source": "microsoft/BuildingFootprints"}}}, {"type": "Feature", "geometry": {"type": "Polygon", "coordinates": [[[-97.0760031, 35.1127107], [-97.0759766, 35.1126254], [-97.0758719, 35.1126472], [-97.0758663, 35.1126294], [-97.0756108, 35.1126824], [-97.0756428, 35.1127855], [-97.0760031, 35.1127107]]]}, "properties": {"osm_id": 1279419256, "building": "yes", "name": "", "height": null, "height_m": null, "levels": null, "tract_id": "40125501300", "tract_name": "5013", "tags": {"building": "yes", "source": "microsoft/BuildingFootprints"}}}, {"type": "Feature", "geometry": {"type": "Polygon", "coordinates": [[[-97.0758835, 35.1129821], [-97.0758977, 35.1130809], [-97.0759612, 35.1130747], [-97.075947, 35.112976], [-97.0758835, 35.1129821]]]}, "properties": {"osm_id": 1279419257, "building": "yes", "name": "", "height": null, "height_m": null, "levels": null, "tract_id": "40125501300", "tract_name": "5013", "tags": {"building": "yes", "source": "microsoft/BuildingFootprints"}}}, {"type": "Feature", "geometry": {"type": "Polygon", "coordinates": [[[-97.0768099, 35.1129287], [-97.0766426, 35.1129246], [-97.0766378, 35.113054], [-97.0768051, 35.1130581], [-97.0768099, 35.1129287]]]}, "properties": {"osm_id": 1279419258, "building": "yes", "name": "", "height": null, "height_m": null, "levels": null, "tract_id": "40125501300", "tract_name": "5013", "tags": {"building": "yes", "source": "microsoft/BuildingFootprints"}}}, {"type": "Feature", "geometry": {"type": "Polygon", "coordinates": [[[-97.0770337, 35.112883], [-97.0770365, 35.1127435], [-97.0769185, 35.112742], [-97.0769158, 35.1128815], [-97.0770337, 35.112883]]]}, "properties": {"osm_id": 1279419259, "building": "yes", "name": "", "height": null, "height_m": null, "levels": null, "tract_id": "40125501300", "tract_name": "5013", "tags": {"building": "yes", "source": "microsoft/BuildingFootprints"}}}, {"type": "Feature", "geometry": {"type": "Polygon", "coordinates": [[[-97.0768658, 35.1105481], [-97.0768735, 35.1107115], [-97.0769736, 35.1107083], [-97.0769659, 35.1105449], [-97.0768658, 35.1105481]]]}, "properties": {"osm_id": 1279419260, "building": "yes", "name": "", "height": null, "height_m": null, "levels": null, "tract_id": "40125501300", "tract_name": "5013", "tags": {"building": "yes", "source": "microsoft/BuildingFootprints"}}}, {"type": "Feature", "geometry": {"type": "Polygon", "coordinates": [[[-97.0834063, 35.11083], [-97.0831509, 35.1108586], [-97.0831682, 35.110962], [-97.083213, 35.110957], [-97.083215, 35.1109689], [-97.0834256, 35.1109453], [-97.0834063, 35.11083]]]}, "properties": {"osm_id": 1279419261, "building": "yes", "name": "", "height": null, "height_m": null, "levels": null, "tract_id": "40125501300", "tract_name": "5013", "tags": {"building": "yes", "source": "microsoft/BuildingFootprints"}}}, {"type": "Feature", "geometry": {"type": "Polygon", "coordinates": [[[-97.0892575, 35.1179431], [-97.0893836, 35.1179416], [-97.0893794, 35.1177091], [-97.0892829, 35.1177102], [-97.0892845, 35.1178001], [-97.089255, 35.1178005], [-97.0892575, 35.1179431]]]}, "properties": {"osm_id": 1279419262, "building": "yes", "name": "", "height": null, "height_m": null, "levels": null, "tract_id": "40125501300", "tract_name": "5013", "tags": {"building": "yes", "source": "microsoft/BuildingFootprints"}}}, {"type": "Feature", "geometry": {"type": "Polygon", "coordinates": [[[-97.0890455, 35.1182801], [-97.0890397, 35.1183544], [-97.089037, 35.1183543], [-97.0890337, 35.1183958], [-97.0892982, 35.1184097], [-97.0893073, 35.1182939], [-97.0890455, 35.1182801]]]}, "properties": {"osm_id": 1279419263, "building": "yes", "name": "", "height": null, "height_m": null, "levels": null, "tract_id": "40125501300", "tract_name": "5013", "tags": {"building": "yes", "source": "microsoft/BuildingFootprints"}}}, {"type": "Feature", "geometry": {"type": "Polygon", "coordinates": [[[-97.0933245, 35.1180521], [-97.0932905, 35.1179757], [-97.0930642, 35.1180431], [-97.0930982, 35.1181196], [-97.0933245, 35.1180521]]]}, "properties": {"osm_id": 1279419264, "building": "yes", "name": "", "height": null, "height_m": null, "levels": null, "tract_id": "40125501300", "tract_name": "5013", "tags": {"building": "yes", "source": "microsoft/BuildingFootprints"}}}, {"type": "Feature", "geometry": {"type": "Polygon", "coordinates": [[[-97.0935702, 35.118029], [-97.0934727, 35.1180257], [-97.0934692, 35.1180946], [-97.0935667, 35.1180979], [-97.0935702, 35.118029]]]}, "properties": {"osm_id": 1279419265, "building": "yes", "name": "", "height": null, "height_m": null, "levels": null, "tract_id": "40125501300", "tract_name": "5013", "tags": {"building": "yes", "source": "microsoft/BuildingFootprints"}}}, {"type": "Feature", "geometry": {"type": "Polygon", "coordinates": [[[-97.0936779, 35.1181348], [-97.0936618, 35.118234], [-97.0937488, 35.1182435], [-97.0937649, 35.1181443], [-97.0936779, 35.1181348]]]}, "properties": {"osm_id": 1279419266, "building": "yes", "name": "", "height": null, "height_m": null, "levels": null, "tract_id": "40125501300", "tract_name": "5013", "tags": {"building": "yes", "source": "microsoft/BuildingFootprints"}}}, {"type": "Feature", "geometry": {"type": "Polygon", "coordinates": [[[-97.1058399, 35.1171568], [-97.1057653, 35.1175005], [-97.1061683, 35.117559], [-97.1061974, 35.117425], [-97.10607, 35.1174065], [-97.1061143, 35.1172024], [-97.1060871, 35.1171984], [-97.1061109, 35.1170887], [-97.1060419, 35.1170787], [-97.1060193, 35.1171829], [-97.1058399, 35.1171568]]]}, "properties": {"osm_id": 1279419269, "building": "yes", "name": "", "height": null, "height_m": null, "levels": null, "tract_id": "40125501300", "tract_name": "5013", "tags": {"building": "yes", "source": "microsoft/BuildingFootprints"}}}, {"type": "Feature", "geometry": {"type": "Polygon", "coordinates": [[[-97.1068458, 35.1174432], [-97.1068081, 35.1175866], [-97.1070091, 35.117622], [-97.1070468, 35.1174786], [-97.1068458, 35.1174432]]]}, "properties": {"osm_id": 1279419270, "building": "yes", "name": "", "height": null, "height_m": null, "levels": null, "tract_id": "40125501300", "tract_name": "5013", "tags": {"building": "yes", "source": "microsoft/BuildingFootprints"}}}, {"type": "Feature", "geometry": {"type": "Polygon", "coordinates": [[[-97.107071, 35.1173879], [-97.1068914, 35.1173623], [-97.1068813, 35.11741], [-97.1070609, 35.1174355], [-97.107071, 35.1173879]]]}, "properties": {"osm_id": 1279419271, "building": "yes", "name": "", "height": null, "height_m": null, "levels": null, "tract_id": "40125501300", "tract_name": "5013", "tags": {"building": "yes", "source": "microsoft/BuildingFootprints"}}}, {"type": "Feature", "geometry": {"type": "Polygon", "coordinates": [[[-97.1069655, 35.1181395], [-97.1071685, 35.1181504], [-97.1072021, 35.1177354], [-97.1069991, 35.1177244], [-97.1069655, 35.1181395]]]}, "properties": {"osm_id": 1279419272, "building": "yes", "name": "", "height": null, "height_m": null, "levels": null, "tract_id": "40125501300", "tract_name": "5013", "tags": {"building": "yes", "source": "microsoft/BuildingFootprints"}}}, {"type": "Feature", "geometry": {"type": "Polygon", "coordinates": [[[-97.1067712, 35.1182436], [-97.1068866, 35.1182787], [-97.1069156, 35.1182151], [-97.1068001, 35.1181799], [-97.1067712, 35.1182436]]]}, "properties": {"osm_id": 1279419273, "building": "yes", "name": "", "height": null, "height_m": null, "levels": null, "tract_id": "40125501300", "tract_name": "5013", "tags": {"building": "yes", "source": "microsoft/BuildingFootprints"}}}, {"type": "Feature", "geometry": {"type": "Polygon", "coordinates": [[[-97.1075576, 35.1177093], [-97.1073833, 35.1177108], [-97.1073857, 35.1178929], [-97.10756, 35.1178914], [-97.1075576, 35.1177093]]]}, "properties": {"osm_id": 1279419274, "building": "yes", "name": "", "height": null, "height_m": null, "levels": null, "tract_id": "40125501300", "tract_name": "5013", "tags": {"building": "yes", "source": "microsoft/BuildingFootprints"}}}, {"type": "Feature", "geometry": {"type": "Polygon", "coordinates": [[[-97.1074815, 35.1172916], [-97.1076854, 35.1173186], [-97.107699, 35.1172501], [-97.1077774, 35.1172605], [-97.1078048, 35.1171216], [-97.1077238, 35.1171108], [-97.1077344, 35.1170574], [-97.1075357, 35.1170311], [-97.1075243, 35.1170888], [-97.1074628, 35.1170807], [-97.1074357, 35.1172175], [-97.1074946, 35.1172253], [-97.1074815, 35.1172916]]]}, "properties": {"osm_id": 1279419275, "building": "yes", "name": "", "height": null, "height_m": null, "levels": null, "tract_id": "40125501300", "tract_name": "5013", "tags": {"building": "yes", "source": "microsoft/BuildingFootprints"}}}, {"type": "Feature", "geometry": {"type": "Polygon", "coordinates": [[[-97.1082224, 35.1156157], [-97.1082289, 35.1157845], [-97.1083843, 35.1157805], [-97.1083778, 35.1156117], [-97.1082224, 35.1156157]]]}, "properties": {"osm_id": 1279419280, "building": "yes", "name": "", "height": null, "height_m": null, "levels": null, "tract_id": "40125501300", "tract_name": "5013", "tags": {"building": "yes", "source": "microsoft/BuildingFootprints"}}}, {"type": "Feature", "geometry": {"type": "Polygon", "coordinates": [[[-97.1166897, 35.1165011], [-97.1166882, 35.1165976], [-97.1168169, 35.1165989], [-97.1168177, 35.1165485], [-97.1167748, 35.116548], [-97.1167755, 35.116502], [-97.1166897, 35.1165011]]]}, "properties": {"osm_id": 1279419282, "building": "yes", "name": "", "height": null, "height_m": null, "levels": null, "tract_id": "40125501300", "tract_name": "5013", "tags": {"building": "yes", "source": "microsoft/BuildingFootprints"}}}, {"type": "Feature", "geometry": {"type": "Polygon", "coordinates": [[[-97.1171233, 35.116592], [-97.1173855, 35.116616], [-97.1173921, 35.1165675], [-97.1171299, 35.1165434], [-97.1171233, 35.116592]]]}, "properties": {"osm_id": 1279419283, "building": "yes", "name": "", "height": null, "height_m": null, "levels": null, "tract_id": "40125501300", "tract_name": "5013", "tags": {"building": "yes", "source": "microsoft/BuildingFootprints"}}}, {"type": "Feature", "geometry": {"type": "Polygon", "coordinates": [[[-97.1170915, 35.1169268], [-97.1170899, 35.1169759], [-97.1171462, 35.1169772], [-97.1171453, 35.1170048], [-97.1172203, 35.1170064], [-97.1172228, 35.1169297], [-97.1170915, 35.1169268]]]}, "properties": {"osm_id": 1279419284, "building": "yes", "name": "", "height": null, "height_m": null, "levels": null, "tract_id": "40125501300", "tract_name": "5013", "tags": {"building": "yes", "source": "microsoft/BuildingFootprints"}}}, {"type": "Feature", "geometry": {"type": "Polygon", "coordinates": [[[-97.1195478, 35.1171044], [-97.119591, 35.1171102], [-97.1196157, 35.1169863], [-97.1195725, 35.1169805], [-97.1195478, 35.1171044]]]}, "properties": {"osm_id": 1279419285, "building": "yes", "name": "", "height": null, "height_m": null, "levels": null, "tract_id": "40125501300", "tract_name": "5013", "tags": {"building": "yes", "source": "microsoft/BuildingFootprints"}}}, {"type": "Feature", "geometry": {"type": "Polygon", "coordinates": [[[-97.1208004, 35.1170981], [-97.120766, 35.117038], [-97.1206978, 35.1170641], [-97.1207322, 35.1171242], [-97.1208004, 35.1170981]]]}, "properties": {"osm_id": 1279419286, "building": "yes", "name": "", "height": null, "height_m": null, "levels": null, "tract_id": "40125501300", "tract_name": "5013", "tags": {"building": "yes", "source": "microsoft/BuildingFootprints"}}}, {"type": "Feature", "geometry": {"type": "Polygon", "coordinates": [[[-97.12112, 35.1168354], [-97.1210437, 35.1168104], [-97.1210132, 35.1168729], [-97.1210895, 35.1168978], [-97.12112, 35.1168354]]]}, "properties": {"osm_id": 1279419287, "building": "yes", "name": "", "height": null, "height_m": null, "levels": null, "tract_id": "40125501300", "tract_name": "5013", "tags": {"building": "yes", "source": "microsoft/BuildingFootprints"}}}, {"type": "Feature", "geometry": {"type": "Polygon", "coordinates": [[[-97.121121, 35.1175481], [-97.1210171, 35.1175918], [-97.1210596, 35.1176595], [-97.1211635, 35.1176157], [-97.121121, 35.1175481]]]}, "properties": {"osm_id": 1279419288, "building": "yes", "name": "", "height": null, "height_m": null, "levels": null, "tract_id": "40125501300", "tract_name": "5013", "tags": {"building": "yes", "source": "microsoft/BuildingFootprints"}}}, {"type": "Feature", "geometry": {"type": "Polygon", "coordinates": [[[-97.1215834, 35.1174483], [-97.1215656, 35.1174025], [-97.1213133, 35.117468], [-97.1213311, 35.1175139], [-97.1215834, 35.1174483]]]}, "properties": {"osm_id": 1279419289, "building": "yes", "name": "", "height": null, "height_m": null, "levels": null, "tract_id": "40125501300", "tract_name": "5013", "tags": {"building": "yes", "source": "microsoft/BuildingFootprints"}}}, {"type": "Feature", "geometry": {"type": "Polygon", "coordinates": [[[-97.1242665, 35.1158847], [-97.123901, 35.1158288], [-97.1238819, 35.1159126], [-97.1239765, 35.115927], [-97.1239714, 35.1159493], [-97.1240349, 35.115959], [-97.124039, 35.115941], [-97.1242464, 35.1159727], [-97.1242665, 35.1158847]]]}, "properties": {"osm_id": 1279419290, "building": "yes", "name": "", "height": null, "height_m": null, "levels": null, "tract_id": "40125501300", "tract_name": "5013", "tags": {"building": "yes", "source": "microsoft/BuildingFootprints"}}}, {"type": "Feature", "geometry": {"type": "Polygon", "coordinates": [[[-97.1242114, 35.1157307], [-97.1241546, 35.1157397], [-97.1241717, 35.1158116], [-97.1242286, 35.1158025], [-97.1242114, 35.1157307]]]}, "properties": {"osm_id": 1279419291, "building": "yes", "name": "", "height": null, "height_m": null, "levels": null, "tract_id": "40125501300", "tract_name": "5013", "tags": {"building": "yes", "source": "microsoft/BuildingFootprints"}}}, {"type": "Feature", "geometry": {"type": "Polygon", "coordinates": [[[-97.1241595, 35.1176018], [-97.1241728, 35.1176726], [-97.1243615, 35.1176489], [-97.1243482, 35.1175782], [-97.1241595, 35.1176018]]]}, "properties": {"osm_id": 1279419292, "building": "yes", "name": "", "height": null, "height_m": null, "levels": null, "tract_id": "40125501300", "tract_name": "5013", "tags": {"building": "yes", "source": "microsoft/BuildingFootprints"}}}, {"type": "Feature", "geometry": {"type": "Polygon", "coordinates": [[[-97.1239874, 35.1180788], [-97.1239531, 35.1179926], [-97.1238634, 35.1180165], [-97.1238977, 35.1181028], [-97.1239874, 35.1180788]]]}, "properties": {"osm_id": 1279419293, "building": "yes", "name": "", "height": null, "height_m": null, "levels": null, "tract_id": "40125501300", "tract_name": "5013", "tags": {"building": "yes", "source": "microsoft/BuildingFootprints"}}}, {"type": "Feature", "geometry": {"type": "Polygon", "coordinates": [[[-97.1258297, 35.1151791], [-97.1258165, 35.1152225], [-97.1261119, 35.1152828], [-97.1261251, 35.1152395], [-97.1258297, 35.1151791]]]}, "properties": {"osm_id": 1279419294, "building": "yes", "name": "", "height": null, "height_m": null, "levels": null, "tract_id": "40125501300", "tract_name": "5013", "tags": {"building": "yes", "source": "microsoft/BuildingFootprints"}}}, {"type": "Feature", "geometry": {"type": "Polygon", "coordinates": [[[-97.1255561, 35.1142244], [-97.1255117, 35.1142121], [-97.1254938, 35.1142554], [-97.1255299, 35.1142654], [-97.1255136, 35.1143048], [-97.1256581, 35.1143447], [-97.1256996, 35.1142443], [-97.1255635, 35.1142067], [-97.1255561, 35.1142244]]]}, "properties": {"osm_id": 1279419295, "building": "yes", "name": "", "height": null, "height_m": null, "levels": null, "tract_id": "40125501300", "tract_name": "5013", "tags": {"building": "yes", "source": "microsoft/BuildingFootprints"}}}, {"type": "Feature", "geometry": {"type": "Polygon", "coordinates": [[[-97.1251903, 35.1130422], [-97.1251889, 35.1130093], [-97.1252586, 35.1130074], [-97.1252562, 35.1129504], [-97.1251812, 35.1129525], [-97.1251791, 35.1129021], [-97.1250773, 35.112905], [-97.125079, 35.1129466], [-97.1250495, 35.1129474], [-97.1250519, 35.1130044], [-97.1250841, 35.1130035], [-97.1250858, 35.1130451], [-97.1251903, 35.1130422]]]}, "properties": {"osm_id": 1279419296, "building": "yes", "name": "", "height": null, "height_m": null, "levels": null, "tract_id": "40125501300", "tract_name": "5013", "tags": {"building": "yes", "source": "microsoft/BuildingFootprints"}}}, {"type": "Feature", "geometry": {"type": "Polygon", "coordinates": [[[-97.071953, 35.0823014], [-97.0719195, 35.0823745], [-97.0720724, 35.0824214], [-97.0721059, 35.0823482], [-97.071953, 35.0823014]]]}, "properties": {"osm_id": 1279419805, "building": "yes", "name": "", "height": null, "height_m": null, "levels": null, "tract_id": "40125501300", "tract_name": "5013", "tags": {"building": "yes", "source": "microsoft/BuildingFootprints"}}}, {"type": "Feature", "geometry": {"type": "Polygon", "coordinates": [[[-97.0722096, 35.0821153], [-97.0720426, 35.082002], [-97.0719372, 35.0821062], [-97.0721042, 35.0822194], [-97.0722096, 35.0821153]]]}, "properties": {"osm_id": 1279419806, "building": "yes", "name": "", "height": null, "height_m": null, "levels": null, "tract_id": "40125501300", "tract_name": "5013", "tags": {"building": "yes", "source": "microsoft/BuildingFootprints"}}}, {"type": "Feature", "geometry": {"type": "Polygon", "coordinates": [[[-97.0724546, 35.0817787], [-97.0723914, 35.0818474], [-97.0724907, 35.0819085], [-97.0725539, 35.0818399], [-97.0724546, 35.0817787]]]}, "properties": {"osm_id": 1279419807, "building": "yes", "name": "", "height": null, "height_m": null, "levels": null, "tract_id": "40125501300", "tract_name": "5013", "tags": {"building": "yes", "source": "microsoft/BuildingFootprints"}}}, {"type": "Feature", "geometry": {"type": "Polygon", "coordinates": [[[-97.0721018, 35.0815773], [-97.0720327, 35.0815681], [-97.0720251, 35.0816066], [-97.0720486, 35.0816098], [-97.0720514, 35.081596], [-97.0720969, 35.081602], [-97.0721018, 35.0815773]]]}, "properties": {"osm_id": 1279419808, "building": "yes", "name": "", "height": null, "height_m": null, "levels": null, "tract_id": "40125501300", "tract_name": "5013", "tags": {"building": "yes", "source": "microsoft/BuildingFootprints"}}}, {"type": "Feature", "geometry": {"type": "Polygon", "coordinates": [[[-97.070708, 35.0753347], [-97.0708162, 35.0753326], [-97.0708119, 35.0751846], [-97.0707037, 35.0751867], [-97.070708, 35.0753347]]]}, "properties": {"osm_id": 1279419810, "building": "yes", "name": "", "height": null, "height_m": null, "levels": null, "tract_id": "40125501300", "tract_name": "5013", "tags": {"building": "yes", "source": "microsoft/BuildingFootprints"}}}, {"type": "Feature", "geometry": {"type": "Polygon", "coordinates": [[[-97.0730394, 35.072568], [-97.0730081, 35.0725916], [-97.0730562, 35.0726345], [-97.0731879, 35.0725354], [-97.0730623, 35.0724235], [-97.0729619, 35.072499], [-97.0730394, 35.072568]]]}, "properties": {"osm_id": 1279419811, "building": "yes", "name": "", "height": null, "height_m": null, "levels": null, "tract_id": "40125501300", "tract_name": "5013", "tags": {"building": "yes", "source": "microsoft/BuildingFootprints"}}}, {"type": "Feature", "geometry": {"type": "Polygon", "coordinates": [[[-97.0730682, 35.0721783], [-97.0730986, 35.0721819], [-97.0731103, 35.0721152], [-97.0730799, 35.0721116], [-97.0730682, 35.0721783]]]}, "properties": {"osm_id": 1279419812, "building": "yes", "name": "", "height": null, "height_m": null, "levels": null, "tract_id": "40125501300", "tract_name": "5013", "tags": {"building": "yes", "source": "microsoft/BuildingFootprints"}}}, {"type": "Feature", "geometry": {"type": "Polygon", "coordinates": [[[-97.073456, 35.0724704], [-97.07376, 35.0724768], [-97.0737621, 35.072411], [-97.073458, 35.0724046], [-97.073456, 35.0724704]]]}, "properties": {"osm_id": 1279419813, "building": "yes", "name": "", "height": null, "height_m": null, "levels": null, "tract_id": "40125501300", "tract_name": "5013", "tags": {"building": "yes", "source": "microsoft/BuildingFootprints"}}}, {"type": "Feature", "geometry": {"type": "Polygon", "coordinates": [[[-97.0796527, 35.0731474], [-97.0796501, 35.0732374], [-97.0798753, 35.0732417], [-97.0798778, 35.0731517], [-97.0796527, 35.0731474]]]}, "properties": {"osm_id": 1279419815, "building": "yes", "name": "", "height": null, "height_m": null, "levels": null, "tract_id": "40125501300", "tract_name": "5013", "tags": {"building": "yes", "source": "microsoft/BuildingFootprints"}}}, {"type": "Feature", "geometry": {"type": "Polygon", "coordinates": [[[-97.0825335, 35.0759899], [-97.0826365, 35.0760157], [-97.0826876, 35.0758793], [-97.0825847, 35.0758535], [-97.0825335, 35.0759899]]]}, "properties": {"osm_id": 1279419816, "building": "yes", "name": "", "height": null, "height_m": null, "levels": null, "tract_id": "40125501300", "tract_name": "5013", "tags": {"building": "yes", "source": "microsoft/BuildingFootprints"}}}, {"type": "Feature", "geometry": {"type": "Polygon", "coordinates": [[[-97.0832027, 35.0760936], [-97.083154, 35.0761258], [-97.0831089, 35.07608], [-97.083031, 35.0761316], [-97.0830748, 35.076176], [-97.083057, 35.0761878], [-97.0831842, 35.0763166], [-97.0833286, 35.0762211], [-97.0832027, 35.0760936]]]}, "properties": {"osm_id": 1279419817, "building": "yes", "name": "", "height": null, "height_m": null, "levels": null, "tract_id": "40125501300", "tract_name": "5013", "tags": {"building": "yes", "source": "microsoft/BuildingFootprints"}}}, {"type": "Feature", "geometry": {"type": "Polygon", "coordinates": [[[-97.0896821, 35.0703385], [-97.0898377, 35.0703376], [-97.0898372, 35.0702849], [-97.0897875, 35.0702852], [-97.0897864, 35.0701579], [-97.0896832, 35.0701585], [-97.0896839, 35.0702375], [-97.0896557, 35.0702377], [-97.0896562, 35.0702992], [-97.0896817, 35.070299], [-97.0896821, 35.0703385]]]}, "properties": {"osm_id": 1279419818, "building": "yes", "name": "", "height": null, "height_m": null, "levels": null, "tract_id": "40125501300", "tract_name": "5013", "tags": {"building": "yes", "source": "microsoft/BuildingFootprints"}}}, {"type": "Feature", "geometry": {"type": "Polygon", "coordinates": [[[-97.0899154, 35.0698053], [-97.0899936, 35.0698269], [-97.0900391, 35.0697166], [-97.0899609, 35.069695], [-97.0899154, 35.0698053]]]}, "properties": {"osm_id": 1279419819, "building": "yes", "name": "", "height": null, "height_m": null, "levels": null, "tract_id": "40125501300", "tract_name": "5013", "tags": {"building": "yes", "source": "microsoft/BuildingFootprints"}}}, {"type": "Feature", "geometry": {"type": "Polygon", "coordinates": [[[-97.0900216, 35.0692905], [-97.0899224, 35.0692918], [-97.0899238, 35.0693652], [-97.090023, 35.069364], [-97.0900216, 35.0692905]]]}, "properties": {"osm_id": 1279419820, "building": "yes", "name": "", "height": null, "height_m": null, "levels": null, "tract_id": "40125501300", "tract_name": "5013", "tags": {"building": "yes", "source": "microsoft/BuildingFootprints"}}}, {"type": "Feature", "geometry": {"type": "Polygon", "coordinates": [[[-97.0900129, 35.0690641], [-97.0900477, 35.0690633], [-97.0900459, 35.069015], [-97.090011, 35.0690159], [-97.090009, 35.0689611], [-97.0899179, 35.0689633], [-97.0899243, 35.0691344], [-97.0900154, 35.0691321], [-97.0900129, 35.0690641]]]}, "properties": {"osm_id": 1279419821, "building": "yes", "name": "", "height": null, "height_m": null, "levels": null, "tract_id": "40125501300", "tract_name": "5013", "tags": {"building": "yes", "source": "microsoft/BuildingFootprints"}}}, {"type": "Feature", "geometry": {"type": "Polygon", "coordinates": [[[-97.0888084, 35.0702337], [-97.0887244, 35.0700546], [-97.0886777, 35.0700693], [-97.0887616, 35.0702484], [-97.0888084, 35.0702337]]]}, "properties": {"osm_id": 1279419822, "building": "yes", "name": "", "height": null, "height_m": null, "levels": null, "tract_id": "40125501300", "tract_name": "5013", "tags": {"building": "yes", "source": "microsoft/BuildingFootprints"}}}, {"type": "Feature", "geometry": {"type": "Polygon", "coordinates": [[[-97.0871247, 35.07012], [-97.0871548, 35.070327], [-97.087209, 35.0703217], [-97.0871789, 35.0701148], [-97.0871247, 35.07012]]]}, "properties": {"osm_id": 1279419823, "building": "yes", "name": "", "height": null, "height_m": null, "levels": null, "tract_id": "40125501300", "tract_name": "5013", "tags": {"building": "yes", "source": "microsoft/BuildingFootprints"}}}, {"type": "Feature", "geometry": {"type": "Polygon", "coordinates": [[[-97.0906073, 35.0686047], [-97.0905974, 35.06878], [-97.0907179, 35.0687845], [-97.0907277, 35.0686093], [-97.0906073, 35.0686047]]]}, "properties": {"osm_id": 1279419824, "building": "yes", "name": "", "height": null, "height_m": null, "levels": null, "tract_id": "40125501300", "tract_name": "5013", "tags": {"building": "yes", "source": "microsoft/BuildingFootprints"}}}, {"type": "Feature", "geometry": {"type": "Polygon", "coordinates": [[[-97.0902886, 35.0685262], [-97.0902896, 35.0685723], [-97.0903578, 35.0685714], [-97.0903568, 35.0685253], [-97.0902886, 35.0685262]]]}, "properties": {"osm_id": 1279419825, "building": "yes", "name": "", "height": null, "height_m": null, "levels": null, "tract_id": "40125501300", "tract_name": "5013", "tags": {"building": "yes", "source": "microsoft/BuildingFootprints"}}}, {"type": "Feature", "geometry": {"type": "Polygon", "coordinates": [[[-97.124167, 35.1303574], [-97.1241451, 35.1302345], [-97.1242657, 35.1302201], [-97.1242792, 35.1302959], [-97.1242719, 35.1302968], [-97.1242803, 35.1303439], [-97.124167, 35.1303574]]]}, "properties": {"osm_id": 1365061708, "building": "detached", "name": "", "height": null, "height_m": null, "levels": null, "tract_id": "40125501300", "tract_name": "5013", "tags": {"addr:housenumber": "30009", "addr:street": "Prospect Road", "building": "detached"}}}, {"type": "Feature", "geometry": {"type": "Polygon", "coordinates": [[[-97.0822644, 35.0768377], [-97.0822718, 35.0767841], [-97.0821966, 35.0767772], [-97.0821892, 35.0768307], [-97.0822644, 35.0768377]]]}, "properties": {"osm_id": 1430772104, "building": "yes", "name": "", "height": null, "height_m": null, "levels": null, "tract_id": "40125501300", "tract_name": "5013", "tags": {"building": "yes"}}}, {"type": "Feature", "geometry": {"type": "Polygon", "coordinates": [[[-97.0890024, 35.0778319], [-97.089057, 35.0778287], [-97.0890532, 35.0777853], [-97.0887879, 35.0778011], [-97.0887916, 35.0778422], [-97.0888565, 35.0778384], [-97.0888614, 35.0778937], [-97.0890071, 35.0778851], [-97.0890024, 35.0778319]]]}, "properties": {"osm_id": 1430772105, "building": "yes", "name": "", "height": null, "height_m": null, "levels": null, "tract_id": "40125501300", "tract_name": "5013", "tags": {"building": "yes"}}}, {"type": "Feature", "geometry": {"type": "Polygon", "coordinates": [[[-97.107719, 35.0830387], [-97.1076893, 35.0828707], [-97.1075885, 35.0828827], [-97.1076183, 35.0830506], [-97.107719, 35.0830387]]]}, "properties": {"osm_id": 1430772106, "building": "yes", "name": "", "height": null, "height_m": null, "levels": null, "tract_id": "40125501300", "tract_name": "5013", "tags": {"building": "yes"}}}, {"type": "Feature", "geometry": {"type": "Polygon", "coordinates": [[[-97.1161127, 35.0883422], [-97.116192, 35.0883076], [-97.1161238, 35.088203], [-97.1159412, 35.0882828], [-97.1160091, 35.0883869], [-97.1160471, 35.0883703], [-97.1160769, 35.0884158], [-97.1161421, 35.0883873], [-97.1161127, 35.0883422]]]}, "properties": {"osm_id": 1430772107, "building": "yes", "name": "", "height": null, "height_m": null, "levels": null, "tract_id": "40125501300", "tract_name": "5013", "tags": {"building": "yes"}}}, {"type": "Feature", "geometry": {"type": "Polygon", "coordinates": [[[-97.1175966, 35.087876], [-97.1174917, 35.0878009], [-97.117679, 35.0876257], [-97.1177839, 35.0877009], [-97.1175966, 35.087876]]]}, "properties": {"osm_id": 1430772108, "building": "yes", "name": "", "height": null, "height_m": null, "levels": null, "tract_id": "40125501300", "tract_name": "5013", "tags": {"building": "yes"}}}, {"type": "Feature", "geometry": {"type": "Polygon", "coordinates": [[[-97.1166677, 35.0895691], [-97.1166703, 35.0895065], [-97.1166107, 35.0895048], [-97.1166125, 35.0894607], [-97.1166668, 35.0894622], [-97.1166691, 35.089408], [-97.1164924, 35.089403], [-97.1164908, 35.0894418], [-97.1164561, 35.0894408], [-97.1164534, 35.0895058], [-97.1165012, 35.0895071], [-97.1165005, 35.0895228], [-97.1164418, 35.0895662], [-97.1165109, 35.0896288], [-97.1165945, 35.089567], [-97.1166677, 35.0895691]]]}, "properties": {"osm_id": 1430772109, "building": "yes", "name": "", "height": null, "height_m": null, "levels": null, "tract_id": "40125501300", "tract_name": "5013", "tags": {"building": "yes"}}}, {"type": "Feature", "geometry": {"type": "Polygon", "coordinates": [[[-97.1163536, 35.0899376], [-97.1163483, 35.0897993], [-97.1161784, 35.0898037], [-97.1161837, 35.0899419], [-97.1163536, 35.0899376]]]}, "properties": {"osm_id": 1430772110, "building": "yes", "name": "", "height": null, "height_m": null, "levels": null, "tract_id": "40125501300", "tract_name": "5013", "tags": {"building": "yes"}}}, {"type": "Feature", "geometry": {"type": "Polygon", "coordinates": [[[-97.1167191, 35.0923657], [-97.1166991, 35.0923513], [-97.1166689, 35.0922847], [-97.1165888, 35.092309], [-97.1166284, 35.0923963], [-97.1166066, 35.0924029], [-97.1166243, 35.0924419], [-97.1167656, 35.092399], [-97.1167467, 35.0923573], [-97.1167191, 35.0923657]]]}, "properties": {"osm_id": 1430772112, "building": "yes", "name": "", "height": null, "height_m": null, "levels": null, "tract_id": "40125501300", "tract_name": "5013", "tags": {"building": "yes"}}}, {"type": "Feature", "geometry": {"type": "Polygon", "coordinates": [[[-97.1167988, 35.0923339], [-97.1169116, 35.0922725], [-97.1168651, 35.0922154], [-97.1168259, 35.0922367], [-97.1168162, 35.0922248], [-97.116787, 35.0922407], [-97.116795, 35.0922506], [-97.1167507, 35.0922747], [-97.1167988, 35.0923339]]]}, "properties": {"osm_id": 1430772113, "building": "yes", "name": "", "height": null, "height_m": null, "levels": null, "tract_id": "40125501300", "tract_name": "5013", "tags": {"building": "yes"}}}, {"type": "Feature", "geometry": {"type": "Polygon", "coordinates": [[[-97.1184407, 35.0939998], [-97.1183597, 35.0939539], [-97.1184429, 35.0938557], [-97.1185238, 35.0939016], [-97.1184407, 35.0939998]]]}, "properties": {"osm_id": 1430772114, "building": "yes", "name": "", "height": null, "height_m": null, "levels": null, "tract_id": "40125501300", "tract_name": "5013", "tags": {"building": "yes"}}}, {"type": "Feature", "geometry": {"type": "Polygon", "coordinates": [[[-97.1181007, 35.0939982], [-97.1181735, 35.0939072], [-97.1180792, 35.0938567], [-97.1180063, 35.0939477], [-97.1181007, 35.0939982]]]}, "properties": {"osm_id": 1430772115, "building": "yes", "name": "", "height": null, "height_m": null, "levels": null, "tract_id": "40125501300", "tract_name": "5013", "tags": {"building": "yes"}}}, {"type": "Feature", "geometry": {"type": "Polygon", "coordinates": [[[-97.1292952, 35.0913459], [-97.1291793, 35.0913115], [-97.1292374, 35.0911807], [-97.1293532, 35.0912151], [-97.1292952, 35.0913459]]]}, "properties": {"osm_id": 1430772116, "building": "yes", "name": "", "height": null, "height_m": null, "levels": null, "tract_id": "40125501300", "tract_name": "5013", "tags": {"building": "yes"}}}, {"type": "Feature", "geometry": {"type": "Polygon", "coordinates": [[[-97.130497, 35.0930328], [-97.1304829, 35.0929578], [-97.1303652, 35.0929726], [-97.1303793, 35.0930476], [-97.130497, 35.0930328]]]}, "properties": {"osm_id": 1430772117, "building": "yes", "name": "", "height": null, "height_m": null, "levels": null, "tract_id": "40125501300", "tract_name": "5013", "tags": {"building": "yes"}}}, {"type": "Feature", "geometry": {"type": "Polygon", "coordinates": [[[-97.1360032, 35.0935955], [-97.1358911, 35.0935688], [-97.1359301, 35.0934593], [-97.1360422, 35.0934861], [-97.1360032, 35.0935955]]]}, "properties": {"osm_id": 1430772119, "building": "yes", "name": "", "height": null, "height_m": null, "levels": null, "tract_id": "40125501300", "tract_name": "5013", "tags": {"building": "yes"}}}, {"type": "Feature", "geometry": {"type": "Polygon", "coordinates": [[[-97.1368962, 35.0949548], [-97.1367959, 35.0949792], [-97.1367198, 35.0947703], [-97.1368201, 35.0947458], [-97.1368962, 35.0949548]]]}, "properties": {"osm_id": 1430772120, "building": "yes", "name": "", "height": null, "height_m": null, "levels": null, "tract_id": "40125501300", "tract_name": "5013", "tags": {"building": "yes"}}}, {"type": "Feature", "geometry": {"type": "Polygon", "coordinates": [[[-97.1370326, 35.1005019], [-97.1369773, 35.1004995], [-97.136991, 35.1002857], [-97.1370464, 35.1002881], [-97.1370326, 35.1005019]]]}, "properties": {"osm_id": 1430772121, "building": "yes", "name": "", "height": null, "height_m": null, "levels": null, "tract_id": "40125501300", "tract_name": "5013", "tags": {"building": "yes"}}}, {"type": "Feature", "geometry": {"type": "Polygon", "coordinates": [[[-97.1395821, 35.1010656], [-97.1393941, 35.1009266], [-97.1393523, 35.1009644], [-97.1395402, 35.1011034], [-97.1395821, 35.1010656]]]}, "properties": {"osm_id": 1430772122, "building": "yes", "name": "", "height": null, "height_m": null, "levels": null, "tract_id": "40125501300", "tract_name": "5013", "tags": {"building": "yes"}}}, {"type": "Feature", "geometry": {"type": "Polygon", "coordinates": [[[-97.1394071, 35.1013486], [-97.1393234, 35.1013539], [-97.1393132, 35.1012469], [-97.139397, 35.1012416], [-97.1394071, 35.1013486]]]}, "properties": {"osm_id": 1430772123, "building": "yes", "name": "", "height": null, "height_m": null, "levels": null, "tract_id": "40125501300", "tract_name": "5013", "tags": {"building": "yes"}}}]}