{"type": "FeatureCollection", "features": [{"type": "Feature", "geometry": {"type": "Polygon", "coordinates": [[[-97.5775099, 35.5124643], [-97.5773661, 35.5124659], [-97.5773646, 35.5123716], [-97.5775083, 35.51237], [-97.5775099, 35.5124643]]]}, "properties": {"osm_id": 187418139, "building": "yes", "name": "", "height": null, "height_m": null, "levels": null, "tract_id": "40109106601", "tract_name": "1066.01", "tags": {"building": "yes"}}}, {"type": "Feature", "geometry": {"type": "Polygon", "coordinates": [[[-97.577956, 35.5131775], [-97.5777534, 35.5131785], [-97.5777505, 35.5127956], [-97.5779533, 35.5127946], [-97.577956, 35.5131775]]]}, "properties": {"osm_id": 187418140, "building": "yes", "name": "", "height": null, "height_m": null, "levels": null, "tract_id": "40109106601", "tract_name": "1066.01", "tags": {"building": "yes"}}}, {"type": "Feature", "geometry": {"type": "Polygon", "coordinates": [[[-97.5776019, 35.5131757], [-97.5773971, 35.513175], [-97.577399, 35.5127967], [-97.5776038, 35.5127974], [-97.5776019, 35.5131757]]]}, "properties": {"osm_id": 187418142, "building": "yes", "name": "", "height": null, "height_m": null, "levels": null, "tract_id": "40109106601", "tract_name": "1066.01", "tags": {"building": "yes"}}}, {"type": "Feature", "geometry": {"type": "Polygon", "coordinates": [[[-97.5787805, 35.5129897], [-97.5786121, 35.5130533], [-97.5785961, 35.5130264], [-97.5781797, 35.5130259], [-97.5781795, 35.5129699], [-97.5781458, 35.5129692], [-97.5781456, 35.5128861], [-97.5781813, 35.5128866], [-97.5781812, 35.5128628], [-97.5784774, 35.5128622], [-97.5784784, 35.5128453], [-97.5786691, 35.5128456], [-97.5786682, 35.5128661], [-97.5786789, 35.5128838], [-97.5787126, 35.5128828], [-97.5787411, 35.5129334], [-97.5787486, 35.5129298], [-97.5787805, 35.5129897]]]}, "properties": {"osm_id": 187418143, "building": "yes", "name": "", "height": null, "height_m": null, "levels": null, "tract_id": "40109106601", "tract_name": "1066.01", "tags": {"building": "yes"}}}, {"type": "Feature", "geometry": {"type": "Polygon", "coordinates": [[[-97.5805098, 35.5137083], [-97.5795914, 35.5137079], [-97.5795914, 35.513637], [-97.5796172, 35.513637], [-97.5796172, 35.5136007], [-97.5795911, 35.5136007], [-97.579591, 35.513536], [-97.5796131, 35.513536], [-97.579613, 35.5134914], [-97.5804846, 35.513491], [-97.5804846, 35.5135413], [-97.5805068, 35.5135413], [-97.5805069, 35.5135951], [-97.5804815, 35.5135951], [-97.5804815, 35.5136423], [-97.5805098, 35.5136423], [-97.5805098, 35.5137083]]]}, "properties": {"osm_id": 187418758, "building": "semidetached_house", "name": "", "height": null, "height_m": 3.0, "levels": 1, "tract_id": "40109106601", "tract_name": "1066.01", "tags": {"addr:housenumber": "3519,3521,3523,3525,3527,3529,3531,3533,3535,3537,3539,3541,3543", "addr:street": "Northwest 41st Street", "building": "semidetached_house", "building:levels": "1", "roof:levels": "1"}}}, {"type": "Feature", "geometry": {"type": "Polygon", "coordinates": [[[-97.5794536, 35.5136745], [-97.5793937, 35.5137029], [-97.579415, 35.5137327], [-97.5792837, 35.513795], [-97.579263, 35.5137661], [-97.5791467, 35.5138213], [-97.5791676, 35.5138505], [-97.579039, 35.5139115], [-97.5788879, 35.5136951], [-97.5793006, 35.5134948], [-97.5793304, 35.5135365], [-97.5793486, 35.5135279], [-97.5794536, 35.5136745]]]}, "properties": {"osm_id": 187418760, "building": "semidetached_house", "name": "", "height": null, "height_m": 3.0, "levels": 1, "tract_id": "40109106601", "tract_name": "1066.01", "tags": {"addr:housenumber": "3501,3503,3505,3507,3509,3511,3513", "addr:street": "Northwest 41st Street", "building": "semidetached_house", "building:levels": "1", "roof:levels": "1"}}}, {"type": "Feature", "geometry": {"type": "Polygon", "coordinates": [[[-97.5821838, 35.5120071], [-97.5821864, 35.51178], [-97.5824138, 35.5117765], [-97.5824144, 35.5120092], [-97.5821838, 35.5120071]]]}, "properties": {"osm_id": 187419683, "building": "yes", "name": "Jefferson Dental & Orthodontics", "height": null, "height_m": null, "levels": null, "tract_id": "40109106601", "tract_name": "1066.01", "tags": {"addr:city": "Oklahoma City", "addr:housenumber": "3625", "addr:postcode": "73112", "addr:state": "OK", "addr:street": "Northwest 39th Expressway", "amenity": "dentist", "building": "yes", "healthcare": "dentist", "name": "Jefferson Dental & Orthodontics", "phone": "+1 405 669 2580"}}}, {"type": "Feature", "geometry": {"type": "Polygon", "coordinates": [[[-97.5830607, 35.5139196], [-97.5827013, 35.5139196], [-97.5826959, 35.5136925], [-97.5830607, 35.5136925], [-97.5830607, 35.5139196]]]}, "properties": {"osm_id": 187419685, "building": "yes", "name": "", "height": null, "height_m": null, "levels": null, "tract_id": "40109106601", "tract_name": "1066.01", "tags": {"building": "yes"}}}, {"type": "Feature", "geometry": {"type": "Polygon", "coordinates": [[[-97.5829307, 35.5126347], [-97.5829208, 35.5130828], [-97.5827427, 35.5130802], [-97.5827435, 35.513045], [-97.5815744, 35.5130281], [-97.5815835, 35.512615], [-97.5829307, 35.5126347]]]}, "properties": {"osm_id": 187419687, "building": "yes", "name": "", "height": null, "height_m": null, "levels": null, "tract_id": "40109106601", "tract_name": "1066.01", "tags": {"building": "yes"}}}, {"type": "Feature", "geometry": {"type": "Polygon", "coordinates": [[[-97.5814546, 35.5120221], [-97.5816818, 35.5120234], [-97.5816838, 35.5117964], [-97.5814567, 35.5117951], [-97.5814546, 35.5120221]]]}, "properties": {"osm_id": 187419688, "building": "yes", "name": "", "height": null, "height_m": null, "levels": null, "tract_id": "40109106601", "tract_name": "1066.01", "tags": {"building": "yes"}}}, {"type": "Feature", "geometry": {"type": "Polygon", "coordinates": [[[-97.5666442, 35.5216401], [-97.5666496, 35.5214023], [-97.5666061, 35.5213686], [-97.5661849, 35.5213691], [-97.5661834, 35.5215859], [-97.5662432, 35.521639], [-97.5666442, 35.5216401]]]}, "properties": {"osm_id": 187510843, "building": "yes", "name": "CVS Pharmacy", "height": null, "height_m": null, "levels": null, "tract_id": "40109106601", "tract_name": "1066.01", "tags": {"addr:city": "Oklahoma City", "addr:housenumber": "5025", "addr:postcode": "73112", "addr:state": "OK", "addr:street": "North May Avenue", "atm": "yes", "brand": "CVS Pharmacy", "brand:website": "https://www.cvs.com/", "brand:wikidata": "Q2078880", "building": "yes", "name": "CVS Pharmacy", "opening_hours": "08:00-00:00", "phone": "+1 405 947 6743", "ref": "6009", "shop": "chemist", "short_name": "CVS", "website": "https://www.cvs.com/store-locator/oklahoma-city-ok-pharmacies/5025-n-may-ave-oklahoma-city-ok-73112/storeid=6009"}}}, {"type": "Feature", "geometry": {"type": "Polygon", "coordinates": [[[-97.566861, 35.520284], [-97.5667561, 35.520284], [-97.5667561, 35.520215], [-97.566457, 35.520215], [-97.5664571, 35.5199258], [-97.5664348, 35.5199258], [-97.5664349, 35.5198226], [-97.5664349, 35.5197754], [-97.5666207, 35.5197754], [-97.5666207, 35.5197944], [-97.566861, 35.5197944], [-97.566861, 35.520284]]]}, "properties": {"osm_id": 187550825, "building": "retail", "name": "ALDI", "height": null, "height_m": null, "levels": null, "tract_id": "40109106601", "tract_name": "1066.01", "tags": {"addr:city": "Oklahoma City", "addr:country": "US", "addr:county": "Oklahoma, OK", "addr:housenumber": "4805", "addr:postcode": "73112", "addr:state": "OK", "addr:street": "North May Avenue", "brand": "ALDI", "brand:wikidata": "Q41171672", "building": "retail", "name": "ALDI", "opening_hours": "09:00-20:00", "phone": "+1 405 946 4438;+1 833 747 5095;+1 866 475 5095", "ref": "95", "shop": "supermarket", "website": "https://stores.aldi.us/ok/oklahoma-city/4805-n-may-avenue"}}}, {"type": "Feature", "geometry": {"type": "Polygon", "coordinates": [[[-97.5668126, 35.5211007], [-97.5668134, 35.5208315], [-97.5663444, 35.5208306], [-97.5663437, 35.5210999], [-97.5668126, 35.5211007]]]}, "properties": {"osm_id": 187550826, "building": "yes", "name": "InterBank", "height": null, "height_m": null, "levels": null, "tract_id": "40109106601", "tract_name": "1066.01", "tags": {"amenity": "bank", "brand": "InterBank", "brand:wikidata": "Q124020656", "building": "yes", "name": "InterBank"}}}, {"type": "Feature", "geometry": {"type": "Polygon", "coordinates": [[[-97.5664271, 35.5120103], [-97.5662903, 35.5120104], [-97.5662902, 35.5117942], [-97.5664271, 35.5117941], [-97.5664271, 35.5120103]]]}, "properties": {"osm_id": 189438462, "building": "yes", "name": "Casey's", "height": null, "height_m": null, "levels": null, "tract_id": "40109106601", "tract_name": "1066.01", "tags": {"addr:city": "Oklahoma City", "addr:housenumber": "4001", "addr:postcode": "73112", "addr:state": "OK", "addr:street": "North May Avenue", "brand": "Casey's General Store", "building": "yes", "name": "Casey's", "not:brand:wikidata": "Q2940968", "opening_hours": "05:00-11:00", "phone": "+1 405 578 6130", "shop": "convenience", "website": "https://www.caseys.com/general-store/ok-oklahomacity/4001-n-may-ave/"}}}, {"type": "Feature", "geometry": {"type": "Polygon", "coordinates": [[[-97.5660814, 35.5120823], [-97.5659854, 35.5120824], [-97.5659852, 35.5117887], [-97.5660812, 35.5117887], [-97.5660814, 35.5120823]]]}, "properties": {"osm_id": 189438463, "building": "roof", "name": "Casey's", "height": null, "height_m": null, "levels": null, "tract_id": "40109106601", "tract_name": "1066.01", "tags": {"addr:city": "Oklahoma City", "addr:postcode": "73112", "addr:state": "OK", "amenity": "fuel", "brand": "Casey's General Store", "brand:wikidata": "Q2940968", "building": "roof", "layer": "1", "name": "Casey's", "shop": "convenience"}}}, {"type": "Feature", "geometry": {"type": "Polygon", "coordinates": [[[-97.57381, 35.5201482], [-97.5736867, 35.5201482], [-97.573683, 35.5201865], [-97.5736374, 35.5201887], [-97.5736357, 35.5201722], [-97.5733809, 35.5201722], [-97.5733799, 35.520193], [-97.5733353, 35.520194], [-97.5733353, 35.52017], [-97.5732119, 35.52017], [-97.5732092, 35.5197727], [-97.5732334, 35.5197705], [-97.5732307, 35.5196635], [-97.573869, 35.5196679], [-97.573869, 35.5198862], [-97.5736518, 35.5198862], [-97.5736491, 35.5198403], [-97.5734533, 35.5198382], [-97.5734533, 35.520039], [-97.5734962, 35.520039], [-97.5734989, 35.5199888], [-97.5738127, 35.519991], [-97.57381, 35.5201482]]]}, "properties": {"osm_id": 268554607, "building": "yes", "name": "", "height": null, "height_m": null, "levels": null, "tract_id": "40109106601", "tract_name": "1066.01", "tags": {"addr:housenumber": "3200", "addr:postcode": "73112", "addr:street": "Northwest 48th Street", "building": "yes", "source": "Bing"}}}, {"type": "Feature", "geometry": {"type": "Polygon", "coordinates": [[[-97.5737099, 35.5202039], [-97.5736857, 35.5201974], [-97.5736133, 35.5201821], [-97.5735677, 35.5201777], [-97.5735301, 35.5201777], [-97.5734845, 35.5201777], [-97.5734497, 35.5201777], [-97.5734175, 35.5201799], [-97.5733987, 35.5201865], [-97.5733129, 35.5202083], [-97.5733236, 35.5202389], [-97.5733665, 35.5202236], [-97.5733987, 35.520217], [-97.5734309, 35.5202105], [-97.5734658, 35.5202061], [-97.5735114, 35.5202061], [-97.5735623, 35.5202083], [-97.5735945, 35.5202127], [-97.5736294, 35.5202192], [-97.5736696, 35.5202258], [-97.5736938, 35.5202367], [-97.5737099, 35.5202039]]]}, "properties": {"osm_id": 268556447, "building": "roof", "name": "", "height": null, "height_m": null, "levels": null, "tract_id": "40109106601", "tract_name": "1066.01", "tags": {"building": "roof", "source": "Bing"}}}, {"type": "Feature", "geometry": {"type": "Polygon", "coordinates": [[[-97.5684031, 35.5119973], [-97.5684031, 35.5118529], [-97.5680647, 35.5118528], [-97.5680646, 35.5119972], [-97.5684031, 35.5119973]]]}, "properties": {"osm_id": 268556576, "building": "yes", "name": "GoldBuyerOK", "height": null, "height_m": null, "levels": null, "tract_id": "40109106601", "tract_name": "1066.01", "tags": {"addr:city": "Oklahoma City", "addr:housenumber": "3001", "addr:postcode": "73112", "addr:state": "OK", "addr:street": "Northwest 39th Street", "building": "yes", "name": "GoldBuyerOK", "phone": "405-943-2800", "shop": "pawnbroker", "source": "Bing", "website": "https://goldbuyerok.com/"}}}, {"type": "Feature", "geometry": {"type": "Polygon", "coordinates": [[[-97.5662814, 35.5173768], [-97.5660199, 35.5173768], [-97.5660199, 35.517384], [-97.5659963, 35.5173842], [-97.5659957, 35.5175321], [-97.5660198, 35.5175317], [-97.5660198, 35.5175407], [-97.5662814, 35.5175408], [-97.5662814, 35.5173768]]]}, "properties": {"osm_id": 268557007, "building": "yes", "name": "White Buffalo Event Center", "height": null, "height_m": null, "levels": null, "tract_id": "40109106601", "tract_name": "1066.01", "tags": {"addr:city": "Oklahoma City", "addr:housenumber": "4601", "addr:postcode": "73112", "addr:state": "OK", "addr:street": "North May Avenue", "amenity": "events_venue", "building": "yes", "email": "WhiteBuffaloEventsOKC@gmail.com", "name": "White Buffalo Event Center", "phone": "+1 405 245 4702", "source": "Bing", "website": "https://www.whitebuffaloeventcenter.com/"}}}, {"type": "Feature", "geometry": {"type": "Polygon", "coordinates": [[[-97.5663321, 35.5176703], [-97.5661989, 35.5176644], [-97.5661957, 35.517712], [-97.5663289, 35.5177179], [-97.5663321, 35.5176703]]]}, "properties": {"osm_id": 268557173, "building": "yes", "name": "", "height": null, "height_m": null, "levels": null, "tract_id": "40109106601", "tract_name": "1066.01", "tags": {"building": "yes", "source": "Bing"}}}, {"type": "Feature", "geometry": {"type": "Polygon", "coordinates": [[[-97.5666496, 35.5214023], [-97.5667001, 35.5213608], [-97.5666585, 35.5213251], [-97.5666061, 35.5213686], [-97.5666496, 35.5214023]]]}, "properties": {"osm_id": 318315910, "building": "roof", "name": "", "height": null, "height_m": null, "levels": null, "tract_id": "40109106601", "tract_name": "1066.01", "tags": {"building": "roof", "layer": "1"}}}, {"type": "Feature", "geometry": {"type": "Polygon", "coordinates": [[[-97.5783506, 35.5220718], [-97.578145, 35.5220717], [-97.5781451, 35.5218689], [-97.5780162, 35.5218689], [-97.5780163, 35.5217458], [-97.5780368, 35.5217458], [-97.5780369, 35.5216049], [-97.5780141, 35.5216049], [-97.5780142, 35.5214114], [-97.5783727, 35.5214115], [-97.5783725, 35.521847], [-97.5783508, 35.521847], [-97.5783506, 35.5220213], [-97.5783506, 35.5220462], [-97.5783506, 35.5220718]]]}, "properties": {"osm_id": 412145652, "building": "church", "name": "", "height": null, "height_m": null, "levels": null, "tract_id": "40109106601", "tract_name": "1066.01", "tags": {"building": "church"}}}, {"type": "Feature", "geometry": {"type": "Polygon", "coordinates": [[[-97.5831299, 35.5220476], [-97.583131, 35.5219536], [-97.5828879, 35.5219518], [-97.5828869, 35.5220458], [-97.5831299, 35.5220476]]]}, "properties": {"osm_id": 471351305, "building": "commercial", "name": "", "height": null, "height_m": null, "levels": null, "tract_id": "40109106601", "tract_name": "1066.01", "tags": {"building": "commercial"}}}, {"type": "Feature", "geometry": {"type": "Polygon", "coordinates": [[[-97.5660811, 35.5194073], [-97.5660827, 35.5192498], [-97.5665175, 35.5192526], [-97.5665157, 35.5194363], [-97.5666564, 35.5194372], [-97.5666551, 35.5195693], [-97.566358, 35.5195673], [-97.5663596, 35.5194092], [-97.5660811, 35.5194073]]]}, "properties": {"osm_id": 472434934, "building": "commercial", "name": "", "height": null, "height_m": null, "levels": null, "tract_id": "40109106601", "tract_name": "1066.01", "tags": {"building": "commercial"}}}, {"type": "Feature", "geometry": {"type": "Polygon", "coordinates": [[[-97.5809171, 35.5161181], [-97.5810281, 35.5161164], [-97.5810284, 35.5161323], [-97.5811189, 35.5161309], [-97.5811185, 35.5161109], [-97.5811647, 35.5161102], [-97.5812098, 35.5161095], [-97.5812128, 35.5162361], [-97.581006, 35.5162392], [-97.5810065, 35.5162625], [-97.5809205, 35.5162638], [-97.5809171, 35.5161181]]]}, "properties": {"osm_id": 591928360, "building": "house", "name": "", "height": null, "height_m": null, "levels": null, "tract_id": "40109106601", "tract_name": "1066.01", "tags": {"addr:city": "Oklahoma City", "addr:country": "US", "addr:housenumber": "3605", "addr:state": "OK", "addr:street": "Treadwell Drive", "building": "house"}}}, {"type": "Feature", "geometry": {"type": "Polygon", "coordinates": [[[-97.5661475, 35.5145778], [-97.566061, 35.5145778], [-97.566061, 35.5145538], [-97.5661475, 35.5145538], [-97.5661475, 35.5145778]]]}, "properties": {"osm_id": 682312974, "building": "yes", "name": "", "height": null, "height_m": null, "levels": null, "tract_id": "40109106601", "tract_name": "1066.01", "tags": {"building": "yes", "shop": "kiosk"}}}, {"type": "Feature", "geometry": {"type": "Polygon", "coordinates": [[[-97.5663319, 35.5146837], [-97.5661992, 35.5146832], [-97.5661996, 35.5146226], [-97.5662002, 35.51452], [-97.5662006, 35.5144436], [-97.5663333, 35.5144441], [-97.5663329, 35.5145211], [-97.5663323, 35.5146237], [-97.5663319, 35.5146837]]]}, "properties": {"osm_id": 682312975, "building": "yes", "name": "Sam's Club", "height": null, "height_m": null, "levels": null, "tract_id": "40109106601", "tract_name": "1066.01", "tags": {"addr:city": "Oklahoma City", "addr:housenumber": "4101", "addr:postcode": "73112", "addr:state": "OK", "addr:street": "North May Avenue", "amenity": "fuel", "brand": "Sam's Club", "brand:wikidata": "Q1972120", "building": "yes", "name": "Sam's Club", "opening_hours": "Mo-Sa 06:00-21:00; Su 08:00-19:00", "website": "https://www.samsclub.com/local/fuel-center/oklahoma-city-ok-sams-club/7189"}}}, {"type": "Feature", "geometry": {"type": "Polygon", "coordinates": [[[-97.5678125, 35.5121173], [-97.5678138, 35.5131511], [-97.5675912, 35.5131513], [-97.5675914, 35.513258], [-97.5669596, 35.5132585], [-97.5669596, 35.5133181], [-97.5667839, 35.5133182], [-97.5667837, 35.5132046], [-97.5666527, 35.5130954], [-97.5666524, 35.5129088], [-97.566722, 35.5129087], [-97.566721, 35.5121182], [-97.5670065, 35.512118], [-97.5670062, 35.5118833], [-97.5671745, 35.5118831], [-97.5671748, 35.5121178], [-97.5678125, 35.5121173]]]}, "properties": {"osm_id": 682312976, "building": "yes", "name": "Sam's Club", "height": null, "height_m": null, "levels": null, "tract_id": "40109106601", "tract_name": "1066.01", "tags": {"addr:city": "Oklahoma City", "addr:housenumber": "4101", "addr:postcode": "73112", "addr:state": "OK", "addr:street": "North May Avenue", "brand": "Sam's Club", "brand:wikidata": "Q1972120", "building": "yes", "name": "Sam's Club", "opening_hours": "Mo-Fr 10:00-20:00; Sa 09:00-20:00; Su 10:00-18:00", "phone": "+1 405 200 0381", "ref": "7189", "shop": "wholesale", "website": "https://www.samsclub.com/club/oklahoma-city-ok-sams-club/7189"}}}, {"type": "Feature", "geometry": {"type": "Polygon", "coordinates": [[[-97.5802864, 35.5129178], [-97.5794815, 35.51292], [-97.5794804, 35.5126436], [-97.5793459, 35.512644], [-97.5793455, 35.5125505], [-97.5793051, 35.5125506], [-97.5793046, 35.5124331], [-97.5794206, 35.5123414], [-97.5793529, 35.5122846], [-97.5793527, 35.5122384], [-97.5794755, 35.5122381], [-97.5794746, 35.512019], [-97.5802827, 35.5120168], [-97.5802838, 35.5122912], [-97.5802842, 35.5123785], [-97.5802864, 35.5129178]]]}, "properties": {"osm_id": 722646712, "building": "retail", "name": "WinCo Foods", "height": null, "height_m": 3.0, "levels": 1, "tract_id": "40109106601", "tract_name": "1066.01", "tags": {"addr:city": "Oklahoma City", "addr:housenumber": "3535", "addr:postcode": "73112", "addr:state": "OK", "addr:street": "Northwest 39th Street", "brand": "WinCo Foods", "brand:wikidata": "Q8023592", "building": "retail", "building:levels": "1", "name": "WinCo Foods", "opening_hours": "24/7", "shop": "supermarket"}}}, {"type": "Feature", "geometry": {"type": "Polygon", "coordinates": [[[-97.5831657, 35.5191613], [-97.5829449, 35.5191624], [-97.5829463, 35.5191348], [-97.5828883, 35.5191348], [-97.5828897, 35.5190242], [-97.5829124, 35.519023], [-97.5829124, 35.5189827], [-97.582901, 35.5189827], [-97.582901, 35.5188214], [-97.5829916, 35.5188248], [-97.5829909, 35.5187829], [-97.5829902, 35.5187384], [-97.5830836, 35.5187373], [-97.5830843, 35.518781], [-97.5830851, 35.5188248], [-97.5831035, 35.5188248], [-97.5831035, 35.518985], [-97.5830893, 35.518985], [-97.5830893, 35.5190218], [-97.5831643, 35.5190218], [-97.5831657, 35.5191613]]]}, "properties": {"osm_id": 765228130, "building": "yes", "name": "Christian Science Church", "height": null, "height_m": null, "levels": null, "tract_id": "40109106601", "tract_name": "1066.01", "tags": {"amenity": "place_of_worship", "building": "yes", "denomination": "scientist", "name": "Christian Science Church", "religion": "christian"}}}, {"type": "Feature", "geometry": {"type": "Polygon", "coordinates": [[[-97.579325, 35.5218934], [-97.5790691, 35.5218905], [-97.5790673, 35.5219709], [-97.5791644, 35.5219695], [-97.5791626, 35.5219925], [-97.5792562, 35.5219939], [-97.5792579, 35.5219709], [-97.5793215, 35.5219724], [-97.579325, 35.5218934]]]}, "properties": {"osm_id": 765228139, "building": "yes", "name": "", "height": null, "height_m": null, "levels": null, "tract_id": "40109106601", "tract_name": "1066.01", "tags": {"amenity": "place_of_worship", "building": "yes", "religion": "christian"}}}, {"type": "Feature", "geometry": {"type": "Polygon", "coordinates": [[[-97.578517, 35.513454], [-97.578628, 35.513436], [-97.578605, 35.513339], [-97.578386, 35.513375], [-97.578378, 35.513342], [-97.578318, 35.513352], [-97.578351, 35.513486], [-97.578438, 35.513472], [-97.578447, 35.513509], [-97.578527, 35.513496], [-97.578517, 35.513454]]]}, "properties": {"osm_id": 1002171031, "building": "house", "name": "", "height": null, "height_m": 3.0, "levels": 1, "tract_id": "40109106601", "tract_name": "1066.01", "tags": {"addr:housenumber": "3424", "addr:street": "Northwest 41st Street", "building": "house", "building:levels": "1", "source": "microsoft/BuildingFootprints"}}}, {"type": "Feature", "geometry": {"type": "Polygon", "coordinates": [[[-97.578231, 35.513362], [-97.578097, 35.513364], [-97.578099, 35.513481], [-97.578215, 35.51348], [-97.578215, 35.5135], [-97.578295, 35.513499], [-97.578294, 35.51339], [-97.578232, 35.51339], [-97.578231, 35.513362]]]}, "properties": {"osm_id": 1002171032, "building": "house", "name": "", "height": null, "height_m": 3.0, "levels": 1, "tract_id": "40109106601", "tract_name": "1066.01", "tags": {"addr:housenumber": "3420", "addr:street": "Northwest 41st Street", "building": "house", "building:levels": "1", "source": "microsoft/BuildingFootprints"}}}, {"type": "Feature", "geometry": {"type": "Polygon", "coordinates": [[[-97.57786, 35.513495], [-97.578059, 35.513498], [-97.578061, 35.513388], [-97.578012, 35.513388], [-97.578012, 35.513368], [-97.577968, 35.513367], [-97.577967, 35.513376], [-97.577863, 35.513375], [-97.57786, 35.513495]]]}, "properties": {"osm_id": 1002171033, "building": "house", "name": "", "height": null, "height_m": 3.0, "levels": 1, "tract_id": "40109106601", "tract_name": "1066.01", "tags": {"addr:housenumber": "3416", "addr:street": "Northwest 41st Street", "building": "house", "building:levels": "1", "source": "microsoft/BuildingFootprints"}}}, {"type": "Feature", "geometry": {"type": "Polygon", "coordinates": [[[-97.577739, 35.513471], [-97.577739, 35.513501], [-97.577827, 35.5135], [-97.577824, 35.513375], [-97.577734, 35.513376], [-97.577733, 35.513351], [-97.577628, 35.513352], [-97.57763, 35.513472], [-97.577739, 35.513471]]]}, "properties": {"osm_id": 1002171034, "building": "house", "name": "", "height": null, "height_m": 3.0, "levels": 1, "tract_id": "40109106601", "tract_name": "1066.01", "tags": {"addr:housenumber": "3412", "addr:street": "Northwest 41st Street", "building": "house", "building:levels": "1", "source": "microsoft/BuildingFootprints"}}}, {"type": "Feature", "geometry": {"type": "Polygon", "coordinates": [[[-97.57739, 35.513346], [-97.577387, 35.513473], [-97.577505, 35.513474], [-97.577505, 35.513501], [-97.577593, 35.513502], [-97.577596, 35.513381], [-97.577534, 35.51338], [-97.577535, 35.513348], [-97.57739, 35.513346]]]}, "properties": {"osm_id": 1002171035, "building": "house", "name": "", "height": null, "height_m": 3.0, "levels": 1, "tract_id": "40109106601", "tract_name": "1066.01", "tags": {"addr:housenumber": "3408", "addr:street": "Northwest 41st Street", "building": "house", "building:levels": "1", "source": "microsoft/BuildingFootprints"}}}, {"type": "Feature", "geometry": {"type": "Polygon", "coordinates": [[[-97.577601, 35.513899], [-97.5775989, 35.5138088], [-97.5774765, 35.513808], [-97.5774763, 35.5137913], [-97.5774585, 35.5137913], [-97.577458, 35.513762], [-97.577381, 35.513763], [-97.577384, 35.513896], [-97.57744, 35.513895], [-97.57744, 35.513924], [-97.577508, 35.513923], [-97.577508, 35.513901], [-97.577601, 35.513899]]]}, "properties": {"osm_id": 1002171036, "building": "house", "name": "", "height": null, "height_m": 3.0, "levels": 1, "tract_id": "40109106601", "tract_name": "1066.01", "tags": {"addr:housenumber": "3409", "addr:street": "Northwest 41st Street", "building": "house", "building:levels": "1", "source": "microsoft/BuildingFootprints"}}}, {"type": "Feature", "geometry": {"type": "Polygon", "coordinates": [[[-97.577832, 35.513795], [-97.577695, 35.513793], [-97.577696, 35.513767], [-97.577623, 35.513766], [-97.577621, 35.513915], [-97.57783, 35.513917], [-97.577832, 35.513795]]]}, "properties": {"osm_id": 1002171037, "building": "house", "name": "", "height": null, "height_m": 3.0, "levels": 1, "tract_id": "40109106601", "tract_name": "1066.01", "tags": {"addr:housenumber": "3413", "addr:street": "Northwest 41st Street", "building": "house", "building:levels": "1", "source": "microsoft/BuildingFootprints"}}}, {"type": "Feature", "geometry": {"type": "Polygon", "coordinates": [[[-97.577861, 35.513766], [-97.577859, 35.513912], [-97.577942, 35.513913], [-97.577942, 35.513889], [-97.578058, 35.51389], [-97.578059, 35.513767], [-97.577861, 35.513766]]]}, "properties": {"osm_id": 1002171038, "building": "house", "name": "", "height": null, "height_m": 3.0, "levels": 1, "tract_id": "40109106601", "tract_name": "1066.01", "tags": {"addr:housenumber": "3417", "addr:street": "Northwest 41st Street", "building": "house", "building:levels": "1", "source": "microsoft/BuildingFootprints"}}}, {"type": "Feature", "geometry": {"type": "Polygon", "coordinates": [[[-97.578306, 35.513884], [-97.578304, 35.513765], [-97.578213, 35.513765], [-97.578213, 35.513795], [-97.578087, 35.513796], [-97.578089, 35.513917], [-97.578171, 35.513917], [-97.578171, 35.513885], [-97.578306, 35.513884]]]}, "properties": {"osm_id": 1002171039, "building": "house", "name": "", "height": null, "height_m": 3.0, "levels": 1, "tract_id": "40109106601", "tract_name": "1066.01", "tags": {"addr:housenumber": "3421", "addr:street": "Northwest 41st Street", "building": "house", "building:levels": "1", "source": "microsoft/BuildingFootprints"}}}, {"type": "Feature", "geometry": {"type": "Polygon", "coordinates": [[[-97.578367, 35.513832], [-97.578371, 35.513909], [-97.57858, 35.513901], [-97.578572, 35.513757], [-97.578458, 35.513761], [-97.578461, 35.513829], [-97.578367, 35.513832]]]}, "properties": {"osm_id": 1002171040, "building": "house", "name": "", "height": null, "height_m": 3.0, "levels": 1, "tract_id": "40109106601", "tract_name": "1066.01", "tags": {"addr:housenumber": "3425", "addr:street": "Northwest 41st Street", "building": "house", "building:levels": "1", "source": "microsoft/BuildingFootprints"}}}, {"type": "Feature", "geometry": {"type": "Polygon", "coordinates": [[[-97.5786801, 35.5139272], [-97.5787079, 35.5139207], [-97.5787164, 35.5139444], [-97.5788887, 35.5139037], [-97.5788389, 35.5137638], [-97.5787693, 35.5137802], [-97.5787751, 35.5137965], [-97.5787339, 35.5138062], [-97.5787212, 35.5137704], [-97.5786318, 35.5137916], [-97.5786801, 35.5139272]]]}, "properties": {"osm_id": 1002171041, "building": "house", "name": "", "height": null, "height_m": 3.0, "levels": 1, "tract_id": "40109106601", "tract_name": "1066.01", "tags": {"addr:housenumber": "3429", "addr:street": "Northwest 41st Street", "building": "house", "building:levels": "1", "source": "microsoft/BuildingFootprints"}}}, {"type": "Feature", "geometry": {"type": "Polygon", "coordinates": [[[-97.580827, 35.513787], [-97.580823, 35.513925], [-97.580803, 35.513925], [-97.580801, 35.513997], [-97.580961, 35.514], [-97.580962, 35.513956], [-97.580994, 35.513957], [-97.580995, 35.513893], [-97.580961, 35.513893], [-97.580963, 35.513789], [-97.580827, 35.513787]]]}, "properties": {"osm_id": 1002171042, "building": "house", "name": "", "height": null, "height_m": 3.0, "levels": 1, "tract_id": "40109106601", "tract_name": "1066.01", "tags": {"addr:housenumber": "4301", "addr:street": "North Saint Clair Avenue", "building": "house", "building:levels": "1", "source": "microsoft/BuildingFootprints"}}}, {"type": "Feature", "geometry": {"type": "Polygon", "coordinates": [[[-97.5803767, 35.5139191], [-97.5803316, 35.5138757], [-97.5802797, 35.513923], [-97.5802672, 35.5139514], [-97.580242, 35.513951], [-97.58024, 35.514039], [-97.580454, 35.514042], [-97.580457, 35.513907], [-97.580396, 35.513906], [-97.5803767, 35.5139191]]]}, "properties": {"osm_id": 1002171043, "building": "house", "name": "", "height": null, "height_m": 3.0, "levels": 1, "tract_id": "40109106601", "tract_name": "1066.01", "tags": {"addr:housenumber": "3528", "addr:street": "Northwest 42nd Street", "building": "house", "building:levels": "1", "source": "microsoft/BuildingFootprints"}}}, {"type": "Feature", "geometry": {"type": "Polygon", "coordinates": [[[-97.58019, 35.514057], [-97.580169, 35.513943], [-97.580101, 35.513951], [-97.580096, 35.513924], [-97.579928, 35.513944], [-97.579954, 35.514085], [-97.58019, 35.514057]]]}, "properties": {"osm_id": 1002171044, "building": "house", "name": "", "height": null, "height_m": 3.0, "levels": 1, "tract_id": "40109106601", "tract_name": "1066.01", "tags": {"addr:housenumber": "3524", "addr:street": "Northwest 42nd Street", "building": "house", "building:levels": "1", "source": "microsoft/BuildingFootprints"}}}, {"type": "Feature", "geometry": {"type": "Polygon", "coordinates": [[[-97.579637, 35.5140152], [-97.5796903, 35.514159], [-97.579839, 35.5141224], [-97.5798416, 35.5141294], [-97.5799272, 35.5141084], [-97.5798835, 35.5139907], [-97.5798007, 35.514011], [-97.5797917, 35.5139867], [-97.5797235, 35.5140035], [-97.5797202, 35.5139947], [-97.579637, 35.5140152]]]}, "properties": {"osm_id": 1002171045, "building": "house", "name": "", "height": null, "height_m": 3.0, "levels": 1, "tract_id": "40109106601", "tract_name": "1066.01", "tags": {"addr:housenumber": "3520", "addr:street": "Northwest 42nd Street", "building": "house", "building:levels": "1", "source": "microsoft/BuildingFootprints"}}}, {"type": "Feature", "geometry": {"type": "Polygon", "coordinates": [[[-97.579376, 35.514147], [-97.579431, 35.514256], [-97.579665, 35.514179], [-97.579637, 35.51412], [-97.579593, 35.514135], [-97.579585, 35.514119], [-97.579484, 35.514153], [-97.579466, 35.514117], [-97.579376, 35.514147]]]}, "properties": {"osm_id": 1002171046, "building": "house", "name": "", "height": null, "height_m": 3.0, "levels": 1, "tract_id": "40109106601", "tract_name": "1066.01", "tags": {"addr:housenumber": "3516", "addr:street": "Northwest 42nd Street", "building": "house", "building:levels": "1", "source": "microsoft/BuildingFootprints"}}}, {"type": "Feature", "geometry": {"type": "Polygon", "coordinates": [[[-97.5791732, 35.5141765], [-97.5791902, 35.5142129], [-97.5791407, 35.5142282], [-97.5791979, 35.5143503], [-97.5792459, 35.5143354], [-97.5792487, 35.5143413], [-97.5792967, 35.5143265], [-97.5792932, 35.5143189], [-97.5793435, 35.5143033], [-97.5793373, 35.5142902], [-97.5793995, 35.5142709], [-97.5793323, 35.5141272], [-97.5791732, 35.5141765]]]}, "properties": {"osm_id": 1002171047, "building": "house", "name": "", "height": null, "height_m": 3.0, "levels": 1, "tract_id": "40109106601", "tract_name": "1066.01", "tags": {"addr:housenumber": "3512", "addr:street": "Northwest 42nd Street", "building": "house", "building:levels": "1", "source": "microsoft/BuildingFootprints"}}}, {"type": "Feature", "geometry": {"type": "Polygon", "coordinates": [[[-97.5789045, 35.5142921], [-97.5789415, 35.5144151], [-97.579149, 35.5143724], [-97.5791089, 35.514249], [-97.5789045, 35.5142921]]]}, "properties": {"osm_id": 1002171048, "building": "house", "name": "", "height": null, "height_m": 3.0, "levels": 1, "tract_id": "40109106601", "tract_name": "1066.01", "tags": {"addr:housenumber": "3508", "addr:street": "Northwest 42nd Street", "building": "house", "building:levels": "1", "source": "microsoft/BuildingFootprints"}}}, {"type": "Feature", "geometry": {"type": "Polygon", "coordinates": [[[-97.5788998, 35.5144229], [-97.5788802, 35.5142987], [-97.5788569, 35.5143011], [-97.5788531, 35.5142766], [-97.5787949, 35.5142826], [-97.5787993, 35.5143109], [-97.5786558, 35.5143259], [-97.5786717, 35.5144272], [-97.5788114, 35.5144126], [-97.5788144, 35.5144318], [-97.5788998, 35.5144229]]]}, "properties": {"osm_id": 1002171049, "building": "house", "name": "", "height": null, "height_m": 3.0, "levels": 1, "tract_id": "40109106601", "tract_name": "1066.01", "tags": {"addr:housenumber": "3504", "addr:street": "Northwest 42nd Street", "building": "house", "building:levels": "1", "source": "microsoft/BuildingFootprints"}}}, {"type": "Feature", "geometry": {"type": "Polygon", "coordinates": [[[-97.578394, 35.514432], [-97.57855, 35.514431], [-97.57855, 35.514452], [-97.578636, 35.514452], [-97.578635, 35.514328], [-97.578393, 35.51433], [-97.578394, 35.514432]]]}, "properties": {"osm_id": 1002171050, "building": "house", "name": "", "height": null, "height_m": 3.0, "levels": 1, "tract_id": "40109106601", "tract_name": "1066.01", "tags": {"addr:housenumber": "3500", "addr:street": "Northwest 42nd Street", "building": "house", "building:levels": "1", "source": "microsoft/BuildingFootprints"}}}, {"type": "Feature", "geometry": {"type": "Polygon", "coordinates": [[[-97.578138, 35.514437], [-97.578261, 35.514439], [-97.578261, 35.514455], [-97.578353, 35.514457], [-97.578359, 35.514309], [-97.578142, 35.514303], [-97.578138, 35.514437]]]}, "properties": {"osm_id": 1002171051, "building": "house", "name": "", "height": null, "height_m": 3.0, "levels": 1, "tract_id": "40109106601", "tract_name": "1066.01", "tags": {"addr:housenumber": "3420", "addr:street": "Northwest 42nd Street", "building": "house", "building:levels": "1", "source": "microsoft/BuildingFootprints"}}}, {"type": "Feature", "geometry": {"type": "Polygon", "coordinates": [[[-97.577858, 35.5144474], [-97.5781008, 35.5144487], [-97.5781016, 35.5143433], [-97.5778859, 35.5143422], [-97.5778824, 35.5143421], [-97.577882, 35.5143898], [-97.5778585, 35.5143897], [-97.577858, 35.5144474]]]}, "properties": {"osm_id": 1002171052, "building": "house", "name": "", "height": null, "height_m": 3.0, "levels": 1, "tract_id": "40109106601", "tract_name": "1066.01", "tags": {"addr:housenumber": "3416", "addr:street": "Northwest 42nd Street", "building": "house", "building:levels": "1", "source": "microsoft/BuildingFootprints"}}}, {"type": "Feature", "geometry": {"type": "Polygon", "coordinates": [[[-97.5776202, 35.5144286], [-97.5776714, 35.5144283], [-97.5776715, 35.5144447], [-97.5777339, 35.5144442], [-97.577734, 35.5144536], [-97.5778205, 35.514453], [-97.5778193, 35.5143379], [-97.5777971, 35.5143381], [-97.5777966, 35.5142955], [-97.5776938, 35.5142962], [-97.5776937, 35.5142853], [-97.5776187, 35.5142858], [-97.5776202, 35.5144286]]]}, "properties": {"osm_id": 1002171053, "building": "house", "name": "", "height": null, "height_m": 3.0, "levels": 1, "tract_id": "40109106601", "tract_name": "1066.01", "tags": {"addr:housenumber": "3412", "addr:street": "Northwest 42nd Street", "building": "house", "building:levels": "1", "source": "microsoft/BuildingFootprints"}}}, {"type": "Feature", "geometry": {"type": "Polygon", "coordinates": [[[-97.57758, 35.5143579], [-97.577497, 35.5143586], [-97.5774964, 35.5143164], [-97.5773521, 35.5143176], [-97.5773537, 35.5144458], [-97.577501, 35.5144446], [-97.5775012, 35.5144561], [-97.5775811, 35.5144555], [-97.57758, 35.5143579]]]}, "properties": {"osm_id": 1002171054, "building": "house", "name": "", "height": null, "height_m": 3.0, "levels": 1, "tract_id": "40109106601", "tract_name": "1066.01", "tags": {"addr:housenumber": "3408", "addr:street": "Northwest 42nd Street", "building": "house", "building:levels": "1", "source": "microsoft/BuildingFootprints"}}}, {"type": "Feature", "geometry": {"type": "Polygon", "coordinates": [[[-97.577381, 35.514745], [-97.577272, 35.514743], [-97.57727, 35.514825], [-97.57717, 35.514823], [-97.577167, 35.514912], [-97.577298, 35.514915], [-97.577298, 35.514941], [-97.577375, 35.514943], [-97.577381, 35.514745]]]}, "properties": {"osm_id": 1002171055, "building": "house", "name": "", "height": null, "height_m": 3.0, "levels": 1, "tract_id": "40109106601", "tract_name": "1066.01", "tags": {"addr:housenumber": "3405", "addr:street": "Northwest 42nd Street", "building": "house", "building:levels": "1", "source": "microsoft/BuildingFootprints"}}}, {"type": "Feature", "geometry": {"type": "Polygon", "coordinates": [[[-97.577632, 35.514724], [-97.577401, 35.51472], [-97.577399, 35.514832], [-97.577445, 35.514832], [-97.577444, 35.514874], [-97.577532, 35.514875], [-97.577533, 35.514834], [-97.57763, 35.514835], [-97.577632, 35.514724]]]}, "properties": {"osm_id": 1002171056, "building": "house", "name": "", "height": null, "height_m": 3.0, "levels": 1, "tract_id": "40109106601", "tract_name": "1066.01", "tags": {"addr:housenumber": "3409", "addr:street": "Northwest 42nd Street", "building": "house", "building:levels": "1", "source": "microsoft/BuildingFootprints"}}}, {"type": "Feature", "geometry": {"type": "Polygon", "coordinates": [[[-97.577882, 35.514726], [-97.57766, 35.514723], [-97.577657, 35.514877], [-97.57782, 35.51488], [-97.577821, 35.51483], [-97.57788, 35.51483], [-97.577882, 35.514726]]]}, "properties": {"osm_id": 1002171057, "building": "house", "name": "", "height": null, "height_m": 3.0, "levels": 1, "tract_id": "40109106601", "tract_name": "1066.01", "tags": {"addr:housenumber": "3413", "addr:street": "Northwest 42nd Street", "building": "house", "building:levels": "1", "source": "microsoft/BuildingFootprints"}}}, {"type": "Feature", "geometry": {"type": "Polygon", "coordinates": [[[-97.577914, 35.514856], [-97.578008, 35.514857], [-97.578008, 35.514884], [-97.578061, 35.514884], [-97.578061, 35.514956], [-97.578135, 35.514957], [-97.578137, 35.514717], [-97.578016, 35.514716], [-97.578016, 35.51475], [-97.577915, 35.514749], [-97.577914, 35.514856]]]}, "properties": {"osm_id": 1002171058, "building": "house", "name": "", "height": null, "height_m": 3.0, "levels": 1, "tract_id": "40109106601", "tract_name": "1066.01", "tags": {"addr:housenumber": "3417", "addr:street": "Northwest 42nd Street", "building": "house", "building:levels": "1", "source": "microsoft/BuildingFootprints"}}}, {"type": "Feature", "geometry": {"type": "Polygon", "coordinates": [[[-97.578162, 35.514878], [-97.578253, 35.514877], [-97.578252, 35.514845], [-97.578386, 35.514843], [-97.578384, 35.514721], [-97.578178, 35.514723], [-97.578179, 35.514817], [-97.578161, 35.514817], [-97.578162, 35.514878]]]}, "properties": {"osm_id": 1002171059, "building": "house", "name": "", "height": null, "height_m": 3.0, "levels": 1, "tract_id": "40109106601", "tract_name": "1066.01", "tags": {"addr:housenumber": "3421", "addr:street": "Northwest 42nd Street", "building": "house", "building:levels": "1", "source": "microsoft/BuildingFootprints"}}}, {"type": "Feature", "geometry": {"type": "Polygon", "coordinates": [[[-97.578657, 35.514838], [-97.578654, 35.514716], [-97.578564, 35.514717], [-97.578565, 35.514737], [-97.578414, 35.514739], [-97.578417, 35.514846], [-97.578555, 35.514844], [-97.578556, 35.51487], [-97.578628, 35.514869], [-97.578628, 35.514838], [-97.578657, 35.514838]]]}, "properties": {"osm_id": 1002171060, "building": "house", "name": "", "height": null, "height_m": 3.0, "levels": 1, "tract_id": "40109106601", "tract_name": "1066.01", "tags": {"addr:housenumber": "3501", "addr:street": "Northwest 42nd Street", "building": "house", "building:levels": "1", "source": "microsoft/BuildingFootprints"}}}, {"type": "Feature", "geometry": {"type": "Polygon", "coordinates": [[[-97.5787874, 35.5148586], [-97.5787827, 35.5148224], [-97.5788281, 35.5148184], [-97.5788259, 35.5148018], [-97.5789019, 35.5147952], [-97.5788895, 35.5147005], [-97.5786782, 35.5147189], [-97.5786907, 35.5148141], [-97.5786856, 35.5148145], [-97.5786873, 35.5148272], [-97.5786794, 35.5148279], [-97.5786846, 35.5148675], [-97.5787874, 35.5148586]]]}, "properties": {"osm_id": 1002171061, "building": "house", "name": "", "height": null, "height_m": 3.0, "levels": 1, "tract_id": "40109106601", "tract_name": "1066.01", "tags": {"addr:housenumber": "3505", "addr:street": "Northwest 42nd Street", "building": "house", "building:levels": "1", "source": "microsoft/BuildingFootprints"}}}, {"type": "Feature", "geometry": {"type": "Polygon", "coordinates": [[[-97.5789479, 35.5146948], [-97.5789801, 35.5148048], [-97.5792271, 35.514757], [-97.5791925, 35.5146384], [-97.5791168, 35.514653], [-97.5791232, 35.5146751], [-97.5790595, 35.5146874], [-97.5790556, 35.5146739], [-97.5789479, 35.5146948]]]}, "properties": {"osm_id": 1002171062, "building": "house", "name": "", "height": null, "height_m": 3.0, "levels": 1, "tract_id": "40109106601", "tract_name": "1066.01", "tags": {"addr:housenumber": "3509", "addr:street": "Northwest 42nd Street", "building": "house", "building:levels": "1", "source": "microsoft/BuildingFootprints"}}}, {"type": "Feature", "geometry": {"type": "Polygon", "coordinates": [[[-97.5794541, 35.5145553], [-97.5792189, 35.5146305], [-97.5792841, 35.5147656], [-97.5793655, 35.5147395], [-97.5793591, 35.5147263], [-97.5794319, 35.514703], [-97.5794198, 35.514678], [-97.5795008, 35.5146521], [-97.5794541, 35.5145553]]]}, "properties": {"osm_id": 1002171063, "building": "house", "name": "", "height": null, "height_m": 3.0, "levels": 1, "tract_id": "40109106601", "tract_name": "1066.01", "tags": {"addr:housenumber": "3513", "addr:street": "Northwest 42nd Street", "building": "house", "building:levels": "1", "source": "microsoft/BuildingFootprints"}}}, {"type": "Feature", "geometry": {"type": "Polygon", "coordinates": [[[-97.579483, 35.514545], [-97.579537, 35.514653], [-97.579644, 35.514617], [-97.579657, 35.514643], [-97.579773, 35.514604], [-97.579706, 35.514471], [-97.579483, 35.514545]]]}, "properties": {"osm_id": 1002171064, "building": "house", "name": "", "height": null, "height_m": 3.0, "levels": 1, "tract_id": "40109106601", "tract_name": "1066.01", "tags": {"addr:housenumber": "3517", "addr:street": "Northwest 42nd Street", "building": "house", "building:levels": "1", "source": "microsoft/BuildingFootprints"}}}, {"type": "Feature", "geometry": {"type": "Polygon", "coordinates": [[[-97.5800086, 35.5145282], [-97.5799481, 35.5143914], [-97.5798652, 35.5144157], [-97.5798676, 35.514421], [-97.5797391, 35.5144586], [-97.5798007, 35.5145981], [-97.5798897, 35.5145721], [-97.5798861, 35.5145641], [-97.5800086, 35.5145282]]]}, "properties": {"osm_id": 1002171065, "building": "house", "name": "", "height": null, "height_m": 3.0, "levels": 1, "tract_id": "40109106601", "tract_name": "1066.01", "tags": {"addr:housenumber": "3521", "addr:street": "Northwest 42nd Street", "building": "house", "building:levels": "1", "source": "microsoft/BuildingFootprints"}}}, {"type": "Feature", "geometry": {"type": "Polygon", "coordinates": [[[-97.5802185, 35.5143693], [-97.5801429, 35.5143822], [-97.5801405, 35.5143731], [-97.5800722, 35.5143847], [-97.5800694, 35.5143737], [-97.5800319, 35.5143801], [-97.5800334, 35.5143863], [-97.58, 35.514392], [-97.5800429, 35.5145583], [-97.580122, 35.5145448], [-97.5801183, 35.5145305], [-97.5802541, 35.5145074], [-97.5802185, 35.5143693]]]}, "properties": {"osm_id": 1002171066, "building": "house", "name": "", "height": null, "height_m": 3.0, "levels": 1, "tract_id": "40109106601", "tract_name": "1066.01", "tags": {"addr:housenumber": "3525", "addr:street": "Northwest 42nd Street", "building": "house", "building:levels": "1", "source": "microsoft/BuildingFootprints"}}}, {"type": "Feature", "geometry": {"type": "Polygon", "coordinates": [[[-97.5802795, 35.5144976], [-97.5802554, 35.5143472], [-97.5804951, 35.5143218], [-97.5805128, 35.514432], [-97.580444, 35.5144393], [-97.5804475, 35.514461], [-97.5803763, 35.5144685], [-97.5803793, 35.514487], [-97.5802795, 35.5144976]]]}, "properties": {"osm_id": 1002171067, "building": "house", "name": "", "height": null, "height_m": 3.0, "levels": 1, "tract_id": "40109106601", "tract_name": "1066.01", "tags": {"addr:housenumber": "3529", "addr:street": "Northwest 42nd Street", "building": "house", "building:levels": "1"}}}, {"type": "Feature", "geometry": {"type": "Polygon", "coordinates": [[[-97.5801955, 35.5148323], [-97.5802358, 35.5149598], [-97.580516, 35.5149011], [-97.5804522, 35.5146993], [-97.5803489, 35.514721], [-97.5803724, 35.5147953], [-97.5801955, 35.5148323]]]}, "properties": {"osm_id": 1002171068, "building": "house", "name": "", "height": null, "height_m": 3.0, "levels": 1, "tract_id": "40109106601", "tract_name": "1066.01", "tags": {"addr:housenumber": "3524", "addr:street": "Northwest 43rd Street", "building": "house", "building:levels": "1", "source": "microsoft/BuildingFootprints"}}}, {"type": "Feature", "geometry": {"type": "Polygon", "coordinates": [[[-97.5802036, 35.5149661], [-97.5801662, 35.5148507], [-97.5800875, 35.5148676], [-97.5800846, 35.5148586], [-97.5799349, 35.5148908], [-97.5799446, 35.5149207], [-97.5799011, 35.51493], [-97.5799351, 35.515035], [-97.580109, 35.5149976], [-97.5801056, 35.5149871], [-97.5802036, 35.5149661]]]}, "properties": {"osm_id": 1002171069, "building": "house", "name": "", "height": null, "height_m": 3.0, "levels": 1, "tract_id": "40109106601", "tract_name": "1066.01", "tags": {"addr:housenumber": "3520", "addr:street": "Northwest 43rd Street", "building": "house", "building:levels": "1", "source": "microsoft/BuildingFootprints"}}}, {"type": "Feature", "geometry": {"type": "Polygon", "coordinates": [[[-97.5796117, 35.5149354], [-97.5796555, 35.5150902], [-97.5797187, 35.5150784], [-97.5797137, 35.5150605], [-97.5797554, 35.5150527], [-97.5797515, 35.5150387], [-97.5798067, 35.5150284], [-97.5798111, 35.5150439], [-97.5798975, 35.5150277], [-97.5798649, 35.5149124], [-97.5797652, 35.5149311], [-97.5797586, 35.5149078], [-97.5796117, 35.5149354]]]}, "properties": {"osm_id": 1002171070, "building": "house", "name": "", "height": null, "height_m": 3.0, "levels": 1, "tract_id": "40109106601", "tract_name": "1066.01", "tags": {"addr:housenumber": "3516", "addr:street": "Northwest 43rd Street", "building": "house", "building:levels": "1", "source": "microsoft/BuildingFootprints"}}}, {"type": "Feature", "geometry": {"type": "Polygon", "coordinates": [[[-97.5793141, 35.5149971], [-97.5793561, 35.5151592], [-97.5794529, 35.5151426], [-97.5794496, 35.5151299], [-97.5795149, 35.5151186], [-97.579512, 35.5151075], [-97.5796252, 35.515088], [-97.5796016, 35.5149974], [-97.5794141, 35.5150296], [-97.5794018, 35.514982], [-97.5793141, 35.5149971]]]}, "properties": {"osm_id": 1002171071, "building": "house", "name": "", "height": null, "height_m": 3.0, "levels": 1, "tract_id": "40109106601", "tract_name": "1066.01", "tags": {"addr:housenumber": "3512", "addr:street": "Northwest 43rd Street", "building": "house", "building:levels": "1", "source": "microsoft/BuildingFootprints"}}}, {"type": "Feature", "geometry": {"type": "Polygon", "coordinates": [[[-97.579336, 35.5151639], [-97.5793152, 35.515071], [-97.5793071, 35.5150723], [-97.5792959, 35.5150223], [-97.5790325, 35.5150613], [-97.5790589, 35.5151795], [-97.5791128, 35.5151715], [-97.5791145, 35.515179], [-97.579194, 35.5151672], [-97.5791905, 35.5151519], [-97.579237, 35.515145], [-97.5792443, 35.5151775], [-97.579336, 35.5151639]]]}, "properties": {"osm_id": 1002171072, "building": "house", "name": "", "height": null, "height_m": 3.0, "levels": 1, "tract_id": "40109106601", "tract_name": "1066.01", "tags": {"addr:housenumber": "3508", "addr:street": "Northwest 43rd Street", "building": "house", "building:levels": "1", "source": "microsoft/BuildingFootprints"}}}, {"type": "Feature", "geometry": {"type": "Polygon", "coordinates": [[[-97.5787498, 35.5150864], [-97.5787735, 35.5152249], [-97.5788733, 35.5152137], [-97.5788668, 35.5151758], [-97.5789642, 35.5151648], [-97.5789612, 35.515147], [-97.5790287, 35.5151394], [-97.5790146, 35.5150565], [-97.5787498, 35.5150864]]]}, "properties": {"osm_id": 1002171073, "building": "house", "name": "", "height": null, "height_m": 3.0, "levels": 1, "tract_id": "40109106601", "tract_name": "1066.01", "tags": {"addr:housenumber": "3504", "addr:street": "Northwest 43rd Street", "building": "house", "building:levels": "1", "source": "microsoft/BuildingFootprints"}}}, {"type": "Feature", "geometry": {"type": "Polygon", "coordinates": [[[-97.5784761, 35.515211], [-97.5785424, 35.5152087], [-97.5785419, 35.5151984], [-97.5786565, 35.5151944], [-97.5786581, 35.515226], [-97.5787389, 35.5152232], [-97.5787319, 35.5150895], [-97.57864, 35.5150927], [-97.5786388, 35.5150695], [-97.5785634, 35.5150721], [-97.5785649, 35.5151004], [-97.5784705, 35.5151037], [-97.5784761, 35.515211]]]}, "properties": {"osm_id": 1002171074, "building": "house", "name": "", "height": null, "height_m": 3.0, "levels": 1, "tract_id": "40109106601", "tract_name": "1066.01", "tags": {"addr:housenumber": "3500", "addr:street": "Northwest 43rd Street", "building": "house", "building:levels": "1", "source": "microsoft/BuildingFootprints"}}}, {"type": "Feature", "geometry": {"type": "Polygon", "coordinates": [[[-97.5781954, 35.5152259], [-97.5783557, 35.5152249], [-97.5783558, 35.5152332], [-97.5784408, 35.5152326], [-97.5784397, 35.5151134], [-97.5782898, 35.5151144], [-97.5782894, 35.5150768], [-97.578194, 35.5150774], [-97.5781954, 35.5152259]]]}, "properties": {"osm_id": 1002171075, "building": "house", "name": "", "height": null, "height_m": 3.0, "levels": 1, "tract_id": "40109106601", "tract_name": "1066.01", "tags": {"addr:housenumber": "3420", "addr:street": "Northwest 43rd Street", "building": "house", "building:levels": "1", "source": "microsoft/BuildingFootprints"}}}, {"type": "Feature", "geometry": {"type": "Polygon", "coordinates": [[[-97.5779188, 35.5152255], [-97.5780727, 35.5152255], [-97.5780727, 35.5152312], [-97.5781658, 35.5152312], [-97.5781659, 35.5151049], [-97.5781009, 35.5151049], [-97.578101, 35.5150737], [-97.578037, 35.5150736], [-97.578037, 35.5151076], [-97.5779189, 35.5151076], [-97.5779188, 35.5152255]]]}, "properties": {"osm_id": 1002171076, "building": "house", "name": "", "height": null, "height_m": 3.0, "levels": 1, "tract_id": "40109106601", "tract_name": "1066.01", "tags": {"addr:housenumber": "3416", "addr:street": "Northwest 43rd Street", "building": "house", "building:levels": "1", "source": "microsoft/BuildingFootprints"}}}, {"type": "Feature", "geometry": {"type": "Polygon", "coordinates": [[[-97.5778948, 35.5151042], [-97.5776463, 35.5151066], [-97.5776479, 35.515218], [-97.577722, 35.5152173], [-97.5777222, 35.5152284], [-97.577806, 35.5152276], [-97.577806, 35.5152327], [-97.5778966, 35.5152318], [-97.5778948, 35.5151042]]]}, "properties": {"osm_id": 1002171077, "building": "house", "name": "", "height": null, "height_m": 3.0, "levels": 1, "tract_id": "40109106601", "tract_name": "1066.01", "tags": {"addr:housenumber": "3412", "addr:street": "Northwest 43rd Street", "building": "house", "building:levels": "1", "source": "microsoft/BuildingFootprints"}}}, {"type": "Feature", "geometry": {"type": "Polygon", "coordinates": [[[-97.5774019, 35.5150865], [-97.5774033, 35.5152169], [-97.5774509, 35.5152166], [-97.577451, 35.5152333], [-97.5776158, 35.5152321], [-97.5776148, 35.5151295], [-97.5774899, 35.5151303], [-97.5774894, 35.5150859], [-97.5774019, 35.5150865]]]}, "properties": {"osm_id": 1002171078, "building": "house", "name": "", "height": null, "height_m": 3.0, "levels": 1, "tract_id": "40109106601", "tract_name": "1066.01", "tags": {"addr:housenumber": "3408", "addr:street": "Northwest 43rd Street", "building": "house", "building:levels": "1", "source": "microsoft/BuildingFootprints"}}}, {"type": "Feature", "geometry": {"type": "Polygon", "coordinates": [[[-97.5771561, 35.5152215], [-97.5772825, 35.5152203], [-97.5772826, 35.5152312], [-97.5773686, 35.5152303], [-97.5773668, 35.5151112], [-97.577328, 35.5151116], [-97.5773276, 35.5150883], [-97.5772657, 35.515089], [-97.5772659, 35.5150972], [-97.5771542, 35.5150984], [-97.5771561, 35.5152215]]]}, "properties": {"osm_id": 1002171079, "building": "house", "name": "", "height": null, "height_m": 3.0, "levels": 1, "tract_id": "40109106601", "tract_name": "1066.01", "tags": {"addr:housenumber": "3404", "addr:street": "Northwest 43rd Street", "building": "house", "building:levels": "1", "source": "microsoft/BuildingFootprints"}}}, {"type": "Feature", "geometry": {"type": "Polygon", "coordinates": [[[-97.577376, 35.5155], [-97.577286, 35.515498], [-97.577285, 35.515528], [-97.577165, 35.515526], [-97.57716, 35.515661], [-97.577249, 35.515663], [-97.57725, 35.515625], [-97.577372, 35.515627], [-97.577376, 35.5155]]]}, "properties": {"osm_id": 1002171080, "building": "house", "name": "", "height": null, "height_m": 3.0, "levels": 1, "tract_id": "40109106601", "tract_name": "1066.01", "tags": {"addr:housenumber": "3405", "addr:street": "Northwest 43rd Street", "building": "house", "building:levels": "1", "source": "microsoft/BuildingFootprints"}}}, {"type": "Feature", "geometry": {"type": "Polygon", "coordinates": [[[-97.5774087, 35.5156207], [-97.5776273, 35.5156209], [-97.5776275, 35.5155035], [-97.5774795, 35.5155033], [-97.5774795, 35.5154966], [-97.5774089, 35.5154965], [-97.5774087, 35.5156207]]]}, "properties": {"osm_id": 1002171081, "building": "house", "name": "", "height": null, "height_m": 3.0, "levels": 1, "tract_id": "40109106601", "tract_name": "1066.01", "tags": {"addr:housenumber": "3409", "addr:street": "Northwest 43rd Street", "building": "house", "building:levels": "1", "source": "microsoft/BuildingFootprints"}}}, {"type": "Feature", "geometry": {"type": "Polygon", "coordinates": [[[-97.5779039, 35.5156307], [-97.5779013, 35.5155098], [-97.5777182, 35.5155124], [-97.5777183, 35.5155168], [-97.5776547, 35.5155177], [-97.5776571, 35.5156284], [-97.5778181, 35.5156261], [-97.5778183, 35.5156319], [-97.5779039, 35.5156307]]]}, "properties": {"osm_id": 1004593573, "building": "house", "name": "", "height": null, "height_m": 3.0, "levels": 1, "tract_id": "40109106601", "tract_name": "1066.01", "tags": {"addr:housenumber": "3413", "addr:street": "Northwest 43rd Street", "building": "house", "building:levels": "1", "source": "microsoft/BuildingFootprints"}}}, {"type": "Feature", "geometry": {"type": "Polygon", "coordinates": [[[-97.5779285, 35.5156616], [-97.578016, 35.515661], [-97.5780156, 35.5156145], [-97.5781737, 35.5156135], [-97.5781726, 35.515498], [-97.5780834, 35.5154985], [-97.5780835, 35.5155057], [-97.5779271, 35.5155067], [-97.5779285, 35.5156616]]]}, "properties": {"osm_id": 1004593574, "building": "house", "name": "", "height": null, "height_m": 3.0, "levels": 1, "tract_id": "40109106601", "tract_name": "1066.01", "tags": {"addr:housenumber": "3417", "addr:street": "Northwest 43rd Street", "building": "house", "building:levels": "1", "source": "microsoft/BuildingFootprints"}}}, {"type": "Feature", "geometry": {"type": "Polygon", "coordinates": [[[-97.578189, 35.515659], [-97.578299, 35.51566], [-97.5783, 35.515613], [-97.578465, 35.515614], [-97.578466, 35.515494], [-97.578191, 35.515492], [-97.578189, 35.515659]]]}, "properties": {"osm_id": 1004593575, "building": "house", "name": "", "height": null, "height_m": 3.0, "levels": 1, "tract_id": "40109106601", "tract_name": "1066.01", "tags": {"addr:housenumber": "3421", "addr:street": "Northwest 43rd Street", "building": "house", "building:levels": "1", "source": "microsoft/BuildingFootprints"}}}, {"type": "Feature", "geometry": {"type": "Polygon", "coordinates": [[[-97.5784855, 35.5156667], [-97.5785833, 35.5156649], [-97.5785818, 35.5156135], [-97.5787633, 35.5156101], [-97.5787605, 35.5155133], [-97.578585, 35.5155166], [-97.5785844, 35.5154931], [-97.5784807, 35.515495], [-97.5784855, 35.5156667]]]}, "properties": {"osm_id": 1004593576, "building": "house", "name": "", "height": null, "height_m": 3.0, "levels": 1, "tract_id": "40109106601", "tract_name": "1066.01", "tags": {"addr:housenumber": "3501", "addr:street": "Northwest 43rd Street", "building": "house", "building:levels": "1", "source": "microsoft/BuildingFootprints"}}}, {"type": "Feature", "geometry": {"type": "Polygon", "coordinates": [[[-97.5790342, 35.5155848], [-97.5790406, 35.5156364], [-97.5791018, 35.5156313], [-97.5790816, 35.5154684], [-97.5789853, 35.5154763], [-97.5789875, 35.5154946], [-97.5788907, 35.5155026], [-97.5788887, 35.5154869], [-97.5788133, 35.5154931], [-97.5788322, 35.5156448], [-97.5789336, 35.5156364], [-97.5789283, 35.5155935], [-97.5790342, 35.5155848]]]}, "properties": {"osm_id": 1004593577, "building": "house", "name": "", "height": null, "height_m": 3.0, "levels": 1, "tract_id": "40109106601", "tract_name": "1066.01", "tags": {"addr:housenumber": "3505", "addr:street": "Northwest 43rd Street", "building": "house", "building:levels": "1", "source": "microsoft/BuildingFootprints"}}}, {"type": "Feature", "geometry": {"type": "Polygon", "coordinates": [[[-97.5793341, 35.5155669], [-97.5793384, 35.5155887], [-97.5794613, 35.5155726], [-97.5794313, 35.5154206], [-97.5793511, 35.5154311], [-97.5793499, 35.5154249], [-97.5792139, 35.5154427], [-97.579215, 35.5154483], [-97.579135, 35.5154587], [-97.5791608, 35.5155896], [-97.5793341, 35.5155669]]]}, "properties": {"osm_id": 1004593578, "building": "house", "name": "", "height": null, "height_m": 3.0, "levels": 1, "tract_id": "40109106601", "tract_name": "1066.01", "tags": {"addr:housenumber": "3509", "addr:street": "Northwest 43rd Street", "building": "house", "building:levels": "1", "source": "microsoft/BuildingFootprints"}}}, {"type": "Feature", "geometry": {"type": "Polygon", "coordinates": [[[-97.5794636, 35.5154148], [-97.5795017, 35.5155468], [-97.5797698, 35.5154955], [-97.5797475, 35.5154182], [-97.5796807, 35.515431], [-97.5796774, 35.5154199], [-97.5796178, 35.5154313], [-97.5796142, 35.5154189], [-97.5795668, 35.5154279], [-97.5795578, 35.5153968], [-97.5794636, 35.5154148]]]}, "properties": {"osm_id": 1004593579, "building": "house", "name": "", "height": null, "height_m": 3.0, "levels": 1, "tract_id": "40109106601", "tract_name": "1066.01", "tags": {"addr:housenumber": "3513", "addr:street": "Northwest 43rd Street", "building": "house", "building:levels": "1", "source": "microsoft/BuildingFootprints"}}}, {"type": "Feature", "geometry": {"type": "Polygon", "coordinates": [[[-97.5797849, 35.5153425], [-97.5798316, 35.5154782], [-97.5799014, 35.5154622], [-97.5799111, 35.5154903], [-97.5799794, 35.5154747], [-97.5799699, 35.5154472], [-97.5801007, 35.5154174], [-97.580094, 35.515398], [-97.5801286, 35.5153901], [-97.5801, 35.515307], [-97.5798998, 35.5153527], [-97.5798882, 35.5153189], [-97.5797849, 35.5153425]]]}, "properties": {"osm_id": 1004593580, "building": "house", "name": "", "height": null, "height_m": 3.0, "levels": 1, "tract_id": "40109106601", "tract_name": "1066.01", "tags": {"addr:housenumber": "3517", "addr:street": "Northwest 43rd Street", "building": "house", "building:levels": "1", "source": "microsoft/BuildingFootprints"}}}, {"type": "Feature", "geometry": {"type": "Polygon", "coordinates": [[[-97.580139, 35.5153024], [-97.580173, 35.5153985], [-97.5802692, 35.515376], [-97.5802883, 35.5154301], [-97.5803336, 35.5154195], [-97.5803487, 35.5154621], [-97.580438, 35.5154413], [-97.5803918, 35.5153108], [-97.5803798, 35.5153136], [-97.5803621, 35.5152634], [-97.5803778, 35.5152597], [-97.5803747, 35.5152508], [-97.5803089, 35.51522], [-97.5802728, 35.515271], [-97.580139, 35.5153024]]]}, "properties": {"osm_id": 1004593581, "building": "house", "name": "", "height": null, "height_m": 3.0, "levels": 1, "tract_id": "40109106601", "tract_name": "1066.01", "tags": {"addr:housenumber": "3521", "addr:street": "Northwest 43rd Street", "building": "house", "building:levels": "1", "source": "microsoft/BuildingFootprints"}}}, {"type": "Feature", "geometry": {"type": "Polygon", "coordinates": [[[-97.5794838, 35.5134452], [-97.5794329, 35.5134454], [-97.5794327, 35.5134083], [-97.5794835, 35.5134082], [-97.5794838, 35.5134452]]]}, "properties": {"osm_id": 1020144137, "building": "roof", "name": "", "height": null, "height_m": null, "levels": null, "tract_id": "40109106601", "tract_name": "1066.01", "tags": {"building": "roof"}}}, {"type": "Feature", "geometry": {"type": "Polygon", "coordinates": [[[-97.5808123, 35.5140142], [-97.5808129, 35.5140991], [-97.5808611, 35.5140989], [-97.5808619, 35.5142101], [-97.5810534, 35.5142092], [-97.5810521, 35.5140132], [-97.5808123, 35.5140142]]]}, "properties": {"osm_id": 1020980062, "building": "house", "name": "", "height": null, "height_m": 3.0, "levels": 1, "tract_id": "40109106601", "tract_name": "1066.01", "tags": {"addr:housenumber": "4305", "addr:street": "North Saint Clair Avenue", "building": "house", "building:levels": "1", "source": "microsoft/BuildingFootprints"}}}, {"type": "Feature", "geometry": {"type": "Polygon", "coordinates": [[[-97.5808126, 35.514431], [-97.5809344, 35.514431], [-97.5809343, 35.5143738], [-97.580958, 35.5143738], [-97.580958, 35.5142842], [-97.5809316, 35.5142842], [-97.5809315, 35.5142314], [-97.580803, 35.5142314], [-97.580803, 35.5143724], [-97.5808126, 35.5143724], [-97.5808126, 35.514431]]]}, "properties": {"osm_id": 1020980063, "building": "house", "name": "", "height": null, "height_m": 3.0, "levels": 1, "tract_id": "40109106601", "tract_name": "1066.01", "tags": {"addr:housenumber": "4309", "addr:street": "Northwest 42nd Street", "building": "house", "building:levels": "1", "source": "microsoft/BuildingFootprints"}}}, {"type": "Feature", "geometry": {"type": "Polygon", "coordinates": [[[-97.5808246, 35.5144642], [-97.5808261, 35.5146667], [-97.580964, 35.514666], [-97.5809638, 35.5146368], [-97.5810244, 35.5146365], [-97.581023, 35.5144631], [-97.5808246, 35.5144642]]]}, "properties": {"osm_id": 1020980064, "building": "house", "name": "", "height": null, "height_m": 3.0, "levels": 1, "tract_id": "40109106601", "tract_name": "1066.01", "tags": {"addr:housenumber": "4313", "addr:street": "North Saint Clair Avenue", "building": "house", "building:levels": "1", "source": "microsoft/BuildingFootprints"}}}, {"type": "Feature", "geometry": {"type": "Polygon", "coordinates": [[[-97.5811297, 35.5148981], [-97.5811223, 35.5148818], [-97.5811354, 35.5148777], [-97.5811153, 35.5148314], [-97.5811007, 35.514836], [-97.5810751, 35.5147847], [-97.5809853, 35.5147214], [-97.5808233, 35.5146943], [-97.5808095, 35.5147593], [-97.5809249, 35.5147783], [-97.5809175, 35.514785], [-97.5810128, 35.5148541], [-97.5810493, 35.5149242], [-97.5811297, 35.5148981]]]}, "properties": {"osm_id": 1020980065, "building": "house", "name": "", "height": null, "height_m": 3.0, "levels": 1, "tract_id": "40109106601", "tract_name": "1066.01", "tags": {"addr:housenumber": "3600", "addr:street": "Northwest 43rd Street", "building": "house", "building:levels": "1", "source": "microsoft/BuildingFootprints"}}}, {"type": "Feature", "geometry": {"type": "Polygon", "coordinates": [[[-97.5801384, 35.5158286], [-97.5802208, 35.5158291], [-97.580221, 35.5158154], [-97.580374, 35.5158164], [-97.5803756, 35.515655], [-97.5803885, 35.5156551], [-97.5803892, 35.5155813], [-97.5802866, 35.5155807], [-97.5802859, 35.5156561], [-97.5802617, 35.5156559], [-97.5802611, 35.5157173], [-97.5801394, 35.5157165], [-97.5801384, 35.5158286]]]}, "properties": {"osm_id": 1020980066, "building": "house", "name": "", "height": null, "height_m": 3.0, "levels": 1, "tract_id": "40109106601", "tract_name": "1066.01", "tags": {"addr:housenumber": "3524", "addr:street": "Treadwell Drive", "building": "house", "building:levels": "1", "source": "microsoft/BuildingFootprints"}}}, {"type": "Feature", "geometry": {"type": "Polygon", "coordinates": [[[-97.5798115, 35.5156723], [-97.5798367, 35.5158275], [-97.5799439, 35.515816], [-97.5799415, 35.5158009], [-97.5800044, 35.5157941], [-97.5800093, 35.5158243], [-97.5800934, 35.5158153], [-97.5800807, 35.5157373], [-97.5800635, 35.5157392], [-97.5800548, 35.5156856], [-97.5799821, 35.5156934], [-97.5799791, 35.5156754], [-97.5799053, 35.5156834], [-97.5799019, 35.5156626], [-97.5798115, 35.5156723]]]}, "properties": {"osm_id": 1020980067, "building": "house", "name": "", "height": null, "height_m": 3.0, "levels": 1, "tract_id": "40109106601", "tract_name": "1066.01", "tags": {"addr:housenumber": "3520", "addr:street": "Treadwell Drive", "building": "house", "building:levels": "1", "source": "microsoft/BuildingFootprints"}}}, {"type": "Feature", "geometry": {"type": "Polygon", "coordinates": [[[-97.579576, 35.515873], [-97.579733, 35.515848], [-97.57975, 35.515919], [-97.579834, 35.515906], [-97.57979, 35.515727], [-97.579695, 35.515742], [-97.579686, 35.515704], [-97.579541, 35.515728], [-97.579576, 35.515873]]]}, "properties": {"osm_id": 1020980068, "building": "house", "name": "", "height": null, "height_m": 3.0, "levels": 1, "tract_id": "40109106601", "tract_name": "1066.01", "tags": {"addr:housenumber": "3516", "addr:street": "Treadwell Drive", "building": "house", "building:levels": "1", "source": "microsoft/BuildingFootprints"}}}, {"type": "Feature", "geometry": {"type": "Polygon", "coordinates": [[[-97.5792774, 35.5157918], [-97.5793042, 35.5159051], [-97.579295, 35.5159065], [-97.5793025, 35.5159381], [-97.5794657, 35.5159126], [-97.5794669, 35.5159178], [-97.5795511, 35.5159046], [-97.5795157, 35.5157546], [-97.5792774, 35.5157918]]]}, "properties": {"osm_id": 1020980069, "building": "house", "name": "", "height": null, "height_m": 3.0, "levels": 1, "tract_id": "40109106601", "tract_name": "1066.01", "tags": {"addr:housenumber": "3512", "addr:street": "Treadwell Drive", "building": "house", "building:levels": "1", "source": "microsoft/BuildingFootprints"}}}, {"type": "Feature", "geometry": {"type": "Polygon", "coordinates": [[[-97.5790464, 35.5159817], [-97.5791002, 35.5159741], [-97.5791016, 35.5159809], [-97.5791922, 35.5159683], [-97.5791946, 35.5159797], [-97.5792774, 35.5159682], [-97.5792531, 35.5158529], [-97.5791982, 35.5158606], [-97.5791932, 35.5158369], [-97.5790209, 35.515861], [-97.5790464, 35.5159817]]]}, "properties": {"osm_id": 1020980070, "building": "house", "name": "", "height": null, "height_m": 3.0, "levels": 1, "tract_id": "40109106601", "tract_name": "1066.01", "tags": {"addr:housenumber": "3508", "addr:street": "Treadwell Drive", "building": "house", "building:levels": "1", "source": "microsoft/BuildingFootprints"}}}, {"type": "Feature", "geometry": {"type": "Polygon", "coordinates": [[[-97.578833, 35.5158442], [-97.5787465, 35.5158466], [-97.5787527, 35.5159922], [-97.5788501, 35.5159895], [-97.5788498, 35.5159841], [-97.5789977, 35.5159799], [-97.5789929, 35.5158684], [-97.5788342, 35.515873], [-97.578833, 35.5158442]]]}, "properties": {"osm_id": 1020980071, "building": "house", "name": "", "height": null, "height_m": 3.0, "levels": 1, "tract_id": "40109106601", "tract_name": "1066.01", "tags": {"addr:housenumber": "3504", "addr:street": "Treadwell Drive", "building": "house", "building:levels": "1", "source": "microsoft/BuildingFootprints"}}}, {"type": "Feature", "geometry": {"type": "Polygon", "coordinates": [[[-97.5787224, 35.5159373], [-97.5787209, 35.5158498], [-97.5786287, 35.5158508], [-97.5786282, 35.5158217], [-97.5785503, 35.5158226], [-97.5785508, 35.5158528], [-97.5784768, 35.5158536], [-97.5784793, 35.5160057], [-97.5786019, 35.5160044], [-97.5786008, 35.5159387], [-97.5787224, 35.5159373]]]}, "properties": {"osm_id": 1020980072, "building": "house", "name": "", "height": null, "height_m": 3.0, "levels": 1, "tract_id": "40109106601", "tract_name": "1066.01", "tags": {"addr:housenumber": "3500", "addr:street": "Treadwell Drive", "building": "house", "building:levels": "1", "source": "microsoft/BuildingFootprints"}}}, {"type": "Feature", "geometry": {"type": "Polygon", "coordinates": [[[-97.5783074, 35.5158766], [-97.5783065, 35.5157998], [-97.5782113, 35.5158006], [-97.5782139, 35.5160007], [-97.5782788, 35.5160002], [-97.5782786, 35.5159809], [-97.57837, 35.5159801], [-97.5783702, 35.5159985], [-97.5784555, 35.5159978], [-97.578454, 35.5158754], [-97.5783074, 35.5158766]]]}, "properties": {"osm_id": 1020980073, "building": "house", "name": "", "height": null, "height_m": 3.0, "levels": 1, "tract_id": "40109106601", "tract_name": "1066.01", "tags": {"addr:housenumber": "3420", "addr:street": "Treadwell Drive", "building": "house", "building:levels": "1", "source": "microsoft/BuildingFootprints"}}}, {"type": "Feature", "geometry": {"type": "Polygon", "coordinates": [[[-97.5779429, 35.5158889], [-97.5779439, 35.5159789], [-97.5781088, 35.5159777], [-97.5781091, 35.5160034], [-97.578188, 35.5160028], [-97.5781867, 35.5158872], [-97.5779429, 35.5158889]]]}, "properties": {"osm_id": 1020980074, "building": "house", "name": "", "height": null, "height_m": 3.0, "levels": 1, "tract_id": "40109106601", "tract_name": "1066.01", "tags": {"addr:housenumber": "3416", "addr:street": "Treadwell Drive", "building": "house", "building:levels": "1", "source": "microsoft/BuildingFootprints"}}}, {"type": "Feature", "geometry": {"type": "Polygon", "coordinates": [[[-97.5779247, 35.5158644], [-97.577891, 35.5158647], [-97.5778905, 35.5158316], [-97.5777835, 35.5158325], [-97.5777839, 35.5158638], [-97.577667, 35.5158647], [-97.5776684, 35.5159796], [-97.577831, 35.5159783], [-97.5778314, 35.5160086], [-97.5779265, 35.5160078], [-97.5779247, 35.5158644]]]}, "properties": {"osm_id": 1020980075, "building": "house", "name": "", "height": null, "height_m": 3.0, "levels": 1, "tract_id": "40109106601", "tract_name": "1066.01", "tags": {"addr:housenumber": "3412", "addr:street": "Treadwell Drive", "building": "house", "building:levels": "1", "source": "microsoft/BuildingFootprints"}}}, {"type": "Feature", "geometry": {"type": "Polygon", "coordinates": [[[-97.5776529, 35.5160099], [-97.5775653, 35.5160101], [-97.5775653, 35.5160004], [-97.5774014, 35.5160007], [-97.577401, 35.5158895], [-97.5776525, 35.515889], [-97.5776529, 35.5160099]]]}, "properties": {"osm_id": 1020980076, "building": "house", "name": "", "height": null, "height_m": 3.0, "levels": 1, "tract_id": "40109106601", "tract_name": "1066.01", "tags": {"addr:housenumber": "3408", "addr:street": "Treadwell Drive", "building": "house", "building:levels": "1"}}}, {"type": "Feature", "geometry": {"type": "Polygon", "coordinates": [[[-97.5772273, 35.5158436], [-97.5771302, 35.5158446], [-97.5771326, 35.5160028], [-97.5772957, 35.5160012], [-97.5772958, 35.5160105], [-97.577385, 35.5160096], [-97.5773833, 35.5158898], [-97.577228, 35.5158913], [-97.5772273, 35.5158436]]]}, "properties": {"osm_id": 1020980077, "building": "house", "name": "", "height": null, "height_m": 3.0, "levels": 1, "tract_id": "40109106601", "tract_name": "1066.01", "tags": {"addr:housenumber": "3404", "addr:street": "Treadwell Drive", "building": "house", "building:levels": "1", "source": "microsoft/BuildingFootprints"}}}, {"type": "Feature", "geometry": {"type": "Polygon", "coordinates": [[[-97.5773831, 35.5164023], [-97.5773822, 35.5162988], [-97.5772324, 35.5162997], [-97.5772322, 35.5162778], [-97.5771328, 35.5162784], [-97.5771338, 35.5164018], [-97.577162, 35.5164017], [-97.5771622, 35.5164271], [-97.5772297, 35.5164268], [-97.5772295, 35.5164031], [-97.5773831, 35.5164023]]]}, "properties": {"osm_id": 1021021177, "building": "house", "name": "", "height": null, "height_m": null, "levels": null, "tract_id": "40109106601", "tract_name": "1066.01", "tags": {"building": "house", "source": "microsoft/BuildingFootprints"}}}, {"type": "Feature", "geometry": {"type": "Polygon", "coordinates": [[[-97.5774104, 35.5164274], [-97.5774952, 35.5164277], [-97.5774954, 35.516391], [-97.5776496, 35.5163915], [-97.5776503, 35.5162781], [-97.5775618, 35.5162778], [-97.5775617, 35.5163002], [-97.5775003, 35.5162999], [-97.5775004, 35.5162876], [-97.5774112, 35.5162873], [-97.5774104, 35.5164274]]]}, "properties": {"osm_id": 1021021178, "building": "house", "name": "", "height": null, "height_m": 3.0, "levels": 1, "tract_id": "40109106601", "tract_name": "1066.01", "tags": {"addr:housenumber": "3409", "addr:street": "Treadwell Drive", "building": "house", "building:levels": "1", "source": "microsoft/BuildingFootprints"}}}, {"type": "Feature", "geometry": {"type": "Polygon", "coordinates": [[[-97.5776733, 35.5164599], [-97.5778219, 35.5164591], [-97.5778215, 35.5164088], [-97.5779251, 35.5164083], [-97.5779242, 35.5162912], [-97.5778349, 35.5162917], [-97.5778349, 35.5163], [-97.5776721, 35.5163008], [-97.5776733, 35.5164599]]]}, "properties": {"osm_id": 1021021179, "building": "house", "name": "", "height": null, "height_m": 3.0, "levels": 1, "tract_id": "40109106601", "tract_name": "1066.01", "tags": {"addr:housenumber": "3413", "addr:street": "Treadwell Drive", "building": "house", "building:levels": "1", "source": "microsoft/BuildingFootprints"}}}, {"type": "Feature", "geometry": {"type": "Polygon", "coordinates": [[[-97.5779456, 35.5164256], [-97.5780535, 35.5164264], [-97.5780538, 35.5164005], [-97.5780941, 35.5164008], [-97.5780942, 35.5163922], [-97.5781799, 35.5163928], [-97.5781812, 35.5162823], [-97.5780951, 35.5162816], [-97.578095, 35.5162864], [-97.5779473, 35.5162852], [-97.5779456, 35.5164256]]]}, "properties": {"osm_id": 1021021180, "building": "house", "name": "", "height": null, "height_m": 3.0, "levels": 1, "tract_id": "40109106601", "tract_name": "1066.01", "tags": {"addr:housenumber": "3417", "addr:street": "Treadwell Drive", "building": "house", "building:levels": "1", "source": "microsoft/BuildingFootprints"}}}, {"type": "Feature", "geometry": {"type": "Polygon", "coordinates": [[[-97.5782117, 35.5162845], [-97.5782128, 35.5164178], [-97.5783579, 35.516417], [-97.5783576, 35.5163916], [-97.5784584, 35.5163911], [-97.5784577, 35.5162984], [-97.5783912, 35.5162988], [-97.5783911, 35.5162788], [-97.5782741, 35.5162794], [-97.5782741, 35.5162842], [-97.5782117, 35.5162845]]]}, "properties": {"osm_id": 1021021181, "building": "house", "name": "", "height": null, "height_m": 3.0, "levels": 1, "tract_id": "40109106601", "tract_name": "1066.01", "tags": {"addr:housenumber": "3421", "addr:street": "Treadwell Drive", "building": "house", "building:levels": "1", "source": "microsoft/BuildingFootprints"}}}, {"type": "Feature", "geometry": {"type": "Polygon", "coordinates": [[[-97.5784878, 35.5162982], [-97.5784878, 35.5163821], [-97.5784831, 35.5163821], [-97.5784831, 35.5164274], [-97.5785686, 35.5164273], [-97.5785686, 35.516387], [-97.5785993, 35.516387], [-97.5785993, 35.5163916], [-97.5786612, 35.5163916], [-97.5786612, 35.5163866], [-97.5787176, 35.5163866], [-97.5787176, 35.5162984], [-97.5786135, 35.5162984], [-97.5786135, 35.5162884], [-97.5785281, 35.5162884], [-97.5785281, 35.5162982], [-97.5784878, 35.5162982]]]}, "properties": {"osm_id": 1021021182, "building": "house", "name": "", "height": null, "height_m": 3.0, "levels": 1, "tract_id": "40109106601", "tract_name": "1066.01", "tags": {"addr:housenumber": "3501", "addr:street": "Treadwell Drive", "building": "house", "building:levels": "1", "source": "microsoft/BuildingFootprints"}}}, {"type": "Feature", "geometry": {"type": "Polygon", "coordinates": [[[-97.5787588, 35.5163117], [-97.5787713, 35.5164377], [-97.5789167, 35.5164282], [-97.5789151, 35.5164123], [-97.5789841, 35.5164078], [-97.5789806, 35.5163723], [-97.5789885, 35.5163718], [-97.5789851, 35.5163375], [-97.57901, 35.5163359], [-97.579003, 35.5162657], [-97.5789157, 35.5162714], [-97.578919, 35.5163053], [-97.5789057, 35.5163062], [-97.5789053, 35.516302], [-97.5787588, 35.5163117]]]}, "properties": {"osm_id": 1021021183, "building": "house", "name": "", "height": null, "height_m": 3.0, "levels": 1, "tract_id": "40109106601", "tract_name": "1066.01", "tags": {"addr:housenumber": "3505", "addr:street": "Treadwell Drive", "building": "house", "building:levels": "1", "source": "microsoft/BuildingFootprints"}}}, {"type": "Feature", "geometry": {"type": "Polygon", "coordinates": [[[-97.5790471, 35.516377], [-97.5792135, 35.51636], [-97.5792235, 35.5164246], [-97.5792833, 35.5164185], [-97.5792737, 35.5163561], [-97.5792971, 35.5163537], [-97.5792819, 35.5162551], [-97.5791028, 35.5162734], [-97.5791018, 35.5162672], [-97.5790313, 35.5162744], [-97.5790471, 35.516377]]]}, "properties": {"osm_id": 1021021184, "building": "house", "name": "", "height": null, "height_m": 3.0, "levels": 1, "tract_id": "40109106601", "tract_name": "1066.01", "tags": {"addr:housenumber": "3509", "addr:street": "Treadwell Drive", "building": "house", "building:levels": "1", "source": "microsoft/BuildingFootprints"}}}, {"type": "Feature", "geometry": {"type": "Polygon", "coordinates": [[[-97.5793107, 35.5162479], [-97.5793509, 35.516403], [-97.5794172, 35.5163916], [-97.5793996, 35.5163239], [-97.5795276, 35.516302], [-97.5795194, 35.5162705], [-97.5795608, 35.5162634], [-97.5795435, 35.5161965], [-97.5794703, 35.516209], [-97.5794732, 35.51622], [-97.5793107, 35.5162479]]]}, "properties": {"osm_id": 1021021185, "building": "house", "name": "", "height": null, "height_m": 3.0, "levels": 1, "tract_id": "40109106601", "tract_name": "1066.01", "tags": {"addr:housenumber": "3513", "addr:street": "Treadwell Drive", "building": "house", "building:levels": "1", "source": "microsoft/BuildingFootprints"}}}, {"type": "Feature", "geometry": {"type": "Polygon", "coordinates": [[[-97.5796238, 35.5161709], [-97.5796288, 35.5161875], [-97.579575, 35.5161981], [-97.5796068, 35.5163046], [-97.5797072, 35.5162848], [-97.5797144, 35.5163091], [-97.5798219, 35.5162879], [-97.5798151, 35.5162652], [-97.5798451, 35.5162593], [-97.5798079, 35.5161345], [-97.5796238, 35.5161709]]]}, "properties": {"osm_id": 1021021186, "building": "house", "name": "", "height": null, "height_m": 3.0, "levels": 1, "tract_id": "40109106601", "tract_name": "1066.01", "tags": {"addr:housenumber": "3517", "addr:street": "Treadwell Drive", "building": "house", "building:levels": "1", "source": "microsoft/BuildingFootprints"}}}, {"type": "Feature", "geometry": {"type": "Polygon", "coordinates": [[[-97.5798476, 35.5161361], [-97.5798755, 35.5162884], [-97.579963, 35.5162777], [-97.5799562, 35.5162405], [-97.5800883, 35.5162245], [-97.580065, 35.5160977], [-97.5799839, 35.5161076], [-97.5799861, 35.5161193], [-97.5798476, 35.5161361]]]}, "properties": {"osm_id": 1021021187, "building": "house", "name": "", "height": null, "height_m": 3.0, "levels": 1, "tract_id": "40109106601", "tract_name": "1066.01", "tags": {"addr:housenumber": "3521", "addr:street": "Treadwell Drive", "building": "house", "building:levels": "1", "source": "microsoft/BuildingFootprints"}}}, {"type": "Feature", "geometry": {"type": "Polygon", "coordinates": [[[-97.5803556, 35.5163063], [-97.5803555, 35.5162283], [-97.5803463, 35.5162283], [-97.5803461, 35.5161478], [-97.5803519, 35.5161478], [-97.5803518, 35.5161098], [-97.5803082, 35.5161098], [-97.5803083, 35.5161153], [-97.5801788, 35.5161155], [-97.5801787, 35.5160896], [-97.5801056, 35.5160897], [-97.5801058, 35.5162093], [-97.5802059, 35.5162091], [-97.5802061, 35.5163065], [-97.5803556, 35.5163063]]]}, "properties": {"osm_id": 1021021188, "building": "house", "name": "", "height": null, "height_m": 3.0, "levels": 1, "tract_id": "40109106601", "tract_name": "1066.01", "tags": {"addr:housenumber": "3525", "addr:street": "Treadwell Drive", "building": "house", "building:levels": "1", "source": "microsoft/BuildingFootprints"}}}, {"type": "Feature", "geometry": {"type": "Polygon", "coordinates": [[[-97.5771362, 35.5166582], [-97.5771366, 35.516816], [-97.5773192, 35.5168157], [-97.5773191, 35.5168004], [-97.5773906, 35.5168003], [-97.5773903, 35.5166967], [-97.5773266, 35.5166968], [-97.5773266, 35.5166652], [-97.5772516, 35.5166653], [-97.5772516, 35.516658], [-97.5771362, 35.5166582]]]}, "properties": {"osm_id": 1022126157, "building": "house", "name": "", "height": null, "height_m": 3.0, "levels": 1, "tract_id": "40109106601", "tract_name": "1066.01", "tags": {"addr:housenumber": "3404", "addr:street": "Northwest 44th Street", "building": "house", "building:levels": "1", "source": "microsoft/BuildingFootprints"}}}, {"type": "Feature", "geometry": {"type": "Polygon", "coordinates": [[[-97.5774175, 35.5167766], [-97.5775489, 35.516778], [-97.5775486, 35.5167985], [-97.5776347, 35.5167994], [-97.5776368, 35.5166684], [-97.5775954, 35.5166679], [-97.5775959, 35.5166404], [-97.5775258, 35.5166397], [-97.5775253, 35.5166693], [-97.5774192, 35.5166682], [-97.5774175, 35.5167766]]]}, "properties": {"osm_id": 1022126158, "building": "house", "name": "", "height": null, "height_m": 3.0, "levels": 1, "tract_id": "40109106601", "tract_name": "1066.01", "tags": {"addr:housenumber": "3408", "addr:street": "Northwest 44th Street", "building": "house", "building:levels": "1", "source": "microsoft/BuildingFootprints"}}}, {"type": "Feature", "geometry": {"type": "Polygon", "coordinates": [[[-97.5779261, 35.5166724], [-97.5776711, 35.5166712], [-97.5776703, 35.5167808], [-97.5778352, 35.5167816], [-97.5778351, 35.5168009], [-97.5779252, 35.5168013], [-97.5779261, 35.5166724]]]}, "properties": {"osm_id": 1022126159, "building": "house", "name": "", "height": null, "height_m": 3.0, "levels": 1, "tract_id": "40109106601", "tract_name": "1066.01", "tags": {"addr:housenumber": "3412", "addr:street": "Northwest 44th Street", "building": "house", "building:levels": "1", "source": "microsoft/BuildingFootprints"}}}, {"type": "Feature", "geometry": {"type": "Polygon", "coordinates": [[[-97.578182, 35.516673], [-97.578128, 35.516672], [-97.578129, 35.516626], [-97.578048, 35.516626], [-97.578048, 35.516674], [-97.577954, 35.516673], [-97.577952, 35.516784], [-97.578088, 35.516785], [-97.578087, 35.516805], [-97.57818, 35.516806], [-97.578182, 35.516673]]]}, "properties": {"osm_id": 1022126160, "building": "house", "name": "", "height": null, "height_m": 3.0, "levels": 1, "tract_id": "40109106601", "tract_name": "1066.01", "tags": {"addr:housenumber": "3416", "addr:street": "Northwest 44th Street", "building": "house", "building:levels": "1", "source": "microsoft/BuildingFootprints"}}}, {"type": "Feature", "geometry": {"type": "Polygon", "coordinates": [[[-97.5782124, 35.5167615], [-97.5783816, 35.5167623], [-97.5783813, 35.5167999], [-97.5784574, 35.5168003], [-97.5784584, 35.5166642], [-97.5782131, 35.516663], [-97.5782124, 35.5167615]]]}, "properties": {"osm_id": 1022126161, "building": "house", "name": "", "height": null, "height_m": 3.0, "levels": 1, "tract_id": "40109106601", "tract_name": "1066.01", "tags": {"addr:housenumber": "3420", "addr:street": "Northwest 44th Street", "building": "house", "building:levels": "1", "source": "microsoft/BuildingFootprints"}}}, {"type": "Feature", "geometry": {"type": "Polygon", "coordinates": [[[-97.5784773, 35.5167949], [-97.5785747, 35.5167958], [-97.5785748, 35.5167899], [-97.5787245, 35.5167912], [-97.5787261, 35.5166731], [-97.5785742, 35.5166717], [-97.5785745, 35.5166485], [-97.5784792, 35.5166477], [-97.5784773, 35.5167949]]]}, "properties": {"osm_id": 1022126162, "building": "house", "name": "", "height": null, "height_m": 3.0, "levels": 1, "tract_id": "40109106601", "tract_name": "1066.01", "tags": {"addr:housenumber": "3500", "addr:street": "Northwest 44th Street", "building": "house", "building:levels": "1", "source": "microsoft/BuildingFootprints"}}}, {"type": "Feature", "geometry": {"type": "Polygon", "coordinates": [[[-97.5787594, 35.5167895], [-97.5788982, 35.5167897], [-97.5788982, 35.5168111], [-97.5789882, 35.5168112], [-97.5789885, 35.5166762], [-97.5789534, 35.5166762], [-97.5789534, 35.5166652], [-97.5789299, 35.5166651], [-97.57893, 35.5166377], [-97.5788591, 35.5166377], [-97.578859, 35.5166759], [-97.5787596, 35.5166758], [-97.5787594, 35.5167895]]]}, "properties": {"osm_id": 1022126163, "building": "house", "name": "", "height": null, "height_m": 3.0, "levels": 1, "tract_id": "40109106601", "tract_name": "1066.01", "tags": {"addr:housenumber": "3504", "addr:street": "Northwest 44th Street", "building": "house", "building:levels": "1", "source": "microsoft/BuildingFootprints"}}}, {"type": "Feature", "geometry": {"type": "Polygon", "coordinates": [[[-97.5790147, 35.5168131], [-97.5791387, 35.5168127], [-97.5791384, 35.5167486], [-97.5792724, 35.5167482], [-97.579272, 35.516661], [-97.5791671, 35.5166613], [-97.579167, 35.5166309], [-97.5790891, 35.5166311], [-97.5790892, 35.5166617], [-97.579014, 35.5166619], [-97.5790147, 35.5168131]]]}, "properties": {"osm_id": 1022126164, "building": "house", "name": "", "height": null, "height_m": 3.0, "levels": 1, "tract_id": "40109106601", "tract_name": "1066.01", "tags": {"addr:housenumber": "3508", "addr:street": "Northwest 44th Street", "building": "house", "building:levels": "1", "source": "microsoft/BuildingFootprints"}}}, {"type": "Feature", "geometry": {"type": "Polygon", "coordinates": [[[-97.5795265, 35.5167777], [-97.5795261, 35.5166865], [-97.5794192, 35.5166869], [-97.5794189, 35.5166387], [-97.579284, 35.5166392], [-97.5792847, 35.5167773], [-97.5793285, 35.5167772], [-97.5793285, 35.5167894], [-97.5794226, 35.5167891], [-97.5794226, 35.5167781], [-97.5795265, 35.5167777]]]}, "properties": {"osm_id": 1022126165, "building": "house", "name": "", "height": null, "height_m": 3.0, "levels": 1, "tract_id": "40109106601", "tract_name": "1066.01", "tags": {"addr:housenumber": "3512", "addr:street": "Northwest 44th Street", "building": "house", "building:levels": "1", "source": "microsoft/BuildingFootprints"}}}, {"type": "Feature", "geometry": {"type": "Polygon", "coordinates": [[[-97.5795586, 35.516646], [-97.5795569, 35.5167425], [-97.5796239, 35.5167433], [-97.5796236, 35.51676], [-97.5797351, 35.5167612], [-97.5797354, 35.5167448], [-97.5798005, 35.5167455], [-97.5798024, 35.5166335], [-97.5797312, 35.5166326], [-97.5797319, 35.5165929], [-97.5796522, 35.516592], [-97.5796512, 35.516647], [-97.5795586, 35.516646]]]}, "properties": {"osm_id": 1022126166, "building": "house", "name": "", "height": null, "height_m": 3.0, "levels": 1, "tract_id": "40109106601", "tract_name": "1066.01", "tags": {"addr:housenumber": "3516", "addr:street": "Northwest 44th Street", "building": "house", "building:levels": "1", "source": "microsoft/BuildingFootprints"}}}, {"type": "Feature", "geometry": {"type": "Polygon", "coordinates": [[[-97.5800734, 35.5165485], [-97.5799874, 35.516548], [-97.5799871, 35.5165772], [-97.5798281, 35.5165762], [-97.5798269, 35.5167006], [-97.5799099, 35.5167011], [-97.57991, 35.516698], [-97.580072, 35.516699], [-97.5800734, 35.5165485]]]}, "properties": {"osm_id": 1022126167, "building": "house", "name": "", "height": null, "height_m": 3.0, "levels": 1, "tract_id": "40109106601", "tract_name": "1066.01", "tags": {"addr:housenumber": "3520", "addr:street": "Northwest 44th Street", "building": "house", "building:levels": "1", "roof:levels": "1", "source": "microsoft/BuildingFootprints"}}}, {"type": "Feature", "geometry": {"type": "Polygon", "coordinates": [[[-97.580249, 35.5164642], [-97.5802491, 35.5165391], [-97.5802553, 35.5165391], [-97.5802553, 35.5165761], [-97.5801171, 35.5165761], [-97.5801171, 35.5166861], [-97.580175, 35.5166861], [-97.580175, 35.5166835], [-97.5802531, 35.5166835], [-97.5802531, 35.516687], [-97.580317, 35.516687], [-97.5803169, 35.5165395], [-97.5803448, 35.5165395], [-97.5803448, 35.5164642], [-97.580249, 35.5164642]]]}, "properties": {"osm_id": 1022126168, "building": "house", "name": "", "height": null, "height_m": 3.0, "levels": 1, "tract_id": "40109106601", "tract_name": "1066.01", "tags": {"addr:housenumber": "3524", "addr:street": "Northwest 44th Street", "building": "house", "building:levels": "1", "source": "microsoft/BuildingFootprints"}}}, {"type": "Feature", "geometry": {"type": "Polygon", "coordinates": [[[-97.5771223, 35.5182987], [-97.5771215, 35.5184446], [-97.577252, 35.5184451], [-97.5772519, 35.5184602], [-97.577338, 35.5184606], [-97.5773387, 35.5183369], [-97.5772467, 35.5183365], [-97.5772469, 35.5182992], [-97.5771223, 35.5182987]]]}, "properties": {"osm_id": 1067002557, "building": "house", "name": "", "height": null, "height_m": 3.0, "levels": 1, "tract_id": "40109106601", "tract_name": "1066.01", "tags": {"addr:housenumber": "3404", "addr:street": "Northwest 46th Street", "building": "house", "building:levels": "1", "source": "microsoft/BuildingFootprints"}}}, {"type": "Feature", "geometry": {"type": "Polygon", "coordinates": [[[-97.5773554, 35.518282], [-97.5773568, 35.5184445], [-97.5774871, 35.5184437], [-97.5774872, 35.5184606], [-97.5775724, 35.5184601], [-97.5775712, 35.5183235], [-97.5774819, 35.5183241], [-97.5774816, 35.5182813], [-97.5773554, 35.518282]]]}, "properties": {"osm_id": 1067002558, "building": "house", "name": "", "height": null, "height_m": 3.0, "levels": 1, "tract_id": "40109106601", "tract_name": "1066.01", "tags": {"addr:housenumber": "3408", "addr:street": "Northwest 46th Street", "building": "house", "building:levels": "1", "source": "microsoft/BuildingFootprints"}}}, {"type": "Feature", "geometry": {"type": "Polygon", "coordinates": [[[-97.5775924, 35.5182933], [-97.5775939, 35.5184476], [-97.5777446, 35.5184466], [-97.5777447, 35.518461], [-97.5778225, 35.5184605], [-97.5778216, 35.5183714], [-97.5777119, 35.5183721], [-97.5777111, 35.5182925], [-97.5775924, 35.5182933]]]}, "properties": {"osm_id": 1067002559, "building": "house", "name": "", "height": null, "height_m": 3.0, "levels": 1, "tract_id": "40109106601", "tract_name": "1066.01", "tags": {"addr:housenumber": "3412", "addr:street": "Northwest 46th Street", "building": "house", "building:levels": "1", "source": "microsoft/BuildingFootprints"}}}, {"type": "Feature", "geometry": {"type": "Polygon", "coordinates": [[[-97.5778495, 35.5184582], [-97.578003, 35.5184572], [-97.5780031, 35.518466], [-97.5780923, 35.5184653], [-97.5780905, 35.5182933], [-97.5780271, 35.5182938], [-97.5780274, 35.5183217], [-97.5779822, 35.518322], [-97.577982, 35.5183022], [-97.5778479, 35.5183031], [-97.5778495, 35.5184582]]]}, "properties": {"osm_id": 1067002560, "building": "house", "name": "", "height": null, "height_m": 3.0, "levels": 1, "tract_id": "40109106601", "tract_name": "1066.01", "tags": {"addr:housenumber": "3416", "addr:street": "Northwest 46th Street", "building": "house", "building:levels": "1", "source": "microsoft/BuildingFootprints"}}}, {"type": "Feature", "geometry": {"type": "Polygon", "coordinates": [[[-97.5783645, 35.5184696], [-97.5783631, 35.5183279], [-97.5782295, 35.5183287], [-97.5782293, 35.5183089], [-97.5781242, 35.5183095], [-97.5781256, 35.5184606], [-97.5782182, 35.5184601], [-97.5782181, 35.5184486], [-97.5782768, 35.5184482], [-97.5782771, 35.5184701], [-97.5783645, 35.5184696]]]}, "properties": {"osm_id": 1067002561, "building": "house", "name": "", "height": null, "height_m": 3.0, "levels": 1, "tract_id": "40109106601", "tract_name": "1066.01", "tags": {"addr:housenumber": "3420", "addr:street": "Northwest 46th Street", "building": "house", "building:levels": "1", "source": "microsoft/BuildingFootprints"}}}, {"type": "Feature", "geometry": {"type": "Polygon", "coordinates": [[[-97.578628, 35.5184764], [-97.5786291, 35.5183273], [-97.5785109, 35.5183267], [-97.578511, 35.5183116], [-97.5783862, 35.518311], [-97.578385, 35.5184649], [-97.5785382, 35.5184656], [-97.5785381, 35.518476], [-97.578628, 35.5184764]]]}, "properties": {"osm_id": 1067002562, "building": "house", "name": "", "height": null, "height_m": 3.0, "levels": 1, "tract_id": "40109106601", "tract_name": "1066.01", "tags": {"addr:housenumber": "3500", "addr:street": "Northwest 46th Street", "building": "house", "building:levels": "1", "source": "microsoft/BuildingFootprints"}}}, {"type": "Feature", "geometry": {"type": "Polygon", "coordinates": [[[-97.578668, 35.5184792], [-97.5788028, 35.51848], [-97.5788034, 35.5184075], [-97.5788809, 35.518408], [-97.5788819, 35.5183031], [-97.5787915, 35.5183026], [-97.5787917, 35.5182774], [-97.5787331, 35.5182771], [-97.5787328, 35.5183079], [-97.5786696, 35.5183075], [-97.578668, 35.5184792]]]}, "properties": {"osm_id": 1067002563, "building": "house", "name": "", "height": null, "height_m": 3.0, "levels": 1, "tract_id": "40109106601", "tract_name": "1066.01", "tags": {"addr:housenumber": "3504", "addr:street": "Northwest 46th Street", "building": "house", "building:levels": "1", "source": "microsoft/BuildingFootprints"}}}, {"type": "Feature", "geometry": {"type": "Polygon", "coordinates": [[[-97.5789282, 35.5184717], [-97.5790819, 35.518472], [-97.5790818, 35.5184818], [-97.5791727, 35.5184819], [-97.579173, 35.5183614], [-97.5791159, 35.5183613], [-97.5791159, 35.5183382], [-97.5790591, 35.5183381], [-97.5790591, 35.5183209], [-97.5789286, 35.5183207], [-97.5789282, 35.5184717]]]}, "properties": {"osm_id": 1067002564, "building": "house", "name": "", "height": null, "height_m": 3.0, "levels": 1, "tract_id": "40109106601", "tract_name": "1066.01", "tags": {"addr:housenumber": "3508", "addr:street": "Northwest 46th Street", "building": "house", "building:levels": "1", "source": "microsoft/BuildingFootprints"}}}, {"type": "Feature", "geometry": {"type": "Polygon", "coordinates": [[[-97.5791903, 35.5184843], [-97.5793043, 35.5184864], [-97.579307, 35.5183876], [-97.579401, 35.5183893], [-97.5794039, 35.5182818], [-97.5792601, 35.5182792], [-97.5792592, 35.5183153], [-97.579195, 35.5183141], [-97.5791903, 35.5184843]]]}, "properties": {"osm_id": 1067002565, "building": "house", "name": "", "height": null, "height_m": 3.0, "levels": 1, "tract_id": "40109106601", "tract_name": "1066.01", "tags": {"addr:housenumber": "3512", "addr:street": "Northwest 46th Street", "building": "house", "building:levels": "1", "source": "microsoft/BuildingFootprints"}}}, {"type": "Feature", "geometry": {"type": "Polygon", "coordinates": [[[-97.579184, 35.518057], [-97.579256, 35.518055], [-97.579257, 35.518079], [-97.579316, 35.518078], [-97.579315, 35.518038], [-97.579406, 35.518036], [-97.579401, 35.517897], [-97.579178, 35.517902], [-97.579184, 35.518057]]]}, "properties": {"osm_id": 1067002566, "building": "house", "name": "", "height": null, "height_m": 3.0, "levels": 1, "tract_id": "40109106601", "tract_name": "1066.01", "tags": {"addr:housenumber": "3513", "addr:street": "Northwest 45th Street", "building": "house", "building:levels": "1", "source": "microsoft/BuildingFootprints"}}}, {"type": "Feature", "geometry": {"type": "Polygon", "coordinates": [[[-97.579158, 35.517897], [-97.578941, 35.517897], [-97.578941, 35.5180317], [-97.579048, 35.5180312], [-97.579048, 35.5181], [-97.579158, 35.5181], [-97.579158, 35.517897]]]}, "properties": {"osm_id": 1067002567, "building": "house", "name": "", "height": null, "height_m": 3.0, "levels": 1, "tract_id": "40109106601", "tract_name": "1066.01", "tags": {"addr:housenumber": "3509", "addr:street": "Northwest 45th Street", "building": "house", "building:levels": "1", "source": "microsoft/BuildingFootprints"}}}, {"type": "Feature", "geometry": {"type": "Polygon", "coordinates": [[[-97.578655, 35.5180278], [-97.5788912, 35.5180276], [-97.578891, 35.5179145], [-97.5788026, 35.5179146], [-97.5788027, 35.5179278], [-97.5786548, 35.5179279], [-97.578655, 35.5180278]]]}, "properties": {"osm_id": 1067002568, "building": "house", "name": "", "height": null, "height_m": 3.0, "levels": 1, "tract_id": "40109106601", "tract_name": "1066.01", "tags": {"addr:housenumber": "3505", "addr:street": "Northwest 45th Street", "building": "house", "building:levels": "1", "source": "microsoft/BuildingFootprints"}}}, {"type": "Feature", "geometry": {"type": "Polygon", "coordinates": [[[-97.5786275, 35.5179001], [-97.5783848, 35.517901], [-97.5783856, 35.5180584], [-97.5785096, 35.518058], [-97.5785095, 35.5180435], [-97.5785691, 35.5180432], [-97.578569, 35.5180199], [-97.5786281, 35.5180197], [-97.5786275, 35.5179001]]]}, "properties": {"osm_id": 1067002569, "building": "house", "name": "", "height": null, "height_m": 3.0, "levels": 1, "tract_id": "40109106601", "tract_name": "1066.01", "tags": {"addr:housenumber": "3501", "addr:street": "Northwest 45th Street", "building": "house", "building:levels": "1", "source": "microsoft/BuildingFootprints"}}}, {"type": "Feature", "geometry": {"type": "Polygon", "coordinates": [[[-97.5783009, 35.5180758], [-97.5783012, 35.5180417], [-97.5783564, 35.518042], [-97.5783576, 35.5179035], [-97.5782742, 35.517903], [-97.578274, 35.5179245], [-97.5782077, 35.5179241], [-97.5782079, 35.51791], [-97.578122, 35.5179096], [-97.5781208, 35.5180583], [-97.5782023, 35.5180588], [-97.5782022, 35.5180752], [-97.5783009, 35.5180758]]]}, "properties": {"osm_id": 1067002570, "building": "house", "name": "", "height": null, "height_m": 3.0, "levels": 1, "tract_id": "40109106601", "tract_name": "1066.01", "tags": {"addr:housenumber": "3421", "addr:street": "Northwest 45th Street", "building": "house", "building:levels": "1", "source": "microsoft/BuildingFootprints"}}}, {"type": "Feature", "geometry": {"type": "Polygon", "coordinates": [[[-97.5780899, 35.518019], [-97.5780887, 35.5179043], [-97.577848, 35.517906], [-97.5778497, 35.5180642], [-97.5779768, 35.5180633], [-97.5779766, 35.5180446], [-97.5780375, 35.5180442], [-97.5780372, 35.5180194], [-97.5780899, 35.518019]]]}, "properties": {"osm_id": 1067002571, "building": "house", "name": "", "height": null, "height_m": 3.0, "levels": 1, "tract_id": "40109106601", "tract_name": "1066.01", "tags": {"addr:housenumber": "3417", "addr:street": "Northwest 45th Street", "building": "house", "building:levels": "1", "source": "microsoft/BuildingFootprints"}}}, {"type": "Feature", "geometry": {"type": "Polygon", "coordinates": [[[-97.5776224, 35.5180648], [-97.5778212, 35.5180639], [-97.5778204, 35.5179493], [-97.5777021, 35.5179498], [-97.5777017, 35.5178982], [-97.5776104, 35.5178987], [-97.577611, 35.5179814], [-97.5776218, 35.5179813], [-97.5776224, 35.5180648]]]}, "properties": {"osm_id": 1067002572, "building": "house", "name": "", "height": null, "height_m": 3.0, "levels": 1, "tract_id": "40109106601", "tract_name": "1066.01", "tags": {"addr:housenumber": "3413", "addr:street": "Northwest 45th Street", "building": "house", "building:levels": "1", "source": "microsoft/BuildingFootprints"}}}, {"type": "Feature", "geometry": {"type": "Polygon", "coordinates": [[[-97.5773546, 35.5180615], [-97.5775628, 35.518061], [-97.5775626, 35.5179862], [-97.5775737, 35.5179862], [-97.5775734, 35.5178953], [-97.5774861, 35.5178955], [-97.5774863, 35.5179475], [-97.5773543, 35.5179478], [-97.5773546, 35.5180615]]]}, "properties": {"osm_id": 1067002573, "building": "house", "name": "", "height": null, "height_m": 3.0, "levels": 1, "tract_id": "40109106601", "tract_name": "1066.01", "tags": {"addr:housenumber": "3409", "addr:street": "Northwest 45th Street", "building": "house", "building:levels": "1", "source": "microsoft/BuildingFootprints"}}}, {"type": "Feature", "geometry": {"type": "Polygon", "coordinates": [[[-97.5773361, 35.5180229], [-97.5773349, 35.5178987], [-97.5772486, 35.5178993], [-97.5772488, 35.5179169], [-97.5771192, 35.5179177], [-97.5771206, 35.5180651], [-97.5772505, 35.5180643], [-97.5772501, 35.5180234], [-97.5773361, 35.5180229]]]}, "properties": {"osm_id": 1067002574, "building": "house", "name": "", "height": null, "height_m": 3.0, "levels": 1, "tract_id": "40109106601", "tract_name": "1066.01", "tags": {"addr:housenumber": "3405", "addr:street": "Northwest 45th Street", "building": "house", "building:levels": "1", "source": "microsoft/BuildingFootprints"}}}, {"type": "Feature", "geometry": {"type": "Polygon", "coordinates": [[[-97.577123, 35.517635], [-97.577256, 35.517634], [-97.577255, 35.517564], [-97.57734, 35.517564], [-97.577339, 35.517463], [-97.577121, 35.517465], [-97.577123, 35.517635]]]}, "properties": {"osm_id": 1067002575, "building": "house", "name": "", "height": null, "height_m": 3.0, "levels": 1, "tract_id": "40109106601", "tract_name": "1066.01", "tags": {"addr:housenumber": "3404", "addr:street": "Northwest 45th Street", "building": "house", "building:levels": "1", "source": "microsoft/BuildingFootprints"}}}, {"type": "Feature", "geometry": {"type": "Polygon", "coordinates": [[[-97.5773591, 35.5176159], [-97.5774869, 35.517615], [-97.5774871, 35.5176329], [-97.5775763, 35.5176323], [-97.577575, 35.5175069], [-97.5774847, 35.5175076], [-97.5774843, 35.5174696], [-97.5773576, 35.5174705], [-97.5773591, 35.5176159]]]}, "properties": {"osm_id": 1067002576, "building": "house", "name": "", "height": null, "height_m": 3.0, "levels": 1, "tract_id": "40109106601", "tract_name": "1066.01", "tags": {"addr:housenumber": "3408", "addr:street": "Northwest 45th Street", "building": "house", "building:levels": "1", "source": "microsoft/BuildingFootprints"}}}, {"type": "Feature", "geometry": {"type": "Polygon", "coordinates": [[[-97.5775969, 35.517506], [-97.5775941, 35.5176067], [-97.5777257, 35.5176091], [-97.577725, 35.5176328], [-97.5778085, 35.5176343], [-97.577812, 35.5175098], [-97.5777827, 35.5175092], [-97.5777836, 35.5174745], [-97.5776966, 35.5174729], [-97.5776957, 35.5175079], [-97.5775969, 35.517506]]]}, "properties": {"osm_id": 1067002577, "building": "house", "name": "", "height": null, "height_m": 3.0, "levels": 1, "tract_id": "40109106601", "tract_name": "1066.01", "tags": {"addr:housenumber": "3412", "addr:street": "Northwest 45th Street", "building": "house", "building:levels": "1", "source": "microsoft/BuildingFootprints"}}}, {"type": "Feature", "geometry": {"type": "Polygon", "coordinates": [[[-97.5778528, 35.5176254], [-97.577998, 35.5176261], [-97.577998, 35.517634], [-97.5780877, 35.5176344], [-97.5780886, 35.5175185], [-97.578032, 35.5175182], [-97.5780322, 35.5174948], [-97.5779535, 35.5174944], [-97.5779536, 35.5174743], [-97.577854, 35.5174738], [-97.5778528, 35.5176254]]]}, "properties": {"osm_id": 1067002578, "building": "house", "name": "", "height": null, "height_m": 3.0, "levels": 1, "tract_id": "40109106601", "tract_name": "1066.01", "tags": {"addr:housenumber": "3416", "addr:street": "Northwest 45th Street", "building": "house", "building:levels": "1", "source": "microsoft/BuildingFootprints"}}}, {"type": "Feature", "geometry": {"type": "Polygon", "coordinates": [[[-97.5783549, 35.5176369], [-97.5783562, 35.5174848], [-97.5782265, 35.5174841], [-97.5782266, 35.5174651], [-97.5781217, 35.5174645], [-97.5781203, 35.5176308], [-97.5781865, 35.5176312], [-97.5781866, 35.5176201], [-97.5782628, 35.5176205], [-97.5782626, 35.5176363], [-97.5783549, 35.5176369]]]}, "properties": {"osm_id": 1067002579, "building": "house", "name": "", "height": null, "height_m": 3.0, "levels": 1, "tract_id": "40109106601", "tract_name": "1066.01", "tags": {"addr:housenumber": "3420", "addr:street": "Northwest 45th Street", "building": "house", "building:levels": "1", "source": "microsoft/BuildingFootprints"}}}, {"type": "Feature", "geometry": {"type": "Polygon", "coordinates": [[[-97.5784459, 35.5174677], [-97.5784463, 35.5175073], [-97.5783899, 35.5175077], [-97.578391, 35.5176042], [-97.5785392, 35.517603], [-97.5785395, 35.5176285], [-97.57862, 35.5176278], [-97.5786186, 35.5175049], [-97.5786019, 35.517505], [-97.5786015, 35.5174665], [-97.5784459, 35.5174677]]]}, "properties": {"osm_id": 1067002580, "building": "house", "name": "", "height": null, "height_m": 3.0, "levels": 1, "tract_id": "40109106601", "tract_name": "1066.01", "tags": {"addr:housenumber": "3424", "addr:street": "Northwest 45th Street", "building": "house", "building:levels": "1", "source": "microsoft/BuildingFootprints"}}}, {"type": "Feature", "geometry": {"type": "Polygon", "coordinates": [[[-97.5788953, 35.517519], [-97.5788178, 35.5175185], [-97.5788182, 35.5174799], [-97.5786559, 35.5174788], [-97.5786544, 35.5176301], [-97.5788942, 35.5176316], [-97.5788953, 35.517519]]]}, "properties": {"osm_id": 1067002581, "building": "house", "name": "", "height": null, "height_m": 3.0, "levels": 1, "tract_id": "40109106601", "tract_name": "1066.01", "tags": {"addr:housenumber": "3504", "addr:street": "Northwest 45th Street", "building": "house", "building:levels": "1", "source": "microsoft/BuildingFootprints"}}}, {"type": "Feature", "geometry": {"type": "Polygon", "coordinates": [[[-97.5789203, 35.5175498], [-97.5790754, 35.5175507], [-97.5790746, 35.5176431], [-97.5791716, 35.5176436], [-97.5791734, 35.5174407], [-97.5789212, 35.5174392], [-97.5789203, 35.5175498]]]}, "properties": {"osm_id": 1067002582, "building": "house", "name": "", "height": null, "height_m": 3.0, "levels": 1, "tract_id": "40109106601", "tract_name": "1066.01", "tags": {"addr:housenumber": "3508", "addr:street": "Northwest 45th Street", "building": "house", "building:levels": "1", "source": "microsoft/BuildingFootprints"}}}, {"type": "Feature", "geometry": {"type": "Polygon", "coordinates": [[[-97.5791897, 35.517629], [-97.5794099, 35.5176313], [-97.579413, 35.5174392], [-97.5793203, 35.5174382], [-97.5793195, 35.5174874], [-97.5792759, 35.5174869], [-97.579275, 35.51754], [-97.5791912, 35.5175391], [-97.5791897, 35.517629]]]}, "properties": {"osm_id": 1067002583, "building": "house", "name": "", "height": null, "height_m": 3.0, "levels": 1, "tract_id": "40109106601", "tract_name": "1066.01", "tags": {"addr:housenumber": "3512", "addr:street": "Northwest 45th Street", "building": "house", "building:levels": "1", "source": "microsoft/BuildingFootprints"}}}, {"type": "Feature", "geometry": {"type": "Polygon", "coordinates": [[[-97.5793021, 35.5172745], [-97.5794092, 35.5172752], [-97.5794111, 35.5170795], [-97.5792585, 35.5170786], [-97.5792586, 35.5170673], [-97.5791813, 35.5170668], [-97.5791801, 35.5171889], [-97.5793029, 35.5171897], [-97.5793021, 35.5172745]]]}, "properties": {"osm_id": 1067002584, "building": "house", "name": "", "height": null, "height_m": 3.0, "levels": 1, "tract_id": "40109106601", "tract_name": "1066.01", "tags": {"addr:housenumber": "3513", "addr:street": "Northwest 44th Street", "building": "house", "building:levels": "1", "source": "microsoft/BuildingFootprints"}}}, {"type": "Feature", "geometry": {"type": "Polygon", "coordinates": [[[-97.5791615, 35.5170794], [-97.5790111, 35.5170803], [-97.5790113, 35.5170974], [-97.5789216, 35.5170979], [-97.5789223, 35.5171841], [-97.579089, 35.5171832], [-97.579089, 35.5171928], [-97.5791497, 35.5171925], [-97.5791496, 35.5171848], [-97.5791624, 35.5171848], [-97.5791615, 35.5170794]]]}, "properties": {"osm_id": 1067002585, "building": "house", "name": "", "height": null, "height_m": 3.0, "levels": 1, "tract_id": "40109106601", "tract_name": "1066.01", "tags": {"addr:housenumber": "3509", "addr:street": "Northwest 44th Street", "building": "house", "building:levels": "1", "source": "microsoft/BuildingFootprints"}}}, {"type": "Feature", "geometry": {"type": "Polygon", "coordinates": [[[-97.5786558, 35.5170806], [-97.5786578, 35.5172265], [-97.5787397, 35.5172257], [-97.5787391, 35.5171831], [-97.5788799, 35.5171818], [-97.5788785, 35.5170851], [-97.5787496, 35.5170864], [-97.5787495, 35.5170797], [-97.5786558, 35.5170806]]]}, "properties": {"osm_id": 1067002586, "building": "house", "name": "", "height": null, "height_m": 3.0, "levels": 1, "tract_id": "40109106601", "tract_name": "1066.01", "tags": {"addr:housenumber": "3505", "addr:street": "Northwest 44th Street", "building": "house", "building:levels": "1", "source": "microsoft/BuildingFootprints"}}}, {"type": "Feature", "geometry": {"type": "Polygon", "coordinates": [[[-97.5786188, 35.5170771], [-97.5785341, 35.5170761], [-97.5785337, 35.5170978], [-97.578396, 35.517096], [-97.5783939, 35.5172071], [-97.5784946, 35.5172083], [-97.5784938, 35.5172471], [-97.578561, 35.517248], [-97.5785617, 35.5172068], [-97.5786164, 35.5172075], [-97.5786188, 35.5170771]]]}, "properties": {"osm_id": 1067002587, "building": "house", "name": "", "height": null, "height_m": 3.0, "levels": 1, "tract_id": "40109106601", "tract_name": "1066.01", "tags": {"addr:housenumber": "3501", "addr:street": "Northwest 44th Street", "building": "house", "building:levels": "1", "source": "microsoft/BuildingFootprints"}}}, {"type": "Feature", "geometry": {"type": "Polygon", "coordinates": [[[-97.5781198, 35.517224], [-97.5782995, 35.5172236], [-97.5782993, 35.5171744], [-97.5783509, 35.5171743], [-97.5783506, 35.5170896], [-97.5782475, 35.5170899], [-97.5782474, 35.5170752], [-97.5781665, 35.5170754], [-97.5781666, 35.5170875], [-97.5781192, 35.5170876], [-97.5781198, 35.517224]]]}, "properties": {"osm_id": 1067002588, "building": "house", "name": "", "height": null, "height_m": 3.0, "levels": 1, "tract_id": "40109106601", "tract_name": "1066.01", "tags": {"addr:housenumber": "3421", "addr:street": "Northwest 44th Street", "building": "house", "building:levels": "1", "source": "microsoft/BuildingFootprints"}}}, {"type": "Feature", "geometry": {"type": "Polygon", "coordinates": [[[-97.57785, 35.517233], [-97.577929, 35.517232], [-97.577929, 35.517191], [-97.57809, 35.51719], [-97.578088, 35.517074], [-97.577997, 35.517075], [-97.577997, 35.517097], [-97.577848, 35.517098], [-97.57785, 35.517233]]]}, "properties": {"osm_id": 1067002589, "building": "house", "name": "", "height": null, "height_m": 3.0, "levels": 1, "tract_id": "40109106601", "tract_name": "1066.01", "tags": {"addr:housenumber": "3417", "addr:street": "Northwest 44th Street", "building": "house", "building:levels": "1", "source": "microsoft/BuildingFootprints"}}}, {"type": "Feature", "geometry": {"type": "Polygon", "coordinates": [[[-97.577594, 35.517213], [-97.57782, 35.517215], [-97.577821, 35.517081], [-97.577738, 35.51708], [-97.577738, 35.517124], [-97.577595, 35.517122], [-97.577594, 35.517213]]]}, "properties": {"osm_id": 1067002590, "building": "house", "name": "", "height": null, "height_m": 3.0, "levels": 1, "tract_id": "40109106601", "tract_name": "1066.01", "tags": {"addr:housenumber": "3413", "addr:street": "Northwest 44th Street", "building": "house", "building:levels": "1", "source": "microsoft/BuildingFootprints"}}}, {"type": "Feature", "geometry": {"type": "Polygon", "coordinates": [[[-97.577356, 35.5171042], [-97.5773569, 35.5171999], [-97.57747, 35.5171992], [-97.5774703, 35.5172278], [-97.5775687, 35.5172272], [-97.5775673, 35.5170786], [-97.5774881, 35.5170791], [-97.5774884, 35.5171033], [-97.577356, 35.5171042]]]}, "properties": {"osm_id": 1067002591, "building": "house", "name": "", "height": null, "height_m": 3.0, "levels": 1, "tract_id": "40109106601", "tract_name": "1066.01", "tags": {"addr:housenumber": "3409", "addr:street": "Northwest 44th Street", "building": "house", "building:levels": "1", "source": "microsoft/BuildingFootprints"}}}, {"type": "Feature", "geometry": {"type": "Polygon", "coordinates": [[[-97.577249, 35.517078], [-97.577248, 35.517104], [-97.577125, 35.517102], [-97.577122, 35.5172], [-97.577334, 35.517204], [-97.577337, 35.517079], [-97.577249, 35.517078]]]}, "properties": {"osm_id": 1067002592, "building": "house", "name": "", "height": null, "height_m": 3.0, "levels": 1, "tract_id": "40109106601", "tract_name": "1066.01", "tags": {"addr:housenumber": "3405", "addr:street": "Northwest 44th Street", "building": "house", "building:levels": "1", "source": "microsoft/BuildingFootprints"}}}, {"type": "Feature", "geometry": {"type": "Polygon", "coordinates": [[[-97.5816944, 35.5218706], [-97.5816931, 35.5217393], [-97.5818394, 35.5217384], [-97.5818407, 35.5218704], [-97.5818115, 35.5218705], [-97.5818117, 35.5218949], [-97.5817486, 35.5218953], [-97.5817484, 35.5218702], [-97.5816944, 35.5218706]]]}, "properties": {"osm_id": 1213947544, "building": "commercial", "name": "", "height": null, "height_m": null, "levels": null, "tract_id": "40109106601", "tract_name": "1066.01", "tags": {"addr:city": "Oklahoma City", "addr:postcode": "73112", "addr:state": "OK", "addr:street": "Northwest 50th Street", "building": "commercial"}}}, {"type": "Feature", "geometry": {"type": "Polygon", "coordinates": [[[-97.5815024, 35.5219214], [-97.5815033, 35.5217752], [-97.5816313, 35.5217757], [-97.5816305, 35.5219219], [-97.5815024, 35.5219214]]]}, "properties": {"osm_id": 1213947545, "building": "yes", "name": "Imagine Yourself Salon", "height": null, "height_m": null, "levels": null, "tract_id": "40109106601", "tract_name": "1066.01", "tags": {"addr:city": "Oklahoma City", "addr:postcode": "73112", "addr:state": "OK", "addr:street": "Northwest 50th Street", "building": "yes", "name": "Imagine Yourself Salon", "phone": "+1 405 946 4242", "shop": "beauty"}}}, {"type": "Feature", "geometry": {"type": "Polygon", "coordinates": [[[-97.5812829, 35.5219381], [-97.5812815, 35.5217962], [-97.5813667, 35.5217957], [-97.581368, 35.5219376], [-97.5812829, 35.5219381]]]}, "properties": {"osm_id": 1213947546, "building": "commercial", "name": "", "height": null, "height_m": null, "levels": null, "tract_id": "40109106601", "tract_name": "1066.01", "tags": {"building": "commercial"}}}, {"type": "Feature", "geometry": {"type": "Polygon", "coordinates": [[[-97.5815024, 35.5219214], [-97.5815028, 35.5219381], [-97.5814118, 35.521938], [-97.581412, 35.521799], [-97.5814009, 35.5217804], [-97.5814011, 35.5216421], [-97.5812712, 35.521642], [-97.5812714, 35.5214834], [-97.5815033, 35.5214836], [-97.5815033, 35.5217752], [-97.5815024, 35.5219214]]]}, "properties": {"osm_id": 1213947547, "building": "commercial", "name": "", "height": null, "height_m": null, "levels": null, "tract_id": "40109106601", "tract_name": "1066.01", "tags": {"building": "commercial"}}}, {"type": "Feature", "geometry": {"type": "Polygon", "coordinates": [[[-97.5663444, 35.5208306], [-97.5663451, 35.5204902], [-97.5668154, 35.5204921], [-97.5668134, 35.5208315], [-97.5663444, 35.5208306]]]}, "properties": {"osm_id": 1236737568, "building": "retail", "name": "", "height": null, "height_m": null, "levels": null, "tract_id": "40109106601", "tract_name": "1066.01", "tags": {"building": "retail"}}}, {"type": "Feature", "geometry": {"type": "Polygon", "coordinates": [[[-97.5829315, 35.5144377], [-97.5830109, 35.5144405], [-97.5830091, 35.5144741], [-97.5830841, 35.5144767], [-97.5830875, 35.5144113], [-97.5831822, 35.5144146], [-97.5831872, 35.51432], [-97.5830935, 35.5143167], [-97.5830965, 35.5142601], [-97.5829118, 35.5142536], [-97.5829073, 35.5143386], [-97.5829367, 35.5143396], [-97.5829315, 35.5144377]]]}, "properties": {"osm_id": 1251295416, "building": "yes", "name": "", "height": null, "height_m": null, "levels": null, "tract_id": "40109106601", "tract_name": "1066.01", "tags": {"building": "yes", "source": "microsoft/BuildingFootprints"}}}, {"type": "Feature", "geometry": {"type": "Polygon", "coordinates": [[[-97.5827418, 35.514405], [-97.5827403, 35.5144704], [-97.5828181, 35.5144716], [-97.5828188, 35.5144367], [-97.5828939, 35.5144378], [-97.582898, 35.5142545], [-97.5827425, 35.5142521], [-97.5827411, 35.5143154], [-97.5826446, 35.514314], [-97.5826426, 35.5144035], [-97.5827418, 35.514405]]]}, "properties": {"osm_id": 1251295417, "building": "yes", "name": "", "height": null, "height_m": null, "levels": null, "tract_id": "40109106601", "tract_name": "1066.01", "tags": {"building": "yes", "source": "microsoft/BuildingFootprints"}}}, {"type": "Feature", "geometry": {"type": "Polygon", "coordinates": [[[-97.5827531, 35.5147048], [-97.5828255, 35.5147034], [-97.5828247, 35.514675], [-97.5829051, 35.5146735], [-97.582901, 35.5145295], [-97.5828259, 35.5145309], [-97.5828251, 35.5145004], [-97.5827929, 35.514501], [-97.5827939, 35.5145359], [-97.5827483, 35.5145368], [-97.5827531, 35.5147048]]]}, "properties": {"osm_id": 1251295418, "building": "yes", "name": "", "height": null, "height_m": null, "levels": null, "tract_id": "40109106601", "tract_name": "1066.01", "tags": {"building": "yes", "source": "microsoft/BuildingFootprints"}}}, {"type": "Feature", "geometry": {"type": "Polygon", "coordinates": [[[-97.5830866, 35.5144952], [-97.5830106, 35.5144938], [-97.5830096, 35.5145296], [-97.5829328, 35.5145282], [-97.5829286, 35.5146734], [-97.5830037, 35.5146749], [-97.5830028, 35.5147076], [-97.5830795, 35.5147091], [-97.5830813, 35.5146458], [-97.5831788, 35.5146476], [-97.5831813, 35.5145625], [-97.5830848, 35.5145607], [-97.5830866, 35.5144952]]]}, "properties": {"osm_id": 1251295419, "building": "yes", "name": "", "height": null, "height_m": null, "levels": null, "tract_id": "40109106601", "tract_name": "1066.01", "tags": {"building": "yes", "source": "microsoft/BuildingFootprints"}}}, {"type": "Feature", "geometry": {"type": "Polygon", "coordinates": [[[-97.5829666, 35.5147393], [-97.5829646, 35.5149598], [-97.5831764, 35.514961], [-97.5831775, 35.514851], [-97.5831748, 35.5148509], [-97.5831758, 35.5147405], [-97.5829666, 35.5147393]]]}, "properties": {"osm_id": 1251295420, "building": "yes", "name": "", "height": null, "height_m": null, "levels": null, "tract_id": "40109106601", "tract_name": "1066.01", "tags": {"building": "yes", "source": "microsoft/BuildingFootprints"}}}, {"type": "Feature", "geometry": {"type": "Polygon", "coordinates": [[[-97.5828954, 35.5148098], [-97.5828069, 35.5148104], [-97.5828059, 35.5147253], [-97.5826423, 35.5147265], [-97.5826447, 35.5149339], [-97.582761, 35.514933], [-97.5827612, 35.5149527], [-97.582897, 35.5149517], [-97.5828954, 35.5148098]]]}, "properties": {"osm_id": 1251295421, "building": "yes", "name": "", "height": null, "height_m": null, "levels": null, "tract_id": "40109106601", "tract_name": "1066.01", "tags": {"building": "yes", "source": "microsoft/BuildingFootprints"}}}, {"type": "Feature", "geometry": {"type": "Polygon", "coordinates": [[[-97.5674496, 35.521368], [-97.5673326, 35.5214673], [-97.5673347, 35.5215432], [-97.5673929, 35.5215421], [-97.5674524, 35.5215886], [-97.5674993, 35.5215488], [-97.5675204, 35.5215653], [-97.5675221, 35.5216226], [-97.5674497, 35.521624], [-97.5674517, 35.5216938], [-97.5675999, 35.521691], [-97.5677144, 35.5215939], [-97.5677125, 35.5215274], [-97.567655, 35.5215285], [-97.5674496, 35.521368]]]}, "properties": {"osm_id": 1251296179, "building": "yes", "name": "", "height": null, "height_m": null, "levels": null, "tract_id": "40109106601", "tract_name": "1066.01", "tags": {"building": "yes", "source": "microsoft/BuildingFootprints"}}}, {"type": "Feature", "geometry": {"type": "Polygon", "coordinates": [[[-97.5693384, 35.513786], [-97.5693521, 35.5143425], [-97.5693074, 35.5143432], [-97.5693187, 35.5148037], [-97.5695564, 35.5147998], [-97.5695395, 35.5141116], [-97.5695583, 35.5141113], [-97.5695502, 35.5137825], [-97.5693384, 35.513786]]]}, "properties": {"osm_id": 1251296180, "building": "yes", "name": "", "height": null, "height_m": null, "levels": null, "tract_id": "40109106601", "tract_name": "1066.01", "tags": {"building": "yes", "source": "microsoft/BuildingFootprints"}}}, {"type": "Feature", "geometry": {"type": "Polygon", "coordinates": [[[-97.5689225, 35.5135971], [-97.5697175, 35.5135979], [-97.5697177, 35.5134617], [-97.5695853, 35.5134616], [-97.5695852, 35.5134769], [-97.5689227, 35.5134762], [-97.5689225, 35.5135971]]]}, "properties": {"osm_id": 1251296181, "building": "yes", "name": "", "height": null, "height_m": null, "levels": null, "tract_id": "40109106601", "tract_name": "1066.01", "tags": {"building": "yes", "source": "microsoft/BuildingFootprints"}}}, {"type": "Feature", "geometry": {"type": "Polygon", "coordinates": [[[-97.5689636, 35.5132546], [-97.5689625, 35.5133048], [-97.5690215, 35.5133056], [-97.5690201, 35.5133733], [-97.5697414, 35.5133833], [-97.569744, 35.5132589], [-97.5695858, 35.5132567], [-97.5695857, 35.5132632], [-97.5689636, 35.5132546]]]}, "properties": {"osm_id": 1251296182, "building": "yes", "name": "", "height": null, "height_m": null, "levels": null, "tract_id": "40109106601", "tract_name": "1066.01", "tags": {"building": "yes", "source": "microsoft/BuildingFootprints"}}}, {"type": "Feature", "geometry": {"type": "Polygon", "coordinates": [[[-97.5691895, 35.5131334], [-97.5693451, 35.5131354], [-97.5693475, 35.5130088], [-97.5691919, 35.5130068], [-97.5691895, 35.5131334]]]}, "properties": {"osm_id": 1251296183, "building": "yes", "name": "", "height": null, "height_m": null, "levels": null, "tract_id": "40109106601", "tract_name": "1066.01", "tags": {"building": "yes", "source": "microsoft/BuildingFootprints"}}}, {"type": "Feature", "geometry": {"type": "Polygon", "coordinates": [[[-97.5692002, 35.5128507], [-97.5691964, 35.5129781], [-97.5693492, 35.5129811], [-97.569353, 35.5128538], [-97.5692002, 35.5128507]]]}, "properties": {"osm_id": 1251296184, "building": "yes", "name": "", "height": null, "height_m": null, "levels": null, "tract_id": "40109106601", "tract_name": "1066.01", "tags": {"building": "yes", "source": "microsoft/BuildingFootprints"}}}, {"type": "Feature", "geometry": {"type": "Polygon", "coordinates": [[[-97.569216, 35.512696], [-97.5692173, 35.5128218], [-97.5693713, 35.5128208], [-97.56937, 35.512695], [-97.569216, 35.512696]]]}, "properties": {"osm_id": 1251296185, "building": "yes", "name": "", "height": null, "height_m": null, "levels": null, "tract_id": "40109106601", "tract_name": "1066.01", "tags": {"building": "yes", "source": "microsoft/BuildingFootprints"}}}, {"type": "Feature", "geometry": {"type": "Polygon", "coordinates": [[[-97.5694176, 35.5128317], [-97.5696492, 35.5128369], [-97.5696537, 35.5127061], [-97.5694221, 35.5127008], [-97.5694176, 35.5128317]]]}, "properties": {"osm_id": 1251296186, "building": "yes", "name": "", "height": null, "height_m": null, "levels": null, "tract_id": "40109106601", "tract_name": "1066.01", "tags": {"building": "yes", "source": "microsoft/BuildingFootprints"}}}, {"type": "Feature", "geometry": {"type": "Polygon", "coordinates": [[[-97.5696936, 35.5128294], [-97.5698438, 35.5128309], [-97.5698457, 35.5127021], [-97.5696955, 35.5127006], [-97.5696936, 35.5128294]]]}, "properties": {"osm_id": 1251296187, "building": "yes", "name": "", "height": null, "height_m": null, "levels": null, "tract_id": "40109106601", "tract_name": "1066.01", "tags": {"building": "yes", "source": "microsoft/BuildingFootprints"}}}, {"type": "Feature", "geometry": {"type": "Polygon", "coordinates": [[[-97.5698147, 35.5128586], [-97.569662, 35.5128551], [-97.5696576, 35.5129838], [-97.5698103, 35.5129873], [-97.5698147, 35.5128586]]]}, "properties": {"osm_id": 1251296188, "building": "yes", "name": "", "height": null, "height_m": null, "levels": null, "tract_id": "40109106601", "tract_name": "1066.01", "tags": {"building": "yes", "source": "microsoft/BuildingFootprints"}}}, {"type": "Feature", "geometry": {"type": "Polygon", "coordinates": [[[-97.5696293, 35.5131403], [-97.5697832, 35.5131426], [-97.5697861, 35.5130152], [-97.5696322, 35.5130129], [-97.5696293, 35.5131403]]]}, "properties": {"osm_id": 1251296189, "building": "yes", "name": "", "height": null, "height_m": null, "levels": null, "tract_id": "40109106601", "tract_name": "1066.01", "tags": {"building": "yes", "source": "microsoft/BuildingFootprints"}}}, {"type": "Feature", "geometry": {"type": "Polygon", "coordinates": [[[-97.5689476, 35.5128154], [-97.5691031, 35.5128186], [-97.5691069, 35.512692], [-97.5689514, 35.5126889], [-97.5689476, 35.5128154]]]}, "properties": {"osm_id": 1251296190, "building": "yes", "name": "", "height": null, "height_m": null, "levels": null, "tract_id": "40109106601", "tract_name": "1066.01", "tags": {"building": "yes", "source": "microsoft/BuildingFootprints"}}}, {"type": "Feature", "geometry": {"type": "Polygon", "coordinates": [[[-97.5690947, 35.5128485], [-97.5689311, 35.5128468], [-97.5689291, 35.5129734], [-97.5690927, 35.5129751], [-97.5690947, 35.5128485]]]}, "properties": {"osm_id": 1251296191, "building": "yes", "name": "", "height": null, "height_m": null, "levels": null, "tract_id": "40109106601", "tract_name": "1066.01", "tags": {"building": "yes", "source": "microsoft/BuildingFootprints"}}}, {"type": "Feature", "geometry": {"type": "Polygon", "coordinates": [[[-97.5689232, 35.5131299], [-97.5690787, 35.5131321], [-97.5690815, 35.5130033], [-97.5689259, 35.5130011], [-97.5689232, 35.5131299]]]}, "properties": {"osm_id": 1251296192, "building": "yes", "name": "", "height": null, "height_m": null, "levels": null, "tract_id": "40109106601", "tract_name": "1066.01", "tags": {"building": "yes", "source": "microsoft/BuildingFootprints"}}}, {"type": "Feature", "geometry": {"type": "Polygon", "coordinates": [[[-97.5681519, 35.5126824], [-97.5687328, 35.5126875], [-97.5687346, 35.512547], [-97.5681538, 35.5125418], [-97.5681519, 35.5126824]]]}, "properties": {"osm_id": 1251296193, "building": "yes", "name": "", "height": null, "height_m": null, "levels": null, "tract_id": "40109106601", "tract_name": "1066.01", "tags": {"building": "yes", "source": "microsoft/BuildingFootprints"}}}, {"type": "Feature", "geometry": {"type": "Polygon", "coordinates": [[[-97.5685231, 35.5131777], [-97.5686958, 35.5131781], [-97.5686978, 35.5127052], [-97.568525, 35.5127047], [-97.5685231, 35.5131777]]]}, "properties": {"osm_id": 1251296194, "building": "yes", "name": "", "height": null, "height_m": null, "levels": null, "tract_id": "40109106601", "tract_name": "1066.01", "tags": {"building": "yes", "source": "microsoft/BuildingFootprints"}}}, {"type": "Feature", "geometry": {"type": "Polygon", "coordinates": [[[-97.5686967, 35.5134114], [-97.5686991, 35.5131953], [-97.5685301, 35.5131941], [-97.5685277, 35.5134102], [-97.5686967, 35.5134114]]]}, "properties": {"osm_id": 1251296195, "building": "yes", "name": "", "height": null, "height_m": null, "levels": null, "tract_id": "40109106601", "tract_name": "1066.01", "tags": {"building": "yes", "source": "microsoft/BuildingFootprints"}}}, {"type": "Feature", "geometry": {"type": "Polygon", "coordinates": [[[-97.5687418, 35.5134422], [-97.5684576, 35.513438], [-97.568455, 35.5135537], [-97.5687392, 35.5135579], [-97.5687418, 35.5134422]]]}, "properties": {"osm_id": 1251296196, "building": "yes", "name": "", "height": null, "height_m": null, "levels": null, "tract_id": "40109106601", "tract_name": "1066.01", "tags": {"building": "yes", "source": "microsoft/BuildingFootprints"}}}, {"type": "Feature", "geometry": {"type": "Polygon", "coordinates": [[[-97.5681365, 35.5135538], [-97.5684218, 35.5135556], [-97.5684229, 35.5134407], [-97.5681376, 35.5134389], [-97.5681365, 35.5135538]]]}, "properties": {"osm_id": 1251296197, "building": "yes", "name": "", "height": null, "height_m": null, "levels": null, "tract_id": "40109106601", "tract_name": "1066.01", "tags": {"building": "yes", "source": "microsoft/BuildingFootprints"}}}, {"type": "Feature", "geometry": {"type": "Polygon", "coordinates": [[[-97.5683472, 35.5127073], [-97.568181, 35.5127056], [-97.5681774, 35.5129458], [-97.5683437, 35.5129474], [-97.5683472, 35.5127073]]]}, "properties": {"osm_id": 1251296198, "building": "yes", "name": "", "height": null, "height_m": null, "levels": null, "tract_id": "40109106601", "tract_name": "1066.01", "tags": {"building": "yes", "source": "microsoft/BuildingFootprints"}}}, {"type": "Feature", "geometry": {"type": "Polygon", "coordinates": [[[-97.5681741, 35.5134095], [-97.5683474, 35.5134113], [-97.5683542, 35.5129651], [-97.5681809, 35.5129633], [-97.5681741, 35.5134095]]]}, "properties": {"osm_id": 1251296199, "building": "yes", "name": "", "height": null, "height_m": null, "levels": null, "tract_id": "40109106601", "tract_name": "1066.01", "tags": {"building": "yes", "source": "microsoft/BuildingFootprints"}}}, {"type": "Feature", "geometry": {"type": "Polygon", "coordinates": [[[-97.5659954, 35.517897], [-97.5659966, 35.5179894], [-97.5662076, 35.5179876], [-97.5662064, 35.5178951], [-97.5659954, 35.517897]]]}, "properties": {"osm_id": 1251633809, "building": "yes", "name": "Sheesh Mahal", "height": null, "height_m": null, "levels": null, "tract_id": "40109106601", "tract_name": "1066.01", "tags": {"addr:city": "Oklahoma City", "addr:housenumber": "4621", "addr:postcode": "73112", "addr:state": "OK", "addr:street": "North May Avenue", "amenity": "restaurant", "building": "yes", "contact:facebook": "sheeshmahal4621", "contact:instagram": "sheesh_mahal_okc", "cuisine": "indian", "diet:halal": "yes", "email": "info@sheeshmahalrestaurant.us", "name": "Sheesh Mahal", "opening_hours": "Mo-Sa 11:00-20:40", "phone": "+1 405 778 8469", "website": "https://sheeshmahalrestaurant.us/", "website:menu": "https://sheeshmahalrestaurant.us/all-food-menu/"}}}, {"type": "Feature", "geometry": {"type": "Polygon", "coordinates": [[[-97.5659561, 35.5185411], [-97.5659565, 35.5187103], [-97.5660952, 35.5187101], [-97.5660948, 35.5185409], [-97.5659561, 35.5185411]]]}, "properties": {"osm_id": 1251633810, "building": "yes", "name": "State Farm", "height": null, "height_m": null, "levels": null, "tract_id": "40109106601", "tract_name": "1066.01", "tags": {"addr:city": "Oklahoma City", "addr:housenumber": "4625", "addr:postcode": "73112-6052", "addr:state": "OK", "addr:street": "North May Avenue", "brand": "State Farm", "brand:wikidata": "Q2007336", "building": "yes", "contact:facebook": "https://www.facebook.com/420631277952979", "fax": "+1 405 943 6464", "name": "State Farm", "office": "insurance", "opening_hours": "Mo-Fr 08:30-17:00", "phone": "+1 405 943 8373", "website": "https://www.bobstockton.com/"}}}, {"type": "Feature", "geometry": {"type": "Polygon", "coordinates": [[[-97.5659375, 35.5168552], [-97.5659376, 35.516944], [-97.5660352, 35.5169439], [-97.5660352, 35.5169245], [-97.566104, 35.5169245], [-97.566104, 35.5169362], [-97.5662965, 35.5169359], [-97.5662965, 35.5169563], [-97.5663773, 35.5169562], [-97.5663773, 35.5169345], [-97.5664145, 35.5169345], [-97.5664144, 35.5168547], [-97.5659375, 35.5168552]]]}, "properties": {"osm_id": 1251633811, "building": "yes", "name": "", "height": null, "height_m": null, "levels": null, "tract_id": "40109106601", "tract_name": "1066.01", "tags": {"building": "yes"}}}]}