{"type": "FeatureCollection", "features": [{"type": "Feature", "geometry": {"type": "Polygon", "coordinates": [[[-96.7960537, 36.2249874], [-96.7958893, 36.22499], [-96.7958892, 36.2245832], [-96.7960519, 36.2245883], [-96.7960537, 36.2249874]]]}, "properties": {"osm_id": 82670823, "building": "roof", "name": "Phillips 66", "height": null, "height_m": null, "levels": null, "tract_id": "40117957400", "tract_name": "9574", "tags": {"amenity": "fuel", "brand": "Phillips 66", "building": "roof", "name": "Phillips 66"}}}, {"type": "Feature", "geometry": {"type": "Polygon", "coordinates": [[[-96.7955877, 36.2250182], [-96.7951994, 36.2250223], [-96.7951984, 36.2248916], [-96.7952813, 36.2248907], [-96.7955126, 36.2248883], [-96.7955877, 36.2248875], [-96.7955877, 36.2250182]]]}, "properties": {"osm_id": 82670888, "building": "yes", "name": "McDonald's", "height": null, "height_m": null, "levels": null, "tract_id": "40117957400", "tract_name": "9574", "tags": {"amenity": "fast_food", "brand": "McDonald's", "brand:wikidata": "Q38076", "building": "yes", "cuisine": "burger", "name": "McDonald's", "phone": "+1 918 454 2423", "ref": "10300", "takeaway": "yes", "website": "https://www.mcdonalds.com/us/en-us/location/ok/pawnee/cimarron-tpke--ok-412-travel-plaza/10300.html"}}}, {"type": "Feature", "geometry": {"type": "Polygon", "coordinates": [[[-96.7315481, 36.5040782], [-96.7320781, 36.5040856], [-96.7320788, 36.5043018], [-96.7319022, 36.5043024], [-96.7319011, 36.5043551], [-96.7318163, 36.5043542], [-96.7318126, 36.5042409], [-96.7315535, 36.5042399], [-96.7315481, 36.5040782]]]}, "properties": {"osm_id": 201152937, "building": "yes", "name": "", "height": null, "height_m": null, "levels": null, "tract_id": "40117957400", "tract_name": "9574", "tags": {"building": "yes", "source": "bing"}}}, {"type": "Feature", "geometry": {"type": "Polygon", "coordinates": [[[-96.7312182, 36.5040782], [-96.7314623, 36.504076], [-96.731465, 36.5041946], [-96.7314046, 36.5041955], [-96.7314033, 36.504296], [-96.7312155, 36.504295], [-96.7312182, 36.5040782]]]}, "properties": {"osm_id": 201152941, "building": "yes", "name": "", "height": null, "height_m": null, "levels": null, "tract_id": "40117957400", "tract_name": "9574", "tags": {"building": "yes", "source": "bing"}}}, {"type": "Feature", "geometry": {"type": "Polygon", "coordinates": [[[-96.7309795, 36.5038475], [-96.7307059, 36.5038475], [-96.7307086, 36.5035694], [-96.730788, 36.5035704], [-96.7307891, 36.5036535], [-96.7309822, 36.5036556], [-96.7309795, 36.5038475]]]}, "properties": {"osm_id": 201152944, "building": "yes", "name": "", "height": null, "height_m": null, "levels": null, "tract_id": "40117957400", "tract_name": "9574", "tags": {"building": "yes", "source": "bing"}}}, {"type": "Feature", "geometry": {"type": "Polygon", "coordinates": [[[-96.7305986, 36.5037785], [-96.7304398, 36.503779], [-96.7304392, 36.5036393], [-96.730598, 36.5036389], [-96.7305986, 36.5037785]]]}, "properties": {"osm_id": 201152947, "building": "yes", "name": "", "height": null, "height_m": null, "levels": null, "tract_id": "40117957400", "tract_name": "9574", "tags": {"building": "yes", "source": "bing"}}}, {"type": "Feature", "geometry": {"type": "Polygon", "coordinates": [[[-96.7296813, 36.5038475], [-96.7294962, 36.5038432], [-96.7294962, 36.5036966], [-96.7293809, 36.5036966], [-96.7293809, 36.5036276], [-96.7294989, 36.5036276], [-96.7294952, 36.5035466], [-96.7297741, 36.5035466], [-96.7297698, 36.5037613], [-96.7296813, 36.5038475]]]}, "properties": {"osm_id": 201152948, "building": "yes", "name": "", "height": null, "height_m": null, "levels": null, "tract_id": "40117957400", "tract_name": "9574", "tags": {"building": "yes", "source": "bing"}}}, {"type": "Feature", "geometry": {"type": "Polygon", "coordinates": [[[-96.7297698, 36.5043434], [-96.7296008, 36.5043434], [-96.7296035, 36.504421], [-96.7294265, 36.504421], [-96.7294254, 36.5042624], [-96.7292913, 36.5042603], [-96.7292886, 36.5041115], [-96.7294265, 36.5041149], [-96.7294265, 36.5040739], [-96.7297698, 36.504076], [-96.7297698, 36.5043434]]]}, "properties": {"osm_id": 201152950, "building": "yes", "name": "", "height": null, "height_m": null, "levels": null, "tract_id": "40117957400", "tract_name": "9574", "tags": {"building": "yes", "source": "bing"}}}, {"type": "Feature", "geometry": {"type": "Polygon", "coordinates": [[[-96.7304685, 36.5042603], [-96.730321, 36.5042625], [-96.7303171, 36.5040955], [-96.7304646, 36.5040932], [-96.7304685, 36.5042603]]]}, "properties": {"osm_id": 201152951, "building": "yes", "name": "", "height": null, "height_m": null, "levels": null, "tract_id": "40117957400", "tract_name": "9574", "tags": {"building": "yes", "source": "bing"}}}, {"type": "Feature", "geometry": {"type": "Polygon", "coordinates": [[[-96.7324108, 36.5043202], [-96.7324164, 36.5040751], [-96.7324868, 36.5040761], [-96.7324812, 36.5043213], [-96.7324108, 36.5043202]]]}, "properties": {"osm_id": 201152952, "building": "yes", "name": "", "height": null, "height_m": null, "levels": null, "tract_id": "40117957400", "tract_name": "9574", "tags": {"building": "yes", "source": "bing"}}}, {"type": "Feature", "geometry": {"type": "Polygon", "coordinates": [[[-96.7963891, 36.224526], [-96.7963314, 36.2246883], [-96.7962538, 36.2246703], [-96.7963115, 36.224508], [-96.7963891, 36.224526]]]}, "properties": {"osm_id": 617294492, "building": "roof", "name": "Phillips 66", "height": null, "height_m": null, "levels": null, "tract_id": "40117957400", "tract_name": "9574", "tags": {"amenity": "fuel", "brand": "Phillips 66", "building": "roof", "fuel:diesel": "yes", "name": "Phillips 66"}}}, {"type": "Feature", "geometry": {"type": "Polygon", "coordinates": [[[-96.7963006, 36.2251307], [-96.7962224, 36.2251469], [-96.7961715, 36.2249868], [-96.7962496, 36.2249706], [-96.7963006, 36.2251307]]]}, "properties": {"osm_id": 617294493, "building": "roof", "name": "Phillips 66", "height": null, "height_m": null, "levels": null, "tract_id": "40117957400", "tract_name": "9574", "tags": {"amenity": "fuel", "brand": "Phillips 66", "building": "roof", "fuel:diesel": "yes", "name": "Phillips 66"}}}, {"type": "Feature", "geometry": {"type": "Polygon", "coordinates": [[[-96.7955122, 36.2248316], [-96.7955126, 36.2248883], [-96.7952813, 36.2248907], [-96.795281, 36.2248327], [-96.7955122, 36.2248316]]]}, "properties": {"osm_id": 617294498, "building": "yes", "name": "", "height": null, "height_m": null, "levels": null, "tract_id": "40117957400", "tract_name": "9574", "tags": {"access": "yes", "amenity": "toilets", "building": "yes", "changing_table": "yes", "drinking_water": "yes", "fee": "no", "female": "yes", "male": "yes", "toilets:disposal": "flush", "toilets:position": "seated;urinal", "wheelchair": "yes"}}}, {"type": "Feature", "geometry": {"type": "Polygon", "coordinates": [[[-96.795281, 36.2248327], [-96.7952799, 36.2246604], [-96.7955299, 36.2246594], [-96.7955303, 36.224738], [-96.7955729, 36.2247379], [-96.7955734, 36.2248314], [-96.7955122, 36.2248316], [-96.795281, 36.2248327]]]}, "properties": {"osm_id": 617294499, "building": "yes", "name": "Kum & Go", "height": null, "height_m": null, "levels": null, "tract_id": "40117957400", "tract_name": "9574", "tags": {"brand": "Kum & Go", "brand:wikidata": "Q6443340", "building": "yes", "name": "Kum & Go", "shop": "convenience", "website": "https://www.kumandgo.com/store-locator?details=0880", "wheelchair": "yes"}}}, {"type": "Feature", "geometry": {"type": "Polygon", "coordinates": [[[-96.7677699, 36.3925512], [-96.7679308, 36.3923785], [-96.7677109, 36.3922446], [-96.7676572, 36.3923007], [-96.7676948, 36.3923439], [-96.7675982, 36.3924411], [-96.7676358, 36.3924648], [-96.7677699, 36.3925512]]]}, "properties": {"osm_id": 874083272, "building": "house", "name": "", "height": null, "height_m": null, "levels": null, "tract_id": "40117957400", "tract_name": "9574", "tags": {"building": "house"}}}, {"type": "Feature", "geometry": {"type": "Polygon", "coordinates": [[[-96.7320596, 36.5029012], [-96.7320591, 36.5028506], [-96.7319726, 36.5028511], [-96.7319731, 36.5029018], [-96.7320596, 36.5029012]]]}, "properties": {"osm_id": 1065336508, "building": "yes", "name": "", "height": null, "height_m": null, "levels": null, "tract_id": "40117957400", "tract_name": "9574", "tags": {"addr:city": "Ralston", "addr:housenumber": "525", "addr:postcode": "74650", "addr:state": "OK", "addr:street": "Garfield Avenue", "building": "yes"}}}, {"type": "Feature", "geometry": {"type": "Polygon", "coordinates": [[[-96.9803608, 36.4640662], [-96.9802704, 36.4640132], [-96.9803281, 36.4639496], [-96.9804185, 36.4640026], [-96.9803608, 36.4640662]]]}, "properties": {"osm_id": 1080977230, "building": "service", "name": "", "height": null, "height_m": null, "levels": null, "tract_id": "40117957400", "tract_name": "9574", "tags": {"building": "service"}}}, {"type": "Feature", "geometry": {"type": "Polygon", "coordinates": [[[-96.7984307, 36.430239], [-96.7983173, 36.4302365], [-96.7983143, 36.4303265], [-96.7983772, 36.4303279], [-96.7983764, 36.4303509], [-96.7984269, 36.4303519], [-96.7984307, 36.430239]]]}, "properties": {"osm_id": 1311559742, "building": "detached", "name": "", "height": null, "height_m": null, "levels": null, "tract_id": "40117957400", "tract_name": "9574", "tags": {"building": "detached"}}}, {"type": "Feature", "geometry": {"type": "Polygon", "coordinates": [[[-96.7984491, 36.4280704], [-96.7983444, 36.4280389], [-96.7983106, 36.4281116], [-96.7984153, 36.4281431], [-96.7984491, 36.4280704]]]}, "properties": {"osm_id": 1311559744, "building": "detached", "name": "", "height": null, "height_m": null, "levels": null, "tract_id": "40117957400", "tract_name": "9574", "tags": {"building": "detached"}}}]}