{"type": "FeatureCollection", "features": [{"type": "Feature", "geometry": {"type": "Polygon", "coordinates": [[[-94.476116, 35.4379361], [-94.476057, 35.4378384], [-94.4761601, 35.437797], [-94.4760792, 35.4376632], [-94.4762655, 35.4375885], [-94.4762513, 35.4375651], [-94.4763247, 35.4375356], [-94.4764252, 35.437702], [-94.4764085, 35.4377087], [-94.476462, 35.4377973], [-94.476116, 35.4379361]]]}, "properties": {"osm_id": 818641843, "building": "yes", "name": "", "height": null, "height_m": null, "levels": null, "tract_id": "40135030105", "tract_name": "301.05", "tags": {"building": "yes", "layer": "1"}}}, {"type": "Feature", "geometry": {"type": "Polygon", "coordinates": [[[-94.5427091, 35.5870409], [-94.5427002, 35.5868257], [-94.542567, 35.5868293], [-94.5425713, 35.5869345], [-94.5425567, 35.5869349], [-94.5425612, 35.587045], [-94.5427091, 35.5870409]]]}, "properties": {"osm_id": 882143695, "building": "yes", "name": "", "height": null, "height_m": null, "levels": null, "tract_id": "40135030105", "tract_name": "301.05", "tags": {"building": "yes"}}}, {"type": "Feature", "geometry": {"type": "Polygon", "coordinates": [[[-94.539394, 35.5891747], [-94.5393093, 35.5891616], [-94.5393206, 35.5891132], [-94.5394053, 35.5891263], [-94.539394, 35.5891747]]]}, "properties": {"osm_id": 882143697, "building": "yes", "name": "", "height": null, "height_m": null, "levels": null, "tract_id": "40135030105", "tract_name": "301.05", "tags": {"building": "yes"}}}, {"type": "Feature", "geometry": {"type": "Polygon", "coordinates": [[[-94.5412666, 35.589598], [-94.5412807, 35.5895121], [-94.5411988, 35.5895033], [-94.5411848, 35.5895892], [-94.5412666, 35.589598]]]}, "properties": {"osm_id": 882143698, "building": "yes", "name": "", "height": null, "height_m": null, "levels": null, "tract_id": "40135030105", "tract_name": "301.05", "tags": {"building": "yes"}}}, {"type": "Feature", "geometry": {"type": "Polygon", "coordinates": [[[-94.5411817, 35.5898283], [-94.5410288, 35.5898101], [-94.5410476, 35.5897052], [-94.5412006, 35.5897234], [-94.5411817, 35.5898283]]]}, "properties": {"osm_id": 882143699, "building": "yes", "name": "", "height": null, "height_m": null, "levels": null, "tract_id": "40135030105", "tract_name": "301.05", "tags": {"building": "yes"}}}, {"type": "Feature", "geometry": {"type": "Polygon", "coordinates": [[[-94.5410495, 35.5906405], [-94.5408985, 35.5906017], [-94.5409412, 35.5904917], [-94.5410923, 35.5905306], [-94.5410495, 35.5906405]]]}, "properties": {"osm_id": 882143700, "building": "yes", "name": "", "height": null, "height_m": null, "levels": null, "tract_id": "40135030105", "tract_name": "301.05", "tags": {"building": "yes"}}}, {"type": "Feature", "geometry": {"type": "Polygon", "coordinates": [[[-94.5121459, 35.5969671], [-94.5121231, 35.5966901], [-94.5122961, 35.5966814], [-94.5123189, 35.5969562], [-94.5121459, 35.5969671]]]}, "properties": {"osm_id": 882542273, "building": "yes", "name": "", "height": null, "height_m": null, "levels": null, "tract_id": "40135030105", "tract_name": "301.05", "tags": {"building": "yes"}}}, {"type": "Feature", "geometry": {"type": "Polygon", "coordinates": [[[-94.5121888, 35.5964469], [-94.5121727, 35.5962768], [-94.5119997, 35.5962855], [-94.5120158, 35.5964557], [-94.5121888, 35.5964469]]]}, "properties": {"osm_id": 882542274, "building": "hangar", "name": "", "height": null, "height_m": null, "levels": null, "tract_id": "40135030105", "tract_name": "301.05", "tags": {"aeroway": "hangar", "building": "hangar"}}}, {"type": "Feature", "geometry": {"type": "Polygon", "coordinates": [[[-94.5120252, 35.5965556], [-94.5120141, 35.5964781], [-94.5120856, 35.5964713], [-94.5120967, 35.5965488], [-94.5120252, 35.5965556]]]}, "properties": {"osm_id": 882542275, "building": "yes", "name": "", "height": null, "height_m": null, "levels": null, "tract_id": "40135030105", "tract_name": "301.05", "tags": {"building": "yes"}}}, {"type": "Feature", "geometry": {"type": "Polygon", "coordinates": [[[-94.441291, 35.4503961], [-94.4412917, 35.4503515], [-94.4411941, 35.4503505], [-94.4411934, 35.4503952], [-94.441291, 35.4503961]]]}, "properties": {"osm_id": 1083644331, "building": "yes", "name": "", "height": null, "height_m": null, "levels": null, "tract_id": "40135030105", "tract_name": "301.05", "tags": {"building": "yes"}}}, {"type": "Feature", "geometry": {"type": "Polygon", "coordinates": [[[-94.5836495, 35.499656], [-94.5835793, 35.499656], [-94.5835793, 35.4995988], [-94.5836606, 35.4995928], [-94.5836495, 35.499656]]]}, "properties": {"osm_id": 1115746151, "building": "garage", "name": "", "height": null, "height_m": null, "levels": null, "tract_id": "40135030105", "tract_name": "301.05", "tags": {"building": "garage", "capacity": "1"}}}, {"type": "Feature", "geometry": {"type": "Polygon", "coordinates": [[[-94.5839852, 35.4996042], [-94.5837845, 35.4996174], [-94.5837687, 35.4994586], [-94.5839694, 35.4994454], [-94.5839852, 35.4996042]]]}, "properties": {"osm_id": 1119636328, "building": "house", "name": "Whisenhunt", "height": null, "height_m": 3.0, "levels": 1, "tract_id": "40135030105", "tract_name": "301.05", "tags": {"addr:city": "Long", "addr:housenumber": "104513", "addr:state": "OK", "addr:street": "State Highway 64B", "building": "house", "building:levels": "1", "name": "Whisenhunt"}}}, {"type": "Feature", "geometry": {"type": "Polygon", "coordinates": [[[-94.4654965, 35.586073], [-94.4654998, 35.5860239], [-94.4655423, 35.5860258], [-94.465539, 35.5860749], [-94.4654965, 35.586073]]]}, "properties": {"osm_id": 1159004273, "building": "yes", "name": "", "height": null, "height_m": null, "levels": null, "tract_id": "40135030105", "tract_name": "301.05", "tags": {"building": "yes"}}}, {"type": "Feature", "geometry": {"type": "Polygon", "coordinates": [[[-94.465815, 35.5860212], [-94.4657734, 35.5860217], [-94.4657727, 35.5859863], [-94.4658143, 35.5859857], [-94.465815, 35.5860212]]]}, "properties": {"osm_id": 1159004274, "building": "yes", "name": "", "height": null, "height_m": null, "levels": null, "tract_id": "40135030105", "tract_name": "301.05", "tags": {"building": "yes"}}}, {"type": "Feature", "geometry": {"type": "Polygon", "coordinates": [[[-94.4659947, 35.5859857], [-94.4659956, 35.5860234], [-94.4658889, 35.586025], [-94.4658881, 35.5859874], [-94.4659947, 35.5859857]]]}, "properties": {"osm_id": 1159004275, "building": "yes", "name": "", "height": null, "height_m": null, "levels": null, "tract_id": "40135030105", "tract_name": "301.05", "tags": {"building": "yes"}}}, {"type": "Feature", "geometry": {"type": "Polygon", "coordinates": [[[-94.466911, 35.5853849], [-94.4667695, 35.5853952], [-94.4667791, 35.5854821], [-94.4669206, 35.5854717], [-94.466911, 35.5853849]]]}, "properties": {"osm_id": 1159004277, "building": "yes", "name": "", "height": null, "height_m": null, "levels": null, "tract_id": "40135030105", "tract_name": "301.05", "tags": {"building": "yes", "source": "microsoft/BuildingFootprints"}}}, {"type": "Feature", "geometry": {"type": "Polygon", "coordinates": [[[-94.4658916, 35.5861289], [-94.4656553, 35.5861421], [-94.4656619, 35.5862204], [-94.4658982, 35.5862072], [-94.4658916, 35.5861289]]]}, "properties": {"osm_id": 1159004278, "building": "yes", "name": "", "height": null, "height_m": null, "levels": null, "tract_id": "40135030105", "tract_name": "301.05", "tags": {"building": "yes", "source": "microsoft/BuildingFootprints"}}}, {"type": "Feature", "geometry": {"type": "Polygon", "coordinates": [[[-94.4651455, 35.5871055], [-94.4652721, 35.5871331], [-94.4653251, 35.5869723], [-94.4651985, 35.5869447], [-94.4651455, 35.5871055]]]}, "properties": {"osm_id": 1159004279, "building": "yes", "name": "", "height": null, "height_m": null, "levels": null, "tract_id": "40135030105", "tract_name": "301.05", "tags": {"building": "yes", "source": "microsoft/BuildingFootprints"}}}, {"type": "Feature", "geometry": {"type": "Polygon", "coordinates": [[[-94.4672271, 35.5855794], [-94.4672236, 35.5854551], [-94.4670574, 35.5854582], [-94.4670609, 35.5855824], [-94.4672271, 35.5855794]]]}, "properties": {"osm_id": 1159004280, "building": "yes", "name": "", "height": null, "height_m": null, "levels": null, "tract_id": "40135030105", "tract_name": "301.05", "tags": {"building": "yes", "source": "microsoft/BuildingFootprints"}}}, {"type": "Feature", "geometry": {"type": "Polygon", "coordinates": [[[-94.5403826, 35.4773649], [-94.5403838, 35.477301], [-94.5404295, 35.4773017], [-94.5404317, 35.4771903], [-94.5403832, 35.4771896], [-94.5403844, 35.4771309], [-94.5398737, 35.4771243], [-94.5398691, 35.4773608], [-94.5403826, 35.4773649]]]}, "properties": {"osm_id": 1176407472, "building": "school", "name": "", "height": null, "height_m": 3.0, "levels": 1, "tract_id": "40135030105", "tract_name": "301.05", "tags": {"building": "school", "building:levels": "1"}}}, {"type": "Feature", "geometry": {"type": "Polygon", "coordinates": [[[-94.5409776, 35.4775543], [-94.5408438, 35.4775563], [-94.5408362, 35.4772138], [-94.54097, 35.4772118], [-94.5409776, 35.4775543]]]}, "properties": {"osm_id": 1176407473, "building": "school", "name": "", "height": null, "height_m": 3.0, "levels": 1, "tract_id": "40135030105", "tract_name": "301.05", "tags": {"building": "school", "building:levels": "1"}}}, {"type": "Feature", "geometry": {"type": "Polygon", "coordinates": [[[-94.5410372, 35.4770797], [-94.5409054, 35.4770801], [-94.5409053, 35.4770472], [-94.5407974, 35.4770475], [-94.5407975, 35.477086], [-94.5406637, 35.4770864], [-94.5406621, 35.4767462], [-94.5408796, 35.4767455], [-94.5410356, 35.476745], [-94.5410372, 35.4770797]]]}, "properties": {"osm_id": 1176407474, "building": "school", "name": "", "height": null, "height_m": 3.0, "levels": 1, "tract_id": "40135030105", "tract_name": "301.05", "tags": {"building": "school", "building:levels": "1"}}}, {"type": "Feature", "geometry": {"type": "Polygon", "coordinates": [[[-94.5413492, 35.4766201], [-94.5411383, 35.4766214], [-94.5411261, 35.4762531], [-94.5413355, 35.4762433], [-94.5413492, 35.4766201]]]}, "properties": {"osm_id": 1176407475, "building": "school", "name": "", "height": null, "height_m": 3.0, "levels": 1, "tract_id": "40135030105", "tract_name": "301.05", "tags": {"building": "school", "building:levels": "1"}}}, {"type": "Feature", "geometry": {"type": "Polygon", "coordinates": [[[-94.5410214, 35.4763748], [-94.5410292, 35.4761828], [-94.5404528, 35.4761673], [-94.540445, 35.4763592], [-94.5410214, 35.4763748]]]}, "properties": {"osm_id": 1176407476, "building": "school", "name": "", "height": null, "height_m": 3.0, "levels": 1, "tract_id": "40135030105", "tract_name": "301.05", "tags": {"building": "school", "building:levels": "1"}}}, {"type": "Feature", "geometry": {"type": "Polygon", "coordinates": [[[-94.5417158, 35.4769369], [-94.5415967, 35.4769542], [-94.5415621, 35.4767959], [-94.5415122, 35.4768031], [-94.5415025, 35.4767584], [-94.5415446, 35.4767523], [-94.5415346, 35.4767065], [-94.5416557, 35.476689], [-94.541679, 35.476796], [-94.5417006, 35.4767929], [-94.5417101, 35.4768366], [-94.5416944, 35.4768389], [-94.5417158, 35.4769369]]]}, "properties": {"osm_id": 1176407477, "building": "school", "name": "", "height": null, "height_m": 3.0, "levels": 1, "tract_id": "40135030105", "tract_name": "301.05", "tags": {"building": "school", "building:levels": "1"}}}, {"type": "Feature", "geometry": {"type": "Polygon", "coordinates": [[[-94.5412825, 35.4769263], [-94.5412674, 35.4767394], [-94.5411306, 35.4767467], [-94.5411457, 35.4769336], [-94.5412825, 35.4769263]]]}, "properties": {"osm_id": 1176407478, "building": "school", "name": "", "height": null, "height_m": 3.0, "levels": 1, "tract_id": "40135030105", "tract_name": "301.05", "tags": {"building": "school", "building:levels": "1"}}}, {"type": "Feature", "geometry": {"type": "Polygon", "coordinates": [[[-94.541309, 35.4771088], [-94.5412954, 35.4770224], [-94.5411899, 35.4770304], [-94.5412013, 35.4771163], [-94.541309, 35.4771088]]]}, "properties": {"osm_id": 1176407479, "building": "school", "name": "", "height": null, "height_m": 3.0, "levels": 1, "tract_id": "40135030105", "tract_name": "301.05", "tags": {"building": "school", "building:levels": "1"}}}, {"type": "Feature", "geometry": {"type": "Polygon", "coordinates": [[[-94.5411733, 35.477021], [-94.5411126, 35.4770222], [-94.5411043, 35.476945], [-94.541168, 35.4769431], [-94.5411733, 35.477021]]]}, "properties": {"osm_id": 1176407480, "building": "school", "name": "", "height": null, "height_m": 3.0, "levels": 1, "tract_id": "40135030105", "tract_name": "301.05", "tags": {"building": "school", "building:levels": "1"}}}, {"type": "Feature", "geometry": {"type": "Polygon", "coordinates": [[[-94.6009261, 35.4922321], [-94.6009297, 35.4921809], [-94.6009493, 35.4921818], [-94.6009514, 35.4921513], [-94.6008857, 35.4921482], [-94.6008799, 35.49223], [-94.6009261, 35.4922321]]]}, "properties": {"osm_id": 1176440607, "building": "yes", "name": "Dkone Eggrolls", "height": null, "height_m": null, "levels": null, "tract_id": "40135030105", "tract_name": "301.05", "tags": {"amenity": "fast_food", "building": "yes", "cuisine": "asian", "drive_through": "no", "name": "Dkone Eggrolls", "note": "Food truck. Prices on Facebook page are out of date.", "payment:cash": "yes", "phone": "(479) 719-2130", "website": "https://www.facebook.com/DkoneEggrolls/"}}}, {"type": "Feature", "geometry": {"type": "Polygon", "coordinates": [[[-94.6014601, 35.491857], [-94.6014836, 35.4917277], [-94.6012617, 35.4917086], [-94.6012346, 35.4918365], [-94.601305, 35.4918394], [-94.6013014, 35.4918761], [-94.6014006, 35.4918937], [-94.6014096, 35.4918526], [-94.6014601, 35.491857]]]}, "properties": {"osm_id": 1176440608, "building": "house", "name": "", "height": null, "height_m": null, "levels": null, "tract_id": "40135030105", "tract_name": "301.05", "tags": {"building": "house"}}}, {"type": "Feature", "geometry": {"type": "Polygon", "coordinates": [[[-94.6010305, 35.4927952], [-94.601033, 35.4927091], [-94.6009315, 35.4927072], [-94.600932, 35.4926891], [-94.6007468, 35.4926855], [-94.6007413, 35.4928706], [-94.6008031, 35.4928718], [-94.6008028, 35.4928815], [-94.6008925, 35.4928832], [-94.6008928, 35.4928721], [-94.6009184, 35.4928726], [-94.6009207, 35.4927931], [-94.6010305, 35.4927952]]]}, "properties": {"osm_id": 1176440609, "building": "house", "name": "", "height": null, "height_m": null, "levels": null, "tract_id": "40135030105", "tract_name": "301.05", "tags": {"building": "house"}}}, {"type": "Feature", "geometry": {"type": "Polygon", "coordinates": [[[-94.5867573, 35.4786698], [-94.5867732, 35.4784809], [-94.5866802, 35.4784757], [-94.5866811, 35.4784654], [-94.586631, 35.4784626], [-94.58663, 35.478474], [-94.586572, 35.4784708], [-94.5865562, 35.4786586], [-94.5867573, 35.4786698]]]}, "properties": {"osm_id": 1176440610, "building": "yes", "name": "Stone Creek Bend", "height": null, "height_m": null, "levels": null, "tract_id": "40135030105", "tract_name": "301.05", "tags": {"addr:city": "Muldrow", "addr:housenumber": "105758", "addr:postcode": "74948", "addr:state": "OK", "addr:street": "State Hwy 64B", "air_conditioning": "yes", "amenity": "events_venue", "building": "yes", "name": "Stone Creek Bend", "phone": "(479) 629-1473", "website": "https://www.facebook.com/stonecreekbend/"}}}, {"type": "Feature", "geometry": {"type": "Polygon", "coordinates": [[[-94.5421849, 35.4748885], [-94.5421784, 35.4746486], [-94.5421291, 35.4746495], [-94.5421306, 35.474703], [-94.5419116, 35.474707], [-94.5419185, 35.4749574], [-94.5421374, 35.4749535], [-94.5421356, 35.4748894], [-94.5421849, 35.4748885]]]}, "properties": {"osm_id": 1224846844, "building": "yes", "name": "", "height": null, "height_m": null, "levels": null, "tract_id": "40135030105", "tract_name": "301.05", "tags": {"building": "yes"}}}, {"type": "Feature", "geometry": {"type": "Polygon", "coordinates": [[[-94.5418945, 35.4749791], [-94.541887, 35.4748102], [-94.5417886, 35.474813], [-94.541796, 35.4749819], [-94.5418945, 35.4749791]]]}, "properties": {"osm_id": 1224846845, "building": "yes", "name": "", "height": null, "height_m": null, "levels": null, "tract_id": "40135030105", "tract_name": "301.05", "tags": {"building": "yes"}}}, {"type": "Feature", "geometry": {"type": "Polygon", "coordinates": [[[-94.5420304, 35.4746887], [-94.5420315, 35.4746421], [-94.5419465, 35.4746408], [-94.5419454, 35.4746874], [-94.5420304, 35.4746887]]]}, "properties": {"osm_id": 1224846846, "building": "yes", "name": "", "height": null, "height_m": null, "levels": null, "tract_id": "40135030105", "tract_name": "301.05", "tags": {"building": "yes"}}}, {"type": "Feature", "geometry": {"type": "Polygon", "coordinates": [[[-94.5405533, 35.4781315], [-94.5405515, 35.4782387], [-94.5403423, 35.4782364], [-94.5403409, 35.4783211], [-94.5402049, 35.4783197], [-94.5402079, 35.4781278], [-94.5405533, 35.4781315]]]}, "properties": {"osm_id": 1224846847, "building": "yes", "name": "", "height": null, "height_m": null, "levels": null, "tract_id": "40135030105", "tract_name": "301.05", "tags": {"building": "yes"}}}, {"type": "Feature", "geometry": {"type": "Polygon", "coordinates": [[[-94.5389329, 35.4783998], [-94.5387248, 35.4783915], [-94.5387382, 35.478168], [-94.5387859, 35.4781699], [-94.5387901, 35.4781007], [-94.5388886, 35.4781046], [-94.5388849, 35.4781646], [-94.5389468, 35.4781671], [-94.5389329, 35.4783998]]]}, "properties": {"osm_id": 1224846854, "building": "yes", "name": "", "height": null, "height_m": null, "levels": null, "tract_id": "40135030105", "tract_name": "301.05", "tags": {"building": "yes"}}}, {"type": "Feature", "geometry": {"type": "Polygon", "coordinates": [[[-94.5403022, 35.4775039], [-94.5403026, 35.4774135], [-94.5401223, 35.4774131], [-94.540122, 35.4775034], [-94.5403022, 35.4775039]]]}, "properties": {"osm_id": 1224846855, "building": "yes", "name": "", "height": null, "height_m": null, "levels": null, "tract_id": "40135030105", "tract_name": "301.05", "tags": {"building": "yes"}}}, {"type": "Feature", "geometry": {"type": "Polygon", "coordinates": [[[-94.5400819, 35.47755], [-94.5400787, 35.4774393], [-94.53998, 35.4774412], [-94.5399787, 35.4773964], [-94.5398012, 35.4773998], [-94.5398058, 35.4775554], [-94.5400819, 35.47755]]]}, "properties": {"osm_id": 1224846856, "building": "yes", "name": "", "height": null, "height_m": null, "levels": null, "tract_id": "40135030105", "tract_name": "301.05", "tags": {"building": "yes"}}}, {"type": "Feature", "geometry": {"type": "Polygon", "coordinates": [[[-94.5426269, 35.4775662], [-94.5426253, 35.4773992], [-94.5425664, 35.4773996], [-94.5425657, 35.4773292], [-94.5424502, 35.47733], [-94.5424514, 35.4774534], [-94.5424753, 35.4774602], [-94.5424763, 35.4775671], [-94.5426269, 35.4775662]]]}, "properties": {"osm_id": 1224846857, "building": "yes", "name": "", "height": null, "height_m": null, "levels": null, "tract_id": "40135030105", "tract_name": "301.05", "tags": {"building": "yes"}}}, {"type": "Feature", "geometry": {"type": "Polygon", "coordinates": [[[-94.5427917, 35.4776276], [-94.5427906, 35.4775509], [-94.5427162, 35.4775515], [-94.5427172, 35.4776282], [-94.5427917, 35.4776276]]]}, "properties": {"osm_id": 1224846858, "building": "yes", "name": "", "height": null, "height_m": null, "levels": null, "tract_id": "40135030105", "tract_name": "301.05", "tags": {"building": "yes"}}}, {"type": "Feature", "geometry": {"type": "Polygon", "coordinates": [[[-94.5425921, 35.4776446], [-94.5425933, 35.4775757], [-94.542504, 35.4775748], [-94.5425029, 35.4776436], [-94.5425921, 35.4776446]]]}, "properties": {"osm_id": 1224846859, "building": "roof", "name": "", "height": null, "height_m": null, "levels": null, "tract_id": "40135030105", "tract_name": "301.05", "tags": {"building": "roof", "layer": "1"}}}, {"type": "Feature", "geometry": {"type": "Polygon", "coordinates": [[[-94.5441448, 35.4782084], [-94.5441393, 35.4780643], [-94.543803, 35.4780728], [-94.5438085, 35.478217], [-94.5441448, 35.4782084]]]}, "properties": {"osm_id": 1224846860, "building": "yes", "name": "", "height": null, "height_m": null, "levels": null, "tract_id": "40135030105", "tract_name": "301.05", "tags": {"building": "yes"}}}, {"type": "Feature", "geometry": {"type": "Polygon", "coordinates": [[[-94.5229262, 35.4523865], [-94.522919, 35.4522204], [-94.5226705, 35.4522248], [-94.5226776, 35.4523952], [-94.5229262, 35.4523865]]]}, "properties": {"osm_id": 1302949420, "building": "farm_auxiliary", "name": "", "height": null, "height_m": null, "levels": null, "tract_id": "40135030105", "tract_name": "301.05", "tags": {"building": "farm_auxiliary"}}}, {"type": "Feature", "geometry": {"type": "Polygon", "coordinates": [[[-94.5235494, 35.4515285], [-94.5235342, 35.4512481], [-94.5231945, 35.4512605], [-94.5232142, 35.4515387], [-94.5235494, 35.4515285]]]}, "properties": {"osm_id": 1302949421, "building": "farm_auxiliary", "name": "", "height": null, "height_m": null, "levels": null, "tract_id": "40135030105", "tract_name": "301.05", "tags": {"building": "farm_auxiliary"}}}, {"type": "Feature", "geometry": {"type": "Polygon", "coordinates": [[[-94.5238221, 35.4512481], [-94.5238078, 35.4510682], [-94.5240117, 35.4510595], [-94.5240224, 35.4512394], [-94.5238221, 35.4512481]]]}, "properties": {"osm_id": 1302949422, "building": "farm_auxiliary", "name": "", "height": null, "height_m": null, "levels": null, "tract_id": "40135030105", "tract_name": "301.05", "tags": {"building": "farm_auxiliary"}}}, {"type": "Feature", "geometry": {"type": "Polygon", "coordinates": [[[-94.5231944, 35.4656006], [-94.5231012, 35.4655644], [-94.5231533, 35.4654752], [-94.5232465, 35.4655114], [-94.5231944, 35.4656006]]]}, "properties": {"osm_id": 1307144624, "building": "yes", "name": "", "height": null, "height_m": null, "levels": null, "tract_id": "40135030105", "tract_name": "301.05", "tags": {"building": "yes"}}}, {"type": "Feature", "geometry": {"type": "Polygon", "coordinates": [[[-94.538846, 35.434824], [-94.5388419, 35.4347353], [-94.5388869, 35.434734], [-94.5388823, 35.4346337], [-94.5388505, 35.4346347], [-94.5388484, 35.4345881], [-94.539007, 35.4345833], [-94.5390143, 35.4347433], [-94.5390542, 35.4347421], [-94.5390576, 35.4348176], [-94.538846, 35.434824]]]}, "properties": {"osm_id": 1307146680, "building": "detached", "name": "", "height": null, "height_m": null, "levels": null, "tract_id": "40135030105", "tract_name": "301.05", "tags": {"building": "detached"}}}, {"type": "Feature", "geometry": {"type": "Polygon", "coordinates": [[[-94.5395192, 35.435162], [-94.5396723, 35.4351616], [-94.5396725, 35.4352011], [-94.5396984, 35.435201], [-94.5396987, 35.4352745], [-94.5396734, 35.4352745], [-94.5396735, 35.4352946], [-94.5397093, 35.4352945], [-94.5397097, 35.4353989], [-94.5395123, 35.4353994], [-94.539512, 35.4353252], [-94.5395235, 35.4353251], [-94.5395235, 35.4353123], [-94.539493, 35.4353124], [-94.5394929, 35.4352654], [-94.5394776, 35.4352654], [-94.5394774, 35.4352169], [-94.53951, 35.4352168], [-94.5395099, 35.4351891], [-94.5395193, 35.4351891], [-94.5395192, 35.435162]]]}, "properties": {"osm_id": 1307146681, "building": "detached", "name": "", "height": null, "height_m": null, "levels": null, "tract_id": "40135030105", "tract_name": "301.05", "tags": {"building": "detached"}}}, {"type": "Feature", "geometry": {"type": "Polygon", "coordinates": [[[-94.5395521, 35.4359429], [-94.539459, 35.4358658], [-94.5394695, 35.4358574], [-94.5394601, 35.4358496], [-94.5395596, 35.4357699], [-94.5395147, 35.4357328], [-94.5395815, 35.4356793], [-94.5395919, 35.435688], [-94.5396232, 35.4356629], [-94.5396781, 35.4357084], [-94.5396631, 35.4357204], [-94.5397298, 35.4357757], [-94.5396602, 35.4358315], [-94.5396738, 35.4358427], [-94.5396529, 35.4358595], [-94.5396643, 35.435869], [-94.5395949, 35.4359245], [-94.5395851, 35.4359164], [-94.5395521, 35.4359429]]]}, "properties": {"osm_id": 1307146682, "building": "detached", "name": "", "height": null, "height_m": null, "levels": null, "tract_id": "40135030105", "tract_name": "301.05", "tags": {"building": "detached"}}}, {"type": "Feature", "geometry": {"type": "Polygon", "coordinates": [[[-94.5375272, 35.4359472], [-94.5374624, 35.4359492], [-94.5374631, 35.4359648], [-94.5373602, 35.435968], [-94.5373595, 35.4359529], [-94.5373206, 35.4359541], [-94.5373195, 35.4359299], [-94.5372735, 35.4359313], [-94.5372703, 35.4358631], [-94.5373153, 35.4358617], [-94.5373145, 35.4358432], [-94.5373676, 35.4358415], [-94.5373668, 35.4358257], [-94.5374395, 35.4358234], [-94.5374363, 35.4357558], [-94.5375181, 35.4357532], [-94.5375272, 35.4359472]]]}, "properties": {"osm_id": 1307146683, "building": "detached", "name": "", "height": null, "height_m": null, "levels": null, "tract_id": "40135030105", "tract_name": "301.05", "tags": {"building": "detached"}}}, {"type": "Feature", "geometry": {"type": "Polygon", "coordinates": [[[-94.5367864, 35.4348], [-94.5367873, 35.4347363], [-94.5368108, 35.4347366], [-94.5368119, 35.4346637], [-94.5367893, 35.4346635], [-94.5367903, 35.434599], [-94.5367659, 35.4345988], [-94.536766, 35.4345918], [-94.536693, 35.4345911], [-94.5366929, 35.4345979], [-94.5366024, 35.434597], [-94.5366014, 35.4346672], [-94.5365883, 35.4346671], [-94.5365877, 35.4347101], [-94.5365991, 35.4347102], [-94.536599, 35.4347214], [-94.5365648, 35.4347211], [-94.536564, 35.434771], [-94.5365773, 35.4347711], [-94.5365769, 35.434798], [-94.5367864, 35.4348]]]}, "properties": {"osm_id": 1307146684, "building": "detached", "name": "", "height": null, "height_m": null, "levels": null, "tract_id": "40135030105", "tract_name": "301.05", "tags": {"building": "detached"}}}, {"type": "Feature", "geometry": {"type": "Polygon", "coordinates": [[[-94.5398778, 35.4355333], [-94.5398781, 35.4354665], [-94.5398652, 35.4354664], [-94.5398653, 35.4354366], [-94.5399053, 35.4354366], [-94.5399054, 35.4354051], [-94.5399804, 35.4354053], [-94.5399799, 35.4355336], [-94.5398778, 35.4355333]]]}, "properties": {"osm_id": 1307146685, "building": "yes", "name": "", "height": null, "height_m": null, "levels": null, "tract_id": "40135030105", "tract_name": "301.05", "tags": {"building": "yes"}}}, {"type": "Feature", "geometry": {"type": "Polygon", "coordinates": [[[-94.5375549, 35.4353507], [-94.5375546, 35.4352027], [-94.5374494, 35.4352029], [-94.5374494, 35.4351939], [-94.5372851, 35.4351941], [-94.5372854, 35.4353384], [-94.5373243, 35.4353384], [-94.5373243, 35.4353448], [-94.5373736, 35.4353448], [-94.5373735, 35.4353077], [-94.5374281, 35.4353076], [-94.5374282, 35.4353338], [-94.5374976, 35.4353337], [-94.5374977, 35.4353508], [-94.5375549, 35.4353507]]]}, "properties": {"osm_id": 1307146686, "building": "detached", "name": "", "height": null, "height_m": null, "levels": null, "tract_id": "40135030105", "tract_name": "301.05", "tags": {"building": "detached"}}}, {"type": "Feature", "geometry": {"type": "Polygon", "coordinates": [[[-94.5317899, 35.4345791], [-94.5317087, 35.4345769], [-94.5317112, 35.4345172], [-94.5316922, 35.4345167], [-94.5316962, 35.4344226], [-94.5317964, 35.4344254], [-94.5317899, 35.4345791]]]}, "properties": {"osm_id": 1311610170, "building": "detached", "name": "", "height": null, "height_m": null, "levels": null, "tract_id": "40135030105", "tract_name": "301.05", "tags": {"building": "detached"}}}, {"type": "Feature", "geometry": {"type": "Polygon", "coordinates": [[[-94.5316906, 35.4351276], [-94.5315884, 35.4351295], [-94.5315835, 35.4349535], [-94.5316858, 35.4349517], [-94.5316906, 35.4351276]]]}, "properties": {"osm_id": 1311610172, "building": "house", "name": "", "height": null, "height_m": null, "levels": null, "tract_id": "40135030105", "tract_name": "301.05", "tags": {"building": "house"}}}, {"type": "Feature", "geometry": {"type": "Polygon", "coordinates": [[[-94.5308826, 35.4347421], [-94.5307718, 35.4347427], [-94.5307711, 35.4346468], [-94.5307126, 35.4346471], [-94.5307121, 35.4345914], [-94.5307753, 35.434591], [-94.5307749, 35.4345382], [-94.5307908, 35.4345381], [-94.5307906, 35.4345057], [-94.5309002, 35.4345051], [-94.5309008, 35.4345836], [-94.5308813, 35.4345837], [-94.5308826, 35.4347421]]]}, "properties": {"osm_id": 1311610174, "building": "detached", "name": "", "height": null, "height_m": null, "levels": null, "tract_id": "40135030105", "tract_name": "301.05", "tags": {"addr:housenumber": "108979", "building": "detached"}}}, {"type": "Feature", "geometry": {"type": "Polygon", "coordinates": [[[-94.53048, 35.4345652], [-94.5304823, 35.4345008], [-94.5303701, 35.4344982], [-94.5303679, 35.4345627], [-94.53048, 35.4345652]]]}, "properties": {"osm_id": 1311610176, "building": "shed", "name": "", "height": null, "height_m": null, "levels": null, "tract_id": "40135030105", "tract_name": "301.05", "tags": {"building": "shed"}}}, {"type": "Feature", "geometry": {"type": "Polygon", "coordinates": [[[-94.5304496, 35.4350712], [-94.5303191, 35.4350749], [-94.5303257, 35.4352275], [-94.5304562, 35.4352238], [-94.5304496, 35.4350712]]]}, "properties": {"osm_id": 1311610177, "building": "barn", "name": "", "height": null, "height_m": null, "levels": null, "tract_id": "40135030105", "tract_name": "301.05", "tags": {"building": "barn"}}}, {"type": "Feature", "geometry": {"type": "Polygon", "coordinates": [[[-94.5306811, 35.4358344], [-94.5306826, 35.4359209], [-94.5307352, 35.4359203], [-94.530736, 35.4359671], [-94.5308423, 35.4359658], [-94.5308408, 35.4358823], [-94.5309237, 35.4358813], [-94.5309223, 35.435805], [-94.5307546, 35.435807], [-94.5307551, 35.4358336], [-94.5306811, 35.4358344]]]}, "properties": {"osm_id": 1311610179, "building": "house", "name": "", "height": null, "height_m": null, "levels": null, "tract_id": "40135030105", "tract_name": "301.05", "tags": {"building": "house"}}}, {"type": "Feature", "geometry": {"type": "Polygon", "coordinates": [[[-94.5314325, 35.435528], [-94.5314283, 35.4354514], [-94.5316247, 35.4354442], [-94.5316289, 35.4355209], [-94.5314325, 35.435528]]]}, "properties": {"osm_id": 1311610181, "building": "house", "name": "", "height": null, "height_m": null, "levels": null, "tract_id": "40135030105", "tract_name": "301.05", "tags": {"building": "house"}}}, {"type": "Feature", "geometry": {"type": "Polygon", "coordinates": [[[-94.5315078, 35.4364122], [-94.5314988, 35.4363389], [-94.5315459, 35.436335], [-94.5315409, 35.4362945], [-94.5315883, 35.4362907], [-94.5315901, 35.436305], [-94.531609, 35.4363034], [-94.531611, 35.4363201], [-94.5317397, 35.4363096], [-94.5317496, 35.4363908], [-94.5316507, 35.4363989], [-94.531653, 35.4364173], [-94.5315981, 35.4364218], [-94.5315961, 35.436405], [-94.5315078, 35.4364122]]]}, "properties": {"osm_id": 1311610183, "building": "house", "name": "", "height": null, "height_m": null, "levels": null, "tract_id": "40135030105", "tract_name": "301.05", "tags": {"building": "house"}}}, {"type": "Feature", "geometry": {"type": "Polygon", "coordinates": [[[-94.5308235, 35.4366981], [-94.5308105, 35.4365215], [-94.5309056, 35.4365169], [-94.5309085, 35.436556], [-94.5309362, 35.4365547], [-94.530942, 35.4366331], [-94.5309143, 35.4366344], [-94.5309187, 35.4366935], [-94.5308235, 35.4366981]]]}, "properties": {"osm_id": 1311610184, "building": "house", "name": "", "height": null, "height_m": null, "levels": null, "tract_id": "40135030105", "tract_name": "301.05", "tags": {"addr:housenumber": "108845", "building": "house"}}}, {"type": "Feature", "geometry": {"type": "Polygon", "coordinates": [[[-94.5316137, 35.4374419], [-94.531448, 35.4374467], [-94.5314422, 35.4373127], [-94.5315582, 35.4373094], [-94.5315621, 35.4373982], [-94.5316118, 35.4373967], [-94.5316137, 35.4374419]]]}, "properties": {"osm_id": 1311610186, "building": "yes", "name": "", "height": null, "height_m": null, "levels": null, "tract_id": "40135030105", "tract_name": "301.05", "tags": {"building": "yes"}}}, {"type": "Feature", "geometry": {"type": "Polygon", "coordinates": [[[-94.5319655, 35.4375557], [-94.5319657, 35.4374907], [-94.5319309, 35.4374906], [-94.531931, 35.437456], [-94.5319696, 35.437456], [-94.5319698, 35.4373794], [-94.5320823, 35.4373796], [-94.5320818, 35.4375559], [-94.5319655, 35.4375557]]]}, "properties": {"osm_id": 1311610187, "building": "yes", "name": "", "height": null, "height_m": null, "levels": null, "tract_id": "40135030105", "tract_name": "301.05", "tags": {"building": "yes"}}}, {"type": "Feature", "geometry": {"type": "Polygon", "coordinates": [[[-94.5319329, 35.4376574], [-94.5319294, 35.4375997], [-94.5320588, 35.4375945], [-94.5320623, 35.4376522], [-94.5319329, 35.4376574]]]}, "properties": {"osm_id": 1311610190, "building": "yes", "name": "", "height": null, "height_m": null, "levels": null, "tract_id": "40135030105", "tract_name": "301.05", "tags": {"building": "yes"}}}, {"type": "Feature", "geometry": {"type": "Polygon", "coordinates": [[[-94.5306836, 35.4374562], [-94.5306778, 35.4373574], [-94.5307307, 35.4373553], [-94.5307303, 35.4373471], [-94.5308979, 35.4373406], [-94.5308999, 35.437376], [-94.5309239, 35.4373751], [-94.5309261, 35.4374132], [-94.530901, 35.4374142], [-94.5309029, 35.4374477], [-94.5306836, 35.4374562]]]}, "properties": {"osm_id": 1311610192, "building": "detached", "name": "", "height": null, "height_m": null, "levels": null, "tract_id": "40135030105", "tract_name": "301.05", "tags": {"building": "detached"}}}, {"type": "Feature", "geometry": {"type": "Polygon", "coordinates": [[[-94.5307519, 35.4376069], [-94.5307399, 35.4375281], [-94.5308287, 35.4375191], [-94.5308405, 35.4375974], [-94.5308065, 35.4376008], [-94.5308087, 35.4376151], [-94.530786, 35.4376174], [-94.5307839, 35.4376036], [-94.5307519, 35.4376069]]]}, "properties": {"osm_id": 1311610193, "building": "garage", "name": "", "height": null, "height_m": null, "levels": null, "tract_id": "40135030105", "tract_name": "301.05", "tags": {"building": "garage"}}}, {"type": "Feature", "geometry": {"type": "Polygon", "coordinates": [[[-94.5307471, 35.437823], [-94.5307353, 35.4376987], [-94.5307594, 35.4376972], [-94.530758, 35.4376826], [-94.5307997, 35.43768], [-94.5308013, 35.4376972], [-94.530841, 35.4376947], [-94.5308421, 35.4377064], [-94.5308614, 35.4377052], [-94.5308664, 35.437758], [-94.5308483, 35.4377591], [-94.5308537, 35.4378163], [-94.5307471, 35.437823]]]}, "properties": {"osm_id": 1311610194, "building": "detached", "name": "", "height": null, "height_m": null, "levels": null, "tract_id": "40135030105", "tract_name": "301.05", "tags": {"building": "detached"}}}, {"type": "Feature", "geometry": {"type": "Polygon", "coordinates": [[[-94.5303392, 35.4376766], [-94.5302996, 35.4376795], [-94.5303019, 35.4377006], [-94.5302926, 35.4377012], [-94.5302933, 35.4377074], [-94.5303048, 35.4378132], [-94.5303366, 35.4378109], [-94.5303328, 35.4377759], [-94.5303499, 35.4377746], [-94.5303392, 35.4376766]]]}, "properties": {"osm_id": 1311610195, "building": "yes", "name": "", "height": null, "height_m": null, "levels": null, "tract_id": "40135030105", "tract_name": "301.05", "tags": {"building": "yes"}}}, {"type": "Feature", "geometry": {"type": "Polygon", "coordinates": [[[-94.5304413, 35.4378008], [-94.5304392, 35.4377413], [-94.5304991, 35.4377399], [-94.5305012, 35.4377994], [-94.5304413, 35.4378008]]]}, "properties": {"osm_id": 1311610196, "building": "yes", "name": "", "height": null, "height_m": null, "levels": null, "tract_id": "40135030105", "tract_name": "301.05", "tags": {"building": "yes"}}}, {"type": "Feature", "geometry": {"type": "Polygon", "coordinates": [[[-94.528038, 35.437456], [-94.528048, 35.437344], [-94.527943, 35.4373378], [-94.527933, 35.4374498], [-94.528038, 35.437456]]]}, "properties": {"osm_id": 1311610199, "building": "yes", "name": "", "height": null, "height_m": null, "levels": null, "tract_id": "40135030105", "tract_name": "301.05", "tags": {"building": "yes"}}}, {"type": "Feature", "geometry": {"type": "Polygon", "coordinates": [[[-94.5279325, 35.4377509], [-94.5277896, 35.4375926], [-94.5279176, 35.4375159], [-94.5279646, 35.437568], [-94.5279521, 35.4375754], [-94.5279919, 35.4376196], [-94.5280051, 35.4376118], [-94.5280611, 35.4376738], [-94.5279325, 35.4377509]]]}, "properties": {"osm_id": 1311610200, "building": "yes", "name": "", "height": null, "height_m": null, "levels": null, "tract_id": "40135030105", "tract_name": "301.05", "tags": {"building": "yes"}}}, {"type": "Feature", "geometry": {"type": "Polygon", "coordinates": [[[-94.5306186, 35.438741], [-94.5306288, 35.4386252], [-94.5305286, 35.4386194], [-94.5305184, 35.4387351], [-94.5306186, 35.438741]]]}, "properties": {"osm_id": 1311610201, "building": "yes", "name": "", "height": null, "height_m": null, "levels": null, "tract_id": "40135030105", "tract_name": "301.05", "tags": {"building": "yes"}}}, {"type": "Feature", "geometry": {"type": "Polygon", "coordinates": [[[-94.5308544, 35.4390946], [-94.53076, 35.4390946], [-94.53076, 35.4390819], [-94.5306066, 35.4390819], [-94.5306066, 35.4390231], [-94.5306446, 35.4390231], [-94.5306446, 35.4389595], [-94.530637, 35.4389595], [-94.530637, 35.4389251], [-94.5307803, 35.438925], [-94.5307804, 35.4389982], [-94.5307505, 35.4389983], [-94.5307505, 35.4390356], [-94.5307655, 35.4390356], [-94.5307655, 35.4390239], [-94.5308543, 35.4390239], [-94.5308544, 35.4390946]]]}, "properties": {"osm_id": 1311610204, "building": "detached", "name": "", "height": null, "height_m": null, "levels": null, "tract_id": "40135030105", "tract_name": "301.05", "tags": {"building": "detached"}}}, {"type": "Feature", "geometry": {"type": "Polygon", "coordinates": [[[-94.5314571, 35.4392733], [-94.5314518, 35.4389946], [-94.5316275, 35.4389924], [-94.5316328, 35.439271], [-94.5314571, 35.4392733]]]}, "properties": {"osm_id": 1311610205, "building": "yes", "name": "", "height": null, "height_m": null, "levels": null, "tract_id": "40135030105", "tract_name": "301.05", "tags": {"building": "yes"}}}, {"type": "Feature", "geometry": {"type": "Polygon", "coordinates": [[[-94.5314663, 35.4389879], [-94.5314668, 35.4389198], [-94.5316083, 35.4389206], [-94.5316077, 35.4389887], [-94.5314663, 35.4389879]]]}, "properties": {"osm_id": 1311610207, "building": "yes", "name": "", "height": null, "height_m": null, "levels": null, "tract_id": "40135030105", "tract_name": "301.05", "tags": {"building": "yes"}}}, {"type": "Feature", "geometry": {"type": "Polygon", "coordinates": [[[-94.5305485, 35.4392476], [-94.5305495, 35.4391928], [-94.530482, 35.4391919], [-94.530481, 35.4392468], [-94.5305485, 35.4392476]]]}, "properties": {"osm_id": 1311610208, "building": "yes", "name": "", "height": null, "height_m": null, "levels": null, "tract_id": "40135030105", "tract_name": "301.05", "tags": {"building": "yes"}}}, {"type": "Feature", "geometry": {"type": "Polygon", "coordinates": [[[-94.5302733, 35.4395205], [-94.5302596, 35.43941], [-94.5301342, 35.4394204], [-94.5301479, 35.4395308], [-94.5302733, 35.4395205]]]}, "properties": {"osm_id": 1311610209, "building": "yes", "name": "", "height": null, "height_m": null, "levels": null, "tract_id": "40135030105", "tract_name": "301.05", "tags": {"building": "yes"}}}, {"type": "Feature", "geometry": {"type": "Polygon", "coordinates": [[[-94.5304976, 35.4395943], [-94.5304035, 35.4396001], [-94.5304024, 35.439588], [-94.5303642, 35.4395903], [-94.5303589, 35.439533], [-94.530399, 35.4395305], [-94.5303978, 35.4395172], [-94.5304899, 35.4395115], [-94.5304976, 35.4395943]]]}, "properties": {"osm_id": 1311610210, "building": "yes", "name": "", "height": null, "height_m": null, "levels": null, "tract_id": "40135030105", "tract_name": "301.05", "tags": {"building": "yes"}}}, {"type": "Feature", "geometry": {"type": "Polygon", "coordinates": [[[-94.5308041, 35.4398395], [-94.5307099, 35.439842], [-94.530707, 35.4397693], [-94.5306909, 35.4397697], [-94.5306866, 35.4396589], [-94.5308007, 35.4396559], [-94.5308016, 35.4396799], [-94.5308239, 35.4396793], [-94.5308264, 35.4397416], [-94.5308003, 35.4397423], [-94.5308041, 35.4398395]]]}, "properties": {"osm_id": 1311610211, "building": "yes", "name": "", "height": null, "height_m": null, "levels": null, "tract_id": "40135030105", "tract_name": "301.05", "tags": {"building": "yes"}}}, {"type": "Feature", "geometry": {"type": "Polygon", "coordinates": [[[-94.5304094, 35.4401462], [-94.5304038, 35.4400937], [-94.5303234, 35.4400993], [-94.530329, 35.4401518], [-94.5304094, 35.4401462]]]}, "properties": {"osm_id": 1311610214, "building": "yes", "name": "", "height": null, "height_m": null, "levels": null, "tract_id": "40135030105", "tract_name": "301.05", "tags": {"building": "yes"}}}, {"type": "Feature", "geometry": {"type": "Polygon", "coordinates": [[[-94.5308471, 35.4403488], [-94.5307158, 35.4403506], [-94.530714, 35.4402614], [-94.5306987, 35.4402616], [-94.5306989, 35.4402727], [-94.5306783, 35.4402729], [-94.5306781, 35.4402622], [-94.5306472, 35.4402626], [-94.5306462, 35.44021], [-94.5308073, 35.440208], [-94.530807, 35.4401915], [-94.5307379, 35.4401923], [-94.5307368, 35.4401366], [-94.5308238, 35.4401355], [-94.5308252, 35.4402064], [-94.5308443, 35.4402062], [-94.5308471, 35.4403488]]]}, "properties": {"osm_id": 1311610215, "building": "house", "name": "", "height": null, "height_m": null, "levels": null, "tract_id": "40135030105", "tract_name": "301.05", "tags": {"building": "house"}}}, {"type": "Feature", "geometry": {"type": "Polygon", "coordinates": [[[-94.5314431, 35.4370413], [-94.5313832, 35.4368358], [-94.5314416, 35.4368245], [-94.5315014, 35.43703], [-94.5314431, 35.4370413]]]}, "properties": {"osm_id": 1311610218, "building": "static_caravan", "name": "", "height": null, "height_m": null, "levels": null, "tract_id": "40135030105", "tract_name": "301.05", "tags": {"building": "static_caravan"}}}, {"type": "Feature", "geometry": {"type": "Polygon", "coordinates": [[[-94.5487525, 35.434483], [-94.5485721, 35.4344773], [-94.5485675, 35.4345754], [-94.5487479, 35.4345811], [-94.5487525, 35.434483]]]}, "properties": {"osm_id": 1347706145, "building": "detached", "name": "", "height": null, "height_m": null, "levels": null, "tract_id": "40135030105", "tract_name": "301.05", "tags": {"building": "detached"}}}, {"type": "Feature", "geometry": {"type": "Polygon", "coordinates": [[[-94.5322468, 35.4345845], [-94.532245, 35.4345044], [-94.5320376, 35.4345074], [-94.5320394, 35.4345875], [-94.5322468, 35.4345845]]]}, "properties": {"osm_id": 1354495797, "building": "yes", "name": "", "height": null, "height_m": null, "levels": null, "tract_id": "40135030105", "tract_name": "301.05", "tags": {"building": "yes"}}}, {"type": "Feature", "geometry": {"type": "Polygon", "coordinates": [[[-94.5320792, 35.434739], [-94.5320352, 35.434738], [-94.5320371, 35.4346796], [-94.5320812, 35.4346806], [-94.5320792, 35.434739]]]}, "properties": {"osm_id": 1354495798, "building": "yes", "name": "", "height": null, "height_m": null, "levels": null, "tract_id": "40135030105", "tract_name": "301.05", "tags": {"building": "yes"}}}, {"type": "Feature", "geometry": {"type": "Polygon", "coordinates": [[[-94.5329377, 35.4364412], [-94.5328107, 35.4365656], [-94.5327069, 35.4364952], [-94.5327412, 35.4364616], [-94.5327176, 35.4364456], [-94.5328103, 35.4363548], [-94.5329377, 35.4364412]]]}, "properties": {"osm_id": 1354495799, "building": "yes", "name": "", "height": null, "height_m": null, "levels": null, "tract_id": "40135030105", "tract_name": "301.05", "tags": {"building": "yes"}}}, {"type": "Feature", "geometry": {"type": "Polygon", "coordinates": [[[-94.5332415, 35.4353385], [-94.5333586, 35.4353698], [-94.5335159, 35.4350588], [-94.5334006, 35.4350187], [-94.5332415, 35.4353385]]]}, "properties": {"osm_id": 1354495800, "building": "yes", "name": "", "height": null, "height_m": null, "levels": null, "tract_id": "40135030105", "tract_name": "301.05", "tags": {"building": "yes", "damage:event": "fire"}}}, {"type": "Feature", "geometry": {"type": "Polygon", "coordinates": [[[-94.5336336, 35.4357485], [-94.5336723, 35.435624], [-94.533832, 35.4356569], [-94.5337933, 35.4357814], [-94.5336336, 35.4357485]]]}, "properties": {"osm_id": 1354495801, "building": "yes", "name": "", "height": null, "height_m": null, "levels": null, "tract_id": "40135030105", "tract_name": "301.05", "tags": {"building": "yes"}}}, {"type": "Feature", "geometry": {"type": "Polygon", "coordinates": [[[-94.5339112, 35.4355195], [-94.5339987, 35.435401], [-94.5341429, 35.4354717], [-94.5340554, 35.4355902], [-94.5339112, 35.4355195]]]}, "properties": {"osm_id": 1354495802, "building": "yes", "name": "", "height": null, "height_m": null, "levels": null, "tract_id": "40135030105", "tract_name": "301.05", "tags": {"building": "yes"}}}, {"type": "Feature", "geometry": {"type": "Polygon", "coordinates": [[[-94.534152, 35.4353585], [-94.5340798, 35.4353198], [-94.5340708, 35.4353308], [-94.5340142, 35.4353004], [-94.5339717, 35.435353], [-94.5341005, 35.4354222], [-94.534152, 35.4353585]]]}, "properties": {"osm_id": 1354495803, "building": "yes", "name": "", "height": null, "height_m": null, "levels": null, "tract_id": "40135030105", "tract_name": "301.05", "tags": {"building": "yes"}}}, {"type": "Feature", "geometry": {"type": "Polygon", "coordinates": [[[-94.5340241, 35.4350544], [-94.5340562, 35.4350746], [-94.5340487, 35.4350824], [-94.5341276, 35.4351321], [-94.5341855, 35.4350709], [-94.534209, 35.4350857], [-94.5343243, 35.4349639], [-94.5341607, 35.4348611], [-94.5341138, 35.4349107], [-94.5341783, 35.4349513], [-94.5340965, 35.4350376], [-94.5340611, 35.4350154], [-94.5340241, 35.4350544]]]}, "properties": {"osm_id": 1354495804, "building": "detached", "name": "", "height": null, "height_m": null, "levels": null, "tract_id": "40135030105", "tract_name": "301.05", "tags": {"building": "detached"}}}, {"type": "Feature", "geometry": {"type": "Polygon", "coordinates": [[[-94.5403308, 35.4347461], [-94.5403272, 35.4346627], [-94.5405296, 35.4346569], [-94.5405332, 35.4347404], [-94.5403308, 35.4347461]]]}, "properties": {"osm_id": 1354495813, "building": "detached", "name": "", "height": null, "height_m": null, "levels": null, "tract_id": "40135030105", "tract_name": "301.05", "tags": {"building": "detached"}}}, {"type": "Feature", "geometry": {"type": "Polygon", "coordinates": [[[-94.5404085, 35.4355089], [-94.5404083, 35.4354281], [-94.5404668, 35.435428], [-94.5404667, 35.4354014], [-94.5406013, 35.4354011], [-94.5406015, 35.4354828], [-94.5405285, 35.435483], [-94.5405286, 35.4355087], [-94.5404085, 35.4355089]]]}, "properties": {"osm_id": 1354495814, "building": "yes", "name": "", "height": null, "height_m": null, "levels": null, "tract_id": "40135030105", "tract_name": "301.05", "tags": {"building": "yes"}}}, {"type": "Feature", "geometry": {"type": "Polygon", "coordinates": [[[-94.5407119, 35.43556], [-94.5407122, 35.4355171], [-94.5406406, 35.4355168], [-94.5406404, 35.4355479], [-94.5406519, 35.4355479], [-94.5406518, 35.4355652], [-94.5406719, 35.4355652], [-94.5406719, 35.4355598], [-94.5407119, 35.43556]]]}, "properties": {"osm_id": 1354495815, "building": "yes", "name": "", "height": null, "height_m": null, "levels": null, "tract_id": "40135030105", "tract_name": "301.05", "tags": {"building": "yes"}}}, {"type": "Feature", "geometry": {"type": "Polygon", "coordinates": [[[-94.5409309, 35.4355054], [-94.5409066, 35.4353613], [-94.5410514, 35.4353451], [-94.5410755, 35.4354882], [-94.5410314, 35.4354931], [-94.541035, 35.4355142], [-94.5409931, 35.4355189], [-94.5409898, 35.4354989], [-94.5409309, 35.4355054]]]}, "properties": {"osm_id": 1354495816, "building": "yes", "name": "", "height": null, "height_m": null, "levels": null, "tract_id": "40135030105", "tract_name": "301.05", "tags": {"building": "yes"}}}, {"type": "Feature", "geometry": {"type": "Polygon", "coordinates": [[[-94.5419341, 35.4350153], [-94.5418777, 35.4347841], [-94.5420057, 35.4347634], [-94.5420621, 35.4349946], [-94.5419341, 35.4350153]]]}, "properties": {"osm_id": 1354495817, "building": "industrial", "name": "", "height": null, "height_m": null, "levels": null, "tract_id": "40135030105", "tract_name": "301.05", "tags": {"building": "industrial"}}}, {"type": "Feature", "geometry": {"type": "Polygon", "coordinates": [[[-94.5425693, 35.4365762], [-94.5425641, 35.4367467], [-94.5426574, 35.4367486], [-94.5426586, 35.4367096], [-94.5428401, 35.4367132], [-94.5428448, 35.4365583], [-94.5427599, 35.4365566], [-94.5427595, 35.4365694], [-94.5426429, 35.436567], [-94.5426425, 35.4365776], [-94.5425693, 35.4365762]]]}, "properties": {"osm_id": 1354495819, "building": "detached", "name": "", "height": null, "height_m": null, "levels": null, "tract_id": "40135030105", "tract_name": "301.05", "tags": {"building": "detached"}}}, {"type": "Feature", "geometry": {"type": "Polygon", "coordinates": [[[-94.543104, 35.4369412], [-94.5431001, 35.4368315], [-94.5429974, 35.4368339], [-94.5430012, 35.4369436], [-94.543104, 35.4369412]]]}, "properties": {"osm_id": 1354495820, "building": "yes", "name": "", "height": null, "height_m": null, "levels": null, "tract_id": "40135030105", "tract_name": "301.05", "tags": {"building": "yes"}}}, {"type": "Feature", "geometry": {"type": "Polygon", "coordinates": [[[-94.5431934, 35.4369175], [-94.5431904, 35.4368301], [-94.5432927, 35.4368278], [-94.5432957, 35.4369152], [-94.5431934, 35.4369175]]]}, "properties": {"osm_id": 1354495821, "building": "yes", "name": "", "height": null, "height_m": null, "levels": null, "tract_id": "40135030105", "tract_name": "301.05", "tags": {"building": "yes"}}}, {"type": "Feature", "geometry": {"type": "Polygon", "coordinates": [[[-94.5436243, 35.4346078], [-94.5436227, 35.4345359], [-94.5433388, 35.4345401], [-94.5433404, 35.4346093], [-94.5434242, 35.434608], [-94.5434251, 35.4346449], [-94.5434679, 35.4346442], [-94.5434671, 35.4346102], [-94.5436243, 35.4346078]]]}, "properties": {"osm_id": 1354495822, "building": "detached", "name": "", "height": null, "height_m": null, "levels": null, "tract_id": "40135030105", "tract_name": "301.05", "tags": {"building": "detached"}}}, {"type": "Feature", "geometry": {"type": "Polygon", "coordinates": [[[-94.5434136, 35.4348238], [-94.5434115, 35.43476], [-94.5432991, 35.4347625], [-94.5433012, 35.4348263], [-94.5434136, 35.4348238]]]}, "properties": {"osm_id": 1354495823, "building": "garage", "name": "", "height": null, "height_m": null, "levels": null, "tract_id": "40135030105", "tract_name": "301.05", "tags": {"building": "garage"}}}, {"type": "Feature", "geometry": {"type": "Polygon", "coordinates": [[[-94.543403, 35.4346705], [-94.5434422, 35.4346705], [-94.5434423, 35.4346845], [-94.5434735, 35.4346845], [-94.5434735, 35.4347188], [-94.5434475, 35.4347188], [-94.5434475, 35.4347377], [-94.5434032, 35.4347378], [-94.543403, 35.4346705]]]}, "properties": {"osm_id": 1354495824, "building": "yes", "name": "", "height": null, "height_m": null, "levels": null, "tract_id": "40135030105", "tract_name": "301.05", "tags": {"building": "yes"}}}, {"type": "Feature", "geometry": {"type": "Polygon", "coordinates": [[[-94.5439122, 35.4351112], [-94.5439124, 35.4349916], [-94.5439695, 35.4349916], [-94.5439695, 35.4350059], [-94.5441396, 35.435006], [-94.5441395, 35.4351114], [-94.5439122, 35.4351112]]]}, "properties": {"osm_id": 1354495825, "building": "detached", "name": "", "height": null, "height_m": null, "levels": null, "tract_id": "40135030105", "tract_name": "301.05", "tags": {"building": "detached"}}}, {"type": "Feature", "geometry": {"type": "Polygon", "coordinates": [[[-94.5442641, 35.4355159], [-94.5442731, 35.4354115], [-94.5444235, 35.4354202], [-94.5444145, 35.4355245], [-94.5442641, 35.4355159]]]}, "properties": {"osm_id": 1354495826, "building": "yes", "name": "", "height": null, "height_m": null, "levels": null, "tract_id": "40135030105", "tract_name": "301.05", "tags": {"building": "yes"}}}, {"type": "Feature", "geometry": {"type": "Polygon", "coordinates": [[[-94.5446142, 35.4349605], [-94.5445579, 35.4351301], [-94.5447598, 35.4351746], [-94.5448139, 35.4350113], [-94.5447233, 35.4349913], [-94.5447189, 35.4350045], [-94.544679, 35.4349957], [-94.5446885, 35.4349668], [-94.5446343, 35.4349548], [-94.5446311, 35.4349642], [-94.5446142, 35.4349605]]]}, "properties": {"osm_id": 1354495827, "building": "detached", "name": "", "height": null, "height_m": null, "levels": null, "tract_id": "40135030105", "tract_name": "301.05", "tags": {"building": "detached"}}}, {"type": "Feature", "geometry": {"type": "Polygon", "coordinates": [[[-94.5449568, 35.4350404], [-94.54501, 35.4350794], [-94.5450552, 35.4350385], [-94.545002, 35.4349995], [-94.5449568, 35.4350404]]]}, "properties": {"osm_id": 1354495828, "building": "yes", "name": "", "height": null, "height_m": null, "levels": null, "tract_id": "40135030105", "tract_name": "301.05", "tags": {"building": "yes"}}}, {"type": "Feature", "geometry": {"type": "Polygon", "coordinates": [[[-94.54501, 35.4349837], [-94.5450567, 35.4349454], [-94.5451222, 35.4349984], [-94.5450756, 35.4350367], [-94.54501, 35.4349837]]]}, "properties": {"osm_id": 1354495829, "building": "yes", "name": "", "height": null, "height_m": null, "levels": null, "tract_id": "40135030105", "tract_name": "301.05", "tags": {"building": "yes"}}}, {"type": "Feature", "geometry": {"type": "Polygon", "coordinates": [[[-94.5450494, 35.4349398], [-94.5450995, 35.4348983], [-94.5451782, 35.4349613], [-94.5451281, 35.4350029], [-94.5451222, 35.4349984], [-94.5450567, 35.4349454], [-94.5450494, 35.4349398]]]}, "properties": {"osm_id": 1354495830, "building": "yes", "name": "", "height": null, "height_m": null, "levels": null, "tract_id": "40135030105", "tract_name": "301.05", "tags": {"building": "yes"}}}, {"type": "Feature", "geometry": {"type": "Polygon", "coordinates": [[[-94.545027, 35.4352206], [-94.5449748, 35.4351515], [-94.5450422, 35.4351177], [-94.5450944, 35.4351868], [-94.545027, 35.4352206]]]}, "properties": {"osm_id": 1354495831, "building": "yes", "name": "", "height": null, "height_m": null, "levels": null, "tract_id": "40135030105", "tract_name": "301.05", "tags": {"building": "yes"}}}, {"type": "Feature", "geometry": {"type": "Polygon", "coordinates": [[[-94.5450527, 35.4351184], [-94.5450229, 35.4350948], [-94.5450803, 35.4350468], [-94.5451101, 35.4350704], [-94.5450527, 35.4351184]]]}, "properties": {"osm_id": 1354495832, "building": "yes", "name": "", "height": null, "height_m": null, "levels": null, "tract_id": "40135030105", "tract_name": "301.05", "tags": {"building": "yes"}}}, {"type": "Feature", "geometry": {"type": "Polygon", "coordinates": [[[-94.5461155, 35.4369118], [-94.5461146, 35.436805], [-94.5462951, 35.436804], [-94.546296, 35.4369107], [-94.5461155, 35.4369118]]]}, "properties": {"osm_id": 1354495833, "building": "yes", "name": "", "height": null, "height_m": null, "levels": null, "tract_id": "40135030105", "tract_name": "301.05", "tags": {"building": "yes"}}}, {"type": "Feature", "geometry": {"type": "Polygon", "coordinates": [[[-94.5481861, 35.4368161], [-94.5481282, 35.4368161], [-94.5481282, 35.4368279], [-94.5480116, 35.4368281], [-94.5480114, 35.4367553], [-94.5480231, 35.4367553], [-94.548023, 35.4367089], [-94.5479809, 35.4367089], [-94.5479807, 35.4366319], [-94.5481858, 35.4366316], [-94.5481861, 35.4368161]]]}, "properties": {"osm_id": 1354495834, "building": "detached", "name": "", "height": null, "height_m": null, "levels": null, "tract_id": "40135030105", "tract_name": "301.05", "tags": {"building": "detached"}}}, {"type": "Feature", "geometry": {"type": "Polygon", "coordinates": [[[-94.5461925, 35.4358205], [-94.5461409, 35.4357489], [-94.5462987, 35.4356735], [-94.5463503, 35.4357451], [-94.5461925, 35.4358205]]]}, "properties": {"osm_id": 1354495835, "building": "yes", "name": "", "height": null, "height_m": null, "levels": null, "tract_id": "40135030105", "tract_name": "301.05", "tags": {"building": "yes"}}}, {"type": "Feature", "geometry": {"type": "Polygon", "coordinates": [[[-94.5473127, 35.4350519], [-94.5472594, 35.4349867], [-94.5474649, 35.4348753], [-94.5475182, 35.4349406], [-94.5473127, 35.4350519]]]}, "properties": {"osm_id": 1354495836, "building": "yes", "name": "", "height": null, "height_m": null, "levels": null, "tract_id": "40135030105", "tract_name": "301.05", "tags": {"building": "yes"}}}, {"type": "Feature", "geometry": {"type": "Polygon", "coordinates": [[[-94.5457118, 35.4346155], [-94.5457128, 35.4345665], [-94.5455577, 35.4345642], [-94.5455581, 35.4345452], [-94.545503, 35.4345444], [-94.5455025, 35.4345662], [-94.5454411, 35.4345653], [-94.5454401, 35.4346115], [-94.5457118, 35.4346155]]]}, "properties": {"osm_id": 1354495837, "building": "yes", "name": "", "height": null, "height_m": null, "levels": null, "tract_id": "40135030105", "tract_name": "301.05", "tags": {"building": "yes"}}}, {"type": "Feature", "geometry": {"type": "Polygon", "coordinates": [[[-94.5454199, 35.4346165], [-94.5454213, 35.4345464], [-94.5453442, 35.4345454], [-94.5453427, 35.4346155], [-94.5454199, 35.4346165]]]}, "properties": {"osm_id": 1354495838, "building": "garage", "name": "", "height": null, "height_m": null, "levels": null, "tract_id": "40135030105", "tract_name": "301.05", "tags": {"building": "garage"}}}, {"type": "Feature", "geometry": {"type": "Polygon", "coordinates": [[[-94.5452746, 35.4346037], [-94.5452792, 35.4345205], [-94.5451973, 35.4345175], [-94.5451927, 35.4346007], [-94.5452746, 35.4346037]]]}, "properties": {"osm_id": 1354495839, "building": "detached", "name": "", "height": null, "height_m": null, "levels": null, "tract_id": "40135030105", "tract_name": "301.05", "tags": {"building": "detached"}}}, {"type": "Feature", "geometry": {"type": "Polygon", "coordinates": [[[-94.5461672, 35.4346874], [-94.5460676, 35.4346879], [-94.546067, 35.4346041], [-94.5459911, 35.4346045], [-94.5459906, 35.4345401], [-94.5461662, 35.4345393], [-94.5461672, 35.4346874]]]}, "properties": {"osm_id": 1354495841, "building": "detached", "name": "", "height": null, "height_m": null, "levels": null, "tract_id": "40135030105", "tract_name": "301.05", "tags": {"building": "detached"}}}, {"type": "Feature", "geometry": {"type": "Polygon", "coordinates": [[[-94.5463773, 35.4346379], [-94.5463769, 35.4344168], [-94.5463072, 35.4344169], [-94.5463076, 35.4346379], [-94.5463773, 35.4346379]]]}, "properties": {"osm_id": 1354495842, "building": "yes", "name": "", "height": null, "height_m": null, "levels": null, "tract_id": "40135030105", "tract_name": "301.05", "tags": {"building": "yes"}}}, {"type": "Feature", "geometry": {"type": "Polygon", "coordinates": [[[-94.5463341, 35.4353962], [-94.5463317, 35.435292], [-94.5464479, 35.4352903], [-94.5464503, 35.4353944], [-94.5463341, 35.4353962]]]}, "properties": {"osm_id": 1354495843, "building": "yes", "name": "", "height": null, "height_m": null, "levels": null, "tract_id": "40135030105", "tract_name": "301.05", "tags": {"building": "yes"}}}, {"type": "Feature", "geometry": {"type": "Polygon", "coordinates": [[[-94.5472015, 35.4385095], [-94.5471962, 35.4383783], [-94.5470983, 35.438381], [-94.5470975, 35.438362], [-94.5469259, 35.4383666], [-94.5469289, 35.4384427], [-94.5469169, 35.4384431], [-94.5469199, 35.438517], [-94.5472015, 35.4385095]]]}, "properties": {"osm_id": 1354495845, "building": "yes", "name": "", "height": null, "height_m": null, "levels": null, "tract_id": "40135030105", "tract_name": "301.05", "tags": {"building": "yes"}}}, {"type": "Feature", "geometry": {"type": "Polygon", "coordinates": [[[-94.5474638, 35.4386459], [-94.5472502, 35.4386489], [-94.5472471, 35.4385058], [-94.5474608, 35.4385028], [-94.5474638, 35.4386459]]]}, "properties": {"osm_id": 1354495846, "building": "yes", "name": "", "height": null, "height_m": null, "levels": null, "tract_id": "40135030105", "tract_name": "301.05", "tags": {"building": "yes"}}}, {"type": "Feature", "geometry": {"type": "Polygon", "coordinates": [[[-94.5482432, 35.4386351], [-94.5482246, 35.4384871], [-94.547957, 35.4385094], [-94.5479756, 35.4386574], [-94.5482432, 35.4386351]]]}, "properties": {"osm_id": 1354495847, "building": "yes", "name": "", "height": null, "height_m": null, "levels": null, "tract_id": "40135030105", "tract_name": "301.05", "tags": {"building": "yes"}}}, {"type": "Feature", "geometry": {"type": "Polygon", "coordinates": [[[-94.5482038, 35.4387131], [-94.5481941, 35.4386409], [-94.548098, 35.4386494], [-94.5481076, 35.4387217], [-94.5482038, 35.4387131]]]}, "properties": {"osm_id": 1354495848, "building": "yes", "name": "", "height": null, "height_m": null, "levels": null, "tract_id": "40135030105", "tract_name": "301.05", "tags": {"building": "yes"}}}, {"type": "Feature", "geometry": {"type": "Polygon", "coordinates": [[[-94.5494239, 35.4387369], [-94.5493129, 35.4386856], [-94.5493899, 35.438575], [-94.549318, 35.4385418], [-94.5493578, 35.4384846], [-94.549532, 35.4385651], [-94.5495002, 35.4386106], [-94.5495393, 35.4386287], [-94.5494653, 35.438735], [-94.549435, 35.438721], [-94.5494239, 35.4387369]]]}, "properties": {"osm_id": 1354495849, "building": "detached", "name": "", "height": null, "height_m": null, "levels": null, "tract_id": "40135030105", "tract_name": "301.05", "tags": {"building": "detached"}}}, {"type": "Feature", "geometry": {"type": "Polygon", "coordinates": [[[-94.5480684, 35.4370856], [-94.5479703, 35.4370787], [-94.5479816, 35.4369715], [-94.5480797, 35.4369783], [-94.5480684, 35.4370856]]]}, "properties": {"osm_id": 1354495851, "building": "yes", "name": "", "height": null, "height_m": null, "levels": null, "tract_id": "40135030105", "tract_name": "301.05", "tags": {"building": "yes"}}}, {"type": "Feature", "geometry": {"type": "Polygon", "coordinates": [[[-94.5456593, 35.434714], [-94.5457227, 35.434712], [-94.5457261, 35.4347826], [-94.5456627, 35.4347846], [-94.5456593, 35.434714]]]}, "properties": {"osm_id": 1354495852, "building": "yes", "name": "", "height": null, "height_m": null, "levels": null, "tract_id": "40135030105", "tract_name": "301.05", "tags": {"building": "yes"}}}, {"type": "Feature", "geometry": {"type": "Polygon", "coordinates": [[[-94.5455418, 35.4347669], [-94.5454343, 35.4347681], [-94.5454353, 35.4348253], [-94.5455428, 35.4348241], [-94.5455418, 35.4347669]]]}, "properties": {"osm_id": 1354495853, "building": "yes", "name": "", "height": null, "height_m": null, "levels": null, "tract_id": "40135030105", "tract_name": "301.05", "tags": {"building": "yes"}}}, {"type": "Feature", "geometry": {"type": "Polygon", "coordinates": [[[-94.5004549, 35.6007112], [-94.500327, 35.6007058], [-94.5003343, 35.6005905], [-94.5004622, 35.6005959], [-94.5004549, 35.6007112]]]}, "properties": {"osm_id": 1372672234, "building": "house", "name": "", "height": null, "height_m": null, "levels": null, "tract_id": "40135030105", "tract_name": "301.05", "tags": {"building": "house"}}}, {"type": "Feature", "geometry": {"type": "Polygon", "coordinates": [[[-94.4964007, 35.6205283], [-94.4964829, 35.6205733], [-94.4966765, 35.6203402], [-94.4965944, 35.6202951], [-94.4964007, 35.6205283]]]}, "properties": {"osm_id": 1372672240, "building": "yes", "name": "", "height": null, "height_m": null, "levels": null, "tract_id": "40135030105", "tract_name": "301.05", "tags": {"building": "yes"}}}, {"type": "Feature", "geometry": {"type": "Polygon", "coordinates": [[[-94.4874741, 35.631008], [-94.4873324, 35.6310558], [-94.4873047, 35.6310016], [-94.4873582, 35.6309836], [-94.487343, 35.6309538], [-94.4874312, 35.630924], [-94.4874741, 35.631008]]]}, "properties": {"osm_id": 1372672243, "building": "yes", "name": "", "height": null, "height_m": null, "levels": null, "tract_id": "40135030105", "tract_name": "301.05", "tags": {"building": "yes"}}}, {"type": "Feature", "geometry": {"type": "Polygon", "coordinates": [[[-94.4921393, 35.5922613], [-94.4922269, 35.5921502], [-94.4920253, 35.5920452], [-94.4919378, 35.5921563], [-94.4921393, 35.5922613]]]}, "properties": {"osm_id": 1372672247, "building": "yes", "name": "", "height": null, "height_m": null, "levels": null, "tract_id": "40135030105", "tract_name": "301.05", "tags": {"building": "yes"}}}, {"type": "Feature", "geometry": {"type": "Polygon", "coordinates": [[[-94.4916905, 35.5904187], [-94.4917618, 35.5902447], [-94.4916029, 35.5902016], [-94.4915316, 35.5903756], [-94.4916905, 35.5904187]]]}, "properties": {"osm_id": 1372672248, "building": "yes", "name": "", "height": null, "height_m": null, "levels": null, "tract_id": "40135030105", "tract_name": "301.05", "tags": {"building": "yes"}}}, {"type": "Feature", "geometry": {"type": "Polygon", "coordinates": [[[-94.4911416, 35.5902897], [-94.491202, 35.5901148], [-94.4910247, 35.5900743], [-94.4909643, 35.5902492], [-94.4911416, 35.5902897]]]}, "properties": {"osm_id": 1372672249, "building": "yes", "name": "", "height": null, "height_m": null, "levels": null, "tract_id": "40135030105", "tract_name": "301.05", "tags": {"building": "yes"}}}, {"type": "Feature", "geometry": {"type": "Polygon", "coordinates": [[[-94.4980784, 35.5933177], [-94.4979816, 35.5933267], [-94.4979431, 35.593055], [-94.49804, 35.5930459], [-94.4980784, 35.5933177]]]}, "properties": {"osm_id": 1372672251, "building": "yes", "name": "", "height": null, "height_m": null, "levels": null, "tract_id": "40135030105", "tract_name": "301.05", "tags": {"building": "yes"}}}, {"type": "Feature", "geometry": {"type": "Polygon", "coordinates": [[[-94.4983262, 35.5932725], [-94.4981752, 35.5932916], [-94.4981618, 35.5932215], [-94.4983128, 35.5932025], [-94.4983262, 35.5932725]]]}, "properties": {"osm_id": 1372672252, "building": "yes", "name": "", "height": null, "height_m": null, "levels": null, "tract_id": "40135030105", "tract_name": "301.05", "tags": {"building": "yes"}}}, {"type": "Feature", "geometry": {"type": "Polygon", "coordinates": [[[-94.4980648, 35.593612], [-94.4979991, 35.5936273], [-94.4979735, 35.5935549], [-94.4980392, 35.5935395], [-94.4980648, 35.593612]]]}, "properties": {"osm_id": 1372672253, "building": "yes", "name": "", "height": null, "height_m": null, "levels": null, "tract_id": "40135030105", "tract_name": "301.05", "tags": {"building": "yes"}}}, {"type": "Feature", "geometry": {"type": "Polygon", "coordinates": [[[-94.5146789, 35.5619258], [-94.5146795, 35.5617944], [-94.5129814, 35.5617888], [-94.5129807, 35.5619199], [-94.5146789, 35.5619258]]]}, "properties": {"osm_id": 1372672255, "building": "yes", "name": "", "height": null, "height_m": null, "levels": null, "tract_id": "40135030105", "tract_name": "301.05", "tags": {"building": "yes"}}}, {"type": "Feature", "geometry": {"type": "Polygon", "coordinates": [[[-94.5146767, 35.5615277], [-94.5146774, 35.5613963], [-94.5129792, 35.5613907], [-94.5129785, 35.5615218], [-94.5146767, 35.5615277]]]}, "properties": {"osm_id": 1372672256, "building": "yes", "name": "", "height": null, "height_m": null, "levels": null, "tract_id": "40135030105", "tract_name": "301.05", "tags": {"building": "yes"}}}, {"type": "Feature", "geometry": {"type": "Polygon", "coordinates": [[[-94.5147269, 35.5611527], [-94.5147276, 35.5610213], [-94.5130294, 35.5610157], [-94.5130288, 35.5611468], [-94.5147269, 35.5611527]]]}, "properties": {"osm_id": 1372672257, "building": "yes", "name": "", "height": null, "height_m": null, "levels": null, "tract_id": "40135030105", "tract_name": "301.05", "tags": {"building": "yes"}}}, {"type": "Feature", "geometry": {"type": "Polygon", "coordinates": [[[-94.5147357, 35.5607581], [-94.5147363, 35.5606267], [-94.5130382, 35.5606212], [-94.5130375, 35.5607523], [-94.5147357, 35.5607581]]]}, "properties": {"osm_id": 1372672258, "building": "yes", "name": "", "height": null, "height_m": null, "levels": null, "tract_id": "40135030105", "tract_name": "301.05", "tags": {"building": "yes"}}}, {"type": "Feature", "geometry": {"type": "Polygon", "coordinates": [[[-94.5127023, 35.5614219], [-94.5127003, 35.5612484], [-94.512444, 35.5612504], [-94.512446, 35.5614238], [-94.5127023, 35.5614219]]]}, "properties": {"osm_id": 1372672259, "building": "yes", "name": "", "height": null, "height_m": null, "levels": null, "tract_id": "40135030105", "tract_name": "301.05", "tags": {"building": "yes"}}}, {"type": "Feature", "geometry": {"type": "Polygon", "coordinates": [[[-94.5140672, 35.5602318], [-94.5140426, 35.5603652], [-94.5138675, 35.5603438], [-94.5138724, 35.5603172], [-94.5138303, 35.5603121], [-94.5138499, 35.5602054], [-94.5140672, 35.5602318]]]}, "properties": {"osm_id": 1372672260, "building": "yes", "name": "", "height": null, "height_m": null, "levels": null, "tract_id": "40135030105", "tract_name": "301.05", "tags": {"building": "yes"}}}, {"type": "Feature", "geometry": {"type": "Polygon", "coordinates": [[[-94.5237362, 35.4346649], [-94.523502, 35.4346591], [-94.5235036, 35.4346152], [-94.5235149, 35.4346155], [-94.5235162, 35.434583], [-94.5235925, 35.4345848], [-94.5235934, 35.4345596], [-94.5235754, 35.4345592], [-94.523577, 35.4345174], [-94.5236173, 35.4345184], [-94.523618, 35.434499], [-94.5237142, 35.4345014], [-94.523713, 35.434532], [-94.5237284, 35.4345324], [-94.5237262, 35.4345901], [-94.5237062, 35.4345896], [-94.5237053, 35.434614], [-94.5237381, 35.4346148], [-94.5237362, 35.4346649]]]}, "properties": {"osm_id": 1387625858, "building": "yes", "name": "", "height": null, "height_m": null, "levels": null, "tract_id": "40135030105", "tract_name": "301.05", "tags": {"building": "yes"}}}, {"type": "Feature", "geometry": {"type": "Polygon", "coordinates": [[[-94.5229319, 35.4352324], [-94.5228263, 35.435231], [-94.5228275, 35.435177], [-94.5227945, 35.4351766], [-94.5227958, 35.4351116], [-94.5228313, 35.4351121], [-94.5228317, 35.4350894], [-94.5227829, 35.4350887], [-94.522784, 35.4350392], [-94.5227944, 35.4350394], [-94.5227949, 35.435012], [-94.522978, 35.4350144], [-94.5229766, 35.4350868], [-94.5229371, 35.4350863], [-94.5229368, 35.4350994], [-94.5229633, 35.4350997], [-94.5229615, 35.4351877], [-94.5229329, 35.4351873], [-94.5229319, 35.4352324]]]}, "properties": {"osm_id": 1387625859, "building": "yes", "name": "", "height": null, "height_m": null, "levels": null, "tract_id": "40135030105", "tract_name": "301.05", "tags": {"building": "yes"}}}, {"type": "Feature", "geometry": {"type": "Polygon", "coordinates": [[[-94.5218722, 35.4348494], [-94.5218128, 35.4348247], [-94.5218168, 35.4348184], [-94.521737, 35.4347852], [-94.5217599, 35.4347486], [-94.5216798, 35.4347153], [-94.5217189, 35.4346529], [-94.5217487, 35.4346653], [-94.5217711, 35.4346294], [-94.5218586, 35.4346658], [-94.5218431, 35.4346904], [-94.5218501, 35.4346933], [-94.5218664, 35.4346672], [-94.5219041, 35.4346829], [-94.5218969, 35.4346944], [-94.5219542, 35.4347182], [-94.5218722, 35.4348494]]]}, "properties": {"osm_id": 1387625869, "building": "yes", "name": "", "height": null, "height_m": null, "levels": null, "tract_id": "40135030105", "tract_name": "301.05", "tags": {"building": "yes"}}}, {"type": "Feature", "geometry": {"type": "Polygon", "coordinates": [[[-94.5217076, 35.4350867], [-94.5216119, 35.4350884], [-94.5216094, 35.4349936], [-94.521705, 35.4349919], [-94.5217076, 35.4350867]]]}, "properties": {"osm_id": 1387625870, "building": "yes", "name": "", "height": null, "height_m": null, "levels": null, "tract_id": "40135030105", "tract_name": "301.05", "tags": {"building": "yes"}}}, {"type": "Feature", "geometry": {"type": "Polygon", "coordinates": [[[-94.522142, 35.4353514], [-94.522247, 35.435363], [-94.5222664, 35.4352472], [-94.5221613, 35.4352356], [-94.522142, 35.4353514]]]}, "properties": {"osm_id": 1387625871, "building": "yes", "name": "", "height": null, "height_m": null, "levels": null, "tract_id": "40135030105", "tract_name": "301.05", "tags": {"building": "yes"}}}, {"type": "Feature", "geometry": {"type": "Polygon", "coordinates": [[[-94.5218254, 35.4356066], [-94.5217318, 35.4355904], [-94.5217465, 35.435534], [-94.5217367, 35.4355323], [-94.5217545, 35.4354636], [-94.5217953, 35.4354706], [-94.5218027, 35.4354419], [-94.5218119, 35.4354435], [-94.5218184, 35.4354183], [-94.5218033, 35.4354157], [-94.5218134, 35.4353768], [-94.5218349, 35.4353805], [-94.5218386, 35.4353662], [-94.5219677, 35.4353885], [-94.5219403, 35.4354935], [-94.5219571, 35.4354964], [-94.5219497, 35.4355251], [-94.5219367, 35.4355228], [-94.5219256, 35.4355653], [-94.5218399, 35.4355505], [-94.5218254, 35.4356066]]]}, "properties": {"osm_id": 1387625872, "building": "yes", "name": "", "height": null, "height_m": null, "levels": null, "tract_id": "40135030105", "tract_name": "301.05", "tags": {"building": "yes"}}}, {"type": "Feature", "geometry": {"type": "Polygon", "coordinates": [[[-94.4668432, 35.4422033], [-94.4667279, 35.4422015], [-94.4667304, 35.4420885], [-94.4668458, 35.4420902], [-94.4668432, 35.4422033]]]}, "properties": {"osm_id": 1426073098, "building": "yes", "name": "", "height": null, "height_m": null, "levels": null, "tract_id": "40135030105", "tract_name": "301.05", "tags": {"building": "yes"}}}, {"type": "Feature", "geometry": {"type": "Polygon", "coordinates": [[[-94.4665939, 35.4427994], [-94.466512, 35.4427389], [-94.4664799, 35.4427677], [-94.4663714, 35.4426876], [-94.4664988, 35.4425731], [-94.466606, 35.4426522], [-94.4666154, 35.4426439], [-94.4666986, 35.4427053], [-94.4665939, 35.4427994]]]}, "properties": {"osm_id": 1426073099, "building": "house", "name": "", "height": null, "height_m": null, "levels": null, "tract_id": "40135030105", "tract_name": "301.05", "tags": {"building": "house", "house": "detached"}}}, {"type": "Feature", "geometry": {"type": "Polygon", "coordinates": [[[-94.4650194, 35.4432226], [-94.4649363, 35.4431276], [-94.4647639, 35.4432276], [-94.464847, 35.4433227], [-94.4650194, 35.4432226]]]}, "properties": {"osm_id": 1426073100, "building": "yes", "name": "", "height": null, "height_m": null, "levels": null, "tract_id": "40135030105", "tract_name": "301.05", "tags": {"building": "yes"}}}, {"type": "Feature", "geometry": {"type": "Polygon", "coordinates": [[[-94.4649602, 35.4435192], [-94.4649108, 35.4435683], [-94.4648806, 35.4435481], [-94.4648165, 35.4436118], [-94.4647136, 35.4435431], [-94.4647116, 35.4435259], [-94.4647217, 35.4435149], [-94.4647408, 35.44351], [-94.4647229, 35.4434981], [-94.4647952, 35.4434261], [-94.4648208, 35.4434432], [-94.4648311, 35.443433], [-94.4649602, 35.4435192]]]}, "properties": {"osm_id": 1426073101, "building": "house", "name": "", "height": null, "height_m": null, "levels": null, "tract_id": "40135030105", "tract_name": "301.05", "tags": {"building": "house", "house": "detached"}}}, {"type": "Feature", "geometry": {"type": "Polygon", "coordinates": [[[-94.4642121, 35.4439082], [-94.4641397, 35.4438124], [-94.4640199, 35.4438726], [-94.4640922, 35.4439683], [-94.4642121, 35.4439082]]]}, "properties": {"osm_id": 1426073103, "building": "yes", "name": "", "height": null, "height_m": null, "levels": null, "tract_id": "40135030105", "tract_name": "301.05", "tags": {"building": "yes"}}}, {"type": "Feature", "geometry": {"type": "Polygon", "coordinates": [[[-94.4646251, 35.4440967], [-94.4644912, 35.4441661], [-94.4644143, 35.4440676], [-94.4645481, 35.4439982], [-94.4646251, 35.4440967]]]}, "properties": {"osm_id": 1426073104, "building": "yes", "name": "", "height": null, "height_m": null, "levels": null, "tract_id": "40135030105", "tract_name": "301.05", "tags": {"building": "yes"}}}, {"type": "Feature", "geometry": {"type": "Polygon", "coordinates": [[[-94.4604034, 35.4458952], [-94.4602958, 35.4459645], [-94.4601206, 35.4457839], [-94.4602282, 35.4457147], [-94.4604034, 35.4458952]]]}, "properties": {"osm_id": 1426073105, "building": "yes", "name": "", "height": null, "height_m": null, "levels": null, "tract_id": "40135030105", "tract_name": "301.05", "tags": {"building": "yes"}}}, {"type": "Feature", "geometry": {"type": "Polygon", "coordinates": [[[-94.4616045, 35.4463872], [-94.4614374, 35.4463502], [-94.4614782, 35.4462279], [-94.4616463, 35.4462652], [-94.4616411, 35.4462807], [-94.4617468, 35.4463042], [-94.4617192, 35.4463868], [-94.4616125, 35.4463632], [-94.4616045, 35.4463872]]]}, "properties": {"osm_id": 1426073106, "building": "yes", "name": "", "height": null, "height_m": null, "levels": null, "tract_id": "40135030105", "tract_name": "301.05", "tags": {"building": "yes"}}}, {"type": "Feature", "geometry": {"type": "Polygon", "coordinates": [[[-94.459274, 35.4465725], [-94.459258, 35.4465392], [-94.4592117, 35.4465539], [-94.4592178, 35.4465667], [-94.4591598, 35.4465851], [-94.4591551, 35.4465753], [-94.459107, 35.4465906], [-94.4590489, 35.4464693], [-94.4592864, 35.4463937], [-94.459299, 35.4464199], [-94.4593582, 35.4464011], [-94.4593733, 35.4464326], [-94.4593132, 35.4464517], [-94.4593582, 35.4465457], [-94.459274, 35.4465725]]]}, "properties": {"osm_id": 1426073107, "building": "house", "name": "", "height": null, "height_m": null, "levels": null, "tract_id": "40135030105", "tract_name": "301.05", "tags": {"building": "house", "house": "detached"}}}, {"type": "Feature", "geometry": {"type": "Polygon", "coordinates": [[[-94.4585966, 35.446686], [-94.4586047, 35.4466529], [-94.4585236, 35.4466396], [-94.4585154, 35.4466727], [-94.4585966, 35.446686]]]}, "properties": {"osm_id": 1426073109, "building": "yes", "name": "", "height": null, "height_m": null, "levels": null, "tract_id": "40135030105", "tract_name": "301.05", "tags": {"building": "yes"}}}, {"type": "Feature", "geometry": {"type": "Polygon", "coordinates": [[[-94.4581562, 35.4468803], [-94.458075, 35.4467423], [-94.4578447, 35.4468323], [-94.4579309, 35.4469789], [-94.4580497, 35.4469326], [-94.4580446, 35.4469239], [-94.4581562, 35.4468803]]]}, "properties": {"osm_id": 1426073110, "building": "house", "name": "", "height": null, "height_m": null, "levels": null, "tract_id": "40135030105", "tract_name": "301.05", "tags": {"building": "house", "house": "detached"}}}, {"type": "Feature", "geometry": {"type": "Polygon", "coordinates": [[[-94.4579671, 35.4465907], [-94.4579412, 35.4465011], [-94.4577864, 35.4465307], [-94.4578123, 35.4466204], [-94.4579671, 35.4465907]]]}, "properties": {"osm_id": 1426073111, "building": "yes", "name": "", "height": null, "height_m": null, "levels": null, "tract_id": "40135030105", "tract_name": "301.05", "tags": {"building": "yes"}}}, {"type": "Feature", "geometry": {"type": "Polygon", "coordinates": [[[-94.4577739, 35.4462558], [-94.4577367, 35.4461994], [-94.457635, 35.4462439], [-94.4576722, 35.4463003], [-94.4577739, 35.4462558]]]}, "properties": {"osm_id": 1426073112, "building": "yes", "name": "", "height": null, "height_m": null, "levels": null, "tract_id": "40135030105", "tract_name": "301.05", "tags": {"building": "yes"}}}, {"type": "Feature", "geometry": {"type": "Polygon", "coordinates": [[[-94.4575782, 35.4469196], [-94.4575433, 35.4468086], [-94.4574053, 35.4468375], [-94.4574403, 35.4469485], [-94.4575782, 35.4469196]]]}, "properties": {"osm_id": 1426073113, "building": "yes", "name": "", "height": null, "height_m": null, "levels": null, "tract_id": "40135030105", "tract_name": "301.05", "tags": {"building": "yes"}}}, {"type": "Feature", "geometry": {"type": "Polygon", "coordinates": [[[-94.4573654, 35.4473294], [-94.45725, 35.4473518], [-94.4572563, 35.4473736], [-94.4571943, 35.4473856], [-94.4571843, 35.4473516], [-94.4571695, 35.4473545], [-94.4571388, 35.4472493], [-94.4572937, 35.4472193], [-94.4572705, 35.4471399], [-94.4573482, 35.4471248], [-94.4573681, 35.4471931], [-94.4573279, 35.4472008], [-94.4573391, 35.4472392], [-94.4573153, 35.4472439], [-94.4573211, 35.4472637], [-94.4573449, 35.4472591], [-94.4573654, 35.4473294]]]}, "properties": {"osm_id": 1426073114, "building": "house", "name": "", "height": null, "height_m": null, "levels": null, "tract_id": "40135030105", "tract_name": "301.05", "tags": {"building": "house", "house": "detached"}}}, {"type": "Feature", "geometry": {"type": "Polygon", "coordinates": [[[-94.4563618, 35.4468291], [-94.4563486, 35.4466538], [-94.4562051, 35.446661], [-94.4562184, 35.4468363], [-94.4563618, 35.4468291]]]}, "properties": {"osm_id": 1426073115, "building": "yes", "name": "", "height": null, "height_m": null, "levels": null, "tract_id": "40135030105", "tract_name": "301.05", "tags": {"building": "yes"}}}, {"type": "Feature", "geometry": {"type": "Polygon", "coordinates": [[[-94.4562578, 35.4472141], [-94.4562484, 35.4470964], [-94.4561976, 35.447099], [-94.4561968, 35.4470888], [-94.4561638, 35.4470905], [-94.4561645, 35.4471005], [-94.4561448, 35.4471015], [-94.4561421, 35.4470672], [-94.4560738, 35.4470708], [-94.4560767, 35.4471081], [-94.455992, 35.4471125], [-94.4559992, 35.4472039], [-94.4560436, 35.4472016], [-94.4560458, 35.4472299], [-94.4560871, 35.4472278], [-94.4560879, 35.4472374], [-94.4561294, 35.4472352], [-94.4561269, 35.4472038], [-94.456161, 35.447202], [-94.4561623, 35.4472192], [-94.4562578, 35.4472141]]]}, "properties": {"osm_id": 1426073116, "building": "house", "name": "", "height": null, "height_m": null, "levels": null, "tract_id": "40135030105", "tract_name": "301.05", "tags": {"building": "house", "house": "detached"}}}, {"type": "Feature", "geometry": {"type": "Polygon", "coordinates": [[[-94.4547953, 35.4482609], [-94.4547797, 35.4481056], [-94.4548159, 35.4481032], [-94.454815, 35.4480941], [-94.4548653, 35.4480907], [-94.4548681, 35.4481194], [-94.4549221, 35.4481158], [-94.4549186, 35.4480813], [-94.4550095, 35.4480752], [-94.455027, 35.4482496], [-94.4549377, 35.4482555], [-94.4549339, 35.4482175], [-94.4548782, 35.4482212], [-94.4548816, 35.4482552], [-94.4547953, 35.4482609]]]}, "properties": {"osm_id": 1426073117, "building": "house", "name": "", "height": null, "height_m": null, "levels": null, "tract_id": "40135030105", "tract_name": "301.05", "tags": {"building": "house", "house": "detached"}}}, {"type": "Feature", "geometry": {"type": "Polygon", "coordinates": [[[-94.4551337, 35.448143], [-94.4551284, 35.448079], [-94.4552182, 35.4480769], [-94.4552229, 35.4481408], [-94.4551337, 35.448143]]]}, "properties": {"osm_id": 1426073118, "building": "yes", "name": "", "height": null, "height_m": null, "levels": null, "tract_id": "40135030105", "tract_name": "301.05", "tags": {"building": "yes"}}}, {"type": "Feature", "geometry": {"type": "Polygon", "coordinates": [[[-94.4539463, 35.4481675], [-94.4537086, 35.4481704], [-94.4537052, 35.4479843], [-94.4537826, 35.4479833], [-94.4537835, 35.4480371], [-94.4538165, 35.4480367], [-94.4538159, 35.4480068], [-94.4538587, 35.4480062], [-94.4538594, 35.4480411], [-94.4538848, 35.4480408], [-94.4538845, 35.4480286], [-94.4539438, 35.4480279], [-94.4539463, 35.4481675]]]}, "properties": {"osm_id": 1426073120, "building": "house", "name": "", "height": null, "height_m": null, "levels": null, "tract_id": "40135030105", "tract_name": "301.05", "tags": {"building": "house", "house": "detached"}}}, {"type": "Feature", "geometry": {"type": "Polygon", "coordinates": [[[-94.4530217, 35.4480355], [-94.4529434, 35.4480431], [-94.4529512, 35.4480964], [-94.4528314, 35.4481081], [-94.4528491, 35.4482281], [-94.4530472, 35.4482088], [-94.4530217, 35.4480355]]]}, "properties": {"osm_id": 1426073122, "building": "detached", "name": "", "height": null, "height_m": null, "levels": null, "tract_id": "40135030105", "tract_name": "301.05", "tags": {"building": "detached"}}}, {"type": "Feature", "geometry": {"type": "Polygon", "coordinates": [[[-94.4518322, 35.4482842], [-94.4518671, 35.4483749], [-94.4521756, 35.4483028], [-94.4521394, 35.4482154], [-94.4518322, 35.4482842]]]}, "properties": {"osm_id": 1426073123, "building": "detached", "name": "", "height": null, "height_m": null, "levels": null, "tract_id": "40135030105", "tract_name": "301.05", "tags": {"building": "detached"}}}, {"type": "Feature", "geometry": {"type": "Polygon", "coordinates": [[[-94.4513286, 35.4485963], [-94.4512183, 35.4484609], [-94.4511347, 35.448506], [-94.4511258, 35.448495], [-94.451091, 35.4485138], [-94.451102, 35.4485272], [-94.4510472, 35.4485568], [-94.4511084, 35.448632], [-94.4511765, 35.4485952], [-94.4511837, 35.4486041], [-94.4511448, 35.4486252], [-94.4511789, 35.448667], [-94.4512377, 35.4486352], [-94.4512435, 35.4486423], [-94.4513286, 35.4485963]]]}, "properties": {"osm_id": 1426073127, "building": "detached", "name": "", "height": null, "height_m": null, "levels": null, "tract_id": "40135030105", "tract_name": "301.05", "tags": {"building": "detached"}}}, {"type": "Feature", "geometry": {"type": "Polygon", "coordinates": [[[-94.4512894, 35.4486738], [-94.4512237, 35.4487102], [-94.4512285, 35.4487159], [-94.4511452, 35.4487621], [-94.4512044, 35.448833], [-94.4512913, 35.4487848], [-94.45126, 35.4487473], [-94.4512689, 35.4487423], [-94.4512851, 35.4487617], [-94.4513175, 35.4487437], [-94.4513019, 35.4487249], [-94.4513226, 35.4487135], [-94.4512894, 35.4486738]]]}, "properties": {"osm_id": 1426073128, "building": "yes", "name": "", "height": null, "height_m": null, "levels": null, "tract_id": "40135030105", "tract_name": "301.05", "tags": {"building": "yes"}}}, {"type": "Feature", "geometry": {"type": "Polygon", "coordinates": [[[-94.4513559, 35.4488593], [-94.4513145, 35.4488986], [-94.4512584, 35.4488594], [-94.4512998, 35.4488201], [-94.4513559, 35.4488593]]]}, "properties": {"osm_id": 1426073129, "building": "yes", "name": "", "height": null, "height_m": null, "levels": null, "tract_id": "40135030105", "tract_name": "301.05", "tags": {"building": "yes"}}}, {"type": "Feature", "geometry": {"type": "Polygon", "coordinates": [[[-94.4432208, 35.4513803], [-94.4430897, 35.4513425], [-94.4431337, 35.4512414], [-94.4431549, 35.4512476], [-94.443223, 35.451091], [-94.443347, 35.4511268], [-94.443268, 35.4513082], [-94.443254, 35.4513042], [-94.4432208, 35.4513803]]]}, "properties": {"osm_id": 1426073130, "building": "yes", "name": "", "height": null, "height_m": null, "levels": null, "tract_id": "40135030105", "tract_name": "301.05", "tags": {"building": "yes"}}}, {"type": "Feature", "geometry": {"type": "Polygon", "coordinates": [[[-94.5156042, 35.6369383], [-94.5155649, 35.6370204], [-94.5154479, 35.6369807], [-94.5154335, 35.6370108], [-94.5153606, 35.6369846], [-94.515414, 35.6368687], [-94.5156042, 35.6369383]]]}, "properties": {"osm_id": 1434972644, "building": "yes", "name": "", "height": null, "height_m": null, "levels": null, "tract_id": "40135030105", "tract_name": "301.05", "tags": {"building": "yes"}}}, {"type": "Feature", "geometry": {"type": "Polygon", "coordinates": [[[-94.5164527, 35.637351], [-94.5164679, 35.6372117], [-94.5162956, 35.6371942], [-94.5162746, 35.6373329], [-94.5164527, 35.637351]]]}, "properties": {"osm_id": 1435194574, "building": "yes", "name": "", "height": null, "height_m": null, "levels": null, "tract_id": "40135030105", "tract_name": "301.05", "tags": {"building": "yes"}}}, {"type": "Feature", "geometry": {"type": "Polygon", "coordinates": [[[-94.517422, 35.6371386], [-94.5174188, 35.6371878], [-94.5173206, 35.6371815], [-94.5173182, 35.6372005], [-94.517263, 35.6371973], [-94.5172571, 35.6372548], [-94.5171569, 35.6372496], [-94.5171642, 35.6371692], [-94.5171326, 35.6371669], [-94.5171371, 35.6371204], [-94.5171664, 35.6371225], [-94.5171686, 35.6370819], [-94.5172733, 35.6370887], [-94.517271, 35.6371282], [-94.517422, 35.6371386]]]}, "properties": {"osm_id": 1435194575, "building": "yes", "name": "", "height": null, "height_m": null, "levels": null, "tract_id": "40135030105", "tract_name": "301.05", "tags": {"building": "yes"}}}, {"type": "Feature", "geometry": {"type": "Polygon", "coordinates": [[[-94.5167348, 35.6379159], [-94.5167225, 35.6379567], [-94.5164683, 35.6379055], [-94.5164803, 35.6378621], [-94.5167348, 35.6379159]]]}, "properties": {"osm_id": 1435194576, "building": "yes", "name": "", "height": null, "height_m": null, "levels": null, "tract_id": "40135030105", "tract_name": "301.05", "tags": {"building": "yes"}}}]}