{"type": "FeatureCollection", "features": [{"type": "Feature", "geometry": {"type": "Polygon", "coordinates": [[[-95.8041844, 36.0601935], [-95.803925, 36.0601949], [-95.8039257, 36.0602871], [-95.8036928, 36.0602884], [-95.8036932, 36.0603338], [-95.8036938, 36.0604032], [-95.8034802, 36.0604043], [-95.8034796, 36.0603345], [-95.8034792, 36.060284], [-95.8032435, 36.0602852], [-95.8032427, 36.0601915], [-95.8029826, 36.0601929], [-95.8029794, 36.0597824], [-95.8028617, 36.0597831], [-95.8028595, 36.0595059], [-95.8029771, 36.0595052], [-95.8029748, 36.0592121], [-95.8036724, 36.0592085], [-95.8036716, 36.0591084], [-95.8039882, 36.0591067], [-95.8039879, 36.0590751], [-95.8039876, 36.0590333], [-95.8041084, 36.0590326], [-95.8041087, 36.0590749], [-95.8041098, 36.0592062], [-95.8041925, 36.0592058], [-95.8041949, 36.0595021], [-95.8042979, 36.0595015], [-95.8043, 36.0597701], [-95.8041811, 36.0597707], [-95.8041844, 36.0601935]]]}, "properties": {"osm_id": 102033709, "building": "church", "name": "Rhema Bible Church", "height": null, "height_m": null, "levels": null, "tract_id": "40143007415", "tract_name": "74.15", "tags": {"amenity": "place_of_worship", "building": "church", "ele": "226", "gnis:feature_id": "1782615", "name": "Rhema Bible Church", "religion": "christian"}}}, {"type": "Feature", "geometry": {"type": "Polygon", "coordinates": [[[-95.8146797, 36.0569538], [-95.814681, 36.0572476], [-95.8144826, 36.0572482], [-95.8144813, 36.0569544], [-95.8146797, 36.0569538]]]}, "properties": {"osm_id": 479874269, "building": "commercial", "name": "", "height": null, "height_m": null, "levels": null, "tract_id": "40143007415", "tract_name": "74.15", "tags": {"building": "commercial"}}}, {"type": "Feature", "geometry": {"type": "Polygon", "coordinates": [[[-95.8144019, 36.0569078], [-95.8139268, 36.0569078], [-95.8139292, 36.0567428], [-95.8144015, 36.0567462], [-95.8144019, 36.0569078]]]}, "properties": {"osm_id": 479874270, "building": "industrial", "name": "", "height": null, "height_m": null, "levels": null, "tract_id": "40143007415", "tract_name": "74.15", "tags": {"building": "industrial"}}}, {"type": "Feature", "geometry": {"type": "Polygon", "coordinates": [[[-95.813364, 36.057291], [-95.8133636, 36.0574351], [-95.812862, 36.057434], [-95.8128625, 36.0572899], [-95.813364, 36.057291]]]}, "properties": {"osm_id": 479874271, "building": "yes", "name": "", "height": null, "height_m": null, "levels": null, "tract_id": "40143007415", "tract_name": "74.15", "tags": {"building": "yes"}}}, {"type": "Feature", "geometry": {"type": "Polygon", "coordinates": [[[-95.8130596, 36.057916], [-95.8130596, 36.0581047], [-95.8127887, 36.0581047], [-95.8127887, 36.057916], [-95.8130596, 36.057916]]]}, "properties": {"osm_id": 479874272, "building": "yes", "name": "", "height": null, "height_m": null, "levels": null, "tract_id": "40143007415", "tract_name": "74.15", "tags": {"building": "yes"}}}, {"type": "Feature", "geometry": {"type": "Polygon", "coordinates": [[[-95.813938, 36.0583399], [-95.8139435, 36.0581782], [-95.8143995, 36.0581804], [-95.814402, 36.0583453], [-95.813938, 36.0583399]]]}, "properties": {"osm_id": 479874273, "building": "warehouse", "name": "Big Red Fasteners (warehouse only)", "height": null, "height_m": null, "levels": null, "tract_id": "40143007415", "tract_name": "74.15", "tags": {"addr:city": "Broken Arrow", "addr:housenumber": "508", "addr:postcode": "74012", "addr:state": "OK", "addr:street": "North Walnut Avenue", "building": "warehouse", "description": "employees only here: customers go to the other location further east at 489 Poplar.", "name": "Big Red Fasteners (warehouse only)"}}}, {"type": "Feature", "geometry": {"type": "Polygon", "coordinates": [[[-95.8149385, 36.058914], [-95.8146086, 36.0589119], [-95.8146097, 36.0588033], [-95.8149396, 36.0588055], [-95.8149385, 36.058914]]]}, "properties": {"osm_id": 479874276, "building": "commercial", "name": "J. David Jewelery", "height": null, "height_m": null, "levels": null, "tract_id": "40143007415", "tract_name": "74.15", "tags": {"building": "commercial", "name": "J. David Jewelery", "shop": "jewelry"}}}, {"type": "Feature", "geometry": {"type": "Polygon", "coordinates": [[[-95.8139018, 36.0588051], [-95.8139073, 36.0587887], [-95.8138141, 36.0587682], [-95.8138733, 36.0585929], [-95.8139665, 36.0586135], [-95.813973, 36.0585943], [-95.8142922, 36.0586648], [-95.814221, 36.0588755], [-95.8139018, 36.0588051]]]}, "properties": {"osm_id": 479874277, "building": "industrial", "name": "Six Guns", "height": null, "height_m": null, "levels": null, "tract_id": "40143007415", "tract_name": "74.15", "tags": {"addr:housenumber": "610", "addr:street": "North Walnut Avenue", "building": "industrial", "name": "Six Guns"}}}, {"type": "Feature", "geometry": {"type": "Polygon", "coordinates": [[[-95.8120065, 36.0586998], [-95.8125156, 36.0586935], [-95.81251, 36.0589878], [-95.8124429, 36.059026], [-95.8120086, 36.0590249], [-95.8120065, 36.0586998]]]}, "properties": {"osm_id": 479874278, "building": "commercial", "name": "Fence Builders of Oklahoma", "height": null, "height_m": null, "levels": null, "tract_id": "40143007415", "tract_name": "74.15", "tags": {"addr:street": "North Redbud Avenue", "building": "commercial", "name": "Fence Builders of Oklahoma"}}}, {"type": "Feature", "geometry": {"type": "Polygon", "coordinates": [[[-95.8133847, 36.0578207], [-95.8131296, 36.0578198], [-95.8131301, 36.0576543], [-95.8133851, 36.0576552], [-95.8133847, 36.0578207]]]}, "properties": {"osm_id": 479874279, "building": "yes", "name": "", "height": null, "height_m": null, "levels": null, "tract_id": "40143007415", "tract_name": "74.15", "tags": {"building": "yes"}}}, {"type": "Feature", "geometry": {"type": "Polygon", "coordinates": [[[-95.8126495, 36.0576201], [-95.8126446, 36.0576201], [-95.8120444, 36.0576185], [-95.8120454, 36.0573905], [-95.812368, 36.0573917], [-95.8123699, 36.0571736], [-95.8126526, 36.0571745], [-95.8126495, 36.0576201]]]}, "properties": {"osm_id": 479874280, "building": "industrial", "name": "", "height": null, "height_m": null, "levels": null, "tract_id": "40143007415", "tract_name": "74.15", "tags": {"addr:housenumber": "602", "addr:street": "North Redbud Avenue", "building": "industrial"}}}, {"type": "Feature", "geometry": {"type": "Polygon", "coordinates": [[[-95.811496, 36.056584], [-95.8110291, 36.0565839], [-95.8110291, 36.0564181], [-95.8114961, 36.0564182], [-95.811496, 36.056584]]]}, "properties": {"osm_id": 479874281, "building": "industrial", "name": "", "height": null, "height_m": null, "levels": null, "tract_id": "40143007415", "tract_name": "74.15", "tags": {"addr:housenumber": "409", "addr:street": "North Redbud Avenue", "building": "industrial"}}}, {"type": "Feature", "geometry": {"type": "Polygon", "coordinates": [[[-95.8114952, 36.056724], [-95.8114941, 36.0568614], [-95.8110891, 36.0568593], [-95.8110902, 36.0567218], [-95.8114952, 36.056724]]]}, "properties": {"osm_id": 479874282, "building": "industrial", "name": "Temperature Controllers Incorporated", "height": null, "height_m": null, "levels": null, "tract_id": "40143007415", "tract_name": "74.15", "tags": {"addr:street": "North Redbud Avenue", "building": "industrial", "name": "Temperature Controllers Incorporated"}}}, {"type": "Feature", "geometry": {"type": "Polygon", "coordinates": [[[-95.8088416, 36.0570853], [-95.8080424, 36.0570793], [-95.8080456, 36.0568014], [-95.8088448, 36.0568073], [-95.8088416, 36.0570853]]]}, "properties": {"osm_id": 479874283, "building": "warehouse", "name": "Big Red Fasteners", "height": null, "height_m": null, "levels": null, "tract_id": "40143007415", "tract_name": "74.15", "tags": {"addr:city": "Broken Arrow", "addr:housenumber": "489", "addr:postcode": "74012", "addr:state": "OK", "addr:street": "North Poplar Avenue", "building": "warehouse", "name": "Big Red Fasteners", "shop": "hardware"}}}, {"type": "Feature", "geometry": {"type": "Polygon", "coordinates": [[[-95.8095376, 36.0568789], [-95.8095435, 36.0570937], [-95.8093987, 36.0570963], [-95.8093928, 36.0568815], [-95.8095376, 36.0568789]]]}, "properties": {"osm_id": 479874285, "building": "commercial", "name": "The Wheel Shop", "height": null, "height_m": null, "levels": null, "tract_id": "40143007415", "tract_name": "74.15", "tags": {"addr:housenumber": "501", "addr:street": "North Redbud Avenue", "addr:unit": "H", "building": "commercial", "name": "The Wheel Shop", "phone": "+1-918-438-1298", "shop": "car_parts"}}}, {"type": "Feature", "geometry": {"type": "Polygon", "coordinates": [[[-95.8098149, 36.0568817], [-95.809812, 36.0570921], [-95.8096664, 36.0570908], [-95.8096693, 36.0568804], [-95.8098149, 36.0568817]]]}, "properties": {"osm_id": 479874286, "building": "commercial", "name": "", "height": null, "height_m": null, "levels": null, "tract_id": "40143007415", "tract_name": "74.15", "tags": {"addr:housenumber": "501", "addr:street": "North Redbud Avenue", "addr:unit": "G", "building": "commercial"}}}, {"type": "Feature", "geometry": {"type": "Polygon", "coordinates": [[[-95.8099402, 36.0568796], [-95.8100824, 36.0568796], [-95.8100824, 36.0570942], [-95.8099402, 36.0570942], [-95.8099402, 36.0568796]]]}, "properties": {"osm_id": 479874287, "building": "commercial", "name": "", "height": null, "height_m": null, "levels": null, "tract_id": "40143007415", "tract_name": "74.15", "tags": {"addr:housenumber": "501", "addr:street": "North Redbud Avenue", "addr:unit": "F", "building": "commercial"}}}, {"type": "Feature", "geometry": {"type": "Polygon", "coordinates": [[[-95.8102151, 36.0568866], [-95.8103482, 36.0568883], [-95.8103441, 36.0570954], [-95.8102111, 36.0570937], [-95.8102151, 36.0568866]]]}, "properties": {"osm_id": 479874288, "building": "commercial", "name": "", "height": null, "height_m": null, "levels": null, "tract_id": "40143007415", "tract_name": "74.15", "tags": {"addr:housenumber": "501", "addr:street": "North Redbud Avenue", "addr:unit": "E", "building": "commercial"}}}, {"type": "Feature", "geometry": {"type": "Polygon", "coordinates": [[[-95.8107905, 36.056885], [-95.8107945, 36.0570986], [-95.8106662, 36.0571002], [-95.8106622, 36.0568866], [-95.8107905, 36.056885]]]}, "properties": {"osm_id": 479874289, "building": "commercial", "name": "", "height": null, "height_m": null, "levels": null, "tract_id": "40143007415", "tract_name": "74.15", "tags": {"addr:housenumber": "501", "addr:street": "North Redbud Avenue", "addr:unit": "D", "building": "commercial"}}}, {"type": "Feature", "geometry": {"type": "Polygon", "coordinates": [[[-95.8110587, 36.0568839], [-95.811056, 36.0570975], [-95.8109256, 36.0570964], [-95.8109283, 36.0568828], [-95.8110587, 36.0568839]]]}, "properties": {"osm_id": 479874290, "building": "commercial", "name": "", "height": null, "height_m": null, "levels": null, "tract_id": "40143007415", "tract_name": "74.15", "tags": {"addr:housenumber": "501", "addr:street": "North Redbud Avenue", "addr:unit": "C", "building": "commercial"}}}, {"type": "Feature", "geometry": {"type": "Polygon", "coordinates": [[[-95.811225, 36.0568893], [-95.811225, 36.057091], [-95.8110895, 36.057091], [-95.8110895, 36.0568893], [-95.811225, 36.0568893]]]}, "properties": {"osm_id": 479874291, "building": "commercial", "name": "", "height": null, "height_m": null, "levels": null, "tract_id": "40143007415", "tract_name": "74.15", "tags": {"addr:housenumber": "501", "addr:street": "North Redbud Avenue", "addr:unit": "B", "building": "commercial"}}}, {"type": "Feature", "geometry": {"type": "Polygon", "coordinates": [[[-95.8113564, 36.0568893], [-95.8114972, 36.0568899], [-95.8114959, 36.057097], [-95.8113551, 36.0570964], [-95.8113564, 36.0568893]]]}, "properties": {"osm_id": 479874292, "building": "commercial", "name": "", "height": null, "height_m": null, "levels": null, "tract_id": "40143007415", "tract_name": "74.15", "tags": {"addr:housenumber": "501", "addr:street": "North Redbud Avenue", "addr:unit": "A", "building": "commercial"}}}, {"type": "Feature", "geometry": {"type": "Polygon", "coordinates": [[[-95.811364, 36.0574012], [-95.8114984, 36.0574017], [-95.8114969, 36.0576779], [-95.8113626, 36.0576774], [-95.811364, 36.0574012]]]}, "properties": {"osm_id": 479874293, "building": "commercial", "name": "", "height": null, "height_m": null, "levels": null, "tract_id": "40143007415", "tract_name": "74.15", "tags": {"addr:housenumber": "509", "addr:street": "North Redbud Avenue", "addr:unit": "A", "building": "commercial"}}}, {"type": "Feature", "geometry": {"type": "Polygon", "coordinates": [[[-95.809536, 36.0573947], [-95.8095352, 36.0576722], [-95.809398, 36.057672], [-95.8093988, 36.0573944], [-95.809536, 36.0573947]]]}, "properties": {"osm_id": 479874297, "building": "commercial", "name": "", "height": null, "height_m": null, "levels": null, "tract_id": "40143007415", "tract_name": "74.15", "tags": {"addr:housenumber": "509", "addr:street": "North Redbud Avenue", "addr:unit": "H", "building": "commercial"}}}, {"type": "Feature", "geometry": {"type": "Polygon", "coordinates": [[[-95.8098145, 36.0573978], [-95.809814, 36.0576731], [-95.8096771, 36.057673], [-95.8096775, 36.0573977], [-95.8097064, 36.0573977], [-95.8097808, 36.0573978], [-95.8098145, 36.0573978]]]}, "properties": {"osm_id": 479874298, "building": "commercial", "name": "Continental Battery Center", "height": null, "height_m": null, "levels": null, "tract_id": "40143007415", "tract_name": "74.15", "tags": {"addr:housenumber": "509", "addr:street": "North Redbud Avenue", "addr:unit": "G", "building": "commercial", "name": "Continental Battery Center"}}}, {"type": "Feature", "geometry": {"type": "Polygon", "coordinates": [[[-95.8100876, 36.0573969], [-95.8100861, 36.0576713], [-95.8099477, 36.0576708], [-95.8099492, 36.0573965], [-95.8100876, 36.0573969]]]}, "properties": {"osm_id": 479874299, "building": "commercial", "name": "", "height": null, "height_m": null, "levels": null, "tract_id": "40143007415", "tract_name": "74.15", "tags": {"addr:housenumber": "509", "addr:street": "North Redbud Avenue", "addr:unit": "F", "building": "commercial"}}}, {"type": "Feature", "geometry": {"type": "Polygon", "coordinates": [[[-95.8102208, 36.0573954], [-95.810358, 36.0573956], [-95.8103575, 36.0576723], [-95.8102203, 36.0576721], [-95.8102208, 36.0573954]]]}, "properties": {"osm_id": 479874300, "building": "commercial", "name": "", "height": null, "height_m": null, "levels": null, "tract_id": "40143007415", "tract_name": "74.15", "tags": {"addr:housenumber": "509", "addr:street": "North Redbud Avenue", "addr:unit": "E", "building": "commercial"}}}, {"type": "Feature", "geometry": {"type": "Polygon", "coordinates": [[[-95.8080694, 36.0573815], [-95.8076053, 36.0573815], [-95.8076053, 36.0571951], [-95.8080694, 36.0571951], [-95.8080694, 36.0573815]]]}, "properties": {"osm_id": 479874301, "building": "yes", "name": "", "height": null, "height_m": null, "levels": null, "tract_id": "40143007415", "tract_name": "74.15", "tags": {"building": "yes"}}}, {"type": "Feature", "geometry": {"type": "Polygon", "coordinates": [[[-95.8081793, 36.0576526], [-95.8076992, 36.0576591], [-95.8076956, 36.0574834], [-95.8081757, 36.0574769], [-95.8081793, 36.0576526]]]}, "properties": {"osm_id": 479874302, "building": "yes", "name": "", "height": null, "height_m": null, "levels": null, "tract_id": "40143007415", "tract_name": "74.15", "tags": {"building": "yes"}}}, {"type": "Feature", "geometry": {"type": "Polygon", "coordinates": [[[-95.8087587, 36.0576613], [-95.8082866, 36.0576613], [-95.8082866, 36.0574596], [-95.8087587, 36.0574596], [-95.8087587, 36.0576613]]]}, "properties": {"osm_id": 479874303, "building": "yes", "name": "", "height": null, "height_m": null, "levels": null, "tract_id": "40143007415", "tract_name": "74.15", "tags": {"building": "yes"}}}, {"type": "Feature", "geometry": {"type": "Polygon", "coordinates": [[[-95.8087506, 36.0573729], [-95.8081954, 36.0573794], [-95.8081919, 36.057182], [-95.8087471, 36.0571755], [-95.8087506, 36.0573729]]]}, "properties": {"osm_id": 479874304, "building": "yes", "name": "", "height": null, "height_m": null, "levels": null, "tract_id": "40143007415", "tract_name": "74.15", "tags": {"building": "yes"}}}, {"type": "Feature", "geometry": {"type": "Polygon", "coordinates": [[[-95.8090231, 36.058353], [-95.8090942, 36.0583961], [-95.8091598, 36.0583255], [-95.8093576, 36.0584455], [-95.8092906, 36.0585176], [-95.809363, 36.0585616], [-95.8091669, 36.0587727], [-95.8092692, 36.0588348], [-95.8090709, 36.0590482], [-95.8086274, 36.058779], [-95.8090231, 36.058353]]]}, "properties": {"osm_id": 479874305, "building": "industrial", "name": "Hampton's Kustom Works", "height": null, "height_m": null, "levels": null, "tract_id": "40143007415", "tract_name": "74.15", "tags": {"building": "industrial", "name": "Hampton's Kustom Works"}}}, {"type": "Feature", "geometry": {"type": "Polygon", "coordinates": [[[-95.8104579, 36.0594285], [-95.8106219, 36.0592517], [-95.8110242, 36.0594956], [-95.8108602, 36.0596724], [-95.8104579, 36.0594285]]]}, "properties": {"osm_id": 479874306, "building": "yes", "name": "", "height": null, "height_m": null, "levels": null, "tract_id": "40143007415", "tract_name": "74.15", "tags": {"building": "yes"}}}, {"type": "Feature", "geometry": {"type": "Polygon", "coordinates": [[[-95.8111096, 36.0594778], [-95.8111823, 36.0595217], [-95.8108537, 36.0598773], [-95.8107811, 36.0598334], [-95.8111096, 36.0594778]]]}, "properties": {"osm_id": 479874307, "building": "yes", "name": "", "height": null, "height_m": null, "levels": null, "tract_id": "40143007415", "tract_name": "74.15", "tags": {"building": "yes"}}}, {"type": "Feature", "geometry": {"type": "Polygon", "coordinates": [[[-95.8114489, 36.0596095], [-95.8110439, 36.0600475], [-95.8109163, 36.0599704], [-95.8113213, 36.0595324], [-95.8114489, 36.0596095]]]}, "properties": {"osm_id": 479874308, "building": "yes", "name": "", "height": null, "height_m": null, "levels": null, "tract_id": "40143007415", "tract_name": "74.15", "tags": {"building": "yes"}}}, {"type": "Feature", "geometry": {"type": "Polygon", "coordinates": [[[-95.8117279, 36.0601603], [-95.8112531, 36.0601516], [-95.8112585, 36.0599593], [-95.8117333, 36.059968], [-95.8117279, 36.0601603]]]}, "properties": {"osm_id": 479874309, "building": "yes", "name": "", "height": null, "height_m": null, "levels": null, "tract_id": "40143007415", "tract_name": "74.15", "tags": {"building": "yes"}}}, {"type": "Feature", "geometry": {"type": "Polygon", "coordinates": [[[-95.812682, 36.0601369], [-95.8123468, 36.0601413], [-95.8123435, 36.059976], [-95.8126788, 36.0599717], [-95.8126796, 36.060013], [-95.8126812, 36.0600956], [-95.812682, 36.0601369]]]}, "properties": {"osm_id": 479874310, "building": "commercial", "name": "", "height": null, "height_m": null, "levels": null, "tract_id": "40143007415", "tract_name": "74.15", "tags": {"addr:housenumber": "807", "addr:street": "North Sycamore Avenue", "building": "commercial"}}}, {"type": "Feature", "geometry": {"type": "Polygon", "coordinates": [[[-95.8120927, 36.0596171], [-95.812098, 36.0601527], [-95.8118195, 36.0601545], [-95.8118142, 36.0596189], [-95.8120927, 36.0596171]]]}, "properties": {"osm_id": 479874311, "building": "yes", "name": "", "height": null, "height_m": null, "levels": null, "tract_id": "40143007415", "tract_name": "74.15", "tags": {"building": "yes"}}}, {"type": "Feature", "geometry": {"type": "Polygon", "coordinates": [[[-95.8149369, 36.0606027], [-95.8143934, 36.0606076], [-95.8143908, 36.0604151], [-95.8149342, 36.0604102], [-95.8149369, 36.0606027]]]}, "properties": {"osm_id": 479874312, "building": "yes", "name": "Arvest Bank", "height": null, "height_m": null, "levels": null, "tract_id": "40143007415", "tract_name": "74.15", "tags": {"amenity": "bank", "brand": "Arvest Bank", "brand:wikidata": "Q4802393", "building": "yes", "name": "Arvest Bank"}}}, {"type": "Feature", "geometry": {"type": "Polygon", "coordinates": [[[-95.798414, 36.0605381], [-95.7981277, 36.0605397], [-95.7981263, 36.060373], [-95.7984126, 36.0603714], [-95.798414, 36.0605381]]]}, "properties": {"osm_id": 483129113, "building": "retail", "name": "McDonald's", "height": null, "height_m": null, "levels": null, "tract_id": "40143007415", "tract_name": "74.15", "tags": {"addr:city": "Broken Arrow", "addr:housenumber": "830", "addr:postcode": "74012", "addr:state": "OK", "addr:street": "North Elm Place", "air_conditioning": "yes", "amenity": "fast_food", "brand": "McDonald's", "brand:wikidata": "Q38076", "building": "retail", "check_date": "2023-07-16", "cuisine": "burger", "drive_through": "yes", "internet_access": "wlan", "name": "McDonald's", "opening_hours": "05:00-23:00", "phone": "+1 918-251-6110", "takeaway": "yes", "website": "https://www.mcdonalds.com/us/en-us/location/3054.html", "wheelchair": "yes"}}}, {"type": "Feature", "geometry": {"type": "Polygon", "coordinates": [[[-95.8028768, 36.0590202], [-95.8024289, 36.0590224], [-95.8024277, 36.0588642], [-95.8028756, 36.058862], [-95.8028768, 36.0590202]]]}, "properties": {"osm_id": 483129178, "building": "yes", "name": "", "height": null, "height_m": null, "levels": null, "tract_id": "40143007415", "tract_name": "74.15", "tags": {"building": "yes"}}}, {"type": "Feature", "geometry": {"type": "Polygon", "coordinates": [[[-95.8051778, 36.0587924], [-95.805847, 36.0587913], [-95.8058476, 36.0590168], [-95.8058577, 36.0590168], [-95.8058578, 36.0590634], [-95.8058322, 36.0590635], [-95.8058327, 36.0592681], [-95.8057692, 36.0592682], [-95.8057692, 36.0592791], [-95.8057142, 36.0592792], [-95.8057142, 36.0592683], [-95.8053106, 36.0592689], [-95.8053106, 36.0592781], [-95.8052569, 36.0592782], [-95.8052569, 36.059269], [-95.8051916, 36.0592691], [-95.8051911, 36.0590623], [-95.8051685, 36.0590624], [-95.8051683, 36.0590179], [-95.8051783, 36.0590179], [-95.8051778, 36.0587924]]]}, "properties": {"osm_id": 483129214, "building": "yes", "name": "", "height": null, "height_m": null, "levels": null, "tract_id": "40143007415", "tract_name": "74.15", "tags": {"building": "yes"}}}, {"type": "Feature", "geometry": {"type": "Polygon", "coordinates": [[[-95.8051905, 36.0594234], [-95.8052576, 36.0594233], [-95.8052576, 36.0594137], [-95.8053112, 36.0594136], [-95.8053112, 36.0594232], [-95.8057095, 36.0594225], [-95.8057095, 36.0594104], [-95.8057699, 36.0594103], [-95.8057699, 36.0594224], [-95.8058369, 36.0594223], [-95.8058375, 36.059624], [-95.8058624, 36.0596239], [-95.8058625, 36.0596695], [-95.8058504, 36.0596695], [-95.8058508, 36.0598341], [-95.8056895, 36.0598343], [-95.8056894, 36.0598181], [-95.8054279, 36.0598185], [-95.8054279, 36.0598342], [-95.8051816, 36.0598347], [-95.8051812, 36.0596717], [-95.8051678, 36.0596717], [-95.8051677, 36.0596262], [-95.805191, 36.0596261], [-95.8051905, 36.0594234]]]}, "properties": {"osm_id": 483129215, "building": "yes", "name": "", "height": null, "height_m": null, "levels": null, "tract_id": "40143007415", "tract_name": "74.15", "tags": {"building": "yes"}}}, {"type": "Feature", "geometry": {"type": "Polygon", "coordinates": [[[-95.8067197, 36.0588184], [-95.8067172, 36.0594212], [-95.8069156, 36.0594218], [-95.806915, 36.0595497], [-95.8069026, 36.0595497], [-95.8069007, 36.0599848], [-95.8066403, 36.059984], [-95.8066402, 36.0599937], [-95.8064308, 36.0599931], [-95.8064316, 36.0597845], [-95.8063801, 36.0597843], [-95.8063817, 36.0594206], [-95.806592, 36.0594212], [-95.8065946, 36.0588181], [-95.8067197, 36.0588184]]]}, "properties": {"osm_id": 483129216, "building": "yes", "name": "", "height": null, "height_m": null, "levels": null, "tract_id": "40143007415", "tract_name": "74.15", "tags": {"building": "yes"}}}, {"type": "Feature", "geometry": {"type": "Polygon", "coordinates": [[[-95.8064163, 36.060307], [-95.8065085, 36.0603072], [-95.8065086, 36.060276], [-95.8065663, 36.0602762], [-95.8065662, 36.0603074], [-95.8067553, 36.0603079], [-95.8067554, 36.0602814], [-95.8069056, 36.0602818], [-95.8069054, 36.0603341], [-95.8068799, 36.0603341], [-95.8068795, 36.060423], [-95.8069368, 36.0604231], [-95.8069365, 36.0604828], [-95.8068793, 36.0604826], [-95.8068789, 36.0605704], [-95.8069032, 36.0605705], [-95.806903, 36.0606227], [-95.8067569, 36.0606223], [-95.806757, 36.060598], [-95.8066765, 36.0605978], [-95.8066763, 36.0606334], [-95.8066093, 36.0606333], [-95.8066094, 36.0605976], [-95.8065384, 36.0605974], [-95.8065383, 36.0606217], [-95.806415, 36.0606214], [-95.8064163, 36.060307]]]}, "properties": {"osm_id": 483129217, "building": "yes", "name": "", "height": null, "height_m": null, "levels": null, "tract_id": "40143007415", "tract_name": "74.15", "tags": {"building": "yes"}}}, {"type": "Feature", "geometry": {"type": "Polygon", "coordinates": [[[-95.8036498, 36.0566161], [-95.8040796, 36.0568796], [-95.8039532, 36.0570143], [-95.8038972, 36.05698], [-95.803385, 36.057526], [-95.8029577, 36.0572641], [-95.8032188, 36.0569857], [-95.8032723, 36.0570186], [-95.8036498, 36.0566161]]]}, "properties": {"osm_id": 483129589, "building": "yes", "name": "", "height": null, "height_m": null, "levels": null, "tract_id": "40143007415", "tract_name": "74.15", "tags": {"building": "yes"}}}, {"type": "Feature", "geometry": {"type": "Polygon", "coordinates": [[[-95.8039905, 36.0572371], [-95.8043056, 36.0574311], [-95.8041806, 36.0575637], [-95.8042002, 36.0575758], [-95.8042581, 36.0576114], [-95.804197, 36.0576763], [-95.8041424, 36.0576427], [-95.8041195, 36.0576285], [-95.8040441, 36.0577086], [-95.803729, 36.0575146], [-95.8039905, 36.0572371]]]}, "properties": {"osm_id": 483129595, "building": "yes", "name": "", "height": null, "height_m": null, "levels": null, "tract_id": "40143007415", "tract_name": "74.15", "tags": {"building": "yes"}}}, {"type": "Feature", "geometry": {"type": "Polygon", "coordinates": [[[-95.8037505, 36.0575667], [-95.8039973, 36.0577129], [-95.8038559, 36.0578689], [-95.8038971, 36.0578933], [-95.8038514, 36.0579438], [-95.8038273, 36.0579296], [-95.8036906, 36.0580805], [-95.8036636, 36.0580645], [-95.8036308, 36.0581007], [-95.8033937, 36.0579602], [-95.8037505, 36.0575667]]]}, "properties": {"osm_id": 483129597, "building": "yes", "name": "", "height": null, "height_m": null, "levels": null, "tract_id": "40143007415", "tract_name": "74.15", "tags": {"building": "yes"}}}, {"type": "Feature", "geometry": {"type": "Polygon", "coordinates": [[[-95.80407, 36.0583229], [-95.8046359, 36.0583218], [-95.804636, 36.0583337], [-95.8047204, 36.0583336], [-95.8047206, 36.0584031], [-95.8050569, 36.0584025], [-95.805057, 36.0584405], [-95.8050767, 36.0584405], [-95.8050769, 36.0585001], [-95.8050572, 36.0585001], [-95.8050573, 36.0585368], [-95.8048864, 36.0585371], [-95.8048865, 36.0585564], [-95.80481, 36.0585565], [-95.80481, 36.0585373], [-95.8046871, 36.0585375], [-95.8046869, 36.0584822], [-95.8046364, 36.0584822], [-95.8046366, 36.0585352], [-95.8044348, 36.0585356], [-95.8044349, 36.0585591], [-95.8043383, 36.0585592], [-95.8043382, 36.0585358], [-95.8040706, 36.0585363], [-95.80407, 36.0583229]]]}, "properties": {"osm_id": 483129598, "building": "yes", "name": "", "height": null, "height_m": null, "levels": null, "tract_id": "40143007415", "tract_name": "74.15", "tags": {"building": "yes"}}}, {"type": "Feature", "geometry": {"type": "Polygon", "coordinates": [[[-95.7978193, 36.0548644], [-95.7977214, 36.0548644], [-95.7977214, 36.0548221], [-95.7978193, 36.0548221], [-95.7978193, 36.0548644]]]}, "properties": {"osm_id": 504111239, "building": "yes", "name": "", "height": null, "height_m": null, "levels": null, "tract_id": "40143007415", "tract_name": "74.15", "tags": {"building": "yes"}}}, {"type": "Feature", "geometry": {"type": "Polygon", "coordinates": [[[-95.7982016, 36.0548286], [-95.7979213, 36.0548319], [-95.7979188, 36.0546933], [-95.7981991, 36.05469], [-95.7982016, 36.0548286]]]}, "properties": {"osm_id": 504111240, "building": "yes", "name": "", "height": null, "height_m": null, "levels": null, "tract_id": "40143007415", "tract_name": "74.15", "tags": {"building": "yes"}}}, {"type": "Feature", "geometry": {"type": "Polygon", "coordinates": [[[-95.8113988, 36.0492139], [-95.8113424, 36.0491606], [-95.8112815, 36.0492027], [-95.8113379, 36.049256], [-95.8113988, 36.0492139]]]}, "properties": {"osm_id": 504247026, "building": "gazebo", "name": "", "height": null, "height_m": null, "levels": null, "tract_id": "40143007415", "tract_name": "74.15", "tags": {"building": "gazebo"}}}, {"type": "Feature", "geometry": {"type": "Polygon", "coordinates": [[[-95.8149705, 36.0540937], [-95.8149721, 36.0537784], [-95.8144853, 36.0537769], [-95.8144837, 36.0540921], [-95.8149705, 36.0540937]]]}, "properties": {"osm_id": 566860192, "building": "commercial", "name": "", "height": null, "height_m": null, "levels": null, "tract_id": "40143007415", "tract_name": "74.15", "tags": {"building": "commercial"}}}, {"type": "Feature", "geometry": {"type": "Polygon", "coordinates": [[[-95.8143691, 36.0540983], [-95.8143728, 36.0537606], [-95.8141923, 36.0537593], [-95.8141886, 36.054097], [-95.8143691, 36.0540983]]]}, "properties": {"osm_id": 566860193, "building": "yes", "name": "", "height": null, "height_m": null, "levels": null, "tract_id": "40143007415", "tract_name": "74.15", "tags": {"building": "yes"}}}, {"type": "Feature", "geometry": {"type": "Polygon", "coordinates": [[[-95.8139956, 36.0540939], [-95.8139968, 36.053787], [-95.8138243, 36.0537866], [-95.8138231, 36.0540935], [-95.8139956, 36.0540939]]]}, "properties": {"osm_id": 566860194, "building": "yes", "name": "", "height": null, "height_m": null, "levels": null, "tract_id": "40143007415", "tract_name": "74.15", "tags": {"building": "yes"}}}, {"type": "Feature", "geometry": {"type": "Polygon", "coordinates": [[[-95.8137597, 36.0539876], [-95.8137597, 36.0537599], [-95.8135152, 36.0537599], [-95.8135152, 36.0540906], [-95.8136889, 36.0540906], [-95.8136889, 36.0539876], [-95.8137597, 36.0539876]]]}, "properties": {"osm_id": 566860195, "building": "yes", "name": "", "height": null, "height_m": null, "levels": null, "tract_id": "40143007415", "tract_name": "74.15", "tags": {"building": "yes"}}}, {"type": "Feature", "geometry": {"type": "Polygon", "coordinates": [[[-95.8133571, 36.0540921], [-95.8133578, 36.053932], [-95.8134058, 36.0539321], [-95.8134063, 36.0538071], [-95.8133495, 36.0538069], [-95.8133497, 36.0537594], [-95.8131267, 36.0537588], [-95.813126, 36.0539253], [-95.8131844, 36.0539255], [-95.8131837, 36.0540916], [-95.8133571, 36.0540921]]]}, "properties": {"osm_id": 566860196, "building": "yes", "name": "", "height": null, "height_m": null, "levels": null, "tract_id": "40143007415", "tract_name": "74.15", "tags": {"building": "yes"}}}, {"type": "Feature", "geometry": {"type": "Polygon", "coordinates": [[[-95.8130542, 36.0539306], [-95.8130542, 36.0537579], [-95.8128252, 36.0537579], [-95.8128252, 36.054095], [-95.8129972, 36.054095], [-95.8129972, 36.0539306], [-95.8130542, 36.0539306]]]}, "properties": {"osm_id": 566860197, "building": "yes", "name": "", "height": null, "height_m": null, "levels": null, "tract_id": "40143007415", "tract_name": "74.15", "tags": {"building": "yes"}}}, {"type": "Feature", "geometry": {"type": "Polygon", "coordinates": [[[-95.8126273, 36.0540961], [-95.8126289, 36.0537642], [-95.8124548, 36.0537637], [-95.8124532, 36.0540956], [-95.8126273, 36.0540961]]]}, "properties": {"osm_id": 566860198, "building": "yes", "name": "", "height": null, "height_m": null, "levels": null, "tract_id": "40143007415", "tract_name": "74.15", "tags": {"building": "yes"}}}, {"type": "Feature", "geometry": {"type": "Polygon", "coordinates": [[[-95.812271, 36.0540995], [-95.8122705, 36.0537676], [-95.8120979, 36.0537678], [-95.8120985, 36.0540997], [-95.812271, 36.0540995]]]}, "properties": {"osm_id": 566860199, "building": "commercial", "name": "", "height": null, "height_m": null, "levels": null, "tract_id": "40143007415", "tract_name": "74.15", "tags": {"building": "commercial"}}}, {"type": "Feature", "geometry": {"type": "Polygon", "coordinates": [[[-95.8119322, 36.0540971], [-95.8119322, 36.0537658], [-95.811755, 36.0537658], [-95.811755, 36.0540971], [-95.8119322, 36.0540971]]]}, "properties": {"osm_id": 566860200, "building": "commercial", "name": "", "height": null, "height_m": null, "levels": null, "tract_id": "40143007415", "tract_name": "74.15", "tags": {"building": "commercial"}}}, {"type": "Feature", "geometry": {"type": "Polygon", "coordinates": [[[-95.8098404, 36.055199], [-95.8097849, 36.0551464], [-95.8098887, 36.0550749], [-95.8099442, 36.0551274], [-95.8098404, 36.055199]]]}, "properties": {"osm_id": 746459612, "building": "yes", "name": "", "height": null, "height_m": null, "levels": null, "tract_id": "40143007415", "tract_name": "74.15", "tags": {"building": "yes"}}}, {"type": "Feature", "geometry": {"type": "Polygon", "coordinates": [[[-95.8097687, 36.0552749], [-95.8097037, 36.0552133], [-95.8097559, 36.0551773], [-95.8098209, 36.0552389], [-95.8097687, 36.0552749]]]}, "properties": {"osm_id": 746459613, "building": "yes", "name": "", "height": null, "height_m": null, "levels": null, "tract_id": "40143007415", "tract_name": "74.15", "tags": {"building": "yes"}}}, {"type": "Feature", "geometry": {"type": "Polygon", "coordinates": [[[-95.8098464, 36.0550358], [-95.8096284, 36.0551863], [-95.809667, 36.0552228], [-95.8095903, 36.0552757], [-95.8095517, 36.0552392], [-95.8095353, 36.0552505], [-95.8094013, 36.0551236], [-95.8097125, 36.0549089], [-95.8098464, 36.0550358]]]}, "properties": {"osm_id": 746459614, "building": "yes", "name": "Bouse Fur House", "height": null, "height_m": null, "levels": null, "tract_id": "40143007415", "tract_name": "74.15", "tags": {"addr:city": "Broken Arrow", "addr:housenumber": "1900", "addr:postcode": "74012", "addr:state": "OK", "addr:street": "West Detroit Street", "amenity": "animal_boarding", "animal_boarding": "yes;cat;dog;ferret;rabbit;small_dog;small_horse;small_fish", "building": "yes", "description": "Pet boarding and daycare facility, including outdoor fields and indoor play yards. Services include grooming, bathing, and nail trims.", "name": "Bouse Fur House", "opening_hours": "Mo-Sa 07:00-19:00; Su 10:00-17:00", "phone": "+19188935695", "website": "https://bousefurhouse.com/"}}}, {"type": "Feature", "geometry": {"type": "Polygon", "coordinates": [[[-95.798564, 36.049438], [-95.7985604, 36.0489966], [-95.7984047, 36.0489995], [-95.7984065, 36.0494402], [-95.798564, 36.049438]]]}, "properties": {"osm_id": 804416589, "building": "yes", "name": "", "height": null, "height_m": null, "levels": null, "tract_id": "40143007415", "tract_name": "74.15", "tags": {"building": "yes"}}}, {"type": "Feature", "geometry": {"type": "Polygon", "coordinates": [[[-95.7981886, 36.0490154], [-95.7981873, 36.049127], [-95.7980149, 36.0491257], [-95.7980143, 36.0491717], [-95.797899, 36.0491708], [-95.7978996, 36.0491253], [-95.7978216, 36.0491247], [-95.7978232, 36.0489872], [-95.7980119, 36.0489887], [-95.7980116, 36.049014], [-95.7981886, 36.0490154]]]}, "properties": {"osm_id": 804416590, "building": "yes", "name": "", "height": null, "height_m": null, "levels": null, "tract_id": "40143007415", "tract_name": "74.15", "tags": {"building": "yes"}}}, {"type": "Feature", "geometry": {"type": "Polygon", "coordinates": [[[-95.8047365, 36.0480481], [-95.8047367, 36.0479464], [-95.8045698, 36.0479461], [-95.8045696, 36.0480478], [-95.8047365, 36.0480481]]]}, "properties": {"osm_id": 834330544, "building": "yes", "name": "", "height": null, "height_m": null, "levels": null, "tract_id": "40143007415", "tract_name": "74.15", "tags": {"building": "yes"}}}, {"type": "Feature", "geometry": {"type": "Polygon", "coordinates": [[[-95.8047052, 36.0481639], [-95.8047064, 36.0480727], [-95.8046141, 36.0480719], [-95.8046129, 36.0481631], [-95.8047052, 36.0481639]]]}, "properties": {"osm_id": 834330545, "building": "yes", "name": "", "height": null, "height_m": null, "levels": null, "tract_id": "40143007415", "tract_name": "74.15", "tags": {"building": "yes"}}}, {"type": "Feature", "geometry": {"type": "Polygon", "coordinates": [[[-95.804393, 36.0481886], [-95.8043917, 36.0481047], [-95.8043077, 36.0481052], [-95.8043083, 36.0481886], [-95.804393, 36.0481886]]]}, "properties": {"osm_id": 834330546, "building": "yes", "name": "", "height": null, "height_m": null, "levels": null, "tract_id": "40143007415", "tract_name": "74.15", "tags": {"building": "yes"}}}, {"type": "Feature", "geometry": {"type": "Polygon", "coordinates": [[[-95.7993373, 36.0497969], [-95.7993385, 36.0499761], [-95.7995497, 36.0499751], [-95.7995485, 36.0497943], [-95.799476, 36.0497946], [-95.7994762, 36.0498284], [-95.7994555, 36.0498285], [-95.7994557, 36.0498509], [-95.7994322, 36.049851], [-95.7994321, 36.0498299], [-95.7994078, 36.04983], [-95.7994075, 36.0497966], [-95.7993373, 36.0497969]]]}, "properties": {"osm_id": 840243758, "building": "yes", "name": "", "height": null, "height_m": null, "levels": null, "tract_id": "40143007415", "tract_name": "74.15", "tags": {"building": "yes"}}}, {"type": "Feature", "geometry": {"type": "Polygon", "coordinates": [[[-95.7990687, 36.0497971], [-95.7990699, 36.0499762], [-95.7992811, 36.0499753], [-95.7992799, 36.0497945], [-95.7992074, 36.0497948], [-95.7992076, 36.0498286], [-95.7991869, 36.0498287], [-95.799187, 36.049851], [-95.7991636, 36.0498511], [-95.7991634, 36.0498301], [-95.7991391, 36.0498302], [-95.7991389, 36.0497968], [-95.7990687, 36.0497971]]]}, "properties": {"osm_id": 840243759, "building": "yes", "name": "", "height": null, "height_m": null, "levels": null, "tract_id": "40143007415", "tract_name": "74.15", "tags": {"building": "yes"}}}, {"type": "Feature", "geometry": {"type": "Polygon", "coordinates": [[[-95.7987961, 36.0497985], [-95.7987973, 36.0499776], [-95.7990086, 36.0499767], [-95.7990073, 36.0497959], [-95.7989348, 36.0497962], [-95.7989351, 36.04983], [-95.7989144, 36.0498301], [-95.7989145, 36.0498524], [-95.798891, 36.0498525], [-95.7988909, 36.0498315], [-95.7988666, 36.0498316], [-95.7988664, 36.0497982], [-95.7987961, 36.0497985]]]}, "properties": {"osm_id": 840243760, "building": "yes", "name": "", "height": null, "height_m": null, "levels": null, "tract_id": "40143007415", "tract_name": "74.15", "tags": {"building": "yes"}}}, {"type": "Feature", "geometry": {"type": "Polygon", "coordinates": [[[-95.7995833, 36.0499754], [-95.7995829, 36.0499185], [-95.7996182, 36.0499183], [-95.7996186, 36.0499752], [-95.7995833, 36.0499754]]]}, "properties": {"osm_id": 840243761, "building": "yes", "name": "", "height": null, "height_m": null, "levels": null, "tract_id": "40143007415", "tract_name": "74.15", "tags": {"building": "yes"}}}, {"type": "Feature", "geometry": {"type": "Polygon", "coordinates": [[[-95.7998039, 36.0499422], [-95.7997586, 36.0499427], [-95.7997587, 36.0499496], [-95.7997369, 36.0499499], [-95.7997368, 36.0499429], [-95.7996731, 36.0499436], [-95.7996721, 36.0498879], [-95.7996357, 36.0498883], [-95.7996343, 36.0498087], [-95.7996792, 36.0498082], [-95.7996792, 36.0498031], [-95.7997523, 36.0498022], [-95.7997525, 36.0498108], [-95.7997982, 36.0498102], [-95.7997996, 36.0498838], [-95.7998028, 36.0498838], [-95.7998039, 36.0499422]]]}, "properties": {"osm_id": 840243762, "building": "yes", "name": "", "height": null, "height_m": null, "levels": null, "tract_id": "40143007415", "tract_name": "74.15", "tags": {"building": "yes"}}}, {"type": "Feature", "geometry": {"type": "Polygon", "coordinates": [[[-95.7998454, 36.0498835], [-95.7998445, 36.0498084], [-95.7999037, 36.049808], [-95.7999036, 36.0497968], [-95.7999656, 36.0497963], [-95.7999657, 36.0498076], [-95.8000104, 36.0498073], [-95.8000114, 36.0498893], [-95.7999598, 36.0498897], [-95.7999597, 36.0498826], [-95.7998454, 36.0498835]]]}, "properties": {"osm_id": 840243763, "building": "yes", "name": "", "height": null, "height_m": null, "levels": null, "tract_id": "40143007415", "tract_name": "74.15", "tags": {"building": "yes"}}}, {"type": "Feature", "geometry": {"type": "Polygon", "coordinates": [[[-95.8000465, 36.0499011], [-95.8000472, 36.0497963], [-95.8001186, 36.0497967], [-95.8001185, 36.0498183], [-95.8002201, 36.0498187], [-95.8002195, 36.0499023], [-95.8001532, 36.049902], [-95.800153, 36.0499283], [-95.8001237, 36.0499282], [-95.8001238, 36.0499015], [-95.8000465, 36.0499011]]]}, "properties": {"osm_id": 840243764, "building": "yes", "name": "", "height": null, "height_m": null, "levels": null, "tract_id": "40143007415", "tract_name": "74.15", "tags": {"building": "yes"}}}, {"type": "Feature", "geometry": {"type": "Polygon", "coordinates": [[[-95.7999101, 36.0495542], [-95.7997584, 36.0495555], [-95.7997566, 36.0494149], [-95.7998899, 36.0494137], [-95.7998906, 36.0494666], [-95.7998836, 36.0494667], [-95.7998839, 36.049488], [-95.7999093, 36.0494877], [-95.7999101, 36.0495542]]]}, "properties": {"osm_id": 844059078, "building": "yes", "name": "", "height": null, "height_m": null, "levels": null, "tract_id": "40143007415", "tract_name": "74.15", "tags": {"building": "yes"}}}, {"type": "Feature", "geometry": {"type": "Polygon", "coordinates": [[[-95.7999064, 36.0493581], [-95.799713, 36.0493586], [-95.7997126, 36.0492765], [-95.7997639, 36.0492764], [-95.7997636, 36.0492124], [-95.7998759, 36.0492121], [-95.7998763, 36.0492931], [-95.7999061, 36.049293], [-95.7999064, 36.0493581]]]}, "properties": {"osm_id": 844059079, "building": "yes", "name": "", "height": null, "height_m": null, "levels": null, "tract_id": "40143007415", "tract_name": "74.15", "tags": {"building": "yes"}}}, {"type": "Feature", "geometry": {"type": "Polygon", "coordinates": [[[-95.7997307, 36.0490086], [-95.7997319, 36.0491569], [-95.7997824, 36.0491566], [-95.7997824, 36.0491613], [-95.799907, 36.0491606], [-95.7999064, 36.0490893], [-95.7998668, 36.0490895], [-95.7998661, 36.0490079], [-95.7997307, 36.0490086]]]}, "properties": {"osm_id": 844059080, "building": "yes", "name": "", "height": null, "height_m": null, "levels": null, "tract_id": "40143007415", "tract_name": "74.15", "tags": {"building": "yes"}}}, {"type": "Feature", "geometry": {"type": "Polygon", "coordinates": [[[-95.7994687, 36.049116], [-95.7994671, 36.0489332], [-95.7993621, 36.0489337], [-95.7993624, 36.048966], [-95.7993538, 36.048966], [-95.7993548, 36.0490807], [-95.799366, 36.0490807], [-95.7993663, 36.0491166], [-95.7994687, 36.049116]]]}, "properties": {"osm_id": 844059081, "building": "yes", "name": "", "height": null, "height_m": null, "levels": null, "tract_id": "40143007415", "tract_name": "74.15", "tags": {"building": "yes"}}}, {"type": "Feature", "geometry": {"type": "Polygon", "coordinates": [[[-95.7993171, 36.0493334], [-95.7993156, 36.0491506], [-95.7994093, 36.0491501], [-95.7994096, 36.0491823], [-95.7994294, 36.0491822], [-95.7994303, 36.0492969], [-95.7994069, 36.049297], [-95.7994072, 36.0493329], [-95.7993171, 36.0493334]]]}, "properties": {"osm_id": 844059082, "building": "yes", "name": "", "height": null, "height_m": null, "levels": null, "tract_id": "40143007415", "tract_name": "74.15", "tags": {"building": "yes"}}}, {"type": "Feature", "geometry": {"type": "Polygon", "coordinates": [[[-95.799387, 36.0495542], [-95.7993855, 36.0493713], [-95.7992805, 36.0493719], [-95.7992807, 36.0494041], [-95.7992721, 36.0494042], [-95.7992731, 36.0495189], [-95.7992844, 36.0495188], [-95.7992847, 36.0495547], [-95.799387, 36.0495542]]]}, "properties": {"osm_id": 844059083, "building": "yes", "name": "", "height": null, "height_m": null, "levels": null, "tract_id": "40143007415", "tract_name": "74.15", "tags": {"building": "yes"}}}, {"type": "Feature", "geometry": {"type": "Polygon", "coordinates": [[[-95.8005099, 36.0507882], [-95.800783, 36.0507986], [-95.8007868, 36.0507329], [-95.8007011, 36.0507297], [-95.8007029, 36.0506984], [-95.8005156, 36.0506913], [-95.8005099, 36.0507882]]]}, "properties": {"osm_id": 846571679, "building": "yes", "name": "", "height": null, "height_m": null, "levels": null, "tract_id": "40143007415", "tract_name": "74.15", "tags": {"building": "yes"}}}, {"type": "Feature", "geometry": {"type": "Polygon", "coordinates": [[[-95.8005946, 36.0505624], [-95.8005962, 36.0504243], [-95.8007025, 36.0504251], [-95.8007009, 36.0505632], [-95.8005946, 36.0505624]]]}, "properties": {"osm_id": 846571681, "building": "yes", "name": "", "height": null, "height_m": null, "levels": null, "tract_id": "40143007415", "tract_name": "74.15", "tags": {"building": "yes"}}}, {"type": "Feature", "geometry": {"type": "Polygon", "coordinates": [[[-95.7998581, 36.0505337], [-95.7997955, 36.0505306], [-95.7997998, 36.0504732], [-95.7998624, 36.0504762], [-95.7998581, 36.0505337]]]}, "properties": {"osm_id": 846571683, "building": "yes", "name": "", "height": null, "height_m": null, "levels": null, "tract_id": "40143007415", "tract_name": "74.15", "tags": {"building": "yes"}}}, {"type": "Feature", "geometry": {"type": "Polygon", "coordinates": [[[-95.7999134, 36.0502504], [-95.7997435, 36.0502486], [-95.7997409, 36.0504126], [-95.7998342, 36.0504136], [-95.7998351, 36.0503616], [-95.7999116, 36.0503624], [-95.7999134, 36.0502504]]]}, "properties": {"osm_id": 846571684, "building": "yes", "name": "", "height": null, "height_m": null, "levels": null, "tract_id": "40143007415", "tract_name": "74.15", "tags": {"building": "yes"}}}, {"type": "Feature", "geometry": {"type": "Polygon", "coordinates": [[[-95.7994871, 36.0507415], [-95.7994828, 36.0505915], [-95.79962, 36.0505889], [-95.799622, 36.0506604], [-95.7995763, 36.0506612], [-95.7995785, 36.0507398], [-95.7994871, 36.0507415]]]}, "properties": {"osm_id": 846571685, "building": "yes", "name": "", "height": null, "height_m": null, "levels": null, "tract_id": "40143007415", "tract_name": "74.15", "tags": {"building": "yes"}}}, {"type": "Feature", "geometry": {"type": "Polygon", "coordinates": [[[-95.8087516, 36.0554877], [-95.808237, 36.0558455], [-95.8081784, 36.0557904], [-95.8080396, 36.0558869], [-95.8078166, 36.0556774], [-95.8079515, 36.0555835], [-95.8076741, 36.0553229], [-95.808198, 36.0549584], [-95.8083653, 36.0551156], [-95.8084773, 36.0550377], [-95.8086955, 36.0552427], [-95.8085779, 36.0553245], [-95.8087516, 36.0554877]]]}, "properties": {"osm_id": 945665003, "building": "industrial", "name": "Custodial Services and General Services", "height": null, "height_m": null, "levels": null, "tract_id": "40143007415", "tract_name": "74.15", "tags": {"building": "industrial", "name": "Custodial Services and General Services", "operator": "Broken Arrow Schools?"}}}, {"type": "Feature", "geometry": {"type": "Polygon", "coordinates": [[[-95.809782, 36.0541765], [-95.8095474, 36.0543386], [-95.8093044, 36.0541088], [-95.8095389, 36.0539467], [-95.809782, 36.0541765]]]}, "properties": {"osm_id": 945665004, "building": "yes", "name": "Landmark Business Systems", "height": null, "height_m": null, "levels": null, "tract_id": "40143007415", "tract_name": "74.15", "tags": {"addr:city": "Broken Arrow", "addr:housenumber": "1901", "addr:postcode": "74012", "addr:state": "OK", "addr:street": "West Detroit Street", "building": "yes", "name": "Landmark Business Systems", "office": "it"}}}, {"type": "Feature", "geometry": {"type": "Polygon", "coordinates": [[[-95.8101399, 36.0540942], [-95.8099362, 36.0541314], [-95.8098572, 36.0538491], [-95.8100608, 36.0538118], [-95.8101399, 36.0540942]]]}, "properties": {"osm_id": 945665005, "building": "yes", "name": "Broken Arrow Battle Axe", "height": null, "height_m": null, "levels": null, "tract_id": "40143007415", "tract_name": "74.15", "tags": {"building": "yes", "name": "Broken Arrow Battle Axe", "office": "yes"}}}, {"type": "Feature", "geometry": {"type": "Polygon", "coordinates": [[[-95.8094991, 36.0543717], [-95.8092923, 36.0545167], [-95.8090043, 36.0542481], [-95.8092111, 36.0541032], [-95.8094991, 36.0543717]]]}, "properties": {"osm_id": 945665006, "building": "yes", "name": "", "height": null, "height_m": null, "levels": null, "tract_id": "40143007415", "tract_name": "74.15", "tags": {"building": "yes", "office": "yes"}}}, {"type": "Feature", "geometry": {"type": "Polygon", "coordinates": [[[-95.8091698, 36.0546075], [-95.8089615, 36.0547512], [-95.8086754, 36.05448], [-95.8088838, 36.0543364], [-95.8091698, 36.0546075]]]}, "properties": {"osm_id": 945665007, "building": "yes", "name": "", "height": null, "height_m": null, "levels": null, "tract_id": "40143007415", "tract_name": "74.15", "tags": {"building": "yes", "office": "yes"}}}, {"type": "Feature", "geometry": {"type": "Polygon", "coordinates": [[[-95.8080142, 36.0582117], [-95.8079457, 36.0581169], [-95.8085197, 36.0578457], [-95.80859, 36.0579429], [-95.8087077, 36.0578873], [-95.8088803, 36.0581262], [-95.8085776, 36.0582691], [-95.8085288, 36.0582015], [-95.80843, 36.0582482], [-95.8083045, 36.0580746], [-95.8080142, 36.0582117]]]}, "properties": {"osm_id": 945665008, "building": "industrial", "name": "", "height": null, "height_m": null, "levels": null, "tract_id": "40143007415", "tract_name": "74.15", "tags": {"building": "industrial"}}}, {"type": "Feature", "geometry": {"type": "Polygon", "coordinates": [[[-95.810126, 36.0590329], [-95.8098538, 36.0588656], [-95.8094459, 36.0592994], [-95.8097181, 36.0594667], [-95.810126, 36.0590329]]]}, "properties": {"osm_id": 945665009, "building": "commercial", "name": "Iola Trade Center", "height": null, "height_m": null, "levels": null, "tract_id": "40143007415", "tract_name": "74.15", "tags": {"addr:city": "Broken Arrow", "addr:housenumber": "1904", "addr:postcode": "74012", "addr:state": "OK", "addr:street": "West Iola Street", "building": "commercial", "name": "Iola Trade Center"}}}, {"type": "Feature", "geometry": {"type": "Polygon", "coordinates": [[[-95.8083695, 36.0583778], [-95.8082374, 36.0584409], [-95.8081639, 36.0584251], [-95.8080187, 36.0582237], [-95.8082007, 36.0581378], [-95.8083695, 36.0583778]]]}, "properties": {"osm_id": 945665010, "building": "industrial", "name": "", "height": null, "height_m": null, "levels": null, "tract_id": "40143007415", "tract_name": "74.15", "tags": {"building": "industrial"}}}, {"type": "Feature", "geometry": {"type": "Polygon", "coordinates": [[[-95.8105661, 36.0540993], [-95.8104359, 36.0541008], [-95.8104335, 36.0539619], [-95.8105637, 36.0539604], [-95.8105661, 36.0540993]]]}, "properties": {"osm_id": 945665011, "building": "commercial", "name": "", "height": null, "height_m": null, "levels": null, "tract_id": "40143007415", "tract_name": "74.15", "tags": {"building": "commercial"}}}, {"type": "Feature", "geometry": {"type": "Polygon", "coordinates": [[[-95.8109709, 36.0540983], [-95.8108309, 36.0540985], [-95.8108305, 36.0538909], [-95.8109705, 36.0538908], [-95.8109709, 36.0540983]]]}, "properties": {"osm_id": 945665012, "building": "commercial", "name": "", "height": null, "height_m": null, "levels": null, "tract_id": "40143007415", "tract_name": "74.15", "tags": {"building": "commercial"}}}, {"type": "Feature", "geometry": {"type": "Polygon", "coordinates": [[[-95.8110994, 36.0540601], [-95.8110587, 36.0540611], [-95.8110558, 36.0539892], [-95.8110965, 36.0539881], [-95.8110994, 36.0540601]]]}, "properties": {"osm_id": 945665013, "building": "shed", "name": "", "height": null, "height_m": null, "levels": null, "tract_id": "40143007415", "tract_name": "74.15", "tags": {"building": "shed"}}}, {"type": "Feature", "geometry": {"type": "Polygon", "coordinates": [[[-95.8078616, 36.059192], [-95.8078389, 36.0591915], [-95.8078257, 36.059191], [-95.8078027, 36.0591686], [-95.8078037, 36.0591389], [-95.8078286, 36.0591235], [-95.8078482, 36.0591237], [-95.8078701, 36.059124], [-95.8078901, 36.0591442], [-95.8078893, 36.0591752], [-95.8078616, 36.059192]]]}, "properties": {"osm_id": 954922445, "building": "yes", "name": "", "height": null, "height_m": null, "levels": null, "tract_id": "40143007415", "tract_name": "74.15", "tags": {"amenity": "shelter", "building": "yes", "level": "1", "shelter_type": "gazebo"}}}, {"type": "Feature", "geometry": {"type": "Polygon", "coordinates": [[[-95.8148612, 36.0581722], [-95.8146292, 36.0581727], [-95.8146279, 36.0577381], [-95.8148818, 36.0577376], [-95.8148821, 36.0578185], [-95.81486, 36.0578186], [-95.8148612, 36.0581722]]]}, "properties": {"osm_id": 965278865, "building": "yes", "name": "Tate Boys Tire and Service", "height": null, "height_m": null, "levels": null, "tract_id": "40143007415", "tract_name": "74.15", "tags": {"addr:housenumber": "605", "addr:street": "North Aspen Avenue", "building": "yes", "name": "Tate Boys Tire and Service", "shop": "tyres"}}}, {"type": "Feature", "geometry": {"type": "Polygon", "coordinates": [[[-95.8072269, 36.047083], [-95.8071161, 36.0470826], [-95.8071168, 36.0469688], [-95.8072276, 36.0469692], [-95.8072269, 36.047083]]]}, "properties": {"osm_id": 969225988, "building": "service", "name": "", "height": null, "height_m": null, "levels": null, "tract_id": "40143007415", "tract_name": "74.15", "tags": {"building": "service"}}}, {"type": "Feature", "geometry": {"type": "Polygon", "coordinates": [[[-95.8127302, 36.0581091], [-95.812731, 36.0581764], [-95.8133763, 36.0581781], [-95.8133759, 36.0581091], [-95.8127302, 36.0581091]]]}, "properties": {"osm_id": 981341509, "building": "yes", "name": "", "height": null, "height_m": null, "levels": null, "tract_id": "40143007415", "tract_name": "74.15", "tags": {"building": "yes"}}}, {"type": "Feature", "geometry": {"type": "Polygon", "coordinates": [[[-95.8128621, 36.0582699], [-95.8127394, 36.0582709], [-95.8127386, 36.0582021], [-95.8128613, 36.0582011], [-95.8128621, 36.0582699]]]}, "properties": {"osm_id": 981341510, "building": "yes", "name": "", "height": null, "height_m": null, "levels": null, "tract_id": "40143007415", "tract_name": "74.15", "tags": {"building": "yes"}}}, {"type": "Feature", "geometry": {"type": "Polygon", "coordinates": [[[-95.8133747, 36.0583768], [-95.8127296, 36.0583752], [-95.8127299, 36.0582902], [-95.8133743, 36.0582918], [-95.8133747, 36.0583768]]]}, "properties": {"osm_id": 981341511, "building": "yes", "name": "", "height": null, "height_m": null, "levels": null, "tract_id": "40143007415", "tract_name": "74.15", "tags": {"building": "yes"}}}, {"type": "Feature", "geometry": {"type": "Polygon", "coordinates": [[[-95.8131931, 36.0585103], [-95.8131925, 36.0585867], [-95.8128011, 36.0588301], [-95.8127361, 36.0588309], [-95.8127344, 36.0587023], [-95.8127754, 36.0587033], [-95.8130811, 36.0585087], [-95.8131931, 36.0585103]]]}, "properties": {"osm_id": 981341514, "building": "commercial", "name": "", "height": null, "height_m": null, "levels": null, "tract_id": "40143007415", "tract_name": "74.15", "tags": {"addr:city": "Broken Arrow", "addr:housenumber": "613", "addr:postcode": "74012", "addr:state": "OK", "addr:street": "North Walnut Avenue", "building": "commercial"}}}, {"type": "Feature", "geometry": {"type": "Polygon", "coordinates": [[[-95.8133964, 36.0593918], [-95.8131268, 36.0595599], [-95.8128955, 36.0593187], [-95.8131677, 36.0591484], [-95.8133964, 36.0593918]]]}, "properties": {"osm_id": 981341515, "building": "commercial", "name": "Window and Door Screens", "height": null, "height_m": null, "levels": null, "tract_id": "40143007415", "tract_name": "74.15", "tags": {"addr:housenumber": "704", "addr:street": "North Sycamore Avenue", "building": "commercial", "name": "Window and Door Screens", "phone": "+1-918-259-0159"}}}, {"type": "Feature", "geometry": {"type": "Polygon", "coordinates": [[[-95.811481, 36.0590399], [-95.8112011, 36.0590388], [-95.8112038, 36.058866], [-95.811481, 36.0588671], [-95.811481, 36.0590399]]]}, "properties": {"osm_id": 981341516, "building": "commercial", "name": "", "height": null, "height_m": null, "levels": null, "tract_id": "40143007415", "tract_name": "74.15", "tags": {"building": "commercial"}}}, {"type": "Feature", "geometry": {"type": "Polygon", "coordinates": [[[-95.8114824, 36.0587138], [-95.8106669, 36.0587105], [-95.8106669, 36.0584905], [-95.811481, 36.058493], [-95.8114824, 36.0587138]]]}, "properties": {"osm_id": 981341517, "building": "warehouse", "name": "Storey Wrecker, Inc, Broken Arrow Division", "height": null, "height_m": null, "levels": null, "tract_id": "40143007415", "tract_name": "74.15", "tags": {"building": "warehouse", "name": "Storey Wrecker, Inc, Broken Arrow Division", "service:vehicle:towing": "yes"}}}, {"type": "Feature", "geometry": {"type": "Polygon", "coordinates": [[[-95.8101004, 36.0581937], [-95.809861, 36.058195], [-95.8098585, 36.0578746], [-95.8100979, 36.0578734], [-95.8101004, 36.0581937]]]}, "properties": {"osm_id": 981341518, "building": "commercial", "name": "ArborMasters Tree Service", "height": null, "height_m": null, "levels": null, "tract_id": "40143007415", "tract_name": "74.15", "tags": {"addr:housenumber": "1901", "addr:street": "West Iola Street", "building": "commercial", "name": "ArborMasters Tree Service"}}}, {"type": "Feature", "geometry": {"type": "Polygon", "coordinates": [[[-95.8087295, 36.056522], [-95.808295, 36.0565263], [-95.8082896, 36.0561859], [-95.8087268, 36.0561946], [-95.8087295, 36.056522]]]}, "properties": {"osm_id": 981341519, "building": "yes", "name": "Broken Arrow Operations", "height": null, "height_m": null, "levels": null, "tract_id": "40143007415", "tract_name": "74.15", "tags": {"building": "yes", "name": "Broken Arrow Operations", "office": "government", "operator": "City of Broken Arrow"}}}, {"type": "Feature", "geometry": {"type": "Polygon", "coordinates": [[[-95.8077428, 36.0541431], [-95.8075403, 36.0541415], [-95.8075396, 36.0538677], [-95.8074109, 36.0538656], [-95.8074102, 36.0538081], [-95.8077388, 36.0538081], [-95.8077394, 36.0538656], [-95.8077436, 36.0538662], [-95.8077428, 36.0541431]]]}, "properties": {"osm_id": 981341520, "building": "commercial", "name": "MidCon", "height": null, "height_m": null, "levels": null, "tract_id": "40143007415", "tract_name": "74.15", "tags": {"building": "commercial", "name": "MidCon", "phone": "+1 918 258 7781"}}}, {"type": "Feature", "geometry": {"type": "Polygon", "coordinates": [[[-95.8021834, 36.0553893], [-95.8020164, 36.0555638], [-95.8017466, 36.0553951], [-95.8019135, 36.0552205], [-95.8021834, 36.0553893]]]}, "properties": {"osm_id": 1030399168, "building": "industrial", "name": "Colburn Electric", "height": null, "height_m": null, "levels": null, "tract_id": "40143007415", "tract_name": "74.15", "tags": {"addr:postcode": "74012", "addr:street": "West Elgin Street", "building": "industrial", "name": "Colburn Electric", "phone": "+1-918-251-8765", "shop": "trade"}}}, {"type": "Feature", "geometry": {"type": "Polygon", "coordinates": [[[-95.8016667, 36.0553459], [-95.8015762, 36.0552901], [-95.8017425, 36.0551139], [-95.801833, 36.0551697], [-95.8016667, 36.0553459]]]}, "properties": {"osm_id": 1030399169, "building": "industrial", "name": "", "height": null, "height_m": null, "levels": null, "tract_id": "40143007415", "tract_name": "74.15", "tags": {"addr:postcode": "74012", "addr:street": "West Elgin Street", "building": "industrial"}}}, {"type": "Feature", "geometry": {"type": "Polygon", "coordinates": [[[-95.8015712, 36.0552879], [-95.8014807, 36.0552321], [-95.801647, 36.0550559], [-95.8017375, 36.0551117], [-95.8015712, 36.0552879]]]}, "properties": {"osm_id": 1030399170, "building": "industrial", "name": "", "height": null, "height_m": null, "levels": null, "tract_id": "40143007415", "tract_name": "74.15", "tags": {"addr:postcode": "74012", "addr:street": "West Elgin Street", "building": "industrial"}}}, {"type": "Feature", "geometry": {"type": "Polygon", "coordinates": [[[-95.8014404, 36.0551795], [-95.8012533, 36.0550646], [-95.8014025, 36.0549058], [-95.8015896, 36.0550208], [-95.8014404, 36.0551795]]]}, "properties": {"osm_id": 1030399171, "building": "industrial", "name": "", "height": null, "height_m": null, "levels": null, "tract_id": "40143007415", "tract_name": "74.15", "tags": {"addr:postcode": "74012", "addr:street": "West Elgin Street", "building": "industrial"}}}, {"type": "Feature", "geometry": {"type": "Polygon", "coordinates": [[[-95.8009502, 36.0551421], [-95.8008176, 36.0551434], [-95.8008115, 36.0547379], [-95.8009442, 36.0547366], [-95.8009502, 36.0551421]]]}, "properties": {"osm_id": 1030399172, "building": "industrial", "name": "", "height": null, "height_m": null, "levels": null, "tract_id": "40143007415", "tract_name": "74.15", "tags": {"addr:postcode": "74012", "addr:street": "West Elgin Street", "building": "industrial"}}}, {"type": "Feature", "geometry": {"type": "Polygon", "coordinates": [[[-95.8005653, 36.0551475], [-95.8005613, 36.0548878], [-95.8006935, 36.0548865], [-95.8006975, 36.0551462], [-95.8005653, 36.0551475]]]}, "properties": {"osm_id": 1030399173, "building": "industrial", "name": "Wolcher Racing Engines", "height": null, "height_m": null, "levels": null, "tract_id": "40143007415", "tract_name": "74.15", "tags": {"addr:housenumber": "805", "addr:postcode": "74012", "addr:street": "West Elgin Street", "building": "industrial", "name": "Wolcher Racing Engines", "shop": "car_parts"}}}, {"type": "Feature", "geometry": {"type": "Polygon", "coordinates": [[[-95.7999256, 36.0551518], [-95.7998076, 36.055153], [-95.7998003, 36.0546586], [-95.7999182, 36.0546574], [-95.7999256, 36.0551518]]]}, "properties": {"osm_id": 1030399174, "building": "industrial", "name": "Import Auto Service", "height": null, "height_m": null, "levels": null, "tract_id": "40143007415", "tract_name": "74.15", "tags": {"addr:postcode": "74012", "addr:street": "West Elgin Street", "building": "industrial", "name": "Import Auto Service", "shop": "car_repair"}}}, {"type": "Feature", "geometry": {"type": "Polygon", "coordinates": [[[-95.7995468, 36.0551535], [-95.7992765, 36.0551556], [-95.7992755, 36.0550743], [-95.7995458, 36.0550721], [-95.7995468, 36.0551535]]]}, "properties": {"osm_id": 1030399175, "building": "industrial", "name": "Aspen Transmissions", "height": null, "height_m": null, "levels": null, "tract_id": "40143007415", "tract_name": "74.15", "tags": {"addr:postcode": "74012", "addr:street": "West Elgin Street", "building": "industrial", "name": "Aspen Transmissions", "shop": "car_repair"}}}, {"type": "Feature", "geometry": {"type": "Polygon", "coordinates": [[[-95.7985731, 36.0557829], [-95.7982398, 36.0557834], [-95.7982399, 36.0558115], [-95.7981695, 36.0558116], [-95.7981694, 36.0557835], [-95.7981692, 36.055699], [-95.7982396, 36.0556988], [-95.7983994, 36.0556986], [-95.7983992, 36.0556067], [-95.7985726, 36.0556064], [-95.7985729, 36.0556983], [-95.7985731, 36.0557829]]]}, "properties": {"osm_id": 1030399176, "building": "industrial", "name": "", "height": null, "height_m": null, "levels": null, "tract_id": "40143007415", "tract_name": "74.15", "tags": {"addr:housenumber": "722", "addr:postcode": "74012", "addr:street": "West Elgin Street", "building": "industrial"}}}, {"type": "Feature", "geometry": {"type": "Polygon", "coordinates": [[[-95.7989882, 36.055811], [-95.7989395, 36.0558113], [-95.7989399, 36.055849], [-95.7988719, 36.0558494], [-95.7988715, 36.0558118], [-95.7988588, 36.0558118], [-95.7988568, 36.0556107], [-95.7989862, 36.0556099], [-95.7989882, 36.055811]]]}, "properties": {"osm_id": 1030399177, "building": "industrial", "name": "Platinum Protection Incorporated", "height": null, "height_m": null, "levels": null, "tract_id": "40143007415", "tract_name": "74.15", "tags": {"addr:housenumber": "724", "addr:postcode": "74012", "addr:street": "West Elgin Street", "building": "industrial", "name": "Platinum Protection Incorporated", "phone": "+1-918-376-9331"}}}, {"type": "Feature", "geometry": {"type": "Polygon", "coordinates": [[[-95.7991057, 36.0558518], [-95.7989978, 36.0558528], [-95.7989941, 36.0555915], [-95.799102, 36.0555905], [-95.7991057, 36.0558518]]]}, "properties": {"osm_id": 1030399178, "building": "industrial", "name": "", "height": null, "height_m": null, "levels": null, "tract_id": "40143007415", "tract_name": "74.15", "tags": {"addr:housenumber": "726", "addr:postcode": "74012", "addr:street": "West Elgin Street", "building": "industrial"}}}, {"type": "Feature", "geometry": {"type": "Polygon", "coordinates": [[[-95.7996903, 36.0558533], [-95.799686, 36.0555926], [-95.7997969, 36.0555914], [-95.7998011, 36.0558521], [-95.7996903, 36.0558533]]]}, "properties": {"osm_id": 1030399179, "building": "industrial", "name": "", "height": null, "height_m": null, "levels": null, "tract_id": "40143007415", "tract_name": "74.15", "tags": {"addr:housenumber": "730", "addr:postcode": "74012", "addr:street": "West Elgin Street", "building": "industrial"}}}, {"type": "Feature", "geometry": {"type": "Polygon", "coordinates": [[[-95.7992195, 36.0558544], [-95.7992186, 36.0555953], [-95.799686, 36.0555926], [-95.7996903, 36.0558533], [-95.7992195, 36.0558544]]]}, "properties": {"osm_id": 1030399180, "building": "industrial", "name": "A-1 Quality Roofing", "height": null, "height_m": null, "levels": null, "tract_id": "40143007415", "tract_name": "74.15", "tags": {"addr:housenumber": "728", "addr:postcode": "74012", "addr:street": "West Elgin Street", "building": "industrial", "craft": "roofer", "name": "A-1 Quality Roofing", "phone": "+1-918-946-3406"}}}, {"type": "Feature", "geometry": {"type": "Polygon", "coordinates": [[[-95.8000215, 36.0558528], [-95.7999129, 36.0558539], [-95.7999089, 36.0555964], [-95.8000175, 36.0555953], [-95.8000215, 36.0558528]]]}, "properties": {"osm_id": 1030399181, "building": "industrial", "name": "FloMaster", "height": null, "height_m": null, "levels": null, "tract_id": "40143007415", "tract_name": "74.15", "tags": {"addr:housenumber": "736", "addr:postcode": "74012", "addr:street": "West Elgin Street", "building": "industrial", "description": "performance exhaust systems", "name": "FloMaster", "shop": "car_parts"}}}, {"type": "Feature", "geometry": {"type": "Polygon", "coordinates": [[[-95.8001939, 36.0558522], [-95.8000785, 36.0558533], [-95.8000751, 36.0556148], [-95.8001905, 36.0556137], [-95.8001939, 36.0558522]]]}, "properties": {"osm_id": 1030399182, "building": "industrial", "name": "Silverstone Printing", "height": null, "height_m": null, "levels": null, "tract_id": "40143007415", "tract_name": "74.15", "tags": {"addr:housenumber": "740", "addr:postcode": "74012", "addr:street": "West Elgin Street", "building": "industrial", "craft": "printmaker", "name": "Silverstone Printing", "phone": "+1-918-373-2437"}}}, {"type": "Feature", "geometry": {"type": "Polygon", "coordinates": [[[-95.8003112, 36.0558512], [-95.8001939, 36.0558522], [-95.8001905, 36.0556137], [-95.8003078, 36.0556126], [-95.8003112, 36.0558512]]]}, "properties": {"osm_id": 1030399183, "building": "industrial", "name": "Sysco Continential Industrial Supply", "height": null, "height_m": null, "levels": null, "tract_id": "40143007415", "tract_name": "74.15", "tags": {"addr:housenumber": "744", "addr:postcode": "74012", "addr:street": "West Elgin Street", "building": "industrial", "name": "Sysco Continential Industrial Supply"}}}, {"type": "Feature", "geometry": {"type": "Polygon", "coordinates": [[[-95.8006425, 36.0558457], [-95.8005252, 36.0558464], [-95.8005231, 36.0556131], [-95.8005231, 36.0556122], [-95.8006404, 36.0556115], [-95.8006425, 36.0558457]]]}, "properties": {"osm_id": 1030399184, "building": "industrial", "name": "", "height": null, "height_m": null, "levels": null, "tract_id": "40143007415", "tract_name": "74.15", "tags": {"addr:housenumber": "808", "addr:postcode": "74012", "addr:street": "West Elgin Street", "building": "industrial"}}}, {"type": "Feature", "geometry": {"type": "Polygon", "coordinates": [[[-95.8008631, 36.0558506], [-95.8007508, 36.0558508], [-95.8007501, 36.0556188], [-95.8008624, 36.0556186], [-95.8008631, 36.0558506]]]}, "properties": {"osm_id": 1030399185, "building": "industrial", "name": "Cane", "height": null, "height_m": null, "levels": null, "tract_id": "40143007415", "tract_name": "74.15", "tags": {"addr:housenumber": "812", "addr:postcode": "74012", "addr:street": "West Elgin Street", "building": "industrial", "name": "Cane"}}}, {"type": "Feature", "geometry": {"type": "Polygon", "coordinates": [[[-95.8009885, 36.055849], [-95.8008712, 36.0558494], [-95.8008698, 36.0556152], [-95.8009871, 36.0556148], [-95.8009885, 36.055849]]]}, "properties": {"osm_id": 1030399186, "building": "industrial", "name": "Pro Stitch", "height": null, "height_m": null, "levels": null, "tract_id": "40143007415", "tract_name": "74.15", "tags": {"addr:housenumber": "816", "addr:postcode": "74012", "addr:street": "West Elgin Street", "alt_name": "Custom Embroidery", "building": "industrial", "craft": "embroiderer", "email": "pro_stitch@yahoo.com", "name": "Pro Stitch", "phone": "+1-918-258-0239"}}}, {"type": "Feature", "geometry": {"type": "Polygon", "coordinates": [[[-95.8012614, 36.0558598], [-95.8011213, 36.0558605], [-95.8011193, 36.0555976], [-95.8012594, 36.0555969], [-95.8012614, 36.0558598]]]}, "properties": {"osm_id": 1030399187, "building": "industrial", "name": "D K Machine", "height": null, "height_m": null, "levels": null, "tract_id": "40143007415", "tract_name": "74.15", "tags": {"addr:housenumber": "822", "addr:postcode": "74012", "addr:street": "West Elgin Street", "building": "industrial", "industrial": "machine_shop", "name": "D K Machine", "phone": "+1-918-251-1034"}}}, {"type": "Feature", "geometry": {"type": "Polygon", "coordinates": [[[-95.8014313, 36.0557208], [-95.8014759, 36.0557205], [-95.8014761, 36.0557398], [-95.8015799, 36.0557883], [-95.8015373, 36.0558478], [-95.8012962, 36.055849], [-95.8012957, 36.0557716], [-95.801295, 36.0556847], [-95.801431, 36.0556841], [-95.8014313, 36.0557208]]]}, "properties": {"osm_id": 1030399188, "building": "industrial", "name": "Bouchard Insulation Incorporated", "height": null, "height_m": null, "levels": null, "tract_id": "40143007415", "tract_name": "74.15", "tags": {"addr:housenumber": "824", "addr:postcode": "74012", "addr:street": "West Elgin Street", "building": "industrial", "craft": "insulation", "name": "Bouchard Insulation Incorporated"}}}, {"type": "Feature", "geometry": {"type": "Polygon", "coordinates": [[[-95.7980558, 36.0561935], [-95.7977841, 36.0561941], [-95.7977836, 36.0560273], [-95.7978532, 36.0560271], [-95.7978531, 36.0559754], [-95.7980552, 36.055975], [-95.7980558, 36.0561935]]]}, "properties": {"osm_id": 1030399189, "building": "commercial", "name": "Gerber Collision & Glass", "height": null, "height_m": null, "levels": null, "tract_id": "40143007415", "tract_name": "74.15", "tags": {"addr:housenumber": "701", "addr:postcode": "74012", "addr:street": "West Freeport Street", "brand": "Gerber Collision & Glass", "brand:wikidata": "Q108871639", "building": "commercial", "name": "Gerber Collision & Glass", "shop": "car_repair"}}}, {"type": "Feature", "geometry": {"type": "Polygon", "coordinates": [[[-95.7986382, 36.0561986], [-95.7982291, 36.0562019], [-95.7982264, 36.0559808], [-95.7986355, 36.0559775], [-95.7986382, 36.0561986]]]}, "properties": {"osm_id": 1030399190, "building": "industrial", "name": "", "height": null, "height_m": null, "levels": null, "tract_id": "40143007415", "tract_name": "74.15", "tags": {"addr:postcode": "74012", "addr:street": "West Freeport Street", "building": "industrial"}}}, {"type": "Feature", "geometry": {"type": "Polygon", "coordinates": [[[-95.7989413, 36.0561759], [-95.7989038, 36.0561764], [-95.7987106, 36.0561791], [-95.7987062, 36.0559773], [-95.7989369, 36.0559741], [-95.7989413, 36.0561759]]]}, "properties": {"osm_id": 1030399191, "building": "industrial", "name": "", "height": null, "height_m": null, "levels": null, "tract_id": "40143007415", "tract_name": "74.15", "tags": {"addr:housenumber": "717", "addr:postcode": "74012", "addr:street": "West Freeport Street", "building": "industrial"}}}, {"type": "Feature", "geometry": {"type": "Polygon", "coordinates": [[[-95.7990164, 36.0561986], [-95.7990083, 36.0559373], [-95.799117, 36.0559352], [-95.7991251, 36.0561965], [-95.7990164, 36.0561986]]]}, "properties": {"osm_id": 1030399192, "building": "industrial", "name": "", "height": null, "height_m": null, "levels": null, "tract_id": "40143007415", "tract_name": "74.15", "tags": {"addr:housenumber": "721", "addr:postcode": "74012", "addr:street": "West Freeport Street", "building": "industrial"}}}, {"type": "Feature", "geometry": {"type": "Polygon", "coordinates": [[[-95.7996547, 36.0561954], [-95.7995937, 36.0561957], [-95.7992242, 36.0561976], [-95.7992222, 36.0559384], [-95.7996527, 36.0559363], [-95.7996547, 36.0561954]]]}, "properties": {"osm_id": 1030399193, "building": "industrial", "name": "", "height": null, "height_m": null, "levels": null, "tract_id": "40143007415", "tract_name": "74.15", "tags": {"addr:housenumber": "725", "addr:postcode": "74012", "addr:street": "West Freeport Street", "building": "industrial"}}}, {"type": "Feature", "geometry": {"type": "Polygon", "coordinates": [[[-95.8002985, 36.0561943], [-95.8002321, 36.0561944], [-95.7997607, 36.0561954], [-95.79976, 36.0559645], [-95.8002977, 36.0559634], [-95.8002985, 36.0561943]]]}, "properties": {"osm_id": 1030399194, "building": "industrial", "name": "", "height": null, "height_m": null, "levels": null, "tract_id": "40143007415", "tract_name": "74.15", "tags": {"addr:postcode": "74012", "addr:street": "West Freeport Street", "building": "industrial"}}}, {"type": "Feature", "geometry": {"type": "Polygon", "coordinates": [[[-95.8005301, 36.0561677], [-95.8004222, 36.056168], [-95.8004212, 36.0559339], [-95.8005291, 36.0559336], [-95.8005301, 36.0561677]]]}, "properties": {"osm_id": 1030399195, "building": "industrial", "name": "", "height": null, "height_m": null, "levels": null, "tract_id": "40143007415", "tract_name": "74.15", "tags": {"addr:postcode": "74012", "addr:street": "West Freeport Street", "building": "industrial"}}}, {"type": "Feature", "geometry": {"type": "Polygon", "coordinates": [[[-95.8006512, 36.0561672], [-95.8005372, 36.0561685], [-95.8005332, 36.0559332], [-95.8006471, 36.0559319], [-95.8006512, 36.0561672]]]}, "properties": {"osm_id": 1030399196, "building": "industrial", "name": "", "height": null, "height_m": null, "levels": null, "tract_id": "40143007415", "tract_name": "74.15", "tags": {"addr:postcode": "74012", "addr:street": "West Freeport Street", "building": "industrial"}}}, {"type": "Feature", "geometry": {"type": "Polygon", "coordinates": [[[-95.8008724, 36.0561618], [-95.8007531, 36.0561618], [-95.8007531, 36.0559363], [-95.8008724, 36.0559363], [-95.8008724, 36.0561618]]]}, "properties": {"osm_id": 1030399197, "building": "industrial", "name": "", "height": null, "height_m": null, "levels": null, "tract_id": "40143007415", "tract_name": "74.15", "tags": {"addr:postcode": "74012", "addr:street": "West Freeport Street", "building": "industrial"}}}, {"type": "Feature", "geometry": {"type": "Polygon", "coordinates": [[[-95.8009905, 36.0561618], [-95.8008724, 36.0561618], [-95.8008724, 36.0559363], [-95.8009905, 36.0559363], [-95.8009905, 36.0561618]]]}, "properties": {"osm_id": 1030399198, "building": "industrial", "name": "Chief Easy Liner II", "height": null, "height_m": null, "levels": null, "tract_id": "40143007415", "tract_name": "74.15", "tags": {"addr:postcode": "74012", "addr:street": "West Freeport Street", "building": "industrial", "name": "Chief Easy Liner II"}}}, {"type": "Feature", "geometry": {"type": "Polygon", "coordinates": [[[-95.8012158, 36.0561659], [-95.8010977, 36.0561667], [-95.801095, 36.0559293], [-95.8012131, 36.0559284], [-95.8012158, 36.0561659]]]}, "properties": {"osm_id": 1030399199, "building": "industrial", "name": "Cheaper Ts, Inc.", "height": null, "height_m": null, "levels": null, "tract_id": "40143007415", "tract_name": "74.15", "tags": {"addr:postcode": "74012", "addr:street": "West Freeport Street", "building": "industrial", "name": "Cheaper Ts, Inc."}}}, {"type": "Feature", "geometry": {"type": "Polygon", "coordinates": [[[-95.8013284, 36.056165], [-95.8012158, 36.0561659], [-95.8012131, 36.0559284], [-95.8013257, 36.0559276], [-95.8013284, 36.056165]]]}, "properties": {"osm_id": 1030399200, "building": "industrial", "name": "Secure Families", "height": null, "height_m": null, "levels": null, "tract_id": "40143007415", "tract_name": "74.15", "tags": {"addr:postcode": "74012", "addr:street": "West Freeport Street", "building": "industrial", "name": "Secure Families"}}}, {"type": "Feature", "geometry": {"type": "Polygon", "coordinates": [[[-95.8015419, 36.0561606], [-95.8014305, 36.0561608], [-95.80143, 36.0559222], [-95.8015414, 36.055922], [-95.8015419, 36.0561606]]]}, "properties": {"osm_id": 1030399201, "building": "industrial", "name": "Automotive Specialists of Broken Arrow", "height": null, "height_m": null, "levels": null, "tract_id": "40143007415", "tract_name": "74.15", "tags": {"addr:postcode": "74012", "addr:street": "West Freeport Street", "building": "industrial", "name": "Automotive Specialists of Broken Arrow", "phone": "+1 918 251 1067"}}}, {"type": "Feature", "geometry": {"type": "Polygon", "coordinates": [[[-95.7977879, 36.0566481], [-95.7977879, 36.0565725], [-95.7978141, 36.0565725], [-95.797814, 36.0565044], [-95.7979112, 36.0565043], [-95.7979114, 36.056648], [-95.7977879, 36.0566481]]]}, "properties": {"osm_id": 1030399202, "building": "commercial", "name": "TenSixtySix", "height": null, "height_m": null, "levels": null, "tract_id": "40143007415", "tract_name": "74.15", "tags": {"addr:city": "Broken Arrow", "addr:housenumber": "500", "addr:postcode": "74012", "addr:state": "OK", "addr:street": "North Elm Place", "building": "commercial", "name": "TenSixtySix", "office": "accountant", "old_name": "Debits and Credits", "phone": "+1-918-806-8769"}}}, {"type": "Feature", "geometry": {"type": "Polygon", "coordinates": [[[-95.798799, 36.0569462], [-95.7986512, 36.0569475], [-95.7986476, 36.056671], [-95.7987953, 36.0566696], [-95.798799, 36.0569462]]]}, "properties": {"osm_id": 1030399203, "building": "commercial", "name": "", "height": null, "height_m": null, "levels": null, "tract_id": "40143007415", "tract_name": "74.15", "tags": {"addr:housenumber": "708", "addr:street": "West Freeport Street", "building": "commercial"}}}, {"type": "Feature", "geometry": {"type": "Polygon", "coordinates": [[[-95.7980635, 36.0573713], [-95.7978349, 36.0573708], [-95.7978352, 36.0572943], [-95.7980638, 36.0572949], [-95.7980635, 36.0573713]]]}, "properties": {"osm_id": 1030399205, "building": "commercial", "name": "Cowboy Cush Dispensary", "height": null, "height_m": null, "levels": null, "tract_id": "40143007415", "tract_name": "74.15", "tags": {"addr:housenumber": "514", "addr:street": "North Elm Place", "building": "commercial", "name": "Cowboy Cush Dispensary", "shop": "cannabis"}}}, {"type": "Feature", "geometry": {"type": "Polygon", "coordinates": [[[-95.8074054, 36.0541445], [-95.8074065, 36.0537398], [-95.8070805, 36.053738], [-95.8070805, 36.0538237], [-95.8072697, 36.0538244], [-95.8072719, 36.0539182], [-95.807208, 36.0539182], [-95.807208, 36.0539928], [-95.8072279, 36.0539933], [-95.8072282, 36.0540555], [-95.8072697, 36.0540557], [-95.8072708, 36.0541445], [-95.8073303, 36.0541445], [-95.8073306, 36.0541644], [-95.8073694, 36.0541641], [-95.8073694, 36.0541445], [-95.8074054, 36.0541445]]]}, "properties": {"osm_id": 1034345285, "building": "commercial", "name": "Murray Electric & Plumbing", "height": null, "height_m": null, "levels": null, "tract_id": "40143007415", "tract_name": "74.15", "tags": {"building": "commercial", "name": "Murray Electric & Plumbing", "shop": "trade"}}}, {"type": "Feature", "geometry": {"type": "Polygon", "coordinates": [[[-95.8067327, 36.0541469], [-95.8070549, 36.0541464], [-95.8070527, 36.0539548], [-95.8068004, 36.0539544], [-95.8068018, 36.0539831], [-95.8067335, 36.0539824], [-95.8067327, 36.0541469]]]}, "properties": {"osm_id": 1034345286, "building": "industrial", "name": "", "height": null, "height_m": null, "levels": null, "tract_id": "40143007415", "tract_name": "74.15", "tags": {"building": "industrial"}}}, {"type": "Feature", "geometry": {"type": "Polygon", "coordinates": [[[-95.806729, 36.0541474], [-95.8067295, 36.0538143], [-95.8065026, 36.0538136], [-95.8065022, 36.0541457], [-95.806729, 36.0541474]]]}, "properties": {"osm_id": 1034345287, "building": "industrial", "name": "", "height": null, "height_m": null, "levels": null, "tract_id": "40143007415", "tract_name": "74.15", "tags": {"addr:city": "Broken Arrow", "addr:housenumber": "1709", "addr:postcode": "74012", "addr:street": "West Detroit Street", "building": "industrial"}}}, {"type": "Feature", "geometry": {"type": "Polygon", "coordinates": [[[-95.8061842, 36.0541832], [-95.8061825, 36.0537518], [-95.805987, 36.0537518], [-95.8059882, 36.0541841], [-95.8061842, 36.0541832]]]}, "properties": {"osm_id": 1034345288, "building": "industrial", "name": "MASI", "height": null, "height_m": null, "levels": null, "tract_id": "40143007415", "tract_name": "74.15", "tags": {"addr:city": "Broken Arrow", "addr:postcode": "74012", "addr:street": "West Detroit Street", "building": "industrial", "name": "MASI"}}}, {"type": "Feature", "geometry": {"type": "Polygon", "coordinates": [[[-95.8058459, 36.0541077], [-95.8058449, 36.0538237], [-95.8057059, 36.0538233], [-95.8057059, 36.0541065], [-95.8058459, 36.0541077]]]}, "properties": {"osm_id": 1034345289, "building": "industrial", "name": "", "height": null, "height_m": null, "levels": null, "tract_id": "40143007415", "tract_name": "74.15", "tags": {"addr:city": "Broken Arrow", "addr:postcode": "74012", "addr:street": "West Detroit Street", "building": "industrial"}}}, {"type": "Feature", "geometry": {"type": "Polygon", "coordinates": [[[-95.8054669, 36.0541449], [-95.8054669, 36.0540076], [-95.8053638, 36.0540064], [-95.8053582, 36.0541437], [-95.8054669, 36.0541449]]]}, "properties": {"osm_id": 1034345290, "building": "industrial", "name": "(something like) Sport Sade Entertainment", "height": null, "height_m": null, "levels": null, "tract_id": "40143007415", "tract_name": "74.15", "tags": {"addr:city": "Broken Arrow", "addr:postcode": "74012", "addr:street": "West Detroit Street", "building": "industrial", "name": "(something like) Sport Sade Entertainment"}}}, {"type": "Feature", "geometry": {"type": "Polygon", "coordinates": [[[-95.8052112, 36.0540885], [-95.8052092, 36.0538205], [-95.8050742, 36.0538168], [-95.8050732, 36.0540881], [-95.8052112, 36.0540885]]]}, "properties": {"osm_id": 1034345291, "building": "industrial", "name": "", "height": null, "height_m": null, "levels": null, "tract_id": "40143007415", "tract_name": "74.15", "tags": {"addr:city": "Broken Arrow", "addr:postcode": "74012", "addr:street": "West Detroit Street", "building": "industrial"}}}, {"type": "Feature", "geometry": {"type": "Polygon", "coordinates": [[[-95.8048158, 36.0540888], [-95.8049522, 36.0540893], [-95.8049517, 36.0538192], [-95.8048132, 36.0538192], [-95.8048158, 36.0540888]]]}, "properties": {"osm_id": 1034345292, "building": "industrial", "name": "", "height": null, "height_m": null, "levels": null, "tract_id": "40143007415", "tract_name": "74.15", "tags": {"addr:city": "Broken Arrow", "addr:postcode": "74012", "addr:street": "West Detroit Street", "building": "industrial"}}}, {"type": "Feature", "geometry": {"type": "Polygon", "coordinates": [[[-95.8048157, 36.0540984], [-95.8048158, 36.0540888], [-95.8048132, 36.0538192], [-95.8048128, 36.0537636], [-95.8046806, 36.0537636], [-95.8046793, 36.0540193], [-95.804718, 36.0540191], [-95.8047183, 36.0540999], [-95.8048157, 36.0540984]]]}, "properties": {"osm_id": 1034345293, "building": "commercial", "name": "T Autocare Takedown", "height": null, "height_m": null, "levels": null, "tract_id": "40143007415", "tract_name": "74.15", "tags": {"addr:city": "Broken Arrow", "addr:housenumber": "1501", "addr:postcode": "74012", "addr:state": "OK", "addr:street": "West Detroit Street", "building": "commercial", "contact:facebook": "tautocaretakedown", "description": "Full-service auto repair shop in Broken Arrow specializing in engine repair, steering, suspension, brakes, and routine maintenance.", "internet_access": "wlan", "name": "T Autocare Takedown", "opening_hours": "Mo-Fr 08:30-17:00; Sa 10:00-15:00", "payment:american_express": "yes", "payment:apple_pay": "yes", "payment:cash": "yes", "payment:contactless": "yes", "payment:credit_cards": "yes", "payment:debit_cards": "yes", "payment:discover_card": "yes", "payment:financing": "yes", "payment:google_pay": "yes", "payment:mastercard": "yes", "payment:visa": "yes", "payment:visa_debit": "yes", "phone": "(539) 367-3738", "service:vehicle:air_conditioning": "yes", "service:vehicle:batteries": "yes", "service:vehicle:brakes": "yes", "service:vehicle:car_repair": "yes", "service:vehicle:commercial_vehicles": "yes", "service:vehicle:cooling_systems": "yes", "service:vehicle:diagnostics": "yes", "service:vehicle:electrical": "yes", "service:vehicle:engine_repair": "yes", "service:vehicle:fleet_vehicle_maintenance": "yes", "service:vehicle:fluid_changes": "yes", "service:vehicle:fuel_system_cleaning": "yes", "service:vehicle:fuel_system_repair": "yes", "service:vehicle:head_gasket": "yes", "service:vehicle:inspection": "yes", "service:vehicle:motor": "yes", "service:vehicle:oil_change": "yes", "service:vehicle:repairs": "yes", "service:vehicle:suspension": "yes", "service:vehicle:timing_belts": "yes", "service:vehicle:transmission": "yes", "service:vehicle:tuning": "yes", "shop": "car_repair", "waiting_room": "yes", "website": "https://autorepairba.com"}}}, {"type": "Feature", "geometry": {"type": "Polygon", "coordinates": [[[-95.8078834, 36.054054], [-95.8078763, 36.0540544], [-95.8078779, 36.0540883], [-95.8082311, 36.0540887], [-95.8082307, 36.0539441], [-95.8082232, 36.0539439], [-95.8082243, 36.0538083], [-95.8078822, 36.0538068], [-95.8078834, 36.054054]]]}, "properties": {"osm_id": 1034345294, "building": "industrial", "name": "", "height": null, "height_m": null, "levels": null, "tract_id": "40143007415", "tract_name": "74.15", "tags": {"building": "industrial"}}}, {"type": "Feature", "geometry": {"type": "Polygon", "coordinates": [[[-95.8045014, 36.0540965], [-95.8045014, 36.0540192], [-95.8045439, 36.0540192], [-95.8045429, 36.0537541], [-95.8044089, 36.0537541], [-95.8044089, 36.0540961], [-95.8045014, 36.0540965]]]}, "properties": {"osm_id": 1034345295, "building": "industrial", "name": "", "height": null, "height_m": null, "levels": null, "tract_id": "40143007415", "tract_name": "74.15", "tags": {"addr:city": "Broken Arrow", "addr:postcode": "74012", "addr:street": "West Detroit Street", "building": "industrial"}}}, {"type": "Feature", "geometry": {"type": "Polygon", "coordinates": [[[-95.8043437, 36.0540869], [-95.8043444, 36.0538184], [-95.8042073, 36.0538184], [-95.804206, 36.054088], [-95.8043437, 36.0540869]]]}, "properties": {"osm_id": 1034345296, "building": "industrial", "name": "", "height": null, "height_m": null, "levels": null, "tract_id": "40143007415", "tract_name": "74.15", "tags": {"addr:city": "Broken Arrow", "addr:postcode": "74012", "addr:street": "West Detroit Street", "building": "industrial"}}}, {"type": "Feature", "geometry": {"type": "Polygon", "coordinates": [[[-95.8041528, 36.0540863], [-95.8041535, 36.0538245], [-95.8040164, 36.0538234], [-95.8040151, 36.0540869], [-95.8041528, 36.0540863]]]}, "properties": {"osm_id": 1034345297, "building": "industrial", "name": "", "height": null, "height_m": null, "levels": null, "tract_id": "40143007415", "tract_name": "74.15", "tags": {"addr:city": "Broken Arrow", "addr:postcode": "74012", "addr:street": "West Detroit Street", "building": "industrial"}}}, {"type": "Feature", "geometry": {"type": "Polygon", "coordinates": [[[-95.8039939, 36.054088], [-95.803996, 36.0538129], [-95.8038071, 36.0538129], [-95.8038064, 36.0538658], [-95.803863, 36.0538664], [-95.803863, 36.0540869], [-95.8039939, 36.054088]]]}, "properties": {"osm_id": 1034345298, "building": "industrial", "name": "", "height": null, "height_m": null, "levels": null, "tract_id": "40143007415", "tract_name": "74.15", "tags": {"addr:city": "Broken Arrow", "addr:postcode": "74012", "addr:street": "West Detroit Street", "building": "industrial"}}}, {"type": "Feature", "geometry": {"type": "Polygon", "coordinates": [[[-95.803797, 36.0540871], [-95.8037976, 36.05381], [-95.8036737, 36.0538105], [-95.8036743, 36.0540853], [-95.803797, 36.0540871]]]}, "properties": {"osm_id": 1034345299, "building": "industrial", "name": "", "height": null, "height_m": null, "levels": null, "tract_id": "40143007415", "tract_name": "74.15", "tags": {"addr:city": "Broken Arrow", "addr:postcode": "74012", "addr:street": "West Detroit Street", "building": "industrial"}}}, {"type": "Feature", "geometry": {"type": "Polygon", "coordinates": [[[-95.8033914, 36.0541194], [-95.8033891, 36.053819], [-95.8032535, 36.05382], [-95.8032552, 36.0541194], [-95.8033914, 36.0541194]]]}, "properties": {"osm_id": 1034345300, "building": "industrial", "name": "", "height": null, "height_m": null, "levels": null, "tract_id": "40143007415", "tract_name": "74.15", "tags": {"addr:city": "Broken Arrow", "addr:postcode": "74012", "addr:street": "West Detroit Street", "building": "industrial"}}}, {"type": "Feature", "geometry": {"type": "Polygon", "coordinates": [[[-95.8031882, 36.0540866], [-95.8031872, 36.0538119], [-95.8030478, 36.0538122], [-95.8030488, 36.054087], [-95.8031882, 36.0540866]]]}, "properties": {"osm_id": 1034345301, "building": "industrial", "name": "", "height": null, "height_m": null, "levels": null, "tract_id": "40143007415", "tract_name": "74.15", "tags": {"addr:city": "Broken Arrow", "addr:postcode": "74012", "addr:street": "West Detroit Street", "building": "industrial"}}}, {"type": "Feature", "geometry": {"type": "Polygon", "coordinates": [[[-95.8029823, 36.0540857], [-95.8029823, 36.0537706], [-95.8026911, 36.0537697], [-95.8026911, 36.0540848], [-95.8029823, 36.0540857]]]}, "properties": {"osm_id": 1034345302, "building": "industrial", "name": "", "height": null, "height_m": null, "levels": null, "tract_id": "40143007415", "tract_name": "74.15", "tags": {"addr:city": "Broken Arrow", "addr:postcode": "74012", "addr:street": "West Detroit Street", "building": "industrial"}}}, {"type": "Feature", "geometry": {"type": "Polygon", "coordinates": [[[-95.8015005, 36.054186], [-95.8012748, 36.0540455], [-95.8011882, 36.0541359], [-95.8014187, 36.0542792], [-95.8015005, 36.054186]]]}, "properties": {"osm_id": 1034345303, "building": "industrial", "name": "", "height": null, "height_m": null, "levels": null, "tract_id": "40143007415", "tract_name": "74.15", "tags": {"addr:city": "Broken Arrow", "addr:postcode": "74012", "addr:street": "West Detroit Street", "building": "industrial"}}}, {"type": "Feature", "geometry": {"type": "Polygon", "coordinates": [[[-95.8018946, 36.0541298], [-95.8018925, 36.0539556], [-95.8017214, 36.0539534], [-95.8017207, 36.054132], [-95.8018946, 36.0541298]]]}, "properties": {"osm_id": 1034345304, "building": "industrial", "name": "", "height": null, "height_m": null, "levels": null, "tract_id": "40143007415", "tract_name": "74.15", "tags": {"addr:city": "Broken Arrow", "addr:postcode": "74012", "addr:street": "West Detroit Street", "building": "industrial"}}}, {"type": "Feature", "geometry": {"type": "Polygon", "coordinates": [[[-95.802468, 36.0540852], [-95.80247, 36.0537693], [-95.8021802, 36.0537699], [-95.8021768, 36.0540846], [-95.802468, 36.0540852]]]}, "properties": {"osm_id": 1034345305, "building": "industrial", "name": "", "height": null, "height_m": null, "levels": null, "tract_id": "40143007415", "tract_name": "74.15", "tags": {"addr:city": "Broken Arrow", "addr:postcode": "74012", "addr:street": "West Detroit Street", "building": "industrial"}}}, {"type": "Feature", "geometry": {"type": "Polygon", "coordinates": [[[-95.802168, 36.0541138], [-95.80217, 36.0538255], [-95.8019771, 36.0538255], [-95.8019736, 36.0541133], [-95.802168, 36.0541138]]]}, "properties": {"osm_id": 1034345306, "building": "industrial", "name": "", "height": null, "height_m": null, "levels": null, "tract_id": "40143007415", "tract_name": "74.15", "tags": {"addr:city": "Broken Arrow", "addr:postcode": "74012", "addr:street": "West Detroit Street", "building": "industrial"}}}, {"type": "Feature", "geometry": {"type": "Polygon", "coordinates": [[[-95.8049475, 36.0547375], [-95.8049497, 36.0545265], [-95.8047082, 36.0545265], [-95.8047043, 36.0545961], [-95.8046738, 36.0545937], [-95.8046743, 36.0548582], [-95.804807, 36.0548599], [-95.8048066, 36.0547368], [-95.8049475, 36.0547375]]]}, "properties": {"osm_id": 1034347122, "building": "industrial", "name": "", "height": null, "height_m": null, "levels": null, "tract_id": "40143007415", "tract_name": "74.15", "tags": {"addr:city": "Broken Arrow", "addr:postcode": "74012", "addr:street": "West Detroit Street", "building": "industrial"}}}, {"type": "Feature", "geometry": {"type": "Polygon", "coordinates": [[[-95.8051368, 36.0548881], [-95.8050006, 36.0548877], [-95.805001, 36.0548023], [-95.8051377, 36.054803], [-95.8051368, 36.0548881]]]}, "properties": {"osm_id": 1034347123, "building": "industrial", "name": "", "height": null, "height_m": null, "levels": null, "tract_id": "40143007415", "tract_name": "74.15", "tags": {"building": "industrial"}}}, {"type": "Feature", "geometry": {"type": "Polygon", "coordinates": [[[-95.8045409, 36.0548122], [-95.8045444, 36.0545315], [-95.804408, 36.0545302], [-95.8044085, 36.0548113], [-95.8045409, 36.0548122]]]}, "properties": {"osm_id": 1034347124, "building": "industrial", "name": "", "height": null, "height_m": null, "levels": null, "tract_id": "40143007415", "tract_name": "74.15", "tags": {"addr:city": "Broken Arrow", "addr:postcode": "74012", "addr:street": "West Detroit Street", "building": "industrial"}}}, {"type": "Feature", "geometry": {"type": "Polygon", "coordinates": [[[-95.8044039, 36.0548101], [-95.8044039, 36.0545311], [-95.80427, 36.0545302], [-95.804269, 36.0546598], [-95.8041396, 36.0546594], [-95.8041396, 36.0545977], [-95.8040856, 36.0545972], [-95.8040825, 36.054527], [-95.8038677, 36.0545262], [-95.8038657, 36.0548567], [-95.8039991, 36.0548567], [-95.8039991, 36.0548375], [-95.8041356, 36.0548379], [-95.8041361, 36.0547803], [-95.8042715, 36.0547803], [-95.804269, 36.0548093], [-95.8044039, 36.0548101]]]}, "properties": {"osm_id": 1034347125, "building": "industrial", "name": "", "height": null, "height_m": null, "levels": null, "tract_id": "40143007415", "tract_name": "74.15", "tags": {"addr:city": "Broken Arrow", "addr:postcode": "74012", "addr:street": "West Detroit Street", "building": "industrial"}}}, {"type": "Feature", "geometry": {"type": "Polygon", "coordinates": [[[-95.8037287, 36.0549637], [-95.8037287, 36.0545584], [-95.8035943, 36.0545551], [-95.8035933, 36.0549637], [-95.8037287, 36.0549637]]]}, "properties": {"osm_id": 1034347126, "building": "industrial", "name": "Air Cleaning Technologies", "height": null, "height_m": null, "levels": null, "tract_id": "40143007415", "tract_name": "74.15", "tags": {"addr:city": "Broken Arrow", "addr:housenumber": "1300", "addr:postcode": "74012", "addr:street": "West Detroit Street", "building": "industrial", "name": "Air Cleaning Technologies"}}}, {"type": "Feature", "geometry": {"type": "Polygon", "coordinates": [[[-95.8035774, 36.0549668], [-95.8035774, 36.0545163], [-95.8034394, 36.0546065], [-95.8034394, 36.0548402], [-95.8033486, 36.0548405], [-95.8033508, 36.0549657], [-95.8035774, 36.0549668]]]}, "properties": {"osm_id": 1034347127, "building": "industrial", "name": "", "height": null, "height_m": null, "levels": null, "tract_id": "40143007415", "tract_name": "74.15", "tags": {"building": "industrial"}}}, {"type": "Feature", "geometry": {"type": "Polygon", "coordinates": [[[-95.8033525, 36.0550833], [-95.8033561, 36.0549702], [-95.803261, 36.0549684], [-95.8032564, 36.0550802], [-95.8033525, 36.0550833]]]}, "properties": {"osm_id": 1034347128, "building": "industrial", "name": "", "height": null, "height_m": null, "levels": null, "tract_id": "40143007415", "tract_name": "74.15", "tags": {"building": "industrial"}}}, {"type": "Feature", "geometry": {"type": "Polygon", "coordinates": [[[-95.8045921, 36.0558401], [-95.8045937, 36.0552889], [-95.8041779, 36.0552889], [-95.8041795, 36.0555975], [-95.8041035, 36.0555949], [-95.8040987, 36.0557742], [-95.8041811, 36.0557754], [-95.8041803, 36.0558382], [-95.8045921, 36.0558401]]]}, "properties": {"osm_id": 1034347129, "building": "industrial", "name": "", "height": null, "height_m": null, "levels": null, "tract_id": "40143007415", "tract_name": "74.15", "tags": {"building": "industrial"}}}, {"type": "Feature", "geometry": {"type": "Polygon", "coordinates": [[[-95.8053087, 36.0564443], [-95.8055826, 36.0564451], [-95.8055833, 36.0558256], [-95.8054478, 36.0558256], [-95.8054476, 36.0557365], [-95.8053103, 36.0557373], [-95.8053103, 36.0561766], [-95.805164, 36.0561758], [-95.8051608, 36.0563773], [-95.8053089, 36.0563787], [-95.8053087, 36.0564443]]]}, "properties": {"osm_id": 1034347130, "building": "industrial", "name": "", "height": null, "height_m": null, "levels": null, "tract_id": "40143007415", "tract_name": "74.15", "tags": {"building": "industrial"}}}, {"type": "Feature", "geometry": {"type": "Polygon", "coordinates": [[[-95.806183, 36.056841], [-95.8061778, 36.0567302], [-95.806076, 36.0567285], [-95.8060777, 36.0563275], [-95.8061282, 36.0563282], [-95.8061265, 36.0559423], [-95.8058188, 36.055943], [-95.8058223, 36.0563282], [-95.8057684, 36.0563282], [-95.8057684, 36.0567397], [-95.805942, 36.0567411], [-95.8059363, 36.0568421], [-95.806183, 36.056841]]]}, "properties": {"osm_id": 1034347131, "building": "industrial", "name": "", "height": null, "height_m": null, "levels": null, "tract_id": "40143007415", "tract_name": "74.15", "tags": {"building": "industrial"}}}, {"type": "Feature", "geometry": {"type": "Polygon", "coordinates": [[[-95.802713, 36.0548319], [-95.8027759, 36.0547649], [-95.8027285, 36.0547355], [-95.8028317, 36.0546288], [-95.8025705, 36.0544674], [-95.802404, 36.0546411], [-95.802713, 36.0548319]]]}, "properties": {"osm_id": 1034347132, "building": "industrial", "name": "Tracer Corp", "height": null, "height_m": null, "levels": null, "tract_id": "40143007415", "tract_name": "74.15", "tags": {"addr:city": "Broken Arrow", "addr:housenumber": "305", "addr:postcode": "74012", "addr:street": "North Hickory Avenue", "building": "industrial", "description": "electric heat tracing", "name": "Tracer Corp", "note": "not sure if phone number is 1551 or 1591", "phone": "+1 918 251 1591"}}}, {"type": "Feature", "geometry": {"type": "Polygon", "coordinates": [[[-95.8026189, 36.0549344], [-95.8027023, 36.0548475], [-95.8023912, 36.0546548], [-95.8023084, 36.0547441], [-95.8026189, 36.0549344]]]}, "properties": {"osm_id": 1034347133, "building": "industrial", "name": "", "height": null, "height_m": null, "levels": null, "tract_id": "40143007415", "tract_name": "74.15", "tags": {"addr:city": "Broken Arrow", "addr:postcode": "74012", "addr:street": "North Hickory Avenue", "building": "industrial"}}}, {"type": "Feature", "geometry": {"type": "Polygon", "coordinates": [[[-95.8069101, 36.0568513], [-95.8064166, 36.0568502], [-95.8064152, 36.0562951], [-95.8066848, 36.0562962], [-95.8066848, 36.0560761], [-95.8065453, 36.0560761], [-95.806544, 36.055907], [-95.8066875, 36.055907], [-95.8066808, 36.055804], [-95.8069128, 36.0558029], [-95.8069101, 36.0568513]]]}, "properties": {"osm_id": 1034464044, "building": "industrial", "name": "", "height": null, "height_m": null, "levels": null, "tract_id": "40143007415", "tract_name": "74.15", "tags": {"building": "industrial"}}}, {"type": "Feature", "geometry": {"type": "Polygon", "coordinates": [[[-95.80689, 36.0571603], [-95.80689, 36.0570617], [-95.8064166, 36.0570649], [-95.8064206, 36.0571636], [-95.80689, 36.0571603]]]}, "properties": {"osm_id": 1034464046, "building": "industrial", "name": "", "height": null, "height_m": null, "levels": null, "tract_id": "40143007415", "tract_name": "74.15", "tags": {"building": "industrial"}}}, {"type": "Feature", "geometry": {"type": "Polygon", "coordinates": [[[-95.8066781, 36.0573446], [-95.8066741, 36.0571744], [-95.8065332, 36.0571777], [-95.8065346, 36.057259], [-95.8066781, 36.0573446]]]}, "properties": {"osm_id": 1034464047, "building": "industrial", "name": "", "height": null, "height_m": null, "levels": null, "tract_id": "40143007415", "tract_name": "74.15", "tags": {"building": "industrial"}}}, {"type": "Feature", "geometry": {"type": "Polygon", "coordinates": [[[-95.8068967, 36.0574769], [-95.8068927, 36.0571809], [-95.8067223, 36.057182], [-95.806725, 36.0573717], [-95.8068967, 36.0574769]]]}, "properties": {"osm_id": 1034464048, "building": "industrial", "name": "", "height": null, "height_m": null, "levels": null, "tract_id": "40143007415", "tract_name": "74.15", "tags": {"building": "industrial"}}}, {"type": "Feature", "geometry": {"type": "Polygon", "coordinates": [[[-95.8147677, 36.0545908], [-95.8147676, 36.0545183], [-95.8149581, 36.0545181], [-95.8149582, 36.0545906], [-95.8147677, 36.0545908]]]}, "properties": {"osm_id": 1079166346, "building": "commercial", "name": "Omni Pool and Spa Supplies", "height": null, "height_m": null, "levels": null, "tract_id": "40143007415", "tract_name": "74.15", "tags": {"building": "commercial", "name": "Omni Pool and Spa Supplies", "shop": "swimming_pool"}}}, {"type": "Feature", "geometry": {"type": "Polygon", "coordinates": [[[-95.8147678, 36.0546633], [-95.8147677, 36.0545908], [-95.8149582, 36.0545906], [-95.8149583, 36.0546631], [-95.8147678, 36.0546633]]]}, "properties": {"osm_id": 1079166347, "building": "commercial", "name": "", "height": null, "height_m": null, "levels": null, "tract_id": "40143007415", "tract_name": "74.15", "tags": {"building": "commercial"}}}, {"type": "Feature", "geometry": {"type": "Polygon", "coordinates": [[[-95.814768, 36.0547359], [-95.8147678, 36.0546633], [-95.8149583, 36.0546631], [-95.8149584, 36.0547357], [-95.814768, 36.0547359]]]}, "properties": {"osm_id": 1079166348, "building": "commercial", "name": "Aquarium Customs", "height": null, "height_m": null, "levels": null, "tract_id": "40143007415", "tract_name": "74.15", "tags": {"building": "commercial", "name": "Aquarium Customs", "pet": "fish", "shop": "pet"}}}, {"type": "Feature", "geometry": {"type": "Polygon", "coordinates": [[[-95.8147681, 36.0548084], [-95.814768, 36.0547359], [-95.8149584, 36.0547357], [-95.8149585, 36.0548082], [-95.8147681, 36.0548084]]]}, "properties": {"osm_id": 1079166349, "building": "commercial", "name": "Jackson Hewitt", "height": null, "height_m": null, "levels": null, "tract_id": "40143007415", "tract_name": "74.15", "tags": {"brand": "Jackson Hewitt", "brand:wikidata": "Q6117132", "building": "commercial", "name": "Jackson Hewitt", "office": "tax_advisor", "official_name": "Jackson Hewitt Tax Service"}}}, {"type": "Feature", "geometry": {"type": "Polygon", "coordinates": [[[-95.8147682, 36.0548809], [-95.8147681, 36.0548084], [-95.8149585, 36.0548082], [-95.8149586, 36.0548807], [-95.8147682, 36.0548809]]]}, "properties": {"osm_id": 1079166350, "building": "commercial", "name": "", "height": null, "height_m": null, "levels": null, "tract_id": "40143007415", "tract_name": "74.15", "tags": {"building": "commercial", "leisure": "tanning_salon", "shop": "beauty"}}}, {"type": "Feature", "geometry": {"type": "Polygon", "coordinates": [[[-95.8147683, 36.0549534], [-95.8147682, 36.0548809], [-95.8149586, 36.0548807], [-95.8149587, 36.0549532], [-95.8147683, 36.0549534]]]}, "properties": {"osm_id": 1079166351, "building": "commercial", "name": "Tiger Tint", "height": null, "height_m": null, "levels": null, "tract_id": "40143007415", "tract_name": "74.15", "tags": {"building": "commercial", "description": "Auto Tint", "name": "Tiger Tint", "shop": "car_repair"}}}, {"type": "Feature", "geometry": {"type": "Polygon", "coordinates": [[[-95.7991813, 36.0607803], [-95.7990781, 36.0607808], [-95.7990767, 36.0605737], [-95.79918, 36.0605733], [-95.7991813, 36.0607803]]]}, "properties": {"osm_id": 1167878214, "building": "commercial", "name": "Kofu Hibachi Grill and Sushi Bar", "height": null, "height_m": null, "levels": null, "tract_id": "40143007415", "tract_name": "74.15", "tags": {"addr:housenumber": "813", "addr:street": "West Kenosha Street", "amenity": "restaurant", "building": "commercial", "cuisine": "sushi", "name": "Kofu Hibachi Grill and Sushi Bar"}}}, {"type": "Feature", "geometry": {"type": "Polygon", "coordinates": [[[-95.7986429, 36.0607012], [-95.7986362, 36.0603684], [-95.7988144, 36.060366], [-95.7988405, 36.0603657], [-95.7988468, 36.0606781], [-95.7988207, 36.0606785], [-95.7988211, 36.0606989], [-95.7986429, 36.0607012]]]}, "properties": {"osm_id": 1167878215, "building": "commercial", "name": "Shamrock Tire and Auto Repair", "height": null, "height_m": null, "levels": null, "tract_id": "40143007415", "tract_name": "74.15", "tags": {"addr:housenumber": "805", "addr:street": "West Kenosha Street", "building": "commercial", "name": "Shamrock Tire and Auto Repair", "shop": "car_repair"}}}, {"type": "Feature", "geometry": {"type": "Polygon", "coordinates": [[[-95.7993166, 36.0604996], [-95.7995457, 36.0604984], [-95.7995465, 36.0606024], [-95.7997026, 36.0606016], [-95.7997034, 36.0607069], [-95.7993183, 36.060709], [-95.7993166, 36.0604996]]]}, "properties": {"osm_id": 1167878216, "building": "commercial", "name": "", "height": null, "height_m": null, "levels": null, "tract_id": "40143007415", "tract_name": "74.15", "tags": {"building": "commercial"}}}, {"type": "Feature", "geometry": {"type": "Polygon", "coordinates": [[[-95.8001261, 36.060608], [-95.8000664, 36.0606079], [-95.8000664, 36.0605974], [-95.8000233, 36.0605974], [-95.8000235, 36.0604326], [-95.800043, 36.0604326], [-95.8000431, 36.0603645], [-95.8001214, 36.0603646], [-95.8001213, 36.0604327], [-95.8001678, 36.0604327], [-95.8001676, 36.0605975], [-95.8001261, 36.0605975], [-95.8001261, 36.060608]]]}, "properties": {"osm_id": 1167878217, "building": "commercial", "name": "Kenosha Breeze Family Dental", "height": null, "height_m": null, "levels": null, "tract_id": "40143007415", "tract_name": "74.15", "tags": {"addr:housenumber": "901", "addr:street": "West Kenosha Street", "amenity": "dentist", "building": "commercial", "healthcare": "dentist", "name": "Kenosha Breeze Family Dental", "note": "Dennis J. Carlyle, DDS", "phone": "+1-918-236-5759"}}}, {"type": "Feature", "geometry": {"type": "Polygon", "coordinates": [[[-95.8006525, 36.0605939], [-95.8003937, 36.0605939], [-95.8003937, 36.0605559], [-95.8003648, 36.0604687], [-95.8003648, 36.0604074], [-95.8006109, 36.0604074], [-95.8006109, 36.0604247], [-95.8006525, 36.0604247], [-95.8006525, 36.0605939]]]}, "properties": {"osm_id": 1167944630, "building": "commercial", "name": "", "height": null, "height_m": null, "levels": null, "tract_id": "40143007415", "tract_name": "74.15", "tags": {"addr:street": "West Kenosha Street", "building": "commercial", "description": "looks like it was an old bank, not currently in use, except it looks like someone is using it for storage"}}}, {"type": "Feature", "geometry": {"type": "Polygon", "coordinates": [[[-95.7978033, 36.0570763], [-95.7978033, 36.0568817], [-95.7978697, 36.0568817], [-95.7979951, 36.0568817], [-95.7979951, 36.056912], [-95.7980427, 36.056912], [-95.7980427, 36.0569511], [-95.7979951, 36.0569511], [-95.7979951, 36.0570763], [-95.7978033, 36.0570763]]]}, "properties": {"osm_id": 1167958982, "building": "commercial", "name": "BA Med Spa and Weight Loss Center", "height": null, "height_m": null, "levels": null, "tract_id": "40143007415", "tract_name": "74.15", "tags": {"addr:street": "North Elm Place", "amenity": "clinic", "building": "commercial", "healthcare": "clinic", "healthcare:speciality": "weight_loss", "name": "BA Med Spa and Weight Loss Center"}}}, {"type": "Feature", "geometry": {"type": "Polygon", "coordinates": [[[-95.7980427, 36.0570752], [-95.7980427, 36.0569511], [-95.7980427, 36.056912], [-95.7980427, 36.0568839], [-95.7981299, 36.0568839], [-95.7981299, 36.0568928], [-95.7981299, 36.0570752], [-95.7980427, 36.0570752]]]}, "properties": {"osm_id": 1167958983, "building": "commercial", "name": "James Campbell, D.O.", "height": null, "height_m": null, "levels": null, "tract_id": "40143007415", "tract_name": "74.15", "tags": {"addr:street": "North Elm Place", "amenity": "doctors", "building": "commercial", "description": "family practice", "healthcare": "doctor", "healthcare:speciality": "general", "name": "James Campbell, D.O.", "phone": "+1-918-251-1391"}}}, {"type": "Feature", "geometry": {"type": "Polygon", "coordinates": [[[-95.7984839, 36.0598586], [-95.7984841, 36.0598952], [-95.7985356, 36.0598951], [-95.7985358, 36.0599794], [-95.7984001, 36.0599797], [-95.7983998, 36.0598954], [-95.7984377, 36.0598953], [-95.7984376, 36.0598587], [-95.7983746, 36.0598588], [-95.798374, 36.0596496], [-95.7985296, 36.0596493], [-95.7985302, 36.0598585], [-95.7984839, 36.0598586]]]}, "properties": {"osm_id": 1167958987, "building": "commercial", "name": "", "height": null, "height_m": null, "levels": null, "tract_id": "40143007415", "tract_name": "74.15", "tags": {"addr:housenumber": "816", "addr:street": "North Elm Place", "building": "commercial", "operator": "Bethel Collision Center"}}}, {"type": "Feature", "geometry": {"type": "Polygon", "coordinates": [[[-95.7982794, 36.059354], [-95.7980514, 36.0593553], [-95.7980132, 36.0593252], [-95.7978728, 36.059326], [-95.7978717, 36.0592013], [-95.7982781, 36.0591991], [-95.7982794, 36.059354]]]}, "properties": {"osm_id": 1167958989, "building": "commercial", "name": "Braum's", "height": null, "height_m": null, "levels": null, "tract_id": "40143007415", "tract_name": "74.15", "tags": {"addr:housenumber": "804", "addr:postcode": "74012", "addr:street": "North Elm Place", "air_conditioning": "yes", "amenity": "fast_food", "brand": "Braum's", "brand:wikidata": "Q4958263", "building": "commercial", "cuisine": "ice_cream;burger", "name": "Braum's", "phone": "+1-918-258-2424", "ref": "45", "shop": "dairy", "takeaway": "yes", "wheelchair": "yes"}}}, {"type": "Feature", "geometry": {"type": "Polygon", "coordinates": [[[-95.7981708, 36.0601591], [-95.7978141, 36.0601586], [-95.7978145, 36.0599645], [-95.7981712, 36.0599651], [-95.7981708, 36.0601591]]]}, "properties": {"osm_id": 1167958992, "building": "commercial", "name": "Bethel Collision Center", "height": null, "height_m": null, "levels": null, "tract_id": "40143007415", "tract_name": "74.15", "tags": {"addr:street": "North Elm Place", "building": "commercial", "name": "Bethel Collision Center", "phone": "+1 918 258 3318", "shop": "car_repair"}}}, {"type": "Feature", "geometry": {"type": "Polygon", "coordinates": [[[-95.8094793, 36.0560974], [-95.8093895, 36.0560975], [-95.8093893, 36.0559969], [-95.809559, 36.0559966], [-95.8095593, 36.056106], [-95.8099787, 36.0561052], [-95.8099784, 36.0560065], [-95.8102411, 36.056006], [-95.8102414, 36.0561048], [-95.8104728, 36.0561044], [-95.8104733, 36.0562934], [-95.8094798, 36.0562951], [-95.8094793, 36.0560974]]]}, "properties": {"osm_id": 1168429611, "building": "industrial", "name": "Mayflower", "height": null, "height_m": null, "levels": null, "tract_id": "40143007415", "tract_name": "74.15", "tags": {"addr:city": "Broken Arrow", "addr:postcode": "74012", "addr:street": "North Poplar Avenue", "building": "industrial", "name": "Mayflower", "office": "moving_company"}}}, {"type": "Feature", "geometry": {"type": "Polygon", "coordinates": [[[-95.812943, 36.0571003], [-95.8133725, 36.057102], [-95.8133718, 36.0572124], [-95.8132871, 36.0572121], [-95.8132868, 36.0572687], [-95.8127566, 36.0572666], [-95.8127582, 36.0570107], [-95.8129436, 36.0570115], [-95.812943, 36.0571003]]]}, "properties": {"osm_id": 1168429612, "building": "industrial", "name": "", "height": null, "height_m": null, "levels": null, "tract_id": "40143007415", "tract_name": "74.15", "tags": {"building": "industrial"}}}, {"type": "Feature", "geometry": {"type": "Polygon", "coordinates": [[[-95.8139269, 36.0580181], [-95.813928, 36.0576917], [-95.8143008, 36.0576925], [-95.8142999, 36.0579739], [-95.8140939, 36.0579735], [-95.8140937, 36.0580185], [-95.8139269, 36.0580181]]]}, "properties": {"osm_id": 1168429613, "building": "industrial", "name": "", "height": null, "height_m": null, "levels": null, "tract_id": "40143007415", "tract_name": "74.15", "tags": {"building": "industrial"}}}, {"type": "Feature", "geometry": {"type": "Polygon", "coordinates": [[[-95.8139237, 36.0570673], [-95.8140582, 36.0570675], [-95.814058, 36.0571174], [-95.8142767, 36.0571178], [-95.814277, 36.0570136], [-95.8143999, 36.0570138], [-95.8143992, 36.0572472], [-95.8139232, 36.0572464], [-95.8139237, 36.0570673]]]}, "properties": {"osm_id": 1168429614, "building": "commercial", "name": "", "height": null, "height_m": null, "levels": null, "tract_id": "40143007415", "tract_name": "74.15", "tags": {"building": "commercial"}}}, {"type": "Feature", "geometry": {"type": "Polygon", "coordinates": [[[-95.8094347, 36.0568551], [-95.8094337, 36.0566312], [-95.8102331, 36.0566343], [-95.8102331, 36.056432], [-95.810352, 36.056432], [-95.810352, 36.0563897], [-95.8104633, 36.0563897], [-95.8104633, 36.056432], [-95.810471, 36.056432], [-95.81047, 36.0568551], [-95.8094347, 36.0568551]]]}, "properties": {"osm_id": 1168429615, "building": "industrial", "name": "Allied Home Health", "height": null, "height_m": null, "levels": null, "tract_id": "40143007415", "tract_name": "74.15", "tags": {"addr:city": "Broken Arrow", "addr:housenumber": "500", "addr:postcode": "74012", "addr:street": "North Poplar Avenue", "building": "industrial", "name": "Allied Home Health", "phone": "+1 918 742 4289", "shop": "medical_supply"}}}, {"type": "Feature", "geometry": {"type": "Polygon", "coordinates": [[[-95.8126437, 36.0578452], [-95.8120435, 36.0578435], [-95.8120444, 36.0576185], [-95.8126446, 36.0576201], [-95.8126437, 36.0578452]]]}, "properties": {"osm_id": 1168429617, "building": "industrial", "name": "", "height": null, "height_m": null, "levels": null, "tract_id": "40143007415", "tract_name": "74.15", "tags": {"addr:street": "North Redbud Avenue", "building": "industrial"}}}, {"type": "Feature", "geometry": {"type": "Polygon", "coordinates": [[[-95.8126418, 36.0582928], [-95.8126409, 36.0585145], [-95.8120383, 36.0585129], [-95.812039, 36.0582911], [-95.8126418, 36.0582928]]]}, "properties": {"osm_id": 1168429618, "building": "industrial", "name": "", "height": null, "height_m": null, "levels": null, "tract_id": "40143007415", "tract_name": "74.15", "tags": {"addr:street": "North Redbud Avenue", "building": "industrial"}}}, {"type": "Feature", "geometry": {"type": "Polygon", "coordinates": [[[-95.8126427, 36.0580706], [-95.8126418, 36.0582928], [-95.812039, 36.0582911], [-95.8120395, 36.058069], [-95.8126427, 36.0580706]]]}, "properties": {"osm_id": 1168429619, "building": "industrial", "name": "", "height": null, "height_m": null, "levels": null, "tract_id": "40143007415", "tract_name": "74.15", "tags": {"addr:street": "North Redbud Avenue", "building": "industrial"}}}, {"type": "Feature", "geometry": {"type": "Polygon", "coordinates": [[[-95.8126427, 36.0580706], [-95.8120395, 36.058069], [-95.8120403, 36.0578435], [-95.8120435, 36.0578435], [-95.8126437, 36.0578452], [-95.8126427, 36.0580706]]]}, "properties": {"osm_id": 1168429620, "building": "industrial", "name": "", "height": null, "height_m": null, "levels": null, "tract_id": "40143007415", "tract_name": "74.15", "tags": {"addr:street": "North Redbud Avenue", "building": "industrial"}}}, {"type": "Feature", "geometry": {"type": "Polygon", "coordinates": [[[-95.8020513, 36.0545268], [-95.8019735, 36.0545268], [-95.8019735, 36.0544368], [-95.8020513, 36.0544368], [-95.8020513, 36.0545268]]]}, "properties": {"osm_id": 1168964664, "building": "industrial", "name": "", "height": null, "height_m": null, "levels": null, "tract_id": "40143007415", "tract_name": "74.15", "tags": {"building": "industrial"}}}, {"type": "Feature", "geometry": {"type": "Polygon", "coordinates": [[[-95.8021881, 36.0547545], [-95.8019896, 36.0546395], [-95.8020561, 36.0545644], [-95.8022546, 36.0546794], [-95.8021881, 36.0547545]]]}, "properties": {"osm_id": 1168964665, "building": "industrial", "name": "", "height": null, "height_m": null, "levels": null, "tract_id": "40143007415", "tract_name": "74.15", "tags": {"building": "industrial"}}}, {"type": "Feature", "geometry": {"type": "Polygon", "coordinates": [[[-95.7981359, 36.0557997], [-95.7979636, 36.0557997], [-95.7979636, 36.0557449], [-95.7981359, 36.0557449], [-95.7981359, 36.0557997]]]}, "properties": {"osm_id": 1168964666, "building": "industrial", "name": "", "height": null, "height_m": null, "levels": null, "tract_id": "40143007415", "tract_name": "74.15", "tags": {"addr:housenumber": "720", "addr:postcode": "74012", "addr:street": "West Elgin Street", "building": "industrial"}}}, {"type": "Feature", "geometry": {"type": "Polygon", "coordinates": [[[-95.8005252, 36.0558464], [-95.8004098, 36.0558471], [-95.8004078, 36.0556137], [-95.8005231, 36.0556131], [-95.8005252, 36.0558464]]]}, "properties": {"osm_id": 1168964667, "building": "industrial", "name": "Weeks Service Company", "height": null, "height_m": null, "levels": null, "tract_id": "40143007415", "tract_name": "74.15", "tags": {"addr:housenumber": "800", "addr:postcode": "74012", "addr:street": "West Elgin Street", "building": "industrial", "name": "Weeks Service Company"}}}, {"type": "Feature", "geometry": {"type": "Polygon", "coordinates": [[[-95.8078623, 36.0579713], [-95.8077801, 36.0579719], [-95.8077791, 36.0578872], [-95.8075592, 36.0578889], [-95.8075576, 36.0577533], [-95.8079841, 36.0577501], [-95.8079857, 36.0578856], [-95.8078613, 36.0578866], [-95.8078623, 36.0579713]]]}, "properties": {"osm_id": 1171889926, "building": "industrial", "name": "", "height": null, "height_m": null, "levels": null, "tract_id": "40143007415", "tract_name": "74.15", "tags": {"building": "industrial"}}}, {"type": "Feature", "geometry": {"type": "Polygon", "coordinates": [[[-95.8114913, 36.057942], [-95.8108154, 36.0579399], [-95.8108165, 36.0577187], [-95.8114924, 36.0577208], [-95.8114913, 36.057942]]]}, "properties": {"osm_id": 1171889927, "building": "industrial", "name": "", "height": null, "height_m": null, "levels": null, "tract_id": "40143007415", "tract_name": "74.15", "tags": {"addr:street": "North Redbud Avenue", "building": "industrial"}}}, {"type": "Feature", "geometry": {"type": "Polygon", "coordinates": [[[-95.8109254, 36.0549258], [-95.8109254, 36.0545398], [-95.8110957, 36.0545398], [-95.8110957, 36.0549258], [-95.8109254, 36.0549258]]]}, "properties": {"osm_id": 1172034136, "building": "industrial", "name": "Rain-Flo Seamless Guttering", "height": null, "height_m": null, "levels": null, "tract_id": "40143007415", "tract_name": "74.15", "tags": {"addr:housenumber": "1910", "addr:street": "West Detroit Street", "building": "industrial", "name": "Rain-Flo Seamless Guttering", "phone": "+1-918-232-3232"}}}, {"type": "Feature", "geometry": {"type": "Polygon", "coordinates": [[[-95.8111198, 36.0548293], [-95.8111198, 36.0546905], [-95.8115087, 36.0546905], [-95.8115087, 36.0548293], [-95.8111198, 36.0548293]]]}, "properties": {"osm_id": 1172034137, "building": "industrial", "name": "Wild West Pest Solutions", "height": null, "height_m": null, "levels": null, "tract_id": "40143007415", "tract_name": "74.15", "tags": {"addr:street": "North Redbud Avenue", "building": "industrial", "name": "Wild West Pest Solutions", "phone": "+1-918-695-8931", "shop": "pest_control"}}}, {"type": "Feature", "geometry": {"type": "Polygon", "coordinates": [[[-95.8106866, 36.0550786], [-95.8115034, 36.0550808], [-95.8115028, 36.0552152], [-95.8106861, 36.0552131], [-95.8106866, 36.0550786]]]}, "properties": {"osm_id": 1172034138, "building": "commercial", "name": "", "height": null, "height_m": null, "levels": null, "tract_id": "40143007415", "tract_name": "74.15", "tags": {"addr:street": "North Redbud Avenue", "building": "commercial"}}}, {"type": "Feature", "geometry": {"type": "Polygon", "coordinates": [[[-95.8115034, 36.0554841], [-95.8111614, 36.0554831], [-95.8111619, 36.0553703], [-95.8115039, 36.0553714], [-95.8115034, 36.0554841]]]}, "properties": {"osm_id": 1172034139, "building": "commercial", "name": "American Streetedge Self-Defense and Personal Protection", "height": null, "height_m": null, "levels": null, "tract_id": "40143007415", "tract_name": "74.15", "tags": {"addr:housenumber": "309", "addr:street": "North Redbud Avenue", "building": "commercial", "name": "American Streetedge Self-Defense and Personal Protection", "phone": "+1-918-960-0710"}}}, {"type": "Feature", "geometry": {"type": "Polygon", "coordinates": [[[-95.8106987, 36.0554831], [-95.8107001, 36.0552304], [-95.8108718, 36.055231], [-95.8108704, 36.0554837], [-95.8106987, 36.0554831]]]}, "properties": {"osm_id": 1172034140, "building": "commercial", "name": "", "height": null, "height_m": null, "levels": null, "tract_id": "40143007415", "tract_name": "74.15", "tags": {"addr:street": "North Redbud Avenue", "building": "commercial"}}}, {"type": "Feature", "geometry": {"type": "Polygon", "coordinates": [[[-95.8115007, 36.0557585], [-95.8108221, 36.0557541], [-95.8108235, 36.055611], [-95.8115021, 36.0556153], [-95.8115007, 36.0557585]]]}, "properties": {"osm_id": 1172034141, "building": "commercial", "name": "Countertop Solutions", "height": null, "height_m": null, "levels": null, "tract_id": "40143007415", "tract_name": "74.15", "tags": {"addr:housenumber": "313", "addr:street": "North Redbud Avenue", "building": "commercial", "name": "Countertop Solutions"}}}, {"type": "Feature", "geometry": {"type": "Polygon", "coordinates": [[[-95.8115087, 36.0560317], [-95.810755, 36.0560317], [-95.810755, 36.0558907], [-95.8115087, 36.0558907], [-95.8115087, 36.0560317]]]}, "properties": {"osm_id": 1172034142, "building": "industrial", "name": "Lee Plumbing, Heat & Air, Electrical", "height": null, "height_m": null, "levels": null, "tract_id": "40143007415", "tract_name": "74.15", "tags": {"addr:housenumber": "401", "addr:street": "North Redbud Avenue", "building": "industrial", "name": "Lee Plumbing, Heat & Air, Electrical", "phone": "+1-918-300-0404", "trade": "plumbing"}}}, {"type": "Feature", "geometry": {"type": "Polygon", "coordinates": [[[-95.8106907, 36.0561043], [-95.8109415, 36.0561043], [-95.8109415, 36.0561835], [-95.8115074, 36.0561835], [-95.8115074, 36.056319], [-95.8106907, 36.056319], [-95.8106907, 36.0561043]]]}, "properties": {"osm_id": 1172034143, "building": "industrial", "name": "", "height": null, "height_m": null, "levels": null, "tract_id": "40143007415", "tract_name": "74.15", "tags": {"addr:housenumber": "405", "addr:street": "North Redbud Avenue", "building": "industrial"}}}, {"type": "Feature", "geometry": {"type": "Polygon", "coordinates": [[[-95.8126849, 36.0553584], [-95.8122464, 36.0553551], [-95.8122473, 36.0552749], [-95.812583, 36.0552774], [-95.8125839, 36.0551969], [-95.8126867, 36.0551977], [-95.8126849, 36.0553584]]]}, "properties": {"osm_id": 1172034144, "building": "commercial", "name": "Coker's Custom Woodworks and Kitchen Remodeling", "height": null, "height_m": null, "levels": null, "tract_id": "40143007415", "tract_name": "74.15", "tags": {"addr:street": "North Redbud Avenue", "building": "commercial", "craft": "carpenter", "name": "Coker's Custom Woodworks and Kitchen Remodeling", "phone": "+1-918-658-3443"}}}, {"type": "Feature", "geometry": {"type": "Polygon", "coordinates": [[[-95.8127499, 36.0564663], [-95.813222, 36.0564675], [-95.813222, 36.056472], [-95.8133929, 36.0564724], [-95.8133928, 36.0564857], [-95.8134059, 36.0564857], [-95.8134057, 36.0565242], [-95.8133927, 36.0565241], [-95.8133925, 36.0565681], [-95.8134052, 36.0565681], [-95.8134051, 36.0566063], [-95.8133924, 36.0566063], [-95.8133923, 36.0566199], [-95.813217, 36.0566194], [-95.813217, 36.0566326], [-95.8131465, 36.0566324], [-95.8131466, 36.0566192], [-95.813047, 36.056619], [-95.813047, 36.056632], [-95.8129772, 36.0566319], [-95.8129773, 36.0566188], [-95.8128851, 36.0566186], [-95.8128851, 36.056631], [-95.8128149, 36.0566308], [-95.812815, 36.0566184], [-95.8127493, 36.0566182], [-95.8127499, 36.0564663]]]}, "properties": {"osm_id": 1172034145, "building": "commercial", "name": "", "height": null, "height_m": null, "levels": null, "tract_id": "40143007415", "tract_name": "74.15", "tags": {"building": "commercial"}}}, {"type": "Feature", "geometry": {"type": "Polygon", "coordinates": [[[-95.8132629, 36.0562971], [-95.812752, 36.0562952], [-95.8127533, 36.0560815], [-95.8132641, 36.0560834], [-95.8132643, 36.0560544], [-95.8133959, 36.0560549], [-95.8133943, 36.0563287], [-95.8132627, 36.0563283], [-95.8132629, 36.0562971]]]}, "properties": {"osm_id": 1172034146, "building": "commercial", "name": "", "height": null, "height_m": 3.0, "levels": 1, "tract_id": "40143007415", "tract_name": "74.15", "tags": {"addr:city": "Broken Arrow", "addr:housenumber": "405", "addr:postcode": "74012", "addr:state": "OK", "addr:street": "North Walnut Avenue", "building": "commercial", "building:levels": "1", "smoking": "no"}}}, {"type": "Feature", "geometry": {"type": "Polygon", "coordinates": [[[-95.813397, 36.0558907], [-95.8127573, 36.0558907], [-95.8127573, 36.055753], [-95.813397, 36.055753], [-95.813397, 36.0558907]]]}, "properties": {"osm_id": 1172034147, "building": "commercial", "name": "", "height": null, "height_m": null, "levels": null, "tract_id": "40143007415", "tract_name": "74.15", "tags": {"building": "commercial"}}}, {"type": "Feature", "geometry": {"type": "Polygon", "coordinates": [[[-95.8126594, 36.0547306], [-95.8120519, 36.0547295], [-95.8120525, 36.0545192], [-95.81266, 36.0545203], [-95.8126594, 36.0547306]]]}, "properties": {"osm_id": 1172034173, "building": "industrial", "name": "", "height": null, "height_m": null, "levels": null, "tract_id": "40143007415", "tract_name": "74.15", "tags": {"addr:street": "North Redbud Avenue", "building": "industrial"}}}, {"type": "Feature", "geometry": {"type": "Polygon", "coordinates": [[[-95.8133394, 36.0552825], [-95.8130175, 36.0552836], [-95.8130169, 36.055173], [-95.8130765, 36.0551728], [-95.8130761, 36.0550928], [-95.8132571, 36.0550921], [-95.8132575, 36.0551721], [-95.8133388, 36.0551719], [-95.8133394, 36.0552825]]]}, "properties": {"osm_id": 1172034174, "building": "industrial", "name": "", "height": null, "height_m": null, "levels": null, "tract_id": "40143007415", "tract_name": "74.15", "tags": {"building": "industrial"}}}, {"type": "Feature", "geometry": {"type": "Polygon", "coordinates": [[[-95.8128271, 36.0545344], [-95.8134078, 36.0545355], [-95.8134071, 36.0547773], [-95.8128264, 36.0547762], [-95.8128271, 36.0545344]]]}, "properties": {"osm_id": 1172034175, "building": "commercial", "name": "", "height": null, "height_m": null, "levels": null, "tract_id": "40143007415", "tract_name": "74.15", "tags": {"building": "commercial"}}}, {"type": "Feature", "geometry": {"type": "Polygon", "coordinates": [[[-95.812454, 36.0548899], [-95.8124529, 36.0549811], [-95.8120465, 36.0549778], [-95.8120484, 36.0548239], [-95.8124952, 36.0548275], [-95.8124944, 36.0548903], [-95.812454, 36.0548899]]]}, "properties": {"osm_id": 1172034176, "building": "commercial", "name": "King Valve", "height": null, "height_m": null, "levels": null, "tract_id": "40143007415", "tract_name": "74.15", "tags": {"addr:housenumber": "304", "addr:street": "North Redbud Avenue", "building": "commercial", "name": "King Valve"}}}, {"type": "Feature", "geometry": {"type": "Polygon", "coordinates": [[[-95.8124207, 36.055559], [-95.8120438, 36.0555611], [-95.8120422, 36.0553693], [-95.812419, 36.0553671], [-95.8124207, 36.055559]]]}, "properties": {"osm_id": 1172034177, "building": "commercial", "name": "", "height": null, "height_m": null, "levels": null, "tract_id": "40143007415", "tract_name": "74.15", "tags": {"addr:housenumber": "314", "addr:street": "North Redbud Avenue", "building": "commercial", "shop": "vacant"}}}, {"type": "Feature", "geometry": {"type": "Polygon", "coordinates": [[[-95.8125441, 36.0558604], [-95.8122061, 36.0558604], [-95.8122061, 36.0558062], [-95.8120371, 36.0558062], [-95.8120371, 36.055688], [-95.8122061, 36.055688], [-95.8122061, 36.0556457], [-95.8125441, 36.0556457], [-95.8125441, 36.0558604]]]}, "properties": {"osm_id": 1172034178, "building": "commercial", "name": "", "height": null, "height_m": null, "levels": null, "tract_id": "40143007415", "tract_name": "74.15", "tags": {"addr:housenumber": "400", "addr:street": "North Redbud Avenue", "building": "commercial"}}}, {"type": "Feature", "geometry": {"type": "Polygon", "coordinates": [[[-95.8125595, 36.0568584], [-95.8120412, 36.05686], [-95.8120401, 36.0566388], [-95.8122168, 36.0566383], [-95.8122166, 36.0565813], [-95.8125582, 36.0565803], [-95.8125595, 36.0568584]]]}, "properties": {"osm_id": 1172034180, "building": "commercial", "name": "Cogent Company", "height": null, "height_m": null, "levels": null, "tract_id": "40143007415", "tract_name": "74.15", "tags": {"addr:housenumber": "412", "addr:street": "North Redbud Avenue", "alt_name": "Vanco Automatic Engineering", "building": "commercial", "name": "Cogent Company"}}}, {"type": "Feature", "geometry": {"type": "Polygon", "coordinates": [[[-95.8123971, 36.0568753], [-95.8123972, 36.0569212], [-95.812371, 36.0569213], [-95.8123713, 36.0570179], [-95.8120327, 36.0570186], [-95.8120322, 36.0568761], [-95.8123971, 36.0568753]]]}, "properties": {"osm_id": 1172034181, "building": "commercial", "name": "Bronco Hut", "height": null, "height_m": null, "levels": null, "tract_id": "40143007415", "tract_name": "74.15", "tags": {"addr:city": "Broken Arrow", "addr:country": "US", "addr:housenumber": "502", "addr:postcode": "74012", "addr:state": "OK", "addr:street": "North Redbud Avenue", "building": "commercial", "name": "Bronco Hut", "phone": "918-994-7260", "shop": "motorcycle", "website": "https://broncohut.com"}}}, {"type": "Feature", "geometry": {"type": "Polygon", "coordinates": [[[-95.8120398, 36.0564567], [-95.8120398, 36.0562875], [-95.8121713, 36.0562875], [-95.8121713, 36.0562398], [-95.8125132, 36.0562398], [-95.8125132, 36.0564036], [-95.8126192, 36.0564036], [-95.8126192, 36.0564499], [-95.8125132, 36.0564499], [-95.8125132, 36.0564567], [-95.8120398, 36.0564567]]]}, "properties": {"osm_id": 1172034182, "building": "commercial", "name": "", "height": null, "height_m": null, "levels": null, "tract_id": "40143007415", "tract_name": "74.15", "tags": {"addr:housenumber": "408", "addr:street": "North Redbud Avenue", "building": "commercial"}}}, {"type": "Feature", "geometry": {"type": "Polygon", "coordinates": [[[-95.8126715, 36.0565174], [-95.8126044, 36.0565174], [-95.8126044, 36.0564827], [-95.8126715, 36.0564827], [-95.8126715, 36.0565174]]]}, "properties": {"osm_id": 1172034183, "building": "service", "name": "", "height": null, "height_m": null, "levels": null, "tract_id": "40143007415", "tract_name": "74.15", "tags": {"building": "service"}}}, {"type": "Feature", "geometry": {"type": "Polygon", "coordinates": [[[-95.8145068, 36.0599362], [-95.8144479, 36.0599364], [-95.814447, 36.0597706], [-95.8148587, 36.0597692], [-95.8148596, 36.059935], [-95.8146609, 36.0599357], [-95.814661, 36.0599591], [-95.8145069, 36.0599597], [-95.8145068, 36.0599362]]]}, "properties": {"osm_id": 1172619789, "building": "commercial", "name": "Shanghai Avenue Super Buffet", "height": null, "height_m": null, "levels": null, "tract_id": "40143007415", "tract_name": "74.15", "tags": {"amenity": "restaurant", "building": "commercial", "cuisine": "chinese", "name": "Shanghai Avenue Super Buffet"}}}, {"type": "Feature", "geometry": {"type": "Polygon", "coordinates": [[[-95.8144917, 36.0592901], [-95.8144263, 36.0593444], [-95.8142455, 36.0593436], [-95.813903, 36.0595612], [-95.8138015, 36.0595513], [-95.81368, 36.0596285], [-95.8136798, 36.0596874], [-95.8137115, 36.059713], [-95.813711, 36.0598776], [-95.813644, 36.0599304], [-95.8136437, 36.06004], [-95.8137108, 36.0600401], [-95.8137103, 36.060206], [-95.813643, 36.0602586], [-95.8136427, 36.0603672], [-95.8137082, 36.0603673], [-95.8137077, 36.0605208], [-95.8136772, 36.060549], [-95.8134741, 36.0605486], [-95.8134391, 36.0605203], [-95.8133749, 36.0605202], [-95.8133081, 36.06052], [-95.8133088, 36.0602898], [-95.8133758, 36.0602352], [-95.8133762, 36.0600952], [-95.8133108, 36.0600408], [-95.8133115, 36.0597938], [-95.8133772, 36.0597385], [-95.8133776, 36.0596301], [-95.8134976, 36.0596303], [-95.8134989, 36.059545], [-95.8141561, 36.0591276], [-95.8148146, 36.0591303], [-95.8148141, 36.0592121], [-95.8148474, 36.0592387], [-95.8148469, 36.0593209], [-95.8148132, 36.0593479], [-95.8146308, 36.0593471], [-95.8146312, 36.0592907], [-95.8144917, 36.0592901]]]}, "properties": {"osm_id": 1172619790, "building": "commercial", "name": "", "height": null, "height_m": null, "levels": null, "tract_id": "40143007415", "tract_name": "74.15", "tags": {"building": "commercial"}}}, {"type": "Feature", "geometry": {"type": "Polygon", "coordinates": [[[-95.8147858, 36.056977], [-95.8147855, 36.0570683], [-95.8149446, 36.0570686], [-95.8149449, 36.0569773], [-95.8147858, 36.056977]]]}, "properties": {"osm_id": 1172619791, "building": "commercial", "name": "Empire Finance", "height": null, "height_m": null, "levels": null, "tract_id": "40143007415", "tract_name": "74.15", "tags": {"building": "commercial", "name": "Empire Finance", "phone": "+1-918-258-0404", "shop": "money_lender"}}}, {"type": "Feature", "geometry": {"type": "Polygon", "coordinates": [[[-95.8149449, 36.0569773], [-95.8149452, 36.0568861], [-95.8147861, 36.0568857], [-95.8147858, 36.056977], [-95.8149449, 36.0569773]]]}, "properties": {"osm_id": 1172619792, "building": "commercial", "name": "BA Tax Pros", "height": null, "height_m": null, "levels": null, "tract_id": "40143007415", "tract_name": "74.15", "tags": {"building": "commercial", "name": "BA Tax Pros", "office": "accountant", "phone": "918-258-0009"}}}, {"type": "Feature", "geometry": {"type": "Polygon", "coordinates": [[[-95.8149439, 36.0572512], [-95.8149446, 36.0570686], [-95.8147855, 36.0570683], [-95.8147849, 36.0572509], [-95.8149439, 36.0572512]]]}, "properties": {"osm_id": 1172619793, "building": "commercial", "name": "360 Health & Wellness", "height": null, "height_m": null, "levels": null, "tract_id": "40143007415", "tract_name": "74.15", "tags": {"building": "commercial", "fixme": "not completely sure what type of shop this is", "name": "360 Health & Wellness", "shop": "nutrition_supplements"}}}, {"type": "Feature", "geometry": {"type": "Polygon", "coordinates": [[[-95.8149451, 36.0560377], [-95.8149444, 36.0559084], [-95.8146258, 36.0559095], [-95.8146265, 36.0560387], [-95.8149451, 36.0560377]]]}, "properties": {"osm_id": 1172619794, "building": "commercial", "name": "Farmers Insurance", "height": null, "height_m": null, "levels": null, "tract_id": "40143007415", "tract_name": "74.15", "tags": {"brand": "Farmers Insurance", "brand:wikidata": "Q1396863", "building": "commercial", "name": "Farmers Insurance", "office": "insurance"}}}, {"type": "Feature", "geometry": {"type": "Polygon", "coordinates": [[[-95.8149458, 36.056167], [-95.8149451, 36.0560377], [-95.8146265, 36.0560387], [-95.8146272, 36.056168], [-95.8149458, 36.056167]]]}, "properties": {"osm_id": 1172619795, "building": "commercial", "name": "Mobile Concepts Car Audio and Security", "height": null, "height_m": null, "levels": null, "tract_id": "40143007415", "tract_name": "74.15", "tags": {"building": "commercial", "name": "Mobile Concepts Car Audio and Security", "shop": "electronics"}}}, {"type": "Feature", "geometry": {"type": "Polygon", "coordinates": [[[-95.8149465, 36.0562962], [-95.8149458, 36.056167], [-95.8146272, 36.056168], [-95.8146278, 36.0562973], [-95.8149465, 36.0562962]]]}, "properties": {"osm_id": 1172619796, "building": "commercial", "name": "HML Choices Insurance Agency", "height": null, "height_m": null, "levels": null, "tract_id": "40143007415", "tract_name": "74.15", "tags": {"building": "commercial", "name": "HML Choices Insurance Agency", "office": "insurance"}}}, {"type": "Feature", "geometry": {"type": "Polygon", "coordinates": [[[-95.8146241, 36.0586196], [-95.8146261, 36.0585102], [-95.8149077, 36.0585135], [-95.8149058, 36.0586229], [-95.8146241, 36.0586196]]]}, "properties": {"osm_id": 1172619797, "building": "commercial", "name": "Mazzio's", "height": null, "height_m": null, "levels": null, "tract_id": "40143007415", "tract_name": "74.15", "tags": {"addr:city": "Broken Arrow", "addr:housenumber": "611", "addr:postcode": "74012", "addr:state": "OK", "addr:street": "North Aspen Avenue", "air_conditioning": "yes", "amenity": "restaurant", "brand": "Mazzio's", "brand:wikidata": "Q3853292", "building": "commercial", "cuisine": "pizza", "name": "Mazzio's"}}}, {"type": "Feature", "geometry": {"type": "Polygon", "coordinates": [[[-95.8145227, 36.0567355], [-95.8145217, 36.0564577], [-95.8149339, 36.0564566], [-95.814935, 36.0567345], [-95.8145227, 36.0567355]]]}, "properties": {"osm_id": 1172619802, "building": "commercial", "name": "Nelly's Security", "height": null, "height_m": null, "levels": null, "tract_id": "40143007415", "tract_name": "74.15", "tags": {"building": "commercial", "name": "Nelly's Security", "shop": "security"}}}, {"type": "Feature", "geometry": {"type": "Polygon", "coordinates": [[[-95.8149475, 36.0558687], [-95.8146689, 36.0558696], [-95.8146668, 36.0554828], [-95.8149455, 36.0554819], [-95.8149475, 36.0558687]]]}, "properties": {"osm_id": 1172619803, "building": "commercial", "name": "Doggie D'Tails", "height": null, "height_m": null, "levels": null, "tract_id": "40143007415", "tract_name": "74.15", "tags": {"alt_phone": "+1-918-286-0570", "amenity": "animal_boarding", "building": "commercial", "name": "Doggie D'Tails", "pet": "dog", "phone": "+1-918-251-1313", "shop": "pet_grooming"}}}, {"type": "Feature", "geometry": {"type": "Polygon", "coordinates": [[[-95.8149192, 36.055379], [-95.8149205, 36.0549659], [-95.8145678, 36.0549651], [-95.8145664, 36.0553782], [-95.8149192, 36.055379]]]}, "properties": {"osm_id": 1172619804, "building": "commercial", "name": "", "height": null, "height_m": null, "levels": null, "tract_id": "40143007415", "tract_name": "74.15", "tags": {"building": "commercial"}}}, {"type": "Feature", "geometry": {"type": "Polygon", "coordinates": [[[-95.812478, 36.0598053], [-95.812454, 36.059806], [-95.8124502, 36.0597125], [-95.8125619, 36.0597095], [-95.8125657, 36.059803], [-95.8126778, 36.0598], [-95.8126821, 36.059906], [-95.8124824, 36.0599113], [-95.812478, 36.0598053]]]}, "properties": {"osm_id": 1172641996, "building": "industrial", "name": "", "height": null, "height_m": null, "levels": null, "tract_id": "40143007415", "tract_name": "74.15", "tags": {"building": "industrial"}}}, {"type": "Feature", "geometry": {"type": "Polygon", "coordinates": [[[-95.7987475, 36.059243], [-95.7985973, 36.059243], [-95.7985973, 36.0591254], [-95.7986864, 36.0591254], [-95.7986864, 36.0591726], [-95.7987475, 36.0591726], [-95.7987475, 36.059243]]]}, "properties": {"osm_id": 1188501586, "building": "yes", "name": "", "height": null, "height_m": null, "levels": null, "tract_id": "40143007415", "tract_name": "74.15", "tags": {"building": "yes"}}}, {"type": "Feature", "geometry": {"type": "Polygon", "coordinates": [[[-95.7989594, 36.0592235], [-95.7987957, 36.0592235], [-95.7987957, 36.059152], [-95.7988729, 36.059152], [-95.7988729, 36.0591145], [-95.7989144, 36.0591145], [-95.7989144, 36.0591319], [-95.7989594, 36.0591319], [-95.7989594, 36.0592235]]]}, "properties": {"osm_id": 1188501587, "building": "yes", "name": "", "height": null, "height_m": null, "levels": null, "tract_id": "40143007415", "tract_name": "74.15", "tags": {"building": "yes"}}}, {"type": "Feature", "geometry": {"type": "Polygon", "coordinates": [[[-95.7991699, 36.0592246], [-95.7991464, 36.0592246], [-95.7991464, 36.0592452], [-95.7990854, 36.0592452], [-95.7990854, 36.0592246], [-95.799011, 36.0592246], [-95.799011, 36.0591541], [-95.7990827, 36.0591541], [-95.7990827, 36.0591406], [-95.799121, 36.0591406], [-95.799121, 36.0591286], [-95.7991699, 36.0591286], [-95.7991699, 36.0592246]]]}, "properties": {"osm_id": 1188501588, "building": "yes", "name": "", "height": null, "height_m": null, "levels": null, "tract_id": "40143007415", "tract_name": "74.15", "tags": {"building": "yes"}}}, {"type": "Feature", "geometry": {"type": "Polygon", "coordinates": [[[-95.799245, 36.0591541], [-95.7992457, 36.059212], [-95.7993349, 36.0592112], [-95.799335, 36.059224], [-95.7993793, 36.0592237], [-95.7993782, 36.0591295], [-95.79935, 36.0591297], [-95.7993503, 36.0591533], [-95.799245, 36.0591541]]]}, "properties": {"osm_id": 1188501589, "building": "yes", "name": "", "height": null, "height_m": null, "levels": null, "tract_id": "40143007415", "tract_name": "74.15", "tags": {"building": "yes"}}}, {"type": "Feature", "geometry": {"type": "Polygon", "coordinates": [[[-95.7992115, 36.0596393], [-95.7993837, 36.0596376], [-95.7993852, 36.0597374], [-95.7992933, 36.0597383], [-95.7992929, 36.0597098], [-95.7992126, 36.0597106], [-95.7992115, 36.0596393]]]}, "properties": {"osm_id": 1188501596, "building": "yes", "name": "", "height": null, "height_m": null, "levels": null, "tract_id": "40143007415", "tract_name": "74.15", "tags": {"building": "yes"}}}, {"type": "Feature", "geometry": {"type": "Polygon", "coordinates": [[[-95.7991734, 36.059638], [-95.799175, 36.059738], [-95.7991257, 36.0597385], [-95.7991255, 36.0597251], [-95.7990834, 36.0597255], [-95.7990832, 36.0597127], [-95.7990003, 36.0597135], [-95.7989992, 36.0596397], [-95.7991734, 36.059638]]]}, "properties": {"osm_id": 1188501597, "building": "yes", "name": "", "height": null, "height_m": null, "levels": null, "tract_id": "40143007415", "tract_name": "74.15", "tags": {"building": "yes"}}}, {"type": "Feature", "geometry": {"type": "Polygon", "coordinates": [[[-95.7989091, 36.0594501], [-95.7989555, 36.0594503], [-95.7989553, 36.0594767], [-95.7989089, 36.0594764], [-95.7989091, 36.0594501]]]}, "properties": {"osm_id": 1188501598, "building": "yes", "name": "", "height": null, "height_m": null, "levels": null, "tract_id": "40143007415", "tract_name": "74.15", "tags": {"building": "yes"}}}, {"type": "Feature", "geometry": {"type": "Polygon", "coordinates": [[[-95.798962, 36.0596886], [-95.7988708, 36.0596882], [-95.798871, 36.0596611], [-95.7987902, 36.0596608], [-95.7987907, 36.0595843], [-95.7989081, 36.0595848], [-95.7989084, 36.0595417], [-95.7989631, 36.059542], [-95.798962, 36.0596886]]]}, "properties": {"osm_id": 1188501599, "building": "yes", "name": "", "height": null, "height_m": null, "levels": null, "tract_id": "40143007415", "tract_name": "74.15", "tags": {"building": "yes"}}}, {"type": "Feature", "geometry": {"type": "Polygon", "coordinates": [[[-95.7985993, 36.0595596], [-95.7987517, 36.0595603], [-95.7987511, 36.0596369], [-95.7986881, 36.0596366], [-95.7986878, 36.0596796], [-95.7985984, 36.0596792], [-95.7985993, 36.0595596]]]}, "properties": {"osm_id": 1188501600, "building": "yes", "name": "", "height": null, "height_m": null, "levels": null, "tract_id": "40143007415", "tract_name": "74.15", "tags": {"building": "yes"}}}, {"type": "Feature", "geometry": {"type": "Polygon", "coordinates": [[[-95.7988192, 36.060099], [-95.7988188, 36.0601508], [-95.7987501, 36.0601505], [-95.7987505, 36.0600986], [-95.7988192, 36.060099]]]}, "properties": {"osm_id": 1188501601, "building": "yes", "name": "", "height": null, "height_m": null, "levels": null, "tract_id": "40143007415", "tract_name": "74.15", "tags": {"building": "yes"}}}, {"type": "Feature", "geometry": {"type": "Polygon", "coordinates": [[[-95.7990479, 36.060151], [-95.7988755, 36.0601502], [-95.7988762, 36.0600561], [-95.7990485, 36.0600569], [-95.7990479, 36.060151]]]}, "properties": {"osm_id": 1188501602, "building": "yes", "name": "", "height": null, "height_m": null, "levels": null, "tract_id": "40143007415", "tract_name": "74.15", "tags": {"building": "yes"}}}, {"type": "Feature", "geometry": {"type": "Polygon", "coordinates": [[[-95.7992832, 36.060132], [-95.7992524, 36.0601319], [-95.7992522, 36.0601616], [-95.7991784, 36.0601612], [-95.7991787, 36.0601315], [-95.7991117, 36.0601312], [-95.7991122, 36.0600605], [-95.7991907, 36.0600608], [-95.7991908, 36.0600458], [-95.7992329, 36.060046], [-95.799233, 36.0600317], [-95.7992839, 36.0600319], [-95.7992832, 36.060132]]]}, "properties": {"osm_id": 1188501603, "building": "yes", "name": "", "height": null, "height_m": null, "levels": null, "tract_id": "40143007415", "tract_name": "74.15", "tags": {"building": "yes"}}}, {"type": "Feature", "geometry": {"type": "Polygon", "coordinates": [[[-95.7992303, 36.0603261], [-95.7991136, 36.0603255], [-95.7991139, 36.0602773], [-95.799192, 36.0602777], [-95.7991919, 36.0602941], [-95.7992305, 36.0602942], [-95.7992303, 36.0603261]]]}, "properties": {"osm_id": 1188501604, "building": "yes", "name": "", "height": null, "height_m": null, "levels": null, "tract_id": "40143007415", "tract_name": "74.15", "tags": {"building": "yes"}}}, {"type": "Feature", "geometry": {"type": "Polygon", "coordinates": [[[-95.7980467, 36.0506788], [-95.7980474, 36.0507785], [-95.7978033, 36.0507795], [-95.7978027, 36.0506799], [-95.7980467, 36.0506788]]]}, "properties": {"osm_id": 1293537507, "building": "retail", "name": "", "height": null, "height_m": null, "levels": null, "tract_id": "40143007415", "tract_name": "74.15", "tags": {"building": "retail", "shop": "yes"}}}, {"type": "Feature", "geometry": {"type": "Polygon", "coordinates": [[[-95.7978335, 36.0511477], [-95.7978168, 36.0511479], [-95.7978175, 36.0511847], [-95.7977463, 36.0511856], [-95.7977456, 36.0511488], [-95.7977237, 36.0511491], [-95.7977232, 36.0511239], [-95.7976905, 36.0511243], [-95.7976896, 36.0510801], [-95.7978322, 36.0510783], [-95.7978335, 36.0511477]]]}, "properties": {"osm_id": 1293537508, "building": "detached", "name": "", "height": null, "height_m": null, "levels": null, "tract_id": "40143007415", "tract_name": "74.15", "tags": {"building": "detached", "shop": "yes"}}}, {"type": "Feature", "geometry": {"type": "Polygon", "coordinates": [[[-95.7979348, 36.0514638], [-95.7977333, 36.0514633], [-95.7977333, 36.0514557], [-95.7977094, 36.0514556], [-95.7977096, 36.0513862], [-95.7977336, 36.0513863], [-95.7977336, 36.0513765], [-95.7978409, 36.0513768], [-95.7978409, 36.051359], [-95.7979502, 36.0513592], [-95.7979502, 36.0513681], [-95.7979966, 36.0513682], [-95.7979964, 36.0514254], [-95.7979349, 36.0514253], [-95.7979348, 36.0514638]]]}, "properties": {"osm_id": 1293537509, "building": "detached", "name": "", "height": null, "height_m": null, "levels": null, "tract_id": "40143007415", "tract_name": "74.15", "tags": {"addr:city": "Broken Arrow", "addr:country": "US", "addr:housenumber": "124", "addr:state": "OK", "addr:street": "South Elm Place", "building": "detached", "shop": "yes"}}}, {"type": "Feature", "geometry": {"type": "Polygon", "coordinates": [[[-95.7977356, 36.0515679], [-95.7981715, 36.051569], [-95.798171, 36.0516808], [-95.7980427, 36.0516804], [-95.7980428, 36.051657], [-95.7977353, 36.0516562], [-95.7977356, 36.0515679]]]}, "properties": {"osm_id": 1293537510, "building": "yes", "name": "", "height": null, "height_m": null, "levels": null, "tract_id": "40143007415", "tract_name": "74.15", "tags": {"building": "yes", "shop": "vacant"}}}, {"type": "Feature", "geometry": {"type": "Polygon", "coordinates": [[[-95.7979569, 36.0528885], [-95.7978095, 36.05289], [-95.7978068, 36.0527187], [-95.7979542, 36.0527172], [-95.7979569, 36.0528885]]]}, "properties": {"osm_id": 1293537511, "building": "industrial", "name": "Jiffy Lube", "height": null, "height_m": null, "levels": null, "tract_id": "40143007415", "tract_name": "74.15", "tags": {"brand": "Jiffy Lube", "brand:wikidata": "Q6192247", "building": "industrial", "name": "Jiffy Lube", "shop": "car_repair"}}}, {"type": "Feature", "geometry": {"type": "Polygon", "coordinates": [[[-95.7984893, 36.0530435], [-95.7984893, 36.0531997], [-95.7977825, 36.0531997], [-95.7977825, 36.0530435], [-95.7984893, 36.0530435]]]}, "properties": {"osm_id": 1293537512, "building": "office", "name": "Elm Place Plaza", "height": null, "height_m": null, "levels": null, "tract_id": "40143007415", "tract_name": "74.15", "tags": {"building": "office", "name": "Elm Place Plaza"}}}, {"type": "Feature", "geometry": {"type": "Polygon", "coordinates": [[[-95.797977, 36.0532897], [-95.7979777, 36.0533504], [-95.7978356, 36.0533514], [-95.7978348, 36.0532908], [-95.797977, 36.0532897]]]}, "properties": {"osm_id": 1293537513, "building": "yes", "name": "", "height": null, "height_m": null, "levels": null, "tract_id": "40143007415", "tract_name": "74.15", "tags": {"building": "yes", "shop": "yes"}}}, {"type": "Feature", "geometry": {"type": "Polygon", "coordinates": [[[-95.797976, 36.0535052], [-95.7978348, 36.0535052], [-95.7978348, 36.0534152], [-95.797976, 36.0534152], [-95.797976, 36.0535052]]]}, "properties": {"osm_id": 1293537514, "building": "yes", "name": "Keyport Self Storage", "height": null, "height_m": null, "levels": null, "tract_id": "40143007415", "tract_name": "74.15", "tags": {"addr:city": "Broken Arrow", "addr:country": "US", "addr:housenumber": "126", "addr:state": "OK", "addr:street": "North Elm Place", "building": "yes", "name": "Keyport Self Storage", "phone": "+1 918 251 0628", "shop": "storage_rental"}}}, {"type": "Feature", "geometry": {"type": "Polygon", "coordinates": [[[-95.7980186, 36.0468544], [-95.7979072, 36.0468541], [-95.7979079, 36.0467169], [-95.7980192, 36.0467173], [-95.7980186, 36.0468544]]]}, "properties": {"osm_id": 1294626503, "building": "retail", "name": "Discount Smoke Shop", "height": null, "height_m": null, "levels": null, "tract_id": "40143007415", "tract_name": "74.15", "tags": {"building": "retail", "name": "Discount Smoke Shop", "shop": "tobacco"}}}, {"type": "Feature", "geometry": {"type": "Polygon", "coordinates": [[[-95.7980467, 36.0480396], [-95.7978544, 36.0480391], [-95.7978546, 36.0480006], [-95.7978549, 36.0479225], [-95.7978551, 36.0478655], [-95.7978554, 36.0478048], [-95.7978555, 36.0477593], [-95.7978559, 36.0476861], [-95.7978562, 36.0476129], [-95.7978564, 36.0475571], [-95.7978566, 36.0475099], [-95.7978569, 36.0474345], [-95.7978575, 36.0472909], [-95.7978578, 36.047215], [-95.7978582, 36.0471271], [-95.7978584, 36.0470643], [-95.7980508, 36.0470648], [-95.7980467, 36.0480396]]]}, "properties": {"osm_id": 1294626504, "building": "yes", "name": "", "height": null, "height_m": null, "levels": null, "tract_id": "40143007415", "tract_name": "74.15", "tags": {"building": "yes"}}}, {"type": "Feature", "geometry": {"type": "Polygon", "coordinates": [[[-95.7980467, 36.0481708], [-95.7980467, 36.0483052], [-95.797745, 36.0483052], [-95.797745, 36.0481708], [-95.7980467, 36.0481708]]]}, "properties": {"osm_id": 1294626505, "building": "yes", "name": "", "height": null, "height_m": null, "levels": null, "tract_id": "40143007415", "tract_name": "74.15", "tags": {"building": "yes"}}}, {"type": "Feature", "geometry": {"type": "Polygon", "coordinates": [[[-95.7980179, 36.0488805], [-95.7977638, 36.0488816], [-95.7977628, 36.048732], [-95.7978529, 36.0487317], [-95.7978529, 36.0487208], [-95.7979327, 36.0487205], [-95.7979327, 36.0487313], [-95.7980169, 36.048731], [-95.7980179, 36.0488805]]]}, "properties": {"osm_id": 1294626506, "building": "yes", "name": "Bonny Crest Home Healthcare", "height": null, "height_m": null, "levels": null, "tract_id": "40143007415", "tract_name": "74.15", "tags": {"amenity": "social_facility", "building": "yes", "name": "Bonny Crest Home Healthcare", "social_facility": "nursing_home"}}}]}