{"type": "FeatureCollection", "features": [{"type": "Feature", "geometry": {"type": "Polygon", "coordinates": [[[-97.4361567, 35.425717], [-97.4358321, 35.4257258], [-97.4357989, 35.4257249], [-97.4357409, 35.4257236], [-97.4357463, 35.4258525], [-97.4358321, 35.4258547], [-97.4358348, 35.4258744], [-97.436162, 35.4258722], [-97.4361589, 35.4257804], [-97.4361567, 35.425717]]]}, "properties": {"osm_id": 269422343, "building": "yes", "name": "", "height": null, "height_m": null, "levels": null, "tract_id": "40109107807", "tract_name": "1078.07", "tags": {"building": "yes", "roof:colour": "silver", "roof:shape": "flat", "source": "Bing"}}}, {"type": "Feature", "geometry": {"type": "Polygon", "coordinates": [[[-97.4364571, 35.4261476], [-97.4364437, 35.4261477], [-97.4363713, 35.4261485], [-97.4363459, 35.4261488], [-97.4363472, 35.4262285], [-97.4364584, 35.4262274], [-97.4364571, 35.4261476]]]}, "properties": {"osm_id": 269422351, "building": "yes", "name": "", "height": null, "height_m": null, "levels": null, "tract_id": "40109107807", "tract_name": "1078.07", "tags": {"building": "yes", "roof:colour": "silver", "roof:shape": "gabled", "source": "Bing"}}}, {"type": "Feature", "geometry": {"type": "Polygon", "coordinates": [[[-97.4362131, 35.4254439], [-97.4360428, 35.4254448], [-97.4360412, 35.4252558], [-97.4362116, 35.4252549], [-97.4362118, 35.4252843], [-97.4362131, 35.4254439]]]}, "properties": {"osm_id": 269422362, "building": "yes", "name": "", "height": null, "height_m": null, "levels": null, "tract_id": "40109107807", "tract_name": "1078.07", "tags": {"building": "yes", "roof:colour": "silver", "roof:shape": "gabled", "source": "Bing"}}}, {"type": "Feature", "geometry": {"type": "Polygon", "coordinates": [[[-97.4363039, 35.4252537], [-97.4362116, 35.4252549], [-97.4362118, 35.4252843], [-97.4363042, 35.4252865], [-97.4363039, 35.4252537]]]}, "properties": {"osm_id": 269422374, "building": "roof", "name": "", "height": null, "height_m": null, "levels": null, "tract_id": "40109107807", "tract_name": "1078.07", "tags": {"building": "roof", "roof:colour": "silver", "roof:shape": "flat", "source": "Bing"}}}, {"type": "Feature", "geometry": {"type": "Polygon", "coordinates": [[[-97.4365644, 35.4262044], [-97.4365376, 35.426204], [-97.4364987, 35.4262034], [-97.4364972, 35.4262677], [-97.4365629, 35.4262687], [-97.4365644, 35.4262044]]]}, "properties": {"osm_id": 269422402, "building": "yes", "name": "", "height": null, "height_m": null, "levels": null, "tract_id": "40109107807", "tract_name": "1078.07", "tags": {"building": "yes", "roof:colour": "silver", "source": "Bing"}}}, {"type": "Feature", "geometry": {"type": "Polygon", "coordinates": [[[-97.4365123, 35.4260134], [-97.4363434, 35.426013], [-97.4363442, 35.4257977], [-97.4365131, 35.4257981], [-97.4365123, 35.4260134]]]}, "properties": {"osm_id": 269422442, "building": "yes", "name": "", "height": null, "height_m": 6.0, "levels": 2, "tract_id": "40109107807", "tract_name": "1078.07", "tags": {"building": "yes", "building:levels": "2", "roof:colour": "silver", "roof:shape": "flat", "source": "Bing"}}}, {"type": "Feature", "geometry": {"type": "Polygon", "coordinates": [[[-97.4356106, 35.4255894], [-97.4355113, 35.4255889], [-97.4355106, 35.4257015], [-97.4356098, 35.4257019], [-97.4356106, 35.4255894]]]}, "properties": {"osm_id": 269422462, "building": "yes", "name": "", "height": null, "height_m": null, "levels": null, "tract_id": "40109107807", "tract_name": "1078.07", "tags": {"building": "yes", "roof:colour": "black", "roof:shape": "gabled", "source": "Bing"}}}, {"type": "Feature", "geometry": {"type": "Polygon", "coordinates": [[[-97.4410677, 35.4218129], [-97.4410687, 35.4216806], [-97.4409316, 35.4216812], [-97.4409312, 35.4216644], [-97.4408596, 35.4216642], [-97.4408597, 35.4216695], [-97.4408121, 35.421669], [-97.4408123, 35.421684], [-97.4406278, 35.4216822], [-97.440628, 35.4216918], [-97.4406084, 35.4216917], [-97.4406094, 35.4217458], [-97.4406103, 35.4217939], [-97.4406274, 35.4217936], [-97.440628, 35.4218043], [-97.4408156, 35.4218037], [-97.4408156, 35.4218123], [-97.4410677, 35.4218129]]]}, "properties": {"osm_id": 360636827, "building": "commercial", "name": "Braum's", "height": null, "height_m": 3.0, "levels": 1, "tract_id": "40109107807", "tract_name": "1078.07", "tags": {"addr:city": "Del City", "addr:housenumber": "4300", "addr:postcode": "73115", "addr:state": "OK", "addr:street": "Southeast 43rd Street", "amenity": "fast_food", "brand": "Braum's", "brand:wikidata": "Q4958263", "building": "commercial", "building:levels": "1", "cuisine": "ice_cream;burger", "name": "Braum's", "opening_hours": "Mo-Su 06:00-22:45", "phone": "+1-405-670-2646", "shop": "dairy", "takeaway": "yes", "website": "https://www.braums.com/"}}}, {"type": "Feature", "geometry": {"type": "Polygon", "coordinates": [[[-97.4410048, 35.4210011], [-97.4410084, 35.4212006], [-97.4409176, 35.4212017], [-97.4409141, 35.4210022], [-97.4410048, 35.4210011]]]}, "properties": {"osm_id": 360636846, "building": "yes", "name": "Pizza Hut", "height": null, "height_m": null, "levels": null, "tract_id": "40109107807", "tract_name": "1078.07", "tags": {"addr:city": "Del City", "addr:housenumber": "4436", "addr:postcode": "73115", "addr:state": "OK", "addr:street": "South Sunnylane Road", "amenity": "restaurant", "brand": "Pizza Hut", "brand:wikidata": "Q191615", "building": "yes", "cuisine": "pizza", "name": "Pizza Hut", "opening_hours": "Su-Th 11:00-23:00; Fr,Sa 11:00-24:00", "phone": "+1 405-672-2762", "website": "https://locations.pizzahut.com/ok/del-city/4436-s-sunnylane-rd"}}}, {"type": "Feature", "geometry": {"type": "Polygon", "coordinates": [[[-97.4406906, 35.424488], [-97.4408741, 35.4243405], [-97.4408715, 35.4242418], [-97.4407064, 35.4241054], [-97.4404637, 35.4243005], [-97.4406906, 35.424488]]]}, "properties": {"osm_id": 499271697, "building": "yes", "name": "", "height": null, "height_m": null, "levels": null, "tract_id": "40109107807", "tract_name": "1078.07", "tags": {"amenity": "bank", "building": "yes"}}}, {"type": "Feature", "geometry": {"type": "Polygon", "coordinates": [[[-97.4411174, 35.4225184], [-97.4411157, 35.4223298], [-97.4409662, 35.4223308], [-97.440968, 35.4225193], [-97.4411174, 35.4225184]]]}, "properties": {"osm_id": 499271706, "building": "yes", "name": "", "height": null, "height_m": null, "levels": null, "tract_id": "40109107807", "tract_name": "1078.07", "tags": {"building": "yes"}}}, {"type": "Feature", "geometry": {"type": "Polygon", "coordinates": [[[-97.4402674, 35.4213577], [-97.4402692, 35.4211673], [-97.4398586, 35.4211647], [-97.4398567, 35.4213551], [-97.4402674, 35.4213577]]]}, "properties": {"osm_id": 499271707, "building": "yes", "name": "AutoZone", "height": null, "height_m": null, "levels": null, "tract_id": "40109107807", "tract_name": "1078.07", "tags": {"addr:city": "Oklahoma City", "addr:housenumber": "4321", "addr:postcode": "73115", "addr:state": "OK", "addr:street": "Southeast 44th Street", "brand": "AutoZone", "brand:wikidata": "Q4826087", "building": "yes", "name": "AutoZone", "shop": "car_parts", "website": "https://www.autozone.com/locations/ok/oklahoma-city/4321-se-44th-st.html"}}}, {"type": "Feature", "geometry": {"type": "Polygon", "coordinates": [[[-97.4398567, 35.4213551], [-97.4395131, 35.421354], [-97.4395149, 35.4211611], [-97.4398586, 35.4211647], [-97.4398567, 35.4213551]]]}, "properties": {"osm_id": 499271708, "building": "yes", "name": "Rodeo Dry Cleaners", "height": null, "height_m": null, "levels": null, "tract_id": "40109107807", "tract_name": "1078.07", "tags": {"addr:city": "Oklahoma City", "addr:housenumber": "4329", "addr:postcode": "73115", "addr:state": "OK", "addr:street": "Southeast 44th Street", "building": "yes", "name": "Rodeo Dry Cleaners", "opening_hours": "Mo-Sa 07:00-18:00", "shop": "dry_cleaning"}}}, {"type": "Feature", "geometry": {"type": "Polygon", "coordinates": [[[-97.4395131, 35.421354], [-97.4393519, 35.421353], [-97.4393537, 35.4211601], [-97.4395149, 35.4211611], [-97.4395131, 35.421354]]]}, "properties": {"osm_id": 499271709, "building": "yes", "name": "", "height": null, "height_m": null, "levels": null, "tract_id": "40109107807", "tract_name": "1078.07", "tags": {"building": "yes"}}}, {"type": "Feature", "geometry": {"type": "Polygon", "coordinates": [[[-97.424915, 35.4212902], [-97.4249142, 35.4211238], [-97.4248957, 35.4211238], [-97.4248962, 35.4211146], [-97.4245992, 35.4211141], [-97.4245989, 35.4211227], [-97.4245786, 35.4211228], [-97.4245812, 35.4212884], [-97.424915, 35.4212902]]]}, "properties": {"osm_id": 500001477, "building": "yes", "name": "", "height": null, "height_m": null, "levels": null, "tract_id": "40109107807", "tract_name": "1078.07", "tags": {"building": "yes"}}}, {"type": "Feature", "geometry": {"type": "Polygon", "coordinates": [[[-97.4245121, 35.4212373], [-97.424513, 35.4211224], [-97.4244928, 35.4211223], [-97.424493, 35.4211013], [-97.4241493, 35.4210988], [-97.4241502, 35.4211208], [-97.4241384, 35.4211209], [-97.4241388, 35.421236], [-97.4244476, 35.4212371], [-97.4245121, 35.4212373]]]}, "properties": {"osm_id": 500001478, "building": "yes", "name": "", "height": null, "height_m": null, "levels": null, "tract_id": "40109107807", "tract_name": "1078.07", "tags": {"building": "yes"}}}, {"type": "Feature", "geometry": {"type": "Polygon", "coordinates": [[[-97.4254548, 35.4219234], [-97.4253712, 35.4218699], [-97.4254658, 35.4217718], [-97.4254566, 35.4217659], [-97.4255576, 35.421661], [-97.4255695, 35.4216687], [-97.4256593, 35.4215755], [-97.4257364, 35.4216248], [-97.4256409, 35.4217238], [-97.4256291, 35.4217163], [-97.4255394, 35.4218094], [-97.425555, 35.4218194], [-97.4254548, 35.4219234]]]}, "properties": {"osm_id": 500001479, "building": "apartments", "name": "", "height": null, "height_m": null, "levels": null, "tract_id": "40109107807", "tract_name": "1078.07", "tags": {"building": "apartments"}}}, {"type": "Feature", "geometry": {"type": "Polygon", "coordinates": [[[-97.4251157, 35.4222633], [-97.4250321, 35.4222106], [-97.4251344, 35.4221055], [-97.4251252, 35.4220997], [-97.4252263, 35.4219948], [-97.4252382, 35.4220024], [-97.425328, 35.4219092], [-97.425405, 35.4219585], [-97.4253095, 35.4220576], [-97.4252978, 35.4220501], [-97.4252019, 35.4221486], [-97.4252175, 35.4221582], [-97.4251157, 35.4222633]]]}, "properties": {"osm_id": 500001480, "building": "apartments", "name": "", "height": null, "height_m": null, "levels": null, "tract_id": "40109107807", "tract_name": "1078.07", "tags": {"building": "apartments"}}}, {"type": "Feature", "geometry": {"type": "Polygon", "coordinates": [[[-97.4250314, 35.422295], [-97.4248867, 35.4222955], [-97.4248871, 35.4223846], [-97.4249062, 35.4223845], [-97.4249063, 35.422403], [-97.4248891, 35.4224031], [-97.4248899, 35.4225879], [-97.4249107, 35.4225878], [-97.4249108, 35.4226053], [-97.4248901, 35.4226053], [-97.4248904, 35.4226945], [-97.4250319, 35.4226941], [-97.4250315, 35.4226077], [-97.425009, 35.4226078], [-97.4250089, 35.422588], [-97.4250295, 35.422588], [-97.4250287, 35.4224044], [-97.4250131, 35.4224045], [-97.425013, 35.4223872], [-97.4250319, 35.4223871], [-97.4250314, 35.422295]]]}, "properties": {"osm_id": 500001481, "building": "apartments", "name": "", "height": null, "height_m": null, "levels": null, "tract_id": "40109107807", "tract_name": "1078.07", "tags": {"building": "apartments"}}}, {"type": "Feature", "geometry": {"type": "Polygon", "coordinates": [[[-97.4247313, 35.422843], [-97.4247302, 35.422725], [-97.4246209, 35.4227257], [-97.4246211, 35.4227412], [-97.4245984, 35.4227413], [-97.4245982, 35.4227273], [-97.4243714, 35.4227286], [-97.4243716, 35.4227455], [-97.4243502, 35.4227456], [-97.42435, 35.4227287], [-97.4242406, 35.4227293], [-97.4242415, 35.4228445], [-97.4243544, 35.422844], [-97.4243543, 35.4228256], [-97.4243716, 35.4228255], [-97.4243716, 35.4228438], [-97.424597, 35.4228411], [-97.4245969, 35.4228284], [-97.4246181, 35.4228283], [-97.4246182, 35.4228437], [-97.4247313, 35.422843]]]}, "properties": {"osm_id": 500001482, "building": "apartments", "name": "", "height": null, "height_m": null, "levels": null, "tract_id": "40109107807", "tract_name": "1078.07", "tags": {"building": "apartments"}}}, {"type": "Feature", "geometry": {"type": "Polygon", "coordinates": [[[-97.424696, 35.4231321], [-97.4246124, 35.4230419], [-97.4245243, 35.4230976], [-97.4245368, 35.4231113], [-97.4245193, 35.423122], [-97.4245065, 35.4231086], [-97.42433, 35.4232193], [-97.4243464, 35.4232335], [-97.4243287, 35.4232441], [-97.4243147, 35.4232325], [-97.4242263, 35.4232877], [-97.4243132, 35.423375], [-97.4244012, 35.4233212], [-97.4243861, 35.4233066], [-97.4244083, 35.4232932], [-97.4244222, 35.4233078], [-97.4245901, 35.4231994], [-97.4245778, 35.4231863], [-97.4245947, 35.4231758], [-97.4246062, 35.423188], [-97.424696, 35.4231321]]]}, "properties": {"osm_id": 500001483, "building": "apartments", "name": "", "height": null, "height_m": null, "levels": null, "tract_id": "40109107807", "tract_name": "1078.07", "tags": {"building": "apartments"}}}, {"type": "Feature", "geometry": {"type": "Polygon", "coordinates": [[[-97.4246415, 35.4226483], [-97.4245415, 35.4226477], [-97.424539, 35.4224571], [-97.4246399, 35.4224571], [-97.4246415, 35.4226483]]]}, "properties": {"osm_id": 550491068, "building": "residential", "name": "", "height": null, "height_m": null, "levels": null, "tract_id": "40109107807", "tract_name": "1078.07", "tags": {"building": "residential"}}}, {"type": "Feature", "geometry": {"type": "Polygon", "coordinates": [[[-97.424343, 35.4223644], [-97.4242438, 35.4223637], [-97.4242438, 35.42217], [-97.4243415, 35.42217], [-97.4243423, 35.4222177], [-97.4243561, 35.4222177], [-97.4243546, 35.4223186], [-97.4243415, 35.4223186], [-97.424343, 35.4223644]]]}, "properties": {"osm_id": 550491069, "building": "residential", "name": "", "height": null, "height_m": null, "levels": null, "tract_id": "40109107807", "tract_name": "1078.07", "tags": {"building": "residential"}}}, {"type": "Feature", "geometry": {"type": "Polygon", "coordinates": [[[-97.4244261, 35.4220773], [-97.4242484, 35.422076], [-97.4242484, 35.4219858], [-97.4242807, 35.4219851], [-97.4242807, 35.4219682], [-97.4242484, 35.4219688], [-97.4242476, 35.4218779], [-97.4244253, 35.4218779], [-97.4244261, 35.4219676], [-97.4243884, 35.4219676], [-97.4243884, 35.4219895], [-97.4244253, 35.4219889], [-97.4244261, 35.4220773]]]}, "properties": {"osm_id": 550491070, "building": "residential", "name": "", "height": null, "height_m": null, "levels": null, "tract_id": "40109107807", "tract_name": "1078.07", "tags": {"building": "residential"}}}, {"type": "Feature", "geometry": {"type": "Polygon", "coordinates": [[[-97.4247315, 35.4220591], [-97.4245192, 35.4220566], [-97.4245184, 35.4220716], [-97.4244853, 35.422071], [-97.4244861, 35.4219362], [-97.4247315, 35.4219375], [-97.4247315, 35.4220591]]]}, "properties": {"osm_id": 550491071, "building": "residential", "name": "", "height": null, "height_m": null, "levels": null, "tract_id": "40109107807", "tract_name": "1078.07", "tags": {"building": "residential"}}}, {"type": "Feature", "geometry": {"type": "Polygon", "coordinates": [[[-97.4247961, 35.421972], [-97.4247969, 35.4218917], [-97.4250261, 35.4218936], [-97.4250238, 35.4219751], [-97.4249707, 35.4219738], [-97.4249707, 35.4219851], [-97.4248453, 35.421982], [-97.4248461, 35.421972], [-97.4247961, 35.421972]]]}, "properties": {"osm_id": 550491072, "building": "residential", "name": "", "height": null, "height_m": null, "levels": null, "tract_id": "40109107807", "tract_name": "1078.07", "tags": {"building": "residential"}}}, {"type": "Feature", "geometry": {"type": "Polygon", "coordinates": [[[-97.4247769, 35.4222108], [-97.4247022, 35.4221638], [-97.424733, 35.422128], [-97.4247238, 35.4221218], [-97.4248045, 35.4220415], [-97.4248138, 35.4220484], [-97.4248469, 35.4220165], [-97.4249192, 35.4220647], [-97.4247769, 35.4222108]]]}, "properties": {"osm_id": 550491073, "building": "residential", "name": "", "height": null, "height_m": null, "levels": null, "tract_id": "40109107807", "tract_name": "1078.07", "tags": {"building": "residential"}}}, {"type": "Feature", "geometry": {"type": "Polygon", "coordinates": [[[-97.4245376, 35.4217056], [-97.4243061, 35.4217043], [-97.4243069, 35.4216203], [-97.4243569, 35.4216216], [-97.4243569, 35.4216084], [-97.424483, 35.4216097], [-97.4244838, 35.4216247], [-97.4245353, 35.4216247], [-97.4245376, 35.4217056]]]}, "properties": {"osm_id": 550491074, "building": "residential", "name": "", "height": null, "height_m": null, "levels": null, "tract_id": "40109107807", "tract_name": "1078.07", "tags": {"building": "residential"}}}, {"type": "Feature", "geometry": {"type": "Polygon", "coordinates": [[[-97.4248484, 35.4217056], [-97.4247345, 35.4217043], [-97.4247353, 35.4216742], [-97.424713, 35.4216742], [-97.4247138, 35.4217043], [-97.4246015, 35.4217037], [-97.4246007, 35.4215564], [-97.4247115, 35.4215576], [-97.4247122, 35.4215871], [-97.4247399, 35.4215877], [-97.4247392, 35.421557], [-97.4248499, 35.4215576], [-97.4248484, 35.4217056]]]}, "properties": {"osm_id": 550491075, "building": "residential", "name": "", "height": null, "height_m": null, "levels": null, "tract_id": "40109107807", "tract_name": "1078.07", "tags": {"building": "residential"}}}, {"type": "Feature", "geometry": {"type": "Polygon", "coordinates": [[[-97.4251453, 35.4216366], [-97.4250915, 35.4216366], [-97.4250922, 35.4216491], [-97.4249653, 35.4216485], [-97.4249661, 35.4216366], [-97.4249168, 35.4216366], [-97.4249145, 35.4215526], [-97.4251453, 35.421552], [-97.4251453, 35.4216366]]]}, "properties": {"osm_id": 550491076, "building": "residential", "name": "", "height": null, "height_m": null, "levels": null, "tract_id": "40109107807", "tract_name": "1078.07", "tags": {"building": "residential"}}}, {"type": "Feature", "geometry": {"type": "Polygon", "coordinates": [[[-97.4251461, 35.4217714], [-97.4251468, 35.4216899], [-97.425093, 35.4216905], [-97.425093, 35.4216811], [-97.4249615, 35.4216811], [-97.4249622, 35.4216918], [-97.4249153, 35.4216918], [-97.4249153, 35.4217708], [-97.4251461, 35.4217714]]]}, "properties": {"osm_id": 550491077, "building": "residential", "name": "", "height": null, "height_m": null, "levels": null, "tract_id": "40109107807", "tract_name": "1078.07", "tags": {"building": "residential"}}}, {"type": "Feature", "geometry": {"type": "Polygon", "coordinates": [[[-97.4244276, 35.422647], [-97.4242446, 35.4226477], [-97.424243, 35.4225555], [-97.424283, 35.4225549], [-97.424283, 35.4225355], [-97.4242446, 35.4225342], [-97.4242438, 35.4224452], [-97.4244261, 35.4224433], [-97.4244269, 35.4225374], [-97.4243884, 35.422538], [-97.4243884, 35.4225574], [-97.4244261, 35.422558], [-97.4244276, 35.422647]]]}, "properties": {"osm_id": 550491078, "building": "residential", "name": "", "height": null, "height_m": null, "levels": null, "tract_id": "40109107807", "tract_name": "1078.07", "tags": {"building": "residential"}}}, {"type": "Feature", "geometry": {"type": "Polygon", "coordinates": [[[-97.4249278, 35.4228609], [-97.425038, 35.4228593], [-97.4250361, 35.4227476], [-97.424923, 35.4227491], [-97.4249278, 35.4228609]]]}, "properties": {"osm_id": 550491079, "building": "residential", "name": "", "height": null, "height_m": null, "levels": null, "tract_id": "40109107807", "tract_name": "1078.07", "tags": {"building": "residential"}}}, {"type": "Feature", "geometry": {"type": "Polygon", "coordinates": [[[-97.4248558, 35.4228835], [-97.4247657, 35.4229375], [-97.4247791, 35.4229546], [-97.4247619, 35.4229664], [-97.4247484, 35.4229515], [-97.4246631, 35.4230078], [-97.4247542, 35.4231008], [-97.4248357, 35.4230453], [-97.4248223, 35.4230297], [-97.4248415, 35.4230172], [-97.4248549, 35.4230328], [-97.424945, 35.4229757], [-97.4248558, 35.4228835]]]}, "properties": {"osm_id": 550491080, "building": "residential", "name": "", "height": null, "height_m": null, "levels": null, "tract_id": "40109107807", "tract_name": "1078.07", "tags": {"building": "residential"}}}, {"type": "Feature", "geometry": {"type": "Polygon", "coordinates": [[[-97.4264752, 35.4213986], [-97.4263998, 35.4213986], [-97.4263998, 35.4212104], [-97.4263597, 35.4212091], [-97.4263597, 35.4211672], [-97.4263982, 35.4211659], [-97.426395, 35.4209843], [-97.426472, 35.4209856], [-97.4264752, 35.4213986]]]}, "properties": {"osm_id": 551701207, "building": "yes", "name": "", "height": null, "height_m": null, "levels": null, "tract_id": "40109107807", "tract_name": "1078.07", "tags": {"building": "yes"}}}, {"type": "Feature", "geometry": {"type": "Polygon", "coordinates": [[[-97.434851, 35.4212424], [-97.4344392, 35.4212413], [-97.4344405, 35.4210571], [-97.4345548, 35.4210593], [-97.4345548, 35.4210349], [-97.4347146, 35.421037], [-97.4347146, 35.4210624], [-97.4348523, 35.4210603], [-97.4348523, 35.4211736], [-97.4349186, 35.4211736], [-97.4349173, 35.4212255], [-97.434851, 35.4212255], [-97.434851, 35.4212424]]]}, "properties": {"osm_id": 551706640, "building": "yes", "name": "", "height": null, "height_m": null, "levels": null, "tract_id": "40109107807", "tract_name": "1078.07", "tags": {"building": "yes"}}}, {"type": "Feature", "geometry": {"type": "Polygon", "coordinates": [[[-97.4342301, 35.421343], [-97.4339625, 35.4213408], [-97.4339612, 35.4210593], [-97.4342288, 35.4210593], [-97.4342301, 35.421343]]]}, "properties": {"osm_id": 551706641, "building": "yes", "name": "", "height": null, "height_m": null, "levels": null, "tract_id": "40109107807", "tract_name": "1078.07", "tags": {"building": "yes"}}}, {"type": "Feature", "geometry": {"type": "Polygon", "coordinates": [[[-97.4367699, 35.422431], [-97.4367689, 35.4223878], [-97.4369173, 35.4223856], [-97.4369185, 35.4224408], [-97.4368879, 35.4224413], [-97.4368877, 35.4224306], [-97.4368591, 35.422431], [-97.4367699, 35.422431]]]}, "properties": {"osm_id": 1207764229, "building": "yes", "name": "", "height": null, "height_m": null, "levels": null, "tract_id": "40109107807", "tract_name": "1078.07", "tags": {"building": "yes", "source": "esri/Oklahoma_City_OK_Buildings"}}}, {"type": "Feature", "geometry": {"type": "Polygon", "coordinates": [[[-97.4381812, 35.422123], [-97.4380838, 35.4221264], [-97.4380835, 35.4220166], [-97.4381276, 35.4220165], [-97.4381277, 35.4220465], [-97.4381792, 35.4220442], [-97.4381793, 35.4220782], [-97.4381812, 35.422123]]]}, "properties": {"osm_id": 1207764230, "building": "yes", "name": "", "height": null, "height_m": null, "levels": null, "tract_id": "40109107807", "tract_name": "1078.07", "tags": {"building": "yes", "source": "esri/Oklahoma_City_OK_Buildings"}}}, {"type": "Feature", "geometry": {"type": "Polygon", "coordinates": [[[-97.4372334, 35.422603], [-97.4372336, 35.4225287], [-97.4371726, 35.4225285], [-97.4371728, 35.4224562], [-97.4373154, 35.4224565], [-97.4373152, 35.4225228], [-97.437321, 35.4225229], [-97.4373208, 35.4226032], [-97.4372334, 35.422603]]]}, "properties": {"osm_id": 1207764231, "building": "detached", "name": "", "height": null, "height_m": null, "levels": null, "tract_id": "40109107807", "tract_name": "1078.07", "tags": {"building": "detached", "source": "esri/Oklahoma_City_OK_Buildings"}}}, {"type": "Feature", "geometry": {"type": "Polygon", "coordinates": [[[-97.4362039, 35.4217538], [-97.4362036, 35.4217274], [-97.4361363, 35.4217279], [-97.4361354, 35.4216444], [-97.4362291, 35.4216437], [-97.4362288, 35.4216139], [-97.4362789, 35.4216135], [-97.4362793, 35.4216447], [-97.4363171, 35.4216444], [-97.4363182, 35.4217529], [-97.4362039, 35.4217538]]]}, "properties": {"osm_id": 1207764232, "building": "detached", "name": "", "height": null, "height_m": null, "levels": null, "tract_id": "40109107807", "tract_name": "1078.07", "tags": {"building": "detached", "source": "esri/Oklahoma_City_OK_Buildings"}}}, {"type": "Feature", "geometry": {"type": "Polygon", "coordinates": [[[-97.437978, 35.4239115], [-97.4379743, 35.4238837], [-97.4380402, 35.4238777], [-97.4380386, 35.4238657], [-97.4380277, 35.4238667], [-97.438021, 35.4238168], [-97.4380287, 35.4238161], [-97.438022, 35.4237667], [-97.4381167, 35.4237581], [-97.4381259, 35.4238264], [-97.4381616, 35.4238231], [-97.4381692, 35.4238796], [-97.4381374, 35.4238824], [-97.4381399, 35.4239013], [-97.4380458, 35.4239098], [-97.4380452, 35.4239054], [-97.437978, 35.4239115]]]}, "properties": {"osm_id": 1207764233, "building": "detached", "name": "", "height": null, "height_m": null, "levels": null, "tract_id": "40109107807", "tract_name": "1078.07", "tags": {"building": "detached", "source": "esri/Oklahoma_City_OK_Buildings"}}}, {"type": "Feature", "geometry": {"type": "Polygon", "coordinates": [[[-97.4364684, 35.4238469], [-97.4364234, 35.4237119], [-97.4365217, 35.42369], [-97.4365461, 35.4237631], [-97.4365752, 35.4237566], [-97.4365965, 35.4238207], [-97.4365615, 35.4238285], [-97.4365608, 35.4238262], [-97.4364684, 35.4238469]]]}, "properties": {"osm_id": 1207764234, "building": "detached", "name": "", "height": null, "height_m": null, "levels": null, "tract_id": "40109107807", "tract_name": "1078.07", "tags": {"building": "detached", "source": "esri/Oklahoma_City_OK_Buildings"}}}, {"type": "Feature", "geometry": {"type": "Polygon", "coordinates": [[[-97.4359135, 35.4236602], [-97.4360161, 35.4236406], [-97.4360557, 35.42378], [-97.4359149, 35.4238068], [-97.4358943, 35.4237342], [-97.4359324, 35.4237269], [-97.4359135, 35.4236602]]]}, "properties": {"osm_id": 1207764235, "building": "detached", "name": "", "height": null, "height_m": null, "levels": null, "tract_id": "40109107807", "tract_name": "1078.07", "tags": {"building": "detached", "source": "esri/Oklahoma_City_OK_Buildings"}}}, {"type": "Feature", "geometry": {"type": "Polygon", "coordinates": [[[-97.4367248, 35.421087], [-97.4367254, 35.4210035], [-97.4367204, 35.4210035], [-97.4367205, 35.4209891], [-97.4367861, 35.4209894], [-97.436786, 35.4209916], [-97.4368059, 35.4209917], [-97.436806, 35.4209784], [-97.4368212, 35.4209785], [-97.4368215, 35.4209346], [-97.4368907, 35.420935], [-97.4368903, 35.4209898], [-97.4368969, 35.4209898], [-97.4368945, 35.4210878], [-97.4367248, 35.421087]]]}, "properties": {"osm_id": 1207764236, "building": "detached", "name": "", "height": null, "height_m": null, "levels": null, "tract_id": "40109107807", "tract_name": "1078.07", "tags": {"building": "detached", "source": "esri/Oklahoma_City_OK_Buildings"}}}, {"type": "Feature", "geometry": {"type": "Polygon", "coordinates": [[[-97.436227, 35.4220171], [-97.4363072, 35.4220165], [-97.4363085, 35.4221182], [-97.4361469, 35.4221196], [-97.4361457, 35.4220224], [-97.4362271, 35.4220217], [-97.436227, 35.4220171]]]}, "properties": {"osm_id": 1207764237, "building": "detached", "name": "", "height": null, "height_m": null, "levels": null, "tract_id": "40109107807", "tract_name": "1078.07", "tags": {"building": "detached", "source": "esri/Oklahoma_City_OK_Buildings"}}}, {"type": "Feature", "geometry": {"type": "Polygon", "coordinates": [[[-97.4380965, 35.4244225], [-97.4380965, 35.424411], [-97.4380356, 35.4244107], [-97.4380359, 35.4243606], [-97.438082, 35.4243608], [-97.4380821, 35.4243442], [-97.4380346, 35.424344], [-97.4380351, 35.4242666], [-97.4381914, 35.4242672], [-97.4381911, 35.4243143], [-97.4382239, 35.4243144], [-97.4382236, 35.4243641], [-97.4381902, 35.424364], [-97.4381899, 35.4244228], [-97.4380965, 35.4244225]]]}, "properties": {"osm_id": 1207764238, "building": "detached", "name": "", "height": null, "height_m": null, "levels": null, "tract_id": "40109107807", "tract_name": "1078.07", "tags": {"building": "detached", "source": "esri/Oklahoma_City_OK_Buildings"}}}, {"type": "Feature", "geometry": {"type": "Polygon", "coordinates": [[[-97.4354556, 35.4231249], [-97.4354556, 35.4231203], [-97.4353624, 35.4231207], [-97.4353622, 35.4230961], [-97.435286, 35.4230965], [-97.4352855, 35.4230325], [-97.435363, 35.4230322], [-97.4353627, 35.4229748], [-97.4354715, 35.4229744], [-97.4354719, 35.4230409], [-97.4354932, 35.4230408], [-97.4354937, 35.4231247], [-97.4354556, 35.4231249]]]}, "properties": {"osm_id": 1207764239, "building": "detached", "name": "", "height": null, "height_m": null, "levels": null, "tract_id": "40109107807", "tract_name": "1078.07", "tags": {"building": "detached", "source": "esri/Oklahoma_City_OK_Buildings"}}}, {"type": "Feature", "geometry": {"type": "Polygon", "coordinates": [[[-97.4370447, 35.4242162], [-97.4370343, 35.4241254], [-97.4371748, 35.4241146], [-97.4371812, 35.42417], [-97.4372301, 35.4241663], [-97.4372327, 35.4241892], [-97.4372399, 35.4241886], [-97.4372432, 35.4242168], [-97.4371926, 35.4242207], [-97.437197, 35.424259], [-97.4370395, 35.424271], [-97.4370333, 35.4242171], [-97.4370447, 35.4242162]]]}, "properties": {"osm_id": 1207764240, "building": "detached", "name": "", "height": null, "height_m": null, "levels": null, "tract_id": "40109107807", "tract_name": "1078.07", "tags": {"building": "detached", "source": "esri/Oklahoma_City_OK_Buildings"}}}, {"type": "Feature", "geometry": {"type": "Polygon", "coordinates": [[[-97.437414, 35.4232757], [-97.437414, 35.4232725], [-97.4373207, 35.4232727], [-97.4373203, 35.4231277], [-97.4374264, 35.4231275], [-97.4374266, 35.42319], [-97.4374475, 35.42319], [-97.4374478, 35.4232756], [-97.437414, 35.4232757]]]}, "properties": {"osm_id": 1207764241, "building": "detached", "name": "", "height": null, "height_m": null, "levels": null, "tract_id": "40109107807", "tract_name": "1078.07", "tags": {"building": "detached", "source": "esri/Oklahoma_City_OK_Buildings"}}}, {"type": "Feature", "geometry": {"type": "Polygon", "coordinates": [[[-97.4361192, 35.4211257], [-97.4361183, 35.4210703], [-97.4361142, 35.4210704], [-97.4361129, 35.4209899], [-97.4362066, 35.4209889], [-97.4362068, 35.4210029], [-97.4362881, 35.421002], [-97.436289, 35.4210575], [-97.4362916, 35.4210575], [-97.4362939, 35.4211935], [-97.4361147, 35.4211956], [-97.4361136, 35.4211258], [-97.4361192, 35.4211257]]]}, "properties": {"osm_id": 1207764242, "building": "detached", "name": "", "height": null, "height_m": null, "levels": null, "tract_id": "40109107807", "tract_name": "1078.07", "tags": {"building": "detached", "source": "esri/Oklahoma_City_OK_Buildings"}}}, {"type": "Feature", "geometry": {"type": "Polygon", "coordinates": [[[-97.4373522, 35.4230136], [-97.437352, 35.422995], [-97.4373289, 35.4229951], [-97.4373283, 35.4229373], [-97.4373508, 35.422937], [-97.4373502, 35.4228766], [-97.4374854, 35.4228758], [-97.4374866, 35.4230128], [-97.4373522, 35.4230136]]]}, "properties": {"osm_id": 1207764243, "building": "detached", "name": "", "height": null, "height_m": null, "levels": null, "tract_id": "40109107807", "tract_name": "1078.07", "tags": {"building": "detached", "source": "esri/Oklahoma_City_OK_Buildings"}}}, {"type": "Feature", "geometry": {"type": "Polygon", "coordinates": [[[-97.4352971, 35.4226463], [-97.435212, 35.4225866], [-97.4353258, 35.4224778], [-97.4354355, 35.4225547], [-97.4353911, 35.4225971], [-97.4353773, 35.4225875], [-97.4353587, 35.4226053], [-97.4353672, 35.4226112], [-97.4353147, 35.4226615], [-97.4352953, 35.4226479], [-97.4352971, 35.4226463]]]}, "properties": {"osm_id": 1207764244, "building": "detached", "name": "", "height": null, "height_m": null, "levels": null, "tract_id": "40109107807", "tract_name": "1078.07", "tags": {"building": "detached", "source": "esri/Oklahoma_City_OK_Buildings"}}}, {"type": "Feature", "geometry": {"type": "Polygon", "coordinates": [[[-97.4380607, 35.423995], [-97.438061, 35.4239295], [-97.438116, 35.4239297], [-97.438116, 35.4239333], [-97.4381673, 35.4239334], [-97.4381643, 35.4240793], [-97.4380345, 35.4240796], [-97.438035, 35.4239949], [-97.4380607, 35.423995]]]}, "properties": {"osm_id": 1207764245, "building": "detached", "name": "", "height": null, "height_m": null, "levels": null, "tract_id": "40109107807", "tract_name": "1078.07", "tags": {"building": "detached", "source": "esri/Oklahoma_City_OK_Buildings"}}}, {"type": "Feature", "geometry": {"type": "Polygon", "coordinates": [[[-97.4367905, 35.4220201], [-97.4368909, 35.422018], [-97.4368955, 35.4221636], [-97.4367655, 35.4221663], [-97.4367625, 35.4220717], [-97.4367921, 35.4220711], [-97.4367905, 35.4220201]]]}, "properties": {"osm_id": 1207764246, "building": "detached", "name": "", "height": null, "height_m": null, "levels": null, "tract_id": "40109107807", "tract_name": "1078.07", "tags": {"building": "detached", "source": "esri/Oklahoma_City_OK_Buildings"}}}, {"type": "Feature", "geometry": {"type": "Polygon", "coordinates": [[[-97.4362202, 35.4242281], [-97.4362108, 35.4242281], [-97.4362104, 35.4242611], [-97.4361161, 35.4242603], [-97.4361177, 35.4241292], [-97.436191, 35.4241298], [-97.4361913, 35.4241023], [-97.4362364, 35.4241027], [-97.4362361, 35.4241277], [-97.4362947, 35.4241282], [-97.4362937, 35.4242111], [-97.4362879, 35.4242111], [-97.4362872, 35.4242664], [-97.4362197, 35.4242659], [-97.4362202, 35.4242281]]]}, "properties": {"osm_id": 1207764247, "building": "detached", "name": "", "height": null, "height_m": null, "levels": null, "tract_id": "40109107807", "tract_name": "1078.07", "tags": {"building": "detached", "source": "esri/Oklahoma_City_OK_Buildings"}}}, {"type": "Feature", "geometry": {"type": "Polygon", "coordinates": [[[-97.4387133, 35.4218901], [-97.438709, 35.421757], [-97.4388082, 35.4217549], [-97.4388094, 35.4217924], [-97.4388582, 35.4217914], [-97.4388605, 35.42186], [-97.438808, 35.4218611], [-97.4388088, 35.421888], [-97.4387133, 35.4218901]]]}, "properties": {"osm_id": 1207764248, "building": "detached", "name": "", "height": null, "height_m": null, "levels": null, "tract_id": "40109107807", "tract_name": "1078.07", "tags": {"building": "detached", "source": "esri/Oklahoma_City_OK_Buildings"}}}, {"type": "Feature", "geometry": {"type": "Polygon", "coordinates": [[[-97.437612, 35.4217496], [-97.4376118, 35.4217254], [-97.4375481, 35.4217257], [-97.4375475, 35.4216448], [-97.4377219, 35.4216439], [-97.4377227, 35.4217491], [-97.437612, 35.4217496]]]}, "properties": {"osm_id": 1207764249, "building": "detached", "name": "", "height": null, "height_m": null, "levels": null, "tract_id": "40109107807", "tract_name": "1078.07", "tags": {"building": "detached", "source": "esri/Oklahoma_City_OK_Buildings"}}}, {"type": "Feature", "geometry": {"type": "Polygon", "coordinates": [[[-97.4357959, 35.42175], [-97.4357958, 35.4217273], [-97.4357303, 35.4217275], [-97.4357301, 35.4216445], [-97.4357828, 35.4216444], [-97.4357826, 35.4215935], [-97.4358049, 35.4215934], [-97.4358049, 35.4215775], [-97.4358853, 35.4215774], [-97.4358855, 35.4216431], [-97.4359065, 35.421643], [-97.4359077, 35.421727], [-97.4359088, 35.4217498], [-97.4357959, 35.42175]]]}, "properties": {"osm_id": 1207764250, "building": "detached", "name": "", "height": null, "height_m": null, "levels": null, "tract_id": "40109107807", "tract_name": "1078.07", "tags": {"building": "detached", "source": "esri/Oklahoma_City_OK_Buildings"}}}, {"type": "Feature", "geometry": {"type": "Polygon", "coordinates": [[[-97.4363426, 35.4231654], [-97.4363429, 35.4231411], [-97.4363088, 35.4231408], [-97.4363094, 35.4230968], [-97.4363405, 35.423097], [-97.4363414, 35.423023], [-97.4364495, 35.4230239], [-97.4364488, 35.4230823], [-97.4364715, 35.4230825], [-97.4364711, 35.4231067], [-97.4365369, 35.4231073], [-97.4365362, 35.4231619], [-97.4364731, 35.4231614], [-97.4364729, 35.4231709], [-97.4364365, 35.4231706], [-97.4364365, 35.4231662], [-97.4363426, 35.4231654]]]}, "properties": {"osm_id": 1207764251, "building": "detached", "name": "", "height": null, "height_m": null, "levels": null, "tract_id": "40109107807", "tract_name": "1078.07", "tags": {"building": "detached", "source": "esri/Oklahoma_City_OK_Buildings"}}}, {"type": "Feature", "geometry": {"type": "Polygon", "coordinates": [[[-97.4375201, 35.4243981], [-97.4375212, 35.4243208], [-97.4375644, 35.4243212], [-97.4375648, 35.4242904], [-97.4377122, 35.4242918], [-97.4377109, 35.4243836], [-97.4376566, 35.424383], [-97.4376558, 35.4244375], [-97.4375605, 35.4244365], [-97.437561, 35.4243985], [-97.4375201, 35.4243981]]]}, "properties": {"osm_id": 1207764252, "building": "detached", "name": "", "height": null, "height_m": null, "levels": null, "tract_id": "40109107807", "tract_name": "1078.07", "tags": {"building": "detached", "source": "esri/Oklahoma_City_OK_Buildings"}}}, {"type": "Feature", "geometry": {"type": "Polygon", "coordinates": [[[-97.4358179, 35.4221849], [-97.4358183, 35.4221343], [-97.4357363, 35.4221339], [-97.4357369, 35.4220484], [-97.4358021, 35.4220487], [-97.4358023, 35.4220283], [-97.4359135, 35.4220288], [-97.4359133, 35.4220619], [-97.4359089, 35.4220619], [-97.4359084, 35.4221337], [-97.4359035, 35.4221337], [-97.4359031, 35.4221853], [-97.4358179, 35.4221849]]]}, "properties": {"osm_id": 1207764253, "building": "detached", "name": "", "height": null, "height_m": null, "levels": null, "tract_id": "40109107807", "tract_name": "1078.07", "tags": {"building": "detached", "source": "esri/Oklahoma_City_OK_Buildings"}}}, {"type": "Feature", "geometry": {"type": "Polygon", "coordinates": [[[-97.4364642, 35.4242934], [-97.4364632, 35.4242273], [-97.4364553, 35.4242274], [-97.4364554, 35.4242395], [-97.4364084, 35.42424], [-97.4364086, 35.424257], [-97.4363261, 35.4242578], [-97.4363257, 35.4242268], [-97.4363305, 35.4242267], [-97.4363294, 35.4241525], [-97.4365335, 35.4241505], [-97.4365347, 35.424228], [-97.4365316, 35.4242281], [-97.4365326, 35.4242927], [-97.4364642, 35.4242934]]]}, "properties": {"osm_id": 1207764254, "building": "detached", "name": "", "height": null, "height_m": null, "levels": null, "tract_id": "40109107807", "tract_name": "1078.07", "tags": {"building": "detached", "source": "esri/Oklahoma_City_OK_Buildings"}}}, {"type": "Feature", "geometry": {"type": "Polygon", "coordinates": [[[-97.4366275, 35.4217541], [-97.4366267, 35.421683], [-97.4365775, 35.4216834], [-97.4365766, 35.4216081], [-97.4367156, 35.421607], [-97.4367173, 35.4217534], [-97.4366275, 35.4217541]]]}, "properties": {"osm_id": 1207764255, "building": "detached", "name": "", "height": null, "height_m": null, "levels": null, "tract_id": "40109107807", "tract_name": "1078.07", "tags": {"building": "detached", "source": "esri/Oklahoma_City_OK_Buildings"}}}, {"type": "Feature", "geometry": {"type": "Polygon", "coordinates": [[[-97.4358276, 35.4229604], [-97.4358268, 35.4228742], [-97.4358516, 35.422874], [-97.435851, 35.4228122], [-97.4359573, 35.4228116], [-97.4359581, 35.4228911], [-97.4359827, 35.4228909], [-97.4359831, 35.4229252], [-97.435957, 35.4229253], [-97.4359573, 35.4229596], [-97.4358276, 35.4229604]]]}, "properties": {"osm_id": 1207764256, "building": "detached", "name": "", "height": null, "height_m": null, "levels": null, "tract_id": "40109107807", "tract_name": "1078.07", "tags": {"building": "detached", "source": "esri/Oklahoma_City_OK_Buildings"}}}, {"type": "Feature", "geometry": {"type": "Polygon", "coordinates": [[[-97.4401178, 35.4218733], [-97.4401178, 35.4218634], [-97.440052, 35.4218635], [-97.4400519, 35.4218065], [-97.4402107, 35.4218062], [-97.4402109, 35.4218626], [-97.4401521, 35.4218627], [-97.4401522, 35.4218732], [-97.4401178, 35.4218733]]]}, "properties": {"osm_id": 1207764257, "building": "detached", "name": "", "height": null, "height_m": null, "levels": null, "tract_id": "40109107807", "tract_name": "1078.07", "tags": {"building": "detached", "source": "esri/Oklahoma_City_OK_Buildings"}}}, {"type": "Feature", "geometry": {"type": "Polygon", "coordinates": [[[-97.4373776, 35.4233114], [-97.4374474, 35.423303], [-97.4374607, 35.4233773], [-97.4374094, 35.4233835], [-97.4374213, 35.4234497], [-97.4373199, 35.4234619], [-97.4372951, 35.4233242], [-97.4373781, 35.4233142], [-97.4373776, 35.4233114]]]}, "properties": {"osm_id": 1207764258, "building": "detached", "name": "", "height": null, "height_m": null, "levels": null, "tract_id": "40109107807", "tract_name": "1078.07", "tags": {"building": "detached", "source": "esri/Oklahoma_City_OK_Buildings"}}}, {"type": "Feature", "geometry": {"type": "Polygon", "coordinates": [[[-97.4368675, 35.4234836], [-97.4369687, 35.4234639], [-97.4370062, 35.4235933], [-97.4368685, 35.4236201], [-97.4368529, 35.4235663], [-97.4368895, 35.4235592], [-97.4368675, 35.4234836]]]}, "properties": {"osm_id": 1207764259, "building": "detached", "name": "", "height": null, "height_m": null, "levels": null, "tract_id": "40109107807", "tract_name": "1078.07", "tags": {"building": "detached", "source": "esri/Oklahoma_City_OK_Buildings"}}}, {"type": "Feature", "geometry": {"type": "Polygon", "coordinates": [[[-97.4381954, 35.4214095], [-97.4381966, 35.4213508], [-97.4382394, 35.4213514], [-97.438241, 35.4212737], [-97.4383501, 35.4212752], [-97.4383484, 35.421357], [-97.4383802, 35.4213574], [-97.4383786, 35.4214384], [-97.4382386, 35.4214365], [-97.4382391, 35.4214101], [-97.4381954, 35.4214095]]]}, "properties": {"osm_id": 1207764260, "building": "detached", "name": "", "height": null, "height_m": null, "levels": null, "tract_id": "40109107807", "tract_name": "1078.07", "tags": {"building": "detached", "source": "esri/Oklahoma_City_OK_Buildings"}}}, {"type": "Feature", "geometry": {"type": "Polygon", "coordinates": [[[-97.4359341, 35.424192], [-97.435934, 35.4241711], [-97.4359272, 35.4241711], [-97.4359271, 35.4241043], [-97.4359494, 35.4241042], [-97.4359494, 35.4241101], [-97.4360538, 35.4241099], [-97.436054, 35.424163], [-97.4360935, 35.424163], [-97.4360937, 35.4242476], [-97.4360545, 35.4242477], [-97.4360546, 35.4242565], [-97.4359498, 35.4242567], [-97.4359498, 35.4242623], [-97.4359295, 35.4242623], [-97.4359293, 35.424192], [-97.4359341, 35.424192]]]}, "properties": {"osm_id": 1207764261, "building": "detached", "name": "", "height": null, "height_m": null, "levels": null, "tract_id": "40109107807", "tract_name": "1078.07", "tags": {"building": "detached", "source": "esri/Oklahoma_City_OK_Buildings"}}}, {"type": "Feature", "geometry": {"type": "Polygon", "coordinates": [[[-97.4383517, 35.4222877], [-97.4383516, 35.4222843], [-97.4382566, 35.4222864], [-97.4382522, 35.4221486], [-97.4383543, 35.4221464], [-97.4383562, 35.4222041], [-97.4383808, 35.4222036], [-97.4383835, 35.422287], [-97.4383517, 35.4222877]]]}, "properties": {"osm_id": 1207764262, "building": "detached", "name": "", "height": null, "height_m": null, "levels": null, "tract_id": "40109107807", "tract_name": "1078.07", "tags": {"building": "detached", "source": "esri/Oklahoma_City_OK_Buildings"}}}, {"type": "Feature", "geometry": {"type": "Polygon", "coordinates": [[[-97.4387067, 35.4213988], [-97.4387083, 35.4213331], [-97.4387121, 35.4213332], [-97.4387127, 35.4213091], [-97.4387071, 35.421309], [-97.4387085, 35.4212511], [-97.4388325, 35.4212531], [-97.4388307, 35.4213283], [-97.4388731, 35.421329], [-97.4388714, 35.4213965], [-97.4387067, 35.4213988]]]}, "properties": {"osm_id": 1207764263, "building": "detached", "name": "", "height": null, "height_m": null, "levels": null, "tract_id": "40109107807", "tract_name": "1078.07", "tags": {"building": "detached", "source": "esri/Oklahoma_City_OK_Buildings"}}}, {"type": "Feature", "geometry": {"type": "Polygon", "coordinates": [[[-97.4375544, 35.4226009], [-97.4375616, 35.4225014], [-97.4377157, 35.4225088], [-97.4377085, 35.4226083], [-97.4375544, 35.4226009]]]}, "properties": {"osm_id": 1207764264, "building": "detached", "name": "", "height": null, "height_m": null, "levels": null, "tract_id": "40109107807", "tract_name": "1078.07", "tags": {"building": "detached", "source": "esri/Oklahoma_City_OK_Buildings"}}}, {"type": "Feature", "geometry": {"type": "Polygon", "coordinates": [[[-97.4387107, 35.4225432], [-97.43871, 35.4224794], [-97.4387431, 35.4224792], [-97.4387424, 35.4224185], [-97.4388492, 35.4224177], [-97.4388499, 35.4224841], [-97.4388811, 35.4224839], [-97.4388815, 35.4225258], [-97.4388495, 35.422526], [-97.4388496, 35.4225406], [-97.4387529, 35.4225421], [-97.4387107, 35.4225432]]]}, "properties": {"osm_id": 1207764265, "building": "detached", "name": "", "height": null, "height_m": null, "levels": null, "tract_id": "40109107807", "tract_name": "1078.07", "tags": {"building": "detached", "source": "esri/Oklahoma_City_OK_Buildings"}}}, {"type": "Feature", "geometry": {"type": "Polygon", "coordinates": [[[-97.4397188, 35.4218664], [-97.4397206, 35.421805], [-97.4398255, 35.4218071], [-97.4398264, 35.4217791], [-97.4398574, 35.4217797], [-97.4398548, 35.4218671], [-97.4397876, 35.4218658], [-97.4397873, 35.4218738], [-97.4397603, 35.4218732], [-97.4397605, 35.4218672], [-97.4397188, 35.4218664]]]}, "properties": {"osm_id": 1207764266, "building": "detached", "name": "", "height": null, "height_m": null, "levels": null, "tract_id": "40109107807", "tract_name": "1078.07", "tags": {"building": "detached", "source": "esri/Oklahoma_City_OK_Buildings"}}}, {"type": "Feature", "geometry": {"type": "Polygon", "coordinates": [[[-97.4368591, 35.422431], [-97.4368613, 35.4225297], [-97.4368925, 35.4225292], [-97.436894, 35.4225967], [-97.4368628, 35.4225972], [-97.4368629, 35.4226024], [-97.4367634, 35.422604], [-97.436762, 35.4225425], [-97.4367537, 35.4225426], [-97.4367523, 35.4224837], [-97.4367604, 35.4224835], [-97.4367592, 35.4224312], [-97.4367699, 35.422431], [-97.4368591, 35.422431]]]}, "properties": {"osm_id": 1207764267, "building": "detached", "name": "", "height": null, "height_m": null, "levels": null, "tract_id": "40109107807", "tract_name": "1078.07", "tags": {"building": "detached", "source": "esri/Oklahoma_City_OK_Buildings"}}}, {"type": "Feature", "geometry": {"type": "Polygon", "coordinates": [[[-97.4364348, 35.4233382], [-97.4364347, 35.4233353], [-97.4363419, 35.423336], [-97.4363418, 35.4233227], [-97.436303, 35.423323], [-97.4363023, 35.4232612], [-97.4363435, 35.4232609], [-97.4363428, 35.423192], [-97.4364486, 35.4231913], [-97.4364492, 35.4232525], [-97.4365367, 35.4232517], [-97.4365376, 35.4233374], [-97.4364348, 35.4233382]]]}, "properties": {"osm_id": 1207764268, "building": "detached", "name": "", "height": null, "height_m": null, "levels": null, "tract_id": "40109107807", "tract_name": "1078.07", "tags": {"building": "detached", "source": "esri/Oklahoma_City_OK_Buildings"}}}, {"type": "Feature", "geometry": {"type": "Polygon", "coordinates": [[[-97.4374241, 35.4221282], [-97.4373468, 35.4221278], [-97.4373474, 35.4220363], [-97.4374049, 35.4220365], [-97.4374051, 35.4220044], [-97.4374513, 35.4220045], [-97.4374516, 35.4219596], [-97.4375177, 35.4219598], [-97.4375174, 35.4220158], [-97.4375275, 35.4220158], [-97.4375269, 35.4221283], [-97.4374873, 35.4221282], [-97.437487, 35.4221634], [-97.4374239, 35.4221632], [-97.4374241, 35.4221282]]]}, "properties": {"osm_id": 1207764269, "building": "detached", "name": "", "height": null, "height_m": null, "levels": null, "tract_id": "40109107807", "tract_name": "1078.07", "tags": {"building": "detached", "source": "esri/Oklahoma_City_OK_Buildings"}}}, {"type": "Feature", "geometry": {"type": "Polygon", "coordinates": [[[-97.4374993, 35.4238007], [-97.4374572, 35.4237138], [-97.437425, 35.4237242], [-97.4374034, 35.4236797], [-97.4375781, 35.423623], [-97.4376109, 35.4236906], [-97.4375575, 35.423708], [-97.4375884, 35.4237718], [-97.4374993, 35.4238007]]]}, "properties": {"osm_id": 1207764270, "building": "detached", "name": "", "height": null, "height_m": null, "levels": null, "tract_id": "40109107807", "tract_name": "1078.07", "tags": {"building": "detached", "source": "esri/Oklahoma_City_OK_Buildings"}}}, {"type": "Feature", "geometry": {"type": "Polygon", "coordinates": [[[-97.4359814, 35.4238266], [-97.4361484, 35.4238158], [-97.4361633, 35.4239704], [-97.4359984, 35.4239811], [-97.4359989, 35.4239855], [-97.4359736, 35.4239871], [-97.4359658, 35.4239067], [-97.4359763, 35.4239061], [-97.4359724, 35.4238658], [-97.4359852, 35.423865], [-97.4359814, 35.4238266]]]}, "properties": {"osm_id": 1207764271, "building": "detached", "name": "", "height": null, "height_m": null, "levels": null, "tract_id": "40109107807", "tract_name": "1078.07", "tags": {"building": "detached", "source": "esri/Oklahoma_City_OK_Buildings"}}}, {"type": "Feature", "geometry": {"type": "Polygon", "coordinates": [[[-97.4356455, 35.4225949], [-97.435613, 35.4225804], [-97.4356091, 35.4225862], [-97.435544, 35.4225571], [-97.4356029, 35.4224689], [-97.4356702, 35.422499], [-97.435706, 35.4224453], [-97.4357848, 35.4224805], [-97.43575, 35.4225326], [-97.4357703, 35.4225417], [-97.4357104, 35.4226314], [-97.4356416, 35.4226007], [-97.4356455, 35.4225949]]]}, "properties": {"osm_id": 1207764272, "building": "detached", "name": "", "height": null, "height_m": null, "levels": null, "tract_id": "40109107807", "tract_name": "1078.07", "tags": {"building": "detached", "source": "esri/Oklahoma_City_OK_Buildings"}}}, {"type": "Feature", "geometry": {"type": "Polygon", "coordinates": [[[-97.4387029, 35.4215571], [-97.4387025, 35.4214221], [-97.4387782, 35.4214219], [-97.4387782, 35.4214263], [-97.4388203, 35.4214262], [-97.4388205, 35.4214827], [-97.4388554, 35.4214826], [-97.4388556, 35.4215418], [-97.4388205, 35.4215419], [-97.4388205, 35.4215568], [-97.4387029, 35.4215571]]]}, "properties": {"osm_id": 1207764273, "building": "detached", "name": "", "height": null, "height_m": null, "levels": null, "tract_id": "40109107807", "tract_name": "1078.07", "tags": {"building": "detached", "source": "esri/Oklahoma_City_OK_Buildings"}}}, {"type": "Feature", "geometry": {"type": "Polygon", "coordinates": [[[-97.4350974, 35.4228284], [-97.4350989, 35.4227258], [-97.4351584, 35.4227263], [-97.4351583, 35.4227324], [-97.4353259, 35.422734], [-97.4353257, 35.4227528], [-97.435313, 35.4227527], [-97.4353124, 35.4227898], [-97.4353239, 35.4227899], [-97.4353236, 35.4228095], [-97.4352504, 35.4228088], [-97.4352493, 35.4228853], [-97.4351522, 35.4228844], [-97.435153, 35.4228289], [-97.4350974, 35.4228284]]]}, "properties": {"osm_id": 1207764274, "building": "detached", "name": "", "height": null, "height_m": null, "levels": null, "tract_id": "40109107807", "tract_name": "1078.07", "tags": {"building": "detached", "source": "esri/Oklahoma_City_OK_Buildings"}}}, {"type": "Feature", "geometry": {"type": "Polygon", "coordinates": [[[-97.4377536, 35.4221285], [-97.4377535, 35.4220637], [-97.4377467, 35.4220637], [-97.4377466, 35.422034], [-97.4377851, 35.4220339], [-97.4377851, 35.4220365], [-97.4378229, 35.4220365], [-97.4378228, 35.4220221], [-97.4379274, 35.4220219], [-97.4379275, 35.4220423], [-97.4379224, 35.4220424], [-97.4379226, 35.4221281], [-97.4377536, 35.4221285]]]}, "properties": {"osm_id": 1207764275, "building": "detached", "name": "", "height": null, "height_m": null, "levels": null, "tract_id": "40109107807", "tract_name": "1078.07", "tags": {"building": "detached", "source": "esri/Oklahoma_City_OK_Buildings"}}}, {"type": "Feature", "geometry": {"type": "Polygon", "coordinates": [[[-97.4392319, 35.4218434], [-97.4392321, 35.4218161], [-97.4392449, 35.4218161], [-97.4392453, 35.4217647], [-97.439319, 35.4217651], [-97.4393185, 35.4218293], [-97.4393241, 35.4218293], [-97.439324, 35.4218411], [-97.4393193, 35.421841], [-97.4393191, 35.4218651], [-97.4392454, 35.4218646], [-97.4392456, 35.4218434], [-97.4392319, 35.4218434]]]}, "properties": {"osm_id": 1207764276, "building": "detached", "name": "", "height": null, "height_m": null, "levels": null, "tract_id": "40109107807", "tract_name": "1078.07", "tags": {"building": "detached", "source": "esri/Oklahoma_City_OK_Buildings"}}}, {"type": "Feature", "geometry": {"type": "Polygon", "coordinates": [[[-97.4371396, 35.4229755], [-97.4371402, 35.4228902], [-97.4371341, 35.4228902], [-97.4371342, 35.4228751], [-97.4372042, 35.4228755], [-97.4372042, 35.4228779], [-97.4372286, 35.4228781], [-97.4372286, 35.4228741], [-97.4373104, 35.4228745], [-97.4373079, 35.4229763], [-97.4371396, 35.4229755]]]}, "properties": {"osm_id": 1207764277, "building": "detached", "name": "", "height": null, "height_m": null, "levels": null, "tract_id": "40109107807", "tract_name": "1078.07", "tags": {"building": "detached", "source": "esri/Oklahoma_City_OK_Buildings"}}}, {"type": "Feature", "geometry": {"type": "Polygon", "coordinates": [[[-97.4372365, 35.4217654], [-97.4372365, 35.4217522], [-97.4371438, 35.4217523], [-97.4371433, 35.4215847], [-97.4372369, 35.4215845], [-97.437237, 35.4216383], [-97.4373186, 35.4216381], [-97.437319, 35.4217653], [-97.4372365, 35.4217654]]]}, "properties": {"osm_id": 1207764278, "building": "detached", "name": "", "height": null, "height_m": null, "levels": null, "tract_id": "40109107807", "tract_name": "1078.07", "tags": {"building": "detached", "source": "esri/Oklahoma_City_OK_Buildings"}}}, {"type": "Feature", "geometry": {"type": "Polygon", "coordinates": [[[-97.4378245, 35.4229907], [-97.4378229, 35.4229503], [-97.4378087, 35.4229507], [-97.4378065, 35.4228966], [-97.43782, 35.4228962], [-97.437818, 35.4228452], [-97.4379134, 35.4228426], [-97.4379192, 35.4229881], [-97.4378245, 35.4229907]]]}, "properties": {"osm_id": 1207764279, "building": "detached", "name": "", "height": null, "height_m": null, "levels": null, "tract_id": "40109107807", "tract_name": "1078.07", "tags": {"building": "detached", "source": "esri/Oklahoma_City_OK_Buildings"}}}, {"type": "Feature", "geometry": {"type": "Polygon", "coordinates": [[[-97.438341, 35.4224509], [-97.4383409, 35.4224467], [-97.4382555, 35.4224473], [-97.4382552, 35.4224263], [-97.4382299, 35.4224265], [-97.4382295, 35.4223918], [-97.4382549, 35.4223916], [-97.438254, 35.4223196], [-97.4383459, 35.4223189], [-97.4383465, 35.4223688], [-97.4383635, 35.4223686], [-97.4383638, 35.4223885], [-97.4384467, 35.4223878], [-97.4384474, 35.4224453], [-97.438382, 35.4224458], [-97.438382, 35.4224505], [-97.438341, 35.4224509]]]}, "properties": {"osm_id": 1207764280, "building": "detached", "name": "", "height": null, "height_m": null, "levels": null, "tract_id": "40109107807", "tract_name": "1078.07", "tags": {"building": "detached", "source": "esri/Oklahoma_City_OK_Buildings"}}}, {"type": "Feature", "geometry": {"type": "Polygon", "coordinates": [[[-97.4363354, 35.4228316], [-97.4363377, 35.4226954], [-97.4364669, 35.4226969], [-97.4364645, 35.422833], [-97.4363354, 35.4228316]]]}, "properties": {"osm_id": 1207764281, "building": "detached", "name": "", "height": null, "height_m": null, "levels": null, "tract_id": "40109107807", "tract_name": "1078.07", "tags": {"building": "detached", "source": "esri/Oklahoma_City_OK_Buildings"}}}, {"type": "Feature", "geometry": {"type": "Polygon", "coordinates": [[[-97.4363769, 35.423581], [-97.4363674, 35.4235472], [-97.4364912, 35.423524], [-97.436507, 35.4235803], [-97.4365233, 35.4235772], [-97.4365456, 35.4236569], [-97.4363463, 35.4236944], [-97.4363253, 35.4236195], [-97.4363491, 35.423615], [-97.4363414, 35.4235877], [-97.4363769, 35.423581]]]}, "properties": {"osm_id": 1207764282, "building": "detached", "name": "", "height": null, "height_m": null, "levels": null, "tract_id": "40109107807", "tract_name": "1078.07", "tags": {"building": "detached", "source": "esri/Oklahoma_City_OK_Buildings"}}}, {"type": "Feature", "geometry": {"type": "Polygon", "coordinates": [[[-97.4356815, 35.4211969], [-97.4356825, 35.4210713], [-97.435728, 35.4210716], [-97.435728, 35.4210619], [-97.4357318, 35.4210619], [-97.4357324, 35.4209876], [-97.4358564, 35.4209883], [-97.4358558, 35.4210565], [-97.4358887, 35.4210567], [-97.4358882, 35.4211124], [-97.4358551, 35.4211123], [-97.4358549, 35.4211257], [-97.4358126, 35.4211255], [-97.4358121, 35.4211844], [-97.435727, 35.4211839], [-97.4357269, 35.4211972], [-97.4356815, 35.4211969]]]}, "properties": {"osm_id": 1207764283, "building": "detached", "name": "", "height": null, "height_m": null, "levels": null, "tract_id": "40109107807", "tract_name": "1078.07", "tags": {"building": "detached", "source": "esri/Oklahoma_City_OK_Buildings"}}}, {"type": "Feature", "geometry": {"type": "Polygon", "coordinates": [[[-97.4388399, 35.4222108], [-97.4388399, 35.4222069], [-97.438755, 35.4222071], [-97.438755, 35.4222098], [-97.4387107, 35.4222099], [-97.4387105, 35.4221485], [-97.4387403, 35.4221485], [-97.4387401, 35.4220932], [-97.4388503, 35.422093], [-97.4388504, 35.4221228], [-97.4389241, 35.4221227], [-97.4389243, 35.4222106], [-97.4388399, 35.4222108]]]}, "properties": {"osm_id": 1207764284, "building": "detached", "name": "", "height": null, "height_m": null, "levels": null, "tract_id": "40109107807", "tract_name": "1078.07", "tags": {"building": "detached", "source": "esri/Oklahoma_City_OK_Buildings"}}}, {"type": "Feature", "geometry": {"type": "Polygon", "coordinates": [[[-97.4370451, 35.4240427], [-97.4370223, 35.4239696], [-97.4371257, 35.423948], [-97.4371357, 35.4239799], [-97.437179, 35.4239709], [-97.4371988, 35.4240345], [-97.4371547, 35.4240437], [-97.4371628, 35.4240699], [-97.4370722, 35.4240888], [-97.4370736, 35.4240934], [-97.4370294, 35.4241026], [-97.4370128, 35.4240494], [-97.4370451, 35.4240427]]]}, "properties": {"osm_id": 1207764285, "building": "detached", "name": "", "height": null, "height_m": null, "levels": null, "tract_id": "40109107807", "tract_name": "1078.07", "tags": {"building": "detached", "source": "esri/Oklahoma_City_OK_Buildings"}}}, {"type": "Feature", "geometry": {"type": "Polygon", "coordinates": [[[-97.4356014, 35.4222551], [-97.4356046, 35.4222248], [-97.4355067, 35.4222179], [-97.435515, 35.4221382], [-97.4355787, 35.4221427], [-97.4355857, 35.4220762], [-97.4356058, 35.4220776], [-97.4356113, 35.4220249], [-97.4356803, 35.4220297], [-97.4356747, 35.4220827], [-97.4356856, 35.4220834], [-97.4356776, 35.4221594], [-97.4356713, 35.422159], [-97.435664, 35.4222286], [-97.4356598, 35.4222283], [-97.4356566, 35.422259], [-97.4356014, 35.4222551]]]}, "properties": {"osm_id": 1207764286, "building": "detached", "name": "", "height": null, "height_m": null, "levels": null, "tract_id": "40109107807", "tract_name": "1078.07", "tags": {"building": "detached", "source": "esri/Oklahoma_City_OK_Buildings"}}}, {"type": "Feature", "geometry": {"type": "Polygon", "coordinates": [[[-97.4382064, 35.4212269], [-97.4382076, 35.4211737], [-97.4382399, 35.4211742], [-97.4382416, 35.4210989], [-97.4383491, 35.4211005], [-97.4383483, 35.4211368], [-97.4383658, 35.421137], [-97.4383649, 35.4211743], [-97.438376, 35.4211745], [-97.4383742, 35.4212585], [-97.4383553, 35.4212582], [-97.4383554, 35.4212532], [-97.4382411, 35.4212515], [-97.4382416, 35.4212274], [-97.4382064, 35.4212269]]]}, "properties": {"osm_id": 1207764287, "building": "detached", "name": "", "height": null, "height_m": null, "levels": null, "tract_id": "40109107807", "tract_name": "1078.07", "tags": {"building": "detached", "source": "esri/Oklahoma_City_OK_Buildings"}}}, {"type": "Feature", "geometry": {"type": "Polygon", "coordinates": [[[-97.4373218, 35.4211288], [-97.4373214, 35.4209855], [-97.4374167, 35.4209853], [-97.4374167, 35.4210019], [-97.4374975, 35.4210017], [-97.4374977, 35.4210548], [-97.4375047, 35.4210548], [-97.437505, 35.4211284], [-97.4373218, 35.4211288]]]}, "properties": {"osm_id": 1207764288, "building": "detached", "name": "", "height": null, "height_m": null, "levels": null, "tract_id": "40109107807", "tract_name": "1078.07", "tags": {"building": "detached", "source": "esri/Oklahoma_City_OK_Buildings"}}}, {"type": "Feature", "geometry": {"type": "Polygon", "coordinates": [[[-97.4359151, 35.4210023], [-97.4359154, 35.4209894], [-97.4359844, 35.4209904], [-97.4359844, 35.4209926], [-97.4360088, 35.4209929], [-97.4360089, 35.4209882], [-97.4360908, 35.4209894], [-97.4360887, 35.4210849], [-97.4359197, 35.4210825], [-97.4359215, 35.4210024], [-97.4359151, 35.4210023]]]}, "properties": {"osm_id": 1207764289, "building": "detached", "name": "", "height": null, "height_m": null, "levels": null, "tract_id": "40109107807", "tract_name": "1078.07", "tags": {"building": "detached", "source": "esri/Oklahoma_City_OK_Buildings"}}}, {"type": "Feature", "geometry": {"type": "Polygon", "coordinates": [[[-97.4379306, 35.4237541], [-97.4379051, 35.4236953], [-97.4379701, 35.4236764], [-97.4379431, 35.4236142], [-97.4380499, 35.4235832], [-97.4380789, 35.42365], [-97.438111, 35.4236407], [-97.4381362, 35.4236987], [-97.4381052, 35.4237077], [-97.4381069, 35.4237116], [-97.4379976, 35.4237434], [-97.4379943, 35.4237356], [-97.4379306, 35.4237541]]]}, "properties": {"osm_id": 1207764290, "building": "detached", "name": "", "height": null, "height_m": null, "levels": null, "tract_id": "40109107807", "tract_name": "1078.07", "tags": {"building": "detached", "source": "esri/Oklahoma_City_OK_Buildings"}}}, {"type": "Feature", "geometry": {"type": "Polygon", "coordinates": [[[-97.4378344, 35.4209856], [-97.4379223, 35.4209849], [-97.4379241, 35.4211362], [-97.4377723, 35.4211375], [-97.4377714, 35.4210638], [-97.4378354, 35.4210633], [-97.4378344, 35.4209856]]]}, "properties": {"osm_id": 1207764291, "building": "detached", "name": "", "height": null, "height_m": null, "levels": null, "tract_id": "40109107807", "tract_name": "1078.07", "tags": {"building": "detached", "source": "esri/Oklahoma_City_OK_Buildings"}}}, {"type": "Feature", "geometry": {"type": "Polygon", "coordinates": [[[-97.4368193, 35.4233851], [-97.4368168, 35.4233653], [-97.4368143, 35.4233655], [-97.4368072, 35.4233095], [-97.4368268, 35.4233078], [-97.4368273, 35.4233115], [-97.4369223, 35.4233035], [-97.4369396, 35.4234413], [-97.436824, 35.423451], [-97.4368158, 35.4233854], [-97.4368193, 35.4233851]]]}, "properties": {"osm_id": 1207764292, "building": "detached", "name": "", "height": null, "height_m": null, "levels": null, "tract_id": "40109107807", "tract_name": "1078.07", "tags": {"building": "detached", "source": "esri/Oklahoma_City_OK_Buildings"}}}, {"type": "Feature", "geometry": {"type": "Polygon", "coordinates": [[[-97.4352397, 35.4221248], [-97.4353094, 35.4220695], [-97.4352733, 35.4220391], [-97.4352526, 35.4220555], [-97.435234, 35.4220397], [-97.4353281, 35.4219651], [-97.4353744, 35.4220042], [-97.435391, 35.421991], [-97.4354694, 35.4220572], [-97.4354417, 35.4220791], [-97.435438, 35.422076], [-97.4353845, 35.4221184], [-97.4353876, 35.422121], [-97.435309, 35.4221833], [-97.4352397, 35.4221248]]]}, "properties": {"osm_id": 1207764293, "building": "detached", "name": "", "height": null, "height_m": null, "levels": null, "tract_id": "40109107807", "tract_name": "1078.07", "tags": {"building": "detached", "source": "esri/Oklahoma_City_OK_Buildings"}}}, {"type": "Feature", "geometry": {"type": "Polygon", "coordinates": [[[-97.4399501, 35.4218726], [-97.4399502, 35.4218641], [-97.4398877, 35.4218637], [-97.4398883, 35.4218026], [-97.4400088, 35.4218034], [-97.4400086, 35.4218189], [-97.4400392, 35.4218191], [-97.4400387, 35.4218628], [-97.4399857, 35.4218624], [-97.4399856, 35.4218728], [-97.4399501, 35.4218726]]]}, "properties": {"osm_id": 1207764294, "building": "detached", "name": "", "height": null, "height_m": null, "levels": null, "tract_id": "40109107807", "tract_name": "1078.07", "tags": {"building": "detached", "source": "esri/Oklahoma_City_OK_Buildings"}}}, {"type": "Feature", "geometry": {"type": "Polygon", "coordinates": [[[-97.4377813, 35.4234565], [-97.4377501, 35.4234057], [-97.4377984, 35.4233858], [-97.4377862, 35.4233659], [-97.4377997, 35.4233603], [-97.437773, 35.423317], [-97.4378864, 35.4232703], [-97.4379238, 35.4233311], [-97.4379649, 35.4233142], [-97.4379674, 35.4233184], [-97.4379828, 35.423312], [-97.4380037, 35.423346], [-97.4379875, 35.4233526], [-97.4380007, 35.4233741], [-97.4378452, 35.4234381], [-97.4378413, 35.4234318], [-97.4377813, 35.4234565]]]}, "properties": {"osm_id": 1207764295, "building": "detached", "name": "", "height": null, "height_m": null, "levels": null, "tract_id": "40109107807", "tract_name": "1078.07", "tags": {"building": "detached", "source": "esri/Oklahoma_City_OK_Buildings"}}}, {"type": "Feature", "geometry": {"type": "Polygon", "coordinates": [[[-97.4369632, 35.4237076], [-97.4369412, 35.4236361], [-97.4370375, 35.4236162], [-97.4370438, 35.4236367], [-97.4370839, 35.4236285], [-97.4370915, 35.4236532], [-97.4370937, 35.4236527], [-97.4371084, 35.4237002], [-97.4370699, 35.4237081], [-97.4370839, 35.4237534], [-97.4370038, 35.42377], [-97.4370058, 35.4237765], [-97.4369277, 35.4237926], [-97.4369052, 35.4237196], [-97.4369632, 35.4237076]]]}, "properties": {"osm_id": 1207764296, "building": "detached", "name": "", "height": null, "height_m": null, "levels": null, "tract_id": "40109107807", "tract_name": "1078.07", "tags": {"building": "detached", "source": "esri/Oklahoma_City_OK_Buildings"}}}, {"type": "Feature", "geometry": {"type": "Polygon", "coordinates": [[[-97.4380323, 35.4242389], [-97.4380316, 35.4241676], [-97.438038, 35.4241675], [-97.4380373, 35.4240984], [-97.4381583, 35.4240976], [-97.4381591, 35.4241806], [-97.4381889, 35.4241804], [-97.4381889, 35.424185], [-97.4382112, 35.4241848], [-97.4382117, 35.4242333], [-97.4381891, 35.4242335], [-97.4381891, 35.4242358], [-97.4381554, 35.424236], [-97.4381554, 35.4242381], [-97.4380323, 35.4242389]]]}, "properties": {"osm_id": 1207764297, "building": "detached", "name": "", "height": null, "height_m": null, "levels": null, "tract_id": "40109107807", "tract_name": "1078.07", "tags": {"building": "detached", "source": "esri/Oklahoma_City_OK_Buildings"}}}, {"type": "Feature", "geometry": {"type": "Polygon", "coordinates": [[[-97.4368411, 35.4217487], [-97.4368307, 35.4217488], [-97.4368307, 35.4217436], [-97.4367493, 35.421744], [-97.4367486, 35.4216447], [-97.4368101, 35.4216444], [-97.4368099, 35.4216203], [-97.4368798, 35.42162], [-97.43688, 35.4216451], [-97.436909, 35.421645], [-97.4369096, 35.4217287], [-97.4369138, 35.4217287], [-97.4369143, 35.4218042], [-97.4368414, 35.4218045], [-97.4368411, 35.4217487]]]}, "properties": {"osm_id": 1207764298, "building": "detached", "name": "", "height": null, "height_m": null, "levels": null, "tract_id": "40109107807", "tract_name": "1078.07", "tags": {"building": "detached", "source": "esri/Oklahoma_City_OK_Buildings"}}}, {"type": "Feature", "geometry": {"type": "Polygon", "coordinates": [[[-97.4375782, 35.4239367], [-97.4375769, 35.4239226], [-97.4375355, 35.4239252], [-97.4375306, 35.4238726], [-97.4375723, 35.42387], [-97.437566, 35.4238029], [-97.4376662, 35.4237967], [-97.4376713, 35.4238508], [-97.4376907, 35.4238496], [-97.4376926, 35.4238701], [-97.4377115, 35.4238689], [-97.4377133, 35.4238883], [-97.4376992, 35.4238892], [-97.4376985, 35.4239334], [-97.4376692, 35.4239352], [-97.4376688, 35.423931], [-97.4375782, 35.4239367]]]}, "properties": {"osm_id": 1207764299, "building": "detached", "name": "", "height": null, "height_m": null, "levels": null, "tract_id": "40109107807", "tract_name": "1078.07", "tags": {"building": "detached", "source": "esri/Oklahoma_City_OK_Buildings"}}}, {"type": "Feature", "geometry": {"type": "Polygon", "coordinates": [[[-97.4387086, 35.4216573], [-97.4387413, 35.4216564], [-97.4387389, 35.4215985], [-97.4388431, 35.4215956], [-97.4388457, 35.4216572], [-97.4388788, 35.4216558], [-97.4388791, 35.4217128], [-97.4387779, 35.4217155], [-97.4387788, 35.4217369], [-97.4387119, 35.4217388], [-97.4387086, 35.4216573]]]}, "properties": {"osm_id": 1207764300, "building": "detached", "name": "", "height": null, "height_m": null, "levels": null, "tract_id": "40109107807", "tract_name": "1078.07", "tags": {"building": "detached", "source": "esri/Oklahoma_City_OK_Buildings"}}}, {"type": "Feature", "geometry": {"type": "Polygon", "coordinates": [[[-97.4402872, 35.4218727], [-97.4402872, 35.4218638], [-97.4402218, 35.4218638], [-97.4402218, 35.4218059], [-97.4402906, 35.4218059], [-97.4402906, 35.4217833], [-97.4403412, 35.4217833], [-97.4403412, 35.4218622], [-97.4403209, 35.4218622], [-97.4403209, 35.4218727], [-97.4402872, 35.4218727]]]}, "properties": {"osm_id": 1207764301, "building": "detached", "name": "", "height": null, "height_m": null, "levels": null, "tract_id": "40109107807", "tract_name": "1078.07", "tags": {"building": "detached", "source": "esri/Oklahoma_City_OK_Buildings"}}}, {"type": "Feature", "geometry": {"type": "Polygon", "coordinates": [[[-97.4366713, 35.4243102], [-97.4366716, 35.4242577], [-97.4366509, 35.4242576], [-97.436651, 35.4242464], [-97.4366081, 35.4242463], [-97.4366081, 35.4242347], [-97.4365628, 35.4242345], [-97.4365633, 35.4241488], [-97.4366438, 35.4241491], [-97.4366439, 35.4241165], [-97.4367441, 35.4241169], [-97.4367435, 35.4242407], [-97.4367474, 35.4242407], [-97.4367473, 35.4242578], [-97.4367394, 35.4242578], [-97.4367391, 35.4243105], [-97.4366713, 35.4243102]]]}, "properties": {"osm_id": 1207764302, "building": "detached", "name": "", "height": null, "height_m": null, "levels": null, "tract_id": "40109107807", "tract_name": "1078.07", "tags": {"building": "detached", "source": "esri/Oklahoma_City_OK_Buildings"}}}, {"type": "Feature", "geometry": {"type": "Polygon", "coordinates": [[[-97.4383433, 35.4216073], [-97.4383433, 35.4216039], [-97.4382528, 35.4216041], [-97.4382527, 35.4215737], [-97.4382121, 35.4215738], [-97.438212, 35.4215301], [-97.4382519, 35.42153], [-97.4382517, 35.4214651], [-97.4383543, 35.4214649], [-97.4383544, 35.421522], [-97.4383789, 35.4215219], [-97.4383789, 35.4215319], [-97.4383963, 35.4215319], [-97.4383964, 35.4215417], [-97.4384558, 35.4215416], [-97.438456, 35.4215976], [-97.4383778, 35.4215978], [-97.4383778, 35.4216072], [-97.4383433, 35.4216073]]]}, "properties": {"osm_id": 1207764303, "building": "detached", "name": "", "height": null, "height_m": null, "levels": null, "tract_id": "40109107807", "tract_name": "1078.07", "tags": {"building": "detached", "source": "esri/Oklahoma_City_OK_Buildings"}}}, {"type": "Feature", "geometry": {"type": "Polygon", "coordinates": [[[-97.4378495, 35.4218118], [-97.4378486, 35.4217492], [-97.4378112, 35.4217495], [-97.4378109, 35.4217254], [-97.4377505, 35.421726], [-97.4377494, 35.4216434], [-97.4378337, 35.4216426], [-97.4378332, 35.4216034], [-97.4379053, 35.4216027], [-97.4379058, 35.4216403], [-97.4379239, 35.4216401], [-97.4379254, 35.4217468], [-97.4379215, 35.4217469], [-97.4379225, 35.4218111], [-97.4378495, 35.4218118]]]}, "properties": {"osm_id": 1207764304, "building": "detached", "name": "", "height": null, "height_m": null, "levels": null, "tract_id": "40109107807", "tract_name": "1078.07", "tags": {"building": "detached", "source": "esri/Oklahoma_City_OK_Buildings"}}}, {"type": "Feature", "geometry": {"type": "Polygon", "coordinates": [[[-97.4370351, 35.4221809], [-97.4370344, 35.4221308], [-97.4369538, 35.4221315], [-97.4369523, 35.4220204], [-97.4371159, 35.422019], [-97.437118, 35.4221802], [-97.4370351, 35.4221809]]]}, "properties": {"osm_id": 1207764305, "building": "detached", "name": "", "height": null, "height_m": null, "levels": null, "tract_id": "40109107807", "tract_name": "1078.07", "tags": {"building": "detached", "source": "esri/Oklahoma_City_OK_Buildings"}}}, {"type": "Feature", "geometry": {"type": "Polygon", "coordinates": [[[-97.4387061, 35.4222492], [-97.438823, 35.422249], [-97.4388234, 35.4223801], [-97.4387065, 35.4223804], [-97.4387061, 35.4222492]]]}, "properties": {"osm_id": 1207764306, "building": "detached", "name": "", "height": null, "height_m": null, "levels": null, "tract_id": "40109107807", "tract_name": "1078.07", "tags": {"building": "detached", "source": "esri/Oklahoma_City_OK_Buildings"}}}, {"type": "Feature", "geometry": {"type": "Polygon", "coordinates": [[[-97.436335, 35.4226755], [-97.4363345, 35.422525], [-97.4364454, 35.4225248], [-97.4364456, 35.4225884], [-97.4364726, 35.4225884], [-97.4364729, 35.4226753], [-97.436335, 35.4226755]]]}, "properties": {"osm_id": 1207764307, "building": "detached", "name": "", "height": null, "height_m": null, "levels": null, "tract_id": "40109107807", "tract_name": "1078.07", "tags": {"building": "detached", "source": "esri/Oklahoma_City_OK_Buildings"}}}, {"type": "Feature", "geometry": {"type": "Polygon", "coordinates": [[[-97.4375683, 35.4241034], [-97.4375664, 35.4239685], [-97.4376658, 35.4239676], [-97.4376669, 35.4240474], [-97.4377108, 35.424047], [-97.4377116, 35.4241021], [-97.4375683, 35.4241034]]]}, "properties": {"osm_id": 1207764308, "building": "detached", "name": "", "height": null, "height_m": null, "levels": null, "tract_id": "40109107807", "tract_name": "1078.07", "tags": {"building": "detached", "source": "esri/Oklahoma_City_OK_Buildings"}}}, {"type": "Feature", "geometry": {"type": "Polygon", "coordinates": [[[-97.435215, 35.4219132], [-97.4352227, 35.4217668], [-97.4353271, 35.4217704], [-97.4353239, 35.421831], [-97.4353481, 35.4218319], [-97.4353433, 35.4219236], [-97.4353045, 35.4219222], [-97.4353048, 35.4219164], [-97.435215, 35.4219132]]]}, "properties": {"osm_id": 1207764309, "building": "detached", "name": "", "height": null, "height_m": null, "levels": null, "tract_id": "40109107807", "tract_name": "1078.07", "tags": {"building": "detached", "source": "esri/Oklahoma_City_OK_Buildings"}}}, {"type": "Feature", "geometry": {"type": "Polygon", "coordinates": [[[-97.4370471, 35.4218209], [-97.4370474, 35.4217552], [-97.4370059, 35.4217551], [-97.437006, 35.4217305], [-97.436942, 35.4217303], [-97.4369424, 35.4216462], [-97.4370351, 35.4216465], [-97.4370353, 35.4216122], [-97.4370842, 35.4216124], [-97.4370841, 35.4216182], [-97.4370931, 35.4216182], [-97.437093, 35.4216409], [-97.4370858, 35.4216409], [-97.4370857, 35.4216454], [-97.4371202, 35.4216455], [-97.4371193, 35.4218211], [-97.4370471, 35.4218209]]]}, "properties": {"osm_id": 1207764310, "building": "detached", "name": "", "height": null, "height_m": null, "levels": null, "tract_id": "40109107807", "tract_name": "1078.07", "tags": {"building": "detached", "source": "esri/Oklahoma_City_OK_Buildings"}}}, {"type": "Feature", "geometry": {"type": "Polygon", "coordinates": [[[-97.4378442, 35.4227742], [-97.43781, 35.4227129], [-97.4377995, 35.4227168], [-97.4377721, 35.4226678], [-97.4377859, 35.4226626], [-97.4377608, 35.4226176], [-97.4378483, 35.4225848], [-97.4378918, 35.4226627], [-97.4379218, 35.4226515], [-97.4379423, 35.4226881], [-97.4379092, 35.4227005], [-97.437932, 35.4227413], [-97.4378442, 35.4227742]]]}, "properties": {"osm_id": 1207764311, "building": "detached", "name": "", "height": null, "height_m": null, "levels": null, "tract_id": "40109107807", "tract_name": "1078.07", "tags": {"building": "detached", "source": "esri/Oklahoma_City_OK_Buildings"}}}, {"type": "Feature", "geometry": {"type": "Polygon", "coordinates": [[[-97.4376162, 35.4211265], [-97.4376153, 35.4210919], [-97.4375424, 35.4210932], [-97.4375398, 35.4209961], [-97.4376069, 35.4209949], [-97.4376064, 35.4209761], [-97.4376318, 35.4209757], [-97.4376308, 35.4209384], [-97.4377018, 35.4209372], [-97.4377058, 35.4210922], [-97.4376782, 35.4210927], [-97.4376791, 35.4211254], [-97.4376162, 35.4211265]]]}, "properties": {"osm_id": 1207764312, "building": "detached", "name": "", "height": null, "height_m": null, "levels": null, "tract_id": "40109107807", "tract_name": "1078.07", "tags": {"building": "detached", "source": "esri/Oklahoma_City_OK_Buildings"}}}, {"type": "Feature", "geometry": {"type": "Polygon", "coordinates": [[[-97.4368869, 35.4230657], [-97.4368874, 35.4230184], [-97.4369157, 35.4230186], [-97.4369153, 35.4230659], [-97.4368869, 35.4230657]]]}, "properties": {"osm_id": 1207764313, "building": "detached", "name": "", "height": null, "height_m": null, "levels": null, "tract_id": "40109107807", "tract_name": "1078.07", "tags": {"building": "detached", "source": "esri/Oklahoma_City_OK_Buildings"}}}, {"type": "Feature", "geometry": {"type": "Polygon", "coordinates": [[[-97.4387874, 35.4210914], [-97.4388786, 35.4210898], [-97.4388824, 35.4212308], [-97.4388071, 35.4212322], [-97.4388072, 35.4212355], [-97.4387063, 35.4212374], [-97.4387044, 35.4211666], [-97.4387893, 35.4211651], [-97.4387874, 35.4210914]]]}, "properties": {"osm_id": 1207764314, "building": "detached", "name": "", "height": null, "height_m": null, "levels": null, "tract_id": "40109107807", "tract_name": "1078.07", "tags": {"building": "detached", "source": "esri/Oklahoma_City_OK_Buildings"}}}, {"type": "Feature", "geometry": {"type": "Polygon", "coordinates": [[[-97.4379344, 35.4235946], [-97.4379148, 35.423561], [-97.4379071, 35.423564], [-97.437877, 35.4235124], [-97.4378851, 35.4235092], [-97.4378594, 35.4234651], [-97.4379489, 35.4234302], [-97.4380243, 35.4235595], [-97.4379344, 35.4235946]]]}, "properties": {"osm_id": 1207764315, "building": "detached", "name": "", "height": null, "height_m": null, "levels": null, "tract_id": "40109107807", "tract_name": "1078.07", "tags": {"building": "detached", "source": "esri/Oklahoma_City_OK_Buildings"}}}, {"type": "Feature", "geometry": {"type": "Polygon", "coordinates": [[[-97.4396428, 35.4218803], [-97.4396428, 35.421876], [-97.4396142, 35.421876], [-97.4396141, 35.421863], [-97.4395505, 35.4218632], [-97.4395503, 35.4218056], [-97.4396131, 35.4218055], [-97.439613, 35.4217544], [-97.4396225, 35.4217544], [-97.4396224, 35.4217443], [-97.4396454, 35.4217443], [-97.4396455, 35.4217542], [-97.4396488, 35.4217542], [-97.4396489, 35.4217691], [-97.4396732, 35.4217691], [-97.4396734, 35.4218648], [-97.4396701, 35.4218648], [-97.4396702, 35.4218802], [-97.4396428, 35.4218803]]]}, "properties": {"osm_id": 1207764316, "building": "detached", "name": "", "height": null, "height_m": null, "levels": null, "tract_id": "40109107807", "tract_name": "1078.07", "tags": {"building": "detached", "source": "esri/Oklahoma_City_OK_Buildings"}}}, {"type": "Feature", "geometry": {"type": "Polygon", "coordinates": [[[-97.4370284, 35.4228696], [-97.437113, 35.422869], [-97.4371147, 35.4230121], [-97.4369322, 35.4230136], [-97.4369313, 35.4229395], [-97.4370293, 35.4229387], [-97.4370284, 35.4228696]]]}, "properties": {"osm_id": 1207764317, "building": "detached", "name": "", "height": null, "height_m": null, "levels": null, "tract_id": "40109107807", "tract_name": "1078.07", "tags": {"building": "detached", "source": "esri/Oklahoma_City_OK_Buildings"}}}, {"type": "Feature", "geometry": {"type": "Polygon", "coordinates": [[[-97.4358288, 35.4232898], [-97.4358289, 35.4232842], [-97.4357596, 35.4232837], [-97.4357603, 35.423221], [-97.4358054, 35.4232214], [-97.4358055, 35.423211], [-97.4358277, 35.4232112], [-97.4358277, 35.4232055], [-97.4358503, 35.4232057], [-97.4358511, 35.4231436], [-97.4359558, 35.4231444], [-97.4359542, 35.4232866], [-97.4358632, 35.4232859], [-97.4358631, 35.42329], [-97.4358288, 35.4232898]]]}, "properties": {"osm_id": 1207764318, "building": "detached", "name": "", "height": null, "height_m": null, "levels": null, "tract_id": "40109107807", "tract_name": "1078.07", "tags": {"building": "detached", "source": "esri/Oklahoma_City_OK_Buildings"}}}, {"type": "Feature", "geometry": {"type": "Polygon", "coordinates": [[[-97.4357708, 35.4231095], [-97.4357712, 35.4230617], [-97.4358339, 35.4230621], [-97.4358342, 35.4230345], [-97.4358569, 35.4230346], [-97.4358574, 35.4229791], [-97.4359649, 35.4229798], [-97.4359642, 35.4230535], [-97.4359989, 35.4230537], [-97.4359985, 35.4230984], [-97.4359662, 35.4230982], [-97.4359659, 35.4231228], [-97.4358334, 35.423122], [-97.4358335, 35.4231099], [-97.4357708, 35.4231095]]]}, "properties": {"osm_id": 1207764319, "building": "detached", "name": "", "height": null, "height_m": null, "levels": null, "tract_id": "40109107807", "tract_name": "1078.07", "tags": {"building": "detached", "source": "esri/Oklahoma_City_OK_Buildings"}}}, {"type": "Feature", "geometry": {"type": "Polygon", "coordinates": [[[-97.4363912, 35.4221916], [-97.4363907, 35.4220179], [-97.4364914, 35.4220177], [-97.4364915, 35.4220829], [-97.4365044, 35.4220829], [-97.4365046, 35.4221399], [-97.4364917, 35.42214], [-97.4364919, 35.4221914], [-97.4363912, 35.4221916]]]}, "properties": {"osm_id": 1207764320, "building": "detached", "name": "", "height": null, "height_m": null, "levels": null, "tract_id": "40109107807", "tract_name": "1078.07", "tags": {"building": "detached", "source": "esri/Oklahoma_City_OK_Buildings"}}}, {"type": "Feature", "geometry": {"type": "Polygon", "coordinates": [[[-97.4374072, 35.4217509], [-97.437407, 35.4217289], [-97.4373446, 35.4217292], [-97.437344, 35.4216463], [-97.4375208, 35.4216454], [-97.4375216, 35.4217503], [-97.4374072, 35.4217509]]]}, "properties": {"osm_id": 1207764321, "building": "detached", "name": "", "height": null, "height_m": null, "levels": null, "tract_id": "40109107807", "tract_name": "1078.07", "tags": {"building": "detached", "source": "esri/Oklahoma_City_OK_Buildings"}}}, {"type": "Feature", "geometry": {"type": "Polygon", "coordinates": [[[-97.4357617, 35.4226258], [-97.4358556, 35.4225996], [-97.4359227, 35.4227607], [-97.4358151, 35.4227907], [-97.4357883, 35.4227264], [-97.435802, 35.4227225], [-97.4357617, 35.4226258]]]}, "properties": {"osm_id": 1207764322, "building": "detached", "name": "", "height": null, "height_m": null, "levels": null, "tract_id": "40109107807", "tract_name": "1078.07", "tags": {"building": "detached", "source": "esri/Oklahoma_City_OK_Buildings"}}}, {"type": "Feature", "geometry": {"type": "Polygon", "coordinates": [[[-97.4369515, 35.4226038], [-97.4369505, 35.4225053], [-97.4370126, 35.4225049], [-97.437012, 35.4224461], [-97.4370888, 35.4224456], [-97.4370894, 35.4225062], [-97.4371105, 35.4225061], [-97.4371114, 35.4225967], [-97.437117, 35.4225966], [-97.4371171, 35.4226027], [-97.4369515, 35.4226038]]]}, "properties": {"osm_id": 1207764323, "building": "detached", "name": "", "height": null, "height_m": null, "levels": null, "tract_id": "40109107807", "tract_name": "1078.07", "tags": {"building": "detached", "source": "esri/Oklahoma_City_OK_Buildings"}}}, {"type": "Feature", "geometry": {"type": "Polygon", "coordinates": [[[-97.4387383, 35.4209357], [-97.4389012, 35.4209348], [-97.4389018, 35.4210205], [-97.438894, 35.4210206], [-97.4388943, 35.4210585], [-97.4388508, 35.4210588], [-97.4388508, 35.4210622], [-97.4387021, 35.421063], [-97.4387015, 35.4209966], [-97.4387388, 35.4209964], [-97.4387383, 35.4209357]]]}, "properties": {"osm_id": 1207764324, "building": "detached", "name": "", "height": null, "height_m": null, "levels": null, "tract_id": "40109107807", "tract_name": "1078.07", "tags": {"building": "detached", "source": "esri/Oklahoma_City_OK_Buildings"}}}, {"type": "Feature", "geometry": {"type": "Polygon", "coordinates": [[[-97.4365177, 35.4216181], [-97.4365155, 35.4217521], [-97.436425, 35.4217512], [-97.436426, 35.4216834], [-97.4363754, 35.4216829], [-97.4363753, 35.421616], [-97.4365177, 35.4216181]]]}, "properties": {"osm_id": 1207764325, "building": "detached", "name": "", "height": null, "height_m": null, "levels": null, "tract_id": "40109107807", "tract_name": "1078.07", "tags": {"building": "detached", "source": "esri/Oklahoma_City_OK_Buildings"}}}, {"type": "Feature", "geometry": {"type": "Polygon", "coordinates": [[[-97.4360241, 35.4217485], [-97.4360247, 35.421685], [-97.4359746, 35.4216858], [-97.4359746, 35.4216064], [-97.4361105, 35.4216072], [-97.4361098, 35.4216808], [-97.4361134, 35.4216808], [-97.4361128, 35.421749], [-97.4360241, 35.4217485]]]}, "properties": {"osm_id": 1207764326, "building": "detached", "name": "", "height": null, "height_m": null, "levels": null, "tract_id": "40109107807", "tract_name": "1078.07", "tags": {"building": "detached", "source": "esri/Oklahoma_City_OK_Buildings"}}}, {"type": "Feature", "geometry": {"type": "Polygon", "coordinates": [[[-97.4367616, 35.4229839], [-97.4367558, 35.4229839], [-97.4367557, 35.4229276], [-97.436761, 35.4229276], [-97.4367609, 35.4228729], [-97.4368634, 35.4228728], [-97.4368635, 35.4229225], [-97.436882, 35.4229225], [-97.436882, 35.4229376], [-97.4368986, 35.4229376], [-97.4368987, 35.4230122], [-97.4368648, 35.4230123], [-97.4368648, 35.4230431], [-97.4367618, 35.4230433], [-97.4367616, 35.4229839]]]}, "properties": {"osm_id": 1207764327, "building": "detached", "name": "", "height": null, "height_m": null, "levels": null, "tract_id": "40109107807", "tract_name": "1078.07", "tags": {"building": "detached", "source": "esri/Oklahoma_City_OK_Buildings"}}}, {"type": "Feature", "geometry": {"type": "Polygon", "coordinates": [[[-97.4365223, 35.4240161], [-97.4364766, 35.4238762], [-97.4365817, 35.4238532], [-97.4366013, 35.4239132], [-97.4366266, 35.4239076], [-97.436653, 35.4239882], [-97.4365223, 35.4240161]]]}, "properties": {"osm_id": 1207764328, "building": "detached", "name": "", "height": null, "height_m": null, "levels": null, "tract_id": "40109107807", "tract_name": "1078.07", "tags": {"building": "detached", "source": "esri/Oklahoma_City_OK_Buildings"}}}, {"type": "Feature", "geometry": {"type": "Polygon", "coordinates": [[[-97.4364079, 35.4209889], [-97.4364965, 35.420988], [-97.4364977, 35.4210721], [-97.4364922, 35.4210721], [-97.4364931, 35.4211345], [-97.4363491, 35.4211359], [-97.4363481, 35.4210641], [-97.436409, 35.4210635], [-97.4364079, 35.4209889]]]}, "properties": {"osm_id": 1207764329, "building": "detached", "name": "", "height": null, "height_m": null, "levels": null, "tract_id": "40109107807", "tract_name": "1078.07", "tags": {"building": "detached", "source": "esri/Oklahoma_City_OK_Buildings"}}}, {"type": "Feature", "geometry": {"type": "Polygon", "coordinates": [[[-97.4358518, 35.4235577], [-97.4358749, 35.4235542], [-97.4358603, 35.4234883], [-97.435964, 35.4234729], [-97.4359792, 35.4235421], [-97.4360142, 35.4235369], [-97.4360247, 35.4235843], [-97.4359905, 35.4235894], [-97.4359975, 35.4236212], [-97.43587, 35.4236401], [-97.4358518, 35.4235577]]]}, "properties": {"osm_id": 1207764330, "building": "detached", "name": "", "height": null, "height_m": null, "levels": null, "tract_id": "40109107807", "tract_name": "1078.07", "tags": {"building": "detached", "source": "esri/Oklahoma_City_OK_Buildings"}}}, {"type": "Feature", "geometry": {"type": "Polygon", "coordinates": [[[-97.4358328, 35.4234518], [-97.4358342, 35.4233642], [-97.4358572, 35.4233645], [-97.4358581, 35.4233071], [-97.4359624, 35.4233082], [-97.4359601, 35.4234532], [-97.4358328, 35.4234518]]]}, "properties": {"osm_id": 1207764331, "building": "detached", "name": "", "height": null, "height_m": null, "levels": null, "tract_id": "40109107807", "tract_name": "1078.07", "tags": {"building": "detached", "source": "esri/Oklahoma_City_OK_Buildings"}}}, {"type": "Feature", "geometry": {"type": "Polygon", "coordinates": [[[-97.4393982, 35.4218677], [-97.4393998, 35.4218073], [-97.4394598, 35.4218083], [-97.4394615, 35.4217437], [-97.4395204, 35.4217447], [-97.4395171, 35.4218651], [-97.4394936, 35.4218646], [-97.4394933, 35.4218756], [-97.4394628, 35.421875], [-97.439463, 35.4218688], [-97.4393982, 35.4218677]]]}, "properties": {"osm_id": 1207764332, "building": "detached", "name": "", "height": null, "height_m": null, "levels": null, "tract_id": "40109107807", "tract_name": "1078.07", "tags": {"building": "detached", "source": "esri/Oklahoma_City_OK_Buildings"}}}, {"type": "Feature", "geometry": {"type": "Polygon", "coordinates": [[[-97.4374364, 35.423623], [-97.4374247, 35.4235926], [-97.4373942, 35.4236005], [-97.4373816, 35.4235676], [-97.437412, 35.4235598], [-97.4373842, 35.4234872], [-97.4374794, 35.4234627], [-97.4375026, 35.4235232], [-97.4375251, 35.4235174], [-97.437555, 35.4235953], [-97.4375261, 35.4236028], [-97.4375251, 35.4236001], [-97.4374364, 35.423623]]]}, "properties": {"osm_id": 1207764333, "building": "detached", "name": "", "height": null, "height_m": null, "levels": null, "tract_id": "40109107807", "tract_name": "1078.07", "tags": {"building": "detached", "source": "esri/Oklahoma_City_OK_Buildings"}}}, {"type": "Feature", "geometry": {"type": "Polygon", "coordinates": [[[-97.4359476, 35.4221287], [-97.4359485, 35.4220313], [-97.4359981, 35.4220316], [-97.4359982, 35.4220135], [-97.4360384, 35.4220138], [-97.4360387, 35.421977], [-97.4361067, 35.4219774], [-97.4361062, 35.4220295], [-97.436113, 35.4220295], [-97.4361129, 35.4220427], [-97.4361102, 35.4220427], [-97.4361092, 35.4221556], [-97.4360409, 35.4221552], [-97.4360412, 35.4221293], [-97.4359476, 35.4221287]]]}, "properties": {"osm_id": 1207764334, "building": "detached", "name": "", "height": null, "height_m": null, "levels": null, "tract_id": "40109107807", "tract_name": "1078.07", "tags": {"building": "detached", "source": "esri/Oklahoma_City_OK_Buildings"}}}, {"type": "Feature", "geometry": {"type": "Polygon", "coordinates": [[[-97.4371869, 35.4209953], [-97.437187, 35.420978], [-97.4372166, 35.420978], [-97.4372167, 35.420938], [-97.4372862, 35.4209382], [-97.4372861, 35.4209888], [-97.4372937, 35.4209888], [-97.4372937, 35.4210038], [-97.4372888, 35.4210038], [-97.4372886, 35.4210934], [-97.4371277, 35.4210932], [-97.4371279, 35.4209952], [-97.4371869, 35.4209953]]]}, "properties": {"osm_id": 1207764335, "building": "detached", "name": "", "height": null, "height_m": null, "levels": null, "tract_id": "40109107807", "tract_name": "1078.07", "tags": {"building": "detached", "source": "esri/Oklahoma_City_OK_Buildings"}}}, {"type": "Feature", "geometry": {"type": "Polygon", "coordinates": [[[-97.438194, 35.4209353], [-97.438374, 35.4209355], [-97.4383738, 35.4210091], [-97.4383579, 35.421009], [-97.4383578, 35.4210733], [-97.4381938, 35.4210731], [-97.438194, 35.4209353]]]}, "properties": {"osm_id": 1207764336, "building": "detached", "name": "", "height": null, "height_m": null, "levels": null, "tract_id": "40109107807", "tract_name": "1078.07", "tags": {"building": "detached", "source": "esri/Oklahoma_City_OK_Buildings"}}}, {"type": "Feature", "geometry": {"type": "Polygon", "coordinates": [[[-97.4367997, 35.423208], [-97.4368855, 35.4232079], [-97.4368853, 35.4231262], [-97.4369756, 35.423126], [-97.4369758, 35.4232088], [-97.4370233, 35.4232087], [-97.4370235, 35.4232762], [-97.4367999, 35.4232767], [-97.4367997, 35.423208]]]}, "properties": {"osm_id": 1207764337, "building": "detached", "name": "", "height": null, "height_m": null, "levels": null, "tract_id": "40109107807", "tract_name": "1078.07", "tags": {"building": "detached", "source": "esri/Oklahoma_City_OK_Buildings"}}}, {"type": "Feature", "geometry": {"type": "Polygon", "coordinates": [[[-97.438338, 35.4217695], [-97.4383378, 35.421763], [-97.4382066, 35.4217663], [-97.4382044, 35.4217088], [-97.4382413, 35.4217078], [-97.438239, 35.4216475], [-97.4383446, 35.4216448], [-97.438347, 35.4217078], [-97.4383785, 35.421707], [-97.4383808, 35.4217684], [-97.438338, 35.4217695]]]}, "properties": {"osm_id": 1207764338, "building": "detached", "name": "", "height": null, "height_m": null, "levels": null, "tract_id": "40109107807", "tract_name": "1078.07", "tags": {"building": "detached", "source": "esri/Oklahoma_City_OK_Buildings"}}}, {"type": "Feature", "geometry": {"type": "Polygon", "coordinates": [[[-97.4365255, 35.4211217], [-97.4365256, 35.4210571], [-97.4365206, 35.421057], [-97.4365208, 35.4209883], [-97.4366144, 35.4209884], [-97.4366143, 35.4210451], [-97.4366926, 35.4210452], [-97.4366925, 35.421122], [-97.4365255, 35.4211217]]]}, "properties": {"osm_id": 1207764339, "building": "detached", "name": "", "height": null, "height_m": null, "levels": null, "tract_id": "40109107807", "tract_name": "1078.07", "tags": {"building": "detached", "source": "esri/Oklahoma_City_OK_Buildings"}}}, {"type": "Feature", "geometry": {"type": "Polygon", "coordinates": [[[-97.4387093, 35.4220581], [-97.4387095, 35.4220186], [-97.4387059, 35.4220185], [-97.438706, 35.4220012], [-97.4387095, 35.4220013], [-97.4387096, 35.4219735], [-97.4387326, 35.4219736], [-97.4387329, 35.4219166], [-97.4388356, 35.421917], [-97.4388353, 35.4219788], [-97.4388737, 35.421979], [-97.4388737, 35.421986], [-97.4389116, 35.4219862], [-97.4389114, 35.4220284], [-97.4388759, 35.4220282], [-97.4388759, 35.4220352], [-97.4388394, 35.4220351], [-97.4388393, 35.4220535], [-97.4387457, 35.4220532], [-97.4387457, 35.4220582], [-97.4387093, 35.4220581]]]}, "properties": {"osm_id": 1207764340, "building": "detached", "name": "", "height": null, "height_m": null, "levels": null, "tract_id": "40109107807", "tract_name": "1078.07", "tags": {"building": "detached", "source": "esri/Oklahoma_City_OK_Buildings"}}}, {"type": "Feature", "geometry": {"type": "Polygon", "coordinates": [[[-97.4376328, 35.4221662], [-97.4376326, 35.4221265], [-97.4375461, 35.4221266], [-97.4375459, 35.4220376], [-97.4376276, 35.4220374], [-97.4376276, 35.422018], [-97.4377316, 35.4220178], [-97.4377319, 35.4221274], [-97.4377239, 35.4221274], [-97.437724, 35.422166], [-97.4376328, 35.4221662]]]}, "properties": {"osm_id": 1207764341, "building": "detached", "name": "", "height": null, "height_m": null, "levels": null, "tract_id": "40109107807", "tract_name": "1078.07", "tags": {"building": "detached", "source": "esri/Oklahoma_City_OK_Buildings"}}}, {"type": "Feature", "geometry": {"type": "Polygon", "coordinates": [[[-97.4364495, 35.4230041], [-97.4363427, 35.4230031], [-97.4363429, 35.4228586], [-97.4364586, 35.4228588], [-97.4364585, 35.422927], [-97.4364723, 35.422927], [-97.4364721, 35.423005], [-97.4364495, 35.4230041]]]}, "properties": {"osm_id": 1207764342, "building": "detached", "name": "", "height": null, "height_m": null, "levels": null, "tract_id": "40109107807", "tract_name": "1078.07", "tags": {"building": "detached", "source": "esri/Oklahoma_City_OK_Buildings"}}}, {"type": "Feature", "geometry": {"type": "Polygon", "coordinates": [[[-97.4369575, 35.4238937], [-97.4369278, 35.4238076], [-97.4370676, 35.4237752], [-97.4370881, 35.4238347], [-97.4371279, 35.4238255], [-97.4371496, 35.4238885], [-97.4371122, 35.4238972], [-97.4371187, 35.4239159], [-97.4369642, 35.4239517], [-97.4369452, 35.4238965], [-97.4369575, 35.4238937]]]}, "properties": {"osm_id": 1207764343, "building": "detached", "name": "", "height": null, "height_m": null, "levels": null, "tract_id": "40109107807", "tract_name": "1078.07", "tags": {"building": "detached", "source": "esri/Oklahoma_City_OK_Buildings"}}}, {"type": "Feature", "geometry": {"type": "Polygon", "coordinates": [[[-97.43765, 35.4242755], [-97.43765, 35.4242721], [-97.4375182, 35.4242716], [-97.4375184, 35.4242281], [-97.4374957, 35.424228], [-97.437496, 35.4241733], [-97.4375321, 35.4241734], [-97.4375321, 35.4241582], [-97.4375581, 35.4241583], [-97.4375583, 35.4241289], [-97.4376583, 35.4241293], [-97.4376579, 35.4242022], [-97.4377066, 35.4242024], [-97.4377062, 35.4242757], [-97.43765, 35.4242755]]]}, "properties": {"osm_id": 1207764344, "building": "detached", "name": "", "height": null, "height_m": null, "levels": null, "tract_id": "40109107807", "tract_name": "1078.07", "tags": {"building": "detached", "source": "esri/Oklahoma_City_OK_Buildings"}}}, {"type": "Feature", "geometry": {"type": "Polygon", "coordinates": [[[-97.4370551, 35.4244408], [-97.4370548, 35.4244303], [-97.4369939, 35.4244314], [-97.4369924, 35.4243761], [-97.437055, 35.424375], [-97.4370547, 35.4243651], [-97.4371034, 35.4243642], [-97.4371023, 35.4243256], [-97.4371057, 35.4243256], [-97.4371047, 35.4242914], [-97.4372045, 35.4242896], [-97.4372059, 35.4243382], [-97.4372489, 35.4243375], [-97.4372502, 35.4243873], [-97.4372063, 35.4243881], [-97.4372076, 35.4244344], [-97.4371221, 35.424436], [-97.4371222, 35.4244396], [-97.4370551, 35.4244408]]]}, "properties": {"osm_id": 1207764345, "building": "detached", "name": "", "height": null, "height_m": null, "levels": null, "tract_id": "40109107807", "tract_name": "1078.07", "tags": {"building": "detached", "source": "esri/Oklahoma_City_OK_Buildings"}}}, {"type": "Feature", "geometry": {"type": "Polygon", "coordinates": [[[-97.4377839, 35.4232009], [-97.4377768, 35.4230642], [-97.4378924, 35.4230602], [-97.4378977, 35.4231612], [-97.4379217, 35.4231603], [-97.4379231, 35.4231887], [-97.4378981, 35.4231896], [-97.4378985, 35.4231968], [-97.4377839, 35.4232009]]]}, "properties": {"osm_id": 1207764346, "building": "detached", "name": "", "height": null, "height_m": null, "levels": null, "tract_id": "40109107807", "tract_name": "1078.07", "tags": {"building": "detached", "source": "esri/Oklahoma_City_OK_Buildings"}}}, {"type": "Feature", "geometry": {"type": "Polygon", "coordinates": [[[-97.4352692, 35.4215129], [-97.4352711, 35.4214596], [-97.4353045, 35.4214604], [-97.4353061, 35.4214141], [-97.4354066, 35.4214164], [-97.4354049, 35.421466], [-97.4354368, 35.4214667], [-97.4354336, 35.421561], [-97.4353041, 35.4215579], [-97.4353057, 35.4215137], [-97.4352692, 35.4215129]]]}, "properties": {"osm_id": 1207764347, "building": "detached", "name": "", "height": null, "height_m": null, "levels": null, "tract_id": "40109107807", "tract_name": "1078.07", "tags": {"building": "detached", "source": "esri/Oklahoma_City_OK_Buildings"}}}, {"type": "Feature", "geometry": {"type": "Polygon", "coordinates": [[[-97.4371647, 35.4221706], [-97.4371645, 35.4221488], [-97.4371461, 35.4221489], [-97.4371446, 35.4220186], [-97.4372422, 35.4220179], [-97.4372428, 35.4220702], [-97.437329, 35.4220695], [-97.4373299, 35.4221497], [-97.4372668, 35.4221502], [-97.4372671, 35.4221699], [-97.4371647, 35.4221706]]]}, "properties": {"osm_id": 1207764348, "building": "detached", "name": "", "height": null, "height_m": null, "levels": null, "tract_id": "40109107807", "tract_name": "1078.07", "tags": {"building": "detached", "source": "esri/Oklahoma_City_OK_Buildings"}}}, {"type": "Feature", "geometry": {"type": "Polygon", "coordinates": [[[-97.4369297, 35.4211232], [-97.4369285, 35.4210549], [-97.4369233, 35.421055], [-97.4369222, 35.4209887], [-97.4370922, 35.4209867], [-97.4370946, 35.4211212], [-97.4369297, 35.4211232]]]}, "properties": {"osm_id": 1207764349, "building": "detached", "name": "", "height": null, "height_m": null, "levels": null, "tract_id": "40109107807", "tract_name": "1078.07", "tags": {"building": "detached", "source": "esri/Oklahoma_City_OK_Buildings"}}}, {"type": "Feature", "geometry": {"type": "Polygon", "coordinates": [[[-97.4363436, 35.4223789], [-97.4364707, 35.4223787], [-97.436471, 35.4225076], [-97.436344, 35.4225079], [-97.4363436, 35.4223789]]]}, "properties": {"osm_id": 1207764350, "building": "detached", "name": "", "height": null, "height_m": null, "levels": null, "tract_id": "40109107807", "tract_name": "1078.07", "tags": {"building": "detached", "source": "esri/Oklahoma_City_OK_Buildings"}}}, {"type": "Feature", "geometry": {"type": "Polygon", "coordinates": [[[-97.4374452, 35.4226541], [-97.4374451, 35.4226294], [-97.4374045, 35.4226295], [-97.4374044, 35.4226046], [-97.4373523, 35.4226047], [-97.437352, 35.422504], [-97.4374183, 35.4225039], [-97.4374182, 35.4224735], [-97.437487, 35.4224734], [-97.4374871, 35.4225037], [-97.437514, 35.4225037], [-97.4375142, 35.422588], [-97.4375206, 35.422588], [-97.4375206, 35.4226032], [-97.4375112, 35.4226032], [-97.4375113, 35.422654], [-97.4374452, 35.4226541]]]}, "properties": {"osm_id": 1207764351, "building": "detached", "name": "", "height": null, "height_m": null, "levels": null, "tract_id": "40109107807", "tract_name": "1078.07", "tags": {"building": "detached", "source": "esri/Oklahoma_City_OK_Buildings"}}}, {"type": "Feature", "geometry": {"type": "Polygon", "coordinates": [[[-97.4381793, 35.4220782], [-97.4382367, 35.4220768], [-97.4382372, 35.4220203], [-97.4382534, 35.4220204], [-97.4382536, 35.4219957], [-97.4383461, 35.4219961], [-97.4383456, 35.422062], [-97.4384451, 35.4220625], [-97.4384447, 35.4221298], [-97.4383327, 35.4221292], [-97.4383327, 35.4221263], [-97.438255, 35.4221259], [-97.4382549, 35.4221296], [-97.4381813, 35.4221293], [-97.4381812, 35.422123], [-97.4381793, 35.4220782]]]}, "properties": {"osm_id": 1207764352, "building": "detached", "name": "", "height": null, "height_m": null, "levels": null, "tract_id": "40109107807", "tract_name": "1078.07", "tags": {"building": "detached", "source": "esri/Oklahoma_City_OK_Buildings"}}}, {"type": "Feature", "geometry": {"type": "Polygon", "coordinates": [[[-97.4363361, 35.4234818], [-97.4363107, 35.4234844], [-97.4363066, 35.423457], [-97.4362913, 35.4234586], [-97.4362836, 35.4234072], [-97.4363282, 35.4234028], [-97.4363234, 35.4233705], [-97.4364833, 35.4233544], [-97.4364953, 35.4234339], [-97.4364299, 35.4234404], [-97.4364405, 35.4235114], [-97.4363421, 35.4235213], [-97.4363361, 35.4234818]]]}, "properties": {"osm_id": 1207764353, "building": "detached", "name": "", "height": null, "height_m": null, "levels": null, "tract_id": "40109107807", "tract_name": "1078.07", "tags": {"building": "detached", "source": "esri/Oklahoma_City_OK_Buildings"}}}, {"type": "Feature", "geometry": {"type": "Polygon", "coordinates": [[[-97.4353021, 35.4217009], [-97.4352696, 35.4217011], [-97.4352693, 35.4216572], [-97.4353049, 35.421657], [-97.4353044, 35.4215797], [-97.4354044, 35.4215793], [-97.4354049, 35.4216453], [-97.4354361, 35.4216452], [-97.4354367, 35.421724], [-97.4353022, 35.4217246], [-97.4353021, 35.4217009]]]}, "properties": {"osm_id": 1207764354, "building": "detached", "name": "", "height": null, "height_m": null, "levels": null, "tract_id": "40109107807", "tract_name": "1078.07", "tags": {"building": "detached", "source": "esri/Oklahoma_City_OK_Buildings"}}}, {"type": "Feature", "geometry": {"type": "Polygon", "coordinates": [[[-97.4397568, 35.4234517], [-97.4397565, 35.4233388], [-97.4397666, 35.4233388], [-97.4397663, 35.4232184], [-97.4398615, 35.4232182], [-97.439862, 35.4233823], [-97.4398999, 35.4233823], [-97.4399, 35.4234143], [-97.4398615, 35.4234144], [-97.4398616, 35.4234515], [-97.4397568, 35.4234517]]]}, "properties": {"osm_id": 1207765334, "building": "detached", "name": "", "height": null, "height_m": null, "levels": null, "tract_id": "40109107807", "tract_name": "1078.07", "tags": {"building": "detached", "source": "esri/Oklahoma_City_OK_Buildings"}}}, {"type": "Feature", "geometry": {"type": "Polygon", "coordinates": [[[-97.4406251, 35.4228962], [-97.4406378, 35.4228397], [-97.440699, 35.4228479], [-97.4406861, 35.4229054], [-97.4406251, 35.4228962]]]}, "properties": {"osm_id": 1207765335, "building": "garage", "name": "", "height": null, "height_m": null, "levels": null, "tract_id": "40109107807", "tract_name": "1078.07", "tags": {"building": "garage", "source": "esri/Oklahoma_City_OK_Buildings"}}}, {"type": "Feature", "geometry": {"type": "Polygon", "coordinates": [[[-97.4401874, 35.4234575], [-97.4401872, 35.4234431], [-97.4401453, 35.4234436], [-97.4401431, 35.4233132], [-97.4402029, 35.4233126], [-97.4402039, 35.4233679], [-97.4403195, 35.4233665], [-97.4403209, 35.4234449], [-97.4402416, 35.4234458], [-97.4402418, 35.4234569], [-97.4401874, 35.4234575]]]}, "properties": {"osm_id": 1207765336, "building": "detached", "name": "", "height": null, "height_m": null, "levels": null, "tract_id": "40109107807", "tract_name": "1078.07", "tags": {"building": "detached", "source": "esri/Oklahoma_City_OK_Buildings"}}}, {"type": "Feature", "geometry": {"type": "Polygon", "coordinates": [[[-97.4400548, 35.422146], [-97.4401087, 35.4221452], [-97.4401086, 35.4221398], [-97.4401321, 35.4221394], [-97.4401322, 35.4221464], [-97.4401751, 35.4221457], [-97.4401765, 35.4222054], [-97.4400562, 35.4222073], [-97.4400548, 35.422146]]]}, "properties": {"osm_id": 1207765337, "building": "detached", "name": "", "height": null, "height_m": null, "levels": null, "tract_id": "40109107807", "tract_name": "1078.07", "tags": {"building": "detached", "source": "esri/Oklahoma_City_OK_Buildings"}}}, {"type": "Feature", "geometry": {"type": "Polygon", "coordinates": [[[-97.4393488, 35.4234754], [-97.4393571, 35.4234599], [-97.4393181, 35.423443], [-97.4393307, 35.4234192], [-97.4392873, 35.4234037], [-97.4393182, 35.4233455], [-97.4393649, 35.4233621], [-97.4393979, 35.4233], [-97.4394924, 35.4233337], [-97.4394634, 35.4233882], [-97.439469, 35.4233902], [-97.4394459, 35.4234337], [-97.4394375, 35.4234307], [-97.4394131, 35.4234766], [-97.4394044, 35.4234735], [-97.4393946, 35.4234917], [-97.4393488, 35.4234754]]]}, "properties": {"osm_id": 1207765338, "building": "detached", "name": "", "height": null, "height_m": null, "levels": null, "tract_id": "40109107807", "tract_name": "1078.07", "tags": {"building": "detached", "source": "esri/Oklahoma_City_OK_Buildings"}}}, {"type": "Feature", "geometry": {"type": "Polygon", "coordinates": [[[-97.4392462, 35.4232281], [-97.4391795, 35.4230772], [-97.4392762, 35.4230486], [-97.4393014, 35.4231057], [-97.4393096, 35.4231033], [-97.4393278, 35.4231444], [-97.4393732, 35.423131], [-97.4393934, 35.4231768], [-97.4393383, 35.4231931], [-97.4393413, 35.4232], [-97.4392462, 35.4232281]]]}, "properties": {"osm_id": 1207765339, "building": "detached", "name": "", "height": null, "height_m": null, "levels": null, "tract_id": "40109107807", "tract_name": "1078.07", "tags": {"building": "detached", "source": "esri/Oklahoma_City_OK_Buildings"}}}, {"type": "Feature", "geometry": {"type": "Polygon", "coordinates": [[[-97.4404369, 35.422253], [-97.4404358, 35.422219], [-97.4403884, 35.4222201], [-97.4403865, 35.4221607], [-97.4404446, 35.4221594], [-97.4404444, 35.4221545], [-97.4404687, 35.4221539], [-97.440469, 35.4221612], [-97.4405087, 35.4221604], [-97.4405117, 35.4222514], [-97.4404369, 35.422253]]]}, "properties": {"osm_id": 1207765340, "building": "detached", "name": "", "height": null, "height_m": null, "levels": null, "tract_id": "40109107807", "tract_name": "1078.07", "tags": {"building": "detached", "source": "esri/Oklahoma_City_OK_Buildings"}}}, {"type": "Feature", "geometry": {"type": "Polygon", "coordinates": [[[-97.439721, 35.4222051], [-97.4397208, 35.4221443], [-97.4397802, 35.4221442], [-97.4397802, 35.4221353], [-97.439816, 35.4221352], [-97.4398161, 35.4221452], [-97.4398397, 35.4221452], [-97.4398399, 35.4222049], [-97.439721, 35.4222051]]]}, "properties": {"osm_id": 1207765341, "building": "detached", "name": "", "height": null, "height_m": null, "levels": null, "tract_id": "40109107807", "tract_name": "1078.07", "tags": {"building": "detached", "source": "esri/Oklahoma_City_OK_Buildings"}}}, {"type": "Feature", "geometry": {"type": "Polygon", "coordinates": [[[-97.4402191, 35.4222077], [-97.4402206, 35.4221517], [-97.4402738, 35.4221527], [-97.4402739, 35.4221489], [-97.4403013, 35.4221494], [-97.4403012, 35.4221539], [-97.4403433, 35.4221547], [-97.4403418, 35.4222099], [-97.4402191, 35.4222077]]]}, "properties": {"osm_id": 1207765342, "building": "detached", "name": "", "height": null, "height_m": null, "levels": null, "tract_id": "40109107807", "tract_name": "1078.07", "tags": {"building": "detached", "source": "esri/Oklahoma_City_OK_Buildings"}}}, {"type": "Feature", "geometry": {"type": "Polygon", "coordinates": [[[-97.4395527, 35.4222398], [-97.4395532, 35.422143], [-97.4396147, 35.4221432], [-97.4396148, 35.4221351], [-97.4396471, 35.4221352], [-97.4396471, 35.4221438], [-97.4396742, 35.4221439], [-97.4396739, 35.4222052], [-97.4396577, 35.4222051], [-97.4396575, 35.4222401], [-97.4395527, 35.4222398]]]}, "properties": {"osm_id": 1207765343, "building": "detached", "name": "", "height": null, "height_m": null, "levels": null, "tract_id": "40109107807", "tract_name": "1078.07", "tags": {"building": "detached", "source": "esri/Oklahoma_City_OK_Buildings"}}}, {"type": "Feature", "geometry": {"type": "Polygon", "coordinates": [[[-97.4398187, 35.4230416], [-97.4399192, 35.4230403], [-97.4399216, 35.4231648], [-97.4397941, 35.4231664], [-97.4397929, 35.423101], [-97.4398199, 35.4231006], [-97.4398187, 35.4230416]]]}, "properties": {"osm_id": 1207765344, "building": "detached", "name": "", "height": null, "height_m": null, "levels": null, "tract_id": "40109107807", "tract_name": "1078.07", "tags": {"building": "detached", "source": "esri/Oklahoma_City_OK_Buildings"}}}, {"type": "Feature", "geometry": {"type": "Polygon", "coordinates": [[[-97.4397794, 35.4229881], [-97.4397536, 35.422928], [-97.4397378, 35.4229326], [-97.4397166, 35.4228833], [-97.4397303, 35.4228794], [-97.4397078, 35.4228271], [-97.4397963, 35.4228016], [-97.4398172, 35.42285], [-97.4398208, 35.422849], [-97.439803, 35.4228075], [-97.4398652, 35.4228092], [-97.4398761, 35.4228311], [-97.4399133, 35.4228204], [-97.4399378, 35.4228773], [-97.4398815, 35.4228936], [-97.4398928, 35.4229199], [-97.4398538, 35.4229311], [-97.4398674, 35.4229627], [-97.4397794, 35.4229881]]]}, "properties": {"osm_id": 1207765345, "building": "detached", "name": "", "height": null, "height_m": null, "levels": null, "tract_id": "40109107807", "tract_name": "1078.07", "tags": {"building": "detached", "source": "esri/Oklahoma_City_OK_Buildings"}}}, {"type": "Feature", "geometry": {"type": "Polygon", "coordinates": [[[-97.440795, 35.4234793], [-97.440797, 35.4233516], [-97.4409207, 35.4233529], [-97.4409187, 35.4234806], [-97.440795, 35.4234793]]]}, "properties": {"osm_id": 1207765346, "building": "detached", "name": "", "height": null, "height_m": null, "levels": null, "tract_id": "40109107807", "tract_name": "1078.07", "tags": {"building": "detached", "source": "esri/Oklahoma_City_OK_Buildings"}}}, {"type": "Feature", "geometry": {"type": "Polygon", "coordinates": [[[-97.4410069, 35.4226069], [-97.4411154, 35.4226058], [-97.4411168, 35.4227012], [-97.4410083, 35.4227022], [-97.4410069, 35.4226069]]]}, "properties": {"osm_id": 1207765347, "building": "yes", "name": "", "height": null, "height_m": null, "levels": null, "tract_id": "40109107807", "tract_name": "1078.07", "tags": {"building": "yes", "source": "esri/Oklahoma_City_OK_Buildings"}}}, {"type": "Feature", "geometry": {"type": "Polygon", "coordinates": [[[-97.4408307, 35.4231596], [-97.4408307, 35.4231552], [-97.440764, 35.4231552], [-97.440764, 35.4230956], [-97.4408705, 35.4230956], [-97.4408705, 35.4230249], [-97.4409622, 35.4230249], [-97.4409622, 35.4231028], [-97.4409946, 35.4231028], [-97.4409946, 35.4231596], [-97.4408307, 35.4231596]]]}, "properties": {"osm_id": 1207765348, "building": "detached", "name": "", "height": null, "height_m": null, "levels": null, "tract_id": "40109107807", "tract_name": "1078.07", "tags": {"building": "detached", "source": "esri/Oklahoma_City_OK_Buildings"}}}, {"type": "Feature", "geometry": {"type": "Polygon", "coordinates": [[[-97.4402893, 35.423172], [-97.4402324, 35.4230126], [-97.4403205, 35.4229915], [-97.4403399, 35.4230457], [-97.4403509, 35.4230431], [-97.4403884, 35.4231482], [-97.4402893, 35.423172]]]}, "properties": {"osm_id": 1207765349, "building": "detached", "name": "", "height": null, "height_m": null, "levels": null, "tract_id": "40109107807", "tract_name": "1078.07", "tags": {"building": "detached", "source": "esri/Oklahoma_City_OK_Buildings"}}}, {"type": "Feature", "geometry": {"type": "Polygon", "coordinates": [[[-97.4404341, 35.4229716], [-97.4403678, 35.4229559], [-97.4403655, 35.4229625], [-97.4402772, 35.4229417], [-97.4403339, 35.4227802], [-97.4404243, 35.4228015], [-97.4404058, 35.4228541], [-97.4404184, 35.422857], [-97.4404065, 35.4228909], [-97.4404198, 35.4228941], [-97.4404141, 35.4229102], [-97.4404525, 35.4229193], [-97.4404341, 35.4229716]]]}, "properties": {"osm_id": 1207765350, "building": "detached", "name": "", "height": null, "height_m": null, "levels": null, "tract_id": "40109107807", "tract_name": "1078.07", "tags": {"building": "detached", "source": "esri/Oklahoma_City_OK_Buildings"}}}, {"type": "Feature", "geometry": {"type": "Polygon", "coordinates": [[[-97.4400398, 35.4235087], [-97.4400401, 35.4234547], [-97.440026, 35.4234546], [-97.4400261, 35.4234417], [-97.4399447, 35.4234414], [-97.4399451, 35.4233595], [-97.4400453, 35.4233598], [-97.4400454, 35.4233271], [-97.4400909, 35.4233273], [-97.4400907, 35.4233591], [-97.4401155, 35.4233592], [-97.440115, 35.4234554], [-97.4401097, 35.4234554], [-97.4401094, 35.423509], [-97.4400398, 35.4235087]]]}, "properties": {"osm_id": 1207765351, "building": "detached", "name": "", "height": null, "height_m": null, "levels": null, "tract_id": "40109107807", "tract_name": "1078.07", "tags": {"building": "detached", "source": "esri/Oklahoma_City_OK_Buildings"}}}, {"type": "Feature", "geometry": {"type": "Polygon", "coordinates": [[[-97.4403977, 35.4234549], [-97.4403978, 35.4232854], [-97.4404929, 35.4232854], [-97.4404928, 35.4233406], [-97.4405063, 35.4233406], [-97.4405063, 35.4233886], [-97.4404922, 35.4233886], [-97.4404922, 35.4234549], [-97.4403977, 35.4234549]]]}, "properties": {"osm_id": 1207765352, "building": "detached", "name": "", "height": null, "height_m": null, "levels": null, "tract_id": "40109107807", "tract_name": "1078.07", "tags": {"building": "detached", "source": "esri/Oklahoma_City_OK_Buildings"}}}, {"type": "Feature", "geometry": {"type": "Polygon", "coordinates": [[[-97.4392168, 35.4228813], [-97.4392538, 35.4228309], [-97.4392946, 35.4228509], [-97.4393382, 35.4227917], [-97.4394213, 35.4228326], [-97.4393853, 35.4228816], [-97.4393938, 35.4228857], [-97.4393237, 35.4229812], [-97.4392335, 35.4229368], [-97.439259, 35.4229021], [-97.4392168, 35.4228813]]]}, "properties": {"osm_id": 1207765353, "building": "detached", "name": "", "height": null, "height_m": null, "levels": null, "tract_id": "40109107807", "tract_name": "1078.07", "tags": {"building": "detached", "source": "esri/Oklahoma_City_OK_Buildings"}}}, {"type": "Feature", "geometry": {"type": "Polygon", "coordinates": [[[-97.4406034, 35.4222409], [-97.4406031, 35.4222121], [-97.4405563, 35.4222124], [-97.4405557, 35.4221542], [-97.440613, 35.4221538], [-97.4406129, 35.4221481], [-97.4406363, 35.4221479], [-97.4406364, 35.4221543], [-97.4406773, 35.422154], [-97.4406783, 35.4222403], [-97.4406034, 35.4222409]]]}, "properties": {"osm_id": 1207765354, "building": "detached", "name": "", "height": null, "height_m": null, "levels": null, "tract_id": "40109107807", "tract_name": "1078.07", "tags": {"building": "detached", "source": "esri/Oklahoma_City_OK_Buildings"}}}, {"type": "Feature", "geometry": {"type": "Polygon", "coordinates": [[[-97.4398912, 35.4234276], [-97.4399269, 35.4234271], [-97.4399277, 35.423462], [-97.439892, 35.4234625], [-97.4398912, 35.4234276]]]}, "properties": {"osm_id": 1207765355, "building": "shed", "name": "", "height": null, "height_m": null, "levels": null, "tract_id": "40109107807", "tract_name": "1078.07", "tags": {"building": "shed", "source": "esri/Oklahoma_City_OK_Buildings"}}}, {"type": "Feature", "geometry": {"type": "Polygon", "coordinates": [[[-97.4393805, 35.4222977], [-97.4393813, 35.4221448], [-97.4394471, 35.422145], [-97.4394471, 35.4221348], [-97.4394813, 35.4221349], [-97.4394812, 35.4221469], [-97.4395079, 35.422147], [-97.4395074, 35.4222644], [-97.4394909, 35.4222644], [-97.4394907, 35.422298], [-97.4393805, 35.4222977]]]}, "properties": {"osm_id": 1207765356, "building": "detached", "name": "", "height": null, "height_m": null, "levels": null, "tract_id": "40109107807", "tract_name": "1078.07", "tags": {"building": "detached", "source": "esri/Oklahoma_City_OK_Buildings"}}}, {"type": "Feature", "geometry": {"type": "Polygon", "coordinates": [[[-97.4407971, 35.4232372], [-97.4407963, 35.4231872], [-97.4408961, 35.4231861], [-97.4408967, 35.4232188], [-97.440982, 35.4232179], [-97.4409828, 35.4232688], [-97.4409631, 35.423269], [-97.4409636, 35.4233008], [-97.4408963, 35.4233016], [-97.4408968, 35.4233288], [-97.4408862, 35.4233289], [-97.4408864, 35.42334], [-97.4407174, 35.4233418], [-97.4407165, 35.4232825], [-97.4407898, 35.4232817], [-97.440789, 35.4232373], [-97.4407971, 35.4232372]]]}, "properties": {"osm_id": 1207765357, "building": "detached", "name": "", "height": null, "height_m": null, "levels": null, "tract_id": "40109107807", "tract_name": "1078.07", "tags": {"building": "detached", "source": "esri/Oklahoma_City_OK_Buildings"}}}, {"type": "Feature", "geometry": {"type": "Polygon", "coordinates": [[[-97.440576, 35.4228384], [-97.4405764, 35.4228274], [-97.4405086, 35.422826], [-97.4405108, 35.4227511], [-97.4407135, 35.4227551], [-97.440711, 35.4228411], [-97.440576, 35.4228384]]]}, "properties": {"osm_id": 1207765358, "building": "detached", "name": "", "height": null, "height_m": null, "levels": null, "tract_id": "40109107807", "tract_name": "1078.07", "tags": {"building": "detached", "source": "esri/Oklahoma_City_OK_Buildings"}}}, {"type": "Feature", "geometry": {"type": "Polygon", "coordinates": [[[-97.4408662, 35.4229894], [-97.4408209, 35.4229364], [-97.440808, 35.4229439], [-97.4407693, 35.4228987], [-97.440781, 35.422892], [-97.4407457, 35.4228507], [-97.4408234, 35.4228063], [-97.440846, 35.4228328], [-97.4409101, 35.4227961], [-97.4409648, 35.4228601], [-97.4409029, 35.4228956], [-97.4409446, 35.4229444], [-97.4408662, 35.4229894]]]}, "properties": {"osm_id": 1207765359, "building": "detached", "name": "", "height": null, "height_m": null, "levels": null, "tract_id": "40109107807", "tract_name": "1078.07", "tags": {"building": "detached", "source": "esri/Oklahoma_City_OK_Buildings"}}}, {"type": "Feature", "geometry": {"type": "Polygon", "coordinates": [[[-97.4399326, 35.4221514], [-97.4399322, 35.4221416], [-97.4399587, 35.4221408], [-97.4399592, 35.4221513], [-97.4399819, 35.4221507], [-97.4399816, 35.4221445], [-97.4400235, 35.4221432], [-97.4400268, 35.4222174], [-97.4399265, 35.4222203], [-97.4399279, 35.4222518], [-97.4398881, 35.422253], [-97.4398836, 35.4221528], [-97.4399326, 35.4221514]]]}, "properties": {"osm_id": 1207765360, "building": "detached", "name": "", "height": null, "height_m": null, "levels": null, "tract_id": "40109107807", "tract_name": "1078.07", "tags": {"building": "detached", "source": "esri/Oklahoma_City_OK_Buildings"}}}, {"type": "Feature", "geometry": {"type": "Polygon", "coordinates": [[[-97.439566, 35.422899], [-97.4395732, 35.4228444], [-97.439544, 35.4228418], [-97.4395469, 35.42282], [-97.4394704, 35.4228132], [-97.4394811, 35.4227313], [-97.439557, 35.422738], [-97.4395622, 35.4226982], [-97.4396176, 35.4227031], [-97.4396125, 35.4227418], [-97.4396333, 35.4227436], [-97.4396196, 35.4228482], [-97.4396137, 35.4228477], [-97.4396065, 35.4229026], [-97.439566, 35.422899]]]}, "properties": {"osm_id": 1207765361, "building": "detached", "name": "", "height": null, "height_m": null, "levels": null, "tract_id": "40109107807", "tract_name": "1078.07", "tags": {"building": "detached", "source": "esri/Oklahoma_City_OK_Buildings"}}}, {"type": "Feature", "geometry": {"type": "Polygon", "coordinates": [[[-97.439231, 35.4222105], [-97.4392313, 35.422179], [-97.4392424, 35.4221791], [-97.4392428, 35.4221313], [-97.4393161, 35.4221318], [-97.4393155, 35.4221959], [-97.4393195, 35.422196], [-97.4393194, 35.4222092], [-97.439315, 35.4222091], [-97.4393148, 35.4222314], [-97.4392458, 35.422231], [-97.439246, 35.4222106], [-97.439231, 35.4222105]]]}, "properties": {"osm_id": 1207765362, "building": "detached", "name": "", "height": null, "height_m": null, "levels": null, "tract_id": "40109107807", "tract_name": "1078.07", "tags": {"building": "detached", "source": "esri/Oklahoma_City_OK_Buildings"}}}, {"type": "Feature", "geometry": {"type": "Polygon", "coordinates": [[[-97.4407899, 35.4222259], [-97.4407895, 35.4222055], [-97.4407248, 35.4222062], [-97.4407238, 35.4221465], [-97.44075, 35.4221462], [-97.4407499, 35.4221398], [-97.4407682, 35.4221396], [-97.4407683, 35.4221466], [-97.4407786, 35.4221465], [-97.4407786, 35.4221415], [-97.440808, 35.4221412], [-97.4408081, 35.4221462], [-97.4408772, 35.4221465], [-97.4408786, 35.4222249], [-97.4407899, 35.4222259]]]}, "properties": {"osm_id": 1207765363, "building": "detached", "name": "", "height": null, "height_m": null, "levels": null, "tract_id": "40109107807", "tract_name": "1078.07", "tags": {"building": "detached", "source": "esri/Oklahoma_City_OK_Buildings"}}}, {"type": "Feature", "geometry": {"type": "Polygon", "coordinates": [[[-97.4354849, 35.4238451], [-97.4354838, 35.4238158], [-97.4354084, 35.4238176], [-97.4354055, 35.4237355], [-97.4354017, 35.4237356], [-97.435401, 35.4237168], [-97.4354465, 35.4237157], [-97.4354468, 35.4237226], [-97.4354752, 35.4237219], [-97.4354754, 35.423726], [-97.4354907, 35.4237256], [-97.4354902, 35.4237102], [-97.4355165, 35.4237095], [-97.4355164, 35.4237058], [-97.435558, 35.4237048], [-97.4355582, 35.4237097], [-97.4355841, 35.4237091], [-97.4355849, 35.4237329], [-97.4355798, 35.4237331], [-97.4355827, 35.4238169], [-97.4355519, 35.4238176], [-97.4355528, 35.4238435], [-97.4354849, 35.4238451]]]}, "properties": {"osm_id": 1207768539, "building": "detached", "name": "", "height": null, "height_m": null, "levels": null, "tract_id": "40109107807", "tract_name": "1078.07", "tags": {"building": "detached", "source": "esri/Oklahoma_City_OK_Buildings"}}}, {"type": "Feature", "geometry": {"type": "Polygon", "coordinates": [[[-97.4385461, 35.4237785], [-97.4385329, 35.42375], [-97.4384991, 35.4237605], [-97.4384836, 35.423727], [-97.4385185, 35.4237162], [-97.4384928, 35.4236607], [-97.4385914, 35.4236301], [-97.4386206, 35.423693], [-97.4386509, 35.4236836], [-97.4386776, 35.4237412], [-97.4386385, 35.4237534], [-97.4386371, 35.4237503], [-97.4385461, 35.4237785]]]}, "properties": {"osm_id": 1207768540, "building": "detached", "name": "", "height": null, "height_m": null, "levels": null, "tract_id": "40109107807", "tract_name": "1078.07", "tags": {"building": "detached", "source": "esri/Oklahoma_City_OK_Buildings"}}}, {"type": "Feature", "geometry": {"type": "Polygon", "coordinates": [[[-97.4320401, 35.4231215], [-97.4320331, 35.4231213], [-97.4320314, 35.4231637], [-97.431941, 35.4231614], [-97.4319435, 35.4230968], [-97.4319467, 35.4230969], [-97.431949, 35.4230357], [-97.4319525, 35.4230358], [-97.4319535, 35.4230103], [-97.4320527, 35.4230104], [-97.432055, 35.4230366], [-97.4321121, 35.423038], [-97.4321073, 35.4231658], [-97.4320385, 35.423164], [-97.4320401, 35.4231215]]]}, "properties": {"osm_id": 1207768541, "building": "detached", "name": "", "height": null, "height_m": null, "levels": null, "tract_id": "40109107807", "tract_name": "1078.07", "tags": {"building": "detached", "source": "esri/Oklahoma_City_OK_Buildings"}}}, {"type": "Feature", "geometry": {"type": "Polygon", "coordinates": [[[-97.4409942, 35.4238357], [-97.4411092, 35.4238357], [-97.4411092, 35.4239352], [-97.4409942, 35.4239352], [-97.4409942, 35.4238357]]]}, "properties": {"osm_id": 1207768542, "building": "detached", "name": "", "height": null, "height_m": null, "levels": null, "tract_id": "40109107807", "tract_name": "1078.07", "tags": {"building": "detached", "source": "esri/Oklahoma_City_OK_Buildings"}}}, {"type": "Feature", "geometry": {"type": "Polygon", "coordinates": [[[-97.4383304, 35.4227887], [-97.4383303, 35.4227687], [-97.4382399, 35.4227689], [-97.4382398, 35.4227484], [-97.4382039, 35.4227485], [-97.4382037, 35.4226843], [-97.4382402, 35.4226842], [-97.4382401, 35.4226432], [-97.438381, 35.422643], [-97.4383812, 35.4227359], [-97.4383985, 35.4227359], [-97.4383987, 35.4227885], [-97.4383304, 35.4227887]]]}, "properties": {"osm_id": 1207768543, "building": "detached", "name": "", "height": null, "height_m": null, "levels": null, "tract_id": "40109107807", "tract_name": "1078.07", "tags": {"building": "detached", "source": "esri/Oklahoma_City_OK_Buildings"}}}, {"type": "Feature", "geometry": {"type": "Polygon", "coordinates": [[[-97.4383595, 35.4231251], [-97.4383567, 35.4231044], [-97.438235, 35.4231156], [-97.4382269, 35.4230567], [-97.4382, 35.4230592], [-97.4381911, 35.4229936], [-97.4384006, 35.4229744], [-97.4384125, 35.4230614], [-97.4384223, 35.4230605], [-97.4384302, 35.4231186], [-97.4383595, 35.4231251]]]}, "properties": {"osm_id": 1207768544, "building": "detached", "name": "", "height": null, "height_m": null, "levels": null, "tract_id": "40109107807", "tract_name": "1078.07", "tags": {"building": "detached", "source": "esri/Oklahoma_City_OK_Buildings"}}}, {"type": "Feature", "geometry": {"type": "Polygon", "coordinates": [[[-97.4317087, 35.4242787], [-97.4317487, 35.42416], [-97.4317796, 35.424167], [-97.4317815, 35.4241611], [-97.4318575, 35.4241782], [-97.4318552, 35.4241849], [-97.4319094, 35.4241972], [-97.4319068, 35.4242048], [-97.4319485, 35.4242142], [-97.4319265, 35.4242796], [-97.4318838, 35.42427], [-97.4318687, 35.4243148], [-97.4317087, 35.4242787]]]}, "properties": {"osm_id": 1207768545, "building": "detached", "name": "", "height": null, "height_m": null, "levels": null, "tract_id": "40109107807", "tract_name": "1078.07", "tags": {"building": "detached", "source": "esri/Oklahoma_City_OK_Buildings"}}}, {"type": "Feature", "geometry": {"type": "Polygon", "coordinates": [[[-97.433343, 35.4239365], [-97.433345, 35.4238395], [-97.433514, 35.4238418], [-97.4335113, 35.4239733], [-97.4334268, 35.4239721], [-97.4334276, 35.4239376], [-97.433343, 35.4239365]]]}, "properties": {"osm_id": 1207768546, "building": "detached", "name": "", "height": null, "height_m": null, "levels": null, "tract_id": "40109107807", "tract_name": "1078.07", "tags": {"building": "detached", "source": "esri/Oklahoma_City_OK_Buildings"}}}, {"type": "Feature", "geometry": {"type": "Polygon", "coordinates": [[[-97.4321956, 35.4236215], [-97.4321957, 35.4235755], [-97.4321672, 35.4235755], [-97.4321673, 35.4235137], [-97.4321943, 35.4235138], [-97.4321944, 35.4234307], [-97.4322868, 35.4234307], [-97.4322868, 35.4234789], [-97.4323052, 35.4234789], [-97.4323051, 35.4235618], [-97.4322938, 35.4235618], [-97.4322938, 35.4236216], [-97.4321956, 35.4236215]]]}, "properties": {"osm_id": 1207768547, "building": "detached", "name": "", "height": null, "height_m": null, "levels": null, "tract_id": "40109107807", "tract_name": "1078.07", "tags": {"building": "detached", "source": "esri/Oklahoma_City_OK_Buildings"}}}, {"type": "Feature", "geometry": {"type": "Polygon", "coordinates": [[[-97.4339359, 35.4236404], [-97.4339356, 35.4235959], [-97.4339118, 35.423596], [-97.4339112, 35.4234993], [-97.4339818, 35.423499], [-97.4339815, 35.4234529], [-97.4340034, 35.4234528], [-97.4340032, 35.4234114], [-97.4340787, 35.423411], [-97.4340791, 35.4234652], [-97.4340817, 35.4234652], [-97.4340828, 35.4236413], [-97.4339359, 35.4236404]]]}, "properties": {"osm_id": 1207768548, "building": "detached", "name": "", "height": null, "height_m": null, "levels": null, "tract_id": "40109107807", "tract_name": "1078.07", "tags": {"building": "detached", "source": "esri/Oklahoma_City_OK_Buildings"}}}, {"type": "Feature", "geometry": {"type": "Polygon", "coordinates": [[[-97.4326087, 35.4239083], [-97.43261, 35.4238252], [-97.4326272, 35.4238254], [-97.4326279, 35.4237835], [-97.432722, 35.4237846], [-97.432719, 35.4239662], [-97.4326196, 35.4239651], [-97.4326205, 35.4239084], [-97.4326087, 35.4239083]]]}, "properties": {"osm_id": 1207768549, "building": "detached", "name": "", "height": null, "height_m": null, "levels": null, "tract_id": "40109107807", "tract_name": "1078.07", "tags": {"building": "detached", "source": "esri/Oklahoma_City_OK_Buildings"}}}, {"type": "Feature", "geometry": {"type": "Polygon", "coordinates": [[[-97.4347936, 35.4240171], [-97.4348786, 35.4240162], [-97.4348796, 35.4240828], [-97.4347946, 35.4240837], [-97.4347936, 35.4240171]]]}, "properties": {"osm_id": 1207768550, "building": "shed", "name": "", "height": null, "height_m": null, "levels": null, "tract_id": "40109107807", "tract_name": "1078.07", "tags": {"building": "shed", "source": "esri/Oklahoma_City_OK_Buildings"}}}, {"type": "Feature", "geometry": {"type": "Polygon", "coordinates": [[[-97.439637, 35.4237196], [-97.4397904, 35.4237177], [-97.4397923, 35.4238187], [-97.4396389, 35.4238206], [-97.439637, 35.4237196]]]}, "properties": {"osm_id": 1207768551, "building": "detached", "name": "", "height": null, "height_m": null, "levels": null, "tract_id": "40109107807", "tract_name": "1078.07", "tags": {"building": "detached", "source": "esri/Oklahoma_City_OK_Buildings"}}}, {"type": "Feature", "geometry": {"type": "Polygon", "coordinates": [[[-97.4315654, 35.4243073], [-97.4315642, 35.4242523], [-97.4315157, 35.424253], [-97.4315136, 35.4241556], [-97.4316042, 35.4241543], [-97.431603, 35.4240976], [-97.4316742, 35.4240966], [-97.4316754, 35.4241498], [-97.4316803, 35.4241497], [-97.4316807, 35.4241679], [-97.431676, 35.4241679], [-97.4316779, 35.4242533], [-97.4316636, 35.4242535], [-97.4316648, 35.4243058], [-97.4315654, 35.4243073]]]}, "properties": {"osm_id": 1207768552, "building": "detached", "name": "", "height": null, "height_m": null, "levels": null, "tract_id": "40109107807", "tract_name": "1078.07", "tags": {"building": "detached", "source": "esri/Oklahoma_City_OK_Buildings"}}}, {"type": "Feature", "geometry": {"type": "Polygon", "coordinates": [[[-97.4321963, 35.4239647], [-97.4321965, 35.4237822], [-97.4322881, 35.4237822], [-97.4322881, 35.4238221], [-97.4323059, 35.4238221], [-97.4323058, 35.42391], [-97.4322951, 35.42391], [-97.432295, 35.4239647], [-97.4321963, 35.4239647]]]}, "properties": {"osm_id": 1207768553, "building": "detached", "name": "", "height": null, "height_m": null, "levels": null, "tract_id": "40109107807", "tract_name": "1078.07", "tags": {"building": "detached", "source": "esri/Oklahoma_City_OK_Buildings"}}}, {"type": "Feature", "geometry": {"type": "Polygon", "coordinates": [[[-97.4383393, 35.4232999], [-97.438299, 35.4231666], [-97.4383933, 35.4231475], [-97.4384166, 35.4232246], [-97.4384588, 35.4232161], [-97.4384758, 35.4232722], [-97.4383393, 35.4232999]]]}, "properties": {"osm_id": 1207768554, "building": "detached", "name": "", "height": null, "height_m": null, "levels": null, "tract_id": "40109107807", "tract_name": "1078.07", "tags": {"building": "detached", "source": "esri/Oklahoma_City_OK_Buildings"}}}, {"type": "Feature", "geometry": {"type": "Polygon", "coordinates": [[[-97.432783, 35.4235865], [-97.4328149, 35.4235864], [-97.4328151, 35.423616], [-97.4327832, 35.4236162], [-97.432783, 35.4235865]]]}, "properties": {"osm_id": 1207768555, "building": "shed", "name": "", "height": null, "height_m": null, "levels": null, "tract_id": "40109107807", "tract_name": "1078.07", "tags": {"building": "shed", "source": "esri/Oklahoma_City_OK_Buildings"}}}, {"type": "Feature", "geometry": {"type": "Polygon", "coordinates": [[[-97.433039, 35.423201], [-97.4330383, 35.4231697], [-97.4329713, 35.4231707], [-97.4329692, 35.423083], [-97.4330585, 35.4230815], [-97.4330579, 35.4230571], [-97.4331244, 35.423056], [-97.4331278, 35.4231996], [-97.433039, 35.423201]]]}, "properties": {"osm_id": 1207768556, "building": "detached", "name": "", "height": null, "height_m": null, "levels": null, "tract_id": "40109107807", "tract_name": "1078.07", "tags": {"building": "detached", "source": "esri/Oklahoma_City_OK_Buildings"}}}, {"type": "Feature", "geometry": {"type": "Polygon", "coordinates": [[[-97.4353787, 35.4243099], [-97.4353789, 35.4242564], [-97.4353695, 35.4242563], [-97.4353696, 35.4242195], [-97.4353019, 35.4242193], [-97.4353022, 35.4240954], [-97.4353871, 35.4240956], [-97.4353871, 35.424075], [-97.4354457, 35.4240751], [-97.4354456, 35.4240958], [-97.4354623, 35.4240958], [-97.4354619, 35.4243101], [-97.4353787, 35.4243099]]]}, "properties": {"osm_id": 1207768557, "building": "detached", "name": "", "height": null, "height_m": null, "levels": null, "tract_id": "40109107807", "tract_name": "1078.07", "tags": {"building": "detached", "source": "esri/Oklahoma_City_OK_Buildings"}}}, {"type": "Feature", "geometry": {"type": "Polygon", "coordinates": [[[-97.4391284, 35.4241211], [-97.4391046, 35.4240564], [-97.4391512, 35.4240448], [-97.4391467, 35.4240325], [-97.4391821, 35.4240237], [-97.4391608, 35.4239658], [-97.4392638, 35.4239403], [-97.4392873, 35.424004], [-97.4393261, 35.4239945], [-97.4393456, 35.4240476], [-97.4393081, 35.4240569], [-97.4393151, 35.4240761], [-97.4392228, 35.4240989], [-97.4392245, 35.4241034], [-97.4391928, 35.4241112], [-97.4391907, 35.4241057], [-97.4391284, 35.4241211]]]}, "properties": {"osm_id": 1207768558, "building": "detached", "name": "", "height": null, "height_m": null, "levels": null, "tract_id": "40109107807", "tract_name": "1078.07", "tags": {"building": "detached", "source": "esri/Oklahoma_City_OK_Buildings"}}}, {"type": "Feature", "geometry": {"type": "Polygon", "coordinates": [[[-97.4387242, 35.4230066], [-97.4387183, 35.4229741], [-97.4387278, 35.4229729], [-97.4387204, 35.4229323], [-97.4388374, 35.4229179], [-97.438849, 35.4229817], [-97.4389144, 35.4229736], [-97.4389267, 35.4230411], [-97.4387463, 35.4230633], [-97.4387514, 35.4230913], [-97.438684, 35.4230995], [-97.4386682, 35.4230134], [-97.4387242, 35.4230066]]]}, "properties": {"osm_id": 1207768559, "building": "detached", "name": "", "height": null, "height_m": null, "levels": null, "tract_id": "40109107807", "tract_name": "1078.07", "tags": {"building": "detached", "source": "esri/Oklahoma_City_OK_Buildings"}}}, {"type": "Feature", "geometry": {"type": "Polygon", "coordinates": [[[-97.4331586, 35.4238058], [-97.4332999, 35.4238056], [-97.4333246, 35.4238238], [-97.4333246, 35.4238396], [-97.433321, 35.4238396], [-97.4333224, 35.4239681], [-97.4331542, 35.4239683], [-97.4331541, 35.4239029], [-97.4331588, 35.4239029], [-97.4331586, 35.4238058]]]}, "properties": {"osm_id": 1207768560, "building": "detached", "name": "", "height": null, "height_m": null, "levels": null, "tract_id": "40109107807", "tract_name": "1078.07", "tags": {"building": "detached", "source": "esri/Oklahoma_City_OK_Buildings"}}}, {"type": "Feature", "geometry": {"type": "Polygon", "coordinates": [[[-97.439268, 35.4242866], [-97.4393707, 35.4242748], [-97.4393963, 35.4244238], [-97.4392647, 35.4244389], [-97.439249, 35.4243473], [-97.4392778, 35.424344], [-97.439268, 35.4242866]]]}, "properties": {"osm_id": 1207768561, "building": "detached", "name": "", "height": null, "height_m": null, "levels": null, "tract_id": "40109107807", "tract_name": "1078.07", "tags": {"building": "detached", "source": "esri/Oklahoma_City_OK_Buildings"}}}, {"type": "Feature", "geometry": {"type": "Polygon", "coordinates": [[[-97.4329623, 35.423683], [-97.4329994, 35.4236817], [-97.4330009, 35.4237096], [-97.4329639, 35.4237109], [-97.4329623, 35.423683]]]}, "properties": {"osm_id": 1207768562, "building": "shed", "name": "", "height": null, "height_m": null, "levels": null, "tract_id": "40109107807", "tract_name": "1078.07", "tags": {"building": "shed", "source": "esri/Oklahoma_City_OK_Buildings"}}}, {"type": "Feature", "geometry": {"type": "Polygon", "coordinates": [[[-97.4339548, 35.4240046], [-97.4339564, 35.4238232], [-97.4340483, 35.4238238], [-97.4340479, 35.4238676], [-97.4340687, 35.4238677], [-97.434068, 35.4239458], [-97.4340547, 35.4239457], [-97.4340542, 35.4240052], [-97.4339548, 35.4240046]]]}, "properties": {"osm_id": 1207768563, "building": "detached", "name": "", "height": null, "height_m": null, "levels": null, "tract_id": "40109107807", "tract_name": "1078.07", "tags": {"building": "detached", "source": "esri/Oklahoma_City_OK_Buildings"}}}, {"type": "Feature", "geometry": {"type": "Polygon", "coordinates": [[[-97.439238, 35.4242571], [-97.439216, 35.4241724], [-97.4392313, 35.4241698], [-97.4392329, 35.4241759], [-97.4392581, 35.4241715], [-97.4392487, 35.4241353], [-97.439332, 35.4241208], [-97.4393308, 35.424116], [-97.4394013, 35.4241038], [-97.4394314, 35.4242193], [-97.4392923, 35.4242436], [-97.4392933, 35.4242475], [-97.439238, 35.4242571]]]}, "properties": {"osm_id": 1207768564, "building": "detached", "name": "", "height": null, "height_m": null, "levels": null, "tract_id": "40109107807", "tract_name": "1078.07", "tags": {"building": "detached", "source": "esri/Oklahoma_City_OK_Buildings"}}}, {"type": "Feature", "geometry": {"type": "Polygon", "coordinates": [[[-97.4338018, 35.4231982], [-97.4338017, 35.423191], [-97.4337223, 35.4231918], [-97.4337208, 35.4230951], [-97.4338007, 35.4230942], [-97.4338002, 35.4230672], [-97.4338685, 35.4230664], [-97.433869, 35.423094], [-97.433884, 35.4230938], [-97.4338856, 35.4231973], [-97.4338018, 35.4231982]]]}, "properties": {"osm_id": 1207768565, "building": "detached", "name": "", "height": null, "height_m": null, "levels": null, "tract_id": "40109107807", "tract_name": "1078.07", "tags": {"building": "detached", "source": "esri/Oklahoma_City_OK_Buildings"}}}, {"type": "Feature", "geometry": {"type": "Polygon", "coordinates": [[[-97.4330408, 35.4243116], [-97.4330413, 35.424236], [-97.4331058, 35.4242362], [-97.4331059, 35.4242197], [-97.433199, 35.4242201], [-97.4331989, 35.4242377], [-97.4332801, 35.424238], [-97.4332796, 35.4243126], [-97.4330408, 35.4243116]]]}, "properties": {"osm_id": 1207768566, "building": "detached", "name": "", "height": null, "height_m": null, "levels": null, "tract_id": "40109107807", "tract_name": "1078.07", "tags": {"building": "detached", "source": "esri/Oklahoma_City_OK_Buildings"}}}, {"type": "Feature", "geometry": {"type": "Polygon", "coordinates": [[[-97.4335402, 35.4237082], [-97.4335409, 35.4236745], [-97.433569, 35.4236749], [-97.4335683, 35.4237086], [-97.4335402, 35.4237082]]]}, "properties": {"osm_id": 1207768567, "building": "shed", "name": "", "height": null, "height_m": null, "levels": null, "tract_id": "40109107807", "tract_name": "1078.07", "tags": {"building": "shed", "source": "esri/Oklahoma_City_OK_Buildings"}}}, {"type": "Feature", "geometry": {"type": "Polygon", "coordinates": [[[-97.4345141, 35.4242617], [-97.4344508, 35.4242456], [-97.4344466, 35.4242566], [-97.4343468, 35.4242312], [-97.4343529, 35.4242154], [-97.4343045, 35.4242031], [-97.4343311, 35.4241332], [-97.4344236, 35.4241568], [-97.4344331, 35.4241319], [-97.4344711, 35.4241416], [-97.4344626, 35.4241642], [-97.4345433, 35.4241847], [-97.4345141, 35.4242617]]]}, "properties": {"osm_id": 1207768568, "building": "detached", "name": "", "height": null, "height_m": null, "levels": null, "tract_id": "40109107807", "tract_name": "1078.07", "tags": {"building": "detached", "source": "esri/Oklahoma_City_OK_Buildings"}}}, {"type": "Feature", "geometry": {"type": "Polygon", "coordinates": [[[-97.435132, 35.4232443], [-97.4353357, 35.4232424], [-97.435337, 35.4233207], [-97.4352576, 35.4233216], [-97.4352577, 35.4233326], [-97.4352112, 35.4233331], [-97.4352115, 35.4233497], [-97.4351285, 35.4233506], [-97.435128, 35.4233159], [-97.4351331, 35.4233159], [-97.435132, 35.4232443]]]}, "properties": {"osm_id": 1207768569, "building": "detached", "name": "", "height": null, "height_m": null, "levels": null, "tract_id": "40109107807", "tract_name": "1078.07", "tags": {"building": "detached", "source": "esri/Oklahoma_City_OK_Buildings"}}}, {"type": "Feature", "geometry": {"type": "Polygon", "coordinates": [[[-97.4329085, 35.4242638], [-97.432943, 35.4242631], [-97.432944, 35.4242991], [-97.4329096, 35.4242998], [-97.4329085, 35.4242638]]]}, "properties": {"osm_id": 1207768570, "building": "yes", "name": "", "height": null, "height_m": null, "levels": null, "tract_id": "40109107807", "tract_name": "1078.07", "tags": {"building": "yes", "source": "esri/Oklahoma_City_OK_Buildings"}}}, {"type": "Feature", "geometry": {"type": "Polygon", "coordinates": [[[-97.432679, 35.4232548], [-97.4326779, 35.4231959], [-97.4326723, 35.4231959], [-97.4326718, 35.4231642], [-97.4325933, 35.4231651], [-97.4325916, 35.423068], [-97.4327542, 35.4230661], [-97.4327558, 35.4231581], [-97.4327584, 35.4231581], [-97.4327591, 35.4231965], [-97.4327474, 35.4231966], [-97.4327484, 35.423254], [-97.432679, 35.4232548]]]}, "properties": {"osm_id": 1207768571, "building": "detached", "name": "", "height": null, "height_m": null, "levels": null, "tract_id": "40109107807", "tract_name": "1078.07", "tags": {"building": "detached", "source": "esri/Oklahoma_City_OK_Buildings"}}}, {"type": "Feature", "geometry": {"type": "Polygon", "coordinates": [[[-97.4387593, 35.4227644], [-97.4388624, 35.4227602], [-97.4388695, 35.4228763], [-97.4387782, 35.4228801], [-97.4387784, 35.4228829], [-97.4387329, 35.4228848], [-97.4387293, 35.422826], [-97.438763, 35.4228246], [-97.4387593, 35.4227644]]]}, "properties": {"osm_id": 1207768572, "building": "detached", "name": "", "height": null, "height_m": null, "levels": null, "tract_id": "40109107807", "tract_name": "1078.07", "tags": {"building": "detached", "source": "esri/Oklahoma_City_OK_Buildings"}}}, {"type": "Feature", "geometry": {"type": "Polygon", "coordinates": [[[-97.435202, 35.4242524], [-97.4351765, 35.4242529], [-97.4351759, 35.4242351], [-97.4351094, 35.4242365], [-97.4351065, 35.4241499], [-97.4351954, 35.4241479], [-97.4351932, 35.4240818], [-97.435274, 35.4240801], [-97.4352797, 35.4242537], [-97.4352707, 35.4242539], [-97.4352728, 35.4243182], [-97.4352042, 35.4243197], [-97.435202, 35.4242524]]]}, "properties": {"osm_id": 1207768573, "building": "detached", "name": "", "height": null, "height_m": null, "levels": null, "tract_id": "40109107807", "tract_name": "1078.07", "tags": {"building": "detached", "source": "esri/Oklahoma_City_OK_Buildings"}}}, {"type": "Feature", "geometry": {"type": "Polygon", "coordinates": [[[-97.4320564, 35.4242997], [-97.4320597, 35.424226], [-97.4321155, 35.4242277], [-97.4321161, 35.4242146], [-97.4322134, 35.4242175], [-97.4322129, 35.4242286], [-97.4322875, 35.4242309], [-97.4322842, 35.4243065], [-97.4320564, 35.4242997]]]}, "properties": {"osm_id": 1207768574, "building": "detached", "name": "", "height": null, "height_m": null, "levels": null, "tract_id": "40109107807", "tract_name": "1078.07", "tags": {"building": "detached", "source": "esri/Oklahoma_City_OK_Buildings"}}}, {"type": "Feature", "geometry": {"type": "Polygon", "coordinates": [[[-97.4382577, 35.4229456], [-97.438229, 35.4229472], [-97.4382248, 35.4228961], [-97.4382555, 35.4228944], [-97.4382492, 35.4228176], [-97.4383479, 35.4228122], [-97.4383537, 35.4228825], [-97.4384126, 35.4228793], [-97.4384146, 35.4229043], [-97.4384655, 35.4229015], [-97.4384684, 35.4229359], [-97.4383998, 35.4229396], [-97.4384002, 35.4229449], [-97.4382583, 35.4229527], [-97.4382577, 35.4229456]]]}, "properties": {"osm_id": 1207768575, "building": "detached", "name": "", "height": null, "height_m": null, "levels": null, "tract_id": "40109107807", "tract_name": "1078.07", "tags": {"building": "detached", "source": "esri/Oklahoma_City_OK_Buildings"}}}, {"type": "Feature", "geometry": {"type": "Polygon", "coordinates": [[[-97.4335324, 35.4231346], [-97.4335316, 35.4230808], [-97.4335274, 35.4230808], [-97.4335268, 35.4230419], [-97.4336165, 35.423041], [-97.433617, 35.4230708], [-97.4336959, 35.42307], [-97.4336971, 35.4231456], [-97.4336171, 35.4231464], [-97.4336179, 35.4231988], [-97.4335272, 35.4231997], [-97.4335262, 35.4231346], [-97.4335324, 35.4231346]]]}, "properties": {"osm_id": 1207768576, "building": "detached", "name": "", "height": null, "height_m": null, "levels": null, "tract_id": "40109107807", "tract_name": "1078.07", "tags": {"building": "detached", "source": "esri/Oklahoma_City_OK_Buildings"}}}, {"type": "Feature", "geometry": {"type": "Polygon", "coordinates": [[[-97.4384956, 35.4236294], [-97.4384911, 35.4236194], [-97.4384864, 35.4236208], [-97.43848, 35.4236066], [-97.4384236, 35.4236236], [-97.4383951, 35.42356], [-97.4383983, 35.423559], [-97.4383879, 35.4235358], [-97.4384403, 35.4235201], [-97.438428, 35.4234928], [-97.4385271, 35.4234631], [-97.4385495, 35.4235131], [-97.4385684, 35.4235074], [-97.4385705, 35.4235122], [-97.438586, 35.4235075], [-97.4385927, 35.4235222], [-97.4386461, 35.4235062], [-97.4386706, 35.4235609], [-97.4386043, 35.4235808], [-97.4386083, 35.4235896], [-97.4385774, 35.4235989], [-97.438575, 35.4235937], [-97.4385401, 35.4236042], [-97.4385448, 35.4236146], [-97.4384956, 35.4236294]]]}, "properties": {"osm_id": 1207768577, "building": "detached", "name": "", "height": null, "height_m": null, "levels": null, "tract_id": "40109107807", "tract_name": "1078.07", "tags": {"building": "detached", "source": "esri/Oklahoma_City_OK_Buildings"}}}, {"type": "Feature", "geometry": {"type": "Polygon", "coordinates": [[[-97.438849, 35.423289], [-97.4389451, 35.4232595], [-97.4390043, 35.4233889], [-97.4389175, 35.4234155], [-97.4389185, 35.4234177], [-97.4388853, 35.4234278], [-97.4388493, 35.423349], [-97.4388731, 35.4233417], [-97.438849, 35.423289]]]}, "properties": {"osm_id": 1207768578, "building": "detached", "name": "", "height": null, "height_m": null, "levels": null, "tract_id": "40109107807", "tract_name": "1078.07", "tags": {"building": "detached", "source": "esri/Oklahoma_City_OK_Buildings"}}}, {"type": "Feature", "geometry": {"type": "Polygon", "coordinates": [[[-97.4317583, 35.4234416], [-97.4318007, 35.4234417], [-97.4318007, 35.4234341], [-97.4318688, 35.4234342], [-97.4318688, 35.423442], [-97.4319334, 35.4234421], [-97.4319332, 35.4235282], [-97.4317582, 35.4235279], [-97.4317583, 35.4234416]]]}, "properties": {"osm_id": 1207768579, "building": "detached", "name": "", "height": null, "height_m": null, "levels": null, "tract_id": "40109107807", "tract_name": "1078.07", "tags": {"building": "detached", "source": "esri/Oklahoma_City_OK_Buildings"}}}, {"type": "Feature", "geometry": {"type": "Polygon", "coordinates": [[[-97.4335397, 35.423574], [-97.4335404, 35.4234749], [-97.4336314, 35.4234754], [-97.4336314, 35.4234687], [-97.4337084, 35.4234691], [-97.4337083, 35.4234872], [-97.4337023, 35.4234872], [-97.4337016, 35.4235748], [-97.4335397, 35.423574]]]}, "properties": {"osm_id": 1207768580, "building": "detached", "name": "", "height": null, "height_m": null, "levels": null, "tract_id": "40109107807", "tract_name": "1078.07", "tags": {"building": "detached", "source": "esri/Oklahoma_City_OK_Buildings"}}}, {"type": "Feature", "geometry": {"type": "Polygon", "coordinates": [[[-97.4328119, 35.423968], [-97.432812, 35.4239659], [-97.4327812, 35.4239656], [-97.4327824, 35.4239023], [-97.4327854, 35.4239024], [-97.4327866, 35.4238376], [-97.4329461, 35.4238395], [-97.4329456, 35.4238633], [-97.4329491, 35.4238633], [-97.4329486, 35.4238879], [-97.4329464, 35.4238879], [-97.432946, 35.4239125], [-97.4328715, 35.4239124], [-97.4328706, 35.4239666], [-97.4328393, 35.4239662], [-97.4328393, 35.4239683], [-97.4328119, 35.423968]]]}, "properties": {"osm_id": 1207768581, "building": "detached", "name": "", "height": null, "height_m": null, "levels": null, "tract_id": "40109107807", "tract_name": "1078.07", "tags": {"building": "detached", "source": "esri/Oklahoma_City_OK_Buildings"}}}, {"type": "Feature", "geometry": {"type": "Polygon", "coordinates": [[[-97.4339047, 35.4229608], [-97.4339434, 35.4229603], [-97.4339439, 35.4229831], [-97.4339052, 35.4229836], [-97.4339047, 35.4229608]]]}, "properties": {"osm_id": 1207768582, "building": "shed", "name": "", "height": null, "height_m": null, "levels": null, "tract_id": "40109107807", "tract_name": "1078.07", "tags": {"building": "shed", "source": "esri/Oklahoma_City_OK_Buildings"}}}, {"type": "Feature", "geometry": {"type": "Polygon", "coordinates": [[[-97.4337335, 35.423964], [-97.4337349, 35.4238774], [-97.4338102, 35.4238782], [-97.4338106, 35.4238515], [-97.4338718, 35.4238522], [-97.4338714, 35.4238776], [-97.4338842, 35.4238778], [-97.4338829, 35.4239595], [-97.4338882, 35.4239595], [-97.4338877, 35.4239898], [-97.4338928, 35.4239899], [-97.4338921, 35.4240387], [-97.4338395, 35.4240381], [-97.4338402, 35.4239908], [-97.4338018, 35.4239904], [-97.4338022, 35.4239647], [-97.4337335, 35.423964]]]}, "properties": {"osm_id": 1207768583, "building": "detached", "name": "", "height": null, "height_m": null, "levels": null, "tract_id": "40109107807", "tract_name": "1078.07", "tags": {"building": "detached", "source": "esri/Oklahoma_City_OK_Buildings"}}}, {"type": "Feature", "geometry": {"type": "Polygon", "coordinates": [[[-97.4320403, 35.4235606], [-97.4319608, 35.4235587], [-97.4319644, 35.4234634], [-97.4320428, 35.4234654], [-97.4320436, 35.4234414], [-97.4320261, 35.4234409], [-97.4320264, 35.4234327], [-97.4321262, 35.4234352], [-97.4321247, 35.4234741], [-97.4321217, 35.4234741], [-97.4321185, 35.4235616], [-97.4320835, 35.4235607], [-97.4320826, 35.4235839], [-97.4320395, 35.4235828], [-97.4320403, 35.4235606]]]}, "properties": {"osm_id": 1207768584, "building": "detached", "name": "", "height": null, "height_m": null, "levels": null, "tract_id": "40109107807", "tract_name": "1078.07", "tags": {"building": "detached", "source": "esri/Oklahoma_City_OK_Buildings"}}}, {"type": "Feature", "geometry": {"type": "Polygon", "coordinates": [[[-97.4389525, 35.4235805], [-97.4389499, 35.4235745], [-97.4389393, 35.4235776], [-97.4389159, 35.4235237], [-97.4389248, 35.4235211], [-97.4389046, 35.4234746], [-97.4389944, 35.4234484], [-97.439025, 35.4235189], [-97.4390575, 35.4235095], [-97.4390799, 35.4235611], [-97.4390481, 35.4235704], [-97.4390547, 35.4235855], [-97.4389675, 35.4236109], [-97.4389786, 35.4236364], [-97.4389159, 35.4236547], [-97.4388914, 35.4235983], [-97.4389525, 35.4235805]]]}, "properties": {"osm_id": 1207768585, "building": "detached", "name": "", "height": null, "height_m": null, "levels": null, "tract_id": "40109107807", "tract_name": "1078.07", "tags": {"building": "detached", "source": "esri/Oklahoma_City_OK_Buildings"}}}, {"type": "Feature", "geometry": {"type": "Polygon", "coordinates": [[[-97.4338665, 35.4236549], [-97.433897, 35.4236549], [-97.433897, 35.4236919], [-97.4338665, 35.4236919], [-97.4338665, 35.4236549]]]}, "properties": {"osm_id": 1207768586, "building": "shed", "name": "", "height": null, "height_m": null, "levels": null, "tract_id": "40109107807", "tract_name": "1078.07", "tags": {"building": "shed", "source": "esri/Oklahoma_City_OK_Buildings"}}}, {"type": "Feature", "geometry": {"type": "Polygon", "coordinates": [[[-97.4318356, 35.423222], [-97.4318352, 35.4231637], [-97.4318284, 35.4231637], [-97.4318284, 35.4231577], [-97.4317452, 35.4231581], [-97.4317445, 35.4230602], [-97.4319058, 35.4230595], [-97.4319064, 35.4231506], [-97.4319108, 35.4231506], [-97.4319109, 35.4231644], [-97.4319028, 35.4231644], [-97.4319031, 35.4232217], [-97.4318356, 35.423222]]]}, "properties": {"osm_id": 1207768587, "building": "detached", "name": "", "height": null, "height_m": null, "levels": null, "tract_id": "40109107807", "tract_name": "1078.07", "tags": {"building": "detached", "source": "esri/Oklahoma_City_OK_Buildings"}}}, {"type": "Feature", "geometry": {"type": "Polygon", "coordinates": [[[-97.4408164, 35.4237221], [-97.4408992, 35.4237221], [-97.4408992, 35.4237646], [-97.4408954, 35.4237646], [-97.4408954, 35.423827], [-97.4407308, 35.4238269], [-97.4407308, 35.4237519], [-97.4408164, 35.4237519], [-97.4408164, 35.4237221]]]}, "properties": {"osm_id": 1207768588, "building": "detached", "name": "", "height": null, "height_m": null, "levels": null, "tract_id": "40109107807", "tract_name": "1078.07", "tags": {"building": "detached", "source": "esri/Oklahoma_City_OK_Buildings"}}}, {"type": "Feature", "geometry": {"type": "Polygon", "coordinates": [[[-97.4347976, 35.4236598], [-97.4347952, 35.4236386], [-97.4347617, 35.4236411], [-97.4347569, 35.4235978], [-97.4347905, 35.4235953], [-97.4347816, 35.4235159], [-97.4349401, 35.423504], [-97.4349485, 35.4235791], [-97.4348911, 35.4235834], [-97.4348988, 35.4236522], [-97.4347976, 35.4236598]]]}, "properties": {"osm_id": 1207768589, "building": "detached", "name": "", "height": null, "height_m": null, "levels": null, "tract_id": "40109107807", "tract_name": "1078.07", "tags": {"building": "detached", "source": "esri/Oklahoma_City_OK_Buildings"}}}, {"type": "Feature", "geometry": {"type": "Polygon", "coordinates": [[[-97.433427, 35.4235994], [-97.4334262, 35.4235724], [-97.4333493, 35.423574], [-97.4333463, 35.423475], [-97.4334324, 35.4234733], [-97.4334322, 35.4234681], [-97.433514, 35.4234664], [-97.4335145, 35.4234849], [-97.4335092, 35.423485], [-97.4335119, 35.4235727], [-97.43348, 35.4235733], [-97.4334807, 35.4235983], [-97.433427, 35.4235994]]]}, "properties": {"osm_id": 1207768590, "building": "detached", "name": "", "height": null, "height_m": null, "levels": null, "tract_id": "40109107807", "tract_name": "1078.07", "tags": {"building": "detached", "source": "esri/Oklahoma_City_OK_Buildings"}}}, {"type": "Feature", "geometry": {"type": "Polygon", "coordinates": [[[-97.4390565, 35.4239614], [-97.4390342, 35.4239115], [-97.4390955, 35.4238931], [-97.4390929, 35.4238872], [-97.4391267, 35.4238771], [-97.4391012, 35.4238201], [-97.4391978, 35.4237912], [-97.439214, 35.4238275], [-97.4392774, 35.4238084], [-97.4393123, 35.4238865], [-97.4391171, 35.4239441], [-97.4390565, 35.4239614]]]}, "properties": {"osm_id": 1207768591, "building": "detached", "name": "", "height": null, "height_m": null, "levels": null, "tract_id": "40109107807", "tract_name": "1078.07", "tags": {"building": "detached", "source": "esri/Oklahoma_City_OK_Buildings"}}}, {"type": "Feature", "geometry": {"type": "Polygon", "coordinates": [[[-97.4329659, 35.4237642], [-97.4330103, 35.423763], [-97.4330112, 35.4237861], [-97.4329669, 35.4237873], [-97.4329659, 35.4237642]]]}, "properties": {"osm_id": 1207768592, "building": "shed", "name": "", "height": null, "height_m": null, "levels": null, "tract_id": "40109107807", "tract_name": "1078.07", "tags": {"building": "shed", "source": "esri/Oklahoma_City_OK_Buildings"}}}, {"type": "Feature", "geometry": {"type": "Polygon", "coordinates": [[[-97.4334179, 35.4231986], [-97.433418, 35.4231746], [-97.4333522, 35.4231745], [-97.4333524, 35.423086], [-97.4333971, 35.423086], [-97.4333971, 35.4230458], [-97.4335011, 35.423046], [-97.433501, 35.4230954], [-97.433498, 35.4230954], [-97.4334978, 35.4231637], [-97.4335049, 35.4231637], [-97.4335048, 35.4231987], [-97.4334179, 35.4231986]]]}, "properties": {"osm_id": 1207768593, "building": "detached", "name": "", "height": null, "height_m": null, "levels": null, "tract_id": "40109107807", "tract_name": "1078.07", "tags": {"building": "detached", "source": "esri/Oklahoma_City_OK_Buildings"}}}, {"type": "Feature", "geometry": {"type": "Polygon", "coordinates": [[[-97.432143, 35.4231305], [-97.4321449, 35.4230365], [-97.4322208, 35.4230375], [-97.4322215, 35.4230046], [-97.4322677, 35.4230053], [-97.4322671, 35.4230356], [-97.4322991, 35.4230361], [-97.4322972, 35.4231231], [-97.4323062, 35.4231232], [-97.4323054, 35.4231628], [-97.4322222, 35.4231616], [-97.4322228, 35.4231316], [-97.432143, 35.4231305]]]}, "properties": {"osm_id": 1207768594, "building": "detached", "name": "", "height": null, "height_m": null, "levels": null, "tract_id": "40109107807", "tract_name": "1078.07", "tags": {"building": "detached", "source": "esri/Oklahoma_City_OK_Buildings"}}}, {"type": "Feature", "geometry": {"type": "Polygon", "coordinates": [[[-97.4333389, 35.4236051], [-97.4333825, 35.4236044], [-97.4333833, 35.4236345], [-97.4333397, 35.4236353], [-97.4333389, 35.4236051]]]}, "properties": {"osm_id": 1207768595, "building": "shed", "name": "", "height": null, "height_m": null, "levels": null, "tract_id": "40109107807", "tract_name": "1078.07", "tags": {"building": "shed", "source": "esri/Oklahoma_City_OK_Buildings"}}}, {"type": "Feature", "geometry": {"type": "Polygon", "coordinates": [[[-97.4332426, 35.4234661], [-97.4333228, 35.4234655], [-97.4333239, 35.4235717], [-97.4331545, 35.423573], [-97.4331534, 35.4234757], [-97.4332427, 35.423475], [-97.4332426, 35.4234661]]]}, "properties": {"osm_id": 1207768596, "building": "detached", "name": "", "height": null, "height_m": null, "levels": null, "tract_id": "40109107807", "tract_name": "1078.07", "tags": {"building": "detached", "source": "esri/Oklahoma_City_OK_Buildings"}}}, {"type": "Feature", "geometry": {"type": "Polygon", "coordinates": [[[-97.4352029, 35.4239235], [-97.4352061, 35.4238842], [-97.4351783, 35.4238827], [-97.4351937, 35.4237565], [-97.4353011, 35.4237647], [-97.4352957, 35.4238127], [-97.4353672, 35.4238167], [-97.4353604, 35.4239001], [-97.4352572, 35.4238944], [-97.4352545, 35.4239264], [-97.4352029, 35.4239235]]]}, "properties": {"osm_id": 1207768597, "building": "detached", "name": "", "height": null, "height_m": null, "levels": null, "tract_id": "40109107807", "tract_name": "1078.07", "tags": {"building": "detached", "source": "esri/Oklahoma_City_OK_Buildings"}}}, {"type": "Feature", "geometry": {"type": "Polygon", "coordinates": [[[-97.4338158, 35.4236086], [-97.4338159, 35.423583], [-97.433734, 35.4235827], [-97.4337345, 35.4234959], [-97.4338023, 35.4234962], [-97.4338024, 35.4234695], [-97.4338885, 35.4234698], [-97.4338883, 35.4235068], [-97.4338833, 35.4235068], [-97.4338829, 35.423583], [-97.4338784, 35.423583], [-97.4338783, 35.4236088], [-97.4338158, 35.4236086]]]}, "properties": {"osm_id": 1207768598, "building": "detached", "name": "", "height": null, "height_m": null, "levels": null, "tract_id": "40109107807", "tract_name": "1078.07", "tags": {"building": "detached", "source": "esri/Oklahoma_City_OK_Buildings"}}}, {"type": "Feature", "geometry": {"type": "Polygon", "coordinates": [[[-97.4344166, 35.4233833], [-97.4344167, 35.4233643], [-97.434451, 35.4233645], [-97.4344513, 35.4233033], [-97.4345587, 35.4233036], [-97.4345585, 35.4233659], [-97.4345904, 35.423366], [-97.4345902, 35.4234103], [-97.4345573, 35.4234102], [-97.4345572, 35.4234272], [-97.4344172, 35.4234268], [-97.4344171, 35.423433], [-97.4343465, 35.4234328], [-97.4343468, 35.4233831], [-97.4344166, 35.4233833]]]}, "properties": {"osm_id": 1207768599, "building": "detached", "name": "", "height": null, "height_m": null, "levels": null, "tract_id": "40109107807", "tract_name": "1078.07", "tags": {"building": "detached", "source": "esri/Oklahoma_City_OK_Buildings"}}}, {"type": "Feature", "geometry": {"type": "Polygon", "coordinates": [[[-97.4399345, 35.4238448], [-97.4399348, 35.4238179], [-97.4398626, 35.4238174], [-97.4398637, 35.4237173], [-97.4400248, 35.4237184], [-97.4400237, 35.4238198], [-97.4400014, 35.4238197], [-97.4400011, 35.4238453], [-97.4399345, 35.4238448]]]}, "properties": {"osm_id": 1207768600, "building": "detached", "name": "", "height": null, "height_m": null, "levels": null, "tract_id": "40109107807", "tract_name": "1078.07", "tags": {"building": "detached", "source": "esri/Oklahoma_City_OK_Buildings"}}}, {"type": "Feature", "geometry": {"type": "Polygon", "coordinates": [[[-97.4335366, 35.4239621], [-97.4335386, 35.4238632], [-97.4335735, 35.4238636], [-97.4335741, 35.4238316], [-97.4336076, 35.423832], [-97.4336084, 35.4237919], [-97.4337052, 35.4237932], [-97.4337036, 35.4238751], [-97.4337008, 35.4238751], [-97.4336992, 35.4239545], [-97.4337053, 35.4239546], [-97.4337051, 35.4239688], [-97.4336181, 35.4239677], [-97.4336182, 35.4239632], [-97.4335366, 35.4239621]]]}, "properties": {"osm_id": 1207768601, "building": "detached", "name": "", "height": null, "height_m": null, "levels": null, "tract_id": "40109107807", "tract_name": "1078.07", "tags": {"building": "detached", "source": "esri/Oklahoma_City_OK_Buildings"}}}, {"type": "Feature", "geometry": {"type": "Polygon", "coordinates": [[[-97.4326237, 35.4236523], [-97.4326229, 35.4235964], [-97.432612, 35.4235965], [-97.4326108, 35.4235116], [-97.4326297, 35.4235114], [-97.432629, 35.4234626], [-97.4327198, 35.4234618], [-97.4327225, 35.4236514], [-97.4326237, 35.4236523]]]}, "properties": {"osm_id": 1207768602, "building": "detached", "name": "", "height": null, "height_m": null, "levels": null, "tract_id": "40109107807", "tract_name": "1078.07", "tags": {"building": "detached", "source": "esri/Oklahoma_City_OK_Buildings"}}}, {"type": "Feature", "geometry": {"type": "Polygon", "coordinates": [[[-97.4328656, 35.4236131], [-97.4328652, 35.4235805], [-97.4327889, 35.4235812], [-97.4327873, 35.4234636], [-97.4328414, 35.4234631], [-97.4328418, 35.4234963], [-97.4328525, 35.4234962], [-97.4328522, 35.4234711], [-97.4329398, 35.4234703], [-97.4329402, 35.4235012], [-97.4329369, 35.4235013], [-97.432938, 35.4235811], [-97.4329126, 35.4235814], [-97.432913, 35.4236127], [-97.4328656, 35.4236131]]]}, "properties": {"osm_id": 1207768603, "building": "detached", "name": "", "height": null, "height_m": null, "levels": null, "tract_id": "40109107807", "tract_name": "1078.07", "tags": {"building": "detached", "source": "esri/Oklahoma_City_OK_Buildings"}}}, {"type": "Feature", "geometry": {"type": "Polygon", "coordinates": [[[-97.4385684, 35.4238036], [-97.4386918, 35.4237654], [-97.4387503, 35.423892], [-97.4385856, 35.423943], [-97.4385461, 35.4238575], [-97.4385873, 35.4238447], [-97.4385684, 35.4238036]]]}, "properties": {"osm_id": 1207768604, "building": "detached", "name": "", "height": null, "height_m": null, "levels": null, "tract_id": "40109107807", "tract_name": "1078.07", "tags": {"building": "detached", "source": "esri/Oklahoma_City_OK_Buildings"}}}, {"type": "Feature", "geometry": {"type": "Polygon", "coordinates": [[[-97.4405737, 35.4237206], [-97.4405737, 35.4237088], [-97.4406457, 35.423709], [-97.4406457, 35.4237187], [-97.4406948, 35.4237189], [-97.4406944, 35.4237993], [-97.4405103, 35.4237988], [-97.4405107, 35.4237204], [-97.4405737, 35.4237206]]]}, "properties": {"osm_id": 1207768605, "building": "detached", "name": "", "height": null, "height_m": null, "levels": null, "tract_id": "40109107807", "tract_name": "1078.07", "tags": {"building": "detached", "source": "esri/Oklahoma_City_OK_Buildings"}}}, {"type": "Feature", "geometry": {"type": "Polygon", "coordinates": [[[-97.4343675, 35.4239133], [-97.4343671, 35.4238442], [-97.4344002, 35.423844], [-97.4343998, 35.4237872], [-97.4345042, 35.4237868], [-97.4345047, 35.4238584], [-97.4345316, 35.4238583], [-97.4345318, 35.4238916], [-97.4345062, 35.4238917], [-97.4345063, 35.4239096], [-97.43441, 35.42391], [-97.43441, 35.4239131], [-97.4343675, 35.4239133]]]}, "properties": {"osm_id": 1207768606, "building": "detached", "name": "", "height": null, "height_m": null, "levels": null, "tract_id": "40109107807", "tract_name": "1078.07", "tags": {"building": "detached", "source": "esri/Oklahoma_City_OK_Buildings"}}}, {"type": "Feature", "geometry": {"type": "Polygon", "coordinates": [[[-97.4328683, 35.4232635], [-97.4328678, 35.4231995], [-97.4328591, 35.4231995], [-97.432859, 35.4231929], [-97.4327796, 35.4231932], [-97.432779, 35.4230945], [-97.4328021, 35.4230944], [-97.4328019, 35.4230524], [-97.43291, 35.4230519], [-97.4329103, 35.4230934], [-97.4329409, 35.4230932], [-97.4329416, 35.4231991], [-97.4329366, 35.4231992], [-97.432937, 35.4232632], [-97.4328683, 35.4232635]]]}, "properties": {"osm_id": 1207768607, "building": "detached", "name": "", "height": null, "height_m": null, "levels": null, "tract_id": "40109107807", "tract_name": "1078.07", "tags": {"building": "detached", "source": "esri/Oklahoma_City_OK_Buildings"}}}, {"type": "Feature", "geometry": {"type": "Polygon", "coordinates": [[[-97.43264, 35.4243072], [-97.4326399, 35.4242985], [-97.4325703, 35.4242987], [-97.4325701, 35.4242412], [-97.4326401, 35.4242411], [-97.4326401, 35.4242305], [-97.432718, 35.4242303], [-97.4327179, 35.4242137], [-97.4328152, 35.4242135], [-97.4328152, 35.4242291], [-97.4328686, 35.424229], [-97.4328688, 35.4243067], [-97.43264, 35.4243072]]]}, "properties": {"osm_id": 1207768608, "building": "detached", "name": "", "height": null, "height_m": null, "levels": null, "tract_id": "40109107807", "tract_name": "1078.07", "tags": {"building": "detached", "source": "esri/Oklahoma_City_OK_Buildings"}}}, {"type": "Feature", "geometry": {"type": "Polygon", "coordinates": [[[-97.4402945, 35.4238136], [-97.4402954, 35.4237288], [-97.4403666, 35.4237293], [-97.4403902, 35.4237238], [-97.4404064, 35.4237239], [-97.4404069, 35.4236794], [-97.4404756, 35.4236799], [-97.440475, 35.4237364], [-97.4404558, 35.4237363], [-97.440455, 35.4238148], [-97.4402945, 35.4238136]]]}, "properties": {"osm_id": 1207768609, "building": "detached", "name": "", "height": null, "height_m": null, "levels": null, "tract_id": "40109107807", "tract_name": "1078.07", "tags": {"building": "detached", "source": "esri/Oklahoma_City_OK_Buildings"}}}, {"type": "Feature", "geometry": {"type": "Polygon", "coordinates": [[[-97.4343793, 35.4235948], [-97.4343772, 35.4235245], [-97.4344128, 35.4235238], [-97.4344109, 35.4234597], [-97.4345278, 35.4234574], [-97.43453, 35.4235135], [-97.4345826, 35.423513], [-97.4345842, 35.4235662], [-97.4345798, 35.4235663], [-97.4345806, 35.4235943], [-97.4345255, 35.4235953], [-97.4345253, 35.4235892], [-97.4344299, 35.423591], [-97.43443, 35.4235938], [-97.4343793, 35.4235948]]]}, "properties": {"osm_id": 1207768610, "building": "detached", "name": "", "height": null, "height_m": null, "levels": null, "tract_id": "40109107807", "tract_name": "1078.07", "tags": {"building": "detached", "source": "esri/Oklahoma_City_OK_Buildings"}}}, {"type": "Feature", "geometry": {"type": "Polygon", "coordinates": [[[-97.4332372, 35.4231977], [-97.4332369, 35.4231905], [-97.4331565, 35.4231928], [-97.4331522, 35.4230918], [-97.433235, 35.4230895], [-97.4332338, 35.4230624], [-97.4332797, 35.4230611], [-97.433281, 35.4230919], [-97.4333178, 35.4230909], [-97.4333222, 35.4231953], [-97.4332372, 35.4231977]]]}, "properties": {"osm_id": 1207768611, "building": "detached", "name": "", "height": null, "height_m": null, "levels": null, "tract_id": "40109107807", "tract_name": "1078.07", "tags": {"building": "detached", "source": "esri/Oklahoma_City_OK_Buildings"}}}, {"type": "Feature", "geometry": {"type": "Polygon", "coordinates": [[[-97.4335215, 35.4243668], [-97.4335705, 35.424367], [-97.4335711, 35.4242885], [-97.4335658, 35.4242885], [-97.4335661, 35.4242419], [-97.4336809, 35.4242425], [-97.4336805, 35.424299], [-97.4337134, 35.4242991], [-97.4337129, 35.4243624], [-97.433707, 35.4243623], [-97.4337067, 35.4244029], [-97.4336801, 35.4244031], [-97.4336799, 35.4244234], [-97.4335211, 35.4244226], [-97.4335215, 35.4243668]]]}, "properties": {"osm_id": 1207768612, "building": "detached", "name": "", "height": null, "height_m": null, "levels": null, "tract_id": "40109107807", "tract_name": "1078.07", "tags": {"building": "detached", "source": "esri/Oklahoma_City_OK_Buildings"}}}, {"type": "Feature", "geometry": {"type": "Polygon", "coordinates": [[[-97.434404, 35.423275], [-97.4343621, 35.4232148], [-97.4343906, 35.4232015], [-97.4343568, 35.4231527], [-97.4344514, 35.4231087], [-97.4344656, 35.423129], [-97.4345171, 35.4231051], [-97.4345797, 35.4231952], [-97.4345186, 35.4232236], [-97.4345161, 35.42322], [-97.4344398, 35.4232555], [-97.4344413, 35.4232577], [-97.434404, 35.423275]]]}, "properties": {"osm_id": 1207768613, "building": "detached", "name": "", "height": null, "height_m": null, "levels": null, "tract_id": "40109107807", "tract_name": "1078.07", "tags": {"building": "detached", "source": "esri/Oklahoma_City_OK_Buildings"}}}, {"type": "Feature", "geometry": {"type": "Polygon", "coordinates": [[[-97.4333382, 35.423702], [-97.4333388, 35.4236806], [-97.4333548, 35.4236809], [-97.4333552, 35.4236677], [-97.4333752, 35.423668], [-97.4333748, 35.4236808], [-97.4333826, 35.423681], [-97.433382, 35.4237028], [-97.4333382, 35.423702]]]}, "properties": {"osm_id": 1207768614, "building": "shed", "name": "", "height": null, "height_m": null, "levels": null, "tract_id": "40109107807", "tract_name": "1078.07", "tags": {"building": "shed", "source": "esri/Oklahoma_City_OK_Buildings"}}}, {"type": "Feature", "geometry": {"type": "Polygon", "coordinates": [[[-97.4387507, 35.4242743], [-97.4389021, 35.4242607], [-97.4389115, 35.4243308], [-97.4388472, 35.4243366], [-97.4388572, 35.4244103], [-97.4387701, 35.4244182], [-97.4387507, 35.4242743]]]}, "properties": {"osm_id": 1207768615, "building": "detached", "name": "", "height": null, "height_m": null, "levels": null, "tract_id": "40109107807", "tract_name": "1078.07", "tags": {"building": "detached", "source": "esri/Oklahoma_City_OK_Buildings"}}}, {"type": "Feature", "geometry": {"type": "Polygon", "coordinates": [[[-97.4409918, 35.4237326], [-97.4409918, 35.4237282], [-97.4410636, 35.4237282], [-97.4410636, 35.4237326], [-97.4411098, 35.4237326], [-97.4411098, 35.4238137], [-97.4409331, 35.4238137], [-97.4409331, 35.4237326], [-97.4409918, 35.4237326]]]}, "properties": {"osm_id": 1207768616, "building": "detached", "name": "", "height": null, "height_m": null, "levels": null, "tract_id": "40109107807", "tract_name": "1078.07", "tags": {"building": "detached", "source": "esri/Oklahoma_City_OK_Buildings"}}}, {"type": "Feature", "geometry": {"type": "Polygon", "coordinates": [[[-97.4387129, 35.4227186], [-97.4387154, 35.4226313], [-97.4387338, 35.4226316], [-97.4387353, 35.4225763], [-97.4388406, 35.4225783], [-97.4388389, 35.4226396], [-97.4388945, 35.4226406], [-97.4388932, 35.4226849], [-97.438839, 35.4226839], [-97.4388382, 35.4227151], [-97.4387463, 35.4227134], [-97.4387462, 35.4227192], [-97.4387129, 35.4227186]]]}, "properties": {"osm_id": 1207768617, "building": "detached", "name": "", "height": null, "height_m": null, "levels": null, "tract_id": "40109107807", "tract_name": "1078.07", "tags": {"building": "detached", "source": "esri/Oklahoma_City_OK_Buildings"}}}, {"type": "Feature", "geometry": {"type": "Polygon", "coordinates": [[[-97.4347846, 35.4243215], [-97.4347836, 35.4242549], [-97.4347692, 35.4242551], [-97.4347689, 35.4242391], [-97.434704, 35.4242398], [-97.4347027, 35.4241534], [-97.4347455, 35.424153], [-97.4347445, 35.4240911], [-97.4348756, 35.4240897], [-97.4348767, 35.4241593], [-97.4348723, 35.4241594], [-97.4348733, 35.4242278], [-97.434877, 35.4242278], [-97.4348775, 35.4242562], [-97.4348674, 35.4242563], [-97.4348684, 35.4243206], [-97.4347846, 35.4243215]]]}, "properties": {"osm_id": 1207768618, "building": "detached", "name": "", "height": null, "height_m": null, "levels": null, "tract_id": "40109107807", "tract_name": "1078.07", "tags": {"building": "detached", "source": "esri/Oklahoma_City_OK_Buildings"}}}, {"type": "Feature", "geometry": {"type": "Polygon", "coordinates": [[[-97.4355368, 35.423256], [-97.435539, 35.4233342], [-97.4354777, 35.423335], [-97.4354793, 35.4234217], [-97.4353832, 35.4234229], [-97.4353801, 35.4232569], [-97.4355368, 35.423256]]]}, "properties": {"osm_id": 1207768619, "building": "detached", "name": "", "height": null, "height_m": null, "levels": null, "tract_id": "40109107807", "tract_name": "1078.07", "tags": {"building": "detached", "source": "esri/Oklahoma_City_OK_Buildings"}}}, {"type": "Feature", "geometry": {"type": "Polygon", "coordinates": [[[-97.4387595, 35.42425], [-97.4387138, 35.4241128], [-97.4388134, 35.4240906], [-97.4388373, 35.4241623], [-97.4388669, 35.4241557], [-97.4388887, 35.4242211], [-97.4387595, 35.42425]]]}, "properties": {"osm_id": 1207768620, "building": "detached", "name": "", "height": null, "height_m": null, "levels": null, "tract_id": "40109107807", "tract_name": "1078.07", "tags": {"building": "detached", "source": "esri/Oklahoma_City_OK_Buildings"}}}, {"type": "Feature", "geometry": {"type": "Polygon", "coordinates": [[[-97.4328973, 35.4236656], [-97.4329328, 35.4236643], [-97.4329346, 35.4236971], [-97.4328991, 35.4236984], [-97.4328973, 35.4236656]]]}, "properties": {"osm_id": 1207768621, "building": "shed", "name": "", "height": null, "height_m": null, "levels": null, "tract_id": "40109107807", "tract_name": "1078.07", "tags": {"building": "shed", "source": "esri/Oklahoma_City_OK_Buildings"}}}, {"type": "Feature", "geometry": {"type": "Polygon", "coordinates": [[[-97.4349108, 35.4242609], [-97.4349124, 35.4241574], [-97.435066, 35.4241591], [-97.4350636, 35.4243156], [-97.4349954, 35.4243148], [-97.4349962, 35.4242619], [-97.4349108, 35.4242609]]]}, "properties": {"osm_id": 1207768622, "building": "detached", "name": "", "height": null, "height_m": null, "levels": null, "tract_id": "40109107807", "tract_name": "1078.07", "tags": {"building": "detached", "source": "esri/Oklahoma_City_OK_Buildings"}}}, {"type": "Feature", "geometry": {"type": "Polygon", "coordinates": [[[-97.4356311, 35.4242548], [-97.435631, 35.4242504], [-97.4355357, 35.4242505], [-97.4355353, 35.4241094], [-97.4356394, 35.4241092], [-97.4356396, 35.4241684], [-97.4356626, 35.4241684], [-97.4356628, 35.4242547], [-97.4356311, 35.4242548]]]}, "properties": {"osm_id": 1207768623, "building": "detached", "name": "", "height": null, "height_m": null, "levels": null, "tract_id": "40109107807", "tract_name": "1078.07", "tags": {"building": "detached", "source": "esri/Oklahoma_City_OK_Buildings"}}}, {"type": "Feature", "geometry": {"type": "Polygon", "coordinates": [[[-97.4348485, 35.4233791], [-97.4349049, 35.4233194], [-97.4349298, 35.4233352], [-97.434983, 35.423279], [-97.4350821, 35.4233418], [-97.4349685, 35.423462], [-97.4349565, 35.4234544], [-97.4349606, 35.4234501], [-97.4348485, 35.4233791]]]}, "properties": {"osm_id": 1207768624, "building": "detached", "name": "", "height": null, "height_m": null, "levels": null, "tract_id": "40109107807", "tract_name": "1078.07", "tags": {"building": "detached", "source": "esri/Oklahoma_City_OK_Buildings"}}}, {"type": "Feature", "geometry": {"type": "Polygon", "coordinates": [[[-97.439512, 35.4238795], [-97.4395035, 35.4238494], [-97.4394418, 35.4238609], [-97.43942, 35.4237831], [-97.4395043, 35.4237673], [-97.4394972, 35.4237422], [-97.4395702, 35.4237285], [-97.4395793, 35.4237611], [-97.439576, 35.4237617], [-97.4395962, 35.423834], [-97.4395696, 35.423839], [-97.4395775, 35.4238672], [-97.439512, 35.4238795]]]}, "properties": {"osm_id": 1207768625, "building": "detached", "name": "", "height": null, "height_m": null, "levels": null, "tract_id": "40109107807", "tract_name": "1078.07", "tags": {"building": "detached", "source": "esri/Oklahoma_City_OK_Buildings"}}}, {"type": "Feature", "geometry": {"type": "Polygon", "coordinates": [[[-97.4339221, 35.4245656], [-97.4339388, 35.4245422], [-97.4338677, 35.4245077], [-97.4339717, 35.4243541], [-97.4340494, 35.4243898], [-97.4340155, 35.4244374], [-97.4340463, 35.4244521], [-97.4340783, 35.4244071], [-97.4341138, 35.4244241], [-97.4340345, 35.4245355], [-97.4340157, 35.4245265], [-97.4339903, 35.4245622], [-97.4339715, 35.4245532], [-97.4339524, 35.4245801], [-97.4339221, 35.4245656]]]}, "properties": {"osm_id": 1207768626, "building": "detached", "name": "", "height": null, "height_m": null, "levels": null, "tract_id": "40109107807", "tract_name": "1078.07", "tags": {"building": "detached", "source": "esri/Oklahoma_City_OK_Buildings"}}}, {"type": "Feature", "geometry": {"type": "Polygon", "coordinates": [[[-97.4339052, 35.4231552], [-97.4339077, 35.4230673], [-97.434065, 35.4230705], [-97.4340616, 35.4231876], [-97.4339753, 35.4231859], [-97.4339761, 35.4231566], [-97.4339052, 35.4231552]]]}, "properties": {"osm_id": 1207768627, "building": "detached", "name": "", "height": null, "height_m": null, "levels": null, "tract_id": "40109107807", "tract_name": "1078.07", "tags": {"building": "detached", "source": "esri/Oklahoma_City_OK_Buildings"}}}, {"type": "Feature", "geometry": {"type": "Polygon", "coordinates": [[[-97.4401657, 35.4238716], [-97.4401657, 35.4238263], [-97.4400747, 35.4238263], [-97.4400747, 35.423749], [-97.440161, 35.423749], [-97.440161, 35.4237209], [-97.4402439, 35.4237209], [-97.4402439, 35.4237629], [-97.4402406, 35.4237629], [-97.4402406, 35.423825], [-97.4402251, 35.423825], [-97.4402251, 35.4238716], [-97.4401657, 35.4238716]]]}, "properties": {"osm_id": 1207768628, "building": "detached", "name": "", "height": null, "height_m": null, "levels": null, "tract_id": "40109107807", "tract_name": "1078.07", "tags": {"building": "detached", "source": "esri/Oklahoma_City_OK_Buildings"}}}, {"type": "Feature", "geometry": {"type": "Polygon", "coordinates": [[[-97.4389752, 35.4234292], [-97.4390191, 35.423417], [-97.4390281, 35.4234387], [-97.4389842, 35.4234509], [-97.4389752, 35.4234292]]]}, "properties": {"osm_id": 1207768629, "building": "detached", "name": "", "height": null, "height_m": null, "levels": null, "tract_id": "40109107807", "tract_name": "1078.07", "tags": {"building": "detached", "source": "esri/Oklahoma_City_OK_Buildings"}}}, {"type": "Feature", "geometry": {"type": "Polygon", "coordinates": [[[-97.4350626, 35.4238713], [-97.4349593, 35.4238277], [-97.4349462, 35.4238486], [-97.4349003, 35.4238292], [-97.434914, 35.4238074], [-97.4349085, 35.4238051], [-97.4349449, 35.4237474], [-97.4349397, 35.4237452], [-97.434972, 35.4236939], [-97.4351319, 35.4237615], [-97.4350626, 35.4238713]]]}, "properties": {"osm_id": 1207768630, "building": "detached", "name": "", "height": null, "height_m": null, "levels": null, "tract_id": "40109107807", "tract_name": "1078.07", "tags": {"building": "detached", "source": "esri/Oklahoma_City_OK_Buildings"}}}, {"type": "Feature", "geometry": {"type": "Polygon", "coordinates": [[[-97.4327916, 35.4243458], [-97.4327925, 35.424315], [-97.4328223, 35.4243156], [-97.4328214, 35.4243464], [-97.4327916, 35.4243458]]]}, "properties": {"osm_id": 1207768631, "building": "yes", "name": "", "height": null, "height_m": null, "levels": null, "tract_id": "40109107807", "tract_name": "1078.07", "tags": {"building": "yes", "source": "esri/Oklahoma_City_OK_Buildings"}}}, {"type": "Feature", "geometry": {"type": "Polygon", "coordinates": [[[-97.4387958, 35.423113], [-97.4388951, 35.4230915], [-97.4389312, 35.4232038], [-97.4388406, 35.4232233], [-97.4388413, 35.4232255], [-97.4388002, 35.4232344], [-97.4387819, 35.4231775], [-97.4388143, 35.4231705], [-97.4387958, 35.423113]]]}, "properties": {"osm_id": 1207768632, "building": "detached", "name": "", "height": null, "height_m": null, "levels": null, "tract_id": "40109107807", "tract_name": "1078.07", "tags": {"building": "detached", "source": "esri/Oklahoma_City_OK_Buildings"}}}, {"type": "Feature", "geometry": {"type": "Polygon", "coordinates": [[[-97.4382549, 35.4226145], [-97.4382558, 35.4224801], [-97.4383466, 35.4224805], [-97.4383462, 35.4225368], [-97.4383534, 35.4225368], [-97.4383532, 35.4225611], [-97.4383853, 35.4225612], [-97.4383849, 35.4226151], [-97.4382549, 35.4226145]]]}, "properties": {"osm_id": 1207768633, "building": "detached", "name": "", "height": null, "height_m": null, "levels": null, "tract_id": "40109107807", "tract_name": "1078.07", "tags": {"building": "detached", "source": "esri/Oklahoma_City_OK_Buildings"}}}, {"type": "Feature", "geometry": {"type": "Polygon", "coordinates": [[[-97.4331669, 35.4237472], [-97.4332088, 35.4237443], [-97.4332115, 35.4237699], [-97.4331695, 35.4237728], [-97.4331669, 35.4237472]]]}, "properties": {"osm_id": 1207768634, "building": "shed", "name": "", "height": null, "height_m": null, "levels": null, "tract_id": "40109107807", "tract_name": "1078.07", "tags": {"building": "shed", "source": "esri/Oklahoma_City_OK_Buildings"}}}, {"type": "Feature", "geometry": {"type": "Polygon", "coordinates": [[[-97.432645, 35.4245006], [-97.4326446, 35.4244489], [-97.4326315, 35.424449], [-97.4326311, 35.4243911], [-97.432643, 35.4243911], [-97.4326428, 35.4243587], [-97.4327485, 35.4243583], [-97.4327494, 35.4245002], [-97.432645, 35.4245006]]]}, "properties": {"osm_id": 1207768635, "building": "detached", "name": "", "height": null, "height_m": null, "levels": null, "tract_id": "40109107807", "tract_name": "1078.07", "tags": {"building": "detached", "source": "esri/Oklahoma_City_OK_Buildings"}}}, {"type": "Feature", "geometry": {"type": "Polygon", "coordinates": [[[-97.4337489, 35.4243763], [-97.4338032, 35.424304], [-97.4338633, 35.4243342], [-97.4338845, 35.4243059], [-97.433952, 35.4243398], [-97.4338763, 35.4244405], [-97.4337489, 35.4243763]]]}, "properties": {"osm_id": 1207768636, "building": "detached", "name": "", "height": null, "height_m": null, "levels": null, "tract_id": "40109107807", "tract_name": "1078.07", "tags": {"building": "detached", "source": "esri/Oklahoma_City_OK_Buildings"}}}, {"type": "Feature", "geometry": {"type": "Polygon", "coordinates": [[[-97.4339127, 35.4236578], [-97.4339399, 35.4236577], [-97.4339401, 35.4236972], [-97.4339129, 35.4236973], [-97.4339127, 35.4236578]]]}, "properties": {"osm_id": 1207768637, "building": "shed", "name": "", "height": null, "height_m": null, "levels": null, "tract_id": "40109107807", "tract_name": "1078.07", "tags": {"building": "shed", "source": "esri/Oklahoma_City_OK_Buildings"}}}, {"type": "Feature", "geometry": {"type": "Polygon", "coordinates": [[[-97.4341182, 35.4231047], [-97.4341509, 35.4230214], [-97.4342225, 35.4230402], [-97.4342324, 35.4230151], [-97.4342772, 35.4230269], [-97.4342681, 35.4230502], [-97.4342887, 35.4230556], [-97.434258, 35.4231341], [-97.4342638, 35.4231356], [-97.4342517, 35.4231664], [-97.4341645, 35.4231435], [-97.434174, 35.4231193], [-97.4341182, 35.4231047]]]}, "properties": {"osm_id": 1207768638, "building": "detached", "name": "", "height": null, "height_m": null, "levels": null, "tract_id": "40109107807", "tract_name": "1078.07", "tags": {"building": "detached", "source": "esri/Oklahoma_City_OK_Buildings"}}}, {"type": "Feature", "geometry": {"type": "Polygon", "coordinates": [[[-97.4330539, 35.4239689], [-97.4330451, 35.4239689], [-97.4330452, 35.4239428], [-97.4329789, 35.4239426], [-97.4329793, 35.4238541], [-97.4330165, 35.4238542], [-97.4330169, 35.4237914], [-97.4330756, 35.4237916], [-97.4330757, 35.4237822], [-97.433126, 35.4237824], [-97.433126, 35.4237926], [-97.4331325, 35.4237927], [-97.4331316, 35.4239676], [-97.4331248, 35.4239676], [-97.4331245, 35.4240219], [-97.4330536, 35.4240217], [-97.4330539, 35.4239689]]]}, "properties": {"osm_id": 1207768639, "building": "detached", "name": "", "height": null, "height_m": null, "levels": null, "tract_id": "40109107807", "tract_name": "1078.07", "tags": {"building": "detached", "source": "esri/Oklahoma_City_OK_Buildings"}}}, {"type": "Feature", "geometry": {"type": "Polygon", "coordinates": [[[-97.4387045, 35.4240876], [-97.4386961, 35.4240676], [-97.4386569, 35.4240786], [-97.4386344, 35.424025], [-97.4386724, 35.4240144], [-97.4386464, 35.4239524], [-97.4387408, 35.4239259], [-97.4387651, 35.423984], [-97.4387858, 35.4239782], [-97.4387941, 35.4239979], [-97.4388565, 35.4239804], [-97.4388777, 35.4240309], [-97.4388198, 35.4240472], [-97.4388228, 35.4240544], [-97.4387045, 35.4240876]]]}, "properties": {"osm_id": 1207768640, "building": "detached", "name": "", "height": null, "height_m": null, "levels": null, "tract_id": "40109107807", "tract_name": "1078.07", "tags": {"building": "detached", "source": "esri/Oklahoma_City_OK_Buildings"}}}, {"type": "Feature", "geometry": {"type": "Polygon", "coordinates": [[[-97.4343712, 35.42376], [-97.4343713, 35.4237088], [-97.4343628, 35.4237088], [-97.4343628, 35.423651], [-97.4343717, 35.423651], [-97.4343718, 35.4236167], [-97.4344766, 35.4236167], [-97.4344765, 35.4236894], [-97.4345045, 35.4236894], [-97.4345045, 35.4237236], [-97.4344757, 35.4237235], [-97.4344757, 35.42376], [-97.4343712, 35.42376]]]}, "properties": {"osm_id": 1207768641, "building": "detached", "name": "", "height": null, "height_m": null, "levels": null, "tract_id": "40109107807", "tract_name": "1078.07", "tags": {"building": "detached", "source": "esri/Oklahoma_City_OK_Buildings"}}}, {"type": "Feature", "geometry": {"type": "Polygon", "coordinates": [[[-97.4383576, 35.4234772], [-97.4383519, 35.423463], [-97.438308, 35.4234748], [-97.4382754, 35.423393], [-97.4383526, 35.4233723], [-97.4383371, 35.4233333], [-97.4384364, 35.4233067], [-97.4384646, 35.4233774], [-97.4385078, 35.4233658], [-97.4385361, 35.4234367], [-97.4384832, 35.4234508], [-97.4384814, 35.4234463], [-97.4383932, 35.4234699], [-97.4383924, 35.4234679], [-97.4383576, 35.4234772]]]}, "properties": {"osm_id": 1207768642, "building": "detached", "name": "", "height": null, "height_m": null, "levels": null, "tract_id": "40109107807", "tract_name": "1078.07", "tags": {"building": "detached", "source": "esri/Oklahoma_City_OK_Buildings"}}}, {"type": "Feature", "geometry": {"type": "Polygon", "coordinates": [[[-97.4320481, 35.4239493], [-97.4320482, 35.4239151], [-97.4319636, 35.4239149], [-97.4319639, 35.423817], [-97.432131, 35.4238173], [-97.4321307, 35.4239494], [-97.4320481, 35.4239493]]]}, "properties": {"osm_id": 1207768643, "building": "detached", "name": "", "height": null, "height_m": null, "levels": null, "tract_id": "40109107807", "tract_name": "1078.07", "tags": {"building": "detached", "source": "esri/Oklahoma_City_OK_Buildings"}}}, {"type": "Feature", "geometry": {"type": "Polygon", "coordinates": [[[-97.4328843, 35.4237374], [-97.4329193, 35.4237362], [-97.4329211, 35.4237722], [-97.4328861, 35.4237734], [-97.4328843, 35.4237374]]]}, "properties": {"osm_id": 1207768644, "building": "shed", "name": "", "height": null, "height_m": null, "levels": null, "tract_id": "40109107807", "tract_name": "1078.07", "tags": {"building": "shed", "source": "esri/Oklahoma_City_OK_Buildings"}}}, {"type": "Feature", "geometry": {"type": "Polygon", "coordinates": [[[-97.4318227, 35.4238939], [-97.4318227, 35.4238878], [-97.4317408, 35.4238877], [-97.4317411, 35.4237902], [-97.4318213, 35.4237904], [-97.4318213, 35.4237676], [-97.4319018, 35.4237677], [-97.4319015, 35.4238805], [-97.4319059, 35.4238805], [-97.4319058, 35.4238941], [-97.4318227, 35.4238939]]]}, "properties": {"osm_id": 1207768645, "building": "detached", "name": "", "height": null, "height_m": null, "levels": null, "tract_id": "40109107807", "tract_name": "1078.07", "tags": {"building": "detached", "source": "esri/Oklahoma_City_OK_Buildings"}}}, {"type": "Feature", "geometry": {"type": "Polygon", "coordinates": [[[-97.4330533, 35.4234708], [-97.4330532, 35.4234648], [-97.4330608, 35.4234648], [-97.4330598, 35.4234013], [-97.4331297, 35.4234006], [-97.4331307, 35.4234654], [-97.4331383, 35.4234653], [-97.4331386, 35.4234829], [-97.4331326, 35.423483], [-97.433134, 35.4235694], [-97.4329702, 35.4235712], [-97.4329686, 35.4234717], [-97.4330533, 35.4234708]]]}, "properties": {"osm_id": 1207768646, "building": "detached", "name": "", "height": null, "height_m": null, "levels": null, "tract_id": "40109107807", "tract_name": "1078.07", "tags": {"building": "detached", "source": "esri/Oklahoma_City_OK_Buildings"}}}, {"type": "Feature", "geometry": {"type": "Polygon", "coordinates": [[[-97.4331524, 35.4243591], [-97.4332695, 35.42436], [-97.4332686, 35.4244333], [-97.4332791, 35.4244334], [-97.4332784, 35.4245014], [-97.4331508, 35.4245004], [-97.4331524, 35.4243591]]]}, "properties": {"osm_id": 1207768647, "building": "detached", "name": "", "height": null, "height_m": null, "levels": null, "tract_id": "40109107807", "tract_name": "1078.07", "tags": {"building": "detached", "source": "esri/Oklahoma_City_OK_Buildings"}}}, {"type": "Feature", "geometry": {"type": "Polygon", "coordinates": [[[-97.4330042, 35.4221049], [-97.4330045, 35.4220587], [-97.4329993, 35.4220587], [-97.4329997, 35.4219751], [-97.4330024, 35.4219751], [-97.4330026, 35.4219333], [-97.4332046, 35.4219339], [-97.4332037, 35.4221056], [-97.4330042, 35.4221049]]]}, "properties": {"osm_id": 1207768892, "building": "detached", "name": "", "height": null, "height_m": null, "levels": null, "tract_id": "40109107807", "tract_name": "1078.07", "tags": {"building": "detached", "source": "esri/Oklahoma_City_OK_Buildings"}}}, {"type": "Feature", "geometry": {"type": "Polygon", "coordinates": [[[-97.4319368, 35.4214999], [-97.4319366, 35.4214692], [-97.4318847, 35.4214694], [-97.4318837, 35.4213164], [-97.4320463, 35.4213157], [-97.4320468, 35.4214007], [-97.4320749, 35.4214006], [-97.4320754, 35.4214691], [-97.4320123, 35.4214694], [-97.4320124, 35.4214996], [-97.4319368, 35.4214999]]]}, "properties": {"osm_id": 1207768893, "building": "detached", "name": "", "height": null, "height_m": null, "levels": null, "tract_id": "40109107807", "tract_name": "1078.07", "tags": {"building": "detached", "source": "esri/Oklahoma_City_OK_Buildings"}}}, {"type": "Feature", "geometry": {"type": "Polygon", "coordinates": [[[-97.4316294, 35.4226367], [-97.4316335, 35.4224414], [-97.4317148, 35.4224425], [-97.4317147, 35.422445], [-97.431766, 35.4224444], [-97.4317675, 35.4226387], [-97.4316294, 35.4226367]]]}, "properties": {"osm_id": 1207768894, "building": "detached", "name": "", "height": null, "height_m": null, "levels": null, "tract_id": "40109107807", "tract_name": "1078.07", "tags": {"building": "detached", "source": "esri/Oklahoma_City_OK_Buildings"}}}, {"type": "Feature", "geometry": {"type": "Polygon", "coordinates": [[[-97.4325738, 35.4214725], [-97.4325726, 35.4214438], [-97.4325441, 35.4214446], [-97.4325411, 35.4213706], [-97.4325935, 35.4213692], [-97.4325927, 35.4213491], [-97.4326782, 35.4213468], [-97.432679, 35.421368], [-97.4327292, 35.4213666], [-97.4327305, 35.4213977], [-97.4327387, 35.4213975], [-97.4327403, 35.4214383], [-97.4326498, 35.4214408], [-97.4326511, 35.4214718], [-97.432679, 35.421471], [-97.4326819, 35.4215418], [-97.4325488, 35.4215455], [-97.4325458, 35.4214733], [-97.4325738, 35.4214725]]]}, "properties": {"osm_id": 1207768895, "building": "detached", "name": "", "height": null, "height_m": null, "levels": null, "tract_id": "40109107807", "tract_name": "1078.07", "tags": {"building": "detached", "source": "esri/Oklahoma_City_OK_Buildings"}}}, {"type": "Feature", "geometry": {"type": "Polygon", "coordinates": [[[-97.431518, 35.4220602], [-97.4315181, 35.4220483], [-97.4315043, 35.4220482], [-97.4315044, 35.4220207], [-97.4317466, 35.4220217], [-97.431746, 35.4221266], [-97.4315022, 35.4221256], [-97.4315026, 35.4220602], [-97.431518, 35.4220602]]]}, "properties": {"osm_id": 1207768896, "building": "detached", "name": "", "height": null, "height_m": null, "levels": null, "tract_id": "40109107807", "tract_name": "1078.07", "tags": {"building": "detached", "source": "esri/Oklahoma_City_OK_Buildings"}}}, {"type": "Feature", "geometry": {"type": "Polygon", "coordinates": [[[-97.4330362, 35.4215234], [-97.4332012, 35.4215235], [-97.4332011, 35.4216087], [-97.4329966, 35.4216085], [-97.4329967, 35.4215528], [-97.4330076, 35.4215528], [-97.4330076, 35.4215354], [-97.4330362, 35.4215354], [-97.4330362, 35.4215234]]]}, "properties": {"osm_id": 1207768897, "building": "detached", "name": "", "height": null, "height_m": null, "levels": null, "tract_id": "40109107807", "tract_name": "1078.07", "tags": {"building": "detached", "source": "esri/Oklahoma_City_OK_Buildings"}}}, {"type": "Feature", "geometry": {"type": "Polygon", "coordinates": [[[-97.433001, 35.4213296], [-97.4332017, 35.4213282], [-97.4332035, 35.4215001], [-97.4329997, 35.4215015], [-97.4329983, 35.4213693], [-97.4330014, 35.4213693], [-97.433001, 35.4213296]]]}, "properties": {"osm_id": 1207768898, "building": "detached", "name": "", "height": null, "height_m": null, "levels": null, "tract_id": "40109107807", "tract_name": "1078.07", "tags": {"building": "detached", "source": "esri/Oklahoma_City_OK_Buildings"}}}, {"type": "Feature", "geometry": {"type": "Polygon", "coordinates": [[[-97.4319186, 35.4222522], [-97.4319186, 35.4222195], [-97.4318766, 35.4222196], [-97.4318765, 35.4221506], [-97.431956, 35.4221506], [-97.431956, 35.4221415], [-97.4320141, 35.4221415], [-97.4320141, 35.422151], [-97.432078, 35.422151], [-97.4320781, 35.4222245], [-97.4320692, 35.4222246], [-97.4320693, 35.4222521], [-97.4319186, 35.4222522]]]}, "properties": {"osm_id": 1207768899, "building": "detached", "name": "", "height": null, "height_m": null, "levels": null, "tract_id": "40109107807", "tract_name": "1078.07", "tags": {"building": "detached", "source": "esri/Oklahoma_City_OK_Buildings"}}}, {"type": "Feature", "geometry": {"type": "Polygon", "coordinates": [[[-97.4326903, 35.4210599], [-97.4326392, 35.4210588], [-97.4326375, 35.4211129], [-97.4325396, 35.4211108], [-97.4325445, 35.4209537], [-97.4327879, 35.4209549], [-97.4327893, 35.4211143], [-97.4326886, 35.4211122], [-97.4326903, 35.4210599]]]}, "properties": {"osm_id": 1207768900, "building": "residential", "name": "", "height": null, "height_m": null, "levels": null, "tract_id": "40109107807", "tract_name": "1078.07", "tags": {"building": "residential", "source": "esri/Oklahoma_City_OK_Buildings"}}}, {"type": "Feature", "geometry": {"type": "Polygon", "coordinates": [[[-97.4318285, 35.4216192], [-97.4318282, 35.4215343], [-97.4320342, 35.4215338], [-97.4320342, 35.4215457], [-97.4320643, 35.4215456], [-97.4320643, 35.4215629], [-97.4320746, 35.4215629], [-97.4320748, 35.4216187], [-97.4318285, 35.4216192]]]}, "properties": {"osm_id": 1207768901, "building": "detached", "name": "", "height": null, "height_m": null, "levels": null, "tract_id": "40109107807", "tract_name": "1078.07", "tags": {"building": "detached", "source": "esri/Oklahoma_City_OK_Buildings"}}}, {"type": "Feature", "geometry": {"type": "Polygon", "coordinates": [[[-97.4329998, 35.421624], [-97.4332017, 35.4216242], [-97.4332013, 35.4219146], [-97.4329995, 35.4219144], [-97.4329998, 35.421624]]]}, "properties": {"osm_id": 1207768902, "building": "residential", "name": "", "height": null, "height_m": null, "levels": null, "tract_id": "40109107807", "tract_name": "1078.07", "tags": {"building": "residential", "source": "esri/Oklahoma_City_OK_Buildings"}}}, {"type": "Feature", "geometry": {"type": "Polygon", "coordinates": [[[-97.4317901, 35.4226467], [-97.4317898, 35.4224434], [-97.4318332, 35.4224418], [-97.431833, 35.4224332], [-97.431881, 35.4224326], [-97.4318822, 35.4225008], [-97.4319334, 35.4225002], [-97.4319323, 35.4224326], [-97.4319755, 35.4224321], [-97.4319757, 35.4224412], [-97.4320036, 35.4224409], [-97.4320105, 35.4224452], [-97.4320104, 35.4224354], [-97.4320517, 35.422435], [-97.4320519, 35.4224444], [-97.4320662, 35.4224442], [-97.4320672, 35.4225005], [-97.4321198, 35.4224999], [-97.4321187, 35.4224323], [-97.4321622, 35.4224318], [-97.4321639, 35.4224433], [-97.4321906, 35.4224429], [-97.432194, 35.4226465], [-97.4321203, 35.4226473], [-97.4321196, 35.4226073], [-97.4320677, 35.4226078], [-97.4320684, 35.4226464], [-97.4319342, 35.4226459], [-97.4319335, 35.4226066], [-97.4318815, 35.4226071], [-97.4318821, 35.4226457], [-97.4317901, 35.4226467]]]}, "properties": {"osm_id": 1207768903, "building": "residential", "name": "", "height": null, "height_m": null, "levels": null, "tract_id": "40109107807", "tract_name": "1078.07", "tags": {"building": "residential", "source": "esri/Oklahoma_City_OK_Buildings"}}}, {"type": "Feature", "geometry": {"type": "Polygon", "coordinates": [[[-97.4325446, 35.4219837], [-97.4325425, 35.4216597], [-97.4327438, 35.4216589], [-97.4327442, 35.4217167], [-97.4326742, 35.421717], [-97.4326745, 35.4217697], [-97.4327414, 35.4217694], [-97.4327421, 35.4218738], [-97.4326746, 35.4218741], [-97.4326749, 35.4219263], [-97.4327405, 35.421926], [-97.4327409, 35.4219828], [-97.4325446, 35.4219837]]]}, "properties": {"osm_id": 1207768904, "building": "residential", "name": "", "height": null, "height_m": null, "levels": null, "tract_id": "40109107807", "tract_name": "1078.07", "tags": {"building": "residential", "source": "esri/Oklahoma_City_OK_Buildings"}}}]}