{"type": "FeatureCollection", "features": [{"type": "Feature", "geometry": {"type": "Polygon", "coordinates": [[[-94.8090502, 35.4638303], [-94.8089322, 35.4638336], [-94.8089291, 35.4637598], [-94.8090471, 35.4637565], [-94.8090502, 35.4638303]]]}, "properties": {"osm_id": 481128113, "building": "yes", "name": "", "height": null, "height_m": null, "levels": null, "tract_id": "40135030301", "tract_name": "303.01", "tags": {"building": "yes"}}}, {"type": "Feature", "geometry": {"type": "Polygon", "coordinates": [[[-94.8004449, 35.4639392], [-94.8006469, 35.4639502], [-94.800629, 35.4641677], [-94.8004271, 35.4641567], [-94.8004449, 35.4639392]]]}, "properties": {"osm_id": 481128114, "building": "yes", "name": "", "height": null, "height_m": null, "levels": null, "tract_id": "40135030301", "tract_name": "303.01", "tags": {"building": "yes"}}}, {"type": "Feature", "geometry": {"type": "Polygon", "coordinates": [[[-94.8048606, 35.4625938], [-94.8048526, 35.4618183], [-94.8054315, 35.4618143], [-94.8054395, 35.4625898], [-94.8048606, 35.4625938]]]}, "properties": {"osm_id": 481128127, "building": "yes", "name": "", "height": null, "height_m": null, "levels": null, "tract_id": "40135030301", "tract_name": "303.01", "tags": {"building": "yes"}}}, {"type": "Feature", "geometry": {"type": "Polygon", "coordinates": [[[-94.8036472, 35.46141], [-94.803674, 35.461112], [-94.8040663, 35.4611354], [-94.8040726, 35.4610649], [-94.8050025, 35.4611205], [-94.8049693, 35.4614891], [-94.8036472, 35.46141]]]}, "properties": {"osm_id": 481128128, "building": "yes", "name": "", "height": null, "height_m": null, "levels": null, "tract_id": "40135030301", "tract_name": "303.01", "tags": {"building": "yes"}}}, {"type": "Feature", "geometry": {"type": "Polygon", "coordinates": [[[-94.7968925, 35.4610576], [-94.796871, 35.4607867], [-94.7970695, 35.4607762], [-94.797091, 35.4610471], [-94.7968925, 35.4610576]]]}, "properties": {"osm_id": 481128141, "building": "yes", "name": "", "height": null, "height_m": null, "levels": null, "tract_id": "40135030301", "tract_name": "303.01", "tags": {"building": "yes"}}}, {"type": "Feature", "geometry": {"type": "Polygon", "coordinates": [[[-94.8075913, 35.4498926], [-94.8072487, 35.4498907], [-94.8072538, 35.4492724], [-94.8075964, 35.4492743], [-94.8075913, 35.4498926]]]}, "properties": {"osm_id": 552288641, "building": "yes", "name": "Cherokee Casino Sallisaw", "height": null, "height_m": null, "levels": null, "tract_id": "40135030301", "tract_name": "303.01", "tags": {"addr:city": "Sallisaw", "addr:housenumber": "1621", "addr:postcode": "74955", "addr:state": "OK", "addr:street": "West Ruth Avenue", "amenity": "casino", "building": "yes", "check_date": "2025-09-21", "name": "Cherokee Casino Sallisaw"}}}, {"type": "Feature", "geometry": {"type": "Polygon", "coordinates": [[[-94.8081037, 35.4493105], [-94.8079653, 35.4493139], [-94.807959, 35.4491413], [-94.8080973, 35.4491379], [-94.8081037, 35.4493105]]]}, "properties": {"osm_id": 552288643, "building": "retail", "name": "", "height": null, "height_m": null, "levels": null, "tract_id": "40135030301", "tract_name": "303.01", "tags": {"building": "retail"}}}, {"type": "Feature", "geometry": {"type": "Polygon", "coordinates": [[[-94.8078392, 35.4494137], [-94.8076332, 35.4494133], [-94.8076338, 35.4491639], [-94.8078398, 35.4491643], [-94.8078393, 35.4493903], [-94.8078392, 35.4494137]]]}, "properties": {"osm_id": 552288645, "building": "yes", "name": "", "height": null, "height_m": null, "levels": null, "tract_id": "40135030301", "tract_name": "303.01", "tags": {"building": "yes"}}}, {"type": "Feature", "geometry": {"type": "Polygon", "coordinates": [[[-94.8097515, 35.4494362], [-94.8097179, 35.4494371], [-94.8096299, 35.4494393], [-94.8096239, 35.4492836], [-94.8097455, 35.4492805], [-94.8097515, 35.4494362]]]}, "properties": {"osm_id": 552288647, "building": "yes", "name": "", "height": null, "height_m": null, "levels": null, "tract_id": "40135030301", "tract_name": "303.01", "tags": {"building": "yes"}}}, {"type": "Feature", "geometry": {"type": "Polygon", "coordinates": [[[-94.8202971, 35.4512359], [-94.8196201, 35.451086], [-94.8196027, 35.4511381], [-94.8194472, 35.4511037], [-94.8194794, 35.4510071], [-94.8193934, 35.450988], [-94.8193611, 35.4510846], [-94.8184069, 35.4508734], [-94.8184534, 35.4507337], [-94.8184256, 35.4507276], [-94.8185043, 35.4504916], [-94.8185322, 35.4504978], [-94.8185626, 35.4504065], [-94.8194343, 35.4505995], [-94.819543, 35.4505442], [-94.8197376, 35.4505873], [-94.8197866, 35.4504404], [-94.8200315, 35.4504946], [-94.8199578, 35.4507154], [-94.8204354, 35.4508211], [-94.8202971, 35.4512359]]]}, "properties": {"osm_id": 609347844, "building": "school", "name": "", "height": null, "height_m": null, "levels": null, "tract_id": "40135030301", "tract_name": "303.01", "tags": {"building": "school"}}}, {"type": "Feature", "geometry": {"type": "Polygon", "coordinates": [[[-94.8195621, 35.4525731], [-94.8188219, 35.4524092], [-94.818882, 35.4522289], [-94.8191135, 35.4522802], [-94.8191442, 35.4521881], [-94.8195704, 35.4522824], [-94.8195363, 35.4523845], [-94.819619, 35.4524027], [-94.8195621, 35.4525731]]]}, "properties": {"osm_id": 609347845, "building": "yes", "name": "", "height": null, "height_m": null, "levels": null, "tract_id": "40135030301", "tract_name": "303.01", "tags": {"building": "yes"}}}, {"type": "Feature", "geometry": {"type": "Polygon", "coordinates": [[[-94.8187199, 35.4555358], [-94.8187162, 35.4554244], [-94.8189147, 35.45542], [-94.8189184, 35.4555314], [-94.8187199, 35.4555358]]]}, "properties": {"osm_id": 609347846, "building": "yes", "name": "", "height": null, "height_m": null, "levels": null, "tract_id": "40135030301", "tract_name": "303.01", "tags": {"building": "yes"}}}, {"type": "Feature", "geometry": {"type": "Polygon", "coordinates": [[[-94.8186314, 35.4550616], [-94.8186251, 35.454885], [-94.8189014, 35.4548785], [-94.8189077, 35.4550551], [-94.8186314, 35.4550616]]]}, "properties": {"osm_id": 609347847, "building": "yes", "name": "", "height": null, "height_m": null, "levels": null, "tract_id": "40135030301", "tract_name": "303.01", "tags": {"building": "yes"}}}, {"type": "Feature", "geometry": {"type": "Polygon", "coordinates": [[[-94.7970679, 35.4694786], [-94.796929, 35.469479], [-94.796928, 35.469555], [-94.7969145, 35.4695552], [-94.7969143, 35.4696445], [-94.7970612, 35.469645], [-94.7970679, 35.4694786]]]}, "properties": {"osm_id": 778383071, "building": "retail", "name": "Maple Street Corner Store", "height": null, "height_m": null, "levels": null, "tract_id": "40135030301", "tract_name": "303.01", "tags": {"building": "retail", "name": "Maple Street Corner Store", "shop": "convenience"}}}, {"type": "Feature", "geometry": {"type": "Polygon", "coordinates": [[[-94.8200554, 35.4614676], [-94.8200659, 35.4613417], [-94.8200947, 35.4613435], [-94.8200998, 35.4612817], [-94.820165, 35.4612855], [-94.8201597, 35.4613473], [-94.8202738, 35.4613555], [-94.820263, 35.4614801], [-94.8200554, 35.4614676]]]}, "properties": {"osm_id": 941959378, "building": "yes", "name": "The Green House", "height": null, "height_m": null, "levels": null, "tract_id": "40135030301", "tract_name": "303.01", "tags": {"addr:city": "Sallisaw", "addr:housenumber": "2310", "addr:postcode": "74955", "addr:state": "OK", "addr:street": "West Cherokee Avenue", "building": "yes", "check_date": "2025-01-25", "name": "The Green House", "phone": "918-775-0572", "shop": "florist"}}}, {"type": "Feature", "geometry": {"type": "Polygon", "coordinates": [[[-94.7986498, 35.4886646], [-94.7984493, 35.488666], [-94.798447, 35.4884624], [-94.7986476, 35.488461], [-94.7986498, 35.4886646]]]}, "properties": {"osm_id": 1023790729, "building": "yes", "name": "", "height": null, "height_m": null, "levels": null, "tract_id": "40135030301", "tract_name": "303.01", "tags": {"building": "yes"}}}, {"type": "Feature", "geometry": {"type": "Polygon", "coordinates": [[[-94.7988851, 35.4885102], [-94.7987997, 35.4885106], [-94.7987992, 35.488437], [-94.7988846, 35.4884366], [-94.7988851, 35.4885102]]]}, "properties": {"osm_id": 1023790730, "building": "yes", "name": "", "height": null, "height_m": null, "levels": null, "tract_id": "40135030301", "tract_name": "303.01", "tags": {"building": "yes"}}}, {"type": "Feature", "geometry": {"type": "Polygon", "coordinates": [[[-94.7980276, 35.4876512], [-94.7980276, 35.4878299], [-94.7978903, 35.48783], [-94.7978903, 35.4877621], [-94.7979125, 35.4877621], [-94.7979125, 35.4876512], [-94.7980276, 35.4876512]]]}, "properties": {"osm_id": 1023790731, "building": "house", "name": "", "height": null, "height_m": null, "levels": null, "tract_id": "40135030301", "tract_name": "303.01", "tags": {"building": "house"}}}, {"type": "Feature", "geometry": {"type": "Polygon", "coordinates": [[[-94.7981605, 35.4875652], [-94.7980628, 35.4875685], [-94.7980585, 35.4874848], [-94.7981562, 35.4874815], [-94.7981605, 35.4875652]]]}, "properties": {"osm_id": 1023790732, "building": "yes", "name": "", "height": null, "height_m": null, "levels": null, "tract_id": "40135030301", "tract_name": "303.01", "tags": {"building": "yes"}}}, {"type": "Feature", "geometry": {"type": "Polygon", "coordinates": [[[-94.7986152, 35.4876174], [-94.7985536, 35.4876119], [-94.7985596, 35.4875676], [-94.7986212, 35.4875731], [-94.7986152, 35.4876174]]]}, "properties": {"osm_id": 1023790733, "building": "yes", "name": "", "height": null, "height_m": null, "levels": null, "tract_id": "40135030301", "tract_name": "303.01", "tags": {"building": "yes"}}}, {"type": "Feature", "geometry": {"type": "Polygon", "coordinates": [[[-94.8084286, 35.4395031], [-94.8084284, 35.43943], [-94.8089676, 35.4394293], [-94.8089673, 35.4392935], [-94.8084323, 35.4392943], [-94.8084321, 35.4392201], [-94.8081046, 35.4392206], [-94.8081048, 35.4392938], [-94.8081554, 35.4392938], [-94.8081558, 35.4395034], [-94.8084286, 35.4395031]]]}, "properties": {"osm_id": 1176472917, "building": "yes", "name": "Cookson Hills Electric Cooperative", "height": null, "height_m": null, "levels": null, "tract_id": "40135030301", "tract_name": "303.01", "tags": {"addr:city": "Sallisaw", "addr:housenumber": "1800", "addr:postcode": "74955", "addr:state": "OK", "addr:street": "KOA/Power Drive", "building": "yes", "name": "Cookson Hills Electric Cooperative", "office": "energy_supplier", "opening_hours": "Mo-Fr 08:00-17:00", "phone": "918-775-2211", "website": "https://www.cooksonhills.com/"}}}, {"type": "Feature", "geometry": {"type": "Polygon", "coordinates": [[[-94.8070872, 35.4528155], [-94.8070751, 35.4526996], [-94.8066021, 35.4527326], [-94.8066149, 35.4528544], [-94.8067602, 35.4528443], [-94.8067627, 35.4528677], [-94.80689, 35.4528588], [-94.8068869, 35.4528294], [-94.8070872, 35.4528155]]]}, "properties": {"osm_id": 1176472918, "building": "yes", "name": "Braum's", "height": null, "height_m": null, "levels": null, "tract_id": "40135030301", "tract_name": "303.01", "tags": {"addr:city": "Sallisaw", "addr:housenumber": "615", "addr:postcode": "74955", "addr:state": "OK", "addr:street": "South Kerr Boulevard", "amenity": "fast_food", "brand": "Braum's", "brand:wikidata": "Q4958263", "building": "yes", "check_date": "2025-09-12", "cuisine": "ice_cream;burger", "name": "Braum's", "phone": "918.775.9965", "shop": "dairy", "takeaway": "yes", "website": "https://www.braums.com/store/615-s-kerr-blvd-sallisaw-ok/"}}}, {"type": "Feature", "geometry": {"type": "Polygon", "coordinates": [[[-94.806827, 35.4516596], [-94.8067949, 35.4515012], [-94.8065156, 35.4515388], [-94.8065122, 35.4515223], [-94.8064031, 35.4515369], [-94.8064064, 35.4515531], [-94.806316, 35.4515652], [-94.8063482, 35.451724], [-94.806827, 35.4516596]]]}, "properties": {"osm_id": 1205523290, "building": "retail", "name": "", "height": null, "height_m": null, "levels": null, "tract_id": "40135030301", "tract_name": "303.01", "tags": {"building": "retail"}}}, {"type": "Feature", "geometry": {"type": "Polygon", "coordinates": [[[-94.8065625, 35.4524938], [-94.8067215, 35.452474], [-94.8067025, 35.4523727], [-94.8066642, 35.4523775], [-94.8066375, 35.4522354], [-94.806489, 35.4522539], [-94.8065197, 35.4524176], [-94.8065475, 35.4524141], [-94.8065625, 35.4524938]]]}, "properties": {"osm_id": 1205523298, "building": "yes", "name": "", "height": null, "height_m": null, "levels": null, "tract_id": "40135030301", "tract_name": "303.01", "tags": {"building": "yes"}}}, {"type": "Feature", "geometry": {"type": "Polygon", "coordinates": [[[-94.8105624, 35.4388354], [-94.8105624, 35.4387266], [-94.8102599, 35.4387266], [-94.8102599, 35.4388355], [-94.8105624, 35.4388354]]]}, "properties": {"osm_id": 1205531195, "building": "retail", "name": "", "height": null, "height_m": null, "levels": null, "tract_id": "40135030301", "tract_name": "303.01", "tags": {"addr:housenumber": "1900", "addr:street": "KOA-Power Drive", "building": "retail"}}}, {"type": "Feature", "geometry": {"type": "Polygon", "coordinates": [[[-94.8101865, 35.438522], [-94.810184, 35.4383577], [-94.8100544, 35.4383565], [-94.8100554, 35.4385224], [-94.8101865, 35.438522]]]}, "properties": {"osm_id": 1205531196, "building": "shed", "name": "", "height": null, "height_m": null, "levels": null, "tract_id": "40135030301", "tract_name": "303.01", "tags": {"building": "shed"}}}, {"type": "Feature", "geometry": {"type": "Polygon", "coordinates": [[[-94.8099305, 35.4387235], [-94.8099298, 35.4386584], [-94.8100033, 35.4386578], [-94.8100041, 35.4387229], [-94.8099305, 35.4387235]]]}, "properties": {"osm_id": 1205531199, "building": "shed", "name": "", "height": null, "height_m": null, "levels": null, "tract_id": "40135030301", "tract_name": "303.01", "tags": {"building": "shed"}}}, {"type": "Feature", "geometry": {"type": "Polygon", "coordinates": [[[-94.810182, 35.438899], [-94.8101812, 35.4388639], [-94.8101123, 35.4388649], [-94.8101131, 35.4389], [-94.810182, 35.438899]]]}, "properties": {"osm_id": 1205531200, "building": "shed", "name": "", "height": null, "height_m": null, "levels": null, "tract_id": "40135030301", "tract_name": "303.01", "tags": {"building": "shed"}}}, {"type": "Feature", "geometry": {"type": "Polygon", "coordinates": [[[-94.8067605, 35.4387602], [-94.8067598, 35.4386628], [-94.8071439, 35.438661], [-94.8071424, 35.438432], [-94.8067621, 35.4384337], [-94.8067611, 35.4382867], [-94.8067278, 35.4382868], [-94.8067273, 35.4382166], [-94.806536, 35.4382174], [-94.8065364, 35.4382848], [-94.8064724, 35.4382851], [-94.8064747, 35.4386373], [-94.8063564, 35.4386378], [-94.8063573, 35.4387693], [-94.806507, 35.4387687], [-94.806507, 35.4387594], [-94.8065388, 35.4387592], [-94.8065389, 35.4387758], [-94.8067234, 35.438775], [-94.8067233, 35.4387603], [-94.8067605, 35.4387602]]]}, "properties": {"osm_id": 1242081652, "building": "retail", "name": "", "height": null, "height_m": null, "levels": null, "tract_id": "40135030301", "tract_name": "303.01", "tags": {"building": "retail"}}}, {"type": "Feature", "geometry": {"type": "Polygon", "coordinates": [[[-94.8067894, 35.4378393], [-94.8069631, 35.4378418], [-94.8069636, 35.4378203], [-94.8071923, 35.4378237], [-94.8072027, 35.4373546], [-94.8070086, 35.4373518], [-94.8070093, 35.4373221], [-94.8068008, 35.4373191], [-94.8067894, 35.4378393]]]}, "properties": {"osm_id": 1242081658, "building": "yes", "name": "", "height": null, "height_m": null, "levels": null, "tract_id": "40135030301", "tract_name": "303.01", "tags": {"building": "yes"}}}, {"type": "Feature", "geometry": {"type": "Polygon", "coordinates": [[[-94.8062419, 35.4397957], [-94.8062434, 35.4396859], [-94.8061883, 35.4396854], [-94.8061898, 35.4395704], [-94.806244, 35.4395709], [-94.8062454, 35.4394664], [-94.8064171, 35.439468], [-94.8064174, 35.439442], [-94.8064608, 35.4394424], [-94.8065064, 35.4394052], [-94.8065386, 35.4394315], [-94.8065909, 35.4394319], [-94.8065905, 35.4394708], [-94.8067525, 35.4394721], [-94.8067512, 35.4395817], [-94.8067795, 35.4395819], [-94.8067775, 35.4397543], [-94.8067531, 35.4397541], [-94.8067523, 35.4398132], [-94.8065036, 35.4398112], [-94.8065037, 35.4397979], [-94.8062419, 35.4397957]]]}, "properties": {"osm_id": 1242081670, "building": "yes", "name": "", "height": null, "height_m": null, "levels": null, "tract_id": "40135030301", "tract_name": "303.01", "tags": {"building": "yes"}}}, {"type": "Feature", "geometry": {"type": "Polygon", "coordinates": [[[-94.8070636, 35.4393496], [-94.8070687, 35.4391006], [-94.8068363, 35.4390975], [-94.8068312, 35.4393465], [-94.8070636, 35.4393496]]]}, "properties": {"osm_id": 1242081671, "building": "yes", "name": "", "height": null, "height_m": null, "levels": null, "tract_id": "40135030301", "tract_name": "303.01", "tags": {"building": "yes"}}}, {"type": "Feature", "geometry": {"type": "Polygon", "coordinates": [[[-94.8075197, 35.4398276], [-94.8075244, 35.4396834], [-94.8070952, 35.4396741], [-94.8070905, 35.4398183], [-94.8075197, 35.4398276]]]}, "properties": {"osm_id": 1242081672, "building": "yes", "name": "", "height": null, "height_m": null, "levels": null, "tract_id": "40135030301", "tract_name": "303.01", "tags": {"building": "yes"}}}, {"type": "Feature", "geometry": {"type": "Polygon", "coordinates": [[[-94.8086449, 35.4413906], [-94.8086451, 35.4412231], [-94.8088521, 35.4412233], [-94.8088519, 35.4413908], [-94.8086449, 35.4413906]]]}, "properties": {"osm_id": 1242081673, "building": "yes", "name": "", "height": null, "height_m": null, "levels": null, "tract_id": "40135030301", "tract_name": "303.01", "tags": {"building": "yes"}}}, {"type": "Feature", "geometry": {"type": "Polygon", "coordinates": [[[-94.8089346, 35.4411989], [-94.8089343, 35.4410791], [-94.8088547, 35.4410792], [-94.808855, 35.441199], [-94.8089346, 35.4411989]]]}, "properties": {"osm_id": 1242081674, "building": "yes", "name": "", "height": null, "height_m": null, "levels": null, "tract_id": "40135030301", "tract_name": "303.01", "tags": {"building": "yes"}}}, {"type": "Feature", "geometry": {"type": "Polygon", "coordinates": [[[-94.808242, 35.4410302], [-94.8083624, 35.4410399], [-94.8083684, 35.4409902], [-94.8083939, 35.4409923], [-94.8083996, 35.4409457], [-94.8083763, 35.4409438], [-94.8083874, 35.4408523], [-94.8082788, 35.4408436], [-94.8082697, 35.4409178], [-94.8082445, 35.4409158], [-94.8082356, 35.4409888], [-94.8082469, 35.4409897], [-94.808242, 35.4410302]]]}, "properties": {"osm_id": 1242081675, "building": "yes", "name": "", "height": null, "height_m": null, "levels": null, "tract_id": "40135030301", "tract_name": "303.01", "tags": {"building": "yes"}}}, {"type": "Feature", "geometry": {"type": "Polygon", "coordinates": [[[-94.808004, 35.4467179], [-94.8080093, 35.4464426], [-94.8076714, 35.4464368], [-94.8076696, 35.4467121], [-94.808004, 35.4467179]]]}, "properties": {"osm_id": 1242081677, "building": "industrial", "name": "", "height": null, "height_m": null, "levels": null, "tract_id": "40135030301", "tract_name": "303.01", "tags": {"addr:housenumber": "1615", "addr:street": "West Lenington Drive", "building": "industrial"}}}, {"type": "Feature", "geometry": {"type": "Polygon", "coordinates": [[[-94.8087451, 35.4469999], [-94.8087454, 35.4469783], [-94.8088217, 35.446979], [-94.8088219, 35.4469696], [-94.8088431, 35.4469698], [-94.8088437, 35.4469285], [-94.8088233, 35.4469283], [-94.8088268, 35.4466761], [-94.8086154, 35.4466742], [-94.8086124, 35.4468973], [-94.8085798, 35.446897], [-94.8085794, 35.4469282], [-94.8086104, 35.4469285], [-94.8086098, 35.4469778], [-94.808677, 35.4469783], [-94.8086767, 35.4469993], [-94.8087451, 35.4469999]]]}, "properties": {"osm_id": 1242081678, "building": "yes", "name": "", "height": null, "height_m": null, "levels": null, "tract_id": "40135030301", "tract_name": "303.01", "tags": {"building": "yes"}}}, {"type": "Feature", "geometry": {"type": "Polygon", "coordinates": [[[-94.807303, 35.4540101], [-94.8072623, 35.4538465], [-94.8068678, 35.4539116], [-94.8069085, 35.4540753], [-94.807303, 35.4540101]]]}, "properties": {"osm_id": 1242370826, "building": "yes", "name": "", "height": null, "height_m": null, "levels": null, "tract_id": "40135030301", "tract_name": "303.01", "tags": {"building": "yes"}}}, {"type": "Feature", "geometry": {"type": "Polygon", "coordinates": [[[-94.8069181, 35.4536666], [-94.8068813, 35.4535404], [-94.8067562, 35.4535646], [-94.8067929, 35.4536908], [-94.8069181, 35.4536666]]]}, "properties": {"osm_id": 1242370829, "building": "yes", "name": "", "height": null, "height_m": null, "levels": null, "tract_id": "40135030301", "tract_name": "303.01", "tags": {"building": "yes"}}}, {"type": "Feature", "geometry": {"type": "Polygon", "coordinates": [[[-94.807358, 35.4545408], [-94.8073606, 35.4547098], [-94.8071479, 35.454712], [-94.8071453, 35.454543], [-94.807358, 35.4545408]]]}, "properties": {"osm_id": 1242370830, "building": "retail", "name": "", "height": null, "height_m": null, "levels": null, "tract_id": "40135030301", "tract_name": "303.01", "tags": {"building": "retail"}}}, {"type": "Feature", "geometry": {"type": "Polygon", "coordinates": [[[-94.807564, 35.4546744], [-94.8075651, 35.454756], [-94.8078346, 35.4547536], [-94.807833, 35.4546397], [-94.8076671, 35.4546412], [-94.8076675, 35.4546735], [-94.807564, 35.4546744]]]}, "properties": {"osm_id": 1242370831, "building": "yes", "name": "", "height": null, "height_m": null, "levels": null, "tract_id": "40135030301", "tract_name": "303.01", "tags": {"building": "yes"}}}, {"type": "Feature", "geometry": {"type": "Polygon", "coordinates": [[[-94.8074507, 35.4550271], [-94.8074498, 35.454942], [-94.8074633, 35.4549419], [-94.8074629, 35.4549062], [-94.8073655, 35.4549069], [-94.8073654, 35.454891], [-94.8072825, 35.4548916], [-94.8072827, 35.4549099], [-94.8071666, 35.4549107], [-94.8071677, 35.4550184], [-94.8073057, 35.4550175], [-94.8073059, 35.4550348], [-94.8073355, 35.4550346], [-94.8073355, 35.4550279], [-94.8074507, 35.4550271]]]}, "properties": {"osm_id": 1242370833, "building": "yes", "name": "", "height": null, "height_m": null, "levels": null, "tract_id": "40135030301", "tract_name": "303.01", "tags": {"building": "yes"}}}, {"type": "Feature", "geometry": {"type": "Polygon", "coordinates": [[[-94.8076761, 35.4555474], [-94.8076766, 35.4553266], [-94.8075273, 35.4553264], [-94.8075271, 35.4554165], [-94.8074733, 35.4554164], [-94.8074732, 35.4554712], [-94.8075302, 35.4554713], [-94.8075301, 35.4555472], [-94.8076761, 35.4555474]]]}, "properties": {"osm_id": 1242370834, "building": "yes", "name": "", "height": null, "height_m": null, "levels": null, "tract_id": "40135030301", "tract_name": "303.01", "tags": {"building": "yes"}}}, {"type": "Feature", "geometry": {"type": "Polygon", "coordinates": [[[-94.8074075, 35.4535959], [-94.8073805, 35.4534662], [-94.8074206, 35.4534607], [-94.8074182, 35.4534489], [-94.8074414, 35.4534457], [-94.8074442, 35.4534589], [-94.8075229, 35.453448], [-94.8075457, 35.4535577], [-94.8074859, 35.4535659], [-94.8074898, 35.4535846], [-94.8074075, 35.4535959]]]}, "properties": {"osm_id": 1242370860, "building": "yes", "name": "", "height": null, "height_m": null, "levels": null, "tract_id": "40135030301", "tract_name": "303.01", "tags": {"building": "yes"}}}, {"type": "Feature", "geometry": {"type": "Polygon", "coordinates": [[[-94.8154399, 35.4559702], [-94.8151872, 35.4557626], [-94.8152558, 35.4557072], [-94.8151901, 35.4556533], [-94.8152604, 35.4555965], [-94.8151858, 35.4555354], [-94.8154489, 35.4553226], [-94.8157986, 35.4556096], [-94.81573, 35.455665], [-94.8157566, 35.4556868], [-94.8157242, 35.4557131], [-94.8157457, 35.4557232], [-94.8154399, 35.4559702]]]}, "properties": {"osm_id": 1242373545, "building": "yes", "name": "", "height": null, "height_m": null, "levels": null, "tract_id": "40135030301", "tract_name": "303.01", "tags": {"building": "yes"}}}, {"type": "Feature", "geometry": {"type": "Polygon", "coordinates": [[[-94.8176127, 35.4558429], [-94.8171447, 35.4558422], [-94.8171448, 35.4557953], [-94.8170864, 35.4557953], [-94.8170865, 35.4557785], [-94.8170088, 35.4557784], [-94.8170088, 35.4557522], [-94.8169215, 35.4557522], [-94.8169214, 35.4558547], [-94.8166487, 35.4557083], [-94.8165348, 35.4557078], [-94.8165355, 35.455598], [-94.8166623, 35.4555985], [-94.8166633, 35.4554566], [-94.8169383, 35.4554578], [-94.8169385, 35.4554266], [-94.8170869, 35.4554273], [-94.8170872, 35.4553694], [-94.8176722, 35.4553718], [-94.817672, 35.4554174], [-94.8176853, 35.4554174], [-94.8176851, 35.4554645], [-94.8176707, 35.4554645], [-94.8176706, 35.4555044], [-94.8177999, 35.4555047], [-94.8177996, 35.4556212], [-94.8176742, 35.4556209], [-94.817674, 35.4556834], [-94.8176131, 35.4556833], [-94.8176127, 35.4558429]]]}, "properties": {"osm_id": 1242373546, "building": "yes", "name": "", "height": null, "height_m": null, "levels": null, "tract_id": "40135030301", "tract_name": "303.01", "tags": {"building": "yes"}}}, {"type": "Feature", "geometry": {"type": "Polygon", "coordinates": [[[-94.8170128, 35.4549478], [-94.8170139, 35.4547386], [-94.81678, 35.4547378], [-94.8167791, 35.4548943], [-94.8167278, 35.4548941], [-94.8167276, 35.4549361], [-94.8167841, 35.4549363], [-94.8167841, 35.4549469], [-94.8170128, 35.4549478]]]}, "properties": {"osm_id": 1242373547, "building": "yes", "name": "", "height": null, "height_m": null, "levels": null, "tract_id": "40135030301", "tract_name": "303.01", "tags": {"building": "yes"}}}, {"type": "Feature", "geometry": {"type": "Polygon", "coordinates": [[[-94.8065371, 35.4460707], [-94.8065334, 35.4457566], [-94.806404, 35.4457579], [-94.8064026, 35.4457508], [-94.8063773, 35.4457449], [-94.8063521, 35.4457423], [-94.8063269, 35.445746], [-94.8063016, 35.4457521], [-94.8062976, 35.4458325], [-94.806259, 35.4458321], [-94.8062487, 35.4458728], [-94.806245, 35.4459122], [-94.806248, 35.4459545], [-94.8062658, 35.4459994], [-94.8062989, 35.4459994], [-94.8062993, 35.4460709], [-94.8065371, 35.4460707]]]}, "properties": {"osm_id": 1429757937, "building": "yes", "name": "QuikTrip", "height": null, "height_m": null, "levels": null, "tract_id": "40135030301", "tract_name": "303.01", "tags": {"addr:city": "Sallisaw", "addr:housenumber": "1504", "addr:postcode": "74955", "addr:state": "OK", "addr:street": "Lenington Road", "brand": "QuikTrip", "brand:wikidata": "Q7271953", "building": "yes", "name": "QuikTrip", "shop": "convenience", "short_name": "QT"}}}]}