{"type": "FeatureCollection", "features": [{"type": "Feature", "geometry": {"type": "Polygon", "coordinates": [[[-97.4143541, 34.1721371], [-97.4136931, 34.1721372], [-97.4136931, 34.1719029], [-97.4143541, 34.171903], [-97.4143541, 34.1721371]]]}, "properties": {"osm_id": 1010159451, "building": "yes", "name": "Black Gold Casino", "height": null, "height_m": null, "levels": null, "tract_id": "40019892400", "tract_name": "8924", "tags": {"addr:city": "Wilson", "addr:housenumber": "288", "addr:postcode": "73463", "addr:state": "OK", "addr:street": "Mulberry Lane", "amenity": "casino", "building": "yes", "name": "Black Gold Casino"}}}, {"type": "Feature", "geometry": {"type": "Polygon", "coordinates": [[[-97.4245783, 34.1623562], [-97.4245656, 34.162285], [-97.4243222, 34.1623146], [-97.4243349, 34.1623859], [-97.4245783, 34.1623562]]]}, "properties": {"osm_id": 1026662301, "building": "yes", "name": "Wilson Historical Museum", "height": null, "height_m": null, "levels": null, "tract_id": "40019892400", "tract_name": "8924", "tags": {"addr:city": "Wilson", "addr:housenumber": "1270", "addr:postcode": "73463", "addr:state": "OK", "addr:street": "East Main Street", "building": "yes", "name": "Wilson Historical Museum", "tourism": "museum", "website": "https://www.wilsonhistoricalmuseum.org/"}}}, {"type": "Feature", "geometry": {"type": "Polygon", "coordinates": [[[-97.4239893, 34.1624809], [-97.4239756, 34.1624026], [-97.4238252, 34.1624206], [-97.4238388, 34.1624989], [-97.4239893, 34.1624809]]]}, "properties": {"osm_id": 1058211065, "building": "yes", "name": "", "height": null, "height_m": null, "levels": null, "tract_id": "40019892400", "tract_name": "8924", "tags": {"addr:city": "Wilson", "addr:housenumber": "1012", "addr:postcode": "73463", "addr:state": "OK", "addr:street": "US Highway 70A", "building": "yes", "clli": "WLSNOKMA", "telecom": "exchange"}}}, {"type": "Feature", "geometry": {"type": "Polygon", "coordinates": [[[-97.4043228, 34.1896834], [-97.4043215, 34.1895135], [-97.4041646, 34.1895135], [-97.4041658, 34.1896855], [-97.4043228, 34.1896834]]]}, "properties": {"osm_id": 1128070097, "building": "yes", "name": "Dillard Volunteer Fire Station", "height": null, "height_m": null, "levels": null, "tract_id": "40019892400", "tract_name": "8924", "tags": {"addr:city": "Wilson", "addr:housenumber": "8050", "addr:postcode": "73463", "addr:state": "OK", "addr:street": "Dillard Road", "amenity": "fire_station", "building": "yes", "name": "Dillard Volunteer Fire Station", "operator": "Dillard Volunteer Fire Department"}}}, {"type": "Feature", "geometry": {"type": "Polygon", "coordinates": [[[-97.4248754, 34.162018], [-97.4247016, 34.1620369], [-97.4246438, 34.1616737], [-97.4248178, 34.1616548], [-97.4248754, 34.162018]]]}, "properties": {"osm_id": 1170046747, "building": "yes", "name": "", "height": null, "height_m": null, "levels": null, "tract_id": "40019892400", "tract_name": "8924", "tags": {"amenity": "townhall", "building": "yes", "townhall:type": "city"}}}, {"type": "Feature", "geometry": {"type": "Polygon", "coordinates": [[[-97.4253357, 34.161877], [-97.4252636, 34.1618857], [-97.425268, 34.1619107], [-97.4251827, 34.161921], [-97.4251789, 34.1618991], [-97.4250192, 34.1619184], [-97.4249971, 34.1617933], [-97.4253141, 34.161755], [-97.4253357, 34.161877]]]}, "properties": {"osm_id": 1170046748, "building": "yes", "name": "Wilson Public Library", "height": null, "height_m": null, "levels": null, "tract_id": "40019892400", "tract_name": "8924", "tags": {"amenity": "library", "building": "yes", "name": "Wilson Public Library", "operator": "Southern Oklahoma Library System", "operator:type": "public"}}}, {"type": "Feature", "geometry": {"type": "Polygon", "coordinates": [[[-97.4257943, 34.1624856], [-97.4256307, 34.1625062], [-97.4256083, 34.1623846], [-97.4255686, 34.1621686], [-97.425566, 34.1621544], [-97.4257295, 34.1621338], [-97.4257943, 34.1624856]]]}, "properties": {"osm_id": 1170046749, "building": "warehouse", "name": "", "height": null, "height_m": null, "levels": null, "tract_id": "40019892400", "tract_name": "8924", "tags": {"building": "warehouse"}}}, {"type": "Feature", "geometry": {"type": "Polygon", "coordinates": [[[-97.4241768, 34.1625751], [-97.4240484, 34.1625914], [-97.4240151, 34.1624113], [-97.4241434, 34.1623951], [-97.4241768, 34.1625751]]]}, "properties": {"osm_id": 1170046750, "building": "yes", "name": "", "height": null, "height_m": null, "levels": null, "tract_id": "40019892400", "tract_name": "8924", "tags": {"building": "yes"}}}, {"type": "Feature", "geometry": {"type": "Polygon", "coordinates": [[[-97.4245509, 34.1626351], [-97.4244218, 34.1626509], [-97.4243789, 34.1624109], [-97.424508, 34.1623951], [-97.4245509, 34.1626351]]]}, "properties": {"osm_id": 1170046751, "building": "yes", "name": "Wilson Fire Department", "height": null, "height_m": null, "levels": null, "tract_id": "40019892400", "tract_name": "8924", "tags": {"amenity": "fire_station", "building": "yes", "name": "Wilson Fire Department"}}}, {"type": "Feature", "geometry": {"type": "Polygon", "coordinates": [[[-97.4249631, 34.1624918], [-97.4248062, 34.1625119], [-97.4247596, 34.1622629], [-97.4249165, 34.1622427], [-97.4249631, 34.1624918]]]}, "properties": {"osm_id": 1170046752, "building": "yes", "name": "", "height": null, "height_m": null, "levels": null, "tract_id": "40019892400", "tract_name": "8924", "tags": {"building": "yes"}}}, {"type": "Feature", "geometry": {"type": "Polygon", "coordinates": [[[-97.4250962, 34.162323], [-97.4249516, 34.1623417], [-97.4249335, 34.162246], [-97.4250781, 34.1622273], [-97.4250962, 34.162323]]]}, "properties": {"osm_id": 1170046753, "building": "yes", "name": "", "height": null, "height_m": null, "levels": null, "tract_id": "40019892400", "tract_name": "8924", "tags": {"building": "yes"}}}, {"type": "Feature", "geometry": {"type": "Polygon", "coordinates": [[[-97.4258945, 34.1628252], [-97.4255467, 34.1628725], [-97.4254955, 34.1626144], [-97.4258433, 34.1625672], [-97.4258945, 34.1628252]]]}, "properties": {"osm_id": 1170046754, "building": "yes", "name": "", "height": null, "height_m": null, "levels": null, "tract_id": "40019892400", "tract_name": "8924", "tags": {"building": "yes"}}}, {"type": "Feature", "geometry": {"type": "Polygon", "coordinates": [[[-97.4273312, 34.1616116], [-97.4271701, 34.1616361], [-97.427154, 34.1615638], [-97.4272039, 34.1615562], [-97.4271899, 34.1614933], [-97.4273012, 34.1614764], [-97.4273312, 34.1616116]]]}, "properties": {"osm_id": 1170046755, "building": "yes", "name": "OJs", "height": null, "height_m": null, "levels": null, "tract_id": "40019892400", "tract_name": "8924", "tags": {"building": "yes", "name": "OJs", "shop": "convenience"}}}, {"type": "Feature", "geometry": {"type": "Polygon", "coordinates": [[[-97.4260716, 34.1612887], [-97.42606, 34.161223], [-97.425842, 34.1612493], [-97.4258536, 34.1613149], [-97.4260716, 34.1612887]]]}, "properties": {"osm_id": 1170046756, "building": "yes", "name": "", "height": null, "height_m": null, "levels": null, "tract_id": "40019892400", "tract_name": "8924", "tags": {"building": "yes"}}}, {"type": "Feature", "geometry": {"type": "Polygon", "coordinates": [[[-97.4253666, 34.1614362], [-97.4253492, 34.1613355], [-97.4252408, 34.1613483], [-97.4252582, 34.1614491], [-97.4253666, 34.1614362]]]}, "properties": {"osm_id": 1170046757, "building": "yes", "name": "", "height": null, "height_m": null, "levels": null, "tract_id": "40019892400", "tract_name": "8924", "tags": {"building": "yes"}}}, {"type": "Feature", "geometry": {"type": "Polygon", "coordinates": [[[-97.427684, 34.1621362], [-97.4276415, 34.1618983], [-97.4274298, 34.1619234], [-97.427467, 34.1621098], [-97.4275823, 34.1620954], [-97.4275914, 34.1621431], [-97.427684, 34.1621362]]]}, "properties": {"osm_id": 1204773337, "building": "yes", "name": "Wilson Post Office", "height": null, "height_m": null, "levels": null, "tract_id": "40019892400", "tract_name": "8924", "tags": {"amenity": "post_office", "building": "yes", "name": "Wilson Post Office", "operator": "United States Postal Service", "operator:short": "USPS", "operator:type": "public", "operator:website": "https://www.usps.com", "operator:wikidata": "Q668687", "operator:wikipedia": "en:United States Postal Service"}}}, {"type": "Feature", "geometry": {"type": "Polygon", "coordinates": [[[-97.4272657, 34.1620873], [-97.427207, 34.1620952], [-97.4271802, 34.1619548], [-97.4272434, 34.1619479], [-97.4272657, 34.1620873]]]}, "properties": {"osm_id": 1204773338, "building": "yes", "name": "Blondell's", "height": null, "height_m": null, "levels": null, "tract_id": "40019892400", "tract_name": "8924", "tags": {"building": "yes", "name": "Blondell's", "shop": "florist"}}}, {"type": "Feature", "geometry": {"type": "Polygon", "coordinates": [[[-97.4269523, 34.1622993], [-97.4268704, 34.1623088], [-97.4268367, 34.1621211], [-97.4268167, 34.1620099], [-97.4268949, 34.1619997], [-97.4269523, 34.1622993]]]}, "properties": {"osm_id": 1204773339, "building": "warehouse", "name": "", "height": null, "height_m": null, "levels": null, "tract_id": "40019892400", "tract_name": "8924", "tags": {"building": "warehouse"}}}, {"type": "Feature", "geometry": {"type": "Polygon", "coordinates": [[[-97.4267555, 34.1621293], [-97.4268367, 34.1621211], [-97.4268167, 34.1620099], [-97.4267361, 34.1620201], [-97.4267555, 34.1621293]]]}, "properties": {"osm_id": 1204773340, "building": "yes", "name": "", "height": null, "height_m": null, "levels": null, "tract_id": "40019892400", "tract_name": "8924", "tags": {"building": "yes", "shop": "cannabis"}}}, {"type": "Feature", "geometry": {"type": "Polygon", "coordinates": [[[-97.4266992, 34.1623019], [-97.4266487, 34.1620302], [-97.4264845, 34.1620488], [-97.4265305, 34.1623243], [-97.4266992, 34.1623019]]]}, "properties": {"osm_id": 1204773341, "building": "yes", "name": "", "height": null, "height_m": null, "levels": null, "tract_id": "40019892400", "tract_name": "8924", "tags": {"building": "yes", "shop": "vacant"}}}, {"type": "Feature", "geometry": {"type": "Polygon", "coordinates": [[[-97.4265305, 34.1623243], [-97.4264613, 34.1623351], [-97.4264377, 34.1622234], [-97.4264069, 34.1620582], [-97.4264845, 34.1620488], [-97.4265305, 34.1623243]]]}, "properties": {"osm_id": 1204773342, "building": "yes", "name": "", "height": null, "height_m": null, "levels": null, "tract_id": "40019892400", "tract_name": "8924", "tags": {"building": "yes", "shop": "vacant"}}}, {"type": "Feature", "geometry": {"type": "Polygon", "coordinates": [[[-97.4264782, 34.1624154], [-97.4263032, 34.1624378], [-97.4262362, 34.1620846], [-97.4264069, 34.1620582], [-97.4264377, 34.1622234], [-97.4264613, 34.1623351], [-97.4264782, 34.1624154]]]}, "properties": {"osm_id": 1204773343, "building": "yes", "name": "Mashore's", "height": null, "height_m": null, "levels": null, "tract_id": "40019892400", "tract_name": "8924", "tags": {"building": "yes", "name": "Mashore's", "shop": "department_store"}}}, {"type": "Feature", "geometry": {"type": "Polygon", "coordinates": [[[-97.426271, 34.1623856], [-97.4262474, 34.1622493], [-97.426065, 34.1622759], [-97.4260779, 34.1623447], [-97.4261541, 34.1623367], [-97.4261669, 34.1623971], [-97.426271, 34.1623856]]]}, "properties": {"osm_id": 1204773344, "building": "yes", "name": "Advanced Radiator Service", "height": null, "height_m": null, "levels": null, "tract_id": "40019892400", "tract_name": "8924", "tags": {"building": "yes", "name": "Advanced Radiator Service", "shop": "car_repair"}}}, {"type": "Feature", "geometry": {"type": "Polygon", "coordinates": [[[-97.4255686, 34.1621686], [-97.4254954, 34.1621791], [-97.4255318, 34.1623925], [-97.4256083, 34.1623846], [-97.4255686, 34.1621686]]]}, "properties": {"osm_id": 1204773345, "building": "yes", "name": "", "height": null, "height_m": null, "levels": null, "tract_id": "40019892400", "tract_name": "8924", "tags": {"beauty": "tanning", "building": "yes", "shop": "beauty"}}}, {"type": "Feature", "geometry": {"type": "Polygon", "coordinates": [[[-97.425547, 34.1625086], [-97.4254635, 34.1625181], [-97.4254044, 34.1621872], [-97.4254954, 34.1621791], [-97.4255318, 34.1623925], [-97.425547, 34.1625086]]]}, "properties": {"osm_id": 1204773346, "building": "yes", "name": "Wilson Chamber of Commerce", "height": null, "height_m": null, "levels": null, "tract_id": "40019892400", "tract_name": "8924", "tags": {"amenity": "townhall", "building": "yes", "name": "Wilson Chamber of Commerce", "townhall:type": "city"}}}, {"type": "Feature", "geometry": {"type": "Polygon", "coordinates": [[[-97.4280469, 34.1615728], [-97.4280094, 34.1613384], [-97.4277616, 34.1613713], [-97.4277701, 34.1614059], [-97.4276811, 34.1614183], [-97.4277036, 34.1615124], [-97.4277873, 34.1615009], [-97.427797, 34.1615408], [-97.4278914, 34.1615328], [-97.4279042, 34.1615923], [-97.4280469, 34.1615728]]]}, "properties": {"osm_id": 1204795992, "building": "yes", "name": "American National Bank", "height": null, "height_m": null, "levels": null, "tract_id": "40019892400", "tract_name": "8924", "tags": {"amenity": "bank", "building": "yes", "name": "American National Bank", "operator": "American National"}}}, {"type": "Feature", "geometry": {"type": "Polygon", "coordinates": [[[-97.4269328, 34.1617679], [-97.4268849, 34.1615235], [-97.4268033, 34.1615314], [-97.4268466, 34.1617532], [-97.4268511, 34.1617763], [-97.4269328, 34.1617679]]]}, "properties": {"osm_id": 1204795993, "building": "yes", "name": "", "height": null, "height_m": null, "levels": null, "tract_id": "40019892400", "tract_name": "8924", "tags": {"building": "yes", "shop": "vacant"}}}, {"type": "Feature", "geometry": {"type": "Polygon", "coordinates": [[[-97.4268511, 34.1617763], [-97.4267669, 34.1617853], [-97.4267248, 34.1615166], [-97.4268001, 34.1615092], [-97.4268033, 34.1615314], [-97.4268466, 34.1617532], [-97.4268511, 34.1617763]]]}, "properties": {"osm_id": 1204795994, "building": "yes", "name": "", "height": null, "height_m": null, "levels": null, "tract_id": "40019892400", "tract_name": "8924", "tags": {"building": "yes", "shop": "vacant"}}}, {"type": "Feature", "geometry": {"type": "Polygon", "coordinates": [[[-97.4267669, 34.1617853], [-97.4266911, 34.1617969], [-97.4266418, 34.1615266], [-97.4267248, 34.1615166], [-97.4267669, 34.1617853]]]}, "properties": {"osm_id": 1204795995, "building": "yes", "name": "", "height": null, "height_m": null, "levels": null, "tract_id": "40019892400", "tract_name": "8924", "tags": {"building": "yes", "shop": "vacant"}}}, {"type": "Feature", "geometry": {"type": "Polygon", "coordinates": [[[-97.4265244, 34.1618209], [-97.4264423, 34.1618313], [-97.4264111, 34.1616344], [-97.4263969, 34.1615451], [-97.4264727, 34.161538], [-97.4265244, 34.1618209]]]}, "properties": {"osm_id": 1204795996, "building": "yes", "name": "NAPA Auto Parts", "height": null, "height_m": null, "levels": null, "tract_id": "40019892400", "tract_name": "8924", "tags": {"brand": "NAPA Auto Parts", "brand:wikidata": "Q6970842", "building": "yes", "name": "NAPA Auto Parts", "shop": "car_parts"}}}, {"type": "Feature", "geometry": {"type": "Polygon", "coordinates": [[[-97.4264423, 34.1618313], [-97.4264111, 34.1616344], [-97.426327, 34.1616424], [-97.4263322, 34.1616743], [-97.4263437, 34.1617451], [-97.4263595, 34.161842], [-97.4264423, 34.1618313]]]}, "properties": {"osm_id": 1204795997, "building": "retail", "name": "", "height": null, "height_m": null, "levels": null, "tract_id": "40019892400", "tract_name": "8924", "tags": {"building": "retail"}}}, {"type": "Feature", "geometry": {"type": "Polygon", "coordinates": [[[-97.4263595, 34.161842], [-97.4262804, 34.1618525], [-97.4262517, 34.1616836], [-97.4263322, 34.1616743], [-97.4263437, 34.1617451], [-97.4263595, 34.161842]]]}, "properties": {"osm_id": 1204795998, "building": "retail", "name": "", "height": null, "height_m": null, "levels": null, "tract_id": "40019892400", "tract_name": "8924", "tags": {"building": "retail"}}}, {"type": "Feature", "geometry": {"type": "Polygon", "coordinates": [[[-97.4262804, 34.1618525], [-97.4261985, 34.1618619], [-97.4261548, 34.1616122], [-97.42624, 34.1616089], [-97.4262517, 34.1616836], [-97.4262804, 34.1618525]]]}, "properties": {"osm_id": 1204795999, "building": "yes", "name": "Joliff Coffee", "height": null, "height_m": null, "levels": null, "tract_id": "40019892400", "tract_name": "8924", "tags": {"building": "yes", "name": "Joliff Coffee", "shop": "coffee"}}}, {"type": "Feature", "geometry": {"type": "Polygon", "coordinates": [[[-97.4261985, 34.1618619], [-97.4261196, 34.1618698], [-97.4260766, 34.1616434], [-97.4260719, 34.1616186], [-97.4261548, 34.1616122], [-97.4261985, 34.1618619]]]}, "properties": {"osm_id": 1204796000, "building": "retail", "name": "", "height": null, "height_m": null, "levels": null, "tract_id": "40019892400", "tract_name": "8924", "tags": {"building": "retail"}}}, {"type": "Feature", "geometry": {"type": "Polygon", "coordinates": [[[-97.4261196, 34.1618698], [-97.4260353, 34.1618795], [-97.4259997, 34.1616675], [-97.426048, 34.1616622], [-97.4260466, 34.1616458], [-97.4260766, 34.1616434], [-97.4261196, 34.1618698]]]}, "properties": {"osm_id": 1204796001, "building": "retail", "name": "", "height": null, "height_m": null, "levels": null, "tract_id": "40019892400", "tract_name": "8924", "tags": {"building": "retail"}}}, {"type": "Feature", "geometry": {"type": "Polygon", "coordinates": [[[-97.4260353, 34.1618795], [-97.4259505, 34.1618922], [-97.4259185, 34.1616764], [-97.4259997, 34.1616675], [-97.4260353, 34.1618795]]]}, "properties": {"osm_id": 1204796002, "building": "retail", "name": "", "height": null, "height_m": null, "levels": null, "tract_id": "40019892400", "tract_name": "8924", "tags": {"building": "retail"}}}, {"type": "Feature", "geometry": {"type": "Polygon", "coordinates": [[[-97.4256124, 34.1619366], [-97.4255276, 34.1619473], [-97.4254992, 34.161811], [-97.4255914, 34.1618008], [-97.4256124, 34.1619366]]]}, "properties": {"osm_id": 1204796003, "building": "yes", "name": "Daylight Donuts", "height": null, "height_m": null, "levels": null, "tract_id": "40019892400", "tract_name": "8924", "tags": {"amenity": "fast_food", "brand": "Daylight Donuts", "brand:wikidata": "Q48970508", "building": "yes", "cuisine": "donut", "name": "Daylight Donuts", "takeaway": "yes"}}}, {"type": "Feature", "geometry": {"type": "Polygon", "coordinates": [[[-97.4255276, 34.1619473], [-97.4254498, 34.1619584], [-97.4254074, 34.1617422], [-97.4254799, 34.1617311], [-97.4254992, 34.161811], [-97.4255276, 34.1619473]]]}, "properties": {"osm_id": 1204796004, "building": "yes", "name": "K.D. Pecan Shop", "height": null, "height_m": null, "levels": null, "tract_id": "40019892400", "tract_name": "8924", "tags": {"building": "yes", "name": "K.D. Pecan Shop", "shop": "nuts"}}}, {"type": "Feature", "geometry": {"type": "Polygon", "coordinates": [[[-97.4254198, 34.1619616], [-97.4254249, 34.1619374], [-97.4254144, 34.1619201], [-97.4253406, 34.1619258], [-97.425342, 34.1619469], [-97.4253471, 34.16197], [-97.4254198, 34.1619616]]]}, "properties": {"osm_id": 1204796005, "building": "yes", "name": "Tisha's Sno Ball", "height": null, "height_m": null, "levels": null, "tract_id": "40019892400", "tract_name": "8924", "tags": {"building": "yes", "name": "Tisha's Sno Ball", "shop": "frozen_food"}}}, {"type": "Feature", "geometry": {"type": "Polygon", "coordinates": [[[-97.4243381, 34.1619377], [-97.4241556, 34.1619588], [-97.4241199, 34.1617434], [-97.4242947, 34.161717], [-97.4243381, 34.1619377]]]}, "properties": {"osm_id": 1204796006, "building": "yes", "name": "Super C Mart", "height": null, "height_m": null, "levels": null, "tract_id": "40019892400", "tract_name": "8924", "tags": {"building": "yes", "name": "Super C Mart", "shop": "supermarket"}}}, {"type": "Feature", "geometry": {"type": "Polygon", "coordinates": [[[-97.4247852, 34.1614698], [-97.4246047, 34.1614955], [-97.4245668, 34.1612752], [-97.4246897, 34.1612626], [-97.4246715, 34.1611942], [-97.4248141, 34.1611709], [-97.4248421, 34.1612946], [-97.4248543, 34.1613894], [-97.424767, 34.1613963], [-97.4247852, 34.1614698]]]}, "properties": {"osm_id": 1204796008, "building": "warehouse", "name": "", "height": null, "height_m": null, "levels": null, "tract_id": "40019892400", "tract_name": "8924", "tags": {"building": "warehouse"}}}, {"type": "Feature", "geometry": {"type": "Polygon", "coordinates": [[[-97.4284511, 34.1615262], [-97.4284283, 34.1613787], [-97.4283274, 34.1613894], [-97.4283517, 34.1615356], [-97.4284511, 34.1615262]]]}, "properties": {"osm_id": 1204796009, "building": "yes", "name": "Potrillos", "height": null, "height_m": null, "levels": null, "tract_id": "40019892400", "tract_name": "8924", "tags": {"amenity": "restaurant", "building": "yes", "cuisine": "mexican", "name": "Potrillos"}}}, {"type": "Feature", "geometry": {"type": "Polygon", "coordinates": [[[-97.4281871, 34.1619774], [-97.4281758, 34.161902], [-97.4279724, 34.1619272], [-97.4279884, 34.1620006], [-97.4281871, 34.1619774]]]}, "properties": {"osm_id": 1204803790, "building": "yes", "name": "", "height": null, "height_m": null, "levels": null, "tract_id": "40019892400", "tract_name": "8924", "tags": {"building": "yes", "shop": "vacant"}}}, {"type": "Feature", "geometry": {"type": "Polygon", "coordinates": [[[-97.4281674, 34.1618838], [-97.4281583, 34.1618292], [-97.4280938, 34.1618368], [-97.4281022, 34.1618889], [-97.4281674, 34.1618838]]]}, "properties": {"osm_id": 1204803791, "building": "yes", "name": "", "height": null, "height_m": null, "levels": null, "tract_id": "40019892400", "tract_name": "8924", "tags": {"building": "yes", "shop": "vacant"}}}, {"type": "Feature", "geometry": {"type": "Polygon", "coordinates": [[[-97.4285394, 34.1529422], [-97.4284089, 34.1529384], [-97.4284135, 34.1528869], [-97.4284385, 34.1528876], [-97.4284385, 34.1528129], [-97.4285462, 34.152811], [-97.4285394, 34.1529422]]]}, "properties": {"osm_id": 1204803792, "building": "house", "name": "", "height": null, "height_m": null, "levels": null, "tract_id": "40019892400", "tract_name": "8924", "tags": {"addr:city": "Wilson", "addr:housenumber": "616", "addr:state": "OK", "addr:street": "Persimmon Street", "building": "house"}}}, {"type": "Feature", "geometry": {"type": "Polygon", "coordinates": [[[-97.427887, 34.1527589], [-97.4277876, 34.1527601], [-97.4277747, 34.1526032], [-97.4278855, 34.1526013], [-97.4278885, 34.1526434], [-97.4279264, 34.1526465], [-97.427928, 34.1527256], [-97.4278877, 34.1527256], [-97.427887, 34.1527589]]]}, "properties": {"osm_id": 1204803793, "building": "house", "name": "", "height": null, "height_m": null, "levels": null, "tract_id": "40019892400", "tract_name": "8924", "tags": {"building": "house"}}}, {"type": "Feature", "geometry": {"type": "Polygon", "coordinates": [[[-97.428454, 34.1534665], [-97.4284621, 34.1533067], [-97.4283619, 34.1533008], [-97.4283574, 34.1534665], [-97.428454, 34.1534665]]]}, "properties": {"osm_id": 1204803794, "building": "house", "name": "", "height": null, "height_m": null, "levels": null, "tract_id": "40019892400", "tract_name": "8924", "tags": {"building": "house"}}}, {"type": "Feature", "geometry": {"type": "Polygon", "coordinates": [[[-97.4283502, 34.1532858], [-97.4282428, 34.1532836], [-97.4282492, 34.153197], [-97.4283538, 34.153203], [-97.4283502, 34.1532858]]]}, "properties": {"osm_id": 1204803795, "building": "garage", "name": "", "height": null, "height_m": null, "levels": null, "tract_id": "40019892400", "tract_name": "8924", "tags": {"building": "garage"}}}, {"type": "Feature", "geometry": {"type": "Polygon", "coordinates": [[[-97.4279259, 34.1540293], [-97.4276722, 34.1540271], [-97.4276754, 34.153945], [-97.427927, 34.1539481], [-97.4279259, 34.1540293]]]}, "properties": {"osm_id": 1204803796, "building": "static_caravan", "name": "", "height": null, "height_m": null, "levels": null, "tract_id": "40019892400", "tract_name": "8924", "tags": {"building": "static_caravan"}}}, {"type": "Feature", "geometry": {"type": "Polygon", "coordinates": [[[-97.4289812, 34.153523], [-97.4288772, 34.1535203], [-97.4288825, 34.1534378], [-97.4288557, 34.1534378], [-97.4288546, 34.1533836], [-97.4288836, 34.1533809], [-97.4288836, 34.1533188], [-97.428978, 34.1533179], [-97.4289801, 34.1533481], [-97.429008, 34.1533481], [-97.4290059, 34.1534138], [-97.4289866, 34.1534102], [-97.4289812, 34.153523]]]}, "properties": {"osm_id": 1204803797, "building": "house", "name": "", "height": null, "height_m": null, "levels": null, "tract_id": "40019892400", "tract_name": "8924", "tags": {"building": "house"}}}, {"type": "Feature", "geometry": {"type": "Polygon", "coordinates": [[[-97.4288975, 34.153958], [-97.4287548, 34.1539509], [-97.428757, 34.1538177], [-97.4288997, 34.1538204], [-97.4288975, 34.153958]]]}, "properties": {"osm_id": 1204803798, "building": "garage", "name": "", "height": null, "height_m": null, "levels": null, "tract_id": "40019892400", "tract_name": "8924", "tags": {"building": "garage"}}}, {"type": "Feature", "geometry": {"type": "Polygon", "coordinates": [[[-97.4290619, 34.1547144], [-97.4289435, 34.1547119], [-97.428945, 34.1546855], [-97.4289557, 34.1544947], [-97.4290558, 34.1544934], [-97.4290497, 34.1546077], [-97.4290846, 34.1546127], [-97.4290892, 34.1547056], [-97.4290619, 34.1547144]]]}, "properties": {"osm_id": 1204803799, "building": "static_caravan", "name": "", "height": null, "height_m": null, "levels": null, "tract_id": "40019892400", "tract_name": "8924", "tags": {"building": "static_caravan"}}}, {"type": "Feature", "geometry": {"type": "Polygon", "coordinates": [[[-97.4291933, 34.1547843], [-97.4291045, 34.1547824], [-97.4291068, 34.1547403], [-97.4291994, 34.154741], [-97.4291933, 34.1547843]]]}, "properties": {"osm_id": 1204803800, "building": "garage", "name": "", "height": null, "height_m": null, "levels": null, "tract_id": "40019892400", "tract_name": "8924", "tags": {"building": "garage"}}}, {"type": "Feature", "geometry": {"type": "Polygon", "coordinates": [[[-97.4284363, 34.1544809], [-97.4283438, 34.1544772], [-97.4283461, 34.1542907], [-97.4284409, 34.1542914], [-97.4284363, 34.1544809]]]}, "properties": {"osm_id": 1204803801, "building": "static_caravan", "name": "", "height": null, "height_m": null, "levels": null, "tract_id": "40019892400", "tract_name": "8924", "tags": {"building": "static_caravan"}}}, {"type": "Feature", "geometry": {"type": "Polygon", "coordinates": [[[-97.4284386, 34.1545877], [-97.4283294, 34.1545839], [-97.4283301, 34.1545017], [-97.4284363, 34.1545023], [-97.4284386, 34.1545877]]]}, "properties": {"osm_id": 1204803802, "building": "garage", "name": "", "height": null, "height_m": null, "levels": null, "tract_id": "40019892400", "tract_name": "8924", "tags": {"building": "garage"}}}, {"type": "Feature", "geometry": {"type": "Polygon", "coordinates": [[[-97.4285022, 34.1556149], [-97.4283038, 34.1556086], [-97.4283083, 34.1555262], [-97.4284129, 34.1555341], [-97.4284142, 34.155484], [-97.4283899, 34.1554834], [-97.4283976, 34.1553979], [-97.4285201, 34.1554085], [-97.4285028, 34.155522], [-97.4285213, 34.1555214], [-97.4285201, 34.15555], [-97.4284996, 34.1555494], [-97.4285022, 34.1556149]]]}, "properties": {"osm_id": 1204803803, "building": "house", "name": "", "height": null, "height_m": null, "levels": null, "tract_id": "40019892400", "tract_name": "8924", "tags": {"addr:city": "Wilson", "addr:housenumber": "802", "addr:street": "Persimmon Street", "building": "house"}}}, {"type": "Feature", "geometry": {"type": "Polygon", "coordinates": [[[-97.4284021, 34.1558387], [-97.428404, 34.1557727], [-97.4282886, 34.1557743], [-97.4282873, 34.1558424], [-97.4284021, 34.1558387]]]}, "properties": {"osm_id": 1204803804, "building": "shed", "name": "", "height": null, "height_m": null, "levels": null, "tract_id": "40019892400", "tract_name": "8924", "tags": {"building": "shed"}}}, {"type": "Feature", "geometry": {"type": "Polygon", "coordinates": [[[-97.4279617, 34.1555138], [-97.4278732, 34.1555131], [-97.4278732, 34.1554571], [-97.4278525, 34.1554571], [-97.4278579, 34.1553637], [-97.4280059, 34.1553645], [-97.4280014, 34.1554466], [-97.427968, 34.1554466], [-97.4279617, 34.1555138]]]}, "properties": {"osm_id": 1204803805, "building": "house", "name": "", "height": null, "height_m": null, "levels": null, "tract_id": "40019892400", "tract_name": "8924", "tags": {"building": "house"}}}, {"type": "Feature", "geometry": {"type": "Polygon", "coordinates": [[[-97.4279082, 34.1542471], [-97.4279082, 34.154188], [-97.4277487, 34.1541885], [-97.4277468, 34.1542175], [-97.4277341, 34.154218], [-97.4277385, 34.1542529], [-97.4277513, 34.1542529], [-97.4277513, 34.154283], [-97.4278138, 34.1542846], [-97.4278119, 34.1542355], [-97.4278463, 34.154236], [-97.427847, 34.1542476], [-97.4279082, 34.1542471]]]}, "properties": {"osm_id": 1204803806, "building": "house", "name": "", "height": null, "height_m": null, "levels": null, "tract_id": "40019892400", "tract_name": "8924", "tags": {"building": "house"}}}, {"type": "Feature", "geometry": {"type": "Polygon", "coordinates": [[[-97.4279146, 34.1546325], [-97.4277998, 34.1546335], [-97.4278087, 34.1544963], [-97.4279267, 34.1545021], [-97.4279146, 34.1546325]]]}, "properties": {"osm_id": 1204803807, "building": "house", "name": "", "height": null, "height_m": null, "levels": null, "tract_id": "40019892400", "tract_name": "8924", "tags": {"building": "house"}}}, {"type": "Feature", "geometry": {"type": "Polygon", "coordinates": [[[-97.4278629, 34.1549698], [-97.4277315, 34.1549724], [-97.4277277, 34.1549123], [-97.4278629, 34.1549096], [-97.4278629, 34.1549698]]]}, "properties": {"osm_id": 1204803808, "building": "house", "name": "", "height": null, "height_m": null, "levels": null, "tract_id": "40019892400", "tract_name": "8924", "tags": {"building": "house"}}}, {"type": "Feature", "geometry": {"type": "Polygon", "coordinates": [[[-97.4278239, 34.156523], [-97.4277256, 34.1565252], [-97.4277301, 34.156358], [-97.4278284, 34.1563565], [-97.4278239, 34.156523]]]}, "properties": {"osm_id": 1204803809, "building": "house", "name": "", "height": null, "height_m": null, "levels": null, "tract_id": "40019892400", "tract_name": "8924", "tags": {"building": "house"}}}, {"type": "Feature", "geometry": {"type": "Polygon", "coordinates": [[[-97.4278239, 34.155978], [-97.4277121, 34.1559847], [-97.4277057, 34.1557787], [-97.4278185, 34.1557787], [-97.4278239, 34.155978]]]}, "properties": {"osm_id": 1204803810, "building": "house", "name": "", "height": null, "height_m": null, "levels": null, "tract_id": "40019892400", "tract_name": "8924", "tags": {"building": "house"}}}, {"type": "Feature", "geometry": {"type": "Polygon", "coordinates": [[[-97.428517, 34.1565619], [-97.4284525, 34.1565632], [-97.4284533, 34.1565255], [-97.4283713, 34.1565293], [-97.4283713, 34.1563899], [-97.4284737, 34.1563893], [-97.4284722, 34.1564188], [-97.4285147, 34.1564188], [-97.428517, 34.1565619]]]}, "properties": {"osm_id": 1204803811, "building": "house", "name": "", "height": null, "height_m": null, "levels": null, "tract_id": "40019892400", "tract_name": "8924", "tags": {"building": "house"}}}, {"type": "Feature", "geometry": {"type": "Polygon", "coordinates": [[[-97.4281544, 34.1565776], [-97.428341, 34.1565751], [-97.4283349, 34.156474], [-97.4282879, 34.156474], [-97.4282818, 34.1565186], [-97.4281506, 34.1565167], [-97.4281544, 34.1565776]]]}, "properties": {"osm_id": 1204803812, "building": "garage", "name": "", "height": null, "height_m": null, "levels": null, "tract_id": "40019892400", "tract_name": "8924", "tags": {"building": "garage"}}}]}