{"type": "FeatureCollection", "features": [{"type": "Feature", "geometry": {"type": "Polygon", "coordinates": [[[-98.4511148, 36.5095856], [-98.4511145, 36.5095192], [-98.4509972, 36.5095196], [-98.4508262, 36.5095202], [-98.4508266, 36.5095866], [-98.4511148, 36.5095856]]]}, "properties": {"osm_id": 446945122, "building": "yes", "name": "Aline, Oklahoma 73716", "height": null, "height_m": null, "levels": null, "tract_id": "40003956000", "tract_name": "9560", "tags": {"addr:city": "Aline", "addr:housenumber": "324", "addr:state": "OK", "addr:street": "North Main Street", "amenity": "post_office", "building": "yes", "name": "Aline, Oklahoma 73716", "operator": "Barwick Poelstra"}}}, {"type": "Feature", "geometry": {"type": "Polygon", "coordinates": [[[-98.4508385, 36.5103846], [-98.4511401, 36.5103852], [-98.4511401, 36.5104159], [-98.4511989, 36.510416], [-98.4511986, 36.5105146], [-98.4511354, 36.5105144], [-98.4511354, 36.5105328], [-98.4508381, 36.5105322], [-98.4508385, 36.5103846]]]}, "properties": {"osm_id": 446945365, "building": "yes", "name": "Aline Community Building", "height": null, "height_m": null, "levels": null, "tract_id": "40003956000", "tract_name": "9560", "tags": {"addr:city": "Aline", "addr:housenumber": "422", "addr:state": "OK", "addr:street": "North Main Street", "amenity": "theatre", "building": "yes", "name": "Aline Community Building", "operator": "Town of Aline"}}}, {"type": "Feature", "geometry": {"type": "Polygon", "coordinates": [[[-98.4504773, 36.5102818], [-98.4504774, 36.5102128], [-98.4503478, 36.5102135], [-98.4503484, 36.5102825], [-98.4504773, 36.5102818]]]}, "properties": {"osm_id": 446945366, "building": "yes", "name": "Aline Town Hall Building", "height": null, "height_m": null, "levels": null, "tract_id": "40003956000", "tract_name": "9560", "tags": {"addr:city": "Aline", "addr:housenumber": "415", "addr:state": "OK", "addr:street": "North Main Street", "amenity": "townhall", "building": "yes", "name": "Aline Town Hall Building", "office": "government", "operator": "Town of Aline"}}}, {"type": "Feature", "geometry": {"type": "Polygon", "coordinates": [[[-98.4508422, 36.5101235], [-98.4508418, 36.5102135], [-98.4511724, 36.5102143], [-98.4511727, 36.5101244], [-98.4508422, 36.5101235]]]}, "properties": {"osm_id": 446945530, "building": "yes", "name": "", "height": null, "height_m": null, "levels": null, "tract_id": "40003956000", "tract_name": "9560", "tags": {"addr:city": "Aline", "addr:housenumber": "412", "addr:state": "OK", "addr:street": "North Main Street", "amenity": "social_facility", "building": "yes", "social_facility:for": "senior"}}}, {"type": "Feature", "geometry": {"type": "Polygon", "coordinates": [[[-98.4508412, 36.5100457], [-98.4508418, 36.5098067], [-98.4511299, 36.5098072], [-98.4511298, 36.5098407], [-98.4512622, 36.5098409], [-98.451262, 36.5099365], [-98.4512056, 36.5099364], [-98.4512055, 36.50996], [-98.4511315, 36.5099599], [-98.4511314, 36.5099878], [-98.4510604, 36.5099877], [-98.4510602, 36.5100461], [-98.4508412, 36.5100457]]]}, "properties": {"osm_id": 446945574, "building": "house", "name": "", "height": null, "height_m": null, "levels": null, "tract_id": "40003956000", "tract_name": "9560", "tags": {"addr:city": "Aline", "addr:housenumber": "400", "addr:state": "OK", "addr:street": "North Main Street", "building": "house"}}}, {"type": "Feature", "geometry": {"type": "Polygon", "coordinates": [[[-98.4504842, 36.5100654], [-98.4504844, 36.5099883], [-98.4501025, 36.5099823], [-98.4501007, 36.5100594], [-98.4504842, 36.5100654]]]}, "properties": {"osm_id": 446946002, "building": "yes", "name": "Farmers Cooperative Carmen", "height": null, "height_m": null, "levels": null, "tract_id": "40003956000", "tract_name": "9560", "tags": {"addr:city": "Aline", "addr:housenumber": "405", "addr:state": "OK", "addr:street": "North Main Street", "amenity": "fuel", "building": "yes", "name": "Farmers Cooperative Carmen", "operator": "Farmers Cooperative Carmen", "website": "https://www.carmencoop.com/aline"}}}, {"type": "Feature", "geometry": {"type": "Polygon", "coordinates": [[[-98.449769, 36.5102848], [-98.4497667, 36.5105733], [-98.4496202, 36.5105726], [-98.4496213, 36.5104338], [-98.4495998, 36.5104337], [-98.4496002, 36.5103903], [-98.449507, 36.5103898], [-98.4495078, 36.5102834], [-98.449769, 36.5102848]]]}, "properties": {"osm_id": 446946003, "building": "church", "name": "United Methodist Church of Aline", "height": null, "height_m": null, "levels": null, "tract_id": "40003956000", "tract_name": "9560", "tags": {"addr:city": "Aline", "addr:housenumber": "416", "addr:state": "OK", "addr:street": "North 5th Street", "building": "church", "denomination": "united_methodist", "name": "United Methodist Church of Aline", "religion": "christian"}}}, {"type": "Feature", "geometry": {"type": "Polygon", "coordinates": [[[-98.4510716, 36.5092986], [-98.4510732, 36.5092287], [-98.4508415, 36.5092263], [-98.4508413, 36.509295], [-98.4510716, 36.5092986]]]}, "properties": {"osm_id": 446946535, "building": "yes", "name": "Maximum Auto", "height": null, "height_m": null, "levels": null, "tract_id": "40003956000", "tract_name": "9560", "tags": {"addr:city": "Aline", "addr:housenumber": "314", "addr:state": "OK", "addr:street": "North Main Street", "building": "yes", "name": "Maximum Auto", "shop": "car_repair"}}}, {"type": "Feature", "geometry": {"type": "Polygon", "coordinates": [[[-98.450843, 36.5090914], [-98.4511412, 36.5090936], [-98.4511397, 36.5092284], [-98.4508415, 36.5092263], [-98.450843, 36.5090914]]]}, "properties": {"osm_id": 446946536, "building": "yes", "name": "", "height": null, "height_m": null, "levels": null, "tract_id": "40003956000", "tract_name": "9560", "tags": {"addr:city": "Aline", "addr:housenumber": "312", "addr:state": "OK", "addr:street": "North Main Street", "amenity": "fire_station", "building": "yes"}}}, {"type": "Feature", "geometry": {"type": "Polygon", "coordinates": [[[-98.1231531, 36.5503709], [-98.1231599, 36.550567], [-98.1230593, 36.5505692], [-98.1230526, 36.5503732], [-98.1231531, 36.5503709]]]}, "properties": {"osm_id": 476721077, "building": "yes", "name": "", "height": null, "height_m": null, "levels": null, "tract_id": "40003956000", "tract_name": "9560", "tags": {"building": "yes"}}}, {"type": "Feature", "geometry": {"type": "Polygon", "coordinates": [[[-98.1721397, 36.5504102], [-98.1723037, 36.5504085], [-98.1723064, 36.5505722], [-98.1721424, 36.550574], [-98.1721397, 36.5504102]]]}, "properties": {"osm_id": 476721086, "building": "yes", "name": "", "height": null, "height_m": null, "levels": null, "tract_id": "40003956000", "tract_name": "9560", "tags": {"building": "yes"}}}, {"type": "Feature", "geometry": {"type": "Polygon", "coordinates": [[[-98.1262565, 36.5365908], [-98.1262538, 36.5367201], [-98.1261464, 36.5367187], [-98.1261491, 36.5365894], [-98.1262565, 36.5365908]]]}, "properties": {"osm_id": 476721128, "building": "yes", "name": "", "height": null, "height_m": null, "levels": null, "tract_id": "40003956000", "tract_name": "9560", "tags": {"building": "yes"}}}, {"type": "Feature", "geometry": {"type": "Polygon", "coordinates": [[[-98.2670339, 36.5382961], [-98.2670339, 36.5385245], [-98.2668086, 36.5385245], [-98.2668086, 36.5382961], [-98.2670339, 36.5382961]]]}, "properties": {"osm_id": 476727703, "building": "yes", "name": "", "height": null, "height_m": null, "levels": null, "tract_id": "40003956000", "tract_name": "9560", "tags": {"building": "yes"}}}, {"type": "Feature", "geometry": {"type": "Polygon", "coordinates": [[[-98.2788007, 36.5442492], [-98.2787996, 36.5445248], [-98.2786263, 36.5445244], [-98.2786274, 36.5442488], [-98.2788007, 36.5442492]]]}, "properties": {"osm_id": 476727710, "building": "yes", "name": "", "height": null, "height_m": null, "levels": null, "tract_id": "40003956000", "tract_name": "9560", "tags": {"building": "yes"}}}, {"type": "Feature", "geometry": {"type": "Polygon", "coordinates": [[[-98.2824611, 36.5504131], [-98.282464, 36.5505464], [-98.2823127, 36.5505485], [-98.2823099, 36.5504152], [-98.2824611, 36.5504131]]]}, "properties": {"osm_id": 476727711, "building": "yes", "name": "", "height": null, "height_m": null, "levels": null, "tract_id": "40003956000", "tract_name": "9560", "tags": {"addr:city": "Helena", "addr:housenumber": "65063", "addr:postcode": "73741", "addr:state": "OK", "addr:street": "E0320 Road", "building": "yes"}}}, {"type": "Feature", "geometry": {"type": "Polygon", "coordinates": [[[-98.2827432, 36.5512578], [-98.2827411, 36.5514735], [-98.28252, 36.5514721], [-98.2825221, 36.5512564], [-98.2827432, 36.5512578]]]}, "properties": {"osm_id": 476727712, "building": "yes", "name": "", "height": null, "height_m": null, "levels": null, "tract_id": "40003956000", "tract_name": "9560", "tags": {"building": "yes"}}}, {"type": "Feature", "geometry": {"type": "Polygon", "coordinates": [[[-98.2829873, 36.5504165], [-98.2831259, 36.5504163], [-98.2831264, 36.5508243], [-98.2829879, 36.5508245], [-98.2829873, 36.5504165]]]}, "properties": {"osm_id": 476727713, "building": "yes", "name": "", "height": null, "height_m": null, "levels": null, "tract_id": "40003956000", "tract_name": "9560", "tags": {"building": "yes"}}}, {"type": "Feature", "geometry": {"type": "Polygon", "coordinates": [[[-98.2661779, 36.5493981], [-98.2659727, 36.5494045], [-98.2659672, 36.5492912], [-98.2661724, 36.5492847], [-98.2661779, 36.5493981]]]}, "properties": {"osm_id": 476727714, "building": "yes", "name": "", "height": null, "height_m": null, "levels": null, "tract_id": "40003956000", "tract_name": "9560", "tags": {"building": "yes"}}}, {"type": "Feature", "geometry": {"type": "Polygon", "coordinates": [[[-98.2652888, 36.5495694], [-98.2650568, 36.5495748], [-98.2650536, 36.5494865], [-98.2652856, 36.5494811], [-98.2652888, 36.5495694]]]}, "properties": {"osm_id": 476727715, "building": "yes", "name": "", "height": null, "height_m": null, "levels": null, "tract_id": "40003956000", "tract_name": "9560", "tags": {"building": "yes"}}}, {"type": "Feature", "geometry": {"type": "Polygon", "coordinates": [[[-98.2684323, 36.5462925], [-98.2684323, 36.5464692], [-98.2682634, 36.5464692], [-98.2682634, 36.5462925], [-98.2684323, 36.5462925]]]}, "properties": {"osm_id": 476727716, "building": "yes", "name": "", "height": null, "height_m": null, "levels": null, "tract_id": "40003956000", "tract_name": "9560", "tags": {"building": "yes"}}}, {"type": "Feature", "geometry": {"type": "Polygon", "coordinates": [[[-98.2684739, 36.5462893], [-98.2686309, 36.5462888], [-98.2686323, 36.5465829], [-98.2684752, 36.5465834], [-98.2684739, 36.5462893]]]}, "properties": {"osm_id": 476727717, "building": "yes", "name": "", "height": null, "height_m": null, "levels": null, "tract_id": "40003956000", "tract_name": "9560", "tags": {"building": "yes"}}}, {"type": "Feature", "geometry": {"type": "Polygon", "coordinates": [[[-98.2705566, 36.5447189], [-98.2701248, 36.5447232], [-98.2701233, 36.5446243], [-98.2705551, 36.54462], [-98.2705566, 36.5447189]]]}, "properties": {"osm_id": 476727718, "building": "yes", "name": "", "height": null, "height_m": null, "levels": null, "tract_id": "40003956000", "tract_name": "9560", "tags": {"building": "yes"}}}, {"type": "Feature", "geometry": {"type": "Polygon", "coordinates": [[[-98.270554, 36.5448159], [-98.270554, 36.5449301], [-98.2701516, 36.5449301], [-98.2701516, 36.5448159], [-98.270554, 36.5448159]]]}, "properties": {"osm_id": 476727719, "building": "yes", "name": "", "height": null, "height_m": null, "levels": null, "tract_id": "40003956000", "tract_name": "9560", "tags": {"building": "yes"}}}, {"type": "Feature", "geometry": {"type": "Polygon", "coordinates": [[[-98.2698459, 36.5450066], [-98.2695025, 36.5450109], [-98.2695004, 36.5448994], [-98.2698437, 36.5448951], [-98.2698459, 36.5450066]]]}, "properties": {"osm_id": 476727722, "building": "yes", "name": "", "height": null, "height_m": null, "levels": null, "tract_id": "40003956000", "tract_name": "9560", "tags": {"building": "yes"}}}, {"type": "Feature", "geometry": {"type": "Polygon", "coordinates": [[[-98.2698715, 36.5464314], [-98.2696178, 36.5464319], [-98.2696175, 36.5463231], [-98.2698712, 36.5463226], [-98.2698715, 36.5464314]]]}, "properties": {"osm_id": 476727724, "building": "yes", "name": "", "height": null, "height_m": null, "levels": null, "tract_id": "40003956000", "tract_name": "9560", "tags": {"addr:city": "Helena", "addr:housenumber": "106", "addr:postcode": "73741", "addr:state": "OK", "addr:street": "Main Street", "building": "yes"}}}, {"type": "Feature", "geometry": {"type": "Polygon", "coordinates": [[[-98.2703447, 36.5492693], [-98.2703501, 36.5494083], [-98.2702488, 36.5494108], [-98.2702435, 36.5492718], [-98.2703447, 36.5492693]]]}, "properties": {"osm_id": 476727725, "building": "yes", "name": "", "height": null, "height_m": null, "levels": null, "tract_id": "40003956000", "tract_name": "9560", "tags": {"building": "yes"}}}, {"type": "Feature", "geometry": {"type": "Polygon", "coordinates": [[[-98.2718495, 36.549724], [-98.2718495, 36.5498953], [-98.271761, 36.5498953], [-98.271761, 36.549724], [-98.2718495, 36.549724]]]}, "properties": {"osm_id": 476727727, "building": "yes", "name": "", "height": null, "height_m": null, "levels": null, "tract_id": "40003956000", "tract_name": "9560", "tags": {"building": "yes"}}}, {"type": "Feature", "geometry": {"type": "Polygon", "coordinates": [[[-98.2795933, 36.5452846], [-98.2795929, 36.5453972], [-98.2793175, 36.5453966], [-98.2793179, 36.545284], [-98.2795933, 36.5452846]]]}, "properties": {"osm_id": 476727731, "building": "yes", "name": "", "height": null, "height_m": null, "levels": null, "tract_id": "40003956000", "tract_name": "9560", "tags": {"building": "yes"}}}, {"type": "Feature", "geometry": {"type": "Polygon", "coordinates": [[[-98.2795964, 36.5450247], [-98.2795958, 36.5452164], [-98.279456, 36.5452161], [-98.2794566, 36.5450244], [-98.2795964, 36.5450247]]]}, "properties": {"osm_id": 476727732, "building": "yes", "name": "", "height": null, "height_m": null, "levels": null, "tract_id": "40003956000", "tract_name": "9560", "tags": {"building": "yes"}}}, {"type": "Feature", "geometry": {"type": "Polygon", "coordinates": [[[-98.2794257, 36.5468361], [-98.2796953, 36.5468514], [-98.2796471, 36.5474002], [-98.2793776, 36.5473849], [-98.2794257, 36.5468361]]]}, "properties": {"osm_id": 476727734, "building": "yes", "name": "", "height": null, "height_m": null, "levels": null, "tract_id": "40003956000", "tract_name": "9560", "tags": {"building": "yes"}}}, {"type": "Feature", "geometry": {"type": "Polygon", "coordinates": [[[-98.277562, 36.5482037], [-98.2770443, 36.5482016], [-98.2770465, 36.5478632], [-98.2775641, 36.5478653], [-98.277562, 36.5482037]]]}, "properties": {"osm_id": 476727735, "building": "yes", "name": "", "height": null, "height_m": null, "levels": null, "tract_id": "40003956000", "tract_name": "9560", "tags": {"building": "yes"}}}, {"type": "Feature", "geometry": {"type": "Polygon", "coordinates": [[[-98.2780962, 36.5469171], [-98.2773869, 36.5469183], [-98.2773863, 36.5466964], [-98.2780956, 36.5466952], [-98.2780962, 36.5469171]]]}, "properties": {"osm_id": 476727738, "building": "yes", "name": "", "height": null, "height_m": null, "levels": null, "tract_id": "40003956000", "tract_name": "9560", "tags": {"building": "yes"}}}, {"type": "Feature", "geometry": {"type": "Polygon", "coordinates": [[[-98.2772301, 36.5463072], [-98.2772317, 36.5468779], [-98.2769565, 36.5468785], [-98.2769547, 36.5463077], [-98.2772301, 36.5463072]]]}, "properties": {"osm_id": 476727739, "building": "yes", "name": "", "height": null, "height_m": null, "levels": null, "tract_id": "40003956000", "tract_name": "9560", "tags": {"building": "yes"}}}, {"type": "Feature", "geometry": {"type": "Polygon", "coordinates": [[[-98.2659721, 36.5439544], [-98.2659721, 36.5440406], [-98.2657361, 36.5440406], [-98.2657361, 36.5439544], [-98.2659721, 36.5439544]]]}, "properties": {"osm_id": 476727743, "building": "yes", "name": "", "height": null, "height_m": null, "levels": null, "tract_id": "40003956000", "tract_name": "9560", "tags": {"building": "yes"}}}, {"type": "Feature", "geometry": {"type": "Polygon", "coordinates": [[[-98.2662109, 36.5443208], [-98.2662096, 36.5444455], [-98.2658743, 36.5444433], [-98.2658756, 36.5443186], [-98.2662109, 36.5443208]]]}, "properties": {"osm_id": 476727744, "building": "yes", "name": "", "height": null, "height_m": null, "levels": null, "tract_id": "40003956000", "tract_name": "9560", "tags": {"building": "yes"}}}, {"type": "Feature", "geometry": {"type": "Polygon", "coordinates": [[[-98.268818, 36.5431162], [-98.2684988, 36.5431172], [-98.2684986, 36.5430795], [-98.2688178, 36.5430785], [-98.268818, 36.5431162]]]}, "properties": {"osm_id": 476727745, "building": "yes", "name": "", "height": null, "height_m": null, "levels": null, "tract_id": "40003956000", "tract_name": "9560", "tags": {"building": "yes"}}}, {"type": "Feature", "geometry": {"type": "Polygon", "coordinates": [[[-98.2688636, 36.5430639], [-98.2690003, 36.543063], [-98.269003, 36.5433259], [-98.2688662, 36.5433268], [-98.2688636, 36.5430639]]]}, "properties": {"osm_id": 476727746, "building": "yes", "name": "", "height": null, "height_m": null, "levels": null, "tract_id": "40003956000", "tract_name": "9560", "tags": {"building": "yes"}}}, {"type": "Feature", "geometry": {"type": "Polygon", "coordinates": [[[-98.2681555, 36.5435876], [-98.2673428, 36.5435897], [-98.267342, 36.5434172], [-98.2681548, 36.543415], [-98.2681555, 36.5435876]]]}, "properties": {"osm_id": 476727747, "building": "yes", "name": "", "height": null, "height_m": null, "levels": null, "tract_id": "40003956000", "tract_name": "9560", "tags": {"building": "yes"}}}, {"type": "Feature", "geometry": {"type": "Polygon", "coordinates": [[[-98.2689172, 36.5437643], [-98.2690619, 36.5437655], [-98.2690592, 36.5439745], [-98.2689145, 36.5439733], [-98.2689172, 36.5437643]]]}, "properties": {"osm_id": 476727748, "building": "yes", "name": "", "height": null, "height_m": null, "levels": null, "tract_id": "40003956000", "tract_name": "9560", "tags": {"building": "yes"}}}, {"type": "Feature", "geometry": {"type": "Polygon", "coordinates": [[[-98.1547147, 36.5329524], [-98.1547603, 36.5328727], [-98.1545511, 36.5327908], [-98.1545082, 36.532864], [-98.1547147, 36.5329524]]]}, "properties": {"osm_id": 515056218, "building": "yes", "name": "Farmers' Exchange Elevator", "height": null, "height_m": null, "levels": null, "tract_id": "40003956000", "tract_name": "9560", "tags": {"building": "yes", "heritage": "2", "heritage:operator": "nrhp", "historic": "yes", "name": "Farmers' Exchange Elevator", "ref:nrhp": "83004152"}}}, {"type": "Feature", "geometry": {"type": "Polygon", "coordinates": [[[-98.4504736, 36.5109417], [-98.4504384, 36.510942], [-98.450438, 36.5109097], [-98.450211, 36.5109115], [-98.4502124, 36.511032], [-98.4504364, 36.5110302], [-98.4504361, 36.5110018], [-98.4504743, 36.5110015], [-98.450474, 36.5109736], [-98.4504736, 36.5109417]]]}, "properties": {"osm_id": 611105127, "building": "church", "name": "Church of Christ in Aline", "height": null, "height_m": null, "levels": null, "tract_id": "40003956000", "tract_name": "9560", "tags": {"addr:city": "Aline", "addr:housenumber": "501", "addr:state": "OK", "addr:street": "North Main Street", "building": "church", "name": "Church of Christ in Aline", "religion": "christian"}}}, {"type": "Feature", "geometry": {"type": "Polygon", "coordinates": [[[-98.4504314, 36.5110532], [-98.4500881, 36.5110563], [-98.4500888, 36.5111049], [-98.4500896, 36.5111684], [-98.4504329, 36.5111653], [-98.4504321, 36.5111041], [-98.4504314, 36.5110532]]]}, "properties": {"osm_id": 611105130, "building": "church", "name": "", "height": null, "height_m": null, "levels": null, "tract_id": "40003956000", "tract_name": "9560", "tags": {"building": "church"}}}, {"type": "Feature", "geometry": {"type": "Polygon", "coordinates": [[[-98.4501788, 36.5110386], [-98.4501766, 36.5109163], [-98.4500459, 36.5109178], [-98.4500481, 36.5110401], [-98.4501788, 36.5110386]]]}, "properties": {"osm_id": 611105132, "building": "house", "name": "", "height": null, "height_m": null, "levels": null, "tract_id": "40003956000", "tract_name": "9560", "tags": {"building": "house"}}}, {"type": "Feature", "geometry": {"type": "Polygon", "coordinates": [[[-98.1231411, 36.5153953], [-98.1231438, 36.5157413], [-98.1229271, 36.5157424], [-98.1229244, 36.5153964], [-98.1231411, 36.5153953]]]}, "properties": {"osm_id": 663448006, "building": "yes", "name": "", "height": null, "height_m": null, "levels": null, "tract_id": "40003956000", "tract_name": "9560", "tags": {"building": "yes"}}}, {"type": "Feature", "geometry": {"type": "Polygon", "coordinates": [[[-98.1205836, 36.5160646], [-98.1202859, 36.5159159], [-98.1203835, 36.5157897], [-98.1206812, 36.5159384], [-98.1205836, 36.5160646]]]}, "properties": {"osm_id": 663448007, "building": "yes", "name": "", "height": null, "height_m": null, "levels": null, "tract_id": "40003956000", "tract_name": "9560", "tags": {"building": "yes"}}}, {"type": "Feature", "geometry": {"type": "Polygon", "coordinates": [[[-98.1473145, 36.5363338], [-98.147116, 36.5363284], [-98.1471183, 36.5362747], [-98.1473168, 36.5362801], [-98.1473145, 36.5363338]]]}, "properties": {"osm_id": 663448010, "building": "yes", "name": "", "height": null, "height_m": null, "levels": null, "tract_id": "40003956000", "tract_name": "9560", "tags": {"building": "yes"}}}, {"type": "Feature", "geometry": {"type": "Polygon", "coordinates": [[[-98.1468304, 36.5362476], [-98.1468304, 36.536406], [-98.1466855, 36.536406], [-98.1466855, 36.5362476], [-98.1468304, 36.5362476]]]}, "properties": {"osm_id": 663448011, "building": "yes", "name": "", "height": null, "height_m": null, "levels": null, "tract_id": "40003956000", "tract_name": "9560", "tags": {"building": "yes"}}}, {"type": "Feature", "geometry": {"type": "Polygon", "coordinates": [[[-98.1537022, 36.535905], [-98.1537062, 36.5360569], [-98.1535712, 36.5360592], [-98.1535672, 36.5359073], [-98.1537022, 36.535905]]]}, "properties": {"osm_id": 663448012, "building": "yes", "name": "", "height": null, "height_m": null, "levels": null, "tract_id": "40003956000", "tract_name": "9560", "tags": {"building": "yes"}}}, {"type": "Feature", "geometry": {"type": "Polygon", "coordinates": [[[-98.1493074, 36.5350688], [-98.1492068, 36.5350699], [-98.1492044, 36.5349269], [-98.149305, 36.5349258], [-98.1493074, 36.5350688]]]}, "properties": {"osm_id": 663448013, "building": "yes", "name": "", "height": null, "height_m": null, "levels": null, "tract_id": "40003956000", "tract_name": "9560", "tags": {"building": "yes"}}}, {"type": "Feature", "geometry": {"type": "Polygon", "coordinates": [[[-98.150918, 36.5339287], [-98.1506968, 36.5340354], [-98.1506602, 36.5339864], [-98.1508815, 36.5338797], [-98.150918, 36.5339287]]]}, "properties": {"osm_id": 663448014, "building": "yes", "name": "", "height": null, "height_m": null, "levels": null, "tract_id": "40003956000", "tract_name": "9560", "tags": {"building": "yes"}}}, {"type": "Feature", "geometry": {"type": "Polygon", "coordinates": [[[-98.1503738, 36.5342169], [-98.1503738, 36.5344367], [-98.1502826, 36.5344367], [-98.1502826, 36.5342169], [-98.1503738, 36.5342169]]]}, "properties": {"osm_id": 663448015, "building": "yes", "name": "", "height": null, "height_m": null, "levels": null, "tract_id": "40003956000", "tract_name": "9560", "tags": {"building": "yes"}}}, {"type": "Feature", "geometry": {"type": "Polygon", "coordinates": [[[-98.146652, 36.5298877], [-98.1466547, 36.530211], [-98.1464969, 36.5302118], [-98.1464942, 36.5298885], [-98.146652, 36.5298877]]]}, "properties": {"osm_id": 663448016, "building": "yes", "name": "", "height": null, "height_m": null, "levels": null, "tract_id": "40003956000", "tract_name": "9560", "tags": {"building": "yes"}}}, {"type": "Feature", "geometry": {"type": "Polygon", "coordinates": [[[-98.1516992, 36.5352304], [-98.1516959, 36.535405], [-98.1516002, 36.5354038], [-98.1516036, 36.5352292], [-98.1516992, 36.5352304]]]}, "properties": {"osm_id": 663448017, "building": "yes", "name": "", "height": null, "height_m": null, "levels": null, "tract_id": "40003956000", "tract_name": "9560", "tags": {"building": "yes"}}}, {"type": "Feature", "geometry": {"type": "Polygon", "coordinates": [[[-98.1530142, 36.5344427], [-98.1528251, 36.5344492], [-98.1528195, 36.5343441], [-98.1530086, 36.5343376], [-98.1530142, 36.5344427]]]}, "properties": {"osm_id": 663448018, "building": "yes", "name": "", "height": null, "height_m": null, "levels": null, "tract_id": "40003956000", "tract_name": "9560", "tags": {"building": "yes"}}}, {"type": "Feature", "geometry": {"type": "Polygon", "coordinates": [[[-98.1527996, 36.5338964], [-98.1525649, 36.5338985], [-98.1525638, 36.5338219], [-98.1527985, 36.5338197], [-98.1527996, 36.5338964]]]}, "properties": {"osm_id": 663448019, "building": "yes", "name": "", "height": null, "height_m": null, "levels": null, "tract_id": "40003956000", "tract_name": "9560", "tags": {"building": "yes"}}}, {"type": "Feature", "geometry": {"type": "Polygon", "coordinates": [[[-98.1522913, 36.5323091], [-98.1522913, 36.5325214], [-98.1522055, 36.5325214], [-98.1522055, 36.5323091], [-98.1522913, 36.5323091]]]}, "properties": {"osm_id": 663448020, "building": "yes", "name": "", "height": null, "height_m": null, "levels": null, "tract_id": "40003956000", "tract_name": "9560", "tags": {"building": "yes"}}}, {"type": "Feature", "geometry": {"type": "Polygon", "coordinates": [[[-98.1525515, 36.5322466], [-98.1525421, 36.5325235], [-98.1524497, 36.5325215], [-98.1524591, 36.5322446], [-98.1525515, 36.5322466]]]}, "properties": {"osm_id": 663448021, "building": "yes", "name": "", "height": null, "height_m": null, "levels": null, "tract_id": "40003956000", "tract_name": "9560", "tags": {"building": "yes"}}}, {"type": "Feature", "geometry": {"type": "Polygon", "coordinates": [[[-98.1507799, 36.5324255], [-98.1506727, 36.5324247], [-98.1506754, 36.5321747], [-98.1507826, 36.5321755], [-98.1507799, 36.5324255]]]}, "properties": {"osm_id": 663448022, "building": "yes", "name": "", "height": null, "height_m": null, "levels": null, "tract_id": "40003956000", "tract_name": "9560", "tags": {"building": "yes"}}}, {"type": "Feature", "geometry": {"type": "Polygon", "coordinates": [[[-98.1507209, 36.5321033], [-98.1505837, 36.5321044], [-98.150581, 36.5318888], [-98.1507182, 36.5318877], [-98.1507209, 36.5321033]]]}, "properties": {"osm_id": 663448023, "building": "yes", "name": "", "height": null, "height_m": null, "levels": null, "tract_id": "40003956000", "tract_name": "9560", "tags": {"building": "yes"}}}, {"type": "Feature", "geometry": {"type": "Polygon", "coordinates": [[[-98.152754, 36.5328834], [-98.1524509, 36.532877], [-98.1524553, 36.5327431], [-98.1527584, 36.5327496], [-98.152754, 36.5328834]]]}, "properties": {"osm_id": 663448024, "building": "yes", "name": "", "height": null, "height_m": null, "levels": null, "tract_id": "40003956000", "tract_name": "9560", "tags": {"building": "yes"}}}, {"type": "Feature", "geometry": {"type": "Polygon", "coordinates": [[[-98.1059481, 36.5099358], [-98.1057899, 36.5099369], [-98.1057889, 36.5098475], [-98.1059472, 36.5098464], [-98.1059481, 36.5099358]]]}, "properties": {"osm_id": 663448032, "building": "yes", "name": "", "height": null, "height_m": null, "levels": null, "tract_id": "40003956000", "tract_name": "9560", "tags": {"building": "yes"}}}, {"type": "Feature", "geometry": {"type": "Polygon", "coordinates": [[[-98.3887401, 36.5512349], [-98.3887428, 36.5512909], [-98.3886877, 36.5512926], [-98.3886851, 36.5512366], [-98.3887401, 36.5512349]]]}, "properties": {"osm_id": 663503043, "building": "yes", "name": "", "height": null, "height_m": null, "levels": null, "tract_id": "40003956000", "tract_name": "9560", "tags": {"building": "yes"}}}, {"type": "Feature", "geometry": {"type": "Polygon", "coordinates": [[[-98.1364167, 36.5228482], [-98.1362839, 36.5228504], [-98.136283, 36.5228126], [-98.1364157, 36.5228104], [-98.1364167, 36.5228482]]]}, "properties": {"osm_id": 663503046, "building": "yes", "name": "", "height": null, "height_m": null, "levels": null, "tract_id": "40003956000", "tract_name": "9560", "tags": {"building": "yes"}}}, {"type": "Feature", "geometry": {"type": "Polygon", "coordinates": [[[-98.1862307, 36.4744437], [-98.1861743, 36.4744437], [-98.1861743, 36.4743984], [-98.1862307, 36.4743984], [-98.1862307, 36.4744437]]]}, "properties": {"osm_id": 663503047, "building": "yes", "name": "", "height": null, "height_m": null, "levels": null, "tract_id": "40003956000", "tract_name": "9560", "tags": {"building": "yes"}}}, {"type": "Feature", "geometry": {"type": "Polygon", "coordinates": [[[-98.1768402, 36.4756979], [-98.1766619, 36.4756947], [-98.1766654, 36.4755691], [-98.1768438, 36.4755724], [-98.1768402, 36.4756979]]]}, "properties": {"osm_id": 663503049, "building": "yes", "name": "", "height": null, "height_m": null, "levels": null, "tract_id": "40003956000", "tract_name": "9560", "tags": {"building": "yes"}}}, {"type": "Feature", "geometry": {"type": "Polygon", "coordinates": [[[-98.1770012, 36.4756289], [-98.1771376, 36.4756267], [-98.177143, 36.4758489], [-98.1770065, 36.475851], [-98.1770012, 36.4756289]]]}, "properties": {"osm_id": 663503050, "building": "yes", "name": "", "height": null, "height_m": null, "levels": null, "tract_id": "40003956000", "tract_name": "9560", "tags": {"building": "yes"}}}, {"type": "Feature", "geometry": {"type": "Polygon", "coordinates": [[[-98.176737, 36.4752773], [-98.1765519, 36.4752816], [-98.1765475, 36.475158], [-98.1767325, 36.4751537], [-98.176737, 36.4752773]]]}, "properties": {"osm_id": 663503051, "building": "yes", "name": "", "height": null, "height_m": null, "levels": null, "tract_id": "40003956000", "tract_name": "9560", "tags": {"building": "yes"}}}, {"type": "Feature", "geometry": {"type": "Polygon", "coordinates": [[[-98.1768429, 36.4822607], [-98.1768456, 36.4824505], [-98.1767108, 36.4824517], [-98.1767081, 36.482262], [-98.1768429, 36.4822607]]]}, "properties": {"osm_id": 663503061, "building": "yes", "name": "", "height": null, "height_m": null, "levels": null, "tract_id": "40003956000", "tract_name": "9560", "tags": {"building": "yes"}}}, {"type": "Feature", "geometry": {"type": "Polygon", "coordinates": [[[-98.1591162, 36.5208328], [-98.1588239, 36.5208242], [-98.1588302, 36.5206855], [-98.1591225, 36.5206941], [-98.1591162, 36.5208328]]]}, "properties": {"osm_id": 663503062, "building": "yes", "name": "", "height": null, "height_m": null, "levels": null, "tract_id": "40003956000", "tract_name": "9560", "tags": {"building": "yes"}}}, {"type": "Feature", "geometry": {"type": "Polygon", "coordinates": [[[-98.1599048, 36.5209298], [-98.159591, 36.5209212], [-98.1595981, 36.5207544], [-98.1599119, 36.520763], [-98.1599048, 36.5209298]]]}, "properties": {"osm_id": 663503063, "building": "yes", "name": "", "height": null, "height_m": null, "levels": null, "tract_id": "40003956000", "tract_name": "9560", "tags": {"building": "yes"}}}, {"type": "Feature", "geometry": {"type": "Polygon", "coordinates": [[[-98.1601569, 36.5103691], [-98.1601582, 36.5104424], [-98.1601082, 36.510443], [-98.1601069, 36.5103697], [-98.1601569, 36.5103691]]]}, "properties": {"osm_id": 663503064, "building": "yes", "name": "", "height": null, "height_m": null, "levels": null, "tract_id": "40003956000", "tract_name": "9560", "tags": {"building": "yes"}}}, {"type": "Feature", "geometry": {"type": "Polygon", "coordinates": [[[-98.1597519, 36.5104241], [-98.1598304, 36.510484], [-98.1597043, 36.5105907], [-98.1596258, 36.5105308], [-98.1597519, 36.5104241]]]}, "properties": {"osm_id": 663503065, "building": "yes", "name": "", "height": null, "height_m": null, "levels": null, "tract_id": "40003956000", "tract_name": "9560", "tags": {"building": "yes"}}}, {"type": "Feature", "geometry": {"type": "Polygon", "coordinates": [[[-98.1361042, 36.522665], [-98.1361042, 36.5228471], [-98.1359808, 36.5228471], [-98.1359808, 36.522665], [-98.1361042, 36.522665]]]}, "properties": {"osm_id": 663503066, "building": "yes", "name": "", "height": null, "height_m": null, "levels": null, "tract_id": "40003956000", "tract_name": "9560", "tags": {"building": "yes"}}}, {"type": "Feature", "geometry": {"type": "Polygon", "coordinates": [[[-98.1265569, 36.5366668], [-98.1265569, 36.5367239], [-98.1264972, 36.5367239], [-98.1264972, 36.5366668], [-98.1265569, 36.5366668]]]}, "properties": {"osm_id": 663503067, "building": "yes", "name": "", "height": null, "height_m": null, "levels": null, "tract_id": "40003956000", "tract_name": "9560", "tags": {"building": "yes"}}}, {"type": "Feature", "geometry": {"type": "Polygon", "coordinates": [[[-98.1261291, 36.5369513], [-98.1261813, 36.5369516], [-98.12618, 36.537096], [-98.1261277, 36.5370957], [-98.1261291, 36.5369513]]]}, "properties": {"osm_id": 663503068, "building": "yes", "name": "", "height": null, "height_m": null, "levels": null, "tract_id": "40003956000", "tract_name": "9560", "tags": {"building": "yes"}}}, {"type": "Feature", "geometry": {"type": "Polygon", "coordinates": [[[-98.1260794, 36.5372239], [-98.1259641, 36.5372228], [-98.1259646, 36.5371872], [-98.12608, 36.5371882], [-98.1260794, 36.5372239]]]}, "properties": {"osm_id": 663503069, "building": "yes", "name": "", "height": null, "height_m": null, "levels": null, "tract_id": "40003956000", "tract_name": "9560", "tags": {"building": "yes"}}}, {"type": "Feature", "geometry": {"type": "Polygon", "coordinates": [[[-98.1263745, 36.5372239], [-98.1262417, 36.5372271], [-98.1262405, 36.537195], [-98.1263733, 36.5371918], [-98.1263745, 36.5372239]]]}, "properties": {"osm_id": 663503070, "building": "yes", "name": "", "height": null, "height_m": null, "levels": null, "tract_id": "40003956000", "tract_name": "9560", "tags": {"building": "yes"}}}, {"type": "Feature", "geometry": {"type": "Polygon", "coordinates": [[[-98.1050254, 36.5484586], [-98.104949, 36.5485383], [-98.1048435, 36.548473], [-98.10492, 36.5483933], [-98.1050254, 36.5484586]]]}, "properties": {"osm_id": 663503084, "building": "yes", "name": "", "height": null, "height_m": null, "levels": null, "tract_id": "40003956000", "tract_name": "9560", "tags": {"building": "yes"}}}, {"type": "Feature", "geometry": {"type": "Polygon", "coordinates": [[[-98.105574, 36.5486029], [-98.1052709, 36.5485965], [-98.1052739, 36.548506], [-98.1055769, 36.5485124], [-98.105574, 36.5486029]]]}, "properties": {"osm_id": 663503085, "building": "yes", "name": "", "height": null, "height_m": null, "levels": null, "tract_id": "40003956000", "tract_name": "9560", "tags": {"building": "yes"}}}, {"type": "Feature", "geometry": {"type": "Polygon", "coordinates": [[[-98.1462882, 36.5174936], [-98.1463035, 36.5177294], [-98.1461853, 36.5177344], [-98.1461699, 36.5174985], [-98.1462882, 36.5174936]]]}, "properties": {"osm_id": 663503090, "building": "yes", "name": "", "height": null, "height_m": null, "levels": null, "tract_id": "40003956000", "tract_name": "9560", "tags": {"building": "yes"}}}, {"type": "Feature", "geometry": {"type": "Polygon", "coordinates": [[[-98.1462265, 36.5180158], [-98.1459645, 36.518029], [-98.1459556, 36.517914], [-98.1462175, 36.5179008], [-98.1462265, 36.5180158]]]}, "properties": {"osm_id": 663503091, "building": "yes", "name": "", "height": null, "height_m": null, "levels": null, "tract_id": "40003956000", "tract_name": "9560", "tags": {"building": "yes"}}}, {"type": "Feature", "geometry": {"type": "Polygon", "coordinates": [[[-98.1449997, 36.5219666], [-98.1448147, 36.5219666], [-98.1448147, 36.5216993], [-98.1449997, 36.5216993], [-98.1449997, 36.5219666]]]}, "properties": {"osm_id": 663503092, "building": "yes", "name": "", "height": null, "height_m": null, "levels": null, "tract_id": "40003956000", "tract_name": "9560", "tags": {"building": "yes"}}}, {"type": "Feature", "geometry": {"type": "Polygon", "coordinates": [[[-98.1456301, 36.5216864], [-98.1456193, 36.5219666], [-98.1454585, 36.5219626], [-98.1454692, 36.5216824], [-98.1456301, 36.5216864]]]}, "properties": {"osm_id": 663503093, "building": "yes", "name": "", "height": null, "height_m": null, "levels": null, "tract_id": "40003956000", "tract_name": "9560", "tags": {"building": "yes"}}}, {"type": "Feature", "geometry": {"type": "Polygon", "coordinates": [[[-98.2666862, 36.541494], [-98.266599, 36.5414967], [-98.2665956, 36.5414247], [-98.2666828, 36.541422], [-98.2666862, 36.541494]]]}, "properties": {"osm_id": 663503094, "building": "yes", "name": "", "height": null, "height_m": null, "levels": null, "tract_id": "40003956000", "tract_name": "9560", "tags": {"building": "yes"}}}, {"type": "Feature", "geometry": {"type": "Polygon", "coordinates": [[[-98.2710072, 36.5424411], [-98.271018, 36.542717], [-98.2708893, 36.5427202], [-98.2708786, 36.5424444], [-98.2710072, 36.5424411]]]}, "properties": {"osm_id": 663503096, "building": "yes", "name": "", "height": null, "height_m": null, "levels": null, "tract_id": "40003956000", "tract_name": "9560", "tags": {"building": "yes"}}}, {"type": "Feature", "geometry": {"type": "Polygon", "coordinates": [[[-98.2697017, 36.5421831], [-98.269703, 36.5423549], [-98.269612, 36.5423554], [-98.2696106, 36.5421835], [-98.2697017, 36.5421831]]]}, "properties": {"osm_id": 663503097, "building": "yes", "name": "", "height": null, "height_m": null, "levels": null, "tract_id": "40003956000", "tract_name": "9560", "tags": {"building": "yes"}}}, {"type": "Feature", "geometry": {"type": "Polygon", "coordinates": [[[-98.2695428, 36.5421492], [-98.2694274, 36.5421513], [-98.2694245, 36.5420505], [-98.2695398, 36.5420483], [-98.2695428, 36.5421492]]]}, "properties": {"osm_id": 663503099, "building": "yes", "name": "", "height": null, "height_m": null, "levels": null, "tract_id": "40003956000", "tract_name": "9560", "tags": {"building": "yes"}}}, {"type": "Feature", "geometry": {"type": "Polygon", "coordinates": [[[-98.2693577, 36.5423393], [-98.2691807, 36.5423399], [-98.2691803, 36.5422619], [-98.2693573, 36.5422613], [-98.2693577, 36.5423393]]]}, "properties": {"osm_id": 663503101, "building": "yes", "name": "", "height": null, "height_m": null, "levels": null, "tract_id": "40003956000", "tract_name": "9560", "tags": {"building": "yes"}}}, {"type": "Feature", "geometry": {"type": "Polygon", "coordinates": [[[-98.2734837, 36.5473866], [-98.2734823, 36.5475094], [-98.273368, 36.5475086], [-98.2733693, 36.5473858], [-98.2734837, 36.5473866]]]}, "properties": {"osm_id": 663503107, "building": "yes", "name": "", "height": null, "height_m": null, "levels": null, "tract_id": "40003956000", "tract_name": "9560", "tags": {"building": "yes"}}}, {"type": "Feature", "geometry": {"type": "Polygon", "coordinates": [[[-98.2743727, 36.5457079], [-98.2742078, 36.5457117], [-98.2742047, 36.5456232], [-98.2743696, 36.5456194], [-98.2743727, 36.5457079]]]}, "properties": {"osm_id": 663503117, "building": "yes", "name": "", "height": null, "height_m": null, "levels": null, "tract_id": "40003956000", "tract_name": "9560", "tags": {"building": "yes"}}}, {"type": "Feature", "geometry": {"type": "Polygon", "coordinates": [[[-98.2972795, 36.5490436], [-98.2972848, 36.5491384], [-98.297153, 36.5491432], [-98.2971476, 36.5490484], [-98.2972795, 36.5490436]]]}, "properties": {"osm_id": 663503130, "building": "yes", "name": "", "height": null, "height_m": null, "levels": null, "tract_id": "40003956000", "tract_name": "9560", "tags": {"building": "yes"}}}, {"type": "Feature", "geometry": {"type": "Polygon", "coordinates": [[[-98.2708167, 36.5496612], [-98.2708207, 36.5498277], [-98.270705, 36.5498295], [-98.2707009, 36.549663], [-98.2708167, 36.5496612]]]}, "properties": {"osm_id": 663503151, "building": "yes", "name": "", "height": null, "height_m": null, "levels": null, "tract_id": "40003956000", "tract_name": "9560", "tags": {"building": "yes"}}}, {"type": "Feature", "geometry": {"type": "Polygon", "coordinates": [[[-98.2711287, 36.5469075], [-98.2707023, 36.5469075], [-98.2707023, 36.5466521], [-98.2711287, 36.5466521], [-98.2711287, 36.5469075]]]}, "properties": {"osm_id": 663503155, "building": "yes", "name": "", "height": null, "height_m": null, "levels": null, "tract_id": "40003956000", "tract_name": "9560", "tags": {"building": "yes"}}}, {"type": "Feature", "geometry": {"type": "Polygon", "coordinates": [[[-98.2679468, 36.5448374], [-98.2678194, 36.5448342], [-98.2678257, 36.5446751], [-98.2679531, 36.5446783], [-98.2679468, 36.5448374]]]}, "properties": {"osm_id": 663503159, "building": "yes", "name": "", "height": null, "height_m": null, "levels": null, "tract_id": "40003956000", "tract_name": "9560", "tags": {"building": "yes"}}}, {"type": "Feature", "geometry": {"type": "Polygon", "coordinates": [[[-98.2681695, 36.5442836], [-98.2681748, 36.544568], [-98.2679749, 36.5445705], [-98.2679696, 36.544286], [-98.2681695, 36.5442836]]]}, "properties": {"osm_id": 663503160, "building": "yes", "name": "", "height": null, "height_m": null, "levels": null, "tract_id": "40003956000", "tract_name": "9560", "tags": {"building": "yes"}}}, {"type": "Feature", "geometry": {"type": "Polygon", "coordinates": [[[-98.2670644, 36.5392496], [-98.2670242, 36.5393164], [-98.2669788, 36.5392988], [-98.267019, 36.539232], [-98.2670644, 36.5392496]]]}, "properties": {"osm_id": 663503161, "building": "yes", "name": "", "height": null, "height_m": null, "levels": null, "tract_id": "40003956000", "tract_name": "9560", "tags": {"building": "yes"}}}, {"type": "Feature", "geometry": {"type": "Polygon", "coordinates": [[[-98.2667077, 36.5388973], [-98.2665722, 36.5389016], [-98.2665661, 36.538777], [-98.2667015, 36.5387727], [-98.2667077, 36.5388973]]]}, "properties": {"osm_id": 663503162, "building": "yes", "name": "", "height": null, "height_m": null, "levels": null, "tract_id": "40003956000", "tract_name": "9560", "tags": {"building": "yes"}}}, {"type": "Feature", "geometry": {"type": "Polygon", "coordinates": [[[-98.2651526, 36.5348894], [-98.2651491, 36.5348076], [-98.2652818, 36.5348038], [-98.2652854, 36.5348856], [-98.2651526, 36.5348894]]]}, "properties": {"osm_id": 663503163, "building": "yes", "name": "", "height": null, "height_m": null, "levels": null, "tract_id": "40003956000", "tract_name": "9560", "tags": {"building": "yes"}}}, {"type": "Feature", "geometry": {"type": "Polygon", "coordinates": [[[-98.2669222, 36.5353813], [-98.2669128, 36.5352153], [-98.2670464, 36.5352104], [-98.2670558, 36.5353764], [-98.2669222, 36.5353813]]]}, "properties": {"osm_id": 663503164, "building": "yes", "name": "", "height": null, "height_m": null, "levels": null, "tract_id": "40003956000", "tract_name": "9560", "tags": {"building": "yes"}}}, {"type": "Feature", "geometry": {"type": "Polygon", "coordinates": [[[-98.2666191, 36.535392], [-98.2666098, 36.535239], [-98.266746, 36.5352336], [-98.2667553, 36.5353867], [-98.2666191, 36.535392]]]}, "properties": {"osm_id": 663503165, "building": "yes", "name": "", "height": null, "height_m": null, "levels": null, "tract_id": "40003956000", "tract_name": "9560", "tags": {"building": "yes"}}}, {"type": "Feature", "geometry": {"type": "Polygon", "coordinates": [[[-98.266194, 36.5354211], [-98.2661804, 36.5352628], [-98.2664513, 36.5352477], [-98.2664649, 36.5354061], [-98.266194, 36.5354211]]]}, "properties": {"osm_id": 663503166, "building": "yes", "name": "", "height": null, "height_m": null, "levels": null, "tract_id": "40003956000", "tract_name": "9560", "tags": {"building": "yes"}}}, {"type": "Feature", "geometry": {"type": "Polygon", "coordinates": [[[-98.26781, 36.5349567], [-98.2678047, 36.5347951], [-98.2679487, 36.534792], [-98.2679541, 36.5349536], [-98.26781, 36.5349567]]]}, "properties": {"osm_id": 663503167, "building": "yes", "name": "", "height": null, "height_m": null, "levels": null, "tract_id": "40003956000", "tract_name": "9560", "tags": {"building": "yes"}}}, {"type": "Feature", "geometry": {"type": "Polygon", "coordinates": [[[-98.147238, 36.5353403], [-98.1471343, 36.5353416], [-98.1471316, 36.5352026], [-98.1472354, 36.5352013], [-98.147238, 36.5353403]]]}, "properties": {"osm_id": 663503169, "building": "yes", "name": "", "height": null, "height_m": null, "levels": null, "tract_id": "40003956000", "tract_name": "9560", "tags": {"building": "yes"}}}, {"type": "Feature", "geometry": {"type": "Polygon", "coordinates": [[[-98.1478536, 36.5352574], [-98.147686, 36.5352574], [-98.147686, 36.5351485], [-98.1478536, 36.5351485], [-98.1478536, 36.5352574]]]}, "properties": {"osm_id": 663503170, "building": "yes", "name": "", "height": null, "height_m": null, "levels": null, "tract_id": "40003956000", "tract_name": "9560", "tags": {"building": "yes"}}}, {"type": "Feature", "geometry": {"type": "Polygon", "coordinates": [[[-98.1559606, 36.5354319], [-98.1557152, 36.5354276], [-98.1557174, 36.535346], [-98.1559628, 36.5353503], [-98.1559606, 36.5354319]]]}, "properties": {"osm_id": 663503172, "building": "yes", "name": "", "height": null, "height_m": null, "levels": null, "tract_id": "40003956000", "tract_name": "9560", "tags": {"building": "yes"}}}, {"type": "Feature", "geometry": {"type": "Polygon", "coordinates": [[[-98.1565091, 36.5350979], [-98.1564072, 36.5350979], [-98.1564072, 36.5350375], [-98.1565091, 36.5350375], [-98.1565091, 36.5350979]]]}, "properties": {"osm_id": 663503173, "building": "yes", "name": "", "height": null, "height_m": null, "levels": null, "tract_id": "40003956000", "tract_name": "9560", "tags": {"building": "yes"}}}, {"type": "Feature", "geometry": {"type": "Polygon", "coordinates": [[[-98.1562637, 36.5349298], [-98.1562651, 36.5348593], [-98.1564341, 36.5348614], [-98.1564327, 36.5349319], [-98.1562637, 36.5349298]]]}, "properties": {"osm_id": 663503174, "building": "yes", "name": "", "height": null, "height_m": null, "levels": null, "tract_id": "40003956000", "tract_name": "9560", "tags": {"building": "yes"}}}, {"type": "Feature", "geometry": {"type": "Polygon", "coordinates": [[[-98.1563602, 36.5353263], [-98.1563578, 36.5352343], [-98.1566113, 36.53523], [-98.1566137, 36.535322], [-98.1563602, 36.5353263]]]}, "properties": {"osm_id": 663503175, "building": "yes", "name": "", "height": null, "height_m": null, "levels": null, "tract_id": "40003956000", "tract_name": "9560", "tags": {"building": "yes"}}}, {"type": "Feature", "geometry": {"type": "Polygon", "coordinates": [[[-98.1574506, 36.5349788], [-98.1574511, 36.5349011], [-98.1576918, 36.5349021], [-98.1576913, 36.5349799], [-98.1574506, 36.5349788]]]}, "properties": {"osm_id": 663503176, "building": "yes", "name": "", "height": null, "height_m": null, "levels": null, "tract_id": "40003956000", "tract_name": "9560", "tags": {"building": "yes"}}}, {"type": "Feature", "geometry": {"type": "Polygon", "coordinates": [[[-98.1592141, 36.535294], [-98.1592128, 36.53537], [-98.1591295, 36.535369], [-98.1591309, 36.535293], [-98.1592141, 36.535294]]]}, "properties": {"osm_id": 663503177, "building": "yes", "name": "", "height": null, "height_m": null, "levels": null, "tract_id": "40003956000", "tract_name": "9560", "tags": {"building": "yes"}}}, {"type": "Feature", "geometry": {"type": "Polygon", "coordinates": [[[-98.1587997, 36.5350074], [-98.1586052, 36.5350106], [-98.1586028, 36.5349155], [-98.1587973, 36.5349123], [-98.1587997, 36.5350074]]]}, "properties": {"osm_id": 663503178, "building": "yes", "name": "", "height": null, "height_m": null, "levels": null, "tract_id": "40003956000", "tract_name": "9560", "tags": {"building": "yes"}}}, {"type": "Feature", "geometry": {"type": "Polygon", "coordinates": [[[-98.1585489, 36.5350246], [-98.1583853, 36.5350246], [-98.1583853, 36.5349362], [-98.1585489, 36.5349362], [-98.1585489, 36.5350246]]]}, "properties": {"osm_id": 663503179, "building": "yes", "name": "", "height": null, "height_m": null, "levels": null, "tract_id": "40003956000", "tract_name": "9560", "tags": {"building": "yes"}}}, {"type": "Feature", "geometry": {"type": "Polygon", "coordinates": [[[-98.1591162, 36.5347671], [-98.1588735, 36.5347703], [-98.1588716, 36.5346795], [-98.1591143, 36.5346763], [-98.1591162, 36.5347671]]]}, "properties": {"osm_id": 663503180, "building": "yes", "name": "", "height": null, "height_m": null, "levels": null, "tract_id": "40003956000", "tract_name": "9560", "tags": {"building": "yes"}}}, {"type": "Feature", "geometry": {"type": "Polygon", "coordinates": [[[-98.1594662, 36.535238], [-98.1594716, 36.5353705], [-98.1593378, 36.535374], [-98.1593324, 36.5352415], [-98.1594662, 36.535238]]]}, "properties": {"osm_id": 663503181, "building": "yes", "name": "", "height": null, "height_m": null, "levels": null, "tract_id": "40003956000", "tract_name": "9560", "tags": {"building": "yes"}}}, {"type": "Feature", "geometry": {"type": "Polygon", "coordinates": [[[-98.1550339, 36.5319815], [-98.1550366, 36.532127], [-98.1549248, 36.5321283], [-98.1549222, 36.5319828], [-98.1550339, 36.5319815]]]}, "properties": {"osm_id": 663503182, "building": "yes", "name": "", "height": null, "height_m": null, "levels": null, "tract_id": "40003956000", "tract_name": "9560", "tags": {"building": "yes"}}}, {"type": "Feature", "geometry": {"type": "Polygon", "coordinates": [[[-98.1562999, 36.5311032], [-98.1561175, 36.5311054], [-98.1561156, 36.5310001], [-98.156298, 36.5309979], [-98.1562999, 36.5311032]]]}, "properties": {"osm_id": 663503183, "building": "yes", "name": "", "height": null, "height_m": null, "levels": null, "tract_id": "40003956000", "tract_name": "9560", "tags": {"building": "yes"}}}, {"type": "Feature", "geometry": {"type": "Polygon", "coordinates": [[[-98.1525274, 36.5318209], [-98.1522685, 36.5316463], [-98.1523488, 36.5315695], [-98.1526076, 36.5317441], [-98.1525274, 36.5318209]]]}, "properties": {"osm_id": 663503184, "building": "yes", "name": "", "height": null, "height_m": null, "levels": null, "tract_id": "40003956000", "tract_name": "9560", "tags": {"building": "yes"}}}, {"type": "Feature", "geometry": {"type": "Polygon", "coordinates": [[[-98.1523604, 36.5307918], [-98.1522759, 36.5307939], [-98.1522727, 36.5307139], [-98.1523572, 36.5307118], [-98.1523604, 36.5307918]]]}, "properties": {"osm_id": 663503185, "building": "yes", "name": "", "height": null, "height_m": null, "levels": null, "tract_id": "40003956000", "tract_name": "9560", "tags": {"building": "yes"}}}, {"type": "Feature", "geometry": {"type": "Polygon", "coordinates": [[[-98.1522618, 36.5297551], [-98.1522658, 36.5299114], [-98.1521294, 36.5299136], [-98.1521254, 36.5297574], [-98.1522618, 36.5297551]]]}, "properties": {"osm_id": 663503186, "building": "yes", "name": "", "height": null, "height_m": null, "levels": null, "tract_id": "40003956000", "tract_name": "9560", "tags": {"building": "yes"}}}, {"type": "Feature", "geometry": {"type": "Polygon", "coordinates": [[[-98.1513311, 36.5294879], [-98.151252, 36.52949], [-98.1512487, 36.5294134], [-98.1513279, 36.5294112], [-98.1513311, 36.5294879]]]}, "properties": {"osm_id": 663503187, "building": "yes", "name": "", "height": null, "height_m": null, "levels": null, "tract_id": "40003956000", "tract_name": "9560", "tags": {"building": "yes"}}}, {"type": "Feature", "geometry": {"type": "Polygon", "coordinates": [[[-98.1512238, 36.5298489], [-98.1511085, 36.5298467], [-98.1511106, 36.5297723], [-98.151226, 36.5297744], [-98.1512238, 36.5298489]]]}, "properties": {"osm_id": 663503189, "building": "yes", "name": "", "height": null, "height_m": null, "levels": null, "tract_id": "40003956000", "tract_name": "9560", "tags": {"building": "yes"}}}, {"type": "Feature", "geometry": {"type": "Polygon", "coordinates": [[[-98.1511192, 36.5294383], [-98.1511219, 36.5295148], [-98.1510525, 36.5295164], [-98.1510499, 36.5294399], [-98.1511192, 36.5294383]]]}, "properties": {"osm_id": 663503190, "building": "yes", "name": "", "height": null, "height_m": null, "levels": null, "tract_id": "40003956000", "tract_name": "9560", "tags": {"building": "yes"}}}, {"type": "Feature", "geometry": {"type": "Polygon", "coordinates": [[[-98.4555472, 36.5785859], [-98.4556277, 36.5785859], [-98.4556277, 36.5788035], [-98.4555472, 36.5788035], [-98.4555472, 36.5785859]]]}, "properties": {"osm_id": 663506141, "building": "yes", "name": "", "height": null, "height_m": null, "levels": null, "tract_id": "40003956000", "tract_name": "9560", "tags": {"building": "yes"}}}, {"type": "Feature", "geometry": {"type": "Polygon", "coordinates": [[[-98.4540807, 36.5785396], [-98.4539507, 36.5785289], [-98.4539733, 36.5783528], [-98.4541033, 36.5783636], [-98.4540807, 36.5785396]]]}, "properties": {"osm_id": 663506142, "building": "yes", "name": "", "height": null, "height_m": null, "levels": null, "tract_id": "40003956000", "tract_name": "9560", "tags": {"building": "yes"}}}, {"type": "Feature", "geometry": {"type": "Polygon", "coordinates": [[[-98.4610042, 36.5856376], [-98.4610096, 36.5859757], [-98.4608108, 36.5859777], [-98.4608054, 36.5856396], [-98.4610042, 36.5856376]]]}, "properties": {"osm_id": 663506187, "building": "yes", "name": "", "height": null, "height_m": null, "levels": null, "tract_id": "40003956000", "tract_name": "9560", "tags": {"building": "yes"}}}, {"type": "Feature", "geometry": {"type": "Polygon", "coordinates": [[[-98.4618491, 36.5809531], [-98.4618491, 36.5808238], [-98.4619953, 36.5808238], [-98.4619953, 36.5809531], [-98.4618491, 36.5809531]]]}, "properties": {"osm_id": 663506188, "building": "yes", "name": "", "height": null, "height_m": null, "levels": null, "tract_id": "40003956000", "tract_name": "9560", "tags": {"building": "yes"}}}, {"type": "Feature", "geometry": {"type": "Polygon", "coordinates": [[[-98.4629595, 36.5817985], [-98.4628174, 36.5817931], [-98.4628228, 36.5817009], [-98.4629649, 36.5817063], [-98.4629595, 36.5817985]]]}, "properties": {"osm_id": 663506189, "building": "yes", "name": "", "height": null, "height_m": null, "levels": null, "tract_id": "40003956000", "tract_name": "9560", "tags": {"building": "yes"}}}, {"type": "Feature", "geometry": {"type": "Polygon", "coordinates": [[[-98.4628764, 36.5816434], [-98.4626819, 36.5816434], [-98.4626819, 36.58154], [-98.4628764, 36.58154], [-98.4628764, 36.5816434]]]}, "properties": {"osm_id": 663506190, "building": "yes", "name": "", "height": null, "height_m": null, "levels": null, "tract_id": "40003956000", "tract_name": "9560", "tags": {"building": "yes"}}}, {"type": "Feature", "geometry": {"type": "Polygon", "coordinates": [[[-98.4635215, 36.5814915], [-98.4633082, 36.5814958], [-98.4633053, 36.5814039], [-98.4635186, 36.5813995], [-98.4635215, 36.5814915]]]}, "properties": {"osm_id": 663506191, "building": "yes", "name": "", "height": null, "height_m": null, "levels": null, "tract_id": "40003956000", "tract_name": "9560", "tags": {"building": "yes"}}}, {"type": "Feature", "geometry": {"type": "Polygon", "coordinates": [[[-98.4658188, 36.5821592], [-98.4658214, 36.5823918], [-98.4657465, 36.5823924], [-98.4657438, 36.5821598], [-98.4658188, 36.5821592]]]}, "properties": {"osm_id": 663506192, "building": "yes", "name": "", "height": null, "height_m": null, "levels": null, "tract_id": "40003956000", "tract_name": "9560", "tags": {"building": "yes"}}}, {"type": "Feature", "geometry": {"type": "Polygon", "coordinates": [[[-98.4685814, 36.5781961], [-98.4683105, 36.5781875], [-98.4683161, 36.5780744], [-98.468587, 36.5780831], [-98.4685814, 36.5781961]]]}, "properties": {"osm_id": 663506193, "building": "yes", "name": "", "height": null, "height_m": null, "levels": null, "tract_id": "40003956000", "tract_name": "9560", "tags": {"building": "yes"}}}, {"type": "Feature", "geometry": {"type": "Polygon", "coordinates": [[[-98.4520201, 36.5792774], [-98.4520228, 36.579413], [-98.4519345, 36.5794142], [-98.4519318, 36.5792785], [-98.4520201, 36.5792774]]]}, "properties": {"osm_id": 663506194, "building": "yes", "name": "", "height": null, "height_m": null, "levels": null, "tract_id": "40003956000", "tract_name": "9560", "tags": {"building": "yes"}}}, {"type": "Feature", "geometry": {"type": "Polygon", "coordinates": [[[-98.4519383, 36.5792472], [-98.4517023, 36.5792494], [-98.4517009, 36.5791483], [-98.4519369, 36.5791462], [-98.4519383, 36.5792472]]]}, "properties": {"osm_id": 663506195, "building": "yes", "name": "", "height": null, "height_m": null, "levels": null, "tract_id": "40003956000", "tract_name": "9560", "tags": {"building": "yes"}}}, {"type": "Feature", "geometry": {"type": "Polygon", "coordinates": [[[-98.4593681, 36.579091], [-98.4593734, 36.5793097], [-98.4591998, 36.5793124], [-98.4591945, 36.5790938], [-98.4593681, 36.579091]]]}, "properties": {"osm_id": 663506196, "building": "yes", "name": "", "height": null, "height_m": null, "levels": null, "tract_id": "40003956000", "tract_name": "9560", "tags": {"building": "yes"}}}, {"type": "Feature", "geometry": {"type": "Polygon", "coordinates": [[[-98.4630333, 36.5794626], [-98.4630387, 36.5797038], [-98.4628796, 36.5797061], [-98.4628743, 36.5794649], [-98.4630333, 36.5794626]]]}, "properties": {"osm_id": 663506197, "building": "yes", "name": "", "height": null, "height_m": null, "levels": null, "tract_id": "40003956000", "tract_name": "9560", "tags": {"building": "yes"}}}, {"type": "Feature", "geometry": {"type": "Polygon", "coordinates": [[[-98.4598066, 36.5790738], [-98.4598053, 36.5793204], [-98.4597019, 36.5793201], [-98.4597032, 36.5790734], [-98.4598066, 36.5790738]]]}, "properties": {"osm_id": 663506198, "building": "yes", "name": "", "height": null, "height_m": null, "levels": null, "tract_id": "40003956000", "tract_name": "9560", "tags": {"building": "yes"}}}, {"type": "Feature", "geometry": {"type": "Polygon", "coordinates": [[[-98.4659663, 36.5775391], [-98.4661452, 36.5775424], [-98.4661371, 36.5778246], [-98.4659582, 36.5778213], [-98.4659663, 36.5775391]]]}, "properties": {"osm_id": 663506199, "building": "yes", "name": "", "height": null, "height_m": null, "levels": null, "tract_id": "40003956000", "tract_name": "9560", "tags": {"building": "yes"}}}, {"type": "Feature", "geometry": {"type": "Polygon", "coordinates": [[[-98.4661138, 36.5780712], [-98.4661138, 36.5782973], [-98.4659851, 36.5782973], [-98.4659851, 36.5780712], [-98.4661138, 36.5780712]]]}, "properties": {"osm_id": 663506200, "building": "yes", "name": "", "height": null, "height_m": null, "levels": null, "tract_id": "40003956000", "tract_name": "9560", "tags": {"building": "yes"}}}, {"type": "Feature", "geometry": {"type": "Polygon", "coordinates": [[[-98.4799996, 36.6224618], [-98.4797984, 36.6224596], [-98.4798012, 36.6222911], [-98.4800024, 36.6222933], [-98.4799996, 36.6224618]]]}, "properties": {"osm_id": 664136982, "building": "yes", "name": "", "height": null, "height_m": null, "levels": null, "tract_id": "40003956000", "tract_name": "9560", "tags": {"building": "yes"}}}, {"type": "Feature", "geometry": {"type": "Polygon", "coordinates": [[[-98.4793143, 36.6512121], [-98.478979, 36.651196], [-98.4789934, 36.6510041], [-98.4793287, 36.6510202], [-98.4793143, 36.6512121]]]}, "properties": {"osm_id": 664136997, "building": "yes", "name": "", "height": null, "height_m": null, "levels": null, "tract_id": "40003956000", "tract_name": "9560", "tags": {"building": "yes"}}}, {"type": "Feature", "geometry": {"type": "Polygon", "coordinates": [[[-98.4498859, 36.5103649], [-98.4497955, 36.5103647], [-98.4497957, 36.5102859], [-98.4498862, 36.5102861], [-98.4498859, 36.5103649]]]}, "properties": {"osm_id": 940486541, "building": "yes", "name": "", "height": null, "height_m": null, "levels": null, "tract_id": "40003956000", "tract_name": "9560", "tags": {"building": "yes"}}}, {"type": "Feature", "geometry": {"type": "Polygon", "coordinates": [[[-98.4509972, 36.5095196], [-98.4509979, 36.5094348], [-98.450823, 36.5094337], [-98.4508262, 36.5095202], [-98.4509972, 36.5095196]]]}, "properties": {"osm_id": 940486542, "building": "yes", "name": "", "height": null, "height_m": null, "levels": null, "tract_id": "40003956000", "tract_name": "9560", "tags": {"building": "yes", "shop": "hairdresser"}}}, {"type": "Feature", "geometry": {"type": "Polygon", "coordinates": [[[-98.1534999, 36.5347978], [-98.1533819, 36.5347958], [-98.1533799, 36.5348418], [-98.153261, 36.5348462], [-98.1532626, 36.534945], [-98.1533711, 36.5349407], [-98.1533711, 36.5349718], [-98.1534997, 36.5349715], [-98.1534999, 36.5347978]]]}, "properties": {"osm_id": 1160036667, "building": "house", "name": "", "height": null, "height_m": null, "levels": null, "tract_id": "40003956000", "tract_name": "9560", "tags": {"building": "house"}}}, {"type": "Feature", "geometry": {"type": "Polygon", "coordinates": [[[-98.2790493, 36.5452906], [-98.279052, 36.5457069], [-98.2790453, 36.5457069], [-98.2790455, 36.5457341], [-98.2790177, 36.5457342], [-98.2790175, 36.5457088], [-98.2789947, 36.5457089], [-98.2789948, 36.5457239], [-98.2788806, 36.5457243], [-98.2788805, 36.5457122], [-98.2787455, 36.5457127], [-98.2786795, 36.545713], [-98.2786797, 36.5457395], [-98.2786129, 36.5457397], [-98.2786127, 36.5457128], [-98.2785382, 36.5457131], [-98.2785383, 36.5457268], [-98.2782601, 36.545728], [-98.2782581, 36.5454197], [-98.2783359, 36.5454194], [-98.2783344, 36.5451906], [-98.2785119, 36.5451899], [-98.2785132, 36.5453743], [-98.2785834, 36.545374], [-98.2785837, 36.5454191], [-98.2787511, 36.5454184], [-98.2787509, 36.5453925], [-98.2787945, 36.5453924], [-98.2787939, 36.5452917], [-98.2790493, 36.5452906]]]}, "properties": {"osm_id": 1237028612, "building": "yes", "name": "", "height": null, "height_m": null, "levels": null, "tract_id": "40003956000", "tract_name": "9560", "tags": {"building": "yes"}}}, {"type": "Feature", "geometry": {"type": "Polygon", "coordinates": [[[-98.278225, 36.5451938], [-98.278227, 36.5453224], [-98.2779233, 36.5453254], [-98.2779237, 36.545348], [-98.2776553, 36.5453506], [-98.2776093, 36.5453511], [-98.27761, 36.5453922], [-98.2773795, 36.5453945], [-98.2773809, 36.5454864], [-98.2771209, 36.545489], [-98.2771184, 36.5453272], [-98.2770857, 36.5453275], [-98.2770852, 36.5452924], [-98.2771199, 36.5452921], [-98.2771188, 36.5452216], [-98.2776386, 36.5452163], [-98.277639, 36.5452431], [-98.2778256, 36.5452413], [-98.2778249, 36.5451977], [-98.278225, 36.5451938]]]}, "properties": {"osm_id": 1237028613, "building": "yes", "name": "", "height": null, "height_m": null, "levels": null, "tract_id": "40003956000", "tract_name": "9560", "tags": {"building": "yes"}}}, {"type": "Feature", "geometry": {"type": "Polygon", "coordinates": [[[-98.2775503, 36.5454222], [-98.2775517, 36.5455576], [-98.2775299, 36.5455578], [-98.2775304, 36.5456044], [-98.2776879, 36.5456034], [-98.2776891, 36.5457275], [-98.2775399, 36.5457285], [-98.2775401, 36.5457457], [-98.277458, 36.5457463], [-98.2774578, 36.545727], [-98.2773143, 36.5457279], [-98.277313, 36.5456063], [-98.2774484, 36.5456054], [-98.2774465, 36.5454229], [-98.2775503, 36.5454222]]]}, "properties": {"osm_id": 1237028614, "building": "yes", "name": "", "height": null, "height_m": null, "levels": null, "tract_id": "40003956000", "tract_name": "9560", "tags": {"building": "yes"}}}, {"type": "Feature", "geometry": {"type": "Polygon", "coordinates": [[[-98.2770269, 36.5454276], [-98.2769203, 36.5454272], [-98.2768562, 36.5454269], [-98.2768532, 36.545888], [-98.2768879, 36.5458882], [-98.2769153, 36.5458883], [-98.2769153, 36.5458971], [-98.2769545, 36.5458973], [-98.2769546, 36.5458864], [-98.277024, 36.5458867], [-98.2770243, 36.5458384], [-98.2770269, 36.5454276]]]}, "properties": {"osm_id": 1237028615, "building": "yes", "name": "", "height": null, "height_m": null, "levels": null, "tract_id": "40003956000", "tract_name": "9560", "tags": {"addr:city": "Helena", "addr:housenumber": "216", "addr:postcode": "73741", "addr:state": "OK", "addr:street": "Murray Street", "building": "yes"}}}, {"type": "Feature", "geometry": {"type": "Polygon", "coordinates": [[[-98.2776895, 36.5459623], [-98.2776904, 36.5461963], [-98.2775273, 36.5461967], [-98.2775264, 36.5459627], [-98.2776895, 36.5459623]]]}, "properties": {"osm_id": 1237028616, "building": "yes", "name": "", "height": null, "height_m": null, "levels": null, "tract_id": "40003956000", "tract_name": "9560", "tags": {"building": "yes"}}}, {"type": "Feature", "geometry": {"type": "Polygon", "coordinates": [[[-98.2779559, 36.5458621], [-98.2779564, 36.5459061], [-98.2779397, 36.5459062], [-98.2779398, 36.5459148], [-98.2779269, 36.5459149], [-98.2779271, 36.5459334], [-98.2779394, 36.5459333], [-98.2779398, 36.5459639], [-98.2779265, 36.545964], [-98.2779267, 36.5459831], [-98.2779404, 36.545983], [-98.2779413, 36.5460491], [-98.2779242, 36.5460492], [-98.2779245, 36.5460723], [-98.2779407, 36.5460721], [-98.2779413, 36.5461174], [-98.2779258, 36.5461175], [-98.2779261, 36.5461377], [-98.277941, 36.5461376], [-98.2779413, 36.546163], [-98.2783193, 36.5461601], [-98.2783192, 36.5461537], [-98.2783187, 36.5461108], [-98.2783183, 36.5460733], [-98.2783669, 36.546073], [-98.2783663, 36.5460176], [-98.2783154, 36.5460179], [-98.278315, 36.5459813], [-98.2783135, 36.5458594], [-98.2779559, 36.5458621]]]}, "properties": {"osm_id": 1237028617, "building": "yes", "name": "", "height": null, "height_m": null, "levels": null, "tract_id": "40003956000", "tract_name": "9560", "tags": {"building": "yes"}}}, {"type": "Feature", "geometry": {"type": "Polygon", "coordinates": [[[-98.2788741, 36.5465871], [-98.278508, 36.5465902], [-98.278506, 36.5464445], [-98.278517, 36.5464444], [-98.2785136, 36.5461974], [-98.2785604, 36.546197], [-98.2785564, 36.5459075], [-98.2786398, 36.5459068], [-98.2786394, 36.5458783], [-98.278669, 36.545878], [-98.2786694, 36.5459069], [-98.2787566, 36.5459062], [-98.2787604, 36.5461944], [-98.2788076, 36.546194], [-98.2788109, 36.5464422], [-98.2788722, 36.5464417], [-98.2788741, 36.5465871]]]}, "properties": {"osm_id": 1237028618, "building": "yes", "name": "", "height": null, "height_m": null, "levels": null, "tract_id": "40003956000", "tract_name": "9560", "tags": {"building": "yes"}}}, {"type": "Feature", "geometry": {"type": "Polygon", "coordinates": [[[-98.277691, 36.5464382], [-98.2776918, 36.5465552], [-98.2773232, 36.5465569], [-98.2773224, 36.5464392], [-98.2774657, 36.5464386], [-98.2774655, 36.5464146], [-98.277546, 36.5464143], [-98.2775462, 36.5464388], [-98.277691, 36.5464382]]]}, "properties": {"osm_id": 1237028620, "building": "yes", "name": "", "height": null, "height_m": null, "levels": null, "tract_id": "40003956000", "tract_name": "9560", "tags": {"building": "yes"}}}, {"type": "Feature", "geometry": {"type": "Polygon", "coordinates": [[[-98.2781832, 36.5465452], [-98.278184, 36.5466623], [-98.2778154, 36.546664], [-98.2778146, 36.5465463], [-98.2779579, 36.5465456], [-98.2779577, 36.5465217], [-98.2780383, 36.5465213], [-98.2780384, 36.5465459], [-98.2781832, 36.5465452]]]}, "properties": {"osm_id": 1237028621, "building": "yes", "name": "", "height": null, "height_m": null, "levels": null, "tract_id": "40003956000", "tract_name": "9560", "tags": {"building": "yes"}}}, {"type": "Feature", "geometry": {"type": "Polygon", "coordinates": [[[-98.2785241, 36.5468807], [-98.2784034, 36.5468816], [-98.2784025, 36.546799], [-98.2782606, 36.5468], [-98.2782597, 36.546717], [-98.2783502, 36.5467164], [-98.2783503, 36.5467232], [-98.278405, 36.5467228], [-98.2784048, 36.5467016], [-98.2785222, 36.5467008], [-98.2785241, 36.5468807]]]}, "properties": {"osm_id": 1237028622, "building": "yes", "name": "", "height": null, "height_m": null, "levels": null, "tract_id": "40003956000", "tract_name": "9560", "tags": {"building": "yes"}}}, {"type": "Feature", "geometry": {"type": "Polygon", "coordinates": [[[-98.2797409, 36.5474024], [-98.2797038, 36.5473998], [-98.2797068, 36.5473733], [-98.2797438, 36.5473759], [-98.2797409, 36.5474024]]]}, "properties": {"osm_id": 1237028623, "building": "yes", "name": "", "height": null, "height_m": null, "levels": null, "tract_id": "40003956000", "tract_name": "9560", "tags": {"building": "yes"}}}, {"type": "Feature", "geometry": {"type": "Polygon", "coordinates": [[[-98.2798712, 36.5473429], [-98.2798342, 36.5473403], [-98.2798371, 36.5473138], [-98.2798742, 36.5473164], [-98.2798712, 36.5473429]]]}, "properties": {"osm_id": 1237028624, "building": "yes", "name": "", "height": null, "height_m": null, "levels": null, "tract_id": "40003956000", "tract_name": "9560", "tags": {"building": "yes"}}}, {"type": "Feature", "geometry": {"type": "Polygon", "coordinates": [[[-98.2799509, 36.5468391], [-98.279864, 36.5468363], [-98.2798682, 36.5467537], [-98.2799551, 36.5467565], [-98.2799509, 36.5468391]]]}, "properties": {"osm_id": 1237028625, "building": "yes", "name": "", "height": null, "height_m": null, "levels": null, "tract_id": "40003956000", "tract_name": "9560", "tags": {"building": "yes"}}}, {"type": "Feature", "geometry": {"type": "Polygon", "coordinates": [[[-98.2769102, 36.5460689], [-98.2768872, 36.5460688], [-98.2768567, 36.5460687], [-98.2768563, 36.5461527], [-98.2769097, 36.5461529], [-98.2769102, 36.5460689]]]}, "properties": {"osm_id": 1237028626, "building": "yes", "name": "", "height": null, "height_m": null, "levels": null, "tract_id": "40003956000", "tract_name": "9560", "tags": {"building": "yes"}}}, {"type": "Feature", "geometry": {"type": "Polygon", "coordinates": [[[-98.2782129, 36.545615], [-98.2778851, 36.5456176], [-98.2778867, 36.5457425], [-98.2780392, 36.5457414], [-98.2780393, 36.5457506], [-98.2782145, 36.5457492], [-98.2782129, 36.545615]]]}, "properties": {"osm_id": 1237037635, "building": "yes", "name": "", "height": null, "height_m": null, "levels": null, "tract_id": "40003956000", "tract_name": "9560", "tags": {"building": "yes"}}}, {"type": "Feature", "geometry": {"type": "Polygon", "coordinates": [[[-98.2767855, 36.5452474], [-98.276785, 36.5453134], [-98.2767214, 36.5453131], [-98.2767219, 36.5452471], [-98.2767855, 36.5452474]]]}, "properties": {"osm_id": 1237037637, "building": "yes", "name": "", "height": null, "height_m": null, "levels": null, "tract_id": "40003956000", "tract_name": "9560", "tags": {"building": "yes"}}}, {"type": "Feature", "geometry": {"type": "Polygon", "coordinates": [[[-98.2786844, 36.545386], [-98.2786833, 36.5452893], [-98.2787292, 36.545289], [-98.2787297, 36.5453282], [-98.278724, 36.5453282], [-98.2787247, 36.5453857], [-98.2786844, 36.545386]]]}, "properties": {"osm_id": 1237037650, "building": "yes", "name": "", "height": null, "height_m": null, "levels": null, "tract_id": "40003956000", "tract_name": "9560", "tags": {"building": "yes"}}}, {"type": "Feature", "geometry": {"type": "Polygon", "coordinates": [[[-98.2786326, 36.5453641], [-98.2786046, 36.545364], [-98.2786048, 36.5453094], [-98.2786329, 36.5453095], [-98.2786326, 36.5453641]]]}, "properties": {"osm_id": 1237037651, "building": "yes", "name": "", "height": null, "height_m": null, "levels": null, "tract_id": "40003956000", "tract_name": "9560", "tags": {"building": "yes"}}}, {"type": "Feature", "geometry": {"type": "Polygon", "coordinates": [[[-98.2778001, 36.548489], [-98.2777235, 36.5485514], [-98.2776507, 36.5484937], [-98.2777274, 36.5484313], [-98.2778001, 36.548489]]]}, "properties": {"osm_id": 1237040460, "building": "yes", "name": "", "height": null, "height_m": null, "levels": null, "tract_id": "40003956000", "tract_name": "9560", "tags": {"building": "yes"}}}, {"type": "Feature", "geometry": {"type": "Polygon", "coordinates": [[[-98.2769942, 36.5472154], [-98.2769572, 36.5472151], [-98.2769579, 36.5471568], [-98.2769949, 36.5471571], [-98.2769942, 36.5472154]]]}, "properties": {"osm_id": 1237040462, "building": "yes", "name": "", "height": null, "height_m": null, "levels": null, "tract_id": "40003956000", "tract_name": "9560", "tags": {"building": "yes"}}}, {"type": "Feature", "geometry": {"type": "Polygon", "coordinates": [[[-98.2770449, 36.5471807], [-98.2770463, 36.5473545], [-98.2772494, 36.5473534], [-98.2772499, 36.5474202], [-98.2773184, 36.5474198], [-98.2773178, 36.5473522], [-98.2773921, 36.5473518], [-98.2773918, 36.5473073], [-98.2774165, 36.5473072], [-98.277416, 36.5472484], [-98.2773909, 36.5472485], [-98.2773906, 36.5472064], [-98.2771875, 36.5472075], [-98.2771872, 36.54718], [-98.2770449, 36.5471807]]]}, "properties": {"osm_id": 1237040463, "building": "yes", "name": "", "height": null, "height_m": null, "levels": null, "tract_id": "40003956000", "tract_name": "9560", "tags": {"building": "yes"}}}, {"type": "Feature", "geometry": {"type": "Polygon", "coordinates": [[[-98.277433, 36.547605], [-98.277333, 36.5476109], [-98.2773264, 36.5475399], [-98.2774265, 36.547534], [-98.277433, 36.547605]]]}, "properties": {"osm_id": 1237040466, "building": "yes", "name": "", "height": null, "height_m": null, "levels": null, "tract_id": "40003956000", "tract_name": "9560", "tags": {"building": "yes"}}}, {"type": "Feature", "geometry": {"type": "Polygon", "coordinates": [[[-98.2783052, 36.5463293], [-98.2783061, 36.546355], [-98.2782732, 36.5463557], [-98.2782724, 36.54633], [-98.2783052, 36.5463293]]]}, "properties": {"osm_id": 1237075211, "building": "yes", "name": "", "height": null, "height_m": null, "levels": null, "tract_id": "40003956000", "tract_name": "9560", "tags": {"building": "yes"}}}, {"type": "Feature", "geometry": {"type": "Polygon", "coordinates": [[[-98.2790397, 36.545747], [-98.27904, 36.5457748], [-98.2790045, 36.545775], [-98.2790043, 36.5457472], [-98.2790397, 36.545747]]]}, "properties": {"osm_id": 1237075215, "building": "yes", "name": "", "height": null, "height_m": null, "levels": null, "tract_id": "40003956000", "tract_name": "9560", "tags": {"building": "yes"}}}, {"type": "Feature", "geometry": {"type": "Polygon", "coordinates": [[[-98.2781911, 36.5473885], [-98.2780405, 36.5473888], [-98.2780399, 36.5472079], [-98.2781644, 36.5472076], [-98.2781645, 36.5472549], [-98.2781907, 36.5472549], [-98.2781911, 36.5473885]]]}, "properties": {"osm_id": 1237075217, "building": "yes", "name": "", "height": null, "height_m": null, "levels": null, "tract_id": "40003956000", "tract_name": "9560", "tags": {"building": "yes"}}}, {"type": "Feature", "geometry": {"type": "Polygon", "coordinates": [[[-98.2784623, 36.5471711], [-98.2784227, 36.5471635], [-98.2784117, 36.5472006], [-98.2784512, 36.5472083], [-98.2784623, 36.5471711]]]}, "properties": {"osm_id": 1237075218, "building": "yes", "name": "", "height": null, "height_m": null, "levels": null, "tract_id": "40003956000", "tract_name": "9560", "tags": {"building": "yes"}}}, {"type": "Feature", "geometry": {"type": "Polygon", "coordinates": [[[-98.280335, 36.5483641], [-98.2803283, 36.5483523], [-98.2803173, 36.5483427], [-98.2803019, 36.5483361], [-98.2802847, 36.548334], [-98.2802676, 36.5483367], [-98.2802526, 36.5483439], [-98.2802415, 36.5483547], [-98.2802356, 36.5483679], [-98.2802356, 36.548382], [-98.2802414, 36.5483952], [-98.2802525, 36.548406], [-98.2802663, 36.5484128], [-98.2802821, 36.5484159], [-98.2802982, 36.5484148], [-98.2803131, 36.5484096], [-98.2803253, 36.548401], [-98.2803334, 36.5483898], [-98.2803368, 36.5483771], [-98.280335, 36.5483641]]]}, "properties": {"osm_id": 1237075220, "building": "yes", "name": "", "height": null, "height_m": null, "levels": null, "tract_id": "40003956000", "tract_name": "9560", "tags": {"building": "yes"}}}, {"type": "Feature", "geometry": {"type": "Polygon", "coordinates": [[[-98.280196, 36.5446733], [-98.2801944, 36.5444505], [-98.2803365, 36.5444499], [-98.2803366, 36.5444616], [-98.2803984, 36.5444613], [-98.2803986, 36.5444901], [-98.2803325, 36.5444904], [-98.2803338, 36.5446728], [-98.280307, 36.544673], [-98.2803073, 36.5447145], [-98.2802183, 36.5447149], [-98.280218, 36.5446732], [-98.280196, 36.5446733]]]}, "properties": {"osm_id": 1237081206, "building": "yes", "name": "", "height": null, "height_m": null, "levels": null, "tract_id": "40003956000", "tract_name": "9560", "tags": {"building": "yes"}}}, {"type": "Feature", "geometry": {"type": "Polygon", "coordinates": [[[-98.2794133, 36.5444078], [-98.2794116, 36.5444744], [-98.2793725, 36.5444737], [-98.2793742, 36.5444072], [-98.2794133, 36.5444078]]]}, "properties": {"osm_id": 1237081210, "building": "yes", "name": "", "height": null, "height_m": null, "levels": null, "tract_id": "40003956000", "tract_name": "9560", "tags": {"building": "yes"}}}, {"type": "Feature", "geometry": {"type": "Polygon", "coordinates": [[[-98.2793143, 36.5444261], [-98.2793138, 36.544473], [-98.2792818, 36.5444728], [-98.2792823, 36.5444259], [-98.2793143, 36.5444261]]]}, "properties": {"osm_id": 1237081211, "building": "yes", "name": "", "height": null, "height_m": null, "levels": null, "tract_id": "40003956000", "tract_name": "9560", "tags": {"building": "yes"}}}, {"type": "Feature", "geometry": {"type": "Polygon", "coordinates": [[[-98.2791628, 36.5445599], [-98.2791659, 36.5444757], [-98.2791206, 36.5444746], [-98.2791175, 36.5445588], [-98.2791628, 36.5445599]]]}, "properties": {"osm_id": 1237081212, "building": "yes", "name": "", "height": null, "height_m": null, "levels": null, "tract_id": "40003956000", "tract_name": "9560", "tags": {"building": "yes"}}}, {"type": "Feature", "geometry": {"type": "Polygon", "coordinates": [[[-98.2790361, 36.5444728], [-98.2790338, 36.5445313], [-98.2789287, 36.5445286], [-98.278931, 36.5444701], [-98.2790361, 36.5444728]]]}, "properties": {"osm_id": 1237081213, "building": "yes", "name": "", "height": null, "height_m": null, "levels": null, "tract_id": "40003956000", "tract_name": "9560", "tags": {"building": "yes"}}}, {"type": "Feature", "geometry": {"type": "Polygon", "coordinates": [[[-98.2791116, 36.5446011], [-98.2791124, 36.5446458], [-98.2790224, 36.5446469], [-98.2790215, 36.5446022], [-98.2791116, 36.5446011]]]}, "properties": {"osm_id": 1237081214, "building": "yes", "name": "", "height": null, "height_m": null, "levels": null, "tract_id": "40003956000", "tract_name": "9560", "tags": {"building": "yes"}}}, {"type": "Feature", "geometry": {"type": "Polygon", "coordinates": [[[-98.2795058, 36.5446981], [-98.2791941, 36.5446981], [-98.2791941, 36.5447397], [-98.2792599, 36.5447397], [-98.2792599, 36.544967], [-98.279433, 36.544967], [-98.2794331, 36.5447797], [-98.2795059, 36.5447797], [-98.2795058, 36.5446981]]]}, "properties": {"osm_id": 1237081215, "building": "yes", "name": "", "height": null, "height_m": null, "levels": null, "tract_id": "40003956000", "tract_name": "9560", "tags": {"building": "yes"}}}, {"type": "Feature", "geometry": {"type": "Polygon", "coordinates": [[[-98.280357, 36.5448358], [-98.2803545, 36.5447927], [-98.2802708, 36.5447958], [-98.2802733, 36.5448389], [-98.280357, 36.5448358]]]}, "properties": {"osm_id": 1237081216, "building": "yes", "name": "", "height": null, "height_m": null, "levels": null, "tract_id": "40003956000", "tract_name": "9560", "tags": {"building": "yes"}}}, {"type": "Feature", "geometry": {"type": "Polygon", "coordinates": [[[-98.2803564, 36.5448424], [-98.2802737, 36.5448448], [-98.2802751, 36.5448759], [-98.2803578, 36.5448735], [-98.2803564, 36.5448424]]]}, "properties": {"osm_id": 1237081217, "building": "yes", "name": "", "height": null, "height_m": null, "levels": null, "tract_id": "40003956000", "tract_name": "9560", "tags": {"building": "yes"}}}, {"type": "Feature", "geometry": {"type": "Polygon", "coordinates": [[[-98.2797014, 36.5452639], [-98.2797029, 36.5452957], [-98.2796506, 36.5452972], [-98.2796492, 36.5452654], [-98.2797014, 36.5452639]]]}, "properties": {"osm_id": 1237081218, "building": "yes", "name": "", "height": null, "height_m": null, "levels": null, "tract_id": "40003956000", "tract_name": "9560", "tags": {"building": "yes"}}}, {"type": "Feature", "geometry": {"type": "Polygon", "coordinates": [[[-98.2795656, 36.5455294], [-98.2795664, 36.5454252], [-98.2793233, 36.545424], [-98.2793214, 36.5456707], [-98.2793315, 36.5456708], [-98.2793312, 36.5457157], [-98.2793455, 36.5457157], [-98.2793452, 36.5457566], [-98.27947, 36.5457572], [-98.2794703, 36.5457183], [-98.2793824, 36.5457179], [-98.2793827, 36.5456715], [-98.2794328, 36.5456717], [-98.2794337, 36.5455587], [-98.2794498, 36.5455588], [-98.2794502, 36.5455111], [-98.2794829, 36.5455112], [-98.2794827, 36.5455289], [-98.2795656, 36.5455294]]]}, "properties": {"osm_id": 1237081219, "building": "yes", "name": "", "height": null, "height_m": null, "levels": null, "tract_id": "40003956000", "tract_name": "9560", "tags": {"building": "yes"}}}, {"type": "Feature", "geometry": {"type": "Polygon", "coordinates": [[[-98.2803655, 36.5457986], [-98.280365, 36.5457128], [-98.2801221, 36.5457138], [-98.2801226, 36.5457995], [-98.2803655, 36.5457986]]]}, "properties": {"osm_id": 1237081220, "building": "yes", "name": "", "height": null, "height_m": null, "levels": null, "tract_id": "40003956000", "tract_name": "9560", "tags": {"building": "yes"}}}, {"type": "Feature", "geometry": {"type": "Polygon", "coordinates": [[[-98.2808985, 36.5466702], [-98.2806597, 36.5466761], [-98.2806572, 36.5466124], [-98.2808961, 36.5466066], [-98.2808985, 36.5466702]]]}, "properties": {"osm_id": 1237081221, "building": "yes", "name": "", "height": null, "height_m": null, "levels": null, "tract_id": "40003956000", "tract_name": "9560", "tags": {"building": "yes"}}}, {"type": "Feature", "geometry": {"type": "Polygon", "coordinates": [[[-98.2810395, 36.5460503], [-98.2810469, 36.5460567], [-98.2810512, 36.5460647], [-98.281052, 36.5460727], [-98.2810496, 36.5460804], [-98.2810443, 36.5460872], [-98.2810367, 36.5460924], [-98.2810274, 36.5460953], [-98.2810175, 36.5460958], [-98.2810078, 36.5460937], [-98.2809995, 36.5460894], [-98.2809932, 36.5460832], [-98.2809897, 36.5460757], [-98.2809894, 36.546067], [-98.2809927, 36.5460587], [-98.2809994, 36.5460518], [-98.2810086, 36.5460472], [-98.2810191, 36.5460453], [-98.2810299, 36.5460464], [-98.2810395, 36.5460503]]]}, "properties": {"osm_id": 1237081222, "building": "yes", "name": "", "height": null, "height_m": null, "levels": null, "tract_id": "40003956000", "tract_name": "9560", "tags": {"building": "yes"}}}, {"type": "Feature", "geometry": {"type": "Polygon", "coordinates": [[[-98.2812866, 36.5460096], [-98.2810775, 36.5460101], [-98.2810776, 36.5460406], [-98.2810017, 36.5460408], [-98.2810013, 36.5459224], [-98.2810818, 36.5459223], [-98.2810819, 36.5459601], [-98.2812865, 36.5459596], [-98.2812866, 36.5460096]]]}, "properties": {"osm_id": 1237081223, "building": "yes", "name": "", "height": null, "height_m": null, "levels": null, "tract_id": "40003956000", "tract_name": "9560", "tags": {"building": "yes"}}}, {"type": "Feature", "geometry": {"type": "Polygon", "coordinates": [[[-98.2815341, 36.5458602], [-98.281533, 36.5459137], [-98.2814909, 36.5459131], [-98.2814919, 36.5458597], [-98.2815341, 36.5458602]]]}, "properties": {"osm_id": 1237081224, "building": "yes", "name": "", "height": null, "height_m": null, "levels": null, "tract_id": "40003956000", "tract_name": "9560", "tags": {"building": "yes"}}}, {"type": "Feature", "geometry": {"type": "Polygon", "coordinates": [[[-98.2815378, 36.5456833], [-98.2815381, 36.5456525], [-98.2814711, 36.545652], [-98.2814708, 36.5456829], [-98.2815378, 36.5456833]]]}, "properties": {"osm_id": 1237081225, "building": "yes", "name": "", "height": null, "height_m": null, "levels": null, "tract_id": "40003956000", "tract_name": "9560", "tags": {"building": "yes"}}}, {"type": "Feature", "geometry": {"type": "Polygon", "coordinates": [[[-98.2807746, 36.5456165], [-98.2807493, 36.5456158], [-98.2807501, 36.5455975], [-98.2807754, 36.5455982], [-98.2807746, 36.5456165]]]}, "properties": {"osm_id": 1237081226, "building": "yes", "name": "", "height": null, "height_m": null, "levels": null, "tract_id": "40003956000", "tract_name": "9560", "tags": {"building": "yes"}}}, {"type": "Feature", "geometry": {"type": "Polygon", "coordinates": [[[-98.280325, 36.5453777], [-98.2803304, 36.5453781], [-98.2803352, 36.5453799], [-98.2803392, 36.5453828], [-98.2803417, 36.5453866], [-98.2803427, 36.5453909], [-98.2803418, 36.5453953], [-98.2803391, 36.5453992], [-98.280335, 36.5454022], [-98.2803299, 36.5454039], [-98.2803243, 36.5454042], [-98.280319, 36.545403], [-98.2803144, 36.5454004], [-98.2803112, 36.5453968], [-98.2803097, 36.5453925], [-98.2803099, 36.5453882], [-98.2803119, 36.5453842], [-98.2803153, 36.5453809], [-98.2803198, 36.5453787], [-98.280325, 36.5453777]]]}, "properties": {"osm_id": 1237081227, "building": "yes", "name": "", "height": null, "height_m": null, "levels": null, "tract_id": "40003956000", "tract_name": "9560", "tags": {"building": "yes"}}}, {"type": "Feature", "geometry": {"type": "Polygon", "coordinates": [[[-98.2802826, 36.5453774], [-98.280288, 36.5453779], [-98.2802928, 36.5453796], [-98.2802968, 36.5453825], [-98.2802993, 36.5453863], [-98.2803003, 36.5453907], [-98.2802994, 36.5453951], [-98.2802967, 36.545399], [-98.2802926, 36.545402], [-98.2802875, 36.5454037], [-98.2802819, 36.5454039], [-98.2802766, 36.5454027], [-98.2802721, 36.5454001], [-98.2802688, 36.5453965], [-98.2802673, 36.5453922], [-98.2802675, 36.545388], [-98.2802695, 36.545384], [-98.2802729, 36.5453807], [-98.2802774, 36.5453784], [-98.2802826, 36.5453774]]]}, "properties": {"osm_id": 1237081228, "building": "yes", "name": "", "height": null, "height_m": null, "levels": null, "tract_id": "40003956000", "tract_name": "9560", "tags": {"building": "yes"}}}, {"type": "Feature", "geometry": {"type": "Polygon", "coordinates": [[[-98.2803231, 36.5453559], [-98.2803003, 36.5453555], [-98.2803007, 36.5453392], [-98.2803235, 36.5453396], [-98.2803231, 36.5453559]]]}, "properties": {"osm_id": 1237081229, "building": "yes", "name": "", "height": null, "height_m": null, "levels": null, "tract_id": "40003956000", "tract_name": "9560", "tags": {"building": "yes"}}}, {"type": "Feature", "geometry": {"type": "Polygon", "coordinates": [[[-98.2771884, 36.5448958], [-98.2769538, 36.5448972], [-98.2769534, 36.5448495], [-98.2769381, 36.5448496], [-98.2769375, 36.5447842], [-98.2769542, 36.5447841], [-98.2769537, 36.5447343], [-98.2770723, 36.5447336], [-98.277073, 36.5448123], [-98.2771876, 36.5448116], [-98.2771884, 36.5448958]]]}, "properties": {"osm_id": 1237082698, "building": "yes", "name": "", "height": null, "height_m": null, "levels": null, "tract_id": "40003956000", "tract_name": "9560", "tags": {"addr:city": "Helena", "addr:housenumber": "122", "addr:postcode": "73741", "addr:state": "OK", "addr:street": "Murray Street", "building": "yes"}}}, {"type": "Feature", "geometry": {"type": "Polygon", "coordinates": [[[-98.27741, 36.5446309], [-98.27741, 36.5447238], [-98.2772699, 36.5447238], [-98.2772699, 36.5446539], [-98.2773592, 36.5446539], [-98.2773592, 36.5446309], [-98.27741, 36.5446309]]]}, "properties": {"osm_id": 1237082699, "building": "yes", "name": "", "height": null, "height_m": null, "levels": null, "tract_id": "40003956000", "tract_name": "9560", "tags": {"building": "yes"}}}, {"type": "Feature", "geometry": {"type": "Polygon", "coordinates": [[[-98.2772764, 36.5444985], [-98.2772755, 36.5443645], [-98.2773333, 36.5443643], [-98.2773331, 36.5443391], [-98.2773731, 36.5443389], [-98.2773733, 36.5443646], [-98.2773541, 36.5443647], [-98.277355, 36.5444982], [-98.2772764, 36.5444985]]]}, "properties": {"osm_id": 1237082700, "building": "yes", "name": "", "height": null, "height_m": null, "levels": null, "tract_id": "40003956000", "tract_name": "9560", "tags": {"building": "yes"}}}, {"type": "Feature", "geometry": {"type": "Polygon", "coordinates": [[[-98.2772281, 36.5444991], [-98.2771236, 36.5445001], [-98.2771215, 36.5443674], [-98.277226, 36.5443664], [-98.2772281, 36.5444991]]]}, "properties": {"osm_id": 1237082701, "building": "yes", "name": "", "height": null, "height_m": null, "levels": null, "tract_id": "40003956000", "tract_name": "9560", "tags": {"building": "yes"}}}, {"type": "Feature", "geometry": {"type": "Polygon", "coordinates": [[[-98.277031, 36.5445432], [-98.2769388, 36.5445443], [-98.2769378, 36.5444897], [-98.2769061, 36.5444901], [-98.2769049, 36.5444281], [-98.2768972, 36.5444282], [-98.2768961, 36.5443719], [-98.2769152, 36.5443717], [-98.2769135, 36.5442815], [-98.2770388, 36.5442799], [-98.2770399, 36.5443385], [-98.2770752, 36.544338], [-98.2770766, 36.5444072], [-98.2770367, 36.5444077], [-98.2770383, 36.5444895], [-98.27703, 36.5444896], [-98.277031, 36.5445432]]]}, "properties": {"osm_id": 1237082702, "building": "yes", "name": "", "height": null, "height_m": null, "levels": null, "tract_id": "40003956000", "tract_name": "9560", "tags": {"building": "yes"}}}, {"type": "Feature", "geometry": {"type": "Polygon", "coordinates": [[[-98.277057, 36.5442625], [-98.2770572, 36.5442333], [-98.277033, 36.5442332], [-98.2770328, 36.5442624], [-98.277057, 36.5442625]]]}, "properties": {"osm_id": 1237082703, "building": "yes", "name": "", "height": null, "height_m": null, "levels": null, "tract_id": "40003956000", "tract_name": "9560", "tags": {"building": "yes"}}}, {"type": "Feature", "geometry": {"type": "Polygon", "coordinates": [[[-98.2769391, 36.5439248], [-98.276925, 36.5439708], [-98.2768403, 36.5439541], [-98.2768544, 36.5439081], [-98.2769391, 36.5439248]]]}, "properties": {"osm_id": 1237082704, "building": "yes", "name": "", "height": null, "height_m": null, "levels": null, "tract_id": "40003956000", "tract_name": "9560", "tags": {"building": "yes"}}}, {"type": "Feature", "geometry": {"type": "Polygon", "coordinates": [[[-98.2770029, 36.543895], [-98.2768567, 36.543895], [-98.2768567, 36.5437096], [-98.2770029, 36.5437096], [-98.2770029, 36.543895]]]}, "properties": {"osm_id": 1237082705, "building": "yes", "name": "", "height": null, "height_m": null, "levels": null, "tract_id": "40003956000", "tract_name": "9560", "tags": {"addr:city": "Helena", "addr:housenumber": "114", "addr:postcode": "73741", "addr:state": "OK", "addr:street": "Murray Street", "building": "yes"}}}, {"type": "Feature", "geometry": {"type": "Polygon", "coordinates": [[[-98.2770041, 36.5435011], [-98.2768885, 36.5435023], [-98.276887, 36.5434035], [-98.2768667, 36.5434037], [-98.2768659, 36.5433561], [-98.2768879, 36.5433559], [-98.2768869, 36.5432899], [-98.2770009, 36.5432887], [-98.2770041, 36.5435011]]]}, "properties": {"osm_id": 1237084404, "building": "yes", "name": "", "height": null, "height_m": null, "levels": null, "tract_id": "40003956000", "tract_name": "9560", "tags": {"addr:city": "Helena", "addr:housenumber": "124", "addr:postcode": "73741", "addr:state": "OK", "addr:street": "Murray Street", "building": "yes"}}}, {"type": "Feature", "geometry": {"type": "Polygon", "coordinates": [[[-98.2771406, 36.5434314], [-98.2771419, 36.5435495], [-98.2770348, 36.5435502], [-98.2770336, 36.5434321], [-98.2771406, 36.5434314]]]}, "properties": {"osm_id": 1237084405, "building": "yes", "name": "", "height": null, "height_m": null, "levels": null, "tract_id": "40003956000", "tract_name": "9560", "tags": {"building": "yes"}}}, {"type": "Feature", "geometry": {"type": "Polygon", "coordinates": [[[-98.2770872, 36.5433372], [-98.2770271, 36.543338], [-98.2770259, 36.5432815], [-98.2770861, 36.5432807], [-98.2770872, 36.5433372]]]}, "properties": {"osm_id": 1237084406, "building": "yes", "name": "", "height": null, "height_m": null, "levels": null, "tract_id": "40003956000", "tract_name": "9560", "tags": {"building": "yes"}}}, {"type": "Feature", "geometry": {"type": "Polygon", "coordinates": [[[-98.2771635, 36.5432997], [-98.2771631, 36.5433351], [-98.2771323, 36.5433348], [-98.2771327, 36.5432995], [-98.2771635, 36.5432997]]]}, "properties": {"osm_id": 1237084407, "building": "yes", "name": "", "height": null, "height_m": null, "levels": null, "tract_id": "40003956000", "tract_name": "9560", "tags": {"building": "yes"}}}, {"type": "Feature", "geometry": {"type": "Polygon", "coordinates": [[[-98.2776544, 36.5435559], [-98.277656, 36.5434664], [-98.277612, 36.5434659], [-98.2776104, 36.5435554], [-98.2776544, 36.5435559]]]}, "properties": {"osm_id": 1237084408, "building": "yes", "name": "", "height": null, "height_m": null, "levels": null, "tract_id": "40003956000", "tract_name": "9560", "tags": {"building": "yes"}}}, {"type": "Feature", "geometry": {"type": "Polygon", "coordinates": [[[-98.2778575, 36.543229], [-98.2778048, 36.5432974], [-98.2777187, 36.5432546], [-98.2777714, 36.5431862], [-98.2778575, 36.543229]]]}, "properties": {"osm_id": 1237084409, "building": "yes", "name": "", "height": null, "height_m": null, "levels": null, "tract_id": "40003956000", "tract_name": "9560", "tags": {"building": "yes"}}}, {"type": "Feature", "geometry": {"type": "Polygon", "coordinates": [[[-98.2775568, 36.5434882], [-98.2774586, 36.5434888], [-98.2774577, 36.5433999], [-98.2774281, 36.5434001], [-98.2774275, 36.5433341], [-98.2774609, 36.5433339], [-98.2774608, 36.5433279], [-98.2775329, 36.5433275], [-98.2775327, 36.5433115], [-98.2775851, 36.5433111], [-98.2775852, 36.5433269], [-98.2776658, 36.5433264], [-98.2776666, 36.5434072], [-98.277556, 36.543408], [-98.2775568, 36.5434882]]]}, "properties": {"osm_id": 1237084410, "building": "yes", "name": "", "height": null, "height_m": null, "levels": null, "tract_id": "40003956000", "tract_name": "9560", "tags": {"addr:city": "Helena", "addr:housenumber": "619", "addr:postcode": "73741", "addr:state": "OK", "addr:street": "West Krasser Street", "building": "yes"}}}, {"type": "Feature", "geometry": {"type": "Polygon", "coordinates": [[[-98.2738341, 36.5430325], [-98.2738361, 36.5430909], [-98.2737684, 36.5430924], [-98.2737664, 36.543034], [-98.2738341, 36.5430325]]]}, "properties": {"osm_id": 1237084411, "building": "yes", "name": "", "height": null, "height_m": null, "levels": null, "tract_id": "40003956000", "tract_name": "9560", "tags": {"building": "yes"}}}, {"type": "Feature", "geometry": {"type": "Polygon", "coordinates": [[[-98.2776762, 36.5438607], [-98.2775607, 36.5438602], [-98.2775608, 36.5438405], [-98.2776763, 36.543841], [-98.2776762, 36.5438607]]]}, "properties": {"osm_id": 1237084412, "building": "yes", "name": "", "height": null, "height_m": null, "levels": null, "tract_id": "40003956000", "tract_name": "9560", "tags": {"addr:city": "Helena", "addr:housenumber": "106", "addr:postcode": "73741", "addr:state": "OK", "addr:street": "Murray Street", "building": "yes"}}}, {"type": "Feature", "geometry": {"type": "Polygon", "coordinates": [[[-98.2741074, 36.5427163], [-98.2741065, 36.5426662], [-98.2741595, 36.5426656], [-98.2741604, 36.5427157], [-98.2741074, 36.5427163]]]}, "properties": {"osm_id": 1237086530, "building": "yes", "name": "", "height": null, "height_m": null, "levels": null, "tract_id": "40003956000", "tract_name": "9560", "tags": {"building": "yes"}}}, {"type": "Feature", "geometry": {"type": "Polygon", "coordinates": [[[-98.2738564, 36.5425557], [-98.273856, 36.5426004], [-98.2738012, 36.5426001], [-98.2738017, 36.5425554], [-98.2738564, 36.5425557]]]}, "properties": {"osm_id": 1237086531, "building": "yes", "name": "", "height": null, "height_m": null, "levels": null, "tract_id": "40003956000", "tract_name": "9560", "tags": {"building": "yes"}}}, {"type": "Feature", "geometry": {"type": "Polygon", "coordinates": [[[-98.2742071, 36.542609], [-98.2741072, 36.5426088], [-98.2741074, 36.5425282], [-98.2741335, 36.5425283], [-98.2741336, 36.5425194], [-98.2742074, 36.5425195], [-98.2742071, 36.542609]]]}, "properties": {"osm_id": 1237086532, "building": "yes", "name": "", "height": null, "height_m": null, "levels": null, "tract_id": "40003956000", "tract_name": "9560", "tags": {"addr:city": "Helena", "addr:housenumber": "416", "addr:postcode": "73471", "addr:state": "OK", "addr:street": "West Krasser Street", "building": "yes"}}}, {"type": "Feature", "geometry": {"type": "Polygon", "coordinates": [[[-98.2741394, 36.5424162], [-98.2741398, 36.5423949], [-98.2741133, 36.5423947], [-98.2741129, 36.542416], [-98.2741394, 36.5424162]]]}, "properties": {"osm_id": 1237086533, "building": "yes", "name": "", "height": null, "height_m": null, "levels": null, "tract_id": "40003956000", "tract_name": "9560", "tags": {"building": "yes"}}}, {"type": "Feature", "geometry": {"type": "Polygon", "coordinates": [[[-98.2764399, 36.5433822], [-98.2764362, 36.5434887], [-98.2764223, 36.5434884], [-98.2764212, 36.5435213], [-98.2763329, 36.5435193], [-98.2763326, 36.5435274], [-98.2762661, 36.5435259], [-98.2762675, 36.5434871], [-98.2763384, 36.5434887], [-98.2763423, 36.54338], [-98.2764399, 36.5433822]]]}, "properties": {"osm_id": 1237119889, "building": "yes", "name": "", "height": null, "height_m": null, "levels": null, "tract_id": "40003956000", "tract_name": "9560", "tags": {"addr:city": "Helena", "addr:housenumber": "121", "addr:postcode": "73741", "addr:state": "OK", "addr:street": "Murray Street", "building": "yes"}}}, {"type": "Feature", "geometry": {"type": "Polygon", "coordinates": [[[-98.2761733, 36.5432299], [-98.2761539, 36.5434408], [-98.2761073, 36.543438], [-98.2761266, 36.5432271], [-98.2761733, 36.5432299]]]}, "properties": {"osm_id": 1237119890, "building": "yes", "name": "", "height": null, "height_m": null, "levels": null, "tract_id": "40003956000", "tract_name": "9560", "tags": {"addr:city": "Helena", "addr:housenumber": "519", "addr:postcode": "73471", "addr:state": "OK", "addr:street": "West Krasser Street", "building": "yes"}}}, {"type": "Feature", "geometry": {"type": "Polygon", "coordinates": [[[-98.2757712, 36.5435354], [-98.275628, 36.5435374], [-98.2756259, 36.5434395], [-98.2756474, 36.5434392], [-98.275647, 36.543422], [-98.2757011, 36.5434212], [-98.2757014, 36.5434358], [-98.2757484, 36.5434352], [-98.2757497, 36.5434945], [-98.2757703, 36.5434942], [-98.2757712, 36.5435354]]]}, "properties": {"osm_id": 1237119891, "building": "yes", "name": "", "height": null, "height_m": null, "levels": null, "tract_id": "40003956000", "tract_name": "9560", "tags": {"addr:city": "Helena", "addr:housenumber": "124", "addr:postcode": "73741", "addr:state": "OK", "addr:street": "Elva Street", "building": "yes"}}}, {"type": "Feature", "geometry": {"type": "Polygon", "coordinates": [[[-98.275755, 36.5436487], [-98.2757579, 36.5438171], [-98.2756321, 36.5438185], [-98.2756308, 36.5437408], [-98.2756485, 36.5437406], [-98.2756481, 36.5437186], [-98.2756838, 36.5437182], [-98.2756826, 36.5436496], [-98.275755, 36.5436487]]]}, "properties": {"osm_id": 1237119892, "building": "yes", "name": "", "height": null, "height_m": null, "levels": null, "tract_id": "40003956000", "tract_name": "9560", "tags": {"addr:city": "Helena", "addr:housenumber": "120", "addr:postcode": "73741", "addr:state": "OK", "addr:street": "Elva Street", "building": "yes"}}}, {"type": "Feature", "geometry": {"type": "Polygon", "coordinates": [[[-98.2763758, 36.5438978], [-98.2763776, 36.5437098], [-98.2762853, 36.5437092], [-98.2762852, 36.5437202], [-98.2761529, 36.5437194], [-98.2761525, 36.5437572], [-98.2762746, 36.543758], [-98.2762732, 36.5438972], [-98.2763758, 36.5438978]]]}, "properties": {"osm_id": 1237119893, "building": "yes", "name": "", "height": null, "height_m": null, "levels": null, "tract_id": "40003956000", "tract_name": "9560", "tags": {"addr:city": "Helena", "addr:housenumber": "113", "addr:postcode": "73741", "addr:state": "OK", "addr:street": "Murray Street", "building": "yes"}}}, {"type": "Feature", "geometry": {"type": "Polygon", "coordinates": [[[-98.2757626, 36.5443584], [-98.2757603, 36.5441874], [-98.2756187, 36.5441886], [-98.275621, 36.5443596], [-98.2757626, 36.5443584]]]}, "properties": {"osm_id": 1237119894, "building": "yes", "name": "", "height": null, "height_m": null, "levels": null, "tract_id": "40003956000", "tract_name": "9560", "tags": {"addr:city": "Helena", "addr:housenumber": "116", "addr:postcode": "73741", "addr:state": "OK", "addr:street": "Elva Street", "building": "yes"}}}, {"type": "Feature", "geometry": {"type": "Polygon", "coordinates": [[[-98.275923, 36.5444575], [-98.2759235, 36.5445127], [-98.2758716, 36.544513], [-98.2758711, 36.5444578], [-98.275923, 36.5444575]]]}, "properties": {"osm_id": 1237119895, "building": "yes", "name": "", "height": null, "height_m": null, "levels": null, "tract_id": "40003956000", "tract_name": "9560", "tags": {"building": "yes"}}}, {"type": "Feature", "geometry": {"type": "Polygon", "coordinates": [[[-98.2762015, 36.5445486], [-98.2762012, 36.5444853], [-98.2763422, 36.5444849], [-98.2763425, 36.5445481], [-98.2762015, 36.5445486]]]}, "properties": {"osm_id": 1237119896, "building": "yes", "name": "", "height": null, "height_m": null, "levels": null, "tract_id": "40003956000", "tract_name": "9560", "tags": {"addr:city": "Helena", "addr:housenumber": "115", "addr:postcode": "73741", "addr:state": "OK", "addr:street": "Murray Street", "building": "yes"}}}, {"type": "Feature", "geometry": {"type": "Polygon", "coordinates": [[[-98.2763948, 36.5447643], [-98.2763934, 36.5446898], [-98.2764777, 36.5446889], [-98.276479, 36.5447633], [-98.2763948, 36.5447643]]]}, "properties": {"osm_id": 1237119897, "building": "yes", "name": "", "height": null, "height_m": null, "levels": null, "tract_id": "40003956000", "tract_name": "9560", "tags": {"addr:city": "Helena", "addr:housenumber": "123", "addr:postcode": "73741", "addr:state": "OK", "addr:street": "Murray Street", "building": "yes"}}}, {"type": "Feature", "geometry": {"type": "Polygon", "coordinates": [[[-98.2761795, 36.5448368], [-98.2761771, 36.5447685], [-98.276108, 36.54477], [-98.2761104, 36.5448383], [-98.2761795, 36.5448368]]]}, "properties": {"osm_id": 1237119898, "building": "yes", "name": "", "height": null, "height_m": null, "levels": null, "tract_id": "40003956000", "tract_name": "9560", "tags": {"building": "yes"}}}, {"type": "Feature", "geometry": {"type": "Polygon", "coordinates": [[[-98.2760905, 36.5448232], [-98.2760943, 36.5449417], [-98.2759797, 36.5449441], [-98.2759781, 36.5448924], [-98.2760291, 36.5448914], [-98.276027, 36.5448245], [-98.2760905, 36.5448232]]]}, "properties": {"osm_id": 1237119899, "building": "yes", "name": "", "height": null, "height_m": null, "levels": null, "tract_id": "40003956000", "tract_name": "9560", "tags": {"addr:city": "Helena", "addr:housenumber": "516", "addr:postcode": "73741", "addr:state": "OK", "addr:street": "2nd Street", "building": "yes"}}}, {"type": "Feature", "geometry": {"type": "Polygon", "coordinates": [[[-98.2757191, 36.5449754], [-98.2755873, 36.5449756], [-98.2755867, 36.5447052], [-98.2757186, 36.544705], [-98.2757191, 36.5449754]]]}, "properties": {"osm_id": 1237119900, "building": "yes", "name": "", "height": null, "height_m": null, "levels": null, "tract_id": "40003956000", "tract_name": "9560", "tags": {"building": "yes"}}}, {"type": "Feature", "geometry": {"type": "Polygon", "coordinates": [[[-98.2735428, 36.5442984], [-98.2735466, 36.5443091], [-98.273546, 36.5443202], [-98.2735411, 36.5443306], [-98.2735317, 36.5443396], [-98.273519, 36.5443456], [-98.2735045, 36.5443478], [-98.27349, 36.544346], [-98.273477, 36.5443404], [-98.2734672, 36.5443316], [-98.2734616, 36.5443206], [-98.2734609, 36.5443088], [-98.2734649, 36.5442981], [-98.2734728, 36.544289], [-98.2734839, 36.5442824], [-98.273497, 36.5442789], [-98.2735108, 36.5442789], [-98.273524, 36.5442825], [-98.273535, 36.5442892], [-98.2735428, 36.5442984]]]}, "properties": {"osm_id": 1237119902, "building": "yes", "name": "", "height": null, "height_m": null, "levels": null, "tract_id": "40003956000", "tract_name": "9560", "tags": {"building": "yes"}}}, {"type": "Feature", "geometry": {"type": "Polygon", "coordinates": [[[-98.2735154, 36.5444614], [-98.2734322, 36.5444623], [-98.2734314, 36.5444175], [-98.2735147, 36.5444166], [-98.2735154, 36.5444614]]]}, "properties": {"osm_id": 1237119903, "building": "yes", "name": "", "height": null, "height_m": null, "levels": null, "tract_id": "40003956000", "tract_name": "9560", "tags": {"building": "yes"}}}, {"type": "Feature", "geometry": {"type": "Polygon", "coordinates": [[[-98.2735847, 36.5444131], [-98.2735847, 36.5443817], [-98.2735517, 36.5443817], [-98.2735517, 36.5444131], [-98.2735847, 36.5444131]]]}, "properties": {"osm_id": 1237119904, "building": "yes", "name": "", "height": null, "height_m": null, "levels": null, "tract_id": "40003956000", "tract_name": "9560", "tags": {"building": "yes"}}}, {"type": "Feature", "geometry": {"type": "Polygon", "coordinates": [[[-98.2736665, 36.5444096], [-98.2736669, 36.5443808], [-98.2736211, 36.5443803], [-98.2736206, 36.5444091], [-98.2736665, 36.5444096]]]}, "properties": {"osm_id": 1237119905, "building": "yes", "name": "", "height": null, "height_m": null, "levels": null, "tract_id": "40003956000", "tract_name": "9560", "tags": {"building": "yes"}}}, {"type": "Feature", "geometry": {"type": "Polygon", "coordinates": [[[-98.2736408, 36.5444908], [-98.2736412, 36.5444824], [-98.2736086, 36.5444815], [-98.2736083, 36.54449], [-98.2736408, 36.5444908]]]}, "properties": {"osm_id": 1237119906, "building": "yes", "name": "", "height": null, "height_m": null, "levels": null, "tract_id": "40003956000", "tract_name": "9560", "tags": {"building": "yes"}}}, {"type": "Feature", "geometry": {"type": "Polygon", "coordinates": [[[-98.2735883, 36.5444884], [-98.2735884, 36.5444806], [-98.2735639, 36.5444804], [-98.2735638, 36.5444882], [-98.2735883, 36.5444884]]]}, "properties": {"osm_id": 1237119907, "building": "yes", "name": "", "height": null, "height_m": null, "levels": null, "tract_id": "40003956000", "tract_name": "9560", "tags": {"building": "yes"}}}, {"type": "Feature", "geometry": {"type": "Polygon", "coordinates": [[[-98.2739713, 36.5448679], [-98.2738011, 36.5448713], [-98.2737944, 36.5446538], [-98.2739646, 36.5446504], [-98.2739713, 36.5448679]]]}, "properties": {"osm_id": 1237119910, "building": "yes", "name": "", "height": null, "height_m": null, "levels": null, "tract_id": "40003956000", "tract_name": "9560", "tags": {"building": "yes"}}}, {"type": "Feature", "geometry": {"type": "Polygon", "coordinates": [[[-98.2760341, 36.5453439], [-98.2760378, 36.5452113], [-98.275955, 36.5452098], [-98.2759513, 36.5453425], [-98.2760341, 36.5453439]]]}, "properties": {"osm_id": 1237121456, "building": "roof", "name": "", "height": null, "height_m": null, "levels": null, "tract_id": "40003956000", "tract_name": "9560", "tags": {"building": "roof", "layer": "1"}}}, {"type": "Feature", "geometry": {"type": "Polygon", "coordinates": [[[-98.2759376, 36.545195], [-98.275938, 36.545144], [-98.2757117, 36.545143], [-98.2757114, 36.5451939], [-98.2759376, 36.545195]]]}, "properties": {"osm_id": 1237121457, "building": "roof", "name": "", "height": null, "height_m": null, "levels": null, "tract_id": "40003956000", "tract_name": "9560", "tags": {"building": "roof", "layer": "1"}}}, {"type": "Feature", "geometry": {"type": "Polygon", "coordinates": [[[-98.275707, 36.5451987], [-98.2756428, 36.5452411], [-98.2755978, 36.5451971], [-98.275662, 36.5451547], [-98.275707, 36.5451987]]]}, "properties": {"osm_id": 1237121458, "building": "yes", "name": "", "height": null, "height_m": null, "levels": null, "tract_id": "40003956000", "tract_name": "9560", "tags": {"building": "yes"}}}, {"type": "Feature", "geometry": {"type": "Polygon", "coordinates": [[[-98.2756439, 36.5452553], [-98.2756435, 36.5454732], [-98.2755795, 36.5454731], [-98.27558, 36.5452552], [-98.2756439, 36.5452553]]]}, "properties": {"osm_id": 1237121459, "building": "yes", "name": "", "height": null, "height_m": null, "levels": null, "tract_id": "40003956000", "tract_name": "9560", "tags": {"building": "yes"}}}, {"type": "Feature", "geometry": {"type": "Polygon", "coordinates": [[[-98.2765871, 36.5454979], [-98.2765182, 36.5454979], [-98.2765182, 36.5454336], [-98.2765871, 36.5454336], [-98.2765871, 36.5454979]]]}, "properties": {"osm_id": 1237121461, "building": "yes", "name": "", "height": null, "height_m": null, "levels": null, "tract_id": "40003956000", "tract_name": "9560", "tags": {"building": "yes"}}}, {"type": "Feature", "geometry": {"type": "Polygon", "coordinates": [[[-98.2765554, 36.545426], [-98.2764844, 36.545426], [-98.2764844, 36.5454153], [-98.276357, 36.5454153], [-98.2763443, 36.5454152], [-98.2763443, 36.5452483], [-98.2764671, 36.5452483], [-98.2764842, 36.5452483], [-98.2764842, 36.5453663], [-98.2765554, 36.5453663], [-98.2765554, 36.545426]]]}, "properties": {"osm_id": 1237121462, "building": "yes", "name": "", "height": null, "height_m": null, "levels": null, "tract_id": "40003956000", "tract_name": "9560", "tags": {"addr:city": "Helena", "addr:housenumber": "207", "addr:postcode": "73741", "addr:state": "OK", "addr:street": "Murray Street", "building": "yes"}}}, {"type": "Feature", "geometry": {"type": "Polygon", "coordinates": [[[-98.2762741, 36.5452313], [-98.2762753, 36.5451857], [-98.2762275, 36.5451849], [-98.2762263, 36.5452304], [-98.2762741, 36.5452313]]]}, "properties": {"osm_id": 1237121463, "building": "yes", "name": "", "height": null, "height_m": null, "levels": null, "tract_id": "40003956000", "tract_name": "9560", "tags": {"building": "yes"}}}, {"type": "Feature", "geometry": {"type": "Polygon", "coordinates": [[[-98.2762942, 36.5458771], [-98.2762932, 36.5456883], [-98.2764765, 36.5456876], [-98.2764775, 36.5458764], [-98.2762942, 36.5458771]]]}, "properties": {"osm_id": 1237122913, "building": "yes", "name": "", "height": null, "height_m": null, "levels": null, "tract_id": "40003956000", "tract_name": "9560", "tags": {"addr:city": "Helena", "addr:housenumber": "219", "addr:postcode": "73741", "addr:state": "OK", "addr:street": "Murray Street", "building": "yes"}}}, {"type": "Feature", "geometry": {"type": "Polygon", "coordinates": [[[-98.2760977, 36.5456967], [-98.2759565, 36.5456962], [-98.2759552, 36.5459162], [-98.2760965, 36.5459167], [-98.2760977, 36.5456967]]]}, "properties": {"osm_id": 1237122914, "building": "yes", "name": "", "height": null, "height_m": null, "levels": null, "tract_id": "40003956000", "tract_name": "9560", "tags": {"building": "yes"}}}, {"type": "Feature", "geometry": {"type": "Polygon", "coordinates": [[[-98.2756367, 36.5459201], [-98.2756369, 36.5458633], [-98.2756675, 36.5458633], [-98.2756676, 36.5458196], [-98.275681, 36.5458196], [-98.2756813, 36.5457477], [-98.2757723, 36.545748], [-98.2757721, 36.5458112], [-98.2757958, 36.5458113], [-98.2757959, 36.5457837], [-98.2758626, 36.5457838], [-98.2758622, 36.5458891], [-98.275796, 36.5458889], [-98.2757961, 36.5458785], [-98.2757688, 36.5458785], [-98.2757687, 36.5459204], [-98.2756367, 36.5459201]]]}, "properties": {"osm_id": 1237122915, "building": "yes", "name": "", "height": null, "height_m": null, "levels": null, "tract_id": "40003956000", "tract_name": "9560", "tags": {"addr:city": "Helena", "addr:housenumber": "504", "addr:postcode": "73741", "addr:state": "OK", "addr:street": "3rd Street", "building": "yes"}}}, {"type": "Feature", "geometry": {"type": "Polygon", "coordinates": [[[-98.275722, 36.5469562], [-98.275722, 36.546808], [-98.2756375, 36.546808], [-98.2756375, 36.5469], [-98.2756164, 36.5469], [-98.2756164, 36.546941], [-98.2756364, 36.546941], [-98.2756364, 36.5469562], [-98.275722, 36.5469562]]]}, "properties": {"osm_id": 1237123698, "building": "yes", "name": "", "height": null, "height_m": null, "levels": null, "tract_id": "40003956000", "tract_name": "9560", "tags": {"addr:city": "Helena", "addr:housenumber": "324", "addr:postcode": "73741", "addr:state": "OK", "addr:street": "Elva Street", "building": "yes"}}}, {"type": "Feature", "geometry": {"type": "Polygon", "coordinates": [[[-98.2756159, 36.5463814], [-98.2756167, 36.5462794], [-98.2757565, 36.5462801], [-98.275757, 36.5462242], [-98.2758632, 36.5462247], [-98.2758619, 36.5463826], [-98.2756159, 36.5463814]]]}, "properties": {"osm_id": 1237123699, "building": "yes", "name": "", "height": null, "height_m": null, "levels": null, "tract_id": "40003956000", "tract_name": "9560", "tags": {"addr:city": "Helena", "addr:housenumber": "501", "addr:postcode": "73741", "addr:state": "OK", "addr:street": "3rd Street", "building": "yes"}}}, {"type": "Feature", "geometry": {"type": "Polygon", "coordinates": [[[-98.2744455, 36.5465555], [-98.2744464, 36.5464886], [-98.2744014, 36.5464882], [-98.2744005, 36.5465551], [-98.2744294, 36.5465554], [-98.2744455, 36.5465555]]]}, "properties": {"osm_id": 1237127034, "building": "yes", "name": "", "height": null, "height_m": null, "levels": null, "tract_id": "40003956000", "tract_name": "9560", "tags": {"building": "yes"}}}, {"type": "Feature", "geometry": {"type": "Polygon", "coordinates": [[[-98.2745045, 36.546767], [-98.2745045, 36.5467111], [-98.2744687, 36.5467111], [-98.2744687, 36.546767], [-98.2745045, 36.546767]]]}, "properties": {"osm_id": 1237127035, "building": "yes", "name": "", "height": null, "height_m": null, "levels": null, "tract_id": "40003956000", "tract_name": "9560", "tags": {"building": "yes"}}}, {"type": "Feature", "geometry": {"type": "Polygon", "coordinates": [[[-98.2751268, 36.5469959], [-98.2749767, 36.5469982], [-98.2749756, 36.546953], [-98.2751257, 36.5469508], [-98.2751268, 36.5469959]]]}, "properties": {"osm_id": 1237127041, "building": "yes", "name": "", "height": null, "height_m": null, "levels": null, "tract_id": "40003956000", "tract_name": "9560", "tags": {"building": "yes"}}}, {"type": "Feature", "geometry": {"type": "Polygon", "coordinates": [[[-98.2750842, 36.5468169], [-98.2749969, 36.5468175], [-98.2749955, 36.546684], [-98.2750827, 36.5466834], [-98.2750842, 36.5468169]]]}, "properties": {"osm_id": 1237127042, "building": "yes", "name": "", "height": null, "height_m": null, "levels": null, "tract_id": "40003956000", "tract_name": "9560", "tags": {"building": "yes"}}}, {"type": "Feature", "geometry": {"type": "Polygon", "coordinates": [[[-98.2751916, 36.5469816], [-98.2751919, 36.5468732], [-98.2752018, 36.5468732], [-98.2752019, 36.5468151], [-98.2751906, 36.5468151], [-98.2751908, 36.5467606], [-98.2752945, 36.5467608], [-98.2752944, 36.5468158], [-98.2752802, 36.5468157], [-98.2752801, 36.546873], [-98.2752895, 36.5468731], [-98.2752891, 36.5469818], [-98.2751916, 36.5469816]]]}, "properties": {"osm_id": 1237127043, "building": "yes", "name": "", "height": null, "height_m": null, "levels": null, "tract_id": "40003956000", "tract_name": "9560", "tags": {"addr:city": "Helena", "addr:housenumber": "323", "addr:postcode": "73741", "addr:state": "OK", "addr:street": "Elva Street", "building": "yes"}}}, {"type": "Feature", "geometry": {"type": "Polygon", "coordinates": [[[-98.2753036, 36.546484], [-98.2753053, 36.546409], [-98.2752447, 36.5464081], [-98.275243, 36.5464832], [-98.2753036, 36.546484]]]}, "properties": {"osm_id": 1237127044, "building": "yes", "name": "", "height": null, "height_m": null, "levels": null, "tract_id": "40003956000", "tract_name": "9560", "tags": {"building": "yes"}}}, {"type": "Feature", "geometry": {"type": "Polygon", "coordinates": [[[-98.2752281, 36.5464261], [-98.2752275, 36.5462893], [-98.2751039, 36.5462897], [-98.2751043, 36.5463695], [-98.2751233, 36.5463694], [-98.2751235, 36.5464264], [-98.2752281, 36.5464261]]]}, "properties": {"osm_id": 1237127045, "building": "yes", "name": "", "height": null, "height_m": null, "levels": null, "tract_id": "40003956000", "tract_name": "9560", "tags": {"addr:city": "Helena", "addr:housenumber": "301", "addr:postcode": "73741", "addr:state": "OK", "addr:street": "Elva Street", "building": "yes"}}}, {"type": "Feature", "geometry": {"type": "Polygon", "coordinates": [[[-98.2748505, 36.5462787], [-98.2748513, 36.5463181], [-98.2748283, 36.5463184], [-98.2748294, 36.54638], [-98.2746761, 36.5463819], [-98.2746768, 36.54642], [-98.274547, 36.5464216], [-98.2745446, 36.5462907], [-98.2746663, 36.5462893], [-98.2746661, 36.5462809], [-98.2748505, 36.5462787]]]}, "properties": {"osm_id": 1237127046, "building": "yes", "name": "", "height": null, "height_m": null, "levels": null, "tract_id": "40003956000", "tract_name": "9560", "tags": {"addr:city": "Helena", "addr:housenumber": "421", "addr:postcode": "73741", "addr:state": "OK", "addr:street": "3rd Street", "building": "yes"}}}, {"type": "Feature", "geometry": {"type": "Polygon", "coordinates": [[[-98.2718938, 36.546804], [-98.2718934, 36.5467397], [-98.2718347, 36.54674], [-98.2718351, 36.5468042], [-98.2718938, 36.546804]]]}, "properties": {"osm_id": 1237128528, "building": "yes", "name": "", "height": null, "height_m": null, "levels": null, "tract_id": "40003956000", "tract_name": "9560", "tags": {"building": "yes"}}}, {"type": "Feature", "geometry": {"type": "Polygon", "coordinates": [[[-98.2718645, 36.5466168], [-98.2718647, 36.5465966], [-98.2717347, 36.5465955], [-98.2717345, 36.5466157], [-98.2718645, 36.5466168]]]}, "properties": {"osm_id": 1237128529, "building": "yes", "name": "", "height": null, "height_m": null, "levels": null, "tract_id": "40003956000", "tract_name": "9560", "tags": {"building": "yes"}}}, {"type": "Feature", "geometry": {"type": "Polygon", "coordinates": [[[-98.272467, 36.5464344], [-98.2724686, 36.546551], [-98.2720827, 36.5465544], [-98.2720834, 36.5466068], [-98.2718945, 36.5466085], [-98.2718938, 36.5465582], [-98.271499, 36.5465618], [-98.2714973, 36.5464352], [-98.2718953, 36.5464316], [-98.2718947, 36.5463909], [-98.2720706, 36.5463893], [-98.2720713, 36.5464379], [-98.272467, 36.5464344]]]}, "properties": {"osm_id": 1237128530, "building": "yes", "name": "", "height": null, "height_m": null, "levels": null, "tract_id": "40003956000", "tract_name": "9560", "tags": {"addr:city": "Helena", "addr:housenumber": "215", "addr:postcode": "73741", "addr:state": "OK", "addr:street": "3rd Street", "building": "yes"}}}, {"type": "Feature", "geometry": {"type": "Polygon", "coordinates": [[[-98.2832782, 36.5497407], [-98.2832832, 36.5496914], [-98.2832514, 36.5496893], [-98.2832531, 36.5496729], [-98.2832284, 36.5496713], [-98.2832269, 36.5496854], [-98.2832094, 36.5496842], [-98.2832061, 36.5497177], [-98.283221, 36.5497187], [-98.2832192, 36.5497368], [-98.2832782, 36.5497407]]]}, "properties": {"osm_id": 1237132482, "building": "yes", "name": "", "height": null, "height_m": null, "levels": null, "tract_id": "40003956000", "tract_name": "9560", "tags": {"building": "yes"}}}, {"type": "Feature", "geometry": {"type": "Polygon", "coordinates": [[[-98.2805941, 36.5510685], [-98.2805931, 36.5510202], [-98.2805682, 36.5510205], [-98.2805692, 36.5510689], [-98.2805941, 36.5510685]]]}, "properties": {"osm_id": 1237134611, "building": "yes", "name": "", "height": null, "height_m": null, "levels": null, "tract_id": "40003956000", "tract_name": "9560", "tags": {"building": "yes"}}}, {"type": "Feature", "geometry": {"type": "Polygon", "coordinates": [[[-98.2803435, 36.5510718], [-98.2803496, 36.5510701], [-98.2803561, 36.55107], [-98.2803623, 36.5510716], [-98.2803675, 36.5510747], [-98.2803715, 36.5510793], [-98.2803733, 36.5510846], [-98.2803728, 36.5510901], [-98.28037, 36.5510952], [-98.2803652, 36.5510992], [-98.2803591, 36.5511018], [-98.2803522, 36.5511025], [-98.2803455, 36.5511013], [-98.2803396, 36.5510984], [-98.2803355, 36.5510943], [-98.2803332, 36.5510895], [-98.2803329, 36.5510843], [-98.2803347, 36.5510792], [-98.2803383, 36.5510749], [-98.2803435, 36.5510718]]]}, "properties": {"osm_id": 1237134612, "building": "yes", "name": "", "height": null, "height_m": null, "levels": null, "tract_id": "40003956000", "tract_name": "9560", "tags": {"building": "yes"}}}, {"type": "Feature", "geometry": {"type": "Polygon", "coordinates": [[[-98.2802908, 36.5510718], [-98.2802969, 36.5510701], [-98.2803034, 36.55107], [-98.2803096, 36.5510716], [-98.2803148, 36.5510747], [-98.2803188, 36.5510793], [-98.2803206, 36.5510846], [-98.2803201, 36.5510901], [-98.2803173, 36.5510952], [-98.2803125, 36.5510992], [-98.2803064, 36.5511018], [-98.2802995, 36.5511025], [-98.2802928, 36.5511013], [-98.2802869, 36.5510984], [-98.2802828, 36.5510943], [-98.2802805, 36.5510895], [-98.2802802, 36.5510843], [-98.280282, 36.5510792], [-98.2802856, 36.5510749], [-98.2802908, 36.5510718]]]}, "properties": {"osm_id": 1237134613, "building": "yes", "name": "", "height": null, "height_m": null, "levels": null, "tract_id": "40003956000", "tract_name": "9560", "tags": {"building": "yes"}}}, {"type": "Feature", "geometry": {"type": "Polygon", "coordinates": [[[-98.2802377, 36.5510725], [-98.2802439, 36.5510708], [-98.2802504, 36.5510708], [-98.2802566, 36.5510724], [-98.2802618, 36.5510754], [-98.2802657, 36.55108], [-98.2802675, 36.5510854], [-98.280267, 36.5510909], [-98.2802642, 36.551096], [-98.2802595, 36.5511], [-98.2802533, 36.5511025], [-98.2802465, 36.5511032], [-98.2802397, 36.551102], [-98.2802339, 36.5510991], [-98.2802297, 36.5510951], [-98.2802274, 36.5510902], [-98.2802271, 36.551085], [-98.2802289, 36.55108], [-98.2802326, 36.5510757], [-98.2802377, 36.5510725]]]}, "properties": {"osm_id": 1237134614, "building": "yes", "name": "", "height": null, "height_m": null, "levels": null, "tract_id": "40003956000", "tract_name": "9560", "tags": {"building": "yes"}}}, {"type": "Feature", "geometry": {"type": "Polygon", "coordinates": [[[-98.2803422, 36.5510217], [-98.2803484, 36.55102], [-98.2803549, 36.5510199], [-98.2803611, 36.5510215], [-98.2803663, 36.5510246], [-98.2803702, 36.5510291], [-98.280372, 36.5510345], [-98.2803715, 36.55104], [-98.2803687, 36.5510451], [-98.280364, 36.5510491], [-98.2803578, 36.5510516], [-98.280351, 36.5510523], [-98.2803442, 36.5510512], [-98.2803384, 36.5510483], [-98.2803342, 36.5510442], [-98.2803319, 36.5510394], [-98.2803316, 36.5510341], [-98.2803334, 36.5510291], [-98.2803371, 36.5510248], [-98.2803422, 36.5510217]]]}, "properties": {"osm_id": 1237134615, "building": "yes", "name": "", "height": null, "height_m": null, "levels": null, "tract_id": "40003956000", "tract_name": "9560", "tags": {"building": "yes"}}}, {"type": "Feature", "geometry": {"type": "Polygon", "coordinates": [[[-98.2802886, 36.5510242], [-98.2802947, 36.5510225], [-98.2803012, 36.5510225], [-98.2803074, 36.5510241], [-98.2803126, 36.5510272], [-98.2803166, 36.5510317], [-98.2803184, 36.5510371], [-98.2803179, 36.5510426], [-98.2803151, 36.5510477], [-98.2803103, 36.5510517], [-98.2803042, 36.5510542], [-98.2802973, 36.5510549], [-98.2802906, 36.5510537], [-98.2802847, 36.5510508], [-98.2802806, 36.5510468], [-98.2802783, 36.5510419], [-98.280278, 36.5510367], [-98.2802798, 36.5510317], [-98.2802834, 36.5510274], [-98.2802886, 36.5510242]]]}, "properties": {"osm_id": 1237134616, "building": "yes", "name": "", "height": null, "height_m": null, "levels": null, "tract_id": "40003956000", "tract_name": "9560", "tags": {"building": "yes"}}}, {"type": "Feature", "geometry": {"type": "Polygon", "coordinates": [[[-98.2802355, 36.5510242], [-98.2802417, 36.5510226], [-98.2802482, 36.5510225], [-98.2802544, 36.5510241], [-98.2802596, 36.5510272], [-98.2802635, 36.5510317], [-98.2802653, 36.5510371], [-98.2802648, 36.5510426], [-98.280262, 36.5510477], [-98.2802573, 36.5510517], [-98.2802511, 36.5510542], [-98.2802443, 36.5510549], [-98.2802375, 36.5510538], [-98.2802317, 36.5510509], [-98.2802275, 36.5510468], [-98.2802252, 36.5510419], [-98.2802249, 36.5510367], [-98.2802267, 36.5510317], [-98.2802304, 36.5510274], [-98.2802355, 36.5510242]]]}, "properties": {"osm_id": 1237134617, "building": "yes", "name": "", "height": null, "height_m": null, "levels": null, "tract_id": "40003956000", "tract_name": "9560", "tags": {"building": "yes"}}}, {"type": "Feature", "geometry": {"type": "Polygon", "coordinates": [[[-98.2698494, 36.5509443], [-98.2698556, 36.5509426], [-98.2698621, 36.5509425], [-98.2698683, 36.5509441], [-98.2698735, 36.5509472], [-98.2698774, 36.5509517], [-98.2698792, 36.5509571], [-98.2698787, 36.5509626], [-98.2698759, 36.5509677], [-98.2698712, 36.5509717], [-98.269865, 36.5509742], [-98.2698582, 36.5509749], [-98.2698514, 36.5509738], [-98.2698456, 36.5509709], [-98.2698414, 36.5509668], [-98.2698391, 36.550962], [-98.2698388, 36.5509567], [-98.2698406, 36.5509517], [-98.2698443, 36.5509474], [-98.2698494, 36.5509443]]]}, "properties": {"osm_id": 1237137165, "building": "yes", "name": "", "height": null, "height_m": null, "levels": null, "tract_id": "40003956000", "tract_name": "9560", "tags": {"building": "yes"}}}, {"type": "Feature", "geometry": {"type": "Polygon", "coordinates": [[[-98.269796, 36.5509438], [-98.2698022, 36.5509421], [-98.2698087, 36.550942], [-98.2698149, 36.5509436], [-98.2698201, 36.5509467], [-98.269824, 36.5509512], [-98.2698258, 36.5509566], [-98.2698253, 36.5509621], [-98.2698225, 36.5509672], [-98.2698178, 36.5509712], [-98.2698116, 36.5509737], [-98.2698048, 36.5509744], [-98.269798, 36.5509733], [-98.2697922, 36.5509704], [-98.269788, 36.5509663], [-98.2697857, 36.5509615], [-98.2697854, 36.5509562], [-98.2697872, 36.5509512], [-98.2697909, 36.5509469], [-98.269796, 36.5509438]]]}, "properties": {"osm_id": 1237137166, "building": "yes", "name": "", "height": null, "height_m": null, "levels": null, "tract_id": "40003956000", "tract_name": "9560", "tags": {"building": "yes"}}}, {"type": "Feature", "geometry": {"type": "Polygon", "coordinates": [[[-98.2697435, 36.5509439], [-98.2697497, 36.5509422], [-98.2697562, 36.5509421], [-98.2697624, 36.5509437], [-98.2697676, 36.5509468], [-98.2697715, 36.5509513], [-98.2697733, 36.5509567], [-98.2697728, 36.5509622], [-98.26977, 36.5509673], [-98.2697653, 36.5509713], [-98.2697591, 36.5509738], [-98.2697523, 36.5509745], [-98.2697455, 36.5509734], [-98.2697397, 36.5509705], [-98.2697355, 36.5509664], [-98.2697332, 36.5509616], [-98.2697329, 36.5509563], [-98.2697347, 36.5509513], [-98.2697384, 36.550947], [-98.2697435, 36.5509439]]]}, "properties": {"osm_id": 1237137167, "building": "yes", "name": "", "height": null, "height_m": null, "levels": null, "tract_id": "40003956000", "tract_name": "9560", "tags": {"building": "yes"}}}, {"type": "Feature", "geometry": {"type": "Polygon", "coordinates": [[[-98.2698475, 36.5508935], [-98.2698537, 36.5508918], [-98.2698602, 36.5508917], [-98.2698664, 36.5508933], [-98.2698716, 36.5508964], [-98.2698755, 36.5509009], [-98.2698773, 36.5509063], [-98.2698768, 36.5509118], [-98.269874, 36.5509169], [-98.2698693, 36.5509209], [-98.2698631, 36.5509234], [-98.2698563, 36.5509241], [-98.2698495, 36.550923], [-98.2698437, 36.5509201], [-98.2698395, 36.550916], [-98.2698372, 36.5509112], [-98.2698369, 36.5509059], [-98.2698387, 36.5509009], [-98.2698424, 36.5508966], [-98.2698475, 36.5508935]]]}, "properties": {"osm_id": 1237137168, "building": "yes", "name": "", "height": null, "height_m": null, "levels": null, "tract_id": "40003956000", "tract_name": "9560", "tags": {"building": "yes"}}}, {"type": "Feature", "geometry": {"type": "Polygon", "coordinates": [[[-98.2697939, 36.550894], [-98.2698001, 36.5508923], [-98.2698066, 36.5508922], [-98.2698128, 36.5508938], [-98.269818, 36.5508969], [-98.2698219, 36.5509014], [-98.2698237, 36.5509068], [-98.2698232, 36.5509123], [-98.2698204, 36.5509174], [-98.2698157, 36.5509214], [-98.2698095, 36.5509239], [-98.2698027, 36.5509246], [-98.2697959, 36.5509235], [-98.2697901, 36.5509206], [-98.2697859, 36.5509165], [-98.2697836, 36.5509117], [-98.2697833, 36.5509064], [-98.2697851, 36.5509014], [-98.2697888, 36.5508971], [-98.2697939, 36.550894]]]}, "properties": {"osm_id": 1237137169, "building": "yes", "name": "", "height": null, "height_m": null, "levels": null, "tract_id": "40003956000", "tract_name": "9560", "tags": {"building": "yes"}}}, {"type": "Feature", "geometry": {"type": "Polygon", "coordinates": [[[-98.2697449, 36.5508948], [-98.2697511, 36.5508931], [-98.2697576, 36.550893], [-98.2697638, 36.5508946], [-98.269769, 36.5508977], [-98.2697729, 36.5509022], [-98.2697747, 36.5509076], [-98.2697742, 36.5509131], [-98.2697714, 36.5509182], [-98.2697667, 36.5509222], [-98.2697605, 36.5509247], [-98.2697537, 36.5509254], [-98.2697469, 36.5509243], [-98.2697411, 36.5509214], [-98.2697369, 36.5509173], [-98.2697346, 36.5509125], [-98.2697343, 36.5509072], [-98.2697361, 36.5509022], [-98.2697398, 36.5508979], [-98.2697449, 36.5508948]]]}, "properties": {"osm_id": 1237137170, "building": "yes", "name": "", "height": null, "height_m": null, "levels": null, "tract_id": "40003956000", "tract_name": "9560", "tags": {"building": "yes"}}}, {"type": "Feature", "geometry": {"type": "Polygon", "coordinates": [[[-98.2701365, 36.5509501], [-98.2701353, 36.5509035], [-98.2701159, 36.5509038], [-98.2701171, 36.5509505], [-98.2701365, 36.5509501]]]}, "properties": {"osm_id": 1237137171, "building": "yes", "name": "", "height": null, "height_m": null, "levels": null, "tract_id": "40003956000", "tract_name": "9560", "tags": {"building": "yes"}}}, {"type": "Feature", "geometry": {"type": "Polygon", "coordinates": [[[-98.270047, 36.5509032], [-98.2700502, 36.5509014], [-98.270054, 36.5509005], [-98.2700579, 36.5509006], [-98.2700615, 36.5509018], [-98.2700644, 36.5509039], [-98.2700663, 36.5509065], [-98.270067, 36.5509095], [-98.2700665, 36.5509125], [-98.2700648, 36.5509152], [-98.2700622, 36.5509173], [-98.2700589, 36.5509187], [-98.2700552, 36.5509191], [-98.2700515, 36.5509186], [-98.2700482, 36.5509172], [-98.2700455, 36.5509148], [-98.270044, 36.5509119], [-98.2700437, 36.5509088], [-98.2700448, 36.5509058], [-98.270047, 36.5509032]]]}, "properties": {"osm_id": 1237137172, "building": "yes", "name": "", "height": null, "height_m": null, "levels": null, "tract_id": "40003956000", "tract_name": "9560", "tags": {"building": "yes"}}}, {"type": "Feature", "geometry": {"type": "Polygon", "coordinates": [[[-98.2796401, 36.5460423], [-98.2796376, 36.5461482], [-98.279542, 36.5461468], [-98.2795444, 36.5460409], [-98.2796401, 36.5460423]]]}, "properties": {"osm_id": 1237458545, "building": "yes", "name": "", "height": null, "height_m": null, "levels": null, "tract_id": "40003956000", "tract_name": "9560", "tags": {"building": "yes"}}}, {"type": "Feature", "geometry": {"type": "Polygon", "coordinates": [[[-98.2764126, 36.5473981], [-98.2764122, 36.5473418], [-98.2763575, 36.5473421], [-98.2763579, 36.5473984], [-98.2764126, 36.5473981]]]}, "properties": {"osm_id": 1237470410, "building": "yes", "name": "", "height": null, "height_m": null, "levels": null, "tract_id": "40003956000", "tract_name": "9560", "tags": {"building": "yes"}}}, {"type": "Feature", "geometry": {"type": "Polygon", "coordinates": [[[-98.2763634, 36.5473125], [-98.2763491, 36.5473126], [-98.2763495, 36.5473472], [-98.2762235, 36.5473482], [-98.2762215, 36.5471823], [-98.2762745, 36.5471819], [-98.276275, 36.5472223], [-98.2763623, 36.5472216], [-98.2763634, 36.5473125]]]}, "properties": {"osm_id": 1237470411, "building": "yes", "name": "", "height": null, "height_m": null, "levels": null, "tract_id": "40003956000", "tract_name": "9560", "tags": {"addr:city": "Helena", "addr:housenumber": "519", "addr:postcode": "73741", "addr:state": "OK", "addr:street": "4th Street", "building": "yes"}}}, {"type": "Feature", "geometry": {"type": "Polygon", "coordinates": [[[-98.2761104, 36.5474411], [-98.2760766, 36.5474412], [-98.2760768, 36.5474715], [-98.2761106, 36.5474714], [-98.2761104, 36.5474411]]]}, "properties": {"osm_id": 1237470412, "building": "yes", "name": "", "height": null, "height_m": null, "levels": null, "tract_id": "40003956000", "tract_name": "9560", "tags": {"building": "yes"}}}, {"type": "Feature", "geometry": {"type": "Polygon", "coordinates": [[[-98.2761067, 36.5473485], [-98.276044, 36.5473482], [-98.2760437, 36.5473853], [-98.2758789, 36.5473844], [-98.2758801, 36.5472448], [-98.2759804, 36.5472453], [-98.2759801, 36.54728], [-98.2760459, 36.5472804], [-98.2760458, 36.547293], [-98.2761071, 36.5472933], [-98.2761067, 36.5473485]]]}, "properties": {"osm_id": 1237470413, "building": "yes", "name": "", "height": null, "height_m": null, "levels": null, "tract_id": "40003956000", "tract_name": "9560", "tags": {"addr:city": "Helena", "addr:housenumber": "505", "addr:postcode": "73741", "addr:state": "OK", "addr:street": "4th Street", "building": "yes"}}}, {"type": "Feature", "geometry": {"type": "Polygon", "coordinates": [[[-98.27585, 36.5475076], [-98.2758502, 36.5475627], [-98.2757959, 36.5475629], [-98.2757957, 36.5475078], [-98.27585, 36.5475076]]]}, "properties": {"osm_id": 1237470414, "building": "yes", "name": "", "height": null, "height_m": null, "levels": null, "tract_id": "40003956000", "tract_name": "9560", "tags": {"building": "yes"}}}, {"type": "Feature", "geometry": {"type": "Polygon", "coordinates": [[[-98.2757014, 36.547241], [-98.2757001, 36.5474093], [-98.2755989, 36.5474087], [-98.2756002, 36.5472405], [-98.2757014, 36.547241]]]}, "properties": {"osm_id": 1237470415, "building": "yes", "name": "", "height": null, "height_m": null, "levels": null, "tract_id": "40003956000", "tract_name": "9560", "tags": {"addr:city": "Helena", "addr:housenumber": "400", "addr:postcode": "73741", "addr:state": "OK", "addr:street": "Elva Street", "building": "yes"}}}, {"type": "Feature", "geometry": {"type": "Polygon", "coordinates": [[[-98.2756884, 36.5474164], [-98.2756879, 36.5474807], [-98.2756061, 36.5474802], [-98.2756066, 36.547416], [-98.2756884, 36.5474164]]]}, "properties": {"osm_id": 1237470416, "building": "yes", "name": "", "height": null, "height_m": null, "levels": null, "tract_id": "40003956000", "tract_name": "9560", "tags": {"building": "yes"}}}, {"type": "Feature", "geometry": {"type": "Polygon", "coordinates": [[[-98.2756499, 36.5475269], [-98.2756497, 36.5475543], [-98.2756182, 36.5475542], [-98.2756183, 36.5475268], [-98.2756499, 36.5475269]]]}, "properties": {"osm_id": 1237470417, "building": "yes", "name": "", "height": null, "height_m": null, "levels": null, "tract_id": "40003956000", "tract_name": "9560", "tags": {"building": "yes"}}}, {"type": "Feature", "geometry": {"type": "Polygon", "coordinates": [[[-98.2751456, 36.5474185], [-98.2751437, 36.5475257], [-98.2750404, 36.5475245], [-98.2750423, 36.5474173], [-98.2751456, 36.5474185]]]}, "properties": {"osm_id": 1237470420, "building": "yes", "name": "", "height": null, "height_m": null, "levels": null, "tract_id": "40003956000", "tract_name": "9560", "tags": {"building": "yes"}}}, {"type": "Feature", "geometry": {"type": "Polygon", "coordinates": [[[-98.2753042, 36.5474142], [-98.2753045, 36.5474566], [-98.2752156, 36.547457], [-98.2752153, 36.5474147], [-98.2753042, 36.5474142]]]}, "properties": {"osm_id": 1237470421, "building": "yes", "name": "", "height": null, "height_m": null, "levels": null, "tract_id": "40003956000", "tract_name": "9560", "tags": {"building": "yes"}}}, {"type": "Feature", "geometry": {"type": "Polygon", "coordinates": [[[-98.2752817, 36.5473778], [-98.2752284, 36.5473776], [-98.2752285, 36.5473601], [-98.275203, 36.54736], [-98.2752033, 36.5472994], [-98.2752271, 36.5472995], [-98.2752273, 36.5472606], [-98.2752767, 36.5472608], [-98.2752766, 36.5472964], [-98.2753007, 36.5472964], [-98.2753004, 36.5473574], [-98.2752818, 36.5473573], [-98.2752817, 36.5473778]]]}, "properties": {"osm_id": 1237470422, "building": "yes", "name": "", "height": null, "height_m": null, "levels": null, "tract_id": "40003956000", "tract_name": "9560", "tags": {"addr:city": "Helena", "addr:housenumber": "401", "addr:postcode": "73741", "addr:state": "OK", "addr:street": "4th Street", "building": "yes"}}}, {"type": "Feature", "geometry": {"type": "Polygon", "coordinates": [[[-98.2750674, 36.5472597], [-98.2749355, 36.5472602], [-98.2749361, 36.5473533], [-98.275068, 36.5473528], [-98.2750674, 36.5472597]]]}, "properties": {"osm_id": 1237470423, "building": "yes", "name": "", "height": null, "height_m": null, "levels": null, "tract_id": "40003956000", "tract_name": "9560", "tags": {"addr:city": "Helena", "addr:housenumber": "421", "addr:postcode": "73741", "addr:state": "OK", "addr:street": "4th Street", "building": "yes"}}}, {"type": "Feature", "geometry": {"type": "Polygon", "coordinates": [[[-98.2737388, 36.5475681], [-98.2737394, 36.5476013], [-98.273696, 36.5476018], [-98.2736954, 36.5475687], [-98.2737388, 36.5475681]]]}, "properties": {"osm_id": 1237471413, "building": "yes", "name": "", "height": null, "height_m": null, "levels": null, "tract_id": "40003956000", "tract_name": "9560", "tags": {"building": "yes"}}}, {"type": "Feature", "geometry": {"type": "Polygon", "coordinates": [[[-98.2736707, 36.5475685], [-98.2736713, 36.5476017], [-98.273628, 36.5476022], [-98.2736273, 36.5475691], [-98.2736707, 36.5475685]]]}, "properties": {"osm_id": 1237471414, "building": "yes", "name": "", "height": null, "height_m": null, "levels": null, "tract_id": "40003956000", "tract_name": "9560", "tags": {"building": "yes"}}}, {"type": "Feature", "geometry": {"type": "Polygon", "coordinates": [[[-98.273724, 36.5476334], [-98.2736701, 36.5476337], [-98.2736703, 36.5476523], [-98.2737241, 36.5476521], [-98.273724, 36.5476334]]]}, "properties": {"osm_id": 1237471415, "building": "yes", "name": "", "height": null, "height_m": null, "levels": null, "tract_id": "40003956000", "tract_name": "9560", "tags": {"building": "yes"}}}, {"type": "Feature", "geometry": {"type": "Polygon", "coordinates": [[[-98.2733306, 36.5475142], [-98.2732988, 36.5475444], [-98.2733396, 36.547572], [-98.2733713, 36.5475419], [-98.2733306, 36.5475142]]]}, "properties": {"osm_id": 1237471418, "building": "yes", "name": "", "height": null, "height_m": null, "levels": null, "tract_id": "40003956000", "tract_name": "9560", "tags": {"building": "yes"}}}, {"type": "Feature", "geometry": {"type": "Polygon", "coordinates": [[[-98.2732888, 36.5476137], [-98.2732888, 36.5475861], [-98.2732344, 36.5475861], [-98.2732344, 36.5476137], [-98.2732888, 36.5476137]]]}, "properties": {"osm_id": 1237471419, "building": "yes", "name": "", "height": null, "height_m": null, "levels": null, "tract_id": "40003956000", "tract_name": "9560", "tags": {"building": "yes"}}}, {"type": "Feature", "geometry": {"type": "Polygon", "coordinates": [[[-98.273319, 36.5473546], [-98.2731833, 36.547355], [-98.2731835, 36.547393], [-98.2731154, 36.5473931], [-98.2731157, 36.5474624], [-98.2731834, 36.5474622], [-98.2731836, 36.5475047], [-98.2732641, 36.5475045], [-98.273264, 36.5474658], [-98.2733195, 36.5474656], [-98.273319, 36.5473546]]]}, "properties": {"osm_id": 1237471421, "building": "yes", "name": "", "height": null, "height_m": null, "levels": null, "tract_id": "40003956000", "tract_name": "9560", "tags": {"addr:city": "Helena", "addr:housenumber": "303", "addr:postcode": "73741", "addr:state": "OK", "addr:street": "4th Street", "building": "yes"}}}, {"type": "Feature", "geometry": {"type": "Polygon", "coordinates": [[[-98.2727009, 36.5472823], [-98.2725894, 36.5472823], [-98.2725894, 36.5474333], [-98.2728393, 36.5474333], [-98.2728393, 36.5473437], [-98.2727009, 36.5473437], [-98.2727009, 36.5472823]]]}, "properties": {"osm_id": 1237471424, "building": "yes", "name": "", "height": null, "height_m": null, "levels": null, "tract_id": "40003956000", "tract_name": "9560", "tags": {"addr:city": "Helena", "addr:housenumber": "301", "addr:postcode": "73741", "addr:state": "OK", "addr:street": "4th Street", "building": "yes"}}}, {"type": "Feature", "geometry": {"type": "Polygon", "coordinates": [[[-98.2724068, 36.5474416], [-98.2724068, 36.5475796], [-98.2723018, 36.5475796], [-98.2723017, 36.5474416], [-98.2724068, 36.5474416]]]}, "properties": {"osm_id": 1237471425, "building": "yes", "name": "", "height": null, "height_m": null, "levels": null, "tract_id": "40003956000", "tract_name": "9560", "tags": {"building": "yes"}}}, {"type": "Feature", "geometry": {"type": "Polygon", "coordinates": [[[-98.2718858, 36.5473251], [-98.2716996, 36.5473241], [-98.2716993, 36.5473535], [-98.2716467, 36.5473532], [-98.2716456, 36.5474892], [-98.2717071, 36.5474896], [-98.2717077, 36.5474177], [-98.271885, 36.5474187], [-98.2718858, 36.5473251]]]}, "properties": {"osm_id": 1237471426, "building": "yes", "name": "", "height": null, "height_m": null, "levels": null, "tract_id": "40003956000", "tract_name": "9560", "tags": {"addr:city": "Helena", "addr:housenumber": "215", "addr:postcode": "73741", "addr:state": "OK", "addr:street": "4th Street", "building": "yes"}}}, {"type": "Feature", "geometry": {"type": "Polygon", "coordinates": [[[-98.2714269, 36.5473874], [-98.2714247, 36.5472075], [-98.2715151, 36.5472068], [-98.2715165, 36.5473246], [-98.2715519, 36.5473244], [-98.2715523, 36.5473597], [-98.2714948, 36.5473602], [-98.2714951, 36.5473869], [-98.2714269, 36.5473874]]]}, "properties": {"osm_id": 1237471427, "building": "yes", "name": "", "height": null, "height_m": null, "levels": null, "tract_id": "40003956000", "tract_name": "9560", "tags": {"addr:city": "Helena", "addr:housenumber": "400", "addr:postcode": "73741", "addr:state": "OK", "addr:street": "Hinkley Street", "building": "yes"}}}, {"type": "Feature", "geometry": {"type": "Polygon", "coordinates": [[[-98.2733075, 36.5477603], [-98.2732538, 36.5477564], [-98.2732606, 36.5476946], [-98.2733143, 36.5476984], [-98.2733075, 36.5477603]]]}, "properties": {"osm_id": 1237471428, "building": "yes", "name": "", "height": null, "height_m": null, "levels": null, "tract_id": "40003956000", "tract_name": "9560", "tags": {"building": "yes"}}}, {"type": "Feature", "geometry": {"type": "Polygon", "coordinates": [[[-98.273331, 36.5478443], [-98.2730405, 36.5478443], [-98.2730405, 36.5479354], [-98.2731702, 36.5479354], [-98.2731702, 36.5479634], [-98.2732236, 36.5479634], [-98.2732236, 36.5479354], [-98.273331, 36.5479354], [-98.273331, 36.5478443]]]}, "properties": {"osm_id": 1237471429, "building": "yes", "name": "", "height": null, "height_m": null, "levels": null, "tract_id": "40003956000", "tract_name": "9560", "tags": {"addr:city": "Helena", "addr:housenumber": "302", "addr:postcode": "73741", "addr:state": "OK", "addr:street": "5th Street", "building": "yes"}}}, {"type": "Feature", "geometry": {"type": "Polygon", "coordinates": [[[-98.2729201, 36.5479335], [-98.2728635, 36.5479338], [-98.2728636, 36.5479471], [-98.2728204, 36.5479474], [-98.2728202, 36.547932], [-98.27259, 36.5479334], [-98.2725892, 36.5478496], [-98.2727496, 36.5478486], [-98.2727492, 36.5478132], [-98.2728079, 36.5478129], [-98.2728082, 36.5478522], [-98.2729194, 36.5478515], [-98.2729201, 36.5479335]]]}, "properties": {"osm_id": 1237471430, "building": "yes", "name": "", "height": null, "height_m": null, "levels": null, "tract_id": "40003956000", "tract_name": "9560", "tags": {"addr:city": "Helena", "addr:housenumber": "300", "addr:postcode": "73741", "addr:state": "OK", "addr:street": "5th Street", "building": "yes"}}}, {"type": "Feature", "geometry": {"type": "Polygon", "coordinates": [[[-98.272035, 36.5479054], [-98.2720556, 36.5479053], [-98.2720562, 36.5479613], [-98.2721682, 36.5479605], [-98.2721652, 36.5476772], [-98.2720509, 36.547678], [-98.2720514, 36.5477245], [-98.2720311, 36.5477247], [-98.2720314, 36.5477503], [-98.2720733, 36.54775], [-98.2720733, 36.5477576], [-98.2720518, 36.5477577], [-98.2720523, 36.5477992], [-98.2720703, 36.5477991], [-98.2720707, 36.5478366], [-98.2720555, 36.5478367], [-98.272056, 36.5478763], [-98.272074, 36.5478761], [-98.2720741, 36.5478844], [-98.2720348, 36.5478846], [-98.272035, 36.5479054]]]}, "properties": {"osm_id": 1237472626, "building": "yes", "name": "", "height": null, "height_m": null, "levels": null, "tract_id": "40003956000", "tract_name": "9560", "tags": {"building": "yes"}}}, {"type": "Feature", "geometry": {"type": "Polygon", "coordinates": [[[-98.2718965, 36.5477864], [-98.2718963, 36.5477699], [-98.271966, 36.5477693], [-98.2719647, 36.5476793], [-98.2716121, 36.5476824], [-98.2716133, 36.5477742], [-98.2716713, 36.5477737], [-98.2716715, 36.54779], [-98.2717034, 36.5477897], [-98.2717029, 36.5477561], [-98.2717124, 36.547756], [-98.2717126, 36.5477733], [-98.2717643, 36.5477728], [-98.2717641, 36.5477583], [-98.2718107, 36.5477579], [-98.2718109, 36.5477701], [-98.2718602, 36.5477696], [-98.27186, 36.5477551], [-98.2718702, 36.547755], [-98.2718706, 36.5477866], [-98.2718965, 36.5477864]]]}, "properties": {"osm_id": 1237472627, "building": "yes", "name": "", "height": null, "height_m": null, "levels": null, "tract_id": "40003956000", "tract_name": "9560", "tags": {"addr:city": "Helena", "addr:housenumber": "220", "addr:postcode": "73741", "addr:state": "OK", "addr:street": "5th Street", "building": "yes"}}}, {"type": "Feature", "geometry": {"type": "Polygon", "coordinates": [[[-98.2715406, 36.5477302], [-98.2715248, 36.5477303], [-98.2715244, 36.5476796], [-98.2714094, 36.5476803], [-98.2714119, 36.5479636], [-98.2715229, 36.547963], [-98.2715225, 36.547911], [-98.271543, 36.5479108], [-98.2715428, 36.5478887], [-98.2715016, 36.547889], [-98.2715015, 36.5478795], [-98.2715234, 36.5478793], [-98.2715231, 36.547842], [-98.271504, 36.5478421], [-98.2715036, 36.5478012], [-98.271519, 36.5478011], [-98.2715186, 36.5477608], [-98.2715009, 36.5477609], [-98.2715008, 36.5477546], [-98.2715408, 36.5477543], [-98.2715406, 36.5477302]]]}, "properties": {"osm_id": 1237472628, "building": "yes", "name": "", "height": null, "height_m": null, "levels": null, "tract_id": "40003956000", "tract_name": "9560", "tags": {"building": "yes"}}}, {"type": "Feature", "geometry": {"type": "Polygon", "coordinates": [[[-98.2702467, 36.5481452], [-98.2701917, 36.5481841], [-98.2701065, 36.5481063], [-98.2701616, 36.5480674], [-98.2702467, 36.5481452]]]}, "properties": {"osm_id": 1237472630, "building": "yes", "name": "", "height": null, "height_m": null, "levels": null, "tract_id": "40003956000", "tract_name": "9560", "tags": {"building": "yes"}}}, {"type": "Feature", "geometry": {"type": "Polygon", "coordinates": [[[-98.270166, 36.5478091], [-98.270166, 36.5478693], [-98.2701374, 36.5478693], [-98.2701374, 36.5478091], [-98.270166, 36.5478091]]]}, "properties": {"osm_id": 1237472631, "building": "yes", "name": "", "height": null, "height_m": null, "levels": null, "tract_id": "40003956000", "tract_name": "9560", "tags": {"building": "yes"}}}, {"type": "Feature", "geometry": {"type": "Polygon", "coordinates": [[[-98.2706094, 36.5481442], [-98.2705353, 36.548145], [-98.2705357, 36.5481668], [-98.2706097, 36.5481659], [-98.2706094, 36.5481442]]]}, "properties": {"osm_id": 1237472632, "building": "yes", "name": "", "height": null, "height_m": null, "levels": null, "tract_id": "40003956000", "tract_name": "9560", "tags": {"building": "yes"}}}, {"type": "Feature", "geometry": {"type": "Polygon", "coordinates": [[[-98.2710825, 36.5481458], [-98.2710827, 36.5481797], [-98.2709985, 36.5481799], [-98.2709983, 36.5481461], [-98.2710825, 36.5481458]]]}, "properties": {"osm_id": 1237472635, "building": "yes", "name": "", "height": null, "height_m": null, "levels": null, "tract_id": "40003956000", "tract_name": "9560", "tags": {"building": "yes"}}}, {"type": "Feature", "geometry": {"type": "Polygon", "coordinates": [[[-98.2709619, 36.5482442], [-98.2709652, 36.5484105], [-98.2705533, 36.5484156], [-98.2705501, 36.5482494], [-98.2709619, 36.5482442]]]}, "properties": {"osm_id": 1237473208, "building": "yes", "name": "", "height": null, "height_m": null, "levels": null, "tract_id": "40003956000", "tract_name": "9560", "tags": {"addr:city": "Helena", "addr:housenumber": "505", "addr:postcode": "73741", "addr:state": "OK", "addr:street": "Hinkley Street", "building": "yes"}}}, {"type": "Feature", "geometry": {"type": "Polygon", "coordinates": [[[-98.2710648, 36.5489596], [-98.2705465, 36.5489669], [-98.2705458, 36.5489345], [-98.2704605, 36.5489357], [-98.2704609, 36.5489524], [-98.270405, 36.5489532], [-98.2704046, 36.548935], [-98.2701719, 36.5489383], [-98.2701571, 36.5482569], [-98.2704402, 36.5482529], [-98.2704444, 36.5484415], [-98.2705496, 36.54844], [-98.2705535, 36.5486174], [-98.2705434, 36.5486176], [-98.2705465, 36.5487545], [-98.2710601, 36.5487472], [-98.2710648, 36.5489596]]]}, "properties": {"osm_id": 1237473209, "building": "yes", "name": "", "height": null, "height_m": null, "levels": null, "tract_id": "40003956000", "tract_name": "9560", "tags": {"addr:city": "Helena", "addr:housenumber": "516", "addr:postcode": "73741", "addr:state": "OK", "addr:street": "Main Street", "building": "yes"}}}, {"type": "Feature", "geometry": {"type": "Polygon", "coordinates": [[[-98.2707789, 36.5486262], [-98.2707796, 36.5486924], [-98.2706263, 36.5486934], [-98.2706257, 36.5486272], [-98.2707789, 36.5486262]]]}, "properties": {"osm_id": 1237473210, "building": "yes", "name": "", "height": null, "height_m": null, "levels": null, "tract_id": "40003956000", "tract_name": "9560", "tags": {"addr:housenumber": "516", "building": "yes"}}}, {"type": "Feature", "geometry": {"type": "Polygon", "coordinates": [[[-98.2697869, 36.548878], [-98.2695826, 36.5488813], [-98.2695798, 36.5487711], [-98.2697841, 36.5487677], [-98.2697869, 36.548878]]]}, "properties": {"osm_id": 1237522228, "building": "yes", "name": "", "height": null, "height_m": null, "levels": null, "tract_id": "40003956000", "tract_name": "9560", "tags": {"building": "yes"}}}, {"type": "Feature", "geometry": {"type": "Polygon", "coordinates": [[[-98.2695544, 36.5486356], [-98.2694397, 36.5486376], [-98.2694383, 36.5485859], [-98.269553, 36.5485839], [-98.2695544, 36.5486356]]]}, "properties": {"osm_id": 1237522229, "building": "yes", "name": "", "height": null, "height_m": null, "levels": null, "tract_id": "40003956000", "tract_name": "9560", "tags": {"building": "yes"}}}, {"type": "Feature", "geometry": {"type": "Polygon", "coordinates": [[[-98.2697142, 36.5484762], [-98.2697994, 36.5484754], [-98.2698016, 36.5486265], [-98.2697139, 36.5486274], [-98.2697129, 36.548562], [-98.2697002, 36.5485622], [-98.2696994, 36.5485126], [-98.2697147, 36.5485124], [-98.2697142, 36.5484762]]]}, "properties": {"osm_id": 1237522230, "building": "yes", "name": "", "height": null, "height_m": null, "levels": null, "tract_id": "40003956000", "tract_name": "9560", "tags": {"addr:city": "Helena", "addr:housenumber": "601", "addr:postcode": "73741", "addr:state": "OK", "addr:street": "Main Street", "building": "yes"}}}, {"type": "Feature", "geometry": {"type": "Polygon", "coordinates": [[[-98.2691106, 36.5487975], [-98.2690424, 36.5487977], [-98.2690418, 36.5486757], [-98.2690306, 36.5486757], [-98.2689315, 36.548676], [-98.2689325, 36.548893], [-98.2690427, 36.5488926], [-98.2690426, 36.5488625], [-98.2691109, 36.5488623], [-98.2691106, 36.5487975]]]}, "properties": {"osm_id": 1237522234, "building": "yes", "name": "", "height": null, "height_m": null, "levels": null, "tract_id": "40003956000", "tract_name": "9560", "tags": {"addr:city": "Helena", "addr:housenumber": "524", "addr:postcode": "73741", "addr:state": "OK", "addr:street": "Kingman Street", "building": "yes"}}}, {"type": "Feature", "geometry": {"type": "Polygon", "coordinates": [[[-98.2696066, 36.5491875], [-98.2696066, 36.5493075], [-98.2694804, 36.5493075], [-98.2694804, 36.5492046], [-98.2695617, 36.5492046], [-98.2695617, 36.5491875], [-98.2696066, 36.5491875]]]}, "properties": {"osm_id": 1237522243, "building": "yes", "name": "", "height": null, "height_m": null, "levels": null, "tract_id": "40003956000", "tract_name": "9560", "tags": {"building": "yes"}}}, {"type": "Feature", "geometry": {"type": "Polygon", "coordinates": [[[-98.2695482, 36.5493526], [-98.2694555, 36.5493526], [-98.2694559, 36.5496813], [-98.2695499, 36.5496812], [-98.2695497, 36.5495909], [-98.2695909, 36.5495909], [-98.2695907, 36.549439], [-98.2695483, 36.5494391], [-98.2695482, 36.5493526]]]}, "properties": {"osm_id": 1237522244, "building": "grandstand", "name": "", "height": null, "height_m": null, "levels": null, "tract_id": "40003956000", "tract_name": "9560", "tags": {"addr:city": "Helena", "addr:housenumber": "101", "addr:postcode": "73741", "addr:state": "OK", "addr:street": "6th Street", "building": "grandstand"}}}, {"type": "Feature", "geometry": {"type": "Polygon", "coordinates": [[[-98.269699, 36.5496713], [-98.2697005, 36.5498493], [-98.2696049, 36.5498498], [-98.2696034, 36.5496718], [-98.269699, 36.5496713]]]}, "properties": {"osm_id": 1237522248, "building": "yes", "name": "", "height": null, "height_m": null, "levels": null, "tract_id": "40003956000", "tract_name": "9560", "tags": {"building": "yes"}}}, {"type": "Feature", "geometry": {"type": "Polygon", "coordinates": [[[-98.2699501, 36.5498683], [-98.2699507, 36.5499237], [-98.2697435, 36.5499253], [-98.2697428, 36.5498698], [-98.2699501, 36.5498683]]]}, "properties": {"osm_id": 1237522249, "building": "yes", "name": "", "height": null, "height_m": null, "levels": null, "tract_id": "40003956000", "tract_name": "9560", "tags": {"building": "yes"}}}, {"type": "Feature", "geometry": {"type": "Polygon", "coordinates": [[[-98.2698753, 36.5497774], [-98.2698752, 36.5498096], [-98.269753, 36.5498093], [-98.2697531, 36.5497772], [-98.2698753, 36.5497774]]]}, "properties": {"osm_id": 1237522250, "building": "yes", "name": "", "height": null, "height_m": null, "levels": null, "tract_id": "40003956000", "tract_name": "9560", "tags": {"building": "yes"}}}, {"type": "Feature", "geometry": {"type": "Polygon", "coordinates": [[[-98.2702118, 36.5494144], [-98.270214, 36.5496109], [-98.2702532, 36.5496106], [-98.2702538, 36.5496724], [-98.2697369, 36.5496761], [-98.2697362, 36.5496147], [-98.270117, 36.5496119], [-98.2701148, 36.5494151], [-98.2702118, 36.5494144]]]}, "properties": {"osm_id": 1237522251, "building": "yes", "name": "", "height": null, "height_m": null, "levels": null, "tract_id": "40003956000", "tract_name": "9560", "tags": {"building": "yes"}}}, {"type": "Feature", "geometry": {"type": "Polygon", "coordinates": [[[-98.2705354, 36.5498667], [-98.2703943, 36.5498672], [-98.2703946, 36.5499243], [-98.2702532, 36.5499247], [-98.2702521, 36.5497028], [-98.2703925, 36.5497024], [-98.2703928, 36.549753], [-98.2705349, 36.5497526], [-98.2705354, 36.5498667]]]}, "properties": {"osm_id": 1237522252, "building": "yes", "name": "", "height": null, "height_m": null, "levels": null, "tract_id": "40003956000", "tract_name": "9560", "tags": {"building": "yes"}}}, {"type": "Feature", "geometry": {"type": "Polygon", "coordinates": [[[-98.2710874, 36.5495303], [-98.2709326, 36.5495319], [-98.2709331, 36.5495627], [-98.270562, 36.5495667], [-98.270561, 36.5495093], [-98.270525, 36.5495097], [-98.2705241, 36.5494559], [-98.2704795, 36.5494564], [-98.27048, 36.5494854], [-98.2704393, 36.5494858], [-98.2704388, 36.5494555], [-98.270387, 36.5494561], [-98.2703844, 36.5492989], [-98.2704218, 36.5492984], [-98.2704212, 36.5492596], [-98.2705433, 36.5492583], [-98.2705435, 36.5492708], [-98.2709197, 36.5492668], [-98.2709202, 36.5492959], [-98.2710835, 36.5492941], [-98.2710874, 36.5495303]]]}, "properties": {"osm_id": 1237522254, "building": "yes", "name": "", "height": null, "height_m": null, "levels": null, "tract_id": "40003956000", "tract_name": "9560", "tags": {"addr:city": "Helena", "addr:housenumber": "115", "addr:postcode": "73741", "addr:state": "OK", "addr:street": "6th Street", "building": "yes", "leisure": "sports_hall"}}}, {"type": "Feature", "geometry": {"type": "Polygon", "coordinates": [[[-98.2833106, 36.5510358], [-98.2833094, 36.5510676], [-98.2832082, 36.5510651], [-98.2832094, 36.5510332], [-98.2833106, 36.5510358]]]}, "properties": {"osm_id": 1237529285, "building": "yes", "name": "", "height": null, "height_m": null, "levels": null, "tract_id": "40003956000", "tract_name": "9560", "tags": {"building": "yes"}}}, {"type": "Feature", "geometry": {"type": "Polygon", "coordinates": [[[-98.2832979, 36.5512535], [-98.2832944, 36.5512811], [-98.2832136, 36.5512745], [-98.2832171, 36.5512469], [-98.2832979, 36.5512535]]]}, "properties": {"osm_id": 1237529286, "building": "yes", "name": "", "height": null, "height_m": null, "levels": null, "tract_id": "40003956000", "tract_name": "9560", "tags": {"building": "yes"}}}, {"type": "Feature", "geometry": {"type": "Polygon", "coordinates": [[[-98.2735763, 36.5462748], [-98.2735759, 36.546409], [-98.2733826, 36.5464087], [-98.2733825, 36.5464182], [-98.273343, 36.5464181], [-98.2733433, 36.5463365], [-98.2733855, 36.5463366], [-98.2733855, 36.5463285], [-98.2734852, 36.5463286], [-98.2734853, 36.5462746], [-98.2735763, 36.5462748]]]}, "properties": {"osm_id": 1237556705, "building": "yes", "name": "", "height": null, "height_m": null, "levels": null, "tract_id": "40003956000", "tract_name": "9560", "tags": {"addr:city": "Helena", "addr:housenumber": "325", "addr:postcode": "73741", "addr:state": "OK", "addr:street": "3rd Street", "building": "yes"}}}, {"type": "Feature", "geometry": {"type": "Polygon", "coordinates": [[[-98.2727117, 36.546347], [-98.2725794, 36.5463485], [-98.2725779, 36.546266], [-98.2727102, 36.5462644], [-98.2727117, 36.546347]]]}, "properties": {"osm_id": 1237556706, "building": "yes", "name": "", "height": null, "height_m": null, "levels": null, "tract_id": "40003956000", "tract_name": "9560", "tags": {"building": "yes"}}}, {"type": "Feature", "geometry": {"type": "Polygon", "coordinates": [[[-98.2726727, 36.5465486], [-98.2726726, 36.5465154], [-98.2725913, 36.5465156], [-98.2725914, 36.5465488], [-98.2726727, 36.5465486]]]}, "properties": {"osm_id": 1237556707, "building": "yes", "name": "", "height": null, "height_m": null, "levels": null, "tract_id": "40003956000", "tract_name": "9560", "tags": {"building": "yes"}}}, {"type": "Feature", "geometry": {"type": "Polygon", "coordinates": [[[-98.2729554, 36.546745], [-98.272846, 36.546745], [-98.272846, 36.5466649], [-98.2729554, 36.5466649], [-98.2729554, 36.546745]]]}, "properties": {"osm_id": 1237556708, "building": "yes", "name": "", "height": null, "height_m": null, "levels": null, "tract_id": "40003956000", "tract_name": "9560", "tags": {"building": "yes"}}}, {"type": "Feature", "geometry": {"type": "Polygon", "coordinates": [[[-98.2733331, 36.546657], [-98.2733337, 36.5467356], [-98.2732132, 36.5467362], [-98.2732126, 36.5466577], [-98.2733331, 36.546657]]]}, "properties": {"osm_id": 1237556709, "building": "yes", "name": "", "height": null, "height_m": null, "levels": null, "tract_id": "40003956000", "tract_name": "9560", "tags": {"building": "yes"}}}, {"type": "Feature", "geometry": {"type": "Polygon", "coordinates": [[[-98.2734749, 36.5466566], [-98.2733441, 36.546656], [-98.2733434, 36.546767], [-98.2733983, 36.5467672], [-98.2733986, 36.5467246], [-98.2734744, 36.546725], [-98.2734749, 36.5466566]]]}, "properties": {"osm_id": 1237556710, "building": "yes", "name": "", "height": null, "height_m": null, "levels": null, "tract_id": "40003956000", "tract_name": "9560", "tags": {"building": "yes"}}}, {"type": "Feature", "geometry": {"type": "Polygon", "coordinates": [[[-98.2728904, 36.546952], [-98.2728893, 36.5468537], [-98.2730508, 36.5468526], [-98.273052, 36.5469587], [-98.2729383, 36.5469595], [-98.2729382, 36.5469517], [-98.2728904, 36.546952]]]}, "properties": {"osm_id": 1237556711, "building": "yes", "name": "", "height": null, "height_m": null, "levels": null, "tract_id": "40003956000", "tract_name": "9560", "tags": {"addr:city": "Helena", "addr:housenumber": "318", "addr:postcode": "73741", "addr:state": "OK", "addr:street": "4th Street", "building": "yes"}}}, {"type": "Feature", "geometry": {"type": "Polygon", "coordinates": [[[-98.2731457, 36.5469514], [-98.2731459, 36.5468537], [-98.2733028, 36.546854], [-98.2733026, 36.5469578], [-98.2731911, 36.5469577], [-98.2731892, 36.5469515], [-98.2731457, 36.5469514]]]}, "properties": {"osm_id": 1237556712, "building": "yes", "name": "", "height": null, "height_m": null, "levels": null, "tract_id": "40003956000", "tract_name": "9560", "tags": {"addr:city": "Helena", "addr:housenumber": "320", "addr:postcode": "73741", "addr:state": "OK", "addr:street": "4th Street", "building": "yes"}}}, {"type": "Feature", "geometry": {"type": "Polygon", "coordinates": [[[-98.273585, 36.5468123], [-98.2734324, 36.5468133], [-98.2734329, 36.5468619], [-98.2733868, 36.5468622], [-98.2733876, 36.5469491], [-98.2735864, 36.5469479], [-98.273585, 36.5468123]]]}, "properties": {"osm_id": 1237556713, "building": "yes", "name": "", "height": null, "height_m": null, "levels": null, "tract_id": "40003956000", "tract_name": "9560", "tags": {"addr:city": "Helena", "addr:housenumber": "322", "addr:postcode": "73741", "addr:state": "OK", "addr:street": "4th Street", "building": "yes"}}}, {"type": "Feature", "geometry": {"type": "Polygon", "coordinates": [[[-98.2710423, 36.5465059], [-98.2709207, 36.5465067], [-98.2709191, 36.5463472], [-98.270837, 36.5463477], [-98.2708359, 36.5462488], [-98.2709138, 36.5462483], [-98.2709142, 36.5462875], [-98.2710509, 36.5462865], [-98.2710505, 36.5462508], [-98.271124, 36.5462503], [-98.271125, 36.5463478], [-98.2710406, 36.5463484], [-98.2710423, 36.5465059]]]}, "properties": {"osm_id": 1237556715, "building": "yes", "name": "", "height": null, "height_m": null, "levels": null, "tract_id": "40003956000", "tract_name": "9560", "tags": {"building": "yes"}}}, {"type": "Feature", "geometry": {"type": "Polygon", "coordinates": [[[-98.2705695, 36.5464316], [-98.2705695, 36.5465246], [-98.2704762, 36.5465246], [-98.2704762, 36.5467473], [-98.2701586, 36.5467473], [-98.2701586, 36.546529], [-98.2703527, 36.546529], [-98.2703527, 36.5464316], [-98.2705695, 36.5464316]]]}, "properties": {"osm_id": 1237556717, "building": "yes", "name": "", "height": null, "height_m": null, "levels": null, "tract_id": "40003956000", "tract_name": "9560", "tags": {"addr:city": "Helena", "addr:housenumber": "308", "addr:postcode": "73741", "addr:state": "OK", "addr:street": "Main Street", "building": "yes"}}}, {"type": "Feature", "geometry": {"type": "Polygon", "coordinates": [[[-98.2703238, 36.5467572], [-98.2703235, 36.546825], [-98.2703416, 36.5468251], [-98.2703408, 36.5470491], [-98.2701717, 36.5470487], [-98.2701727, 36.5467569], [-98.2703238, 36.5467572]]]}, "properties": {"osm_id": 1237556718, "building": "yes", "name": "", "height": null, "height_m": null, "levels": null, "tract_id": "40003956000", "tract_name": "9560", "tags": {"building": "yes"}}}, {"type": "Feature", "geometry": {"type": "Polygon", "coordinates": [[[-98.2703362, 36.5465082], [-98.2703347, 36.5464381], [-98.270293, 36.5464387], [-98.2702945, 36.5465088], [-98.2703362, 36.5465082]]]}, "properties": {"osm_id": 1237556719, "building": "yes", "name": "", "height": null, "height_m": null, "levels": null, "tract_id": "40003956000", "tract_name": "9560", "tags": {"building": "yes"}}}, {"type": "Feature", "geometry": {"type": "Polygon", "coordinates": [[[-98.2702782, 36.5465016], [-98.2702789, 36.5464315], [-98.2701443, 36.5464306], [-98.2701437, 36.5465008], [-98.2702782, 36.5465016]]]}, "properties": {"osm_id": 1237556722, "building": "yes", "name": "", "height": null, "height_m": null, "levels": null, "tract_id": "40003956000", "tract_name": "9560", "tags": {"addr:city": "Helena", "addr:housenumber": "306", "addr:postcode": "73741", "addr:state": "OK", "addr:street": "Main Street", "building": "yes"}}}, {"type": "Feature", "geometry": {"type": "Polygon", "coordinates": [[[-98.2704046, 36.5462222], [-98.2704039, 36.5462959], [-98.2703096, 36.5462953], [-98.270309, 36.5463645], [-98.2701373, 36.5463635], [-98.270138, 36.546295], [-98.2701299, 36.5462949], [-98.2701302, 36.5462721], [-98.2702246, 36.5462211], [-98.2704046, 36.5462222]]]}, "properties": {"osm_id": 1237556723, "building": "yes", "name": "", "height": null, "height_m": null, "levels": null, "tract_id": "40003956000", "tract_name": "9560", "tags": {"addr:city": "Helena", "addr:housenumber": "300", "addr:postcode": "73741", "addr:state": "OK", "addr:street": "Main Street", "building": "yes"}}}, {"type": "Feature", "geometry": {"type": "Polygon", "coordinates": [[[-98.2698627, 36.5462989], [-98.2697233, 36.5462991], [-98.2697231, 36.546226], [-98.2698344, 36.5462258], [-98.2698626, 36.5462497], [-98.2698627, 36.5462989]]]}, "properties": {"osm_id": 1237556724, "building": "yes", "name": "", "height": null, "height_m": null, "levels": null, "tract_id": "40003956000", "tract_name": "9560", "tags": {"addr:city": "Helena", "addr:housenumber": "101", "addr:postcode": "73741", "addr:state": "OK", "addr:street": "3rd Street", "building": "yes"}}}, {"type": "Feature", "geometry": {"type": "Polygon", "coordinates": [[[-98.2696666, 36.5462966], [-98.2696666, 36.5462244], [-98.2695624, 36.5462244], [-98.2695624, 36.5462411], [-98.2696467, 36.5462411], [-98.2696467, 36.5462966], [-98.2696666, 36.5462966]]]}, "properties": {"osm_id": 1237556725, "building": "roof", "name": "", "height": null, "height_m": null, "levels": null, "tract_id": "40003956000", "tract_name": "9560", "tags": {"building": "roof", "layer": "1"}}}, {"type": "Feature", "geometry": {"type": "Polygon", "coordinates": [[[-98.2696099, 36.5464291], [-98.2696098, 36.5464149], [-98.2694493, 36.5464152], [-98.2694494, 36.5464294], [-98.2696099, 36.5464291]]]}, "properties": {"osm_id": 1237556726, "building": "roof", "name": "", "height": null, "height_m": null, "levels": null, "tract_id": "40003956000", "tract_name": "9560", "tags": {"building": "roof", "layer": "1"}}}, {"type": "Feature", "geometry": {"type": "Polygon", "coordinates": [[[-98.2698661, 36.5465642], [-98.2698661, 36.5465109], [-98.2696552, 36.5465109], [-98.2696552, 36.5465643], [-98.2698661, 36.5465642]]]}, "properties": {"osm_id": 1237556733, "building": "yes", "name": "", "height": null, "height_m": null, "levels": null, "tract_id": "40003956000", "tract_name": "9560", "tags": {"addr:city": "Helena", "addr:housenumber": "315", "addr:postcode": "73741", "addr:state": "OK", "addr:street": "Main Street", "building": "yes"}}}, {"type": "Feature", "geometry": {"type": "Polygon", "coordinates": [[[-98.2698551, 36.5464876], [-98.2697201, 36.5464874], [-98.2697202, 36.546457], [-98.2698551, 36.5464573], [-98.2698551, 36.5464876]]]}, "properties": {"osm_id": 1237556734, "building": "yes", "name": "", "height": null, "height_m": null, "levels": null, "tract_id": "40003956000", "tract_name": "9560", "tags": {"building": "yes"}}}, {"type": "Feature", "geometry": {"type": "Polygon", "coordinates": [[[-98.2698459, 36.546579], [-98.269846, 36.546633], [-98.2696619, 36.5466332], [-98.2696618, 36.5465792], [-98.2698459, 36.546579]]]}, "properties": {"osm_id": 1237556735, "building": "yes", "name": "", "height": null, "height_m": null, "levels": null, "tract_id": "40003956000", "tract_name": "9560", "tags": {"addr:city": "Helena", "addr:housenumber": "317", "addr:postcode": "73741", "addr:state": "OK", "addr:street": "Main Street", "building": "yes"}}}, {"type": "Feature", "geometry": {"type": "Polygon", "coordinates": [[[-98.269861, 36.5467708], [-98.2698607, 36.5467143], [-98.2697998, 36.5467145], [-98.2698001, 36.5467711], [-98.269861, 36.5467708]]]}, "properties": {"osm_id": 1237556736, "building": "yes", "name": "", "height": null, "height_m": null, "levels": null, "tract_id": "40003956000", "tract_name": "9560", "tags": {"addr:city": "Helena", "addr:housenumber": "111", "addr:postcode": "73741", "addr:state": "OK", "addr:street": "Main Street", "building": "yes"}}}, {"type": "Feature", "geometry": {"type": "Polygon", "coordinates": [[[-98.2692781, 36.5463455], [-98.2692065, 36.5463461], [-98.2692067, 36.5463614], [-98.2689201, 36.5463635], [-98.26892, 36.5463537], [-98.2689191, 36.5462814], [-98.2689752, 36.546281], [-98.2689751, 36.5462709], [-98.2690427, 36.5462704], [-98.2690428, 36.5462828], [-98.2692055, 36.5462815], [-98.2692057, 36.5462957], [-98.2692775, 36.5462952], [-98.2692781, 36.5463455]]]}, "properties": {"osm_id": 1237558133, "building": "yes", "name": "", "height": null, "height_m": null, "levels": null, "tract_id": "40003956000", "tract_name": "9560", "tags": {"addr:city": "Helena", "addr:housenumber": "115", "addr:postcode": "73741", "addr:state": "OK", "addr:street": "3rd Street", "building": "yes"}}}, {"type": "Feature", "geometry": {"type": "Polygon", "coordinates": [[[-98.2691999, 36.5464125], [-98.2691999, 36.5464405], [-98.2691345, 36.5464405], [-98.2691345, 36.5464125], [-98.2691999, 36.5464125]]]}, "properties": {"osm_id": 1237558135, "building": "yes", "name": "", "height": null, "height_m": null, "levels": null, "tract_id": "40003956000", "tract_name": "9560", "tags": {"building": "yes"}}}, {"type": "Feature", "geometry": {"type": "Polygon", "coordinates": [[[-98.2693578, 36.5468696], [-98.2693535, 36.5469646], [-98.269276, 36.5469624], [-98.2692803, 36.5468673], [-98.2693578, 36.5468696]]]}, "properties": {"osm_id": 1237558136, "building": "yes", "name": "", "height": null, "height_m": null, "levels": null, "tract_id": "40003956000", "tract_name": "9560", "tags": {"building": "yes"}}}, {"type": "Feature", "geometry": {"type": "Polygon", "coordinates": [[[-98.2690141, 36.547044], [-98.2690145, 36.5468603], [-98.2689144, 36.5468602], [-98.2689145, 36.5467998], [-98.2688289, 36.5467997], [-98.2688286, 36.5469332], [-98.2688968, 36.5469333], [-98.2688965, 36.5470438], [-98.2690141, 36.547044]]]}, "properties": {"osm_id": 1237558137, "building": "yes", "name": "", "height": null, "height_m": null, "levels": null, "tract_id": "40003956000", "tract_name": "9560", "tags": {"addr:city": "Helena", "addr:housenumber": "116", "addr:postcode": "73741", "addr:state": "OK", "addr:street": "4th Street", "building": "yes"}}}, {"type": "Feature", "geometry": {"type": "Polygon", "coordinates": [[[-98.270916, 36.5459862], [-98.2709125, 36.5456809], [-98.2710855, 36.5456797], [-98.2710891, 36.5459849], [-98.270916, 36.5459862]]]}, "properties": {"osm_id": 1237562067, "building": "yes", "name": "", "height": null, "height_m": null, "levels": null, "tract_id": "40003956000", "tract_name": "9560", "tags": {"addr:city": "Helena", "addr:housenumber": "221", "addr:postcode": "73741", "addr:state": "OK", "addr:street": "Hinkley Street", "building": "yes"}}}, {"type": "Feature", "geometry": {"type": "Polygon", "coordinates": [[[-98.2707363, 36.5456913], [-98.2707358, 36.545736], [-98.2706687, 36.5457354], [-98.2706693, 36.5456908], [-98.2707363, 36.5456913]]]}, "properties": {"osm_id": 1237562068, "building": "yes", "name": "", "height": null, "height_m": null, "levels": null, "tract_id": "40003956000", "tract_name": "9560", "tags": {"building": "yes"}}}, {"type": "Feature", "geometry": {"type": "Polygon", "coordinates": [[[-98.2709007, 36.5456332], [-98.2706689, 36.5456289], [-98.2706678, 36.5456674], [-98.2708996, 36.5456716], [-98.2709007, 36.5456332]]]}, "properties": {"osm_id": 1237562069, "building": "yes", "name": "", "height": null, "height_m": null, "levels": null, "tract_id": "40003956000", "tract_name": "9560", "tags": {"building": "yes"}}}, {"type": "Feature", "geometry": {"type": "Polygon", "coordinates": [[[-98.270893, 36.5453821], [-98.2708881, 36.5451876], [-98.2707131, 36.5451904], [-98.2707154, 36.5452823], [-98.2707428, 36.5452818], [-98.2707455, 36.5453845], [-98.270893, 36.5453821]]]}, "properties": {"osm_id": 1237562070, "building": "yes", "name": "", "height": null, "height_m": null, "levels": null, "tract_id": "40003956000", "tract_name": "9560", "tags": {"addr:city": "Helena", "addr:housenumber": "115", "addr:postcode": "73741", "addr:state": "OK", "addr:street": "2nd Street", "building": "yes"}}}, {"type": "Feature", "geometry": {"type": "Polygon", "coordinates": [[[-98.2704114, 36.5459673], [-98.2703087, 36.5459682], [-98.2702203, 36.545969], [-98.2701953, 36.5459692], [-98.2701929, 36.5457987], [-98.2701367, 36.5457992], [-98.270133, 36.5455301], [-98.2704046, 36.5455277], [-98.2704056, 36.5455946], [-98.2703649, 36.5455949], [-98.2703668, 36.545734], [-98.2705522, 36.5457324], [-98.2705531, 36.545798], [-98.270409, 36.5457993], [-98.2704114, 36.5459673]]]}, "properties": {"osm_id": 1237567810, "building": "yes", "name": "", "height": null, "height_m": null, "levels": null, "tract_id": "40003956000", "tract_name": "9560", "tags": {"building": "yes"}}}, {"type": "Feature", "geometry": {"type": "Polygon", "coordinates": [[[-98.2703087, 36.5459682], [-98.2703087, 36.5459886], [-98.2703087, 36.5460072], [-98.2702203, 36.5460072], [-98.2702203, 36.5459886], [-98.2702203, 36.545969], [-98.2703087, 36.5459682]]]}, "properties": {"osm_id": 1237567811, "building": "roof", "name": "", "height": null, "height_m": null, "levels": null, "tract_id": "40003956000", "tract_name": "9560", "tags": {"building": "roof", "layer": "1"}}}, {"type": "Feature", "geometry": {"type": "Polygon", "coordinates": [[[-98.270259, 36.5454678], [-98.2702594, 36.5455146], [-98.2701376, 36.5455152], [-98.2701373, 36.5454684], [-98.270259, 36.5454678]]]}, "properties": {"osm_id": 1237567815, "building": "yes", "name": "", "height": null, "height_m": null, "levels": null, "tract_id": "40003956000", "tract_name": "9560", "tags": {"building": "yes"}}}, {"type": "Feature", "geometry": {"type": "Polygon", "coordinates": [[[-98.2701355, 36.5453892], [-98.2701366, 36.5454562], [-98.2704435, 36.545458], [-98.2704424, 36.5453857], [-98.2701355, 36.5453892]]]}, "properties": {"osm_id": 1237567816, "building": "yes", "name": "", "height": null, "height_m": null, "levels": null, "tract_id": "40003956000", "tract_name": "9560", "tags": {"building": "yes"}}}, {"type": "Feature", "geometry": {"type": "Polygon", "coordinates": [[[-98.2705748, 36.5453812], [-98.2705752, 36.5453156], [-98.2703684, 36.5453146], [-98.2703679, 36.5453803], [-98.2705748, 36.5453812]]]}, "properties": {"osm_id": 1237567817, "building": "yes", "name": "", "height": null, "height_m": null, "levels": null, "tract_id": "40003956000", "tract_name": "9560", "tags": {"building": "yes"}}}, {"type": "Feature", "geometry": {"type": "Polygon", "coordinates": [[[-98.2704564, 36.5452198], [-98.2704573, 36.5453011], [-98.2701537, 36.5453031], [-98.2701529, 36.5452219], [-98.2704564, 36.5452198]]]}, "properties": {"osm_id": 1237567818, "building": "yes", "name": "", "height": null, "height_m": null, "levels": null, "tract_id": "40003956000", "tract_name": "9560", "tags": {"addr:city": "Helena", "addr:housenumber": "101", "addr:postcode": "73741", "addr:state": "OK", "addr:street": "2nd Street", "building": "yes"}}}, {"type": "Feature", "geometry": {"type": "Polygon", "coordinates": [[[-98.2698463, 36.5458056], [-98.2698461, 36.545763], [-98.2698069, 36.5457631], [-98.269807, 36.5458057], [-98.2698463, 36.5458056]]]}, "properties": {"osm_id": 1237572593, "building": "yes", "name": "", "height": null, "height_m": null, "levels": null, "tract_id": "40003956000", "tract_name": "9560", "tags": {"amenity": "shelter", "building": "yes", "shelter_type": "gazebo"}}}, {"type": "Feature", "geometry": {"type": "Polygon", "coordinates": [[[-98.2698541, 36.5460078], [-98.2694652, 36.546008], [-98.2694652, 36.5459452], [-98.2695833, 36.5459452], [-98.2695833, 36.5459203], [-98.2695206, 36.5459203], [-98.2695206, 36.5458723], [-98.269854, 36.5458721], [-98.2698541, 36.5460078]]]}, "properties": {"osm_id": 1237572594, "building": "yes", "name": "", "height": null, "height_m": null, "levels": null, "tract_id": "40003956000", "tract_name": "9560", "tags": {"addr:city": "Helena", "addr:housenumber": "221", "addr:postcode": "73741", "addr:state": "OK", "addr:street": "Main Street", "building": "yes"}}}, {"type": "Feature", "geometry": {"type": "Polygon", "coordinates": [[[-98.2698711, 36.5456018], [-98.2698712, 36.5457183], [-98.2694488, 36.5457185], [-98.2694487, 36.5456021], [-98.2698711, 36.5456018]]]}, "properties": {"osm_id": 1237572595, "building": "yes", "name": "", "height": null, "height_m": null, "levels": null, "tract_id": "40003956000", "tract_name": "9560", "tags": {"addr:city": "Helena", "addr:housenumber": "219", "addr:postcode": "73741", "addr:state": "OK", "addr:street": "Main Street", "building": "yes"}}}, {"type": "Feature", "geometry": {"type": "Polygon", "coordinates": [[[-98.2698609, 36.5455946], [-98.2694545, 36.5455981], [-98.2694527, 36.5454605], [-98.26957, 36.5454595], [-98.2695703, 36.5454829], [-98.2698594, 36.5454804], [-98.2698609, 36.5455946]]]}, "properties": {"osm_id": 1237572596, "building": "yes", "name": "", "height": null, "height_m": null, "levels": null, "tract_id": "40003956000", "tract_name": "9560", "tags": {"addr:city": "Helena", "addr:housenumber": "211", "addr:postcode": "73741", "addr:state": "OK", "addr:street": "Main Street", "building": "yes"}}}, {"type": "Feature", "geometry": {"type": "Polygon", "coordinates": [[[-98.269863, 36.5454685], [-98.2698623, 36.5453898], [-98.2696577, 36.5453908], [-98.2696583, 36.5454695], [-98.269863, 36.5454685]]]}, "properties": {"osm_id": 1237572597, "building": "yes", "name": "", "height": null, "height_m": null, "levels": null, "tract_id": "40003956000", "tract_name": "9560", "tags": {"addr:city": "Helena", "addr:housenumber": "207", "addr:postcode": "73741", "addr:state": "OK", "addr:street": "Main Street", "building": "yes"}}}, {"type": "Feature", "geometry": {"type": "Polygon", "coordinates": [[[-98.2698585, 36.5453213], [-98.2695213, 36.5453236], [-98.2695198, 36.5451856], [-98.269857, 36.5451832], [-98.2698585, 36.5453213]]]}, "properties": {"osm_id": 1237572598, "building": "yes", "name": "", "height": null, "height_m": null, "levels": null, "tract_id": "40003956000", "tract_name": "9560", "tags": {"addr:city": "Helena", "addr:housenumber": "201", "addr:postcode": "73741", "addr:state": "OK", "addr:street": "Main Street", "building": "yes"}}}, {"type": "Feature", "geometry": {"type": "Polygon", "coordinates": [[[-98.2693342, 36.5460129], [-98.2691841, 36.5460122], [-98.2691854, 36.5458363], [-98.2693355, 36.545837], [-98.2693342, 36.5460129]]]}, "properties": {"osm_id": 1237573770, "building": "yes", "name": "", "height": null, "height_m": null, "levels": null, "tract_id": "40003956000", "tract_name": "9560", "tags": {"building": "yes"}}}, {"type": "Feature", "geometry": {"type": "Polygon", "coordinates": [[[-98.2689917, 36.5456755], [-98.2690034, 36.5456756], [-98.2690144, 36.5456787], [-98.2690235, 36.5456845], [-98.2690298, 36.5456924], [-98.2690325, 36.5457015], [-98.2690315, 36.5457108], [-98.2690268, 36.5457193], [-98.2690188, 36.5457261], [-98.2690086, 36.5457305], [-98.2689971, 36.545732], [-98.2689857, 36.5457305], [-98.2689754, 36.545726], [-98.2689676, 36.5457191], [-98.2689629, 36.5457105], [-98.268962, 36.5457011], [-98.2689649, 36.545692], [-98.2689714, 36.5456842], [-98.2689806, 36.5456785], [-98.2689917, 36.5456755]]]}, "properties": {"osm_id": 1237573771, "building": "yes", "name": "", "height": null, "height_m": null, "levels": null, "tract_id": "40003956000", "tract_name": "9560", "tags": {"building": "yes"}}}, {"type": "Feature", "geometry": {"type": "Polygon", "coordinates": [[[-98.2692682, 36.5451984], [-98.2691819, 36.5451993], [-98.2691826, 36.5452384], [-98.2690944, 36.5452394], [-98.2690969, 36.5453908], [-98.2691379, 36.5453904], [-98.2691388, 36.5454459], [-98.2691824, 36.5454454], [-98.2691812, 36.5453707], [-98.2692028, 36.5453704], [-98.2692015, 36.5452909], [-98.2692697, 36.5452902], [-98.2692682, 36.5451984]]]}, "properties": {"osm_id": 1237574687, "building": "yes", "name": "", "height": null, "height_m": null, "levels": null, "tract_id": "40003956000", "tract_name": "9560", "tags": {"addr:city": "Helena", "addr:housenumber": "109", "addr:postcode": "73741", "addr:state": "OK", "addr:street": "2nd Street", "building": "yes"}}}, {"type": "Feature", "geometry": {"type": "Polygon", "coordinates": [[[-98.2690873, 36.5454368], [-98.2690357, 36.5454367], [-98.2690358, 36.5454129], [-98.2689845, 36.5454128], [-98.2689845, 36.5453986], [-98.2688979, 36.5453983], [-98.2688985, 36.5452377], [-98.2690243, 36.545238], [-98.2690238, 36.5453595], [-98.2690876, 36.5453597], [-98.2690873, 36.5454368]]]}, "properties": {"osm_id": 1237574688, "building": "yes", "name": "", "height": null, "height_m": null, "levels": null, "tract_id": "40003956000", "tract_name": "9560", "tags": {"addr:city": "Helena", "addr:housenumber": "117", "addr:postcode": "73741", "addr:state": "OK", "addr:street": "2nd Street", "building": "yes"}}}, {"type": "Feature", "geometry": {"type": "Polygon", "coordinates": [[[-98.2695188, 36.5429695], [-98.2694924, 36.54297], [-98.2694917, 36.5429453], [-98.2695181, 36.5429448], [-98.2695188, 36.5429695]]]}, "properties": {"osm_id": 1237583630, "building": "service", "name": "", "height": null, "height_m": null, "levels": null, "tract_id": "40003956000", "tract_name": "9560", "tags": {"building": "service"}}}, {"type": "Feature", "geometry": {"type": "Polygon", "coordinates": [[[-98.2694888, 36.5429738], [-98.2694624, 36.5429743], [-98.2694617, 36.5429496], [-98.2694881, 36.5429491], [-98.2694888, 36.5429738]]]}, "properties": {"osm_id": 1237583631, "building": "service", "name": "", "height": null, "height_m": null, "levels": null, "tract_id": "40003956000", "tract_name": "9560", "tags": {"building": "service"}}}, {"type": "Feature", "geometry": {"type": "Polygon", "coordinates": [[[-98.2660748, 36.5426604], [-98.2660758, 36.5425746], [-98.2658986, 36.5425733], [-98.2658984, 36.5425886], [-98.2658817, 36.5425885], [-98.2658811, 36.5426463], [-98.2658974, 36.5426464], [-98.2658972, 36.542659], [-98.2660748, 36.5426604]]]}, "properties": {"osm_id": 1237583633, "building": "yes", "name": "", "height": null, "height_m": null, "levels": null, "tract_id": "40003956000", "tract_name": "9560", "tags": {"addr:city": "Helena", "addr:housenumber": "125", "addr:postcode": "73741", "addr:state": "OK", "addr:street": "Pioneer Road", "building": "yes"}}}]}