{"type": "FeatureCollection", "features": [{"type": "Feature", "geometry": {"type": "Polygon", "coordinates": [[[-96.4821156, 33.9976065], [-96.4818697, 33.9975998], [-96.4818749, 33.9974666], [-96.4821209, 33.9974734], [-96.4821156, 33.9976065]]]}, "properties": {"osm_id": 1026612848, "building": "yes", "name": "Crystal Creek Winery", "height": null, "height_m": null, "levels": null, "tract_id": "40013796004", "tract_name": "7960.04", "tags": {"addr:city": "Mead", "addr:housenumber": "41", "addr:postcode": "73449", "addr:state": "OK", "addr:street": "Swinney Road", "building": "yes", "craft": "winery", "name": "Crystal Creek Winery"}}}, {"type": "Feature", "geometry": {"type": "Polygon", "coordinates": [[[-96.570104, 33.9806849], [-96.5699393, 33.98068], [-96.5699405, 33.9806374], [-96.5698938, 33.9806374], [-96.5698926, 33.9805822], [-96.5698775, 33.9805813], [-96.5698775, 33.9804961], [-96.5700491, 33.9804951], [-96.5701203, 33.9804932], [-96.5701121, 33.9805561], [-96.5701261, 33.9805561], [-96.570125, 33.9806171], [-96.5701086, 33.9806171], [-96.570104, 33.9806849]]]}, "properties": {"osm_id": 1026659079, "building": "yes", "name": "Willow Springs Marina & Resort", "height": null, "height_m": null, "levels": null, "tract_id": "40013796004", "tract_name": "7960.04", "tags": {"addr:city": "Mead", "addr:housenumber": "1401", "addr:postcode": "73449", "addr:state": "OK", "addr:street": "Willow Springs Road", "building": "yes", "name": "Willow Springs Marina & Resort", "tourism": "hotel", "website": "https://www.willowspringsmarina.com/"}}}, {"type": "Feature", "geometry": {"type": "Polygon", "coordinates": [[[-96.4661882, 33.9840024], [-96.4660712, 33.9840042], [-96.4660674, 33.9838344], [-96.4661844, 33.9838326], [-96.4661882, 33.9840024]]]}, "properties": {"osm_id": 1133405296, "building": "yes", "name": "", "height": null, "height_m": null, "levels": null, "tract_id": "40013796004", "tract_name": "7960.04", "tags": {"building": "yes"}}}, {"type": "Feature", "geometry": {"type": "Polygon", "coordinates": [[[-96.4667534, 33.9838145], [-96.4667553, 33.9839796], [-96.4665812, 33.983981], [-96.4665793, 33.9838159], [-96.4667534, 33.9838145]]]}, "properties": {"osm_id": 1133405297, "building": "yes", "name": "", "height": null, "height_m": null, "levels": null, "tract_id": "40013796004", "tract_name": "7960.04", "tags": {"building": "yes"}}}]}