{"type": "FeatureCollection", "features": [{"type": "Feature", "geometry": {"type": "Polygon", "coordinates": [[[-98.6796725, 34.3693664], [-98.6797897, 34.3693655], [-98.6797908, 34.3694659], [-98.6796737, 34.3694668], [-98.6796725, 34.3693664]]]}, "properties": {"osm_id": 213244212, "building": "hangar", "name": "", "height": null, "height_m": null, "levels": null, "tract_id": "40141070500", "tract_name": "705", "tags": {"aeroway": "hangar", "building": "hangar"}}}, {"type": "Feature", "geometry": {"type": "Polygon", "coordinates": [[[-98.6803515, 34.3700612], [-98.6800903, 34.3700612], [-98.6800903, 34.3698298], [-98.6803515, 34.3698298], [-98.6803515, 34.3700612]]]}, "properties": {"osm_id": 213244227, "building": "hangar", "name": "", "height": null, "height_m": null, "levels": null, "tract_id": "40141070500", "tract_name": "705", "tags": {"aeroway": "hangar", "building": "hangar"}}}, {"type": "Feature", "geometry": {"type": "Polygon", "coordinates": [[[-98.6796804, 34.3696537], [-98.6796804, 34.3695467], [-98.6797683, 34.3695467], [-98.6797683, 34.3696537], [-98.6796804, 34.3696537]]]}, "properties": {"osm_id": 213244228, "building": "hangar", "name": "", "height": null, "height_m": null, "levels": null, "tract_id": "40141070500", "tract_name": "705", "tags": {"aeroway": "hangar", "building": "hangar"}}}, {"type": "Feature", "geometry": {"type": "Polygon", "coordinates": [[[-98.6805393, 34.3683413], [-98.6805359, 34.3680066], [-98.6806732, 34.3680056], [-98.6806766, 34.3683404], [-98.6805393, 34.3683413]]]}, "properties": {"osm_id": 213244229, "building": "hangar", "name": "", "height": null, "height_m": null, "levels": null, "tract_id": "40141070500", "tract_name": "705", "tags": {"aeroway": "hangar", "building": "hangar"}}}, {"type": "Feature", "geometry": {"type": "Polygon", "coordinates": [[[-98.6800485, 34.368925], [-98.680044, 34.3684526], [-98.6801814, 34.3684517], [-98.6801859, 34.3689241], [-98.6800485, 34.368925]]]}, "properties": {"osm_id": 213244231, "building": "hangar", "name": "", "height": null, "height_m": null, "levels": null, "tract_id": "40141070500", "tract_name": "705", "tags": {"aeroway": "hangar", "building": "hangar"}}}, {"type": "Feature", "geometry": {"type": "Polygon", "coordinates": [[[-98.6806725, 34.3689287], [-98.6805374, 34.3689283], [-98.6805396, 34.3684466], [-98.6806748, 34.368447], [-98.6806725, 34.3689287]]]}, "properties": {"osm_id": 213244232, "building": "hangar", "name": "", "height": null, "height_m": null, "levels": null, "tract_id": "40141070500", "tract_name": "705", "tags": {"aeroway": "hangar", "building": "hangar"}}}, {"type": "Feature", "geometry": {"type": "Polygon", "coordinates": [[[-98.7370169, 34.2391557], [-98.7368238, 34.2391601], [-98.7368175, 34.2389739], [-98.7370107, 34.2389694], [-98.7370169, 34.2391557]]]}, "properties": {"osm_id": 498895678, "building": "yes", "name": "", "height": null, "height_m": null, "levels": null, "tract_id": "40141070500", "tract_name": "705", "tags": {"building": "yes"}}}, {"type": "Feature", "geometry": {"type": "Polygon", "coordinates": [[[-98.7374675, 34.2386457], [-98.737253, 34.2386457], [-98.737253, 34.2385858], [-98.737253, 34.2385304], [-98.7374675, 34.2385304], [-98.7374675, 34.2385947], [-98.7374675, 34.2386457]]]}, "properties": {"osm_id": 498895681, "building": "yes", "name": "", "height": null, "height_m": null, "levels": null, "tract_id": "40141070500", "tract_name": "705", "tags": {"aeroway": "hangar", "building": "yes"}}}, {"type": "Feature", "geometry": {"type": "Polygon", "coordinates": [[[-98.7374568, 34.2388674], [-98.7372583, 34.2388674], [-98.7372583, 34.2388098], [-98.7372583, 34.2387477], [-98.7374568, 34.2387477], [-98.7374568, 34.2388164], [-98.7374568, 34.2388674]]]}, "properties": {"osm_id": 498895682, "building": "yes", "name": "", "height": null, "height_m": null, "levels": null, "tract_id": "40141070500", "tract_name": "705", "tags": {"aeroway": "hangar", "building": "yes"}}}, {"type": "Feature", "geometry": {"type": "Polygon", "coordinates": [[[-98.7358341, 34.242393], [-98.7356812, 34.2423375], [-98.7356249, 34.2424595], [-98.7357697, 34.2425149], [-98.7358341, 34.242393]]]}, "properties": {"osm_id": 498917260, "building": "yes", "name": "", "height": null, "height_m": null, "levels": null, "tract_id": "40141070500", "tract_name": "705", "tags": {"building": "yes"}}}, {"type": "Feature", "geometry": {"type": "Polygon", "coordinates": [[[-98.7361291, 34.240812], [-98.7359387, 34.2407499], [-98.7358716, 34.2408941], [-98.7358555, 34.2409251], [-98.7360325, 34.2409894], [-98.7360621, 34.2409672], [-98.7361291, 34.240812]]]}, "properties": {"osm_id": 498917263, "building": "yes", "name": "", "height": null, "height_m": null, "levels": null, "tract_id": "40141070500", "tract_name": "705", "tags": {"building": "yes"}}}, {"type": "Feature", "geometry": {"type": "Polygon", "coordinates": [[[-98.6806992, 34.2278907], [-98.6807039, 34.2277556], [-98.6805871, 34.2277266], [-98.6805591, 34.2278849], [-98.6806338, 34.2278849], [-98.6806992, 34.2278907]]]}, "properties": {"osm_id": 624732553, "building": "house", "name": "", "height": null, "height_m": null, "levels": null, "tract_id": "40141070500", "tract_name": "705", "tags": {"building": "house"}}}, {"type": "Feature", "geometry": {"type": "Polygon", "coordinates": [[[-98.6845903, 34.2306647], [-98.6844994, 34.2306652], [-98.6844976, 34.2304542], [-98.6845884, 34.2304537], [-98.6845903, 34.2306647]]]}, "properties": {"osm_id": 653735225, "building": "yes", "name": "Tillman County Bank", "height": 8.3, "height_m": 8.3, "levels": 2, "tract_id": "40141070500", "tract_name": "705", "tags": {"addr:city": "Grandfield", "addr:housenumber": "123", "addr:postcode": "73546", "addr:state": "OK", "addr:street": "West 2nd Street", "building": "yes", "building:levels": "2", "description": "listed on the National Register of Historic Places in 1992.   The original bank vault remains intact.  It is the only building in Grandfield which represents the Italian Renaissance Revival style of architecture.  The bank was chartered in Kell, Oklahoma ", "email": "dwitt@pldi.net", "height": "8.3", "name": "Tillman County Bank", "tourism": "attraction", "website": "https://dwitt62.wixsite.com/grandfieldok"}}}, {"type": "Feature", "geometry": {"type": "Polygon", "coordinates": [[[-98.6845884, 34.2304537], [-98.6844976, 34.2304542], [-98.684496, 34.2302774], [-98.6845869, 34.2302769], [-98.6845884, 34.2304537]]]}, "properties": {"osm_id": 653735226, "building": "yes", "name": "Grandfield Hospital Building", "height": 11.3, "height_m": 11.3, "levels": 3, "tract_id": "40141070500", "tract_name": "705", "tags": {"addr:city": "Grandfield", "addr:housenumber": "211", "addr:postcode": "73546", "addr:state": "OK", "addr:street": "Simpson Avenue", "building": "yes", "building:levels": "3", "description": "Drs. W. A. Fuqua, Horace Wright and H. C. Harris built the 3-story hospital in 1920. The fourteen bed hospital had an operating room on the third floor as well as living quarters for the Fuqua family.", "height": "11.3", "name": "Grandfield Hospital Building", "tourism": "attraction", "website": "https://dwitt62.wixsite.com/grandfieldok"}}}, {"type": "Feature", "geometry": {"type": "Polygon", "coordinates": [[[-98.6844221, 34.2306657], [-98.6843363, 34.2306662], [-98.6843344, 34.2304552], [-98.6844202, 34.2304547], [-98.6844221, 34.2306657]]]}, "properties": {"osm_id": 653735227, "building": "yes", "name": "Tisdale Electric Building", "height": 8.0, "height_m": 8.0, "levels": 2, "tract_id": "40141070500", "tract_name": "705", "tags": {"addr:city": "Grandfield", "addr:housenumber": "119", "addr:postcode": "73546", "addr:state": "OK", "addr:street": "West 2nd Street", "building": "yes", "building:levels": "2", "description": "In the early years the City Grocery & Market was here.  Also occupying it was Medlock, Fuller and Aven Grocery stores.  In later years, Frank Tisdale had a Hotpoint appliance dealership and an electrical service here.  ", "height": "8", "name": "Tisdale Electric Building", "tourism": "attraction", "website": "https://dwitt62.wixsite.com/grandfieldok"}}}, {"type": "Feature", "geometry": {"type": "Polygon", "coordinates": [[[-98.6843363, 34.2306662], [-98.6842515, 34.2306667], [-98.6842496, 34.2304557], [-98.6843344, 34.2304552], [-98.6843363, 34.2306662]]]}, "properties": {"osm_id": 653735229, "building": "yes", "name": "Tomlinson's Dime Store Building", "height": 8.0, "height_m": 8.0, "levels": 1, "tract_id": "40141070500", "tract_name": "705", "tags": {"addr:city": "Grandfield", "addr:housenumber": "117", "addr:postcode": "73546", "addr:state": "OK", "addr:street": "West 2nd Street", "building": "yes", "building:levels": "1", "description": "In 1910 E. R. Sessions built this building for \u201cE R Sessions Furniture & Undertaking.\u201d Later, Sam Hasenmyer had \u201cSam\u2019s Bargain House\u201d here. Milton Tomlinson bought the property and it became the second T. G. & Y Store in the state.", "height": "8", "name": "Tomlinson's Dime Store Building", "tourism": "attraction", "website": "https://dwitt62.wixsite.com/grandfieldok"}}}, {"type": "Feature", "geometry": {"type": "Polygon", "coordinates": [[[-98.6842515, 34.2306667], [-98.6841664, 34.2306672], [-98.6841644, 34.2304445], [-98.6842495, 34.230444], [-98.6842496, 34.2304557], [-98.6842515, 34.2306667]]]}, "properties": {"osm_id": 653735230, "building": "yes", "name": "Vines Grocery Bldg.", "height": 8.0, "height_m": 8.0, "levels": 1, "tract_id": "40141070500", "tract_name": "705", "tags": {"addr:city": "Grandfield", "addr:housenumber": "115", "addr:postcode": "73546", "addr:state": "OK", "addr:street": "West 2nd Street", "building": "yes", "building:levels": "1", "description": "Blue Front Grocery owned by Earl Hines occupied this lot in the early years. In May 1915, the first Rexall Drug was opened by Dr. M F. Patterson and Harry Cratty, a pharmacist. In 1940, Thomas Vines operated Vines Grocery here.", "height": "8", "name": "Vines Grocery Bldg.", "tourism": "attraction"}}}, {"type": "Feature", "geometry": {"type": "Polygon", "coordinates": [[[-98.6840926, 34.2306657], [-98.6840052, 34.2306664], [-98.6840022, 34.2304225], [-98.6840021, 34.2304112], [-98.6840895, 34.2304105], [-98.6840926, 34.2306657]]]}, "properties": {"osm_id": 653735232, "building": "yes", "name": "Rexall", "height": null, "height_m": null, "levels": null, "tract_id": "40141070500", "tract_name": "705", "tags": {"addr:city": "Grandfield", "addr:housenumber": "111", "addr:postcode": "73546", "addr:state": "OK", "addr:street": "West 2nd Street", "amenity": "pharmacy", "brand": "Rexall", "building": "yes", "description": "The Rexall Store and a beauty shop were in this building at one time before it moved to its final place next door. Hick & Hasenmyer Dept. Store moved to this location in 1957.", "healthcare": "pharmacy", "name": "Rexall", "opening_hours": "sunrise-sunset", "operator": "Harvey Cralty", "tourism": "attraction", "website": "https://dwitt62.wixsite.com/grandfieldok"}}}, {"type": "Feature", "geometry": {"type": "Polygon", "coordinates": [[[-98.6840052, 34.2306664], [-98.6839265, 34.2306671], [-98.6839235, 34.2304231], [-98.6840022, 34.2304225], [-98.6840052, 34.2306664]]]}, "properties": {"osm_id": 653735233, "building": "yes", "name": "Midway Cafe/ Rexall Drug", "height": 8.0, "height_m": 8.0, "levels": 1, "tract_id": "40141070500", "tract_name": "705", "tags": {"addr:city": "Grandfield", "addr:housenumber": "111", "addr:postcode": "73546", "addr:state": "OK", "addr:street": "West 2nd Street", "building": "yes", "building:levels": "1", "description": "Home State Bank was in this location in the early years for a time.  Midway Caf\u00e9, owned by A. C. Potts was here in 1913. In 1933, Ray Seay bought the property as \u201cSeay\u2019s Rexall Drug.\u201d", "height": "8", "name": "Midway Cafe/ Rexall Drug", "tourism": "attraction", "website": "https://dwitt62.wixsite.com/grandfieldok"}}}, {"type": "Feature", "geometry": {"type": "Polygon", "coordinates": [[[-98.6839265, 34.2306671], [-98.6838506, 34.2306677], [-98.6838472, 34.230383], [-98.683923, 34.2303824], [-98.6839235, 34.2304231], [-98.6839265, 34.2306671]]]}, "properties": {"osm_id": 653754962, "building": "yes", "name": "Old Pool Hall", "height": 8.0, "height_m": 8.0, "levels": 1, "tract_id": "40141070500", "tract_name": "705", "tags": {"addr:city": "Grandfield", "addr:housenumber": "107", "addr:postcode": "73546", "addr:state": "OK", "addr:street": "West 2nd Street", "building": "yes", "building:levels": "1", "description": "In the 1920\u2019s Grandfield Bakery & Restaurant was here. Various other business operated here including T V Cafe during the 50\u2019s.", "height": "8", "name": "Old Pool Hall", "tourism": "attraction"}}}, {"type": "Feature", "geometry": {"type": "Polygon", "coordinates": [[[-98.6838506, 34.2306677], [-98.6836834, 34.2306691], [-98.6836799, 34.2303844], [-98.6838472, 34.230383], [-98.6838506, 34.2306677]]]}, "properties": {"osm_id": 653754963, "building": "yes", "name": "Cato's Style Shop", "height": 9.0, "height_m": 9.0, "levels": 1, "tract_id": "40141070500", "tract_name": "705", "tags": {"addr:city": "Grandfield", "addr:housenumber": "103", "addr:postcode": "73546", "addr:state": "OK", "addr:street": "West 2nd Street", "building": "yes", "building:levels": "1", "description": "Miss Calla Cato began her millinery business in 1914 on East 2nd possibly moving to this location in the late 20\u2019s or early 30\u2019s. She retired in 1978 and sold the business to Bob Wyatt who ran the store as the \u201cLee Dawn Shop\u201d until 1982.", "height": "9", "name": "Cato's Style Shop", "shop": "yes", "tourism": "attraction", "website": "https://dwitt62.wixsite.com/grandfieldok"}}}, {"type": "Feature", "geometry": {"type": "Polygon", "coordinates": [[[-98.6836834, 34.2306691], [-98.6835889, 34.2306699], [-98.6835854, 34.2303852], [-98.6836799, 34.2303844], [-98.6836834, 34.2306691]]]}, "properties": {"osm_id": 653754964, "building": "yes", "name": "Grandfield Library", "height": 9.0, "height_m": 9.0, "levels": 1, "tract_id": "40141070500", "tract_name": "705", "tags": {"addr:city": "Grandfield", "addr:housenumber": "101", "addr:postcode": "73546", "addr:state": "OK", "addr:street": "West 2nd Street", "amenity": "library", "building": "yes", "building:levels": "1", "description": "C. L, Mount, who had been in business since 1908, built this building for a dry goods store in the teens. Ed Murray was manager and had an interest in the business. Murray bought Mounts share in the 30\u2019s. In 1948 it became Gourley Dry Goods Store when.", "height": "9", "name": "Grandfield Library", "note": "Historic Downtown Grandfield", "tourism": "attraction", "website": "https://dwitt62.wixsite.com/grandfieldok"}}}, {"type": "Feature", "geometry": {"type": "Polygon", "coordinates": [[[-98.6846004, 34.2311555], [-98.6844373, 34.2311603], [-98.6844364, 34.2309453], [-98.6845977, 34.2309486], [-98.6846004, 34.2311555]]]}, "properties": {"osm_id": 653754965, "building": "yes", "name": "MID-CONTINENT SUPPLY BUILDING", "height": 10.0, "height_m": 10.0, "levels": 2, "tract_id": "40141070500", "tract_name": "705", "tags": {"addr:city": "Grandfield", "addr:housenumber": "124", "addr:postcode": "73546", "addr:state": "OK", "addr:street": "West 2nd Street", "building": "yes", "building:levels": "2", "description": "Originally a 2-story building when Tant Grocery Supply & Land build it in 1908.    Stanley Mohr had his undertaking office in a part of the building in 1920 for a time.  In 1922, a fire broke out in the Grandfield Hardware Co. warehouse.  ", "height": "10", "name": "MID-CONTINENT SUPPLY BUILDING", "tourism": "attraction", "website": "https://dwitt62.wixsite.com/grandfieldok"}}}, {"type": "Feature", "geometry": {"type": "Polygon", "coordinates": [[[-98.6844373, 34.2311603], [-98.684265, 34.2311608], [-98.6842642, 34.2309457], [-98.6844364, 34.2309453], [-98.6844373, 34.2311603]]]}, "properties": {"osm_id": 653754966, "building": "yes", "name": "HARVEST PLAYHOUSE BUILDINGS", "height": 10.0, "height_m": 10.0, "levels": 2, "tract_id": "40141070500", "tract_name": "705", "tags": {"addr:city": "Grandfield", "addr:housenumber": "120", "addr:postcode": "73546", "addr:state": "OK", "addr:street": "West 2nd Street", "building": "yes", "building:levels": "2", "description": "Grandfield Hardware Co., J. J. Allen, Prop., F. L. Willingham Sheet Metal & Hardware, Standley Confectionery Store, R & N Caf\u00e9, Jones Barber Shop, Eva\u2019s Caf\u00e9, Cowboy Plumbing, Roddy\u2019s White Auto Store, Harvest Theater. ", "height": "10", "name": "HARVEST PLAYHOUSE BUILDINGS", "tourism": "attraction"}}}, {"type": "Feature", "geometry": {"type": "Polygon", "coordinates": [[[-98.68324, 34.2306478], [-98.6832398, 34.2305061], [-98.6830951, 34.2305063], [-98.6830953, 34.230648], [-98.68324, 34.2306478]]]}, "properties": {"osm_id": 653754967, "building": "yes", "name": "Fikes Pharmacy", "height": null, "height_m": 6.0, "levels": 2, "tract_id": "40141070500", "tract_name": "705", "tags": {"addr:city": "Grandfield", "addr:housenumber": "100", "addr:postcode": "73546", "addr:state": "OK", "addr:street": "East 2nd Street", "building": "yes", "building:levels": "2", "name": "Fikes Pharmacy", "website": "https://www.mygnp.com/store?id=0013000000ioBjKAAU&account=gnp-pharmacy-address-101-East-Second-Grandfield-OK-73546"}}}, {"type": "Feature", "geometry": {"type": "Polygon", "coordinates": [[[-98.683765, 34.2310584], [-98.6836758, 34.2310578], [-98.6836769, 34.2309351], [-98.6837661, 34.2309356], [-98.683765, 34.2310584]]]}, "properties": {"osm_id": 653754968, "building": "yes", "name": "Price Insurance", "height": 8.0, "height_m": 8.0, "levels": 1, "tract_id": "40141070500", "tract_name": "705", "tags": {"addr:city": "Grandfield", "addr:housenumber": "102", "addr:postcode": "73546", "addr:state": "OK", "addr:street": "West 2nd Street", "building": "yes", "building:levels": "1", "description": "The Citizens Bank, Farmers & Merchants Bank. Dr. W. B Price, dentist, W. H. Purcell Real Estate and Ins. Agency. Herb Byrns Agency, Jake Hagy Ins. Agency", "height": "8", "name": "Price Insurance", "tourism": "attraction", "website": "https://dwitt62.wixsite.com/grandfieldok"}}}, {"type": "Feature", "geometry": {"type": "Polygon", "coordinates": [[[-98.6831065, 34.2311422], [-98.6830204, 34.2311433], [-98.6830121, 34.2309552], [-98.6831037, 34.2309493], [-98.6831065, 34.2311422]]]}, "properties": {"osm_id": 653754969, "building": "yes", "name": "WINCHELL INSURANCE BLDG.", "height": 9.0, "height_m": 9.0, "levels": 2, "tract_id": "40141070500", "tract_name": "705", "tags": {"addr:city": "Grandfield", "addr:housenumber": "106", "addr:postcode": "73546", "addr:state": "OK", "addr:street": "East 2nd Street", "building": "yes", "building:levels": "2", "description": "J. L.Standley Bldg. in the 20\u2019s, and Staley & Covington Dry Goods, R. L. Winchell Ins., a grocery store, a barber shop, a caf\u00e9, a tanning salon, and a beauty shop.  The Economy Store, Lone Star Gas and City Realty, and D & K Tax Service. ", "height": "9", "name": "WINCHELL INSURANCE BLDG.", "tourism": "attraction", "website": "https://dwitt62.wixsite.com/grandfieldok"}}}, {"type": "Feature", "geometry": {"type": "Polygon", "coordinates": [[[-98.6830204, 34.2311433], [-98.6829344, 34.2311421], [-98.6829322, 34.2309564], [-98.6830121, 34.2309552], [-98.6830204, 34.2311433]]]}, "properties": {"osm_id": 653754970, "building": "yes", "name": "HUMPHREYS DRUG STORE", "height": 8.0, "height_m": 8.0, "levels": 2, "tract_id": "40141070500", "tract_name": "705", "tags": {"addr:city": "Grandfield", "addr:housenumber": "106", "addr:postcode": "73546", "addr:state": "OK", "addr:street": "East 2nd Street", "building": "yes", "building:levels": "2", "description": "Now under restoration and owned by Mr.James Jackson Jr. it was first owned by Audry Teeter-Teeter Drug Store, \"Pete\" Humphreys Drug, radio and TV repair shop. ", "height": "8", "name": "HUMPHREYS DRUG STORE", "tourism": "attraction", "website": "https://dwitt62.wixsite.com/grandfieldok"}}}, {"type": "Feature", "geometry": {"type": "Polygon", "coordinates": [[[-98.6829344, 34.2311421], [-98.6828498, 34.2311428], [-98.6828476, 34.2309571], [-98.6829322, 34.2309564], [-98.6829344, 34.2311421]]]}, "properties": {"osm_id": 653754971, "building": "yes", "name": "Joe's Grocery", "height": 8.0, "height_m": 8.0, "levels": 1, "tract_id": "40141070500", "tract_name": "705", "tags": {"addr:city": "Grandfield", "addr:housenumber": "108", "addr:postcode": "73546", "addr:state": "OK", "addr:street": "East 2nd Street", "building": "yes", "building:levels": "1", "description": "Cato Millinery was in a part of this place in 1917.  Norman Dry Goods Store in the 1920\u2019s.  Louis \u201cCash\u201d Wheeler Caf\u00e9 n the 30\u2019s.  Joe Pidsley's Grocery", "height": "8", "name": "Joe's Grocery", "tourism": "attraction", "website": "https://dwitt62.wixsite.com/grandfieldok"}}}, {"type": "Feature", "geometry": {"type": "Polygon", "coordinates": [[[-98.6824503, 34.2313236], [-98.6822824, 34.2313262], [-98.682274, 34.2309521], [-98.6824418, 34.2309495], [-98.6824503, 34.2313236]]]}, "properties": {"osm_id": 653754972, "building": "yes", "name": "Grandfield Motor Company (Ford)", "height": 15.0, "height_m": 15.0, "levels": 2, "tract_id": "40141070500", "tract_name": "705", "tags": {"addr:city": "Grandfield", "addr:housenumber": "112", "addr:postcode": "73546", "addr:state": "OK", "addr:street": "East 2nd Street", "building": "yes", "building:levels": "2", "description": "O. L. Phipps and C. W. Snyder in 1920 as Phipps-Snyder Co.  Dr. S. J. Draper, a dentist from Lawton.  In 1934, Fred, Frank and Grady Hood Ford dealership as Hood Motor Company. Grandfield Motor Company died in the Depression. O. E. Britton the Jack Varner", "height": "15", "name": "Grandfield Motor Company (Ford)", "tourism": "attraction"}}}, {"type": "Feature", "geometry": {"type": "Polygon", "coordinates": [[[-98.6793455, 34.2307894], [-98.6792603, 34.2307887], [-98.6792599, 34.2308231], [-98.6790787, 34.2308218], [-98.6790804, 34.2306706], [-98.6792459, 34.2306718], [-98.6792455, 34.2307108], [-98.6793463, 34.2307116], [-98.6793455, 34.2307894]]]}, "properties": {"osm_id": 653754973, "building": "yes", "name": "Rock Island Depot", "height": 15.0, "height_m": 15.0, "levels": 2, "tract_id": "40141070500", "tract_name": "705", "tags": {"addr:city": "Grandfield", "addr:housenumber": "201", "addr:postcode": "73546", "addr:state": "OK", "addr:street": "Bridge Road", "building": "yes", "building:levels": "2", "description": "The Rock Island Depot Building is located at 201 South Bridge and was built in 1920.  The builder was the Chicago Rock Island and Pacific Railway.  ", "height": "15", "name": "Rock Island Depot", "tourism": "attraction", "website": "https://dwitt62.wixsite.com/grandfieldok"}}}, {"type": "Feature", "geometry": {"type": "Polygon", "coordinates": [[[-98.6799643, 34.2275454], [-98.6799518, 34.2271292], [-98.6797344, 34.2271336], [-98.6797469, 34.2275499], [-98.6799643, 34.2275454]]]}, "properties": {"osm_id": 653754974, "building": "yes", "name": "The Hubbard Mansion", "height": 14.0, "height_m": 14.0, "levels": 3, "tract_id": "40141070500", "tract_name": "705", "tags": {"addr:city": "Grandfield", "addr:housenumber": "323", "addr:postcode": "73546", "addr:state": "OK", "addr:street": "East 5th Street", "building": "yes", "building:levels": "3", "description": "Built in 1919, placed on the National Register of Historic Places in 1992.  It is a two-story home of the Craftsman style of architecture and the Bungalow/Prairie Style.  It was built by William and Mabel (Donahoo) Hubbard. ", "height": "14", "name": "The Hubbard Mansion", "tourism": "attraction"}}}, {"type": "Feature", "geometry": {"type": "Polygon", "coordinates": [[[-98.6911368, 34.2322554], [-98.6910115, 34.232253], [-98.6910132, 34.2321917], [-98.6911385, 34.2321941], [-98.6911368, 34.2322554]]]}, "properties": {"osm_id": 653754975, "building": "yes", "name": "Tin Can Garage", "height": 3.0, "height_m": 3.0, "levels": 1, "tract_id": "40141070500", "tract_name": "705", "tags": {"addr:city": "Grandfield", "addr:housenumber": "701", "addr:postcode": "73546", "addr:state": "OK", "addr:street": "West 1st Street", "building": "yes", "building:levels": "1", "description": "Listed in \"Ripley's Believe It or Not\" and built entirely from Tin Oil Cans! ", "height": "3", "name": "Tin Can Garage", "tourism": "attraction"}}}, {"type": "Feature", "geometry": {"type": "Polygon", "coordinates": [[[-98.6841568, 34.230209], [-98.6841052, 34.2302095], [-98.6841048, 34.2301801], [-98.6841564, 34.2301796], [-98.6841568, 34.230209]]]}, "properties": {"osm_id": 653754976, "building": "yes", "name": "Old Jailhouse", "height": 2.3, "height_m": 2.3, "levels": 1, "tract_id": "40141070500", "tract_name": "705", "tags": {"addr:city": "Grandfield", "addr:postcode": "73546", "addr:state": "OK", "addr:street": "2nd Street Alley", "building": "yes", "building:levels": "1", "description": "One of the First Grandfield Buildings listed by the National Registry of Historical Places", "height": "2.3", "name": "Old Jailhouse", "tourism": "attraction", "website": "https://dwitt62.wixsite.com/grandfieldok"}}}, {"type": "Feature", "geometry": {"type": "Polygon", "coordinates": [[[-98.7027366, 34.213866], [-98.7028186, 34.2138912], [-98.7028853, 34.213938], [-98.7029287, 34.2140008], [-98.7029435, 34.2140721], [-98.702928, 34.2141433], [-98.7028894, 34.2142003], [-98.7028314, 34.2142446], [-98.7027597, 34.214272], [-98.7026812, 34.2142796], [-98.7026037, 34.2142668], [-98.7025348, 34.2142348], [-98.7024813, 34.2141867], [-98.7024484, 34.2141273], [-98.7024393, 34.2140624], [-98.702455, 34.2139984], [-98.7024993, 34.213936], [-98.7025667, 34.2138899], [-98.7026491, 34.2138656], [-98.7027366, 34.213866]]]}, "properties": {"osm_id": 653754977, "building": "yes", "name": "Curtis Mound and Signal Hill", "height": null, "height_m": null, "levels": null, "tract_id": "40141070500", "tract_name": "705", "tags": {"addr:city": "Rural Grandfield", "addr:postcode": "73546", "addr:state": "OK", "addr:street": "Rural", "amenity": "place_of_worship", "building": "yes", "denomination": "Maun-Hain-Deh", "description": "Burial site of Great Kiowa Chief Yellow Bear, earlier  used by Buffalo Soldiers to send signals to Ft. Sill. ", "ele": "1073", "name": "Curtis Mound and Signal Hill", "religion": "Native_American_-_Kiowa", "tourism": "attraction", "website": "https://dwitt62.wixsite.com/grandfieldok"}}}, {"type": "Feature", "geometry": {"type": "Polygon", "coordinates": [[[-98.6832779, 34.230019], [-98.6830065, 34.2300178], [-98.683007, 34.2299498], [-98.6832783, 34.229951], [-98.6832779, 34.230019]]]}, "properties": {"osm_id": 653754978, "building": "yes", "name": "Grandfield City Hall", "height": null, "height_m": 3.0, "levels": 1, "tract_id": "40141070500", "tract_name": "705", "tags": {"addr:city": "Grandfield", "addr:housenumber": "223", "addr:postcode": "73546", "addr:state": "OK", "addr:street": "South Main Street", "building": "yes", "building:levels": "1", "name": "Grandfield City Hall", "website": "https://dwitt62.wixsite.com/grandfieldok"}}}, {"type": "Feature", "geometry": {"type": "Polygon", "coordinates": [[[-98.6824833, 34.2306778], [-98.6822985, 34.2306808], [-98.6822932, 34.2304619], [-98.682478, 34.2304588], [-98.6824833, 34.2306778]]]}, "properties": {"osm_id": 653754979, "building": "yes", "name": "Grandfield Post Office-United States Postal Service", "height": 6.0, "height_m": 6.0, "levels": 1, "tract_id": "40141070500", "tract_name": "705", "tags": {"addr:city": "Grandfield", "addr:housenumber": "121", "addr:postcode": "73546", "addr:state": "OK", "addr:street": "East 2nd Street", "building": "yes", "building:levels": "1", "height": "6", "name": "Grandfield Post Office-United States Postal Service"}}}, {"type": "Feature", "geometry": {"type": "Polygon", "coordinates": [[[-98.6845204, 34.2282941], [-98.6842279, 34.2282943], [-98.6842278, 34.2282565], [-98.6840722, 34.2282566], [-98.684072, 34.2279732], [-98.6840909, 34.2279732], [-98.6840908, 34.2278909], [-98.6840719, 34.2278909], [-98.6840717, 34.2277292], [-98.683788, 34.2277294], [-98.6837889, 34.2284865], [-98.684223, 34.2284861], [-98.684223, 34.2284683], [-98.6845205, 34.2284681], [-98.6845204, 34.2282941]]]}, "properties": {"osm_id": 793012978, "building": "yes", "name": "Grandfield Elementary School", "height": null, "height_m": null, "levels": null, "tract_id": "40141070500", "tract_name": "705", "tags": {"amenity": "school", "building": "yes", "ele": "345", "gnis:feature_id": "1793686", "name": "Grandfield Elementary School"}}}, {"type": "Feature", "geometry": {"type": "Polygon", "coordinates": [[[-98.6851068, 34.230672], [-98.685183, 34.230672], [-98.685183, 34.2305019], [-98.6851068, 34.2305019], [-98.6851068, 34.230672]]]}, "properties": {"osm_id": 1057489042, "building": "yes", "name": "", "height": null, "height_m": null, "levels": null, "tract_id": "40141070500", "tract_name": "705", "tags": {"building": "yes", "source": "microsoft/BuildingFootprints"}}}, {"type": "Feature", "geometry": {"type": "Polygon", "coordinates": [[[-98.6844434, 34.2301362], [-98.6845204, 34.2301362], [-98.6845204, 34.2300212], [-98.6844434, 34.2300212], [-98.6844434, 34.2301362]]]}, "properties": {"osm_id": 1057489043, "building": "yes", "name": "", "height": null, "height_m": null, "levels": null, "tract_id": "40141070500", "tract_name": "705", "tags": {"building": "yes", "source": "microsoft/BuildingFootprints"}}}, {"type": "Feature", "geometry": {"type": "Polygon", "coordinates": [[[-98.6848597, 34.2300651], [-98.6849201, 34.2300649], [-98.6849199, 34.2300312], [-98.6850105, 34.2300308], [-98.6850095, 34.2298709], [-98.6849478, 34.2298711], [-98.6849482, 34.2299273], [-98.6848588, 34.2299277], [-98.6848597, 34.2300651]]]}, "properties": {"osm_id": 1057489044, "building": "yes", "name": "", "height": null, "height_m": null, "levels": null, "tract_id": "40141070500", "tract_name": "705", "tags": {"building": "yes", "source": "microsoft/BuildingFootprints"}}}, {"type": "Feature", "geometry": {"type": "Polygon", "coordinates": [[[-98.6844554, 34.2298662], [-98.6844554, 34.2299742], [-98.6845654, 34.2299742], [-98.6845654, 34.2298662], [-98.6844554, 34.2298662]]]}, "properties": {"osm_id": 1057489045, "building": "yes", "name": "", "height": null, "height_m": null, "levels": null, "tract_id": "40141070500", "tract_name": "705", "tags": {"building": "yes", "source": "microsoft/BuildingFootprints"}}}, {"type": "Feature", "geometry": {"type": "Polygon", "coordinates": [[[-98.6839442, 34.2298105], [-98.6839449, 34.2298874], [-98.6839969, 34.2298871], [-98.6839981, 34.2300293], [-98.6841113, 34.2300286], [-98.6841109, 34.2299775], [-98.6842178, 34.2299768], [-98.6842169, 34.2298835], [-98.6840507, 34.2298845], [-98.68405, 34.2298099], [-98.6839442, 34.2298105]]]}, "properties": {"osm_id": 1057489046, "building": "yes", "name": "", "height": null, "height_m": null, "levels": null, "tract_id": "40141070500", "tract_name": "705", "tags": {"building": "yes", "source": "microsoft/BuildingFootprints"}}}, {"type": "Feature", "geometry": {"type": "Polygon", "coordinates": [[[-98.6851027, 34.2309419], [-98.6848464, 34.2309421], [-98.6848467, 34.231328], [-98.6849432, 34.231328], [-98.6849431, 34.231221], [-98.685103, 34.231221], [-98.6851027, 34.2309419]]]}, "properties": {"osm_id": 1057489047, "building": "yes", "name": "", "height": null, "height_m": null, "levels": null, "tract_id": "40141070500", "tract_name": "705", "tags": {"building": "yes", "source": "microsoft/BuildingFootprints"}}}, {"type": "Feature", "geometry": {"type": "Polygon", "coordinates": [[[-98.6836108, 34.2299935], [-98.6838783, 34.2299935], [-98.6838783, 34.229881], [-98.6836108, 34.229881], [-98.6836108, 34.2299935]]]}, "properties": {"osm_id": 1057489048, "building": "yes", "name": "", "height": null, "height_m": null, "levels": null, "tract_id": "40141070500", "tract_name": "705", "tags": {"building": "yes", "source": "microsoft/BuildingFootprints"}}}, {"type": "Feature", "geometry": {"type": "Polygon", "coordinates": [[[-98.6848493, 34.230474], [-98.6848493, 34.230672], [-98.685025, 34.230672], [-98.685025, 34.230474], [-98.6848493, 34.230474]]]}, "properties": {"osm_id": 1057489050, "building": "yes", "name": "", "height": null, "height_m": null, "levels": null, "tract_id": "40141070500", "tract_name": "705", "tags": {"building": "yes", "source": "microsoft/BuildingFootprints"}}}, {"type": "Feature", "geometry": {"type": "Polygon", "coordinates": [[[-98.6837851, 34.2300573], [-98.6836094, 34.2300573], [-98.6836094, 34.230201], [-98.6837851, 34.230201], [-98.6837851, 34.2300573]]]}, "properties": {"osm_id": 1057489051, "building": "yes", "name": "", "height": null, "height_m": null, "levels": null, "tract_id": "40141070500", "tract_name": "705", "tags": {"building": "yes", "source": "microsoft/BuildingFootprints"}}}, {"type": "Feature", "geometry": {"type": "Polygon", "coordinates": [[[-98.6916555, 34.2295141], [-98.6916573, 34.2294128], [-98.6918608, 34.2294153], [-98.6918591, 34.2295166], [-98.6916555, 34.2295141]]]}, "properties": {"osm_id": 1080389458, "building": "yes", "name": "", "height": null, "height_m": null, "levels": null, "tract_id": "40141070500", "tract_name": "705", "tags": {"building": "yes"}}}, {"type": "Feature", "geometry": {"type": "Polygon", "coordinates": [[[-98.7864536, 34.3987572], [-98.7864545, 34.3986346], [-98.7862574, 34.3986337], [-98.7862566, 34.3987563], [-98.7864536, 34.3987572]]]}, "properties": {"osm_id": 1207157888, "building": "yes", "name": "", "height": null, "height_m": null, "levels": null, "tract_id": "40141070500", "tract_name": "705", "tags": {"building": "yes"}}}, {"type": "Feature", "geometry": {"type": "Polygon", "coordinates": [[[-98.7869963, 34.3987713], [-98.7868396, 34.3987656], [-98.7868469, 34.398628], [-98.7870036, 34.3986337], [-98.7869963, 34.3987713]]]}, "properties": {"osm_id": 1207157889, "building": "yes", "name": "", "height": null, "height_m": null, "levels": null, "tract_id": "40141070500", "tract_name": "705", "tags": {"building": "yes"}}}, {"type": "Feature", "geometry": {"type": "Polygon", "coordinates": [[[-98.7872113, 34.3983858], [-98.7873094, 34.3983566], [-98.787305, 34.3983466], [-98.7873599, 34.3983303], [-98.7873705, 34.3983429], [-98.7874246, 34.3983269], [-98.7873688, 34.3981987], [-98.7873316, 34.3982097], [-98.7873379, 34.3982242], [-98.7872541, 34.3982491], [-98.7872331, 34.398201], [-98.7871776, 34.3982175], [-98.7872057, 34.398282], [-98.7871379, 34.3983021], [-98.7871636, 34.398361], [-98.7871962, 34.3983513], [-98.7872113, 34.3983858]]]}, "properties": {"osm_id": 1207157890, "building": "house", "name": "", "height": null, "height_m": null, "levels": null, "tract_id": "40141070500", "tract_name": "705", "tags": {"building": "house"}}}, {"type": "Feature", "geometry": {"type": "Polygon", "coordinates": [[[-98.7796686, 34.3923203], [-98.7796681, 34.3922202], [-98.7794913, 34.3922207], [-98.7794917, 34.3923208], [-98.7796686, 34.3923203]]]}, "properties": {"osm_id": 1207157894, "building": "yes", "name": "", "height": null, "height_m": null, "levels": null, "tract_id": "40141070500", "tract_name": "705", "tags": {"building": "yes"}}}, {"type": "Feature", "geometry": {"type": "Polygon", "coordinates": [[[-98.7796493, 34.3920007], [-98.7796486, 34.3919635], [-98.779749, 34.3919622], [-98.7797497, 34.3919993], [-98.7796493, 34.3920007]]]}, "properties": {"osm_id": 1207157895, "building": "yes", "name": "", "height": null, "height_m": null, "levels": null, "tract_id": "40141070500", "tract_name": "705", "tags": {"building": "yes"}}}, {"type": "Feature", "geometry": {"type": "Polygon", "coordinates": [[[-98.7797541, 34.3919129], [-98.7797542, 34.3918852], [-98.7797314, 34.3918852], [-98.7797318, 34.3917755], [-98.7797941, 34.3917756], [-98.779794, 34.391802], [-98.7798365, 34.3918021], [-98.7798362, 34.391887], [-98.7798055, 34.3918869], [-98.7798054, 34.391913], [-98.7797541, 34.3919129]]]}, "properties": {"osm_id": 1207157896, "building": "house", "name": "", "height": null, "height_m": null, "levels": null, "tract_id": "40141070500", "tract_name": "705", "tags": {"addr:city": "Loveland", "addr:housenumber": "23526", "addr:postcode": "73553", "addr:state": "OK", "addr:street": "OK 5", "building": "house"}}}, {"type": "Feature", "geometry": {"type": "Polygon", "coordinates": [[[-98.7798423, 34.3924123], [-98.7798431, 34.3923813], [-98.7798073, 34.3923807], [-98.7798064, 34.3924116], [-98.7798423, 34.3924123]]]}, "properties": {"osm_id": 1207157897, "building": "yes", "name": "", "height": null, "height_m": null, "levels": null, "tract_id": "40141070500", "tract_name": "705", "tags": {"building": "yes"}}}, {"type": "Feature", "geometry": {"type": "Polygon", "coordinates": [[[-98.7799761, 34.3924183], [-98.7799768, 34.3923943], [-98.7799428, 34.3923925], [-98.7799415, 34.392417], [-98.7799761, 34.3924183]]]}, "properties": {"osm_id": 1207157898, "building": "yes", "name": "", "height": null, "height_m": null, "levels": null, "tract_id": "40141070500", "tract_name": "705", "tags": {"building": "yes"}}}, {"type": "Feature", "geometry": {"type": "Polygon", "coordinates": [[[-98.7799768, 34.3923943], [-98.7799775, 34.3923564], [-98.7800521, 34.3923574], [-98.7800514, 34.3923953], [-98.7799768, 34.3923943]]]}, "properties": {"osm_id": 1207157899, "building": "yes", "name": "", "height": null, "height_m": null, "levels": null, "tract_id": "40141070500", "tract_name": "705", "tags": {"building": "yes"}}}, {"type": "Feature", "geometry": {"type": "Polygon", "coordinates": [[[-98.7801048, 34.3921379], [-98.7801085, 34.3921099], [-98.7801528, 34.3921138], [-98.7801492, 34.3921418], [-98.7801048, 34.3921379]]]}, "properties": {"osm_id": 1207157900, "building": "yes", "name": "", "height": null, "height_m": null, "levels": null, "tract_id": "40141070500", "tract_name": "705", "tags": {"building": "yes"}}}, {"type": "Feature", "geometry": {"type": "Polygon", "coordinates": [[[-98.6630787, 34.4218778], [-98.6629131, 34.4218788], [-98.6629134, 34.4219147], [-98.662939, 34.4219145], [-98.6629398, 34.4220035], [-98.662971, 34.4220033], [-98.6629716, 34.42208], [-98.663061, 34.4220795], [-98.6630604, 34.422007], [-98.6630466, 34.4220071], [-98.6630457, 34.4219075], [-98.663079, 34.4219073], [-98.6630787, 34.4218778]]]}, "properties": {"osm_id": 1230928986, "building": "yes", "name": "", "height": null, "height_m": null, "levels": null, "tract_id": "40141070500", "tract_name": "705", "tags": {"building": "yes"}}}, {"type": "Feature", "geometry": {"type": "Polygon", "coordinates": [[[-98.7717906, 34.3052925], [-98.7717906, 34.305247], [-98.7718214, 34.305247], [-98.7718214, 34.3052186], [-98.7719187, 34.3052185], [-98.7719188, 34.3053025], [-98.7718192, 34.3053025], [-98.7718131, 34.3052924], [-98.7717906, 34.3052925]]]}, "properties": {"osm_id": 1331916446, "building": "detached", "name": "", "height": null, "height_m": null, "levels": null, "tract_id": "40141070500", "tract_name": "705", "tags": {"building": "detached"}}}, {"type": "Feature", "geometry": {"type": "Polygon", "coordinates": [[[-98.7708978, 34.3048699], [-98.7708491, 34.3048739], [-98.7708447, 34.3048377], [-98.7708934, 34.3048337], [-98.7708978, 34.3048699]]]}, "properties": {"osm_id": 1331916447, "building": "shed", "name": "", "height": null, "height_m": null, "levels": null, "tract_id": "40141070500", "tract_name": "705", "tags": {"building": "shed"}}}, {"type": "Feature", "geometry": {"type": "Polygon", "coordinates": [[[-98.7709272, 34.3052793], [-98.7705141, 34.3052817], [-98.770513, 34.3051494], [-98.770926, 34.305147], [-98.7709272, 34.3052793]]]}, "properties": {"osm_id": 1331916448, "building": "industrial", "name": "", "height": null, "height_m": null, "levels": null, "tract_id": "40141070500", "tract_name": "705", "tags": {"building": "industrial"}}}, {"type": "Feature", "geometry": {"type": "Polygon", "coordinates": [[[-98.7694268, 34.3047226], [-98.7692743, 34.3047231], [-98.7692738, 34.3046082], [-98.7693837, 34.3046079], [-98.769384, 34.3046567], [-98.7694265, 34.3046566], [-98.7694268, 34.3047226]]]}, "properties": {"osm_id": 1331916449, "building": "detached", "name": "", "height": null, "height_m": null, "levels": null, "tract_id": "40141070500", "tract_name": "705", "tags": {"building": "detached"}}}, {"type": "Feature", "geometry": {"type": "Polygon", "coordinates": [[[-98.7693539, 34.3045949], [-98.7692865, 34.3045947], [-98.7692867, 34.3045355], [-98.7693541, 34.3045357], [-98.7693539, 34.3045949]]]}, "properties": {"osm_id": 1331916450, "building": "garage", "name": "", "height": null, "height_m": null, "levels": null, "tract_id": "40141070500", "tract_name": "705", "tags": {"building": "garage"}}}, {"type": "Feature", "geometry": {"type": "Polygon", "coordinates": [[[-98.7694238, 34.3048432], [-98.7693943, 34.3048393], [-98.7693991, 34.3048144], [-98.7694286, 34.3048183], [-98.7694238, 34.3048432]]]}, "properties": {"osm_id": 1331916451, "building": "shed", "name": "", "height": null, "height_m": null, "levels": null, "tract_id": "40141070500", "tract_name": "705", "tags": {"building": "shed"}}}, {"type": "Feature", "geometry": {"type": "Polygon", "coordinates": [[[-98.7684326, 34.3052567], [-98.7684198, 34.3050249], [-98.7685611, 34.3050196], [-98.7685739, 34.3052514], [-98.7684326, 34.3052567]]]}, "properties": {"osm_id": 1331916452, "building": "industrial", "name": "", "height": null, "height_m": null, "levels": null, "tract_id": "40141070500", "tract_name": "705", "tags": {"building": "industrial"}}}, {"type": "Feature", "geometry": {"type": "Polygon", "coordinates": [[[-98.7713753, 34.3062346], [-98.7713588, 34.3062377], [-98.7713464, 34.3062472], [-98.7713413, 34.3062605], [-98.771345, 34.3062742], [-98.7713565, 34.3062845], [-98.7713727, 34.3062886], [-98.7713892, 34.3062856], [-98.7714016, 34.3062761], [-98.7714067, 34.3062627], [-98.771403, 34.3062491], [-98.7713915, 34.3062388], [-98.7713753, 34.3062346]]]}, "properties": {"osm_id": 1332538553, "building": "silo", "name": "", "height": null, "height_m": null, "levels": null, "tract_id": "40141070500", "tract_name": "705", "tags": {"building": "silo"}}}, {"type": "Feature", "geometry": {"type": "Polygon", "coordinates": [[[-98.771373, 34.3062972], [-98.771357, 34.3063001], [-98.7713449, 34.3063092], [-98.77134, 34.306322], [-98.7713434, 34.3063352], [-98.7713544, 34.3063452], [-98.77137, 34.3063493], [-98.7713859, 34.3063464], [-98.771398, 34.3063374], [-98.771403, 34.3063245], [-98.7713995, 34.3063113], [-98.7713886, 34.3063013], [-98.771373, 34.3062972]]]}, "properties": {"osm_id": 1332538554, "building": "silo", "name": "", "height": null, "height_m": null, "levels": null, "tract_id": "40141070500", "tract_name": "705", "tags": {"building": "silo"}}}, {"type": "Feature", "geometry": {"type": "Polygon", "coordinates": [[[-98.7713043, 34.3063806], [-98.7712878, 34.3063845], [-98.7712774, 34.3063957], [-98.7712769, 34.3064098], [-98.7712865, 34.3064215], [-98.7713026, 34.3064263], [-98.771319, 34.3064223], [-98.7713295, 34.3064112], [-98.77133, 34.306397], [-98.7713204, 34.3063854], [-98.7713043, 34.3063806]]]}, "properties": {"osm_id": 1332538555, "building": "silo", "name": "", "height": null, "height_m": null, "levels": null, "tract_id": "40141070500", "tract_name": "705", "tags": {"building": "silo"}}}, {"type": "Feature", "geometry": {"type": "Polygon", "coordinates": [[[-98.771433, 34.3058278], [-98.7713599, 34.3058275], [-98.7713606, 34.3057289], [-98.7714337, 34.3057292], [-98.771433, 34.3058278]]]}, "properties": {"osm_id": 1332538556, "building": "yes", "name": "", "height": null, "height_m": null, "levels": null, "tract_id": "40141070500", "tract_name": "705", "tags": {"building": "yes"}}}, {"type": "Feature", "geometry": {"type": "Polygon", "coordinates": [[[-98.7741769, 34.3039323], [-98.7741105, 34.3039307], [-98.7741122, 34.303886], [-98.7741786, 34.3038876], [-98.7741769, 34.3039323]]]}, "properties": {"osm_id": 1332538559, "building": "yes", "name": "", "height": null, "height_m": null, "levels": null, "tract_id": "40141070500", "tract_name": "705", "tags": {"building": "yes"}}}, {"type": "Feature", "geometry": {"type": "Polygon", "coordinates": [[[-98.758727, 34.295123], [-98.758643, 34.295125], [-98.758644, 34.295153], [-98.758728, 34.295151], [-98.758727, 34.295123]]]}, "properties": {"osm_id": 1332538560, "building": "yes", "name": "", "height": null, "height_m": null, "levels": null, "tract_id": "40141070500", "tract_name": "705", "tags": {"building": "yes"}}}, {"type": "Feature", "geometry": {"type": "Polygon", "coordinates": [[[-98.7485887, 34.3027557], [-98.7485807, 34.3028284], [-98.7487212, 34.3028384], [-98.7487291, 34.3027668], [-98.7485887, 34.3027557]]]}, "properties": {"osm_id": 1332538562, "building": "detached", "name": "", "height": null, "height_m": null, "levels": null, "tract_id": "40141070500", "tract_name": "705", "tags": {"building": "detached"}}}, {"type": "Feature", "geometry": {"type": "Polygon", "coordinates": [[[-98.7567232, 34.3052681], [-98.7566484, 34.3052082], [-98.7565127, 34.3053238], [-98.7565874, 34.3053837], [-98.7567232, 34.3052681]]]}, "properties": {"osm_id": 1332538563, "building": "yes", "name": "", "height": null, "height_m": null, "levels": null, "tract_id": "40141070500", "tract_name": "705", "tags": {"building": "yes"}}}, {"type": "Feature", "geometry": {"type": "Polygon", "coordinates": [[[-98.7780611, 34.311428], [-98.7779865, 34.3114351], [-98.7779911, 34.3114679], [-98.7780657, 34.3114609], [-98.7780611, 34.311428]]]}, "properties": {"osm_id": 1332538564, "building": "yes", "name": "", "height": null, "height_m": null, "levels": null, "tract_id": "40141070500", "tract_name": "705", "tags": {"building": "yes"}}}, {"type": "Feature", "geometry": {"type": "Polygon", "coordinates": [[[-98.7560873, 34.3052245], [-98.7563253, 34.3054146], [-98.7564583, 34.305301], [-98.7562203, 34.3051109], [-98.7560873, 34.3052245]]]}, "properties": {"osm_id": 1332538565, "building": "yes", "name": "", "height": null, "height_m": null, "levels": null, "tract_id": "40141070500", "tract_name": "705", "tags": {"building": "yes"}}}, {"type": "Feature", "geometry": {"type": "Polygon", "coordinates": [[[-98.7782224, 34.3066894], [-98.778139, 34.3067004], [-98.7781459, 34.3067365], [-98.7782293, 34.3067256], [-98.7782224, 34.3066894]]]}, "properties": {"osm_id": 1332538566, "building": "yes", "name": "", "height": null, "height_m": null, "levels": null, "tract_id": "40141070500", "tract_name": "705", "tags": {"building": "yes"}}}, {"type": "Feature", "geometry": {"type": "Polygon", "coordinates": [[[-98.7707708, 34.306765], [-98.7708512, 34.3067634], [-98.7708502, 34.3067312], [-98.7709199, 34.3067298], [-98.7709179, 34.3066601], [-98.7708857, 34.3066608], [-98.7708845, 34.3066187], [-98.7707702, 34.306621], [-98.7707715, 34.3066653], [-98.7707464, 34.3066658], [-98.7707483, 34.30673], [-98.7707697, 34.3067296], [-98.7707708, 34.306765]]]}, "properties": {"osm_id": 1332538568, "building": "detached", "name": "", "height": null, "height_m": null, "levels": null, "tract_id": "40141070500", "tract_name": "705", "tags": {"building": "detached"}}}, {"type": "Feature", "geometry": {"type": "Polygon", "coordinates": [[[-98.7713466, 34.3056237], [-98.7712754, 34.3056213], [-98.7712708, 34.3057165], [-98.771251, 34.3057158], [-98.7712469, 34.3058033], [-98.7713379, 34.3058062], [-98.7713466, 34.3056237]]]}, "properties": {"osm_id": 1332538569, "building": "detached", "name": "", "height": null, "height_m": null, "levels": null, "tract_id": "40141070500", "tract_name": "705", "tags": {"building": "detached"}}}, {"type": "Feature", "geometry": {"type": "Polygon", "coordinates": [[[-98.7711565, 34.3064289], [-98.7712755, 34.3064309], [-98.7712805, 34.3062338], [-98.7711615, 34.3062318], [-98.7711565, 34.3064289]]]}, "properties": {"osm_id": 1332538570, "building": "industrial", "name": "", "height": null, "height_m": null, "levels": null, "tract_id": "40141070500", "tract_name": "705", "tags": {"building": "industrial"}}}, {"type": "Feature", "geometry": {"type": "Polygon", "coordinates": [[[-98.7741887, 34.3041833], [-98.7743655, 34.3041892], [-98.7743693, 34.3041118], [-98.7742755, 34.3041086], [-98.7742768, 34.3040821], [-98.7741938, 34.3040793], [-98.7741887, 34.3041833]]]}, "properties": {"osm_id": 1332538571, "building": "detached", "name": "", "height": null, "height_m": null, "levels": null, "tract_id": "40141070500", "tract_name": "705", "tags": {"building": "detached"}}}, {"type": "Feature", "geometry": {"type": "Polygon", "coordinates": [[[-98.7711561, 34.3056793], [-98.7709418, 34.3056851], [-98.7709457, 34.3057837], [-98.7710931, 34.3057797], [-98.7710937, 34.3057951], [-98.7711607, 34.3057933], [-98.7711561, 34.3056793]]]}, "properties": {"osm_id": 1332538572, "building": "detached", "name": "", "height": null, "height_m": null, "levels": null, "tract_id": "40141070500", "tract_name": "705", "tags": {"building": "detached"}}}, {"type": "Feature", "geometry": {"type": "Polygon", "coordinates": [[[-98.7701062, 34.3030835], [-98.770071, 34.3031328], [-98.7701387, 34.3031658], [-98.7701739, 34.3031164], [-98.7701062, 34.3030835]]]}, "properties": {"osm_id": 1332538573, "building": "yes", "name": "", "height": null, "height_m": null, "levels": null, "tract_id": "40141070500", "tract_name": "705", "tags": {"building": "yes"}}}, {"type": "Feature", "geometry": {"type": "Polygon", "coordinates": [[[-98.7714306, 34.3062397], [-98.7714299, 34.3063504], [-98.7715228, 34.3063508], [-98.7715234, 34.30624], [-98.7714306, 34.3062397]]]}, "properties": {"osm_id": 1332538574, "building": "industrial", "name": "", "height": null, "height_m": null, "levels": null, "tract_id": "40141070500", "tract_name": "705", "tags": {"building": "industrial"}}}, {"type": "Feature", "geometry": {"type": "Polygon", "coordinates": [[[-98.691299, 34.4646151], [-98.6913093, 34.4647825], [-98.691176, 34.464788], [-98.6911657, 34.4646206], [-98.691299, 34.4646151]]]}, "properties": {"osm_id": 1436729226, "building": "yes", "name": "", "height": null, "height_m": null, "levels": null, "tract_id": "40141070500", "tract_name": "705", "tags": {"building": "yes"}}}, {"type": "Feature", "geometry": {"type": "Polygon", "coordinates": [[[-98.6915405, 34.4641124], [-98.6915474, 34.464262], [-98.6914766, 34.4642642], [-98.6914804, 34.4643457], [-98.6916629, 34.4643399], [-98.6916521, 34.4641089], [-98.6915405, 34.4641124]]]}, "properties": {"osm_id": 1436729227, "building": "yes", "name": "", "height": null, "height_m": null, "levels": null, "tract_id": "40141070500", "tract_name": "705", "tags": {"building": "yes"}}}]}