{"type": "FeatureCollection", "features": [{"type": "Feature", "geometry": {"type": "Polygon", "coordinates": [[[-95.5396957, 35.2244819], [-95.5395987, 35.2244808], [-95.5395991, 35.2244572], [-95.5395689, 35.2244568], [-95.5395694, 35.2244233], [-95.5395997, 35.2244236], [-95.5396005, 35.2243742], [-95.5396974, 35.2243752], [-95.5396957, 35.2244819]]]}, "properties": {"osm_id": 239710464, "building": "yes", "name": "", "height": null, "height_m": null, "levels": null, "tract_id": "40121485602", "tract_name": "4856.02", "tags": {"addr:city": "Eufaula", "addr:country": "US", "addr:housenumber": "1010", "addr:postcode": "74432", "addr:state": "OK", "addr:street": "Stephens Road", "building": "yes"}}}, {"type": "Feature", "geometry": {"type": "Polygon", "coordinates": [[[-95.5395473, 35.2249511], [-95.5395513, 35.2247988], [-95.5396501, 35.2248005], [-95.5396461, 35.2249529], [-95.5395473, 35.2249511]]]}, "properties": {"osm_id": 248065004, "building": "yes", "name": "", "height": null, "height_m": null, "levels": null, "tract_id": "40121485602", "tract_name": "4856.02", "tags": {"building": "yes", "source": "Bing"}}}, {"type": "Feature", "geometry": {"type": "Polygon", "coordinates": [[[-95.5406525, 35.2245326], [-95.5406563, 35.2244692], [-95.5407322, 35.2244723], [-95.5407283, 35.2245357], [-95.5406525, 35.2245326]]]}, "properties": {"osm_id": 248065005, "building": "yes", "name": "", "height": null, "height_m": null, "levels": null, "tract_id": "40121485602", "tract_name": "4856.02", "tags": {"building": "yes", "source": "Bing"}}}, {"type": "Feature", "geometry": {"type": "Polygon", "coordinates": [[[-95.5406855, 35.2249955], [-95.5406138, 35.2249981], [-95.540608, 35.2248887], [-95.5406796, 35.2248861], [-95.5406855, 35.2249955]]]}, "properties": {"osm_id": 248065006, "building": "yes", "name": "", "height": null, "height_m": null, "levels": null, "tract_id": "40121485602", "tract_name": "4856.02", "tags": {"building": "yes", "source": "Bing"}}}, {"type": "Feature", "geometry": {"type": "Polygon", "coordinates": [[[-95.539035, 35.2251239], [-95.5390426, 35.2248353], [-95.5391397, 35.224837], [-95.5391321, 35.2251256], [-95.539035, 35.2251239]]]}, "properties": {"osm_id": 248065007, "building": "yes", "name": "", "height": null, "height_m": null, "levels": null, "tract_id": "40121485602", "tract_name": "4856.02", "tags": {"building": "yes", "source": "Bing"}}}, {"type": "Feature", "geometry": {"type": "Polygon", "coordinates": [[[-95.5389146, 35.224856], [-95.5389144, 35.224856], [-95.5387756, 35.2248521], [-95.5387777, 35.2247696], [-95.5389166, 35.2247736], [-95.5389168, 35.2247736], [-95.5389146, 35.224856]]]}, "properties": {"osm_id": 248065008, "building": "yes", "name": "", "height": null, "height_m": null, "levels": null, "tract_id": "40121485602", "tract_name": "4856.02", "tags": {"building": "yes", "source": "Bing"}}}, {"type": "Feature", "geometry": {"type": "Polygon", "coordinates": [[[-95.5409226, 35.2247407], [-95.5409218, 35.2247692], [-95.5410631, 35.2247717], [-95.541062, 35.2248112], [-95.5407554, 35.2248058], [-95.5407565, 35.2247657], [-95.5408753, 35.2247678], [-95.540876, 35.2247399], [-95.5409226, 35.2247407]]]}, "properties": {"osm_id": 248065009, "building": "yes", "name": "", "height": null, "height_m": null, "levels": null, "tract_id": "40121485602", "tract_name": "4856.02", "tags": {"building": "yes", "source": "Bing"}}}, {"type": "Feature", "geometry": {"type": "Polygon", "coordinates": [[[-95.5310664, 35.2386876], [-95.5311924, 35.2386781], [-95.5312034, 35.2387752], [-95.5310773, 35.2387847], [-95.5310664, 35.2386876]]]}, "properties": {"osm_id": 1031061135, "building": "yes", "name": "", "height": null, "height_m": null, "levels": null, "tract_id": "40121485602", "tract_name": "4856.02", "tags": {"building": "yes", "shop": "yes"}}}, {"type": "Feature", "geometry": {"type": "Polygon", "coordinates": [[[-95.5309403, 35.2386971], [-95.5310664, 35.2386876], [-95.5310773, 35.2387847], [-95.5309513, 35.2387942], [-95.5309403, 35.2386971]]]}, "properties": {"osm_id": 1031061136, "building": "yes", "name": "", "height": null, "height_m": null, "levels": null, "tract_id": "40121485602", "tract_name": "4856.02", "tags": {"building": "yes", "shop": "yes"}}}, {"type": "Feature", "geometry": {"type": "Polygon", "coordinates": [[[-95.5308142, 35.2387066], [-95.5309403, 35.2386971], [-95.5309513, 35.2387942], [-95.5308252, 35.2388037], [-95.5308142, 35.2387066]]]}, "properties": {"osm_id": 1031061137, "building": "yes", "name": "", "height": null, "height_m": null, "levels": null, "tract_id": "40121485602", "tract_name": "4856.02", "tags": {"building": "yes", "shop": "yes"}}}, {"type": "Feature", "geometry": {"type": "Polygon", "coordinates": [[[-95.5317235, 35.2388862], [-95.5315425, 35.2388873], [-95.5315419, 35.2388227], [-95.5317229, 35.2388216], [-95.5317235, 35.2388862]]]}, "properties": {"osm_id": 1031061149, "building": "yes", "name": "Paddleup", "height": null, "height_m": null, "levels": null, "tract_id": "40121485602", "tract_name": "4856.02", "tags": {"building": "yes", "name": "Paddleup", "shop": "yes"}}}, {"type": "Feature", "geometry": {"type": "Polygon", "coordinates": [[[-95.4806086, 35.2384766], [-95.4806135, 35.2385631], [-95.4804364, 35.2385697], [-95.4804316, 35.2384832], [-95.4806086, 35.2384766]]]}, "properties": {"osm_id": 1032433860, "building": "yes", "name": "", "height": null, "height_m": null, "levels": null, "tract_id": "40121485602", "tract_name": "4856.02", "tags": {"building": "yes"}}}, {"type": "Feature", "geometry": {"type": "Polygon", "coordinates": [[[-95.4802372, 35.2390352], [-95.4802343, 35.2389677], [-95.4801862, 35.2389691], [-95.480182, 35.2388705], [-95.480107, 35.2388726], [-95.4801112, 35.2389712], [-95.4799634, 35.2389754], [-95.4799663, 35.2390429], [-95.4802372, 35.2390352]]]}, "properties": {"osm_id": 1032433861, "building": "yes", "name": "", "height": null, "height_m": null, "levels": null, "tract_id": "40121485602", "tract_name": "4856.02", "tags": {"building": "yes", "check_date": "2022-10-27", "shop": "vacant"}}}, {"type": "Feature", "geometry": {"type": "Polygon", "coordinates": [[[-95.4802318, 35.2387669], [-95.4802361, 35.238869], [-95.480182, 35.2388705], [-95.480107, 35.2388726], [-95.48, 35.2388755], [-95.4799958, 35.2387734], [-95.4802318, 35.2387669]]]}, "properties": {"osm_id": 1032433862, "building": "yes", "name": "", "height": null, "height_m": null, "levels": null, "tract_id": "40121485602", "tract_name": "4856.02", "tags": {"building": "yes", "check_date": "2022-10-27", "shop": "vacant"}}}, {"type": "Feature", "geometry": {"type": "Polygon", "coordinates": [[[-95.4508831, 35.2280766], [-95.4509973, 35.2279289], [-95.4513031, 35.2280867], [-95.4512859, 35.228109], [-95.4513828, 35.228159], [-95.4514091, 35.2281249], [-95.4516475, 35.2282479], [-95.4514997, 35.228439], [-95.4512594, 35.2283149], [-95.4512838, 35.2282834], [-95.4508831, 35.2280766]]]}, "properties": {"osm_id": 1033596006, "building": "yes", "name": "Oak Ridge Church", "height": null, "height_m": null, "levels": null, "tract_id": "40121485602", "tract_name": "4856.02", "tags": {"amenity": "place_of_worship", "building": "yes", "ele": "263", "gnis:feature_id": "1096126", "name": "Oak Ridge Church", "religion": "christian"}}}, {"type": "Feature", "geometry": {"type": "Polygon", "coordinates": [[[-95.4523851, 35.2287755], [-95.4524897, 35.2286725], [-95.452607, 35.2287521], [-95.4525367, 35.2288213], [-95.4525179, 35.2288086], [-95.4524836, 35.2288423], [-95.4523851, 35.2287755]]]}, "properties": {"osm_id": 1033596012, "building": "yes", "name": "", "height": null, "height_m": null, "levels": null, "tract_id": "40121485602", "tract_name": "4856.02", "tags": {"building": "yes"}}}, {"type": "Feature", "geometry": {"type": "Polygon", "coordinates": [[[-95.4536162, 35.2295884], [-95.4534794, 35.2294876], [-95.4535374, 35.2294351], [-95.4536742, 35.2295359], [-95.4536162, 35.2295884]]]}, "properties": {"osm_id": 1033596013, "building": "yes", "name": "", "height": null, "height_m": null, "levels": null, "tract_id": "40121485602", "tract_name": "4856.02", "tags": {"building": "yes"}}}, {"type": "Feature", "geometry": {"type": "Polygon", "coordinates": [[[-95.4557258, 35.2308449], [-95.4554321, 35.2306849], [-95.4555231, 35.2305734], [-95.4558168, 35.2307334], [-95.4557258, 35.2308449]]]}, "properties": {"osm_id": 1033596017, "building": "yes", "name": "Double R Saloon", "height": null, "height_m": null, "levels": null, "tract_id": "40121485602", "tract_name": "4856.02", "tags": {"amenity": "bar", "building": "yes", "name": "Double R Saloon"}}}, {"type": "Feature", "geometry": {"type": "Polygon", "coordinates": [[[-95.4621215, 35.2323007], [-95.4620044, 35.2323034], [-95.4620021, 35.232237], [-95.4619441, 35.2322384], [-95.4619417, 35.2321683], [-95.4619997, 35.232167], [-95.4619968, 35.2320838], [-95.4621139, 35.2320811], [-95.4621215, 35.2323007]]]}, "properties": {"osm_id": 1033596023, "building": "yes", "name": "", "height": null, "height_m": null, "levels": null, "tract_id": "40121485602", "tract_name": "4856.02", "tags": {"building": "yes"}}}, {"type": "Feature", "geometry": {"type": "Polygon", "coordinates": [[[-95.4618359, 35.2331048], [-95.4618265, 35.2328353], [-95.4619415, 35.2328326], [-95.4619469, 35.2329885], [-95.4618988, 35.2329896], [-95.4619028, 35.2331032], [-95.4618359, 35.2331048]]]}, "properties": {"osm_id": 1033596024, "building": "yes", "name": "", "height": null, "height_m": null, "levels": null, "tract_id": "40121485602", "tract_name": "4856.02", "tags": {"building": "yes"}}}, {"type": "Feature", "geometry": {"type": "Polygon", "coordinates": [[[-95.4613772, 35.2336163], [-95.4614832, 35.2333523], [-95.4616314, 35.233392], [-95.4615255, 35.233656], [-95.4613772, 35.2336163]]]}, "properties": {"osm_id": 1033596025, "building": "yes", "name": "", "height": null, "height_m": null, "levels": null, "tract_id": "40121485602", "tract_name": "4856.02", "tags": {"building": "yes"}}}, {"type": "Feature", "geometry": {"type": "Polygon", "coordinates": [[[-95.4617152, 35.2333414], [-95.4617769, 35.2332045], [-95.4619343, 35.2332518], [-95.4618726, 35.2333887], [-95.4617152, 35.2333414]]]}, "properties": {"osm_id": 1033596026, "building": "yes", "name": "", "height": null, "height_m": null, "levels": null, "tract_id": "40121485602", "tract_name": "4856.02", "tags": {"building": "yes"}}}, {"type": "Feature", "geometry": {"type": "Polygon", "coordinates": [[[-95.4627451, 35.2333502], [-95.4623441, 35.233314], [-95.4623609, 35.23319], [-95.462515, 35.2332039], [-95.4625327, 35.2330726], [-95.4626932, 35.2330871], [-95.4626754, 35.2332184], [-95.4627619, 35.2332262], [-95.4627451, 35.2333502]]]}, "properties": {"osm_id": 1033596027, "building": "yes", "name": "", "height": null, "height_m": null, "levels": null, "tract_id": "40121485602", "tract_name": "4856.02", "tags": {"building": "yes"}}}, {"type": "Feature", "geometry": {"type": "Polygon", "coordinates": [[[-95.4630791, 35.2340786], [-95.4627223, 35.233934], [-95.4627674, 35.2338599], [-95.4631241, 35.2340045], [-95.4630791, 35.2340786]]]}, "properties": {"osm_id": 1033596030, "building": "yes", "name": "", "height": null, "height_m": null, "levels": null, "tract_id": "40121485602", "tract_name": "4856.02", "tags": {"building": "yes"}}}, {"type": "Feature", "geometry": {"type": "Polygon", "coordinates": [[[-95.4624394, 35.2340863], [-95.4625386, 35.2339165], [-95.462659, 35.2339634], [-95.4625598, 35.2341332], [-95.4624394, 35.2340863]]]}, "properties": {"osm_id": 1033596031, "building": "yes", "name": "", "height": null, "height_m": null, "levels": null, "tract_id": "40121485602", "tract_name": "4856.02", "tags": {"building": "yes"}}}, {"type": "Feature", "geometry": {"type": "Polygon", "coordinates": [[[-95.4628806, 35.2345146], [-95.4623482, 35.2342889], [-95.4623788, 35.2342407], [-95.4629113, 35.2344663], [-95.4628806, 35.2345146]]]}, "properties": {"osm_id": 1033596032, "building": "yes", "name": "", "height": null, "height_m": null, "levels": null, "tract_id": "40121485602", "tract_name": "4856.02", "tags": {"building": "yes"}}}, {"type": "Feature", "geometry": {"type": "Polygon", "coordinates": [[[-95.4632226, 35.2342878], [-95.4631373, 35.2342554], [-95.4631909, 35.2341612], [-95.4632762, 35.2341936], [-95.4632226, 35.2342878]]]}, "properties": {"osm_id": 1033596033, "building": "yes", "name": "", "height": null, "height_m": null, "levels": null, "tract_id": "40121485602", "tract_name": "4856.02", "tags": {"building": "yes"}}}, {"type": "Feature", "geometry": {"type": "Polygon", "coordinates": [[[-95.4634197, 35.234428], [-95.4632274, 35.2343516], [-95.4633736, 35.2341062], [-95.4635659, 35.2341827], [-95.4634197, 35.234428]]]}, "properties": {"osm_id": 1033596034, "building": "yes", "name": "", "height": null, "height_m": null, "levels": null, "tract_id": "40121485602", "tract_name": "4856.02", "tags": {"building": "yes"}}}, {"type": "Feature", "geometry": {"type": "Polygon", "coordinates": [[[-95.4639588, 35.2349451], [-95.4640954, 35.2350079], [-95.4639881, 35.2351635], [-95.4638515, 35.2351006], [-95.4639588, 35.2349451]]]}, "properties": {"osm_id": 1033596036, "building": "yes", "name": "", "height": null, "height_m": null, "levels": null, "tract_id": "40121485602", "tract_name": "4856.02", "tags": {"building": "yes"}}}, {"type": "Feature", "geometry": {"type": "Polygon", "coordinates": [[[-95.4643558, 35.2353361], [-95.4644483, 35.2352145], [-95.4645875, 35.2352852], [-95.4644949, 35.2354068], [-95.4643558, 35.2353361]]]}, "properties": {"osm_id": 1033596038, "building": "yes", "name": "", "height": null, "height_m": null, "levels": null, "tract_id": "40121485602", "tract_name": "4856.02", "tags": {"building": "yes"}}}, {"type": "Feature", "geometry": {"type": "Polygon", "coordinates": [[[-95.4652999, 35.2355793], [-95.465017, 35.2354424], [-95.4650853, 35.2353482], [-95.4653682, 35.2354851], [-95.4652999, 35.2355793]]]}, "properties": {"osm_id": 1033596039, "building": "yes", "name": "", "height": null, "height_m": null, "levels": null, "tract_id": "40121485602", "tract_name": "4856.02", "tags": {"building": "yes"}}}, {"type": "Feature", "geometry": {"type": "Polygon", "coordinates": [[[-95.4670836, 35.236758], [-95.4671574, 35.2366462], [-95.4672353, 35.2366806], [-95.4671616, 35.2367923], [-95.4670836, 35.236758]]]}, "properties": {"osm_id": 1033596044, "building": "yes", "name": "", "height": null, "height_m": null, "levels": null, "tract_id": "40121485602", "tract_name": "4856.02", "tags": {"building": "yes"}}}, {"type": "Feature", "geometry": {"type": "Polygon", "coordinates": [[[-95.4676348, 35.2369748], [-95.4674497, 35.2368916], [-95.4675022, 35.2368138], [-95.4676872, 35.2368971], [-95.4676348, 35.2369748]]]}, "properties": {"osm_id": 1033596045, "building": "yes", "name": "", "height": null, "height_m": null, "levels": null, "tract_id": "40121485602", "tract_name": "4856.02", "tags": {"building": "yes"}}}, {"type": "Feature", "geometry": {"type": "Polygon", "coordinates": [[[-95.4736912, 35.2385292], [-95.4735421, 35.2385305], [-95.4735406, 35.2384169], [-95.4736051, 35.2384163], [-95.4736039, 35.2383284], [-95.4736885, 35.2383276], [-95.4736912, 35.2385292]]]}, "properties": {"osm_id": 1033596055, "building": "yes", "name": "", "height": null, "height_m": null, "levels": null, "tract_id": "40121485602", "tract_name": "4856.02", "tags": {"building": "yes"}}}, {"type": "Feature", "geometry": {"type": "Polygon", "coordinates": [[[-95.4742022, 35.2385116], [-95.4742035, 35.2383857], [-95.4743577, 35.2383868], [-95.4743564, 35.2385127], [-95.4742022, 35.2385116]]]}, "properties": {"osm_id": 1033596056, "building": "yes", "name": "", "height": null, "height_m": null, "levels": null, "tract_id": "40121485602", "tract_name": "4856.02", "tags": {"building": "yes"}}}, {"type": "Feature", "geometry": {"type": "Polygon", "coordinates": [[[-95.4793011, 35.2389936], [-95.4792957, 35.23886], [-95.4793885, 35.2388575], [-95.4793939, 35.2389911], [-95.4793011, 35.2389936]]]}, "properties": {"osm_id": 1033596060, "building": "yes", "name": "", "height": null, "height_m": null, "levels": null, "tract_id": "40121485602", "tract_name": "4856.02", "tags": {"building": "yes"}}}, {"type": "Feature", "geometry": {"type": "Polygon", "coordinates": [[[-95.5498773, 35.2059005], [-95.5497762, 35.2058362], [-95.5498337, 35.2057758], [-95.5499349, 35.2058401], [-95.5498773, 35.2059005]]]}, "properties": {"osm_id": 1389271963, "building": "yes", "name": "", "height": null, "height_m": null, "levels": null, "tract_id": "40121485602", "tract_name": "4856.02", "tags": {"building": "yes"}}}, {"type": "Feature", "geometry": {"type": "Polygon", "coordinates": [[[-95.549956, 35.2058357], [-95.5498651, 35.2057701], [-95.5499195, 35.2057197], [-95.5500105, 35.2057854], [-95.549956, 35.2058357]]]}, "properties": {"osm_id": 1389271964, "building": "yes", "name": "", "height": null, "height_m": null, "levels": null, "tract_id": "40121485602", "tract_name": "4856.02", "tags": {"building": "yes"}}}, {"type": "Feature", "geometry": {"type": "Polygon", "coordinates": [[[-95.550047, 35.205766], [-95.5499669, 35.2057], [-95.5500276, 35.2056509], [-95.5501076, 35.205717], [-95.550047, 35.205766]]]}, "properties": {"osm_id": 1389271965, "building": "yes", "name": "", "height": null, "height_m": null, "levels": null, "tract_id": "40121485602", "tract_name": "4856.02", "tags": {"building": "yes"}}}, {"type": "Feature", "geometry": {"type": "Polygon", "coordinates": [[[-95.550796, 35.2054638], [-95.5507404, 35.2054643], [-95.5507401, 35.2054393], [-95.5507175, 35.2054395], [-95.5507163, 35.2053501], [-95.5506969, 35.2053503], [-95.5506965, 35.205319], [-95.5506121, 35.2053197], [-95.5506102, 35.205168], [-95.5507785, 35.2051666], [-95.550779, 35.2052039], [-95.5508573, 35.2052032], [-95.5508588, 35.205325], [-95.5507942, 35.2053255], [-95.550796, 35.2054638]]]}, "properties": {"osm_id": 1389271966, "building": "yes", "name": "", "height": null, "height_m": null, "levels": null, "tract_id": "40121485602", "tract_name": "4856.02", "tags": {"building": "yes"}}}, {"type": "Feature", "geometry": {"type": "Polygon", "coordinates": [[[-95.5510032, 35.2054668], [-95.5509327, 35.205466], [-95.5509346, 35.2053657], [-95.5510268, 35.2053668], [-95.5510253, 35.2054496], [-95.5510035, 35.2054493], [-95.5510032, 35.2054668]]]}, "properties": {"osm_id": 1389271967, "building": "yes", "name": "", "height": null, "height_m": null, "levels": null, "tract_id": "40121485602", "tract_name": "4856.02", "tags": {"building": "yes"}}}, {"type": "Feature", "geometry": {"type": "Polygon", "coordinates": [[[-95.5511571, 35.2053426], [-95.5509758, 35.2053348], [-95.5509859, 35.2051795], [-95.5510468, 35.2051821], [-95.5510486, 35.2051542], [-95.5511388, 35.2051581], [-95.5511371, 35.2051844], [-95.5511673, 35.2051857], [-95.5511571, 35.2053426]]]}, "properties": {"osm_id": 1389271968, "building": "yes", "name": "", "height": null, "height_m": null, "levels": null, "tract_id": "40121485602", "tract_name": "4856.02", "tags": {"building": "yes"}}}, {"type": "Feature", "geometry": {"type": "Polygon", "coordinates": [[[-95.5514733, 35.2053999], [-95.5513274, 35.2053658], [-95.5513893, 35.2051887], [-95.5515352, 35.2052227], [-95.5514733, 35.2053999]]]}, "properties": {"osm_id": 1389271969, "building": "yes", "name": "", "height": null, "height_m": null, "levels": null, "tract_id": "40121485602", "tract_name": "4856.02", "tags": {"building": "yes"}}}, {"type": "Feature", "geometry": {"type": "Polygon", "coordinates": [[[-95.5486889, 35.2052693], [-95.5488188, 35.2051464], [-95.5489861, 35.2052644], [-95.5488679, 35.2053762], [-95.5488018, 35.2053296], [-95.5488148, 35.2053172], [-95.5487599, 35.2052785], [-95.5487351, 35.2053019], [-95.5486889, 35.2052693]]]}, "properties": {"osm_id": 1389319416, "building": "yes", "name": "", "height": null, "height_m": null, "levels": null, "tract_id": "40121485602", "tract_name": "4856.02", "tags": {"building": "yes"}}}, {"type": "Feature", "geometry": {"type": "Polygon", "coordinates": [[[-95.5486402, 35.2052584], [-95.5487275, 35.2051823], [-95.5486889, 35.2051527], [-95.5487191, 35.2051264], [-95.548652, 35.2050751], [-95.5486267, 35.2050971], [-95.5485844, 35.2050647], [-95.5485207, 35.2051202], [-95.5486179, 35.2051947], [-95.5485894, 35.2052195], [-95.5486402, 35.2052584]]]}, "properties": {"osm_id": 1389319417, "building": "yes", "name": "", "height": null, "height_m": null, "levels": null, "tract_id": "40121485602", "tract_name": "4856.02", "tags": {"building": "yes"}}}, {"type": "Feature", "geometry": {"type": "Polygon", "coordinates": [[[-95.5487002, 35.205333], [-95.5486281, 35.2052845], [-95.5485507, 35.2053612], [-95.5486002, 35.2053945], [-95.5486191, 35.2053757], [-95.5486417, 35.2053909], [-95.5487002, 35.205333]]]}, "properties": {"osm_id": 1389319418, "building": "yes", "name": "", "height": null, "height_m": null, "levels": null, "tract_id": "40121485602", "tract_name": "4856.02", "tags": {"building": "yes"}}}, {"type": "Feature", "geometry": {"type": "Polygon", "coordinates": [[[-95.5486078, 35.2052836], [-95.548537, 35.2052297], [-95.5484758, 35.2052834], [-95.5485467, 35.2053373], [-95.5486078, 35.2052836]]]}, "properties": {"osm_id": 1389319419, "building": "yes", "name": "", "height": null, "height_m": null, "levels": null, "tract_id": "40121485602", "tract_name": "4856.02", "tags": {"building": "yes"}}}, {"type": "Feature", "geometry": {"type": "Polygon", "coordinates": [[[-95.5484151, 35.2048931], [-95.5482982, 35.2047895], [-95.5481809, 35.2048778], [-95.5482978, 35.2049814], [-95.5484151, 35.2048931]]]}, "properties": {"osm_id": 1389319420, "building": "yes", "name": "", "height": null, "height_m": null, "levels": null, "tract_id": "40121485602", "tract_name": "4856.02", "tags": {"building": "yes"}}}, {"type": "Feature", "geometry": {"type": "Polygon", "coordinates": [[[-95.5481992, 35.2049635], [-95.5481314, 35.2050144], [-95.5481974, 35.2050731], [-95.5482652, 35.2050223], [-95.5481992, 35.2049635]]]}, "properties": {"osm_id": 1389319421, "building": "yes", "name": "", "height": null, "height_m": null, "levels": null, "tract_id": "40121485602", "tract_name": "4856.02", "tags": {"building": "yes"}}}, {"type": "Feature", "geometry": {"type": "Polygon", "coordinates": [[[-95.5484606, 35.2059116], [-95.5483831, 35.205881], [-95.5484187, 35.2058209], [-95.5484962, 35.2058516], [-95.5484606, 35.2059116]]]}, "properties": {"osm_id": 1389319422, "building": "yes", "name": "", "height": null, "height_m": null, "levels": null, "tract_id": "40121485602", "tract_name": "4856.02", "tags": {"building": "yes"}}}, {"type": "Feature", "geometry": {"type": "Polygon", "coordinates": [[[-95.5485582, 35.2058474], [-95.54868, 35.2057525], [-95.548566, 35.2056549], [-95.5485546, 35.2056637], [-95.548528, 35.2056544], [-95.5484305, 35.2057305], [-95.5484958, 35.2057864], [-95.5484718, 35.2058051], [-95.5485201, 35.2058464], [-95.5485394, 35.2058313], [-95.5485582, 35.2058474]]]}, "properties": {"osm_id": 1389319423, "building": "yes", "name": "", "height": null, "height_m": null, "levels": null, "tract_id": "40121485602", "tract_name": "4856.02", "tags": {"building": "yes"}}}, {"type": "Feature", "geometry": {"type": "Polygon", "coordinates": [[[-95.5483054, 35.2056586], [-95.5483614, 35.2056067], [-95.548338, 35.2055899], [-95.5484024, 35.2055301], [-95.5483418, 35.2054864], [-95.5483229, 35.2055039], [-95.5482818, 35.2054743], [-95.5481999, 35.2055503], [-95.5482312, 35.2055728], [-95.5482115, 35.205591], [-95.5483054, 35.2056586]]]}, "properties": {"osm_id": 1389319424, "building": "yes", "name": "", "height": null, "height_m": null, "levels": null, "tract_id": "40121485602", "tract_name": "4856.02", "tags": {"building": "yes"}}}, {"type": "Feature", "geometry": {"type": "Polygon", "coordinates": [[[-95.5480474, 35.2056729], [-95.5479743, 35.2056235], [-95.5480317, 35.2055668], [-95.5481048, 35.2056162], [-95.5480474, 35.2056729]]]}, "properties": {"osm_id": 1389319425, "building": "yes", "name": "", "height": null, "height_m": null, "levels": null, "tract_id": "40121485602", "tract_name": "4856.02", "tags": {"building": "yes"}}}, {"type": "Feature", "geometry": {"type": "Polygon", "coordinates": [[[-95.5481763, 35.2053389], [-95.5480042, 35.2054756], [-95.5480755, 35.2055355], [-95.5481174, 35.2055022], [-95.5481269, 35.2055177], [-95.5482617, 35.2054106], [-95.5481763, 35.2053389]]]}, "properties": {"osm_id": 1389319426, "building": "yes", "name": "", "height": null, "height_m": null, "levels": null, "tract_id": "40121485602", "tract_name": "4856.02", "tags": {"building": "yes"}}}, {"type": "Feature", "geometry": {"type": "Polygon", "coordinates": [[[-95.548125, 35.2053024], [-95.5480446, 35.205241], [-95.5478773, 35.2053874], [-95.5479139, 35.2054153], [-95.5479766, 35.2053604], [-95.5480204, 35.2053939], [-95.548125, 35.2053024]]]}, "properties": {"osm_id": 1389319427, "building": "yes", "name": "", "height": null, "height_m": null, "levels": null, "tract_id": "40121485602", "tract_name": "4856.02", "tags": {"building": "yes"}}}, {"type": "Feature", "geometry": {"type": "Polygon", "coordinates": [[[-95.548024, 35.2052257], [-95.5479369, 35.205151], [-95.5478308, 35.2052335], [-95.5479179, 35.2053083], [-95.548024, 35.2052257]]]}, "properties": {"osm_id": 1389319428, "building": "yes", "name": "", "height": null, "height_m": null, "levels": null, "tract_id": "40121485602", "tract_name": "4856.02", "tags": {"building": "yes"}}}, {"type": "Feature", "geometry": {"type": "Polygon", "coordinates": [[[-95.5477903, 35.2053914], [-95.5477042, 35.2053173], [-95.5477675, 35.2052682], [-95.5478537, 35.2053422], [-95.5477903, 35.2053914]]]}, "properties": {"osm_id": 1389319429, "building": "yes", "name": "", "height": null, "height_m": null, "levels": null, "tract_id": "40121485602", "tract_name": "4856.02", "tags": {"building": "yes"}}}, {"type": "Feature", "geometry": {"type": "Polygon", "coordinates": [[[-95.5478277, 35.2050431], [-95.5477164, 35.2051261], [-95.5477462, 35.2051528], [-95.547679, 35.2052029], [-95.5477356, 35.2052536], [-95.5479141, 35.2051205], [-95.5478277, 35.2050431]]]}, "properties": {"osm_id": 1389319430, "building": "yes", "name": "", "height": null, "height_m": null, "levels": null, "tract_id": "40121485602", "tract_name": "4856.02", "tags": {"building": "yes"}}}, {"type": "Feature", "geometry": {"type": "Polygon", "coordinates": [[[-95.5477275, 35.2052566], [-95.5476352, 35.2051772], [-95.5475907, 35.2052117], [-95.5476695, 35.2052795], [-95.5476902, 35.2052634], [-95.5477038, 35.2052751], [-95.5477275, 35.2052566]]]}, "properties": {"osm_id": 1389319431, "building": "yes", "name": "", "height": null, "height_m": null, "levels": null, "tract_id": "40121485602", "tract_name": "4856.02", "tags": {"building": "yes"}}}, {"type": "Feature", "geometry": {"type": "Polygon", "coordinates": [[[-95.5476665, 35.2051325], [-95.5476061, 35.2050818], [-95.5477452, 35.2049711], [-95.5478148, 35.2050295], [-95.5477452, 35.2050849], [-95.5477334, 35.2050793], [-95.5476665, 35.2051325]]]}, "properties": {"osm_id": 1389319432, "building": "yes", "name": "", "height": null, "height_m": null, "levels": null, "tract_id": "40121485602", "tract_name": "4856.02", "tags": {"building": "yes"}}}, {"type": "Feature", "geometry": {"type": "Polygon", "coordinates": [[[-95.5477114, 35.2049446], [-95.5476345, 35.2048717], [-95.5475072, 35.2049614], [-95.5475266, 35.2049798], [-95.547481, 35.205012], [-95.5475385, 35.2050664], [-95.5477114, 35.2049446]]]}, "properties": {"osm_id": 1389319433, "building": "yes", "name": "", "height": null, "height_m": null, "levels": null, "tract_id": "40121485602", "tract_name": "4856.02", "tags": {"building": "yes"}}}, {"type": "Feature", "geometry": {"type": "Polygon", "coordinates": [[[-95.5474344, 35.2051171], [-95.5473566, 35.2050448], [-95.547413, 35.2050043], [-95.5474908, 35.2050767], [-95.5474344, 35.2051171]]]}, "properties": {"osm_id": 1389319434, "building": "yes", "name": "", "height": null, "height_m": null, "levels": null, "tract_id": "40121485602", "tract_name": "4856.02", "tags": {"building": "yes"}}}, {"type": "Feature", "geometry": {"type": "Polygon", "coordinates": [[[-95.5473156, 35.2050501], [-95.547244, 35.2049976], [-95.5472923, 35.2049536], [-95.5473639, 35.2050062], [-95.5473156, 35.2050501]]]}, "properties": {"osm_id": 1389319435, "building": "yes", "name": "", "height": null, "height_m": null, "levels": null, "tract_id": "40121485602", "tract_name": "4856.02", "tags": {"building": "yes"}}}, {"type": "Feature", "geometry": {"type": "Polygon", "coordinates": [[[-95.5474318, 35.2049698], [-95.5473583, 35.2049037], [-95.5475341, 35.2047732], [-95.5476184, 35.2048489], [-95.5475113, 35.2049284], [-95.5475005, 35.2049187], [-95.5474318, 35.2049698]]]}, "properties": {"osm_id": 1389319436, "building": "yes", "name": "", "height": null, "height_m": null, "levels": null, "tract_id": "40121485602", "tract_name": "4856.02", "tags": {"building": "yes"}}}]}