{"type": "FeatureCollection", "features": [{"type": "Feature", "geometry": {"type": "Polygon", "coordinates": [[[-98.4756303, 36.2770584], [-98.4756289, 36.2768876], [-98.4757175, 36.2768872], [-98.475718, 36.2769558], [-98.4757374, 36.2769557], [-98.4757377, 36.2769914], [-98.4757053, 36.2769916], [-98.4757058, 36.277058], [-98.4756303, 36.2770584]]]}, "properties": {"osm_id": 610946630, "building": "yes", "name": "", "height": null, "height_m": null, "levels": null, "tract_id": "40093955300", "tract_name": "9553", "tags": {"addr:city": "Fairview", "addr:country": "US", "addr:housenumber": "808", "addr:postcode": "73737", "addr:state": "OK", "addr:street": "North 8th Street", "building": "yes"}}}, {"type": "Feature", "geometry": {"type": "Polygon", "coordinates": [[[-98.4804612, 36.2694838], [-98.4804613, 36.269416], [-98.4800482, 36.2694165], [-98.4800479, 36.2694856], [-98.4804612, 36.2694838]]]}, "properties": {"osm_id": 736777884, "building": "yes", "name": "Royal Theatre Foundation", "height": null, "height_m": null, "levels": null, "tract_id": "40093955300", "tract_name": "9553", "tags": {"addr:city": "Fairview", "addr:housenumber": "109", "addr:state": "OK", "addr:street": "North Main Street", "amenity": "cinema", "building": "yes", "name": "Royal Theatre Foundation", "screen": "1", "wikidata": "Q43192455"}}}, {"type": "Feature", "geometry": {"type": "Polygon", "coordinates": [[[-98.4804613, 36.269416], [-98.4804612, 36.2693474], [-98.4802922, 36.2693476], [-98.4800481, 36.2693479], [-98.4800482, 36.2694165], [-98.4804613, 36.269416]]]}, "properties": {"osm_id": 736777885, "building": "retail", "name": "", "height": null, "height_m": null, "levels": null, "tract_id": "40093955300", "tract_name": "9553", "tags": {"building": "retail"}}}, {"type": "Feature", "geometry": {"type": "Polygon", "coordinates": [[[-98.428779, 36.3055677], [-98.4286248, 36.3055717], [-98.4286217, 36.305495], [-98.4287759, 36.3054909], [-98.428779, 36.3055677]]]}, "properties": {"osm_id": 1039084585, "building": "yes", "name": "", "height": null, "height_m": null, "levels": null, "tract_id": "40093955300", "tract_name": "9553", "tags": {"building": "yes", "colour": "white"}}}, {"type": "Feature", "geometry": {"type": "Polygon", "coordinates": [[[-98.426794, 36.3059121], [-98.4267946, 36.3058764], [-98.4267282, 36.3058758], [-98.4267276, 36.3059114], [-98.426794, 36.3059121]]]}, "properties": {"osm_id": 1039084588, "building": "yes", "name": "", "height": null, "height_m": null, "levels": null, "tract_id": "40093955300", "tract_name": "9553", "tags": {"building": "yes", "colour": "white"}}}, {"type": "Feature", "geometry": {"type": "Polygon", "coordinates": [[[-98.4270055, 36.3058627], [-98.4267366, 36.3058641], [-98.426736, 36.3057936], [-98.4270049, 36.3057921], [-98.4270055, 36.3058627]]]}, "properties": {"osm_id": 1039084589, "building": "yes", "name": "", "height": null, "height_m": null, "levels": null, "tract_id": "40093955300", "tract_name": "9553", "tags": {"building": "yes", "colour": "white"}}}, {"type": "Feature", "geometry": {"type": "Polygon", "coordinates": [[[-98.4267303, 36.3056603], [-98.4267329, 36.3057752], [-98.4270025, 36.3057711], [-98.4269998, 36.3056563], [-98.4267303, 36.3056603]]]}, "properties": {"osm_id": 1039084590, "building": "yes", "name": "", "height": null, "height_m": null, "levels": null, "tract_id": "40093955300", "tract_name": "9553", "tags": {"building": "yes", "colour": "white"}}}, {"type": "Feature", "geometry": {"type": "Polygon", "coordinates": [[[-98.4265461, 36.3046039], [-98.4265455, 36.304519], [-98.426795, 36.3045178], [-98.4267943, 36.3044182], [-98.426918, 36.3044176], [-98.4269187, 36.3045063], [-98.4269472, 36.3045061], [-98.4269479, 36.304602], [-98.4265461, 36.3046039]]]}, "properties": {"osm_id": 1039084591, "building": "yes", "name": "", "height": null, "height_m": null, "levels": null, "tract_id": "40093955300", "tract_name": "9553", "tags": {"building": "yes", "colour": "brown"}}}, {"type": "Feature", "geometry": {"type": "Polygon", "coordinates": [[[-98.4265107, 36.3046042], [-98.4263195, 36.3046054], [-98.4263189, 36.3045344], [-98.4263586, 36.3045342], [-98.4263583, 36.3045071], [-98.4263869, 36.304507], [-98.4264264, 36.3045067], [-98.4264266, 36.304527], [-98.4265099, 36.3045265], [-98.4265107, 36.3046042]]]}, "properties": {"osm_id": 1039084592, "building": "yes", "name": "", "height": null, "height_m": null, "levels": null, "tract_id": "40093955300", "tract_name": "9553", "tags": {"building": "yes", "colour": "gray"}}}, {"type": "Feature", "geometry": {"type": "Polygon", "coordinates": [[[-98.428685, 36.3048478], [-98.42858, 36.304851], [-98.4285706, 36.3046517], [-98.4285302, 36.304653], [-98.4285258, 36.3045576], [-98.4285631, 36.3045565], [-98.4285539, 36.3043592], [-98.428662, 36.3043559], [-98.428685, 36.3048478]]]}, "properties": {"osm_id": 1039084593, "building": "yes", "name": "", "height": null, "height_m": null, "levels": null, "tract_id": "40093955300", "tract_name": "9553", "tags": {"building": "yes", "colour": "white"}}}, {"type": "Feature", "geometry": {"type": "Polygon", "coordinates": [[[-98.4287749, 36.3053066], [-98.4285972, 36.3053107], [-98.4285849, 36.3049633], [-98.4287626, 36.3049592], [-98.4287749, 36.3053066]]]}, "properties": {"osm_id": 1039084594, "building": "yes", "name": "", "height": null, "height_m": null, "levels": null, "tract_id": "40093955300", "tract_name": "9553", "tags": {"building": "yes", "colour": "white"}}}, {"type": "Feature", "geometry": {"type": "Polygon", "coordinates": [[[-98.4269009, 36.3049593], [-98.4269016, 36.3048507], [-98.426567, 36.3048491], [-98.4265663, 36.3049577], [-98.4269009, 36.3049593]]]}, "properties": {"osm_id": 1039084595, "building": "yes", "name": "", "height": null, "height_m": null, "levels": null, "tract_id": "40093955300", "tract_name": "9553", "tags": {"building": "yes", "colour": "white"}}}, {"type": "Feature", "geometry": {"type": "Polygon", "coordinates": [[[-98.4269178, 36.3051845], [-98.4269142, 36.3049851], [-98.4265548, 36.3049892], [-98.4265584, 36.3051887], [-98.4269178, 36.3051845]]]}, "properties": {"osm_id": 1039084596, "building": "yes", "name": "", "height": null, "height_m": null, "levels": null, "tract_id": "40093955300", "tract_name": "9553", "tags": {"building": "yes", "colour": "white"}}}, {"type": "Feature", "geometry": {"type": "Polygon", "coordinates": [[[-98.4267523, 36.3056207], [-98.4262628, 36.3056289], [-98.4262603, 36.30553], [-98.4267498, 36.3055218], [-98.4267523, 36.3056207]]]}, "properties": {"osm_id": 1039084597, "building": "yes", "name": "", "height": null, "height_m": null, "levels": null, "tract_id": "40093955300", "tract_name": "9553", "tags": {"building": "yes", "colour": "white"}}}, {"type": "Feature", "geometry": {"type": "Polygon", "coordinates": [[[-98.4843691, 36.2684769], [-98.4843703, 36.2683488], [-98.4846075, 36.2683503], [-98.4846079, 36.2683085], [-98.4846562, 36.2683089], [-98.4846575, 36.2681813], [-98.4848377, 36.2681824], [-98.4848348, 36.2684799], [-98.4843691, 36.2684769]]]}, "properties": {"osm_id": 1056535459, "building": "yes", "name": "Fairview Church of the Nazarene", "height": null, "height_m": null, "levels": null, "tract_id": "40093955300", "tract_name": "9553", "tags": {"addr:city": "Fairview", "addr:housenumber": "400", "addr:postcode": "73737", "addr:state": "OK", "addr:street": "West Central Street", "amenity": "place_of_worship", "building": "yes", "denomination": "nazarene", "ele": "398", "gnis:feature_id": "1798195", "name": "Fairview Church of the Nazarene", "religion": "christian"}}}, {"type": "Feature", "geometry": {"type": "Polygon", "coordinates": [[[-98.4782113, 36.2694136], [-98.4782098, 36.2692246], [-98.4780774, 36.2692252], [-98.4780785, 36.2693793], [-98.4781565, 36.2693789], [-98.4781568, 36.2694138], [-98.4782113, 36.2694136]]]}, "properties": {"osm_id": 1059982810, "building": "yes", "name": "", "height": null, "height_m": null, "levels": null, "tract_id": "40093955300", "tract_name": "9553", "tags": {"addr:city": "Fairview", "addr:housenumber": "211", "addr:postcode": "73737", "addr:state": "OK", "addr:street": "East Broadway", "building": "yes", "telecom": "exchange"}}}, {"type": "Feature", "geometry": {"type": "Polygon", "coordinates": [[[-98.4800169, 36.2694852], [-98.4800479, 36.2694856], [-98.4804612, 36.2694838], [-98.4805088, 36.2694858], [-98.4805116, 36.2695521], [-98.4803742, 36.269553], [-98.4800175, 36.2695555], [-98.4800169, 36.2694852]]]}, "properties": {"osm_id": 1069807440, "building": "retail", "name": "", "height": null, "height_m": null, "levels": null, "tract_id": "40093955300", "tract_name": "9553", "tags": {"building": "retail"}}}, {"type": "Feature", "geometry": {"type": "Polygon", "coordinates": [[[-98.4800175, 36.2695555], [-98.4800199, 36.269622], [-98.4803753, 36.2696189], [-98.4803742, 36.269553], [-98.4800175, 36.2695555]]]}, "properties": {"osm_id": 1069807441, "building": "retail", "name": "", "height": null, "height_m": null, "levels": null, "tract_id": "40093955300", "tract_name": "9553", "tags": {"building": "retail"}}}, {"type": "Feature", "geometry": {"type": "Polygon", "coordinates": [[[-98.4803753, 36.2696189], [-98.4803762, 36.2696879], [-98.4803069, 36.2696885], [-98.4800209, 36.2696911], [-98.4800199, 36.269622], [-98.4803753, 36.2696189]]]}, "properties": {"osm_id": 1069807442, "building": "retail", "name": "", "height": null, "height_m": null, "levels": null, "tract_id": "40093955300", "tract_name": "9553", "tags": {"building": "retail"}}}, {"type": "Feature", "geometry": {"type": "Polygon", "coordinates": [[[-98.4803762, 36.2696879], [-98.480513, 36.2696864], [-98.4805116, 36.2695521], [-98.4803742, 36.269553], [-98.4803753, 36.2696189], [-98.4803762, 36.2696879]]]}, "properties": {"osm_id": 1069807443, "building": "retail", "name": "", "height": null, "height_m": null, "levels": null, "tract_id": "40093955300", "tract_name": "9553", "tags": {"building": "retail"}}}, {"type": "Feature", "geometry": {"type": "Polygon", "coordinates": [[[-98.4803069, 36.2696885], [-98.4803073, 36.2697575], [-98.4800241, 36.2697564], [-98.4800209, 36.2696911], [-98.4803069, 36.2696885]]]}, "properties": {"osm_id": 1069807444, "building": "retail", "name": "", "height": null, "height_m": null, "levels": null, "tract_id": "40093955300", "tract_name": "9553", "tags": {"building": "retail"}}}, {"type": "Feature", "geometry": {"type": "Polygon", "coordinates": [[[-98.4800241, 36.2697564], [-98.4800244, 36.2698937], [-98.4803174, 36.2698906], [-98.4803183, 36.2697576], [-98.4803073, 36.2697575], [-98.4800241, 36.2697564]]]}, "properties": {"osm_id": 1069807445, "building": "retail", "name": "", "height": null, "height_m": null, "levels": null, "tract_id": "40093955300", "tract_name": "9553", "tags": {"building": "retail"}}}, {"type": "Feature", "geometry": {"type": "Polygon", "coordinates": [[[-98.4800244, 36.2698937], [-98.4800266, 36.2700312], [-98.4803843, 36.2700276], [-98.4803821, 36.2698899], [-98.4803174, 36.2698906], [-98.4800244, 36.2698937]]]}, "properties": {"osm_id": 1069807446, "building": "retail", "name": "", "height": null, "height_m": null, "levels": null, "tract_id": "40093955300", "tract_name": "9553", "tags": {"building": "retail"}}}, {"type": "Feature", "geometry": {"type": "Polygon", "coordinates": [[[-98.4802922, 36.2693476], [-98.4802912, 36.269202], [-98.4800474, 36.2692031], [-98.4800481, 36.2693479], [-98.4802922, 36.2693476]]]}, "properties": {"osm_id": 1069807447, "building": "retail", "name": "", "height": null, "height_m": null, "levels": null, "tract_id": "40093955300", "tract_name": "9553", "tags": {"building": "retail"}}}, {"type": "Feature", "geometry": {"type": "Polygon", "coordinates": [[[-98.480026, 36.2682549], [-98.480024, 36.2685603], [-98.4802344, 36.268561], [-98.4804841, 36.2685618], [-98.4804846, 36.2684575], [-98.480392, 36.2684572], [-98.4803924, 36.2683848], [-98.480524, 36.2683853], [-98.4805247, 36.2682569], [-98.480436, 36.268257], [-98.480026, 36.2682549]]]}, "properties": {"osm_id": 1069808402, "building": "retail", "name": "", "height": null, "height_m": null, "levels": null, "tract_id": "40093955300", "tract_name": "9553", "tags": {"building": "retail"}}}, {"type": "Feature", "geometry": {"type": "Polygon", "coordinates": [[[-98.480024, 36.2685603], [-98.4800235, 36.2686707], [-98.480248, 36.2686698], [-98.4803897, 36.2686692], [-98.4803892, 36.268591], [-98.4802346, 36.2685917], [-98.4802344, 36.268561], [-98.480024, 36.2685603]]]}, "properties": {"osm_id": 1069808403, "building": "retail", "name": "", "height": null, "height_m": null, "levels": null, "tract_id": "40093955300", "tract_name": "9553", "tags": {"building": "retail"}}}, {"type": "Feature", "geometry": {"type": "Polygon", "coordinates": [[[-98.4800235, 36.2686707], [-98.4800247, 36.2687343], [-98.480248, 36.2687352], [-98.480248, 36.2686698], [-98.4800235, 36.2686707]]]}, "properties": {"osm_id": 1069808404, "building": "retail", "name": "", "height": null, "height_m": null, "levels": null, "tract_id": "40093955300", "tract_name": "9553", "tags": {"building": "retail"}}}, {"type": "Feature", "geometry": {"type": "Polygon", "coordinates": [[[-98.4800247, 36.2687343], [-98.4800243, 36.2688007], [-98.4803029, 36.2688017], [-98.4803193, 36.2688018], [-98.4803197, 36.2687355], [-98.480248, 36.2687352], [-98.4800247, 36.2687343]]]}, "properties": {"osm_id": 1069808405, "building": "retail", "name": "", "height": null, "height_m": null, "levels": null, "tract_id": "40093955300", "tract_name": "9553", "tags": {"building": "retail"}}}, {"type": "Feature", "geometry": {"type": "Polygon", "coordinates": [[[-98.4800243, 36.2688007], [-98.4800239, 36.2688663], [-98.4802802, 36.2688663], [-98.480304, 36.2688663], [-98.4803029, 36.2688017], [-98.4800243, 36.2688007]]]}, "properties": {"osm_id": 1069808406, "building": "retail", "name": "", "height": null, "height_m": null, "levels": null, "tract_id": "40093955300", "tract_name": "9553", "tags": {"building": "retail"}}}, {"type": "Feature", "geometry": {"type": "Polygon", "coordinates": [[[-98.4800239, 36.2688663], [-98.4800215, 36.2689346], [-98.480279, 36.2689355], [-98.4802802, 36.2688663], [-98.4800239, 36.2688663]]]}, "properties": {"osm_id": 1069808407, "building": "retail", "name": "", "height": null, "height_m": null, "levels": null, "tract_id": "40093955300", "tract_name": "9553", "tags": {"building": "retail"}}}, {"type": "Feature", "geometry": {"type": "Polygon", "coordinates": [[[-98.4803176, 36.2688148], [-98.4803173, 36.268945], [-98.480514, 36.2689453], [-98.4805143, 36.2688151], [-98.4803176, 36.2688148]]]}, "properties": {"osm_id": 1069808408, "building": "retail", "name": "", "height": null, "height_m": null, "levels": null, "tract_id": "40093955300", "tract_name": "9553", "tags": {"building": "retail"}}}, {"type": "Feature", "geometry": {"type": "Polygon", "coordinates": [[[-98.480436, 36.268257], [-98.4804372, 36.2681134], [-98.4800271, 36.2681112], [-98.480026, 36.2682549], [-98.480436, 36.268257]]]}, "properties": {"osm_id": 1069808409, "building": "retail", "name": "", "height": null, "height_m": null, "levels": null, "tract_id": "40093955300", "tract_name": "9553", "tags": {"building": "retail"}}}, {"type": "Feature", "geometry": {"type": "Polygon", "coordinates": [[[-98.4796988, 36.26859], [-98.479697, 36.2683196], [-98.4796758, 36.2683204], [-98.4793822, 36.2683204], [-98.4792264, 36.2683233], [-98.4792318, 36.2685941], [-98.4796988, 36.26859]]]}, "properties": {"osm_id": 1069808410, "building": "retail", "name": "", "height": null, "height_m": null, "levels": null, "tract_id": "40093955300", "tract_name": "9553", "tags": {"building": "retail"}}}, {"type": "Feature", "geometry": {"type": "Polygon", "coordinates": [[[-98.4796758, 36.2683204], [-98.4796755, 36.2682502], [-98.4793823, 36.2682487], [-98.4793822, 36.2683204], [-98.4796758, 36.2683204]]]}, "properties": {"osm_id": 1069808411, "building": "retail", "name": "", "height": null, "height_m": null, "levels": null, "tract_id": "40093955300", "tract_name": "9553", "tags": {"building": "retail"}}}, {"type": "Feature", "geometry": {"type": "Polygon", "coordinates": [[[-98.4796755, 36.2682502], [-98.4796765, 36.2681167], [-98.4792213, 36.2681145], [-98.4792203, 36.268248], [-98.4793823, 36.2682487], [-98.4796755, 36.2682502]]]}, "properties": {"osm_id": 1069808412, "building": "retail", "name": "", "height": null, "height_m": null, "levels": null, "tract_id": "40093955300", "tract_name": "9553", "tags": {"building": "retail"}}}, {"type": "Feature", "geometry": {"type": "Polygon", "coordinates": [[[-98.4796988, 36.26859], [-98.4796998, 36.2686626], [-98.4792328, 36.2686667], [-98.4792318, 36.2685941], [-98.4796988, 36.26859]]]}, "properties": {"osm_id": 1069808413, "building": "retail", "name": "", "height": null, "height_m": null, "levels": null, "tract_id": "40093955300", "tract_name": "9553", "tags": {"building": "retail"}}}, {"type": "Feature", "geometry": {"type": "Polygon", "coordinates": [[[-98.4792328, 36.2686667], [-98.479237, 36.2687284], [-98.4793171, 36.2687303], [-98.4796997, 36.2687345], [-98.4796998, 36.2686626], [-98.4792328, 36.2686667]]]}, "properties": {"osm_id": 1069808414, "building": "retail", "name": "", "height": null, "height_m": null, "levels": null, "tract_id": "40093955300", "tract_name": "9553", "tags": {"building": "retail"}}}, {"type": "Feature", "geometry": {"type": "Polygon", "coordinates": [[[-98.4796997, 36.2687345], [-98.4797009, 36.268801], [-98.479317, 36.2687995], [-98.4793171, 36.2687303], [-98.4796997, 36.2687345]]]}, "properties": {"osm_id": 1069808415, "building": "retail", "name": "", "height": null, "height_m": null, "levels": null, "tract_id": "40093955300", "tract_name": "9553", "tags": {"building": "retail"}}}, {"type": "Feature", "geometry": {"type": "Polygon", "coordinates": [[[-98.4797009, 36.268801], [-98.4797, 36.2689514], [-98.4792306, 36.2689497], [-98.4792312, 36.2688439], [-98.4793167, 36.2688443], [-98.479317, 36.2687995], [-98.4797009, 36.268801]]]}, "properties": {"osm_id": 1069808416, "building": "retail", "name": "", "height": null, "height_m": null, "levels": null, "tract_id": "40093955300", "tract_name": "9553", "tags": {"building": "retail"}}}, {"type": "Feature", "geometry": {"type": "Polygon", "coordinates": [[[-98.4784037, 36.2684861], [-98.4784046, 36.2683719], [-98.4783214, 36.2683715], [-98.4783225, 36.2682377], [-98.4784067, 36.2682381], [-98.4784075, 36.2681284], [-98.4779647, 36.268126], [-98.4779641, 36.2682085], [-98.4775477, 36.2682063], [-98.4775461, 36.2684046], [-98.4779545, 36.2684067], [-98.4779539, 36.2684838], [-98.4784037, 36.2684861]]]}, "properties": {"osm_id": 1069808417, "building": "yes", "name": "", "height": null, "height_m": null, "levels": null, "tract_id": "40093955300", "tract_name": "9553", "tags": {"amenity": "townhall", "building": "yes"}}}, {"type": "Feature", "geometry": {"type": "Polygon", "coordinates": [[[-98.4756552, 36.2693939], [-98.4754938, 36.2693936], [-98.475494, 36.2693181], [-98.475417, 36.269318], [-98.4754172, 36.2692532], [-98.4751342, 36.2692527], [-98.4751334, 36.2695483], [-98.4759386, 36.2695497], [-98.4759389, 36.2694364], [-98.4757846, 36.2694361], [-98.4757852, 36.2692499], [-98.4756556, 36.2692496], [-98.4756552, 36.2693939]]]}, "properties": {"osm_id": 1069808568, "building": "church", "name": "First Baptist Church", "height": null, "height_m": null, "levels": null, "tract_id": "40093955300", "tract_name": "9553", "tags": {"amenity": "place_of_worship", "building": "church", "denomination": "baptist", "ele": "395", "gnis:feature_id": "1798194", "name": "First Baptist Church", "religion": "christian"}}}, {"type": "Feature", "geometry": {"type": "Polygon", "coordinates": [[[-98.4778658, 36.269229], [-98.4776696, 36.2692287], [-98.4776694, 36.2693086], [-98.4777413, 36.2693087], [-98.4777411, 36.2694039], [-98.477639, 36.2694038], [-98.4776388, 36.2694759], [-98.4775562, 36.2694758], [-98.4775564, 36.2693659], [-98.4774386, 36.2693658], [-98.4774382, 36.2695853], [-98.4778651, 36.2695858], [-98.4778658, 36.269229]]]}, "properties": {"osm_id": 1069808569, "building": "church", "name": "First United Methodist Church", "height": null, "height_m": null, "levels": null, "tract_id": "40093955300", "tract_name": "9553", "tags": {"amenity": "place_of_worship", "building": "church", "denomination": "methodist", "ele": "396", "gnis:feature_id": "1798193", "name": "First United Methodist Church", "religion": "christian"}}}, {"type": "Feature", "geometry": {"type": "Polygon", "coordinates": [[[-98.4743625, 36.2691827], [-98.4743686, 36.2689416], [-98.4741076, 36.2689373], [-98.4741016, 36.2691784], [-98.4743625, 36.2691827]]]}, "properties": {"osm_id": 1069808570, "building": "yes", "name": "Major County Court House", "height": null, "height_m": null, "levels": null, "tract_id": "40093955300", "tract_name": "9553", "tags": {"amenity": "courthouse", "building": "yes", "name": "Major County Court House"}}}, {"type": "Feature", "geometry": {"type": "Polygon", "coordinates": [[[-98.4783145, 36.2664027], [-98.478316, 36.2662885], [-98.4781696, 36.2662872], [-98.4781729, 36.2660404], [-98.4780364, 36.2660393], [-98.4780317, 36.2664003], [-98.4783145, 36.2664027]]]}, "properties": {"osm_id": 1069808638, "building": "church", "name": "First Assembly of God Church", "height": null, "height_m": null, "levels": null, "tract_id": "40093955300", "tract_name": "9553", "tags": {"amenity": "place_of_worship", "building": "church", "name": "First Assembly of God Church", "religion": "christian"}}}, {"type": "Feature", "geometry": {"type": "Polygon", "coordinates": [[[-98.4796817, 36.2692765], [-98.479682, 36.2691996], [-98.479226, 36.2691984], [-98.4792257, 36.2692752], [-98.4792657, 36.2692753], [-98.4796817, 36.2692765]]]}, "properties": {"osm_id": 1069808814, "building": "retail", "name": "", "height": null, "height_m": null, "levels": null, "tract_id": "40093955300", "tract_name": "9553", "tags": {"building": "retail"}}}, {"type": "Feature", "geometry": {"type": "Polygon", "coordinates": [[[-98.4796817, 36.2692765], [-98.4796794, 36.2693484], [-98.4794103, 36.2693455], [-98.4792651, 36.2693453], [-98.4792657, 36.2692753], [-98.4796817, 36.2692765]]]}, "properties": {"osm_id": 1069808815, "building": "retail", "name": "", "height": null, "height_m": null, "levels": null, "tract_id": "40093955300", "tract_name": "9553", "tags": {"building": "retail"}}}, {"type": "Feature", "geometry": {"type": "Polygon", "coordinates": [[[-98.4794103, 36.2693455], [-98.4794092, 36.2694112], [-98.4794302, 36.269413], [-98.4796786, 36.2694139], [-98.4796794, 36.2693484], [-98.4794103, 36.2693455]]]}, "properties": {"osm_id": 1069808816, "building": "retail", "name": "", "height": null, "height_m": null, "levels": null, "tract_id": "40093955300", "tract_name": "9553", "tags": {"building": "retail"}}}, {"type": "Feature", "geometry": {"type": "Polygon", "coordinates": [[[-98.4794302, 36.269413], [-98.4794298, 36.2694804], [-98.4796787, 36.2694812], [-98.4796786, 36.2694139], [-98.4794302, 36.269413]]]}, "properties": {"osm_id": 1069808817, "building": "retail", "name": "", "height": null, "height_m": null, "levels": null, "tract_id": "40093955300", "tract_name": "9553", "tags": {"building": "retail"}}}, {"type": "Feature", "geometry": {"type": "Polygon", "coordinates": [[[-98.4796787, 36.2694812], [-98.4796791, 36.2696142], [-98.4794251, 36.2696149], [-98.4794246, 36.2695483], [-98.4793142, 36.2695479], [-98.4793145, 36.2694801], [-98.4794298, 36.2694804], [-98.4796787, 36.2694812]]]}, "properties": {"osm_id": 1069808818, "building": "retail", "name": "", "height": null, "height_m": null, "levels": null, "tract_id": "40093955300", "tract_name": "9553", "tags": {"building": "retail"}}}, {"type": "Feature", "geometry": {"type": "Polygon", "coordinates": [[[-98.4796791, 36.2696142], [-98.4796768, 36.2697455], [-98.4792288, 36.2697452], [-98.4792274, 36.2696275], [-98.4794252, 36.2696269], [-98.4794251, 36.2696149], [-98.4796791, 36.2696142]]]}, "properties": {"osm_id": 1069808819, "building": "retail", "name": "", "height": null, "height_m": null, "levels": null, "tract_id": "40093955300", "tract_name": "9553", "tags": {"building": "retail"}}}, {"type": "Feature", "geometry": {"type": "Polygon", "coordinates": [[[-98.4796768, 36.2697455], [-98.4796766, 36.2698914], [-98.4793499, 36.2698911], [-98.4792896, 36.2698911], [-98.4792897, 36.269828], [-98.4792287, 36.2698279], [-98.4792288, 36.2697452], [-98.4796768, 36.2697455]]]}, "properties": {"osm_id": 1069808820, "building": "retail", "name": "", "height": null, "height_m": null, "levels": null, "tract_id": "40093955300", "tract_name": "9553", "tags": {"building": "retail"}}}, {"type": "Feature", "geometry": {"type": "Polygon", "coordinates": [[[-98.4796766, 36.2698914], [-98.4796762, 36.2699649], [-98.4794582, 36.2699639], [-98.4793493, 36.2699634], [-98.4793499, 36.2698911], [-98.4796766, 36.2698914]]]}, "properties": {"osm_id": 1069808821, "building": "retail", "name": "", "height": null, "height_m": null, "levels": null, "tract_id": "40093955300", "tract_name": "9553", "tags": {"building": "retail"}}}, {"type": "Feature", "geometry": {"type": "Polygon", "coordinates": [[[-98.4794582, 36.2699639], [-98.4794588, 36.2700271], [-98.4796758, 36.2700258], [-98.4796762, 36.2699649], [-98.4794582, 36.2699639]]]}, "properties": {"osm_id": 1069808822, "building": "retail", "name": "", "height": null, "height_m": null, "levels": null, "tract_id": "40093955300", "tract_name": "9553", "tags": {"building": "retail"}}}, {"type": "Feature", "geometry": {"type": "Polygon", "coordinates": [[[-98.468951, 36.2744499], [-98.4684609, 36.2744471], [-98.4684638, 36.2741118], [-98.4689539, 36.2741147], [-98.468951, 36.2744499]]]}, "properties": {"osm_id": 1261915494, "building": "retail", "name": "", "height": null, "height_m": null, "levels": null, "tract_id": "40093955300", "tract_name": "9553", "tags": {"addr:city": "Fairview", "addr:housenumber": "820", "addr:postcode": "73737", "addr:street": "East State Road", "building": "retail", "operator": "Doc's Foods", "shop": "supermarket", "survey:date": "2020-02-27"}}}, {"type": "Feature", "geometry": {"type": "Polygon", "coordinates": [[[-98.469718, 36.2744543], [-98.468951, 36.2744499], [-98.4689539, 36.2741147], [-98.4689543, 36.2740777], [-98.4697213, 36.2740821], [-98.469718, 36.2744543]]]}, "properties": {"osm_id": 1261915495, "building": "retail", "name": "Shopko", "height": null, "height_m": null, "levels": null, "tract_id": "40093955300", "tract_name": "9553", "tags": {"addr:city": "Fairview", "addr:postcode": "73737", "addr:street": "East State Road", "brand": "Shopko", "brand:wikidata": "Q7501155", "building": "retail", "name": "Shopko", "shop": "department_store", "survey:date": "2020-02-27"}}}, {"type": "Feature", "geometry": {"type": "Polygon", "coordinates": [[[-98.4686086, 36.2747728], [-98.4686095, 36.2746216], [-98.4685268, 36.2746213], [-98.4685259, 36.2747725], [-98.4686086, 36.2747728]]]}, "properties": {"osm_id": 1293511980, "building": "roof", "name": "", "height": null, "height_m": null, "levels": null, "tract_id": "40093955300", "tract_name": "9553", "tags": {"building": "roof", "layer": "1"}}}, {"type": "Feature", "geometry": {"type": "Polygon", "coordinates": [[[-98.4782281, 36.2883919], [-98.4781005, 36.2883933], [-98.4781214, 36.2875093], [-98.4782436, 36.2875089], [-98.4782281, 36.2883919]]]}, "properties": {"osm_id": 1320913093, "building": "hangar", "name": "", "height": null, "height_m": null, "levels": null, "tract_id": "40093955300", "tract_name": "9553", "tags": {"aeroway": "hangar", "building": "hangar"}}}, {"type": "Feature", "geometry": {"type": "Polygon", "coordinates": [[[-98.477835, 36.2883897], [-98.4777074, 36.2883911], [-98.4777283, 36.2875071], [-98.4778505, 36.2875067], [-98.477835, 36.2883897]]]}, "properties": {"osm_id": 1320913094, "building": "hangar", "name": "", "height": null, "height_m": null, "levels": null, "tract_id": "40093955300", "tract_name": "9553", "tags": {"aeroway": "hangar", "building": "hangar"}}}, {"type": "Feature", "geometry": {"type": "Polygon", "coordinates": [[[-98.4774842, 36.2883809], [-98.4772143, 36.2883821], [-98.477212, 36.2880364], [-98.4774817, 36.2880351], [-98.4774842, 36.2883809]]]}, "properties": {"osm_id": 1320913095, "building": "hangar", "name": "", "height": null, "height_m": null, "levels": null, "tract_id": "40093955300", "tract_name": "9553", "tags": {"aeroway": "hangar", "building": "hangar"}}}, {"type": "Feature", "geometry": {"type": "Polygon", "coordinates": [[[-98.4805194, 36.2724908], [-98.4805213, 36.2723201], [-98.4803412, 36.2723187], [-98.4803392, 36.2724894], [-98.4805194, 36.2724908]]]}, "properties": {"osm_id": 1323235074, "building": "retail", "name": "Love's", "height": null, "height_m": null, "levels": null, "tract_id": "40093955300", "tract_name": "9553", "tags": {"brand": "Love's", "brand:wikidata": "Q1872496", "building": "retail", "name": "Love's", "shop": "convenience"}}}, {"type": "Feature", "geometry": {"type": "Polygon", "coordinates": [[[-98.4800796, 36.2724311], [-98.4800785, 36.2722926], [-98.4801455, 36.2722923], [-98.4801466, 36.2724308], [-98.4800796, 36.2724311]]]}, "properties": {"osm_id": 1327535672, "building": "roof", "name": "", "height": null, "height_m": null, "levels": null, "tract_id": "40093955300", "tract_name": "9553", "tags": {"building": "roof", "layer": "1"}}}]}