{"type": "FeatureCollection", "features": [{"type": "Feature", "geometry": {"type": "Polygon", "coordinates": [[[-97.4257978, 35.880553], [-97.4257978, 35.880227], [-97.4256315, 35.880227], [-97.4256315, 35.8805574], [-97.4257978, 35.880553]]]}, "properties": {"osm_id": 192348078, "building": "retail", "name": "Cornwell Pharmacy", "height": null, "height_m": null, "levels": null, "tract_id": "40083600200", "tract_name": "6002", "tags": {"addr:city": "Guthrie", "addr:housenumber": "102", "addr:postcode": "73044", "addr:state": "OK", "addr:street": "West Noble Avenue", "amenity": "pharmacy", "building": "retail", "healthcare": "pharmacy", "name": "Cornwell Pharmacy"}}}, {"type": "Feature", "geometry": {"type": "Polygon", "coordinates": [[[-97.4229986, 35.8805053], [-97.4230898, 35.8805031], [-97.4230924, 35.8805225], [-97.4232025, 35.8805205], [-97.4232051, 35.8805031], [-97.4232642, 35.8805053], [-97.4232642, 35.8804705], [-97.4233232, 35.880477], [-97.4233795, 35.8804596], [-97.4234117, 35.8804162], [-97.4234144, 35.8803749], [-97.4233768, 35.8803358], [-97.423315, 35.8803183], [-97.4231971, 35.8803249], [-97.4231971, 35.8803097], [-97.4230682, 35.8803161], [-97.4230657, 35.8802988], [-97.4230119, 35.880303], [-97.4230092, 35.8803422], [-97.4229824, 35.8803443], [-97.4229691, 35.8804531], [-97.4230013, 35.8804531], [-97.4229986, 35.8805053]]]}, "properties": {"osm_id": 192374977, "building": "church", "name": "First United Methodist Church", "height": null, "height_m": null, "levels": null, "tract_id": "40083600200", "tract_name": "6002", "tags": {"addr:city": "Guthrie", "addr:housenumber": "310", "addr:postcode": "73044", "addr:state": "OK", "addr:street": "East Noble Avenue", "amenity": "place_of_worship", "building": "church", "name": "First United Methodist Church", "religion": "christian"}}}, {"type": "Feature", "geometry": {"type": "Polygon", "coordinates": [[[-97.4261435, 35.8802467], [-97.4260577, 35.8802423], [-97.4260577, 35.8804923], [-97.4261435, 35.8804923], [-97.4261435, 35.8802467]]]}, "properties": {"osm_id": 192454000, "building": "yes", "name": "Roma's Italian Restaurant", "height": null, "height_m": null, "levels": null, "tract_id": "40083600200", "tract_name": "6002", "tags": {"addr:city": "Guthrie", "addr:housenumber": "112", "addr:postcode": "73044", "addr:state": "OK", "addr:street": "West Noble Avenue", "amenity": "restaurant", "building": "yes", "cuisine": "italian", "name": "Roma's Italian Restaurant"}}}, {"type": "Feature", "geometry": {"type": "Polygon", "coordinates": [[[-97.4271055, 35.8802247], [-97.4271063, 35.8803683], [-97.4274471, 35.8803619], [-97.4274471, 35.8802184], [-97.4271055, 35.8802247]]]}, "properties": {"osm_id": 192472375, "building": "yes", "name": "", "height": null, "height_m": null, "levels": null, "tract_id": "40083600200", "tract_name": "6002", "tags": {"building": "yes"}}}, {"type": "Feature", "geometry": {"type": "Polygon", "coordinates": [[[-97.4345819, 35.9018111], [-97.4345122, 35.9018133], [-97.4345148, 35.9019067], [-97.4345846, 35.9019045], [-97.4345819, 35.9018111]]]}, "properties": {"osm_id": 192574939, "building": "yes", "name": "", "height": null, "height_m": null, "levels": null, "tract_id": "40083600200", "tract_name": "6002", "tags": {"building": "yes"}}}, {"type": "Feature", "geometry": {"type": "Polygon", "coordinates": [[[-97.4553278, 35.8745593], [-97.4554574, 35.8745604], [-97.4554574, 35.8744701], [-97.4554386, 35.8744701], [-97.4554359, 35.8744266], [-97.4553286, 35.8744245], [-97.4553278, 35.8745593]]]}, "properties": {"osm_id": 192670990, "building": "house", "name": "", "height": null, "height_m": null, "levels": null, "tract_id": "40083600200", "tract_name": "6002", "tags": {"building": "house"}}}, {"type": "Feature", "geometry": {"type": "Polygon", "coordinates": [[[-97.4554547, 35.8745853], [-97.4553581, 35.8745983], [-97.4553883, 35.8747473], [-97.455492, 35.8747311], [-97.4554547, 35.8745853]]]}, "properties": {"osm_id": 192670992, "building": "house", "name": "", "height": null, "height_m": null, "levels": null, "tract_id": "40083600200", "tract_name": "6002", "tags": {"building": "house"}}}, {"type": "Feature", "geometry": {"type": "Polygon", "coordinates": [[[-97.4557497, 35.8750374], [-97.4556056, 35.8751472], [-97.4556961, 35.8752373], [-97.4557793, 35.8751743], [-97.455739, 35.8751417], [-97.4558088, 35.875096], [-97.4557497, 35.8750374]]]}, "properties": {"osm_id": 192671221, "building": "house", "name": "", "height": null, "height_m": null, "levels": null, "tract_id": "40083600200", "tract_name": "6002", "tags": {"building": "house"}}}, {"type": "Feature", "geometry": {"type": "Polygon", "coordinates": [[[-97.4555405, 35.8747679], [-97.4554098, 35.8748147], [-97.4554762, 35.8749287], [-97.4555995, 35.8748787], [-97.4555405, 35.8747679]]]}, "properties": {"osm_id": 192671223, "building": "house", "name": "", "height": null, "height_m": null, "levels": null, "tract_id": "40083600200", "tract_name": "6002", "tags": {"building": "house"}}}, {"type": "Feature", "geometry": {"type": "Polygon", "coordinates": [[[-97.4556344, 35.8749135], [-97.4555224, 35.8749864], [-97.4556317, 35.8750873], [-97.4557095, 35.8750352], [-97.4556532, 35.874983], [-97.4556666, 35.8749722], [-97.4556478, 35.8749569], [-97.4556639, 35.8749439], [-97.4556344, 35.8749135]]]}, "properties": {"osm_id": 192671225, "building": "house", "name": "", "height": null, "height_m": null, "levels": null, "tract_id": "40083600200", "tract_name": "6002", "tags": {"building": "house"}}}, {"type": "Feature", "geometry": {"type": "Polygon", "coordinates": [[[-97.4553045, 35.8742788], [-97.4553052, 35.8743865], [-97.455393, 35.8743853], [-97.455393, 35.8743419], [-97.4554729, 35.874342], [-97.4554733, 35.8742788], [-97.4553045, 35.8742788]]]}, "properties": {"osm_id": 192671445, "building": "house", "name": "", "height": null, "height_m": null, "levels": null, "tract_id": "40083600200", "tract_name": "6002", "tags": {"building": "house"}}}, {"type": "Feature", "geometry": {"type": "Polygon", "coordinates": [[[-97.4554413, 35.8740919], [-97.4553394, 35.8740919], [-97.4553367, 35.8742289], [-97.4554654, 35.8742289], [-97.4554648, 35.8741422], [-97.4554402, 35.8741401], [-97.4554413, 35.8740919]]]}, "properties": {"osm_id": 192671446, "building": "house", "name": "", "height": null, "height_m": null, "levels": null, "tract_id": "40083600200", "tract_name": "6002", "tags": {"building": "house"}}}, {"type": "Feature", "geometry": {"type": "Polygon", "coordinates": [[[-97.4554225, 35.8736181], [-97.4552696, 35.8736203], [-97.4552696, 35.873742], [-97.4553555, 35.873742], [-97.4553555, 35.8737007], [-97.4554252, 35.8736985], [-97.4554225, 35.8736181]]]}, "properties": {"osm_id": 192671447, "building": "house", "name": "", "height": null, "height_m": null, "levels": null, "tract_id": "40083600200", "tract_name": "6002", "tags": {"building": "house"}}}, {"type": "Feature", "geometry": {"type": "Polygon", "coordinates": [[[-97.4555244, 35.8755633], [-97.4553716, 35.8755611], [-97.4553749, 35.8756493], [-97.4554332, 35.8756503], [-97.4554332, 35.8756829], [-97.4555325, 35.8756829], [-97.4555244, 35.8755633]]]}, "properties": {"osm_id": 192671580, "building": "house", "name": "", "height": null, "height_m": null, "levels": null, "tract_id": "40083600200", "tract_name": "6002", "tags": {"building": "house"}}}, {"type": "Feature", "geometry": {"type": "Polygon", "coordinates": [[[-97.4555271, 35.875848], [-97.4554279, 35.8758502], [-97.4554252, 35.8760154], [-97.455511, 35.8760176], [-97.455511, 35.8759198], [-97.4555274, 35.8759199], [-97.4555271, 35.875848]]]}, "properties": {"osm_id": 192671605, "building": "house", "name": "", "height": null, "height_m": null, "levels": null, "tract_id": "40083600200", "tract_name": "6002", "tags": {"building": "house"}}}, {"type": "Feature", "geometry": {"type": "Polygon", "coordinates": [[[-97.4555137, 35.8762544], [-97.4554011, 35.8762523], [-97.4553991, 35.8763839], [-97.4555164, 35.8763827], [-97.4555137, 35.8762544]]]}, "properties": {"osm_id": 192671653, "building": "house", "name": "", "height": null, "height_m": null, "levels": null, "tract_id": "40083600200", "tract_name": "6002", "tags": {"building": "house"}}}, {"type": "Feature", "geometry": {"type": "Polygon", "coordinates": [[[-97.4555137, 35.8764196], [-97.4554011, 35.8764196], [-97.4553984, 35.87655], [-97.4555191, 35.8765478], [-97.4555137, 35.8764196]]]}, "properties": {"osm_id": 192671766, "building": "house", "name": "", "height": null, "height_m": null, "levels": null, "tract_id": "40083600200", "tract_name": "6002", "tags": {"building": "house"}}}, {"type": "Feature", "geometry": {"type": "Polygon", "coordinates": [[[-97.4554198, 35.8769086], [-97.4555271, 35.8769065], [-97.4555305, 35.8770467], [-97.4554225, 35.8770455], [-97.4554198, 35.8769086]]]}, "properties": {"osm_id": 192671942, "building": "house", "name": "", "height": null, "height_m": null, "levels": null, "tract_id": "40083600200", "tract_name": "6002", "tags": {"building": "house"}}}, {"type": "Feature", "geometry": {"type": "Polygon", "coordinates": [[[-97.4555164, 35.8765783], [-97.4553984, 35.8765783], [-97.4554017, 35.876712], [-97.4555191, 35.8767108], [-97.4555164, 35.8765783]]]}, "properties": {"osm_id": 192671943, "building": "house", "name": "", "height": null, "height_m": null, "levels": null, "tract_id": "40083600200", "tract_name": "6002", "tags": {"building": "house"}}}, {"type": "Feature", "geometry": {"type": "Polygon", "coordinates": [[[-97.4555072, 35.876749], [-97.4554084, 35.8767488], [-97.4554078, 35.8768798], [-97.455523, 35.87688], [-97.4555232, 35.876807], [-97.4555069, 35.8768069], [-97.4555072, 35.876749]]]}, "properties": {"osm_id": 192671944, "building": "house", "name": "", "height": null, "height_m": null, "levels": null, "tract_id": "40083600200", "tract_name": "6002", "tags": {"building": "house"}}}, {"type": "Feature", "geometry": {"type": "Polygon", "coordinates": [[[-97.4554306, 35.8770695], [-97.4555298, 35.8770695], [-97.4555271, 35.8772085], [-97.4554332, 35.8772085], [-97.4554306, 35.8770695]]]}, "properties": {"osm_id": 192671973, "building": "house", "name": "", "height": null, "height_m": null, "levels": null, "tract_id": "40083600200", "tract_name": "6002", "tags": {"building": "house"}}}, {"type": "Feature", "geometry": {"type": "Polygon", "coordinates": [[[-97.4553528, 35.8773063], [-97.455267, 35.8773085], [-97.455267, 35.8772955], [-97.4551784, 35.8772933], [-97.4551731, 35.8774585], [-97.4551945, 35.8774585], [-97.4551952, 35.877514], [-97.4552616, 35.8775128], [-97.4552623, 35.8775314], [-97.4553313, 35.8775302], [-97.4553313, 35.8774715], [-97.4553528, 35.8774759], [-97.4553528, 35.8773063]]]}, "properties": {"osm_id": 192671974, "building": "house", "name": "", "height": null, "height_m": null, "levels": null, "tract_id": "40083600200", "tract_name": "6002", "tags": {"building": "house"}}}, {"type": "Feature", "geometry": {"type": "Polygon", "coordinates": [[[-97.4554788, 35.8772911], [-97.455385, 35.877289], [-97.4553856, 35.8774575], [-97.4554064, 35.8774628], [-97.4554017, 35.8775162], [-97.4554735, 35.877515], [-97.4554715, 35.8775336], [-97.4555486, 35.8775302], [-97.4555459, 35.8774693], [-97.4555593, 35.8773107], [-97.4554815, 35.8773129], [-97.4554788, 35.8772911]]]}, "properties": {"osm_id": 192672358, "building": "yes", "name": "", "height": null, "height_m": null, "levels": null, "tract_id": "40083600200", "tract_name": "6002", "tags": {"building": "yes"}}}, {"type": "Feature", "geometry": {"type": "Polygon", "coordinates": [[[-97.4242553, 35.8803055], [-97.4242607, 35.8805032], [-97.4244672, 35.8805032], [-97.4244619, 35.8802859], [-97.4242929, 35.8802859], [-97.4242553, 35.8803055]]]}, "properties": {"osm_id": 193909380, "building": "retail", "name": "Napa Auto Parts & Machine", "height": null, "height_m": null, "levels": null, "tract_id": "40083600200", "tract_name": "6002", "tags": {"addr:city": "Guthrie", "addr:housenumber": "301", "addr:postcode": "73044", "addr:state": "OK", "addr:street": "N Wentz", "building": "retail", "name": "Napa Auto Parts & Machine", "shop": "car_parts"}}}, {"type": "Feature", "geometry": {"type": "Polygon", "coordinates": [[[-97.4377107, 35.8803466], [-97.4377107, 35.8804768], [-97.4376731, 35.8804781], [-97.4376731, 35.8805695], [-97.4377962, 35.8805695], [-97.4377996, 35.8803493], [-97.4377107, 35.8803466]]]}, "properties": {"osm_id": 194716618, "building": "yes", "name": "", "height": null, "height_m": null, "levels": null, "tract_id": "40083600200", "tract_name": "6002", "tags": {"building": "yes", "source": "Bing"}}}, {"type": "Feature", "geometry": {"type": "Polygon", "coordinates": [[[-97.4375364, 35.8802122], [-97.4375364, 35.880276], [-97.437697, 35.8802718], [-97.437697, 35.8802122], [-97.4375364, 35.8802122]]]}, "properties": {"osm_id": 194716620, "building": "retail", "name": "", "height": null, "height_m": null, "levels": null, "tract_id": "40083600200", "tract_name": "6002", "tags": {"building": "retail", "source": "Bing"}}}, {"type": "Feature", "geometry": {"type": "Polygon", "coordinates": [[[-97.4376953, 35.8809573], [-97.4376936, 35.8808576], [-97.4377415, 35.8808562], [-97.4377415, 35.8808424], [-97.4378269, 35.8808424], [-97.4378235, 35.8809629], [-97.4376953, 35.8809573]]]}, "properties": {"osm_id": 194716621, "building": "residential", "name": "", "height": null, "height_m": null, "levels": null, "tract_id": "40083600200", "tract_name": "6002", "tags": {"building": "residential", "source": "Bing"}}}, {"type": "Feature", "geometry": {"type": "Polygon", "coordinates": [[[-97.4376765, 35.8808604], [-97.4375911, 35.8808604], [-97.4375877, 35.8809753], [-97.4376714, 35.8809767], [-97.4376765, 35.8808604]]]}, "properties": {"osm_id": 194716622, "building": "residential", "name": "", "height": null, "height_m": null, "levels": null, "tract_id": "40083600200", "tract_name": "6002", "tags": {"building": "residential", "source": "Bing"}}}, {"type": "Feature", "geometry": {"type": "Polygon", "coordinates": [[[-97.4374031, 35.8808216], [-97.4374031, 35.8809545], [-97.4375466, 35.8809573], [-97.4375466, 35.8808216], [-97.4374031, 35.8808216]]]}, "properties": {"osm_id": 194716623, "building": "residential", "name": "", "height": null, "height_m": null, "levels": null, "tract_id": "40083600200", "tract_name": "6002", "tags": {"building": "residential", "source": "Bing"}}}, {"type": "Feature", "geometry": {"type": "Polygon", "coordinates": [[[-97.4373039, 35.8809573], [-97.4373056, 35.8808479], [-97.4371877, 35.8808493], [-97.4371894, 35.8809587], [-97.4372253, 35.8809587], [-97.4372253, 35.8809753], [-97.4372749, 35.8809753], [-97.4372749, 35.8809587], [-97.4373039, 35.8809573]]]}, "properties": {"osm_id": 194716624, "building": "residential", "name": "", "height": null, "height_m": null, "levels": null, "tract_id": "40083600200", "tract_name": "6002", "tags": {"building": "residential", "source": "Bing"}}}, {"type": "Feature", "geometry": {"type": "Polygon", "coordinates": [[[-97.4371176, 35.8808742], [-97.4371176, 35.8809559], [-97.4370971, 35.8809559], [-97.4370971, 35.8809725], [-97.4370356, 35.8809712], [-97.4370356, 35.8809532], [-97.4370219, 35.8809532], [-97.4370185, 35.8808742], [-97.4370304, 35.8808742], [-97.4370287, 35.880859], [-97.4370834, 35.880859], [-97.4370817, 35.8808728], [-97.4371176, 35.8808742]]]}, "properties": {"osm_id": 194716625, "building": "yes", "name": "", "height": null, "height_m": null, "levels": null, "tract_id": "40083600200", "tract_name": "6002", "tags": {"building": "yes", "source": "Bing"}}}, {"type": "Feature", "geometry": {"type": "Polygon", "coordinates": [[[-97.4368578, 35.8809698], [-97.4368578, 35.8808964], [-97.436974, 35.8808978], [-97.436974, 35.8809698], [-97.4368578, 35.8809698]]]}, "properties": {"osm_id": 194716626, "building": "residential", "name": "", "height": null, "height_m": null, "levels": null, "tract_id": "40083600200", "tract_name": "6002", "tags": {"building": "residential", "source": "Bing"}}}, {"type": "Feature", "geometry": {"type": "Polygon", "coordinates": [[[-97.4369176, 35.8808618], [-97.4368476, 35.880859], [-97.4368493, 35.8807939], [-97.4369142, 35.8807967], [-97.4369176, 35.8808618]]]}, "properties": {"osm_id": 194716627, "building": "yes", "name": "", "height": null, "height_m": null, "levels": null, "tract_id": "40083600200", "tract_name": "6002", "tags": {"building": "yes", "source": "Bing"}}}, {"type": "Feature", "geometry": {"type": "Polygon", "coordinates": [[[-97.4363331, 35.8808701], [-97.4363331, 35.8810182], [-97.4362408, 35.8810196], [-97.4362408, 35.8808687], [-97.4363331, 35.8808701]]]}, "properties": {"osm_id": 194716628, "building": "house", "name": "", "height": null, "height_m": null, "levels": null, "tract_id": "40083600200", "tract_name": "6002", "tags": {"building": "house", "source": "Bing"}}}, {"type": "Feature", "geometry": {"type": "Polygon", "coordinates": [[[-97.4364356, 35.8812772], [-97.4364356, 35.881388], [-97.4365365, 35.8813908], [-97.4365348, 35.8812786], [-97.4364356, 35.8812772]]]}, "properties": {"osm_id": 194716629, "building": "house", "name": "", "height": null, "height_m": null, "levels": null, "tract_id": "40083600200", "tract_name": "6002", "tags": {"building": "house", "source": "Bing"}}}, {"type": "Feature", "geometry": {"type": "Polygon", "coordinates": [[[-97.4362562, 35.8812911], [-97.4362579, 35.8813866], [-97.4363536, 35.8813839], [-97.436357, 35.8812911], [-97.4362562, 35.8812911]]]}, "properties": {"osm_id": 194716630, "building": "house", "name": "", "height": null, "height_m": null, "levels": null, "tract_id": "40083600200", "tract_name": "6002", "tags": {"building": "house", "source": "Bing"}}}, {"type": "Feature", "geometry": {"type": "Polygon", "coordinates": [[[-97.4361929, 35.8812883], [-97.4361058, 35.8812911], [-97.436104, 35.8813229], [-97.4360852, 35.8813215], [-97.4360852, 35.8814019], [-97.4361331, 35.8814005], [-97.4361331, 35.8813686], [-97.4361981, 35.8813672], [-97.4361929, 35.8812883]]]}, "properties": {"osm_id": 194716631, "building": "house", "name": "", "height": null, "height_m": null, "levels": null, "tract_id": "40083600200", "tract_name": "6002", "tags": {"building": "house", "source": "Bing"}}}, {"type": "Feature", "geometry": {"type": "Polygon", "coordinates": [[[-97.4361143, 35.8820181], [-97.4361143, 35.8818893], [-97.4361673, 35.8818866], [-97.4361656, 35.8819613], [-97.4361981, 35.8819627], [-97.4361981, 35.8820195], [-97.4361143, 35.8820181]]]}, "properties": {"osm_id": 194716632, "building": "house", "name": "", "height": null, "height_m": null, "levels": null, "tract_id": "40083600200", "tract_name": "6002", "tags": {"building": "house", "source": "Bing"}}}, {"type": "Feature", "geometry": {"type": "Polygon", "coordinates": [[[-97.4365023, 35.8818838], [-97.4365006, 35.8820084], [-97.4364049, 35.882007], [-97.4364015, 35.8818852], [-97.4365023, 35.8818838]]]}, "properties": {"osm_id": 194716633, "building": "house", "name": "", "height": null, "height_m": null, "levels": null, "tract_id": "40083600200", "tract_name": "6002", "tags": {"building": "house", "source": "Bing"}}}, {"type": "Feature", "geometry": {"type": "Polygon", "coordinates": [[[-97.4368527, 35.8819198], [-97.4368544, 35.8820084], [-97.4369501, 35.882007], [-97.4369501, 35.8819156], [-97.4368527, 35.8819198]]]}, "properties": {"osm_id": 194716634, "building": "house", "name": "", "height": null, "height_m": null, "levels": null, "tract_id": "40083600200", "tract_name": "6002", "tags": {"building": "house", "source": "Bing"}}}, {"type": "Feature", "geometry": {"type": "Polygon", "coordinates": [[[-97.437121, 35.8818796], [-97.4371227, 35.8820098], [-97.4370048, 35.8820084], [-97.4370031, 35.88196], [-97.4370629, 35.8819586], [-97.4370629, 35.8818769], [-97.437121, 35.8818796]]]}, "properties": {"osm_id": 194716635, "building": "house", "name": "", "height": null, "height_m": null, "levels": null, "tract_id": "40083600200", "tract_name": "6002", "tags": {"building": "house", "source": "Bing"}}}, {"type": "Feature", "geometry": {"type": "Polygon", "coordinates": [[[-97.4370304, 35.8818104], [-97.4370322, 35.8817675], [-97.436998, 35.8817675], [-97.4369963, 35.8818118], [-97.4370304, 35.8818104]]]}, "properties": {"osm_id": 194716636, "building": "shed", "name": "", "height": null, "height_m": null, "levels": null, "tract_id": "40083600200", "tract_name": "6002", "tags": {"building": "shed", "source": "Bing"}}}, {"type": "Feature", "geometry": {"type": "Polygon", "coordinates": [[[-97.4378355, 35.8820514], [-97.4378389, 35.8819309], [-97.4378218, 35.8819309], [-97.4378235, 35.8818049], [-97.4377039, 35.8818062], [-97.4377039, 35.8818616], [-97.4376629, 35.8818616], [-97.4376646, 35.8820541], [-97.4378355, 35.8820514]]]}, "properties": {"osm_id": 194716637, "building": "yes", "name": "", "height": null, "height_m": null, "levels": null, "tract_id": "40083600200", "tract_name": "6002", "tags": {"building": "yes", "source": "Bing"}}}, {"type": "Feature", "geometry": {"type": "Polygon", "coordinates": [[[-97.437227, 35.8818976], [-97.437227, 35.8820126], [-97.4373193, 35.8820126], [-97.4373176, 35.8819364], [-97.4373022, 35.8819364], [-97.4373005, 35.8818921], [-97.437227, 35.8818976]]]}, "properties": {"osm_id": 194716638, "building": "house", "name": "", "height": null, "height_m": null, "levels": null, "tract_id": "40083600200", "tract_name": "6002", "tags": {"building": "house", "source": "Bing"}}}, {"type": "Feature", "geometry": {"type": "Polygon", "coordinates": [[[-97.4375552, 35.8813174], [-97.4375552, 35.8813811], [-97.4375996, 35.8813825], [-97.4375979, 35.8814212], [-97.4375347, 35.8814212], [-97.4375347, 35.8814933], [-97.4374082, 35.8814946], [-97.4374099, 35.8814753], [-97.437374, 35.8814739], [-97.4373655, 35.8813215], [-97.4375552, 35.8813174]]]}, "properties": {"osm_id": 194716639, "building": "house", "name": "", "height": null, "height_m": null, "levels": null, "tract_id": "40083600200", "tract_name": "6002", "tags": {"building": "house", "source": "Bing"}}}, {"type": "Feature", "geometry": {"type": "Polygon", "coordinates": [[[-97.4376868, 35.8814669], [-97.4376902, 35.8813229], [-97.4378287, 35.8813215], [-97.4378252, 35.8813811], [-97.4377705, 35.8813839], [-97.4377688, 35.8814669], [-97.4376868, 35.8814669]]]}, "properties": {"osm_id": 194716640, "building": "house", "name": "", "height": null, "height_m": null, "levels": null, "tract_id": "40083600200", "tract_name": "6002", "tags": {"building": "house", "source": "Bing"}}}, {"type": "Feature", "geometry": {"type": "Polygon", "coordinates": [[[-97.439755, 35.8812495], [-97.4397498, 35.8814088], [-97.43989, 35.8814102], [-97.4398866, 35.8812537], [-97.439755, 35.8812495]]]}, "properties": {"osm_id": 194716643, "building": "house", "name": "", "height": null, "height_m": null, "levels": null, "tract_id": "40083600200", "tract_name": "6002", "tags": {"building": "house", "source": "Bing"}}}, {"type": "Feature", "geometry": {"type": "Polygon", "coordinates": [[[-97.4402438, 35.881244], [-97.4402404, 35.8813174], [-97.4403429, 35.8813188], [-97.4403429, 35.8813077], [-97.4403874, 35.8813077], [-97.4403891, 35.8812246], [-97.4403207, 35.881226], [-97.4403207, 35.881244], [-97.4402438, 35.881244]]]}, "properties": {"osm_id": 194716644, "building": "house", "name": "", "height": null, "height_m": null, "levels": null, "tract_id": "40083600200", "tract_name": "6002", "tags": {"building": "house", "source": "Bing"}}}, {"type": "Feature", "geometry": {"type": "Polygon", "coordinates": [[[-97.4402592, 35.8809448], [-97.4402592, 35.8809324], [-97.4402523, 35.8809227], [-97.4402541, 35.8808064], [-97.4402164, 35.8807884], [-97.4401652, 35.8807884], [-97.4401669, 35.8807288], [-97.4403703, 35.8807274], [-97.440372, 35.8808327], [-97.4403549, 35.8808327], [-97.4403498, 35.8809448], [-97.4402592, 35.8809448]]]}, "properties": {"osm_id": 194716645, "building": "yes", "name": "", "height": null, "height_m": null, "levels": null, "tract_id": "40083600200", "tract_name": "6002", "tags": {"building": "yes", "source": "Bing"}}}, {"type": "Feature", "geometry": {"type": "Polygon", "coordinates": [[[-97.439584, 35.8807939], [-97.4395806, 35.8808895], [-97.4395721, 35.880895], [-97.4395721, 35.8809352], [-97.4396199, 35.8809352], [-97.4396199, 35.8809476], [-97.4396473, 35.8809476], [-97.4396473, 35.8809338], [-97.439678, 35.8809338], [-97.439678, 35.8807897], [-97.439584, 35.8807939]]]}, "properties": {"osm_id": 194717340, "building": "yes", "name": "", "height": null, "height_m": null, "levels": null, "tract_id": "40083600200", "tract_name": "6002", "tags": {"building": "yes", "source": "Bing"}}}, {"type": "Feature", "geometry": {"type": "Polygon", "coordinates": [[[-97.4400336, 35.8808562], [-97.4400336, 35.8809268], [-97.4401293, 35.8809255], [-97.4401327, 35.8808396], [-97.4400934, 35.8808382], [-97.4400934, 35.8808534], [-97.4400336, 35.8808562]]]}, "properties": {"osm_id": 194717341, "building": "house", "name": "", "height": null, "height_m": null, "levels": null, "tract_id": "40083600200", "tract_name": "6002", "tags": {"building": "house", "source": "Bing"}}}, {"type": "Feature", "geometry": {"type": "Polygon", "coordinates": [[[-97.4399361, 35.8808257], [-97.4399361, 35.8809462], [-97.4399908, 35.8809448], [-97.4399891, 35.8808285], [-97.4399361, 35.8808257]]]}, "properties": {"osm_id": 194717342, "building": "yes", "name": "", "height": null, "height_m": null, "levels": null, "tract_id": "40083600200", "tract_name": "6002", "tags": {"building": "yes", "source": "Bing"}}}, {"type": "Feature", "geometry": {"type": "Polygon", "coordinates": [[[-97.4398985, 35.8809448], [-97.4398438, 35.8809435], [-97.4398455, 35.880895], [-97.439825, 35.880895], [-97.4398267, 35.8808382], [-97.4398985, 35.8808382], [-97.4398985, 35.8809448]]]}, "properties": {"osm_id": 194717343, "building": "yes", "name": "", "height": null, "height_m": null, "levels": null, "tract_id": "40083600200", "tract_name": "6002", "tags": {"building": "yes", "source": "Bing"}}}, {"type": "Feature", "geometry": {"type": "Polygon", "coordinates": [[[-97.439731, 35.8807191], [-97.4397344, 35.8807828], [-97.4396524, 35.8807828], [-97.4396507, 35.8807233], [-97.439731, 35.8807191]]]}, "properties": {"osm_id": 194717344, "building": "yes", "name": "", "height": null, "height_m": null, "levels": null, "tract_id": "40083600200", "tract_name": "6002", "tags": {"building": "yes", "source": "Bing"}}}, {"type": "Feature", "geometry": {"type": "Polygon", "coordinates": [[[-97.439543, 35.8809504], [-97.439543, 35.8808853], [-97.4395635, 35.8808631], [-97.4395618, 35.880823], [-97.4395721, 35.880823], [-97.4395687, 35.8806374], [-97.4394319, 35.8806388], [-97.4394268, 35.8807551], [-97.4394097, 35.8807551], [-97.4394114, 35.8808077], [-97.4394011, 35.8808077], [-97.4394011, 35.880949], [-97.439543, 35.8809504]]]}, "properties": {"osm_id": 194717345, "building": "yes", "name": "", "height": null, "height_m": null, "levels": null, "tract_id": "40083600200", "tract_name": "6002", "tags": {"building": "yes", "source": "Bing"}}}, {"type": "Feature", "geometry": {"type": "Polygon", "coordinates": [[[-97.4393875, 35.8803992], [-97.4393841, 35.8802773], [-97.4394182, 35.8802773], [-97.4394165, 35.8802233], [-97.439502, 35.8802247], [-97.4395481, 35.8802275], [-97.4395464, 35.8802967], [-97.4395345, 35.8802967], [-97.4395345, 35.8803189], [-97.4395037, 35.8803189], [-97.4395037, 35.8803272], [-97.4394473, 35.8803272], [-97.4394473, 35.8803978], [-97.4393875, 35.8803992]]]}, "properties": {"osm_id": 194717346, "building": "house", "name": "", "height": null, "height_m": null, "levels": null, "tract_id": "40083600200", "tract_name": "6002", "tags": {"building": "house", "source": "Bing"}}}, {"type": "Feature", "geometry": {"type": "Polygon", "coordinates": [[[-97.4395926, 35.8803466], [-97.4395909, 35.8802344], [-97.4396045, 35.8802302], [-97.4396028, 35.8802136], [-97.4396746, 35.8802122], [-97.4396746, 35.8802302], [-97.4396849, 35.8802302], [-97.4396832, 35.8803064], [-97.4397037, 35.880305], [-97.439702, 35.8803507], [-97.4395926, 35.8803466]]]}, "properties": {"osm_id": 194717347, "building": "house", "name": "", "height": null, "height_m": null, "levels": null, "tract_id": "40083600200", "tract_name": "6002", "tags": {"building": "house", "source": "Bing"}}}, {"type": "Feature", "geometry": {"type": "Polygon", "coordinates": [[[-97.439731, 35.8802302], [-97.4397327, 35.880305], [-97.4397225, 35.880305], [-97.4397242, 35.880348], [-97.4398011, 35.8803493], [-97.4397994, 35.880312], [-97.4398216, 35.880312], [-97.4398216, 35.8802289], [-97.4398079, 35.8802302], [-97.4398079, 35.880215], [-97.4397464, 35.8802178], [-97.4397464, 35.8802316], [-97.439731, 35.8802302]]]}, "properties": {"osm_id": 194717348, "building": "house", "name": "", "height": null, "height_m": null, "levels": null, "tract_id": "40083600200", "tract_name": "6002", "tags": {"building": "house", "source": "Bing"}}}, {"type": "Feature", "geometry": {"type": "Polygon", "coordinates": [[[-97.4398831, 35.8803452], [-97.439878, 35.8802302], [-97.4398934, 35.8802302], [-97.4398917, 35.880215], [-97.4399737, 35.880215], [-97.4399703, 35.88033], [-97.4399515, 35.8803272], [-97.4399498, 35.880348], [-97.4398831, 35.8803452]]]}, "properties": {"osm_id": 194717349, "building": "house", "name": "", "height": null, "height_m": null, "levels": null, "tract_id": "40083600200", "tract_name": "6002", "tags": {"building": "house", "source": "Bing"}}}, {"type": "Feature", "geometry": {"type": "Polygon", "coordinates": [[[-97.4400575, 35.8802289], [-97.4400575, 35.880359], [-97.4401771, 35.8803563], [-97.4401737, 35.8802344], [-97.4400575, 35.8802289]]]}, "properties": {"osm_id": 194717350, "building": "house", "name": "", "height": null, "height_m": null, "levels": null, "tract_id": "40083600200", "tract_name": "6002", "tags": {"building": "house", "source": "Bing"}}}, {"type": "Feature", "geometry": {"type": "Polygon", "coordinates": [[[-97.4404028, 35.8803286], [-97.440401, 35.8802441], [-97.4403019, 35.8802427], [-97.4403019, 35.880323], [-97.4403122, 35.880323], [-97.4403105, 35.8803854], [-97.4404369, 35.8803854], [-97.4404369, 35.8803286], [-97.4404028, 35.8803286]]]}, "properties": {"osm_id": 194717351, "building": "house", "name": "", "height": null, "height_m": null, "levels": null, "tract_id": "40083600200", "tract_name": "6002", "tags": {"building": "house", "source": "Bing"}}}, {"type": "Feature", "geometry": {"type": "Polygon", "coordinates": [[[-97.4402609, 35.8804754], [-97.4404079, 35.8804768], [-97.4404062, 35.8805529], [-97.4402985, 35.8805529], [-97.4402985, 35.8805405], [-97.4402558, 35.8805391], [-97.4402609, 35.8804754]]]}, "properties": {"osm_id": 194717352, "building": "house", "name": "", "height": null, "height_m": null, "levels": null, "tract_id": "40083600200", "tract_name": "6002", "tags": {"building": "house", "source": "Bing"}}}, {"type": "Feature", "geometry": {"type": "Polygon", "coordinates": [[[-97.4393649, 35.881499], [-97.4393649, 35.8815573], [-97.4394908, 35.8815573], [-97.4394895, 35.8815948], [-97.4395653, 35.8815896], [-97.4395628, 35.881498], [-97.4393649, 35.881499]]]}, "properties": {"osm_id": 194718122, "building": "yes", "name": "", "height": null, "height_m": null, "levels": null, "tract_id": "40083600200", "tract_name": "6002", "tags": {"building": "yes", "source": "Bing"}}}, {"type": "Feature", "geometry": {"type": "Polygon", "coordinates": [[[-97.4394047, 35.8812595], [-97.4394047, 35.8813012], [-97.439424, 35.8813001], [-97.439424, 35.8813449], [-97.439415, 35.8813449], [-97.439415, 35.8813814], [-97.4395242, 35.8813814], [-97.4395242, 35.8812523], [-97.439415, 35.8812554], [-97.4394047, 35.8812595]]]}, "properties": {"osm_id": 194718125, "building": "house", "name": "", "height": null, "height_m": null, "levels": null, "tract_id": "40083600200", "tract_name": "6002", "tags": {"building": "house", "source": "Bing"}}}, {"type": "Feature", "geometry": {"type": "Polygon", "coordinates": [[[-97.4394397, 35.8819701], [-97.4394387, 35.8819136], [-97.4394261, 35.881912], [-97.4394242, 35.8818398], [-97.439461, 35.8818398], [-97.439461, 35.8818107], [-97.4395414, 35.8818115], [-97.4395433, 35.8819724], [-97.4394397, 35.8819701]]]}, "properties": {"osm_id": 194718128, "building": "house", "name": "", "height": null, "height_m": null, "levels": null, "tract_id": "40083600200", "tract_name": "6002", "tags": {"building": "house", "source": "Bing"}}}, {"type": "Feature", "geometry": {"type": "Polygon", "coordinates": [[[-97.439645, 35.8819913], [-97.439645, 35.8819763], [-97.4396315, 35.8819763], [-97.4396295, 35.8818782], [-97.4397254, 35.8818759], [-97.4397254, 35.8819748], [-97.4397148, 35.8819748], [-97.4397148, 35.8819889], [-97.439645, 35.8819913]]]}, "properties": {"osm_id": 194718130, "building": "house", "name": "", "height": null, "height_m": null, "levels": null, "tract_id": "40083600200", "tract_name": "6002", "tags": {"building": "house", "source": "Bing"}}}, {"type": "Feature", "geometry": {"type": "Polygon", "coordinates": [[[-97.4397886, 35.8819916], [-97.4397873, 35.8819093], [-97.439864, 35.8819093], [-97.439864, 35.8819157], [-97.4398875, 35.8819146], [-97.4398901, 35.8819494], [-97.4398627, 35.8819494], [-97.4398627, 35.8819905], [-97.4397886, 35.8819916]]]}, "properties": {"osm_id": 194718132, "building": "house", "name": "", "height": null, "height_m": null, "levels": null, "tract_id": "40083600200", "tract_name": "6002", "tags": {"building": "house", "source": "Bing"}}}, {"type": "Feature", "geometry": {"type": "Polygon", "coordinates": [[[-97.4399812, 35.8819251], [-97.4399773, 35.8819937], [-97.440054, 35.8819926], [-97.440054, 35.882], [-97.4401165, 35.881999], [-97.4401217, 35.8818988], [-97.4400827, 35.8818998], [-97.4400827, 35.881884], [-97.4400462, 35.881884], [-97.4400449, 35.8819273], [-97.4399994, 35.8819294], [-97.4399812, 35.8819251]]]}, "properties": {"osm_id": 194718136, "building": "house", "name": "", "height": null, "height_m": null, "levels": null, "tract_id": "40083600200", "tract_name": "6002", "tags": {"building": "house", "source": "Bing"}}}, {"type": "Feature", "geometry": {"type": "Polygon", "coordinates": [[[-97.4401503, 35.8819262], [-97.4401503, 35.8819916], [-97.440218, 35.8819916], [-97.440218, 35.8819979], [-97.4403273, 35.8819958], [-97.4403247, 35.8819294], [-97.4401503, 35.8819262]]]}, "properties": {"osm_id": 194718139, "building": "house", "name": "", "height": null, "height_m": null, "levels": null, "tract_id": "40083600200", "tract_name": "6002", "tags": {"building": "house", "source": "Bing"}}}, {"type": "Feature", "geometry": {"type": "Polygon", "coordinates": [[[-97.439989, 35.881883], [-97.4399044, 35.8818809], [-97.439907, 35.8818123], [-97.4399929, 35.8818123], [-97.439989, 35.881883]]]}, "properties": {"osm_id": 194718141, "building": "yes", "name": "", "height": null, "height_m": null, "levels": null, "tract_id": "40083600200", "tract_name": "6002", "tags": {"building": "yes", "source": "Bing"}}}, {"type": "Feature", "geometry": {"type": "Polygon", "coordinates": [[[-97.4403373, 35.8813888], [-97.440339, 35.881431], [-97.4403946, 35.8814296], [-97.4403928, 35.8813874], [-97.4403373, 35.8813888]]]}, "properties": {"osm_id": 194718142, "building": "yes", "name": "", "height": null, "height_m": null, "levels": null, "tract_id": "40083600200", "tract_name": "6002", "tags": {"building": "yes", "source": "Bing"}}}, {"type": "Feature", "geometry": {"type": "Polygon", "coordinates": [[[-97.4288322, 35.8865229], [-97.4288198, 35.8869059], [-97.4298453, 35.886904], [-97.4298402, 35.8865229], [-97.4288322, 35.8865229]]]}, "properties": {"osm_id": 224152097, "building": "yes", "name": "", "height": null, "height_m": null, "levels": null, "tract_id": "40083600200", "tract_name": "6002", "tags": {"building": "yes", "source": "Bing"}}}, {"type": "Feature", "geometry": {"type": "Polygon", "coordinates": [[[-97.4292656, 35.8858546], [-97.4284253, 35.8858589], [-97.4284253, 35.8862049], [-97.4285822, 35.8862021], [-97.4285857, 35.8862359], [-97.4288036, 35.8862359], [-97.4288053, 35.8862063], [-97.4292621, 35.8862035], [-97.4292656, 35.8858546]]]}, "properties": {"osm_id": 224152100, "building": "yes", "name": "", "height": null, "height_m": null, "levels": null, "tract_id": "40083600200", "tract_name": "6002", "tags": {"building": "yes", "source": "Bing"}}}, {"type": "Feature", "geometry": {"type": "Polygon", "coordinates": [[[-97.430172, 35.8856527], [-97.4293562, 35.8856527], [-97.4293579, 35.8860947], [-97.4298251, 35.8860919], [-97.4298234, 35.8863136], [-97.4301755, 35.8863108], [-97.430172, 35.8856527]]]}, "properties": {"osm_id": 224152101, "building": "yes", "name": "", "height": null, "height_m": null, "levels": null, "tract_id": "40083600200", "tract_name": "6002", "tags": {"building": "yes", "source": "Bing"}}}, {"type": "Feature", "geometry": {"type": "Polygon", "coordinates": [[[-97.4305085, 35.8860297], [-97.4303742, 35.8860297], [-97.430376, 35.8863729], [-97.4305085, 35.8863715], [-97.4305085, 35.8860297]]]}, "properties": {"osm_id": 224152102, "building": "yes", "name": "", "height": null, "height_m": null, "levels": null, "tract_id": "40083600200", "tract_name": "6002", "tags": {"building": "yes", "source": "Bing"}}}, {"type": "Feature", "geometry": {"type": "Polygon", "coordinates": [[[-97.429553, 35.8872604], [-97.429387, 35.8872593], [-97.4293831, 35.8874824], [-97.4295517, 35.8874802], [-97.429553, 35.8872604]]]}, "properties": {"osm_id": 224152103, "building": "yes", "name": "", "height": null, "height_m": null, "levels": null, "tract_id": "40083600200", "tract_name": "6002", "tags": {"building": "yes", "source": "Bing"}}}, {"type": "Feature", "geometry": {"type": "Polygon", "coordinates": [[[-97.4290857, 35.887255], [-97.428576, 35.887256], [-97.4285786, 35.887423], [-97.4290871, 35.8874208], [-97.4290857, 35.887255]]]}, "properties": {"osm_id": 224152104, "building": "yes", "name": "", "height": null, "height_m": null, "levels": null, "tract_id": "40083600200", "tract_name": "6002", "tags": {"building": "yes", "source": "Bing"}}}, {"type": "Feature", "geometry": {"type": "Polygon", "coordinates": [[[-97.4267873, 35.8866937], [-97.4265873, 35.8866923], [-97.4265873, 35.8870794], [-97.4267855, 35.8870837], [-97.4267873, 35.8866937]]]}, "properties": {"osm_id": 224152105, "building": "yes", "name": "", "height": null, "height_m": null, "levels": null, "tract_id": "40083600200", "tract_name": "6002", "tags": {"building": "yes", "source": "Bing"}}}, {"type": "Feature", "geometry": {"type": "Polygon", "coordinates": [[[-97.4263909, 35.8866264], [-97.4261449, 35.8866307], [-97.4261484, 35.88684], [-97.4261891, 35.8868414], [-97.4261891, 35.8869432], [-97.4261166, 35.8869432], [-97.4261219, 35.8870335], [-97.4262033, 35.8870335], [-97.4262033, 35.8870493], [-97.4261219, 35.8870479], [-97.4261219, 35.8871282], [-97.4262068, 35.887131], [-97.4262068, 35.8872142], [-97.4261714, 35.8872142], [-97.4261714, 35.887326], [-97.4262599, 35.8873289], [-97.4262599, 35.8874135], [-97.4262422, 35.8874135], [-97.4262405, 35.8874536], [-97.4262228, 35.8874536], [-97.4262228, 35.8875669], [-97.4262705, 35.8875669], [-97.4262705, 35.8875798], [-97.4264068, 35.8875798], [-97.4264068, 35.8875669], [-97.4264457, 35.8875669], [-97.4264493, 35.8874751], [-97.4263926, 35.8874765], [-97.4263909, 35.8866264]]]}, "properties": {"osm_id": 224152106, "building": "yes", "name": "", "height": null, "height_m": null, "levels": null, "tract_id": "40083600200", "tract_name": "6002", "tags": {"building": "yes", "source": "Bing"}}}, {"type": "Feature", "geometry": {"type": "Polygon", "coordinates": [[[-97.4259803, 35.887197], [-97.4259308, 35.8871927], [-97.4259396, 35.8870321], [-97.4257981, 35.8870292], [-97.4257963, 35.8871239], [-97.4257096, 35.8871239], [-97.425706, 35.8871841], [-97.4257733, 35.8871884], [-97.4257627, 35.8873518], [-97.4259697, 35.8873561], [-97.4259803, 35.887197]]]}, "properties": {"osm_id": 224152107, "building": "yes", "name": "", "height": null, "height_m": null, "levels": null, "tract_id": "40083600200", "tract_name": "6002", "tags": {"building": "yes", "source": "Bing"}}}, {"type": "Feature", "geometry": {"type": "Polygon", "coordinates": [[[-97.4268632, 35.8857352], [-97.4267419, 35.8857352], [-97.4267401, 35.8859461], [-97.4268041, 35.8859461], [-97.4268043, 35.8859158], [-97.4269773, 35.8859144], [-97.4269769, 35.8858724], [-97.4269883, 35.8858712], [-97.4269883, 35.8858067], [-97.4269769, 35.8858067], [-97.4269754, 35.8857668], [-97.4268648, 35.8857662], [-97.4268632, 35.8857352]]]}, "properties": {"osm_id": 224152108, "building": "house", "name": "", "height": null, "height_m": null, "levels": null, "tract_id": "40083600200", "tract_name": "6002", "tags": {"addr:housenumber": "206", "addr:street": "West College Avenue", "building": "house", "source": "Bing"}}}, {"type": "Feature", "geometry": {"type": "Polygon", "coordinates": [[[-97.4243652, 35.8876588], [-97.4243252, 35.8876597], [-97.4243011, 35.8876555], [-97.4242775, 35.8876621], [-97.4242599, 35.8876626], [-97.4242616, 35.8877198], [-97.4242769, 35.8877193], [-97.4243005, 35.8877251], [-97.4243258, 35.8877212], [-97.4243629, 35.8877212], [-97.4243652, 35.8876588]]]}, "properties": {"osm_id": 238557468, "building": "yes", "name": "", "height": null, "height_m": null, "levels": null, "tract_id": "40083600200", "tract_name": "6002", "tags": {"building": "yes", "source": "Bing"}}}, {"type": "Feature", "geometry": {"type": "Polygon", "coordinates": [[[-97.4244049, 35.8873497], [-97.4244031, 35.8873887], [-97.4242319, 35.8873877], [-97.4242325, 35.8873449], [-97.4244049, 35.8873497]]]}, "properties": {"osm_id": 238557469, "building": "yes", "name": "", "height": null, "height_m": null, "levels": null, "tract_id": "40083600200", "tract_name": "6002", "tags": {"addr:housenumber": "1005", "addr:street": "North Wentz Street", "building": "yes", "source": "Bing"}}}, {"type": "Feature", "geometry": {"type": "Polygon", "coordinates": [[[-97.4244203, 35.887187], [-97.4244166, 35.8872745], [-97.4242744, 35.8872735], [-97.4242756, 35.8872502], [-97.4242612, 35.8872507], [-97.42426, 35.8872093], [-97.4242756, 35.8872093], [-97.4242756, 35.8871855], [-97.4244203, 35.887187]]]}, "properties": {"osm_id": 238557470, "building": "yes", "name": "", "height": null, "height_m": null, "levels": null, "tract_id": "40083600200", "tract_name": "6002", "tags": {"addr:housenumber": "923", "addr:street": "North Wentz Street", "building": "yes", "source": "Bing"}}}, {"type": "Feature", "geometry": {"type": "Polygon", "coordinates": [[[-97.4243489, 35.8870827], [-97.4243483, 35.8870955], [-97.4242428, 35.8870955], [-97.4242428, 35.8870164], [-97.4243871, 35.8870174], [-97.4243847, 35.8870822], [-97.4243489, 35.8870827]]]}, "properties": {"osm_id": 238557471, "building": "house", "name": "", "height": null, "height_m": null, "levels": null, "tract_id": "40083600200", "tract_name": "6002", "tags": {"addr:housenumber": "917", "building": "house", "source": "Bing"}}}, {"type": "Feature", "geometry": {"type": "Polygon", "coordinates": [[[-97.4243295, 35.8871043], [-97.4242416, 35.8871024], [-97.4242416, 35.8871112], [-97.4242271, 35.8871112], [-97.4242252, 35.8871486], [-97.4242398, 35.8871481], [-97.4242404, 35.8871604], [-97.4243283, 35.8871608], [-97.4243295, 35.8871043]]]}, "properties": {"osm_id": 238557472, "building": "house", "name": "", "height": null, "height_m": null, "levels": null, "tract_id": "40083600200", "tract_name": "6002", "tags": {"addr:housenumber": "919", "addr:street": "North Wentz Street", "building": "house", "source": "Bing"}}}, {"type": "Feature", "geometry": {"type": "Polygon", "coordinates": [[[-97.4244198, 35.8868937], [-97.4244179, 35.886979], [-97.4242777, 35.886979], [-97.4242777, 35.8869646], [-97.4242617, 35.8869646], [-97.4242617, 35.886923], [-97.424285, 35.886923], [-97.4242856, 35.8869076], [-97.424364, 35.8869081], [-97.4243646, 35.8868942], [-97.4244198, 35.8868937]]]}, "properties": {"osm_id": 238557473, "building": "house", "name": "", "height": null, "height_m": null, "levels": null, "tract_id": "40083600200", "tract_name": "6002", "tags": {"addr:housenumber": "913", "building": "house", "source": "Bing"}}}, {"type": "Feature", "geometry": {"type": "Polygon", "coordinates": [[[-97.4244204, 35.8868778], [-97.4242556, 35.8868763], [-97.4242544, 35.8867661], [-97.4244841, 35.8867666], [-97.4244828, 35.8868401], [-97.424421, 35.8868381], [-97.4244204, 35.8868778]]]}, "properties": {"osm_id": 238557474, "building": "house", "name": "", "height": null, "height_m": null, "levels": null, "tract_id": "40083600200", "tract_name": "6002", "tags": {"addr:housenumber": "909", "building": "house", "source": "Bing"}}}, {"type": "Feature", "geometry": {"type": "Polygon", "coordinates": [[[-97.4244744, 35.8866434], [-97.4244736, 35.8866701], [-97.4245789, 35.8866701], [-97.4245805, 35.8865901], [-97.4246225, 35.8865901], [-97.4246241, 35.8865214], [-97.4244324, 35.8865188], [-97.4244308, 35.8866434], [-97.4244744, 35.8866434]]]}, "properties": {"osm_id": 238557475, "building": "yes", "name": "", "height": null, "height_m": null, "levels": null, "tract_id": "40083600200", "tract_name": "6002", "tags": {"building": "yes", "source": "Bing"}}}, {"type": "Feature", "geometry": {"type": "Polygon", "coordinates": [[[-97.4243581, 35.8864544], [-97.4243549, 35.8865322], [-97.4243534, 35.8865688], [-97.4242723, 35.8865666], [-97.424277, 35.8864522], [-97.4243581, 35.8864544]]]}, "properties": {"osm_id": 238557476, "building": "roof", "name": "", "height": null, "height_m": null, "levels": null, "tract_id": "40083600200", "tract_name": "6002", "tags": {"amenity": "fuel", "building": "roof", "source": "Bing"}}}, {"type": "Feature", "geometry": {"type": "Polygon", "coordinates": [[[-97.4243028, 35.8861308], [-97.4242783, 35.8861308], [-97.4242763, 35.8860643], [-97.4243055, 35.8860649], [-97.4243055, 35.8860583], [-97.4244317, 35.8860588], [-97.4244338, 35.886138], [-97.4243041, 35.886138], [-97.4243028, 35.8861308]]]}, "properties": {"osm_id": 238732064, "building": "house", "name": "", "height": null, "height_m": null, "levels": null, "tract_id": "40083600200", "tract_name": "6002", "tags": {"addr:city": "Guthrie", "addr:country": "US", "addr:housenumber": "821", "addr:postcode": "73044", "addr:state": "OK", "addr:street": "Wentz Street", "building": "house", "source": "Bing"}}}, {"type": "Feature", "geometry": {"type": "Polygon", "coordinates": [[[-97.4244629, 35.8859686], [-97.4244609, 35.8860165], [-97.4244066, 35.8860165], [-97.4244066, 35.886022], [-97.4243543, 35.8860214], [-97.4243537, 35.8860159], [-97.4243109, 35.8860159], [-97.4243102, 35.8859389], [-97.42445, 35.8859417], [-97.4244487, 35.8859191], [-97.4245064, 35.8859197], [-97.4245071, 35.885945], [-97.4244962, 35.8859455], [-97.4244962, 35.8859664], [-97.4244629, 35.8859686]]]}, "properties": {"osm_id": 238732065, "building": "house", "name": "", "height": null, "height_m": null, "levels": null, "tract_id": "40083600200", "tract_name": "6002", "tags": {"addr:city": "Guthrie", "addr:country": "US", "addr:housenumber": "815", "addr:postcode": "73044", "addr:state": "OK", "addr:street": "Wentz Street", "building": "house", "source": "Bing"}}}, {"type": "Feature", "geometry": {"type": "Polygon", "coordinates": [[[-97.4244527, 35.8858931], [-97.424452, 35.8858252], [-97.4243111, 35.8858263], [-97.4243118, 35.8858347], [-97.4242816, 35.8858347], [-97.4242802, 35.8858881], [-97.4243084, 35.8858876], [-97.4243077, 35.8858937], [-97.4244527, 35.8858931]]]}, "properties": {"osm_id": 238732066, "building": "house", "name": "", "height": null, "height_m": null, "levels": null, "tract_id": "40083600200", "tract_name": "6002", "tags": {"addr:city": "Guthrie", "addr:country": "US", "addr:housenumber": "813", "addr:postcode": "73044", "addr:state": "OK", "addr:street": "Wentz Street", "building": "house", "source": "Bing"}}}, {"type": "Feature", "geometry": {"type": "Polygon", "coordinates": [[[-97.4244555, 35.8857178], [-97.4244555, 35.8857865], [-97.4243108, 35.8857869], [-97.4243108, 35.8857819], [-97.4242829, 35.8857823], [-97.4242824, 35.8857232], [-97.4243124, 35.8857241], [-97.4243124, 35.8857182], [-97.4244555, 35.8857178]]]}, "properties": {"osm_id": 238732067, "building": "house", "name": "", "height": null, "height_m": null, "levels": null, "tract_id": "40083600200", "tract_name": "6002", "tags": {"addr:city": "Guthrie", "addr:country": "US", "addr:housenumber": "811", "addr:postcode": "73044", "addr:state": "OK", "addr:street": "Wentz Street", "building": "house", "source": "Bing"}}}, {"type": "Feature", "geometry": {"type": "Polygon", "coordinates": [[[-97.4244593, 35.8855868], [-97.4244585, 35.8856787], [-97.424351, 35.8856803], [-97.424351, 35.8856701], [-97.4243137, 35.8856707], [-97.4243141, 35.885631], [-97.4243051, 35.8856313], [-97.4243047, 35.8855865], [-97.4243765, 35.8855877], [-97.4243761, 35.885596], [-97.4243985, 35.8855954], [-97.4244149, 35.8855868], [-97.4244593, 35.8855868]]]}, "properties": {"osm_id": 238732068, "building": "house", "name": "", "height": null, "height_m": null, "levels": null, "tract_id": "40083600200", "tract_name": "6002", "tags": {"addr:city": "Guthrie", "addr:country": "US", "addr:housenumber": "805", "addr:postcode": "73044", "addr:state": "OK", "addr:street": "Wentz Street", "building": "house", "source": "Bing"}}}, {"type": "Feature", "geometry": {"type": "Polygon", "coordinates": [[[-97.4244875, 35.8855018], [-97.4245164, 35.8855024], [-97.4245156, 35.8855622], [-97.4243735, 35.8855626], [-97.4243735, 35.8855528], [-97.4243639, 35.8855531], [-97.4243639, 35.8855622], [-97.4243105, 35.8855619], [-97.4243101, 35.8855229], [-97.4242893, 35.8855239], [-97.4242893, 35.885469], [-97.4244861, 35.8854712], [-97.4244875, 35.8855018]]]}, "properties": {"osm_id": 238732069, "building": "house", "name": "", "height": null, "height_m": null, "levels": null, "tract_id": "40083600200", "tract_name": "6002", "tags": {"addr:city": "Guthrie", "addr:country": "US", "addr:housenumber": "803", "addr:postcode": "73044", "addr:state": "OK", "addr:street": "Wentz Street", "building": "house", "source": "Bing"}}}, {"type": "Feature", "geometry": {"type": "Polygon", "coordinates": [[[-97.4248756, 35.8854465], [-97.4247839, 35.885447], [-97.4247839, 35.8855809], [-97.4248741, 35.8855809], [-97.4248756, 35.8854465]]]}, "properties": {"osm_id": 238732070, "building": "yes", "name": "", "height": null, "height_m": null, "levels": null, "tract_id": "40083600200", "tract_name": "6002", "tags": {"building": "yes", "source": "Bing"}}}, {"type": "Feature", "geometry": {"type": "Polygon", "coordinates": [[[-97.4238906, 35.8861928], [-97.4239067, 35.8861923], [-97.4239051, 35.8861428], [-97.4238906, 35.8861428], [-97.4238906, 35.8861239], [-97.4237873, 35.8861243], [-97.4237873, 35.8861302], [-97.4237434, 35.8861288], [-97.4237434, 35.8862207], [-97.4237845, 35.8862207], [-97.423785, 35.8862027], [-97.4238901, 35.8862031], [-97.4238906, 35.8861928]]]}, "properties": {"osm_id": 238732071, "building": "house", "name": "", "height": null, "height_m": null, "levels": null, "tract_id": "40083600200", "tract_name": "6002", "tags": {"addr:city": "Guthrie", "addr:country": "US", "addr:county": "Logan", "addr:housenumber": "824", "addr:postcode": "73044", "addr:state": "OK", "addr:street": "Wentz Street", "building": "house", "source": "Bing"}}}, {"type": "Feature", "geometry": {"type": "Polygon", "coordinates": [[[-97.4239089, 35.8859896], [-97.4239013, 35.8859896], [-97.4239007, 35.885978], [-97.423795, 35.885978], [-97.4237944, 35.8860081], [-97.4237658, 35.8860078], [-97.4237658, 35.8860456], [-97.4238997, 35.8860451], [-97.4238997, 35.8860379], [-97.4239089, 35.8860384], [-97.4239089, 35.8859896]]]}, "properties": {"osm_id": 238732072, "building": "house", "name": "", "height": null, "height_m": null, "levels": null, "tract_id": "40083600200", "tract_name": "6002", "tags": {"addr:city": "Guthrie", "addr:country": "US", "addr:county": "Logan", "addr:housenumber": "818", "addr:postcode": "73044", "addr:state": "OK", "addr:street": "Wentz Street", "building": "house", "source": "Bing"}}}, {"type": "Feature", "geometry": {"type": "Polygon", "coordinates": [[[-97.4237794, 35.8859572], [-97.4237789, 35.8859716], [-97.4238822, 35.885972], [-97.4238822, 35.8859621], [-97.4238988, 35.8859625], [-97.4238979, 35.8859112], [-97.4238835, 35.8859105], [-97.423884, 35.8858989], [-97.4237807, 35.8858989], [-97.4237811, 35.8859031], [-97.4237262, 35.8859028], [-97.4237262, 35.8858964], [-97.4236891, 35.8858971], [-97.4236887, 35.8859572], [-97.4237794, 35.8859572]]]}, "properties": {"osm_id": 238732074, "building": "house", "name": "", "height": null, "height_m": null, "levels": null, "tract_id": "40083600200", "tract_name": "6002", "tags": {"addr:city": "Guthrie", "addr:country": "US", "addr:county": "Logan", "addr:housenumber": "816", "addr:postcode": "73044", "addr:state": "OK", "addr:street": "Wentz Street", "building": "house", "source": "Bing"}}}, {"type": "Feature", "geometry": {"type": "Polygon", "coordinates": [[[-97.4238995, 35.8857947], [-97.4238586, 35.8857947], [-97.4238145, 35.8857954], [-97.4238159, 35.8858104], [-97.4237727, 35.8858108], [-97.4237705, 35.8857323], [-97.4238837, 35.8857319], [-97.4239004, 35.885744], [-97.4238995, 35.8857947]]]}, "properties": {"osm_id": 238732075, "building": "house", "name": "", "height": null, "height_m": null, "levels": null, "tract_id": "40083600200", "tract_name": "6002", "tags": {"addr:city": "Guthrie", "addr:country": "US", "addr:county": "Logan", "addr:housenumber": "812", "addr:postcode": "73044", "addr:state": "OK", "addr:street": "Wentz Street", "building": "house", "source": "Bing"}}}, {"type": "Feature", "geometry": {"type": "Polygon", "coordinates": [[[-97.4237326, 35.8856284], [-97.4235936, 35.8856293], [-97.4235977, 35.8855603], [-97.4237539, 35.8855613], [-97.4237545, 35.8855876], [-97.4238947, 35.8855881], [-97.4238935, 35.8856643], [-97.4238681, 35.8856629], [-97.4238686, 35.8856734], [-97.4238426, 35.8856734], [-97.4238426, 35.8856624], [-97.4238284, 35.8856619], [-97.4238278, 35.8856739], [-97.4237332, 35.885672], [-97.4237326, 35.8856284]]]}, "properties": {"osm_id": 238732080, "building": "house", "name": "", "height": null, "height_m": null, "levels": null, "tract_id": "40083600200", "tract_name": "6002", "tags": {"addr:city": "Guthrie", "addr:country": "US", "addr:county": "Logan", "addr:housenumber": "806", "addr:postcode": "73044", "addr:state": "OK", "addr:street": "Wentz Street", "building": "house", "source": "Bing"}}}, {"type": "Feature", "geometry": {"type": "Polygon", "coordinates": [[[-97.4231784, 35.8861659], [-97.4231776, 35.8862363], [-97.4233225, 35.8862343], [-97.4233225, 35.8861665], [-97.4231784, 35.8861659]]]}, "properties": {"osm_id": 238732085, "building": "yes", "name": "", "height": null, "height_m": null, "levels": null, "tract_id": "40083600200", "tract_name": "6002", "tags": {"building": "yes", "source": "Bing"}}}, {"type": "Feature", "geometry": {"type": "Polygon", "coordinates": [[[-97.42313, 35.8862336], [-97.4230672, 35.8862341], [-97.423066, 35.8862272], [-97.4230026, 35.8862272], [-97.4230038, 35.886122], [-97.4231324, 35.8861225], [-97.42313, 35.8862336]]]}, "properties": {"osm_id": 238732086, "building": "house", "name": "", "height": null, "height_m": null, "levels": null, "tract_id": "40083600200", "tract_name": "6002", "tags": {"addr:city": "Guthrie", "addr:country": "US", "addr:county": "Logan", "addr:housenumber": "823", "addr:postcode": "73044", "addr:state": "OK", "addr:street": "North Broad Street", "building": "house", "source": "Bing"}}}, {"type": "Feature", "geometry": {"type": "Polygon", "coordinates": [[[-97.4230189, 35.8860788], [-97.4230171, 35.886035], [-97.423006, 35.886035], [-97.4230054, 35.8859877], [-97.4231178, 35.8859867], [-97.4231159, 35.8860415], [-97.4231362, 35.886041], [-97.4231344, 35.8860793], [-97.4231184, 35.8860793], [-97.4231184, 35.8860862], [-97.4230944, 35.8860867], [-97.4230944, 35.8860783], [-97.4230557, 35.8860778], [-97.4230557, 35.8860678], [-97.4230429, 35.8860683], [-97.4230441, 35.8860783], [-97.4230189, 35.8860788]]]}, "properties": {"osm_id": 238732087, "building": "house", "name": "", "height": null, "height_m": null, "levels": null, "tract_id": "40083600200", "tract_name": "6002", "tags": {"addr:city": "Guthrie", "addr:country": "US", "addr:county": "Logan", "addr:housenumber": "819", "addr:postcode": "73044", "addr:state": "OK", "addr:street": "North Broad Street", "building": "house", "source": "Bing"}}}, {"type": "Feature", "geometry": {"type": "Polygon", "coordinates": [[[-97.4231284, 35.8858254], [-97.4230162, 35.8858254], [-97.4230153, 35.8857164], [-97.4231292, 35.8857178], [-97.4231284, 35.8858254]]]}, "properties": {"osm_id": 238732088, "building": "house", "name": "", "height": null, "height_m": null, "levels": null, "tract_id": "40083600200", "tract_name": "6002", "tags": {"addr:city": "Guthrie", "addr:country": "US", "addr:county": "Logan", "addr:housenumber": "811", "addr:postcode": "73044", "addr:state": "OK", "addr:street": "North Broad Street", "building": "house", "source": "Bing"}}}, {"type": "Feature", "geometry": {"type": "Polygon", "coordinates": [[[-97.4231593, 35.8855768], [-97.4231561, 35.8856763], [-97.4230189, 35.8856753], [-97.4230164, 35.8856383], [-97.4230089, 35.8856383], [-97.4230095, 35.8856083], [-97.4230183, 35.8856078], [-97.4230189, 35.8855733], [-97.4231593, 35.8855768]]]}, "properties": {"osm_id": 238732089, "building": "house", "name": "", "height": null, "height_m": null, "levels": null, "tract_id": "40083600200", "tract_name": "6002", "tags": {"addr:city": "Guthrie", "addr:country": "US", "addr:county": "Logan", "addr:housenumber": "805", "addr:postcode": "73044", "addr:state": "OK", "addr:street": "North Broad Street", "building": "house", "source": "Bing"}}}, {"type": "Feature", "geometry": {"type": "Polygon", "coordinates": [[[-97.4231766, 35.885523], [-97.4231887, 35.8854331], [-97.4230579, 35.8854305], [-97.4230572, 35.8854397], [-97.4229813, 35.8854413], [-97.4229826, 35.8855156], [-97.4230022, 35.8855156], [-97.4230022, 35.8855305], [-97.4230642, 35.885532], [-97.4230643, 35.8855235], [-97.4231766, 35.885523]]]}, "properties": {"osm_id": 238732090, "building": "house", "name": "", "height": null, "height_m": null, "levels": null, "tract_id": "40083600200", "tract_name": "6002", "tags": {"addr:city": "Guthrie", "addr:country": "US", "addr:county": "Logan", "addr:housenumber": "803", "addr:postcode": "73044", "addr:state": "OK", "addr:street": "North Broad Street", "building": "house", "source": "Bing"}}}, {"type": "Feature", "geometry": {"type": "Polygon", "coordinates": [[[-97.4614456, 35.8759432], [-97.4614432, 35.8759988], [-97.4613843, 35.8759988], [-97.4613856, 35.8760504], [-97.461405, 35.876051], [-97.4614038, 35.8760858], [-97.4613846, 35.8761114], [-97.4613598, 35.8761251], [-97.4613271, 35.8761301], [-97.4612955, 35.8761187], [-97.4612752, 35.8761023], [-97.4612646, 35.8760821], [-97.461265, 35.8760465], [-97.4612466, 35.8760379], [-97.4612467, 35.8755373], [-97.4610491, 35.8755394], [-97.4610497, 35.875645], [-97.4610276, 35.875645], [-97.4610286, 35.875803], [-97.4610506, 35.875803], [-97.4610516, 35.8759968], [-97.4610313, 35.8759984], [-97.4610343, 35.8761024], [-97.4612243, 35.8761036], [-97.4612264, 35.876072], [-97.4612379, 35.876073], [-97.4612419, 35.8760954], [-97.4612526, 35.8761169], [-97.4612746, 35.8761352], [-97.4613039, 35.8761498], [-97.461335, 35.8761512], [-97.4613677, 35.876148], [-97.4614021, 35.8761306], [-97.4614264, 35.8761045], [-97.4614337, 35.8760748], [-97.4614452, 35.8760748], [-97.4614444, 35.8761269], [-97.4619162, 35.8761279], [-97.4619137, 35.8762132], [-97.4617777, 35.8762113], [-97.4617753, 35.8763165], [-97.461633, 35.8763179], [-97.4615664, 35.8763185], [-97.4615664, 35.8763514], [-97.4615664, 35.8763874], [-97.4616348, 35.876387], [-97.461777, 35.8763864], [-97.4617807, 35.8765011], [-97.4621094, 35.8765028], [-97.4622454, 35.8765035], [-97.4622407, 35.8766965], [-97.4624003, 35.8766936], [-97.4623985, 35.8764556], [-97.4624209, 35.8764708], [-97.4624219, 35.8764086], [-97.4624696, 35.8763677], [-97.4625132, 35.876366], [-97.4625712, 35.8763639], [-97.4625719, 35.8762728], [-97.4625132, 35.8762747], [-97.4624644, 35.8762762], [-97.4624647, 35.8762105], [-97.4621245, 35.8762079], [-97.4621235, 35.8761244], [-97.4623926, 35.8761244], [-97.4623942, 35.876074], [-97.4624454, 35.8760728], [-97.462444, 35.8759992], [-97.4623986, 35.8759986], [-97.4623973, 35.8757794], [-97.4622543, 35.875781], [-97.4622543, 35.8758053], [-97.4622128, 35.875806], [-97.4622128, 35.8759384], [-97.4614456, 35.8759432]]]}, "properties": {"osm_id": 238876400, "building": "hospital", "name": "", "height": null, "height_m": null, "levels": null, "tract_id": "40083600200", "tract_name": "6002", "tags": {"building": "hospital", "source": "Bing"}}}, {"type": "Feature", "geometry": {"type": "Polygon", "coordinates": [[[-97.4513335, 35.881749], [-97.4511955, 35.8818355], [-97.4509877, 35.8816058], [-97.4509566, 35.8816058], [-97.4507604, 35.8818434], [-97.4506186, 35.8817616], [-97.4507954, 35.8815349], [-97.4507954, 35.8813933], [-97.4505992, 35.8811666], [-97.4507332, 35.8810801], [-97.450943, 35.8813193], [-97.4509799, 35.8813193], [-97.4511664, 35.8810816], [-97.451314, 35.8811603], [-97.4511256, 35.8813838], [-97.4512519, 35.8813886], [-97.4512597, 35.8815192], [-97.4511431, 35.8815318], [-97.4513335, 35.881749]]]}, "properties": {"osm_id": 238880672, "building": "yes", "name": "", "height": null, "height_m": null, "levels": null, "tract_id": "40083600200", "tract_name": "6002", "tags": {"building": "yes", "source": "Bing"}}}, {"type": "Feature", "geometry": {"type": "Polygon", "coordinates": [[[-97.4489237, 35.881244], [-97.4489305, 35.8813755], [-97.4489427, 35.8813746], [-97.4489427, 35.8813899], [-97.4489804, 35.8813908], [-97.4489815, 35.8813674], [-97.4492422, 35.881371], [-97.4492455, 35.8813944], [-97.4492921, 35.8813944], [-97.4492921, 35.8813791], [-97.4493509, 35.8813773], [-97.4493498, 35.8814349], [-97.4493021, 35.8814349], [-97.4492988, 35.8814717], [-97.4492466, 35.8814726], [-97.4492455, 35.8814825], [-97.4489793, 35.8814816], [-97.4489782, 35.8814699], [-97.4488961, 35.8814681], [-97.448895, 35.8814825], [-97.4488806, 35.8814825], [-97.4488806, 35.881469], [-97.4488041, 35.8814681], [-97.4488041, 35.8812434], [-97.4489237, 35.881244]]]}, "properties": {"osm_id": 238880675, "building": "yes", "name": "", "height": null, "height_m": null, "levels": null, "tract_id": "40083600200", "tract_name": "6002", "tags": {"building": "yes", "source": "Bing"}}}, {"type": "Feature", "geometry": {"type": "Polygon", "coordinates": [[[-97.4495844, 35.8818239], [-97.4494449, 35.8818273], [-97.4494474, 35.881928], [-97.4492819, 35.8819328], [-97.4492726, 35.8817177], [-97.4495802, 35.8817143], [-97.4495844, 35.8818239]]]}, "properties": {"osm_id": 238880676, "building": "yes", "name": "", "height": null, "height_m": null, "levels": null, "tract_id": "40083600200", "tract_name": "6002", "tags": {"building": "yes", "source": "Bing"}}}, {"type": "Feature", "geometry": {"type": "Polygon", "coordinates": [[[-97.4256057, 35.8845299], [-97.4254934, 35.8845304], [-97.4254927, 35.8845086], [-97.42547, 35.8845098], [-97.4254708, 35.8844459], [-97.4254912, 35.8844447], [-97.4254919, 35.8843998], [-97.4256057, 35.8844016], [-97.4256057, 35.8845299]]]}, "properties": {"osm_id": 238956486, "building": "house", "name": "", "height": null, "height_m": null, "levels": null, "tract_id": "40083600200", "tract_name": "6002", "tags": {"building": "house", "source": "Bing"}}}, {"type": "Feature", "geometry": {"type": "Polygon", "coordinates": [[[-97.4257379, 35.884078], [-97.4257379, 35.8841636], [-97.4255362, 35.884163], [-97.4255362, 35.8841484], [-97.4255084, 35.8841503], [-97.4255099, 35.8840919], [-97.4255324, 35.8840913], [-97.4255332, 35.8840749], [-97.4255891, 35.8840758], [-97.4256895, 35.8840773], [-97.4257379, 35.884078]]]}, "properties": {"osm_id": 238956488, "building": "house", "name": "", "height": null, "height_m": null, "levels": null, "tract_id": "40083600200", "tract_name": "6002", "tags": {"building": "house", "source": "Bing"}}}, {"type": "Feature", "geometry": {"type": "Polygon", "coordinates": [[[-97.4254733, 35.883915], [-97.4255969, 35.8839163], [-97.4255969, 35.8839903], [-97.4255486, 35.8839901], [-97.4254719, 35.8839896], [-97.4254733, 35.883915]]]}, "properties": {"osm_id": 238956490, "building": "yes", "name": "", "height": null, "height_m": null, "levels": null, "tract_id": "40083600200", "tract_name": "6002", "tags": {"building": "yes", "source": "Bing"}}}, {"type": "Feature", "geometry": {"type": "Polygon", "coordinates": [[[-97.4255652, 35.8834962], [-97.4255676, 35.8835586], [-97.4254961, 35.8835592], [-97.4254802, 35.8833758], [-97.425624, 35.8833765], [-97.4256232, 35.8834949], [-97.4255652, 35.8834962]]]}, "properties": {"osm_id": 238956491, "building": "house", "name": "", "height": null, "height_m": null, "levels": null, "tract_id": "40083600200", "tract_name": "6002", "tags": {"building": "house", "source": "Bing"}}}, {"type": "Feature", "geometry": {"type": "Polygon", "coordinates": [[[-97.4259385, 35.8834709], [-97.4259325, 35.8834709], [-97.4259325, 35.8834977], [-97.4258507, 35.8834996], [-97.4258495, 35.8834694], [-97.4258435, 35.8834704], [-97.4258411, 35.88337], [-97.4258573, 35.88337], [-97.4258579, 35.8833568], [-97.4259265, 35.8833563], [-97.4259283, 35.8833685], [-97.4259385, 35.883369], [-97.4259385, 35.8834709]]]}, "properties": {"osm_id": 238956492, "building": "house", "name": "", "height": null, "height_m": null, "levels": null, "tract_id": "40083600200", "tract_name": "6002", "tags": {"building": "house", "source": "Bing"}}}, {"type": "Feature", "geometry": {"type": "Polygon", "coordinates": [[[-97.4251086, 35.885039], [-97.4251998, 35.8850384], [-97.4251998, 35.8851842], [-97.4251069, 35.8851848], [-97.4251086, 35.885039]]]}, "properties": {"osm_id": 238992956, "building": "house", "name": "", "height": null, "height_m": null, "levels": null, "tract_id": "40083600200", "tract_name": "6002", "tags": {"building": "house", "source": "Bing"}}}, {"type": "Feature", "geometry": {"type": "Polygon", "coordinates": [[[-97.4250361, 35.8850641], [-97.4250157, 35.8850628], [-97.4250157, 35.8850496], [-97.4249823, 35.8850483], [-97.4249831, 35.8850628], [-97.4249408, 35.8850641], [-97.42494, 35.8851578], [-97.4250377, 35.8851558], [-97.4250361, 35.8850641]]]}, "properties": {"osm_id": 238992958, "building": "house", "name": "", "height": null, "height_m": null, "levels": null, "tract_id": "40083600200", "tract_name": "6002", "tags": {"building": "house", "source": "Bing"}}}, {"type": "Feature", "geometry": {"type": "Polygon", "coordinates": [[[-97.4248641, 35.8851683], [-97.4248638, 35.885074], [-97.4248555, 35.8850744], [-97.424855, 35.8850557], [-97.4247796, 35.8850557], [-97.4247792, 35.8850733], [-97.4247718, 35.8850737], [-97.4247708, 35.8851696], [-97.4247773, 35.88517], [-97.4247773, 35.885191], [-97.4248583, 35.8851884], [-97.4248564, 35.8851674], [-97.4248641, 35.8851683]]]}, "properties": {"osm_id": 238992961, "building": "house", "name": "", "height": null, "height_m": null, "levels": null, "tract_id": "40083600200", "tract_name": "6002", "tags": {"building": "house", "source": "Bing"}}}, {"type": "Feature", "geometry": {"type": "Polygon", "coordinates": [[[-97.4246442, 35.8850703], [-97.4246433, 35.8851653], [-97.4245372, 35.8851665], [-97.4245368, 35.885071], [-97.4246442, 35.8850703]]]}, "properties": {"osm_id": 238992964, "building": "house", "name": "", "height": null, "height_m": null, "levels": null, "tract_id": "40083600200", "tract_name": "6002", "tags": {"building": "house", "source": "Bing"}}}, {"type": "Feature", "geometry": {"type": "Polygon", "coordinates": [[[-97.4243769, 35.885033], [-97.4243769, 35.8851474], [-97.4242833, 35.885151], [-97.4242796, 35.8850345], [-97.4243769, 35.885033]]]}, "properties": {"osm_id": 238992966, "building": "house", "name": "", "height": null, "height_m": null, "levels": null, "tract_id": "40083600200", "tract_name": "6002", "tags": {"building": "house", "source": "Bing"}}}, {"type": "Feature", "geometry": {"type": "Polygon", "coordinates": [[[-97.42504, 35.8845684], [-97.4250491, 35.8845684], [-97.4250468, 35.8846084], [-97.4250508, 35.8846079], [-97.4250502, 35.8846529], [-97.4249975, 35.8846552], [-97.4249969, 35.8846102], [-97.4249244, 35.8846102], [-97.4249272, 35.8845652], [-97.4249346, 35.8845661], [-97.4249368, 35.8844559], [-97.4250412, 35.8844563], [-97.42504, 35.8845684]]]}, "properties": {"osm_id": 239012553, "building": "house", "name": "", "height": null, "height_m": null, "levels": null, "tract_id": "40083600200", "tract_name": "6002", "tags": {"building": "house", "source": "Bing"}}}, {"type": "Feature", "geometry": {"type": "Polygon", "coordinates": [[[-97.4251768, 35.8845039], [-97.4251768, 35.8845321], [-97.4252328, 35.8845312], [-97.4252316, 35.8845886], [-97.4250957, 35.8845867], [-97.4250963, 35.8844581], [-97.4252299, 35.8844599], [-97.4252299, 35.884502], [-97.4251768, 35.8845039]]]}, "properties": {"osm_id": 239012554, "building": "house", "name": "", "height": null, "height_m": null, "levels": null, "tract_id": "40083600200", "tract_name": "6002", "tags": {"building": "house", "source": "Bing"}}}, {"type": "Feature", "geometry": {"type": "Polygon", "coordinates": [[[-97.4248846, 35.8844458], [-97.4248851, 35.8845416], [-97.4248165, 35.8845416], [-97.4248165, 35.884521], [-97.4247553, 35.8845224], [-97.424757, 35.8844462], [-97.4248846, 35.8844458]]]}, "properties": {"osm_id": 239012555, "building": "house", "name": "", "height": null, "height_m": null, "levels": null, "tract_id": "40083600200", "tract_name": "6002", "tags": {"building": "house", "source": "Bing"}}}, {"type": "Feature", "geometry": {"type": "Polygon", "coordinates": [[[-97.4246114, 35.8844433], [-97.4246126, 35.8844621], [-97.4246271, 35.8844612], [-97.4246265, 35.8845643], [-97.4245759, 35.8845639], [-97.4245759, 35.8845921], [-97.4245341, 35.8845931], [-97.4245341, 35.8845742], [-97.4245161, 35.8845752], [-97.4245161, 35.8845436], [-97.4245271, 35.8845441], [-97.4245277, 35.8844696], [-97.4245358, 35.8844626], [-97.4245352, 35.8844428], [-97.4246114, 35.8844433]]]}, "properties": {"osm_id": 239012556, "building": "house", "name": "", "height": null, "height_m": null, "levels": null, "tract_id": "40083600200", "tract_name": "6002", "tags": {"building": "house", "source": "Bing"}}}, {"type": "Feature", "geometry": {"type": "Polygon", "coordinates": [[[-97.4243684, 35.8845262], [-97.4243655, 35.8844439], [-97.4243167, 35.8844448], [-97.4243161, 35.8844577], [-97.4242774, 35.8844586], [-97.4242768, 35.8844648], [-97.4242504, 35.8844657], [-97.4242521, 35.884568], [-97.424268, 35.8845671], [-97.4242674, 35.8846208], [-97.4243396, 35.884618], [-97.424339, 35.8845937], [-97.4243637, 35.8845942], [-97.4243637, 35.884568], [-97.4243796, 35.884568], [-97.424379, 35.8845271], [-97.4243684, 35.8845262]]]}, "properties": {"osm_id": 239012557, "building": "house", "name": "", "height": null, "height_m": null, "levels": null, "tract_id": "40083600200", "tract_name": "6002", "tags": {"building": "house", "source": "Bing"}}}, {"type": "Feature", "geometry": {"type": "Polygon", "coordinates": [[[-97.4243969, 35.8847876], [-97.4243916, 35.8847054], [-97.4242611, 35.8847054], [-97.4242618, 35.884731], [-97.4242504, 35.8847304], [-97.4242517, 35.8847664], [-97.4242611, 35.8847653], [-97.4242631, 35.884792], [-97.4243969, 35.8847876]]]}, "properties": {"osm_id": 239012558, "building": "house", "name": "", "height": null, "height_m": null, "levels": null, "tract_id": "40083600200", "tract_name": "6002", "tags": {"building": "house", "source": "Bing"}}}, {"type": "Feature", "geometry": {"type": "Polygon", "coordinates": [[[-97.4327133, 35.8814709], [-97.432681, 35.8814706], [-97.4326787, 35.8814977], [-97.4325947, 35.8814977], [-97.4325947, 35.8814697], [-97.432453, 35.8814688], [-97.4324553, 35.8812738], [-97.4325014, 35.8812728], [-97.4325014, 35.8812616], [-97.4325383, 35.8812626], [-97.4325394, 35.8812728], [-97.4326154, 35.8812738], [-97.4326154, 35.8812589], [-97.4326626, 35.8812598], [-97.4326615, 35.8812756], [-97.4327114, 35.8812759], [-97.4327133, 35.8814709]]]}, "properties": {"osm_id": 239013843, "building": "yes", "name": "", "height": null, "height_m": null, "levels": null, "tract_id": "40083600200", "tract_name": "6002", "tags": {"building": "yes", "source": "Bing"}}}, {"type": "Feature", "geometry": {"type": "Polygon", "coordinates": [[[-97.4327103, 35.8818492], [-97.4323998, 35.8818464], [-97.4324024, 35.8817008], [-97.432583, 35.8817044], [-97.4325839, 35.8817213], [-97.4327226, 35.8817249], [-97.4327217, 35.8817849], [-97.4327103, 35.8817835], [-97.4327103, 35.8818492]]]}, "properties": {"osm_id": 239013844, "building": "yes", "name": "", "height": null, "height_m": null, "levels": null, "tract_id": "40083600200", "tract_name": "6002", "tags": {"building": "yes", "source": "Bing"}}}, {"type": "Feature", "geometry": {"type": "Polygon", "coordinates": [[[-97.4327014, 35.8820373], [-97.4326133, 35.8820351], [-97.4326133, 35.8819559], [-97.4327041, 35.8819566], [-97.4327014, 35.8820373]]]}, "properties": {"osm_id": 239013845, "building": "yes", "name": "", "height": null, "height_m": null, "levels": null, "tract_id": "40083600200", "tract_name": "6002", "tags": {"building": "yes", "source": "Bing"}}}, {"type": "Feature", "geometry": {"type": "Polygon", "coordinates": [[[-97.4496891, 35.8795542], [-97.4497921, 35.879555], [-97.4497888, 35.8797236], [-97.4492895, 35.879718], [-97.4492873, 35.8796166], [-97.4492653, 35.8796157], [-97.4492653, 35.8795499], [-97.4494706, 35.8795526], [-97.4494695, 35.8794992], [-97.4492675, 35.8794956], [-97.4492631, 35.8792617], [-97.4492467, 35.8792617], [-97.449251, 35.8790972], [-97.4497045, 35.8790918], [-97.4497001, 35.8792272], [-97.4498538, 35.8792281], [-97.449846, 35.8793517], [-97.4497142, 35.8793517], [-97.4497142, 35.8793807], [-97.4496959, 35.8793821], [-97.4496967, 35.8794408], [-97.4497326, 35.8794402], [-97.4497318, 35.8794125], [-97.4498468, 35.8794138], [-97.449846, 35.8794888], [-97.4497376, 35.8794868], [-97.4497368, 35.8794638], [-97.4496959, 35.8794631], [-97.4496976, 35.8795178], [-97.4496926, 35.8795185], [-97.4496891, 35.8795542]]]}, "properties": {"osm_id": 239016722, "building": "yes", "name": "", "height": null, "height_m": null, "levels": null, "tract_id": "40083600200", "tract_name": "6002", "tags": {"building": "yes", "source": "Bing"}}}, {"type": "Feature", "geometry": {"type": "Polygon", "coordinates": [[[-97.4498283, 35.8791657], [-97.4497295, 35.8791657], [-97.4497284, 35.8790592], [-97.4495229, 35.8790574], [-97.4495252, 35.878981], [-97.4497318, 35.8789828], [-97.4497307, 35.8789965], [-97.4498306, 35.8789992], [-97.4498283, 35.8791657]]]}, "properties": {"osm_id": 239016723, "building": "yes", "name": "", "height": null, "height_m": null, "levels": null, "tract_id": "40083600200", "tract_name": "6002", "tags": {"building": "yes", "source": "Bing"}}}, {"type": "Feature", "geometry": {"type": "Polygon", "coordinates": [[[-97.4494556, 35.8790565], [-97.4494556, 35.8789792], [-97.4492535, 35.8789801], [-97.4492524, 35.8790583], [-97.4494556, 35.8790565]]]}, "properties": {"osm_id": 239016724, "building": "yes", "name": "", "height": null, "height_m": null, "levels": null, "tract_id": "40083600200", "tract_name": "6002", "tags": {"building": "yes", "source": "Bing"}}}, {"type": "Feature", "geometry": {"type": "Polygon", "coordinates": [[[-97.4511996, 35.8790241], [-97.4512041, 35.8792457], [-97.4509476, 35.8792494], [-97.450946, 35.8790291], [-97.4511996, 35.8790241]]]}, "properties": {"osm_id": 239016726, "building": "yes", "name": "", "height": null, "height_m": null, "levels": null, "tract_id": "40083600200", "tract_name": "6002", "tags": {"building": "yes", "source": "Bing"}}}, {"type": "Feature", "geometry": {"type": "Polygon", "coordinates": [[[-97.4516877, 35.8796259], [-97.451659, 35.8796268], [-97.4515809, 35.8795608], [-97.4515775, 35.8794863], [-97.451651, 35.8794258], [-97.4516808, 35.879424], [-97.451752, 35.8794779], [-97.4517532, 35.879571], [-97.4516877, 35.8796259]]]}, "properties": {"osm_id": 239016727, "building": "yes", "name": "", "height": null, "height_m": null, "levels": null, "tract_id": "40083600200", "tract_name": "6002", "tags": {"building": "yes", "source": "Bing"}}}, {"type": "Feature", "geometry": {"type": "Polygon", "coordinates": [[[-97.4570155, 35.8803972], [-97.4570171, 35.8806718], [-97.4568562, 35.8806781], [-97.4568609, 35.880806], [-97.4569205, 35.8808038], [-97.4569205, 35.8810043], [-97.4566307, 35.8810068], [-97.4566292, 35.8808127], [-97.456684, 35.8808101], [-97.4566809, 35.8807277], [-97.45646, 35.880734], [-97.456446, 35.8804092], [-97.4570155, 35.8803972]]]}, "properties": {"osm_id": 239017508, "building": "yes", "name": "", "height": null, "height_m": null, "levels": null, "tract_id": "40083600200", "tract_name": "6002", "tags": {"building": "yes", "source": "Bing"}}}, {"type": "Feature", "geometry": {"type": "Polygon", "coordinates": [[[-97.4538243, 35.8801776], [-97.4539146, 35.8801769], [-97.4539146, 35.8801667], [-97.4539442, 35.8801674], [-97.4539442, 35.8801783], [-97.4540318, 35.880179], [-97.4540109, 35.8806838], [-97.4540442, 35.8806853], [-97.4540442, 35.8807298], [-97.4541448, 35.8807312], [-97.4541403, 35.8808754], [-97.4538071, 35.8808702], [-97.4538062, 35.8808805], [-97.4537771, 35.8808805], [-97.4537762, 35.8808967], [-97.4536764, 35.8808938], [-97.4536746, 35.880879], [-97.4536229, 35.8808764], [-97.4536224, 35.8808647], [-97.4534237, 35.8808641], [-97.4534237, 35.8808745], [-97.4533667, 35.880873], [-97.453366, 35.8808874], [-97.453268, 35.8808884], [-97.4532686, 35.8808701], [-97.4532361, 35.8808686], [-97.4532349, 35.8808581], [-97.4529021, 35.8808469], [-97.4529021, 35.8807023], [-97.4530445, 35.8807029], [-97.4530532, 35.8802355], [-97.4531474, 35.8802348], [-97.4531482, 35.880222], [-97.4531783, 35.880222], [-97.4531783, 35.8802369], [-97.4532608, 35.8802389], [-97.4532481, 35.8806954], [-97.4534606, 35.880697], [-97.4534623, 35.8806081], [-97.4535914, 35.8806074], [-97.4535892, 35.8806998], [-97.4538052, 35.8807053], [-97.4538243, 35.8801776]]]}, "properties": {"osm_id": 239017518, "building": "yes", "name": "", "height": null, "height_m": null, "levels": null, "tract_id": "40083600200", "tract_name": "6002", "tags": {"building": "yes", "source": "Bing"}}}, {"type": "Feature", "geometry": {"type": "Polygon", "coordinates": [[[-97.4565684, 35.8793273], [-97.4565684, 35.8793902], [-97.4564629, 35.8793913], [-97.4564643, 35.8793305], [-97.4565684, 35.8793273]]]}, "properties": {"osm_id": 239018019, "building": "roof", "name": "", "height": null, "height_m": null, "levels": null, "tract_id": "40083600200", "tract_name": "6002", "tags": {"amenity": "fuel", "building": "roof", "source": "Bing"}}}, {"type": "Feature", "geometry": {"type": "Polygon", "coordinates": [[[-97.4566831, 35.8792398], [-97.4566817, 35.8791608], [-97.4565065, 35.8791672], [-97.4565104, 35.879243], [-97.4566831, 35.8792398]]]}, "properties": {"osm_id": 239018021, "building": "yes", "name": "", "height": null, "height_m": null, "levels": null, "tract_id": "40083600200", "tract_name": "6002", "tags": {"building": "yes", "source": "Bing"}}}, {"type": "Feature", "geometry": {"type": "Polygon", "coordinates": [[[-97.4558211, 35.8789311], [-97.4556366, 35.8789303], [-97.4556345, 35.8788384], [-97.4555503, 35.8787693], [-97.455462, 35.8787685], [-97.4554664, 35.8784326], [-97.4558203, 35.8784383], [-97.4558211, 35.8789311]]]}, "properties": {"osm_id": 239018029, "building": "yes", "name": "", "height": null, "height_m": null, "levels": null, "tract_id": "40083600200", "tract_name": "6002", "tags": {"building": "yes", "source": "Bing"}}}, {"type": "Feature", "geometry": {"type": "Polygon", "coordinates": [[[-97.4564773, 35.8784687], [-97.4564854, 35.8788628], [-97.456403, 35.8788639], [-97.4563949, 35.878472], [-97.4564773, 35.8784687]]]}, "properties": {"osm_id": 239018034, "building": "yes", "name": "", "height": null, "height_m": null, "levels": null, "tract_id": "40083600200", "tract_name": "6002", "tags": {"building": "yes", "source": "Bing"}}}, {"type": "Feature", "geometry": {"type": "Polygon", "coordinates": [[[-97.4575408, 35.8790761], [-97.4575414, 35.8790536], [-97.4575586, 35.8790536], [-97.45756, 35.8789521], [-97.4575427, 35.878951], [-97.4575421, 35.8789376], [-97.4573785, 35.8789408], [-97.4573778, 35.8790799], [-97.4575408, 35.8790761]]]}, "properties": {"osm_id": 239023344, "building": "house", "name": "", "height": null, "height_m": null, "levels": null, "tract_id": "40083600200", "tract_name": "6002", "tags": {"building": "house", "source": "Bing"}}}, {"type": "Feature", "geometry": {"type": "Polygon", "coordinates": [[[-97.457537, 35.878837], [-97.4575364, 35.8788595], [-97.4573758, 35.8788609], [-97.4573729, 35.8787203], [-97.4575305, 35.8787184], [-97.4575317, 35.8787404], [-97.4575535, 35.8787399], [-97.4575535, 35.878837], [-97.457537, 35.878837]]]}, "properties": {"osm_id": 239023345, "building": "house", "name": "", "height": null, "height_m": null, "levels": null, "tract_id": "40083600200", "tract_name": "6002", "tags": {"building": "house", "source": "Bing"}}}, {"type": "Feature", "geometry": {"type": "Polygon", "coordinates": [[[-97.4575103, 35.8784899], [-97.457512, 35.878538], [-97.457549, 35.878538], [-97.4575508, 35.8786175], [-97.4575168, 35.8786194], [-97.457518, 35.8786417], [-97.4573966, 35.878646], [-97.4573893, 35.8783855], [-97.4575061, 35.878384], [-97.4575061, 35.8784065], [-97.4575428, 35.878405], [-97.4575471, 35.8784889], [-97.4575103, 35.8784899]]]}, "properties": {"osm_id": 239023347, "building": "house", "name": "", "height": null, "height_m": null, "levels": null, "tract_id": "40083600200", "tract_name": "6002", "tags": {"building": "house", "source": "Bing"}}}, {"type": "Feature", "geometry": {"type": "Polygon", "coordinates": [[[-97.4575214, 35.8782056], [-97.4575214, 35.8781829], [-97.457362, 35.8781859], [-97.4573675, 35.8783234], [-97.4575245, 35.8783175], [-97.4575232, 35.8782948], [-97.4575476, 35.8782953], [-97.4575439, 35.8782046], [-97.4575214, 35.8782056]]]}, "properties": {"osm_id": 239023349, "building": "house", "name": "", "height": null, "height_m": null, "levels": null, "tract_id": "40083600200", "tract_name": "6002", "tags": {"building": "house", "source": "Bing"}}}, {"type": "Feature", "geometry": {"type": "Polygon", "coordinates": [[[-97.457842, 35.8782715], [-97.4577194, 35.8782765], [-97.4577188, 35.8782591], [-97.4576949, 35.8782601], [-97.4576894, 35.8781324], [-97.4578616, 35.878128], [-97.4578665, 35.8782546], [-97.4578414, 35.8782571], [-97.457842, 35.8782715]]]}, "properties": {"osm_id": 239023354, "building": "house", "name": "", "height": null, "height_m": null, "levels": null, "tract_id": "40083600200", "tract_name": "6002", "tags": {"building": "house", "source": "Bing"}}}, {"type": "Feature", "geometry": {"type": "Polygon", "coordinates": [[[-97.4581693, 35.8781603], [-97.458168, 35.8781843], [-97.4581309, 35.8781868], [-97.4581693, 35.878221], [-97.4580863, 35.8782962], [-97.4580052, 35.878234], [-97.4580065, 35.8782089], [-97.4579805, 35.8782094], [-97.4579798, 35.8781477], [-97.4580065, 35.8781482], [-97.4580046, 35.8781181], [-97.4580789, 35.8780564], [-97.4581649, 35.8781236], [-97.4581272, 35.8781603], [-97.4581693, 35.8781603]]]}, "properties": {"osm_id": 239023362, "building": "house", "name": "", "height": null, "height_m": null, "levels": null, "tract_id": "40083600200", "tract_name": "6002", "tags": {"building": "house", "source": "Bing"}}}, {"type": "Feature", "geometry": {"type": "Polygon", "coordinates": [[[-97.4579734, 35.8784465], [-97.4580213, 35.8784458], [-97.4580213, 35.8784199], [-97.458128, 35.8784165], [-97.4581297, 35.8784438], [-97.4581582, 35.8784445], [-97.4581608, 35.8785425], [-97.4578432, 35.8785493], [-97.4578416, 35.8784499], [-97.4578659, 35.8784492], [-97.4578668, 35.8784234], [-97.4579743, 35.8784213], [-97.4579734, 35.8784465]]]}, "properties": {"osm_id": 239023367, "building": "house", "name": "", "height": null, "height_m": null, "levels": null, "tract_id": "40083600200", "tract_name": "6002", "tags": {"building": "house", "source": "Bing"}}}, {"type": "Feature", "geometry": {"type": "Polygon", "coordinates": [[[-97.4586032, 35.8788622], [-97.4584802, 35.8788638], [-97.4584808, 35.8788439], [-97.4584484, 35.8788454], [-97.4584497, 35.8787589], [-97.4584776, 35.8787589], [-97.4584763, 35.8787163], [-97.4584439, 35.8787174], [-97.4584446, 35.8786345], [-97.4584769, 35.8786329], [-97.4584763, 35.8786072], [-97.458598, 35.8786062], [-97.4586032, 35.8788622]]]}, "properties": {"osm_id": 239023373, "building": "house", "name": "", "height": null, "height_m": null, "levels": null, "tract_id": "40083600200", "tract_name": "6002", "tags": {"building": "house", "source": "Bing"}}}, {"type": "Feature", "geometry": {"type": "Polygon", "coordinates": [[[-97.458188, 35.8785913], [-97.458066, 35.8785966], [-97.4580725, 35.878853], [-97.4581971, 35.8788509], [-97.4581965, 35.8788276], [-97.4582298, 35.8788261], [-97.4582245, 35.8787425], [-97.4581939, 35.8787436], [-97.4581926, 35.8787018], [-97.4582265, 35.8787002], [-97.4582226, 35.8786167], [-97.4581887, 35.8786183], [-97.458188, 35.8785913]]]}, "properties": {"osm_id": 239023377, "building": "house", "name": "", "height": null, "height_m": null, "levels": null, "tract_id": "40083600200", "tract_name": "6002", "tags": {"building": "house", "source": "Bing"}}}, {"type": "Feature", "geometry": {"type": "Polygon", "coordinates": [[[-97.4581797, 35.8789983], [-97.4581528, 35.8789988], [-97.4581528, 35.879026], [-97.4580443, 35.8790276], [-97.4580443, 35.8790026], [-97.457995, 35.8790031], [-97.4579963, 35.8790287], [-97.4578879, 35.879034], [-97.4578872, 35.8790063], [-97.4578609, 35.8790068], [-97.4578556, 35.8789072], [-97.4581791, 35.8789003], [-97.4581797, 35.8789983]]]}, "properties": {"osm_id": 239023378, "building": "house", "name": "", "height": null, "height_m": null, "levels": null, "tract_id": "40083600200", "tract_name": "6002", "tags": {"building": "house", "source": "Bing"}}}, {"type": "Feature", "geometry": {"type": "Polygon", "coordinates": [[[-97.457949, 35.8788588], [-97.4578225, 35.8788604], [-97.4578232, 35.8788383], [-97.4577932, 35.8788394], [-97.4577925, 35.8787541], [-97.4578192, 35.8787531], [-97.4578198, 35.8787121], [-97.4577845, 35.8787142], [-97.4577826, 35.8786339], [-97.4578218, 35.8786339], [-97.4578205, 35.8786004], [-97.4579397, 35.878601], [-97.457949, 35.8788588]]]}, "properties": {"osm_id": 239023379, "building": "house", "name": "", "height": null, "height_m": null, "levels": null, "tract_id": "40083600200", "tract_name": "6002", "tags": {"building": "house", "source": "Bing"}}}, {"type": "Feature", "geometry": {"type": "Polygon", "coordinates": [[[-97.4578667, 35.8778881], [-97.4578418, 35.8778875], [-97.4578424, 35.8778591], [-97.4577009, 35.8778641], [-97.4577016, 35.8778925], [-97.4576786, 35.8778925], [-97.4576827, 35.8780454], [-97.4578741, 35.8780394], [-97.4578667, 35.8778881]]]}, "properties": {"osm_id": 239023380, "building": "house", "name": "", "height": null, "height_m": null, "levels": null, "tract_id": "40083600200", "tract_name": "6002", "tags": {"building": "house", "source": "Bing"}}}, {"type": "Feature", "geometry": {"type": "Polygon", "coordinates": [[[-97.4586183, 35.8778015], [-97.458619, 35.8778313], [-97.4586388, 35.8778302], [-97.4586463, 35.8779784], [-97.4584695, 35.8779823], [-97.458464, 35.8778335], [-97.4584866, 35.8778324], [-97.4584845, 35.8778031], [-97.4586183, 35.8778015]]]}, "properties": {"osm_id": 239023381, "building": "house", "name": "", "height": null, "height_m": null, "levels": null, "tract_id": "40083600200", "tract_name": "6002", "tags": {"building": "house", "source": "Bing"}}}, {"type": "Feature", "geometry": {"type": "Polygon", "coordinates": [[[-97.4643957, 35.8790887], [-97.4639762, 35.8790872], [-97.4639744, 35.8794635], [-97.4643885, 35.8794606], [-97.4643957, 35.8790887]]]}, "properties": {"osm_id": 239023382, "building": "yes", "name": "", "height": null, "height_m": null, "levels": null, "tract_id": "40083600200", "tract_name": "6002", "tags": {"building": "yes", "source": "Bing"}}}, {"type": "Feature", "geometry": {"type": "Polygon", "coordinates": [[[-97.4639332, 35.8794591], [-97.4637217, 35.87946], [-97.463718, 35.8790495], [-97.4635352, 35.8790451], [-97.4635316, 35.8788606], [-97.4634007, 35.8788592], [-97.4634025, 35.8787473], [-97.4635836, 35.8787459], [-97.4635889, 35.8787851], [-97.463874, 35.878788], [-97.4638704, 35.8788795], [-97.4639184, 35.8788794], [-97.4639194, 35.8787858], [-97.4640562, 35.8787899], [-97.4640572, 35.8788819], [-97.4643818, 35.878882], [-97.4643787, 35.8790496], [-97.4639377, 35.8790463], [-97.4639332, 35.8794591]]]}, "properties": {"osm_id": 239023383, "building": "yes", "name": "", "height": null, "height_m": null, "levels": null, "tract_id": "40083600200", "tract_name": "6002", "tags": {"building": "yes", "source": "Bing"}}}, {"type": "Feature", "geometry": {"type": "Polygon", "coordinates": [[[-97.4639734, 35.8802503], [-97.4636335, 35.8802404], [-97.463643, 35.8799639], [-97.4639856, 35.8799749], [-97.4639734, 35.8802503]]]}, "properties": {"osm_id": 239023384, "building": "yes", "name": "", "height": null, "height_m": null, "levels": null, "tract_id": "40083600200", "tract_name": "6002", "tags": {"building": "yes", "source": "Bing"}}}, {"type": "Feature", "geometry": {"type": "Polygon", "coordinates": [[[-97.4641208, 35.8799495], [-97.463654, 35.879934], [-97.4636608, 35.8797925], [-97.463841, 35.8798013], [-97.4638437, 35.8797615], [-97.4639144, 35.8797637], [-97.4639129, 35.8798037], [-97.4641205, 35.8798085], [-97.4641208, 35.8799495]]]}, "properties": {"osm_id": 239023385, "building": "yes", "name": "", "height": null, "height_m": null, "levels": null, "tract_id": "40083600200", "tract_name": "6002", "tags": {"building": "yes", "source": "Bing"}}}, {"type": "Feature", "geometry": {"type": "Polygon", "coordinates": [[[-97.4615325, 35.8804519], [-97.4613496, 35.880366], [-97.4615534, 35.8800809], [-97.4617349, 35.8801669], [-97.4615325, 35.8804519]]]}, "properties": {"osm_id": 239023387, "building": "yes", "name": "", "height": null, "height_m": null, "levels": null, "tract_id": "40083600200", "tract_name": "6002", "tags": {"building": "yes", "source": "Bing"}}}, {"type": "Feature", "geometry": {"type": "Polygon", "coordinates": [[[-97.4615463, 35.8800196], [-97.4615081, 35.8800821], [-97.461423, 35.8800447], [-97.4614588, 35.8799829], [-97.4615463, 35.8800196]]]}, "properties": {"osm_id": 239023389, "building": "yes", "name": "", "height": null, "height_m": null, "levels": null, "tract_id": "40083600200", "tract_name": "6002", "tags": {"building": "yes", "source": "Bing"}}}, {"type": "Feature", "geometry": {"type": "Polygon", "coordinates": [[[-97.4610489, 35.880004], [-97.4608787, 35.8800053], [-97.4608757, 35.8801187], [-97.4607047, 35.8801161], [-97.4607133, 35.8798487], [-97.460877, 35.8798517], [-97.4608779, 35.8798361], [-97.4610489, 35.8798354], [-97.4610497, 35.8798504], [-97.4611389, 35.879853], [-97.4611389, 35.8799903], [-97.4610465, 35.8799916], [-97.4610489, 35.880004]]]}, "properties": {"osm_id": 239023390, "building": "yes", "name": "", "height": null, "height_m": null, "levels": null, "tract_id": "40083600200", "tract_name": "6002", "tags": {"building": "yes", "source": "Bing"}}}, {"type": "Feature", "geometry": {"type": "Polygon", "coordinates": [[[-97.4614093, 35.8795194], [-97.4612465, 35.8795691], [-97.4611551, 35.879384], [-97.4613122, 35.8793308], [-97.4614093, 35.8795194]]]}, "properties": {"osm_id": 239023391, "building": "yes", "name": "", "height": null, "height_m": null, "levels": null, "tract_id": "40083600200", "tract_name": "6002", "tags": {"building": "yes", "source": "Bing"}}}, {"type": "Feature", "geometry": {"type": "Polygon", "coordinates": [[[-97.4613202, 35.8829324], [-97.4612914, 35.8829316], [-97.4612894, 35.8830392], [-97.4613171, 35.8830383], [-97.4613202, 35.8829324]]]}, "properties": {"osm_id": 239023406, "building": "yes", "name": "", "height": null, "height_m": null, "levels": null, "tract_id": "40083600200", "tract_name": "6002", "tags": {"building": "yes", "source": "Bing"}}}, {"type": "Feature", "geometry": {"type": "Polygon", "coordinates": [[[-97.460846, 35.8826664], [-97.460846, 35.8826921], [-97.4608161, 35.8826916], [-97.4608173, 35.8826978], [-97.4607745, 35.8826978], [-97.4607745, 35.8826926], [-97.4607475, 35.8826911], [-97.4607493, 35.882665], [-97.460778, 35.882666], [-97.460778, 35.8826588], [-97.4608178, 35.8826593], [-97.4608184, 35.8826679], [-97.460846, 35.8826664]]]}, "properties": {"osm_id": 239023407, "building": "yes", "name": "", "height": null, "height_m": null, "levels": null, "tract_id": "40083600200", "tract_name": "6002", "tags": {"building": "yes", "source": "Bing"}}}, {"type": "Feature", "geometry": {"type": "Polygon", "coordinates": [[[-97.4399432, 35.8861222], [-97.4398392, 35.8861216], [-97.4398392, 35.8860386], [-97.439861, 35.886038], [-97.439861, 35.8860222], [-97.4399432, 35.8860216], [-97.4399432, 35.8861222]]]}, "properties": {"osm_id": 249302710, "building": "house", "name": "", "height": null, "height_m": null, "levels": null, "tract_id": "40083600200", "tract_name": "6002", "tags": {"addr:city": "Guthrie", "addr:country": "US", "addr:housenumber": "1213", "addr:postcode": "73044", "addr:state": "OK", "addr:street": "West Dale Avenue", "building": "house", "source": "Bing"}}}, {"type": "Feature", "geometry": {"type": "Polygon", "coordinates": [[[-97.4653493, 35.8808841], [-97.4651384, 35.8808764], [-97.4651441, 35.8807995], [-97.4650131, 35.8807902], [-97.4650302, 35.8806224], [-97.4651631, 35.8806317], [-97.4651669, 35.880547], [-97.4653683, 35.8805593], [-97.4653493, 35.8808841]]]}, "properties": {"osm_id": 256114014, "building": "yes", "name": "", "height": null, "height_m": null, "levels": null, "tract_id": "40083600200", "tract_name": "6002", "tags": {"building": "yes", "source": "Bing"}}}, {"type": "Feature", "geometry": {"type": "Polygon", "coordinates": [[[-97.4658623, 35.8807779], [-97.4657464, 35.8807748], [-97.4657445, 35.8805024], [-97.4658642, 35.8805024], [-97.4658623, 35.8807779]]]}, "properties": {"osm_id": 256114015, "building": "yes", "name": "", "height": null, "height_m": null, "levels": null, "tract_id": "40083600200", "tract_name": "6002", "tags": {"building": "yes", "source": "Bing"}}}, {"type": "Feature", "geometry": {"type": "Polygon", "coordinates": [[[-97.4651555, 35.8813906], [-97.465051, 35.8812874], [-97.4651498, 35.8812212], [-97.4652551, 35.88132], [-97.4651555, 35.8813906]]]}, "properties": {"osm_id": 256114016, "building": "yes", "name": "", "height": null, "height_m": null, "levels": null, "tract_id": "40083600200", "tract_name": "6002", "tags": {"building": "yes", "source": "Bing"}}}, {"type": "Feature", "geometry": {"type": "Polygon", "coordinates": [[[-97.4560234, 35.8775303], [-97.4559473, 35.8775303], [-97.4559473, 35.8775141], [-97.4558804, 35.8775141], [-97.4558804, 35.8774585], [-97.4558654, 35.8774592], [-97.4558637, 35.8772979], [-97.4559574, 35.8772958], [-97.4559565, 35.8773128], [-97.456036, 35.8773094], [-97.456036, 35.8774727], [-97.4560268, 35.8774727], [-97.4560234, 35.8775303]]]}, "properties": {"osm_id": 256120808, "building": "house", "name": "", "height": null, "height_m": null, "levels": null, "tract_id": "40083600200", "tract_name": "6002", "tags": {"building": "house", "source": "Bing"}}}, {"type": "Feature", "geometry": {"type": "Polygon", "coordinates": [[[-97.4561581, 35.8775086], [-97.4561581, 35.8775242], [-97.4562284, 35.8775242], [-97.45623, 35.87747], [-97.4562434, 35.87747], [-97.4562426, 35.8773053], [-97.4561614, 35.8773067], [-97.4561606, 35.8772904], [-97.4560694, 35.8772931], [-97.4560703, 35.8774571], [-97.4560862, 35.8774571], [-97.4560887, 35.8775093], [-97.4561581, 35.8775086]]]}, "properties": {"osm_id": 256120809, "building": "house", "name": "", "height": null, "height_m": null, "levels": null, "tract_id": "40083600200", "tract_name": "6002", "tags": {"building": "house", "source": "Bing"}}}, {"type": "Feature", "geometry": {"type": "Polygon", "coordinates": [[[-97.4563139, 35.8774502], [-97.4562954, 35.8774502], [-97.4562954, 35.8772854], [-97.4563853, 35.8772861], [-97.4563862, 35.8773065], [-97.4564694, 35.8773058], [-97.4564694, 35.8774672], [-97.4564551, 35.8774672], [-97.4564551, 35.8775204], [-97.4563786, 35.8775217], [-97.4563786, 35.8775061], [-97.4563139, 35.8775061], [-97.4563139, 35.8774502]]]}, "properties": {"osm_id": 256120810, "building": "house", "name": "", "height": null, "height_m": null, "levels": null, "tract_id": "40083600200", "tract_name": "6002", "tags": {"building": "house", "source": "Bing"}}}, {"type": "Feature", "geometry": {"type": "Polygon", "coordinates": [[[-97.4565098, 35.8774645], [-97.4565268, 35.8774645], [-97.4565301, 35.8775187], [-97.4566064, 35.8775181], [-97.4566064, 35.8775057], [-97.4566707, 35.877505], [-97.4566716, 35.8774508], [-97.4566885, 35.8774501], [-97.4566894, 35.8772827], [-97.4565979, 35.8772868], [-97.4565987, 35.8773019], [-97.4565107, 35.8772998], [-97.4565098, 35.8774645]]]}, "properties": {"osm_id": 256120811, "building": "house", "name": "", "height": null, "height_m": null, "levels": null, "tract_id": "40083600200", "tract_name": "6002", "tags": {"building": "house", "source": "Bing"}}}, {"type": "Feature", "geometry": {"type": "Polygon", "coordinates": [[[-97.4567486, 35.8775166], [-97.4568231, 35.8775161], [-97.4568243, 35.8775], [-97.4568886, 35.8774995], [-97.4568891, 35.8774433], [-97.4569045, 35.8774428], [-97.4569051, 35.8772806], [-97.4568152, 35.8772843], [-97.4568146, 35.8772995], [-97.4567282, 35.8773008], [-97.4567304, 35.8774613], [-97.4567452, 35.8774608], [-97.4567486, 35.8775166]]]}, "properties": {"osm_id": 256120812, "building": "house", "name": "", "height": null, "height_m": null, "levels": null, "tract_id": "40083600200", "tract_name": "6002", "tags": {"building": "house", "source": "Bing"}}}, {"type": "Feature", "geometry": {"type": "Polygon", "coordinates": [[[-97.4570554, 35.877511], [-97.4569776, 35.8775103], [-97.4569764, 35.8774553], [-97.4569582, 35.877456], [-97.4569611, 35.8772907], [-97.4570487, 35.8772911], [-97.4570493, 35.8772737], [-97.4571387, 35.8772747], [-97.4571369, 35.877436], [-97.4571241, 35.8774355], [-97.4571207, 35.8774914], [-97.4570568, 35.8774929], [-97.4570554, 35.877511]]]}, "properties": {"osm_id": 256120813, "building": "house", "name": "", "height": null, "height_m": null, "levels": null, "tract_id": "40083600200", "tract_name": "6002", "tags": {"building": "house", "source": "Bing"}}}, {"type": "Feature", "geometry": {"type": "Polygon", "coordinates": [[[-97.4573697, 35.8775008], [-97.4572964, 35.8775032], [-97.4572958, 35.8774718], [-97.4572688, 35.8774723], [-97.4572682, 35.8775013], [-97.4572126, 35.8775022], [-97.4572108, 35.8773787], [-97.4573697, 35.8773759], [-97.4573697, 35.8775008]]]}, "properties": {"osm_id": 256120814, "building": "house", "name": "", "height": null, "height_m": null, "levels": null, "tract_id": "40083600200", "tract_name": "6002", "tags": {"building": "house", "source": "Bing"}}}, {"type": "Feature", "geometry": {"type": "Polygon", "coordinates": [[[-97.4542203, 35.879368], [-97.4542155, 35.8792511], [-97.4544874, 35.8792459], [-97.4544882, 35.8793616], [-97.4542203, 35.879368]]]}, "properties": {"osm_id": 256120815, "building": "yes", "name": "", "height": null, "height_m": null, "levels": null, "tract_id": "40083600200", "tract_name": "6002", "tags": {"building": "yes", "source": "Bing"}}}, {"type": "Feature", "geometry": {"type": "Polygon", "coordinates": [[[-97.4541058, 35.8794251], [-97.4540418, 35.8794251], [-97.4540434, 35.8792632], [-97.4541066, 35.8792612], [-97.4541058, 35.8794251]]]}, "properties": {"osm_id": 256120816, "building": "yes", "name": "", "height": null, "height_m": null, "levels": null, "tract_id": "40083600200", "tract_name": "6002", "tags": {"building": "yes", "source": "Bing"}}}, {"type": "Feature", "geometry": {"type": "Polygon", "coordinates": [[[-97.4547232, 35.8791676], [-97.4545524, 35.8791676], [-97.454554, 35.8789474], [-97.4547241, 35.8789461], [-97.4547232, 35.8791676]]]}, "properties": {"osm_id": 256120817, "building": "yes", "name": "", "height": null, "height_m": null, "levels": null, "tract_id": "40083600200", "tract_name": "6002", "tags": {"building": "yes", "source": "Bing"}}}, {"type": "Feature", "geometry": {"type": "Polygon", "coordinates": [[[-97.4549515, 35.8793378], [-97.4548149, 35.8793378], [-97.4548149, 35.8792453], [-97.4549515, 35.8792471], [-97.4549515, 35.8793378]]]}, "properties": {"osm_id": 256120818, "building": "yes", "name": "", "height": null, "height_m": null, "levels": null, "tract_id": "40083600200", "tract_name": "6002", "tags": {"building": "yes", "source": "Bing"}}}, {"type": "Feature", "geometry": {"type": "Polygon", "coordinates": [[[-97.4550202, 35.8779981], [-97.4549861, 35.8779999], [-97.4549861, 35.8780035], [-97.4548685, 35.8780047], [-97.4548678, 35.87791], [-97.4549033, 35.8779088], [-97.454904, 35.877895], [-97.4549344, 35.8778956], [-97.4549351, 35.8779076], [-97.4549869, 35.8779076], [-97.4549869, 35.8779435], [-97.4550202, 35.8779429], [-97.4550202, 35.8779981]]]}, "properties": {"osm_id": 256120819, "building": "house", "name": "", "height": null, "height_m": null, "levels": null, "tract_id": "40083600200", "tract_name": "6002", "tags": {"building": "house", "source": "Bing"}}}, {"type": "Feature", "geometry": {"type": "Polygon", "coordinates": [[[-97.4591473, 35.8779294], [-97.4591497, 35.8780621], [-97.4592565, 35.8780602], [-97.4592577, 35.8780405], [-97.4594142, 35.8780366], [-97.4594118, 35.8779461], [-97.4592589, 35.8779459], [-97.4592595, 35.8779292], [-97.4591473, 35.8779294]]]}, "properties": {"osm_id": 256120821, "building": "house", "name": "", "height": null, "height_m": null, "levels": null, "tract_id": "40083600200", "tract_name": "6002", "tags": {"building": "house", "source": "Bing"}}}, {"type": "Feature", "geometry": {"type": "Polygon", "coordinates": [[[-97.4608481, 35.8733178], [-97.4608185, 35.8733416], [-97.4608831, 35.8733966], [-97.4608938, 35.8733887], [-97.4609175, 35.8734079], [-97.4609078, 35.8734158], [-97.460967, 35.8734655], [-97.4609778, 35.8734568], [-97.4610036, 35.8734768], [-97.4609929, 35.8734855], [-97.4610489, 35.8735344], [-97.4609907, 35.8735789], [-97.4610015, 35.8735876], [-97.4609778, 35.8736077], [-97.460967, 35.8735989], [-97.4609057, 35.8736478], [-97.4609165, 35.8736574], [-97.4608938, 35.8736766], [-97.4608831, 35.873667], [-97.4608422, 35.8737054], [-97.4608669, 35.8737237], [-97.4608303, 35.8737525], [-97.4609304, 35.8738362], [-97.4609681, 35.8738065], [-97.4609896, 35.8738266], [-97.4610553, 35.873776], [-97.4610445, 35.8737682], [-97.4610704, 35.8737446], [-97.4610801, 35.8737542], [-97.4611414, 35.8737054], [-97.4611307, 35.8736966], [-97.4611543, 35.8736766], [-97.461164, 35.8736827], [-97.4611996, 35.8736556], [-97.461234, 35.8736844], [-97.4612448, 35.8736748], [-97.4612706, 35.8736958], [-97.4612598, 35.8737036], [-97.4613169, 35.8737551], [-97.4613319, 35.8737436], [-97.4613584, 35.8737665], [-97.4613476, 35.873773], [-97.4614099, 35.8738258], [-97.4614365, 35.8738047], [-97.4614712, 35.8738337], [-97.4615694, 35.8737522], [-97.4615304, 35.8737233], [-97.4615562, 35.8737006], [-97.4615156, 35.8736677], [-97.4615068, 35.8736752], [-97.4614799, 35.8736548], [-97.4614909, 35.873645], [-97.4614299, 35.8735978], [-97.4614239, 35.8736049], [-97.461397, 35.8735858], [-97.4614063, 35.8735769], [-97.4613312, 35.8735163], [-97.4614256, 35.8734394], [-97.4612926, 35.8733235], [-97.4611982, 35.8733989], [-97.4611262, 35.8733374], [-97.4611156, 35.8733465], [-97.4610931, 35.8733288], [-97.461103, 35.8733192], [-97.4610422, 35.8732706], [-97.4610328, 35.8732797], [-97.4610089, 35.8732614], [-97.4610195, 35.8732501], [-97.4609743, 35.8732177], [-97.460951, 35.8732387], [-97.4609137, 35.8732091], [-97.4608143, 35.8732912], [-97.4608481, 35.8733178]]]}, "properties": {"osm_id": 256120822, "building": "yes", "name": "", "height": null, "height_m": null, "levels": null, "tract_id": "40083600200", "tract_name": "6002", "tags": {"building": "yes", "source": "Bing"}}}, {"type": "Feature", "geometry": {"type": "Polygon", "coordinates": [[[-97.423317, 35.8859963], [-97.4233178, 35.8859105], [-97.4232427, 35.8859101], [-97.4232419, 35.8859958], [-97.423317, 35.8859963]]]}, "properties": {"osm_id": 605081474, "building": "house", "name": "", "height": null, "height_m": null, "levels": null, "tract_id": "40083600200", "tract_name": "6002", "tags": {"building": "house"}}}, {"type": "Feature", "geometry": {"type": "Polygon", "coordinates": [[[-97.4232026, 35.8852559], [-97.4231977, 35.8851841], [-97.4231272, 35.8851872], [-97.4231249, 35.8851541], [-97.42305, 35.8851575], [-97.4230522, 35.8851909], [-97.4230244, 35.8851921], [-97.4230279, 35.8852437], [-97.4231156, 35.8852398], [-97.4231237, 35.8852594], [-97.4232026, 35.8852559]]]}, "properties": {"osm_id": 605081475, "building": "house", "name": "", "height": null, "height_m": null, "levels": null, "tract_id": "40083600200", "tract_name": "6002", "tags": {"building": "house"}}}, {"type": "Feature", "geometry": {"type": "Polygon", "coordinates": [[[-97.4232635, 35.885075], [-97.4232601, 35.8849881], [-97.4230321, 35.884994], [-97.4230355, 35.8850809], [-97.4232635, 35.885075]]]}, "properties": {"osm_id": 605081476, "building": "house", "name": "", "height": null, "height_m": null, "levels": null, "tract_id": "40083600200", "tract_name": "6002", "tags": {"building": "house"}}}, {"type": "Feature", "geometry": {"type": "Polygon", "coordinates": [[[-97.4232244, 35.8849542], [-97.4232227, 35.8848905], [-97.4230337, 35.8848931], [-97.4230378, 35.8849617], [-97.4230709, 35.8849602], [-97.4230781, 35.8849769], [-97.4231752, 35.8849752], [-97.4231747, 35.8849551], [-97.4232244, 35.8849542]]]}, "properties": {"osm_id": 605081477, "building": "house", "name": "", "height": null, "height_m": null, "levels": null, "tract_id": "40083600200", "tract_name": "6002", "tags": {"building": "house"}}}, {"type": "Feature", "geometry": {"type": "Polygon", "coordinates": [[[-97.4345872, 35.9014784], [-97.4346098, 35.9014925], [-97.4346259, 35.9015116], [-97.4346338, 35.9015337], [-97.4346328, 35.9015568], [-97.434623, 35.9015785], [-97.4346053, 35.9015967], [-97.4345815, 35.9016094], [-97.434554, 35.9016156], [-97.4345229, 35.901614], [-97.4344943, 35.901604], [-97.4344716, 35.9015867], [-97.4344575, 35.9015642], [-97.4344537, 35.9015391], [-97.4344606, 35.9015145], [-97.4344774, 35.9014932], [-97.4345021, 35.9014779], [-97.4345318, 35.9014702], [-97.4345603, 35.9014707], [-97.4345872, 35.9014784]]]}, "properties": {"osm_id": 795411724, "building": "yes", "name": "", "height": null, "height_m": null, "levels": null, "tract_id": "40083600200", "tract_name": "6002", "tags": {"building": "yes", "man_made": "storage_tank"}}}, {"type": "Feature", "geometry": {"type": "Polygon", "coordinates": [[[-97.4345791, 35.9013128], [-97.4346017, 35.9013269], [-97.4346178, 35.901346], [-97.4346257, 35.9013682], [-97.4346247, 35.9013912], [-97.4346149, 35.9014129], [-97.4345972, 35.9014311], [-97.4345735, 35.9014438], [-97.434546, 35.90145], [-97.4345149, 35.9014484], [-97.4344863, 35.9014384], [-97.4344636, 35.9014211], [-97.4344495, 35.9013986], [-97.4344456, 35.9013735], [-97.4344525, 35.9013489], [-97.4344693, 35.9013277], [-97.434494, 35.9013123], [-97.4345237, 35.9013046], [-97.4345522, 35.9013051], [-97.4345791, 35.9013128]]]}, "properties": {"osm_id": 795411725, "building": "yes", "name": "", "height": null, "height_m": null, "levels": null, "tract_id": "40083600200", "tract_name": "6002", "tags": {"building": "yes", "man_made": "storage_tank"}}}, {"type": "Feature", "geometry": {"type": "Polygon", "coordinates": [[[-97.4251815, 35.8806225], [-97.4249295, 35.8806251], [-97.4249279, 35.8805171], [-97.4250368, 35.8805171], [-97.4250368, 35.8803221], [-97.4251717, 35.8803221], [-97.4251701, 35.8805079], [-97.4251896, 35.8805066], [-97.4251815, 35.8806225]]]}, "properties": {"osm_id": 884481598, "building": "yes", "name": "", "height": null, "height_m": null, "levels": null, "tract_id": "40083600200", "tract_name": "6002", "tags": {"building": "yes", "source": "Bing"}}}, {"type": "Feature", "geometry": {"type": "Polygon", "coordinates": [[[-97.4242166, 35.8806831], [-97.4242126, 35.8810469], [-97.4245208, 35.8810492], [-97.4245248, 35.8806853], [-97.4242166, 35.8806831]]]}, "properties": {"osm_id": 1392687043, "building": "yes", "name": "", "height": null, "height_m": null, "levels": null, "tract_id": "40083600200", "tract_name": "6002", "tags": {"building": "yes"}}}]}