{"type": "FeatureCollection", "features": [{"type": "Feature", "geometry": {"type": "Polygon", "coordinates": [[[-97.9289595, 35.0443109], [-97.9288868, 35.0443189], [-97.9288737, 35.044239], [-97.9289464, 35.044231], [-97.9289595, 35.0443109]]]}, "properties": {"osm_id": 368184577, "building": "school", "name": "Verden Separate School House", "height": null, "height_m": null, "levels": null, "tract_id": "40051001000", "tract_name": "10", "tags": {"building": "school", "name": "Verden Separate School House", "note": "historic, one room school bulding", "source": "http://www.waymarking.com/waymarks/WMACM9_Verden_Separate_School_Chickasha_OK"}}}, {"type": "Feature", "geometry": {"type": "Polygon", "coordinates": [[[-97.9372728, 35.0522176], [-97.9372759, 35.0519006], [-97.9370718, 35.0518993], [-97.9370687, 35.0522162], [-97.9372728, 35.0522176]]]}, "properties": {"osm_id": 368184812, "building": "yes", "name": "Chickasha City Hall", "height": null, "height_m": null, "levels": null, "tract_id": "40051001000", "tract_name": "10", "tags": {"amenity": "townhall", "building": "yes", "name": "Chickasha City Hall", "source": "personal observation"}}}, {"type": "Feature", "geometry": {"type": "Polygon", "coordinates": [[[-97.9292859, 35.0492209], [-97.9292832, 35.0489771], [-97.9285349, 35.0489683], [-97.9285322, 35.0492253], [-97.9292859, 35.0492209]]]}, "properties": {"osm_id": 368204017, "building": "public", "name": "Grady County Fairgrounds", "height": null, "height_m": null, "levels": null, "tract_id": "40051001000", "tract_name": "10", "tags": {"building": "public", "name": "Grady County Fairgrounds", "source": "http://gradycountyfairgrounds.com/"}}}, {"type": "Feature", "geometry": {"type": "Polygon", "coordinates": [[[-97.9292993, 35.0509643], [-97.9293045, 35.0506268], [-97.928964, 35.0506284], [-97.9289613, 35.0508458], [-97.9289049, 35.0508486], [-97.9289057, 35.050914], [-97.928956, 35.050916], [-97.9289563, 35.0509667], [-97.9292993, 35.0509643]]]}, "properties": {"osm_id": 368204018, "building": "public", "name": "Grady County Fairgrounds", "height": null, "height_m": null, "levels": null, "tract_id": "40051001000", "tract_name": "10", "tags": {"building": "public", "name": "Grady County Fairgrounds", "source": "http://gradycountyfairgrounds.com/"}}}, {"type": "Feature", "geometry": {"type": "Polygon", "coordinates": [[[-97.9294415, 35.0504176], [-97.9294413, 35.0496585], [-97.9292188, 35.0496556], [-97.9292162, 35.0493043], [-97.9287763, 35.0493065], [-97.9287736, 35.0496578], [-97.9285402, 35.0496578], [-97.9285402, 35.0504198], [-97.9294415, 35.0504176]]]}, "properties": {"osm_id": 368204019, "building": "public", "name": "Grady County Fairground", "height": null, "height_m": null, "levels": null, "tract_id": "40051001000", "tract_name": "10", "tags": {"addr:city": "Chickasha", "addr:housename": "Grady County Fairgrounds", "addr:housenumber": "500", "addr:postcode": "73018", "addr:street": "East Choctaw Avenue", "building": "public", "name": "Grady County Fairground", "source": "http://gradycountyfairgrounds.com/"}}}, {"type": "Feature", "geometry": {"type": "Polygon", "coordinates": [[[-97.9285402, 35.0515045], [-97.9294441, 35.0515023], [-97.9294441, 35.0511597], [-97.9285429, 35.051151], [-97.9285402, 35.0515045]]]}, "properties": {"osm_id": 368204083, "building": "public", "name": "Grady County Fairgrounds", "height": null, "height_m": null, "levels": null, "tract_id": "40051001000", "tract_name": "10", "tags": {"building": "public", "name": "Grady County Fairgrounds", "source": "http://gradycountyfairgrounds.com/"}}}, {"type": "Feature", "geometry": {"type": "Polygon", "coordinates": [[[-97.9300825, 35.0504154], [-97.9300798, 35.0502068], [-97.9300047, 35.0502046], [-97.9300047, 35.0500663], [-97.9300825, 35.0500619], [-97.9300826, 35.0495071], [-97.9298839, 35.049507], [-97.9298787, 35.0504198], [-97.9300825, 35.0504154]]]}, "properties": {"osm_id": 368204088, "building": "public", "name": "Grady County Fairgrounds", "height": null, "height_m": null, "levels": null, "tract_id": "40051001000", "tract_name": "10", "tags": {"building": "public", "name": "Grady County Fairgrounds", "source": "http://gradycountyfairgrounds.com/"}}}, {"type": "Feature", "geometry": {"type": "Polygon", "coordinates": [[[-97.9423903, 35.050946], [-97.9423902, 35.0507967], [-97.9425726, 35.0507967], [-97.9425726, 35.0505918], [-97.9424036, 35.0505918], [-97.9424036, 35.0505763], [-97.9419816, 35.0505763], [-97.9419816, 35.0509461], [-97.9423903, 35.050946]]]}, "properties": {"osm_id": 368229181, "building": "yes", "name": "Chickasha Area YMCA", "height": null, "height_m": null, "levels": null, "tract_id": "40051001000", "tract_name": "10", "tags": {"addr:city": "Chickasha", "addr:housename": "Chickasha Area YMCA", "addr:housenumber": "725", "addr:postcode": "73018", "addr:street": "West Chickasha Avenue", "building": "yes", "name": "Chickasha Area YMCA", "source": "personal observation, gps, bing"}}}, {"type": "Feature", "geometry": {"type": "Polygon", "coordinates": [[[-97.9418958, 35.0504424], [-97.9418935, 35.0500893], [-97.9414827, 35.0500911], [-97.941485, 35.0504442], [-97.9418958, 35.0504424]]]}, "properties": {"osm_id": 368229880, "building": "yes", "name": "U.S. Post Office Chickasha", "height": null, "height_m": null, "levels": null, "tract_id": "40051001000", "tract_name": "10", "tags": {"amenity": "post_office", "building": "yes", "name": "U.S. Post Office Chickasha", "operator": "United States Postal Service", "operator:short": "USPS", "operator:type": "public", "operator:website": "https://www.usps.com", "operator:wikidata": "Q668687", "operator:wikipedia": "en:United States Postal Service", "short_name": "USPS", "source": "personal observation, gps, bing"}}}, {"type": "Feature", "geometry": {"type": "Polygon", "coordinates": [[[-97.932429, 35.0521137], [-97.9323651, 35.0519084], [-97.9324395, 35.051895], [-97.932398, 35.0517612], [-97.9323195, 35.0517789], [-97.9322899, 35.0516822], [-97.9321692, 35.0517108], [-97.9323, 35.0521409], [-97.932429, 35.0521137]]]}, "properties": {"osm_id": 368486963, "building": "public", "name": "Rock Island Depot", "height": null, "height_m": null, "levels": null, "tract_id": "40051001000", "tract_name": "10", "tags": {"building": "public", "name": "Rock Island Depot", "operator": "city of chickasha", "source": "bing, http://www.chickasha.org/Facilities/Facility/Details/Rock-Island-Depot-17"}}}, {"type": "Feature", "geometry": {"type": "Polygon", "coordinates": [[[-97.9401051, 35.0517488], [-97.9401023, 35.0515723], [-97.9402158, 35.0515724], [-97.9402158, 35.0512935], [-97.9399583, 35.0512935], [-97.9399637, 35.0517481], [-97.9401051, 35.0517488]]]}, "properties": {"osm_id": 368502291, "building": "yes", "name": "Chickasha Police Dept.", "height": null, "height_m": null, "levels": null, "tract_id": "40051001000", "tract_name": "10", "tags": {"amenity": "police", "building": "yes", "name": "Chickasha Police Dept."}}}, {"type": "Feature", "geometry": {"type": "Polygon", "coordinates": [[[-97.9295738, 35.0359838], [-97.9294596, 35.0359823], [-97.9294629, 35.0358151], [-97.9295786, 35.0358167], [-97.9295778, 35.0358523], [-97.929559, 35.0358521], [-97.9295571, 35.0359487], [-97.9295745, 35.0359489], [-97.9295738, 35.0359838]]]}, "properties": {"osm_id": 457965199, "building": "yes", "name": "", "height": null, "height_m": null, "levels": null, "tract_id": "40051001000", "tract_name": "10", "tags": {"building": "yes"}}}, {"type": "Feature", "geometry": {"type": "Polygon", "coordinates": [[[-97.943881, 35.0518008], [-97.9438802, 35.0518405], [-97.9437971, 35.0518394], [-97.9437979, 35.0517997], [-97.943881, 35.0518008]]]}, "properties": {"osm_id": 797973478, "building": "yes", "name": "", "height": null, "height_m": null, "levels": null, "tract_id": "40051001000", "tract_name": "10", "tags": {"building": "yes"}}}, {"type": "Feature", "geometry": {"type": "Polygon", "coordinates": [[[-97.9437563, 35.0518074], [-97.9437536, 35.051842], [-97.9436704, 35.0518376], [-97.9436731, 35.051803], [-97.9437563, 35.0518074]]]}, "properties": {"osm_id": 797973479, "building": "yes", "name": "", "height": null, "height_m": null, "levels": null, "tract_id": "40051001000", "tract_name": "10", "tags": {"building": "yes"}}}, {"type": "Feature", "geometry": {"type": "Polygon", "coordinates": [[[-97.9437429, 35.0518502], [-97.9437442, 35.0520061], [-97.9436719, 35.0520066], [-97.9436705, 35.0518507], [-97.9437429, 35.0518502]]]}, "properties": {"osm_id": 797973480, "building": "yes", "name": "", "height": null, "height_m": null, "levels": null, "tract_id": "40051001000", "tract_name": "10", "tags": {"building": "yes"}}}, {"type": "Feature", "geometry": {"type": "Polygon", "coordinates": [[[-97.9434143, 35.0519095], [-97.9434156, 35.0521598], [-97.9432025, 35.0521606], [-97.9432012, 35.0519103], [-97.9434143, 35.0519095]]]}, "properties": {"osm_id": 797973481, "building": "yes", "name": "", "height": null, "height_m": null, "levels": null, "tract_id": "40051001000", "tract_name": "10", "tags": {"building": "yes"}}}, {"type": "Feature", "geometry": {"type": "Polygon", "coordinates": [[[-97.9436423, 35.0521906], [-97.9435109, 35.0521917], [-97.9435102, 35.0521357], [-97.9436416, 35.0521346], [-97.9436423, 35.0521906]]]}, "properties": {"osm_id": 797973482, "building": "yes", "name": "", "height": null, "height_m": null, "levels": null, "tract_id": "40051001000", "tract_name": "10", "tags": {"building": "yes"}}}, {"type": "Feature", "geometry": {"type": "Polygon", "coordinates": [[[-97.9440057, 35.0518195], [-97.9440071, 35.0522257], [-97.9439226, 35.0522259], [-97.9439213, 35.0518197], [-97.9440057, 35.0518195]]]}, "properties": {"osm_id": 797973483, "building": "yes", "name": "", "height": null, "height_m": null, "levels": null, "tract_id": "40051001000", "tract_name": "10", "tags": {"building": "yes"}}}, {"type": "Feature", "geometry": {"type": "Polygon", "coordinates": [[[-97.9445368, 35.0522564], [-97.9445368, 35.0521582], [-97.9446515, 35.0521582], [-97.9446515, 35.0522564], [-97.9445368, 35.0522564]]]}, "properties": {"osm_id": 797973484, "building": "yes", "name": "", "height": null, "height_m": null, "levels": null, "tract_id": "40051001000", "tract_name": "10", "tags": {"building": "yes"}}}, {"type": "Feature", "geometry": {"type": "Polygon", "coordinates": [[[-97.9442719, 35.0521489], [-97.9445368, 35.0521489], [-97.9445368, 35.0521582], [-97.9445368, 35.0522564], [-97.9442719, 35.0522564], [-97.9442719, 35.0521489]]]}, "properties": {"osm_id": 797973485, "building": "yes", "name": "", "height": null, "height_m": null, "levels": null, "tract_id": "40051001000", "tract_name": "10", "tags": {"building": "yes"}}}, {"type": "Feature", "geometry": {"type": "Polygon", "coordinates": [[[-97.9445368, 35.0519814], [-97.9445368, 35.0521489], [-97.9442719, 35.0521489], [-97.9442719, 35.0519814], [-97.9445368, 35.0519814]]]}, "properties": {"osm_id": 797973486, "building": "yes", "name": "", "height": null, "height_m": null, "levels": null, "tract_id": "40051001000", "tract_name": "10", "tags": {"building": "yes"}}}, {"type": "Feature", "geometry": {"type": "Polygon", "coordinates": [[[-97.9447494, 35.0518074], [-97.9447541, 35.0519957], [-97.944651, 35.0519974], [-97.9446464, 35.0518091], [-97.9447494, 35.0518074]]]}, "properties": {"osm_id": 797973487, "building": "yes", "name": "", "height": null, "height_m": null, "levels": null, "tract_id": "40051001000", "tract_name": "10", "tags": {"building": "yes"}}}, {"type": "Feature", "geometry": {"type": "Polygon", "coordinates": [[[-97.9446132, 35.0518014], [-97.9446137, 35.0518974], [-97.9442737, 35.0518985], [-97.9442733, 35.0518025], [-97.9446132, 35.0518014]]]}, "properties": {"osm_id": 797973488, "building": "yes", "name": "", "height": null, "height_m": null, "levels": null, "tract_id": "40051001000", "tract_name": "10", "tags": {"building": "yes"}}}, {"type": "Feature", "geometry": {"type": "Polygon", "coordinates": [[[-97.9447997, 35.0514901], [-97.9447983, 35.0516521], [-97.9447157, 35.0516516], [-97.9447171, 35.0514897], [-97.9447997, 35.0514901]]]}, "properties": {"osm_id": 797973489, "building": "yes", "name": "", "height": null, "height_m": null, "levels": null, "tract_id": "40051001000", "tract_name": "10", "tags": {"building": "yes"}}}, {"type": "Feature", "geometry": {"type": "Polygon", "coordinates": [[[-97.9447943, 35.051348], [-97.9447936, 35.0514643], [-97.9446923, 35.0514639], [-97.944693, 35.0513476], [-97.9447943, 35.051348]]]}, "properties": {"osm_id": 797973490, "building": "yes", "name": "", "height": null, "height_m": null, "levels": null, "tract_id": "40051001000", "tract_name": "10", "tags": {"building": "yes"}}}, {"type": "Feature", "geometry": {"type": "Polygon", "coordinates": [[[-97.9445167, 35.0512914], [-97.9445161, 35.0513847], [-97.9442619, 35.0513836], [-97.9442625, 35.0512903], [-97.9445167, 35.0512914]]]}, "properties": {"osm_id": 797973491, "building": "yes", "name": "", "height": null, "height_m": null, "levels": null, "tract_id": "40051001000", "tract_name": "10", "tags": {"building": "yes"}}}, {"type": "Feature", "geometry": {"type": "Polygon", "coordinates": [[[-97.9328905, 35.0510075], [-97.9326823, 35.0510399], [-97.9327044, 35.0511351], [-97.9329126, 35.0511027], [-97.9328905, 35.0510075]]]}, "properties": {"osm_id": 797973518, "building": "yes", "name": "Downtown Mercantile & Visitor Center", "height": null, "height_m": null, "levels": null, "tract_id": "40051001000", "tract_name": "10", "tags": {"addr:city": "Chickasha", "addr:housenumber": "102", "addr:postcode": "73018", "addr:state": "OK", "addr:street": "East Chickasha Avenue", "building": "yes", "information": "office", "name": "Downtown Mercantile & Visitor Center", "tourism": "information"}}}, {"type": "Feature", "geometry": {"type": "Polygon", "coordinates": [[[-97.9328652, 35.051646], [-97.9327315, 35.0516702], [-97.9326953, 35.0515363], [-97.932829, 35.0515121], [-97.9328652, 35.051646]]]}, "properties": {"osm_id": 797973520, "building": "yes", "name": "", "height": null, "height_m": null, "levels": null, "tract_id": "40051001000", "tract_name": "10", "tags": {"building": "yes"}}}, {"type": "Feature", "geometry": {"type": "Polygon", "coordinates": [[[-97.9366484, 35.0526165], [-97.9366458, 35.052824], [-97.9362542, 35.0528207], [-97.9362568, 35.0526133], [-97.9366484, 35.0526165]]]}, "properties": {"osm_id": 797973521, "building": "yes", "name": "", "height": null, "height_m": null, "levels": null, "tract_id": "40051001000", "tract_name": "10", "tags": {"building": "yes"}}}, {"type": "Feature", "geometry": {"type": "Polygon", "coordinates": [[[-97.9359207, 35.0525353], [-97.9360905, 35.0525353], [-97.9360905, 35.0527285], [-97.9359207, 35.0527285], [-97.9359207, 35.0525353]]]}, "properties": {"osm_id": 797973522, "building": "yes", "name": "", "height": null, "height_m": null, "levels": null, "tract_id": "40051001000", "tract_name": "10", "tags": {"building": "yes"}}}, {"type": "Feature", "geometry": {"type": "Polygon", "coordinates": [[[-97.9357508, 35.0525353], [-97.9359207, 35.0525353], [-97.9359207, 35.0527285], [-97.9357508, 35.0527285], [-97.9357508, 35.0525353]]]}, "properties": {"osm_id": 797973523, "building": "yes", "name": "", "height": null, "height_m": null, "levels": null, "tract_id": "40051001000", "tract_name": "10", "tags": {"building": "yes"}}}, {"type": "Feature", "geometry": {"type": "Polygon", "coordinates": [[[-97.9355809, 35.0525353], [-97.9357508, 35.0525353], [-97.9357508, 35.0527285], [-97.9355809, 35.0527285], [-97.9355809, 35.0525353]]]}, "properties": {"osm_id": 797973524, "building": "yes", "name": "", "height": null, "height_m": null, "levels": null, "tract_id": "40051001000", "tract_name": "10", "tags": {"building": "yes"}}}, {"type": "Feature", "geometry": {"type": "Polygon", "coordinates": [[[-97.9351535, 35.0525345], [-97.9351482, 35.0529497], [-97.934978, 35.0529483], [-97.9349832, 35.052533], [-97.9351535, 35.0525345]]]}, "properties": {"osm_id": 797973526, "building": "yes", "name": "", "height": null, "height_m": null, "levels": null, "tract_id": "40051001000", "tract_name": "10", "tags": {"building": "yes"}}}, {"type": "Feature", "geometry": {"type": "Polygon", "coordinates": [[[-97.9346475, 35.0525792], [-97.9346448, 35.0528702], [-97.9344838, 35.0528692], [-97.9344865, 35.0525782], [-97.9346475, 35.0525792]]]}, "properties": {"osm_id": 797973528, "building": "yes", "name": "", "height": null, "height_m": null, "levels": null, "tract_id": "40051001000", "tract_name": "10", "tags": {"building": "yes"}}}, {"type": "Feature", "geometry": {"type": "Polygon", "coordinates": [[[-97.934536, 35.0533247], [-97.934311, 35.0533239], [-97.9343123, 35.0530692], [-97.9345375, 35.05307], [-97.934536, 35.0531259], [-97.934536, 35.0533247]]]}, "properties": {"osm_id": 797973529, "building": "yes", "name": "", "height": null, "height_m": null, "levels": null, "tract_id": "40051001000", "tract_name": "10", "tags": {"building": "yes"}}}, {"type": "Feature", "geometry": {"type": "Polygon", "coordinates": [[[-97.9439561, 35.0525715], [-97.9439615, 35.0529755], [-97.9437657, 35.0529773], [-97.9437603, 35.0525733], [-97.9439561, 35.0525715]]]}, "properties": {"osm_id": 797973532, "building": "yes", "name": "", "height": null, "height_m": null, "levels": null, "tract_id": "40051001000", "tract_name": "10", "tags": {"building": "yes"}}}, {"type": "Feature", "geometry": {"type": "Polygon", "coordinates": [[[-97.9428756, 35.0529292], [-97.9428761, 35.0526137], [-97.9430301, 35.0526139], [-97.94303, 35.0526945], [-97.9430576, 35.0526945], [-97.9430573, 35.0529293], [-97.9428756, 35.0529292]]]}, "properties": {"osm_id": 797973533, "building": "yes", "name": "", "height": null, "height_m": null, "levels": null, "tract_id": "40051001000", "tract_name": "10", "tags": {"building": "yes"}}}, {"type": "Feature", "geometry": {"type": "Polygon", "coordinates": [[[-97.9434706, 35.0528229], [-97.9432628, 35.0528262], [-97.9432607, 35.0527376], [-97.9434685, 35.0527344], [-97.9434706, 35.0528229]]]}, "properties": {"osm_id": 797973534, "building": "yes", "name": "", "height": null, "height_m": null, "levels": null, "tract_id": "40051001000", "tract_name": "10", "tags": {"building": "yes"}}}, {"type": "Feature", "geometry": {"type": "Polygon", "coordinates": [[[-97.9433955, 35.0531523], [-97.9433968, 35.0532083], [-97.9432533, 35.0532105], [-97.943252, 35.0531545], [-97.9433955, 35.0531523]]]}, "properties": {"osm_id": 797973535, "building": "yes", "name": "", "height": null, "height_m": null, "levels": null, "tract_id": "40051001000", "tract_name": "10", "tags": {"building": "yes"}}}, {"type": "Feature", "geometry": {"type": "Polygon", "coordinates": [[[-97.943721, 35.051737], [-97.943977, 35.051738], [-97.943977, 35.051569], [-97.944013, 35.051569], [-97.944014, 35.051307], [-97.943584, 35.051307], [-97.943584, 35.051573], [-97.943721, 35.051573], [-97.943721, 35.051737]]]}, "properties": {"osm_id": 860688121, "building": "yes", "name": "", "height": null, "height_m": null, "levels": null, "tract_id": "40051001000", "tract_name": "10", "tags": {"building": "yes", "source": "microsoft/BuildingFootprints"}}}, {"type": "Feature", "geometry": {"type": "Polygon", "coordinates": [[[-97.945714, 35.051633], [-97.946196, 35.051635], [-97.946198, 35.051343], [-97.946075, 35.051342], [-97.946074, 35.051533], [-97.945835, 35.051533], [-97.945836, 35.051345], [-97.945715, 35.051344], [-97.945714, 35.051633]]]}, "properties": {"osm_id": 860688122, "building": "yes", "name": "", "height": null, "height_m": null, "levels": null, "tract_id": "40051001000", "tract_name": "10", "tags": {"building": "yes", "source": "microsoft/BuildingFootprints"}}}, {"type": "Feature", "geometry": {"type": "Polygon", "coordinates": [[[-97.936755, 35.051865], [-97.936453, 35.051866], [-97.936455, 35.052172], [-97.936757, 35.052171], [-97.936755, 35.051865]]]}, "properties": {"osm_id": 860688123, "building": "yes", "name": "", "height": null, "height_m": null, "levels": null, "tract_id": "40051001000", "tract_name": "10", "tags": {"building": "yes", "source": "microsoft/BuildingFootprints"}}}, {"type": "Feature", "geometry": {"type": "Polygon", "coordinates": [[[-97.935589, 35.050128], [-97.93559, 35.050339], [-97.935879, 35.050337], [-97.935877, 35.050098], [-97.935677, 35.050099], [-97.935677, 35.050127], [-97.935589, 35.050128]]]}, "properties": {"osm_id": 860688124, "building": "yes", "name": "", "height": null, "height_m": null, "levels": null, "tract_id": "40051001000", "tract_name": "10", "tags": {"building": "yes", "source": "microsoft/BuildingFootprints"}}}, {"type": "Feature", "geometry": {"type": "Polygon", "coordinates": [[[-97.939598, 35.047963], [-97.939598, 35.047719], [-97.939353, 35.047719], [-97.939353, 35.047744], [-97.939079, 35.047744], [-97.939079, 35.048114], [-97.939223, 35.048114], [-97.939224, 35.047962], [-97.939598, 35.047963]]]}, "properties": {"osm_id": 860688125, "building": "yes", "name": "", "height": null, "height_m": null, "levels": null, "tract_id": "40051001000", "tract_name": "10", "tags": {"building": "yes", "source": "microsoft/BuildingFootprints"}}}, {"type": "Feature", "geometry": {"type": "Polygon", "coordinates": [[[-97.93963, 35.04736], [-97.939629, 35.047149], [-97.939082, 35.047151], [-97.939083, 35.04743], [-97.93947, 35.047429], [-97.939469, 35.04736], [-97.93963, 35.04736]]]}, "properties": {"osm_id": 860688126, "building": "yes", "name": "", "height": null, "height_m": null, "levels": null, "tract_id": "40051001000", "tract_name": "10", "tags": {"building": "yes", "source": "microsoft/BuildingFootprints"}}}, {"type": "Feature", "geometry": {"type": "Polygon", "coordinates": [[[-97.939289, 35.047027], [-97.939291, 35.046678], [-97.938792, 35.046677], [-97.938791, 35.047026], [-97.939289, 35.047027]]]}, "properties": {"osm_id": 860688127, "building": "yes", "name": "", "height": null, "height_m": null, "levels": null, "tract_id": "40051001000", "tract_name": "10", "tags": {"building": "yes", "source": "microsoft/BuildingFootprints"}}}, {"type": "Feature", "geometry": {"type": "Polygon", "coordinates": [[[-97.941716, 35.048399], [-97.941437, 35.048398], [-97.941437, 35.048515], [-97.941721, 35.048516], [-97.941721, 35.048627], [-97.941869, 35.048627], [-97.941869, 35.048515], [-97.94207, 35.048515], [-97.94207, 35.048371], [-97.941931, 35.048371], [-97.941931, 35.048424], [-97.941866, 35.048424], [-97.941867, 35.048234], [-97.941716, 35.048234], [-97.941716, 35.048399]]]}, "properties": {"osm_id": 860688128, "building": "yes", "name": "", "height": null, "height_m": null, "levels": null, "tract_id": "40051001000", "tract_name": "10", "tags": {"building": "yes", "source": "microsoft/BuildingFootprints"}}}, {"type": "Feature", "geometry": {"type": "Polygon", "coordinates": [[[-97.943917, 35.046717], [-97.943919, 35.046567], [-97.943586, 35.046564], [-97.943582, 35.046942], [-97.943739, 35.046943], [-97.943742, 35.046716], [-97.943917, 35.046717]]]}, "properties": {"osm_id": 860688129, "building": "yes", "name": "", "height": null, "height_m": null, "levels": null, "tract_id": "40051001000", "tract_name": "10", "tags": {"building": "yes", "source": "microsoft/BuildingFootprints"}}}, {"type": "Feature", "geometry": {"type": "Polygon", "coordinates": [[[-97.947735, 35.046858], [-97.947735, 35.046637], [-97.947815, 35.046636], [-97.947815, 35.04655], [-97.947608, 35.04655], [-97.947609, 35.046946], [-97.947817, 35.046946], [-97.947817, 35.046858], [-97.947735, 35.046858]]]}, "properties": {"osm_id": 860688131, "building": "yes", "name": "", "height": null, "height_m": null, "levels": null, "tract_id": "40051001000", "tract_name": "10", "tags": {"building": "yes", "source": "microsoft/BuildingFootprints"}}}, {"type": "Feature", "geometry": {"type": "Polygon", "coordinates": [[[-97.932427, 35.045339], [-97.932279, 35.04534], [-97.932285, 35.045779], [-97.932433, 35.045777], [-97.932427, 35.045339]]]}, "properties": {"osm_id": 860688132, "building": "yes", "name": "", "height": null, "height_m": null, "levels": null, "tract_id": "40051001000", "tract_name": "10", "tags": {"building": "yes", "source": "microsoft/BuildingFootprints"}}}, {"type": "Feature", "geometry": {"type": "Polygon", "coordinates": [[[-97.935838, 35.045782], [-97.935838, 35.045341], [-97.935594, 35.045341], [-97.935594, 35.045782], [-97.935838, 35.045782]]]}, "properties": {"osm_id": 860688133, "building": "yes", "name": "", "height": null, "height_m": null, "levels": null, "tract_id": "40051001000", "tract_name": "10", "tags": {"building": "yes", "source": "microsoft/BuildingFootprints"}}}, {"type": "Feature", "geometry": {"type": "Polygon", "coordinates": [[[-97.934985, 35.045099], [-97.935256, 35.045099], [-97.935256, 35.044822], [-97.934985, 35.044822], [-97.934985, 35.045099]]]}, "properties": {"osm_id": 860688134, "building": "yes", "name": "", "height": null, "height_m": null, "levels": null, "tract_id": "40051001000", "tract_name": "10", "tags": {"building": "yes", "source": "microsoft/BuildingFootprints"}}}, {"type": "Feature", "geometry": {"type": "Polygon", "coordinates": [[[-97.935827, 35.043648], [-97.936083, 35.04365], [-97.936089, 35.043127], [-97.935582, 35.043123], [-97.93558, 35.043347], [-97.935831, 35.043349], [-97.935827, 35.043648]]]}, "properties": {"osm_id": 860688135, "building": "yes", "name": "", "height": null, "height_m": null, "levels": null, "tract_id": "40051001000", "tract_name": "10", "tags": {"building": "yes", "source": "microsoft/BuildingFootprints"}}}, {"type": "Feature", "geometry": {"type": "Polygon", "coordinates": [[[-97.935577, 35.042933], [-97.936077, 35.042935], [-97.93608, 35.042582], [-97.935579, 35.042579], [-97.935577, 35.042933]]]}, "properties": {"osm_id": 860688136, "building": "yes", "name": "", "height": null, "height_m": null, "levels": null, "tract_id": "40051001000", "tract_name": "10", "tags": {"building": "yes", "source": "microsoft/BuildingFootprints"}}}, {"type": "Feature", "geometry": {"type": "Polygon", "coordinates": [[[-97.93614, 35.042585], [-97.936141, 35.042935], [-97.936678, 35.042934], [-97.936676, 35.042583], [-97.93614, 35.042585]]]}, "properties": {"osm_id": 860688137, "building": "yes", "name": "", "height": null, "height_m": null, "levels": null, "tract_id": "40051001000", "tract_name": "10", "tags": {"building": "yes", "source": "microsoft/BuildingFootprints"}}}, {"type": "Feature", "geometry": {"type": "Polygon", "coordinates": [[[-97.936225, 35.041961], [-97.93642, 35.041961], [-97.93642, 35.041695], [-97.936225, 35.041695], [-97.936225, 35.041961]]]}, "properties": {"osm_id": 860688138, "building": "yes", "name": "", "height": null, "height_m": null, "levels": null, "tract_id": "40051001000", "tract_name": "10", "tags": {"building": "yes", "source": "microsoft/BuildingFootprints"}}}, {"type": "Feature", "geometry": {"type": "Polygon", "coordinates": [[[-97.936485, 35.041412], [-97.936485, 35.041709], [-97.936691, 35.041709], [-97.936691, 35.041412], [-97.936485, 35.041412]]]}, "properties": {"osm_id": 860688139, "building": "yes", "name": "", "height": null, "height_m": null, "levels": null, "tract_id": "40051001000", "tract_name": "10", "tags": {"building": "yes", "source": "microsoft/BuildingFootprints"}}}, {"type": "Feature", "geometry": {"type": "Polygon", "coordinates": [[[-97.9417271, 35.051632], [-97.9415727, 35.0516346], [-97.9415755, 35.0517467], [-97.9414033, 35.0517497], [-97.9413917, 35.0512977], [-97.9416737, 35.0512929], [-97.9416739, 35.0513038], [-97.9417187, 35.051303], [-97.9417271, 35.051632]]]}, "properties": {"osm_id": 986150385, "building": "yes", "name": "", "height": null, "height_m": null, "levels": null, "tract_id": "40051001000", "tract_name": "10", "tags": {"building": "yes"}}}, {"type": "Feature", "geometry": {"type": "Polygon", "coordinates": [[[-97.9421881, 35.0514912], [-97.9420987, 35.0514934], [-97.9420933, 35.0513457], [-97.9421562, 35.0513441], [-97.9421568, 35.051362], [-97.9421967, 35.051361], [-97.9421991, 35.0514263], [-97.9422103, 35.051426], [-97.9422122, 35.0514784], [-97.9421876, 35.051479], [-97.9421881, 35.0514912]]]}, "properties": {"osm_id": 986150386, "building": "yes", "name": "", "height": null, "height_m": null, "levels": null, "tract_id": "40051001000", "tract_name": "10", "tags": {"building": "yes"}}}, {"type": "Feature", "geometry": {"type": "Polygon", "coordinates": [[[-97.9421738, 35.0515106], [-97.9420973, 35.051512], [-97.9420998, 35.0516094], [-97.9421763, 35.0516081], [-97.9421738, 35.0515106]]]}, "properties": {"osm_id": 986150387, "building": "yes", "name": "", "height": null, "height_m": null, "levels": null, "tract_id": "40051001000", "tract_name": "10", "tags": {"building": "yes"}}}, {"type": "Feature", "geometry": {"type": "Polygon", "coordinates": [[[-97.9336484, 35.051069], [-97.9333892, 35.0510684], [-97.9333944, 35.050594], [-97.9336503, 35.0505975], [-97.9336496, 35.050774], [-97.9336484, 35.051069]]]}, "properties": {"osm_id": 1026600528, "building": "yes", "name": "Canadian River Brewing Co", "height": null, "height_m": null, "levels": null, "tract_id": "40051001000", "tract_name": "10", "tags": {"addr:city": "Chickasha", "addr:housenumber": "121", "addr:postcode": "73018", "addr:state": "OK", "addr:street": "West Chickasha Avenue", "building": "yes", "craft": "brewery", "name": "Canadian River Brewing Co", "website": "https://www.canadianriverbrewingco.com/"}}}, {"type": "Feature", "geometry": {"type": "Polygon", "coordinates": [[[-97.939569, 35.0505009], [-97.9395702, 35.050101], [-97.9394098, 35.0501007], [-97.9394093, 35.0502808], [-97.9393913, 35.0502807], [-97.9393912, 35.0503433], [-97.9393378, 35.0503432], [-97.9393373, 35.0505004], [-97.939569, 35.0505009]]]}, "properties": {"osm_id": 1060507338, "building": "yes", "name": "", "height": null, "height_m": null, "levels": null, "tract_id": "40051001000", "tract_name": "10", "tags": {"addr:city": "Chickasha", "addr:housenumber": "528", "addr:postcode": "73018", "addr:state": "OK", "addr:street": "West Kansas Avenue", "building": "yes"}}}, {"type": "Feature", "geometry": {"type": "Polygon", "coordinates": [[[-97.9374387, 35.0433827], [-97.9372613, 35.0433835], [-97.9372595, 35.0431295], [-97.937437, 35.0431287], [-97.9374387, 35.0433827]]]}, "properties": {"osm_id": 1074992693, "building": "retail", "name": "", "height": null, "height_m": 3.0, "levels": 1, "tract_id": "40051001000", "tract_name": "10", "tags": {"building": "retail", "building:levels": "1"}}}, {"type": "Feature", "geometry": {"type": "Polygon", "coordinates": [[[-97.9419485, 35.0494546], [-97.9418036, 35.0494557], [-97.9418028, 35.0493853], [-97.9419477, 35.0493842], [-97.9419485, 35.0494546]]]}, "properties": {"osm_id": 1119487697, "building": "yes", "name": "", "height": null, "height_m": null, "levels": null, "tract_id": "40051001000", "tract_name": "10", "tags": {"building": "yes"}}}, {"type": "Feature", "geometry": {"type": "Polygon", "coordinates": [[[-97.9416709, 35.0495743], [-97.9415837, 35.0495743], [-97.9415837, 35.0494601], [-97.9416709, 35.0494601], [-97.9416709, 35.0495743]]]}, "properties": {"osm_id": 1119487698, "building": "yes", "name": "", "height": null, "height_m": null, "levels": null, "tract_id": "40051001000", "tract_name": "10", "tags": {"building": "yes"}}}, {"type": "Feature", "geometry": {"type": "Polygon", "coordinates": [[[-97.9419994, 35.0490825], [-97.9420006, 35.0492494], [-97.9415285, 35.0492516], [-97.9415281, 35.0491912], [-97.9415115, 35.0491912], [-97.9415111, 35.0491341], [-97.9415277, 35.0491341], [-97.9415274, 35.0490847], [-97.9419994, 35.0490825]]]}, "properties": {"osm_id": 1119487699, "building": "yes", "name": "", "height": null, "height_m": null, "levels": null, "tract_id": "40051001000", "tract_name": "10", "tags": {"building": "yes"}}}, {"type": "Feature", "geometry": {"type": "Polygon", "coordinates": [[[-97.9422757, 35.0494514], [-97.9425466, 35.0494514], [-97.9425466, 35.0497939], [-97.9422757, 35.0497939], [-97.9422757, 35.0494514]]]}, "properties": {"osm_id": 1119487700, "building": "yes", "name": "", "height": null, "height_m": null, "levels": null, "tract_id": "40051001000", "tract_name": "10", "tags": {"building": "yes"}}}, {"type": "Feature", "geometry": {"type": "Polygon", "coordinates": [[[-97.9416243, 35.0496649], [-97.9416236, 35.0496278], [-97.9415564, 35.0496286], [-97.94156, 35.0498293], [-97.941615, 35.0498287], [-97.9416142, 35.0497824], [-97.9419067, 35.0497789], [-97.9419071, 35.0498009], [-97.9419782, 35.0498001], [-97.9419751, 35.0496254], [-97.9418959, 35.0496264], [-97.9418965, 35.0496616], [-97.9416243, 35.0496649]]]}, "properties": {"osm_id": 1119487701, "building": "church", "name": "Holy Name of Jesus Catholic Church", "height": null, "height_m": null, "levels": null, "tract_id": "40051001000", "tract_name": "10", "tags": {"addr:city": "Chickasha", "addr:housenumber": "210", "addr:postcode": "73018", "addr:state": "OK", "addr:street": "South 7th Street", "amenity": "place_of_worship", "building": "church", "denomination": "roman_catholic", "diocese": "Oklahoma_City", "name": "Holy Name of Jesus Catholic Church", "phone": "+1-405-224-6068", "religion": "christian", "website": "https://holynamechickasha.org/"}}}, {"type": "Feature", "geometry": {"type": "Polygon", "coordinates": [[[-97.9384827, 35.0359955], [-97.9384823, 35.0358007], [-97.9386658, 35.0358005], [-97.9386658, 35.0358087], [-97.9387252, 35.0358086], [-97.9387253, 35.0358711], [-97.9386604, 35.0358712], [-97.9386604, 35.0358783], [-97.9386089, 35.0358784], [-97.9386091, 35.0359954], [-97.9384827, 35.0359955]]]}, "properties": {"osm_id": 1150011612, "building": "yes", "name": "", "height": null, "height_m": null, "levels": null, "tract_id": "40051001000", "tract_name": "10", "tags": {"amenity": "place_of_worship", "building": "yes", "denomination": "jehovahs_witness", "religion": "christian"}}}, {"type": "Feature", "geometry": {"type": "Polygon", "coordinates": [[[-97.9333892, 35.0510684], [-97.9333185, 35.0510679], [-97.9333239, 35.0505935], [-97.9333944, 35.050594], [-97.9333892, 35.0510684]]]}, "properties": {"osm_id": 1187724152, "building": "yes", "name": "Flower Shop Winery & Pizzeria", "height": null, "height_m": null, "levels": null, "tract_id": "40051001000", "tract_name": "10", "tags": {"addr:city": "Chickasha", "addr:housenumber": "117", "addr:postcode": "73018", "addr:state": "OK", "addr:street": "West Chickasha Avenue", "amenity": "restaurant", "building": "yes", "name": "Flower Shop Winery & Pizzeria"}}}, {"type": "Feature", "geometry": {"type": "Polygon", "coordinates": [[[-97.9332716, 35.0510694], [-97.9332736, 35.0508931], [-97.9331101, 35.0508915], [-97.933156, 35.0510678], [-97.9332716, 35.0510694]]]}, "properties": {"osm_id": 1187724153, "building": "yes", "name": "Brandi's Bar & Grill", "height": null, "height_m": null, "levels": null, "tract_id": "40051001000", "tract_name": "10", "tags": {"addr:city": "Chickasha", "addr:housenumber": "101", "addr:postcode": "73018", "addr:state": "OK", "addr:street": "West Chickasha Avenue", "amenity": "restaurant", "building": "yes", "name": "Brandi's Bar & Grill"}}}, {"type": "Feature", "geometry": {"type": "Polygon", "coordinates": [[[-97.9336484, 35.051069], [-97.9338139, 35.051071], [-97.9338179, 35.0507723], [-97.9336496, 35.050774], [-97.9336484, 35.051069]]]}, "properties": {"osm_id": 1187724154, "building": "retail", "name": "", "height": null, "height_m": null, "levels": null, "tract_id": "40051001000", "tract_name": "10", "tags": {"addr:city": "Chickasha", "addr:housenumber": "123", "addr:postcode": "73018", "addr:state": "OK", "addr:street": "West Chickasha Avenue", "building": "retail"}}}, {"type": "Feature", "geometry": {"type": "Polygon", "coordinates": [[[-97.9338139, 35.051071], [-97.9339216, 35.0510727], [-97.9339255, 35.0507201], [-97.9338199, 35.0507185], [-97.9338139, 35.051071]]]}, "properties": {"osm_id": 1187724155, "building": "yes", "name": "Bingaman Law Office", "height": null, "height_m": null, "levels": null, "tract_id": "40051001000", "tract_name": "10", "tags": {"addr:city": "Chickasha", "addr:housenumber": "127", "addr:postcode": "73018", "addr:state": "OK", "addr:street": "West Chickasha Avenue", "building": "yes", "name": "Bingaman Law Office", "office": "lawyer"}}}, {"type": "Feature", "geometry": {"type": "Polygon", "coordinates": [[[-97.9338901, 35.051574], [-97.9338883, 35.0513105], [-97.933495, 35.0513088], [-97.9334947, 35.0516306], [-97.9334946, 35.051751], [-97.9336898, 35.0517507], [-97.9336896, 35.0515757], [-97.9338901, 35.051574]]]}, "properties": {"osm_id": 1187724156, "building": "apartments", "name": "The Chickasha Hotel", "height": null, "height_m": null, "levels": null, "tract_id": "40051001000", "tract_name": "10", "tags": {"addr:city": "Chickasha", "addr:housenumber": "102", "addr:postcode": "73018", "addr:state": "OK", "addr:street": "North 2nd Street", "building": "apartments", "name": "The Chickasha Hotel"}}}, {"type": "Feature", "geometry": {"type": "Polygon", "coordinates": [[[-97.9334928, 35.0515754], [-97.9334123, 35.051575], [-97.9334144, 35.0513084], [-97.933495, 35.0513088], [-97.9334928, 35.0515754]]]}, "properties": {"osm_id": 1187724157, "building": "yes", "name": "The Speak", "height": null, "height_m": null, "levels": null, "tract_id": "40051001000", "tract_name": "10", "tags": {"addr:city": "Chickasha", "addr:housenumber": "114", "addr:postcode": "73018", "addr:state": "OK", "addr:street": "West Chickasha Avenue", "amenity": "bar", "building": "yes", "name": "The Speak"}}}, {"type": "Feature", "geometry": {"type": "Polygon", "coordinates": [[[-97.9334946, 35.051751], [-97.9334947, 35.0516306], [-97.9334283, 35.05163], [-97.9334283, 35.0515988], [-97.9334127, 35.0515988], [-97.9334123, 35.051575], [-97.9334144, 35.0513084], [-97.9332068, 35.0513083], [-97.9333348, 35.0517532], [-97.9334946, 35.051751]]]}, "properties": {"osm_id": 1187724158, "building": "yes", "name": "", "height": null, "height_m": null, "levels": null, "tract_id": "40051001000", "tract_name": "10", "tags": {"building": "yes"}}}, {"type": "Feature", "geometry": {"type": "Polygon", "coordinates": [[[-97.9375785, 35.050587], [-97.9377354, 35.050587], [-97.9377314, 35.0510196], [-97.937578, 35.0510203], [-97.9375764, 35.0506275], [-97.9375785, 35.050587]]]}, "properties": {"osm_id": 1190731218, "building": "yes", "name": "Grady County Historical Society", "height": null, "height_m": null, "levels": null, "tract_id": "40051001000", "tract_name": "10", "tags": {"building": "yes", "name": "Grady County Historical Society"}}}, {"type": "Feature", "geometry": {"type": "Polygon", "coordinates": [[[-97.9230276, 35.0474397], [-97.9227958, 35.0474337], [-97.9228209, 35.0467907], [-97.9230525, 35.0467967], [-97.9230276, 35.0474397]]]}, "properties": {"osm_id": 1206792784, "building": "yes", "name": "Best Western Plus", "height": null, "height_m": null, "levels": null, "tract_id": "40051001000", "tract_name": "10", "tags": {"addr:city": "Chickasha", "addr:housenumber": "430", "addr:postcode": "73018", "addr:street": "South Grand Avenue", "branch": "Chickasha Inn", "brand": "Best Western Plus", "brand:wikidata": "Q830334", "building": "yes", "name": "Best Western Plus", "phone": "+1 405-825-6696", "ref": "37141", "tourism": "hotel", "website": "https://www.bestwestern.com/en_US/book/hotels-in-chickasha/best-western-plus-chickasha-inn/propertyCode.37141.html"}}}, {"type": "Feature", "geometry": {"type": "Polygon", "coordinates": [[[-97.9347181, 35.0510303], [-97.9347148, 35.0506477], [-97.9341274, 35.0506455], [-97.9341274, 35.0509375], [-97.9341488, 35.0509671], [-97.9341947, 35.0509833], [-97.9345402, 35.0509833], [-97.9345931, 35.0510282], [-97.9347181, 35.0510303]]]}, "properties": {"osm_id": 1218304745, "building": "commercial", "name": "Chickasha Commercial Center", "height": null, "height_m": 3.0, "levels": 1, "tract_id": "40051001000", "tract_name": "10", "tags": {"addr:city": "Chickasha", "addr:housenumber": "205", "addr:postcode": "73018", "addr:state": "OK", "addr:street": "West Chickasha Avenue", "building": "commercial", "building:levels": "1", "name": "Chickasha Commercial Center", "smoking": "no"}}}, {"type": "Feature", "geometry": {"type": "Polygon", "coordinates": [[[-97.9350761, 35.0510243], [-97.9350777, 35.0507232], [-97.9349699, 35.0507228], [-97.9349683, 35.0510239], [-97.9350761, 35.0510243]]]}, "properties": {"osm_id": 1218304746, "building": "yes", "name": "Chickasha Chamber of Commerce", "height": null, "height_m": 6.0, "levels": 2, "tract_id": "40051001000", "tract_name": "10", "tags": {"addr:city": "Chickasha", "addr:housenumber": "221", "addr:postcode": "73018", "addr:state": "OK", "addr:street": "West Chickasha Avenue", "building": "yes", "building:levels": "2", "name": "Chickasha Chamber of Commerce", "office": "ngo", "opening_hours": "Mo-Fr 09:00-16:00", "phone": "+1-405-224-0787", "website": "https://chickashachamber.com/"}}}, {"type": "Feature", "geometry": {"type": "Polygon", "coordinates": [[[-97.9344547, 35.0513027], [-97.934311, 35.0513045], [-97.934312, 35.051487], [-97.9344566, 35.0514859], [-97.9344547, 35.0513027]]]}, "properties": {"osm_id": 1218304748, "building": "yes", "name": "Ben & Jay's Pizzeria", "height": null, "height_m": null, "levels": null, "tract_id": "40051001000", "tract_name": "10", "tags": {"addr:city": "Chickasha", "addr:housenumber": "208", "addr:postcode": "73018", "addr:state": "OK", "addr:street": "West Chickasha Avenue", "amenity": "restaurant", "building": "yes", "cuisine": "pizza;mexican", "name": "Ben & Jay's Pizzeria", "phone": "+1-405-369-4718", "website": "https://www.benjayspizzeria.com/"}}}, {"type": "Feature", "geometry": {"type": "Polygon", "coordinates": [[[-97.9344566, 35.0514859], [-97.9344576, 35.0515771], [-97.9345479, 35.0515773], [-97.9345455, 35.0513017], [-97.9344547, 35.0513027], [-97.9344566, 35.0514859]]]}, "properties": {"osm_id": 1218304749, "building": "yes", "name": "", "height": null, "height_m": null, "levels": null, "tract_id": "40051001000", "tract_name": "10", "tags": {"addr:city": "Chickasha", "addr:housenumber": "210", "addr:postcode": "73018", "addr:state": "OK", "addr:street": "West Chickasha Avenue", "building": "yes", "office": "yes"}}}, {"type": "Feature", "geometry": {"type": "Polygon", "coordinates": [[[-97.9345479, 35.0515773], [-97.9346286, 35.0515768], [-97.9346255, 35.051302], [-97.9345455, 35.0513017], [-97.9345479, 35.0515773]]]}, "properties": {"osm_id": 1218304750, "building": "yes", "name": "", "height": null, "height_m": null, "levels": null, "tract_id": "40051001000", "tract_name": "10", "tags": {"addr:city": "Chickasha", "addr:housenumber": "212", "addr:postcode": "73018", "addr:state": "OK", "addr:street": "West Chickasha Avenue", "building": "yes"}}}, {"type": "Feature", "geometry": {"type": "Polygon", "coordinates": [[[-97.9346286, 35.0515768], [-97.9346297, 35.0516434], [-97.9347137, 35.0516429], [-97.934713, 35.0513021], [-97.9346255, 35.051302], [-97.9346286, 35.0515768]]]}, "properties": {"osm_id": 1218304751, "building": "yes", "name": "AdventureScape", "height": null, "height_m": null, "levels": null, "tract_id": "40051001000", "tract_name": "10", "tags": {"addr:city": "Chickasha", "addr:housenumber": "214", "addr:postcode": "73018", "addr:state": "OK", "addr:street": "West Chickasha Avenue", "building": "yes", "leisure": "escape_game", "name": "AdventureScape", "website": "https://adventurescapeok.com/"}}}, {"type": "Feature", "geometry": {"type": "Polygon", "coordinates": [[[-97.9347137, 35.0516429], [-97.9347981, 35.0516428], [-97.9347979, 35.0515219], [-97.9347975, 35.051302], [-97.934713, 35.0513021], [-97.9347137, 35.0516429]]]}, "properties": {"osm_id": 1218304752, "building": "construction", "name": "", "height": null, "height_m": null, "levels": null, "tract_id": "40051001000", "tract_name": "10", "tags": {"addr:city": "Chickasha", "addr:housenumber": "216", "addr:postcode": "73018", "addr:state": "OK", "addr:street": "West Chickasha Avenue", "building": "construction", "construction": "commercial"}}}, {"type": "Feature", "geometry": {"type": "Polygon", "coordinates": [[[-97.9347975, 35.051302], [-97.9348733, 35.051303], [-97.9348756, 35.0515228], [-97.9347979, 35.0515219], [-97.9347975, 35.051302]]]}, "properties": {"osm_id": 1218304753, "building": "yes", "name": "Always Real Estate", "height": null, "height_m": null, "levels": null, "tract_id": "40051001000", "tract_name": "10", "tags": {"addr:city": "Chickasha", "addr:housenumber": "218", "addr:postcode": "73018", "addr:state": "OK", "addr:street": "West Chickasha Avenue", "building": "yes", "name": "Always Real Estate", "office": "estate_agent"}}}, {"type": "Feature", "geometry": {"type": "Polygon", "coordinates": [[[-97.9348756, 35.0515228], [-97.9348768, 35.0516432], [-97.9349643, 35.0516432], [-97.934962, 35.051303], [-97.9348733, 35.051303], [-97.9348756, 35.0515228]]]}, "properties": {"osm_id": 1218304754, "building": "yes", "name": "", "height": null, "height_m": null, "levels": null, "tract_id": "40051001000", "tract_name": "10", "tags": {"addr:city": "Chickasha", "addr:housenumber": "220", "addr:postcode": "73018", "addr:state": "OK", "addr:street": "West Chickasha Avenue", "building": "yes"}}}, {"type": "Feature", "geometry": {"type": "Polygon", "coordinates": [[[-97.9349643, 35.0516432], [-97.9349655, 35.051714], [-97.9350449, 35.0517149], [-97.9350426, 35.051303], [-97.934962, 35.051303], [-97.9349643, 35.0516432]]]}, "properties": {"osm_id": 1218304755, "building": "yes", "name": "Art Wrecker Studios", "height": null, "height_m": null, "levels": null, "tract_id": "40051001000", "tract_name": "10", "tags": {"addr:city": "Chickasha", "addr:housenumber": "222", "addr:postcode": "73018", "addr:state": "OK", "addr:street": "West Chickasha Avenue", "building": "yes", "name": "Art Wrecker Studios", "operator": "University of Science & Arts of Oklahoma", "tourism": "gallery"}}}, {"type": "Feature", "geometry": {"type": "Polygon", "coordinates": [[[-97.9350449, 35.0517149], [-97.9350449, 35.051757], [-97.9353181, 35.051757], [-97.9353181, 35.0513039], [-97.9350426, 35.051303], [-97.9350449, 35.0517149]]]}, "properties": {"osm_id": 1218304756, "building": "yes", "name": "MidFirst Bank", "height": null, "height_m": null, "levels": null, "tract_id": "40051001000", "tract_name": "10", "tags": {"addr:city": "Chickasha", "addr:housenumber": "228", "addr:postcode": "73018", "addr:state": "OK", "addr:street": "West Chickasha Avenue", "amenity": "bank", "brand": "MidFirst Bank", "brand:wikidata": "Q17081131", "building": "yes", "drive_through": "no", "name": "MidFirst Bank"}}}, {"type": "Feature", "geometry": {"type": "Polygon", "coordinates": [[[-97.9457398, 35.0520138], [-97.9457379, 35.051862], [-97.9459624, 35.0518601], [-97.9459643, 35.0520119], [-97.9457398, 35.0520138]]]}, "properties": {"osm_id": 1258802991, "building": "yes", "name": "Love's", "height": null, "height_m": null, "levels": null, "tract_id": "40051001000", "tract_name": "10", "tags": {"brand": "Love's", "brand:wikidata": "Q1872496", "building": "yes", "name": "Love's", "shop": "convenience", "website": "https://www.loves.com/locations/95"}}}, {"type": "Feature", "geometry": {"type": "Polygon", "coordinates": [[[-97.9456781, 35.0520621], [-97.9457617, 35.0520614], [-97.9457626, 35.0521361], [-97.9457639, 35.0522411], [-97.9456803, 35.0522418], [-97.945679, 35.0521369], [-97.9456781, 35.0520621]]]}, "properties": {"osm_id": 1258802992, "building": "yes", "name": "", "height": null, "height_m": null, "levels": null, "tract_id": "40051001000", "tract_name": "10", "tags": {"building": "yes"}}}, {"type": "Feature", "geometry": {"type": "Polygon", "coordinates": [[[-97.9371549, 35.0498508], [-97.9371496, 35.0494413], [-97.9373393, 35.0494396], [-97.9373447, 35.0498492], [-97.9371549, 35.0498508]]]}, "properties": {"osm_id": 1292410202, "building": "commercial", "name": "", "height": null, "height_m": 6.0, "levels": 2, "tract_id": "40051001000", "tract_name": "10", "tags": {"building": "commercial", "building:colour": "tan", "building:levels": "2", "roof:colour": "red"}}}, {"type": "Feature", "geometry": {"type": "Polygon", "coordinates": [[[-97.9416623, 35.0355806], [-97.9416619, 35.0354971], [-97.9415395, 35.0354974], [-97.9415394, 35.0354771], [-97.941471, 35.0354773], [-97.941471, 35.0354965], [-97.9414617, 35.0354966], [-97.9414618, 35.0355252], [-97.9414457, 35.0355252], [-97.9414459, 35.0355811], [-97.9416623, 35.0355806]]]}, "properties": {"osm_id": 1314730448, "building": "house", "name": "", "height": null, "height_m": 3.0, "levels": 1, "tract_id": "40051001000", "tract_name": "10", "tags": {"addr:city": "Chickasha", "addr:housenumber": "1502", "addr:postcode": "73018", "addr:state": "OK", "addr:street": "South 7th Street", "building": "house", "building:levels": "1"}}}, {"type": "Feature", "geometry": {"type": "Polygon", "coordinates": [[[-97.9417657, 35.035516], [-97.9417659, 35.0354767], [-97.9416871, 35.0354764], [-97.9416869, 35.0355156], [-97.9417657, 35.035516]]]}, "properties": {"osm_id": 1314730449, "building": "shed", "name": "", "height": null, "height_m": null, "levels": null, "tract_id": "40051001000", "tract_name": "10", "tags": {"addr:city": "Chickasha", "addr:housenumber": "1502", "addr:postcode": "73018", "addr:state": "OK", "addr:street": "South 7th Street", "building": "shed"}}}, {"type": "Feature", "geometry": {"type": "Polygon", "coordinates": [[[-97.9430056, 35.0355929], [-97.9430047, 35.0355089], [-97.9428832, 35.0355097], [-97.9428834, 35.0355312], [-97.9428601, 35.0355314], [-97.9428605, 35.0355731], [-97.9428842, 35.035573], [-97.9428844, 35.0355937], [-97.9430056, 35.0355929]]]}, "properties": {"osm_id": 1314730450, "building": "house", "name": "", "height": null, "height_m": null, "levels": null, "tract_id": "40051001000", "tract_name": "10", "tags": {"addr:city": "Chickasha", "addr:housenumber": "1502", "addr:postcode": "73018", "addr:state": "OK", "addr:street": "South 8th Street", "building": "house"}}}, {"type": "Feature", "geometry": {"type": "Polygon", "coordinates": [[[-97.9425356, 35.0359487], [-97.942536, 35.0358811], [-97.9424961, 35.035881], [-97.9424962, 35.0358681], [-97.9424549, 35.0358679], [-97.942455, 35.0358508], [-97.9423855, 35.0358506], [-97.942385, 35.0359482], [-97.9425356, 35.0359487]]]}, "properties": {"osm_id": 1314730451, "building": "house", "name": "", "height": null, "height_m": 3.0, "levels": 1, "tract_id": "40051001000", "tract_name": "10", "tags": {"addr:city": "Chickasha", "addr:housenumber": "728", "addr:postcode": "73018", "addr:state": "OK", "addr:street": "West Tennessee Avenue", "building": "house", "building:levels": "1"}}}, {"type": "Feature", "geometry": {"type": "Polygon", "coordinates": [[[-97.9423468, 35.0359389], [-97.9423479, 35.0358765], [-97.9423097, 35.0358761], [-97.94231, 35.035858], [-97.9422769, 35.0358576], [-97.9422771, 35.0358433], [-97.9422033, 35.0358425], [-97.9422017, 35.0359371], [-97.9423468, 35.0359389]]]}, "properties": {"osm_id": 1314730452, "building": "house", "name": "", "height": null, "height_m": 3.0, "levels": 1, "tract_id": "40051001000", "tract_name": "10", "tags": {"addr:city": "Chickasha", "addr:housenumber": "724", "addr:postcode": "73018", "addr:state": "OK", "addr:street": "West Tennessee Avenue", "building": "house", "building:levels": "1"}}}, {"type": "Feature", "geometry": {"type": "Polygon", "coordinates": [[[-97.9421684, 35.0359462], [-97.942169, 35.0358648], [-97.942089, 35.0358644], [-97.9420891, 35.0358467], [-97.942015, 35.0358464], [-97.9420142, 35.0359454], [-97.9421684, 35.0359462]]]}, "properties": {"osm_id": 1314730453, "building": "house", "name": "", "height": null, "height_m": 3.0, "levels": 1, "tract_id": "40051001000", "tract_name": "10", "tags": {"addr:city": "Chickasha", "addr:housenumber": "720", "addr:postcode": "73018", "addr:state": "OK", "addr:street": "West Tennessee Avenue", "building": "house", "building:levels": "1"}}}, {"type": "Feature", "geometry": {"type": "Polygon", "coordinates": [[[-97.9423553, 35.0361552], [-97.9423558, 35.0361143], [-97.9422857, 35.0361137], [-97.9422852, 35.0361545], [-97.9423553, 35.0361552]]]}, "properties": {"osm_id": 1314730454, "building": "shed", "name": "", "height": null, "height_m": null, "levels": null, "tract_id": "40051001000", "tract_name": "10", "tags": {"addr:city": "Chickasha", "addr:housenumber": "724", "addr:postcode": "73018", "addr:state": "OK", "addr:street": "West Tennessee Avenue", "building": "shed"}}}, {"type": "Feature", "geometry": {"type": "Polygon", "coordinates": [[[-97.9424895, 35.0363793], [-97.9424888, 35.0362053], [-97.9423748, 35.0362053], [-97.9423768, 35.0363798], [-97.9424895, 35.0363793]]]}, "properties": {"osm_id": 1314730455, "building": "house", "name": "", "height": null, "height_m": 3.0, "levels": 1, "tract_id": "40051001000", "tract_name": "10", "tags": {"addr:city": "Chickasha", "addr:housenumber": "1405", "addr:postcode": "73018", "addr:state": "OK", "addr:street": "South 8th Street", "building": "house", "building:levels": "1"}}}, {"type": "Feature", "geometry": {"type": "Polygon", "coordinates": [[[-97.9421012, 35.0365533], [-97.9420999, 35.0364622], [-97.9420188, 35.0364611], [-97.9420194, 35.0365522], [-97.9421012, 35.0365533]]]}, "properties": {"osm_id": 1314730456, "building": "house", "name": "", "height": null, "height_m": 3.0, "levels": 1, "tract_id": "40051001000", "tract_name": "10", "tags": {"addr:city": "Chickasha", "addr:housenumber": "717", "addr:postcode": "73018", "addr:state": "OK", "addr:street": "West Georgia Avenue", "building": "house", "building:levels": "1"}}}, {"type": "Feature", "geometry": {"type": "Polygon", "coordinates": [[[-97.9431461, 35.0365623], [-97.9431453, 35.0365012], [-97.9430545, 35.036502], [-97.943054, 35.0364667], [-97.9429765, 35.0364673], [-97.9429766, 35.0364778], [-97.9428897, 35.0364786], [-97.9428898, 35.0364924], [-97.9428725, 35.0364925], [-97.9428732, 35.0365526], [-97.9428956, 35.0365525], [-97.9428957, 35.0365644], [-97.9431461, 35.0365623]]]}, "properties": {"osm_id": 1314731809, "building": "house", "name": "", "height": null, "height_m": 3.0, "levels": 1, "tract_id": "40051001000", "tract_name": "10", "tags": {"addr:city": "Chickasha", "addr:housenumber": "1402", "addr:postcode": "73018", "addr:state": "OK", "addr:street": "South 8th Street", "building": "house", "building:levels": "1"}}}, {"type": "Feature", "geometry": {"type": "Polygon", "coordinates": [[[-97.9430975, 35.036188], [-97.9430982, 35.0361181], [-97.9429902, 35.0361173], [-97.9429902, 35.0361233], [-97.9429706, 35.0361232], [-97.94297, 35.0361835], [-97.942984, 35.0361836], [-97.9429839, 35.0361897], [-97.943076, 35.0361903], [-97.9430761, 35.0361879], [-97.9430975, 35.036188]]]}, "properties": {"osm_id": 1314731810, "building": "house", "name": "", "height": null, "height_m": 3.0, "levels": 1, "tract_id": "40051001000", "tract_name": "10", "tags": {"addr:city": "Chickasha", "addr:housenumber": "1414", "addr:postcode": "73018", "addr:state": "OK", "addr:street": "South 8th Street", "building": "house", "building:levels": "1"}}}, {"type": "Feature", "geometry": {"type": "Polygon", "coordinates": [[[-97.9432724, 35.0361561], [-97.9432726, 35.0361325], [-97.9432301, 35.0361322], [-97.9432298, 35.0361558], [-97.9432724, 35.0361561]]]}, "properties": {"osm_id": 1314731811, "building": "yes", "name": "", "height": null, "height_m": null, "levels": null, "tract_id": "40051001000", "tract_name": "10", "tags": {"building": "yes"}}}, {"type": "Feature", "geometry": {"type": "Polygon", "coordinates": [[[-97.9433329, 35.0358621], [-97.9433279, 35.0357973], [-97.9432937, 35.035799], [-97.9432927, 35.0357858], [-97.9432583, 35.0357876], [-97.9432591, 35.0357971], [-97.9432327, 35.0357984], [-97.9432379, 35.035867], [-97.9433329, 35.0358621]]]}, "properties": {"osm_id": 1314731812, "building": "house", "name": "", "height": null, "height_m": 3.0, "levels": 1, "tract_id": "40051001000", "tract_name": "10", "tags": {"addr:city": "Chickasha", "addr:housenumber": "812", "addr:postcode": "73018", "addr:state": "OK", "addr:street": "West Tennessee Avenue", "building": "house", "building:levels": "1"}}}, {"type": "Feature", "geometry": {"type": "Polygon", "coordinates": [[[-97.943006, 35.0358847], [-97.942884, 35.0358851], [-97.942884, 35.0358747], [-97.9428638, 35.0358747], [-97.9428635, 35.0358278], [-97.9428868, 35.0358277], [-97.9428868, 35.0358167], [-97.9430057, 35.0358162], [-97.943006, 35.0358847]]]}, "properties": {"osm_id": 1314731813, "building": "house", "name": "", "height": null, "height_m": 3.0, "levels": 1, "tract_id": "40051001000", "tract_name": "10", "tags": {"addr:city": "Chickasha", "addr:housenumber": "1428", "addr:postcode": "73018", "addr:state": "OK", "addr:street": "South 8th Street", "building": "house", "building:levels": "1"}}}, {"type": "Feature", "geometry": {"type": "Polygon", "coordinates": [[[-97.9374302, 35.0375109], [-97.9374308, 35.0374326], [-97.9374936, 35.037433], [-97.9374939, 35.0373923], [-97.9374191, 35.0373919], [-97.9374196, 35.0373281], [-97.937239, 35.0373272], [-97.9372376, 35.03751], [-97.9374302, 35.0375109]]]}, "properties": {"osm_id": 1323198042, "building": "retail", "name": "Love's", "height": null, "height_m": null, "levels": null, "tract_id": "40051001000", "tract_name": "10", "tags": {"brand": "Love's", "brand:wikidata": "Q1872496", "building": "retail", "name": "Love's", "shop": "convenience"}}}, {"type": "Feature", "geometry": {"type": "Polygon", "coordinates": [[[-97.9371126, 35.0372531], [-97.9371116, 35.0371839], [-97.9370953, 35.0371841], [-97.9370262, 35.0371847], [-97.9370272, 35.0372539], [-97.9370972, 35.0372532], [-97.9371126, 35.0372531]]]}, "properties": {"osm_id": 1324185512, "building": "roof", "name": "", "height": null, "height_m": null, "levels": null, "tract_id": "40051001000", "tract_name": "10", "tags": {"building": "roof", "layer": "1"}}}, {"type": "Feature", "geometry": {"type": "Polygon", "coordinates": [[[-97.9373454, 35.0371169], [-97.9372429, 35.0371166], [-97.937243, 35.0370798], [-97.9372431, 35.0370551], [-97.9373457, 35.0370554], [-97.9373456, 35.0370813], [-97.9373454, 35.0371169]]]}, "properties": {"osm_id": 1327551413, "building": "industrial", "name": "", "height": null, "height_m": null, "levels": null, "tract_id": "40051001000", "tract_name": "10", "tags": {"amenity": "car_wash", "building": "industrial"}}}, {"type": "Feature", "geometry": {"type": "Polygon", "coordinates": [[[-97.9374191, 35.0381396], [-97.937085, 35.0381386], [-97.9370855, 35.0380337], [-97.9372663, 35.0380343], [-97.9372663, 35.0380439], [-97.9374196, 35.0380443], [-97.9374191, 35.0381396]]]}, "properties": {"osm_id": 1327551414, "building": "retail", "name": "KFC", "height": null, "height_m": null, "levels": null, "tract_id": "40051001000", "tract_name": "10", "tags": {"addr:city": "Chickasha", "addr:housenumber": "1228", "addr:postcode": "73018", "addr:state": "OK", "addr:street": "South 4th Street", "alt_name": "Kentucky Fried Chicken", "amenity": "fast_food", "brand": "KFC", "brand:wikidata": "Q524757", "building": "retail", "cuisine": "chicken", "name": "KFC", "takeaway": "yes", "website": "https://locations.kfc.com/ok/chickasha/1228-s-fourth-street"}}}, {"type": "Feature", "geometry": {"type": "Polygon", "coordinates": [[[-97.9403985, 35.046712], [-97.9403989, 35.0465398], [-97.9403065, 35.0465397], [-97.9403065, 35.0465585], [-97.940069, 35.0465582], [-97.9400687, 35.0466971], [-97.940302, 35.0466974], [-97.9403019, 35.0467119], [-97.9403985, 35.046712]]]}, "properties": {"osm_id": 1328188957, "building": "yes", "name": "First Presbyterian Church", "height": null, "height_m": null, "levels": null, "tract_id": "40051001000", "tract_name": "10", "tags": {"addr:city": "Chickasha", "addr:housenumber": "428", "addr:postcode": "73018", "addr:state": "OK", "addr:street": "South 6th Street", "amenity": "place_of_worship", "building": "yes", "denomination": "presbyterian", "name": "First Presbyterian Church", "religion": "christian"}}}, {"type": "Feature", "geometry": {"type": "Polygon", "coordinates": [[[-97.9403466, 35.0429796], [-97.9403457, 35.043057], [-97.940294, 35.0430802], [-97.9402442, 35.0430586], [-97.9402442, 35.0429812], [-97.940295, 35.0429548], [-97.9403466, 35.0429796]]]}, "properties": {"osm_id": 1329089508, "building": "yes", "name": "", "height": null, "height_m": null, "levels": null, "tract_id": "40051001000", "tract_name": "10", "tags": {"building": "yes"}}}, {"type": "Feature", "geometry": {"type": "Polygon", "coordinates": [[[-97.940327, 35.0426347], [-97.9403258, 35.0425721], [-97.940395, 35.0425711], [-97.9403962, 35.0426338], [-97.940327, 35.0426347]]]}, "properties": {"osm_id": 1329089509, "building": "yes", "name": "", "height": null, "height_m": null, "levels": null, "tract_id": "40051001000", "tract_name": "10", "tags": {"building": "yes"}}}, {"type": "Feature", "geometry": {"type": "Polygon", "coordinates": [[[-97.9406924, 35.0424243], [-97.9405939, 35.0424266], [-97.9405913, 35.0423527], [-97.9406898, 35.0423504], [-97.9406924, 35.0424243]]]}, "properties": {"osm_id": 1329089510, "building": "yes", "name": "", "height": null, "height_m": null, "levels": null, "tract_id": "40051001000", "tract_name": "10", "tags": {"building": "yes"}}}, {"type": "Feature", "geometry": {"type": "Polygon", "coordinates": [[[-97.9355775, 35.0512932], [-97.9367605, 35.0512892], [-97.9367627, 35.0517406], [-97.9365863, 35.0517412], [-97.936586, 35.0516829], [-97.9364925, 35.0516832], [-97.9364919, 35.0515523], [-97.9363128, 35.0515529], [-97.9363135, 35.051706], [-97.9358992, 35.0517072], [-97.9358984, 35.0515179], [-97.9357926, 35.0515182], [-97.9357932, 35.0516469], [-97.9355793, 35.0516476], [-97.9355775, 35.0512932]]]}, "properties": {"osm_id": 1336667580, "building": "yes", "name": "", "height": null, "height_m": null, "levels": null, "tract_id": "40051001000", "tract_name": "10", "tags": {"building": "yes"}}}, {"type": "Feature", "geometry": {"type": "Polygon", "coordinates": [[[-97.937039, 35.0513061], [-97.9381662, 35.0512951], [-97.9381726, 35.0517358], [-97.9380217, 35.0517372], [-97.9380193, 35.0515709], [-97.9376026, 35.0515749], [-97.9376036, 35.051643], [-97.937323, 35.0516456], [-97.9373342, 35.051612], [-97.937039, 35.0516212], [-97.9369939, 35.0516208], [-97.9369979, 35.0513153], [-97.937039, 35.0513061]]]}, "properties": {"osm_id": 1336667581, "building": "yes", "name": "", "height": null, "height_m": null, "levels": null, "tract_id": "40051001000", "tract_name": "10", "tags": {"building": "yes"}}}, {"type": "Feature", "geometry": {"type": "Polygon", "coordinates": [[[-97.9367546, 35.0505619], [-97.9367501, 35.0510259], [-97.9355548, 35.0510182], [-97.9355575, 35.0507407], [-97.9357535, 35.050742], [-97.9357551, 35.0505845], [-97.9359738, 35.050586], [-97.9359723, 35.0507398], [-97.9361839, 35.0507412], [-97.9361849, 35.0506411], [-97.9363942, 35.0506425], [-97.936395, 35.0505595], [-97.9367546, 35.0505619]]]}, "properties": {"osm_id": 1336667582, "building": "yes", "name": "", "height": null, "height_m": null, "levels": null, "tract_id": "40051001000", "tract_name": "10", "tags": {"building": "yes"}}}, {"type": "Feature", "geometry": {"type": "Polygon", "coordinates": [[[-97.9369846, 35.0510219], [-97.937578, 35.0510203], [-97.9375764, 35.0506275], [-97.9374895, 35.0506277], [-97.9374899, 35.0507474], [-97.9373407, 35.0507478], [-97.9373412, 35.0508765], [-97.9371546, 35.0508769], [-97.9371542, 35.0507484], [-97.9369835, 35.0507489], [-97.9369846, 35.0510219]]]}, "properties": {"osm_id": 1336667583, "building": "yes", "name": "", "height": null, "height_m": null, "levels": null, "tract_id": "40051001000", "tract_name": "10", "tags": {"building": "yes"}}}, {"type": "Feature", "geometry": {"type": "Polygon", "coordinates": [[[-97.93777, 35.0510213], [-97.9381642, 35.0510181], [-97.9381589, 35.0505809], [-97.9377646, 35.0505841], [-97.93777, 35.0510213]]]}, "properties": {"osm_id": 1336667584, "building": "yes", "name": "", "height": null, "height_m": null, "levels": null, "tract_id": "40051001000", "tract_name": "10", "tags": {"building": "yes"}}}, {"type": "Feature", "geometry": {"type": "Polygon", "coordinates": [[[-97.9381591, 35.0500882], [-97.9381653, 35.0505034], [-97.9376869, 35.0505082], [-97.9376818, 35.0501607], [-97.9378073, 35.0501595], [-97.9378398, 35.0501488], [-97.9378389, 35.0500914], [-97.9381591, 35.0500882]]]}, "properties": {"osm_id": 1336667585, "building": "yes", "name": "", "height": null, "height_m": null, "levels": null, "tract_id": "40051001000", "tract_name": "10", "tags": {"building": "yes"}}}, {"type": "Feature", "geometry": {"type": "Polygon", "coordinates": [[[-97.9394738, 35.0510233], [-97.9394735, 35.050863], [-97.9396261, 35.0508629], [-97.9396257, 35.0505694], [-97.9394431, 35.0505695], [-97.9394433, 35.0507214], [-97.9390567, 35.0507216], [-97.9390568, 35.0507855], [-97.938965, 35.0507856], [-97.9389649, 35.0507006], [-97.9388574, 35.0507007], [-97.9388574, 35.0506568], [-97.9387043, 35.0506569], [-97.9387044, 35.0507075], [-97.9386079, 35.0507076], [-97.9386077, 35.0505826], [-97.9384706, 35.0505827], [-97.9384712, 35.0510244], [-97.9394738, 35.0510233]]]}, "properties": {"osm_id": 1336667586, "building": "yes", "name": "", "height": null, "height_m": null, "levels": null, "tract_id": "40051001000", "tract_name": "10", "tags": {"building": "yes"}}}, {"type": "Feature", "geometry": {"type": "Polygon", "coordinates": [[[-97.9384514, 35.0512893], [-97.9394435, 35.0512867], [-97.9394453, 35.0517362], [-97.9393637, 35.0517364], [-97.9393632, 35.0515878], [-97.9391998, 35.0515882], [-97.9392001, 35.0516826], [-97.9386388, 35.0516839], [-97.9386033, 35.0517089], [-97.938453, 35.0517093], [-97.9384514, 35.0512893]]]}, "properties": {"osm_id": 1336667587, "building": "yes", "name": "", "height": null, "height_m": null, "levels": null, "tract_id": "40051001000", "tract_name": "10", "tags": {"building": "yes"}}}, {"type": "Feature", "geometry": {"type": "Polygon", "coordinates": [[[-97.9388078, 35.0500765], [-97.9388084, 35.0505204], [-97.9384651, 35.0505207], [-97.9384646, 35.0500768], [-97.9388078, 35.0500765]]]}, "properties": {"osm_id": 1354788604, "building": "yes", "name": "", "height": null, "height_m": null, "levels": null, "tract_id": "40051001000", "tract_name": "10", "tags": {"building": "yes"}}}, {"type": "Feature", "geometry": {"type": "Polygon", "coordinates": [[[-97.9382055, 35.0493963], [-97.9382084, 35.0498651], [-97.9377171, 35.0498672], [-97.9377143, 35.0494099], [-97.9379207, 35.0494091], [-97.9379217, 35.0495895], [-97.9380181, 35.0495891], [-97.938017, 35.0493971], [-97.9382055, 35.0493963]]]}, "properties": {"osm_id": 1354788605, "building": "yes", "name": "", "height": null, "height_m": null, "levels": null, "tract_id": "40051001000", "tract_name": "10", "tags": {"building": "yes"}}}, {"type": "Feature", "geometry": {"type": "Polygon", "coordinates": [[[-97.9399592, 35.0505995], [-97.9399591, 35.050796], [-97.9402188, 35.0507962], [-97.9402186, 35.0510448], [-97.940542, 35.0510449], [-97.9405421, 35.050818], [-97.9404425, 35.0508179], [-97.9404427, 35.0505998], [-97.9399592, 35.0505995]]]}, "properties": {"osm_id": 1354788606, "building": "yes", "name": "", "height": null, "height_m": null, "levels": null, "tract_id": "40051001000", "tract_name": "10", "tags": {"building": "yes"}}}, {"type": "Feature", "geometry": {"type": "Polygon", "coordinates": [[[-97.9406287, 35.0513104], [-97.941101, 35.0513146], [-97.9411332, 35.05133], [-97.9411439, 35.0513717], [-97.9411409, 35.0515999], [-97.9410678, 35.0515992], [-97.941066, 35.0517385], [-97.9406231, 35.0517345], [-97.9406287, 35.0513104]]]}, "properties": {"osm_id": 1354788607, "building": "yes", "name": "", "height": null, "height_m": null, "levels": null, "tract_id": "40051001000", "tract_name": "10", "tags": {"building": "yes"}}}, {"type": "Feature", "geometry": {"type": "Polygon", "coordinates": [[[-97.9370149, 35.0525437], [-97.9378405, 35.0525576], [-97.9378348, 35.0527856], [-97.9380112, 35.0527886], [-97.9380175, 35.0525408], [-97.9382029, 35.052544], [-97.9381917, 35.0529893], [-97.937846, 35.0529834], [-97.9378466, 35.052962], [-97.9377067, 35.0529596], [-97.9377055, 35.0530085], [-97.9375089, 35.0530052], [-97.9375094, 35.0529817], [-97.9373563, 35.0529791], [-97.9373596, 35.0528484], [-97.9371847, 35.0528455], [-97.937181, 35.0529949], [-97.9370036, 35.052992], [-97.9370149, 35.0525437]]]}, "properties": {"osm_id": 1354788608, "building": "yes", "name": "", "height": null, "height_m": null, "levels": null, "tract_id": "40051001000", "tract_name": "10", "tags": {"building": "yes"}}}, {"type": "Feature", "geometry": {"type": "Polygon", "coordinates": [[[-97.9382011, 35.0518211], [-97.938197, 35.0521049], [-97.9379437, 35.0521025], [-97.9379478, 35.0518187], [-97.9382011, 35.0518211]]]}, "properties": {"osm_id": 1354788609, "building": "yes", "name": "", "height": null, "height_m": null, "levels": null, "tract_id": "40051001000", "tract_name": "10", "tags": {"building": "yes"}}}, {"type": "Feature", "geometry": {"type": "Polygon", "coordinates": [[[-97.934536, 35.0531259], [-97.9347458, 35.053126], [-97.9347458, 35.0530833], [-97.9349102, 35.0530833], [-97.9349099, 35.0535065], [-97.9347272, 35.0535064], [-97.9347273, 35.0533745], [-97.9345359, 35.0533744], [-97.934536, 35.0533247], [-97.934536, 35.0531259]]]}, "properties": {"osm_id": 1354788610, "building": "yes", "name": "", "height": null, "height_m": null, "levels": null, "tract_id": "40051001000", "tract_name": "10", "tags": {"building": "yes"}}}, {"type": "Feature", "geometry": {"type": "Polygon", "coordinates": [[[-97.937006, 35.0505264], [-97.9370088, 35.0502048], [-97.9372292, 35.0502061], [-97.9372263, 35.0505277], [-97.937006, 35.0505264]]]}, "properties": {"osm_id": 1354788611, "building": "yes", "name": "", "height": null, "height_m": null, "levels": null, "tract_id": "40051001000", "tract_name": "10", "tags": {"building": "yes"}}}, {"type": "Feature", "geometry": {"type": "Polygon", "coordinates": [[[-97.9369992, 35.0505726], [-97.9373531, 35.05058], [-97.9373481, 35.0507406], [-97.9369942, 35.0507332], [-97.9369992, 35.0505726]]]}, "properties": {"osm_id": 1354788612, "building": "yes", "name": "", "height": null, "height_m": null, "levels": null, "tract_id": "40051001000", "tract_name": "10", "tags": {"building": "yes"}}}, {"type": "Feature", "geometry": {"type": "Polygon", "coordinates": [[[-97.9367663, 35.0501123], [-97.9367628, 35.0505308], [-97.9365554, 35.0505296], [-97.9365591, 35.0501111], [-97.9367663, 35.0501123]]]}, "properties": {"osm_id": 1354788613, "building": "yes", "name": "", "height": null, "height_m": null, "levels": null, "tract_id": "40051001000", "tract_name": "10", "tags": {"building": "yes"}}}, {"type": "Feature", "geometry": {"type": "Polygon", "coordinates": [[[-97.9341345, 35.0493917], [-97.9341195, 35.0498558], [-97.9347141, 35.0498688], [-97.9347292, 35.0494046], [-97.9341345, 35.0493917]]]}, "properties": {"osm_id": 1354788614, "building": "yes", "name": "", "height": null, "height_m": null, "levels": null, "tract_id": "40051001000", "tract_name": "10", "tags": {"building": "yes"}}}, {"type": "Feature", "geometry": {"type": "Polygon", "coordinates": [[[-97.9341253, 35.0488924], [-97.9341245, 35.0493347], [-97.9343053, 35.0493349], [-97.9343056, 35.0491787], [-97.934602, 35.0491791], [-97.9346025, 35.0488929], [-97.9341253, 35.0488924]]]}, "properties": {"osm_id": 1354788615, "building": "yes", "name": "", "height": null, "height_m": null, "levels": null, "tract_id": "40051001000", "tract_name": "10", "tags": {"building": "yes"}}}]}