{"type": "FeatureCollection", "features": [{"type": "Feature", "geometry": {"type": "Polygon", "coordinates": [[[-95.8057873, 35.9871153], [-95.8057813, 35.9870574], [-95.8058265, 35.9870544], [-95.8058325, 35.9871122], [-95.8057873, 35.9871153]]]}, "properties": {"osm_id": 717373147, "building": "shed", "name": "", "height": null, "height_m": null, "levels": null, "tract_id": "40143007523", "tract_name": "75.23", "tags": {"building": "shed"}}}, {"type": "Feature", "geometry": {"type": "Polygon", "coordinates": [[[-95.8054636, 35.9869835], [-95.8053019, 35.986978], [-95.8053093, 35.9868362], [-95.8054709, 35.9868417], [-95.8054636, 35.9869835]]]}, "properties": {"osm_id": 717373151, "building": "garage", "name": "", "height": null, "height_m": null, "levels": null, "tract_id": "40143007523", "tract_name": "75.23", "tags": {"building": "garage"}}}, {"type": "Feature", "geometry": {"type": "Polygon", "coordinates": [[[-95.8051285, 35.9870853], [-95.8051677, 35.9870857], [-95.8051673, 35.9871133], [-95.805128, 35.9871129], [-95.8051285, 35.9870853]]]}, "properties": {"osm_id": 717373152, "building": "maybe", "name": "", "height": null, "height_m": null, "levels": null, "tract_id": "40143007523", "tract_name": "75.23", "tags": {"building": "maybe", "note": "I deleted three other buildings here that don't show up on any imagery; but it's unclear if this one needs to also be deleted."}}}, {"type": "Feature", "geometry": {"type": "Polygon", "coordinates": [[[-95.8032066, 35.9881918], [-95.8033345, 35.9881982], [-95.8033473, 35.9880307], [-95.8032808, 35.9880274], [-95.8032722, 35.9881398], [-95.8032108, 35.9881368], [-95.8032066, 35.9881918]]]}, "properties": {"osm_id": 717373153, "building": "yes", "name": "", "height": null, "height_m": null, "levels": null, "tract_id": "40143007523", "tract_name": "75.23", "tags": {"building": "yes"}}}, {"type": "Feature", "geometry": {"type": "Polygon", "coordinates": [[[-95.8031189, 35.9881382], [-95.8031233, 35.9880826], [-95.8030835, 35.9880806], [-95.8030791, 35.9881362], [-95.8031189, 35.9881382]]]}, "properties": {"osm_id": 717373154, "building": "yes", "name": "", "height": null, "height_m": null, "levels": null, "tract_id": "40143007523", "tract_name": "75.23", "tags": {"building": "yes"}}}, {"type": "Feature", "geometry": {"type": "Polygon", "coordinates": [[[-95.8030091, 35.9881497], [-95.8029004, 35.9881443], [-95.8029036, 35.9881025], [-95.8030123, 35.9881079], [-95.8030091, 35.9881497]]]}, "properties": {"osm_id": 717373155, "building": "yes", "name": "", "height": null, "height_m": null, "levels": null, "tract_id": "40143007523", "tract_name": "75.23", "tags": {"building": "yes"}}}, {"type": "Feature", "geometry": {"type": "Polygon", "coordinates": [[[-95.8026922, 35.9878643], [-95.8026937, 35.9878365], [-95.8026614, 35.9878354], [-95.80266, 35.9878632], [-95.8026922, 35.9878643]]]}, "properties": {"osm_id": 717373156, "building": "yes", "name": "", "height": null, "height_m": null, "levels": null, "tract_id": "40143007523", "tract_name": "75.23", "tags": {"building": "yes"}}}, {"type": "Feature", "geometry": {"type": "Polygon", "coordinates": [[[-95.8025213, 35.9880831], [-95.8025288, 35.9878791], [-95.8026314, 35.9878815], [-95.8026294, 35.9879345], [-95.8026518, 35.987935], [-95.8026495, 35.9879995], [-95.8026261, 35.9879989], [-95.8026229, 35.9880855], [-95.8025213, 35.9880831]]]}, "properties": {"osm_id": 717373157, "building": "yes", "name": "", "height": null, "height_m": null, "levels": null, "tract_id": "40143007523", "tract_name": "75.23", "tags": {"building": "yes"}}}, {"type": "Feature", "geometry": {"type": "Polygon", "coordinates": [[[-95.7977494, 35.9747492], [-95.7977468, 35.9743377], [-95.7979081, 35.974337], [-95.7979089, 35.9744655], [-95.7979416, 35.9744654], [-95.7979421, 35.9745475], [-95.7979097, 35.9745476], [-95.7979098, 35.9745626], [-95.7979415, 35.9745625], [-95.7979417, 35.9745883], [-95.7979114, 35.9745884], [-95.7979114, 35.9745966], [-95.7979353, 35.9745965], [-95.7979358, 35.9746782], [-95.7979035, 35.9746783], [-95.7979039, 35.9747486], [-95.7977494, 35.9747492]]]}, "properties": {"osm_id": 846254200, "building": "retail", "name": "", "height": null, "height_m": null, "levels": null, "tract_id": "40143007523", "tract_name": "75.23", "tags": {"building": "retail"}}}, {"type": "Feature", "geometry": {"type": "Polygon", "coordinates": [[[-95.7978689, 35.9754064], [-95.7978662, 35.9748583], [-95.7980275, 35.9748571], [-95.7980301, 35.9754057], [-95.7978689, 35.9754064]]]}, "properties": {"osm_id": 846254201, "building": "commercial", "name": "", "height": null, "height_m": null, "levels": null, "tract_id": "40143007523", "tract_name": "75.23", "tags": {"building": "commercial"}}}, {"type": "Feature", "geometry": {"type": "Polygon", "coordinates": [[[-95.7978387, 35.9756171], [-95.7978386, 35.9755896], [-95.7978385, 35.9755621], [-95.7978383, 35.9755346], [-95.7978382, 35.9755071], [-95.7980367, 35.9755064], [-95.798037, 35.9755614], [-95.7980372, 35.9756164], [-95.7978387, 35.9756171]]]}, "properties": {"osm_id": 846254202, "building": "retail", "name": "Allstate", "height": null, "height_m": null, "levels": null, "tract_id": "40143007523", "tract_name": "75.23", "tags": {"addr:city": "Broken Arrow", "addr:housenumber": "7846", "addr:postcode": "74011", "addr:street": "South Elm Place", "alt_name": "D C Olson and Associates", "brand": "Allstate", "brand:wikidata": "Q2645636", "building": "retail", "name": "Allstate", "office": "insurance", "opening_hours": "Mo-Fr 08:30-17:30", "phone": "+1 918 505 1409"}}}, {"type": "Feature", "geometry": {"type": "Polygon", "coordinates": [[[-95.7983911, 35.9878084], [-95.7980033, 35.9878122], [-95.7979378, 35.9877562], [-95.7979371, 35.9875526], [-95.7983519, 35.9875492], [-95.7983936, 35.9875818], [-95.7983911, 35.9878084]]]}, "properties": {"osm_id": 902530704, "building": "yes", "name": "CVS Pharmacy", "height": null, "height_m": null, "levels": null, "tract_id": "40143007523", "tract_name": "75.23", "tags": {"amenity": "pharmacy", "brand": "CVS Pharmacy", "brand:website": "https://www.cvs.com/", "brand:wikidata": "Q2078880", "building": "yes", "dispensing": "yes", "healthcare": "pharmacy", "name": "CVS Pharmacy", "opening_hours": "Mo-Su 08:00-22:00", "short_name": "CVS", "website": "https://www.cvs.com/store-locator/broken-arrow-ok-pharmacies/751-w-tucson-st-121st-broken-arrow-ok-74011/storeid=1145"}}}, {"type": "Feature", "geometry": {"type": "Polygon", "coordinates": [[[-95.8145356, 35.985033], [-95.8141963, 35.9850341], [-95.814195, 35.9847607], [-95.8145343, 35.9847596], [-95.8145345, 35.9847981], [-95.8145685, 35.984798], [-95.8145681, 35.9847304], [-95.8148624, 35.9847294], [-95.8148631, 35.9848889], [-95.8145701, 35.9848899], [-95.8145698, 35.9848219], [-95.8145346, 35.984822], [-95.8145356, 35.985033]]]}, "properties": {"osm_id": 1005763267, "building": "yes", "name": "Grace Free Will Baptist Church", "height": null, "height_m": null, "levels": null, "tract_id": "40143007523", "tract_name": "75.23", "tags": {"amenity": "place_of_worship", "building": "yes", "denomination": "baptist", "name": "Grace Free Will Baptist Church", "religion": "christian"}}}, {"type": "Feature", "geometry": {"type": "Polygon", "coordinates": [[[-95.7994454, 35.9744237], [-95.7992456, 35.9744237], [-95.7992456, 35.9741459], [-95.7994454, 35.9741459], [-95.7994454, 35.9744237]]]}, "properties": {"osm_id": 1005763287, "building": "industrial", "name": "Dead Armadillo Craft Brewing", "height": null, "height_m": null, "levels": null, "tract_id": "40143007523", "tract_name": "75.23", "tags": {"addr:city": "Broken Arrow", "addr:housenumber": "850", "addr:postcode": "74011", "addr:street": "West Jasper Street", "building": "industrial", "craft": "brewery", "name": "Dead Armadillo Craft Brewing"}}}, {"type": "Feature", "geometry": {"type": "Polygon", "coordinates": [[[-95.7986204, 35.9742517], [-95.7987131, 35.974252], [-95.7987122, 35.9744389], [-95.7986445, 35.9744386], [-95.7986447, 35.9743932], [-95.7986197, 35.9743931], [-95.7986198, 35.9743791], [-95.7986204, 35.9742517]]]}, "properties": {"osm_id": 1005763289, "building": "retail", "name": "", "height": null, "height_m": null, "levels": null, "tract_id": "40143007523", "tract_name": "75.23", "tags": {"addr:city": "Broken Arrow", "addr:housenumber": "840", "addr:postcode": "74011", "addr:street": "West Jasper Street", "building": "retail", "shop": "vacant"}}}, {"type": "Feature", "geometry": {"type": "Polygon", "coordinates": [[[-95.7985313, 35.9742307], [-95.7986205, 35.974231], [-95.7986204, 35.9742517], [-95.7986198, 35.9743791], [-95.7985306, 35.9743788], [-95.7985313, 35.9742307]]]}, "properties": {"osm_id": 1005763290, "building": "retail", "name": "Meca", "height": null, "height_m": null, "levels": null, "tract_id": "40143007523", "tract_name": "75.23", "tags": {"addr:city": "Broken Arrow", "addr:housenumber": "836", "addr:postcode": "74011", "addr:street": "West Jasper Street", "building": "retail", "name": "Meca", "office": "property_management"}}}, {"type": "Feature", "geometry": {"type": "Polygon", "coordinates": [[[-95.7984418, 35.9742304], [-95.7985313, 35.9742307], [-95.7985306, 35.9743788], [-95.798441, 35.9743785], [-95.7984418, 35.9742304]]]}, "properties": {"osm_id": 1005763291, "building": "retail", "name": "Hometown Insurance", "height": null, "height_m": null, "levels": null, "tract_id": "40143007523", "tract_name": "75.23", "tags": {"addr:city": "Broken Arrow", "addr:housenumber": "832", "addr:postcode": "74011", "addr:street": "West Jasper Street", "alt_name": "Jada Phillips Agency", "building": "retail", "fixme": "Check shop information. I walked by on 2024-09-22 and I don't think it was an insurance agency.", "name": "Hometown Insurance", "office": "insurance", "opening_hours": "Mo-Fr 09:00-17:00", "phone": "+1 918 615 8488", "website": "https://jadaphillipsinsurance.com/"}}}, {"type": "Feature", "geometry": {"type": "Polygon", "coordinates": [[[-95.7983523, 35.9742301], [-95.7984418, 35.9742304], [-95.798441, 35.9743785], [-95.7983515, 35.9743782], [-95.7983523, 35.9742301]]]}, "properties": {"osm_id": 1005763292, "building": "retail", "name": "Farmer's Insurance", "height": null, "height_m": null, "levels": null, "tract_id": "40143007523", "tract_name": "75.23", "tags": {"addr:city": "Broken Arrow", "addr:housenumber": "828", "addr:postcode": "74011", "addr:street": "West Jasper Street", "alt_name": "Stacy Ray Agency", "brand": "Farmers Insurance", "brand:wikidata": "Q1396863", "building": "retail", "name": "Farmer's Insurance", "office": "insurance", "phone": "+1 918 615 1911"}}}, {"type": "Feature", "geometry": {"type": "Polygon", "coordinates": [[[-95.7982627, 35.9742298], [-95.7983523, 35.9742301], [-95.7983515, 35.9743782], [-95.798262, 35.9743779], [-95.7982627, 35.9742298]]]}, "properties": {"osm_id": 1005763293, "building": "retail", "name": "Myers-Cherry Construction", "height": null, "height_m": null, "levels": null, "tract_id": "40143007523", "tract_name": "75.23", "tags": {"addr:city": "Broken Arrow", "addr:housenumber": "824", "addr:postcode": "74011", "addr:street": "West Jasper Street", "building": "retail", "craft": "builder", "name": "Myers-Cherry Construction"}}}, {"type": "Feature", "geometry": {"type": "Polygon", "coordinates": [[[-95.7987455, 35.9877069], [-95.7990968, 35.9877069], [-95.7990968, 35.9879218], [-95.7987455, 35.9879218], [-95.7987455, 35.9877069]]]}, "properties": {"osm_id": 1120088938, "building": "commercial", "name": "Russo's Italian Kitchen", "height": null, "height_m": null, "levels": null, "tract_id": "40143007523", "tract_name": "75.23", "tags": {"addr:housenumber": "775", "addr:street": "West Tucson Street", "amenity": "restaurant", "building": "commercial", "check_date:opening_hours": "2024-09-19", "cuisine": "italian;pizza", "name": "Russo's Italian Kitchen", "opening_hours": "Su-Th 11:00-21:00; Fr-Sa 11:00-22:00"}}}, {"type": "Feature", "geometry": {"type": "Polygon", "coordinates": [[[-95.7978401, 35.975892], [-95.79784, 35.9758645], [-95.7978399, 35.975837], [-95.7980383, 35.9758363], [-95.7980386, 35.9758913], [-95.7978401, 35.975892]]]}, "properties": {"osm_id": 1241675185, "building": "retail", "name": "Indian Springs Barber Shop", "height": null, "height_m": null, "levels": null, "tract_id": "40143007523", "tract_name": "75.23", "tags": {"addr:city": "Broken Arrow", "addr:housenumber": "7836", "addr:postcode": "74011", "addr:street": "South Elm Place", "building": "retail", "name": "Indian Springs Barber Shop", "shop": "hairdresser"}}}, {"type": "Feature", "geometry": {"type": "Polygon", "coordinates": [[[-95.7978399, 35.975837], [-95.7978397, 35.9758095], [-95.7978396, 35.975782], [-95.7978394, 35.9757545], [-95.7978393, 35.975727], [-95.7980378, 35.9757264], [-95.798038, 35.9757813], [-95.7980383, 35.9758363], [-95.7978399, 35.975837]]]}, "properties": {"osm_id": 1241675190, "building": "retail", "name": "Chava's Mexican Restaurant", "height": null, "height_m": null, "levels": null, "tract_id": "40143007523", "tract_name": "75.23", "tags": {"addr:city": "Broken Arrow", "addr:housenumber": "7838", "addr:postcode": "74011", "addr:street": "South Elm Place", "amenity": "restaurant", "building": "retail", "cuisine": "mexican", "name": "Chava's Mexican Restaurant", "opening_hours": "Tu-Su 11:00-21:00"}}}, {"type": "Feature", "geometry": {"type": "Polygon", "coordinates": [[[-95.7980372, 35.9756164], [-95.7980375, 35.9756714], [-95.797839, 35.975672], [-95.7978389, 35.9756445], [-95.7978387, 35.9756171], [-95.7980372, 35.9756164]]]}, "properties": {"osm_id": 1241675191, "building": "retail", "name": "Stay Buzzin", "height": null, "height_m": null, "levels": null, "tract_id": "40143007523", "tract_name": "75.23", "tags": {"addr:city": "Broken Arrow", "addr:housenumber": "7844", "addr:postcode": "74011", "addr:street": "South Elm Place", "building": "retail", "description": "smoke and vape shop", "name": "Stay Buzzin", "opening_hours": "Mo-Sa 10:00-20:00", "shop": "tobacco;e-cigarette"}}}, {"type": "Feature", "geometry": {"type": "Polygon", "coordinates": [[[-95.7980375, 35.9756714], [-95.7980378, 35.9757264], [-95.7978393, 35.975727], [-95.7978392, 35.9756995], [-95.797839, 35.975672], [-95.7980375, 35.9756714]]]}, "properties": {"osm_id": 1241675192, "building": "retail", "name": "Tulsa Treehouse Dispensary", "height": null, "height_m": null, "levels": null, "tract_id": "40143007523", "tract_name": "75.23", "tags": {"addr:city": "Broken Arrow", "addr:housenumber": "7842", "addr:postcode": "74011", "addr:street": "South Elm Place", "building": "retail", "name": "Tulsa Treehouse Dispensary", "phone": "+1 918 940 4641", "shop": "cannabis"}}}, {"type": "Feature", "geometry": {"type": "Polygon", "coordinates": [[[-95.7980386, 35.9758913], [-95.7980388, 35.9759463], [-95.7978404, 35.9759469], [-95.7978403, 35.9759194], [-95.7978401, 35.975892], [-95.7980386, 35.9758913]]]}, "properties": {"osm_id": 1241675193, "building": "retail", "name": "BA Nutrition", "height": null, "height_m": null, "levels": null, "tract_id": "40143007523", "tract_name": "75.23", "tags": {"addr:city": "Broken Arrow", "addr:housenumber": "7834", "addr:postcode": "74011", "addr:street": "South Elm Place", "amenity": "fast_food", "building": "retail", "cuisine": "juice", "name": "BA Nutrition", "opening_hours": "Mo-Fr 07:00-14:00; Sa 08:00-12:00"}}}, {"type": "Feature", "geometry": {"type": "Polygon", "coordinates": [[[-95.7980388, 35.9759463], [-95.7980391, 35.9760013], [-95.7980394, 35.9760563], [-95.797841, 35.9760569], [-95.7978408, 35.9760294], [-95.7978407, 35.9760019], [-95.7978406, 35.9759744], [-95.7978404, 35.9759469], [-95.7980388, 35.9759463]]]}, "properties": {"osm_id": 1241675194, "building": "retail", "name": "The Boutique At Indian Springs", "height": null, "height_m": null, "levels": null, "tract_id": "40143007523", "tract_name": "75.23", "tags": {"addr:city": "Broken Arrow", "addr:housenumber": "7832", "addr:postcode": "74011", "addr:street": "South Elm Place", "building": "retail", "name": "The Boutique At Indian Springs", "shop": "clothes"}}}, {"type": "Feature", "geometry": {"type": "Polygon", "coordinates": [[[-95.8103406, 35.979516], [-95.8102305, 35.979516], [-95.810229, 35.9794726], [-95.8101479, 35.979473], [-95.8101494, 35.9794221], [-95.8103834, 35.9794209], [-95.8103932, 35.9794468], [-95.8103868, 35.979473], [-95.8103387, 35.979473], [-95.8103406, 35.979516]]]}, "properties": {"osm_id": 1307341594, "building": "yes", "name": "", "height": null, "height_m": null, "levels": null, "tract_id": "40143007523", "tract_name": "75.23", "tags": {"building": "yes"}}}, {"type": "Feature", "geometry": {"type": "Polygon", "coordinates": [[[-95.8022758, 35.9851433], [-95.8020841, 35.9852158], [-95.8020198, 35.9851238], [-95.8022138, 35.9850449], [-95.8022517, 35.9850904], [-95.8022758, 35.9851433]]]}, "properties": {"osm_id": 1307341608, "building": "yes", "name": "", "height": null, "height_m": null, "levels": null, "tract_id": "40143007523", "tract_name": "75.23", "tags": {"building": "yes"}}}, {"type": "Feature", "geometry": {"type": "Polygon", "coordinates": [[[-95.7994231, 35.985371], [-95.7991459, 35.9853692], [-95.7991466, 35.9850379], [-95.7994224, 35.9850373], [-95.7994231, 35.985371]]]}, "properties": {"osm_id": 1307341609, "building": "yes", "name": "", "height": null, "height_m": null, "levels": null, "tract_id": "40143007523", "tract_name": "75.23", "tags": {"building": "yes"}}}, {"type": "Feature", "geometry": {"type": "Polygon", "coordinates": [[[-95.7995516, 35.9851813], [-95.7994479, 35.9851813], [-95.7994456, 35.9850166], [-95.7995531, 35.985016], [-95.7995516, 35.9851813]]]}, "properties": {"osm_id": 1307341610, "building": "yes", "name": "", "height": null, "height_m": null, "levels": null, "tract_id": "40143007523", "tract_name": "75.23", "tags": {"building": "yes"}}}, {"type": "Feature", "geometry": {"type": "Polygon", "coordinates": [[[-95.7994284, 35.9860728], [-95.7992212, 35.9860733], [-95.7992202, 35.9860677], [-95.7991903, 35.9860685], [-95.7991873, 35.9859937], [-95.7992197, 35.9859925], [-95.7992188, 35.9859854], [-95.7994272, 35.985981], [-95.7994296, 35.9860096], [-95.7994375, 35.9860224], [-95.7994301, 35.9860375], [-95.7994284, 35.9860728]]]}, "properties": {"osm_id": 1307341611, "building": "house", "name": "", "height": null, "height_m": null, "levels": null, "tract_id": "40143007523", "tract_name": "75.23", "tags": {"building": "house"}}}, {"type": "Feature", "geometry": {"type": "Polygon", "coordinates": [[[-95.79954, 35.9861592], [-95.7994349, 35.9861572], [-95.7994343, 35.9861071], [-95.7995406, 35.986108], [-95.79954, 35.9861592]]]}, "properties": {"osm_id": 1307341612, "building": "yes", "name": "", "height": null, "height_m": null, "levels": null, "tract_id": "40143007523", "tract_name": "75.23", "tags": {"building": "yes"}}}, {"type": "Feature", "geometry": {"type": "Polygon", "coordinates": [[[-95.7996916, 35.9864984], [-95.7995654, 35.9864966], [-95.7995654, 35.9864832], [-95.7994625, 35.986482], [-95.7994617, 35.9863555], [-95.7995767, 35.9863549], [-95.7995759, 35.9863732], [-95.799609, 35.986375], [-95.799609, 35.986434], [-95.7996939, 35.9864346], [-95.7996916, 35.9864984]]]}, "properties": {"osm_id": 1307341613, "building": "yes", "name": "", "height": null, "height_m": null, "levels": null, "tract_id": "40143007523", "tract_name": "75.23", "tags": {"building": "yes"}}}, {"type": "Feature", "geometry": {"type": "Polygon", "coordinates": [[[-95.7997289, 35.9861169], [-95.7996212, 35.9861197], [-95.7996192, 35.9860672], [-95.7996586, 35.986066], [-95.7996591, 35.9860811], [-95.7997279, 35.9860799], [-95.7997289, 35.9861169]]]}, "properties": {"osm_id": 1307341614, "building": "yes", "name": "", "height": null, "height_m": null, "levels": null, "tract_id": "40143007523", "tract_name": "75.23", "tags": {"building": "yes"}}}, {"type": "Feature", "geometry": {"type": "Polygon", "coordinates": [[[-95.7994944, 35.9862014], [-95.7994097, 35.9862024], [-95.7994097, 35.9861657], [-95.7994944, 35.986166], [-95.7994944, 35.9862014]]]}, "properties": {"osm_id": 1307341615, "building": "yes", "name": "", "height": null, "height_m": null, "levels": null, "tract_id": "40143007523", "tract_name": "75.23", "tags": {"building": "yes"}}}, {"type": "Feature", "geometry": {"type": "Polygon", "coordinates": [[[-95.7993682, 35.9861655], [-95.7993395, 35.9861658], [-95.7993383, 35.9861374], [-95.7993678, 35.9861366], [-95.7993682, 35.9861655]]]}, "properties": {"osm_id": 1307341616, "building": "yes", "name": "", "height": null, "height_m": null, "levels": null, "tract_id": "40143007523", "tract_name": "75.23", "tags": {"building": "yes"}}}, {"type": "Feature", "geometry": {"type": "Polygon", "coordinates": [[[-95.7991631, 35.9863217], [-95.799013, 35.9863212], [-95.7990111, 35.9862593], [-95.7991643, 35.9862578], [-95.7991631, 35.9863217]]]}, "properties": {"osm_id": 1307341617, "building": "yes", "name": "", "height": null, "height_m": null, "levels": null, "tract_id": "40143007523", "tract_name": "75.23", "tags": {"building": "yes"}}}, {"type": "Feature", "geometry": {"type": "Polygon", "coordinates": [[[-95.7979096, 35.9851109], [-95.7977744, 35.9851139], [-95.7977721, 35.984948], [-95.7977849, 35.984948], [-95.7977804, 35.9848774], [-95.7978487, 35.9848768], [-95.797851, 35.9849431], [-95.7978976, 35.9849431], [-95.7978991, 35.9849771], [-95.7979547, 35.9849765], [-95.7979577, 35.9850379], [-95.7979066, 35.9850392], [-95.7979096, 35.9851109]]]}, "properties": {"osm_id": 1307341622, "building": "house", "name": "", "height": null, "height_m": null, "levels": null, "tract_id": "40143007523", "tract_name": "75.23", "tags": {"building": "house"}}}, {"type": "Feature", "geometry": {"type": "Polygon", "coordinates": [[[-95.7976437, 35.9763996], [-95.797642, 35.9761986], [-95.7978417, 35.9761975], [-95.7978425, 35.9762845], [-95.7977999, 35.9762848], [-95.7978008, 35.9763988], [-95.7976437, 35.9763996]]]}, "properties": {"osm_id": 1317463489, "building": "fire_station", "name": "", "height": null, "height_m": null, "levels": null, "tract_id": "40143007523", "tract_name": "75.23", "tags": {"addr:postcode": "74011", "addr:street": "South Elm Place", "building": "fire_station", "description": "Not a fire station anymore, but still some sort of city facility.", "operator": "City of Broken Arrow"}}}, {"type": "Feature", "geometry": {"type": "Polygon", "coordinates": [[[-95.8045327, 35.9862648], [-95.8045673, 35.9862874], [-95.8045969, 35.9862576], [-95.8046599, 35.9862986], [-95.8046029, 35.9863559], [-95.8045986, 35.986353], [-95.8045727, 35.9863791], [-95.8045239, 35.9863474], [-95.8043511, 35.986359], [-95.8043459, 35.9863078], [-95.8043611, 35.9863068], [-95.8043499, 35.9861976], [-95.8043739, 35.986196], [-95.8043688, 35.9861457], [-95.804457, 35.9861398], [-95.8044576, 35.9861453], [-95.80452, 35.9861411], [-95.8045239, 35.9861797], [-95.8045391, 35.9861787], [-95.8045428, 35.986215], [-95.8045498, 35.9862145], [-95.8045515, 35.9862312], [-95.8045294, 35.9862327], [-95.8045327, 35.9862648]]]}, "properties": {"osm_id": 1414192982, "building": "house", "name": "", "height": null, "height_m": null, "levels": null, "tract_id": "40143007523", "tract_name": "75.23", "tags": {"addr:city": "Broken Arrow", "addr:housenumber": "1321", "addr:postcode": "74011", "addr:street": "West Tucson Street", "building": "house"}}}]}