{"type": "FeatureCollection", "features": [{"type": "Feature", "geometry": {"type": "Polygon", "coordinates": [[[-95.6553171, 35.1764424], [-95.6552153, 35.1763066], [-95.6552982, 35.1762651], [-95.6554, 35.1764009], [-95.6553171, 35.1764424]]]}, "properties": {"osm_id": 111407675, "building": "yes", "name": "Canadian", "height": null, "height_m": null, "levels": null, "tract_id": "40121485800", "tract_name": "4858", "tags": {"amenity": "post_office", "building": "yes", "name": "Canadian", "operator": "United States Postal Service", "operator:short": "USPS", "operator:type": "public", "operator:website": "https://www.usps.com", "operator:wikidata": "Q668687", "operator:wikipedia": "en:United States Postal Service"}}}, {"type": "Feature", "geometry": {"type": "Polygon", "coordinates": [[[-95.7762485, 35.1676798], [-95.7761032, 35.1676757], [-95.776108, 35.1675592], [-95.7762187, 35.1675623], [-95.7762206, 35.1675155], [-95.7763086, 35.167518], [-95.7763066, 35.1675664], [-95.7762533, 35.1675649], [-95.7762485, 35.1676798]]]}, "properties": {"osm_id": 341647025, "building": "house", "name": "", "height": null, "height_m": null, "levels": null, "tract_id": "40121485800", "tract_name": "4858", "tags": {"addr:city": "Indianola", "addr:country": "US", "addr:housenumber": "400", "addr:postcode": "74442", "addr:state": "OK", "addr:street": "Broadway Street", "building": "house"}}}, {"type": "Feature", "geometry": {"type": "Polygon", "coordinates": [[[-95.6181423, 35.1515557], [-95.6181772, 35.1513485], [-95.6179975, 35.1513342], [-95.617976, 35.1515404], [-95.6181423, 35.1515557]]]}, "properties": {"osm_id": 1003743440, "building": "yes", "name": "", "height": null, "height_m": null, "levels": null, "tract_id": "40121485800", "tract_name": "4858", "tags": {"building": "yes", "golf": "clubhouse"}}}, {"type": "Feature", "geometry": {"type": "Polygon", "coordinates": [[[-95.6185621, 35.15107], [-95.618597, 35.1510349], [-95.618554, 35.1509998], [-95.6182697, 35.1510141], [-95.6182362, 35.1509943], [-95.6181826, 35.1510086], [-95.618145, 35.1510459], [-95.6181718, 35.1510963], [-95.6182214, 35.1511084], [-95.6182751, 35.1510766], [-95.6185621, 35.15107]]]}, "properties": {"osm_id": 1003743441, "building": "yes", "name": "", "height": null, "height_m": null, "levels": null, "tract_id": "40121485800", "tract_name": "4858", "tags": {"building": "yes", "golf": "clubhouse"}}}, {"type": "Feature", "geometry": {"type": "Polygon", "coordinates": [[[-95.6169166, 35.1512268], [-95.6169192, 35.1511281], [-95.6167556, 35.1511303], [-95.6167449, 35.151229], [-95.6169166, 35.1512268]]]}, "properties": {"osm_id": 1003743442, "building": "yes", "name": "", "height": null, "height_m": null, "levels": null, "tract_id": "40121485800", "tract_name": "4858", "tags": {"building": "yes"}}}, {"type": "Feature", "geometry": {"type": "Polygon", "coordinates": [[[-95.6669809, 35.1732245], [-95.6669837, 35.1731806], [-95.6669532, 35.1731793], [-95.6669504, 35.1732232], [-95.6669809, 35.1732245]]]}, "properties": {"osm_id": 1211901799, "building": "yes", "name": "", "height": null, "height_m": null, "levels": null, "tract_id": "40121485800", "tract_name": "4858", "tags": {"building": "yes"}}}, {"type": "Feature", "geometry": {"type": "Polygon", "coordinates": [[[-95.667056, 35.1731533], [-95.6670578, 35.173127], [-95.6669859, 35.1731238], [-95.6669841, 35.1731501], [-95.667056, 35.1731533]]]}, "properties": {"osm_id": 1359627234, "building": "yes", "name": "", "height": null, "height_m": null, "levels": null, "tract_id": "40121485800", "tract_name": "4858", "tags": {"building": "yes"}}}, {"type": "Feature", "geometry": {"type": "Polygon", "coordinates": [[[-95.6187226, 35.1514784], [-95.6186577, 35.1515058], [-95.6186753, 35.1515397], [-95.6185893, 35.151577], [-95.6185692, 35.1515496], [-95.6185127, 35.1515705], [-95.618441, 35.1514554], [-95.6184963, 35.1514307], [-95.6186409, 35.1513615], [-95.6187226, 35.1514784]]]}, "properties": {"osm_id": 1424494269, "building": "yes", "name": "", "height": null, "height_m": null, "levels": null, "tract_id": "40121485800", "tract_name": "4858", "tags": {"building": "yes", "golf": "clubhouse", "layer": "1"}}}, {"type": "Feature", "geometry": {"type": "Polygon", "coordinates": [[[-95.6188394, 35.151383], [-95.6187784, 35.1513587], [-95.61884, 35.1512521], [-95.6188993, 35.1512735], [-95.6188394, 35.151383]]]}, "properties": {"osm_id": 1424572428, "building": "yes", "name": "", "height": null, "height_m": null, "levels": null, "tract_id": "40121485800", "tract_name": "4858", "tags": {"building": "yes"}}}]}