{"type": "FeatureCollection", "features": [{"type": "Feature", "geometry": {"type": "Polygon", "coordinates": [[[-96.2422009, 36.0273688], [-96.2421346, 36.0273775], [-96.2421143, 36.0272762], [-96.2421806, 36.0272675], [-96.2422009, 36.0273688]]]}, "properties": {"osm_id": 64787330, "building": "detached", "name": "", "height": null, "height_m": 3.0, "levels": 1, "tract_id": "40037020707", "tract_name": "207.07", "tags": {"addr:city": "Sapulpa", "addr:country": "US", "addr:housenumber": "22315", "addr:postcode": "74066", "addr:state": "OK", "addr:street": "West Hickory Drive", "building": "detached", "building:colour": "brown", "building:levels": "1", "roof:colour": "lightgrey", "roof:levels": "0", "roof:shape": "skillion"}}}, {"type": "Feature", "geometry": {"type": "Polygon", "coordinates": [[[-96.2420405, 36.0275648], [-96.2420387, 36.0275343], [-96.2421029, 36.0275319], [-96.2421046, 36.0275624], [-96.2420405, 36.0275648]]]}, "properties": {"osm_id": 64787332, "building": "shed", "name": "", "height": null, "height_m": null, "levels": null, "tract_id": "40037020707", "tract_name": "207.07", "tags": {"building": "shed", "building:colour": "brown"}}}, {"type": "Feature", "geometry": {"type": "Polygon", "coordinates": [[[-96.2258031, 35.9891832], [-96.2257981, 35.9890834], [-96.2257043, 35.9890865], [-96.2256952, 35.9889066], [-96.2258907, 35.9889001], [-96.2258849, 35.988787], [-96.2255422, 35.9887984], [-96.2255573, 35.9890964], [-96.2254721, 35.9890992], [-96.2254769, 35.989194], [-96.2258031, 35.9891832]]]}, "properties": {"osm_id": 68147484, "building": "church", "name": "Blue Bell Free Will Baptist Church", "height": null, "height_m": null, "levels": null, "tract_id": "40037020707", "tract_name": "207.07", "tags": {"amenity": "place_of_worship", "building": "church", "ele": "277", "gnis:feature_id": "1090266", "name": "Blue Bell Free Will Baptist Church", "religion": "christian"}}}, {"type": "Feature", "geometry": {"type": "Polygon", "coordinates": [[[-96.2418853, 36.0292794], [-96.2418633, 36.0292559], [-96.2419427, 36.0292071], [-96.2419648, 36.0292306], [-96.2418853, 36.0292794]]]}, "properties": {"osm_id": 68167212, "building": "yes", "name": "", "height": null, "height_m": null, "levels": null, "tract_id": "40037020707", "tract_name": "207.07", "tags": {"building": "yes"}}}, {"type": "Feature", "geometry": {"type": "Polygon", "coordinates": [[[-96.1945488, 35.9882535], [-96.194576, 35.988314], [-96.1945903, 35.9883508], [-96.1944175, 35.9883992], [-96.194402, 35.9883628], [-96.1943759, 35.9883018], [-96.1945488, 35.9882535]]]}, "properties": {"osm_id": 83003399, "building": "yes", "name": "Kellyville", "height": null, "height_m": null, "levels": null, "tract_id": "40037020707", "tract_name": "207.07", "tags": {"building": "yes", "name": "Kellyville", "operator": "Oklahoma Turnpike Authority"}}}, {"type": "Feature", "geometry": {"type": "Polygon", "coordinates": [[[-96.1925018, 35.9881025], [-96.192577, 35.9879624], [-96.1926373, 35.9879837], [-96.1927032, 35.9880068], [-96.192628, 35.9881469], [-96.19256, 35.988123], [-96.1925018, 35.9881025]]]}, "properties": {"osm_id": 83003478, "building": "yes", "name": "Kellyville", "height": null, "height_m": null, "levels": null, "tract_id": "40037020707", "tract_name": "207.07", "tags": {"building": "yes", "name": "Kellyville", "operator": "Oklahoma Turnpike Authority"}}}, {"type": "Feature", "geometry": {"type": "Polygon", "coordinates": [[[-96.2449756, 36.0264661], [-96.2448614, 36.0264478], [-96.2448949, 36.026311], [-96.2450091, 36.0263293], [-96.2449756, 36.0264661]]]}, "properties": {"osm_id": 85648844, "building": "yes", "name": "", "height": null, "height_m": null, "levels": null, "tract_id": "40037020707", "tract_name": "207.07", "tags": {"building": "yes"}}}, {"type": "Feature", "geometry": {"type": "Polygon", "coordinates": [[[-96.2447838, 36.0275027], [-96.2452532, 36.0275627], [-96.2451755, 36.0279601], [-96.2447062, 36.0279001], [-96.2447838, 36.0275027]]]}, "properties": {"osm_id": 85648848, "building": "yes", "name": "", "height": null, "height_m": null, "levels": null, "tract_id": "40037020707", "tract_name": "207.07", "tags": {"building": "yes"}}}, {"type": "Feature", "geometry": {"type": "Polygon", "coordinates": [[[-96.245019, 36.0271085], [-96.2448272, 36.0270948], [-96.2448443, 36.0269384], [-96.2450361, 36.0269521], [-96.245019, 36.0271085]]]}, "properties": {"osm_id": 85648849, "building": "yes", "name": "", "height": null, "height_m": null, "levels": null, "tract_id": "40037020707", "tract_name": "207.07", "tags": {"building": "yes"}}}, {"type": "Feature", "geometry": {"type": "Polygon", "coordinates": [[[-96.2448789, 36.0282259], [-96.2447692, 36.0282175], [-96.2447921, 36.0280212], [-96.2449018, 36.0280295], [-96.2448789, 36.0282259]]]}, "properties": {"osm_id": 85648850, "building": "yes", "name": "", "height": null, "height_m": null, "levels": null, "tract_id": "40037020707", "tract_name": "207.07", "tags": {"building": "yes"}}}, {"type": "Feature", "geometry": {"type": "Polygon", "coordinates": [[[-96.2436139, 36.0269652], [-96.2435352, 36.0269497], [-96.2435423, 36.0269262], [-96.243621, 36.0269417], [-96.2436139, 36.0269652]]]}, "properties": {"osm_id": 192563385, "building": "yes", "name": "", "height": null, "height_m": null, "levels": null, "tract_id": "40037020707", "tract_name": "207.07", "tags": {"addr:city": "Sapulpa", "addr:country": "US", "addr:housenumber": "22315", "addr:postcode": "74066", "addr:state": "OK", "addr:street": "West Hickory Drive", "building": "yes"}}}, {"type": "Feature", "geometry": {"type": "Polygon", "coordinates": [[[-96.1801256, 36.0672453], [-96.179853, 36.0671101], [-96.1799226, 36.0670184], [-96.1800063, 36.06706], [-96.18003, 36.0670288], [-96.1801121, 36.0670695], [-96.1800885, 36.0671007], [-96.1801951, 36.0671536], [-96.1801256, 36.0672453]]]}, "properties": {"osm_id": 232724832, "building": "house", "name": "", "height": null, "height_m": null, "levels": null, "tract_id": "40037020707", "tract_name": "207.07", "tags": {"addr:city": "Sapulpa", "addr:country": "US", "addr:housenumber": "16704", "addr:postcode": "74066", "addr:state": "OK", "addr:street": "West King Street", "building": "house"}}}, {"type": "Feature", "geometry": {"type": "Polygon", "coordinates": [[[-96.2593312, 35.9947773], [-96.2593243, 35.9946024], [-96.2594166, 35.9946001], [-96.2594207, 35.9947054], [-96.2594397, 35.9947049], [-96.2594414, 35.9947478], [-96.2594224, 35.9947483], [-96.2594235, 35.9947749], [-96.2593312, 35.9947773]]]}, "properties": {"osm_id": 233922909, "building": "yes", "name": "", "height": null, "height_m": null, "levels": null, "tract_id": "40037020707", "tract_name": "207.07", "tags": {"addr:city": "Sapulpa", "addr:country": "US", "addr:housenumber": "11684", "addr:postcode": "74066", "addr:state": "OK", "addr:street": "South 241st West Avenue", "building": "yes"}}}, {"type": "Feature", "geometry": {"type": "Polygon", "coordinates": [[[-96.1976473, 36.0434894], [-96.1974647, 36.043517], [-96.1974401, 36.0434105], [-96.1976227, 36.0433829], [-96.1976473, 36.0434894]]]}, "properties": {"osm_id": 305290915, "building": "yes", "name": "", "height": null, "height_m": null, "levels": null, "tract_id": "40037020707", "tract_name": "207.07", "tags": {"building": "yes"}}}, {"type": "Feature", "geometry": {"type": "Polygon", "coordinates": [[[-96.1980535, 36.0439917], [-96.1978867, 36.0440065], [-96.1978663, 36.0438561], [-96.198033, 36.0438413], [-96.1980535, 36.0439917]]]}, "properties": {"osm_id": 305290920, "building": "yes", "name": "", "height": null, "height_m": null, "levels": null, "tract_id": "40037020707", "tract_name": "207.07", "tags": {"building": "yes"}}}, {"type": "Feature", "geometry": {"type": "Polygon", "coordinates": [[[-96.2218396, 36.0039192], [-96.2218394, 36.0039896], [-96.2218991, 36.0039897], [-96.2218993, 36.0039193], [-96.2218396, 36.0039192]]]}, "properties": {"osm_id": 966200226, "building": "service", "name": "", "height": null, "height_m": null, "levels": null, "tract_id": "40037020707", "tract_name": "207.07", "tags": {"building": "service"}}}, {"type": "Feature", "geometry": {"type": "Polygon", "coordinates": [[[-96.2314812, 36.0300499], [-96.2312975, 36.0299915], [-96.2313157, 36.0299541], [-96.2314994, 36.0300124], [-96.2314812, 36.0300499]]]}, "properties": {"osm_id": 985508481, "building": "yes", "name": "", "height": null, "height_m": null, "levels": null, "tract_id": "40037020707", "tract_name": "207.07", "tags": {"building": "yes"}}}, {"type": "Feature", "geometry": {"type": "Polygon", "coordinates": [[[-96.2315118, 36.0299734], [-96.2315459, 36.0299025], [-96.2313808, 36.0298506], [-96.2313467, 36.0299215], [-96.2315118, 36.0299734]]]}, "properties": {"osm_id": 985508482, "building": "yes", "name": "", "height": null, "height_m": null, "levels": null, "tract_id": "40037020707", "tract_name": "207.07", "tags": {"building": "yes"}}}, {"type": "Feature", "geometry": {"type": "Polygon", "coordinates": [[[-96.204613, 35.990507], [-96.205385, 35.990471], [-96.205363, 35.990158], [-96.205229, 35.990165], [-96.205225, 35.990104], [-96.205157, 35.990107], [-96.205162, 35.990176], [-96.204591, 35.990203], [-96.204613, 35.990507]]]}, "properties": {"osm_id": 1026617004, "building": "yes", "name": "", "height": null, "height_m": null, "levels": null, "tract_id": "40037020707", "tract_name": "207.07", "tags": {"building": "yes", "source": "microsoft/BuildingFootprints"}}}, {"type": "Feature", "geometry": {"type": "Polygon", "coordinates": [[[-96.205641, 35.990571], [-96.205658, 35.990799], [-96.205776, 35.990793], [-96.205759, 35.990566], [-96.205641, 35.990571]]]}, "properties": {"osm_id": 1026617005, "building": "yes", "name": "", "height": null, "height_m": null, "levels": null, "tract_id": "40037020707", "tract_name": "207.07", "tags": {"building": "yes", "source": "microsoft/BuildingFootprints"}}}, {"type": "Feature", "geometry": {"type": "Polygon", "coordinates": [[[-96.205164, 35.9895], [-96.205166, 35.98955], [-96.205369, 35.989544], [-96.205359, 35.989319], [-96.204671, 35.989337], [-96.204678, 35.989513], [-96.205164, 35.9895]]]}, "properties": {"osm_id": 1026617006, "building": "yes", "name": "", "height": null, "height_m": null, "levels": null, "tract_id": "40037020707", "tract_name": "207.07", "tags": {"building": "yes", "source": "microsoft/BuildingFootprints"}}}, {"type": "Feature", "geometry": {"type": "Polygon", "coordinates": [[[-96.204362, 35.991139], [-96.204379, 35.991444], [-96.204585, 35.991437], [-96.204568, 35.991132], [-96.204362, 35.991139]]]}, "properties": {"osm_id": 1026617007, "building": "yes", "name": "", "height": null, "height_m": null, "levels": null, "tract_id": "40037020707", "tract_name": "207.07", "tags": {"building": "yes", "source": "microsoft/BuildingFootprints"}}}, {"type": "Feature", "geometry": {"type": "Polygon", "coordinates": [[[-96.20502, 35.992018], [-96.205162, 35.992018], [-96.205162, 35.991849], [-96.20502, 35.991849], [-96.20502, 35.992018]]]}, "properties": {"osm_id": 1026617008, "building": "yes", "name": "", "height": null, "height_m": null, "levels": null, "tract_id": "40037020707", "tract_name": "207.07", "tags": {"building": "yes", "source": "microsoft/BuildingFootprints"}}}, {"type": "Feature", "geometry": {"type": "Polygon", "coordinates": [[[-96.1727869, 36.0613572], [-96.1728091, 36.0614969], [-96.1729137, 36.061486], [-96.1728915, 36.0613463], [-96.1727869, 36.0613572]]]}, "properties": {"osm_id": 1241675653, "building": "detached", "name": "", "height": null, "height_m": null, "levels": null, "tract_id": "40037020707", "tract_name": "207.07", "tags": {"building": "detached", "source": "microsoft/BuildingFootprints"}}}, {"type": "Feature", "geometry": {"type": "Polygon", "coordinates": [[[-96.1785819, 36.0042059], [-96.1785971, 36.004201], [-96.1786024, 36.0041893], [-96.1785979, 36.0041779], [-96.178584, 36.0041726], [-96.1785697, 36.0041756], [-96.178563, 36.0041881], [-96.1785678, 36.0042005], [-96.1785819, 36.0042059]]]}, "properties": {"osm_id": 1263473711, "building": "roof", "name": "", "height": null, "height_m": null, "levels": null, "tract_id": "40037020707", "tract_name": "207.07", "tags": {"amenity": "gazebo", "building": "roof"}}}, {"type": "Feature", "geometry": {"type": "Polygon", "coordinates": [[[-96.1784968, 36.0043418], [-96.1784463, 36.0043759], [-96.1784198, 36.0043502], [-96.1784703, 36.0043161], [-96.1784968, 36.0043418]]]}, "properties": {"osm_id": 1263473712, "building": "carport", "name": "", "height": null, "height_m": null, "levels": null, "tract_id": "40037020707", "tract_name": "207.07", "tags": {"building": "carport"}}}, {"type": "Feature", "geometry": {"type": "Polygon", "coordinates": [[[-96.1784491, 36.0043786], [-96.1783714, 36.004431], [-96.1783426, 36.0044031], [-96.1783217, 36.0044171], [-96.1782305, 36.0043286], [-96.1782513, 36.0043146], [-96.1782087, 36.0042732], [-96.1782864, 36.0042207], [-96.1784198, 36.0043502], [-96.1784463, 36.0043759], [-96.1784491, 36.0043786]]]}, "properties": {"osm_id": 1263473713, "building": "house", "name": "", "height": null, "height_m": null, "levels": null, "tract_id": "40037020707", "tract_name": "207.07", "tags": {"building": "house"}}}, {"type": "Feature", "geometry": {"type": "Polygon", "coordinates": [[[-96.1794291, 36.0052415], [-96.1792566, 36.0051701], [-96.1793056, 36.0050926], [-96.1793534, 36.0051124], [-96.1793645, 36.0050947], [-96.1794864, 36.0051451], [-96.1794752, 36.0051628], [-96.1794781, 36.005164], [-96.1794291, 36.0052415]]]}, "properties": {"osm_id": 1263473714, "building": "house", "name": "", "height": null, "height_m": null, "levels": null, "tract_id": "40037020707", "tract_name": "207.07", "tags": {"building": "house"}}}, {"type": "Feature", "geometry": {"type": "Polygon", "coordinates": [[[-96.1790603, 36.0050345], [-96.1789843, 36.0050242], [-96.1789881, 36.0050058], [-96.1790641, 36.005016], [-96.1790603, 36.0050345]]]}, "properties": {"osm_id": 1263473715, "building": "shed", "name": "", "height": null, "height_m": null, "levels": null, "tract_id": "40037020707", "tract_name": "207.07", "tags": {"building": "shed"}}}, {"type": "Feature", "geometry": {"type": "Polygon", "coordinates": [[[-96.1788225, 36.0049507], [-96.1787629, 36.0049453], [-96.1787708, 36.0048882], [-96.1788304, 36.0048935], [-96.1788225, 36.0049507]]]}, "properties": {"osm_id": 1263473716, "building": "carport", "name": "", "height": null, "height_m": null, "levels": null, "tract_id": "40037020707", "tract_name": "207.07", "tags": {"building": "carport"}}}, {"type": "Feature", "geometry": {"type": "Polygon", "coordinates": [[[-96.1786096, 36.0049824], [-96.178553, 36.00498], [-96.1785543, 36.0049589], [-96.178611, 36.0049613], [-96.1786096, 36.0049824]]]}, "properties": {"osm_id": 1263473717, "building": "stable", "name": "", "height": null, "height_m": null, "levels": null, "tract_id": "40037020707", "tract_name": "207.07", "tags": {"building": "stable"}}}, {"type": "Feature", "geometry": {"type": "Polygon", "coordinates": [[[-96.1784561, 36.0048886], [-96.1783873, 36.0048848], [-96.1783896, 36.0048582], [-96.1784583, 36.004862], [-96.1784561, 36.0048886]]]}, "properties": {"osm_id": 1263473718, "building": "shed", "name": "", "height": null, "height_m": null, "levels": null, "tract_id": "40037020707", "tract_name": "207.07", "tags": {"building": "shed"}}}, {"type": "Feature", "geometry": {"type": "Polygon", "coordinates": [[[-96.1786946, 36.0048332], [-96.178691, 36.0049016], [-96.1784725, 36.0048939], [-96.1784762, 36.0048256], [-96.1785237, 36.0048272], [-96.1785262, 36.0047641], [-96.1786971, 36.0047684], [-96.1786946, 36.0048332]]]}, "properties": {"osm_id": 1263473719, "building": "barn", "name": "", "height": null, "height_m": null, "levels": null, "tract_id": "40037020707", "tract_name": "207.07", "tags": {"building": "barn"}}}]}