{"type": "FeatureCollection", "features": [{"type": "Feature", "geometry": {"type": "Polygon", "coordinates": [[[-96.0999988, 35.9994657], [-96.0998618, 35.9994667], [-96.0998594, 35.9992171], [-96.0999746, 35.9992164], [-96.0999964, 35.9992163], [-96.0999988, 35.9994657]]]}, "properties": {"osm_id": 64796059, "building": "commercial", "name": "Arby's", "height": null, "height_m": null, "levels": null, "tract_id": "40037021300", "tract_name": "213", "tags": {"addr:city": "Sapulpa", "addr:housenumber": "1025", "addr:postcode": "74066", "addr:state": "OK", "addr:street": "East Dewey Avenue", "amenity": "fast_food", "brand": "Arby's", "brand:wikidata": "Q630866", "building": "commercial", "check_date": "2024-06-21", "cuisine": "sandwich", "name": "Arby's", "opening_hours": "09:30-23:00", "phone": "+1 918-224-9595", "takeaway": "yes", "website": "https://www.arbys.com/locations/us/ok/sapulpa/1025-e-dewey/store-685/"}}}, {"type": "Feature", "geometry": {"type": "Polygon", "coordinates": [[[-96.0999111, 36.0006171], [-96.0998307, 36.0006171], [-96.0998307, 36.0005431], [-96.0999111, 36.0005431], [-96.0999111, 36.0006171]]]}, "properties": {"osm_id": 64796063, "building": "yes", "name": "Three Flags Trading Company", "height": null, "height_m": null, "levels": null, "tract_id": "40037021300", "tract_name": "213", "tags": {"building": "yes", "name": "Three Flags Trading Company", "shop": "convenience"}}}, {"type": "Feature", "geometry": {"type": "Polygon", "coordinates": [[[-96.0994707, 35.9986737], [-96.0991341, 35.9986737], [-96.0991341, 35.9986093], [-96.0994707, 35.9986093], [-96.0994707, 35.9986737]]]}, "properties": {"osm_id": 65050684, "building": "yes", "name": "Sonic", "height": null, "height_m": null, "levels": null, "tract_id": "40037021300", "tract_name": "213", "tags": {"addr:city": "Sapulpa", "addr:housenumber": "1034", "addr:postcode": "74067", "addr:state": "OK", "addr:street": "East Dewey Avenue", "amenity": "fast_food", "brand": "Sonic", "brand:wikidata": "Q7561808", "building": "yes", "cuisine": "burger", "drive_in": "yes", "drive_through": "yes", "name": "Sonic", "opening_hours": "Mo-Th 06:00-23:00; Fr-Sa 06:00-24:00; Su 07:00-23:00", "outdoor_seating": "yes", "phone": "+1 918-224-8873", "takeaway": "yes", "website": "https://locations.sonicdrivein.com/ok/sapulpa/1034-e.-dewey.html"}}}, {"type": "Feature", "geometry": {"type": "Polygon", "coordinates": [[[-96.1133594, 35.9898252], [-96.1125922, 35.989852], [-96.1125853, 35.9897225], [-96.1126802, 35.9897192], [-96.1126637, 35.9894107], [-96.113336, 35.9893872], [-96.1133594, 35.9898252]]]}, "properties": {"osm_id": 65050697, "building": "yes", "name": "Ace Hardware", "height": null, "height_m": null, "levels": null, "tract_id": "40037021300", "tract_name": "213", "tags": {"addr:city": "Sapulpa", "addr:housenumber": "715", "addr:postcode": "74066-5103", "addr:state": "OK", "addr:street": "South Main Street", "brand": "Ace Hardware", "brand:wikidata": "Q4672981", "building": "yes", "name": "Ace Hardware", "opening_hours": "Mo-Sa 07:30-20:00; Su 09:00-18:00", "phone": "+1 918-227-1080", "ref": "11481", "shop": "doityourself"}}}, {"type": "Feature", "geometry": {"type": "Polygon", "coordinates": [[[-96.1134486, 35.9887716], [-96.1133943, 35.9887719], [-96.1133958, 35.9889476], [-96.1132926, 35.9889482], [-96.113291, 35.9887745], [-96.113172, 35.9887752], [-96.1131712, 35.9886898], [-96.11335, 35.9886888], [-96.1133496, 35.9886509], [-96.1134476, 35.9886504], [-96.1134486, 35.9887716]]]}, "properties": {"osm_id": 65050716, "building": "yes", "name": "First United Bank", "height": null, "height_m": null, "levels": null, "tract_id": "40037021300", "tract_name": "213", "tags": {"alt_name": "First United Bank", "amenity": "bank", "brand": "First United Bank", "brand:wikidata": "Q5453964", "building": "yes", "name": "First United Bank"}}}, {"type": "Feature", "geometry": {"type": "Polygon", "coordinates": [[[-96.1139089, 36.0006193], [-96.1130637, 36.0006182], [-96.1130641, 36.0004235], [-96.1139093, 36.0004245], [-96.1139089, 36.0006193]]]}, "properties": {"osm_id": 66977377, "building": "yes", "name": "Farmer's Feed", "height": null, "height_m": null, "levels": null, "tract_id": "40037021300", "tract_name": "213", "tags": {"addr:city": "Sapulpa", "addr:country": "US", "addr:housenumber": "101", "addr:postcode": "74066", "addr:state": "OK", "addr:street": "North Main Street", "building": "yes", "name": "Farmer's Feed", "shop": "agrarian"}}}, {"type": "Feature", "geometry": {"type": "Polygon", "coordinates": [[[-96.1059858, 35.9987496], [-96.1059416, 35.9987511], [-96.1059359, 35.9986423], [-96.1058678, 35.9986446], [-96.1058735, 35.9987534], [-96.1058139, 35.9987555], [-96.1057929, 35.9983002], [-96.1058478, 35.9982983], [-96.1058542, 35.9984234], [-96.1059239, 35.998421], [-96.1059175, 35.998296], [-96.1059649, 35.9982944], [-96.1059858, 35.9987496]]]}, "properties": {"osm_id": 66977401, "building": "yes", "name": "", "height": null, "height_m": null, "levels": null, "tract_id": "40037021300", "tract_name": "213", "tags": {"building": "yes"}}}, {"type": "Feature", "geometry": {"type": "Polygon", "coordinates": [[[-96.1132287, 35.9917688], [-96.1127293, 35.9917809], [-96.1126954, 35.9908671], [-96.1131947, 35.990855], [-96.1132287, 35.9917688]]]}, "properties": {"osm_id": 66977431, "building": "yes", "name": "", "height": null, "height_m": null, "levels": null, "tract_id": "40037021300", "tract_name": "213", "tags": {"building": "yes"}}}, {"type": "Feature", "geometry": {"type": "Polygon", "coordinates": [[[-96.0999803, 35.9988804], [-96.0999001, 35.9988801], [-96.0999026, 35.9985345], [-96.0999827, 35.9985349], [-96.0999803, 35.9988804]]]}, "properties": {"osm_id": 67567669, "building": "yes", "name": "Spotless Automatic Car Wash", "height": null, "height_m": null, "levels": null, "tract_id": "40037021300", "tract_name": "213", "tags": {"amenity": "car_wash", "building": "yes", "name": "Spotless Automatic Car Wash"}}}, {"type": "Feature", "geometry": {"type": "Polygon", "coordinates": [[[-96.1071778, 35.9979522], [-96.1071867, 35.9981089], [-96.1070507, 35.9981139], [-96.1070608, 35.9983842], [-96.1065525, 35.9984031], [-96.1065424, 35.9981328], [-96.1064546, 35.9981361], [-96.1064457, 35.9979794], [-96.1071778, 35.9979522]]]}, "properties": {"osm_id": 85649164, "building": "yes", "name": "Washington School", "height": null, "height_m": null, "levels": null, "tract_id": "40037021300", "tract_name": "213", "tags": {"amenity": "school", "building": "yes", "ele": "220", "gnis:feature_id": "1099402", "name": "Washington School"}}}, {"type": "Feature", "geometry": {"type": "Polygon", "coordinates": [[[-96.1135182, 35.9926065], [-96.1133183, 35.9926104], [-96.1133044, 35.9923288], [-96.1135089, 35.99232], [-96.1135182, 35.9926065]]]}, "properties": {"osm_id": 90270388, "building": "yes", "name": "Liquor Mart", "height": null, "height_m": null, "levels": null, "tract_id": "40037021300", "tract_name": "213", "tags": {"addr:city": "Sapulpa", "addr:country": "US", "addr:housenumber": "517", "addr:postcode": "74066", "addr:state": "OK", "addr:street": "South Main Street", "building": "yes", "name": "Liquor Mart", "phone": "+1-918-224-7875", "shop": "alcohol"}}}, {"type": "Feature", "geometry": {"type": "Polygon", "coordinates": [[[-96.0992016, 36.0059576], [-96.0991369, 36.0059576], [-96.0991369, 36.0058885], [-96.0992016, 36.0058885], [-96.0992016, 36.0059576]]]}, "properties": {"osm_id": 99404713, "building": "yes", "name": "Sooner Fleet Auto Sales", "height": null, "height_m": null, "levels": null, "tract_id": "40037021300", "tract_name": "213", "tags": {"building": "yes", "name": "Sooner Fleet Auto Sales", "shop": "car"}}}, {"type": "Feature", "geometry": {"type": "Polygon", "coordinates": [[[-96.1137989, 35.9933874], [-96.1138039, 35.9935227], [-96.1134027, 35.9935324], [-96.1133977, 35.9933972], [-96.1137989, 35.9933874]]]}, "properties": {"osm_id": 99404871, "building": "retail", "name": "O'Reilly Auto Parts", "height": null, "height_m": null, "levels": null, "tract_id": "40037021300", "tract_name": "213", "tags": {"brand": "O'Reilly Auto Parts", "brand:wikidata": "Q7071951", "building": "retail", "name": "O'Reilly Auto Parts", "shop": "car_parts", "website": "https://locations.oreillyauto.com/ok/sapulpa/autoparts-153.html"}}}, {"type": "Feature", "geometry": {"type": "Polygon", "coordinates": [[[-96.0992457, 35.9994094], [-96.0990654, 35.9994094], [-96.0990654, 35.9992895], [-96.0992457, 35.9992895], [-96.0992457, 35.9994094]]]}, "properties": {"osm_id": 181211917, "building": "yes", "name": "Church's Chicken", "height": null, "height_m": null, "levels": null, "tract_id": "40037021300", "tract_name": "213", "tags": {"addr:city": "Sapulpa", "addr:housenumber": "2", "addr:postcode": "74066", "addr:state": "OK", "addr:street": "North Mission Street", "amenity": "fast_food", "brand": "Church's Chicken", "brand:wikidata": "Q1089932", "building": "yes", "cuisine": "chicken", "name": "Church's Chicken", "phone": "+1 918-512-8188", "takeaway": "yes", "website": "https://locations.churchs.com/ok/sapulpa/2-n-mission-street"}}}, {"type": "Feature", "geometry": {"type": "Polygon", "coordinates": [[[-96.1107344, 35.9996196], [-96.1104488, 35.9996301], [-96.1104428, 35.9995239], [-96.1107285, 35.9995134], [-96.1107344, 35.9996196]]]}, "properties": {"osm_id": 185698021, "building": "yes", "name": "Creek County Elections Board", "height": null, "height_m": null, "levels": null, "tract_id": "40037021300", "tract_name": "213", "tags": {"addr:city": "Sapulpa", "addr:country": "US", "addr:housenumber": "230", "addr:postcode": "74066", "addr:state": "OK", "addr:street": "East Hobson Avenue", "building": "yes", "name": "Creek County Elections Board", "polling_station": "yes"}}}, {"type": "Feature", "geometry": {"type": "Polygon", "coordinates": [[[-96.1026428, 35.9908038], [-96.1023922, 35.990804], [-96.1023927, 35.9912571], [-96.1024462, 35.991257], [-96.1024462, 35.9912684], [-96.1023577, 35.9912684], [-96.1023578, 35.9913518], [-96.1024558, 35.9913517], [-96.1024569, 35.9913264], [-96.10271, 35.9913255], [-96.1027089, 35.9914633], [-96.1023628, 35.991466], [-96.1023594, 35.9919935], [-96.102505, 35.9919917], [-96.1025028, 35.9921965], [-96.1026137, 35.9922273], [-96.1026148, 35.9923325], [-96.1029755, 35.9923297], [-96.1029767, 35.9922137], [-96.1031268, 35.9922119], [-96.1031279, 35.9921775], [-96.1035043, 35.992172], [-96.1035009, 35.9919563], [-96.103138, 35.9919627], [-96.1031391, 35.9919183], [-96.1034998, 35.9919146], [-96.103502, 35.9916926], [-96.1036869, 35.9916926], [-96.1037698, 35.9917814], [-96.1040173, 35.9916228], [-96.1040554, 35.9916581], [-96.1041966, 35.9915521], [-96.1041238, 35.9914823], [-96.1039423, 35.9916028], [-96.10394, 35.9915448], [-96.1040431, 35.9914587], [-96.1040386, 35.9913708], [-96.1039423, 35.9913717], [-96.1039389, 35.990362], [-96.1031604, 35.9903647], [-96.1031593, 35.9908052], [-96.1027134, 35.9908043], [-96.1027112, 35.991011], [-96.102644, 35.9910101], [-96.1026428, 35.9908038]]]}, "properties": {"osm_id": 187341409, "building": "industrial", "name": "", "height": null, "height_m": null, "levels": null, "tract_id": "40037021300", "tract_name": "213", "tags": {"building": "industrial"}}}, {"type": "Feature", "geometry": {"type": "Polygon", "coordinates": [[[-96.1137379, 35.9940623], [-96.1137207, 35.9938033], [-96.1138222, 35.9937989], [-96.1138296, 35.9939104], [-96.1138181, 35.9939109], [-96.1138278, 35.9940584], [-96.1137379, 35.9940623]]]}, "properties": {"osm_id": 257634910, "building": "yes", "name": "", "height": null, "height_m": null, "levels": null, "tract_id": "40037021300", "tract_name": "213", "tags": {"building": "yes"}}}, {"type": "Feature", "geometry": {"type": "Polygon", "coordinates": [[[-96.1097817, 35.9892081], [-96.1097835, 35.9888718], [-96.1095197, 35.9888695], [-96.1095197, 35.9892111], [-96.1097817, 35.9892081]]]}, "properties": {"osm_id": 306461549, "building": "yes", "name": "Dollar Tree", "height": null, "height_m": null, "levels": null, "tract_id": "40037021300", "tract_name": "213", "tags": {"brand": "Dollar Tree", "brand:wikidata": "Q5289230", "building": "yes", "check_date": "2024-07-11", "check_date:opening_hours": "2024-07-11", "name": "Dollar Tree", "opening_hours": "Mo-Sa 08:00-21:00; Su 08:00-20:00", "shop": "variety_store", "website": "https://www.dollartree.com/locations/ok/sapulpa/1497/"}}}, {"type": "Feature", "geometry": {"type": "Polygon", "coordinates": [[[-96.1134241, 35.9903633], [-96.1134202, 35.9902337], [-96.1132141, 35.9902378], [-96.1132136, 35.9902223], [-96.1131609, 35.9902233], [-96.1131614, 35.9902389], [-96.1129814, 35.9902424], [-96.112982, 35.9902611], [-96.1129603, 35.9902615], [-96.1129631, 35.9903542], [-96.1129848, 35.9903537], [-96.1129851, 35.9903622], [-96.1131758, 35.9903584], [-96.1131761, 35.9903682], [-96.1133173, 35.9903654], [-96.113317, 35.9903556], [-96.1133469, 35.990355], [-96.1133472, 35.9903648], [-96.1134241, 35.9903633]]]}, "properties": {"osm_id": 306470082, "building": "commercial", "name": "Braum's", "height": null, "height_m": null, "levels": null, "tract_id": "40037021300", "tract_name": "213", "tags": {"addr:housenumber": "701", "addr:postcode": "74066", "addr:street": "South Main Street", "amenity": "fast_food", "brand": "Braum's", "brand:wikidata": "Q4958263", "building": "commercial", "cuisine": "ice_cream;burger", "name": "Braum's", "phone": "+1-918-224-0812", "ref": "25", "shop": "dairy", "smoking": "no", "takeaway": "yes"}}}, {"type": "Feature", "geometry": {"type": "Polygon", "coordinates": [[[-96.1107591, 35.9985087], [-96.1107544, 35.9982425], [-96.1103908, 35.9982646], [-96.1103991, 35.998527], [-96.1107591, 35.9985087]]]}, "properties": {"osm_id": 569137501, "building": "yes", "name": "Creek County Courthouse", "height": null, "height_m": null, "levels": null, "tract_id": "40037021300", "tract_name": "213", "tags": {"amenity": "courthouse", "building": "yes", "name": "Creek County Courthouse"}}}, {"type": "Feature", "geometry": {"type": "Polygon", "coordinates": [[[-96.1031219, 35.9993371], [-96.1029341, 35.9993458], [-96.1029449, 35.9990984], [-96.1031246, 35.9990876], [-96.1031219, 35.9993371]]]}, "properties": {"osm_id": 614620799, "building": "yes", "name": "Senor Pablo's", "height": null, "height_m": null, "levels": null, "tract_id": "40037021300", "tract_name": "213", "tags": {"amenity": "restaurant", "building": "yes", "cuisine": "mexican", "name": "Senor Pablo's"}}}, {"type": "Feature", "geometry": {"type": "Polygon", "coordinates": [[[-96.0993909, 36.0004177], [-96.0990959, 36.0004156], [-96.0990798, 36.0003071], [-96.0993909, 36.0003071], [-96.0993909, 36.0004177]]]}, "properties": {"osm_id": 614621342, "building": "yes", "name": "Mazzio's Pizza", "height": null, "height_m": null, "levels": null, "tract_id": "40037021300", "tract_name": "213", "tags": {"amenity": "restaurant", "building": "yes", "cuisine": "pizza", "name": "Mazzio's Pizza"}}}, {"type": "Feature", "geometry": {"type": "Polygon", "coordinates": [[[-96.0995548, 35.9962559], [-96.0994048, 35.9962554], [-96.0994066, 35.9959321], [-96.0995568, 35.9959327], [-96.0995548, 35.9962559]]]}, "properties": {"osm_id": 614621344, "building": "commercial", "name": "", "height": null, "height_m": null, "levels": null, "tract_id": "40037021300", "tract_name": "213", "tags": {"building": "commercial", "disused:shop": "video"}}}, {"type": "Feature", "geometry": {"type": "Polygon", "coordinates": [[[-96.1128158, 35.99929], [-96.1124729, 35.9993003], [-96.1124626, 35.9990841], [-96.1126763, 35.9990775], [-96.1126768, 35.9990891], [-96.1128064, 35.9990851], [-96.1128158, 35.99929]]]}, "properties": {"osm_id": 622931871, "building": "commercial", "name": "", "height": null, "height_m": null, "levels": null, "tract_id": "40037021300", "tract_name": "213", "tags": {"building": "commercial"}}}, {"type": "Feature", "geometry": {"type": "Polygon", "coordinates": [[[-96.1127994, 35.9989368], [-96.1124562, 35.9989474], [-96.1124626, 35.9990841], [-96.1126763, 35.9990775], [-96.1126768, 35.9990891], [-96.1128064, 35.9990851], [-96.1127994, 35.9989368]]]}, "properties": {"osm_id": 622931872, "building": "commercial", "name": "", "height": null, "height_m": null, "levels": null, "tract_id": "40037021300", "tract_name": "213", "tags": {"building": "commercial"}}}, {"type": "Feature", "geometry": {"type": "Polygon", "coordinates": [[[-96.1012431, 35.9897303], [-96.1012428, 35.9895859], [-96.1013663, 35.9895858], [-96.1013664, 35.9896022], [-96.1013908, 35.9896022], [-96.1013908, 35.9896346], [-96.101366, 35.9896346], [-96.101366, 35.9896847], [-96.1013915, 35.9896847], [-96.1013915, 35.9897157], [-96.1013646, 35.9897158], [-96.1013647, 35.9897302], [-96.1012431, 35.9897303]]]}, "properties": {"osm_id": 843221476, "building": "yes", "name": "", "height": null, "height_m": null, "levels": null, "tract_id": "40037021300", "tract_name": "213", "tags": {"building": "yes"}}}, {"type": "Feature", "geometry": {"type": "Polygon", "coordinates": [[[-96.1008764, 35.9897326], [-96.1008749, 35.9896512], [-96.1008574, 35.9896514], [-96.1008569, 35.989625], [-96.1007069, 35.9896268], [-96.1007076, 35.9896672], [-96.1006736, 35.9896676], [-96.1006744, 35.9897097], [-96.1007696, 35.9897085], [-96.1007701, 35.9897339], [-96.1008764, 35.9897326]]]}, "properties": {"osm_id": 843221479, "building": "yes", "name": "", "height": null, "height_m": null, "levels": null, "tract_id": "40037021300", "tract_name": "213", "tags": {"building": "yes"}}}, {"type": "Feature", "geometry": {"type": "Polygon", "coordinates": [[[-96.101433, 35.9895541], [-96.101245, 35.9895551], [-96.1012444, 35.9894848], [-96.1012513, 35.9894848], [-96.101251, 35.989444], [-96.1014669, 35.9894429], [-96.1014673, 35.9894909], [-96.1014325, 35.9894911], [-96.101433, 35.9895541]]]}, "properties": {"osm_id": 843221480, "building": "yes", "name": "", "height": null, "height_m": null, "levels": null, "tract_id": "40037021300", "tract_name": "213", "tags": {"building": "yes"}}}, {"type": "Feature", "geometry": {"type": "Polygon", "coordinates": [[[-96.1008583, 35.9895917], [-96.1007059, 35.9895919], [-96.1007058, 35.9895513], [-96.1006737, 35.9895513], [-96.1006737, 35.9895155], [-96.1007828, 35.9895153], [-96.1007827, 35.9894906], [-96.1008754, 35.9894905], [-96.1008756, 35.989569], [-96.1008583, 35.9895691], [-96.1008583, 35.9895917]]]}, "properties": {"osm_id": 843221483, "building": "yes", "name": "", "height": null, "height_m": null, "levels": null, "tract_id": "40037021300", "tract_name": "213", "tags": {"building": "yes"}}}, {"type": "Feature", "geometry": {"type": "Polygon", "coordinates": [[[-96.101452, 35.9894182], [-96.1015379, 35.9894177], [-96.1015374, 35.9893603], [-96.1014515, 35.9893608], [-96.101452, 35.9894182]]]}, "properties": {"osm_id": 843221484, "building": "yes", "name": "", "height": null, "height_m": null, "levels": null, "tract_id": "40037021300", "tract_name": "213", "tags": {"building": "yes"}}}, {"type": "Feature", "geometry": {"type": "Polygon", "coordinates": [[[-96.101269, 35.9893295], [-96.1012689, 35.9892381], [-96.101427, 35.989238], [-96.101427, 35.9892823], [-96.1014407, 35.9892823], [-96.1014407, 35.989302], [-96.1014258, 35.989302], [-96.1014258, 35.9893294], [-96.101269, 35.9893295]]]}, "properties": {"osm_id": 843221485, "building": "yes", "name": "", "height": null, "height_m": null, "levels": null, "tract_id": "40037021300", "tract_name": "213", "tags": {"building": "yes"}}}, {"type": "Feature", "geometry": {"type": "Polygon", "coordinates": [[[-96.1009132, 35.9892929], [-96.1006958, 35.9892932], [-96.1006955, 35.9891989], [-96.100913, 35.9891986], [-96.1009132, 35.9892929]]]}, "properties": {"osm_id": 843221487, "building": "yes", "name": "", "height": null, "height_m": null, "levels": null, "tract_id": "40037021300", "tract_name": "213", "tags": {"building": "yes"}}}, {"type": "Feature", "geometry": {"type": "Polygon", "coordinates": [[[-96.1008842, 35.9932594], [-96.1008842, 35.9930728], [-96.1008279, 35.9930728], [-96.1008279, 35.9927358], [-96.1008121, 35.9927358], [-96.1008101, 35.992722], [-96.1007984, 35.9927101], [-96.1007823, 35.9927027], [-96.1007823, 35.992661], [-96.1008252, 35.992661], [-96.1008252, 35.9925834], [-96.1008319, 35.9925834], [-96.1008319, 35.992454], [-96.1008701, 35.992454], [-96.1008701, 35.9922731], [-96.1006868, 35.9922731], [-96.1006868, 35.9924469], [-96.1006646, 35.9924469], [-96.1006482, 35.9924586], [-96.1006482, 35.9924765], [-96.100276, 35.9924765], [-96.100276, 35.9925872], [-96.1002398, 35.9925872], [-96.1002398, 35.9926686], [-96.1001158, 35.9926686], [-96.1001158, 35.9926116], [-96.1000702, 35.9926116], [-96.1000702, 35.9927158], [-96.1001118, 35.9927158], [-96.1001118, 35.9927554], [-96.0998174, 35.9927554], [-96.0998174, 35.9927505], [-96.0994318, 35.9927505], [-96.0994318, 35.9929897], [-96.099806, 35.9929897], [-96.099806, 35.9928726], [-96.0999522, 35.9928726], [-96.0999522, 35.9930977], [-96.0997885, 35.9930977], [-96.0997885, 35.9932138], [-96.1001681, 35.9932138], [-96.1001681, 35.9932599], [-96.1002539, 35.9932599], [-96.1002539, 35.9932247], [-96.1004484, 35.9932247], [-96.1004484, 35.9932594], [-96.1008842, 35.9932594]]]}, "properties": {"osm_id": 845232478, "building": "hospital", "name": "", "height": null, "height_m": null, "levels": null, "tract_id": "40037021300", "tract_name": "213", "tags": {"building": "hospital"}}}, {"type": "Feature", "geometry": {"type": "Polygon", "coordinates": [[[-96.1043702, 35.9991569], [-96.1043047, 35.9995822], [-96.1043662, 35.9995882], [-96.1044108, 35.9995926], [-96.1044766, 35.999599], [-96.1045383, 35.9991697], [-96.1043702, 35.9991569]]]}, "properties": {"osm_id": 914800502, "building": "yes", "name": "Tulsa Sapulpa Union Railway", "height": null, "height_m": null, "levels": null, "tract_id": "40037021300", "tract_name": "213", "tags": {"building": "yes", "name": "Tulsa Sapulpa Union Railway"}}}, {"type": "Feature", "geometry": {"type": "Polygon", "coordinates": [[[-96.1113172, 36.0086821], [-96.1113113, 36.0083755], [-96.111162, 36.0083773], [-96.1111678, 36.008684], [-96.1113172, 36.0086821]]]}, "properties": {"osm_id": 918375360, "building": "retail", "name": "Maverik", "height": null, "height_m": null, "levels": null, "tract_id": "40037021300", "tract_name": "213", "tags": {"addr:housenumber": "801", "addr:street": "North 9th Street", "brand": "Maverik", "brand:wikidata": "Q64149010", "building": "retail", "name": "Maverik", "shop": "convenience"}}}, {"type": "Feature", "geometry": {"type": "Polygon", "coordinates": [[[-96.1080759, 35.9994305], [-96.1079975, 35.999433], [-96.1079999, 35.9994802], [-96.1078045, 35.9994866], [-96.1078022, 35.9994394], [-96.1077265, 35.9994419], [-96.107719, 35.999291], [-96.1077963, 35.9992885], [-96.1077938, 35.9992384], [-96.1079898, 35.999232], [-96.1079923, 35.9992821], [-96.1080684, 35.9992796], [-96.1080759, 35.9994305]]]}, "properties": {"osm_id": 1006836596, "building": "public", "name": "", "height": null, "height_m": null, "levels": null, "tract_id": "40037021300", "tract_name": "213", "tags": {"building": "public"}}}, {"type": "Feature", "geometry": {"type": "Polygon", "coordinates": [[[-96.113474, 35.996004], [-96.113713, 35.995997], [-96.113715, 35.996036], [-96.113803, 35.996033], [-96.113799, 35.995934], [-96.113943, 35.995929], [-96.113927, 35.995585], [-96.113686, 35.995592], [-96.113692, 35.995724], [-96.113461, 35.995731], [-96.113474, 35.996004]]]}, "properties": {"osm_id": 1026617000, "building": "industrial", "name": "", "height": null, "height_m": null, "levels": null, "tract_id": "40037021300", "tract_name": "213", "tags": {"building": "industrial", "source": "microsoft/BuildingFootprints"}}}, {"type": "Feature", "geometry": {"type": "Polygon", "coordinates": [[[-96.113516, 35.996794], [-96.113532, 35.997206], [-96.113629, 35.997203], [-96.113636, 35.997378], [-96.113979, 35.99737], [-96.113977, 35.997313], [-96.113845, 35.997316], [-96.11384, 35.997194], [-96.114009, 35.99719], [-96.114001, 35.996983], [-96.113718, 35.99699], [-96.113721, 35.99706], [-96.113634, 35.997062], [-96.113623, 35.996791], [-96.113516, 35.996794]]]}, "properties": {"osm_id": 1026617001, "building": "yes", "name": "", "height": null, "height_m": null, "levels": null, "tract_id": "40037021300", "tract_name": "213", "tags": {"building": "yes", "source": "microsoft/BuildingFootprints"}}}, {"type": "Feature", "geometry": {"type": "Polygon", "coordinates": [[[-96.113477, 35.997387], [-96.113463, 35.997059], [-96.113193, 35.997067], [-96.113208, 35.997395], [-96.113477, 35.997387]]]}, "properties": {"osm_id": 1026617002, "building": "yes", "name": "", "height": null, "height_m": null, "levels": null, "tract_id": "40037021300", "tract_name": "213", "tags": {"building": "yes", "source": "microsoft/BuildingFootprints"}}}, {"type": "Feature", "geometry": {"type": "Polygon", "coordinates": [[[-96.1104718, 35.9948609], [-96.1106348, 35.9949738], [-96.1103196, 35.9952717], [-96.1102891, 35.9952505], [-96.1102678, 35.9952707], [-96.110166, 35.9952001], [-96.1101873, 35.99518], [-96.1101566, 35.9951588], [-96.1104718, 35.9948609]]]}, "properties": {"osm_id": 1051175392, "building": "yes", "name": "Church of the Nazarene of Sapulpa", "height": null, "height_m": null, "levels": null, "tract_id": "40037021300", "tract_name": "213", "tags": {"amenity": "place_of_worship", "building": "yes", "ele": "211", "gnis:feature_id": "1809898", "name": "Church of the Nazarene of Sapulpa", "religion": "christian"}}}, {"type": "Feature", "geometry": {"type": "Polygon", "coordinates": [[[-96.1049625, 35.9888799], [-96.1048968, 35.9888808], [-96.1048974, 35.9889115], [-96.1047905, 35.9889129], [-96.1047858, 35.9886836], [-96.1049585, 35.9886813], [-96.1049625, 35.9888799]]]}, "properties": {"osm_id": 1081993026, "building": "yes", "name": "", "height": null, "height_m": null, "levels": null, "tract_id": "40037021300", "tract_name": "213", "tags": {"building": "yes", "shop": "yes"}}}, {"type": "Feature", "geometry": {"type": "Polygon", "coordinates": [[[-96.1037716, 35.9885848], [-96.1040371, 35.9885875], [-96.1040304, 35.9890183], [-96.1037649, 35.9890156], [-96.1037716, 35.9885848]]]}, "properties": {"osm_id": 1081993027, "building": "yes", "name": "", "height": null, "height_m": null, "levels": null, "tract_id": "40037021300", "tract_name": "213", "tags": {"building": "yes", "shop": "yes"}}}, {"type": "Feature", "geometry": {"type": "Polygon", "coordinates": [[[-96.1046018, 36.0049463], [-96.1045617, 36.0049448], [-96.1045642, 36.0049009], [-96.1046043, 36.0049024], [-96.1046018, 36.0049463]]]}, "properties": {"osm_id": 1184895689, "building": "yes", "name": "", "height": null, "height_m": null, "levels": null, "tract_id": "40037021300", "tract_name": "213", "tags": {"building": "yes"}}}, {"type": "Feature", "geometry": {"type": "Polygon", "coordinates": [[[-96.1044871, 36.0037481], [-96.1044871, 36.003824], [-96.1044234, 36.003824], [-96.1044234, 36.0038424], [-96.1043731, 36.0038424], [-96.1043731, 36.003792], [-96.1043657, 36.003792], [-96.1043657, 36.0037481], [-96.1044871, 36.0037481]]]}, "properties": {"osm_id": 1184895690, "building": "yes", "name": "", "height": null, "height_m": null, "levels": null, "tract_id": "40037021300", "tract_name": "213", "tags": {"building": "yes"}}}, {"type": "Feature", "geometry": {"type": "Polygon", "coordinates": [[[-96.1032385, 36.0051064], [-96.103072, 36.0051068], [-96.1030716, 36.0050114], [-96.1032381, 36.005011], [-96.1032385, 36.0051064]]]}, "properties": {"osm_id": 1184895693, "building": "yes", "name": "", "height": null, "height_m": null, "levels": null, "tract_id": "40037021300", "tract_name": "213", "tags": {"building": "yes"}}}, {"type": "Feature", "geometry": {"type": "Polygon", "coordinates": [[[-96.1037665, 36.0049698], [-96.10383, 36.00497], [-96.1038299, 36.0049774], [-96.1039161, 36.0049777], [-96.1039161, 36.0049704], [-96.10398, 36.0049707], [-96.1039805, 36.0048911], [-96.1039197, 36.0048909], [-96.1039198, 36.0048828], [-96.1038307, 36.0048824], [-96.1038306, 36.0048905], [-96.103767, 36.0048902], [-96.1037665, 36.0049698]]]}, "properties": {"osm_id": 1184895696, "building": "yes", "name": "", "height": null, "height_m": null, "levels": null, "tract_id": "40037021300", "tract_name": "213", "tags": {"building": "yes", "source": "microsoft/BuildingFootprints"}}}, {"type": "Feature", "geometry": {"type": "Polygon", "coordinates": [[[-96.1036382, 36.0052789], [-96.1035963, 36.0052797], [-96.1035946, 36.0052252], [-96.1036365, 36.0052243], [-96.1036382, 36.0052789]]]}, "properties": {"osm_id": 1184895697, "building": "yes", "name": "", "height": null, "height_m": null, "levels": null, "tract_id": "40037021300", "tract_name": "213", "tags": {"building": "yes"}}}, {"type": "Feature", "geometry": {"type": "Polygon", "coordinates": [[[-96.1046943, 36.0060969], [-96.1046543, 36.0060979], [-96.1046503, 36.0059905], [-96.1046903, 36.0059895], [-96.1046943, 36.0060969]]]}, "properties": {"osm_id": 1184895698, "building": "yes", "name": "", "height": null, "height_m": null, "levels": null, "tract_id": "40037021300", "tract_name": "213", "tags": {"building": "yes"}}}, {"type": "Feature", "geometry": {"type": "Polygon", "coordinates": [[[-96.1038448, 36.0039745], [-96.1038422, 36.0040569], [-96.1040164, 36.0040605], [-96.104019, 36.0039781], [-96.1038448, 36.0039745]]]}, "properties": {"osm_id": 1184895699, "building": "yes", "name": "", "height": null, "height_m": null, "levels": null, "tract_id": "40037021300", "tract_name": "213", "tags": {"building": "yes", "source": "microsoft/BuildingFootprints"}}}, {"type": "Feature", "geometry": {"type": "Polygon", "coordinates": [[[-96.1024188, 36.0064609], [-96.1023303, 36.0064626], [-96.1023323, 36.0065298], [-96.1024207, 36.0065281], [-96.1024188, 36.0064609]]]}, "properties": {"osm_id": 1184895700, "building": "yes", "name": "", "height": null, "height_m": null, "levels": null, "tract_id": "40037021300", "tract_name": "213", "tags": {"building": "yes", "source": "microsoft/BuildingFootprints"}}}, {"type": "Feature", "geometry": {"type": "Polygon", "coordinates": [[[-96.1027199, 36.0057136], [-96.1025831, 36.005716], [-96.1025844, 36.0057648], [-96.1026085, 36.0057644], [-96.1026102, 36.0058294], [-96.1027228, 36.0058275], [-96.1027199, 36.0057136]]]}, "properties": {"osm_id": 1184895701, "building": "yes", "name": "", "height": null, "height_m": null, "levels": null, "tract_id": "40037021300", "tract_name": "213", "tags": {"building": "yes", "source": "microsoft/BuildingFootprints"}}}, {"type": "Feature", "geometry": {"type": "Polygon", "coordinates": [[[-96.1056364, 36.0036737], [-96.105633, 36.0037635], [-96.1058071, 36.0037679], [-96.1058106, 36.0036781], [-96.1056364, 36.0036737]]]}, "properties": {"osm_id": 1184895702, "building": "yes", "name": "", "height": null, "height_m": null, "levels": null, "tract_id": "40037021300", "tract_name": "213", "tags": {"building": "yes", "source": "microsoft/BuildingFootprints"}}}, {"type": "Feature", "geometry": {"type": "Polygon", "coordinates": [[[-96.1036391, 36.0057125], [-96.1037179, 36.0057111], [-96.1037151, 36.0056017], [-96.1036015, 36.0056035], [-96.103603, 36.0056643], [-96.1036379, 36.0056637], [-96.1036391, 36.0057125]]]}, "properties": {"osm_id": 1184895703, "building": "yes", "name": "", "height": null, "height_m": null, "levels": null, "tract_id": "40037021300", "tract_name": "213", "tags": {"building": "yes", "source": "microsoft/BuildingFootprints"}}}, {"type": "Feature", "geometry": {"type": "Polygon", "coordinates": [[[-96.1039247, 36.0055955], [-96.1039232, 36.0057126], [-96.1040171, 36.0057134], [-96.1040186, 36.0055963], [-96.1039247, 36.0055955]]]}, "properties": {"osm_id": 1184895704, "building": "yes", "name": "", "height": null, "height_m": null, "levels": null, "tract_id": "40037021300", "tract_name": "213", "tags": {"building": "yes", "source": "microsoft/BuildingFootprints"}}}, {"type": "Feature", "geometry": {"type": "Polygon", "coordinates": [[[-96.1044738, 36.0056392], [-96.1043381, 36.0056376], [-96.104336, 36.0057548], [-96.1044717, 36.0057564], [-96.1044738, 36.0056392]]]}, "properties": {"osm_id": 1184895705, "building": "yes", "name": "", "height": null, "height_m": null, "levels": null, "tract_id": "40037021300", "tract_name": "213", "tags": {"building": "yes", "source": "microsoft/BuildingFootprints"}}}, {"type": "Feature", "geometry": {"type": "Polygon", "coordinates": [[[-96.1030361, 36.0053022], [-96.1030837, 36.0053021], [-96.1030837, 36.0053098], [-96.1032017, 36.0053095], [-96.1032016, 36.0053002], [-96.1032901, 36.0052999], [-96.1032902, 36.0053092], [-96.1034035, 36.0053089], [-96.1034035, 36.0053011], [-96.1034572, 36.005301], [-96.1034568, 36.0052175], [-96.1034055, 36.0052177], [-96.1034055, 36.0052042], [-96.1032895, 36.0052045], [-96.1032896, 36.0052174], [-96.1032031, 36.0052177], [-96.103203, 36.0052048], [-96.1030836, 36.0052051], [-96.1030836, 36.0052186], [-96.1030357, 36.0052187], [-96.1030361, 36.0053022]]]}, "properties": {"osm_id": 1184895706, "building": "yes", "name": "", "height": null, "height_m": null, "levels": null, "tract_id": "40037021300", "tract_name": "213", "tags": {"building": "yes", "source": "microsoft/BuildingFootprints"}}}, {"type": "Feature", "geometry": {"type": "Polygon", "coordinates": [[[-96.103848, 36.0053404], [-96.1039579, 36.0053384], [-96.103953, 36.0051649], [-96.1038431, 36.005167], [-96.103848, 36.0053404]]]}, "properties": {"osm_id": 1184895707, "building": "yes", "name": "", "height": null, "height_m": null, "levels": null, "tract_id": "40037021300", "tract_name": "213", "tags": {"building": "yes", "source": "microsoft/BuildingFootprints"}}}, {"type": "Feature", "geometry": {"type": "Polygon", "coordinates": [[[-96.1040328, 36.0037637], [-96.1038452, 36.0037602], [-96.1038429, 36.0038404], [-96.1040305, 36.0038439], [-96.1040328, 36.0037637]]]}, "properties": {"osm_id": 1184895708, "building": "yes", "name": "", "height": null, "height_m": null, "levels": null, "tract_id": "40037021300", "tract_name": "213", "tags": {"building": "yes", "source": "microsoft/BuildingFootprints"}}}, {"type": "Feature", "geometry": {"type": "Polygon", "coordinates": [[[-96.1031002, 36.0044351], [-96.1033281, 36.0044331], [-96.1033269, 36.0043431], [-96.103099, 36.0043451], [-96.1031002, 36.0044351]]]}, "properties": {"osm_id": 1184895709, "building": "yes", "name": "", "height": null, "height_m": null, "levels": null, "tract_id": "40037021300", "tract_name": "213", "tags": {"building": "yes", "source": "microsoft/BuildingFootprints"}}}, {"type": "Feature", "geometry": {"type": "Polygon", "coordinates": [[[-96.1059707, 36.0033565], [-96.1058662, 36.003359], [-96.1058705, 36.0034718], [-96.105975, 36.0034692], [-96.1059707, 36.0033565]]]}, "properties": {"osm_id": 1184895710, "building": "yes", "name": "", "height": null, "height_m": null, "levels": null, "tract_id": "40037021300", "tract_name": "213", "tags": {"building": "yes", "source": "microsoft/BuildingFootprints"}}}, {"type": "Feature", "geometry": {"type": "Polygon", "coordinates": [[[-96.1045389, 36.0043947], [-96.1045381, 36.0043144], [-96.1043316, 36.0043158], [-96.1043324, 36.004396], [-96.1045389, 36.0043947]]]}, "properties": {"osm_id": 1184895711, "building": "yes", "name": "", "height": null, "height_m": null, "levels": null, "tract_id": "40037021300", "tract_name": "213", "tags": {"building": "yes", "source": "microsoft/BuildingFootprints"}}}, {"type": "Feature", "geometry": {"type": "Polygon", "coordinates": [[[-96.1033915, 36.0034086], [-96.1032923, 36.0034095], [-96.103294, 36.0035407], [-96.1033932, 36.0035399], [-96.1033915, 36.0034086]]]}, "properties": {"osm_id": 1184895712, "building": "yes", "name": "", "height": null, "height_m": null, "levels": null, "tract_id": "40037021300", "tract_name": "213", "tags": {"building": "yes", "source": "microsoft/BuildingFootprints"}}}, {"type": "Feature", "geometry": {"type": "Polygon", "coordinates": [[[-96.1033446, 36.0065156], [-96.1034625, 36.0065127], [-96.103461, 36.0064715], [-96.1033431, 36.0064744], [-96.1033446, 36.0065156]]]}, "properties": {"osm_id": 1184895713, "building": "yes", "name": "", "height": null, "height_m": null, "levels": null, "tract_id": "40037021300", "tract_name": "213", "tags": {"building": "yes", "source": "microsoft/BuildingFootprints"}}}, {"type": "Feature", "geometry": {"type": "Polygon", "coordinates": [[[-96.1030325, 36.0056494], [-96.1031542, 36.005648], [-96.1031531, 36.0055829], [-96.1030314, 36.0055843], [-96.1030325, 36.0056494]]]}, "properties": {"osm_id": 1184895714, "building": "yes", "name": "", "height": null, "height_m": null, "levels": null, "tract_id": "40037021300", "tract_name": "213", "tags": {"building": "yes", "source": "microsoft/BuildingFootprints"}}}, {"type": "Feature", "geometry": {"type": "Polygon", "coordinates": [[[-96.1031877, 36.0036164], [-96.1030402, 36.0036158], [-96.1030397, 36.0036928], [-96.1031872, 36.0036934], [-96.1031877, 36.0036164]]]}, "properties": {"osm_id": 1184895715, "building": "yes", "name": "", "height": null, "height_m": null, "levels": null, "tract_id": "40037021300", "tract_name": "213", "tags": {"building": "yes", "source": "microsoft/BuildingFootprints"}}}, {"type": "Feature", "geometry": {"type": "Polygon", "coordinates": [[[-96.1030492, 36.0037644], [-96.1030491, 36.0037759], [-96.103031, 36.0037758], [-96.1030304, 36.0038319], [-96.1030495, 36.003832], [-96.1030494, 36.0038468], [-96.1031446, 36.0038475], [-96.1031454, 36.003765], [-96.1030492, 36.0037644]]]}, "properties": {"osm_id": 1184895716, "building": "yes", "name": "", "height": null, "height_m": null, "levels": null, "tract_id": "40037021300", "tract_name": "213", "tags": {"building": "yes", "source": "microsoft/BuildingFootprints"}}}, {"type": "Feature", "geometry": {"type": "Polygon", "coordinates": [[[-96.1036164, 36.0043469], [-96.1036164, 36.0044826], [-96.1036969, 36.0044826], [-96.1036969, 36.00445], [-96.1037568, 36.00445], [-96.1037568, 36.0044619], [-96.1038427, 36.0044619], [-96.1038427, 36.0043914], [-96.1037451, 36.0043914], [-96.1037451, 36.0043469], [-96.1036164, 36.0043469]]]}, "properties": {"osm_id": 1184895717, "building": "yes", "name": "", "height": null, "height_m": null, "levels": null, "tract_id": "40037021300", "tract_name": "213", "tags": {"building": "yes", "source": "microsoft/BuildingFootprints"}}}, {"type": "Feature", "geometry": {"type": "Polygon", "coordinates": [[[-96.1038923, 36.0064798], [-96.1039931, 36.0064782], [-96.1039898, 36.0063351], [-96.103889, 36.0063366], [-96.1038923, 36.0064798]]]}, "properties": {"osm_id": 1184895718, "building": "yes", "name": "", "height": null, "height_m": null, "levels": null, "tract_id": "40037021300", "tract_name": "213", "tags": {"building": "yes", "source": "microsoft/BuildingFootprints"}}}, {"type": "Feature", "geometry": {"type": "Polygon", "coordinates": [[[-96.1022742, 36.0039142], [-96.1021522, 36.0038566], [-96.102015, 36.0040467], [-96.102137, 36.0041043], [-96.1022742, 36.0039142]]]}, "properties": {"osm_id": 1184895719, "building": "yes", "name": "", "height": null, "height_m": null, "levels": null, "tract_id": "40037021300", "tract_name": "213", "tags": {"building": "yes", "shop": "yes", "source": "microsoft/BuildingFootprints"}}}, {"type": "Feature", "geometry": {"type": "Polygon", "coordinates": [[[-96.1031737, 36.006316], [-96.1030664, 36.0063139], [-96.1030645, 36.0063801], [-96.1031717, 36.0063822], [-96.1031737, 36.006316]]]}, "properties": {"osm_id": 1184895720, "building": "yes", "name": "", "height": null, "height_m": null, "levels": null, "tract_id": "40037021300", "tract_name": "213", "tags": {"building": "yes", "source": "microsoft/BuildingFootprints"}}}, {"type": "Feature", "geometry": {"type": "Polygon", "coordinates": [[[-96.1037689, 36.0050939], [-96.1038245, 36.005093], [-96.1038246, 36.005097], [-96.1039292, 36.0050954], [-96.1039291, 36.0050915], [-96.1039824, 36.0050907], [-96.1039806, 36.0050111], [-96.1039198, 36.0050121], [-96.1039196, 36.005004], [-96.1038305, 36.0050053], [-96.1038307, 36.0050134], [-96.1037671, 36.0050143], [-96.1037689, 36.0050939]]]}, "properties": {"osm_id": 1184895721, "building": "yes", "name": "", "height": null, "height_m": null, "levels": null, "tract_id": "40037021300", "tract_name": "213", "tags": {"building": "yes", "source": "microsoft/BuildingFootprints"}}}, {"type": "Feature", "geometry": {"type": "Polygon", "coordinates": [[[-96.1027703, 36.006504], [-96.1027719, 36.0064346], [-96.1025923, 36.0064318], [-96.1025906, 36.0065012], [-96.1027703, 36.006504]]]}, "properties": {"osm_id": 1184895722, "building": "yes", "name": "", "height": null, "height_m": null, "levels": null, "tract_id": "40037021300", "tract_name": "213", "tags": {"building": "yes", "source": "microsoft/BuildingFootprints"}}}, {"type": "Feature", "geometry": {"type": "Polygon", "coordinates": [[[-96.1044971, 36.006373], [-96.1043925, 36.0063712], [-96.1043903, 36.0064558], [-96.1044949, 36.0064576], [-96.1044971, 36.006373]]]}, "properties": {"osm_id": 1184895723, "building": "yes", "name": "", "height": null, "height_m": null, "levels": null, "tract_id": "40037021300", "tract_name": "213", "tags": {"building": "yes", "source": "microsoft/BuildingFootprints"}}}, {"type": "Feature", "geometry": {"type": "Polygon", "coordinates": [[[-96.1051602, 36.0036797], [-96.1051573, 36.0037633], [-96.1052761, 36.003766], [-96.1052789, 36.0036824], [-96.1051602, 36.0036797]]]}, "properties": {"osm_id": 1184895724, "building": "yes", "name": "", "height": null, "height_m": null, "levels": null, "tract_id": "40037021300", "tract_name": "213", "tags": {"building": "yes", "source": "microsoft/BuildingFootprints"}}}, {"type": "Feature", "geometry": {"type": "Polygon", "coordinates": [[[-96.10434, 36.0034204], [-96.1045331, 36.0034254], [-96.1045362, 36.0033452], [-96.1043432, 36.0033402], [-96.10434, 36.0034204]]]}, "properties": {"osm_id": 1184895725, "building": "yes", "name": "", "height": null, "height_m": null, "levels": null, "tract_id": "40037021300", "tract_name": "213", "tags": {"building": "yes", "source": "microsoft/BuildingFootprints"}}}, {"type": "Feature", "geometry": {"type": "Polygon", "coordinates": [[[-96.1052855, 36.0035478], [-96.1051863, 36.0035469], [-96.1051851, 36.0036294], [-96.1052844, 36.0036303], [-96.1052855, 36.0035478]]]}, "properties": {"osm_id": 1184895726, "building": "yes", "name": "", "height": null, "height_m": null, "levels": null, "tract_id": "40037021300", "tract_name": "213", "tags": {"building": "yes", "source": "microsoft/BuildingFootprints"}}}, {"type": "Feature", "geometry": {"type": "Polygon", "coordinates": [[[-96.104416, 36.0048471], [-96.1044911, 36.0048495], [-96.1045002, 36.0046935], [-96.1044216, 36.0046905], [-96.104416, 36.0048471]]]}, "properties": {"osm_id": 1184895727, "building": "yes", "name": "", "height": null, "height_m": null, "levels": null, "tract_id": "40037021300", "tract_name": "213", "tags": {"building": "yes", "source": "microsoft/BuildingFootprints"}}}, {"type": "Feature", "geometry": {"type": "Polygon", "coordinates": [[[-96.102725, 36.0056837], [-96.1027236, 36.005636], [-96.1025306, 36.0056399], [-96.102532, 36.0056876], [-96.102725, 36.0056837]]]}, "properties": {"osm_id": 1184895728, "building": "yes", "name": "", "height": null, "height_m": null, "levels": null, "tract_id": "40037021300", "tract_name": "213", "tags": {"building": "yes", "source": "microsoft/BuildingFootprints"}}}, {"type": "Feature", "geometry": {"type": "Polygon", "coordinates": [[[-96.1043464, 36.0035574], [-96.1045099, 36.0035625], [-96.1045138, 36.003478], [-96.1043504, 36.003473], [-96.1043464, 36.0035574]]]}, "properties": {"osm_id": 1184895729, "building": "yes", "name": "", "height": null, "height_m": null, "levels": null, "tract_id": "40037021300", "tract_name": "213", "tags": {"building": "yes", "source": "microsoft/BuildingFootprints"}}}, {"type": "Feature", "geometry": {"type": "Polygon", "coordinates": [[[-96.103048, 36.0035391], [-96.1031817, 36.0035375], [-96.1031795, 36.0034128], [-96.1030457, 36.0034143], [-96.103048, 36.0035391]]]}, "properties": {"osm_id": 1184895730, "building": "yes", "name": "", "height": null, "height_m": null, "levels": null, "tract_id": "40037021300", "tract_name": "213", "tags": {"building": "yes", "source": "microsoft/BuildingFootprints"}}}, {"type": "Feature", "geometry": {"type": "Polygon", "coordinates": [[[-96.1037946, 36.0051685], [-96.1036837, 36.0051708], [-96.103689, 36.0053421], [-96.1037999, 36.0053398], [-96.1037946, 36.0051685]]]}, "properties": {"osm_id": 1184895731, "building": "yes", "name": "", "height": null, "height_m": null, "levels": null, "tract_id": "40037021300", "tract_name": "213", "tags": {"building": "yes", "source": "microsoft/BuildingFootprints"}}}, {"type": "Feature", "geometry": {"type": "Polygon", "coordinates": [[[-96.1040078, 36.0047373], [-96.1038577, 36.0047368], [-96.1038573, 36.0048192], [-96.1040075, 36.0048197], [-96.1040078, 36.0047373]]]}, "properties": {"osm_id": 1184895732, "building": "yes", "name": "", "height": null, "height_m": null, "levels": null, "tract_id": "40037021300", "tract_name": "213", "tags": {"building": "yes", "source": "microsoft/BuildingFootprints"}}}, {"type": "Feature", "geometry": {"type": "Polygon", "coordinates": [[[-96.1022356, 36.0040843], [-96.1023193, 36.0041335], [-96.1024187, 36.0040227], [-96.1023351, 36.0039735], [-96.1022356, 36.0040843]]]}, "properties": {"osm_id": 1184895733, "building": "yes", "name": "", "height": null, "height_m": null, "levels": null, "tract_id": "40037021300", "tract_name": "213", "tags": {"building": "yes", "shop": "yes", "source": "microsoft/BuildingFootprints"}}}, {"type": "Feature", "geometry": {"type": "Polygon", "coordinates": [[[-96.1126892, 35.9974169], [-96.1126751, 35.9973055], [-96.1121792, 35.9973278], [-96.1121831, 35.9974399], [-96.1126892, 35.9974169]]]}, "properties": {"osm_id": 1196208517, "building": "yes", "name": "Sapulpa Historical Museum", "height": null, "height_m": null, "levels": null, "tract_id": "40037021300", "tract_name": "213", "tags": {"building": "yes", "name": "Sapulpa Historical Museum", "tourism": "museum"}}}, {"type": "Feature", "geometry": {"type": "Polygon", "coordinates": [[[-96.1108501, 35.9988006], [-96.1105126, 35.9988103], [-96.1105198, 35.9989759], [-96.1106913, 35.998971], [-96.1107028, 35.9992332], [-96.1108689, 35.9992284], [-96.1108501, 35.9988006]]]}, "properties": {"osm_id": 1235078794, "building": "yes", "name": "", "height": null, "height_m": null, "levels": null, "tract_id": "40037021300", "tract_name": "213", "tags": {"building": "yes", "source": "microsoft/BuildingFootprints"}}}, {"type": "Feature", "geometry": {"type": "Polygon", "coordinates": [[[-96.1103444, 35.9990929], [-96.1105159, 35.9990889], [-96.110511, 35.998951], [-96.1103395, 35.998955], [-96.1103444, 35.9990929]]]}, "properties": {"osm_id": 1235078795, "building": "yes", "name": "", "height": null, "height_m": null, "levels": null, "tract_id": "40037021300", "tract_name": "213", "tags": {"building": "yes", "source": "microsoft/BuildingFootprints"}}}, {"type": "Feature", "geometry": {"type": "Polygon", "coordinates": [[[-96.1109173, 35.9987946], [-96.1109336, 35.9992217], [-96.1110997, 35.9992176], [-96.1110939, 35.9990646], [-96.111268, 35.9990602], [-96.1112723, 35.999172], [-96.1114426, 35.9991678], [-96.1114279, 35.9987819], [-96.1109173, 35.9987946]]]}, "properties": {"osm_id": 1235078796, "building": "yes", "name": "", "height": null, "height_m": null, "levels": null, "tract_id": "40037021300", "tract_name": "213", "tags": {"building": "yes", "source": "microsoft/BuildingFootprints"}}}, {"type": "Feature", "geometry": {"type": "Polygon", "coordinates": [[[-96.1121794, 35.9993355], [-96.1121688, 35.9990971], [-96.1122158, 35.9990957], [-96.1122006, 35.9987555], [-96.1116956, 35.9987702], [-96.1117184, 35.9992828], [-96.1119475, 35.9992761], [-96.1119505, 35.9993421], [-96.1121794, 35.9993355]]]}, "properties": {"osm_id": 1235078797, "building": "yes", "name": "", "height": null, "height_m": null, "levels": null, "tract_id": "40037021300", "tract_name": "213", "tags": {"building": "yes", "source": "microsoft/BuildingFootprints"}}}, {"type": "Feature", "geometry": {"type": "Polygon", "coordinates": [[[-96.1128085, 35.9993345], [-96.1126249, 35.9993394], [-96.1126286, 35.9994283], [-96.1125402, 35.9994307], [-96.1125479, 35.9996171], [-96.1128199, 35.9996098], [-96.1128085, 35.9993345]]]}, "properties": {"osm_id": 1235078798, "building": "yes", "name": "", "height": null, "height_m": null, "levels": null, "tract_id": "40037021300", "tract_name": "213", "tags": {"building": "yes", "source": "microsoft/BuildingFootprints"}}}, {"type": "Feature", "geometry": {"type": "Polygon", "coordinates": [[[-96.1124791, 35.9996221], [-96.1124675, 35.9993468], [-96.1123055, 35.9993513], [-96.1123171, 35.9996266], [-96.1124791, 35.9996221]]]}, "properties": {"osm_id": 1235078799, "building": "yes", "name": "", "height": null, "height_m": null, "levels": null, "tract_id": "40037021300", "tract_name": "213", "tags": {"building": "yes", "source": "microsoft/BuildingFootprints"}}}, {"type": "Feature", "geometry": {"type": "Polygon", "coordinates": [[[-96.1132658, 35.9996229], [-96.1132592, 35.9994908], [-96.1132378, 35.9994915], [-96.1132306, 35.9993485], [-96.113078, 35.9993535], [-96.1130918, 35.9996286], [-96.1132658, 35.9996229]]]}, "properties": {"osm_id": 1235078800, "building": "yes", "name": "", "height": null, "height_m": null, "levels": null, "tract_id": "40037021300", "tract_name": "213", "tags": {"building": "yes", "source": "microsoft/BuildingFootprints"}}}, {"type": "Feature", "geometry": {"type": "Polygon", "coordinates": [[[-96.1134201, 35.9993351], [-96.1134325, 35.9996146], [-96.1135973, 35.9996099], [-96.113585, 35.9993303], [-96.1134201, 35.9993351]]]}, "properties": {"osm_id": 1235078801, "building": "yes", "name": "", "height": null, "height_m": null, "levels": null, "tract_id": "40037021300", "tract_name": "213", "tags": {"building": "yes", "source": "microsoft/BuildingFootprints"}}}, {"type": "Feature", "geometry": {"type": "Polygon", "coordinates": [[[-96.1141382, 35.9995881], [-96.1141081, 35.9989652], [-96.1139045, 35.9989717], [-96.1139084, 35.9990507], [-96.1136554, 35.9990587], [-96.1136598, 35.9991497], [-96.1136905, 35.9991488], [-96.1137054, 35.9994564], [-96.1138246, 35.9994527], [-96.1138282, 35.9995263], [-96.1137987, 35.9995273], [-96.1138021, 35.9995988], [-96.1141382, 35.9995881]]]}, "properties": {"osm_id": 1235078802, "building": "yes", "name": "", "height": null, "height_m": null, "levels": null, "tract_id": "40037021300", "tract_name": "213", "tags": {"building": "yes", "source": "microsoft/BuildingFootprints"}}}, {"type": "Feature", "geometry": {"type": "Polygon", "coordinates": [[[-96.1135544, 35.998701], [-96.1132061, 35.9987113], [-96.1132056, 35.9987005], [-96.1130384, 35.9987054], [-96.1130526, 35.9990218], [-96.1134021, 35.9990115], [-96.1134049, 35.9990732], [-96.1135709, 35.9990683], [-96.1135544, 35.998701]]]}, "properties": {"osm_id": 1235078803, "building": "yes", "name": "", "height": null, "height_m": null, "levels": null, "tract_id": "40037021300", "tract_name": "213", "tags": {"building": "yes", "source": "microsoft/BuildingFootprints"}}}, {"type": "Feature", "geometry": {"type": "Polygon", "coordinates": [[[-96.1130171, 35.9982552], [-96.1130281, 35.9985033], [-96.1135358, 35.9984887], [-96.113524, 35.9982199], [-96.1133097, 35.9982261], [-96.1133089, 35.9982077], [-96.113227, 35.9982101], [-96.1132278, 35.9982274], [-96.1131811, 35.9982288], [-96.113182, 35.9982505], [-96.1130171, 35.9982552]]]}, "properties": {"osm_id": 1235078804, "building": "yes", "name": "", "height": null, "height_m": null, "levels": null, "tract_id": "40037021300", "tract_name": "213", "tags": {"building": "yes", "source": "microsoft/BuildingFootprints"}}}, {"type": "Feature", "geometry": {"type": "Polygon", "coordinates": [[[-96.1140788, 35.9984674], [-96.1140645, 35.9981521], [-96.113616, 35.9981654], [-96.113622, 35.9982976], [-96.1135952, 35.9982984], [-96.1136034, 35.9984815], [-96.1140788, 35.9984674]]]}, "properties": {"osm_id": 1235078805, "building": "yes", "name": "", "height": null, "height_m": null, "levels": null, "tract_id": "40037021300", "tract_name": "213", "tags": {"building": "yes", "source": "microsoft/BuildingFootprints"}}}, {"type": "Feature", "geometry": {"type": "Polygon", "coordinates": [[[-96.1138653, 35.9978053], [-96.1138608, 35.9976959], [-96.1138115, 35.9976972], [-96.1138128, 35.9977308], [-96.1137657, 35.9977321], [-96.1137715, 35.9978708], [-96.1138518, 35.9978686], [-96.1138535, 35.9979076], [-96.113607, 35.9979143], [-96.1136088, 35.9979598], [-96.1140536, 35.9979478], [-96.1140475, 35.9978004], [-96.1138653, 35.9978053]]]}, "properties": {"osm_id": 1235078806, "building": "yes", "name": "", "height": null, "height_m": null, "levels": null, "tract_id": "40037021300", "tract_name": "213", "tags": {"building": "yes", "source": "microsoft/BuildingFootprints"}}}, {"type": "Feature", "geometry": {"type": "Polygon", "coordinates": [[[-96.1134918, 35.9976066], [-96.1129855, 35.9976211], [-96.1130111, 35.9982084], [-96.1132694, 35.998201], [-96.1132545, 35.9978596], [-96.1135025, 35.9978526], [-96.1134918, 35.9976066]]]}, "properties": {"osm_id": 1235078807, "building": "yes", "name": "", "height": null, "height_m": null, "levels": null, "tract_id": "40037021300", "tract_name": "213", "tags": {"building": "yes", "source": "microsoft/BuildingFootprints"}}}, {"type": "Feature", "geometry": {"type": "Polygon", "coordinates": [[[-96.1127214, 35.9977561], [-96.1125515, 35.9977607], [-96.1125499, 35.9977228], [-96.1127198, 35.9977182], [-96.1127163, 35.9976337], [-96.1122072, 35.9976475], [-96.1122132, 35.9977906], [-96.1122989, 35.9977882], [-96.1123016, 35.9978532], [-96.1127249, 35.9978417], [-96.1127214, 35.9977561]]]}, "properties": {"osm_id": 1235078808, "building": "yes", "name": "", "height": null, "height_m": null, "levels": null, "tract_id": "40037021300", "tract_name": "213", "tags": {"building": "yes", "source": "microsoft/BuildingFootprints"}}}, {"type": "Feature", "geometry": {"type": "Polygon", "coordinates": [[[-96.1116353, 35.9976733], [-96.111681, 35.9985506], [-96.1121856, 35.9985334], [-96.1121778, 35.9983839], [-96.1120427, 35.9983885], [-96.1120322, 35.9981861], [-96.1121071, 35.9981835], [-96.1120963, 35.9979756], [-96.1121579, 35.9979735], [-96.1121532, 35.9978835], [-96.1119684, 35.9978898], [-96.1119637, 35.9977988], [-96.1121511, 35.9977924], [-96.112144, 35.997656], [-96.1116353, 35.9976733]]]}, "properties": {"osm_id": 1235078809, "building": "yes", "name": "", "height": null, "height_m": null, "levels": null, "tract_id": "40037021300", "tract_name": "213", "tags": {"building": "yes", "source": "microsoft/BuildingFootprints"}}}, {"type": "Feature", "geometry": {"type": "Polygon", "coordinates": [[[-96.1125984, 35.9985207], [-96.1125903, 35.9983039], [-96.1125058, 35.998306], [-96.112501, 35.9981781], [-96.1123509, 35.9981817], [-96.112353, 35.9982369], [-96.1123208, 35.9982377], [-96.1123239, 35.9983201], [-96.1122489, 35.9983219], [-96.1122566, 35.9985291], [-96.1125984, 35.9985207]]]}, "properties": {"osm_id": 1235078810, "building": "yes", "name": "", "height": null, "height_m": null, "levels": null, "tract_id": "40037021300", "tract_name": "213", "tags": {"building": "yes", "source": "microsoft/BuildingFootprints"}}}, {"type": "Feature", "geometry": {"type": "Polygon", "coordinates": [[[-96.1128477, 36.0000803], [-96.1128358, 35.9998321], [-96.1123269, 35.9998482], [-96.1123425, 36.0001722], [-96.1125153, 36.0001667], [-96.1125116, 36.0000909], [-96.1128477, 36.0000803]]]}, "properties": {"osm_id": 1235078817, "building": "yes", "name": "", "height": null, "height_m": null, "levels": null, "tract_id": "40037021300", "tract_name": "213", "tags": {"building": "yes", "source": "microsoft/BuildingFootprints"}}}, {"type": "Feature", "geometry": {"type": "Polygon", "coordinates": [[[-96.1131065, 35.9998139], [-96.1131149, 36.0000655], [-96.1132865, 36.0000617], [-96.1132857, 36.0000378], [-96.1134894, 36.0000334], [-96.1134898, 36.0000453], [-96.1136197, 36.0000424], [-96.1136117, 35.9998028], [-96.1131065, 35.9998139]]]}, "properties": {"osm_id": 1235078818, "building": "yes", "name": "", "height": null, "height_m": null, "levels": null, "tract_id": "40037021300", "tract_name": "213", "tags": {"building": "yes", "source": "microsoft/BuildingFootprints"}}}, {"type": "Feature", "geometry": {"type": "Polygon", "coordinates": [[[-96.1122773, 36.0001282], [-96.1122639, 35.9998542], [-96.1119171, 35.9998654], [-96.1119183, 35.9998892], [-96.1117188, 35.9998956], [-96.111731, 36.0001457], [-96.1122773, 36.0001282]]]}, "properties": {"osm_id": 1235078819, "building": "yes", "name": "", "height": null, "height_m": null, "levels": null, "tract_id": "40037021300", "tract_name": "213", "tags": {"building": "yes", "source": "microsoft/BuildingFootprints"}}}, {"type": "Feature", "geometry": {"type": "Polygon", "coordinates": [[[-96.1112363, 35.9998882], [-96.1112439, 36.000105], [-96.1114931, 36.0000993], [-96.1114855, 35.9998825], [-96.1112363, 35.9998882]]]}, "properties": {"osm_id": 1235078820, "building": "yes", "name": "", "height": null, "height_m": null, "levels": null, "tract_id": "40037021300", "tract_name": "213", "tags": {"building": "yes", "source": "microsoft/BuildingFootprints"}}}, {"type": "Feature", "geometry": {"type": "Polygon", "coordinates": [[[-96.110916, 36.0001736], [-96.1109045, 35.9999027], [-96.1107317, 35.9999075], [-96.1107432, 36.0001784], [-96.110916, 36.0001736]]]}, "properties": {"osm_id": 1235078821, "building": "yes", "name": "", "height": null, "height_m": null, "levels": null, "tract_id": "40037021300", "tract_name": "213", "tags": {"building": "yes", "source": "microsoft/BuildingFootprints"}}}, {"type": "Feature", "geometry": {"type": "Polygon", "coordinates": [[[-96.1107048, 36.0004136], [-96.1106969, 36.0002251], [-96.1106205, 36.0002272], [-96.1106183, 36.0001743], [-96.1105795, 36.0001753], [-96.1105765, 36.0001038], [-96.1104023, 36.0001086], [-96.1104155, 36.0004216], [-96.1107048, 36.0004136]]]}, "properties": {"osm_id": 1235078822, "building": "yes", "name": "", "height": null, "height_m": null, "levels": null, "tract_id": "40037021300", "tract_name": "213", "tags": {"building": "yes", "source": "microsoft/BuildingFootprints"}}}, {"type": "Feature", "geometry": {"type": "Polygon", "coordinates": [[[-96.1111993, 35.999491], [-96.1110184, 35.9994965], [-96.1110181, 35.99949], [-96.1109633, 35.9994917], [-96.1109691, 35.9996164], [-96.1112048, 35.9996093], [-96.1111993, 35.999491]]]}, "properties": {"osm_id": 1235078823, "building": "yes", "name": "", "height": null, "height_m": null, "levels": null, "tract_id": "40037021300", "tract_name": "213", "tags": {"building": "yes", "source": "microsoft/BuildingFootprints"}}}, {"type": "Feature", "geometry": {"type": "Polygon", "coordinates": [[[-96.1114455, 35.9992687], [-96.1112686, 35.9992726], [-96.1112708, 35.9993386], [-96.1111985, 35.9993402], [-96.1112046, 35.9995223], [-96.1112876, 35.9995205], [-96.1112839, 35.9994099], [-96.1114501, 35.9994063], [-96.1114455, 35.9992687]]]}, "properties": {"osm_id": 1235078824, "building": "yes", "name": "", "height": null, "height_m": null, "levels": null, "tract_id": "40037021300", "tract_name": "213", "tags": {"building": "yes", "source": "microsoft/BuildingFootprints"}}}, {"type": "Feature", "geometry": {"type": "Polygon", "coordinates": [[[-96.1096286, 35.9995616], [-96.1097492, 35.9995589], [-96.1097484, 35.9995337], [-96.1100366, 35.9995274], [-96.1100335, 35.9994355], [-96.1096247, 35.9994445], [-96.1096286, 35.9995616]]]}, "properties": {"osm_id": 1235078825, "building": "yes", "name": "", "height": null, "height_m": null, "levels": null, "tract_id": "40037021300", "tract_name": "213", "tags": {"building": "yes", "source": "microsoft/BuildingFootprints"}}}, {"type": "Feature", "geometry": {"type": "Polygon", "coordinates": [[[-96.1097921, 35.9991709], [-96.1096661, 35.9991739], [-96.1096752, 35.9994233], [-96.1098012, 35.9994203], [-96.1097921, 35.9991709]]]}, "properties": {"osm_id": 1235078826, "building": "yes", "name": "", "height": null, "height_m": null, "levels": null, "tract_id": "40037021300", "tract_name": "213", "tags": {"building": "yes", "source": "microsoft/BuildingFootprints"}}}, {"type": "Feature", "geometry": {"type": "Polygon", "coordinates": [[[-96.109824, 35.9988399], [-96.1095706, 35.9988465], [-96.1095813, 35.9991153], [-96.1098346, 35.9991087], [-96.109824, 35.9988399]]]}, "properties": {"osm_id": 1235078827, "building": "yes", "name": "", "height": null, "height_m": null, "levels": null, "tract_id": "40037021300", "tract_name": "213", "tags": {"building": "yes", "source": "microsoft/BuildingFootprints"}}}, {"type": "Feature", "geometry": {"type": "Polygon", "coordinates": [[[-96.1100582, 35.9989263], [-96.1098975, 35.9989309], [-96.1099008, 35.9990068], [-96.1100615, 35.9990022], [-96.1100582, 35.9989263]]]}, "properties": {"osm_id": 1235078828, "building": "yes", "name": "", "height": null, "height_m": null, "levels": null, "tract_id": "40037021300", "tract_name": "213", "tags": {"building": "yes", "source": "microsoft/BuildingFootprints"}}}, {"type": "Feature", "geometry": {"type": "Polygon", "coordinates": [[[-96.1106303, 35.9993574], [-96.1106264, 35.9992633], [-96.1104374, 35.9992685], [-96.1104413, 35.9993625], [-96.1106303, 35.9993574]]]}, "properties": {"osm_id": 1235078829, "building": "yes", "name": "", "height": null, "height_m": null, "levels": null, "tract_id": "40037021300", "tract_name": "213", "tags": {"building": "yes", "source": "microsoft/BuildingFootprints"}}}, {"type": "Feature", "geometry": {"type": "Polygon", "coordinates": [[[-96.1104594, 35.999501], [-96.1106739, 35.9994976], [-96.1106718, 35.9994108], [-96.1104573, 35.9994142], [-96.1104594, 35.999501]]]}, "properties": {"osm_id": 1235078830, "building": "yes", "name": "", "height": null, "height_m": null, "levels": null, "tract_id": "40037021300", "tract_name": "213", "tags": {"building": "yes", "source": "microsoft/BuildingFootprints"}}}, {"type": "Feature", "geometry": {"type": "Polygon", "coordinates": [[[-96.109113, 35.9994136], [-96.1091151, 35.99947], [-96.1092812, 35.9994661], [-96.1092792, 35.9994097], [-96.109113, 35.9994136]]]}, "properties": {"osm_id": 1235078831, "building": "yes", "name": "", "height": null, "height_m": null, "levels": null, "tract_id": "40037021300", "tract_name": "213", "tags": {"building": "yes", "source": "microsoft/BuildingFootprints"}}}, {"type": "Feature", "geometry": {"type": "Polygon", "coordinates": [[[-96.1083567, 35.999343], [-96.1083618, 35.999468], [-96.1086712, 35.9994597], [-96.1086661, 35.9993347], [-96.1083567, 35.999343]]]}, "properties": {"osm_id": 1235078832, "building": "yes", "name": "", "height": null, "height_m": null, "levels": null, "tract_id": "40037021300", "tract_name": "213", "tags": {"building": "yes", "source": "microsoft/BuildingFootprints"}}}, {"type": "Feature", "geometry": {"type": "Polygon", "coordinates": [[[-96.108604, 35.9990787], [-96.1085951, 35.9988823], [-96.1083835, 35.9988886], [-96.1083923, 35.999085], [-96.108604, 35.9990787]]]}, "properties": {"osm_id": 1235078833, "building": "yes", "name": "", "height": null, "height_m": null, "levels": null, "tract_id": "40037021300", "tract_name": "213", "tags": {"building": "yes", "source": "microsoft/BuildingFootprints"}}}, {"type": "Feature", "geometry": {"type": "Polygon", "coordinates": [[[-96.1079818, 35.9997768], [-96.1079763, 35.9996598], [-96.1080299, 35.9996582], [-96.1080274, 35.9996048], [-96.1079578, 35.9996069], [-96.1079535, 35.9995151], [-96.1077526, 35.9995212], [-96.1077625, 35.9997336], [-96.1077839, 35.9997329], [-96.1077863, 35.9997828], [-96.1079818, 35.9997768]]]}, "properties": {"osm_id": 1235078834, "building": "yes", "name": "", "height": null, "height_m": null, "levels": null, "tract_id": "40037021300", "tract_name": "213", "tags": {"building": "yes", "source": "microsoft/BuildingFootprints"}}}, {"type": "Feature", "geometry": {"type": "Polygon", "coordinates": [[[-96.1075903, 35.9997765], [-96.1075811, 35.9995315], [-96.1076106, 35.9995307], [-96.1076076, 35.9994505], [-96.1075781, 35.9994513], [-96.1075764, 35.9994065], [-96.10748, 35.9994089], [-96.107481, 35.9994363], [-96.1073282, 35.99944], [-96.107329, 35.9994617], [-96.1071656, 35.9994657], [-96.1071665, 35.9994917], [-96.1070352, 35.9994949], [-96.1070463, 35.9997898], [-96.1075903, 35.9997765]]]}, "properties": {"osm_id": 1235078835, "building": "yes", "name": "", "height": null, "height_m": null, "levels": null, "tract_id": "40037021300", "tract_name": "213", "tags": {"building": "yes", "source": "microsoft/BuildingFootprints"}}}, {"type": "Feature", "geometry": {"type": "Polygon", "coordinates": [[[-96.108808, 36.0005761], [-96.1087863, 35.9999799], [-96.1084272, 35.9999885], [-96.1084338, 36.0001698], [-96.1084847, 36.0001686], [-96.1084947, 36.0004439], [-96.1085658, 36.0004422], [-96.1085709, 36.0005818], [-96.108808, 36.0005761]]]}, "properties": {"osm_id": 1235078836, "building": "yes", "name": "", "height": null, "height_m": null, "levels": null, "tract_id": "40037021300", "tract_name": "213", "tags": {"building": "yes", "source": "microsoft/BuildingFootprints"}}}, {"type": "Feature", "geometry": {"type": "Polygon", "coordinates": [[[-96.1079044, 36.0002838], [-96.1079086, 36.0003892], [-96.108218, 36.0003812], [-96.1082131, 36.0002554], [-96.1080402, 36.0002599], [-96.108041, 36.0002802], [-96.1079044, 36.0002838]]]}, "properties": {"osm_id": 1235078837, "building": "yes", "name": "", "height": null, "height_m": null, "levels": null, "tract_id": "40037021300", "tract_name": "213", "tags": {"building": "yes", "source": "microsoft/BuildingFootprints"}}}, {"type": "Feature", "geometry": {"type": "Polygon", "coordinates": [[[-96.1077386, 36.0007307], [-96.108149, 36.0007271], [-96.108148, 36.0006577], [-96.1077377, 36.0006613], [-96.1077386, 36.0007307]]]}, "properties": {"osm_id": 1235078838, "building": "yes", "name": "", "height": null, "height_m": null, "levels": null, "tract_id": "40037021300", "tract_name": "213", "tags": {"building": "yes", "source": "microsoft/BuildingFootprints"}}}, {"type": "Feature", "geometry": {"type": "Polygon", "coordinates": [[[-96.1090691, 36.0005345], [-96.1090749, 36.0006797], [-96.1093776, 36.0006718], [-96.1093692, 36.0004594], [-96.1091736, 36.0004645], [-96.1091763, 36.0005317], [-96.1090691, 36.0005345]]]}, "properties": {"osm_id": 1235078839, "building": "yes", "name": "", "height": null, "height_m": null, "levels": null, "tract_id": "40037021300", "tract_name": "213", "tags": {"building": "yes", "source": "microsoft/BuildingFootprints"}}}, {"type": "Feature", "geometry": {"type": "Polygon", "coordinates": [[[-96.108774, 36.0011445], [-96.1086305, 36.0011471], [-96.1086401, 36.0014919], [-96.1087837, 36.0014893], [-96.108774, 36.0011445]]]}, "properties": {"osm_id": 1235078840, "building": "yes", "name": "", "height": null, "height_m": null, "levels": null, "tract_id": "40037021300", "tract_name": "213", "tags": {"building": "yes", "source": "microsoft/BuildingFootprints"}}}, {"type": "Feature", "geometry": {"type": "Polygon", "coordinates": [[[-96.1079925, 36.001237], [-96.1079945, 36.0013672], [-96.1081997, 36.0013651], [-96.1081977, 36.001235], [-96.1079925, 36.001237]]]}, "properties": {"osm_id": 1235078841, "building": "yes", "name": "", "height": null, "height_m": null, "levels": null, "tract_id": "40037021300", "tract_name": "213", "tags": {"building": "yes", "source": "microsoft/BuildingFootprints"}}}, {"type": "Feature", "geometry": {"type": "Polygon", "coordinates": [[[-96.1067847, 36.0002521], [-96.1068651, 36.0002499], [-96.1068567, 36.0000539], [-96.1067763, 36.0000562], [-96.1067847, 36.0002521]]]}, "properties": {"osm_id": 1235078842, "building": "yes", "name": "", "height": null, "height_m": null, "levels": null, "tract_id": "40037021300", "tract_name": "213", "tags": {"building": "yes", "source": "microsoft/BuildingFootprints"}}}, {"type": "Feature", "geometry": {"type": "Polygon", "coordinates": [[[-96.1065785, 36.000119], [-96.1065802, 36.0002504], [-96.1066888, 36.0002495], [-96.1066871, 36.000118], [-96.1065785, 36.000119]]]}, "properties": {"osm_id": 1235078843, "building": "yes", "name": "", "height": null, "height_m": null, "levels": null, "tract_id": "40037021300", "tract_name": "213", "tags": {"building": "yes", "source": "microsoft/BuildingFootprints"}}}, {"type": "Feature", "geometry": {"type": "Polygon", "coordinates": [[[-96.1114083, 35.998565], [-96.11139, 35.998148], [-96.1112147, 35.998153], [-96.1112208, 35.9982917], [-96.1111416, 35.998294], [-96.1111379, 35.9982104], [-96.1110549, 35.9982128], [-96.1110528, 35.9981651], [-96.1108695, 35.9981704], [-96.1108875, 35.99858], [-96.1114083, 35.998565]]]}, "properties": {"osm_id": 1235079059, "building": "yes", "name": "", "height": null, "height_m": null, "levels": null, "tract_id": "40037021300", "tract_name": "213", "tags": {"building": "yes", "source": "microsoft/BuildingFootprints"}}}, {"type": "Feature", "geometry": {"type": "Polygon", "coordinates": [[[-96.1113836, 35.9981234], [-96.1113655, 35.9976856], [-96.1110746, 35.9976935], [-96.111081, 35.9978474], [-96.1110595, 35.9978479], [-96.1110628, 35.997926], [-96.1111217, 35.9979244], [-96.1111259, 35.9980263], [-96.1110391, 35.9980286], [-96.1110434, 35.9981327], [-96.1113836, 35.9981234]]]}, "properties": {"osm_id": 1235079060, "building": "yes", "name": "", "height": null, "height_m": null, "levels": null, "tract_id": "40037021300", "tract_name": "213", "tags": {"building": "yes", "source": "microsoft/BuildingFootprints"}}}, {"type": "Feature", "geometry": {"type": "Polygon", "coordinates": [[[-96.1121273, 35.9974337], [-96.1121049, 35.996906], [-96.1120192, 35.9969084], [-96.1120416, 35.997436], [-96.1121273, 35.9974337]]]}, "properties": {"osm_id": 1235079061, "building": "yes", "name": "", "height": null, "height_m": null, "levels": null, "tract_id": "40037021300", "tract_name": "213", "tags": {"building": "yes", "source": "microsoft/BuildingFootprints"}}}, {"type": "Feature", "geometry": {"type": "Polygon", "coordinates": [[[-96.1118843, 35.9971945], [-96.1119834, 35.9971918], [-96.1119742, 35.9969707], [-96.111875, 35.9969734], [-96.1118843, 35.9971945]]]}, "properties": {"osm_id": 1235079062, "building": "yes", "name": "", "height": null, "height_m": null, "levels": null, "tract_id": "40037021300", "tract_name": "213", "tags": {"building": "yes", "source": "microsoft/BuildingFootprints"}}}, {"type": "Feature", "geometry": {"type": "Polygon", "coordinates": [[[-96.1116014, 35.9970584], [-96.11162, 35.9974518], [-96.1119146, 35.9974427], [-96.1119069, 35.997279], [-96.1118089, 35.997282], [-96.1117939, 35.9969669], [-96.1117286, 35.9969689], [-96.1117326, 35.9970543], [-96.1116014, 35.9970584]]]}, "properties": {"osm_id": 1235079063, "building": "yes", "name": "", "height": null, "height_m": null, "levels": null, "tract_id": "40037021300", "tract_name": "213", "tags": {"building": "yes", "source": "microsoft/BuildingFootprints"}}}, {"type": "Feature", "geometry": {"type": "Polygon", "coordinates": [[[-96.1119993, 35.9966469], [-96.1119352, 35.9965313], [-96.1117618, 35.9965941], [-96.1117684, 35.996606], [-96.11165, 35.9966489], [-96.1116644, 35.996675], [-96.1116435, 35.9966826], [-96.1117205, 35.9968217], [-96.1118711, 35.9967672], [-96.111837, 35.9967057], [-96.1119993, 35.9966469]]]}, "properties": {"osm_id": 1235079064, "building": "yes", "name": "", "height": null, "height_m": null, "levels": null, "tract_id": "40037021300", "tract_name": "213", "tags": {"building": "yes", "source": "microsoft/BuildingFootprints"}}}, {"type": "Feature", "geometry": {"type": "Polygon", "coordinates": [[[-96.1121731, 35.9967093], [-96.1123151, 35.996706], [-96.1123111, 35.9965923], [-96.1122816, 35.996593], [-96.1122805, 35.9965604], [-96.1121679, 35.996563], [-96.1121731, 35.9967093]]]}, "properties": {"osm_id": 1235079065, "building": "yes", "name": "", "height": null, "height_m": null, "levels": null, "tract_id": "40037021300", "tract_name": "213", "tags": {"building": "yes", "source": "microsoft/BuildingFootprints"}}}, {"type": "Feature", "geometry": {"type": "Polygon", "coordinates": [[[-96.1124994, 35.9967288], [-96.1124448, 35.9967305], [-96.11245, 35.99684], [-96.112601, 35.9968354], [-96.1125971, 35.9967519], [-96.1125007, 35.9967548], [-96.1124994, 35.9967288]]]}, "properties": {"osm_id": 1235079066, "building": "yes", "name": "", "height": null, "height_m": null, "levels": null, "tract_id": "40037021300", "tract_name": "213", "tags": {"building": "yes", "source": "microsoft/BuildingFootprints"}}}, {"type": "Feature", "geometry": {"type": "Polygon", "coordinates": [[[-96.1125991, 35.9969943], [-96.1125962, 35.9969292], [-96.1125212, 35.9969315], [-96.1125207, 35.9969195], [-96.1123948, 35.9969232], [-96.1123982, 35.9970002], [-96.1125991, 35.9969943]]]}, "properties": {"osm_id": 1235079067, "building": "yes", "name": "", "height": null, "height_m": null, "levels": null, "tract_id": "40037021300", "tract_name": "213", "tags": {"building": "yes", "source": "microsoft/BuildingFootprints"}}}, {"type": "Feature", "geometry": {"type": "Polygon", "coordinates": [[[-96.1134497, 35.9967826], [-96.1130721, 35.9967948], [-96.1130766, 35.9968869], [-96.1131452, 35.9968847], [-96.1131474, 35.9969302], [-96.1134565, 35.9969202], [-96.1134497, 35.9967826]]]}, "properties": {"osm_id": 1235079068, "building": "yes", "name": "", "height": null, "height_m": null, "levels": null, "tract_id": "40037021300", "tract_name": "213", "tags": {"building": "yes", "source": "microsoft/BuildingFootprints"}}}, {"type": "Feature", "geometry": {"type": "Polygon", "coordinates": [[[-96.1130226, 35.9966923], [-96.1132128, 35.9966871], [-96.1132121, 35.9966698], [-96.1132764, 35.996668], [-96.1132731, 35.9965889], [-96.1132051, 35.9965907], [-96.1132043, 35.9965723], [-96.1130596, 35.9965763], [-96.1130612, 35.9966131], [-96.1130193, 35.9966143], [-96.1130226, 35.9966923]]]}, "properties": {"osm_id": 1235079069, "building": "yes", "name": "", "height": null, "height_m": null, "levels": null, "tract_id": "40037021300", "tract_name": "213", "tags": {"building": "yes", "source": "microsoft/BuildingFootprints"}}}, {"type": "Feature", "geometry": {"type": "Polygon", "coordinates": [[[-96.1127754, 36.0011956], [-96.1129163, 36.001195], [-96.1129172, 36.0013306], [-96.1131866, 36.0013295], [-96.1131862, 36.0012622], [-96.1134598, 36.001261], [-96.113458, 36.0009974], [-96.1127741, 36.0010004], [-96.1127754, 36.0011956]]]}, "properties": {"osm_id": 1235079100, "building": "yes", "name": "", "height": null, "height_m": null, "levels": null, "tract_id": "40037021300", "tract_name": "213", "tags": {"building": "yes", "source": "microsoft/BuildingFootprints"}}}, {"type": "Feature", "geometry": {"type": "Polygon", "coordinates": [[[-96.1114464, 36.0010088], [-96.1114496, 36.0012875], [-96.112607, 36.0012787], [-96.1126038, 36.001], [-96.1114464, 36.0010088]]]}, "properties": {"osm_id": 1235079101, "building": "yes", "name": "", "height": null, "height_m": null, "levels": null, "tract_id": "40037021300", "tract_name": "213", "tags": {"building": "yes", "source": "microsoft/BuildingFootprints"}}}, {"type": "Feature", "geometry": {"type": "Polygon", "coordinates": [[[-96.1102426, 36.0019923], [-96.1104169, 36.0019906], [-96.1104023, 36.0010338], [-96.1100603, 36.0010372], [-96.110064, 36.001278], [-96.1098119, 36.0012806], [-96.1098127, 36.001337], [-96.1100648, 36.0013344], [-96.110069, 36.0016078], [-96.1102367, 36.0016061], [-96.1102426, 36.0019923]]]}, "properties": {"osm_id": 1235079102, "building": "yes", "name": "", "height": null, "height_m": null, "levels": null, "tract_id": "40037021300", "tract_name": "213", "tags": {"building": "yes", "source": "microsoft/BuildingFootprints"}}}, {"type": "Feature", "geometry": {"type": "Polygon", "coordinates": [[[-96.1093673, 36.0020085], [-96.1093629, 36.0018393], [-96.1091565, 36.0018428], [-96.1091608, 36.002012], [-96.1093673, 36.0020085]]]}, "properties": {"osm_id": 1235079103, "building": "yes", "name": "", "height": null, "height_m": null, "levels": null, "tract_id": "40037021300", "tract_name": "213", "tags": {"building": "yes", "source": "microsoft/BuildingFootprints"}}}, {"type": "Feature", "geometry": {"type": "Polygon", "coordinates": [[[-96.1086712, 36.0020331], [-96.1088777, 36.0020294], [-96.1088746, 36.0019145], [-96.1086681, 36.0019181], [-96.1086712, 36.0020331]]]}, "properties": {"osm_id": 1235079104, "building": "yes", "name": "", "height": null, "height_m": null, "levels": null, "tract_id": "40037021300", "tract_name": "213", "tags": {"building": "yes", "source": "microsoft/BuildingFootprints"}}}, {"type": "Feature", "geometry": {"type": "Polygon", "coordinates": [[[-96.1102486, 36.0023275], [-96.1102563, 36.0025313], [-96.1103608, 36.0025287], [-96.1103531, 36.0023249], [-96.1102486, 36.0023275]]]}, "properties": {"osm_id": 1235079105, "building": "yes", "name": "", "height": null, "height_m": null, "levels": null, "tract_id": "40037021300", "tract_name": "213", "tags": {"building": "yes", "source": "microsoft/BuildingFootprints"}}}, {"type": "Feature", "geometry": {"type": "Polygon", "coordinates": [[[-96.1097406, 36.002344], [-96.1097373, 36.0024915], [-96.1097749, 36.0024921], [-96.1097734, 36.0025593], [-96.1098496, 36.0025604], [-96.1098522, 36.0024425], [-96.1098335, 36.0024422], [-96.1098356, 36.0023454], [-96.1097406, 36.002344]]]}, "properties": {"osm_id": 1235079106, "building": "yes", "name": "", "height": null, "height_m": null, "levels": null, "tract_id": "40037021300", "tract_name": "213", "tags": {"building": "yes", "source": "microsoft/BuildingFootprints"}}}, {"type": "Feature", "geometry": {"type": "Polygon", "coordinates": [[[-96.1091978, 36.0023708], [-96.1092007, 36.002511], [-96.1093133, 36.0025094], [-96.1093171, 36.0026938], [-96.1094565, 36.0026919], [-96.1094498, 36.0023674], [-96.1091978, 36.0023708]]]}, "properties": {"osm_id": 1235079107, "building": "yes", "name": "", "height": null, "height_m": null, "levels": null, "tract_id": "40037021300", "tract_name": "213", "tags": {"building": "yes", "source": "microsoft/BuildingFootprints"}}}, {"type": "Feature", "geometry": {"type": "Polygon", "coordinates": [[[-96.1100171, 36.0037363], [-96.1100143, 36.0032472], [-96.1097997, 36.003248], [-96.1098009, 36.0034672], [-96.109692, 36.0034676], [-96.1096923, 36.0035196], [-96.1097808, 36.0035193], [-96.1097812, 36.0035909], [-96.1097185, 36.0035911], [-96.1097188, 36.0036432], [-96.1096786, 36.0036434], [-96.1096791, 36.0037375], [-96.1100171, 36.0037363]]]}, "properties": {"osm_id": 1235079108, "building": "yes", "name": "", "height": null, "height_m": null, "levels": null, "tract_id": "40037021300", "tract_name": "213", "tags": {"building": "yes", "source": "microsoft/BuildingFootprints"}}}, {"type": "Feature", "geometry": {"type": "Polygon", "coordinates": [[[-96.1094085, 35.9974939], [-96.1094011, 35.9973455], [-96.1092577, 35.9973502], [-96.1092589, 35.9973463], [-96.1091097, 35.997351], [-96.1091067, 35.9972877], [-96.1089313, 35.9972933], [-96.1089329, 35.9973257], [-96.1089152, 35.9973263], [-96.1089249, 35.9975189], [-96.1091201, 35.9975125], [-96.1091158, 35.9974263], [-96.1092563, 35.9974217], [-96.1092602, 35.9974988], [-96.1094085, 35.9974939]]]}, "properties": {"osm_id": 1291542208, "building": "yes", "name": "", "height": null, "height_m": null, "levels": null, "tract_id": "40037021300", "tract_name": "213", "tags": {"addr:city": "Sapulpa", "addr:housenumber": "316", "addr:postcode": "74067", "addr:state": "OK", "addr:street": "East Lee Avenue", "building": "yes", "emergency": "psap", "office": "government"}}}, {"type": "Feature", "geometry": {"type": "Polygon", "coordinates": [[[-96.1122541, 35.9987341], [-96.1127658, 35.9987159], [-96.1127769, 35.99892], [-96.1122652, 35.9989382], [-96.1122541, 35.9987341]]]}, "properties": {"osm_id": 1336671489, "building": "yes", "name": "", "height": null, "height_m": null, "levels": null, "tract_id": "40037021300", "tract_name": "213", "tags": {"building": "yes"}}}, {"type": "Feature", "geometry": {"type": "Polygon", "coordinates": [[[-96.1091045, 35.9990866], [-96.1094372, 35.9990751], [-96.1094507, 35.9993319], [-96.1091181, 35.9993434], [-96.1091045, 35.9990866]]]}, "properties": {"osm_id": 1364382515, "building": "yes", "name": "", "height": null, "height_m": null, "levels": null, "tract_id": "40037021300", "tract_name": "213", "tags": {"building": "yes"}}}, {"type": "Feature", "geometry": {"type": "Polygon", "coordinates": [[[-96.1121792, 35.9973278], [-96.1121688, 35.9971768], [-96.1124725, 35.9971632], [-96.1124759, 35.9972131], [-96.1126682, 35.9972044], [-96.1126751, 35.9973055], [-96.1121792, 35.9973278]]]}, "properties": {"osm_id": 1364382516, "building": "yes", "name": "", "height": null, "height_m": null, "levels": null, "tract_id": "40037021300", "tract_name": "213", "tags": {"building": "yes"}}}, {"type": "Feature", "geometry": {"type": "Polygon", "coordinates": [[[-96.1097049, 35.9979905], [-96.1098171, 35.9979883], [-96.1098185, 35.9980365], [-96.1099577, 35.9980337], [-96.1099494, 35.9977585], [-96.1097892, 35.9977616], [-96.1097911, 35.9978255], [-96.1097, 35.9978273], [-96.1097049, 35.9979905]]]}, "properties": {"osm_id": 1364382517, "building": "yes", "name": "", "height": null, "height_m": null, "levels": null, "tract_id": "40037021300", "tract_name": "213", "tags": {"building": "yes"}}}, {"type": "Feature", "geometry": {"type": "Polygon", "coordinates": [[[-96.1107226, 35.9972095], [-96.1107177, 35.9969802], [-96.1102422, 35.9969869], [-96.1102482, 35.9972672], [-96.1102815, 35.9972667], [-96.1102857, 35.9974617], [-96.1105146, 35.9974585], [-96.1105093, 35.9972125], [-96.1107226, 35.9972095]]]}, "properties": {"osm_id": 1364382518, "building": "yes", "name": "", "height": null, "height_m": null, "levels": null, "tract_id": "40037021300", "tract_name": "213", "tags": {"building": "yes"}}}, {"type": "Feature", "geometry": {"type": "Polygon", "coordinates": [[[-96.1102425, 35.9969656], [-96.1102347, 35.9967972], [-96.110495, 35.9967893], [-96.1104942, 35.9967718], [-96.1102086, 35.9967805], [-96.110202, 35.9966402], [-96.1106251, 35.9966272], [-96.1106323, 35.9967794], [-96.110703, 35.9967772], [-96.1107111, 35.9969513], [-96.1102425, 35.9969656]]]}, "properties": {"osm_id": 1364382519, "building": "yes", "name": "", "height": null, "height_m": null, "levels": null, "tract_id": "40037021300", "tract_name": "213", "tags": {"building": "yes"}}}]}