{"type": "FeatureCollection", "features": [{"type": "Feature", "geometry": {"type": "Polygon", "coordinates": [[[-95.9740911, 35.6278828], [-95.9740944, 35.6277502], [-95.9742658, 35.627753], [-95.9742645, 35.6278059], [-95.9743068, 35.6278066], [-95.9743048, 35.6278863], [-95.9740911, 35.6278828]]]}, "properties": {"osm_id": 231166036, "building": "yes", "name": "", "height": null, "height_m": null, "levels": null, "tract_id": "40111000200", "tract_name": "2", "tags": {"addr:city": "Okmulgee", "addr:country": "US", "addr:housenumber": "530", "addr:postcode": "74447", "addr:street": "North Seminole Avenue", "building": "yes"}}}, {"type": "Feature", "geometry": {"type": "Polygon", "coordinates": [[[-95.9761638, 35.6259681], [-95.9761588, 35.6264019], [-95.9760862, 35.6264013], [-95.9760861, 35.626417], [-95.9758328, 35.6264151], [-95.9758336, 35.626349], [-95.9756777, 35.6263479], [-95.9756774, 35.6263743], [-95.9755852, 35.6263736], [-95.9755845, 35.6264399], [-95.9753389, 35.626438], [-95.9753397, 35.6263663], [-95.9753527, 35.6263665], [-95.9753576, 35.625939], [-95.9755535, 35.6259405], [-95.9755541, 35.6258913], [-95.9758301, 35.6258933], [-95.9758295, 35.6259426], [-95.9760952, 35.6259446], [-95.976095, 35.6259676], [-95.9761638, 35.6259681]]]}, "properties": {"osm_id": 231167289, "building": "yes", "name": "", "height": null, "height_m": null, "levels": null, "tract_id": "40111000200", "tract_name": "2", "tags": {"addr:city": "Okmulgee", "addr:country": "US", "addr:housenumber": "415", "addr:postcode": "74447", "addr:street": "West 3rd Street", "building": "yes"}}}, {"type": "Feature", "geometry": {"type": "Polygon", "coordinates": [[[-95.9753876, 35.6273064], [-95.9753926, 35.6269147], [-95.975851, 35.6269185], [-95.9758519, 35.626841], [-95.9762979, 35.6268448], [-95.9762924, 35.6272765], [-95.9762255, 35.6272759], [-95.9762246, 35.6273489], [-95.9761586, 35.6273483], [-95.9761588, 35.6273335], [-95.9761161, 35.6273331], [-95.9761164, 35.6273125], [-95.9753876, 35.6273064]]]}, "properties": {"osm_id": 231167293, "building": "yes", "name": "", "height": null, "height_m": null, "levels": null, "tract_id": "40111000200", "tract_name": "2", "tags": {"building": "yes"}}}, {"type": "Feature", "geometry": {"type": "Polygon", "coordinates": [[[-95.9756212, 35.6266363], [-95.9753816, 35.6266343], [-95.9753829, 35.6265285], [-95.9756226, 35.6265305], [-95.9756212, 35.6266363]]]}, "properties": {"osm_id": 231167294, "building": "yes", "name": "", "height": null, "height_m": null, "levels": null, "tract_id": "40111000200", "tract_name": "2", "tags": {"building": "yes"}}}, {"type": "Feature", "geometry": {"type": "Polygon", "coordinates": [[[-95.976285, 35.6265015], [-95.9762831, 35.6266477], [-95.9760087, 35.6266454], [-95.9760106, 35.6264991], [-95.976285, 35.6265015]]]}, "properties": {"osm_id": 231167295, "building": "yes", "name": "", "height": null, "height_m": null, "levels": null, "tract_id": "40111000200", "tract_name": "2", "tags": {"building": "yes"}}}, {"type": "Feature", "geometry": {"type": "Polygon", "coordinates": [[[-95.9748308, 35.6329537], [-95.9746168, 35.6329552], [-95.9746307, 35.6331212], [-95.9741326, 35.6331247], [-95.9741235, 35.6328928], [-95.9739754, 35.6328918], [-95.9739639, 35.6326196], [-95.9743036, 35.6326171], [-95.9743816, 35.6326387], [-95.9743979, 35.6326191], [-95.9745721, 35.6326908], [-95.9745588, 35.6327095], [-95.9747316, 35.632792], [-95.9748235, 35.632792], [-95.9748308, 35.6329537]]]}, "properties": {"osm_id": 239380388, "building": "yes", "name": "", "height": null, "height_m": null, "levels": null, "tract_id": "40111000200", "tract_name": "2", "tags": {"building": "yes"}}}, {"type": "Feature", "geometry": {"type": "Polygon", "coordinates": [[[-95.9745632, 35.6335136], [-95.9738844, 35.6335185], [-95.9738819, 35.6332925], [-95.9745607, 35.6332876], [-95.9745632, 35.6335136]]]}, "properties": {"osm_id": 239380389, "building": "yes", "name": "", "height": null, "height_m": null, "levels": null, "tract_id": "40111000200", "tract_name": "2", "tags": {"building": "yes"}}}, {"type": "Feature", "geometry": {"type": "Polygon", "coordinates": [[[-95.9629586, 35.6476912], [-95.9627453, 35.6476902], [-95.9627476, 35.6473717], [-95.9629609, 35.6473727], [-95.9629586, 35.6476912]]]}, "properties": {"osm_id": 909720662, "building": "yes", "name": "", "height": null, "height_m": null, "levels": null, "tract_id": "40111000200", "tract_name": "2", "tags": {"building": "yes"}}}, {"type": "Feature", "geometry": {"type": "Polygon", "coordinates": [[[-95.9636718, 35.6459751], [-95.96359, 35.6459752], [-95.96359, 35.6460075], [-95.9634076, 35.6460076], [-95.9634076, 35.6459753], [-95.9632668, 35.6459754], [-95.9632669, 35.6460511], [-95.9628526, 35.6460513], [-95.9628522, 35.6456709], [-95.9631635, 35.6456707], [-95.9631636, 35.6457482], [-95.9636715, 35.6457479], [-95.9636718, 35.6459751]]]}, "properties": {"osm_id": 909720663, "building": "yes", "name": "", "height": null, "height_m": null, "levels": null, "tract_id": "40111000200", "tract_name": "2", "tags": {"building": "yes"}}}, {"type": "Feature", "geometry": {"type": "Polygon", "coordinates": [[[-95.998345, 35.6410614], [-95.9982518, 35.6410468], [-95.9982987, 35.6408709], [-95.998388, 35.6408861], [-95.998345, 35.6410614]]]}, "properties": {"osm_id": 974017919, "building": "yes", "name": "", "height": null, "height_m": null, "levels": null, "tract_id": "40111000200", "tract_name": "2", "tags": {"building": "yes"}}}, {"type": "Feature", "geometry": {"type": "Polygon", "coordinates": [[[-95.9984277, 35.6412327], [-95.998333, 35.6412669], [-95.9982671, 35.6411354], [-95.9983625, 35.641103], [-95.9984277, 35.6412327]]]}, "properties": {"osm_id": 974017920, "building": "yes", "name": "", "height": null, "height_m": null, "levels": null, "tract_id": "40111000200", "tract_name": "2", "tags": {"building": "yes"}}}, {"type": "Feature", "geometry": {"type": "Polygon", "coordinates": [[[-95.9627359, 35.644618], [-95.9626904, 35.6446182], [-95.96269, 35.6445406], [-95.9626734, 35.6445406], [-95.9626726, 35.6443933], [-95.9624933, 35.644394], [-95.9624927, 35.6442932], [-95.962675, 35.6442925], [-95.9626741, 35.6441417], [-95.9626916, 35.6441417], [-95.9626911, 35.6440645], [-95.9629242, 35.6440637], [-95.9629273, 35.6446173], [-95.9629065, 35.6446174], [-95.9629071, 35.6447139], [-95.9628417, 35.6447643], [-95.9627368, 35.6447647], [-95.9626794, 35.6447194], [-95.9626834, 35.6446551], [-95.9627359, 35.644618]]]}, "properties": {"osm_id": 1230522548, "building": "yes", "name": "Holiday Inn Express & Suites Okmulgee", "height": null, "height_m": null, "levels": null, "tract_id": "40111000200", "tract_name": "2", "tags": {"addr:housenumber": "2780", "addr:street": "North Wood Drive", "air_conditioning": "yes", "brand": "Holiday Inn Express & Suites", "brand:wikidata": "Q5880423", "building": "yes", "name": "Holiday Inn Express & Suites Okmulgee", "tourism": "hotel"}}}, {"type": "Feature", "geometry": {"type": "Polygon", "coordinates": [[[-95.9631729, 35.6360841], [-95.963424, 35.6360795], [-95.9634262, 35.6361608], [-95.9634605, 35.6361602], [-95.9634663, 35.636371], [-95.963181, 35.6363762], [-95.9631729, 35.6360841]]]}, "properties": {"osm_id": 1323908686, "building": "yes", "name": "", "height": null, "height_m": null, "levels": null, "tract_id": "40111000200", "tract_name": "2", "tags": {"building": "yes"}}}, {"type": "Feature", "geometry": {"type": "Polygon", "coordinates": [[[-95.9630951, 35.6364764], [-95.9631704, 35.6364758], [-95.9631731, 35.636696], [-95.9630978, 35.6366966], [-95.9630951, 35.6364764]]]}, "properties": {"osm_id": 1323908687, "building": "roof", "name": "", "height": null, "height_m": null, "levels": null, "tract_id": "40111000200", "tract_name": "2", "tags": {"building": "roof"}}}, {"type": "Feature", "geometry": {"type": "Polygon", "coordinates": [[[-95.9628537, 35.6359642], [-95.9629155, 35.6359638], [-95.9629181, 35.6362559], [-95.9628564, 35.6362563], [-95.9628537, 35.6359642]]]}, "properties": {"osm_id": 1323908688, "building": "roof", "name": "", "height": null, "height_m": null, "levels": null, "tract_id": "40111000200", "tract_name": "2", "tags": {"building": "roof"}}}, {"type": "Feature", "geometry": {"type": "Polygon", "coordinates": [[[-95.9847373, 35.6247182], [-95.9844914, 35.6247191], [-95.9844911, 35.6246498], [-95.984737, 35.624649], [-95.9847373, 35.6247182]]]}, "properties": {"osm_id": 1338768391, "building": "roof", "name": "Casey's", "height": null, "height_m": null, "levels": null, "tract_id": "40111000200", "tract_name": "2", "tags": {"amenity": "fuel", "brand": "Casey's", "building": "roof", "name": "Casey's"}}}, {"type": "Feature", "geometry": {"type": "Polygon", "coordinates": [[[-95.9846786, 35.6250133], [-95.9844806, 35.6250166], [-95.9844768, 35.6248609], [-95.9846747, 35.6248576], [-95.9846786, 35.6250133]]]}, "properties": {"osm_id": 1338768392, "building": "retail", "name": "Casey's", "height": null, "height_m": null, "levels": null, "tract_id": "40111000200", "tract_name": "2", "tags": {"addr:city": "Okmulgee", "addr:housenumber": "1201", "addr:postcode": "74447", "addr:street": "West 4th Street", "building": "retail", "name": "Casey's", "ref": "4095", "shop": "convenience"}}}, {"type": "Feature", "geometry": {"type": "Polygon", "coordinates": [[[-95.9637603, 35.6673473], [-95.9637599, 35.6674291], [-95.9636123, 35.6674285], [-95.9636128, 35.6673467], [-95.9637603, 35.6673473]]]}, "properties": {"osm_id": 1342313275, "building": "industrial", "name": "", "height": null, "height_m": null, "levels": null, "tract_id": "40111000200", "tract_name": "2", "tags": {"building": "industrial"}}}, {"type": "Feature", "geometry": {"type": "Polygon", "coordinates": [[[-95.9633955, 35.6660148], [-95.963246, 35.6660126], [-95.9632486, 35.6658954], [-95.9632875, 35.665896], [-95.963288, 35.6658748], [-95.9632573, 35.6658743], [-95.9632585, 35.6658229], [-95.9633976, 35.6658249], [-95.9633965, 35.6658741], [-95.9633672, 35.6658737], [-95.9633667, 35.6658971], [-95.9633981, 35.6658976], [-95.9633955, 35.6660148]]]}, "properties": {"osm_id": 1342313282, "building": "yes", "name": "", "height": null, "height_m": null, "levels": null, "tract_id": "40111000200", "tract_name": "2", "tags": {"building": "yes"}}}, {"type": "Feature", "geometry": {"type": "Polygon", "coordinates": [[[-95.9636299, 35.6584997], [-95.9635012, 35.6585018], [-95.9635051, 35.6586595], [-95.9636338, 35.6586574], [-95.9636299, 35.6584997]]]}, "properties": {"osm_id": 1342313293, "building": "yes", "name": "", "height": null, "height_m": null, "levels": null, "tract_id": "40111000200", "tract_name": "2", "tags": {"building": "yes"}}}, {"type": "Feature", "geometry": {"type": "Polygon", "coordinates": [[[-95.96408, 35.6663481], [-95.9639033, 35.6663418], [-95.9638987, 35.6664266], [-95.9640753, 35.6664329], [-95.96408, 35.6663481]]]}, "properties": {"osm_id": 1342313294, "building": "yes", "name": "", "height": null, "height_m": null, "levels": null, "tract_id": "40111000200", "tract_name": "2", "tags": {"building": "yes"}}}, {"type": "Feature", "geometry": {"type": "Polygon", "coordinates": [[[-95.9640387, 35.6680028], [-95.9640422, 35.6675975], [-95.9641576, 35.6675982], [-95.9641583, 35.667511], [-95.963866, 35.6675093], [-95.9638645, 35.6676793], [-95.9637803, 35.6676788], [-95.9637806, 35.6676461], [-95.9637387, 35.6676459], [-95.9637384, 35.6676895], [-95.9636418, 35.6676889], [-95.9636414, 35.6677325], [-95.9634429, 35.6677313], [-95.9634417, 35.6678751], [-95.9636992, 35.6678766], [-95.9636981, 35.6680008], [-95.9640387, 35.6680028]]]}, "properties": {"osm_id": 1342313295, "building": "industrial", "name": "Covington Aircraft", "height": null, "height_m": null, "levels": null, "tract_id": "40111000200", "tract_name": "2", "tags": {"addr:city": "Okmulgee", "addr:country": "US", "addr:housenumber": "201", "addr:postcode": "74447", "addr:state": "OK", "addr:street": "East Airport Road", "building": "industrial", "check_date": "2024-10-02", "email": "info@covingtonaircraft.com", "fax": "+1 918 756 0923", "name": "Covington Aircraft", "office": "company", "phone": "+1 918 756 7862", "website": "https://www.covingtonaircraft.com/"}}}, {"type": "Feature", "geometry": {"type": "Polygon", "coordinates": [[[-95.9630002, 35.6669397], [-95.9629973, 35.6670791], [-95.9634344, 35.667085], [-95.9634372, 35.6669456], [-95.9630002, 35.6669397]]]}, "properties": {"osm_id": 1342313296, "building": "industrial", "name": "Repair Processes Incorporated", "height": null, "height_m": null, "levels": null, "tract_id": "40111000200", "tract_name": "2", "tags": {"addr:city": "Okmulgee", "addr:country": "US", "addr:housenumber": "5030", "addr:postcode": "74447", "addr:state": "OK", "addr:street": "North Wood Drive", "building": "industrial", "check_date": "2024-10-02", "fax": "+1 918 758 0934", "name": "Repair Processes Incorporated", "phone": "+1 918 758 0863", "website": "https://www.rpiengines.com/"}}}, {"type": "Feature", "geometry": {"type": "Polygon", "coordinates": [[[-95.9636323, 35.665635], [-95.9637555, 35.665638], [-95.9637639, 35.6654116], [-95.9636406, 35.6654086], [-95.9636323, 35.665635]]]}, "properties": {"osm_id": 1342313300, "building": "yes", "name": "", "height": null, "height_m": null, "levels": null, "tract_id": "40111000200", "tract_name": "2", "tags": {"building": "yes"}}}, {"type": "Feature", "geometry": {"type": "Polygon", "coordinates": [[[-95.9629849, 35.6586101], [-95.9628739, 35.6586087], [-95.9628727, 35.6586707], [-95.9628594, 35.6586705], [-95.962858, 35.65874], [-95.9628811, 35.6587403], [-95.9628798, 35.6588058], [-95.9629811, 35.6588071], [-95.9629849, 35.6586101]]]}, "properties": {"osm_id": 1342313305, "building": "detached", "name": "", "height": null, "height_m": null, "levels": null, "tract_id": "40111000200", "tract_name": "2", "tags": {"building": "detached"}}}, {"type": "Feature", "geometry": {"type": "Polygon", "coordinates": [[[-95.96354, 35.6672823], [-95.9632772, 35.6672799], [-95.9632765, 35.6673287], [-95.9635393, 35.6673311], [-95.96354, 35.6672823]]]}, "properties": {"osm_id": 1342313306, "building": "industrial", "name": "", "height": null, "height_m": null, "levels": null, "tract_id": "40111000200", "tract_name": "2", "tags": {"building": "industrial"}}}, {"type": "Feature", "geometry": {"type": "Polygon", "coordinates": [[[-95.9638034, 35.667433], [-95.9641473, 35.6674359], [-95.9641491, 35.6672921], [-95.9638052, 35.6672892], [-95.9638034, 35.667433]]]}, "properties": {"osm_id": 1342313307, "building": "industrial", "name": "", "height": null, "height_m": null, "levels": null, "tract_id": "40111000200", "tract_name": "2", "tags": {"building": "industrial"}}}, {"type": "Feature", "geometry": {"type": "Polygon", "coordinates": [[[-95.9638491, 35.6664483], [-95.9638507, 35.6663655], [-95.9634315, 35.6663602], [-95.9634298, 35.666443], [-95.9638491, 35.6664483]]]}, "properties": {"osm_id": 1342313308, "building": "yes", "name": "", "height": null, "height_m": null, "levels": null, "tract_id": "40111000200", "tract_name": "2", "tags": {"building": "yes"}}}, {"type": "Feature", "geometry": {"type": "Polygon", "coordinates": [[[-95.9645157, 35.6650029], [-95.9645074, 35.6650736], [-95.964728, 35.6650908], [-95.9647364, 35.66502], [-95.9645157, 35.6650029]]]}, "properties": {"osm_id": 1342313309, "building": "yes", "name": "", "height": null, "height_m": null, "levels": null, "tract_id": "40111000200", "tract_name": "2", "tags": {"building": "yes"}}}, {"type": "Feature", "geometry": {"type": "Polygon", "coordinates": [[[-95.9628782, 35.6589339], [-95.9630873, 35.6589361], [-95.9630892, 35.6588206], [-95.96288, 35.6588184], [-95.9628782, 35.6589339]]]}, "properties": {"osm_id": 1342313310, "building": "yes", "name": "", "height": null, "height_m": null, "levels": null, "tract_id": "40111000200", "tract_name": "2", "tags": {"building": "yes"}}}, {"type": "Feature", "geometry": {"type": "Polygon", "coordinates": [[[-95.9641749, 35.6647506], [-95.9640101, 35.6647123], [-95.9639965, 35.6647509], [-95.9639315, 35.6647358], [-95.9638848, 35.6648684], [-95.9641146, 35.6649218], [-95.9641749, 35.6647506]]]}, "properties": {"osm_id": 1342313311, "building": "detached", "name": "", "height": null, "height_m": null, "levels": null, "tract_id": "40111000200", "tract_name": "2", "tags": {"building": "detached"}}}, {"type": "Feature", "geometry": {"type": "Polygon", "coordinates": [[[-95.9632275, 35.6603566], [-95.9632864, 35.6603543], [-95.9632829, 35.6602977], [-95.963224, 35.6603001], [-95.9632275, 35.6603566]]]}, "properties": {"osm_id": 1342563499, "building": "yes", "name": "", "height": null, "height_m": null, "levels": null, "tract_id": "40111000200", "tract_name": "2", "tags": {"building": "yes"}}}, {"type": "Feature", "geometry": {"type": "Polygon", "coordinates": [[[-95.9630955, 35.6600989], [-95.9624933, 35.6600964], [-95.9624926, 35.6602119], [-95.9630948, 35.6602144], [-95.9630955, 35.6600989]]]}, "properties": {"osm_id": 1342563500, "building": "industrial", "name": "", "height": null, "height_m": null, "levels": null, "tract_id": "40111000200", "tract_name": "2", "tags": {"building": "industrial"}}}, {"type": "Feature", "geometry": {"type": "Polygon", "coordinates": [[[-95.9629087, 35.6574995], [-95.9629083, 35.6576324], [-95.9629369, 35.6576325], [-95.9629367, 35.6577049], [-95.9627738, 35.6577046], [-95.962774, 35.6576323], [-95.9628117, 35.6576324], [-95.9628121, 35.6574993], [-95.9629087, 35.6574995]]]}, "properties": {"osm_id": 1343012225, "building": "detached", "name": "", "height": null, "height_m": null, "levels": null, "tract_id": "40111000200", "tract_name": "2", "tags": {"building": "detached"}}}, {"type": "Feature", "geometry": {"type": "Polygon", "coordinates": [[[-95.9627176, 35.6574499], [-95.9626727, 35.6574499], [-95.9626727, 35.6573818], [-95.9627176, 35.6573818], [-95.9627176, 35.6574499]]]}, "properties": {"osm_id": 1343012226, "building": "yes", "name": "", "height": null, "height_m": null, "levels": null, "tract_id": "40111000200", "tract_name": "2", "tags": {"building": "yes"}}}, {"type": "Feature", "geometry": {"type": "Polygon", "coordinates": [[[-95.962513, 35.6572463], [-95.9625121, 35.657316], [-95.9627088, 35.6573176], [-95.9627097, 35.6572479], [-95.962513, 35.6572463]]]}, "properties": {"osm_id": 1343012575, "building": "detached", "name": "", "height": null, "height_m": null, "levels": null, "tract_id": "40111000200", "tract_name": "2", "tags": {"building": "detached"}}}, {"type": "Feature", "geometry": {"type": "Polygon", "coordinates": [[[-95.964352, 35.6559624], [-95.9646723, 35.6559649], [-95.9646848, 35.654908], [-95.9643645, 35.6549055], [-95.964352, 35.6559624]]]}, "properties": {"osm_id": 1343012587, "building": "industrial", "name": "", "height": null, "height_m": null, "levels": null, "tract_id": "40111000200", "tract_name": "2", "tags": {"building": "industrial"}}}, {"type": "Feature", "geometry": {"type": "Polygon", "coordinates": [[[-95.9631384, 35.6503016], [-95.9625245, 35.6503087], [-95.9625311, 35.6506826], [-95.9631321, 35.6506756], [-95.9631293, 35.6505159], [-95.9631421, 35.6505158], [-95.9631384, 35.6503016]]]}, "properties": {"osm_id": 1343012609, "building": "industrial", "name": "", "height": null, "height_m": null, "levels": null, "tract_id": "40111000200", "tract_name": "2", "tags": {"abandoned": "yes", "building": "industrial"}}}, {"type": "Feature", "geometry": {"type": "Polygon", "coordinates": [[[-95.9624588, 35.6524151], [-95.9624529, 35.6527494], [-95.962532, 35.6527504], [-95.962538, 35.652416], [-95.9624588, 35.6524151]]]}, "properties": {"osm_id": 1343012613, "building": "warehouse", "name": "", "height": null, "height_m": null, "levels": null, "tract_id": "40111000200", "tract_name": "2", "tags": {"building": "warehouse"}}}, {"type": "Feature", "geometry": {"type": "Polygon", "coordinates": [[[-95.9625292, 35.647412], [-95.9624354, 35.6474123], [-95.9624367, 35.6477186], [-95.9625305, 35.6477184], [-95.9625292, 35.647412]]]}, "properties": {"osm_id": 1343012619, "building": "roof", "name": "", "height": null, "height_m": null, "levels": null, "tract_id": "40111000200", "tract_name": "2", "tags": {"building": "roof"}}}, {"type": "Feature", "geometry": {"type": "Polygon", "coordinates": [[[-95.96281, 35.6484808], [-95.9624543, 35.6484849], [-95.9624576, 35.6486798], [-95.9625961, 35.6486782], [-95.9625952, 35.6486271], [-95.9628124, 35.6486247], [-95.96281, 35.6484808]]]}, "properties": {"osm_id": 1343012620, "building": "industrial", "name": "", "height": null, "height_m": null, "levels": null, "tract_id": "40111000200", "tract_name": "2", "tags": {"building": "industrial", "shop": "yes"}}}, {"type": "Feature", "geometry": {"type": "Polygon", "coordinates": [[[-95.9624795, 35.6509758], [-95.962478, 35.6510215], [-95.9627433, 35.6510275], [-95.9627449, 35.6509818], [-95.9624795, 35.6509758]]]}, "properties": {"osm_id": 1343012623, "building": "yes", "name": "", "height": null, "height_m": null, "levels": null, "tract_id": "40111000200", "tract_name": "2", "tags": {"building": "yes"}}}, {"type": "Feature", "geometry": {"type": "Polygon", "coordinates": [[[-95.9634288, 35.6263801], [-95.9631331, 35.6263756], [-95.963131, 35.626467], [-95.9634267, 35.6264716], [-95.9634288, 35.6263801]]]}, "properties": {"osm_id": 1349137271, "building": "yes", "name": "", "height": null, "height_m": null, "levels": null, "tract_id": "40111000200", "tract_name": "2", "tags": {"building": "yes"}}}, {"type": "Feature", "geometry": {"type": "Polygon", "coordinates": [[[-95.9628982, 35.625821], [-95.962634, 35.6258196], [-95.9626327, 35.625983], [-95.9628969, 35.6259844], [-95.9628982, 35.625821]]]}, "properties": {"osm_id": 1349137272, "building": "yes", "name": "", "height": null, "height_m": null, "levels": null, "tract_id": "40111000200", "tract_name": "2", "tags": {"building": "yes"}}}, {"type": "Feature", "geometry": {"type": "Polygon", "coordinates": [[[-95.9640795, 35.6533428], [-95.9635203, 35.6533385], [-95.9635211, 35.6532654], [-95.9640804, 35.6532698], [-95.9640795, 35.6533428]]]}, "properties": {"osm_id": 1350822392, "building": "warehouse", "name": "", "height": null, "height_m": null, "levels": null, "tract_id": "40111000200", "tract_name": "2", "tags": {"building": "warehouse"}}}, {"type": "Feature", "geometry": {"type": "Polygon", "coordinates": [[[-95.9641117, 35.6530388], [-95.9634371, 35.6530388], [-95.9634371, 35.6529037], [-95.9641117, 35.6529037], [-95.9641117, 35.6530388]]]}, "properties": {"osm_id": 1350822393, "building": "warehouse", "name": "", "height": null, "height_m": null, "levels": null, "tract_id": "40111000200", "tract_name": "2", "tags": {"building": "warehouse"}}}, {"type": "Feature", "geometry": {"type": "Polygon", "coordinates": [[[-95.9628295, 35.6532252], [-95.9628327, 35.6528953], [-95.963333, 35.6528985], [-95.9633298, 35.6532284], [-95.9628295, 35.6532252]]]}, "properties": {"osm_id": 1350822394, "building": "industrial", "name": "McCoy's Building Supply", "height": null, "height_m": null, "levels": null, "tract_id": "40111000200", "tract_name": "2", "tags": {"addr:city": "Okmulgee", "addr:housenumber": "3428", "addr:postcode": "74447-7945", "addr:street": "North Wood Drive", "building": "industrial", "name": "McCoy's Building Supply", "phone": "+1 918 756 0350", "shop": "hardware"}}}]}