{"type": "FeatureCollection", "features": [{"type": "Feature", "geometry": {"type": "Polygon", "coordinates": [[[-95.4005847, 35.7129482], [-95.4000782, 35.7129511], [-95.4000749, 35.7125783], [-95.4005814, 35.7125754], [-95.4005847, 35.7129482]]]}, "properties": {"osm_id": 194215119, "building": "office", "name": "Bureau of Indian Affairs", "height": null, "height_m": null, "levels": null, "tract_id": "40101001000", "tract_name": "10", "tags": {"addr:city": "Muskogee", "addr:country": "US", "addr:housenumber": "3100", "addr:postcode": "74401", "addr:street": "West Peak Boulevard", "building": "office", "name": "Bureau of Indian Affairs"}}}, {"type": "Feature", "geometry": {"type": "Polygon", "coordinates": [[[-95.3944577, 35.7091959], [-95.3944595, 35.7089995], [-95.3944165, 35.7089992], [-95.394418, 35.7088405], [-95.394461, 35.7088407], [-95.3944639, 35.7085183], [-95.3946626, 35.7085195], [-95.3946596, 35.7088458], [-95.3948491, 35.7088469], [-95.3948471, 35.709066], [-95.3946576, 35.7090649], [-95.3946563, 35.7091971], [-95.3944577, 35.7091959]]]}, "properties": {"osm_id": 195646402, "building": "yes", "name": "", "height": null, "height_m": null, "levels": null, "tract_id": "40101001000", "tract_name": "10", "tags": {"building": "yes"}}}, {"type": "Feature", "geometry": {"type": "Polygon", "coordinates": [[[-95.3903724, 35.7108814], [-95.3899889, 35.7108792], [-95.3899917, 35.7105481], [-95.3903753, 35.7105503], [-95.3903724, 35.7108814]]]}, "properties": {"osm_id": 488912168, "building": "yes", "name": "", "height": null, "height_m": null, "levels": null, "tract_id": "40101001000", "tract_name": "10", "tags": {"building": "yes"}}}, {"type": "Feature", "geometry": {"type": "Polygon", "coordinates": [[[-95.4018465, 35.7183843], [-95.4018479, 35.7181182], [-95.4020032, 35.7181187], [-95.4020031, 35.718134], [-95.4020799, 35.7181343], [-95.4020795, 35.718215], [-95.4020041, 35.7182148], [-95.4020032, 35.7183848], [-95.4018465, 35.7183843]]]}, "properties": {"osm_id": 1150289523, "building": "yes", "name": "", "height": null, "height_m": null, "levels": null, "tract_id": "40101001000", "tract_name": "10", "tags": {"amenity": "place_of_worship", "building": "yes", "denomination": "jehovahs_witness", "religion": "christian"}}}, {"type": "Feature", "geometry": {"type": "Polygon", "coordinates": [[[-95.4067395, 35.7135271], [-95.4062352, 35.7130763], [-95.4059885, 35.713268], [-95.4058946, 35.7131896], [-95.4057605, 35.7132854], [-95.4058517, 35.7133682], [-95.4056639, 35.7135054], [-95.4060314, 35.7138211], [-95.4061271, 35.7137479], [-95.4061622, 35.7137735], [-95.4061155, 35.7138095], [-95.4062859, 35.713965], [-95.4064412, 35.7138521], [-95.4063291, 35.7137488], [-95.4063595, 35.7137251], [-95.406384, 35.7137431], [-95.4064494, 35.7136967], [-95.4063268, 35.7135905], [-95.4063758, 35.7135554], [-95.4065311, 35.7136815], [-95.4067395, 35.7135271]]]}, "properties": {"osm_id": 1173504403, "building": "yes", "name": "Creek Nation Casino", "height": null, "height_m": null, "levels": null, "tract_id": "40101001000", "tract_name": "10", "tags": {"addr:city": "Muskogee", "addr:housenumber": "3420", "addr:postcode": "74403", "addr:state": "OK", "addr:street": "West Peak Boulevard", "amenity": "casino", "branch": "Muscogee", "building": "yes", "gambling": "slot_machines", "min_age": "21", "name": "Creek Nation Casino", "opening_hours": "Mo-Su 10:00-04:00", "operator": "Muscogee (Creek) Nation", "phone": "+1-918-687-1825", "smoking": "isolated", "start_date": "1993-07-01"}}}, {"type": "Feature", "geometry": {"type": "Polygon", "coordinates": [[[-95.4017248, 35.727034], [-95.401733, 35.726881], [-95.4011509, 35.7268604], [-95.4011814, 35.7262923], [-95.4009712, 35.7262849], [-95.4009323, 35.7270058], [-95.4017248, 35.727034]]]}, "properties": {"osm_id": 1225906527, "building": "yes", "name": "Rodeway Inn", "height": null, "height_m": null, "levels": null, "tract_id": "40101001000", "tract_name": "10", "tags": {"addr:city": "Muskogee", "addr:housenumber": "2240", "addr:street": "South 32nd Street", "brand": "Rodeway Inn", "brand:wikidata": "Q7356709", "building": "yes", "name": "Rodeway Inn", "tourism": "motel"}}}, {"type": "Feature", "geometry": {"type": "Polygon", "coordinates": [[[-95.3932902, 35.7097437], [-95.393005, 35.709739], [-95.393002, 35.7098587], [-95.3932873, 35.7098634], [-95.3932902, 35.7097437]]]}, "properties": {"osm_id": 1267790443, "building": "yes", "name": "", "height": null, "height_m": null, "levels": null, "tract_id": "40101001000", "tract_name": "10", "tags": {"building": "yes", "source": "microsoft/BuildingFootprints"}}}, {"type": "Feature", "geometry": {"type": "Polygon", "coordinates": [[[-95.3945, 35.707755], [-95.3943246, 35.7077558], [-95.3943226, 35.707479], [-95.394498, 35.7074781], [-95.3945, 35.707755]]]}, "properties": {"osm_id": 1341240331, "building": "yes", "name": "", "height": null, "height_m": null, "levels": null, "tract_id": "40101001000", "tract_name": "10", "tags": {"building": "yes"}}}, {"type": "Feature", "geometry": {"type": "Polygon", "coordinates": [[[-95.3984559, 35.7103644], [-95.3983416, 35.7103592], [-95.3983486, 35.7102578], [-95.3984629, 35.710263], [-95.3984559, 35.7103644]]]}, "properties": {"osm_id": 1341240332, "building": "yes", "name": "", "height": null, "height_m": null, "levels": null, "tract_id": "40101001000", "tract_name": "10", "tags": {"building": "yes"}}}, {"type": "Feature", "geometry": {"type": "Polygon", "coordinates": [[[-95.3984164, 35.7109043], [-95.3982382, 35.7109019], [-95.3982483, 35.7104069], [-95.3984264, 35.7104093], [-95.3984164, 35.7109043]]]}, "properties": {"osm_id": 1341240333, "building": "yes", "name": "", "height": null, "height_m": null, "levels": null, "tract_id": "40101001000", "tract_name": "10", "tags": {"building": "yes"}}}, {"type": "Feature", "geometry": {"type": "Polygon", "coordinates": [[[-95.406175, 35.7110766], [-95.4060074, 35.7110687], [-95.4060135, 35.7109829], [-95.4061811, 35.7109908], [-95.406175, 35.7110766]]]}, "properties": {"osm_id": 1341240334, "building": "yes", "name": "", "height": null, "height_m": null, "levels": null, "tract_id": "40101001000", "tract_name": "10", "tags": {"building": "yes"}}}, {"type": "Feature", "geometry": {"type": "Polygon", "coordinates": [[[-95.4063792, 35.7101466], [-95.4062707, 35.7101456], [-95.4062724, 35.710031], [-95.4063809, 35.710032], [-95.4063792, 35.7101466]]]}, "properties": {"osm_id": 1341240335, "building": "yes", "name": "", "height": null, "height_m": null, "levels": null, "tract_id": "40101001000", "tract_name": "10", "tags": {"building": "yes"}}}, {"type": "Feature", "geometry": {"type": "Polygon", "coordinates": [[[-95.4055296, 35.7085369], [-95.4047829, 35.7085516], [-95.4047664, 35.7079966], [-95.405513, 35.7079819], [-95.4055296, 35.7085369]]]}, "properties": {"osm_id": 1341240336, "building": "yes", "name": "", "height": null, "height_m": null, "levels": null, "tract_id": "40101001000", "tract_name": "10", "tags": {"building": "yes"}}}, {"type": "Feature", "geometry": {"type": "Polygon", "coordinates": [[[-95.4059953, 35.7083172], [-95.4056493, 35.7083234], [-95.4056454, 35.7081822], [-95.4059914, 35.708176], [-95.4059953, 35.7083172]]]}, "properties": {"osm_id": 1341240337, "building": "yes", "name": "", "height": null, "height_m": null, "levels": null, "tract_id": "40101001000", "tract_name": "10", "tags": {"building": "yes"}}}, {"type": "Feature", "geometry": {"type": "Polygon", "coordinates": [[[-95.405998, 35.7084969], [-95.4056553, 35.7085031], [-95.4056514, 35.7083607], [-95.405994, 35.7083544], [-95.405998, 35.7084969]]]}, "properties": {"osm_id": 1341240338, "building": "yes", "name": "", "height": null, "height_m": null, "levels": null, "tract_id": "40101001000", "tract_name": "10", "tags": {"building": "yes"}}}, {"type": "Feature", "geometry": {"type": "Polygon", "coordinates": [[[-95.3996633, 35.7024493], [-95.3995114, 35.7024487], [-95.3995118, 35.7023722], [-95.3996637, 35.7023728], [-95.3996633, 35.7024493]]]}, "properties": {"osm_id": 1341240339, "building": "yes", "name": "", "height": null, "height_m": null, "levels": null, "tract_id": "40101001000", "tract_name": "10", "tags": {"building": "yes"}}}, {"type": "Feature", "geometry": {"type": "Polygon", "coordinates": [[[-95.3994007, 35.7019845], [-95.3994004, 35.7019369], [-95.399667, 35.7019358], [-95.3996673, 35.7019834], [-95.3994007, 35.7019845]]]}, "properties": {"osm_id": 1341240340, "building": "yes", "name": "", "height": null, "height_m": null, "levels": null, "tract_id": "40101001000", "tract_name": "10", "tags": {"building": "yes"}}}, {"type": "Feature", "geometry": {"type": "Polygon", "coordinates": [[[-95.4009826, 35.7026167], [-95.4008919, 35.7026173], [-95.4008906, 35.7024694], [-95.4009812, 35.7024689], [-95.4009826, 35.7026167]]]}, "properties": {"osm_id": 1341240341, "building": "yes", "name": "", "height": null, "height_m": null, "levels": null, "tract_id": "40101001000", "tract_name": "10", "tags": {"building": "yes"}}}, {"type": "Feature", "geometry": {"type": "Polygon", "coordinates": [[[-95.4006949, 35.7028737], [-95.4006889, 35.7027041], [-95.4007961, 35.7027016], [-95.4008022, 35.7028712], [-95.4006949, 35.7028737]]]}, "properties": {"osm_id": 1341240342, "building": "yes", "name": "", "height": null, "height_m": null, "levels": null, "tract_id": "40101001000", "tract_name": "10", "tags": {"building": "yes"}}}, {"type": "Feature", "geometry": {"type": "Polygon", "coordinates": [[[-95.3986102, 35.7036911], [-95.3984885, 35.703692], [-95.3984865, 35.703518], [-95.3986081, 35.7035171], [-95.3986102, 35.7036911]]]}, "properties": {"osm_id": 1341240343, "building": "yes", "name": "", "height": null, "height_m": null, "levels": null, "tract_id": "40101001000", "tract_name": "10", "tags": {"building": "yes"}}}, {"type": "Feature", "geometry": {"type": "Polygon", "coordinates": [[[-95.399223, 35.7034662], [-95.3992228, 35.703378], [-95.399377, 35.7033777], [-95.3993773, 35.7034659], [-95.399223, 35.7034662]]]}, "properties": {"osm_id": 1341240344, "building": "yes", "name": "", "height": null, "height_m": null, "levels": null, "tract_id": "40101001000", "tract_name": "10", "tags": {"building": "yes"}}}, {"type": "Feature", "geometry": {"type": "Polygon", "coordinates": [[[-95.3997102, 35.7011272], [-95.3999276, 35.7011253], [-95.3999282, 35.7011648], [-95.3997107, 35.7011667], [-95.3997102, 35.7011272]]]}, "properties": {"osm_id": 1341240352, "building": "yes", "name": "", "height": null, "height_m": null, "levels": null, "tract_id": "40101001000", "tract_name": "10", "tags": {"building": "yes"}}}, {"type": "Feature", "geometry": {"type": "Polygon", "coordinates": [[[-95.4001212, 35.7010134], [-95.4000212, 35.7010102], [-95.4000243, 35.7009442], [-95.4001244, 35.7009473], [-95.4001212, 35.7010134]]]}, "properties": {"osm_id": 1341240353, "building": "yes", "name": "", "height": null, "height_m": null, "levels": null, "tract_id": "40101001000", "tract_name": "10", "tags": {"building": "yes"}}}, {"type": "Feature", "geometry": {"type": "Polygon", "coordinates": [[[-95.4024767, 35.6978762], [-95.4023081, 35.6978795], [-95.4023063, 35.6978184], [-95.4024749, 35.6978152], [-95.4024767, 35.6978762]]]}, "properties": {"osm_id": 1341240355, "building": "yes", "name": "", "height": null, "height_m": null, "levels": null, "tract_id": "40101001000", "tract_name": "10", "tags": {"building": "yes"}}}, {"type": "Feature", "geometry": {"type": "Polygon", "coordinates": [[[-95.4020586, 35.6978634], [-95.4020161, 35.6978633], [-95.4020166, 35.6977302], [-95.4020591, 35.6977303], [-95.4020586, 35.6978634]]]}, "properties": {"osm_id": 1341240356, "building": "yes", "name": "", "height": null, "height_m": null, "levels": null, "tract_id": "40101001000", "tract_name": "10", "tags": {"building": "yes"}}}, {"type": "Feature", "geometry": {"type": "Polygon", "coordinates": [[[-95.4021547, 35.6978642], [-95.4020964, 35.6978648], [-95.4020957, 35.697815], [-95.402154, 35.6978144], [-95.4021547, 35.6978642]]]}, "properties": {"osm_id": 1341240357, "building": "yes", "name": "", "height": null, "height_m": null, "levels": null, "tract_id": "40101001000", "tract_name": "10", "tags": {"building": "yes"}}}, {"type": "Feature", "geometry": {"type": "Polygon", "coordinates": [[[-95.402271, 35.6978803], [-95.4021639, 35.6978817], [-95.4021622, 35.6977932], [-95.4022693, 35.6977919], [-95.402271, 35.6978803]]]}, "properties": {"osm_id": 1341240358, "building": "yes", "name": "", "height": null, "height_m": null, "levels": null, "tract_id": "40101001000", "tract_name": "10", "tags": {"building": "yes"}}}, {"type": "Feature", "geometry": {"type": "Polygon", "coordinates": [[[-95.402373, 35.6975585], [-95.402242, 35.6975659], [-95.4022273, 35.6973938], [-95.4023582, 35.6973864], [-95.402373, 35.6975585]]]}, "properties": {"osm_id": 1341240359, "building": "yes", "name": "", "height": null, "height_m": null, "levels": null, "tract_id": "40101001000", "tract_name": "10", "tags": {"building": "yes"}}}, {"type": "Feature", "geometry": {"type": "Polygon", "coordinates": [[[-95.4023441, 35.6995611], [-95.4022361, 35.6995606], [-95.4022368, 35.6994529], [-95.4023448, 35.6994534], [-95.4023441, 35.6995611]]]}, "properties": {"osm_id": 1341240360, "building": "yes", "name": "", "height": null, "height_m": null, "levels": null, "tract_id": "40101001000", "tract_name": "10", "tags": {"building": "yes"}}}, {"type": "Feature", "geometry": {"type": "Polygon", "coordinates": [[[-95.4023341, 35.6994489], [-95.4022297, 35.69945], [-95.4022271, 35.699285], [-95.4023314, 35.6992839], [-95.4023341, 35.6994489]]]}, "properties": {"osm_id": 1341240361, "building": "yes", "name": "", "height": null, "height_m": null, "levels": null, "tract_id": "40101001000", "tract_name": "10", "tags": {"building": "yes"}}}, {"type": "Feature", "geometry": {"type": "Polygon", "coordinates": [[[-95.4024135, 35.6991556], [-95.4023436, 35.6991572], [-95.4023396, 35.6990357], [-95.4024095, 35.6990342], [-95.4024135, 35.6991556]]]}, "properties": {"osm_id": 1341240362, "building": "yes", "name": "", "height": null, "height_m": null, "levels": null, "tract_id": "40101001000", "tract_name": "10", "tags": {"building": "yes"}}}, {"type": "Feature", "geometry": {"type": "Polygon", "coordinates": [[[-95.3983557, 35.7002954], [-95.3984254, 35.7001708], [-95.3988032, 35.7003102], [-95.3987335, 35.7004348], [-95.3983557, 35.7002954]]]}, "properties": {"osm_id": 1341240363, "building": "yes", "name": "", "height": null, "height_m": null, "levels": null, "tract_id": "40101001000", "tract_name": "10", "tags": {"building": "yes"}}}, {"type": "Feature", "geometry": {"type": "Polygon", "coordinates": [[[-95.4008568, 35.7009643], [-95.4007062, 35.7009666], [-95.4007029, 35.7008196], [-95.4008535, 35.7008173], [-95.4008568, 35.7009643]]]}, "properties": {"osm_id": 1341240364, "building": "yes", "name": "", "height": null, "height_m": null, "levels": null, "tract_id": "40101001000", "tract_name": "10", "tags": {"building": "yes"}}}, {"type": "Feature", "geometry": {"type": "Polygon", "coordinates": [[[-95.4011472, 35.7010556], [-95.4010114, 35.7010585], [-95.4010087, 35.7009767], [-95.4011445, 35.7009737], [-95.4011472, 35.7010556]]]}, "properties": {"osm_id": 1341240365, "building": "yes", "name": "", "height": null, "height_m": null, "levels": null, "tract_id": "40101001000", "tract_name": "10", "tags": {"building": "yes"}}}, {"type": "Feature", "geometry": {"type": "Polygon", "coordinates": [[[-95.402319, 35.7005682], [-95.4021755, 35.7005692], [-95.4021738, 35.7004179], [-95.4023173, 35.7004168], [-95.402319, 35.7005682]]]}, "properties": {"osm_id": 1341240366, "building": "yes", "name": "", "height": null, "height_m": null, "levels": null, "tract_id": "40101001000", "tract_name": "10", "tags": {"building": "yes"}}}, {"type": "Feature", "geometry": {"type": "Polygon", "coordinates": [[[-95.4023066, 35.7003237], [-95.4021011, 35.700324], [-95.4021008, 35.7002197], [-95.4023064, 35.7002194], [-95.4023066, 35.7003237]]]}, "properties": {"osm_id": 1341240367, "building": "yes", "name": "", "height": null, "height_m": null, "levels": null, "tract_id": "40101001000", "tract_name": "10", "tags": {"building": "yes"}}}, {"type": "Feature", "geometry": {"type": "Polygon", "coordinates": [[[-95.4019519, 35.7001485], [-95.4017562, 35.7001497], [-95.4017554, 35.7000646], [-95.401951, 35.7000634], [-95.4019519, 35.7001485]]]}, "properties": {"osm_id": 1341240368, "building": "yes", "name": "", "height": null, "height_m": null, "levels": null, "tract_id": "40101001000", "tract_name": "10", "tags": {"building": "yes"}}}, {"type": "Feature", "geometry": {"type": "Polygon", "coordinates": [[[-95.4021353, 35.7001462], [-95.4020252, 35.7001483], [-95.4020205, 35.6999918], [-95.4021306, 35.6999896], [-95.4021353, 35.7001462]]]}, "properties": {"osm_id": 1341240369, "building": "yes", "name": "", "height": null, "height_m": null, "levels": null, "tract_id": "40101001000", "tract_name": "10", "tags": {"building": "yes"}}}, {"type": "Feature", "geometry": {"type": "Polygon", "coordinates": [[[-95.4063328, 35.712349], [-95.4063159, 35.7122665], [-95.4062146, 35.7122802], [-95.4062082, 35.712249], [-95.4061772, 35.7122532], [-95.4061837, 35.7122852], [-95.4060601, 35.7123019], [-95.4060661, 35.7123311], [-95.4060425, 35.7123343], [-95.4060491, 35.7123666], [-95.4060802, 35.7123624], [-95.4060876, 35.7123983], [-95.4061285, 35.7123927], [-95.4061336, 35.7124176], [-95.4061816, 35.7124111], [-95.4061733, 35.7123705], [-95.4063328, 35.712349]]]}, "properties": {"osm_id": 1424484899, "building": "yes", "name": "Indian Smoke Shop", "height": null, "height_m": null, "levels": null, "tract_id": "40101001000", "tract_name": "10", "tags": {"addr:city": "Muskogee", "addr:housenumber": "3400", "addr:postcode": "74401", "addr:state": "OK", "addr:street": "West Peak Boulevard", "building": "yes", "name": "Indian Smoke Shop", "operator": "Muscogee Indian Community", "shop": "tobacco"}}}, {"type": "Feature", "geometry": {"type": "Polygon", "coordinates": [[[-95.4043238, 35.7129096], [-95.4040426, 35.7129111], [-95.4040386, 35.7124264], [-95.4042554, 35.7124252], [-95.4042574, 35.7126617], [-95.4043217, 35.7126614], [-95.4043238, 35.7129096]]]}, "properties": {"osm_id": 1424484900, "building": "yes", "name": "", "height": null, "height_m": null, "levels": null, "tract_id": "40101001000", "tract_name": "10", "tags": {"addr:city": "Muskogee", "addr:housenumber": "3410", "addr:postcode": "74401", "addr:state": "OK", "addr:street": "West Peak Boulevard", "building": "yes", "shop": "vacant"}}}, {"type": "Feature", "geometry": {"type": "Polygon", "coordinates": [[[-95.4078427, 35.7122363], [-95.4075885, 35.7122385], [-95.4075878, 35.7121883], [-95.4075638, 35.7121885], [-95.4075631, 35.7121361], [-95.4075938, 35.7121358], [-95.4075932, 35.7120857], [-95.4077066, 35.7120847], [-95.4077035, 35.7118571], [-95.4077197, 35.7118569], [-95.4077186, 35.7117749], [-95.4078314, 35.7117739], [-95.4078347, 35.7120223], [-95.4078937, 35.7120218], [-95.4078918, 35.7118812], [-95.4080298, 35.71188], [-95.4080327, 35.7121023], [-95.4078852, 35.7121036], [-95.4078844, 35.7120432], [-95.4078402, 35.7120436], [-95.4078427, 35.7122363]]]}, "properties": {"osm_id": 1424484902, "building": "yes", "name": "Fairview Church", "height": null, "height_m": null, "levels": null, "tract_id": "40101001000", "tract_name": "10", "tags": {"addr:city": "Muskogee", "addr:housenumber": "3510", "addr:postcode": "74401", "addr:state": "OK", "addr:street": "West Peak Boulevard", "amenity": "place_of_worship", "building": "yes", "ele": "184", "gnis:feature_id": "1092734", "name": "Fairview Church", "religion": "christian"}}}]}