{"type": "FeatureCollection", "features": [{"type": "Feature", "geometry": {"type": "Polygon", "coordinates": [[[-97.5150245, 35.6681694], [-97.5150209, 35.6678949], [-97.5145307, 35.6678991], [-97.5145343, 35.6681736], [-97.5150245, 35.6681694]]]}, "properties": {"osm_id": 250263305, "building": "yes", "name": "CVS Pharmacy", "height": null, "height_m": null, "levels": null, "tract_id": "40109108228", "tract_name": "1082.28", "tags": {"addr:city": "Edmond", "addr:housenumber": "1301", "addr:postcode": "73003", "addr:state": "OK", "addr:street": "North Santa Fe Avenue", "amenity": "pharmacy", "brand": "CVS Pharmacy", "brand:website": "https://www.cvs.com/", "brand:wikidata": "Q2078880", "building": "yes", "drive_through": "yes", "healthcare": "pharmacy", "name": "CVS Pharmacy", "short_name": "CVS", "source": "Bing", "website": "https://www.cvs.com/store-locator/edmond-ok-pharmacies/1301-n-santa-fe-ave-edmond-ok-73003/storeid=6096"}}}, {"type": "Feature", "geometry": {"type": "Polygon", "coordinates": [[[-97.5148269, 35.6704695], [-97.5145812, 35.67047], [-97.5145805, 35.670214], [-97.5148262, 35.6702135], [-97.5148269, 35.6704695]]]}, "properties": {"osm_id": 913759199, "building": "yes", "name": "AutoZone", "height": null, "height_m": null, "levels": null, "tract_id": "40109108228", "tract_name": "1082.28", "tags": {"brand": "AutoZone", "brand:wikidata": "Q4826087", "building": "yes", "name": "AutoZone", "shop": "car_parts", "website": "https://www.autozone.com/locations/ok/edmond/1541-n-santa-fe-ave.html"}}}, {"type": "Feature", "geometry": {"type": "Polygon", "coordinates": [[[-97.5188393, 35.6681823], [-97.5187588, 35.6681812], [-97.5187589, 35.6681745], [-97.5186673, 35.6681733], [-97.518667, 35.6681897], [-97.5186326, 35.6681893], [-97.5186312, 35.6682638], [-97.5184757, 35.6682619], [-97.5184775, 35.6681641], [-97.5184848, 35.6681642], [-97.5184866, 35.6680744], [-97.5186155, 35.6680761], [-97.5186156, 35.6680703], [-97.518666, 35.668071], [-97.5186654, 35.6681016], [-97.5187605, 35.668103], [-97.5187607, 35.6680936], [-97.5188412, 35.6680948], [-97.5188393, 35.6681823]]]}, "properties": {"osm_id": 989836050, "building": "yes", "name": "", "height": null, "height_m": null, "levels": null, "tract_id": "40109108228", "tract_name": "1082.28", "tags": {"building": "yes"}}}, {"type": "Feature", "geometry": {"type": "Polygon", "coordinates": [[[-97.5166004, 35.6681917], [-97.5165989, 35.6679341], [-97.5166345, 35.6679028], [-97.5171093, 35.6679011], [-97.5171109, 35.6681898], [-97.5166004, 35.6681917]]]}, "properties": {"osm_id": 1149706086, "building": "retail", "name": "Goodwill Thrift Store & Donation Center", "height": null, "height_m": null, "levels": null, "tract_id": "40109108228", "tract_name": "1082.28", "tags": {"addr:city": "Edmond", "addr:housenumber": "2525", "addr:postcode": "73003", "addr:state": "OK", "addr:street": "West Danforth Road", "building": "retail", "name": "Goodwill Thrift Store & Donation Center", "phone": "405-509-2203", "second_hand": "only", "shop": "second_hand", "url": "https://okgoodwill.org/"}}}, {"type": "Feature", "geometry": {"type": "Polygon", "coordinates": [[[-97.5282287, 35.6815], [-97.5283096, 35.6815064], [-97.5283143, 35.6814676], [-97.5283913, 35.6814737], [-97.5283894, 35.6814901], [-97.5284584, 35.6814955], [-97.528461, 35.681474], [-97.5285821, 35.6814836], [-97.5285908, 35.6814111], [-97.5284686, 35.6814014], [-97.5284755, 35.6813444], [-97.5283958, 35.6813381], [-97.5283949, 35.6813455], [-97.5282488, 35.6813338], [-97.5282287, 35.6815]]]}, "properties": {"osm_id": 1252221734, "building": "yes", "name": "", "height": null, "height_m": null, "levels": null, "tract_id": "40109108228", "tract_name": "1082.28", "tags": {"building": "yes", "source": "microsoft/BuildingFootprints"}}}, {"type": "Feature", "geometry": {"type": "Polygon", "coordinates": [[[-97.5267198, 35.6808686], [-97.526802, 35.6809711], [-97.5267474, 35.681], [-97.5268198, 35.6810902], [-97.5270344, 35.6809766], [-97.5269596, 35.6808833], [-97.5269351, 35.6808963], [-97.5268554, 35.6807969], [-97.5267198, 35.6808686]]]}, "properties": {"osm_id": 1252221735, "building": "yes", "name": "", "height": null, "height_m": null, "levels": null, "tract_id": "40109108228", "tract_name": "1082.28", "tags": {"building": "yes", "source": "microsoft/BuildingFootprints"}}}, {"type": "Feature", "geometry": {"type": "Polygon", "coordinates": [[[-97.5203901, 35.6804941], [-97.5202346, 35.6803981], [-97.520161, 35.6804767], [-97.5201958, 35.6804983], [-97.5201687, 35.6805273], [-97.5201236, 35.6804994], [-97.520006, 35.680625], [-97.5200698, 35.6806644], [-97.5200465, 35.6806892], [-97.5201815, 35.6807727], [-97.5202293, 35.6807216], [-97.5202082, 35.6807085], [-97.5202456, 35.6806685], [-97.5203578, 35.6807378], [-97.5204224, 35.6806688], [-97.5203544, 35.6806268], [-97.5203906, 35.6805881], [-97.5203346, 35.6805535], [-97.5203901, 35.6804941]]]}, "properties": {"osm_id": 1252222077, "building": "yes", "name": "", "height": null, "height_m": null, "levels": null, "tract_id": "40109108228", "tract_name": "1082.28", "tags": {"building": "yes", "source": "microsoft/BuildingFootprints"}}}, {"type": "Feature", "geometry": {"type": "Polygon", "coordinates": [[[-97.5146999, 35.6760141], [-97.5146981, 35.6761121], [-97.5146488, 35.6761115], [-97.5146495, 35.6760745], [-97.5144993, 35.6760727], [-97.5144973, 35.676186], [-97.5148111, 35.6761897], [-97.5148127, 35.676096], [-97.5148798, 35.6760968], [-97.5148812, 35.6760162], [-97.5146999, 35.6760141]]]}, "properties": {"osm_id": 1252222225, "building": "yes", "name": "", "height": null, "height_m": null, "levels": null, "tract_id": "40109108228", "tract_name": "1082.28", "tags": {"building": "yes", "source": "microsoft/BuildingFootprints"}}}, {"type": "Feature", "geometry": {"type": "Polygon", "coordinates": [[[-97.5144811, 35.6699166], [-97.514681, 35.6699179], [-97.5146861, 35.6693674], [-97.5144861, 35.6693662], [-97.5144811, 35.6699166]]]}, "properties": {"osm_id": 1253460047, "building": "yes", "name": "", "height": null, "height_m": null, "levels": null, "tract_id": "40109108228", "tract_name": "1082.28", "tags": {"building": "yes", "source": "microsoft/BuildingFootprints"}}}, {"type": "Feature", "geometry": {"type": "Polygon", "coordinates": [[[-97.5149547, 35.6710486], [-97.5149527, 35.6706477], [-97.5146939, 35.6706485], [-97.5146943, 35.6707414], [-97.5146393, 35.6707416], [-97.5146398, 35.6708339], [-97.514499, 35.6708344], [-97.5144995, 35.6709425], [-97.5146363, 35.6709421], [-97.5146368, 35.67103], [-97.5146958, 35.6710298], [-97.5146959, 35.6710494], [-97.5149547, 35.6710486]]]}, "properties": {"osm_id": 1253460048, "building": "yes", "name": "", "height": null, "height_m": null, "levels": null, "tract_id": "40109108228", "tract_name": "1082.28", "tags": {"building": "yes", "source": "microsoft/BuildingFootprints"}}}]}