{"type": "FeatureCollection", "features": [{"type": "Feature", "geometry": {"type": "Polygon", "coordinates": [[[-98.6962285, 35.5257856], [-98.6960085, 35.5257856], [-98.6960085, 35.5256524], [-98.6962285, 35.5256524], [-98.6962285, 35.5257856]]]}, "properties": {"osm_id": 457511420, "building": "yes", "name": "Jerry's Restaurant", "height": null, "height_m": null, "levels": null, "tract_id": "40039960701", "tract_name": "9607.01", "tags": {"addr:city": "Weatherford", "addr:country": "US", "addr:housenumber": "1000", "addr:postcode": "73096", "addr:state": "OK", "addr:street": "East Main Street", "amenity": "restaurant", "building": "yes", "contact:phone": "+1 580-772-3707", "contact:website": "https://www.jerrys66.com", "cuisine": "american", "name": "Jerry's Restaurant", "opening_hours": "Mo-Fr 06:00-15:00;Sa-Su 06:00-16:00", "takeaway": "yes"}}}, {"type": "Feature", "geometry": {"type": "Polygon", "coordinates": [[[-98.7018666, 35.5318682], [-98.7017928, 35.5318661], [-98.7017948, 35.5318222], [-98.7017995, 35.5318224], [-98.7018685, 35.5318244], [-98.701868, 35.531835], [-98.7018666, 35.5318682]]]}, "properties": {"osm_id": 492666178, "building": "yes", "name": "", "height": null, "height_m": null, "levels": null, "tract_id": "40039960701", "tract_name": "9607.01", "tags": {"building": "yes"}}}, {"type": "Feature", "geometry": {"type": "Polygon", "coordinates": [[[-98.7020543, 35.5318617], [-98.7019028, 35.5318606], [-98.7019034, 35.531806], [-98.7020549, 35.5318071], [-98.7020543, 35.5318617]]]}, "properties": {"osm_id": 492666179, "building": "yes", "name": "", "height": null, "height_m": null, "levels": null, "tract_id": "40039960701", "tract_name": "9607.01", "tags": {"building": "yes"}}}, {"type": "Feature", "geometry": {"type": "Polygon", "coordinates": [[[-98.7014055, 35.5317434], [-98.701291, 35.5317416], [-98.7012765, 35.5317414], [-98.7012797, 35.5315961], [-98.7012929, 35.5315963], [-98.7014041, 35.5315986], [-98.7014055, 35.5317434]]]}, "properties": {"osm_id": 492666180, "building": "yes", "name": "", "height": null, "height_m": null, "levels": null, "tract_id": "40039960701", "tract_name": "9607.01", "tags": {"building": "yes"}}}, {"type": "Feature", "geometry": {"type": "Polygon", "coordinates": [[[-98.7016413, 35.5318279], [-98.7016399, 35.5319839], [-98.7015527, 35.5319834], [-98.7015526, 35.5320016], [-98.7014989, 35.5320013], [-98.7014991, 35.5319831], [-98.701346, 35.5319823], [-98.7013474, 35.5318262], [-98.7016413, 35.5318279]]]}, "properties": {"osm_id": 492666181, "building": "yes", "name": "", "height": null, "height_m": null, "levels": null, "tract_id": "40039960701", "tract_name": "9607.01", "tags": {"building": "yes"}}}, {"type": "Feature", "geometry": {"type": "Polygon", "coordinates": [[[-98.7022381, 35.5316031], [-98.7021494, 35.5316027], [-98.7021508, 35.5314008], [-98.702222, 35.5314011], [-98.7022394, 35.5314011], [-98.7022381, 35.5316031]]]}, "properties": {"osm_id": 492666185, "building": "yes", "name": "Weatherford Municipal SwimmingPool", "height": null, "height_m": null, "levels": null, "tract_id": "40039960701", "tract_name": "9607.01", "tags": {"addr:housenumber": "E Huber Ave & N Indiana Street, Weatherford, OK 73096, EE. UU.", "building": "yes", "name": "Weatherford Municipal SwimmingPool", "opening_hours": "13:00-17:00", "phone": "+1 580-774-2450", "website": "https://cityofweatherford.com/"}}}, {"type": "Feature", "geometry": {"type": "Polygon", "coordinates": [[[-98.703327, 35.5320003], [-98.7032007, 35.5320038], [-98.7031967, 35.5319066], [-98.703323, 35.5319032], [-98.703327, 35.5320003]]]}, "properties": {"osm_id": 492666195, "building": "yes", "name": "", "height": null, "height_m": null, "levels": null, "tract_id": "40039960701", "tract_name": "9607.01", "tags": {"building": "yes"}}}, {"type": "Feature", "geometry": {"type": "Polygon", "coordinates": [[[-98.7028469, 35.5319512], [-98.7028446, 35.5320112], [-98.7026353, 35.5320057], [-98.7026377, 35.5319457], [-98.7028469, 35.5319512]]]}, "properties": {"osm_id": 492666200, "building": "yes", "name": "", "height": null, "height_m": null, "levels": null, "tract_id": "40039960701", "tract_name": "9607.01", "tags": {"building": "yes"}}}, {"type": "Feature", "geometry": {"type": "Polygon", "coordinates": [[[-98.702796, 35.5313357], [-98.7025841, 35.5313324], [-98.7025854, 35.5312734], [-98.7027973, 35.5312767], [-98.702796, 35.5313357]]]}, "properties": {"osm_id": 492666202, "building": "yes", "name": "", "height": null, "height_m": null, "levels": null, "tract_id": "40039960701", "tract_name": "9607.01", "tags": {"building": "yes"}}}, {"type": "Feature", "geometry": {"type": "Polygon", "coordinates": [[[-98.6943543, 35.5268526], [-98.6943531, 35.5269781], [-98.6947139, 35.5269804], [-98.6947151, 35.5268549], [-98.6943543, 35.5268526]]]}, "properties": {"osm_id": 594296727, "building": "retail", "name": "McDonald's", "height": null, "height_m": null, "levels": null, "tract_id": "40039960701", "tract_name": "9607.01", "tags": {"amenity": "fast_food", "brand": "McDonald's", "brand:wikidata": "Q38076", "building": "retail", "cuisine": "burger", "name": "McDonald's", "takeaway": "yes", "website": "https://www.mcdonalds.com/us/en-us/location/ok/weatherford/105-n-washington/29811.html"}}}, {"type": "Feature", "geometry": {"type": "Polygon", "coordinates": [[[-98.6954245, 35.5255729], [-98.6954193, 35.5253075], [-98.6953136, 35.5253106], [-98.6953143, 35.525299], [-98.6952071, 35.5252996], [-98.6952052, 35.5252164], [-98.6952042, 35.5251739], [-98.6950927, 35.5251757], [-98.6950927, 35.5252155], [-98.6950927, 35.5253007], [-98.695052, 35.5253001], [-98.6950498, 35.5253118], [-98.6949734, 35.5253129], [-98.6949762, 35.5254671], [-98.6949569, 35.5254688], [-98.6949619, 35.5256055], [-98.695264, 35.5256525], [-98.6952823, 35.5256066], [-98.6952981, 35.5255969], [-98.6953278, 35.5255925], [-98.6953293, 35.5255748], [-98.6954245, 35.5255729]]]}, "properties": {"osm_id": 947006299, "building": "yes", "name": "First National Bank & Trust of Weatherford", "height": null, "height_m": null, "levels": null, "tract_id": "40039960701", "tract_name": "9607.01", "tags": {"amenity": "bank", "building": "yes", "drive_through": "yes", "name": "First National Bank & Trust of Weatherford"}}}, {"type": "Feature", "geometry": {"type": "Polygon", "coordinates": [[[-98.6965163, 35.5270528], [-98.6964812, 35.5270529], [-98.6964811, 35.5270204], [-98.6962998, 35.5270208], [-98.6963006, 35.5272528], [-98.6962628, 35.5272529], [-98.6962632, 35.5273635], [-98.6963101, 35.5273634], [-98.6963111, 35.5276055], [-98.6964802, 35.5276051], [-98.6964801, 35.5275742], [-98.6965182, 35.5275741], [-98.6965163, 35.5270528]]]}, "properties": {"osm_id": 1056602045, "building": "yes", "name": "Fairfield Inn & Suites", "height": null, "height_m": null, "levels": null, "tract_id": "40039960701", "tract_name": "9607.01", "tags": {"addr:city": "Weatherford", "addr:housenumber": "201", "addr:postcode": "73096", "addr:state": "OK", "addr:street": "North Nevada Street", "branch": "Weatherford", "brand": "Fairfield Inn & Suites", "brand:wikidata": "Q5430314", "building": "yes", "name": "Fairfield Inn & Suites", "official_name": "Fairfield Inn & Suites by Marriott", "ref": "OJAFI", "tourism": "hotel", "website": "https://www.marriott.com/ojafi"}}}, {"type": "Feature", "geometry": {"type": "Polygon", "coordinates": [[[-98.696997, 35.5329267], [-98.6969501, 35.5329265], [-98.69695, 35.5329433], [-98.6969191, 35.5329432], [-98.6969187, 35.5330123], [-98.6969046, 35.5330123], [-98.6969043, 35.5330722], [-98.6969552, 35.5330724], [-98.696955, 35.5331185], [-98.6970529, 35.5331189], [-98.6970531, 35.533087], [-98.6970718, 35.5330871], [-98.6970724, 35.5329758], [-98.6970525, 35.5329757], [-98.6970528, 35.5329269], [-98.697153, 35.5327931], [-98.6971687, 35.532793], [-98.6972183, 35.5327927], [-98.6972545, 35.5327937], [-98.6972538, 35.5327364], [-98.6972183, 35.5327359], [-98.6971592, 35.5327373], [-98.6970688, 35.5326377], [-98.6970688, 35.5326142], [-98.6971258, 35.5326153], [-98.6971238, 35.5324691], [-98.6968428, 35.5324696], [-98.6968414, 35.5326137], [-98.6969829, 35.5326131], [-98.6969293, 35.5326944], [-98.6968944, 35.5327594], [-98.696932, 35.532839], [-98.696997, 35.5329267]]]}, "properties": {"osm_id": 1121043208, "building": "church", "name": "Saint Eugene Catholic Church", "height": null, "height_m": null, "levels": null, "tract_id": "40039960701", "tract_name": "9607.01", "tags": {"addr:city": "Weatherford", "addr:housenumber": "704", "addr:postcode": "73096", "addr:state": "OK", "addr:street": "North Bryan Street", "amenity": "place_of_worship", "building": "church", "denomination": "roman_catholic", "diocese": "Oklahoma_City", "ele": "509", "gnis:feature_id": "1790120", "name": "Saint Eugene Catholic Church", "phone": "+1-580-772-3209", "religion": "christian", "website": "https://www.steugenewf.com/"}}}, {"type": "Feature", "geometry": {"type": "Polygon", "coordinates": [[[-98.6967771, 35.5325416], [-98.6965173, 35.5325481], [-98.6964847, 35.5325476], [-98.696477, 35.5325636], [-98.6964525, 35.532618], [-98.6964887, 35.5326955], [-98.6967717, 35.5326922], [-98.6967945, 35.5326224], [-98.6967771, 35.5325416]]]}, "properties": {"osm_id": 1121043209, "building": "yes", "name": "", "height": null, "height_m": null, "levels": null, "tract_id": "40039960701", "tract_name": "9607.01", "tags": {"building": "yes"}}}, {"type": "Feature", "geometry": {"type": "Polygon", "coordinates": [[[-98.6917771, 35.528618], [-98.6916099, 35.5284435], [-98.6911689, 35.5287232], [-98.6913255, 35.5288741], [-98.6917771, 35.528618]]]}, "properties": {"osm_id": 1225716738, "building": "yes", "name": "Comfort Inn & Suites", "height": null, "height_m": null, "levels": null, "tract_id": "40039960701", "tract_name": "9607.01", "tags": {"addr:city": "Weatherford", "addr:housenumber": "1311", "addr:postcode": "73096", "addr:state": "OK", "addr:street": "East Main Street", "brand": "Comfort Inn & Suites", "brand:wikidata": "Q113152349", "building": "yes", "name": "Comfort Inn & Suites", "phone": "+1 580-772-9100", "ref": "OK129", "tourism": "hotel", "website": "https://www.choicehotels.com/oklahoma/weatherford/comfort-inn-hotels"}}}, {"type": "Feature", "geometry": {"type": "Polygon", "coordinates": [[[-98.7019794, 35.5269941], [-98.7019802, 35.5268987], [-98.7014281, 35.526896], [-98.7014284, 35.5268574], [-98.7017866, 35.5268591], [-98.7017917, 35.5261676], [-98.701513, 35.5261662], [-98.7012723, 35.526165], [-98.7012709, 35.5263586], [-98.7013831, 35.5263592], [-98.7013842, 35.5262215], [-98.7015138, 35.5262221], [-98.7017028, 35.5262231], [-98.7016985, 35.5267924], [-98.7012866, 35.5267903], [-98.7012851, 35.5269906], [-98.7019794, 35.5269941]]]}, "properties": {"osm_id": 1225718327, "building": "yes", "name": "Best Western Plus Weatherford", "height": null, "height_m": null, "levels": null, "tract_id": "40039960701", "tract_name": "9607.01", "tags": {"addr:city": "Weatherford", "addr:housenumber": "525", "addr:postcode": "73096", "addr:state": "OK", "addr:street": "East Main Street", "brand": "Best Western Plus", "brand:wikidata": "Q38623383", "building": "yes", "name": "Best Western Plus Weatherford", "tourism": "hotel"}}}, {"type": "Feature", "geometry": {"type": "Polygon", "coordinates": [[[-98.7010727, 35.5259116], [-98.70107, 35.5255103], [-98.7003258, 35.5255136], [-98.7003284, 35.5259045], [-98.7005467, 35.5259035], [-98.7005462, 35.5258333], [-98.7004115, 35.525834], [-98.7004097, 35.5255819], [-98.7009556, 35.5255794], [-98.7009579, 35.5259121], [-98.7010727, 35.5259116]]]}, "properties": {"osm_id": 1336667519, "building": "yes", "name": "", "height": null, "height_m": null, "levels": null, "tract_id": "40039960701", "tract_name": "9607.01", "tags": {"building": "yes", "tourism": "motel"}}}, {"type": "Feature", "geometry": {"type": "Polygon", "coordinates": [[[-98.6979108, 35.5261964], [-98.698206, 35.5262022], [-98.6981969, 35.5265122], [-98.6978742, 35.5265059], [-98.6978777, 35.5263887], [-98.6979349, 35.5263898], [-98.6979381, 35.5262811], [-98.6979084, 35.5262805], [-98.6979108, 35.5261964]]]}, "properties": {"osm_id": 1364382488, "building": "yes", "name": "", "height": null, "height_m": null, "levels": null, "tract_id": "40039960701", "tract_name": "9607.01", "tags": {"building": "yes"}}}, {"type": "Feature", "geometry": {"type": "Polygon", "coordinates": [[[-98.6992057, 35.5262267], [-98.6998361, 35.5262261], [-98.6998364, 35.526417], [-98.699206, 35.5264178], [-98.6992057, 35.5262267]]]}, "properties": {"osm_id": 1364382489, "building": "yes", "name": "", "height": null, "height_m": null, "levels": null, "tract_id": "40039960701", "tract_name": "9607.01", "tags": {"building": "yes"}}}, {"type": "Feature", "geometry": {"type": "Polygon", "coordinates": [[[-98.7021425, 35.525645], [-98.7021393, 35.5258512], [-98.7020261, 35.52585], [-98.7020293, 35.5256438], [-98.7021425, 35.525645]]]}, "properties": {"osm_id": 1364382490, "building": "yes", "name": "", "height": null, "height_m": null, "levels": null, "tract_id": "40039960701", "tract_name": "9607.01", "tags": {"building": "yes"}}}, {"type": "Feature", "geometry": {"type": "Polygon", "coordinates": [[[-98.7032315, 35.5236851], [-98.7032005, 35.5237089], [-98.7031805, 35.5237395], [-98.7031737, 35.5237737], [-98.7031807, 35.5238079], [-98.7032009, 35.5238385], [-98.7032321, 35.5238621], [-98.7032709, 35.5238764], [-98.7033142, 35.5238796], [-98.7033564, 35.5238712], [-98.7033929, 35.5238519], [-98.7034196, 35.523824], [-98.7034336, 35.5237905], [-98.7034334, 35.5237551], [-98.7034189, 35.5237218], [-98.7033918, 35.5236941], [-98.703355, 35.5236752], [-98.7033127, 35.5236672], [-98.7032703, 35.5236707], [-98.7032315, 35.5236851]]]}, "properties": {"osm_id": 1443168370, "building": "yes", "name": "", "height": null, "height_m": null, "levels": null, "tract_id": "40039960701", "tract_name": "9607.01", "tags": {"building": "yes", "man_made": "silo"}}}, {"type": "Feature", "geometry": {"type": "Polygon", "coordinates": [[[-98.7029334, 35.5236896], [-98.7029024, 35.5237134], [-98.7028824, 35.523744], [-98.7028755, 35.5237783], [-98.7028826, 35.5238125], [-98.7029028, 35.523843], [-98.7029339, 35.5238667], [-98.7029728, 35.5238809], [-98.7030161, 35.5238842], [-98.7030583, 35.5238757], [-98.7030948, 35.5238565], [-98.7031215, 35.5238285], [-98.7031355, 35.5237951], [-98.7031352, 35.5237597], [-98.7031207, 35.5237263], [-98.7030936, 35.5236987], [-98.7030569, 35.5236798], [-98.7030145, 35.5236717], [-98.7029721, 35.5236752], [-98.7029334, 35.5236896]]]}, "properties": {"osm_id": 1443168371, "building": "yes", "name": "", "height": null, "height_m": null, "levels": null, "tract_id": "40039960701", "tract_name": "9607.01", "tags": {"building": "yes", "man_made": "silo"}}}, {"type": "Feature", "geometry": {"type": "Polygon", "coordinates": [[[-98.7005739, 35.523814], [-98.7005746, 35.5236144], [-98.7009791, 35.5236155], [-98.7009784, 35.523815], [-98.7005739, 35.523814]]]}, "properties": {"osm_id": 1443168373, "building": "industrial", "name": "", "height": null, "height_m": null, "levels": null, "tract_id": "40039960701", "tract_name": "9607.01", "tags": {"building": "industrial"}}}, {"type": "Feature", "geometry": {"type": "Polygon", "coordinates": [[[-98.7001558, 35.5238212], [-98.7003618, 35.5238217], [-98.7003632, 35.5234054], [-98.7001573, 35.5234049], [-98.7001558, 35.5238212]]]}, "properties": {"osm_id": 1443168374, "building": "industrial", "name": "", "height": null, "height_m": null, "levels": null, "tract_id": "40039960701", "tract_name": "9607.01", "tags": {"building": "industrial"}}}, {"type": "Feature", "geometry": {"type": "Polygon", "coordinates": [[[-98.6994203, 35.524122], [-98.6996181, 35.5241219], [-98.6996177, 35.5236672], [-98.6996678, 35.5236672], [-98.6996677, 35.5235555], [-98.6994198, 35.5235557], [-98.6994203, 35.524122]]]}, "properties": {"osm_id": 1443168375, "building": "industrial", "name": "", "height": null, "height_m": null, "levels": null, "tract_id": "40039960701", "tract_name": "9607.01", "tags": {"building": "industrial"}}}, {"type": "Feature", "geometry": {"type": "Polygon", "coordinates": [[[-98.6998905, 35.5243854], [-98.6998915, 35.5242672], [-98.699424, 35.5242646], [-98.699423, 35.5243829], [-98.6998905, 35.5243854]]]}, "properties": {"osm_id": 1443168376, "building": "industrial", "name": "", "height": null, "height_m": null, "levels": null, "tract_id": "40039960701", "tract_name": "9607.01", "tags": {"building": "industrial"}}}, {"type": "Feature", "geometry": {"type": "Polygon", "coordinates": [[[-98.7037213, 35.5238102], [-98.7039898, 35.5238073], [-98.7039843, 35.5234588], [-98.7038384, 35.5234603], [-98.7038405, 35.5235934], [-98.7037179, 35.5235947], [-98.7037213, 35.5238102]]]}, "properties": {"osm_id": 1443168378, "building": "yes", "name": "", "height": null, "height_m": null, "levels": null, "tract_id": "40039960701", "tract_name": "9607.01", "tags": {"building": "yes", "man_made": "silo"}}}, {"type": "Feature", "geometry": {"type": "Polygon", "coordinates": [[[-98.7052765, 35.5238211], [-98.705277, 35.5237057], [-98.7053059, 35.5237058], [-98.7053066, 35.5235768], [-98.705271, 35.5235767], [-98.7052713, 35.523513], [-98.7051284, 35.5235125], [-98.7051287, 35.5234626], [-98.7049105, 35.5234619], [-98.7049089, 35.5237544], [-98.7049423, 35.5237545], [-98.704942, 35.52382], [-98.7052765, 35.5238211]]]}, "properties": {"osm_id": 1443168379, "building": "yes", "name": "", "height": null, "height_m": null, "levels": null, "tract_id": "40039960701", "tract_name": "9607.01", "tags": {"building": "yes"}}}, {"type": "Feature", "geometry": {"type": "Polygon", "coordinates": [[[-98.7042244, 35.5235194], [-98.7042238, 35.5234636], [-98.7045785, 35.5234611], [-98.704579, 35.523517], [-98.7042244, 35.5235194]]]}, "properties": {"osm_id": 1443168383, "building": "industrial", "name": "", "height": null, "height_m": null, "levels": null, "tract_id": "40039960701", "tract_name": "9607.01", "tags": {"building": "industrial"}}}, {"type": "Feature", "geometry": {"type": "Polygon", "coordinates": [[[-98.7013307, 35.523839], [-98.7014112, 35.5238395], [-98.701415, 35.5234312], [-98.7013346, 35.5234307], [-98.7013307, 35.523839]]]}, "properties": {"osm_id": 1443168412, "building": "industrial", "name": "", "height": null, "height_m": null, "levels": null, "tract_id": "40039960701", "tract_name": "9607.01", "tags": {"building": "industrial"}}}, {"type": "Feature", "geometry": {"type": "Polygon", "coordinates": [[[-98.6956176, 35.5266981], [-98.6958813, 35.5266969], [-98.6958793, 35.5264182], [-98.6956155, 35.5264195], [-98.6956176, 35.5266981]]]}, "properties": {"osm_id": 1443168413, "building": "retail", "name": "O'Reilly Auto Parts", "height": null, "height_m": null, "levels": null, "tract_id": "40039960701", "tract_name": "9607.01", "tags": {"brand": "O'Reilly Auto Parts", "brand:wikidata": "Q7071951", "building": "retail", "name": "O'Reilly Auto Parts", "shop": "car_parts"}}}, {"type": "Feature", "geometry": {"type": "Polygon", "coordinates": [[[-98.705878, 35.5235559], [-98.7058781, 35.5234842], [-98.7058781, 35.5234548], [-98.7061968, 35.523455], [-98.7061967, 35.5235561], [-98.705878, 35.5235559]]]}, "properties": {"osm_id": 1443394695, "building": "yes", "name": "", "height": null, "height_m": null, "levels": null, "tract_id": "40039960701", "tract_name": "9607.01", "tags": {"building": "yes"}}}, {"type": "Feature", "geometry": {"type": "Polygon", "coordinates": [[[-98.7008947, 35.5264055], [-98.7008937, 35.5262943], [-98.7007921, 35.5262949], [-98.7007919, 35.5262773], [-98.7006756, 35.526278], [-98.7006758, 35.5263008], [-98.7006031, 35.5263012], [-98.7006039, 35.5264], [-98.7006762, 35.5263996], [-98.7006763, 35.5264067], [-98.7008947, 35.5264055]]]}, "properties": {"osm_id": 1443394703, "building": "yes", "name": "", "height": null, "height_m": null, "levels": null, "tract_id": "40039960701", "tract_name": "9607.01", "tags": {"amenity": "fast_food", "building": "yes"}}}, {"type": "Feature", "geometry": {"type": "Polygon", "coordinates": [[[-98.6977982, 35.5248336], [-98.6978004, 35.5241378], [-98.6985016, 35.5241392], [-98.6984994, 35.5248335], [-98.6982543, 35.524833], [-98.6982543, 35.5248597], [-98.6979663, 35.5248591], [-98.6979663, 35.5248339], [-98.6977982, 35.5248336]]]}, "properties": {"osm_id": 1444839049, "building": "retail", "name": "Ace Hardware", "height": null, "height_m": null, "levels": null, "tract_id": "40039960701", "tract_name": "9607.01", "tags": {"addr:city": "Weatherford", "addr:housenumber": "800", "addr:postcode": "73096-5640", "addr:state": "OK", "addr:street": "East Main", "brand": "Ace Hardware", "brand:wikidata": "Q4672981", "building": "retail", "name": "Ace Hardware", "opening_hours": "Mo-Fr 07:30-20:00; Sa 08:00-20:00; Su 09:00-20:00", "phone": "+1 580-772-7781", "ref": "15130", "shop": "doityourself"}}}, {"type": "Feature", "geometry": {"type": "Polygon", "coordinates": [[[-98.6977982, 35.5248336], [-98.6974584, 35.5248345], [-98.6974571, 35.5242864], [-98.6972734, 35.5242864], [-98.6972734, 35.5241486], [-98.6973223, 35.5241325], [-98.6978004, 35.5241378], [-98.6977982, 35.5248336]]]}, "properties": {"osm_id": 1444839050, "building": "retail", "name": "", "height": null, "height_m": null, "levels": null, "tract_id": "40039960701", "tract_name": "9607.01", "tags": {"building": "retail"}}}, {"type": "Feature", "geometry": {"type": "Polygon", "coordinates": [[[-98.6967093, 35.5258708], [-98.6968084, 35.5258708], [-98.696806, 35.5255665], [-98.6967069, 35.5255646], [-98.6967093, 35.5258708]]]}, "properties": {"osm_id": 1444839052, "building": "roof", "name": "", "height": null, "height_m": null, "levels": null, "tract_id": "40039960701", "tract_name": "9607.01", "tags": {"building": "roof", "layer": "1"}}}, {"type": "Feature", "geometry": {"type": "Polygon", "coordinates": [[[-98.6973662, 35.5257105], [-98.6973663, 35.5256223], [-98.697321, 35.5256222], [-98.6973211, 35.5255573], [-98.6969724, 35.525557], [-98.6969723, 35.5256213], [-98.6970655, 35.5256995], [-98.6972658, 35.5256997], [-98.6972658, 35.5257104], [-98.6973662, 35.5257105]]]}, "properties": {"osm_id": 1444839053, "building": "yes", "name": "", "height": null, "height_m": null, "levels": null, "tract_id": "40039960701", "tract_name": "9607.01", "tags": {"building": "yes", "shop": "convenience"}}}, {"type": "Feature", "geometry": {"type": "Polygon", "coordinates": [[[-98.6947209, 35.5256258], [-98.6947224, 35.5254097], [-98.694618, 35.5254093], [-98.6944982, 35.5254087], [-98.6944985, 35.5253649], [-98.6944203, 35.5253646], [-98.6944184, 35.5256568], [-98.6944992, 35.5256571], [-98.6944994, 35.5256248], [-98.6946207, 35.5256253], [-98.6947209, 35.5256258]]]}, "properties": {"osm_id": 1444839054, "building": "roof", "name": "", "height": null, "height_m": null, "levels": null, "tract_id": "40039960701", "tract_name": "9607.01", "tags": {"building": "roof", "layer": "1"}}}, {"type": "Feature", "geometry": {"type": "Polygon", "coordinates": [[[-98.6947207, 35.52566], [-98.6948606, 35.5256606], [-98.6948626, 35.5253753], [-98.6947226, 35.5253746], [-98.6947224, 35.5254097], [-98.6947209, 35.5256258], [-98.6947207, 35.52566]]]}, "properties": {"osm_id": 1444839055, "building": "yes", "name": "", "height": null, "height_m": null, "levels": null, "tract_id": "40039960701", "tract_name": "9607.01", "tags": {"building": "yes", "shop": "convenience"}}}, {"type": "Feature", "geometry": {"type": "Polygon", "coordinates": [[[-98.6964585, 35.5248952], [-98.6971848, 35.5248991], [-98.6971882, 35.524492], [-98.6970638, 35.5244914], [-98.6970641, 35.5244503], [-98.6964622, 35.5244471], [-98.6964585, 35.5248952]]]}, "properties": {"osm_id": 1444839056, "building": "retail", "name": "", "height": null, "height_m": null, "levels": null, "tract_id": "40039960701", "tract_name": "9607.01", "tags": {"building": "retail"}}}, {"type": "Feature", "geometry": {"type": "Polygon", "coordinates": [[[-98.6952879, 35.5265397], [-98.6953496, 35.5265398], [-98.6953496, 35.5265176], [-98.6953777, 35.5265176], [-98.6953777, 35.5264955], [-98.6954019, 35.5264955], [-98.6954021, 35.5263125], [-98.6952882, 35.5263124], [-98.6952879, 35.5265397]]]}, "properties": {"osm_id": 1445349780, "building": "retail", "name": "Wendy's", "height": null, "height_m": null, "levels": null, "tract_id": "40039960701", "tract_name": "9607.01", "tags": {"amenity": "fast_food", "brand": "Wendy's", "brand:wikidata": "Q550258", "building": "retail", "cuisine": "burger", "drive_through": "yes", "name": "Wendy's", "takeaway": "yes"}}}, {"type": "Feature", "geometry": {"type": "Polygon", "coordinates": [[[-98.7021354, 35.526493], [-98.7022396, 35.526493], [-98.7022396, 35.5263507], [-98.7021354, 35.5263507], [-98.7021354, 35.526493]]]}, "properties": {"osm_id": 1445349785, "building": "retail", "name": "", "height": null, "height_m": null, "levels": null, "tract_id": "40039960701", "tract_name": "9607.01", "tags": {"building": "retail"}}}, {"type": "Feature", "geometry": {"type": "Polygon", "coordinates": [[[-98.7030433, 35.5265483], [-98.7032597, 35.5265497], [-98.7032602, 35.5264975], [-98.7033887, 35.5264983], [-98.703406, 35.5264804], [-98.7034035, 35.5264014], [-98.7033781, 35.5263803], [-98.703262, 35.5263796], [-98.7032621, 35.5263645], [-98.703045, 35.5263632], [-98.7030433, 35.5265483]]]}, "properties": {"osm_id": 1445349786, "building": "retail", "name": "", "height": null, "height_m": null, "levels": null, "tract_id": "40039960701", "tract_name": "9607.01", "tags": {"building": "retail"}}}]}