{"type": "FeatureCollection", "features": [{"type": "Feature", "geometry": {"type": "Polygon", "coordinates": [[[-97.4259052, 35.8224994], [-97.4256045, 35.8224979], [-97.4256077, 35.8229348], [-97.4259104, 35.8229329], [-97.4259052, 35.8224994]]]}, "properties": {"osm_id": 192325952, "building": "church", "name": "The Church of Jesus Christ of Latter-day Saints", "height": null, "height_m": null, "levels": null, "tract_id": "40083600903", "tract_name": "6009.03", "tags": {"addr:city": "Guthrie", "addr:country": "US", "addr:housenumber": "5326", "addr:postcode": "73044", "addr:state": "OK", "addr:street": "Ellie Mae Drive", "amenity": "place_of_worship", "building": "church", "denomination": "mormon", "name": "The Church of Jesus Christ of Latter-day Saints", "phone": "+1-405-282-3023", "religion": "christian"}}}, {"type": "Feature", "geometry": {"type": "Polygon", "coordinates": [[[-97.4216882, 35.8274826], [-97.4214792, 35.8274803], [-97.4214738, 35.8277565], [-97.4216776, 35.8277543], [-97.421683, 35.8275738], [-97.4217367, 35.8275716], [-97.4217367, 35.8275281], [-97.4216882, 35.8275257], [-97.4216882, 35.8274826]]]}, "properties": {"osm_id": 192372713, "building": "yes", "name": "", "height": null, "height_m": null, "levels": null, "tract_id": "40083600903", "tract_name": "6009.03", "tags": {"building": "yes"}}}, {"type": "Feature", "geometry": {"type": "Polygon", "coordinates": [[[-97.4231126, 35.8284502], [-97.4231099, 35.8288046], [-97.4229757, 35.8288044], [-97.4229785, 35.8284502], [-97.4231126, 35.8284502]]]}, "properties": {"osm_id": 192372714, "building": "yes", "name": "", "height": null, "height_m": null, "levels": null, "tract_id": "40083600903", "tract_name": "6009.03", "tags": {"building": "yes"}}}, {"type": "Feature", "geometry": {"type": "Polygon", "coordinates": [[[-97.4229866, 35.828074], [-97.4229866, 35.8282131], [-97.4227906, 35.8282107], [-97.4227906, 35.828276], [-97.4224634, 35.8282716], [-97.4224689, 35.8280022], [-97.4227934, 35.8280044], [-97.4227961, 35.8280718], [-97.4229866, 35.828074]]]}, "properties": {"osm_id": 192372716, "building": "yes", "name": "", "height": null, "height_m": null, "levels": null, "tract_id": "40083600903", "tract_name": "6009.03", "tags": {"building": "yes"}}}, {"type": "Feature", "geometry": {"type": "Polygon", "coordinates": [[[-97.4212887, 35.8289112], [-97.4212941, 35.8288133], [-97.4210982, 35.8288088], [-97.4210901, 35.8289153], [-97.4212887, 35.8289112]]]}, "properties": {"osm_id": 192372718, "building": "yes", "name": "", "height": null, "height_m": null, "levels": null, "tract_id": "40083600903", "tract_name": "6009.03", "tags": {"building": "yes"}}}, {"type": "Feature", "geometry": {"type": "Polygon", "coordinates": [[[-97.4234855, 35.8285828], [-97.4236571, 35.8285872], [-97.4236518, 35.8288112], [-97.4236893, 35.8288112], [-97.4236893, 35.8287829], [-97.4237564, 35.8287851], [-97.4237616, 35.8288066], [-97.4237939, 35.8288046], [-97.4237965, 35.8289132], [-97.4234826, 35.8289045], [-97.4234828, 35.8288112], [-97.4231314, 35.828809], [-97.4231314, 35.828722], [-97.4234855, 35.8287264], [-97.4234855, 35.8285828]]]}, "properties": {"osm_id": 192372719, "building": "yes", "name": "Bible Baptist Church", "height": null, "height_m": null, "levels": null, "tract_id": "40083600903", "tract_name": "6009.03", "tags": {"addr:housename": "Bible Baptist Church", "addr:housenumber": "4820", "addr:street": "South Division Street", "amenity": "place_of_worship", "building": "yes", "denomination": "baptist", "name": "Bible Baptist Church", "religion": "christian"}}}, {"type": "Feature", "geometry": {"type": "Polygon", "coordinates": [[[-97.4218252, 35.8288764], [-97.4218305, 35.8287807], [-97.4215354, 35.8287718], [-97.4215301, 35.8288764], [-97.4218252, 35.8288764]]]}, "properties": {"osm_id": 192372721, "building": "yes", "name": "", "height": null, "height_m": null, "levels": null, "tract_id": "40083600903", "tract_name": "6009.03", "tags": {"building": "yes"}}}, {"type": "Feature", "geometry": {"type": "Polygon", "coordinates": [[[-97.4217313, 35.8291526], [-97.4213852, 35.8291524], [-97.4213853, 35.828996], [-97.4211814, 35.8289982], [-97.4211868, 35.8291635], [-97.4211223, 35.8291676], [-97.421133, 35.8298417], [-97.421734, 35.8298354], [-97.4217313, 35.8291526]]]}, "properties": {"osm_id": 192372723, "building": "yes", "name": "Livestock Nutrition Center", "height": null, "height_m": null, "levels": null, "tract_id": "40083600903", "tract_name": "6009.03", "tags": {"building": "yes", "name": "Livestock Nutrition Center"}}}, {"type": "Feature", "geometry": {"type": "Polygon", "coordinates": [[[-97.4222758, 35.8294353], [-97.4220933, 35.8294177], [-97.4220852, 35.8294894], [-97.4222758, 35.8295092], [-97.4222758, 35.8294353]]]}, "properties": {"osm_id": 192372724, "building": "yes", "name": "", "height": null, "height_m": null, "levels": null, "tract_id": "40083600903", "tract_name": "6009.03", "tags": {"building": "yes"}}}, {"type": "Feature", "geometry": {"type": "Polygon", "coordinates": [[[-97.4179897, 35.823253], [-97.4181502, 35.82349], [-97.4179465, 35.8235807], [-97.417939, 35.8235695], [-97.417852, 35.8236082], [-97.4177915, 35.8235188], [-97.4176444, 35.8235843], [-97.4175377, 35.8234267], [-97.4172879, 35.8235379], [-97.4172399, 35.8234671], [-97.4178008, 35.8232174], [-97.4178631, 35.8233094], [-97.4179897, 35.823253]]]}, "properties": {"osm_id": 192374619, "building": "retail", "name": "", "height": null, "height_m": null, "levels": null, "tract_id": "40083600903", "tract_name": "6009.03", "tags": {"addr:city": "Guthrie", "addr:housename": "John Vance GMC Buick Cadillac", "addr:housenumber": "5322", "addr:postcode": "73044", "addr:street": "South Division Street", "building": "retail"}}}, {"type": "Feature", "geometry": {"type": "Polygon", "coordinates": [[[-97.4185501, 35.8242571], [-97.4187217, 35.824405], [-97.4183999, 35.8246573], [-97.4179814, 35.824318], [-97.4183087, 35.824057], [-97.4185018, 35.824218], [-97.4183999, 35.8242875], [-97.4184642, 35.8243397], [-97.4185501, 35.8242571]]]}, "properties": {"osm_id": 192374622, "building": "yes", "name": "John Vance Auto Group", "height": null, "height_m": null, "levels": null, "tract_id": "40083600903", "tract_name": "6009.03", "tags": {"addr:city": "Guthrie", "addr:country": "US", "addr:housename": "John Vance Motors", "addr:housenumber": "5302", "addr:postcode": "73044", "addr:state": "OK", "addr:street": "South Division Street", "building": "yes", "name": "John Vance Auto Group", "shop": "car", "website": "https://www.vanceautogroup.com/", "wheelchair": "yes"}}}, {"type": "Feature", "geometry": {"type": "Polygon", "coordinates": [[[-97.420071, 35.8232852], [-97.420071, 35.8229894], [-97.4204707, 35.8229894], [-97.4204653, 35.823283], [-97.4204036, 35.8232852], [-97.420409, 35.8234657], [-97.4201086, 35.82347], [-97.4201193, 35.8232808], [-97.420071, 35.8232852]]]}, "properties": {"osm_id": 192374658, "building": "yes", "name": "Eskridge Chevrolet", "height": null, "height_m": null, "levels": null, "tract_id": "40083600903", "tract_name": "6009.03", "tags": {"addr:city": "Guthrie", "addr:housename": "Eskridge Chevrolet", "addr:housenumber": "5307", "addr:postcode": "73044", "addr:state": "OK", "addr:street": "South Division Street", "building": "yes", "name": "Eskridge Chevrolet", "shop": "car", "website": "https://www.eskridgechevy.com/"}}}, {"type": "Feature", "geometry": {"type": "Polygon", "coordinates": [[[-97.4217045, 35.823805], [-97.4217045, 35.8237462], [-97.4216266, 35.8237439], [-97.4216239, 35.8238069], [-97.4217045, 35.823805]]]}, "properties": {"osm_id": 192374695, "building": "yes", "name": "", "height": null, "height_m": null, "levels": null, "tract_id": "40083600903", "tract_name": "6009.03", "tags": {"building": "yes"}}}, {"type": "Feature", "geometry": {"type": "Polygon", "coordinates": [[[-97.4216991, 35.8238224], [-97.4215112, 35.8238178], [-97.421506, 35.824092], [-97.4216991, 35.824092], [-97.4217018, 35.8240725], [-97.4217501, 35.8240659], [-97.4217474, 35.8240029], [-97.421699, 35.8240048], [-97.4216991, 35.8238224]]]}, "properties": {"osm_id": 192374696, "building": "yes", "name": "Veterans of Foreign Wars", "height": null, "height_m": null, "levels": null, "tract_id": "40083600903", "tract_name": "6009.03", "tags": {"addr:city": "Guthrie", "addr:postcode": "73044", "addr:state": "OK", "addr:street": "South Division Street", "building": "yes", "name": "Veterans of Foreign Wars"}}}, {"type": "Feature", "geometry": {"type": "Polygon", "coordinates": [[[-97.4226246, 35.8249815], [-97.4223591, 35.8249837], [-97.4223537, 35.8250207], [-97.4222571, 35.8250185], [-97.4222357, 35.8250011], [-97.4222357, 35.8249315], [-97.4222813, 35.8249315], [-97.4222845, 35.8246514], [-97.42263, 35.8246531], [-97.4226246, 35.8249815]]]}, "properties": {"osm_id": 193978640, "building": "yes", "name": "", "height": null, "height_m": null, "levels": null, "tract_id": "40083600903", "tract_name": "6009.03", "tags": {"addr:city": "Guthrie", "addr:postcode": "73044", "addr:state": "OK", "addr:street": "South Division Street", "building": "yes"}}}, {"type": "Feature", "geometry": {"type": "Polygon", "coordinates": [[[-97.4231128, 35.8236984], [-97.4227002, 35.823701], [-97.422697, 35.8243508], [-97.4231423, 35.8243508], [-97.4231508, 35.8237815], [-97.423116, 35.8237815], [-97.4231128, 35.8236984]]]}, "properties": {"osm_id": 193979154, "building": "retail", "name": "OHC Supply", "height": null, "height_m": null, "levels": null, "tract_id": "40083600903", "tract_name": "6009.03", "tags": {"addr:city": "Guthrie", "addr:country": "US", "addr:housenumber": "5103", "addr:postcode": "73044", "addr:state": "OK", "addr:street": "South Division Street", "building": "retail", "name": "OHC Supply", "phone": "+1-405-260-7625", "shop": "trade"}}}, {"type": "Feature", "geometry": {"type": "Polygon", "coordinates": [[[-97.4225441, 35.8230416], [-97.4223569, 35.8230377], [-97.422351, 35.8232917], [-97.4225414, 35.8232917], [-97.4225441, 35.8230416]]]}, "properties": {"osm_id": 193979179, "building": "yes", "name": "", "height": null, "height_m": null, "levels": null, "tract_id": "40083600903", "tract_name": "6009.03", "tags": {"building": "yes"}}}, {"type": "Feature", "geometry": {"type": "Polygon", "coordinates": [[[-97.4221552, 35.8225153], [-97.4225414, 35.8225175], [-97.4225473, 35.8221678], [-97.422491, 35.8221656], [-97.4224905, 35.822126], [-97.4222308, 35.8221243], [-97.422233, 35.8221651], [-97.4221638, 35.8221656], [-97.4221552, 35.8225153]]]}, "properties": {"osm_id": 193979565, "building": "yes", "name": "", "height": null, "height_m": null, "levels": null, "tract_id": "40083600903", "tract_name": "6009.03", "tags": {"building": "yes"}}}, {"type": "Feature", "geometry": {"type": "Polygon", "coordinates": [[[-97.4304029, 35.8226349], [-97.4304136, 35.8227328], [-97.4304431, 35.8227349], [-97.4304431, 35.8228132], [-97.4303358, 35.8228154], [-97.4303331, 35.8227349], [-97.4303546, 35.8227371], [-97.4303492, 35.8226327], [-97.4304029, 35.8226349]]]}, "properties": {"osm_id": 193993239, "building": "yes", "name": "", "height": null, "height_m": null, "levels": null, "tract_id": "40083600903", "tract_name": "6009.03", "tags": {"building": "yes"}}}, {"type": "Feature", "geometry": {"type": "Polygon", "coordinates": [[[-97.4303143, 35.8223413], [-97.4302533, 35.8222765], [-97.4301212, 35.8223674], [-97.4301749, 35.8224261], [-97.4303143, 35.8223413]]]}, "properties": {"osm_id": 193993240, "building": "house", "name": "", "height": null, "height_m": null, "levels": null, "tract_id": "40083600903", "tract_name": "6009.03", "tags": {"addr:street": "Primrose Lane", "building": "house"}}}, {"type": "Feature", "geometry": {"type": "Polygon", "coordinates": [[[-97.4307274, 35.8226045], [-97.4307328, 35.8227284], [-97.4306208, 35.8227267], [-97.4306201, 35.8227654], [-97.4304511, 35.8227632], [-97.4304572, 35.8226658], [-97.4305262, 35.8226697], [-97.4305289, 35.8226349], [-97.4306657, 35.8226371], [-97.4306664, 35.8226071], [-97.4307274, 35.8226045]]]}, "properties": {"osm_id": 193993241, "building": "house", "name": "", "height": null, "height_m": null, "levels": null, "tract_id": "40083600903", "tract_name": "6009.03", "tags": {"addr:street": "Primrose Lane", "building": "house"}}}, {"type": "Feature", "geometry": {"type": "Polygon", "coordinates": [[[-97.4312419, 35.8226341], [-97.4312404, 35.8225462], [-97.4313819, 35.822537], [-97.4313825, 35.8225528], [-97.4314731, 35.8225457], [-97.4314784, 35.8226153], [-97.4313711, 35.822624], [-97.4313758, 35.8226776], [-97.4312887, 35.8226832], [-97.431288, 35.8226327], [-97.4312419, 35.8226341]]]}, "properties": {"osm_id": 193994515, "building": "house", "name": "", "height": null, "height_m": null, "levels": null, "tract_id": "40083600903", "tract_name": "6009.03", "tags": {"addr:street": "Primrose Lane", "building": "house"}}}, {"type": "Feature", "geometry": {"type": "Polygon", "coordinates": [[[-97.4314087, 35.8229655], [-97.4315213, 35.8229807], [-97.4314979, 35.8230877], [-97.4314818, 35.8230855], [-97.4314623, 35.8231677], [-97.4313685, 35.8231612], [-97.4313872, 35.8230742], [-97.4313504, 35.8230681], [-97.4313604, 35.8230155], [-97.431398, 35.8230198], [-97.4314087, 35.8229655]]]}, "properties": {"osm_id": 193995534, "building": "house", "name": "", "height": null, "height_m": null, "levels": null, "tract_id": "40083600903", "tract_name": "6009.03", "tags": {"addr:street": "Wanetta Avenue", "building": "house"}}}, {"type": "Feature", "geometry": {"type": "Polygon", "coordinates": [[[-97.4303734, 35.8230677], [-97.4303901, 35.8230138], [-97.4305403, 35.8230399], [-97.4305048, 35.8231917], [-97.4303385, 35.8231656], [-97.4303526, 35.8231138], [-97.4304163, 35.8231242], [-97.4304304, 35.823079], [-97.4303734, 35.8230677]]]}, "properties": {"osm_id": 193995535, "building": "house", "name": "", "height": null, "height_m": null, "levels": null, "tract_id": "40083600903", "tract_name": "6009.03", "tags": {"addr:street": "Primrose Lane", "building": "house"}}}, {"type": "Feature", "geometry": {"type": "Polygon", "coordinates": [[[-97.4304833, 35.8221129], [-97.4305745, 35.8221108], [-97.4305993, 35.82227], [-97.4305048, 35.8222761], [-97.4304967, 35.8222434], [-97.4304599, 35.8222439], [-97.4304485, 35.8221673], [-97.4304887, 35.8221673], [-97.4304833, 35.8221129]]]}, "properties": {"osm_id": 193995726, "building": "house", "name": "", "height": null, "height_m": null, "levels": null, "tract_id": "40083600903", "tract_name": "6009.03", "tags": {"addr:street": "Primrose Lane", "building": "house"}}}, {"type": "Feature", "geometry": {"type": "Polygon", "coordinates": [[[-97.4315106, 35.82225], [-97.431583, 35.822263], [-97.4316018, 35.8221847], [-97.4316803, 35.8221982], [-97.4316937, 35.8221264], [-97.4314838, 35.8220977], [-97.431465, 35.8221738], [-97.4315213, 35.8221869], [-97.4315106, 35.82225]]]}, "properties": {"osm_id": 193995727, "building": "house", "name": "", "height": null, "height_m": null, "levels": null, "tract_id": "40083600903", "tract_name": "6009.03", "tags": {"addr:street": "Primrose Lane", "building": "house"}}}, {"type": "Feature", "geometry": {"type": "Polygon", "coordinates": [[[-97.429917, 35.8231419], [-97.4298242, 35.8231269], [-97.4298423, 35.8230481], [-97.4298, 35.8230399], [-97.4298188, 35.8229681], [-97.4298423, 35.8229698], [-97.4298557, 35.8229176], [-97.4299791, 35.8229394], [-97.429917, 35.8231419]]]}, "properties": {"osm_id": 193996076, "building": "house", "name": "", "height": null, "height_m": null, "levels": null, "tract_id": "40083600903", "tract_name": "6009.03", "tags": {"addr:street": "West Lake Road", "building": "house"}}}, {"type": "Feature", "geometry": {"type": "Polygon", "coordinates": [[[-97.425752, 35.823718], [-97.4257516, 35.8237394], [-97.4256608, 35.8237398], [-97.4256608, 35.8238594], [-97.4257392, 35.8238597], [-97.4257409, 35.8238851], [-97.4258003, 35.8238833], [-97.425803, 35.8238594], [-97.4258325, 35.8238572], [-97.4258298, 35.823718], [-97.425752, 35.823718]]]}, "properties": {"osm_id": 194218318, "building": "house", "name": "", "height": null, "height_m": null, "levels": null, "tract_id": "40083600903", "tract_name": "6009.03", "tags": {"addr:city": "Guthrie", "addr:country": "US", "addr:housenumber": "110", "addr:postcode": "73044", "addr:state": "OK", "addr:street": "West Lake Road", "building": "house"}}}, {"type": "Feature", "geometry": {"type": "Polygon", "coordinates": [[[-97.4232503, 35.8260903], [-97.4232495, 35.8258905], [-97.4235151, 35.8258884], [-97.4235204, 35.8259579], [-97.4236224, 35.8259558], [-97.4236224, 35.8258884], [-97.4237534, 35.825888], [-97.4237588, 35.8259359], [-97.423853, 35.8259405], [-97.4238557, 35.8259927], [-97.4237538, 35.8259927], [-97.4237511, 35.8260971], [-97.4236143, 35.8260928], [-97.4236143, 35.8260167], [-97.4235178, 35.8260167], [-97.4235182, 35.8260904], [-97.4232503, 35.8260903]]]}, "properties": {"osm_id": 194222071, "building": "yes", "name": "", "height": null, "height_m": null, "levels": null, "tract_id": "40083600903", "tract_name": "6009.03", "tags": {"addr:country": "US", "addr:postcode": "73044", "addr:state": "OK", "addr:street": "South Division Street", "building": "yes"}}}, {"type": "Feature", "geometry": {"type": "Polygon", "coordinates": [[[-97.4233568, 35.8262233], [-97.4233567, 35.8263033], [-97.4234936, 35.8262994], [-97.4234963, 35.8263864], [-97.4237779, 35.8263842], [-97.4237752, 35.8262276], [-97.4233568, 35.8262233]]]}, "properties": {"osm_id": 194222072, "building": "yes", "name": "Vance Fleet Services", "height": null, "height_m": null, "levels": null, "tract_id": "40083600903", "tract_name": "6009.03", "tags": {"addr:city": "Guthrie", "addr:country": "US", "addr:state": "OK", "addr:street": "South Division Street", "building": "yes", "name": "Vance Fleet Services"}}}, {"type": "Feature", "geometry": {"type": "Polygon", "coordinates": [[[-97.4236304, 35.8342324], [-97.4236354, 35.8341864], [-97.4236702, 35.8341842], [-97.4236653, 35.8341019], [-97.4236358, 35.8341019], [-97.4236331, 35.8340541], [-97.4229384, 35.8340736], [-97.4229442, 35.8342561], [-97.4236304, 35.8342324]]]}, "properties": {"osm_id": 194224043, "building": "yes", "name": "Guthrie Christian Church", "height": null, "height_m": null, "levels": null, "tract_id": "40083600903", "tract_name": "6009.03", "tags": {"addr:city": "Guthrie", "addr:country": "US", "addr:housenumber": "4318", "addr:postcode": "73044", "addr:state": "OK", "addr:street": "South Division Street", "amenity": "place_of_worship", "building": "yes", "name": "Guthrie Christian Church", "religion": "christian", "website": "https://www.churchofgodeveninglight.com/"}}}, {"type": "Feature", "geometry": {"type": "Polygon", "coordinates": [[[-97.4248562, 35.8372636], [-97.424588, 35.837257], [-97.4245876, 35.8373654], [-97.4248585, 35.837372], [-97.4248562, 35.8372636]]]}, "properties": {"osm_id": 194224316, "building": "church", "name": "", "height": null, "height_m": null, "levels": null, "tract_id": "40083600903", "tract_name": "6009.03", "tags": {"building": "church"}}}, {"type": "Feature", "geometry": {"type": "Polygon", "coordinates": [[[-97.4259155, 35.8358568], [-97.4259343, 35.835635], [-97.4262693, 35.8356547], [-97.4262666, 35.835683], [-97.4264439, 35.8356915], [-97.4264278, 35.8359133], [-97.4262559, 35.8359048], [-97.4262588, 35.8358763], [-97.4259155, 35.8358568]]]}, "properties": {"osm_id": 194381766, "building": "retail", "name": "", "height": null, "height_m": null, "levels": null, "tract_id": "40083600903", "tract_name": "6009.03", "tags": {"addr:city": "Guthrie", "addr:country": "US", "addr:housenumber": "4203", "addr:postcode": "73044", "addr:state": "OK", "addr:street": "South Division Street", "building": "retail", "shop": "trade", "source": "Bing", "trade": "marble"}}}, {"type": "Feature", "geometry": {"type": "Polygon", "coordinates": [[[-97.4250317, 35.8242857], [-97.4250314, 35.8242306], [-97.4250308, 35.8241191], [-97.4250501, 35.8241199], [-97.4250453, 35.8240657], [-97.4248941, 35.8240673], [-97.4248961, 35.8241246], [-97.4249125, 35.8241238], [-97.4249145, 35.824189], [-97.4249397, 35.824189], [-97.4249435, 35.8242872], [-97.4250317, 35.8242857]]]}, "properties": {"osm_id": 196782265, "building": "house", "name": "", "height": null, "height_m": null, "levels": null, "tract_id": "40083600903", "tract_name": "6009.03", "tags": {"addr:city": "Guthrie", "addr:country": "US", "addr:housenumber": "5222", "addr:postcode": "73044", "addr:state": "OK", "addr:street": "South Sooner Road", "building": "house", "source": "Bing"}}}, {"type": "Feature", "geometry": {"type": "Polygon", "coordinates": [[[-97.4258875, 35.8174282], [-97.4257106, 35.8174271], [-97.425708, 35.8174044], [-97.4256342, 35.8174065], [-97.4256355, 35.8173271], [-97.4257055, 35.8173301], [-97.4257055, 35.8173116], [-97.4257933, 35.8173353], [-97.4258887, 35.8173425], [-97.4258875, 35.8174282]]]}, "properties": {"osm_id": 662232702, "building": "house", "name": "", "height": null, "height_m": null, "levels": null, "tract_id": "40083600903", "tract_name": "6009.03", "tags": {"building": "house"}}}, {"type": "Feature", "geometry": {"type": "Polygon", "coordinates": [[[-97.4264092, 35.8174633], [-97.4263456, 35.8174633], [-97.4263443, 35.8174911], [-97.4262871, 35.8174922], [-97.4262871, 35.8174581], [-97.4262043, 35.8174602], [-97.4262005, 35.8173528], [-97.4262705, 35.8173549], [-97.4262705, 35.8173745], [-97.4263303, 35.8173745], [-97.4263278, 35.8173271], [-97.4264105, 35.8173281], [-97.4264092, 35.8174633]]]}, "properties": {"osm_id": 662232703, "building": "house", "name": "", "height": null, "height_m": null, "levels": null, "tract_id": "40083600903", "tract_name": "6009.03", "tags": {"building": "house"}}}, {"type": "Feature", "geometry": {"type": "Polygon", "coordinates": [[[-97.4267286, 35.8176114], [-97.4266255, 35.8176093], [-97.4266306, 35.8175268], [-97.4267337, 35.8175299], [-97.4267286, 35.8176114]]]}, "properties": {"osm_id": 662232704, "building": "yes", "name": "", "height": null, "height_m": null, "levels": null, "tract_id": "40083600903", "tract_name": "6009.03", "tags": {"building": "yes"}}}, {"type": "Feature", "geometry": {"type": "Polygon", "coordinates": [[[-97.4269755, 35.8171677], [-97.4268915, 35.8171862], [-97.4269093, 35.8172368], [-97.4267871, 35.8172678], [-97.4268177, 35.8173606], [-97.4270264, 35.817308], [-97.4269755, 35.8171677]]]}, "properties": {"osm_id": 662232705, "building": "house", "name": "", "height": null, "height_m": null, "levels": null, "tract_id": "40083600903", "tract_name": "6009.03", "tags": {"building": "house"}}}, {"type": "Feature", "geometry": {"type": "Polygon", "coordinates": [[[-97.4274045, 35.8171684], [-97.4273888, 35.8171691], [-97.4273896, 35.8171471], [-97.4272862, 35.8171485], [-97.4272871, 35.8171613], [-97.4272476, 35.8171627], [-97.4272485, 35.8172516], [-97.4273537, 35.817248], [-97.4273563, 35.8172715], [-97.4274869, 35.8172679], [-97.4274782, 35.8171222], [-97.4274019, 35.8171229], [-97.4274045, 35.8171684]]]}, "properties": {"osm_id": 662232706, "building": "house", "name": "", "height": null, "height_m": null, "levels": null, "tract_id": "40083600903", "tract_name": "6009.03", "tags": {"building": "house"}}}, {"type": "Feature", "geometry": {"type": "Polygon", "coordinates": [[[-97.4268395, 35.8166585], [-97.4267372, 35.8166986], [-97.4266215, 35.8165464], [-97.426681, 35.8165209], [-97.4267103, 35.8165601], [-97.4268215, 35.8165063], [-97.4268845, 35.8165974], [-97.4268148, 35.8166221], [-97.4268395, 35.8166585]]]}, "properties": {"osm_id": 662232707, "building": "house", "name": "", "height": null, "height_m": null, "levels": null, "tract_id": "40083600903", "tract_name": "6009.03", "tags": {"building": "house"}}}, {"type": "Feature", "geometry": {"type": "Polygon", "coordinates": [[[-97.4279211, 35.8166827], [-97.4278486, 35.8166835], [-97.4278506, 35.8166312], [-97.4278337, 35.8166328], [-97.4278397, 35.8165298], [-97.4278724, 35.816533], [-97.4278744, 35.816508], [-97.427938, 35.816508], [-97.4279399, 35.8165338], [-97.4280084, 35.816533], [-97.4280094, 35.8166513], [-97.4279201, 35.8166497], [-97.4279211, 35.8166827]]]}, "properties": {"osm_id": 662232708, "building": "house", "name": "", "height": null, "height_m": null, "levels": null, "tract_id": "40083600903", "tract_name": "6009.03", "tags": {"building": "house"}}}, {"type": "Feature", "geometry": {"type": "Polygon", "coordinates": [[[-97.4278226, 35.8172404], [-97.427771, 35.8172404], [-97.42777, 35.817205], [-97.4276886, 35.8172042], [-97.4276836, 35.8171157], [-97.4278226, 35.8171124], [-97.4278216, 35.8171253], [-97.4278712, 35.8171245], [-97.4278742, 35.8170625], [-97.4279516, 35.8170625], [-97.4279496, 35.8172074], [-97.4278216, 35.8172042], [-97.4278226, 35.8172404]]]}, "properties": {"osm_id": 662232709, "building": "house", "name": "", "height": null, "height_m": null, "levels": null, "tract_id": "40083600903", "tract_name": "6009.03", "tags": {"building": "house"}}}, {"type": "Feature", "geometry": {"type": "Polygon", "coordinates": [[[-97.4392273, 35.8218445], [-97.4391513, 35.8217167], [-97.4390335, 35.8217628], [-97.4391095, 35.8218906], [-97.4392273, 35.8218445]]]}, "properties": {"osm_id": 1097042604, "building": "yes", "name": "", "height": null, "height_m": null, "levels": null, "tract_id": "40083600903", "tract_name": "6009.03", "tags": {"building": "yes"}}}, {"type": "Feature", "geometry": {"type": "Polygon", "coordinates": [[[-97.4382679, 35.8218328], [-97.4382964, 35.821805], [-97.4383357, 35.8218315], [-97.4383788, 35.8217893], [-97.4383557, 35.8217738], [-97.4384398, 35.8216917], [-97.4383172, 35.8216092], [-97.4382213, 35.8217029], [-97.4381757, 35.8216875], [-97.4381253, 35.8217368], [-97.4382679, 35.8218328]]]}, "properties": {"osm_id": 1097042605, "building": "yes", "name": "", "height": null, "height_m": null, "levels": null, "tract_id": "40083600903", "tract_name": "6009.03", "tags": {"building": "yes"}}}, {"type": "Feature", "geometry": {"type": "Polygon", "coordinates": [[[-97.4363638, 35.8223806], [-97.436462, 35.8223222], [-97.436438, 35.8222956], [-97.4365491, 35.8222296], [-97.4364438, 35.8221131], [-97.4362345, 35.8222375], [-97.4363638, 35.8223806]]]}, "properties": {"osm_id": 1097042606, "building": "yes", "name": "", "height": null, "height_m": null, "levels": null, "tract_id": "40083600903", "tract_name": "6009.03", "tags": {"building": "yes"}}}, {"type": "Feature", "geometry": {"type": "Polygon", "coordinates": [[[-97.436714, 35.8212369], [-97.4366094, 35.8212021], [-97.4366289, 35.8211635], [-97.4364656, 35.8211092], [-97.4365141, 35.8210134], [-97.4367821, 35.8211025], [-97.436714, 35.8212369]]]}, "properties": {"osm_id": 1097042607, "building": "yes", "name": "", "height": null, "height_m": null, "levels": null, "tract_id": "40083600903", "tract_name": "6009.03", "tags": {"building": "yes"}}}, {"type": "Feature", "geometry": {"type": "Polygon", "coordinates": [[[-97.4375622, 35.8208392], [-97.437515, 35.8208218], [-97.4375035, 35.8208311], [-97.4373865, 35.8207879], [-97.4374378, 35.8206967], [-97.4376071, 35.8207592], [-97.4375622, 35.8208392]]]}, "properties": {"osm_id": 1097042608, "building": "yes", "name": "", "height": null, "height_m": null, "levels": null, "tract_id": "40083600903", "tract_name": "6009.03", "tags": {"building": "yes"}}}, {"type": "Feature", "geometry": {"type": "Polygon", "coordinates": [[[-97.4373144, 35.8208303], [-97.4373803, 35.820761], [-97.4373432, 35.8207379], [-97.4373815, 35.8206976], [-97.4372306, 35.8206034], [-97.4371597, 35.820678], [-97.4372174, 35.820714], [-97.4371842, 35.820749], [-97.4373144, 35.8208303]]]}, "properties": {"osm_id": 1097042609, "building": "yes", "name": "", "height": null, "height_m": null, "levels": null, "tract_id": "40083600903", "tract_name": "6009.03", "tags": {"building": "yes"}}}, {"type": "Feature", "geometry": {"type": "Polygon", "coordinates": [[[-97.4371336, 35.8210204], [-97.4371717, 35.8209731], [-97.4371073, 35.820939], [-97.4370692, 35.8209863], [-97.4371336, 35.8210204]]]}, "properties": {"osm_id": 1097042610, "building": "yes", "name": "", "height": null, "height_m": null, "levels": null, "tract_id": "40083600903", "tract_name": "6009.03", "tags": {"building": "yes"}}}, {"type": "Feature", "geometry": {"type": "Polygon", "coordinates": [[[-97.4369015, 35.8204022], [-97.436899, 35.8203111], [-97.436792, 35.820313], [-97.436793, 35.8203512], [-97.4367346, 35.8203522], [-97.43674, 35.820552], [-97.4368148, 35.8205507], [-97.4368108, 35.8204038], [-97.4369015, 35.8204022]]]}, "properties": {"osm_id": 1097042611, "building": "yes", "name": "", "height": null, "height_m": null, "levels": null, "tract_id": "40083600903", "tract_name": "6009.03", "tags": {"building": "yes"}}}, {"type": "Feature", "geometry": {"type": "Polygon", "coordinates": [[[-97.436533, 35.8208075], [-97.4364218, 35.8207062], [-97.4365233, 35.8206329], [-97.4366346, 35.8207343], [-97.436533, 35.8208075]]]}, "properties": {"osm_id": 1097042612, "building": "yes", "name": "", "height": null, "height_m": null, "levels": null, "tract_id": "40083600903", "tract_name": "6009.03", "tags": {"building": "yes"}}}, {"type": "Feature", "geometry": {"type": "Polygon", "coordinates": [[[-97.4366063, 35.8208675], [-97.4365456, 35.8208192], [-97.4365959, 35.8207777], [-97.4366566, 35.820826], [-97.4366063, 35.8208675]]]}, "properties": {"osm_id": 1097042613, "building": "yes", "name": "", "height": null, "height_m": null, "levels": null, "tract_id": "40083600903", "tract_name": "6009.03", "tags": {"building": "yes"}}}, {"type": "Feature", "geometry": {"type": "Polygon", "coordinates": [[[-97.4363526, 35.8212234], [-97.4362663, 35.8212104], [-97.4362856, 35.8211258], [-97.436372, 35.8211388], [-97.4363526, 35.8212234]]]}, "properties": {"osm_id": 1097042614, "building": "yes", "name": "", "height": null, "height_m": null, "levels": null, "tract_id": "40083600903", "tract_name": "6009.03", "tags": {"building": "yes"}}}, {"type": "Feature", "geometry": {"type": "Polygon", "coordinates": [[[-97.4362098, 35.8212637], [-97.4360742, 35.8212454], [-97.4361169, 35.821038], [-97.4362324, 35.8210537], [-97.4362041, 35.821191], [-97.4362229, 35.8212003], [-97.4362098, 35.8212637]]]}, "properties": {"osm_id": 1097042615, "building": "yes", "name": "", "height": null, "height_m": null, "levels": null, "tract_id": "40083600903", "tract_name": "6009.03", "tags": {"building": "yes"}}}, {"type": "Feature", "geometry": {"type": "Polygon", "coordinates": [[[-97.434736, 35.8223801], [-97.4347764, 35.8222811], [-97.4346877, 35.8222574], [-97.4346473, 35.8223563], [-97.434736, 35.8223801]]]}, "properties": {"osm_id": 1097042616, "building": "yes", "name": "", "height": null, "height_m": null, "levels": null, "tract_id": "40083600903", "tract_name": "6009.03", "tags": {"building": "yes"}}}, {"type": "Feature", "geometry": {"type": "Polygon", "coordinates": [[[-97.434867, 35.8220046], [-97.4348217, 35.8219762], [-97.434785, 35.8220146], [-97.4347477, 35.8219911], [-97.4347341, 35.8220052], [-97.4346845, 35.821974], [-97.4346647, 35.8219946], [-97.43458, 35.8219414], [-97.4347449, 35.821769], [-97.4349128, 35.8218746], [-97.4348503, 35.8219399], [-97.4348994, 35.8219708], [-97.434867, 35.8220046]]]}, "properties": {"osm_id": 1097042617, "building": "yes", "name": "", "height": null, "height_m": null, "levels": null, "tract_id": "40083600903", "tract_name": "6009.03", "tags": {"building": "yes"}}}, {"type": "Feature", "geometry": {"type": "Polygon", "coordinates": [[[-97.4359654, 35.8247048], [-97.4356148, 35.8247108], [-97.4356097, 35.8245169], [-97.4359604, 35.8245109], [-97.4359654, 35.8247048]]]}, "properties": {"osm_id": 1097042618, "building": "yes", "name": "", "height": null, "height_m": null, "levels": null, "tract_id": "40083600903", "tract_name": "6009.03", "tags": {"building": "yes"}}}, {"type": "Feature", "geometry": {"type": "Polygon", "coordinates": [[[-97.4357404, 35.8242883], [-97.4357406, 35.8242326], [-97.4357015, 35.8242325], [-97.435702, 35.8240963], [-97.4355993, 35.8240961], [-97.4355988, 35.824228], [-97.4355585, 35.8242279], [-97.4355583, 35.8242879], [-97.4357404, 35.8242883]]]}, "properties": {"osm_id": 1097042619, "building": "yes", "name": "", "height": null, "height_m": null, "levels": null, "tract_id": "40083600903", "tract_name": "6009.03", "tags": {"building": "yes"}}}, {"type": "Feature", "geometry": {"type": "Polygon", "coordinates": [[[-97.4349259, 35.8213328], [-97.4350912, 35.8212441], [-97.4350215, 35.8211586], [-97.4350722, 35.8211314], [-97.4350026, 35.8210459], [-97.4348275, 35.8211397], [-97.4349268, 35.8212615], [-97.4348857, 35.8212835], [-97.4349259, 35.8213328]]]}, "properties": {"osm_id": 1097042620, "building": "yes", "name": "", "height": null, "height_m": null, "levels": null, "tract_id": "40083600903", "tract_name": "6009.03", "tags": {"building": "yes"}}}, {"type": "Feature", "geometry": {"type": "Polygon", "coordinates": [[[-97.4347423, 35.8210019], [-97.4346414, 35.8209514], [-97.4346209, 35.8209783], [-97.4344334, 35.8208846], [-97.4345439, 35.8207393], [-97.4348323, 35.8208836], [-97.4347423, 35.8210019]]]}, "properties": {"osm_id": 1097042621, "building": "yes", "name": "", "height": null, "height_m": null, "levels": null, "tract_id": "40083600903", "tract_name": "6009.03", "tags": {"building": "yes"}}}, {"type": "Feature", "geometry": {"type": "Polygon", "coordinates": [[[-97.4340503, 35.8207415], [-97.4340572, 35.8206749], [-97.4339642, 35.8206686], [-97.4339748, 35.8205662], [-97.4337838, 35.8205532], [-97.4337636, 35.820749], [-97.4339739, 35.8207633], [-97.4339767, 35.8207365], [-97.4340503, 35.8207415]]]}, "properties": {"osm_id": 1097042622, "building": "yes", "name": "", "height": null, "height_m": null, "levels": null, "tract_id": "40083600903", "tract_name": "6009.03", "tags": {"building": "yes"}}}, {"type": "Feature", "geometry": {"type": "Polygon", "coordinates": [[[-97.4339778, 35.8211793], [-97.433787, 35.8211928], [-97.4337746, 35.8210776], [-97.4339654, 35.821064], [-97.4339778, 35.8211793]]]}, "properties": {"osm_id": 1097042623, "building": "yes", "name": "", "height": null, "height_m": null, "levels": null, "tract_id": "40083600903", "tract_name": "6009.03", "tags": {"building": "yes"}}}, {"type": "Feature", "geometry": {"type": "Polygon", "coordinates": [[[-97.4339396, 35.8216128], [-97.4338781, 35.8216134], [-97.4338769, 35.8215371], [-97.4339384, 35.8215365], [-97.4339396, 35.8216128]]]}, "properties": {"osm_id": 1097042624, "building": "yes", "name": "", "height": null, "height_m": null, "levels": null, "tract_id": "40083600903", "tract_name": "6009.03", "tags": {"building": "yes"}}}, {"type": "Feature", "geometry": {"type": "Polygon", "coordinates": [[[-97.4339469, 35.8214939], [-97.4338349, 35.8214968], [-97.4338306, 35.8213909], [-97.4339426, 35.8213879], [-97.4339469, 35.8214939]]]}, "properties": {"osm_id": 1097042625, "building": "yes", "name": "", "height": null, "height_m": null, "levels": null, "tract_id": "40083600903", "tract_name": "6009.03", "tags": {"building": "yes"}}}, {"type": "Feature", "geometry": {"type": "Polygon", "coordinates": [[[-97.4337491, 35.8217476], [-97.4336381, 35.8217716], [-97.4336169, 35.8217076], [-97.4335981, 35.8217117], [-97.4335423, 35.8215428], [-97.433669, 35.8215153], [-97.4336997, 35.8216081], [-97.4337312, 35.8216013], [-97.4337446, 35.8216421], [-97.4337163, 35.8216482], [-97.4337491, 35.8217476]]]}, "properties": {"osm_id": 1097042626, "building": "yes", "name": "", "height": null, "height_m": null, "levels": null, "tract_id": "40083600903", "tract_name": "6009.03", "tags": {"building": "yes"}}}, {"type": "Feature", "geometry": {"type": "Polygon", "coordinates": [[[-97.4335137, 35.8214748], [-97.4334727, 35.8214764], [-97.4334687, 35.8214093], [-97.4335097, 35.8214077], [-97.4335137, 35.8214748]]]}, "properties": {"osm_id": 1097042627, "building": "yes", "name": "", "height": null, "height_m": null, "levels": null, "tract_id": "40083600903", "tract_name": "6009.03", "tags": {"building": "yes"}}}, {"type": "Feature", "geometry": {"type": "Polygon", "coordinates": [[[-97.4328569, 35.8216902], [-97.4327688, 35.8216927], [-97.4327696, 35.8217106], [-97.4326711, 35.8217134], [-97.4326658, 35.8216994], [-97.4325817, 35.8217018], [-97.4325783, 35.8216217], [-97.4328536, 35.8216139], [-97.4328569, 35.8216902]]]}, "properties": {"osm_id": 1097042628, "building": "yes", "name": "", "height": null, "height_m": null, "levels": null, "tract_id": "40083600903", "tract_name": "6009.03", "tags": {"building": "yes"}}}, {"type": "Feature", "geometry": {"type": "Polygon", "coordinates": [[[-97.4327225, 35.8213055], [-97.4326085, 35.8213234], [-97.4325902, 35.8212467], [-97.4325225, 35.8212573], [-97.4325045, 35.821182], [-97.4327395, 35.8211451], [-97.4327552, 35.821211], [-97.4327019, 35.8212194], [-97.4327225, 35.8213055]]]}, "properties": {"osm_id": 1097042629, "building": "yes", "name": "", "height": null, "height_m": null, "levels": null, "tract_id": "40083600903", "tract_name": "6009.03", "tags": {"building": "yes"}}}, {"type": "Feature", "geometry": {"type": "Polygon", "coordinates": [[[-97.4325961, 35.8208555], [-97.4325171, 35.8208619], [-97.4325107, 35.8208102], [-97.4324327, 35.8208165], [-97.4324214, 35.820726], [-97.4325949, 35.8207118], [-97.4326047, 35.8207907], [-97.4325889, 35.8207971], [-97.4325961, 35.8208555]]]}, "properties": {"osm_id": 1097042630, "building": "yes", "name": "", "height": null, "height_m": null, "levels": null, "tract_id": "40083600903", "tract_name": "6009.03", "tags": {"building": "yes"}}}, {"type": "Feature", "geometry": {"type": "Polygon", "coordinates": [[[-97.4332211, 35.8208417], [-97.4330724, 35.8208523], [-97.4330636, 35.8207712], [-97.4332124, 35.8207607], [-97.4332211, 35.8208417]]]}, "properties": {"osm_id": 1097042631, "building": "yes", "name": "", "height": null, "height_m": null, "levels": null, "tract_id": "40083600903", "tract_name": "6009.03", "tags": {"building": "yes"}}}, {"type": "Feature", "geometry": {"type": "Polygon", "coordinates": [[[-97.4339958, 35.8232273], [-97.4339979, 35.8231672], [-97.433924, 35.8231656], [-97.4339219, 35.8232256], [-97.4339958, 35.8232273]]]}, "properties": {"osm_id": 1097042632, "building": "yes", "name": "", "height": null, "height_m": null, "levels": null, "tract_id": "40083600903", "tract_name": "6009.03", "tags": {"building": "yes"}}}, {"type": "Feature", "geometry": {"type": "Polygon", "coordinates": [[[-97.4341161, 35.8229024], [-97.4341264, 35.8228406], [-97.4340873, 35.8228363], [-97.434077, 35.8228982], [-97.4341161, 35.8229024]]]}, "properties": {"osm_id": 1097042633, "building": "yes", "name": "", "height": null, "height_m": null, "levels": null, "tract_id": "40083600903", "tract_name": "6009.03", "tags": {"building": "yes"}}}, {"type": "Feature", "geometry": {"type": "Polygon", "coordinates": [[[-97.4336417, 35.8227375], [-97.4336517, 35.8226854], [-97.4336615, 35.8226828], [-97.4336691, 35.8226433], [-97.4337027, 35.8226475], [-97.4337201, 35.8225574], [-97.4336901, 35.8225536], [-97.4337067, 35.8224677], [-97.4335792, 35.8224516], [-97.4335489, 35.8226088], [-97.4335727, 35.8226118], [-97.4335619, 35.8226683], [-97.4335816, 35.8226708], [-97.4335705, 35.8227285], [-97.4336417, 35.8227375]]]}, "properties": {"osm_id": 1097042634, "building": "yes", "name": "", "height": null, "height_m": null, "levels": null, "tract_id": "40083600903", "tract_name": "6009.03", "tags": {"building": "yes"}}}, {"type": "Feature", "geometry": {"type": "Polygon", "coordinates": [[[-97.4336731, 35.8231122], [-97.4335711, 35.8230997], [-97.4335745, 35.8230811], [-97.4335393, 35.8230768], [-97.433545, 35.8230459], [-97.4334806, 35.823038], [-97.4334922, 35.8229754], [-97.4335624, 35.822984], [-97.4335712, 35.8229368], [-97.4336395, 35.8229452], [-97.4336311, 35.8229908], [-97.4336942, 35.8229986], [-97.4336731, 35.8231122]]]}, "properties": {"osm_id": 1097042635, "building": "yes", "name": "", "height": null, "height_m": null, "levels": null, "tract_id": "40083600903", "tract_name": "6009.03", "tags": {"building": "yes"}}}, {"type": "Feature", "geometry": {"type": "Polygon", "coordinates": [[[-97.4335727, 35.8228913], [-97.4334971, 35.8228828], [-97.4335065, 35.8228284], [-97.4335821, 35.8228369], [-97.4335727, 35.8228913]]]}, "properties": {"osm_id": 1097042636, "building": "yes", "name": "", "height": null, "height_m": null, "levels": null, "tract_id": "40083600903", "tract_name": "6009.03", "tags": {"building": "yes"}}}, {"type": "Feature", "geometry": {"type": "Polygon", "coordinates": [[[-97.4330752, 35.8231558], [-97.4330001, 35.8231473], [-97.4329923, 35.8231924], [-97.432868, 35.8231782], [-97.4328757, 35.8231335], [-97.4328506, 35.8231306], [-97.4328565, 35.8230967], [-97.4329015, 35.8231018], [-97.4329185, 35.8230041], [-97.4328054, 35.8229912], [-97.4328163, 35.8229281], [-97.4329206, 35.82294], [-97.4329283, 35.8228955], [-97.4330442, 35.8229087], [-97.4330188, 35.8230553], [-97.4330912, 35.8230636], [-97.4330752, 35.8231558]]]}, "properties": {"osm_id": 1097042637, "building": "yes", "name": "", "height": null, "height_m": null, "levels": null, "tract_id": "40083600903", "tract_name": "6009.03", "tags": {"building": "yes"}}}, {"type": "Feature", "geometry": {"type": "Polygon", "coordinates": [[[-97.4329728, 35.8228247], [-97.4327869, 35.8227961], [-97.4327984, 35.8227468], [-97.4329843, 35.8227753], [-97.4329728, 35.8228247]]]}, "properties": {"osm_id": 1097042638, "building": "yes", "name": "", "height": null, "height_m": null, "levels": null, "tract_id": "40083600903", "tract_name": "6009.03", "tags": {"building": "yes"}}}, {"type": "Feature", "geometry": {"type": "Polygon", "coordinates": [[[-97.4330678, 35.8227462], [-97.4329702, 35.8227322], [-97.432987, 35.8226551], [-97.432939, 35.8226482], [-97.4329555, 35.8225725], [-97.4330013, 35.822579], [-97.4330258, 35.8224666], [-97.4331256, 35.8224809], [-97.4330678, 35.8227462]]]}, "properties": {"osm_id": 1097042639, "building": "yes", "name": "", "height": null, "height_m": null, "levels": null, "tract_id": "40083600903", "tract_name": "6009.03", "tags": {"building": "yes"}}}, {"type": "Feature", "geometry": {"type": "Polygon", "coordinates": [[[-97.4326203, 35.8227581], [-97.4325157, 35.8227439], [-97.4325286, 35.8226812], [-97.4326333, 35.8226954], [-97.4326203, 35.8227581]]]}, "properties": {"osm_id": 1097042640, "building": "yes", "name": "", "height": null, "height_m": null, "levels": null, "tract_id": "40083600903", "tract_name": "6009.03", "tags": {"building": "yes"}}}, {"type": "Feature", "geometry": {"type": "Polygon", "coordinates": [[[-97.4326082, 35.8228979], [-97.4325358, 35.8228868], [-97.4325486, 35.8228319], [-97.432621, 35.8228429], [-97.4326082, 35.8228979]]]}, "properties": {"osm_id": 1097042641, "building": "yes", "name": "", "height": null, "height_m": null, "levels": null, "tract_id": "40083600903", "tract_name": "6009.03", "tags": {"building": "yes"}}}, {"type": "Feature", "geometry": {"type": "Polygon", "coordinates": [[[-97.4323932, 35.8227057], [-97.4323495, 35.822657], [-97.4322916, 35.8226883], [-97.4323424, 35.8227353], [-97.4323932, 35.8227057]]]}, "properties": {"osm_id": 1097042642, "building": "yes", "name": "", "height": null, "height_m": null, "levels": null, "tract_id": "40083600903", "tract_name": "6009.03", "tags": {"building": "yes"}}}, {"type": "Feature", "geometry": {"type": "Polygon", "coordinates": [[[-97.4321143, 35.8227107], [-97.4320119, 35.8226973], [-97.4320245, 35.8226338], [-97.4319687, 35.8226265], [-97.4319841, 35.8225491], [-97.4321423, 35.8225698], [-97.4321143, 35.8227107]]]}, "properties": {"osm_id": 1097042643, "building": "yes", "name": "", "height": null, "height_m": null, "levels": null, "tract_id": "40083600903", "tract_name": "6009.03", "tags": {"building": "yes"}}}, {"type": "Feature", "geometry": {"type": "Polygon", "coordinates": [[[-97.4320014, 35.8226891], [-97.4319385, 35.8226826], [-97.4319462, 35.8226337], [-97.4320091, 35.8226402], [-97.4320014, 35.8226891]]]}, "properties": {"osm_id": 1097042644, "building": "yes", "name": "", "height": null, "height_m": null, "levels": null, "tract_id": "40083600903", "tract_name": "6009.03", "tags": {"building": "yes"}}}, {"type": "Feature", "geometry": {"type": "Polygon", "coordinates": [[[-97.4337078, 35.8222959], [-97.4337377, 35.8220722], [-97.4336373, 35.8220634], [-97.4336324, 35.8220999], [-97.4336126, 35.8220982], [-97.4336051, 35.8221542], [-97.433626, 35.8221561], [-97.4336084, 35.8222871], [-97.4337078, 35.8222959]]]}, "properties": {"osm_id": 1097042645, "building": "yes", "name": "", "height": null, "height_m": null, "levels": null, "tract_id": "40083600903", "tract_name": "6009.03", "tags": {"building": "yes"}}}, {"type": "Feature", "geometry": {"type": "Polygon", "coordinates": [[[-97.433155, 35.8221525], [-97.4330731, 35.8221461], [-97.4330718, 35.8221576], [-97.4329656, 35.8221494], [-97.432963, 35.8221389], [-97.4328799, 35.8221364], [-97.4328841, 35.8220413], [-97.4329709, 35.8220438], [-97.4329761, 35.8220332], [-97.4330784, 35.8220412], [-97.4330756, 35.8220642], [-97.4331646, 35.8220711], [-97.433155, 35.8221525]]]}, "properties": {"osm_id": 1097042646, "building": "yes", "name": "", "height": null, "height_m": null, "levels": null, "tract_id": "40083600903", "tract_name": "6009.03", "tags": {"building": "yes"}}}, {"type": "Feature", "geometry": {"type": "Polygon", "coordinates": [[[-97.4325945, 35.8222023], [-97.4324688, 35.8221857], [-97.4324631, 35.8222137], [-97.4322703, 35.8221882], [-97.4322896, 35.822092], [-97.4326082, 35.8221341], [-97.4325945, 35.8222023]]]}, "properties": {"osm_id": 1097042647, "building": "yes", "name": "", "height": null, "height_m": null, "levels": null, "tract_id": "40083600903", "tract_name": "6009.03", "tags": {"building": "yes"}}}, {"type": "Feature", "geometry": {"type": "Polygon", "coordinates": [[[-97.4318069, 35.8219549], [-97.4316641, 35.8219151], [-97.4317223, 35.8217779], [-97.4318651, 35.8218178], [-97.4318069, 35.8219549]]]}, "properties": {"osm_id": 1097042648, "building": "yes", "name": "", "height": null, "height_m": null, "levels": null, "tract_id": "40083600903", "tract_name": "6009.03", "tags": {"building": "yes"}}}, {"type": "Feature", "geometry": {"type": "Polygon", "coordinates": [[[-97.4321739, 35.8214451], [-97.4320841, 35.8214533], [-97.4320557, 35.8212478], [-97.4321456, 35.8212397], [-97.4321739, 35.8214451]]]}, "properties": {"osm_id": 1097042649, "building": "yes", "name": "", "height": null, "height_m": null, "levels": null, "tract_id": "40083600903", "tract_name": "6009.03", "tags": {"building": "yes"}}}, {"type": "Feature", "geometry": {"type": "Polygon", "coordinates": [[[-97.4319678, 35.8232036], [-97.4318609, 35.8231889], [-97.4318875, 35.8230623], [-97.431873, 35.8230532], [-97.4318983, 35.8229332], [-97.4320211, 35.8229502], [-97.4319678, 35.8232036]]]}, "properties": {"osm_id": 1097042650, "building": "yes", "name": "", "height": null, "height_m": null, "levels": null, "tract_id": "40083600903", "tract_name": "6009.03", "tags": {"building": "yes"}}}, {"type": "Feature", "geometry": {"type": "Polygon", "coordinates": [[[-97.4306707, 35.8221551], [-97.4306082, 35.8221596], [-97.4306024, 35.822107], [-97.4306649, 35.8221025], [-97.4306707, 35.8221551]]]}, "properties": {"osm_id": 1097042651, "building": "yes", "name": "", "height": null, "height_m": null, "levels": null, "tract_id": "40083600903", "tract_name": "6009.03", "tags": {"building": "yes"}}}, {"type": "Feature", "geometry": {"type": "Polygon", "coordinates": [[[-97.4337046, 35.8241738], [-97.4336237, 35.8241766], [-97.4336226, 35.8241557], [-97.43334, 35.8241654], [-97.4333413, 35.8241905], [-97.4331974, 35.8241954], [-97.4331895, 35.8240433], [-97.4333136, 35.8240391], [-97.4333106, 35.8239804], [-97.4336938, 35.8239672], [-97.4337046, 35.8241738]]]}, "properties": {"osm_id": 1097042652, "building": "yes", "name": "", "height": null, "height_m": null, "levels": null, "tract_id": "40083600903", "tract_name": "6009.03", "tags": {"building": "yes"}}}, {"type": "Feature", "geometry": {"type": "Polygon", "coordinates": [[[-97.4330251, 35.8242135], [-97.4329426, 35.824217], [-97.4329403, 35.824182], [-97.4330229, 35.8241785], [-97.4330251, 35.8242135]]]}, "properties": {"osm_id": 1097042653, "building": "yes", "name": "", "height": null, "height_m": null, "levels": null, "tract_id": "40083600903", "tract_name": "6009.03", "tags": {"building": "yes"}}}, {"type": "Feature", "geometry": {"type": "Polygon", "coordinates": [[[-97.4330181, 35.8241473], [-97.4329395, 35.8241493], [-97.4329371, 35.8240881], [-97.4330157, 35.824086], [-97.4330181, 35.8241473]]]}, "properties": {"osm_id": 1097042654, "building": "yes", "name": "", "height": null, "height_m": null, "levels": null, "tract_id": "40083600903", "tract_name": "6009.03", "tags": {"building": "yes"}}}, {"type": "Feature", "geometry": {"type": "Polygon", "coordinates": [[[-97.4319279, 35.8243789], [-97.4317451, 35.8243787], [-97.4317452, 35.8243474], [-97.4317107, 35.8243474], [-97.4317108, 35.824264], [-97.4317813, 35.8242641], [-97.4317814, 35.824207], [-97.431858, 35.8242071], [-97.4318579, 35.8242329], [-97.4318718, 35.824233], [-97.4318717, 35.8243133], [-97.4319279, 35.8243133], [-97.4319279, 35.8243789]]]}, "properties": {"osm_id": 1097042655, "building": "yes", "name": "", "height": null, "height_m": null, "levels": null, "tract_id": "40083600903", "tract_name": "6009.03", "tags": {"building": "yes"}}}, {"type": "Feature", "geometry": {"type": "Polygon", "coordinates": [[[-97.4318585, 35.8240551], [-97.4316714, 35.8240585], [-97.431668, 35.823936], [-97.4317614, 35.8239343], [-97.4317623, 35.8239662], [-97.431856, 35.8239645], [-97.4318585, 35.8240551]]]}, "properties": {"osm_id": 1097042656, "building": "yes", "name": "", "height": null, "height_m": null, "levels": null, "tract_id": "40083600903", "tract_name": "6009.03", "tags": {"building": "yes"}}}, {"type": "Feature", "geometry": {"type": "Polygon", "coordinates": [[[-97.431941, 35.8238583], [-97.4318461, 35.8238538], [-97.4318485, 35.8238202], [-97.4319434, 35.8238247], [-97.431941, 35.8238583]]]}, "properties": {"osm_id": 1097042657, "building": "yes", "name": "", "height": null, "height_m": null, "levels": null, "tract_id": "40083600903", "tract_name": "6009.03", "tags": {"building": "yes"}}}, {"type": "Feature", "geometry": {"type": "Polygon", "coordinates": [[[-97.4316829, 35.82385], [-97.4315032, 35.8238533], [-97.431501, 35.8237725], [-97.4316807, 35.8237693], [-97.4316829, 35.82385]]]}, "properties": {"osm_id": 1097042658, "building": "yes", "name": "", "height": null, "height_m": null, "levels": null, "tract_id": "40083600903", "tract_name": "6009.03", "tags": {"building": "yes"}}}, {"type": "Feature", "geometry": {"type": "Polygon", "coordinates": [[[-97.4313461, 35.823907], [-97.4312813, 35.8239089], [-97.4312801, 35.82388], [-97.4312505, 35.8238809], [-97.4312461, 35.8237825], [-97.4313404, 35.8237797], [-97.4313461, 35.823907]]]}, "properties": {"osm_id": 1097042659, "building": "yes", "name": "", "height": null, "height_m": null, "levels": null, "tract_id": "40083600903", "tract_name": "6009.03", "tags": {"building": "yes"}}}, {"type": "Feature", "geometry": {"type": "Polygon", "coordinates": [[[-97.4314416, 35.8238807], [-97.4313606, 35.8238742], [-97.4313685, 35.8238099], [-97.4314495, 35.8238164], [-97.4314416, 35.8238807]]]}, "properties": {"osm_id": 1097042660, "building": "yes", "name": "", "height": null, "height_m": null, "levels": null, "tract_id": "40083600903", "tract_name": "6009.03", "tags": {"building": "yes"}}}, {"type": "Feature", "geometry": {"type": "Polygon", "coordinates": [[[-97.4315634, 35.8239474], [-97.4314788, 35.823946], [-97.4314796, 35.8239152], [-97.4315642, 35.8239167], [-97.4315634, 35.8239474]]]}, "properties": {"osm_id": 1097042661, "building": "yes", "name": "", "height": null, "height_m": null, "levels": null, "tract_id": "40083600903", "tract_name": "6009.03", "tags": {"building": "yes"}}}, {"type": "Feature", "geometry": {"type": "Polygon", "coordinates": [[[-97.4313531, 35.8244027], [-97.4313479, 35.824363], [-97.4313114, 35.8243661], [-97.4313166, 35.8244058], [-97.4313531, 35.8244027]]]}, "properties": {"osm_id": 1097042662, "building": "yes", "name": "", "height": null, "height_m": null, "levels": null, "tract_id": "40083600903", "tract_name": "6009.03", "tags": {"building": "yes"}}}, {"type": "Feature", "geometry": {"type": "Polygon", "coordinates": [[[-97.4312631, 35.8244456], [-97.4311782, 35.8244485], [-97.4311754, 35.8243961], [-97.4311979, 35.8243953], [-97.4311928, 35.8242995], [-97.4312975, 35.8242959], [-97.4313009, 35.8243604], [-97.4312587, 35.8243619], [-97.4312631, 35.8244456]]]}, "properties": {"osm_id": 1097042663, "building": "yes", "name": "", "height": null, "height_m": null, "levels": null, "tract_id": "40083600903", "tract_name": "6009.03", "tags": {"building": "yes"}}}, {"type": "Feature", "geometry": {"type": "Polygon", "coordinates": [[[-97.4311868, 35.8247774], [-97.4311121, 35.8247802], [-97.4311077, 35.824704], [-97.4311289, 35.824694], [-97.4311282, 35.8246816], [-97.4312453, 35.8246771], [-97.4312479, 35.8247222], [-97.4311837, 35.8247246], [-97.4311868, 35.8247774]]]}, "properties": {"osm_id": 1097042664, "building": "yes", "name": "", "height": null, "height_m": null, "levels": null, "tract_id": "40083600903", "tract_name": "6009.03", "tags": {"building": "yes"}}}, {"type": "Feature", "geometry": {"type": "Polygon", "coordinates": [[[-97.4313381, 35.8249314], [-97.4312168, 35.8249344], [-97.431212, 35.8248076], [-97.4313334, 35.8248047], [-97.4313381, 35.8249314]]]}, "properties": {"osm_id": 1097042665, "building": "yes", "name": "", "height": null, "height_m": null, "levels": null, "tract_id": "40083600903", "tract_name": "6009.03", "tags": {"building": "yes"}}}, {"type": "Feature", "geometry": {"type": "Polygon", "coordinates": [[[-97.4312151, 35.8251762], [-97.4311289, 35.8251811], [-97.4311242, 35.8251265], [-97.4312104, 35.8251216], [-97.4312151, 35.8251762]]]}, "properties": {"osm_id": 1097042666, "building": "yes", "name": "", "height": null, "height_m": null, "levels": null, "tract_id": "40083600903", "tract_name": "6009.03", "tags": {"building": "yes"}}}, {"type": "Feature", "geometry": {"type": "Polygon", "coordinates": [[[-97.4312292, 35.825089], [-97.4310683, 35.8250955], [-97.4310639, 35.8250236], [-97.4310908, 35.8250225], [-97.4310885, 35.8249861], [-97.4312226, 35.8249807], [-97.4312292, 35.825089]]]}, "properties": {"osm_id": 1097042667, "building": "yes", "name": "", "height": null, "height_m": null, "levels": null, "tract_id": "40083600903", "tract_name": "6009.03", "tags": {"building": "yes"}}}, {"type": "Feature", "geometry": {"type": "Polygon", "coordinates": [[[-97.4312264, 35.8245906], [-97.43116, 35.8245914], [-97.4311593, 35.8245537], [-97.4312257, 35.8245529], [-97.4312264, 35.8245906]]]}, "properties": {"osm_id": 1097042668, "building": "yes", "name": "", "height": null, "height_m": null, "levels": null, "tract_id": "40083600903", "tract_name": "6009.03", "tags": {"building": "yes"}}}, {"type": "Feature", "geometry": {"type": "Polygon", "coordinates": [[[-97.4306153, 35.8245528], [-97.430534, 35.8245538], [-97.4305328, 35.8244888], [-97.4304232, 35.8244901], [-97.4304207, 35.82436], [-97.4306116, 35.8243576], [-97.4306153, 35.8245528]]]}, "properties": {"osm_id": 1097042669, "building": "yes", "name": "", "height": null, "height_m": null, "levels": null, "tract_id": "40083600903", "tract_name": "6009.03", "tags": {"building": "yes"}}}, {"type": "Feature", "geometry": {"type": "Polygon", "coordinates": [[[-97.4306178, 35.8249776], [-97.4305081, 35.8249793], [-97.430507, 35.824931], [-97.4303584, 35.8249333], [-97.4303554, 35.8248089], [-97.4305429, 35.824806], [-97.4305443, 35.8248639], [-97.430615, 35.8248628], [-97.4306178, 35.8249776]]]}, "properties": {"osm_id": 1097042670, "building": "yes", "name": "", "height": null, "height_m": null, "levels": null, "tract_id": "40083600903", "tract_name": "6009.03", "tags": {"building": "yes"}}}, {"type": "Feature", "geometry": {"type": "Polygon", "coordinates": [[[-97.4300304, 35.8245264], [-97.4298426, 35.8245307], [-97.4298369, 35.8243664], [-97.4300247, 35.8243622], [-97.4300304, 35.8245264]]]}, "properties": {"osm_id": 1097042671, "building": "yes", "name": "", "height": null, "height_m": null, "levels": null, "tract_id": "40083600903", "tract_name": "6009.03", "tags": {"building": "yes"}}}, {"type": "Feature", "geometry": {"type": "Polygon", "coordinates": [[[-97.4305385, 35.8237831], [-97.4304592, 35.8237841], [-97.4304595, 35.823802], [-97.4303714, 35.823803], [-97.4303604, 35.8237793], [-97.4303087, 35.8237799], [-97.4303067, 35.8236645], [-97.4305363, 35.8236618], [-97.4305385, 35.8237831]]]}, "properties": {"osm_id": 1097042672, "building": "yes", "name": "", "height": null, "height_m": null, "levels": null, "tract_id": "40083600903", "tract_name": "6009.03", "tags": {"building": "yes"}}}, {"type": "Feature", "geometry": {"type": "Polygon", "coordinates": [[[-97.4300634, 35.8237861], [-97.4299321, 35.8237916], [-97.4299341, 35.8238226], [-97.4298794, 35.8238249], [-97.4298686, 35.8236548], [-97.4299659, 35.8236508], [-97.4299682, 35.8236864], [-97.4300569, 35.8236827], [-97.4300634, 35.8237861]]]}, "properties": {"osm_id": 1097042673, "building": "yes", "name": "", "height": null, "height_m": null, "levels": null, "tract_id": "40083600903", "tract_name": "6009.03", "tags": {"building": "yes"}}}, {"type": "Feature", "geometry": {"type": "Polygon", "coordinates": [[[-97.4296299, 35.8238142], [-97.4294148, 35.8238107], [-97.429418, 35.8236838], [-97.4295426, 35.8236858], [-97.4295435, 35.8236511], [-97.429634, 35.8236526], [-97.4296299, 35.8238142]]]}, "properties": {"osm_id": 1097042674, "building": "yes", "name": "", "height": null, "height_m": null, "levels": null, "tract_id": "40083600903", "tract_name": "6009.03", "tags": {"building": "yes"}}}, {"type": "Feature", "geometry": {"type": "Polygon", "coordinates": [[[-97.4297721, 35.8251962], [-97.4296401, 35.8251992], [-97.4296346, 35.8250394], [-97.4296642, 35.8250387], [-97.4296637, 35.8250239], [-97.4297283, 35.8250224], [-97.4297264, 35.824966], [-97.4298996, 35.824962], [-97.4299031, 35.8250659], [-97.4298111, 35.825068], [-97.4298137, 35.825141], [-97.4297702, 35.825142], [-97.4297721, 35.8251962]]]}, "properties": {"osm_id": 1097042675, "building": "yes", "name": "", "height": null, "height_m": null, "levels": null, "tract_id": "40083600903", "tract_name": "6009.03", "tags": {"building": "yes"}}}, {"type": "Feature", "geometry": {"type": "Polygon", "coordinates": [[[-97.4299982, 35.8251195], [-97.4299085, 35.8251192], [-97.429909, 35.8249934], [-97.4299987, 35.8249936], [-97.4299982, 35.8251195]]]}, "properties": {"osm_id": 1097042676, "building": "yes", "name": "", "height": null, "height_m": null, "levels": null, "tract_id": "40083600903", "tract_name": "6009.03", "tags": {"building": "yes"}}}, {"type": "Feature", "geometry": {"type": "Polygon", "coordinates": [[[-97.4295326, 35.8245328], [-97.4294416, 35.824541], [-97.4294311, 35.8244643], [-97.429341, 35.8244724], [-97.4293234, 35.8243442], [-97.429593, 35.8243198], [-97.4296131, 35.8244661], [-97.4295863, 35.8244686], [-97.4295887, 35.824486], [-97.4295269, 35.8244915], [-97.4295326, 35.8245328]]]}, "properties": {"osm_id": 1097042677, "building": "yes", "name": "", "height": null, "height_m": null, "levels": null, "tract_id": "40083600903", "tract_name": "6009.03", "tags": {"building": "yes"}}}, {"type": "Feature", "geometry": {"type": "Polygon", "coordinates": [[[-97.4309169, 35.8206895], [-97.4308219, 35.8206624], [-97.4308855, 35.8205158], [-97.4309943, 35.8205468], [-97.4309632, 35.8206186], [-97.431001, 35.8206293], [-97.4309867, 35.8206623], [-97.4309351, 35.8206476], [-97.4309169, 35.8206895]]]}, "properties": {"osm_id": 1097042678, "building": "yes", "name": "", "height": null, "height_m": null, "levels": null, "tract_id": "40083600903", "tract_name": "6009.03", "tags": {"building": "yes"}}}, {"type": "Feature", "geometry": {"type": "Polygon", "coordinates": [[[-97.4304148, 35.820793], [-97.4302787, 35.8208076], [-97.4302601, 35.8206935], [-97.4303963, 35.820679], [-97.4304148, 35.820793]]]}, "properties": {"osm_id": 1097042679, "building": "yes", "name": "", "height": null, "height_m": null, "levels": null, "tract_id": "40083600903", "tract_name": "6009.03", "tags": {"building": "yes"}}}, {"type": "Feature", "geometry": {"type": "Polygon", "coordinates": [[[-97.4300388, 35.8208416], [-97.4299207, 35.8208527], [-97.4299262, 35.8208911], [-97.4297485, 35.8209078], [-97.4297282, 35.8207657], [-97.4298485, 35.8207544], [-97.4298523, 35.8207814], [-97.4300278, 35.8207649], [-97.4300388, 35.8208416]]]}, "properties": {"osm_id": 1097042680, "building": "yes", "name": "", "height": null, "height_m": null, "levels": null, "tract_id": "40083600903", "tract_name": "6009.03", "tags": {"building": "yes"}}}, {"type": "Feature", "geometry": {"type": "Polygon", "coordinates": [[[-97.4296029, 35.8209422], [-97.4295927, 35.8208742], [-97.4295065, 35.8208827], [-97.4295167, 35.8209507], [-97.4296029, 35.8209422]]]}, "properties": {"osm_id": 1097042681, "building": "yes", "name": "", "height": null, "height_m": null, "levels": null, "tract_id": "40083600903", "tract_name": "6009.03", "tags": {"building": "yes"}}}, {"type": "Feature", "geometry": {"type": "Polygon", "coordinates": [[[-97.4295072, 35.8208149], [-97.4295171, 35.8208777], [-97.4294809, 35.8208814], [-97.4294836, 35.8208986], [-97.4293753, 35.8209098], [-97.4293807, 35.8209449], [-97.4293304, 35.82095], [-97.4293256, 35.8209197], [-97.429162, 35.8209365], [-97.4291461, 35.8208351], [-97.4292394, 35.8208256], [-97.429242, 35.8208422], [-97.4295072, 35.8208149]]]}, "properties": {"osm_id": 1097042682, "building": "yes", "name": "", "height": null, "height_m": null, "levels": null, "tract_id": "40083600903", "tract_name": "6009.03", "tags": {"building": "yes"}}}, {"type": "Feature", "geometry": {"type": "Polygon", "coordinates": [[[-97.431164, 35.820191], [-97.431036, 35.8200392], [-97.4311523, 35.8199748], [-97.4312802, 35.8201266], [-97.431164, 35.820191]]]}, "properties": {"osm_id": 1097042683, "building": "yes", "name": "", "height": null, "height_m": null, "levels": null, "tract_id": "40083600903", "tract_name": "6009.03", "tags": {"building": "yes"}}}, {"type": "Feature", "geometry": {"type": "Polygon", "coordinates": [[[-97.4308616, 35.8202393], [-97.4307101, 35.8201939], [-97.4307335, 35.8201426], [-97.4306705, 35.8201238], [-97.4307035, 35.8200512], [-97.4307838, 35.8200752], [-97.430812, 35.8200132], [-97.4309462, 35.8200534], [-97.4308616, 35.8202393]]]}, "properties": {"osm_id": 1097042684, "building": "yes", "name": "", "height": null, "height_m": null, "levels": null, "tract_id": "40083600903", "tract_name": "6009.03", "tags": {"building": "yes"}}}, {"type": "Feature", "geometry": {"type": "Polygon", "coordinates": [[[-97.4303437, 35.8202427], [-97.430141, 35.8202065], [-97.4301684, 35.8201054], [-97.4301104, 35.820095], [-97.4301631, 35.8199011], [-97.4302582, 35.8199181], [-97.4302145, 35.8200793], [-97.4303801, 35.8201088], [-97.4303437, 35.8202427]]]}, "properties": {"osm_id": 1097042685, "building": "yes", "name": "", "height": null, "height_m": null, "levels": null, "tract_id": "40083600903", "tract_name": "6009.03", "tags": {"building": "yes"}}}, {"type": "Feature", "geometry": {"type": "Polygon", "coordinates": [[[-97.4300687, 35.8199764], [-97.4299576, 35.8199486], [-97.4299818, 35.8198753], [-97.4300879, 35.8198983], [-97.4300687, 35.8199764]]]}, "properties": {"osm_id": 1097042686, "building": "yes", "name": "", "height": null, "height_m": null, "levels": null, "tract_id": "40083600903", "tract_name": "6009.03", "tags": {"building": "yes"}}}, {"type": "Feature", "geometry": {"type": "Polygon", "coordinates": [[[-97.4259297, 35.8265002], [-97.4260916, 35.8264985], [-97.4260874, 35.8262289], [-97.4259238, 35.8262306], [-97.4259241, 35.8262501], [-97.4258481, 35.8262509], [-97.4258492, 35.8263284], [-97.425927, 35.8263276], [-97.4259297, 35.8265002]]]}, "properties": {"osm_id": 1149643560, "building": "yes", "name": "", "height": null, "height_m": null, "levels": null, "tract_id": "40083600903", "tract_name": "6009.03", "tags": {"addr:city": "Guthrie", "addr:housenumber": "5025", "addr:postcode": "73044", "addr:state": "OK", "addr:street": "South Sooner Road", "amenity": "place_of_worship", "building": "yes", "denomination": "jehovahs_witness", "religion": "christian", "source": "microsoft/BuildingFootprints"}}}, {"type": "Feature", "geometry": {"type": "Polygon", "coordinates": [[[-97.4243411, 35.8270877], [-97.4242909, 35.8270877], [-97.4242909, 35.8270507], [-97.4243411, 35.8270507], [-97.4243411, 35.8270877]]]}, "properties": {"osm_id": 1222877273, "building": "yes", "name": "", "height": null, "height_m": null, "levels": null, "tract_id": "40083600903", "tract_name": "6009.03", "tags": {"building": "yes"}}}, {"type": "Feature", "geometry": {"type": "Polygon", "coordinates": [[[-97.4256032, 35.8277388], [-97.4257035, 35.8277397], [-97.4257053, 35.827597], [-97.4257766, 35.8275976], [-97.4257779, 35.8274997], [-97.4255901, 35.8274982], [-97.4255893, 35.8275656], [-97.4256054, 35.8275657], [-97.4256032, 35.8277388]]]}, "properties": {"osm_id": 1222877276, "building": "detached", "name": "", "height": null, "height_m": null, "levels": null, "tract_id": "40083600903", "tract_name": "6009.03", "tags": {"building": "detached", "source": "microsoft/BuildingFootprints"}}}, {"type": "Feature", "geometry": {"type": "Polygon", "coordinates": [[[-97.4239303, 35.8267809], [-97.4240841, 35.8267789], [-97.4240822, 35.826682], [-97.4239284, 35.826684], [-97.4239303, 35.8267809]]]}, "properties": {"osm_id": 1222877277, "building": "yes", "name": "", "height": null, "height_m": null, "levels": null, "tract_id": "40083600903", "tract_name": "6009.03", "tags": {"building": "yes", "source": "microsoft/BuildingFootprints"}}}, {"type": "Feature", "geometry": {"type": "Polygon", "coordinates": [[[-97.4258792, 35.8302116], [-97.4259168, 35.8303913], [-97.4260002, 35.8303798], [-97.4259626, 35.8302001], [-97.4258792, 35.8302116]]]}, "properties": {"osm_id": 1222877278, "building": "yes", "name": "", "height": null, "height_m": null, "levels": null, "tract_id": "40083600903", "tract_name": "6009.03", "tags": {"building": "yes", "source": "microsoft/BuildingFootprints"}}}, {"type": "Feature", "geometry": {"type": "Polygon", "coordinates": [[[-97.424914, 35.8264546], [-97.4250222, 35.8264526], [-97.4250197, 35.8263656], [-97.4249115, 35.8263676], [-97.424914, 35.8264546]]]}, "properties": {"osm_id": 1222877279, "building": "detached", "name": "", "height": null, "height_m": null, "levels": null, "tract_id": "40083600903", "tract_name": "6009.03", "tags": {"building": "detached", "source": "microsoft/BuildingFootprints"}}}, {"type": "Feature", "geometry": {"type": "Polygon", "coordinates": [[[-97.4246487, 35.827049], [-97.4247864, 35.8270465], [-97.4247829, 35.8269191], [-97.424723, 35.8269202], [-97.4247237, 35.8269454], [-97.4246459, 35.8269468], [-97.4246487, 35.827049]]]}, "properties": {"osm_id": 1222877280, "building": "yes", "name": "", "height": null, "height_m": null, "levels": null, "tract_id": "40083600903", "tract_name": "6009.03", "tags": {"building": "yes", "shop": "yes", "source": "microsoft/BuildingFootprints"}}}, {"type": "Feature", "geometry": {"type": "Polygon", "coordinates": [[[-97.4246999, 35.8267743], [-97.4247003, 35.8267904], [-97.4247673, 35.8267894], [-97.4247651, 35.8266937], [-97.4245479, 35.8266971], [-97.4245498, 35.8267766], [-97.4246999, 35.8267743]]]}, "properties": {"osm_id": 1222877281, "building": "detached", "name": "", "height": null, "height_m": null, "levels": null, "tract_id": "40083600903", "tract_name": "6009.03", "tags": {"building": "detached", "source": "microsoft/BuildingFootprints"}}}, {"type": "Feature", "geometry": {"type": "Polygon", "coordinates": [[[-97.4237922, 35.8266429], [-97.4239611, 35.8266405], [-97.423959, 35.826547], [-97.4237901, 35.8265495], [-97.4237922, 35.8266429]]]}, "properties": {"osm_id": 1222877282, "building": "yes", "name": "", "height": null, "height_m": null, "levels": null, "tract_id": "40083600903", "tract_name": "6009.03", "tags": {"building": "yes", "source": "microsoft/BuildingFootprints"}}}, {"type": "Feature", "geometry": {"type": "Polygon", "coordinates": [[[-97.4239696, 35.8300908], [-97.4238722, 35.8300929], [-97.4238777, 35.8302614], [-97.4239044, 35.8302609], [-97.4239061, 35.8303135], [-97.4239768, 35.830312], [-97.4239696, 35.8300908]]]}, "properties": {"osm_id": 1222877283, "building": "yes", "name": "", "height": null, "height_m": null, "levels": null, "tract_id": "40083600903", "tract_name": "6009.03", "tags": {"building": "yes", "source": "microsoft/BuildingFootprints"}}}, {"type": "Feature", "geometry": {"type": "Polygon", "coordinates": [[[-97.4247324, 35.8271442], [-97.4248262, 35.8271424], [-97.4248241, 35.8270655], [-97.4247302, 35.8270672], [-97.4247324, 35.8271442]]]}, "properties": {"osm_id": 1222877284, "building": "yes", "name": "", "height": null, "height_m": null, "levels": null, "tract_id": "40083600903", "tract_name": "6009.03", "tags": {"building": "yes", "source": "microsoft/BuildingFootprints"}}}, {"type": "Feature", "geometry": {"type": "Polygon", "coordinates": [[[-97.4261826, 35.8287072], [-97.4260506, 35.8287053], [-97.4260481, 35.8288227], [-97.426084, 35.8288233], [-97.4260833, 35.828858], [-97.4261792, 35.8288594], [-97.42618, 35.8288252], [-97.4262002, 35.8288255], [-97.4262022, 35.8287375], [-97.4261819, 35.8287372], [-97.4261826, 35.8287072]]]}, "properties": {"osm_id": 1222877285, "building": "detached", "name": "", "height": null, "height_m": null, "levels": null, "tract_id": "40083600903", "tract_name": "6009.03", "tags": {"building": "detached", "source": "microsoft/BuildingFootprints"}}}, {"type": "Feature", "geometry": {"type": "Polygon", "coordinates": [[[-97.4242818, 35.827002], [-97.4240298, 35.8269988], [-97.424028, 35.8270879], [-97.4242801, 35.8270912], [-97.4242818, 35.827002]]]}, "properties": {"osm_id": 1222877286, "building": "detached", "name": "", "height": null, "height_m": null, "levels": null, "tract_id": "40083600903", "tract_name": "6009.03", "tags": {"building": "detached", "source": "microsoft/BuildingFootprints"}}}, {"type": "Feature", "geometry": {"type": "Polygon", "coordinates": [[[-97.4241954, 35.8267787], [-97.4243509, 35.8267772], [-97.4243495, 35.8266803], [-97.424194, 35.8266818], [-97.4241954, 35.8267787]]]}, "properties": {"osm_id": 1222877287, "building": "yes", "name": "", "height": null, "height_m": null, "levels": null, "tract_id": "40083600903", "tract_name": "6009.03", "tags": {"building": "yes", "source": "microsoft/BuildingFootprints"}}}, {"type": "Feature", "geometry": {"type": "Polygon", "coordinates": [[[-97.42357, 35.829739], [-97.423653, 35.829709], [-97.423523, 35.829478], [-97.423441, 35.829509], [-97.42357, 35.829739]]]}, "properties": {"osm_id": 1222877288, "building": "yes", "name": "", "height": null, "height_m": null, "levels": null, "tract_id": "40083600903", "tract_name": "6009.03", "tags": {"building": "yes", "source": "microsoft/BuildingFootprints"}}}, {"type": "Feature", "geometry": {"type": "Polygon", "coordinates": [[[-97.4240305, 35.8266049], [-97.4240289, 35.8265419], [-97.4239673, 35.8265429], [-97.4239698, 35.8266494], [-97.4240047, 35.8266488], [-97.4240036, 35.8266054], [-97.4240305, 35.8266049]]]}, "properties": {"osm_id": 1222877289, "building": "yes", "name": "", "height": null, "height_m": null, "levels": null, "tract_id": "40083600903", "tract_name": "6009.03", "tags": {"building": "yes", "source": "microsoft/BuildingFootprints"}}}, {"type": "Feature", "geometry": {"type": "Polygon", "coordinates": [[[-97.4260057, 35.8275314], [-97.4259038, 35.8275327], [-97.4259059, 35.8276428], [-97.4258522, 35.8276434], [-97.4258539, 35.8277304], [-97.4261247, 35.827727], [-97.4261231, 35.8276409], [-97.4260078, 35.8276423], [-97.4260057, 35.8275314]]]}, "properties": {"osm_id": 1222877290, "building": "detached", "name": "", "height": null, "height_m": null, "levels": null, "tract_id": "40083600903", "tract_name": "6009.03", "tags": {"building": "detached", "source": "microsoft/BuildingFootprints"}}}]}