{"type": "FeatureCollection", "features": [{"type": "Feature", "geometry": {"type": "Polygon", "coordinates": [[[-95.7770719, 36.060457], [-95.7770196, 36.0605006], [-95.7766788, 36.0602333], [-95.7766364, 36.0601982], [-95.776884, 36.0600029], [-95.7768284, 36.0599569], [-95.7768774, 36.0599182], [-95.7768997, 36.0599366], [-95.7769774, 36.0598753], [-95.7770531, 36.059938], [-95.7772107, 36.0598137], [-95.7772889, 36.0598776], [-95.7775035, 36.0600531], [-95.7775723, 36.0601094], [-95.7771042, 36.0604835], [-95.7770719, 36.060457]]]}, "properties": {"osm_id": 109667447, "building": "retail", "name": "", "height": null, "height_m": null, "levels": null, "tract_id": "40143007408", "tract_name": "74.08", "tags": {"addr:city": "Broken Arrow", "addr:postcode": "74012", "addr:state": "OK", "addr:street": "East Kenosha Street", "building": "retail", "old_name": "Sky Fitness; +1 918 251 2674"}}}, {"type": "Feature", "geometry": {"type": "Polygon", "coordinates": [[[-95.7638808, 36.0606253], [-95.7638794, 36.0603955], [-95.7637271, 36.0603961], [-95.7637279, 36.0605337], [-95.763738, 36.0605337], [-95.7637386, 36.0606259], [-95.7638808, 36.0606253]]]}, "properties": {"osm_id": 262087337, "building": "yes", "name": "Whataburger", "height": null, "height_m": null, "levels": null, "tract_id": "40143007408", "tract_name": "74.08", "tags": {"addr:city": "Broken Arrow", "addr:housenumber": "2341", "addr:postcode": "74012", "addr:state": "OK", "addr:street": "East Kenosha Street", "amenity": "fast_food", "branch": "Kenosha & Highway 51", "brand": "Whataburger", "brand:wikidata": "Q376627", "building": "yes", "check_date": "2023-07-19", "cuisine": "burger", "drive_through": "yes", "name": "Whataburger", "phone": "+1 918-355-4052", "takeaway": "yes", "website": "https://locations.whataburger.com/ok/broken-arrow/2341-e-kenosha-st.html"}}}, {"type": "Feature", "geometry": {"type": "Polygon", "coordinates": [[[-95.7792337, 36.0597669], [-95.7789703, 36.0597674], [-95.7789697, 36.0595682], [-95.7792332, 36.0595677], [-95.7792337, 36.0597669]]]}, "properties": {"osm_id": 425096632, "building": "yes", "name": "Coney I-Lander", "height": null, "height_m": null, "levels": null, "tract_id": "40143007408", "tract_name": "74.08", "tags": {"addr:city": "Broken Arrow", "addr:country": "US", "addr:housenumber": "901", "addr:postcode": "74012", "addr:state": "OK", "addr:street": "North 9th Street East", "amenity": "fast_food", "building": "yes", "name": "Coney I-Lander", "opening_hours": "11:00-21:00"}}}, {"type": "Feature", "geometry": {"type": "Polygon", "coordinates": [[[-95.7742064, 36.06065], [-95.7740955, 36.0606502], [-95.7740949, 36.0604366], [-95.7742058, 36.0604364], [-95.7742064, 36.06065]]]}, "properties": {"osm_id": 425096635, "building": "yes", "name": "Taco Bell", "height": null, "height_m": null, "levels": null, "tract_id": "40143007408", "tract_name": "74.08", "tags": {"addr:city": "Broken Arrow", "addr:housenumber": "1361", "addr:postcode": "74012", "addr:state": "OK", "addr:street": "East Kenosha Street", "amenity": "fast_food", "brand": "Taco Bell", "brand:wikidata": "Q752941", "building": "yes", "cuisine": "tex-mex", "name": "Taco Bell", "opening_hours": "Mo-Th 08:00-02:00; Fr-Sa 08:00-04:00; Su 08:00-02:00", "phone": "+1 918-251-1742", "takeaway": "yes", "website": "https://locations.tacobell.com/ok/broken-arrow/1361-e--kenosha-street.html"}}}, {"type": "Feature", "geometry": {"type": "Polygon", "coordinates": [[[-95.7759725, 36.0605801], [-95.7758617, 36.0605803], [-95.7758609, 36.0602968], [-95.7759717, 36.0602966], [-95.7759725, 36.0605801]]]}, "properties": {"osm_id": 425096638, "building": "yes", "name": "RNR Tire Express", "height": null, "height_m": null, "levels": null, "tract_id": "40143007408", "tract_name": "74.08", "tags": {"addr:city": "Broken Arrow", "addr:housenumber": "1289", "addr:postcode": "74012", "addr:street": "East Kenosha Street", "building": "yes", "name": "RNR Tire Express", "phone": "+1 918 940 2929", "shop": "tyres"}}}, {"type": "Feature", "geometry": {"type": "Polygon", "coordinates": [[[-95.7740403, 36.0606132], [-95.7739366, 36.0606134], [-95.7737868, 36.0606137], [-95.7737279, 36.0606138], [-95.7736652, 36.0606139], [-95.7735951, 36.060614], [-95.7735188, 36.0606141], [-95.7734463, 36.0606143], [-95.7733796, 36.0606144], [-95.7733118, 36.0606145], [-95.7730848, 36.0606149], [-95.7730844, 36.0604863], [-95.7740399, 36.0604846], [-95.7740403, 36.0606132]]]}, "properties": {"osm_id": 425096640, "building": "yes", "name": "", "height": null, "height_m": null, "levels": null, "tract_id": "40143007408", "tract_name": "74.08", "tags": {"building": "yes"}}}, {"type": "Feature", "geometry": {"type": "Polygon", "coordinates": [[[-95.7747594, 36.06065], [-95.7746052, 36.0606503], [-95.7746047, 36.060466], [-95.7747589, 36.0604657], [-95.7747594, 36.06065]]]}, "properties": {"osm_id": 425096643, "building": "yes", "name": "KFC", "height": null, "height_m": null, "levels": null, "tract_id": "40143007408", "tract_name": "74.08", "tags": {"addr:city": "Broken Arrow", "addr:housenumber": "1341", "addr:postcode": "74012", "addr:state": "OK", "addr:street": "East Kenosha Street", "alt_name": "Kentucky Fried Chicken", "amenity": "fast_food", "brand": "KFC", "brand:wikidata": "Q524757", "building": "yes", "cuisine": "chicken", "name": "KFC", "takeaway": "yes", "website": "https://locations.kfc.com/ok/broken-arrow/1341-e-kenosha-street"}}}, {"type": "Feature", "geometry": {"type": "Polygon", "coordinates": [[[-95.7623262, 36.0605962], [-95.7623261, 36.0604097], [-95.7622236, 36.0604097], [-95.7622237, 36.0605962], [-95.7623262, 36.0605962]]]}, "properties": {"osm_id": 437264535, "building": "yes", "name": "Sonic", "height": null, "height_m": null, "levels": null, "tract_id": "40143007408", "tract_name": "74.08", "tags": {"addr:city": "Broken Arrow", "addr:housenumber": "2361", "addr:postcode": "74012", "addr:state": "OK", "addr:street": "East Kenosha Street", "amenity": "fast_food", "brand": "Sonic", "brand:wikidata": "Q7561808", "building": "yes", "check_date": "2023-07-19", "cuisine": "burger", "drive_in": "yes", "name": "Sonic", "opening_hours": "Mo-Th 06:00-23:00; Fr-Sa 06:00-24:00; Su 07:00-23:00", "phone": "+1 918-355-4210", "takeaway": "yes", "website": "https://locations.sonicdrivein.com/ok/brokenarrow/2361-e.-kenosha-street-e.-kenosha-st-county-line-rd.html"}}}, {"type": "Feature", "geometry": {"type": "Polygon", "coordinates": [[[-95.762381, 36.060592], [-95.7624283, 36.0605916], [-95.7624255, 36.0603809], [-95.7623782, 36.0603813], [-95.762381, 36.060592]]]}, "properties": {"osm_id": 437264536, "building": "roof", "name": "", "height": null, "height_m": null, "levels": null, "tract_id": "40143007408", "tract_name": "74.08", "tags": {"building": "roof", "layer": "1"}}}, {"type": "Feature", "geometry": {"type": "Polygon", "coordinates": [[[-95.7625931, 36.0606079], [-95.7625939, 36.0604171], [-95.7625432, 36.0604169], [-95.7625424, 36.0606077], [-95.7625931, 36.0606079]]]}, "properties": {"osm_id": 437264537, "building": "roof", "name": "", "height": null, "height_m": null, "levels": null, "tract_id": "40143007408", "tract_name": "74.08", "tags": {"building": "roof", "layer": "1"}}}, {"type": "Feature", "geometry": {"type": "Polygon", "coordinates": [[[-95.7621359, 36.0606583], [-95.7621357, 36.0604149], [-95.7620844, 36.0604149], [-95.7620847, 36.0606583], [-95.7621359, 36.0606583]]]}, "properties": {"osm_id": 437264538, "building": "roof", "name": "", "height": null, "height_m": null, "levels": null, "tract_id": "40143007408", "tract_name": "74.08", "tags": {"building": "roof", "layer": "1"}}}, {"type": "Feature", "geometry": {"type": "Polygon", "coordinates": [[[-95.7784968, 36.0604834], [-95.778183, 36.0604823], [-95.7781835, 36.0603952], [-95.7783357, 36.0603957], [-95.778336, 36.0603402], [-95.778399, 36.0603404], [-95.7783989, 36.0603551], [-95.7784975, 36.0603554], [-95.7784968, 36.0604834]]]}, "properties": {"osm_id": 448841453, "building": "yes", "name": "Express Oil Change & Tire Engineers", "height": null, "height_m": null, "levels": null, "tract_id": "40143007408", "tract_name": "74.08", "tags": {"addr:city": "Broken Arrow", "addr:country": "US", "addr:housenumber": "1041", "addr:postcode": "74012", "addr:state": "OK", "addr:street": "East Kenosha Street", "brand": "Express Oil Change & Tire Engineers", "brand:wikidata": "Q39057654", "building": "yes", "name": "Express Oil Change & Tire Engineers", "opening_hours": "Mo-Fr 08:00-18:00;Sa 08:00-17:00", "phone": "+1-918-251-5823", "ref:expressoil": "EOC1100", "shop": "tyres", "website": "https://www.expressoil.com/stores/broken-arrow/ok/1100/"}}}, {"type": "Feature", "geometry": {"type": "Polygon", "coordinates": [[[-95.778818, 36.0597798], [-95.777843, 36.0597766], [-95.7775035, 36.0600531], [-95.7772889, 36.0598776], [-95.7773799, 36.0598047], [-95.7776461, 36.0595914], [-95.7777223, 36.0595304], [-95.7783245, 36.0595315], [-95.7783245, 36.0595727], [-95.778818, 36.0595738], [-95.778818, 36.0597798]]]}, "properties": {"osm_id": 448841454, "building": "retail", "name": "", "height": null, "height_m": null, "levels": null, "tract_id": "40143007408", "tract_name": "74.08", "tags": {"building": "retail"}}}, {"type": "Feature", "geometry": {"type": "Polygon", "coordinates": [[[-95.774779, 36.0599457], [-95.7740173, 36.0599457], [-95.7740173, 36.0597159], [-95.7740817, 36.0597159], [-95.7740817, 36.0596291], [-95.774323, 36.0596335], [-95.774323, 36.0596855], [-95.7745644, 36.0596855], [-95.7745698, 36.0592432], [-95.7747817, 36.0592432], [-95.774779, 36.0599457]]]}, "properties": {"osm_id": 494922387, "building": "apartments", "name": "Hartford Villas - Senior Apartments", "height": null, "height_m": 9.0, "levels": 3, "tract_id": "40143007408", "tract_name": "74.08", "tags": {"addr:city": "Broken Arrow", "addr:housenumber": "714", "addr:postcode": "74012", "addr:state": "OK", "addr:street": "North 14th Street", "building": "apartments", "building:levels": "3", "name": "Hartford Villas - Senior Apartments"}}}, {"type": "Feature", "geometry": {"type": "Polygon", "coordinates": [[[-95.7636009, 36.0597026], [-95.763389, 36.0597026], [-95.7633246, 36.0597525], [-95.7630028, 36.059759], [-95.762933, 36.0597004], [-95.7627238, 36.0597026], [-95.7627211, 36.0591497], [-95.7632281, 36.059154], [-95.7632281, 36.0591085], [-95.7635928, 36.0591063], [-95.7636009, 36.0597026]]]}, "properties": {"osm_id": 529508390, "building": "retail", "name": "Atwood's", "height": null, "height_m": null, "levels": null, "tract_id": "40143007408", "tract_name": "74.08", "tags": {"addr:city": "Broken Arrow", "addr:housenumber": "2351", "addr:postcode": "74012-2055", "addr:street": "East Kenosha Street", "building": "retail", "check_date": "2025-02-24", "check_date:opening_hours": "2025-02-24", "name": "Atwood's", "opening_hours": "Mo-Sa 07:00-21:00; Su 07:00-19:00", "phone": "+1 918 355 1300", "ref": "21", "shop": "hardware"}}}, {"type": "Feature", "geometry": {"type": "Polygon", "coordinates": [[[-95.7775764, 36.0606898], [-95.7775764, 36.0606757], [-95.7775368, 36.0606747], [-95.7775348, 36.0606898], [-95.7775764, 36.0606898]]]}, "properties": {"osm_id": 529508393, "building": "service", "name": "ATM", "height": null, "height_m": null, "levels": null, "tract_id": "40143007408", "tract_name": "74.08", "tags": {"building": "service", "name": "ATM"}}}, {"type": "Feature", "geometry": {"type": "Polygon", "coordinates": [[[-95.7787569, 36.0605449], [-95.779072, 36.0602915], [-95.7791678, 36.0603693], [-95.779133, 36.0603973], [-95.7791806, 36.060436], [-95.7789002, 36.0606614], [-95.7787569, 36.0605449]]]}, "properties": {"osm_id": 842862757, "building": "commercial", "name": "Discount Tire", "height": null, "height_m": null, "levels": null, "tract_id": "40143007408", "tract_name": "74.08", "tags": {"addr:city": "Broken Arrow", "addr:country": "US", "addr:housenumber": "1001", "addr:postcode": "74012", "addr:state": "OK", "addr:street": "East Kenosha Street", "air_conditioning": "yes", "brand": "Discount Tire", "brand:wikidata": "Q5281735", "building": "commercial", "name": "Discount Tire", "shop": "tyres"}}}, {"type": "Feature", "geometry": {"type": "Polygon", "coordinates": [[[-95.7751883, 36.0605895], [-95.7751883, 36.0604513], [-95.7752455, 36.0604511], [-95.7754152, 36.0604505], [-95.7754753, 36.0604502], [-95.7754753, 36.0605901], [-95.775414, 36.06059], [-95.7753774, 36.0605899], [-95.7753773, 36.06062], [-95.7752874, 36.0606198], [-95.7752875, 36.0605897], [-95.775245, 36.0605896], [-95.7751883, 36.0605895]]]}, "properties": {"osm_id": 927707727, "building": "yes", "name": "", "height": null, "height_m": null, "levels": null, "tract_id": "40143007408", "tract_name": "74.08", "tags": {"addr:city": "Broken Arrow", "addr:housenumber": "1325", "addr:postcode": "74012", "addr:street": "East Kenosha Street", "building": "yes", "fixme": "checking older imagery against newer, the west end of the building went away. Survey to verify, but I think the remaining portion is now part of the car wash.", "shop": "car_repair"}}}, {"type": "Feature", "geometry": {"type": "Polygon", "coordinates": [[[-95.7751883, 36.0606421], [-95.7751536, 36.0606421], [-95.7751192, 36.0606421], [-95.7751192, 36.0606004], [-95.775089, 36.0606004], [-95.775089, 36.0604069], [-95.7751192, 36.0604069], [-95.7751192, 36.0603646], [-95.775153, 36.0603646], [-95.7751883, 36.0603646], [-95.7751883, 36.0604513], [-95.7751883, 36.0605895], [-95.7751883, 36.0606421]]]}, "properties": {"osm_id": 927707731, "building": "yes", "name": "BA Carwash", "height": null, "height_m": null, "levels": null, "tract_id": "40143007408", "tract_name": "74.08", "tags": {"amenity": "car_wash", "building": "yes", "name": "BA Carwash"}}}, {"type": "Feature", "geometry": {"type": "Polygon", "coordinates": [[[-95.7745471, 36.0497069], [-95.7734866, 36.0497073], [-95.7734848, 36.04746], [-95.7745457, 36.0474595], [-95.7745471, 36.0497069]]]}, "properties": {"osm_id": 972954315, "building": "industrial", "name": "FedEx", "height": null, "height_m": null, "levels": null, "tract_id": "40143007408", "tract_name": "74.08", "tags": {"building": "industrial", "industrial": "trucking", "name": "FedEx"}}}, {"type": "Feature", "geometry": {"type": "Polygon", "coordinates": [[[-95.7792048, 36.0585939], [-95.779206, 36.0583972], [-95.7791602, 36.058397], [-95.7791608, 36.0583025], [-95.7790516, 36.058302], [-95.7790498, 36.0585937], [-95.7790956, 36.0585939], [-95.7790953, 36.05864], [-95.7791811, 36.0586404], [-95.7791814, 36.0585938], [-95.7792048, 36.0585939]]]}, "properties": {"osm_id": 1164772338, "building": "retail", "name": "Liberty Laundry", "height": null, "height_m": null, "levels": null, "tract_id": "40143007408", "tract_name": "74.08", "tags": {"addr:city": "Broken Arrow", "addr:housenumber": "709", "addr:postcode": "74012", "addr:street": "North 9th Street East", "building": "retail", "name": "Liberty Laundry", "opening_hours": "Su-Sa 07:00-21:00", "self_service": "yes", "shop": "laundry"}}}, {"type": "Feature", "geometry": {"type": "Polygon", "coordinates": [[[-95.7793791, 36.0514573], [-95.7793779, 36.0512747], [-95.7793716, 36.0512747], [-95.7793715, 36.0512576], [-95.779359, 36.0512577], [-95.7793586, 36.0511954], [-95.7793495, 36.0511955], [-95.7793495, 36.0511919], [-95.7792785, 36.0511922], [-95.7792785, 36.0511862], [-95.7790405, 36.0511874], [-95.7790406, 36.0511933], [-95.7789696, 36.0511937], [-95.7789697, 36.0511973], [-95.7789606, 36.0511974], [-95.7789611, 36.0512596], [-95.7789486, 36.0512596], [-95.7789488, 36.0512767], [-95.7789424, 36.0512768], [-95.778944, 36.0514594], [-95.7790276, 36.0514589], [-95.7790277, 36.0514761], [-95.7790539, 36.0514759], [-95.7790522, 36.0512741], [-95.7792681, 36.0512731], [-95.7792694, 36.0514749], [-95.7792955, 36.0514748], [-95.7792954, 36.0514576], [-95.7793791, 36.0514573]]]}, "properties": {"osm_id": 1172897852, "building": "apartments", "name": "Lynndale Garden", "height": null, "height_m": null, "levels": null, "tract_id": "40143007408", "tract_name": "74.08", "tags": {"building": "apartments", "name": "Lynndale Garden"}}}, {"type": "Feature", "geometry": {"type": "Polygon", "coordinates": [[[-95.7716281, 36.0577791], [-95.7716265, 36.0574931], [-95.7712803, 36.0574944], [-95.771281, 36.0576129], [-95.7714804, 36.0576121], [-95.7714814, 36.0577796], [-95.7716281, 36.0577791]]]}, "properties": {"osm_id": 1172898052, "building": "church", "name": "", "height": null, "height_m": null, "levels": null, "tract_id": "40143007408", "tract_name": "74.08", "tags": {"amenity": "place_of_worship", "building": "church", "religion": "christian"}}}, {"type": "Feature", "geometry": {"type": "Polygon", "coordinates": [[[-95.7621467, 36.0601776], [-95.7621467, 36.0599694], [-95.762313, 36.0599694], [-95.762313, 36.0601776], [-95.7621467, 36.0601776]]]}, "properties": {"osm_id": 1234909216, "building": "retail", "name": "The Service Department", "height": null, "height_m": null, "levels": null, "tract_id": "40143007408", "tract_name": "74.08", "tags": {"building": "retail", "name": "The Service Department", "shop": "car_repair"}}}, {"type": "Feature", "geometry": {"type": "Polygon", "coordinates": [[[-95.7664303, 36.0601435], [-95.7664986, 36.0601434], [-95.7664993, 36.0603644], [-95.766431, 36.0603646], [-95.7664316, 36.0605653], [-95.7662585, 36.0605657], [-95.7662565, 36.0598946], [-95.7664295, 36.0598943], [-95.7664303, 36.0601435]]]}, "properties": {"osm_id": 1234909218, "building": "yes", "name": "Warren Clinic", "height": null, "height_m": null, "levels": null, "tract_id": "40143007408", "tract_name": "74.08", "tags": {"addr:street": "East Kenosha Street", "amenity": "clinic", "building": "yes", "healthcare": "clinic", "name": "Warren Clinic"}}}, {"type": "Feature", "geometry": {"type": "Polygon", "coordinates": [[[-95.7660037, 36.0605825], [-95.7657906, 36.0605816], [-95.7657926, 36.060265], [-95.7660057, 36.0602659], [-95.7660037, 36.0605825]]]}, "properties": {"osm_id": 1234909219, "building": "retail", "name": "AutoZone", "height": null, "height_m": null, "levels": null, "tract_id": "40143007408", "tract_name": "74.08", "tags": {"brand": "AutoZone", "brand:wikidata": "Q4826087", "building": "retail", "name": "AutoZone", "shop": "car_parts"}}}, {"type": "Feature", "geometry": {"type": "Polygon", "coordinates": [[[-95.7777733, 36.047055], [-95.7774675, 36.0470561], [-95.7774661, 36.0467981], [-95.7777719, 36.046797], [-95.7777733, 36.047055]]]}, "properties": {"osm_id": 1238384761, "building": "industrial", "name": "Black and McDonald", "height": null, "height_m": null, "levels": null, "tract_id": "40143007408", "tract_name": "74.08", "tags": {"addr:housenumber": "1100", "addr:postcode": "74012", "addr:street": "East Houston Street", "building": "industrial", "name": "Black and McDonald"}}}, {"type": "Feature", "geometry": {"type": "Polygon", "coordinates": [[[-95.7772529, 36.0474562], [-95.7765435, 36.0474562], [-95.7765435, 36.0468609], [-95.7772529, 36.0468609], [-95.7772529, 36.0474562]]]}, "properties": {"osm_id": 1238384762, "building": "industrial", "name": "MicroFrame", "height": null, "height_m": null, "levels": null, "tract_id": "40143007408", "tract_name": "74.08", "tags": {"building": "industrial", "name": "MicroFrame"}}}, {"type": "Feature", "geometry": {"type": "Polygon", "coordinates": [[[-95.7786088, 36.0469292], [-95.7782802, 36.0469292], [-95.7782802, 36.0467905], [-95.7786088, 36.0467905], [-95.7786088, 36.0469292]]]}, "properties": {"osm_id": 1238384763, "building": "industrial", "name": "Transmission Clinics", "height": null, "height_m": null, "levels": null, "tract_id": "40143007408", "tract_name": "74.08", "tags": {"building": "industrial", "name": "Transmission Clinics", "phone": "+1 918 258 8674", "shop": "car_repair"}}}, {"type": "Feature", "geometry": {"type": "Polygon", "coordinates": [[[-95.7791854, 36.0469726], [-95.7787751, 36.0469726], [-95.7787751, 36.0468045], [-95.7791854, 36.0468045], [-95.7791854, 36.0469726]]]}, "properties": {"osm_id": 1238384764, "building": "industrial", "name": "The Phoenix Group", "height": null, "height_m": null, "levels": null, "tract_id": "40143007408", "tract_name": "74.08", "tags": {"building": "industrial", "description": "Restoration Services. They restore houses that have been damaged by water or fire.", "name": "The Phoenix Group", "phone": "+1 918 321 2100"}}}, {"type": "Feature", "geometry": {"type": "Polygon", "coordinates": [[[-95.7765826, 36.0605289], [-95.7766834, 36.0605286], [-95.776684, 36.0606771], [-95.7765833, 36.0606774], [-95.7765826, 36.0605289]]]}, "properties": {"osm_id": 1245905484, "building": "retail", "name": "Salad and Go", "height": null, "height_m": null, "levels": null, "tract_id": "40143007408", "tract_name": "74.08", "tags": {"addr:city": "Broken Arrow", "addr:country": "US", "addr:housenumber": "1209", "addr:postcode": "74012", "addr:state": "OK", "addr:street": "East Kenosha Street", "amenity": "fast_food", "brand": "Salad and Go", "brand:wikidata": "Q110127908", "building": "retail", "cuisine": "salad", "name": "Salad and Go", "takeaway": "yes"}}}, {"type": "Feature", "geometry": {"type": "Polygon", "coordinates": [[[-95.7763955, 36.0595755], [-95.7764184, 36.0595579], [-95.7765006, 36.059628], [-95.7764777, 36.0596456], [-95.7763955, 36.0595755]]]}, "properties": {"osm_id": 1278198946, "building": "roof", "name": "", "height": null, "height_m": null, "levels": null, "tract_id": "40143007408", "tract_name": "74.08", "tags": {"building": "roof", "layer": "1"}}}, {"type": "Feature", "geometry": {"type": "Polygon", "coordinates": [[[-95.7785839, 36.0542897], [-95.7784894, 36.0542895], [-95.7784902, 36.0540332], [-95.7785847, 36.0540334], [-95.7785846, 36.0540785], [-95.7785845, 36.0540915], [-95.7785842, 36.0541805], [-95.7785842, 36.0541945], [-95.7785839, 36.0542827], [-95.7785839, 36.0542897]]]}, "properties": {"osm_id": 1278496262, "building": "apartments", "name": "", "height": null, "height_m": null, "levels": null, "tract_id": "40143007408", "tract_name": "74.08", "tags": {"building": "apartments"}}}, {"type": "Feature", "geometry": {"type": "Polygon", "coordinates": [[[-95.7787627, 36.0541305], [-95.7787497, 36.0541305], [-95.7786441, 36.0541302], [-95.7786326, 36.0541302], [-95.7786328, 36.0540548], [-95.7787629, 36.054055], [-95.7787627, 36.0541305]]]}, "properties": {"osm_id": 1278496263, "building": "apartments", "name": "", "height": null, "height_m": null, "levels": null, "tract_id": "40143007408", "tract_name": "74.08", "tags": {"building": "apartments"}}}, {"type": "Feature", "geometry": {"type": "Polygon", "coordinates": [[[-95.7789032, 36.0542914], [-95.7788087, 36.0542912], [-95.7788087, 36.0542843], [-95.778809, 36.0541961], [-95.778809, 36.0541821], [-95.7788093, 36.054093], [-95.7788094, 36.05408], [-95.7788095, 36.0540349], [-95.778904, 36.0540351], [-95.7789032, 36.0542914]]]}, "properties": {"osm_id": 1278496264, "building": "apartments", "name": "", "height": null, "height_m": null, "levels": null, "tract_id": "40143007408", "tract_name": "74.08", "tags": {"building": "apartments"}}}, {"type": "Feature", "geometry": {"type": "Polygon", "coordinates": [[[-95.7788947, 36.0543947], [-95.7784902, 36.0543938], [-95.7784905, 36.0543181], [-95.778559, 36.0543182], [-95.7785702, 36.0543183], [-95.7786781, 36.0543185], [-95.7786909, 36.0543185], [-95.7787979, 36.0543187], [-95.7788091, 36.0543187], [-95.7788874, 36.0543189], [-95.7788949, 36.0543189], [-95.7788947, 36.0543947]]]}, "properties": {"osm_id": 1278496265, "building": "apartments", "name": "", "height": null, "height_m": null, "levels": null, "tract_id": "40143007408", "tract_name": "74.08", "tags": {"building": "apartments"}}}, {"type": "Feature", "geometry": {"type": "Polygon", "coordinates": [[[-95.77933, 36.0568987], [-95.779255, 36.0568986], [-95.7792553, 36.0567416], [-95.7793302, 36.0567417], [-95.7793301, 36.0567913], [-95.77933, 36.0568593], [-95.77933, 36.0568987]]]}, "properties": {"osm_id": 1278496267, "building": "apartments", "name": "", "height": null, "height_m": null, "levels": null, "tract_id": "40143007408", "tract_name": "74.08", "tags": {"addr:city": "Broken Arrow", "addr:housenumber": "509", "addr:postcode": "74012", "addr:street": "North 9th Street East", "building": "apartments"}}}, {"type": "Feature", "geometry": {"type": "Polygon", "coordinates": [[[-95.7793128, 36.0570974], [-95.7792204, 36.0570974], [-95.7792207, 36.0569253], [-95.779313, 36.0569254], [-95.7793128, 36.0570974]]]}, "properties": {"osm_id": 1278496268, "building": "apartments", "name": "", "height": null, "height_m": null, "levels": null, "tract_id": "40143007408", "tract_name": "74.08", "tags": {"addr:city": "Broken Arrow", "addr:housenumber": "513", "addr:postcode": "74012", "addr:street": "North 9th Street East", "building": "apartments"}}}, {"type": "Feature", "geometry": {"type": "Polygon", "coordinates": [[[-95.7793136, 36.0573522], [-95.7792212, 36.0573521], [-95.7792215, 36.0571801], [-95.7793139, 36.0571802], [-95.7793136, 36.0573522]]]}, "properties": {"osm_id": 1278496269, "building": "apartments", "name": "", "height": null, "height_m": null, "levels": null, "tract_id": "40143007408", "tract_name": "74.08", "tags": {"addr:city": "Broken Arrow", "addr:housenumber": "517", "addr:postcode": "74012", "addr:street": "North 9th Street East", "building": "apartments"}}}, {"type": "Feature", "geometry": {"type": "Polygon", "coordinates": [[[-95.7793111, 36.0578235], [-95.7792187, 36.0578234], [-95.779219, 36.0576514], [-95.7793113, 36.0576515], [-95.7793111, 36.0578235]]]}, "properties": {"osm_id": 1278496270, "building": "apartments", "name": "", "height": null, "height_m": null, "levels": null, "tract_id": "40143007408", "tract_name": "74.08", "tags": {"addr:city": "Broken Arrow", "addr:housenumber": "525", "addr:postcode": "74012", "addr:street": "North 9th Street East", "building": "apartments"}}}, {"type": "Feature", "geometry": {"type": "Polygon", "coordinates": [[[-95.7793115, 36.0575571], [-95.7792191, 36.057557], [-95.7792194, 36.057385], [-95.7793118, 36.0573851], [-95.7793115, 36.0575571]]]}, "properties": {"osm_id": 1278496271, "building": "apartments", "name": "", "height": null, "height_m": null, "levels": null, "tract_id": "40143007408", "tract_name": "74.08", "tags": {"addr:city": "Broken Arrow", "addr:housenumber": "521", "addr:postcode": "74012", "addr:street": "North 9th Street East", "building": "apartments"}}}, {"type": "Feature", "geometry": {"type": "Polygon", "coordinates": [[[-95.7792414, 36.0568634], [-95.7787538, 36.0568629], [-95.778754, 36.0567872], [-95.7792415, 36.0567877], [-95.7792414, 36.0568634]]]}, "properties": {"osm_id": 1278496272, "building": "apartments", "name": "", "height": null, "height_m": null, "levels": null, "tract_id": "40143007408", "tract_name": "74.08", "tags": {"addr:city": "Broken Arrow", "addr:housenumber": "509", "addr:postcode": "74012", "addr:street": "North 9th Street East", "building": "apartments"}}}, {"type": "Feature", "geometry": {"type": "Polygon", "coordinates": [[[-95.779239, 36.0565794], [-95.7787514, 36.0565789], [-95.7787515, 36.0565032], [-95.7792391, 36.0565037], [-95.779239, 36.0565794]]]}, "properties": {"osm_id": 1278496273, "building": "apartments", "name": "", "height": null, "height_m": null, "levels": null, "tract_id": "40143007408", "tract_name": "74.08", "tags": {"addr:city": "Broken Arrow", "addr:housenumber": "505", "addr:postcode": "74012", "addr:street": "North 9th Street East", "building": "apartments"}}}, {"type": "Feature", "geometry": {"type": "Polygon", "coordinates": [[[-95.7791593, 36.0570401], [-95.7787474, 36.0570397], [-95.7787475, 36.056964], [-95.7791595, 36.0569644], [-95.7791593, 36.0570401]]]}, "properties": {"osm_id": 1278496274, "building": "apartments", "name": "", "height": null, "height_m": null, "levels": null, "tract_id": "40143007408", "tract_name": "74.08", "tags": {"addr:city": "Broken Arrow", "addr:housenumber": "513", "addr:postcode": "74012", "addr:street": "North 9th Street East", "building": "apartments"}}}, {"type": "Feature", "geometry": {"type": "Polygon", "coordinates": [[[-95.779162, 36.0577849], [-95.7787501, 36.0577845], [-95.7787502, 36.0577088], [-95.7791621, 36.0577092], [-95.779162, 36.0577849]]]}, "properties": {"osm_id": 1278496275, "building": "apartments", "name": "", "height": null, "height_m": null, "levels": null, "tract_id": "40143007408", "tract_name": "74.08", "tags": {"addr:city": "Broken Arrow", "addr:housenumber": "525", "addr:postcode": "74012", "addr:street": "North 9th Street East", "building": "apartments"}}}, {"type": "Feature", "geometry": {"type": "Polygon", "coordinates": [[[-95.779158, 36.0575063], [-95.7787461, 36.0575059], [-95.7787462, 36.0574302], [-95.7791581, 36.0574306], [-95.779158, 36.0575063]]]}, "properties": {"osm_id": 1278496276, "building": "apartments", "name": "", "height": null, "height_m": null, "levels": null, "tract_id": "40143007408", "tract_name": "74.08", "tags": {"addr:city": "Broken Arrow", "addr:housenumber": "521", "addr:postcode": "74012", "addr:street": "North 9th Street East", "building": "apartments"}}}, {"type": "Feature", "geometry": {"type": "Polygon", "coordinates": [[[-95.7791597, 36.0573248], [-95.7787478, 36.0573244], [-95.7787479, 36.0572486], [-95.7791599, 36.0572491], [-95.7791597, 36.0573248]]]}, "properties": {"osm_id": 1278496277, "building": "apartments", "name": "", "height": null, "height_m": null, "levels": null, "tract_id": "40143007408", "tract_name": "74.08", "tags": {"addr:city": "Broken Arrow", "addr:housenumber": "517", "addr:postcode": "74012", "addr:street": "North 9th Street East", "building": "apartments"}}}, {"type": "Feature", "geometry": {"type": "Polygon", "coordinates": [[[-95.7764261, 36.0591623], [-95.7763906, 36.0591319], [-95.7764161, 36.0591124], [-95.7764516, 36.0591427], [-95.7764261, 36.0591623]]]}, "properties": {"osm_id": 1278496282, "building": "shed", "name": "", "height": null, "height_m": null, "levels": null, "tract_id": "40143007408", "tract_name": "74.08", "tags": {"building": "shed"}}}, {"type": "Feature", "geometry": {"type": "Polygon", "coordinates": [[[-95.7754161, 36.0600655], [-95.7753152, 36.0600652], [-95.7753153, 36.0600504], [-95.7752504, 36.0600502], [-95.7752511, 36.0598874], [-95.775316, 36.0598876], [-95.7753161, 36.0598745], [-95.7754169, 36.0598748], [-95.7754169, 36.0598878], [-95.7754892, 36.0598881], [-95.7754885, 36.0600509], [-95.7754162, 36.0600507], [-95.7754161, 36.0600655]]]}, "properties": {"osm_id": 1278496283, "building": "apartments", "name": "", "height": null, "height_m": null, "levels": null, "tract_id": "40143007408", "tract_name": "74.08", "tags": {"addr:housenumber": "742", "addr:postcode": "74012", "addr:street": "North Village Avenue", "building": "apartments"}}}, {"type": "Feature", "geometry": {"type": "Polygon", "coordinates": [[[-95.7752552, 36.0594598], [-95.7752554, 36.0594072], [-95.7754553, 36.0594078], [-95.775455, 36.0594603], [-95.7754708, 36.0594604], [-95.7754704, 36.0595475], [-95.7754547, 36.0595474], [-95.7754544, 36.0595991], [-95.7752546, 36.0595986], [-95.7752548, 36.0595469], [-95.7752412, 36.0595468], [-95.7752416, 36.0594597], [-95.7752552, 36.0594598]]]}, "properties": {"osm_id": 1278496284, "building": "apartments", "name": "", "height": null, "height_m": null, "levels": null, "tract_id": "40143007408", "tract_name": "74.08", "tags": {"addr:postcode": "74012", "addr:street": "North Village Avenue", "building": "apartments"}}}, {"type": "Feature", "geometry": {"type": "Polygon", "coordinates": [[[-95.7754555, 36.0592386], [-95.7752535, 36.059238], [-95.7752537, 36.0591846], [-95.775239, 36.0591846], [-95.7752394, 36.0590966], [-95.7752541, 36.0590966], [-95.7752543, 36.0590484], [-95.7754563, 36.059049], [-95.7754561, 36.0590972], [-95.7754687, 36.0590972], [-95.7754683, 36.0591852], [-95.7754557, 36.0591852], [-95.7754555, 36.0592386]]]}, "properties": {"osm_id": 1278496285, "building": "apartments", "name": "", "height": null, "height_m": null, "levels": null, "tract_id": "40143007408", "tract_name": "74.08", "tags": {"addr:postcode": "74012", "addr:street": "North Village Avenue", "building": "apartments"}}}, {"type": "Feature", "geometry": {"type": "Polygon", "coordinates": [[[-95.7754225, 36.0590019], [-95.7753174, 36.0590016], [-95.7753174, 36.0589863], [-95.7752532, 36.0589861], [-95.7752539, 36.0588243], [-95.7753181, 36.0588245], [-95.7753182, 36.0588126], [-95.7754233, 36.0588129], [-95.7754233, 36.0588248], [-95.7754868, 36.058825], [-95.7754861, 36.0589867], [-95.7754226, 36.0589866], [-95.7754225, 36.0590019]]]}, "properties": {"osm_id": 1278496286, "building": "apartments", "name": "", "height": null, "height_m": null, "levels": null, "tract_id": "40143007408", "tract_name": "74.08", "tags": {"addr:postcode": "74012", "addr:street": "North Village Avenue", "building": "apartments"}}}, {"type": "Feature", "geometry": {"type": "Polygon", "coordinates": [[[-95.776157, 36.0589666], [-95.7760565, 36.0589231], [-95.776065, 36.0589103], [-95.7760122, 36.0588875], [-95.7760947, 36.058763], [-95.7761475, 36.0587858], [-95.7761548, 36.0587748], [-95.7762553, 36.0588183], [-95.776248, 36.0588293], [-95.7763034, 36.0588533], [-95.7762208, 36.0589778], [-95.7761654, 36.0589539], [-95.776157, 36.0589666]]]}, "properties": {"osm_id": 1278496287, "building": "apartments", "name": "", "height": null, "height_m": null, "levels": null, "tract_id": "40143007408", "tract_name": "74.08", "tags": {"addr:postcode": "74012", "addr:street": "North Village Avenue", "building": "apartments"}}}, {"type": "Feature", "geometry": {"type": "Polygon", "coordinates": [[[-95.7758624, 36.0586986], [-95.7758921, 36.0587115], [-95.775893, 36.0587102], [-95.7759457, 36.058733], [-95.7758941, 36.0588109], [-95.7758414, 36.0587881], [-95.7758577, 36.0587634], [-95.7758279, 36.0587506], [-95.7758068, 36.0587825], [-95.7757396, 36.0587534], [-95.7757961, 36.0586681], [-95.7758633, 36.0586972], [-95.7758624, 36.0586986]]]}, "properties": {"osm_id": 1278496288, "building": "yes", "name": "", "height": null, "height_m": null, "levels": null, "tract_id": "40143007408", "tract_name": "74.08", "tags": {"addr:postcode": "74012", "addr:street": "North Village Avenue", "building": "yes"}}}, {"type": "Feature", "geometry": {"type": "Polygon", "coordinates": [[[-95.7754208, 36.0587259], [-95.7754051, 36.0587259], [-95.7754055, 36.0586371], [-95.7754212, 36.0586371], [-95.7754214, 36.0585854], [-95.7756245, 36.058586], [-95.7756243, 36.0586377], [-95.7756411, 36.0586377], [-95.7756407, 36.0587266], [-95.7756239, 36.0587265], [-95.7756237, 36.0587782], [-95.7754206, 36.0587776], [-95.7754208, 36.0587259]]]}, "properties": {"osm_id": 1278496289, "building": "apartments", "name": "", "height": null, "height_m": null, "levels": null, "tract_id": "40143007408", "tract_name": "74.08", "tags": {"addr:postcode": "74012", "addr:street": "North Village Avenue", "building": "apartments"}}}, {"type": "Feature", "geometry": {"type": "Polygon", "coordinates": [[[-95.7758572, 36.0590944], [-95.7758425, 36.0590944], [-95.775843, 36.058995], [-95.7758577, 36.0589951], [-95.7758579, 36.0589477], [-95.7760099, 36.0589481], [-95.7760097, 36.0589955], [-95.7760233, 36.0589956], [-95.7760228, 36.0590949], [-95.7760092, 36.0590948], [-95.776009, 36.0591465], [-95.775857, 36.0591461], [-95.7758572, 36.0590944]]]}, "properties": {"osm_id": 1278496290, "building": "apartments", "name": "", "height": null, "height_m": null, "levels": null, "tract_id": "40143007408", "tract_name": "74.08", "tags": {"addr:postcode": "74012", "addr:street": "North Village Avenue", "building": "apartments"}}}, {"type": "Feature", "geometry": {"type": "Polygon", "coordinates": [[[-95.7756093, 36.0591572], [-95.7755433, 36.059157], [-95.7755439, 36.0590372], [-95.7756098, 36.0590374], [-95.7756098, 36.059026], [-95.7757222, 36.0590263], [-95.7757222, 36.0590377], [-95.7757871, 36.0590379], [-95.7757865, 36.0591577], [-95.7757217, 36.0591575], [-95.7757216, 36.0591723], [-95.7756092, 36.059172], [-95.7756093, 36.0591572]]]}, "properties": {"osm_id": 1278496291, "building": "apartments", "name": "", "height": null, "height_m": null, "levels": null, "tract_id": "40143007408", "tract_name": "74.08", "tags": {"addr:housenumber": "736", "addr:postcode": "74012", "addr:street": "North Village Avenue", "building": "apartments"}}}, {"type": "Feature", "geometry": {"type": "Polygon", "coordinates": [[[-95.7729529, 36.0543226], [-95.7731188, 36.0544607], [-95.7731221, 36.0544582], [-95.7731274, 36.0541893], [-95.7730496, 36.0541882], [-95.7730489, 36.0542208], [-95.7728594, 36.0542183], [-95.7728625, 36.054063], [-95.7730375, 36.0540653], [-95.7730378, 36.05405], [-95.7731302, 36.0540512], [-95.773134, 36.0538601], [-95.7732809, 36.053862], [-95.7732649, 36.054664], [-95.7728668, 36.0546588], [-95.7728689, 36.054553], [-95.7729991, 36.0545547], [-95.7730179, 36.05454], [-95.7728519, 36.0544018], [-95.7729529, 36.0543226]]]}, "properties": {"osm_id": 1278583734, "building": "yes", "name": "Cedarcrest Care Center", "height": null, "height_m": null, "levels": null, "tract_id": "40143007408", "tract_name": "74.08", "tags": {"amenity": "social_facility", "building": "yes", "name": "Cedarcrest Care Center", "social_facility": "nursing_home", "social_facility:for": "senior"}}}, {"type": "Feature", "geometry": {"type": "Polygon", "coordinates": [[[-95.7792062, 36.0518602], [-95.7790415, 36.0518612], [-95.7790399, 36.0516948], [-95.7792047, 36.0516938], [-95.7792062, 36.0518602]]]}, "properties": {"osm_id": 1290340557, "building": "retail", "name": "", "height": null, "height_m": null, "levels": null, "tract_id": "40143007408", "tract_name": "74.08", "tags": {"building": "retail"}}}, {"type": "Feature", "geometry": {"type": "Polygon", "coordinates": [[[-95.7695974, 36.0602285], [-95.7695965, 36.0601544], [-95.7696958, 36.0601536], [-95.7697712, 36.060153], [-95.7697701, 36.0600588], [-95.7699143, 36.0600577], [-95.7699169, 36.0602747], [-95.7697727, 36.0602758], [-95.7695974, 36.0602285]]]}, "properties": {"osm_id": 1315385317, "building": "industrial", "name": "", "height": null, "height_m": null, "levels": null, "tract_id": "40143007408", "tract_name": "74.08", "tags": {"addr:city": "Broken Arrow", "addr:housenumber": "816", "addr:postcode": "74012-2809", "addr:street": "North 16th Street", "building": "industrial", "phone": "+1 918 251 2522", "website": "https://www.airgas.com/"}}}, {"type": "Feature", "geometry": {"type": "Polygon", "coordinates": [[[-95.7697701, 36.0600588], [-95.7697712, 36.060153], [-95.7696958, 36.0601536], [-95.7696947, 36.0600594], [-95.769694, 36.0600036], [-95.7699136, 36.0600019], [-95.7699143, 36.0600577], [-95.7697701, 36.0600588]]]}, "properties": {"osm_id": 1315385318, "building": "roof", "name": "", "height": null, "height_m": null, "levels": null, "tract_id": "40143007408", "tract_name": "74.08", "tags": {"building": "roof", "layer": "1"}}}, {"type": "Feature", "geometry": {"type": "Polygon", "coordinates": [[[-95.7689818, 36.0597597], [-95.7690497, 36.0597593], [-95.7690514, 36.0599327], [-95.7690525, 36.0600532], [-95.7690397, 36.0600533], [-95.7688045, 36.0599714], [-95.7687866, 36.0599716], [-95.7687862, 36.0599344], [-95.7687174, 36.0599348], [-95.7687157, 36.0597614], [-95.7688785, 36.0597604], [-95.7688782, 36.0597289], [-95.7689291, 36.0597168], [-95.7689814, 36.0597165], [-95.7689818, 36.0597597]]]}, "properties": {"osm_id": 1315385319, "building": "industrial", "name": "", "height": null, "height_m": null, "levels": null, "tract_id": "40143007408", "tract_name": "74.08", "tags": {"addr:city": "Broken Arrow", "addr:postcode": "74012", "addr:street": "North 16th Street", "building": "industrial"}}}, {"type": "Feature", "geometry": {"type": "Polygon", "coordinates": [[[-95.7698207, 36.0599548], [-95.7695517, 36.0599579], [-95.7695498, 36.0598486], [-95.7698188, 36.0598455], [-95.7698207, 36.0599548]]]}, "properties": {"osm_id": 1315385320, "building": "industrial", "name": "", "height": null, "height_m": null, "levels": null, "tract_id": "40143007408", "tract_name": "74.08", "tags": {"addr:city": "Broken Arrow", "addr:postcode": "74012", "addr:street": "North 16th Street", "building": "industrial"}}}, {"type": "Feature", "geometry": {"type": "Polygon", "coordinates": [[[-95.7698584, 36.0596848], [-95.7695543, 36.0596858], [-95.769553, 36.0594358], [-95.7698571, 36.0594348], [-95.7698584, 36.0596848]]]}, "properties": {"osm_id": 1315385321, "building": "industrial", "name": "", "height": null, "height_m": null, "levels": null, "tract_id": "40143007408", "tract_name": "74.08", "tags": {"addr:city": "Broken Arrow", "addr:postcode": "74012", "addr:street": "North 16th Street", "building": "industrial"}}}, {"type": "Feature", "geometry": {"type": "Polygon", "coordinates": [[[-95.7691073, 36.0594578], [-95.7686875, 36.0594568], [-95.7686882, 36.0592624], [-95.769108, 36.0592634], [-95.7691073, 36.0594578]]]}, "properties": {"osm_id": 1315385322, "building": "industrial", "name": "", "height": null, "height_m": null, "levels": null, "tract_id": "40143007408", "tract_name": "74.08", "tags": {"addr:city": "Broken Arrow", "addr:postcode": "74012", "addr:street": "North 16th Street", "building": "industrial"}}}, {"type": "Feature", "geometry": {"type": "Polygon", "coordinates": [[[-95.7792487, 36.0548169], [-95.7791488, 36.0548164], [-95.7791513, 36.0544791], [-95.7792512, 36.0544796], [-95.7792487, 36.0548169]]]}, "properties": {"osm_id": 1332532880, "building": "apartments", "name": "units 18 to 33", "height": null, "height_m": null, "levels": null, "tract_id": "40143007408", "tract_name": "74.08", "tags": {"addr:housenumber": "303", "addr:postcode": "74012", "addr:street": "North 9th Street East", "building": "apartments", "name": "units 18 to 33"}}}, {"type": "Feature", "geometry": {"type": "Polygon", "coordinates": [[[-95.7787449, 36.0548171], [-95.778645, 36.0548179], [-95.7786412, 36.0544806], [-95.7787411, 36.0544799], [-95.7787449, 36.0548171]]]}, "properties": {"osm_id": 1332532881, "building": "apartments", "name": "", "height": null, "height_m": null, "levels": null, "tract_id": "40143007408", "tract_name": "74.08", "tags": {"addr:postcode": "74012", "addr:street": "North 9th Street", "building": "apartments"}}}, {"type": "Feature", "geometry": {"type": "Polygon", "coordinates": [[[-95.7789088, 36.0548185], [-95.7788089, 36.0548192], [-95.7788051, 36.054482], [-95.778905, 36.0544812], [-95.7789088, 36.0548185]]]}, "properties": {"osm_id": 1332532882, "building": "apartments", "name": "units 1 to 6", "height": null, "height_m": null, "levels": null, "tract_id": "40143007408", "tract_name": "74.08", "tags": {"addr:housenumber": "307", "addr:postcode": "74012", "addr:street": "North 9th Street East", "building": "apartments", "name": "units 1 to 6"}}}, {"type": "Feature", "geometry": {"type": "Polygon", "coordinates": [[[-95.779094, 36.0548178], [-95.778994, 36.0548186], [-95.7789902, 36.0544813], [-95.7790902, 36.0544805], [-95.779094, 36.0548178]]]}, "properties": {"osm_id": 1332532883, "building": "apartments", "name": "", "height": null, "height_m": null, "levels": null, "tract_id": "40143007408", "tract_name": "74.08", "tags": {"addr:postcode": "74012", "addr:street": "North 9th Street", "building": "apartments"}}}, {"type": "Feature", "geometry": {"type": "Polygon", "coordinates": [[[-95.7791364, 36.0550956], [-95.7790365, 36.0550954], [-95.7790371, 36.0548428], [-95.7791371, 36.054843], [-95.7791364, 36.0550956]]]}, "properties": {"osm_id": 1332532884, "building": "apartments", "name": "", "height": null, "height_m": null, "levels": null, "tract_id": "40143007408", "tract_name": "74.08", "tags": {"addr:postcode": "74012", "addr:street": "North 9th Street", "building": "apartments"}}}, {"type": "Feature", "geometry": {"type": "Polygon", "coordinates": [[[-95.7792978, 36.0550922], [-95.7791978, 36.055092], [-95.7791985, 36.0548394], [-95.7792984, 36.0548396], [-95.7792978, 36.0550922]]]}, "properties": {"osm_id": 1332532885, "building": "apartments", "name": "units 11 to 17", "height": null, "height_m": null, "levels": null, "tract_id": "40143007408", "tract_name": "74.08", "tags": {"addr:housenumber": "307", "addr:postcode": "74012", "addr:street": "North 9th Street East", "building": "apartments", "name": "units 11 to 17"}}}, {"type": "Feature", "geometry": {"type": "Polygon", "coordinates": [[[-95.7791387, 36.0555591], [-95.7790388, 36.0555589], [-95.7790393, 36.0553892], [-95.7791392, 36.0553894], [-95.7791387, 36.0555591]]]}, "properties": {"osm_id": 1332532886, "building": "apartments", "name": "units 7 to 10", "height": null, "height_m": null, "levels": null, "tract_id": "40143007408", "tract_name": "74.08", "tags": {"addr:housenumber": "309", "addr:postcode": "74012", "addr:street": "North 9th Street East", "building": "apartments", "name": "units 7 to 10"}}}, {"type": "Feature", "geometry": {"type": "Polygon", "coordinates": [[[-95.7792997, 36.0555601], [-95.7791997, 36.05556], [-95.7792002, 36.0553881], [-95.7793001, 36.0553883], [-95.7792997, 36.0555601]]]}, "properties": {"osm_id": 1332532887, "building": "apartments", "name": "units 7 to 10", "height": null, "height_m": null, "levels": null, "tract_id": "40143007408", "tract_name": "74.08", "tags": {"addr:housenumber": "307", "addr:postcode": "74012", "addr:street": "North 9th Street East", "building": "apartments", "name": "units 7 to 10"}}}, {"type": "Feature", "geometry": {"type": "Polygon", "coordinates": [[[-95.7791372, 36.0553628], [-95.7790372, 36.0553626], [-95.7790379, 36.05511], [-95.7791378, 36.0551102], [-95.7791372, 36.0553628]]]}, "properties": {"osm_id": 1332532888, "building": "apartments", "name": "units 1 to 6", "height": null, "height_m": null, "levels": null, "tract_id": "40143007408", "tract_name": "74.08", "tags": {"addr:housenumber": "309", "addr:postcode": "74012", "addr:street": "North 9th Street East", "building": "apartments", "name": "units 1 to 6"}}}, {"type": "Feature", "geometry": {"type": "Polygon", "coordinates": [[[-95.7793008, 36.0553671], [-95.7792008, 36.0553669], [-95.7792015, 36.0551143], [-95.7793015, 36.0551144], [-95.7793008, 36.0553671]]]}, "properties": {"osm_id": 1332532889, "building": "apartments", "name": "", "height": null, "height_m": null, "levels": null, "tract_id": "40143007408", "tract_name": "74.08", "tags": {"addr:postcode": "74012", "addr:street": "North 9th Street", "building": "apartments"}}}, {"type": "Feature", "geometry": {"type": "Polygon", "coordinates": [[[-95.7788857, 36.0475858], [-95.7788846, 36.0474981], [-95.7790078, 36.0474971], [-95.7790099, 36.0476715], [-95.7788375, 36.0476729], [-95.7788365, 36.0475861], [-95.7788857, 36.0475858]]]}, "properties": {"osm_id": 1334082799, "building": "service", "name": "", "height": null, "height_m": null, "levels": null, "tract_id": "40143007408", "tract_name": "74.08", "tags": {"building": "service", "description": "Looks like a network hub or data center."}}}, {"type": "Feature", "geometry": {"type": "Polygon", "coordinates": [[[-95.7791559, 36.0485351], [-95.7788931, 36.0485351], [-95.7788931, 36.0483432], [-95.7791559, 36.0483432], [-95.7791559, 36.0485351]]]}, "properties": {"osm_id": 1334638276, "building": "industrial", "name": "BA Manufacturing", "height": null, "height_m": null, "levels": null, "tract_id": "40143007408", "tract_name": "74.08", "tags": {"building": "industrial", "name": "BA Manufacturing"}}}, {"type": "Feature", "geometry": {"type": "Polygon", "coordinates": [[[-95.7791796, 36.0479018], [-95.7789076, 36.0479012], [-95.7789079, 36.0478158], [-95.77918, 36.0478165], [-95.7791796, 36.0479018]]]}, "properties": {"osm_id": 1334638277, "building": "industrial", "name": "Ian's Auto Service", "height": null, "height_m": null, "levels": null, "tract_id": "40143007408", "tract_name": "74.08", "tags": {"building": "industrial", "name": "Ian's Auto Service", "shop": "car_repair"}}}, {"type": "Feature", "geometry": {"type": "Polygon", "coordinates": [[[-95.7770608, 36.059911], [-95.7770187, 36.0598749], [-95.7770376, 36.0598605], [-95.7770798, 36.0598966], [-95.7770608, 36.059911]]]}, "properties": {"osm_id": 1334682460, "building": "container", "name": "", "height": null, "height_m": null, "levels": null, "tract_id": "40143007408", "tract_name": "74.08", "tags": {"building": "container"}}}, {"type": "Feature", "geometry": {"type": "Polygon", "coordinates": [[[-95.7769197, 36.0598977], [-95.7768994, 36.0598803], [-95.7769447, 36.0598458], [-95.776965, 36.0598632], [-95.7769197, 36.0598977]]]}, "properties": {"osm_id": 1334682461, "building": "container", "name": "", "height": null, "height_m": null, "levels": null, "tract_id": "40143007408", "tract_name": "74.08", "tags": {"building": "container"}}}, {"type": "Feature", "geometry": {"type": "Polygon", "coordinates": [[[-95.7768743, 36.059823], [-95.776778, 36.0598966], [-95.7767542, 36.0598762], [-95.7768505, 36.0598027], [-95.7768743, 36.059823]]]}, "properties": {"osm_id": 1334682462, "building": "container", "name": "", "height": null, "height_m": null, "levels": null, "tract_id": "40143007408", "tract_name": "74.08", "tags": {"building": "container"}}}, {"type": "Feature", "geometry": {"type": "Polygon", "coordinates": [[[-95.7767775, 36.0598969], [-95.7766812, 36.0599705], [-95.7766574, 36.0599501], [-95.7767537, 36.0598766], [-95.7767775, 36.0598969]]]}, "properties": {"osm_id": 1334682463, "building": "container", "name": "", "height": null, "height_m": null, "levels": null, "tract_id": "40143007408", "tract_name": "74.08", "tags": {"building": "container"}}}, {"type": "Feature", "geometry": {"type": "Polygon", "coordinates": [[[-95.7780173, 36.0583529], [-95.7780209, 36.0583549], [-95.7779684, 36.058416], [-95.7779228, 36.0583903], [-95.7779753, 36.0583293], [-95.7780173, 36.0583529]]]}, "properties": {"osm_id": 1334682466, "building": "apartments", "name": "", "height": null, "height_m": null, "levels": null, "tract_id": "40143007408", "tract_name": "74.08", "tags": {"addr:postcode": "74012", "addr:street": "East Iola Street", "building": "apartments"}}}, {"type": "Feature", "geometry": {"type": "Polygon", "coordinates": [[[-95.7781456, 36.058299], [-95.7781375, 36.0582945], [-95.7780859, 36.0582654], [-95.7781347, 36.0582087], [-95.7781944, 36.0582423], [-95.7781456, 36.058299]]]}, "properties": {"osm_id": 1334682467, "building": "apartments", "name": "", "height": null, "height_m": null, "levels": null, "tract_id": "40143007408", "tract_name": "74.08", "tags": {"addr:postcode": "74012", "addr:street": "East Iola Street", "building": "apartments"}}}, {"type": "Feature", "geometry": {"type": "Polygon", "coordinates": [[[-95.778104, 36.0583335], [-95.7781375, 36.0582945], [-95.7781456, 36.058299], [-95.7782038, 36.0583318], [-95.7781702, 36.0583707], [-95.7781253, 36.0583455], [-95.778104, 36.0583335]]]}, "properties": {"osm_id": 1334682468, "building": "apartments", "name": "", "height": null, "height_m": null, "levels": null, "tract_id": "40143007408", "tract_name": "74.08", "tags": {"addr:postcode": "74012", "addr:street": "East Iola Street", "building": "apartments"}}}, {"type": "Feature", "geometry": {"type": "Polygon", "coordinates": [[[-95.7780173, 36.0583529], [-95.7780569, 36.058307], [-95.778104, 36.0583335], [-95.7781253, 36.0583455], [-95.7780857, 36.0583914], [-95.7780209, 36.0583549], [-95.7780173, 36.0583529]]]}, "properties": {"osm_id": 1334682469, "building": "apartments", "name": "", "height": null, "height_m": null, "levels": null, "tract_id": "40143007408", "tract_name": "74.08", "tags": {"addr:postcode": "74012", "addr:street": "East Iola Street", "building": "apartments"}}}, {"type": "Feature", "geometry": {"type": "Polygon", "coordinates": [[[-95.7785376, 36.0581616], [-95.7785237, 36.0581616], [-95.7784679, 36.0581616], [-95.7784679, 36.0580962], [-95.7785376, 36.0580962], [-95.7785376, 36.0581616]]]}, "properties": {"osm_id": 1334682470, "building": "apartments", "name": "", "height": null, "height_m": null, "levels": null, "tract_id": "40143007408", "tract_name": "74.08", "tags": {"addr:postcode": "74012", "addr:street": "East Iola Street", "building": "apartments"}}}, {"type": "Feature", "geometry": {"type": "Polygon", "coordinates": [[[-95.7786121, 36.0582098], [-95.7785679, 36.0582098], [-95.7785237, 36.0582098], [-95.7785237, 36.0581616], [-95.7785376, 36.0581616], [-95.7786121, 36.0581616], [-95.7786121, 36.0582098]]]}, "properties": {"osm_id": 1334682471, "building": "apartments", "name": "", "height": null, "height_m": null, "levels": null, "tract_id": "40143007408", "tract_name": "74.08", "tags": {"addr:postcode": "74012", "addr:street": "East Iola Street", "building": "apartments"}}}, {"type": "Feature", "geometry": {"type": "Polygon", "coordinates": [[[-95.7784478, 36.0583296], [-95.778362, 36.0583296], [-95.778362, 36.0582824], [-95.7784512, 36.0582824], [-95.7784512, 36.0583296], [-95.7784478, 36.0583296]]]}, "properties": {"osm_id": 1334682472, "building": "apartments", "name": "", "height": null, "height_m": null, "levels": null, "tract_id": "40143007408", "tract_name": "74.08", "tags": {"addr:postcode": "74012", "addr:street": "East Iola Street", "building": "apartments"}}}, {"type": "Feature", "geometry": {"type": "Polygon", "coordinates": [[[-95.7785062, 36.0583296], [-95.7785062, 36.0583361], [-95.7785062, 36.0583919], [-95.7784478, 36.0583919], [-95.7784478, 36.0583296], [-95.7784512, 36.0583296], [-95.7785062, 36.0583296]]]}, "properties": {"osm_id": 1334682473, "building": "apartments", "name": "", "height": null, "height_m": null, "levels": null, "tract_id": "40143007408", "tract_name": "74.08", "tags": {"addr:postcode": "74012", "addr:street": "East Iola Street", "building": "apartments"}}}, {"type": "Feature", "geometry": {"type": "Polygon", "coordinates": [[[-95.7785793, 36.0582694], [-95.7785793, 36.0583361], [-95.7785062, 36.0583361], [-95.7785062, 36.0583296], [-95.7785062, 36.0582694], [-95.7785679, 36.0582694], [-95.7785793, 36.0582694]]]}, "properties": {"osm_id": 1334682474, "building": "apartments", "name": "", "height": null, "height_m": null, "levels": null, "tract_id": "40143007408", "tract_name": "74.08", "tags": {"addr:postcode": "74012", "addr:street": "East Iola Street", "building": "apartments"}}}, {"type": "Feature", "geometry": {"type": "Polygon", "coordinates": [[[-95.7786644, 36.0582694], [-95.7785793, 36.0582694], [-95.7785679, 36.0582694], [-95.7785679, 36.0582098], [-95.7786121, 36.0582098], [-95.7786644, 36.0582098], [-95.7786644, 36.0582694]]]}, "properties": {"osm_id": 1334682475, "building": "apartments", "name": "", "height": null, "height_m": null, "levels": null, "tract_id": "40143007408", "tract_name": "74.08", "tags": {"addr:postcode": "74012", "addr:street": "East Iola Street", "building": "apartments"}}}, {"type": "Feature", "geometry": {"type": "Polygon", "coordinates": [[[-95.77859, 36.0579642], [-95.77859, 36.0580355], [-95.7785321, 36.0580355], [-95.7785321, 36.0579642], [-95.7785794, 36.0579642], [-95.77859, 36.0579642]]]}, "properties": {"osm_id": 1334682476, "building": "apartments", "name": "", "height": null, "height_m": null, "levels": null, "tract_id": "40143007408", "tract_name": "74.08", "tags": {"addr:postcode": "74012", "addr:street": "East Iola Street", "building": "apartments"}}}, {"type": "Feature", "geometry": {"type": "Polygon", "coordinates": [[[-95.7785794, 36.0579177], [-95.7785984, 36.0579177], [-95.7786665, 36.0579177], [-95.7786665, 36.0579642], [-95.77859, 36.0579642], [-95.7785794, 36.0579642], [-95.7785794, 36.0579177]]]}, "properties": {"osm_id": 1334682477, "building": "apartments", "name": "", "height": null, "height_m": null, "levels": null, "tract_id": "40143007408", "tract_name": "74.08", "tags": {"addr:postcode": "74012", "addr:street": "East Iola Street", "building": "apartments"}}}, {"type": "Feature", "geometry": {"type": "Polygon", "coordinates": [[[-95.7785123, 36.057861], [-95.7785984, 36.057861], [-95.7785984, 36.0579177], [-95.7785794, 36.0579177], [-95.7785123, 36.0579177], [-95.7785123, 36.0578682], [-95.7785123, 36.057861]]]}, "properties": {"osm_id": 1334682478, "building": "apartments", "name": "", "height": null, "height_m": null, "levels": null, "tract_id": "40143007408", "tract_name": "74.08", "tags": {"addr:postcode": "74012", "addr:street": "East Iola Street", "building": "apartments"}}}, {"type": "Feature", "geometry": {"type": "Polygon", "coordinates": [[[-95.7783801, 36.0578945], [-95.7783801, 36.057901], [-95.7783801, 36.0579478], [-95.7782951, 36.0579478], [-95.7782951, 36.0578945], [-95.7783801, 36.0578945]]]}, "properties": {"osm_id": 1334682479, "building": "apartments", "name": "", "height": null, "height_m": null, "levels": null, "tract_id": "40143007408", "tract_name": "74.08", "tags": {"addr:postcode": "74012", "addr:street": "East Iola Street", "building": "apartments"}}}, {"type": "Feature", "geometry": {"type": "Polygon", "coordinates": [[[-95.7784375, 36.0578337], [-95.7784375, 36.0578682], [-95.7784375, 36.057901], [-95.7783801, 36.057901], [-95.7783801, 36.0578945], [-95.7783801, 36.0578337], [-95.7784375, 36.0578337]]]}, "properties": {"osm_id": 1334682480, "building": "apartments", "name": "", "height": null, "height_m": null, "levels": null, "tract_id": "40143007408", "tract_name": "74.08", "tags": {"addr:postcode": "74012", "addr:street": "East Iola Street", "building": "apartments"}}}, {"type": "Feature", "geometry": {"type": "Polygon", "coordinates": [[[-95.7784375, 36.0577951], [-95.7785123, 36.0577951], [-95.7785123, 36.057861], [-95.7785123, 36.0578682], [-95.7784375, 36.0578682], [-95.7784375, 36.0578337], [-95.7784375, 36.0577951]]]}, "properties": {"osm_id": 1334682481, "building": "apartments", "name": "", "height": null, "height_m": null, "levels": null, "tract_id": "40143007408", "tract_name": "74.08", "tags": {"addr:postcode": "74012", "addr:street": "East Iola Street", "building": "apartments"}}}, {"type": "Feature", "geometry": {"type": "Polygon", "coordinates": [[[-95.7776123, 36.0581632], [-95.7776271, 36.0581632], [-95.7776821, 36.0581632], [-95.7776821, 36.0582364], [-95.7776123, 36.0582364], [-95.7776123, 36.0581632]]]}, "properties": {"osm_id": 1334682482, "building": "apartments", "name": "", "height": null, "height_m": null, "levels": null, "tract_id": "40143007408", "tract_name": "74.08", "tags": {"addr:postcode": "74012", "addr:street": "East Iola Street", "building": "apartments"}}}, {"type": "Feature", "geometry": {"type": "Polygon", "coordinates": [[[-95.7775406, 36.0581171], [-95.7775647, 36.0581171], [-95.7776271, 36.0581171], [-95.7776271, 36.0581632], [-95.7776123, 36.0581632], [-95.7775406, 36.0581632], [-95.7775406, 36.0581171]]]}, "properties": {"osm_id": 1334682483, "building": "apartments", "name": "", "height": null, "height_m": null, "levels": null, "tract_id": "40143007408", "tract_name": "74.08", "tags": {"addr:postcode": "74012", "addr:street": "East Iola Street", "building": "apartments"}}}, {"type": "Feature", "geometry": {"type": "Polygon", "coordinates": [[[-95.7777002, 36.0579941], [-95.7777907, 36.0579941], [-95.7777907, 36.0580423], [-95.7777002, 36.0580423], [-95.7777002, 36.0580016], [-95.7777002, 36.0579941]]]}, "properties": {"osm_id": 1334682484, "building": "apartments", "name": "", "height": null, "height_m": null, "levels": null, "tract_id": "40143007408", "tract_name": "74.08", "tags": {"addr:postcode": "74012", "addr:street": "East Iola Street", "building": "apartments"}}}, {"type": "Feature", "geometry": {"type": "Polygon", "coordinates": [[[-95.7776425, 36.0580016], [-95.7776425, 36.0579892], [-95.7776425, 36.0579306], [-95.7777002, 36.0579306], [-95.7777002, 36.0579941], [-95.7777002, 36.0580016], [-95.7776425, 36.0580016]]]}, "properties": {"osm_id": 1334682485, "building": "apartments", "name": "", "height": null, "height_m": null, "levels": null, "tract_id": "40143007408", "tract_name": "74.08", "tags": {"addr:postcode": "74012", "addr:street": "East Iola Street", "building": "apartments"}}}, {"type": "Feature", "geometry": {"type": "Polygon", "coordinates": [[[-95.7775734, 36.0580575], [-95.7775734, 36.0579892], [-95.7776425, 36.0579892], [-95.7776425, 36.0580016], [-95.7776425, 36.0580575], [-95.7775734, 36.0580575]]]}, "properties": {"osm_id": 1334682486, "building": "apartments", "name": "", "height": null, "height_m": null, "levels": null, "tract_id": "40143007408", "tract_name": "74.08", "tags": {"addr:postcode": "74012", "addr:street": "East Iola Street", "building": "apartments"}}}, {"type": "Feature", "geometry": {"type": "Polygon", "coordinates": [[[-95.7775647, 36.0580591], [-95.7775647, 36.0581171], [-95.7775406, 36.0581171], [-95.7774896, 36.0581171], [-95.7774896, 36.0580591], [-95.7775647, 36.0580591]]]}, "properties": {"osm_id": 1334682487, "building": "apartments", "name": "", "height": null, "height_m": null, "levels": null, "tract_id": "40143007408", "tract_name": "74.08", "tags": {"addr:postcode": "74012", "addr:street": "East Iola Street", "building": "apartments"}}}, {"type": "Feature", "geometry": {"type": "Polygon", "coordinates": [[[-95.778077, 36.0578509], [-95.7781689, 36.0578509], [-95.7781689, 36.0579068], [-95.778077, 36.0579068], [-95.778077, 36.0578596], [-95.778077, 36.0578509]]]}, "properties": {"osm_id": 1334682488, "building": "apartments", "name": "", "height": null, "height_m": null, "levels": null, "tract_id": "40143007408", "tract_name": "74.08", "tags": {"addr:postcode": "74012", "addr:street": "East Iola Street", "building": "apartments"}}}, {"type": "Feature", "geometry": {"type": "Polygon", "coordinates": [[[-95.778018, 36.0578596], [-95.778018, 36.0578385], [-95.778018, 36.0577859], [-95.778077, 36.0577859], [-95.778077, 36.0578509], [-95.778077, 36.0578596], [-95.778018, 36.0578596]]]}, "properties": {"osm_id": 1334682489, "building": "apartments", "name": "", "height": null, "height_m": null, "levels": null, "tract_id": "40143007408", "tract_name": "74.08", "tags": {"addr:postcode": "74012", "addr:street": "East Iola Street", "building": "apartments"}}}, {"type": "Feature", "geometry": {"type": "Polygon", "coordinates": [[[-95.7779489, 36.0579084], [-95.7779489, 36.0579464], [-95.7778598, 36.0579464], [-95.7778598, 36.0579024], [-95.7779489, 36.0579024], [-95.7779489, 36.0579084]]]}, "properties": {"osm_id": 1334682490, "building": "apartments", "name": "", "height": null, "height_m": null, "levels": null, "tract_id": "40143007408", "tract_name": "74.08", "tags": {"addr:postcode": "74012", "addr:street": "East Iola Street", "building": "apartments"}}}, {"type": "Feature", "geometry": {"type": "Polygon", "coordinates": [[[-95.778018, 36.0579084], [-95.7779489, 36.0579084], [-95.7779489, 36.0579024], [-95.7779489, 36.0578385], [-95.778018, 36.0578385], [-95.778018, 36.0578596], [-95.778018, 36.0579084]]]}, "properties": {"osm_id": 1334682491, "building": "apartments", "name": "", "height": null, "height_m": null, "levels": null, "tract_id": "40143007408", "tract_name": "74.08", "tags": {"addr:postcode": "74012", "addr:street": "East Iola Street", "building": "apartments"}}}, {"type": "Feature", "geometry": {"type": "Polygon", "coordinates": [[[-95.7773836, 36.0585901], [-95.77739, 36.058597], [-95.7774188, 36.058628], [-95.7773489, 36.0586704], [-95.7773137, 36.0586325], [-95.7773836, 36.0585901]]]}, "properties": {"osm_id": 1334682492, "building": "apartments", "name": "", "height": null, "height_m": null, "levels": null, "tract_id": "40143007408", "tract_name": "74.08", "tags": {"addr:housenumber": "1124", "addr:postcode": "74012", "addr:street": "East Iola Street", "building": "apartments"}}}, {"type": "Feature", "geometry": {"type": "Polygon", "coordinates": [[[-95.7774442, 36.0584825], [-95.7775121, 36.0584413], [-95.7775568, 36.0584894], [-95.7774888, 36.0585306], [-95.7774559, 36.0584952], [-95.7774442, 36.0584825]]]}, "properties": {"osm_id": 1334682493, "building": "apartments", "name": "", "height": null, "height_m": null, "levels": null, "tract_id": "40143007408", "tract_name": "74.08", "tags": {"addr:housenumber": "1136", "addr:postcode": "74012", "addr:street": "East Iola Street", "building": "apartments"}}}, {"type": "Feature", "geometry": {"type": "Polygon", "coordinates": [[[-95.7774102, 36.0585229], [-95.777394, 36.0585054], [-95.7773573, 36.0584659], [-95.777403, 36.0584382], [-95.7774442, 36.0584825], [-95.7774559, 36.0584952], [-95.7774102, 36.0585229]]]}, "properties": {"osm_id": 1334682494, "building": "apartments", "name": "", "height": null, "height_m": null, "levels": null, "tract_id": "40143007408", "tract_name": "74.08", "tags": {"addr:housenumber": "1132", "addr:postcode": "74012", "addr:street": "East Iola Street", "building": "apartments"}}}, {"type": "Feature", "geometry": {"type": "Polygon", "coordinates": [[[-95.7773371, 36.0585399], [-95.777394, 36.0585054], [-95.7774102, 36.0585229], [-95.7774469, 36.0585625], [-95.77739, 36.058597], [-95.7773836, 36.0585901], [-95.7773371, 36.0585399]]]}, "properties": {"osm_id": 1334682495, "building": "apartments", "name": "", "height": null, "height_m": null, "levels": null, "tract_id": "40143007408", "tract_name": "74.08", "tags": {"addr:housenumber": "1128", "addr:postcode": "74012", "addr:street": "East Iola Street", "building": "apartments"}}}, {"type": "Feature", "geometry": {"type": "Polygon", "coordinates": [[[-95.7775376, 36.058813], [-95.7774878, 36.0587593], [-95.7775365, 36.0587298], [-95.7775863, 36.0587834], [-95.7775458, 36.058808], [-95.7775376, 36.058813]]]}, "properties": {"osm_id": 1334682496, "building": "apartments", "name": "", "height": null, "height_m": null, "levels": null, "tract_id": "40143007408", "tract_name": "74.08", "tags": {"addr:housenumber": "1120", "addr:postcode": "74012", "addr:street": "East Iola Street", "building": "apartments"}}}, {"type": "Feature", "geometry": {"type": "Polygon", "coordinates": [[[-95.7775795, 36.0588442], [-95.7775644, 36.0588534], [-95.7775102, 36.0588863], [-95.7774765, 36.05885], [-95.7775376, 36.058813], [-95.7775458, 36.058808], [-95.7775795, 36.0588442]]]}, "properties": {"osm_id": 1334682497, "building": "apartments", "name": "", "height": null, "height_m": null, "levels": null, "tract_id": "40143007408", "tract_name": "74.08", "tags": {"addr:housenumber": "1116", "addr:postcode": "74012", "addr:street": "East Iola Street", "building": "apartments"}}}, {"type": "Feature", "geometry": {"type": "Polygon", "coordinates": [[[-95.7776725, 36.058852], [-95.7776781, 36.0588581], [-95.7776081, 36.0589005], [-95.7775644, 36.0588534], [-95.7775795, 36.0588442], [-95.7776344, 36.058811], [-95.7776725, 36.058852]]]}, "properties": {"osm_id": 1334682498, "building": "apartments", "name": "", "height": null, "height_m": null, "levels": null, "tract_id": "40143007408", "tract_name": "74.08", "tags": {"addr:housenumber": "1112", "addr:postcode": "74012", "addr:street": "East Iola Street", "building": "apartments"}}}, {"type": "Feature", "geometry": {"type": "Polygon", "coordinates": [[[-95.7777574, 36.0587639], [-95.7777511, 36.0587571], [-95.7777123, 36.0587154], [-95.7777798, 36.0586745], [-95.7778248, 36.058723], [-95.7777574, 36.0587639]]]}, "properties": {"osm_id": 1334682499, "building": "apartments", "name": "", "height": null, "height_m": null, "levels": null, "tract_id": "40143007408", "tract_name": "74.08", "tags": {"addr:housenumber": "1100", "addr:postcode": "74012", "addr:street": "East Iola Street", "building": "apartments"}}}, {"type": "Feature", "geometry": {"type": "Polygon", "coordinates": [[[-95.7777594, 36.058841], [-95.7777347, 36.0588143], [-95.7777066, 36.0587841], [-95.7777511, 36.0587571], [-95.7777574, 36.0587639], [-95.7778039, 36.058814], [-95.7777594, 36.058841]]]}, "properties": {"osm_id": 1334682500, "building": "apartments", "name": "", "height": null, "height_m": null, "levels": null, "tract_id": "40143007408", "tract_name": "74.08", "tags": {"addr:housenumber": "1104", "addr:postcode": "74012", "addr:street": "East Iola Street", "building": "apartments"}}}, {"type": "Feature", "geometry": {"type": "Polygon", "coordinates": [[[-95.7777308, 36.0589149], [-95.7776781, 36.0588581], [-95.7776725, 36.058852], [-95.7777347, 36.0588143], [-95.7777594, 36.058841], [-95.777793, 36.0588772], [-95.7777308, 36.0589149]]]}, "properties": {"osm_id": 1334682501, "building": "apartments", "name": "", "height": null, "height_m": null, "levels": null, "tract_id": "40143007408", "tract_name": "74.08", "tags": {"addr:housenumber": "1108", "addr:postcode": "74012", "addr:street": "East Iola Street", "building": "apartments"}}}, {"type": "Feature", "geometry": {"type": "Polygon", "coordinates": [[[-95.77894, 36.0588206], [-95.77894, 36.0588276], [-95.7789402, 36.0588661], [-95.7788511, 36.0588664], [-95.7788509, 36.0588209], [-95.77894, 36.0588206]]]}, "properties": {"osm_id": 1334682502, "building": "apartments", "name": "", "height": null, "height_m": null, "levels": null, "tract_id": "40143007408", "tract_name": "74.08", "tags": {"addr:postcode": "74012", "addr:street": "East Iola Street", "building": "apartments"}}}, {"type": "Feature", "geometry": {"type": "Polygon", "coordinates": [[[-95.7789973, 36.0588275], [-95.77894, 36.0588276], [-95.77894, 36.0588206], [-95.7789398, 36.0587598], [-95.778997, 36.0587597], [-95.7789972, 36.0588124], [-95.7789973, 36.0588275]]]}, "properties": {"osm_id": 1334682503, "building": "apartments", "name": "", "height": null, "height_m": null, "levels": null, "tract_id": "40143007408", "tract_name": "74.08", "tags": {"addr:postcode": "74012", "addr:street": "East Iola Street", "building": "apartments"}}}, {"type": "Feature", "geometry": {"type": "Polygon", "coordinates": [[[-95.7790736, 36.0588825], [-95.7789975, 36.0588827], [-95.7789973, 36.0588275], [-95.7789972, 36.0588124], [-95.7790733, 36.0588122], [-95.7790736, 36.0588825]]]}, "properties": {"osm_id": 1334682504, "building": "apartments", "name": "", "height": null, "height_m": null, "levels": null, "tract_id": "40143007408", "tract_name": "74.08", "tags": {"addr:postcode": "74012", "addr:street": "East Iola Street", "building": "apartments"}}}, {"type": "Feature", "geometry": {"type": "Polygon", "coordinates": [[[-95.7790268, 36.0589893], [-95.7790271, 36.0590588], [-95.7789558, 36.059059], [-95.7789555, 36.0589895], [-95.7790133, 36.0589893], [-95.7790268, 36.0589893]]]}, "properties": {"osm_id": 1334682505, "building": "apartments", "name": "", "height": null, "height_m": null, "levels": null, "tract_id": "40143007408", "tract_name": "74.08", "tags": {"addr:postcode": "74012", "addr:street": "East Iola Street", "building": "apartments"}}}, {"type": "Feature", "geometry": {"type": "Polygon", "coordinates": [[[-95.7791028, 36.0589426], [-95.779103, 36.0589891], [-95.7790268, 36.0589893], [-95.7790133, 36.0589893], [-95.7790131, 36.0589428], [-95.7790738, 36.0589427], [-95.7791028, 36.0589426]]]}, "properties": {"osm_id": 1334682506, "building": "apartments", "name": "", "height": null, "height_m": null, "levels": null, "tract_id": "40143007408", "tract_name": "74.08", "tags": {"addr:postcode": "74012", "addr:street": "East Iola Street", "building": "apartments"}}}, {"type": "Feature", "geometry": {"type": "Polygon", "coordinates": [[[-95.7790736, 36.0588825], [-95.7791521, 36.0588823], [-95.7791524, 36.0589425], [-95.7791028, 36.0589426], [-95.7790738, 36.0589427], [-95.7790736, 36.0588825]]]}, "properties": {"osm_id": 1334682507, "building": "apartments", "name": "", "height": null, "height_m": null, "levels": null, "tract_id": "40143007408", "tract_name": "74.08", "tags": {"addr:postcode": "74012", "addr:street": "East Iola Street", "building": "apartments"}}}, {"type": "Feature", "geometry": {"type": "Polygon", "coordinates": [[[-95.779164, 36.0591224], [-95.7792225, 36.0591224], [-95.7792225, 36.0591964], [-95.7791629, 36.0591964], [-95.7791629, 36.0591723], [-95.779164, 36.0591224]]]}, "properties": {"osm_id": 1334682508, "building": "apartments", "name": "", "height": null, "height_m": null, "levels": null, "tract_id": "40143007408", "tract_name": "74.08", "tags": {"addr:postcode": "74012", "addr:street": "East Iola Street", "building": "apartments"}}}, {"type": "Feature", "geometry": {"type": "Polygon", "coordinates": [[[-95.7791629, 36.0591723], [-95.7790895, 36.0591723], [-95.7790895, 36.0591551], [-95.7790895, 36.0590854], [-95.779164, 36.0590854], [-95.779164, 36.0591224], [-95.7791629, 36.0591723]]]}, "properties": {"osm_id": 1334682509, "building": "apartments", "name": "", "height": null, "height_m": null, "levels": null, "tract_id": "40143007408", "tract_name": "74.08", "tags": {"addr:postcode": "74012", "addr:street": "East Iola Street", "building": "apartments"}}}, {"type": "Feature", "geometry": {"type": "Polygon", "coordinates": [[[-95.7781307, 36.0585025], [-95.7781307, 36.0585107], [-95.7781307, 36.0585492], [-95.7780462, 36.0585492], [-95.7780462, 36.0585025], [-95.7781307, 36.0585025]]]}, "properties": {"osm_id": 1334682510, "building": "apartments", "name": "", "height": null, "height_m": null, "levels": null, "tract_id": "40143007408", "tract_name": "74.08", "tags": {"addr:housenumber": "1081", "addr:postcode": "74012", "addr:street": "East Iola Street", "building": "apartments"}}}, {"type": "Feature", "geometry": {"type": "Polygon", "coordinates": [[[-95.7782587, 36.0584489], [-95.7783439, 36.0584489], [-95.7783439, 36.0585101], [-95.7782587, 36.0585101], [-95.7782587, 36.0584624], [-95.7782587, 36.0584489]]]}, "properties": {"osm_id": 1334682511, "building": "apartments", "name": "", "height": null, "height_m": null, "levels": null, "tract_id": "40143007408", "tract_name": "74.08", "tags": {"addr:housenumber": "1069", "addr:postcode": "74012", "addr:street": "East Iola Street", "building": "apartments"}}}, {"type": "Feature", "geometry": {"type": "Polygon", "coordinates": [[[-95.7782004, 36.0584624], [-95.7782004, 36.0584467], [-95.7782004, 36.0583892], [-95.7782587, 36.0583892], [-95.7782587, 36.0584489], [-95.7782587, 36.0584624], [-95.7782004, 36.0584624]]]}, "properties": {"osm_id": 1334682512, "building": "apartments", "name": "", "height": null, "height_m": null, "levels": null, "tract_id": "40143007408", "tract_name": "74.08", "tags": {"addr:housenumber": "1073", "addr:postcode": "74012", "addr:street": "East Iola Street", "building": "apartments"}}}, {"type": "Feature", "geometry": {"type": "Polygon", "coordinates": [[[-95.7782004, 36.0585107], [-95.7781307, 36.0585107], [-95.7781307, 36.0585025], [-95.7781307, 36.0584467], [-95.7782004, 36.0584467], [-95.7782004, 36.0584624], [-95.7782004, 36.0585107]]]}, "properties": {"osm_id": 1334682513, "building": "apartments", "name": "", "height": null, "height_m": null, "levels": null, "tract_id": "40143007408", "tract_name": "74.08", "tags": {"addr:housenumber": "1077", "addr:postcode": "74012", "addr:street": "East Iola Street", "building": "apartments"}}}, {"type": "Feature", "geometry": {"type": "Polygon", "coordinates": [[[-95.7785179, 36.0585416], [-95.7784689, 36.0585416], [-95.7784689, 36.0584719], [-95.7785243, 36.0584719], [-95.7785243, 36.0585416], [-95.7785179, 36.0585416]]]}, "properties": {"osm_id": 1334682514, "building": "apartments", "name": "", "height": null, "height_m": null, "levels": null, "tract_id": "40143007408", "tract_name": "74.08", "tags": {"addr:housenumber": "1065", "addr:postcode": "74012", "addr:street": "East Iola Street", "building": "apartments"}}}, {"type": "Feature", "geometry": {"type": "Polygon", "coordinates": [[[-95.7785892, 36.0586465], [-95.7785892, 36.0587128], [-95.7785158, 36.0587128], [-95.7785158, 36.0586465], [-95.7785754, 36.0586465], [-95.7785892, 36.0586465]]]}, "properties": {"osm_id": 1334682515, "building": "apartments", "name": "", "height": null, "height_m": null, "levels": null, "tract_id": "40143007408", "tract_name": "74.08", "tags": {"addr:housenumber": "1053", "addr:postcode": "74012", "addr:street": "East Iola Street", "building": "apartments"}}}, {"type": "Feature", "geometry": {"type": "Polygon", "coordinates": [[[-95.7785754, 36.0586001], [-95.778602, 36.0586001], [-95.7786595, 36.0586001], [-95.7786595, 36.0586465], [-95.7785892, 36.0586465], [-95.7785754, 36.0586465], [-95.7785754, 36.0586001]]]}, "properties": {"osm_id": 1334682516, "building": "apartments", "name": "", "height": null, "height_m": null, "levels": null, "tract_id": "40143007408", "tract_name": "74.08", "tags": {"addr:housenumber": "1057", "addr:postcode": "74012", "addr:street": "East Iola Street", "building": "apartments"}}}, {"type": "Feature", "geometry": {"type": "Polygon", "coordinates": [[[-95.7785179, 36.0586001], [-95.7785179, 36.0585416], [-95.7785243, 36.0585416], [-95.778602, 36.0585416], [-95.778602, 36.0586001], [-95.7785754, 36.0586001], [-95.7785179, 36.0586001]]]}, "properties": {"osm_id": 1334682517, "building": "apartments", "name": "", "height": null, "height_m": null, "levels": null, "tract_id": "40143007408", "tract_name": "74.08", "tags": {"addr:housenumber": "1061", "addr:postcode": "74012", "addr:street": "East Iola Street", "building": "apartments"}}}, {"type": "Feature", "geometry": {"type": "Polygon", "coordinates": [[[-95.7784306, 36.058804], [-95.7784306, 36.0587937], [-95.7784306, 36.0587464], [-95.7785158, 36.0587464], [-95.7785158, 36.058804], [-95.7784306, 36.058804]]]}, "properties": {"osm_id": 1334682518, "building": "apartments", "name": "", "height": null, "height_m": null, "levels": null, "tract_id": "40143007408", "tract_name": "74.08", "tags": {"addr:housenumber": "1049", "addr:postcode": "74012", "addr:street": "East Iola Street", "building": "apartments"}}}, {"type": "Feature", "geometry": {"type": "Polygon", "coordinates": [[[-95.7783721, 36.0587937], [-95.7784306, 36.0587937], [-95.7784306, 36.058804], [-95.7784306, 36.0588686], [-95.7783721, 36.0588686], [-95.7783721, 36.0588032], [-95.7783721, 36.0587937]]]}, "properties": {"osm_id": 1334682519, "building": "apartments", "name": "", "height": null, "height_m": null, "levels": null, "tract_id": "40143007408", "tract_name": "74.08", "tags": {"addr:housenumber": "1045", "addr:postcode": "74012", "addr:street": "East Iola Street", "building": "apartments"}}}, {"type": "Feature", "geometry": {"type": "Polygon", "coordinates": [[[-95.778288, 36.0587558], [-95.7783721, 36.0587558], [-95.7783721, 36.0587937], [-95.7783721, 36.0588032], [-95.778288, 36.0588032], [-95.778288, 36.0587558]]]}, "properties": {"osm_id": 1334682520, "building": "apartments", "name": "", "height": null, "height_m": null, "levels": null, "tract_id": "40143007408", "tract_name": "74.08", "tags": {"addr:housenumber": "1041", "addr:postcode": "74012", "addr:street": "East Iola Street", "building": "apartments"}}}, {"type": "Feature", "geometry": {"type": "Polygon", "coordinates": [[[-95.7785931, 36.0590039], [-95.7785979, 36.0590087], [-95.7786216, 36.0590328], [-95.7785509, 36.0590785], [-95.778515, 36.0590422], [-95.7785857, 36.0589965], [-95.7785931, 36.0590039]]]}, "properties": {"osm_id": 1334682521, "building": "apartments", "name": "", "height": null, "height_m": null, "levels": null, "tract_id": "40143007408", "tract_name": "74.08", "tags": {"addr:housenumber": "1037", "addr:postcode": "74012", "addr:street": "East Iola Street", "building": "apartments"}}}, {"type": "Feature", "geometry": {"type": "Polygon", "coordinates": [[[-95.7786487, 36.0588936], [-95.7787112, 36.0588531], [-95.7787563, 36.0588987], [-95.7786937, 36.0589391], [-95.778661, 36.058906], [-95.7786569, 36.0589019], [-95.7786487, 36.0588936]]]}, "properties": {"osm_id": 1334682522, "building": "apartments", "name": "", "height": null, "height_m": null, "levels": null, "tract_id": "40143007408", "tract_name": "74.08", "tags": {"addr:housenumber": "1025", "addr:postcode": "74012", "addr:street": "East Iola Street", "building": "apartments"}}}, {"type": "Feature", "geometry": {"type": "Polygon", "coordinates": [[[-95.7786096, 36.0589324], [-95.7785924, 36.058915], [-95.7785537, 36.0588759], [-95.7786009, 36.0588453], [-95.7786487, 36.0588936], [-95.7786569, 36.0589019], [-95.7786365, 36.0589151], [-95.7786096, 36.0589324]]]}, "properties": {"osm_id": 1334682523, "building": "apartments", "name": "", "height": null, "height_m": null, "levels": null, "tract_id": "40143007408", "tract_name": "74.08", "tags": {"addr:housenumber": "1029", "addr:postcode": "74012", "addr:street": "East Iola Street", "building": "apartments"}}}, {"type": "Feature", "geometry": {"type": "Polygon", "coordinates": [[[-95.7785392, 36.0589494], [-95.7785924, 36.058915], [-95.7786096, 36.0589324], [-95.7786463, 36.0589695], [-95.7786086, 36.0589938], [-95.7785931, 36.0590039], [-95.7785392, 36.0589494]]]}, "properties": {"osm_id": 1334682524, "building": "apartments", "name": "", "height": null, "height_m": null, "levels": null, "tract_id": "40143007408", "tract_name": "74.08", "tags": {"addr:housenumber": "1033", "addr:postcode": "74012", "addr:street": "East Iola Street", "building": "apartments"}}}, {"type": "Feature", "geometry": {"type": "Polygon", "coordinates": [[[-95.7790895, 36.0591723], [-95.7790895, 36.0592093], [-95.7790022, 36.0592093], [-95.7790022, 36.0591551], [-95.7790895, 36.0591551], [-95.7790895, 36.0591723]]]}, "properties": {"osm_id": 1334682525, "building": "apartments", "name": "", "height": null, "height_m": null, "levels": null, "tract_id": "40143007408", "tract_name": "74.08", "tags": {"addr:postcode": "74012", "addr:street": "East Iola Street", "building": "apartments"}}}, {"type": "Feature", "geometry": {"type": "Polygon", "coordinates": [[[-95.7724545, 36.0605253], [-95.7724538, 36.0604596], [-95.7724672, 36.0604595], [-95.7724667, 36.0604104], [-95.7725029, 36.0604101], [-95.7725034, 36.0604592], [-95.7725101, 36.0604592], [-95.7725108, 36.0605249], [-95.7725746, 36.0605245], [-95.7725751, 36.0605798], [-95.7724129, 36.0605809], [-95.7724123, 36.0605256], [-95.7724545, 36.0605253]]]}, "properties": {"osm_id": 1335279819, "building": "retail", "name": "7 Brew", "height": null, "height_m": null, "levels": null, "tract_id": "40143007408", "tract_name": "74.08", "tags": {"addr:street": "East Kenosha Street", "amenity": "cafe", "building": "retail", "cuisine": "coffee_shop", "name": "7 Brew"}}}, {"type": "Feature", "geometry": {"type": "Polygon", "coordinates": [[[-95.7786148, 36.0473971], [-95.7782745, 36.0473966], [-95.7782749, 36.0472271], [-95.7786152, 36.0472277], [-95.7786148, 36.0473971]]]}, "properties": {"osm_id": 1342532259, "building": "yes", "name": "", "height": null, "height_m": null, "levels": null, "tract_id": "40143007408", "tract_name": "74.08", "tags": {"building": "yes"}}}, {"type": "Feature", "geometry": {"type": "Polygon", "coordinates": [[[-95.7778162, 36.0473833], [-95.7775449, 36.0473806], [-95.7775467, 36.0472685], [-95.7778179, 36.0472712], [-95.7778162, 36.0473833]]]}, "properties": {"osm_id": 1342532260, "building": "yes", "name": "", "height": null, "height_m": null, "levels": null, "tract_id": "40143007408", "tract_name": "74.08", "tags": {"building": "yes"}}}, {"type": "Feature", "geometry": {"type": "Polygon", "coordinates": [[[-95.7778172, 36.0477094], [-95.7774765, 36.047707], [-95.7774784, 36.0475402], [-95.777819, 36.0475426], [-95.7778172, 36.0477094]]]}, "properties": {"osm_id": 1342532261, "building": "yes", "name": "", "height": null, "height_m": null, "levels": null, "tract_id": "40143007408", "tract_name": "74.08", "tags": {"building": "yes"}}}, {"type": "Feature", "geometry": {"type": "Polygon", "coordinates": [[[-95.7785987, 36.0477081], [-95.7782229, 36.0477081], [-95.7782229, 36.0475606], [-95.7785987, 36.0475606], [-95.7785987, 36.0477081]]]}, "properties": {"osm_id": 1342532262, "building": "yes", "name": "", "height": null, "height_m": null, "levels": null, "tract_id": "40143007408", "tract_name": "74.08", "tags": {"building": "yes"}}}, {"type": "Feature", "geometry": {"type": "Polygon", "coordinates": [[[-95.778599, 36.0485381], [-95.7782711, 36.048537], [-95.7782724, 36.0482864], [-95.7786003, 36.0482875], [-95.778599, 36.0485381]]]}, "properties": {"osm_id": 1342532263, "building": "yes", "name": "", "height": null, "height_m": null, "levels": null, "tract_id": "40143007408", "tract_name": "74.08", "tags": {"building": "yes"}}}, {"type": "Feature", "geometry": {"type": "Polygon", "coordinates": [[[-95.7778155, 36.0482611], [-95.7774759, 36.0482589], [-95.7774775, 36.0480883], [-95.7778172, 36.0480904], [-95.7778155, 36.0482611]]]}, "properties": {"osm_id": 1342532264, "building": "yes", "name": "", "height": null, "height_m": null, "levels": null, "tract_id": "40143007408", "tract_name": "74.08", "tags": {"building": "yes"}}}, {"type": "Feature", "geometry": {"type": "Polygon", "coordinates": [[[-95.7699868, 36.0545745], [-95.7697073, 36.0545718], [-95.7697113, 36.0542954], [-95.7699908, 36.054298], [-95.7699868, 36.0545745]]]}, "properties": {"osm_id": 1342532265, "building": "yes", "name": "", "height": null, "height_m": null, "levels": null, "tract_id": "40143007408", "tract_name": "74.08", "tags": {"building": "yes", "note": "2025-02-01: sign says \"Hope Christian Ministries.\" So this probably isn't a Mormon church anymore, but I will survey once more to be sure."}}}, {"type": "Feature", "geometry": {"type": "Polygon", "coordinates": [[[-95.7728224, 36.0530472], [-95.772711, 36.0530475], [-95.7727104, 36.0529054], [-95.7728217, 36.052905], [-95.7728224, 36.0530472]]]}, "properties": {"osm_id": 1342532266, "building": "yes", "name": "", "height": null, "height_m": null, "levels": null, "tract_id": "40143007408", "tract_name": "74.08", "tags": {"building": "yes"}}}, {"type": "Feature", "geometry": {"type": "Polygon", "coordinates": [[[-95.7732162, 36.052579], [-95.7730404, 36.0525788], [-95.7730407, 36.0523189], [-95.7732165, 36.052319], [-95.7732162, 36.052579]]]}, "properties": {"osm_id": 1342532267, "building": "yes", "name": "", "height": null, "height_m": null, "levels": null, "tract_id": "40143007408", "tract_name": "74.08", "tags": {"building": "yes"}}}, {"type": "Feature", "geometry": {"type": "Polygon", "coordinates": [[[-95.768272, 36.0568936], [-95.7681859, 36.0568932], [-95.7681864, 36.0568245], [-95.7682725, 36.0568249], [-95.768272, 36.0568936]]]}, "properties": {"osm_id": 1342532270, "building": "yes", "name": "", "height": null, "height_m": null, "levels": null, "tract_id": "40143007408", "tract_name": "74.08", "tags": {"building": "yes"}}}, {"type": "Feature", "geometry": {"type": "Polygon", "coordinates": [[[-95.7708853, 36.0584554], [-95.770885, 36.0583673], [-95.771983, 36.0583646], [-95.7719834, 36.0584527], [-95.7708853, 36.0584554]]]}, "properties": {"osm_id": 1342532271, "building": "yes", "name": "", "height": null, "height_m": null, "levels": null, "tract_id": "40143007408", "tract_name": "74.08", "tags": {"building": "yes"}}}, {"type": "Feature", "geometry": {"type": "Polygon", "coordinates": [[[-95.7702904, 36.0590478], [-95.7699454, 36.0590467], [-95.7699486, 36.0583602], [-95.7699643, 36.0583603], [-95.7699647, 36.0582679], [-95.7701399, 36.0582685], [-95.7701395, 36.0583578], [-95.7702937, 36.0583583], [-95.7702904, 36.0590478]]]}, "properties": {"osm_id": 1342532272, "building": "yes", "name": "", "height": null, "height_m": null, "levels": null, "tract_id": "40143007408", "tract_name": "74.08", "tags": {"building": "yes"}}}, {"type": "Feature", "geometry": {"type": "Polygon", "coordinates": [[[-95.7695986, 36.0584395], [-95.7695999, 36.0588152], [-95.7695367, 36.0588154], [-95.7695374, 36.0590046], [-95.769412, 36.0590049], [-95.7694119, 36.0589821], [-95.7692958, 36.0589824], [-95.7692965, 36.0591674], [-95.7690974, 36.0591679], [-95.7690976, 36.0592193], [-95.7687167, 36.0592202], [-95.7687158, 36.0589552], [-95.7690962, 36.0589543], [-95.7690957, 36.058816], [-95.7690851, 36.058816], [-95.7690838, 36.0584406], [-95.7695986, 36.0584395]]]}, "properties": {"osm_id": 1342532273, "building": "yes", "name": "", "height": null, "height_m": null, "levels": null, "tract_id": "40143007408", "tract_name": "74.08", "tags": {"building": "yes"}}}, {"type": "Feature", "geometry": {"type": "Polygon", "coordinates": [[[-95.7683349, 36.0586868], [-95.7680955, 36.0584928], [-95.7681963, 36.0584116], [-95.7684356, 36.0586056], [-95.7683349, 36.0586868]]]}, "properties": {"osm_id": 1342532274, "building": "yes", "name": "", "height": null, "height_m": null, "levels": null, "tract_id": "40143007408", "tract_name": "74.08", "tags": {"building": "yes"}}}, {"type": "Feature", "geometry": {"type": "Polygon", "coordinates": [[[-95.7669874, 36.0573048], [-95.7668483, 36.0573051], [-95.7668481, 36.0572316], [-95.7669872, 36.0572313], [-95.7669874, 36.0573048]]]}, "properties": {"osm_id": 1342532275, "building": "yes", "name": "", "height": null, "height_m": null, "levels": null, "tract_id": "40143007408", "tract_name": "74.08", "tags": {"building": "yes"}}}, {"type": "Feature", "geometry": {"type": "Polygon", "coordinates": [[[-95.766973, 36.0569251], [-95.7668315, 36.0569245], [-95.7668329, 36.0567103], [-95.7669744, 36.0567109], [-95.766973, 36.0569251]]]}, "properties": {"osm_id": 1342532276, "building": "yes", "name": "", "height": null, "height_m": null, "levels": null, "tract_id": "40143007408", "tract_name": "74.08", "tags": {"building": "yes"}}}, {"type": "Feature", "geometry": {"type": "Polygon", "coordinates": [[[-95.7682125, 36.0566911], [-95.7681324, 36.0566906], [-95.7681327, 36.0566577], [-95.7682129, 36.0566583], [-95.7682125, 36.0566911]]]}, "properties": {"osm_id": 1342532277, "building": "yes", "name": "", "height": null, "height_m": null, "levels": null, "tract_id": "40143007408", "tract_name": "74.08", "tags": {"building": "yes"}}}, {"type": "Feature", "geometry": {"type": "Polygon", "coordinates": [[[-95.7681971, 36.056593], [-95.768065, 36.0565936], [-95.7680645, 36.0565112], [-95.7681966, 36.0565107], [-95.7681971, 36.056593]]]}, "properties": {"osm_id": 1342532278, "building": "yes", "name": "", "height": null, "height_m": null, "levels": null, "tract_id": "40143007408", "tract_name": "74.08", "tags": {"building": "yes"}}}, {"type": "Feature", "geometry": {"type": "Polygon", "coordinates": [[[-95.7702711, 36.0575783], [-95.7697588, 36.0575758], [-95.7697593, 36.0575131], [-95.7702716, 36.0575156], [-95.7702711, 36.0575783]]]}, "properties": {"osm_id": 1342532279, "building": "yes", "name": "", "height": null, "height_m": null, "levels": null, "tract_id": "40143007408", "tract_name": "74.08", "tags": {"building": "yes"}}}, {"type": "Feature", "geometry": {"type": "Polygon", "coordinates": [[[-95.771235, 36.0596038], [-95.7708756, 36.0596038], [-95.7708756, 36.0594626], [-95.771235, 36.0594626], [-95.771235, 36.0596038]]]}, "properties": {"osm_id": 1342532280, "building": "yes", "name": "", "height": null, "height_m": null, "levels": null, "tract_id": "40143007408", "tract_name": "74.08", "tags": {"building": "yes"}}}, {"type": "Feature", "geometry": {"type": "Polygon", "coordinates": [[[-95.7685364, 36.0589346], [-95.7684343, 36.0589338], [-95.7684356, 36.058817], [-95.7685377, 36.0588178], [-95.7685364, 36.0589346]]]}, "properties": {"osm_id": 1342532281, "building": "yes", "name": "", "height": null, "height_m": null, "levels": null, "tract_id": "40143007408", "tract_name": "74.08", "tags": {"building": "yes"}}}, {"type": "Feature", "geometry": {"type": "Polygon", "coordinates": [[[-95.7672754, 36.0588153], [-95.7665978, 36.0588202], [-95.7665947, 36.0585398], [-95.7672723, 36.0585349], [-95.7672754, 36.0588153]]]}, "properties": {"osm_id": 1342532282, "building": "yes", "name": "", "height": null, "height_m": null, "levels": null, "tract_id": "40143007408", "tract_name": "74.08", "tags": {"building": "yes"}}}, {"type": "Feature", "geometry": {"type": "Polygon", "coordinates": [[[-95.7703154, 36.0581648], [-95.7696341, 36.0581632], [-95.769635, 36.0579094], [-95.7703163, 36.0579111], [-95.7703154, 36.0581648]]]}, "properties": {"osm_id": 1342532283, "building": "yes", "name": "", "height": null, "height_m": null, "levels": null, "tract_id": "40143007408", "tract_name": "74.08", "tags": {"building": "yes"}}}, {"type": "Feature", "geometry": {"type": "Polygon", "coordinates": [[[-95.7689857, 36.058766], [-95.7687175, 36.058762], [-95.7687249, 36.05844], [-95.7689931, 36.058444], [-95.7689857, 36.058766]]]}, "properties": {"osm_id": 1342532284, "building": "yes", "name": "", "height": null, "height_m": null, "levels": null, "tract_id": "40143007408", "tract_name": "74.08", "tags": {"building": "yes"}}}, {"type": "Feature", "geometry": {"type": "Polygon", "coordinates": [[[-95.770361, 36.059771], [-95.7700467, 36.0597683], [-95.7700508, 36.0594653], [-95.770365, 36.059468], [-95.770361, 36.059771]]]}, "properties": {"osm_id": 1342532285, "building": "yes", "name": "", "height": null, "height_m": null, "levels": null, "tract_id": "40143007408", "tract_name": "74.08", "tags": {"building": "yes"}}}, {"type": "Feature", "geometry": {"type": "Polygon", "coordinates": [[[-95.770362, 36.0599466], [-95.7700643, 36.0599466], [-95.7700643, 36.059781], [-95.770362, 36.059781], [-95.770362, 36.0599466]]]}, "properties": {"osm_id": 1342532286, "building": "yes", "name": "", "height": null, "height_m": null, "levels": null, "tract_id": "40143007408", "tract_name": "74.08", "tags": {"building": "yes"}}}, {"type": "Feature", "geometry": {"type": "Polygon", "coordinates": [[[-95.7711931, 36.0603396], [-95.7709236, 36.0603375], [-95.7709257, 36.0601612], [-95.7711953, 36.0601634], [-95.7711931, 36.0603396]]]}, "properties": {"osm_id": 1342532287, "building": "yes", "name": "", "height": null, "height_m": null, "levels": null, "tract_id": "40143007408", "tract_name": "74.08", "tags": {"building": "yes"}}}, {"type": "Feature", "geometry": {"type": "Polygon", "coordinates": [[[-95.771393, 36.0600079], [-95.7709678, 36.0600063], [-95.7709685, 36.0598935], [-95.7713936, 36.0598951], [-95.771393, 36.0600079]]]}, "properties": {"osm_id": 1342532288, "building": "yes", "name": "", "height": null, "height_m": null, "levels": null, "tract_id": "40143007408", "tract_name": "74.08", "tags": {"building": "yes"}}}, {"type": "Feature", "geometry": {"type": "Polygon", "coordinates": [[[-95.7715452, 36.0598165], [-95.7709658, 36.0598155], [-95.7709663, 36.0596462], [-95.7715457, 36.0596473], [-95.7715452, 36.0598165]]]}, "properties": {"osm_id": 1342532289, "building": "yes", "name": "", "height": null, "height_m": null, "levels": null, "tract_id": "40143007408", "tract_name": "74.08", "tags": {"building": "yes"}}}, {"type": "Feature", "geometry": {"type": "Polygon", "coordinates": [[[-95.7667335, 36.0547286], [-95.7667335, 36.0548353], [-95.7665941, 36.0548353], [-95.7665941, 36.0545522], [-95.7667335, 36.0545521], [-95.7667335, 36.0546657], [-95.7667963, 36.0546657], [-95.7667963, 36.0547286], [-95.7667335, 36.0547286]]]}, "properties": {"osm_id": 1362432574, "building": "church", "name": "New Hope Primitive Baptist Church", "height": null, "height_m": null, "levels": null, "tract_id": "40143007408", "tract_name": "74.08", "tags": {"addr:postcode": "74012", "amenity": "place_of_worship", "building": "church", "denomination": "baptist", "name": "New Hope Primitive Baptist Church", "religion": "christian"}}}, {"type": "Feature", "geometry": {"type": "Polygon", "coordinates": [[[-95.7748359, 36.0529714], [-95.7744899, 36.0529704], [-95.7744912, 36.0526907], [-95.7748372, 36.0526917], [-95.7748359, 36.0529714]]]}, "properties": {"osm_id": 1362432581, "building": "house", "name": "", "height": null, "height_m": null, "levels": null, "tract_id": "40143007408", "tract_name": "74.08", "tags": {"addr:postcode": "74429", "building": "house"}}}, {"type": "Feature", "geometry": {"type": "Polygon", "coordinates": [[[-95.7733177, 36.0530774], [-95.7730831, 36.0528866], [-95.7731049, 36.0528691], [-95.7730714, 36.0528419], [-95.7731877, 36.0527483], [-95.7734042, 36.0529243], [-95.7735066, 36.052842], [-95.7736016, 36.0529193], [-95.7736207, 36.0529039], [-95.773703, 36.0529709], [-95.7735815, 36.0530686], [-95.7738704, 36.0533035], [-95.773754, 36.053397], [-95.7734567, 36.0531552], [-95.7731558, 36.053397], [-95.7730386, 36.0533017], [-95.7733177, 36.0530774]]]}, "properties": {"osm_id": 1362432582, "building": "house", "name": "", "height": null, "height_m": null, "levels": null, "tract_id": "40143007408", "tract_name": "74.08", "tags": {"addr:postcode": "74429", "building": "house"}}}]}