{"type": "FeatureCollection", "features": [{"type": "Feature", "geometry": {"type": "Polygon", "coordinates": [[[-97.4629891, 35.6497349], [-97.4628605, 35.6497354], [-97.4628611, 35.6498288], [-97.4628615, 35.649896], [-97.4625776, 35.6498972], [-97.4625772, 35.6498287], [-97.4625766, 35.6497373], [-97.4620143, 35.6497396], [-97.4620146, 35.6497887], [-97.461608, 35.6497904], [-97.4616077, 35.6497376], [-97.461352, 35.6497387], [-97.4613487, 35.6492195], [-97.4610645, 35.6492207], [-97.4610633, 35.6490186], [-97.4615055, 35.6490168], [-97.4615043, 35.6488346], [-97.4619803, 35.6488326], [-97.4619807, 35.6488971], [-97.4622999, 35.6488958], [-97.4623005, 35.6490017], [-97.46245, 35.6490011], [-97.4624489, 35.6488391], [-97.4629835, 35.6488369], [-97.4629891, 35.6497349]]]}, "properties": {"osm_id": 115388328, "building": "yes", "name": "Lowe's", "height": null, "height_m": null, "levels": null, "tract_id": "40109108201", "tract_name": "1082.01", "tags": {"addr:city": "Edmond", "addr:housenumber": "1320", "addr:postcode": "73034", "addr:state": "OK", "addr:street": "East 2nd Street", "brand": "Lowe's", "brand:wikidata": "Q1373493", "building": "yes", "name": "Lowe's", "opening_hours": "Mo-Sa 06:00-22:00; Su 08:00-20:00", "phone": "+1 405-330-4166", "ref": "1549", "shop": "doityourself", "start_date": "2002-03-06", "url": "http://stores.lowes.com/lowes/cgi/site?site=1549", "website": "https://www.lowes.com/store/ok-edmond/1549"}}}, {"type": "Feature", "geometry": {"type": "Polygon", "coordinates": [[[-97.4648647, 35.6502828], [-97.4645461, 35.6502822], [-97.4645474, 35.6503085], [-97.4643312, 35.6503108], [-97.4643255, 35.6502945], [-97.4642968, 35.6502945], [-97.4642968, 35.6503073], [-97.4641577, 35.6503236], [-97.4639871, 35.6503341], [-97.4637792, 35.6503178], [-97.4636688, 35.6503038], [-97.4636573, 35.6502933], [-97.4636358, 35.6502945], [-97.4636444, 35.650312], [-97.463415, 35.6503099], [-97.4634136, 35.6502843], [-97.4631642, 35.6502815], [-97.4631699, 35.6493296], [-97.4645902, 35.6493322], [-97.4645898, 35.649493], [-97.4648669, 35.6494935], [-97.4648647, 35.6502828]]]}, "properties": {"osm_id": 115388347, "building": "retail", "name": "Target", "height": null, "height_m": null, "levels": null, "tract_id": "40109108201", "tract_name": "1082.01", "tags": {"addr:city": "Edmond", "addr:housenumber": "1200", "addr:postcode": "73034-5317", "addr:state": "OK", "addr:street": "East 2nd Street", "brand": "Target", "brand:wikidata": "Q1046951", "building": "retail", "name": "Target", "opening_hours": "07:00-22:00", "phone": "+1 405-844-5072", "shop": "department_store", "website": "https://www.target.com/sl/edmond/1398"}}}, {"type": "Feature", "geometry": {"type": "Polygon", "coordinates": [[[-97.4729317, 35.6408615], [-97.4724114, 35.6409618], [-97.4722316, 35.6403645], [-97.4727413, 35.6402621], [-97.4729317, 35.6408615]]]}, "properties": {"osm_id": 238024597, "building": "yes", "name": "YMCA", "height": null, "height_m": null, "levels": null, "tract_id": "40109108201", "tract_name": "1082.01", "tags": {"building": "yes", "name": "YMCA"}}}, {"type": "Feature", "geometry": {"type": "Polygon", "coordinates": [[[-97.472414, 35.645149], [-97.4721002, 35.6452842], [-97.4719554, 35.6450749], [-97.4720278, 35.6450335], [-97.4719232, 35.6449093], [-97.4719822, 35.6448788], [-97.4718508, 35.6447109], [-97.4725133, 35.6444014], [-97.4724596, 35.6443229], [-97.4723309, 35.6443753], [-97.4721914, 35.6441747], [-97.4722907, 35.6441246], [-97.4722424, 35.6440592], [-97.4724274, 35.643972], [-97.4724623, 35.6440156], [-97.4725267, 35.6439851], [-97.472693, 35.6442009], [-97.4727413, 35.6441813], [-97.4726849, 35.6441028], [-97.4730444, 35.643935], [-97.4734065, 35.6444341], [-97.4733501, 35.6444646], [-97.4735432, 35.6447523], [-97.4733662, 35.6448308], [-97.4733287, 35.6447785], [-97.4731034, 35.6448766], [-97.4731382, 35.6449245], [-97.472465, 35.6452297], [-97.472414, 35.645149]]]}, "properties": {"osm_id": 238024599, "building": "school", "name": "Central Middle School", "height": null, "height_m": null, "levels": null, "tract_id": "40109108201", "tract_name": "1082.01", "tags": {"addr:city": "Edmond", "addr:housenumber": "500", "addr:postcode": "73034", "addr:street": "East 9th Street", "amenity": "school", "building": "school", "name": "Central Middle School"}}}, {"type": "Feature", "geometry": {"type": "Polygon", "coordinates": [[[-97.4617629, 35.6524582], [-97.4615914, 35.6524596], [-97.4615885, 35.6524759], [-97.4613504, 35.6524762], [-97.461321, 35.6524779], [-97.4612924, 35.6524633], [-97.4612773, 35.6524365], [-97.4612794, 35.6524092], [-97.4612759, 35.6522219], [-97.4613031, 35.652221], [-97.461306, 35.6521713], [-97.4617267, 35.6521689], [-97.4617735, 35.6522056], [-97.4618265, 35.6522103], [-97.4618251, 35.6522848], [-97.4617706, 35.6522825], [-97.4617629, 35.6524582]]]}, "properties": {"osm_id": 238024802, "building": "yes", "name": "Walgreens", "height": null, "height_m": null, "levels": null, "tract_id": "40109108201", "tract_name": "1082.01", "tags": {"addr:city": "Edmond", "addr:country": "US", "addr:postcode": "73034", "addr:state": "OK", "amenity": "pharmacy", "brand": "Walgreens", "brand:wikidata": "Q1591889", "building": "yes", "dispensing": "yes", "healthcare": "pharmacy", "name": "Walgreens"}}}, {"type": "Feature", "geometry": {"type": "Polygon", "coordinates": [[[-97.4678143, 35.6524367], [-97.4676024, 35.6524367], [-97.4676024, 35.652417], [-97.4675193, 35.6524192], [-97.4675193, 35.6523887], [-97.4673905, 35.6523843], [-97.4673422, 35.6523451], [-97.4673342, 35.6519746], [-97.467471, 35.6520749], [-97.4674683, 35.6519245], [-97.4674924, 35.6519288], [-97.4674924, 35.651822], [-97.4679082, 35.6518264], [-97.4679135, 35.6522078], [-97.4679591, 35.6522078], [-97.4679591, 35.6523931], [-97.4678143, 35.6523931], [-97.4678143, 35.6524367]]]}, "properties": {"osm_id": 238147353, "building": "yes", "name": "Central Plaza", "height": null, "height_m": null, "levels": null, "tract_id": "40109108201", "tract_name": "1082.01", "tags": {"building": "yes", "name": "Central Plaza"}}}, {"type": "Feature", "geometry": {"type": "Polygon", "coordinates": [[[-97.4698555, 35.6521991], [-97.469606, 35.6520073], [-97.4695631, 35.65204], [-97.4695872, 35.6520858], [-97.4694531, 35.6521991], [-97.4692198, 35.6520182], [-97.4694129, 35.6518526], [-97.4692144, 35.6516782], [-97.4693968, 35.6515343], [-97.4700352, 35.6520552], [-97.4698555, 35.6521991]]]}, "properties": {"osm_id": 238147354, "building": "yes", "name": "OSBI Forensic Science Center", "height": null, "height_m": null, "levels": null, "tract_id": "40109108201", "tract_name": "1082.01", "tags": {"addr:housenumber": "800", "addr:postcode": "73034", "addr:street": "East 2nd Street", "building": "yes", "name": "OSBI Forensic Science Center"}}}, {"type": "Feature", "geometry": {"type": "Polygon", "coordinates": [[[-97.4824257, 35.6505946], [-97.4824426, 35.6504568], [-97.4821682, 35.6504346], [-97.4821513, 35.6505724], [-97.4824257, 35.6505946]]]}, "properties": {"osm_id": 262094083, "building": "yes", "name": "Whataburger", "height": null, "height_m": null, "levels": null, "tract_id": "40109108201", "tract_name": "1082.01", "tags": {"addr:city": "Edmond", "addr:housenumber": "421", "addr:postcode": "73034", "addr:state": "OK", "addr:street": "South Broadway", "amenity": "fast_food", "branch": "Broadway & 5th", "brand": "Whataburger", "brand:wikidata": "Q376627", "building": "yes", "cuisine": "burger", "diet:vegetarian": "no", "name": "Whataburger", "opening_hours": "Mo-Su 12:00", "phone": "+1 405-348-2871", "takeaway": "yes", "website": "https://locations.whataburger.com/ok/edmond/421-s-broadway.html", "wheelchair": "yes"}}}, {"type": "Feature", "geometry": {"type": "Polygon", "coordinates": [[[-97.4788874, 35.6528032], [-97.4787984, 35.6527966], [-97.4788093, 35.6526991], [-97.4788983, 35.6527057], [-97.4788874, 35.6528032]]]}, "properties": {"osm_id": 290453588, "building": "yes", "name": "1889 Territorial School", "height": null, "height_m": null, "levels": null, "tract_id": "40109108201", "tract_name": "1082.01", "tags": {"addr:city": "Edmond", "addr:housenumber": "124", "addr:street": "East 2nd Street", "building": "yes", "name": "1889 Territorial School"}}}, {"type": "Feature", "geometry": {"type": "Polygon", "coordinates": [[[-97.4644792, 35.6521093], [-97.4646861, 35.6521103], [-97.4646846, 35.652307], [-97.4646925, 35.652307], [-97.4646919, 35.6523867], [-97.4646109, 35.6523863], [-97.4646107, 35.6524178], [-97.4645562, 35.6524175], [-97.4645565, 35.6523812], [-97.4644772, 35.6523808], [-97.4644792, 35.6521093]]]}, "properties": {"osm_id": 309850977, "building": "yes", "name": "Old Chicago", "height": null, "height_m": null, "levels": null, "tract_id": "40109108201", "tract_name": "1082.01", "tags": {"addr:city": "Edmond", "addr:country": "US", "addr:housenumber": "1150", "addr:postcode": "73034", "addr:state": "OK", "addr:street": "East 2nd Street", "amenity": "restaurant", "brand": "Old Chicago", "brand:wikidata": "Q64411347", "building": "yes", "cuisine": "pizza", "name": "Old Chicago", "official_name": "Old Chicago Pizza & Taproom", "opening_hours": "Su-Th 11:00-21:00; Fr-Sa 11:00-22:00", "outdoor_seating": "no", "phone": "(405) 726-8300", "self_service": "no", "website": "https://bricktownbrewery.com/location/2nd-street/", "website:menu": "https://bricktownbrewery.com/wp-content/uploads/2024/10/Edmond-Menu.pdf"}}}, {"type": "Feature", "geometry": {"type": "Polygon", "coordinates": [[[-97.4662031, 35.6506654], [-97.4661362, 35.6506658], [-97.4661363, 35.650675], [-97.4661387, 35.6508026], [-97.4662044, 35.6508022], [-97.4662031, 35.6506654]]]}, "properties": {"osm_id": 309850978, "building": "retail", "name": "", "height": null, "height_m": null, "levels": null, "tract_id": "40109108201", "tract_name": "1082.01", "tags": {"addr:city": "Edmond", "addr:country": "US", "addr:postcode": "73034", "addr:state": "OK", "building": "retail", "shop": "yes"}}}, {"type": "Feature", "geometry": {"type": "Polygon", "coordinates": [[[-97.4667309, 35.6519497], [-97.4667548, 35.6519161], [-97.4667865, 35.6519309], [-97.4668128, 35.6518939], [-97.4668226, 35.6518984], [-97.4668472, 35.6518637], [-97.4668358, 35.6518583], [-97.4668632, 35.6518196], [-97.4668375, 35.6518076], [-97.4668612, 35.6517743], [-97.4667836, 35.651738], [-97.4666577, 35.6519155], [-97.4667309, 35.6519497]]]}, "properties": {"osm_id": 309850979, "building": "yes", "name": "", "height": null, "height_m": null, "levels": null, "tract_id": "40109108201", "tract_name": "1082.01", "tags": {"addr:city": "Edmond", "addr:country": "US", "addr:postcode": "73034", "addr:state": "OK", "building": "yes", "shop": "storage_rental"}}}, {"type": "Feature", "geometry": {"type": "Polygon", "coordinates": [[[-97.463417, 35.6521967], [-97.4635865, 35.6521969], [-97.4635864, 35.6522577], [-97.4636147, 35.6522577], [-97.4636145, 35.6523712], [-97.4635381, 35.6523711], [-97.4635381, 35.6524051], [-97.4634818, 35.652405], [-97.4634818, 35.6523721], [-97.4633862, 35.652372], [-97.4633864, 35.652258], [-97.4634169, 35.652258], [-97.463417, 35.6521967]]]}, "properties": {"osm_id": 309850980, "building": "yes", "name": "IHOP", "height": null, "height_m": null, "levels": null, "tract_id": "40109108201", "tract_name": "1082.01", "tags": {"addr:city": "Edmond", "addr:country": "US", "addr:postcode": "73034", "addr:state": "OK", "amenity": "restaurant", "brand": "IHOP", "brand:wikidata": "Q1185675", "building": "yes", "cuisine": "breakfast;pancake", "name": "IHOP"}}}, {"type": "Feature", "geometry": {"type": "Polygon", "coordinates": [[[-97.4638071, 35.6521231], [-97.4639419, 35.6521223], [-97.4639432, 35.6522632], [-97.4639538, 35.6522631], [-97.4639539, 35.6522784], [-97.463954, 35.6522909], [-97.4639414, 35.652291], [-97.4639426, 35.652412], [-97.4639096, 35.6524122], [-97.46391, 35.6524589], [-97.4638588, 35.6524592], [-97.4638584, 35.6524128], [-97.4638202, 35.652413], [-97.4638189, 35.6522792], [-97.4637995, 35.6522793], [-97.4637991, 35.6522432], [-97.4638082, 35.6522432], [-97.4638071, 35.6521231]]]}, "properties": {"osm_id": 309850981, "building": "yes", "name": "Chick-fil-A", "height": null, "height_m": null, "levels": null, "tract_id": "40109108201", "tract_name": "1082.01", "tags": {"addr:city": "Edmond", "addr:country": "US", "addr:housenumber": "1210", "addr:postcode": "73034", "addr:state": "OK", "addr:street": "East 2nd Street", "amenity": "fast_food", "branch": "University of Central Oklahoma", "brand": "Chick-fil-A", "brand:wikidata": "Q491516", "building": "yes", "cuisine": "chicken", "delivery": "no", "drive_through": "yes", "indoor_seating": "yes", "name": "Chick-fil-A", "opening_hours": "Mo-Sa 06:30-22:00; Su off", "outdoor_seating": "no", "phone": "+1 405-974-4637", "playground": "yes", "ref": "80142", "takeaway": "yes", "website": "https://www.chick-fil-a.com/locations/ok/2nd-bryant"}}}, {"type": "Feature", "geometry": {"type": "Polygon", "coordinates": [[[-97.4647172, 35.6513784], [-97.4647171, 35.6513169], [-97.4649142, 35.6513158], [-97.4649151, 35.6513769], [-97.4647172, 35.6513784]]]}, "properties": {"osm_id": 309850982, "building": "yes", "name": "Sport Clips", "height": null, "height_m": null, "levels": null, "tract_id": "40109108201", "tract_name": "1082.01", "tags": {"addr:city": "Edmond", "addr:country": "US", "addr:postcode": "73034", "addr:state": "OK", "brand": "Sport Clips", "brand:wikidata": "Q7579310", "building": "yes", "name": "Sport Clips", "shop": "hairdresser"}}}, {"type": "Feature", "geometry": {"type": "Polygon", "coordinates": [[[-97.4655273, 35.651296], [-97.4657481, 35.6512964], [-97.4657483, 35.6512496], [-97.4655274, 35.6512493], [-97.4655273, 35.651296]]]}, "properties": {"osm_id": 309850983, "building": "yes", "name": "", "height": null, "height_m": null, "levels": null, "tract_id": "40109108201", "tract_name": "1082.01", "tags": {"addr:city": "Edmond", "addr:country": "US", "addr:postcode": "73034", "addr:state": "OK", "building": "yes"}}}, {"type": "Feature", "geometry": {"type": "Polygon", "coordinates": [[[-97.4664505, 35.6510122], [-97.466345, 35.6510116], [-97.4663416, 35.6514433], [-97.4664471, 35.6514439], [-97.4664505, 35.6510122]]]}, "properties": {"osm_id": 309850984, "building": "yes", "name": "", "height": null, "height_m": null, "levels": null, "tract_id": "40109108201", "tract_name": "1082.01", "tags": {"addr:city": "Edmond", "addr:country": "US", "addr:postcode": "73034", "addr:state": "OK", "building": "yes"}}}, {"type": "Feature", "geometry": {"type": "Polygon", "coordinates": [[[-97.4661661, 35.6514687], [-97.466267, 35.6514696], [-97.4662615, 35.6519054], [-97.4661606, 35.6519045], [-97.4661661, 35.6514687]]]}, "properties": {"osm_id": 309850985, "building": "yes", "name": "", "height": null, "height_m": null, "levels": null, "tract_id": "40109108201", "tract_name": "1082.01", "tags": {"addr:city": "Edmond", "addr:country": "US", "addr:postcode": "73034", "addr:state": "OK", "building": "yes"}}}, {"type": "Feature", "geometry": {"type": "Polygon", "coordinates": [[[-97.4669825, 35.6515679], [-97.4669867, 35.651355], [-97.4669015, 35.6513538], [-97.4668973, 35.6515668], [-97.4669825, 35.6515679]]]}, "properties": {"osm_id": 309850986, "building": "yes", "name": "", "height": null, "height_m": null, "levels": null, "tract_id": "40109108201", "tract_name": "1082.01", "tags": {"addr:city": "Edmond", "addr:country": "US", "addr:postcode": "73034", "addr:state": "OK", "building": "yes"}}}, {"type": "Feature", "geometry": {"type": "Polygon", "coordinates": [[[-97.4657044, 35.6511862], [-97.4657047, 35.6510997], [-97.4655366, 35.6510994], [-97.4655364, 35.6511859], [-97.4657044, 35.6511862]]]}, "properties": {"osm_id": 309850987, "building": "yes", "name": "", "height": null, "height_m": null, "levels": null, "tract_id": "40109108201", "tract_name": "1082.01", "tags": {"addr:city": "Edmond", "addr:country": "US", "addr:housenumber": "327", "addr:postcode": "73034", "addr:state": "OK", "addr:street": "Waterwood Parkway", "building": "yes"}}}, {"type": "Feature", "geometry": {"type": "Polygon", "coordinates": [[[-97.4663342, 35.6524544], [-97.4663321, 35.652241], [-97.4664556, 35.6522414], [-97.4664556, 35.6524539], [-97.4663342, 35.6524544]]]}, "properties": {"osm_id": 309850988, "building": "retail", "name": "Dutch Bros. Coffee", "height": null, "height_m": null, "levels": null, "tract_id": "40109108201", "tract_name": "1082.01", "tags": {"addr:city": "Edmond", "addr:country": "US", "addr:housenumber": "1000", "addr:postcode": "73034", "addr:state": "OK", "addr:street": "East 2nd Street", "amenity": "cafe", "brand": "Dutch Bros. Coffee", "brand:wikidata": "Q5317253", "building": "retail", "cuisine": "coffee_shop", "name": "Dutch Bros. Coffee", "opening_hours": "Mo-Th 05:00-22:00; Fr-Sa 05:00-23:00; Su 05:00-22:00", "ref": "DB699", "takeaway": "only", "website": "https://locations.dutchbros.com/dutch-bros-coffee-0cd5e9c3eef9"}}}, {"type": "Feature", "geometry": {"type": "Polygon", "coordinates": [[[-97.4666812, 35.651577], [-97.4667822, 35.6515754], [-97.4667796, 35.65147], [-97.4666786, 35.6514716], [-97.4666812, 35.651577]]]}, "properties": {"osm_id": 309850989, "building": "yes", "name": "", "height": null, "height_m": null, "levels": null, "tract_id": "40109108201", "tract_name": "1082.01", "tags": {"addr:city": "Edmond", "addr:country": "US", "addr:postcode": "73034", "addr:state": "OK", "building": "yes"}}}, {"type": "Feature", "geometry": {"type": "Polygon", "coordinates": [[[-97.4649142, 35.6513158], [-97.4649127, 35.6512602], [-97.4647169, 35.6512609], [-97.4647171, 35.6513169], [-97.4649142, 35.6513158]]]}, "properties": {"osm_id": 309850990, "building": "yes", "name": "The Nail & Spa", "height": null, "height_m": null, "levels": null, "tract_id": "40109108201", "tract_name": "1082.01", "tags": {"addr:city": "Edmond", "addr:country": "US", "addr:postcode": "73034", "addr:state": "OK", "building": "yes", "name": "The Nail & Spa", "shop": "beauty"}}}, {"type": "Feature", "geometry": {"type": "Polygon", "coordinates": [[[-97.4657047, 35.6510997], [-97.4657048, 35.65104], [-97.4655368, 35.6510397], [-97.4655366, 35.6510994], [-97.4657047, 35.6510997]]]}, "properties": {"osm_id": 309850992, "building": "yes", "name": "Tao Cha Cafe", "height": null, "height_m": null, "levels": null, "tract_id": "40109108201", "tract_name": "1082.01", "tags": {"addr:city": "Edmond", "addr:country": "US", "addr:housenumber": "331", "addr:postcode": "73034", "addr:state": "OK", "addr:street": "Waterwood Parkway", "amenity": "restaurant", "building": "yes", "cuisine": "asian", "name": "Tao Cha Cafe", "wheelchair": "yes"}}}, {"type": "Feature", "geometry": {"type": "Polygon", "coordinates": [[[-97.4666266, 35.651453], [-97.4665252, 35.6514531], [-97.4665244, 35.6511261], [-97.4666258, 35.6511259], [-97.4666266, 35.651453]]]}, "properties": {"osm_id": 309850994, "building": "yes", "name": "", "height": null, "height_m": null, "levels": null, "tract_id": "40109108201", "tract_name": "1082.01", "tags": {"addr:city": "Edmond", "addr:country": "US", "addr:postcode": "73034", "addr:state": "OK", "building": "yes"}}}, {"type": "Feature", "geometry": {"type": "Polygon", "coordinates": [[[-97.4655293, 35.6509645], [-97.465537, 35.6509646], [-97.465682, 35.6509648], [-97.4656823, 35.6508892], [-97.4655295, 35.650889], [-97.4655293, 35.6509645]]]}, "properties": {"osm_id": 309850995, "building": "yes", "name": "Pure Nutrition", "height": null, "height_m": null, "levels": null, "tract_id": "40109108201", "tract_name": "1082.01", "tags": {"addr:city": "Edmond", "addr:country": "US", "addr:postcode": "73034", "addr:state": "OK", "building": "yes", "name": "Pure Nutrition", "shop": "nutrition_supplements"}}}, {"type": "Feature", "geometry": {"type": "Polygon", "coordinates": [[[-97.465882, 35.651007], [-97.4657948, 35.6510072], [-97.4657969, 35.6514458], [-97.465884, 35.6514455], [-97.465882, 35.651007]]]}, "properties": {"osm_id": 309850996, "building": "yes", "name": "", "height": null, "height_m": null, "levels": null, "tract_id": "40109108201", "tract_name": "1082.01", "tags": {"addr:city": "Edmond", "addr:country": "US", "addr:postcode": "73034", "addr:state": "OK", "building": "yes"}}}, {"type": "Feature", "geometry": {"type": "Polygon", "coordinates": [[[-97.4665948, 35.6520714], [-97.4665947, 35.6519886], [-97.465925, 35.6519893], [-97.4659252, 35.6520721], [-97.4665948, 35.6520714]]]}, "properties": {"osm_id": 309850997, "building": "yes", "name": "", "height": null, "height_m": null, "levels": null, "tract_id": "40109108201", "tract_name": "1082.01", "tags": {"addr:city": "Edmond", "addr:country": "US", "addr:postcode": "73034", "addr:state": "OK", "building": "yes"}}}, {"type": "Feature", "geometry": {"type": "Polygon", "coordinates": [[[-97.4661653, 35.6510056], [-97.4662713, 35.6510058], [-97.4662704, 35.6514445], [-97.4661645, 35.6514443], [-97.4661653, 35.6510056]]]}, "properties": {"osm_id": 309850999, "building": "yes", "name": "", "height": null, "height_m": null, "levels": null, "tract_id": "40109108201", "tract_name": "1082.01", "tags": {"addr:city": "Edmond", "addr:country": "US", "addr:postcode": "73034", "addr:state": "OK", "building": "yes"}}}, {"type": "Feature", "geometry": {"type": "Polygon", "coordinates": [[[-97.4647161, 35.6512214], [-97.4649127, 35.6512218], [-97.4649127, 35.6512602], [-97.4647169, 35.6512609], [-97.4647161, 35.6512214]]]}, "properties": {"osm_id": 309851000, "building": "yes", "name": "", "height": null, "height_m": null, "levels": null, "tract_id": "40109108201", "tract_name": "1082.01", "tags": {"addr:city": "Edmond", "addr:country": "US", "addr:postcode": "73034", "addr:state": "OK", "building": "yes"}}}, {"type": "Feature", "geometry": {"type": "Polygon", "coordinates": [[[-97.4665503, 35.650923], [-97.4665505, 35.6508547], [-97.4658818, 35.6508536], [-97.4658817, 35.6509219], [-97.4665503, 35.650923]]]}, "properties": {"osm_id": 309851001, "building": "yes", "name": "", "height": null, "height_m": null, "levels": null, "tract_id": "40109108201", "tract_name": "1082.01", "tags": {"addr:city": "Edmond", "addr:country": "US", "addr:postcode": "73034", "addr:state": "OK", "building": "yes"}}}, {"type": "Feature", "geometry": {"type": "Polygon", "coordinates": [[[-97.4663465, 35.6519024], [-97.4664443, 35.6519025], [-97.4664452, 35.6514704], [-97.4663473, 35.6514703], [-97.4663465, 35.6519024]]]}, "properties": {"osm_id": 309851002, "building": "yes", "name": "", "height": null, "height_m": null, "levels": null, "tract_id": "40109108201", "tract_name": "1082.01", "tags": {"addr:city": "Edmond", "addr:country": "US", "addr:postcode": "73034", "addr:state": "OK", "building": "yes"}}}, {"type": "Feature", "geometry": {"type": "Polygon", "coordinates": [[[-97.4660858, 35.6514418], [-97.4659845, 35.6514421], [-97.4659824, 35.651057], [-97.4660838, 35.6510566], [-97.4660858, 35.6514418]]]}, "properties": {"osm_id": 309851003, "building": "yes", "name": "", "height": null, "height_m": null, "levels": null, "tract_id": "40109108201", "tract_name": "1082.01", "tags": {"addr:city": "Edmond", "addr:country": "US", "addr:postcode": "73034", "addr:state": "OK", "building": "yes"}}}, {"type": "Feature", "geometry": {"type": "Polygon", "coordinates": [[[-97.4669067, 35.6513349], [-97.4669746, 35.651301], [-97.4666935, 35.6509298], [-97.4666256, 35.6509638], [-97.4669067, 35.6513349]]]}, "properties": {"osm_id": 309851004, "building": "yes", "name": "", "height": null, "height_m": null, "levels": null, "tract_id": "40109108201", "tract_name": "1082.01", "tags": {"addr:city": "Edmond", "addr:country": "US", "addr:postcode": "73034", "addr:state": "OK", "building": "yes"}}}, {"type": "Feature", "geometry": {"type": "Polygon", "coordinates": [[[-97.4658772, 35.6514751], [-97.4657976, 35.6514755], [-97.4658011, 35.6519084], [-97.4658808, 35.651908], [-97.4658772, 35.6514751]]]}, "properties": {"osm_id": 309851005, "building": "yes", "name": "", "height": null, "height_m": null, "levels": null, "tract_id": "40109108201", "tract_name": "1082.01", "tags": {"addr:city": "Edmond", "addr:country": "US", "addr:postcode": "73034", "addr:state": "OK", "building": "yes"}}}, {"type": "Feature", "geometry": {"type": "Polygon", "coordinates": [[[-97.4656823, 35.6508892], [-97.4656824, 35.6508294], [-97.4655297, 35.6508291], [-97.4655295, 35.650889], [-97.4656823, 35.6508892]]]}, "properties": {"osm_id": 309851006, "building": "yes", "name": "Glo Tanning", "height": null, "height_m": null, "levels": null, "tract_id": "40109108201", "tract_name": "1082.01", "tags": {"addr:city": "Edmond", "addr:country": "US", "addr:housenumber": "335", "addr:postcode": "73034", "addr:state": "OK", "addr:street": "South Blackwelder Avenue", "beauty": "tanning", "building": "yes", "name": "Glo Tanning", "phone": "+1 405 708 6320", "shop": "beauty", "website": "https://www.glotanning.com/location/edmond-uco"}}}, {"type": "Feature", "geometry": {"type": "Polygon", "coordinates": [[[-97.4665256, 35.6518521], [-97.4665912, 35.6518539], [-97.4666255, 35.6517954], [-97.4666242, 35.6514663], [-97.4665256, 35.6514668], [-97.4665256, 35.6518521]]]}, "properties": {"osm_id": 309851007, "building": "yes", "name": "", "height": null, "height_m": null, "levels": null, "tract_id": "40109108201", "tract_name": "1082.01", "tags": {"addr:city": "Edmond", "addr:country": "US", "addr:postcode": "73034", "addr:state": "OK", "building": "yes"}}}, {"type": "Feature", "geometry": {"type": "Polygon", "coordinates": [[[-97.4655274, 35.6512493], [-97.4657483, 35.6512496], [-97.4657484, 35.6511862], [-97.4657044, 35.6511862], [-97.4655364, 35.6511859], [-97.4655275, 35.6511859], [-97.4655274, 35.6512493]]]}, "properties": {"osm_id": 309851008, "building": "yes", "name": "Home Care Assistance", "height": null, "height_m": null, "levels": null, "tract_id": "40109108201", "tract_name": "1082.01", "tags": {"addr:city": "Edmond", "addr:country": "US", "addr:housenumber": "323", "addr:postcode": "73034", "addr:state": "OK", "addr:street": "Waterwood Parkway", "amenity": "clinic", "building": "yes", "healthcare": "clinic", "name": "Home Care Assistance"}}}, {"type": "Feature", "geometry": {"type": "Polygon", "coordinates": [[[-97.4657048, 35.65104], [-97.465705, 35.6509649], [-97.465682, 35.6509648], [-97.465537, 35.6509646], [-97.4655368, 35.6510397], [-97.4657048, 35.65104]]]}, "properties": {"osm_id": 309851009, "building": "yes", "name": "Perfect Tan Salon", "height": null, "height_m": null, "levels": null, "tract_id": "40109108201", "tract_name": "1082.01", "tags": {"addr:city": "Edmond", "addr:country": "US", "addr:housenumber": "335", "addr:postcode": "73034", "addr:state": "OK", "addr:street": "Waterwood Parkway", "beauty": "tanning", "building": "yes", "name": "Perfect Tan Salon", "shop": "beauty"}}}, {"type": "Feature", "geometry": {"type": "Polygon", "coordinates": [[[-97.4666764, 35.6514419], [-97.4667773, 35.6514419], [-97.4667773, 35.6513336], [-97.4667443, 35.6513336], [-97.4667443, 35.6512623], [-97.4666764, 35.6512623], [-97.4666764, 35.6514419]]]}, "properties": {"osm_id": 309851010, "building": "yes", "name": "", "height": null, "height_m": null, "levels": null, "tract_id": "40109108201", "tract_name": "1082.01", "tags": {"addr:city": "Edmond", "addr:country": "US", "addr:postcode": "73034", "addr:state": "OK", "building": "yes"}}}, {"type": "Feature", "geometry": {"type": "Polygon", "coordinates": [[[-97.4656826, 35.6507742], [-97.4656824, 35.6508294], [-97.4655297, 35.6508291], [-97.4655192, 35.6508291], [-97.4655193, 35.6507609], [-97.4656019, 35.650761], [-97.4656018, 35.6507741], [-97.4656826, 35.6507742]]]}, "properties": {"osm_id": 309851011, "building": "yes", "name": "", "height": null, "height_m": null, "levels": null, "tract_id": "40109108201", "tract_name": "1082.01", "tags": {"addr:city": "Edmond", "addr:country": "US", "addr:postcode": "73034", "addr:state": "OK", "amenity": "restaurant", "building": "yes"}}}, {"type": "Feature", "geometry": {"type": "Polygon", "coordinates": [[[-97.4657479, 35.6514044], [-97.4657481, 35.6512964], [-97.4655273, 35.651296], [-97.465519, 35.651296], [-97.4655187, 35.6514156], [-97.4656018, 35.6514157], [-97.4656018, 35.6514042], [-97.4657479, 35.6514044]]]}, "properties": {"osm_id": 309851012, "building": "yes", "name": "Cafe Icon Sushi & Grill", "height": null, "height_m": null, "levels": null, "tract_id": "40109108201", "tract_name": "1082.01", "tags": {"addr:city": "Edmond", "addr:country": "US", "addr:housenumber": "311", "addr:postcode": "73034", "addr:state": "OK", "addr:street": "Waterwood Parkway", "amenity": "restaurant", "building": "yes", "cuisine": "asian", "name": "Cafe Icon Sushi & Grill"}}}, {"type": "Feature", "geometry": {"type": "Polygon", "coordinates": [[[-97.4650483, 35.6515895], [-97.4650454, 35.6513754], [-97.4649151, 35.6513769], [-97.4647172, 35.6513784], [-97.4647079, 35.651378], [-97.4647104, 35.6514356], [-97.4647231, 35.6514356], [-97.4647268, 35.6515409], [-97.4647108, 35.6515413], [-97.4647123, 35.6516007], [-97.4647819, 35.6515999], [-97.4647814, 35.6515893], [-97.4650483, 35.6515895]]]}, "properties": {"osm_id": 309851013, "building": "yes", "name": "Kirkland's Home", "height": null, "height_m": null, "levels": null, "tract_id": "40109108201", "tract_name": "1082.01", "tags": {"addr:city": "Edmond", "addr:country": "US", "addr:postcode": "73034", "addr:state": "OK", "building": "yes", "name": "Kirkland's Home", "shop": "furniture"}}}, {"type": "Feature", "geometry": {"type": "Polygon", "coordinates": [[[-97.4649255, 35.6512221], [-97.464924, 35.6511643], [-97.4648548, 35.6511658], [-97.4648546, 35.6511752], [-97.4647767, 35.6511746], [-97.4647767, 35.6511655], [-97.4647077, 35.6511639], [-97.4647079, 35.6512212], [-97.4647161, 35.6512214], [-97.4649127, 35.6512218], [-97.4649255, 35.6512221]]]}, "properties": {"osm_id": 309851014, "building": "yes", "name": "", "height": null, "height_m": null, "levels": null, "tract_id": "40109108201", "tract_name": "1082.01", "tags": {"building": "yes", "shop": "vacant"}}}, {"type": "Feature", "geometry": {"type": "Polygon", "coordinates": [[[-97.4660822, 35.6519034], [-97.4660147, 35.6519032], [-97.466015, 35.6518543], [-97.4660015, 35.6518543], [-97.4660018, 35.6517979], [-97.4659841, 35.6517978], [-97.4659857, 35.6514657], [-97.4660844, 35.651466], [-97.4660822, 35.6519034]]]}, "properties": {"osm_id": 309851017, "building": "yes", "name": "", "height": null, "height_m": null, "levels": null, "tract_id": "40109108201", "tract_name": "1082.01", "tags": {"addr:city": "Edmond", "addr:country": "US", "addr:postcode": "73034", "addr:state": "OK", "building": "yes"}}}, {"type": "Feature", "geometry": {"type": "Polygon", "coordinates": [[[-97.4626329, 35.6524446], [-97.4626344, 35.6521522], [-97.4626157, 35.6521533], [-97.4626229, 35.6520397], [-97.462534, 35.652038], [-97.462534, 35.6520229], [-97.4624738, 35.652024], [-97.4624752, 35.6521265], [-97.4624867, 35.6521236], [-97.4624881, 35.6522174], [-97.4624687, 35.6522198], [-97.4624673, 35.6523001], [-97.4624888, 35.652331], [-97.4624924, 35.6524452], [-97.4626329, 35.6524446]]]}, "properties": {"osm_id": 309851057, "building": "yes", "name": "McDonald's", "height": null, "height_m": null, "levels": null, "tract_id": "40109108201", "tract_name": "1082.01", "tags": {"addr:city": "Edmond", "addr:country": "US", "addr:housenumber": "1300", "addr:postcode": "73034", "addr:state": "OK", "addr:street": "East 2nd Street", "amenity": "fast_food", "brand": "McDonald's", "brand:wikidata": "Q38076", "building": "yes", "cuisine": "burger", "drive_through": "yes", "internet_access": "wlan", "name": "McDonald's", "opening_hours": "05:00-22:00", "phone": "+1 405-348-8228", "takeaway": "yes", "website": "https://www.mcdonalds.com/us/en-us/location/25542.html"}}}, {"type": "Feature", "geometry": {"type": "Polygon", "coordinates": [[[-97.4623995, 35.6514615], [-97.4623992, 35.6513546], [-97.4624127, 35.6513546], [-97.4624126, 35.6513164], [-97.462422, 35.6513164], [-97.4624218, 35.6512357], [-97.4624127, 35.6512357], [-97.4624126, 35.6511976], [-97.4624012, 35.6511976], [-97.4624011, 35.6511594], [-97.4623431, 35.6511595], [-97.4623431, 35.6511492], [-97.4623051, 35.6511493], [-97.4623051, 35.6511398], [-97.4622061, 35.65114], [-97.4622061, 35.6511495], [-97.4621724, 35.6511495], [-97.4621725, 35.6511637], [-97.4621092, 35.6511638], [-97.4621102, 35.6514622], [-97.4621627, 35.6514621], [-97.4623902, 35.6514615], [-97.4623995, 35.6514615]]]}, "properties": {"osm_id": 309851058, "building": "yes", "name": "", "height": null, "height_m": null, "levels": null, "tract_id": "40109108201", "tract_name": "1082.01", "tags": {"addr:city": "Edmond", "addr:country": "US", "addr:postcode": "73034", "addr:state": "OK", "building": "yes", "shop": "vacant"}}}, {"type": "Feature", "geometry": {"type": "Polygon", "coordinates": [[[-97.4623907, 35.6515984], [-97.4623902, 35.6514615], [-97.4621627, 35.6514621], [-97.4621632, 35.6515989], [-97.4623907, 35.6515984]]]}, "properties": {"osm_id": 309851059, "building": "yes", "name": "", "height": null, "height_m": null, "levels": null, "tract_id": "40109108201", "tract_name": "1082.01", "tags": {"addr:city": "Edmond", "addr:country": "US", "addr:postcode": "73034", "addr:state": "OK", "building": "yes", "shop": "vacant"}}}, {"type": "Feature", "geometry": {"type": "Polygon", "coordinates": [[[-97.4615839, 35.6514196], [-97.4615831, 35.6512478], [-97.4612974, 35.6512487], [-97.4612982, 35.6514], [-97.461459, 35.6513995], [-97.4614591, 35.65142], [-97.4615839, 35.6514196]]]}, "properties": {"osm_id": 309851060, "building": "yes", "name": "", "height": null, "height_m": null, "levels": null, "tract_id": "40109108201", "tract_name": "1082.01", "tags": {"addr:city": "Edmond", "addr:country": "US", "addr:postcode": "73034", "addr:state": "OK", "building": "yes"}}}, {"type": "Feature", "geometry": {"type": "Polygon", "coordinates": [[[-97.4612981, 35.6514201], [-97.4612982, 35.6514], [-97.4612974, 35.6512487], [-97.4610878, 35.6512489], [-97.4610882, 35.651398], [-97.4611394, 35.6513979], [-97.4611393, 35.6513873], [-97.4612504, 35.6513871], [-97.4612505, 35.6514202], [-97.4612981, 35.6514201]]]}, "properties": {"osm_id": 309851061, "building": "yes", "name": "", "height": null, "height_m": null, "levels": null, "tract_id": "40109108201", "tract_name": "1082.01", "tags": {"addr:city": "Edmond", "addr:country": "US", "addr:postcode": "73034", "addr:state": "OK", "building": "yes"}}}, {"type": "Feature", "geometry": {"type": "Polygon", "coordinates": [[[-97.4611667, 35.6510167], [-97.4611681, 35.651075], [-97.4611846, 35.6510738], [-97.4611846, 35.6511181], [-97.4609215, 35.6511187], [-97.4607193, 35.6510994], [-97.4607193, 35.6510581], [-97.4608469, 35.6510691], [-97.4608484, 35.651022], [-97.4607186, 35.6510319], [-97.4607208, 35.6509876], [-97.4608512, 35.6509812], [-97.4608527, 35.6510091], [-97.4609509, 35.6510056], [-97.4609502, 35.6509905], [-97.4609932, 35.6509911], [-97.4609968, 35.6510167], [-97.4611667, 35.6510167]]]}, "properties": {"osm_id": 309851527, "building": "yes", "name": "", "height": null, "height_m": null, "levels": null, "tract_id": "40109108201", "tract_name": "1082.01", "tags": {"addr:city": "Edmond", "addr:country": "US", "addr:postcode": "73034", "addr:state": "OK", "building": "yes"}}}, {"type": "Feature", "geometry": {"type": "Polygon", "coordinates": [[[-97.4616517, 35.6514602], [-97.4618657, 35.651461], [-97.4618641, 35.6517721], [-97.4616501, 35.6517713], [-97.4616517, 35.6514602]]]}, "properties": {"osm_id": 309851528, "building": "yes", "name": "", "height": null, "height_m": null, "levels": null, "tract_id": "40109108201", "tract_name": "1082.01", "tags": {"addr:city": "Edmond", "addr:country": "US", "addr:postcode": "73034", "addr:state": "OK", "building": "yes"}}}, {"type": "Feature", "geometry": {"type": "Polygon", "coordinates": [[[-97.4607187, 35.6508762], [-97.4607193, 35.6508313], [-97.4611849, 35.6508357], [-97.4611843, 35.6508806], [-97.4607187, 35.6508762]]]}, "properties": {"osm_id": 309851529, "building": "yes", "name": "", "height": null, "height_m": null, "levels": null, "tract_id": "40109108201", "tract_name": "1082.01", "tags": {"addr:city": "Edmond", "addr:country": "US", "addr:postcode": "73034", "addr:state": "OK", "building": "yes"}}}, {"type": "Feature", "geometry": {"type": "Polygon", "coordinates": [[[-97.4610878, 35.6512489], [-97.4608009, 35.6512476], [-97.4608003, 35.6514168], [-97.460931, 35.6514171], [-97.4609311, 35.6513867], [-97.4610861, 35.6513871], [-97.4610878, 35.6512489]]]}, "properties": {"osm_id": 309851530, "building": "yes", "name": "", "height": null, "height_m": null, "levels": null, "tract_id": "40109108201", "tract_name": "1082.01", "tags": {"addr:city": "Edmond", "addr:country": "US", "addr:postcode": "73034", "addr:state": "OK", "building": "yes"}}}, {"type": "Feature", "geometry": {"type": "Polygon", "coordinates": [[[-97.4615773, 35.6518053], [-97.4615775, 35.6519821], [-97.4611574, 35.6519825], [-97.4611572, 35.6518355], [-97.4612043, 35.6518355], [-97.4612042, 35.6518056], [-97.4615773, 35.6518053]]]}, "properties": {"osm_id": 309851531, "building": "yes", "name": "", "height": null, "height_m": null, "levels": null, "tract_id": "40109108201", "tract_name": "1082.01", "tags": {"addr:city": "Edmond", "addr:country": "US", "addr:postcode": "73034", "addr:state": "OK", "building": "yes"}}}, {"type": "Feature", "geometry": {"type": "Polygon", "coordinates": [[[-97.4664356, 35.649707], [-97.4664661, 35.6496788], [-97.4666562, 35.6495029], [-97.4664773, 35.6493753], [-97.4662568, 35.6495794], [-97.4664356, 35.649707]]]}, "properties": {"osm_id": 309851840, "building": "yes", "name": "", "height": null, "height_m": null, "levels": null, "tract_id": "40109108201", "tract_name": "1082.01", "tags": {"addr:city": "Edmond", "addr:country": "US", "addr:postcode": "73034", "addr:state": "OK", "building": "yes"}}}, {"type": "Feature", "geometry": {"type": "Polygon", "coordinates": [[[-97.4671682, 35.6502152], [-97.4671276, 35.6504129], [-97.4670282, 35.6504607], [-97.4671185, 35.6505834], [-97.4672837, 35.6505002], [-97.4673436, 35.650239], [-97.4671682, 35.6502152]]]}, "properties": {"osm_id": 309851841, "building": "yes", "name": "", "height": null, "height_m": null, "levels": null, "tract_id": "40109108201", "tract_name": "1082.01", "tags": {"addr:city": "Edmond", "addr:country": "US", "addr:postcode": "73034", "addr:state": "OK", "building": "yes"}}}, {"type": "Feature", "geometry": {"type": "Polygon", "coordinates": [[[-97.4664661, 35.6496788], [-97.4666411, 35.6498137], [-97.4668879, 35.6495885], [-97.4668381, 35.6495524], [-97.4667893, 35.6495969], [-97.4666562, 35.6495029], [-97.4664661, 35.6496788]]]}, "properties": {"osm_id": 309851842, "building": "yes", "name": "", "height": null, "height_m": null, "levels": null, "tract_id": "40109108201", "tract_name": "1082.01", "tags": {"addr:city": "Edmond", "addr:country": "US", "addr:postcode": "73034", "addr:state": "OK", "building": "yes"}}}, {"type": "Feature", "geometry": {"type": "Polygon", "coordinates": [[[-97.4661414, 35.6494954], [-97.4662863, 35.6493646], [-97.4662078, 35.6493071], [-97.4662647, 35.6492558], [-97.4663386, 35.6493099], [-97.4663608, 35.6492898], [-97.4664773, 35.6493753], [-97.4662568, 35.6495794], [-97.4661414, 35.6494954]]]}, "properties": {"osm_id": 309851843, "building": "yes", "name": "", "height": null, "height_m": null, "levels": null, "tract_id": "40109108201", "tract_name": "1082.01", "tags": {"addr:city": "Edmond", "addr:country": "US", "addr:postcode": "73034", "addr:state": "OK", "building": "yes"}}}, {"type": "Feature", "geometry": {"type": "Polygon", "coordinates": [[[-97.4651204, 35.6470628], [-97.4651207, 35.6468867], [-97.4651078, 35.6468867], [-97.4651088, 35.6463267], [-97.4643864, 35.6463258], [-97.4643864, 35.6463496], [-97.4643591, 35.6463496], [-97.4643592, 35.6463352], [-97.4640866, 35.6463349], [-97.4640861, 35.6466282], [-97.4641834, 35.6466283], [-97.4641828, 35.6469619], [-97.4641723, 35.6469619], [-97.4641721, 35.6470601], [-97.4644236, 35.6470604], [-97.4644236, 35.6470793], [-97.4644705, 35.6470794], [-97.4644705, 35.6470946], [-97.4648898, 35.6470951], [-97.4648898, 35.6470626], [-97.4651204, 35.6470628]]]}, "properties": {"osm_id": 368082852, "building": "school", "name": "Rogers Elementary School", "height": null, "height_m": null, "levels": null, "tract_id": "40109108201", "tract_name": "1082.01", "tags": {"amenity": "school", "building": "school", "ele": "343", "gnis:feature_id": "1803977", "name": "Rogers Elementary School"}}}, {"type": "Feature", "geometry": {"type": "Polygon", "coordinates": [[[-97.4656811, 35.6467476], [-97.4657782, 35.6466711], [-97.4657678, 35.6466617], [-97.4658322, 35.6466131], [-97.4660408, 35.6467817], [-97.4660555, 35.6467679], [-97.4662772, 35.646945], [-97.4661307, 35.647064], [-97.4660879, 35.6470321], [-97.4660532, 35.6470637], [-97.4660069, 35.6470227], [-97.4660096, 35.6470173], [-97.4656811, 35.6467476]]]}, "properties": {"osm_id": 368082853, "building": "school", "name": "", "height": null, "height_m": null, "levels": null, "tract_id": "40109108201", "tract_name": "1082.01", "tags": {"building": "school"}}}, {"type": "Feature", "geometry": {"type": "Polygon", "coordinates": [[[-97.4658613, 35.6469844], [-97.4659405, 35.6470488], [-97.4659846, 35.647013], [-97.4660508, 35.6470669], [-97.4659979, 35.6471098], [-97.4661926, 35.6472681], [-97.4661345, 35.6473153], [-97.4661963, 35.6473656], [-97.4658858, 35.6476177], [-97.4658158, 35.6475607], [-97.4656767, 35.6476737], [-97.465583, 35.6475975], [-97.4655393, 35.6476329], [-97.4654458, 35.6475568], [-97.4655009, 35.647512], [-97.4654087, 35.6474371], [-97.4655306, 35.6473381], [-97.4654587, 35.6472796], [-97.4655601, 35.6471972], [-97.465723, 35.647065], [-97.4657425, 35.6470809], [-97.4658613, 35.6469844]]]}, "properties": {"osm_id": 368082854, "building": "school", "name": "Oklahoma Christian Academy", "height": null, "height_m": null, "levels": null, "tract_id": "40109108201", "tract_name": "1082.01", "tags": {"building": "school", "name": "Oklahoma Christian Academy"}}}, {"type": "Feature", "geometry": {"type": "Polygon", "coordinates": [[[-97.4611774, 35.6462074], [-97.4612728, 35.6461312], [-97.4613995, 35.6461312], [-97.4614849, 35.6461988], [-97.4615195, 35.6461752], [-97.4615391, 35.6461888], [-97.461567, 35.6461734], [-97.4615927, 35.6461956], [-97.4616753, 35.6461335], [-97.4618026, 35.6461339], [-97.4618986, 35.6462106], [-97.4618982, 35.6462204], [-97.4619355, 35.6462205], [-97.4619214, 35.6462061], [-97.4619443, 35.6461874], [-97.4619366, 35.6461801], [-97.4619874, 35.6461435], [-97.4620057, 35.6461538], [-97.4620225, 35.6461592], [-97.4620413, 35.6461611], [-97.462067, 35.6461577], [-97.4620918, 35.6461477], [-97.4621244, 35.6461881], [-97.4621025, 35.6461964], [-97.4621112, 35.6462102], [-97.4621226, 35.6462101], [-97.462193, 35.6462691], [-97.4621927, 35.6465155], [-97.4621147, 35.6465802], [-97.4619934, 35.6465794], [-97.4619533, 35.646545], [-97.4619265, 35.6465692], [-97.4620521, 35.6466674], [-97.4620526, 35.6467749], [-97.4619561, 35.646852], [-97.461826, 35.6468538], [-97.4615904, 35.6466574], [-97.4615648, 35.6466765], [-97.4615659, 35.6467223], [-97.4615821, 35.6467232], [-97.4615826, 35.6467544], [-97.4615832, 35.6467939], [-97.4614927, 35.6467953], [-97.4614906, 35.6467534], [-97.4614888, 35.6467186], [-97.4615022, 35.6467195], [-97.4615011, 35.6466706], [-97.4614816, 35.6466547], [-97.4614001, 35.6467227], [-97.4612734, 35.6467227], [-97.4611751, 35.6466452], [-97.4611768, 35.646534], [-97.4612555, 35.6464701], [-97.4612365, 35.6464456], [-97.4612572, 35.6464274], [-97.4612349, 35.6464016], [-97.4612566, 35.6463825], [-97.4611757, 35.6463172], [-97.4611774, 35.6462074]]]}, "properties": {"osm_id": 368084121, "building": "church", "name": "Edmond Church of Christ", "height": null, "height_m": null, "levels": null, "tract_id": "40109108201", "tract_name": "1082.01", "tags": {"amenity": "place_of_worship", "building": "church", "denomination": "church_of_christ", "name": "Edmond Church of Christ", "religion": "christian"}}}, {"type": "Feature", "geometry": {"type": "Polygon", "coordinates": [[[-97.4630358, 35.6471305], [-97.4630419, 35.6467141], [-97.462559, 35.6467094], [-97.4625586, 35.6467368], [-97.4624624, 35.6467358], [-97.4624587, 35.6469869], [-97.4625088, 35.6469874], [-97.4625082, 35.6470281], [-97.4625589, 35.6470286], [-97.4625575, 35.6471259], [-97.4630358, 35.6471305]]]}, "properties": {"osm_id": 368084122, "building": "yes", "name": "", "height": null, "height_m": null, "levels": null, "tract_id": "40109108201", "tract_name": "1082.01", "tags": {"building": "yes"}}}, {"type": "Feature", "geometry": {"type": "Polygon", "coordinates": [[[-97.4658843, 35.6506764], [-97.4658849, 35.650667], [-97.4657551, 35.6506663], [-97.4657569, 35.6508052], [-97.4658854, 35.6508047], [-97.4658843, 35.6506764]]]}, "properties": {"osm_id": 373547685, "building": "retail", "name": "Sola Salons", "height": null, "height_m": null, "levels": null, "tract_id": "40109108201", "tract_name": "1082.01", "tags": {"addr:city": "Edmond", "addr:country": "US", "addr:postcode": "73034", "addr:state": "OK", "beauty": "hair;nails;skin_care;massage", "brand": "Sola Salons", "brand:wikidata": "Q64337426", "building": "retail", "name": "Sola Salons", "shop": "beauty"}}}, {"type": "Feature", "geometry": {"type": "Polygon", "coordinates": [[[-97.4742976, 35.6436421], [-97.4742976, 35.6438013], [-97.4742654, 35.6438383], [-97.4742654, 35.6439538], [-97.4742855, 35.6439844], [-97.4747697, 35.6439865], [-97.4748139, 35.6440138], [-97.4748542, 35.6440116], [-97.4748917, 35.6439876], [-97.4748917, 35.6439593], [-97.4750835, 35.643956], [-97.4750862, 35.6436727], [-97.4747455, 35.6436705], [-97.4747422, 35.643234], [-97.4747653, 35.6432341], [-97.4749145, 35.6432345], [-97.4749467, 35.6432106], [-97.4749474, 35.6431686], [-97.4749179, 35.6431424], [-97.4747605, 35.6431407], [-97.4740616, 35.6431364], [-97.4740602, 35.6432193], [-97.4740321, 35.6432193], [-97.4740334, 35.6433272], [-97.4740589, 35.6433283], [-97.4740616, 35.6434155], [-97.4741635, 35.6434111], [-97.4741648, 35.6434274], [-97.4742949, 35.6434264], [-97.4742976, 35.6436421]]]}, "properties": {"osm_id": 376569047, "building": "yes", "name": "First Presbyterian Church of Edmond", "height": null, "height_m": null, "levels": null, "tract_id": "40109108201", "tract_name": "1082.01", "tags": {"addr:city": "Edmond", "addr:housenumber": "1001", "addr:postcode": "73034", "addr:state": "OK", "addr:street": "South Rankin Street", "amenity": "place_of_worship", "building": "yes", "denomination": "presbyterian", "name": "First Presbyterian Church of Edmond", "religion": "christian"}}}, {"type": "Feature", "geometry": {"type": "Polygon", "coordinates": [[[-97.4613549, 35.6390827], [-97.460969, 35.6390792], [-97.4609734, 35.6386825], [-97.460982, 35.6386825], [-97.4609823, 35.6386736], [-97.4613251, 35.6386736], [-97.46136, 35.6387015], [-97.4613549, 35.6390827]]]}, "properties": {"osm_id": 551989697, "building": "commercial", "name": "", "height": null, "height_m": null, "levels": null, "tract_id": "40109108201", "tract_name": "1082.01", "tags": {"building": "commercial"}}}, {"type": "Feature", "geometry": {"type": "Polygon", "coordinates": [[[-97.4611905, 35.6394178], [-97.4609114, 35.6394169], [-97.4609114, 35.6393658], [-97.4608879, 35.6393641], [-97.4608869, 35.6393286], [-97.4608623, 35.6393286], [-97.4608613, 35.6392498], [-97.4609998, 35.6392524], [-97.4609998, 35.6393009], [-97.4611894, 35.6393018], [-97.4611905, 35.6394178]]]}, "properties": {"osm_id": 551989698, "building": "commercial", "name": "", "height": null, "height_m": null, "levels": null, "tract_id": "40109108201", "tract_name": "1082.01", "tags": {"building": "commercial"}}}, {"type": "Feature", "geometry": {"type": "Polygon", "coordinates": [[[-97.4628974, 35.639089], [-97.4625887, 35.6390854], [-97.4625887, 35.6390681], [-97.4624289, 35.639069], [-97.4624076, 35.6390569], [-97.4623777, 35.6390854], [-97.4619963, 35.6390828], [-97.4619484, 35.6390551], [-97.4619345, 35.6390681], [-97.4618482, 35.6390681], [-97.4618493, 35.6390828], [-97.4615424, 35.6390802], [-97.4615393, 35.6388672], [-97.4616788, 35.6388672], [-97.4616778, 35.6388465], [-97.4618472, 35.6388473], [-97.4618493, 35.6388681], [-97.4620549, 35.638869], [-97.4620522, 35.6388207], [-97.4620662, 35.6388205], [-97.4620661, 35.6388096], [-97.462128, 35.6388269], [-97.462154, 35.6388175], [-97.4621871, 35.638809], [-97.4622185, 35.6388058], [-97.462251, 35.638809], [-97.4622833, 35.6388175], [-97.4623094, 35.6388275], [-97.4623871, 35.6388107], [-97.4623891, 35.6388668], [-97.4625901, 35.6388697], [-97.4625899, 35.6388485], [-97.46281, 35.6388501], [-97.4628115, 35.6388695], [-97.4628968, 35.6388691], [-97.4628974, 35.639089]]]}, "properties": {"osm_id": 551989699, "building": "commercial", "name": "", "height": null, "height_m": null, "levels": null, "tract_id": "40109108201", "tract_name": "1082.01", "tags": {"building": "commercial"}}}, {"type": "Feature", "geometry": {"type": "Polygon", "coordinates": [[[-97.4620662, 35.6388205], [-97.4620522, 35.6388207], [-97.4620306, 35.6388207], [-97.4620293, 35.6387899], [-97.4620655, 35.6387899], [-97.4620661, 35.6388096], [-97.4620662, 35.6388205]]]}, "properties": {"osm_id": 551989700, "building": "roof", "name": "", "height": null, "height_m": null, "levels": null, "tract_id": "40109108201", "tract_name": "1082.01", "tags": {"building": "roof"}}}, {"type": "Feature", "geometry": {"type": "Polygon", "coordinates": [[[-97.4633656, 35.6390886], [-97.4631163, 35.6390876], [-97.4631188, 35.6386643], [-97.4631219, 35.6386618], [-97.4631458, 35.6386423], [-97.4631496, 35.6386392], [-97.4633681, 35.6386392], [-97.4633656, 35.6390886]]]}, "properties": {"osm_id": 551989701, "building": "commercial", "name": "", "height": null, "height_m": null, "levels": null, "tract_id": "40109108201", "tract_name": "1082.01", "tags": {"building": "commercial"}}}, {"type": "Feature", "geometry": {"type": "Polygon", "coordinates": [[[-97.4631458, 35.6386423], [-97.4631247, 35.6386269], [-97.4631003, 35.6386468], [-97.4631219, 35.6386618], [-97.4631458, 35.6386423]]]}, "properties": {"osm_id": 551989702, "building": "roof", "name": "", "height": null, "height_m": null, "levels": null, "tract_id": "40109108201", "tract_name": "1082.01", "tags": {"building": "roof"}}}, {"type": "Feature", "geometry": {"type": "Polygon", "coordinates": [[[-97.463937, 35.6387812], [-97.4635023, 35.6387789], [-97.463503, 35.6386803], [-97.4635229, 35.6386647], [-97.4635071, 35.6386525], [-97.4635455, 35.6386218], [-97.4635606, 35.6386346], [-97.4635839, 35.6386201], [-97.4640501, 35.6386229], [-97.463937, 35.6387812]]]}, "properties": {"osm_id": 551989703, "building": "commercial", "name": "", "height": null, "height_m": null, "levels": null, "tract_id": "40109108201", "tract_name": "1082.01", "tags": {"building": "commercial"}}}, {"type": "Feature", "geometry": {"type": "Polygon", "coordinates": [[[-97.460982, 35.6386825], [-97.4609734, 35.6386825], [-97.4609474, 35.6386822], [-97.4609474, 35.6386525], [-97.4609818, 35.6386525], [-97.4609823, 35.6386736], [-97.460982, 35.6386825]]]}, "properties": {"osm_id": 551989716, "building": "roof", "name": "", "height": null, "height_m": null, "levels": null, "tract_id": "40109108201", "tract_name": "1082.01", "tags": {"building": "roof"}}}, {"type": "Feature", "geometry": {"type": "Polygon", "coordinates": [[[-97.4608336, 35.6482602], [-97.4609475, 35.6482609], [-97.4609492, 35.6482771], [-97.4610217, 35.6482771], [-97.4610226, 35.6482595], [-97.4611097, 35.6482602], [-97.4611106, 35.6482869], [-97.461199, 35.6482875], [-97.4612064, 35.6482876], [-97.4612055, 35.6482602], [-97.4612685, 35.6482602], [-97.4612694, 35.6482371], [-97.4613194, 35.6482378], [-97.4613203, 35.6481705], [-97.4612668, 35.6481705], [-97.4612668, 35.6481515], [-97.460831, 35.6481536], [-97.4608336, 35.6482602]]]}, "properties": {"osm_id": 552474256, "building": "yes", "name": "The Garage", "height": null, "height_m": null, "levels": null, "tract_id": "40109108201", "tract_name": "1082.01", "tags": {"addr:city": "Edmond", "addr:housenumber": "601", "addr:postcode": "73034", "addr:state": "OK", "addr:street": "South Bryant Avenue", "amenity": "restaurant", "building": "yes", "cuisine": "burger", "name": "The Garage"}}}, {"type": "Feature", "geometry": {"type": "Polygon", "coordinates": [[[-97.4627354, 35.6461135], [-97.4625211, 35.6461113], [-97.4625275, 35.645816], [-97.4627419, 35.6458213], [-97.4627354, 35.6461135]]]}, "properties": {"osm_id": 557671205, "building": "yes", "name": "", "height": null, "height_m": null, "levels": null, "tract_id": "40109108201", "tract_name": "1082.01", "tags": {"building": "yes"}}}, {"type": "Feature", "geometry": {"type": "Polygon", "coordinates": [[[-97.4629071, 35.6458005], [-97.4629071, 35.6460365], [-97.4630753, 35.6460354], [-97.463074, 35.6459716], [-97.4631002, 35.6459716], [-97.4631002, 35.6458623], [-97.4631712, 35.6458603], [-97.4631712, 35.6458025], [-97.4629071, 35.6458005]]]}, "properties": {"osm_id": 557684259, "building": "yes", "name": "", "height": null, "height_m": null, "levels": null, "tract_id": "40109108201", "tract_name": "1082.01", "tags": {"building": "yes"}}}, {"type": "Feature", "geometry": {"type": "Polygon", "coordinates": [[[-97.4635874, 35.6458532], [-97.4633669, 35.6458542], [-97.4633669, 35.6457438], [-97.4635887, 35.6457408], [-97.4635874, 35.6458532]]]}, "properties": {"osm_id": 557684260, "building": "yes", "name": "", "height": null, "height_m": null, "levels": null, "tract_id": "40109108201", "tract_name": "1082.01", "tags": {"building": "yes"}}}, {"type": "Feature", "geometry": {"type": "Polygon", "coordinates": [[[-97.46356, 35.6463797], [-97.4633806, 35.6463787], [-97.4633843, 35.64624], [-97.463403, 35.646239], [-97.4634042, 35.6461549], [-97.4633843, 35.6461266], [-97.4634267, 35.6460921], [-97.4635937, 35.6460911], [-97.4635924, 35.6462451], [-97.4635588, 35.6462451], [-97.46356, 35.6463797]]]}, "properties": {"osm_id": 557684261, "building": "yes", "name": "", "height": null, "height_m": null, "levels": null, "tract_id": "40109108201", "tract_name": "1082.01", "tags": {"building": "yes"}}}, {"type": "Feature", "geometry": {"type": "Polygon", "coordinates": [[[-97.4630855, 35.6463348], [-97.4629532, 35.6463329], [-97.4629556, 35.6461765], [-97.4630855, 35.6461778], [-97.4630855, 35.6462325], [-97.4631087, 35.6462325], [-97.4631071, 35.6462781], [-97.4630855, 35.6462788], [-97.4630855, 35.6463348]]]}, "properties": {"osm_id": 557684262, "building": "yes", "name": "", "height": null, "height_m": null, "levels": null, "tract_id": "40109108201", "tract_name": "1082.01", "tags": {"building": "yes"}}}, {"type": "Feature", "geometry": {"type": "Polygon", "coordinates": [[[-97.4646765, 35.6458681], [-97.4646765, 35.6457487], [-97.4649863, 35.6457487], [-97.4649863, 35.6458421], [-97.4647384, 35.6458405], [-97.4647394, 35.6458673], [-97.4646765, 35.6458681]]]}, "properties": {"osm_id": 557684273, "building": "yes", "name": "", "height": null, "height_m": null, "levels": null, "tract_id": "40109108201", "tract_name": "1082.01", "tags": {"building": "yes"}}}, {"type": "Feature", "geometry": {"type": "Polygon", "coordinates": [[[-97.4641496, 35.6460733], [-97.4641496, 35.6459684], [-97.4642178, 35.6459658], [-97.4642186, 35.6459827], [-97.4642322, 35.6459971], [-97.4642322, 35.646072], [-97.4641496, 35.6460733]]]}, "properties": {"osm_id": 557684274, "building": "yes", "name": "", "height": null, "height_m": null, "levels": null, "tract_id": "40109108201", "tract_name": "1082.01", "tags": {"building": "yes"}}}, {"type": "Feature", "geometry": {"type": "Polygon", "coordinates": [[[-97.4643541, 35.6459339], [-97.4642386, 35.6459345], [-97.4642378, 35.6458941], [-97.4642386, 35.6458127], [-97.4642539, 35.6458127], [-97.4642539, 35.6457892], [-97.4643268, 35.6457879], [-97.4643284, 35.6458081], [-97.4643445, 35.6458081], [-97.4643437, 35.6458928], [-97.4643533, 35.6458928], [-97.4643541, 35.6459339]]]}, "properties": {"osm_id": 557684275, "building": "yes", "name": "", "height": null, "height_m": null, "levels": null, "tract_id": "40109108201", "tract_name": "1082.01", "tags": {"building": "yes"}}}, {"type": "Feature", "geometry": {"type": "Polygon", "coordinates": [[[-97.4644541, 35.6459171], [-97.4644157, 35.6459171], [-97.4644161, 35.6459133], [-97.4643891, 35.6459133], [-97.4643899, 35.6458837], [-97.4643722, 35.645883], [-97.4643711, 35.6458311], [-97.4643907, 35.6458311], [-97.4643907, 35.645824], [-97.4644295, 35.6458236], [-97.4644295, 35.6458327], [-97.4644441, 35.645833], [-97.4644434, 35.6458802], [-97.4644526, 35.6458802], [-97.4644541, 35.6459171]]]}, "properties": {"osm_id": 557684276, "building": "yes", "name": "", "height": null, "height_m": null, "levels": null, "tract_id": "40109108201", "tract_name": "1082.01", "tags": {"building": "yes"}}}, {"type": "Feature", "geometry": {"type": "Polygon", "coordinates": [[[-97.4634922, 35.6449221], [-97.4634922, 35.6452246], [-97.4639193, 35.645229], [-97.4639203, 35.6452168], [-97.4640075, 35.645215], [-97.4640075, 35.6451556], [-97.4640269, 35.6451538], [-97.4640297, 35.6449242], [-97.4634922, 35.6449221]]]}, "properties": {"osm_id": 557684280, "building": "yes", "name": "", "height": null, "height_m": null, "levels": null, "tract_id": "40109108201", "tract_name": "1082.01", "tags": {"building": "yes"}}}, {"type": "Feature", "geometry": {"type": "Polygon", "coordinates": [[[-97.462975, 35.6447511], [-97.462975, 35.6450782], [-97.46299, 35.6450782], [-97.4629912, 35.6451633], [-97.4633376, 35.6451623], [-97.4633376, 35.6450914], [-97.4633526, 35.6450914], [-97.4633489, 35.6447542], [-97.462975, 35.6447511]]]}, "properties": {"osm_id": 557684281, "building": "yes", "name": "", "height": null, "height_m": null, "levels": null, "tract_id": "40109108201", "tract_name": "1082.01", "tags": {"building": "yes"}}}, {"type": "Feature", "geometry": {"type": "Polygon", "coordinates": [[[-97.4622573, 35.6449081], [-97.4622585, 35.6452686], [-97.4626024, 35.6452666], [-97.4626087, 35.6449081], [-97.4622573, 35.6449081]]]}, "properties": {"osm_id": 557684282, "building": "yes", "name": "", "height": null, "height_m": null, "levels": null, "tract_id": "40109108201", "tract_name": "1082.01", "tags": {"building": "yes"}}}, {"type": "Feature", "geometry": {"type": "Polygon", "coordinates": [[[-97.4621675, 35.6453365], [-97.4619295, 35.6453365], [-97.4619283, 35.6451552], [-97.4621675, 35.6451562], [-97.4621675, 35.6453365]]]}, "properties": {"osm_id": 557684283, "building": "yes", "name": "", "height": null, "height_m": null, "levels": null, "tract_id": "40109108201", "tract_name": "1082.01", "tags": {"building": "yes"}}}, {"type": "Feature", "geometry": {"type": "Polygon", "coordinates": [[[-97.4621489, 35.6448929], [-97.4620566, 35.6449213], [-97.4620031, 35.644816], [-97.4619856, 35.644821], [-97.4619619, 35.6447633], [-97.4619794, 35.6447572], [-97.4619445, 35.6446823], [-97.4620504, 35.6446499], [-97.4620716, 35.6446975], [-97.4620953, 35.6446894], [-97.4621613, 35.6448271], [-97.4621252, 35.6448423], [-97.4621489, 35.6448929]]]}, "properties": {"osm_id": 557684284, "building": "yes", "name": "", "height": null, "height_m": null, "levels": null, "tract_id": "40109108201", "tract_name": "1082.01", "tags": {"building": "yes"}}}, {"type": "Feature", "geometry": {"type": "Polygon", "coordinates": [[[-97.4616866, 35.6447613], [-97.4615669, 35.6447592], [-97.4615669, 35.6447471], [-97.461559, 35.6447469], [-97.4615594, 35.6447747], [-97.4614211, 35.6447744], [-97.4614199, 35.6446215], [-97.4616828, 35.6446215], [-97.4616866, 35.6447613]]]}, "properties": {"osm_id": 557684285, "building": "yes", "name": "", "height": null, "height_m": null, "levels": null, "tract_id": "40109108201", "tract_name": "1082.01", "tags": {"building": "yes"}}}, {"type": "Feature", "geometry": {"type": "Polygon", "coordinates": [[[-97.4614106, 35.6447806], [-97.4612724, 35.6447806], [-97.4612721, 35.6446255], [-97.4614116, 35.6446255], [-97.4614106, 35.6447806]]]}, "properties": {"osm_id": 557684286, "building": "yes", "name": "", "height": null, "height_m": null, "levels": null, "tract_id": "40109108201", "tract_name": "1082.01", "tags": {"building": "yes"}}}, {"type": "Feature", "geometry": {"type": "Polygon", "coordinates": [[[-97.4612621, 35.6447782], [-97.4612216, 35.6447782], [-97.4612216, 35.644789], [-97.4611768, 35.6447885], [-97.4611771, 35.6447782], [-97.4611383, 35.6447782], [-97.4611373, 35.6446244], [-97.4612621, 35.644625], [-97.4612621, 35.6447782]]]}, "properties": {"osm_id": 557684287, "building": "yes", "name": "", "height": null, "height_m": null, "levels": null, "tract_id": "40109108201", "tract_name": "1082.01", "tags": {"building": "yes"}}}, {"type": "Feature", "geometry": {"type": "Polygon", "coordinates": [[[-97.4611083, 35.6447374], [-97.4608709, 35.6447356], [-97.4608709, 35.6446142], [-97.4611094, 35.6446161], [-97.4611083, 35.6447374]]]}, "properties": {"osm_id": 557684288, "building": "yes", "name": "", "height": null, "height_m": null, "levels": null, "tract_id": "40109108201", "tract_name": "1082.01", "tags": {"building": "yes"}}}, {"type": "Feature", "geometry": {"type": "Polygon", "coordinates": [[[-97.461106, 35.6448626], [-97.4608698, 35.6448607], [-97.4608709, 35.6447497], [-97.461106, 35.6447487], [-97.461106, 35.6448626]]]}, "properties": {"osm_id": 557684289, "building": "yes", "name": "", "height": null, "height_m": null, "levels": null, "tract_id": "40109108201", "tract_name": "1082.01", "tags": {"building": "yes"}}}, {"type": "Feature", "geometry": {"type": "Polygon", "coordinates": [[[-97.4611036, 35.6449858], [-97.4608698, 35.644983], [-97.4608709, 35.6448692], [-97.4611036, 35.644871], [-97.4611036, 35.6449858]]]}, "properties": {"osm_id": 557684290, "building": "yes", "name": "", "height": null, "height_m": null, "levels": null, "tract_id": "40109108201", "tract_name": "1082.01", "tags": {"building": "yes"}}}, {"type": "Feature", "geometry": {"type": "Polygon", "coordinates": [[[-97.4611175, 35.6452803], [-97.4609138, 35.6452775], [-97.4608929, 35.6452907], [-97.4608524, 35.6452559], [-97.4608686, 35.6452446], [-97.4608675, 35.6450987], [-97.4611152, 35.6451025], [-97.4611175, 35.6452803]]]}, "properties": {"osm_id": 557684291, "building": "yes", "name": "", "height": null, "height_m": null, "levels": null, "tract_id": "40109108201", "tract_name": "1082.01", "tags": {"building": "yes"}}}, {"type": "Feature", "geometry": {"type": "Polygon", "coordinates": [[[-97.4611199, 35.6450875], [-97.4608698, 35.6450856], [-97.4608709, 35.6449924], [-97.4611199, 35.6449943], [-97.4611199, 35.6450875]]]}, "properties": {"osm_id": 557684292, "building": "yes", "name": "", "height": null, "height_m": null, "levels": null, "tract_id": "40109108201", "tract_name": "1082.01", "tags": {"building": "yes"}}}, {"type": "Feature", "geometry": {"type": "Polygon", "coordinates": [[[-97.4611693, 35.6453032], [-97.4613486, 35.6453015], [-97.4613445, 35.6450512], [-97.4611659, 35.6450517], [-97.4611693, 35.6453032]]]}, "properties": {"osm_id": 557684296, "building": "yes", "name": "", "height": null, "height_m": null, "levels": null, "tract_id": "40109108201", "tract_name": "1082.01", "tags": {"building": "yes"}}}, {"type": "Feature", "geometry": {"type": "Polygon", "coordinates": [[[-97.4628925, 35.6410776], [-97.4628858, 35.6412085], [-97.4628072, 35.6412058], [-97.4628081, 35.6411889], [-97.4626627, 35.6411839], [-97.4626672, 35.6410955], [-97.4627624, 35.6410988], [-97.4627637, 35.6410732], [-97.4628925, 35.6410776]]]}, "properties": {"osm_id": 571849029, "building": "yes", "name": "", "height": null, "height_m": null, "levels": null, "tract_id": "40109108201", "tract_name": "1082.01", "tags": {"addr:city": "Edmond", "addr:housenumber": "1304", "addr:postcode": "73034", "addr:state": "OK", "addr:street": "Briar Wood Drive", "building": "yes"}}}, {"type": "Feature", "geometry": {"type": "Polygon", "coordinates": [[[-97.4801679, 35.6500909], [-97.4801447, 35.6502717], [-97.4801372, 35.6502713], [-97.480132, 35.6503173], [-97.4800239, 35.6503079], [-97.4800283, 35.6502603], [-97.4800235, 35.6502603], [-97.4800419, 35.6500795], [-97.4800861, 35.6500811], [-97.4800873, 35.6500695], [-97.4801088, 35.6500715], [-97.4801328, 35.6500737], [-97.4801316, 35.6500863], [-97.4801679, 35.6500909]]]}, "properties": {"osm_id": 585570937, "building": "yes", "name": "Christ Reformed Baptist Church", "height": null, "height_m": null, "levels": null, "tract_id": "40109108201", "tract_name": "1082.01", "tags": {"addr:city": "Edmond", "addr:housenumber": "101", "addr:postcode": "73034", "addr:state": "OK", "addr:street": "East 5th Street", "building": "yes", "name": "Christ Reformed Baptist Church", "website": "https://reformedokc.com/"}}}, {"type": "Feature", "geometry": {"type": "Polygon", "coordinates": [[[-97.4800707, 35.6505597], [-97.4800803, 35.6504896], [-97.4800307, 35.650485], [-97.480034, 35.6504676], [-97.4799308, 35.650458], [-97.4799184, 35.6505496], [-97.4799449, 35.6505519], [-97.4799393, 35.6505886], [-97.4800188, 35.6505941], [-97.4800211, 35.6505753], [-97.4800453, 35.6505583], [-97.4800707, 35.6505597]]]}, "properties": {"osm_id": 585570944, "building": "yes", "name": "", "height": null, "height_m": null, "levels": null, "tract_id": "40109108201", "tract_name": "1082.01", "tags": {"building": "yes"}}}, {"type": "Feature", "geometry": {"type": "Polygon", "coordinates": [[[-97.4786546, 35.6385991], [-97.4785056, 35.6385983], [-97.4785019, 35.6385169], [-97.4786546, 35.6385176], [-97.4786546, 35.6385991]]]}, "properties": {"osm_id": 669271837, "building": "commercial", "name": "", "height": null, "height_m": null, "levels": null, "tract_id": "40109108201", "tract_name": "1082.01", "tags": {"building": "commercial"}}}, {"type": "Feature", "geometry": {"type": "Polygon", "coordinates": [[[-97.478708, 35.638795], [-97.4787061, 35.6387112], [-97.4786261, 35.6387112], [-97.4786252, 35.6386709], [-97.4785047, 35.6386709], [-97.4785047, 35.6388308], [-97.4786031, 35.6388316], [-97.4786022, 35.638795], [-97.478708, 35.638795]]]}, "properties": {"osm_id": 669271838, "building": "commercial", "name": "", "height": null, "height_m": null, "levels": null, "tract_id": "40109108201", "tract_name": "1082.01", "tags": {"building": "commercial"}}}, {"type": "Feature", "geometry": {"type": "Polygon", "coordinates": [[[-97.4798173, 35.6386701], [-97.4796591, 35.6386694], [-97.47966, 35.6385505], [-97.4797593, 35.6385498], [-97.4797612, 35.6385954], [-97.4798145, 35.6385969], [-97.4798173, 35.6386701]]]}, "properties": {"osm_id": 669271839, "building": "commercial", "name": "", "height": null, "height_m": null, "levels": null, "tract_id": "40109108201", "tract_name": "1082.01", "tags": {"building": "commercial"}}}, {"type": "Feature", "geometry": {"type": "Polygon", "coordinates": [[[-97.4799957, 35.6386664], [-97.4798375, 35.6386656], [-97.4798384, 35.6385557], [-97.4799359, 35.6385542], [-97.4799378, 35.6385954], [-97.4799957, 35.6385954], [-97.4799957, 35.6386664]]]}, "properties": {"osm_id": 669271840, "building": "commercial", "name": "", "height": null, "height_m": null, "levels": null, "tract_id": "40109108201", "tract_name": "1082.01", "tags": {"building": "commercial"}}}, {"type": "Feature", "geometry": {"type": "Polygon", "coordinates": [[[-97.4796434, 35.6385542], [-97.4795432, 35.6385542], [-97.479545, 35.638567], [-97.4794926, 35.6385655], [-97.4794926, 35.6386701], [-97.4796444, 35.6386701], [-97.4796434, 35.6385542]]]}, "properties": {"osm_id": 669271841, "building": "commercial", "name": "", "height": null, "height_m": null, "levels": null, "tract_id": "40109108201", "tract_name": "1082.01", "tags": {"building": "commercial"}}}, {"type": "Feature", "geometry": {"type": "Polygon", "coordinates": [[[-97.4800178, 35.6385498], [-97.4800178, 35.6386701], [-97.4801613, 35.6386716], [-97.4801604, 35.6385969], [-97.4801153, 35.6385976], [-97.4801153, 35.6385513], [-97.4800178, 35.6385498]]]}, "properties": {"osm_id": 669271842, "building": "commercial", "name": "", "height": null, "height_m": null, "levels": null, "tract_id": "40109108201", "tract_name": "1082.01", "tags": {"building": "commercial"}}}, {"type": "Feature", "geometry": {"type": "Polygon", "coordinates": [[[-97.4803351, 35.6386701], [-97.4801962, 35.6386709], [-97.4801972, 35.6385445], [-97.4802652, 35.638546], [-97.4802652, 35.6385812], [-97.4803342, 35.6385819], [-97.4803351, 35.6386701]]]}, "properties": {"osm_id": 669271843, "building": "commercial", "name": "", "height": null, "height_m": null, "levels": null, "tract_id": "40109108201", "tract_name": "1082.01", "tags": {"building": "commercial"}}}, {"type": "Feature", "geometry": {"type": "Polygon", "coordinates": [[[-97.4805255, 35.6386679], [-97.4805228, 35.6385565], [-97.4803774, 35.6385542], [-97.4803738, 35.6386664], [-97.4805255, 35.6386679]]]}, "properties": {"osm_id": 669271844, "building": "commercial", "name": "", "height": null, "height_m": null, "levels": null, "tract_id": "40109108201", "tract_name": "1082.01", "tags": {"building": "commercial"}}}, {"type": "Feature", "geometry": {"type": "Polygon", "coordinates": [[[-97.4807123, 35.6386709], [-97.4805495, 35.6386701], [-97.4805495, 35.638552], [-97.4806506, 35.638552], [-97.4806497, 35.6385976], [-97.4807095, 35.6385976], [-97.4807123, 35.6386709]]]}, "properties": {"osm_id": 669271845, "building": "commercial", "name": "", "height": null, "height_m": null, "levels": null, "tract_id": "40109108201", "tract_name": "1082.01", "tags": {"building": "commercial"}}}, {"type": "Feature", "geometry": {"type": "Polygon", "coordinates": [[[-97.4808852, 35.6386738], [-97.4807353, 35.6386731], [-97.4807343, 35.6385684], [-97.4807822, 35.6385707], [-97.4807803, 35.638552], [-97.4808815, 35.6385542], [-97.4808852, 35.6386738]]]}, "properties": {"osm_id": 669271846, "building": "commercial", "name": "", "height": null, "height_m": null, "levels": null, "tract_id": "40109108201", "tract_name": "1082.01", "tags": {"building": "commercial"}}}, {"type": "Feature", "geometry": {"type": "Polygon", "coordinates": [[[-97.4810342, 35.6387479], [-97.4809238, 35.6387471], [-97.4809247, 35.6386634], [-97.4809091, 35.6386634], [-97.4809082, 35.638555], [-97.4810048, 35.638555], [-97.4810038, 35.6385976], [-97.4810646, 35.6385969], [-97.4810655, 35.6386731], [-97.4810333, 35.6386731], [-97.4810342, 35.6387479]]]}, "properties": {"osm_id": 669271847, "building": "commercial", "name": "", "height": null, "height_m": null, "levels": null, "tract_id": "40109108201", "tract_name": "1082.01", "tags": {"building": "commercial"}}}, {"type": "Feature", "geometry": {"type": "Polygon", "coordinates": [[[-97.4813892, 35.638703], [-97.4813874, 35.6385946], [-97.4812982, 35.6385924], [-97.4812982, 35.638629], [-97.4812126, 35.6386305], [-97.4812136, 35.6387023], [-97.4812669, 35.6387023], [-97.481266, 35.638691], [-97.4812936, 35.638691], [-97.4812936, 35.6387052], [-97.4813892, 35.638703]]]}, "properties": {"osm_id": 669271848, "building": "commercial", "name": "", "height": null, "height_m": null, "levels": null, "tract_id": "40109108201", "tract_name": "1082.01", "tags": {"building": "commercial"}}}, {"type": "Feature", "geometry": {"type": "Polygon", "coordinates": [[[-97.4822114, 35.6390768], [-97.4818669, 35.639076], [-97.4818659, 35.6389055], [-97.4819342, 35.6389055], [-97.4819243, 35.6386086], [-97.4822055, 35.6386102], [-97.4822114, 35.6390768]]]}, "properties": {"osm_id": 669271849, "building": "commercial", "name": "", "height": null, "height_m": null, "levels": null, "tract_id": "40109108201", "tract_name": "1082.01", "tags": {"building": "commercial"}}}, {"type": "Feature", "geometry": {"type": "Polygon", "coordinates": [[[-97.4829499, 35.6387614], [-97.4829657, 35.6386078], [-97.4827578, 35.6386046], [-97.4829499, 35.6387614]]]}, "properties": {"osm_id": 669271850, "building": "commercial", "name": "", "height": null, "height_m": null, "levels": null, "tract_id": "40109108201", "tract_name": "1082.01", "tags": {"building": "commercial"}}}, {"type": "Feature", "geometry": {"type": "Polygon", "coordinates": [[[-97.4829152, 35.6389843], [-97.4829331, 35.6388829], [-97.4825965, 35.6386086], [-97.4824559, 35.6386102], [-97.4829152, 35.6389843]]]}, "properties": {"osm_id": 669271851, "building": "commercial", "name": "", "height": null, "height_m": null, "levels": null, "tract_id": "40109108201", "tract_name": "1082.01", "tags": {"building": "commercial"}}}, {"type": "Feature", "geometry": {"type": "Polygon", "coordinates": [[[-97.4828859, 35.6392098], [-97.4826457, 35.6391854], [-97.4826257, 35.6393225], [-97.4828673, 35.6393446], [-97.4828859, 35.6392098]]]}, "properties": {"osm_id": 669271852, "building": "commercial", "name": "", "height": null, "height_m": null, "levels": null, "tract_id": "40109108201", "tract_name": "1082.01", "tags": {"building": "commercial"}}}, {"type": "Feature", "geometry": {"type": "Polygon", "coordinates": [[[-97.4852848, 35.6385301], [-97.4848457, 35.6384919], [-97.4848399, 35.6385273], [-97.4848147, 35.6385236], [-97.4847746, 35.6387864], [-97.4848124, 35.638791], [-97.4847848, 35.6389973], [-97.4847826, 35.6390137], [-97.4848145, 35.6390166], [-97.4850784, 35.6390398], [-97.4850911, 35.6391079], [-97.4851748, 35.6391144], [-97.4851816, 35.6390492], [-97.485216, 35.6390529], [-97.4852848, 35.6385301]]]}, "properties": {"osm_id": 669271868, "building": "commercial", "name": "", "height": null, "height_m": 3.0, "levels": 1, "tract_id": "40109108201", "tract_name": "1082.01", "tags": {"addr:housenumber": "1427", "building": "commercial", "building:levels": "1", "roof:levels": "0"}}}, {"type": "Feature", "geometry": {"type": "Polygon", "coordinates": [[[-97.4848021, 35.6391181], [-97.4838561, 35.6390352], [-97.4838733, 35.6389094], [-97.4847848, 35.6389973], [-97.4847826, 35.6390137], [-97.4848145, 35.6390166], [-97.4848021, 35.6391181]]]}, "properties": {"osm_id": 669271869, "building": "commercial", "name": "", "height": null, "height_m": 3.0, "levels": 1, "tract_id": "40109108201", "tract_name": "1082.01", "tags": {"addr:housenumber": "W5,W9,W13,W17,W21,W25,W29,W33,W37,W41", "building": "commercial", "building:levels": "1", "roof:levels": "0"}}}, {"type": "Feature", "geometry": {"type": "Polygon", "coordinates": [[[-97.4840293, 35.6393213], [-97.4839742, 35.6393175], [-97.4839605, 35.6394545], [-97.4838229, 35.6394424], [-97.483855, 35.6391591], [-97.4839456, 35.6391694], [-97.4839307, 35.6392644], [-97.4840361, 35.6392747], [-97.4840293, 35.6393213]]]}, "properties": {"osm_id": 669271870, "building": "commercial", "name": "", "height": null, "height_m": 3.0, "levels": 1, "tract_id": "40109108201", "tract_name": "1082.01", "tags": {"addr:housenumber": "1401", "building": "commercial", "building:levels": "1", "roof:levels": "0"}}}, {"type": "Feature", "geometry": {"type": "Polygon", "coordinates": [[[-97.4838687, 35.6397676], [-97.4836956, 35.6397527], [-97.4837346, 35.6394508], [-97.483902, 35.6394676], [-97.4838687, 35.6397676]]]}, "properties": {"osm_id": 669271871, "building": "commercial", "name": "", "height": null, "height_m": 3.0, "levels": 1, "tract_id": "40109108201", "tract_name": "1082.01", "tags": {"addr:housenumber": "1327", "building": "commercial", "building:levels": "1", "roof:levels": "0"}}}, {"type": "Feature", "geometry": {"type": "Polygon", "coordinates": [[[-97.4827863, 35.6397099], [-97.4823884, 35.639708], [-97.4823873, 35.6398208], [-97.4827874, 35.6398198], [-97.4827863, 35.6397099]]]}, "properties": {"osm_id": 669271872, "building": "commercial", "name": "", "height": null, "height_m": null, "levels": null, "tract_id": "40109108201", "tract_name": "1082.01", "tags": {"building": "commercial"}}}, {"type": "Feature", "geometry": {"type": "Polygon", "coordinates": [[[-97.4825397, 35.6400651], [-97.482716, 35.6400632], [-97.4827168, 35.6400825], [-97.4827367, 35.6400812], [-97.4827367, 35.6401045], [-97.4827129, 35.6401051], [-97.4827129, 35.6401213], [-97.4825397, 35.64012], [-97.4825397, 35.6400651]]]}, "properties": {"osm_id": 669271873, "building": "commercial", "name": "", "height": null, "height_m": null, "levels": null, "tract_id": "40109108201", "tract_name": "1082.01", "tags": {"building": "commercial"}}}, {"type": "Feature", "geometry": {"type": "Polygon", "coordinates": [[[-97.4828153, 35.6402852], [-97.4825802, 35.6402845], [-97.4825794, 35.640249], [-97.4828121, 35.6402477], [-97.4828153, 35.6402852]]]}, "properties": {"osm_id": 669271874, "building": "roof", "name": "", "height": null, "height_m": null, "levels": null, "tract_id": "40109108201", "tract_name": "1082.01", "tags": {"building": "roof"}}}, {"type": "Feature", "geometry": {"type": "Polygon", "coordinates": [[[-97.4825397, 35.64012], [-97.4825389, 35.6401535], [-97.482554, 35.6401593], [-97.482886, 35.64016], [-97.4828987, 35.6401568], [-97.482905, 35.640149], [-97.482905, 35.640138], [-97.4829019, 35.640129], [-97.4828923, 35.6401213], [-97.4828153, 35.640118], [-97.4828034, 35.6401103], [-97.4828042, 35.640067], [-97.4828923, 35.6400651], [-97.4829027, 35.6400612], [-97.4829082, 35.6400535], [-97.482909, 35.6400438], [-97.4829034, 35.6400361], [-97.4828899, 35.6400283], [-97.482554, 35.640027], [-97.4825397, 35.6400335], [-97.4825397, 35.6400651], [-97.482716, 35.6400632], [-97.4827168, 35.6400825], [-97.4827367, 35.6400812], [-97.4827367, 35.6401045], [-97.4827129, 35.6401051], [-97.4827129, 35.6401213], [-97.4825397, 35.64012]]]}, "properties": {"osm_id": 669271875, "building": "roof", "name": "", "height": null, "height_m": null, "levels": null, "tract_id": "40109108201", "tract_name": "1082.01", "tags": {"building": "roof"}}}, {"type": "Feature", "geometry": {"type": "Polygon", "coordinates": [[[-97.4839549, 35.6398715], [-97.4837063, 35.6398515], [-97.4836753, 35.6401232], [-97.4839255, 35.6401406], [-97.4839549, 35.6398715]]]}, "properties": {"osm_id": 669271876, "building": "commercial", "name": "", "height": null, "height_m": 3.0, "levels": 1, "tract_id": "40109108201", "tract_name": "1082.01", "tags": {"addr:housenumber": "1319A,1319B,1319C,1319D", "building": "commercial", "building:levels": "1", "roof:levels": "0"}}}, {"type": "Feature", "geometry": {"type": "Polygon", "coordinates": [[[-97.4837952, 35.6403233], [-97.4838048, 35.6402432], [-97.4835538, 35.6402226], [-97.4835173, 35.6404472], [-97.4837277, 35.6404659], [-97.4837428, 35.6403613], [-97.4837238, 35.64036], [-97.4837341, 35.6403174], [-97.4837952, 35.6403233]]]}, "properties": {"osm_id": 669271877, "building": "yes", "name": "Fire Station", "height": null, "height_m": null, "levels": null, "tract_id": "40109108201", "tract_name": "1082.01", "tags": {"amenity": "fire_station", "building": "yes", "name": "Fire Station"}}}, {"type": "Feature", "geometry": {"type": "Polygon", "coordinates": [[[-97.4838445, 35.6405285], [-97.4834689, 35.6404975], [-97.4834577, 35.6405943], [-97.4838326, 35.6406234], [-97.4838445, 35.6405285]]]}, "properties": {"osm_id": 669271878, "building": "commercial", "name": "", "height": null, "height_m": 6.0, "levels": 2, "tract_id": "40109108201", "tract_name": "1082.01", "tags": {"addr:housenumber": "1271", "building": "commercial", "building:levels": "2", "roof:levels": "0"}}}, {"type": "Feature", "geometry": {"type": "Polygon", "coordinates": [[[-97.4840049, 35.6409628], [-97.4833275, 35.6409105], [-97.4833474, 35.6407647], [-97.4834546, 35.6407724], [-97.4834506, 35.6408312], [-97.484016, 35.640875], [-97.4840049, 35.6409628]]]}, "properties": {"osm_id": 669271879, "building": "commercial", "name": "", "height": null, "height_m": 6.0, "levels": 2, "tract_id": "40109108201", "tract_name": "1082.01", "tags": {"addr:housenumber": "1205", "building": "commercial", "building:levels": "2", "roof:levels": "0"}}}, {"type": "Feature", "geometry": {"type": "Polygon", "coordinates": [[[-97.4839715, 35.6405395], [-97.4848268, 35.6406021], [-97.4848165, 35.6406937], [-97.484425, 35.6406647], [-97.4844226, 35.6406847], [-97.4843344, 35.6406782], [-97.4843352, 35.6406582], [-97.483962, 35.6406292], [-97.4839715, 35.6405395]]]}, "properties": {"osm_id": 669271880, "building": "commercial", "name": "Broadway Suites", "height": null, "height_m": 6.0, "levels": 2, "tract_id": "40109108201", "tract_name": "1082.01", "tags": {"addr:housenumber": "1305", "building": "commercial", "building:levels": "2", "name": "Broadway Suites", "roof:levels": "0", "tourism": "hotel"}}}, {"type": "Feature", "geometry": {"type": "Polygon", "coordinates": [[[-97.4850706, 35.6406563], [-97.4848935, 35.6406421], [-97.4848506, 35.6409919], [-97.4850229, 35.6410067], [-97.4850706, 35.6406563]]]}, "properties": {"osm_id": 669271881, "building": "commercial", "name": "", "height": null, "height_m": 3.0, "levels": 1, "tract_id": "40109108201", "tract_name": "1082.01", "tags": {"building": "commercial", "building:levels": "1", "roof:levels": "0"}}}, {"type": "Feature", "geometry": {"type": "Polygon", "coordinates": [[[-97.4838731, 35.6413281], [-97.4833672, 35.6412874], [-97.4833998, 35.6410177], [-97.4839009, 35.6410622], [-97.4838731, 35.6413281]]]}, "properties": {"osm_id": 669271882, "building": "commercial", "name": "", "height": null, "height_m": null, "levels": null, "tract_id": "40109108201", "tract_name": "1082.01", "tags": {"building": "commercial"}}}, {"type": "Feature", "geometry": {"type": "Polygon", "coordinates": [[[-97.4838199, 35.6413881], [-97.4834093, 35.6413584], [-97.4834061, 35.6413804], [-97.4833489, 35.6413758], [-97.4833386, 35.6414656], [-97.4833553, 35.6414668], [-97.4833442, 35.641552], [-97.483796, 35.6415933], [-97.4838199, 35.6413881]]]}, "properties": {"osm_id": 669271883, "building": "commercial", "name": "", "height": null, "height_m": 3.0, "levels": 1, "tract_id": "40109108201", "tract_name": "1082.01", "tags": {"addr:housenumber": "1129", "building": "commercial", "building:levels": "1", "roof:levels": "0"}}}, {"type": "Feature", "geometry": {"type": "Polygon", "coordinates": [[[-97.4837381, 35.6418018], [-97.4833029, 35.6417695], [-97.483318, 35.641643], [-97.4837539, 35.6416785], [-97.4837381, 35.6418018]]]}, "properties": {"osm_id": 669271884, "building": "commercial", "name": "", "height": null, "height_m": 3.0, "levels": 1, "tract_id": "40109108201", "tract_name": "1082.01", "tags": {"addr:housenumber": "1125", "building": "commercial", "building:levels": "1", "roof:levels": "0"}}}, {"type": "Feature", "geometry": {"type": "Polygon", "coordinates": [[[-97.4837786, 35.6420238], [-97.4832949, 35.641987], [-97.4833053, 35.6418786], [-97.48375, 35.6419083], [-97.4837476, 35.6419367], [-97.4837913, 35.6419392], [-97.4837786, 35.6420238]]]}, "properties": {"osm_id": 669271885, "building": "commercial", "name": "", "height": null, "height_m": 3.0, "levels": 1, "tract_id": "40109108201", "tract_name": "1082.01", "tags": {"addr:housenumber": "1109", "building": "commercial", "building:levels": "1", "roof:levels": "0"}}}, {"type": "Feature", "geometry": {"type": "Polygon", "coordinates": [[[-97.4827891, 35.6404904], [-97.4826192, 35.6404781], [-97.4826009, 35.6406395], [-97.4827684, 35.640653], [-97.4827891, 35.6404904]]]}, "properties": {"osm_id": 669271886, "building": "commercial", "name": "", "height": null, "height_m": null, "levels": null, "tract_id": "40109108201", "tract_name": "1082.01", "tags": {"building": "commercial"}}}, {"type": "Feature", "geometry": {"type": "Polygon", "coordinates": [[[-97.4826668, 35.6411248], [-97.4825374, 35.6411138], [-97.482585, 35.640755], [-97.4827144, 35.6407679], [-97.4826668, 35.6411248]]]}, "properties": {"osm_id": 669271887, "building": "commercial", "name": "", "height": null, "height_m": null, "levels": null, "tract_id": "40109108201", "tract_name": "1082.01", "tags": {"building": "commercial"}}}, {"type": "Feature", "geometry": {"type": "Polygon", "coordinates": [[[-97.4825334, 35.641825], [-97.4822173, 35.6418011], [-97.4822324, 35.6416888], [-97.482261, 35.6416901], [-97.4822634, 35.6416695], [-97.4823841, 35.6416805], [-97.4823825, 35.6416998], [-97.4825477, 35.6417134], [-97.4825334, 35.641825]]]}, "properties": {"osm_id": 669271888, "building": "commercial", "name": "", "height": null, "height_m": null, "levels": null, "tract_id": "40109108201", "tract_name": "1082.01", "tags": {"building": "commercial"}}}, {"type": "Feature", "geometry": {"type": "Polygon", "coordinates": [[[-97.4826239, 35.6425033], [-97.4826462, 35.6423084], [-97.4824524, 35.6422903], [-97.4820561, 35.6422845], [-97.4820402, 35.6424149], [-97.4824349, 35.6424187], [-97.4824206, 35.6424897], [-97.4826239, 35.6425033]]]}, "properties": {"osm_id": 669271889, "building": "commercial", "name": "", "height": null, "height_m": null, "levels": null, "tract_id": "40109108201", "tract_name": "1082.01", "tags": {"building": "commercial"}}}, {"type": "Feature", "geometry": {"type": "Polygon", "coordinates": [[[-97.4835499, 35.6422839], [-97.4831433, 35.6422497], [-97.483156, 35.6421542], [-97.4832505, 35.6421619], [-97.4832489, 35.6421703], [-97.4833648, 35.6421793], [-97.4833672, 35.6421587], [-97.4835657, 35.6421735], [-97.4835499, 35.6422839]]]}, "properties": {"osm_id": 669271890, "building": "commercial", "name": "", "height": null, "height_m": 3.0, "levels": 1, "tract_id": "40109108201", "tract_name": "1082.01", "tags": {"addr:housenumber": "1105", "building": "commercial", "building:levels": "1", "roof:levels": "0"}}}, {"type": "Feature", "geometry": {"type": "Polygon", "coordinates": [[[-97.4836078, 35.6426556], [-97.4834268, 35.6426427], [-97.4834538, 35.6424239], [-97.4836046, 35.6424342], [-97.4835919, 35.6425478], [-97.4836221, 35.6425517], [-97.4836078, 35.6426556]]]}, "properties": {"osm_id": 669271891, "building": "commercial", "name": "", "height": null, "height_m": null, "levels": null, "tract_id": "40109108201", "tract_name": "1082.01", "tags": {"building": "commercial"}}}, {"type": "Feature", "geometry": {"type": "Polygon", "coordinates": [[[-97.4824683, 35.6430725], [-97.4822507, 35.6430525], [-97.4822602, 35.642986], [-97.4822904, 35.6429886], [-97.482311, 35.6428447], [-97.4824762, 35.6428615], [-97.4824572, 35.6430002], [-97.4824778, 35.6430021], [-97.4824683, 35.6430725]]]}, "properties": {"osm_id": 669271892, "building": "commercial", "name": "", "height": null, "height_m": null, "levels": null, "tract_id": "40109108201", "tract_name": "1082.01", "tags": {"building": "commercial"}}}, {"type": "Feature", "geometry": {"type": "Polygon", "coordinates": [[[-97.4822864, 35.6433965], [-97.4820807, 35.6433939], [-97.4820807, 35.6433113], [-97.4821173, 35.6433113], [-97.4821181, 35.6431667], [-97.4821911, 35.643168], [-97.4821903, 35.6432732], [-97.4822872, 35.6432738], [-97.4822864, 35.6433965]]]}, "properties": {"osm_id": 669271893, "building": "commercial", "name": "", "height": null, "height_m": null, "levels": null, "tract_id": "40109108201", "tract_name": "1082.01", "tags": {"building": "commercial"}}}, {"type": "Feature", "geometry": {"type": "Polygon", "coordinates": [[[-97.4822721, 35.6436488], [-97.4820085, 35.6436391], [-97.482014, 35.6435455], [-97.4822777, 35.6435513], [-97.4822721, 35.6436488]]]}, "properties": {"osm_id": 669271894, "building": "commercial", "name": "", "height": null, "height_m": null, "levels": null, "tract_id": "40109108201", "tract_name": "1082.01", "tags": {"building": "commercial"}}}, {"type": "Feature", "geometry": {"type": "Polygon", "coordinates": [[[-97.4822753, 35.6439082], [-97.4821165, 35.643894], [-97.4821355, 35.6437391], [-97.4823007, 35.6437443], [-97.4822753, 35.6439082]]]}, "properties": {"osm_id": 669271895, "building": "commercial", "name": "", "height": null, "height_m": null, "levels": null, "tract_id": "40109108201", "tract_name": "1082.01", "tags": {"building": "commercial"}}}, {"type": "Feature", "geometry": {"type": "Polygon", "coordinates": [[[-97.4831219, 35.6441889], [-97.4832673, 35.6441986], [-97.4832654, 35.6442091], [-97.4837465, 35.6442449], [-97.4837262, 35.6444356], [-97.484211, 35.6444699], [-97.4841889, 35.6446673], [-97.4832203, 35.644597], [-97.4832387, 35.6444176], [-97.4831072, 35.6444094], [-97.4831219, 35.6441889]]]}, "properties": {"osm_id": 669271896, "building": "commercial", "name": "", "height": null, "height_m": 3.0, "levels": 1, "tract_id": "40109108201", "tract_name": "1082.01", "tags": {"addr:housenumber": "915", "building": "commercial", "building:levels": "1", "roof:levels": "0"}}}, {"type": "Feature", "geometry": {"type": "Polygon", "coordinates": [[[-97.4823018, 35.6442561], [-97.4818971, 35.6442309], [-97.4818961, 35.6442412], [-97.4818569, 35.6446447], [-97.4820309, 35.644659], [-97.4820895, 35.6446638], [-97.4821505, 35.6446689], [-97.48217, 35.6446549], [-97.4822365, 35.6446568], [-97.4822399, 35.6446251], [-97.4821826, 35.6446204], [-97.4821849, 35.6446037], [-97.4822388, 35.6446055], [-97.4822479, 35.6445077], [-97.4822823, 35.6445086], [-97.4823018, 35.6442561]]]}, "properties": {"osm_id": 669271897, "building": "commercial", "name": "", "height": null, "height_m": null, "levels": null, "tract_id": "40109108201", "tract_name": "1082.01", "tags": {"building": "commercial"}}}, {"type": "Feature", "geometry": {"type": "Polygon", "coordinates": [[[-97.4818569, 35.6446447], [-97.4817652, 35.6446381], [-97.4818065, 35.6442346], [-97.4818961, 35.6442412], [-97.4818569, 35.6446447]]]}, "properties": {"osm_id": 669271898, "building": "roof", "name": "", "height": null, "height_m": null, "levels": null, "tract_id": "40109108201", "tract_name": "1082.01", "tags": {"building": "roof"}}}, {"type": "Feature", "geometry": {"type": "Polygon", "coordinates": [[[-97.4820805, 35.6447378], [-97.4820209, 35.6447322], [-97.4820309, 35.644659], [-97.4820895, 35.6446638], [-97.4820805, 35.6447378]]]}, "properties": {"osm_id": 669271899, "building": "roof", "name": "", "height": null, "height_m": null, "levels": null, "tract_id": "40109108201", "tract_name": "1082.01", "tags": {"building": "roof"}}}, {"type": "Feature", "geometry": {"type": "Polygon", "coordinates": [[[-97.4821207, 35.6451031], [-97.4817182, 35.6450882], [-97.4817251, 35.6449438], [-97.4821275, 35.6449531], [-97.4821207, 35.6451031]]]}, "properties": {"osm_id": 669271900, "building": "commercial", "name": "", "height": null, "height_m": null, "levels": null, "tract_id": "40109108201", "tract_name": "1082.01", "tags": {"building": "commercial"}}}, {"type": "Feature", "geometry": {"type": "Polygon", "coordinates": [[[-97.4821665, 35.6453948], [-97.4820507, 35.6453938], [-97.4820519, 35.6453351], [-97.4820106, 35.6453323], [-97.4820163, 35.6452475], [-97.4821642, 35.645255], [-97.4821665, 35.6453948]]]}, "properties": {"osm_id": 669271901, "building": "commercial", "name": "", "height": null, "height_m": null, "levels": null, "tract_id": "40109108201", "tract_name": "1082.01", "tags": {"building": "commercial"}}}, {"type": "Feature", "geometry": {"type": "Polygon", "coordinates": [[[-97.4816093, 35.6462334], [-97.4814785, 35.6462203], [-97.4815267, 35.6458523], [-97.4816574, 35.6458663], [-97.4816543, 35.6458897], [-97.4816125, 35.6462088], [-97.4816093, 35.6462334]]]}, "properties": {"osm_id": 669271902, "building": "commercial", "name": "", "height": null, "height_m": null, "levels": null, "tract_id": "40109108201", "tract_name": "1082.01", "tags": {"building": "commercial"}}}, {"type": "Feature", "geometry": {"type": "Polygon", "coordinates": [[[-97.4816543, 35.6458897], [-97.4817795, 35.6459019], [-97.4818156, 35.6459054], [-97.4818822, 35.6458616], [-97.4820668, 35.6458793], [-97.4820152, 35.646293], [-97.4818248, 35.6462762], [-97.4817732, 35.6462231], [-97.4817424, 35.6462204], [-97.4816125, 35.6462088], [-97.4816543, 35.6458897]]]}, "properties": {"osm_id": 669271903, "building": "roof", "name": "", "height": null, "height_m": null, "levels": null, "tract_id": "40109108201", "tract_name": "1082.01", "tags": {"building": "roof"}}}, {"type": "Feature", "geometry": {"type": "Polygon", "coordinates": [[[-97.4820817, 35.6468782], [-97.4818466, 35.6468745], [-97.4818478, 35.6467682], [-97.4820863, 35.6467701], [-97.4820817, 35.6468782]]]}, "properties": {"osm_id": 669271904, "building": "commercial", "name": "", "height": null, "height_m": null, "levels": null, "tract_id": "40109108201", "tract_name": "1082.01", "tags": {"building": "commercial"}}}, {"type": "Feature", "geometry": {"type": "Polygon", "coordinates": [[[-97.4818489, 35.6470599], [-97.4815531, 35.6470534], [-97.4815416, 35.6472938], [-97.4818409, 35.6472994], [-97.4818489, 35.6470599]]]}, "properties": {"osm_id": 669271905, "building": "commercial", "name": "", "height": null, "height_m": null, "levels": null, "tract_id": "40109108201", "tract_name": "1082.01", "tags": {"building": "commercial"}}}, {"type": "Feature", "geometry": {"type": "Polygon", "coordinates": [[[-97.4837665, 35.6449783], [-97.4831819, 35.6449308], [-97.4831573, 35.6451446], [-97.4837434, 35.6451821], [-97.4837665, 35.6449783]]]}, "properties": {"osm_id": 669271906, "building": "commercial", "name": "", "height": null, "height_m": 3.0, "levels": 1, "tract_id": "40109108201", "tract_name": "1082.01", "tags": {"building": "commercial", "building:levels": "1", "roof:levels": "0"}}}, {"type": "Feature", "geometry": {"type": "Polygon", "coordinates": [[[-97.4839388, 35.6455722], [-97.4836988, 35.6455472], [-97.4837281, 35.6452984], [-97.4838357, 35.6453134], [-97.4838219, 35.6454071], [-97.4839542, 35.6454197], [-97.4839388, 35.6455722]]]}, "properties": {"osm_id": 669271907, "building": "commercial", "name": "", "height": null, "height_m": 3.0, "levels": 1, "tract_id": "40109108201", "tract_name": "1082.01", "tags": {"building": "commercial", "building:levels": "1", "roof:levels": "0"}}}, {"type": "Feature", "geometry": {"type": "Polygon", "coordinates": [[[-97.4831804, 35.6457234], [-97.4829742, 35.6457072], [-97.4830127, 35.6454071], [-97.4832188, 35.6454309], [-97.4831804, 35.6457234]]]}, "properties": {"osm_id": 669271908, "building": "commercial", "name": "", "height": null, "height_m": 3.0, "levels": 1, "tract_id": "40109108201", "tract_name": "1082.01", "tags": {"addr:housenumber": "901", "building": "commercial", "building:levels": "1", "roof:levels": "0"}}}, {"type": "Feature", "geometry": {"type": "Polygon", "coordinates": [[[-97.482725, 35.6464873], [-97.4826266, 35.6464773], [-97.4826404, 35.6463385], [-97.4827419, 35.6463473], [-97.482725, 35.6464873]]]}, "properties": {"osm_id": 669271909, "building": "commercial", "name": "", "height": null, "height_m": 3.0, "levels": 1, "tract_id": "40109108201", "tract_name": "1082.01", "tags": {"addr:housenumber": "815,817", "building": "commercial", "building:levels": "1", "roof:levels": "0"}}}, {"type": "Feature", "geometry": {"type": "Polygon", "coordinates": [[[-97.4830819, 35.6462422], [-97.4829158, 35.646226], [-97.482925, 35.6461185], [-97.4830896, 35.646136], [-97.4830819, 35.6462422]]]}, "properties": {"osm_id": 669271910, "building": "commercial", "name": "", "height": null, "height_m": 3.0, "levels": 1, "tract_id": "40109108201", "tract_name": "1082.01", "tags": {"addr:housenumber": "9", "building": "commercial", "building:levels": "1", "roof:levels": "0"}}}, {"type": "Feature", "geometry": {"type": "Polygon", "coordinates": [[[-97.4828681, 35.6468986], [-97.4826327, 35.6468798], [-97.4826404, 35.6467961], [-97.4827466, 35.6468073], [-97.4827496, 35.6467961], [-97.4828789, 35.6468048], [-97.4828681, 35.6468986]]]}, "properties": {"osm_id": 669271911, "building": "yes", "name": "Wahaha Asian Diner", "height": null, "height_m": null, "levels": null, "tract_id": "40109108201", "tract_name": "1082.01", "tags": {"amenity": "restaurant", "building": "yes", "name": "Wahaha Asian Diner", "opening_hours": "Mo-Sa 11:00-22:00"}}}, {"type": "Feature", "geometry": {"type": "Polygon", "coordinates": [[[-97.4828973, 35.6466398], [-97.4827419, 35.6466235], [-97.4827635, 35.646481], [-97.4829235, 35.646496], [-97.4828973, 35.6466398]]]}, "properties": {"osm_id": 669271912, "building": "commercial", "name": "", "height": null, "height_m": 3.0, "levels": 1, "tract_id": "40109108201", "tract_name": "1082.01", "tags": {"addr:housenumber": "811", "building": "commercial", "building:levels": "1", "roof:levels": "0"}}}, {"type": "Feature", "geometry": {"type": "Polygon", "coordinates": [[[-97.4827573, 35.6472649], [-97.4825312, 35.6472461], [-97.4825512, 35.6470961], [-97.4827773, 35.6471173], [-97.4827573, 35.6472649]]]}, "properties": {"osm_id": 669271913, "building": "commercial", "name": "", "height": null, "height_m": null, "levels": null, "tract_id": "40109108201", "tract_name": "1082.01", "tags": {"building": "commercial"}}}, {"type": "Feature", "geometry": {"type": "Polygon", "coordinates": [[[-97.4828681, 35.6474786], [-97.4826225, 35.647457], [-97.4825989, 35.6474549], [-97.4826235, 35.6473149], [-97.4828896, 35.6473461], [-97.4828681, 35.6474786]]]}, "properties": {"osm_id": 669271914, "building": "commercial", "name": "", "height": null, "height_m": 3.0, "levels": 1, "tract_id": "40109108201", "tract_name": "1082.01", "tags": {"addr:housenumber": "709", "building": "commercial", "building:levels": "1", "roof:levels": "0"}}}, {"type": "Feature", "geometry": {"type": "Polygon", "coordinates": [[[-97.4828266, 35.6477587], [-97.4827268, 35.6477506], [-97.4825804, 35.6477387], [-97.4826225, 35.647457], [-97.4828681, 35.6474786], [-97.4828266, 35.6477587]]]}, "properties": {"osm_id": 669271915, "building": "commercial", "name": "", "height": null, "height_m": 3.0, "levels": 1, "tract_id": "40109108201", "tract_name": "1082.01", "tags": {"addr:housenumber": "705", "building": "commercial", "building:levels": "1", "roof:levels": "0"}}}, {"type": "Feature", "geometry": {"type": "Polygon", "coordinates": [[[-97.4827081, 35.6479037], [-97.4825666, 35.6478899], [-97.4825804, 35.6477387], [-97.4827268, 35.6477506], [-97.4827081, 35.6479037]]]}, "properties": {"osm_id": 669271916, "building": "commercial", "name": "", "height": null, "height_m": 3.0, "levels": 1, "tract_id": "40109108201", "tract_name": "1082.01", "tags": {"addr:housenumber": "701,703", "building": "commercial", "building:levels": "1", "roof:levels": "0"}}}, {"type": "Feature", "geometry": {"type": "Polygon", "coordinates": [[[-97.4827515, 35.6489045], [-97.4828254, 35.6482982], [-97.4825223, 35.6482669], [-97.4825054, 35.6483807], [-97.4826131, 35.6483919], [-97.4825592, 35.6487832], [-97.4825177, 35.6487807], [-97.4825054, 35.6488832], [-97.4827515, 35.6489045]]]}, "properties": {"osm_id": 669271917, "building": "commercial", "name": "", "height": null, "height_m": 3.0, "levels": 1, "tract_id": "40109108201", "tract_name": "1082.01", "tags": {"addr:housenumber": "601,603,605,607,609,611,613,615,617", "building": "commercial", "building:levels": "1"}}}, {"type": "Feature", "geometry": {"type": "Polygon", "coordinates": [[[-97.4819639, 35.6476231], [-97.4819808, 35.6474843], [-97.4817777, 35.6474643], [-97.48177, 35.6475243], [-97.4817454, 35.6475256], [-97.4817377, 35.6475618], [-97.4818316, 35.6475706], [-97.4818239, 35.6476106], [-97.4819639, 35.6476231]]]}, "properties": {"osm_id": 669271918, "building": "commercial", "name": "", "height": null, "height_m": null, "levels": null, "tract_id": "40109108201", "tract_name": "1082.01", "tags": {"building": "commercial"}}}, {"type": "Feature", "geometry": {"type": "Polygon", "coordinates": [[[-97.4818747, 35.6479194], [-97.48187, 35.6478144], [-97.4815993, 35.6478181], [-97.4815947, 35.6479156], [-97.4818747, 35.6479194]]]}, "properties": {"osm_id": 669271919, "building": "commercial", "name": "", "height": null, "height_m": null, "levels": null, "tract_id": "40109108201", "tract_name": "1082.01", "tags": {"building": "commercial"}}}, {"type": "Feature", "geometry": {"type": "Polygon", "coordinates": [[[-97.4817931, 35.6482794], [-97.4817931, 35.6481694], [-97.4815439, 35.6481681], [-97.4815393, 35.6482782], [-97.4817931, 35.6482794]]]}, "properties": {"osm_id": 669271920, "building": "commercial", "name": "", "height": null, "height_m": null, "levels": null, "tract_id": "40109108201", "tract_name": "1082.01", "tags": {"building": "commercial"}}}, {"type": "Feature", "geometry": {"type": "Polygon", "coordinates": [[[-97.4697585, 35.6389601], [-97.4697576, 35.6388353], [-97.4697438, 35.6388345], [-97.4697457, 35.6386386], [-97.4696077, 35.6386424], [-97.4696077, 35.638842], [-97.4696215, 35.6388427], [-97.4696215, 35.6390797], [-97.4696049, 35.6390804], [-97.4696068, 35.639277], [-97.4697411, 35.6392778], [-97.469742, 35.6390879], [-97.4697576, 35.6390872], [-97.4697585, 35.6389601]]]}, "properties": {"osm_id": 669273256, "building": "apartments", "name": "", "height": null, "height_m": null, "levels": null, "tract_id": "40109108201", "tract_name": "1082.01", "tags": {"building": "apartments"}}}, {"type": "Feature", "geometry": {"type": "Polygon", "coordinates": [[[-97.4700658, 35.6394677], [-97.4696059, 35.6394692], [-97.4696077, 35.63936], [-97.4696932, 35.6393615], [-97.4696942, 35.6393436], [-97.4700639, 35.6393443], [-97.4700658, 35.6394677]]]}, "properties": {"osm_id": 669273257, "building": "apartments", "name": "", "height": null, "height_m": null, "levels": null, "tract_id": "40109108201", "tract_name": "1082.01", "tags": {"building": "apartments"}}}, {"type": "Feature", "geometry": {"type": "Polygon", "coordinates": [[[-97.4697981, 35.6396613], [-97.4697972, 35.6395312], [-97.4696049, 35.6395312], [-97.469604, 35.639662], [-97.4696316, 35.6396635], [-97.4696325, 35.639674], [-97.4696537, 35.6396747], [-97.4696537, 35.6396882], [-97.4697521, 35.6396882], [-97.469753, 35.6396725], [-97.4697696, 35.6396732], [-97.4697696, 35.6396613], [-97.4697981, 35.6396613]]]}, "properties": {"osm_id": 669273258, "building": "apartments", "name": "", "height": null, "height_m": null, "levels": null, "tract_id": "40109108201", "tract_name": "1082.01", "tags": {"building": "apartments"}}}, {"type": "Feature", "geometry": {"type": "Polygon", "coordinates": [[[-97.469753, 35.6397076], [-97.46965, 35.6397084], [-97.4696518, 35.6397248], [-97.4696334, 35.6397241], [-97.4696307, 35.6397383], [-97.4696068, 35.6397375], [-97.4696068, 35.6398586], [-97.469799, 35.6398609], [-97.469799, 35.639742], [-97.4697705, 35.6397428], [-97.4697705, 35.6397263], [-97.469753, 35.6397256], [-97.469753, 35.6397076]]]}, "properties": {"osm_id": 669273259, "building": "apartments", "name": "", "height": null, "height_m": null, "levels": null, "tract_id": "40109108201", "tract_name": "1082.01", "tags": {"building": "apartments"}}}, {"type": "Feature", "geometry": {"type": "Polygon", "coordinates": [[[-97.4703114, 35.6398616], [-97.4701458, 35.6398601], [-97.4701449, 35.6398384], [-97.4701366, 35.6398392], [-97.4701366, 35.6398242], [-97.4701219, 35.639825], [-97.4701228, 35.6397398], [-97.4701384, 35.639739], [-97.4701393, 35.6397196], [-97.4701541, 35.6397196], [-97.4701531, 35.6397002], [-97.4703049, 35.6397002], [-97.4703114, 35.6398616]]]}, "properties": {"osm_id": 669273260, "building": "apartments", "name": "", "height": null, "height_m": null, "levels": null, "tract_id": "40109108201", "tract_name": "1082.01", "tags": {"building": "apartments"}}}, {"type": "Feature", "geometry": {"type": "Polygon", "coordinates": [[[-97.4700722, 35.6398616], [-97.469914, 35.6398609], [-97.469914, 35.6397031], [-97.4700676, 35.6397024], [-97.4700674, 35.639719], [-97.4700811, 35.6397178], [-97.4700808, 35.6397383], [-97.4700971, 35.6397391], [-97.4700998, 35.6398213], [-97.4700819, 35.6398217], [-97.4700824, 35.6398402], [-97.4700714, 35.6398399], [-97.4700722, 35.6398616]]]}, "properties": {"osm_id": 669273261, "building": "apartments", "name": "", "height": null, "height_m": null, "levels": null, "tract_id": "40109108201", "tract_name": "1082.01", "tags": {"building": "apartments"}}}, {"type": "Feature", "geometry": {"type": "Polygon", "coordinates": [[[-97.4703112, 35.639523], [-97.4699389, 35.6395259], [-97.4699401, 35.6396601], [-97.4703088, 35.6396606], [-97.4703112, 35.639523]]]}, "properties": {"osm_id": 669273262, "building": "apartments", "name": "", "height": null, "height_m": null, "levels": null, "tract_id": "40109108201", "tract_name": "1082.01", "tags": {"building": "apartments"}}}, {"type": "Feature", "geometry": {"type": "Polygon", "coordinates": [[[-97.4700673, 35.6393243], [-97.4699117, 35.6393243], [-97.4699077, 35.6389474], [-97.470061, 35.6389507], [-97.4700673, 35.6393243]]]}, "properties": {"osm_id": 669273263, "building": "apartments", "name": "", "height": null, "height_m": null, "levels": null, "tract_id": "40109108201", "tract_name": "1082.01", "tags": {"building": "apartments"}}}, {"type": "Feature", "geometry": {"type": "Polygon", "coordinates": [[[-97.4703071, 35.6395051], [-97.4701547, 35.6395051], [-97.4701602, 35.639203], [-97.4703127, 35.639203], [-97.4703071, 35.6395051]]]}, "properties": {"osm_id": 669273264, "building": "apartments", "name": "", "height": null, "height_m": null, "levels": null, "tract_id": "40109108201", "tract_name": "1082.01", "tags": {"building": "apartments"}}}, {"type": "Feature", "geometry": {"type": "Polygon", "coordinates": [[[-97.4703262, 35.6391469], [-97.4701848, 35.6391488], [-97.4701896, 35.6388139], [-97.4703302, 35.6388132], [-97.4703262, 35.6391469]]]}, "properties": {"osm_id": 669273265, "building": "apartments", "name": "", "height": null, "height_m": null, "levels": null, "tract_id": "40109108201", "tract_name": "1082.01", "tags": {"building": "apartments"}}}, {"type": "Feature", "geometry": {"type": "Polygon", "coordinates": [[[-97.4703516, 35.638952], [-97.4703516, 35.6388326], [-97.4707558, 35.6388319], [-97.4707566, 35.6389474], [-97.4703516, 35.638952]]]}, "properties": {"osm_id": 669273266, "building": "apartments", "name": "", "height": null, "height_m": null, "levels": null, "tract_id": "40109108201", "tract_name": "1082.01", "tags": {"building": "apartments"}}}, {"type": "Feature", "geometry": {"type": "Polygon", "coordinates": [[[-97.470462, 35.6392198], [-97.4703818, 35.6392192], [-97.4703818, 35.6391501], [-97.470462, 35.6391514], [-97.470462, 35.6392198]]]}, "properties": {"osm_id": 669273267, "building": "apartments", "name": "", "height": null, "height_m": null, "levels": null, "tract_id": "40109108201", "tract_name": "1082.01", "tags": {"building": "apartments"}}}, {"type": "Feature", "geometry": {"type": "Polygon", "coordinates": [[[-97.4707209, 35.6397335], [-97.470601, 35.6397335], [-97.470601, 35.6393657], [-97.4707225, 35.6393657], [-97.4707209, 35.6397335]]]}, "properties": {"osm_id": 669273268, "building": "apartments", "name": "", "height": null, "height_m": null, "levels": null, "tract_id": "40109108201", "tract_name": "1082.01", "tags": {"building": "apartments"}}}, {"type": "Feature", "geometry": {"type": "Polygon", "coordinates": [[[-97.4709662, 35.6394992], [-97.4707725, 35.6394992], [-97.4707717, 35.6393837], [-97.4709647, 35.6393837], [-97.4709648, 35.6393953], [-97.4709662, 35.6394992]]]}, "properties": {"osm_id": 669273269, "building": "apartments", "name": "", "height": null, "height_m": null, "levels": null, "tract_id": "40109108201", "tract_name": "1082.01", "tags": {"building": "apartments"}}}, {"type": "Feature", "geometry": {"type": "Polygon", "coordinates": [[[-97.4713292, 35.639518], [-97.4709662, 35.639518], [-97.4709662, 35.6394992], [-97.4709648, 35.6393953], [-97.4713284, 35.6393928], [-97.4713289, 35.6394831], [-97.4713292, 35.639518]]]}, "properties": {"osm_id": 669273270, "building": "apartments", "name": "", "height": null, "height_m": null, "levels": null, "tract_id": "40109108201", "tract_name": "1082.01", "tags": {"building": "apartments"}}}, {"type": "Feature", "geometry": {"type": "Polygon", "coordinates": [[[-97.4715142, 35.6394812], [-97.4713289, 35.6394831], [-97.4713284, 35.6393928], [-97.4713292, 35.6393728], [-97.4715134, 35.6393747], [-97.4715142, 35.6394812]]]}, "properties": {"osm_id": 669273271, "building": "apartments", "name": "", "height": null, "height_m": null, "levels": null, "tract_id": "40109108201", "tract_name": "1082.01", "tags": {"building": "apartments"}}}, {"type": "Feature", "geometry": {"type": "Polygon", "coordinates": [[[-97.4717429, 35.6393502], [-97.4715737, 35.6393489], [-97.4715745, 35.6392695], [-97.4717421, 35.6392708], [-97.4717429, 35.6393502]]]}, "properties": {"osm_id": 669273272, "building": "apartments", "name": "", "height": null, "height_m": null, "levels": null, "tract_id": "40109108201", "tract_name": "1082.01", "tags": {"building": "apartments"}}}, {"type": "Feature", "geometry": {"type": "Polygon", "coordinates": [[[-97.4717802, 35.6392211], [-97.471465, 35.6392224], [-97.4714642, 35.639103], [-97.4717794, 35.6391049], [-97.4717802, 35.6392211]]]}, "properties": {"osm_id": 669273273, "building": "apartments", "name": "", "height": null, "height_m": null, "levels": null, "tract_id": "40109108201", "tract_name": "1082.01", "tags": {"building": "apartments"}}}, {"type": "Feature", "geometry": {"type": "Polygon", "coordinates": [[[-97.4717786, 35.6390372], [-97.4714673, 35.6390404], [-97.471465, 35.6389242], [-97.4717786, 35.6389223], [-97.4717786, 35.6390372]]]}, "properties": {"osm_id": 669273274, "building": "apartments", "name": "", "height": null, "height_m": null, "levels": null, "tract_id": "40109108201", "tract_name": "1082.01", "tags": {"building": "apartments"}}}, {"type": "Feature", "geometry": {"type": "Polygon", "coordinates": [[[-97.4722003, 35.6390597], [-97.4718954, 35.6390617], [-97.4718954, 35.6389507], [-97.4721979, 35.6389526], [-97.4722003, 35.6390597]]]}, "properties": {"osm_id": 669273275, "building": "apartments", "name": "", "height": null, "height_m": null, "levels": null, "tract_id": "40109108201", "tract_name": "1082.01", "tags": {"building": "apartments"}}}, {"type": "Feature", "geometry": {"type": "Polygon", "coordinates": [[[-97.472105, 35.6388881], [-97.4719652, 35.6388887], [-97.4719637, 35.6386448], [-97.4721002, 35.6386441], [-97.472105, 35.6388881]]]}, "properties": {"osm_id": 669273276, "building": "apartments", "name": "", "height": null, "height_m": null, "levels": null, "tract_id": "40109108201", "tract_name": "1082.01", "tags": {"building": "apartments"}}}, {"type": "Feature", "geometry": {"type": "Polygon", "coordinates": [[[-97.4723155, 35.63889], [-97.4721836, 35.63889], [-97.472182, 35.638637], [-97.4723139, 35.6386377], [-97.4723155, 35.63889]]]}, "properties": {"osm_id": 669273277, "building": "apartments", "name": "", "height": null, "height_m": null, "levels": null, "tract_id": "40109108201", "tract_name": "1082.01", "tags": {"building": "apartments"}}}, {"type": "Feature", "geometry": {"type": "Polygon", "coordinates": [[[-97.4725315, 35.6389494], [-97.4724107, 35.6389494], [-97.4724115, 35.6386422], [-97.4725322, 35.6386422], [-97.4725315, 35.6389494]]]}, "properties": {"osm_id": 669273278, "building": "apartments", "name": "", "height": null, "height_m": null, "levels": null, "tract_id": "40109108201", "tract_name": "1082.01", "tags": {"building": "apartments"}}}, {"type": "Feature", "geometry": {"type": "Polygon", "coordinates": [[[-97.4712672, 35.6391267], [-97.4705407, 35.6391299], [-97.470538, 35.6390155], [-97.4712685, 35.6390155], [-97.4712672, 35.6391267]]]}, "properties": {"osm_id": 669273279, "building": "apartments", "name": "", "height": null, "height_m": null, "levels": null, "tract_id": "40109108201", "tract_name": "1082.01", "tags": {"building": "apartments"}}}, {"type": "Feature", "geometry": {"type": "Polygon", "coordinates": [[[-97.4712765, 35.6389583], [-97.4710773, 35.6389604], [-97.4710799, 35.6388363], [-97.4711277, 35.6388363], [-97.4711277, 35.638764], [-97.4710799, 35.6387618], [-97.4710773, 35.6386323], [-97.4712738, 35.6386344], [-97.4712752, 35.6387618], [-97.4712273, 35.6387618], [-97.47123, 35.6388363], [-97.4712738, 35.6388352], [-97.4712765, 35.6389583]]]}, "properties": {"osm_id": 669273280, "building": "apartments", "name": "", "height": null, "height_m": null, "levels": null, "tract_id": "40109108201", "tract_name": "1082.01", "tags": {"building": "apartments"}}}, {"type": "Feature", "geometry": {"type": "Polygon", "coordinates": [[[-97.4710175, 35.6389572], [-97.4710188, 35.6388395], [-97.470975, 35.6388395], [-97.4709737, 35.6387758], [-97.4710228, 35.6387737], [-97.4710241, 35.6386366], [-97.4708223, 35.6386409], [-97.4708223, 35.6387629], [-97.4708634, 35.6387618], [-97.4708674, 35.6388277], [-97.4708209, 35.6388277], [-97.4708276, 35.6389572], [-97.4710175, 35.6389572]]]}, "properties": {"osm_id": 669273281, "building": "apartments", "name": "", "height": null, "height_m": null, "levels": null, "tract_id": "40109108201", "tract_name": "1082.01", "tags": {"building": "apartments"}}}, {"type": "Feature", "geometry": {"type": "Polygon", "coordinates": [[[-97.4706243, 35.6387731], [-97.4703463, 35.6387745], [-97.4703481, 35.6386485], [-97.4706278, 35.6386529], [-97.4706243, 35.6387731]]]}, "properties": {"osm_id": 669273285, "building": "apartments", "name": "", "height": null, "height_m": null, "levels": null, "tract_id": "40109108201", "tract_name": "1082.01", "tags": {"building": "apartments"}}}, {"type": "Feature", "geometry": {"type": "Polygon", "coordinates": [[[-97.4703463, 35.6387745], [-97.4701663, 35.6387731], [-97.4701648, 35.6386615], [-97.4701645, 35.6386456], [-97.4703481, 35.6386485], [-97.4703463, 35.6387745]]]}, "properties": {"osm_id": 669273286, "building": "apartments", "name": "", "height": null, "height_m": null, "levels": null, "tract_id": "40109108201", "tract_name": "1082.01", "tags": {"building": "apartments"}}}, {"type": "Feature", "geometry": {"type": "Polygon", "coordinates": [[[-97.4701663, 35.6387731], [-97.4698848, 35.638776], [-97.4698866, 35.6386644], [-97.4701648, 35.6386615], [-97.4701663, 35.6387731]]]}, "properties": {"osm_id": 669273287, "building": "apartments", "name": "", "height": null, "height_m": null, "levels": null, "tract_id": "40109108201", "tract_name": "1082.01", "tags": {"building": "apartments"}}}, {"type": "Feature", "geometry": {"type": "Polygon", "coordinates": [[[-97.4731136, 35.6391293], [-97.4729799, 35.6391308], [-97.4729728, 35.6386311], [-97.4731154, 35.6386268], [-97.4731136, 35.6391293]]]}, "properties": {"osm_id": 669273288, "building": "apartments", "name": "", "height": null, "height_m": null, "levels": null, "tract_id": "40109108201", "tract_name": "1082.01", "tags": {"building": "apartments"}}}, {"type": "Feature", "geometry": {"type": "Polygon", "coordinates": [[[-97.4728873, 35.6389497], [-97.4727536, 35.6389483], [-97.4727536, 35.6386311], [-97.4728873, 35.6386369], [-97.4728873, 35.6389497]]]}, "properties": {"osm_id": 669273289, "building": "apartments", "name": "", "height": null, "height_m": null, "levels": null, "tract_id": "40109108201", "tract_name": "1082.01", "tags": {"building": "apartments"}}}, {"type": "Feature", "geometry": {"type": "Polygon", "coordinates": [[[-97.4735607, 35.6414694], [-97.4734219, 35.6414634], [-97.4734238, 35.641286], [-97.4732461, 35.6412829], [-97.4732461, 35.6411611], [-97.4735959, 35.6411596], [-97.473594, 35.641295], [-97.4735626, 35.6412965], [-97.4735607, 35.6414694]]]}, "properties": {"osm_id": 760609750, "building": "yes", "name": "", "height": null, "height_m": null, "levels": null, "tract_id": "40109108201", "tract_name": "1082.01", "tags": {"building": "yes"}}}, {"type": "Feature", "geometry": {"type": "Polygon", "coordinates": [[[-97.4786949, 35.645233], [-97.4786502, 35.6452681], [-97.4786129, 35.6452766], [-97.4785802, 35.6452754], [-97.4785593, 35.6452669], [-97.4785429, 35.6452499], [-97.4785325, 35.6452233], [-97.478531, 35.6452063], [-97.4785399, 35.6451858], [-97.4785101, 35.6451531], [-97.4784878, 35.6451228], [-97.4784639, 35.645084], [-97.4784535, 35.6450477], [-97.478446, 35.6450102], [-97.478446, 35.644969], [-97.4784505, 35.6449302], [-97.4784565, 35.6449121], [-97.4783864, 35.644854], [-97.4783805, 35.6448406], [-97.4783835, 35.6448273], [-97.4783909, 35.6448164], [-97.4784878, 35.6447353], [-97.4784744, 35.6447135], [-97.4784744, 35.6446917], [-97.4784833, 35.6446578], [-97.4785086, 35.644619], [-97.4785355, 35.64459], [-97.4785742, 35.6445645], [-97.4786293, 35.6445452], [-97.478677, 35.6445379], [-97.4787172, 35.6445391], [-97.4787366, 35.6445452], [-97.478759, 35.6445246], [-97.478832, 35.6445839], [-97.4788171, 35.6446275], [-97.4788186, 35.6446796], [-97.478853, 35.644708], [-97.4789139, 35.6447583], [-97.4790033, 35.6448322], [-97.4794966, 35.6448358], [-97.4794876, 35.6452596], [-97.4794504, 35.6452596], [-97.4794519, 35.6453093], [-97.4792433, 35.6453117], [-97.4792433, 35.6452729], [-97.4791986, 35.6452729], [-97.4791971, 35.645256], [-97.4791747, 35.6452572], [-97.4791613, 35.6452536], [-97.4791524, 35.6452415], [-97.4791509, 35.6452269], [-97.4791345, 35.6452269], [-97.479136, 35.6452088], [-97.4791211, 35.6452088], [-97.4791226, 35.645038], [-97.4790287, 35.6449642], [-97.4790302, 35.6449484], [-97.4790555, 35.6449302], [-97.4790376, 35.6449206], [-97.4790317, 35.6449315], [-97.4790168, 35.6449399], [-97.4789378, 35.6449399], [-97.4788454, 35.6450077], [-97.4788767, 35.645032], [-97.4787947, 35.6450974], [-97.4787783, 35.6451034], [-97.478759, 35.6451034], [-97.4787411, 35.6450913], [-97.4786576, 35.6451603], [-97.4786725, 35.6451676], [-97.4787053, 35.6451422], [-97.4787321, 35.6451543], [-97.4787411, 35.6451676], [-97.4787456, 35.6451833], [-97.4787381, 35.6451991], [-97.4786949, 35.645233]]]}, "properties": {"osm_id": 762923436, "building": "church", "name": "Saint Johns Catholic Church", "height": null, "height_m": null, "levels": null, "tract_id": "40109108201", "tract_name": "1082.01", "tags": {"building": "church", "name": "Saint Johns Catholic Church"}}}, {"type": "Feature", "geometry": {"type": "Polygon", "coordinates": [[[-97.47951, 35.6444108], [-97.4793103, 35.6444071], [-97.4793073, 35.6444326], [-97.4792224, 35.6444326], [-97.4792269, 35.6443078], [-97.4791434, 35.6443054], [-97.4791464, 35.6442122], [-97.4788098, 35.6442092], [-97.478791, 35.6442034], [-97.4787839, 35.6441939], [-97.4787813, 35.6441845], [-97.4787799, 35.644155], [-97.4787843, 35.6441404], [-97.4787918, 35.6441318], [-97.4787944, 35.6439212], [-97.478817, 35.6439214], [-97.4788177, 35.6438629], [-97.4787951, 35.6438623], [-97.4787941, 35.6437939], [-97.4787973, 35.6437814], [-97.4788051, 35.6437727], [-97.4788151, 35.6437672], [-97.4788309, 35.6437646], [-97.4788312, 35.643745], [-97.4788167, 35.6437439], [-97.4788044, 35.6437381], [-97.4787967, 35.6437268], [-97.4787958, 35.6437089], [-97.4788052, 35.6433118], [-97.4790544, 35.643312], [-97.4790553, 35.643369], [-97.4793632, 35.6433775], [-97.4793548, 35.6436009], [-97.4791666, 35.643599], [-97.4791635, 35.643779], [-97.4795487, 35.6437823], [-97.47951, 35.6444108]]]}, "properties": {"osm_id": 762923437, "building": "school", "name": "Saint Elizabeth Ann Seton School", "height": null, "height_m": null, "levels": null, "tract_id": "40109108201", "tract_name": "1082.01", "tags": {"building": "school", "name": "Saint Elizabeth Ann Seton School"}}}, {"type": "Feature", "geometry": {"type": "Polygon", "coordinates": [[[-97.4789139, 35.6447583], [-97.4789584, 35.6447213], [-97.4789952, 35.6446908], [-97.4789377, 35.6446393], [-97.4789003, 35.6446696], [-97.478853, 35.644708], [-97.4789139, 35.6447583]]]}, "properties": {"osm_id": 762961518, "building": "roof", "name": "", "height": null, "height_m": null, "levels": null, "tract_id": "40109108201", "tract_name": "1082.01", "tags": {"building": "roof"}}}, {"type": "Feature", "geometry": {"type": "Polygon", "coordinates": [[[-97.4778639, 35.6431378], [-97.4778283, 35.6431297], [-97.4777215, 35.6431297], [-97.4777654, 35.6429494], [-97.4779036, 35.6429723], [-97.4778639, 35.6431378]]]}, "properties": {"osm_id": 762965081, "building": "apartments", "name": "", "height": null, "height_m": null, "levels": null, "tract_id": "40109108201", "tract_name": "1082.01", "tags": {"building": "apartments"}}}, {"type": "Feature", "geometry": {"type": "Polygon", "coordinates": [[[-97.4778391, 35.6433847], [-97.4776867, 35.643384], [-97.4776892, 35.6431338], [-97.4777215, 35.6431297], [-97.4778283, 35.6431297], [-97.4778283, 35.643158], [-97.4778366, 35.643158], [-97.4778391, 35.6433847]]]}, "properties": {"osm_id": 762965082, "building": "apartments", "name": "", "height": null, "height_m": null, "levels": null, "tract_id": "40109108201", "tract_name": "1082.01", "tags": {"building": "apartments"}}}, {"type": "Feature", "geometry": {"type": "Polygon", "coordinates": [[[-97.4778341, 35.6436168], [-97.477719, 35.6436168], [-97.477695, 35.6436168], [-97.4776967, 35.6434143], [-97.4778341, 35.643413], [-97.4778341, 35.6436168]]]}, "properties": {"osm_id": 762965083, "building": "apartments", "name": "", "height": null, "height_m": null, "levels": null, "tract_id": "40109108201", "tract_name": "1082.01", "tags": {"building": "apartments"}}}, {"type": "Feature", "geometry": {"type": "Polygon", "coordinates": [[[-97.4778788, 35.6437864], [-97.4778449, 35.6436148], [-97.4778341, 35.6436168], [-97.477719, 35.6436168], [-97.4777257, 35.6436531], [-97.477719, 35.6436545], [-97.4777447, 35.6437796], [-97.4777538, 35.6437783], [-97.4777596, 35.6438032], [-97.4778788, 35.6437864]]]}, "properties": {"osm_id": 762965084, "building": "apartments", "name": "", "height": null, "height_m": null, "levels": null, "tract_id": "40109108201", "tract_name": "1082.01", "tags": {"building": "apartments"}}}, {"type": "Feature", "geometry": {"type": "Polygon", "coordinates": [[[-97.4776205, 35.643816], [-97.4774955, 35.6438146], [-97.4774963, 35.6437043], [-97.4775427, 35.6437043], [-97.4775435, 35.6436922], [-97.4775998, 35.6436931], [-97.4776205, 35.6436935], [-97.4776205, 35.6437433], [-97.4776296, 35.643744], [-97.4776296, 35.6437911], [-97.4776205, 35.6437911], [-97.4776205, 35.643816]]]}, "properties": {"osm_id": 762965085, "building": "apartments", "name": "", "height": null, "height_m": null, "levels": null, "tract_id": "40109108201", "tract_name": "1082.01", "tags": {"building": "apartments"}}}, {"type": "Feature", "geometry": {"type": "Polygon", "coordinates": [[[-97.4774963, 35.6437043], [-97.4774682, 35.6437043], [-97.4774698, 35.6435906], [-97.4775162, 35.6435899], [-97.4775162, 35.6435818], [-97.477575, 35.6435818], [-97.4776023, 35.6435818], [-97.4775998, 35.6436931], [-97.4775435, 35.6436922], [-97.4775427, 35.6437043], [-97.4774963, 35.6437043]]]}, "properties": {"osm_id": 762965086, "building": "apartments", "name": "", "height": null, "height_m": null, "levels": null, "tract_id": "40109108201", "tract_name": "1082.01", "tags": {"building": "apartments"}}}, {"type": "Feature", "geometry": {"type": "Polygon", "coordinates": [[[-97.4774698, 35.6435906], [-97.4774425, 35.6435913], [-97.4774442, 35.6434681], [-97.4775766, 35.6434688], [-97.477575, 35.6435818], [-97.4775162, 35.6435818], [-97.4775162, 35.6435899], [-97.4774698, 35.6435906]]]}, "properties": {"osm_id": 762965087, "building": "apartments", "name": "", "height": null, "height_m": null, "levels": null, "tract_id": "40109108201", "tract_name": "1082.01", "tags": {"building": "apartments"}}}, {"type": "Feature", "geometry": {"type": "Polygon", "coordinates": [[[-97.4774434, 35.6438045], [-97.477296, 35.6438267], [-97.4772579, 35.6436605], [-97.4772886, 35.6436592], [-97.4773987, 35.6436283], [-97.4774434, 35.6438045]]]}, "properties": {"osm_id": 762965088, "building": "apartments", "name": "", "height": null, "height_m": null, "levels": null, "tract_id": "40109108201", "tract_name": "1082.01", "tags": {"building": "apartments"}}}, {"type": "Feature", "geometry": {"type": "Polygon", "coordinates": [[[-97.4774218, 35.6436222], [-97.4773184, 35.6433793], [-97.4771826, 35.6434184], [-97.4772886, 35.6436592], [-97.4773987, 35.6436283], [-97.4774218, 35.6436222]]]}, "properties": {"osm_id": 762965089, "building": "apartments", "name": "", "height": null, "height_m": null, "levels": null, "tract_id": "40109108201", "tract_name": "1082.01", "tags": {"building": "apartments"}}}, {"type": "Feature", "geometry": {"type": "Polygon", "coordinates": [[[-97.4772265, 35.6435596], [-97.4771164, 35.6436128], [-97.4769748, 35.643413], [-97.4770866, 35.6433632], [-97.4772265, 35.6435596]]]}, "properties": {"osm_id": 762965090, "building": "apartments", "name": "", "height": null, "height_m": null, "levels": null, "tract_id": "40109108201", "tract_name": "1082.01", "tags": {"building": "apartments"}}}, {"type": "Feature", "geometry": {"type": "Polygon", "coordinates": [[[-97.4773035, 35.6433511], [-97.4771718, 35.6433894], [-97.4770857, 35.6431997], [-97.4771909, 35.6431665], [-97.4772157, 35.6431587], [-97.4773035, 35.6433511]]]}, "properties": {"osm_id": 762965091, "building": "apartments", "name": "", "height": null, "height_m": null, "levels": null, "tract_id": "40109108201", "tract_name": "1082.01", "tags": {"building": "apartments"}}}, {"type": "Feature", "geometry": {"type": "Polygon", "coordinates": [[[-97.4772852, 35.6432959], [-97.4772869, 35.6431802], [-97.4774475, 35.6431822], [-97.4774483, 35.6432973], [-97.4772852, 35.6432959]]]}, "properties": {"osm_id": 762965092, "building": "apartments", "name": "", "height": null, "height_m": null, "levels": null, "tract_id": "40109108201", "tract_name": "1082.01", "tags": {"building": "apartments"}}}, {"type": "Feature", "geometry": {"type": "Polygon", "coordinates": [[[-97.4776213, 35.6432979], [-97.4774483, 35.6432973], [-97.4774475, 35.6431822], [-97.4776222, 35.6431849], [-97.4776213, 35.6432979]]]}, "properties": {"osm_id": 762965093, "building": "apartments", "name": "", "height": null, "height_m": null, "levels": null, "tract_id": "40109108201", "tract_name": "1082.01", "tags": {"building": "apartments"}}}, {"type": "Feature", "geometry": {"type": "Polygon", "coordinates": [[[-97.4776768, 35.6431203], [-97.4775079, 35.643121], [-97.4775078, 35.6431062], [-97.4775071, 35.6430013], [-97.4776752, 35.6429999], [-97.4776768, 35.6431203]]]}, "properties": {"osm_id": 762965094, "building": "apartments", "name": "", "height": null, "height_m": null, "levels": null, "tract_id": "40109108201", "tract_name": "1082.01", "tags": {"building": "apartments"}}}, {"type": "Feature", "geometry": {"type": "Polygon", "coordinates": [[[-97.4775078, 35.6431062], [-97.4773384, 35.6431075], [-97.4773398, 35.6429999], [-97.4773399, 35.6429878], [-97.4775071, 35.6429865], [-97.4775071, 35.6430013], [-97.4775078, 35.6431062]]]}, "properties": {"osm_id": 762965095, "building": "apartments", "name": "", "height": null, "height_m": null, "levels": null, "tract_id": "40109108201", "tract_name": "1082.01", "tags": {"building": "apartments"}}}, {"type": "Feature", "geometry": {"type": "Polygon", "coordinates": [[[-97.4773382, 35.643119], [-97.4771743, 35.643119], [-97.477176, 35.6429999], [-97.4773398, 35.6429999], [-97.4773384, 35.6431075], [-97.4773382, 35.643119]]]}, "properties": {"osm_id": 762965096, "building": "apartments", "name": "", "height": null, "height_m": null, "levels": null, "tract_id": "40109108201", "tract_name": "1082.01", "tags": {"building": "apartments"}}}, {"type": "Feature", "geometry": {"type": "Polygon", "coordinates": [[[-97.4771909, 35.6431665], [-97.4770775, 35.6430053], [-97.4769707, 35.6430564], [-97.4770708, 35.6432037], [-97.4770857, 35.6431997], [-97.4771909, 35.6431665]]]}, "properties": {"osm_id": 762965097, "building": "apartments", "name": "", "height": null, "height_m": null, "levels": null, "tract_id": "40109108201", "tract_name": "1082.01", "tags": {"building": "apartments"}}}, {"type": "Feature", "geometry": {"type": "Polygon", "coordinates": [[[-97.4770708, 35.6433141], [-97.4769433, 35.6433686], [-97.4767803, 35.6431331], [-97.4769053, 35.6430719], [-97.4770708, 35.6433141]]]}, "properties": {"osm_id": 762965098, "building": "apartments", "name": "", "height": null, "height_m": null, "levels": null, "tract_id": "40109108201", "tract_name": "1082.01", "tags": {"building": "apartments"}}}, {"type": "Feature", "geometry": {"type": "Polygon", "coordinates": [[[-97.4777848, 35.6442864], [-97.4775429, 35.6442831], [-97.4775409, 35.6442068], [-97.4777848, 35.6442068], [-97.4777848, 35.6442864]]]}, "properties": {"osm_id": 762966538, "building": "commercial", "name": "", "height": null, "height_m": null, "levels": null, "tract_id": "40109108201", "tract_name": "1082.01", "tags": {"addr:city": "Edmond", "addr:housenumber": "920", "addr:postcode": "73034", "addr:state": "OK", "addr:street": "South Boulevard Street", "building": "commercial"}}}, {"type": "Feature", "geometry": {"type": "Polygon", "coordinates": [[[-97.4778048, 35.6440914], [-97.4776069, 35.6440898], [-97.4776069, 35.6440102], [-97.4778028, 35.6440118], [-97.4778048, 35.6440914]]]}, "properties": {"osm_id": 762966539, "building": "commercial", "name": "", "height": null, "height_m": null, "levels": null, "tract_id": "40109108201", "tract_name": "1082.01", "tags": {"building": "commercial"}}}, {"type": "Feature", "geometry": {"type": "Polygon", "coordinates": [[[-97.4776069, 35.6440898], [-97.477431, 35.6440898], [-97.477427, 35.6440102], [-97.4776069, 35.6440102], [-97.4776069, 35.6440898]]]}, "properties": {"osm_id": 762966540, "building": "commercial", "name": "", "height": null, "height_m": null, "levels": null, "tract_id": "40109108201", "tract_name": "1082.01", "tags": {"building": "commercial"}}}, {"type": "Feature", "geometry": {"type": "Polygon", "coordinates": [[[-97.47795, 35.6422608], [-97.4778137, 35.6422594], [-97.4778137, 35.6421809], [-97.4777809, 35.6421809], [-97.4777843, 35.6420364], [-97.4779569, 35.6420406], [-97.4779552, 35.6421837], [-97.4779477, 35.6421837], [-97.47795, 35.6422608]]]}, "properties": {"osm_id": 762973228, "building": "commercial", "name": "", "height": null, "height_m": null, "levels": null, "tract_id": "40109108201", "tract_name": "1082.01", "tags": {"building": "commercial"}}}, {"type": "Feature", "geometry": {"type": "Polygon", "coordinates": [[[-97.4775388, 35.6422146], [-97.4773045, 35.642216], [-97.4773045, 35.6421924], [-97.4772904, 35.6421931], [-97.4772904, 35.6421601], [-97.4772788, 35.6421595], [-97.4772813, 35.6420337], [-97.4775388, 35.6420357], [-97.4775388, 35.6422146]]]}, "properties": {"osm_id": 762973229, "building": "commercial", "name": "", "height": null, "height_m": null, "levels": null, "tract_id": "40109108201", "tract_name": "1082.01", "tags": {"building": "commercial"}}}, {"type": "Feature", "geometry": {"type": "Polygon", "coordinates": [[[-97.4766032, 35.6421763], [-97.4765072, 35.6421783], [-97.4765047, 35.6420303], [-97.4766024, 35.6420303], [-97.4766032, 35.6421763]]]}, "properties": {"osm_id": 762973230, "building": "commercial", "name": "", "height": null, "height_m": null, "levels": null, "tract_id": "40109108201", "tract_name": "1082.01", "tags": {"building": "commercial"}}}, {"type": "Feature", "geometry": {"type": "Polygon", "coordinates": [[[-97.4765097, 35.6426775], [-97.476311, 35.6426789], [-97.4763127, 35.6425665], [-97.476287, 35.6425652], [-97.4762895, 35.6424851], [-97.4763093, 35.6424865], [-97.4763085, 35.6423754], [-97.4764733, 35.6423741], [-97.4764749, 35.642469], [-97.4765544, 35.6424676], [-97.4765544, 35.6425766], [-97.476508, 35.6425766], [-97.4765097, 35.6426775]]]}, "properties": {"osm_id": 762973232, "building": "commercial", "name": "", "height": null, "height_m": null, "levels": null, "tract_id": "40109108201", "tract_name": "1082.01", "tags": {"building": "commercial"}}}, {"type": "Feature", "geometry": {"type": "Polygon", "coordinates": [[[-97.4768021, 35.6427827], [-97.4768028, 35.6426497], [-97.4769429, 35.6426503], [-97.4769429, 35.6426944], [-97.4769644, 35.6426944], [-97.4769651, 35.6426387], [-97.4769858, 35.6426381], [-97.4769851, 35.6426038], [-97.4770537, 35.6426032], [-97.4770552, 35.6426997], [-97.4770444, 35.6427002], [-97.4770437, 35.6427607], [-97.4770001, 35.6427612], [-97.4770008, 35.6427827], [-97.4768021, 35.6427827]]]}, "properties": {"osm_id": 762973235, "building": "commercial", "name": "", "height": null, "height_m": null, "levels": null, "tract_id": "40109108201", "tract_name": "1082.01", "tags": {"building": "commercial"}}}, {"type": "Feature", "geometry": {"type": "Polygon", "coordinates": [[[-97.4775105, 35.6427821], [-97.4774075, 35.642781], [-97.4774082, 35.6426027], [-97.4774976, 35.6426021], [-97.4774969, 35.6426456], [-97.4776027, 35.6426451], [-97.4776148, 35.6426503], [-97.4776198, 35.6426427], [-97.4776341, 35.6426491], [-97.4776641, 35.6426096], [-97.4777099, 35.6426329], [-97.4777163, 35.6426242], [-97.477757, 35.6426439], [-97.4777413, 35.6426654], [-97.477767, 35.642677], [-97.4777563, 35.6426915], [-97.4777892, 35.6427066], [-97.4777585, 35.642745], [-97.4777785, 35.6427537], [-97.4777442, 35.6427967], [-97.4776927, 35.6427729], [-97.4776848, 35.6427839], [-97.4776484, 35.6427676], [-97.4776412, 35.6427769], [-97.4775876, 35.6427525], [-97.4775941, 35.6427438], [-97.4775691, 35.6427322], [-97.4775112, 35.6427316], [-97.4775105, 35.6427821]]]}, "properties": {"osm_id": 762973238, "building": "commercial", "name": "", "height": null, "height_m": null, "levels": null, "tract_id": "40109108201", "tract_name": "1082.01", "tags": {"building": "commercial"}}}, {"type": "Feature", "geometry": {"type": "Polygon", "coordinates": [[[-97.4694203, 35.6401886], [-97.4695095, 35.6401884], [-97.4695095, 35.6402037], [-97.4696957, 35.6402032], [-97.4696958, 35.6402226], [-97.4700652, 35.6402218], [-97.4700651, 35.6402007], [-97.4702487, 35.6402003], [-97.4702486, 35.6401856], [-97.4703308, 35.6401854], [-97.4703304, 35.6400761], [-97.4702436, 35.6400763], [-97.4702437, 35.6400901], [-97.4702095, 35.6400902], [-97.4702095, 35.6400724], [-97.4701796, 35.6400725], [-97.4701796, 35.6400835], [-97.4700634, 35.6400838], [-97.4700634, 35.6400961], [-97.4696949, 35.6400971], [-97.4696949, 35.6400903], [-97.469659, 35.6400904], [-97.4696589, 35.6400741], [-97.4694198, 35.6400747], [-97.4694203, 35.6401886]]]}, "properties": {"osm_id": 913330832, "building": "apartments", "name": "", "height": null, "height_m": null, "levels": null, "tract_id": "40109108201", "tract_name": "1082.01", "tags": {"building": "apartments"}}}, {"type": "Feature", "geometry": {"type": "Polygon", "coordinates": [[[-97.4699774, 35.6507047], [-97.4698186, 35.6507065], [-97.4698183, 35.650686], [-97.4697743, 35.6506865], [-97.4697724, 35.650565], [-97.4698437, 35.6505642], [-97.4698441, 35.6505925], [-97.4699756, 35.6505911], [-97.4699774, 35.6507047]]]}, "properties": {"osm_id": 980434891, "building": "yes", "name": "", "height": null, "height_m": null, "levels": null, "tract_id": "40109108201", "tract_name": "1082.01", "tags": {"building": "yes"}}}, {"type": "Feature", "geometry": {"type": "Polygon", "coordinates": [[[-97.4700415, 35.6506772], [-97.4700362, 35.6505738], [-97.4701185, 35.650571], [-97.470117, 35.6505418], [-97.4701488, 35.6505408], [-97.4701484, 35.6505339], [-97.4702237, 35.6505313], [-97.470224, 35.6505372], [-97.4702568, 35.6505361], [-97.4702635, 35.6506664], [-97.4702562, 35.6506666], [-97.4702577, 35.650695], [-97.4702122, 35.6506965], [-97.4702113, 35.650679], [-97.4701698, 35.6506804], [-97.4701707, 35.6506967], [-97.4701263, 35.6506982], [-97.4701251, 35.6506744], [-97.4700415, 35.6506772]]]}, "properties": {"osm_id": 980434892, "building": "yes", "name": "", "height": null, "height_m": null, "levels": null, "tract_id": "40109108201", "tract_name": "1082.01", "tags": {"building": "yes"}}}, {"type": "Feature", "geometry": {"type": "Polygon", "coordinates": [[[-97.4826422, 35.652408], [-97.4826015, 35.652728], [-97.4823747, 35.652709], [-97.4824006, 35.6525046], [-97.48248, 35.6525113], [-97.4824948, 35.6523956], [-97.4826422, 35.652408]]]}, "properties": {"osm_id": 1061745179, "building": "yes", "name": "", "height": null, "height_m": null, "levels": null, "tract_id": "40109108201", "tract_name": "1082.01", "tags": {"building": "yes"}}}, {"type": "Feature", "geometry": {"type": "Polygon", "coordinates": [[[-97.4659489, 35.6439663], [-97.4658336, 35.6440278], [-97.4657576, 35.6439339], [-97.4658729, 35.6438723], [-97.4659489, 35.6439663]]]}, "properties": {"osm_id": 1061745183, "building": "yes", "name": "", "height": null, "height_m": null, "levels": null, "tract_id": "40109108201", "tract_name": "1082.01", "tags": {"building": "yes"}}}, {"type": "Feature", "geometry": {"type": "Polygon", "coordinates": [[[-97.4659117, 35.6441245], [-97.4658712, 35.6441477], [-97.4658466, 35.6441192], [-97.4658871, 35.6440961], [-97.4659117, 35.6441245]]]}, "properties": {"osm_id": 1061745184, "building": "yes", "name": "", "height": null, "height_m": null, "levels": null, "tract_id": "40109108201", "tract_name": "1082.01", "tags": {"building": "yes"}}}, {"type": "Feature", "geometry": {"type": "Polygon", "coordinates": [[[-97.4720312, 35.6432728], [-97.4717062, 35.6434205], [-97.4718338, 35.6436059], [-97.4717158, 35.6436596], [-97.4717866, 35.6437624], [-97.4722296, 35.6435611], [-97.4720312, 35.6432728]]]}, "properties": {"osm_id": 1061745185, "building": "yes", "name": "", "height": null, "height_m": null, "levels": null, "tract_id": "40109108201", "tract_name": "1082.01", "tags": {"building": "yes"}}}, {"type": "Feature", "geometry": {"type": "Polygon", "coordinates": [[[-97.4686422, 35.6411729], [-97.4686445, 35.6413604], [-97.4684758, 35.6413618], [-97.4684747, 35.6412756], [-97.4684992, 35.6412754], [-97.4684988, 35.6412457], [-97.4684684, 35.6412459], [-97.4684676, 35.6411743], [-97.4686422, 35.6411729]]]}, "properties": {"osm_id": 1061745189, "building": "yes", "name": "", "height": null, "height_m": null, "levels": null, "tract_id": "40109108201", "tract_name": "1082.01", "tags": {"building": "yes"}}}, {"type": "Feature", "geometry": {"type": "Polygon", "coordinates": [[[-97.4726532, 35.6433876], [-97.4724891, 35.6433957], [-97.4724855, 35.6433474], [-97.4726496, 35.6433393], [-97.4726532, 35.6433876]]]}, "properties": {"osm_id": 1061745190, "building": "yes", "name": "", "height": null, "height_m": null, "levels": null, "tract_id": "40109108201", "tract_name": "1082.01", "tags": {"building": "yes"}}}, {"type": "Feature", "geometry": {"type": "Polygon", "coordinates": [[[-97.4732485, 35.6434053], [-97.4731252, 35.6434459], [-97.4731102, 35.6434159], [-97.4732336, 35.6433753], [-97.4732485, 35.6434053]]]}, "properties": {"osm_id": 1061745191, "building": "yes", "name": "", "height": null, "height_m": null, "levels": null, "tract_id": "40109108201", "tract_name": "1082.01", "tags": {"building": "yes"}}}, {"type": "Feature", "geometry": {"type": "Polygon", "coordinates": [[[-97.473393, 35.643369], [-97.4733015, 35.6434012], [-97.4732802, 35.6433612], [-97.4733718, 35.643329], [-97.473393, 35.643369]]]}, "properties": {"osm_id": 1061745192, "building": "yes", "name": "", "height": null, "height_m": null, "levels": null, "tract_id": "40109108201", "tract_name": "1082.01", "tags": {"building": "yes"}}}, {"type": "Feature", "geometry": {"type": "Polygon", "coordinates": [[[-97.4783971, 35.6426482], [-97.4783553, 35.6426482], [-97.4783553, 35.6426123], [-97.4783971, 35.6426123], [-97.4783971, 35.6426482]]]}, "properties": {"osm_id": 1061745198, "building": "yes", "name": "", "height": null, "height_m": null, "levels": null, "tract_id": "40109108201", "tract_name": "1082.01", "tags": {"building": "yes"}}}, {"type": "Feature", "geometry": {"type": "Polygon", "coordinates": [[[-97.4768499, 35.6444981], [-97.4769419, 35.6446441], [-97.4768895, 35.644666], [-97.4767975, 35.6445199], [-97.4768499, 35.6444981]]]}, "properties": {"osm_id": 1061745199, "building": "yes", "name": "", "height": null, "height_m": null, "levels": null, "tract_id": "40109108201", "tract_name": "1082.01", "tags": {"building": "yes"}}}, {"type": "Feature", "geometry": {"type": "Polygon", "coordinates": [[[-97.4758409, 35.6443783], [-97.4756204, 35.6443771], [-97.4756212, 35.6442806], [-97.4758417, 35.6442817], [-97.4758409, 35.6443783]]]}, "properties": {"osm_id": 1061745200, "building": "yes", "name": "", "height": null, "height_m": null, "levels": null, "tract_id": "40109108201", "tract_name": "1082.01", "tags": {"building": "yes"}}}, {"type": "Feature", "geometry": {"type": "Polygon", "coordinates": [[[-97.4721008, 35.6431198], [-97.4718448, 35.6431553], [-97.4717983, 35.6429334], [-97.4720543, 35.642898], [-97.4721008, 35.6431198]]]}, "properties": {"osm_id": 1061745201, "building": "yes", "name": "", "height": null, "height_m": null, "levels": null, "tract_id": "40109108201", "tract_name": "1082.01", "tags": {"building": "yes"}}}, {"type": "Feature", "geometry": {"type": "Polygon", "coordinates": [[[-97.4753772, 35.6492651], [-97.4752274, 35.6492663], [-97.4752263, 35.649173], [-97.4753761, 35.6491718], [-97.4753772, 35.6492651]]]}, "properties": {"osm_id": 1061745202, "building": "yes", "name": "", "height": null, "height_m": null, "levels": null, "tract_id": "40109108201", "tract_name": "1082.01", "tags": {"building": "yes"}}}, {"type": "Feature", "geometry": {"type": "Polygon", "coordinates": [[[-97.4746902, 35.6494246], [-97.4746181, 35.6494258], [-97.4746167, 35.6493688], [-97.4746888, 35.6493677], [-97.4746902, 35.6494246]]]}, "properties": {"osm_id": 1061745203, "building": "yes", "name": "", "height": null, "height_m": null, "levels": null, "tract_id": "40109108201", "tract_name": "1082.01", "tags": {"building": "yes"}}}, {"type": "Feature", "geometry": {"type": "Polygon", "coordinates": [[[-97.4748689, 35.6493892], [-97.4747959, 35.6493892], [-97.4747959, 35.6493183], [-97.4748689, 35.6493183], [-97.4748689, 35.6493892]]]}, "properties": {"osm_id": 1061745204, "building": "yes", "name": "", "height": null, "height_m": null, "levels": null, "tract_id": "40109108201", "tract_name": "1082.01", "tags": {"building": "yes"}}}, {"type": "Feature", "geometry": {"type": "Polygon", "coordinates": [[[-97.4707315, 35.6457731], [-97.4705228, 35.6457747], [-97.4705218, 35.6456847], [-97.4707304, 35.6456831], [-97.4707315, 35.6457731]]]}, "properties": {"osm_id": 1061745207, "building": "yes", "name": "", "height": null, "height_m": null, "levels": null, "tract_id": "40109108201", "tract_name": "1082.01", "tags": {"building": "yes"}}}, {"type": "Feature", "geometry": {"type": "Polygon", "coordinates": [[[-97.4717452, 35.6452915], [-97.4716409, 35.6451505], [-97.4717299, 35.645107], [-97.4718342, 35.645248], [-97.4717452, 35.6452915]]]}, "properties": {"osm_id": 1061745208, "building": "yes", "name": "", "height": null, "height_m": null, "levels": null, "tract_id": "40109108201", "tract_name": "1082.01", "tags": {"building": "yes"}}}, {"type": "Feature", "geometry": {"type": "Polygon", "coordinates": [[[-97.4646936, 35.6408471], [-97.4645001, 35.6408953], [-97.4644461, 35.6407518], [-97.4646395, 35.6407036], [-97.4646936, 35.6408471]]]}, "properties": {"osm_id": 1061745210, "building": "house", "name": "", "height": null, "height_m": null, "levels": null, "tract_id": "40109108201", "tract_name": "1082.01", "tags": {"building": "house"}}}, {"type": "Feature", "geometry": {"type": "Polygon", "coordinates": [[[-97.4608671, 35.6417423], [-97.4606829, 35.6417407], [-97.4606848, 35.6415995], [-97.4607384, 35.6416], [-97.4607377, 35.6416493], [-97.4607812, 35.6416497], [-97.4607819, 35.6415976], [-97.460869, 35.6415984], [-97.4608671, 35.6417423]]]}, "properties": {"osm_id": 1061745211, "building": "house", "name": "", "height": null, "height_m": null, "levels": null, "tract_id": "40109108201", "tract_name": "1082.01", "tags": {"building": "house"}}}, {"type": "Feature", "geometry": {"type": "Polygon", "coordinates": [[[-97.4609933, 35.6417587], [-97.4609147, 35.6417571], [-97.4609197, 35.6415921], [-97.4610468, 35.6415946], [-97.461047, 35.6415871], [-97.46113, 35.6415888], [-97.4611269, 35.6416935], [-97.4610669, 35.6416923], [-97.4610658, 35.6417285], [-97.4609943, 35.6417271], [-97.4609933, 35.6417587]]]}, "properties": {"osm_id": 1061745212, "building": "house", "name": "", "height": null, "height_m": null, "levels": null, "tract_id": "40109108201", "tract_name": "1082.01", "tags": {"building": "house"}}}, {"type": "Feature", "geometry": {"type": "Polygon", "coordinates": [[[-97.4613924, 35.641677], [-97.4613312, 35.6416768], [-97.4613311, 35.6417075], [-97.4612641, 35.6417073], [-97.461264, 35.6417269], [-97.4611744, 35.6417266], [-97.4611751, 35.6415805], [-97.461308, 35.6415809], [-97.4613081, 35.6415627], [-97.4613929, 35.641563], [-97.4613924, 35.641677]]]}, "properties": {"osm_id": 1061745213, "building": "house", "name": "", "height": null, "height_m": null, "levels": null, "tract_id": "40109108201", "tract_name": "1082.01", "tags": {"building": "house"}}}, {"type": "Feature", "geometry": {"type": "Polygon", "coordinates": [[[-97.4617318, 35.6418091], [-97.4617382, 35.6418571], [-97.461698, 35.6418606], [-97.4616916, 35.6418127], [-97.4617318, 35.6418091]]]}, "properties": {"osm_id": 1061745214, "building": "yes", "name": "", "height": null, "height_m": null, "levels": null, "tract_id": "40109108201", "tract_name": "1082.01", "tags": {"building": "yes"}}}, {"type": "Feature", "geometry": {"type": "Polygon", "coordinates": [[[-97.4611672, 35.643296], [-97.4611672, 35.6433636], [-97.4610968, 35.6433636], [-97.4610968, 35.643296], [-97.4611672, 35.643296]]]}, "properties": {"osm_id": 1061745218, "building": "yes", "name": "", "height": null, "height_m": null, "levels": null, "tract_id": "40109108201", "tract_name": "1082.01", "tags": {"building": "yes"}}}, {"type": "Feature", "geometry": {"type": "Polygon", "coordinates": [[[-97.461721, 35.6445485], [-97.4619244, 35.6445483], [-97.4619242, 35.6444461], [-97.4619066, 35.6444461], [-97.4619064, 35.6442974], [-97.4619768, 35.6442973], [-97.4619767, 35.6442095], [-97.4619621, 35.6442095], [-97.461962, 35.6441355], [-97.4619918, 35.6441355], [-97.4619918, 35.6440902], [-97.4619039, 35.6440903], [-97.4619037, 35.6439407], [-97.461925, 35.6439406], [-97.4619249, 35.643837], [-97.461719, 35.6438372], [-97.4617191, 35.6439392], [-97.4617366, 35.6439392], [-97.4617367, 35.6439764], [-97.4614443, 35.6439766], [-97.4614443, 35.6439623], [-97.4614593, 35.6439623], [-97.4614592, 35.6439193], [-97.4614464, 35.6439193], [-97.4614463, 35.6438677], [-97.4613662, 35.6438697], [-97.4613523, 35.643884], [-97.4613521, 35.6440833], [-97.4613684, 35.6441], [-97.4613764, 35.6440998], [-97.4613766, 35.6441182], [-97.4615325, 35.6441181], [-97.4615325, 35.644137], [-97.4615088, 35.644137], [-97.4615089, 35.6441646], [-97.4614472, 35.6441657], [-97.4614358, 35.6441753], [-97.4614365, 35.6442077], [-97.4614498, 35.6442197], [-97.4615101, 35.6442199], [-97.4615102, 35.6442494], [-97.4615346, 35.6442494], [-97.4615346, 35.6442667], [-97.4613788, 35.6442668], [-97.4613788, 35.6442894], [-97.4613552, 35.644302], [-97.4613518, 35.6444999], [-97.4613684, 35.6445166], [-97.4614448, 35.6445167], [-97.4614448, 35.6444668], [-97.4614624, 35.6444668], [-97.4614624, 35.6444217], [-97.4614438, 35.6444217], [-97.4614438, 35.6444086], [-97.4616495, 35.6444084], [-97.4616495, 35.6444208], [-97.4617189, 35.6444207], [-97.4617189, 35.644409], [-97.4617356, 35.644409], [-97.4617357, 35.6444459], [-97.4617209, 35.6444459], [-97.461721, 35.6445485]]]}, "properties": {"osm_id": 1061745219, "building": "yes", "name": "", "height": null, "height_m": null, "levels": null, "tract_id": "40109108201", "tract_name": "1082.01", "tags": {"building": "yes"}}}, {"type": "Feature", "geometry": {"type": "Polygon", "coordinates": [[[-97.4620967, 35.644396], [-97.4620976, 35.6444727], [-97.4620135, 35.6444734], [-97.4620125, 35.6443967], [-97.4620967, 35.644396]]]}, "properties": {"osm_id": 1061745220, "building": "yes", "name": "", "height": null, "height_m": null, "levels": null, "tract_id": "40109108201", "tract_name": "1082.01", "tags": {"building": "yes"}}}, {"type": "Feature", "geometry": {"type": "Polygon", "coordinates": [[[-97.4808097, 35.6525874], [-97.4808457, 35.6523106], [-97.4809323, 35.652318], [-97.4809405, 35.6522548], [-97.4809021, 35.6522515], [-97.4809079, 35.652207], [-97.480125, 35.6521398], [-97.4800751, 35.6525237], [-97.4802134, 35.6525356], [-97.4802108, 35.6525559], [-97.4806295, 35.6525919], [-97.4806321, 35.6525722], [-97.4808097, 35.6525874]]]}, "properties": {"osm_id": 1147247513, "building": "yes", "name": "Sprouts Farmers Market", "height": null, "height_m": null, "levels": null, "tract_id": "40109108201", "tract_name": "1082.01", "tags": {"addr:city": "Edmond", "addr:housenumber": "24", "addr:postcode": "73034", "addr:state": "OK", "addr:street": "East 2nd Street", "branch": "Edmond", "brand": "Sprouts Farmers Market", "brand:wikidata": "Q7581369", "building": "yes", "name": "Sprouts Farmers Market", "opening_hours": "Mo-Su 07:00-22:00", "phone": "+1 405-341-5727", "shop": "supermarket", "short_name": "Sprouts", "source": "microsoft/BuildingFootprints", "website": "https://www.sprouts.com/store/ok/edmond/edmond/"}}}, {"type": "Feature", "geometry": {"type": "Polygon", "coordinates": [[[-97.4817592, 35.6526977], [-97.4817808, 35.6525042], [-97.4819296, 35.6525152], [-97.4819237, 35.6525682], [-97.4819581, 35.6525708], [-97.4819424, 35.6527112], [-97.4817592, 35.6526977]]]}, "properties": {"osm_id": 1149787429, "building": "yes", "name": "", "height": null, "height_m": null, "levels": null, "tract_id": "40109108201", "tract_name": "1082.01", "tags": {"addr:city": "Edmond", "addr:housenumber": "217", "addr:postcode": "73034", "addr:state": "OK", "addr:street": "South Broadway", "building": "yes"}}}, {"type": "Feature", "geometry": {"type": "Polygon", "coordinates": [[[-97.4817455, 35.6528139], [-97.4822237, 35.652855], [-97.482187, 35.6531373], [-97.4817827, 35.6531026], [-97.4818001, 35.6529687], [-97.4817262, 35.6529623], [-97.4817455, 35.6528139]]]}, "properties": {"osm_id": 1149787430, "building": "yes", "name": "", "height": null, "height_m": null, "levels": null, "tract_id": "40109108201", "tract_name": "1082.01", "tags": {"addr:city": "Edmond", "addr:housenumber": "201", "addr:postcode": "73034", "addr:state": "OK", "addr:street": "South Broadway", "building": "yes"}}}, {"type": "Feature", "geometry": {"type": "Polygon", "coordinates": [[[-97.4809667, 35.6528208], [-97.4809919, 35.6526182], [-97.4812997, 35.6526434], [-97.4812746, 35.6528461], [-97.4809667, 35.6528208]]]}, "properties": {"osm_id": 1149787432, "building": "business", "name": "O'Reilly Auto Parts", "height": null, "height_m": null, "levels": null, "tract_id": "40109108201", "tract_name": "1082.01", "tags": {"addr:city": "Edmond", "addr:housenumber": "4", "addr:postcode": "73034", "addr:state": "OK", "addr:street": "East 2nd Street", "brand": "O'Reilly Auto Parts", "brand:wikidata": "Q7071951", "building": "business", "name": "O'Reilly Auto Parts", "phone": "405-340-0083", "shop": "car_parts", "website": "https://locations.oreillyauto.com/ok/edmond/autoparts-179.html"}}}, {"type": "Feature", "geometry": {"type": "Polygon", "coordinates": [[[-97.4662044, 35.6508022], [-97.4662762, 35.6508018], [-97.466275, 35.650665], [-97.4662031, 35.6506654], [-97.4662044, 35.6508022]]]}, "properties": {"osm_id": 1157572180, "building": "retail", "name": "", "height": null, "height_m": null, "levels": null, "tract_id": "40109108201", "tract_name": "1082.01", "tags": {"addr:city": "Edmond", "addr:country": "US", "addr:postcode": "73034", "addr:state": "OK", "building": "retail", "shop": "yes"}}}, {"type": "Feature", "geometry": {"type": "Polygon", "coordinates": [[[-97.4659731, 35.6508135], [-97.4660528, 35.6508131], [-97.4660515, 35.6506755], [-97.4659724, 35.6506759], [-97.4659731, 35.6508135]]]}, "properties": {"osm_id": 1157572181, "building": "retail", "name": "", "height": null, "height_m": null, "levels": null, "tract_id": "40109108201", "tract_name": "1082.01", "tags": {"addr:city": "Edmond", "addr:country": "US", "addr:postcode": "73034", "addr:state": "OK", "building": "retail", "shop": "yes"}}}, {"type": "Feature", "geometry": {"type": "Polygon", "coordinates": [[[-97.4661363, 35.650675], [-97.4660515, 35.6506755], [-97.4660528, 35.6508131], [-97.4661388, 35.6508126], [-97.4661387, 35.6508026], [-97.4661363, 35.650675]]]}, "properties": {"osm_id": 1157572182, "building": "retail", "name": "", "height": null, "height_m": null, "levels": null, "tract_id": "40109108201", "tract_name": "1082.01", "tags": {"addr:city": "Edmond", "addr:country": "US", "addr:postcode": "73034", "addr:state": "OK", "building": "retail", "shop": "yes"}}}, {"type": "Feature", "geometry": {"type": "Polygon", "coordinates": [[[-97.4659724, 35.6506759], [-97.4658843, 35.6506764], [-97.4658854, 35.6508047], [-97.4658855, 35.650814], [-97.4659731, 35.6508135], [-97.4659724, 35.6506759]]]}, "properties": {"osm_id": 1157572183, "building": "retail", "name": "", "height": null, "height_m": null, "levels": null, "tract_id": "40109108201", "tract_name": "1082.01", "tags": {"addr:city": "Edmond", "addr:country": "US", "addr:postcode": "73034", "addr:state": "OK", "building": "retail", "shop": "yes"}}}, {"type": "Feature", "geometry": {"type": "Polygon", "coordinates": [[[-97.4784061, 35.6502177], [-97.4788697, 35.6502428], [-97.4788959, 35.6499213], [-97.4784324, 35.6498962], [-97.4784061, 35.6502177]]]}, "properties": {"osm_id": 1196132095, "building": "yes", "name": "Edmond History Museum", "height": null, "height_m": null, "levels": null, "tract_id": "40109108201", "tract_name": "1082.01", "tags": {"addr:city": "Edmond", "addr:housenumber": "431", "addr:postcode": "73034", "addr:state": "OK", "addr:street": "South Boulevard", "building": "yes", "name": "Edmond History Museum", "tourism": "museum"}}}, {"type": "Feature", "geometry": {"type": "Polygon", "coordinates": [[[-97.4804737, 35.6504419], [-97.4803685, 35.6504332], [-97.4803792, 35.6503357], [-97.4804174, 35.6503378], [-97.4804147, 35.6503504], [-97.4805073, 35.6503575], [-97.4805019, 35.6504081], [-97.4804778, 35.6504065], [-97.4804737, 35.6504419]]]}, "properties": {"osm_id": 1315827206, "building": "yes", "name": "", "height": null, "height_m": null, "levels": null, "tract_id": "40109108201", "tract_name": "1082.01", "tags": {"building": "yes"}}}, {"type": "Feature", "geometry": {"type": "Polygon", "coordinates": [[[-97.467593, 35.6386424], [-97.4675937, 35.6385614], [-97.4675484, 35.6385612], [-97.467549, 35.6384853], [-97.4671779, 35.6384831], [-97.4671759, 35.6387111], [-97.4674913, 35.638713], [-97.4674915, 35.6386945], [-97.4675439, 35.6386948], [-97.4675444, 35.6386422], [-97.467593, 35.6386424]]]}, "properties": {"osm_id": 1350402055, "building": "yes", "name": "", "height": null, "height_m": null, "levels": null, "tract_id": "40109108201", "tract_name": "1082.01", "tags": {"building": "yes"}}}, {"type": "Feature", "geometry": {"type": "Polygon", "coordinates": [[[-97.4683752, 35.6386692], [-97.4680138, 35.6386688], [-97.468014, 35.6385962], [-97.4683753, 35.6385966], [-97.4683752, 35.6386692]]]}, "properties": {"osm_id": 1350402057, "building": "yes", "name": "", "height": null, "height_m": null, "levels": null, "tract_id": "40109108201", "tract_name": "1082.01", "tags": {"building": "yes"}}}, {"type": "Feature", "geometry": {"type": "Polygon", "coordinates": [[[-97.4814198, 35.6514986], [-97.4814094, 35.6515705], [-97.4813897, 35.6515686], [-97.4813878, 35.6515822], [-97.4813136, 35.6515752], [-97.4813128, 35.6515804], [-97.4812765, 35.651577], [-97.481275, 35.6515873], [-97.4812333, 35.6515835], [-97.4812349, 35.6515726], [-97.4811673, 35.6515663], [-97.4811589, 35.6515464], [-97.4811708, 35.6514439], [-97.4812303, 35.6514485], [-97.4812261, 35.6514849], [-97.4812503, 35.6514867], [-97.4812718, 35.6514717], [-97.4814011, 35.651484], [-97.4813993, 35.6514967], [-97.4814198, 35.6514986]]]}, "properties": {"osm_id": 1361219215, "building": "yes", "name": "", "height": null, "height_m": null, "levels": null, "tract_id": "40109108201", "tract_name": "1082.01", "tags": {"building": "yes"}}}, {"type": "Feature", "geometry": {"type": "Polygon", "coordinates": [[[-97.4810888, 35.6519136], [-97.4810912, 35.6519007], [-97.4811034, 35.6518033], [-97.481525, 35.6518402], [-97.4815103, 35.6519507], [-97.4810888, 35.6519136]]]}, "properties": {"osm_id": 1361219216, "building": "yes", "name": "", "height": null, "height_m": null, "levels": null, "tract_id": "40109108201", "tract_name": "1082.01", "tags": {"building": "yes"}}}, {"type": "Feature", "geometry": {"type": "Polygon", "coordinates": [[[-97.4810912, 35.6519007], [-97.4810581, 35.651898], [-97.4810702, 35.6518005], [-97.4811034, 35.6518033], [-97.4810912, 35.6519007]]]}, "properties": {"osm_id": 1361219217, "building": "roof", "name": "", "height": null, "height_m": null, "levels": null, "tract_id": "40109108201", "tract_name": "1082.01", "tags": {"building": "roof", "layer": "1"}}}, {"type": "Feature", "geometry": {"type": "Polygon", "coordinates": [[[-97.4810613, 35.6513648], [-97.4810354, 35.6515479], [-97.480727, 35.6515191], [-97.4807529, 35.651336], [-97.4810613, 35.6513648]]]}, "properties": {"osm_id": 1361219218, "building": "yes", "name": "", "height": null, "height_m": null, "levels": null, "tract_id": "40109108201", "tract_name": "1082.01", "tags": {"building": "yes"}}}, {"type": "Feature", "geometry": {"type": "Polygon", "coordinates": [[[-97.4806632, 35.6512034], [-97.4806591, 35.651239], [-97.4806806, 35.6512407], [-97.4806756, 35.651284], [-97.4806505, 35.6512821], [-97.4806459, 35.6513218], [-97.4805663, 35.6513157], [-97.48058, 35.6511971], [-97.4806632, 35.6512034]]]}, "properties": {"osm_id": 1361219219, "building": "yes", "name": "", "height": null, "height_m": null, "levels": null, "tract_id": "40109108201", "tract_name": "1082.01", "tags": {"building": "yes"}}}, {"type": "Feature", "geometry": {"type": "Polygon", "coordinates": [[[-97.4820898, 35.65204], [-97.4819455, 35.6520291], [-97.4819599, 35.6519028], [-97.4820759, 35.6519115], [-97.4820654, 35.6520034], [-97.4820938, 35.6520055], [-97.4820898, 35.65204]]]}, "properties": {"osm_id": 1361219220, "building": "yes", "name": "", "height": null, "height_m": null, "levels": null, "tract_id": "40109108201", "tract_name": "1082.01", "tags": {"building": "yes"}}}, {"type": "Feature", "geometry": {"type": "Polygon", "coordinates": [[[-97.4823463, 35.6518447], [-97.4821768, 35.6518289], [-97.4821656, 35.651908], [-97.4823351, 35.6519239], [-97.4823463, 35.6518447]]]}, "properties": {"osm_id": 1361219221, "building": "yes", "name": "", "height": null, "height_m": null, "levels": null, "tract_id": "40109108201", "tract_name": "1082.01", "tags": {"building": "yes"}}}, {"type": "Feature", "geometry": {"type": "Polygon", "coordinates": [[[-97.4821049, 35.6514873], [-97.4821001, 35.6515225], [-97.482088, 35.651524], [-97.4820797, 35.6515845], [-97.4820951, 35.6515859], [-97.4820906, 35.6516189], [-97.4821282, 35.6516223], [-97.4821291, 35.6516156], [-97.4822893, 35.6516301], [-97.4823064, 35.6515055], [-97.4821049, 35.6514873]]]}, "properties": {"osm_id": 1361219222, "building": "yes", "name": "", "height": null, "height_m": null, "levels": null, "tract_id": "40109108201", "tract_name": "1082.01", "tags": {"building": "yes"}}}, {"type": "Feature", "geometry": {"type": "Polygon", "coordinates": [[[-97.4819819, 35.6523715], [-97.481812, 35.6523563], [-97.4818207, 35.652292], [-97.4819906, 35.6523072], [-97.4819819, 35.6523715]]]}, "properties": {"osm_id": 1364377654, "building": "yes", "name": "", "height": null, "height_m": null, "levels": null, "tract_id": "40109108201", "tract_name": "1082.01", "tags": {"building": "yes"}}}, {"type": "Feature", "geometry": {"type": "Polygon", "coordinates": [[[-97.4812482, 35.6523298], [-97.4813486, 35.652339], [-97.4813284, 35.6524838], [-97.4812281, 35.6524746], [-97.4812482, 35.6523298]]]}, "properties": {"osm_id": 1364377655, "building": "yes", "name": "", "height": null, "height_m": null, "levels": null, "tract_id": "40109108201", "tract_name": "1082.01", "tags": {"building": "yes"}}}, {"type": "Feature", "geometry": {"type": "Polygon", "coordinates": [[[-97.4813567, 35.6507505], [-97.4816072, 35.6507749], [-97.4815753, 35.6509912], [-97.4813248, 35.6509668], [-97.4813567, 35.6507505]]]}, "properties": {"osm_id": 1364377656, "building": "yes", "name": "", "height": null, "height_m": null, "levels": null, "tract_id": "40109108201", "tract_name": "1082.01", "tags": {"building": "yes"}}}, {"type": "Feature", "geometry": {"type": "Polygon", "coordinates": [[[-97.4821835, 35.6512926], [-97.4823461, 35.6513113], [-97.4823276, 35.651417], [-97.482165, 35.6513983], [-97.4821835, 35.6512926]]]}, "properties": {"osm_id": 1364377657, "building": "yes", "name": "", "height": null, "height_m": null, "levels": null, "tract_id": "40109108201", "tract_name": "1082.01", "tags": {"building": "yes"}}}, {"type": "Feature", "geometry": {"type": "Polygon", "coordinates": [[[-97.4820251, 35.6512303], [-97.4820981, 35.6512366], [-97.4820942, 35.6512666], [-97.4821256, 35.6512693], [-97.4821135, 35.6513626], [-97.4819952, 35.6513524], [-97.4819987, 35.6513256], [-97.4820125, 35.6513268], [-97.4820251, 35.6512303]]]}, "properties": {"osm_id": 1364377658, "building": "yes", "name": "", "height": null, "height_m": null, "levels": null, "tract_id": "40109108201", "tract_name": "1082.01", "tags": {"building": "yes"}}}, {"type": "Feature", "geometry": {"type": "Polygon", "coordinates": [[[-97.4790325, 35.6524819], [-97.4794128, 35.6525133], [-97.4794036, 35.6525863], [-97.4793854, 35.6525848], [-97.4793596, 35.652791], [-97.4790816, 35.652768], [-97.4790795, 35.6527849], [-97.4789956, 35.652778], [-97.4790325, 35.6524819]]]}, "properties": {"osm_id": 1364377669, "building": "yes", "name": "", "height": null, "height_m": null, "levels": null, "tract_id": "40109108201", "tract_name": "1082.01", "tags": {"building": "yes"}}}, {"type": "Feature", "geometry": {"type": "Polygon", "coordinates": [[[-97.4650541, 35.6520915], [-97.4652644, 35.6520914], [-97.4652646, 35.6524483], [-97.4650544, 35.6524484], [-97.4650541, 35.6520915]]]}, "properties": {"osm_id": 1364382501, "building": "garages", "name": "Discount Tire", "height": null, "height_m": null, "levels": null, "tract_id": "40109108201", "tract_name": "1082.01", "tags": {"addr:housenumber": "1100", "addr:postcode": "73034", "addr:street": "East 2nd Street", "air_conditioning": "yes", "brand": "Discount Tire", "brand:wikidata": "Q5281735", "building": "garages", "name": "Discount Tire", "opening_hours": "Mo-Fr 08:00-18:00; Sa 08:00-17:00; Su off", "phone": "+1 405 509 7142", "shop": "tyres", "website": "https://www.discounttire.com/store/ok/edmond/s/2333"}}}, {"type": "Feature", "geometry": {"type": "Polygon", "coordinates": [[[-97.483551, 35.6505174], [-97.4835196, 35.6507403], [-97.4836583, 35.6507527], [-97.4836894, 35.6505303], [-97.483551, 35.6505174]]]}, "properties": {"osm_id": 1365848479, "building": "yes", "name": "", "height": null, "height_m": null, "levels": null, "tract_id": "40109108201", "tract_name": "1082.01", "tags": {"building": "yes"}}}, {"type": "Feature", "geometry": {"type": "Polygon", "coordinates": [[[-97.4834332, 35.6510932], [-97.4834815, 35.6507369], [-97.4835196, 35.6507403], [-97.4836583, 35.6507527], [-97.48361, 35.651109], [-97.4834332, 35.6510932]]]}, "properties": {"osm_id": 1365848480, "building": "yes", "name": "", "height": null, "height_m": null, "levels": null, "tract_id": "40109108201", "tract_name": "1082.01", "tags": {"building": "yes"}}}, {"type": "Feature", "geometry": {"type": "Polygon", "coordinates": [[[-97.4833707, 35.6510438], [-97.4831608, 35.6510266], [-97.4831478, 35.6511305], [-97.4833578, 35.6511478], [-97.4833707, 35.6510438]]]}, "properties": {"osm_id": 1365848481, "building": "yes", "name": "", "height": null, "height_m": null, "levels": null, "tract_id": "40109108201", "tract_name": "1082.01", "tags": {"building": "yes"}}}, {"type": "Feature", "geometry": {"type": "Polygon", "coordinates": [[[-97.4831822, 35.6504024], [-97.4831944, 35.6503164], [-97.4830851, 35.6503062], [-97.483073, 35.6503922], [-97.4831822, 35.6504024]]]}, "properties": {"osm_id": 1365848482, "building": "residential", "name": "", "height": null, "height_m": null, "levels": null, "tract_id": "40109108201", "tract_name": "1082.01", "tags": {"building": "residential"}}}, {"type": "Feature", "geometry": {"type": "Polygon", "coordinates": [[[-97.4828657, 35.6504989], [-97.4826091, 35.6504767], [-97.4825983, 35.6505586], [-97.4828549, 35.6505808], [-97.4828657, 35.6504989]]]}, "properties": {"osm_id": 1365848483, "building": "yes", "name": "", "height": null, "height_m": null, "levels": null, "tract_id": "40109108201", "tract_name": "1082.01", "tags": {"building": "yes"}}}, {"type": "Feature", "geometry": {"type": "Polygon", "coordinates": [[[-97.4830324, 35.6508521], [-97.4830181, 35.650975], [-97.4825615, 35.6509381], [-97.4825772, 35.6508155], [-97.4830324, 35.6508521]]]}, "properties": {"osm_id": 1365848484, "building": "yes", "name": "", "height": null, "height_m": null, "levels": null, "tract_id": "40109108201", "tract_name": "1082.01", "tags": {"building": "yes"}}}, {"type": "Feature", "geometry": {"type": "Polygon", "coordinates": [[[-97.4824227, 35.6508364], [-97.4824092, 35.6509414], [-97.4823984, 35.6509405], [-97.4823906, 35.6510017], [-97.482261, 35.6509908], [-97.4822834, 35.6508159], [-97.4824128, 35.6508268], [-97.4824117, 35.6508354], [-97.4824227, 35.6508364]]]}, "properties": {"osm_id": 1365848485, "building": "yes", "name": "", "height": null, "height_m": null, "levels": null, "tract_id": "40109108201", "tract_name": "1082.01", "tags": {"building": "yes"}}}, {"type": "Feature", "geometry": {"type": "Polygon", "coordinates": [[[-97.483488, 35.6521912], [-97.4833826, 35.652183], [-97.483422, 35.6518174], [-97.4835308, 35.6518258], [-97.483488, 35.6521912]]]}, "properties": {"osm_id": 1365848486, "building": "yes", "name": "", "height": null, "height_m": null, "levels": null, "tract_id": "40109108201", "tract_name": "1082.01", "tags": {"building": "yes"}}}, {"type": "Feature", "geometry": {"type": "Polygon", "coordinates": [[[-97.4834971, 35.6525251], [-97.4834761, 35.6528917], [-97.483371, 35.6528878], [-97.483392, 35.6525211], [-97.4834971, 35.6525251]]]}, "properties": {"osm_id": 1365848487, "building": "yes", "name": "", "height": null, "height_m": null, "levels": null, "tract_id": "40109108201", "tract_name": "1082.01", "tags": {"building": "yes"}}}, {"type": "Feature", "geometry": {"type": "Polygon", "coordinates": [[[-97.4831569, 35.6524598], [-97.4831324, 35.6526301], [-97.4827931, 35.6525978], [-97.4828176, 35.6524275], [-97.4831569, 35.6524598]]]}, "properties": {"osm_id": 1365848488, "building": "yes", "name": "", "height": null, "height_m": null, "levels": null, "tract_id": "40109108201", "tract_name": "1082.01", "tags": {"building": "yes"}}}, {"type": "Feature", "geometry": {"type": "Polygon", "coordinates": [[[-97.4830173, 35.6521483], [-97.482923, 35.6521417], [-97.4829375, 35.6520035], [-97.4830317, 35.65201], [-97.4830173, 35.6521483]]]}, "properties": {"osm_id": 1365848489, "building": "yes", "name": "", "height": null, "height_m": null, "levels": null, "tract_id": "40109108201", "tract_name": "1082.01", "tags": {"building": "yes"}}}, {"type": "Feature", "geometry": {"type": "Polygon", "coordinates": [[[-97.4830498, 35.6513156], [-97.4830386, 35.6514231], [-97.4829628, 35.6514179], [-97.4829605, 35.6514403], [-97.4828412, 35.6514321], [-97.4828422, 35.6514219], [-97.4827722, 35.6514171], [-97.4827829, 35.6513136], [-97.4828565, 35.6513186], [-97.4828582, 35.6513025], [-97.4830498, 35.6513156]]]}, "properties": {"osm_id": 1365848494, "building": "yes", "name": "", "height": null, "height_m": null, "levels": null, "tract_id": "40109108201", "tract_name": "1082.01", "tags": {"building": "yes"}}}, {"type": "Feature", "geometry": {"type": "Polygon", "coordinates": [[[-97.483311, 35.6514843], [-97.4832998, 35.6515501], [-97.4832421, 35.6515436], [-97.4832273, 35.6516302], [-97.4832008, 35.6516272], [-97.4831886, 35.6516988], [-97.4831387, 35.6516932], [-97.4831332, 35.6517257], [-97.4830505, 35.6517164], [-97.4830942, 35.6514599], [-97.483311, 35.6514843]]]}, "properties": {"osm_id": 1365848495, "building": "yes", "name": "", "height": null, "height_m": null, "levels": null, "tract_id": "40109108201", "tract_name": "1082.01", "tags": {"building": "yes"}}}, {"type": "Feature", "geometry": {"type": "Polygon", "coordinates": [[[-97.4826902, 35.6516159], [-97.4826831, 35.6516728], [-97.4824789, 35.6516561], [-97.4824859, 35.6515991], [-97.4826902, 35.6516159]]]}, "properties": {"osm_id": 1365848496, "building": "yes", "name": "", "height": null, "height_m": null, "levels": null, "tract_id": "40109108201", "tract_name": "1082.01", "tags": {"building": "yes"}}}, {"type": "Feature", "geometry": {"type": "Polygon", "coordinates": [[[-97.4800116, 35.6510966], [-97.479981, 35.651362], [-97.4798689, 35.6513535], [-97.4798723, 35.6513244], [-97.4798282, 35.6513019], [-97.4797828, 35.6513314], [-97.4796947, 35.6512419], [-97.4797667, 35.651195], [-97.4796539, 35.6511864], [-97.4796673, 35.6510704], [-97.4800116, 35.6510966]]]}, "properties": {"osm_id": 1394867885, "building": "yes", "name": "", "height": null, "height_m": null, "levels": null, "tract_id": "40109108201", "tract_name": "1082.01", "tags": {"building": "yes"}}}, {"type": "Feature", "geometry": {"type": "Polygon", "coordinates": [[[-97.4806541, 35.6500813], [-97.4806235, 35.6503085], [-97.4803566, 35.6502848], [-97.4803871, 35.6500576], [-97.4806541, 35.6500813]]]}, "properties": {"osm_id": 1394867886, "building": "yes", "name": "", "height": null, "height_m": 9.0, "levels": 3, "tract_id": "40109108201", "tract_name": "1082.01", "tags": {"building": "yes", "building:levels": "3"}}}, {"type": "Feature", "geometry": {"type": "Polygon", "coordinates": [[[-97.4808206, 35.6496646], [-97.4807104, 35.6496547], [-97.4804784, 35.6496338], [-97.4804571, 35.6497904], [-97.48049, 35.649827], [-97.4806875, 35.6498448], [-97.4807539, 35.6498509], [-97.4807989, 35.6498234], [-97.4808206, 35.6496646]]]}, "properties": {"osm_id": 1394867887, "building": "yes", "name": "", "height": null, "height_m": null, "levels": null, "tract_id": "40109108201", "tract_name": "1082.01", "tags": {"building": "yes"}}}, {"type": "Feature", "geometry": {"type": "Polygon", "coordinates": [[[-97.4800142, 35.6503629], [-97.4800083, 35.650418], [-97.4799124, 35.6504112], [-97.4799183, 35.6503561], [-97.4800142, 35.6503629]]]}, "properties": {"osm_id": 1394867889, "building": "yes", "name": "", "height": null, "height_m": null, "levels": null, "tract_id": "40109108201", "tract_name": "1082.01", "tags": {"building": "yes"}}}, {"type": "Feature", "geometry": {"type": "Polygon", "coordinates": [[[-97.4805074, 35.650514], [-97.4805011, 35.6505823], [-97.4804207, 35.6505774], [-97.480427, 35.6505092], [-97.4805074, 35.650514]]]}, "properties": {"osm_id": 1394867890, "building": "yes", "name": "", "height": null, "height_m": null, "levels": null, "tract_id": "40109108201", "tract_name": "1082.01", "tags": {"building": "yes"}}}, {"type": "Feature", "geometry": {"type": "Polygon", "coordinates": [[[-97.4805131, 35.6505993], [-97.480504, 35.6506727], [-97.4803912, 35.6506635], [-97.4804002, 35.65059], [-97.4805131, 35.6505993]]]}, "properties": {"osm_id": 1394867891, "building": "yes", "name": "", "height": null, "height_m": null, "levels": null, "tract_id": "40109108201", "tract_name": "1082.01", "tags": {"building": "yes"}}}, {"type": "Feature", "geometry": {"type": "Polygon", "coordinates": [[[-97.4803846, 35.6507027], [-97.4803771, 35.6507724], [-97.480401, 35.6507741], [-97.4803964, 35.6508173], [-97.4805213, 35.6508262], [-97.4805334, 35.6507133], [-97.4803846, 35.6507027]]]}, "properties": {"osm_id": 1394867892, "building": "yes", "name": "", "height": null, "height_m": null, "levels": null, "tract_id": "40109108201", "tract_name": "1082.01", "tags": {"building": "yes"}}}, {"type": "Feature", "geometry": {"type": "Polygon", "coordinates": [[[-97.4806055, 35.6507108], [-97.4805973, 35.6508303], [-97.480597, 35.6508358], [-97.4806979, 35.6508403], [-97.4807032, 35.6507627], [-97.4807149, 35.6507632], [-97.4807181, 35.6507158], [-97.4806055, 35.6507108]]]}, "properties": {"osm_id": 1394867899, "building": "yes", "name": "", "height": null, "height_m": null, "levels": null, "tract_id": "40109108201", "tract_name": "1082.01", "tags": {"building": "yes"}}}, {"type": "Feature", "geometry": {"type": "Polygon", "coordinates": [[[-97.4810611, 35.650835], [-97.4810695, 35.6507725], [-97.481024, 35.6507685], [-97.4810268, 35.6507473], [-97.4809992, 35.6507448], [-97.4810068, 35.6506883], [-97.4809352, 35.650682], [-97.480917, 35.650818], [-97.4809138, 35.6508417], [-97.480981, 35.6508476], [-97.4809836, 35.6508281], [-97.4810611, 35.650835]]]}, "properties": {"osm_id": 1394867900, "building": "yes", "name": "", "height": null, "height_m": null, "levels": null, "tract_id": "40109108201", "tract_name": "1082.01", "tags": {"building": "yes"}}}, {"type": "Feature", "geometry": {"type": "Polygon", "coordinates": [[[-97.4808461, 35.6508481], [-97.4807522, 35.6508423], [-97.4807668, 35.6506851], [-97.4808607, 35.6506909], [-97.4808494, 35.6508119], [-97.4808461, 35.6508481]]]}, "properties": {"osm_id": 1394867901, "building": "yes", "name": "", "height": null, "height_m": null, "levels": null, "tract_id": "40109108201", "tract_name": "1082.01", "tags": {"building": "yes"}}}, {"type": "Feature", "geometry": {"type": "Polygon", "coordinates": [[[-97.4786095, 35.6509491], [-97.4785622, 35.6513284], [-97.4783969, 35.6513148], [-97.4784099, 35.6512103], [-97.4784266, 35.6512117], [-97.4784609, 35.6509368], [-97.4786095, 35.6509491]]]}, "properties": {"osm_id": 1394867905, "building": "yes", "name": "", "height": null, "height_m": null, "levels": null, "tract_id": "40109108201", "tract_name": "1082.01", "tags": {"building": "yes"}}}, {"type": "Feature", "geometry": {"type": "Polygon", "coordinates": [[[-97.4797872, 35.6521727], [-97.4797603, 35.6523749], [-97.479457, 35.6523483], [-97.4794839, 35.6521461], [-97.4797872, 35.6521727]]]}, "properties": {"osm_id": 1394867906, "building": "yes", "name": "", "height": null, "height_m": null, "levels": null, "tract_id": "40109108201", "tract_name": "1082.01", "tags": {"building": "yes"}}}, {"type": "Feature", "geometry": {"type": "Polygon", "coordinates": [[[-97.4799817, 35.6515443], [-97.4798536, 35.6515324], [-97.4798063, 35.6518687], [-97.4799343, 35.6518806], [-97.4799817, 35.6515443]]]}, "properties": {"osm_id": 1394867907, "building": "yes", "name": "", "height": null, "height_m": null, "levels": null, "tract_id": "40109108201", "tract_name": "1082.01", "tags": {"building": "yes"}}}, {"type": "Feature", "geometry": {"type": "Polygon", "coordinates": [[[-97.4794266, 35.6517872], [-97.4793233, 35.6517798], [-97.4793349, 35.6516736], [-97.4793512, 35.6516748], [-97.4793532, 35.6516567], [-97.479429, 35.6516622], [-97.4794266, 35.6516841], [-97.4794378, 35.6516849], [-97.4794266, 35.6517872]]]}, "properties": {"osm_id": 1394867908, "building": "yes", "name": "", "height": null, "height_m": null, "levels": null, "tract_id": "40109108201", "tract_name": "1082.01", "tags": {"building": "yes"}}}, {"type": "Feature", "geometry": {"type": "Polygon", "coordinates": [[[-97.4792266, 35.6518188], [-97.4791112, 35.6518101], [-97.4791264, 35.6516758], [-97.4791527, 35.6516778], [-97.4791503, 35.6516988], [-97.4792394, 35.6517054], [-97.4792266, 35.6518188]]]}, "properties": {"osm_id": 1394867909, "building": "yes", "name": "", "height": null, "height_m": null, "levels": null, "tract_id": "40109108201", "tract_name": "1082.01", "tags": {"building": "yes"}}}, {"type": "Feature", "geometry": {"type": "Polygon", "coordinates": [[[-97.4790634, 35.6516913], [-97.4789261, 35.6516795], [-97.4789168, 35.6517505], [-97.4790541, 35.6517623], [-97.4790634, 35.6516913]]]}, "properties": {"osm_id": 1394867910, "building": "yes", "name": "", "height": null, "height_m": null, "levels": null, "tract_id": "40109108201", "tract_name": "1082.01", "tags": {"building": "yes"}}}, {"type": "Feature", "geometry": {"type": "Polygon", "coordinates": [[[-97.4784225, 35.6513877], [-97.4784079, 35.6515097], [-97.4787251, 35.6515347], [-97.4787022, 35.6517269], [-97.4788486, 35.6517384], [-97.4788862, 35.6514243], [-97.4784225, 35.6513877]]]}, "properties": {"osm_id": 1394867911, "building": "yes", "name": "", "height": null, "height_m": null, "levels": null, "tract_id": "40109108201", "tract_name": "1082.01", "tags": {"building": "yes"}}}, {"type": "Feature", "geometry": {"type": "Polygon", "coordinates": [[[-97.4784008, 35.6521748], [-97.4783852, 35.6523077], [-97.4788498, 35.6523436], [-97.4788654, 35.6522107], [-97.4784008, 35.6521748]]]}, "properties": {"osm_id": 1394867912, "building": "yes", "name": "", "height": null, "height_m": null, "levels": null, "tract_id": "40109108201", "tract_name": "1082.01", "tags": {"building": "yes"}}}]}