{"type": "FeatureCollection", "features": [{"type": "Feature", "geometry": {"type": "Polygon", "coordinates": [[[-95.8175236, 36.1592723], [-95.8172681, 36.1592728], [-95.817269, 36.1589142], [-95.8171999, 36.1589146], [-95.8170805, 36.1588573], [-95.8170113, 36.1587597], [-95.8170115, 36.1587328], [-95.8163669, 36.1587328], [-95.8163692, 36.158523], [-95.8167649, 36.1585241], [-95.8167645, 36.1570951], [-95.8160286, 36.1570934], [-95.8160285, 36.1569992], [-95.8159998, 36.1569993], [-95.8159998, 36.1569489], [-95.8160284, 36.1569489], [-95.8160276, 36.1563604], [-95.8160005, 36.1563604], [-95.8160004, 36.1563092], [-95.8160276, 36.1563092], [-95.8160273, 36.1560742], [-95.8173247, 36.1560781], [-95.8173263, 36.1585206], [-95.8175249, 36.1585208], [-95.8175352, 36.1586969], [-95.8203151, 36.158691], [-95.8203315, 36.1601889], [-95.8175218, 36.1601849], [-95.8175236, 36.1592723]]]}, "properties": {"osm_id": 260556824, "building": "warehouse", "name": "", "height": null, "height_m": null, "levels": null, "tract_id": "40143007311", "tract_name": "73.11", "tags": {"building": "warehouse"}}}, {"type": "Feature", "geometry": {"type": "Polygon", "coordinates": [[[-95.8227244, 36.1602157], [-95.8227244, 36.1600513], [-95.8227244, 36.1597279], [-95.8227244, 36.1585676], [-95.8223194, 36.1585676], [-95.8223194, 36.158843], [-95.8220452, 36.158843], [-95.8220452, 36.1590741], [-95.8219962, 36.1590741], [-95.8219962, 36.1591152], [-95.8220445, 36.1591152], [-95.8220444, 36.1602162], [-95.822585, 36.1602162], [-95.822585, 36.1602433], [-95.8226614, 36.1602433], [-95.8226614, 36.1602157], [-95.8227244, 36.1602157]]]}, "properties": {"osm_id": 563693117, "building": "yes", "name": "", "height": null, "height_m": null, "levels": null, "tract_id": "40143007311", "tract_name": "73.11", "tags": {"building": "yes"}}}, {"type": "Feature", "geometry": {"type": "Polygon", "coordinates": [[[-95.8184637, 36.1581514], [-95.818463, 36.1579841], [-95.8183227, 36.1579845], [-95.8183234, 36.1581518], [-95.8184637, 36.1581514]]]}, "properties": {"osm_id": 563693118, "building": "yes", "name": "", "height": null, "height_m": null, "levels": null, "tract_id": "40143007311", "tract_name": "73.11", "tags": {"building": "yes"}}}, {"type": "Feature", "geometry": {"type": "Polygon", "coordinates": [[[-95.8183621, 36.1579655], [-95.8183614, 36.1577868], [-95.8183117, 36.1577869], [-95.8183123, 36.1579656], [-95.8183621, 36.1579655]]]}, "properties": {"osm_id": 563693119, "building": "yes", "name": "", "height": null, "height_m": null, "levels": null, "tract_id": "40143007311", "tract_name": "73.11", "tags": {"building": "yes"}}}, {"type": "Feature", "geometry": {"type": "Polygon", "coordinates": [[[-95.832379, 36.1562242], [-95.8323793, 36.1561273], [-95.8326723, 36.1561279], [-95.832672, 36.1562248], [-95.832379, 36.1562242]]]}, "properties": {"osm_id": 565613615, "building": "yes", "name": "McDonald's", "height": null, "height_m": null, "levels": null, "tract_id": "40143007311", "tract_name": "73.11", "tags": {"addr:city": "Tulsa", "addr:country": "US", "addr:housenumber": "333", "addr:postcode": "74108", "addr:state": "OK", "addr:street": "South 129th Avenue East", "amenity": "fast_food", "brand": "McDonald's", "brand:wikidata": "Q38076", "building": "yes", "cuisine": "burger", "drive_through": "yes", "internet_access": "wlan", "name": "McDonald's", "opening_hours": "Mo-Su 06:00-22:00", "operator": "McDonald's #27111", "phone": "+1 918-234-0800", "takeaway": "yes", "website": "https://www.mcdonalds.com/us/en-us/location/27111.html"}}}, {"type": "Feature", "geometry": {"type": "Polygon", "coordinates": [[[-95.8327827, 36.134916], [-95.8327832, 36.1348557], [-95.8325957, 36.1348548], [-95.8325952, 36.1349151], [-95.8327827, 36.134916]]]}, "properties": {"osm_id": 630321180, "building": "retail", "name": "Tlachi", "height": null, "height_m": 3.0, "levels": 1, "tract_id": "40143007311", "tract_name": "73.11", "tags": {"amenity": "restaurant", "building": "retail", "building:levels": "1", "check_date": "2022-06-11", "cuisine": "mexican", "name": "Tlachi", "roof:levels": "0", "roof:shape": "flat"}}}, {"type": "Feature", "geometry": {"type": "Polygon", "coordinates": [[[-95.8325531, 36.1345059], [-95.8325472, 36.134168], [-95.8323968, 36.1341697], [-95.8324027, 36.1345076], [-95.8325531, 36.1345059]]]}, "properties": {"osm_id": 630321184, "building": "yes", "name": "", "height": null, "height_m": null, "levels": null, "tract_id": "40143007311", "tract_name": "73.11", "tags": {"building": "yes"}}}, {"type": "Feature", "geometry": {"type": "Polygon", "coordinates": [[[-95.8325487, 36.1460223], [-95.8322309, 36.1460228], [-95.8322302, 36.1457531], [-95.832548, 36.1457526], [-95.8325487, 36.1460223]]]}, "properties": {"osm_id": 744365120, "building": "yes", "name": "", "height": null, "height_m": null, "levels": null, "tract_id": "40143007311", "tract_name": "73.11", "tags": {"building": "yes"}}}, {"type": "Feature", "geometry": {"type": "Polygon", "coordinates": [[[-95.8328109, 36.1460262], [-95.8328081, 36.1460824], [-95.8326479, 36.1460771], [-95.8326506, 36.146021], [-95.8328109, 36.1460262]]]}, "properties": {"osm_id": 744365121, "building": "yes", "name": "", "height": null, "height_m": null, "levels": null, "tract_id": "40143007311", "tract_name": "73.11", "tags": {"building": "yes"}}}, {"type": "Feature", "geometry": {"type": "Polygon", "coordinates": [[[-95.8326855, 36.1463141], [-95.8326213, 36.1463141], [-95.8326214, 36.1462684], [-95.8326855, 36.1462684], [-95.8326855, 36.1463141]]]}, "properties": {"osm_id": 744365122, "building": "yes", "name": "", "height": null, "height_m": null, "levels": null, "tract_id": "40143007311", "tract_name": "73.11", "tags": {"building": "yes"}}}, {"type": "Feature", "geometry": {"type": "Polygon", "coordinates": [[[-95.8328049, 36.1463742], [-95.8329458, 36.1463744], [-95.8329457, 36.1464295], [-95.8330251, 36.1464296], [-95.833025, 36.1464821], [-95.8329506, 36.1464821], [-95.8329505, 36.146546], [-95.8329456, 36.146546], [-95.8329455, 36.1466137], [-95.8328415, 36.1466136], [-95.8328415, 36.1465654], [-95.832787, 36.1465653], [-95.832787, 36.1465562], [-95.8327598, 36.1465561], [-95.8327599, 36.1464947], [-95.8327012, 36.1464947], [-95.832701, 36.1466038], [-95.8326538, 36.1466038], [-95.8326539, 36.1464966], [-95.8325953, 36.1464966], [-95.8325953, 36.1465018], [-95.8324426, 36.1465016], [-95.8324427, 36.1464586], [-95.8325969, 36.1464587], [-95.8325969, 36.1464625], [-95.8326566, 36.1464625], [-95.8326567, 36.1463889], [-95.8327023, 36.1463889], [-95.8327022, 36.146467], [-95.8327907, 36.1464671], [-95.8327907, 36.1464705], [-95.8328047, 36.1464705], [-95.8328049, 36.1463742]]]}, "properties": {"osm_id": 744365123, "building": "yes", "name": "", "height": null, "height_m": null, "levels": null, "tract_id": "40143007311", "tract_name": "73.11", "tags": {"addr:city": "Tulsa", "addr:country": "US", "addr:housenumber": "1115", "addr:postcode": "74108", "addr:state": "OK", "addr:street": "South 129th Avenue East", "building": "yes"}}}, {"type": "Feature", "geometry": {"type": "Polygon", "coordinates": [[[-95.8291872, 36.1440881], [-95.8289958, 36.1440893], [-95.8289954, 36.1440458], [-95.8290303, 36.1440456], [-95.8290299, 36.144009], [-95.8289992, 36.1440092], [-95.8289983, 36.14392], [-95.8290803, 36.1439195], [-95.8290806, 36.1439467], [-95.8291858, 36.143946], [-95.8291862, 36.1439798], [-95.8292278, 36.1439795], [-95.8292284, 36.1440424], [-95.8291868, 36.1440426], [-95.8291872, 36.1440881]]]}, "properties": {"osm_id": 744370255, "building": "detached", "name": "", "height": null, "height_m": null, "levels": null, "tract_id": "40143007311", "tract_name": "73.11", "tags": {"addr:city": "Tulsa", "addr:country": "US", "addr:housenumber": "1308", "addr:postcode": "74108", "addr:state": "OK", "addr:street": "South 133rd Avenue East", "building": "detached"}}}, {"type": "Feature", "geometry": {"type": "Polygon", "coordinates": [[[-95.8293233, 36.1441574], [-95.8292929, 36.1441576], [-95.8292925, 36.1441097], [-95.8293229, 36.1441096], [-95.8293233, 36.1441574]]]}, "properties": {"osm_id": 744370256, "building": "yes", "name": "", "height": null, "height_m": null, "levels": null, "tract_id": "40143007311", "tract_name": "73.11", "tags": {"building": "yes"}}}, {"type": "Feature", "geometry": {"type": "Polygon", "coordinates": [[[-95.8293696, 36.1441682], [-95.8293701, 36.1442273], [-95.8292891, 36.1442278], [-95.8292885, 36.1441687], [-95.8293696, 36.1441682]]]}, "properties": {"osm_id": 744370257, "building": "yes", "name": "", "height": null, "height_m": null, "levels": null, "tract_id": "40143007311", "tract_name": "73.11", "tags": {"building": "yes"}}}, {"type": "Feature", "geometry": {"type": "Polygon", "coordinates": [[[-95.8291302, 36.1442313], [-95.8289994, 36.1442321], [-95.8289994, 36.1442283], [-95.8289745, 36.1442285], [-95.8289743, 36.1442099], [-95.8289707, 36.1442099], [-95.8289705, 36.1441838], [-95.828999, 36.1441837], [-95.8289987, 36.1441514], [-95.8291294, 36.1441506], [-95.8291302, 36.1442313]]]}, "properties": {"osm_id": 744370258, "building": "yes", "name": "", "height": null, "height_m": null, "levels": null, "tract_id": "40143007311", "tract_name": "73.11", "tags": {"building": "yes"}}}, {"type": "Feature", "geometry": {"type": "Polygon", "coordinates": [[[-95.828409, 36.1442164], [-95.8283611, 36.1442175], [-95.8283598, 36.1441821], [-95.8284078, 36.1441811], [-95.828409, 36.1442164]]]}, "properties": {"osm_id": 744370259, "building": "yes", "name": "", "height": null, "height_m": null, "levels": null, "tract_id": "40143007311", "tract_name": "73.11", "tags": {"building": "yes"}}}, {"type": "Feature", "geometry": {"type": "Polygon", "coordinates": [[[-95.8284677, 36.1440453], [-95.8285692, 36.1440445], [-95.8285712, 36.1442037], [-95.8284697, 36.1442045], [-95.8284677, 36.1440453]]]}, "properties": {"osm_id": 744370260, "building": "detached", "name": "", "height": null, "height_m": null, "levels": null, "tract_id": "40143007311", "tract_name": "73.11", "tags": {"addr:city": "Tulsa", "addr:country": "US", "addr:housenumber": "1303", "addr:postcode": "74108", "addr:state": "OK", "addr:street": "South 133rd Avenue East", "building": "detached"}}}, {"type": "Feature", "geometry": {"type": "Polygon", "coordinates": [[[-95.8315801, 36.1446946], [-95.8315492, 36.1446944], [-95.8315495, 36.1446384], [-95.8315804, 36.1446385], [-95.8315801, 36.1446946]]]}, "properties": {"osm_id": 744370261, "building": "yes", "name": "", "height": null, "height_m": null, "levels": null, "tract_id": "40143007311", "tract_name": "73.11", "tags": {"building": "yes"}}}, {"type": "Feature", "geometry": {"type": "Polygon", "coordinates": [[[-95.8315831, 36.1447536], [-95.8315482, 36.1447534], [-95.8315485, 36.1447041], [-95.8315834, 36.1447043], [-95.8315831, 36.1447536]]]}, "properties": {"osm_id": 744370262, "building": "yes", "name": "", "height": null, "height_m": null, "levels": null, "tract_id": "40143007311", "tract_name": "73.11", "tags": {"building": "yes"}}}, {"type": "Feature", "geometry": {"type": "Polygon", "coordinates": [[[-95.8315951, 36.1447782], [-95.8315515, 36.1447792], [-95.8315509, 36.1447595], [-95.8315945, 36.1447586], [-95.8315951, 36.1447782]]]}, "properties": {"osm_id": 744370263, "building": "yes", "name": "", "height": null, "height_m": null, "levels": null, "tract_id": "40143007311", "tract_name": "73.11", "tags": {"building": "yes"}}}, {"type": "Feature", "geometry": {"type": "Polygon", "coordinates": [[[-95.8313832, 36.1448023], [-95.8312592, 36.144805], [-95.8312582, 36.1447763], [-95.831245, 36.1447766], [-95.8312418, 36.1446811], [-95.8313257, 36.1446793], [-95.8313276, 36.1447367], [-95.831381, 36.1447355], [-95.8313832, 36.1448023]]]}, "properties": {"osm_id": 744370264, "building": "yes", "name": "", "height": null, "height_m": null, "levels": null, "tract_id": "40143007311", "tract_name": "73.11", "tags": {"building": "yes"}}}, {"type": "Feature", "geometry": {"type": "Polygon", "coordinates": [[[-95.831915, 36.1450449], [-95.8319431, 36.1450454], [-95.8319418, 36.1450979], [-95.8319137, 36.1450974], [-95.831915, 36.1450449]]]}, "properties": {"osm_id": 744370265, "building": "yes", "name": "", "height": null, "height_m": null, "levels": null, "tract_id": "40143007311", "tract_name": "73.11", "tags": {"building": "yes"}}}, {"type": "Feature", "geometry": {"type": "Polygon", "coordinates": [[[-95.8318446, 36.1449014], [-95.8318452, 36.1449229], [-95.8317841, 36.144924], [-95.8317836, 36.1449025], [-95.8318446, 36.1449014]]]}, "properties": {"osm_id": 744370266, "building": "yes", "name": "", "height": null, "height_m": null, "levels": null, "tract_id": "40143007311", "tract_name": "73.11", "tags": {"building": "yes"}}}, {"type": "Feature", "geometry": {"type": "Polygon", "coordinates": [[[-95.8318955, 36.1446377], [-95.8318957, 36.1446875], [-95.8316738, 36.1446881], [-95.8316736, 36.1446382], [-95.8318955, 36.1446377]]]}, "properties": {"osm_id": 744370267, "building": "yes", "name": "", "height": null, "height_m": null, "levels": null, "tract_id": "40143007311", "tract_name": "73.11", "tags": {"building": "yes"}}}, {"type": "Feature", "geometry": {"type": "Polygon", "coordinates": [[[-95.83209, 36.1448695], [-95.8320947, 36.1450806], [-95.8319675, 36.1450825], [-95.8319659, 36.1450088], [-95.8320134, 36.1450081], [-95.8320111, 36.1449025], [-95.831982, 36.1449029], [-95.8319813, 36.144871], [-95.83209, 36.1448695]]]}, "properties": {"osm_id": 744370268, "building": "yes", "name": "", "height": null, "height_m": null, "levels": null, "tract_id": "40143007311", "tract_name": "73.11", "tags": {"building": "yes"}}}, {"type": "Feature", "geometry": {"type": "Polygon", "coordinates": [[[-95.8322972, 36.1448765], [-95.8324224, 36.1448769], [-95.8324219, 36.1449897], [-95.8322967, 36.1449893], [-95.8322972, 36.1448765]]]}, "properties": {"osm_id": 744370269, "building": "yes", "name": "", "height": null, "height_m": null, "levels": null, "tract_id": "40143007311", "tract_name": "73.11", "tags": {"building": "yes"}}}, {"type": "Feature", "geometry": {"type": "Polygon", "coordinates": [[[-95.8325681, 36.1448906], [-95.832449, 36.1448902], [-95.8324494, 36.1448029], [-95.8325685, 36.1448032], [-95.8325681, 36.1448906]]]}, "properties": {"osm_id": 744370270, "building": "yes", "name": "", "height": null, "height_m": null, "levels": null, "tract_id": "40143007311", "tract_name": "73.11", "tags": {"building": "yes"}}}, {"type": "Feature", "geometry": {"type": "Polygon", "coordinates": [[[-95.8325413, 36.1449274], [-95.8326851, 36.1449278], [-95.8326848, 36.1449929], [-95.832541, 36.1449925], [-95.8325413, 36.1449274]]]}, "properties": {"osm_id": 744370271, "building": "yes", "name": "", "height": null, "height_m": null, "levels": null, "tract_id": "40143007311", "tract_name": "73.11", "tags": {"building": "yes"}}}, {"type": "Feature", "geometry": {"type": "Polygon", "coordinates": [[[-95.8329564, 36.1449512], [-95.8327699, 36.1449507], [-95.83277, 36.1449447], [-95.832718, 36.1449446], [-95.8327184, 36.144864], [-95.8327703, 36.1448641], [-95.8327704, 36.1448577], [-95.8329276, 36.1448582], [-95.8329275, 36.1448818], [-95.8329567, 36.1448819], [-95.8329564, 36.1449512]]]}, "properties": {"osm_id": 744370272, "building": "yes", "name": "", "height": null, "height_m": null, "levels": null, "tract_id": "40143007311", "tract_name": "73.11", "tags": {"addr:city": "Tulsa", "addr:country": "US", "addr:housenumber": "1223", "addr:postcode": "74108", "addr:state": "OK", "addr:street": "South 129th Avenue East", "building": "yes"}}}, {"type": "Feature", "geometry": {"type": "Polygon", "coordinates": [[[-95.8317018, 36.1452485], [-95.8316503, 36.1452492], [-95.8316486, 36.1451655], [-95.8317001, 36.1451648], [-95.8317018, 36.1452485]]]}, "properties": {"osm_id": 744370273, "building": "yes", "name": "", "height": null, "height_m": null, "levels": null, "tract_id": "40143007311", "tract_name": "73.11", "tags": {"building": "yes"}}}, {"type": "Feature", "geometry": {"type": "Polygon", "coordinates": [[[-95.8316179, 36.1452545], [-95.8315282, 36.1452556], [-95.8315261, 36.145151], [-95.8316158, 36.1451499], [-95.8316179, 36.1452545]]]}, "properties": {"osm_id": 744370274, "building": "yes", "name": "", "height": null, "height_m": null, "levels": null, "tract_id": "40143007311", "tract_name": "73.11", "tags": {"building": "yes"}}}, {"type": "Feature", "geometry": {"type": "Polygon", "coordinates": [[[-95.8312465, 36.1451034], [-95.8312431, 36.1449366], [-95.8313938, 36.1449346], [-95.8313946, 36.1449745], [-95.8314329, 36.144974], [-95.8314354, 36.1451009], [-95.8312465, 36.1451034]]]}, "properties": {"osm_id": 744370275, "building": "yes", "name": "", "height": null, "height_m": null, "levels": null, "tract_id": "40143007311", "tract_name": "73.11", "tags": {"building": "yes"}}}, {"type": "Feature", "geometry": {"type": "Polygon", "coordinates": [[[-95.8305269, 36.145996], [-95.8305283, 36.1460518], [-95.8304855, 36.1460525], [-95.8304841, 36.1459967], [-95.8305269, 36.145996]]]}, "properties": {"osm_id": 744370276, "building": "yes", "name": "", "height": null, "height_m": null, "levels": null, "tract_id": "40143007311", "tract_name": "73.11", "tags": {"building": "yes"}}}, {"type": "Feature", "geometry": {"type": "Polygon", "coordinates": [[[-95.8302762, 36.1456638], [-95.8302755, 36.1456964], [-95.830191, 36.1456953], [-95.8301917, 36.1456627], [-95.8302762, 36.1456638]]]}, "properties": {"osm_id": 744370277, "building": "yes", "name": "", "height": null, "height_m": null, "levels": null, "tract_id": "40143007311", "tract_name": "73.11", "tags": {"building": "yes"}}}, {"type": "Feature", "geometry": {"type": "Polygon", "coordinates": [[[-95.8305303, 36.1456221], [-95.8305309, 36.1456589], [-95.8304765, 36.1456595], [-95.830476, 36.1456227], [-95.8305303, 36.1456221]]]}, "properties": {"osm_id": 744370278, "building": "yes", "name": "", "height": null, "height_m": null, "levels": null, "tract_id": "40143007311", "tract_name": "73.11", "tags": {"building": "yes"}}}, {"type": "Feature", "geometry": {"type": "Polygon", "coordinates": [[[-95.8305927, 36.1455691], [-95.8305216, 36.1455696], [-95.8305212, 36.145537], [-95.8305923, 36.1455365], [-95.8305927, 36.1455691]]]}, "properties": {"osm_id": 744370279, "building": "yes", "name": "", "height": null, "height_m": null, "levels": null, "tract_id": "40143007311", "tract_name": "73.11", "tags": {"building": "yes"}}}, {"type": "Feature", "geometry": {"type": "Polygon", "coordinates": [[[-95.8307871, 36.1456996], [-95.8306424, 36.1457004], [-95.8306404, 36.1454876], [-95.8307851, 36.1454868], [-95.8307871, 36.1456996]]]}, "properties": {"osm_id": 744370280, "building": "yes", "name": "", "height": null, "height_m": null, "levels": null, "tract_id": "40143007311", "tract_name": "73.11", "tags": {"building": "yes"}}}, {"type": "Feature", "geometry": {"type": "Polygon", "coordinates": [[[-95.8296703, 36.1449152], [-95.8295875, 36.1449114], [-95.8295893, 36.1448859], [-95.8296721, 36.1448897], [-95.8296703, 36.1449152]]]}, "properties": {"osm_id": 744370281, "building": "yes", "name": "", "height": null, "height_m": null, "levels": null, "tract_id": "40143007311", "tract_name": "73.11", "tags": {"building": "yes"}}}, {"type": "Feature", "geometry": {"type": "Polygon", "coordinates": [[[-95.8296525, 36.1450257], [-95.8295852, 36.1450232], [-95.8295871, 36.1449878], [-95.8296545, 36.1449903], [-95.8296525, 36.1450257]]]}, "properties": {"osm_id": 744370282, "building": "yes", "name": "", "height": null, "height_m": null, "levels": null, "tract_id": "40143007311", "tract_name": "73.11", "tags": {"building": "yes"}}}, {"type": "Feature", "geometry": {"type": "Polygon", "coordinates": [[[-95.8295728, 36.1445505], [-95.8294904, 36.1445511], [-95.8294896, 36.1444828], [-95.829572, 36.1444822], [-95.8295728, 36.1445505]]]}, "properties": {"osm_id": 744370283, "building": "yes", "name": "", "height": null, "height_m": null, "levels": null, "tract_id": "40143007311", "tract_name": "73.11", "tags": {"building": "yes"}}}, {"type": "Feature", "geometry": {"type": "Polygon", "coordinates": [[[-95.8294028, 36.1445919], [-95.8292943, 36.1445928], [-95.8292928, 36.1444612], [-95.8294012, 36.1444604], [-95.8294028, 36.1445919]]]}, "properties": {"osm_id": 744370284, "building": "yes", "name": "", "height": null, "height_m": null, "levels": null, "tract_id": "40143007311", "tract_name": "73.11", "tags": {"building": "yes"}}}, {"type": "Feature", "geometry": {"type": "Polygon", "coordinates": [[[-95.829091, 36.1446659], [-95.8290897, 36.1445581], [-95.8291684, 36.1445575], [-95.8291683, 36.1445466], [-95.8292021, 36.1445464], [-95.8292023, 36.1445573], [-95.8292508, 36.1445569], [-95.8292513, 36.144604], [-95.829235, 36.1446041], [-95.8292352, 36.144619], [-95.82925, 36.1446189], [-95.8292503, 36.1446441], [-95.8292355, 36.1446442], [-95.8292358, 36.1446749], [-95.8292014, 36.1446752], [-95.8292013, 36.144665], [-95.829091, 36.1446659]]]}, "properties": {"osm_id": 744370285, "building": "detached", "name": "", "height": null, "height_m": null, "levels": null, "tract_id": "40143007311", "tract_name": "73.11", "tags": {"addr:city": "Tulsa", "addr:country": "US", "addr:housenumber": "1220", "addr:postcode": "74108", "addr:state": "OK", "addr:street": "South 133rd Avenue East", "building": "detached"}}}, {"type": "Feature", "geometry": {"type": "Polygon", "coordinates": [[[-95.8285572, 36.1446661], [-95.8285576, 36.1447027], [-95.8285617, 36.1447026], [-95.8285623, 36.1447485], [-95.8285122, 36.1447488], [-95.8285123, 36.1447524], [-95.8284298, 36.1447531], [-95.8284303, 36.1447972], [-95.8283604, 36.1447977], [-95.8283597, 36.1447386], [-95.8284236, 36.1447381], [-95.8284234, 36.1447243], [-95.8283785, 36.1447246], [-95.8283778, 36.1446675], [-95.8283876, 36.1446674], [-95.8283874, 36.1446538], [-95.8284333, 36.1446534], [-95.8284335, 36.1446671], [-95.8285572, 36.1446661]]]}, "properties": {"osm_id": 744370286, "building": "detached", "name": "", "height": null, "height_m": null, "levels": null, "tract_id": "40143007311", "tract_name": "73.11", "tags": {"addr:city": "Tulsa", "addr:country": "US", "addr:housenumber": "1219", "addr:postcode": "74108", "addr:state": "OK", "addr:street": "South 133rd Avenue East", "building": "detached"}}}, {"type": "Feature", "geometry": {"type": "Polygon", "coordinates": [[[-95.8283128, 36.1448548], [-95.828243, 36.1448554], [-95.8282426, 36.1448162], [-95.8283123, 36.1448156], [-95.8283128, 36.1448548]]]}, "properties": {"osm_id": 744370287, "building": "yes", "name": "", "height": null, "height_m": null, "levels": null, "tract_id": "40143007311", "tract_name": "73.11", "tags": {"building": "yes"}}}, {"type": "Feature", "geometry": {"type": "Polygon", "coordinates": [[[-95.8282561, 36.1452309], [-95.8281676, 36.1452298], [-95.8281691, 36.145147], [-95.8280927, 36.145146], [-95.8280936, 36.1450987], [-95.828185, 36.1450998], [-95.8281863, 36.1450326], [-95.8283924, 36.1450316], [-95.8283931, 36.1451051], [-95.8282568, 36.1451046], [-95.8282561, 36.1452309]]]}, "properties": {"osm_id": 744370288, "building": "detached", "name": "", "height": null, "height_m": null, "levels": null, "tract_id": "40143007311", "tract_name": "73.11", "tags": {"addr:city": "Tulsa", "addr:country": "US", "addr:housenumber": "1215", "addr:postcode": "74108", "addr:state": "OK", "addr:street": "South 133rd Avenue East", "building": "detached"}}}, {"type": "Feature", "geometry": {"type": "Polygon", "coordinates": [[[-95.8283745, 36.1454551], [-95.8283749, 36.1453728], [-95.8283845, 36.1453728], [-95.8283847, 36.1453386], [-95.8285517, 36.1453391], [-95.8285512, 36.1454556], [-95.8283745, 36.1454551]]]}, "properties": {"osm_id": 744370289, "building": "detached", "name": "", "height": null, "height_m": null, "levels": null, "tract_id": "40143007311", "tract_name": "73.11", "tags": {"addr:city": "Tulsa", "addr:country": "US", "addr:housenumber": "1213", "addr:postcode": "74108", "addr:state": "OK", "addr:street": "South 133rd Avenue East", "building": "detached"}}}, {"type": "Feature", "geometry": {"type": "Polygon", "coordinates": [[[-95.8289773, 36.1456546], [-95.8289773, 36.1455983], [-95.8290712, 36.1455983], [-95.8290712, 36.1455469], [-95.8290765, 36.1455469], [-95.8290765, 36.145474], [-95.829159, 36.145474], [-95.829159, 36.1455081], [-95.8292408, 36.1455081], [-95.8292408, 36.1455425], [-95.82916, 36.1455425], [-95.82916, 36.1455458], [-95.8291153, 36.1455458], [-95.8291153, 36.1455534], [-95.8291523, 36.1455534], [-95.8291523, 36.1456172], [-95.8291376, 36.1456172], [-95.8291376, 36.1456546], [-95.8289773, 36.1456546]]]}, "properties": {"osm_id": 744370290, "building": "detached", "name": "", "height": null, "height_m": null, "levels": null, "tract_id": "40143007311", "tract_name": "73.11", "tags": {"addr:city": "Tulsa", "addr:country": "US", "addr:housenumber": "1210", "addr:postcode": "74108", "addr:state": "OK", "addr:street": "South 133rd Avenue East", "building": "detached"}}}, {"type": "Feature", "geometry": {"type": "Polygon", "coordinates": [[[-95.828054, 36.1457299], [-95.8282374, 36.1457339], [-95.8282353, 36.1457977], [-95.8281517, 36.1457959], [-95.8281515, 36.1458025], [-95.8280516, 36.1458004], [-95.828054, 36.1457299]]]}, "properties": {"osm_id": 744370291, "building": "yes", "name": "", "height": null, "height_m": null, "levels": null, "tract_id": "40143007311", "tract_name": "73.11", "tags": {"building": "yes"}}}, {"type": "Feature", "geometry": {"type": "Polygon", "coordinates": [[[-95.8283624, 36.1458441], [-95.8282408, 36.1458438], [-95.828241, 36.1457748], [-95.8283627, 36.1457751], [-95.8283624, 36.1458441]]]}, "properties": {"osm_id": 744370292, "building": "yes", "name": "", "height": null, "height_m": null, "levels": null, "tract_id": "40143007311", "tract_name": "73.11", "tags": {"building": "yes"}}}, {"type": "Feature", "geometry": {"type": "Polygon", "coordinates": [[[-95.828469, 36.1460699], [-95.8282565, 36.1460694], [-95.8282568, 36.1459941], [-95.8281729, 36.1459939], [-95.8281733, 36.1458852], [-95.8282017, 36.1458853], [-95.8282018, 36.1458542], [-95.8284021, 36.1458547], [-95.8284019, 36.1459162], [-95.8283692, 36.1459161], [-95.828369, 36.1459768], [-95.8283557, 36.1459768], [-95.8283557, 36.1459869], [-95.8284693, 36.1459872], [-95.828469, 36.1460699]]]}, "properties": {"osm_id": 744370293, "building": "detached", "name": "", "height": null, "height_m": null, "levels": null, "tract_id": "40143007311", "tract_name": "73.11", "tags": {"addr:city": "Tulsa", "addr:country": "US", "addr:housenumber": "1205", "addr:postcode": "74108", "addr:state": "OK", "addr:street": "South 133rd Avenue East", "building": "detached"}}}, {"type": "Feature", "geometry": {"type": "Polygon", "coordinates": [[[-95.8291014, 36.1460531], [-95.8291014, 36.1460001], [-95.829104, 36.1460001], [-95.829104, 36.1459844], [-95.8290745, 36.1459844], [-95.8290745, 36.1459194], [-95.8290893, 36.1459194], [-95.8290893, 36.1459097], [-95.8290343, 36.1459097], [-95.8290343, 36.1458479], [-95.8292127, 36.1458479], [-95.8292127, 36.1459015], [-95.8292683, 36.1459015], [-95.8292683, 36.1459622], [-95.8292281, 36.1459622], [-95.8292281, 36.1460531], [-95.8291014, 36.1460531]]]}, "properties": {"osm_id": 744370294, "building": "detached", "name": "", "height": null, "height_m": null, "levels": null, "tract_id": "40143007311", "tract_name": "73.11", "tags": {"addr:city": "Tulsa", "addr:country": "US", "addr:housenumber": "1208", "addr:postcode": "74108", "addr:state": "OK", "addr:street": "South 133rd Avenue East", "building": "detached"}}}, {"type": "Feature", "geometry": {"type": "Polygon", "coordinates": [[[-95.8295111, 36.1458225], [-95.8295158, 36.145906], [-95.8294139, 36.1459098], [-95.8294091, 36.1458263], [-95.8295111, 36.1458225]]]}, "properties": {"osm_id": 744370295, "building": "yes", "name": "", "height": null, "height_m": null, "levels": null, "tract_id": "40143007311", "tract_name": "73.11", "tags": {"building": "yes"}}}, {"type": "Feature", "geometry": {"type": "Polygon", "coordinates": [[[-95.8284217, 36.1465735], [-95.8283483, 36.1465733], [-95.8283484, 36.1465692], [-95.8283085, 36.1465691], [-95.8283088, 36.1464887], [-95.8283486, 36.1464888], [-95.8283487, 36.1464793], [-95.8284221, 36.1464795], [-95.8284217, 36.1465735]]]}, "properties": {"osm_id": 744370296, "building": "yes", "name": "", "height": null, "height_m": null, "levels": null, "tract_id": "40143007311", "tract_name": "73.11", "tags": {"building": "yes"}}}, {"type": "Feature", "geometry": {"type": "Polygon", "coordinates": [[[-95.8286045, 36.1462584], [-95.8286043, 36.1463149], [-95.828622, 36.146315], [-95.8286218, 36.1463767], [-95.8286041, 36.1463767], [-95.8286038, 36.146456], [-95.8285039, 36.1464558], [-95.8285041, 36.1463948], [-95.8284782, 36.1463948], [-95.8284782, 36.1463848], [-95.8284589, 36.1463848], [-95.8284591, 36.146317], [-95.8285043, 36.1463171], [-95.8285045, 36.1462581], [-95.8286045, 36.1462584]]]}, "properties": {"osm_id": 744370297, "building": "detached", "name": "", "height": null, "height_m": null, "levels": null, "tract_id": "40143007311", "tract_name": "73.11", "tags": {"addr:city": "Tulsa", "addr:country": "US", "addr:housenumber": "1147", "addr:postcode": "74108", "addr:state": "OK", "addr:street": "South 133rd Avenue East", "building": "detached"}}}, {"type": "Feature", "geometry": {"type": "Polygon", "coordinates": [[[-95.82904, 36.1466168], [-95.8292371, 36.1466157], [-95.8292377, 36.1466788], [-95.8292518, 36.1466788], [-95.8292527, 36.146788], [-95.8290309, 36.1467892], [-95.8290305, 36.1467428], [-95.829075, 36.1467425], [-95.8290748, 36.1467268], [-95.8290409, 36.146727], [-95.8290406, 36.1466867], [-95.8290739, 36.1466865], [-95.8290738, 36.1466727], [-95.8290405, 36.1466729], [-95.82904, 36.1466168]]]}, "properties": {"osm_id": 744370298, "building": "detached", "name": "", "height": null, "height_m": null, "levels": null, "tract_id": "40143007311", "tract_name": "73.11", "tags": {"addr:city": "Tulsa", "addr:country": "US", "addr:housenumber": "1124", "addr:postcode": "74108", "addr:state": "OK", "addr:street": "South 133rd Avenue East", "building": "detached"}}}, {"type": "Feature", "geometry": {"type": "Polygon", "coordinates": [[[-95.8290377, 36.1463266], [-95.8291081, 36.1463268], [-95.8291082, 36.1462913], [-95.829192, 36.1462916], [-95.8291919, 36.146327], [-95.829247, 36.1463272], [-95.8292467, 36.1463982], [-95.8291379, 36.1463979], [-95.8291375, 36.1464753], [-95.829037, 36.146475], [-95.8290377, 36.1463266]]]}, "properties": {"osm_id": 744370299, "building": "detached", "name": "", "height": null, "height_m": null, "levels": null, "tract_id": "40143007311", "tract_name": "73.11", "tags": {"addr:city": "Tulsa", "addr:country": "US", "addr:housenumber": "1148", "addr:postcode": "74108", "addr:state": "OK", "addr:street": "South 133rd Avenue East", "building": "detached"}}}, {"type": "Feature", "geometry": {"type": "Polygon", "coordinates": [[[-95.8305947, 36.1463537], [-95.8306698, 36.1463547], [-95.8306694, 36.1463696], [-95.8306822, 36.1463698], [-95.8306813, 36.1464088], [-95.8306686, 36.1464086], [-95.8306681, 36.1464303], [-95.830593, 36.1464292], [-95.8305947, 36.1463537]]]}, "properties": {"osm_id": 744370301, "building": "yes", "name": "", "height": null, "height_m": null, "levels": null, "tract_id": "40143007311", "tract_name": "73.11", "tags": {"building": "yes"}}}, {"type": "Feature", "geometry": {"type": "Polygon", "coordinates": [[[-95.830819, 36.1464075], [-95.8308175, 36.1464728], [-95.8308516, 36.1464733], [-95.8308503, 36.1465288], [-95.8307218, 36.1465269], [-95.8307244, 36.1464062], [-95.830819, 36.1464075]]]}, "properties": {"osm_id": 744370302, "building": "yes", "name": "", "height": null, "height_m": null, "levels": null, "tract_id": "40143007311", "tract_name": "73.11", "tags": {"building": "yes"}}}, {"type": "Feature", "geometry": {"type": "Polygon", "coordinates": [[[-95.8322697, 36.1455127], [-95.8322811, 36.1453698], [-95.8324285, 36.1453775], [-95.8324171, 36.1455204], [-95.8322697, 36.1455127]]]}, "properties": {"osm_id": 744370303, "building": "yes", "name": "", "height": null, "height_m": null, "levels": null, "tract_id": "40143007311", "tract_name": "73.11", "tags": {"building": "yes"}}}, {"type": "Feature", "geometry": {"type": "Polygon", "coordinates": [[[-95.8326264, 36.1455734], [-95.8326269, 36.145518], [-95.8327335, 36.1455185], [-95.8327331, 36.1455739], [-95.8326264, 36.1455734]]]}, "properties": {"osm_id": 744370304, "building": "yes", "name": "", "height": null, "height_m": null, "levels": null, "tract_id": "40143007311", "tract_name": "73.11", "tags": {"building": "yes"}}}, {"type": "Feature", "geometry": {"type": "Polygon", "coordinates": [[[-95.8327874, 36.1454288], [-95.8329315, 36.1454245], [-95.8329327, 36.1454721], [-95.8329255, 36.1454722], [-95.8329291, 36.1455688], [-95.8328057, 36.1455713], [-95.8328021, 36.1454771], [-95.8327899, 36.1454775], [-95.8327874, 36.1454288]]]}, "properties": {"osm_id": 744370305, "building": "yes", "name": "", "height": null, "height_m": null, "levels": null, "tract_id": "40143007311", "tract_name": "73.11", "tags": {"addr:city": "Tulsa", "addr:country": "US", "addr:housenumber": "1217", "addr:postcode": "74108", "addr:state": "OK", "addr:street": "South 129th Avenue East", "building": "yes"}}}, {"type": "Feature", "geometry": {"type": "Polygon", "coordinates": [[[-95.8313967, 36.1423274], [-95.8313466, 36.1423295], [-95.8313439, 36.1422884], [-95.831394, 36.1422862], [-95.8313967, 36.1423274]]]}, "properties": {"osm_id": 744373963, "building": "yes", "name": "", "height": null, "height_m": null, "levels": null, "tract_id": "40143007311", "tract_name": "73.11", "tags": {"building": "yes"}}}, {"type": "Feature", "geometry": {"type": "Polygon", "coordinates": [[[-95.8316233, 36.1422058], [-95.8319155, 36.1422068], [-95.831915, 36.142312], [-95.8318261, 36.1423117], [-95.8318263, 36.1422901], [-95.8317984, 36.14229], [-95.8317983, 36.1423057], [-95.8317138, 36.1423054], [-95.8317138, 36.1423083], [-95.8316228, 36.142308], [-95.8316233, 36.1422058]]]}, "properties": {"osm_id": 744373964, "building": "yes", "name": "", "height": null, "height_m": null, "levels": null, "tract_id": "40143007311", "tract_name": "73.11", "tags": {"building": "yes"}}}, {"type": "Feature", "geometry": {"type": "Polygon", "coordinates": [[[-95.8326218, 36.1427351], [-95.8326952, 36.1427354], [-95.8326952, 36.1427328], [-95.8327753, 36.142733], [-95.8327753, 36.1427383], [-95.832802, 36.1427384], [-95.8328017, 36.1427997], [-95.8327763, 36.1427996], [-95.8327763, 36.1428043], [-95.8326938, 36.142804], [-95.8326938, 36.1427993], [-95.8326214, 36.142799], [-95.8326218, 36.1427351]]]}, "properties": {"osm_id": 744373965, "building": "detached", "name": "", "height": null, "height_m": null, "levels": null, "tract_id": "40143007311", "tract_name": "73.11", "tags": {"addr:city": "Tulsa", "addr:country": "US", "addr:housenumber": "1345", "addr:postcode": "74108", "addr:state": "OK", "addr:street": "South 129th Avenue East", "building": "detached"}}}, {"type": "Feature", "geometry": {"type": "Polygon", "coordinates": [[[-95.8325517, 36.1427422], [-95.8324685, 36.1427412], [-95.8324698, 36.1426676], [-95.832553, 36.1426685], [-95.8325517, 36.1427422]]]}, "properties": {"osm_id": 744373966, "building": "yes", "name": "", "height": null, "height_m": null, "levels": null, "tract_id": "40143007311", "tract_name": "73.11", "tags": {"building": "yes"}}}, {"type": "Feature", "geometry": {"type": "Polygon", "coordinates": [[[-95.8325581, 36.1427527], [-95.8326017, 36.1427546], [-95.8325984, 36.142805], [-95.8325547, 36.1428031], [-95.8325581, 36.1427527]]]}, "properties": {"osm_id": 744373967, "building": "yes", "name": "", "height": null, "height_m": null, "levels": null, "tract_id": "40143007311", "tract_name": "73.11", "tags": {"building": "yes"}}}, {"type": "Feature", "geometry": {"type": "Polygon", "coordinates": [[[-95.8323716, 36.1428962], [-95.8324297, 36.142898], [-95.8324271, 36.1429549], [-95.832369, 36.1429531], [-95.8323716, 36.1428962]]]}, "properties": {"osm_id": 744373968, "building": "yes", "name": "", "height": null, "height_m": null, "levels": null, "tract_id": "40143007311", "tract_name": "73.11", "tags": {"building": "yes"}}}, {"type": "Feature", "geometry": {"type": "Polygon", "coordinates": [[[-95.8325413, 36.1431811], [-95.8325448, 36.1431243], [-95.832611, 36.143127], [-95.8326145, 36.1430705], [-95.8326818, 36.1430733], [-95.8326747, 36.1431865], [-95.8325413, 36.1431811]]]}, "properties": {"osm_id": 744373969, "building": "yes", "name": "", "height": null, "height_m": null, "levels": null, "tract_id": "40143007311", "tract_name": "73.11", "tags": {"building": "yes"}}}, {"type": "Feature", "geometry": {"type": "Polygon", "coordinates": [[[-95.8322489, 36.1431507], [-95.8323649, 36.1431535], [-95.8323629, 36.1432113], [-95.8322469, 36.1432086], [-95.8322489, 36.1431507]]]}, "properties": {"osm_id": 744373970, "building": "yes", "name": "", "height": null, "height_m": null, "levels": null, "tract_id": "40143007311", "tract_name": "73.11", "tags": {"building": "yes"}}}, {"type": "Feature", "geometry": {"type": "Polygon", "coordinates": [[[-95.8321001, 36.1429382], [-95.8321036, 36.1429871], [-95.8320338, 36.1429903], [-95.8320303, 36.1429415], [-95.8321001, 36.1429382]]]}, "properties": {"osm_id": 744373971, "building": "yes", "name": "", "height": null, "height_m": null, "levels": null, "tract_id": "40143007311", "tract_name": "73.11", "tags": {"building": "yes"}}}, {"type": "Feature", "geometry": {"type": "Polygon", "coordinates": [[[-95.8320156, 36.1429739], [-95.8319318, 36.1429741], [-95.8319317, 36.1429591], [-95.8318624, 36.1429592], [-95.8318619, 36.1427924], [-95.8319309, 36.1427922], [-95.8319307, 36.1427517], [-95.831977, 36.1427516], [-95.831977, 36.1427566], [-95.8320149, 36.1427565], [-95.8320156, 36.1429739]]]}, "properties": {"osm_id": 744373972, "building": "yes", "name": "", "height": null, "height_m": null, "levels": null, "tract_id": "40143007311", "tract_name": "73.11", "tags": {"building": "yes"}}}, {"type": "Feature", "geometry": {"type": "Polygon", "coordinates": [[[-95.8315945, 36.1429333], [-95.8315945, 36.1429084], [-95.8316471, 36.1429084], [-95.8316471, 36.1429333], [-95.8315945, 36.1429333]]]}, "properties": {"osm_id": 744373973, "building": "yes", "name": "", "height": null, "height_m": null, "levels": null, "tract_id": "40143007311", "tract_name": "73.11", "tags": {"building": "yes"}}}, {"type": "Feature", "geometry": {"type": "Polygon", "coordinates": [[[-95.8303365, 36.1432233], [-95.8302986, 36.1432235], [-95.8302983, 36.1431756], [-95.8303362, 36.1431754], [-95.8303365, 36.1432233]]]}, "properties": {"osm_id": 744373974, "building": "yes", "name": "", "height": null, "height_m": null, "levels": null, "tract_id": "40143007311", "tract_name": "73.11", "tags": {"building": "yes"}}}, {"type": "Feature", "geometry": {"type": "Polygon", "coordinates": [[[-95.8307315, 36.1442175], [-95.8305866, 36.1442175], [-95.8305866, 36.1442083], [-95.8305414, 36.1442083], [-95.8305414, 36.1441393], [-95.8305856, 36.1441393], [-95.8305856, 36.1441184], [-95.8305474, 36.1441184], [-95.8305474, 36.1440526], [-95.8306909, 36.1440526], [-95.8306909, 36.1440976], [-95.830713, 36.1440976], [-95.830713, 36.1441455], [-95.8307315, 36.1441455], [-95.8307315, 36.1442175]]]}, "properties": {"osm_id": 744373975, "building": "yes", "name": "", "height": null, "height_m": null, "levels": null, "tract_id": "40143007311", "tract_name": "73.11", "tags": {"building": "yes"}}}, {"type": "Feature", "geometry": {"type": "Polygon", "coordinates": [[[-95.830414, 36.1442356], [-95.8302765, 36.1442367], [-95.8302757, 36.1441745], [-95.8304132, 36.1441734], [-95.830414, 36.1442356]]]}, "properties": {"osm_id": 744373976, "building": "yes", "name": "", "height": null, "height_m": null, "levels": null, "tract_id": "40143007311", "tract_name": "73.11", "tags": {"building": "yes"}}}, {"type": "Feature", "geometry": {"type": "Polygon", "coordinates": [[[-95.830368, 36.1423585], [-95.8303067, 36.1423583], [-95.830307, 36.1422995], [-95.8303157, 36.1422995], [-95.830316, 36.142241], [-95.8303596, 36.1422411], [-95.8303593, 36.1422997], [-95.8303683, 36.1422997], [-95.830368, 36.1423585]]]}, "properties": {"osm_id": 744373977, "building": "yes", "name": "", "height": null, "height_m": null, "levels": null, "tract_id": "40143007311", "tract_name": "73.11", "tags": {"building": "yes"}}}, {"type": "Feature", "geometry": {"type": "Polygon", "coordinates": [[[-95.8299402, 36.1423623], [-95.8299407, 36.1422678], [-95.830079, 36.1422682], [-95.8300791, 36.1422512], [-95.83013, 36.1422514], [-95.8301301, 36.1422312], [-95.8302641, 36.1422316], [-95.8302634, 36.1423634], [-95.8301307, 36.142363], [-95.8301308, 36.142343], [-95.8300429, 36.1423427], [-95.8300428, 36.1423627], [-95.8299402, 36.1423623]]]}, "properties": {"osm_id": 744373978, "building": "yes", "name": "", "height": null, "height_m": null, "levels": null, "tract_id": "40143007311", "tract_name": "73.11", "tags": {"building": "yes"}}}, {"type": "Feature", "geometry": {"type": "Polygon", "coordinates": [[[-95.8291805, 36.1421717], [-95.8291781, 36.1421937], [-95.8292277, 36.1421972], [-95.8292202, 36.1422686], [-95.8291706, 36.1422652], [-95.8291655, 36.1423136], [-95.8290294, 36.1423042], [-95.8290344, 36.1422571], [-95.8290055, 36.1422551], [-95.8290155, 36.1421603], [-95.8291805, 36.1421717]]]}, "properties": {"osm_id": 744373979, "building": "yes", "name": "", "height": null, "height_m": null, "levels": null, "tract_id": "40143007311", "tract_name": "73.11", "tags": {"addr:city": "Tulsa", "addr:country": "US", "addr:housenumber": "1406", "addr:postcode": "74108", "addr:state": "OK", "addr:street": "South 133rd Avenue East", "building": "yes"}}}, {"type": "Feature", "geometry": {"type": "Polygon", "coordinates": [[[-95.8284972, 36.1422795], [-95.8284962, 36.1423542], [-95.8284633, 36.1423539], [-95.8284631, 36.1423728], [-95.8284145, 36.1423724], [-95.8284147, 36.1423534], [-95.8283765, 36.1423531], [-95.8283763, 36.1423657], [-95.828264, 36.1423647], [-95.8282652, 36.1422774], [-95.8284972, 36.1422795]]]}, "properties": {"osm_id": 744373980, "building": "yes", "name": "", "height": null, "height_m": null, "levels": null, "tract_id": "40143007311", "tract_name": "73.11", "tags": {"building": "yes"}}}, {"type": "Feature", "geometry": {"type": "Polygon", "coordinates": [[[-95.8285099, 36.1427186], [-95.8285115, 36.1428259], [-95.8284159, 36.1428268], [-95.8284164, 36.142804], [-95.8283926, 36.1427939], [-95.8283651, 36.1427931], [-95.8283641, 36.14272], [-95.8285099, 36.1427186]]]}, "properties": {"osm_id": 744373981, "building": "detached", "name": "", "height": null, "height_m": null, "levels": null, "tract_id": "40143007311", "tract_name": "73.11", "tags": {"addr:city": "Tulsa", "addr:country": "US", "addr:housenumber": "1337", "addr:postcode": "74108", "addr:state": "OK", "addr:street": "South 133rd Avenue East", "building": "detached"}}}, {"type": "Feature", "geometry": {"type": "Polygon", "coordinates": [[[-95.8284321, 36.1430709], [-95.8285486, 36.1430697], [-95.8285504, 36.1431886], [-95.8285446, 36.1431887], [-95.8285449, 36.1432121], [-95.8284521, 36.143213], [-95.8284516, 36.1431785], [-95.8284235, 36.1431787], [-95.8284234, 36.14317], [-95.8283906, 36.1431703], [-95.8283899, 36.14312], [-95.8284329, 36.1431196], [-95.8284321, 36.1430709]]]}, "properties": {"osm_id": 744373982, "building": "detached", "name": "", "height": null, "height_m": null, "levels": null, "tract_id": "40143007311", "tract_name": "73.11", "tags": {"addr:city": "Tulsa", "addr:country": "US", "addr:housenumber": "1335", "addr:postcode": "74108", "addr:state": "OK", "addr:street": "South 133rd Avenue East", "building": "detached"}}}, {"type": "Feature", "geometry": {"type": "Polygon", "coordinates": [[[-95.8285243, 36.1433695], [-95.828412, 36.1433684], [-95.8284129, 36.143307], [-95.8283971, 36.1433068], [-95.8283975, 36.1432845], [-95.8283633, 36.1432842], [-95.8283639, 36.1432444], [-95.8284678, 36.1432454], [-95.8284673, 36.143276], [-95.8284847, 36.1432762], [-95.8284844, 36.1432966], [-95.8285254, 36.143297], [-95.828525, 36.1433235], [-95.8285393, 36.1433236], [-95.828539, 36.1433447], [-95.8285247, 36.1433446], [-95.8285243, 36.1433695]]]}, "properties": {"osm_id": 744373983, "building": "detached", "name": "", "height": null, "height_m": null, "levels": null, "tract_id": "40143007311", "tract_name": "73.11", "tags": {"addr:city": "Tulsa", "addr:country": "US", "addr:housenumber": "1325", "addr:postcode": "74108", "addr:state": "OK", "addr:street": "South 133rd Avenue East", "building": "detached"}}}, {"type": "Feature", "geometry": {"type": "Polygon", "coordinates": [[[-95.8284382, 36.1435255], [-95.828554, 36.1435241], [-95.8285564, 36.1436626], [-95.8285462, 36.1436627], [-95.8285464, 36.1436741], [-95.8285547, 36.143674], [-95.8285552, 36.1437037], [-95.828547, 36.1437038], [-95.8285478, 36.1437533], [-95.8284422, 36.1437545], [-95.8284382, 36.1435255]]]}, "properties": {"osm_id": 744373984, "building": "detached", "name": "", "height": null, "height_m": null, "levels": null, "tract_id": "40143007311", "tract_name": "73.11", "tags": {"addr:city": "Tulsa", "addr:country": "US", "addr:housenumber": "1313", "addr:postcode": "74108", "addr:state": "OK", "addr:street": "South 133rd Avenue East", "building": "detached"}}}, {"type": "Feature", "geometry": {"type": "Polygon", "coordinates": [[[-95.8290638, 36.1435309], [-95.8292013, 36.1435352], [-95.8291979, 36.1436072], [-95.829258, 36.1436091], [-95.8292543, 36.143686], [-95.8291942, 36.1436841], [-95.8291926, 36.1437161], [-95.8290551, 36.1437117], [-95.8290638, 36.1435309]]]}, "properties": {"osm_id": 744373985, "building": "detached", "name": "", "height": null, "height_m": null, "levels": null, "tract_id": "40143007311", "tract_name": "73.11", "tags": {"addr:city": "Tulsa", "addr:country": "US", "addr:housenumber": "1314", "addr:postcode": "74108", "addr:state": "OK", "addr:street": "South 133rd Avenue East", "building": "detached"}}}, {"type": "Feature", "geometry": {"type": "Polygon", "coordinates": [[[-95.8292267, 36.1437431], [-95.8292261, 36.1438217], [-95.8291415, 36.1438212], [-95.8291422, 36.1437427], [-95.8292267, 36.1437431]]]}, "properties": {"osm_id": 744373986, "building": "yes", "name": "", "height": null, "height_m": null, "levels": null, "tract_id": "40143007311", "tract_name": "73.11", "tags": {"building": "yes"}}}, {"type": "Feature", "geometry": {"type": "Polygon", "coordinates": [[[-95.8290001, 36.1429228], [-95.8291128, 36.1429222], [-95.8291132, 36.1429872], [-95.8290006, 36.1429877], [-95.8290001, 36.1429228]]]}, "properties": {"osm_id": 744373987, "building": "yes", "name": "", "height": null, "height_m": null, "levels": null, "tract_id": "40143007311", "tract_name": "73.11", "tags": {"building": "yes"}}}, {"type": "Feature", "geometry": {"type": "Polygon", "coordinates": [[[-95.828923, 36.142711], [-95.8290362, 36.1427181], [-95.8290215, 36.142873], [-95.8289082, 36.1428659], [-95.828923, 36.142711]]]}, "properties": {"osm_id": 744373988, "building": "detached", "name": "", "height": null, "height_m": null, "levels": null, "tract_id": "40143007311", "tract_name": "73.11", "tags": {"addr:city": "Tulsa", "addr:country": "US", "addr:housenumber": "1316", "addr:postcode": "74108", "addr:state": "OK", "addr:street": "South 133rd Avenue East", "building": "detached"}}}, {"type": "Feature", "geometry": {"type": "Polygon", "coordinates": [[[-95.8293729, 36.1427051], [-95.8293722, 36.1428443], [-95.8293192, 36.1428441], [-95.8293193, 36.1428333], [-95.8291952, 36.1428329], [-95.8291959, 36.1427045], [-95.8293729, 36.1427051]]]}, "properties": {"osm_id": 744373989, "building": "yes", "name": "", "height": null, "height_m": null, "levels": null, "tract_id": "40143007311", "tract_name": "73.11", "tags": {"building": "yes"}}}, {"type": "Feature", "geometry": {"type": "Polygon", "coordinates": [[[-95.8296519, 36.1427787], [-95.8294903, 36.1427782], [-95.8294906, 36.1427127], [-95.8295875, 36.142713], [-95.8295876, 36.1426964], [-95.8296218, 36.1426965], [-95.8296217, 36.1427131], [-95.8296522, 36.1427132], [-95.8296519, 36.1427787]]]}, "properties": {"osm_id": 744373990, "building": "yes", "name": "", "height": null, "height_m": null, "levels": null, "tract_id": "40143007311", "tract_name": "73.11", "tags": {"building": "yes"}}}, {"type": "Feature", "geometry": {"type": "Polygon", "coordinates": [[[-95.829493, 36.1428367], [-95.8295774, 36.1428367], [-95.8295774, 36.1428713], [-95.829493, 36.1428713], [-95.829493, 36.1428367]]]}, "properties": {"osm_id": 744373991, "building": "yes", "name": "", "height": null, "height_m": null, "levels": null, "tract_id": "40143007311", "tract_name": "73.11", "tags": {"building": "yes"}}}, {"type": "Feature", "geometry": {"type": "Polygon", "coordinates": [[[-95.8300998, 36.1429569], [-95.8300163, 36.1429574], [-95.830016, 36.1429228], [-95.8300995, 36.1429222], [-95.8300998, 36.1429569]]]}, "properties": {"osm_id": 744373992, "building": "yes", "name": "", "height": null, "height_m": null, "levels": null, "tract_id": "40143007311", "tract_name": "73.11", "tags": {"building": "yes"}}}, {"type": "Feature", "geometry": {"type": "Polygon", "coordinates": [[[-95.8301997, 36.1427045], [-95.8302011, 36.1428367], [-95.8301172, 36.1428372], [-95.8301177, 36.1428874], [-95.8300073, 36.1428881], [-95.8300065, 36.1428119], [-95.83003, 36.1428118], [-95.8300292, 36.1427332], [-95.8301083, 36.1427327], [-95.830108, 36.1427052], [-95.8301997, 36.1427045]]]}, "properties": {"osm_id": 744373993, "building": "yes", "name": "", "height": null, "height_m": null, "levels": null, "tract_id": "40143007311", "tract_name": "73.11", "tags": {"building": "yes"}}}, {"type": "Feature", "geometry": {"type": "Polygon", "coordinates": [[[-95.8306476, 36.1427024], [-95.830702, 36.1427024], [-95.830702, 36.1426981], [-95.8308119, 36.1426981], [-95.8308119, 36.1427749], [-95.8306476, 36.1427749], [-95.8306476, 36.1427024]]]}, "properties": {"osm_id": 744373994, "building": "yes", "name": "", "height": null, "height_m": null, "levels": null, "tract_id": "40143007311", "tract_name": "73.11", "tags": {"building": "yes"}}}, {"type": "Feature", "geometry": {"type": "Polygon", "coordinates": [[[-95.8305202, 36.1428118], [-95.8303472, 36.1428118], [-95.8303472, 36.1427051], [-95.8304036, 36.1427051], [-95.8304036, 36.1427452], [-95.8304364, 36.1427452], [-95.8304364, 36.1427349], [-95.830476, 36.1427349], [-95.830476, 36.1427452], [-95.8305202, 36.1427452], [-95.8305202, 36.1428118]]]}, "properties": {"osm_id": 744373995, "building": "yes", "name": "", "height": null, "height_m": null, "levels": null, "tract_id": "40143007311", "tract_name": "73.11", "tags": {"building": "yes"}}}, {"type": "Feature", "geometry": {"type": "Polygon", "coordinates": [[[-95.8305699, 36.1429314], [-95.8305699, 36.1430056], [-95.8304358, 36.1430056], [-95.8304358, 36.1429314], [-95.8305699, 36.1429314]]]}, "properties": {"osm_id": 744373996, "building": "yes", "name": "", "height": null, "height_m": null, "levels": null, "tract_id": "40143007311", "tract_name": "73.11", "tags": {"building": "yes"}}}, {"type": "Feature", "geometry": {"type": "Polygon", "coordinates": [[[-95.8306979, 36.1430912], [-95.8307858, 36.1430912], [-95.8307858, 36.1431296], [-95.8307905, 36.1431296], [-95.8307905, 36.1432244], [-95.8306979, 36.1432244], [-95.8306979, 36.1430912]]]}, "properties": {"osm_id": 744373997, "building": "yes", "name": "", "height": null, "height_m": null, "levels": null, "tract_id": "40143007311", "tract_name": "73.11", "tags": {"building": "yes"}}}, {"type": "Feature", "geometry": {"type": "Polygon", "coordinates": [[[-95.8306409, 36.1432986], [-95.8307851, 36.1432997], [-95.8307846, 36.1433408], [-95.830815, 36.143341], [-95.8308143, 36.1434066], [-95.8307839, 36.1434063], [-95.8307836, 36.1434344], [-95.8307, 36.1434337], [-95.8307006, 36.1433781], [-95.83064, 36.1433776], [-95.8306409, 36.1432986]]]}, "properties": {"osm_id": 744373998, "building": "yes", "name": "", "height": null, "height_m": null, "levels": null, "tract_id": "40143007311", "tract_name": "73.11", "tags": {"building": "yes"}}}, {"type": "Feature", "geometry": {"type": "Polygon", "coordinates": [[[-95.8304425, 36.1433733], [-95.8304425, 36.143434], [-95.8303647, 36.143434], [-95.8303647, 36.1433733], [-95.8304425, 36.1433733]]]}, "properties": {"osm_id": 744373999, "building": "yes", "name": "", "height": null, "height_m": null, "levels": null, "tract_id": "40143007311", "tract_name": "73.11", "tags": {"building": "yes"}}}, {"type": "Feature", "geometry": {"type": "Polygon", "coordinates": [[[-95.8300523, 36.1431517], [-95.8300708, 36.1431628], [-95.8300729, 36.1431606], [-95.8301492, 36.1432067], [-95.8300755, 36.1432863], [-95.8299999, 36.1432406], [-95.8300466, 36.1431903], [-95.8300273, 36.1431786], [-95.8300523, 36.1431517]]]}, "properties": {"osm_id": 744374000, "building": "yes", "name": "", "height": null, "height_m": null, "levels": null, "tract_id": "40143007311", "tract_name": "73.11", "tags": {"building": "yes"}}}, {"type": "Feature", "geometry": {"type": "Polygon", "coordinates": [[[-95.8298537, 36.1433787], [-95.8298533, 36.1434382], [-95.8297464, 36.1434377], [-95.8297469, 36.1433782], [-95.8298537, 36.1433787]]]}, "properties": {"osm_id": 744374001, "building": "yes", "name": "", "height": null, "height_m": null, "levels": null, "tract_id": "40143007311", "tract_name": "73.11", "tags": {"building": "yes"}}}, {"type": "Feature", "geometry": {"type": "Polygon", "coordinates": [[[-95.8301501, 36.1434318], [-95.8301143, 36.1434316], [-95.8301146, 36.1433933], [-95.8301504, 36.1433935], [-95.8301501, 36.1434318]]]}, "properties": {"osm_id": 744374002, "building": "yes", "name": "", "height": null, "height_m": null, "levels": null, "tract_id": "40143007311", "tract_name": "73.11", "tags": {"building": "yes"}}}, {"type": "Feature", "geometry": {"type": "Polygon", "coordinates": [[[-95.8298577, 36.1435997], [-95.8297858, 36.1435993], [-95.829786, 36.1435764], [-95.8298579, 36.1435767], [-95.8298577, 36.1435997]]]}, "properties": {"osm_id": 744374003, "building": "yes", "name": "", "height": null, "height_m": null, "levels": null, "tract_id": "40143007311", "tract_name": "73.11", "tags": {"building": "yes"}}}, {"type": "Feature", "geometry": {"type": "Polygon", "coordinates": [[[-95.8298463, 36.1436592], [-95.8297737, 36.1436589], [-95.8297739, 36.1436311], [-95.8298465, 36.1436314], [-95.8298463, 36.1436592]]]}, "properties": {"osm_id": 744374004, "building": "yes", "name": "", "height": null, "height_m": null, "levels": null, "tract_id": "40143007311", "tract_name": "73.11", "tags": {"building": "yes"}}}, {"type": "Feature", "geometry": {"type": "Polygon", "coordinates": [[[-95.8298504, 36.1438764], [-95.8297328, 36.1438758], [-95.8297337, 36.1437561], [-95.8298512, 36.1437567], [-95.8298504, 36.1438764]]]}, "properties": {"osm_id": 744374005, "building": "yes", "name": "", "height": null, "height_m": null, "levels": null, "tract_id": "40143007311", "tract_name": "73.11", "tags": {"building": "yes"}}}, {"type": "Feature", "geometry": {"type": "Polygon", "coordinates": [[[-95.8298926, 36.1440101], [-95.8299847, 36.1440105], [-95.8299831, 36.1442343], [-95.829891, 36.1442339], [-95.8298926, 36.1440101]]]}, "properties": {"osm_id": 744374006, "building": "yes", "name": "", "height": null, "height_m": null, "levels": null, "tract_id": "40143007311", "tract_name": "73.11", "tags": {"building": "yes"}}}, {"type": "Feature", "geometry": {"type": "Polygon", "coordinates": [[[-95.8296371, 36.144035], [-95.8296379, 36.1439252], [-95.8297022, 36.1439255], [-95.8297024, 36.1438974], [-95.8297862, 36.1438978], [-95.829786, 36.1439259], [-95.8298699, 36.1439262], [-95.8298691, 36.1440361], [-95.8296371, 36.144035]]]}, "properties": {"osm_id": 744374007, "building": "yes", "name": "", "height": null, "height_m": null, "levels": null, "tract_id": "40143007311", "tract_name": "73.11", "tags": {"building": "yes"}}}, {"type": "Feature", "geometry": {"type": "Polygon", "coordinates": [[[-95.8157634, 36.1478413], [-95.8158814, 36.1478413], [-95.8158828, 36.1476973], [-95.8157647, 36.1476973], [-95.8157634, 36.1478413]]]}, "properties": {"osm_id": 819561462, "building": "roof", "name": "", "height": null, "height_m": null, "levels": null, "tract_id": "40143007311", "tract_name": "73.11", "tags": {"building": "roof", "layer": "1"}}}, {"type": "Feature", "geometry": {"type": "Polygon", "coordinates": [[[-95.8159846, 36.1483113], [-95.8159887, 36.1485095], [-95.816332, 36.1485084], [-95.8163333, 36.1483113], [-95.8159846, 36.1483113]]]}, "properties": {"osm_id": 819561468, "building": "yes", "name": "Tulsa Fire Station 66", "height": null, "height_m": null, "levels": null, "tract_id": "40143007311", "tract_name": "73.11", "tags": {"addr:city": "Tulsa", "addr:country": "US", "addr:housenumber": "14333", "addr:postcode": "74108", "addr:state": "OK", "addr:street": "East 11th Street South", "amenity": "fire_station", "building": "yes", "name": "Tulsa Fire Station 66"}}}, {"type": "Feature", "geometry": {"type": "Polygon", "coordinates": [[[-95.8160557, 36.1476843], [-95.8160571, 36.147759], [-95.8162234, 36.147759], [-95.816222, 36.1476832], [-95.8160557, 36.1476843]]]}, "properties": {"osm_id": 819561473, "building": "detached", "name": "", "height": null, "height_m": null, "levels": null, "tract_id": "40143007311", "tract_name": "73.11", "tags": {"building": "detached"}}}, {"type": "Feature", "geometry": {"type": "Polygon", "coordinates": [[[-95.8165077, 36.1476875], [-95.8165077, 36.1476204], [-95.8163669, 36.1476215], [-95.8163709, 36.147759], [-95.8164822, 36.1477569], [-95.8164822, 36.1477763], [-95.8165627, 36.1477774], [-95.816564, 36.1477579], [-95.8166887, 36.147759], [-95.8166887, 36.1476875], [-95.8165077, 36.1476875]]]}, "properties": {"osm_id": 819561475, "building": "detached", "name": "", "height": null, "height_m": null, "levels": null, "tract_id": "40143007311", "tract_name": "73.11", "tags": {"building": "detached"}}}, {"type": "Feature", "geometry": {"type": "Polygon", "coordinates": [[[-95.8168054, 36.1474525], [-95.816902, 36.1474547], [-95.816902, 36.1473529], [-95.8168054, 36.147354], [-95.8168054, 36.1474525]]]}, "properties": {"osm_id": 819561480, "building": "yes", "name": "", "height": null, "height_m": null, "levels": null, "tract_id": "40143007311", "tract_name": "73.11", "tags": {"building": "yes"}}}, {"type": "Feature", "geometry": {"type": "Polygon", "coordinates": [[[-95.8168724, 36.1476572], [-95.8168738, 36.1476821], [-95.8168175, 36.1476843], [-95.8168161, 36.1477536], [-95.816851, 36.1477547], [-95.816851, 36.147772], [-95.8169462, 36.1477753], [-95.8169476, 36.1477569], [-95.8169824, 36.1477569], [-95.8169838, 36.1476583], [-95.8168724, 36.1476572]]]}, "properties": {"osm_id": 819561481, "building": "detached", "name": "", "height": null, "height_m": null, "levels": null, "tract_id": "40143007311", "tract_name": "73.11", "tags": {"building": "detached"}}}, {"type": "Feature", "geometry": {"type": "Polygon", "coordinates": [[[-95.8172252, 36.1485463], [-95.8172372, 36.1484673], [-95.8171514, 36.1484597], [-95.8171407, 36.1485387], [-95.8172252, 36.1485463]]]}, "properties": {"osm_id": 819561484, "building": "yes", "name": "", "height": null, "height_m": null, "levels": null, "tract_id": "40143007311", "tract_name": "73.11", "tags": {"building": "yes"}}}, {"type": "Feature", "geometry": {"type": "Polygon", "coordinates": [[[-95.8172345, 36.1487575], [-95.8172453, 36.1487467], [-95.817193, 36.1487196], [-95.8171232, 36.1487965], [-95.8172399, 36.1488701], [-95.8172533, 36.148856], [-95.81737, 36.1489253], [-95.817433, 36.1488614], [-95.8173646, 36.148817], [-95.8173539, 36.1488268], [-95.8172345, 36.1487575]]]}, "properties": {"osm_id": 819561485, "building": "detached", "name": "", "height": null, "height_m": null, "levels": null, "tract_id": "40143007311", "tract_name": "73.11", "tags": {"building": "detached"}}}, {"type": "Feature", "geometry": {"type": "Polygon", "coordinates": [[[-95.8171219, 36.149496], [-95.8172962, 36.149495], [-95.8172949, 36.1492968], [-95.8171192, 36.1493], [-95.8171219, 36.149496]]]}, "properties": {"osm_id": 819561487, "building": "yes", "name": "", "height": null, "height_m": null, "levels": null, "tract_id": "40143007311", "tract_name": "73.11", "tags": {"building": "yes"}}}, {"type": "Feature", "geometry": {"type": "Polygon", "coordinates": [[[-95.8174558, 36.1477558], [-95.8174116, 36.1477558], [-95.8174116, 36.1477709], [-95.817378, 36.147772], [-95.817378, 36.1477569], [-95.8173016, 36.1477558], [-95.8172976, 36.1476085], [-95.8173834, 36.1476096], [-95.8173834, 36.1476291], [-95.8174303, 36.1476312], [-95.817429, 36.1476789], [-95.8174572, 36.1476789], [-95.8174558, 36.1477558]]]}, "properties": {"osm_id": 819561489, "building": "detached", "name": "", "height": null, "height_m": null, "levels": null, "tract_id": "40143007311", "tract_name": "73.11", "tags": {"building": "detached"}}}, {"type": "Feature", "geometry": {"type": "Polygon", "coordinates": [[[-95.8180312, 36.1475522], [-95.8179078, 36.1475522], [-95.8179078, 36.1476496], [-95.8178287, 36.1476496], [-95.8178313, 36.1477547], [-95.8179279, 36.1477558], [-95.8179279, 36.1478337], [-95.8180298, 36.1478327], [-95.8180312, 36.1475522]]]}, "properties": {"osm_id": 819561491, "building": "detached", "name": "", "height": null, "height_m": null, "levels": null, "tract_id": "40143007311", "tract_name": "73.11", "tags": {"building": "detached"}}}, {"type": "Feature", "geometry": {"type": "Polygon", "coordinates": [[[-95.8179668, 36.1482236], [-95.8179668, 36.1482832], [-95.8180392, 36.1482832], [-95.8180392, 36.1484023], [-95.8181478, 36.1484034], [-95.8181478, 36.1482821], [-95.81818, 36.1482821], [-95.8181787, 36.1482214], [-95.8179668, 36.1482236]]]}, "properties": {"osm_id": 819561493, "building": "detached", "name": "", "height": null, "height_m": null, "levels": null, "tract_id": "40143007311", "tract_name": "73.11", "tags": {"building": "detached"}}}, {"type": "Feature", "geometry": {"type": "Polygon", "coordinates": [[[-95.8186333, 36.148216], [-95.8186414, 36.1483211], [-95.8187513, 36.1483211], [-95.8187513, 36.1482799], [-95.8187835, 36.1482799], [-95.8187835, 36.1482983], [-95.8188492, 36.1482972], [-95.8188492, 36.1482279], [-95.8187862, 36.148229], [-95.8187862, 36.1482171], [-95.8186333, 36.148216]]]}, "properties": {"osm_id": 819561495, "building": "detached", "name": "", "height": null, "height_m": null, "levels": null, "tract_id": "40143007311", "tract_name": "73.11", "tags": {"building": "detached"}}}, {"type": "Feature", "geometry": {"type": "Polygon", "coordinates": [[[-95.818919, 36.1483286], [-95.8190383, 36.1483286], [-95.819041, 36.148216], [-95.8190035, 36.1482182], [-95.8190035, 36.1482301], [-95.818919, 36.1482301], [-95.818919, 36.1483286]]]}, "properties": {"osm_id": 819561496, "building": "yes", "name": "", "height": null, "height_m": null, "levels": null, "tract_id": "40143007311", "tract_name": "73.11", "tags": {"building": "yes"}}}, {"type": "Feature", "geometry": {"type": "Polygon", "coordinates": [[[-95.818341, 36.1476269], [-95.818341, 36.1476778], [-95.8182511, 36.1476789], [-95.8182524, 36.1477514], [-95.8183329, 36.1477514], [-95.8183329, 36.1477634], [-95.8183544, 36.1477634], [-95.8183544, 36.1477504], [-95.8184804, 36.1477525], [-95.8184804, 36.1476291], [-95.818341, 36.1476269]]]}, "properties": {"osm_id": 819561499, "building": "detached", "name": "", "height": null, "height_m": null, "levels": null, "tract_id": "40143007311", "tract_name": "73.11", "tags": {"building": "detached"}}}, {"type": "Feature", "geometry": {"type": "Polygon", "coordinates": [[[-95.8185971, 36.147719], [-95.8185958, 36.1476172], [-95.8188291, 36.1476182], [-95.8188278, 36.147719], [-95.8185971, 36.147719]]]}, "properties": {"osm_id": 819561501, "building": "detached", "name": "", "height": null, "height_m": null, "levels": null, "tract_id": "40143007311", "tract_name": "73.11", "tags": {"building": "detached"}}}, {"type": "Feature", "geometry": {"type": "Polygon", "coordinates": [[[-95.8193414, 36.1477666], [-95.8193427, 36.1476527], [-95.8195921, 36.1476527], [-95.8195922, 36.1476464], [-95.8195922, 36.1477655], [-95.8193414, 36.1477666]]]}, "properties": {"osm_id": 819561502, "building": "church", "name": "Church of Christ Services", "height": null, "height_m": null, "levels": null, "tract_id": "40143007311", "tract_name": "73.11", "tags": {"addr:city": "Tulsa", "addr:country": "US", "addr:housenumber": "1105", "addr:postcode": "74108", "addr:state": "OK", "addr:street": "South 141st Avenue East", "amenity": "place_of_worship", "building": "church", "name": "Church of Christ Services", "religion": "christian"}}}, {"type": "Feature", "geometry": {"type": "Polygon", "coordinates": [[[-95.8196365, 36.1486275], [-95.819564, 36.1486286], [-95.819564, 36.1486687], [-95.8195158, 36.1486698], [-95.8195184, 36.1487293], [-95.8195614, 36.1487293], [-95.81956, 36.1488019], [-95.8196365, 36.1488019], [-95.8196365, 36.1487759], [-95.8196512, 36.1487759], [-95.8196512, 36.148738], [-95.8196646, 36.148738], [-95.8196633, 36.1486687], [-95.8196365, 36.1486687], [-95.8196365, 36.1486275]]]}, "properties": {"osm_id": 819561506, "building": "detached", "name": "", "height": null, "height_m": null, "levels": null, "tract_id": "40143007311", "tract_name": "73.11", "tags": {"building": "detached"}}}, {"type": "Feature", "geometry": {"type": "Polygon", "coordinates": [[[-95.8195721, 36.1490001], [-95.8195748, 36.1488809], [-95.8196901, 36.1488853], [-95.8196888, 36.1489372], [-95.8197357, 36.1489394], [-95.8197317, 36.1490011], [-95.8195721, 36.1490001]]]}, "properties": {"osm_id": 819561507, "building": "barn", "name": "", "height": null, "height_m": null, "levels": null, "tract_id": "40143007311", "tract_name": "73.11", "tags": {"building": "barn"}}}, {"type": "Feature", "geometry": {"type": "Polygon", "coordinates": [[[-95.8202131, 36.1476377], [-95.8202118, 36.147615], [-95.8201421, 36.1476172], [-95.820138, 36.1475305], [-95.8203298, 36.1475262], [-95.8203352, 36.1476334], [-95.8202131, 36.1476377]]]}, "properties": {"osm_id": 819561509, "building": "detached", "name": "", "height": null, "height_m": null, "levels": null, "tract_id": "40143007311", "tract_name": "73.11", "tags": {"building": "detached"}}}, {"type": "Feature", "geometry": {"type": "Polygon", "coordinates": [[[-95.820252, 36.1489015], [-95.820484, 36.1488972], [-95.8204787, 36.1486189], [-95.820244, 36.1486254], [-95.820252, 36.1489015]]]}, "properties": {"osm_id": 819561512, "building": "yes", "name": "New Joy Fellowship", "height": null, "height_m": null, "levels": null, "tract_id": "40143007311", "tract_name": "73.11", "tags": {"amenity": "place_of_worship", "building": "yes", "name": "New Joy Fellowship", "religion": "christian"}}}, {"type": "Feature", "geometry": {"type": "Polygon", "coordinates": [[[-95.8215046, 36.1475587], [-95.821506, 36.1476442], [-95.8214309, 36.1476442], [-95.8214322, 36.1476572], [-95.8213182, 36.1476561], [-95.8213182, 36.1476453], [-95.8212579, 36.1476453], [-95.8212579, 36.1476291], [-95.8212163, 36.147628], [-95.8212163, 36.1475554], [-95.8215046, 36.1475587]]]}, "properties": {"osm_id": 819561514, "building": "detached", "name": "", "height": null, "height_m": null, "levels": null, "tract_id": "40143007311", "tract_name": "73.11", "tags": {"building": "detached"}}}, {"type": "Feature", "geometry": {"type": "Polygon", "coordinates": [[[-95.821797, 36.1477363], [-95.821978, 36.1477341], [-95.8219767, 36.1475457], [-95.8217983, 36.1475478], [-95.821797, 36.1477363]]]}, "properties": {"osm_id": 819561515, "building": "yes", "name": "", "height": null, "height_m": null, "levels": null, "tract_id": "40143007311", "tract_name": "73.11", "tags": {"amenity": "place_of_worship", "building": "yes", "religion": "christian"}}}, {"type": "Feature", "geometry": {"type": "Polygon", "coordinates": [[[-95.8217849, 36.1477341], [-95.821628, 36.1477341], [-95.8216293, 36.147459], [-95.8217836, 36.147458], [-95.821784, 36.1475424], [-95.8217849, 36.1477341]]]}, "properties": {"osm_id": 819561516, "building": "yes", "name": "", "height": null, "height_m": null, "levels": null, "tract_id": "40143007311", "tract_name": "73.11", "tags": {"amenity": "place_of_worship", "building": "yes", "religion": "christian"}}}, {"type": "Feature", "geometry": {"type": "Polygon", "coordinates": [[[-95.8226151, 36.1484359], [-95.8226097, 36.1482171], [-95.8224877, 36.1482182], [-95.822493, 36.1484369], [-95.8226151, 36.1484359]]]}, "properties": {"osm_id": 819561521, "building": "yes", "name": "New Apostolic Church", "height": null, "height_m": null, "levels": null, "tract_id": "40143007311", "tract_name": "73.11", "tags": {"addr:city": "Tulsa", "addr:country": "US", "addr:housenumber": "789", "addr:postcode": "74108", "addr:state": "OK", "addr:street": "South 138th Avenue East", "amenity": "place_of_worship", "building": "yes", "name": "New Apostolic Church", "religion": "christian"}}}, {"type": "Feature", "geometry": {"type": "Polygon", "coordinates": [[[-95.8234747, 36.1483698], [-95.8234626, 36.1482767], [-95.8237282, 36.1482518], [-95.8237402, 36.1483438], [-95.8234747, 36.1483698]]]}, "properties": {"osm_id": 819561523, "building": "detached", "name": "", "height": null, "height_m": null, "levels": null, "tract_id": "40143007311", "tract_name": "73.11", "tags": {"building": "detached"}}}, {"type": "Feature", "geometry": {"type": "Polygon", "coordinates": [[[-95.8237872, 36.1483167], [-95.823928, 36.1482983], [-95.8239387, 36.1483817], [-95.8238837, 36.1483882], [-95.8238811, 36.1483774], [-95.8237993, 36.1483882], [-95.8237872, 36.1483167]]]}, "properties": {"osm_id": 819561524, "building": "garage", "name": "", "height": null, "height_m": null, "levels": null, "tract_id": "40143007311", "tract_name": "73.11", "tags": {"building": "garage"}}}, {"type": "Feature", "geometry": {"type": "Polygon", "coordinates": [[[-95.8253375, 36.1485073], [-95.8254555, 36.1485062], [-95.8254425, 36.1482107], [-95.8254421, 36.1482019], [-95.8253241, 36.1482084], [-95.8253375, 36.1485073]]]}, "properties": {"osm_id": 819579259, "building": "commercial", "name": "", "height": null, "height_m": null, "levels": null, "tract_id": "40143007311", "tract_name": "73.11", "tags": {"building": "commercial"}}}, {"type": "Feature", "geometry": {"type": "Polygon", "coordinates": [[[-95.8254689, 36.148608], [-95.8254676, 36.1487748], [-95.8256996, 36.1487737], [-95.8256983, 36.1486048], [-95.8254689, 36.148608]]]}, "properties": {"osm_id": 819579262, "building": "yes", "name": "", "height": null, "height_m": null, "levels": null, "tract_id": "40143007311", "tract_name": "73.11", "tags": {"building": "yes"}}}, {"type": "Feature", "geometry": {"type": "Polygon", "coordinates": [[[-95.8267993, 36.1476107], [-95.8267993, 36.1475359], [-95.827034, 36.1475349], [-95.8270313, 36.1476085], [-95.8269133, 36.1476107], [-95.8269133, 36.1476691], [-95.8268234, 36.1476691], [-95.8268234, 36.1476107], [-95.8267993, 36.1476107]]]}, "properties": {"osm_id": 819579270, "building": "commercial", "name": "", "height": null, "height_m": null, "levels": null, "tract_id": "40143007311", "tract_name": "73.11", "tags": {"building": "commercial"}}}, {"type": "Feature", "geometry": {"type": "Polygon", "coordinates": [[[-95.826924, 36.1482084], [-95.826924, 36.1481088], [-95.8270608, 36.1481088], [-95.8270595, 36.1482084], [-95.826924, 36.1482084]]]}, "properties": {"osm_id": 819579272, "building": "yes", "name": "", "height": null, "height_m": null, "levels": null, "tract_id": "40143007311", "tract_name": "73.11", "tags": {"building": "yes"}}}, {"type": "Feature", "geometry": {"type": "Polygon", "coordinates": [[[-95.8276254, 36.1489448], [-95.8276241, 36.1488853], [-95.8275543, 36.1488864], [-95.8275543, 36.1488517], [-95.8274444, 36.1488517], [-95.8274444, 36.1488907], [-95.8273921, 36.1488907], [-95.8273948, 36.1489849], [-95.8274538, 36.1489838], [-95.8274551, 36.1489427], [-95.8276254, 36.1489448]]]}, "properties": {"osm_id": 819579274, "building": "yes", "name": "", "height": null, "height_m": null, "levels": null, "tract_id": "40143007311", "tract_name": "73.11", "tags": {"building": "yes"}}}, {"type": "Feature", "geometry": {"type": "Polygon", "coordinates": [[[-95.8283791, 36.1478023], [-95.8283805, 36.1477092], [-95.8283925, 36.1477081], [-95.8283925, 36.1476605], [-95.8283148, 36.1476594], [-95.8283134, 36.1475771], [-95.8285025, 36.147576], [-95.8285025, 36.1476594], [-95.828481, 36.1476605], [-95.828481, 36.1477211], [-95.8286232, 36.1477233], [-95.8286219, 36.1478067], [-95.8283791, 36.1478023]]]}, "properties": {"osm_id": 819579275, "building": "yes", "name": "", "height": null, "height_m": null, "levels": null, "tract_id": "40143007311", "tract_name": "73.11", "tags": {"building": "yes"}}}, {"type": "Feature", "geometry": {"type": "Polygon", "coordinates": [[[-95.8281994, 36.1476269], [-95.8281444, 36.1476215], [-95.8281458, 36.1476052], [-95.828131, 36.147602], [-95.8281391, 36.1475706], [-95.8282088, 36.1475803], [-95.8281994, 36.1476269]]]}, "properties": {"osm_id": 819579276, "building": "yes", "name": "", "height": null, "height_m": null, "levels": null, "tract_id": "40143007311", "tract_name": "73.11", "tags": {"building": "yes"}}}, {"type": "Feature", "geometry": {"type": "Polygon", "coordinates": [[[-95.8282115, 36.1475392], [-95.8282611, 36.1475034], [-95.8283094, 36.1474818], [-95.828363, 36.1474655], [-95.8283402, 36.1474168], [-95.8282812, 36.1474331], [-95.8282209, 36.1474612], [-95.8281699, 36.1475002], [-95.8282115, 36.1475392]]]}, "properties": {"osm_id": 819579277, "building": "yes", "name": "", "height": null, "height_m": null, "levels": null, "tract_id": "40143007311", "tract_name": "73.11", "tags": {"building": "yes"}}}, {"type": "Feature", "geometry": {"type": "Polygon", "coordinates": [[[-95.8283939, 36.1474677], [-95.8284663, 36.1474655], [-95.828465, 36.1474125], [-95.8283899, 36.1474136], [-95.8283939, 36.1474677]]]}, "properties": {"osm_id": 819579278, "building": "yes", "name": "", "height": null, "height_m": null, "levels": null, "tract_id": "40143007311", "tract_name": "73.11", "tags": {"building": "yes"}}}, {"type": "Feature", "geometry": {"type": "Polygon", "coordinates": [[[-95.8284998, 36.1474666], [-95.8285508, 36.1474785], [-95.8286031, 36.1475056], [-95.8286487, 36.1475359], [-95.8286943, 36.1474926], [-95.828646, 36.1474601], [-95.8285789, 36.1474298], [-95.8285186, 36.1474136], [-95.8284998, 36.1474666]]]}, "properties": {"osm_id": 819579279, "building": "yes", "name": "", "height": null, "height_m": null, "levels": null, "tract_id": "40143007311", "tract_name": "73.11", "tags": {"building": "yes"}}}, {"type": "Feature", "geometry": {"type": "Polygon", "coordinates": [[[-95.828355, 36.1495556], [-95.8284609, 36.1495675], [-95.8284837, 36.1494571], [-95.8283764, 36.1494419], [-95.828355, 36.1495556]]]}, "properties": {"osm_id": 819579281, "building": "yes", "name": "", "height": null, "height_m": null, "levels": null, "tract_id": "40143007311", "tract_name": "73.11", "tags": {"building": "yes"}}}, {"type": "Feature", "geometry": {"type": "Polygon", "coordinates": [[[-95.828477, 36.1495773], [-95.8285159, 36.1495805], [-95.828528, 36.1495123], [-95.8285562, 36.1495155], [-95.8285655, 36.1494614], [-95.8284985, 36.1494549], [-95.828477, 36.1495773]]]}, "properties": {"osm_id": 819579282, "building": "yes", "name": "", "height": null, "height_m": null, "levels": null, "tract_id": "40143007311", "tract_name": "73.11", "tags": {"building": "yes"}}}, {"type": "Feature", "geometry": {"type": "Polygon", "coordinates": [[[-95.82887, 36.1485398], [-95.82887, 36.1482646], [-95.8291771, 36.1482629], [-95.8291744, 36.1484066], [-95.8290215, 36.1484066], [-95.8290188, 36.1485398], [-95.82887, 36.1485398]]]}, "properties": {"osm_id": 819579286, "building": "yes", "name": "", "height": null, "height_m": null, "levels": null, "tract_id": "40143007311", "tract_name": "73.11", "tags": {"building": "yes"}}}, {"type": "Feature", "geometry": {"type": "Polygon", "coordinates": [[[-95.828937, 36.1477677], [-95.8291194, 36.1477666], [-95.8291194, 36.1477352], [-95.8291194, 36.1477027], [-95.8290926, 36.1477027], [-95.8290926, 36.1476594], [-95.8290524, 36.1476594], [-95.8290524, 36.1476096], [-95.8289504, 36.1476096], [-95.8289357, 36.1476096], [-95.828937, 36.1477677]]]}, "properties": {"osm_id": 819579287, "building": "commercial", "name": "", "height": null, "height_m": null, "levels": null, "tract_id": "40143007311", "tract_name": "73.11", "tags": {"building": "commercial"}}}, {"type": "Feature", "geometry": {"type": "Polygon", "coordinates": [[[-95.8293699, 36.1478283], [-95.8294574, 36.1478272], [-95.8294566, 36.1477656], [-95.829456, 36.1477157], [-95.8293769, 36.1477178], [-95.8293699, 36.1478283]]]}, "properties": {"osm_id": 819579291, "building": "commercial", "name": "", "height": null, "height_m": null, "levels": null, "tract_id": "40143007311", "tract_name": "73.11", "tags": {"building": "commercial"}}}, {"type": "Feature", "geometry": {"type": "Polygon", "coordinates": [[[-95.829515, 36.1477254], [-95.8297551, 36.1477244], [-95.8297549, 36.1477092], [-95.8297497, 36.1473746], [-95.829723, 36.1473751], [-95.8295083, 36.1473789], [-95.829515, 36.1477254]]]}, "properties": {"osm_id": 819579295, "building": "commercial", "name": "Charlie's Transmission", "height": null, "height_m": null, "levels": null, "tract_id": "40143007311", "tract_name": "73.11", "tags": {"building": "commercial", "name": "Charlie's Transmission"}}}, {"type": "Feature", "geometry": {"type": "Polygon", "coordinates": [[[-95.8304444, 36.1482496], [-95.8304471, 36.1484239], [-95.8306215, 36.1484218], [-95.8306199, 36.148321], [-95.8306188, 36.1482518], [-95.8304444, 36.1482496]]]}, "properties": {"osm_id": 819579298, "building": "commercial", "name": "", "height": null, "height_m": null, "levels": null, "tract_id": "40143007311", "tract_name": "73.11", "tags": {"building": "commercial"}}}, {"type": "Feature", "geometry": {"type": "Polygon", "coordinates": [[[-95.8307703, 36.1486698], [-95.8309406, 36.1486698], [-95.830938, 36.148255], [-95.8307717, 36.1482572], [-95.8307714, 36.1483222], [-95.8307703, 36.1486698]]]}, "properties": {"osm_id": 819579299, "building": "commercial", "name": "", "height": null, "height_m": null, "levels": null, "tract_id": "40143007311", "tract_name": "73.11", "tags": {"building": "commercial"}}}, {"type": "Feature", "geometry": {"type": "Polygon", "coordinates": [[[-95.8312746, 36.1484835], [-95.8311498, 36.1484835], [-95.8311445, 36.1483167], [-95.8311995, 36.1483167], [-95.8311995, 36.1482864], [-95.8311458, 36.1482864], [-95.8311472, 36.1481305], [-95.8311901, 36.1481305], [-95.8311901, 36.1481413], [-95.8313215, 36.1481413], [-95.8313215, 36.1482485], [-95.8313215, 36.148255], [-95.8312893, 36.1482561], [-95.8312893, 36.1482788], [-95.8312357, 36.1482788], [-95.8312357, 36.1483178], [-95.8312732, 36.1483178], [-95.8312746, 36.1484835]]]}, "properties": {"osm_id": 819579302, "building": "commercial", "name": "", "height": null, "height_m": null, "levels": null, "tract_id": "40143007311", "tract_name": "73.11", "tags": {"building": "commercial"}}}, {"type": "Feature", "geometry": {"type": "Polygon", "coordinates": [[[-95.8192492, 36.1516067], [-95.8190691, 36.1516136], [-95.8190678, 36.1515911], [-95.8191095, 36.1515895], [-95.8191084, 36.1515713], [-95.8192468, 36.1515659], [-95.8192492, 36.1516067]]]}, "properties": {"osm_id": 825976346, "building": "yes", "name": "", "height": null, "height_m": null, "levels": null, "tract_id": "40143007311", "tract_name": "73.11", "tags": {"building": "yes"}}}, {"type": "Feature", "geometry": {"type": "Polygon", "coordinates": [[[-95.8188737, 36.1514462], [-95.8187405, 36.1514471], [-95.8187398, 36.1513844], [-95.8187193, 36.1513845], [-95.8187188, 36.1513368], [-95.818739, 36.1513366], [-95.8187382, 36.1512682], [-95.8188381, 36.1512675], [-95.8188391, 36.1513582], [-95.8189051, 36.1513577], [-95.8189056, 36.151403], [-95.8188733, 36.1514032], [-95.8188737, 36.1514462]]]}, "properties": {"osm_id": 825976347, "building": "yes", "name": "", "height": null, "height_m": null, "levels": null, "tract_id": "40143007311", "tract_name": "73.11", "tags": {"building": "yes"}}}, {"type": "Feature", "geometry": {"type": "Polygon", "coordinates": [[[-95.8177349, 36.1514687], [-95.8177349, 36.151401], [-95.8176692, 36.151401], [-95.8176692, 36.1514687], [-95.8177349, 36.1514687]]]}, "properties": {"osm_id": 825976348, "building": "yes", "name": "", "height": null, "height_m": null, "levels": null, "tract_id": "40143007311", "tract_name": "73.11", "tags": {"building": "yes"}}}, {"type": "Feature", "geometry": {"type": "Polygon", "coordinates": [[[-95.8180418, 36.151527], [-95.8180417, 36.1514289], [-95.8181252, 36.1514289], [-95.8181251, 36.1513421], [-95.818223, 36.151342], [-95.8182231, 36.1513901], [-95.81824, 36.1513901], [-95.81824, 36.1514343], [-95.8183335, 36.1514343], [-95.8183335, 36.1514971], [-95.8182442, 36.1514972], [-95.8182442, 36.1515137], [-95.8181269, 36.1515137], [-95.8181269, 36.1515269], [-95.8180418, 36.151527]]]}, "properties": {"osm_id": 825976349, "building": "yes", "name": "", "height": null, "height_m": null, "levels": null, "tract_id": "40143007311", "tract_name": "73.11", "tags": {"building": "yes"}}}, {"type": "Feature", "geometry": {"type": "Polygon", "coordinates": [[[-95.8191835, 36.1512375], [-95.8191383, 36.1512373], [-95.8191385, 36.1512128], [-95.8191429, 36.1512128], [-95.8191432, 36.1511788], [-95.8191807, 36.151179], [-95.8191805, 36.1512129], [-95.8191836, 36.1512129], [-95.8191835, 36.1512375]]]}, "properties": {"osm_id": 825976350, "building": "yes", "name": "", "height": null, "height_m": null, "levels": null, "tract_id": "40143007311", "tract_name": "73.11", "tags": {"building": "yes"}}}, {"type": "Feature", "geometry": {"type": "Polygon", "coordinates": [[[-95.8185974, 36.1512198], [-95.818597, 36.1511566], [-95.8186648, 36.1511563], [-95.8186645, 36.1511128], [-95.8186924, 36.1511127], [-95.818692, 36.1510476], [-95.8187892, 36.1510472], [-95.8187896, 36.151114], [-95.8188033, 36.1511139], [-95.8188033, 36.1511216], [-95.8188327, 36.1511215], [-95.818833, 36.1511583], [-95.8188027, 36.1511584], [-95.8188029, 36.1511975], [-95.8187643, 36.1511977], [-95.8187645, 36.1512268], [-95.8186648, 36.1512272], [-95.8186648, 36.1512195], [-95.8185974, 36.1512198]]]}, "properties": {"osm_id": 825976351, "building": "yes", "name": "", "height": null, "height_m": null, "levels": null, "tract_id": "40143007311", "tract_name": "73.11", "tags": {"building": "yes"}}}, {"type": "Feature", "geometry": {"type": "Polygon", "coordinates": [[[-95.8182441, 36.1512536], [-95.8181408, 36.151254], [-95.8181404, 36.1511989], [-95.8180734, 36.1511992], [-95.8180728, 36.1511112], [-95.8181203, 36.151111], [-95.8181199, 36.1510495], [-95.8182142, 36.1510491], [-95.8182146, 36.1511083], [-95.8182948, 36.1511079], [-95.8182952, 36.1511701], [-95.8182133, 36.1511705], [-95.8182134, 36.1511876], [-95.8182436, 36.1511874], [-95.8182441, 36.1512536]]]}, "properties": {"osm_id": 825976352, "building": "yes", "name": "", "height": null, "height_m": null, "levels": null, "tract_id": "40143007311", "tract_name": "73.11", "tags": {"building": "yes"}}}, {"type": "Feature", "geometry": {"type": "Polygon", "coordinates": [[[-95.8325118, 36.1410827], [-95.8325118, 36.140826], [-95.8326593, 36.140826], [-95.8326593, 36.1409084], [-95.8328182, 36.1409084], [-95.8328182, 36.1408883], [-95.832886, 36.1408883], [-95.832886, 36.1410408], [-95.8328159, 36.1410408], [-95.8328159, 36.141021], [-95.8326593, 36.141021], [-95.8326593, 36.1410827], [-95.8325118, 36.1410827]]]}, "properties": {"osm_id": 1239776074, "building": "church", "name": "", "height": null, "height_m": null, "levels": null, "tract_id": "40143007311", "tract_name": "73.11", "tags": {"addr:city": "Tulsa", "addr:country": "US", "addr:housenumber": "1437", "addr:postcode": "74108", "addr:state": "OK", "addr:street": "South 129th Avenue East", "amenity": "place_of_worship", "building": "church", "religion": "christian"}}}, {"type": "Feature", "geometry": {"type": "Polygon", "coordinates": [[[-95.8316059, 36.1350971], [-95.8316321, 36.1350677], [-95.8316481, 36.1350337], [-95.8316526, 36.1349976], [-95.8316454, 36.1349618], [-95.8316269, 36.1349287], [-95.8316039, 36.1349059], [-95.8315985, 36.1349005], [-95.831562, 36.1348793], [-95.83152, 36.1348664], [-95.8314753, 36.1348628], [-95.8314309, 36.1348686], [-95.8313899, 36.1348835], [-95.8313551, 36.1349065], [-95.831063, 36.1349071], [-95.8310634, 36.1350186], [-95.8311289, 36.1350184], [-95.8311296, 36.1352005], [-95.8312377, 36.1352897], [-95.8314669, 36.1352892], [-95.8314671, 36.1353445], [-95.8316055, 36.1353442], [-95.8316059, 36.1350971]]]}, "properties": {"osm_id": 1239791758, "building": "retail", "name": "", "height": null, "height_m": null, "levels": null, "tract_id": "40143007311", "tract_name": "73.11", "tags": {"building": "retail", "shop": "yes"}}}, {"type": "Feature", "geometry": {"type": "Polygon", "coordinates": [[[-95.8328243, 36.1338954], [-95.832666, 36.1338938], [-95.832667, 36.1338299], [-95.8328253, 36.1338315], [-95.8328243, 36.1338954]]]}, "properties": {"osm_id": 1239791789, "building": "retail", "name": "Azteka Motor", "height": null, "height_m": null, "levels": null, "tract_id": "40143007311", "tract_name": "73.11", "tags": {"addr:city": "Tulsa", "addr:country": "US", "addr:housenumber": "12909", "addr:postcode": "74134", "addr:state": "OK", "addr:street": "East 21st Street South", "building": "retail", "name": "Azteka Motor", "phone": "+1 918 933 4102", "shop": "car"}}}, {"type": "Feature", "geometry": {"type": "Polygon", "coordinates": [[[-95.8328585, 36.1341386], [-95.8327559, 36.1341386], [-95.8327559, 36.1340736], [-95.8328585, 36.1340736], [-95.8328585, 36.1341386]]]}, "properties": {"osm_id": 1239791790, "building": "yes", "name": "", "height": null, "height_m": null, "levels": null, "tract_id": "40143007311", "tract_name": "73.11", "tags": {"building": "yes"}}}, {"type": "Feature", "geometry": {"type": "Polygon", "coordinates": [[[-95.8328079, 36.1343389], [-95.8329014, 36.134339], [-95.8329023, 36.1342023], [-95.8328088, 36.1342019], [-95.8328079, 36.1343389]]]}, "properties": {"osm_id": 1239791791, "building": "commercial", "name": "Little Twerp Car Wash", "height": null, "height_m": null, "levels": null, "tract_id": "40143007311", "tract_name": "73.11", "tags": {"amenity": "car_wash", "building": "commercial", "name": "Little Twerp Car Wash"}}}, {"type": "Feature", "geometry": {"type": "Polygon", "coordinates": [[[-95.8329014, 36.134339], [-95.8328079, 36.1343389], [-95.8328068, 36.1344982], [-95.8329003, 36.1344986], [-95.8329014, 36.134339]]]}, "properties": {"osm_id": 1239791792, "building": "commercial", "name": "", "height": null, "height_m": null, "levels": null, "tract_id": "40143007311", "tract_name": "73.11", "tags": {"building": "commercial", "shop": "car_repair"}}}, {"type": "Feature", "geometry": {"type": "Polygon", "coordinates": [[[-95.8327846, 36.1346748], [-95.8327851, 36.1346145], [-95.8325976, 36.1346136], [-95.8325971, 36.1346739], [-95.8327846, 36.1346748]]]}, "properties": {"osm_id": 1239791793, "building": "retail", "name": "", "height": null, "height_m": 3.0, "levels": 1, "tract_id": "40143007311", "tract_name": "73.11", "tags": {"building": "retail", "building:levels": "1", "check_date": "2022-06-11", "roof:levels": "0", "roof:shape": "flat", "shop": "vacant"}}}, {"type": "Feature", "geometry": {"type": "Polygon", "coordinates": [[[-95.8327841, 36.1347351], [-95.8327846, 36.1346748], [-95.8325971, 36.1346739], [-95.8325966, 36.1347342], [-95.8327841, 36.1347351]]]}, "properties": {"osm_id": 1239791794, "building": "retail", "name": "New Friends Consignment", "height": null, "height_m": 3.0, "levels": 1, "tract_id": "40143007311", "tract_name": "73.11", "tags": {"building": "retail", "building:levels": "1", "check_date": "2022-06-11", "name": "New Friends Consignment", "roof:levels": "0", "roof:shape": "flat", "shop": "consignment"}}}, {"type": "Feature", "geometry": {"type": "Polygon", "coordinates": [[[-95.8327837, 36.1347954], [-95.8327841, 36.1347351], [-95.8325966, 36.1347342], [-95.8325962, 36.1347945], [-95.8327837, 36.1347954]]]}, "properties": {"osm_id": 1239791795, "building": "retail", "name": "Roots Beauty Supply", "height": null, "height_m": 3.0, "levels": 1, "tract_id": "40143007311", "tract_name": "73.11", "tags": {"building": "retail", "building:levels": "1", "check_date": "2022-06-11", "name": "Roots Beauty Supply", "roof:levels": "0", "roof:shape": "flat", "shop": "hairdresser_supply"}}}, {"type": "Feature", "geometry": {"type": "Polygon", "coordinates": [[[-95.8327832, 36.1348557], [-95.8327837, 36.1347954], [-95.8325962, 36.1347945], [-95.8325957, 36.1348548], [-95.8327832, 36.1348557]]]}, "properties": {"osm_id": 1239791796, "building": "retail", "name": "", "height": null, "height_m": 3.0, "levels": 1, "tract_id": "40143007311", "tract_name": "73.11", "tags": {"building": "retail", "building:levels": "1", "check_date": "2022-06-11", "roof:levels": "0", "roof:shape": "flat", "shop": "cannabis"}}}, {"type": "Feature", "geometry": {"type": "Polygon", "coordinates": [[[-95.8321349, 36.1364895], [-95.8324315, 36.1364918], [-95.8324316, 36.1364846], [-95.8325514, 36.1364856], [-95.8325506, 36.136549], [-95.8326515, 36.1365498], [-95.8326534, 36.1363952], [-95.8326965, 36.1363955], [-95.8326968, 36.1363703], [-95.8328384, 36.1362544], [-95.8328643, 36.1362546], [-95.8328665, 36.1360749], [-95.8328406, 36.1360746], [-95.8327019, 36.1359555], [-95.8327022, 36.135933], [-95.832659, 36.1359327], [-95.8326602, 36.1358419], [-95.8324395, 36.1358402], [-95.8324396, 36.1358344], [-95.832143, 36.135832], [-95.8321349, 36.1364895]]]}, "properties": {"osm_id": 1239791798, "building": "church", "name": "Eastland Baptist Church", "height": null, "height_m": null, "levels": null, "tract_id": "40143007311", "tract_name": "73.11", "tags": {"amenity": "place_of_worship", "building": "church", "denomination": "baptist", "ele": "216", "gnis:feature_id": "1810400", "name": "Eastland Baptist Church", "religion": "christian"}}}, {"type": "Feature", "geometry": {"type": "Polygon", "coordinates": [[[-95.8309789, 36.1337568], [-95.8309789, 36.1340849], [-95.8307683, 36.1340849], [-95.8307683, 36.1339875], [-95.8307952, 36.1339875], [-95.8307952, 36.1339712], [-95.8308455, 36.1339712], [-95.8308455, 36.1338071], [-95.8308616, 36.1338071], [-95.8308616, 36.1337568], [-95.8309789, 36.1337568]]]}, "properties": {"osm_id": 1239797540, "building": "commercial", "name": "", "height": null, "height_m": null, "levels": null, "tract_id": "40143007311", "tract_name": "73.11", "tags": {"addr:city": "Tulsa", "addr:country": "US", "addr:housenumber": "13111", "addr:postcode": "74108", "addr:state": "OK", "addr:street": "East 21st Street South", "building": "commercial"}}}, {"type": "Feature", "geometry": {"type": "Polygon", "coordinates": [[[-95.8295453, 36.1340893], [-95.829159, 36.1340914], [-95.829158, 36.1339701], [-95.8292999, 36.1339693], [-95.8292997, 36.133954], [-95.8293354, 36.1339538], [-95.8293341, 36.1338057], [-95.8294855, 36.1338049], [-95.8294869, 36.1339682], [-95.8295442, 36.1339679], [-95.8295453, 36.1340893]]]}, "properties": {"osm_id": 1239797543, "building": "church", "name": "Iglesia del Nazareno Fuente de Vida", "height": null, "height_m": null, "levels": null, "tract_id": "40143007311", "tract_name": "73.11", "tags": {"addr:city": "Tulsa", "addr:country": "US", "addr:housenumber": "13131", "addr:postcode": "74134", "addr:state": "OK", "addr:street": "East 21st Street South", "amenity": "place_of_worship", "building": "church", "name": "Iglesia del Nazareno Fuente de Vida", "religion": "christian"}}}, {"type": "Feature", "geometry": {"type": "Polygon", "coordinates": [[[-95.8261502, 36.1598136], [-95.8261447, 36.1595322], [-95.8250855, 36.1595458], [-95.825091, 36.1598273], [-95.8261502, 36.1598136]]]}, "properties": {"osm_id": 1342543937, "building": "yes", "name": "", "height": null, "height_m": null, "levels": null, "tract_id": "40143007311", "tract_name": "73.11", "tags": {"building": "yes", "source": "microsoft/BuildingFootprints"}}}, {"type": "Feature", "geometry": {"type": "Polygon", "coordinates": [[[-95.8323719, 36.1600022], [-95.8323742, 36.1603075], [-95.8325352, 36.1603067], [-95.8325328, 36.1600014], [-95.8323719, 36.1600022]]]}, "properties": {"osm_id": 1342543938, "building": "yes", "name": "", "height": null, "height_m": null, "levels": null, "tract_id": "40143007311", "tract_name": "73.11", "tags": {"building": "yes", "source": "microsoft/BuildingFootprints"}}}, {"type": "Feature", "geometry": {"type": "Polygon", "coordinates": [[[-95.8319394, 36.1599988], [-95.8319378, 36.1603028], [-95.8320987, 36.1603034], [-95.8320997, 36.1601237], [-95.8321453, 36.1601238], [-95.8321443, 36.1603048], [-95.8323053, 36.1603054], [-95.8323069, 36.1600001], [-95.8321446, 36.1599995], [-95.8321441, 36.1600848], [-95.8320986, 36.1600847], [-95.832099, 36.1599993], [-95.8319394, 36.1599988]]]}, "properties": {"osm_id": 1342543939, "building": "yes", "name": "", "height": null, "height_m": null, "levels": null, "tract_id": "40143007311", "tract_name": "73.11", "tags": {"building": "yes", "source": "microsoft/BuildingFootprints"}}}, {"type": "Feature", "geometry": {"type": "Polygon", "coordinates": [[[-95.8318767, 36.1600868], [-95.8317158, 36.1600886], [-95.8317194, 36.1603029], [-95.8318803, 36.1603012], [-95.8318767, 36.1600868]]]}, "properties": {"osm_id": 1342543940, "building": "yes", "name": "", "height": null, "height_m": null, "levels": null, "tract_id": "40143007311", "tract_name": "73.11", "tags": {"building": "yes", "source": "microsoft/BuildingFootprints"}}}, {"type": "Feature", "geometry": {"type": "Polygon", "coordinates": [[[-95.8316669, 36.160302], [-95.8316669, 36.1601347], [-95.8316213, 36.1600998], [-95.8314204, 36.1602708], [-95.8314612, 36.160302], [-95.8316669, 36.160302]]]}, "properties": {"osm_id": 1342543941, "building": "yes", "name": "", "height": null, "height_m": null, "levels": null, "tract_id": "40143007311", "tract_name": "73.11", "tags": {"building": "yes", "source": "microsoft/BuildingFootprints"}}}, {"type": "Feature", "geometry": {"type": "Polygon", "coordinates": [[[-95.8187089, 36.1355262], [-95.8187657, 36.1355258], [-95.8187659, 36.1355365], [-95.8187843, 36.1355363], [-95.8187844, 36.1355513], [-95.8188675, 36.1355507], [-95.818866, 36.13542], [-95.818857, 36.1354201], [-95.8188564, 36.1353655], [-95.8187779, 36.1353661], [-95.8187785, 36.1354207], [-95.8187077, 36.1354212], [-95.8187089, 36.1355262]]]}, "properties": {"osm_id": 1375466869, "building": "detached", "name": "", "height": null, "height_m": null, "levels": null, "tract_id": "40143007311", "tract_name": "73.11", "tags": {"addr:city": "Tulsa", "addr:country": "US", "addr:housenumber": "14134", "addr:postcode": "74108", "addr:state": "OK", "addr:street": "East 19th Place South", "building": "detached"}}}, {"type": "Feature", "geometry": {"type": "Polygon", "coordinates": [[[-95.8199362, 36.1353615], [-95.8199332, 36.1354763], [-95.8201155, 36.1354793], [-95.8201185, 36.1353646], [-95.8199362, 36.1353615]]]}, "properties": {"osm_id": 1375466870, "building": "detached", "name": "", "height": null, "height_m": null, "levels": null, "tract_id": "40143007311", "tract_name": "73.11", "tags": {"addr:city": "Tulsa", "addr:country": "US", "addr:housenumber": "14106", "addr:postcode": "74108", "addr:state": "OK", "addr:street": "East 19th Place South", "building": "detached"}}}, {"type": "Feature", "geometry": {"type": "Polygon", "coordinates": [[[-95.8169238, 36.1354389], [-95.8168862, 36.135439], [-95.8168861, 36.1354167], [-95.816807, 36.135417], [-95.8168071, 36.1354393], [-95.816772, 36.1354395], [-95.8167726, 36.1355544], [-95.8168507, 36.1355541], [-95.8168507, 36.1355637], [-95.8169244, 36.1355635], [-95.8169238, 36.1354389]]]}, "properties": {"osm_id": 1375466871, "building": "detached", "name": "", "height": null, "height_m": null, "levels": null, "tract_id": "40143007311", "tract_name": "73.11", "tags": {"addr:city": "Tulsa", "addr:country": "US", "addr:housenumber": "14322", "addr:postcode": "74108", "addr:state": "OK", "addr:street": "East 19th Place South", "building": "detached"}}}, {"type": "Feature", "geometry": {"type": "Polygon", "coordinates": [[[-95.8192733, 36.1354203], [-95.8191178, 36.1354212], [-95.8191187, 36.1355289], [-95.8191722, 36.1355286], [-95.8191724, 36.1355482], [-95.8192744, 36.1355476], [-95.8192733, 36.1354203]]]}, "properties": {"osm_id": 1375466872, "building": "detached", "name": "", "height": null, "height_m": null, "levels": null, "tract_id": "40143007311", "tract_name": "73.11", "tags": {"addr:city": "Tulsa", "addr:country": "US", "addr:housenumber": "14124", "addr:postcode": "74108", "addr:state": "OK", "addr:street": "East 19th Place South", "building": "detached"}}}, {"type": "Feature", "geometry": {"type": "Polygon", "coordinates": [[[-95.8184618, 36.1355521], [-95.8184606, 36.1354205], [-95.8182981, 36.1354215], [-95.8182991, 36.1355294], [-95.818361, 36.135529], [-95.8183612, 36.1355527], [-95.8184618, 36.1355521]]]}, "properties": {"osm_id": 1375466873, "building": "detached", "name": "", "height": null, "height_m": null, "levels": null, "tract_id": "40143007311", "tract_name": "73.11", "tags": {"addr:city": "Tulsa", "addr:country": "US", "addr:housenumber": "14144", "addr:postcode": "74108", "addr:state": "OK", "addr:street": "East 19th Place South", "building": "detached"}}}, {"type": "Feature", "geometry": {"type": "Polygon", "coordinates": [[[-95.8201937, 36.1354212], [-95.8202582, 36.1354674], [-95.8202213, 36.135501], [-95.8203038, 36.1355601], [-95.8204233, 36.1354512], [-95.8202762, 36.135346], [-95.8201937, 36.1354212]]]}, "properties": {"osm_id": 1375466874, "building": "detached", "name": "", "height": null, "height_m": null, "levels": null, "tract_id": "40143007311", "tract_name": "73.11", "tags": {"addr:city": "Tulsa", "addr:country": "US", "addr:housenumber": "14102", "addr:postcode": "74108", "addr:state": "OK", "addr:street": "East 19th Place South", "building": "detached"}}}, {"type": "Feature", "geometry": {"type": "Polygon", "coordinates": [[[-95.8195759, 36.1355528], [-95.8196789, 36.1355524], [-95.8196783, 36.1354194], [-95.8195135, 36.1354199], [-95.819514, 36.135526], [-95.8195757, 36.1355258], [-95.8195759, 36.1355528]]]}, "properties": {"osm_id": 1375466875, "building": "detached", "name": "", "height": null, "height_m": null, "levels": null, "tract_id": "40143007311", "tract_name": "73.11", "tags": {"addr:city": "Tulsa", "addr:country": "US", "addr:housenumber": "14114", "addr:postcode": "74108", "addr:state": "OK", "addr:street": "East 19th Place South", "building": "detached"}}}, {"type": "Feature", "geometry": {"type": "Polygon", "coordinates": [[[-95.8197097, 36.135401], [-95.8197083, 36.1355103], [-95.8198853, 36.1355117], [-95.8198867, 36.1354025], [-95.8198358, 36.135402], [-95.8198362, 36.1353717], [-95.8197852, 36.1353713], [-95.8197848, 36.1354016], [-95.8197097, 36.135401]]]}, "properties": {"osm_id": 1375466876, "building": "detached", "name": "", "height": null, "height_m": null, "levels": null, "tract_id": "40143007311", "tract_name": "73.11", "tags": {"addr:city": "Tulsa", "addr:country": "US", "addr:housenumber": "14110", "addr:postcode": "74108", "addr:state": "OK", "addr:street": "East 19th Place South", "building": "detached"}}}, {"type": "Feature", "geometry": {"type": "Polygon", "coordinates": [[[-95.8184831, 36.1355425], [-95.818667, 36.1355417], [-95.8186664, 36.1354341], [-95.8184824, 36.1354348], [-95.8184831, 36.1355425]]]}, "properties": {"osm_id": 1375466877, "building": "detached", "name": "", "height": null, "height_m": null, "levels": null, "tract_id": "40143007311", "tract_name": "73.11", "tags": {"addr:city": "Tulsa", "addr:country": "US", "addr:housenumber": "14138", "addr:postcode": "74108", "addr:state": "OK", "addr:street": "East 19th Place South", "building": "detached"}}}, {"type": "Feature", "geometry": {"type": "Polygon", "coordinates": [[[-95.8215376, 36.1354161], [-95.821374, 36.1354168], [-95.8213745, 36.1354937], [-95.8214081, 36.1354936], [-95.8214082, 36.1355049], [-95.8214589, 36.1355047], [-95.8214591, 36.1355464], [-95.8215384, 36.135546], [-95.8215376, 36.1354161]]]}, "properties": {"osm_id": 1375475256, "building": "detached", "name": "", "height": null, "height_m": null, "levels": null, "tract_id": "40143007311", "tract_name": "73.11", "tags": {"addr:city": "Tulsa", "addr:country": "US", "addr:housenumber": "13914", "addr:postcode": "74108", "addr:state": "OK", "addr:street": "East 19th Place South", "building": "detached"}}}, {"type": "Feature", "geometry": {"type": "Polygon", "coordinates": [[[-95.8238363, 36.1354012], [-95.8236525, 36.1354045], [-95.8236552, 36.1355041], [-95.8237291, 36.1355027], [-95.8237302, 36.1355417], [-95.8238401, 36.1355397], [-95.8238363, 36.1354012]]]}, "properties": {"osm_id": 1375475257, "building": "yes", "name": "", "height": null, "height_m": null, "levels": null, "tract_id": "40143007311", "tract_name": "73.11", "tags": {"addr:city": "Tulsa", "addr:country": "US", "addr:housenumber": "13702", "addr:postcode": "74108", "addr:state": "OK", "addr:street": "East 19th Place South", "building": "yes"}}}, {"type": "Feature", "geometry": {"type": "Polygon", "coordinates": [[[-95.8226423, 36.1353875], [-95.8226423, 36.1355175], [-95.8227016, 36.1355175], [-95.8227016, 36.1355325], [-95.8227224, 36.1355325], [-95.8227224, 36.1355499], [-95.8228074, 36.1355499], [-95.8228074, 36.1353875], [-95.8226423, 36.1353875]]]}, "properties": {"osm_id": 1375475258, "building": "detached", "name": "", "height": null, "height_m": null, "levels": null, "tract_id": "40143007311", "tract_name": "73.11", "tags": {"addr:city": "Tulsa", "addr:country": "US", "addr:housenumber": "13808", "addr:postcode": "74108", "addr:state": "OK", "addr:street": "East 19th Place South", "building": "detached"}}}, {"type": "Feature", "geometry": {"type": "Polygon", "coordinates": [[[-95.8224128, 36.13554], [-95.8225105, 36.135539], [-95.8225106, 36.1355488], [-95.8225953, 36.1355478], [-95.8225926, 36.1353886], [-95.8225149, 36.1353895], [-95.8225153, 36.1354133], [-95.8224107, 36.1354144], [-95.8224128, 36.13554]]]}, "properties": {"osm_id": 1375475259, "building": "detached", "name": "", "height": null, "height_m": null, "levels": null, "tract_id": "40143007311", "tract_name": "73.11", "tags": {"addr:city": "Tulsa", "addr:country": "US", "addr:housenumber": "13812", "addr:postcode": "74108", "addr:state": "OK", "addr:street": "East 19th Place South", "building": "detached"}}}, {"type": "Feature", "geometry": {"type": "Polygon", "coordinates": [[[-95.8235163, 36.1353796], [-95.8235174, 36.1354315], [-95.8234558, 36.1354324], [-95.8234576, 36.1355147], [-95.8235246, 36.1355137], [-95.8235253, 36.1355462], [-95.8236246, 36.1355448], [-95.8236209, 36.1353781], [-95.8235163, 36.1353796]]]}, "properties": {"osm_id": 1375475260, "building": "yes", "name": "", "height": null, "height_m": null, "levels": null, "tract_id": "40143007311", "tract_name": "73.11", "tags": {"addr:city": "Tulsa", "addr:country": "US", "addr:housenumber": "13708", "addr:postcode": "74108", "addr:state": "OK", "addr:street": "East 19th Place South", "building": "yes"}}}, {"type": "Feature", "geometry": {"type": "Polygon", "coordinates": [[[-95.823966, 36.1355453], [-95.8240464, 36.135545], [-95.8240458, 36.1354259], [-95.8238822, 36.1354264], [-95.8238827, 36.1355239], [-95.8239658, 36.1355236], [-95.823966, 36.1355453]]]}, "properties": {"osm_id": 1375475261, "building": "yes", "name": "", "height": null, "height_m": null, "levels": null, "tract_id": "40143007311", "tract_name": "73.11", "tags": {"addr:city": "Tulsa", "addr:country": "US", "addr:housenumber": "13610", "addr:postcode": "74108", "addr:state": "OK", "addr:street": "East 19th Place South", "building": "yes"}}}, {"type": "Feature", "geometry": {"type": "Polygon", "coordinates": [[[-95.8230533, 36.1354224], [-95.8230553, 36.135522], [-95.8231158, 36.1355212], [-95.8231163, 36.1355472], [-95.8232167, 36.1355459], [-95.8232134, 36.1353835], [-95.8231384, 36.1353845], [-95.8231391, 36.1354213], [-95.8230533, 36.1354224]]]}, "properties": {"osm_id": 1375475262, "building": "yes", "name": "", "height": null, "height_m": null, "levels": null, "tract_id": "40143007311", "tract_name": "73.11", "tags": {"addr:city": "Tulsa", "addr:country": "US", "addr:housenumber": "13718", "addr:postcode": "74108", "addr:state": "OK", "addr:street": "East 19th Place South", "building": "yes"}}}, {"type": "Feature", "geometry": {"type": "Polygon", "coordinates": [[[-95.8219477, 36.1355482], [-95.821945, 36.1353678], [-95.8219104, 36.1353682], [-95.8219103, 36.1353638], [-95.8218436, 36.1353645], [-95.8218443, 36.1354124], [-95.8217924, 36.1354129], [-95.821794, 36.1355208], [-95.821829, 36.1355205], [-95.8218292, 36.135536], [-95.8218624, 36.1355357], [-95.8218626, 36.135549], [-95.8219477, 36.1355482]]]}, "properties": {"osm_id": 1375475263, "building": "detached", "name": "", "height": null, "height_m": null, "levels": null, "tract_id": "40143007311", "tract_name": "73.11", "tags": {"addr:city": "Tulsa", "addr:country": "US", "addr:housenumber": "13902", "addr:postcode": "74108", "addr:state": "OK", "addr:street": "East 19th Place South", "building": "detached"}}}, {"type": "Feature", "geometry": {"type": "Polygon", "coordinates": [[[-95.8220975, 36.1355477], [-95.8220972, 36.1354998], [-95.8220703, 36.1354998], [-95.8220703, 36.1355122], [-95.822001, 36.1355124], [-95.8220006, 36.1354079], [-95.8221744, 36.1354074], [-95.822175, 36.1355475], [-95.8220975, 36.1355477]]]}, "properties": {"osm_id": 1375475264, "building": "detached", "name": "", "height": null, "height_m": null, "levels": null, "tract_id": "40143007311", "tract_name": "73.11", "tags": {"addr:city": "Tulsa", "addr:country": "US", "addr:housenumber": "13822", "addr:postcode": "74108", "addr:state": "OK", "addr:street": "East 19th Place South", "building": "detached"}}}, {"type": "Feature", "geometry": {"type": "Polygon", "coordinates": [[[-95.8207764, 36.1353207], [-95.8206584, 36.13532], [-95.8206571, 36.1354651], [-95.8208073, 36.135466], [-95.820808, 36.135388], [-95.8207758, 36.1353878], [-95.8207764, 36.1353207]]]}, "properties": {"osm_id": 1375475265, "building": "detached", "name": "", "height": null, "height_m": null, "levels": null, "tract_id": "40143007311", "tract_name": "73.11", "tags": {"addr:city": "Tulsa", "addr:country": "US", "addr:housenumber": "1943", "addr:postcode": "74108", "addr:state": "OK", "addr:street": "South 140th Avenue East", "building": "detached"}}}, {"type": "Feature", "geometry": {"type": "Polygon", "coordinates": [[[-95.8242509, 36.1354047], [-95.8240846, 36.1354027], [-95.8240829, 36.1355002], [-95.824174, 36.1355013], [-95.8241733, 36.1355446], [-95.8242483, 36.1355454], [-95.8242509, 36.1354047]]]}, "properties": {"osm_id": 1375475266, "building": "yes", "name": "", "height": null, "height_m": null, "levels": null, "tract_id": "40143007311", "tract_name": "73.11", "tags": {"addr:city": "Tulsa", "addr:country": "US", "addr:housenumber": "13606", "addr:postcode": "74108", "addr:state": "OK", "addr:street": "East 19th Place South", "building": "yes"}}}, {"type": "Feature", "geometry": {"type": "Polygon", "coordinates": [[[-95.8230086, 36.1354011], [-95.8228853, 36.1354032], [-95.8228861, 36.1354343], [-95.8228539, 36.1354349], [-95.8228564, 36.135528], [-95.8229195, 36.1355269], [-95.8229202, 36.1355529], [-95.8230125, 36.1355513], [-95.8230086, 36.1354011]]]}, "properties": {"osm_id": 1375475267, "building": "yes", "name": "", "height": null, "height_m": null, "levels": null, "tract_id": "40143007311", "tract_name": "73.11", "tags": {"addr:city": "Tulsa", "addr:country": "US", "addr:housenumber": "13802", "addr:postcode": "74108", "addr:state": "OK", "addr:street": "East 19th Place South", "building": "yes"}}}, {"type": "Feature", "geometry": {"type": "Polygon", "coordinates": [[[-95.8212766, 36.135333], [-95.8211459, 36.1353332], [-95.8211465, 36.1355442], [-95.8212771, 36.135544], [-95.8212766, 36.135333]]]}, "properties": {"osm_id": 1375475268, "building": "detached", "name": "", "height": null, "height_m": null, "levels": null, "tract_id": "40143007311", "tract_name": "73.11", "tags": {"addr:city": "Tulsa", "addr:country": "US", "addr:housenumber": "1944", "addr:postcode": "74108", "addr:state": "OK", "addr:street": "South 140th Avenue East", "building": "detached"}}}, {"type": "Feature", "geometry": {"type": "Polygon", "coordinates": [[[-95.8217411, 36.13542], [-95.8215775, 36.1354218], [-95.821579, 36.1355087], [-95.821622, 36.1355082], [-95.8216222, 36.1355174], [-95.8216542, 36.135517], [-95.8216548, 36.1355479], [-95.8217432, 36.1355469], [-95.8217411, 36.13542]]]}, "properties": {"osm_id": 1375475269, "building": "detached", "name": "", "height": null, "height_m": null, "levels": null, "tract_id": "40143007311", "tract_name": "73.11", "tags": {"addr:city": "Tulsa", "addr:country": "US", "addr:housenumber": "13908", "addr:postcode": "74108", "addr:state": "OK", "addr:street": "East 19th Place South", "building": "detached"}}}, {"type": "Feature", "geometry": {"type": "Polygon", "coordinates": [[[-95.8232524, 36.1354239], [-95.8232538, 36.1355439], [-95.8234255, 36.1355425], [-95.823424, 36.1354226], [-95.8232524, 36.1354239]]]}, "properties": {"osm_id": 1375475270, "building": "yes", "name": "", "height": null, "height_m": null, "levels": null, "tract_id": "40143007311", "tract_name": "73.11", "tags": {"addr:city": "Tulsa", "addr:country": "US", "addr:housenumber": "13712", "addr:postcode": "74108", "addr:state": "OK", "addr:street": "East 19th Place South", "building": "yes"}}}]}