{"type": "FeatureCollection", "features": [{"type": "Feature", "geometry": {"type": "Polygon", "coordinates": [[[-97.5771076, 35.4861913], [-97.5770406, 35.4861924], [-97.5770433, 35.4863027], [-97.5771103, 35.4863016], [-97.5771076, 35.4861913]]]}, "properties": {"osm_id": 245399012, "building": "terrace", "name": "", "height": null, "height_m": null, "levels": null, "tract_id": "40109102100", "tract_name": "1021", "tags": {"amenity": "shelter", "building": "terrace"}}}, {"type": "Feature", "geometry": {"type": "Polygon", "coordinates": [[[-97.5778674, 35.4867782], [-97.5776153, 35.4867782], [-97.5776206, 35.4866581], [-97.5776582, 35.4866559], [-97.5776555, 35.486241], [-97.5776206, 35.4862432], [-97.5776233, 35.4861514], [-97.5777761, 35.4861486], [-97.5778594, 35.4861471], [-97.5778594, 35.4862453], [-97.5780444, 35.4862432], [-97.5780444, 35.4861776], [-97.5786452, 35.4861864], [-97.5786452, 35.4863786], [-97.5781678, 35.4863786], [-97.5781705, 35.4864375], [-97.5779693, 35.4864375], [-97.577972, 35.4862978], [-97.5778647, 35.4862999], [-97.5778674, 35.4867782]]]}, "properties": {"osm_id": 245399016, "building": "school", "name": "", "height": null, "height_m": null, "levels": null, "tract_id": "40109102100", "tract_name": "1021", "tags": {"building": "school"}}}, {"type": "Feature", "geometry": {"type": "Polygon", "coordinates": [[[-97.5765248, 35.4928895], [-97.5765246, 35.4929655], [-97.576422, 35.4929653], [-97.5764221, 35.4928894], [-97.5765248, 35.4928895]]]}, "properties": {"osm_id": 245931924, "building": "roof", "name": "", "height": null, "height_m": null, "levels": null, "tract_id": "40109102100", "tract_name": "1021", "tags": {"building": "roof", "layer": "1", "source": "Bing"}}}, {"type": "Feature", "geometry": {"type": "Polygon", "coordinates": [[[-97.5764761, 35.493043], [-97.5761264, 35.4930411], [-97.5761261, 35.4930839], [-97.5764758, 35.4930858], [-97.5764761, 35.493043]]]}, "properties": {"osm_id": 245931927, "building": "roof", "name": "", "height": null, "height_m": null, "levels": null, "tract_id": "40109102100", "tract_name": "1021", "tags": {"building": "roof", "source": "Bing"}}}, {"type": "Feature", "geometry": {"type": "Polygon", "coordinates": [[[-97.5767064, 35.4927333], [-97.5763219, 35.4927285], [-97.5763211, 35.4927658], [-97.5767057, 35.4927707], [-97.5767064, 35.4927333]]]}, "properties": {"osm_id": 245931929, "building": "roof", "name": "", "height": null, "height_m": null, "levels": null, "tract_id": "40109102100", "tract_name": "1021", "tags": {"building": "roof", "source": "Bing"}}}, {"type": "Feature", "geometry": {"type": "Polygon", "coordinates": [[[-97.5822414, 35.4931035], [-97.5822422, 35.4929931], [-97.5820937, 35.4929924], [-97.5820929, 35.4931028], [-97.5822414, 35.4931035]]]}, "properties": {"osm_id": 249456250, "building": "yes", "name": "Church's Chicken", "height": null, "height_m": null, "levels": null, "tract_id": "40109102100", "tract_name": "1021", "tags": {"amenity": "fast_food", "brand": "Church's Chicken", "brand:wikidata": "Q1089932", "building": "yes", "cuisine": "chicken", "fixme:atp": "no ATP match, check if still exists", "name": "Church's Chicken", "source": "Bing", "takeaway": "yes"}}}, {"type": "Feature", "geometry": {"type": "Polygon", "coordinates": [[[-97.5780486, 35.4930241], [-97.5780526, 35.4929101], [-97.5778661, 35.4929059], [-97.5778612, 35.4930459], [-97.5780009, 35.4930491], [-97.5780018, 35.493023], [-97.5780486, 35.4930241]]]}, "properties": {"osm_id": 249456256, "building": "yes", "name": "Arby's", "height": null, "height_m": null, "levels": null, "tract_id": "40109102100", "tract_name": "1021", "tags": {"addr:city": "Oklahoma City", "addr:housenumber": "3420", "addr:postcode": "73107", "addr:state": "OK", "addr:street": "Northwest 23rd Street", "amenity": "fast_food", "brand": "Arby's", "brand:wikidata": "Q630866", "building": "yes", "check_date": "2024-06-21", "cuisine": "sandwich", "name": "Arby's", "opening_hours": "10:00-23:00", "phone": "+1 405-949-1021", "source": "Bing", "takeaway": "yes", "website": "https://www.arbys.com/locations/us/ok/oklahoma-city/3420-nw-23-st/store-1605/"}}}, {"type": "Feature", "geometry": {"type": "Polygon", "coordinates": [[[-97.5810551, 35.4930936], [-97.581059, 35.4929256], [-97.5809482, 35.4929239], [-97.5809469, 35.4929797], [-97.5809443, 35.4930919], [-97.5810551, 35.4930936]]]}, "properties": {"osm_id": 249456264, "building": "yes", "name": "", "height": null, "height_m": null, "levels": null, "tract_id": "40109102100", "tract_name": "1021", "tags": {"building": "yes", "source": "Bing"}}}, {"type": "Feature", "geometry": {"type": "Polygon", "coordinates": [[[-97.5819005, 35.4929742], [-97.5819005, 35.4928345], [-97.5817879, 35.4928345], [-97.5817879, 35.4929742], [-97.5819005, 35.4929742]]]}, "properties": {"osm_id": 249456269, "building": "yes", "name": "", "height": null, "height_m": null, "levels": null, "tract_id": "40109102100", "tract_name": "1021", "tags": {"building": "yes", "source": "Bing"}}}, {"type": "Feature", "geometry": {"type": "Polygon", "coordinates": [[[-97.5813484, 35.4930619], [-97.5813503, 35.4928828], [-97.5812591, 35.4928822], [-97.5812572, 35.4930612], [-97.5813484, 35.4930619]]]}, "properties": {"osm_id": 249456276, "building": "yes", "name": "", "height": null, "height_m": null, "levels": null, "tract_id": "40109102100", "tract_name": "1021", "tags": {"building": "yes", "source": "Bing"}}}, {"type": "Feature", "geometry": {"type": "Polygon", "coordinates": [[[-97.5807028, 35.4930756], [-97.5805607, 35.4930736], [-97.5805636, 35.4929339], [-97.5807057, 35.4929359], [-97.5807028, 35.4930756]]]}, "properties": {"osm_id": 249456278, "building": "yes", "name": "", "height": null, "height_m": null, "levels": null, "tract_id": "40109102100", "tract_name": "1021", "tags": {"building": "yes", "source": "Bing"}}}, {"type": "Feature", "geometry": {"type": "Polygon", "coordinates": [[[-97.5831943, 35.4928938], [-97.5831266, 35.4928938], [-97.5831259, 35.4929495], [-97.5831943, 35.4929484], [-97.5831943, 35.4928938]]]}, "properties": {"osm_id": 249456280, "building": "roof", "name": "", "height": null, "height_m": null, "levels": null, "tract_id": "40109102100", "tract_name": "1021", "tags": {"building": "roof", "source": "Bing"}}}, {"type": "Feature", "geometry": {"type": "Polygon", "coordinates": [[[-97.5828958, 35.4931611], [-97.5828967, 35.493112], [-97.5827774, 35.4931105], [-97.5827765, 35.4931596], [-97.5828958, 35.4931611]]]}, "properties": {"osm_id": 249456283, "building": "roof", "name": "7-Eleven", "height": null, "height_m": null, "levels": null, "tract_id": "40109102100", "tract_name": "1021", "tags": {"amenity": "fuel", "brand": "7-Eleven", "brand:wikidata": "Q259340", "building": "roof", "name": "7-Eleven", "source": "Bing"}}}, {"type": "Feature", "geometry": {"type": "Polygon", "coordinates": [[[-97.582484, 35.4930365], [-97.5824878, 35.492828], [-97.5823818, 35.4928267], [-97.5823781, 35.4930352], [-97.582484, 35.4930365]]]}, "properties": {"osm_id": 249456284, "building": "yes", "name": "", "height": null, "height_m": null, "levels": null, "tract_id": "40109102100", "tract_name": "1021", "tags": {"building": "yes", "source": "Bing"}}}, {"type": "Feature", "geometry": {"type": "Polygon", "coordinates": [[[-97.5804132, 35.4929972], [-97.5804159, 35.4928377], [-97.5799063, 35.492829], [-97.5799063, 35.4929928], [-97.5804132, 35.4929972]]]}, "properties": {"osm_id": 249456286, "building": "yes", "name": "", "height": null, "height_m": null, "levels": null, "tract_id": "40109102100", "tract_name": "1021", "tags": {"building": "yes", "source": "Bing"}}}, {"type": "Feature", "geometry": {"type": "Polygon", "coordinates": [[[-97.5829373, 35.4929339], [-97.5829397, 35.4928269], [-97.582642, 35.4928223], [-97.5826396, 35.4929293], [-97.5829373, 35.4929339]]]}, "properties": {"osm_id": 249456290, "building": "yes", "name": "7-Eleven", "height": null, "height_m": null, "levels": null, "tract_id": "40109102100", "tract_name": "1021", "tags": {"brand": "7-Eleven", "brand:wikidata": "Q259340", "building": "yes", "contact:website": "https://www.7-eleven.com/locations/ok/oklahoma-city/2314-n-portland-41380", "name": "7-Eleven", "shop": "convenience", "source": "Bing"}}}, {"type": "Feature", "geometry": {"type": "Polygon", "coordinates": [[[-97.5809416, 35.4931173], [-97.5808014, 35.4931151], [-97.5808021, 35.4929775], [-97.5809469, 35.4929797], [-97.5809443, 35.4930919], [-97.5809416, 35.4931173]]]}, "properties": {"osm_id": 249456293, "building": "yes", "name": "", "height": null, "height_m": null, "levels": null, "tract_id": "40109102100", "tract_name": "1021", "tags": {"building": "yes", "source": "Bing"}}}, {"type": "Feature", "geometry": {"type": "Polygon", "coordinates": [[[-97.5721672, 35.492843], [-97.5719445, 35.4928449], [-97.5719429, 35.4927151], [-97.5721655, 35.4927132], [-97.5721672, 35.492843]]]}, "properties": {"osm_id": 251573761, "building": "yes", "name": "", "height": null, "height_m": null, "levels": null, "tract_id": "40109102100", "tract_name": "1021", "tags": {"building": "yes", "source": "Bing"}}}, {"type": "Feature", "geometry": {"type": "Polygon", "coordinates": [[[-97.5709799, 35.4927939], [-97.5704559, 35.4927861], [-97.5704537, 35.492886], [-97.5704932, 35.4928866], [-97.5704921, 35.492935], [-97.5705159, 35.4929354], [-97.5705148, 35.4929826], [-97.5705761, 35.4929835], [-97.5705767, 35.4929567], [-97.5706138, 35.4929573], [-97.5706128, 35.4930031], [-97.5706859, 35.4930042], [-97.5706865, 35.4929784], [-97.5707962, 35.49298], [-97.5707966, 35.4929608], [-97.5708496, 35.4929616], [-97.5708491, 35.4929813], [-97.5709756, 35.4929832], [-97.5709799, 35.4927939]]]}, "properties": {"osm_id": 251573762, "building": "commercial", "name": "Dental Depot", "height": null, "height_m": null, "levels": null, "tract_id": "40109102100", "tract_name": "1021", "tags": {"addr:city": "Oklahoma City", "addr:housenumber": "3104", "addr:postcode": "73107", "addr:state": "OK", "addr:street": "Northwest 23rd Street", "amenity": "dentist", "building": "commercial", "healthcare": "dentist", "healthcare:speciality": "dentist", "name": "Dental Depot", "opening_hours": "Mo\u2013Th 07:30-17:00; Fr 07:30-15:30; Sa 08:00\u201314:00", "phone": "+1 405 463 9986", "website": "https://dentaldepot.net/locations/central-okc/"}}}, {"type": "Feature", "geometry": {"type": "Polygon", "coordinates": [[[-97.582226, 35.4865], [-97.582524, 35.486502], [-97.582525, 35.486376], [-97.582617, 35.486376], [-97.582618, 35.486197], [-97.58223, 35.486195], [-97.582226, 35.4865]]]}, "properties": {"osm_id": 804976950, "building": "yes", "name": "United States Post Office", "height": null, "height_m": null, "levels": null, "tract_id": "40109102100", "tract_name": "1021", "tags": {"addr:city": "Oklahoma City", "addr:postcode": "73107", "addr:state": "OK", "amenity": "post_office", "brand": "United States Post Office", "brand:wikidata": "Q668687", "building": "yes", "name": "United States Post Office", "source": "microsoft/BuildingFootprints"}}}, {"type": "Feature", "geometry": {"type": "Polygon", "coordinates": [[[-97.582828, 35.486532], [-97.583008, 35.486533], [-97.583009, 35.486372], [-97.58313, 35.486372], [-97.58313, 35.486302], [-97.583015, 35.486301], [-97.583016, 35.486223], [-97.582897, 35.486223], [-97.582895, 35.48645], [-97.582829, 35.486449], [-97.582828, 35.486532]]]}, "properties": {"osm_id": 804976951, "building": "yes", "name": "H & H Auto Tech", "height": null, "height_m": null, "levels": null, "tract_id": "40109102100", "tract_name": "1021", "tags": {"building": "yes", "landuse": "commercial", "name": "H & H Auto Tech", "shop": "car_repair", "source": "microsoft/BuildingFootprints"}}}, {"type": "Feature", "geometry": {"type": "Polygon", "coordinates": [[[-97.58301, 35.487512], [-97.583184, 35.487512], [-97.583185, 35.487248], [-97.583011, 35.487247], [-97.58301, 35.487512]]]}, "properties": {"osm_id": 804976952, "building": "yes", "name": "", "height": null, "height_m": null, "levels": null, "tract_id": "40109102100", "tract_name": "1021", "tags": {"building": "yes", "source": "microsoft/BuildingFootprints"}}}, {"type": "Feature", "geometry": {"type": "Polygon", "coordinates": [[[-97.582892, 35.486908], [-97.582996, 35.486908], [-97.582996, 35.486782], [-97.583192, 35.486782], [-97.583192, 35.486712], [-97.583005, 35.486712], [-97.583005, 35.486622], [-97.582892, 35.486622], [-97.582892, 35.486908]]]}, "properties": {"osm_id": 804976953, "building": "yes", "name": "", "height": null, "height_m": null, "levels": null, "tract_id": "40109102100", "tract_name": "1021", "tags": {"building": "yes", "source": "microsoft/BuildingFootprints"}}}, {"type": "Feature", "geometry": {"type": "Polygon", "coordinates": [[[-97.5763603, 35.4929885], [-97.5763601, 35.4929646], [-97.5762105, 35.4929638], [-97.5762108, 35.4928988], [-97.5762471, 35.4928989], [-97.5762477, 35.4928553], [-97.5766358, 35.4928589], [-97.5766352, 35.4929006], [-97.5764184, 35.4928994], [-97.5764191, 35.4929482], [-97.5766412, 35.4929481], [-97.5766416, 35.4929868], [-97.5763603, 35.4929885]]]}, "properties": {"osm_id": 1201181206, "building": "yes", "name": "", "height": null, "height_m": null, "levels": null, "tract_id": "40109102100", "tract_name": "1021", "tags": {"building": "yes"}}}, {"type": "Feature", "geometry": {"type": "Polygon", "coordinates": [[[-97.5659908, 35.4860408], [-97.5659926, 35.4863556], [-97.5657998, 35.4863564], [-97.565798, 35.4860565], [-97.5658195, 35.4860414], [-97.5659908, 35.4860408]]]}, "properties": {"osm_id": 1251179797, "building": "yes", "name": "A.J. Gill Billiard Supply - Solids and Stripes", "height": null, "height_m": null, "levels": null, "tract_id": "40109102100", "tract_name": "1021", "tags": {"addr:city": "Oklahoma City", "addr:housenumber": "2901", "addr:postcode": "73107", "addr:state": "OK", "addr:street": "North May Avenue", "building": "yes", "contact:facebook": "solidsnstripesokc", "contact:pinterest": "https://www.pinterest.com/solidsnstripes/", "contact:twitter": "solidsnstripes", "email": "steve@solidsnstripes.com", "name": "A.J. Gill Billiard Supply - Solids and Stripes", "opening_hours": "Mo-Fr 09:00-18:00; Sa 11:00-16:30", "phone": "+1 405 942 1848", "shop": "sports", "website": "https://solidsnstripes.com/"}}}, {"type": "Feature", "geometry": {"type": "Polygon", "coordinates": [[[-97.5659281, 35.4870716], [-97.565927, 35.4872542], [-97.565845, 35.4872538], [-97.5658458, 35.4871317], [-97.5658462, 35.4870713], [-97.5659281, 35.4870716]]]}, "properties": {"osm_id": 1251179798, "building": "yes", "name": "Glass Guys Inc.", "height": null, "height_m": null, "levels": null, "tract_id": "40109102100", "tract_name": "1021", "tags": {"addr:city": "Oklahoma City", "addr:postcode": "73107", "addr:state": "OK", "addr:street": "North May Avenue", "building": "yes", "craft": "window_construction", "name": "Glass Guys Inc.", "phone": "+1 541 942 2030"}}}, {"type": "Feature", "geometry": {"type": "Polygon", "coordinates": [[[-97.5658462, 35.4870713], [-97.5657754, 35.4870709], [-97.565775, 35.4871314], [-97.5658458, 35.4871317], [-97.5658462, 35.4870713]]]}, "properties": {"osm_id": 1251179799, "building": "carport", "name": "", "height": null, "height_m": null, "levels": null, "tract_id": "40109102100", "tract_name": "1021", "tags": {"building": "carport"}}}, {"type": "Feature", "geometry": {"type": "Polygon", "coordinates": [[[-97.5659777, 35.4866002], [-97.5659769, 35.4867351], [-97.5661434, 35.4867355], [-97.5661432, 35.4866002], [-97.5659777, 35.4866002]]]}, "properties": {"osm_id": 1251179800, "building": "yes", "name": "Laundry La Esquina", "height": null, "height_m": null, "levels": null, "tract_id": "40109102100", "tract_name": "1021", "tags": {"addr:city": "Oklahoma City", "addr:postcode": "73107", "addr:state": "OK", "addr:street": "North May Avenue", "building": "yes", "language:es": "main", "name": "Laundry La Esquina", "shop": "laundry"}}}, {"type": "Feature", "geometry": {"type": "Polygon", "coordinates": [[[-97.5659776, 35.486538], [-97.5659778, 35.4864201], [-97.5661423, 35.4864194], [-97.5661431, 35.4865379], [-97.5659776, 35.486538]]]}, "properties": {"osm_id": 1251179801, "building": "yes", "name": "Riz Viz", "height": null, "height_m": null, "levels": null, "tract_id": "40109102100", "tract_name": "1021", "tags": {"addr:city": "Oklahoma City", "addr:postcode": "73107", "addr:state": "OK", "addr:street": "North May Avenue", "building": "yes", "name": "Riz Viz", "shop": "convenience"}}}, {"type": "Feature", "geometry": {"type": "Polygon", "coordinates": [[[-97.5659776, 35.486538], [-97.5659777, 35.4866002], [-97.5661432, 35.4866002], [-97.5661431, 35.4865379], [-97.5659776, 35.486538]]]}, "properties": {"osm_id": 1251179802, "building": "yes", "name": "Weed Nation Cannabis Co.", "height": null, "height_m": null, "levels": null, "tract_id": "40109102100", "tract_name": "1021", "tags": {"addr:city": "Oklahoma City", "addr:postcode": "73107", "addr:state": "OK", "addr:street": "North May Avenue", "building": "yes", "name": "Weed Nation Cannabis Co.", "shop": "cannabis"}}}, {"type": "Feature", "geometry": {"type": "Polygon", "coordinates": [[[-97.5658186, 35.4906122], [-97.565816, 35.490825], [-97.5659788, 35.4908263], [-97.5659814, 35.4906136], [-97.5658186, 35.4906122]]]}, "properties": {"osm_id": 1251488701, "building": "yes", "name": "Sweis Pita Bakery and International Baery", "height": null, "height_m": null, "levels": null, "tract_id": "40109102100", "tract_name": "1021", "tags": {"addr:city": "Oklahoma City", "addr:housenumber": "2115", "addr:postcode": "73107", "addr:state": "OK", "addr:street": "North May Avenue", "building": "yes", "contact:facebook": "https://www.facebook.com/p/Sweis-Pita-Bakery-and-International-Market-100064008431650/", "contact:yelp": "https://www.yelp.com/biz/sweis-pita-bakery-and-intl-market-oklahoma-city", "name": "Sweis Pita Bakery and International Baery", "opening_hours": "Mo-Sa 10:00-18:00", "phone": "+1 405 943 8923", "shop": "bakery"}}}, {"type": "Feature", "geometry": {"type": "Polygon", "coordinates": [[[-97.5660934, 35.4922447], [-97.566092, 35.4923936], [-97.5657904, 35.4923918], [-97.5657917, 35.4922429], [-97.5660934, 35.4922447]]]}, "properties": {"osm_id": 1251488702, "building": "yes", "name": "MidFirst Bank", "height": null, "height_m": null, "levels": null, "tract_id": "40109102100", "tract_name": "1021", "tags": {"amenity": "bank", "atm": "yes", "brand": "MidFirst Bank", "brand:wikidata": "Q17081131", "building": "yes", "drive_through": "yes", "name": "MidFirst Bank"}}}, {"type": "Feature", "geometry": {"type": "Polygon", "coordinates": [[[-97.5661729, 35.4929885], [-97.5661211, 35.4929885], [-97.5660696, 35.4929882], [-97.5659668, 35.4929876], [-97.5659683, 35.4928156], [-97.5660711, 35.4928162], [-97.5661226, 35.4928165], [-97.566174, 35.4928168], [-97.5661729, 35.4929885]]]}, "properties": {"osm_id": 1251488703, "building": "commercial", "name": "", "height": null, "height_m": null, "levels": null, "tract_id": "40109102100", "tract_name": "1021", "tags": {"building": "commercial"}}}, {"type": "Feature", "geometry": {"type": "Polygon", "coordinates": [[[-97.5661729, 35.4929885], [-97.5662738, 35.4929889], [-97.5662749, 35.4928172], [-97.566174, 35.4928168], [-97.5661729, 35.4929885]]]}, "properties": {"osm_id": 1251488706, "building": "yes", "name": "Red Pepper Pizza", "height": null, "height_m": null, "levels": null, "tract_id": "40109102100", "tract_name": "1021", "tags": {"addr:city": "Oklahoma City", "addr:housenumber": "2908", "addr:postcode": "73107", "addr:state": "OK", "addr:street": "Northwest 23rd Street", "amenity": "restaurant", "building": "yes", "cuisine": "pizza", "delivery": "yes", "name": "Red Pepper Pizza", "opening_hours": "Su-Fr 15:30-02:00; Sa 15:30-00:00", "phone": "+1 405 602 6938", "takeaway": "yes", "website": "https://www.redpepperpizzaokc.com/"}}}, {"type": "Feature", "geometry": {"type": "Polygon", "coordinates": [[[-97.5659245, 35.492851], [-97.5659249, 35.4928923], [-97.5659085, 35.4928924], [-97.5659091, 35.4929601], [-97.5658449, 35.4929604], [-97.5658444, 35.4928928], [-97.5658314, 35.4928928], [-97.565831, 35.4928515], [-97.5659245, 35.492851]]]}, "properties": {"osm_id": 1251488708, "building": "yes", "name": "A&M Vape Shop", "height": null, "height_m": null, "levels": null, "tract_id": "40109102100", "tract_name": "1021", "tags": {"addr:city": "Oklahoma City", "addr:postcode": "73107", "addr:state": "OK", "addr:street": "North May Avenue", "building": "yes", "happy_hours": "Mo-Sa 19:30-21:00", "name": "A&M Vape Shop", "opening_hours": "Mo-Sa 09:00-21:00; Su 11:00-17:00", "shop": "e-cigarette"}}}]}