{"type": "FeatureCollection", "features": [{"type": "Feature", "geometry": {"type": "Polygon", "coordinates": [[[-95.8795318, 36.14127], [-95.879676, 36.1412699], [-95.8796763, 36.1414623], [-95.8798265, 36.1414622], [-95.8798265, 36.1414742], [-95.8798965, 36.1414742], [-95.8799307, 36.1414741], [-95.8799308, 36.1415725], [-95.8798915, 36.1415726], [-95.879823, 36.1415726], [-95.879823, 36.1415824], [-95.8796627, 36.1415826], [-95.8796627, 36.1415993], [-95.8795322, 36.1415994], [-95.8795321, 36.1414636], [-95.8795318, 36.14127]]]}, "properties": {"osm_id": 224176586, "building": "church", "name": "New Life Tabernacle Church", "height": null, "height_m": null, "levels": null, "tract_id": "40143007102", "tract_name": "71.02", "tags": {"amenity": "place_of_worship", "building": "church", "ele": "196", "gnis:feature_id": "1789849", "name": "New Life Tabernacle Church", "religion": "christian"}}}, {"type": "Feature", "geometry": {"type": "Polygon", "coordinates": [[[-95.8803128, 36.1473579], [-95.8805888, 36.1473541], [-95.8805924, 36.1475269], [-95.8803165, 36.1475307], [-95.8803128, 36.1473579]]]}, "properties": {"osm_id": 224176625, "building": "commercial", "name": "", "height": null, "height_m": null, "levels": null, "tract_id": "40143007102", "tract_name": "71.02", "tags": {"addr:city": "Tulsa", "addr:country": "US", "addr:housenumber": "8544", "addr:postcode": "74112", "addr:state": "OK", "addr:street": "East 11th Street South", "building": "commercial", "shop": "vacant"}}}, {"type": "Feature", "geometry": {"type": "Polygon", "coordinates": [[[-95.8655509, 36.1388571], [-95.8649892, 36.1388542], [-95.8649904, 36.1387104], [-95.865552, 36.1387133], [-95.8655509, 36.1388571]]]}, "properties": {"osm_id": 231172534, "building": "yes", "name": "", "height": null, "height_m": null, "levels": null, "tract_id": "40143007102", "tract_name": "71.02", "tags": {"building": "yes"}}}, {"type": "Feature", "geometry": {"type": "Polygon", "coordinates": [[[-95.8657065, 36.1382713], [-95.8651323, 36.138121], [-95.8652377, 36.1378584], [-95.8658119, 36.1380088], [-95.8657065, 36.1382713]]]}, "properties": {"osm_id": 231172536, "building": "yes", "name": "", "height": null, "height_m": null, "levels": null, "tract_id": "40143007102", "tract_name": "71.02", "tags": {"building": "yes"}}}, {"type": "Feature", "geometry": {"type": "Polygon", "coordinates": [[[-95.8657229, 36.1403782], [-95.8654636, 36.1403778], [-95.8654634, 36.1404729], [-95.8649028, 36.140472], [-95.8649033, 36.1402588], [-95.8652071, 36.1402593], [-95.8652073, 36.1401586], [-95.8657234, 36.1401595], [-95.8657229, 36.1403782]]]}, "properties": {"osm_id": 231172538, "building": "yes", "name": "", "height": null, "height_m": null, "levels": null, "tract_id": "40143007102", "tract_name": "71.02", "tags": {"building": "yes"}}}, {"type": "Feature", "geometry": {"type": "Polygon", "coordinates": [[[-95.8862991, 36.1442493], [-95.8862175, 36.1442497], [-95.8862166, 36.1441379], [-95.8862982, 36.1441375], [-95.8862991, 36.1442493]]]}, "properties": {"osm_id": 314619557, "building": "detached", "name": "", "height": null, "height_m": null, "levels": null, "tract_id": "40143007102", "tract_name": "71.02", "tags": {"addr:city": "Tulsa", "addr:country": "US", "addr:housenumber": "1253", "addr:postcode": "74112", "addr:state": "OK", "addr:street": "South Memorial Drive East", "building": "detached", "shop": "vacant"}}}, {"type": "Feature", "geometry": {"type": "Polygon", "coordinates": [[[-95.8855062, 36.1463871], [-95.8854896, 36.1463871], [-95.8854898, 36.1463344], [-95.8855075, 36.1463344], [-95.8855078, 36.1462556], [-95.8856123, 36.1462559], [-95.885611, 36.146594], [-95.8855042, 36.1465937], [-95.8855045, 36.1465187], [-95.8854907, 36.1465186], [-95.8854909, 36.1464629], [-95.8855059, 36.1464629], [-95.8855062, 36.1463871]]]}, "properties": {"osm_id": 384316553, "building": "apartments", "name": "", "height": null, "height_m": null, "levels": null, "tract_id": "40143007102", "tract_name": "71.02", "tags": {"building": "apartments"}}}, {"type": "Feature", "geometry": {"type": "Polygon", "coordinates": [[[-95.8858089, 36.146329], [-95.8858217, 36.146329], [-95.8858215, 36.146391], [-95.8858086, 36.146391], [-95.8858083, 36.1464624], [-95.8858233, 36.1464624], [-95.8858231, 36.1465212], [-95.885808, 36.1465212], [-95.8858077, 36.1465951], [-95.8857042, 36.1465948], [-95.8857056, 36.1462579], [-95.8858092, 36.1462582], [-95.8858089, 36.146329]]]}, "properties": {"osm_id": 384316555, "building": "apartments", "name": "", "height": null, "height_m": null, "levels": null, "tract_id": "40143007102", "tract_name": "71.02", "tags": {"building": "apartments"}}}, {"type": "Feature", "geometry": {"type": "Polygon", "coordinates": [[[-95.8743303, 36.1475007], [-95.8741593, 36.1474886], [-95.8741741, 36.1473521], [-95.8741329, 36.1473492], [-95.87414, 36.1472832], [-95.8741812, 36.1472861], [-95.8741886, 36.1472175], [-95.8743596, 36.1472296], [-95.8743303, 36.1475007]]]}, "properties": {"osm_id": 384316580, "building": "yes", "name": "", "height": null, "height_m": null, "levels": null, "tract_id": "40143007102", "tract_name": "71.02", "tags": {"building": "yes"}}}, {"type": "Feature", "geometry": {"type": "Polygon", "coordinates": [[[-95.885793, 36.1459788], [-95.8856104, 36.1459791], [-95.8856095, 36.1454537], [-95.8857921, 36.1454534], [-95.885793, 36.1459788]]]}, "properties": {"osm_id": 384316584, "building": "yes", "name": "", "height": null, "height_m": null, "levels": null, "tract_id": "40143007102", "tract_name": "71.02", "tags": {"building": "yes"}}}, {"type": "Feature", "geometry": {"type": "Polygon", "coordinates": [[[-95.8709513, 36.1472634], [-95.8712015, 36.1472626], [-95.8712035, 36.1477097], [-95.8709533, 36.1477105], [-95.8709513, 36.1472634]]]}, "properties": {"osm_id": 384316590, "building": "yes", "name": "Performance Truck Outfitters", "height": null, "height_m": null, "levels": null, "tract_id": "40143007102", "tract_name": "71.02", "tags": {"addr:city": "Tulsa", "addr:country": "US", "addr:housenumber": "9330", "addr:state": "OK", "addr:street": "East 11th Street South", "building": "yes", "name": "Performance Truck Outfitters", "shop": "car_parts", "website": "https://www.teampto.com/"}}}, {"type": "Feature", "geometry": {"type": "Polygon", "coordinates": [[[-95.8700749, 36.1474231], [-95.8700739, 36.1476555], [-95.870062, 36.1476555], [-95.8700617, 36.1477226], [-95.8699417, 36.1477222], [-95.8699421, 36.1476477], [-95.8699575, 36.1476478], [-95.8699585, 36.1474228], [-95.8700749, 36.1474231]]]}, "properties": {"osm_id": 384316592, "building": "industrial", "name": "Lupita's Tires", "height": null, "height_m": null, "levels": null, "tract_id": "40143007102", "tract_name": "71.02", "tags": {"building": "industrial", "name": "Lupita's Tires", "phone": "+1 918 409 3614", "shop": "tyres"}}}, {"type": "Feature", "geometry": {"type": "Polygon", "coordinates": [[[-95.8791106, 36.1476703], [-95.8789352, 36.1476693], [-95.8789388, 36.1472524], [-95.8791142, 36.1472534], [-95.8791106, 36.1476703]]]}, "properties": {"osm_id": 384316595, "building": "industrial", "name": "Allen Sheer Metal, Inc.", "height": null, "height_m": null, "levels": null, "tract_id": "40143007102", "tract_name": "71.02", "tags": {"addr:city": "Tulsa", "addr:country": "US", "addr:housenumber": "8724", "addr:postcode": "74112", "addr:state": "OK", "addr:street": "East 11th Street South", "building": "industrial", "name": "Allen Sheer Metal, Inc.", "office": "company"}}}, {"type": "Feature", "geometry": {"type": "Polygon", "coordinates": [[[-95.8797624, 36.1476659], [-95.879542, 36.1476646], [-95.8795444, 36.1473876], [-95.8797566, 36.1473857], [-95.8797624, 36.1476659]]]}, "properties": {"osm_id": 384316596, "building": "industrial", "name": "", "height": null, "height_m": null, "levels": null, "tract_id": "40143007102", "tract_name": "71.02", "tags": {"addr:city": "Tulsa", "addr:country": "US", "addr:housenumber": "8702", "addr:postcode": "74112", "addr:state": "OK", "addr:street": "East 11th Street South", "building": "industrial", "shop": "vacant"}}}, {"type": "Feature", "geometry": {"type": "Polygon", "coordinates": [[[-95.8853719, 36.1466439], [-95.8852157, 36.1466435], [-95.8852172, 36.1462535], [-95.8853735, 36.1462539], [-95.8853719, 36.1466439]]]}, "properties": {"osm_id": 384316600, "building": "apartments", "name": "", "height": null, "height_m": null, "levels": null, "tract_id": "40143007102", "tract_name": "71.02", "tags": {"building": "apartments"}}}, {"type": "Feature", "geometry": {"type": "Polygon", "coordinates": [[[-95.8729662, 36.1475861], [-95.8728014, 36.1475861], [-95.8727979, 36.1472643], [-95.8731127, 36.147262], [-95.8731172, 36.1476813], [-95.8729676, 36.1476823], [-95.8729662, 36.1475861]]]}, "properties": {"osm_id": 384316610, "building": "industrial", "name": "Vance Brothers Pavement Maintenance Products", "height": null, "height_m": null, "levels": null, "tract_id": "40143007102", "tract_name": "71.02", "tags": {"addr:city": "Tulsa", "addr:country": "US", "addr:housenumber": "9306", "addr:postcode": "74112", "addr:state": "OK", "addr:street": "East 11th Street South", "building": "industrial", "name": "Vance Brothers Pavement Maintenance Products", "shop": "trade", "trade": "building_supplies"}}}, {"type": "Feature", "geometry": {"type": "Polygon", "coordinates": [[[-95.8703103, 36.1477192], [-95.8703101, 36.1476887], [-95.8703287, 36.1476887], [-95.8703285, 36.1476329], [-95.8704152, 36.1476326], [-95.8704155, 36.1477189], [-95.8703103, 36.1477192]]]}, "properties": {"osm_id": 384316617, "building": "yes", "name": "", "height": null, "height_m": null, "levels": null, "tract_id": "40143007102", "tract_name": "71.02", "tags": {"building": "yes"}}}, {"type": "Feature", "geometry": {"type": "Polygon", "coordinates": [[[-95.8782188, 36.1476197], [-95.8781335, 36.1476192], [-95.8781323, 36.1477537], [-95.8780582, 36.1477533], [-95.8780601, 36.1475424], [-95.8782195, 36.1475433], [-95.8782188, 36.1476197]]]}, "properties": {"osm_id": 384316622, "building": "yes", "name": "Garcia's Motors", "height": null, "height_m": null, "levels": null, "tract_id": "40143007102", "tract_name": "71.02", "tags": {"addr:city": "Tulsa", "addr:country": "US", "addr:housenumber": "8752", "addr:postcode": "74112", "addr:state": "OK", "addr:street": "East 11th Street South", "building": "yes", "name": "Garcia's Motors", "phone": "+1 918 949 6099", "shop": "car"}}}, {"type": "Feature", "geometry": {"type": "Polygon", "coordinates": [[[-95.8846677, 36.1467869], [-95.8847817, 36.1467872], [-95.8847815, 36.1468462], [-95.884911, 36.1468466], [-95.8849107, 36.1469162], [-95.8846672, 36.1469155], [-95.8846677, 36.1467869]]]}, "properties": {"osm_id": 384316623, "building": "yes", "name": "", "height": null, "height_m": null, "levels": null, "tract_id": "40143007102", "tract_name": "71.02", "tags": {"building": "yes"}}}, {"type": "Feature", "geometry": {"type": "Polygon", "coordinates": [[[-95.8739207, 36.1474967], [-95.874019, 36.1474976], [-95.8740178, 36.1475834], [-95.8740504, 36.1475837], [-95.8740494, 36.1476519], [-95.8739185, 36.1476507], [-95.8739207, 36.1474967]]]}, "properties": {"osm_id": 384316626, "building": "yes", "name": "Freddie's Hamburgers", "height": null, "height_m": null, "levels": null, "tract_id": "40143007102", "tract_name": "71.02", "tags": {"addr:city": "Tulsa", "addr:country": "US", "addr:housenumber": "9130", "addr:postcode": "74112", "addr:state": "OK", "addr:street": "East 11th Street South", "amenity": "fast_food", "building": "yes", "cuisine": "burger", "name": "Freddie's Hamburgers"}}}, {"type": "Feature", "geometry": {"type": "Polygon", "coordinates": [[[-95.8853784, 36.1468958], [-95.8849959, 36.1468948], [-95.8849964, 36.1467711], [-95.8851453, 36.1467715], [-95.8851454, 36.1467574], [-95.8852379, 36.1467576], [-95.8852379, 36.1467704], [-95.8853789, 36.1467707], [-95.8853784, 36.1468958]]]}, "properties": {"osm_id": 384316628, "building": "apartments", "name": "", "height": null, "height_m": null, "levels": null, "tract_id": "40143007102", "tract_name": "71.02", "tags": {"building": "apartments"}}}, {"type": "Feature", "geometry": {"type": "Polygon", "coordinates": [[[-95.8785765, 36.1477792], [-95.8783693, 36.1477781], [-95.8783725, 36.1474001], [-95.8785798, 36.1474013], [-95.8785792, 36.147474], [-95.8787535, 36.147475], [-95.8787517, 36.1476799], [-95.8785774, 36.1476789], [-95.8785765, 36.1477792]]]}, "properties": {"osm_id": 384316630, "building": "yes", "name": "TSHA", "height": null, "height_m": null, "levels": null, "tract_id": "40143007102", "tract_name": "71.02", "tags": {"addr:city": "Tulsa", "addr:country": "US", "addr:housenumber": "8740", "addr:postcode": "74112", "addr:state": "OK", "addr:street": "East 11th Street South", "building": "yes", "name": "TSHA"}}}, {"type": "Feature", "geometry": {"type": "Polygon", "coordinates": [[[-95.8851417, 36.1465996], [-95.8849913, 36.1465992], [-95.8849927, 36.1462574], [-95.8851412, 36.1462578], [-95.8851407, 36.1463878], [-95.8851648, 36.1463879], [-95.8851645, 36.1464672], [-95.8851422, 36.1464672], [-95.8851417, 36.1465996]]]}, "properties": {"osm_id": 384316631, "building": "apartments", "name": "", "height": null, "height_m": null, "levels": null, "tract_id": "40143007102", "tract_name": "71.02", "tags": {"building": "apartments"}}}, {"type": "Feature", "geometry": {"type": "Polygon", "coordinates": [[[-95.8852089, 36.1458358], [-95.8849971, 36.1458385], [-95.8849944, 36.1457004], [-95.8853885, 36.1456954], [-95.8853898, 36.1457611], [-95.8854616, 36.1457602], [-95.8854669, 36.1460318], [-95.8852128, 36.146035], [-95.8852089, 36.1458358]]]}, "properties": {"osm_id": 384316632, "building": "apartments", "name": "", "height": null, "height_m": null, "levels": null, "tract_id": "40143007102", "tract_name": "71.02", "tags": {"building": "apartments"}}}, {"type": "Feature", "geometry": {"type": "Polygon", "coordinates": [[[-95.8736401, 36.1477041], [-95.8736113, 36.1477045], [-95.8736116, 36.1477172], [-95.8735496, 36.1477181], [-95.8735498, 36.147731], [-95.8734878, 36.1477319], [-95.873487, 36.1476984], [-95.8735, 36.1476982], [-95.8734982, 36.1476168], [-95.873565, 36.1476158], [-95.8735646, 36.1475941], [-95.8736094, 36.1475934], [-95.8736099, 36.1476152], [-95.8736381, 36.1476148], [-95.8736401, 36.1477041]]]}, "properties": {"osm_id": 746743898, "building": "detached", "name": "", "height": null, "height_m": null, "levels": null, "tract_id": "40143007102", "tract_name": "71.02", "tags": {"addr:city": "Tulsa", "addr:country": "US", "addr:housenumber": "9140", "addr:postcode": "74112", "addr:state": "OK", "addr:street": "East 11th Street South", "building": "detached", "shop": "car"}}}, {"type": "Feature", "geometry": {"type": "Polygon", "coordinates": [[[-95.8737923, 36.1475005], [-95.8737621, 36.1475007], [-95.8737615, 36.1474178], [-95.8737917, 36.1474177], [-95.8737923, 36.1475005]]]}, "properties": {"osm_id": 746743899, "building": "yes", "name": "", "height": null, "height_m": null, "levels": null, "tract_id": "40143007102", "tract_name": "71.02", "tags": {"building": "yes"}}}, {"type": "Feature", "geometry": {"type": "Polygon", "coordinates": [[[-95.8735804, 36.1473711], [-95.8736602, 36.1473684], [-95.8736613, 36.14739], [-95.8735816, 36.1473927], [-95.8735804, 36.1473711]]]}, "properties": {"osm_id": 746743900, "building": "yes", "name": "", "height": null, "height_m": null, "levels": null, "tract_id": "40143007102", "tract_name": "71.02", "tags": {"addr:city": "Tulsa", "addr:country": "US", "addr:housenumber": "1134", "addr:postcode": "74112", "addr:state": "OK", "addr:street": "South 93rd Avenue East", "building": "yes"}}}, {"type": "Feature", "geometry": {"type": "Polygon", "coordinates": [[[-95.8734912, 36.1474361], [-95.8735856, 36.1474343], [-95.8735876, 36.1475036], [-95.8734933, 36.1475054], [-95.8734912, 36.1474361]]]}, "properties": {"osm_id": 746743901, "building": "yes", "name": "", "height": null, "height_m": null, "levels": null, "tract_id": "40143007102", "tract_name": "71.02", "tags": {"building": "yes"}}}, {"type": "Feature", "geometry": {"type": "Polygon", "coordinates": [[[-95.8704011, 36.1471239], [-95.8704043, 36.1471935], [-95.8703925, 36.1471938], [-95.8703943, 36.1472326], [-95.8703119, 36.1472351], [-95.87031, 36.1471929], [-95.8702135, 36.1471958], [-95.8702104, 36.1471296], [-95.8704011, 36.1471239]]]}, "properties": {"osm_id": 746743902, "building": "yes", "name": "", "height": null, "height_m": null, "levels": null, "tract_id": "40143007102", "tract_name": "71.02", "tags": {"building": "yes"}}}, {"type": "Feature", "geometry": {"type": "Polygon", "coordinates": [[[-95.8703054, 36.1472455], [-95.8702528, 36.1472469], [-95.8702508, 36.1471993], [-95.8703034, 36.1471978], [-95.8703054, 36.1472455]]]}, "properties": {"osm_id": 746743903, "building": "yes", "name": "", "height": null, "height_m": null, "levels": null, "tract_id": "40143007102", "tract_name": "71.02", "tags": {"building": "yes"}}}, {"type": "Feature", "geometry": {"type": "Polygon", "coordinates": [[[-95.8701626, 36.1474269], [-95.8701076, 36.1474247], [-95.8701094, 36.1473957], [-95.8701644, 36.1473978], [-95.8701626, 36.1474269]]]}, "properties": {"osm_id": 746743904, "building": "yes", "name": "", "height": null, "height_m": null, "levels": null, "tract_id": "40143007102", "tract_name": "71.02", "tags": {"building": "yes"}}}, {"type": "Feature", "geometry": {"type": "Polygon", "coordinates": [[[-95.870062, 36.1473159], [-95.8700617, 36.1473776], [-95.8699695, 36.1473773], [-95.8699698, 36.1473156], [-95.870062, 36.1473159]]]}, "properties": {"osm_id": 746743905, "building": "yes", "name": "", "height": null, "height_m": null, "levels": null, "tract_id": "40143007102", "tract_name": "71.02", "tags": {"building": "yes"}}}, {"type": "Feature", "geometry": {"type": "Polygon", "coordinates": [[[-95.869824, 36.1475276], [-95.8699373, 36.1475276], [-95.8699373, 36.1476402], [-95.869824, 36.1476402], [-95.869824, 36.1475276]]]}, "properties": {"osm_id": 746743906, "building": "garage", "name": "", "height": null, "height_m": null, "levels": null, "tract_id": "40143007102", "tract_name": "71.02", "tags": {"building": "garage"}}}, {"type": "Feature", "geometry": {"type": "Polygon", "coordinates": [[[-95.8696671, 36.147598], [-95.869771, 36.147598], [-95.869771, 36.1477236], [-95.8696671, 36.1477236], [-95.8696671, 36.147598]]]}, "properties": {"osm_id": 746743907, "building": "detached", "name": "", "height": null, "height_m": null, "levels": null, "tract_id": "40143007102", "tract_name": "71.02", "tags": {"building": "detached"}}}, {"type": "Feature", "geometry": {"type": "Polygon", "coordinates": [[[-95.8691588, 36.1473099], [-95.8693345, 36.1473099], [-95.8693345, 36.1475839], [-95.8691588, 36.1475839], [-95.8691588, 36.1473099]]]}, "properties": {"osm_id": 746743908, "building": "commercial", "name": "Golf Cars of Tulsa", "height": null, "height_m": null, "levels": null, "tract_id": "40143007102", "tract_name": "71.02", "tags": {"building": "commercial", "name": "Golf Cars of Tulsa", "shop": "car"}}}, {"type": "Feature", "geometry": {"type": "Polygon", "coordinates": [[[-95.864939, 36.1475966], [-95.8652447, 36.1475966], [-95.8652447, 36.1473139], [-95.8649403, 36.1473161], [-95.864939, 36.1475966]]]}, "properties": {"osm_id": 822330360, "building": "retail", "name": "Family Dollar", "height": null, "height_m": null, "levels": null, "tract_id": "40143007102", "tract_name": "71.02", "tags": {"addr:city": "Tulsa", "addr:country": "US", "addr:housenumber": "9776", "addr:postcode": "74128", "addr:state": "OK", "addr:street": "East 11th Street South", "brand": "Family Dollar", "brand:wikidata": "Q5433101", "building": "retail", "name": "Family Dollar", "opening_hours": "Mo-Sa 09:00-22:00; Su 09:00-21:00", "phone": "+1 918 281 3764", "shop": "variety_store", "source": "INCOG", "website": "https://www.familydollar.com/locations/ok/tulsa/27885/"}}}, {"type": "Feature", "geometry": {"type": "Polygon", "coordinates": [[[-95.8657731, 36.1475793], [-95.8657745, 36.1476713], [-95.8660132, 36.1476702], [-95.8660132, 36.1475814], [-95.8657731, 36.1475793]]]}, "properties": {"osm_id": 822330364, "building": "commercial", "name": "", "height": null, "height_m": null, "levels": null, "tract_id": "40143007102", "tract_name": "71.02", "tags": {"addr:city": "Tulsa", "addr:country": "US", "addr:housenumber": "9768", "addr:postcode": "74128", "addr:state": "OK", "addr:street": "East 11th Street South", "building": "commercial", "source": "INCOG"}}}, {"type": "Feature", "geometry": {"type": "Polygon", "coordinates": [[[-95.8670271, 36.147237], [-95.8670284, 36.1471374], [-95.8673744, 36.1471363], [-95.8673744, 36.1472349], [-95.8670271, 36.147237]]]}, "properties": {"osm_id": 822330372, "building": "apartments", "name": "", "height": null, "height_m": null, "levels": null, "tract_id": "40143007102", "tract_name": "71.02", "tags": {"building": "apartments"}}}, {"type": "Feature", "geometry": {"type": "Polygon", "coordinates": [[[-95.86696, 36.1472349], [-95.8669627, 36.1471309], [-95.8664169, 36.1471298], [-95.8664115, 36.1472349], [-95.86696, 36.1472349]]]}, "properties": {"osm_id": 822330373, "building": "apartments", "name": "", "height": null, "height_m": null, "levels": null, "tract_id": "40143007102", "tract_name": "71.02", "tags": {"building": "apartments"}}}, {"type": "Feature", "geometry": {"type": "Polygon", "coordinates": [[[-95.8659233, 36.1472392], [-95.865922, 36.1471352], [-95.8661352, 36.1471287], [-95.8661352, 36.1471179], [-95.8663498, 36.1471201], [-95.8663512, 36.1472273], [-95.8661406, 36.1472295], [-95.8661406, 36.1472414], [-95.8659233, 36.1472392]]]}, "properties": {"osm_id": 822330374, "building": "apartments", "name": "", "height": null, "height_m": null, "levels": null, "tract_id": "40143007102", "tract_name": "71.02", "tags": {"building": "apartments"}}}, {"type": "Feature", "geometry": {"type": "Polygon", "coordinates": [[[-95.8659354, 36.147093], [-95.8660601, 36.1470898], [-95.8660601, 36.1468212], [-95.8659301, 36.1468212], [-95.8659354, 36.147093]]]}, "properties": {"osm_id": 822330375, "building": "apartments", "name": "", "height": null, "height_m": null, "levels": null, "tract_id": "40143007102", "tract_name": "71.02", "tags": {"building": "apartments"}}}, {"type": "Feature", "geometry": {"type": "Polygon", "coordinates": [[[-95.8661232, 36.1470735], [-95.8661835, 36.1470735], [-95.8661835, 36.1470843], [-95.8663833, 36.1470822], [-95.8663847, 36.1470714], [-95.8663968, 36.1470714], [-95.8663968, 36.1469782], [-95.8663391, 36.1469771], [-95.8663391, 36.1469685], [-95.8661191, 36.1469696], [-95.8661232, 36.1470735]]]}, "properties": {"osm_id": 822330376, "building": "apartments", "name": "", "height": null, "height_m": null, "levels": null, "tract_id": "40143007102", "tract_name": "71.02", "tags": {"building": "apartments"}}}, {"type": "Feature", "geometry": {"type": "Polygon", "coordinates": [[[-95.8664558, 36.1470616], [-95.8668916, 36.1470605], [-95.8668916, 36.1469576], [-95.8664558, 36.1469587], [-95.8664558, 36.1470616]]]}, "properties": {"osm_id": 822330377, "building": "apartments", "name": "", "height": null, "height_m": null, "levels": null, "tract_id": "40143007102", "tract_name": "71.02", "tags": {"building": "apartments"}}}, {"type": "Feature", "geometry": {"type": "Polygon", "coordinates": [[[-95.8670016, 36.147067], [-95.8673624, 36.1470638], [-95.8673637, 36.1469598], [-95.8670029, 36.1469609], [-95.8670016, 36.147067]]]}, "properties": {"osm_id": 822330378, "building": "apartments", "name": "", "height": null, "height_m": null, "levels": null, "tract_id": "40143007102", "tract_name": "71.02", "tags": {"building": "apartments"}}}, {"type": "Feature", "geometry": {"type": "Polygon", "coordinates": [[[-95.8661983, 36.1469208], [-95.8663847, 36.1469219], [-95.8663833, 36.1468981], [-95.8664517, 36.1468992], [-95.8664504, 36.1468006], [-95.866378, 36.1468017], [-95.866378, 36.1468309], [-95.8661916, 36.1468266], [-95.8661983, 36.1469208]]]}, "properties": {"osm_id": 822330379, "building": "apartments", "name": "", "height": null, "height_m": null, "levels": null, "tract_id": "40143007102", "tract_name": "71.02", "tags": {"building": "apartments"}}}, {"type": "Feature", "geometry": {"type": "Polygon", "coordinates": [[[-95.8665255, 36.1469067], [-95.8669292, 36.1469067], [-95.8669305, 36.1468028], [-95.8665255, 36.1468017], [-95.8665255, 36.1469067]]]}, "properties": {"osm_id": 822330380, "building": "apartments", "name": "", "height": null, "height_m": null, "levels": null, "tract_id": "40143007102", "tract_name": "71.02", "tags": {"building": "apartments"}}}, {"type": "Feature", "geometry": {"type": "Polygon", "coordinates": [[[-95.8670096, 36.1469013], [-95.8673597, 36.1469024], [-95.8673597, 36.1468049], [-95.8670083, 36.1468093], [-95.8670096, 36.1469013]]]}, "properties": {"osm_id": 822330381, "building": "apartments", "name": "", "height": null, "height_m": null, "levels": null, "tract_id": "40143007102", "tract_name": "71.02", "tags": {"building": "apartments"}}}, {"type": "Feature", "geometry": {"type": "Polygon", "coordinates": [[[-95.8665107, 36.1467356], [-95.8666207, 36.1467367], [-95.8666234, 36.146545], [-95.8665134, 36.1465429], [-95.8665107, 36.1467356]]]}, "properties": {"osm_id": 822330382, "building": "apartments", "name": "", "height": null, "height_m": null, "levels": null, "tract_id": "40143007102", "tract_name": "71.02", "tags": {"building": "apartments"}}}, {"type": "Feature", "geometry": {"type": "Polygon", "coordinates": [[[-95.8671893, 36.1467411], [-95.8673087, 36.14674], [-95.86731, 36.146545], [-95.867192, 36.1465472], [-95.8671893, 36.1467411]]]}, "properties": {"osm_id": 822330383, "building": "apartments", "name": "", "height": null, "height_m": null, "levels": null, "tract_id": "40143007102", "tract_name": "71.02", "tags": {"building": "apartments"}}}, {"type": "Feature", "geometry": {"type": "Polygon", "coordinates": [[[-95.8664719, 36.146506], [-95.8665979, 36.146505], [-95.8665979, 36.1463133], [-95.8664719, 36.1463133], [-95.8664719, 36.146506]]]}, "properties": {"osm_id": 822330384, "building": "apartments", "name": "", "height": null, "height_m": null, "levels": null, "tract_id": "40143007102", "tract_name": "71.02", "tags": {"building": "apartments"}}}, {"type": "Feature", "geometry": {"type": "Polygon", "coordinates": [[[-95.8672215, 36.1465039], [-95.8673449, 36.1465039], [-95.8673463, 36.1463122], [-95.8672215, 36.1463122], [-95.8672215, 36.1465039]]]}, "properties": {"osm_id": 822330385, "building": "apartments", "name": "", "height": null, "height_m": null, "levels": null, "tract_id": "40143007102", "tract_name": "71.02", "tags": {"building": "apartments"}}}, {"type": "Feature", "geometry": {"type": "Polygon", "coordinates": [[[-95.866724, 36.1465927], [-95.8670847, 36.1465905], [-95.8670834, 36.1464887], [-95.8667253, 36.1464866], [-95.866724, 36.1465927]]]}, "properties": {"osm_id": 822330386, "building": "apartments", "name": "", "height": null, "height_m": null, "levels": null, "tract_id": "40143007102", "tract_name": "71.02", "tags": {"building": "apartments"}}}, {"type": "Feature", "geometry": {"type": "Polygon", "coordinates": [[[-95.866677, 36.1464129], [-95.8671303, 36.1464129], [-95.8671344, 36.1463198], [-95.8666757, 36.1463144], [-95.866677, 36.1464129]]]}, "properties": {"osm_id": 822330387, "building": "apartments", "name": "", "height": null, "height_m": null, "levels": null, "tract_id": "40143007102", "tract_name": "71.02", "tags": {"building": "apartments"}}}, {"type": "Feature", "geometry": {"type": "Polygon", "coordinates": [[[-95.8863189, 36.1349526], [-95.8862706, 36.1349525], [-95.8862707, 36.1349228], [-95.8861949, 36.1349227], [-95.8861949, 36.1349524], [-95.8861453, 36.1349523], [-95.8861466, 36.1344562], [-95.8861962, 36.1344563], [-95.8861956, 36.1346709], [-95.8862694, 36.134671], [-95.88627, 36.1344564], [-95.8863202, 36.1344565], [-95.8863189, 36.1349526]]]}, "properties": {"osm_id": 823942457, "building": "retail", "name": "Sonic", "height": null, "height_m": null, "levels": null, "tract_id": "40143007102", "tract_name": "71.02", "tags": {"addr:city": "Tulsa", "addr:country": "US", "addr:housenumber": "1919", "addr:postcode": "74112", "addr:state": "OK", "addr:street": "South Memorial Drive East", "amenity": "fast_food", "brand": "Sonic", "brand:wikidata": "Q7561808", "building": "retail", "cuisine": "burger", "drive_in": "yes", "name": "Sonic", "opening_hours": "Mo-Sa 06:00-23:00; Su 07:00-23:00", "phone": "+1 918-627-4762", "takeaway": "yes", "website": "https://locations.sonicdrivein.com/ok/tulsa/1919-s-memorial-drive.html"}}}, {"type": "Feature", "geometry": {"type": "Polygon", "coordinates": [[[-95.8862686, 36.134203], [-95.8860426, 36.1342018], [-95.8860425, 36.1342157], [-95.8859607, 36.1342152], [-95.8859608, 36.1342014], [-95.8858542, 36.1342008], [-95.885855, 36.1340969], [-95.8859421, 36.1340974], [-95.8859422, 36.1340854], [-95.8861661, 36.1340866], [-95.886166, 36.1340986], [-95.8862694, 36.1340991], [-95.8862686, 36.134203]]]}, "properties": {"osm_id": 823942458, "building": "yes", "name": "QuikTrip", "height": null, "height_m": null, "levels": null, "tract_id": "40143007102", "tract_name": "71.02", "tags": {"addr:city": "Tulsa", "addr:country": "US", "addr:housenumber": "8105", "addr:postcode": "74129", "addr:state": "OK", "addr:street": "East 21st Street South", "brand": "QuikTrip", "brand:wikidata": "Q7271953", "building": "yes", "building:colour": "brown", "check_date": "2025-04-13", "name": "QuikTrip", "opening_hours": "24/7", "shop": "convenience", "short_name": "QT"}}}, {"type": "Feature", "geometry": {"type": "Polygon", "coordinates": [[[-95.8862874, 36.1339322], [-95.8861939, 36.133932], [-95.8860635, 36.1339316], [-95.8859407, 36.1339313], [-95.8858757, 36.1339311], [-95.8858764, 36.133759], [-95.8859431, 36.1337592], [-95.8860658, 36.1337595], [-95.8861931, 36.1337598], [-95.8862881, 36.1337601], [-95.8862874, 36.1339322]]]}, "properties": {"osm_id": 823942459, "building": "yes", "name": "QuikTrip", "height": null, "height_m": null, "levels": null, "tract_id": "40143007102", "tract_name": "71.02", "tags": {"amenity": "fuel", "brand": "QuikTrip", "brand:wikidata": "Q7271953", "building": "yes", "check_date": "2025-04-13", "check_date:compressed_air": "2025-04-13", "compressed_air": "yes", "name": "QuikTrip", "opening_hours": "24/7", "short_name": "QT"}}}, {"type": "Feature", "geometry": {"type": "Polygon", "coordinates": [[[-95.8754063, 36.1474585], [-95.8754895, 36.1474401], [-95.8754586, 36.1473405], [-95.8753755, 36.1473632], [-95.8754063, 36.1474585]]]}, "properties": {"osm_id": 826579937, "building": "roof", "name": "", "height": null, "height_m": null, "levels": null, "tract_id": "40143007102", "tract_name": "71.02", "tags": {"building": "roof", "layer": "1"}}}, {"type": "Feature", "geometry": {"type": "Polygon", "coordinates": [[[-95.8755417, 36.1473817], [-95.8756248, 36.1473817], [-95.8756248, 36.1473123], [-95.875539, 36.1473113], [-95.8755417, 36.1473817]]]}, "properties": {"osm_id": 826579938, "building": "commercial", "name": "", "height": null, "height_m": null, "levels": null, "tract_id": "40143007102", "tract_name": "71.02", "tags": {"building": "commercial"}}}, {"type": "Feature", "geometry": {"type": "Polygon", "coordinates": [[[-95.8756423, 36.1473827], [-95.8757241, 36.1473817], [-95.8757201, 36.1473102], [-95.8756397, 36.1473113], [-95.8756423, 36.1473827]]]}, "properties": {"osm_id": 826579939, "building": "commercial", "name": "", "height": null, "height_m": null, "levels": null, "tract_id": "40143007102", "tract_name": "71.02", "tags": {"building": "commercial"}}}, {"type": "Feature", "geometry": {"type": "Polygon", "coordinates": [[[-95.8757657, 36.1477558], [-95.8759038, 36.1477547], [-95.8759038, 36.1477352], [-95.8759749, 36.1477352], [-95.8759749, 36.1477569], [-95.8760715, 36.1477558], [-95.8760701, 36.1476648], [-95.875983, 36.1476681], [-95.8759843, 36.1475782], [-95.8757603, 36.1475782], [-95.8757657, 36.1477558]]]}, "properties": {"osm_id": 826579940, "building": "detached", "name": "", "height": null, "height_m": null, "levels": null, "tract_id": "40143007102", "tract_name": "71.02", "tags": {"building": "detached", "shop": "vacant"}}}, {"type": "Feature", "geometry": {"type": "Polygon", "coordinates": [[[-95.8808887, 36.1476995], [-95.8808875, 36.147615], [-95.8810162, 36.1476138], [-95.8810174, 36.1476983], [-95.8808887, 36.1476995]]]}, "properties": {"osm_id": 826579971, "building": "detached", "name": "", "height": null, "height_m": null, "levels": null, "tract_id": "40143007102", "tract_name": "71.02", "tags": {"addr:city": "Tulsa", "addr:country": "US", "addr:housenumber": "8524", "addr:postcode": "74112", "addr:state": "OK", "addr:street": "East 11th Street South", "building": "detached", "shop": "car"}}}, {"type": "Feature", "geometry": {"type": "Polygon", "coordinates": [[[-95.8723425, 36.1368035], [-95.8722463, 36.1368053], [-95.8722453, 36.1367692], [-95.8722005, 36.1367701], [-95.8721981, 36.1366864], [-95.8722443, 36.1366856], [-95.8722398, 36.1365283], [-95.8723484, 36.1365263], [-95.872352, 36.1366531], [-95.8723381, 36.1366534], [-95.8723425, 36.1368035]]]}, "properties": {"osm_id": 843234700, "building": "detached", "name": "", "height": null, "height_m": null, "levels": null, "tract_id": "40143007102", "tract_name": "71.02", "tags": {"addr:city": "Tulsa", "addr:country": "US", "addr:housenumber": "1719", "addr:postcode": "74112", "addr:state": "OK", "addr:street": "South 94th Avenue East", "building": "detached"}}}, {"type": "Feature", "geometry": {"type": "Polygon", "coordinates": [[[-95.8737828, 36.1363634], [-95.8736596, 36.1362748], [-95.8735668, 36.1363596], [-95.8734483, 36.1362738], [-95.8734717, 36.1362517], [-95.8734396, 36.1362314], [-95.8735067, 36.1361654], [-95.8734396, 36.1361173], [-95.8735143, 36.1360456], [-95.8737443, 36.1362135], [-95.8737349, 36.1362224], [-95.8738464, 36.1363054], [-95.8737828, 36.1363634]]]}, "properties": {"osm_id": 843234704, "building": "yes", "name": "", "height": null, "height_m": null, "levels": null, "tract_id": "40143007102", "tract_name": "71.02", "tags": {"building": "yes"}}}, {"type": "Feature", "geometry": {"type": "Polygon", "coordinates": [[[-95.8730144, 36.1361066], [-95.8731221, 36.1361916], [-95.8730728, 36.1362325], [-95.8730755, 36.1362346], [-95.8730573, 36.1362496], [-95.8730648, 36.1362556], [-95.8730431, 36.1362735], [-95.8730622, 36.1362886], [-95.8730072, 36.136334], [-95.872978, 36.136311], [-95.8729113, 36.1363661], [-95.872908, 36.1363635], [-95.8728651, 36.136399], [-95.8728078, 36.1363538], [-95.8728566, 36.1363134], [-95.8728528, 36.1363104], [-95.8729126, 36.136261], [-95.8729065, 36.1362562], [-95.8729817, 36.136194], [-95.8729443, 36.1361646], [-95.8730144, 36.1361066]]]}, "properties": {"osm_id": 843234705, "building": "detached", "name": "", "height": null, "height_m": null, "levels": null, "tract_id": "40143007102", "tract_name": "71.02", "tags": {"addr:city": "Tulsa", "addr:country": "US", "addr:housenumber": "1724", "addr:postcode": "74112", "addr:state": "OK", "addr:street": "South 94th Avenue East", "building": "detached"}}}, {"type": "Feature", "geometry": {"type": "Polygon", "coordinates": [[[-95.873346, 36.1365852], [-95.873346, 36.1365505], [-95.8733706, 36.1365505], [-95.8733707, 36.1365851], [-95.873346, 36.1365852]]]}, "properties": {"osm_id": 843234707, "building": "yes", "name": "", "height": null, "height_m": null, "levels": null, "tract_id": "40143007102", "tract_name": "71.02", "tags": {"building": "yes"}}}, {"type": "Feature", "geometry": {"type": "Polygon", "coordinates": [[[-95.8732612, 36.1365778], [-95.8732043, 36.1365792], [-95.8732027, 36.1365412], [-95.8732597, 36.1365397], [-95.8732612, 36.1365778]]]}, "properties": {"osm_id": 843234708, "building": "yes", "name": "", "height": null, "height_m": null, "levels": null, "tract_id": "40143007102", "tract_name": "71.02", "tags": {"building": "yes"}}}, {"type": "Feature", "geometry": {"type": "Polygon", "coordinates": [[[-95.8722635, 36.136349], [-95.8721762, 36.1362672], [-95.8721918, 36.1362564], [-95.8720635, 36.1361361], [-95.872145, 36.1360794], [-95.8723606, 36.1362814], [-95.8722635, 36.136349]]]}, "properties": {"osm_id": 843234709, "building": "yes", "name": "", "height": null, "height_m": null, "levels": null, "tract_id": "40143007102", "tract_name": "71.02", "tags": {"addr:city": "Tulsa", "addr:country": "US", "addr:housenumber": "1725", "addr:postcode": "74112", "addr:state": "OK", "addr:street": "South 94th Avenue East", "building": "yes"}}}, {"type": "Feature", "geometry": {"type": "Polygon", "coordinates": [[[-95.8732216, 36.1356052], [-95.8732211, 36.1356902], [-95.8732852, 36.1356905], [-95.8732851, 36.1357057], [-95.8733217, 36.1357058], [-95.8733218, 36.1356904], [-95.8733716, 36.1356906], [-95.8733716, 36.1356847], [-95.8734853, 36.1356851], [-95.8734852, 36.1357096], [-95.8735701, 36.1357098], [-95.8735704, 36.1356407], [-95.8734963, 36.1356404], [-95.8734965, 36.1356062], [-95.8732216, 36.1356052]]]}, "properties": {"osm_id": 843234712, "building": "yes", "name": "", "height": null, "height_m": null, "levels": null, "tract_id": "40143007102", "tract_name": "71.02", "tags": {"building": "yes"}}}, {"type": "Feature", "geometry": {"type": "Polygon", "coordinates": [[[-95.8729335, 36.1356058], [-95.8728542, 36.135606], [-95.8728543, 36.1356197], [-95.872791, 36.1356198], [-95.8727909, 36.1355928], [-95.8726961, 36.135593], [-95.8726962, 36.1356217], [-95.8725921, 36.1356219], [-95.8725923, 36.1357049], [-95.8727265, 36.1357047], [-95.8727265, 36.1356965], [-95.8727672, 36.1356965], [-95.8727671, 36.135678], [-95.8729337, 36.1356777], [-95.8729335, 36.1356058]]]}, "properties": {"osm_id": 843234713, "building": "yes", "name": "", "height": null, "height_m": null, "levels": null, "tract_id": "40143007102", "tract_name": "71.02", "tags": {"building": "yes"}}}, {"type": "Feature", "geometry": {"type": "Polygon", "coordinates": [[[-95.872918, 36.1355995], [-95.8728907, 36.1355998], [-95.8728903, 36.1355707], [-95.8729177, 36.1355704], [-95.872918, 36.1355995]]]}, "properties": {"osm_id": 843234714, "building": "yes", "name": "", "height": null, "height_m": null, "levels": null, "tract_id": "40143007102", "tract_name": "71.02", "tags": {"building": "yes"}}}, {"type": "Feature", "geometry": {"type": "Polygon", "coordinates": [[[-95.8769789, 36.135922], [-95.8767235, 36.1359236], [-95.8767224, 36.1357994], [-95.876774, 36.1357991], [-95.8767739, 36.1357888], [-95.876919, 36.1357879], [-95.8769191, 36.1357982], [-95.8769778, 36.1357978], [-95.8769789, 36.135922]]]}, "properties": {"osm_id": 846494569, "building": "yes", "name": "", "height": null, "height_m": null, "levels": null, "tract_id": "40143007102", "tract_name": "71.02", "tags": {"building": "yes"}}}, {"type": "Feature", "geometry": {"type": "Polygon", "coordinates": [[[-95.8766615, 36.1359248], [-95.8764061, 36.1359263], [-95.876405, 36.1358022], [-95.8764566, 36.1358019], [-95.8764565, 36.1357916], [-95.8766016, 36.1357907], [-95.8766017, 36.1358009], [-95.8766604, 36.1358006], [-95.8766615, 36.1359248]]]}, "properties": {"osm_id": 846494570, "building": "yes", "name": "", "height": null, "height_m": null, "levels": null, "tract_id": "40143007102", "tract_name": "71.02", "tags": {"building": "yes"}}}, {"type": "Feature", "geometry": {"type": "Polygon", "coordinates": [[[-95.8763406, 36.1359223], [-95.8760852, 36.1359238], [-95.8760841, 36.1357997], [-95.8761357, 36.1357993], [-95.8761356, 36.135789], [-95.8762807, 36.1357882], [-95.8762808, 36.1357984], [-95.8763395, 36.1357981], [-95.8763406, 36.1359223]]]}, "properties": {"osm_id": 846494571, "building": "yes", "name": "", "height": null, "height_m": null, "levels": null, "tract_id": "40143007102", "tract_name": "71.02", "tags": {"building": "yes"}}}, {"type": "Feature", "geometry": {"type": "Polygon", "coordinates": [[[-95.8772992, 36.135922], [-95.8770438, 36.1359235], [-95.8770427, 36.1357994], [-95.8770943, 36.1357991], [-95.8770942, 36.1357888], [-95.8772393, 36.1357879], [-95.8772394, 36.1357981], [-95.8772981, 36.1357978], [-95.8772992, 36.135922]]]}, "properties": {"osm_id": 846494572, "building": "yes", "name": "", "height": null, "height_m": null, "levels": null, "tract_id": "40143007102", "tract_name": "71.02", "tags": {"building": "yes"}}}, {"type": "Feature", "geometry": {"type": "Polygon", "coordinates": [[[-95.8775981, 36.1359201], [-95.8773427, 36.1359217], [-95.8773416, 36.1357975], [-95.8773932, 36.1357972], [-95.8773931, 36.1357869], [-95.8775382, 36.135786], [-95.8775383, 36.1357963], [-95.877597, 36.1357959], [-95.8775981, 36.1359201]]]}, "properties": {"osm_id": 846494573, "building": "yes", "name": "", "height": null, "height_m": null, "levels": null, "tract_id": "40143007102", "tract_name": "71.02", "tags": {"building": "yes"}}}, {"type": "Feature", "geometry": {"type": "Polygon", "coordinates": [[[-95.8775985, 36.1366403], [-95.8773431, 36.1366418], [-95.8773419, 36.1365177], [-95.8773935, 36.1365174], [-95.8773934, 36.1365071], [-95.8775386, 36.1365062], [-95.8775387, 36.1365164], [-95.8775973, 36.1365161], [-95.8775985, 36.1366403]]]}, "properties": {"osm_id": 846494574, "building": "yes", "name": "", "height": null, "height_m": null, "levels": null, "tract_id": "40143007102", "tract_name": "71.02", "tags": {"building": "yes"}}}, {"type": "Feature", "geometry": {"type": "Polygon", "coordinates": [[[-95.8772992, 36.1366421], [-95.8770438, 36.1366437], [-95.8770427, 36.1365195], [-95.8770943, 36.1365192], [-95.8770942, 36.1365089], [-95.8772393, 36.136508], [-95.8772394, 36.1365183], [-95.8772981, 36.1365179], [-95.8772992, 36.1366421]]]}, "properties": {"osm_id": 846494575, "building": "yes", "name": "", "height": null, "height_m": null, "levels": null, "tract_id": "40143007102", "tract_name": "71.02", "tags": {"building": "yes"}}}, {"type": "Feature", "geometry": {"type": "Polygon", "coordinates": [[[-95.8769773, 36.1366443], [-95.8767219, 36.1366458], [-95.8767208, 36.1365217], [-95.8767724, 36.1365214], [-95.8767723, 36.1365111], [-95.8769174, 36.1365102], [-95.8769175, 36.1365204], [-95.8769762, 36.1365201], [-95.8769773, 36.1366443]]]}, "properties": {"osm_id": 846494576, "building": "yes", "name": "", "height": null, "height_m": null, "levels": null, "tract_id": "40143007102", "tract_name": "71.02", "tags": {"building": "yes"}}}, {"type": "Feature", "geometry": {"type": "Polygon", "coordinates": [[[-95.8766595, 36.1366443], [-95.8764041, 36.1366458], [-95.8764029, 36.1365217], [-95.8764545, 36.1365214], [-95.8764544, 36.1365111], [-95.8765996, 36.1365102], [-95.8765997, 36.1365204], [-95.8766584, 36.1365201], [-95.8766595, 36.1366443]]]}, "properties": {"osm_id": 846494577, "building": "yes", "name": "", "height": null, "height_m": null, "levels": null, "tract_id": "40143007102", "tract_name": "71.02", "tags": {"building": "yes"}}}, {"type": "Feature", "geometry": {"type": "Polygon", "coordinates": [[[-95.876347, 36.1366421], [-95.8760916, 36.1366437], [-95.8760905, 36.1365195], [-95.8761421, 36.1365192], [-95.876142, 36.1365089], [-95.8762871, 36.136508], [-95.8762872, 36.1365183], [-95.8763459, 36.1365179], [-95.876347, 36.1366421]]]}, "properties": {"osm_id": 846494578, "building": "yes", "name": "", "height": null, "height_m": null, "levels": null, "tract_id": "40143007102", "tract_name": "71.02", "tags": {"building": "yes"}}}, {"type": "Feature", "geometry": {"type": "Polygon", "coordinates": [[[-95.8773461, 36.1368291], [-95.8776015, 36.136828], [-95.8776023, 36.1369522], [-95.8775507, 36.1369524], [-95.8775508, 36.1369627], [-95.8774056, 36.1369633], [-95.8774055, 36.136953], [-95.8773469, 36.1369533], [-95.8773461, 36.1368291]]]}, "properties": {"osm_id": 846494579, "building": "yes", "name": "", "height": null, "height_m": null, "levels": null, "tract_id": "40143007102", "tract_name": "71.02", "tags": {"building": "yes"}}}, {"type": "Feature", "geometry": {"type": "Polygon", "coordinates": [[[-95.8770377, 36.1368314], [-95.8772931, 36.1368304], [-95.8772939, 36.1369545], [-95.8772423, 36.1369547], [-95.8772423, 36.136965], [-95.8770972, 36.1369656], [-95.8770971, 36.1369554], [-95.8770385, 36.1369556], [-95.8770377, 36.1368314]]]}, "properties": {"osm_id": 846494580, "building": "yes", "name": "", "height": null, "height_m": null, "levels": null, "tract_id": "40143007102", "tract_name": "71.02", "tags": {"building": "yes"}}}, {"type": "Feature", "geometry": {"type": "Polygon", "coordinates": [[[-95.8767245, 36.13683], [-95.8769799, 36.1368289], [-95.8769807, 36.1369531], [-95.8769291, 36.1369533], [-95.8769291, 36.1369636], [-95.876784, 36.1369642], [-95.8767839, 36.1369539], [-95.8767252, 36.1369542], [-95.8767245, 36.13683]]]}, "properties": {"osm_id": 846494581, "building": "yes", "name": "", "height": null, "height_m": null, "levels": null, "tract_id": "40143007102", "tract_name": "71.02", "tags": {"building": "yes"}}}, {"type": "Feature", "geometry": {"type": "Polygon", "coordinates": [[[-95.8764033, 36.1368293], [-95.8766587, 36.1368282], [-95.8766595, 36.1369524], [-95.8766079, 36.1369526], [-95.8766079, 36.1369629], [-95.8764628, 36.1369635], [-95.8764627, 36.1369532], [-95.8764041, 36.1369535], [-95.8764033, 36.1368293]]]}, "properties": {"osm_id": 846494582, "building": "yes", "name": "", "height": null, "height_m": null, "levels": null, "tract_id": "40143007102", "tract_name": "71.02", "tags": {"building": "yes"}}}, {"type": "Feature", "geometry": {"type": "Polygon", "coordinates": [[[-95.8760945, 36.1368278], [-95.8763499, 36.1368268], [-95.8763507, 36.1369509], [-95.8762991, 36.1369512], [-95.8762991, 36.1369615], [-95.876154, 36.1369621], [-95.8761539, 36.1369518], [-95.8760953, 36.136952], [-95.8760945, 36.1368278]]]}, "properties": {"osm_id": 846494583, "building": "yes", "name": "", "height": null, "height_m": null, "levels": null, "tract_id": "40143007102", "tract_name": "71.02", "tags": {"building": "yes"}}}, {"type": "Feature", "geometry": {"type": "Polygon", "coordinates": [[[-95.8773438, 36.1361051], [-95.8775992, 36.1361041], [-95.8775999, 36.1362282], [-95.8775483, 36.1362285], [-95.8775484, 36.1362388], [-95.8774033, 36.1362394], [-95.8774032, 36.1362291], [-95.8773445, 36.1362293], [-95.8773438, 36.1361051]]]}, "properties": {"osm_id": 846494584, "building": "yes", "name": "", "height": null, "height_m": null, "levels": null, "tract_id": "40143007102", "tract_name": "71.02", "tags": {"building": "yes"}}}, {"type": "Feature", "geometry": {"type": "Polygon", "coordinates": [[[-95.8770355, 36.136107], [-95.8772909, 36.136106], [-95.8772917, 36.1362301], [-95.8772401, 36.1362303], [-95.8772402, 36.1362406], [-95.877095, 36.1362412], [-95.877095, 36.136231], [-95.8770363, 36.1362312], [-95.8770355, 36.136107]]]}, "properties": {"osm_id": 846494585, "building": "yes", "name": "", "height": null, "height_m": null, "levels": null, "tract_id": "40143007102", "tract_name": "71.02", "tags": {"building": "yes"}}}, {"type": "Feature", "geometry": {"type": "Polygon", "coordinates": [[[-95.8767192, 36.136107], [-95.8769746, 36.136106], [-95.8769753, 36.1362301], [-95.8769237, 36.1362303], [-95.8769238, 36.1362406], [-95.8767786, 36.1362412], [-95.8767786, 36.136231], [-95.8767199, 36.1362312], [-95.8767192, 36.136107]]]}, "properties": {"osm_id": 846494586, "building": "yes", "name": "", "height": null, "height_m": null, "levels": null, "tract_id": "40143007102", "tract_name": "71.02", "tags": {"building": "yes"}}}, {"type": "Feature", "geometry": {"type": "Polygon", "coordinates": [[[-95.8763993, 36.1361108], [-95.8766547, 36.1361097], [-95.8766554, 36.1362339], [-95.8766038, 36.1362341], [-95.8766039, 36.1362444], [-95.8764587, 36.136245], [-95.8764587, 36.1362348], [-95.8764, 36.136235], [-95.8763993, 36.1361108]]]}, "properties": {"osm_id": 846494587, "building": "yes", "name": "", "height": null, "height_m": null, "levels": null, "tract_id": "40143007102", "tract_name": "71.02", "tags": {"building": "yes"}}}, {"type": "Feature", "geometry": {"type": "Polygon", "coordinates": [[[-95.8760782, 36.136107], [-95.8763336, 36.136106], [-95.8763344, 36.1362301], [-95.8762828, 36.1362303], [-95.8762828, 36.1362406], [-95.8761377, 36.1362412], [-95.8761376, 36.136231], [-95.876079, 36.1362312], [-95.8760782, 36.136107]]]}, "properties": {"osm_id": 846494588, "building": "yes", "name": "", "height": null, "height_m": null, "levels": null, "tract_id": "40143007102", "tract_name": "71.02", "tags": {"building": "yes"}}}, {"type": "Feature", "geometry": {"type": "Polygon", "coordinates": [[[-95.8760887, 36.1353876], [-95.8763441, 36.1353865], [-95.8763449, 36.1355107], [-95.8762933, 36.1355109], [-95.8762933, 36.1355212], [-95.8761482, 36.1355218], [-95.8761481, 36.1355116], [-95.8760895, 36.1355118], [-95.8760887, 36.1353876]]]}, "properties": {"osm_id": 846494589, "building": "yes", "name": "", "height": null, "height_m": null, "levels": null, "tract_id": "40143007102", "tract_name": "71.02", "tags": {"building": "yes"}}}, {"type": "Feature", "geometry": {"type": "Polygon", "coordinates": [[[-95.8763981, 36.1353866], [-95.8766535, 36.1353856], [-95.8766543, 36.1355098], [-95.8766027, 36.13551], [-95.8766027, 36.1355203], [-95.8764576, 36.1355209], [-95.8764575, 36.1355106], [-95.8763989, 36.1355108], [-95.8763981, 36.1353866]]]}, "properties": {"osm_id": 846494590, "building": "yes", "name": "", "height": null, "height_m": null, "levels": null, "tract_id": "40143007102", "tract_name": "71.02", "tags": {"building": "yes"}}}, {"type": "Feature", "geometry": {"type": "Polygon", "coordinates": [[[-95.8767168, 36.1353876], [-95.8769722, 36.1353865], [-95.876973, 36.1355107], [-95.8769214, 36.1355109], [-95.8769215, 36.1355212], [-95.8767763, 36.1355218], [-95.8767762, 36.1355116], [-95.8767176, 36.1355118], [-95.8767168, 36.1353876]]]}, "properties": {"osm_id": 846494591, "building": "yes", "name": "", "height": null, "height_m": null, "levels": null, "tract_id": "40143007102", "tract_name": "71.02", "tags": {"building": "yes"}}}, {"type": "Feature", "geometry": {"type": "Polygon", "coordinates": [[[-95.8770367, 36.1353876], [-95.8772921, 36.1353865], [-95.8772929, 36.1355107], [-95.8772413, 36.1355109], [-95.8772414, 36.1355212], [-95.8770962, 36.1355218], [-95.8770961, 36.1355116], [-95.8770375, 36.1355118], [-95.8770367, 36.1353876]]]}, "properties": {"osm_id": 846494592, "building": "yes", "name": "", "height": null, "height_m": null, "levels": null, "tract_id": "40143007102", "tract_name": "71.02", "tags": {"building": "yes"}}}, {"type": "Feature", "geometry": {"type": "Polygon", "coordinates": [[[-95.8773438, 36.1353895], [-95.8775992, 36.1353884], [-95.8775999, 36.1355126], [-95.8775483, 36.1355128], [-95.8775484, 36.1355231], [-95.8774033, 36.1355237], [-95.8774032, 36.1355134], [-95.8773445, 36.1355137], [-95.8773438, 36.1353895]]]}, "properties": {"osm_id": 846494593, "building": "yes", "name": "", "height": null, "height_m": null, "levels": null, "tract_id": "40143007102", "tract_name": "71.02", "tags": {"building": "yes"}}}, {"type": "Feature", "geometry": {"type": "Polygon", "coordinates": [[[-95.8773423, 36.1346676], [-95.8775977, 36.1346666], [-95.8775985, 36.1347908], [-95.8775469, 36.134791], [-95.877547, 36.1348013], [-95.8774018, 36.1348019], [-95.8774018, 36.1347916], [-95.8773431, 36.1347919], [-95.8773423, 36.1346676]]]}, "properties": {"osm_id": 846494594, "building": "yes", "name": "", "height": null, "height_m": null, "levels": null, "tract_id": "40143007102", "tract_name": "71.02", "tags": {"building": "yes"}}}, {"type": "Feature", "geometry": {"type": "Polygon", "coordinates": [[[-95.8770459, 36.1346676], [-95.8773013, 36.1346666], [-95.8773021, 36.1347908], [-95.8772505, 36.134791], [-95.8772506, 36.1348013], [-95.8771054, 36.1348019], [-95.8771053, 36.1347916], [-95.8770467, 36.1347919], [-95.8770459, 36.1346676]]]}, "properties": {"osm_id": 846494595, "building": "yes", "name": "", "height": null, "height_m": null, "levels": null, "tract_id": "40143007102", "tract_name": "71.02", "tags": {"building": "yes"}}}, {"type": "Feature", "geometry": {"type": "Polygon", "coordinates": [[[-95.8767298, 36.1346693], [-95.8769852, 36.1346683], [-95.876986, 36.1347924], [-95.8769344, 36.1347926], [-95.8769345, 36.1348029], [-95.8767893, 36.1348035], [-95.8767893, 36.1347933], [-95.8767306, 36.1347935], [-95.8767298, 36.1346693]]]}, "properties": {"osm_id": 846494596, "building": "yes", "name": "", "height": null, "height_m": null, "levels": null, "tract_id": "40143007102", "tract_name": "71.02", "tags": {"building": "yes"}}}, {"type": "Feature", "geometry": {"type": "Polygon", "coordinates": [[[-95.8764117, 36.1346685], [-95.8766671, 36.1346674], [-95.8766679, 36.1347916], [-95.8766163, 36.1347918], [-95.8766164, 36.1348021], [-95.8764712, 36.1348027], [-95.8764711, 36.1347924], [-95.8764125, 36.1347927], [-95.8764117, 36.1346685]]]}, "properties": {"osm_id": 846494597, "building": "yes", "name": "", "height": null, "height_m": null, "levels": null, "tract_id": "40143007102", "tract_name": "71.02", "tags": {"building": "yes"}}}, {"type": "Feature", "geometry": {"type": "Polygon", "coordinates": [[[-95.8760987, 36.1346504], [-95.8763541, 36.1346494], [-95.8763548, 36.1347735], [-95.8763032, 36.1347737], [-95.8763033, 36.134784], [-95.8761582, 36.1347846], [-95.8761581, 36.1347744], [-95.8760994, 36.1347746], [-95.8760987, 36.1346504]]]}, "properties": {"osm_id": 846494598, "building": "yes", "name": "", "height": null, "height_m": null, "levels": null, "tract_id": "40143007102", "tract_name": "71.02", "tags": {"building": "yes"}}}, {"type": "Feature", "geometry": {"type": "Polygon", "coordinates": [[[-95.8757114, 36.1346127], [-95.8759668, 36.1346116], [-95.8759676, 36.1347358], [-95.875916, 36.134736], [-95.8759161, 36.1347463], [-95.8757709, 36.1347469], [-95.8757709, 36.1347366], [-95.8757122, 36.1347369], [-95.8757114, 36.1346127]]]}, "properties": {"osm_id": 846494599, "building": "yes", "name": "", "height": null, "height_m": null, "levels": null, "tract_id": "40143007102", "tract_name": "71.02", "tags": {"building": "yes"}}}, {"type": "Feature", "geometry": {"type": "Polygon", "coordinates": [[[-95.8776041, 36.1352017], [-95.8773487, 36.1352025], [-95.877348, 36.1350784], [-95.8773996, 36.1350782], [-95.8773996, 36.1350679], [-95.8775447, 36.1350674], [-95.8775448, 36.1350777], [-95.8776035, 36.1350775], [-95.8776041, 36.1352017]]]}, "properties": {"osm_id": 846494600, "building": "yes", "name": "", "height": null, "height_m": null, "levels": null, "tract_id": "40143007102", "tract_name": "71.02", "tags": {"building": "yes"}}}, {"type": "Feature", "geometry": {"type": "Polygon", "coordinates": [[[-95.8772968, 36.1352036], [-95.8770414, 36.1352044], [-95.8770408, 36.1350803], [-95.8770924, 36.1350801], [-95.8770923, 36.1350698], [-95.8772375, 36.1350694], [-95.8772375, 36.1350796], [-95.8772962, 36.1350794], [-95.8772968, 36.1352036]]]}, "properties": {"osm_id": 846494601, "building": "yes", "name": "", "height": null, "height_m": null, "levels": null, "tract_id": "40143007102", "tract_name": "71.02", "tags": {"building": "yes"}}}, {"type": "Feature", "geometry": {"type": "Polygon", "coordinates": [[[-95.8769769, 36.1352036], [-95.8767215, 36.1352044], [-95.8767209, 36.1350803], [-95.8767725, 36.1350801], [-95.8767724, 36.1350698], [-95.8769176, 36.1350694], [-95.8769176, 36.1350796], [-95.8769763, 36.1350794], [-95.8769769, 36.1352036]]]}, "properties": {"osm_id": 846494602, "building": "yes", "name": "", "height": null, "height_m": null, "levels": null, "tract_id": "40143007102", "tract_name": "71.02", "tags": {"building": "yes"}}}, {"type": "Feature", "geometry": {"type": "Polygon", "coordinates": [[[-95.8766628, 36.1352046], [-95.8764074, 36.1352054], [-95.8764068, 36.1350812], [-95.8764584, 36.1350811], [-95.8764584, 36.1350708], [-95.8766035, 36.1350703], [-95.8766036, 36.1350806], [-95.8766622, 36.1350804], [-95.8766628, 36.1352046]]]}, "properties": {"osm_id": 846494603, "building": "yes", "name": "", "height": null, "height_m": null, "levels": null, "tract_id": "40143007102", "tract_name": "71.02", "tags": {"building": "yes"}}}, {"type": "Feature", "geometry": {"type": "Polygon", "coordinates": [[[-95.8763441, 36.1352036], [-95.8760887, 36.1352044], [-95.8760881, 36.1350803], [-95.8761397, 36.1350801], [-95.8761396, 36.1350698], [-95.8762848, 36.1350694], [-95.8762848, 36.1350796], [-95.8763435, 36.1350794], [-95.8763441, 36.1352036]]]}, "properties": {"osm_id": 846494604, "building": "yes", "name": "", "height": null, "height_m": null, "levels": null, "tract_id": "40143007102", "tract_name": "71.02", "tags": {"building": "yes"}}}, {"type": "Feature", "geometry": {"type": "Polygon", "coordinates": [[[-95.8756337, 36.1369934], [-95.8756326, 36.1367872], [-95.8757863, 36.1367866], [-95.8757865, 36.1368283], [-95.8757993, 36.1368282], [-95.8758, 36.1369454], [-95.8757873, 36.1369455], [-95.8757875, 36.1369929], [-95.8756337, 36.1369934]]]}, "properties": {"osm_id": 846494605, "building": "yes", "name": "", "height": null, "height_m": null, "levels": null, "tract_id": "40143007102", "tract_name": "71.02", "tags": {"building": "yes"}}}, {"type": "Feature", "geometry": {"type": "Polygon", "coordinates": [[[-95.8756335, 36.1367597], [-95.8756324, 36.1365534], [-95.8757861, 36.1365528], [-95.8757863, 36.1365945], [-95.8757991, 36.1365945], [-95.8757998, 36.1367117], [-95.8757871, 36.1367117], [-95.8757873, 36.1367591], [-95.8756335, 36.1367597]]]}, "properties": {"osm_id": 846494606, "building": "yes", "name": "", "height": null, "height_m": null, "levels": null, "tract_id": "40143007102", "tract_name": "71.02", "tags": {"building": "yes"}}}, {"type": "Feature", "geometry": {"type": "Polygon", "coordinates": [[[-95.87563, 36.1365032], [-95.8756289, 36.136297], [-95.8757826, 36.1362964], [-95.8757828, 36.136338], [-95.8757956, 36.136338], [-95.8757963, 36.1364552], [-95.8757836, 36.1364553], [-95.8757838, 36.1365027], [-95.87563, 36.1365032]]]}, "properties": {"osm_id": 846494607, "building": "yes", "name": "", "height": null, "height_m": null, "levels": null, "tract_id": "40143007102", "tract_name": "71.02", "tags": {"building": "yes"}}}, {"type": "Feature", "geometry": {"type": "Polygon", "coordinates": [[[-95.8756324, 36.136259], [-95.8756312, 36.1360527], [-95.8757849, 36.1360522], [-95.8757852, 36.1360938], [-95.8757979, 36.1360938], [-95.8757986, 36.136211], [-95.8757859, 36.1362111], [-95.8757862, 36.1362584], [-95.8756324, 36.136259]]]}, "properties": {"osm_id": 846494608, "building": "yes", "name": "", "height": null, "height_m": null, "levels": null, "tract_id": "40143007102", "tract_name": "71.02", "tags": {"building": "yes"}}}, {"type": "Feature", "geometry": {"type": "Polygon", "coordinates": [[[-95.87563, 36.1360082], [-95.8756289, 36.1358019], [-95.8757826, 36.1358014], [-95.8757828, 36.135843], [-95.8757956, 36.135843], [-95.8757963, 36.1359602], [-95.8757836, 36.1359603], [-95.8757838, 36.1360076], [-95.87563, 36.1360082]]]}, "properties": {"osm_id": 846494609, "building": "yes", "name": "", "height": null, "height_m": null, "levels": null, "tract_id": "40143007102", "tract_name": "71.02", "tags": {"building": "yes"}}}, {"type": "Feature", "geometry": {"type": "Polygon", "coordinates": [[[-95.8756324, 36.1357574], [-95.8756312, 36.1355511], [-95.8757849, 36.1355505], [-95.8757852, 36.1355922], [-95.8757979, 36.1355922], [-95.8757986, 36.1357094], [-95.8757859, 36.1357094], [-95.8757862, 36.1357568], [-95.8756324, 36.1357574]]]}, "properties": {"osm_id": 846494610, "building": "yes", "name": "", "height": null, "height_m": null, "levels": null, "tract_id": "40143007102", "tract_name": "71.02", "tags": {"building": "yes"}}}, {"type": "Feature", "geometry": {"type": "Polygon", "coordinates": [[[-95.8756359, 36.1355066], [-95.8756347, 36.1353003], [-95.8757884, 36.1352997], [-95.8757887, 36.1353414], [-95.8758014, 36.1353414], [-95.8758021, 36.1354586], [-95.8757894, 36.1354586], [-95.8757897, 36.135506], [-95.8756359, 36.1355066]]]}, "properties": {"osm_id": 846494611, "building": "yes", "name": "", "height": null, "height_m": null, "levels": null, "tract_id": "40143007102", "tract_name": "71.02", "tags": {"building": "yes"}}}, {"type": "Feature", "geometry": {"type": "Polygon", "coordinates": [[[-95.875602, 36.1352642], [-95.8756009, 36.135058], [-95.8757546, 36.1350574], [-95.8757548, 36.1350991], [-95.8757676, 36.135099], [-95.8757682, 36.1352163], [-95.8757556, 36.1352163], [-95.8757558, 36.1352637], [-95.875602, 36.1352642]]]}, "properties": {"osm_id": 846494612, "building": "yes", "name": "", "height": null, "height_m": null, "levels": null, "tract_id": "40143007102", "tract_name": "71.02", "tags": {"building": "yes"}}}, {"type": "Feature", "geometry": {"type": "Polygon", "coordinates": [[[-95.8755658, 36.1349625], [-95.8755647, 36.1347563], [-95.8757184, 36.1347557], [-95.8757186, 36.1347973], [-95.8757314, 36.1347973], [-95.8757321, 36.1349145], [-95.8757194, 36.1349146], [-95.8757196, 36.134962], [-95.8755658, 36.1349625]]]}, "properties": {"osm_id": 846494613, "building": "yes", "name": "", "height": null, "height_m": null, "levels": null, "tract_id": "40143007102", "tract_name": "71.02", "tags": {"building": "yes"}}}, {"type": "Feature", "geometry": {"type": "Polygon", "coordinates": [[[-95.8658722, 36.1466962], [-95.8658737, 36.1464667], [-95.8659832, 36.1464672], [-95.8659829, 36.1465053], [-95.8659967, 36.1465054], [-95.8659956, 36.1466584], [-95.8659855, 36.1466584], [-95.8659853, 36.1466967], [-95.8658722, 36.1466962]]]}, "properties": {"osm_id": 932553644, "building": "yes", "name": "", "height": null, "height_m": null, "levels": null, "tract_id": "40143007102", "tract_name": "71.02", "tags": {"building": "yes"}}}, {"type": "Feature", "geometry": {"type": "Polygon", "coordinates": [[[-95.8662022, 36.1464682], [-95.8662019, 36.1466925], [-95.8660949, 36.1466924], [-95.866095, 36.1466575], [-95.866078, 36.1466575], [-95.8660783, 36.1465037], [-95.8660921, 36.1465037], [-95.8660922, 36.1464682], [-95.8662022, 36.1464682]]]}, "properties": {"osm_id": 932553645, "building": "yes", "name": "", "height": null, "height_m": null, "levels": null, "tract_id": "40143007102", "tract_name": "71.02", "tags": {"building": "yes"}}}, {"type": "Feature", "geometry": {"type": "Polygon", "coordinates": [[[-95.8652103, 36.1466546], [-95.8651067, 36.1466546], [-95.8651066, 36.1465478], [-95.8652103, 36.1465478], [-95.8652103, 36.1466546]]]}, "properties": {"osm_id": 932553648, "building": "yes", "name": "", "height": null, "height_m": null, "levels": null, "tract_id": "40143007102", "tract_name": "71.02", "tags": {"building": "yes"}}}, {"type": "Feature", "geometry": {"type": "Polygon", "coordinates": [[[-95.8721779, 36.134307], [-95.8718349, 36.134307], [-95.8718348, 36.1343754], [-95.870821, 36.134375], [-95.8708207, 36.1349858], [-95.8709079, 36.1349858], [-95.8709079, 36.1350668], [-95.8711777, 36.1350668], [-95.8711778, 36.1349846], [-95.8721777, 36.1349848], [-95.8721779, 36.134307]]]}, "properties": {"osm_id": 940444980, "building": "industrial", "name": "Sutherlands", "height": null, "height_m": null, "levels": null, "tract_id": "40143007102", "tract_name": "71.02", "tags": {"addr:city": "Tulsa", "addr:country": "US", "addr:housenumber": "9503", "addr:postcode": "74129", "addr:state": "OK", "addr:street": "East 21st Street South", "building": "industrial", "name": "Sutherlands", "shop": "hardware"}}}, {"type": "Feature", "geometry": {"type": "Polygon", "coordinates": [[[-95.8715501, 36.1352352], [-95.871546, 36.1351666], [-95.8708587, 36.1351939], [-95.8708515, 36.135075], [-95.870766, 36.1350784], [-95.8707774, 36.135266], [-95.8715501, 36.1352352]]]}, "properties": {"osm_id": 940444981, "building": "shed", "name": "", "height": null, "height_m": null, "levels": null, "tract_id": "40143007102", "tract_name": "71.02", "tags": {"building": "shed"}}}, {"type": "Feature", "geometry": {"type": "Polygon", "coordinates": [[[-95.8719728, 36.1356545], [-95.8722253, 36.1356052], [-95.8722012, 36.1355247], [-95.8720795, 36.1355485], [-95.8720749, 36.135533], [-95.8719441, 36.1355585], [-95.8719728, 36.1356545]]]}, "properties": {"osm_id": 940446234, "building": "detached", "name": "", "height": null, "height_m": null, "levels": null, "tract_id": "40143007102", "tract_name": "71.02", "tags": {"building": "detached"}}}, {"type": "Feature", "geometry": {"type": "Polygon", "coordinates": [[[-95.8718275, 36.1355587], [-95.8718026, 36.1354859], [-95.871912, 36.1354615], [-95.8719369, 36.1355344], [-95.8718275, 36.1355587]]]}, "properties": {"osm_id": 940446235, "building": "garage", "name": "", "height": null, "height_m": null, "levels": null, "tract_id": "40143007102", "tract_name": "71.02", "tags": {"building": "garage"}}}, {"type": "Feature", "geometry": {"type": "Polygon", "coordinates": [[[-95.8717624, 36.1367112], [-95.8717191, 36.1367121], [-95.8717182, 36.1366808], [-95.8717615, 36.13668], [-95.8717624, 36.1367112]]]}, "properties": {"osm_id": 940446236, "building": "shed", "name": "", "height": null, "height_m": null, "levels": null, "tract_id": "40143007102", "tract_name": "71.02", "tags": {"building": "shed"}}}, {"type": "Feature", "geometry": {"type": "Polygon", "coordinates": [[[-95.871997, 36.1368091], [-95.8719311, 36.1368099], [-95.8719298, 36.1367448], [-95.8719957, 36.1367439], [-95.871997, 36.1368091]]]}, "properties": {"osm_id": 940446237, "building": "detached", "name": "", "height": null, "height_m": null, "levels": null, "tract_id": "40143007102", "tract_name": "71.02", "tags": {"building": "detached"}}}, {"type": "Feature", "geometry": {"type": "Polygon", "coordinates": [[[-95.8662812, 36.1395784], [-95.866234, 36.1395814], [-95.8662343, 36.1395848], [-95.8661177, 36.1395922], [-95.8661174, 36.1395894], [-95.8660689, 36.1395924], [-95.8660666, 36.1395688], [-95.866063, 36.1395691], [-95.8660555, 36.139487], [-95.8660588, 36.1394868], [-95.8660555, 36.1394485], [-95.8660722, 36.1394475], [-95.8660706, 36.1394296], [-95.8660411, 36.1394313], [-95.8660383, 36.1393991], [-95.8660653, 36.1393976], [-95.8660639, 36.1393826], [-95.8660567, 36.139383], [-95.866057, 36.1393865], [-95.8659262, 36.1393941], [-95.8659259, 36.1393909], [-95.865912, 36.1393917], [-95.8658975, 36.1392415], [-95.8662413, 36.1392199], [-95.8662556, 36.1393672], [-95.8661764, 36.1393722], [-95.8661826, 36.1394365], [-95.866267, 36.1394311], [-95.8662812, 36.1395784]]]}, "properties": {"osm_id": 941811910, "building": "yes", "name": "", "height": null, "height_m": null, "levels": null, "tract_id": "40143007102", "tract_name": "71.02", "tags": {"building": "yes", "office": "yes"}}}, {"type": "Feature", "geometry": {"type": "Polygon", "coordinates": [[[-95.8659921, 36.1392262], [-95.8659075, 36.1392314], [-95.8659044, 36.1391981], [-95.8659889, 36.1391929], [-95.8659921, 36.1392262]]]}, "properties": {"osm_id": 941811911, "building": "shed", "name": "", "height": null, "height_m": null, "levels": null, "tract_id": "40143007102", "tract_name": "71.02", "tags": {"building": "shed"}}}, {"type": "Feature", "geometry": {"type": "Polygon", "coordinates": [[[-95.8836533, 36.1355621], [-95.8835181, 36.1355615], [-95.8835184, 36.1355005], [-95.8835048, 36.1355009], [-95.8835042, 36.135415], [-95.8836959, 36.1354147], [-95.8836934, 36.1355136], [-95.8836528, 36.1355141], [-95.8836533, 36.1355621]]]}, "properties": {"osm_id": 943831400, "building": "yes", "name": "", "height": null, "height_m": null, "levels": null, "tract_id": "40143007102", "tract_name": "71.02", "tags": {"building": "yes"}}}, {"type": "Feature", "geometry": {"type": "Polygon", "coordinates": [[[-95.8842282, 36.1354376], [-95.8841684, 36.1355392], [-95.8841888, 36.1355476], [-95.8841691, 36.1355822], [-95.8843904, 36.1356675], [-95.8843921, 36.1355842], [-95.8843095, 36.1355507], [-95.8842959, 36.1355729], [-95.8842843, 36.1355686], [-95.8843376, 36.1354794], [-95.8842282, 36.1354376]]]}, "properties": {"osm_id": 943831401, "building": "yes", "name": "", "height": null, "height_m": null, "levels": null, "tract_id": "40143007102", "tract_name": "71.02", "tags": {"addr:city": "Tulsa", "addr:country": "US", "addr:housenumber": "8143", "addr:postcode": "74112", "addr:state": "OK", "addr:street": "East 19th Street South", "building": "yes", "source": "INCOG"}}}, {"type": "Feature", "geometry": {"type": "Polygon", "coordinates": [[[-95.8761201, 36.1338147], [-95.8759455, 36.1338147], [-95.8759455, 36.1337708], [-95.8759455, 36.1337351], [-95.8761198, 36.1337346], [-95.87612, 36.1337719], [-95.8761201, 36.1338147]]]}, "properties": {"osm_id": 973304090, "building": "service", "name": "", "height": null, "height_m": null, "levels": null, "tract_id": "40143007102", "tract_name": "71.02", "tags": {"building": "service"}}}, {"type": "Feature", "geometry": {"type": "Polygon", "coordinates": [[[-95.8774294, 36.1343178], [-95.8771747, 36.1343179], [-95.8771746, 36.1341386], [-95.8770309, 36.1341386], [-95.8770308, 36.13377], [-95.8773119, 36.13377], [-95.877312, 36.1340026], [-95.8774293, 36.1340026], [-95.8774294, 36.1343178]]]}, "properties": {"osm_id": 976816684, "building": "industrial", "name": "Selco", "height": null, "height_m": null, "levels": null, "tract_id": "40143007102", "tract_name": "71.02", "tags": {"addr:city": "Tulsa", "addr:country": "US", "addr:housenumber": "8909", "addr:postcode": "74129", "addr:state": "OK", "addr:street": "East 21st Street South", "building": "industrial", "name": "Selco", "website": "https://selcotime.com/"}}}, {"type": "Feature", "geometry": {"type": "Polygon", "coordinates": [[[-95.8860071, 36.1377599], [-95.8862378, 36.137761], [-95.8862364, 36.1379559], [-95.8861157, 36.1379553], [-95.8861166, 36.1378396], [-95.8861018, 36.1378395], [-95.886101, 36.1379552], [-95.8860057, 36.1379548], [-95.8860071, 36.1377599]]]}, "properties": {"osm_id": 1006327746, "building": "retail", "name": "Jean's Auto Sales", "height": null, "height_m": null, "levels": null, "tract_id": "40143007102", "tract_name": "71.02", "tags": {"addr:city": "Tulsa", "addr:country": "US", "addr:housenumber": "1635", "addr:postcode": "74112", "addr:state": "OK", "addr:street": "South Memorial Drive East", "building": "retail", "name": "Jean's Auto Sales", "second_hand": "only", "shop": "car"}}}, {"type": "Feature", "geometry": {"type": "Polygon", "coordinates": [[[-95.8862834, 36.1361396], [-95.886101, 36.1361396], [-95.886101, 36.1358916], [-95.8862834, 36.1358916], [-95.8862834, 36.1361396]]]}, "properties": {"osm_id": 1006327747, "building": "yes", "name": "Club Las Brisas", "height": null, "height_m": null, "levels": null, "tract_id": "40143007102", "tract_name": "71.02", "tags": {"addr:city": "Tulsa", "addr:country": "US", "addr:housenumber": "1737", "addr:postcode": "74112", "addr:state": "OK", "addr:street": "South Memorial Drive East", "amenity": "bar", "building": "yes", "name": "Club Las Brisas"}}}, {"type": "Feature", "geometry": {"type": "Polygon", "coordinates": [[[-95.8861499, 36.1357037], [-95.8861493, 36.1355336], [-95.8862545, 36.1355333], [-95.8862552, 36.1357034], [-95.8861499, 36.1357037]]]}, "properties": {"osm_id": 1006327748, "building": "retail", "name": "2nd Generation Motor Company", "height": null, "height_m": null, "levels": null, "tract_id": "40143007102", "tract_name": "71.02", "tags": {"addr:city": "Tulsa", "addr:country": "US", "addr:housenumber": "1821", "addr:postcode": "74112", "addr:state": "OK", "addr:street": "South Memorial Drive East", "building": "retail", "name": "2nd Generation Motor Company", "second_hand": "only", "shop": "car"}}}, {"type": "Feature", "geometry": {"type": "Polygon", "coordinates": [[[-95.8848021, 36.1431269], [-95.8848024, 36.1432114], [-95.8848652, 36.1432113], [-95.8848651, 36.143193], [-95.8849575, 36.1431928], [-95.8849579, 36.1433177], [-95.884721, 36.1433183], [-95.8847206, 36.1432076], [-95.8846976, 36.1432077], [-95.8846974, 36.1431687], [-95.8847205, 36.1431686], [-95.8847203, 36.1431271], [-95.8848021, 36.1431269]]]}, "properties": {"osm_id": 1225320443, "building": "detached", "name": "", "height": null, "height_m": null, "levels": null, "tract_id": "40143007102", "tract_name": "71.02", "tags": {"building": "detached"}}}, {"type": "Feature", "geometry": {"type": "Polygon", "coordinates": [[[-95.884644, 36.1396926], [-95.8847485, 36.1396928], [-95.8847485, 36.1396803], [-95.8850033, 36.1396807], [-95.8850032, 36.1396974], [-95.8851045, 36.1396976], [-95.8851045, 36.1396809], [-95.885356, 36.1396814], [-95.885356, 36.1396938], [-95.8854593, 36.139694], [-95.8854598, 36.1395237], [-95.8853553, 36.1395235], [-95.8853553, 36.1395368], [-95.8851012, 36.1395363], [-95.8851012, 36.1395178], [-95.8850027, 36.1395177], [-95.8850026, 36.1395362], [-95.8847478, 36.1395357], [-95.8847478, 36.1395224], [-95.8846444, 36.1395222], [-95.884644, 36.1396926]]]}, "properties": {"osm_id": 1225320476, "building": "apartments", "name": "", "height": null, "height_m": null, "levels": null, "tract_id": "40143007102", "tract_name": "71.02", "tags": {"building": "apartments", "source": "microsoft/BuildingFootprints"}}}, {"type": "Feature", "geometry": {"type": "Polygon", "coordinates": [[[-95.8852576, 36.1422232], [-95.8851517, 36.1422252], [-95.885155, 36.1423409], [-95.8852435, 36.1423393], [-95.8852429, 36.1423198], [-95.8853984, 36.1423169], [-95.8853961, 36.1422346], [-95.8853411, 36.1422356], [-95.88534, 36.1421967], [-95.8852569, 36.1421982], [-95.8852576, 36.1422232]]]}, "properties": {"osm_id": 1225320478, "building": "detached", "name": "", "height": null, "height_m": null, "levels": null, "tract_id": "40143007102", "tract_name": "71.02", "tags": {"building": "detached", "source": "microsoft/BuildingFootprints"}}}, {"type": "Feature", "geometry": {"type": "Polygon", "coordinates": [[[-95.8853784, 36.1410668], [-95.8853768, 36.1409953], [-95.8852454, 36.1409972], [-95.885247, 36.1410687], [-95.8853784, 36.1410668]]]}, "properties": {"osm_id": 1225320479, "building": "yes", "name": "", "height": null, "height_m": null, "levels": null, "tract_id": "40143007102", "tract_name": "71.02", "tags": {"addr:city": "Tulsa", "addr:country": "US", "addr:housenumber": "8117", "addr:postcode": "74112", "addr:state": "OK", "addr:street": "East 15th Street South", "building": "yes"}}}, {"type": "Feature", "geometry": {"type": "Polygon", "coordinates": [[[-95.8849135, 36.141404], [-95.8850851, 36.1414061], [-95.8850867, 36.1413195], [-95.8849151, 36.1413174], [-95.8849135, 36.141404]]]}, "properties": {"osm_id": 1225320483, "building": "yes", "name": "", "height": null, "height_m": null, "levels": null, "tract_id": "40143007102", "tract_name": "71.02", "tags": {"building": "yes", "source": "microsoft/BuildingFootprints"}}}, {"type": "Feature", "geometry": {"type": "Polygon", "coordinates": [[[-95.8847934, 36.1413945], [-95.8846205, 36.1413922], [-95.8846187, 36.1414788], [-95.8846643, 36.1414794], [-95.8846617, 36.1416062], [-95.884789, 36.1416079], [-95.8847934, 36.1413945]]]}, "properties": {"osm_id": 1225320484, "building": "detached", "name": "", "height": null, "height_m": null, "levels": null, "tract_id": "40143007102", "tract_name": "71.02", "tags": {"building": "detached", "source": "microsoft/BuildingFootprints"}}}, {"type": "Feature", "geometry": {"type": "Polygon", "coordinates": [[[-95.8848688, 36.141123], [-95.8850024, 36.141125], [-95.8850063, 36.1409574], [-95.8848727, 36.1409554], [-95.8848688, 36.141123]]]}, "properties": {"osm_id": 1225320485, "building": "detached", "name": "", "height": null, "height_m": null, "levels": null, "tract_id": "40143007102", "tract_name": "71.02", "tags": {"addr:city": "Tulsa", "addr:country": "US", "addr:housenumber": "8119", "addr:postcode": "74112", "addr:state": "OK", "addr:street": "East 15th Street South", "building": "detached"}}}, {"type": "Feature", "geometry": {"type": "Polygon", "coordinates": [[[-95.8857608, 36.14319], [-95.8857915, 36.1431891], [-95.8857934, 36.1432324], [-95.88591, 36.1432291], [-95.8859082, 36.143188], [-95.8859324, 36.1431873], [-95.88593, 36.1431333], [-95.8857586, 36.1431381], [-95.8857608, 36.14319]]]}, "properties": {"osm_id": 1225320489, "building": "yes", "name": "", "height": null, "height_m": null, "levels": null, "tract_id": "40143007102", "tract_name": "71.02", "tags": {"building": "yes", "source": "microsoft/BuildingFootprints"}}}, {"type": "Feature", "geometry": {"type": "Polygon", "coordinates": [[[-95.8846605, 36.1411118], [-95.8847919, 36.1411131], [-95.8847952, 36.1409009], [-95.8846208, 36.1408991], [-95.8846195, 36.1409836], [-95.8846624, 36.140984], [-95.8846605, 36.1411118]]]}, "properties": {"osm_id": 1225320494, "building": "detached", "name": "", "height": null, "height_m": null, "levels": null, "tract_id": "40143007102", "tract_name": "71.02", "tags": {"building": "detached", "source": "microsoft/BuildingFootprints"}}}, {"type": "Feature", "geometry": {"type": "Polygon", "coordinates": [[[-95.8861572, 36.142791], [-95.8861575, 36.1428668], [-95.8862326, 36.1428667], [-95.8862323, 36.1427909], [-95.8861572, 36.142791]]]}, "properties": {"osm_id": 1225320496, "building": "yes", "name": "", "height": null, "height_m": null, "levels": null, "tract_id": "40143007102", "tract_name": "71.02", "tags": {"addr:city": "Tulsa", "addr:country": "US", "addr:housenumber": "1295", "addr:postcode": "74112", "addr:state": "OK", "addr:street": "South Memorial Drive East", "building": "yes", "shop": "car"}}}, {"type": "Feature", "geometry": {"type": "Polygon", "coordinates": [[[-95.8864338, 36.1427912], [-95.8862715, 36.1427924], [-95.8862722, 36.1428574], [-95.8864345, 36.1428562], [-95.8864338, 36.1427912]]]}, "properties": {"osm_id": 1225320497, "building": "roof", "name": "", "height": null, "height_m": null, "levels": null, "tract_id": "40143007102", "tract_name": "71.02", "tags": {"building": "roof", "source": "microsoft/BuildingFootprints"}}}, {"type": "Feature", "geometry": {"type": "Polygon", "coordinates": [[[-95.8847875, 36.1413607], [-95.884795, 36.1411464], [-95.8846208, 36.1411425], [-95.8846177, 36.1412312], [-95.8846659, 36.1412323], [-95.8846616, 36.1413578], [-95.8847875, 36.1413607]]]}, "properties": {"osm_id": 1225320498, "building": "detached", "name": "", "height": null, "height_m": null, "levels": null, "tract_id": "40143007102", "tract_name": "71.02", "tags": {"building": "detached", "source": "microsoft/BuildingFootprints"}}}, {"type": "Feature", "geometry": {"type": "Polygon", "coordinates": [[[-95.8857047, 36.1401061], [-95.8855679, 36.1401071], [-95.8855716, 36.1404413], [-95.8856387, 36.1404408], [-95.8856396, 36.1405253], [-95.8857791, 36.1405243], [-95.8857772, 36.1403575], [-95.8857075, 36.140358], [-95.8857047, 36.1401061]]]}, "properties": {"osm_id": 1225320499, "building": "yes", "name": "", "height": null, "height_m": null, "levels": null, "tract_id": "40143007102", "tract_name": "71.02", "tags": {"addr:city": "Tulsa", "addr:country": "US", "addr:housenumber": "8118", "addr:postcode": "74112", "addr:state": "OK", "addr:street": "East 15th Street South", "building": "yes", "shop": "yes"}}}, {"type": "Feature", "geometry": {"type": "Polygon", "coordinates": [[[-95.8862211, 36.1430901], [-95.8862193, 36.1432145], [-95.8863936, 36.1432161], [-95.8863954, 36.1430918], [-95.8862211, 36.1430901]]]}, "properties": {"osm_id": 1225320501, "building": "detached", "name": "", "height": null, "height_m": null, "levels": null, "tract_id": "40143007102", "tract_name": "71.02", "tags": {"addr:city": "Tulsa", "addr:country": "US", "addr:housenumber": "1279", "addr:postcode": "74112", "addr:state": "OK", "addr:street": "South Memorial Drive East", "building": "detached", "shop": "vacant"}}}, {"type": "Feature", "geometry": {"type": "Polygon", "coordinates": [[[-95.8860656, 36.1427845], [-95.8861715, 36.1427833], [-95.8861694, 36.1426685], [-95.8860635, 36.1426698], [-95.8860656, 36.1427845]]]}, "properties": {"osm_id": 1225320502, "building": "yes", "name": "", "height": null, "height_m": null, "levels": null, "tract_id": "40143007102", "tract_name": "71.02", "tags": {"building": "yes", "source": "microsoft/BuildingFootprints"}}}, {"type": "Feature", "geometry": {"type": "Polygon", "coordinates": [[[-95.8860058, 36.1429279], [-95.8858019, 36.1429297], [-95.8858031, 36.1430228], [-95.886007, 36.1430211], [-95.8860058, 36.1429279]]]}, "properties": {"osm_id": 1225320504, "building": "yes", "name": "", "height": null, "height_m": null, "levels": null, "tract_id": "40143007102", "tract_name": "71.02", "tags": {"building": "yes", "source": "microsoft/BuildingFootprints"}}}, {"type": "Feature", "geometry": {"type": "Polygon", "coordinates": [[[-95.8848119, 36.1418388], [-95.8846832, 36.1418407], [-95.8846842, 36.1418819], [-95.8846319, 36.1418826], [-95.8846336, 36.1419553], [-95.8846966, 36.1419543], [-95.8846981, 36.1420181], [-95.8849448, 36.1420144], [-95.8849431, 36.1419407], [-95.8847849, 36.1419431], [-95.8847838, 36.1418955], [-95.8848132, 36.1418951], [-95.8848119, 36.1418388]]]}, "properties": {"osm_id": 1225320505, "building": "detached", "name": "", "height": null, "height_m": null, "levels": null, "tract_id": "40143007102", "tract_name": "71.02", "tags": {"building": "detached", "source": "microsoft/BuildingFootprints"}}}, {"type": "Feature", "geometry": {"type": "Polygon", "coordinates": [[[-95.8849985, 36.1412857], [-95.8850977, 36.1412838], [-95.8850959, 36.141221], [-95.8849967, 36.1412229], [-95.8849985, 36.1412857]]]}, "properties": {"osm_id": 1225320506, "building": "yes", "name": "", "height": null, "height_m": null, "levels": null, "tract_id": "40143007102", "tract_name": "71.02", "tags": {"building": "yes", "source": "microsoft/BuildingFootprints"}}}, {"type": "Feature", "geometry": {"type": "Polygon", "coordinates": [[[-95.8847125, 36.1404335], [-95.8847111, 36.1405049], [-95.8849818, 36.1405083], [-95.8849842, 36.1403827], [-95.8848796, 36.1403814], [-95.8848786, 36.1404355], [-95.8847125, 36.1404335]]]}, "properties": {"osm_id": 1225320507, "building": "detached", "name": "", "height": null, "height_m": null, "levels": null, "tract_id": "40143007102", "tract_name": "71.02", "tags": {"addr:city": "Tulsa", "addr:country": "US", "addr:housenumber": "8142", "addr:postcode": "74112", "addr:state": "OK", "addr:street": "East 15th Street South", "building": "detached"}}}, {"type": "Feature", "geometry": {"type": "Polygon", "coordinates": [[[-95.8860795, 36.1410343], [-95.8861327, 36.1410335], [-95.8861337, 36.1410792], [-95.8863122, 36.1410766], [-95.8863095, 36.1409551], [-95.8860778, 36.1409585], [-95.8860795, 36.1410343]]]}, "properties": {"osm_id": 1225320511, "building": "retail", "name": "Cheapest Auto Insurance", "height": null, "height_m": null, "levels": null, "tract_id": "40143007102", "tract_name": "71.02", "tags": {"addr:city": "Tulsa", "addr:country": "US", "addr:housenumber": "1443", "addr:postcode": "74112", "addr:state": "OK", "addr:street": "South Memorial Drive East", "building": "retail", "name": "Cheapest Auto Insurance", "office": "insurance"}}}, {"type": "Feature", "geometry": {"type": "Polygon", "coordinates": [[[-95.8856527, 36.1418377], [-95.8856501, 36.1419937], [-95.8861489, 36.141999], [-95.8861515, 36.141843], [-95.8856527, 36.1418377]]]}, "properties": {"osm_id": 1225320513, "building": "yes", "name": "Regal Car Sales and Credit", "height": null, "height_m": null, "levels": null, "tract_id": "40143007102", "tract_name": "71.02", "tags": {"addr:city": "Tulsa", "addr:country": "US", "addr:housenumber": "1415", "addr:postcode": "74112", "addr:state": "OK", "addr:street": "South Memorial Drive East", "building": "yes", "name": "Regal Car Sales and Credit", "second_hand": "only", "shop": "car"}}}, {"type": "Feature", "geometry": {"type": "Polygon", "coordinates": [[[-95.8858188, 36.1428358], [-95.8858196, 36.1427037], [-95.8856131, 36.1427029], [-95.8856123, 36.142835], [-95.8856552, 36.1428351], [-95.8856546, 36.1429369], [-95.8857485, 36.1429373], [-95.8857491, 36.1428355], [-95.8858188, 36.1428358]]]}, "properties": {"osm_id": 1225320516, "building": "detached", "name": "", "height": null, "height_m": null, "levels": null, "tract_id": "40143007102", "tract_name": "71.02", "tags": {"building": "detached", "source": "microsoft/BuildingFootprints"}}}, {"type": "Feature", "geometry": {"type": "Polygon", "coordinates": [[[-95.8859665, 36.1409789], [-95.8856184, 36.1409907], [-95.8856243, 36.1411043], [-95.8859723, 36.1410926], [-95.8859665, 36.1409789]]]}, "properties": {"osm_id": 1225320521, "building": "garages", "name": "AAMCO", "height": null, "height_m": null, "levels": null, "tract_id": "40143007102", "tract_name": "71.02", "tags": {"addr:city": "Tulsa", "addr:country": "US", "addr:housenumber": "8115", "addr:postcode": "74112", "addr:state": "OK", "addr:street": "East 15th Street", "brand": "AAMCO", "brand:wikidata": "Q4649902", "building": "garages", "check_date": "2022-06-22", "name": "AAMCO", "service:vehicle:transmission": "yes", "shop": "car_repair"}}}, {"type": "Feature", "geometry": {"type": "Polygon", "coordinates": [[[-95.8863656, 36.1415144], [-95.8863644, 36.1414429], [-95.8861445, 36.1414455], [-95.8861436, 36.1414], [-95.8860739, 36.1414008], [-95.886076, 36.1415178], [-95.8863656, 36.1415144]]]}, "properties": {"osm_id": 1225320522, "building": "detached", "name": "Gotcha Tires", "height": null, "height_m": null, "levels": null, "tract_id": "40143007102", "tract_name": "71.02", "tags": {"addr:city": "Tulsa", "addr:country": "US", "addr:housenumber": "1429", "addr:postcode": "74112", "addr:state": "OK", "addr:street": "South Memorial Drive East", "building": "detached", "name": "Gotcha Tires", "phone": "+1 918 561 6763", "shop": "tyres"}}}, {"type": "Feature", "geometry": {"type": "Polygon", "coordinates": [[[-95.8851294, 36.142743], [-95.8851306, 36.1428556], [-95.8852352, 36.1428549], [-95.8852355, 36.1428821], [-95.8853146, 36.1428815], [-95.8853159, 36.1430037], [-95.8854407, 36.1430028], [-95.8854381, 36.1427668], [-95.8853643, 36.1427673], [-95.885364, 36.1427413], [-95.8851294, 36.142743]]]}, "properties": {"osm_id": 1225320524, "building": "detached", "name": "", "height": null, "height_m": null, "levels": null, "tract_id": "40143007102", "tract_name": "71.02", "tags": {"building": "detached", "source": "microsoft/BuildingFootprints"}}}, {"type": "Feature", "geometry": {"type": "Polygon", "coordinates": [[[-95.8859608, 36.1434542], [-95.886288, 36.1434563], [-95.8862889, 36.1433675], [-95.8859617, 36.1433654], [-95.8859608, 36.1434542]]]}, "properties": {"osm_id": 1225320525, "building": "yes", "name": "", "height": null, "height_m": null, "levels": null, "tract_id": "40143007102", "tract_name": "71.02", "tags": {"building": "yes", "shop": "vacant", "source": "microsoft/BuildingFootprints"}}}, {"type": "Feature", "geometry": {"type": "Polygon", "coordinates": [[[-95.8728014, 36.1475861], [-95.8729662, 36.1475861], [-95.8729676, 36.1476823], [-95.8728025, 36.1476835], [-95.8728014, 36.1475861]]]}, "properties": {"osm_id": 1239776094, "building": "industrial", "name": "Headquarters 66", "height": null, "height_m": null, "levels": null, "tract_id": "40143007102", "tract_name": "71.02", "tags": {"building": "industrial", "name": "Headquarters 66", "shop": "cannabis"}}}, {"type": "Feature", "geometry": {"type": "Polygon", "coordinates": [[[-95.8753856, 36.1476619], [-95.8752192, 36.1476614], [-95.8752199, 36.1474952], [-95.8753862, 36.1474956], [-95.8753856, 36.1476619]]]}, "properties": {"osm_id": 1239776096, "building": "industrial", "name": "Aaron's Auto Sales", "height": null, "height_m": null, "levels": null, "tract_id": "40143007102", "tract_name": "71.02", "tags": {"addr:city": "Tulsa", "addr:country": "US", "addr:housenumber": "8948", "addr:postcode": "74112", "addr:state": "OK", "addr:street": "East 11th Street South", "building": "industrial", "name": "Aaron's Auto Sales", "phone": "+1 918 835 4055", "shop": "car"}}}, {"type": "Feature", "geometry": {"type": "Polygon", "coordinates": [[[-95.8760883, 36.1477599], [-95.8760883, 36.1476099], [-95.8761647, 36.1476099], [-95.8761647, 36.1476391], [-95.8762472, 36.1476391], [-95.8762472, 36.1476797], [-95.8763351, 36.1476797], [-95.8763351, 36.1477599], [-95.8760883, 36.1477599]]]}, "properties": {"osm_id": 1239776097, "building": "yes", "name": "V&V Automotive", "height": null, "height_m": null, "levels": null, "tract_id": "40143007102", "tract_name": "71.02", "tags": {"addr:city": "Tulsa", "addr:country": "US", "addr:housenumber": "8928", "addr:postcode": "74112", "addr:state": "OK", "addr:street": "East 11th Street South", "building": "yes", "building:colour": "black", "building:material": "metal", "name": "V&V Automotive", "phone": "+1 918 859 3865", "roof:colour": "white", "roof:material": "metal", "roof:shape": "gabled", "shop": "car_repair"}}}, {"type": "Feature", "geometry": {"type": "Polygon", "coordinates": [[[-95.8861962, 36.1477106], [-95.8860004, 36.1477117], [-95.8859998, 36.1476386], [-95.8861956, 36.1476375], [-95.8861962, 36.1477106]]]}, "properties": {"osm_id": 1239776101, "building": "retail", "name": "Jack in the Box", "height": null, "height_m": null, "levels": null, "tract_id": "40143007102", "tract_name": "71.02", "tags": {"addr:city": "Tulsa", "addr:country": "US", "addr:housenumber": "8112", "addr:postcode": "74112", "addr:state": "OK", "addr:street": "East 11th Street South", "amenity": "fast_food", "brand": "Jack in the Box", "brand:wikidata": "Q1538507", "building": "retail", "cuisine": "burger", "name": "Jack in the Box", "phone": "+1 918-831-1595", "takeaway": "yes", "website": "https://locations.jackinthebox.com/us/ok/tulsa/8112-e-11th-st"}}}, {"type": "Feature", "geometry": {"type": "Polygon", "coordinates": [[[-95.8809144, 36.1342847], [-95.8805568, 36.134284], [-95.8805579, 36.1339281], [-95.8809155, 36.1339288], [-95.8809144, 36.1342847]]]}, "properties": {"osm_id": 1239796453, "building": "church", "name": "New Heights Baptist Church", "height": null, "height_m": null, "levels": null, "tract_id": "40143007102", "tract_name": "71.02", "tags": {"addr:city": "Tulsa", "addr:country": "US", "addr:housenumber": "8611", "addr:postcode": "74129", "addr:state": "OK", "addr:street": "East 21st Street South", "amenity": "place_of_worship", "building": "church", "denomination": "baptist", "email": "hello@newheightsbaptist.church", "name": "New Heights Baptist Church", "phone": "+1 918 592 3636", "religion": "christian", "service_times": "Su 10:30, 18:00; We 19:00", "website": "https://www.newheightsbaptist.church/"}}}, {"type": "Feature", "geometry": {"type": "Polygon", "coordinates": [[[-95.8842602, 36.1343255], [-95.8843953, 36.1343253], [-95.8843949, 36.1341289], [-95.8842598, 36.1341291], [-95.8842602, 36.1343255]]]}, "properties": {"osm_id": 1240050312, "building": "retail", "name": "Barber King", "height": null, "height_m": 3.0, "levels": 1, "tract_id": "40143007102", "tract_name": "71.02", "tags": {"addr:city": "Tulsa", "addr:country": "US", "addr:housenumber": "8151", "addr:postcode": "74129", "addr:state": "OK", "addr:street": "East 21st Street South", "building": "retail", "building:levels": "1", "check_date": "2024-02-14", "name": "Barber King", "roof:levels": "0", "roof:shape": "flat", "shop": "hairdresser"}}}, {"type": "Feature", "geometry": {"type": "Polygon", "coordinates": [[[-95.8840235, 36.1343258], [-95.8841251, 36.1343257], [-95.8841246, 36.1341293], [-95.8840231, 36.1341294], [-95.8840235, 36.1343258]]]}, "properties": {"osm_id": 1240050313, "building": "retail", "name": "", "height": null, "height_m": 3.0, "levels": 1, "tract_id": "40143007102", "tract_name": "71.02", "tags": {"addr:city": "Tulsa", "addr:country": "US", "addr:housenumber": "8151", "addr:postcode": "74129", "addr:state": "OK", "addr:street": "East 21st Street South", "building": "retail", "building:levels": "1", "check_date": "2024-02-14", "roof:levels": "0", "roof:shape": "flat", "shop": "vacant"}}}, {"type": "Feature", "geometry": {"type": "Polygon", "coordinates": [[[-95.8839219, 36.134326], [-95.8840235, 36.1343258], [-95.8840231, 36.1341294], [-95.8839215, 36.1341296], [-95.8839219, 36.134326]]]}, "properties": {"osm_id": 1240050314, "building": "retail", "name": "Eva's Massage and Spa", "height": null, "height_m": 3.0, "levels": 1, "tract_id": "40143007102", "tract_name": "71.02", "tags": {"addr:city": "Tulsa", "addr:country": "US", "addr:housenumber": "8151", "addr:postcode": "74129", "addr:state": "OK", "addr:street": "East 21st Street South", "building": "retail", "building:levels": "1", "check_date": "2024-02-14", "name": "Eva's Massage and Spa", "roof:levels": "0", "roof:shape": "flat", "shop": "massage"}}}, {"type": "Feature", "geometry": {"type": "Polygon", "coordinates": [[[-95.8838203, 36.1343261], [-95.8839219, 36.134326], [-95.8839215, 36.1341296], [-95.8838199, 36.1341297], [-95.8838203, 36.1343261]]]}, "properties": {"osm_id": 1240050315, "building": "retail", "name": "Western Shamrock Finance", "height": null, "height_m": 3.0, "levels": 1, "tract_id": "40143007102", "tract_name": "71.02", "tags": {"addr:city": "Tulsa", "addr:country": "US", "addr:housenumber": "8151", "addr:postcode": "74129", "addr:state": "OK", "addr:street": "East 21st Street South", "building": "retail", "building:levels": "1", "check_date": "2024-02-14", "name": "Western Shamrock Finance", "roof:levels": "0", "roof:shape": "flat", "shop": "money_lender"}}}, {"type": "Feature", "geometry": {"type": "Polygon", "coordinates": [[[-95.8841251, 36.1343257], [-95.8842602, 36.1343255], [-95.8842598, 36.1341291], [-95.8841246, 36.1341293], [-95.8841251, 36.1343257]]]}, "properties": {"osm_id": 1240050316, "building": "retail", "name": "Don Busto Red Tacos", "height": null, "height_m": 3.0, "levels": 1, "tract_id": "40143007102", "tract_name": "71.02", "tags": {"addr:city": "Tulsa", "addr:country": "US", "addr:housenumber": "8151", "addr:postcode": "74129", "addr:state": "OK", "addr:street": "East 21st Street South", "amenity": "fast_food", "building": "retail", "building:levels": "1", "check_date": "2024-02-14", "cuisine": "tacos", "name": "Don Busto Red Tacos", "roof:levels": "0", "roof:shape": "flat"}}}, {"type": "Feature", "geometry": {"type": "Polygon", "coordinates": [[[-95.8837187, 36.1343263], [-95.8838203, 36.1343261], [-95.8838199, 36.1341297], [-95.8837183, 36.1341299], [-95.8837187, 36.1343263]]]}, "properties": {"osm_id": 1240050317, "building": "retail", "name": "", "height": null, "height_m": 3.0, "levels": 1, "tract_id": "40143007102", "tract_name": "71.02", "tags": {"addr:city": "Tulsa", "addr:country": "US", "addr:housenumber": "8151", "addr:postcode": "74129", "addr:state": "OK", "addr:street": "East 21st Street South", "building": "retail", "building:levels": "1", "roof:levels": "0", "roof:shape": "flat", "shop": "yes"}}}, {"type": "Feature", "geometry": {"type": "Polygon", "coordinates": [[[-95.8837183, 36.1341299], [-95.8837187, 36.1343263], [-95.8836253, 36.1343276], [-95.883408, 36.1341521], [-95.883408, 36.1340465], [-95.8836474, 36.134047], [-95.8836494, 36.1340784], [-95.8837183, 36.1341299]]]}, "properties": {"osm_id": 1240050318, "building": "retail", "name": "Vacilon Lounge", "height": null, "height_m": 3.0, "levels": 1, "tract_id": "40143007102", "tract_name": "71.02", "tags": {"addr:city": "Tulsa", "addr:country": "US", "addr:housenumber": "8151", "addr:postcode": "74129", "addr:state": "OK", "addr:street": "East 21st Street South", "amenity": "bar", "building": "retail", "building:levels": "1", "check_date": "2024-02-14", "description": "\"restaurant, billiard club, bakery, and beer distributor\" is the text on the side of their truck.", "name": "Vacilon Lounge", "phone": "+1 918 949 0071", "roof:levels": "0", "roof:shape": "flat"}}}, {"type": "Feature", "geometry": {"type": "Polygon", "coordinates": [[[-95.8836474, 36.134047], [-95.883408, 36.1340465], [-95.8834087, 36.1339166], [-95.8835341, 36.133916], [-95.8836481, 36.1339155], [-95.8836474, 36.134047]]]}, "properties": {"osm_id": 1240050319, "building": "retail", "name": "Sabor Latino", "height": null, "height_m": 3.0, "levels": 1, "tract_id": "40143007102", "tract_name": "71.02", "tags": {"addr:city": "Tulsa", "addr:country": "US", "addr:housenumber": "8151", "addr:postcode": "74129", "addr:state": "OK", "addr:street": "East 21st Street South", "amenity": "restaurant", "building": "retail", "building:levels": "1", "check_date": "2024-02-14", "name": "Sabor Latino", "roof:levels": "0", "roof:shape": "flat"}}}, {"type": "Feature", "geometry": {"type": "Polygon", "coordinates": [[[-95.8835341, 36.133916], [-95.8836481, 36.1339155], [-95.8836595, 36.1339155], [-95.8836608, 36.1337828], [-95.8835354, 36.1337834], [-95.8835341, 36.133916]]]}, "properties": {"osm_id": 1240050320, "building": "retail", "name": "Boost Mobile", "height": null, "height_m": 3.0, "levels": 1, "tract_id": "40143007102", "tract_name": "71.02", "tags": {"addr:city": "Tulsa", "addr:country": "US", "addr:housenumber": "8151", "addr:postcode": "74129", "addr:state": "OK", "addr:street": "East 21st Street South", "brand": "Boost Mobile", "brand:wikidata": "Q4943790", "building": "retail", "building:levels": "1", "check_date": "2024-02-14", "name": "Boost Mobile", "roof:levels": "0", "roof:shape": "flat", "shop": "mobile_phone"}}}, {"type": "Feature", "geometry": {"type": "Polygon", "coordinates": [[[-95.8834087, 36.1339166], [-95.8835341, 36.133916], [-95.8835354, 36.1337834], [-95.88341, 36.1337839], [-95.8834087, 36.1339166]]]}, "properties": {"osm_id": 1240050321, "building": "retail", "name": "Restaurante El Rincon de Honduras", "height": null, "height_m": 3.0, "levels": 1, "tract_id": "40143007102", "tract_name": "71.02", "tags": {"addr:city": "Tulsa", "addr:country": "US", "addr:housenumber": "8151", "addr:postcode": "74129", "addr:state": "OK", "addr:street": "East 21st Street South", "amenity": "restaurant", "building": "retail", "building:levels": "1", "check_date": "2024-02-14", "cuisine": "honduran", "name": "Restaurante El Rincon de Honduras", "roof:levels": "0", "roof:shape": "flat"}}}, {"type": "Feature", "geometry": {"type": "Polygon", "coordinates": [[[-95.8730539, 36.1339113], [-95.8727478, 36.1341528], [-95.8729636, 36.1343313], [-95.872867, 36.1344055], [-95.8727986, 36.1344879], [-95.8727677, 36.1345464], [-95.8728415, 36.1345745], [-95.8730533, 36.134401], [-95.8731064, 36.134445], [-95.8731668, 36.1343973], [-95.8732212, 36.1344423], [-95.8734093, 36.1342939], [-95.8733523, 36.1342468], [-95.8734072, 36.1342035], [-95.8733395, 36.1341475], [-95.8733848, 36.1341118], [-95.8733084, 36.1340486], [-95.8732631, 36.1340843], [-95.8730539, 36.1339113]]]}, "properties": {"osm_id": 1241466157, "building": "commercial", "name": "WeStreet Credit Union", "height": null, "height_m": 9.0, "levels": 3, "tract_id": "40143007102", "tract_name": "71.02", "tags": {"addr:city": "Tulsa", "addr:country": "US", "addr:housenumber": "9323", "addr:postcode": "74129", "addr:state": "OK", "addr:street": "East 21st Street South", "amenity": "bank", "building": "commercial", "building:levels": "3", "name": "WeStreet Credit Union", "roof:levels": "1", "roof:shape": "flat"}}}, {"type": "Feature", "geometry": {"type": "Polygon", "coordinates": [[[-95.8807142, 36.1361219], [-95.8807142, 36.1361942], [-95.880796, 36.1361942], [-95.880796, 36.1363211], [-95.8807792, 36.1363211], [-95.8807792, 36.1365354], [-95.8805647, 36.1365354], [-95.8805646, 36.1363211], [-95.8805378, 36.1363211], [-95.8805378, 36.1361942], [-95.8806203, 36.1361942], [-95.8806203, 36.1361219], [-95.8807142, 36.1361219]]]}, "properties": {"osm_id": 1252162690, "building": "church", "name": "", "height": null, "height_m": null, "levels": null, "tract_id": "40143007102", "tract_name": "71.02", "tags": {"addr:city": "Tulsa", "addr:country": "US", "addr:housenumber": "8707", "addr:postcode": "74112", "addr:state": "OK", "addr:street": "East 19th Street South", "building": "church", "operator": "New Heights Baptist Church", "source": "INCOG"}}}, {"type": "Feature", "geometry": {"type": "Polygon", "coordinates": [[[-95.8792969, 36.1339127], [-95.8790957, 36.1339111], [-95.8790966, 36.1338375], [-95.879204, 36.1338384], [-95.8792043, 36.1338196], [-95.8792573, 36.13382], [-95.879257, 36.1338388], [-95.8792978, 36.1338391], [-95.8792969, 36.1339127]]]}, "properties": {"osm_id": 1252199415, "building": "detached", "name": "", "height": null, "height_m": null, "levels": null, "tract_id": "40143007102", "tract_name": "71.02", "tags": {"addr:city": "Tulsa", "addr:country": "US", "addr:housenumber": "8705", "addr:postcode": "74112", "addr:state": "OK", "addr:street": "East 21st Street South", "building": "detached"}}}, {"type": "Feature", "geometry": {"type": "Polygon", "coordinates": [[[-95.8797971, 36.1340877], [-95.8797457, 36.1340871], [-95.8797468, 36.13402], [-95.8797982, 36.1340205], [-95.8797971, 36.1340877]]]}, "properties": {"osm_id": 1252199416, "building": "yes", "name": "", "height": null, "height_m": null, "levels": null, "tract_id": "40143007102", "tract_name": "71.02", "tags": {"building": "yes"}}}, {"type": "Feature", "geometry": {"type": "Polygon", "coordinates": [[[-95.8798682, 36.1340254], [-95.8798002, 36.1340246], [-95.8798011, 36.1339701], [-95.8798691, 36.1339709], [-95.8798682, 36.1340254]]]}, "properties": {"osm_id": 1252199417, "building": "yes", "name": "", "height": null, "height_m": null, "levels": null, "tract_id": "40143007102", "tract_name": "71.02", "tags": {"building": "yes"}}}, {"type": "Feature", "geometry": {"type": "Polygon", "coordinates": [[[-95.8795524, 36.1338873], [-95.8795104, 36.1338868], [-95.8795115, 36.1338207], [-95.8795535, 36.1338211], [-95.8795524, 36.1338873]]]}, "properties": {"osm_id": 1252199418, "building": "yes", "name": "", "height": null, "height_m": null, "levels": null, "tract_id": "40143007102", "tract_name": "71.02", "tags": {"building": "yes"}}}, {"type": "Feature", "geometry": {"type": "Polygon", "coordinates": [[[-95.8797445, 36.1339603], [-95.8797441, 36.1339837], [-95.879626, 36.1339824], [-95.8796267, 36.133939], [-95.8796053, 36.1339387], [-95.8796056, 36.1339224], [-95.8795615, 36.1339219], [-95.8795631, 36.1338228], [-95.8797133, 36.1338245], [-95.8797122, 36.1338931], [-95.8798022, 36.133894], [-95.8798011, 36.1339609], [-95.8797445, 36.1339603]]]}, "properties": {"osm_id": 1252199419, "building": "detached", "name": "Keen's Tax Service", "height": null, "height_m": null, "levels": null, "tract_id": "40143007102", "tract_name": "71.02", "tags": {"addr:city": "Tulsa", "addr:country": "US", "addr:housenumber": "8703", "addr:postcode": "74112", "addr:state": "OK", "addr:street": "East 21st Street South", "building": "detached", "name": "Keen's Tax Service", "office": "accountant"}}}, {"type": "Feature", "geometry": {"type": "Polygon", "coordinates": [[[-95.8834401, 36.140116], [-95.8837227, 36.1401177], [-95.8837212, 36.140288], [-95.8834481, 36.1402864], [-95.8834477, 36.1403329], [-95.8833826, 36.1403326], [-95.8833838, 36.1402021], [-95.8834393, 36.1402025], [-95.8834398, 36.140152], [-95.8834057, 36.1401518], [-95.8834061, 36.1401158], [-95.8834401, 36.140116]]]}, "properties": {"osm_id": 1255738282, "building": "church", "name": "Memorial Community Center", "height": null, "height_m": null, "levels": null, "tract_id": "40143007102", "tract_name": "71.02", "tags": {"addr:city": "Tulsa", "addr:country": "US", "addr:housenumber": "8310", "addr:postcode": "74112", "addr:state": "OK", "addr:street": "East 15th Street South", "amenity": "community_centre", "building": "church", "name": "Memorial Community Center"}}}, {"type": "Feature", "geometry": {"type": "Polygon", "coordinates": [[[-95.8819965, 36.1337341], [-95.8819992, 36.1337443], [-95.8819999, 36.1337528], [-95.8820317, 36.1337527], [-95.8820324, 36.1338479], [-95.8820167, 36.133848], [-95.8820176, 36.1339723], [-95.8819034, 36.1339729], [-95.8819019, 36.1337692], [-95.8817772, 36.1337699], [-95.8817766, 36.1336928], [-95.8819251, 36.1336921], [-95.8819439, 36.1336956], [-95.8819612, 36.1337009], [-95.8819724, 36.1337067], [-95.8819814, 36.1337148], [-95.8819908, 36.1337237], [-95.8819965, 36.1337341]]]}, "properties": {"osm_id": 1255738283, "building": "detached", "name": "", "height": null, "height_m": null, "levels": null, "tract_id": "40143007102", "tract_name": "71.02", "tags": {"addr:city": "Tulsa", "addr:country": "US", "addr:housenumber": "8501", "addr:postcode": "74112", "addr:state": "OK", "addr:street": "East 21st Street South", "building": "detached"}}}, {"type": "Feature", "geometry": {"type": "Polygon", "coordinates": [[[-95.8826861, 36.1338027], [-95.8826858, 36.1338393], [-95.8825906, 36.1338388], [-95.8825909, 36.1338022], [-95.8825021, 36.1338017], [-95.8825014, 36.1338776], [-95.8824023, 36.1338771], [-95.8824034, 36.1337378], [-95.8824853, 36.1337382], [-95.8824854, 36.1337323], [-95.8825898, 36.1337329], [-95.8825899, 36.1337183], [-95.8826489, 36.1337187], [-95.8826488, 36.1337332], [-95.8826867, 36.1337334], [-95.8826861, 36.1338027]]]}, "properties": {"osm_id": 1255738284, "building": "detached", "name": "", "height": null, "height_m": null, "levels": null, "tract_id": "40143007102", "tract_name": "71.02", "tags": {"addr:city": "Tulsa", "addr:country": "US", "addr:housenumber": "8349", "addr:postcode": "74112", "addr:state": "OK", "addr:street": "East 21st Street South", "building": "detached"}}}, {"type": "Feature", "geometry": {"type": "Polygon", "coordinates": [[[-95.8863247, 36.1374842], [-95.8861865, 36.1374838], [-95.8861869, 36.1373914], [-95.8863251, 36.1373917], [-95.8863247, 36.1374842]]]}, "properties": {"osm_id": 1262053442, "building": "retail", "name": "Future Auto Sales", "height": null, "height_m": null, "levels": null, "tract_id": "40143007102", "tract_name": "71.02", "tags": {"addr:city": "Tulsa", "addr:country": "US", "addr:housenumber": "1645", "addr:postcode": "74112", "addr:state": "OK", "addr:street": "South Memorial Drive East", "building": "retail", "name": "Future Auto Sales", "shop": "car", "source": "INCOG"}}}, {"type": "Feature", "geometry": {"type": "Polygon", "coordinates": [[[-95.8764127, 36.1475035], [-95.8765789, 36.1475004], [-95.8765733, 36.1473099], [-95.8767234, 36.147307], [-95.8767181, 36.147123], [-95.8764017, 36.147129], [-95.8764127, 36.1475035]]]}, "properties": {"osm_id": 1306968038, "building": "commercial", "name": "", "height": null, "height_m": null, "levels": null, "tract_id": "40143007102", "tract_name": "71.02", "tags": {"addr:city": "Tulsa", "addr:country": "US", "addr:housenumber": "8902", "addr:postcode": "74112", "addr:state": "OK", "addr:street": "East 11th Street South", "building": "commercial", "shop": "yes"}}}, {"type": "Feature", "geometry": {"type": "Polygon", "coordinates": [[[-95.8673554, 36.1451269], [-95.8674745, 36.1451291], [-95.867476, 36.1450772], [-95.8675055, 36.1450778], [-95.8675084, 36.1449803], [-95.8674119, 36.1449785], [-95.8674136, 36.14492], [-95.8672983, 36.1449178], [-95.8672945, 36.1450477], [-95.8673577, 36.1450489], [-95.8673554, 36.1451269]]]}, "properties": {"osm_id": 1342551006, "building": "yes", "name": "", "height": null, "height_m": null, "levels": null, "tract_id": "40143007102", "tract_name": "71.02", "tags": {"building": "yes", "source": "microsoft/BuildingFootprints"}}}, {"type": "Feature", "geometry": {"type": "Polygon", "coordinates": [[[-95.8673594, 36.145364], [-95.8674812, 36.1453627], [-95.8674798, 36.1452847], [-95.8675039, 36.1452844], [-95.8675026, 36.1452086], [-95.8672935, 36.145211], [-95.8672946, 36.1452789], [-95.8673579, 36.1452782], [-95.8673594, 36.145364]]]}, "properties": {"osm_id": 1342551007, "building": "yes", "name": "", "height": null, "height_m": null, "levels": null, "tract_id": "40143007102", "tract_name": "71.02", "tags": {"building": "yes", "source": "microsoft/BuildingFootprints"}}}, {"type": "Feature", "geometry": {"type": "Polygon", "coordinates": [[[-95.8673034, 36.1454586], [-95.8673007, 36.145624], [-95.8674304, 36.1456254], [-95.8674315, 36.1455596], [-95.8674573, 36.1455599], [-95.8674582, 36.1455088], [-95.8674313, 36.1455085], [-95.8674322, 36.14546], [-95.8673034, 36.1454586]]]}, "properties": {"osm_id": 1342551008, "building": "yes", "name": "", "height": null, "height_m": null, "levels": null, "tract_id": "40143007102", "tract_name": "71.02", "tags": {"building": "yes", "source": "microsoft/BuildingFootprints"}}}, {"type": "Feature", "geometry": {"type": "Polygon", "coordinates": [[[-95.8674297, 36.1458799], [-95.8674214, 36.1456852], [-95.8672821, 36.1456891], [-95.8672904, 36.1458838], [-95.8674297, 36.1458799]]]}, "properties": {"osm_id": 1342551009, "building": "yes", "name": "", "height": null, "height_m": null, "levels": null, "tract_id": "40143007102", "tract_name": "71.02", "tags": {"building": "yes", "source": "microsoft/BuildingFootprints"}}}, {"type": "Feature", "geometry": {"type": "Polygon", "coordinates": [[[-95.8672973, 36.1460767], [-95.8675172, 36.1460733], [-95.8675133, 36.1459066], [-95.8673873, 36.1459085], [-95.8673895, 36.1460016], [-95.8672956, 36.146003], [-95.8672973, 36.1460767]]]}, "properties": {"osm_id": 1342551010, "building": "yes", "name": "", "height": null, "height_m": null, "levels": null, "tract_id": "40143007102", "tract_name": "71.02", "tags": {"building": "yes", "source": "microsoft/BuildingFootprints"}}}, {"type": "Feature", "geometry": {"type": "Polygon", "coordinates": [[[-95.8667484, 36.1455653], [-95.8668406, 36.1455645], [-95.8669495, 36.1455637], [-95.8669482, 36.1454554], [-95.8667471, 36.145457], [-95.8667484, 36.1455653]]]}, "properties": {"osm_id": 1342551011, "building": "yes", "name": "", "height": null, "height_m": null, "levels": null, "tract_id": "40143007102", "tract_name": "71.02", "tags": {"building": "yes", "source": "microsoft/BuildingFootprints"}}}, {"type": "Feature", "geometry": {"type": "Polygon", "coordinates": [[[-95.8669217, 36.1456627], [-95.8668226, 36.1456655], [-95.8668248, 36.1457174], [-95.8667551, 36.1457194], [-95.8667574, 36.1457713], [-95.8668217, 36.1457695], [-95.8668246, 36.1458366], [-95.866929, 36.1458336], [-95.8669217, 36.1456627]]]}, "properties": {"osm_id": 1342551012, "building": "yes", "name": "", "height": null, "height_m": null, "levels": null, "tract_id": "40143007102", "tract_name": "71.02", "tags": {"building": "yes", "source": "microsoft/BuildingFootprints"}}}, {"type": "Feature", "geometry": {"type": "Polygon", "coordinates": [[[-95.8667827, 36.1459078], [-95.8667878, 36.146081], [-95.8669363, 36.1460781], [-95.8669341, 36.1460053], [-95.8668886, 36.1460062], [-95.8668856, 36.1459058], [-95.8667827, 36.1459078]]]}, "properties": {"osm_id": 1342551013, "building": "yes", "name": "", "height": null, "height_m": null, "levels": null, "tract_id": "40143007102", "tract_name": "71.02", "tags": {"building": "yes", "source": "microsoft/BuildingFootprints"}}}, {"type": "Feature", "geometry": {"type": "Polygon", "coordinates": [[[-95.8664885, 36.1458872], [-95.8663759, 36.1458866], [-95.8663749, 36.1460101], [-95.8663428, 36.1460099], [-95.8663422, 36.1460814], [-95.8664871, 36.1460821], [-95.8664885, 36.1458872]]]}, "properties": {"osm_id": 1342551014, "building": "yes", "name": "", "height": null, "height_m": null, "levels": null, "tract_id": "40143007102", "tract_name": "71.02", "tags": {"addr:city": "Tulsa", "addr:country": "US", "addr:housenumber": "1206", "addr:postcode": "74128", "addr:state": "OK", "addr:street": "South 99th Avenue East", "building": "yes", "source": "microsoft/BuildingFootprints;INCOG"}}}, {"type": "Feature", "geometry": {"type": "Polygon", "coordinates": [[[-95.8665072, 36.1456668], [-95.8663291, 36.1456658], [-95.8663279, 36.1458261], [-95.8665059, 36.145827], [-95.8665072, 36.1456668]]]}, "properties": {"osm_id": 1342551015, "building": "yes", "name": "", "height": null, "height_m": null, "levels": null, "tract_id": "40143007102", "tract_name": "71.02", "tags": {"addr:city": "Tulsa", "addr:country": "US", "addr:housenumber": "1212", "addr:postcode": "74128", "addr:state": "OK", "addr:street": "South 99th Avenue East", "building": "yes", "source": "microsoft/BuildingFootprints;INCOG"}}}, {"type": "Feature", "geometry": {"type": "Polygon", "coordinates": [[[-95.8663269, 36.1454305], [-95.866331, 36.1455322], [-95.8665615, 36.1455261], [-95.8665585, 36.1454547], [-95.8664835, 36.1454567], [-95.8664823, 36.1454264], [-95.8663269, 36.1454305]]]}, "properties": {"osm_id": 1342551016, "building": "yes", "name": "", "height": null, "height_m": null, "levels": null, "tract_id": "40143007102", "tract_name": "71.02", "tags": {"building": "yes", "source": "microsoft/BuildingFootprints"}}}, {"type": "Feature", "geometry": {"type": "Polygon", "coordinates": [[[-95.8658138, 36.1455846], [-95.8658888, 36.145585], [-95.8658883, 36.1456522], [-95.8659929, 36.1456527], [-95.8659941, 36.1455054], [-95.8658144, 36.1455045], [-95.8658138, 36.1455846]]]}, "properties": {"osm_id": 1342551017, "building": "yes", "name": "", "height": null, "height_m": null, "levels": null, "tract_id": "40143007102", "tract_name": "71.02", "tags": {"addr:city": "Tulsa", "addr:country": "US", "addr:housenumber": "1217", "addr:postcode": "74128", "addr:state": "OK", "addr:street": "South 99th Avenue East", "building": "yes", "source": "microsoft/BuildingFootprints;INCOG"}}}, {"type": "Feature", "geometry": {"type": "Polygon", "coordinates": [[[-95.8659225, 36.1457981], [-95.8659247, 36.1457202], [-95.8658175, 36.1457182], [-95.8658132, 36.1458683], [-95.8660036, 36.1458719], [-95.8660056, 36.1457996], [-95.8659225, 36.1457981]]]}, "properties": {"osm_id": 1342551018, "building": "yes", "name": "", "height": null, "height_m": null, "levels": null, "tract_id": "40143007102", "tract_name": "71.02", "tags": {"addr:city": "Tulsa", "addr:country": "US", "addr:housenumber": "1211", "addr:postcode": "74128", "addr:state": "OK", "addr:street": "South 99th Avenue East", "building": "yes", "source": "microsoft/BuildingFootprints;INCOG"}}}, {"type": "Feature", "geometry": {"type": "Polygon", "coordinates": [[[-95.8658645, 36.1460824], [-95.866004, 36.1460812], [-95.8660018, 36.145908], [-95.8658623, 36.1459091], [-95.8658645, 36.1460824]]]}, "properties": {"osm_id": 1342551019, "building": "yes", "name": "", "height": null, "height_m": null, "levels": null, "tract_id": "40143007102", "tract_name": "71.02", "tags": {"addr:city": "Tulsa", "addr:country": "US", "addr:housenumber": "1205", "addr:postcode": "74128", "addr:state": "OK", "addr:street": "South 99th Avenue East", "building": "yes", "source": "microsoft/BuildingFootprints;INCOG"}}}, {"type": "Feature", "geometry": {"type": "Polygon", "coordinates": [[[-95.8656773, 36.1456873], [-95.8656263, 36.145687], [-95.8656257, 36.1457519], [-95.8655774, 36.1457516], [-95.865577, 36.1458015], [-95.8656252, 36.1458018], [-95.8656247, 36.1458537], [-95.8656757, 36.145854], [-95.8656773, 36.1456873]]]}, "properties": {"osm_id": 1342551020, "building": "yes", "name": "", "height": null, "height_m": null, "levels": null, "tract_id": "40143007102", "tract_name": "71.02", "tags": {"building": "yes", "source": "microsoft/BuildingFootprints"}}}, {"type": "Feature", "geometry": {"type": "Polygon", "coordinates": [[[-95.8653864, 36.1458592], [-95.8653513, 36.1456996], [-95.8651027, 36.1457352], [-95.8651239, 36.1458318], [-95.8652591, 36.1458124], [-95.865273, 36.1458754], [-95.8653864, 36.1458592]]]}, "properties": {"osm_id": 1342551021, "building": "yes", "name": "", "height": null, "height_m": null, "levels": null, "tract_id": "40143007102", "tract_name": "71.02", "tags": {"building": "yes", "source": "microsoft/BuildingFootprints"}}}, {"type": "Feature", "geometry": {"type": "Polygon", "coordinates": [[[-95.8651368, 36.145177], [-95.8650134, 36.1451758], [-95.8650103, 36.1453837], [-95.8651363, 36.1453849], [-95.8651376, 36.1452974], [-95.8651886, 36.1452979], [-95.8651896, 36.1452338], [-95.8651359, 36.1452333], [-95.8651368, 36.145177]]]}, "properties": {"osm_id": 1342551022, "building": "yes", "name": "", "height": null, "height_m": null, "levels": null, "tract_id": "40143007102", "tract_name": "71.02", "tags": {"building": "yes", "source": "microsoft/BuildingFootprints"}}}, {"type": "Feature", "geometry": {"type": "Polygon", "coordinates": [[[-95.8652739, 36.1448394], [-95.8651704, 36.1448004], [-95.8651272, 36.1448751], [-95.8651625, 36.1448884], [-95.8651436, 36.1449211], [-95.8651777, 36.1449805], [-95.865085, 36.1450152], [-95.8651235, 36.1450822], [-95.8653212, 36.1450081], [-95.8652491, 36.1448825], [-95.8652739, 36.1448394]]]}, "properties": {"osm_id": 1342551023, "building": "yes", "name": "", "height": null, "height_m": null, "levels": null, "tract_id": "40143007102", "tract_name": "71.02", "tags": {"building": "yes", "source": "microsoft/BuildingFootprints"}}}, {"type": "Feature", "geometry": {"type": "Polygon", "coordinates": [[[-95.8652664, 36.1444901], [-95.865174, 36.1444807], [-95.8651494, 36.1446385], [-95.8651019, 36.1446336], [-95.8650948, 36.1446793], [-95.8651412, 36.144684], [-95.8651347, 36.1447258], [-95.8653285, 36.1447455], [-95.8653388, 36.1446794], [-95.8652649, 36.1446719], [-95.8652835, 36.1445525], [-95.8652571, 36.1445498], [-95.8652664, 36.1444901]]]}, "properties": {"osm_id": 1342551024, "building": "yes", "name": "", "height": null, "height_m": null, "levels": null, "tract_id": "40143007102", "tract_name": "71.02", "tags": {"building": "yes", "source": "microsoft/BuildingFootprints"}}}, {"type": "Feature", "geometry": {"type": "Polygon", "coordinates": [[[-95.8654674, 36.1446718], [-95.8656659, 36.144673], [-95.8656666, 36.1445959], [-95.8655996, 36.1445955], [-95.8656, 36.1445513], [-95.8654686, 36.1445505], [-95.8654674, 36.1446718]]]}, "properties": {"osm_id": 1342551025, "building": "yes", "name": "", "height": null, "height_m": null, "levels": null, "tract_id": "40143007102", "tract_name": "71.02", "tags": {"building": "yes", "source": "microsoft/BuildingFootprints"}}}, {"type": "Feature", "geometry": {"type": "Polygon", "coordinates": [[[-95.8655069, 36.1451], [-95.8656265, 36.1451013], [-95.8656282, 36.144993], [-95.8655087, 36.1449918], [-95.8655069, 36.1451]]]}, "properties": {"osm_id": 1342551026, "building": "yes", "name": "", "height": null, "height_m": null, "levels": null, "tract_id": "40143007102", "tract_name": "71.02", "tags": {"building": "yes", "source": "microsoft/BuildingFootprints"}}}, {"type": "Feature", "geometry": {"type": "Polygon", "coordinates": [[[-95.8659069, 36.1452225], [-95.865789, 36.1452212], [-95.8657856, 36.1454096], [-95.8659036, 36.1454109], [-95.8659069, 36.1452225]]]}, "properties": {"osm_id": 1342551027, "building": "yes", "name": "", "height": null, "height_m": null, "levels": null, "tract_id": "40143007102", "tract_name": "71.02", "tags": {"addr:city": "Tulsa", "addr:country": "US", "addr:housenumber": "1223", "addr:postcode": "74128", "addr:state": "OK", "addr:street": "South 99th Avenue East", "building": "yes", "source": "microsoft/BuildingFootprints;INCOG"}}}, {"type": "Feature", "geometry": {"type": "Polygon", "coordinates": [[[-95.8656434, 36.1453599], [-95.8654718, 36.1453587], [-95.8654711, 36.145428], [-95.8656427, 36.1454292], [-95.8656434, 36.1453599]]]}, "properties": {"osm_id": 1342551028, "building": "yes", "name": "", "height": null, "height_m": null, "levels": null, "tract_id": "40143007102", "tract_name": "71.02", "tags": {"building": "yes", "source": "microsoft/BuildingFootprints"}}}, {"type": "Feature", "geometry": {"type": "Polygon", "coordinates": [[[-95.8661398, 36.1451018], [-95.8661065, 36.1450172], [-95.8660212, 36.1450391], [-95.8659972, 36.1449781], [-95.8659012, 36.1450027], [-95.8659585, 36.1451483], [-95.8661398, 36.1451018]]]}, "properties": {"osm_id": 1342551029, "building": "yes", "name": "", "height": null, "height_m": null, "levels": null, "tract_id": "40143007102", "tract_name": "71.02", "tags": {"building": "yes", "source": "microsoft/BuildingFootprints"}}}, {"type": "Feature", "geometry": {"type": "Polygon", "coordinates": [[[-95.8659222, 36.1447361], [-95.8659211, 36.1447707], [-95.8659893, 36.1447721], [-95.8659877, 36.1448219], [-95.8660869, 36.1448239], [-95.8660901, 36.1447222], [-95.8660687, 36.1447218], [-95.8660712, 36.1446417], [-95.8657844, 36.1446357], [-95.8657813, 36.1447331], [-95.8659222, 36.1447361]]]}, "properties": {"osm_id": 1342551030, "building": "yes", "name": "", "height": null, "height_m": null, "levels": null, "tract_id": "40143007102", "tract_name": "71.02", "tags": {"building": "yes", "source": "microsoft/BuildingFootprints"}}}, {"type": "Feature", "geometry": {"type": "Polygon", "coordinates": [[[-95.8662418, 36.1451069], [-95.866341, 36.1451085], [-95.8663397, 36.1451648], [-95.8664443, 36.1451664], [-95.8664476, 36.1450257], [-95.8663377, 36.145024], [-95.8663386, 36.1449872], [-95.8662769, 36.1449862], [-95.8662761, 36.1450187], [-95.866244, 36.1450182], [-95.8662418, 36.1451069]]]}, "properties": {"osm_id": 1342551031, "building": "yes", "name": "", "height": null, "height_m": null, "levels": null, "tract_id": "40143007102", "tract_name": "71.02", "tags": {"building": "yes", "source": "microsoft/BuildingFootprints"}}}, {"type": "Feature", "geometry": {"type": "Polygon", "coordinates": [[[-95.8665344, 36.1451851], [-95.8667248, 36.1451829], [-95.8667228, 36.1450725], [-95.8665324, 36.1450747], [-95.8665344, 36.1451851]]]}, "properties": {"osm_id": 1342551032, "building": "yes", "name": "", "height": null, "height_m": null, "levels": null, "tract_id": "40143007102", "tract_name": "71.02", "tags": {"building": "yes", "source": "microsoft/BuildingFootprints"}}}, {"type": "Feature", "geometry": {"type": "Polygon", "coordinates": [[[-95.8668599, 36.1450289], [-95.8667714, 36.1450302], [-95.8667738, 36.145132], [-95.8668515, 36.1451308], [-95.8668525, 36.1451705], [-95.8669554, 36.145169], [-95.8669514, 36.144995], [-95.8668591, 36.1449964], [-95.8668599, 36.1450289]]]}, "properties": {"osm_id": 1342551033, "building": "yes", "name": "", "height": null, "height_m": null, "levels": null, "tract_id": "40143007102", "tract_name": "71.02", "tags": {"building": "yes", "source": "microsoft/BuildingFootprints"}}}, {"type": "Feature", "geometry": {"type": "Polygon", "coordinates": [[[-95.8666962, 36.1448851], [-95.8669161, 36.1448876], [-95.8669187, 36.1447382], [-95.8666988, 36.1447356], [-95.8666962, 36.1448851]]]}, "properties": {"osm_id": 1342551034, "building": "yes", "name": "", "height": null, "height_m": null, "levels": null, "tract_id": "40143007102", "tract_name": "71.02", "tags": {"building": "yes", "source": "microsoft/BuildingFootprints"}}}, {"type": "Feature", "geometry": {"type": "Polygon", "coordinates": [[[-95.8667502, 36.1447068], [-95.8669287, 36.1447054], [-95.8669279, 36.1446361], [-95.8668769, 36.1446365], [-95.8668758, 36.1445434], [-95.8667482, 36.1445444], [-95.8667502, 36.1447068]]]}, "properties": {"osm_id": 1342551035, "building": "yes", "name": "", "height": null, "height_m": null, "levels": null, "tract_id": "40143007102", "tract_name": "71.02", "tags": {"building": "yes", "source": "microsoft/BuildingFootprints"}}}, {"type": "Feature", "geometry": {"type": "Polygon", "coordinates": [[[-95.8673634, 36.1445861], [-95.8675163, 36.1445877], [-95.8675173, 36.1445205], [-95.8675709, 36.1445211], [-95.8675719, 36.1444604], [-95.8675144, 36.1444598], [-95.8675157, 36.1443746], [-95.8673613, 36.144373], [-95.8673607, 36.1444128], [-95.8672898, 36.1444121], [-95.8672885, 36.144498], [-95.8673648, 36.1444987], [-95.8673634, 36.1445861]]]}, "properties": {"osm_id": 1342551036, "building": "yes", "name": "", "height": null, "height_m": null, "levels": null, "tract_id": "40143007102", "tract_name": "71.02", "tags": {"building": "yes", "source": "microsoft/BuildingFootprints"}}}, {"type": "Feature", "geometry": {"type": "Polygon", "coordinates": [[[-95.8678166, 36.1441943], [-95.8678186, 36.1441012], [-95.8675183, 36.144097], [-95.8675163, 36.1441901], [-95.8676316, 36.1441917], [-95.867631, 36.1442199], [-95.8677275, 36.1442212], [-95.8677281, 36.144193], [-95.8678166, 36.1441943]]]}, "properties": {"osm_id": 1342551037, "building": "yes", "name": "", "height": null, "height_m": null, "levels": null, "tract_id": "40143007102", "tract_name": "71.02", "tags": {"building": "yes", "source": "microsoft/BuildingFootprints"}}}, {"type": "Feature", "geometry": {"type": "Polygon", "coordinates": [[[-95.8673757, 36.1441794], [-95.8673777, 36.1440407], [-95.8673079, 36.1440401], [-95.8673074, 36.1440791], [-95.8671036, 36.1440772], [-95.8671022, 36.1441768], [-95.8673757, 36.1441794]]]}, "properties": {"osm_id": 1342551038, "building": "yes", "name": "", "height": null, "height_m": null, "levels": null, "tract_id": "40143007102", "tract_name": "71.02", "tags": {"building": "yes", "source": "microsoft/BuildingFootprints"}}}, {"type": "Feature", "geometry": {"type": "Polygon", "coordinates": [[[-95.866654, 36.144227], [-95.8667934, 36.1442253], [-95.8667943, 36.1442716], [-95.8668881, 36.1442705], [-95.866885, 36.1441029], [-95.8668031, 36.1441039], [-95.8668034, 36.1441191], [-95.866652, 36.1441209], [-95.866654, 36.144227]]]}, "properties": {"osm_id": 1342551039, "building": "yes", "name": "", "height": null, "height_m": null, "levels": null, "tract_id": "40143007102", "tract_name": "71.02", "tags": {"building": "yes", "source": "microsoft/BuildingFootprints"}}}, {"type": "Feature", "geometry": {"type": "Polygon", "coordinates": [[[-95.8662571, 36.1441087], [-95.8662562, 36.1441788], [-95.8663569, 36.1441797], [-95.866356, 36.144249], [-95.8664418, 36.1442497], [-95.8664423, 36.1442151], [-95.8665469, 36.144216], [-95.8665475, 36.1441705], [-95.8665904, 36.1441709], [-95.8665912, 36.1441116], [-95.8662571, 36.1441087]]]}, "properties": {"osm_id": 1342551040, "building": "yes", "name": "", "height": null, "height_m": null, "levels": null, "tract_id": "40143007102", "tract_name": "71.02", "tags": {"building": "yes", "source": "microsoft/BuildingFootprints"}}}, {"type": "Feature", "geometry": {"type": "Polygon", "coordinates": [[[-95.8650714, 36.1440282], [-95.8649599, 36.1440292], [-95.8649615, 36.1441548], [-95.8649255, 36.1441551], [-95.8649263, 36.1442231], [-95.8650712, 36.1442219], [-95.8650708, 36.1441916], [-95.8651191, 36.1441912], [-95.8651182, 36.144124], [-95.8650726, 36.1441244], [-95.8650714, 36.1440282]]]}, "properties": {"osm_id": 1342551042, "building": "yes", "name": "", "height": null, "height_m": null, "levels": null, "tract_id": "40143007102", "tract_name": "71.02", "tags": {"building": "yes", "source": "microsoft/BuildingFootprints"}}}, {"type": "Feature", "geometry": {"type": "Polygon", "coordinates": [[[-95.8649481, 36.1436328], [-95.8649473, 36.1438191], [-95.8649688, 36.1438191], [-95.8649686, 36.1438819], [-95.8650705, 36.1438822], [-95.8650709, 36.1437717], [-95.8650977, 36.1437718], [-95.865098, 36.1437111], [-95.8650631, 36.143711], [-95.8650634, 36.1436331], [-95.8649481, 36.1436328]]]}, "properties": {"osm_id": 1342551043, "building": "yes", "name": "", "height": null, "height_m": null, "levels": null, "tract_id": "40143007102", "tract_name": "71.02", "tags": {"building": "yes", "source": "microsoft/BuildingFootprints"}}}, {"type": "Feature", "geometry": {"type": "Polygon", "coordinates": [[[-95.8657282, 36.1439036], [-95.8658729, 36.1439013], [-95.8658678, 36.1436921], [-95.8657231, 36.1436944], [-95.8657282, 36.1439036]]]}, "properties": {"osm_id": 1342551044, "building": "yes", "name": "", "height": null, "height_m": null, "levels": null, "tract_id": "40143007102", "tract_name": "71.02", "tags": {"addr:city": "Tulsa", "addr:country": "US", "addr:housenumber": "1317", "addr:postcode": "74128", "addr:state": "OK", "addr:street": "South 99th Avenue East", "building": "yes", "source": "microsoft/BuildingFootprints;INCOG"}}}, {"type": "Feature", "geometry": {"type": "Polygon", "coordinates": [[[-95.8657515, 36.1442162], [-95.8658898, 36.1442171], [-95.8658917, 36.1440178], [-95.8657534, 36.144017], [-95.8657515, 36.1442162]]]}, "properties": {"osm_id": 1342551045, "building": "yes", "name": "", "height": null, "height_m": null, "levels": null, "tract_id": "40143007102", "tract_name": "71.02", "tags": {"building": "yes", "source": "microsoft/BuildingFootprints"}}}, {"type": "Feature", "geometry": {"type": "Polygon", "coordinates": [[[-95.8649672, 36.1409213], [-95.8649637, 36.1411561], [-95.865071, 36.1411571], [-95.8650745, 36.1409224], [-95.8649672, 36.1409213]]]}, "properties": {"osm_id": 1342551047, "building": "yes", "name": "", "height": null, "height_m": null, "levels": null, "tract_id": "40143007102", "tract_name": "71.02", "tags": {"building": "yes", "source": "microsoft/BuildingFootprints"}}}, {"type": "Feature", "geometry": {"type": "Polygon", "coordinates": [[[-95.8649583, 36.1412843], [-95.8649597, 36.1414121], [-95.8649007, 36.1414125], [-95.8649013, 36.1414666], [-95.8649281, 36.1414664], [-95.8649278, 36.1414361], [-95.8649546, 36.1414359], [-95.8649549, 36.1414684], [-95.8651239, 36.1414673], [-95.8651231, 36.1413936], [-95.8650909, 36.1413938], [-95.8650898, 36.1412834], [-95.8649583, 36.1412843]]]}, "properties": {"osm_id": 1342551048, "building": "yes", "name": "", "height": null, "height_m": null, "levels": null, "tract_id": "40143007102", "tract_name": "71.02", "tags": {"building": "yes", "source": "microsoft/BuildingFootprints"}}}, {"type": "Feature", "geometry": {"type": "Polygon", "coordinates": [[[-95.8649678, 36.141604], [-95.8649643, 36.1418358], [-95.8650743, 36.1418369], [-95.8650754, 36.1417632], [-95.8651156, 36.1417636], [-95.865118, 36.1416055], [-95.8649678, 36.141604]]]}, "properties": {"osm_id": 1342551049, "building": "yes", "name": "", "height": null, "height_m": null, "levels": null, "tract_id": "40143007102", "tract_name": "71.02", "tags": {"building": "yes", "source": "microsoft/BuildingFootprints"}}}, {"type": "Feature", "geometry": {"type": "Polygon", "coordinates": [[[-95.8649603, 36.1422004], [-95.8650823, 36.1421997], [-95.8650817, 36.1421261], [-95.8651394, 36.1421258], [-95.8651387, 36.1420361], [-95.865085, 36.1420364], [-95.8650849, 36.1420156], [-95.8651358, 36.1420154], [-95.8651351, 36.1419309], [-95.8649581, 36.1419318], [-95.8649603, 36.1422004]]]}, "properties": {"osm_id": 1342551050, "building": "yes", "name": "", "height": null, "height_m": null, "levels": null, "tract_id": "40143007102", "tract_name": "71.02", "tags": {"building": "yes", "source": "microsoft/BuildingFootprints"}}}, {"type": "Feature", "geometry": {"type": "Polygon", "coordinates": [[[-95.8649636, 36.1425276], [-95.8650736, 36.1425268], [-95.8650725, 36.1424293], [-95.8651127, 36.142429], [-95.8651122, 36.1423879], [-95.8650774, 36.1423881], [-95.8650763, 36.1422907], [-95.8649609, 36.1422915], [-95.8649636, 36.1425276]]]}, "properties": {"osm_id": 1342551051, "building": "yes", "name": "", "height": null, "height_m": null, "levels": null, "tract_id": "40143007102", "tract_name": "71.02", "tags": {"building": "yes", "source": "microsoft/BuildingFootprints"}}}, {"type": "Feature", "geometry": {"type": "Polygon", "coordinates": [[[-95.8649596, 36.142861], [-95.865095, 36.1428619], [-95.8650958, 36.1427852], [-95.865144, 36.1427855], [-95.8651454, 36.1426577], [-95.8649617, 36.1426565], [-95.8649596, 36.142861]]]}, "properties": {"osm_id": 1342551052, "building": "yes", "name": "", "height": null, "height_m": null, "levels": null, "tract_id": "40143007102", "tract_name": "71.02", "tags": {"building": "yes", "source": "microsoft/BuildingFootprints"}}}, {"type": "Feature", "geometry": {"type": "Polygon", "coordinates": [[[-95.8651618, 36.14317], [-95.8651614, 36.1430647], [-95.8651252, 36.1430648], [-95.8651249, 36.1429847], [-95.8649854, 36.1429851], [-95.864986, 36.1431272], [-95.8649497, 36.1431273], [-95.86495, 36.1432074], [-95.8651244, 36.1432069], [-95.8651242, 36.1431701], [-95.8651618, 36.14317]]]}, "properties": {"osm_id": 1342551053, "building": "yes", "name": "", "height": null, "height_m": null, "levels": null, "tract_id": "40143007102", "tract_name": "71.02", "tags": {"building": "yes", "source": "microsoft/BuildingFootprints"}}}, {"type": "Feature", "geometry": {"type": "Polygon", "coordinates": [[[-95.8651063, 36.1433148], [-95.8649655, 36.1433179], [-95.8649727, 36.1435309], [-95.8651135, 36.1435278], [-95.8651063, 36.1433148]]]}, "properties": {"osm_id": 1342551054, "building": "yes", "name": "", "height": null, "height_m": null, "levels": null, "tract_id": "40143007102", "tract_name": "71.02", "tags": {"building": "yes", "source": "microsoft/BuildingFootprints"}}}, {"type": "Feature", "geometry": {"type": "Polygon", "coordinates": [[[-95.8658741, 36.1432892], [-95.8657334, 36.1432914], [-95.865739, 36.1435166], [-95.8658796, 36.1435143], [-95.8658741, 36.1432892]]]}, "properties": {"osm_id": 1342551055, "building": "yes", "name": "", "height": null, "height_m": null, "levels": null, "tract_id": "40143007102", "tract_name": "71.02", "tags": {"addr:city": "Tulsa", "addr:country": "US", "addr:housenumber": "1327", "addr:postcode": "74128", "addr:state": "OK", "addr:street": "South 99th Avenue East", "building": "yes", "source": "microsoft/BuildingFootprints;INCOG"}}}, {"type": "Feature", "geometry": {"type": "Polygon", "coordinates": [[[-95.86779, 36.1410239], [-95.8676747, 36.1410249], [-95.8676739, 36.1409656], [-95.8675386, 36.1409667], [-95.8675396, 36.1410447], [-95.867565, 36.1410445], [-95.8675661, 36.1411311], [-95.8675971, 36.1411309], [-95.8675976, 36.1411699], [-95.867682, 36.1411691], [-95.8676815, 36.141131], [-95.8677914, 36.14113], [-95.86779, 36.1410239]]]}, "properties": {"osm_id": 1342551064, "building": "yes", "name": "", "height": null, "height_m": null, "levels": null, "tract_id": "40143007102", "tract_name": "71.02", "tags": {"addr:city": "Tulsa", "addr:country": "US", "addr:housenumber": "9725", "addr:postcode": "74128", "addr:state": "OK", "addr:street": "East 15th Street South", "building": "yes", "source": "microsoft/BuildingFootprints;INCOG"}}}, {"type": "Feature", "geometry": {"type": "Polygon", "coordinates": [[[-95.8671077, 36.1411062], [-95.8673047, 36.1411057], [-95.8673048, 36.1411331], [-95.8673787, 36.1411329], [-95.8673786, 36.1411069], [-95.8674322, 36.1411067], [-95.8674319, 36.1410288], [-95.8673607, 36.1410289], [-95.8673607, 36.1410095], [-95.8671073, 36.1410101], [-95.8671077, 36.1411062]]]}, "properties": {"osm_id": 1342551065, "building": "yes", "name": "", "height": null, "height_m": null, "levels": null, "tract_id": "40143007102", "tract_name": "71.02", "tags": {"addr:city": "Tulsa", "addr:country": "US", "addr:housenumber": "9739", "addr:postcode": "74128", "addr:state": "OK", "addr:street": "East 15th Street South", "building": "yes", "source": "microsoft/BuildingFootprints;INCOG"}}}, {"type": "Feature", "geometry": {"type": "Polygon", "coordinates": [[[-95.8667991, 36.1411054], [-95.8669559, 36.141103], [-95.8669525, 36.1409622], [-95.8666978, 36.1409662], [-95.8667003, 36.1410702], [-95.8667983, 36.1410686], [-95.8667991, 36.1411054]]]}, "properties": {"osm_id": 1342551066, "building": "yes", "name": "", "height": null, "height_m": null, "levels": null, "tract_id": "40143007102", "tract_name": "71.02", "tags": {"addr:city": "Tulsa", "addr:country": "US", "addr:housenumber": "9749", "addr:postcode": "74128", "addr:state": "OK", "addr:street": "East 15th Street South", "building": "yes", "source": "microsoft/BuildingFootprints;INCOG"}}}, {"type": "Feature", "geometry": {"type": "Polygon", "coordinates": [[[-95.8664126, 36.1409504], [-95.8662931, 36.1409502], [-95.8662927, 36.1411487], [-95.8663168, 36.1411487], [-95.8663167, 36.1411993], [-95.866412, 36.1411995], [-95.8664126, 36.1409504]]]}, "properties": {"osm_id": 1342551067, "building": "yes", "name": "", "height": null, "height_m": null, "levels": null, "tract_id": "40143007102", "tract_name": "71.02", "tags": {"addr:city": "Tulsa", "addr:country": "US", "addr:housenumber": "1422", "addr:postcode": "74128", "addr:state": "OK", "addr:street": "South 99th Avenue East", "building": "yes", "source": "microsoft/BuildingFootprints;INCOG"}}}, {"type": "Feature", "geometry": {"type": "Polygon", "coordinates": [[[-95.8657499, 36.1411637], [-95.8658801, 36.1411628], [-95.8658778, 36.1409479], [-95.8657489, 36.1409488], [-95.8657496, 36.1410086], [-95.8656731, 36.1410091], [-95.8656739, 36.1410806], [-95.8657489, 36.14108], [-95.8657499, 36.1411637]]]}, "properties": {"osm_id": 1342551068, "building": "yes", "name": "", "height": null, "height_m": null, "levels": null, "tract_id": "40143007102", "tract_name": "71.02", "tags": {"addr:city": "Tulsa", "addr:country": "US", "addr:housenumber": "1419", "addr:postcode": "74128", "addr:state": "OK", "addr:street": "South 99th Avenue East", "building": "yes"}}}, {"type": "Feature", "geometry": {"type": "Polygon", "coordinates": [[[-95.8658778, 36.1412467], [-95.8657747, 36.141248], [-95.8657781, 36.1414264], [-95.8656548, 36.141428], [-95.8656562, 36.1414986], [-95.8657259, 36.1414977], [-95.8657266, 36.1415367], [-95.8658834, 36.1415347], [-95.8658778, 36.1412467]]]}, "properties": {"osm_id": 1342551069, "building": "yes", "name": "", "height": null, "height_m": null, "levels": null, "tract_id": "40143007102", "tract_name": "71.02", "tags": {"addr:city": "Tulsa", "addr:country": "US", "addr:housenumber": "1411", "addr:postcode": "74128", "addr:state": "OK", "addr:street": "South 99th Avenue East", "building": "yes", "source": "microsoft/BuildingFootprints;INCOG"}}}, {"type": "Feature", "geometry": {"type": "Polygon", "coordinates": [[[-95.8657507, 36.1415884], [-95.8657443, 36.1418223], [-95.8658798, 36.1418247], [-95.8658823, 36.1417329], [-95.8658501, 36.1417324], [-95.865854, 36.1415903], [-95.8657507, 36.1415884]]]}, "properties": {"osm_id": 1342551070, "building": "yes", "name": "", "height": null, "height_m": null, "levels": null, "tract_id": "40143007102", "tract_name": "71.02", "tags": {"addr:city": "Tulsa", "addr:country": "US", "addr:housenumber": "1371", "addr:postcode": "74128", "addr:state": "OK", "addr:street": "South 99th Avenue East", "building": "yes", "source": "microsoft/BuildingFootprints;INCOG"}}}, {"type": "Feature", "geometry": {"type": "Polygon", "coordinates": [[[-95.8661969, 36.1414794], [-95.8661981, 36.1415898], [-95.8664099, 36.1415884], [-95.8664107, 36.1416634], [-95.8664899, 36.1416628], [-95.8664892, 36.14159], [-95.8665468, 36.1415896], [-95.8665466, 36.1415744], [-95.8666029, 36.141574], [-95.8666019, 36.1414744], [-95.8665482, 36.1414748], [-95.866548, 36.1414567], [-95.8663201, 36.1414582], [-95.8663203, 36.1414785], [-95.8661969, 36.1414794]]]}, "properties": {"osm_id": 1342551071, "building": "yes", "name": "", "height": null, "height_m": null, "levels": null, "tract_id": "40143007102", "tract_name": "71.02", "tags": {"building": "yes", "source": "microsoft/BuildingFootprints"}}}, {"type": "Feature", "geometry": {"type": "Polygon", "coordinates": [[[-95.8669793, 36.1415902], [-95.8669786, 36.1415418], [-95.8669705, 36.1415419], [-95.8669696, 36.141482], [-95.8666934, 36.1414848], [-95.866695, 36.1415931], [-95.8669793, 36.1415902]]]}, "properties": {"osm_id": 1342551072, "building": "yes", "name": "", "height": null, "height_m": null, "levels": null, "tract_id": "40143007102", "tract_name": "71.02", "tags": {"building": "yes", "source": "microsoft/BuildingFootprints"}}}, {"type": "Feature", "geometry": {"type": "Polygon", "coordinates": [[[-95.8670777, 36.1416049], [-95.8672561, 36.1416059], [-95.8672562, 36.1415986], [-95.867413, 36.1415994], [-95.8674137, 36.1415171], [-95.8670784, 36.1415153], [-95.8670777, 36.1416049]]]}, "properties": {"osm_id": 1342551073, "building": "yes", "name": "", "height": null, "height_m": null, "levels": null, "tract_id": "40143007102", "tract_name": "71.02", "tags": {"building": "yes", "source": "microsoft/BuildingFootprints"}}}, {"type": "Feature", "geometry": {"type": "Polygon", "coordinates": [[[-95.8678093, 36.1415985], [-95.8678078, 36.1414109], [-95.8677837, 36.1414111], [-95.8677834, 36.1413764], [-95.8677552, 36.1413766], [-95.8677555, 36.1414134], [-95.8677126, 36.1414136], [-95.867713, 36.1414699], [-95.8676662, 36.1414702], [-95.8676663, 36.141494], [-95.867622, 36.1414942], [-95.8676229, 36.1415995], [-95.8678093, 36.1415985]]]}, "properties": {"osm_id": 1342551074, "building": "yes", "name": "", "height": null, "height_m": null, "levels": null, "tract_id": "40143007102", "tract_name": "71.02", "tags": {"building": "yes", "source": "microsoft/BuildingFootprints"}}}, {"type": "Feature", "geometry": {"type": "Polygon", "coordinates": [[[-95.8678667, 36.1419135], [-95.8677514, 36.1419123], [-95.8677502, 36.1419881], [-95.8677945, 36.1419885], [-95.867793, 36.1420838], [-95.8680062, 36.142086], [-95.8680079, 36.1419755], [-95.8678658, 36.1419741], [-95.8678667, 36.1419135]]]}, "properties": {"osm_id": 1342551075, "building": "yes", "name": "", "height": null, "height_m": null, "levels": null, "tract_id": "40143007102", "tract_name": "71.02", "tags": {"building": "yes", "source": "microsoft/BuildingFootprints"}}}, {"type": "Feature", "geometry": {"type": "Polygon", "coordinates": [[[-95.8676546, 36.1421981], [-95.867646, 36.1424114], [-95.8677546, 36.1424143], [-95.8677584, 36.1423191], [-95.8677785, 36.1423196], [-95.8677832, 36.1422014], [-95.8676546, 36.1421981]]]}, "properties": {"osm_id": 1342551076, "building": "yes", "name": "", "height": null, "height_m": null, "levels": null, "tract_id": "40143007102", "tract_name": "71.02", "tags": {"building": "yes", "source": "microsoft/BuildingFootprints"}}}, {"type": "Feature", "geometry": {"type": "Polygon", "coordinates": [[[-95.8678183, 36.1425739], [-95.8676494, 36.1425747], [-95.8676499, 36.1426505], [-95.8676714, 36.1426504], [-95.8676723, 36.1427761], [-95.8678011, 36.1427754], [-95.8678005, 36.1426974], [-95.8678193, 36.1426974], [-95.8678183, 36.1425739]]]}, "properties": {"osm_id": 1342551077, "building": "yes", "name": "", "height": null, "height_m": null, "levels": null, "tract_id": "40143007102", "tract_name": "71.02", "tags": {"building": "yes", "source": "microsoft/BuildingFootprints"}}}, {"type": "Feature", "geometry": {"type": "Polygon", "coordinates": [[[-95.8676542, 36.143125], [-95.8677829, 36.1431229], [-95.8677778, 36.1429164], [-95.8676491, 36.1429185], [-95.8676542, 36.143125]]]}, "properties": {"osm_id": 1342551078, "building": "yes", "name": "", "height": null, "height_m": null, "levels": null, "tract_id": "40143007102", "tract_name": "71.02", "tags": {"building": "yes", "source": "microsoft/BuildingFootprints"}}}, {"type": "Feature", "geometry": {"type": "Polygon", "coordinates": [[[-95.8676686, 36.1432609], [-95.8676606, 36.1434873], [-95.8678214, 36.143491], [-95.8678233, 36.1434378], [-95.8678554, 36.1434385], [-95.8678581, 36.1433641], [-95.867783, 36.1433623], [-95.8677865, 36.1432636], [-95.8676686, 36.1432609]]]}, "properties": {"osm_id": 1342551079, "building": "yes", "name": "", "height": null, "height_m": null, "levels": null, "tract_id": "40143007102", "tract_name": "71.02", "tags": {"building": "yes", "source": "microsoft/BuildingFootprints"}}}, {"type": "Feature", "geometry": {"type": "Polygon", "coordinates": [[[-95.8676788, 36.1437886], [-95.8678129, 36.1437873], [-95.8678116, 36.1437007], [-95.8678304, 36.1437005], [-95.8678283, 36.1435598], [-95.867654, 36.1435615], [-95.8676551, 36.1436394], [-95.8676766, 36.1436392], [-95.8676788, 36.1437886]]]}, "properties": {"osm_id": 1342551080, "building": "yes", "name": "", "height": null, "height_m": null, "levels": null, "tract_id": "40143007102", "tract_name": "71.02", "tags": {"building": "yes", "source": "microsoft/BuildingFootprints"}}}, {"type": "Feature", "geometry": {"type": "Polygon", "coordinates": [[[-95.8672542, 36.1436275], [-95.8671415, 36.1436283], [-95.8671423, 36.1436955], [-95.8671047, 36.1436957], [-95.867105, 36.1437247], [-95.8670392, 36.1437252], [-95.8670401, 36.1438045], [-95.8672561, 36.1438029], [-95.8672542, 36.1436275]]]}, "properties": {"osm_id": 1342551081, "building": "yes", "name": "", "height": null, "height_m": null, "levels": null, "tract_id": "40143007102", "tract_name": "71.02", "tags": {"building": "yes", "source": "microsoft/BuildingFootprints"}}}, {"type": "Feature", "geometry": {"type": "Polygon", "coordinates": [[[-95.8670789, 36.143234], [-95.8670808, 36.1433501], [-95.8670257, 36.1433507], [-95.8670266, 36.143407], [-95.8670817, 36.1434065], [-95.8670829, 36.1434852], [-95.8671822, 36.1434842], [-95.8671803, 36.1433694], [-95.8672098, 36.1433691], [-95.8672089, 36.143312], [-95.8672357, 36.1433117], [-95.8672344, 36.1432324], [-95.8670789, 36.143234]]]}, "properties": {"osm_id": 1342551082, "building": "yes", "name": "", "height": null, "height_m": null, "levels": null, "tract_id": "40143007102", "tract_name": "71.02", "tags": {"building": "yes", "source": "microsoft/BuildingFootprints"}}}, {"type": "Feature", "geometry": {"type": "Polygon", "coordinates": [[[-95.8670885, 36.1431153], [-95.867224, 36.1431137], [-95.8672205, 36.1429266], [-95.8670918, 36.1429282], [-95.8670922, 36.1429499], [-95.8670425, 36.1429505], [-95.8670436, 36.143009], [-95.8670865, 36.1430084], [-95.8670885, 36.1431153]]]}, "properties": {"osm_id": 1342551083, "building": "yes", "name": "", "height": null, "height_m": null, "levels": null, "tract_id": "40143007102", "tract_name": "71.02", "tags": {"building": "yes", "source": "microsoft/BuildingFootprints"}}}, {"type": "Feature", "geometry": {"type": "Polygon", "coordinates": [[[-95.8672404, 36.1425512], [-95.867105, 36.1425495], [-95.8671013, 36.1427466], [-95.8672367, 36.1427482], [-95.8672404, 36.1425512]]]}, "properties": {"osm_id": 1342551084, "building": "yes", "name": "", "height": null, "height_m": null, "levels": null, "tract_id": "40143007102", "tract_name": "71.02", "tags": {"building": "yes", "source": "microsoft/BuildingFootprints"}}}, {"type": "Feature", "geometry": {"type": "Polygon", "coordinates": [[[-95.867093, 36.1422324], [-95.8670977, 36.1424373], [-95.8672332, 36.1424353], [-95.8672284, 36.1422304], [-95.867093, 36.1422324]]]}, "properties": {"osm_id": 1342551085, "building": "yes", "name": "", "height": null, "height_m": null, "levels": null, "tract_id": "40143007102", "tract_name": "71.02", "tags": {"building": "yes", "source": "microsoft/BuildingFootprints"}}}, {"type": "Feature", "geometry": {"type": "Polygon", "coordinates": [[[-95.867285, 36.1418833], [-95.8669672, 36.1418848], [-95.8669678, 36.1419714], [-95.8672856, 36.14197], [-95.867285, 36.1418833]]]}, "properties": {"osm_id": 1342551086, "building": "yes", "name": "", "height": null, "height_m": null, "levels": null, "tract_id": "40143007102", "tract_name": "71.02", "tags": {"building": "yes", "source": "microsoft/BuildingFootprints"}}}, {"type": "Feature", "geometry": {"type": "Polygon", "coordinates": [[[-95.8667083, 36.1420183], [-95.8665892, 36.1420618], [-95.8666268, 36.142129], [-95.8667459, 36.1420855], [-95.8667083, 36.1420183]]]}, "properties": {"osm_id": 1342551087, "building": "yes", "name": "", "height": null, "height_m": null, "levels": null, "tract_id": "40143007102", "tract_name": "71.02", "tags": {"building": "yes", "source": "microsoft/BuildingFootprints"}}}, {"type": "Feature", "geometry": {"type": "Polygon", "coordinates": [[[-95.86633, 36.1419187], [-95.8663314, 36.1419966], [-95.8663502, 36.1419964], [-95.8663515, 36.1420679], [-95.8663086, 36.1420684], [-95.8663099, 36.142142], [-95.8664896, 36.1421399], [-95.8664882, 36.1420619], [-95.8665337, 36.1420614], [-95.8665327, 36.1420058], [-95.8664898, 36.1420063], [-95.8664882, 36.1419168], [-95.86633, 36.1419187]]]}, "properties": {"osm_id": 1342551088, "building": "yes", "name": "", "height": null, "height_m": null, "levels": null, "tract_id": "40143007102", "tract_name": "71.02", "tags": {"addr:city": "Tulsa", "addr:country": "US", "addr:housenumber": "1366", "addr:postcode": "74128", "addr:state": "OK", "addr:street": "South 99th Avenue East", "building": "yes", "source": "microsoft/BuildingFootprints;INCOG"}}}, {"type": "Feature", "geometry": {"type": "Polygon", "coordinates": [[[-95.8658838, 36.1419795], [-95.8657873, 36.1419795], [-95.8657873, 36.1420488], [-95.8656961, 36.1420488], [-95.8656961, 36.1421571], [-95.8657283, 36.1421571], [-95.8657283, 36.1422156], [-95.8658651, 36.1422156], [-95.8658651, 36.1420639], [-95.8658838, 36.1420639], [-95.8658838, 36.1419795]]]}, "properties": {"osm_id": 1342551089, "building": "yes", "name": "", "height": null, "height_m": null, "levels": null, "tract_id": "40143007102", "tract_name": "71.02", "tags": {"addr:city": "Tulsa", "addr:country": "US", "addr:housenumber": "1365", "addr:postcode": "74128", "addr:state": "OK", "addr:street": "South 99th Avenue East", "building": "yes", "source": "microsoft/BuildingFootprints;INCOG"}}}, {"type": "Feature", "geometry": {"type": "Polygon", "coordinates": [[[-95.8657658, 36.1425055], [-95.8658838, 36.142505], [-95.8658821, 36.1422572], [-95.865756, 36.1422578], [-95.8657568, 36.1423626], [-95.8656844, 36.1423629], [-95.8656847, 36.1424171], [-95.8657652, 36.1424167], [-95.8657658, 36.1425055]]]}, "properties": {"osm_id": 1342551090, "building": "yes", "name": "", "height": null, "height_m": null, "levels": null, "tract_id": "40143007102", "tract_name": "71.02", "tags": {"addr:city": "Tulsa", "addr:country": "US", "addr:housenumber": "1357", "addr:postcode": "74128", "addr:state": "OK", "addr:street": "South 99th Avenue East", "building": "yes", "source": "microsoft/BuildingFootprints;INCOG"}}}, {"type": "Feature", "geometry": {"type": "Polygon", "coordinates": [[[-95.8656224, 36.1429117], [-95.8658262, 36.1429111], [-95.8658257, 36.1427898], [-95.8658632, 36.1427897], [-95.8658623, 36.1425926], [-95.8656558, 36.1425932], [-95.8656561, 36.142656], [-95.8656829, 36.1426559], [-95.8656838, 36.14284], [-95.8656221, 36.1428402], [-95.8656224, 36.1429117]]]}, "properties": {"osm_id": 1342551091, "building": "yes", "name": "", "height": null, "height_m": null, "levels": null, "tract_id": "40143007102", "tract_name": "71.02", "tags": {"addr:city": "Tulsa", "addr:country": "US", "addr:housenumber": "1345", "addr:postcode": "74128", "addr:state": "OK", "addr:street": "South 99th Avenue East", "building": "yes", "source": "microsoft/BuildingFootprints;INCOG"}}}, {"type": "Feature", "geometry": {"type": "Polygon", "coordinates": [[[-95.8655316, 36.1419427], [-95.8655309, 36.141999], [-95.8656784, 36.1420002], [-95.8656793, 36.1419287], [-95.8655828, 36.141928], [-95.8655826, 36.1419431], [-95.8655316, 36.1419427]]]}, "properties": {"osm_id": 1342551092, "building": "yes", "name": "", "height": null, "height_m": null, "levels": null, "tract_id": "40143007102", "tract_name": "71.02", "tags": {"building": "yes", "source": "microsoft/BuildingFootprints"}}}, {"type": "Feature", "geometry": {"type": "Polygon", "coordinates": [[[-95.8664367, 36.1425466], [-95.866312, 36.1425453], [-95.8663084, 36.1427727], [-95.8664331, 36.142774], [-95.8664367, 36.1425466]]]}, "properties": {"osm_id": 1342551093, "building": "yes", "name": "", "height": null, "height_m": null, "levels": null, "tract_id": "40143007102", "tract_name": "71.02", "tags": {"addr:city": "Tulsa", "addr:country": "US", "addr:housenumber": "1350", "addr:postcode": "74128", "addr:state": "OK", "addr:street": "South 99th Avenue East", "building": "yes", "source": "microsoft/BuildingFootprints;INCOG"}}}, {"type": "Feature", "geometry": {"type": "Polygon", "coordinates": [[[-95.866471, 36.1427317], [-95.866474, 36.1428269], [-95.8665773, 36.1428248], [-95.8665743, 36.1427295], [-95.866471, 36.1427317]]]}, "properties": {"osm_id": 1342551094, "building": "yes", "name": "", "height": null, "height_m": null, "levels": null, "tract_id": "40143007102", "tract_name": "71.02", "tags": {"building": "yes", "source": "microsoft/BuildingFootprints"}}}, {"type": "Feature", "geometry": {"type": "Polygon", "coordinates": [[[-95.8663433, 36.1431446], [-95.86659, 36.1431452], [-95.8665902, 36.1430932], [-95.8664629, 36.1430929], [-95.8664631, 36.1430236], [-95.8664524, 36.1430235], [-95.8664528, 36.1429217], [-95.8663214, 36.1429214], [-95.8663211, 36.1429972], [-95.8663438, 36.1429973], [-95.8663433, 36.1431446]]]}, "properties": {"osm_id": 1342551095, "building": "yes", "name": "", "height": null, "height_m": null, "levels": null, "tract_id": "40143007102", "tract_name": "71.02", "tags": {"addr:city": "Tulsa", "addr:country": "US", "addr:housenumber": "1340", "addr:postcode": "74128", "addr:state": "OK", "addr:street": "South 99th Avenue East", "building": "yes", "source": "microsoft/BuildingFootprints;INCOG"}}}, {"type": "Feature", "geometry": {"type": "Polygon", "coordinates": [[[-95.866326, 36.1435029], [-95.8664479, 36.1435018], [-95.8664443, 36.1432225], [-95.8663223, 36.1432235], [-95.866326, 36.1435029]]]}, "properties": {"osm_id": 1342551096, "building": "yes", "name": "", "height": null, "height_m": null, "levels": null, "tract_id": "40143007102", "tract_name": "71.02", "tags": {"addr:city": "Tulsa", "addr:country": "US", "addr:housenumber": "1330", "addr:postcode": "74128", "addr:state": "OK", "addr:street": "South 99th Avenue East", "building": "yes", "source": "microsoft/BuildingFootprints;INCOG"}}}, {"type": "Feature", "geometry": {"type": "Polygon", "coordinates": [[[-95.8663101, 36.1437267], [-95.8663067, 36.1438002], [-95.8664659, 36.1438051], [-95.8664745, 36.143622], [-95.8663405, 36.1436179], [-95.8663354, 36.1437275], [-95.8663101, 36.1437267]]]}, "properties": {"osm_id": 1342551097, "building": "yes", "name": "", "height": null, "height_m": null, "levels": null, "tract_id": "40143007102", "tract_name": "71.02", "tags": {"addr:city": "Tulsa", "addr:country": "US", "addr:housenumber": "1320", "addr:postcode": "74128", "addr:state": "OK", "addr:street": "South 99th Avenue East", "building": "yes", "source": "microsoft/BuildingFootprints;INCOG"}}}, {"type": "Feature", "geometry": {"type": "Polygon", "coordinates": [[[-95.8665802, 36.1435311], [-95.8667544, 36.1435348], [-95.8667569, 36.1434599], [-95.8665827, 36.1434562], [-95.8665802, 36.1435311]]]}, "properties": {"osm_id": 1342551098, "building": "yes", "name": "", "height": null, "height_m": null, "levels": null, "tract_id": "40143007102", "tract_name": "71.02", "tags": {"building": "yes", "source": "microsoft/BuildingFootprints"}}}, {"type": "Feature", "geometry": {"type": "Polygon", "coordinates": [[[-95.8667899, 36.1435247], [-95.8669187, 36.1435257], [-95.8669196, 36.1434433], [-95.8667909, 36.1434424], [-95.8667899, 36.1435247]]]}, "properties": {"osm_id": 1342551099, "building": "yes", "name": "", "height": null, "height_m": null, "levels": null, "tract_id": "40143007102", "tract_name": "71.02", "tags": {"building": "yes", "source": "microsoft/BuildingFootprints"}}}, {"type": "Feature", "geometry": {"type": "Polygon", "coordinates": [[[-95.8667938, 36.1438077], [-95.8669331, 36.1438046], [-95.8669302, 36.1437188], [-95.8667908, 36.1437219], [-95.8667938, 36.1438077]]]}, "properties": {"osm_id": 1342551100, "building": "yes", "name": "", "height": null, "height_m": null, "levels": null, "tract_id": "40143007102", "tract_name": "71.02", "tags": {"building": "yes", "source": "microsoft/BuildingFootprints"}}}, {"type": "Feature", "geometry": {"type": "Polygon", "coordinates": [[[-95.8679796, 36.1431977], [-95.8679761, 36.1433233], [-95.8681048, 36.1433256], [-95.8681083, 36.1432], [-95.8679796, 36.1431977]]]}, "properties": {"osm_id": 1342551101, "building": "yes", "name": "", "height": null, "height_m": null, "levels": null, "tract_id": "40143007102", "tract_name": "71.02", "tags": {"building": "yes", "source": "microsoft/BuildingFootprints"}}}, {"type": "Feature", "geometry": {"type": "Polygon", "coordinates": [[[-95.8657663, 36.1430765], [-95.8657368, 36.143077], [-95.8657381, 36.1431312], [-95.8657757, 36.1431305], [-95.865778, 36.1432215], [-95.8658918, 36.1432196], [-95.8658856, 36.1429706], [-95.8657637, 36.1429726], [-95.8657663, 36.1430765]]]}, "properties": {"osm_id": 1342551102, "building": "yes", "name": "", "height": null, "height_m": null, "levels": null, "tract_id": "40143007102", "tract_name": "71.02", "tags": {"addr:city": "Tulsa", "addr:country": "US", "addr:housenumber": "1337", "addr:postcode": "74128", "addr:state": "OK", "addr:street": "South 99th Avenue East", "building": "yes", "source": "microsoft/BuildingFootprints;INCOG"}}}, {"type": "Feature", "geometry": {"type": "Polygon", "coordinates": [[[-95.8650389, 36.1470353], [-95.8649262, 36.1470364], [-95.8649292, 36.1472227], [-95.8649855, 36.1472221], [-95.864985, 36.1471918], [-95.8650467, 36.1471911], [-95.8650462, 36.1471608], [-95.8650945, 36.1471603], [-95.8650934, 36.1470932], [-95.8650398, 36.1470937], [-95.8650389, 36.1470353]]]}, "properties": {"osm_id": 1342551103, "building": "yes", "name": "", "height": null, "height_m": null, "levels": null, "tract_id": "40143007102", "tract_name": "71.02", "tags": {"building": "yes", "source": "microsoft/BuildingFootprints"}}}, {"type": "Feature", "geometry": {"type": "Polygon", "coordinates": [[[-95.8862633, 36.1387352], [-95.8862418, 36.1387352], [-95.8862417, 36.1387467], [-95.8860976, 36.1387463], [-95.8860976, 36.1387582], [-95.8859997, 36.1387579], [-95.8859997, 36.138746], [-95.885987, 36.138746], [-95.8859877, 36.1385813], [-95.8860359, 36.1385814], [-95.886038, 36.1380816], [-95.8861251, 36.1380819], [-95.8861251, 36.138075], [-95.886219, 36.1380753], [-95.886219, 36.1380821], [-95.8862432, 36.1380822], [-95.8862431, 36.1380902], [-95.8862659, 36.1380903], [-95.8862633, 36.1387352]]]}, "properties": {"osm_id": 1416129130, "building": "retail", "name": "", "height": null, "height_m": null, "levels": null, "tract_id": "40143007102", "tract_name": "71.02", "tags": {"addr:city": "Tulsa", "addr:country": "US", "addr:housenumber": "1625", "addr:postcode": "74112", "addr:state": "OK", "addr:street": "South Memorial Drive East", "building": "retail"}}}, {"type": "Feature", "geometry": {"type": "Polygon", "coordinates": [[[-95.8861093, 36.1398564], [-95.8858902, 36.1398567], [-95.8858904, 36.1399604], [-95.8859142, 36.1399603], [-95.885915, 36.1403984], [-95.8858912, 36.1403985], [-95.8858914, 36.1405043], [-95.8861106, 36.1405041], [-95.8861093, 36.1398564]]]}, "properties": {"osm_id": 1416129131, "building": "retail", "name": "", "height": null, "height_m": null, "levels": null, "tract_id": "40143007102", "tract_name": "71.02", "tags": {"addr:city": "Tulsa", "addr:country": "US", "addr:housenumber": "1501", "addr:postcode": "74112", "addr:state": "OK", "addr:street": "South Memorial Drive East", "building": "retail"}}}, {"type": "Feature", "geometry": {"type": "Polygon", "coordinates": [[[-95.8862442, 36.1460488], [-95.8862473, 36.145446], [-95.8860622, 36.1454454], [-95.8860592, 36.1460482], [-95.8862442, 36.1460488]]]}, "properties": {"osm_id": 1416572186, "building": "retail", "name": "", "height": null, "height_m": null, "levels": null, "tract_id": "40143007102", "tract_name": "71.02", "tags": {"building": "retail"}}}, {"type": "Feature", "geometry": {"type": "Polygon", "coordinates": [[[-95.8656539, 36.1474805], [-95.8653509, 36.1474843], [-95.8653476, 36.1473136], [-95.8656506, 36.1473098], [-95.8656539, 36.1474805]]]}, "properties": {"osm_id": 1420423298, "building": "industrial", "name": "", "height": null, "height_m": null, "levels": null, "tract_id": "40143007102", "tract_name": "71.02", "tags": {"addr:city": "Tulsa", "addr:country": "US", "addr:housenumber": "9772", "addr:postcode": "74128", "addr:state": "OK", "addr:street": "East 11th Street South", "building": "industrial", "source": "INCOG"}}}, {"type": "Feature", "geometry": {"type": "Polygon", "coordinates": [[[-95.8860339, 36.1438152], [-95.8861151, 36.1438152], [-95.8861151, 36.1437415], [-95.8860339, 36.1437415], [-95.8860339, 36.1438152]]]}, "properties": {"osm_id": 1431060654, "building": "garages", "name": "", "height": null, "height_m": null, "levels": null, "tract_id": "40143007102", "tract_name": "71.02", "tags": {"building": "garages"}}}, {"type": "Feature", "geometry": {"type": "Polygon", "coordinates": [[[-95.8861238, 36.1437404], [-95.8861258, 36.1436625], [-95.8861882, 36.1436635], [-95.8861862, 36.1437415], [-95.8861238, 36.1437404]]]}, "properties": {"osm_id": 1431060655, "building": "retail", "name": "", "height": null, "height_m": null, "levels": null, "tract_id": "40143007102", "tract_name": "71.02", "tags": {"addr:city": "Tulsa", "addr:country": "US", "addr:housenumber": "1269", "addr:postcode": "74112", "addr:state": "OK", "addr:street": "South Memorial Drive East", "building": "retail", "shop": "car"}}}, {"type": "Feature", "geometry": {"type": "Polygon", "coordinates": [[[-95.885132, 36.1379424], [-95.8851868, 36.1379424], [-95.8851868, 36.1378964], [-95.885132, 36.1378964], [-95.885132, 36.1379424]]]}, "properties": {"osm_id": 1431873392, "building": "greenhouse", "name": "", "height": null, "height_m": null, "levels": null, "tract_id": "40143007102", "tract_name": "71.02", "tags": {"building": "greenhouse"}}}, {"type": "Feature", "geometry": {"type": "Polygon", "coordinates": [[[-95.8849617, 36.137943], [-95.8851285, 36.1379423], [-95.8851271, 36.1377149], [-95.8849604, 36.1377155], [-95.8849617, 36.137943]]]}, "properties": {"osm_id": 1431873393, "building": "greenhouse", "name": "", "height": null, "height_m": null, "levels": null, "tract_id": "40143007102", "tract_name": "71.02", "tags": {"building": "greenhouse"}}}, {"type": "Feature", "geometry": {"type": "Polygon", "coordinates": [[[-95.8831278, 36.1386069], [-95.8830314, 36.1386029], [-95.8830395, 36.1384772], [-95.8831358, 36.1384812], [-95.8831278, 36.1386069]]]}, "properties": {"osm_id": 1431873394, "building": "garage", "name": "", "height": null, "height_m": null, "levels": null, "tract_id": "40143007102", "tract_name": "71.02", "tags": {"building": "garage"}}}, {"type": "Feature", "geometry": {"type": "Polygon", "coordinates": [[[-95.8827026, 36.138081], [-95.8827042, 36.1381918], [-95.8824675, 36.138194], [-95.8824659, 36.1380832], [-95.8827026, 36.138081]]]}, "properties": {"osm_id": 1431873395, "building": "detached", "name": "", "height": null, "height_m": null, "levels": null, "tract_id": "40143007102", "tract_name": "71.02", "tags": {"building": "detached"}}}, {"type": "Feature", "geometry": {"type": "Polygon", "coordinates": [[[-95.8828468, 36.138595], [-95.8828465, 36.1386935], [-95.8826563, 36.1386931], [-95.8826563, 36.1387137], [-95.8825554, 36.1387135], [-95.8825555, 36.138706], [-95.8824793, 36.1387058], [-95.8824795, 36.1386241], [-95.8825557, 36.1386242], [-95.8825558, 36.1385944], [-95.8828468, 36.138595]]]}, "properties": {"osm_id": 1431873396, "building": "detached", "name": "", "height": null, "height_m": null, "levels": null, "tract_id": "40143007102", "tract_name": "71.02", "tags": {"building": "detached"}}}, {"type": "Feature", "geometry": {"type": "Polygon", "coordinates": [[[-95.8834107, 36.1386437], [-95.8833055, 36.138644], [-95.8833054, 36.1386061], [-95.8832148, 36.1386063], [-95.8832143, 36.1384872], [-95.8832686, 36.138487], [-95.8832685, 36.1384646], [-95.8833623, 36.1384643], [-95.8833624, 36.1384868], [-95.8834101, 36.1384867], [-95.8834107, 36.1386437]]]}, "properties": {"osm_id": 1431873397, "building": "yes", "name": "", "height": null, "height_m": null, "levels": null, "tract_id": "40143007102", "tract_name": "71.02", "tags": {"building": "yes"}}}, {"type": "Feature", "geometry": {"type": "Polygon", "coordinates": [[[-95.8843394, 36.1386989], [-95.8841021, 36.1387011], [-95.8841008, 36.1386113], [-95.8842107, 36.1386103], [-95.8842098, 36.1385502], [-95.8843373, 36.138549], [-95.8843394, 36.1386989]]]}, "properties": {"osm_id": 1431873398, "building": "detached", "name": "", "height": null, "height_m": null, "levels": null, "tract_id": "40143007102", "tract_name": "71.02", "tags": {"building": "detached"}}}, {"type": "Feature", "geometry": {"type": "Polygon", "coordinates": [[[-95.8843347, 36.1381899], [-95.8842261, 36.1381895], [-95.8842268, 36.1380758], [-95.8843354, 36.1380762], [-95.8843347, 36.1381899]]]}, "properties": {"osm_id": 1431873399, "building": "yes", "name": "", "height": null, "height_m": null, "levels": null, "tract_id": "40143007102", "tract_name": "71.02", "tags": {"building": "yes"}}}, {"type": "Feature", "geometry": {"type": "Polygon", "coordinates": [[[-95.8852836, 36.1386746], [-95.8852827, 36.1385772], [-95.8851076, 36.1385783], [-95.8851086, 36.1386756], [-95.8852836, 36.1386746]]]}, "properties": {"osm_id": 1431873400, "building": "office", "name": "Red Fox Apartment Homes", "height": null, "height_m": null, "levels": null, "tract_id": "40143007102", "tract_name": "71.02", "tags": {"building": "office", "name": "Red Fox Apartment Homes", "office": "property_management"}}}, {"type": "Feature", "geometry": {"type": "Polygon", "coordinates": [[[-95.8858455, 36.1375308], [-95.885956, 36.1375317], [-95.885958, 36.1373682], [-95.8858475, 36.1373673], [-95.8858455, 36.1375308]]]}, "properties": {"osm_id": 1431873410, "building": "yes", "name": "", "height": null, "height_m": null, "levels": null, "tract_id": "40143007102", "tract_name": "71.02", "tags": {"building": "yes"}}}, {"type": "Feature", "geometry": {"type": "Polygon", "coordinates": [[[-95.8851877, 36.1373256], [-95.8853712, 36.1373264], [-95.8853683, 36.1377599], [-95.8857096, 36.1377614], [-95.8857085, 36.1379352], [-95.8854291, 36.137934], [-95.8854291, 36.1379259], [-95.8851892, 36.1379249], [-95.8851898, 36.1378273], [-95.8851322, 36.1378271], [-95.885133, 36.137712], [-95.8851852, 36.1377122], [-95.8851877, 36.1373256]]]}, "properties": {"osm_id": 1431873425, "building": "yes", "name": "YWCA", "height": null, "height_m": null, "levels": null, "tract_id": "40143007102", "tract_name": "71.02", "tags": {"addr:city": "Tulsa", "addr:country": "US", "addr:housenumber": "8145", "addr:postcode": "74112", "addr:state": "OK", "addr:street": "East 17th Street South", "building": "yes", "leisure": "fitness_centre", "name": "YWCA", "website": "https://www.ywcatulsa.org/"}}}, {"type": "Feature", "geometry": {"type": "Polygon", "coordinates": [[[-95.8860564, 36.1375016], [-95.8859856, 36.1375002], [-95.8859872, 36.1374481], [-95.8860579, 36.1374494], [-95.8860564, 36.1375016]]]}, "properties": {"osm_id": 1431873427, "building": "carport", "name": "", "height": null, "height_m": null, "levels": null, "tract_id": "40143007102", "tract_name": "71.02", "tags": {"building": "carport"}}}, {"type": "Feature", "geometry": {"type": "Polygon", "coordinates": [[[-95.8861164, 36.1375644], [-95.886118, 36.1376157], [-95.8859859, 36.1376184], [-95.8859843, 36.1375671], [-95.8861164, 36.1375644]]]}, "properties": {"osm_id": 1431873428, "building": "garage", "name": "", "height": null, "height_m": null, "levels": null, "tract_id": "40143007102", "tract_name": "71.02", "tags": {"building": "garage"}}}]}