{"type": "FeatureCollection", "features": [{"type": "Feature", "geometry": {"type": "Polygon", "coordinates": [[[-96.639255, 34.1962419], [-96.639073, 34.1962349], [-96.6390419, 34.1967868], [-96.6392294, 34.1967941], [-96.6392409, 34.1965909], [-96.6394146, 34.1965976], [-96.6394217, 34.1964726], [-96.6392424, 34.1964657], [-96.639255, 34.1962419]]]}, "properties": {"osm_id": 526826140, "building": "yes", "name": "", "height": null, "height_m": null, "levels": null, "tract_id": "40069660201", "tract_name": "6602.01", "tags": {"building": "yes"}}}, {"type": "Feature", "geometry": {"type": "Polygon", "coordinates": [[[-96.6449214, 34.1922557], [-96.6449222, 34.192182], [-96.6445139, 34.1921789], [-96.6445131, 34.1922525], [-96.6449214, 34.1922557]]]}, "properties": {"osm_id": 526826143, "building": "yes", "name": "", "height": null, "height_m": null, "levels": null, "tract_id": "40069660201", "tract_name": "6602.01", "tags": {"building": "yes"}}}, {"type": "Feature", "geometry": {"type": "Polygon", "coordinates": [[[-96.6739401, 34.232971], [-96.673688, 34.2332903], [-96.6728887, 34.2328024], [-96.6731247, 34.2324831], [-96.6739401, 34.232971]]]}, "properties": {"osm_id": 544432853, "building": "yes", "name": "First Baptist Church", "height": null, "height_m": null, "levels": null, "tract_id": "40069660201", "tract_name": "6602.01", "tags": {"amenity": "place_of_worship", "building": "yes", "name": "First Baptist Church", "religion": "christian"}}}, {"type": "Feature", "geometry": {"type": "Polygon", "coordinates": [[[-96.6830216, 34.2333836], [-96.6829143, 34.2333415], [-96.6829491, 34.2332794], [-96.6830591, 34.2333304], [-96.6830216, 34.2333836]]]}, "properties": {"osm_id": 641322130, "building": "yes", "name": "Picnic Area", "height": null, "height_m": null, "levels": null, "tract_id": "40069660201", "tract_name": "6602.01", "tags": {"building": "yes", "name": "Picnic Area"}}}, {"type": "Feature", "geometry": {"type": "Polygon", "coordinates": [[[-96.6831557, 34.2335632], [-96.6831771, 34.2335455], [-96.6831744, 34.2335189], [-96.6831441, 34.2334973], [-96.6831144, 34.2334973], [-96.6830913, 34.2335166], [-96.683094, 34.2335477], [-96.6831208, 34.2335721], [-96.6831557, 34.2335632]]]}, "properties": {"osm_id": 641322131, "building": "yes", "name": "Gazebo", "height": null, "height_m": null, "levels": null, "tract_id": "40069660201", "tract_name": "6602.01", "tags": {"building": "yes", "name": "Gazebo"}}}, {"type": "Feature", "geometry": {"type": "Polygon", "coordinates": [[[-96.6834269, 34.2334133], [-96.6834676, 34.2333629], [-96.6832968, 34.2332655], [-96.6832521, 34.2333176], [-96.6834269, 34.2334133]]]}, "properties": {"osm_id": 641322132, "building": "yes", "name": "Picnic Area", "height": null, "height_m": null, "levels": null, "tract_id": "40069660201", "tract_name": "6602.01", "tags": {"building": "yes", "name": "Picnic Area"}}}, {"type": "Feature", "geometry": {"type": "Polygon", "coordinates": [[[-96.6840286, 34.2338083], [-96.6838823, 34.233731], [-96.683929, 34.2336621], [-96.6840794, 34.2337461], [-96.6840286, 34.2338083]]]}, "properties": {"osm_id": 641322133, "building": "yes", "name": "Pennington Park Restrooms", "height": null, "height_m": null, "levels": null, "tract_id": "40069660201", "tract_name": "6602.01", "tags": {"building": "yes", "name": "Pennington Park Restrooms"}}}, {"type": "Feature", "geometry": {"type": "Polygon", "coordinates": [[[-96.6781204, 34.2350476], [-96.678337, 34.2347921], [-96.6782642, 34.2347499], [-96.6780475, 34.2350054], [-96.6781204, 34.2350476]]]}, "properties": {"osm_id": 761486245, "building": "yes", "name": "Indie Cinema", "height": null, "height_m": null, "levels": null, "tract_id": "40069660201", "tract_name": "6602.01", "tags": {"addr:city": "Tishomingo", "addr:housenumber": "114", "addr:postcode": "73460", "addr:state": "OK", "addr:street": "West Main Street", "amenity": "cinema", "building": "yes", "name": "Indie Cinema", "screen": "1", "wikidata": "Q43194736"}}}, {"type": "Feature", "geometry": {"type": "Polygon", "coordinates": [[[-96.6425562, 34.2082962], [-96.6424383, 34.2083011], [-96.6424308, 34.208179], [-96.6425487, 34.208174], [-96.6425562, 34.2082962]]]}, "properties": {"osm_id": 936123330, "building": "yes", "name": "", "height": null, "height_m": null, "levels": null, "tract_id": "40069660201", "tract_name": "6602.01", "tags": {"building": "yes"}}}, {"type": "Feature", "geometry": {"type": "Polygon", "coordinates": [[[-96.6429993, 34.2097082], [-96.642825, 34.2097116], [-96.6428224, 34.2096195], [-96.6429967, 34.2096162], [-96.6429993, 34.2097082]]]}, "properties": {"osm_id": 936129334, "building": "yes", "name": "", "height": null, "height_m": null, "levels": null, "tract_id": "40069660201", "tract_name": "6602.01", "tags": {"building": "yes"}}}, {"type": "Feature", "geometry": {"type": "Polygon", "coordinates": [[[-96.6423944, 34.2068988], [-96.6423752, 34.2071801], [-96.642396, 34.2072059], [-96.6423351, 34.2072396], [-96.6424311, 34.2073585], [-96.6426202, 34.207254], [-96.6425539, 34.207172], [-96.6425767, 34.2071594], [-96.6425361, 34.2071091], [-96.6425133, 34.2071081], [-96.6425272, 34.206905], [-96.6423944, 34.2068988]]]}, "properties": {"osm_id": 936130322, "building": "yes", "name": "", "height": null, "height_m": null, "levels": null, "tract_id": "40069660201", "tract_name": "6602.01", "tags": {"building": "yes", "tourism": "information"}}}, {"type": "Feature", "geometry": {"type": "Polygon", "coordinates": [[[-96.6425629, 34.2068962], [-96.6425093, 34.2068696], [-96.6426434, 34.2067187], [-96.642697, 34.2067453], [-96.6425629, 34.2068962]]]}, "properties": {"osm_id": 936130323, "building": "carport", "name": "", "height": null, "height_m": null, "levels": null, "tract_id": "40069660201", "tract_name": "6602.01", "tags": {"building": "carport"}}}, {"type": "Feature", "geometry": {"type": "Polygon", "coordinates": [[[-96.6425396, 34.2066484], [-96.642469, 34.2067233], [-96.6425177, 34.2067547], [-96.6425883, 34.2066797], [-96.6425396, 34.2066484]]]}, "properties": {"osm_id": 936130324, "building": "carport", "name": "", "height": null, "height_m": null, "levels": null, "tract_id": "40069660201", "tract_name": "6602.01", "tags": {"building": "carport"}}}, {"type": "Feature", "geometry": {"type": "Polygon", "coordinates": [[[-96.6424319, 34.2067567], [-96.6423973, 34.2067955], [-96.6424422, 34.2068229], [-96.6424768, 34.206784], [-96.6424319, 34.2067567]]]}, "properties": {"osm_id": 936130325, "building": "carport", "name": "", "height": null, "height_m": null, "levels": null, "tract_id": "40069660201", "tract_name": "6602.01", "tags": {"building": "carport"}}}, {"type": "Feature", "geometry": {"type": "Polygon", "coordinates": [[[-96.6424025, 34.2063266], [-96.6424042, 34.2064375], [-96.6427097, 34.2064344], [-96.6427094, 34.2064109], [-96.6427084, 34.2063467], [-96.6427081, 34.2063235], [-96.6424025, 34.2063266]]]}, "properties": {"osm_id": 936130326, "building": "yes", "name": "", "height": null, "height_m": null, "levels": null, "tract_id": "40069660201", "tract_name": "6602.01", "tags": {"building": "yes"}}}, {"type": "Feature", "geometry": {"type": "Polygon", "coordinates": [[[-96.6428016, 34.2064109], [-96.6427094, 34.2064109], [-96.6427084, 34.2063467], [-96.642803, 34.2063477], [-96.6428016, 34.2064109]]]}, "properties": {"osm_id": 936130334, "building": "yes", "name": "", "height": null, "height_m": 3.0, "levels": 1, "tract_id": "40069660201", "tract_name": "6602.01", "tags": {"building": "yes", "building:levels": "1", "layer": "1"}}}, {"type": "Feature", "geometry": {"type": "Polygon", "coordinates": [[[-96.6429266, 34.1957409], [-96.6428757, 34.1957382], [-96.6428792, 34.1956926], [-96.64293, 34.1956953], [-96.6429266, 34.1957409]]]}, "properties": {"osm_id": 936132880, "building": "yes", "name": "", "height": null, "height_m": null, "levels": null, "tract_id": "40069660201", "tract_name": "6602.01", "tags": {"amenity": "toilets", "building": "yes"}}}, {"type": "Feature", "geometry": {"type": "Polygon", "coordinates": [[[-96.6431767, 34.1958558], [-96.6431652, 34.1959923], [-96.6432494, 34.1959972], [-96.6432609, 34.1958607], [-96.6431767, 34.1958558]]]}, "properties": {"osm_id": 936132881, "building": "yes", "name": "", "height": null, "height_m": null, "levels": null, "tract_id": "40069660201", "tract_name": "6602.01", "tags": {"amenity": "shelter", "building": "yes", "shelter_type": "picnic_shelter"}}}, {"type": "Feature", "geometry": {"type": "Polygon", "coordinates": [[[-96.6438972, 34.1938734], [-96.6437419, 34.193876], [-96.6437441, 34.1939671], [-96.6438994, 34.1939645], [-96.6438972, 34.1938734]]]}, "properties": {"osm_id": 936134566, "building": "yes", "name": "", "height": null, "height_m": null, "levels": null, "tract_id": "40069660201", "tract_name": "6602.01", "tags": {"building": "yes"}}}, {"type": "Feature", "geometry": {"type": "Polygon", "coordinates": [[[-96.6430641, 34.1939696], [-96.6429527, 34.1939714], [-96.6429495, 34.1938307], [-96.6430608, 34.1938289], [-96.6430641, 34.1939696]]]}, "properties": {"osm_id": 936134567, "building": "yes", "name": "", "height": null, "height_m": null, "levels": null, "tract_id": "40069660201", "tract_name": "6602.01", "tags": {"building": "yes"}}}, {"type": "Feature", "geometry": {"type": "Polygon", "coordinates": [[[-96.6438618, 34.1920292], [-96.6437672, 34.1920292], [-96.6437672, 34.1919469], [-96.6438618, 34.1919469], [-96.6438618, 34.1920292]]]}, "properties": {"osm_id": 936134568, "building": "yes", "name": "", "height": null, "height_m": null, "levels": null, "tract_id": "40069660201", "tract_name": "6602.01", "tags": {"building": "yes"}}}, {"type": "Feature", "geometry": {"type": "Polygon", "coordinates": [[[-96.6441053, 34.1918331], [-96.6439367, 34.1918363], [-96.6439342, 34.1917464], [-96.6441028, 34.1917432], [-96.6441053, 34.1918331]]]}, "properties": {"osm_id": 936134569, "building": "yes", "name": "", "height": null, "height_m": null, "levels": null, "tract_id": "40069660201", "tract_name": "6602.01", "tags": {"building": "yes"}}}, {"type": "Feature", "geometry": {"type": "Polygon", "coordinates": [[[-96.6444625, 34.1909576], [-96.6442888, 34.1909613], [-96.6442857, 34.190864], [-96.6444594, 34.1908602], [-96.6444625, 34.1909576]]]}, "properties": {"osm_id": 936134570, "building": "yes", "name": "", "height": null, "height_m": null, "levels": null, "tract_id": "40069660201", "tract_name": "6602.01", "tags": {"building": "yes"}}}, {"type": "Feature", "geometry": {"type": "Polygon", "coordinates": [[[-96.6452427, 34.1906704], [-96.6450792, 34.1906692], [-96.6450802, 34.1905784], [-96.6452437, 34.1905797], [-96.6452427, 34.1906704]]]}, "properties": {"osm_id": 936134571, "building": "yes", "name": "", "height": null, "height_m": null, "levels": null, "tract_id": "40069660201", "tract_name": "6602.01", "tags": {"building": "yes"}}}, {"type": "Feature", "geometry": {"type": "Polygon", "coordinates": [[[-96.6454701, 34.1907591], [-96.645373, 34.1907581], [-96.6453743, 34.1906672], [-96.6454714, 34.1906682], [-96.6454701, 34.1907591]]]}, "properties": {"osm_id": 936134572, "building": "yes", "name": "", "height": null, "height_m": null, "levels": null, "tract_id": "40069660201", "tract_name": "6602.01", "tags": {"building": "yes"}}}, {"type": "Feature", "geometry": {"type": "Polygon", "coordinates": [[[-96.6463282, 34.190932], [-96.6459987, 34.1909383], [-96.6459947, 34.1907933], [-96.6463242, 34.1907871], [-96.6463282, 34.190932]]]}, "properties": {"osm_id": 936134573, "building": "yes", "name": "", "height": null, "height_m": null, "levels": null, "tract_id": "40069660201", "tract_name": "6602.01", "tags": {"building": "yes"}}}, {"type": "Feature", "geometry": {"type": "Polygon", "coordinates": [[[-96.6459428, 34.1903635], [-96.6459434, 34.1904534], [-96.6466934, 34.1904497], [-96.6466928, 34.1903598], [-96.6459428, 34.1903635]]]}, "properties": {"osm_id": 936134574, "building": "yes", "name": "", "height": null, "height_m": null, "levels": null, "tract_id": "40069660201", "tract_name": "6602.01", "tags": {"building": "yes"}}}, {"type": "Feature", "geometry": {"type": "Polygon", "coordinates": [[[-96.6449373, 34.1921191], [-96.6448408, 34.1921203], [-96.6448395, 34.1920448], [-96.644936, 34.1920437], [-96.6449373, 34.1921191]]]}, "properties": {"osm_id": 936135382, "building": "yes", "name": "", "height": null, "height_m": null, "levels": null, "tract_id": "40069660201", "tract_name": "6602.01", "tags": {"building": "yes"}}}, {"type": "Feature", "geometry": {"type": "Polygon", "coordinates": [[[-96.6448613, 34.1919254], [-96.6447072, 34.1919247], [-96.6447078, 34.1918381], [-96.6448619, 34.1918388], [-96.6448613, 34.1919254]]]}, "properties": {"osm_id": 936135383, "building": "yes", "name": "", "height": null, "height_m": null, "levels": null, "tract_id": "40069660201", "tract_name": "6602.01", "tags": {"building": "yes"}}}, {"type": "Feature", "geometry": {"type": "Polygon", "coordinates": [[[-96.6789417, 34.2354961], [-96.6790969, 34.2353054], [-96.6791285, 34.2352684], [-96.6790607, 34.235229], [-96.6788666, 34.2354577], [-96.6789417, 34.2354961]]]}, "properties": {"osm_id": 964157041, "building": "yes", "name": "Ole Red Tishomingo", "height": null, "height_m": null, "levels": null, "tract_id": "40069660201", "tract_name": "6602.01", "tags": {"addr:city": "Tishomingo", "addr:housenumber": "214", "addr:postcode": "73460", "addr:state": "OK", "addr:street": "West Main Street", "amenity": "restaurant", "building": "yes", "cuisine": "american", "name": "Ole Red Tishomingo"}}}, {"type": "Feature", "geometry": {"type": "Polygon", "coordinates": [[[-96.6795627, 34.2380474], [-96.679624, 34.2379738], [-96.6795014, 34.237904], [-96.6794504, 34.2379653], [-96.6794644, 34.2379733], [-96.6794388, 34.2380041], [-96.6794682, 34.2380208], [-96.6794835, 34.2380024], [-96.6795627, 34.2380474]]]}, "properties": {"osm_id": 1010150699, "building": "yes", "name": "Chickasaw Council House and Museum", "height": null, "height_m": null, "levels": null, "tract_id": "40069660201", "tract_name": "6602.01", "tags": {"addr:city": "Tishomingo", "addr:housenumber": "209", "addr:postcode": "73460", "addr:state": "OK", "addr:street": "North Fisher Avenue", "building": "yes", "name": "Chickasaw Council House and Museum", "tourism": "museum"}}}, {"type": "Feature", "geometry": {"type": "Polygon", "coordinates": [[[-96.6798736, 34.2383867], [-96.6797096, 34.2382997], [-96.6798322, 34.2381559], [-96.6799854, 34.2382452], [-96.6798736, 34.2383867]]]}, "properties": {"osm_id": 1010155660, "building": "yes", "name": "Chickasaw National Capitol Building", "height": null, "height_m": null, "levels": null, "tract_id": "40069660201", "tract_name": "6602.01", "tags": {"addr:city": "Tishomingo", "addr:housenumber": "411", "addr:postcode": "73460", "addr:state": "OK", "addr:street": "West 9th Street", "building": "yes", "name": "Chickasaw National Capitol Building", "tourism": "museum"}}}, {"type": "Feature", "geometry": {"type": "Polygon", "coordinates": [[[-96.6815636, 34.2369319], [-96.6816521, 34.2369208], [-96.6817419, 34.2368498], [-96.6817446, 34.2368631], [-96.6818546, 34.2368487], [-96.6818452, 34.2368055], [-96.6818895, 34.2367988], [-96.6818868, 34.2367567], [-96.6819579, 34.23675], [-96.6819377, 34.2366502], [-96.6819109, 34.2366525], [-96.6819029, 34.2365859], [-96.68186, 34.2365882], [-96.6818345, 34.2364795], [-96.6816548, 34.2364995], [-96.6816695, 34.2365327], [-96.6816266, 34.2365383], [-96.68164, 34.2365893], [-96.681691, 34.236576], [-96.681703, 34.2366148], [-96.6815971, 34.2366336], [-96.6816092, 34.2366669], [-96.6814858, 34.2366902], [-96.6815005, 34.2367722], [-96.6816253, 34.2367567], [-96.6815569, 34.2368287], [-96.681577, 34.2368398], [-96.6815582, 34.2368498], [-96.6815636, 34.2369319]]]}, "properties": {"osm_id": 1010161200, "building": "yes", "name": "Chickasaw Nation Information Center", "height": null, "height_m": null, "levels": null, "tract_id": "40069660201", "tract_name": "6602.01", "tags": {"addr:city": "Tishomingo", "addr:housenumber": "504", "addr:postcode": "73460", "addr:state": "OK", "addr:street": "West Main Street", "addr:unit": "#101", "building": "yes", "name": "Chickasaw Nation Information Center", "tourism": "information"}}}, {"type": "Feature", "geometry": {"type": "Polygon", "coordinates": [[[-96.6900187, 34.2402535], [-96.6902254, 34.2402875], [-96.6902493, 34.2401885], [-96.6900425, 34.2401544], [-96.6900187, 34.2402535]]]}, "properties": {"osm_id": 1010185744, "building": "yes", "name": "Chickasaw Tobacco Shop", "height": null, "height_m": null, "levels": null, "tract_id": "40069660201", "tract_name": "6602.01", "tags": {"addr:city": "Tishomingo", "addr:housenumber": "1200", "addr:postcode": "73460", "addr:state": "OK", "addr:street": "West Main Street", "building": "yes", "name": "Chickasaw Tobacco Shop", "shop": "tobacco"}}}, {"type": "Feature", "geometry": {"type": "Polygon", "coordinates": [[[-96.6786716, 34.2359484], [-96.6788197, 34.2357604], [-96.6786747, 34.2356808], [-96.6785191, 34.2358615], [-96.6786716, 34.2359484]]]}, "properties": {"osm_id": 1026599797, "building": "yes", "name": "Spa 211", "height": null, "height_m": null, "levels": null, "tract_id": "40069660201", "tract_name": "6602.01", "tags": {"addr:city": "Tishomingo", "addr:housenumber": "211", "addr:postcode": "73460", "addr:state": "OK", "addr:street": "West Main Street", "building": "yes", "name": "Spa 211", "shop": "massage", "website": "https://spa211.com/"}}}, {"type": "Feature", "geometry": {"type": "Polygon", "coordinates": [[[-96.6789268, 34.2358135], [-96.6788197, 34.2357604], [-96.6786716, 34.2359484], [-96.6787799, 34.2360067], [-96.6787782, 34.2359988], [-96.6789268, 34.2358135]]]}, "properties": {"osm_id": 1026642785, "building": "yes", "name": "Mulberry Wine Bar", "height": null, "height_m": null, "levels": null, "tract_id": "40069660201", "tract_name": "6602.01", "tags": {"addr:city": "Tishomingo", "addr:housenumber": "215", "addr:postcode": "73460", "addr:state": "OK", "addr:street": "West Main Street", "amenity": "bar", "building": "yes", "name": "Mulberry Wine Bar"}}}, {"type": "Feature", "geometry": {"type": "Polygon", "coordinates": [[[-96.6810261, 34.2366807], [-96.681287, 34.2363717], [-96.6811969, 34.2363197], [-96.6809359, 34.2366287], [-96.6810261, 34.2366807]]]}, "properties": {"osm_id": 1032942627, "building": "yes", "name": "", "height": null, "height_m": null, "levels": null, "tract_id": "40069660201", "tract_name": "6602.01", "tags": {"building": "yes"}}}, {"type": "Feature", "geometry": {"type": "Polygon", "coordinates": [[[-96.6787736, 34.236387], [-96.678548, 34.2362521], [-96.678474, 34.2363367], [-96.6786437, 34.2364382], [-96.6786802, 34.2364342], [-96.6787144, 34.2364547], [-96.6787736, 34.236387]]]}, "properties": {"osm_id": 1058356150, "building": "yes", "name": "", "height": null, "height_m": null, "levels": null, "tract_id": "40069660201", "tract_name": "6602.01", "tags": {"building": "yes"}}}, {"type": "Feature", "geometry": {"type": "Polygon", "coordinates": [[[-96.6779013, 34.2362267], [-96.6780271, 34.2360721], [-96.677931, 34.2360186], [-96.6778052, 34.2361733], [-96.6779013, 34.2362267]]]}, "properties": {"osm_id": 1058356151, "building": "yes", "name": "", "height": null, "height_m": null, "levels": null, "tract_id": "40069660201", "tract_name": "6602.01", "tags": {"addr:city": "Tishomingo", "addr:housenumber": "105", "addr:postcode": "73460", "addr:state": "OK", "addr:street": "North Neshoba Avenue", "building": "yes", "telecom": "exchange"}}}, {"type": "Feature", "geometry": {"type": "Polygon", "coordinates": [[[-96.6741005, 34.2230017], [-96.6734138, 34.2230028], [-96.6734134, 34.2228354], [-96.6741001, 34.2228343], [-96.6741005, 34.2230017]]]}, "properties": {"osm_id": 1134127231, "building": "yes", "name": "", "height": null, "height_m": null, "levels": null, "tract_id": "40069660201", "tract_name": "6602.01", "tags": {"building": "yes"}}}, {"type": "Feature", "geometry": {"type": "Polygon", "coordinates": [[[-96.6918841, 34.2549171], [-96.691923, 34.2549747], [-96.6918827, 34.2549932], [-96.6918438, 34.2549356], [-96.6918841, 34.2549171]]]}, "properties": {"osm_id": 1134127233, "building": "yes", "name": "", "height": null, "height_m": null, "levels": null, "tract_id": "40069660201", "tract_name": "6602.01", "tags": {"building": "yes"}}}, {"type": "Feature", "geometry": {"type": "Polygon", "coordinates": [[[-96.6920706, 34.2546822], [-96.6920706, 34.2546005], [-96.6921115, 34.2546005], [-96.6921115, 34.2546822], [-96.6920706, 34.2546822]]]}, "properties": {"osm_id": 1134127234, "building": "yes", "name": "", "height": null, "height_m": null, "levels": null, "tract_id": "40069660201", "tract_name": "6602.01", "tags": {"building": "yes"}}}, {"type": "Feature", "geometry": {"type": "Polygon", "coordinates": [[[-96.6727647, 34.2506996], [-96.6725703, 34.2507007], [-96.6725694, 34.2505955], [-96.6727638, 34.2505944], [-96.6727647, 34.2506996]]]}, "properties": {"osm_id": 1134127236, "building": "yes", "name": "", "height": null, "height_m": null, "levels": null, "tract_id": "40069660201", "tract_name": "6602.01", "tags": {"building": "yes"}}}, {"type": "Feature", "geometry": {"type": "Polygon", "coordinates": [[[-96.6718018, 34.2398486], [-96.6718647, 34.239774], [-96.6720243, 34.239866], [-96.6719614, 34.2399406], [-96.6718018, 34.2398486]]]}, "properties": {"osm_id": 1134127237, "building": "yes", "name": "", "height": null, "height_m": null, "levels": null, "tract_id": "40069660201", "tract_name": "6602.01", "tags": {"building": "yes"}}}, {"type": "Feature", "geometry": {"type": "Polygon", "coordinates": [[[-96.6740252, 34.2393476], [-96.6737388, 34.2391876], [-96.6738467, 34.2390555], [-96.6741331, 34.2392154], [-96.6740252, 34.2393476]]]}, "properties": {"osm_id": 1134127238, "building": "yes", "name": "", "height": null, "height_m": null, "levels": null, "tract_id": "40069660201", "tract_name": "6602.01", "tags": {"building": "yes"}}}, {"type": "Feature", "geometry": {"type": "Polygon", "coordinates": [[[-96.6829786, 34.2385071], [-96.6830561, 34.2384179], [-96.683323, 34.2385764], [-96.6832455, 34.2386656], [-96.6829786, 34.2385071]]]}, "properties": {"osm_id": 1134127239, "building": "yes", "name": "", "height": null, "height_m": null, "levels": null, "tract_id": "40069660201", "tract_name": "6602.01", "tags": {"building": "yes"}}}, {"type": "Feature", "geometry": {"type": "Polygon", "coordinates": [[[-96.6829853, 34.2382521], [-96.6828525, 34.2384217], [-96.6827555, 34.2383698], [-96.6828882, 34.2382002], [-96.6829853, 34.2382521]]]}, "properties": {"osm_id": 1134127240, "building": "yes", "name": "", "height": null, "height_m": null, "levels": null, "tract_id": "40069660201", "tract_name": "6602.01", "tags": {"building": "yes"}}}, {"type": "Feature", "geometry": {"type": "Polygon", "coordinates": [[[-96.6808179, 34.2362869], [-96.6809699, 34.2363705], [-96.6808267, 34.2365485], [-96.6806747, 34.2364649], [-96.6808179, 34.2362869]]]}, "properties": {"osm_id": 1134127241, "building": "yes", "name": "DQ Grill & Chill", "height": null, "height_m": null, "levels": null, "tract_id": "40069660201", "tract_name": "6602.01", "tags": {"addr:city": "Tishomingo", "addr:housenumber": "404", "addr:postcode": "73460-1729", "addr:state": "OK", "addr:street": "West Main Street", "alt_name": "Dairy Queen", "amenity": "fast_food", "brand": "DQ Grill & Chill", "brand:wikidata": "Q1141226", "building": "yes", "cuisine": "ice_cream;burger", "name": "DQ Grill & Chill", "phone": "+1 580-371-2366", "takeaway": "yes", "website": "https://www.dairyqueen.com/locations/ok/tishomingo/404-w-main-st/2415"}}}, {"type": "Feature", "geometry": {"type": "Polygon", "coordinates": [[[-96.6818733, 34.237096], [-96.6819407, 34.2370137], [-96.6820611, 34.2370812], [-96.6819938, 34.2371634], [-96.6818733, 34.237096]]]}, "properties": {"osm_id": 1134127242, "building": "yes", "name": "", "height": null, "height_m": null, "levels": null, "tract_id": "40069660201", "tract_name": "6602.01", "tags": {"building": "yes"}}}, {"type": "Feature", "geometry": {"type": "Polygon", "coordinates": [[[-96.6825722, 34.2375154], [-96.6826243, 34.2374539], [-96.6827142, 34.237506], [-96.6826621, 34.2375675], [-96.6825722, 34.2375154]]]}, "properties": {"osm_id": 1134127243, "building": "yes", "name": "", "height": null, "height_m": null, "levels": null, "tract_id": "40069660201", "tract_name": "6602.01", "tags": {"building": "yes"}}}, {"type": "Feature", "geometry": {"type": "Polygon", "coordinates": [[[-96.6831522, 34.2377088], [-96.6830289, 34.2377997], [-96.682982, 34.2377563], [-96.6831054, 34.2376654], [-96.6831522, 34.2377088]]]}, "properties": {"osm_id": 1134127244, "building": "roof", "name": "", "height": null, "height_m": null, "levels": null, "tract_id": "40069660201", "tract_name": "6602.01", "tags": {"building": "roof", "layer": "1"}}}, {"type": "Feature", "geometry": {"type": "Polygon", "coordinates": [[[-96.6779105, 34.2374272], [-96.6775806, 34.2372498], [-96.6776732, 34.2371321], [-96.6780032, 34.2373095], [-96.6779105, 34.2374272]]]}, "properties": {"osm_id": 1134127245, "building": "yes", "name": "", "height": null, "height_m": null, "levels": null, "tract_id": "40069660201", "tract_name": "6602.01", "tags": {"building": "yes"}}}, {"type": "Feature", "geometry": {"type": "Polygon", "coordinates": [[[-96.6795702, 34.2358323], [-96.6797224, 34.2356494], [-96.679855, 34.2357248], [-96.6797027, 34.2359077], [-96.6795702, 34.2358323]]]}, "properties": {"osm_id": 1134127246, "building": "yes", "name": "", "height": null, "height_m": null, "levels": null, "tract_id": "40069660201", "tract_name": "6602.01", "tags": {"building": "yes"}}}, {"type": "Feature", "geometry": {"type": "Polygon", "coordinates": [[[-96.6801559, 34.2355249], [-96.6802838, 34.2353721], [-96.68061, 34.2355587], [-96.6804822, 34.2357115], [-96.6801559, 34.2355249]]]}, "properties": {"osm_id": 1134127247, "building": "yes", "name": "", "height": null, "height_m": null, "levels": null, "tract_id": "40069660201", "tract_name": "6602.01", "tags": {"building": "yes"}}}, {"type": "Feature", "geometry": {"type": "Polygon", "coordinates": [[[-96.6797264, 34.2370795], [-96.6794201, 34.2369894], [-96.6795094, 34.2367819], [-96.6798157, 34.2368721], [-96.6797264, 34.2370795]]]}, "properties": {"osm_id": 1134127248, "building": "yes", "name": "", "height": null, "height_m": null, "levels": null, "tract_id": "40069660201", "tract_name": "6602.01", "tags": {"building": "yes"}}}, {"type": "Feature", "geometry": {"type": "Polygon", "coordinates": [[[-96.6763874, 34.2363755], [-96.6765493, 34.2364691], [-96.6763577, 34.2366956], [-96.6761958, 34.2366021], [-96.6763874, 34.2363755]]]}, "properties": {"osm_id": 1134127249, "building": "yes", "name": "", "height": null, "height_m": null, "levels": null, "tract_id": "40069660201", "tract_name": "6602.01", "tags": {"building": "yes"}}}, {"type": "Feature", "geometry": {"type": "Polygon", "coordinates": [[[-96.6758364, 34.2354982], [-96.6758785, 34.2354417], [-96.6762588, 34.2356353], [-96.6762167, 34.2356919], [-96.6758364, 34.2354982]]]}, "properties": {"osm_id": 1134127250, "building": "yes", "name": "", "height": null, "height_m": null, "levels": null, "tract_id": "40069660201", "tract_name": "6602.01", "tags": {"building": "yes"}}}, {"type": "Feature", "geometry": {"type": "Polygon", "coordinates": [[[-96.6776155, 34.2350313], [-96.6774961, 34.235182], [-96.6773928, 34.2351261], [-96.6775122, 34.2349754], [-96.6776155, 34.2350313]]]}, "properties": {"osm_id": 1134127252, "building": "yes", "name": "", "height": null, "height_m": null, "levels": null, "tract_id": "40069660201", "tract_name": "6602.01", "tags": {"building": "yes"}}}, {"type": "Feature", "geometry": {"type": "Polygon", "coordinates": [[[-96.6772789, 34.2351488], [-96.6771756, 34.2352719], [-96.677041, 34.2351946], [-96.6771442, 34.2350716], [-96.6772789, 34.2351488]]]}, "properties": {"osm_id": 1134127253, "building": "yes", "name": "", "height": null, "height_m": null, "levels": null, "tract_id": "40069660201", "tract_name": "6602.01", "tags": {"building": "yes"}}}, {"type": "Feature", "geometry": {"type": "Polygon", "coordinates": [[[-96.6758051, 34.2350247], [-96.675851, 34.2349691], [-96.6765073, 34.2353391], [-96.6764613, 34.2353947], [-96.6758051, 34.2350247]]]}, "properties": {"osm_id": 1134127254, "building": "yes", "name": "", "height": null, "height_m": null, "levels": null, "tract_id": "40069660201", "tract_name": "6602.01", "tags": {"building": "yes"}}}, {"type": "Feature", "geometry": {"type": "Polygon", "coordinates": [[[-96.6759587, 34.2346499], [-96.675697, 34.2349557], [-96.6756011, 34.2348996], [-96.6758628, 34.2345938], [-96.6759587, 34.2346499]]]}, "properties": {"osm_id": 1134127255, "building": "yes", "name": "", "height": null, "height_m": null, "levels": null, "tract_id": "40069660201", "tract_name": "6602.01", "tags": {"building": "yes"}}}, {"type": "Feature", "geometry": {"type": "Polygon", "coordinates": [[[-96.6757757, 34.2336707], [-96.6758674, 34.2335605], [-96.6760343, 34.2336554], [-96.6759426, 34.2337656], [-96.6757757, 34.2336707]]]}, "properties": {"osm_id": 1134127256, "building": "yes", "name": "", "height": null, "height_m": null, "levels": null, "tract_id": "40069660201", "tract_name": "6602.01", "tags": {"building": "yes"}}}, {"type": "Feature", "geometry": {"type": "Polygon", "coordinates": [[[-96.6756119, 34.2339192], [-96.6754563, 34.2340944], [-96.6753534, 34.2340319], [-96.675509, 34.2338567], [-96.6756119, 34.2339192]]]}, "properties": {"osm_id": 1134127257, "building": "yes", "name": "", "height": null, "height_m": null, "levels": null, "tract_id": "40069660201", "tract_name": "6602.01", "tags": {"building": "yes"}}}, {"type": "Feature", "geometry": {"type": "Polygon", "coordinates": [[[-96.6750352, 34.2338693], [-96.6751205, 34.2337628], [-96.675323, 34.2338736], [-96.6752377, 34.2339802], [-96.6750352, 34.2338693]]]}, "properties": {"osm_id": 1134127258, "building": "yes", "name": "", "height": null, "height_m": null, "levels": null, "tract_id": "40069660201", "tract_name": "6602.01", "tags": {"building": "yes"}}}, {"type": "Feature", "geometry": {"type": "Polygon", "coordinates": [[[-96.6742395, 34.23351], [-96.6741892, 34.233568], [-96.67413, 34.233533], [-96.6741803, 34.233475], [-96.6742395, 34.23351]]]}, "properties": {"osm_id": 1134127259, "building": "yes", "name": "", "height": null, "height_m": null, "levels": null, "tract_id": "40069660201", "tract_name": "6602.01", "tags": {"building": "yes"}}}, {"type": "Feature", "geometry": {"type": "Polygon", "coordinates": [[[-96.6748445, 34.2336441], [-96.674711, 34.2337955], [-96.6743791, 34.2335956], [-96.6745126, 34.2334441], [-96.6748445, 34.2336441]]]}, "properties": {"osm_id": 1134127260, "building": "yes", "name": "", "height": null, "height_m": null, "levels": null, "tract_id": "40069660201", "tract_name": "6602.01", "tags": {"building": "yes"}}}, {"type": "Feature", "geometry": {"type": "Polygon", "coordinates": [[[-96.6917413, 34.2222509], [-96.6918147, 34.2222692], [-96.6916967, 34.222593], [-96.6916233, 34.2225747], [-96.6917413, 34.2222509]]]}, "properties": {"osm_id": 1134127267, "building": "yes", "name": "", "height": null, "height_m": null, "levels": null, "tract_id": "40069660201", "tract_name": "6602.01", "tags": {"building": "yes"}}}, {"type": "Feature", "geometry": {"type": "Polygon", "coordinates": [[[-96.6823067, 34.2234985], [-96.6824003, 34.2234993], [-96.6823976, 34.2237033], [-96.682304, 34.2237025], [-96.6823067, 34.2234985]]]}, "properties": {"osm_id": 1134127268, "building": "yes", "name": "", "height": null, "height_m": null, "levels": null, "tract_id": "40069660201", "tract_name": "6602.01", "tags": {"building": "yes"}}}, {"type": "Feature", "geometry": {"type": "Polygon", "coordinates": [[[-96.676082, 34.219933], [-96.6758525, 34.2199267], [-96.675856, 34.2198405], [-96.6760855, 34.2198468], [-96.676082, 34.219933]]]}, "properties": {"osm_id": 1134127269, "building": "yes", "name": "", "height": null, "height_m": null, "levels": null, "tract_id": "40069660201", "tract_name": "6602.01", "tags": {"building": "yes"}}}, {"type": "Feature", "geometry": {"type": "Polygon", "coordinates": [[[-96.6763709, 34.2180935], [-96.6762047, 34.2180935], [-96.6762047, 34.2180082], [-96.6763709, 34.2180082], [-96.6763709, 34.2180935]]]}, "properties": {"osm_id": 1134127270, "building": "yes", "name": "", "height": null, "height_m": null, "levels": null, "tract_id": "40069660201", "tract_name": "6602.01", "tags": {"building": "yes"}}}, {"type": "Feature", "geometry": {"type": "Polygon", "coordinates": [[[-96.6762422, 34.2173539], [-96.6762435, 34.2170223], [-96.6764221, 34.2170228], [-96.6764207, 34.2173544], [-96.6762422, 34.2173539]]]}, "properties": {"osm_id": 1134127271, "building": "yes", "name": "", "height": null, "height_m": null, "levels": null, "tract_id": "40069660201", "tract_name": "6602.01", "tags": {"building": "yes"}}}, {"type": "Feature", "geometry": {"type": "Polygon", "coordinates": [[[-96.6754898, 34.2168981], [-96.6754895, 34.216776], [-96.6760662, 34.2167748], [-96.6760665, 34.216897], [-96.6754898, 34.2168981]]]}, "properties": {"osm_id": 1134127272, "building": "yes", "name": "", "height": null, "height_m": null, "levels": null, "tract_id": "40069660201", "tract_name": "6602.01", "tags": {"building": "yes"}}}, {"type": "Feature", "geometry": {"type": "Polygon", "coordinates": [[[-96.6776467, 34.2177569], [-96.6776325, 34.2174331], [-96.6777501, 34.2174296], [-96.6777643, 34.2177534], [-96.6776467, 34.2177569]]]}, "properties": {"osm_id": 1134127273, "building": "yes", "name": "", "height": null, "height_m": null, "levels": null, "tract_id": "40069660201", "tract_name": "6602.01", "tags": {"building": "yes"}}}, {"type": "Feature", "geometry": {"type": "Polygon", "coordinates": [[[-96.6775639, 34.2173544], [-96.6775571, 34.2172402], [-96.6778173, 34.2172297], [-96.677824, 34.2173439], [-96.6775639, 34.2173544]]]}, "properties": {"osm_id": 1134127274, "building": "yes", "name": "", "height": null, "height_m": null, "levels": null, "tract_id": "40069660201", "tract_name": "6602.01", "tags": {"building": "yes"}}}, {"type": "Feature", "geometry": {"type": "Polygon", "coordinates": [[[-96.6776209, 34.2171897], [-96.6776034, 34.2168726], [-96.6777242, 34.216868], [-96.6777417, 34.2171852], [-96.6776209, 34.2171897]]]}, "properties": {"osm_id": 1134127275, "building": "yes", "name": "", "height": null, "height_m": null, "levels": null, "tract_id": "40069660201", "tract_name": "6602.01", "tags": {"building": "yes"}}}, {"type": "Feature", "geometry": {"type": "Polygon", "coordinates": [[[-96.6776598, 34.2165277], [-96.6776581, 34.216395], [-96.6779169, 34.2163928], [-96.6779186, 34.2165255], [-96.6776598, 34.2165277]]]}, "properties": {"osm_id": 1134127276, "building": "yes", "name": "", "height": null, "height_m": null, "levels": null, "tract_id": "40069660201", "tract_name": "6602.01", "tags": {"building": "yes"}}}, {"type": "Feature", "geometry": {"type": "Polygon", "coordinates": [[[-96.6788305, 34.2164445], [-96.6784778, 34.2164456], [-96.6784774, 34.2163625], [-96.6788302, 34.2163614], [-96.6788305, 34.2164445]]]}, "properties": {"osm_id": 1134127277, "building": "yes", "name": "", "height": null, "height_m": null, "levels": null, "tract_id": "40069660201", "tract_name": "6602.01", "tags": {"building": "yes"}}}, {"type": "Feature", "geometry": {"type": "Polygon", "coordinates": [[[-96.6793241, 34.2163414], [-96.67932, 34.216114], [-96.679426, 34.2161127], [-96.67943, 34.2163401], [-96.6793241, 34.2163414]]]}, "properties": {"osm_id": 1134127278, "building": "yes", "name": "", "height": null, "height_m": null, "levels": null, "tract_id": "40069660201", "tract_name": "6602.01", "tags": {"building": "yes"}}}, {"type": "Feature", "geometry": {"type": "Polygon", "coordinates": [[[-96.6768065, 34.2147104], [-96.676807, 34.2146369], [-96.6770014, 34.2146377], [-96.6770009, 34.2147112], [-96.6768065, 34.2147104]]]}, "properties": {"osm_id": 1134127279, "building": "yes", "name": "", "height": null, "height_m": null, "levels": null, "tract_id": "40069660201", "tract_name": "6602.01", "tags": {"building": "yes"}}}, {"type": "Feature", "geometry": {"type": "Polygon", "coordinates": [[[-96.6774419, 34.2146955], [-96.6772427, 34.2146971], [-96.6772415, 34.2145876], [-96.6774406, 34.214586], [-96.6774419, 34.2146955]]]}, "properties": {"osm_id": 1134127280, "building": "yes", "name": "", "height": null, "height_m": null, "levels": null, "tract_id": "40069660201", "tract_name": "6602.01", "tags": {"building": "yes"}}}, {"type": "Feature", "geometry": {"type": "Polygon", "coordinates": [[[-96.6764519, 34.2134824], [-96.6763169, 34.2134842], [-96.6763055, 34.2129102], [-96.6764405, 34.2129084], [-96.6764519, 34.2134824]]]}, "properties": {"osm_id": 1134127281, "building": "yes", "name": "", "height": null, "height_m": null, "levels": null, "tract_id": "40069660201", "tract_name": "6602.01", "tags": {"building": "yes"}}}, {"type": "Feature", "geometry": {"type": "Polygon", "coordinates": [[[-96.6765695, 34.2129131], [-96.6767146, 34.2129121], [-96.6767203, 34.213483], [-96.6765751, 34.213484], [-96.6765695, 34.2129131]]]}, "properties": {"osm_id": 1134127282, "building": "yes", "name": "", "height": null, "height_m": null, "levels": null, "tract_id": "40069660201", "tract_name": "6602.01", "tags": {"building": "yes"}}}, {"type": "Feature", "geometry": {"type": "Polygon", "coordinates": [[[-96.6670921, 34.2142885], [-96.6671831, 34.2137663], [-96.6673002, 34.2137802], [-96.6672092, 34.2143025], [-96.6670921, 34.2142885]]]}, "properties": {"osm_id": 1134127283, "building": "yes", "name": "", "height": null, "height_m": null, "levels": null, "tract_id": "40069660201", "tract_name": "6602.01", "tags": {"building": "yes"}}}, {"type": "Feature", "geometry": {"type": "Polygon", "coordinates": [[[-96.6676165, 34.2135969], [-96.6676051, 34.2137365], [-96.6674984, 34.2137305], [-96.6675098, 34.2135909], [-96.6676165, 34.2135969]]]}, "properties": {"osm_id": 1134127284, "building": "yes", "name": "", "height": null, "height_m": null, "levels": null, "tract_id": "40069660201", "tract_name": "6602.01", "tags": {"building": "yes"}}}, {"type": "Feature", "geometry": {"type": "Polygon", "coordinates": [[[-96.6667545, 34.2135153], [-96.6667821, 34.2132314], [-96.6671121, 34.2132534], [-96.6670845, 34.2135373], [-96.6667545, 34.2135153]]]}, "properties": {"osm_id": 1134127285, "building": "yes", "name": "", "height": null, "height_m": null, "levels": null, "tract_id": "40069660201", "tract_name": "6602.01", "tags": {"building": "yes"}}}, {"type": "Feature", "geometry": {"type": "Polygon", "coordinates": [[[-96.6674563, 34.2132361], [-96.667424, 34.2135843], [-96.6672667, 34.2135744], [-96.6672989, 34.2132262], [-96.6674563, 34.2132361]]]}, "properties": {"osm_id": 1134127286, "building": "yes", "name": "", "height": null, "height_m": null, "levels": null, "tract_id": "40069660201", "tract_name": "6602.01", "tags": {"building": "yes"}}}, {"type": "Feature", "geometry": {"type": "Polygon", "coordinates": [[[-96.6690874, 34.2192286], [-96.669072, 34.2191232], [-96.6691753, 34.2191129], [-96.6691907, 34.2192182], [-96.6690874, 34.2192286]]]}, "properties": {"osm_id": 1134127290, "building": "yes", "name": "", "height": null, "height_m": null, "levels": null, "tract_id": "40069660201", "tract_name": "6602.01", "tags": {"building": "yes"}}}, {"type": "Feature", "geometry": {"type": "Polygon", "coordinates": [[[-96.6690475, 34.2192594], [-96.6691753, 34.2192476], [-96.6691971, 34.21941], [-96.6690693, 34.2194217], [-96.6690475, 34.2192594]]]}, "properties": {"osm_id": 1134127291, "building": "yes", "name": "", "height": null, "height_m": null, "levels": null, "tract_id": "40069660201", "tract_name": "6602.01", "tags": {"building": "yes"}}}, {"type": "Feature", "geometry": {"type": "Polygon", "coordinates": [[[-96.6703287, 34.2198726], [-96.6701049, 34.2198592], [-96.6701149, 34.2197439], [-96.6703387, 34.2197573], [-96.6703287, 34.2198726]]]}, "properties": {"osm_id": 1134127292, "building": "yes", "name": "", "height": null, "height_m": null, "levels": null, "tract_id": "40069660201", "tract_name": "6602.01", "tags": {"building": "yes"}}}, {"type": "Feature", "geometry": {"type": "Polygon", "coordinates": [[[-96.6704889, 34.2191504], [-96.6706093, 34.2191491], [-96.6706131, 34.2194001], [-96.6704927, 34.2194013], [-96.6704889, 34.2191504]]]}, "properties": {"osm_id": 1134127293, "building": "yes", "name": "", "height": null, "height_m": null, "levels": null, "tract_id": "40069660201", "tract_name": "6602.01", "tags": {"building": "yes"}}}, {"type": "Feature", "geometry": {"type": "Polygon", "coordinates": [[[-96.6721788, 34.2225308], [-96.6721769, 34.222401], [-96.672413, 34.2223986], [-96.6724149, 34.2225284], [-96.6721788, 34.2225308]]]}, "properties": {"osm_id": 1134127295, "building": "yes", "name": "", "height": null, "height_m": null, "levels": null, "tract_id": "40069660201", "tract_name": "6602.01", "tags": {"building": "yes"}}}, {"type": "Feature", "geometry": {"type": "Polygon", "coordinates": [[[-96.6740803, 34.2225609], [-96.6741682, 34.2225609], [-96.6741682, 34.2226562], [-96.6740803, 34.2226562], [-96.6740803, 34.2225609]]]}, "properties": {"osm_id": 1134127296, "building": "yes", "name": "", "height": null, "height_m": null, "levels": null, "tract_id": "40069660201", "tract_name": "6602.01", "tags": {"building": "yes"}}}, {"type": "Feature", "geometry": {"type": "Polygon", "coordinates": [[[-96.6644968, 34.2262706], [-96.6645018, 34.2263568], [-96.664432, 34.2263595], [-96.664427, 34.2262734], [-96.6644968, 34.2262706]]]}, "properties": {"osm_id": 1134127297, "building": "yes", "name": "", "height": null, "height_m": null, "levels": null, "tract_id": "40069660201", "tract_name": "6602.01", "tags": {"building": "yes"}}}, {"type": "Feature", "geometry": {"type": "Polygon", "coordinates": [[[-96.6635398, 34.2273968], [-96.6636839, 34.2273944], [-96.6636877, 34.2275473], [-96.6635435, 34.2275497], [-96.6635398, 34.2273968]]]}, "properties": {"osm_id": 1134127299, "building": "yes", "name": "", "height": null, "height_m": null, "levels": null, "tract_id": "40069660201", "tract_name": "6602.01", "tags": {"building": "yes"}}}, {"type": "Feature", "geometry": {"type": "Polygon", "coordinates": [[[-96.6640019, 34.2276268], [-96.6641476, 34.2276231], [-96.6641529, 34.2277706], [-96.6640073, 34.2277742], [-96.6640019, 34.2276268]]]}, "properties": {"osm_id": 1134127300, "building": "yes", "name": "", "height": null, "height_m": null, "levels": null, "tract_id": "40069660201", "tract_name": "6602.01", "tags": {"building": "yes"}}}, {"type": "Feature", "geometry": {"type": "Polygon", "coordinates": [[[-96.6635399, 34.2275957], [-96.6636826, 34.227594], [-96.6636853, 34.2277465], [-96.6635426, 34.2277482], [-96.6635399, 34.2275957]]]}, "properties": {"osm_id": 1134127301, "building": "yes", "name": "", "height": null, "height_m": null, "levels": null, "tract_id": "40069660201", "tract_name": "6602.01", "tags": {"building": "yes"}}}, {"type": "Feature", "geometry": {"type": "Polygon", "coordinates": [[[-96.6635399, 34.227787], [-96.6636783, 34.2277862], [-96.6636797, 34.2279409], [-96.6635413, 34.2279417], [-96.6635399, 34.227787]]]}, "properties": {"osm_id": 1134127302, "building": "yes", "name": "", "height": null, "height_m": null, "levels": null, "tract_id": "40069660201", "tract_name": "6602.01", "tags": {"building": "yes"}}}, {"type": "Feature", "geometry": {"type": "Polygon", "coordinates": [[[-96.6640086, 34.2278208], [-96.6641521, 34.227819], [-96.6641547, 34.2279682], [-96.6640113, 34.2279699], [-96.6640086, 34.2278208]]]}, "properties": {"osm_id": 1134127303, "building": "yes", "name": "", "height": null, "height_m": null, "levels": null, "tract_id": "40069660201", "tract_name": "6602.01", "tags": {"building": "yes"}}}, {"type": "Feature", "geometry": {"type": "Polygon", "coordinates": [[[-96.6640073, 34.2281701], [-96.6640093, 34.2280165], [-96.6641544, 34.2280178], [-96.6641524, 34.2281714], [-96.6640073, 34.2281701]]]}, "properties": {"osm_id": 1134127304, "building": "yes", "name": "", "height": null, "height_m": null, "levels": null, "tract_id": "40069660201", "tract_name": "6602.01", "tags": {"building": "yes"}}}, {"type": "Feature", "geometry": {"type": "Polygon", "coordinates": [[[-96.6642235, 34.2285667], [-96.664067, 34.2285635], [-96.6640711, 34.2284231], [-96.6642276, 34.2284262], [-96.6642235, 34.2285667]]]}, "properties": {"osm_id": 1134127305, "building": "yes", "name": "", "height": null, "height_m": null, "levels": null, "tract_id": "40069660201", "tract_name": "6602.01", "tags": {"building": "yes"}}}, {"type": "Feature", "geometry": {"type": "Polygon", "coordinates": [[[-96.6628162, 34.228945], [-96.6628162, 34.2289814], [-96.6627797, 34.2289814], [-96.6627797, 34.228945], [-96.6628162, 34.228945]]]}, "properties": {"osm_id": 1134127306, "building": "yes", "name": "", "height": null, "height_m": null, "levels": null, "tract_id": "40069660201", "tract_name": "6602.01", "tags": {"building": "yes"}}}, {"type": "Feature", "geometry": {"type": "Polygon", "coordinates": [[[-96.6607028, 34.2296293], [-96.6608615, 34.2296302], [-96.6608602, 34.2297987], [-96.6607015, 34.2297978], [-96.6607028, 34.2296293]]]}, "properties": {"osm_id": 1134127307, "building": "yes", "name": "", "height": null, "height_m": null, "levels": null, "tract_id": "40069660201", "tract_name": "6602.01", "tags": {"building": "yes"}}}, {"type": "Feature", "geometry": {"type": "Polygon", "coordinates": [[[-96.6603675, 34.2300601], [-96.660393, 34.2302757], [-96.660268, 34.2302858], [-96.6602425, 34.2300702], [-96.6603675, 34.2300601]]]}, "properties": {"osm_id": 1134127308, "building": "yes", "name": "", "height": null, "height_m": null, "levels": null, "tract_id": "40069660201", "tract_name": "6602.01", "tags": {"building": "yes"}}}, {"type": "Feature", "geometry": {"type": "Polygon", "coordinates": [[[-96.660613, 34.2303439], [-96.6604359, 34.2303395], [-96.6604386, 34.2302671], [-96.6606156, 34.2302716], [-96.660613, 34.2303439]]]}, "properties": {"osm_id": 1134127309, "building": "roof", "name": "", "height": null, "height_m": null, "levels": null, "tract_id": "40069660201", "tract_name": "6602.01", "tags": {"building": "roof", "layer": "1"}}}, {"type": "Feature", "geometry": {"type": "Polygon", "coordinates": [[[-96.6588487, 34.2297369], [-96.6587576, 34.2297202], [-96.6587716, 34.2296675], [-96.6588628, 34.2296841], [-96.6588487, 34.2297369]]]}, "properties": {"osm_id": 1134127310, "building": "yes", "name": "", "height": null, "height_m": null, "levels": null, "tract_id": "40069660201", "tract_name": "6602.01", "tags": {"building": "yes"}}}, {"type": "Feature", "geometry": {"type": "Polygon", "coordinates": [[[-96.6633197, 34.2349071], [-96.6633264, 34.2350169], [-96.6632073, 34.2350218], [-96.6632007, 34.234912], [-96.6633197, 34.2349071]]]}, "properties": {"osm_id": 1134127314, "building": "yes", "name": "", "height": null, "height_m": null, "levels": null, "tract_id": "40069660201", "tract_name": "6602.01", "tags": {"building": "yes"}}}, {"type": "Feature", "geometry": {"type": "Polygon", "coordinates": [[[-96.6647429, 34.2362259], [-96.6647424, 34.2361315], [-96.6649094, 34.236131], [-96.6649099, 34.2362254], [-96.6647429, 34.2362259]]]}, "properties": {"osm_id": 1134127315, "building": "yes", "name": "", "height": null, "height_m": null, "levels": null, "tract_id": "40069660201", "tract_name": "6602.01", "tags": {"building": "yes"}}}, {"type": "Feature", "geometry": {"type": "Polygon", "coordinates": [[[-96.6653169, 34.2358675], [-96.6653121, 34.2360094], [-96.6651727, 34.2360062], [-96.6651775, 34.2358643], [-96.6653169, 34.2358675]]]}, "properties": {"osm_id": 1134127316, "building": "yes", "name": "", "height": null, "height_m": null, "levels": null, "tract_id": "40069660201", "tract_name": "6602.01", "tags": {"building": "yes"}}}, {"type": "Feature", "geometry": {"type": "Polygon", "coordinates": [[[-96.6631035, 34.2375699], [-96.6629693, 34.2375785], [-96.6629609, 34.2374887], [-96.6630951, 34.2374801], [-96.6631035, 34.2375699]]]}, "properties": {"osm_id": 1134127317, "building": "yes", "name": "", "height": null, "height_m": null, "levels": null, "tract_id": "40069660201", "tract_name": "6602.01", "tags": {"building": "yes"}}}, {"type": "Feature", "geometry": {"type": "Polygon", "coordinates": [[[-96.666998, 34.2298666], [-96.666998, 34.2302225], [-96.6667633, 34.2302225], [-96.6667633, 34.2298666], [-96.666998, 34.2298666]]]}, "properties": {"osm_id": 1134127335, "building": "yes", "name": "", "height": null, "height_m": null, "levels": null, "tract_id": "40069660201", "tract_name": "6602.01", "tags": {"building": "yes"}}}, {"type": "Feature", "geometry": {"type": "Polygon", "coordinates": [[[-96.6673514, 34.2302707], [-96.6673514, 34.2303362], [-96.6673004, 34.2303362], [-96.6673004, 34.2302707], [-96.6673514, 34.2302707]]]}, "properties": {"osm_id": 1134127336, "building": "yes", "name": "", "height": null, "height_m": null, "levels": null, "tract_id": "40069660201", "tract_name": "6602.01", "tags": {"building": "yes"}}}, {"type": "Feature", "geometry": {"type": "Polygon", "coordinates": [[[-96.6676317, 34.2302892], [-96.6674411, 34.2302892], [-96.6674411, 34.230174], [-96.6676317, 34.230174], [-96.6676317, 34.2302892]]]}, "properties": {"osm_id": 1134127337, "building": "yes", "name": "", "height": null, "height_m": null, "levels": null, "tract_id": "40069660201", "tract_name": "6602.01", "tags": {"building": "yes"}}}, {"type": "Feature", "geometry": {"type": "Polygon", "coordinates": [[[-96.6679617, 34.2304547], [-96.6678082, 34.2304541], [-96.6678101, 34.2301216], [-96.6679636, 34.2301222], [-96.6679617, 34.2304547]]]}, "properties": {"osm_id": 1134127338, "building": "yes", "name": "", "height": null, "height_m": null, "levels": null, "tract_id": "40069660201", "tract_name": "6602.01", "tags": {"building": "yes"}}}, {"type": "Feature", "geometry": {"type": "Polygon", "coordinates": [[[-96.6689972, 34.2304492], [-96.6689998, 34.2303834], [-96.669179, 34.2303881], [-96.6691765, 34.2304539], [-96.6689972, 34.2304492]]]}, "properties": {"osm_id": 1134127339, "building": "roof", "name": "", "height": null, "height_m": null, "levels": null, "tract_id": "40069660201", "tract_name": "6602.01", "tags": {"building": "roof", "layer": "1"}}}, {"type": "Feature", "geometry": {"type": "Polygon", "coordinates": [[[-96.6692725, 34.2298688], [-96.6694918, 34.2298705], [-96.6694878, 34.2302187], [-96.6692685, 34.230217], [-96.6692725, 34.2298688]]]}, "properties": {"osm_id": 1134127340, "building": "yes", "name": "", "height": null, "height_m": null, "levels": null, "tract_id": "40069660201", "tract_name": "6602.01", "tags": {"building": "yes"}}}, {"type": "Feature", "geometry": {"type": "Polygon", "coordinates": [[[-96.6701229, 34.2304868], [-96.6698517, 34.2304868], [-96.6698517, 34.2303551], [-96.6701229, 34.2303551], [-96.6701229, 34.2304868]]]}, "properties": {"osm_id": 1134127341, "building": "yes", "name": "", "height": null, "height_m": null, "levels": null, "tract_id": "40069660201", "tract_name": "6602.01", "tags": {"building": "yes"}}}, {"type": "Feature", "geometry": {"type": "Polygon", "coordinates": [[[-96.6706482, 34.2303755], [-96.6703334, 34.2303755], [-96.6703334, 34.2301355], [-96.6706482, 34.2301355], [-96.6706482, 34.2303755]]]}, "properties": {"osm_id": 1134127342, "building": "yes", "name": "", "height": null, "height_m": null, "levels": null, "tract_id": "40069660201", "tract_name": "6602.01", "tags": {"building": "yes"}}}, {"type": "Feature", "geometry": {"type": "Polygon", "coordinates": [[[-96.6649555, 34.2285926], [-96.6648334, 34.2285926], [-96.6648334, 34.228495], [-96.6649555, 34.228495], [-96.6649555, 34.2285926]]]}, "properties": {"osm_id": 1134127343, "building": "yes", "name": "", "height": null, "height_m": null, "levels": null, "tract_id": "40069660201", "tract_name": "6602.01", "tags": {"building": "yes"}}}, {"type": "Feature", "geometry": {"type": "Polygon", "coordinates": [[[-96.6637297, 34.2297934], [-96.663731, 34.2300817], [-96.6634549, 34.2300826], [-96.6634535, 34.2297943], [-96.6637297, 34.2297934]]]}, "properties": {"osm_id": 1134127344, "building": "yes", "name": "", "height": null, "height_m": null, "levels": null, "tract_id": "40069660201", "tract_name": "6602.01", "tags": {"building": "yes"}}}, {"type": "Feature", "geometry": {"type": "Polygon", "coordinates": [[[-96.6642519, 34.2297866], [-96.6638536, 34.2297906], [-96.663853, 34.2297491], [-96.6642513, 34.2297452], [-96.6642519, 34.2297866]]]}, "properties": {"osm_id": 1134127345, "building": "yes", "name": "", "height": null, "height_m": null, "levels": null, "tract_id": "40069660201", "tract_name": "6602.01", "tags": {"building": "yes"}}}, {"type": "Feature", "geometry": {"type": "Polygon", "coordinates": [[[-96.6640319, 34.2301747], [-96.66403, 34.2298784], [-96.6641097, 34.229878], [-96.6641116, 34.2301744], [-96.6640319, 34.2301747]]]}, "properties": {"osm_id": 1134127346, "building": "yes", "name": "", "height": null, "height_m": null, "levels": null, "tract_id": "40069660201", "tract_name": "6602.01", "tags": {"building": "yes"}}}, {"type": "Feature", "geometry": {"type": "Polygon", "coordinates": [[[-96.6638973, 34.229876], [-96.6639655, 34.229876], [-96.6639655, 34.2301763], [-96.6638973, 34.2301763], [-96.6638973, 34.229876]]]}, "properties": {"osm_id": 1134127347, "building": "yes", "name": "", "height": null, "height_m": null, "levels": null, "tract_id": "40069660201", "tract_name": "6602.01", "tags": {"building": "yes"}}}, {"type": "Feature", "geometry": {"type": "Polygon", "coordinates": [[[-96.6658755, 34.2302092], [-96.6656475, 34.2302059], [-96.6656495, 34.2301102], [-96.6658775, 34.2301135], [-96.6658755, 34.2302092]]]}, "properties": {"osm_id": 1134127348, "building": "yes", "name": "", "height": null, "height_m": null, "levels": null, "tract_id": "40069660201", "tract_name": "6602.01", "tags": {"building": "yes"}}}, {"type": "Feature", "geometry": {"type": "Polygon", "coordinates": [[[-96.6658441, 34.2303629], [-96.6658461, 34.2304166], [-96.665719, 34.2304197], [-96.6657171, 34.2303661], [-96.6658441, 34.2303629]]]}, "properties": {"osm_id": 1134127349, "building": "roof", "name": "", "height": null, "height_m": null, "levels": null, "tract_id": "40069660201", "tract_name": "6602.01", "tags": {"building": "roof", "layer": "1"}}}, {"type": "Feature", "geometry": {"type": "Polygon", "coordinates": [[[-96.6665079, 34.229905], [-96.6666635, 34.229905], [-96.6666635, 34.2302814], [-96.6665079, 34.2302814], [-96.6665079, 34.229905]]]}, "properties": {"osm_id": 1134127350, "building": "yes", "name": "", "height": null, "height_m": null, "levels": null, "tract_id": "40069660201", "tract_name": "6602.01", "tags": {"building": "yes"}}}, {"type": "Feature", "geometry": {"type": "Polygon", "coordinates": [[[-96.6666406, 34.2310225], [-96.6664488, 34.2310203], [-96.6664496, 34.2309742], [-96.6666413, 34.2309764], [-96.6666406, 34.2310225]]]}, "properties": {"osm_id": 1134127351, "building": "yes", "name": "", "height": null, "height_m": null, "levels": null, "tract_id": "40069660201", "tract_name": "6602.01", "tags": {"building": "yes"}}}, {"type": "Feature", "geometry": {"type": "Polygon", "coordinates": [[[-96.6666607, 34.2308889], [-96.666428, 34.2308878], [-96.6664284, 34.2308346], [-96.6666611, 34.2308357], [-96.6666607, 34.2308889]]]}, "properties": {"osm_id": 1134127352, "building": "yes", "name": "", "height": null, "height_m": null, "levels": null, "tract_id": "40069660201", "tract_name": "6602.01", "tags": {"building": "yes"}}}, {"type": "Feature", "geometry": {"type": "Polygon", "coordinates": [[[-96.6662254, 34.230871], [-96.6662254, 34.2309917], [-96.6661201, 34.2309917], [-96.6661201, 34.230871], [-96.6662254, 34.230871]]]}, "properties": {"osm_id": 1134127353, "building": "yes", "name": "", "height": null, "height_m": null, "levels": null, "tract_id": "40069660201", "tract_name": "6602.01", "tags": {"building": "yes"}}}, {"type": "Feature", "geometry": {"type": "Polygon", "coordinates": [[[-96.6655321, 34.2308745], [-96.6658439, 34.2308718], [-96.6658479, 34.2311967], [-96.6655362, 34.2311994], [-96.6655321, 34.2308745]]]}, "properties": {"osm_id": 1134127354, "building": "yes", "name": "", "height": null, "height_m": null, "levels": null, "tract_id": "40069660201", "tract_name": "6602.01", "tags": {"building": "yes"}}}, {"type": "Feature", "geometry": {"type": "Polygon", "coordinates": [[[-96.6653276, 34.2316395], [-96.6652398, 34.2316368], [-96.6652427, 34.2315744], [-96.6653305, 34.2315772], [-96.6653276, 34.2316395]]]}, "properties": {"osm_id": 1134127355, "building": "yes", "name": "", "height": null, "height_m": null, "levels": null, "tract_id": "40069660201", "tract_name": "6602.01", "tags": {"building": "yes"}}}, {"type": "Feature", "geometry": {"type": "Polygon", "coordinates": [[[-96.6656072, 34.2317538], [-96.6656113, 34.2318452], [-96.6655197, 34.231848], [-96.6655157, 34.2317565], [-96.6656072, 34.2317538]]]}, "properties": {"osm_id": 1134127356, "building": "yes", "name": "", "height": null, "height_m": null, "levels": null, "tract_id": "40069660201", "tract_name": "6602.01", "tags": {"building": "yes"}}}, {"type": "Feature", "geometry": {"type": "Polygon", "coordinates": [[[-96.6651917, 34.2319255], [-96.6652773, 34.2319239], [-96.6652792, 34.2319945], [-96.6651936, 34.2319961], [-96.6651917, 34.2319255]]]}, "properties": {"osm_id": 1134127357, "building": "yes", "name": "", "height": null, "height_m": null, "levels": null, "tract_id": "40069660201", "tract_name": "6602.01", "tags": {"building": "yes"}}}, {"type": "Feature", "geometry": {"type": "Polygon", "coordinates": [[[-96.6626897, 34.234432], [-96.6627149, 34.2342913], [-96.6629865, 34.2343246], [-96.6629612, 34.2344652], [-96.6626897, 34.234432]]]}, "properties": {"osm_id": 1134127358, "building": "yes", "name": "", "height": null, "height_m": null, "levels": null, "tract_id": "40069660201", "tract_name": "6602.01", "tags": {"building": "yes"}}}, {"type": "Feature", "geometry": {"type": "Polygon", "coordinates": [[[-96.6649514, 34.2348954], [-96.6648743, 34.234896], [-96.6648739, 34.2348533], [-96.664951, 34.2348528], [-96.6649514, 34.2348954]]]}, "properties": {"osm_id": 1134127359, "building": "yes", "name": "", "height": null, "height_m": null, "levels": null, "tract_id": "40069660201", "tract_name": "6602.01", "tags": {"building": "yes"}}}, {"type": "Feature", "geometry": {"type": "Polygon", "coordinates": [[[-96.6650567, 34.2349764], [-96.6649058, 34.2349753], [-96.6649063, 34.2349308], [-96.6650572, 34.2349319], [-96.6650567, 34.2349764]]]}, "properties": {"osm_id": 1134127360, "building": "yes", "name": "", "height": null, "height_m": null, "levels": null, "tract_id": "40069660201", "tract_name": "6602.01", "tags": {"building": "yes"}}}, {"type": "Feature", "geometry": {"type": "Polygon", "coordinates": [[[-96.6603743, 34.2315985], [-96.6597694, 34.2315996], [-96.6597685, 34.2312693], [-96.6598847, 34.2312691], [-96.6598846, 34.2312286], [-96.6601488, 34.2312281], [-96.6601489, 34.2312686], [-96.6602865, 34.2312684], [-96.6602872, 34.2315277], [-96.6603741, 34.2315276], [-96.6603743, 34.2315985]]]}, "properties": {"osm_id": 1272380338, "building": "retail", "name": "Dollar General Market", "height": null, "height_m": 3.0, "levels": 1, "tract_id": "40069660201", "tract_name": "6602.01", "tags": {"addr:city": "Tishomingo", "addr:country": "US", "addr:state": "OK", "brand": "Dollar General", "brand:wikidata": "Q145168", "building": "retail", "building:levels": "1", "check_date": "2025-04-01", "check_date:opening_hours": "2025-04-01", "name": "Dollar General Market", "opening_hours": "Mo-Su 07:00-23:00", "roof:colour": "white", "roof:levels": "0", "roof:shape": "flat", "shop": "supermarket"}}}, {"type": "Feature", "geometry": {"type": "Polygon", "coordinates": [[[-96.6786747, 34.2356808], [-96.6783459, 34.2354665], [-96.6781866, 34.2356509], [-96.6783123, 34.2357284], [-96.6782786, 34.2357708], [-96.6781459, 34.2357035], [-96.678084, 34.235784], [-96.6782733, 34.2358967], [-96.678376, 34.235803], [-96.6785034, 34.2358791], [-96.6785191, 34.2358615], [-96.6786747, 34.2356808]]]}, "properties": {"osm_id": 1364396201, "building": "yes", "name": "", "height": null, "height_m": null, "levels": null, "tract_id": "40069660201", "tract_name": "6602.01", "tags": {"building": "yes"}}}, {"type": "Feature", "geometry": {"type": "Polygon", "coordinates": [[[-96.6789268, 34.2358135], [-96.6791541, 34.235938], [-96.6789094, 34.2362432], [-96.6787807, 34.2361727], [-96.6788522, 34.2360835], [-96.6789032, 34.2361114], [-96.6789278, 34.2360808], [-96.6787782, 34.2359988], [-96.6789268, 34.2358135]]]}, "properties": {"osm_id": 1364396202, "building": "yes", "name": "", "height": null, "height_m": null, "levels": null, "tract_id": "40069660201", "tract_name": "6602.01", "tags": {"building": "yes"}}}, {"type": "Feature", "geometry": {"type": "Polygon", "coordinates": [[[-96.6793538, 34.2360974], [-96.6795345, 34.2362018], [-96.6795614, 34.2361699], [-96.6798444, 34.2363334], [-96.6796932, 34.2365123], [-96.679638, 34.2364803], [-96.6796639, 34.2364497], [-96.6795735, 34.2363974], [-96.6795408, 34.236436], [-96.67948, 34.2364008], [-96.6795435, 34.2363259], [-96.679459, 34.236277], [-96.6794537, 34.2362975], [-96.679273, 34.2361932], [-96.6793538, 34.2360974]]]}, "properties": {"osm_id": 1364396203, "building": "yes", "name": "", "height": null, "height_m": null, "levels": null, "tract_id": "40069660201", "tract_name": "6602.01", "tags": {"building": "yes"}}}, {"type": "Feature", "geometry": {"type": "Polygon", "coordinates": [[[-96.6802683, 34.2362559], [-96.6798013, 34.2359891], [-96.6799691, 34.2357884], [-96.6800584, 34.2358394], [-96.6799973, 34.2359124], [-96.680068, 34.2359528], [-96.6801103, 34.2359021], [-96.6803111, 34.2360168], [-96.6803871, 34.2359257], [-96.6804422, 34.2359571], [-96.6802856, 34.2361445], [-96.680337, 34.2361738], [-96.6802683, 34.2362559]]]}, "properties": {"osm_id": 1364396204, "building": "yes", "name": "", "height": null, "height_m": null, "levels": null, "tract_id": "40069660201", "tract_name": "6602.01", "tags": {"building": "yes"}}}, {"type": "Feature", "geometry": {"type": "Polygon", "coordinates": [[[-96.6788666, 34.2354577], [-96.6785239, 34.235259], [-96.678718, 34.2350302], [-96.6790607, 34.235229], [-96.6788666, 34.2354577]]]}, "properties": {"osm_id": 1364396205, "building": "yes", "name": "", "height": null, "height_m": null, "levels": null, "tract_id": "40069660201", "tract_name": "6602.01", "tags": {"building": "yes"}}}, {"type": "Feature", "geometry": {"type": "Polygon", "coordinates": [[[-96.6796076, 34.2354085], [-96.6793667, 34.2356979], [-96.6793444, 34.2357046], [-96.6792134, 34.2356335], [-96.6793822, 34.235424], [-96.6794368, 34.2354549], [-96.6794815, 34.2354012], [-96.679426, 34.2353696], [-96.6794624, 34.2353259], [-96.6796076, 34.2354085]]]}, "properties": {"osm_id": 1364396206, "building": "yes", "name": "", "height": null, "height_m": null, "levels": null, "tract_id": "40069660201", "tract_name": "6602.01", "tags": {"building": "yes"}}}, {"type": "Feature", "geometry": {"type": "Polygon", "coordinates": [[[-96.6792956, 34.2352781], [-96.6790632, 34.2355637], [-96.6789417, 34.2354961], [-96.6790969, 34.2353054], [-96.6791153, 34.2353157], [-96.6791925, 34.2352208], [-96.6792956, 34.2352781]]]}, "properties": {"osm_id": 1364396207, "building": "yes", "name": "", "height": null, "height_m": null, "levels": null, "tract_id": "40069660201", "tract_name": "6602.01", "tags": {"building": "yes"}}}, {"type": "Feature", "geometry": {"type": "Polygon", "coordinates": [[[-96.6820269, 34.2377736], [-96.6824035, 34.2379887], [-96.682298, 34.2381148], [-96.6819215, 34.2378997], [-96.6820269, 34.2377736]]]}, "properties": {"osm_id": 1364396208, "building": "yes", "name": "", "height": null, "height_m": null, "levels": null, "tract_id": "40069660201", "tract_name": "6602.01", "tags": {"building": "yes"}}}]}