{"type": "FeatureCollection", "features": [{"type": "Feature", "geometry": {"type": "Polygon", "coordinates": [[[-95.3718598, 35.9413049], [-95.3737846, 35.9413035], [-95.3737852, 35.9418535], [-95.3741343, 35.9418533], [-95.3741355, 35.9428321], [-95.374025, 35.9429099], [-95.3739146, 35.94291], [-95.3739151, 35.9434064], [-95.373787, 35.9434065], [-95.373787, 35.9434596], [-95.3737168, 35.9434597], [-95.373717, 35.9436379], [-95.3735065, 35.943638], [-95.3735066, 35.9437043], [-95.37338, 35.9437044], [-95.3733799, 35.9436381], [-95.3730325, 35.9436384], [-95.3730323, 35.9434602], [-95.3722059, 35.9434608], [-95.3722055, 35.9431194], [-95.3718619, 35.9431196], [-95.3718598, 35.9413049]]]}, "properties": {"osm_id": 390260428, "building": "industrial", "name": "Unarco Industries", "height": null, "height_m": null, "levels": null, "tract_id": "40145030102", "tract_name": "301.02", "tags": {"addr:city": "Wagoner", "addr:country": "US", "addr:housenumber": "400", "addr:postcode": "74467", "addr:state": "OK", "addr:street": "Southwest 15th Street", "building": "industrial", "name": "Unarco Industries"}}}, {"type": "Feature", "geometry": {"type": "Polygon", "coordinates": [[[-95.397255, 35.9563337], [-95.3981592, 35.9563427], [-95.3981572, 35.9564809], [-95.3982793, 35.9564802], [-95.398269, 35.9570095], [-95.3979041, 35.9570074], [-95.3979038, 35.9570757], [-95.3977042, 35.9570754], [-95.3976888, 35.9570581], [-95.3973824, 35.9570543], [-95.3973629, 35.9570689], [-95.3971886, 35.9570677], [-95.3971889, 35.9569961], [-95.3969163, 35.9569931], [-95.3969197, 35.9568177], [-95.3968022, 35.9568185], [-95.3968029, 35.9566608], [-95.3969215, 35.9566612], [-95.396926, 35.9562489], [-95.3972513, 35.9562498], [-95.397255, 35.9563337]]]}, "properties": {"osm_id": 402806866, "building": "yes", "name": "Walmart Supercenter", "height": null, "height_m": null, "levels": null, "tract_id": "40145030102", "tract_name": "301.02", "tags": {"addr:city": "Wagoner", "addr:country": "US", "addr:housenumber": "410", "addr:postcode": "74467", "addr:state": "OK", "addr:street": "South Dewey Avenue", "brand": "Walmart", "brand:wikidata": "Q483551", "building": "yes", "name": "Walmart Supercenter", "opening_hours": "24/7", "operator": "Walmart", "payment:app:walmart": "yes", "payment:apple_pay": "no", "payment:google_pay": "no", "payment:samsung_pay": "no", "phone": "+1 918-485-9515", "ref": "63", "ref:walmart": "63", "sensory_friendly:accommodation": "dimmed_light;static_screens;no_pa", "sensory_friendly:conditional": "yes @ 08:00-10:00", "shop": "supermarket", "website": "https://www.walmart.com/store/63-wagoner-ok"}}}, {"type": "Feature", "geometry": {"type": "Polygon", "coordinates": [[[-95.3959034, 35.9565269], [-95.3959, 35.9568249], [-95.3957454, 35.9568237], [-95.3957457, 35.9567952], [-95.3957196, 35.956795], [-95.3957225, 35.9565404], [-95.3957625, 35.9565407], [-95.3957626, 35.9565258], [-95.3959034, 35.9565269]]]}, "properties": {"osm_id": 402806870, "building": "yes", "name": "McDonald's", "height": null, "height_m": null, "levels": null, "tract_id": "40145030102", "tract_name": "301.02", "tags": {"amenity": "fast_food", "brand": "McDonald's", "brand:wikidata": "Q38076", "building": "yes", "cuisine": "burger", "name": "McDonald's", "takeaway": "yes", "website": "https://www.mcdonalds.com/us/en-us/location/ok/wagoner/420-s-dewey/11024.html"}}}, {"type": "Feature", "geometry": {"type": "Polygon", "coordinates": [[[-95.3943127, 35.9587288], [-95.3942893, 35.9590314], [-95.3942359, 35.9590715], [-95.3939082, 35.9590549], [-95.3939349, 35.9587097], [-95.3943127, 35.9587288]]]}, "properties": {"osm_id": 402810595, "building": "yes", "name": "Walgreens", "height": null, "height_m": null, "levels": null, "tract_id": "40145030102", "tract_name": "301.02", "tags": {"brand": "Walgreens", "brand:wikidata": "Q1591889", "building": "yes", "name": "Walgreens", "shop": "chemist", "website": "https://www.walgreens.com/locator/walgreens-1305+w+cherokee+st-wagoner-ok-74467/id=11559"}}}, {"type": "Feature", "geometry": {"type": "Polygon", "coordinates": [[[-95.3946753, 35.9579755], [-95.3946679, 35.9581125], [-95.3946504, 35.9581119], [-95.3946472, 35.9581713], [-95.394509, 35.9581664], [-95.3945126, 35.9580995], [-95.3943388, 35.9580934], [-95.394347, 35.9579413], [-95.3944689, 35.9579457], [-95.3944705, 35.9579155], [-95.3945214, 35.9579173], [-95.3945185, 35.95797], [-95.3946753, 35.9579755]]]}, "properties": {"osm_id": 402810963, "building": "yes", "name": "Pizza Hut", "height": null, "height_m": null, "levels": null, "tract_id": "40145030102", "tract_name": "301.02", "tags": {"amenity": "restaurant", "building": "yes", "cuisine": "pizza", "name": "Pizza Hut"}}}, {"type": "Feature", "geometry": {"type": "Polygon", "coordinates": [[[-95.3946684, 35.9572731], [-95.3943304, 35.9572556], [-95.394343, 35.9570948], [-95.394554, 35.9571057], [-95.3945505, 35.9571501], [-95.3946775, 35.9571567], [-95.3946684, 35.9572731]]]}, "properties": {"osm_id": 402810964, "building": "commercial", "name": "Braum's", "height": null, "height_m": null, "levels": null, "tract_id": "40145030102", "tract_name": "301.02", "tags": {"addr:city": "Wagoner", "addr:housenumber": "407", "addr:postcode": "74467", "addr:state": "OK", "addr:street": "South Dewey Avenue", "amenity": "fast_food", "brand": "Braum's", "brand:wikidata": "Q4958263", "building": "commercial", "cuisine": "ice_cream", "name": "Braum's", "shop": "dairy", "takeaway": "yes"}}}, {"type": "Feature", "geometry": {"type": "Polygon", "coordinates": [[[-95.3948654, 35.9558551], [-95.3945739, 35.9558531], [-95.394575, 35.9557464], [-95.3947324, 35.9557474], [-95.394732, 35.9557875], [-95.3948661, 35.9557884], [-95.3948654, 35.9558551]]]}, "properties": {"osm_id": 909720745, "building": "yes", "name": "Burger King", "height": null, "height_m": null, "levels": null, "tract_id": "40145030102", "tract_name": "301.02", "tags": {"addr:city": "Wagoner", "addr:housenumber": "501", "addr:postcode": "74467-5933", "addr:state": "OK", "addr:street": "South Dewey Avenue", "amenity": "fast_food", "brand": "Burger King", "brand:wikidata": "Q177054", "building": "yes", "cuisine": "burger", "delivery": "yes", "drive_through": "yes", "internet_access": "wlan", "name": "Burger King", "opening_hours": "07:00-22:00", "phone": "+1 918-485-9932", "ref": "20724", "takeaway": "yes", "website": "https://www.bk.com/store-locator/store/restaurant_21427"}}}, {"type": "Feature", "geometry": {"type": "Polygon", "coordinates": [[[-95.3844409, 35.9548019], [-95.3840776, 35.9547054], [-95.3841113, 35.9546225], [-95.3844746, 35.9547191], [-95.3844409, 35.9548019]]]}, "properties": {"osm_id": 960103635, "building": "apartments", "name": "", "height": null, "height_m": null, "levels": null, "tract_id": "40145030102", "tract_name": "301.02", "tags": {"building": "apartments"}}}, {"type": "Feature", "geometry": {"type": "Polygon", "coordinates": [[[-95.383818, 35.9547778], [-95.3840715, 35.9545546], [-95.3839876, 35.9544922], [-95.3837341, 35.9547154], [-95.383818, 35.9547778]]]}, "properties": {"osm_id": 960103636, "building": "apartments", "name": "", "height": null, "height_m": null, "levels": null, "tract_id": "40145030102", "tract_name": "301.02", "tags": {"building": "apartments"}}}, {"type": "Feature", "geometry": {"type": "Polygon", "coordinates": [[[-95.3834126, 35.9546316], [-95.3834378, 35.9543234], [-95.3833115, 35.9543167], [-95.3832863, 35.9546248], [-95.3834126, 35.9546316]]]}, "properties": {"osm_id": 960103637, "building": "apartments", "name": "", "height": null, "height_m": null, "levels": null, "tract_id": "40145030102", "tract_name": "301.02", "tags": {"building": "apartments"}}}, {"type": "Feature", "geometry": {"type": "Polygon", "coordinates": [[[-95.3840236, 35.9543865], [-95.3838885, 35.9544074], [-95.3838562, 35.9542709], [-95.3839913, 35.95425], [-95.3840236, 35.9543865]]]}, "properties": {"osm_id": 960103638, "building": "apartments", "name": "", "height": null, "height_m": null, "levels": null, "tract_id": "40145030102", "tract_name": "301.02", "tags": {"building": "apartments"}}}, {"type": "Feature", "geometry": {"type": "Polygon", "coordinates": [[[-95.3842448, 35.9543491], [-95.38413, 35.9543682], [-95.3840764, 35.9541565], [-95.3841913, 35.9541374], [-95.3842448, 35.9543491]]]}, "properties": {"osm_id": 960103639, "building": "apartments", "name": "", "height": null, "height_m": null, "levels": null, "tract_id": "40145030102", "tract_name": "301.02", "tags": {"building": "apartments"}}}, {"type": "Feature", "geometry": {"type": "Polygon", "coordinates": [[[-95.3833923, 35.9542559], [-95.3834627, 35.9540981], [-95.3833639, 35.9540692], [-95.3832935, 35.954227], [-95.3833923, 35.9542559]]]}, "properties": {"osm_id": 960103640, "building": "apartments", "name": "", "height": null, "height_m": null, "levels": null, "tract_id": "40145030102", "tract_name": "301.02", "tags": {"building": "apartments"}}}, {"type": "Feature", "geometry": {"type": "Polygon", "coordinates": [[[-95.3848253, 35.9544714], [-95.384848, 35.9543337], [-95.3846674, 35.9543142], [-95.3846446, 35.9544518], [-95.3848253, 35.9544714]]]}, "properties": {"osm_id": 960103641, "building": "apartments", "name": "", "height": null, "height_m": null, "levels": null, "tract_id": "40145030102", "tract_name": "301.02", "tags": {"building": "apartments"}}}, {"type": "Feature", "geometry": {"type": "Polygon", "coordinates": [[[-95.3848531, 35.9542806], [-95.3848622, 35.9541395], [-95.3846735, 35.9541315], [-95.3846644, 35.9542726], [-95.3848531, 35.9542806]]]}, "properties": {"osm_id": 960103642, "building": "apartments", "name": "", "height": null, "height_m": null, "levels": null, "tract_id": "40145030102", "tract_name": "301.02", "tags": {"building": "apartments"}}}, {"type": "Feature", "geometry": {"type": "Polygon", "coordinates": [[[-95.3848255, 35.9548006], [-95.3848431, 35.9545476], [-95.3845615, 35.9545347], [-95.3845439, 35.9547878], [-95.3848255, 35.9548006]]]}, "properties": {"osm_id": 960103643, "building": "yes", "name": "", "height": null, "height_m": null, "levels": null, "tract_id": "40145030102", "tract_name": "301.02", "tags": {"amenity": "place_of_worship", "building": "yes", "religion": "christian"}}}, {"type": "Feature", "geometry": {"type": "Polygon", "coordinates": [[[-95.3936465, 35.9582117], [-95.3925768, 35.9581574], [-95.3926118, 35.9576973], [-95.3932443, 35.9577327], [-95.3932385, 35.957846], [-95.3936669, 35.9578695], [-95.3936465, 35.9582117]]]}, "properties": {"osm_id": 960109168, "building": "yes", "name": "", "height": null, "height_m": null, "levels": null, "tract_id": "40145030102", "tract_name": "301.02", "tags": {"building": "yes", "shop": "country_store"}}}, {"type": "Feature", "geometry": {"type": "Polygon", "coordinates": [[[-95.3754731, 35.9589152], [-95.3753358, 35.9589136], [-95.3753348, 35.9585772], [-95.3754768, 35.9585794], [-95.3754731, 35.9589152]]]}, "properties": {"osm_id": 960109170, "building": "yes", "name": "Wagoner City Offices", "height": null, "height_m": null, "levels": null, "tract_id": "40145030102", "tract_name": "301.02", "tags": {"addr:city": "Wagoner", "addr:housenumber": "231", "addr:postcode": "74467", "addr:state": "OK", "addr:street": "East Church Street", "amenity": "townhall", "building": "yes", "name": "Wagoner City Offices", "townhall:type": "city"}}}, {"type": "Feature", "geometry": {"type": "Polygon", "coordinates": [[[-95.3752356, 35.9587359], [-95.3750238, 35.958736], [-95.3750237, 35.9585354], [-95.375238, 35.9585353], [-95.375238, 35.9585558], [-95.375303, 35.9585558], [-95.3753031, 35.9587], [-95.3752355, 35.9587], [-95.3752356, 35.9587359]]]}, "properties": {"osm_id": 960109171, "building": "yes", "name": "United States Post Office", "height": null, "height_m": null, "levels": null, "tract_id": "40145030102", "tract_name": "301.02", "tags": {"addr:city": "Wagoner", "addr:postcode": "74467", "addr:state": "OK", "amenity": "post_office", "brand": "United States Post Office", "brand:wikidata": "Q668687", "building": "yes", "name": "United States Post Office", "operator": "United States Postal Service", "operator:short": "USPS", "operator:type": "public", "operator:website": "https://www.usps.com", "operator:wikidata": "Q668687", "operator:wikipedia": "en:United States Postal Service"}}}, {"type": "Feature", "geometry": {"type": "Polygon", "coordinates": [[[-95.3747963, 35.9589031], [-95.374805, 35.9587962], [-95.3747572, 35.9587937], [-95.3747598, 35.9587617], [-95.3747351, 35.9587604], [-95.3747368, 35.9587403], [-95.3747727, 35.9587423], [-95.3747821, 35.9586297], [-95.3747535, 35.9586281], [-95.3747678, 35.9584584], [-95.3746473, 35.9584517], [-95.3746485, 35.9584369], [-95.374499, 35.9584287], [-95.3744902, 35.9585333], [-95.3745128, 35.9585346], [-95.3745109, 35.9585572], [-95.374526, 35.958558], [-95.3745182, 35.9586523], [-95.3744956, 35.9586511], [-95.3744834, 35.9588002], [-95.3744456, 35.9587982], [-95.3744386, 35.958884], [-95.3747963, 35.9589031]]]}, "properties": {"osm_id": 960109172, "building": "yes", "name": "", "height": null, "height_m": null, "levels": null, "tract_id": "40145030102", "tract_name": "301.02", "tags": {"amenity": "bank", "building": "yes"}}}, {"type": "Feature", "geometry": {"type": "Polygon", "coordinates": [[[-95.3878824, 35.9452259], [-95.3877763, 35.9452248], [-95.3877774, 35.9451555], [-95.3876449, 35.9451541], [-95.3876438, 35.9452231], [-95.3874482, 35.945221], [-95.3874465, 35.9453282], [-95.3876171, 35.9453301], [-95.3876142, 35.9455025], [-95.3877911, 35.9455044], [-95.3877941, 35.9453269], [-95.3878807, 35.9453279], [-95.3878824, 35.9452259]]]}, "properties": {"osm_id": 960109174, "building": "yes", "name": "Holy Cross", "height": null, "height_m": null, "levels": null, "tract_id": "40145030102", "tract_name": "301.02", "tags": {"amenity": "place_of_worship", "building": "yes", "denomination": "roman_catholic", "fixme": "add Sunday Mass times", "name": "Holy Cross", "religion": "christian", "service_times": "Sa 17:00; Su"}}}, {"type": "Feature", "geometry": {"type": "Polygon", "coordinates": [[[-95.3989917, 35.9442425], [-95.3989019, 35.9442425], [-95.3989019, 35.9441892], [-95.3989917, 35.9441892], [-95.3989917, 35.9442425]]]}, "properties": {"osm_id": 1036680644, "building": "service", "name": "", "height": null, "height_m": null, "levels": null, "tract_id": "40145030102", "tract_name": "301.02", "tags": {"building": "service"}}}, {"type": "Feature", "geometry": {"type": "Polygon", "coordinates": [[[-95.3711296, 35.9426461], [-95.3711311, 35.9425997], [-95.3710612, 35.9425997], [-95.3710612, 35.9426443], [-95.3711296, 35.9426461]]]}, "properties": {"osm_id": 1074363884, "building": "service", "name": "", "height": null, "height_m": null, "levels": null, "tract_id": "40145030102", "tract_name": "301.02", "tags": {"building": "service"}}}, {"type": "Feature", "geometry": {"type": "Polygon", "coordinates": [[[-95.3775767, 35.9590696], [-95.3771623, 35.9590534], [-95.3771685, 35.9589748], [-95.377586, 35.9589935], [-95.3775767, 35.9590696]]]}, "properties": {"osm_id": 1196226207, "building": "yes", "name": "", "height": null, "height_m": null, "levels": null, "tract_id": "40145030102", "tract_name": "301.02", "tags": {"building": "yes"}}}, {"type": "Feature", "geometry": {"type": "Polygon", "coordinates": [[[-95.3831196, 35.9446091], [-95.383123, 35.9445154], [-95.3832319, 35.944518], [-95.3832237, 35.9447473], [-95.3831645, 35.9447459], [-95.3831626, 35.9447978], [-95.3831159, 35.9447967], [-95.383115, 35.9448206], [-95.3830793, 35.9448198], [-95.3830802, 35.9447959], [-95.3830822, 35.9447399], [-95.3830513, 35.9447392], [-95.383056, 35.9446076], [-95.3831196, 35.9446091]]]}, "properties": {"osm_id": 1201566785, "building": "commercial", "name": "Chief Liquor", "height": null, "height_m": null, "levels": null, "tract_id": "40145030102", "tract_name": "301.02", "tags": {"building": "commercial", "name": "Chief Liquor", "shop": "alcohol"}}}, {"type": "Feature", "geometry": {"type": "Polygon", "coordinates": [[[-95.3821079, 35.9446371], [-95.3821081, 35.9445823], [-95.3821082, 35.9445269], [-95.382351, 35.9445275], [-95.3823506, 35.9446377], [-95.3821079, 35.9446371]]]}, "properties": {"osm_id": 1201566786, "building": "industrial", "name": "Marine Worx", "height": null, "height_m": null, "levels": null, "tract_id": "40145030102", "tract_name": "301.02", "tags": {"addr:postcode": "74467", "addr:street": "Southwest 15th Street", "building": "industrial", "name": "Marine Worx", "phone": "+1 918 396 3108", "shop": "boat_repair"}}}, {"type": "Feature", "geometry": {"type": "Polygon", "coordinates": [[[-95.3811725, 35.9452562], [-95.3811677, 35.9453236], [-95.3811255, 35.9453217], [-95.3811303, 35.9452542], [-95.3809243, 35.9452446], [-95.380944, 35.9449685], [-95.3814237, 35.9449908], [-95.3814259, 35.944959], [-95.3815703, 35.9449658], [-95.381568, 35.9449976], [-95.3816192, 35.9449999], [-95.3815996, 35.9452761], [-95.3812724, 35.9452608], [-95.38127, 35.9452951], [-95.3812341, 35.9452934], [-95.3812366, 35.9452591], [-95.3811725, 35.9452562]]]}, "properties": {"osm_id": 1201566792, "building": "industrial", "name": "", "height": null, "height_m": null, "levels": null, "tract_id": "40145030102", "tract_name": "301.02", "tags": {"addr:housenumber": "402", "addr:postcode": "74467", "addr:street": "Southwest 15th Street", "building": "industrial"}}}, {"type": "Feature", "geometry": {"type": "Polygon", "coordinates": [[[-95.3945196, 35.9440625], [-95.39452, 35.9438953], [-95.3946501, 35.9438954], [-95.3946498, 35.9440626], [-95.3945196, 35.9440625]]]}, "properties": {"osm_id": 1201566793, "building": "retail", "name": "", "height": null, "height_m": null, "levels": null, "tract_id": "40145030102", "tract_name": "301.02", "tags": {"building": "retail", "note": "previously a dispensary; but looked very vacant on 2024-02-10.", "old_name": "420 Wally", "shop": "vacant"}}}, {"type": "Feature", "geometry": {"type": "Polygon", "coordinates": [[[-95.386673, 35.9440172], [-95.3864718, 35.9440172], [-95.3864718, 35.9438782], [-95.386673, 35.9438782], [-95.386673, 35.9440172]]]}, "properties": {"osm_id": 1201566794, "building": "industrial", "name": "Prestige Plumbing", "height": null, "height_m": null, "levels": null, "tract_id": "40145030102", "tract_name": "301.02", "tags": {"building": "industrial", "craft": "plumber", "name": "Prestige Plumbing", "phone": "+1 918 734 5277"}}}, {"type": "Feature", "geometry": {"type": "Polygon", "coordinates": [[[-95.3873818, 35.944047], [-95.3872597, 35.944047], [-95.3872597, 35.9439135], [-95.3873818, 35.9439135], [-95.3873818, 35.944047]]]}, "properties": {"osm_id": 1201566795, "building": "industrial", "name": "", "height": null, "height_m": null, "levels": null, "tract_id": "40145030102", "tract_name": "301.02", "tags": {"addr:postcode": "74467", "addr:street": "Southwest 15th Street", "building": "industrial"}}}, {"type": "Feature", "geometry": {"type": "Polygon", "coordinates": [[[-95.3873643, 35.9436105], [-95.3871059, 35.9436133], [-95.3871019, 35.943369], [-95.3873603, 35.9433663], [-95.3873643, 35.9436105]]]}, "properties": {"osm_id": 1201566796, "building": "industrial", "name": "", "height": null, "height_m": null, "levels": null, "tract_id": "40145030102", "tract_name": "301.02", "tags": {"building": "industrial"}}}, {"type": "Feature", "geometry": {"type": "Polygon", "coordinates": [[[-95.3870237, 35.9436171], [-95.3866791, 35.9436181], [-95.3866777, 35.9433293], [-95.3870223, 35.9433282], [-95.3870237, 35.9436171]]]}, "properties": {"osm_id": 1201566797, "building": "industrial", "name": "", "height": null, "height_m": null, "levels": null, "tract_id": "40145030102", "tract_name": "301.02", "tags": {"addr:postcode": "74467", "addr:street": "Southwest 15th Street", "building": "industrial"}}}, {"type": "Feature", "geometry": {"type": "Polygon", "coordinates": [[[-95.3818725, 35.9436941], [-95.3820791, 35.9436942], [-95.382079, 35.9439395], [-95.3818725, 35.9439395], [-95.3818725, 35.9436941]]]}, "properties": {"osm_id": 1201675355, "building": "industrial", "name": "", "height": null, "height_m": null, "levels": null, "tract_id": "40145030102", "tract_name": "301.02", "tags": {"addr:postcode": "74467", "addr:street": "Southwest 15th Street", "building": "industrial"}}}, {"type": "Feature", "geometry": {"type": "Polygon", "coordinates": [[[-95.3982139, 35.9584058], [-95.3980369, 35.958405], [-95.3980382, 35.9582009], [-95.3982152, 35.9582017], [-95.3982139, 35.9584058]]]}, "properties": {"osm_id": 1215688171, "building": "retail", "name": "MedWise", "height": null, "height_m": null, "levels": null, "tract_id": "40145030102", "tract_name": "301.02", "tags": {"amenity": "clinic", "building": "retail", "name": "MedWise", "urgent_care": "yes"}}}, {"type": "Feature", "geometry": {"type": "Polygon", "coordinates": [[[-95.3994148, 35.9578456], [-95.3991319, 35.9578467], [-95.3991316, 35.9577979], [-95.3990998, 35.957798], [-95.3990993, 35.9577132], [-95.3990864, 35.9577132], [-95.399086, 35.9576488], [-95.3991936, 35.9576484], [-95.3991934, 35.957621], [-95.3993805, 35.9576203], [-95.3993813, 35.9577632], [-95.3994143, 35.9577631], [-95.3994148, 35.9578456]]]}, "properties": {"osm_id": 1215688184, "building": "retail", "name": "", "height": null, "height_m": null, "levels": null, "tract_id": "40145030102", "tract_name": "301.02", "tags": {"addr:city": "Wagoner", "addr:country": "US", "addr:state": "OK", "building": "retail", "shop": "yes"}}}, {"type": "Feature", "geometry": {"type": "Polygon", "coordinates": [[[-95.3993672, 35.9574364], [-95.3990883, 35.9574355], [-95.3990896, 35.9571565], [-95.3993686, 35.9571574], [-95.3993672, 35.9574364]]]}, "properties": {"osm_id": 1215688185, "building": "retail", "name": "", "height": null, "height_m": null, "levels": null, "tract_id": "40145030102", "tract_name": "301.02", "tags": {"addr:city": "Wagoner", "addr:country": "US", "addr:state": "OK", "building": "retail", "shop": "yes"}}}, {"type": "Feature", "geometry": {"type": "Polygon", "coordinates": [[[-95.3991298, 35.95837], [-95.3990614, 35.95837], [-95.3990614, 35.9583949], [-95.3989273, 35.9583949], [-95.3989273, 35.95837], [-95.3988871, 35.95837], [-95.3988871, 35.9582951], [-95.3988777, 35.9582951], [-95.3988777, 35.9582234], [-95.3989273, 35.9582234], [-95.3989273, 35.9581333], [-95.3989273, 35.9580432], [-95.3990641, 35.9580432], [-95.3990641, 35.9581334], [-95.3990641, 35.9582234], [-95.3991419, 35.9582234], [-95.3991419, 35.9582951], [-95.3991298, 35.9582951], [-95.3991298, 35.95837]]]}, "properties": {"osm_id": 1215688193, "building": "retail", "name": "Arvest Bank", "height": null, "height_m": null, "levels": null, "tract_id": "40145030102", "tract_name": "301.02", "tags": {"addr:city": "Wagoner", "addr:country": "US", "addr:state": "OK", "amenity": "bank", "brand": "Arvest Bank", "brand:wikidata": "Q4802393", "building": "retail", "name": "Arvest Bank"}}}, {"type": "Feature", "geometry": {"type": "Polygon", "coordinates": [[[-95.374268, 35.9451727], [-95.3729518, 35.9451647], [-95.3729469, 35.9466054], [-95.3730997, 35.9466094], [-95.37308, 35.9464957], [-95.3740388, 35.9464857], [-95.3740437, 35.9465994], [-95.3742089, 35.9466054], [-95.3742656, 35.9452924], [-95.374268, 35.9451727]]]}, "properties": {"osm_id": 1216922825, "building": "industrial", "name": "", "height": null, "height_m": null, "levels": null, "tract_id": "40145030102", "tract_name": "301.02", "tags": {"addr:postcode": "74467", "addr:street": "Southwest 15th Street", "building": "industrial"}}}, {"type": "Feature", "geometry": {"type": "Polygon", "coordinates": [[[-95.3729831, 35.9484412], [-95.3728414, 35.9484377], [-95.3728286, 35.9486079], [-95.372968, 35.9486114], [-95.3729831, 35.9484412]]]}, "properties": {"osm_id": 1216922826, "building": "yes", "name": "", "height": null, "height_m": null, "levels": null, "tract_id": "40145030102", "tract_name": "301.02", "tags": {"building": "yes"}}}, {"type": "Feature", "geometry": {"type": "Polygon", "coordinates": [[[-95.3738886, 35.9486044], [-95.3735324, 35.9485853], [-95.373468, 35.9494087], [-95.3738092, 35.9494226], [-95.3738886, 35.9486044]]]}, "properties": {"osm_id": 1216922827, "building": "yes", "name": "", "height": null, "height_m": null, "levels": null, "tract_id": "40145030102", "tract_name": "301.02", "tags": {"building": "yes"}}}, {"type": "Feature", "geometry": {"type": "Polygon", "coordinates": [[[-95.3746423, 35.9486167], [-95.3745068, 35.9486138], [-95.3745018, 35.9487716], [-95.3746373, 35.9487745], [-95.3746423, 35.9486167]]]}, "properties": {"osm_id": 1216922828, "building": "yes", "name": "", "height": null, "height_m": null, "levels": null, "tract_id": "40145030102", "tract_name": "301.02", "tags": {"building": "yes"}}}, {"type": "Feature", "geometry": {"type": "Polygon", "coordinates": [[[-95.3716541, 35.9421431], [-95.3716516, 35.9423816], [-95.3717909, 35.9423826], [-95.3717872, 35.9421441], [-95.3716541, 35.9421431]]]}, "properties": {"osm_id": 1216922829, "building": "yes", "name": "", "height": null, "height_m": null, "levels": null, "tract_id": "40145030102", "tract_name": "301.02", "tags": {"building": "yes"}}}, {"type": "Feature", "geometry": {"type": "Polygon", "coordinates": [[[-95.3716609, 35.9434516], [-95.371511, 35.9434535], [-95.3715086, 35.9433305], [-95.3715407, 35.9433374], [-95.3715368, 35.9431308], [-95.3716547, 35.9431293], [-95.3716609, 35.9434516]]]}, "properties": {"osm_id": 1216922830, "building": "yes", "name": "", "height": null, "height_m": null, "levels": null, "tract_id": "40145030102", "tract_name": "301.02", "tags": {"building": "yes"}}}, {"type": "Feature", "geometry": {"type": "Polygon", "coordinates": [[[-95.3737064, 35.9469417], [-95.3735618, 35.9469411], [-95.373561, 35.9470557], [-95.3737056, 35.9470563], [-95.3737064, 35.9469417]]]}, "properties": {"osm_id": 1216922831, "building": "yes", "name": "", "height": null, "height_m": null, "levels": null, "tract_id": "40145030102", "tract_name": "301.02", "tags": {"building": "yes"}}}, {"type": "Feature", "geometry": {"type": "Polygon", "coordinates": [[[-95.3742798, 35.9468935], [-95.3739798, 35.9468965], [-95.373982, 35.9470399], [-95.3741178, 35.9470385], [-95.3741174, 35.9470118], [-95.3742816, 35.9470102], [-95.3742798, 35.9468935]]]}, "properties": {"osm_id": 1216922832, "building": "yes", "name": "", "height": null, "height_m": null, "levels": null, "tract_id": "40145030102", "tract_name": "301.02", "tags": {"building": "yes"}}}, {"type": "Feature", "geometry": {"type": "Polygon", "coordinates": [[[-95.368346, 35.9532811], [-95.3683367, 35.953393], [-95.3682535, 35.9533899], [-95.3682349, 35.9536236], [-95.3683189, 35.9536274], [-95.3683077, 35.9537597], [-95.3686225, 35.9537755], [-95.3686374, 35.953557], [-95.3687327, 35.9535616], [-95.3686953, 35.9540432], [-95.3689391, 35.9540553], [-95.3689783, 35.9535759], [-95.3690306, 35.9535782], [-95.3690157, 35.9536773], [-95.369153, 35.9536893], [-95.3691577, 35.9537211], [-95.3691175, 35.9537203], [-95.3690941, 35.9538897], [-95.3693389, 35.9539041], [-95.3693538, 35.9537725], [-95.3694257, 35.9537793], [-95.3694098, 35.9539116], [-95.3696312, 35.953926], [-95.3696443, 35.9538519], [-95.3702859, 35.9538889], [-95.3703018, 35.9537098], [-95.3704344, 35.9537158], [-95.3704587, 35.9534474], [-95.3702785, 35.9534346], [-95.3702831, 35.9533627], [-95.36952, 35.9533219], [-95.3695079, 35.9534913], [-95.3701832, 35.9535298], [-95.3701729, 35.9536084], [-95.3694808, 35.9535722], [-95.3694677, 35.9536727], [-95.3696555, 35.953681], [-95.3696461, 35.9537483], [-95.3693183, 35.9537332], [-95.3693174, 35.9536931], [-95.3693968, 35.9537007], [-95.369421, 35.9533922], [-95.3691362, 35.9533748], [-95.3691352, 35.9534043], [-95.3690241, 35.953396], [-95.3690297, 35.9533136], [-95.3687187, 35.9532962], [-95.3687, 35.9534852], [-95.3686412, 35.9534814], [-95.3686589, 35.9532947], [-95.368346, 35.9532811]]]}, "properties": {"osm_id": 1216922834, "building": "school", "name": "", "height": null, "height_m": null, "levels": null, "tract_id": "40145030102", "tract_name": "301.02", "tags": {"building": "school"}}}, {"type": "Feature", "geometry": {"type": "Polygon", "coordinates": [[[-95.3979953, 35.9448689], [-95.3973931, 35.94487], [-95.3973924, 35.9445964], [-95.3979945, 35.9445953], [-95.3979953, 35.9448689]]]}, "properties": {"osm_id": 1235965356, "building": "industrial", "name": "", "height": null, "height_m": null, "levels": null, "tract_id": "40145030102", "tract_name": "301.02", "tags": {"building": "industrial", "phone": "+1 918 485 2164", "shop": "hardware"}}}, {"type": "Feature", "geometry": {"type": "Polygon", "coordinates": [[[-95.3971678, 35.946288], [-95.3969654, 35.9462872], [-95.3969667, 35.9460419], [-95.3971691, 35.9460426], [-95.3971678, 35.946288]]]}, "properties": {"osm_id": 1235965357, "building": "industrial", "name": "", "height": null, "height_m": null, "levels": null, "tract_id": "40145030102", "tract_name": "301.02", "tags": {"building": "industrial"}}}, {"type": "Feature", "geometry": {"type": "Polygon", "coordinates": [[[-95.3962344, 35.9460757], [-95.3965836, 35.9460762], [-95.3965831, 35.9462793], [-95.3959031, 35.9462782], [-95.3959036, 35.9460751], [-95.3959916, 35.9460753], [-95.3959917, 35.9460448], [-95.3960424, 35.9460448], [-95.3960426, 35.9459622], [-95.3962347, 35.9459626], [-95.3962344, 35.9460757]]]}, "properties": {"osm_id": 1235965358, "building": "commercial", "name": "Kevin Grover Buick GMC", "height": null, "height_m": null, "levels": null, "tract_id": "40145030102", "tract_name": "301.02", "tags": {"building": "commercial", "name": "Kevin Grover Buick GMC", "shop": "car"}}}, {"type": "Feature", "geometry": {"type": "Polygon", "coordinates": [[[-95.3957725, 35.9474665], [-95.3957729, 35.9473818], [-95.3961116, 35.9473829], [-95.3961103, 35.9476326], [-95.3957717, 35.9476315], [-95.3957721, 35.9475482], [-95.3956772, 35.9475479], [-95.3956776, 35.9474662], [-95.3957725, 35.9474665]]]}, "properties": {"osm_id": 1235965359, "building": "church", "name": "Wagoner Church of the Nazarene", "height": null, "height_m": null, "levels": null, "tract_id": "40145030102", "tract_name": "301.02", "tags": {"amenity": "place_of_worship", "building": "church", "name": "Wagoner Church of the Nazarene", "religion": "christian"}}}, {"type": "Feature", "geometry": {"type": "Polygon", "coordinates": [[[-95.3960902, 35.9464503], [-95.3960902, 35.9464845], [-95.3961499, 35.9464845], [-95.3961499, 35.9464497], [-95.3962056, 35.9464497], [-95.3962056, 35.9465903], [-95.3961499, 35.9465903], [-95.3961499, 35.9465512], [-95.3960795, 35.9465512], [-95.3960795, 35.9466479], [-95.3960594, 35.9466479], [-95.3960594, 35.9467108], [-95.3959293, 35.9467108], [-95.3959293, 35.9465979], [-95.3959159, 35.9465979], [-95.3959159, 35.9464503], [-95.3960902, 35.9464503]]]}, "properties": {"osm_id": 1235965360, "building": "commercial", "name": "Roadrunner Gun and Pawn", "height": null, "height_m": null, "levels": null, "tract_id": "40145030102", "tract_name": "301.02", "tags": {"building": "commercial", "name": "Roadrunner Gun and Pawn", "shop": "pawnbroker"}}}, {"type": "Feature", "geometry": {"type": "Polygon", "coordinates": [[[-95.3962263, 35.9467098], [-95.3962263, 35.9464378], [-95.396392, 35.9464378], [-95.396392, 35.9467098], [-95.3962263, 35.9467098]]]}, "properties": {"osm_id": 1235965361, "building": "industrial", "name": "", "height": null, "height_m": null, "levels": null, "tract_id": "40145030102", "tract_name": "301.02", "tags": {"building": "industrial"}}}, {"type": "Feature", "geometry": {"type": "Polygon", "coordinates": [[[-95.3968024, 35.9481657], [-95.395586, 35.9481613], [-95.3955863, 35.9481049], [-95.3968027, 35.9481092], [-95.3968024, 35.9481657]]]}, "properties": {"osm_id": 1235965372, "building": "industrial", "name": "", "height": null, "height_m": null, "levels": null, "tract_id": "40145030102", "tract_name": "301.02", "tags": {"building": "industrial"}}}, {"type": "Feature", "geometry": {"type": "Polygon", "coordinates": [[[-95.3967977, 35.9483166], [-95.395588, 35.948315], [-95.3955882, 35.9482308], [-95.3967978, 35.9482325], [-95.3967977, 35.9483166]]]}, "properties": {"osm_id": 1235965373, "building": "industrial", "name": "", "height": null, "height_m": null, "levels": null, "tract_id": "40145030102", "tract_name": "301.02", "tags": {"building": "industrial"}}}, {"type": "Feature", "geometry": {"type": "Polygon", "coordinates": [[[-95.3967997, 35.948468], [-95.3955833, 35.9484659], [-95.3955835, 35.9483839], [-95.3967999, 35.9483861], [-95.3967997, 35.948468]]]}, "properties": {"osm_id": 1235965374, "building": "industrial", "name": "", "height": null, "height_m": null, "levels": null, "tract_id": "40145030102", "tract_name": "301.02", "tags": {"building": "industrial"}}}, {"type": "Feature", "geometry": {"type": "Polygon", "coordinates": [[[-95.3968674, 35.9485934], [-95.3955846, 35.948588], [-95.395585, 35.9485359], [-95.3968677, 35.9485413], [-95.3968674, 35.9485934]]]}, "properties": {"osm_id": 1235965375, "building": "industrial", "name": "", "height": null, "height_m": null, "levels": null, "tract_id": "40145030102", "tract_name": "301.02", "tags": {"building": "industrial"}}}, {"type": "Feature", "geometry": {"type": "Polygon", "coordinates": [[[-95.3946103, 35.952162], [-95.3944273, 35.9521528], [-95.3944341, 35.9520638], [-95.3946172, 35.9520731], [-95.3946103, 35.952162]]]}, "properties": {"osm_id": 1235965376, "building": "industrial", "name": "", "height": null, "height_m": null, "levels": null, "tract_id": "40145030102", "tract_name": "301.02", "tags": {"building": "industrial"}}}, {"type": "Feature", "geometry": {"type": "Polygon", "coordinates": [[[-95.3949074, 35.9521864], [-95.3946264, 35.9521729], [-95.3946326, 35.9520893], [-95.3949135, 35.9521029], [-95.3949074, 35.9521864]]]}, "properties": {"osm_id": 1235965377, "building": "industrial", "name": "", "height": null, "height_m": null, "levels": null, "tract_id": "40145030102", "tract_name": "301.02", "tags": {"building": "industrial", "shop": "vacant"}}}, {"type": "Feature", "geometry": {"type": "Polygon", "coordinates": [[[-95.3947384, 35.9552869], [-95.3947324, 35.9550953], [-95.3947812, 35.9550943], [-95.3947873, 35.9552859], [-95.3947384, 35.9552869]]]}, "properties": {"osm_id": 1235965378, "building": "static_caravan", "name": "Chris Pruett Auto Sales", "height": null, "height_m": null, "levels": null, "tract_id": "40145030102", "tract_name": "301.02", "tags": {"building": "static_caravan", "name": "Chris Pruett Auto Sales", "phone": "+1 918 485 2277", "second_hand": "only", "shop": "car"}}}, {"type": "Feature", "geometry": {"type": "Polygon", "coordinates": [[[-95.3961036, 35.9574961], [-95.3960238, 35.9574959], [-95.3960252, 35.9571903], [-95.396105, 35.9571905], [-95.3961036, 35.9574961]]]}, "properties": {"osm_id": 1235965379, "building": "roof", "name": "Murphy USA", "height": null, "height_m": null, "levels": null, "tract_id": "40145030102", "tract_name": "301.02", "tags": {"amenity": "fuel", "building": "roof", "name": "Murphy USA"}}}, {"type": "Feature", "geometry": {"type": "Polygon", "coordinates": [[[-95.3957489, 35.9579687], [-95.3956126, 35.957952], [-95.3956257, 35.9578817], [-95.395762, 35.9578984], [-95.3957489, 35.9579687]]]}, "properties": {"osm_id": 1235965383, "building": "roof", "name": "", "height": null, "height_m": null, "levels": null, "tract_id": "40145030102", "tract_name": "301.02", "tags": {"building": "roof"}}}, {"type": "Feature", "geometry": {"type": "Polygon", "coordinates": [[[-95.3960507, 35.9581491], [-95.395936, 35.9580079], [-95.3960473, 35.9579487], [-95.396162, 35.9580898], [-95.3960507, 35.9581491]]]}, "properties": {"osm_id": 1235965384, "building": "commercial", "name": "Wagoner Visitors' Center", "height": null, "height_m": null, "levels": null, "tract_id": "40145030102", "tract_name": "301.02", "tags": {"building": "commercial", "name": "Wagoner Visitors' Center"}}}, {"type": "Feature", "geometry": {"type": "Polygon", "coordinates": [[[-95.3872839, 35.9427474], [-95.3872175, 35.9427468], [-95.3872179, 35.9427143], [-95.3872843, 35.9427148], [-95.3872839, 35.9427474]]]}, "properties": {"osm_id": 1236034540, "building": "service", "name": "", "height": null, "height_m": null, "levels": null, "tract_id": "40145030102", "tract_name": "301.02", "tags": {"building": "service"}}}, {"type": "Feature", "geometry": {"type": "Polygon", "coordinates": [[[-95.3866529, 35.9426746], [-95.3866533, 35.9426361], [-95.3868933, 35.9426377], [-95.3868929, 35.9426763], [-95.3866529, 35.9426746]]]}, "properties": {"osm_id": 1236034541, "building": "static_caravan", "name": "", "height": null, "height_m": null, "levels": null, "tract_id": "40145030102", "tract_name": "301.02", "tags": {"building": "static_caravan"}}}, {"type": "Feature", "geometry": {"type": "Polygon", "coordinates": [[[-95.3834617, 35.9446165], [-95.3834644, 35.9445247], [-95.3835537, 35.9445265], [-95.383551, 35.9446182], [-95.3834617, 35.9446165]]]}, "properties": {"osm_id": 1236311183, "building": "commercial", "name": "Wagoner Creek Smoke Shop", "height": null, "height_m": null, "levels": null, "tract_id": "40145030102", "tract_name": "301.02", "tags": {"addr:postcode": "74467", "addr:street": "Southwest 15th Street", "building": "commercial", "name": "Wagoner Creek Smoke Shop", "shop": "tobacco"}}}, {"type": "Feature", "geometry": {"type": "Polygon", "coordinates": [[[-95.3889723, 35.9448624], [-95.388922, 35.9449048], [-95.3887852, 35.9447984], [-95.3888355, 35.944756], [-95.3889723, 35.9448624]]]}, "properties": {"osm_id": 1236311184, "building": "roof", "name": "", "height": null, "height_m": null, "levels": null, "tract_id": "40145030102", "tract_name": "301.02", "tags": {"addr:postcode": "74467", "addr:street": "Southwest 15th Street", "amenity": "fuel", "building": "roof", "fuel:cng": "yes"}}}, {"type": "Feature", "geometry": {"type": "Polygon", "coordinates": [[[-95.3900706, 35.9449468], [-95.3900237, 35.944946], [-95.3900252, 35.9448899], [-95.3898575, 35.9448871], [-95.3898615, 35.9447275], [-95.390076, 35.944731], [-95.3900706, 35.9449468]]]}, "properties": {"osm_id": 1236311185, "building": "industrial", "name": "Wagoner County District 2", "height": null, "height_m": null, "levels": null, "tract_id": "40145030102", "tract_name": "301.02", "tags": {"addr:postcode": "74467", "addr:street": "Southwest 15th Street", "building": "industrial", "name": "Wagoner County District 2"}}}, {"type": "Feature", "geometry": {"type": "Polygon", "coordinates": [[[-95.3903255, 35.9457201], [-95.3902397, 35.9457201], [-95.3902397, 35.9456626], [-95.3903255, 35.9456626], [-95.3903255, 35.9457201]]]}, "properties": {"osm_id": 1236311186, "building": "industrial", "name": "", "height": null, "height_m": null, "levels": null, "tract_id": "40145030102", "tract_name": "301.02", "tags": {"building": "industrial"}}}, {"type": "Feature", "geometry": {"type": "Polygon", "coordinates": [[[-95.3903416, 35.9457223], [-95.3903436, 35.9456355], [-95.3906963, 35.9456409], [-95.3906943, 35.9457277], [-95.3903416, 35.9457223]]]}, "properties": {"osm_id": 1236311187, "building": "industrial", "name": "", "height": null, "height_m": null, "levels": null, "tract_id": "40145030102", "tract_name": "301.02", "tags": {"building": "industrial"}}}, {"type": "Feature", "geometry": {"type": "Polygon", "coordinates": [[[-95.3901713, 35.9457038], [-95.390032, 35.9456975], [-95.3900776, 35.945046], [-95.3902169, 35.9450524], [-95.3901713, 35.9457038]]]}, "properties": {"osm_id": 1236311188, "building": "industrial", "name": "", "height": null, "height_m": null, "levels": null, "tract_id": "40145030102", "tract_name": "301.02", "tags": {"building": "industrial"}}}, {"type": "Feature", "geometry": {"type": "Polygon", "coordinates": [[[-95.3904837, 35.9451708], [-95.3903469, 35.9451645], [-95.3903657, 35.9448974], [-95.3905025, 35.9449037], [-95.3904837, 35.9451708]]]}, "properties": {"osm_id": 1236311189, "building": "industrial", "name": "", "height": null, "height_m": null, "levels": null, "tract_id": "40145030102", "tract_name": "301.02", "tags": {"building": "industrial"}}}, {"type": "Feature", "geometry": {"type": "Polygon", "coordinates": [[[-95.3906997, 35.9448201], [-95.3903604, 35.9448168], [-95.3903623, 35.9446832], [-95.3907016, 35.9446865], [-95.3906997, 35.9448201]]]}, "properties": {"osm_id": 1236311190, "building": "industrial", "name": "Elliott's Auto Service", "height": null, "height_m": null, "levels": null, "tract_id": "40145030102", "tract_name": "301.02", "tags": {"addr:postcode": "74467", "addr:street": "Southwest 15th Street", "building": "industrial", "name": "Elliott's Auto Service", "phone": "+1 918 485 8113", "shop": "car_repair"}}}, {"type": "Feature", "geometry": {"type": "Polygon", "coordinates": [[[-95.3806129, 35.9513732], [-95.3806235, 35.9512068], [-95.380877, 35.9512173], [-95.3808835, 35.9511156], [-95.3806366, 35.9511054], [-95.3806422, 35.9510183], [-95.3808849, 35.9510284], [-95.3808938, 35.9508887], [-95.3804532, 35.9508703], [-95.3804383, 35.9511048], [-95.3805218, 35.9511083], [-95.3805196, 35.951143], [-95.3804411, 35.9511397], [-95.3804268, 35.9513655], [-95.3806129, 35.9513732]]]}, "properties": {"osm_id": 1240175794, "building": "school", "name": "", "height": null, "height_m": null, "levels": null, "tract_id": "40145030102", "tract_name": "301.02", "tags": {"building": "school"}}}, {"type": "Feature", "geometry": {"type": "Polygon", "coordinates": [[[-95.3809822, 35.9513185], [-95.380987, 35.9512487], [-95.3807556, 35.9512382], [-95.3807507, 35.951308], [-95.3809822, 35.9513185]]]}, "properties": {"osm_id": 1240175795, "building": "school", "name": "", "height": null, "height_m": null, "levels": null, "tract_id": "40145030102", "tract_name": "301.02", "tags": {"building": "school"}}}, {"type": "Feature", "geometry": {"type": "Polygon", "coordinates": [[[-95.3735401, 35.9583116], [-95.3735292, 35.9583098], [-95.3735355, 35.9582847], [-95.3735654, 35.9582897], [-95.3735633, 35.958298], [-95.3736284, 35.9583088], [-95.3736089, 35.9583858], [-95.3737395, 35.9584074], [-95.3737225, 35.9584746], [-95.3736314, 35.9584595], [-95.3736229, 35.9584933], [-95.3735818, 35.9584865], [-95.3735904, 35.9584527], [-95.3735489, 35.9584459], [-95.373521, 35.9584235], [-95.3735294, 35.9583904], [-95.3735206, 35.958389], [-95.3735401, 35.9583116]]]}, "properties": {"osm_id": 1373236309, "building": "church", "name": "Saint James Episcopal Church", "height": null, "height_m": null, "levels": null, "tract_id": "40145030102", "tract_name": "301.02", "tags": {"addr:city": "Wagoner", "addr:housenumber": "303", "addr:postcode": "74467", "addr:street": "East Church Street", "amenity": "place_of_worship", "building": "church", "denomination": "episcopal", "ele": "179", "email": "st.jameswagonerok@gmail.com", "gnis:feature_id": "1790074", "name": "Saint James Episcopal Church", "phone": "+1 918 485 5681", "religion": "christian", "service_times": "Su 10:30", "website": "http://www.stjames-wagoner.org/"}}}, {"type": "Feature", "geometry": {"type": "Polygon", "coordinates": [[[-95.3749305, 35.9595268], [-95.3748784, 35.9595313], [-95.3748775, 35.9595244], [-95.3748158, 35.9595297], [-95.3748167, 35.9595366], [-95.3747664, 35.959541], [-95.37473, 35.9591534], [-95.3748798, 35.9591436], [-95.3749305, 35.9595268]]]}, "properties": {"osm_id": 1373236310, "building": "yes", "name": "Wagoner Police Department", "height": null, "height_m": null, "levels": null, "tract_id": "40145030102", "tract_name": "301.02", "tags": {"amenity": "police", "building": "yes", "name": "Wagoner Police Department", "operator": "City of Wagoner"}}}, {"type": "Feature", "geometry": {"type": "Polygon", "coordinates": [[[-95.3776417, 35.9596796], [-95.3771796, 35.9596522], [-95.3771457, 35.9596247], [-95.3771623, 35.9590534], [-95.3775767, 35.9590696], [-95.377574, 35.9591609], [-95.3774723, 35.9591534], [-95.3774538, 35.9593155], [-95.3775955, 35.9593255], [-95.3775863, 35.9594527], [-95.3776602, 35.9594601], [-95.3776417, 35.9596796]]]}, "properties": {"osm_id": 1386166200, "building": "yes", "name": "", "height": null, "height_m": null, "levels": null, "tract_id": "40145030102", "tract_name": "301.02", "tags": {"building": "yes"}}}, {"type": "Feature", "geometry": {"type": "Polygon", "coordinates": [[[-95.3771685, 35.9589748], [-95.3772012, 35.9583928], [-95.3775462, 35.9584177], [-95.3775401, 35.9585274], [-95.3774754, 35.9585299], [-95.3774446, 35.9588392], [-95.3775955, 35.9588417], [-95.377586, 35.9589935], [-95.3771685, 35.9589748]]]}, "properties": {"osm_id": 1386166201, "building": "yes", "name": "", "height": null, "height_m": null, "levels": null, "tract_id": "40145030102", "tract_name": "301.02", "tags": {"building": "yes"}}}, {"type": "Feature", "geometry": {"type": "Polygon", "coordinates": [[[-95.3762772, 35.9596026], [-95.3764617, 35.9596097], [-95.3764774, 35.9593427], [-95.376293, 35.9593356], [-95.3762772, 35.9596026]]]}, "properties": {"osm_id": 1386166202, "building": "yes", "name": "", "height": null, "height_m": null, "levels": null, "tract_id": "40145030102", "tract_name": "301.02", "tags": {"building": "yes"}}}, {"type": "Feature", "geometry": {"type": "Polygon", "coordinates": [[[-95.3764898, 35.9596021], [-95.3768, 35.9596197], [-95.3768136, 35.9594633], [-95.3765034, 35.9594457], [-95.3764898, 35.9596021]]]}, "properties": {"osm_id": 1386166203, "building": "yes", "name": "", "height": null, "height_m": null, "levels": null, "tract_id": "40145030102", "tract_name": "301.02", "tags": {"building": "yes"}}}, {"type": "Feature", "geometry": {"type": "Polygon", "coordinates": [[[-95.3753483, 35.9595511], [-95.3762258, 35.9596072], [-95.3762605, 35.9592516], [-95.3760634, 35.9592389], [-95.37606, 35.9592734], [-95.3758904, 35.9592625], [-95.3758814, 35.9593542], [-95.3757239, 35.9593441], [-95.3757197, 35.9593871], [-95.3753665, 35.9593645], [-95.3753483, 35.9595511]]]}, "properties": {"osm_id": 1386166206, "building": "yes", "name": "", "height": null, "height_m": null, "levels": null, "tract_id": "40145030102", "tract_name": "301.02", "tags": {"building": "yes"}}}, {"type": "Feature", "geometry": {"type": "Polygon", "coordinates": [[[-95.3764573, 35.957216], [-95.376956, 35.9572353], [-95.3769193, 35.9578557], [-95.3765289, 35.9578405], [-95.3765351, 35.9577358], [-95.3764269, 35.9577316], [-95.3764573, 35.957216]]]}, "properties": {"osm_id": 1386166209, "building": "yes", "name": "", "height": null, "height_m": null, "levels": null, "tract_id": "40145030102", "tract_name": "301.02", "tags": {"building": "yes"}}}, {"type": "Feature", "geometry": {"type": "Polygon", "coordinates": [[[-95.376607, 35.9587197], [-95.3769048, 35.9587379], [-95.3768886, 35.9589129], [-95.3765907, 35.9588948], [-95.376607, 35.9587197]]]}, "properties": {"osm_id": 1386166210, "building": "yes", "name": "", "height": null, "height_m": null, "levels": null, "tract_id": "40145030102", "tract_name": "301.02", "tags": {"building": "yes"}}}, {"type": "Feature", "geometry": {"type": "Polygon", "coordinates": [[[-95.3764536, 35.9583305], [-95.3769107, 35.9583468], [-95.3769026, 35.9584966], [-95.3764454, 35.9584801], [-95.3764536, 35.9583305]]]}, "properties": {"osm_id": 1386166211, "building": "yes", "name": "", "height": null, "height_m": null, "levels": null, "tract_id": "40145030102", "tract_name": "301.02", "tags": {"building": "yes"}}}, {"type": "Feature", "geometry": {"type": "Polygon", "coordinates": [[[-95.3772209, 35.9578987], [-95.3771924, 35.958264], [-95.3775014, 35.9582771], [-95.3775217, 35.9580468], [-95.3774811, 35.9579119], [-95.3772209, 35.9578987]]]}, "properties": {"osm_id": 1386166212, "building": "yes", "name": "", "height": null, "height_m": null, "levels": null, "tract_id": "40145030102", "tract_name": "301.02", "tags": {"building": "yes"}}}, {"type": "Feature", "geometry": {"type": "Polygon", "coordinates": [[[-95.3947914, 35.9389091], [-95.3945634, 35.9389084], [-95.3945647, 35.9386315], [-95.3947927, 35.9386322], [-95.3947914, 35.9389091]]]}, "properties": {"osm_id": 1416231593, "building": "retail", "name": "Big Red Barn Antiques", "height": null, "height_m": null, "levels": null, "tract_id": "40145030102", "tract_name": "301.02", "tags": {"addr:postcode": "74467", "building": "retail", "name": "Big Red Barn Antiques", "shop": "antiques"}}}, {"type": "Feature", "geometry": {"type": "Polygon", "coordinates": [[[-95.3945989, 35.9376042], [-95.3947763, 35.9376031], [-95.3947793, 35.9379299], [-95.394602, 35.937931], [-95.3945989, 35.9376042]]]}, "properties": {"osm_id": 1416231594, "building": "industrial", "name": "", "height": null, "height_m": null, "levels": null, "tract_id": "40145030102", "tract_name": "301.02", "tags": {"addr:postcode": "74467", "building": "industrial"}}}, {"type": "Feature", "geometry": {"type": "Polygon", "coordinates": [[[-95.3945895, 35.9372271], [-95.3948043, 35.937225], [-95.3948094, 35.9375588], [-95.3945945, 35.9375609], [-95.3945895, 35.9372271]]]}, "properties": {"osm_id": 1416231595, "building": "industrial", "name": "", "height": null, "height_m": null, "levels": null, "tract_id": "40145030102", "tract_name": "301.02", "tags": {"addr:postcode": "74467", "building": "industrial"}}}, {"type": "Feature", "geometry": {"type": "Polygon", "coordinates": [[[-95.3958911, 35.9374009], [-95.3963068, 35.9374009], [-95.3963068, 35.9379514], [-95.3958911, 35.9379514], [-95.3958911, 35.9377918], [-95.3957717, 35.9377918], [-95.3957717, 35.9375572], [-95.3958911, 35.9375572], [-95.3958911, 35.9374009]]]}, "properties": {"osm_id": 1416231597, "building": "industrial", "name": "Mueller, Incorporated", "height": null, "height_m": null, "levels": null, "tract_id": "40145030102", "tract_name": "301.02", "tags": {"addr:postcode": "74467", "building": "industrial", "fixme": "check spelling, check what type of business.", "name": "Mueller, Incorporated", "phone": "+1 877 2 MUELLER"}}}, {"type": "Feature", "geometry": {"type": "Polygon", "coordinates": [[[-95.3972211, 35.9361819], [-95.3968805, 35.9361819], [-95.3968805, 35.9359397], [-95.3967354, 35.9359397], [-95.3967354, 35.9358248], [-95.3968805, 35.9358248], [-95.3968805, 35.9353307], [-95.3972211, 35.9353307], [-95.3972211, 35.9361819]]]}, "properties": {"osm_id": 1416231601, "building": "industrial", "name": "Elastomer Specialties, Incorporated", "height": null, "height_m": null, "levels": null, "tract_id": "40145030102", "tract_name": "301.02", "tags": {"addr:postcode": "74467", "building": "industrial", "name": "Elastomer Specialties, Incorporated"}}}, {"type": "Feature", "geometry": {"type": "Polygon", "coordinates": [[[-95.3940933, 35.9314689], [-95.3941609, 35.9314697], [-95.3941589, 35.9315834], [-95.3938788, 35.93158], [-95.3938809, 35.9314664], [-95.3940583, 35.9314685], [-95.3940587, 35.9314466], [-95.3940937, 35.931447], [-95.3940933, 35.9314689]]]}, "properties": {"osm_id": 1416231604, "building": "industrial", "name": "", "height": null, "height_m": null, "levels": null, "tract_id": "40145030102", "tract_name": "301.02", "tags": {"building": "industrial", "colour": "white"}}}, {"type": "Feature", "geometry": {"type": "Polygon", "coordinates": [[[-95.3939789, 35.9311336], [-95.3942684, 35.931137], [-95.3942678, 35.9311741], [-95.3943348, 35.9311749], [-95.3943339, 35.9312241], [-95.3943545, 35.9312243], [-95.3943526, 35.9313303], [-95.394332, 35.9313301], [-95.3943311, 35.9313808], [-95.3941556, 35.9313787], [-95.3941544, 35.9314477], [-95.3940937, 35.931447], [-95.3940587, 35.9314466], [-95.3939937, 35.9314458], [-95.3939949, 35.9313768], [-95.3939745, 35.9313766], [-95.3939789, 35.9311336]]]}, "properties": {"osm_id": 1416231605, "building": "yes", "name": "Shipman Funeral Home and Crematory", "height": null, "height_m": null, "levels": null, "tract_id": "40145030102", "tract_name": "301.02", "tags": {"amenity": "crematorium", "building": "yes", "funeral_hall": "yes", "name": "Shipman Funeral Home and Crematory", "shop": "funeral_directors"}}}, {"type": "Feature", "geometry": {"type": "Polygon", "coordinates": [[[-95.3670895, 35.9472521], [-95.3668121, 35.9472488], [-95.3668139, 35.9471489], [-95.3669118, 35.94715], [-95.3669131, 35.9470764], [-95.3669894, 35.9470773], [-95.3669903, 35.9470272], [-95.3670935, 35.9470284], [-95.3670895, 35.9472521]]]}, "properties": {"osm_id": 1432262171, "building": "yes", "name": "", "height": null, "height_m": null, "levels": null, "tract_id": "40145030102", "tract_name": "301.02", "tags": {"building": "yes", "check_date": "2025-09-21", "description": "looks vacant; clearly used to be a Mexican restaurant.", "shop": "vacant"}}}, {"type": "Feature", "geometry": {"type": "Polygon", "coordinates": [[[-95.366606, 35.9495972], [-95.3666083, 35.9495591], [-95.3667813, 35.9495662], [-95.3670178, 35.9495939], [-95.3670152, 35.9496359], [-95.366779, 35.9496042], [-95.366606, 35.9495972]]]}, "properties": {"osm_id": 1432262172, "building": "roof", "name": "", "height": null, "height_m": null, "levels": null, "tract_id": "40145030102", "tract_name": "301.02", "tags": {"building": "roof"}}}, {"type": "Feature", "geometry": {"type": "Polygon", "coordinates": [[[-95.3666022, 35.9496584], [-95.3667752, 35.9496654], [-95.3670136, 35.9496622], [-95.3670111, 35.9497025], [-95.3667729, 35.9497024], [-95.3665999, 35.9496953], [-95.3666022, 35.9496584]]]}, "properties": {"osm_id": 1432262173, "building": "roof", "name": "", "height": null, "height_m": null, "levels": null, "tract_id": "40145030102", "tract_name": "301.02", "tags": {"building": "roof"}}}, {"type": "Feature", "geometry": {"type": "Polygon", "coordinates": [[[-95.3675617, 35.9498104], [-95.3673542, 35.9497992], [-95.3673643, 35.9496762], [-95.3675719, 35.9496874], [-95.3675617, 35.9498104]]]}, "properties": {"osm_id": 1432262174, "building": "retail", "name": "", "height": null, "height_m": null, "levels": null, "tract_id": "40145030102", "tract_name": "301.02", "tags": {"building": "retail", "office": "tax_advisor"}}}, {"type": "Feature", "geometry": {"type": "Polygon", "coordinates": [[[-95.3666569, 35.9492264], [-95.366447, 35.949216], [-95.3664546, 35.9491154], [-95.3668005, 35.9491325], [-95.3667797, 35.9494082], [-95.3666437, 35.9494015], [-95.3666569, 35.9492264]]]}, "properties": {"osm_id": 1432262175, "building": "retail", "name": "", "height": null, "height_m": null, "levels": null, "tract_id": "40145030102", "tract_name": "301.02", "tags": {"building": "retail"}}}, {"type": "Feature", "geometry": {"type": "Polygon", "coordinates": [[[-95.3667752, 35.9496654], [-95.3666022, 35.9496584], [-95.366606, 35.9495972], [-95.366779, 35.9496042], [-95.3667752, 35.9496654]]]}, "properties": {"osm_id": 1432262176, "building": "retail", "name": "", "height": null, "height_m": null, "levels": null, "tract_id": "40145030102", "tract_name": "301.02", "tags": {"building": "retail", "fixme": "Verify name and type of shop. I surveyed it on 2025-09-21, but didn't see any clear sign.", "shop": "cannabis"}}}]}