{"type": "FeatureCollection", "features": [{"type": "Feature", "geometry": {"type": "Polygon", "coordinates": [[[-97.5482144, 35.4805318], [-97.5482158, 35.4804401], [-97.5480146, 35.4804379], [-97.5480119, 35.4805285], [-97.5481072, 35.4805296], [-97.5482144, 35.4805318]]]}, "properties": {"osm_id": 186361370, "building": "yes", "name": "", "height": null, "height_m": null, "levels": null, "tract_id": "40109102300", "tract_name": "1023", "tags": {"building": "yes", "shop": "convenience"}}}, {"type": "Feature", "geometry": {"type": "Polygon", "coordinates": [[[-97.5654098, 35.4849774], [-97.5653401, 35.4849776], [-97.5653412, 35.4853084], [-97.565411, 35.4853082], [-97.5654098, 35.4849774]]]}, "properties": {"osm_id": 187502862, "building": "roof", "name": "", "height": null, "height_m": null, "levels": null, "tract_id": "40109102300", "tract_name": "1023", "tags": {"addr:city": "Oklahoma City", "addr:postcode": "73107", "addr:state": "OK", "addr:street": "North May Avenue", "building": "roof", "layer": "1"}}}, {"type": "Feature", "geometry": {"type": "Polygon", "coordinates": [[[-97.5654108, 35.4789603], [-97.5653848, 35.4789608], [-97.5653444, 35.4789617], [-97.565346, 35.4790119], [-97.5654124, 35.4790105], [-97.5654108, 35.4789603]]]}, "properties": {"osm_id": 230350783, "building": "roof", "name": "", "height": null, "height_m": null, "levels": null, "tract_id": "40109102300", "tract_name": "1023", "tags": {"building": "roof", "roof:material": "metal", "roof:shape": "flat", "source": "Bing"}}}, {"type": "Feature", "geometry": {"type": "Polygon", "coordinates": [[[-97.5651476, 35.4787983], [-97.5651483, 35.4787469], [-97.565087, 35.4787464], [-97.5650189, 35.4787458], [-97.5650183, 35.4787972], [-97.5651476, 35.4787983]]]}, "properties": {"osm_id": 230350784, "building": "roof", "name": "", "height": null, "height_m": null, "levels": null, "tract_id": "40109102300", "tract_name": "1023", "tags": {"building": "roof", "roof:material": "metal", "roof:shape": "flat", "source": "Bing"}}}, {"type": "Feature", "geometry": {"type": "Polygon", "coordinates": [[[-97.5651621, 35.4790819], [-97.5651594, 35.4789967], [-97.5651581, 35.4789716], [-97.5650615, 35.4789738], [-97.5649623, 35.4789738], [-97.5649596, 35.4790819], [-97.5651621, 35.4790819]]]}, "properties": {"osm_id": 230350785, "building": "yes", "name": "7-Eleven", "height": null, "height_m": null, "levels": null, "tract_id": "40109102300", "tract_name": "1023", "tags": {"brand": "7-Eleven", "brand:wikidata": "Q259340", "building": "yes", "contact:website": "https://www.7-eleven.com/locations/ok/oklahoma-city/2845-n-w-10th-41389", "name": "7-Eleven", "roof:shape": "flat", "shop": "convenience", "source": "Bing"}}}, {"type": "Feature", "geometry": {"type": "Polygon", "coordinates": [[[-97.5647361, 35.4790828], [-97.564262, 35.4790828], [-97.564262, 35.4789081], [-97.5647361, 35.4789081], [-97.5647361, 35.4790828]]]}, "properties": {"osm_id": 251117249, "building": "yes", "name": "", "height": null, "height_m": null, "levels": null, "tract_id": "40109102300", "tract_name": "1023", "tags": {"building": "yes", "roof:shape": "flat", "source": "Bing"}}}, {"type": "Feature", "geometry": {"type": "Polygon", "coordinates": [[[-97.5637057, 35.4790158], [-97.5635413, 35.4790158], [-97.5635413, 35.4787804], [-97.5637057, 35.4787804], [-97.5637057, 35.4790158]]]}, "properties": {"osm_id": 251117254, "building": "yes", "name": "", "height": null, "height_m": null, "levels": null, "tract_id": "40109102300", "tract_name": "1023", "tags": {"building": "yes", "source": "Bing"}}}, {"type": "Feature", "geometry": {"type": "Polygon", "coordinates": [[[-97.564262, 35.4790828], [-97.5639304, 35.4790828], [-97.5639304, 35.4789004], [-97.564262, 35.4789004], [-97.564262, 35.4789081], [-97.564262, 35.4790828]]]}, "properties": {"osm_id": 251117271, "building": "yes", "name": "Family Dollar", "height": null, "height_m": null, "levels": null, "tract_id": "40109102300", "tract_name": "1023", "tags": {"brand": "Family Dollar", "brand:wikidata": "Q5433101", "building": "yes", "name": "Family Dollar", "shop": "variety_store", "source": "Bing"}}}, {"type": "Feature", "geometry": {"type": "Polygon", "coordinates": [[[-97.5565593, 35.4788459], [-97.5565593, 35.4789065], [-97.5565015, 35.4789065], [-97.5565015, 35.4789152], [-97.5564371, 35.4789152], [-97.5564371, 35.4790941], [-97.5563206, 35.4790938], [-97.5563197, 35.4789238], [-97.5563432, 35.4789241], [-97.5563426, 35.4788459], [-97.5565593, 35.4788459]]]}, "properties": {"osm_id": 251440989, "building": "yes", "name": "", "height": null, "height_m": null, "levels": null, "tract_id": "40109102300", "tract_name": "1023", "tags": {"building": "yes", "source": "Bing"}}}, {"type": "Feature", "geometry": {"type": "Polygon", "coordinates": [[[-97.5483765, 35.4796117], [-97.5482513, 35.4796117], [-97.5482513, 35.4795828], [-97.547972, 35.4795828], [-97.547972, 35.4794356], [-97.5482235, 35.4794356], [-97.5482235, 35.4793646], [-97.548197, 35.4793646], [-97.548197, 35.4792205], [-97.5482703, 35.4792205], [-97.5482703, 35.4790939], [-97.547972, 35.4790939], [-97.547972, 35.4789611], [-97.54836, 35.4789611], [-97.54836, 35.4792267], [-97.5483183, 35.4792267], [-97.5483183, 35.4793729], [-97.5483765, 35.4793729], [-97.5483765, 35.4796117]]]}, "properties": {"osm_id": 251440992, "building": "yes", "name": "", "height": null, "height_m": null, "levels": null, "tract_id": "40109102300", "tract_name": "1023", "tags": {"building": "yes", "source": "Bing"}}}, {"type": "Feature", "geometry": {"type": "Polygon", "coordinates": [[[-97.5600097, 35.4791496], [-97.5596147, 35.4791469], [-97.5596147, 35.4791545], [-97.5590018, 35.4791519], [-97.5590023, 35.4790722], [-97.5593662, 35.4790737], [-97.5593665, 35.47904], [-97.5593451, 35.4790399], [-97.5593468, 35.4788212], [-97.559495, 35.478822], [-97.5594933, 35.479034], [-97.5594614, 35.4790338], [-97.5594609, 35.4790875], [-97.5595646, 35.4790882], [-97.5595673, 35.4788198], [-97.5596499, 35.4788203], [-97.5596472, 35.4790788], [-97.5597867, 35.4790797], [-97.5597894, 35.4788161], [-97.5598958, 35.4788168], [-97.5598932, 35.4790681], [-97.5600105, 35.4790689], [-97.5600097, 35.4791496]]]}, "properties": {"osm_id": 251440993, "building": "yes", "name": "", "height": null, "height_m": null, "levels": null, "tract_id": "40109102300", "tract_name": "1023", "tags": {"building": "yes", "source": "Bing"}}}, {"type": "Feature", "geometry": {"type": "Polygon", "coordinates": [[[-97.5627879, 35.479083], [-97.5627879, 35.4789993], [-97.5629095, 35.4789993], [-97.5629095, 35.479083], [-97.5627879, 35.479083]]]}, "properties": {"osm_id": 251440994, "building": "yes", "name": "", "height": null, "height_m": null, "levels": null, "tract_id": "40109102300", "tract_name": "1023", "tags": {"building": "yes", "source": "Bing"}}}, {"type": "Feature", "geometry": {"type": "Polygon", "coordinates": [[[-97.5630274, 35.4791092], [-97.5629488, 35.4791092], [-97.5629488, 35.4790263], [-97.5630274, 35.4790263], [-97.5630274, 35.4791092]]]}, "properties": {"osm_id": 251440995, "building": "yes", "name": "", "height": null, "height_m": null, "levels": null, "tract_id": "40109102300", "tract_name": "1023", "tags": {"building": "yes", "source": "Bing"}}}, {"type": "Feature", "geometry": {"type": "Polygon", "coordinates": [[[-97.5551003, 35.4791443], [-97.5548285, 35.4791425], [-97.5548297, 35.4790159], [-97.5551015, 35.4790177], [-97.5551003, 35.4791443]]]}, "properties": {"osm_id": 251440996, "building": "yes", "name": "", "height": null, "height_m": null, "levels": null, "tract_id": "40109102300", "tract_name": "1023", "tags": {"building": "yes", "source": "Bing"}}}, {"type": "Feature", "geometry": {"type": "Polygon", "coordinates": [[[-97.562707, 35.4789207], [-97.5626221, 35.4789207], [-97.5626221, 35.4788501], [-97.562707, 35.4788501], [-97.562707, 35.4789207]]]}, "properties": {"osm_id": 251440998, "building": "yes", "name": "", "height": null, "height_m": null, "levels": null, "tract_id": "40109102300", "tract_name": "1023", "tags": {"building": "yes", "source": "Bing"}}}, {"type": "Feature", "geometry": {"type": "Polygon", "coordinates": [[[-97.5547603, 35.4791443], [-97.5545934, 35.4791443], [-97.5545934, 35.4790146], [-97.5547603, 35.4790146], [-97.5547603, 35.4791443]]]}, "properties": {"osm_id": 251440999, "building": "yes", "name": "", "height": null, "height_m": null, "levels": null, "tract_id": "40109102300", "tract_name": "1023", "tags": {"building": "yes", "source": "Bing"}}}, {"type": "Feature", "geometry": {"type": "Polygon", "coordinates": [[[-97.558102, 35.4791142], [-97.5579599, 35.4791142], [-97.5579599, 35.4789133], [-97.558102, 35.4789133], [-97.558102, 35.4791142]]]}, "properties": {"osm_id": 251441000, "building": "yes", "name": "", "height": null, "height_m": null, "levels": null, "tract_id": "40109102300", "tract_name": "1023", "tags": {"building": "yes", "source": "Bing"}}}, {"type": "Feature", "geometry": {"type": "Polygon", "coordinates": [[[-97.5630096, 35.4787999], [-97.5631034, 35.4787999], [-97.5631034, 35.4789375], [-97.5630096, 35.4789375], [-97.5630096, 35.4787999]]]}, "properties": {"osm_id": 251441002, "building": "yes", "name": "", "height": null, "height_m": null, "levels": null, "tract_id": "40109102300", "tract_name": "1023", "tags": {"building": "yes", "source": "Bing"}}}, {"type": "Feature", "geometry": {"type": "Polygon", "coordinates": [[[-97.5625859, 35.4790234], [-97.5624384, 35.4790234], [-97.5624384, 35.4788101], [-97.5625859, 35.4788101], [-97.5625859, 35.4790234]]]}, "properties": {"osm_id": 251441003, "building": "yes", "name": "", "height": null, "height_m": null, "levels": null, "tract_id": "40109102300", "tract_name": "1023", "tags": {"building": "yes", "source": "Bing"}}}, {"type": "Feature", "geometry": {"type": "Polygon", "coordinates": [[[-97.5632133, 35.4790881], [-97.5631083, 35.4790881], [-97.5631083, 35.4787992], [-97.5632133, 35.4787992], [-97.5632133, 35.4790881]]]}, "properties": {"osm_id": 251441004, "building": "yes", "name": "", "height": null, "height_m": null, "levels": null, "tract_id": "40109102300", "tract_name": "1023", "tags": {"building": "yes", "source": "Bing"}}}, {"type": "Feature", "geometry": {"type": "Polygon", "coordinates": [[[-97.5603387, 35.4791393], [-97.5602085, 35.4791393], [-97.5602085, 35.4790076], [-97.5602312, 35.4790076], [-97.5602312, 35.47881], [-97.5603387, 35.47881], [-97.5603387, 35.4791393]]]}, "properties": {"osm_id": 251441005, "building": "yes", "name": "", "height": null, "height_m": null, "levels": null, "tract_id": "40109102300", "tract_name": "1023", "tags": {"building": "yes", "source": "Bing"}}}, {"type": "Feature", "geometry": {"type": "Polygon", "coordinates": [[[-97.5483524, 35.4789508], [-97.5481325, 35.4789508], [-97.5481325, 35.4788808], [-97.5482804, 35.4788808], [-97.5482804, 35.4788942], [-97.5483524, 35.4788942], [-97.5483524, 35.4789508]]]}, "properties": {"osm_id": 251441006, "building": "yes", "name": "", "height": null, "height_m": null, "levels": null, "tract_id": "40109102300", "tract_name": "1023", "tags": {"building": "yes", "source": "Bing"}}}, {"type": "Feature", "geometry": {"type": "Polygon", "coordinates": [[[-97.5571188, 35.4791579], [-97.5568873, 35.4791579], [-97.5568873, 35.4789082], [-97.556974, 35.4789082], [-97.5570527, 35.4788449], [-97.5571188, 35.4788449], [-97.5571188, 35.4791579]]]}, "properties": {"osm_id": 251441007, "building": "yes", "name": "", "height": null, "height_m": null, "levels": null, "tract_id": "40109102300", "tract_name": "1023", "tags": {"building": "yes", "source": "Bing"}}}, {"type": "Feature", "geometry": {"type": "Polygon", "coordinates": [[[-97.5589998, 35.4788051], [-97.5592152, 35.4788051], [-97.5592152, 35.4789281], [-97.559091, 35.4789281], [-97.559091, 35.4790336], [-97.5589998, 35.4790336], [-97.5589998, 35.4788051]]]}, "properties": {"osm_id": 251441008, "building": "yes", "name": "", "height": null, "height_m": null, "levels": null, "tract_id": "40109102300", "tract_name": "1023", "tags": {"building": "yes", "source": "Bing"}}}, {"type": "Feature", "geometry": {"type": "Polygon", "coordinates": [[[-97.5609075, 35.4791352], [-97.5604815, 35.4791352], [-97.5604815, 35.4790189], [-97.5606446, 35.4790189], [-97.5606446, 35.4787832], [-97.5609075, 35.4787832], [-97.5609075, 35.4791352]]]}, "properties": {"osm_id": 251441009, "building": "yes", "name": "", "height": null, "height_m": null, "levels": null, "tract_id": "40109102300", "tract_name": "1023", "tags": {"building": "yes", "source": "Bing"}}}, {"type": "Feature", "geometry": {"type": "Polygon", "coordinates": [[[-97.5582999, 35.4788039], [-97.5587827, 35.4788039], [-97.5587827, 35.4791297], [-97.5586146, 35.4791297], [-97.5586146, 35.4791518], [-97.5582999, 35.4791518], [-97.5582999, 35.4788039]]]}, "properties": {"osm_id": 251441010, "building": "yes", "name": "", "height": null, "height_m": null, "levels": null, "tract_id": "40109102300", "tract_name": "1023", "tags": {"building": "yes", "source": "Bing"}}}, {"type": "Feature", "geometry": {"type": "Polygon", "coordinates": [[[-97.5575058, 35.4791499], [-97.5571734, 35.4791499], [-97.5571734, 35.4790196], [-97.5574049, 35.4790196], [-97.5574049, 35.4790087], [-97.5575058, 35.4790087], [-97.5575058, 35.4791499]]]}, "properties": {"osm_id": 251441011, "building": "yes", "name": "", "height": null, "height_m": null, "levels": null, "tract_id": "40109102300", "tract_name": "1023", "tags": {"building": "yes", "source": "Bing"}}}, {"type": "Feature", "geometry": {"type": "Polygon", "coordinates": [[[-97.5561481, 35.4788459], [-97.5561481, 35.4790326], [-97.5561481, 35.4791731], [-97.5556463, 35.4791731], [-97.5556463, 35.4788301], [-97.5558939, 35.4788301], [-97.5558939, 35.4788459], [-97.5561481, 35.4788459]]]}, "properties": {"osm_id": 251441012, "building": "yes", "name": "", "height": null, "height_m": null, "levels": null, "tract_id": "40109102300", "tract_name": "1023", "tags": {"building": "yes", "source": "Bing"}}}, {"type": "Feature", "geometry": {"type": "Polygon", "coordinates": [[[-97.5556397, 35.4788446], [-97.5556397, 35.4791678], [-97.5554077, 35.4791678], [-97.5554077, 35.4790093], [-97.5554565, 35.4790093], [-97.5554565, 35.4788703], [-97.5554836, 35.4788446], [-97.5556397, 35.4788446]]]}, "properties": {"osm_id": 251441014, "building": "yes", "name": "", "height": null, "height_m": null, "levels": null, "tract_id": "40109102300", "tract_name": "1023", "tags": {"building": "yes", "source": "Bing"}}}, {"type": "Feature", "geometry": {"type": "Polygon", "coordinates": [[[-97.5623099, 35.4787888], [-97.5624314, 35.4787888], [-97.5624314, 35.4788987], [-97.5623715, 35.4788987], [-97.5623715, 35.4789286], [-97.5623277, 35.4789286], [-97.5623277, 35.4788987], [-97.5623099, 35.4788987], [-97.5623099, 35.4787888]]]}, "properties": {"osm_id": 251441015, "building": "yes", "name": "", "height": null, "height_m": null, "levels": null, "tract_id": "40109102300", "tract_name": "1023", "tags": {"building": "yes", "source": "Bing"}}}, {"type": "Feature", "geometry": {"type": "Polygon", "coordinates": [[[-97.5563206, 35.4790938], [-97.5563206, 35.4791611], [-97.556227, 35.4791611], [-97.556227, 35.4790326], [-97.5561481, 35.4790326], [-97.5561481, 35.4788459], [-97.5563192, 35.4788475], [-97.5563197, 35.4789238], [-97.5563206, 35.4790938]]]}, "properties": {"osm_id": 251441016, "building": "yes", "name": "", "height": null, "height_m": null, "levels": null, "tract_id": "40109102300", "tract_name": "1023", "tags": {"building": "yes", "source": "Bing"}}}, {"type": "Feature", "geometry": {"type": "Polygon", "coordinates": [[[-97.5622374, 35.4789443], [-97.5621628, 35.4789443], [-97.5621628, 35.4789144], [-97.5620958, 35.4789144], [-97.5620958, 35.4788948], [-97.561953, 35.4788948], [-97.561953, 35.478794], [-97.5622374, 35.478794], [-97.5622374, 35.4789443]]]}, "properties": {"osm_id": 251441017, "building": "yes", "name": "", "height": null, "height_m": null, "levels": null, "tract_id": "40109102300", "tract_name": "1023", "tags": {"building": "yes", "source": "Bing"}}}, {"type": "Feature", "geometry": {"type": "Polygon", "coordinates": [[[-97.565402, 35.4814004], [-97.5653104, 35.4814854], [-97.5653608, 35.4815214], [-97.5654524, 35.4814365], [-97.565402, 35.4814004]]]}, "properties": {"osm_id": 1251179780, "building": "roof", "name": "Alon", "height": null, "height_m": null, "levels": null, "tract_id": "40109102300", "tract_name": "1023", "tags": {"addr:city": "Oklahoma City", "addr:postcode": "73107", "addr:state": "OK", "addr:street": "North May Avenue", "amenity": "fuel", "brand": "Alon", "brand:wikidata": "Q62274304", "building": "roof", "compressed_air": "yes", "name": "Alon"}}}, {"type": "Feature", "geometry": {"type": "Polygon", "coordinates": [[[-97.5653357, 35.4812063], [-97.5653357, 35.4813859], [-97.5652383, 35.4813856], [-97.5652379, 35.4812059], [-97.5653357, 35.4812063]]]}, "properties": {"osm_id": 1251179781, "building": "yes", "name": "", "height": null, "height_m": null, "levels": null, "tract_id": "40109102300", "tract_name": "1023", "tags": {"addr:city": "Oklahoma City", "addr:postcode": "73107", "addr:state": "OK", "addr:street": "North May Avenue", "building": "yes", "language:es": "main", "shop": "convenience"}}}, {"type": "Feature", "geometry": {"type": "Polygon", "coordinates": [[[-97.5653807, 35.4843843], [-97.565381, 35.4845317], [-97.5652688, 35.4845319], [-97.5652684, 35.4843845], [-97.5653807, 35.4843843]]]}, "properties": {"osm_id": 1251179791, "building": "commercial", "name": "", "height": null, "height_m": null, "levels": null, "tract_id": "40109102300", "tract_name": "1023", "tags": {"building": "commercial"}}}]}