{"type": "FeatureCollection", "features": [{"type": "Feature", "geometry": {"type": "Polygon", "coordinates": [[[-97.3898198, 35.4443063], [-97.3896587, 35.4443171], [-97.3896649, 35.444379], [-97.3896683, 35.4444121], [-97.3898293, 35.4444013], [-97.3898198, 35.4443063]]]}, "properties": {"osm_id": 243838764, "building": "yes", "name": "", "height": null, "height_m": null, "levels": null, "tract_id": "40109107605", "tract_name": "1076.05", "tags": {"building": "yes", "source": "Bing"}}}, {"type": "Feature", "geometry": {"type": "Polygon", "coordinates": [[[-97.3909158, 35.4432821], [-97.3908143, 35.4432829], [-97.3908162, 35.4434488], [-97.3909177, 35.4434481], [-97.3909169, 35.4433761], [-97.3909158, 35.4432821]]]}, "properties": {"osm_id": 243841430, "building": "yes", "name": "", "height": null, "height_m": null, "levels": null, "tract_id": "40109107605", "tract_name": "1076.05", "tags": {"building": "yes", "source": "Bing"}}}, {"type": "Feature", "geometry": {"type": "Polygon", "coordinates": [[[-97.3890152, 35.4487066], [-97.3887929, 35.4487084], [-97.3887942, 35.4488146], [-97.3890165, 35.4488128], [-97.3890152, 35.4487066]]]}, "properties": {"osm_id": 243848755, "building": "yes", "name": "", "height": null, "height_m": null, "levels": null, "tract_id": "40109107605", "tract_name": "1076.05", "tags": {"building": "yes"}}}, {"type": "Feature", "geometry": {"type": "Polygon", "coordinates": [[[-97.3897164, 35.4491885], [-97.3888931, 35.4491842], [-97.3888909, 35.4492471], [-97.3886925, 35.4492493], [-97.3886925, 35.4493673], [-97.3887295, 35.4493677], [-97.3887327, 35.4493957], [-97.3888904, 35.4493983], [-97.3888958, 35.4494573], [-97.389172, 35.4494551], [-97.3891693, 35.4494048], [-97.3894644, 35.4494092], [-97.3894676, 35.4494568], [-97.389711, 35.4494573], [-97.3897164, 35.4491885]]]}, "properties": {"osm_id": 243848758, "building": "yes", "name": "", "height": null, "height_m": null, "levels": null, "tract_id": "40109107605", "tract_name": "1076.05", "tags": {"building": "yes", "source": "Bing"}}}, {"type": "Feature", "geometry": {"type": "Polygon", "coordinates": [[[-97.3979773, 35.4359263], [-97.3979755, 35.4356732], [-97.3977154, 35.4356744], [-97.3977171, 35.4359275], [-97.3979773, 35.4359263]]]}, "properties": {"osm_id": 249994706, "building": "yes", "name": "Logan's Roadhouse", "height": null, "height_m": null, "levels": null, "tract_id": "40109107605", "tract_name": "1076.05", "tags": {"addr:city": "Midwest City", "addr:housenumber": "7221", "addr:postcode": "73110", "addr:state": "OK", "addr:street": "Southeast 29th Street", "amenity": "restaurant", "brand": "Logan's Roadhouse", "brand:wikidata": "Q6666872", "building": "yes", "cuisine": "american", "name": "Logan's Roadhouse", "source": "Bing"}}}, {"type": "Feature", "geometry": {"type": "Polygon", "coordinates": [[[-97.3968083, 35.4378695], [-97.3968, 35.4370988], [-97.39676, 35.4371003], [-97.3967598, 35.4370703], [-97.3965612, 35.4370715], [-97.3963708, 35.4370725], [-97.3963738, 35.4371353], [-97.3957164, 35.4371359], [-97.3957113, 35.4370915], [-97.3955447, 35.43709], [-97.395545, 35.4371527], [-97.395266, 35.4371527], [-97.395268, 35.4373829], [-97.3952714, 35.4377712], [-97.3953814, 35.4377712], [-97.3953852, 35.4378218], [-97.3953894, 35.4378783], [-97.3968083, 35.4378695]]]}, "properties": {"osm_id": 249994709, "building": "yes", "name": "Target", "height": null, "height_m": null, "levels": null, "tract_id": "40109107605", "tract_name": "1076.05", "tags": {"addr:city": "Midwest City", "addr:housenumber": "7305", "addr:postcode": "73110-6122", "addr:state": "OK", "addr:street": "Southeast 29th Street", "brand": "Target", "brand:wikidata": "Q1046951", "building": "yes", "name": "Target", "opening_hours": "08:00-22:00", "phone": "+1 405-455-4000", "shop": "department_store", "source": "Bing", "website": "https://www.target.com/sl/midwest-city/2061"}}}, {"type": "Feature", "geometry": {"type": "Polygon", "coordinates": [[[-97.397992, 35.4375467], [-97.3979929, 35.4376722], [-97.3981731, 35.4376713], [-97.3981736, 35.4377418], [-97.3979858, 35.4377427], [-97.397987, 35.4379092], [-97.3968501, 35.4379146], [-97.3968445, 35.4371188], [-97.3979889, 35.4371134], [-97.397992, 35.4375467]]]}, "properties": {"osm_id": 249994710, "building": "retail", "name": "Mathis Home", "height": null, "height_m": null, "levels": null, "tract_id": "40109107605", "tract_name": "1076.05", "tags": {"addr:city": "Midwest City", "addr:housenumber": "7271", "addr:postcode": "73110", "addr:state": "OK", "addr:street": "Southeast 29th Street", "building": "retail", "name": "Mathis Home"}}}, {"type": "Feature", "geometry": {"type": "Polygon", "coordinates": [[[-97.3946223, 35.4378586], [-97.3946277, 35.4376117], [-97.394625, 35.4371615], [-97.3946303, 35.4370675], [-97.3944292, 35.4370719], [-97.394327, 35.4370354], [-97.3940883, 35.4370376], [-97.3938388, 35.4370376], [-97.393745, 35.4370703], [-97.3935572, 35.4370747], [-97.3935548, 35.4377515], [-97.3940215, 35.4377537], [-97.3940215, 35.4378214], [-97.3940242, 35.437887], [-97.3941636, 35.437887], [-97.3941663, 35.437863], [-97.3946223, 35.4378586]]]}, "properties": {"osm_id": 249994711, "building": "yes", "name": "Kohl's", "height": null, "height_m": null, "levels": null, "tract_id": "40109107605", "tract_name": "1076.05", "tags": {"addr:city": "Midwest City", "addr:housenumber": "7401", "addr:postcode": "73110", "addr:state": "OK", "addr:street": "Southeast 29th Street", "branch": "Midwest City", "brand": "Kohl's", "brand:wikidata": "Q967265", "building": "yes", "name": "Kohl's", "opening_hours": "Mo-Sa 09:00-21:00; Su 09:00-20:00", "phone": "+1 405-736-6992", "ref": "114", "shop": "department_store", "source": "Bing", "website": "https://www.kohls.com/stores/ok/midwestcity-114.shtml"}}}, {"type": "Feature", "geometry": {"type": "Polygon", "coordinates": [[[-97.3947995, 35.4358504], [-97.3948001, 35.4355874], [-97.3946524, 35.4355872], [-97.3946519, 35.4358502], [-97.3947995, 35.4358504]]]}, "properties": {"osm_id": 249994718, "building": "yes", "name": "Chick-fil-A", "height": null, "height_m": null, "levels": null, "tract_id": "40109107605", "tract_name": "1076.05", "tags": {"addr:city": "Midwest City", "addr:housenumber": "7331", "addr:postcode": "73110", "addr:state": "OK", "addr:street": "Southeast 29th Street", "amenity": "fast_food", "branch": "29th & Town Center", "brand": "Chick-fil-A", "brand:wikidata": "Q491516", "building": "yes", "cuisine": "chicken", "delivery": "no", "drive_through": "yes", "indoor_seating": "yes", "internet_access": "wlan", "name": "Chick-fil-A", "opening_hours": "Mo-Sa 06:30-22:00; Su off", "phone": "+1 405-741-1500", "ref": "02033", "source": "Bing", "takeaway": "yes", "website": "https://www.chick-fil-a.com/locations/ok/29th-town-center"}}}, {"type": "Feature", "geometry": {"type": "Polygon", "coordinates": [[[-97.3933935, 35.4357123], [-97.3933939, 35.43569], [-97.3933938, 35.4356889], [-97.3933937, 35.4356878], [-97.3933935, 35.4356867], [-97.3933931, 35.4356856], [-97.3933927, 35.4356845], [-97.3933923, 35.4356834], [-97.3933917, 35.4356824], [-97.3933911, 35.4356814], [-97.3933903, 35.4356804], [-97.3933896, 35.4356795], [-97.3933887, 35.4356786], [-97.3933878, 35.4356777], [-97.3933868, 35.4356769], [-97.3933857, 35.4356762], [-97.3933846, 35.4356755], [-97.3933835, 35.4356749], [-97.3933823, 35.4356743], [-97.393381, 35.4356738], [-97.3933797, 35.4356734], [-97.3933784, 35.435673], [-97.3933771, 35.4356727], [-97.3933757, 35.4356724], [-97.3933744, 35.4356723], [-97.393373, 35.4356722], [-97.3933716, 35.4356722], [-97.3933702, 35.4356722], [-97.3933688, 35.4356723], [-97.3933674, 35.4356725], [-97.3933661, 35.4356728], [-97.3933648, 35.4356731], [-97.3933635, 35.4356735], [-97.3933622, 35.4356739], [-97.3933609, 35.4356744], [-97.3933598, 35.435675], [-97.3933586, 35.4356757], [-97.3933575, 35.4356764], [-97.3933565, 35.4356771], [-97.3933555, 35.4356779], [-97.3933546, 35.4356788], [-97.3933538, 35.4356797], [-97.393353, 35.4356806], [-97.3933523, 35.4356816], [-97.3933517, 35.4356826], [-97.3933511, 35.4356837], [-97.3933507, 35.4356847], [-97.3933503, 35.4356858], [-97.39335, 35.4356869], [-97.3933498, 35.4356881], [-97.3933497, 35.4356892], [-97.3933496, 35.4357126], [-97.3932192, 35.4357135], [-97.3932209, 35.4358744], [-97.3932384, 35.4358742], [-97.3932397, 35.4360122], [-97.3933217, 35.4360116], [-97.3933211, 35.4359545], [-97.3934936, 35.4359533], [-97.3934926, 35.4358535], [-97.3935011, 35.4358535], [-97.3935, 35.4357546], [-97.3934916, 35.4357547], [-97.3934911, 35.4357117], [-97.3933935, 35.4357123]]]}, "properties": {"osm_id": 249994720, "building": "yes", "name": "Cheddar's", "height": null, "height_m": null, "levels": null, "tract_id": "40109107605", "tract_name": "1076.05", "tags": {"addr:city": "Midwest City", "addr:country": "US", "addr:housenumber": "7405", "addr:postcode": "73110", "addr:state": "OK", "addr:street": "Southeast 29th Street", "amenity": "restaurant", "brand": "Cheddar's", "brand:wikidata": "Q5089187", "building": "yes", "contact:facebook": "https://facebook.com/cheddars-scratch-kitchen-1743354865935888/", "contact:instagram": "http://instagram.com/cheddars_restaurants/", "contact:linkedin": "https://linkedin.com/company/223105?trk=tyah&trkinfo=clickedvertical%3acompany%2cclickedentityid%3a223105%2cidx%3a2-1-2%2ctarid%3a1454620173838%2ctas%3acheddars", "contact:phone": "+1-405-741-2188", "contact:website": "http://cheddars.com/location/midwest-city/", "cuisine": "american", "name": "Cheddar's", "official_name": "Cheddar's Scratch Kitchen", "opening_hours": "Mo-Th 10:30-23:00; Fr,Sa 10:30-24:00; Su 10:30-23:00", "source": "Bing"}}}, {"type": "Feature", "geometry": {"type": "Polygon", "coordinates": [[[-97.3951346, 35.4376379], [-97.3950836, 35.4376401], [-97.3950112, 35.4375767], [-97.3948959, 35.437675], [-97.3946625, 35.4376707], [-97.3946599, 35.4376117], [-97.3946277, 35.4376117], [-97.394625, 35.4371615], [-97.3948449, 35.4371593], [-97.3948476, 35.4371243], [-97.3950568, 35.4371221], [-97.3950595, 35.4371505], [-97.395266, 35.4371527], [-97.395268, 35.4373829], [-97.3951343, 35.437385], [-97.3951346, 35.4376379]]]}, "properties": {"osm_id": 249994726, "building": "yes", "name": "Marshalls", "height": null, "height_m": null, "levels": null, "tract_id": "40109107605", "tract_name": "1076.05", "tags": {"brand": "Marshalls", "brand:wikidata": "Q15903261", "building": "yes", "name": "Marshalls", "shop": "department_store", "source": "Bing"}}}, {"type": "Feature", "geometry": {"type": "Polygon", "coordinates": [[[-97.3970695, 35.4359172], [-97.39707, 35.4357933], [-97.3970882, 35.4357934], [-97.3970887, 35.4356612], [-97.3970706, 35.4356611], [-97.3970707, 35.4356307], [-97.3970081, 35.4356305], [-97.3970082, 35.4356153], [-97.3969587, 35.4356152], [-97.3969585, 35.4356623], [-97.3968418, 35.435662], [-97.3968408, 35.4359165], [-97.3970695, 35.4359172]]]}, "properties": {"osm_id": 249994728, "building": "yes", "name": "Bricktown Brewery", "height": null, "height_m": null, "levels": null, "tract_id": "40109107605", "tract_name": "1076.05", "tags": {"addr:city": "Midwest City", "addr:country": "US", "addr:housenumber": "7301", "addr:postcode": "73110", "addr:state": "OK", "addr:street": "Southeast 29th Street", "amenity": "restaurant", "building": "yes", "cuisine": "italian", "name": "Bricktown Brewery"}}}, {"type": "Feature", "geometry": {"type": "Polygon", "coordinates": [[[-97.3931076, 35.4383907], [-97.3931076, 35.4382204], [-97.3930423, 35.4382185], [-97.3930411, 35.4381319], [-97.3928625, 35.4381319], [-97.3928648, 35.4381833], [-97.3928216, 35.4381833], [-97.3928204, 35.4381424], [-97.3926687, 35.4381434], [-97.3926687, 35.4381643], [-97.3925356, 35.4381643], [-97.3925356, 35.4382489], [-97.3926313, 35.4382489], [-97.3926313, 35.4382033], [-97.3926733, 35.4382042], [-97.3926757, 35.4383916], [-97.3931076, 35.4383907]]]}, "properties": {"osm_id": 481137371, "building": "yes", "name": "Christ Gospel Church", "height": null, "height_m": null, "levels": null, "tract_id": "40109107605", "tract_name": "1076.05", "tags": {"amenity": "place_of_worship", "building": "yes", "name": "Christ Gospel Church", "religion": "christian"}}}, {"type": "Feature", "geometry": {"type": "Polygon", "coordinates": [[[-97.3922332, 35.4386522], [-97.3922355, 35.4384915], [-97.392253, 35.4384924], [-97.392253, 35.4384192], [-97.3920907, 35.4384202], [-97.3920919, 35.4384963], [-97.3920487, 35.4384953], [-97.3920475, 35.4384858], [-97.3918818, 35.4384867], [-97.3918794, 35.4384135], [-97.3917253, 35.4384125], [-97.3917335, 35.4386494], [-97.3922332, 35.4386522]]]}, "properties": {"osm_id": 481137372, "building": "yes", "name": "Greater Love Missonary Baptist Church", "height": null, "height_m": null, "levels": null, "tract_id": "40109107605", "tract_name": "1076.05", "tags": {"amenity": "place_of_worship", "building": "yes", "name": "Greater Love Missonary Baptist Church", "religion": "christian"}}}, {"type": "Feature", "geometry": {"type": "Polygon", "coordinates": [[[-97.3889505, 35.4360305], [-97.388947, 35.435865], [-97.3887719, 35.4358659], [-97.3887719, 35.4360295], [-97.3889505, 35.4360305]]]}, "properties": {"osm_id": 481137379, "building": "yes", "name": "", "height": null, "height_m": null, "levels": null, "tract_id": "40109107605", "tract_name": "1076.05", "tags": {"building": "yes"}}}, {"type": "Feature", "geometry": {"type": "Polygon", "coordinates": [[[-97.3888408, 35.4368131], [-97.3889728, 35.436815], [-97.3889739, 35.4366315], [-97.3888712, 35.4366305], [-97.3888689, 35.4367351], [-97.3888397, 35.4367351], [-97.3888408, 35.4368131]]]}, "properties": {"osm_id": 481137380, "building": "yes", "name": "", "height": null, "height_m": null, "levels": null, "tract_id": "40109107605", "tract_name": "1076.05", "tags": {"building": "yes"}}}, {"type": "Feature", "geometry": {"type": "Polygon", "coordinates": [[[-97.3887895, 35.4372136], [-97.3889903, 35.4372146], [-97.3889879, 35.4370633], [-97.3887895, 35.4370624], [-97.3887895, 35.4372136]]]}, "properties": {"osm_id": 481137381, "building": "yes", "name": "", "height": null, "height_m": null, "levels": null, "tract_id": "40109107605", "tract_name": "1076.05", "tags": {"building": "yes"}}}, {"type": "Feature", "geometry": {"type": "Polygon", "coordinates": [[[-97.3892533, 35.436092], [-97.3892502, 35.4356439], [-97.3896292, 35.4356414], [-97.3896231, 35.4355009], [-97.3901499, 35.4354983], [-97.3901468, 35.4356352], [-97.3901253, 35.4356339], [-97.3901268, 35.4356979], [-97.3898634, 35.4357004], [-97.3898649, 35.4360883], [-97.3892533, 35.436092]]]}, "properties": {"osm_id": 481137383, "building": "yes", "name": "", "height": null, "height_m": null, "levels": null, "tract_id": "40109107605", "tract_name": "1076.05", "tags": {"building": "yes"}}}, {"type": "Feature", "geometry": {"type": "Polygon", "coordinates": [[[-97.390934, 35.4356502], [-97.390934, 35.4355787], [-97.3910465, 35.4355787], [-97.391048, 35.435649], [-97.390934, 35.4356502]]]}, "properties": {"osm_id": 481137384, "building": "yes", "name": "", "height": null, "height_m": null, "levels": null, "tract_id": "40109107605", "tract_name": "1076.05", "tags": {"building": "yes"}}}, {"type": "Feature", "geometry": {"type": "Polygon", "coordinates": [[[-97.39249, 35.4362753], [-97.39249, 35.4361109], [-97.3919816, 35.4361046], [-97.3919831, 35.436274], [-97.39249, 35.4362753]]]}, "properties": {"osm_id": 481137385, "building": "yes", "name": "", "height": null, "height_m": null, "levels": null, "tract_id": "40109107605", "tract_name": "1076.05", "tags": {"building": "yes"}}}, {"type": "Feature", "geometry": {"type": "Polygon", "coordinates": [[[-97.3916704, 35.4362778], [-97.3916658, 35.4355197], [-97.3913808, 35.4355197], [-97.3913854, 35.4357494], [-97.391427, 35.4357494], [-97.3914301, 35.4360443], [-97.3915595, 35.4360469], [-97.3915595, 35.4362778], [-97.3916704, 35.4362778]]]}, "properties": {"osm_id": 481137386, "building": "commercial", "name": "U-Haul Truck Sales of Midwest City", "height": null, "height_m": null, "levels": null, "tract_id": "40109107605", "tract_name": "1076.05", "tags": {"addr:city": "Midwest City", "addr:housenumber": "7519", "addr:postcode": "73110", "addr:state": "OK", "addr:street": "Southeast 29th Street", "building": "commercial", "name": "U-Haul Truck Sales of Midwest City"}}}, {"type": "Feature", "geometry": {"type": "Polygon", "coordinates": [[[-97.3899767, 35.4494111], [-97.3899752, 35.4491852], [-97.3903125, 35.4491839], [-97.390311, 35.4494098], [-97.3899767, 35.4494111]]]}, "properties": {"osm_id": 489705476, "building": "yes", "name": "", "height": null, "height_m": null, "levels": null, "tract_id": "40109107605", "tract_name": "1076.05", "tags": {"building": "yes"}}}, {"type": "Feature", "geometry": {"type": "Polygon", "coordinates": [[[-97.3925769, 35.449414], [-97.392583, 35.4491532], [-97.3926541, 35.4491532], [-97.3926541, 35.4489007], [-97.3922374, 35.448899], [-97.3922405, 35.4491698], [-97.3921693, 35.449169], [-97.3921683, 35.4492393], [-97.3922384, 35.4492393], [-97.3922394, 35.4494132], [-97.3925769, 35.449414]]]}, "properties": {"osm_id": 489705480, "building": "yes", "name": "The Oklahoma Journal", "height": null, "height_m": null, "levels": null, "tract_id": "40109107605", "tract_name": "1076.05", "tags": {"building": "yes", "name": "The Oklahoma Journal", "office": "newspaper"}}}, {"type": "Feature", "geometry": {"type": "Polygon", "coordinates": [[[-97.3913074, 35.4490481], [-97.3916134, 35.4490489], [-97.3916154, 35.4488709], [-97.3913044, 35.4488725], [-97.3913074, 35.4490481]]]}, "properties": {"osm_id": 489705481, "building": "yes", "name": "", "height": null, "height_m": null, "levels": null, "tract_id": "40109107605", "tract_name": "1076.05", "tags": {"building": "yes"}}}, {"type": "Feature", "geometry": {"type": "Polygon", "coordinates": [[[-97.3912678, 35.4492137], [-97.3912688, 35.4490646], [-97.3915768, 35.4490663], [-97.3915747, 35.4491011], [-97.391593, 35.4491011], [-97.391593, 35.4492162], [-97.3915768, 35.4492302], [-97.3913847, 35.4492286], [-97.3913837, 35.4492137], [-97.3912678, 35.4492137]]]}, "properties": {"osm_id": 489705482, "building": "yes", "name": "7-Eleven", "height": null, "height_m": null, "levels": null, "tract_id": "40109107605", "tract_name": "1076.05", "tags": {"brand": "7-Eleven", "brand:wikidata": "Q259340", "building": "yes", "name": "7-Eleven", "shop": "convenience"}}}, {"type": "Feature", "geometry": {"type": "Polygon", "coordinates": [[[-97.397992, 35.4375467], [-97.3985279, 35.4375503], [-97.3985072, 35.4375985], [-97.3986196, 35.437625], [-97.3986189, 35.4371105], [-97.3984126, 35.4371105], [-97.3984126, 35.437085], [-97.3981594, 35.4370841], [-97.3981594, 35.4370737], [-97.3979897, 35.4370737], [-97.3979889, 35.4371134], [-97.397992, 35.4375467]]]}, "properties": {"osm_id": 491838004, "building": "yes", "name": "Best Buy", "height": null, "height_m": null, "levels": null, "tract_id": "40109107605", "tract_name": "1076.05", "tags": {"addr:city": "Midwest City", "addr:housenumber": "7231", "addr:postcode": "73110", "addr:state": "OK", "addr:street": "Southeast 29th Street", "brand": "Best Buy", "brand:wikidata": "Q533415", "building": "yes", "name": "Best Buy", "phone": "+1 405-733-4289", "shop": "electronics", "website": "https://stores.bestbuy.com/ok/midwest-city/7231-se-29th-st-1427.html"}}}, {"type": "Feature", "geometry": {"type": "Polygon", "coordinates": [[[-97.3903915, 35.4436688], [-97.3895861, 35.4436692], [-97.3895857, 35.4429288], [-97.3897315, 35.4429287], [-97.3897314, 35.4426765], [-97.3899617, 35.4426764], [-97.3899618, 35.4426982], [-97.3900811, 35.4426981], [-97.3900812, 35.4427638], [-97.3903281, 35.4427635], [-97.3903282, 35.4428073], [-97.3904022, 35.4428072], [-97.3904027, 35.4430224], [-97.3902951, 35.4430225], [-97.3902953, 35.4431045], [-97.3903965, 35.4431044], [-97.390397, 35.4433046], [-97.3902918, 35.4433048], [-97.390292, 35.4433905], [-97.3903908, 35.4433904], [-97.3903915, 35.4436688]]]}, "properties": {"osm_id": 492121351, "building": "school", "name": "", "height": null, "height_m": null, "levels": null, "tract_id": "40109107605", "tract_name": "1076.05", "tags": {"building": "school"}}}, {"type": "Feature", "geometry": {"type": "Polygon", "coordinates": [[[-97.3918809, 35.4454501], [-97.391937, 35.4451652], [-97.3918936, 35.4451595], [-97.3918584, 35.4450862], [-97.3918412, 35.4450916], [-97.3918308, 35.44507], [-97.3917975, 35.4450806], [-97.3917407, 35.4449624], [-97.3916236, 35.4449997], [-97.3917297, 35.4452207], [-97.3916897, 35.4454238], [-97.3917461, 35.4454311], [-97.3917391, 35.4454668], [-97.3918024, 35.4454751], [-97.3918092, 35.4454407], [-97.3918809, 35.4454501]]]}, "properties": {"osm_id": 492223559, "building": "yes", "name": "", "height": null, "height_m": null, "levels": null, "tract_id": "40109107605", "tract_name": "1076.05", "tags": {"amenity": "place_of_worship", "building": "yes", "religion": "christian"}}}, {"type": "Feature", "geometry": {"type": "Polygon", "coordinates": [[[-97.3920004, 35.4445816], [-97.3918881, 35.4445824], [-97.3918863, 35.4444025], [-97.3916901, 35.4444038], [-97.3916885, 35.4442512], [-97.3919239, 35.4442496], [-97.3919236, 35.4442249], [-97.3919907, 35.4442244], [-97.3919922, 35.4443725], [-97.3920224, 35.4443723], [-97.392023, 35.4444263], [-97.3919988, 35.4444264], [-97.3920004, 35.4445816]]]}, "properties": {"osm_id": 492223560, "building": "yes", "name": "Masonic Lodge", "height": null, "height_m": null, "levels": null, "tract_id": "40109107605", "tract_name": "1076.05", "tags": {"addr:city": "Midwest City", "addr:housenumber": "814", "addr:postcode": "73110", "addr:state": "OK", "addr:street": "North Key Boulevard", "building": "yes", "club": "freemasonry", "name": "Masonic Lodge"}}}, {"type": "Feature", "geometry": {"type": "Polygon", "coordinates": [[[-97.3928137, 35.4363161], [-97.3928161, 35.4358946], [-97.3927191, 35.4358942], [-97.3927168, 35.4363157], [-97.3928137, 35.4363161]]]}, "properties": {"osm_id": 493738780, "building": "commercial", "name": "", "height": null, "height_m": null, "levels": null, "tract_id": "40109107605", "tract_name": "1076.05", "tags": {"building": "commercial"}}}]}