{"type": "FeatureCollection", "features": [{"type": "Feature", "geometry": {"type": "Polygon", "coordinates": [[[-94.9722067, 35.8506993], [-94.9720417, 35.8506993], [-94.9720417, 35.8506069], [-94.9722067, 35.8506069], [-94.9722067, 35.8506993]]]}, "properties": {"osm_id": 545317786, "building": "yes", "name": "", "height": null, "height_m": null, "levels": null, "tract_id": "40021978302", "tract_name": "9783.02", "tags": {"building": "yes"}}}, {"type": "Feature", "geometry": {"type": "Polygon", "coordinates": [[[-94.972102, 35.8509428], [-94.972102, 35.8507721], [-94.9723381, 35.8507721], [-94.9723381, 35.8507243], [-94.9724454, 35.8507243], [-94.9724454, 35.8508058], [-94.972491, 35.8508058], [-94.972491, 35.8506449], [-94.9726076, 35.8506449], [-94.9726076, 35.8508058], [-94.9727122, 35.8508058], [-94.9727122, 35.8509428], [-94.972102, 35.8509428]]]}, "properties": {"osm_id": 545317789, "building": "yes", "name": "", "height": null, "height_m": null, "levels": null, "tract_id": "40021978302", "tract_name": "9783.02", "tags": {"building": "yes"}}}, {"type": "Feature", "geometry": {"type": "Polygon", "coordinates": [[[-94.9723662, 35.8512319], [-94.9723662, 35.8509678], [-94.9727149, 35.8509678], [-94.9727149, 35.8510558], [-94.9727941, 35.8510558], [-94.9727941, 35.851133], [-94.9727149, 35.851133], [-94.9727149, 35.8512319], [-94.9723662, 35.8512319]]]}, "properties": {"osm_id": 545317791, "building": "church", "name": "Park Hill Baptist Church", "height": null, "height_m": null, "levels": null, "tract_id": "40021978302", "tract_name": "9783.02", "tags": {"amenity": "place_of_worship", "building": "church", "denomination": "baptist", "name": "Park Hill Baptist Church", "religion": "christian"}}}, {"type": "Feature", "geometry": {"type": "Polygon", "coordinates": [[[-95.0444131, 35.8261602], [-95.0443337, 35.826165], [-95.044327, 35.8260921], [-95.0444064, 35.8260873], [-95.0444131, 35.8261602]]]}, "properties": {"osm_id": 607493504, "building": "yes", "name": "", "height": null, "height_m": null, "levels": null, "tract_id": "40021978302", "tract_name": "9783.02", "tags": {"building": "yes"}}}, {"type": "Feature", "geometry": {"type": "Polygon", "coordinates": [[[-95.0445794, 35.8258876], [-95.0447014, 35.8258851], [-95.0447055, 35.8260134], [-95.0445576, 35.8260165], [-95.0445547, 35.825927], [-95.0444278, 35.8259297], [-95.0444236, 35.8257984], [-95.0445765, 35.8257952], [-95.0445794, 35.8258876]]]}, "properties": {"osm_id": 607493505, "building": "yes", "name": "", "height": null, "height_m": null, "levels": null, "tract_id": "40021978302", "tract_name": "9783.02", "tags": {"building": "yes"}}}, {"type": "Feature", "geometry": {"type": "Polygon", "coordinates": [[[-95.0467032, 35.826448], [-95.0466877, 35.8264277], [-95.0466291, 35.826457], [-95.0465763, 35.8263879], [-95.0466456, 35.8263531], [-95.0466454, 35.8263529], [-95.0467004, 35.8263254], [-95.0466998, 35.8263246], [-95.0467725, 35.8262882], [-95.046822, 35.8263532], [-95.0467665, 35.826381], [-95.046786, 35.8264065], [-95.0467032, 35.826448]]]}, "properties": {"osm_id": 607493506, "building": "yes", "name": "", "height": null, "height_m": null, "levels": null, "tract_id": "40021978302", "tract_name": "9783.02", "tags": {"building": "yes"}}}, {"type": "Feature", "geometry": {"type": "Polygon", "coordinates": [[[-95.0460318, 35.8269246], [-95.0458641, 35.8268224], [-95.0460071, 35.8266683], [-95.0461747, 35.8267705], [-95.0460318, 35.8269246]]]}, "properties": {"osm_id": 607493507, "building": "yes", "name": "", "height": null, "height_m": null, "levels": null, "tract_id": "40021978302", "tract_name": "9783.02", "tags": {"building": "yes"}}}, {"type": "Feature", "geometry": {"type": "Polygon", "coordinates": [[[-95.0454538, 35.8278777], [-95.0453988, 35.8279434], [-95.0453237, 35.8279021], [-95.0453814, 35.8278332], [-95.0454378, 35.8278642], [-95.0454819, 35.8278097], [-95.0455248, 35.8278325], [-95.0454779, 35.8278905], [-95.0454538, 35.8278777]]]}, "properties": {"osm_id": 607493551, "building": "yes", "name": "", "height": null, "height_m": null, "levels": null, "tract_id": "40021978302", "tract_name": "9783.02", "tags": {"building": "yes"}}}, {"type": "Feature", "geometry": {"type": "Polygon", "coordinates": [[[-95.0456428, 35.827615], [-95.0455681, 35.8275705], [-95.045654, 35.8274759], [-95.0457287, 35.8275204], [-95.0456428, 35.827615]]]}, "properties": {"osm_id": 607493552, "building": "yes", "name": "", "height": null, "height_m": null, "levels": null, "tract_id": "40021978302", "tract_name": "9783.02", "tags": {"building": "yes"}}}, {"type": "Feature", "geometry": {"type": "Polygon", "coordinates": [[[-95.0455449, 35.8277292], [-95.0454775, 35.8276885], [-95.0455674, 35.8275907], [-95.0456348, 35.8276314], [-95.0455449, 35.8277292]]]}, "properties": {"osm_id": 607493553, "building": "yes", "name": "", "height": null, "height_m": null, "levels": null, "tract_id": "40021978302", "tract_name": "9783.02", "tags": {"building": "yes"}}}, {"type": "Feature", "geometry": {"type": "Polygon", "coordinates": [[[-95.0428158, 35.8294657], [-95.0427619, 35.8293189], [-95.0430274, 35.8292548], [-95.0430813, 35.8294016], [-95.0428158, 35.8294657]]]}, "properties": {"osm_id": 607493554, "building": "yes", "name": "", "height": null, "height_m": null, "levels": null, "tract_id": "40021978302", "tract_name": "9783.02", "tags": {"building": "yes"}}}, {"type": "Feature", "geometry": {"type": "Polygon", "coordinates": [[[-95.0410268, 35.8322372], [-95.0410227, 35.8321731], [-95.0410864, 35.8321705], [-95.0410904, 35.8322346], [-95.0410268, 35.8322372]]]}, "properties": {"osm_id": 607493556, "building": "yes", "name": "", "height": null, "height_m": null, "levels": null, "tract_id": "40021978302", "tract_name": "9783.02", "tags": {"building": "yes"}}}, {"type": "Feature", "geometry": {"type": "Polygon", "coordinates": [[[-95.0396951, 35.8326058], [-95.039691, 35.8324329], [-95.0398643, 35.8324303], [-95.0398683, 35.8326032], [-95.0396951, 35.8326058]]]}, "properties": {"osm_id": 607493557, "building": "yes", "name": "", "height": null, "height_m": null, "levels": null, "tract_id": "40021978302", "tract_name": "9783.02", "tags": {"building": "yes"}}}, {"type": "Feature", "geometry": {"type": "Polygon", "coordinates": [[[-95.0735113, 35.8069485], [-95.0736171, 35.8069054], [-95.0736843, 35.807014], [-95.0734227, 35.8071205], [-95.0733554, 35.8070117], [-95.0734098, 35.8069895], [-95.0733823, 35.806945], [-95.0734836, 35.8069037], [-95.0735113, 35.8069485]]]}, "properties": {"osm_id": 607522899, "building": "yes", "name": "", "height": null, "height_m": null, "levels": null, "tract_id": "40021978302", "tract_name": "9783.02", "tags": {"building": "yes"}}}, {"type": "Feature", "geometry": {"type": "Polygon", "coordinates": [[[-95.0893267, 35.8017343], [-95.0891279, 35.8017266], [-95.0891326, 35.8016467], [-95.0893314, 35.8016543], [-95.0893267, 35.8017343]]]}, "properties": {"osm_id": 607522900, "building": "yes", "name": "", "height": null, "height_m": null, "levels": null, "tract_id": "40021978302", "tract_name": "9783.02", "tags": {"building": "yes"}}}, {"type": "Feature", "geometry": {"type": "Polygon", "coordinates": [[[-95.0893267, 35.8017343], [-95.0893629, 35.8015918], [-95.0894564, 35.8016074], [-95.0894201, 35.8017499], [-95.0893267, 35.8017343]]]}, "properties": {"osm_id": 607522901, "building": "yes", "name": "", "height": null, "height_m": null, "levels": null, "tract_id": "40021978302", "tract_name": "9783.02", "tags": {"building": "yes"}}}, {"type": "Feature", "geometry": {"type": "Polygon", "coordinates": [[[-95.0902359, 35.8016766], [-95.0898148, 35.801669], [-95.0898196, 35.8014932], [-95.0902407, 35.8015008], [-95.0902359, 35.8016766]]]}, "properties": {"osm_id": 607522902, "building": "yes", "name": "", "height": null, "height_m": null, "levels": null, "tract_id": "40021978302", "tract_name": "9783.02", "tags": {"building": "yes"}}}, {"type": "Feature", "geometry": {"type": "Polygon", "coordinates": [[[-95.0018766, 35.8492177], [-95.0019708, 35.8491274], [-95.0021353, 35.8491237], [-95.0022242, 35.8490416], [-95.0024874, 35.8487983], [-95.0020534, 35.8484898], [-95.0016999, 35.8488165], [-95.0017106, 35.8489556], [-95.0016204, 35.8490421], [-95.0018766, 35.8492177]]]}, "properties": {"osm_id": 977385825, "building": "yes", "name": "", "height": null, "height_m": null, "levels": null, "tract_id": "40021978302", "tract_name": "9783.02", "tags": {"building": "yes", "leisure": "sports_hall"}}}, {"type": "Feature", "geometry": {"type": "Polygon", "coordinates": [[[-95.001028, 35.8487197], [-95.0008303, 35.848592], [-95.0008894, 35.8485319], [-95.0009228, 35.8485534], [-95.0010159, 35.8484587], [-95.0009932, 35.848444], [-95.0010374, 35.8483991], [-95.0010964, 35.848373], [-95.0011635, 35.8483752], [-95.0012144, 35.8484078], [-95.0012252, 35.8484773], [-95.0011957, 35.848473], [-95.0011577, 35.8485116], [-95.0013762, 35.8486529], [-95.0012428, 35.8487885], [-95.0010701, 35.8486769], [-95.001028, 35.8487197]]]}, "properties": {"osm_id": 977385828, "building": "yes", "name": "", "height": null, "height_m": null, "levels": null, "tract_id": "40021978302", "tract_name": "9783.02", "tags": {"addr:city": "Tahlequah", "addr:housenumber": "17135", "addr:postcode": "74464", "addr:state": "OK", "addr:street": "West 805 Road", "building": "yes"}}}, {"type": "Feature", "geometry": {"type": "Polygon", "coordinates": [[[-95.0003819, 35.8488822], [-95.0003659, 35.8488713], [-95.0002317, 35.8487797], [-95.0002927, 35.8487209], [-95.0002112, 35.8486653], [-95.0000858, 35.848786], [-94.9999622, 35.8487016], [-95.000431, 35.8482502], [-95.0004601, 35.8482701], [-95.0005109, 35.8482212], [-95.0007468, 35.8483821], [-95.0006365, 35.8484884], [-95.0005067, 35.8483999], [-95.00052, 35.8483871], [-95.0004834, 35.8483622], [-95.0004732, 35.848372], [-95.0005019, 35.8483916], [-95.0003464, 35.8485414], [-95.0004254, 35.8485953], [-95.0004793, 35.8485434], [-95.0006282, 35.848645], [-95.0003819, 35.8488822]]]}, "properties": {"osm_id": 977385829, "building": "yes", "name": "", "height": null, "height_m": null, "levels": null, "tract_id": "40021978302", "tract_name": "9783.02", "tags": {"addr:city": "Tahlequah", "addr:housenumber": "17901", "addr:postcode": "74464", "addr:state": "OK", "addr:street": "South Muskogee Avenue", "building": "yes"}}}, {"type": "Feature", "geometry": {"type": "Polygon", "coordinates": [[[-94.9994131, 35.8489909], [-94.9995311, 35.8488808], [-94.9993898, 35.8487813], [-94.9994558, 35.8487198], [-94.9995158, 35.848762], [-94.9996323, 35.8486534], [-94.9996589, 35.8486284], [-94.9993577, 35.8484177], [-94.9992224, 35.8485447], [-94.9992941, 35.8485949], [-94.9992209, 35.8486637], [-94.9990417, 35.8485383], [-94.9990072, 35.8485707], [-94.9989799, 35.8485515], [-94.9990329, 35.8485018], [-94.9990574, 35.8485191], [-94.9991438, 35.8484382], [-94.9990208, 35.8483517], [-94.9988247, 35.8485349], [-94.9988834, 35.8485762], [-94.9988579, 35.8486], [-94.9994131, 35.8489909]]]}, "properties": {"osm_id": 977385832, "building": "yes", "name": "", "height": null, "height_m": null, "levels": null, "tract_id": "40021978302", "tract_name": "9783.02", "tags": {"addr:city": "Tahlequah", "addr:housenumber": "17901", "addr:postcode": "74464", "addr:state": "OK", "addr:street": "South Muskogee Avenue", "building": "yes"}}}, {"type": "Feature", "geometry": {"type": "Polygon", "coordinates": [[[-95.0002033, 35.8468689], [-95.0001194, 35.8468055], [-95.00019, 35.8467441], [-95.0002738, 35.8468075], [-95.0002033, 35.8468689]]]}, "properties": {"osm_id": 977411829, "building": "yes", "name": "", "height": null, "height_m": null, "levels": null, "tract_id": "40021978302", "tract_name": "9783.02", "tags": {"building": "yes"}}}, {"type": "Feature", "geometry": {"type": "Polygon", "coordinates": [[[-95.0011984, 35.8464688], [-95.0011398, 35.8464273], [-95.0011824, 35.8463878], [-95.001241, 35.8464293], [-95.0011984, 35.8464688]]]}, "properties": {"osm_id": 977411830, "building": "yes", "name": "", "height": null, "height_m": null, "levels": null, "tract_id": "40021978302", "tract_name": "9783.02", "tags": {"addr:city": "Tahlequah", "addr:housenumber": "22740", "addr:postcode": "74464", "addr:state": "OK", "addr:street": "South 500 Road", "building": "yes"}}}, {"type": "Feature", "geometry": {"type": "Polygon", "coordinates": [[[-95.0022738, 35.8467913], [-95.0024075, 35.8466793], [-95.0021585, 35.846484], [-95.0020136, 35.8466055], [-95.0021549, 35.8467163], [-95.0021367, 35.8467315], [-95.0021988, 35.8467802], [-95.0022283, 35.8467555], [-95.0022738, 35.8467913]]]}, "properties": {"osm_id": 977411831, "building": "yes", "name": "", "height": null, "height_m": null, "levels": null, "tract_id": "40021978302", "tract_name": "9783.02", "tags": {"addr:city": "Tahlequah", "addr:housenumber": "22707", "addr:postcode": "74464", "addr:state": "OK", "addr:street": "South 500 Road", "building": "yes"}}}, {"type": "Feature", "geometry": {"type": "Polygon", "coordinates": [[[-95.0020588, 35.8472078], [-95.0020785, 35.8471886], [-95.0021068, 35.8472077], [-95.00223, 35.8470877], [-95.002198, 35.8470661], [-95.0022268, 35.8470381], [-95.0020124, 35.8468935], [-95.001982, 35.8469231], [-95.0019452, 35.8468983], [-95.0018427, 35.8469982], [-95.0018711, 35.8470174], [-95.0018323, 35.8470552], [-95.0020588, 35.8472078]]]}, "properties": {"osm_id": 977411835, "building": "yes", "name": "", "height": null, "height_m": null, "levels": null, "tract_id": "40021978302", "tract_name": "9783.02", "tags": {"addr:city": "Tahlequah", "addr:housenumber": "22690", "addr:postcode": "74464", "addr:state": "OK", "addr:street": "South 500 Road", "building": "yes", "leisure": "sports_hall"}}}, {"type": "Feature", "geometry": {"type": "Polygon", "coordinates": [[[-95.0022113, 35.8471384], [-95.0019786, 35.8473584], [-95.0022256, 35.84753], [-95.0022788, 35.8474797], [-95.0024483, 35.8475974], [-95.0025224, 35.8475273], [-95.002438, 35.8474687], [-95.0026221, 35.8472945], [-95.0023685, 35.8471185], [-95.0022899, 35.8471929], [-95.0022113, 35.8471384]]]}, "properties": {"osm_id": 977411836, "building": "yes", "name": "", "height": null, "height_m": null, "levels": null, "tract_id": "40021978302", "tract_name": "9783.02", "tags": {"addr:city": "Tahlequah", "addr:housenumber": "22682", "addr:postcode": "74464", "addr:state": "OK", "addr:street": "South 500 Road", "building": "yes"}}}, {"type": "Feature", "geometry": {"type": "Polygon", "coordinates": [[[-95.0009759, 35.8480595], [-95.0011244, 35.847916], [-95.0012831, 35.8480238], [-95.0012489, 35.8480568], [-95.0013126, 35.8481001], [-95.0011983, 35.8482106], [-95.0009759, 35.8480595]]]}, "properties": {"osm_id": 977411839, "building": "yes", "name": "", "height": null, "height_m": null, "levels": null, "tract_id": "40021978302", "tract_name": "9783.02", "tags": {"building": "yes"}}}, {"type": "Feature", "geometry": {"type": "Polygon", "coordinates": [[[-95.0008377, 35.8482862], [-95.0006046, 35.8481198], [-95.0006957, 35.8480359], [-95.0009288, 35.8482023], [-95.0008377, 35.8482862]]]}, "properties": {"osm_id": 977411845, "building": "yes", "name": "", "height": null, "height_m": null, "levels": null, "tract_id": "40021978302", "tract_name": "9783.02", "tags": {"building": "yes"}}}, {"type": "Feature", "geometry": {"type": "Polygon", "coordinates": [[[-94.9994193, 35.848323], [-94.9993532, 35.8482775], [-94.9997676, 35.8478818], [-94.9998294, 35.8479243], [-94.9997998, 35.8479525], [-94.9998847, 35.848011], [-94.9998072, 35.848085], [-94.9997175, 35.8480232], [-94.9996581, 35.8480799], [-94.9997509, 35.8481437], [-94.9996734, 35.8482176], [-94.9995861, 35.8481575], [-94.99953, 35.848211], [-94.9996183, 35.8482718], [-94.9995346, 35.8483516], [-94.9994502, 35.8482935], [-94.9994193, 35.848323]]]}, "properties": {"osm_id": 977411847, "building": "yes", "name": "", "height": null, "height_m": null, "levels": null, "tract_id": "40021978302", "tract_name": "9783.02", "tags": {"addr:city": "Tahlequah", "addr:housenumber": "17219", "addr:postcode": "74464", "addr:state": "OK", "addr:street": "West 805 Road", "building": "yes"}}}, {"type": "Feature", "geometry": {"type": "Polygon", "coordinates": [[[-94.9910089, 35.8516722], [-94.990266, 35.8516787], [-94.9902623, 35.8514046], [-94.9907273, 35.8514005], [-94.9907261, 35.8513123], [-94.9910041, 35.8513099], [-94.9910089, 35.8516722]]]}, "properties": {"osm_id": 1009961738, "building": "yes", "name": "", "height": null, "height_m": null, "levels": null, "tract_id": "40021978302", "tract_name": "9783.02", "tags": {"building": "yes"}}}, {"type": "Feature", "geometry": {"type": "Polygon", "coordinates": [[[-94.9916299, 35.8518146], [-94.991937, 35.8523015], [-94.9914783, 35.8524831], [-94.9908507, 35.8524852], [-94.9907555, 35.8525624], [-94.9907568, 35.8525983], [-94.9906153, 35.8526407], [-94.9905127, 35.8525994], [-94.9905127, 35.8525771], [-94.9902707, 35.8525782], [-94.9902653, 35.8524374], [-94.9901044, 35.8524363], [-94.9900943, 35.8522852], [-94.9900661, 35.8522863], [-94.9900755, 35.8520537], [-94.990671, 35.8520537], [-94.990675, 35.8519678], [-94.990958, 35.8519711], [-94.9909607, 35.8519504], [-94.9912651, 35.8519483], [-94.9913885, 35.8518993], [-94.9913965, 35.8519124], [-94.9916299, 35.8518146]]]}, "properties": {"osm_id": 1009961739, "building": "yes", "name": "Cherokee Nation", "height": null, "height_m": null, "levels": null, "tract_id": "40021978302", "tract_name": "9783.02", "tags": {"addr:city": "Tahlequah", "addr:housenumber": "17675", "addr:postcode": "74464", "addr:street": "South Muskogee Avenue", "building": "yes", "government": "administrative", "name": "Cherokee Nation", "office": "government", "phone": "+1-918-453-5000"}}}, {"type": "Feature", "geometry": {"type": "Polygon", "coordinates": [[[-94.991449, 35.8508579], [-94.9913789, 35.8504951], [-94.9915861, 35.8504688], [-94.9916563, 35.8508315], [-94.991449, 35.8508579]]]}, "properties": {"osm_id": 1010078045, "building": "yes", "name": "", "height": null, "height_m": null, "levels": null, "tract_id": "40021978302", "tract_name": "9783.02", "tags": {"building": "yes"}}}, {"type": "Feature", "geometry": {"type": "Polygon", "coordinates": [[[-94.9924292, 35.8513137], [-94.9920921, 35.8513622], [-94.9920735, 35.8512771], [-94.9924105, 35.8512286], [-94.9924292, 35.8513137]]]}, "properties": {"osm_id": 1010078047, "building": "yes", "name": "", "height": null, "height_m": null, "levels": null, "tract_id": "40021978302", "tract_name": "9783.02", "tags": {"building": "yes"}}}, {"type": "Feature", "geometry": {"type": "Polygon", "coordinates": [[[-94.9914552, 35.8499963], [-94.9912125, 35.8500173], [-94.9911863, 35.849819], [-94.991429, 35.8497979], [-94.9914552, 35.8499963]]]}, "properties": {"osm_id": 1010078057, "building": "yes", "name": "", "height": null, "height_m": null, "levels": null, "tract_id": "40021978302", "tract_name": "9783.02", "tags": {"building": "yes"}}}, {"type": "Feature", "geometry": {"type": "Polygon", "coordinates": [[[-94.9895239, 35.851677], [-94.9888474, 35.8516859], [-94.988842, 35.8514136], [-94.988788, 35.8514143], [-94.988786, 35.851314], [-94.9889893, 35.8513114], [-94.9889901, 35.8513508], [-94.9895172, 35.8513439], [-94.9895239, 35.851677]]]}, "properties": {"osm_id": 1010078062, "building": "yes", "name": "", "height": null, "height_m": null, "levels": null, "tract_id": "40021978302", "tract_name": "9783.02", "tags": {"building": "yes"}}}, {"type": "Feature", "geometry": {"type": "Polygon", "coordinates": [[[-94.9896096, 35.8513299], [-94.9892524, 35.8513314], [-94.9892516, 35.8512069], [-94.9896088, 35.8512055], [-94.9896096, 35.8513299]]]}, "properties": {"osm_id": 1010078063, "building": "yes", "name": "", "height": null, "height_m": null, "levels": null, "tract_id": "40021978302", "tract_name": "9783.02", "tags": {"building": "yes"}}}, {"type": "Feature", "geometry": {"type": "Polygon", "coordinates": [[[-94.9887581, 35.8516927], [-94.9887541, 35.8513502], [-94.9887181, 35.8513504], [-94.9887166, 35.8512184], [-94.9885384, 35.8512198], [-94.9885387, 35.8512473], [-94.9884594, 35.8512479], [-94.9884607, 35.8513611], [-94.9882783, 35.8513625], [-94.9882803, 35.8515344], [-94.988338, 35.8515339], [-94.9883399, 35.8516959], [-94.9887581, 35.8516927]]]}, "properties": {"osm_id": 1010078064, "building": "yes", "name": "", "height": null, "height_m": null, "levels": null, "tract_id": "40021978302", "tract_name": "9783.02", "tags": {"building": "yes"}}}, {"type": "Feature", "geometry": {"type": "Polygon", "coordinates": [[[-94.9879937, 35.8516889], [-94.9874423, 35.851688], [-94.9874427, 35.8514907], [-94.9879942, 35.8514916], [-94.9879937, 35.8516889]]]}, "properties": {"osm_id": 1010078065, "building": "yes", "name": "", "height": null, "height_m": null, "levels": null, "tract_id": "40021978302", "tract_name": "9783.02", "tags": {"building": "yes"}}}, {"type": "Feature", "geometry": {"type": "Polygon", "coordinates": [[[-94.9866278, 35.8516879], [-94.9866301, 35.8511955], [-94.9858617, 35.851193], [-94.9858593, 35.8516855], [-94.9866278, 35.8516879]]]}, "properties": {"osm_id": 1010078071, "building": "yes", "name": "", "height": null, "height_m": null, "levels": null, "tract_id": "40021978302", "tract_name": "9783.02", "tags": {"building": "yes"}}}, {"type": "Feature", "geometry": {"type": "Polygon", "coordinates": [[[-94.987519, 35.8513591], [-94.9875134, 35.8512027], [-94.9876323, 35.8511998], [-94.987638, 35.8513563], [-94.987519, 35.8513591]]]}, "properties": {"osm_id": 1010078072, "building": "yes", "name": "", "height": null, "height_m": null, "levels": null, "tract_id": "40021978302", "tract_name": "9783.02", "tags": {"building": "yes"}}}, {"type": "Feature", "geometry": {"type": "Polygon", "coordinates": [[[-94.9879966, 35.8512104], [-94.9879982, 35.8510663], [-94.9878274, 35.8510651], [-94.9878259, 35.8512092], [-94.9879966, 35.8512104]]]}, "properties": {"osm_id": 1010078073, "building": "yes", "name": "", "height": null, "height_m": null, "levels": null, "tract_id": "40021978302", "tract_name": "9783.02", "tags": {"building": "yes"}}}, {"type": "Feature", "geometry": {"type": "Polygon", "coordinates": [[[-94.9889239, 35.8524902], [-94.9889277, 35.8521983], [-94.9886304, 35.8521958], [-94.9886266, 35.8524848], [-94.9886968, 35.8524854], [-94.9886964, 35.8525194], [-94.98876, 35.8525257], [-94.9888306, 35.8525206], [-94.988831, 35.8524894], [-94.9889239, 35.8524902]]]}, "properties": {"osm_id": 1010078076, "building": "yes", "name": "", "height": null, "height_m": null, "levels": null, "tract_id": "40021978302", "tract_name": "9783.02", "tags": {"building": "yes"}}}, {"type": "Feature", "geometry": {"type": "Polygon", "coordinates": [[[-94.9876696, 35.8540668], [-94.9873826, 35.8541799], [-94.9872907, 35.8540265], [-94.9875777, 35.8539135], [-94.9876696, 35.8540668]]]}, "properties": {"osm_id": 1010084687, "building": "yes", "name": "", "height": null, "height_m": null, "levels": null, "tract_id": "40021978302", "tract_name": "9783.02", "tags": {"building": "yes"}}}, {"type": "Feature", "geometry": {"type": "Polygon", "coordinates": [[[-94.987797, 35.8538407], [-94.9876086, 35.8539097], [-94.987457, 35.853638], [-94.9876454, 35.853569], [-94.987797, 35.8538407]]]}, "properties": {"osm_id": 1010084688, "building": "yes", "name": "", "height": null, "height_m": null, "levels": null, "tract_id": "40021978302", "tract_name": "9783.02", "tags": {"building": "yes"}}}, {"type": "Feature", "geometry": {"type": "Polygon", "coordinates": [[[-94.9887022, 35.8535016], [-94.9884396, 35.8536024], [-94.9884037, 35.8535411], [-94.9882851, 35.8535866], [-94.9882624, 35.8535477], [-94.9880606, 35.8536252], [-94.9880066, 35.8535329], [-94.9880338, 35.8535225], [-94.9879784, 35.8534276], [-94.9880358, 35.8534055], [-94.987966, 35.8532861], [-94.9881062, 35.8532323], [-94.9881106, 35.85324], [-94.988146, 35.8532264], [-94.9882283, 35.8533671], [-94.9883868, 35.8533062], [-94.9883046, 35.8531655], [-94.9883363, 35.8531533], [-94.9883318, 35.8531457], [-94.9885615, 35.8530574], [-94.9886413, 35.8531939], [-94.9885236, 35.8532391], [-94.9885412, 35.8532692], [-94.9886111, 35.8532424], [-94.9886699, 35.8533429], [-94.9886206, 35.8533619], [-94.9887022, 35.8535016]]]}, "properties": {"osm_id": 1010084689, "building": "yes", "name": "", "height": null, "height_m": null, "levels": null, "tract_id": "40021978302", "tract_name": "9783.02", "tags": {"building": "yes"}}}, {"type": "Feature", "geometry": {"type": "Polygon", "coordinates": [[[-94.9883106, 35.8525961], [-94.9884027, 35.8527536], [-94.9881298, 35.8528584], [-94.9882947, 35.8531404], [-94.9881017, 35.8532145], [-94.9879368, 35.8529325], [-94.9876611, 35.8530384], [-94.987569, 35.8528809], [-94.9883106, 35.8525961]]]}, "properties": {"osm_id": 1010084690, "building": "yes", "name": "", "height": null, "height_m": null, "levels": null, "tract_id": "40021978302", "tract_name": "9783.02", "tags": {"building": "yes"}}}, {"type": "Feature", "geometry": {"type": "Polygon", "coordinates": [[[-94.9893916, 35.85302], [-94.9890764, 35.8531483], [-94.988983, 35.8529976], [-94.9891125, 35.8529449], [-94.9891433, 35.8529946], [-94.989329, 35.852919], [-94.9893916, 35.85302]]]}, "properties": {"osm_id": 1010084691, "building": "yes", "name": "", "height": null, "height_m": null, "levels": null, "tract_id": "40021978302", "tract_name": "9783.02", "tags": {"building": "yes"}}}, {"type": "Feature", "geometry": {"type": "Polygon", "coordinates": [[[-94.9895565, 35.853307], [-94.9892521, 35.8534255], [-94.9891607, 35.8532713], [-94.9894652, 35.8531528], [-94.9895565, 35.853307]]]}, "properties": {"osm_id": 1010084692, "building": "yes", "name": "", "height": null, "height_m": null, "levels": null, "tract_id": "40021978302", "tract_name": "9783.02", "tags": {"building": "yes"}}}, {"type": "Feature", "geometry": {"type": "Polygon", "coordinates": [[[-95.0045824, 35.8454498], [-95.0042953, 35.84533], [-95.0042032, 35.8454751], [-95.0044903, 35.8455948], [-95.0045824, 35.8454498]]]}, "properties": {"osm_id": 1153575707, "building": "yes", "name": "", "height": null, "height_m": null, "levels": null, "tract_id": "40021978302", "tract_name": "9783.02", "tags": {"building": "yes"}}}, {"type": "Feature", "geometry": {"type": "Polygon", "coordinates": [[[-95.0044576, 35.8456561], [-95.0042236, 35.8455527], [-95.0040965, 35.8457418], [-95.0044215, 35.8458855], [-95.0044998, 35.8457692], [-95.0044087, 35.8457289], [-95.0044576, 35.8456561]]]}, "properties": {"osm_id": 1153575713, "building": "yes", "name": "Cherokee Immersion Charter School \u13e3\u13b3\u13a9 \u13e7\u13be\u13d5\u13b6\u13c6\u13cd\u13d7", "height": null, "height_m": null, "levels": null, "tract_id": "40021978302", "tract_name": "9783.02", "tags": {"addr:city": "Tahlequah", "addr:housenumber": "17091", "addr:postcode": "74464", "addr:state": "OK", "addr:street": "South Muskogee Avenue", "amenity": "language_school", "building": "yes", "language:ch": "yes", "name": "Cherokee Immersion Charter School \u13e3\u13b3\u13a9 \u13e7\u13be\u13d5\u13b6\u13c6\u13cd\u13d7", "name:chr": "\u13e3\u13b3\u13a9 \u13e7\u13be\u13d5\u13b6\u13c6\u13cd\u13d7", "phone": "+1-918-207-4900", "wikidata": "Q25706177", "wikipedia": "en:Cherokee Immersion School"}}}, {"type": "Feature", "geometry": {"type": "Polygon", "coordinates": [[[-95.0054069, 35.8455255], [-95.0050941, 35.8455247], [-95.0050929, 35.8458064], [-95.0047092, 35.8458054], [-95.0047083, 35.846007], [-95.0051473, 35.8460082], [-95.0051474, 35.8459712], [-95.0054504, 35.845972], [-95.0054502, 35.846023], [-95.0059848, 35.8460244], [-95.0059856, 35.845825], [-95.0055957, 35.845824], [-95.0055962, 35.8456932], [-95.0054062, 35.8456927], [-95.0054069, 35.8455255]]]}, "properties": {"osm_id": 1153575714, "building": "school", "name": "Cherokee Nation Child Development Center", "height": null, "height_m": null, "levels": null, "tract_id": "40021978302", "tract_name": "9783.02", "tags": {"addr:city": "Tahlequah", "addr:housenumber": "16947", "addr:postcode": "74464", "addr:state": "OK", "addr:street": "Cherokee Street", "addr:town": "Park Hill", "amenity": "childcare", "building": "school", "name": "Cherokee Nation Child Development Center", "website": "https://childcare.cherokee.org"}}}, {"type": "Feature", "geometry": {"type": "Polygon", "coordinates": [[[-95.006664, 35.8456814], [-95.0065149, 35.8456948], [-95.0065366, 35.8458539], [-95.0066858, 35.8458405], [-95.006664, 35.8456814]]]}, "properties": {"osm_id": 1153575715, "building": "yes", "name": "", "height": null, "height_m": null, "levels": null, "tract_id": "40021978302", "tract_name": "9783.02", "tags": {"building": "yes"}}}, {"type": "Feature", "geometry": {"type": "Polygon", "coordinates": [[[-95.0063895, 35.8469332], [-95.0063036, 35.846927], [-95.0063155, 35.8468355], [-95.0063571, 35.846666], [-95.0064731, 35.846484], [-95.0066804, 35.8462758], [-95.0068799, 35.8461672], [-95.007088, 35.8461197], [-95.0072339, 35.846113], [-95.0072359, 35.8461652], [-95.0070039, 35.846216], [-95.0068404, 35.846267], [-95.0067209, 35.8463345], [-95.0065684, 35.8464806], [-95.0064496, 35.8466265], [-95.0064108, 35.8467698], [-95.0063895, 35.8469332]]]}, "properties": {"osm_id": 1153575716, "building": "yes", "name": "", "height": null, "height_m": null, "levels": null, "tract_id": "40021978302", "tract_name": "9783.02", "tags": {"building": "yes"}}}, {"type": "Feature", "geometry": {"type": "Polygon", "coordinates": [[[-95.0118635, 35.8479657], [-95.0115187, 35.8479694], [-95.0115196, 35.8480253], [-95.0108213, 35.8480329], [-95.0108203, 35.8479721], [-95.0107085, 35.8478926], [-95.0104655, 35.8478954], [-95.0104743, 35.848398], [-95.0108063, 35.8483942], [-95.0108051, 35.8483253], [-95.0110395, 35.8483226], [-95.011042, 35.84847], [-95.0112409, 35.8484677], [-95.0112386, 35.8483306], [-95.0115219, 35.8483274], [-95.0115234, 35.8484164], [-95.0117519, 35.8484139], [-95.0117511, 35.8483717], [-95.0118702, 35.8483704], [-95.0118635, 35.8479657]]]}, "properties": {"osm_id": 1153575717, "building": "yes", "name": "Cherokee Immersion Charter School \u13e3\u13b3\u13a9 \u13e7\u13be\u13d5\u13b6\u13c6\u13cd\u13d7", "height": null, "height_m": null, "levels": null, "tract_id": "40021978302", "tract_name": "9783.02", "tags": {"addr:city": "Tahlequah", "addr:housenumber": "16489", "addr:postcode": "74465", "addr:state": "OK", "addr:street": "Highway 62", "amenity": "language_school", "building": "yes", "language:ch": "yes", "layer": "1", "name": "Cherokee Immersion Charter School \u13e3\u13b3\u13a9 \u13e7\u13be\u13d5\u13b6\u13c6\u13cd\u13d7", "name:chr": "\u13e3\u13b3\u13a9 \u13e7\u13be\u13d5\u13b6\u13c6\u13cd\u13d7", "phone": "+1-918-207-4900", "website": "https://www.cwyschools.org/", "wikidata": "Q25706177", "wikipedia": "en:Cherokee Immersion School"}}}, {"type": "Feature", "geometry": {"type": "Polygon", "coordinates": [[[-95.0095441, 35.6691813], [-95.0094438, 35.6693002], [-95.0093653, 35.6692577], [-95.009209, 35.6691729], [-95.0093066, 35.6690544], [-95.0095441, 35.6691813]]]}, "properties": {"osm_id": 1383271090, "building": "yes", "name": "", "height": null, "height_m": null, "levels": null, "tract_id": "40021978302", "tract_name": "9783.02", "tags": {"building": "yes"}}}, {"type": "Feature", "geometry": {"type": "Polygon", "coordinates": [[[-95.0090491, 35.668991], [-95.0089147, 35.6690584], [-95.0088945, 35.6690685], [-95.008727, 35.6688633], [-95.0088897, 35.6687774], [-95.0090491, 35.668991]]]}, "properties": {"osm_id": 1383271091, "building": "yes", "name": "", "height": null, "height_m": null, "levels": null, "tract_id": "40021978302", "tract_name": "9783.02", "tags": {"building": "yes"}}}, {"type": "Feature", "geometry": {"type": "Polygon", "coordinates": [[[-95.0084891, 35.6693809], [-95.0084149, 35.6693898], [-95.0083897, 35.669246], [-95.0084664, 35.6692382], [-95.0084738, 35.6692792], [-95.0085554, 35.6692699], [-95.0085639, 35.6693348], [-95.0084827, 35.6693437], [-95.0084891, 35.6693809]]]}, "properties": {"osm_id": 1383271092, "building": "yes", "name": "", "height": null, "height_m": null, "levels": null, "tract_id": "40021978302", "tract_name": "9783.02", "tags": {"building": "yes"}}}, {"type": "Feature", "geometry": {"type": "Polygon", "coordinates": [[[-95.0089212, 35.6695829], [-95.0087846, 35.6696334], [-95.0087089, 35.6695007], [-95.0088435, 35.6694506], [-95.0089212, 35.6695829]]]}, "properties": {"osm_id": 1383271093, "building": "yes", "name": "", "height": null, "height_m": null, "levels": null, "tract_id": "40021978302", "tract_name": "9783.02", "tags": {"building": "yes"}}}, {"type": "Feature", "geometry": {"type": "Polygon", "coordinates": [[[-95.0087983, 35.6698043], [-95.0085935, 35.6698579], [-95.0085248, 35.6696911], [-95.0087347, 35.6696365], [-95.0087699, 35.6697293], [-95.0087983, 35.6698043]]]}, "properties": {"osm_id": 1383271094, "building": "chapel", "name": "", "height": null, "height_m": null, "levels": null, "tract_id": "40021978302", "tract_name": "9783.02", "tags": {"building": "chapel"}}}, {"type": "Feature", "geometry": {"type": "Polygon", "coordinates": [[[-95.0093787, 35.6697636], [-95.009236, 35.6697636], [-95.0092436, 35.6696512], [-95.0092148, 35.6696508], [-95.0092152, 35.6696219], [-95.0092167, 35.6695062], [-95.0093227, 35.6695091], [-95.0094013, 35.6695112], [-95.0093979, 35.669549], [-95.0093898, 35.6696394], [-95.0093787, 35.6697636]]]}, "properties": {"osm_id": 1383271096, "building": "yes", "name": "", "height": null, "height_m": null, "levels": null, "tract_id": "40021978302", "tract_name": "9783.02", "tags": {"building": "yes"}}}, {"type": "Feature", "geometry": {"type": "Polygon", "coordinates": [[[-95.0095396, 35.6697093], [-95.0094328, 35.6697074], [-95.0094318, 35.6696424], [-95.0093898, 35.6696394], [-95.0093979, 35.669549], [-95.0095425, 35.6695498], [-95.0095396, 35.6697093]]]}, "properties": {"osm_id": 1383271097, "building": "yes", "name": "", "height": null, "height_m": null, "levels": null, "tract_id": "40021978302", "tract_name": "9783.02", "tags": {"building": "yes"}}}, {"type": "Feature", "geometry": {"type": "Polygon", "coordinates": [[[-95.0095441, 35.6704916], [-95.0094189, 35.6705452], [-95.0092941, 35.6703547], [-95.009384, 35.6703176], [-95.0093976, 35.670341], [-95.009417, 35.6703742], [-95.0094683, 35.6703536], [-95.0095441, 35.6704916]]]}, "properties": {"osm_id": 1383271098, "building": "house", "name": "", "height": null, "height_m": null, "levels": null, "tract_id": "40021978302", "tract_name": "9783.02", "tags": {"building": "house"}}}, {"type": "Feature", "geometry": {"type": "Polygon", "coordinates": [[[-95.0087358, 35.6702022], [-95.0084925, 35.67005], [-95.0086045, 35.6699307], [-95.0086553, 35.669962], [-95.0086916, 35.6699265], [-95.0088389, 35.6700209], [-95.008798, 35.6700569], [-95.0088596, 35.6700963], [-95.0087358, 35.6702022]]]}, "properties": {"osm_id": 1383271100, "building": "yes", "name": "", "height": null, "height_m": null, "levels": null, "tract_id": "40021978302", "tract_name": "9783.02", "tags": {"building": "yes"}}}, {"type": "Feature", "geometry": {"type": "Polygon", "coordinates": [[[-95.0076961, 35.6703972], [-95.007594, 35.6704251], [-95.0075375, 35.6702939], [-95.0076434, 35.6702691], [-95.0076961, 35.6703972]]]}, "properties": {"osm_id": 1383271101, "building": "shed", "name": "", "height": null, "height_m": null, "levels": null, "tract_id": "40021978302", "tract_name": "9783.02", "tags": {"building": "shed"}}}, {"type": "Feature", "geometry": {"type": "Polygon", "coordinates": [[[-95.0079589, 35.67012], [-95.0077974, 35.6701124], [-95.0078007, 35.6700745], [-95.0078359, 35.6700761], [-95.0078954, 35.6700787], [-95.0078939, 35.6700902], [-95.0079631, 35.6700944], [-95.0079589, 35.67012]]]}, "properties": {"osm_id": 1383271106, "building": "yes", "name": "", "height": null, "height_m": null, "levels": null, "tract_id": "40021978302", "tract_name": "9783.02", "tags": {"building": "yes"}}}, {"type": "Feature", "geometry": {"type": "Polygon", "coordinates": [[[-94.9972581, 35.8476157], [-94.9969987, 35.8474614], [-94.9969601, 35.8474905], [-94.9971118, 35.8475956], [-94.9969325, 35.847779], [-94.9970208, 35.8478349], [-94.9972581, 35.8476157]]]}, "properties": {"osm_id": 1424243303, "building": "yes", "name": "", "height": null, "height_m": null, "levels": null, "tract_id": "40021978302", "tract_name": "9783.02", "tags": {"building": "yes"}}}, {"type": "Feature", "geometry": {"type": "Polygon", "coordinates": [[[-94.9971644, 35.8482369], [-94.9970456, 35.8481592], [-94.9969473, 35.8482566], [-94.997061, 35.848329], [-94.9971644, 35.8482369]]]}, "properties": {"osm_id": 1424243304, "building": "school", "name": "Plant Management", "height": null, "height_m": null, "levels": null, "tract_id": "40021978302", "tract_name": "9783.02", "tags": {"addr:city": "Tahlequah", "addr:housenumber": "22548", "addr:postcode": "74464", "addr:state": "OK", "addr:street": "South 504 Road", "building": "school", "name": "Plant Management"}}}, {"type": "Feature", "geometry": {"type": "Polygon", "coordinates": [[[-94.9978048, 35.8483229], [-94.9977116, 35.8482604], [-94.9975676, 35.8483952], [-94.9976649, 35.848461], [-94.9978048, 35.8483229]]]}, "properties": {"osm_id": 1424243305, "building": "school", "name": "", "height": null, "height_m": null, "levels": null, "tract_id": "40021978302", "tract_name": "9783.02", "tags": {"addr:city": "Tahlequah", "addr:housenumber": "22573", "addr:postcode": "74464", "addr:state": "OK", "addr:street": "South 504 Road", "building": "school"}}}, {"type": "Feature", "geometry": {"type": "Polygon", "coordinates": [[[-95.0022416, 35.8427462], [-95.00227, 35.8425917], [-95.0021524, 35.8425752], [-95.0021219, 35.8427314], [-95.0022416, 35.8427462]]]}, "properties": {"osm_id": 1424243306, "building": "yes", "name": "", "height": null, "height_m": null, "levels": null, "tract_id": "40021978302", "tract_name": "9783.02", "tags": {"addr:city": "Tahlequah", "addr:housenumber": "22971", "addr:postcode": "74464", "addr:state": "OK", "addr:street": "South 504 Road", "building": "yes"}}}, {"type": "Feature", "geometry": {"type": "Polygon", "coordinates": [[[-94.9663139, 35.7906359], [-94.9660796, 35.7906484], [-94.9660467, 35.7902398], [-94.9659482, 35.7902398], [-94.9659504, 35.7903321], [-94.9655627, 35.7903517], [-94.9655584, 35.7902717], [-94.9652517, 35.7902824], [-94.9652211, 35.7900266], [-94.9655102, 35.7900088], [-94.9654948, 35.7899466], [-94.9659066, 35.789936], [-94.9659197, 35.7900035], [-94.9660073, 35.7899999], [-94.9659723, 35.7893781], [-94.9662198, 35.7893693], [-94.9662657, 35.789991], [-94.9663096, 35.789991], [-94.966338, 35.7902202], [-94.9662833, 35.7902255], [-94.9663139, 35.7906359]]]}, "properties": {"osm_id": 1424815398, "building": "school", "name": "Keys High School", "height": null, "height_m": null, "levels": null, "tract_id": "40021978302", "tract_name": "9783.02", "tags": {"addr:city": "Park Hill", "addr:housenumber": "26622", "addr:postcode": "74451", "addr:state": "OK", "addr:street": "South 520 Road", "building": "school", "name": "Keys High School"}}}, {"type": "Feature", "geometry": {"type": "Polygon", "coordinates": [[[-94.9646881, 35.7902751], [-94.96462, 35.7900712], [-94.9642037, 35.7902131], [-94.9642841, 35.7904012], [-94.9646881, 35.7902751]]]}, "properties": {"osm_id": 1424815407, "building": "school", "name": "", "height": null, "height_m": null, "levels": null, "tract_id": "40021978302", "tract_name": "9783.02", "tags": {"building": "school"}}}, {"type": "Feature", "geometry": {"type": "Polygon", "coordinates": [[[-94.9644119, 35.7914933], [-94.9642463, 35.7914901], [-94.9642314, 35.7911154], [-94.9644119, 35.7911154], [-94.9644119, 35.7914933]]]}, "properties": {"osm_id": 1424815408, "building": "grandstand", "name": "", "height": null, "height_m": null, "levels": null, "tract_id": "40021978302", "tract_name": "9783.02", "tags": {"building": "grandstand"}}}, {"type": "Feature", "geometry": {"type": "Polygon", "coordinates": [[[-94.9644111, 35.7908343], [-94.9644111, 35.7906672], [-94.9642984, 35.7906672], [-94.9642984, 35.7908343], [-94.9644111, 35.7908343]]]}, "properties": {"osm_id": 1424815409, "building": "school", "name": "", "height": null, "height_m": null, "levels": null, "tract_id": "40021978302", "tract_name": "9783.02", "tags": {"building": "school"}}}, {"type": "Feature", "geometry": {"type": "Polygon", "coordinates": [[[-94.9659683, 35.7892907], [-94.9655754, 35.7893217], [-94.9655511, 35.7891215], [-94.9659439, 35.7890905], [-94.9659683, 35.7892907]]]}, "properties": {"osm_id": 1424815412, "building": "school", "name": "", "height": null, "height_m": null, "levels": null, "tract_id": "40021978302", "tract_name": "9783.02", "tags": {"building": "school"}}}, {"type": "Feature", "geometry": {"type": "Polygon", "coordinates": [[[-95.0022705, 35.8425603], [-95.0021309, 35.842549], [-95.0021449, 35.8424585], [-95.0022864, 35.8424795], [-95.0022705, 35.8425603]]]}, "properties": {"osm_id": 1426913926, "building": "yes", "name": "", "height": null, "height_m": null, "levels": null, "tract_id": "40021978302", "tract_name": "9783.02", "tags": {"building": "yes"}}}, {"type": "Feature", "geometry": {"type": "Polygon", "coordinates": [[[-95.0022804, 35.8433086], [-95.002095, 35.8433667], [-95.0020591, 35.8432956], [-95.0022406, 35.843231], [-95.0022804, 35.8433086]]]}, "properties": {"osm_id": 1426913927, "building": "yes", "name": "", "height": null, "height_m": null, "levels": null, "tract_id": "40021978302", "tract_name": "9783.02", "tags": {"building": "yes"}}}, {"type": "Feature", "geometry": {"type": "Polygon", "coordinates": [[[-95.002115, 35.8435187], [-95.0019375, 35.8434734], [-95.0019655, 35.8433942], [-95.0021469, 35.8434314], [-95.002115, 35.8435187]]]}, "properties": {"osm_id": 1426913928, "building": "yes", "name": "", "height": null, "height_m": null, "levels": null, "tract_id": "40021978302", "tract_name": "9783.02", "tags": {"building": "yes"}}}, {"type": "Feature", "geometry": {"type": "Polygon", "coordinates": [[[-95.0018678, 35.8434944], [-95.0016684, 35.8434556], [-95.0016963, 35.8433425], [-95.0019017, 35.8433861], [-95.0018678, 35.8434944]]]}, "properties": {"osm_id": 1426913929, "building": "yes", "name": "", "height": null, "height_m": null, "levels": null, "tract_id": "40021978302", "tract_name": "9783.02", "tags": {"building": "yes"}}}, {"type": "Feature", "geometry": {"type": "Polygon", "coordinates": [[[-94.9969191, 35.8466785], [-94.9968759, 35.8467121], [-94.9968142, 35.8466655], [-94.9968539, 35.8466304], [-94.9969191, 35.8466785]]]}, "properties": {"osm_id": 1426913968, "building": "yes", "name": "", "height": null, "height_m": null, "levels": null, "tract_id": "40021978302", "tract_name": "9783.02", "tags": {"building": "yes"}}}, {"type": "Feature", "geometry": {"type": "Polygon", "coordinates": [[[-94.9965902, 35.8467823], [-94.9965451, 35.8467568], [-94.9965813, 35.8467251], [-94.9966216, 35.8467505], [-94.9965902, 35.8467823]]]}, "properties": {"osm_id": 1426913969, "building": "yes", "name": "", "height": null, "height_m": null, "levels": null, "tract_id": "40021978302", "tract_name": "9783.02", "tags": {"building": "yes"}}}, {"type": "Feature", "geometry": {"type": "Polygon", "coordinates": [[[-94.9950796, 35.8422857], [-94.9950377, 35.8423101], [-94.9950067, 35.8422734], [-94.9950553, 35.842249], [-94.9950796, 35.8422857]]]}, "properties": {"osm_id": 1426914872, "building": "yes", "name": "", "height": null, "height_m": null, "levels": null, "tract_id": "40021978302", "tract_name": "9783.02", "tags": {"building": "yes"}}}]}