{"type": "FeatureCollection", "features": [{"type": "Feature", "geometry": {"type": "Polygon", "coordinates": [[[-95.2751669, 34.6140853], [-95.2750705, 34.6140774], [-95.2750859, 34.613951], [-95.2751822, 34.6139589], [-95.2751669, 34.6140853]]]}, "properties": {"osm_id": 111467946, "building": "yes", "name": "Tuskahoma", "height": null, "height_m": null, "levels": null, "tract_id": "40127097600", "tract_name": "976", "tags": {"amenity": "post_office", "building": "yes", "name": "Tuskahoma", "operator": "United States Postal Service", "operator:short": "USPS", "operator:type": "public", "operator:website": "https://www.usps.com", "operator:wikidata": "Q668687", "operator:wikipedia": "en:United States Postal Service"}}}, {"type": "Feature", "geometry": {"type": "Polygon", "coordinates": [[[-95.3538851, 34.5873425], [-95.3536808, 34.5872988], [-95.3537248, 34.5871594], [-95.3539291, 34.5872031], [-95.3538851, 34.5873425]]]}, "properties": {"osm_id": 111468932, "building": "yes", "name": "Clayton", "height": null, "height_m": null, "levels": null, "tract_id": "40127097600", "tract_name": "976", "tags": {"amenity": "post_office", "building": "yes", "name": "Clayton", "operator": "United States Postal Service", "operator:short": "USPS", "operator:type": "public", "operator:website": "https://www.usps.com", "operator:wikidata": "Q668687", "operator:wikipedia": "en:United States Postal Service"}}}, {"type": "Feature", "geometry": {"type": "Polygon", "coordinates": [[[-95.1003318, 34.6651427], [-95.1001639, 34.6651671], [-95.1001386, 34.6650492], [-95.1003065, 34.6650248], [-95.1003318, 34.6651427]]]}, "properties": {"osm_id": 296036313, "building": "yes", "name": "Albion Fire Department", "height": null, "height_m": null, "levels": null, "tract_id": "40127097600", "tract_name": "976", "tags": {"amenity": "fire_station", "building": "yes", "name": "Albion Fire Department"}}}, {"type": "Feature", "geometry": {"type": "Polygon", "coordinates": [[[-95.2102842, 34.4832013], [-95.2102815, 34.482947], [-95.2098148, 34.4829404], [-95.2098121, 34.483188], [-95.2102842, 34.4832013]]]}, "properties": {"osm_id": 350210208, "building": "yes", "name": "", "height": null, "height_m": null, "levels": null, "tract_id": "40127097600", "tract_name": "976", "tags": {"building": "yes", "ele": "704 feet", "power": "substation", "substation": "distribution"}}}, {"type": "Feature", "geometry": {"type": "Polygon", "coordinates": [[[-95.0965362, 34.6631496], [-95.0965461, 34.6628883], [-95.0964542, 34.6628859], [-95.0964443, 34.6631473], [-95.0965362, 34.6631496]]]}, "properties": {"osm_id": 916304821, "building": "yes", "name": "Church of Christ", "height": null, "height_m": null, "levels": null, "tract_id": "40127097600", "tract_name": "976", "tags": {"amenity": "place_of_worship", "building": "yes", "denomination": "church_of_christ", "name": "Church of Christ", "operator": "Church of Christ", "religion": "christian"}}}, {"type": "Feature", "geometry": {"type": "Polygon", "coordinates": [[[-95.0973222, 34.6596506], [-95.0973231, 34.6595505], [-95.0970421, 34.6595488], [-95.0970412, 34.6596489], [-95.0973222, 34.6596506]]]}, "properties": {"osm_id": 916304822, "building": "yes", "name": "Trinity Gospel Church", "height": null, "height_m": null, "levels": null, "tract_id": "40127097600", "tract_name": "976", "tags": {"amenity": "place_of_worship", "building": "yes", "name": "Trinity Gospel Church", "operator": "Trinity Gospel Church", "religion": "christian"}}}, {"type": "Feature", "geometry": {"type": "Polygon", "coordinates": [[[-95.1000948, 34.6622365], [-95.1002061, 34.6622349], [-95.1002026, 34.662065], [-95.1000913, 34.6620666], [-95.1000948, 34.6622365]]]}, "properties": {"osm_id": 916477167, "building": "yes", "name": "", "height": null, "height_m": null, "levels": null, "tract_id": "40127097600", "tract_name": "976", "tags": {"building": "yes"}}}, {"type": "Feature", "geometry": {"type": "Polygon", "coordinates": [[[-95.0983147, 34.6633757], [-95.0983094, 34.6637199], [-95.0986374, 34.6637297], [-95.0986398, 34.6636151], [-95.098549, 34.6636138], [-95.0985514, 34.6634947], [-95.0986422, 34.663496], [-95.0986445, 34.663381], [-95.0983147, 34.6633757]]]}, "properties": {"osm_id": 916477172, "building": "yes", "name": "Albion First Baptist Church", "height": null, "height_m": null, "levels": null, "tract_id": "40127097600", "tract_name": "976", "tags": {"amenity": "place_of_worship", "building": "yes", "denomination": "baptist", "name": "Albion First Baptist Church", "operator": "Albion First Baptist Church", "religion": "christian"}}}, {"type": "Feature", "geometry": {"type": "Polygon", "coordinates": [[[-95.0973066, 34.6626161], [-95.0973181, 34.6625035], [-95.0974038, 34.6625094], [-95.0973922, 34.662622], [-95.0973066, 34.6626161]]]}, "properties": {"osm_id": 916477184, "building": "yes", "name": "Rural Water District #2", "height": null, "height_m": null, "levels": null, "tract_id": "40127097600", "tract_name": "976", "tags": {"building": "yes", "name": "Rural Water District #2", "office": "water_utility", "operator": "Rural Water District #2"}}}, {"type": "Feature", "geometry": {"type": "Polygon", "coordinates": [[[-95.331974, 34.6588069], [-95.3319608, 34.6588262], [-95.3319417, 34.6588174], [-95.3319548, 34.6587981], [-95.331974, 34.6588069]]]}, "properties": {"osm_id": 1023933557, "building": "yes", "name": "", "height": null, "height_m": null, "levels": null, "tract_id": "40127097600", "tract_name": "976", "tags": {"building": "yes"}}}, {"type": "Feature", "geometry": {"type": "Polygon", "coordinates": [[[-95.3316243, 34.6591808], [-95.3316111, 34.6592001], [-95.331592, 34.6591913], [-95.3316051, 34.659172], [-95.3316243, 34.6591808]]]}, "properties": {"osm_id": 1023933558, "building": "yes", "name": "", "height": null, "height_m": null, "levels": null, "tract_id": "40127097600", "tract_name": "976", "tags": {"building": "yes"}}}, {"type": "Feature", "geometry": {"type": "Polygon", "coordinates": [[[-95.3311259, 34.659671], [-95.3310565, 34.6596799], [-95.3310275, 34.6595272], [-95.331095, 34.6595186], [-95.3311031, 34.6595611], [-95.3310912, 34.6595626], [-95.331106, 34.6596401], [-95.3311197, 34.6596383], [-95.3311259, 34.659671]]]}, "properties": {"osm_id": 1023933579, "building": "yes", "name": "", "height": null, "height_m": null, "levels": null, "tract_id": "40127097600", "tract_name": "976", "tags": {"building": "yes"}}}, {"type": "Feature", "geometry": {"type": "Polygon", "coordinates": [[[-95.388384, 34.5693028], [-95.3883494, 34.5693126], [-95.3883379, 34.569285], [-95.3883726, 34.5692752], [-95.388384, 34.5693028]]]}, "properties": {"osm_id": 1023937375, "building": "yes", "name": "", "height": null, "height_m": null, "levels": null, "tract_id": "40127097600", "tract_name": "976", "tags": {"building": "yes"}}}, {"type": "Feature", "geometry": {"type": "Polygon", "coordinates": [[[-95.3889829, 34.5689553], [-95.3889769, 34.5689337], [-95.3888856, 34.5689506], [-95.3888915, 34.5689722], [-95.3889829, 34.5689553]]]}, "properties": {"osm_id": 1023937377, "building": "yes", "name": "", "height": null, "height_m": null, "levels": null, "tract_id": "40127097600", "tract_name": "976", "tags": {"building": "yes"}}}, {"type": "Feature", "geometry": {"type": "Polygon", "coordinates": [[[-95.3888866, 34.5689776], [-95.3888803, 34.5689568], [-95.3887764, 34.5689781], [-95.3887827, 34.5689989], [-95.3888866, 34.5689776]]]}, "properties": {"osm_id": 1023937378, "building": "yes", "name": "", "height": null, "height_m": null, "levels": null, "tract_id": "40127097600", "tract_name": "976", "tags": {"building": "yes"}}}, {"type": "Feature", "geometry": {"type": "Polygon", "coordinates": [[[-95.3889592, 34.5682221], [-95.3888624, 34.5682449], [-95.3888738, 34.5682776], [-95.388845, 34.5682844], [-95.3888316, 34.5682457], [-95.3886709, 34.5682836], [-95.388639, 34.5681918], [-95.3887219, 34.5681723], [-95.3887156, 34.5681542], [-95.3889189, 34.5681062], [-95.3889592, 34.5682221]]]}, "properties": {"osm_id": 1023937379, "building": "yes", "name": "", "height": null, "height_m": null, "levels": null, "tract_id": "40127097600", "tract_name": "976", "tags": {"building": "yes"}}}, {"type": "Feature", "geometry": {"type": "Polygon", "coordinates": [[[-95.3888222, 34.5683166], [-95.3888135, 34.5682913], [-95.3887569, 34.5683045], [-95.3887656, 34.5683298], [-95.3888222, 34.5683166]]]}, "properties": {"osm_id": 1023937380, "building": "yes", "name": "", "height": null, "height_m": null, "levels": null, "tract_id": "40127097600", "tract_name": "976", "tags": {"building": "yes"}}}, {"type": "Feature", "geometry": {"type": "Polygon", "coordinates": [[[-95.3336062, 34.6592021], [-95.3336306, 34.659135], [-95.3335121, 34.6591058], [-95.3334876, 34.6591729], [-95.3336062, 34.6592021]]]}, "properties": {"osm_id": 1031376152, "building": "yes", "name": "", "height": null, "height_m": null, "levels": null, "tract_id": "40127097600", "tract_name": "976", "tags": {"building": "yes"}}}, {"type": "Feature", "geometry": {"type": "Polygon", "coordinates": [[[-95.3317645, 34.6608314], [-95.3316414, 34.660837], [-95.3316366, 34.6607659], [-95.3317598, 34.6607604], [-95.3317645, 34.6608314]]]}, "properties": {"osm_id": 1031376157, "building": "yes", "name": "", "height": null, "height_m": null, "levels": null, "tract_id": "40127097600", "tract_name": "976", "tags": {"building": "yes"}}}, {"type": "Feature", "geometry": {"type": "Polygon", "coordinates": [[[-95.3345629, 34.6573835], [-95.3345105, 34.6573679], [-95.3345218, 34.6573421], [-95.3345743, 34.6573576], [-95.3345629, 34.6573835]]]}, "properties": {"osm_id": 1031380384, "building": "yes", "name": "", "height": null, "height_m": null, "levels": null, "tract_id": "40127097600", "tract_name": "976", "tags": {"building": "yes"}}}, {"type": "Feature", "geometry": {"type": "Polygon", "coordinates": [[[-95.3336757, 34.6579443], [-95.3336022, 34.6579503], [-95.33359, 34.6578503], [-95.3336635, 34.6578442], [-95.3336757, 34.6579443]]]}, "properties": {"osm_id": 1031380385, "building": "yes", "name": "", "height": null, "height_m": null, "levels": null, "tract_id": "40127097600", "tract_name": "976", "tags": {"building": "yes"}}}, {"type": "Feature", "geometry": {"type": "Polygon", "coordinates": [[[-95.3340647, 34.6594344], [-95.3340861, 34.659383], [-95.3340262, 34.6593661], [-95.3340048, 34.6594175], [-95.3340647, 34.6594344]]]}, "properties": {"osm_id": 1031380390, "building": "yes", "name": "", "height": null, "height_m": null, "levels": null, "tract_id": "40127097600", "tract_name": "976", "tags": {"building": "yes"}}}, {"type": "Feature", "geometry": {"type": "Polygon", "coordinates": [[[-95.3298612, 34.6628851], [-95.329849, 34.6627643], [-95.3299259, 34.662759], [-95.3299381, 34.6628799], [-95.3298612, 34.6628851]]]}, "properties": {"osm_id": 1031380393, "building": "yes", "name": "", "height": null, "height_m": null, "levels": null, "tract_id": "40127097600", "tract_name": "976", "tags": {"building": "yes"}}}, {"type": "Feature", "geometry": {"type": "Polygon", "coordinates": [[[-95.3524286, 34.5896535], [-95.3516789, 34.5896524], [-95.351679, 34.5895752], [-95.352277, 34.589576], [-95.3522771, 34.5895409], [-95.3524288, 34.5895411], [-95.3524286, 34.5896535]]]}, "properties": {"osm_id": 1034021475, "building": "yes", "name": "A&A Motel", "height": null, "height_m": null, "levels": null, "tract_id": "40127097600", "tract_name": "976", "tags": {"building": "yes", "name": "A&A Motel", "tourism": "motel"}}}, {"type": "Feature", "geometry": {"type": "Polygon", "coordinates": [[[-95.3537482, 34.5878948], [-95.3536816, 34.5878577], [-95.3537513, 34.5877727], [-95.3538179, 34.5878098], [-95.3537482, 34.5878948]]]}, "properties": {"osm_id": 1034021476, "building": "yes", "name": "Conoco", "height": null, "height_m": null, "levels": null, "tract_id": "40127097600", "tract_name": "976", "tags": {"amenity": "fuel", "brand": "Conoco", "brand:wikidata": "Q109341187", "building": "yes", "name": "Conoco"}}}, {"type": "Feature", "geometry": {"type": "Polygon", "coordinates": [[[-95.3538032, 34.5875625], [-95.3536801, 34.5877071], [-95.3534572, 34.5875785], [-95.3534864, 34.5875442], [-95.3533687, 34.5874762], [-95.3534625, 34.5873659], [-95.3538032, 34.5875625]]]}, "properties": {"osm_id": 1034021477, "building": "yes", "name": "", "height": null, "height_m": null, "levels": null, "tract_id": "40127097600", "tract_name": "976", "tags": {"building": "yes", "shop": "convenience"}}}, {"type": "Feature", "geometry": {"type": "Polygon", "coordinates": [[[-95.3236322, 34.6214759], [-95.3237651, 34.6213235], [-95.3236489, 34.6212549], [-95.3235837, 34.6213296], [-95.3235273, 34.6212962], [-95.3234751, 34.621356], [-95.3235344, 34.621391], [-95.3235188, 34.6214089], [-95.3236322, 34.6214759]]]}, "properties": {"osm_id": 1150325288, "building": "yes", "name": "", "height": null, "height_m": null, "levels": null, "tract_id": "40127097600", "tract_name": "976", "tags": {"amenity": "place_of_worship", "building": "yes", "denomination": "jehovahs_witness", "religion": "christian"}}}, {"type": "Feature", "geometry": {"type": "Polygon", "coordinates": [[[-95.5106349, 34.5080754], [-95.5107177, 34.5079998], [-95.5106557, 34.5079537], [-95.5105729, 34.5080293], [-95.5106349, 34.5080754]]]}, "properties": {"osm_id": 1164239225, "building": "house", "name": "", "height": null, "height_m": null, "levels": null, "tract_id": "40127097600", "tract_name": "976", "tags": {"addr:city": "Clayton", "addr:housenumber": "173042", "addr:postcode": "74536", "addr:state": "OK", "addr:street": "N 4225 Rd", "building": "house"}}}, {"type": "Feature", "geometry": {"type": "Polygon", "coordinates": [[[-95.0997957, 34.6602081], [-95.0996576, 34.660209], [-95.0996568, 34.6601235], [-95.0997949, 34.6601226], [-95.0997957, 34.6602081]]]}, "properties": {"osm_id": 1358567475, "building": "yes", "name": "", "height": null, "height_m": null, "levels": null, "tract_id": "40127097600", "tract_name": "976", "tags": {"building": "yes"}}}, {"type": "Feature", "geometry": {"type": "Polygon", "coordinates": [[[-95.0992378, 34.6601937], [-95.0990157, 34.6601898], [-95.0990183, 34.6600881], [-95.0991487, 34.6600904], [-95.099148, 34.6601175], [-95.0992398, 34.6601191], [-95.0992378, 34.6601937]]]}, "properties": {"osm_id": 1358567476, "building": "yes", "name": "", "height": null, "height_m": null, "levels": null, "tract_id": "40127097600", "tract_name": "976", "tags": {"building": "yes"}}}, {"type": "Feature", "geometry": {"type": "Polygon", "coordinates": [[[-95.0996185, 34.6605358], [-95.0996204, 34.6604347], [-95.099655, 34.6604352], [-95.0996565, 34.6603538], [-95.0997565, 34.6603551], [-95.0997546, 34.6604514], [-95.0997862, 34.6604518], [-95.0997853, 34.6605007], [-95.0997447, 34.6605002], [-95.099744, 34.6605374], [-95.0996185, 34.6605358]]]}, "properties": {"osm_id": 1358567477, "building": "yes", "name": "", "height": null, "height_m": null, "levels": null, "tract_id": "40127097600", "tract_name": "976", "tags": {"building": "yes"}}}, {"type": "Feature", "geometry": {"type": "Polygon", "coordinates": [[[-95.1021897, 34.6602155], [-95.102052, 34.6602218], [-95.1020436, 34.6600983], [-95.1021813, 34.660092], [-95.1021897, 34.6602155]]]}, "properties": {"osm_id": 1358567478, "building": "yes", "name": "", "height": null, "height_m": null, "levels": null, "tract_id": "40127097600", "tract_name": "976", "tags": {"building": "yes"}}}, {"type": "Feature", "geometry": {"type": "Polygon", "coordinates": [[[-95.1016173, 34.6602941], [-95.1016094, 34.6601928], [-95.1017405, 34.6601859], [-95.1017483, 34.6602872], [-95.1016173, 34.6602941]]]}, "properties": {"osm_id": 1358567479, "building": "yes", "name": "", "height": null, "height_m": null, "levels": null, "tract_id": "40127097600", "tract_name": "976", "tags": {"building": "yes", "layer": "1"}}}, {"type": "Feature", "geometry": {"type": "Polygon", "coordinates": [[[-95.101523, 34.6601814], [-95.1014538, 34.6601814], [-95.1014538, 34.6601598], [-95.101523, 34.6601598], [-95.101523, 34.6601814]]]}, "properties": {"osm_id": 1358567480, "building": "yes", "name": "", "height": null, "height_m": null, "levels": null, "tract_id": "40127097600", "tract_name": "976", "tags": {"building": "yes"}}}, {"type": "Feature", "geometry": {"type": "Polygon", "coordinates": [[[-95.1014053, 34.6601976], [-95.1013054, 34.6602119], [-95.1012766, 34.6600759], [-95.1013765, 34.6600616], [-95.1014053, 34.6601976]]]}, "properties": {"osm_id": 1358567481, "building": "yes", "name": "", "height": null, "height_m": null, "levels": null, "tract_id": "40127097600", "tract_name": "976", "tags": {"building": "yes"}}}, {"type": "Feature", "geometry": {"type": "Polygon", "coordinates": [[[-95.1014271, 34.6604283], [-95.1013433, 34.6604321], [-95.1013399, 34.6603814], [-95.1014237, 34.6603776], [-95.1014271, 34.6604283]]]}, "properties": {"osm_id": 1358567482, "building": "yes", "name": "", "height": null, "height_m": null, "levels": null, "tract_id": "40127097600", "tract_name": "976", "tags": {"building": "yes"}}}, {"type": "Feature", "geometry": {"type": "Polygon", "coordinates": [[[-95.1021369, 34.6606061], [-95.1019557, 34.6606121], [-95.101954, 34.6605773], [-95.1021352, 34.6605714], [-95.1021369, 34.6606061]]]}, "properties": {"osm_id": 1358567483, "building": "yes", "name": "", "height": null, "height_m": null, "levels": null, "tract_id": "40127097600", "tract_name": "976", "tags": {"building": "yes"}}}, {"type": "Feature", "geometry": {"type": "Polygon", "coordinates": [[[-95.3617077, 34.5894383], [-95.3616996, 34.5897209], [-95.3615815, 34.5897186], [-95.3615895, 34.589436], [-95.3617077, 34.5894383]]]}, "properties": {"osm_id": 1388852442, "building": "yes", "name": "", "height": null, "height_m": null, "levels": null, "tract_id": "40127097600", "tract_name": "976", "tags": {"building": "yes"}}}, {"type": "Feature", "geometry": {"type": "Polygon", "coordinates": [[[-95.362161, 34.5895586], [-95.3618981, 34.5895575], [-95.3618991, 34.5893919], [-95.362162, 34.589393], [-95.362161, 34.5895586]]]}, "properties": {"osm_id": 1388852443, "building": "yes", "name": "", "height": null, "height_m": null, "levels": null, "tract_id": "40127097600", "tract_name": "976", "tags": {"building": "yes"}}}, {"type": "Feature", "geometry": {"type": "Polygon", "coordinates": [[[-95.3656451, 34.5838118], [-95.3653863, 34.5838085], [-95.3653886, 34.5836867], [-95.3656474, 34.58369], [-95.3656451, 34.5838118]]]}, "properties": {"osm_id": 1388852444, "building": "yes", "name": "", "height": null, "height_m": null, "levels": null, "tract_id": "40127097600", "tract_name": "976", "tags": {"building": "yes"}}}, {"type": "Feature", "geometry": {"type": "Polygon", "coordinates": [[[-95.364701, 34.5835281], [-95.3646889, 34.5838052], [-95.3645507, 34.5838011], [-95.3645575, 34.5836441], [-95.3644959, 34.5836423], [-95.3644976, 34.5836025], [-95.3645593, 34.5836043], [-95.3645628, 34.583524], [-95.364701, 34.5835281]]]}, "properties": {"osm_id": 1388852445, "building": "yes", "name": "", "height": null, "height_m": null, "levels": null, "tract_id": "40127097600", "tract_name": "976", "tags": {"building": "yes"}}}, {"type": "Feature", "geometry": {"type": "Polygon", "coordinates": [[[-95.3656411, 34.5883486], [-95.3654869, 34.5883497], [-95.3654859, 34.588257], [-95.3656401, 34.5882559], [-95.3656411, 34.5883486]]]}, "properties": {"osm_id": 1388852446, "building": "yes", "name": "", "height": null, "height_m": null, "levels": null, "tract_id": "40127097600", "tract_name": "976", "tags": {"building": "yes"}}}, {"type": "Feature", "geometry": {"type": "Polygon", "coordinates": [[[-95.36579, 34.5884998], [-95.3656601, 34.588533], [-95.3656172, 34.5884193], [-95.3657471, 34.5883861], [-95.36579, 34.5884998]]]}, "properties": {"osm_id": 1388852447, "building": "yes", "name": "", "height": null, "height_m": null, "levels": null, "tract_id": "40127097600", "tract_name": "976", "tags": {"building": "yes"}}}, {"type": "Feature", "geometry": {"type": "Polygon", "coordinates": [[[-95.3651342, 34.5887769], [-95.3650677, 34.5887741], [-95.3650717, 34.588709], [-95.3651382, 34.5887118], [-95.3651342, 34.5887769]]]}, "properties": {"osm_id": 1388852448, "building": "yes", "name": "", "height": null, "height_m": null, "levels": null, "tract_id": "40127097600", "tract_name": "976", "tags": {"building": "yes"}}}, {"type": "Feature", "geometry": {"type": "Polygon", "coordinates": [[[-95.3653394, 34.5887725], [-95.3651825, 34.5889955], [-95.365078, 34.5889457], [-95.3652349, 34.5887227], [-95.3653394, 34.5887725]]]}, "properties": {"osm_id": 1388852449, "building": "yes", "name": "", "height": null, "height_m": null, "levels": null, "tract_id": "40127097600", "tract_name": "976", "tags": {"building": "yes"}}}, {"type": "Feature", "geometry": {"type": "Polygon", "coordinates": [[[-95.3652576, 34.5883993], [-95.3651626, 34.5884506], [-95.3650553, 34.5883159], [-95.3651503, 34.5882646], [-95.3652576, 34.5883993]]]}, "properties": {"osm_id": 1388852450, "building": "yes", "name": "", "height": null, "height_m": null, "levels": null, "tract_id": "40127097600", "tract_name": "976", "tags": {"building": "yes"}}}, {"type": "Feature", "geometry": {"type": "Polygon", "coordinates": [[[-95.3657886, 34.5888531], [-95.3656826, 34.5888527], [-95.365684, 34.5885804], [-95.3657901, 34.5885808], [-95.3657886, 34.5888531]]]}, "properties": {"osm_id": 1388852451, "building": "yes", "name": "", "height": null, "height_m": null, "levels": null, "tract_id": "40127097600", "tract_name": "976", "tags": {"building": "yes"}}}, {"type": "Feature", "geometry": {"type": "Polygon", "coordinates": [[[-95.3656887, 34.5889072], [-95.3656882, 34.5890031], [-95.3655353, 34.5890026], [-95.3655358, 34.5889067], [-95.3656887, 34.5889072]]]}, "properties": {"osm_id": 1388852452, "building": "yes", "name": "", "height": null, "height_m": null, "levels": null, "tract_id": "40127097600", "tract_name": "976", "tags": {"building": "yes"}}}, {"type": "Feature", "geometry": {"type": "Polygon", "coordinates": [[[-95.3640358, 34.5894692], [-95.3641237, 34.5895294], [-95.3640298, 34.5896222], [-95.3639419, 34.5895619], [-95.3640358, 34.5894692]]]}, "properties": {"osm_id": 1388852453, "building": "yes", "name": "", "height": null, "height_m": null, "levels": null, "tract_id": "40127097600", "tract_name": "976", "tags": {"building": "yes"}}}, {"type": "Feature", "geometry": {"type": "Polygon", "coordinates": [[[-95.364178, 34.5894228], [-95.3638789, 34.5893908], [-95.3638953, 34.5892871], [-95.3641944, 34.5893191], [-95.364178, 34.5894228]]]}, "properties": {"osm_id": 1388852454, "building": "yes", "name": "", "height": null, "height_m": null, "levels": null, "tract_id": "40127097600", "tract_name": "976", "tags": {"building": "yes"}}}, {"type": "Feature", "geometry": {"type": "Polygon", "coordinates": [[[-95.3646876, 34.589531], [-95.364575, 34.5895306], [-95.3645763, 34.5892881], [-95.3646889, 34.5892885], [-95.3646876, 34.589531]]]}, "properties": {"osm_id": 1388852455, "building": "yes", "name": "", "height": null, "height_m": null, "levels": null, "tract_id": "40127097600", "tract_name": "976", "tags": {"building": "yes"}}}, {"type": "Feature", "geometry": {"type": "Polygon", "coordinates": [[[-95.3646755, 34.5898412], [-95.3645682, 34.5898408], [-95.3645696, 34.5895928], [-95.3646769, 34.5895932], [-95.3646755, 34.5898412]]]}, "properties": {"osm_id": 1388852456, "building": "yes", "name": "", "height": null, "height_m": null, "levels": null, "tract_id": "40127097600", "tract_name": "976", "tags": {"building": "yes"}}}, {"type": "Feature", "geometry": {"type": "Polygon", "coordinates": [[[-95.3639245, 34.5898578], [-95.3638172, 34.5898574], [-95.3638186, 34.5896039], [-95.3639259, 34.5896043], [-95.3639245, 34.5898578]]]}, "properties": {"osm_id": 1388852457, "building": "yes", "name": "", "height": null, "height_m": null, "levels": null, "tract_id": "40127097600", "tract_name": "976", "tags": {"building": "yes"}}}, {"type": "Feature", "geometry": {"type": "Polygon", "coordinates": [[[-95.364186, 34.5899991], [-95.3638959, 34.589998], [-95.3638963, 34.589913], [-95.3641865, 34.5899141], [-95.364186, 34.5899991]]]}, "properties": {"osm_id": 1388852458, "building": "yes", "name": "", "height": null, "height_m": null, "levels": null, "tract_id": "40127097600", "tract_name": "976", "tags": {"building": "yes"}}}, {"type": "Feature", "geometry": {"type": "Polygon", "coordinates": [[[-95.3645763, 34.5900013], [-95.3642786, 34.5900002], [-95.3642791, 34.5899096], [-95.3645768, 34.5899107], [-95.3645763, 34.5900013]]]}, "properties": {"osm_id": 1388852459, "building": "yes", "name": "", "height": null, "height_m": null, "levels": null, "tract_id": "40127097600", "tract_name": "976", "tags": {"building": "yes"}}}, {"type": "Feature", "geometry": {"type": "Polygon", "coordinates": [[[-95.3549029, 34.5881962], [-95.3549002, 34.5884137], [-95.354783, 34.5884127], [-95.3547856, 34.5881952], [-95.3549029, 34.5881962]]]}, "properties": {"osm_id": 1388852460, "building": "yes", "name": "", "height": null, "height_m": null, "levels": null, "tract_id": "40127097600", "tract_name": "976", "tags": {"building": "yes"}}}, {"type": "Feature", "geometry": {"type": "Polygon", "coordinates": [[[-95.3538488, 34.5889834], [-95.3537093, 34.5891424], [-95.3535728, 34.5890612], [-95.3536007, 34.5890294], [-95.353634, 34.5890492], [-95.3537456, 34.588922], [-95.3538488, 34.5889834]]]}, "properties": {"osm_id": 1388852461, "building": "yes", "name": "", "height": null, "height_m": null, "levels": null, "tract_id": "40127097600", "tract_name": "976", "tags": {"building": "yes"}}}, {"type": "Feature", "geometry": {"type": "Polygon", "coordinates": [[[-95.3528805, 34.5883574], [-95.3526493, 34.5882259], [-95.3526928, 34.5881741], [-95.352924, 34.5883056], [-95.3528805, 34.5883574]]]}, "properties": {"osm_id": 1388852462, "building": "yes", "name": "", "height": null, "height_m": null, "levels": null, "tract_id": "40127097600", "tract_name": "976", "tags": {"building": "yes"}}}, {"type": "Feature", "geometry": {"type": "Polygon", "coordinates": [[[-95.3531595, 34.5885307], [-95.3530445, 34.5884653], [-95.3530897, 34.5884115], [-95.3532047, 34.5884769], [-95.3531595, 34.5885307]]]}, "properties": {"osm_id": 1388852463, "building": "yes", "name": "", "height": null, "height_m": null, "levels": null, "tract_id": "40127097600", "tract_name": "976", "tags": {"building": "yes"}}}, {"type": "Feature", "geometry": {"type": "Polygon", "coordinates": [[[-95.3526123, 34.5891589], [-95.3524145, 34.5890464], [-95.3525184, 34.5889227], [-95.3527162, 34.5890351], [-95.3526123, 34.5891589]]]}, "properties": {"osm_id": 1388852464, "building": "yes", "name": "", "height": null, "height_m": null, "levels": null, "tract_id": "40127097600", "tract_name": "976", "tags": {"building": "yes"}}}, {"type": "Feature", "geometry": {"type": "Polygon", "coordinates": [[[-95.3528228, 34.5889072], [-95.3526898, 34.5888316], [-95.3527368, 34.5887755], [-95.3528698, 34.5888512], [-95.3528228, 34.5889072]]]}, "properties": {"osm_id": 1388852465, "building": "yes", "name": "", "height": null, "height_m": null, "levels": null, "tract_id": "40127097600", "tract_name": "976", "tags": {"building": "yes"}}}, {"type": "Feature", "geometry": {"type": "Polygon", "coordinates": [[[-95.3528758, 34.5888515], [-95.3526986, 34.5887507], [-95.3527484, 34.5886914], [-95.3529256, 34.5887921], [-95.3528758, 34.5888515]]]}, "properties": {"osm_id": 1388852466, "building": "yes", "name": "", "height": null, "height_m": null, "levels": null, "tract_id": "40127097600", "tract_name": "976", "tags": {"building": "yes"}}}, {"type": "Feature", "geometry": {"type": "Polygon", "coordinates": [[[-95.3529295, 34.588788], [-95.3527856, 34.5887061], [-95.3528656, 34.5886108], [-95.3530095, 34.5886926], [-95.3529295, 34.588788]]]}, "properties": {"osm_id": 1388852467, "building": "yes", "name": "", "height": null, "height_m": null, "levels": null, "tract_id": "40127097600", "tract_name": "976", "tags": {"building": "yes"}}}, {"type": "Feature", "geometry": {"type": "Polygon", "coordinates": [[[-95.353018, 34.5886925], [-95.3528196, 34.5885796], [-95.3528783, 34.5885096], [-95.3530767, 34.5886224], [-95.353018, 34.5886925]]]}, "properties": {"osm_id": 1388852468, "building": "yes", "name": "", "height": null, "height_m": null, "levels": null, "tract_id": "40127097600", "tract_name": "976", "tags": {"building": "yes"}}}, {"type": "Feature", "geometry": {"type": "Polygon", "coordinates": [[[-95.3531588, 34.5885346], [-95.3530846, 34.588623], [-95.3528633, 34.5884972], [-95.3529375, 34.5884087], [-95.3531588, 34.5885346]]]}, "properties": {"osm_id": 1388852469, "building": "yes", "name": "", "height": null, "height_m": null, "levels": null, "tract_id": "40127097600", "tract_name": "976", "tags": {"building": "yes"}}}, {"type": "Feature", "geometry": {"type": "Polygon", "coordinates": [[[-95.3549404, 34.589605], [-95.3546172, 34.5896061], [-95.3546169, 34.5895399], [-95.354691, 34.5895396], [-95.3546899, 34.5893116], [-95.3547473, 34.5893114], [-95.3547472, 34.5892771], [-95.3548062, 34.5892769], [-95.3548064, 34.5893112], [-95.3548535, 34.5893111], [-95.3548546, 34.5895391], [-95.3549401, 34.5895388], [-95.3549404, 34.589605]]]}, "properties": {"osm_id": 1388852470, "building": "yes", "name": "", "height": null, "height_m": null, "levels": null, "tract_id": "40127097600", "tract_name": "976", "tags": {"building": "yes"}}}, {"type": "Feature", "geometry": {"type": "Polygon", "coordinates": [[[-95.3543517, 34.5893882], [-95.3545816, 34.5894994], [-95.3544708, 34.5896545], [-95.354712, 34.5897712], [-95.3547054, 34.5897804], [-95.3548134, 34.5898327], [-95.3547043, 34.5899855], [-95.3543709, 34.5898242], [-95.3541762, 34.590097], [-95.3538705, 34.5899491], [-95.3540983, 34.5896301], [-95.3541583, 34.5896591], [-95.3543517, 34.5893882]]]}, "properties": {"osm_id": 1388852471, "building": "yes", "name": "", "height": null, "height_m": null, "levels": null, "tract_id": "40127097600", "tract_name": "976", "tags": {"building": "yes"}}}, {"type": "Feature", "geometry": {"type": "Polygon", "coordinates": [[[-95.355788, 34.5894438], [-95.3557278, 34.5894449], [-95.3557266, 34.5894031], [-95.355631, 34.5894049], [-95.3556282, 34.5893043], [-95.355784, 34.5893014], [-95.355788, 34.5894438]]]}, "properties": {"osm_id": 1388852472, "building": "yes", "name": "", "height": null, "height_m": null, "levels": null, "tract_id": "40127097600", "tract_name": "976", "tags": {"building": "yes"}}}, {"type": "Feature", "geometry": {"type": "Polygon", "coordinates": [[[-95.3556566, 34.5894824], [-95.3556553, 34.5896271], [-95.355541, 34.5896263], [-95.3555424, 34.5894817], [-95.3556566, 34.5894824]]]}, "properties": {"osm_id": 1388852473, "building": "yes", "name": "", "height": null, "height_m": null, "levels": null, "tract_id": "40127097600", "tract_name": "976", "tags": {"building": "yes"}}}, {"type": "Feature", "geometry": {"type": "Polygon", "coordinates": [[[-95.3562668, 34.5896889], [-95.3559087, 34.5896889], [-95.3559087, 34.5895619], [-95.355957, 34.5895619], [-95.355957, 34.5895155], [-95.3559905, 34.5895155], [-95.3559905, 34.589372], [-95.3561702, 34.589372], [-95.3561702, 34.5895155], [-95.3561971, 34.5895155], [-95.3561971, 34.5895619], [-95.3562668, 34.5895619], [-95.3562668, 34.589605], [-95.3563097, 34.589605], [-95.3563097, 34.5896447], [-95.3562668, 34.5896447], [-95.3562668, 34.5896889]]]}, "properties": {"osm_id": 1388852474, "building": "yes", "name": "", "height": null, "height_m": null, "levels": null, "tract_id": "40127097600", "tract_name": "976", "tags": {"building": "yes"}}}, {"type": "Feature", "geometry": {"type": "Polygon", "coordinates": [[[-95.3562024, 34.5897684], [-95.3562024, 34.5901393], [-95.3558645, 34.5901393], [-95.3558645, 34.5897684], [-95.3562024, 34.5897684]]]}, "properties": {"osm_id": 1388852475, "building": "yes", "name": "", "height": null, "height_m": null, "levels": null, "tract_id": "40127097600", "tract_name": "976", "tags": {"building": "yes"}}}, {"type": "Feature", "geometry": {"type": "Polygon", "coordinates": [[[-95.3549337, 34.5906527], [-95.3547809, 34.5908415], [-95.3546224, 34.5907545], [-95.3546789, 34.5906847], [-95.3546613, 34.590675], [-95.3547116, 34.5906129], [-95.3547463, 34.5906319], [-95.3547923, 34.5905751], [-95.3549337, 34.5906527]]]}, "properties": {"osm_id": 1388852476, "building": "yes", "name": "", "height": null, "height_m": null, "levels": null, "tract_id": "40127097600", "tract_name": "976", "tags": {"building": "yes"}}}, {"type": "Feature", "geometry": {"type": "Polygon", "coordinates": [[[-95.356075, 34.5909867], [-95.356075, 34.5912141], [-95.3559764, 34.5912141], [-95.3559764, 34.5909867], [-95.356075, 34.5909867]]]}, "properties": {"osm_id": 1388852478, "building": "yes", "name": "", "height": null, "height_m": null, "levels": null, "tract_id": "40127097600", "tract_name": "976", "tags": {"building": "yes"}}}, {"type": "Feature", "geometry": {"type": "Polygon", "coordinates": [[[-95.3551463, 34.5912174], [-95.3551463, 34.5913035], [-95.3550625, 34.5913035], [-95.3550625, 34.5912174], [-95.3551463, 34.5912174]]]}, "properties": {"osm_id": 1388852479, "building": "yes", "name": "", "height": null, "height_m": null, "levels": null, "tract_id": "40127097600", "tract_name": "976", "tags": {"building": "yes"}}}, {"type": "Feature", "geometry": {"type": "Polygon", "coordinates": [[[-95.3553857, 34.5913146], [-95.3551986, 34.5913146], [-95.3551986, 34.5912307], [-95.3553857, 34.5912307], [-95.3553857, 34.5913146]]]}, "properties": {"osm_id": 1388852480, "building": "yes", "name": "", "height": null, "height_m": null, "levels": null, "tract_id": "40127097600", "tract_name": "976", "tags": {"building": "yes"}}}, {"type": "Feature", "geometry": {"type": "Polygon", "coordinates": [[[-95.355619, 34.5913151], [-95.3554313, 34.5913151], [-95.3554313, 34.5912251], [-95.355619, 34.5912251], [-95.355619, 34.5913151]]]}, "properties": {"osm_id": 1388852481, "building": "yes", "name": "", "height": null, "height_m": null, "levels": null, "tract_id": "40127097600", "tract_name": "976", "tags": {"building": "yes"}}}, {"type": "Feature", "geometry": {"type": "Polygon", "coordinates": [[[-95.3553864, 34.5909519], [-95.3552093, 34.5909519], [-95.3552093, 34.5908691], [-95.3553864, 34.5908691], [-95.3553864, 34.5909519]]]}, "properties": {"osm_id": 1388852482, "building": "yes", "name": "", "height": null, "height_m": null, "levels": null, "tract_id": "40127097600", "tract_name": "976", "tags": {"building": "yes"}}}, {"type": "Feature", "geometry": {"type": "Polygon", "coordinates": [[[-95.3556164, 34.5909756], [-95.3554534, 34.5909756], [-95.3554534, 34.5908934], [-95.3556164, 34.5908934], [-95.3556164, 34.5909756]]]}, "properties": {"osm_id": 1388852483, "building": "yes", "name": "", "height": null, "height_m": null, "levels": null, "tract_id": "40127097600", "tract_name": "976", "tags": {"building": "yes"}}}, {"type": "Feature", "geometry": {"type": "Polygon", "coordinates": [[[-95.3559235, 34.590879], [-95.3559242, 34.5909791], [-95.3558564, 34.5909794], [-95.3558563, 34.5909653], [-95.3557564, 34.5909658], [-95.3557565, 34.5909799], [-95.3556854, 34.5909802], [-95.3556848, 34.5908801], [-95.3559235, 34.590879]]]}, "properties": {"osm_id": 1388852484, "building": "yes", "name": "", "height": null, "height_m": null, "levels": null, "tract_id": "40127097600", "tract_name": "976", "tags": {"building": "yes"}}}, {"type": "Feature", "geometry": {"type": "Polygon", "coordinates": [[[-95.3559255, 34.5913229], [-95.3556921, 34.5913229], [-95.3556921, 34.591229], [-95.3557532, 34.591229], [-95.3557532, 34.5912406], [-95.3558524, 34.5912406], [-95.3558524, 34.591229], [-95.3559255, 34.591229], [-95.3559255, 34.5913229]]]}, "properties": {"osm_id": 1388852485, "building": "yes", "name": "", "height": null, "height_m": null, "levels": null, "tract_id": "40127097600", "tract_name": "976", "tags": {"building": "yes"}}}, {"type": "Feature", "geometry": {"type": "Polygon", "coordinates": [[[-95.351935, 34.5902817], [-95.351923, 34.5907068], [-95.3516729, 34.590702], [-95.351685, 34.5902769], [-95.351935, 34.5902817]]]}, "properties": {"osm_id": 1388852486, "building": "yes", "name": "", "height": null, "height_m": null, "levels": null, "tract_id": "40127097600", "tract_name": "976", "tags": {"building": "yes"}}}, {"type": "Feature", "geometry": {"type": "Polygon", "coordinates": [[[-95.3542833, 34.5886897], [-95.3542793, 34.5889867], [-95.3540708, 34.5889848], [-95.3540748, 34.5886878], [-95.3542833, 34.5886897]]]}, "properties": {"osm_id": 1388852487, "building": "yes", "name": "", "height": null, "height_m": null, "levels": null, "tract_id": "40127097600", "tract_name": "976", "tags": {"building": "yes"}}}, {"type": "Feature", "geometry": {"type": "Polygon", "coordinates": [[[-95.3543463, 34.5886235], [-95.3540017, 34.5886235], [-95.3540017, 34.5882613], [-95.3541505, 34.5882613], [-95.3541505, 34.5883828], [-95.3542833, 34.5883828], [-95.3542833, 34.5884678], [-95.3543463, 34.5884678], [-95.3543463, 34.5886235]]]}, "properties": {"osm_id": 1388852488, "building": "yes", "name": "", "height": null, "height_m": null, "levels": null, "tract_id": "40127097600", "tract_name": "976", "tags": {"building": "yes"}}}, {"type": "Feature", "geometry": {"type": "Polygon", "coordinates": [[[-95.3574805, 34.5853841], [-95.3574753, 34.5854865], [-95.3573318, 34.5854815], [-95.357337, 34.5853791], [-95.3574805, 34.5853841]]]}, "properties": {"osm_id": 1388852489, "building": "yes", "name": "", "height": null, "height_m": null, "levels": null, "tract_id": "40127097600", "tract_name": "976", "tags": {"building": "yes"}}}, {"type": "Feature", "geometry": {"type": "Polygon", "coordinates": [[[-95.3548285, 34.5854332], [-95.3547436, 34.5853869], [-95.3547668, 34.5853581], [-95.3548516, 34.5854044], [-95.3548285, 34.5854332]]]}, "properties": {"osm_id": 1388852490, "building": "yes", "name": "", "height": null, "height_m": null, "levels": null, "tract_id": "40127097600", "tract_name": "976", "tags": {"building": "yes"}}}, {"type": "Feature", "geometry": {"type": "Polygon", "coordinates": [[[-95.3548881, 34.5851423], [-95.3549938, 34.5851999], [-95.3548871, 34.5853325], [-95.3549455, 34.5853644], [-95.3548966, 34.585425], [-95.3547326, 34.5853355], [-95.3548881, 34.5851423]]]}, "properties": {"osm_id": 1388852491, "building": "yes", "name": "", "height": null, "height_m": null, "levels": null, "tract_id": "40127097600", "tract_name": "976", "tags": {"building": "yes"}}}, {"type": "Feature", "geometry": {"type": "Polygon", "coordinates": [[[-95.3554782, 34.58567], [-95.3554809, 34.5859924], [-95.3552906, 34.5859935], [-95.3552894, 34.5858533], [-95.3552617, 34.5858535], [-95.3552602, 34.5856713], [-95.3554782, 34.58567]]]}, "properties": {"osm_id": 1388852492, "building": "yes", "name": "", "height": null, "height_m": null, "levels": null, "tract_id": "40127097600", "tract_name": "976", "tags": {"building": "yes"}}}, {"type": "Feature", "geometry": {"type": "Polygon", "coordinates": [[[-95.3562239, 34.5854603], [-95.3558081, 34.5854669], [-95.3558048, 34.5853243], [-95.3562205, 34.5853176], [-95.3562239, 34.5854603]]]}, "properties": {"osm_id": 1388852493, "building": "yes", "name": "", "height": null, "height_m": null, "levels": null, "tract_id": "40127097600", "tract_name": "976", "tags": {"building": "yes"}}}, {"type": "Feature", "geometry": {"type": "Polygon", "coordinates": [[[-95.3536697, 34.5857044], [-95.3534597, 34.5855613], [-95.3534918, 34.5855294], [-95.3534092, 34.5854731], [-95.353619, 34.5852644], [-95.3537968, 34.5853855], [-95.3537495, 34.5854325], [-95.3538643, 34.5855108], [-95.3536697, 34.5857044]]]}, "properties": {"osm_id": 1388852494, "building": "yes", "name": "", "height": null, "height_m": null, "levels": null, "tract_id": "40127097600", "tract_name": "976", "tags": {"building": "yes"}}}, {"type": "Feature", "geometry": {"type": "Polygon", "coordinates": [[[-95.3531742, 34.5871992], [-95.3530213, 34.5873803], [-95.3529031, 34.5873126], [-95.353056, 34.5871316], [-95.3531742, 34.5871992]]]}, "properties": {"osm_id": 1388852495, "building": "yes", "name": "", "height": null, "height_m": null, "levels": null, "tract_id": "40127097600", "tract_name": "976", "tags": {"building": "yes"}}}, {"type": "Feature", "geometry": {"type": "Polygon", "coordinates": [[[-95.3535108, 34.5868658], [-95.3532761, 34.5871319], [-95.3531223, 34.5870399], [-95.353357, 34.5867738], [-95.3535108, 34.5868658]]]}, "properties": {"osm_id": 1388852496, "building": "yes", "name": "", "height": null, "height_m": null, "levels": null, "tract_id": "40127097600", "tract_name": "976", "tags": {"building": "yes"}}}, {"type": "Feature", "geometry": {"type": "Polygon", "coordinates": [[[-95.3581783, 34.5832331], [-95.3581783, 34.5830444], [-95.3585451, 34.5830444], [-95.3585451, 34.5832331], [-95.3581783, 34.5832331]]]}, "properties": {"osm_id": 1388909108, "building": "yes", "name": "", "height": null, "height_m": null, "levels": null, "tract_id": "40127097600", "tract_name": "976", "tags": {"building": "yes"}}}, {"type": "Feature", "geometry": {"type": "Polygon", "coordinates": [[[-95.3578946, 34.5840282], [-95.3578983, 34.5839771], [-95.3578091, 34.5839727], [-95.3578053, 34.5840237], [-95.3578946, 34.5840282]]]}, "properties": {"osm_id": 1388909111, "building": "yes", "name": "", "height": null, "height_m": null, "levels": null, "tract_id": "40127097600", "tract_name": "976", "tags": {"building": "yes"}}}, {"type": "Feature", "geometry": {"type": "Polygon", "coordinates": [[[-95.3598762, 34.5833965], [-95.3598742, 34.5832891], [-95.3600462, 34.5832869], [-95.3600482, 34.5833944], [-95.3598762, 34.5833965]]]}, "properties": {"osm_id": 1388909113, "building": "yes", "name": "", "height": null, "height_m": null, "levels": null, "tract_id": "40127097600", "tract_name": "976", "tags": {"building": "yes"}}}, {"type": "Feature", "geometry": {"type": "Polygon", "coordinates": [[[-95.3635041, 34.5824248], [-95.3634841, 34.5823689], [-95.3633951, 34.5823905], [-95.3634151, 34.5824464], [-95.3635041, 34.5824248]]]}, "properties": {"osm_id": 1388966674, "building": "yes", "name": "", "height": null, "height_m": null, "levels": null, "tract_id": "40127097600", "tract_name": "976", "tags": {"building": "yes"}}}, {"type": "Feature", "geometry": {"type": "Polygon", "coordinates": [[[-95.3634972, 34.5823624], [-95.363348, 34.5823943], [-95.3633104, 34.5822753], [-95.3634596, 34.5822434], [-95.3634972, 34.5823624]]]}, "properties": {"osm_id": 1388966675, "building": "yes", "name": "", "height": null, "height_m": null, "levels": null, "tract_id": "40127097600", "tract_name": "976", "tags": {"building": "yes"}}}, {"type": "Feature", "geometry": {"type": "Polygon", "coordinates": [[[-95.3634864, 34.582291], [-95.3634231, 34.5820843], [-95.3635603, 34.5820559], [-95.3636236, 34.5822625], [-95.3634864, 34.582291]]]}, "properties": {"osm_id": 1388966676, "building": "yes", "name": "", "height": null, "height_m": null, "levels": null, "tract_id": "40127097600", "tract_name": "976", "tags": {"building": "yes"}}}, {"type": "Feature", "geometry": {"type": "Polygon", "coordinates": [[[-95.3642417, 34.5821942], [-95.3642345, 34.582179], [-95.3642596, 34.5821709], [-95.3642668, 34.5821861], [-95.3642417, 34.5821942]]]}, "properties": {"osm_id": 1388966677, "building": "yes", "name": "", "height": null, "height_m": null, "levels": null, "tract_id": "40127097600", "tract_name": "976", "tags": {"building": "yes"}}}, {"type": "Feature", "geometry": {"type": "Polygon", "coordinates": [[[-95.3640775, 34.581127], [-95.3640454, 34.5811302], [-95.3640432, 34.5811155], [-95.3640753, 34.5811123], [-95.3640775, 34.581127]]]}, "properties": {"osm_id": 1388966678, "building": "yes", "name": "", "height": null, "height_m": null, "levels": null, "tract_id": "40127097600", "tract_name": "976", "tags": {"building": "yes"}}}, {"type": "Feature", "geometry": {"type": "Polygon", "coordinates": [[[-95.3640744, 34.581097], [-95.3640476, 34.581097], [-95.3640477, 34.5810723], [-95.3640745, 34.5810724], [-95.3640744, 34.581097]]]}, "properties": {"osm_id": 1388966679, "building": "yes", "name": "", "height": null, "height_m": null, "levels": null, "tract_id": "40127097600", "tract_name": "976", "tags": {"building": "yes"}}}, {"type": "Feature", "geometry": {"type": "Polygon", "coordinates": [[[-95.36386, 34.5813069], [-95.363815, 34.5813072], [-95.3638143, 34.5812357], [-95.3638593, 34.5812355], [-95.36386, 34.5813069]]]}, "properties": {"osm_id": 1388966680, "building": "yes", "name": "", "height": null, "height_m": null, "levels": null, "tract_id": "40127097600", "tract_name": "976", "tags": {"building": "yes"}}}, {"type": "Feature", "geometry": {"type": "Polygon", "coordinates": [[[-95.3636203, 34.5811199], [-95.3635766, 34.5811236], [-95.3635721, 34.5810876], [-95.3636158, 34.5810838], [-95.3636203, 34.5811199]]]}, "properties": {"osm_id": 1388966681, "building": "yes", "name": "", "height": null, "height_m": null, "levels": null, "tract_id": "40127097600", "tract_name": "976", "tags": {"building": "yes"}}}, {"type": "Feature", "geometry": {"type": "Polygon", "coordinates": [[[-95.3634711, 34.5813635], [-95.3634212, 34.5813068], [-95.3634031, 34.5813129], [-95.3633294, 34.5812292], [-95.3633503, 34.5812167], [-95.3633078, 34.5811683], [-95.3633882, 34.5811203], [-95.3635571, 34.5813122], [-95.3634711, 34.5813635]]]}, "properties": {"osm_id": 1388966682, "building": "yes", "name": "", "height": null, "height_m": null, "levels": null, "tract_id": "40127097600", "tract_name": "976", "tags": {"building": "yes"}}}, {"type": "Feature", "geometry": {"type": "Polygon", "coordinates": [[[-95.3641485, 34.5804746], [-95.3640466, 34.580398], [-95.3641794, 34.5802783], [-95.3642812, 34.5803548], [-95.3641485, 34.5804746]]]}, "properties": {"osm_id": 1388966683, "building": "yes", "name": "", "height": null, "height_m": null, "levels": null, "tract_id": "40127097600", "tract_name": "976", "tags": {"building": "yes"}}}, {"type": "Feature", "geometry": {"type": "Polygon", "coordinates": [[[-95.3644943, 34.5803271], [-95.3643795, 34.5802767], [-95.3644098, 34.5802299], [-95.3645246, 34.5802804], [-95.3644943, 34.5803271]]]}, "properties": {"osm_id": 1388966684, "building": "yes", "name": "", "height": null, "height_m": null, "levels": null, "tract_id": "40127097600", "tract_name": "976", "tags": {"building": "yes"}}}, {"type": "Feature", "geometry": {"type": "Polygon", "coordinates": [[[-95.3560187, 34.5849258], [-95.3559515, 34.5848553], [-95.3560829, 34.5847702], [-95.3561502, 34.5848408], [-95.3560187, 34.5849258]]]}, "properties": {"osm_id": 1412433252, "building": "yes", "name": "", "height": null, "height_m": null, "levels": null, "tract_id": "40127097600", "tract_name": "976", "tags": {"building": "yes"}}}, {"type": "Feature", "geometry": {"type": "Polygon", "coordinates": [[[-95.3554404, 34.5891016], [-95.3554414, 34.588373], [-95.3552819, 34.5883729], [-95.3552814, 34.5886832], [-95.3548696, 34.5886827], [-95.3548694, 34.5887788], [-95.3553024, 34.5887793], [-95.355302, 34.589006], [-95.3547846, 34.5890054], [-95.3547844, 34.589101], [-95.3554404, 34.5891016]]]}, "properties": {"osm_id": 1412520599, "building": "yes", "name": "", "height": null, "height_m": null, "levels": null, "tract_id": "40127097600", "tract_name": "976", "tags": {"building": "yes"}}}, {"type": "Feature", "geometry": {"type": "Polygon", "coordinates": [[[-95.3562143, 34.5883461], [-95.3562201, 34.58824], [-95.3559839, 34.5882311], [-95.3559793, 34.588313], [-95.3560723, 34.5883164], [-95.3560685, 34.5883862], [-95.3561484, 34.5883892], [-95.3561509, 34.5883437], [-95.3562143, 34.5883461]]]}, "properties": {"osm_id": 1412520601, "building": "yes", "name": "", "height": null, "height_m": null, "levels": null, "tract_id": "40127097600", "tract_name": "976", "tags": {"building": "yes"}}}, {"type": "Feature", "geometry": {"type": "Polygon", "coordinates": [[[-95.5527379, 34.46861], [-95.5527077, 34.4685872], [-95.5527513, 34.4685478], [-95.5527816, 34.4685707], [-95.5527379, 34.46861]]]}, "properties": {"osm_id": 1423231447, "building": "yes", "name": "", "height": null, "height_m": null, "levels": null, "tract_id": "40127097600", "tract_name": "976", "tags": {"building": "yes"}}}, {"type": "Feature", "geometry": {"type": "Polygon", "coordinates": [[[-95.5522957, 34.4687275], [-95.5522649, 34.4687049], [-95.5522918, 34.4686799], [-95.5523226, 34.4687026], [-95.5522957, 34.4687275]]]}, "properties": {"osm_id": 1423231448, "building": "yes", "name": "", "height": null, "height_m": null, "levels": null, "tract_id": "40127097600", "tract_name": "976", "tags": {"building": "yes"}}}, {"type": "Feature", "geometry": {"type": "Polygon", "coordinates": [[[-95.5523859, 34.4686612], [-95.5523506, 34.4686273], [-95.5524035, 34.4685897], [-95.5524389, 34.4686236], [-95.5523859, 34.4686612]]]}, "properties": {"osm_id": 1423231449, "building": "yes", "name": "", "height": null, "height_m": null, "levels": null, "tract_id": "40127097600", "tract_name": "976", "tags": {"building": "yes"}}}, {"type": "Feature", "geometry": {"type": "Polygon", "coordinates": [[[-95.5526598, 34.4686913], [-95.5526181, 34.4686593], [-95.5526637, 34.4686189], [-95.5527054, 34.4686509], [-95.5526598, 34.4686913]]]}, "properties": {"osm_id": 1423231450, "building": "yes", "name": "", "height": null, "height_m": null, "levels": null, "tract_id": "40127097600", "tract_name": "976", "tags": {"building": "yes"}}}, {"type": "Feature", "geometry": {"type": "Polygon", "coordinates": [[[-95.5526169, 34.4684931], [-95.5525806, 34.4684658], [-95.5526273, 34.4684237], [-95.5526635, 34.4684511], [-95.5526169, 34.4684931]]]}, "properties": {"osm_id": 1423231451, "building": "yes", "name": "", "height": null, "height_m": null, "levels": null, "tract_id": "40127097600", "tract_name": "976", "tags": {"building": "yes"}}}, {"type": "Feature", "geometry": {"type": "Polygon", "coordinates": [[[-95.5525998, 34.4686416], [-95.5525404, 34.4685968], [-95.5526003, 34.4685429], [-95.5526224, 34.4685595], [-95.5527141, 34.4684769], [-95.5527739, 34.468522], [-95.5527008, 34.4685879], [-95.5526782, 34.4685709], [-95.5525998, 34.4686416]]]}, "properties": {"osm_id": 1423231452, "building": "yes", "name": "", "height": null, "height_m": null, "levels": null, "tract_id": "40127097600", "tract_name": "976", "tags": {"building": "yes"}}}, {"type": "Feature", "geometry": {"type": "Polygon", "coordinates": [[[-95.5517891, 34.4699097], [-95.5518027, 34.4699691], [-95.5517083, 34.4699838], [-95.5516738, 34.4698332], [-95.5517681, 34.4698185], [-95.5517844, 34.4698892], [-95.5518075, 34.4698856], [-95.5518122, 34.4699061], [-95.5517891, 34.4699097]]]}, "properties": {"osm_id": 1423231455, "building": "yes", "name": "", "height": null, "height_m": null, "levels": null, "tract_id": "40127097600", "tract_name": "976", "tags": {"building": "yes"}}}, {"type": "Feature", "geometry": {"type": "Polygon", "coordinates": [[[-95.5609633, 34.4611081], [-95.5608503, 34.4610561], [-95.5608969, 34.4609872], [-95.5610099, 34.4610391], [-95.5609633, 34.4611081]]]}, "properties": {"osm_id": 1423231457, "building": "yes", "name": "", "height": null, "height_m": null, "levels": null, "tract_id": "40127097600", "tract_name": "976", "tags": {"building": "yes"}}}, {"type": "Feature", "geometry": {"type": "Polygon", "coordinates": [[[-95.5610699, 34.4603639], [-95.5609794, 34.4603377], [-95.561002, 34.4602845], [-95.5610926, 34.4603108], [-95.5610699, 34.4603639]]]}, "properties": {"osm_id": 1423231458, "building": "yes", "name": "", "height": null, "height_m": null, "levels": null, "tract_id": "40127097600", "tract_name": "976", "tags": {"building": "yes"}}}, {"type": "Feature", "geometry": {"type": "Polygon", "coordinates": [[[-95.5629058, 34.4608448], [-95.5629012, 34.4609293], [-95.562826, 34.4609265], [-95.5628332, 34.4607951], [-95.5628663, 34.4607963], [-95.5628676, 34.4607743], [-95.5629095, 34.4607758], [-95.5629083, 34.460799], [-95.5629345, 34.4608], [-95.562932, 34.4608458], [-95.5629058, 34.4608448]]]}, "properties": {"osm_id": 1423231459, "building": "yes", "name": "", "height": null, "height_m": null, "levels": null, "tract_id": "40127097600", "tract_name": "976", "tags": {"building": "yes"}}}, {"type": "Feature", "geometry": {"type": "Polygon", "coordinates": [[[-95.5638621, 34.4590699], [-95.5637977, 34.4591355], [-95.56368, 34.459057], [-95.5637444, 34.4589914], [-95.5638621, 34.4590699]]]}, "properties": {"osm_id": 1423231462, "building": "yes", "name": "", "height": null, "height_m": null, "levels": null, "tract_id": "40127097600", "tract_name": "976", "tags": {"building": "yes"}}}, {"type": "Feature", "geometry": {"type": "Polygon", "coordinates": [[[-95.5638993, 34.4589842], [-95.5638175, 34.4589331], [-95.5638601, 34.4588867], [-95.5639419, 34.4589379], [-95.5638993, 34.4589842]]]}, "properties": {"osm_id": 1423231463, "building": "yes", "name": "", "height": null, "height_m": null, "levels": null, "tract_id": "40127097600", "tract_name": "976", "tags": {"building": "yes"}}}, {"type": "Feature", "geometry": {"type": "Polygon", "coordinates": [[[-95.5631268, 34.4592465], [-95.5630952, 34.4592471], [-95.5630942, 34.4592056], [-95.5631258, 34.4592051], [-95.5631268, 34.4592465]]]}, "properties": {"osm_id": 1423231464, "building": "yes", "name": "", "height": null, "height_m": null, "levels": null, "tract_id": "40127097600", "tract_name": "976", "tags": {"building": "yes"}}}, {"type": "Feature", "geometry": {"type": "Polygon", "coordinates": [[[-95.5536571, 34.4614401], [-95.5536396, 34.4614361], [-95.5536471, 34.4614136], [-95.5536646, 34.4614176], [-95.5536571, 34.4614401]]]}, "properties": {"osm_id": 1423231472, "building": "yes", "name": "", "height": null, "height_m": null, "levels": null, "tract_id": "40127097600", "tract_name": "976", "tags": {"building": "yes"}}}, {"type": "Feature", "geometry": {"type": "Polygon", "coordinates": [[[-95.5523178, 34.4649386], [-95.5523195, 34.4648261], [-95.5524014, 34.464827], [-95.5523997, 34.4649395], [-95.5523178, 34.4649386]]]}, "properties": {"osm_id": 1423231475, "building": "yes", "name": "", "height": null, "height_m": null, "levels": null, "tract_id": "40127097600", "tract_name": "976", "tags": {"building": "yes"}}}, {"type": "Feature", "geometry": {"type": "Polygon", "coordinates": [[[-95.5524949, 34.4650647], [-95.5524483, 34.4650672], [-95.5524455, 34.4650324], [-95.5524921, 34.4650299], [-95.5524949, 34.4650647]]]}, "properties": {"osm_id": 1423231476, "building": "yes", "name": "", "height": null, "height_m": null, "levels": null, "tract_id": "40127097600", "tract_name": "976", "tags": {"building": "yes"}}}, {"type": "Feature", "geometry": {"type": "Polygon", "coordinates": [[[-95.5527634, 34.4651164], [-95.5526219, 34.4651368], [-95.5525942, 34.4650063], [-95.5527357, 34.4649859], [-95.5527634, 34.4651164]]]}, "properties": {"osm_id": 1423231477, "building": "yes", "name": "", "height": null, "height_m": null, "levels": null, "tract_id": "40127097600", "tract_name": "976", "tags": {"building": "yes"}}}, {"type": "Feature", "geometry": {"type": "Polygon", "coordinates": [[[-95.5609941, 34.4546749], [-95.5609515, 34.4546699], [-95.5609619, 34.4546096], [-95.5610045, 34.4546146], [-95.5609941, 34.4546749]]]}, "properties": {"osm_id": 1423231493, "building": "yes", "name": "", "height": null, "height_m": null, "levels": null, "tract_id": "40127097600", "tract_name": "976", "tags": {"building": "yes"}}}, {"type": "Feature", "geometry": {"type": "Polygon", "coordinates": [[[-95.55913, 34.4586215], [-95.5590997, 34.4586094], [-95.5591248, 34.4585666], [-95.5591551, 34.4585787], [-95.55913, 34.4586215]]]}, "properties": {"osm_id": 1423231494, "building": "yes", "name": "", "height": null, "height_m": null, "levels": null, "tract_id": "40127097600", "tract_name": "976", "tags": {"building": "yes"}}}, {"type": "Feature", "geometry": {"type": "Polygon", "coordinates": [[[-95.5587173, 34.4591855], [-95.5586837, 34.4591674], [-95.5587712, 34.4590566], [-95.5588048, 34.4590746], [-95.5587173, 34.4591855]]]}, "properties": {"osm_id": 1423231495, "building": "yes", "name": "", "height": null, "height_m": null, "levels": null, "tract_id": "40127097600", "tract_name": "976", "tags": {"building": "yes"}}}, {"type": "Feature", "geometry": {"type": "Polygon", "coordinates": [[[-95.5592648, 34.4584415], [-95.5591511, 34.4583851], [-95.5592205, 34.45829], [-95.5593342, 34.4583464], [-95.5592648, 34.4584415]]]}, "properties": {"osm_id": 1423231497, "building": "yes", "name": "", "height": null, "height_m": null, "levels": null, "tract_id": "40127097600", "tract_name": "976", "tags": {"building": "yes"}}}, {"type": "Feature", "geometry": {"type": "Polygon", "coordinates": [[[-95.5592232, 34.458219], [-95.5591669, 34.4581922], [-95.5591922, 34.458156], [-95.5592485, 34.4581828], [-95.5592232, 34.458219]]]}, "properties": {"osm_id": 1423231498, "building": "yes", "name": "", "height": null, "height_m": null, "levels": null, "tract_id": "40127097600", "tract_name": "976", "tags": {"building": "yes"}}}, {"type": "Feature", "geometry": {"type": "Polygon", "coordinates": [[[-95.5594675, 34.4581306], [-95.5594317, 34.4581797], [-95.5593504, 34.4581395], [-95.559419, 34.4580451], [-95.5593852, 34.4580283], [-95.5594295, 34.4579674], [-95.5595447, 34.4580244], [-95.5594884, 34.4581018], [-95.5594989, 34.458107], [-95.559478, 34.4581358], [-95.5594675, 34.4581306]]]}, "properties": {"osm_id": 1423231499, "building": "yes", "name": "", "height": null, "height_m": null, "levels": null, "tract_id": "40127097600", "tract_name": "976", "tags": {"building": "yes"}}}, {"type": "Feature", "geometry": {"type": "Polygon", "coordinates": [[[-95.5608895, 34.4551382], [-95.5608043, 34.4551216], [-95.5608177, 34.4550751], [-95.5609028, 34.4550917], [-95.5608895, 34.4551382]]]}, "properties": {"osm_id": 1423231505, "building": "yes", "name": "", "height": null, "height_m": null, "levels": null, "tract_id": "40127097600", "tract_name": "976", "tags": {"building": "yes"}}}, {"type": "Feature", "geometry": {"type": "Polygon", "coordinates": [[[-95.5608945, 34.4555468], [-95.5607563, 34.4555047], [-95.5608629, 34.4552667], [-95.5610012, 34.4553088], [-95.5608945, 34.4555468]]]}, "properties": {"osm_id": 1423231506, "building": "yes", "name": "", "height": null, "height_m": null, "levels": null, "tract_id": "40127097600", "tract_name": "976", "tags": {"building": "yes"}}}, {"type": "Feature", "geometry": {"type": "Polygon", "coordinates": [[[-95.5614384, 34.4550047], [-95.5612881, 34.4549394], [-95.5613508, 34.4548414], [-95.561501, 34.4549066], [-95.5614384, 34.4550047]]]}, "properties": {"osm_id": 1423231507, "building": "yes", "name": "", "height": null, "height_m": null, "levels": null, "tract_id": "40127097600", "tract_name": "976", "tags": {"building": "yes"}}}, {"type": "Feature", "geometry": {"type": "Polygon", "coordinates": [[[-95.4666144, 34.5430395], [-95.46668, 34.5429938], [-95.4667313, 34.5430438], [-95.4666917, 34.5430713], [-95.4667098, 34.543089], [-95.4666283, 34.5431457], [-95.466559, 34.5430781], [-95.4665751, 34.5430669], [-95.4665579, 34.5430502], [-95.4665972, 34.5430228], [-95.4666144, 34.5430395]]]}, "properties": {"osm_id": 1423320277, "building": "yes", "name": "", "height": null, "height_m": null, "levels": null, "tract_id": "40127097600", "tract_name": "976", "tags": {"building": "yes"}}}, {"type": "Feature", "geometry": {"type": "Polygon", "coordinates": [[[-95.4694406, 34.539925], [-95.4695281, 34.5399281], [-95.4695214, 34.5400557], [-95.4694339, 34.5400526], [-95.4694406, 34.539925]]]}, "properties": {"osm_id": 1423320281, "building": "yes", "name": "", "height": null, "height_m": null, "levels": null, "tract_id": "40127097600", "tract_name": "976", "tags": {"building": "yes"}}}, {"type": "Feature", "geometry": {"type": "Polygon", "coordinates": [[[-95.469341, 34.5399562], [-95.4692621, 34.5399134], [-95.4693385, 34.5398178], [-95.4694175, 34.5398606], [-95.469341, 34.5399562]]]}, "properties": {"osm_id": 1423320282, "building": "yes", "name": "", "height": null, "height_m": null, "levels": null, "tract_id": "40127097600", "tract_name": "976", "tags": {"building": "yes"}}}, {"type": "Feature", "geometry": {"type": "Polygon", "coordinates": [[[-95.4686155, 34.5406063], [-95.4685518, 34.5405442], [-95.4685938, 34.5405149], [-95.4686576, 34.5405771], [-95.4686155, 34.5406063]]]}, "properties": {"osm_id": 1423320283, "building": "yes", "name": "", "height": null, "height_m": null, "levels": null, "tract_id": "40127097600", "tract_name": "976", "tags": {"building": "yes"}}}, {"type": "Feature", "geometry": {"type": "Polygon", "coordinates": [[[-95.4680569, 34.5407038], [-95.4680218, 34.5406715], [-95.4680566, 34.5406458], [-95.4680917, 34.5406781], [-95.4680569, 34.5407038]]]}, "properties": {"osm_id": 1423320284, "building": "yes", "name": "", "height": null, "height_m": null, "levels": null, "tract_id": "40127097600", "tract_name": "976", "tags": {"building": "yes"}}}, {"type": "Feature", "geometry": {"type": "Polygon", "coordinates": [[[-95.4682534, 34.5407557], [-95.4682172, 34.5407225], [-95.4682564, 34.5406936], [-95.4682925, 34.5407268], [-95.4682534, 34.5407557]]]}, "properties": {"osm_id": 1423320285, "building": "yes", "name": "", "height": null, "height_m": null, "levels": null, "tract_id": "40127097600", "tract_name": "976", "tags": {"building": "yes"}}}, {"type": "Feature", "geometry": {"type": "Polygon", "coordinates": [[[-95.4685333, 34.5406638], [-95.4684009, 34.5407615], [-95.468293, 34.5406623], [-95.4684254, 34.5405646], [-95.4685333, 34.5406638]]]}, "properties": {"osm_id": 1423320286, "building": "yes", "name": "", "height": null, "height_m": null, "levels": null, "tract_id": "40127097600", "tract_name": "976", "tags": {"building": "yes"}}}, {"type": "Feature", "geometry": {"type": "Polygon", "coordinates": [[[-95.4683013, 34.5408402], [-95.4682292, 34.5409032], [-95.4681319, 34.5408275], [-95.4682041, 34.5407646], [-95.4683013, 34.5408402]]]}, "properties": {"osm_id": 1423320287, "building": "yes", "name": "", "height": null, "height_m": null, "levels": null, "tract_id": "40127097600", "tract_name": "976", "tags": {"building": "yes"}}}, {"type": "Feature", "geometry": {"type": "Polygon", "coordinates": [[[-95.4680117, 34.5411398], [-95.467954, 34.5411822], [-95.4678903, 34.5411233], [-95.4680358, 34.5410164], [-95.4680995, 34.5410753], [-95.468057, 34.5411065], [-95.4680653, 34.5411142], [-95.46802, 34.5411475], [-95.4680117, 34.5411398]]]}, "properties": {"osm_id": 1423320289, "building": "yes", "name": "", "height": null, "height_m": null, "levels": null, "tract_id": "40127097600", "tract_name": "976", "tags": {"building": "yes"}}}, {"type": "Feature", "geometry": {"type": "Polygon", "coordinates": [[[-95.4721302, 34.545834], [-95.4721201, 34.5458582], [-95.4720322, 34.5458333], [-95.4720821, 34.5457135], [-95.4721701, 34.5457383], [-95.4721577, 34.545768], [-95.4721825, 34.545775], [-95.472155, 34.5458411], [-95.4721302, 34.545834]]]}, "properties": {"osm_id": 1423320292, "building": "yes", "name": "", "height": null, "height_m": null, "levels": null, "tract_id": "40127097600", "tract_name": "976", "tags": {"building": "yes"}}}, {"type": "Feature", "geometry": {"type": "Polygon", "coordinates": [[[-95.4680519, 34.5425608], [-95.4680969, 34.5426694], [-95.4679635, 34.542707], [-95.4679184, 34.5425983], [-95.4680519, 34.5425608]]]}, "properties": {"osm_id": 1423320293, "building": "barn", "name": "", "height": null, "height_m": null, "levels": null, "tract_id": "40127097600", "tract_name": "976", "tags": {"building": "barn"}}}, {"type": "Feature", "geometry": {"type": "Polygon", "coordinates": [[[-95.5162294, 34.5070987], [-95.5161876, 34.5070638], [-95.5162835, 34.5069859], [-95.5163253, 34.5070208], [-95.5162294, 34.5070987]]]}, "properties": {"osm_id": 1423343426, "building": "yes", "name": "", "height": null, "height_m": null, "levels": null, "tract_id": "40127097600", "tract_name": "976", "tags": {"building": "yes"}}}, {"type": "Feature", "geometry": {"type": "Polygon", "coordinates": [[[-95.5164249, 34.506913], [-95.5163122, 34.5068155], [-95.5165053, 34.5066641], [-95.516618, 34.5067616], [-95.5164249, 34.506913]]]}, "properties": {"osm_id": 1423343427, "building": "yes", "name": "", "height": null, "height_m": null, "levels": null, "tract_id": "40127097600", "tract_name": "976", "tags": {"building": "yes"}}}, {"type": "Feature", "geometry": {"type": "Polygon", "coordinates": [[[-95.5171437, 34.5070014], [-95.5168911, 34.5070638], [-95.5168153, 34.5068555], [-95.5170679, 34.5067931], [-95.5171437, 34.5070014]]]}, "properties": {"osm_id": 1423343428, "building": "yes", "name": "", "height": null, "height_m": null, "levels": null, "tract_id": "40127097600", "tract_name": "976", "tags": {"building": "yes"}}}, {"type": "Feature", "geometry": {"type": "Polygon", "coordinates": [[[-95.5177163, 34.5066616], [-95.5175883, 34.5067031], [-95.5175635, 34.5066511], [-95.5176916, 34.5066097], [-95.5177163, 34.5066616]]]}, "properties": {"osm_id": 1423343429, "building": "yes", "name": "", "height": null, "height_m": null, "levels": null, "tract_id": "40127097600", "tract_name": "976", "tags": {"building": "yes"}}}, {"type": "Feature", "geometry": {"type": "Polygon", "coordinates": [[[-95.5115124, 34.5075267], [-95.5114952, 34.5075077], [-95.5116012, 34.5074425], [-95.5116183, 34.5074615], [-95.5115124, 34.5075267]]]}, "properties": {"osm_id": 1423343433, "building": "yes", "name": "", "height": null, "height_m": null, "levels": null, "tract_id": "40127097600", "tract_name": "976", "tags": {"building": "yes"}}}, {"type": "Feature", "geometry": {"type": "Polygon", "coordinates": [[[-95.5117498, 34.5075151], [-95.5116377, 34.5074049], [-95.5117724, 34.5073118], [-95.5118845, 34.507422], [-95.5117498, 34.5075151]]]}, "properties": {"osm_id": 1423343434, "building": "yes", "name": "", "height": null, "height_m": null, "levels": null, "tract_id": "40127097600", "tract_name": "976", "tags": {"building": "yes"}}}]}