{"type": "FeatureCollection", "features": [{"type": "Feature", "geometry": {"type": "Polygon", "coordinates": [[[-94.6188566, 35.0191657], [-94.6188842, 35.019034], [-94.6186141, 35.018996], [-94.6185865, 35.0191278], [-94.6188566, 35.0191657]]]}, "properties": {"osm_id": 337611947, "building": "hangar", "name": "", "height": null, "height_m": null, "levels": null, "tract_id": "40079040402", "tract_name": "404.02", "tags": {"building": "hangar", "source": "bing"}}}, {"type": "Feature", "geometry": {"type": "Polygon", "coordinates": [[[-94.6193192, 35.0189096], [-94.6186586, 35.018814], [-94.6186759, 35.0187185], [-94.6193364, 35.018814], [-94.6193192, 35.0189096]]]}, "properties": {"osm_id": 337611948, "building": "hangar", "name": "", "height": null, "height_m": null, "levels": null, "tract_id": "40079040402", "tract_name": "404.02", "tags": {"building": "hangar", "source": "bing"}}}, {"type": "Feature", "geometry": {"type": "Polygon", "coordinates": [[[-94.6191663, 35.0183257], [-94.6187656, 35.0182648], [-94.618785, 35.0181793], [-94.6191857, 35.0182403], [-94.6191663, 35.0183257]]]}, "properties": {"osm_id": 337611949, "building": "hangar", "name": "", "height": null, "height_m": null, "levels": null, "tract_id": "40079040402", "tract_name": "404.02", "tags": {"building": "hangar", "source": "bing"}}}, {"type": "Feature", "geometry": {"type": "Polygon", "coordinates": [[[-94.6197396, 35.0179971], [-94.6197787, 35.01781], [-94.6195938, 35.0177841], [-94.6195547, 35.0179712], [-94.6197396, 35.0179971]]]}, "properties": {"osm_id": 337611950, "building": "hangar", "name": "", "height": null, "height_m": null, "levels": null, "tract_id": "40079040402", "tract_name": "404.02", "tags": {"building": "hangar", "source": "bing"}}}, {"type": "Feature", "geometry": {"type": "Polygon", "coordinates": [[[-94.6194241, 35.0183583], [-94.6194457, 35.0182634], [-94.6192988, 35.018241], [-94.6192772, 35.0183358], [-94.6194241, 35.0183583]]]}, "properties": {"osm_id": 337611951, "building": "hangar", "name": "", "height": null, "height_m": null, "levels": null, "tract_id": "40079040402", "tract_name": "404.02", "tags": {"building": "hangar", "source": "bing"}}}, {"type": "Feature", "geometry": {"type": "Polygon", "coordinates": [[[-94.6193765, 35.0186279], [-94.618716, 35.0185324], [-94.6187382, 35.0184293], [-94.6193987, 35.0185248], [-94.6193765, 35.0186279]]]}, "properties": {"osm_id": 337611954, "building": "hangar", "name": "", "height": null, "height_m": null, "levels": null, "tract_id": "40079040402", "tract_name": "404.02", "tags": {"building": "hangar", "source": "bing"}}}, {"type": "Feature", "geometry": {"type": "Polygon", "coordinates": [[[-94.6192691, 35.0190904], [-94.6190953, 35.0190653], [-94.6190782, 35.019145], [-94.619252, 35.0191701], [-94.6192691, 35.0190904]]]}, "properties": {"osm_id": 337611955, "building": "yes", "name": "", "height": null, "height_m": null, "levels": null, "tract_id": "40079040402", "tract_name": "404.02", "tags": {"building": "yes", "source": "bing"}}}, {"type": "Feature", "geometry": {"type": "Polygon", "coordinates": [[[-94.6197438, 35.0183735], [-94.6197726, 35.0182365], [-94.6195025, 35.0181985], [-94.6194738, 35.0183354], [-94.6197438, 35.0183735]]]}, "properties": {"osm_id": 337611956, "building": "hangar", "name": "", "height": null, "height_m": null, "levels": null, "tract_id": "40079040402", "tract_name": "404.02", "tags": {"building": "hangar", "source": "bing"}}}, {"type": "Feature", "geometry": {"type": "Polygon", "coordinates": [[[-94.6189496, 35.0195558], [-94.6189289, 35.0196587], [-94.619131, 35.019686], [-94.6191554, 35.0196893], [-94.6191762, 35.0195864], [-94.6189496, 35.0195558]]]}, "properties": {"osm_id": 337611957, "building": "yes", "name": "", "height": null, "height_m": null, "levels": null, "tract_id": "40079040402", "tract_name": "404.02", "tags": {"building": "yes"}}}, {"type": "Feature", "geometry": {"type": "Polygon", "coordinates": [[[-94.6192163, 35.0193872], [-94.6188886, 35.019343], [-94.6188485, 35.0195421], [-94.6189496, 35.0195558], [-94.6191762, 35.0195864], [-94.6192163, 35.0193872]]]}, "properties": {"osm_id": 337611958, "building": "yes", "name": "", "height": null, "height_m": null, "levels": null, "tract_id": "40079040402", "tract_name": "404.02", "tags": {"building": "yes"}}}, {"type": "Feature", "geometry": {"type": "Polygon", "coordinates": [[[-94.6184887, 35.0201687], [-94.6184638, 35.0199591], [-94.6185683, 35.0199508], [-94.6185783, 35.0200351], [-94.6185926, 35.020034], [-94.6186075, 35.0201592], [-94.6184887, 35.0201687]]]}, "properties": {"osm_id": 337611959, "building": "yes", "name": "", "height": null, "height_m": null, "levels": null, "tract_id": "40079040402", "tract_name": "404.02", "tags": {"building": "yes"}}}, {"type": "Feature", "geometry": {"type": "Polygon", "coordinates": [[[-94.6319753, 35.0478935], [-94.6319755, 35.0479822], [-94.6315048, 35.0479828], [-94.6315046, 35.047878], [-94.6314862, 35.047878], [-94.6314715, 35.0478645], [-94.6314675, 35.047603], [-94.6314727, 35.0475948], [-94.6315009, 35.0475948], [-94.6315007, 35.0474841], [-94.631901, 35.0474835], [-94.6319019, 35.0478936], [-94.6319753, 35.0478935]]]}, "properties": {"osm_id": 361354171, "building": "yes", "name": "", "height": null, "height_m": null, "levels": null, "tract_id": "40079040402", "tract_name": "404.02", "tags": {"building": "yes", "shop": "second_hand"}}}, {"type": "Feature", "geometry": {"type": "Polygon", "coordinates": [[[-94.5971333, 35.0687722], [-94.5970323, 35.0687368], [-94.5970926, 35.0686215], [-94.5971936, 35.0686569], [-94.5971333, 35.0687722]]]}, "properties": {"osm_id": 867481636, "building": "barn", "name": "", "height": null, "height_m": null, "levels": null, "tract_id": "40079040402", "tract_name": "404.02", "tags": {"building": "barn"}}}, {"type": "Feature", "geometry": {"type": "Polygon", "coordinates": [[[-94.5983456, 35.0692848], [-94.5980814, 35.0692837], [-94.5980818, 35.0692167], [-94.598346, 35.0692178], [-94.5983456, 35.0692848]]]}, "properties": {"osm_id": 867481637, "building": "yes", "name": "", "height": null, "height_m": null, "levels": null, "tract_id": "40079040402", "tract_name": "404.02", "tags": {"building": "yes"}}}, {"type": "Feature", "geometry": {"type": "Polygon", "coordinates": [[[-94.5995747, 35.0694906], [-94.5994312, 35.0694692], [-94.599468, 35.0693039], [-94.5996115, 35.0693253], [-94.5995747, 35.0694906]]]}, "properties": {"osm_id": 867481639, "building": "yes", "name": "", "height": null, "height_m": null, "levels": null, "tract_id": "40079040402", "tract_name": "404.02", "tags": {"building": "yes"}}}, {"type": "Feature", "geometry": {"type": "Polygon", "coordinates": [[[-94.5998973, 35.0692771], [-94.599737, 35.0692738], [-94.5997387, 35.0692186], [-94.599899, 35.0692219], [-94.5998973, 35.0692771]]]}, "properties": {"osm_id": 867481640, "building": "yes", "name": "", "height": null, "height_m": null, "levels": null, "tract_id": "40079040402", "tract_name": "404.02", "tags": {"building": "yes"}}}, {"type": "Feature", "geometry": {"type": "Polygon", "coordinates": [[[-94.6002024, 35.0694566], [-94.6001134, 35.0694451], [-94.6001375, 35.0693199], [-94.6002265, 35.0693314], [-94.6002024, 35.0694566]]]}, "properties": {"osm_id": 867481641, "building": "yes", "name": "", "height": null, "height_m": null, "levels": null, "tract_id": "40079040402", "tract_name": "404.02", "tags": {"building": "yes"}}}, {"type": "Feature", "geometry": {"type": "Polygon", "coordinates": [[[-94.6015924, 35.0657953], [-94.6012089, 35.0657843], [-94.6012128, 35.0656928], [-94.6015963, 35.0657038], [-94.6015924, 35.0657953]]]}, "properties": {"osm_id": 867481646, "building": "yes", "name": "", "height": null, "height_m": null, "levels": null, "tract_id": "40079040402", "tract_name": "404.02", "tags": {"building": "yes"}}}, {"type": "Feature", "geometry": {"type": "Polygon", "coordinates": [[[-94.6122551, 35.0573867], [-94.6122153, 35.0573852], [-94.6122144, 35.0573999], [-94.6121763, 35.0573984], [-94.6121774, 35.05738], [-94.6121347, 35.0573783], [-94.612138, 35.0573226], [-94.6122586, 35.0573273], [-94.6122551, 35.0573867]]]}, "properties": {"osm_id": 1156322504, "building": "house", "name": "", "height": null, "height_m": 6.0, "levels": 2, "tract_id": "40079040402", "tract_name": "404.02", "tags": {"addr:city": "Poteau", "addr:housenumber": "105", "addr:postcode": "74953", "addr:state": "OK", "addr:street": "Susquehanna Avenue", "building": "house", "building:levels": "2"}}}, {"type": "Feature", "geometry": {"type": "Polygon", "coordinates": [[[-94.6115068, 35.0573154], [-94.6114071, 35.0573061], [-94.611415, 35.0572502], [-94.6115146, 35.0572595], [-94.6115068, 35.0573154]]]}, "properties": {"osm_id": 1156322505, "building": "house", "name": "", "height": null, "height_m": null, "levels": null, "tract_id": "40079040402", "tract_name": "404.02", "tags": {"building": "house"}}}, {"type": "Feature", "geometry": {"type": "Polygon", "coordinates": [[[-94.6133123, 35.0573932], [-94.6133082, 35.0574915], [-94.6134488, 35.0574954], [-94.6134495, 35.0574781], [-94.6134758, 35.0574788], [-94.6134774, 35.0574408], [-94.6134419, 35.0574399], [-94.6134437, 35.0573969], [-94.6133123, 35.0573932]]]}, "properties": {"osm_id": 1156322506, "building": "house", "name": "", "height": null, "height_m": null, "levels": null, "tract_id": "40079040402", "tract_name": "404.02", "tags": {"building": "house"}}}, {"type": "Feature", "geometry": {"type": "Polygon", "coordinates": [[[-94.6212576, 35.0524782], [-94.6211371, 35.052384], [-94.6212769, 35.0522634], [-94.6212652, 35.0522534], [-94.6214286, 35.052113], [-94.6215655, 35.052224], [-94.6215185, 35.0522611], [-94.6212576, 35.0524782]]]}, "properties": {"osm_id": 1196293554, "building": "yes", "name": "Leflore County Museum", "height": null, "height_m": null, "levels": null, "tract_id": "40079040402", "tract_name": "404.02", "tags": {"addr:city": "Poteau", "addr:housenumber": "303", "addr:postcode": "74953", "addr:state": "OK", "addr:street": "Dewey Avenue", "building": "yes", "name": "Leflore County Museum", "tourism": "museum"}}}, {"type": "Feature", "geometry": {"type": "Polygon", "coordinates": [[[-94.6210048, 35.0525818], [-94.6209174, 35.0525885], [-94.6208965, 35.0525711], [-94.6209719, 35.0525087], [-94.6209904, 35.0524915], [-94.6210113, 35.0524751], [-94.6210217, 35.0524654], [-94.6210863, 35.0525182], [-94.6210048, 35.0525818]]]}, "properties": {"osm_id": 1234788022, "building": "commercial", "name": "T-Wrecks, LLC Towing and Recovery", "height": null, "height_m": null, "levels": null, "tract_id": "40079040402", "tract_name": "404.02", "tags": {"building": "commercial", "name": "T-Wrecks, LLC Towing and Recovery"}}}, {"type": "Feature", "geometry": {"type": "Polygon", "coordinates": [[[-94.6211369, 35.0525567], [-94.6210863, 35.0525182], [-94.6210217, 35.0524654], [-94.6209412, 35.0524004], [-94.6209987, 35.0523475], [-94.621196, 35.0525076], [-94.6211369, 35.0525567]]]}, "properties": {"osm_id": 1234788023, "building": "commercial", "name": "", "height": null, "height_m": null, "levels": null, "tract_id": "40079040402", "tract_name": "404.02", "tags": {"addr:city": "Poteau", "addr:housenumber": "112", "addr:postcode": "74953", "addr:state": "OK", "addr:street": "North Witte Street", "building": "commercial"}}}, {"type": "Feature", "geometry": {"type": "Polygon", "coordinates": [[[-94.6210113, 35.0524751], [-94.6209792, 35.0524476], [-94.6209582, 35.052464], [-94.6209904, 35.0524915], [-94.6210113, 35.0524751]]]}, "properties": {"osm_id": 1234788024, "building": "shed", "name": "", "height": null, "height_m": null, "levels": null, "tract_id": "40079040402", "tract_name": "404.02", "tags": {"building": "shed"}}}, {"type": "Feature", "geometry": {"type": "Polygon", "coordinates": [[[-94.6207883, 35.0522806], [-94.6208141, 35.052303], [-94.6207641, 35.0523417], [-94.6207382, 35.0523193], [-94.6207883, 35.0522806]]]}, "properties": {"osm_id": 1234788025, "building": "shed", "name": "", "height": null, "height_m": null, "levels": null, "tract_id": "40079040402", "tract_name": "404.02", "tags": {"building": "shed"}}}, {"type": "Feature", "geometry": {"type": "Polygon", "coordinates": [[[-94.6207353, 35.0521478], [-94.6208139, 35.0522114], [-94.620498, 35.0524751], [-94.6204239, 35.0524123], [-94.6207353, 35.0521478]]]}, "properties": {"osm_id": 1234788026, "building": "commercial", "name": "", "height": null, "height_m": null, "levels": null, "tract_id": "40079040402", "tract_name": "404.02", "tags": {"building": "commercial"}}}, {"type": "Feature", "geometry": {"type": "Polygon", "coordinates": [[[-94.6204207, 35.0526502], [-94.6204845, 35.0527001], [-94.6203813, 35.0527885], [-94.6202289, 35.0526693], [-94.6201681, 35.0526217], [-94.6201636, 35.0526182], [-94.6202672, 35.0525295], [-94.6203853, 35.0526219], [-94.6203955, 35.0526131], [-94.6204313, 35.0526411], [-94.6204207, 35.0526502]]]}, "properties": {"osm_id": 1234788027, "building": "church", "name": "First Presbyterian Annex", "height": null, "height_m": null, "levels": null, "tract_id": "40079040402", "tract_name": "404.02", "tags": {"building": "church", "name": "First Presbyterian Annex"}}}, {"type": "Feature", "geometry": {"type": "Polygon", "coordinates": [[[-94.6201102, 35.0526723], [-94.6201681, 35.0526217], [-94.6202289, 35.0526693], [-94.62017, 35.0527194], [-94.6201102, 35.0526723]]]}, "properties": {"osm_id": 1234788028, "building": "roof", "name": "", "height": null, "height_m": null, "levels": null, "tract_id": "40079040402", "tract_name": "404.02", "tags": {"building": "roof", "layer": "1"}}}, {"type": "Feature", "geometry": {"type": "Polygon", "coordinates": [[[-94.6206502, 35.0529069], [-94.6206692, 35.0529218], [-94.6205786, 35.0529992], [-94.6205506, 35.0529772], [-94.6205389, 35.0529872], [-94.6204927, 35.0529509], [-94.6205012, 35.0529436], [-94.6204648, 35.0529145], [-94.6204356, 35.0529395], [-94.6204131, 35.0529665], [-94.6205144, 35.0530561], [-94.6204117, 35.0531437], [-94.6201923, 35.0529715], [-94.6203029, 35.0528771], [-94.6203973, 35.0529547], [-94.620414, 35.0529303], [-94.6204509, 35.0528988], [-94.6204149, 35.0528706], [-94.6204922, 35.0528045], [-94.6205331, 35.0528365], [-94.6205752, 35.0528005], [-94.6206155, 35.0528321], [-94.6206295, 35.0528201], [-94.6206933, 35.0528701], [-94.6206502, 35.0529069]]]}, "properties": {"osm_id": 1234788030, "building": "yes", "name": "First Presbyterian Church", "height": null, "height_m": null, "levels": null, "tract_id": "40079040402", "tract_name": "404.02", "tags": {"amenity": "place_of_worship", "building": "yes", "denomination": "presbyterian", "name": "First Presbyterian Church", "religion": "christian"}}}, {"type": "Feature", "geometry": {"type": "Polygon", "coordinates": [[[-94.6204648, 35.0529145], [-94.6204509, 35.0528988], [-94.620414, 35.0529303], [-94.6203973, 35.0529547], [-94.6204131, 35.0529665], [-94.6204356, 35.0529395], [-94.6204648, 35.0529145]]]}, "properties": {"osm_id": 1234788031, "building": "roof", "name": "", "height": null, "height_m": null, "levels": null, "tract_id": "40079040402", "tract_name": "404.02", "tags": {"building": "roof", "layer": "1"}}}, {"type": "Feature", "geometry": {"type": "Polygon", "coordinates": [[[-94.62022, 35.0530943], [-94.6201916, 35.0531166], [-94.6203102, 35.0532186], [-94.6201515, 35.0533428], [-94.6201532, 35.0533685], [-94.620106, 35.0533706], [-94.6201076, 35.0533922], [-94.6200605, 35.0533938], [-94.6200601, 35.0533829], [-94.6200492, 35.0533838], [-94.6200498, 35.0533933], [-94.6199999, 35.0533941], [-94.6199996, 35.0533675], [-94.6199718, 35.0533687], [-94.6199702, 35.0533446], [-94.6199569, 35.0533452], [-94.6199566, 35.0533413], [-94.6197495, 35.0531787], [-94.619996, 35.0529683], [-94.620021, 35.0529879], [-94.6200352, 35.0529759], [-94.6200574, 35.0529976], [-94.6200434, 35.0530096], [-94.620126, 35.0530745], [-94.6201399, 35.0530739], [-94.6201471, 35.0530676], [-94.6201657, 35.0530518], [-94.62022, 35.0530943]]]}, "properties": {"osm_id": 1234788032, "building": "yes", "name": "First Christian Church", "height": null, "height_m": null, "levels": null, "tract_id": "40079040402", "tract_name": "404.02", "tags": {"amenity": "place_of_worship", "building": "yes", "name": "First Christian Church", "religion": "christian"}}}, {"type": "Feature", "geometry": {"type": "Polygon", "coordinates": [[[-94.6207792, 35.0532273], [-94.6206872, 35.0531645], [-94.6208722, 35.0529827], [-94.6211268, 35.0531529], [-94.6210968, 35.0531795], [-94.621264, 35.0532947], [-94.6212543, 35.0533056], [-94.6213102, 35.0533405], [-94.6212672, 35.0533809], [-94.6212279, 35.0534179], [-94.6211781, 35.0533825], [-94.6210988, 35.0534512], [-94.6209291, 35.0533368], [-94.6209596, 35.0533072], [-94.6208422, 35.0532257], [-94.6208549, 35.0532132], [-94.6208467, 35.0532078], [-94.6207792, 35.0532273]]]}, "properties": {"osm_id": 1234788041, "building": "yes", "name": "Central National Bank", "height": null, "height_m": null, "levels": null, "tract_id": "40079040402", "tract_name": "404.02", "tags": {"amenity": "bank", "atm": "yes", "building": "yes", "drive_through": "yes", "layer": "1", "name": "Central National Bank"}}}, {"type": "Feature", "geometry": {"type": "Polygon", "coordinates": [[[-94.6213801, 35.0533261], [-94.6210767, 35.0536199], [-94.6213316, 35.0538003], [-94.6216397, 35.0535071], [-94.6213801, 35.0533261]]]}, "properties": {"osm_id": 1234788044, "building": "yes", "name": "Dollar General", "height": null, "height_m": null, "levels": null, "tract_id": "40079040402", "tract_name": "404.02", "tags": {"brand": "Dollar General", "brand:wikidata": "Q145168", "building": "yes", "name": "Dollar General", "shop": "variety_store", "website": "https://www.dollargeneral.com/store-directory/ok/poteau/2253"}}}, {"type": "Feature", "geometry": {"type": "Polygon", "coordinates": [[[-94.6212952, 35.0529788], [-94.6211858, 35.0529031], [-94.6211597, 35.0529284], [-94.6210806, 35.0528736], [-94.6212813, 35.0526791], [-94.6214633, 35.052805], [-94.6214254, 35.0528417], [-94.6215109, 35.0529009], [-94.6214036, 35.0530048], [-94.6213469, 35.0529657], [-94.6213317, 35.0529804], [-94.6213094, 35.052965], [-94.6212952, 35.0529788]]]}, "properties": {"osm_id": 1234788045, "building": "yes", "name": "", "height": null, "height_m": null, "levels": null, "tract_id": "40079040402", "tract_name": "404.02", "tags": {"amenity": "post_office", "building": "yes", "operator": "United States Postal Service", "operator:short": "USPS", "operator:type": "public", "operator:website": "https://www.usps.com", "operator:wikidata": "Q668687", "operator:wikipedia": "en:United States Postal Service"}}}, {"type": "Feature", "geometry": {"type": "Polygon", "coordinates": [[[-94.6214286, 35.052113], [-94.621309, 35.0520157], [-94.6210709, 35.0522188], [-94.6211905, 35.0523144], [-94.6212652, 35.0522534], [-94.6214286, 35.052113]]]}, "properties": {"osm_id": 1234788046, "building": "yes", "name": "Poteau MainStreet Event Center", "height": null, "height_m": null, "levels": null, "tract_id": "40079040402", "tract_name": "404.02", "tags": {"addr:city": "Poteau", "addr:housenumber": "307", "addr:postcode": "74953", "addr:state": "OK", "addr:street": "Dewey Avenue", "amenity": "events_venue", "building": "yes", "name": "Poteau MainStreet Event Center"}}}, {"type": "Feature", "geometry": {"type": "Polygon", "coordinates": [[[-94.6210067, 35.0521674], [-94.6210305, 35.0521876], [-94.6210709, 35.0522188], [-94.621309, 35.0520157], [-94.6212371, 35.0519617], [-94.6210067, 35.0521674]]]}, "properties": {"osm_id": 1234788047, "building": "yes", "name": "Poteau Mainstreet Matters INC", "height": null, "height_m": null, "levels": null, "tract_id": "40079040402", "tract_name": "404.02", "tags": {"building": "yes", "name": "Poteau Mainstreet Matters INC", "office": "association"}}}, {"type": "Feature", "geometry": {"type": "Polygon", "coordinates": [[[-94.6210067, 35.0521674], [-94.6209502, 35.052125], [-94.6209967, 35.0520798], [-94.6211806, 35.0519192], [-94.6212371, 35.0519617], [-94.6210067, 35.0521674]]]}, "properties": {"osm_id": 1234788048, "building": "commercial", "name": "", "height": null, "height_m": null, "levels": null, "tract_id": "40079040402", "tract_name": "404.02", "tags": {"building": "commercial"}}}, {"type": "Feature", "geometry": {"type": "Polygon", "coordinates": [[[-94.620877, 35.0519864], [-94.6207684, 35.0520839], [-94.6207065, 35.0520357], [-94.6210066, 35.0517771], [-94.621062, 35.0518244], [-94.620877, 35.0519864]]]}, "properties": {"osm_id": 1234788049, "building": "commercial", "name": "", "height": null, "height_m": null, "levels": null, "tract_id": "40079040402", "tract_name": "404.02", "tags": {"building": "commercial"}}}, {"type": "Feature", "geometry": {"type": "Polygon", "coordinates": [[[-94.6207065, 35.0520357], [-94.6206511, 35.0519917], [-94.6208751, 35.051798], [-94.6209506, 35.0517327], [-94.6210066, 35.0517771], [-94.6207065, 35.0520357]]]}, "properties": {"osm_id": 1234788050, "building": "commercial", "name": "Kay Sullivan Real Estate", "height": null, "height_m": null, "levels": null, "tract_id": "40079040402", "tract_name": "404.02", "tags": {"building": "commercial", "name": "Kay Sullivan Real Estate", "office": "estate_agent"}}}, {"type": "Feature", "geometry": {"type": "Polygon", "coordinates": [[[-94.6209506, 35.0517327], [-94.6209587, 35.0517246], [-94.6208338, 35.0516256], [-94.6207422, 35.0517002], [-94.620749, 35.0517052], [-94.6208751, 35.051798], [-94.6209506, 35.0517327]]]}, "properties": {"osm_id": 1234788051, "building": "commercial", "name": "Sanders Sanders & Sullivan", "height": null, "height_m": null, "levels": null, "tract_id": "40079040402", "tract_name": "404.02", "tags": {"building": "commercial", "name": "Sanders Sanders & Sullivan", "office": "lawyer"}}}, {"type": "Feature", "geometry": {"type": "Polygon", "coordinates": [[[-94.6211806, 35.0519192], [-94.6211169, 35.0518665], [-94.6209295, 35.0520275], [-94.6209967, 35.0520798], [-94.6211806, 35.0519192]]]}, "properties": {"osm_id": 1234788052, "building": "yes", "name": "Shop Dog Brewery Co.", "height": null, "height_m": null, "levels": null, "tract_id": "40079040402", "tract_name": "404.02", "tags": {"amenity": "pub", "building": "yes", "microbrewery": "yes", "name": "Shop Dog Brewery Co."}}}, {"type": "Feature", "geometry": {"type": "Polygon", "coordinates": [[[-94.6209295, 35.0520275], [-94.620877, 35.0519864], [-94.621062, 35.0518244], [-94.6211169, 35.0518665], [-94.6209295, 35.0520275]]]}, "properties": {"osm_id": 1234788053, "building": "commercial", "name": "", "height": null, "height_m": null, "levels": null, "tract_id": "40079040402", "tract_name": "404.02", "tags": {"building": "commercial"}}}, {"type": "Feature", "geometry": {"type": "Polygon", "coordinates": [[[-94.6209421, 35.0522291], [-94.621004, 35.0522769], [-94.6210709, 35.0522188], [-94.6210305, 35.0521876], [-94.6210177, 35.0521987], [-94.6209962, 35.0521821], [-94.6209421, 35.0522291]]]}, "properties": {"osm_id": 1234788054, "building": "yes", "name": "", "height": null, "height_m": null, "levels": null, "tract_id": "40079040402", "tract_name": "404.02", "tags": {"building": "yes"}}}, {"type": "Feature", "geometry": {"type": "Polygon", "coordinates": [[[-94.6158108, 35.0524306], [-94.6156564, 35.0523138], [-94.6155998, 35.0523645], [-94.6156204, 35.0523796], [-94.6154168, 35.0525518], [-94.6155485, 35.052651], [-94.6158108, 35.0524306]]]}, "properties": {"osm_id": 1234788070, "building": "yes", "name": "", "height": null, "height_m": null, "levels": null, "tract_id": "40079040402", "tract_name": "404.02", "tags": {"building": "yes"}}}, {"type": "Feature", "geometry": {"type": "Polygon", "coordinates": [[[-94.615494, 35.0527804], [-94.6155342, 35.0528096], [-94.6154786, 35.0528609], [-94.6154349, 35.0528291], [-94.6153736, 35.0528857], [-94.6152719, 35.0528119], [-94.6153141, 35.052773], [-94.6152755, 35.052745], [-94.6153663, 35.0526611], [-94.6154092, 35.0526922], [-94.6154538, 35.0526511], [-94.6155547, 35.0527243], [-94.615494, 35.0527804]]]}, "properties": {"osm_id": 1234788071, "building": "yes", "name": "", "height": null, "height_m": null, "levels": null, "tract_id": "40079040402", "tract_name": "404.02", "tags": {"building": "yes"}}}, {"type": "Feature", "geometry": {"type": "Polygon", "coordinates": [[[-94.6154462, 35.0526321], [-94.6154126, 35.0526059], [-94.6153909, 35.0526244], [-94.6154246, 35.0526507], [-94.6154462, 35.0526321]]]}, "properties": {"osm_id": 1234788072, "building": "yes", "name": "", "height": null, "height_m": null, "levels": null, "tract_id": "40079040402", "tract_name": "404.02", "tags": {"building": "yes"}}}, {"type": "Feature", "geometry": {"type": "Polygon", "coordinates": [[[-94.6154484, 35.0526282], [-94.6154779, 35.0526032], [-94.6154441, 35.0525783], [-94.6154159, 35.0526028], [-94.6154484, 35.0526282]]]}, "properties": {"osm_id": 1234788073, "building": "yes", "name": "", "height": null, "height_m": null, "levels": null, "tract_id": "40079040402", "tract_name": "404.02", "tags": {"building": "yes"}}}, {"type": "Feature", "geometry": {"type": "Polygon", "coordinates": [[[-94.6155888, 35.0515779], [-94.6148993, 35.0521145], [-94.614739, 35.0519765], [-94.6151328, 35.05167], [-94.6151677, 35.0517001], [-94.6153363, 35.0515689], [-94.6153642, 35.051593], [-94.6154914, 35.051494], [-94.6155888, 35.0515779]]]}, "properties": {"osm_id": 1234788074, "building": "industrial", "name": "", "height": null, "height_m": null, "levels": null, "tract_id": "40079040402", "tract_name": "404.02", "tags": {"building": "industrial", "disused": "yes"}}}, {"type": "Feature", "geometry": {"type": "Polygon", "coordinates": [[[-94.6161567, 35.0510793], [-94.6162707, 35.0509915], [-94.6162408, 35.0509654], [-94.6161267, 35.0510532], [-94.6161567, 35.0510793]]]}, "properties": {"osm_id": 1234788075, "building": "static_caravan", "name": "", "height": null, "height_m": null, "levels": null, "tract_id": "40079040402", "tract_name": "404.02", "tags": {"building": "static_caravan"}}}, {"type": "Feature", "geometry": {"type": "Polygon", "coordinates": [[[-94.607949, 35.0575372], [-94.6079498, 35.057483], [-94.6080352, 35.0574839], [-94.6080374, 35.0573353], [-94.6078842, 35.0573337], [-94.6078811, 35.0575366], [-94.607949, 35.0575372]]]}, "properties": {"osm_id": 1234788077, "building": "yes", "name": "", "height": null, "height_m": null, "levels": null, "tract_id": "40079040402", "tract_name": "404.02", "tags": {"building": "yes"}}}, {"type": "Feature", "geometry": {"type": "Polygon", "coordinates": [[[-94.6077375, 35.0571706], [-94.6076507, 35.0571689], [-94.6076479, 35.0572639], [-94.6075336, 35.0572617], [-94.6075322, 35.0573079], [-94.6074613, 35.0573065], [-94.6074626, 35.0572617], [-94.6074219, 35.0572609], [-94.607426, 35.0571219], [-94.6076386, 35.0571261], [-94.6076389, 35.0571171], [-94.6077391, 35.0571191], [-94.6077375, 35.0571706]]]}, "properties": {"osm_id": 1234788078, "building": "yes", "name": "", "height": null, "height_m": null, "levels": null, "tract_id": "40079040402", "tract_name": "404.02", "tags": {"building": "yes"}}}, {"type": "Feature", "geometry": {"type": "Polygon", "coordinates": [[[-94.6109531, 35.0556645], [-94.610891, 35.0556609], [-94.6109006, 35.0555498], [-94.6109627, 35.0555534], [-94.6109531, 35.0556645]]]}, "properties": {"osm_id": 1234788082, "building": "shed", "name": "", "height": null, "height_m": null, "levels": null, "tract_id": "40079040402", "tract_name": "404.02", "tags": {"building": "shed"}}}, {"type": "Feature", "geometry": {"type": "Polygon", "coordinates": [[[-94.611392, 35.0550785], [-94.6113425, 35.0550669], [-94.6113802, 35.0549585], [-94.6114297, 35.0549701], [-94.611392, 35.0550785]]]}, "properties": {"osm_id": 1234788083, "building": "shed", "name": "", "height": null, "height_m": null, "levels": null, "tract_id": "40079040402", "tract_name": "404.02", "tags": {"building": "shed"}}}, {"type": "Feature", "geometry": {"type": "Polygon", "coordinates": [[[-94.6105542, 35.0570587], [-94.6098534, 35.0570574], [-94.6098387, 35.0570593], [-94.6098379, 35.0571397], [-94.6092358, 35.0571439], [-94.6092364, 35.0575609], [-94.610556, 35.0575527], [-94.6105542, 35.0570587]]]}, "properties": {"osm_id": 1234788084, "building": "industrial", "name": "", "height": null, "height_m": null, "levels": null, "tract_id": "40079040402", "tract_name": "404.02", "tags": {"building": "industrial"}}}, {"type": "Feature", "geometry": {"type": "Polygon", "coordinates": [[[-94.6106767, 35.0570609], [-94.6105542, 35.0570587], [-94.6098534, 35.0570574], [-94.609848, 35.0561652], [-94.610047, 35.0561672], [-94.610038, 35.0555731], [-94.6100075, 35.0555723], [-94.6100064, 35.0555573], [-94.6099829, 35.0555577], [-94.6099844, 35.0555848], [-94.609893, 35.0555853], [-94.6098911, 35.0555578], [-94.609886, 35.0555571], [-94.6098842, 35.0555118], [-94.6096364, 35.0555111], [-94.6096388, 35.0551352], [-94.6095501, 35.0551352], [-94.6095501, 35.0551108], [-94.6095472, 35.0550272], [-94.6095178, 35.0550243], [-94.6095147, 35.0549422], [-94.6095845, 35.0549422], [-94.609586, 35.0550234], [-94.6096369, 35.0550213], [-94.609634, 35.0549067], [-94.6097987, 35.0549064], [-94.6097984, 35.0549721], [-94.6101644, 35.0549764], [-94.6101632, 35.0549593], [-94.6104386, 35.0549589], [-94.6104414, 35.0549717], [-94.6106909, 35.0549756], [-94.6106926, 35.0551064], [-94.6107007, 35.055734], [-94.6107351, 35.0557348], [-94.6107355, 35.0557692], [-94.6107394, 35.0560977], [-94.6106657, 35.056097], [-94.6106722, 35.0566693], [-94.6106732, 35.0567566], [-94.6106767, 35.0570609]]]}, "properties": {"osm_id": 1234788085, "building": "industrial", "name": "", "height": null, "height_m": null, "levels": null, "tract_id": "40079040402", "tract_name": "404.02", "tags": {"building": "industrial"}}}, {"type": "Feature", "geometry": {"type": "Polygon", "coordinates": [[[-94.6107757, 35.0567559], [-94.6106732, 35.0567566], [-94.6106722, 35.0566693], [-94.6107761, 35.0566711], [-94.6107757, 35.0567559]]]}, "properties": {"osm_id": 1234788086, "building": "yes", "name": "", "height": null, "height_m": null, "levels": null, "tract_id": "40079040402", "tract_name": "404.02", "tags": {"building": "yes"}}}, {"type": "Feature", "geometry": {"type": "Polygon", "coordinates": [[[-94.6110456, 35.0544892], [-94.6109973, 35.054491], [-94.6109969, 35.054424], [-94.6110438, 35.054424], [-94.6110456, 35.0544892]]]}, "properties": {"osm_id": 1234788087, "building": "shed", "name": "", "height": null, "height_m": null, "levels": null, "tract_id": "40079040402", "tract_name": "404.02", "tags": {"building": "shed"}}}, {"type": "Feature", "geometry": {"type": "Polygon", "coordinates": [[[-94.6103355, 35.054862], [-94.6103299, 35.054865], [-94.6103257, 35.0548693], [-94.6103235, 35.0548745], [-94.6103235, 35.0548801], [-94.6103256, 35.0548853], [-94.6103297, 35.0548897], [-94.6103354, 35.0548927], [-94.6103419, 35.0548941], [-94.6103487, 35.0548937], [-94.6103549, 35.0548915], [-94.6103599, 35.0548878], [-94.6103632, 35.0548829], [-94.6103643, 35.0548774], [-94.6103632, 35.0548719], [-94.61036, 35.054867], [-94.610355, 35.0548633], [-94.6103488, 35.0548611], [-94.6103421, 35.0548606], [-94.6103355, 35.054862]]]}, "properties": {"osm_id": 1234788088, "building": "yes", "name": "", "height": null, "height_m": null, "levels": null, "tract_id": "40079040402", "tract_name": "404.02", "tags": {"building": "yes", "man_made": "silo"}}}, {"type": "Feature", "geometry": {"type": "Polygon", "coordinates": [[[-94.6102855, 35.0548621], [-94.6102799, 35.0548651], [-94.6102757, 35.0548694], [-94.6102735, 35.0548746], [-94.6102735, 35.0548802], [-94.6102757, 35.0548854], [-94.6102798, 35.0548898], [-94.6102854, 35.0548928], [-94.6102919, 35.0548942], [-94.6102987, 35.0548938], [-94.6103049, 35.0548916], [-94.6103099, 35.0548879], [-94.6103132, 35.054883], [-94.6103143, 35.0548775], [-94.6103132, 35.054872], [-94.61031, 35.0548671], [-94.610305, 35.0548634], [-94.6102988, 35.0548612], [-94.6102921, 35.0548607], [-94.6102855, 35.0548621]]]}, "properties": {"osm_id": 1234788089, "building": "yes", "name": "", "height": null, "height_m": null, "levels": null, "tract_id": "40079040402", "tract_name": "404.02", "tags": {"building": "yes", "man_made": "silo"}}}, {"type": "Feature", "geometry": {"type": "Polygon", "coordinates": [[[-94.6089409, 35.0550393], [-94.6088146, 35.0550374], [-94.6088171, 35.0549293], [-94.6089434, 35.0549313], [-94.6089409, 35.0550393]]]}, "properties": {"osm_id": 1234788090, "building": "yes", "name": "", "height": null, "height_m": null, "levels": null, "tract_id": "40079040402", "tract_name": "404.02", "tags": {"building": "yes"}}}, {"type": "Feature", "geometry": {"type": "Polygon", "coordinates": [[[-94.6086311, 35.0550117], [-94.6085036, 35.0550134], [-94.6085013, 35.0549011], [-94.6086288, 35.0548993], [-94.6086311, 35.0550117]]]}, "properties": {"osm_id": 1234788091, "building": "yes", "name": "", "height": null, "height_m": null, "levels": null, "tract_id": "40079040402", "tract_name": "404.02", "tags": {"building": "yes"}}}, {"type": "Feature", "geometry": {"type": "Polygon", "coordinates": [[[-94.6089584, 35.0553493], [-94.6088387, 35.0553502], [-94.6088376, 35.0552448], [-94.6089573, 35.055244], [-94.6089584, 35.0553493]]]}, "properties": {"osm_id": 1234788092, "building": "yes", "name": "", "height": null, "height_m": null, "levels": null, "tract_id": "40079040402", "tract_name": "404.02", "tags": {"building": "yes"}}}, {"type": "Feature", "geometry": {"type": "Polygon", "coordinates": [[[-94.6087623, 35.0553609], [-94.608254, 35.0553612], [-94.6082538, 35.0552457], [-94.6083879, 35.0552456], [-94.6083879, 35.0552145], [-94.6085054, 35.0552144], [-94.6085054, 35.0552393], [-94.6087622, 35.0552392], [-94.6087623, 35.0553609]]]}, "properties": {"osm_id": 1234788093, "building": "yes", "name": "", "height": null, "height_m": null, "levels": null, "tract_id": "40079040402", "tract_name": "404.02", "tags": {"building": "yes"}}}, {"type": "Feature", "geometry": {"type": "Polygon", "coordinates": [[[-94.6078792, 35.0549019], [-94.607935, 35.0548647], [-94.6080028, 35.0548449], [-94.6080747, 35.0548448], [-94.6081426, 35.0548645], [-94.6081985, 35.0549015], [-94.6082361, 35.0549518], [-94.6082509, 35.0550094], [-94.6082428, 35.0550637], [-94.6082145, 35.0551132], [-94.6081689, 35.055153], [-94.6081103, 35.0551793], [-94.6080447, 35.0551893], [-94.6079785, 35.0551821], [-94.6079183, 35.0551584], [-94.6078702, 35.0551206], [-94.6078371, 35.0550683], [-94.6078273, 35.05501], [-94.6078419, 35.0549523], [-94.6078792, 35.0549019]]]}, "properties": {"osm_id": 1234788094, "building": "yes", "name": "", "height": null, "height_m": null, "levels": null, "tract_id": "40079040402", "tract_name": "404.02", "tags": {"building": "yes"}}}, {"type": "Feature", "geometry": {"type": "Polygon", "coordinates": [[[-94.6079239, 35.0556158], [-94.6078962, 35.0555912], [-94.6078797, 35.0555607], [-94.6078761, 35.0555274], [-94.6078859, 35.0554949], [-94.6079078, 35.0554667], [-94.6079397, 35.0554459], [-94.6079781, 35.0554345], [-94.6080189, 35.0554339], [-94.6080578, 35.0554441], [-94.6080914, 35.0554646], [-94.6081147, 35.055493], [-94.6081253, 35.0555262], [-94.608122, 35.0555603], [-94.608105, 35.0555917], [-94.6080764, 35.0556167], [-94.6080403, 35.0556323], [-94.6079999, 35.0556375], [-94.6079597, 35.0556318], [-94.6079239, 35.0556158]]]}, "properties": {"osm_id": 1234788095, "building": "yes", "name": "", "height": null, "height_m": null, "levels": null, "tract_id": "40079040402", "tract_name": "404.02", "tags": {"building": "yes"}}}, {"type": "Feature", "geometry": {"type": "Polygon", "coordinates": [[[-94.6077023, 35.0554394], [-94.6076747, 35.0554148], [-94.6076582, 35.0553843], [-94.6076546, 35.055351], [-94.6076643, 35.0553185], [-94.6076863, 35.0552904], [-94.6077182, 35.0552695], [-94.6077566, 35.0552581], [-94.6077974, 35.0552575], [-94.6078363, 35.0552677], [-94.6078698, 35.0552882], [-94.6078932, 35.0553167], [-94.6079038, 35.0553498], [-94.6079004, 35.055384], [-94.6078835, 35.0554153], [-94.6078548, 35.0554403], [-94.6078187, 35.0554559], [-94.6077784, 35.0554611], [-94.6077381, 35.0554554], [-94.6077023, 35.0554394]]]}, "properties": {"osm_id": 1234788096, "building": "yes", "name": "", "height": null, "height_m": null, "levels": null, "tract_id": "40079040402", "tract_name": "404.02", "tags": {"building": "yes"}}}, {"type": "Feature", "geometry": {"type": "Polygon", "coordinates": [[[-94.6093418, 35.0550564], [-94.6092891, 35.0550555], [-94.6092884, 35.0549569], [-94.6093418, 35.0549557], [-94.6093418, 35.0550564]]]}, "properties": {"osm_id": 1234788099, "building": "shed", "name": "", "height": null, "height_m": null, "levels": null, "tract_id": "40079040402", "tract_name": "404.02", "tags": {"building": "shed"}}}, {"type": "Feature", "geometry": {"type": "Polygon", "coordinates": [[[-94.6092891, 35.0550555], [-94.6092363, 35.0550558], [-94.6092356, 35.0549571], [-94.6092884, 35.0549569], [-94.6092891, 35.0550555]]]}, "properties": {"osm_id": 1234788100, "building": "shed", "name": "", "height": null, "height_m": null, "levels": null, "tract_id": "40079040402", "tract_name": "404.02", "tags": {"building": "shed"}}}, {"type": "Feature", "geometry": {"type": "Polygon", "coordinates": [[[-94.6096058, 35.0552401], [-94.6094403, 35.0552656], [-94.6094307, 35.055224], [-94.6095962, 35.0551986], [-94.6096058, 35.0552401]]]}, "properties": {"osm_id": 1234788101, "building": "shed", "name": "", "height": null, "height_m": null, "levels": null, "tract_id": "40079040402", "tract_name": "404.02", "tags": {"building": "shed"}}}, {"type": "Feature", "geometry": {"type": "Polygon", "coordinates": [[[-94.6092594, 35.0552814], [-94.6091951, 35.055308], [-94.6091739, 35.0552755], [-94.6092413, 35.0552497], [-94.6092594, 35.0552814]]]}, "properties": {"osm_id": 1234788102, "building": "shed", "name": "", "height": null, "height_m": null, "levels": null, "tract_id": "40079040402", "tract_name": "404.02", "tags": {"building": "shed"}}}, {"type": "Feature", "geometry": {"type": "Polygon", "coordinates": [[[-94.6091951, 35.055308], [-94.6091436, 35.0553306], [-94.6091206, 35.0552953], [-94.6091721, 35.0552728], [-94.6091739, 35.0552755], [-94.6091951, 35.055308]]]}, "properties": {"osm_id": 1234788103, "building": "shed", "name": "", "height": null, "height_m": null, "levels": null, "tract_id": "40079040402", "tract_name": "404.02", "tags": {"building": "shed"}}}, {"type": "Feature", "geometry": {"type": "Polygon", "coordinates": [[[-94.6094082, 35.0551831], [-94.6093441, 35.055183], [-94.6093443, 35.0550733], [-94.6094085, 35.0550734], [-94.6094082, 35.0551831]]]}, "properties": {"osm_id": 1234788104, "building": "shed", "name": "", "height": null, "height_m": null, "levels": null, "tract_id": "40079040402", "tract_name": "404.02", "tags": {"building": "shed"}}}, {"type": "Feature", "geometry": {"type": "Polygon", "coordinates": [[[-94.6093335, 35.0551676], [-94.6092858, 35.0551684], [-94.6092835, 35.0550788], [-94.6093312, 35.055078], [-94.6093335, 35.0551676]]]}, "properties": {"osm_id": 1234788105, "building": "shed", "name": "", "height": null, "height_m": null, "levels": null, "tract_id": "40079040402", "tract_name": "404.02", "tags": {"building": "shed"}}}, {"type": "Feature", "geometry": {"type": "Polygon", "coordinates": [[[-94.6092754, 35.0552158], [-94.6092294, 35.0552217], [-94.6092252, 35.0551997], [-94.6092712, 35.0551937], [-94.6092754, 35.0552158]]]}, "properties": {"osm_id": 1234788106, "building": "shed", "name": "", "height": null, "height_m": null, "levels": null, "tract_id": "40079040402", "tract_name": "404.02", "tags": {"building": "shed"}}}, {"type": "Feature", "geometry": {"type": "Polygon", "coordinates": [[[-94.6092828, 35.0551826], [-94.6092808, 35.0550743], [-94.60922, 35.0550751], [-94.609222, 35.0551833], [-94.6092828, 35.0551826]]]}, "properties": {"osm_id": 1234788107, "building": "shed", "name": "", "height": null, "height_m": null, "levels": null, "tract_id": "40079040402", "tract_name": "404.02", "tags": {"building": "shed"}}}, {"type": "Feature", "geometry": {"type": "Polygon", "coordinates": [[[-94.6093052, 35.0556256], [-94.6092498, 35.0556262], [-94.6092479, 35.05552], [-94.6093033, 35.0555193], [-94.6093052, 35.0556256]]]}, "properties": {"osm_id": 1234788108, "building": "shed", "name": "", "height": null, "height_m": null, "levels": null, "tract_id": "40079040402", "tract_name": "404.02", "tags": {"building": "shed"}}}, {"type": "Feature", "geometry": {"type": "Polygon", "coordinates": [[[-94.6092425, 35.0556237], [-94.6092404, 35.0554904], [-94.6091825, 35.055491], [-94.6091845, 35.0556243], [-94.6092425, 35.0556237]]]}, "properties": {"osm_id": 1234788109, "building": "shed", "name": "", "height": null, "height_m": null, "levels": null, "tract_id": "40079040402", "tract_name": "404.02", "tags": {"building": "shed"}}}, {"type": "Feature", "geometry": {"type": "Polygon", "coordinates": [[[-94.6093753, 35.055814], [-94.609366, 35.055834], [-94.6093178, 35.055819], [-94.6093271, 35.0557989], [-94.6093753, 35.055814]]]}, "properties": {"osm_id": 1234788110, "building": "shed", "name": "", "height": null, "height_m": null, "levels": null, "tract_id": "40079040402", "tract_name": "404.02", "tags": {"building": "shed"}}}, {"type": "Feature", "geometry": {"type": "Polygon", "coordinates": [[[-94.6093481, 35.0557916], [-94.6093601, 35.055765], [-94.6093074, 35.0557491], [-94.6092954, 35.0557756], [-94.6093481, 35.0557916]]]}, "properties": {"osm_id": 1234788111, "building": "shed", "name": "", "height": null, "height_m": null, "levels": null, "tract_id": "40079040402", "tract_name": "404.02", "tags": {"building": "shed"}}}, {"type": "Feature", "geometry": {"type": "Polygon", "coordinates": [[[-94.609608, 35.0558657], [-94.6095038, 35.0558228], [-94.6095211, 35.0557945], [-94.6096253, 35.0558374], [-94.609608, 35.0558657]]]}, "properties": {"osm_id": 1234788112, "building": "shed", "name": "", "height": null, "height_m": null, "levels": null, "tract_id": "40079040402", "tract_name": "404.02", "tags": {"building": "shed"}}}, {"type": "Feature", "geometry": {"type": "Polygon", "coordinates": [[[-94.6095733, 35.0558042], [-94.6095869, 35.0557797], [-94.6095474, 35.055765], [-94.6095338, 35.0557895], [-94.6095733, 35.0558042]]]}, "properties": {"osm_id": 1234788113, "building": "shed", "name": "", "height": null, "height_m": null, "levels": null, "tract_id": "40079040402", "tract_name": "404.02", "tags": {"building": "shed"}}}, {"type": "Feature", "geometry": {"type": "Polygon", "coordinates": [[[-94.6095489, 35.0559756], [-94.6094825, 35.0559531], [-94.6094958, 35.055927], [-94.6095622, 35.0559495], [-94.6095489, 35.0559756]]]}, "properties": {"osm_id": 1234788114, "building": "shed", "name": "", "height": null, "height_m": null, "levels": null, "tract_id": "40079040402", "tract_name": "404.02", "tags": {"building": "shed"}}}, {"type": "Feature", "geometry": {"type": "Polygon", "coordinates": [[[-94.6093703, 35.0559078], [-94.6093792, 35.0558829], [-94.6093074, 35.0558657], [-94.6092985, 35.0558906], [-94.6093703, 35.0559078]]]}, "properties": {"osm_id": 1234788115, "building": "shed", "name": "", "height": null, "height_m": null, "levels": null, "tract_id": "40079040402", "tract_name": "404.02", "tags": {"building": "shed"}}}, {"type": "Feature", "geometry": {"type": "Polygon", "coordinates": [[[-94.6095721, 35.0559938], [-94.6095575, 35.0560235], [-94.6094779, 35.0559974], [-94.6094925, 35.0559676], [-94.6095721, 35.0559938]]]}, "properties": {"osm_id": 1234788116, "building": "shed", "name": "", "height": null, "height_m": null, "levels": null, "tract_id": "40079040402", "tract_name": "404.02", "tags": {"building": "shed"}}}, {"type": "Feature", "geometry": {"type": "Polygon", "coordinates": [[[-94.6095204, 35.0560698], [-94.6094718, 35.0560603], [-94.6094799, 35.0560327], [-94.6095284, 35.0560422], [-94.6095204, 35.0560698]]]}, "properties": {"osm_id": 1234788117, "building": "shed", "name": "", "height": null, "height_m": null, "levels": null, "tract_id": "40079040402", "tract_name": "404.02", "tags": {"building": "shed"}}}, {"type": "Feature", "geometry": {"type": "Polygon", "coordinates": [[[-94.6095409, 35.0561666], [-94.6095559, 35.0561367], [-94.6094771, 35.0561103], [-94.6094621, 35.0561402], [-94.6095409, 35.0561666]]]}, "properties": {"osm_id": 1234788118, "building": "shed", "name": "", "height": null, "height_m": null, "levels": null, "tract_id": "40079040402", "tract_name": "404.02", "tags": {"building": "shed"}}}, {"type": "Feature", "geometry": {"type": "Polygon", "coordinates": [[[-94.6095338, 35.056121], [-94.6094667, 35.0561002], [-94.6094816, 35.0560682], [-94.6095486, 35.0560889], [-94.6095338, 35.056121]]]}, "properties": {"osm_id": 1234788119, "building": "shed", "name": "", "height": null, "height_m": null, "levels": null, "tract_id": "40079040402", "tract_name": "404.02", "tags": {"building": "shed"}}}, {"type": "Feature", "geometry": {"type": "Polygon", "coordinates": [[[-94.6093799, 35.0561053], [-94.6093719, 35.0561378], [-94.6092971, 35.0561255], [-94.6093051, 35.056093], [-94.6093799, 35.0561053]]]}, "properties": {"osm_id": 1234788120, "building": "shed", "name": "", "height": null, "height_m": null, "levels": null, "tract_id": "40079040402", "tract_name": "404.02", "tags": {"building": "shed"}}}, {"type": "Feature", "geometry": {"type": "Polygon", "coordinates": [[[-94.6093497, 35.0560887], [-94.6093548, 35.0560625], [-94.6093101, 35.0560566], [-94.6093049, 35.0560828], [-94.6093497, 35.0560887]]]}, "properties": {"osm_id": 1234788121, "building": "shed", "name": "", "height": null, "height_m": null, "levels": null, "tract_id": "40079040402", "tract_name": "404.02", "tags": {"building": "shed"}}}, {"type": "Feature", "geometry": {"type": "Polygon", "coordinates": [[[-94.6093667, 35.0560358], [-94.609375, 35.056003], [-94.6093101, 35.055992], [-94.6093018, 35.0560248], [-94.6093667, 35.0560358]]]}, "properties": {"osm_id": 1234788122, "building": "shed", "name": "", "height": null, "height_m": null, "levels": null, "tract_id": "40079040402", "tract_name": "404.02", "tags": {"building": "shed"}}}, {"type": "Feature", "geometry": {"type": "Polygon", "coordinates": [[[-94.6093606, 35.0559894], [-94.6092991, 35.0559861], [-94.6093018, 35.0559535], [-94.6093632, 35.0559568], [-94.6093606, 35.0559894]]]}, "properties": {"osm_id": 1234788123, "building": "shed", "name": "", "height": null, "height_m": null, "levels": null, "tract_id": "40079040402", "tract_name": "404.02", "tags": {"building": "shed"}}}, {"type": "Feature", "geometry": {"type": "Polygon", "coordinates": [[[-94.6093498, 35.0559455], [-94.6093574, 35.0559241], [-94.6093111, 35.0559131], [-94.6093035, 35.0559345], [-94.6093498, 35.0559455]]]}, "properties": {"osm_id": 1234788124, "building": "shed", "name": "", "height": null, "height_m": null, "levels": null, "tract_id": "40079040402", "tract_name": "404.02", "tags": {"building": "shed"}}}, {"type": "Feature", "geometry": {"type": "Polygon", "coordinates": [[[-94.6093911, 35.0562742], [-94.6093027, 35.0562619], [-94.6093097, 35.0562283], [-94.6093981, 35.0562405], [-94.6093911, 35.0562742]]]}, "properties": {"osm_id": 1234788125, "building": "shed", "name": "", "height": null, "height_m": null, "levels": null, "tract_id": "40079040402", "tract_name": "404.02", "tags": {"building": "shed"}}}, {"type": "Feature", "geometry": {"type": "Polygon", "coordinates": [[[-94.6098013, 35.0559875], [-94.6097578, 35.0559769], [-94.6097657, 35.055955], [-94.6098092, 35.0559655], [-94.6098013, 35.0559875]]]}, "properties": {"osm_id": 1234788126, "building": "shed", "name": "", "height": null, "height_m": null, "levels": null, "tract_id": "40079040402", "tract_name": "404.02", "tags": {"building": "shed"}}}, {"type": "Feature", "geometry": {"type": "Polygon", "coordinates": [[[-94.6098076, 35.0559064], [-94.6097989, 35.055928], [-94.6097575, 35.0559169], [-94.6097662, 35.0558953], [-94.6098076, 35.0559064]]]}, "properties": {"osm_id": 1234788127, "building": "shed", "name": "", "height": null, "height_m": null, "levels": null, "tract_id": "40079040402", "tract_name": "404.02", "tags": {"building": "shed"}}}, {"type": "Feature", "geometry": {"type": "Polygon", "coordinates": [[[-94.6099777, 35.0559812], [-94.6099752, 35.0559555], [-94.6099297, 35.0559585], [-94.6099322, 35.0559842], [-94.6099777, 35.0559812]]]}, "properties": {"osm_id": 1234788128, "building": "shed", "name": "", "height": null, "height_m": null, "levels": null, "tract_id": "40079040402", "tract_name": "404.02", "tags": {"building": "shed"}}}, {"type": "Feature", "geometry": {"type": "Polygon", "coordinates": [[[-94.6093477, 35.0564847], [-94.6093317, 35.0565078], [-94.6092827, 35.0564852], [-94.6092987, 35.056462], [-94.6093477, 35.0564847]]]}, "properties": {"osm_id": 1234788129, "building": "shed", "name": "", "height": null, "height_m": null, "levels": null, "tract_id": "40079040402", "tract_name": "404.02", "tags": {"building": "shed"}}}, {"type": "Feature", "geometry": {"type": "Polygon", "coordinates": [[[-94.6093661, 35.0564694], [-94.6092826, 35.0564478], [-94.609295, 35.0564157], [-94.6093785, 35.0564374], [-94.6093661, 35.0564694]]]}, "properties": {"osm_id": 1234788130, "building": "shed", "name": "", "height": null, "height_m": null, "levels": null, "tract_id": "40079040402", "tract_name": "404.02", "tags": {"building": "shed"}}}, {"type": "Feature", "geometry": {"type": "Polygon", "coordinates": [[[-94.6093521, 35.0563982], [-94.609362, 35.0563692], [-94.609303, 35.0563557], [-94.6092931, 35.0563847], [-94.6093521, 35.0563982]]]}, "properties": {"osm_id": 1234788131, "building": "shed", "name": "", "height": null, "height_m": null, "levels": null, "tract_id": "40079040402", "tract_name": "404.02", "tags": {"building": "shed"}}}, {"type": "Feature", "geometry": {"type": "Polygon", "coordinates": [[[-94.6091999, 35.0564212], [-94.6091517, 35.0564219], [-94.60915, 35.0563429], [-94.6091982, 35.0563422], [-94.6091999, 35.0564212]]]}, "properties": {"osm_id": 1234788132, "building": "shed", "name": "", "height": null, "height_m": null, "levels": null, "tract_id": "40079040402", "tract_name": "404.02", "tags": {"building": "shed"}}}, {"type": "Feature", "geometry": {"type": "Polygon", "coordinates": [[[-94.6092087, 35.0562595], [-94.6092114, 35.0561497], [-94.6091613, 35.0561489], [-94.6091585, 35.0562586], [-94.6092087, 35.0562595]]]}, "properties": {"osm_id": 1234788133, "building": "shed", "name": "", "height": null, "height_m": null, "levels": null, "tract_id": "40079040402", "tract_name": "404.02", "tags": {"building": "shed"}}}, {"type": "Feature", "geometry": {"type": "Polygon", "coordinates": [[[-94.6097687, 35.0564937], [-94.6096974, 35.0564865], [-94.6097024, 35.0564532], [-94.6097737, 35.0564604], [-94.6097687, 35.0564937]]]}, "properties": {"osm_id": 1234788134, "building": "shed", "name": "", "height": null, "height_m": null, "levels": null, "tract_id": "40079040402", "tract_name": "404.02", "tags": {"building": "shed"}}}, {"type": "Feature", "geometry": {"type": "Polygon", "coordinates": [[[-94.613765, 35.053092], [-94.6137349, 35.0531184], [-94.6136618, 35.0530611], [-94.6136918, 35.0530352], [-94.613765, 35.053092]]]}, "properties": {"osm_id": 1234788136, "building": "yes", "name": "", "height": null, "height_m": null, "levels": null, "tract_id": "40079040402", "tract_name": "404.02", "tags": {"building": "yes"}}}, {"type": "Feature", "geometry": {"type": "Polygon", "coordinates": [[[-94.6141727, 35.0528868], [-94.6140935, 35.052961], [-94.6140508, 35.0529304], [-94.6140892, 35.0528944], [-94.6140594, 35.0528731], [-94.6141002, 35.052835], [-94.6141727, 35.0528868]]]}, "properties": {"osm_id": 1234788137, "building": "house", "name": "", "height": null, "height_m": null, "levels": null, "tract_id": "40079040402", "tract_name": "404.02", "tags": {"building": "house"}}}, {"type": "Feature", "geometry": {"type": "Polygon", "coordinates": [[[-94.6140489, 35.0529734], [-94.6139714, 35.0530405], [-94.6138546, 35.05295], [-94.6139321, 35.052883], [-94.6140489, 35.0529734]]]}, "properties": {"osm_id": 1234788138, "building": "yes", "name": "", "height": null, "height_m": null, "levels": null, "tract_id": "40079040402", "tract_name": "404.02", "tags": {"building": "yes"}}}, {"type": "Feature", "geometry": {"type": "Polygon", "coordinates": [[[-94.6139459, 35.0528407], [-94.613922, 35.0528627], [-94.6138874, 35.0528376], [-94.6139113, 35.0528155], [-94.6139459, 35.0528407]]]}, "properties": {"osm_id": 1234788139, "building": "shed", "name": "", "height": null, "height_m": null, "levels": null, "tract_id": "40079040402", "tract_name": "404.02", "tags": {"building": "shed"}}}, {"type": "Feature", "geometry": {"type": "Polygon", "coordinates": [[[-94.6129685, 35.052039], [-94.6124438, 35.051696], [-94.6122906, 35.051853], [-94.6124254, 35.0519411], [-94.6123785, 35.0519892], [-94.6123143, 35.0519472], [-94.6122399, 35.0520235], [-94.6122738, 35.0520457], [-94.6119752, 35.0523517], [-94.6123954, 35.0526264], [-94.6129685, 35.052039]]]}, "properties": {"osm_id": 1234788140, "building": "yes", "name": "", "height": null, "height_m": null, "levels": null, "tract_id": "40079040402", "tract_name": "404.02", "tags": {"building": "yes"}}}, {"type": "Feature", "geometry": {"type": "Polygon", "coordinates": [[[-94.6121102, 35.0526114], [-94.6123073, 35.0527529], [-94.6121156, 35.0529319], [-94.6119184, 35.0527905], [-94.6121102, 35.0526114]]]}, "properties": {"osm_id": 1234788141, "building": "yes", "name": "", "height": null, "height_m": null, "levels": null, "tract_id": "40079040402", "tract_name": "404.02", "tags": {"building": "yes"}}}, {"type": "Feature", "geometry": {"type": "Polygon", "coordinates": [[[-94.6130556, 35.0517353], [-94.6130477, 35.051759], [-94.61305, 35.0517834], [-94.6130623, 35.0518058], [-94.613083, 35.0518235], [-94.6131098, 35.0518345], [-94.6131396, 35.0518375], [-94.6131688, 35.051832], [-94.6131924, 35.0518201], [-94.6132103, 35.0518028], [-94.6132207, 35.0517818], [-94.6132225, 35.0517592], [-94.6132157, 35.0517372], [-94.6132008, 35.051718], [-94.6131794, 35.0517037], [-94.6131536, 35.0516954], [-94.6131259, 35.0516942], [-94.6130971, 35.0517009], [-94.6130727, 35.0517152], [-94.6130556, 35.0517353]]]}, "properties": {"osm_id": 1234788142, "building": "yes", "name": "", "height": null, "height_m": null, "levels": null, "tract_id": "40079040402", "tract_name": "404.02", "tags": {"building": "yes", "man_made": "silo"}}}, {"type": "Feature", "geometry": {"type": "Polygon", "coordinates": [[[-94.617053, 35.0522467], [-94.617109, 35.0521986], [-94.6171406, 35.0522233], [-94.6170756, 35.0522791], [-94.6172138, 35.0523869], [-94.6174195, 35.0522103], [-94.6172843, 35.0521048], [-94.6172173, 35.0521624], [-94.6172105, 35.0521571], [-94.6171902, 35.0521412], [-94.6171797, 35.052133], [-94.6172204, 35.0520981], [-94.6168497, 35.0518083], [-94.6168193, 35.0517845], [-94.6167529, 35.0517326], [-94.6166147, 35.051851], [-94.6165904, 35.051832], [-94.6163891, 35.0518784], [-94.6163587, 35.0517903], [-94.6163486, 35.0517927], [-94.6163509, 35.0517993], [-94.616228, 35.0518279], [-94.616226, 35.0518222], [-94.6162196, 35.0518237], [-94.616266, 35.0519562], [-94.6160026, 35.0520179], [-94.6160288, 35.0520928], [-94.6159907, 35.0521018], [-94.6160076, 35.0521501], [-94.6160446, 35.0521414], [-94.6160694, 35.0522123], [-94.6165915, 35.0520897], [-94.6165861, 35.0520743], [-94.6166198, 35.0520417], [-94.6166352, 35.0520523], [-94.6166574, 35.0520309], [-94.616702, 35.0521015], [-94.6167777, 35.0520961], [-94.6167047, 35.0519892], [-94.6167133, 35.0519818], [-94.617053, 35.0522467]]]}, "properties": {"osm_id": 1234788784, "building": "school", "name": "Pansy Kidd Middle School", "height": null, "height_m": null, "levels": null, "tract_id": "40079040402", "tract_name": "404.02", "tags": {"building": "school", "name": "Pansy Kidd Middle School"}}}, {"type": "Feature", "geometry": {"type": "Polygon", "coordinates": [[[-94.6168813, 35.0517283], [-94.6169283, 35.0516882], [-94.6169602, 35.0517132], [-94.6170297, 35.0517678], [-94.6170796, 35.0517252], [-94.6170726, 35.0517197], [-94.6170879, 35.0517066], [-94.6172617, 35.0518433], [-94.6174912, 35.0516478], [-94.6173001, 35.0514974], [-94.6173116, 35.0514876], [-94.6171484, 35.0513592], [-94.6171364, 35.0513695], [-94.6170706, 35.0513179], [-94.6167295, 35.0516092], [-94.6168813, 35.0517283]]]}, "properties": {"osm_id": 1234788785, "building": "school", "name": "Pansy Kidd Middle School", "height": null, "height_m": null, "levels": null, "tract_id": "40079040402", "tract_name": "404.02", "tags": {"building": "school", "name": "Pansy Kidd Middle School"}}}, {"type": "Feature", "geometry": {"type": "Polygon", "coordinates": [[[-94.6179556, 35.0520381], [-94.6177303, 35.0522299], [-94.6175527, 35.0520901], [-94.617515, 35.0521222], [-94.6173664, 35.0520053], [-94.6173483, 35.051991], [-94.6173287, 35.0519756], [-94.6173942, 35.0519199], [-94.6173351, 35.0518734], [-94.6175353, 35.051703], [-94.6176186, 35.0517686], [-94.6176239, 35.0517641], [-94.6177572, 35.051869], [-94.6177492, 35.0518758], [-94.6179556, 35.0520381]]]}, "properties": {"osm_id": 1234788786, "building": "school", "name": "Pansy Kidd Middle School", "height": null, "height_m": null, "levels": null, "tract_id": "40079040402", "tract_name": "404.02", "tags": {"building": "school", "name": "Pansy Kidd Middle School"}}}, {"type": "Feature", "geometry": {"type": "Polygon", "coordinates": [[[-94.6171902, 35.0521412], [-94.6172204, 35.0520981], [-94.6173483, 35.051991], [-94.6173664, 35.0520053], [-94.6172389, 35.0521143], [-94.6172105, 35.0521571], [-94.6171902, 35.0521412]]]}, "properties": {"osm_id": 1234788787, "building": "roof", "name": "", "height": null, "height_m": null, "levels": null, "tract_id": "40079040402", "tract_name": "404.02", "tags": {"building": "roof", "layer": "1"}}}, {"type": "Feature", "geometry": {"type": "Polygon", "coordinates": [[[-94.6168497, 35.0518083], [-94.6169602, 35.0517132], [-94.6169283, 35.0516882], [-94.6168813, 35.0517283], [-94.6168193, 35.0517845], [-94.6168497, 35.0518083]]]}, "properties": {"osm_id": 1234788788, "building": "roof", "name": "", "height": null, "height_m": null, "levels": null, "tract_id": "40079040402", "tract_name": "404.02", "tags": {"building": "roof", "layer": "1"}}}, {"type": "Feature", "geometry": {"type": "Polygon", "coordinates": [[[-94.6226141, 35.0533741], [-94.6224735, 35.0532756], [-94.6222328, 35.0535056], [-94.6222668, 35.0535295], [-94.6222508, 35.0535448], [-94.6223286, 35.0535994], [-94.6223456, 35.0535831], [-94.6223744, 35.0536033], [-94.6226141, 35.0533741]]]}, "properties": {"osm_id": 1280414257, "building": "yes", "name": "Poteau Police Department", "height": null, "height_m": null, "levels": null, "tract_id": "40079040402", "tract_name": "404.02", "tags": {"addr:city": "Poteau", "addr:postcode": "74953", "addr:state": "OK", "addr:street": "Peters Street", "amenity": "police", "building": "yes", "emergency": "psap", "name": "Poteau Police Department"}}}, {"type": "Feature", "geometry": {"type": "Polygon", "coordinates": [[[-94.6226827, 35.0533343], [-94.6228545, 35.0531714], [-94.6224793, 35.0529062], [-94.6223075, 35.0530691], [-94.6226827, 35.0533343]]]}, "properties": {"osm_id": 1280414258, "building": "yes", "name": "", "height": null, "height_m": null, "levels": null, "tract_id": "40079040402", "tract_name": "404.02", "tags": {"building": "yes"}}}, {"type": "Feature", "geometry": {"type": "Polygon", "coordinates": [[[-94.6224017, 35.054121], [-94.6223281, 35.0540706], [-94.6224546, 35.053947], [-94.6224269, 35.053928], [-94.6224596, 35.0538961], [-94.6224369, 35.0538805], [-94.6224706, 35.0538476], [-94.6224974, 35.053866], [-94.6225401, 35.0538243], [-94.6225696, 35.0538446], [-94.6225932, 35.0538214], [-94.6226608, 35.0538678], [-94.6225811, 35.0539456], [-94.6225949, 35.0539551], [-94.6225593, 35.0539899], [-94.6225455, 35.0539805], [-94.6224017, 35.054121]]]}, "properties": {"osm_id": 1280414259, "building": "yes", "name": "", "height": null, "height_m": null, "levels": null, "tract_id": "40079040402", "tract_name": "404.02", "tags": {"amenity": "townhall", "building": "yes", "townhall:type": "city"}}}, {"type": "Feature", "geometry": {"type": "Polygon", "coordinates": [[[-94.5957957, 35.0838403], [-94.5957634, 35.083898], [-94.59572, 35.0838817], [-94.5956573, 35.0839934], [-94.5957452, 35.0840264], [-94.5957256, 35.0840613], [-94.5957943, 35.0840872], [-94.5959089, 35.0838829], [-94.5957957, 35.0838403]]]}, "properties": {"osm_id": 1322049633, "building": "house", "name": "", "height": null, "height_m": null, "levels": null, "tract_id": "40079040402", "tract_name": "404.02", "tags": {"building": "house"}}}, {"type": "Feature", "geometry": {"type": "Polygon", "coordinates": [[[-94.5958469, 35.0843447], [-94.5957594, 35.0843798], [-94.5956813, 35.0842494], [-94.5957688, 35.0842143], [-94.5958469, 35.0843447]]]}, "properties": {"osm_id": 1322049634, "building": "hangar", "name": "", "height": null, "height_m": null, "levels": null, "tract_id": "40079040402", "tract_name": "404.02", "tags": {"aeroway": "hangar", "building": "hangar"}}}, {"type": "Feature", "geometry": {"type": "Polygon", "coordinates": [[[-94.6229539, 35.0546925], [-94.6232284, 35.0548838], [-94.6231309, 35.0549775], [-94.6232322, 35.0550481], [-94.6230806, 35.0551938], [-94.6227049, 35.0549318], [-94.6229539, 35.0546925]]]}, "properties": {"osm_id": 1363917834, "building": "yes", "name": "", "height": null, "height_m": null, "levels": null, "tract_id": "40079040402", "tract_name": "404.02", "tags": {"building": "yes"}}}, {"type": "Feature", "geometry": {"type": "Polygon", "coordinates": [[[-94.6234951, 35.0547902], [-94.6237724, 35.0545409], [-94.6234687, 35.0543145], [-94.6233539, 35.0544178], [-94.6234351, 35.0544783], [-94.6233361, 35.0545673], [-94.6232407, 35.0544962], [-94.6231064, 35.0546169], [-94.6232003, 35.054687], [-94.6232712, 35.0546233], [-94.6234951, 35.0547902]]]}, "properties": {"osm_id": 1363917835, "building": "yes", "name": "", "height": null, "height_m": null, "levels": null, "tract_id": "40079040402", "tract_name": "404.02", "tags": {"building": "yes"}}}, {"type": "Feature", "geometry": {"type": "Polygon", "coordinates": [[[-94.6218959, 35.0524436], [-94.6224212, 35.052812], [-94.6221412, 35.0530808], [-94.6219334, 35.0529358], [-94.6219554, 35.0529146], [-94.6216352, 35.052684], [-94.6218959, 35.0524436]]]}, "properties": {"osm_id": 1363917836, "building": "yes", "name": "", "height": null, "height_m": null, "levels": null, "tract_id": "40079040402", "tract_name": "404.02", "tags": {"building": "yes"}}}, {"type": "Feature", "geometry": {"type": "Polygon", "coordinates": [[[-94.6225162, 35.0526826], [-94.6220643, 35.0523604], [-94.6222722, 35.0521621], [-94.6223636, 35.0520827], [-94.6224812, 35.0521695], [-94.6223629, 35.0522807], [-94.6226932, 35.0525162], [-94.6225162, 35.0526826]]]}, "properties": {"osm_id": 1363917837, "building": "yes", "name": "", "height": null, "height_m": null, "levels": null, "tract_id": "40079040402", "tract_name": "404.02", "tags": {"building": "yes"}}}, {"type": "Feature", "geometry": {"type": "Polygon", "coordinates": [[[-94.6231126, 35.0530987], [-94.6230069, 35.0530234], [-94.6229761, 35.053041], [-94.6226094, 35.0527938], [-94.6226187, 35.0527686], [-94.6228652, 35.0525388], [-94.6229225, 35.05258], [-94.6228611, 35.0526373], [-94.6229171, 35.0526775], [-94.6229841, 35.0526149], [-94.62304, 35.052655], [-94.6230551, 35.052641], [-94.6228787, 35.0525149], [-94.6229499, 35.0524481], [-94.6233284, 35.0527186], [-94.6232659, 35.0527773], [-94.6232013, 35.0527311], [-94.6231167, 35.0528106], [-94.623195, 35.0528665], [-94.623155, 35.052904], [-94.6232486, 35.0529708], [-94.6231126, 35.0530987]]]}, "properties": {"osm_id": 1363917838, "building": "yes", "name": "", "height": null, "height_m": null, "levels": null, "tract_id": "40079040402", "tract_name": "404.02", "tags": {"building": "yes"}}}, {"type": "Feature", "geometry": {"type": "Polygon", "coordinates": [[[-94.6219407, 35.0522606], [-94.621821, 35.0521683], [-94.6221285, 35.0519012], [-94.6223636, 35.0520827], [-94.6222722, 35.0521621], [-94.6221565, 35.052073], [-94.6219407, 35.0522606]]]}, "properties": {"osm_id": 1363917839, "building": "yes", "name": "", "height": null, "height_m": null, "levels": null, "tract_id": "40079040402", "tract_name": "404.02", "tags": {"building": "yes"}}}, {"type": "Feature", "geometry": {"type": "Polygon", "coordinates": [[[-94.6216352, 35.052684], [-94.621608, 35.0526642], [-94.6215651, 35.0527037], [-94.6213671, 35.0525597], [-94.6216708, 35.0522799], [-94.6218959, 35.0524436], [-94.6216352, 35.052684]]]}, "properties": {"osm_id": 1363917840, "building": "yes", "name": "", "height": null, "height_m": null, "levels": null, "tract_id": "40079040402", "tract_name": "404.02", "tags": {"building": "yes"}}}, {"type": "Feature", "geometry": {"type": "Polygon", "coordinates": [[[-94.6216973, 35.0520525], [-94.6211576, 35.0516326], [-94.6212663, 35.0515404], [-94.6213713, 35.0514476], [-94.6213407, 35.0514237], [-94.6214265, 35.05135], [-94.6217088, 35.0515704], [-94.6216293, 35.0516386], [-94.6217646, 35.0517442], [-94.6218327, 35.0516858], [-94.6218762, 35.0517197], [-94.6218109, 35.0517757], [-94.6219203, 35.051861], [-94.6216973, 35.0520525]]]}, "properties": {"osm_id": 1363917841, "building": "yes", "name": "", "height": null, "height_m": null, "levels": null, "tract_id": "40079040402", "tract_name": "404.02", "tags": {"building": "yes"}}}, {"type": "Feature", "geometry": {"type": "Polygon", "coordinates": [[[-94.6211576, 35.0516326], [-94.621002, 35.0515097], [-94.6211644, 35.051372], [-94.621272, 35.051457], [-94.6212183, 35.0515025], [-94.6212663, 35.0515404], [-94.6211576, 35.0516326]]]}, "properties": {"osm_id": 1363917842, "building": "yes", "name": "", "height": null, "height_m": null, "levels": null, "tract_id": "40079040402", "tract_name": "404.02", "tags": {"building": "yes"}}}]}