{"type": "FeatureCollection", "features": [{"type": "Feature", "geometry": {"type": "Polygon", "coordinates": [[[-94.7082987, 36.6545368], [-94.7076094, 36.6545109], [-94.7076194, 36.6543401], [-94.7083087, 36.6543659], [-94.7082987, 36.6545368]]]}, "properties": {"osm_id": 822004767, "building": "yes", "name": "", "height": null, "height_m": null, "levels": null, "tract_id": "40041375602", "tract_name": "3756.02", "tags": {"building": "yes"}}}, {"type": "Feature", "geometry": {"type": "Polygon", "coordinates": [[[-94.7081673, 36.6549413], [-94.7076435, 36.6549479], [-94.7076389, 36.6547175], [-94.7081628, 36.6547109], [-94.7081673, 36.6549413]]]}, "properties": {"osm_id": 822004768, "building": "yes", "name": "", "height": null, "height_m": null, "levels": null, "tract_id": "40041375602", "tract_name": "3756.02", "tags": {"building": "yes"}}}, {"type": "Feature", "geometry": {"type": "Polygon", "coordinates": [[[-94.7070569, 36.6549671], [-94.7070462, 36.6544227], [-94.7073167, 36.6544193], [-94.7073182, 36.6544981], [-94.7074017, 36.6544971], [-94.70741, 36.6549155], [-94.7074427, 36.6549151], [-94.7074436, 36.6549622], [-94.7070569, 36.6549671]]]}, "properties": {"osm_id": 822004769, "building": "yes", "name": "", "height": null, "height_m": null, "levels": null, "tract_id": "40041375602", "tract_name": "3756.02", "tags": {"building": "yes"}}}, {"type": "Feature", "geometry": {"type": "Polygon", "coordinates": [[[-94.7072232, 36.6540289], [-94.7070838, 36.6540298], [-94.7070811, 36.6537414], [-94.7072205, 36.6537406], [-94.7072232, 36.6540289]]]}, "properties": {"osm_id": 822004770, "building": "yes", "name": "", "height": null, "height_m": null, "levels": null, "tract_id": "40041375602", "tract_name": "3756.02", "tags": {"building": "yes"}}}, {"type": "Feature", "geometry": {"type": "Polygon", "coordinates": [[[-94.7074297, 36.6535491], [-94.7072559, 36.6535517], [-94.7072532, 36.6534377], [-94.707427, 36.653435], [-94.7074297, 36.6535491]]]}, "properties": {"osm_id": 822004771, "building": "yes", "name": "", "height": null, "height_m": null, "levels": null, "tract_id": "40041375602", "tract_name": "3756.02", "tags": {"building": "yes"}}}, {"type": "Feature", "geometry": {"type": "Polygon", "coordinates": [[[-94.7070783, 36.6534243], [-94.706896, 36.6534243], [-94.706896, 36.6532865], [-94.7070783, 36.6532865], [-94.7070783, 36.6534243]]]}, "properties": {"osm_id": 822004772, "building": "yes", "name": "", "height": null, "height_m": null, "levels": null, "tract_id": "40041375602", "tract_name": "3756.02", "tags": {"building": "yes"}}}, {"type": "Feature", "geometry": {"type": "Polygon", "coordinates": [[[-94.7631462, 36.6571285], [-94.7631128, 36.6571334], [-94.7631197, 36.657164], [-94.7629753, 36.6571851], [-94.762971, 36.6571658], [-94.7628847, 36.6571784], [-94.762872, 36.6571228], [-94.7629581, 36.6571102], [-94.7629417, 36.6570383], [-94.763084, 36.6570175], [-94.7630993, 36.6570851], [-94.7631352, 36.6570799], [-94.7631462, 36.6571285]]]}, "properties": {"osm_id": 987285513, "building": "yes", "name": "", "height": null, "height_m": null, "levels": null, "tract_id": "40041375602", "tract_name": "3756.02", "tags": {"building": "yes"}}}, {"type": "Feature", "geometry": {"type": "Polygon", "coordinates": [[[-94.7625843, 36.6572154], [-94.7624461, 36.6572293], [-94.7624486, 36.6572453], [-94.7623645, 36.6572537], [-94.7623399, 36.657096], [-94.7624301, 36.6570869], [-94.7624363, 36.6571269], [-94.7625684, 36.6571136], [-94.7625843, 36.6572154]]]}, "properties": {"osm_id": 987285514, "building": "yes", "name": "", "height": null, "height_m": null, "levels": null, "tract_id": "40041375602", "tract_name": "3756.02", "tags": {"building": "yes"}}}, {"type": "Feature", "geometry": {"type": "Polygon", "coordinates": [[[-94.7621224, 36.6573056], [-94.7620555, 36.6572803], [-94.7620471, 36.6572947], [-94.7617384, 36.6571783], [-94.7618221, 36.6570354], [-94.7621978, 36.657177], [-94.7621224, 36.6573056]]]}, "properties": {"osm_id": 987285515, "building": "yes", "name": "", "height": null, "height_m": null, "levels": null, "tract_id": "40041375602", "tract_name": "3756.02", "tags": {"building": "yes"}}}, {"type": "Feature", "geometry": {"type": "Polygon", "coordinates": [[[-94.713116, 36.5975991], [-94.713115, 36.5975123], [-94.7129386, 36.5975136], [-94.7129396, 36.5976005], [-94.713116, 36.5975991]]]}, "properties": {"osm_id": 1073460878, "building": "yes", "name": "Grove Tire and Auto", "height": null, "height_m": 3.0, "levels": 1, "tract_id": "40041375602", "tract_name": "3756.02", "tags": {"addr:city": "Grove", "addr:housenumber": "65401", "addr:postcode": "74344", "addr:state": "OK", "addr:street": "East 290 Road", "building": "yes", "building:levels": "1", "name": "Grove Tire and Auto"}}}, {"type": "Feature", "geometry": {"type": "Polygon", "coordinates": [[[-94.7132863, 36.5973937], [-94.7132894, 36.5972538], [-94.7129416, 36.5972489], [-94.7129386, 36.5973888], [-94.7132863, 36.5973937]]]}, "properties": {"osm_id": 1073461235, "building": "yes", "name": "", "height": null, "height_m": null, "levels": null, "tract_id": "40041375602", "tract_name": "3756.02", "tags": {"building": "yes"}}}, {"type": "Feature", "geometry": {"type": "Polygon", "coordinates": [[[-94.7119134, 36.5967079], [-94.71191, 36.596643], [-94.7117124, 36.5966496], [-94.7117158, 36.5967146], [-94.7119134, 36.5967079]]]}, "properties": {"osm_id": 1073461740, "building": "yes", "name": "", "height": null, "height_m": null, "levels": null, "tract_id": "40041375602", "tract_name": "3756.02", "tags": {"building": "yes"}}}, {"type": "Feature", "geometry": {"type": "Polygon", "coordinates": [[[-94.7141521, 36.5974008], [-94.7141578, 36.5973191], [-94.7140454, 36.5973141], [-94.7140397, 36.5973958], [-94.7141521, 36.5974008]]]}, "properties": {"osm_id": 1073462123, "building": "yes", "name": "", "height": null, "height_m": null, "levels": null, "tract_id": "40041375602", "tract_name": "3756.02", "tags": {"building": "yes"}}}, {"type": "Feature", "geometry": {"type": "Polygon", "coordinates": [[[-94.7352283, 36.5976605], [-94.7352323, 36.5974655], [-94.7349646, 36.5974619], [-94.7349626, 36.5975552], [-94.7350755, 36.5975567], [-94.7350734, 36.5976585], [-94.7352283, 36.5976605]]]}, "properties": {"osm_id": 1150309917, "building": "yes", "name": "", "height": null, "height_m": null, "levels": null, "tract_id": "40041375602", "tract_name": "3756.02", "tags": {"amenity": "place_of_worship", "building": "yes", "denomination": "jehovahs_witness", "religion": "christian"}}}, {"type": "Feature", "geometry": {"type": "Polygon", "coordinates": [[[-94.710605, 36.6324436], [-94.7106025, 36.632412], [-94.7105439, 36.632415], [-94.7105465, 36.6324467], [-94.710605, 36.6324436]]]}, "properties": {"osm_id": 1211907351, "building": "yes", "name": "", "height": null, "height_m": null, "levels": null, "tract_id": "40041375602", "tract_name": "3756.02", "tags": {"building": "yes"}}}]}