{"type": "FeatureCollection", "features": [{"type": "Feature", "geometry": {"type": "Polygon", "coordinates": [[[-96.4465908, 36.0753209], [-96.4464798, 36.0753235], [-96.446477, 36.0752295], [-96.4464444, 36.07523], [-96.4464436, 36.07518], [-96.4464776, 36.0751795], [-96.446477, 36.0751099], [-96.4465863, 36.0751101], [-96.4465908, 36.0753209]]]}, "properties": {"osm_id": 985492138, "building": "yes", "name": "", "height": null, "height_m": null, "levels": null, "tract_id": "40037020705", "tract_name": "207.05", "tags": {"building": "yes"}}}, {"type": "Feature", "geometry": {"type": "Polygon", "coordinates": [[[-96.4769558, 36.1115377], [-96.4769034, 36.1115381], [-96.4769032, 36.1115264], [-96.4768062, 36.111527], [-96.4768061, 36.1115218], [-96.476777, 36.111522], [-96.4767763, 36.1114556], [-96.4769549, 36.1114544], [-96.4769551, 36.1114719], [-96.4769591, 36.1114719], [-96.4769595, 36.111515], [-96.4769556, 36.111515], [-96.4769558, 36.1115377]]]}, "properties": {"osm_id": 985752688, "building": "yes", "name": "", "height": null, "height_m": null, "levels": null, "tract_id": "40037020705", "tract_name": "207.05", "tags": {"building": "yes"}}}, {"type": "Feature", "geometry": {"type": "Polygon", "coordinates": [[[-96.4162099, 36.1124773], [-96.4166046, 36.1123156], [-96.4165086, 36.1121651], [-96.4161195, 36.1123245], [-96.4162099, 36.1124773]]]}, "properties": {"osm_id": 1018527935, "building": "church", "name": "", "height": null, "height_m": null, "levels": null, "tract_id": "40037020705", "tract_name": "207.05", "tags": {"building": "church"}}}, {"type": "Feature", "geometry": {"type": "Polygon", "coordinates": [[[-96.4913819, 36.1035604], [-96.4911076, 36.1035503], [-96.4911121, 36.1034715], [-96.4911434, 36.1034727], [-96.4911454, 36.1034372], [-96.4911962, 36.103439], [-96.4911946, 36.103466], [-96.4913868, 36.1034731], [-96.4913819, 36.1035604]]]}, "properties": {"osm_id": 1298687214, "building": "house", "name": "", "height": null, "height_m": null, "levels": null, "tract_id": "40037020705", "tract_name": "207.05", "tags": {"building": "house"}}}, {"type": "Feature", "geometry": {"type": "Polygon", "coordinates": [[[-96.4916393, 36.1035644], [-96.4915229, 36.103561], [-96.4915264, 36.1034843], [-96.4916428, 36.1034877], [-96.4916393, 36.1035644]]]}, "properties": {"osm_id": 1298687215, "building": "yes", "name": "", "height": null, "height_m": null, "levels": null, "tract_id": "40037020705", "tract_name": "207.05", "tags": {"building": "yes"}}}, {"type": "Feature", "geometry": {"type": "Polygon", "coordinates": [[[-96.490855, 36.1038557], [-96.4908453, 36.1037081], [-96.4909967, 36.1037016], [-96.4910063, 36.1038492], [-96.490855, 36.1038557]]]}, "properties": {"osm_id": 1298687217, "building": "industrial", "name": "", "height": null, "height_m": null, "levels": null, "tract_id": "40037020705", "tract_name": "207.05", "tags": {"building": "industrial"}}}, {"type": "Feature", "geometry": {"type": "Polygon", "coordinates": [[[-96.4875589, 36.1040781], [-96.487428, 36.1040951], [-96.4874249, 36.1040797], [-96.4874129, 36.1040813], [-96.4874016, 36.1040245], [-96.4874164, 36.1040226], [-96.4874134, 36.1040078], [-96.4875438, 36.1039908], [-96.4875538, 36.1040413], [-96.4875662, 36.1040397], [-96.4875702, 36.1040597], [-96.4875557, 36.1040616], [-96.4875589, 36.1040781]]]}, "properties": {"osm_id": 1298687218, "building": "house", "name": "", "height": null, "height_m": null, "levels": null, "tract_id": "40037020705", "tract_name": "207.05", "tags": {"addr:city": "Jennings", "addr:housenumber": "44582", "addr:postcode": "74038", "addr:state": "OK", "addr:street": "West 41st Street South", "building": "house"}}}, {"type": "Feature", "geometry": {"type": "Polygon", "coordinates": [[[-96.4939199, 36.0906674], [-96.4935959, 36.0906663], [-96.4935963, 36.0905713], [-96.4938601, 36.090572], [-96.4938602, 36.0905556], [-96.4939205, 36.0905558], [-96.4939199, 36.0906674]]]}, "properties": {"osm_id": 1298688172, "building": "fire_station", "name": "Silver City Fire Department", "height": null, "height_m": null, "levels": null, "tract_id": "40037020705", "tract_name": "207.05", "tags": {"addr:city": "Jennings", "addr:housenumber": "44573", "addr:postcode": "74038", "addr:state": "OK", "addr:street": "West 51st Street South", "building": "fire_station", "name": "Silver City Fire Department"}}}, {"type": "Feature", "geometry": {"type": "Polygon", "coordinates": [[[-96.4929318, 36.0898982], [-96.4931684, 36.0898969], [-96.4931651, 36.089809], [-96.4933129, 36.0898083], [-96.4933145, 36.0900176], [-96.4932905, 36.0900196], [-96.493293, 36.0900498], [-96.4931917, 36.0900558], [-96.4931925, 36.0900223], [-96.492936, 36.090025], [-96.4929318, 36.0898982]]]}, "properties": {"osm_id": 1298688173, "building": "yes", "name": "Silver City Freewill Baptist Church", "height": null, "height_m": null, "levels": null, "tract_id": "40037020705", "tract_name": "207.05", "tags": {"addr:city": "Jennings", "addr:housenumber": "44840", "addr:postcode": "74038", "addr:state": "OK", "addr:street": "West 51st Street South", "amenity": "place_of_worship", "building": "yes", "denomination": "baptist", "name": "Silver City Freewill Baptist Church", "religion": "christian"}}}, {"type": "Feature", "geometry": {"type": "Polygon", "coordinates": [[[-96.4218121, 36.0863784], [-96.4218074, 36.0862357], [-96.4217047, 36.0862319], [-96.4217065, 36.0863784], [-96.4218121, 36.0863784]]]}, "properties": {"osm_id": 1318152622, "building": "yes", "name": "5403", "height": null, "height_m": null, "levels": null, "tract_id": "40037020705", "tract_name": "207.05", "tags": {"building": "yes", "name": "5403"}}}, {"type": "Feature", "geometry": {"type": "Polygon", "coordinates": [[[-96.4222623, 36.0861768], [-96.4222081, 36.0859655], [-96.4221474, 36.085976], [-96.4222053, 36.0861866], [-96.4222623, 36.0861768]]]}, "properties": {"osm_id": 1318152623, "building": "yes", "name": "5403 A", "height": null, "height_m": null, "levels": null, "tract_id": "40037020705", "tract_name": "207.05", "tags": {"building": "yes", "name": "5403 A"}}}, {"type": "Feature", "geometry": {"type": "Polygon", "coordinates": [[[-96.4416821, 36.1132225], [-96.4416963, 36.1133313], [-96.4419073, 36.1133133], [-96.4418931, 36.1132045], [-96.4416821, 36.1132225]]]}, "properties": {"osm_id": 1359551301, "building": "yes", "name": "", "height": null, "height_m": null, "levels": null, "tract_id": "40037020705", "tract_name": "207.05", "tags": {"building": "yes"}}}, {"type": "Feature", "geometry": {"type": "Polygon", "coordinates": [[[-96.4825281, 36.0842009], [-96.4823072, 36.0843393], [-96.4822162, 36.0842444], [-96.4823018, 36.0841908], [-96.4823356, 36.084226], [-96.4824708, 36.0841412], [-96.4825281, 36.0842009]]]}, "properties": {"osm_id": 1363389286, "building": "detached", "name": "", "height": null, "height_m": null, "levels": null, "tract_id": "40037020705", "tract_name": "207.05", "tags": {"building": "detached"}}}]}