{"type": "FeatureCollection", "features": [{"type": "Feature", "geometry": {"type": "Polygon", "coordinates": [[[-99.8693631, 35.2239574], [-99.8692562, 35.2240308], [-99.8693679, 35.2241395], [-99.8694749, 35.2240662], [-99.8693631, 35.2239574]]]}, "properties": {"osm_id": 226290639, "building": "roof", "name": "", "height": null, "height_m": null, "levels": null, "tract_id": "40009966500", "tract_name": "9665", "tags": {"building": "roof"}}}, {"type": "Feature", "geometry": {"type": "Polygon", "coordinates": [[[-99.8700526, 35.2242629], [-99.8700476, 35.2244247], [-99.8698528, 35.2244207], [-99.8698578, 35.2242589], [-99.8700526, 35.2242629]]]}, "properties": {"osm_id": 226290640, "building": "yes", "name": "", "height": null, "height_m": null, "levels": null, "tract_id": "40009966500", "tract_name": "9665", "tags": {"building": "yes"}}}, {"type": "Feature", "geometry": {"type": "Polygon", "coordinates": [[[-99.8695676, 35.2238085], [-99.8694643, 35.2237011], [-99.8693584, 35.2236441], [-99.869451, 35.2235839], [-99.8695522, 35.2236302], [-99.8696534, 35.2237438], [-99.8695676, 35.2238085]]]}, "properties": {"osm_id": 226290642, "building": "roof", "name": "", "height": null, "height_m": null, "levels": null, "tract_id": "40009966500", "tract_name": "9665", "tags": {"building": "roof"}}}, {"type": "Feature", "geometry": {"type": "Polygon", "coordinates": [[[-99.8281681, 35.2272794], [-99.828235, 35.2273094], [-99.8282513, 35.2272852], [-99.8283276, 35.2273193], [-99.8283114, 35.2273436], [-99.8283804, 35.2273745], [-99.8283946, 35.2273808], [-99.8283735, 35.2274123], [-99.8284019, 35.227425], [-99.8283741, 35.2274664], [-99.828389, 35.227473], [-99.8283658, 35.2275077], [-99.828345, 35.2275386], [-99.8283301, 35.227532], [-99.8283024, 35.2275734], [-99.8282739, 35.2275606], [-99.8282504, 35.2275958], [-99.8282285, 35.227586], [-99.8281684, 35.2275591], [-99.8281532, 35.2275818], [-99.8280732, 35.227546], [-99.8280885, 35.2275233], [-99.8280239, 35.2274944], [-99.8280819, 35.2274079], [-99.8281681, 35.2272794]]]}, "properties": {"osm_id": 373878251, "building": "yes", "name": "Erick Tourism Information Center", "height": null, "height_m": null, "levels": null, "tract_id": "40009966500", "tract_name": "9665", "tags": {"addr:city": "Erick", "addr:housenumber": "17672", "addr:postcode": "73645", "addr:state": "OK", "addr:street": "East I 40", "amenity": "toilets", "building": "yes", "information": "office", "name": "Erick Tourism Information Center", "opening_hours": "Mo-Su 08:30-17:00", "tourism": "information", "wheelchair": "yes"}}}, {"type": "Feature", "geometry": {"type": "Polygon", "coordinates": [[[-99.8294314, 35.2274878], [-99.8293918, 35.2274883], [-99.8293911, 35.2274516], [-99.8294308, 35.2274511], [-99.8294314, 35.2274878]]]}, "properties": {"osm_id": 373878252, "building": "yes", "name": "", "height": null, "height_m": null, "levels": null, "tract_id": "40009966500", "tract_name": "9665", "tags": {"building": "yes", "tourism": "picnic_site"}}}, {"type": "Feature", "geometry": {"type": "Polygon", "coordinates": [[[-99.827567, 35.2277308], [-99.8275294, 35.2277206], [-99.8275435, 35.2276858], [-99.8275811, 35.227696], [-99.827567, 35.2277308]]]}, "properties": {"osm_id": 373878253, "building": "yes", "name": "", "height": null, "height_m": null, "levels": null, "tract_id": "40009966500", "tract_name": "9665", "tags": {"building": "yes", "covered": "yes", "tourism": "picnic_site"}}}, {"type": "Feature", "geometry": {"type": "Polygon", "coordinates": [[[-99.8287115, 35.2273948], [-99.8286719, 35.2273944], [-99.8286725, 35.2273577], [-99.8287121, 35.2273581], [-99.8287115, 35.2273948]]]}, "properties": {"osm_id": 373878254, "building": "yes", "name": "", "height": null, "height_m": null, "levels": null, "tract_id": "40009966500", "tract_name": "9665", "tags": {"building": "yes", "covered": "yes", "tourism": "picnic_site"}}}, {"type": "Feature", "geometry": {"type": "Polygon", "coordinates": [[[-99.8291292, 35.2271414], [-99.8290932, 35.2271549], [-99.8290745, 35.2271216], [-99.8291105, 35.2271081], [-99.8291292, 35.2271414]]]}, "properties": {"osm_id": 373878255, "building": "yes", "name": "", "height": null, "height_m": null, "levels": null, "tract_id": "40009966500", "tract_name": "9665", "tags": {"building": "yes", "covered": "yes", "tourism": "picnic_site"}}}, {"type": "Feature", "geometry": {"type": "Polygon", "coordinates": [[[-99.8290351, 35.2273239], [-99.829009, 35.2273482], [-99.8289752, 35.227324], [-99.8290014, 35.2272997], [-99.8290351, 35.2273239]]]}, "properties": {"osm_id": 373878256, "building": "yes", "name": "", "height": null, "height_m": null, "levels": null, "tract_id": "40009966500", "tract_name": "9665", "tags": {"building": "yes", "covered": "yes", "tourism": "picnic_site"}}}, {"type": "Feature", "geometry": {"type": "Polygon", "coordinates": [[[-99.8288604, 35.2275341], [-99.8287593, 35.2275313], [-99.8287616, 35.2274758], [-99.8288627, 35.2274786], [-99.8288604, 35.2275341]]]}, "properties": {"osm_id": 373878257, "building": "yes", "name": "", "height": null, "height_m": null, "levels": null, "tract_id": "40009966500", "tract_name": "9665", "tags": {"building": "yes"}}}, {"type": "Feature", "geometry": {"type": "Polygon", "coordinates": [[[-99.830536, 35.2266219], [-99.8304915, 35.2266741], [-99.8303685, 35.226604], [-99.8304131, 35.2265518], [-99.830536, 35.2266219]]]}, "properties": {"osm_id": 373878258, "building": "yes", "name": "", "height": null, "height_m": null, "levels": null, "tract_id": "40009966500", "tract_name": "9665", "tags": {"building": "yes"}}}, {"type": "Feature", "geometry": {"type": "Polygon", "coordinates": [[[-99.9956194, 35.2193549], [-99.9956886, 35.2193857], [-99.9956344, 35.2194671], [-99.9955652, 35.2194363], [-99.9956194, 35.2193549]]]}, "properties": {"osm_id": 457640808, "building": "yes", "name": "Tumbleweed Grill", "height": null, "height_m": null, "levels": null, "tract_id": "40009966500", "tract_name": "9665", "tags": {"addr:city": "Texola", "amenity": "restaurant", "building": "yes", "cuisine": "american", "name": "Tumbleweed Grill", "phone": "+1 580 526 3914"}}}, {"type": "Feature", "geometry": {"type": "Polygon", "coordinates": [[[-99.8664937, 35.2144961], [-99.8662156, 35.2144984], [-99.8662145, 35.2144162], [-99.8664926, 35.2144138], [-99.8664937, 35.2144961]]]}, "properties": {"osm_id": 457640811, "building": "yes", "name": "", "height": null, "height_m": null, "levels": null, "tract_id": "40009966500", "tract_name": "9665", "tags": {"building": "yes"}}}, {"type": "Feature", "geometry": {"type": "Polygon", "coordinates": [[[-99.8668138, 35.2148291], [-99.8667857, 35.2148083], [-99.866787, 35.2146297], [-99.867247, 35.2146286], [-99.8672443, 35.2148247], [-99.8668138, 35.2148291]]]}, "properties": {"osm_id": 457640812, "building": "retail", "name": "100th Meridian Museum", "height": null, "height_m": null, "levels": null, "tract_id": "40009966500", "tract_name": "9665", "tags": {"addr:city": "Erick", "addr:street": "Rodger Miller Boulevard", "building": "retail", "name": "100th Meridian Museum", "opening_hours": "\"by appointment\"", "phone": "+1 580 526 3221", "tourism": "museum", "website": "https://www.cozadhistory.org/"}}}, {"type": "Feature", "geometry": {"type": "Polygon", "coordinates": [[[-99.9928345, 35.2196093], [-99.9928333, 35.2194014], [-99.9929701, 35.2194009], [-99.9929697, 35.2193194], [-99.9930471, 35.2193191], [-99.9930476, 35.2194066], [-99.9931574, 35.2194062], [-99.9931582, 35.2195462], [-99.9929705, 35.219547], [-99.9929709, 35.2196088], [-99.9928345, 35.2196093]]]}, "properties": {"osm_id": 718984511, "building": "church", "name": "Texola First Baptist Church", "height": null, "height_m": null, "levels": null, "tract_id": "40009966500", "tract_name": "9665", "tags": {"amenity": "place_of_worship", "building": "church", "denomination": "baptist", "name": "Texola First Baptist Church", "religion": "christian"}}}, {"type": "Feature", "geometry": {"type": "Polygon", "coordinates": [[[-99.8652496, 35.2107388], [-99.8652576, 35.2104474], [-99.8648392, 35.2104408], [-99.8648392, 35.2107454], [-99.8648178, 35.2107476], [-99.8648178, 35.210798], [-99.8647212, 35.2108002], [-99.8647239, 35.2110434], [-99.8646595, 35.2110478], [-99.8646568, 35.2111114], [-99.8648607, 35.2111136], [-99.8648524, 35.2111515], [-99.8648348, 35.2111925], [-99.864815, 35.2112269], [-99.8647846, 35.2112536], [-99.8647414, 35.2112841], [-99.8646994, 35.2113032], [-99.8646632, 35.2113127], [-99.86462, 35.2113223], [-99.8645932, 35.2113232], [-99.8646037, 35.2115111], [-99.8646586, 35.2115102], [-99.8647041, 35.2115016], [-99.8647426, 35.2114959], [-99.8647741, 35.2114873], [-99.8647951, 35.2114768], [-99.8648372, 35.2115512], [-99.8649306, 35.2115092], [-99.8649434, 35.2115254], [-99.86501, 35.2114882], [-99.8650613, 35.2114415], [-99.865045, 35.2114262], [-99.8650765, 35.2113948], [-99.8650999, 35.2113671], [-99.8651326, 35.2113213], [-99.8651372, 35.2113003], [-99.8650532, 35.2112698], [-99.8650707, 35.2112307], [-99.8650905, 35.2111725], [-99.8650975, 35.2111296], [-99.8652154, 35.2111267], [-99.8652306, 35.2109197], [-99.8652496, 35.2107388]]]}, "properties": {"osm_id": 1077200032, "building": "school", "name": "", "height": null, "height_m": null, "levels": null, "tract_id": "40009966500", "tract_name": "9665", "tags": {"building": "school"}}}, {"type": "Feature", "geometry": {"type": "Polygon", "coordinates": [[[-99.8662994, 35.2112731], [-99.8660631, 35.21127], [-99.8660651, 35.2111707], [-99.8664432, 35.2111758], [-99.8664407, 35.2112986], [-99.8664786, 35.2112992], [-99.8664734, 35.2115608], [-99.8662937, 35.2115584], [-99.8662994, 35.2112731]]]}, "properties": {"osm_id": 1077200033, "building": "yes", "name": "", "height": null, "height_m": null, "levels": null, "tract_id": "40009966500", "tract_name": "9665", "tags": {"amenity": "place_of_worship", "building": "yes", "denomination": "baptist", "religion": "christian"}}}, {"type": "Feature", "geometry": {"type": "Polygon", "coordinates": [[[-99.8665384, 35.2125923], [-99.8665392, 35.2124742], [-99.8662259, 35.2124729], [-99.8662251, 35.212591], [-99.8665384, 35.2125923]]]}, "properties": {"osm_id": 1077200037, "building": "yes", "name": "", "height": null, "height_m": null, "levels": null, "tract_id": "40009966500", "tract_name": "9665", "tags": {"building": "yes"}}}, {"type": "Feature", "geometry": {"type": "Polygon", "coordinates": [[[-99.867044, 35.2130498], [-99.8669146, 35.2130514], [-99.8669139, 35.213013], [-99.8670433, 35.2130114], [-99.867044, 35.2130498]]]}, "properties": {"osm_id": 1077200038, "building": "yes", "name": "", "height": null, "height_m": null, "levels": null, "tract_id": "40009966500", "tract_name": "9665", "tags": {"building": "yes"}}}, {"type": "Feature", "geometry": {"type": "Polygon", "coordinates": [[[-99.8665061, 35.2136509], [-99.8665054, 35.2135823], [-99.8662274, 35.2135842], [-99.8662281, 35.2136528], [-99.8665061, 35.2136509]]]}, "properties": {"osm_id": 1077200039, "building": "yes", "name": "", "height": null, "height_m": null, "levels": null, "tract_id": "40009966500", "tract_name": "9665", "tags": {"building": "yes"}}}, {"type": "Feature", "geometry": {"type": "Polygon", "coordinates": [[[-99.86651, 35.2137894], [-99.8665099, 35.2137215], [-99.866231, 35.2137218], [-99.8660424, 35.213722], [-99.8660425, 35.21379], [-99.86651, 35.2137894]]]}, "properties": {"osm_id": 1077200040, "building": "yes", "name": "", "height": null, "height_m": null, "levels": null, "tract_id": "40009966500", "tract_name": "9665", "tags": {"building": "yes"}}}, {"type": "Feature", "geometry": {"type": "Polygon", "coordinates": [[[-99.8665099, 35.2137215], [-99.8665061, 35.2136509], [-99.8662281, 35.2136528], [-99.866231, 35.2137218], [-99.8665099, 35.2137215]]]}, "properties": {"osm_id": 1077200041, "building": "yes", "name": "", "height": null, "height_m": null, "levels": null, "tract_id": "40009966500", "tract_name": "9665", "tags": {"building": "yes"}}}, {"type": "Feature", "geometry": {"type": "Polygon", "coordinates": [[[-99.8665054, 35.2135823], [-99.8665062, 35.2135167], [-99.8662272, 35.2135183], [-99.8662274, 35.2135842], [-99.8665054, 35.2135823]]]}, "properties": {"osm_id": 1077200042, "building": "yes", "name": "", "height": null, "height_m": null, "levels": null, "tract_id": "40009966500", "tract_name": "9665", "tags": {"building": "yes"}}}, {"type": "Feature", "geometry": {"type": "Polygon", "coordinates": [[[-99.8665062, 35.2135167], [-99.8665044, 35.2134491], [-99.866158, 35.2134496], [-99.8661586, 35.2135187], [-99.8662272, 35.2135183], [-99.8665062, 35.2135167]]]}, "properties": {"osm_id": 1077200043, "building": "yes", "name": "", "height": null, "height_m": null, "levels": null, "tract_id": "40009966500", "tract_name": "9665", "tags": {"building": "yes"}}}, {"type": "Feature", "geometry": {"type": "Polygon", "coordinates": [[[-99.8665044, 35.2134491], [-99.8665053, 35.213379], [-99.866037, 35.2133797], [-99.866037, 35.2134457], [-99.8665044, 35.2134491]]]}, "properties": {"osm_id": 1077200044, "building": "yes", "name": "", "height": null, "height_m": null, "levels": null, "tract_id": "40009966500", "tract_name": "9665", "tags": {"building": "yes"}}}, {"type": "Feature", "geometry": {"type": "Polygon", "coordinates": [[[-99.8665053, 35.213379], [-99.8665076, 35.2132393], [-99.8661625, 35.2132381], [-99.8661648, 35.2133079], [-99.8660331, 35.2133117], [-99.866037, 35.2133797], [-99.8665053, 35.213379]]]}, "properties": {"osm_id": 1077200045, "building": "yes", "name": "", "height": null, "height_m": null, "levels": null, "tract_id": "40009966500", "tract_name": "9665", "tags": {"building": "yes"}}}, {"type": "Feature", "geometry": {"type": "Polygon", "coordinates": [[[-99.8671633, 35.2140068], [-99.867169, 35.2142044], [-99.8667953, 35.2142067], [-99.8667993, 35.2140051], [-99.8671633, 35.2140068]]]}, "properties": {"osm_id": 1077200046, "building": "retail", "name": "Puckett's Food Stores", "height": null, "height_m": null, "levels": null, "tract_id": "40009966500", "tract_name": "9665", "tags": {"addr:city": "Erick", "addr:housenumber": "123", "addr:postcode": "73645", "addr:state": "OK", "addr:street": "North Sheb Wooley Avenue", "building": "retail", "name": "Puckett's Food Stores", "opening_hours": "Mo-Su 08:00-20:00", "shop": "supermarket"}}}, {"type": "Feature", "geometry": {"type": "Polygon", "coordinates": [[[-99.9936647, 35.2201086], [-99.9936658, 35.2200539], [-99.9937839, 35.2200555], [-99.9937827, 35.2201103], [-99.9936647, 35.2201086]]]}, "properties": {"osm_id": 1153018459, "building": "yes", "name": "", "height": null, "height_m": null, "levels": null, "tract_id": "40009966500", "tract_name": "9665", "tags": {"building": "yes"}}}, {"type": "Feature", "geometry": {"type": "Polygon", "coordinates": [[[-99.9937646, 35.2198665], [-99.9936265, 35.2196901], [-99.9936644, 35.2196703], [-99.9938025, 35.2198467], [-99.9937646, 35.2198665]]]}, "properties": {"osm_id": 1153018460, "building": "yes", "name": "", "height": null, "height_m": null, "levels": null, "tract_id": "40009966500", "tract_name": "9665", "tags": {"building": "yes"}}}, {"type": "Feature", "geometry": {"type": "Polygon", "coordinates": [[[-99.9973836, 35.2195554], [-99.997342, 35.2195551], [-99.9973427, 35.2194883], [-99.9973843, 35.2194885], [-99.9973836, 35.2195554]]]}, "properties": {"osm_id": 1153018461, "building": "yes", "name": "", "height": null, "height_m": null, "levels": null, "tract_id": "40009966500", "tract_name": "9665", "tags": {"building": "yes"}}}, {"type": "Feature", "geometry": {"type": "Polygon", "coordinates": [[[-99.9956886, 35.2193857], [-99.9957579, 35.2194165], [-99.9957036, 35.2194979], [-99.9956344, 35.2194671], [-99.9956886, 35.2193857]]]}, "properties": {"osm_id": 1153018462, "building": "yes", "name": "Water Hole #2", "height": null, "height_m": null, "levels": null, "tract_id": "40009966500", "tract_name": "9665", "tags": {"building": "yes", "name": "Water Hole #2", "shop": "convenience"}}}, {"type": "Feature", "geometry": {"type": "Polygon", "coordinates": [[[-99.9949039, 35.2200714], [-99.9949039, 35.2200232], [-99.9949545, 35.2200232], [-99.9949545, 35.2200714], [-99.9949039, 35.2200714]]]}, "properties": {"osm_id": 1153018463, "building": "yes", "name": "", "height": null, "height_m": null, "levels": null, "tract_id": "40009966500", "tract_name": "9665", "tags": {"building": "yes"}}}, {"type": "Feature", "geometry": {"type": "Polygon", "coordinates": [[[-99.9966215, 35.2197192], [-99.9965631, 35.2197852], [-99.9967521, 35.2198971], [-99.9968106, 35.2198311], [-99.9966215, 35.2197192]]]}, "properties": {"osm_id": 1153018464, "building": "yes", "name": "", "height": null, "height_m": null, "levels": null, "tract_id": "40009966500", "tract_name": "9665", "tags": {"building": "yes", "shop": "yes", "source": "microsoft/BuildingFootprints"}}}, {"type": "Feature", "geometry": {"type": "Polygon", "coordinates": [[[-99.9949596, 35.2199592], [-99.9950534, 35.219961], [-99.9950575, 35.2198177], [-99.9949637, 35.2198159], [-99.9949596, 35.2199592]]]}, "properties": {"osm_id": 1153018465, "building": "yes", "name": "", "height": null, "height_m": null, "levels": null, "tract_id": "40009966500", "tract_name": "9665", "tags": {"building": "yes", "source": "microsoft/BuildingFootprints"}}}, {"type": "Feature", "geometry": {"type": "Polygon", "coordinates": [[[-99.9958711, 35.2194521], [-99.9959215, 35.2195172], [-99.9960815, 35.2194346], [-99.9960109, 35.2193433], [-99.9959704, 35.2193642], [-99.9959907, 35.2193904], [-99.9958711, 35.2194521]]]}, "properties": {"osm_id": 1153018466, "building": "yes", "name": "", "height": null, "height_m": null, "levels": null, "tract_id": "40009966500", "tract_name": "9665", "tags": {"building": "yes", "source": "microsoft/BuildingFootprints"}}}, {"type": "Feature", "geometry": {"type": "Polygon", "coordinates": [[[-99.9954259, 35.2202994], [-99.9954008, 35.2204232], [-99.9955335, 35.2204411], [-99.9955586, 35.2203173], [-99.9954259, 35.2202994]]]}, "properties": {"osm_id": 1153018467, "building": "yes", "name": "", "height": null, "height_m": null, "levels": null, "tract_id": "40009966500", "tract_name": "9665", "tags": {"building": "yes", "source": "microsoft/BuildingFootprints"}}}, {"type": "Feature", "geometry": {"type": "Polygon", "coordinates": [[[-99.9965404, 35.2197472], [-99.996392, 35.2196566], [-99.9963676, 35.2196834], [-99.9963283, 35.2196594], [-99.9963399, 35.2196468], [-99.9963045, 35.2196251], [-99.996297, 35.2196333], [-99.9962159, 35.2195838], [-99.9961161, 35.219693], [-99.9962672, 35.2197852], [-99.996281, 35.2197701], [-99.9963916, 35.2198377], [-99.9964205, 35.219806], [-99.9964629, 35.2198319], [-99.9965404, 35.2197472]]]}, "properties": {"osm_id": 1153018468, "building": "yes", "name": "", "height": null, "height_m": null, "levels": null, "tract_id": "40009966500", "tract_name": "9665", "tags": {"building": "yes", "shop": "yes", "source": "microsoft/BuildingFootprints"}}}, {"type": "Feature", "geometry": {"type": "Polygon", "coordinates": [[[-99.9955191, 35.2194026], [-99.9954379, 35.219382], [-99.995422, 35.2194235], [-99.9955032, 35.2194441], [-99.9955191, 35.2194026]]]}, "properties": {"osm_id": 1153018469, "building": "yes", "name": "", "height": null, "height_m": null, "levels": null, "tract_id": "40009966500", "tract_name": "9665", "tags": {"building": "yes", "shop": "yes", "source": "microsoft/BuildingFootprints"}}}, {"type": "Feature", "geometry": {"type": "Polygon", "coordinates": [[[-99.9947144, 35.220155], [-99.9947158, 35.2200657], [-99.9946541, 35.2200651], [-99.9946527, 35.2201543], [-99.9947144, 35.220155]]]}, "properties": {"osm_id": 1153018470, "building": "yes", "name": "", "height": null, "height_m": null, "levels": null, "tract_id": "40009966500", "tract_name": "9665", "tags": {"building": "yes", "source": "microsoft/BuildingFootprints"}}}, {"type": "Feature", "geometry": {"type": "Polygon", "coordinates": [[[-99.9974074, 35.2194805], [-99.9974074, 35.2195011], [-99.997394, 35.2195011], [-99.997394, 35.219548], [-99.9974181, 35.219548], [-99.9974181, 35.2196389], [-99.9974901, 35.2196389], [-99.9974901, 35.2195475], [-99.997529, 35.2195475], [-99.997529, 35.219528], [-99.9975668, 35.219528], [-99.9975667, 35.2194209], [-99.99753, 35.2194209], [-99.9975301, 35.2194805], [-99.9974074, 35.2194805]]]}, "properties": {"osm_id": 1153018471, "building": "yes", "name": "", "height": null, "height_m": null, "levels": null, "tract_id": "40009966500", "tract_name": "9665", "tags": {"building": "yes", "source": "microsoft/BuildingFootprints"}}}, {"type": "Feature", "geometry": {"type": "Polygon", "coordinates": [[[-99.9942596, 35.2204507], [-99.9942259, 35.22045], [-99.9942068, 35.2204625], [-99.9942062, 35.2204822], [-99.9941907, 35.2204819], [-99.9941891, 35.2205331], [-99.9943064, 35.2205355], [-99.99431, 35.2204214], [-99.9942606, 35.2204204], [-99.9942596, 35.2204507]]]}, "properties": {"osm_id": 1153018472, "building": "yes", "name": "", "height": null, "height_m": null, "levels": null, "tract_id": "40009966500", "tract_name": "9665", "tags": {"building": "yes", "source": "microsoft/BuildingFootprints"}}}, {"type": "Feature", "geometry": {"type": "Polygon", "coordinates": [[[-99.9893705, 35.2177941], [-99.9893724, 35.2178788], [-99.9893204, 35.2178796], [-99.9893184, 35.2177949], [-99.9893705, 35.2177941]]]}, "properties": {"osm_id": 1153066535, "building": "yes", "name": "", "height": null, "height_m": null, "levels": null, "tract_id": "40009966500", "tract_name": "9665", "tags": {"building": "yes"}}}, {"type": "Feature", "geometry": {"type": "Polygon", "coordinates": [[[-99.9930464, 35.2165972], [-99.9930162, 35.2165967], [-99.9930189, 35.2164795], [-99.9930491, 35.2164799], [-99.9930464, 35.2165972]]]}, "properties": {"osm_id": 1153066536, "building": "yes", "name": "", "height": null, "height_m": null, "levels": null, "tract_id": "40009966500", "tract_name": "9665", "tags": {"building": "yes"}}}, {"type": "Feature", "geometry": {"type": "Polygon", "coordinates": [[[-99.9930605, 35.2164246], [-99.9930603, 35.2164616], [-99.9928277, 35.2164608], [-99.9928278, 35.2164238], [-99.9930605, 35.2164246]]]}, "properties": {"osm_id": 1153066537, "building": "yes", "name": "", "height": null, "height_m": null, "levels": null, "tract_id": "40009966500", "tract_name": "9665", "tags": {"building": "yes"}}}, {"type": "Feature", "geometry": {"type": "Polygon", "coordinates": [[[-99.9928312, 35.2163391], [-99.9929036, 35.2163403], [-99.9929016, 35.2164203], [-99.9928292, 35.2164191], [-99.9928312, 35.2163391]]]}, "properties": {"osm_id": 1153066538, "building": "yes", "name": "", "height": null, "height_m": null, "levels": null, "tract_id": "40009966500", "tract_name": "9665", "tags": {"building": "yes"}}}, {"type": "Feature", "geometry": {"type": "Polygon", "coordinates": [[[-99.9780945, 35.2179366], [-99.9779604, 35.2179355], [-99.9779615, 35.2178427], [-99.9780956, 35.2178438], [-99.9780945, 35.2179366]]]}, "properties": {"osm_id": 1153066540, "building": "yes", "name": "", "height": null, "height_m": null, "levels": null, "tract_id": "40009966500", "tract_name": "9665", "tags": {"building": "yes"}}}, {"type": "Feature", "geometry": {"type": "Polygon", "coordinates": [[[-99.9870209, 35.234209], [-99.9869377, 35.2342079], [-99.9869386, 35.2341613], [-99.9870218, 35.2341624], [-99.9870209, 35.234209]]]}, "properties": {"osm_id": 1153066541, "building": "yes", "name": "", "height": null, "height_m": null, "levels": null, "tract_id": "40009966500", "tract_name": "9665", "tags": {"building": "yes"}}}, {"type": "Feature", "geometry": {"type": "Polygon", "coordinates": [[[-99.9868713, 35.23429], [-99.9867345, 35.2342928], [-99.9867328, 35.234235], [-99.9868696, 35.2342322], [-99.9868713, 35.23429]]]}, "properties": {"osm_id": 1153066542, "building": "yes", "name": "", "height": null, "height_m": null, "levels": null, "tract_id": "40009966500", "tract_name": "9665", "tags": {"building": "yes"}}}, {"type": "Feature", "geometry": {"type": "Polygon", "coordinates": [[[-99.9864127, 35.2341054], [-99.986498, 35.2340876], [-99.9865269, 35.2341796], [-99.9864415, 35.2341975], [-99.9864127, 35.2341054]]]}, "properties": {"osm_id": 1153066543, "building": "yes", "name": "", "height": null, "height_m": null, "levels": null, "tract_id": "40009966500", "tract_name": "9665", "tags": {"building": "yes"}}}, {"type": "Feature", "geometry": {"type": "Polygon", "coordinates": [[[-99.9823488, 35.2196197], [-99.9823967, 35.2196197], [-99.9823967, 35.2196778], [-99.9823488, 35.2196778], [-99.9823488, 35.2196197]]]}, "properties": {"osm_id": 1153066544, "building": "yes", "name": "", "height": null, "height_m": null, "levels": null, "tract_id": "40009966500", "tract_name": "9665", "tags": {"building": "yes"}}}, {"type": "Feature", "geometry": {"type": "Polygon", "coordinates": [[[-99.9868184, 35.2194924], [-99.9867587, 35.2194924], [-99.9867587, 35.2194381], [-99.9868184, 35.2194381], [-99.9868184, 35.2194924]]]}, "properties": {"osm_id": 1153066545, "building": "yes", "name": "", "height": null, "height_m": null, "levels": null, "tract_id": "40009966500", "tract_name": "9665", "tags": {"building": "yes"}}}, {"type": "Feature", "geometry": {"type": "Polygon", "coordinates": [[[-99.9931661, 35.2188273], [-99.9931085, 35.2188268], [-99.993109, 35.2187904], [-99.9931667, 35.2187909], [-99.9931661, 35.2188273]]]}, "properties": {"osm_id": 1153066546, "building": "yes", "name": "", "height": null, "height_m": null, "levels": null, "tract_id": "40009966500", "tract_name": "9665", "tags": {"building": "yes"}}}, {"type": "Feature", "geometry": {"type": "Polygon", "coordinates": [[[-99.9939537, 35.2354742], [-99.993953, 35.2354243], [-99.9939993, 35.2354239], [-99.9939999, 35.2354737], [-99.9939537, 35.2354742]]]}, "properties": {"osm_id": 1153066549, "building": "yes", "name": "", "height": null, "height_m": null, "levels": null, "tract_id": "40009966500", "tract_name": "9665", "tags": {"building": "yes"}}}, {"type": "Feature", "geometry": {"type": "Polygon", "coordinates": [[[-99.9897916, 35.2224146], [-99.9897923, 35.2224707], [-99.9897228, 35.2224707], [-99.9897222, 35.2224151], [-99.9897916, 35.2224146]]]}, "properties": {"osm_id": 1153066550, "building": "yes", "name": "", "height": null, "height_m": null, "levels": null, "tract_id": "40009966500", "tract_name": "9665", "tags": {"building": "yes"}}}, {"type": "Feature", "geometry": {"type": "Polygon", "coordinates": [[[-99.9890332, 35.2226175], [-99.9890344, 35.2226662], [-99.9889687, 35.2226673], [-99.9889675, 35.2226186], [-99.9890332, 35.2226175]]]}, "properties": {"osm_id": 1153066551, "building": "yes", "name": "", "height": null, "height_m": null, "levels": null, "tract_id": "40009966500", "tract_name": "9665", "tags": {"building": "yes"}}}, {"type": "Feature", "geometry": {"type": "Polygon", "coordinates": [[[-99.9893953, 35.2229133], [-99.9893041, 35.2229128], [-99.9893043, 35.2228849], [-99.9893955, 35.2228854], [-99.9893953, 35.2229133]]]}, "properties": {"osm_id": 1153066552, "building": "yes", "name": "", "height": null, "height_m": null, "levels": null, "tract_id": "40009966500", "tract_name": "9665", "tags": {"building": "yes"}}}, {"type": "Feature", "geometry": {"type": "Polygon", "coordinates": [[[-99.9887737, 35.2188777], [-99.9887328, 35.2188777], [-99.9887328, 35.2188498], [-99.9887737, 35.2188498], [-99.9887737, 35.2188777]]]}, "properties": {"osm_id": 1153066553, "building": "yes", "name": "", "height": null, "height_m": null, "levels": null, "tract_id": "40009966500", "tract_name": "9665", "tags": {"building": "yes"}}}, {"type": "Feature", "geometry": {"type": "Polygon", "coordinates": [[[-99.9890969, 35.2190552], [-99.9890251, 35.219053], [-99.9890273, 35.219007], [-99.989099, 35.2190092], [-99.9890969, 35.2190552]]]}, "properties": {"osm_id": 1153066554, "building": "yes", "name": "", "height": null, "height_m": null, "levels": null, "tract_id": "40009966500", "tract_name": "9665", "tags": {"building": "yes"}}}, {"type": "Feature", "geometry": {"type": "Polygon", "coordinates": [[[-99.9862578, 35.2248574], [-99.9862178, 35.2248552], [-99.9862225, 35.2247998], [-99.9862625, 35.2248021], [-99.9862578, 35.2248574]]]}, "properties": {"osm_id": 1153066560, "building": "yes", "name": "", "height": null, "height_m": null, "levels": null, "tract_id": "40009966500", "tract_name": "9665", "tags": {"building": "yes"}}}, {"type": "Feature", "geometry": {"type": "Polygon", "coordinates": [[[-99.9853391, 35.2183354], [-99.9852761, 35.2183327], [-99.9852773, 35.2183144], [-99.9853403, 35.2183171], [-99.9853391, 35.2183354]]]}, "properties": {"osm_id": 1153066561, "building": "yes", "name": "", "height": null, "height_m": null, "levels": null, "tract_id": "40009966500", "tract_name": "9665", "tags": {"building": "yes"}}}, {"type": "Feature", "geometry": {"type": "Polygon", "coordinates": [[[-99.985376, 35.2185184], [-99.9853183, 35.2185162], [-99.9853199, 35.2184878], [-99.9853776, 35.21849], [-99.985376, 35.2185184]]]}, "properties": {"osm_id": 1153066562, "building": "yes", "name": "", "height": null, "height_m": null, "levels": null, "tract_id": "40009966500", "tract_name": "9665", "tags": {"building": "yes"}}}, {"type": "Feature", "geometry": {"type": "Polygon", "coordinates": [[[-99.9855289, 35.2185134], [-99.9854846, 35.2185129], [-99.9854854, 35.2184729], [-99.9855296, 35.2184734], [-99.9855289, 35.2185134]]]}, "properties": {"osm_id": 1153066563, "building": "yes", "name": "", "height": null, "height_m": null, "levels": null, "tract_id": "40009966500", "tract_name": "9665", "tags": {"building": "yes"}}}, {"type": "Feature", "geometry": {"type": "Polygon", "coordinates": [[[-99.9854571, 35.2170135], [-99.9854531, 35.2169697], [-99.9854938, 35.2169672], [-99.9854978, 35.217011], [-99.9854571, 35.2170135]]]}, "properties": {"osm_id": 1153066564, "building": "yes", "name": "", "height": null, "height_m": null, "levels": null, "tract_id": "40009966500", "tract_name": "9665", "tags": {"building": "yes"}}}, {"type": "Feature", "geometry": {"type": "Polygon", "coordinates": [[[-99.9853478, 35.2171055], [-99.9852955, 35.2171088], [-99.9852917, 35.217068], [-99.985344, 35.2170647], [-99.9853478, 35.2171055]]]}, "properties": {"osm_id": 1153066565, "building": "yes", "name": "", "height": null, "height_m": null, "levels": null, "tract_id": "40009966500", "tract_name": "9665", "tags": {"building": "yes"}}}, {"type": "Feature", "geometry": {"type": "Polygon", "coordinates": [[[-99.9920547, 35.2184471], [-99.9920218, 35.2184466], [-99.9920226, 35.2184171], [-99.9920554, 35.2184177], [-99.9920547, 35.2184471]]]}, "properties": {"osm_id": 1153066566, "building": "yes", "name": "", "height": null, "height_m": null, "levels": null, "tract_id": "40009966500", "tract_name": "9665", "tags": {"building": "yes"}}}, {"type": "Feature", "geometry": {"type": "Polygon", "coordinates": [[[-99.9923028, 35.2184143], [-99.9922411, 35.2184143], [-99.9922411, 35.2183847], [-99.9923028, 35.2183847], [-99.9923028, 35.2184143]]]}, "properties": {"osm_id": 1153066567, "building": "yes", "name": "", "height": null, "height_m": null, "levels": null, "tract_id": "40009966500", "tract_name": "9665", "tags": {"building": "yes"}}}, {"type": "Feature", "geometry": {"type": "Polygon", "coordinates": [[[-99.9937452, 35.2178204], [-99.9936681, 35.217821], [-99.9936678, 35.2177947], [-99.9937449, 35.2177941], [-99.9937452, 35.2178204]]]}, "properties": {"osm_id": 1153066568, "building": "yes", "name": "", "height": null, "height_m": null, "levels": null, "tract_id": "40009966500", "tract_name": "9665", "tags": {"building": "yes"}}}, {"type": "Feature", "geometry": {"type": "Polygon", "coordinates": [[[-99.9939188, 35.2178374], [-99.993825, 35.2178369], [-99.9938253, 35.2177941], [-99.9939192, 35.2177947], [-99.9939188, 35.2178374]]]}, "properties": {"osm_id": 1153066569, "building": "yes", "name": "", "height": null, "height_m": null, "levels": null, "tract_id": "40009966500", "tract_name": "9665", "tags": {"building": "yes"}}}, {"type": "Feature", "geometry": {"type": "Polygon", "coordinates": [[[-99.9939014, 35.2179897], [-99.9936848, 35.2179875], [-99.9936868, 35.2178543], [-99.9939034, 35.2178565], [-99.9939014, 35.2179897]]]}, "properties": {"osm_id": 1153066570, "building": "yes", "name": "", "height": null, "height_m": null, "levels": null, "tract_id": "40009966500", "tract_name": "9665", "tags": {"building": "yes"}}}, {"type": "Feature", "geometry": {"type": "Polygon", "coordinates": [[[-99.9930461, 35.2178311], [-99.9929613, 35.2178295], [-99.992963, 35.2177718], [-99.9930318, 35.2177731], [-99.993031, 35.2177999], [-99.993047, 35.2178002], [-99.9930461, 35.2178311]]]}, "properties": {"osm_id": 1153066571, "building": "yes", "name": "", "height": null, "height_m": null, "levels": null, "tract_id": "40009966500", "tract_name": "9665", "tags": {"building": "yes"}}}, {"type": "Feature", "geometry": {"type": "Polygon", "coordinates": [[[-99.9931232, 35.2178944], [-99.9930821, 35.217893], [-99.9930833, 35.2178681], [-99.9931245, 35.2178695], [-99.9931232, 35.2178944]]]}, "properties": {"osm_id": 1153066572, "building": "yes", "name": "", "height": null, "height_m": null, "levels": null, "tract_id": "40009966500", "tract_name": "9665", "tags": {"building": "yes"}}}, {"type": "Feature", "geometry": {"type": "Polygon", "coordinates": [[[-99.9892458, 35.219677], [-99.9892075, 35.2196781], [-99.9892063, 35.2196501], [-99.9892446, 35.219649], [-99.9892458, 35.219677]]]}, "properties": {"osm_id": 1153066573, "building": "yes", "name": "", "height": null, "height_m": null, "levels": null, "tract_id": "40009966500", "tract_name": "9665", "tags": {"building": "yes"}}}, {"type": "Feature", "geometry": {"type": "Polygon", "coordinates": [[[-99.9899022, 35.2195198], [-99.9897359, 35.2195198], [-99.9897359, 35.2194787], [-99.9897037, 35.2194787], [-99.9897037, 35.2194357], [-99.9897359, 35.2194357], [-99.9897359, 35.2193532], [-99.9898674, 35.2193532], [-99.9898674, 35.2194354], [-99.9899022, 35.2194354], [-99.9899022, 35.2195198]]]}, "properties": {"osm_id": 1153066574, "building": "ruins", "name": "", "height": null, "height_m": null, "levels": null, "tract_id": "40009966500", "tract_name": "9665", "tags": {"building": "ruins"}}}, {"type": "Feature", "geometry": {"type": "Polygon", "coordinates": [[[-99.9905419, 35.2195608], [-99.9905419, 35.2196047], [-99.990497, 35.2196047], [-99.990497, 35.2195608], [-99.9905419, 35.2195608]]]}, "properties": {"osm_id": 1153066575, "building": "yes", "name": "", "height": null, "height_m": null, "levels": null, "tract_id": "40009966500", "tract_name": "9665", "tags": {"building": "yes"}}}, {"type": "Feature", "geometry": {"type": "Polygon", "coordinates": [[[-99.9921372, 35.2186389], [-99.9921305, 35.2185923], [-99.9921624, 35.2185892], [-99.9921691, 35.2186358], [-99.9921372, 35.2186389]]]}, "properties": {"osm_id": 1153066576, "building": "yes", "name": "", "height": null, "height_m": null, "levels": null, "tract_id": "40009966500", "tract_name": "9665", "tags": {"building": "yes"}}}, {"type": "Feature", "geometry": {"type": "Polygon", "coordinates": [[[-99.9919266, 35.2189922], [-99.9917717, 35.2189922], [-99.9917717, 35.2189062], [-99.9919266, 35.2189062], [-99.9919266, 35.2189922]]]}, "properties": {"osm_id": 1153066577, "building": "yes", "name": "", "height": null, "height_m": null, "levels": null, "tract_id": "40009966500", "tract_name": "9665", "tags": {"building": "yes", "shop": "vacant"}}}, {"type": "Feature", "geometry": {"type": "Polygon", "coordinates": [[[-99.9916919, 35.2189517], [-99.9916924, 35.2189977], [-99.9916059, 35.2189982], [-99.9916054, 35.2189522], [-99.9916919, 35.2189517]]]}, "properties": {"osm_id": 1153066578, "building": "yes", "name": "", "height": null, "height_m": null, "levels": null, "tract_id": "40009966500", "tract_name": "9665", "tags": {"building": "yes", "shop": "vacant"}}}, {"type": "Feature", "geometry": {"type": "Polygon", "coordinates": [[[-99.9913071, 35.2199611], [-99.9911048, 35.2199607], [-99.991105, 35.2198877], [-99.9913074, 35.2198881], [-99.9913071, 35.2199611]]]}, "properties": {"osm_id": 1153066579, "building": "yes", "name": "", "height": null, "height_m": null, "levels": null, "tract_id": "40009966500", "tract_name": "9665", "tags": {"building": "yes", "shop": "vacant"}}}, {"type": "Feature", "geometry": {"type": "Polygon", "coordinates": [[[-99.9913071, 35.2199611], [-99.9913069, 35.2200345], [-99.9910177, 35.2200339], [-99.9910179, 35.2199605], [-99.9911048, 35.2199607], [-99.9913071, 35.2199611]]]}, "properties": {"osm_id": 1153066580, "building": "yes", "name": "", "height": null, "height_m": null, "levels": null, "tract_id": "40009966500", "tract_name": "9665", "tags": {"building": "yes", "shop": "vacant"}}}, {"type": "Feature", "geometry": {"type": "Polygon", "coordinates": [[[-99.9935199, 35.2194622], [-99.9935192, 35.2193554], [-99.9936023, 35.2193551], [-99.993603, 35.2194619], [-99.9935199, 35.2194622]]]}, "properties": {"osm_id": 1153066581, "building": "yes", "name": "", "height": null, "height_m": null, "levels": null, "tract_id": "40009966500", "tract_name": "9665", "tags": {"building": "yes"}}}, {"type": "Feature", "geometry": {"type": "Polygon", "coordinates": [[[-99.9930525, 35.2195893], [-99.9929982, 35.2195899], [-99.9929977, 35.2195559], [-99.993052, 35.2195554], [-99.9930525, 35.2195893]]]}, "properties": {"osm_id": 1153066582, "building": "yes", "name": "", "height": null, "height_m": null, "levels": null, "tract_id": "40009966500", "tract_name": "9665", "tags": {"building": "yes"}}}, {"type": "Feature", "geometry": {"type": "Polygon", "coordinates": [[[-99.9927387, 35.2239947], [-99.9927375, 35.2240485], [-99.9926637, 35.2240474], [-99.9926649, 35.2239936], [-99.9927387, 35.2239947]]]}, "properties": {"osm_id": 1153066585, "building": "yes", "name": "", "height": null, "height_m": null, "levels": null, "tract_id": "40009966500", "tract_name": "9665", "tags": {"building": "yes"}}}, {"type": "Feature", "geometry": {"type": "Polygon", "coordinates": [[[-99.9852714, 35.23491], [-99.9852285, 35.23491], [-99.9852285, 35.2348487], [-99.9852714, 35.2348487], [-99.9852714, 35.23491]]]}, "properties": {"osm_id": 1153066588, "building": "yes", "name": "", "height": null, "height_m": null, "levels": null, "tract_id": "40009966500", "tract_name": "9665", "tags": {"building": "yes"}}}, {"type": "Feature", "geometry": {"type": "Polygon", "coordinates": [[[-99.984916, 35.2351384], [-99.9848436, 35.2351362], [-99.9848451, 35.235103], [-99.9849175, 35.2351052], [-99.984916, 35.2351384]]]}, "properties": {"osm_id": 1153066589, "building": "yes", "name": "", "height": null, "height_m": null, "levels": null, "tract_id": "40009966500", "tract_name": "9665", "tags": {"building": "yes"}}}, {"type": "Feature", "geometry": {"type": "Polygon", "coordinates": [[[-99.984794, 35.2350333], [-99.9848, 35.2349675], [-99.9848452, 35.2349703], [-99.9848391, 35.235036], [-99.984794, 35.2350333]]]}, "properties": {"osm_id": 1153066590, "building": "yes", "name": "", "height": null, "height_m": null, "levels": null, "tract_id": "40009966500", "tract_name": "9665", "tags": {"building": "yes"}}}, {"type": "Feature", "geometry": {"type": "Polygon", "coordinates": [[[-99.9846987, 35.2348892], [-99.9846987, 35.2348312], [-99.984735, 35.2348312], [-99.984735, 35.2348892], [-99.9846987, 35.2348892]]]}, "properties": {"osm_id": 1153066591, "building": "yes", "name": "", "height": null, "height_m": null, "levels": null, "tract_id": "40009966500", "tract_name": "9665", "tags": {"building": "yes"}}}, {"type": "Feature", "geometry": {"type": "Polygon", "coordinates": [[[-99.9846552, 35.2348876], [-99.9846565, 35.234829], [-99.9846915, 35.2348295], [-99.9846902, 35.2348881], [-99.9846552, 35.2348876]]]}, "properties": {"osm_id": 1153066592, "building": "yes", "name": "", "height": null, "height_m": null, "levels": null, "tract_id": "40009966500", "tract_name": "9665", "tags": {"building": "yes"}}}, {"type": "Feature", "geometry": {"type": "Polygon", "coordinates": [[[-99.9848389, 35.2345617], [-99.9847671, 35.2345611], [-99.9847675, 35.2345288], [-99.9848393, 35.2345293], [-99.9848389, 35.2345617]]]}, "properties": {"osm_id": 1153066593, "building": "yes", "name": "", "height": null, "height_m": null, "levels": null, "tract_id": "40009966500", "tract_name": "9665", "tags": {"building": "yes"}}}, {"type": "Feature", "geometry": {"type": "Polygon", "coordinates": [[[-99.9905849, 35.220599], [-99.990845, 35.220599], [-99.990845, 35.220562], [-99.9905849, 35.220562], [-99.9905849, 35.220599]]]}, "properties": {"osm_id": 1153066596, "building": "yes", "name": "", "height": null, "height_m": null, "levels": null, "tract_id": "40009966500", "tract_name": "9665", "tags": {"building": "yes", "source": "microsoft/BuildingFootprints"}}}, {"type": "Feature", "geometry": {"type": "Polygon", "coordinates": [[[-99.9923256, 35.2184449], [-99.9923286, 35.218493], [-99.9924009, 35.21849], [-99.9923979, 35.2184418], [-99.9923256, 35.2184449]]]}, "properties": {"osm_id": 1153066597, "building": "yes", "name": "", "height": null, "height_m": null, "levels": null, "tract_id": "40009966500", "tract_name": "9665", "tags": {"building": "yes", "source": "microsoft/BuildingFootprints"}}}, {"type": "Feature", "geometry": {"type": "Polygon", "coordinates": [[[-99.9911658, 35.2177339], [-99.9912704, 35.2177354], [-99.9912744, 35.2175426], [-99.9911698, 35.2175412], [-99.9911658, 35.2177339]]]}, "properties": {"osm_id": 1153066598, "building": "yes", "name": "", "height": null, "height_m": null, "levels": null, "tract_id": "40009966500", "tract_name": "9665", "tags": {"building": "yes", "source": "microsoft/BuildingFootprints"}}}, {"type": "Feature", "geometry": {"type": "Polygon", "coordinates": [[[-99.9899445, 35.2225819], [-99.9901081, 35.2225819], [-99.9901081, 35.2224811], [-99.9899445, 35.2224811], [-99.9899445, 35.2225819]]]}, "properties": {"osm_id": 1153066599, "building": "yes", "name": "", "height": null, "height_m": null, "levels": null, "tract_id": "40009966500", "tract_name": "9665", "tags": {"building": "yes", "source": "microsoft/BuildingFootprints"}}}, {"type": "Feature", "geometry": {"type": "Polygon", "coordinates": [[[-99.9930507, 35.2178854], [-99.9929276, 35.2178812], [-99.9929259, 35.2179148], [-99.9929062, 35.2179142], [-99.9929036, 35.217966], [-99.9930464, 35.2179708], [-99.9930507, 35.2178854]]]}, "properties": {"osm_id": 1153066600, "building": "yes", "name": "", "height": null, "height_m": null, "levels": null, "tract_id": "40009966500", "tract_name": "9665", "tags": {"building": "yes", "source": "microsoft/BuildingFootprints"}}}, {"type": "Feature", "geometry": {"type": "Polygon", "coordinates": [[[-99.990424, 35.219399], [-99.9904257, 35.219502], [-99.9904991, 35.2195012], [-99.9904974, 35.2193982], [-99.990424, 35.219399]]]}, "properties": {"osm_id": 1153066601, "building": "yes", "name": "", "height": null, "height_m": null, "levels": null, "tract_id": "40009966500", "tract_name": "9665", "tags": {"building": "yes", "source": "microsoft/BuildingFootprints"}}}, {"type": "Feature", "geometry": {"type": "Polygon", "coordinates": [[[-99.9935095, 35.2180121], [-99.9935071, 35.217954], [-99.9934757, 35.2179549], [-99.9934732, 35.2178958], [-99.9934182, 35.2178974], [-99.9934207, 35.2179564], [-99.9934026, 35.2179569], [-99.993405, 35.218015], [-99.9935095, 35.2180121]]]}, "properties": {"osm_id": 1153066602, "building": "yes", "name": "", "height": null, "height_m": null, "levels": null, "tract_id": "40009966500", "tract_name": "9665", "tags": {"building": "yes", "source": "microsoft/BuildingFootprints"}}}, {"type": "Feature", "geometry": {"type": "Polygon", "coordinates": [[[-99.9915679, 35.21946], [-99.9915679, 35.21953], [-99.991778, 35.21953], [-99.991778, 35.21946], [-99.9915679, 35.21946]]]}, "properties": {"osm_id": 1153066603, "building": "yes", "name": "", "height": null, "height_m": null, "levels": null, "tract_id": "40009966500", "tract_name": "9665", "tags": {"building": "yes", "shop": "vacant", "source": "microsoft/BuildingFootprints"}}}, {"type": "Feature", "geometry": {"type": "Polygon", "coordinates": [[[-99.9913021, 35.2164505], [-99.9911975, 35.2164493], [-99.9911958, 35.2165477], [-99.9913004, 35.2165489], [-99.9913021, 35.2164505]]]}, "properties": {"osm_id": 1153066604, "building": "yes", "name": "", "height": null, "height_m": null, "levels": null, "tract_id": "40009966500", "tract_name": "9665", "tags": {"building": "yes", "source": "microsoft/BuildingFootprints"}}}, {"type": "Feature", "geometry": {"type": "Polygon", "coordinates": [[[-99.9850327, 35.234588], [-99.98503, 35.2347128], [-99.9849979, 35.2347123], [-99.9849968, 35.2347627], [-99.985029, 35.2347631], [-99.985028, 35.2348091], [-99.9851754, 35.2348112], [-99.9851801, 35.2345901], [-99.9850327, 35.234588]]]}, "properties": {"osm_id": 1153066605, "building": "yes", "name": "", "height": null, "height_m": null, "levels": null, "tract_id": "40009966500", "tract_name": "9665", "tags": {"building": "yes", "source": "microsoft/BuildingFootprints"}}}, {"type": "Feature", "geometry": {"type": "Polygon", "coordinates": [[[-99.9928312, 35.2236792], [-99.992684, 35.2236726], [-99.9926711, 35.2238672], [-99.9928183, 35.2238738], [-99.9928312, 35.2236792]]]}, "properties": {"osm_id": 1153066606, "building": "yes", "name": "", "height": null, "height_m": null, "levels": null, "tract_id": "40009966500", "tract_name": "9665", "tags": {"building": "yes", "source": "microsoft/BuildingFootprints"}}}, {"type": "Feature", "geometry": {"type": "Polygon", "coordinates": [[[-99.9900147, 35.2172843], [-99.9900121, 35.2172356], [-99.9899899, 35.2172364], [-99.9899887, 35.2172126], [-99.9898525, 35.2172175], [-99.9898564, 35.21729], [-99.9900147, 35.2172843]]]}, "properties": {"osm_id": 1153066608, "building": "yes", "name": "", "height": null, "height_m": null, "levels": null, "tract_id": "40009966500", "tract_name": "9665", "tags": {"building": "yes", "source": "microsoft/BuildingFootprints"}}}, {"type": "Feature", "geometry": {"type": "Polygon", "coordinates": [[[-99.9856423, 35.2184855], [-99.9856425, 35.2185496], [-99.9857241, 35.2185494], [-99.9857238, 35.2184853], [-99.9856423, 35.2184855]]]}, "properties": {"osm_id": 1153066609, "building": "yes", "name": "", "height": null, "height_m": null, "levels": null, "tract_id": "40009966500", "tract_name": "9665", "tags": {"building": "yes", "source": "microsoft/BuildingFootprints"}}}, {"type": "Feature", "geometry": {"type": "Polygon", "coordinates": [[[-99.9739557, 35.21944], [-99.9738537, 35.2194415], [-99.9738563, 35.2195535], [-99.9739582, 35.2195519], [-99.9739557, 35.21944]]]}, "properties": {"osm_id": 1153066610, "building": "yes", "name": "", "height": null, "height_m": null, "levels": null, "tract_id": "40009966500", "tract_name": "9665", "tags": {"building": "yes", "source": "microsoft/BuildingFootprints"}}}, {"type": "Feature", "geometry": {"type": "Polygon", "coordinates": [[[-99.9890182, 35.2178263], [-99.9891127, 35.2178249], [-99.9891115, 35.21777], [-99.9891249, 35.2177698], [-99.9891235, 35.217708], [-99.9890155, 35.2177097], [-99.9890182, 35.2178263]]]}, "properties": {"osm_id": 1153066611, "building": "yes", "name": "", "height": null, "height_m": null, "levels": null, "tract_id": "40009966500", "tract_name": "9665", "tags": {"building": "yes", "source": "microsoft/BuildingFootprints"}}}, {"type": "Feature", "geometry": {"type": "Polygon", "coordinates": [[[-99.989164, 35.2195005], [-99.9890175, 35.2195018], [-99.9890181, 35.2195447], [-99.9891646, 35.2195434], [-99.989164, 35.2195005]]]}, "properties": {"osm_id": 1153066612, "building": "yes", "name": "", "height": null, "height_m": null, "levels": null, "tract_id": "40009966500", "tract_name": "9665", "tags": {"building": "yes", "source": "microsoft/BuildingFootprints"}}}, {"type": "Feature", "geometry": {"type": "Polygon", "coordinates": [[[-99.9867468, 35.2194828], [-99.9866127, 35.2194823], [-99.986612, 35.2196327], [-99.9867461, 35.2196331], [-99.9867468, 35.2194828]]]}, "properties": {"osm_id": 1153066613, "building": "yes", "name": "", "height": null, "height_m": null, "levels": null, "tract_id": "40009966500", "tract_name": "9665", "tags": {"building": "yes", "source": "microsoft/BuildingFootprints"}}}, {"type": "Feature", "geometry": {"type": "Polygon", "coordinates": [[[-99.9886645, 35.2231871], [-99.9886649, 35.2231126], [-99.9884665, 35.2231119], [-99.9884661, 35.2231864], [-99.9886645, 35.2231871]]]}, "properties": {"osm_id": 1153066614, "building": "yes", "name": "", "height": null, "height_m": null, "levels": null, "tract_id": "40009966500", "tract_name": "9665", "tags": {"building": "yes", "source": "microsoft/BuildingFootprints"}}}, {"type": "Feature", "geometry": {"type": "Polygon", "coordinates": [[[-99.9890222, 35.217894], [-99.9890228, 35.2179839], [-99.9891071, 35.2179835], [-99.9891069, 35.2179397], [-99.9891702, 35.2179395], [-99.9891699, 35.2178935], [-99.9890222, 35.217894]]]}, "properties": {"osm_id": 1153066616, "building": "yes", "name": "", "height": null, "height_m": null, "levels": null, "tract_id": "40009966500", "tract_name": "9665", "tags": {"building": "yes", "source": "microsoft/BuildingFootprints"}}}, {"type": "Feature", "geometry": {"type": "Polygon", "coordinates": [[[-99.9924123, 35.2225559], [-99.9922916, 35.2225562], [-99.9922918, 35.2226175], [-99.9922739, 35.2226176], [-99.9922742, 35.2226997], [-99.992292, 35.2226997], [-99.9922922, 35.2227645], [-99.9924075, 35.2227643], [-99.9924077, 35.2228323], [-99.9924388, 35.2228323], [-99.9924716, 35.2228322], [-99.9924714, 35.2227715], [-99.9924852, 35.2227715], [-99.992485, 35.2226811], [-99.9924711, 35.2226811], [-99.9924709, 35.2226196], [-99.9924125, 35.2226198], [-99.9924123, 35.2225559]]]}, "properties": {"osm_id": 1153066617, "building": "yes", "name": "", "height": null, "height_m": null, "levels": null, "tract_id": "40009966500", "tract_name": "9665", "tags": {"building": "yes", "source": "microsoft/BuildingFootprints"}}}, {"type": "Feature", "geometry": {"type": "Polygon", "coordinates": [[[-99.9925647, 35.2162429], [-99.9925632, 35.2161689], [-99.9923862, 35.2161713], [-99.992387, 35.2162082], [-99.992349, 35.2162087], [-99.9923497, 35.2162457], [-99.9925647, 35.2162429]]]}, "properties": {"osm_id": 1153066618, "building": "yes", "name": "", "height": null, "height_m": null, "levels": null, "tract_id": "40009966500", "tract_name": "9665", "tags": {"building": "yes", "source": "microsoft/BuildingFootprints"}}}, {"type": "Feature", "geometry": {"type": "Polygon", "coordinates": [[[-99.9896019, 35.2217611], [-99.9897719, 35.2217559], [-99.9897677, 35.2216662], [-99.9895978, 35.2216714], [-99.9896019, 35.2217611]]]}, "properties": {"osm_id": 1153066619, "building": "yes", "name": "", "height": null, "height_m": null, "levels": null, "tract_id": "40009966500", "tract_name": "9665", "tags": {"building": "yes", "source": "microsoft/BuildingFootprints"}}}, {"type": "Feature", "geometry": {"type": "Polygon", "coordinates": [[[-99.9925452, 35.2232111], [-99.9927517, 35.2232092], [-99.9927493, 35.2230416], [-99.9924757, 35.2230442], [-99.9924769, 35.2231297], [-99.992544, 35.223129], [-99.9925452, 35.2232111]]]}, "properties": {"osm_id": 1153066620, "building": "yes", "name": "", "height": null, "height_m": null, "levels": null, "tract_id": "40009966500", "tract_name": "9665", "tags": {"building": "yes", "source": "microsoft/BuildingFootprints"}}}, {"type": "Feature", "geometry": {"type": "Polygon", "coordinates": [[[-99.9868, 35.234401], [-99.986674, 35.234401], [-99.986674, 35.234475], [-99.9868, 35.234475], [-99.9868, 35.234401]]]}, "properties": {"osm_id": 1153066621, "building": "yes", "name": "", "height": null, "height_m": null, "levels": null, "tract_id": "40009966500", "tract_name": "9665", "tags": {"building": "yes", "source": "microsoft/BuildingFootprints"}}}, {"type": "Feature", "geometry": {"type": "Polygon", "coordinates": [[[-99.9910559, 35.2172747], [-99.9909728, 35.2172736], [-99.9909711, 35.2173534], [-99.9910543, 35.2173546], [-99.9910559, 35.2172747]]]}, "properties": {"osm_id": 1153066622, "building": "yes", "name": "", "height": null, "height_m": null, "levels": null, "tract_id": "40009966500", "tract_name": "9665", "tags": {"building": "yes", "source": "microsoft/BuildingFootprints"}}}, {"type": "Feature", "geometry": {"type": "Polygon", "coordinates": [[[-99.9892955, 35.2194235], [-99.9893787, 35.219423], [-99.9893776, 35.2193222], [-99.9892945, 35.2193227], [-99.9892955, 35.2194235]]]}, "properties": {"osm_id": 1153066623, "building": "yes", "name": "", "height": null, "height_m": null, "levels": null, "tract_id": "40009966500", "tract_name": "9665", "tags": {"building": "yes", "source": "microsoft/BuildingFootprints"}}}, {"type": "Feature", "geometry": {"type": "Polygon", "coordinates": [[[-99.9779735, 35.2185568], [-99.9780681, 35.2185588], [-99.9780705, 35.2184822], [-99.9780213, 35.2184811], [-99.9779759, 35.2184801], [-99.9779735, 35.2185568]]]}, "properties": {"osm_id": 1153066624, "building": "yes", "name": "", "height": null, "height_m": null, "levels": null, "tract_id": "40009966500", "tract_name": "9665", "tags": {"building": "yes", "source": "microsoft/BuildingFootprints"}}}, {"type": "Feature", "geometry": {"type": "Polygon", "coordinates": [[[-99.9912671, 35.222107], [-99.9911425, 35.2221035], [-99.9911394, 35.2221765], [-99.991264, 35.22218], [-99.9912671, 35.222107]]]}, "properties": {"osm_id": 1153066625, "building": "yes", "name": "", "height": null, "height_m": null, "levels": null, "tract_id": "40009966500", "tract_name": "9665", "tags": {"building": "yes", "source": "microsoft/BuildingFootprints"}}}, {"type": "Feature", "geometry": {"type": "Polygon", "coordinates": [[[-99.9911297, 35.2174248], [-99.991194, 35.2174238], [-99.9911926, 35.2173624], [-99.9911282, 35.2173634], [-99.9911297, 35.2174248]]]}, "properties": {"osm_id": 1153066626, "building": "yes", "name": "", "height": null, "height_m": null, "levels": null, "tract_id": "40009966500", "tract_name": "9665", "tags": {"building": "yes", "source": "microsoft/BuildingFootprints"}}}, {"type": "Feature", "geometry": {"type": "Polygon", "coordinates": [[[-99.9930747, 35.2167046], [-99.9929407, 35.2167076], [-99.9929435, 35.2167886], [-99.9930223, 35.2167868], [-99.9930236, 35.2168251], [-99.9930788, 35.2168238], [-99.9930747, 35.2167046]]]}, "properties": {"osm_id": 1153066627, "building": "yes", "name": "", "height": null, "height_m": null, "levels": null, "tract_id": "40009966500", "tract_name": "9665", "tags": {"building": "yes", "source": "microsoft/BuildingFootprints"}}}, {"type": "Feature", "geometry": {"type": "Polygon", "coordinates": [[[-99.987376, 35.2235732], [-99.9873748, 35.2235089], [-99.9872602, 35.2235103], [-99.9872614, 35.2235746], [-99.987376, 35.2235732]]]}, "properties": {"osm_id": 1153066628, "building": "yes", "name": "", "height": null, "height_m": null, "levels": null, "tract_id": "40009966500", "tract_name": "9665", "tags": {"building": "yes", "source": "microsoft/BuildingFootprints"}}}, {"type": "Feature", "geometry": {"type": "Polygon", "coordinates": [[[-99.9858533, 35.2183746], [-99.9857353, 35.2183762], [-99.9857367, 35.2184498], [-99.9858547, 35.2184483], [-99.9858533, 35.2183746]]]}, "properties": {"osm_id": 1153066629, "building": "yes", "name": "", "height": null, "height_m": null, "levels": null, "tract_id": "40009966500", "tract_name": "9665", "tags": {"building": "yes", "source": "microsoft/BuildingFootprints"}}}, {"type": "Feature", "geometry": {"type": "Polygon", "coordinates": [[[-99.9928998, 35.2177006], [-99.9927972, 35.2176998], [-99.9927962, 35.217795], [-99.9928987, 35.2177958], [-99.9928998, 35.2177006]]]}, "properties": {"osm_id": 1153066630, "building": "yes", "name": "", "height": null, "height_m": null, "levels": null, "tract_id": "40009966500", "tract_name": "9665", "tags": {"building": "yes", "source": "microsoft/BuildingFootprints"}}}, {"type": "Feature", "geometry": {"type": "Polygon", "coordinates": [[[-99.9853494, 35.2171564], [-99.9852931, 35.2171577], [-99.985295, 35.2172125], [-99.9853513, 35.2172111], [-99.9853494, 35.2171564]]]}, "properties": {"osm_id": 1153066631, "building": "yes", "name": "", "height": null, "height_m": null, "levels": null, "tract_id": "40009966500", "tract_name": "9665", "tags": {"building": "yes", "source": "microsoft/BuildingFootprints"}}}, {"type": "Feature", "geometry": {"type": "Polygon", "coordinates": [[[-99.9779755, 35.2180788], [-99.977972, 35.2181467], [-99.9780755, 35.2181502], [-99.978079, 35.2180824], [-99.9779755, 35.2180788]]]}, "properties": {"osm_id": 1153066632, "building": "yes", "name": "", "height": null, "height_m": null, "levels": null, "tract_id": "40009966500", "tract_name": "9665", "tags": {"building": "yes", "source": "microsoft/BuildingFootprints"}}}, {"type": "Feature", "geometry": {"type": "Polygon", "coordinates": [[[-99.9954344, 35.2167544], [-99.9954344, 35.2168468], [-99.9954001, 35.2168468], [-99.9954001, 35.216893], [-99.9954001, 35.2169213], [-99.9955604, 35.2169212], [-99.9955604, 35.2168146], [-99.9955402, 35.2168146], [-99.9955402, 35.2167544], [-99.9954344, 35.2167544]]]}, "properties": {"osm_id": 1153066633, "building": "yes", "name": "", "height": null, "height_m": null, "levels": null, "tract_id": "40009966500", "tract_name": "9665", "tags": {"building": "yes", "source": "microsoft/BuildingFootprints"}}}, {"type": "Feature", "geometry": {"type": "Polygon", "coordinates": [[[-99.9890343, 35.2229155], [-99.9889705, 35.2229141], [-99.9889696, 35.2229395], [-99.9889504, 35.2229391], [-99.9889495, 35.222964], [-99.9890326, 35.2229658], [-99.9890343, 35.2229155]]]}, "properties": {"osm_id": 1153066634, "building": "yes", "name": "", "height": null, "height_m": null, "levels": null, "tract_id": "40009966500", "tract_name": "9665", "tags": {"building": "yes", "source": "microsoft/BuildingFootprints"}}}, {"type": "Feature", "geometry": {"type": "Polygon", "coordinates": [[[-99.9777726, 35.218666], [-99.977892, 35.2186668], [-99.9778939, 35.2184701], [-99.9777745, 35.2184693], [-99.9777726, 35.218666]]]}, "properties": {"osm_id": 1153066635, "building": "yes", "name": "", "height": null, "height_m": null, "levels": null, "tract_id": "40009966500", "tract_name": "9665", "tags": {"building": "yes", "source": "microsoft/BuildingFootprints"}}}, {"type": "Feature", "geometry": {"type": "Polygon", "coordinates": [[[-99.9891152, 35.2189813], [-99.9891405, 35.2189809], [-99.989141, 35.2190028], [-99.9892368, 35.2190013], [-99.9892363, 35.2189794], [-99.9892471, 35.2189793], [-99.9892444, 35.2188639], [-99.9892243, 35.2188642], [-99.9892238, 35.2188428], [-99.9891507, 35.218844], [-99.9891512, 35.2188654], [-99.9891125, 35.218866], [-99.9891152, 35.2189813]]]}, "properties": {"osm_id": 1153066636, "building": "yes", "name": "", "height": null, "height_m": null, "levels": null, "tract_id": "40009966500", "tract_name": "9665", "tags": {"building": "yes", "source": "microsoft/BuildingFootprints"}}}, {"type": "Feature", "geometry": {"type": "Polygon", "coordinates": [[[-99.9930966, 35.2153077], [-99.9932333, 35.2153056], [-99.9932326, 35.2152727], [-99.9932849, 35.2152719], [-99.9932827, 35.2151799], [-99.9930936, 35.2151829], [-99.9930966, 35.2153077]]]}, "properties": {"osm_id": 1153066637, "building": "yes", "name": "", "height": null, "height_m": null, "levels": null, "tract_id": "40009966500", "tract_name": "9665", "tags": {"building": "yes", "source": "microsoft/BuildingFootprints"}}}, {"type": "Feature", "geometry": {"type": "Polygon", "coordinates": [[[-99.9925419, 35.2185101], [-99.992365, 35.2185138], [-99.9923675, 35.2185948], [-99.9925444, 35.2185912], [-99.9925419, 35.2185101]]]}, "properties": {"osm_id": 1153066638, "building": "yes", "name": "", "height": null, "height_m": null, "levels": null, "tract_id": "40009966500", "tract_name": "9665", "tags": {"building": "yes", "source": "microsoft/BuildingFootprints"}}}, {"type": "Feature", "geometry": {"type": "Polygon", "coordinates": [[[-99.9868925, 35.2340643], [-99.9870544, 35.2340665], [-99.9870564, 35.2339665], [-99.9870484, 35.2339664], [-99.9870489, 35.2339422], [-99.9869684, 35.2339411], [-99.9869679, 35.2339653], [-99.9869592, 35.2339652], [-99.9869583, 35.2340113], [-99.9868936, 35.2340104], [-99.9868925, 35.2340643]]]}, "properties": {"osm_id": 1153066639, "building": "yes", "name": "", "height": null, "height_m": null, "levels": null, "tract_id": "40009966500", "tract_name": "9665", "tags": {"building": "yes", "source": "microsoft/BuildingFootprints"}}}, {"type": "Feature", "geometry": {"type": "Polygon", "coordinates": [[[-99.9893966, 35.2229246], [-99.9892505, 35.2229224], [-99.9892494, 35.2229704], [-99.9892815, 35.2229709], [-99.9892809, 35.2229991], [-99.9893332, 35.2229999], [-99.9893337, 35.2229797], [-99.9893953, 35.2229806], [-99.9893966, 35.2229246]]]}, "properties": {"osm_id": 1153066640, "building": "yes", "name": "", "height": null, "height_m": null, "levels": null, "tract_id": "40009966500", "tract_name": "9665", "tags": {"building": "yes", "source": "microsoft/BuildingFootprints"}}}, {"type": "Feature", "geometry": {"type": "Polygon", "coordinates": [[[-99.986563, 35.2216325], [-99.9865599, 35.2216834], [-99.9866749, 35.221688], [-99.986678, 35.2216371], [-99.986563, 35.2216325]]]}, "properties": {"osm_id": 1153066641, "building": "yes", "name": "", "height": null, "height_m": null, "levels": null, "tract_id": "40009966500", "tract_name": "9665", "tags": {"building": "yes", "source": "microsoft/BuildingFootprints"}}}, {"type": "Feature", "geometry": {"type": "Polygon", "coordinates": [[[-99.9822345, 35.2196169], [-99.9823579, 35.2196169], [-99.9823579, 35.2194885], [-99.9823498, 35.2194885], [-99.9823498, 35.2194683], [-99.982272, 35.2194683], [-99.982272, 35.2194885], [-99.9822346, 35.2194885], [-99.9822345, 35.2196169]]]}, "properties": {"osm_id": 1153066642, "building": "yes", "name": "", "height": null, "height_m": null, "levels": null, "tract_id": "40009966500", "tract_name": "9665", "tags": {"building": "yes", "source": "microsoft/BuildingFootprints"}}}, {"type": "Feature", "geometry": {"type": "Polygon", "coordinates": [[[-99.986569, 35.2197506], [-99.9865686, 35.2198338], [-99.9868674, 35.2198347], [-99.9868677, 35.2197514], [-99.986569, 35.2197506]]]}, "properties": {"osm_id": 1153066643, "building": "yes", "name": "", "height": null, "height_m": null, "levels": null, "tract_id": "40009966500", "tract_name": "9665", "tags": {"building": "yes", "source": "microsoft/BuildingFootprints"}}}, {"type": "Feature", "geometry": {"type": "Polygon", "coordinates": [[[-99.9897948, 35.2225792], [-99.9897948, 35.2225288], [-99.9898201, 35.2225288], [-99.9898201, 35.2224959], [-99.9897947, 35.2224959], [-99.9897947, 35.2224707], [-99.9897923, 35.2224707], [-99.9897228, 35.2224707], [-99.9896211, 35.2224708], [-99.9896212, 35.2225905], [-99.9897188, 35.2225904], [-99.9897188, 35.2225792], [-99.9897948, 35.2225792]]]}, "properties": {"osm_id": 1153066644, "building": "yes", "name": "", "height": null, "height_m": null, "levels": null, "tract_id": "40009966500", "tract_name": "9665", "tags": {"building": "yes", "source": "microsoft/BuildingFootprints"}}}, {"type": "Feature", "geometry": {"type": "Polygon", "coordinates": [[[-99.9876534, 35.2219358], [-99.987756, 35.2219449], [-99.9877843, 35.2217329], [-99.9876815, 35.2217238], [-99.9876534, 35.2219358]]]}, "properties": {"osm_id": 1153066645, "building": "yes", "name": "", "height": null, "height_m": null, "levels": null, "tract_id": "40009966500", "tract_name": "9665", "tags": {"building": "yes", "source": "microsoft/BuildingFootprints"}}}, {"type": "Feature", "geometry": {"type": "Polygon", "coordinates": [[[-99.9987857, 35.2331312], [-99.998504, 35.2331329], [-99.9985043, 35.2331724], [-99.9985829, 35.2331719], [-99.9985839, 35.2332814], [-99.9987871, 35.2332802], [-99.9987857, 35.2331312]]]}, "properties": {"osm_id": 1153066646, "building": "yes", "name": "", "height": null, "height_m": null, "levels": null, "tract_id": "40009966500", "tract_name": "9665", "tags": {"building": "yes", "source": "microsoft/BuildingFootprints"}}}, {"type": "Feature", "geometry": {"type": "Polygon", "coordinates": [[[-99.9993917, 35.2331947], [-99.9990966, 35.2331959], [-99.9990978, 35.2333865], [-99.9993928, 35.2333853], [-99.9993917, 35.2331947]]]}, "properties": {"osm_id": 1153066647, "building": "yes", "name": "", "height": null, "height_m": null, "levels": null, "tract_id": "40009966500", "tract_name": "9665", "tags": {"building": "yes", "source": "microsoft/BuildingFootprints"}}}, {"type": "Feature", "geometry": {"type": "Polygon", "coordinates": [[[-99.9929168, 35.2190078], [-99.9930116, 35.2190081], [-99.9930122, 35.2189172], [-99.9929174, 35.2189169], [-99.9929168, 35.2190078]]]}, "properties": {"osm_id": 1153066648, "building": "yes", "name": "", "height": null, "height_m": null, "levels": null, "tract_id": "40009966500", "tract_name": "9665", "tags": {"building": "yes", "source": "microsoft/BuildingFootprints"}}}, {"type": "Feature", "geometry": {"type": "Polygon", "coordinates": [[[-99.9881671, 35.2187762], [-99.9881661, 35.2188748], [-99.9883415, 35.218876], [-99.988342, 35.2188247], [-99.988282, 35.2188243], [-99.9882825, 35.218777], [-99.9881671, 35.2187762]]]}, "properties": {"osm_id": 1153066649, "building": "yes", "name": "", "height": null, "height_m": null, "levels": null, "tract_id": "40009966500", "tract_name": "9665", "tags": {"building": "yes", "source": "microsoft/BuildingFootprints"}}}, {"type": "Feature", "geometry": {"type": "Polygon", "coordinates": [[[-99.9901465, 35.2205313], [-99.9905327, 35.2205352], [-99.9905339, 35.2204558], [-99.9904132, 35.2204545], [-99.9904143, 35.2203812], [-99.9903194, 35.2203803], [-99.9903183, 35.2204525], [-99.9901477, 35.2204508], [-99.9901465, 35.2205313]]]}, "properties": {"osm_id": 1153066650, "building": "yes", "name": "", "height": null, "height_m": null, "levels": null, "tract_id": "40009966500", "tract_name": "9665", "tags": {"building": "yes", "source": "microsoft/BuildingFootprints"}}}, {"type": "Feature", "geometry": {"type": "Polygon", "coordinates": [[[-99.9890993, 35.2193198], [-99.9890999, 35.2193789], [-99.9890168, 35.2193795], [-99.9890172, 35.2194211], [-99.9891996, 35.2194199], [-99.9891986, 35.2193191], [-99.9890993, 35.2193198]]]}, "properties": {"osm_id": 1153066651, "building": "yes", "name": "", "height": null, "height_m": null, "levels": null, "tract_id": "40009966500", "tract_name": "9665", "tags": {"building": "yes", "source": "microsoft/BuildingFootprints"}}}, {"type": "Feature", "geometry": {"type": "Polygon", "coordinates": [[[-99.9860646, 35.2249058], [-99.9861985, 35.2249104], [-99.986204, 35.2248025], [-99.9860702, 35.2247979], [-99.9860646, 35.2249058]]]}, "properties": {"osm_id": 1153066652, "building": "yes", "name": "", "height": null, "height_m": null, "levels": null, "tract_id": "40009966500", "tract_name": "9665", "tags": {"building": "yes", "source": "microsoft/BuildingFootprints"}}}, {"type": "Feature", "geometry": {"type": "Polygon", "coordinates": [[[-99.9905103, 35.2194437], [-99.9906095, 35.2194429], [-99.9906083, 35.2193356], [-99.9905091, 35.2193363], [-99.9905103, 35.2194437]]]}, "properties": {"osm_id": 1153066653, "building": "yes", "name": "", "height": null, "height_m": null, "levels": null, "tract_id": "40009966500", "tract_name": "9665", "tags": {"building": "yes", "source": "microsoft/BuildingFootprints"}}}, {"type": "Feature", "geometry": {"type": "Polygon", "coordinates": [[[-99.9880637, 35.2186076], [-99.9880713, 35.2186509], [-99.9880412, 35.2186544], [-99.9880482, 35.2186943], [-99.9881403, 35.2186836], [-99.9881257, 35.2186004], [-99.9880637, 35.2186076]]]}, "properties": {"osm_id": 1153066655, "building": "yes", "name": "", "height": null, "height_m": null, "levels": null, "tract_id": "40009966500", "tract_name": "9665", "tags": {"building": "yes", "source": "microsoft/BuildingFootprints"}}}, {"type": "Feature", "geometry": {"type": "Polygon", "coordinates": [[[-99.9881628, 35.2232391], [-99.9883548, 35.2232392], [-99.9883548, 35.2231704], [-99.9881628, 35.2231703], [-99.9881628, 35.2232391]]]}, "properties": {"osm_id": 1153066656, "building": "yes", "name": "", "height": null, "height_m": null, "levels": null, "tract_id": "40009966500", "tract_name": "9665", "tags": {"building": "yes", "source": "microsoft/BuildingFootprints"}}}, {"type": "Feature", "geometry": {"type": "Polygon", "coordinates": [[[-99.9884637, 35.223951], [-99.9886993, 35.2239475], [-99.9886985, 35.2239098], [-99.9884629, 35.2239133], [-99.9884637, 35.223951]]]}, "properties": {"osm_id": 1153066657, "building": "yes", "name": "", "height": null, "height_m": null, "levels": null, "tract_id": "40009966500", "tract_name": "9665", "tags": {"building": "yes", "source": "microsoft/BuildingFootprints"}}}, {"type": "Feature", "geometry": {"type": "Polygon", "coordinates": [[[-99.9890625, 35.2231239], [-99.9890609, 35.2231918], [-99.9891158, 35.2231927], [-99.9891154, 35.2232105], [-99.9892528, 35.2232127], [-99.9892545, 35.22314], [-99.9891737, 35.2231388], [-99.989174, 35.2231257], [-99.9890625, 35.2231239]]]}, "properties": {"osm_id": 1153066658, "building": "yes", "name": "", "height": null, "height_m": null, "levels": null, "tract_id": "40009966500", "tract_name": "9665", "tags": {"building": "yes", "source": "microsoft/BuildingFootprints"}}}, {"type": "Feature", "geometry": {"type": "Polygon", "coordinates": [[[-99.989765, 35.223584], [-99.989673, 35.223584], [-99.989673, 35.223682], [-99.989765, 35.223682], [-99.989765, 35.223584]]]}, "properties": {"osm_id": 1153066659, "building": "yes", "name": "", "height": null, "height_m": null, "levels": null, "tract_id": "40009966500", "tract_name": "9665", "tags": {"building": "yes", "source": "microsoft/BuildingFootprints"}}}, {"type": "Feature", "geometry": {"type": "Polygon", "coordinates": [[[-99.9890519, 35.2199759], [-99.9890487, 35.2200613], [-99.9891717, 35.2200644], [-99.9891749, 35.2199791], [-99.9890519, 35.2199759]]]}, "properties": {"osm_id": 1153066660, "building": "yes", "name": "", "height": null, "height_m": null, "levels": null, "tract_id": "40009966500", "tract_name": "9665", "tags": {"building": "yes", "source": "microsoft/BuildingFootprints"}}}, {"type": "Feature", "geometry": {"type": "Polygon", "coordinates": [[[-99.9856295, 35.2186501], [-99.9856268, 35.2185573], [-99.9855431, 35.218559], [-99.9855459, 35.2186518], [-99.9856295, 35.2186501]]]}, "properties": {"osm_id": 1153066661, "building": "yes", "name": "", "height": null, "height_m": null, "levels": null, "tract_id": "40009966500", "tract_name": "9665", "tags": {"building": "yes", "source": "microsoft/BuildingFootprints"}}}, {"type": "Feature", "geometry": {"type": "Polygon", "coordinates": [[[-99.991052, 35.219302], [-99.991052, 35.219355], [-99.991183, 35.219355], [-99.991183, 35.219302], [-99.991052, 35.219302]]]}, "properties": {"osm_id": 1153066662, "building": "yes", "name": "", "height": null, "height_m": null, "levels": null, "tract_id": "40009966500", "tract_name": "9665", "tags": {"building": "yes", "shop": "vacant", "source": "microsoft/BuildingFootprints"}}}, {"type": "Feature", "geometry": {"type": "Polygon", "coordinates": [[[-99.9945291, 35.2167903], [-99.9946281, 35.2167962], [-99.9946324, 35.2167481], [-99.9945334, 35.2167422], [-99.9945291, 35.2167903]]]}, "properties": {"osm_id": 1153066663, "building": "yes", "name": "", "height": null, "height_m": null, "levels": null, "tract_id": "40009966500", "tract_name": "9665", "tags": {"building": "yes", "source": "microsoft/BuildingFootprints"}}}, {"type": "Feature", "geometry": {"type": "Polygon", "coordinates": [[[-99.9878123, 35.2353875], [-99.9877703, 35.2353875], [-99.9877703, 35.2354655], [-99.9878123, 35.2354655], [-99.9878123, 35.2353875]]]}, "properties": {"osm_id": 1153066664, "building": "yes", "name": "", "height": null, "height_m": null, "levels": null, "tract_id": "40009966500", "tract_name": "9665", "tags": {"building": "yes", "source": "microsoft/BuildingFootprints"}}}, {"type": "Feature", "geometry": {"type": "Polygon", "coordinates": [[[-99.9890767, 35.2229209], [-99.9891947, 35.2229219], [-99.9891958, 35.2228277], [-99.9892495, 35.2228281], [-99.989251, 35.2226979], [-99.9891572, 35.2226972], [-99.9891563, 35.2227717], [-99.9890785, 35.222771], [-99.9890767, 35.2229209]]]}, "properties": {"osm_id": 1153066666, "building": "yes", "name": "", "height": null, "height_m": null, "levels": null, "tract_id": "40009966500", "tract_name": "9665", "tags": {"building": "yes", "source": "microsoft/BuildingFootprints"}}}, {"type": "Feature", "geometry": {"type": "Polygon", "coordinates": [[[-99.9936848, 35.2352967], [-99.9936842, 35.2353099], [-99.9936612, 35.2353092], [-99.9936585, 35.2353678], [-99.9936816, 35.2353685], [-99.9936808, 35.2353858], [-99.9937899, 35.235389], [-99.9937939, 35.2352999], [-99.9936848, 35.2352967]]]}, "properties": {"osm_id": 1153066667, "building": "yes", "name": "", "height": null, "height_m": null, "levels": null, "tract_id": "40009966500", "tract_name": "9665", "tags": {"building": "yes", "source": "microsoft/BuildingFootprints"}}}, {"type": "Feature", "geometry": {"type": "Polygon", "coordinates": [[[-99.9956709, 35.2164442], [-99.9956216, 35.2164433], [-99.9956233, 35.216387], [-99.9955512, 35.2163856], [-99.9955496, 35.2164419], [-99.9955274, 35.2164414], [-99.9955272, 35.2164476], [-99.9955054, 35.2164472], [-99.9955033, 35.2165167], [-99.9955251, 35.2165172], [-99.9955249, 35.2165251], [-99.9956684, 35.2165279], [-99.9956689, 35.2165111], [-99.9956917, 35.2165116], [-99.995693, 35.2164688], [-99.9956702, 35.2164684], [-99.9956709, 35.2164442]]]}, "properties": {"osm_id": 1153066668, "building": "yes", "name": "", "height": null, "height_m": null, "levels": null, "tract_id": "40009966500", "tract_name": "9665", "tags": {"building": "yes", "source": "microsoft/BuildingFootprints"}}}, {"type": "Feature", "geometry": {"type": "Polygon", "coordinates": [[[-99.9898818, 35.218905], [-99.9898802, 35.2190452], [-99.9900345, 35.2190464], [-99.990035, 35.2189977], [-99.9900015, 35.2189974], [-99.9900025, 35.2189059], [-99.9898818, 35.218905]]]}, "properties": {"osm_id": 1153066669, "building": "yes", "name": "", "height": null, "height_m": null, "levels": null, "tract_id": "40009966500", "tract_name": "9665", "tags": {"building": "yes", "source": "microsoft/BuildingFootprints"}}}, {"type": "Feature", "geometry": {"type": "Polygon", "coordinates": [[[-99.984598, 35.21872], [-99.984597, 35.218631], [-99.984445, 35.218632], [-99.984444, 35.218589], [-99.984358, 35.218589], [-99.984359, 35.218721], [-99.984598, 35.21872]]]}, "properties": {"osm_id": 1153066670, "building": "yes", "name": "", "height": null, "height_m": null, "levels": null, "tract_id": "40009966500", "tract_name": "9665", "tags": {"building": "yes", "source": "microsoft/BuildingFootprints"}}}, {"type": "Feature", "geometry": {"type": "Polygon", "coordinates": [[[-99.9917089, 35.2243811], [-99.9919047, 35.2243792], [-99.9919028, 35.2242433], [-99.9917444, 35.2242448], [-99.9917449, 35.2242837], [-99.9917075, 35.2242841], [-99.9917089, 35.2243811]]]}, "properties": {"osm_id": 1153066671, "building": "yes", "name": "", "height": null, "height_m": null, "levels": null, "tract_id": "40009966500", "tract_name": "9665", "tags": {"building": "yes", "source": "microsoft/BuildingFootprints"}}}, {"type": "Feature", "geometry": {"type": "Polygon", "coordinates": [[[-99.9890268, 35.218749], [-99.9890261, 35.2188072], [-99.989137, 35.2188081], [-99.9891377, 35.2187499], [-99.9890268, 35.218749]]]}, "properties": {"osm_id": 1153066672, "building": "yes", "name": "", "height": null, "height_m": null, "levels": null, "tract_id": "40009966500", "tract_name": "9665", "tags": {"building": "yes", "source": "microsoft/BuildingFootprints"}}}, {"type": "Feature", "geometry": {"type": "Polygon", "coordinates": [[[-99.9904458, 35.219668], [-99.9904424, 35.2195497], [-99.9903844, 35.2195509], [-99.9903855, 35.2195881], [-99.9903362, 35.219589], [-99.9903385, 35.2196701], [-99.9904458, 35.219668]]]}, "properties": {"osm_id": 1153066673, "building": "yes", "name": "", "height": null, "height_m": null, "levels": null, "tract_id": "40009966500", "tract_name": "9665", "tags": {"building": "yes", "source": "microsoft/BuildingFootprints"}}}, {"type": "Feature", "geometry": {"type": "Polygon", "coordinates": [[[-99.9912863, 35.2237893], [-99.9912843, 35.2236885], [-99.9912226, 35.2236893], [-99.9912246, 35.2237901], [-99.9912863, 35.2237893]]]}, "properties": {"osm_id": 1153066674, "building": "yes", "name": "", "height": null, "height_m": null, "levels": null, "tract_id": "40009966500", "tract_name": "9665", "tags": {"building": "yes", "source": "microsoft/BuildingFootprints"}}}, {"type": "Feature", "geometry": {"type": "Polygon", "coordinates": [[[-99.9858296, 35.2247219], [-99.9859196, 35.2247262], [-99.9859315, 35.2245585], [-99.9858416, 35.2245542], [-99.9858377, 35.2246077], [-99.9858132, 35.2246065], [-99.9858096, 35.2246562], [-99.9858342, 35.2246574], [-99.9858296, 35.2247219]]]}, "properties": {"osm_id": 1153066675, "building": "yes", "name": "", "height": null, "height_m": null, "levels": null, "tract_id": "40009966500", "tract_name": "9665", "tags": {"building": "yes", "source": "microsoft/BuildingFootprints"}}}, {"type": "Feature", "geometry": {"type": "Polygon", "coordinates": [[[-99.9930927, 35.2154141], [-99.9930929, 35.2153824], [-99.993007, 35.2153821], [-99.9930068, 35.2154281], [-99.992991, 35.215428], [-99.9929907, 35.2154768], [-99.9930065, 35.2154768], [-99.9930064, 35.2154894], [-99.9931236, 35.2154898], [-99.9931236, 35.2154839], [-99.9931677, 35.2154841], [-99.9931681, 35.2154206], [-99.9931229, 35.2154204], [-99.9931229, 35.2154143], [-99.9930927, 35.2154141]]]}, "properties": {"osm_id": 1153066676, "building": "yes", "name": "", "height": null, "height_m": null, "levels": null, "tract_id": "40009966500", "tract_name": "9665", "tags": {"building": "yes", "source": "microsoft/BuildingFootprints"}}}, {"type": "Feature", "geometry": {"type": "Polygon", "coordinates": [[[-99.9920422, 35.2253933], [-99.9922207, 35.2253958], [-99.9922238, 35.2252402], [-99.9923445, 35.2252419], [-99.9923455, 35.2251937], [-99.9922248, 35.225192], [-99.9922265, 35.2251088], [-99.9920736, 35.2251067], [-99.9920711, 35.2252305], [-99.9920455, 35.2252302], [-99.9920422, 35.2253933]]]}, "properties": {"osm_id": 1153066677, "building": "yes", "name": "", "height": null, "height_m": null, "levels": null, "tract_id": "40009966500", "tract_name": "9665", "tags": {"building": "yes", "source": "microsoft/BuildingFootprints"}}}, {"type": "Feature", "geometry": {"type": "Polygon", "coordinates": [[[-99.9857111, 35.2173465], [-99.9858541, 35.2173456], [-99.9858533, 35.2172639], [-99.9858697, 35.2172638], [-99.985869, 35.2171891], [-99.9857097, 35.2171901], [-99.9857111, 35.2173465]]]}, "properties": {"osm_id": 1153066678, "building": "yes", "name": "", "height": null, "height_m": null, "levels": null, "tract_id": "40009966500", "tract_name": "9665", "tags": {"building": "yes", "source": "microsoft/BuildingFootprints"}}}, {"type": "Feature", "geometry": {"type": "Polygon", "coordinates": [[[-99.9899421, 35.2220054], [-99.9899477, 35.2221849], [-99.9900347, 35.2221831], [-99.9900291, 35.2220036], [-99.9899421, 35.2220054]]]}, "properties": {"osm_id": 1153066679, "building": "yes", "name": "", "height": null, "height_m": null, "levels": null, "tract_id": "40009966500", "tract_name": "9665", "tags": {"building": "yes", "source": "microsoft/BuildingFootprints"}}}, {"type": "Feature", "geometry": {"type": "Polygon", "coordinates": [[[-99.9912318, 35.2238878], [-99.9912956, 35.2238883], [-99.9912966, 35.2238054], [-99.9912326, 35.2238049], [-99.9912324, 35.2238241], [-99.9911622, 35.2238235], [-99.9911617, 35.223873], [-99.991232, 35.2238735], [-99.9912318, 35.2238878]]]}, "properties": {"osm_id": 1153066680, "building": "yes", "name": "", "height": null, "height_m": null, "levels": null, "tract_id": "40009966500", "tract_name": "9665", "tags": {"building": "yes", "source": "microsoft/BuildingFootprints"}}}, {"type": "Feature", "geometry": {"type": "Polygon", "coordinates": [[[-99.8557673, 35.4210188], [-99.8557307, 35.4210178], [-99.8557325, 35.4209737], [-99.8557691, 35.4209747], [-99.8557673, 35.4210188]]]}, "properties": {"osm_id": 1153938289, "building": "yes", "name": "", "height": null, "height_m": null, "levels": null, "tract_id": "40009966500", "tract_name": "9665", "tags": {"building": "yes"}}}, {"type": "Feature", "geometry": {"type": "Polygon", "coordinates": [[[-99.8551601, 35.4218853], [-99.8551291, 35.4218857], [-99.8551283, 35.4218442], [-99.8551594, 35.4218439], [-99.8551601, 35.4218853]]]}, "properties": {"osm_id": 1153938290, "building": "yes", "name": "", "height": null, "height_m": null, "levels": null, "tract_id": "40009966500", "tract_name": "9665", "tags": {"building": "yes"}}}, {"type": "Feature", "geometry": {"type": "Polygon", "coordinates": [[[-99.849949, 35.4081198], [-99.8499468, 35.4080581], [-99.8500346, 35.408056], [-99.8500368, 35.4081177], [-99.849949, 35.4081198]]]}, "properties": {"osm_id": 1153938295, "building": "yes", "name": "", "height": null, "height_m": null, "levels": null, "tract_id": "40009966500", "tract_name": "9665", "tags": {"building": "yes"}}}, {"type": "Feature", "geometry": {"type": "Polygon", "coordinates": [[[-99.8741991, 35.4109513], [-99.8741999, 35.4109104], [-99.8742283, 35.4109108], [-99.8742275, 35.4109517], [-99.8741991, 35.4109513]]]}, "properties": {"osm_id": 1153938312, "building": "yes", "name": "", "height": null, "height_m": null, "levels": null, "tract_id": "40009966500", "tract_name": "9665", "tags": {"building": "yes"}}}, {"type": "Feature", "geometry": {"type": "Polygon", "coordinates": [[[-99.9388191, 35.3229966], [-99.9388195, 35.3229681], [-99.938764, 35.3229675], [-99.9387636, 35.3229961], [-99.9388191, 35.3229966]]]}, "properties": {"osm_id": 1161246219, "building": "yes", "name": "", "height": null, "height_m": null, "levels": null, "tract_id": "40009966500", "tract_name": "9665", "tags": {"building": "yes"}}}, {"type": "Feature", "geometry": {"type": "Polygon", "coordinates": [[[-99.9389866, 35.3230019], [-99.9389862, 35.3229705], [-99.9388895, 35.3229714], [-99.93889, 35.3230029], [-99.9389866, 35.3230019]]]}, "properties": {"osm_id": 1161246220, "building": "yes", "name": "", "height": null, "height_m": null, "levels": null, "tract_id": "40009966500", "tract_name": "9665", "tags": {"building": "yes"}}}, {"type": "Feature", "geometry": {"type": "Polygon", "coordinates": [[[-99.9395285, 35.3231592], [-99.9395005, 35.3231578], [-99.939509, 35.3230475], [-99.939537, 35.323049], [-99.9395285, 35.3231592]]]}, "properties": {"osm_id": 1161246221, "building": "yes", "name": "", "height": null, "height_m": null, "levels": null, "tract_id": "40009966500", "tract_name": "9665", "tags": {"building": "yes"}}}, {"type": "Feature", "geometry": {"type": "Polygon", "coordinates": [[[-99.9392445, 35.3221546], [-99.939246, 35.3220868], [-99.9391757, 35.3220858], [-99.9391743, 35.3221536], [-99.9392445, 35.3221546]]]}, "properties": {"osm_id": 1161246222, "building": "yes", "name": "", "height": null, "height_m": null, "levels": null, "tract_id": "40009966500", "tract_name": "9665", "tags": {"building": "yes"}}}, {"type": "Feature", "geometry": {"type": "Polygon", "coordinates": [[[-99.9392313, 35.32203], [-99.9392332, 35.3219997], [-99.9391834, 35.3219976], [-99.9391815, 35.322028], [-99.9392313, 35.32203]]]}, "properties": {"osm_id": 1161246223, "building": "yes", "name": "", "height": null, "height_m": null, "levels": null, "tract_id": "40009966500", "tract_name": "9665", "tags": {"building": "yes"}}}, {"type": "Feature", "geometry": {"type": "Polygon", "coordinates": [[[-99.9385497, 35.3219267], [-99.9385497, 35.3218928], [-99.9384827, 35.3218928], [-99.9384827, 35.3219267], [-99.9385497, 35.3219267]]]}, "properties": {"osm_id": 1161246224, "building": "yes", "name": "", "height": null, "height_m": null, "levels": null, "tract_id": "40009966500", "tract_name": "9665", "tags": {"building": "yes"}}}, {"type": "Feature", "geometry": {"type": "Polygon", "coordinates": [[[-99.9406938, 35.3248265], [-99.9406926, 35.3248085], [-99.9407061, 35.324808], [-99.9407073, 35.3248259], [-99.9406938, 35.3248265]]]}, "properties": {"osm_id": 1161246228, "building": "yes", "name": "", "height": null, "height_m": null, "levels": null, "tract_id": "40009966500", "tract_name": "9665", "tags": {"building": "yes"}}}, {"type": "Feature", "geometry": {"type": "Polygon", "coordinates": [[[-99.9407832, 35.3248269], [-99.9407679, 35.3248267], [-99.9407684, 35.3248087], [-99.9407836, 35.3248089], [-99.9407832, 35.3248269]]]}, "properties": {"osm_id": 1161246229, "building": "yes", "name": "", "height": null, "height_m": null, "levels": null, "tract_id": "40009966500", "tract_name": "9665", "tags": {"building": "yes"}}}, {"type": "Feature", "geometry": {"type": "Polygon", "coordinates": [[[-99.9407755, 35.3247135], [-99.9407918, 35.3247129], [-99.9407908, 35.3246934], [-99.9407746, 35.3246939], [-99.9407755, 35.3247135]]]}, "properties": {"osm_id": 1161246230, "building": "yes", "name": "", "height": null, "height_m": null, "levels": null, "tract_id": "40009966500", "tract_name": "9665", "tags": {"building": "yes"}}}, {"type": "Feature", "geometry": {"type": "Polygon", "coordinates": [[[-99.9375867, 35.3257435], [-99.9375511, 35.3257459], [-99.9375471, 35.3257061], [-99.9375826, 35.3257037], [-99.9375867, 35.3257435]]]}, "properties": {"osm_id": 1161246232, "building": "yes", "name": "", "height": null, "height_m": null, "levels": null, "tract_id": "40009966500", "tract_name": "9665", "tags": {"building": "yes"}}}, {"type": "Feature", "geometry": {"type": "Polygon", "coordinates": [[[-99.9386091, 35.3260935], [-99.9385876, 35.3260912], [-99.9385907, 35.326072], [-99.9386122, 35.3260743], [-99.9386091, 35.3260935]]]}, "properties": {"osm_id": 1161246233, "building": "yes", "name": "", "height": null, "height_m": null, "levels": null, "tract_id": "40009966500", "tract_name": "9665", "tags": {"building": "yes"}}}, {"type": "Feature", "geometry": {"type": "Polygon", "coordinates": [[[-99.9384893, 35.3260856], [-99.9384906, 35.3260676], [-99.9384619, 35.3260662], [-99.9384607, 35.3260842], [-99.9384893, 35.3260856]]]}, "properties": {"osm_id": 1161246234, "building": "yes", "name": "", "height": null, "height_m": null, "levels": null, "tract_id": "40009966500", "tract_name": "9665", "tags": {"building": "yes"}}}, {"type": "Feature", "geometry": {"type": "Polygon", "coordinates": [[[-99.9385047, 35.3261187], [-99.938482, 35.3261179], [-99.9384812, 35.3261316], [-99.938504, 35.3261325], [-99.9385047, 35.3261187]]]}, "properties": {"osm_id": 1161246235, "building": "yes", "name": "", "height": null, "height_m": null, "levels": null, "tract_id": "40009966500", "tract_name": "9665", "tags": {"building": "yes"}}}, {"type": "Feature", "geometry": {"type": "Polygon", "coordinates": [[[-99.9384429, 35.3262834], [-99.9384144, 35.3262826], [-99.9384167, 35.3262286], [-99.9384451, 35.3262294], [-99.9384429, 35.3262834]]]}, "properties": {"osm_id": 1161246236, "building": "yes", "name": "", "height": null, "height_m": null, "levels": null, "tract_id": "40009966500", "tract_name": "9665", "tags": {"building": "yes"}}}, {"type": "Feature", "geometry": {"type": "Polygon", "coordinates": [[[-99.9386998, 35.3264331], [-99.9387025, 35.326399], [-99.9386546, 35.3263971], [-99.9386553, 35.3264326], [-99.9386998, 35.3264331]]]}, "properties": {"osm_id": 1161246237, "building": "yes", "name": "", "height": null, "height_m": null, "levels": null, "tract_id": "40009966500", "tract_name": "9665", "tags": {"building": "yes"}}}, {"type": "Feature", "geometry": {"type": "Polygon", "coordinates": [[[-99.9387438, 35.3267639], [-99.9386777, 35.3267593], [-99.9386874, 35.3266681], [-99.9387534, 35.3266727], [-99.9387438, 35.3267639]]]}, "properties": {"osm_id": 1161246238, "building": "yes", "name": "", "height": null, "height_m": null, "levels": null, "tract_id": "40009966500", "tract_name": "9665", "tags": {"building": "yes"}}}, {"type": "Feature", "geometry": {"type": "Polygon", "coordinates": [[[-99.9386656, 35.3267599], [-99.9386754, 35.3266737], [-99.9385256, 35.3266623], [-99.9385158, 35.3267485], [-99.9386656, 35.3267599]]]}, "properties": {"osm_id": 1161246239, "building": "yes", "name": "", "height": null, "height_m": null, "levels": null, "tract_id": "40009966500", "tract_name": "9665", "tags": {"building": "yes"}}}, {"type": "Feature", "geometry": {"type": "Polygon", "coordinates": [[[-99.9389444, 35.3274154], [-99.9384819, 35.3273823], [-99.9384922, 35.3272872], [-99.9389546, 35.3273203], [-99.9389444, 35.3274154]]]}, "properties": {"osm_id": 1161246240, "building": "yes", "name": "", "height": null, "height_m": null, "levels": null, "tract_id": "40009966500", "tract_name": "9665", "tags": {"building": "yes"}}}, {"type": "Feature", "geometry": {"type": "Polygon", "coordinates": [[[-99.96801, 35.333171], [-99.9679876, 35.3331699], [-99.9679897, 35.3331404], [-99.9680121, 35.3331415], [-99.96801, 35.333171]]]}, "properties": {"osm_id": 1161246246, "building": "yes", "name": "", "height": null, "height_m": null, "levels": null, "tract_id": "40009966500", "tract_name": "9665", "tags": {"building": "yes"}}}, {"type": "Feature", "geometry": {"type": "Polygon", "coordinates": [[[-99.9709304, 35.3372097], [-99.9709201, 35.3371853], [-99.9708302, 35.3372106], [-99.9708405, 35.3372349], [-99.9709304, 35.3372097]]]}, "properties": {"osm_id": 1161246249, "building": "yes", "name": "", "height": null, "height_m": null, "levels": null, "tract_id": "40009966500", "tract_name": "9665", "tags": {"building": "yes"}}}, {"type": "Feature", "geometry": {"type": "Polygon", "coordinates": [[[-99.9803353, 35.3409557], [-99.9803123, 35.3409476], [-99.9803284, 35.3409172], [-99.9803514, 35.3409253], [-99.9803353, 35.3409557]]]}, "properties": {"osm_id": 1161246256, "building": "yes", "name": "", "height": null, "height_m": null, "levels": null, "tract_id": "40009966500", "tract_name": "9665", "tags": {"building": "yes"}}}, {"type": "Feature", "geometry": {"type": "Polygon", "coordinates": [[[-99.9671575, 35.3476688], [-99.9671492, 35.3476536], [-99.9671014, 35.3476709], [-99.9671097, 35.3476861], [-99.9671575, 35.3476688]]]}, "properties": {"osm_id": 1161246260, "building": "yes", "name": "", "height": null, "height_m": null, "levels": null, "tract_id": "40009966500", "tract_name": "9665", "tags": {"building": "yes"}}}, {"type": "Feature", "geometry": {"type": "Polygon", "coordinates": [[[-99.9739447, 35.3401886], [-99.9739192, 35.3401816], [-99.9739056, 35.3402141], [-99.9739311, 35.3402212], [-99.9739447, 35.3401886]]]}, "properties": {"osm_id": 1161246263, "building": "yes", "name": "", "height": null, "height_m": null, "levels": null, "tract_id": "40009966500", "tract_name": "9665", "tags": {"building": "yes"}}}, {"type": "Feature", "geometry": {"type": "Polygon", "coordinates": [[[-99.7728569, 35.3198638], [-99.7728557, 35.3198326], [-99.7728208, 35.3198335], [-99.772822, 35.3198647], [-99.7728569, 35.3198638]]]}, "properties": {"osm_id": 1161956007, "building": "yes", "name": "", "height": null, "height_m": null, "levels": null, "tract_id": "40009966500", "tract_name": "9665", "tags": {"building": "yes"}}}, {"type": "Feature", "geometry": {"type": "Polygon", "coordinates": [[[-99.7728195, 35.3198622], [-99.7728184, 35.3198366], [-99.7728041, 35.319837], [-99.7728052, 35.3198626], [-99.7728195, 35.3198622]]]}, "properties": {"osm_id": 1161956008, "building": "yes", "name": "", "height": null, "height_m": null, "levels": null, "tract_id": "40009966500", "tract_name": "9665", "tags": {"building": "yes"}}}, {"type": "Feature", "geometry": {"type": "Polygon", "coordinates": [[[-99.7732548, 35.3198264], [-99.7732528, 35.3197697], [-99.7732195, 35.3197705], [-99.7732214, 35.3198271], [-99.7732548, 35.3198264]]]}, "properties": {"osm_id": 1161956009, "building": "yes", "name": "", "height": null, "height_m": null, "levels": null, "tract_id": "40009966500", "tract_name": "9665", "tags": {"building": "yes"}}}, {"type": "Feature", "geometry": {"type": "Polygon", "coordinates": [[[-99.77346, 35.3197881], [-99.7734604, 35.3197758], [-99.7734357, 35.3197754], [-99.7734354, 35.3197877], [-99.77346, 35.3197881]]]}, "properties": {"osm_id": 1161956010, "building": "yes", "name": "", "height": null, "height_m": null, "levels": null, "tract_id": "40009966500", "tract_name": "9665", "tags": {"building": "yes"}}}, {"type": "Feature", "geometry": {"type": "Polygon", "coordinates": [[[-99.7736864, 35.3197896], [-99.7736724, 35.31979], [-99.7736722, 35.3197733], [-99.7736859, 35.3197737], [-99.7736864, 35.3197896]]]}, "properties": {"osm_id": 1161956011, "building": "yes", "name": "", "height": null, "height_m": null, "levels": null, "tract_id": "40009966500", "tract_name": "9665", "tags": {"building": "yes"}}}, {"type": "Feature", "geometry": {"type": "Polygon", "coordinates": [[[-99.7831716, 35.3242216], [-99.7831765, 35.3241967], [-99.7832332, 35.3242041], [-99.7832283, 35.324229], [-99.7831716, 35.3242216]]]}, "properties": {"osm_id": 1161956013, "building": "yes", "name": "", "height": null, "height_m": null, "levels": null, "tract_id": "40009966500", "tract_name": "9665", "tags": {"building": "yes"}}}, {"type": "Feature", "geometry": {"type": "Polygon", "coordinates": [[[-99.7833116, 35.3238753], [-99.7833485, 35.3238788], [-99.7833526, 35.3238507], [-99.7833157, 35.3238471], [-99.7833116, 35.3238753]]]}, "properties": {"osm_id": 1161956014, "building": "yes", "name": "", "height": null, "height_m": null, "levels": null, "tract_id": "40009966500", "tract_name": "9665", "tags": {"building": "yes"}}}, {"type": "Feature", "geometry": {"type": "Polygon", "coordinates": [[[-99.7833518, 35.3238471], [-99.7833533, 35.3238351], [-99.7833203, 35.3238324], [-99.7833188, 35.3238444], [-99.7833518, 35.3238471]]]}, "properties": {"osm_id": 1161956015, "building": "yes", "name": "", "height": null, "height_m": null, "levels": null, "tract_id": "40009966500", "tract_name": "9665", "tags": {"building": "yes"}}}, {"type": "Feature", "geometry": {"type": "Polygon", "coordinates": [[[-99.7923072, 35.3246997], [-99.7921809, 35.3246847], [-99.7922124, 35.3245073], [-99.7923387, 35.3245223], [-99.7923072, 35.3246997]]]}, "properties": {"osm_id": 1161956017, "building": "yes", "name": "", "height": null, "height_m": null, "levels": null, "tract_id": "40009966500", "tract_name": "9665", "tags": {"building": "yes"}}}, {"type": "Feature", "geometry": {"type": "Polygon", "coordinates": [[[-99.79226, 35.3244691], [-99.7922328, 35.3244667], [-99.7922295, 35.3244911], [-99.7922567, 35.3244936], [-99.79226, 35.3244691]]]}, "properties": {"osm_id": 1161956018, "building": "yes", "name": "", "height": null, "height_m": null, "levels": null, "tract_id": "40009966500", "tract_name": "9665", "tags": {"building": "yes"}}}, {"type": "Feature", "geometry": {"type": "Polygon", "coordinates": [[[-99.7923074, 35.3248345], [-99.7923187, 35.3247804], [-99.7922702, 35.3247737], [-99.7922589, 35.3248278], [-99.7923074, 35.3248345]]]}, "properties": {"osm_id": 1161956019, "building": "yes", "name": "", "height": null, "height_m": null, "levels": null, "tract_id": "40009966500", "tract_name": "9665", "tags": {"building": "yes"}}}, {"type": "Feature", "geometry": {"type": "Polygon", "coordinates": [[[-99.9887414, 35.2200761], [-99.988742, 35.2200503], [-99.9886797, 35.2200493], [-99.9886791, 35.2200751], [-99.9887414, 35.2200761]]]}, "properties": {"osm_id": 1210460707, "building": "historic", "name": "Old City Jail", "height": null, "height_m": null, "levels": null, "tract_id": "40009966500", "tract_name": "9665", "tags": {"building": "historic", "historic": "building", "name": "Old City Jail"}}}, {"type": "Feature", "geometry": {"type": "Polygon", "coordinates": [[[-99.9890094, 35.2200102], [-99.9889834, 35.2200081], [-99.9889887, 35.2199645], [-99.9890147, 35.2199667], [-99.9890094, 35.2200102]]]}, "properties": {"osm_id": 1210460753, "building": "yes", "name": "", "height": null, "height_m": null, "levels": null, "tract_id": "40009966500", "tract_name": "9665", "tags": {"building": "yes"}}}, {"type": "Feature", "geometry": {"type": "Polygon", "coordinates": [[[-99.8684487, 35.224271], [-99.8681101, 35.2244989], [-99.867956, 35.224352], [-99.8682923, 35.224125], [-99.8684487, 35.224271]]]}, "properties": {"osm_id": 1230264813, "building": "retail", "name": "Dollar General", "height": null, "height_m": null, "levels": null, "tract_id": "40009966500", "tract_name": "9665", "tags": {"addr:city": "Erick", "addr:country": "US", "addr:housenumber": "824", "addr:postcode": "73645", "addr:state": "OK", "addr:street": "North Sheb Wooley Avenue", "brand": "Dollar General", "brand:wikidata": "Q145168", "building": "retail", "name": "Dollar General", "post_office": "post_partner", "post_office:brand": "FedEx OnSite", "post_office:service_provider": "FedEx", "post_office:website": "https://local.fedex.com/en-us/ok/erick/okcla", "shop": "variety_store", "website": "https://www.dollargeneral.com/store-directory/ok/erick/19665"}}}, {"type": "Feature", "geometry": {"type": "Polygon", "coordinates": [[[-99.9116572, 35.4210323], [-99.9116583, 35.4211174], [-99.9117273, 35.4211168], [-99.9117268, 35.4210765], [-99.9117262, 35.4210317], [-99.9116572, 35.4210323]]]}, "properties": {"osm_id": 1300767492, "building": "yes", "name": "", "height": null, "height_m": null, "levels": null, "tract_id": "40009966500", "tract_name": "9665", "tags": {"building": "yes"}}}, {"type": "Feature", "geometry": {"type": "Polygon", "coordinates": [[[-99.9133589, 35.4218705], [-99.9133578, 35.4219265], [-99.913318, 35.4219259], [-99.9133175, 35.4219537], [-99.9135574, 35.421957], [-99.9135591, 35.4218732], [-99.9133589, 35.4218705]]]}, "properties": {"osm_id": 1300767497, "building": "yes", "name": "", "height": null, "height_m": null, "levels": null, "tract_id": "40009966500", "tract_name": "9665", "tags": {"building": "yes"}}}, {"type": "Feature", "geometry": {"type": "Polygon", "coordinates": [[[-99.9130993, 35.4219714], [-99.9130982, 35.4220484], [-99.9132267, 35.4220495], [-99.9132278, 35.4219726], [-99.9130993, 35.4219714]]]}, "properties": {"osm_id": 1300767500, "building": "yes", "name": "", "height": null, "height_m": null, "levels": null, "tract_id": "40009966500", "tract_name": "9665", "tags": {"building": "yes"}}}, {"type": "Feature", "geometry": {"type": "Polygon", "coordinates": [[[-99.9110514, 35.4201267], [-99.9110509, 35.4202591], [-99.9110755, 35.4202592], [-99.9110754, 35.4202954], [-99.9111974, 35.4202957], [-99.9111974, 35.4202844], [-99.9112453, 35.4202846], [-99.9112447, 35.4204292], [-99.9110869, 35.4204287], [-99.9110867, 35.4204712], [-99.9111195, 35.4204713], [-99.9111193, 35.4205099], [-99.9111418, 35.4205099], [-99.9111415, 35.4205867], [-99.9110855, 35.4205866], [-99.9110853, 35.4206383], [-99.9109294, 35.4206378], [-99.9109303, 35.4204214], [-99.9109075, 35.4204213], [-99.9109087, 35.4201263], [-99.9110514, 35.4201267]]]}, "properties": {"osm_id": 1300767502, "building": "yes", "name": "", "height": null, "height_m": null, "levels": null, "tract_id": "40009966500", "tract_name": "9665", "tags": {"building": "yes"}}}, {"type": "Feature", "geometry": {"type": "Polygon", "coordinates": [[[-99.9117262, 35.4210317], [-99.9117835, 35.4210313], [-99.9117837, 35.4210762], [-99.9117268, 35.4210765], [-99.9117262, 35.4210317]]]}, "properties": {"osm_id": 1300767510, "building": "yes", "name": "", "height": null, "height_m": null, "levels": null, "tract_id": "40009966500", "tract_name": "9665", "tags": {"building": "yes"}}}, {"type": "Feature", "geometry": {"type": "Polygon", "coordinates": [[[-99.9108477, 35.4206012], [-99.910849, 35.4206355], [-99.9108214, 35.4206362], [-99.9108201, 35.4206019], [-99.9108477, 35.4206012]]]}, "properties": {"osm_id": 1300767518, "building": "yes", "name": "", "height": null, "height_m": null, "levels": null, "tract_id": "40009966500", "tract_name": "9665", "tags": {"building": "yes"}}}, {"type": "Feature", "geometry": {"type": "Polygon", "coordinates": [[[-99.9118441, 35.4218998], [-99.9118493, 35.4219754], [-99.9120152, 35.4219679], [-99.91201, 35.4218923], [-99.9118441, 35.4218998]]]}, "properties": {"osm_id": 1300767521, "building": "yes", "name": "", "height": null, "height_m": null, "levels": null, "tract_id": "40009966500", "tract_name": "9665", "tags": {"building": "yes"}}}, {"type": "Feature", "geometry": {"type": "Polygon", "coordinates": [[[-99.9106019, 35.4219573], [-99.9105976, 35.4220823], [-99.9102521, 35.4220743], [-99.9102564, 35.4219493], [-99.9106019, 35.4219573]]]}, "properties": {"osm_id": 1300767525, "building": "yes", "name": "", "height": null, "height_m": null, "levels": null, "tract_id": "40009966500", "tract_name": "9665", "tags": {"building": "yes"}}}, {"type": "Feature", "geometry": {"type": "Polygon", "coordinates": [[[-99.9126714, 35.4215311], [-99.9126734, 35.4216152], [-99.9125561, 35.421617], [-99.9125541, 35.4215329], [-99.9126714, 35.4215311]]]}, "properties": {"osm_id": 1300767527, "building": "yes", "name": "", "height": null, "height_m": null, "levels": null, "tract_id": "40009966500", "tract_name": "9665", "tags": {"building": "yes"}}}, {"type": "Feature", "geometry": {"type": "Polygon", "coordinates": [[[-99.9117001, 35.4216066], [-99.9116987, 35.421729], [-99.9118078, 35.4217298], [-99.9118077, 35.4217391], [-99.9118578, 35.4217395], [-99.9118579, 35.4217292], [-99.9119698, 35.4217301], [-99.9119712, 35.4216086], [-99.9117001, 35.4216066]]]}, "properties": {"osm_id": 1300767535, "building": "yes", "name": "", "height": null, "height_m": null, "levels": null, "tract_id": "40009966500", "tract_name": "9665", "tags": {"building": "yes"}}}, {"type": "Feature", "geometry": {"type": "Polygon", "coordinates": [[[-99.9128582, 35.4221256], [-99.9128604, 35.4221703], [-99.9128744, 35.4221698], [-99.9128756, 35.4221944], [-99.9130217, 35.4221896], [-99.9130183, 35.4221204], [-99.9128582, 35.4221256]]]}, "properties": {"osm_id": 1300767539, "building": "yes", "name": "", "height": null, "height_m": null, "levels": null, "tract_id": "40009966500", "tract_name": "9665", "tags": {"building": "yes"}}}, {"type": "Feature", "geometry": {"type": "Polygon", "coordinates": [[[-99.9129087, 35.4217399], [-99.9129098, 35.4217686], [-99.9128954, 35.4217689], [-99.9128986, 35.4218552], [-99.9129889, 35.4218529], [-99.9129882, 35.4218367], [-99.9130146, 35.421836], [-99.9130141, 35.4218227], [-99.9130436, 35.4218219], [-99.9130418, 35.4217747], [-99.9130148, 35.4217754], [-99.9130144, 35.4217639], [-99.9129807, 35.4217647], [-99.9129797, 35.4217381], [-99.9129087, 35.4217399]]]}, "properties": {"osm_id": 1300767542, "building": "yes", "name": "", "height": null, "height_m": null, "levels": null, "tract_id": "40009966500", "tract_name": "9665", "tags": {"building": "yes"}}}, {"type": "Feature", "geometry": {"type": "Polygon", "coordinates": [[[-99.9125474, 35.4219993], [-99.9125443, 35.4221895], [-99.9124528, 35.4221885], [-99.9124559, 35.4219983], [-99.9125474, 35.4219993]]]}, "properties": {"osm_id": 1300767547, "building": "yes", "name": "", "height": null, "height_m": null, "levels": null, "tract_id": "40009966500", "tract_name": "9665", "tags": {"building": "yes"}}}, {"type": "Feature", "geometry": {"type": "Polygon", "coordinates": [[[-99.9111412, 35.4198119], [-99.9111315, 35.4200155], [-99.9109893, 35.420011], [-99.910999, 35.4198074], [-99.9111412, 35.4198119]]]}, "properties": {"osm_id": 1300767548, "building": "yes", "name": "", "height": null, "height_m": null, "levels": null, "tract_id": "40009966500", "tract_name": "9665", "tags": {"building": "yes"}}}, {"type": "Feature", "geometry": {"type": "Polygon", "coordinates": [[[-99.9109653, 35.4216545], [-99.9109577, 35.4216581], [-99.9109521, 35.4216635], [-99.9109491, 35.4216702], [-99.9109491, 35.4216773], [-99.9109503, 35.4216809], [-99.9109547, 35.421687], [-99.9109614, 35.4216915], [-99.9109696, 35.4216939], [-99.9109796, 35.4216936], [-99.9109876, 35.4216908], [-99.9109939, 35.4216859], [-99.9109978, 35.4216796], [-99.9109988, 35.4216725], [-99.9109969, 35.4216659], [-99.9109922, 35.4216599], [-99.9109853, 35.4216556], [-99.910977, 35.4216535], [-99.9109653, 35.4216545]]]}, "properties": {"osm_id": 1300767552, "building": "yes", "name": "", "height": null, "height_m": null, "levels": null, "tract_id": "40009966500", "tract_name": "9665", "tags": {"building": "yes", "man_made": "silo"}}}, {"type": "Feature", "geometry": {"type": "Polygon", "coordinates": [[[-99.9101037, 35.4214582], [-99.9101023, 35.4215221], [-99.9103592, 35.4215259], [-99.9103606, 35.421462], [-99.9101037, 35.4214582]]]}, "properties": {"osm_id": 1300767555, "building": "yes", "name": "", "height": null, "height_m": null, "levels": null, "tract_id": "40009966500", "tract_name": "9665", "tags": {"building": "yes"}}}, {"type": "Feature", "geometry": {"type": "Polygon", "coordinates": [[[-99.9128786, 35.4219248], [-99.9128772, 35.4219964], [-99.9130083, 35.4219981], [-99.9130097, 35.4219266], [-99.9128786, 35.4219248]]]}, "properties": {"osm_id": 1300767556, "building": "yes", "name": "", "height": null, "height_m": null, "levels": null, "tract_id": "40009966500", "tract_name": "9665", "tags": {"building": "yes"}}}, {"type": "Feature", "geometry": {"type": "Polygon", "coordinates": [[[-99.9109324, 35.4195389], [-99.910934, 35.4196343], [-99.9109842, 35.4196337], [-99.9109826, 35.4195384], [-99.9109324, 35.4195389]]]}, "properties": {"osm_id": 1300767560, "building": "yes", "name": "", "height": null, "height_m": null, "levels": null, "tract_id": "40009966500", "tract_name": "9665", "tags": {"building": "yes"}}}, {"type": "Feature", "geometry": {"type": "Polygon", "coordinates": [[[-99.9124051, 35.421896], [-99.9124059, 35.4219164], [-99.9125625, 35.4219122], [-99.9125617, 35.4218919], [-99.9124051, 35.421896]]]}, "properties": {"osm_id": 1300767577, "building": "yes", "name": "", "height": null, "height_m": null, "levels": null, "tract_id": "40009966500", "tract_name": "9665", "tags": {"building": "yes"}}}, {"type": "Feature", "geometry": {"type": "Polygon", "coordinates": [[[-99.9110285, 35.4216433], [-99.911021, 35.4216468], [-99.9110154, 35.4216522], [-99.9110124, 35.4216589], [-99.9110124, 35.421666], [-99.9110136, 35.4216696], [-99.911018, 35.4216757], [-99.9110247, 35.4216802], [-99.9110329, 35.4216826], [-99.9110429, 35.4216823], [-99.9110509, 35.4216795], [-99.9110572, 35.4216746], [-99.9110611, 35.4216683], [-99.9110621, 35.4216612], [-99.9110602, 35.4216546], [-99.9110555, 35.4216486], [-99.9110486, 35.4216443], [-99.9110403, 35.4216422], [-99.9110285, 35.4216433]]]}, "properties": {"osm_id": 1300767586, "building": "yes", "name": "", "height": null, "height_m": null, "levels": null, "tract_id": "40009966500", "tract_name": "9665", "tags": {"building": "yes", "man_made": "silo"}}}, {"type": "Feature", "geometry": {"type": "Polygon", "coordinates": [[[-99.8699616, 35.2238591], [-99.869743, 35.224007], [-99.869569, 35.2238354], [-99.8697876, 35.2236875], [-99.8699616, 35.2238591]]]}, "properties": {"osm_id": 1323919040, "building": "yes", "name": "", "height": null, "height_m": null, "levels": null, "tract_id": "40009966500", "tract_name": "9665", "tags": {"building": "yes"}}}, {"type": "Feature", "geometry": {"type": "Polygon", "coordinates": [[[-99.8664937, 35.2144961], [-99.8664932, 35.2148379], [-99.8660447, 35.2148359], [-99.866047, 35.2144955], [-99.8662156, 35.2144984], [-99.8664937, 35.2144961]]]}, "properties": {"osm_id": 1336667538, "building": "yes", "name": "", "height": null, "height_m": null, "levels": null, "tract_id": "40009966500", "tract_name": "9665", "tags": {"building": "yes"}}}, {"type": "Feature", "geometry": {"type": "Polygon", "coordinates": [[[-99.8667953, 35.2142067], [-99.8667979, 35.2144895], [-99.8671182, 35.2144875], [-99.8671176, 35.2144209], [-99.8672157, 35.2144203], [-99.8672151, 35.2143557], [-99.8670967, 35.2143565], [-99.8670962, 35.2142965], [-99.8671698, 35.2142961], [-99.867169, 35.2142044], [-99.8667953, 35.2142067]]]}, "properties": {"osm_id": 1336667539, "building": "yes", "name": "", "height": null, "height_m": null, "levels": null, "tract_id": "40009966500", "tract_name": "9665", "tags": {"building": "yes"}}}, {"type": "Feature", "geometry": {"type": "Polygon", "coordinates": [[[-99.8671865, 35.2132474], [-99.8671823, 35.2134146], [-99.8670494, 35.2134124], [-99.8670481, 35.2134655], [-99.8667929, 35.2134612], [-99.8667985, 35.2132409], [-99.8671865, 35.2132474]]]}, "properties": {"osm_id": 1336667540, "building": "yes", "name": "", "height": null, "height_m": null, "levels": null, "tract_id": "40009966500", "tract_name": "9665", "tags": {"building": "yes"}}}, {"type": "Feature", "geometry": {"type": "Polygon", "coordinates": [[[-99.8664665, 35.2140217], [-99.8664668, 35.2142761], [-99.8661192, 35.2142763], [-99.866119, 35.2140812], [-99.8660716, 35.2140813], [-99.8660715, 35.214022], [-99.8664665, 35.2140217]]]}, "properties": {"osm_id": 1336667541, "building": "yes", "name": "", "height": null, "height_m": null, "levels": null, "tract_id": "40009966500", "tract_name": "9665", "tags": {"building": "yes"}}}, {"type": "Feature", "geometry": {"type": "Polygon", "coordinates": [[[-99.8667989, 35.2151173], [-99.8667728, 35.2151353], [-99.8667729, 35.215391], [-99.8671074, 35.2153909], [-99.8671073, 35.2151833], [-99.8672743, 35.2151833], [-99.8672743, 35.2151171], [-99.8667989, 35.2151173]]]}, "properties": {"osm_id": 1336667542, "building": "yes", "name": "", "height": null, "height_m": null, "levels": null, "tract_id": "40009966500", "tract_name": "9665", "tags": {"building": "yes"}}}, {"type": "Feature", "geometry": {"type": "Polygon", "coordinates": [[[-99.8763799, 35.2153254], [-99.8763798, 35.2153917], [-99.8759651, 35.2153912], [-99.8759656, 35.2151092], [-99.8760522, 35.2151093], [-99.8760519, 35.215325], [-99.8763799, 35.2153254]]]}, "properties": {"osm_id": 1336667543, "building": "yes", "name": "", "height": null, "height_m": null, "levels": null, "tract_id": "40009966500", "tract_name": "9665", "tags": {"building": "yes"}}}, {"type": "Feature", "geometry": {"type": "Polygon", "coordinates": [[[-99.8774497, 35.2146334], [-99.8775581, 35.2146343], [-99.8775616, 35.2143429], [-99.8767258, 35.2143361], [-99.8767227, 35.2145864], [-99.8768293, 35.2145873], [-99.8768314, 35.2144179], [-99.8774523, 35.2144231], [-99.8774497, 35.2146334]]]}, "properties": {"osm_id": 1336667544, "building": "yes", "name": "", "height": null, "height_m": null, "levels": null, "tract_id": "40009966500", "tract_name": "9665", "tags": {"building": "yes"}}}, {"type": "Feature", "geometry": {"type": "Polygon", "coordinates": [[[-99.8664807, 35.2152456], [-99.8664817, 35.2156552], [-99.8661416, 35.2156557], [-99.8661409, 35.2153344], [-99.8660725, 35.2153345], [-99.8660723, 35.2152463], [-99.8664807, 35.2152456]]]}, "properties": {"osm_id": 1336667545, "building": "yes", "name": "", "height": null, "height_m": null, "levels": null, "tract_id": "40009966500", "tract_name": "9665", "tags": {"building": "yes"}}}, {"type": "Feature", "geometry": {"type": "Polygon", "coordinates": [[[-99.8656995, 35.2151037], [-99.8659398, 35.2151058], [-99.8659378, 35.2152586], [-99.8658526, 35.2152579], [-99.8658503, 35.2154371], [-99.8656953, 35.2154358], [-99.8656995, 35.2151037]]]}, "properties": {"osm_id": 1336667546, "building": "yes", "name": "", "height": null, "height_m": null, "levels": null, "tract_id": "40009966500", "tract_name": "9665", "tags": {"building": "yes"}}}, {"type": "Feature", "geometry": {"type": "Polygon", "coordinates": [[[-99.8734398, 35.2153624], [-99.8738661, 35.2153697], [-99.8738642, 35.215444], [-99.8734379, 35.2154368], [-99.8734398, 35.2153624]]]}, "properties": {"osm_id": 1363198421, "building": "yes", "name": "", "height": null, "height_m": null, "levels": null, "tract_id": "40009966500", "tract_name": "9665", "tags": {"building": "yes"}}}, {"type": "Feature", "geometry": {"type": "Polygon", "coordinates": [[[-99.8735953, 35.215292], [-99.8735988, 35.2151014], [-99.8734726, 35.2150999], [-99.8734692, 35.2152904], [-99.8735953, 35.215292]]]}, "properties": {"osm_id": 1363198422, "building": "yes", "name": "", "height": null, "height_m": null, "levels": null, "tract_id": "40009966500", "tract_name": "9665", "tags": {"building": "yes"}}}, {"type": "Feature", "geometry": {"type": "Polygon", "coordinates": [[[-99.9114112, 35.215802], [-99.9113068, 35.2158033], [-99.9113098, 35.2159662], [-99.9114265, 35.2159647], [-99.9114242, 35.2158404], [-99.9114119, 35.2158406], [-99.9114112, 35.215802]]]}, "properties": {"osm_id": 1365556758, "building": "house", "name": "", "height": null, "height_m": null, "levels": null, "tract_id": "40009966500", "tract_name": "9665", "tags": {"addr:city": "Erick", "addr:housenumber": "12422", "addr:postcode": "73645", "addr:state": "OK", "addr:street": "N1720 Road", "building": "house", "house": "detached"}}}, {"type": "Feature", "geometry": {"type": "Polygon", "coordinates": [[[-99.8687142, 35.2244251], [-99.868589, 35.2245093], [-99.8684878, 35.2244089], [-99.868613, 35.2243247], [-99.8687142, 35.2244251]]]}, "properties": {"osm_id": 1365556759, "building": "yes", "name": "Magoos Pizza and Punjabi Dhaba", "height": null, "height_m": null, "levels": null, "tract_id": "40009966500", "tract_name": "9665", "tags": {"addr:city": "Erick", "addr:housenumber": "902", "addr:postcode": "73645", "addr:state": "OK", "addr:street": "North Sheb Wooley Avenue", "amenity": "restaurant", "building": "yes", "cuisine": "pizza", "name": "Magoos Pizza and Punjabi Dhaba", "opening_hours": "Mo-Su 10:00-21:00", "phone": "+1 580 769 0750"}}}, {"type": "Feature", "geometry": {"type": "Polygon", "coordinates": [[[-99.8690774, 35.2246366], [-99.8690435, 35.2246032], [-99.8690576, 35.2245937], [-99.8689829, 35.2245203], [-99.8685576, 35.224809], [-99.8686045, 35.2248551], [-99.8685662, 35.2248811], [-99.868808, 35.2251187], [-99.8688854, 35.2250661], [-99.8686636, 35.2248481], [-99.8689809, 35.2246326], [-99.8690227, 35.2246737], [-99.8690774, 35.2246366]]]}, "properties": {"osm_id": 1365556760, "building": "hotel", "name": "Days Inn", "height": null, "height_m": null, "levels": null, "tract_id": "40009966500", "tract_name": "9665", "tags": {"addr:city": "Erick", "addr:housenumber": "1014", "addr:postcode": "73645", "addr:state": "OK", "addr:street": "North Sheb Wooley Avenue", "branch": "Erick", "brand": "Days Inn", "brand:wikidata": "Q1047239", "building": "hotel", "internet_access": "wlan", "internet_access:fee": "no", "name": "Days Inn", "official_name": "Days Inn by Wyndham", "phone": "+1 580 526 3315", "smoking": "no", "tourism": "hotel", "website": "https://www.wyndhamhotels.com/days-inn/erick-oklahoma/days-inn-erick/overview?CID=LC:iqv0j1dklijly45:04352&iata=00093796"}}}]}