{"type": "FeatureCollection", "features": [{"type": "Feature", "geometry": {"type": "Polygon", "coordinates": [[[-95.4426514, 36.1912327], [-95.4427511, 36.1912335], [-95.4427538, 36.1910008], [-95.442654, 36.191], [-95.4426514, 36.1912327]]]}, "properties": {"osm_id": 857926681, "building": "yes", "name": "", "height": null, "height_m": null, "levels": null, "tract_id": "40131050501", "tract_name": "505.01", "tags": {"building": "yes"}}}, {"type": "Feature", "geometry": {"type": "Polygon", "coordinates": [[[-95.4434708, 36.1920412], [-95.4435347, 36.192044], [-95.4435454, 36.1918838], [-95.4434815, 36.191881], [-95.4434708, 36.1920412]]]}, "properties": {"osm_id": 857926683, "building": "yes", "name": "", "height": null, "height_m": null, "levels": null, "tract_id": "40131050501", "tract_name": "505.01", "tags": {"building": "yes"}}}, {"type": "Feature", "geometry": {"type": "Polygon", "coordinates": [[[-95.4436682, 36.1917074], [-95.4437381, 36.1917072], [-95.4437376, 36.1915795], [-95.4436677, 36.1915796], [-95.4436682, 36.1917074]]]}, "properties": {"osm_id": 857926684, "building": "yes", "name": "", "height": null, "height_m": null, "levels": null, "tract_id": "40131050501", "tract_name": "505.01", "tags": {"building": "yes"}}}, {"type": "Feature", "geometry": {"type": "Polygon", "coordinates": [[[-95.4437582, 36.1918303], [-95.4438763, 36.19183], [-95.4438753, 36.1915811], [-95.4437573, 36.1915814], [-95.4437582, 36.1918303]]]}, "properties": {"osm_id": 857926685, "building": "yes", "name": "", "height": null, "height_m": null, "levels": null, "tract_id": "40131050501", "tract_name": "505.01", "tags": {"building": "yes"}}}, {"type": "Feature", "geometry": {"type": "Polygon", "coordinates": [[[-95.4428402, 36.191835], [-95.4428407, 36.1919819], [-95.4430202, 36.1919815], [-95.4430201, 36.1919559], [-95.4431221, 36.1919556], [-95.443122, 36.1919299], [-95.4432591, 36.1919296], [-95.4432587, 36.191834], [-95.4428402, 36.191835]]]}, "properties": {"osm_id": 857926686, "building": "yes", "name": "", "height": null, "height_m": null, "levels": null, "tract_id": "40131050501", "tract_name": "505.01", "tags": {"building": "yes"}}}, {"type": "Feature", "geometry": {"type": "Polygon", "coordinates": [[[-95.4430301, 36.1924734], [-95.4432612, 36.1924728], [-95.4432601, 36.1921957], [-95.443029, 36.1921963], [-95.4430301, 36.1924734]]]}, "properties": {"osm_id": 857926687, "building": "yes", "name": "", "height": null, "height_m": null, "levels": null, "tract_id": "40131050501", "tract_name": "505.01", "tags": {"building": "yes"}}}, {"type": "Feature", "geometry": {"type": "Polygon", "coordinates": [[[-95.4403609, 36.2031126], [-95.4403612, 36.2030834], [-95.4403363, 36.2030832], [-95.440337, 36.2030226], [-95.440362, 36.2030228], [-95.4403629, 36.2029545], [-95.4403813, 36.2029547], [-95.4403822, 36.20288], [-95.440485, 36.2028808], [-95.4404821, 36.2031136], [-95.4405324, 36.203114], [-95.4405313, 36.2032023], [-95.4403342, 36.2032007], [-95.4403353, 36.2031124], [-95.4403609, 36.2031126]]]}, "properties": {"osm_id": 857926692, "building": "house", "name": "", "height": null, "height_m": null, "levels": null, "tract_id": "40131050501", "tract_name": "505.01", "tags": {"building": "house"}}}, {"type": "Feature", "geometry": {"type": "Polygon", "coordinates": [[[-95.4428136, 36.2048961], [-95.4428112, 36.2050102], [-95.4426443, 36.2050079], [-95.4426447, 36.2049884], [-95.4425769, 36.2049874], [-95.4425789, 36.2048928], [-95.4428136, 36.2048961]]]}, "properties": {"osm_id": 857926693, "building": "house", "name": "", "height": null, "height_m": null, "levels": null, "tract_id": "40131050501", "tract_name": "505.01", "tags": {"building": "house"}}}, {"type": "Feature", "geometry": {"type": "Polygon", "coordinates": [[[-95.4421484, 36.2045606], [-95.4421412, 36.2044891], [-95.4422726, 36.2044805], [-95.4422799, 36.2045519], [-95.4421484, 36.2045606]]]}, "properties": {"osm_id": 857926694, "building": "yes", "name": "", "height": null, "height_m": null, "levels": null, "tract_id": "40131050501", "tract_name": "505.01", "tags": {"building": "yes"}}}, {"type": "Feature", "geometry": {"type": "Polygon", "coordinates": [[[-95.4431033, 36.2046461], [-95.4431073, 36.2045767], [-95.4432816, 36.2045832], [-95.4432777, 36.2046526], [-95.4431033, 36.2046461]]]}, "properties": {"osm_id": 857926695, "building": "yes", "name": "", "height": null, "height_m": null, "levels": null, "tract_id": "40131050501", "tract_name": "505.01", "tags": {"building": "yes"}}}, {"type": "Feature", "geometry": {"type": "Polygon", "coordinates": [[[-95.4427131, 36.2042803], [-95.4428609, 36.2042773], [-95.4428568, 36.2041475], [-95.442709, 36.2041505], [-95.4427131, 36.2042803]]]}, "properties": {"osm_id": 857926696, "building": "yes", "name": "", "height": null, "height_m": null, "levels": null, "tract_id": "40131050501", "tract_name": "505.01", "tags": {"building": "yes"}}}, {"type": "Feature", "geometry": {"type": "Polygon", "coordinates": [[[-95.4418172, 36.2043593], [-95.4418992, 36.2043576], [-95.4418965, 36.2042722], [-95.4417899, 36.2042743], [-95.4417913, 36.2043209], [-95.441816, 36.2043204], [-95.4418172, 36.2043593]]]}, "properties": {"osm_id": 857926697, "building": "yes", "name": "", "height": null, "height_m": null, "levels": null, "tract_id": "40131050501", "tract_name": "505.01", "tags": {"building": "yes"}}}, {"type": "Feature", "geometry": {"type": "Polygon", "coordinates": [[[-95.4423711, 36.2040141], [-95.4421462, 36.2040475], [-95.4420791, 36.2037531], [-95.442304, 36.2037198], [-95.4423711, 36.2040141]]]}, "properties": {"osm_id": 857926698, "building": "yes", "name": "", "height": null, "height_m": null, "levels": null, "tract_id": "40131050501", "tract_name": "505.01", "tags": {"building": "yes"}}}, {"type": "Feature", "geometry": {"type": "Polygon", "coordinates": [[[-95.4413196, 36.2046158], [-95.4415068, 36.2046017], [-95.441488, 36.2044394], [-95.4413009, 36.2044535], [-95.4413196, 36.2046158]]]}, "properties": {"osm_id": 857926699, "building": "yes", "name": "", "height": null, "height_m": null, "levels": null, "tract_id": "40131050501", "tract_name": "505.01", "tags": {"building": "yes"}}}, {"type": "Feature", "geometry": {"type": "Polygon", "coordinates": [[[-95.4402159, 36.2089822], [-95.4400791, 36.2089822], [-95.4400791, 36.2088566], [-95.4402159, 36.2088566], [-95.4402159, 36.2089822]]]}, "properties": {"osm_id": 857926704, "building": "yes", "name": "", "height": null, "height_m": null, "levels": null, "tract_id": "40131050501", "tract_name": "505.01", "tags": {"building": "yes"}}}, {"type": "Feature", "geometry": {"type": "Polygon", "coordinates": [[[-95.4402682, 36.2084747], [-95.4402697, 36.2084254], [-95.4403247, 36.2084265], [-95.4403232, 36.2084757], [-95.4402682, 36.2084747]]]}, "properties": {"osm_id": 857926705, "building": "yes", "name": "", "height": null, "height_m": null, "levels": null, "tract_id": "40131050501", "tract_name": "505.01", "tags": {"building": "yes"}}}, {"type": "Feature", "geometry": {"type": "Polygon", "coordinates": [[[-95.4404788, 36.2083708], [-95.4404969, 36.2082977], [-95.440584, 36.2083118], [-95.4405659, 36.2083848], [-95.4404788, 36.2083708]]]}, "properties": {"osm_id": 857926706, "building": "yes", "name": "", "height": null, "height_m": null, "levels": null, "tract_id": "40131050501", "tract_name": "505.01", "tags": {"building": "yes"}}}, {"type": "Feature", "geometry": {"type": "Polygon", "coordinates": [[[-95.4408757, 36.2084325], [-95.4408587, 36.2083912], [-95.4406374, 36.2084507], [-95.4406545, 36.208492], [-95.4408757, 36.2084325]]]}, "properties": {"osm_id": 857926707, "building": "yes", "name": "", "height": null, "height_m": null, "levels": null, "tract_id": "40131050501", "tract_name": "505.01", "tags": {"building": "yes"}}}, {"type": "Feature", "geometry": {"type": "Polygon", "coordinates": [[[-95.4421088, 36.2082555], [-95.4422127, 36.2082706], [-95.4421935, 36.2083564], [-95.4420896, 36.2083413], [-95.4421088, 36.2082555]]]}, "properties": {"osm_id": 857926708, "building": "garage", "name": "", "height": null, "height_m": null, "levels": null, "tract_id": "40131050501", "tract_name": "505.01", "tags": {"building": "garage"}}}, {"type": "Feature", "geometry": {"type": "Polygon", "coordinates": [[[-95.4420896, 36.2083413], [-95.4418532, 36.2083069], [-95.4418766, 36.2082022], [-95.4420801, 36.2082318], [-95.4420773, 36.2082444], [-95.4421102, 36.2082492], [-95.4420896, 36.2083413]]]}, "properties": {"osm_id": 857926709, "building": "house", "name": "", "height": null, "height_m": null, "levels": null, "tract_id": "40131050501", "tract_name": "505.01", "tags": {"building": "house"}}}, {"type": "Feature", "geometry": {"type": "Polygon", "coordinates": [[[-95.4425427, 36.2087971], [-95.4425396, 36.2086621], [-95.4422553, 36.2086664], [-95.4422584, 36.2088015], [-95.4425427, 36.2087971]]]}, "properties": {"osm_id": 857926710, "building": "yes", "name": "", "height": null, "height_m": null, "levels": null, "tract_id": "40131050501", "tract_name": "505.01", "tags": {"building": "yes"}}}, {"type": "Feature", "geometry": {"type": "Polygon", "coordinates": [[[-95.4428887, 36.2089811], [-95.4428833, 36.2089087], [-95.4427063, 36.2089174], [-95.4427117, 36.2089897], [-95.4428887, 36.2089811]]]}, "properties": {"osm_id": 857926711, "building": "yes", "name": "", "height": null, "height_m": null, "levels": null, "tract_id": "40131050501", "tract_name": "505.01", "tags": {"building": "yes"}}}, {"type": "Feature", "geometry": {"type": "Polygon", "coordinates": [[[-95.5288455, 36.1680088], [-95.5288428, 36.1677295], [-95.5291228, 36.1677277], [-95.5291255, 36.168007], [-95.5288455, 36.1680088]]]}, "properties": {"osm_id": 971804251, "building": "yes", "name": "", "height": null, "height_m": null, "levels": null, "tract_id": "40131050501", "tract_name": "505.01", "tags": {"building": "yes"}}}, {"type": "Feature", "geometry": {"type": "Polygon", "coordinates": [[[-95.5291298, 36.1680716], [-95.529128, 36.168221], [-95.5290561, 36.1682821], [-95.528847, 36.1682805], [-95.5288495, 36.1680694], [-95.5291298, 36.1680716]]]}, "properties": {"osm_id": 971804252, "building": "yes", "name": "Fiesta Mart", "height": null, "height_m": null, "levels": null, "tract_id": "40131050501", "tract_name": "505.01", "tags": {"building": "yes", "name": "Fiesta Mart", "shop": "convenience"}}}, {"type": "Feature", "geometry": {"type": "Polygon", "coordinates": [[[-95.5290936, 36.1684689], [-95.5292934, 36.1683076], [-95.5294322, 36.1684196], [-95.5292324, 36.168581], [-95.5290936, 36.1684689]]]}, "properties": {"osm_id": 971804253, "building": "roof", "name": "", "height": null, "height_m": null, "levels": null, "tract_id": "40131050501", "tract_name": "505.01", "tags": {"building": "roof", "layer": "1"}}}, {"type": "Feature", "geometry": {"type": "Polygon", "coordinates": [[[-95.4932434, 36.1946531], [-95.4932031, 36.1946529], [-95.4932037, 36.1945796], [-95.493244, 36.1945798], [-95.4932434, 36.1946531]]]}, "properties": {"osm_id": 1082565441, "building": "service", "name": "", "height": null, "height_m": null, "levels": null, "tract_id": "40131050501", "tract_name": "505.01", "tags": {"building": "service"}}}, {"type": "Feature", "geometry": {"type": "Polygon", "coordinates": [[[-95.5340016, 36.1733729], [-95.533929, 36.1735759], [-95.5340364, 36.1736011], [-95.534108, 36.173398], [-95.5340016, 36.1733729]]]}, "properties": {"osm_id": 1082617740, "building": "detached", "name": "", "height": null, "height_m": null, "levels": null, "tract_id": "40131050501", "tract_name": "505.01", "tags": {"addr:country": "US", "addr:housenumber": "30177", "addr:state": "OK", "addr:street": "South Colonial Circle", "building": "detached"}}}, {"type": "Feature", "geometry": {"type": "Polygon", "coordinates": [[[-95.5336313, 36.1734071], [-95.5335856, 36.173451], [-95.5336532, 36.1734969], [-95.5336989, 36.173453], [-95.5336313, 36.1734071]]]}, "properties": {"osm_id": 1082617741, "building": "yes", "name": "", "height": null, "height_m": null, "levels": null, "tract_id": "40131050501", "tract_name": "505.01", "tags": {"building": "yes", "source": "microsoft/BuildingFootprints"}}}, {"type": "Feature", "geometry": {"type": "Polygon", "coordinates": [[[-95.5336355, 36.1737369], [-95.5335572, 36.1737965], [-95.5335901, 36.1738246], [-95.5335381, 36.1738643], [-95.5335546, 36.1738784], [-95.5334854, 36.173931], [-95.5335658, 36.1739998], [-95.5335958, 36.173977], [-95.5336074, 36.1739869], [-95.53371, 36.1739087], [-95.5337028, 36.1739025], [-95.5337696, 36.1738518], [-95.5336355, 36.1737369]]]}, "properties": {"osm_id": 1082617742, "building": "detached", "name": "", "height": null, "height_m": null, "levels": null, "tract_id": "40131050501", "tract_name": "505.01", "tags": {"addr:country": "US", "addr:housenumber": "30159", "addr:state": "OK", "addr:street": "South Colonial Circle", "building": "detached"}}}, {"type": "Feature", "geometry": {"type": "Polygon", "coordinates": [[[-95.533068, 36.174898], [-95.533188, 36.174899], [-95.53319, 36.174728], [-95.533071, 36.174727], [-95.533068, 36.174898]]]}, "properties": {"osm_id": 1082617743, "building": "yes", "name": "", "height": null, "height_m": null, "levels": null, "tract_id": "40131050501", "tract_name": "505.01", "tags": {"building": "yes", "source": "microsoft/BuildingFootprints"}}}, {"type": "Feature", "geometry": {"type": "Polygon", "coordinates": [[[-95.5333137, 36.1743868], [-95.533363, 36.1744518], [-95.5333382, 36.1744641], [-95.5333929, 36.1745362], [-95.533426, 36.1745199], [-95.5335082, 36.1746283], [-95.5336117, 36.1745771], [-95.5335486, 36.1744939], [-95.5335655, 36.1744855], [-95.5334424, 36.1743232], [-95.5333137, 36.1743868]]]}, "properties": {"osm_id": 1082617744, "building": "detached", "name": "", "height": null, "height_m": null, "levels": null, "tract_id": "40131050501", "tract_name": "505.01", "tags": {"addr:country": "US", "addr:housenumber": "30150", "addr:state": "OK", "addr:street": "South Colonial Circle", "building": "detached"}}}, {"type": "Feature", "geometry": {"type": "Polygon", "coordinates": [[[-95.5029501, 36.1629144], [-95.5028018, 36.1629114], [-95.502807, 36.1627454], [-95.5029554, 36.1627485], [-95.5029501, 36.1629144]]]}, "properties": {"osm_id": 1116016531, "building": "yes", "name": "", "height": null, "height_m": null, "levels": null, "tract_id": "40131050501", "tract_name": "505.01", "tags": {"building": "yes"}}}, {"type": "Feature", "geometry": {"type": "Polygon", "coordinates": [[[-95.5026055, 36.162702], [-95.5025771, 36.1627058], [-95.5025521, 36.1627173], [-95.5025334, 36.1627349], [-95.5025233, 36.1627566], [-95.5025231, 36.1627799], [-95.5025326, 36.1628018], [-95.5025509, 36.1628197], [-95.5025757, 36.1628315], [-95.502604, 36.1628357], [-95.5026323, 36.1628319], [-95.5026574, 36.1628205], [-95.502676, 36.1628028], [-95.5026861, 36.1627811], [-95.5026864, 36.1627579], [-95.5026768, 36.162736], [-95.5026585, 36.1627181], [-95.5026338, 36.1627063], [-95.5026055, 36.162702]]]}, "properties": {"osm_id": 1116016532, "building": "storage_tank", "name": "", "height": null, "height_m": null, "levels": null, "tract_id": "40131050501", "tract_name": "505.01", "tags": {"building": "storage_tank", "man_made": "storage_tank"}}}, {"type": "Feature", "geometry": {"type": "Polygon", "coordinates": [[[-95.6070811, 36.1630806], [-95.6070364, 36.1630759], [-95.607046, 36.1630165], [-95.6070908, 36.1630212], [-95.607102, 36.1629532], [-95.6072129, 36.162965], [-95.6072019, 36.1630328], [-95.6072579, 36.1630387], [-95.6072483, 36.1630981], [-95.6071921, 36.1630922], [-95.6071814, 36.1631578], [-95.6070704, 36.1631459], [-95.6070811, 36.1630806]]]}, "properties": {"osm_id": 1150160743, "building": "yes", "name": "", "height": null, "height_m": null, "levels": null, "tract_id": "40131050501", "tract_name": "505.01", "tags": {"building": "yes"}}}, {"type": "Feature", "geometry": {"type": "Polygon", "coordinates": [[[-95.4933894, 36.1405109], [-95.4931828, 36.1405109], [-95.4931828, 36.1403398], [-95.4933894, 36.1403398], [-95.4933894, 36.1405109]]]}, "properties": {"osm_id": 1180024616, "building": "yes", "name": "", "height": null, "height_m": null, "levels": null, "tract_id": "40131050501", "tract_name": "505.01", "tags": {"building": "yes"}}}, {"type": "Feature", "geometry": {"type": "Polygon", "coordinates": [[[-95.4919316, 36.1405141], [-95.4918592, 36.1405125], [-95.4918646, 36.1403566], [-95.491937, 36.1403582], [-95.4919316, 36.1405141]]]}, "properties": {"osm_id": 1180024620, "building": "yes", "name": "", "height": null, "height_m": null, "levels": null, "tract_id": "40131050501", "tract_name": "505.01", "tags": {"building": "yes"}}}, {"type": "Feature", "geometry": {"type": "Polygon", "coordinates": [[[-95.4916593, 36.1405044], [-95.491599, 36.1405044], [-95.491599, 36.1402932], [-95.4916593, 36.1402932], [-95.4916593, 36.1405044]]]}, "properties": {"osm_id": 1180024621, "building": "yes", "name": "", "height": null, "height_m": null, "levels": null, "tract_id": "40131050501", "tract_name": "505.01", "tags": {"building": "yes"}}}, {"type": "Feature", "geometry": {"type": "Polygon", "coordinates": [[[-95.4913796, 36.1405001], [-95.4913182, 36.140501], [-95.4913144, 36.1403331], [-95.4913759, 36.1403322], [-95.4913796, 36.1405001]]]}, "properties": {"osm_id": 1180024622, "building": "yes", "name": "", "height": null, "height_m": null, "levels": null, "tract_id": "40131050501", "tract_name": "505.01", "tags": {"building": "yes"}}}, {"type": "Feature", "geometry": {"type": "Polygon", "coordinates": [[[-95.491139, 36.1405152], [-95.4910787, 36.1405148], [-95.4910801, 36.1403784], [-95.4911403, 36.1403788], [-95.491139, 36.1405152]]]}, "properties": {"osm_id": 1180024625, "building": "yes", "name": "", "height": null, "height_m": null, "levels": null, "tract_id": "40131050501", "tract_name": "505.01", "tags": {"building": "yes"}}}, {"type": "Feature", "geometry": {"type": "Polygon", "coordinates": [[[-95.490907, 36.1405228], [-95.490852, 36.1405226], [-95.4908533, 36.1402908], [-95.4909083, 36.140291], [-95.490907, 36.1405228]]]}, "properties": {"osm_id": 1180024626, "building": "yes", "name": "", "height": null, "height_m": null, "levels": null, "tract_id": "40131050501", "tract_name": "505.01", "tags": {"building": "yes"}}}, {"type": "Feature", "geometry": {"type": "Polygon", "coordinates": [[[-95.4906562, 36.1403982], [-95.4906522, 36.1404708], [-95.490502, 36.1404654], [-95.490506, 36.1403928], [-95.4906562, 36.1403982]]]}, "properties": {"osm_id": 1180024627, "building": "yes", "name": "", "height": null, "height_m": null, "levels": null, "tract_id": "40131050501", "tract_name": "505.01", "tags": {"building": "yes"}}}, {"type": "Feature", "geometry": {"type": "Polygon", "coordinates": [[[-95.492346, 36.1405315], [-95.4922897, 36.1405315], [-95.4922897, 36.1403441], [-95.492346, 36.1403441], [-95.492346, 36.1405315]]]}, "properties": {"osm_id": 1180024630, "building": "yes", "name": "", "height": null, "height_m": null, "levels": null, "tract_id": "40131050501", "tract_name": "505.01", "tags": {"building": "yes"}}}, {"type": "Feature", "geometry": {"type": "Polygon", "coordinates": [[[-95.4921368, 36.1405185], [-95.4920765, 36.140518], [-95.4920791, 36.1403024], [-95.4921395, 36.1403029], [-95.4921368, 36.1405185]]]}, "properties": {"osm_id": 1180024631, "building": "yes", "name": "", "height": null, "height_m": null, "levels": null, "tract_id": "40131050501", "tract_name": "505.01", "tags": {"building": "yes"}}}, {"type": "Feature", "geometry": {"type": "Polygon", "coordinates": [[[-95.492865, 36.1405174], [-95.4928031, 36.1405191], [-95.4927938, 36.1403014], [-95.4928556, 36.1402997], [-95.492865, 36.1405174]]]}, "properties": {"osm_id": 1180024633, "building": "yes", "name": "", "height": null, "height_m": null, "levels": null, "tract_id": "40131050501", "tract_name": "505.01", "tags": {"building": "yes"}}}, {"type": "Feature", "geometry": {"type": "Polygon", "coordinates": [[[-95.4925284, 36.1405271], [-95.4924705, 36.1405279], [-95.4924665, 36.1403384], [-95.4925244, 36.1403376], [-95.4925284, 36.1405271]]]}, "properties": {"osm_id": 1180024634, "building": "yes", "name": "", "height": null, "height_m": null, "levels": null, "tract_id": "40131050501", "tract_name": "505.01", "tags": {"building": "yes"}}}, {"type": "Feature", "geometry": {"type": "Polygon", "coordinates": [[[-95.4927926, 36.1465811], [-95.4925539, 36.1465594], [-95.4925766, 36.1463963], [-95.4928153, 36.146418], [-95.4927926, 36.1465811]]]}, "properties": {"osm_id": 1180024657, "building": "yes", "name": "", "height": null, "height_m": null, "levels": null, "tract_id": "40131050501", "tract_name": "505.01", "tags": {"building": "yes"}}}, {"type": "Feature", "geometry": {"type": "Polygon", "coordinates": [[[-95.4881685, 36.1470103], [-95.4881736, 36.1469939], [-95.4881679, 36.1469777], [-95.4881528, 36.1469659], [-95.4881326, 36.1469618], [-95.4881125, 36.1469664], [-95.4880979, 36.1469785], [-95.4880928, 36.1469949], [-95.4880986, 36.1470111], [-95.4881136, 36.1470229], [-95.4881338, 36.147027], [-95.4881539, 36.1470224], [-95.4881685, 36.1470103]]]}, "properties": {"osm_id": 1180024659, "building": "storage_tank", "name": "", "height": null, "height_m": null, "levels": null, "tract_id": "40131050501", "tract_name": "505.01", "tags": {"building": "storage_tank", "content": "water", "man_made": "storage_tank"}}}, {"type": "Feature", "geometry": {"type": "Polygon", "coordinates": [[[-95.5641608, 36.1752969], [-95.5641611, 36.175331], [-95.5640726, 36.1753315], [-95.5640723, 36.1752974], [-95.5641608, 36.1752969]]]}, "properties": {"osm_id": 1183663460, "building": "service", "name": "", "height": null, "height_m": null, "levels": null, "tract_id": "40131050501", "tract_name": "505.01", "tags": {"building": "service"}}}, {"type": "Feature", "geometry": {"type": "Polygon", "coordinates": [[[-95.5641856, 36.1752368], [-95.5641856, 36.1751935], [-95.5642205, 36.1751935], [-95.5642205, 36.1752368], [-95.5641856, 36.1752368]]]}, "properties": {"osm_id": 1183663461, "building": "service", "name": "", "height": null, "height_m": null, "levels": null, "tract_id": "40131050501", "tract_name": "505.01", "tags": {"building": "service"}}}, {"type": "Feature", "geometry": {"type": "Polygon", "coordinates": [[[-95.5641058, 36.1751919], [-95.5641702, 36.1751914], [-95.5641706, 36.1752217], [-95.5641062, 36.1752222], [-95.5641058, 36.1751919]]]}, "properties": {"osm_id": 1183663463, "building": "service", "name": "", "height": null, "height_m": null, "levels": null, "tract_id": "40131050501", "tract_name": "505.01", "tags": {"building": "service"}}}, {"type": "Feature", "geometry": {"type": "Polygon", "coordinates": [[[-95.564077, 36.1752374], [-95.5641588, 36.1752363], [-95.5641595, 36.175272], [-95.5640777, 36.1752731], [-95.564077, 36.1752374]]]}, "properties": {"osm_id": 1183663464, "building": "service", "name": "", "height": null, "height_m": null, "levels": null, "tract_id": "40131050501", "tract_name": "505.01", "tags": {"building": "service"}}}, {"type": "Feature", "geometry": {"type": "Polygon", "coordinates": [[[-95.5196227, 36.1702715], [-95.5195587, 36.1701384], [-95.5195383, 36.1701448], [-95.5195012, 36.1700678], [-95.5195216, 36.1700614], [-95.5194967, 36.1700095], [-95.5195593, 36.1699899], [-95.5195818, 36.1700366], [-95.5196013, 36.1700305], [-95.5196315, 36.1700932], [-95.5196559, 36.1700856], [-95.5197293, 36.1702381], [-95.5196227, 36.1702715]]]}, "properties": {"osm_id": 1299560775, "building": "detached", "name": "", "height": null, "height_m": null, "levels": null, "tract_id": "40131050501", "tract_name": "505.01", "tags": {"building": "detached"}}}, {"type": "Feature", "geometry": {"type": "Polygon", "coordinates": [[[-95.5310583, 36.1685165], [-95.5310543, 36.1682448], [-95.5312217, 36.1682432], [-95.5312257, 36.1685149], [-95.5310583, 36.1685165]]]}, "properties": {"osm_id": 1299560779, "building": "yes", "name": "", "height": null, "height_m": null, "levels": null, "tract_id": "40131050501", "tract_name": "505.01", "tags": {"building": "yes"}}}, {"type": "Feature", "geometry": {"type": "Polygon", "coordinates": [[[-95.5309309, 36.1683249], [-95.5309333, 36.1684476], [-95.5307247, 36.1684502], [-95.5307272, 36.1685751], [-95.5305449, 36.1685774], [-95.5305423, 36.1684474], [-95.5303364, 36.16845], [-95.5303341, 36.1683325], [-95.5305339, 36.16833], [-95.5305336, 36.1683124], [-95.5307254, 36.16831], [-95.5307257, 36.1683275], [-95.5309309, 36.1683249]]]}, "properties": {"osm_id": 1299560780, "building": "church", "name": "Inola Christian Church", "height": null, "height_m": null, "levels": null, "tract_id": "40131050501", "tract_name": "505.01", "tags": {"amenity": "place_of_worship", "building": "church", "name": "Inola Christian Church", "religion": "christian"}}}]}