{"type": "FeatureCollection", "features": [{"type": "Feature", "geometry": {"type": "Polygon", "coordinates": [[[-95.999262, 36.1614734], [-95.9991991, 36.1614724], [-95.9991981, 36.1615137], [-95.999147, 36.1615129], [-95.999148, 36.1614716], [-95.9989751, 36.1614689], [-95.9989738, 36.1615224], [-95.9989001, 36.1615213], [-95.9989013, 36.1614677], [-95.9987969, 36.1614661], [-95.9987995, 36.1613577], [-95.9992646, 36.161365], [-95.999262, 36.1614734]]]}, "properties": {"osm_id": 220814815, "building": "yes", "name": "", "height": null, "height_m": null, "levels": null, "tract_id": "40143000900", "tract_name": "9", "tags": {"building": "yes", "shop": "yes"}}}, {"type": "Feature", "geometry": {"type": "Polygon", "coordinates": [[[-95.9936184, 36.169622], [-95.9937767, 36.1696207], [-95.9937762, 36.1695821], [-95.9939365, 36.1695807], [-95.993934, 36.1693848], [-95.9938432, 36.1693856], [-95.9938419, 36.1692805], [-95.9936141, 36.1692824], [-95.9936184, 36.169622]]]}, "properties": {"osm_id": 341647038, "building": "church", "name": "Shiloh Baptist Church", "height": null, "height_m": null, "levels": null, "tract_id": "40143000900", "tract_name": "9", "tags": {"amenity": "place_of_worship", "building": "church", "denomination": "baptist", "ele": "224", "gnis:feature_id": "1789916", "name": "Shiloh Baptist Church", "religion": "christian"}}}, {"type": "Feature", "geometry": {"type": "Polygon", "coordinates": [[[-95.9961054, 36.1631735], [-95.995875, 36.1627366], [-95.9955725, 36.1628406], [-95.9956762, 36.1630373], [-95.9956497, 36.1630464], [-95.9956725, 36.1630897], [-95.9955808, 36.1631212], [-95.9956356, 36.1632253], [-95.9957087, 36.1632003], [-95.9956649, 36.1631172], [-95.9956836, 36.1631108], [-95.9957634, 36.1632621], [-95.9957899, 36.163253], [-95.9958028, 36.1632776], [-95.9961054, 36.1631735]]]}, "properties": {"osm_id": 495944562, "building": "yes", "name": "", "height": null, "height_m": null, "levels": null, "tract_id": "40143000900", "tract_name": "9", "tags": {"building": "yes"}}}, {"type": "Feature", "geometry": {"type": "Polygon", "coordinates": [[[-95.99588, 36.1638539], [-95.9955685, 36.1639623], [-95.9954683, 36.1637746], [-95.9953581, 36.1638129], [-95.995237, 36.163586], [-95.9952282, 36.163589], [-95.9950732, 36.1632986], [-95.9955035, 36.1631488], [-95.99588, 36.1638539]]]}, "properties": {"osm_id": 495944564, "building": "yes", "name": "", "height": null, "height_m": null, "levels": null, "tract_id": "40143000900", "tract_name": "9", "tags": {"addr:city": "Tulsa", "addr:country": "US", "addr:housenumber": "601", "addr:postcode": "74106", "addr:state": "OK", "addr:street": "North Main Street East", "building": "yes"}}}, {"type": "Feature", "geometry": {"type": "Polygon", "coordinates": [[[-95.9999418, 36.1615953], [-95.9996846, 36.1615946], [-95.9996849, 36.1615173], [-95.9996895, 36.1615111], [-95.9999421, 36.1615117], [-95.9999418, 36.1615953]]]}, "properties": {"osm_id": 495944565, "building": "yes", "name": "Nick's Woodworks by Ernie", "height": null, "height_m": null, "levels": null, "tract_id": "40143000900", "tract_name": "9", "tags": {"building": "yes", "name": "Nick's Woodworks by Ernie", "opening_hours": "Mo-Fr 10:00-18:00", "phone": "+1 918 810 1276", "website": "https://nicks-woodworks-by-ernie.business.site/"}}}, {"type": "Feature", "geometry": {"type": "Polygon", "coordinates": [[[-96.0000013, 36.1618113], [-95.9996066, 36.1618094], [-95.9996077, 36.1616552], [-95.9996209, 36.1616553], [-95.9996213, 36.1615997], [-95.9997332, 36.1616002], [-95.9997328, 36.1616546], [-95.9999571, 36.1616557], [-95.9999568, 36.1617007], [-96.0000021, 36.1617009], [-96.0000013, 36.1618113]]]}, "properties": {"osm_id": 495944566, "building": "yes", "name": "", "height": null, "height_m": null, "levels": null, "tract_id": "40143000900", "tract_name": "9", "tags": {"building": "yes"}}}, {"type": "Feature", "geometry": {"type": "Polygon", "coordinates": [[[-95.9985562, 36.1621249], [-95.9981887, 36.1621221], [-95.9981946, 36.16163], [-95.9983239, 36.161631], [-95.9983233, 36.1616808], [-95.9986117, 36.161683], [-95.9986111, 36.1617327], [-95.998638, 36.1617329], [-95.9986339, 36.1620781], [-95.9985568, 36.1620775], [-95.9985562, 36.1621249]]]}, "properties": {"osm_id": 495944567, "building": "yes", "name": "Tulsa County Elections Board", "height": null, "height_m": null, "levels": null, "tract_id": "40143000900", "tract_name": "9", "tags": {"addr:city": "Tulsa", "addr:country": "US", "addr:housenumber": "555", "addr:postcode": "74103", "addr:state": "OK", "addr:street": "North Denver Avenue West", "building": "yes", "email": "electionboard@tulsacounty.org", "government": "administrative", "name": "Tulsa County Elections Board", "office": "government", "opening_hours": "Mo-Fr 08:00-17:00", "phone": "+1-918-596-5780"}}}, {"type": "Feature", "geometry": {"type": "Polygon", "coordinates": [[[-95.9978261, 36.1618226], [-95.9976628, 36.1618223], [-95.9976631, 36.1617053], [-95.9978264, 36.1617057], [-95.9978261, 36.1618226]]]}, "properties": {"osm_id": 495944568, "building": "yes", "name": "", "height": null, "height_m": null, "levels": null, "tract_id": "40143000900", "tract_name": "9", "tags": {"building": "yes"}}}, {"type": "Feature", "geometry": {"type": "Polygon", "coordinates": [[[-95.9989089, 36.1626602], [-95.9989152, 36.1623505], [-95.9987842, 36.1623488], [-95.998778, 36.1626584], [-95.9989089, 36.1626602]]]}, "properties": {"osm_id": 495944569, "building": "apartments", "name": "Gotham Apartments", "height": null, "height_m": null, "levels": null, "tract_id": "40143000900", "tract_name": "9", "tags": {"building": "apartments", "name": "Gotham Apartments"}}}, {"type": "Feature", "geometry": {"type": "Polygon", "coordinates": [[[-96.0000614, 36.1622576], [-95.9999081, 36.1622562], [-95.9999087, 36.1622129], [-95.9997094, 36.1622111], [-95.9997092, 36.1622249], [-95.9996605, 36.1622245], [-95.9996611, 36.1621776], [-95.9996744, 36.1621777], [-95.9996754, 36.1621014], [-95.999666, 36.1621013], [-95.9996664, 36.1620661], [-95.9997066, 36.1620664], [-95.9997063, 36.1620855], [-95.999918, 36.1620874], [-95.9999182, 36.1620755], [-96.0000638, 36.1620768], [-96.0000614, 36.1622576]]]}, "properties": {"osm_id": 495944570, "building": "church", "name": "Fellowship Church-God Pentecostal", "height": null, "height_m": null, "levels": null, "tract_id": "40143000900", "tract_name": "9", "tags": {"amenity": "place_of_worship", "building": "church", "denomination": "pentecostal", "ele": "229", "gnis:feature_id": "1789683", "name": "Fellowship Church-God Pentecostal", "religion": "christian"}}}, {"type": "Feature", "geometry": {"type": "Polygon", "coordinates": [[[-95.9999173, 36.1626704], [-95.9999156, 36.1628168], [-95.9996337, 36.1628147], [-95.9996354, 36.1626683], [-95.9999173, 36.1626704]]]}, "properties": {"osm_id": 495944572, "building": "church", "name": "Centenary United Methodist Church", "height": null, "height_m": null, "levels": null, "tract_id": "40143000900", "tract_name": "9", "tags": {"addr:city": "Tulsa", "addr:housenumber": "631", "addr:postcode": "74106", "addr:street": "North Denver Avenue West", "amenity": "place_of_worship", "building": "church", "denomination": "united_methodist", "ele": "233", "gnis:feature_id": "1810286", "name": "Centenary United Methodist Church", "phone": "+1 918 583 6988", "religion": "christian"}}}, {"type": "Feature", "geometry": {"type": "Polygon", "coordinates": [[[-95.9998991, 36.1630727], [-95.9999016, 36.1629024], [-95.9996247, 36.1628997], [-95.9996222, 36.1630701], [-95.9998991, 36.1630727]]]}, "properties": {"osm_id": 495944574, "building": "yes", "name": "United Pentecostal Church", "height": null, "height_m": null, "levels": null, "tract_id": "40143000900", "tract_name": "9", "tags": {"amenity": "place_of_worship", "building": "yes", "denomination": "pentecostal", "ele": "234", "gnis:feature_id": "1789999", "name": "United Pentecostal Church", "religion": "christian"}}}, {"type": "Feature", "geometry": {"type": "Polygon", "coordinates": [[[-95.9992659, 36.163467], [-95.9992665, 36.1634228], [-95.9992573, 36.1634227], [-95.9992576, 36.163403], [-95.9992809, 36.1634032], [-95.9992822, 36.1633056], [-95.9992601, 36.1633054], [-95.9992604, 36.1632859], [-95.999269, 36.163286], [-95.9992695, 36.1632443], [-95.9992183, 36.1632438], [-95.9992181, 36.1632518], [-95.9990342, 36.1632502], [-95.9990344, 36.1632351], [-95.9987725, 36.1632328], [-95.9987693, 36.1634672], [-95.9989552, 36.1634689], [-95.9989551, 36.1634758], [-95.9990397, 36.1634765], [-95.99904, 36.1634556], [-95.9992132, 36.1634571], [-95.9992131, 36.1634665], [-95.9992659, 36.163467]]]}, "properties": {"osm_id": 495944576, "building": "church", "name": "", "height": null, "height_m": null, "levels": null, "tract_id": "40143000900", "tract_name": "9", "tags": {"amenity": "place_of_worship", "building": "church", "religion": "christian"}}}, {"type": "Feature", "geometry": {"type": "Polygon", "coordinates": [[[-96.0000462, 36.1634064], [-96.0000469, 36.1632804], [-95.9999522, 36.16328], [-95.9999526, 36.1632276], [-95.999912, 36.1632274], [-95.9999122, 36.1631995], [-95.9998391, 36.1631991], [-95.9998389, 36.1632281], [-95.9998074, 36.163228], [-95.9998073, 36.1632518], [-95.9997587, 36.1632516], [-95.999758, 36.163376], [-95.9998065, 36.1633762], [-95.9998064, 36.1634008], [-95.9998594, 36.1634011], [-95.9998592, 36.1634321], [-95.9999433, 36.1634324], [-95.9999435, 36.1634061], [-96.0000462, 36.1634064]]]}, "properties": {"osm_id": 495944578, "building": "yes", "name": "", "height": null, "height_m": null, "levels": null, "tract_id": "40143000900", "tract_name": "9", "tags": {"building": "yes"}}}, {"type": "Feature", "geometry": {"type": "Polygon", "coordinates": [[[-95.9977472, 36.1623607], [-95.9977433, 36.1625722], [-95.9976108, 36.1625707], [-95.9976135, 36.1624218], [-95.9975998, 36.1624216], [-95.997601, 36.162359], [-95.9977472, 36.1623607]]]}, "properties": {"osm_id": 495944580, "building": "yes", "name": "", "height": null, "height_m": null, "levels": null, "tract_id": "40143000900", "tract_name": "9", "tags": {"building": "yes"}}}, {"type": "Feature", "geometry": {"type": "Polygon", "coordinates": [[[-95.9984561, 36.1624406], [-95.9984172, 36.1624403], [-95.998417, 36.1624587], [-95.9982632, 36.1624575], [-95.9982644, 36.1623573], [-95.9983923, 36.1623583], [-95.998392, 36.1623816], [-95.9984568, 36.1623821], [-95.9984561, 36.1624406]]]}, "properties": {"osm_id": 495944581, "building": "yes", "name": "", "height": null, "height_m": null, "levels": null, "tract_id": "40143000900", "tract_name": "9", "tags": {"building": "yes"}}}, {"type": "Feature", "geometry": {"type": "Polygon", "coordinates": [[[-95.9984057, 36.1625079], [-95.9984055, 36.1625968], [-95.998268, 36.1625967], [-95.9982682, 36.1625078], [-95.9984057, 36.1625079]]]}, "properties": {"osm_id": 495944582, "building": "yes", "name": "", "height": null, "height_m": null, "levels": null, "tract_id": "40143000900", "tract_name": "9", "tags": {"building": "yes"}}}, {"type": "Feature", "geometry": {"type": "Polygon", "coordinates": [[[-95.9985736, 36.1628371], [-95.9985011, 36.1628363], [-95.9985008, 36.1628492], [-95.9982611, 36.1628466], [-95.9982628, 36.1627428], [-95.9985021, 36.1627454], [-95.9985019, 36.1627605], [-95.9985749, 36.1627613], [-95.9985736, 36.1628371]]]}, "properties": {"osm_id": 495944583, "building": "yes", "name": "", "height": null, "height_m": null, "levels": null, "tract_id": "40143000900", "tract_name": "9", "tags": {"building": "yes"}}}, {"type": "Feature", "geometry": {"type": "Polygon", "coordinates": [[[-95.9978028, 36.1626898], [-95.9978033, 36.1626211], [-95.9977132, 36.1626206], [-95.9977127, 36.1626893], [-95.9978028, 36.1626898]]]}, "properties": {"osm_id": 495944584, "building": "yes", "name": "", "height": null, "height_m": null, "levels": null, "tract_id": "40143000900", "tract_name": "9", "tags": {"building": "yes"}}}, {"type": "Feature", "geometry": {"type": "Polygon", "coordinates": [[[-95.9978513, 36.1628011], [-95.9976807, 36.1627997], [-95.997682, 36.1627018], [-95.9978526, 36.1627032], [-95.9978513, 36.1628011]]]}, "properties": {"osm_id": 495944585, "building": "yes", "name": "", "height": null, "height_m": null, "levels": null, "tract_id": "40143000900", "tract_name": "9", "tags": {"building": "yes"}}}, {"type": "Feature", "geometry": {"type": "Polygon", "coordinates": [[[-95.9978595, 36.1628992], [-95.9978583, 36.1629803], [-95.9976607, 36.1629782], [-95.997662, 36.1628971], [-95.9978595, 36.1628992]]]}, "properties": {"osm_id": 495944586, "building": "yes", "name": "", "height": null, "height_m": null, "levels": null, "tract_id": "40143000900", "tract_name": "9", "tags": {"building": "yes"}}}, {"type": "Feature", "geometry": {"type": "Polygon", "coordinates": [[[-95.997734, 36.1628861], [-95.9977359, 36.1628223], [-95.9976577, 36.1628208], [-95.9976557, 36.1628845], [-95.997734, 36.1628861]]]}, "properties": {"osm_id": 495944587, "building": "yes", "name": "", "height": null, "height_m": null, "levels": null, "tract_id": "40143000900", "tract_name": "9", "tags": {"building": "yes"}}}, {"type": "Feature", "geometry": {"type": "Polygon", "coordinates": [[[-95.9984164, 36.1629825], [-95.9982493, 36.1629837], [-95.9982484, 36.1629003], [-95.9984155, 36.1628992], [-95.9984164, 36.1629825]]]}, "properties": {"osm_id": 495944588, "building": "yes", "name": "", "height": null, "height_m": null, "levels": null, "tract_id": "40143000900", "tract_name": "9", "tags": {"building": "yes"}}}, {"type": "Feature", "geometry": {"type": "Polygon", "coordinates": [[[-95.9985506, 36.1631181], [-95.9985518, 36.1630684], [-95.9984899, 36.1630674], [-95.998491, 36.163023], [-95.9982594, 36.1630194], [-95.9982584, 36.1630632], [-95.9982316, 36.1630628], [-95.9982294, 36.1631533], [-95.9982595, 36.1631538], [-95.9982586, 36.1631944], [-95.9983617, 36.163196], [-95.998363, 36.1631415], [-95.9984292, 36.1631426], [-95.9984278, 36.1632009], [-95.9985147, 36.1632023], [-95.9985168, 36.1631176], [-95.9985506, 36.1631181]]]}, "properties": {"osm_id": 495944589, "building": "yes", "name": "", "height": null, "height_m": null, "levels": null, "tract_id": "40143000900", "tract_name": "9", "tags": {"building": "yes"}}}, {"type": "Feature", "geometry": {"type": "Polygon", "coordinates": [[[-95.9978732, 36.1631465], [-95.9978743, 36.1630557], [-95.9976918, 36.1630541], [-95.9976906, 36.1631449], [-95.9978732, 36.1631465]]]}, "properties": {"osm_id": 495944590, "building": "yes", "name": "", "height": null, "height_m": null, "levels": null, "tract_id": "40143000900", "tract_name": "9", "tags": {"building": "yes"}}}, {"type": "Feature", "geometry": {"type": "Polygon", "coordinates": [[[-95.9984093, 36.16325], [-95.9982299, 36.1632485], [-95.998229, 36.1633141], [-95.9984085, 36.1633156], [-95.9984093, 36.16325]]]}, "properties": {"osm_id": 495944591, "building": "yes", "name": "", "height": null, "height_m": null, "levels": null, "tract_id": "40143000900", "tract_name": "9", "tags": {"building": "yes"}}}, {"type": "Feature", "geometry": {"type": "Polygon", "coordinates": [[[-95.9986864, 36.1633578], [-95.998587, 36.1633559], [-95.9985839, 36.163466], [-95.9986833, 36.1634678], [-95.9986864, 36.1633578]]]}, "properties": {"osm_id": 495944592, "building": "yes", "name": "", "height": null, "height_m": null, "levels": null, "tract_id": "40143000900", "tract_name": "9", "tags": {"building": "yes"}}}, {"type": "Feature", "geometry": {"type": "Polygon", "coordinates": [[[-95.9984157, 36.1634414], [-95.9984165, 36.1633685], [-95.9983362, 36.163368], [-95.998336, 36.1633846], [-95.9982537, 36.163384], [-95.998253, 36.1634427], [-95.9982866, 36.163443], [-95.9982897, 36.1634504], [-95.9983728, 36.163451], [-95.9983729, 36.1634411], [-95.9984157, 36.1634414]]]}, "properties": {"osm_id": 495944593, "building": "yes", "name": "", "height": null, "height_m": null, "levels": null, "tract_id": "40143000900", "tract_name": "9", "tags": {"building": "yes"}}}, {"type": "Feature", "geometry": {"type": "Polygon", "coordinates": [[[-95.9978797, 36.1632568], [-95.9977416, 36.1632565], [-95.9977419, 36.1631797], [-95.99788, 36.16318], [-95.9978797, 36.1632568]]]}, "properties": {"osm_id": 495944594, "building": "yes", "name": "", "height": null, "height_m": null, "levels": null, "tract_id": "40143000900", "tract_name": "9", "tags": {"building": "yes"}}}, {"type": "Feature", "geometry": {"type": "Polygon", "coordinates": [[[-95.9978862, 36.1633033], [-95.9976941, 36.1633007], [-95.9976925, 36.1633773], [-95.9978846, 36.1633798], [-95.9978862, 36.1633033]]]}, "properties": {"osm_id": 495944595, "building": "yes", "name": "", "height": null, "height_m": null, "levels": null, "tract_id": "40143000900", "tract_name": "9", "tags": {"building": "yes"}}}, {"type": "Feature", "geometry": {"type": "Polygon", "coordinates": [[[-95.9978772, 36.1635519], [-95.9976764, 36.16355], [-95.9976774, 36.1634816], [-95.9978782, 36.1634835], [-95.9978772, 36.1635519]]]}, "properties": {"osm_id": 495944596, "building": "yes", "name": "", "height": null, "height_m": null, "levels": null, "tract_id": "40143000900", "tract_name": "9", "tags": {"building": "yes"}}}, {"type": "Feature", "geometry": {"type": "Polygon", "coordinates": [[[-95.9976033, 36.1633405], [-95.9976044, 36.1632865], [-95.997532, 36.1632855], [-95.9975309, 36.1633395], [-95.9976033, 36.1633405]]]}, "properties": {"osm_id": 495944597, "building": "yes", "name": "", "height": null, "height_m": null, "levels": null, "tract_id": "40143000900", "tract_name": "9", "tags": {"building": "yes"}}}, {"type": "Feature", "geometry": {"type": "Polygon", "coordinates": [[[-95.9998523, 36.1638216], [-95.9998543, 36.1637335], [-95.9997409, 36.1637318], [-95.9997415, 36.1637064], [-95.9996364, 36.1637048], [-95.9996326, 36.1638756], [-95.999706, 36.1638767], [-95.9997067, 36.1638441], [-95.9998093, 36.1638456], [-95.9998099, 36.163821], [-95.9998523, 36.1638216]]]}, "properties": {"osm_id": 495945317, "building": "detached", "name": "", "height": null, "height_m": null, "levels": null, "tract_id": "40143000900", "tract_name": "9", "tags": {"addr:city": "Tulsa", "addr:country": "US", "addr:housenumber": "636", "addr:postcode": "74106", "addr:state": "OK", "addr:street": "North Denver Avenue West", "building": "detached"}}}, {"type": "Feature", "geometry": {"type": "Polygon", "coordinates": [[[-95.9991899, 36.163787], [-95.9989947, 36.1637858], [-95.9989953, 36.1637205], [-95.999026, 36.1637207], [-95.9990262, 36.1636917], [-95.9991908, 36.1636927], [-95.9991899, 36.163787]]]}, "properties": {"osm_id": 495945319, "building": "detached", "name": "", "height": null, "height_m": null, "levels": null, "tract_id": "40143000900", "tract_name": "9", "tags": {"addr:city": "Tulsa", "addr:country": "US", "addr:housenumber": "633", "addr:postcode": "74106", "addr:state": "OK", "addr:street": "North Denver Avenue West", "building": "detached"}}}, {"type": "Feature", "geometry": {"type": "Polygon", "coordinates": [[[-95.9999005, 36.1641877], [-95.9997628, 36.1641868], [-95.999764, 36.1640628], [-95.9999017, 36.1640637], [-95.9999005, 36.1641877]]]}, "properties": {"osm_id": 495945321, "building": "yes", "name": "", "height": null, "height_m": null, "levels": null, "tract_id": "40143000900", "tract_name": "9", "tags": {"building": "yes"}}}, {"type": "Feature", "geometry": {"type": "Polygon", "coordinates": [[[-95.9992377, 36.1641676], [-95.9990142, 36.1641667], [-95.9990147, 36.1640748], [-95.9992383, 36.1640757], [-95.9992377, 36.1641676]]]}, "properties": {"osm_id": 495945323, "building": "detached", "name": "", "height": null, "height_m": null, "levels": null, "tract_id": "40143000900", "tract_name": "9", "tags": {"addr:city": "Tulsa", "addr:country": "US", "addr:housenumber": "647", "addr:postcode": "74106", "addr:state": "OK", "addr:street": "North Denver Avenue West", "building": "detached"}}}, {"type": "Feature", "geometry": {"type": "Polygon", "coordinates": [[[-95.9988663, 36.1640387], [-95.9987589, 36.1640375], [-95.9987569, 36.1641576], [-95.9988643, 36.1641588], [-95.9988663, 36.1640387]]]}, "properties": {"osm_id": 495945325, "building": "yes", "name": "", "height": null, "height_m": null, "levels": null, "tract_id": "40143000900", "tract_name": "9", "tags": {"building": "yes"}}}, {"type": "Feature", "geometry": {"type": "Polygon", "coordinates": [[[-95.998987, 36.1639925], [-95.9989886, 36.1639188], [-95.9988946, 36.1639175], [-95.998893, 36.1639912], [-95.998987, 36.1639925]]]}, "properties": {"osm_id": 495945327, "building": "yes", "name": "", "height": null, "height_m": null, "levels": null, "tract_id": "40143000900", "tract_name": "9", "tags": {"building": "yes"}}}, {"type": "Feature", "geometry": {"type": "Polygon", "coordinates": [[[-95.9983827, 36.1641497], [-95.9982158, 36.1641486], [-95.9982162, 36.1641139], [-95.998193, 36.1641137], [-95.998194, 36.1640191], [-95.9982199, 36.1640193], [-95.9982202, 36.1639898], [-95.998386, 36.1639909], [-95.9983854, 36.1640468], [-95.9983654, 36.1640467], [-95.9983649, 36.1640904], [-95.9983834, 36.1640906], [-95.9983827, 36.1641497]]]}, "properties": {"osm_id": 495945328, "building": "detached", "name": "", "height": null, "height_m": null, "levels": null, "tract_id": "40143000900", "tract_name": "9", "tags": {"addr:city": "Tulsa", "addr:country": "US", "addr:housenumber": "656", "addr:postcode": "74106", "addr:state": "OK", "addr:street": "North Cheyenne Avenue West", "building": "detached"}}}, {"type": "Feature", "geometry": {"type": "Polygon", "coordinates": [[[-95.9978474, 36.1641879], [-95.9976674, 36.1641872], [-95.9976677, 36.164121], [-95.9978478, 36.1641217], [-95.9978474, 36.1641879]]]}, "properties": {"osm_id": 495945330, "building": "detached", "name": "", "height": null, "height_m": null, "levels": null, "tract_id": "40143000900", "tract_name": "9", "tags": {"addr:city": "Tulsa", "addr:country": "US", "addr:housenumber": "657", "addr:postcode": "74106", "addr:state": "OK", "addr:street": "North Cheyenne Avenue West", "building": "detached"}}}, {"type": "Feature", "geometry": {"type": "Polygon", "coordinates": [[[-95.997634, 36.1641593], [-95.9976354, 36.1640967], [-95.9975627, 36.1640956], [-95.9975614, 36.1641583], [-95.997634, 36.1641593]]]}, "properties": {"osm_id": 495945331, "building": "yes", "name": "", "height": null, "height_m": null, "levels": null, "tract_id": "40143000900", "tract_name": "9", "tags": {"building": "yes"}}}, {"type": "Feature", "geometry": {"type": "Polygon", "coordinates": [[[-95.999755, 36.1647513], [-95.9996002, 36.1647525], [-95.9995991, 36.1646654], [-95.9997539, 36.1646641], [-95.999755, 36.1647513]]]}, "properties": {"osm_id": 515963387, "building": "detached", "name": "", "height": null, "height_m": null, "levels": null, "tract_id": "40143000900", "tract_name": "9", "tags": {"addr:city": "Tulsa", "addr:country": "US", "addr:housenumber": "710", "addr:postcode": "74106", "addr:state": "OK", "addr:street": "North Denver Avenue West", "building": "detached"}}}, {"type": "Feature", "geometry": {"type": "Polygon", "coordinates": [[[-95.9997741, 36.1643652], [-95.9996932, 36.1643653], [-95.9996932, 36.1643865], [-95.9995805, 36.1643866], [-95.9995807, 36.1644915], [-95.9997891, 36.1644912], [-95.9997889, 36.1643856], [-95.9997741, 36.1643856], [-95.9997741, 36.1643652]]]}, "properties": {"osm_id": 515963388, "building": "detached", "name": "", "height": null, "height_m": null, "levels": null, "tract_id": "40143000900", "tract_name": "9", "tags": {"addr:city": "Tulsa", "addr:country": "US", "addr:housenumber": "702", "addr:postcode": "74106", "addr:state": "OK", "addr:street": "North Denver Avenue West", "building": "detached"}}}, {"type": "Feature", "geometry": {"type": "Polygon", "coordinates": [[[-95.9992527, 36.1643937], [-95.9990739, 36.1643925], [-95.9990739, 36.1643993], [-95.9990358, 36.164399], [-95.999035, 36.1644761], [-95.9992518, 36.1644776], [-95.9992527, 36.1643937]]]}, "properties": {"osm_id": 515963389, "building": "detached", "name": "", "height": null, "height_m": null, "levels": null, "tract_id": "40143000900", "tract_name": "9", "tags": {"addr:city": "Tulsa", "addr:country": "US", "addr:housenumber": "701", "addr:postcode": "74106", "addr:state": "OK", "addr:street": "North Denver Avenue West", "building": "detached"}}}, {"type": "Feature", "geometry": {"type": "Polygon", "coordinates": [[[-95.9991975, 36.1646391], [-95.9990698, 36.1646371], [-95.9990701, 36.1646263], [-95.9990512, 36.164626], [-95.9990526, 36.1645668], [-95.9990754, 36.1645672], [-95.9990756, 36.164558], [-95.9991993, 36.16456], [-95.9991975, 36.1646391]]]}, "properties": {"osm_id": 515963390, "building": "detached", "name": "", "height": null, "height_m": null, "levels": null, "tract_id": "40143000900", "tract_name": "9", "tags": {"addr:city": "Tulsa", "addr:country": "US", "addr:housenumber": "707", "addr:postcode": "74106", "addr:state": "OK", "addr:street": "North Denver Avenue West", "building": "detached"}}}, {"type": "Feature", "geometry": {"type": "Polygon", "coordinates": [[[-95.9989105, 36.1643597], [-95.9988073, 36.1643594], [-95.9988068, 36.1644819], [-95.99891, 36.1644822], [-95.9989105, 36.1643597]]]}, "properties": {"osm_id": 515963391, "building": "detached", "name": "", "height": null, "height_m": null, "levels": null, "tract_id": "40143000900", "tract_name": "9", "tags": {"addr:city": "Tulsa", "addr:country": "US", "addr:housenumber": "215", "addr:postcode": "74106", "addr:state": "OK", "addr:street": "West John Hope Franklin Boulevard North", "building": "detached"}}}, {"type": "Feature", "geometry": {"type": "Polygon", "coordinates": [[[-95.9992143, 36.1646647], [-95.9990858, 36.1646641], [-95.9990859, 36.1646515], [-95.9989742, 36.1646509], [-95.9989734, 36.1647505], [-95.9992136, 36.1647517], [-95.9992143, 36.1646647]]]}, "properties": {"osm_id": 515963392, "building": "detached", "name": "", "height": null, "height_m": null, "levels": null, "tract_id": "40143000900", "tract_name": "9", "tags": {"addr:city": "Tulsa", "addr:country": "US", "addr:housenumber": "711", "addr:postcode": "74106", "addr:state": "OK", "addr:street": "North Denver Avenue West", "building": "detached"}}}, {"type": "Feature", "geometry": {"type": "Polygon", "coordinates": [[[-95.9997927, 36.1648107], [-95.9995967, 36.1648109], [-95.9995968, 36.1648998], [-95.9997928, 36.1648996], [-95.9997927, 36.1648107]]]}, "properties": {"osm_id": 515963393, "building": "detached", "name": "", "height": null, "height_m": null, "levels": null, "tract_id": "40143000900", "tract_name": "9", "tags": {"addr:city": "Tulsa", "addr:country": "US", "addr:housenumber": "714", "addr:postcode": "74106", "addr:state": "OK", "addr:street": "North Denver Avenue West", "building": "detached"}}}, {"type": "Feature", "geometry": {"type": "Polygon", "coordinates": [[[-95.9991959, 36.1648131], [-95.9990607, 36.1648116], [-95.999059, 36.1649142], [-95.9991942, 36.1649156], [-95.9991959, 36.1648131]]]}, "properties": {"osm_id": 515963394, "building": "detached", "name": "", "height": null, "height_m": null, "levels": null, "tract_id": "40143000900", "tract_name": "9", "tags": {"addr:city": "Tulsa", "addr:country": "US", "addr:housenumber": "715", "addr:postcode": "74106", "addr:state": "OK", "addr:street": "North Denver Avenue West", "building": "detached"}}}, {"type": "Feature", "geometry": {"type": "Polygon", "coordinates": [[[-95.9992076, 36.1650474], [-95.9990046, 36.1650442], [-95.9990027, 36.165122], [-95.9990269, 36.1651223], [-95.9990261, 36.1651565], [-95.9990963, 36.1651576], [-95.9990959, 36.1651766], [-95.9991378, 36.1651772], [-95.9991383, 36.1651552], [-95.999205, 36.1651562], [-95.9992076, 36.1650474]]]}, "properties": {"osm_id": 515963395, "building": "detached", "name": "", "height": null, "height_m": null, "levels": null, "tract_id": "40143000900", "tract_name": "9", "tags": {"addr:city": "Tulsa", "addr:country": "US", "addr:housenumber": "723", "addr:postcode": "74106", "addr:state": "OK", "addr:street": "North Denver Avenue West", "building": "detached"}}}, {"type": "Feature", "geometry": {"type": "Polygon", "coordinates": [[[-95.9989634, 36.1650906], [-95.9989324, 36.1650904], [-95.9989322, 36.1651083], [-95.9988394, 36.1651077], [-95.9988403, 36.1650298], [-95.9989366, 36.1650304], [-95.9989364, 36.1650524], [-95.9989639, 36.1650526], [-95.9989634, 36.1650906]]]}, "properties": {"osm_id": 515963396, "building": "detached", "name": "", "height": null, "height_m": null, "levels": null, "tract_id": "40143000900", "tract_name": "9", "tags": {"building": "detached"}}}, {"type": "Feature", "geometry": {"type": "Polygon", "coordinates": [[[-95.9957796, 36.1677806], [-95.9957065, 36.1677811], [-95.9957059, 36.1678021], [-95.9956527, 36.1678025], [-95.9956539, 36.1677802], [-95.9956114, 36.1677807], [-95.9956107, 36.1678025], [-95.9955588, 36.167802], [-95.9955594, 36.1677802], [-95.9954856, 36.1677797], [-95.9954862, 36.1676989], [-95.9954437, 36.1676989], [-95.9954424, 36.1678181], [-95.9954287, 36.1678181], [-95.9954274, 36.1679025], [-95.9953423, 36.167902], [-95.9953417, 36.1679136], [-95.9952885, 36.1679126], [-95.9952892, 36.1679464], [-95.9952016, 36.1679454], [-95.9952016, 36.1679282], [-95.9950226, 36.1679282], [-95.995022, 36.1679166], [-95.9948593, 36.1679161], [-95.9948618, 36.1678424], [-95.9947042, 36.1678414], [-95.9947048, 36.1678045], [-95.9946929, 36.167804], [-95.9946942, 36.1677575], [-95.9947042, 36.1677575], [-95.9947048, 36.1676944], [-95.9946935, 36.1676949], [-95.9946935, 36.1676489], [-95.9947073, 36.1676484], [-95.9947054, 36.1676131], [-95.9947743, 36.1676105], [-95.9947749, 36.1675418], [-95.9946773, 36.1675408], [-95.994676, 36.1675186], [-95.9946047, 36.1675186], [-95.9946009, 36.1674873], [-95.9946041, 36.1674565], [-95.9946116, 36.1674095], [-95.9946147, 36.1673994], [-95.9947255, 36.1674009], [-95.9947261, 36.1673676], [-95.9947142, 36.1673671], [-95.9947142, 36.1673191], [-95.9947298, 36.1673186], [-95.994728, 36.167258], [-95.9947086, 36.167258], [-95.9947079, 36.1671595], [-95.9948963, 36.167159], [-95.9949219, 36.1671454], [-95.9949327, 36.167134], [-95.9949467, 36.167119], [-95.9949626, 36.1670861], [-95.994967, 36.167054], [-95.9949653, 36.1670004], [-95.994975, 36.1669568], [-95.9950042, 36.1669068], [-95.9950369, 36.1668726], [-95.9950772, 36.1668427], [-95.9951195, 36.1668234], [-95.9951745, 36.1668092], [-95.9952168, 36.166806], [-95.9952598, 36.1668092], [-95.9952933, 36.1668195], [-95.9953133, 36.1669135], [-95.9951992, 36.1670204], [-95.9951809, 36.1670204], [-95.9951793, 36.1671028], [-95.995137, 36.1671028], [-95.9951375, 36.1671199], [-95.9951386, 36.1671613], [-95.9955286, 36.1671633], [-95.9955278, 36.1674092], [-95.9953531, 36.1674086], [-95.9953523, 36.1675206], [-95.9954863, 36.1675206], [-95.9954847, 36.1674452], [-95.995561, 36.1674461], [-95.995561, 36.1674249], [-95.9956133, 36.167426], [-95.9956126, 36.1674471], [-95.9956562, 36.1674477], [-95.9956562, 36.1674244], [-95.9957079, 36.1674255], [-95.9957072, 36.1674466], [-95.9957823, 36.1674455], [-95.9957796, 36.1677806]]]}, "properties": {"osm_id": 727853382, "building": "yes", "name": "", "height": null, "height_m": null, "levels": null, "tract_id": "40143000900", "tract_name": "9", "tags": {"building": "yes"}}}, {"type": "Feature", "geometry": {"type": "Polygon", "coordinates": [[[-95.9990033, 36.1732223], [-95.9991393, 36.1732226], [-95.9991397, 36.1731172], [-95.9990036, 36.1731169], [-95.9990033, 36.1732223]]]}, "properties": {"osm_id": 740014751, "building": "detached", "name": "", "height": null, "height_m": null, "levels": null, "tract_id": "40143000900", "tract_name": "9", "tags": {"building": "detached"}}}, {"type": "Feature", "geometry": {"type": "Polygon", "coordinates": [[[-95.9991578, 36.1729452], [-95.9990081, 36.1729463], [-95.999008, 36.1729369], [-95.9989828, 36.1729371], [-95.9989821, 36.1728783], [-95.9990059, 36.1728781], [-95.9990057, 36.1728558], [-95.9991326, 36.1728549], [-95.9991329, 36.1728828], [-95.9991571, 36.1728826], [-95.9991578, 36.1729452]]]}, "properties": {"osm_id": 740014752, "building": "detached", "name": "", "height": null, "height_m": null, "levels": null, "tract_id": "40143000900", "tract_name": "9", "tags": {"building": "detached"}}}, {"type": "Feature", "geometry": {"type": "Polygon", "coordinates": [[[-95.9991675, 36.1728287], [-95.9991671, 36.1727343], [-95.9989451, 36.1727347], [-95.9989454, 36.1728292], [-95.9991675, 36.1728287]]]}, "properties": {"osm_id": 740014753, "building": "detached", "name": "", "height": null, "height_m": null, "levels": null, "tract_id": "40143000900", "tract_name": "9", "tags": {"building": "detached"}}}, {"type": "Feature", "geometry": {"type": "Polygon", "coordinates": [[[-95.9987987, 36.1728959], [-95.998798, 36.1729608], [-95.9989025, 36.1729621], [-95.9989037, 36.1728971], [-95.9987987, 36.1728959]]]}, "properties": {"osm_id": 740014754, "building": "detached", "name": "", "height": null, "height_m": null, "levels": null, "tract_id": "40143000900", "tract_name": "9", "tags": {"building": "detached"}}}, {"type": "Feature", "geometry": {"type": "Polygon", "coordinates": [[[-95.9995988, 36.1732507], [-95.9995973, 36.1731469], [-95.9996277, 36.1731466], [-95.9996275, 36.1731282], [-95.9998173, 36.1731264], [-95.9998178, 36.1731593], [-95.9998397, 36.1731591], [-95.9998404, 36.1732071], [-95.9998219, 36.1732072], [-95.999822, 36.1732142], [-95.9996549, 36.1732157], [-95.9996554, 36.1732502], [-95.9995988, 36.1732507]]]}, "properties": {"osm_id": 740014755, "building": "detached", "name": "", "height": null, "height_m": null, "levels": null, "tract_id": "40143000900", "tract_name": "9", "tags": {"building": "detached"}}}, {"type": "Feature", "geometry": {"type": "Polygon", "coordinates": [[[-95.9996158, 36.1730593], [-95.9996147, 36.1730121], [-95.9996322, 36.1730118], [-95.9996316, 36.1729872], [-95.9997583, 36.1729851], [-95.9997601, 36.173057], [-95.9996158, 36.1730593]]]}, "properties": {"osm_id": 740014756, "building": "detached", "name": "", "height": null, "height_m": null, "levels": null, "tract_id": "40143000900", "tract_name": "9", "tags": {"building": "detached"}}}, {"type": "Feature", "geometry": {"type": "Polygon", "coordinates": [[[-95.9996077, 36.1729512], [-95.999797, 36.1729522], [-95.9997977, 36.1728648], [-95.9996354, 36.1728639], [-95.9996352, 36.1728927], [-95.9996082, 36.1728925], [-95.9996077, 36.1729512]]]}, "properties": {"osm_id": 740014757, "building": "detached", "name": "", "height": null, "height_m": null, "levels": null, "tract_id": "40143000900", "tract_name": "9", "tags": {"building": "detached"}}}, {"type": "Feature", "geometry": {"type": "Polygon", "coordinates": [[[-95.9957656, 36.1635788], [-95.9957461, 36.1635449], [-95.9957719, 36.1635352], [-95.9957914, 36.1635691], [-95.9957656, 36.1635788]]]}, "properties": {"osm_id": 786988564, "building": "yes", "name": "", "height": null, "height_m": null, "levels": null, "tract_id": "40143000900", "tract_name": "9", "tags": {"building": "yes"}}}, {"type": "Feature", "geometry": {"type": "Polygon", "coordinates": [[[-95.9958051, 36.1636794], [-95.9957808, 36.1636288], [-95.9958476, 36.1636079], [-95.9958719, 36.1636585], [-95.9958051, 36.1636794]]]}, "properties": {"osm_id": 786988565, "building": "yes", "name": "", "height": null, "height_m": null, "levels": null, "tract_id": "40143000900", "tract_name": "9", "tags": {"building": "yes"}}}, {"type": "Feature", "geometry": {"type": "Polygon", "coordinates": [[[-95.9978129, 36.1654862], [-95.9977069, 36.1654855], [-95.9977071, 36.1654651], [-95.9976688, 36.1654649], [-95.9976697, 36.1653843], [-95.9978162, 36.1653854], [-95.9978161, 36.1653909], [-95.997844, 36.1653911], [-95.9978431, 36.1654719], [-95.997813, 36.1654716], [-95.9978129, 36.1654862]]]}, "properties": {"osm_id": 939267217, "building": "detached", "name": "", "height": null, "height_m": null, "levels": null, "tract_id": "40143000900", "tract_name": "9", "tags": {"building": "detached"}}}, {"type": "Feature", "geometry": {"type": "Polygon", "coordinates": [[[-95.9978076, 36.1656221], [-95.9977068, 36.1656213], [-95.997708, 36.1655227], [-95.9978055, 36.1655235], [-95.9978054, 36.1655318], [-95.9978359, 36.165532], [-95.9978353, 36.1655777], [-95.9978081, 36.1655775], [-95.9978076, 36.1656221]]]}, "properties": {"osm_id": 939267218, "building": "detached", "name": "", "height": null, "height_m": null, "levels": null, "tract_id": "40143000900", "tract_name": "9", "tags": {"building": "detached"}}}, {"type": "Feature", "geometry": {"type": "Polygon", "coordinates": [[[-95.998451, 36.1656709], [-95.9982301, 36.1656714], [-95.9982298, 36.1655857], [-95.9983086, 36.1655855], [-95.9983085, 36.1655595], [-95.9983679, 36.1655593], [-95.998368, 36.165583], [-95.9984501, 36.1655828], [-95.9984502, 36.1656039], [-95.9984847, 36.1656038], [-95.9984845, 36.1655595], [-95.9985726, 36.1655593], [-95.9985729, 36.1656718], [-95.9984853, 36.165672], [-95.9984851, 36.1656238], [-95.9984508, 36.1656239], [-95.998451, 36.1656709]]]}, "properties": {"osm_id": 939267219, "building": "detached", "name": "", "height": null, "height_m": null, "levels": null, "tract_id": "40143000900", "tract_name": "9", "tags": {"building": "detached"}}}, {"type": "Feature", "geometry": {"type": "Polygon", "coordinates": [[[-95.9987887, 36.1654548], [-95.9987831, 36.1657674], [-95.9991803, 36.165772], [-95.9991808, 36.1657411], [-95.9991968, 36.1657413], [-95.9991974, 36.1657079], [-95.9991816, 36.1657078], [-95.9991822, 36.1656762], [-95.9989493, 36.1656735], [-95.9989498, 36.165646], [-95.9988894, 36.1656452], [-95.9988909, 36.1655666], [-95.9989098, 36.1655669], [-95.9989103, 36.1655418], [-95.9988895, 36.1655416], [-95.998891, 36.165456], [-95.9987887, 36.1654548]]]}, "properties": {"osm_id": 939267220, "building": "detached", "name": "", "height": null, "height_m": null, "levels": null, "tract_id": "40143000900", "tract_name": "9", "tags": {"building": "detached"}}}, {"type": "Feature", "geometry": {"type": "Polygon", "coordinates": [[[-95.9972135, 36.170815], [-95.9970117, 36.1708139], [-95.9970121, 36.1707598], [-95.9970277, 36.1707599], [-95.997028, 36.1707272], [-95.9972142, 36.1707282], [-95.9972135, 36.170815]]]}, "properties": {"osm_id": 1256763194, "building": "detached", "name": "", "height": null, "height_m": null, "levels": null, "tract_id": "40143000900", "tract_name": "9", "tags": {"building": "detached"}}}, {"type": "Feature", "geometry": {"type": "Polygon", "coordinates": [[[-95.9972101, 36.1705811], [-95.9972099, 36.1706456], [-95.9972404, 36.1706456], [-95.9972403, 36.1706711], [-95.9972098, 36.170671], [-95.9972096, 36.1706992], [-95.9970205, 36.1706986], [-95.997021, 36.1705806], [-95.9972101, 36.1705811]]]}, "properties": {"osm_id": 1256763195, "building": "detached", "name": "", "height": null, "height_m": null, "levels": null, "tract_id": "40143000900", "tract_name": "9", "tags": {"building": "detached"}}}, {"type": "Feature", "geometry": {"type": "Polygon", "coordinates": [[[-95.9972363, 36.1704371], [-95.9972363, 36.1705102], [-95.9972638, 36.1705102], [-95.9972638, 36.1705422], [-95.9972363, 36.1705422], [-95.9972363, 36.1705524], [-95.9970177, 36.1705524], [-95.9970177, 36.1704371], [-95.9972363, 36.1704371]]]}, "properties": {"osm_id": 1256763196, "building": "detached", "name": "", "height": null, "height_m": null, "levels": null, "tract_id": "40143000900", "tract_name": "9", "tags": {"building": "detached"}}}, {"type": "Feature", "geometry": {"type": "Polygon", "coordinates": [[[-95.9972588, 36.1699316], [-95.9971883, 36.1699313], [-95.9971887, 36.1698728], [-95.9972591, 36.1698731], [-95.9972588, 36.1699316]]]}, "properties": {"osm_id": 1256763201, "building": "garage", "name": "", "height": null, "height_m": null, "levels": null, "tract_id": "40143000900", "tract_name": "9", "tags": {"building": "garage"}}}, {"type": "Feature", "geometry": {"type": "Polygon", "coordinates": [[[-95.9973751, 36.1690828], [-95.9973751, 36.1691586], [-95.9972591, 36.1691586], [-95.9972591, 36.1690828], [-95.9973751, 36.1690828]]]}, "properties": {"osm_id": 1256763212, "building": "detached", "name": "", "height": null, "height_m": null, "levels": null, "tract_id": "40143000900", "tract_name": "9", "tags": {"building": "detached"}}}, {"type": "Feature", "geometry": {"type": "Polygon", "coordinates": [[[-95.9969928, 36.1697117], [-95.9971215, 36.16971], [-95.9971193, 36.1696018], [-95.9969906, 36.1696035], [-95.9969928, 36.1697117]]]}, "properties": {"osm_id": 1256763223, "building": "detached", "name": "", "height": null, "height_m": null, "levels": null, "tract_id": "40143000900", "tract_name": "9", "tags": {"building": "detached"}}}, {"type": "Feature", "geometry": {"type": "Polygon", "coordinates": [[[-95.9970359, 36.1702833], [-95.9972045, 36.1702838], [-95.9972045, 36.1702764], [-95.9972436, 36.1702765], [-95.9972438, 36.1702283], [-95.9972048, 36.1702282], [-95.9972049, 36.1701938], [-95.9970364, 36.1701933], [-95.9970363, 36.170199], [-95.9970124, 36.1701989], [-95.997012, 36.1702774], [-95.9970359, 36.1702774], [-95.9970359, 36.1702833]]]}, "properties": {"osm_id": 1256763226, "building": "detached", "name": "", "height": null, "height_m": null, "levels": null, "tract_id": "40143000900", "tract_name": "9", "tags": {"building": "detached"}}}, {"type": "Feature", "geometry": {"type": "Polygon", "coordinates": [[[-95.9970179, 36.1704077], [-95.9972157, 36.1704091], [-95.9972167, 36.1703203], [-95.9970248, 36.1703189], [-95.9970245, 36.1703489], [-95.9970185, 36.1703489], [-95.9970179, 36.1704077]]]}, "properties": {"osm_id": 1256763227, "building": "detached", "name": "", "height": null, "height_m": null, "levels": null, "tract_id": "40143000900", "tract_name": "9", "tags": {"building": "detached"}}}, {"type": "Feature", "geometry": {"type": "Polygon", "coordinates": [[[-95.9971611, 36.1693194], [-95.9971624, 36.1694831], [-95.996972, 36.1694841], [-95.9969727, 36.1695707], [-95.9972167, 36.1695694], [-95.997216, 36.1694828], [-95.9972657, 36.1694825], [-95.9972644, 36.1693188], [-95.9971611, 36.1693194]]]}, "properties": {"osm_id": 1256763232, "building": "detached", "name": "", "height": null, "height_m": null, "levels": null, "tract_id": "40143000900", "tract_name": "9", "tags": {"building": "detached"}}}, {"type": "Feature", "geometry": {"type": "Polygon", "coordinates": [[[-95.9972092, 36.1689521], [-95.997173, 36.1689519], [-95.9971733, 36.1689181], [-95.9969924, 36.1689172], [-95.9969923, 36.1689279], [-95.9969663, 36.1689278], [-95.9969657, 36.1690107], [-95.9969917, 36.1690108], [-95.9969916, 36.1690197], [-95.9971498, 36.1690205], [-95.9971498, 36.1690133], [-95.9972088, 36.1690136], [-95.9972092, 36.1689521]]]}, "properties": {"osm_id": 1256763234, "building": "detached", "name": "", "height": null, "height_m": null, "levels": null, "tract_id": "40143000900", "tract_name": "9", "tags": {"building": "detached"}}}, {"type": "Feature", "geometry": {"type": "Polygon", "coordinates": [[[-95.9972757, 36.1690192], [-95.9973443, 36.1690189], [-95.997344, 36.1689742], [-95.9973775, 36.1689741], [-95.9973771, 36.16892], [-95.997353, 36.1689202], [-95.9973529, 36.1689083], [-95.997275, 36.1689086], [-95.9972757, 36.1690192]]]}, "properties": {"osm_id": 1256763239, "building": "detached", "name": "", "height": null, "height_m": null, "levels": null, "tract_id": "40143000900", "tract_name": "9", "tags": {"building": "detached"}}}, {"type": "Feature", "geometry": {"type": "Polygon", "coordinates": [[[-95.9970336, 36.1710862], [-95.9970327, 36.1711772], [-95.9972289, 36.1711784], [-95.9972298, 36.1710875], [-95.9970336, 36.1710862]]]}, "properties": {"osm_id": 1256763244, "building": "detached", "name": "", "height": null, "height_m": null, "levels": null, "tract_id": "40143000900", "tract_name": "9", "tags": {"building": "detached"}}}, {"type": "Feature", "geometry": {"type": "Polygon", "coordinates": [[[-95.9971599, 36.1700772], [-95.9970104, 36.1700771], [-95.9970103, 36.1701637], [-95.9971598, 36.1701638], [-95.9971598, 36.1701557], [-95.9971846, 36.1701557], [-95.9971847, 36.1700859], [-95.9971599, 36.1700858], [-95.9971599, 36.1700772]]]}, "properties": {"osm_id": 1256763246, "building": "detached", "name": "", "height": null, "height_m": null, "levels": null, "tract_id": "40143000900", "tract_name": "9", "tags": {"building": "detached"}}}, {"type": "Feature", "geometry": {"type": "Polygon", "coordinates": [[[-95.9970161, 36.1699552], [-95.9970148, 36.1700418], [-95.9971599, 36.1700433], [-95.99716, 36.1700333], [-95.9972053, 36.1700338], [-95.997206, 36.1699896], [-95.9971604, 36.1699891], [-95.9971609, 36.1699567], [-95.9970161, 36.1699552]]]}, "properties": {"osm_id": 1256763247, "building": "detached", "name": "", "height": null, "height_m": null, "levels": null, "tract_id": "40143000900", "tract_name": "9", "tags": {"building": "detached"}}}, {"type": "Feature", "geometry": {"type": "Polygon", "coordinates": [[[-95.9970336, 36.1698372], [-95.9970328, 36.1699289], [-95.9971592, 36.1699296], [-95.9971593, 36.1699196], [-95.9971812, 36.1699198], [-95.9971816, 36.1698694], [-95.9971597, 36.1698693], [-95.99716, 36.1698378], [-95.9970336, 36.1698372]]]}, "properties": {"osm_id": 1256763250, "building": "detached", "name": "", "height": null, "height_m": null, "levels": null, "tract_id": "40143000900", "tract_name": "9", "tags": {"building": "detached"}}}, {"type": "Feature", "geometry": {"type": "Polygon", "coordinates": [[[-95.9970149, 36.1712175], [-95.9970134, 36.1713127], [-95.9972344, 36.1713151], [-95.9972359, 36.1712198], [-95.9970149, 36.1712175]]]}, "properties": {"osm_id": 1256763253, "building": "detached", "name": "", "height": null, "height_m": null, "levels": null, "tract_id": "40143000900", "tract_name": "9", "tags": {"building": "detached"}}}, {"type": "Feature", "geometry": {"type": "Polygon", "coordinates": [[[-95.9964699, 36.1695894], [-95.9964699, 36.1696977], [-95.9967408, 36.1696977], [-95.9967408, 36.1696631], [-95.9967086, 36.1696631], [-95.9967086, 36.1696154], [-95.9967408, 36.1696154], [-95.9967408, 36.1695894], [-95.9964699, 36.1695894]]]}, "properties": {"osm_id": 1256763255, "building": "apartments", "name": "", "height": null, "height_m": null, "levels": null, "tract_id": "40143000900", "tract_name": "9", "tags": {"building": "apartments"}}}, {"type": "Feature", "geometry": {"type": "Polygon", "coordinates": [[[-95.9970347, 36.1713365], [-95.9970341, 36.1713553], [-95.9970109, 36.1713548], [-95.9970089, 36.1714209], [-95.9971989, 36.1714246], [-95.9971992, 36.1714137], [-95.9972243, 36.1714142], [-95.9972258, 36.1713622], [-95.9972008, 36.1713617], [-95.9972015, 36.1713398], [-95.9970347, 36.1713365]]]}, "properties": {"osm_id": 1256763258, "building": "detached", "name": "", "height": null, "height_m": null, "levels": null, "tract_id": "40143000900", "tract_name": "9", "tags": {"building": "detached"}}}, {"type": "Feature", "geometry": {"type": "Polygon", "coordinates": [[[-95.9939965, 36.1764295], [-95.994293, 36.1764284], [-95.9942919, 36.1762422], [-95.9941417, 36.1762427], [-95.9941416, 36.1762204], [-95.9941413, 36.1761648], [-95.9941735, 36.1761647], [-95.9941731, 36.1761041], [-95.9940616, 36.1761045], [-95.993921, 36.176105], [-95.9939213, 36.1761666], [-95.9940623, 36.1761661], [-95.9940662, 36.1761661], [-95.9940665, 36.1762176], [-95.9940666, 36.176243], [-95.9939954, 36.1762433], [-95.9939965, 36.1764295]]]}, "properties": {"osm_id": 1259751907, "building": "yes", "name": "TTCU Federal Credit Union", "height": null, "height_m": null, "levels": null, "tract_id": "40143000900", "tract_name": "9", "tags": {"amenity": "bank", "building": "yes", "name": "TTCU Federal Credit Union"}}}, {"type": "Feature", "geometry": {"type": "Polygon", "coordinates": [[[-95.9940901, 36.1679563], [-95.9939277, 36.167955], [-95.993927, 36.16802], [-95.9940893, 36.1680212], [-95.9940901, 36.1679563]]]}, "properties": {"osm_id": 1259751928, "building": "yes", "name": "", "height": null, "height_m": null, "levels": null, "tract_id": "40143000900", "tract_name": "9", "tags": {"building": "yes"}}}, {"type": "Feature", "geometry": {"type": "Polygon", "coordinates": [[[-95.9972376, 36.1675936], [-95.9972371, 36.167677], [-95.9970707, 36.1676763], [-95.9970706, 36.1676859], [-95.9970089, 36.1676856], [-95.997009, 36.167676], [-95.9969736, 36.1676759], [-95.9969741, 36.1675925], [-95.9972376, 36.1675936]]]}, "properties": {"osm_id": 1272894531, "building": "yes", "name": "", "height": null, "height_m": null, "levels": null, "tract_id": "40143000900", "tract_name": "9", "tags": {"building": "yes"}}}, {"type": "Feature", "geometry": {"type": "Polygon", "coordinates": [[[-95.9971599, 36.167809], [-95.9970009, 36.167809], [-95.9970009, 36.1678009], [-95.9969768, 36.1678009], [-95.9969768, 36.1677257], [-95.9970009, 36.1677257], [-95.9970009, 36.1677159], [-95.9971599, 36.1677159], [-95.9971599, 36.1677262], [-95.99719, 36.1677262], [-95.99719, 36.1677987], [-95.9971599, 36.1677987], [-95.9971599, 36.167809]]]}, "properties": {"osm_id": 1272894532, "building": "detached", "name": "", "height": null, "height_m": null, "levels": null, "tract_id": "40143000900", "tract_name": "9", "tags": {"building": "detached"}}}, {"type": "Feature", "geometry": {"type": "Polygon", "coordinates": [[[-95.9981751, 36.1672875], [-95.9983843, 36.1672867], [-95.9983838, 36.1671966], [-95.9981746, 36.1671974], [-95.9981751, 36.1672875]]]}, "properties": {"osm_id": 1272894599, "building": "yes", "name": "", "height": null, "height_m": null, "levels": null, "tract_id": "40143000900", "tract_name": "9", "tags": {"building": "yes"}}}, {"type": "Feature", "geometry": {"type": "Polygon", "coordinates": [[[-95.9983603, 36.1684446], [-95.9985561, 36.1684448], [-95.9985565, 36.168198], [-95.9984734, 36.1681979], [-95.9984736, 36.1680528], [-95.9981652, 36.1680525], [-95.9981651, 36.1680871], [-95.9981758, 36.1680871], [-95.9981757, 36.1681954], [-95.998342, 36.1681956], [-95.9983418, 36.1682627], [-95.9983606, 36.1682627], [-95.9983603, 36.1684446]]]}, "properties": {"osm_id": 1272894603, "building": "yes", "name": "Westminster Presbyterian Church", "height": null, "height_m": null, "levels": null, "tract_id": "40143000900", "tract_name": "9", "tags": {"amenity": "place_of_worship", "building": "yes", "denomination": "presbyterian", "ele": "234", "gnis:feature_id": "1790023", "name": "Westminster Presbyterian Church", "religion": "christian"}}}, {"type": "Feature", "geometry": {"type": "Polygon", "coordinates": [[[-95.9978317, 36.1650356], [-95.9976467, 36.1650334], [-95.997645, 36.1651287], [-95.99783, 36.1651309], [-95.9978317, 36.1650356]]]}, "properties": {"osm_id": 1272894604, "building": "detached", "name": "", "height": null, "height_m": null, "levels": null, "tract_id": "40143000900", "tract_name": "9", "tags": {"addr:city": "Tulsa", "addr:country": "US", "addr:housenumber": "723", "addr:postcode": "74106", "addr:state": "OK", "addr:street": "North Cheyenne Avenue West", "building": "detached"}}}, {"type": "Feature", "geometry": {"type": "Polygon", "coordinates": [[[-95.9995507, 36.1667904], [-95.9995491, 36.1668792], [-95.9997456, 36.1668816], [-95.9997473, 36.1667929], [-95.9995507, 36.1667904]]]}, "properties": {"osm_id": 1272894605, "building": "yes", "name": "", "height": null, "height_m": null, "levels": null, "tract_id": "40143000900", "tract_name": "9", "tags": {"building": "yes"}}}, {"type": "Feature", "geometry": {"type": "Polygon", "coordinates": [[[-95.9998057, 36.1656624], [-95.9995589, 36.1656602], [-95.9995578, 36.1657468], [-95.9998045, 36.165749], [-95.9998057, 36.1656624]]]}, "properties": {"osm_id": 1272894607, "building": "yes", "name": "", "height": null, "height_m": null, "levels": null, "tract_id": "40143000900", "tract_name": "9", "tags": {"building": "yes"}}}, {"type": "Feature", "geometry": {"type": "Polygon", "coordinates": [[[-95.9995596, 36.1657903], [-95.9995587, 36.1658834], [-95.9997518, 36.1658847], [-95.9997527, 36.1657916], [-95.9995596, 36.1657903]]]}, "properties": {"osm_id": 1272894610, "building": "yes", "name": "", "height": null, "height_m": null, "levels": null, "tract_id": "40143000900", "tract_name": "9", "tags": {"building": "yes"}}}, {"type": "Feature", "geometry": {"type": "Polygon", "coordinates": [[[-95.9983439, 36.1676862], [-95.9983438, 36.1676796], [-95.9983918, 36.1676795], [-95.9983916, 36.16761], [-95.9983436, 36.1676101], [-95.9983436, 36.1675996], [-95.9981964, 36.1675999], [-95.9981965, 36.1676085], [-95.9981749, 36.1676085], [-95.9981751, 36.1676767], [-95.9981967, 36.1676767], [-95.9981967, 36.1676865], [-95.9983439, 36.1676862]]]}, "properties": {"osm_id": 1272894611, "building": "yes", "name": "", "height": null, "height_m": null, "levels": null, "tract_id": "40143000900", "tract_name": "9", "tags": {"building": "yes"}}}, {"type": "Feature", "geometry": {"type": "Polygon", "coordinates": [[[-95.9999349, 36.1667446], [-95.9998705, 36.1667441], [-95.9998698, 36.1668003], [-95.9999342, 36.1668009], [-95.9999349, 36.1667446]]]}, "properties": {"osm_id": 1272894613, "building": "yes", "name": "", "height": null, "height_m": null, "levels": null, "tract_id": "40143000900", "tract_name": "9", "tags": {"building": "yes"}}}, {"type": "Feature", "geometry": {"type": "Polygon", "coordinates": [[[-95.997848, 36.1686488], [-95.9976844, 36.1686482], [-95.9976839, 36.1687456], [-95.9978475, 36.1687462], [-95.997848, 36.1686488]]]}, "properties": {"osm_id": 1272894614, "building": "yes", "name": "", "height": null, "height_m": null, "levels": null, "tract_id": "40143000900", "tract_name": "9", "tags": {"building": "yes"}}}, {"type": "Feature", "geometry": {"type": "Polygon", "coordinates": [[[-95.9974344, 36.1687545], [-95.9975899, 36.1687567], [-95.9975921, 36.1686549], [-95.9974366, 36.1686527], [-95.9974344, 36.1687545]]]}, "properties": {"osm_id": 1272894617, "building": "yes", "name": "", "height": null, "height_m": null, "levels": null, "tract_id": "40143000900", "tract_name": "9", "tags": {"building": "yes"}}}, {"type": "Feature", "geometry": {"type": "Polygon", "coordinates": [[[-95.9983437, 36.1686737], [-95.9982029, 36.1686731], [-95.9982023, 36.1687597], [-95.9983431, 36.1687603], [-95.9983437, 36.1686737]]]}, "properties": {"osm_id": 1272894618, "building": "yes", "name": "", "height": null, "height_m": null, "levels": null, "tract_id": "40143000900", "tract_name": "9", "tags": {"building": "yes"}}}, {"type": "Feature", "geometry": {"type": "Polygon", "coordinates": [[[-95.9978247, 36.1678088], [-95.9978253, 36.1677192], [-95.9976337, 36.1677184], [-95.9976331, 36.1678079], [-95.9978247, 36.1678088]]]}, "properties": {"osm_id": 1272894619, "building": "yes", "name": "", "height": null, "height_m": null, "levels": null, "tract_id": "40143000900", "tract_name": "9", "tags": {"building": "yes"}}}, {"type": "Feature", "geometry": {"type": "Polygon", "coordinates": [[[-95.9985817, 36.1677086], [-95.9985796, 36.167793], [-95.99864, 36.167794], [-95.9986421, 36.1677096], [-95.9985817, 36.1677086]]]}, "properties": {"osm_id": 1272894622, "building": "yes", "name": "", "height": null, "height_m": null, "levels": null, "tract_id": "40143000900", "tract_name": "9", "tags": {"building": "yes"}}}, {"type": "Feature", "geometry": {"type": "Polygon", "coordinates": [[[-95.9984832, 36.1687688], [-95.9986334, 36.1687708], [-95.9986359, 36.1686482], [-95.9984857, 36.1686462], [-95.9984832, 36.1687688]]]}, "properties": {"osm_id": 1272894623, "building": "yes", "name": "", "height": null, "height_m": null, "levels": null, "tract_id": "40143000900", "tract_name": "9", "tags": {"building": "yes", "shop": "yes"}}}, {"type": "Feature", "geometry": {"type": "Polygon", "coordinates": [[[-95.997191, 36.1684766], [-95.9971922, 36.1683909], [-95.9970059, 36.1683892], [-95.9970047, 36.1684749], [-95.997191, 36.1684766]]]}, "properties": {"osm_id": 1272894624, "building": "detached", "name": "", "height": null, "height_m": null, "levels": null, "tract_id": "40143000900", "tract_name": "9", "tags": {"building": "detached"}}}, {"type": "Feature", "geometry": {"type": "Polygon", "coordinates": [[[-95.9971612, 36.1679877], [-95.9970031, 36.1679858], [-95.9970011, 36.168094], [-95.9971593, 36.1680959], [-95.9971612, 36.1679877]]]}, "properties": {"osm_id": 1272894626, "building": "detached", "name": "", "height": null, "height_m": null, "levels": null, "tract_id": "40143000900", "tract_name": "9", "tags": {"building": "detached"}}}, {"type": "Feature", "geometry": {"type": "Polygon", "coordinates": [[[-95.9985752, 36.1684502], [-95.998574, 36.1685021], [-95.9986357, 36.168503], [-95.9986368, 36.1684511], [-95.9985752, 36.1684502]]]}, "properties": {"osm_id": 1272894628, "building": "yes", "name": "", "height": null, "height_m": null, "levels": null, "tract_id": "40143000900", "tract_name": "9", "tags": {"building": "yes"}}}, {"type": "Feature", "geometry": {"type": "Polygon", "coordinates": [[[-95.999604, 36.1661325], [-95.9996049, 36.1661], [-95.9995593, 36.1660993], [-95.9995561, 36.1662226], [-95.999741, 36.1662258], [-95.9997434, 36.1661349], [-95.999604, 36.1661325]]]}, "properties": {"osm_id": 1272894632, "building": "yes", "name": "", "height": null, "height_m": null, "levels": null, "tract_id": "40143000900", "tract_name": "9", "tags": {"building": "yes"}}}, {"type": "Feature", "geometry": {"type": "Polygon", "coordinates": [[[-95.9976273, 36.1645811], [-95.9974728, 36.1645827], [-95.9974735, 36.1646282], [-95.9976281, 36.1646265], [-95.9976273, 36.1645811]]]}, "properties": {"osm_id": 1272894635, "building": "yes", "name": "", "height": null, "height_m": null, "levels": null, "tract_id": "40143000900", "tract_name": "9", "tags": {"building": "yes"}}}, {"type": "Feature", "geometry": {"type": "Polygon", "coordinates": [[[-95.9995766, 36.1665028], [-95.9997032, 36.1665056], [-95.9997036, 36.1664941], [-95.99973, 36.1664947], [-95.9997322, 36.1664282], [-95.9997059, 36.1664276], [-95.9997063, 36.1664147], [-95.9995797, 36.1664119], [-95.9995766, 36.1665028]]]}, "properties": {"osm_id": 1272894636, "building": "yes", "name": "", "height": null, "height_m": null, "levels": null, "tract_id": "40143000900", "tract_name": "9", "tags": {"building": "yes"}}}, {"type": "Feature", "geometry": {"type": "Polygon", "coordinates": [[[-95.9984372, 36.1649259], [-95.9983005, 36.164926], [-95.9983007, 36.1650385], [-95.9984125, 36.1650384], [-95.9984124, 36.1650146], [-95.9984374, 36.1650146], [-95.9984372, 36.1649259]]]}, "properties": {"osm_id": 1272894639, "building": "detached", "name": "", "height": null, "height_m": null, "levels": null, "tract_id": "40143000900", "tract_name": "9", "tags": {"addr:city": "Tulsa", "addr:country": "US", "addr:housenumber": "718", "addr:postcode": "74106", "addr:state": "OK", "addr:street": "North Cheyenne Avenue West", "building": "detached"}}}, {"type": "Feature", "geometry": {"type": "Polygon", "coordinates": [[[-95.9971877, 36.1672725], [-95.9971854, 36.1671197], [-95.9970567, 36.167121], [-95.9970581, 36.1672122], [-95.9970233, 36.1672126], [-95.9970245, 36.167294], [-95.9971045, 36.1672932], [-95.9971042, 36.1672734], [-95.9971877, 36.1672725]]]}, "properties": {"osm_id": 1272894641, "building": "yes", "name": "", "height": null, "height_m": null, "levels": null, "tract_id": "40143000900", "tract_name": "9", "tags": {"building": "yes"}}}, {"type": "Feature", "geometry": {"type": "Polygon", "coordinates": [[[-95.997607, 36.1684982], [-95.9978347, 36.1684997], [-95.9978356, 36.1684023], [-95.9976079, 36.1684008], [-95.997607, 36.1684982]]]}, "properties": {"osm_id": 1272894643, "building": "yes", "name": "", "height": null, "height_m": null, "levels": null, "tract_id": "40143000900", "tract_name": "9", "tags": {"building": "yes"}}}, {"type": "Feature", "geometry": {"type": "Polygon", "coordinates": [[[-95.9995599, 36.1662654], [-95.9995587, 36.1663563], [-95.9997528, 36.166358], [-95.999754, 36.1662671], [-95.9995599, 36.1662654]]]}, "properties": {"osm_id": 1272894644, "building": "yes", "name": "", "height": null, "height_m": null, "levels": null, "tract_id": "40143000900", "tract_name": "9", "tags": {"building": "yes"}}}, {"type": "Feature", "geometry": {"type": "Polygon", "coordinates": [[[-95.9978002, 36.1670476], [-95.9976715, 36.1670468], [-95.9976706, 36.1671347], [-95.9978188, 36.1671357], [-95.9978194, 36.1670789], [-95.9977999, 36.1670788], [-95.9978002, 36.1670476]]]}, "properties": {"osm_id": 1272894645, "building": "yes", "name": "", "height": null, "height_m": null, "levels": null, "tract_id": "40143000900", "tract_name": "9", "tags": {"building": "yes"}}}, {"type": "Feature", "geometry": {"type": "Polygon", "coordinates": [[[-95.997212, 36.1685671], [-95.9972128, 36.168526], [-95.9970103, 36.1685236], [-95.9970089, 36.1685993], [-95.9971537, 36.1686011], [-95.9971543, 36.1685664], [-95.997212, 36.1685671]]]}, "properties": {"osm_id": 1272894646, "building": "detached", "name": "", "height": null, "height_m": null, "levels": null, "tract_id": "40143000900", "tract_name": "9", "tags": {"building": "detached"}}}, {"type": "Feature", "geometry": {"type": "Polygon", "coordinates": [[[-95.9972136, 36.1671514], [-95.9972872, 36.1671525], [-95.9972887, 36.1670919], [-95.9972151, 36.1670908], [-95.9972136, 36.1671514]]]}, "properties": {"osm_id": 1272894647, "building": "yes", "name": "", "height": null, "height_m": null, "levels": null, "tract_id": "40143000900", "tract_name": "9", "tags": {"building": "yes"}}}, {"type": "Feature", "geometry": {"type": "Polygon", "coordinates": [[[-95.9982492, 36.1646217], [-95.9984637, 36.1646236], [-95.998465, 36.1645298], [-95.9982505, 36.1645278], [-95.9982492, 36.1646217]]]}, "properties": {"osm_id": 1272894648, "building": "detached", "name": "", "height": null, "height_m": null, "levels": null, "tract_id": "40143000900", "tract_name": "9", "tags": {"addr:city": "Tulsa", "addr:country": "US", "addr:housenumber": "708", "addr:postcode": "74106", "addr:state": "OK", "addr:street": "North Cheyenne Avenue West", "building": "detached"}}}, {"type": "Feature", "geometry": {"type": "Polygon", "coordinates": [[[-95.9977914, 36.1672668], [-95.9977913, 36.1672542], [-95.9978124, 36.167254], [-95.9978119, 36.1671913], [-95.9977908, 36.1671914], [-95.9977907, 36.1671803], [-95.9976802, 36.1671808], [-95.9976809, 36.1672674], [-95.9977914, 36.1672668]]]}, "properties": {"osm_id": 1272894649, "building": "yes", "name": "", "height": null, "height_m": null, "levels": null, "tract_id": "40143000900", "tract_name": "9", "tags": {"building": "yes"}}}, {"type": "Feature", "geometry": {"type": "Polygon", "coordinates": [[[-95.9973046, 36.167779], [-95.9973872, 36.1677808], [-95.9973891, 36.1677245], [-95.9973065, 36.1677227], [-95.9973046, 36.167779]]]}, "properties": {"osm_id": 1272894652, "building": "yes", "name": "", "height": null, "height_m": null, "levels": null, "tract_id": "40143000900", "tract_name": "9", "tags": {"building": "yes"}}}, {"type": "Feature", "geometry": {"type": "Polygon", "coordinates": [[[-95.999886, 36.1661761], [-95.9999879, 36.1661748], [-95.9999864, 36.1660969], [-95.9998845, 36.1660982], [-95.999886, 36.1661761]]]}, "properties": {"osm_id": 1272894653, "building": "yes", "name": "", "height": null, "height_m": null, "levels": null, "tract_id": "40143000900", "tract_name": "9", "tags": {"building": "yes"}}}, {"type": "Feature", "geometry": {"type": "Polygon", "coordinates": [[[-95.9976677, 36.1644026], [-95.9976656, 36.1645899], [-95.9978158, 36.164591], [-95.9978179, 36.1644037], [-95.9978049, 36.1644036], [-95.9978052, 36.1643778], [-95.997712, 36.1643771], [-95.9977117, 36.164403], [-95.9976677, 36.1644026]]]}, "properties": {"osm_id": 1272894655, "building": "detached", "name": "", "height": null, "height_m": null, "levels": null, "tract_id": "40143000900", "tract_name": "9", "tags": {"addr:city": "Tulsa", "addr:country": "US", "addr:housenumber": "701", "addr:postcode": "74106", "addr:state": "OK", "addr:street": "North Cheyenne Avenue West", "building": "detached"}}}, {"type": "Feature", "geometry": {"type": "Polygon", "coordinates": [[[-95.9969966, 36.1681393], [-95.9969956, 36.1682129], [-95.9971712, 36.1682144], [-95.9971722, 36.1681408], [-95.9969966, 36.1681393]]]}, "properties": {"osm_id": 1272894657, "building": "detached", "name": "", "height": null, "height_m": null, "levels": null, "tract_id": "40143000900", "tract_name": "9", "tags": {"building": "detached"}}}, {"type": "Feature", "geometry": {"type": "Polygon", "coordinates": [[[-95.9982023, 36.1671621], [-95.9984203, 36.1671595], [-95.9984185, 36.1670621], [-95.9982006, 36.1670647], [-95.9982007, 36.1670706], [-95.99817, 36.167071], [-95.9981715, 36.1671544], [-95.9982022, 36.167154], [-95.9982023, 36.1671621]]]}, "properties": {"osm_id": 1272894659, "building": "yes", "name": "", "height": null, "height_m": null, "levels": null, "tract_id": "40143000900", "tract_name": "9", "tags": {"building": "yes"}}}, {"type": "Feature", "geometry": {"type": "Polygon", "coordinates": [[[-95.9971964, 36.168666], [-95.9970126, 36.168664], [-95.9970113, 36.1687376], [-95.9971951, 36.1687396], [-95.9971964, 36.168666]]]}, "properties": {"osm_id": 1272894660, "building": "detached", "name": "", "height": null, "height_m": null, "levels": null, "tract_id": "40143000900", "tract_name": "9", "tags": {"building": "detached"}}}, {"type": "Feature", "geometry": {"type": "Polygon", "coordinates": [[[-95.9978065, 36.16475], [-95.9978067, 36.1647417], [-95.9978314, 36.1647421], [-95.9978331, 36.1646756], [-95.9978084, 36.1646752], [-95.9978087, 36.1646612], [-95.9976521, 36.1646586], [-95.9976499, 36.1647474], [-95.9978065, 36.16475]]]}, "properties": {"osm_id": 1272894661, "building": "detached", "name": "", "height": null, "height_m": null, "levels": null, "tract_id": "40143000900", "tract_name": "9", "tags": {"addr:city": "Tulsa", "addr:country": "US", "addr:housenumber": "709", "addr:postcode": "74106", "addr:state": "OK", "addr:street": "North Cheyenne Avenue West", "building": "detached"}}}, {"type": "Feature", "geometry": {"type": "Polygon", "coordinates": [[[-95.9976327, 36.1680872], [-95.9978245, 36.1680899], [-95.9978262, 36.1680054], [-95.9976344, 36.1680028], [-95.9976327, 36.1680872]]]}, "properties": {"osm_id": 1272894662, "building": "detached", "name": "", "height": null, "height_m": null, "levels": null, "tract_id": "40143000900", "tract_name": "9", "tags": {"building": "detached"}}}, {"type": "Feature", "geometry": {"type": "Polygon", "coordinates": [[[-95.9978026, 36.1685345], [-95.9975491, 36.1685358], [-95.9975497, 36.168621], [-95.9978032, 36.1686197], [-95.9978026, 36.1685345]]]}, "properties": {"osm_id": 1272894665, "building": "yes", "name": "", "height": null, "height_m": null, "levels": null, "tract_id": "40143000900", "tract_name": "9", "tags": {"building": "yes"}}}, {"type": "Feature", "geometry": {"type": "Polygon", "coordinates": [[[-95.9976559, 36.1674685], [-95.9976542, 36.1675601], [-95.9978037, 36.1675619], [-95.9978038, 36.1675535], [-95.9978282, 36.1675538], [-95.9978296, 36.1674764], [-95.9978052, 36.1674761], [-95.9978054, 36.1674703], [-95.9976559, 36.1674685]]]}, "properties": {"osm_id": 1272894667, "building": "yes", "name": "", "height": null, "height_m": null, "levels": null, "tract_id": "40143000900", "tract_name": "9", "tags": {"building": "yes"}}}, {"type": "Feature", "geometry": {"type": "Polygon", "coordinates": [[[-95.9978267, 36.1675966], [-95.9976658, 36.1675953], [-95.9976647, 36.1676797], [-95.9978256, 36.167681], [-95.9978267, 36.1675966]]]}, "properties": {"osm_id": 1272894669, "building": "yes", "name": "", "height": null, "height_m": null, "levels": null, "tract_id": "40143000900", "tract_name": "9", "tags": {"building": "yes"}}}, {"type": "Feature", "geometry": {"type": "Polygon", "coordinates": [[[-95.9981727, 36.1674166], [-95.9984141, 36.1674164], [-95.9984139, 36.1673212], [-95.9981726, 36.1673214], [-95.9981727, 36.1674166]]]}, "properties": {"osm_id": 1272894670, "building": "yes", "name": "", "height": null, "height_m": null, "levels": null, "tract_id": "40143000900", "tract_name": "9", "tags": {"building": "yes"}}}, {"type": "Feature", "geometry": {"type": "Polygon", "coordinates": [[[-95.9997945, 36.1660592], [-95.9997957, 36.1659509], [-95.9995908, 36.1659495], [-95.9995896, 36.1660578], [-95.9997945, 36.1660592]]]}, "properties": {"osm_id": 1272894671, "building": "yes", "name": "", "height": null, "height_m": null, "levels": null, "tract_id": "40143000900", "tract_name": "9", "tags": {"building": "yes"}}}, {"type": "Feature", "geometry": {"type": "Polygon", "coordinates": [[[-95.9984511, 36.1648115], [-95.9982743, 36.1648103], [-95.9982743, 36.1648172], [-95.9982514, 36.164817], [-95.9982505, 36.1649014], [-95.9982701, 36.1649015], [-95.9982701, 36.1649077], [-95.9984501, 36.1649089], [-95.9984511, 36.1648115]]]}, "properties": {"osm_id": 1272894672, "building": "detached", "name": "", "height": null, "height_m": null, "levels": null, "tract_id": "40143000900", "tract_name": "9", "tags": {"addr:city": "Tulsa", "addr:country": "US", "addr:housenumber": "716", "addr:postcode": "74106", "addr:state": "OK", "addr:street": "North Cheyenne Avenue West", "building": "detached"}}}, {"type": "Feature", "geometry": {"type": "Polygon", "coordinates": [[[-95.9981682, 36.167813], [-95.9983813, 36.1678175], [-95.9983843, 36.1677252], [-95.9981712, 36.1677207], [-95.9981682, 36.167813]]]}, "properties": {"osm_id": 1272894673, "building": "yes", "name": "", "height": null, "height_m": null, "levels": null, "tract_id": "40143000900", "tract_name": "9", "tags": {"building": "yes"}}}, {"type": "Feature", "geometry": {"type": "Polygon", "coordinates": [[[-95.9978317, 36.1681326], [-95.9976439, 36.1681314], [-95.997643, 36.1682289], [-95.9978308, 36.16823], [-95.9978317, 36.1681326]]]}, "properties": {"osm_id": 1272894674, "building": "detached", "name": "", "height": null, "height_m": null, "levels": null, "tract_id": "40143000900", "tract_name": "9", "tags": {"building": "detached"}}}, {"type": "Feature", "geometry": {"type": "Polygon", "coordinates": [[[-95.9975763, 36.1649677], [-95.9978294, 36.1649698], [-95.9978307, 36.1648737], [-95.9977626, 36.1648731], [-95.997763, 36.1648415], [-95.9975378, 36.1648396], [-95.9975367, 36.1649189], [-95.997577, 36.1649192], [-95.9975763, 36.1649677]]]}, "properties": {"osm_id": 1272894675, "building": "detached", "name": "", "height": null, "height_m": null, "levels": null, "tract_id": "40143000900", "tract_name": "9", "tags": {"addr:city": "Tulsa", "addr:country": "US", "addr:housenumber": "715", "addr:postcode": "74106", "addr:state": "OK", "addr:street": "North Cheyenne Avenue West", "building": "detached"}}}, {"type": "Feature", "geometry": {"type": "Polygon", "coordinates": [[[-95.998172, 36.1675585], [-95.9983517, 36.1675585], [-95.9983516, 36.1674741], [-95.9981719, 36.1674741], [-95.998172, 36.1675585]]]}, "properties": {"osm_id": 1272894676, "building": "yes", "name": "", "height": null, "height_m": null, "levels": null, "tract_id": "40143000900", "tract_name": "9", "tags": {"building": "yes"}}}, {"type": "Feature", "geometry": {"type": "Polygon", "coordinates": [[[-95.9995807, 36.1656117], [-95.9996945, 36.1656151], [-95.9996982, 36.1655359], [-95.9995843, 36.1655325], [-95.9995807, 36.1656117]]]}, "properties": {"osm_id": 1272894677, "building": "yes", "name": "", "height": null, "height_m": null, "levels": null, "tract_id": "40143000900", "tract_name": "9", "tags": {"building": "yes"}}}, {"type": "Feature", "geometry": {"type": "Polygon", "coordinates": [[[-95.9984794, 36.1647659], [-95.9984808, 36.1646584], [-95.998282, 36.1646567], [-95.9982819, 36.1646644], [-95.9982496, 36.1646641], [-95.9982484, 36.1647578], [-95.9982807, 36.164758], [-95.9982806, 36.1647642], [-95.9984794, 36.1647659]]]}, "properties": {"osm_id": 1272894679, "building": "detached", "name": "", "height": null, "height_m": null, "levels": null, "tract_id": "40143000900", "tract_name": "9", "tags": {"addr:city": "Tulsa", "addr:country": "US", "addr:housenumber": "712", "addr:postcode": "74106", "addr:state": "OK", "addr:street": "North Cheyenne Avenue West", "building": "detached"}}}, {"type": "Feature", "geometry": {"type": "Polygon", "coordinates": [[[-95.9974343, 36.1681626], [-95.9975201, 36.1681631], [-95.9975206, 36.1681025], [-95.9974348, 36.168102], [-95.9974343, 36.1681626]]]}, "properties": {"osm_id": 1272894681, "building": "yes", "name": "", "height": null, "height_m": null, "levels": null, "tract_id": "40143000900", "tract_name": "9", "tags": {"building": "yes"}}}, {"type": "Feature", "geometry": {"type": "Polygon", "coordinates": [[[-95.9978288, 36.1673228], [-95.9976464, 36.1673222], [-95.997646, 36.167404], [-95.9978284, 36.1674046], [-95.9978288, 36.1673228]]]}, "properties": {"osm_id": 1272894683, "building": "yes", "name": "", "height": null, "height_m": null, "levels": null, "tract_id": "40143000900", "tract_name": "9", "tags": {"building": "yes"}}}, {"type": "Feature", "geometry": {"type": "Polygon", "coordinates": [[[-95.9974285, 36.168441], [-95.9975048, 36.1684424], [-95.9975068, 36.1683724], [-95.9974305, 36.1683709], [-95.9974285, 36.168441]]]}, "properties": {"osm_id": 1272894684, "building": "yes", "name": "", "height": null, "height_m": null, "levels": null, "tract_id": "40143000900", "tract_name": "9", "tags": {"building": "yes"}}}, {"type": "Feature", "geometry": {"type": "Polygon", "coordinates": [[[-95.9976047, 36.1678056], [-95.9976048, 36.1677723], [-95.9975529, 36.1677722], [-95.9975531, 36.1677195], [-95.9974378, 36.1677193], [-95.9974376, 36.1677821], [-95.9975354, 36.1677822], [-95.9975353, 36.1678055], [-95.9976047, 36.1678056]]]}, "properties": {"osm_id": 1272894685, "building": "yes", "name": "", "height": null, "height_m": null, "levels": null, "tract_id": "40143000900", "tract_name": "9", "tags": {"building": "yes"}}}, {"type": "Feature", "geometry": {"type": "Polygon", "coordinates": [[[-95.9991583, 36.1680506], [-95.9989601, 36.1680447], [-95.9989549, 36.1681576], [-95.9988724, 36.1681551], [-95.9988692, 36.1682261], [-95.9988578, 36.1682257], [-95.9988549, 36.1682886], [-95.9988736, 36.1682892], [-95.9988724, 36.1683152], [-95.9989744, 36.1683183], [-95.9989754, 36.1682972], [-95.9990665, 36.1682999], [-95.999068, 36.1682666], [-95.9991483, 36.168269], [-95.9991583, 36.1680506]]]}, "properties": {"osm_id": 1272949457, "building": "yes", "name": "", "height": null, "height_m": null, "levels": null, "tract_id": "40143000900", "tract_name": "9", "tags": {"building": "yes"}}}, {"type": "Feature", "geometry": {"type": "Polygon", "coordinates": [[[-95.9988599, 36.168772], [-95.9989967, 36.1687701], [-95.9989936, 36.1686251], [-95.9988569, 36.1686269], [-95.9988599, 36.168772]]]}, "properties": {"osm_id": 1272949458, "building": "yes", "name": "", "height": null, "height_m": null, "levels": null, "tract_id": "40143000900", "tract_name": "9", "tags": {"building": "yes"}}}, {"type": "Feature", "geometry": {"type": "Polygon", "coordinates": [[[-95.9990131, 36.1687696], [-95.9991833, 36.1687724], [-95.9991858, 36.1686698], [-95.9990156, 36.1686671], [-95.9990131, 36.1687696]]]}, "properties": {"osm_id": 1272949460, "building": "yes", "name": "", "height": null, "height_m": null, "levels": null, "tract_id": "40143000900", "tract_name": "9", "tags": {"building": "yes"}}}, {"type": "Feature", "geometry": {"type": "Polygon", "coordinates": [[[-95.9991843, 36.1686466], [-95.9991865, 36.1685456], [-95.9990001, 36.168543], [-95.9989979, 36.1686439], [-95.9991843, 36.1686466]]]}, "properties": {"osm_id": 1272949461, "building": "yes", "name": "", "height": null, "height_m": null, "levels": null, "tract_id": "40143000900", "tract_name": "9", "tags": {"building": "yes"}}}, {"type": "Feature", "geometry": {"type": "Polygon", "coordinates": [[[-95.9989974, 36.168381], [-95.9989971, 36.1684048], [-95.9989384, 36.1684043], [-95.9989376, 36.1684671], [-95.9989977, 36.1684676], [-95.9989974, 36.1684901], [-95.9991591, 36.1684914], [-95.9991596, 36.1684527], [-95.9991912, 36.1684529], [-95.999192, 36.1683928], [-95.9991603, 36.1683926], [-95.9991605, 36.1683824], [-95.9989974, 36.168381]]]}, "properties": {"osm_id": 1272949463, "building": "yes", "name": "", "height": null, "height_m": null, "levels": null, "tract_id": "40143000900", "tract_name": "9", "tags": {"building": "yes"}}}, {"type": "Feature", "geometry": {"type": "Polygon", "coordinates": [[[-95.9986878, 36.1683801], [-95.9987977, 36.1683801], [-95.9987978, 36.1682654], [-95.9986878, 36.1682653], [-95.9986878, 36.1683801]]]}, "properties": {"osm_id": 1272949464, "building": "yes", "name": "", "height": null, "height_m": null, "levels": null, "tract_id": "40143000900", "tract_name": "9", "tags": {"building": "yes"}}}, {"type": "Feature", "geometry": {"type": "Polygon", "coordinates": [[[-95.9978022, 36.1690654], [-95.9978022, 36.169151], [-95.9976547, 36.169151], [-95.9976547, 36.1690654], [-95.9978022, 36.1690654]]]}, "properties": {"osm_id": 1273179842, "building": "detached", "name": "", "height": null, "height_m": null, "levels": null, "tract_id": "40143000900", "tract_name": "9", "tags": {"building": "detached"}}}, {"type": "Feature", "geometry": {"type": "Polygon", "coordinates": [[[-95.9999862, 36.1671632], [-95.9999433, 36.1671635], [-95.999942, 36.1670515], [-95.9999849, 36.1670512], [-95.9999862, 36.1671632]]]}, "properties": {"osm_id": 1273179844, "building": "yes", "name": "", "height": null, "height_m": null, "levels": null, "tract_id": "40143000900", "tract_name": "9", "tags": {"building": "yes"}}}, {"type": "Feature", "geometry": {"type": "Polygon", "coordinates": [[[-95.994707, 36.1694325], [-95.9947372, 36.1694322], [-95.9947369, 36.1694077], [-95.9948053, 36.1694071], [-95.9948056, 36.1694317], [-95.994825, 36.1694315], [-95.9948263, 36.1695414], [-95.9947908, 36.1695417], [-95.994791, 36.1695602], [-95.9947213, 36.1695608], [-95.9947211, 36.1695422], [-95.9947083, 36.1695424], [-95.994707, 36.1694325]]]}, "properties": {"osm_id": 1273179847, "building": "detached", "name": "", "height": null, "height_m": null, "levels": null, "tract_id": "40143000900", "tract_name": "9", "tags": {"building": "detached"}}}, {"type": "Feature", "geometry": {"type": "Polygon", "coordinates": [[[-95.9953105, 36.1693962], [-95.9954365, 36.1693962], [-95.9954365, 36.1695424], [-95.995395, 36.1695424], [-95.995395, 36.1695234], [-95.9953755, 36.1695234], [-95.9953755, 36.1695651], [-95.9953105, 36.1695651], [-95.9953105, 36.1693962]]]}, "properties": {"osm_id": 1273179848, "building": "construction", "name": "", "height": null, "height_m": null, "levels": null, "tract_id": "40143000900", "tract_name": "9", "tags": {"building": "construction", "construction": "detached"}}}, {"type": "Feature", "geometry": {"type": "Polygon", "coordinates": [[[-95.9961721, 36.1694649], [-95.9961721, 36.1695353], [-95.9961017, 36.1695353], [-95.9961017, 36.1695516], [-95.9958643, 36.1695516], [-95.9958643, 36.1694649], [-95.9961721, 36.1694649]]]}, "properties": {"osm_id": 1273179850, "building": "detached", "name": "", "height": null, "height_m": null, "levels": null, "tract_id": "40143000900", "tract_name": "9", "tags": {"building": "detached"}}}, {"type": "Feature", "geometry": {"type": "Polygon", "coordinates": [[[-95.9961192, 36.1693161], [-95.9961194, 36.1693778], [-95.9960776, 36.1693779], [-95.9960777, 36.1694147], [-95.9958667, 36.1694151], [-95.9958664, 36.1693166], [-95.9961192, 36.1693161]]]}, "properties": {"osm_id": 1273179851, "building": "detached", "name": "", "height": null, "height_m": null, "levels": null, "tract_id": "40143000900", "tract_name": "9", "tags": {"building": "detached"}}}, {"type": "Feature", "geometry": {"type": "Polygon", "coordinates": [[[-95.9951251, 36.1691394], [-95.9951291, 36.1689651], [-95.9952719, 36.1689673], [-95.9952679, 36.1691416], [-95.9952518, 36.1691413], [-95.9952511, 36.1691701], [-95.9952129, 36.1691695], [-95.9952136, 36.1691408], [-95.9951251, 36.1691394]]]}, "properties": {"osm_id": 1273179852, "building": "detached", "name": "", "height": null, "height_m": null, "levels": null, "tract_id": "40143000900", "tract_name": "9", "tags": {"building": "detached"}}}, {"type": "Feature", "geometry": {"type": "Polygon", "coordinates": [[[-95.9947854, 36.1691401], [-95.9947895, 36.1689658], [-95.9949323, 36.168968], [-95.9949283, 36.1691423], [-95.9949122, 36.1691421], [-95.9949115, 36.1691708], [-95.9948733, 36.1691702], [-95.9948739, 36.1691415], [-95.9947854, 36.1691401]]]}, "properties": {"osm_id": 1273179853, "building": "detached", "name": "", "height": null, "height_m": null, "levels": null, "tract_id": "40143000900", "tract_name": "9", "tags": {"building": "detached"}}}, {"type": "Feature", "geometry": {"type": "Polygon", "coordinates": [[[-95.9949622, 36.1691571], [-95.9949648, 36.1689682], [-95.9950942, 36.1689694], [-95.9950915, 36.1691583], [-95.9949622, 36.1691571]]]}, "properties": {"osm_id": 1273179854, "building": "detached", "name": "", "height": null, "height_m": null, "levels": null, "tract_id": "40143000900", "tract_name": "9", "tags": {"building": "detached"}}}, {"type": "Feature", "geometry": {"type": "Polygon", "coordinates": [[[-95.9946205, 36.1691564], [-95.9946232, 36.1689675], [-95.9947525, 36.1689687], [-95.9947498, 36.1691576], [-95.9946205, 36.1691564]]]}, "properties": {"osm_id": 1273179855, "building": "detached", "name": "", "height": null, "height_m": null, "levels": null, "tract_id": "40143000900", "tract_name": "9", "tags": {"building": "detached"}}}, {"type": "Feature", "geometry": {"type": "Polygon", "coordinates": [[[-95.9986411, 36.1655094], [-95.9985161, 36.1655087], [-95.9985171, 36.1654028], [-95.998642, 36.1654035], [-95.9986411, 36.1655094]]]}, "properties": {"osm_id": 1273179856, "building": "yes", "name": "", "height": null, "height_m": null, "levels": null, "tract_id": "40143000900", "tract_name": "9", "tags": {"building": "yes"}}}, {"type": "Feature", "geometry": {"type": "Polygon", "coordinates": [[[-95.9983554, 36.1614801], [-95.9983554, 36.1613436], [-95.9985231, 36.1613436], [-95.9985231, 36.1614801], [-95.9983554, 36.1614801]]]}, "properties": {"osm_id": 1273179857, "building": "yes", "name": "", "height": null, "height_m": null, "levels": null, "tract_id": "40143000900", "tract_name": "9", "tags": {"building": "yes"}}}, {"type": "Feature", "geometry": {"type": "Polygon", "coordinates": [[[-95.9995474, 36.1684966], [-95.9997042, 36.1684981], [-95.9997054, 36.1684145], [-95.9995486, 36.168413], [-95.9995474, 36.1684966]]]}, "properties": {"osm_id": 1273179859, "building": "detached", "name": "", "height": null, "height_m": null, "levels": null, "tract_id": "40143000900", "tract_name": "9", "tags": {"building": "detached"}}}, {"type": "Feature", "geometry": {"type": "Polygon", "coordinates": [[[-95.9995976, 36.1670537], [-95.9995978, 36.1670911], [-95.9995685, 36.1670912], [-95.9995685, 36.1670971], [-95.9995442, 36.1670972], [-95.9995446, 36.1671502], [-95.9995704, 36.1671501], [-95.9995705, 36.1671707], [-95.9997772, 36.1671698], [-95.9997769, 36.1671333], [-95.9997536, 36.1671334], [-95.9997531, 36.167053], [-95.9995976, 36.1670537]]]}, "properties": {"osm_id": 1273179861, "building": "detached", "name": "", "height": null, "height_m": null, "levels": null, "tract_id": "40143000900", "tract_name": "9", "tags": {"building": "detached"}}}, {"type": "Feature", "geometry": {"type": "Polygon", "coordinates": [[[-95.9989948, 36.1674783], [-95.9989965, 36.167567], [-95.9991949, 36.1675646], [-95.9991932, 36.1674758], [-95.9989948, 36.1674783]]]}, "properties": {"osm_id": 1273179863, "building": "detached", "name": "", "height": null, "height_m": null, "levels": null, "tract_id": "40143000900", "tract_name": "9", "tags": {"building": "detached"}}}, {"type": "Feature", "geometry": {"type": "Polygon", "coordinates": [[[-95.9989514, 36.1662673], [-95.9989532, 36.1663604], [-95.9991919, 36.1663573], [-95.99919, 36.1662642], [-95.9989514, 36.1662673]]]}, "properties": {"osm_id": 1273179864, "building": "detached", "name": "", "height": null, "height_m": null, "levels": null, "tract_id": "40143000900", "tract_name": "9", "tags": {"building": "detached"}}}, {"type": "Feature", "geometry": {"type": "Polygon", "coordinates": [[[-95.9987765, 36.1663239], [-95.9988596, 36.1663243], [-95.9988602, 36.1662442], [-95.9987771, 36.1662438], [-95.9987765, 36.1663239]]]}, "properties": {"osm_id": 1273179865, "building": "yes", "name": "", "height": null, "height_m": null, "levels": null, "tract_id": "40143000900", "tract_name": "9", "tags": {"building": "yes"}}}, {"type": "Feature", "geometry": {"type": "Polygon", "coordinates": [[[-95.9995563, 36.1673375], [-95.9995579, 36.1674249], [-95.9997724, 36.1674224], [-95.9997708, 36.167335], [-95.9995563, 36.1673375]]]}, "properties": {"osm_id": 1273179870, "building": "detached", "name": "", "height": null, "height_m": null, "levels": null, "tract_id": "40143000900", "tract_name": "9", "tags": {"building": "detached"}}}, {"type": "Feature", "geometry": {"type": "Polygon", "coordinates": [[[-95.9974585, 36.1662675], [-95.997457, 36.1663614], [-95.9975374, 36.1663622], [-95.9975389, 36.1662684], [-95.9974585, 36.1662675]]]}, "properties": {"osm_id": 1273179874, "building": "yes", "name": "", "height": null, "height_m": null, "levels": null, "tract_id": "40143000900", "tract_name": "9", "tags": {"building": "yes"}}}, {"type": "Feature", "geometry": {"type": "Polygon", "coordinates": [[[-95.9999121, 36.167579], [-95.9999845, 36.1675786], [-95.9999839, 36.1675094], [-95.9999115, 36.1675098], [-95.9999121, 36.167579]]]}, "properties": {"osm_id": 1273179875, "building": "yes", "name": "", "height": null, "height_m": null, "levels": null, "tract_id": "40143000900", "tract_name": "9", "tags": {"building": "yes"}}}, {"type": "Feature", "geometry": {"type": "Polygon", "coordinates": [[[-95.9995735, 36.1675617], [-95.999727, 36.1675613], [-95.9997264, 36.1674409], [-95.9995729, 36.1674413], [-95.999573, 36.1674685], [-95.9995482, 36.1674686], [-95.9995486, 36.1675455], [-95.9995734, 36.1675454], [-95.9995735, 36.1675617]]]}, "properties": {"osm_id": 1273179877, "building": "detached", "name": "", "height": null, "height_m": null, "levels": null, "tract_id": "40143000900", "tract_name": "9", "tags": {"building": "detached"}}}, {"type": "Feature", "geometry": {"type": "Polygon", "coordinates": [[[-95.9976626, 36.1662047], [-95.9978379, 36.1662055], [-95.9978386, 36.1661099], [-95.9976382, 36.166109], [-95.9976378, 36.1661588], [-95.9976629, 36.1661589], [-95.9976626, 36.1662047]]]}, "properties": {"osm_id": 1273179882, "building": "detached", "name": "", "height": null, "height_m": null, "levels": null, "tract_id": "40143000900", "tract_name": "9", "tags": {"building": "detached"}}}, {"type": "Feature", "geometry": {"type": "Polygon", "coordinates": [[[-95.9974552, 36.1654654], [-95.9975313, 36.1654649], [-95.9975307, 36.165387], [-95.9974546, 36.1653874], [-95.9974552, 36.1654654]]]}, "properties": {"osm_id": 1273179883, "building": "garage", "name": "", "height": null, "height_m": null, "levels": null, "tract_id": "40143000900", "tract_name": "9", "tags": {"building": "garage"}}}, {"type": "Feature", "geometry": {"type": "Polygon", "coordinates": [[[-95.9989817, 36.166744], [-95.9991801, 36.1667457], [-95.9991813, 36.1666548], [-95.9989829, 36.1666531], [-95.9989817, 36.166744]]]}, "properties": {"osm_id": 1273179886, "building": "detached", "name": "", "height": null, "height_m": null, "levels": null, "tract_id": "40143000900", "tract_name": "9", "tags": {"building": "detached"}}}, {"type": "Feature", "geometry": {"type": "Polygon", "coordinates": [[[-95.9976241, 36.1689306], [-95.9976238, 36.1690194], [-95.9978007, 36.1690198], [-95.9978007, 36.1690054], [-95.997825, 36.1690054], [-95.9978252, 36.168941], [-95.9978009, 36.1689409], [-95.997801, 36.1689114], [-95.9977004, 36.1689112], [-95.9977003, 36.1689307], [-95.9976241, 36.1689306]]]}, "properties": {"osm_id": 1273179887, "building": "detached", "name": "", "height": null, "height_m": null, "levels": null, "tract_id": "40143000900", "tract_name": "9", "tags": {"building": "detached"}}}, {"type": "Feature", "geometry": {"type": "Polygon", "coordinates": [[[-95.9983766, 36.1694141], [-95.9983758, 36.1693289], [-95.9982026, 36.1693301], [-95.9982026, 36.1693359], [-95.998172, 36.1693362], [-95.9981728, 36.1694109], [-95.9982039, 36.1694106], [-95.9982039, 36.1694153], [-95.9983766, 36.1694141]]]}, "properties": {"osm_id": 1273179889, "building": "detached", "name": "", "height": null, "height_m": null, "levels": null, "tract_id": "40143000900", "tract_name": "9", "tags": {"building": "detached"}}}, {"type": "Feature", "geometry": {"type": "Polygon", "coordinates": [[[-95.9974225, 36.1693034], [-95.997511, 36.1693025], [-95.9975101, 36.1692483], [-95.9974216, 36.1692493], [-95.9974225, 36.1693034]]]}, "properties": {"osm_id": 1273179890, "building": "garage", "name": "", "height": null, "height_m": null, "levels": null, "tract_id": "40143000900", "tract_name": "9", "tags": {"building": "garage"}}}, {"type": "Feature", "geometry": {"type": "Polygon", "coordinates": [[[-95.9983534, 36.1691904], [-95.9982009, 36.1691891], [-95.9982008, 36.1691976], [-95.9981744, 36.1691973], [-95.9981734, 36.1692736], [-95.9981998, 36.1692738], [-95.9981997, 36.1692822], [-95.9983522, 36.1692835], [-95.9983534, 36.1691904]]]}, "properties": {"osm_id": 1273179891, "building": "detached", "name": "", "height": null, "height_m": null, "levels": null, "tract_id": "40143000900", "tract_name": "9", "tags": {"building": "detached"}}}, {"type": "Feature", "geometry": {"type": "Polygon", "coordinates": [[[-95.9978423, 36.1666452], [-95.9976948, 36.1666448], [-95.9976946, 36.1666944], [-95.9976789, 36.1666944], [-95.9976788, 36.1667301], [-95.9976944, 36.1667301], [-95.9976942, 36.1667617], [-95.9978417, 36.1667621], [-95.9978423, 36.1666452]]]}, "properties": {"osm_id": 1273179894, "building": "detached", "name": "", "height": null, "height_m": null, "levels": null, "tract_id": "40143000900", "tract_name": "9", "tags": {"building": "detached"}}}, {"type": "Feature", "geometry": {"type": "Polygon", "coordinates": [[[-95.998954, 36.1670712], [-95.998954, 36.1671491], [-95.9991807, 36.1671492], [-95.9991808, 36.1670562], [-95.9989851, 36.167056], [-95.9989851, 36.1670712], [-95.998954, 36.1670712]]]}, "properties": {"osm_id": 1273179895, "building": "detached", "name": "", "height": null, "height_m": null, "levels": null, "tract_id": "40143000900", "tract_name": "9", "tags": {"building": "detached"}}}, {"type": "Feature", "geometry": {"type": "Polygon", "coordinates": [[[-95.9989847, 36.1658721], [-95.9991938, 36.1658742], [-95.9991951, 36.165792], [-95.998986, 36.1657898], [-95.9989847, 36.1658721]]]}, "properties": {"osm_id": 1273179896, "building": "detached", "name": "", "height": null, "height_m": null, "levels": null, "tract_id": "40143000900", "tract_name": "9", "tags": {"building": "detached"}}}, {"type": "Feature", "geometry": {"type": "Polygon", "coordinates": [[[-95.9989879, 36.1672727], [-95.9991715, 36.1672734], [-95.9991721, 36.167186], [-95.9989885, 36.1671852], [-95.9989879, 36.1672727]]]}, "properties": {"osm_id": 1273179897, "building": "detached", "name": "", "height": null, "height_m": null, "levels": null, "tract_id": "40143000900", "tract_name": "9", "tags": {"building": "detached"}}}, {"type": "Feature", "geometry": {"type": "Polygon", "coordinates": [[[-95.999558, 36.1691601], [-95.9997565, 36.1691597], [-95.9997562, 36.1690701], [-95.9995577, 36.1690705], [-95.999558, 36.1691601]]]}, "properties": {"osm_id": 1273179898, "building": "detached", "name": "", "height": null, "height_m": null, "levels": null, "tract_id": "40143000900", "tract_name": "9", "tags": {"building": "detached"}}}, {"type": "Feature", "geometry": {"type": "Polygon", "coordinates": [[[-95.9982258, 36.1662059], [-95.9984028, 36.166207], [-95.9984036, 36.1661183], [-95.9982266, 36.1661172], [-95.9982258, 36.1662059]]]}, "properties": {"osm_id": 1273179899, "building": "yes", "name": "", "height": null, "height_m": null, "levels": null, "tract_id": "40143000900", "tract_name": "9", "tags": {"building": "yes"}}}, {"type": "Feature", "geometry": {"type": "Polygon", "coordinates": [[[-95.9995358, 36.168229], [-95.9996844, 36.1682307], [-95.9996846, 36.1682209], [-95.9997063, 36.1682212], [-95.9997071, 36.1681724], [-95.9996869, 36.1681722], [-95.9996875, 36.1681398], [-95.9995373, 36.1681381], [-95.9995358, 36.168229]]]}, "properties": {"osm_id": 1273179901, "building": "detached", "name": "", "height": null, "height_m": null, "levels": null, "tract_id": "40143000900", "tract_name": "9", "tags": {"building": "detached"}}}, {"type": "Feature", "geometry": {"type": "Polygon", "coordinates": [[[-95.9978365, 36.1662618], [-95.9976703, 36.1662617], [-95.9976702, 36.166334], [-95.9978365, 36.1663341], [-95.9978365, 36.1662618]]]}, "properties": {"osm_id": 1273179903, "building": "detached", "name": "", "height": null, "height_m": null, "levels": null, "tract_id": "40143000900", "tract_name": "9", "tags": {"building": "detached"}}}, {"type": "Feature", "geometry": {"type": "Polygon", "coordinates": [[[-95.9991786, 36.1693219], [-95.9990124, 36.1693178], [-95.9990087, 36.1694174], [-95.9991025, 36.1694197], [-95.9991015, 36.1694456], [-95.9991738, 36.1694474], [-95.9991786, 36.1693219]]]}, "properties": {"osm_id": 1273179907, "building": "detached", "name": "", "height": null, "height_m": null, "levels": null, "tract_id": "40143000900", "tract_name": "9", "tags": {"building": "detached"}}}, {"type": "Feature", "geometry": {"type": "Polygon", "coordinates": [[[-95.9988086, 36.1670628], [-95.9987147, 36.1670636], [-95.9987159, 36.1671524], [-95.9988098, 36.1671516], [-95.9988086, 36.1670628]]]}, "properties": {"osm_id": 1273179908, "building": "garage", "name": "", "height": null, "height_m": null, "levels": null, "tract_id": "40143000900", "tract_name": "9", "tags": {"building": "garage"}}}, {"type": "Feature", "geometry": {"type": "Polygon", "coordinates": [[[-95.9990098, 36.1662197], [-95.9991967, 36.1662187], [-95.9991959, 36.1661191], [-95.9990089, 36.1661201], [-95.9990098, 36.1662197]]]}, "properties": {"osm_id": 1273179910, "building": "detached", "name": "", "height": null, "height_m": null, "levels": null, "tract_id": "40143000900", "tract_name": "9", "tags": {"building": "detached"}}}, {"type": "Feature", "geometry": {"type": "Polygon", "coordinates": [[[-95.9966754, 36.1692021], [-95.9964743, 36.1691991], [-95.9964721, 36.1692987], [-95.9966732, 36.1693016], [-95.9966754, 36.1692021]]]}, "properties": {"osm_id": 1273179911, "building": "detached", "name": "", "height": null, "height_m": null, "levels": null, "tract_id": "40143000900", "tract_name": "9", "tags": {"building": "detached"}}}, {"type": "Feature", "geometry": {"type": "Polygon", "coordinates": [[[-95.9995411, 36.1680926], [-95.99971, 36.1680952], [-95.9997123, 36.1679978], [-95.9995434, 36.1679953], [-95.9995411, 36.1680926]]]}, "properties": {"osm_id": 1273179912, "building": "detached", "name": "", "height": null, "height_m": null, "levels": null, "tract_id": "40143000900", "tract_name": "9", "tags": {"building": "detached"}}}, {"type": "Feature", "geometry": {"type": "Polygon", "coordinates": [[[-95.9950047, 36.1694336], [-95.9950126, 36.1695453], [-95.9950374, 36.1695442], [-95.9950388, 36.1695641], [-95.9950905, 36.1695617], [-95.9950891, 36.1695418], [-95.9951142, 36.1695406], [-95.9951063, 36.1694289], [-95.9950047, 36.1694336]]]}, "properties": {"osm_id": 1273179913, "building": "detached", "name": "", "height": null, "height_m": null, "levels": null, "tract_id": "40143000900", "tract_name": "9", "tags": {"building": "detached"}}}, {"type": "Feature", "geometry": {"type": "Polygon", "coordinates": [[[-95.9988646, 36.1690415], [-95.9988622, 36.1689138], [-95.9987067, 36.1689157], [-95.9987091, 36.1690435], [-95.9988646, 36.1690415]]]}, "properties": {"osm_id": 1273179914, "building": "yes", "name": "", "height": null, "height_m": null, "levels": null, "tract_id": "40143000900", "tract_name": "9", "tags": {"building": "yes"}}}, {"type": "Feature", "geometry": {"type": "Polygon", "coordinates": [[[-95.997704, 36.1664848], [-95.9978373, 36.1664877], [-95.99784, 36.1664077], [-95.9977068, 36.1664047], [-95.997704, 36.1664848]]]}, "properties": {"osm_id": 1273179917, "building": "detached", "name": "", "height": null, "height_m": null, "levels": null, "tract_id": "40143000900", "tract_name": "9", "tags": {"building": "detached"}}}, {"type": "Feature", "geometry": {"type": "Polygon", "coordinates": [[[-95.9952668, 36.1695404], [-95.9952662, 36.1694261], [-95.9951616, 36.1694264], [-95.9951622, 36.1695408], [-95.9951884, 36.1695407], [-95.9951885, 36.1695597], [-95.9952422, 36.1695595], [-95.9952421, 36.1695405], [-95.9952668, 36.1695404]]]}, "properties": {"osm_id": 1273179920, "building": "yes", "name": "", "height": null, "height_m": null, "levels": null, "tract_id": "40143000900", "tract_name": "9", "tags": {"building": "yes"}}}, {"type": "Feature", "geometry": {"type": "Polygon", "coordinates": [[[-95.9991624, 36.1677201], [-95.9989425, 36.1677195], [-95.9989422, 36.1677926], [-95.9990569, 36.1677929], [-95.9990569, 36.1678042], [-95.9990984, 36.1678044], [-95.9990984, 36.167816], [-95.9991888, 36.1678163], [-95.9991891, 36.1677635], [-95.9991622, 36.1677634], [-95.9991624, 36.1677201]]]}, "properties": {"osm_id": 1273179922, "building": "detached", "name": "", "height": null, "height_m": null, "levels": null, "tract_id": "40143000900", "tract_name": "9", "tags": {"building": "detached"}}}, {"type": "Feature", "geometry": {"type": "Polygon", "coordinates": [[[-95.9997034, 36.1683506], [-95.9997037, 36.1683163], [-95.9996824, 36.1683162], [-95.9996826, 36.1682864], [-95.9996744, 36.1682863], [-95.9996746, 36.1682642], [-95.9995888, 36.1682637], [-95.9995886, 36.1682858], [-95.9995779, 36.1682858], [-95.9995773, 36.1683631], [-95.9996617, 36.1683636], [-95.9996618, 36.1683503], [-95.9997034, 36.1683506]]]}, "properties": {"osm_id": 1273179923, "building": "detached", "name": "", "height": null, "height_m": null, "levels": null, "tract_id": "40143000900", "tract_name": "9", "tags": {"building": "detached"}}}, {"type": "Feature", "geometry": {"type": "Polygon", "coordinates": [[[-95.9976383, 36.1693415], [-95.9976394, 36.1694173], [-95.9978083, 36.1694158], [-95.9978073, 36.16934], [-95.9976383, 36.1693415]]]}, "properties": {"osm_id": 1273179925, "building": "detached", "name": "", "height": null, "height_m": null, "levels": null, "tract_id": "40143000900", "tract_name": "9", "tags": {"building": "detached"}}}, {"type": "Feature", "geometry": {"type": "Polygon", "coordinates": [[[-95.9989779, 36.1689711], [-95.9989762, 36.1690696], [-95.9991574, 36.1690716], [-95.9991582, 36.1690247], [-95.9991701, 36.1690248], [-95.9991712, 36.1689635], [-95.9991621, 36.1689634], [-95.9991521, 36.168955], [-95.999134, 36.168942], [-95.9991118, 36.1689388], [-95.9990951, 36.1689404], [-95.9990703, 36.1689491], [-95.9990562, 36.1689622], [-95.9990561, 36.1689674], [-95.9990219, 36.1689671], [-95.9990219, 36.1689716], [-95.9989779, 36.1689711]]]}, "properties": {"osm_id": 1273179926, "building": "detached", "name": "", "height": null, "height_m": null, "levels": null, "tract_id": "40143000900", "tract_name": "9", "tags": {"building": "detached"}}}, {"type": "Feature", "geometry": {"type": "Polygon", "coordinates": [[[-95.9989375, 36.1660118], [-95.9988975, 36.1660117], [-95.9988974, 36.1660599], [-95.9989362, 36.16606], [-95.9989361, 36.1660651], [-95.9991474, 36.1660653], [-95.9991474, 36.16606], [-95.9991806, 36.16606], [-95.9991807, 36.1659809], [-95.9991521, 36.1659809], [-95.9991521, 36.1659398], [-95.9990904, 36.1659398], [-95.9990904, 36.1659808], [-95.9989375, 36.1659807], [-95.9989375, 36.1660118]]]}, "properties": {"osm_id": 1273179927, "building": "detached", "name": "", "height": null, "height_m": null, "levels": null, "tract_id": "40143000900", "tract_name": "9", "tags": {"building": "detached"}}}, {"type": "Feature", "geometry": {"type": "Polygon", "coordinates": [[[-95.9981677, 36.1689258], [-95.9981687, 36.1690254], [-95.9983484, 36.1690243], [-95.9983474, 36.1689247], [-95.9981677, 36.1689258]]]}, "properties": {"osm_id": 1273179931, "building": "detached", "name": "", "height": null, "height_m": null, "levels": null, "tract_id": "40143000900", "tract_name": "9", "tags": {"building": "detached"}}}, {"type": "Feature", "geometry": {"type": "Polygon", "coordinates": [[[-95.9991974, 36.1676004], [-95.9990109, 36.1676002], [-95.9990108, 36.1676883], [-95.9991972, 36.1676885], [-95.9991974, 36.1676004]]]}, "properties": {"osm_id": 1273179935, "building": "detached", "name": "", "height": null, "height_m": null, "levels": null, "tract_id": "40143000900", "tract_name": "9", "tags": {"building": "detached"}}}, {"type": "Feature", "geometry": {"type": "Polygon", "coordinates": [[[-95.9995801, 36.1692882], [-95.9997, 36.1692881], [-95.9997, 36.1692614], [-95.9997281, 36.1692614], [-95.999728, 36.1692018], [-95.9996999, 36.1692019], [-95.9996999, 36.1691942], [-95.99958, 36.1691943], [-95.99958, 36.1692078], [-95.9995638, 36.1692078], [-95.9995638, 36.1692809], [-95.9995801, 36.1692809], [-95.9995801, 36.1692882]]]}, "properties": {"osm_id": 1273179936, "building": "yes", "name": "", "height": null, "height_m": null, "levels": null, "tract_id": "40143000900", "tract_name": "9", "tags": {"building": "yes"}}}, {"type": "Feature", "geometry": {"type": "Polygon", "coordinates": [[[-95.9988348, 36.1691704], [-95.9987544, 36.1691688], [-95.9987526, 36.169228], [-95.998833, 36.1692296], [-95.9988348, 36.1691704]]]}, "properties": {"osm_id": 1273179938, "building": "yes", "name": "", "height": null, "height_m": null, "levels": null, "tract_id": "40143000900", "tract_name": "9", "tags": {"building": "yes"}}}, {"type": "Feature", "geometry": {"type": "Polygon", "coordinates": [[[-95.998402, 36.1691531], [-95.9984027, 36.1690622], [-95.998187, 36.1690612], [-95.9981863, 36.169152], [-95.998402, 36.1691531]]]}, "properties": {"osm_id": 1273179939, "building": "detached", "name": "", "height": null, "height_m": null, "levels": null, "tract_id": "40143000900", "tract_name": "9", "tags": {"building": "detached"}}}, {"type": "Feature", "geometry": {"type": "Polygon", "coordinates": [[[-95.9976232, 36.1691918], [-95.9976233, 36.1692826], [-95.997803, 36.1692825], [-95.9978029, 36.1691917], [-95.9976232, 36.1691918]]]}, "properties": {"osm_id": 1273179943, "building": "detached", "name": "", "height": null, "height_m": null, "levels": null, "tract_id": "40143000900", "tract_name": "9", "tags": {"building": "detached"}}}, {"type": "Feature", "geometry": {"type": "Polygon", "coordinates": [[[-95.999554, 36.1687692], [-95.9997, 36.1687705], [-95.9997003, 36.1687455], [-95.9997279, 36.1687457], [-95.9997289, 36.1686749], [-95.9997013, 36.1686746], [-95.9997015, 36.1686558], [-95.9995556, 36.1686545], [-95.999554, 36.1687692]]]}, "properties": {"osm_id": 1273179945, "building": "detached", "name": "", "height": null, "height_m": null, "levels": null, "tract_id": "40143000900", "tract_name": "9", "tags": {"building": "detached"}}}, {"type": "Feature", "geometry": {"type": "Polygon", "coordinates": [[[-95.9984986, 36.1689084], [-95.9984955, 36.1690283], [-95.9986175, 36.1690303], [-95.9986206, 36.1689105], [-95.9984986, 36.1689084]]]}, "properties": {"osm_id": 1273179948, "building": "detached", "name": "", "height": null, "height_m": null, "levels": null, "tract_id": "40143000900", "tract_name": "9", "tags": {"building": "detached"}}}, {"type": "Feature", "geometry": {"type": "Polygon", "coordinates": [[[-95.9976844, 36.1666203], [-95.9978373, 36.1666193], [-95.9978365, 36.166537], [-95.9976836, 36.1665381], [-95.9976844, 36.1666203]]]}, "properties": {"osm_id": 1273179949, "building": "detached", "name": "", "height": null, "height_m": null, "levels": null, "tract_id": "40143000900", "tract_name": "9", "tags": {"building": "detached"}}}, {"type": "Feature", "geometry": {"type": "Polygon", "coordinates": [[[-95.9974808, 36.1656155], [-95.9975692, 36.1656177], [-95.9975722, 36.1655385], [-95.9974838, 36.1655363], [-95.9974808, 36.1656155]]]}, "properties": {"osm_id": 1273179951, "building": "garage", "name": "", "height": null, "height_m": null, "levels": null, "tract_id": "40143000900", "tract_name": "9", "tags": {"building": "garage"}}}, {"type": "Feature", "geometry": {"type": "Polygon", "coordinates": [[[-95.9997625, 36.1690319], [-95.9997635, 36.168931], [-95.9995753, 36.1689297], [-95.9995752, 36.1689415], [-95.9995527, 36.1689413], [-95.9995519, 36.1690187], [-95.9995744, 36.1690189], [-95.9995743, 36.1690307], [-95.9997625, 36.1690319]]]}, "properties": {"osm_id": 1273179952, "building": "detached", "name": "", "height": null, "height_m": null, "levels": null, "tract_id": "40143000900", "tract_name": "9", "tags": {"building": "detached"}}}, {"type": "Feature", "geometry": {"type": "Polygon", "coordinates": [[[-95.9984818, 36.1654035], [-95.9983675, 36.1654028], [-95.9983676, 36.1653898], [-95.9982173, 36.165389], [-95.9982164, 36.16549], [-95.998279, 36.1654903], [-95.9982788, 36.16551], [-95.9984338, 36.1655109], [-95.9984339, 36.1655037], [-95.9984809, 36.1655039], [-95.9984818, 36.1654035]]]}, "properties": {"osm_id": 1273179955, "building": "yes", "name": "", "height": null, "height_m": null, "levels": null, "tract_id": "40143000900", "tract_name": "9", "tags": {"building": "yes"}}}, {"type": "Feature", "geometry": {"type": "Polygon", "coordinates": [[[-95.9998425, 36.1673109], [-95.9999551, 36.1673118], [-95.9999561, 36.1672404], [-95.9998434, 36.1672394], [-95.9998425, 36.1673109]]]}, "properties": {"osm_id": 1273179959, "building": "yes", "name": "", "height": null, "height_m": null, "levels": null, "tract_id": "40143000900", "tract_name": "9", "tags": {"building": "yes"}}}, {"type": "Feature", "geometry": {"type": "Polygon", "coordinates": [[[-95.998678, 36.1665455], [-95.9986136, 36.1665455], [-95.9986136, 36.166604], [-95.998678, 36.166604], [-95.998678, 36.1665455]]]}, "properties": {"osm_id": 1273179960, "building": "yes", "name": "", "height": null, "height_m": null, "levels": null, "tract_id": "40143000900", "tract_name": "9", "tags": {"building": "yes"}}}, {"type": "Feature", "geometry": {"type": "Polygon", "coordinates": [[[-95.9982633, 36.1666406], [-95.9983329, 36.1666421], [-95.9983338, 36.1666169], [-95.998433, 36.1666191], [-95.9984358, 36.1665369], [-95.9982175, 36.166532], [-95.9982155, 36.1665925], [-95.9982296, 36.1665928], [-95.9982288, 36.1666138], [-95.9982641, 36.1666145], [-95.9982633, 36.1666406]]]}, "properties": {"osm_id": 1273179962, "building": "yes", "name": "", "height": null, "height_m": null, "levels": null, "tract_id": "40143000900", "tract_name": "9", "tags": {"building": "yes"}}}, {"type": "Feature", "geometry": {"type": "Polygon", "coordinates": [[[-95.9997469, 36.1694242], [-95.9997482, 36.1693433], [-95.9995842, 36.1693416], [-95.999584, 36.1693556], [-95.9995569, 36.1693553], [-95.9995561, 36.16941], [-95.9995832, 36.1694102], [-95.999583, 36.1694225], [-95.9997469, 36.1694242]]]}, "properties": {"osm_id": 1273179964, "building": "detached", "name": "", "height": null, "height_m": null, "levels": null, "tract_id": "40143000900", "tract_name": "9", "tags": {"building": "detached"}}}, {"type": "Feature", "geometry": {"type": "Polygon", "coordinates": [[[-95.9987891, 36.1693068], [-95.9987875, 36.1693869], [-95.998868, 36.1693879], [-95.9988696, 36.1693078], [-95.9987891, 36.1693068]]]}, "properties": {"osm_id": 1273179965, "building": "yes", "name": "", "height": null, "height_m": null, "levels": null, "tract_id": "40143000900", "tract_name": "9", "tags": {"building": "yes"}}}, {"type": "Feature", "geometry": {"type": "Polygon", "coordinates": [[[-95.9995496, 36.1676808], [-95.9996931, 36.1676821], [-95.9996944, 36.167592], [-95.9995508, 36.1675907], [-95.9995496, 36.1676808]]]}, "properties": {"osm_id": 1273179966, "building": "detached", "name": "", "height": null, "height_m": null, "levels": null, "tract_id": "40143000900", "tract_name": "9", "tags": {"building": "detached"}}}, {"type": "Feature", "geometry": {"type": "Polygon", "coordinates": [[[-95.9964962, 36.1694101], [-95.9966745, 36.1694121], [-95.996676, 36.1693242], [-95.9964977, 36.1693222], [-95.9964962, 36.1694101]]]}, "properties": {"osm_id": 1273179968, "building": "detached", "name": "", "height": null, "height_m": null, "levels": null, "tract_id": "40143000900", "tract_name": "9", "tags": {"building": "detached"}}}, {"type": "Feature", "geometry": {"type": "Polygon", "coordinates": [[[-95.9989231, 36.1695375], [-95.9989499, 36.1695376], [-95.9989498, 36.1695654], [-95.9991602, 36.1695659], [-95.9991607, 36.1694599], [-95.9989234, 36.1694592], [-95.9989231, 36.1695375]]]}, "properties": {"osm_id": 1273179969, "building": "detached", "name": "", "height": null, "height_m": null, "levels": null, "tract_id": "40143000900", "tract_name": "9", "tags": {"building": "detached"}}}, {"type": "Feature", "geometry": {"type": "Polygon", "coordinates": [[[-95.995426, 36.1689305], [-95.9953402, 36.1689316], [-95.9953419, 36.1690225], [-95.9953084, 36.1690229], [-95.9953093, 36.1690705], [-95.9954024, 36.1690694], [-95.995402, 36.1690492], [-95.9954283, 36.1690488], [-95.995426, 36.1689305]]]}, "properties": {"osm_id": 1273179971, "building": "detached", "name": "", "height": null, "height_m": null, "levels": null, "tract_id": "40143000900", "tract_name": "9", "tags": {"building": "detached"}}}, {"type": "Feature", "geometry": {"type": "Polygon", "coordinates": [[[-95.9998071, 36.1678069], [-95.9998067, 36.1677331], [-95.9995933, 36.1677337], [-95.9995933, 36.1677424], [-95.9995776, 36.1677425], [-95.999578, 36.1678199], [-95.9995937, 36.1678199], [-95.9995937, 36.1678285], [-95.9997202, 36.1678281], [-95.9997201, 36.1678071], [-95.9998071, 36.1678069]]]}, "properties": {"osm_id": 1273179975, "building": "detached", "name": "", "height": null, "height_m": null, "levels": null, "tract_id": "40143000900", "tract_name": "9", "tags": {"building": "detached"}}}, {"type": "Feature", "geometry": {"type": "Polygon", "coordinates": [[[-95.9983434, 36.1615616], [-95.9986009, 36.1615641], [-95.998602, 36.1614905], [-95.9983445, 36.1614879], [-95.9983434, 36.1615616]]]}, "properties": {"osm_id": 1273179976, "building": "yes", "name": "", "height": null, "height_m": null, "levels": null, "tract_id": "40143000900", "tract_name": "9", "tags": {"building": "yes"}}}, {"type": "Feature", "geometry": {"type": "Polygon", "coordinates": [[[-95.9998905, 36.1690974], [-95.9999843, 36.1690989], [-95.9999858, 36.1690405], [-95.9998919, 36.1690389], [-95.9998905, 36.1690974]]]}, "properties": {"osm_id": 1273179978, "building": "garage", "name": "", "height": null, "height_m": null, "levels": null, "tract_id": "40143000900", "tract_name": "9", "tags": {"building": "garage"}}}, {"type": "Feature", "geometry": {"type": "Polygon", "coordinates": [[[-95.9978115, 36.1667824], [-95.9976239, 36.1667804], [-95.9976233, 36.1668185], [-95.9976447, 36.1668188], [-95.9976439, 36.1668642], [-95.9978101, 36.166866], [-95.9978115, 36.1667824]]]}, "properties": {"osm_id": 1273179980, "building": "detached", "name": "", "height": null, "height_m": null, "levels": null, "tract_id": "40143000900", "tract_name": "9", "tags": {"building": "detached"}}}, {"type": "Feature", "geometry": {"type": "Polygon", "coordinates": [[[-95.9990867, 36.1668167], [-95.9989687, 36.1668153], [-95.998968, 36.1668556], [-95.9991665, 36.1668579], [-95.999167, 36.1668275], [-95.9991777, 36.1668276], [-95.9991787, 36.1667714], [-95.9990875, 36.1667704], [-95.9990867, 36.1668167]]]}, "properties": {"osm_id": 1273179981, "building": "detached", "name": "", "height": null, "height_m": null, "levels": null, "tract_id": "40143000900", "tract_name": "9", "tags": {"building": "detached"}}}, {"type": "Feature", "geometry": {"type": "Polygon", "coordinates": [[[-95.9989967, 36.1666229], [-95.9991581, 36.1666253], [-95.9991582, 36.1666186], [-95.9991818, 36.166619], [-95.9991833, 36.1665491], [-95.9991598, 36.1665488], [-95.9991599, 36.1665417], [-95.9989986, 36.1665393], [-95.9989967, 36.1666229]]]}, "properties": {"osm_id": 1273179982, "building": "detached", "name": "", "height": null, "height_m": null, "levels": null, "tract_id": "40143000900", "tract_name": "9", "tags": {"building": "detached"}}}, {"type": "Feature", "geometry": {"type": "Polygon", "coordinates": [[[-95.9976849, 36.1659662], [-95.9976568, 36.1659662], [-95.9976566, 36.1660145], [-95.9976963, 36.1660145], [-95.9976963, 36.1660195], [-95.9978422, 36.1660198], [-95.9978424, 36.1659332], [-95.9976849, 36.1659329], [-95.9976849, 36.1659662]]]}, "properties": {"osm_id": 1273179985, "building": "detached", "name": "", "height": null, "height_m": null, "levels": null, "tract_id": "40143000900", "tract_name": "9", "tags": {"building": "detached"}}}, {"type": "Feature", "geometry": {"type": "Polygon", "coordinates": [[[-95.9990856, 36.1673372], [-95.9989918, 36.1673374], [-95.998992, 36.1674232], [-95.9991651, 36.1674229], [-95.9991648, 36.1673168], [-95.9990856, 36.1673169], [-95.9990856, 36.1673372]]]}, "properties": {"osm_id": 1273179986, "building": "detached", "name": "", "height": null, "height_m": null, "levels": null, "tract_id": "40143000900", "tract_name": "9", "tags": {"building": "detached"}}}, {"type": "Feature", "geometry": {"type": "Polygon", "coordinates": [[[-95.9978133, 36.1657601], [-95.9978132, 36.1657514], [-95.9978373, 36.1657513], [-95.9978366, 36.1656755], [-95.9978125, 36.1656756], [-95.9978125, 36.1656668], [-95.9976323, 36.1656678], [-95.9976332, 36.1657611], [-95.9976701, 36.1657609], [-95.9976702, 36.1657697], [-95.9977212, 36.1657695], [-95.9977211, 36.1657606], [-95.9978133, 36.1657601]]]}, "properties": {"osm_id": 1273179988, "building": "detached", "name": "", "height": null, "height_m": null, "levels": null, "tract_id": "40143000900", "tract_name": "9", "tags": {"building": "detached"}}}, {"type": "Feature", "geometry": {"type": "Polygon", "coordinates": [[[-95.9998154, 36.1686608], [-95.9998126, 36.1687322], [-95.999901, 36.1687345], [-95.9999038, 36.1686631], [-95.9998154, 36.1686608]]]}, "properties": {"osm_id": 1273179989, "building": "yes", "name": "", "height": null, "height_m": null, "levels": null, "tract_id": "40143000900", "tract_name": "9", "tags": {"building": "yes"}}}, {"type": "Feature", "geometry": {"type": "Polygon", "coordinates": [[[-95.9988934, 36.1657859], [-95.998777, 36.1657849], [-95.9987731, 36.1660935], [-95.9988591, 36.1660942], [-95.9988608, 36.1659624], [-95.9988912, 36.1659626], [-95.9988934, 36.1657859]]]}, "properties": {"osm_id": 1273179991, "building": "yes", "name": "", "height": null, "height_m": null, "levels": null, "tract_id": "40143000900", "tract_name": "9", "tags": {"building": "yes"}}}, {"type": "Feature", "geometry": {"type": "Polygon", "coordinates": [[[-95.9995456, 36.1686406], [-95.9997253, 36.1686426], [-95.999727, 36.1685461], [-95.9995473, 36.168544], [-95.9995456, 36.1686406]]]}, "properties": {"osm_id": 1273179992, "building": "detached", "name": "", "height": null, "height_m": null, "levels": null, "tract_id": "40143000900", "tract_name": "9", "tags": {"building": "detached"}}}, {"type": "Feature", "geometry": {"type": "Polygon", "coordinates": [[[-95.9983828, 36.1664846], [-95.9983835, 36.1664612], [-95.9984093, 36.1664617], [-95.9984105, 36.1664237], [-95.9983847, 36.1664232], [-95.9983854, 36.1663981], [-95.9982141, 36.1663947], [-95.9982115, 36.1664812], [-95.9983828, 36.1664846]]]}, "properties": {"osm_id": 1273179993, "building": "yes", "name": "", "height": null, "height_m": null, "levels": null, "tract_id": "40143000900", "tract_name": "9", "tags": {"building": "yes"}}}, {"type": "Feature", "geometry": {"type": "Polygon", "coordinates": [[[-95.9999543, 36.1643682], [-95.9999506, 36.164443], [-96.0000345, 36.1644458], [-96.0000383, 36.164371], [-95.9999543, 36.1643682]]]}, "properties": {"osm_id": 1273179995, "building": "yes", "name": "", "height": null, "height_m": null, "levels": null, "tract_id": "40143000900", "tract_name": "9", "tags": {"building": "yes"}}}, {"type": "Feature", "geometry": {"type": "Polygon", "coordinates": [[[-95.9997623, 36.1646276], [-95.999608, 36.1646248], [-95.999611, 36.1645147], [-95.9997652, 36.1645174], [-95.9997623, 36.1646276]]]}, "properties": {"osm_id": 1324007437, "building": "detached", "name": "", "height": null, "height_m": null, "levels": null, "tract_id": "40143000900", "tract_name": "9", "tags": {"addr:city": "Tulsa", "addr:country": "US", "addr:housenumber": "706", "addr:postcode": "74106", "addr:state": "OK", "addr:street": "North Denver Avenue West", "building": "detached"}}}, {"type": "Feature", "geometry": {"type": "Polygon", "coordinates": [[[-95.999722, 36.1641771], [-95.9995711, 36.164175], [-95.9995745, 36.1640202], [-95.9997254, 36.1640223], [-95.999722, 36.1641771]]]}, "properties": {"osm_id": 1324007438, "building": "detached", "name": "", "height": null, "height_m": null, "levels": null, "tract_id": "40143000900", "tract_name": "9", "tags": {"addr:city": "Tulsa", "addr:country": "US", "addr:housenumber": "640", "addr:postcode": "74106", "addr:state": "OK", "addr:street": "North Denver Avenue West", "building": "detached"}}}]}