{"type": "FeatureCollection", "features": [{"type": "Feature", "geometry": {"type": "Polygon", "coordinates": [[[-97.4331952, 35.4934381], [-97.4331241, 35.4934381], [-97.4330342, 35.4934381], [-97.4330383, 35.4935037], [-97.4331978, 35.4935058], [-97.4331952, 35.4934381]]]}, "properties": {"osm_id": 191492809, "building": "roof", "name": "", "height": null, "height_m": null, "levels": null, "tract_id": "40109106000", "tract_name": "1060", "tags": {"building": "roof"}}}, {"type": "Feature", "geometry": {"type": "Polygon", "coordinates": [[[-97.4334312, 35.4935451], [-97.4333521, 35.4935441], [-97.4332649, 35.4935429], [-97.4332636, 35.4936522], [-97.4334339, 35.4936543], [-97.4334312, 35.4935451]]]}, "properties": {"osm_id": 191492810, "building": "yes", "name": "", "height": null, "height_m": null, "levels": null, "tract_id": "40109106000", "tract_name": "1060", "tags": {"building": "yes"}}}, {"type": "Feature", "geometry": {"type": "Polygon", "coordinates": [[[-97.4556051, 35.5123232], [-97.4554615, 35.5123018], [-97.4555117, 35.5120792], [-97.4556552, 35.5121006], [-97.4556051, 35.5123232]]]}, "properties": {"osm_id": 246530812, "building": "yes", "name": "", "height": null, "height_m": null, "levels": null, "tract_id": "40109106000", "tract_name": "1060", "tags": {"building": "yes", "source": "Bing"}}}, {"type": "Feature", "geometry": {"type": "Polygon", "coordinates": [[[-97.4558039, 35.512714], [-97.4556939, 35.5127002], [-97.4556798, 35.512775], [-97.4557898, 35.5127888], [-97.4558039, 35.512714]]]}, "properties": {"osm_id": 246530813, "building": "yes", "name": "", "height": null, "height_m": null, "levels": null, "tract_id": "40109106000", "tract_name": "1060", "tags": {"building": "yes", "source": "Bing"}}}, {"type": "Feature", "geometry": {"type": "Polygon", "coordinates": [[[-97.4556876, 35.5127077], [-97.4555523, 35.5126923], [-97.4555714, 35.5125816], [-97.4553598, 35.5125574], [-97.4553439, 35.5126499], [-97.4553169, 35.5128067], [-97.4556637, 35.5128462], [-97.4556876, 35.5127077]]]}, "properties": {"osm_id": 246530814, "building": "yes", "name": "", "height": null, "height_m": null, "levels": null, "tract_id": "40109106000", "tract_name": "1060", "tags": {"building": "yes", "source": "Bing"}}}, {"type": "Feature", "geometry": {"type": "Polygon", "coordinates": [[[-97.4559469, 35.5116506], [-97.455452, 35.5115785], [-97.4554896, 35.5114078], [-97.4554954, 35.5113814], [-97.4555005, 35.5113581], [-97.4555257, 35.5112434], [-97.4560206, 35.5113155], [-97.4559469, 35.5116506]]]}, "properties": {"osm_id": 246530819, "building": "yes", "name": "Twin Hills Golf & Country Club", "height": null, "height_m": 6.0, "levels": 2, "tract_id": "40109106000", "tract_name": "1060", "tags": {"addr:city": "Oklahoma City", "addr:housenumber": "3401", "addr:postcode": "73121", "addr:street": "Northeast 36th Street", "building": "yes", "building:levels": "2", "name": "Twin Hills Golf & Country Club", "phone": "405-427-2431", "source": "Bing", "website": "https://twin-hills.com/"}}}, {"type": "Feature", "geometry": {"type": "Polygon", "coordinates": [[[-97.455361, 35.5137667], [-97.4552101, 35.5137465], [-97.4551998, 35.5137975], [-97.4551929, 35.5138317], [-97.4553438, 35.5138519], [-97.455361, 35.5137667]]]}, "properties": {"osm_id": 246530821, "building": "yes", "name": "", "height": null, "height_m": null, "levels": null, "tract_id": "40109106000", "tract_name": "1060", "tags": {"building": "yes", "source": "Bing"}}}, {"type": "Feature", "geometry": {"type": "Polygon", "coordinates": [[[-97.4556896, 35.5126555], [-97.4556119, 35.5126672], [-97.4555847, 35.512547], [-97.4556623, 35.5125353], [-97.4556896, 35.5126555]]]}, "properties": {"osm_id": 246530822, "building": "yes", "name": "", "height": null, "height_m": null, "levels": null, "tract_id": "40109106000", "tract_name": "1060", "tags": {"building": "yes", "source": "Bing"}}}, {"type": "Feature", "geometry": {"type": "Polygon", "coordinates": [[[-97.4557225, 35.5135218], [-97.4555508, 35.5136999], [-97.4552721, 35.513522], [-97.4554438, 35.5133439], [-97.4557225, 35.5135218]]]}, "properties": {"osm_id": 246530824, "building": "yes", "name": "", "height": null, "height_m": null, "levels": null, "tract_id": "40109106000", "tract_name": "1060", "tags": {"building": "yes", "source": "Bing"}}}, {"type": "Feature", "geometry": {"type": "Polygon", "coordinates": [[[-97.4554896, 35.5114078], [-97.4554954, 35.5113814], [-97.4555005, 35.5113581], [-97.4553625, 35.5113388], [-97.4553518, 35.5113869], [-97.4554896, 35.5114078]]]}, "properties": {"osm_id": 246530825, "building": "roof", "name": "", "height": null, "height_m": null, "levels": null, "tract_id": "40109106000", "tract_name": "1060", "tags": {"building": "roof", "source": "Bing"}}}, {"type": "Feature", "geometry": {"type": "Polygon", "coordinates": [[[-97.4556331, 35.5111272], [-97.4555768, 35.5111184], [-97.4556653, 35.5107506], [-97.455723, 35.5107593], [-97.4556331, 35.5111272]]]}, "properties": {"osm_id": 246530827, "building": "yes", "name": "", "height": null, "height_m": null, "levels": null, "tract_id": "40109106000", "tract_name": "1060", "tags": {"amenity": "shelter", "building": "yes", "source": "Bing"}}}, {"type": "Feature", "geometry": {"type": "Polygon", "coordinates": [[[-97.452682, 35.5105882], [-97.45267, 35.5105221], [-97.4526141, 35.5105288], [-97.452626, 35.510595], [-97.452682, 35.5105882]]]}, "properties": {"osm_id": 248703056, "building": "yes", "name": "", "height": null, "height_m": null, "levels": null, "tract_id": "40109106000", "tract_name": "1060", "tags": {"building": "yes", "roof:colour": "green", "roof:shape": "hipped", "source": "Bing"}}}, {"type": "Feature", "geometry": {"type": "Polygon", "coordinates": [[[-97.4295848, 35.5088913], [-97.4293326, 35.5088891], [-97.4293434, 35.5084962], [-97.4294506, 35.5084984], [-97.4294472, 35.508677], [-97.4294748, 35.5086949], [-97.429474, 35.5087775], [-97.4295913, 35.5087822], [-97.4295848, 35.5088913]]]}, "properties": {"osm_id": 253135571, "building": "yes", "name": "", "height": null, "height_m": null, "levels": null, "tract_id": "40109106000", "tract_name": "1060", "tags": {"building": "yes", "source": "Bing"}}}, {"type": "Feature", "geometry": {"type": "Polygon", "coordinates": [[[-97.4301062, 35.508842], [-97.4300948, 35.5085112], [-97.42993, 35.508515], [-97.4299414, 35.5088457], [-97.4301062, 35.508842]]]}, "properties": {"osm_id": 253135578, "building": "yes", "name": "", "height": null, "height_m": null, "levels": null, "tract_id": "40109106000", "tract_name": "1060", "tags": {"building": "yes", "source": "Bing"}}}, {"type": "Feature", "geometry": {"type": "Polygon", "coordinates": [[[-97.4303653, 35.5087778], [-97.4303679, 35.5084613], [-97.430152, 35.5084602], [-97.4301494, 35.5087766], [-97.4303653, 35.5087778]]]}, "properties": {"osm_id": 253135579, "building": "yes", "name": "", "height": null, "height_m": null, "levels": null, "tract_id": "40109106000", "tract_name": "1060", "tags": {"building": "yes", "source": "Bing"}}}, {"type": "Feature", "geometry": {"type": "Polygon", "coordinates": [[[-97.4306434, 35.508799], [-97.4306421, 35.5085046], [-97.4304245, 35.5085052], [-97.4304258, 35.5087996], [-97.4306434, 35.508799]]]}, "properties": {"osm_id": 253135580, "building": "yes", "name": "", "height": null, "height_m": null, "levels": null, "tract_id": "40109106000", "tract_name": "1060", "tags": {"building": "yes", "source": "Bing"}}}, {"type": "Feature", "geometry": {"type": "Polygon", "coordinates": [[[-97.4428907, 35.523494], [-97.442885, 35.5233936], [-97.4428059, 35.5233966], [-97.4428116, 35.5234969], [-97.4428907, 35.523494]]]}, "properties": {"osm_id": 275634731, "building": "yes", "name": "", "height": null, "height_m": null, "levels": null, "tract_id": "40109106000", "tract_name": "1060", "tags": {"building": "yes", "roof:colour": "black", "roof:shape": "flat", "source": "Bing"}}}, {"type": "Feature", "geometry": {"type": "Polygon", "coordinates": [[[-97.4453428, 35.523976], [-97.4451765, 35.5239679], [-97.4451703, 35.524053], [-97.4453366, 35.5240611], [-97.4453428, 35.523976]]]}, "properties": {"osm_id": 275634736, "building": "yes", "name": "", "height": null, "height_m": null, "levels": null, "tract_id": "40109106000", "tract_name": "1060", "tags": {"building": "yes", "roof:material": "metal", "roof:shape": "gabled", "source": "Bing"}}}, {"type": "Feature", "geometry": {"type": "Polygon", "coordinates": [[[-97.4535756, 35.4942147], [-97.4535743, 35.4935272], [-97.4534323, 35.4935274], [-97.4534322, 35.4934603], [-97.4532209, 35.4934606], [-97.453221, 35.4935308], [-97.4530866, 35.493531], [-97.4530879, 35.4942154], [-97.4535756, 35.4942147]]]}, "properties": {"osm_id": 496428691, "building": "yes", "name": "", "height": null, "height_m": null, "levels": null, "tract_id": "40109106000", "tract_name": "1060", "tags": {"building": "yes"}}}, {"type": "Feature", "geometry": {"type": "Polygon", "coordinates": [[[-97.4583328, 35.5408869], [-97.4577571, 35.5408828], [-97.4577595, 35.5406578], [-97.457525, 35.5406561], [-97.4575274, 35.5404354], [-97.4581028, 35.5404395], [-97.4581033, 35.5403898], [-97.4583381, 35.5403915], [-97.4583328, 35.5408869]]]}, "properties": {"osm_id": 570509296, "building": "church", "name": "Church of the Harvest", "height": null, "height_m": null, "levels": null, "tract_id": "40109106000", "tract_name": "1060", "tags": {"addr:city": "Oklahoma City", "addr:country": "US", "addr:housenumber": "6800", "addr:postcode": "73121", "addr:state": "OK", "addr:street": "North Bryant Avenue", "amenity": "place_of_worship", "building": "church", "name": "Church of the Harvest", "phone": "+1-405-478-7373", "religion": "christian", "service_times": "Su 09:30,11:30", "website": "http://harvestok.com/locations/oklahoma-city/"}}}, {"type": "Feature", "geometry": {"type": "Polygon", "coordinates": [[[-97.4596774, 35.536432], [-97.459447, 35.5364324], [-97.4594468, 35.5363504], [-97.4596549, 35.5363501], [-97.4596549, 35.5363603], [-97.4596772, 35.5363602], [-97.4596774, 35.536432]]]}, "properties": {"osm_id": 709066503, "building": "yes", "name": "Express Foods", "height": null, "height_m": null, "levels": null, "tract_id": "40109106000", "tract_name": "1060", "tags": {"addr:city": "Oklahoma City", "addr:housenumber": "2928", "addr:postcode": "73111", "addr:state": "OK", "addr:street": "Northeast 63rd Street", "building": "yes", "name": "Express Foods", "shop": "convenience"}}}, {"type": "Feature", "geometry": {"type": "Polygon", "coordinates": [[[-97.4598212, 35.5364384], [-97.4598227, 35.5363809], [-97.4597547, 35.5363797], [-97.4597533, 35.5364373], [-97.4598212, 35.5364384]]]}, "properties": {"osm_id": 709066504, "building": "roof", "name": "Conoco", "height": null, "height_m": null, "levels": null, "tract_id": "40109106000", "tract_name": "1060", "tags": {"amenity": "fuel", "brand": "Conoco", "brand:wikidata": "Q1126518", "building": "roof", "name": "Conoco"}}}, {"type": "Feature", "geometry": {"type": "Polygon", "coordinates": [[[-97.45947, 35.5365183], [-97.4593562, 35.5366089], [-97.4592807, 35.5365461], [-97.4593945, 35.5364555], [-97.45947, 35.5365183]]]}, "properties": {"osm_id": 709066505, "building": "roof", "name": "Conoco", "height": null, "height_m": null, "levels": null, "tract_id": "40109106000", "tract_name": "1060", "tags": {"amenity": "fuel", "brand": "Conoco", "brand:wikidata": "Q1126518", "building": "roof", "name": "Conoco"}}}, {"type": "Feature", "geometry": {"type": "Polygon", "coordinates": [[[-97.4597199, 35.5360902], [-97.4597182, 35.5358073], [-97.4595874, 35.5358078], [-97.4595889, 35.5360907], [-97.4597199, 35.5360902]]]}, "properties": {"osm_id": 709066506, "building": "yes", "name": "Industry Car Wash", "height": null, "height_m": null, "levels": null, "tract_id": "40109106000", "tract_name": "1060", "tags": {"addr:city": "Oklahoma City", "addr:housenumber": "2926", "addr:postcode": "73111", "addr:state": "OK", "addr:street": "Northeast 63rd Street", "amenity": "car_wash", "building": "yes", "name": "Industry Car Wash"}}}, {"type": "Feature", "geometry": {"type": "Polygon", "coordinates": [[[-97.4586776, 35.5325346], [-97.4586788, 35.5323307], [-97.4585257, 35.5323301], [-97.4585245, 35.532534], [-97.4586776, 35.5325346]]]}, "properties": {"osm_id": 709066507, "building": "yes", "name": "Club 6000 Bar & Grill", "height": null, "height_m": null, "levels": null, "tract_id": "40109106000", "tract_name": "1060", "tags": {"addr:city": "Oklahoma City", "addr:housenumber": "6000", "addr:postcode": "73121", "addr:state": "OK", "addr:street": "North Bryant Avenue", "amenity": "bar", "building": "yes", "name": "Club 6000 Bar & Grill"}}}, {"type": "Feature", "geometry": {"type": "Polygon", "coordinates": [[[-97.4583409, 35.5333177], [-97.4583391, 35.5331438], [-97.4579644, 35.5331465], [-97.4579662, 35.5333203], [-97.4583409, 35.5333177]]]}, "properties": {"osm_id": 709066510, "building": "yes", "name": "", "height": null, "height_m": null, "levels": null, "tract_id": "40109106000", "tract_name": "1060", "tags": {"building": "yes"}}}, {"type": "Feature", "geometry": {"type": "Polygon", "coordinates": [[[-97.4303363, 35.5081304], [-97.430336, 35.5081042], [-97.430222, 35.508105], [-97.4302223, 35.5081312], [-97.4303363, 35.5081304]]]}, "properties": {"osm_id": 766575337, "building": "roof", "name": "", "height": null, "height_m": null, "levels": null, "tract_id": "40109106000", "tract_name": "1060", "tags": {"building": "roof"}}}, {"type": "Feature", "geometry": {"type": "Polygon", "coordinates": [[[-97.4303214, 35.5091466], [-97.4303483, 35.5090964], [-97.430308, 35.509044], [-97.4302463, 35.509044], [-97.4302115, 35.5090986], [-97.4302463, 35.509151], [-97.4303214, 35.5091466]]]}, "properties": {"osm_id": 766575338, "building": "roof", "name": "", "height": null, "height_m": null, "levels": null, "tract_id": "40109106000", "tract_name": "1060", "tags": {"amenity": "shelter", "building": "roof", "shelter_type": "gazebo"}}}, {"type": "Feature", "geometry": {"type": "Polygon", "coordinates": [[[-97.4586986, 35.5220158], [-97.4587569, 35.5218551], [-97.4582761, 35.5217395], [-97.4582178, 35.5219002], [-97.4586986, 35.5220158]]]}, "properties": {"osm_id": 788073856, "building": "yes", "name": "Fireworks Warehouse OKC", "height": null, "height_m": null, "levels": null, "tract_id": "40109106000", "tract_name": "1060", "tags": {"addr:city": "Oklahoma City", "addr:housenumber": "2820", "addr:postcode": "73121", "addr:state": "OK", "addr:street": "Northeast 50th Street", "building": "yes", "name": "Fireworks Warehouse OKC", "shop": "pyrotechnics"}}}, {"type": "Feature", "geometry": {"type": "Polygon", "coordinates": [[[-97.4583008, 35.5192646], [-97.4583008, 35.5189821], [-97.4588645, 35.5189821], [-97.4588645, 35.518753], [-97.4578885, 35.5187528], [-97.4578884, 35.5189804], [-97.4577879, 35.5189804], [-97.4577879, 35.5190722], [-97.4578684, 35.5190722], [-97.4578684, 35.5192646], [-97.4583008, 35.5192646]]]}, "properties": {"osm_id": 866491053, "building": "yes", "name": "Hugg & Hall Equipment Co.", "height": null, "height_m": null, "levels": null, "tract_id": "40109106000", "tract_name": "1060", "tags": {"addr:city": "Oklahoma City", "addr:housenumber": "4700", "addr:postcode": "73121", "addr:state": "OK", "addr:street": "North Bryant Avenue", "building": "yes", "name": "Hugg & Hall Equipment Co.", "shop": "rental"}}}, {"type": "Feature", "geometry": {"type": "Polygon", "coordinates": [[[-97.4572183, 35.5425895], [-97.4564865, 35.5422521], [-97.4567874, 35.5417757], [-97.4575354, 35.5421131], [-97.4572183, 35.5425895]]]}, "properties": {"osm_id": 878049136, "building": "yes", "name": "Scott Rice Workspace Solutions", "height": null, "height_m": null, "levels": null, "tract_id": "40109106000", "tract_name": "1060", "tags": {"addr:city": "Oklahoma City", "addr:housenumber": "6900", "addr:postcode": "73121", "addr:state": "OK", "addr:street": "North Bryant Avenue", "building": "yes", "name": "Scott Rice Workspace Solutions", "shop": "furniture"}}}, {"type": "Feature", "geometry": {"type": "Polygon", "coordinates": [[[-97.4569183, 35.5427722], [-97.4562875, 35.5437443], [-97.4556777, 35.5434822], [-97.4563085, 35.5425102], [-97.4569183, 35.5427722]]]}, "properties": {"osm_id": 878049137, "building": "warehouse", "name": "", "height": null, "height_m": null, "levels": null, "tract_id": "40109106000", "tract_name": "1060", "tags": {"building": "warehouse"}}}, {"type": "Feature", "geometry": {"type": "Polygon", "coordinates": [[[-97.4564274, 35.5460152], [-97.4565231, 35.5456953], [-97.456322, 35.5456554], [-97.456299, 35.5457322], [-97.4559105, 35.5456551], [-97.4558623, 35.5458163], [-97.4562605, 35.5458952], [-97.4562359, 35.5459772], [-97.4564274, 35.5460152]]]}, "properties": {"osm_id": 1113211113, "building": "yes", "name": "", "height": null, "height_m": null, "levels": null, "tract_id": "40109106000", "tract_name": "1060", "tags": {"building": "yes"}}}, {"type": "Feature", "geometry": {"type": "Polygon", "coordinates": [[[-97.4573209, 35.5414306], [-97.4573209, 35.5411938], [-97.456903, 35.5411938], [-97.456903, 35.5414306], [-97.4573209, 35.5414306]]]}, "properties": {"osm_id": 1113211114, "building": "yes", "name": "", "height": null, "height_m": null, "levels": null, "tract_id": "40109106000", "tract_name": "1060", "tags": {"building": "yes"}}}, {"type": "Feature", "geometry": {"type": "Polygon", "coordinates": [[[-97.4584126, 35.5366026], [-97.4587909, 35.5359238], [-97.4580545, 35.535652], [-97.4576762, 35.5363308], [-97.4584126, 35.5366026]]]}, "properties": {"osm_id": 1113211116, "building": "yes", "name": "", "height": null, "height_m": null, "levels": null, "tract_id": "40109106000", "tract_name": "1060", "tags": {"building": "yes"}}}, {"type": "Feature", "geometry": {"type": "Polygon", "coordinates": [[[-97.4583617, 35.5345348], [-97.4583653, 35.5339711], [-97.4573482, 35.5339668], [-97.4573445, 35.5345304], [-97.4583617, 35.5345348]]]}, "properties": {"osm_id": 1113211117, "building": "yes", "name": "", "height": null, "height_m": null, "levels": null, "tract_id": "40109106000", "tract_name": "1060", "tags": {"building": "yes"}}}, {"type": "Feature", "geometry": {"type": "Polygon", "coordinates": [[[-97.458678, 35.5247725], [-97.4586786, 35.5246238], [-97.4581455, 35.5246225], [-97.4581445, 35.524907], [-97.458325, 35.5249075], [-97.4583255, 35.5247717], [-97.458678, 35.5247725]]]}, "properties": {"osm_id": 1113211118, "building": "yes", "name": "", "height": null, "height_m": null, "levels": null, "tract_id": "40109106000", "tract_name": "1060", "tags": {"building": "yes"}}}, {"type": "Feature", "geometry": {"type": "Polygon", "coordinates": [[[-97.4579093, 35.5245469], [-97.4579093, 35.5244011], [-97.4577864, 35.5244011], [-97.4577864, 35.5245469], [-97.4579093, 35.5245469]]]}, "properties": {"osm_id": 1113211119, "building": "yes", "name": "", "height": null, "height_m": null, "levels": null, "tract_id": "40109106000", "tract_name": "1060", "tags": {"building": "yes"}}}, {"type": "Feature", "geometry": {"type": "Polygon", "coordinates": [[[-97.4586866, 35.5245585], [-97.4586849, 35.524288], [-97.4581162, 35.5242902], [-97.4581177, 35.5245454], [-97.4585173, 35.5245439], [-97.4585173, 35.5245592], [-97.4586866, 35.5245585]]]}, "properties": {"osm_id": 1113211120, "building": "yes", "name": "", "height": null, "height_m": null, "levels": null, "tract_id": "40109106000", "tract_name": "1060", "tags": {"building": "yes"}}}, {"type": "Feature", "geometry": {"type": "Polygon", "coordinates": [[[-97.4582188, 35.5231276], [-97.4582193, 35.5229451], [-97.4575958, 35.5229438], [-97.4575967, 35.5226427], [-97.4573936, 35.5226422], [-97.4573927, 35.5229506], [-97.4574899, 35.5229508], [-97.4574894, 35.5231263], [-97.4582188, 35.5231276]]]}, "properties": {"osm_id": 1113211121, "building": "yes", "name": "", "height": null, "height_m": null, "levels": null, "tract_id": "40109106000", "tract_name": "1060", "tags": {"building": "yes"}}}, {"type": "Feature", "geometry": {"type": "Polygon", "coordinates": [[[-97.4572753, 35.5208632], [-97.4572771, 35.520668], [-97.4569494, 35.520666], [-97.4569476, 35.5208612], [-97.4572753, 35.5208632]]]}, "properties": {"osm_id": 1113211122, "building": "yes", "name": "", "height": null, "height_m": null, "levels": null, "tract_id": "40109106000", "tract_name": "1060", "tags": {"building": "yes"}}}, {"type": "Feature", "geometry": {"type": "Polygon", "coordinates": [[[-97.4572864, 35.5201762], [-97.4572868, 35.5198988], [-97.4569536, 35.5198984], [-97.4569532, 35.52023], [-97.4571701, 35.5202302], [-97.4571702, 35.5201761], [-97.4572864, 35.5201762]]]}, "properties": {"osm_id": 1113211123, "building": "yes", "name": "", "height": null, "height_m": null, "levels": null, "tract_id": "40109106000", "tract_name": "1060", "tags": {"building": "yes"}}}, {"type": "Feature", "geometry": {"type": "Polygon", "coordinates": [[[-97.4338062, 35.4937886], [-97.434002, 35.4937899], [-97.434005, 35.4935104], [-97.4338723, 35.4935095], [-97.4338699, 35.4937366], [-97.4338068, 35.4937362], [-97.4338062, 35.4937886]]]}, "properties": {"osm_id": 1252719873, "building": "yes", "name": "", "height": null, "height_m": null, "levels": null, "tract_id": "40109106000", "tract_name": "1060", "tags": {"building": "yes", "source": "microsoft/BuildingFootprints"}}}, {"type": "Feature", "geometry": {"type": "Polygon", "coordinates": [[[-97.4347933, 35.4943556], [-97.4347933, 35.494111], [-97.4345841, 35.494111], [-97.4345841, 35.4940826], [-97.4344715, 35.4940826], [-97.4344715, 35.49411], [-97.4343856, 35.49411], [-97.4343856, 35.4941951], [-97.4343427, 35.4941951], [-97.4343427, 35.494266], [-97.4343894, 35.494266], [-97.4343894, 35.4945259], [-97.434891, 35.4945259], [-97.434891, 35.4943556], [-97.4347933, 35.4943556]]]}, "properties": {"osm_id": 1252719874, "building": "yes", "name": "", "height": null, "height_m": null, "levels": null, "tract_id": "40109106000", "tract_name": "1060", "tags": {"building": "yes", "source": "microsoft/BuildingFootprints"}}}, {"type": "Feature", "geometry": {"type": "Polygon", "coordinates": [[[-97.4410624, 35.4941588], [-97.4410623, 35.4940015], [-97.4410274, 35.4940016], [-97.4410273, 35.4939491], [-97.4409898, 35.4939492], [-97.4409897, 35.4938574], [-97.4409012, 35.4938575], [-97.4409012, 35.4938225], [-97.440641, 35.4938227], [-97.4406413, 35.494159], [-97.4410624, 35.4941588]]]}, "properties": {"osm_id": 1252719880, "building": "yes", "name": "", "height": null, "height_m": null, "levels": null, "tract_id": "40109106000", "tract_name": "1060", "tags": {"building": "yes", "source": "microsoft/BuildingFootprints"}}}, {"type": "Feature", "geometry": {"type": "Polygon", "coordinates": [[[-97.4474862, 35.4934889], [-97.4474901, 35.4939125], [-97.4477395, 35.493911], [-97.4477399, 35.4939568], [-97.4477909, 35.4939565], [-97.4477905, 35.4939129], [-97.4478897, 35.4939123], [-97.4478859, 35.4934864], [-97.4474862, 35.4934889]]]}, "properties": {"osm_id": 1252719882, "building": "yes", "name": "", "height": null, "height_m": null, "levels": null, "tract_id": "40109106000", "tract_name": "1060", "tags": {"building": "yes", "source": "microsoft/BuildingFootprints"}}}, {"type": "Feature", "geometry": {"type": "Polygon", "coordinates": [[[-97.448273, 35.4933994], [-97.4480975, 35.4934007], [-97.4481018, 35.493785], [-97.4480655, 35.4937853], [-97.4480667, 35.4938989], [-97.4481085, 35.4938985], [-97.448113, 35.4942938], [-97.4482831, 35.4942925], [-97.448273, 35.4933994]]]}, "properties": {"osm_id": 1252719883, "building": "yes", "name": "", "height": null, "height_m": null, "levels": null, "tract_id": "40109106000", "tract_name": "1060", "tags": {"building": "yes", "source": "microsoft/BuildingFootprints"}}}, {"type": "Feature", "geometry": {"type": "Polygon", "coordinates": [[[-97.4508424, 35.4935582], [-97.450838, 35.4933617], [-97.450822, 35.493362], [-97.4508211, 35.4933239], [-97.4506683, 35.4933262], [-97.4506705, 35.4934275], [-97.4506196, 35.4934282], [-97.450621, 35.4934959], [-97.4505352, 35.4934971], [-97.4505367, 35.4935626], [-97.4508424, 35.4935582]]]}, "properties": {"osm_id": 1252719887, "building": "yes", "name": "", "height": null, "height_m": null, "levels": null, "tract_id": "40109106000", "tract_name": "1060", "tags": {"building": "yes", "source": "microsoft/BuildingFootprints"}}}, {"type": "Feature", "geometry": {"type": "Polygon", "coordinates": [[[-97.4544597, 35.4937591], [-97.4545938, 35.4937591], [-97.4545938, 35.4933726], [-97.4544597, 35.4933726], [-97.4544597, 35.4937591]]]}, "properties": {"osm_id": 1252719891, "building": "yes", "name": "", "height": null, "height_m": null, "levels": null, "tract_id": "40109106000", "tract_name": "1060", "tags": {"building": "yes", "source": "microsoft/BuildingFootprints"}}}, {"type": "Feature", "geometry": {"type": "Polygon", "coordinates": [[[-97.4287622, 35.5235032], [-97.428923, 35.5235008], [-97.4289256, 35.5236164], [-97.4290195, 35.523615], [-97.4290156, 35.5234404], [-97.4289458, 35.5234415], [-97.4289445, 35.5233804], [-97.4287595, 35.5233831], [-97.4287622, 35.5235032]]]}, "properties": {"osm_id": 1253022925, "building": "yes", "name": "", "height": null, "height_m": null, "levels": null, "tract_id": "40109106000", "tract_name": "1060", "tags": {"building": "yes", "source": "microsoft/BuildingFootprints"}}}, {"type": "Feature", "geometry": {"type": "Polygon", "coordinates": [[[-97.4298783, 35.5245518], [-97.4301115, 35.5245567], [-97.430114, 35.5244769], [-97.4298808, 35.524472], [-97.4298783, 35.5245518]]]}, "properties": {"osm_id": 1253022926, "building": "yes", "name": "", "height": null, "height_m": null, "levels": null, "tract_id": "40109106000", "tract_name": "1060", "tags": {"building": "yes", "source": "microsoft/BuildingFootprints"}}}, {"type": "Feature", "geometry": {"type": "Polygon", "coordinates": [[[-97.430352, 35.5245307], [-97.430219, 35.5245289], [-97.4302162, 35.5246664], [-97.4303492, 35.5246682], [-97.430352, 35.5245307]]]}, "properties": {"osm_id": 1253022927, "building": "yes", "name": "", "height": null, "height_m": null, "levels": null, "tract_id": "40109106000", "tract_name": "1060", "tags": {"building": "yes", "source": "microsoft/BuildingFootprints"}}}, {"type": "Feature", "geometry": {"type": "Polygon", "coordinates": [[[-97.4282241, 35.5235839], [-97.427972, 35.5235847], [-97.4279723, 35.5236436], [-97.4280018, 35.5236435], [-97.428002, 35.5236981], [-97.4279323, 35.5236983], [-97.4279326, 35.5237747], [-97.4281901, 35.523774], [-97.4281899, 35.5237259], [-97.4281577, 35.523726], [-97.4281573, 35.5236453], [-97.4282244, 35.5236451], [-97.4282241, 35.5235839]]]}, "properties": {"osm_id": 1253022928, "building": "yes", "name": "", "height": null, "height_m": null, "levels": null, "tract_id": "40109106000", "tract_name": "1060", "tags": {"building": "yes", "source": "microsoft/BuildingFootprints"}}}, {"type": "Feature", "geometry": {"type": "Polygon", "coordinates": [[[-97.4281099, 35.524152], [-97.4279099, 35.5241573], [-97.42792, 35.5244124], [-97.4280352, 35.5244094], [-97.4280326, 35.524344], [-97.4280862, 35.5243426], [-97.4280843, 35.5242946], [-97.4281154, 35.5242938], [-97.4281099, 35.524152]]]}, "properties": {"osm_id": 1253022929, "building": "yes", "name": "", "height": null, "height_m": null, "levels": null, "tract_id": "40109106000", "tract_name": "1060", "tags": {"building": "yes", "source": "microsoft/BuildingFootprints"}}}, {"type": "Feature", "geometry": {"type": "Polygon", "coordinates": [[[-97.4281694, 35.5246746], [-97.4279897, 35.5246735], [-97.4279891, 35.5247377], [-97.4280132, 35.5247378], [-97.4280127, 35.5247894], [-97.4279752, 35.5247891], [-97.4279745, 35.524859], [-97.4281328, 35.52486], [-97.4281332, 35.524815], [-97.4282255, 35.5248156], [-97.428226, 35.5247544], [-97.4281901, 35.5247542], [-97.4281904, 35.5247184], [-97.428169, 35.5247183], [-97.4281694, 35.5246746]]]}, "properties": {"osm_id": 1253022930, "building": "yes", "name": "", "height": null, "height_m": null, "levels": null, "tract_id": "40109106000", "tract_name": "1060", "tags": {"building": "yes", "source": "microsoft/BuildingFootprints"}}}, {"type": "Feature", "geometry": {"type": "Polygon", "coordinates": [[[-97.4282195, 35.5252462], [-97.4280867, 35.5252355], [-97.4280764, 35.5253207], [-97.4280195, 35.5253161], [-97.4280109, 35.5253875], [-97.4281024, 35.5253948], [-97.4280967, 35.5254415], [-97.4282018, 35.5254499], [-97.4282172, 35.5253232], [-97.4282103, 35.5253227], [-97.4282195, 35.5252462]]]}, "properties": {"osm_id": 1253022931, "building": "yes", "name": "", "height": null, "height_m": null, "levels": null, "tract_id": "40109106000", "tract_name": "1060", "tags": {"building": "yes", "source": "microsoft/BuildingFootprints"}}}, {"type": "Feature", "geometry": {"type": "Polygon", "coordinates": [[[-97.428942, 35.5238977], [-97.4287419, 35.5238995], [-97.4287435, 35.524013], [-97.4288642, 35.5240119], [-97.4288651, 35.5240796], [-97.4289446, 35.5240788], [-97.428942, 35.5238977]]]}, "properties": {"osm_id": 1253022932, "building": "yes", "name": "", "height": null, "height_m": null, "levels": null, "tract_id": "40109106000", "tract_name": "1060", "tags": {"building": "yes", "source": "microsoft/BuildingFootprints"}}}, {"type": "Feature", "geometry": {"type": "Polygon", "coordinates": [[[-97.4280124, 35.5228969], [-97.4277792, 35.522892], [-97.4277726, 35.5230993], [-97.4278638, 35.5231012], [-97.4278658, 35.5230379], [-97.4280078, 35.5230409], [-97.4280124, 35.5228969]]]}, "properties": {"osm_id": 1253022933, "building": "yes", "name": "", "height": null, "height_m": null, "levels": null, "tract_id": "40109106000", "tract_name": "1060", "tags": {"building": "yes", "source": "microsoft/BuildingFootprints"}}}, {"type": "Feature", "geometry": {"type": "Polygon", "coordinates": [[[-97.4273023, 35.5231038], [-97.4273962, 35.5231038], [-97.4273962, 35.5230405], [-97.4275366, 35.5230404], [-97.4275365, 35.522929], [-97.427499, 35.5229291], [-97.4274989, 35.5228731], [-97.4273021, 35.5228732], [-97.4273023, 35.5231038]]]}, "properties": {"osm_id": 1253022934, "building": "yes", "name": "", "height": null, "height_m": null, "levels": null, "tract_id": "40109106000", "tract_name": "1060", "tags": {"building": "yes", "source": "microsoft/BuildingFootprints"}}}, {"type": "Feature", "geometry": {"type": "Polygon", "coordinates": [[[-97.4268985, 35.522827], [-97.4266223, 35.5228285], [-97.4266235, 35.5229835], [-97.4266735, 35.5229832], [-97.4266738, 35.5230203], [-97.4268025, 35.5230196], [-97.4268032, 35.5231012], [-97.4269007, 35.5231007], [-97.4268985, 35.522827]]]}, "properties": {"osm_id": 1253022935, "building": "yes", "name": "", "height": null, "height_m": null, "levels": null, "tract_id": "40109106000", "tract_name": "1060", "tags": {"building": "yes", "source": "microsoft/BuildingFootprints"}}}, {"type": "Feature", "geometry": {"type": "Polygon", "coordinates": [[[-97.426006, 35.522928], [-97.4259997, 35.5230041], [-97.426051, 35.5230069], [-97.4260701, 35.5229913], [-97.4260982, 35.5229929], [-97.4261173, 35.5230084], [-97.4263424, 35.5230208], [-97.4263991, 35.5229746], [-97.4264044, 35.5229107], [-97.4263644, 35.5229085], [-97.4263652, 35.522898], [-97.4263216, 35.5228625], [-97.4262369, 35.5228578], [-97.4261825, 35.522902], [-97.4261886, 35.5228285], [-97.4261141, 35.5227678], [-97.426047, 35.5228224], [-97.4261249, 35.5228857], [-97.4261235, 35.522902], [-97.4260862, 35.5229324], [-97.426006, 35.522928]]]}, "properties": {"osm_id": 1253022936, "building": "yes", "name": "", "height": null, "height_m": null, "levels": null, "tract_id": "40109106000", "tract_name": "1060", "tags": {"building": "yes", "source": "microsoft/BuildingFootprints"}}}, {"type": "Feature", "geometry": {"type": "Polygon", "coordinates": [[[-97.4255136, 35.5229353], [-97.4255409, 35.5230826], [-97.4256563, 35.5230684], [-97.4256599, 35.5230876], [-97.4257447, 35.5230772], [-97.4257297, 35.5229961], [-97.4258179, 35.5229852], [-97.4258056, 35.5229191], [-97.425761, 35.5229246], [-97.4257575, 35.5229054], [-97.4255136, 35.5229353]]]}, "properties": {"osm_id": 1253022937, "building": "yes", "name": "", "height": null, "height_m": null, "levels": null, "tract_id": "40109106000", "tract_name": "1060", "tags": {"building": "yes", "source": "microsoft/BuildingFootprints"}}}, {"type": "Feature", "geometry": {"type": "Polygon", "coordinates": [[[-97.4252938, 35.5230487], [-97.4252402, 35.5230769], [-97.4252243, 35.5230569], [-97.4251544, 35.5230938], [-97.4251625, 35.5231039], [-97.4250813, 35.5231468], [-97.425187, 35.5232796], [-97.4252815, 35.5232298], [-97.4253023, 35.5232559], [-97.4253741, 35.5232181], [-97.4253153, 35.5231443], [-97.4253538, 35.523124], [-97.4252938, 35.5230487]]]}, "properties": {"osm_id": 1253022938, "building": "yes", "name": "", "height": null, "height_m": null, "levels": null, "tract_id": "40109106000", "tract_name": "1060", "tags": {"building": "yes", "source": "microsoft/BuildingFootprints"}}}, {"type": "Feature", "geometry": {"type": "Polygon", "coordinates": [[[-97.4248129, 35.5235038], [-97.4249317, 35.5235949], [-97.4251132, 35.5234382], [-97.4249817, 35.5233373], [-97.4249281, 35.5233835], [-97.4249409, 35.5233933], [-97.4248129, 35.5235038]]]}, "properties": {"osm_id": 1253022939, "building": "yes", "name": "", "height": null, "height_m": null, "levels": null, "tract_id": "40109106000", "tract_name": "1060", "tags": {"building": "yes", "source": "microsoft/BuildingFootprints"}}}, {"type": "Feature", "geometry": {"type": "Polygon", "coordinates": [[[-97.4257006, 35.5238299], [-97.4255709, 35.5237118], [-97.4255043, 35.5237602], [-97.4255243, 35.5237784], [-97.4254334, 35.5238446], [-97.4254054, 35.5238191], [-97.4253438, 35.523864], [-97.425497, 35.5240035], [-97.4255566, 35.5239601], [-97.4255412, 35.523946], [-97.4257006, 35.5238299]]]}, "properties": {"osm_id": 1253022940, "building": "yes", "name": "", "height": null, "height_m": null, "levels": null, "tract_id": "40109106000", "tract_name": "1060", "tags": {"building": "yes", "source": "microsoft/BuildingFootprints"}}}, {"type": "Feature", "geometry": {"type": "Polygon", "coordinates": [[[-97.4259853, 35.5238287], [-97.4261409, 35.5238287], [-97.4261409, 35.5237698], [-97.4262804, 35.5237698], [-97.4262804, 35.5236497], [-97.4261168, 35.5236497], [-97.4261168, 35.5236672], [-97.4260256, 35.5236672], [-97.4260256, 35.5237654], [-97.4259853, 35.5237654], [-97.4259853, 35.5238287]]]}, "properties": {"osm_id": 1253022941, "building": "yes", "name": "", "height": null, "height_m": null, "levels": null, "tract_id": "40109106000", "tract_name": "1060", "tags": {"building": "yes", "source": "microsoft/BuildingFootprints"}}}, {"type": "Feature", "geometry": {"type": "Polygon", "coordinates": [[[-97.4265507, 35.5238068], [-97.4266731, 35.5238069], [-97.426673, 35.5238694], [-97.4267668, 35.5238695], [-97.4267671, 35.5236672], [-97.4265508, 35.5236671], [-97.4265507, 35.5238068]]]}, "properties": {"osm_id": 1253022942, "building": "yes", "name": "", "height": null, "height_m": null, "levels": null, "tract_id": "40109106000", "tract_name": "1060", "tags": {"building": "yes", "source": "microsoft/BuildingFootprints"}}}, {"type": "Feature", "geometry": {"type": "Polygon", "coordinates": [[[-97.4270672, 35.5238488], [-97.4272039, 35.5238476], [-97.4272042, 35.5238681], [-97.4272847, 35.5238674], [-97.4272843, 35.5238426], [-97.427338, 35.5238421], [-97.4273367, 35.5237417], [-97.4272659, 35.5237423], [-97.4272647, 35.5236463], [-97.4271825, 35.523647], [-97.4271833, 35.5237059], [-97.4271153, 35.5237065], [-97.4271147, 35.5236628], [-97.4270647, 35.5236633], [-97.4270672, 35.5238488]]]}, "properties": {"osm_id": 1253022943, "building": "yes", "name": "", "height": null, "height_m": null, "levels": null, "tract_id": "40109106000", "tract_name": "1060", "tags": {"building": "yes", "source": "microsoft/BuildingFootprints"}}}, {"type": "Feature", "geometry": {"type": "Polygon", "coordinates": [[[-97.4272718, 35.5245259], [-97.4273834, 35.5245253], [-97.4273828, 35.5244489], [-97.4271424, 35.5244502], [-97.4271429, 35.524504], [-97.4271107, 35.5245042], [-97.4271115, 35.5245937], [-97.4271598, 35.5245934], [-97.4271602, 35.5246392], [-97.4272728, 35.5246386], [-97.4272718, 35.5245259]]]}, "properties": {"osm_id": 1253022944, "building": "yes", "name": "", "height": null, "height_m": null, "levels": null, "tract_id": "40109106000", "tract_name": "1060", "tags": {"building": "yes", "source": "microsoft/BuildingFootprints"}}}, {"type": "Feature", "geometry": {"type": "Polygon", "coordinates": [[[-97.4271813, 35.5251146], [-97.4272626, 35.525111], [-97.4272608, 35.525084], [-97.427317, 35.5250816], [-97.4273025, 35.5248647], [-97.4271474, 35.5248716], [-97.4271532, 35.5249586], [-97.4271708, 35.5249578], [-97.4271813, 35.5251146]]]}, "properties": {"osm_id": 1253022945, "building": "yes", "name": "", "height": null, "height_m": null, "levels": null, "tract_id": "40109106000", "tract_name": "1060", "tags": {"building": "yes", "source": "microsoft/BuildingFootprints"}}}, {"type": "Feature", "geometry": {"type": "Polygon", "coordinates": [[[-97.4264767, 35.5249596], [-97.4263973, 35.5249603], [-97.4263974, 35.5249669], [-97.426222, 35.5249684], [-97.426224, 35.525119], [-97.426342, 35.525118], [-97.4263424, 35.5251486], [-97.4264255, 35.5251478], [-97.4264244, 35.5250627], [-97.4264781, 35.5250622], [-97.4264767, 35.5249596]]]}, "properties": {"osm_id": 1253022946, "building": "yes", "name": "", "height": null, "height_m": null, "levels": null, "tract_id": "40109106000", "tract_name": "1060", "tags": {"building": "yes", "source": "microsoft/BuildingFootprints"}}}, {"type": "Feature", "geometry": {"type": "Polygon", "coordinates": [[[-97.4263842, 35.5244876], [-97.4263881, 35.524553], [-97.4262516, 35.5245583], [-97.426256, 35.5246324], [-97.4262934, 35.5246309], [-97.4262978, 35.5247049], [-97.4263647, 35.5247023], [-97.4263632, 35.5246762], [-97.4264756, 35.5246718], [-97.4264645, 35.5244845], [-97.4263842, 35.5244876]]]}, "properties": {"osm_id": 1253022947, "building": "yes", "name": "", "height": null, "height_m": null, "levels": null, "tract_id": "40109106000", "tract_name": "1060", "tags": {"building": "yes", "source": "microsoft/BuildingFootprints"}}}, {"type": "Feature", "geometry": {"type": "Polygon", "coordinates": [[[-97.4253712, 35.5246545], [-97.4254704, 35.5246543], [-97.4254702, 35.5245962], [-97.4256794, 35.5245957], [-97.4256788, 35.5244442], [-97.4253704, 35.524445], [-97.4253712, 35.5246545]]]}, "properties": {"osm_id": 1253022948, "building": "yes", "name": "", "height": null, "height_m": null, "levels": null, "tract_id": "40109106000", "tract_name": "1060", "tags": {"building": "yes", "source": "microsoft/BuildingFootprints"}}}, {"type": "Feature", "geometry": {"type": "Polygon", "coordinates": [[[-97.4256644, 35.5251404], [-97.4256625, 35.5249775], [-97.4255284, 35.5249785], [-97.4255286, 35.5249916], [-97.4254497, 35.5249922], [-97.4254514, 35.525142], [-97.4256644, 35.5251404]]]}, "properties": {"osm_id": 1253022949, "building": "yes", "name": "", "height": null, "height_m": null, "levels": null, "tract_id": "40109106000", "tract_name": "1060", "tags": {"building": "yes", "source": "microsoft/BuildingFootprints"}}}, {"type": "Feature", "geometry": {"type": "Polygon", "coordinates": [[[-97.4245391, 35.5244518], [-97.4245569, 35.5246054], [-97.4247175, 35.5245931], [-97.4247091, 35.5245204], [-97.4247915, 35.5245141], [-97.4247821, 35.5244331], [-97.4245391, 35.5244518]]]}, "properties": {"osm_id": 1253022950, "building": "yes", "name": "", "height": null, "height_m": null, "levels": null, "tract_id": "40109106000", "tract_name": "1060", "tags": {"building": "yes", "source": "microsoft/BuildingFootprints"}}}, {"type": "Feature", "geometry": {"type": "Polygon", "coordinates": [[[-97.4247544, 35.5249352], [-97.4246445, 35.5249375], [-97.4246454, 35.5249658], [-97.424565, 35.5249675], [-97.4245672, 35.5250373], [-97.4245377, 35.5250379], [-97.424539, 35.5250794], [-97.4246006, 35.5250781], [-97.4246014, 35.5251021], [-97.4247794, 35.5250984], [-97.4247783, 35.5250613], [-97.4247584, 35.5250617], [-97.4247544, 35.5249352]]]}, "properties": {"osm_id": 1253022951, "building": "yes", "name": "", "height": null, "height_m": null, "levels": null, "tract_id": "40109106000", "tract_name": "1060", "tags": {"building": "yes", "source": "microsoft/BuildingFootprints"}}}, {"type": "Feature", "geometry": {"type": "Polygon", "coordinates": [[[-97.4245155, 35.5254997], [-97.4245246, 35.5256368], [-97.4244443, 35.5256403], [-97.424448, 35.5256956], [-97.4245282, 35.5256921], [-97.424531, 35.5257347], [-97.4246862, 35.525728], [-97.4246798, 35.5256322], [-97.4247628, 35.5256286], [-97.4247584, 35.5255633], [-97.4246194, 35.5255693], [-97.4246145, 35.5254953], [-97.4245155, 35.5254997]]]}, "properties": {"osm_id": 1253022952, "building": "yes", "name": "", "height": null, "height_m": null, "levels": null, "tract_id": "40109106000", "tract_name": "1060", "tags": {"building": "yes", "source": "microsoft/BuildingFootprints"}}}, {"type": "Feature", "geometry": {"type": "Polygon", "coordinates": [[[-97.4246221, 35.5261332], [-97.4246249, 35.5261952], [-97.4245606, 35.5261971], [-97.4245684, 35.5263715], [-97.4247452, 35.5263662], [-97.4247417, 35.526289], [-97.4247846, 35.5262878], [-97.4247814, 35.5262158], [-97.4247159, 35.5262178], [-97.4247119, 35.5261306], [-97.4246221, 35.5261332]]]}, "properties": {"osm_id": 1253022953, "building": "yes", "name": "", "height": null, "height_m": null, "levels": null, "tract_id": "40109106000", "tract_name": "1060", "tags": {"building": "yes", "source": "microsoft/BuildingFootprints"}}}, {"type": "Feature", "geometry": {"type": "Polygon", "coordinates": [[[-97.4255869, 35.5263433], [-97.4255306, 35.5262766], [-97.4254668, 35.5263122], [-97.425413, 35.5262485], [-97.4253856, 35.5262638], [-97.4253368, 35.5262059], [-97.425253, 35.5262528], [-97.4253932, 35.5264189], [-97.4254715, 35.5263751], [-97.4254903, 35.5263973], [-97.4255869, 35.5263433]]]}, "properties": {"osm_id": 1253022954, "building": "yes", "name": "", "height": null, "height_m": null, "levels": null, "tract_id": "40109106000", "tract_name": "1060", "tags": {"building": "yes", "source": "microsoft/BuildingFootprints"}}}, {"type": "Feature", "geometry": {"type": "Polygon", "coordinates": [[[-97.4262105, 35.5264096], [-97.4262949, 35.5264088], [-97.4262924, 35.5262443], [-97.4260954, 35.5262462], [-97.4260973, 35.5263715], [-97.4262099, 35.5263703], [-97.4262105, 35.5264096]]]}, "properties": {"osm_id": 1253022955, "building": "yes", "name": "", "height": null, "height_m": null, "levels": null, "tract_id": "40109106000", "tract_name": "1060", "tags": {"building": "yes", "source": "microsoft/BuildingFootprints"}}}, {"type": "Feature", "geometry": {"type": "Polygon", "coordinates": [[[-97.4255964, 35.5257432], [-97.4255992, 35.5255708], [-97.4254919, 35.5255697], [-97.4254914, 35.5256002], [-97.4253895, 35.5255992], [-97.4253872, 35.5257432], [-97.4254382, 35.5257438], [-97.4254377, 35.5257721], [-97.4255048, 35.5257728], [-97.4255052, 35.5257423], [-97.4255964, 35.5257432]]]}, "properties": {"osm_id": 1253022956, "building": "yes", "name": "", "height": null, "height_m": null, "levels": null, "tract_id": "40109106000", "tract_name": "1060", "tags": {"building": "yes", "source": "microsoft/BuildingFootprints"}}}, {"type": "Feature", "geometry": {"type": "Polygon", "coordinates": [[[-97.425979, 35.5256388], [-97.4259833, 35.5257456], [-97.4260208, 35.5257446], [-97.4260225, 35.5257883], [-97.4261833, 35.525784], [-97.4261817, 35.5257448], [-97.4262246, 35.5257436], [-97.426219, 35.5256041], [-97.4261279, 35.5256065], [-97.4261297, 35.5256523], [-97.4260628, 35.525654], [-97.4260621, 35.5256366], [-97.425979, 35.5256388]]]}, "properties": {"osm_id": 1253022957, "building": "yes", "name": "", "height": null, "height_m": null, "levels": null, "tract_id": "40109106000", "tract_name": "1060", "tags": {"building": "yes", "source": "microsoft/BuildingFootprints"}}}, {"type": "Feature", "geometry": {"type": "Polygon", "coordinates": [[[-97.4271697, 35.5257171], [-97.4271561, 35.5256069], [-97.4270802, 35.5256131], [-97.4270757, 35.5255763], [-97.4270267, 35.5255803], [-97.4270294, 35.5256019], [-97.426894, 35.525613], [-97.4269142, 35.5257765], [-97.4270136, 35.5257683], [-97.4270089, 35.5257302], [-97.4271697, 35.5257171]]]}, "properties": {"osm_id": 1253022958, "building": "yes", "name": "", "height": null, "height_m": null, "levels": null, "tract_id": "40109106000", "tract_name": "1060", "tags": {"building": "yes", "source": "microsoft/BuildingFootprints"}}}, {"type": "Feature", "geometry": {"type": "Polygon", "coordinates": [[[-97.4270706, 35.5269486], [-97.4270012, 35.5268289], [-97.4269124, 35.526863], [-97.4269041, 35.5268487], [-97.4268032, 35.5268874], [-97.4268808, 35.5270214], [-97.4270706, 35.5269486]]]}, "properties": {"osm_id": 1253022959, "building": "yes", "name": "", "height": null, "height_m": null, "levels": null, "tract_id": "40109106000", "tract_name": "1060", "tags": {"building": "yes", "source": "microsoft/BuildingFootprints"}}}, {"type": "Feature", "geometry": {"type": "Polygon", "coordinates": [[[-97.4271384, 35.5276299], [-97.4271745, 35.5276618], [-97.4272674, 35.5275922], [-97.4271445, 35.5274834], [-97.4271278, 35.5274959], [-97.4270623, 35.527438], [-97.4269425, 35.5275278], [-97.4270293, 35.5276046], [-97.4269843, 35.5276383], [-97.4270498, 35.5276962], [-97.4271384, 35.5276299]]]}, "properties": {"osm_id": 1253022960, "building": "yes", "name": "", "height": null, "height_m": null, "levels": null, "tract_id": "40109106000", "tract_name": "1060", "tags": {"building": "yes", "source": "microsoft/BuildingFootprints"}}}, {"type": "Feature", "geometry": {"type": "Polygon", "coordinates": [[[-97.4271997, 35.5282233], [-97.4271531, 35.5281581], [-97.4271951, 35.5281382], [-97.427096, 35.5279996], [-97.4270299, 35.528031], [-97.4270532, 35.5280636], [-97.426853, 35.5281585], [-97.4269626, 35.5283117], [-97.4270447, 35.5282728], [-97.4270191, 35.5282369], [-97.4270591, 35.5282179], [-97.4270976, 35.5282717], [-97.4271997, 35.5282233]]]}, "properties": {"osm_id": 1253022961, "building": "yes", "name": "", "height": null, "height_m": null, "levels": null, "tract_id": "40109106000", "tract_name": "1060", "tags": {"building": "yes", "source": "microsoft/BuildingFootprints"}}}, {"type": "Feature", "geometry": {"type": "Polygon", "coordinates": [[[-97.4269015, 35.5285978], [-97.4268158, 35.5287572], [-97.4269025, 35.5287881], [-97.4268936, 35.5288046], [-97.4269307, 35.5288178], [-97.4269139, 35.5288489], [-97.4270085, 35.5288826], [-97.4270538, 35.5287984], [-97.4270257, 35.5287884], [-97.4270618, 35.5287213], [-97.4270011, 35.5286996], [-97.427031, 35.528644], [-97.4269015, 35.5285978]]]}, "properties": {"osm_id": 1253022962, "building": "yes", "name": "", "height": null, "height_m": null, "levels": null, "tract_id": "40109106000", "tract_name": "1060", "tags": {"building": "yes", "source": "microsoft/BuildingFootprints"}}}, {"type": "Feature", "geometry": {"type": "Polygon", "coordinates": [[[-97.4271013, 35.5293773], [-97.4271998, 35.5293057], [-97.4270666, 35.5291842], [-97.4269039, 35.5293024], [-97.4270664, 35.5294506], [-97.4271306, 35.529404], [-97.4271013, 35.5293773]]]}, "properties": {"osm_id": 1253022963, "building": "yes", "name": "", "height": null, "height_m": null, "levels": null, "tract_id": "40109106000", "tract_name": "1060", "tags": {"building": "yes", "source": "microsoft/BuildingFootprints"}}}, {"type": "Feature", "geometry": {"type": "Polygon", "coordinates": [[[-97.4260605, 35.5294322], [-97.4263394, 35.5294295], [-97.4263373, 35.5292855], [-97.4262033, 35.5292868], [-97.4262026, 35.5292409], [-97.4261168, 35.5292418], [-97.426118, 35.5293291], [-97.426059, 35.5293296], [-97.4260605, 35.5294322]]]}, "properties": {"osm_id": 1253022964, "building": "yes", "name": "", "height": null, "height_m": null, "levels": null, "tract_id": "40109106000", "tract_name": "1060", "tags": {"building": "yes", "source": "microsoft/BuildingFootprints"}}}, {"type": "Feature", "geometry": {"type": "Polygon", "coordinates": [[[-97.4254827, 35.5292725], [-97.4252267, 35.5292719], [-97.4252266, 35.5293024], [-97.4251863, 35.5293024], [-97.4251857, 35.5294966], [-97.4252662, 35.5294968], [-97.4252665, 35.5293942], [-97.4253562, 35.5293944], [-97.4253561, 35.5294272], [-97.4254273, 35.5294273], [-97.4254274, 35.5293968], [-97.4255172, 35.529397], [-97.4255173, 35.5293446], [-97.4254825, 35.5293445], [-97.4254827, 35.5292725]]]}, "properties": {"osm_id": 1253022965, "building": "yes", "name": "", "height": null, "height_m": null, "levels": null, "tract_id": "40109106000", "tract_name": "1060", "tags": {"building": "yes", "source": "microsoft/BuildingFootprints"}}}, {"type": "Feature", "geometry": {"type": "Polygon", "coordinates": [[[-97.4253933, 35.5286373], [-97.4253912, 35.5287696], [-97.4255092, 35.5287708], [-97.4255088, 35.5287927], [-97.4256068, 35.5287937], [-97.4256096, 35.5286147], [-97.4254916, 35.5286135], [-97.4254913, 35.5286383], [-97.4253933, 35.5286373]]]}, "properties": {"osm_id": 1253022966, "building": "yes", "name": "", "height": null, "height_m": null, "levels": null, "tract_id": "40109106000", "tract_name": "1060", "tags": {"building": "yes", "source": "microsoft/BuildingFootprints"}}}, {"type": "Feature", "geometry": {"type": "Polygon", "coordinates": [[[-97.4262548, 35.528639], [-97.426259, 35.5286075], [-97.4261728, 35.5285998], [-97.4261532, 35.5287465], [-97.426197, 35.5287504], [-97.4261918, 35.5287892], [-97.4264383, 35.5288111], [-97.4264589, 35.5286571], [-97.4262548, 35.528639]]]}, "properties": {"osm_id": 1253022967, "building": "yes", "name": "", "height": null, "height_m": null, "levels": null, "tract_id": "40109106000", "tract_name": "1060", "tags": {"building": "yes", "source": "microsoft/BuildingFootprints"}}}, {"type": "Feature", "geometry": {"type": "Polygon", "coordinates": [[[-97.4261999, 35.5280464], [-97.4261952, 35.5282152], [-97.4265143, 35.528221], [-97.4265177, 35.5280967], [-97.4262952, 35.5280926], [-97.4262964, 35.5280481], [-97.4261999, 35.5280464]]]}, "properties": {"osm_id": 1253022968, "building": "yes", "name": "", "height": null, "height_m": null, "levels": null, "tract_id": "40109106000", "tract_name": "1060", "tags": {"building": "yes", "source": "microsoft/BuildingFootprints"}}}, {"type": "Feature", "geometry": {"type": "Polygon", "coordinates": [[[-97.4256366, 35.5280503], [-97.4255373, 35.5280514], [-97.4255369, 35.5280261], [-97.4254242, 35.5280274], [-97.4254277, 35.528223], [-97.4256396, 35.5282205], [-97.4256366, 35.5280503]]]}, "properties": {"osm_id": 1253022969, "building": "yes", "name": "", "height": null, "height_m": null, "levels": null, "tract_id": "40109106000", "tract_name": "1060", "tags": {"building": "yes", "source": "microsoft/BuildingFootprints"}}}, {"type": "Feature", "geometry": {"type": "Polygon", "coordinates": [[[-97.4247913, 35.5281643], [-97.4246572, 35.5281665], [-97.4246581, 35.5282014], [-97.4246259, 35.528202], [-97.4246276, 35.5282674], [-97.4246597, 35.5282669], [-97.4246613, 35.5283302], [-97.4247364, 35.5283289], [-97.4247382, 35.5284009], [-97.4248428, 35.5283992], [-97.4248403, 35.5283019], [-97.4247814, 35.5283029], [-97.4247803, 35.5282627], [-97.4247937, 35.5282625], [-97.4247913, 35.5281643]]]}, "properties": {"osm_id": 1253022970, "building": "yes", "name": "", "height": null, "height_m": null, "levels": null, "tract_id": "40109106000", "tract_name": "1060", "tags": {"building": "yes", "source": "microsoft/BuildingFootprints"}}}, {"type": "Feature", "geometry": {"type": "Polygon", "coordinates": [[[-97.424523, 35.5274951], [-97.4245341, 35.5275872], [-97.4246005, 35.5275819], [-97.4246166, 35.5277159], [-97.4247681, 35.5277039], [-97.4247606, 35.5276421], [-97.4247899, 35.5276397], [-97.4247701, 35.5274754], [-97.424523, 35.5274951]]]}, "properties": {"osm_id": 1253022971, "building": "yes", "name": "", "height": null, "height_m": null, "levels": null, "tract_id": "40109106000", "tract_name": "1060", "tags": {"building": "yes", "source": "microsoft/BuildingFootprints"}}}, {"type": "Feature", "geometry": {"type": "Polygon", "coordinates": [[[-97.4253466, 35.5276106], [-97.4254149, 35.5276101], [-97.4254146, 35.5275817], [-97.4256238, 35.52758], [-97.425623, 35.5275189], [-97.4256566, 35.5275186], [-97.4256554, 35.5274182], [-97.4255642, 35.527419], [-97.4255644, 35.5274342], [-97.4254088, 35.5274355], [-97.4254082, 35.5273897], [-97.4253439, 35.5273902], [-97.4253466, 35.5276106]]]}, "properties": {"osm_id": 1253022972, "building": "yes", "name": "", "height": null, "height_m": null, "levels": null, "tract_id": "40109106000", "tract_name": "1060", "tags": {"building": "yes", "source": "microsoft/BuildingFootprints"}}}, {"type": "Feature", "geometry": {"type": "Polygon", "coordinates": [[[-97.4253421, 35.5268217], [-97.4252988, 35.526885], [-97.4253172, 35.5268934], [-97.4252602, 35.5269767], [-97.4254158, 35.5270472], [-97.4255595, 35.5268372], [-97.4254775, 35.5268001], [-97.4254342, 35.5268634], [-97.4253421, 35.5268217]]]}, "properties": {"osm_id": 1253022973, "building": "yes", "name": "", "height": null, "height_m": null, "levels": null, "tract_id": "40109106000", "tract_name": "1060", "tags": {"building": "yes", "source": "microsoft/BuildingFootprints"}}}, {"type": "Feature", "geometry": {"type": "Polygon", "coordinates": [[[-97.4264837, 35.5270258], [-97.4264764, 35.526871], [-97.4263773, 35.5268741], [-97.4263758, 35.5268414], [-97.4262955, 35.5268439], [-97.4262994, 35.5269289], [-97.4262512, 35.5269304], [-97.4262566, 35.5270459], [-97.4264012, 35.5270414], [-97.4264006, 35.5270283], [-97.4264837, 35.5270258]]]}, "properties": {"osm_id": 1253022974, "building": "yes", "name": "", "height": null, "height_m": null, "levels": null, "tract_id": "40109106000", "tract_name": "1060", "tags": {"building": "yes", "source": "microsoft/BuildingFootprints"}}}, {"type": "Feature", "geometry": {"type": "Polygon", "coordinates": [[[-97.424587, 35.5270869], [-97.4247084, 35.5271205], [-97.4247451, 35.5270327], [-97.4247234, 35.5269467], [-97.4247267, 35.5269386], [-97.4246966, 35.5268191], [-97.4246146, 35.5267964], [-97.4245914, 35.5268002], [-97.4245806, 35.5268261], [-97.4245366, 35.5268334], [-97.4245519, 35.5268942], [-97.4245824, 35.5268891], [-97.4245592, 35.5269446], [-97.424575, 35.5270072], [-97.4246156, 35.5270184], [-97.424587, 35.5270869]]]}, "properties": {"osm_id": 1253023119, "building": "yes", "name": "", "height": null, "height_m": null, "levels": null, "tract_id": "40109106000", "tract_name": "1060", "tags": {"building": "yes", "source": "microsoft/BuildingFootprints"}}}, {"type": "Feature", "geometry": {"type": "Polygon", "coordinates": [[[-97.4261838, 35.5275987], [-97.4263984, 35.5275987], [-97.4263984, 35.5274066], [-97.4263152, 35.5274066], [-97.4263152, 35.5274786], [-97.4262509, 35.5274786], [-97.4262509, 35.5274524], [-97.4261838, 35.5274524], [-97.4261838, 35.5275987]]]}, "properties": {"osm_id": 1253023120, "building": "yes", "name": "", "height": null, "height_m": null, "levels": null, "tract_id": "40109106000", "tract_name": "1060", "tags": {"building": "yes", "source": "microsoft/BuildingFootprints"}}}, {"type": "Feature", "geometry": {"type": "Polygon", "coordinates": [[[-97.4289907, 35.5276267], [-97.4288638, 35.5275979], [-97.4288448, 35.5276534], [-97.4288609, 35.5276571], [-97.4288356, 35.5277312], [-97.4287622, 35.5277145], [-97.4287254, 35.5278219], [-97.4289096, 35.5278637], [-97.4289907, 35.5276267]]]}, "properties": {"osm_id": 1253023121, "building": "yes", "name": "", "height": null, "height_m": null, "levels": null, "tract_id": "40109106000", "tract_name": "1060", "tags": {"building": "yes", "source": "microsoft/BuildingFootprints"}}}, {"type": "Feature", "geometry": {"type": "Polygon", "coordinates": [[[-97.4290583, 35.5270664], [-97.4292125, 35.5270661], [-97.4292115, 35.526767], [-97.4290573, 35.5267673], [-97.4290583, 35.5270664]]]}, "properties": {"osm_id": 1253023122, "building": "yes", "name": "", "height": null, "height_m": null, "levels": null, "tract_id": "40109106000", "tract_name": "1060", "tags": {"building": "yes", "source": "microsoft/BuildingFootprints"}}}, {"type": "Feature", "geometry": {"type": "Polygon", "coordinates": [[[-97.4301451, 35.5265851], [-97.430138, 35.5268098], [-97.4302372, 35.5268119], [-97.4302443, 35.5265872], [-97.4301451, 35.5265851]]]}, "properties": {"osm_id": 1253023123, "building": "yes", "name": "", "height": null, "height_m": null, "levels": null, "tract_id": "40109106000", "tract_name": "1060", "tags": {"building": "yes", "source": "microsoft/BuildingFootprints"}}}, {"type": "Feature", "geometry": {"type": "Polygon", "coordinates": [[[-97.4312266, 35.5279155], [-97.4314323, 35.5280825], [-97.4315262, 35.5280059], [-97.4314697, 35.52796], [-97.4316152, 35.5278412], [-97.4314942, 35.527743], [-97.4314426, 35.5277852], [-97.4314143, 35.5277622], [-97.4312266, 35.5279155]]]}, "properties": {"osm_id": 1253023124, "building": "yes", "name": "", "height": null, "height_m": null, "levels": null, "tract_id": "40109106000", "tract_name": "1060", "tags": {"building": "yes", "source": "microsoft/BuildingFootprints"}}}, {"type": "Feature", "geometry": {"type": "Polygon", "coordinates": [[[-97.4315938, 35.5264656], [-97.4313873, 35.5264666], [-97.4313883, 35.5266042], [-97.4315948, 35.5266032], [-97.4315938, 35.5264656]]]}, "properties": {"osm_id": 1253023125, "building": "yes", "name": "", "height": null, "height_m": null, "levels": null, "tract_id": "40109106000", "tract_name": "1060", "tags": {"building": "yes", "source": "microsoft/BuildingFootprints"}}}, {"type": "Feature", "geometry": {"type": "Polygon", "coordinates": [[[-97.4313145, 35.5264166], [-97.4314712, 35.5264184], [-97.431473, 35.5263169], [-97.4313163, 35.5263151], [-97.4313145, 35.5264166]]]}, "properties": {"osm_id": 1253023126, "building": "yes", "name": "", "height": null, "height_m": null, "levels": null, "tract_id": "40109106000", "tract_name": "1060", "tags": {"building": "yes", "source": "microsoft/BuildingFootprints"}}}, {"type": "Feature", "geometry": {"type": "Polygon", "coordinates": [[[-97.4326516, 35.5268602], [-97.4326654, 35.5267699], [-97.4323512, 35.5267379], [-97.4323304, 35.5268733], [-97.4325892, 35.5268997], [-97.4325961, 35.5268545], [-97.4326516, 35.5268602]]]}, "properties": {"osm_id": 1253023127, "building": "yes", "name": "", "height": null, "height_m": null, "levels": null, "tract_id": "40109106000", "tract_name": "1060", "tags": {"building": "yes", "source": "microsoft/BuildingFootprints"}}}, {"type": "Feature", "geometry": {"type": "Polygon", "coordinates": [[[-97.4320664, 35.5247451], [-97.4319392, 35.5247463], [-97.4319391, 35.5247365], [-97.4318436, 35.5247374], [-97.4318447, 35.5248171], [-97.4319467, 35.5248161], [-97.4319475, 35.5248729], [-97.4319609, 35.5248727], [-97.4319614, 35.5249098], [-97.4320687, 35.5249088], [-97.4320664, 35.5247451]]]}, "properties": {"osm_id": 1253023128, "building": "yes", "name": "", "height": null, "height_m": null, "levels": null, "tract_id": "40109106000", "tract_name": "1060", "tags": {"building": "yes", "source": "microsoft/BuildingFootprints"}}}, {"type": "Feature", "geometry": {"type": "Polygon", "coordinates": [[[-97.4307857, 35.5233685], [-97.4307846, 35.5234788], [-97.4308194, 35.5234791], [-97.4308191, 35.5235085], [-97.4308389, 35.5235086], [-97.4308385, 35.523537], [-97.4309744, 35.523538], [-97.430975, 35.5234812], [-97.4309642, 35.5234811], [-97.4309648, 35.5234256], [-97.430989, 35.5234257], [-97.4309896, 35.52337], [-97.4307857, 35.5233685]]]}, "properties": {"osm_id": 1253023129, "building": "yes", "name": "", "height": null, "height_m": null, "levels": null, "tract_id": "40109106000", "tract_name": "1060", "tags": {"building": "yes", "source": "microsoft/BuildingFootprints"}}}, {"type": "Feature", "geometry": {"type": "Polygon", "coordinates": [[[-97.4323362, 35.5227143], [-97.4322021, 35.522716], [-97.4322007, 35.5226418], [-97.4321256, 35.5226428], [-97.4321297, 35.5228578], [-97.4323388, 35.5228551], [-97.4323362, 35.5227143]]]}, "properties": {"osm_id": 1253023130, "building": "yes", "name": "", "height": null, "height_m": null, "levels": null, "tract_id": "40109106000", "tract_name": "1060", "tags": {"building": "yes", "source": "microsoft/BuildingFootprints"}}}, {"type": "Feature", "geometry": {"type": "Polygon", "coordinates": [[[-97.4312612, 35.5251932], [-97.4311929, 35.5252167], [-97.4312834, 35.5253908], [-97.4313517, 35.5253673], [-97.4312612, 35.5251932]]]}, "properties": {"osm_id": 1253023145, "building": "yes", "name": "", "height": null, "height_m": null, "levels": null, "tract_id": "40109106000", "tract_name": "1060", "tags": {"building": "yes", "source": "microsoft/BuildingFootprints"}}}, {"type": "Feature", "geometry": {"type": "Polygon", "coordinates": [[[-97.4326188, 35.5254339], [-97.4326225, 35.5255463], [-97.4327952, 35.5255426], [-97.4327915, 35.5254302], [-97.4326188, 35.5254339]]]}, "properties": {"osm_id": 1253023146, "building": "yes", "name": "", "height": null, "height_m": null, "levels": null, "tract_id": "40109106000", "tract_name": "1060", "tags": {"building": "yes", "source": "microsoft/BuildingFootprints"}}}, {"type": "Feature", "geometry": {"type": "Polygon", "coordinates": [[[-97.4327398, 35.5263381], [-97.4326121, 35.5264356], [-97.4327205, 35.5265297], [-97.4328482, 35.5264322], [-97.4327398, 35.5263381]]]}, "properties": {"osm_id": 1253023147, "building": "yes", "name": "", "height": null, "height_m": null, "levels": null, "tract_id": "40109106000", "tract_name": "1060", "tags": {"building": "yes", "source": "microsoft/BuildingFootprints"}}}, {"type": "Feature", "geometry": {"type": "Polygon", "coordinates": [[[-97.4355624, 35.5257957], [-97.4354757, 35.5257777], [-97.4354885, 35.5257367], [-97.435418, 35.525722], [-97.4354071, 35.5257569], [-97.4352837, 35.5257312], [-97.4352599, 35.5258071], [-97.4353354, 35.5258228], [-97.4353155, 35.5258863], [-97.4354842, 35.5259213], [-97.435501, 35.525868], [-97.4355373, 35.5258756], [-97.4355624, 35.5257957]]]}, "properties": {"osm_id": 1253023148, "building": "yes", "name": "", "height": null, "height_m": null, "levels": null, "tract_id": "40109106000", "tract_name": "1060", "tags": {"building": "yes", "source": "microsoft/BuildingFootprints"}}}, {"type": "Feature", "geometry": {"type": "Polygon", "coordinates": [[[-97.4355252, 35.5249942], [-97.4354474, 35.5251971], [-97.4355403, 35.5252207], [-97.4356181, 35.5250178], [-97.4355252, 35.5249942]]]}, "properties": {"osm_id": 1253023149, "building": "yes", "name": "", "height": null, "height_m": null, "levels": null, "tract_id": "40109106000", "tract_name": "1060", "tags": {"building": "yes", "source": "microsoft/BuildingFootprints"}}}, {"type": "Feature", "geometry": {"type": "Polygon", "coordinates": [[[-97.4361351, 35.5244106], [-97.4359782, 35.5244824], [-97.4360275, 35.5245537], [-97.4361844, 35.5244819], [-97.4361351, 35.5244106]]]}, "properties": {"osm_id": 1253023150, "building": "yes", "name": "", "height": null, "height_m": null, "levels": null, "tract_id": "40109106000", "tract_name": "1060", "tags": {"building": "yes", "source": "microsoft/BuildingFootprints"}}}, {"type": "Feature", "geometry": {"type": "Polygon", "coordinates": [[[-97.4339902, 35.5244576], [-97.4337795, 35.5244537], [-97.4337777, 35.5245192], [-97.4339884, 35.524523], [-97.4339902, 35.5244576]]]}, "properties": {"osm_id": 1253023151, "building": "yes", "name": "", "height": null, "height_m": null, "levels": null, "tract_id": "40109106000", "tract_name": "1060", "tags": {"building": "yes", "source": "microsoft/BuildingFootprints"}}}, {"type": "Feature", "geometry": {"type": "Polygon", "coordinates": [[[-97.4356686, 35.5243466], [-97.4356944, 35.524402], [-97.435828, 35.5243607], [-97.4358022, 35.5243054], [-97.4356686, 35.5243466]]]}, "properties": {"osm_id": 1253023152, "building": "yes", "name": "", "height": null, "height_m": null, "levels": null, "tract_id": "40109106000", "tract_name": "1060", "tags": {"building": "yes", "source": "microsoft/BuildingFootprints"}}}, {"type": "Feature", "geometry": {"type": "Polygon", "coordinates": [[[-97.4369938, 35.5249104], [-97.4369455, 35.5249095], [-97.4369401, 35.5251102], [-97.4369883, 35.5251111], [-97.4369938, 35.5249104]]]}, "properties": {"osm_id": 1253023153, "building": "yes", "name": "", "height": null, "height_m": null, "levels": null, "tract_id": "40109106000", "tract_name": "1060", "tags": {"building": "yes", "source": "microsoft/BuildingFootprints"}}}, {"type": "Feature", "geometry": {"type": "Polygon", "coordinates": [[[-97.4382017, 35.524655], [-97.4381517, 35.5245332], [-97.4381903, 35.5245227], [-97.438152, 35.5244292], [-97.4380579, 35.5244547], [-97.4380989, 35.5245549], [-97.4380444, 35.5245697], [-97.4380916, 35.5246849], [-97.4382017, 35.524655]]]}, "properties": {"osm_id": 1253023154, "building": "yes", "name": "", "height": null, "height_m": null, "levels": null, "tract_id": "40109106000", "tract_name": "1060", "tags": {"building": "yes", "source": "microsoft/BuildingFootprints"}}}, {"type": "Feature", "geometry": {"type": "Polygon", "coordinates": [[[-97.4386915, 35.5249751], [-97.4387816, 35.5249733], [-97.4387788, 35.5248825], [-97.4386888, 35.5248843], [-97.4386915, 35.5249751]]]}, "properties": {"osm_id": 1253023155, "building": "yes", "name": "", "height": null, "height_m": null, "levels": null, "tract_id": "40109106000", "tract_name": "1060", "tags": {"building": "yes", "source": "microsoft/BuildingFootprints"}}}, {"type": "Feature", "geometry": {"type": "Polygon", "coordinates": [[[-97.438835, 35.524863], [-97.4389342, 35.5248606], [-97.4389315, 35.5247886], [-97.4388324, 35.524791], [-97.438835, 35.524863]]]}, "properties": {"osm_id": 1253023156, "building": "yes", "name": "", "height": null, "height_m": null, "levels": null, "tract_id": "40109106000", "tract_name": "1060", "tags": {"building": "yes", "source": "microsoft/BuildingFootprints"}}}, {"type": "Feature", "geometry": {"type": "Polygon", "coordinates": [[[-97.4391234, 35.5242528], [-97.4391192, 35.5240376], [-97.4390173, 35.5240389], [-97.4390215, 35.5242541], [-97.4391234, 35.5242528]]]}, "properties": {"osm_id": 1253023157, "building": "yes", "name": "", "height": null, "height_m": null, "levels": null, "tract_id": "40109106000", "tract_name": "1060", "tags": {"building": "yes", "source": "microsoft/BuildingFootprints"}}}, {"type": "Feature", "geometry": {"type": "Polygon", "coordinates": [[[-97.4380614, 35.5255832], [-97.4380581, 35.5256756], [-97.4382579, 35.5256803], [-97.4382612, 35.5255879], [-97.4380614, 35.5255832]]]}, "properties": {"osm_id": 1253023158, "building": "yes", "name": "", "height": null, "height_m": null, "levels": null, "tract_id": "40109106000", "tract_name": "1060", "tags": {"building": "yes", "source": "microsoft/BuildingFootprints"}}}, {"type": "Feature", "geometry": {"type": "Polygon", "coordinates": [[[-97.4388636, 35.5256074], [-97.438609, 35.5256135], [-97.4386106, 35.5256585], [-97.4388652, 35.5256523], [-97.4388636, 35.5256074]]]}, "properties": {"osm_id": 1253023159, "building": "yes", "name": "", "height": null, "height_m": null, "levels": null, "tract_id": "40109106000", "tract_name": "1060", "tags": {"building": "yes", "source": "microsoft/BuildingFootprints"}}}, {"type": "Feature", "geometry": {"type": "Polygon", "coordinates": [[[-97.4392747, 35.5260634], [-97.4393868, 35.5260696], [-97.4393921, 35.5260066], [-97.4394028, 35.5260072], [-97.439414, 35.5258725], [-97.4392965, 35.525866], [-97.4392886, 35.5259616], [-97.4392458, 35.5259592], [-97.4392411, 35.5260157], [-97.4392785, 35.5260178], [-97.4392747, 35.5260634]]]}, "properties": {"osm_id": 1253023160, "building": "yes", "name": "", "height": null, "height_m": null, "levels": null, "tract_id": "40109106000", "tract_name": "1060", "tags": {"building": "yes", "source": "microsoft/BuildingFootprints"}}}, {"type": "Feature", "geometry": {"type": "Polygon", "coordinates": [[[-97.4394897, 35.5267873], [-97.4393892, 35.5267622], [-97.4393222, 35.5269397], [-97.4394227, 35.5269648], [-97.4394897, 35.5267873]]]}, "properties": {"osm_id": 1253023161, "building": "yes", "name": "", "height": null, "height_m": null, "levels": null, "tract_id": "40109106000", "tract_name": "1060", "tags": {"building": "yes", "source": "microsoft/BuildingFootprints"}}}, {"type": "Feature", "geometry": {"type": "Polygon", "coordinates": [[[-97.4391854, 35.5271528], [-97.4390073, 35.5271909], [-97.4390374, 35.527284], [-97.4391578, 35.5272582], [-97.4391479, 35.5272276], [-97.4392056, 35.5272152], [-97.4391854, 35.5271528]]]}, "properties": {"osm_id": 1253023162, "building": "yes", "name": "", "height": null, "height_m": null, "levels": null, "tract_id": "40109106000", "tract_name": "1060", "tags": {"building": "yes", "source": "microsoft/BuildingFootprints"}}}, {"type": "Feature", "geometry": {"type": "Polygon", "coordinates": [[[-97.4393889, 35.5274663], [-97.4393705, 35.527438], [-97.4394071, 35.5274222], [-97.4393694, 35.5273643], [-97.4393296, 35.5273814], [-97.4392803, 35.5273058], [-97.4391851, 35.5273469], [-97.4392905, 35.5275088], [-97.4393889, 35.5274663]]]}, "properties": {"osm_id": 1253023163, "building": "yes", "name": "", "height": null, "height_m": null, "levels": null, "tract_id": "40109106000", "tract_name": "1060", "tags": {"building": "yes", "source": "microsoft/BuildingFootprints"}}}, {"type": "Feature", "geometry": {"type": "Polygon", "coordinates": [[[-97.4316542, 35.5498315], [-97.43162, 35.549836], [-97.4315496, 35.5498455], [-97.4315268, 35.5497331], [-97.4316314, 35.5497191], [-97.4316542, 35.5498315]]]}, "properties": {"osm_id": 1375061707, "building": "garage", "name": "", "height": null, "height_m": null, "levels": null, "tract_id": "40109106000", "tract_name": "1060", "tags": {"building": "garage"}}}, {"type": "Feature", "geometry": {"type": "Polygon", "coordinates": [[[-97.4326053, 35.550543], [-97.4326579, 35.55054], [-97.4326607, 35.5505728], [-97.432608, 35.5505758], [-97.4326053, 35.550543]]]}, "properties": {"osm_id": 1375061708, "building": "shed", "name": "", "height": null, "height_m": null, "levels": null, "tract_id": "40109106000", "tract_name": "1060", "tags": {"building": "shed"}}}, {"type": "Feature", "geometry": {"type": "Polygon", "coordinates": [[[-97.4321864, 35.5508721], [-97.4321863, 35.550865], [-97.4321342, 35.5508654], [-97.4321343, 35.5508704], [-97.4320577, 35.5508709], [-97.4320576, 35.5508536], [-97.4320332, 35.5508537], [-97.4320326, 35.5508001], [-97.4320633, 35.5507998], [-97.4320628, 35.5507533], [-97.432098, 35.5507531], [-97.4320972, 35.550687], [-97.4321791, 35.5506864], [-97.4321803, 35.5507928], [-97.4322619, 35.5507923], [-97.4322627, 35.5508715], [-97.4321864, 35.5508721]]]}, "properties": {"osm_id": 1375061709, "building": "detached", "name": "", "height": null, "height_m": null, "levels": null, "tract_id": "40109106000", "tract_name": "1060", "tags": {"building": "detached"}}}, {"type": "Feature", "geometry": {"type": "Polygon", "coordinates": [[[-97.4311962, 35.550323], [-97.4311781, 35.5502788], [-97.4310979, 35.5503006], [-97.431061, 35.5502105], [-97.4311646, 35.5501824], [-97.4311586, 35.5501677], [-97.4312599, 35.5501403], [-97.4312684, 35.5501611], [-97.4313939, 35.5501272], [-97.4314071, 35.5501596], [-97.4314294, 35.550214], [-97.4313257, 35.5502422], [-97.4313426, 35.5502834], [-97.4311962, 35.550323]]]}, "properties": {"osm_id": 1375061715, "building": "detached", "name": "", "height": null, "height_m": null, "levels": null, "tract_id": "40109106000", "tract_name": "1060", "tags": {"building": "detached"}}}, {"type": "Feature", "geometry": {"type": "Polygon", "coordinates": [[[-97.4435243, 35.5495199], [-97.443478, 35.5495191], [-97.44348, 35.5494465], [-97.4435263, 35.5494474], [-97.4435243, 35.5495199]]]}, "properties": {"osm_id": 1375071637, "building": "yes", "name": "", "height": null, "height_m": null, "levels": null, "tract_id": "40109106000", "tract_name": "1060", "tags": {"building": "yes"}}}, {"type": "Feature", "geometry": {"type": "Polygon", "coordinates": [[[-97.4433406, 35.5488112], [-97.4433406, 35.5486858], [-97.4432266, 35.5486858], [-97.4432266, 35.5487109], [-97.4430724, 35.5487109], [-97.4430724, 35.5488112], [-97.4433406, 35.5488112]]]}, "properties": {"osm_id": 1375071644, "building": "yes", "name": "", "height": null, "height_m": null, "levels": null, "tract_id": "40109106000", "tract_name": "1060", "tags": {"building": "yes"}}}, {"type": "Feature", "geometry": {"type": "Polygon", "coordinates": [[[-97.4433784, 35.5493985], [-97.4433796, 35.5493424], [-97.4434528, 35.5493435], [-97.4434515, 35.5493995], [-97.4433784, 35.5493985]]]}, "properties": {"osm_id": 1375071645, "building": "yes", "name": "", "height": null, "height_m": null, "levels": null, "tract_id": "40109106000", "tract_name": "1060", "tags": {"building": "yes"}}}, {"type": "Feature", "geometry": {"type": "Polygon", "coordinates": [[[-97.442917, 35.5484324], [-97.4430373, 35.5484307], [-97.4430388, 35.5485016], [-97.4429185, 35.5485033], [-97.442917, 35.5484324]]]}, "properties": {"osm_id": 1375071646, "building": "yes", "name": "", "height": null, "height_m": null, "levels": null, "tract_id": "40109106000", "tract_name": "1060", "tags": {"building": "yes"}}}, {"type": "Feature", "geometry": {"type": "Polygon", "coordinates": [[[-97.4428293, 35.5487265], [-97.4428298, 35.5486832], [-97.4428696, 35.5486835], [-97.4428692, 35.5487268], [-97.4428293, 35.5487265]]]}, "properties": {"osm_id": 1375071647, "building": "yes", "name": "", "height": null, "height_m": null, "levels": null, "tract_id": "40109106000", "tract_name": "1060", "tags": {"building": "yes"}}}, {"type": "Feature", "geometry": {"type": "Polygon", "coordinates": [[[-97.4431322, 35.5494211], [-97.4432155, 35.5494189], [-97.4432157, 35.5494234], [-97.4432526, 35.5494225], [-97.443256, 35.5495073], [-97.4432189, 35.5495082], [-97.4432202, 35.5495398], [-97.443137, 35.5495419], [-97.4431322, 35.5494211]]]}, "properties": {"osm_id": 1375071648, "building": "yes", "name": "", "height": null, "height_m": null, "levels": null, "tract_id": "40109106000", "tract_name": "1060", "tags": {"building": "yes"}}}, {"type": "Feature", "geometry": {"type": "Polygon", "coordinates": [[[-97.4432447, 35.5500104], [-97.4432904, 35.5500077], [-97.4432949, 35.5500577], [-97.4432492, 35.5500605], [-97.4432447, 35.5500104]]]}, "properties": {"osm_id": 1375071649, "building": "shed", "name": "", "height": null, "height_m": null, "levels": null, "tract_id": "40109106000", "tract_name": "1060", "tags": {"building": "shed"}}}, {"type": "Feature", "geometry": {"type": "Polygon", "coordinates": [[[-97.4423765, 35.5490118], [-97.4424358, 35.5488168], [-97.4424234, 35.5488142], [-97.4424408, 35.5487586], [-97.4426518, 35.548801], [-97.4426214, 35.5488948], [-97.44258, 35.5488852], [-97.4425621, 35.5489424], [-97.4425253, 35.5489333], [-97.4424904, 35.5490375], [-97.4423765, 35.5490118]]]}, "properties": {"osm_id": 1375071650, "building": "detached", "name": "", "height": null, "height_m": null, "levels": null, "tract_id": "40109106000", "tract_name": "1060", "tags": {"building": "detached"}}}, {"type": "Feature", "geometry": {"type": "Polygon", "coordinates": [[[-97.4428817, 35.550036], [-97.4428794, 35.549996], [-97.4429514, 35.5499933], [-97.4429435, 35.5498523], [-97.4431264, 35.5498455], [-97.4431359, 35.5500152], [-97.4431431, 35.5500149], [-97.4431457, 35.5500623], [-97.4428766, 35.5500724], [-97.4428746, 35.5500362], [-97.4428817, 35.550036]]]}, "properties": {"osm_id": 1375071651, "building": "detached", "name": "", "height": null, "height_m": null, "levels": null, "tract_id": "40109106000", "tract_name": "1060", "tags": {"building": "detached"}}}, {"type": "Feature", "geometry": {"type": "Polygon", "coordinates": [[[-97.4433677, 35.5504497], [-97.4433665, 35.5503967], [-97.4433249, 35.5503973], [-97.4433244, 35.5503724], [-97.4433824, 35.5503716], [-97.4433829, 35.5503964], [-97.4434134, 35.550396], [-97.4434146, 35.550449], [-97.4433677, 35.5504497]]]}, "properties": {"osm_id": 1375071653, "building": "yes", "name": "", "height": null, "height_m": null, "levels": null, "tract_id": "40109106000", "tract_name": "1060", "tags": {"building": "yes"}}}, {"type": "Feature", "geometry": {"type": "Polygon", "coordinates": [[[-97.4438127, 35.5502487], [-97.4439923, 35.550249], [-97.4439912, 35.5505878], [-97.4438116, 35.5505874], [-97.4438127, 35.5502487]]]}, "properties": {"osm_id": 1375071654, "building": "yes", "name": "", "height": null, "height_m": null, "levels": null, "tract_id": "40109106000", "tract_name": "1060", "tags": {"building": "yes"}}}, {"type": "Feature", "geometry": {"type": "Polygon", "coordinates": [[[-97.4432651, 35.5490139], [-97.4433024, 35.5490137], [-97.4433027, 35.5490468], [-97.4432652, 35.549047], [-97.4432651, 35.5490139]]]}, "properties": {"osm_id": 1375071655, "building": "yes", "name": "", "height": null, "height_m": null, "levels": null, "tract_id": "40109106000", "tract_name": "1060", "tags": {"building": "yes"}}}, {"type": "Feature", "geometry": {"type": "Polygon", "coordinates": [[[-97.4299569, 35.5493222], [-97.4299577, 35.5493002], [-97.4300903, 35.5493028], [-97.4300896, 35.5493245], [-97.4299569, 35.5493222]]]}, "properties": {"osm_id": 1375071656, "building": "yes", "name": "", "height": null, "height_m": null, "levels": null, "tract_id": "40109106000", "tract_name": "1060", "tags": {"building": "yes"}}}, {"type": "Feature", "geometry": {"type": "Polygon", "coordinates": [[[-97.4429324, 35.5481662], [-97.442932, 35.5480211], [-97.4429277, 35.5480211], [-97.4429276, 35.5479585], [-97.443058, 35.5479583], [-97.4430582, 35.5480268], [-97.4431158, 35.5480267], [-97.443116, 35.5481044], [-97.443057, 35.5481044], [-97.4430571, 35.548166], [-97.4429324, 35.5481662]]]}, "properties": {"osm_id": 1375071657, "building": "detached", "name": "", "height": null, "height_m": null, "levels": null, "tract_id": "40109106000", "tract_name": "1060", "tags": {"building": "detached"}}}, {"type": "Feature", "geometry": {"type": "Polygon", "coordinates": [[[-97.4429673, 35.5486631], [-97.4430549, 35.5486601], [-97.4430565, 35.5486914], [-97.4429689, 35.5486944], [-97.4429673, 35.5486631]]]}, "properties": {"osm_id": 1375071659, "building": "yes", "name": "", "height": null, "height_m": null, "levels": null, "tract_id": "40109106000", "tract_name": "1060", "tags": {"building": "yes"}}}, {"type": "Feature", "geometry": {"type": "Polygon", "coordinates": [[[-97.4430021, 35.5507167], [-97.4430033, 35.5506022], [-97.4431122, 35.550603], [-97.4431127, 35.5505615], [-97.443197, 35.5505621], [-97.4431961, 35.5506505], [-97.4431524, 35.5506502], [-97.4431525, 35.5506424], [-97.4431218, 35.5506422], [-97.4431178, 35.5507181], [-97.4430839, 35.5507197], [-97.4430837, 35.5507389], [-97.4430357, 35.5507386], [-97.4430359, 35.5507169], [-97.4430021, 35.5507167]]]}, "properties": {"osm_id": 1375071660, "building": "detached", "name": "", "height": null, "height_m": null, "levels": null, "tract_id": "40109106000", "tract_name": "1060", "tags": {"building": "detached"}}}, {"type": "Feature", "geometry": {"type": "Polygon", "coordinates": [[[-97.4426495, 35.5483856], [-97.4428532, 35.5483847], [-97.4428537, 35.5484563], [-97.4428076, 35.5484565], [-97.4428077, 35.5484733], [-97.4427807, 35.5484734], [-97.4427806, 35.5484556], [-97.4426499, 35.5484561], [-97.4426495, 35.5483856]]]}, "properties": {"osm_id": 1375071661, "building": "yes", "name": "", "height": null, "height_m": null, "levels": null, "tract_id": "40109106000", "tract_name": "1060", "tags": {"building": "yes"}}}, {"type": "Feature", "geometry": {"type": "Polygon", "coordinates": [[[-97.4299447, 35.5494169], [-97.4299534, 35.5493373], [-97.4300145, 35.5493417], [-97.4300059, 35.5494213], [-97.4299447, 35.5494169]]]}, "properties": {"osm_id": 1375071662, "building": "yes", "name": "", "height": null, "height_m": null, "levels": null, "tract_id": "40109106000", "tract_name": "1060", "tags": {"building": "yes"}}}, {"type": "Feature", "geometry": {"type": "Polygon", "coordinates": [[[-97.4434459, 35.5503245], [-97.4434484, 35.5502603], [-97.443556, 35.5502631], [-97.4435535, 35.5503274], [-97.4434459, 35.5503245]]]}, "properties": {"osm_id": 1375071664, "building": "yes", "name": "", "height": null, "height_m": null, "levels": null, "tract_id": "40109106000", "tract_name": "1060", "tags": {"building": "yes"}}}, {"type": "Feature", "geometry": {"type": "Polygon", "coordinates": [[[-97.4434023, 35.5505663], [-97.4434889, 35.55054], [-97.4435174, 35.5506025], [-97.4434308, 35.5506288], [-97.4434023, 35.5505663]]]}, "properties": {"osm_id": 1375071666, "building": "yes", "name": "", "height": null, "height_m": null, "levels": null, "tract_id": "40109106000", "tract_name": "1060", "tags": {"building": "yes"}}}, {"type": "Feature", "geometry": {"type": "Polygon", "coordinates": [[[-97.4410015, 35.5492162], [-97.4411335, 35.5494181], [-97.4412213, 35.5493801], [-97.4410893, 35.5491782], [-97.4410015, 35.5492162]]]}, "properties": {"osm_id": 1375071667, "building": "detached", "name": "", "height": null, "height_m": null, "levels": null, "tract_id": "40109106000", "tract_name": "1060", "tags": {"building": "detached"}}}, {"type": "Feature", "geometry": {"type": "Polygon", "coordinates": [[[-97.4455364, 35.5497725], [-97.4459017, 35.5497688], [-97.445903, 35.5498519], [-97.4455377, 35.5498557], [-97.4455364, 35.5497725]]]}, "properties": {"osm_id": 1375074599, "building": "greenhouse", "name": "", "height": null, "height_m": null, "levels": null, "tract_id": "40109106000", "tract_name": "1060", "tags": {"building": "greenhouse"}}}, {"type": "Feature", "geometry": {"type": "Polygon", "coordinates": [[[-97.4456689, 35.5497232], [-97.4456697, 35.5496401], [-97.4457489, 35.5496406], [-97.445748, 35.5497237], [-97.4456689, 35.5497232]]]}, "properties": {"osm_id": 1375074600, "building": "shed", "name": "", "height": null, "height_m": null, "levels": null, "tract_id": "40109106000", "tract_name": "1060", "tags": {"building": "shed"}}}, {"type": "Feature", "geometry": {"type": "Polygon", "coordinates": [[[-97.4453898, 35.5494272], [-97.4454575, 35.5494186], [-97.4454885, 35.5495809], [-97.4454208, 35.5495895], [-97.4453898, 35.5494272]]]}, "properties": {"osm_id": 1375074601, "building": "greenhouse", "name": "", "height": null, "height_m": null, "levels": null, "tract_id": "40109106000", "tract_name": "1060", "tags": {"building": "greenhouse"}}}, {"type": "Feature", "geometry": {"type": "Polygon", "coordinates": [[[-97.4351572, 35.5504676], [-97.435053, 35.5504763], [-97.4350356, 35.5503389], [-97.4351397, 35.5503301], [-97.4351572, 35.5504676]]]}, "properties": {"osm_id": 1375097872, "building": "yes", "name": "", "height": null, "height_m": null, "levels": null, "tract_id": "40109106000", "tract_name": "1060", "tags": {"building": "yes"}}}, {"type": "Feature", "geometry": {"type": "Polygon", "coordinates": [[[-97.4346589, 35.5504239], [-97.434733, 35.5504035], [-97.4347699, 35.5504771], [-97.4347451, 35.5504853], [-97.4347769, 35.5505467], [-97.4347548, 35.5505538], [-97.4347576, 35.5505596], [-97.4347028, 35.5505773], [-97.4347, 35.5505715], [-97.4346807, 35.5505778], [-97.4346596, 35.5505453], [-97.4345942, 35.5505669], [-97.4345875, 35.5505582], [-97.4345731, 35.5505647], [-97.4345344, 35.5505606], [-97.4345298, 35.5505895], [-97.4344702, 35.5505833], [-97.4344747, 35.5505544], [-97.4344456, 35.5505513], [-97.4344459, 35.5505431], [-97.4344243, 35.5505326], [-97.4344135, 35.5505448], [-97.4343696, 35.5505153], [-97.4343817, 35.5505009], [-97.4343444, 35.5504771], [-97.43438, 35.5504373], [-97.4344071, 35.5504534], [-97.434434, 35.5504289], [-97.4344242, 35.5504223], [-97.4344497, 35.5503999], [-97.4346589, 35.5504239]]]}, "properties": {"osm_id": 1375097873, "building": "detached", "name": "", "height": null, "height_m": null, "levels": null, "tract_id": "40109106000", "tract_name": "1060", "tags": {"building": "detached"}}}, {"type": "Feature", "geometry": {"type": "Polygon", "coordinates": [[[-97.4442079, 35.5498187], [-97.4442713, 35.5498159], [-97.444274, 35.5498583], [-97.4442107, 35.5498611], [-97.4442079, 35.5498187]]]}, "properties": {"osm_id": 1375097874, "building": "yes", "name": "", "height": null, "height_m": null, "levels": null, "tract_id": "40109106000", "tract_name": "1060", "tags": {"building": "yes"}}}, {"type": "Feature", "geometry": {"type": "Polygon", "coordinates": [[[-97.4334046, 35.549268], [-97.4335467, 35.5492636], [-97.4335521, 35.5493775], [-97.4334099, 35.5493819], [-97.4334046, 35.549268]]]}, "properties": {"osm_id": 1375097878, "building": "yes", "name": "", "height": null, "height_m": null, "levels": null, "tract_id": "40109106000", "tract_name": "1060", "tags": {"building": "yes"}}}, {"type": "Feature", "geometry": {"type": "Polygon", "coordinates": [[[-97.4456528, 35.5500948], [-97.4456522, 35.5500703], [-97.4456071, 35.5500711], [-97.4456065, 35.5500483], [-97.4455889, 35.5500486], [-97.4455881, 35.5500176], [-97.4455409, 35.5500184], [-97.4455387, 35.5499279], [-97.4456135, 35.5499267], [-97.4456139, 35.5499445], [-97.4456315, 35.5499442], [-97.4456325, 35.5499878], [-97.4456856, 35.5499869], [-97.4456858, 35.5499951], [-97.4457126, 35.5499947], [-97.4457137, 35.5500396], [-97.4457421, 35.5500391], [-97.4457434, 35.5500933], [-97.4456528, 35.5500948]]]}, "properties": {"osm_id": 1375097879, "building": "yes", "name": "", "height": null, "height_m": null, "levels": null, "tract_id": "40109106000", "tract_name": "1060", "tags": {"building": "yes"}}}, {"type": "Feature", "geometry": {"type": "Polygon", "coordinates": [[[-97.4406774, 35.5483057], [-97.4408227, 35.5482957], [-97.4408325, 35.5483907], [-97.4406873, 35.5484007], [-97.4406774, 35.5483057]]]}, "properties": {"osm_id": 1375097880, "building": "yes", "name": "", "height": null, "height_m": null, "levels": null, "tract_id": "40109106000", "tract_name": "1060", "tags": {"building": "yes"}}}, {"type": "Feature", "geometry": {"type": "Polygon", "coordinates": [[[-97.4331189, 35.5504446], [-97.4332255, 35.5504427], [-97.4332295, 35.5506929], [-97.4331221, 35.5506941], [-97.4331189, 35.5504446]]]}, "properties": {"osm_id": 1375097882, "building": "yes", "name": "", "height": null, "height_m": null, "levels": null, "tract_id": "40109106000", "tract_name": "1060", "tags": {"building": "yes"}}}, {"type": "Feature", "geometry": {"type": "Polygon", "coordinates": [[[-97.4335895, 35.5506151], [-97.4335885, 35.5505669], [-97.4335655, 35.5505672], [-97.4335657, 35.5505775], [-97.4335465, 35.5505778], [-97.4335467, 35.5505855], [-97.4334762, 35.5505865], [-97.4334738, 35.5504693], [-97.4335282, 35.5504685], [-97.433528, 35.5504587], [-97.4336164, 35.5504575], [-97.4336171, 35.5504673], [-97.4336698, 35.5504651], [-97.4336715, 35.5505476], [-97.4336793, 35.5505475], [-97.4336807, 35.5506139], [-97.4335895, 35.5506151]]]}, "properties": {"osm_id": 1375097884, "building": "detached", "name": "", "height": null, "height_m": null, "levels": null, "tract_id": "40109106000", "tract_name": "1060", "tags": {"building": "detached"}}}, {"type": "Feature", "geometry": {"type": "Polygon", "coordinates": [[[-97.4407279, 35.5481089], [-97.4407255, 35.5480836], [-97.4408977, 35.5480727], [-97.4409039, 35.5481373], [-97.4409227, 35.5481361], [-97.440927, 35.5481802], [-97.4409094, 35.5481813], [-97.4409157, 35.5482468], [-97.4407421, 35.5482578], [-97.4407279, 35.5481089]]]}, "properties": {"osm_id": 1375097885, "building": "yes", "name": "", "height": null, "height_m": null, "levels": null, "tract_id": "40109106000", "tract_name": "1060", "tags": {"building": "yes"}}}, {"type": "Feature", "geometry": {"type": "Polygon", "coordinates": [[[-97.4457328, 35.5476266], [-97.4458547, 35.5476069], [-97.4458706, 35.5476729], [-97.4457487, 35.5476925], [-97.4457328, 35.5476266]]]}, "properties": {"osm_id": 1375097889, "building": "yes", "name": "", "height": null, "height_m": null, "levels": null, "tract_id": "40109106000", "tract_name": "1060", "tags": {"building": "yes"}}}, {"type": "Feature", "geometry": {"type": "Polygon", "coordinates": [[[-97.4413321, 35.550398], [-97.4413618, 35.5503961], [-97.4413587, 35.5503638], [-97.4414536, 35.5503576], [-97.4414569, 35.5503909], [-97.4414636, 35.5503904], [-97.4414707, 35.5504625], [-97.4413393, 35.5504711], [-97.4413321, 35.550398]]]}, "properties": {"osm_id": 1375097890, "building": "yes", "name": "", "height": null, "height_m": null, "levels": null, "tract_id": "40109106000", "tract_name": "1060", "tags": {"building": "yes"}}}, {"type": "Feature", "geometry": {"type": "Polygon", "coordinates": [[[-97.4456729, 35.550105], [-97.445747, 35.5501043], [-97.4457485, 35.5502737], [-97.4456752, 35.5502731], [-97.4456729, 35.550105]]]}, "properties": {"osm_id": 1375097893, "building": "yes", "name": "", "height": null, "height_m": null, "levels": null, "tract_id": "40109106000", "tract_name": "1060", "tags": {"building": "yes"}}}, {"type": "Feature", "geometry": {"type": "Polygon", "coordinates": [[[-97.4390751, 35.550271], [-97.4390743, 35.5502438], [-97.4391124, 35.5502431], [-97.4391133, 35.5502704], [-97.4391426, 35.5502698], [-97.4391447, 35.550339], [-97.4390502, 35.5503409], [-97.4390481, 35.5502716], [-97.4390751, 35.550271]]]}, "properties": {"osm_id": 1375097894, "building": "yes", "name": "", "height": null, "height_m": null, "levels": null, "tract_id": "40109106000", "tract_name": "1060", "tags": {"building": "yes"}}}, {"type": "Feature", "geometry": {"type": "Polygon", "coordinates": [[[-97.4391805, 35.5500102], [-97.4391703, 35.54993], [-97.438985, 35.5499456], [-97.4389952, 35.5500258], [-97.4391805, 35.5500102]]]}, "properties": {"osm_id": 1375097898, "building": "yes", "name": "", "height": null, "height_m": null, "levels": null, "tract_id": "40109106000", "tract_name": "1060", "tags": {"building": "yes"}}}, {"type": "Feature", "geometry": {"type": "Polygon", "coordinates": [[[-97.4327004, 35.5502303], [-97.4327467, 35.5502292], [-97.4327479, 35.5502712], [-97.4327019, 35.5502723], [-97.4327004, 35.5502303]]]}, "properties": {"osm_id": 1375098329, "building": "yes", "name": "", "height": null, "height_m": null, "levels": null, "tract_id": "40109106000", "tract_name": "1060", "tags": {"building": "yes"}}}, {"type": "Feature", "geometry": {"type": "Polygon", "coordinates": [[[-97.4361355, 35.5487032], [-97.4361832, 35.5487063], [-97.4361815, 35.5487236], [-97.4361898, 35.5487242], [-97.4361877, 35.5487454], [-97.436254, 35.5487498], [-97.4362556, 35.5487332], [-97.4362676, 35.5487338], [-97.4362944, 35.5487632], [-97.4363055, 35.5487565], [-97.4363271, 35.5487802], [-97.4363963, 35.5487385], [-97.4363747, 35.5487148], [-97.4363876, 35.548707], [-97.4363407, 35.5486563], [-97.4363488, 35.5485739], [-97.4363039, 35.5485709], [-97.4363085, 35.548525], [-97.436177, 35.5485164], [-97.4361724, 35.5485623], [-97.4361496, 35.5485608], [-97.4361355, 35.5487032]]]}, "properties": {"osm_id": 1375112441, "building": "construction", "name": "", "height": null, "height_m": null, "levels": null, "tract_id": "40109106000", "tract_name": "1060", "tags": {"building": "construction", "construction": "detached"}}}, {"type": "Feature", "geometry": {"type": "Polygon", "coordinates": [[[-97.4342479, 35.5485723], [-97.4345561, 35.5485716], [-97.4345548, 35.5481853], [-97.4342465, 35.548186], [-97.4342479, 35.5485723]]]}, "properties": {"osm_id": 1375112442, "building": "construction", "name": "", "height": null, "height_m": null, "levels": null, "tract_id": "40109106000", "tract_name": "1060", "tags": {"building": "construction"}}}, {"type": "Feature", "geometry": {"type": "Polygon", "coordinates": [[[-97.4364851, 35.5500723], [-97.4366461, 35.5500724], [-97.4366461, 35.5500541], [-97.4366585, 35.5500541], [-97.4366585, 35.5500047], [-97.4366462, 35.5500047], [-97.4366463, 35.5499602], [-97.43669, 35.5499603], [-97.4366901, 35.5499204], [-97.4366682, 35.5499204], [-97.4366682, 35.5499114], [-97.4366984, 35.5499114], [-97.4366985, 35.5498302], [-97.4365678, 35.5498301], [-97.4365677, 35.5499056], [-97.4364853, 35.5499056], [-97.4364851, 35.5500723]]]}, "properties": {"osm_id": 1375112443, "building": "construction", "name": "", "height": null, "height_m": null, "levels": null, "tract_id": "40109106000", "tract_name": "1060", "tags": {"building": "construction", "construction": "detached"}}}]}