{"type": "FeatureCollection", "features": [{"type": "Feature", "geometry": {"type": "Polygon", "coordinates": [[[-97.0682784, 36.7304547], [-97.067817, 36.7304573], [-97.067816, 36.7303522], [-97.0677774, 36.7303524], [-97.067776, 36.7302004], [-97.0678147, 36.7302002], [-97.0678127, 36.7299738], [-97.0683672, 36.7299706], [-97.0683676, 36.7300236], [-97.0682745, 36.7300241], [-97.0682784, 36.7304547]]]}, "properties": {"osm_id": 198396285, "building": "shop", "name": "Staples", "height": null, "height_m": null, "levels": null, "tract_id": "40071000202", "tract_name": "2.02", "tags": {"addr:city": "Ponca City", "addr:housenumber": "2216", "addr:postcode": "74601", "addr:state": "OK", "addr:street": "North 14th Street", "brand": "Staples", "brand:wikidata": "Q785943", "building": "shop", "name": "Staples", "opening_hours": "Mo-Fr 09:00-19:00; Sa 09:00-18:00; Su 11:00-18:00", "shop": "stationery", "website": "https://stores.staples.com/ok/ponca-city/2216-north-14th-street"}}}, {"type": "Feature", "geometry": {"type": "Polygon", "coordinates": [[[-97.0681324, 36.7319517], [-97.0676827, 36.7319517], [-97.0676827, 36.73171], [-97.0676928, 36.7316639], [-97.0677301, 36.7316478], [-97.0681324, 36.7316478], [-97.0681324, 36.7319517]]]}, "properties": {"osm_id": 198396318, "building": "retail", "name": "Walgreens", "height": null, "height_m": null, "levels": null, "tract_id": "40071000202", "tract_name": "2.02", "tags": {"brand": "Walgreens", "brand:wikidata": "Q1591889", "building": "retail", "name": "Walgreens", "post_office": "post_partner", "post_office:brand": "FedEx OnSite", "post_office:website": "https://local.fedex.com/en-us/ok/ponca-city/bjmbk", "shop": "chemist"}}}, {"type": "Feature", "geometry": {"type": "Polygon", "coordinates": [[[-97.0688295, 36.7257847], [-97.0682783, 36.7257847], [-97.0682783, 36.7255342], [-97.0688295, 36.7255342], [-97.0688295, 36.7257847]]]}, "properties": {"osm_id": 200898166, "building": "yes", "name": "", "height": null, "height_m": null, "levels": null, "tract_id": "40071000202", "tract_name": "2.02", "tags": {"building": "yes", "source": "bing"}}}, {"type": "Feature", "geometry": {"type": "Polygon", "coordinates": [[[-97.0693465, 36.725036], [-97.0694833, 36.7249178], [-97.0695986, 36.7249973], [-97.0696254, 36.7249758], [-97.0697703, 36.7250855], [-97.0697327, 36.7251242], [-97.0697676, 36.7251564], [-97.0697139, 36.725208], [-97.0695289, 36.7250704], [-97.069545, 36.7250532], [-97.0695101, 36.7250253], [-97.0694269, 36.7251027], [-97.0693465, 36.725036]]]}, "properties": {"osm_id": 200898189, "building": "yes", "name": "", "height": null, "height_m": null, "levels": null, "tract_id": "40071000202", "tract_name": "2.02", "tags": {"building": "yes", "source": "bing"}}}, {"type": "Feature", "geometry": {"type": "Polygon", "coordinates": [[[-97.0691086, 36.7254854], [-97.0692337, 36.7253761], [-97.0693589, 36.7254682], [-97.0692337, 36.7255774], [-97.0691086, 36.7254854]]]}, "properties": {"osm_id": 200898190, "building": "yes", "name": "", "height": null, "height_m": null, "levels": null, "tract_id": "40071000202", "tract_name": "2.02", "tags": {"building": "yes", "source": "bing"}}}, {"type": "Feature", "geometry": {"type": "Polygon", "coordinates": [[[-97.0700278, 36.7247479], [-97.0697086, 36.7245652], [-97.0698481, 36.7243975], [-97.069958, 36.724462], [-97.0699232, 36.7245007], [-97.070127, 36.7246297], [-97.0700278, 36.7247479]]]}, "properties": {"osm_id": 200899043, "building": "yes", "name": "", "height": null, "height_m": null, "levels": null, "tract_id": "40071000202", "tract_name": "2.02", "tags": {"building": "yes", "source": "bing"}}}, {"type": "Feature", "geometry": {"type": "Polygon", "coordinates": [[[-97.0677318, 36.7250726], [-97.0676191, 36.7250812], [-97.0676138, 36.7250231], [-97.0675309, 36.7250318], [-97.0675145, 36.7248275], [-97.0675029, 36.7248274], [-97.0674877, 36.7246512], [-97.0675092, 36.724649], [-97.0675092, 36.7246082], [-97.067587, 36.7245996], [-97.067603, 36.7246404], [-97.067831, 36.7244298], [-97.0679115, 36.7244749], [-97.0679517, 36.7244362], [-97.0678364, 36.7243739], [-97.0678981, 36.7243137], [-97.067933, 36.7243395], [-97.0680054, 36.7242707], [-97.0680805, 36.7243266], [-97.0682548, 36.7241761], [-97.0689281, 36.7246705], [-97.0688905, 36.7247135], [-97.0690353, 36.724821], [-97.069148, 36.7247329], [-97.0693036, 36.7248576], [-97.0690488, 36.7250876], [-97.0690112, 36.7250597], [-97.068971, 36.7250984], [-97.0690219, 36.7251414], [-97.0689924, 36.7251714], [-97.0688074, 36.7250403], [-97.0687725, 36.7250683], [-97.068625, 36.7249651], [-97.0685096, 36.7250597], [-97.0684292, 36.7250124], [-97.0683541, 36.7250833], [-97.0679142, 36.724778], [-97.0679517, 36.7247458], [-97.0679142, 36.7247221], [-97.0678391, 36.7247931], [-97.0679088, 36.7248511], [-97.0677211, 36.7250145], [-97.0677318, 36.7250726]]]}, "properties": {"osm_id": 200899045, "building": "hospital", "name": "", "height": null, "height_m": null, "levels": null, "tract_id": "40071000202", "tract_name": "2.02", "tags": {"building": "hospital", "source": "bing"}}}, {"type": "Feature", "geometry": {"type": "Polygon", "coordinates": [[[-97.065847, 36.7330737], [-97.0651179, 36.7330658], [-97.0651269, 36.7325348], [-97.0658559, 36.7325426], [-97.065847, 36.7330737]]]}, "properties": {"osm_id": 200903073, "building": "yes", "name": "", "height": null, "height_m": null, "levels": null, "tract_id": "40071000202", "tract_name": "2.02", "tags": {"building": "yes", "source": "bing"}}}, {"type": "Feature", "geometry": {"type": "Polygon", "coordinates": [[[-97.0662342, 36.7310921], [-97.0657514, 36.7310921], [-97.0657525, 36.7311951], [-97.0655485, 36.7311907], [-97.0655422, 36.7305546], [-97.0662342, 36.7305417], [-97.0662369, 36.7307116], [-97.0657523, 36.7307156], [-97.0657541, 36.7309287], [-97.0662395, 36.7309308], [-97.0662342, 36.7310921]]]}, "properties": {"osm_id": 200903701, "building": "yes", "name": "", "height": null, "height_m": null, "levels": null, "tract_id": "40071000202", "tract_name": "2.02", "tags": {"building": "yes", "source": "bing"}}}, {"type": "Feature", "geometry": {"type": "Polygon", "coordinates": [[[-97.0667226, 36.7310681], [-97.0666135, 36.7310675], [-97.0666151, 36.7308947], [-97.0667242, 36.7308953], [-97.0667226, 36.7310681]]]}, "properties": {"osm_id": 200903703, "building": "yes", "name": "", "height": null, "height_m": null, "levels": null, "tract_id": "40071000202", "tract_name": "2.02", "tags": {"building": "yes", "source": "bing"}}}, {"type": "Feature", "geometry": {"type": "Polygon", "coordinates": [[[-97.0693966, 36.7324678], [-97.0687564, 36.7324612], [-97.0687528, 36.7322099], [-97.0691417, 36.7322163], [-97.0691444, 36.7321282], [-97.0693643, 36.7321282], [-97.0693653, 36.7322183], [-97.0693938, 36.7322163], [-97.0693966, 36.7324678]]]}, "properties": {"osm_id": 200903705, "building": "yes", "name": "", "height": null, "height_m": null, "levels": null, "tract_id": "40071000202", "tract_name": "2.02", "tags": {"building": "yes", "source": "bing"}}}, {"type": "Feature", "geometry": {"type": "Polygon", "coordinates": [[[-97.0666829, 36.7307874], [-97.0664004, 36.7307853], [-97.0664041, 36.730478], [-97.0666866, 36.7304801], [-97.0666829, 36.7307874]]]}, "properties": {"osm_id": 200903706, "building": "yes", "name": "", "height": null, "height_m": null, "levels": null, "tract_id": "40071000202", "tract_name": "2.02", "tags": {"building": "yes", "source": "bing"}}}, {"type": "Feature", "geometry": {"type": "Polygon", "coordinates": [[[-97.0651411, 36.724456], [-97.0651417, 36.7243961], [-97.0646957, 36.7243935], [-97.0646943, 36.7245424], [-97.0649046, 36.7245437], [-97.0651411, 36.724456]]]}, "properties": {"osm_id": 223337509, "building": "commercial", "name": "Bank of the West", "height": null, "height_m": 3.0, "levels": 1, "tract_id": "40071000202", "tract_name": "2.02", "tags": {"addr:city": "Ponca City", "addr:country": "US", "addr:housenumber": "1471", "addr:postcode": "74604", "addr:street": "East Hartford Avenue", "amenity": "bank", "building": "commercial", "building:levels": "1", "name": "Bank of the West", "phone": "+1-580-767-0655", "website": "https://www.bankofthewest.com/"}}}, {"type": "Feature", "geometry": {"type": "Polygon", "coordinates": [[[-97.0697564, 36.7478012], [-97.068789, 36.7477867], [-97.0688033, 36.7471311], [-97.0687521, 36.7471302], [-97.0687521, 36.7468794], [-97.0688079, 36.7468776], [-97.0688101, 36.7467855], [-97.0687783, 36.7467855], [-97.0687767, 36.7466767], [-97.068744, 36.7466774], [-97.0687491, 36.7465754], [-97.068781, 36.7465754], [-97.0687844, 36.7464576], [-97.0696258, 36.7464682], [-97.0696258, 36.7465443], [-97.069775, 36.7465443], [-97.0697719, 36.7468022], [-97.0699924, 36.746805], [-97.0699893, 36.7470686], [-97.0697672, 36.7470692], [-97.0697564, 36.7478012]]]}, "properties": {"osm_id": 258989604, "building": "yes", "name": "Lowe's", "height": null, "height_m": null, "levels": null, "tract_id": "40071000202", "tract_name": "2.02", "tags": {"addr:city": "Ponca City", "addr:housenumber": "3500", "addr:postcode": "74601", "addr:state": "OK", "addr:street": "North 14th Street", "brand": "Lowe's", "brand:wikidata": "Q1373493", "building": "yes", "name": "Lowe's", "opening_hours": "Mo-Sa 06:00-21:00; Su 08:00-20:00", "phone": "+1 580-765-1111", "ref": "0072", "shop": "doityourself", "source": "Bing", "start_date": "1996-05-23", "url": "http://stores.lowes.com/lowes/cgi/site?site=0072", "website": "https://www.lowes.com/store/ok-ponca-city/0072"}}}, {"type": "Feature", "geometry": {"type": "Polygon", "coordinates": [[[-97.0713375, 36.7465266], [-97.0713375, 36.7468318], [-97.0708941, 36.7468329], [-97.0708927, 36.7465288], [-97.0713375, 36.7465266]]]}, "properties": {"osm_id": 258989605, "building": "yes", "name": "", "height": null, "height_m": null, "levels": null, "tract_id": "40071000202", "tract_name": "2.02", "tags": {"building": "yes", "source": "Bing"}}}, {"type": "Feature", "geometry": {"type": "Polygon", "coordinates": [[[-97.0726486, 36.7416372], [-97.0711048, 36.7416352], [-97.0711026, 36.7417034], [-97.0710998, 36.7417916], [-97.0710322, 36.7417936], [-97.0710272, 36.740769], [-97.0714051, 36.740773], [-97.0714093, 36.7407046], [-97.0713754, 36.7406785], [-97.0714249, 36.7406423], [-97.0714489, 36.7406638], [-97.0715259, 36.7406642], [-97.0721403, 36.7406676], [-97.0722228, 36.7406681], [-97.0722602, 36.7406416], [-97.0723008, 36.7406784], [-97.072273, 36.7407016], [-97.072273, 36.7407735], [-97.0727552, 36.7407684], [-97.0727542, 36.7408072], [-97.0730213, 36.7408063], [-97.0730148, 36.7409849], [-97.0727572, 36.7409858], [-97.0727551, 36.7412339], [-97.0729521, 36.7412313], [-97.0729528, 36.7413854], [-97.0727603, 36.7413854], [-97.0727625, 36.7414351], [-97.0726439, 36.7414333], [-97.0726486, 36.7416372]]]}, "properties": {"osm_id": 258989607, "building": "retail", "name": "Walmart Supercenter", "height": null, "height_m": 3.0, "levels": 1, "tract_id": "40071000202", "tract_name": "2.02", "tags": {"addr:city": "Ponca City", "addr:country": "US", "addr:housenumber": "1101", "addr:postcode": "74601", "addr:state": "OK", "addr:street": "East Prospect Avenue", "brand": "Walmart", "brand:wikidata": "Q483551", "building": "retail", "building:levels": "1", "name": "Walmart Supercenter", "opening_hours": "24/7", "operator": "Walmart", "operator:wikidata": "Q483551", "payment:app:walmart": "yes", "payment:apple_pay": "no", "payment:google_pay": "no", "payment:samsung_pay": "no", "phone": "+1 580-762-0395", "ref": "823", "ref:walmart": "823", "sensory_friendly:accommodation": "dimmed_light;static_screens;no_pa", "sensory_friendly:conditional": "yes @ 08:00-10:00", "shop": "supermarket", "source": "Bing", "website": "https://www.walmart.com/store/823-ponca-city-ok"}}}, {"type": "Feature", "geometry": {"type": "Polygon", "coordinates": [[[-97.0703793, 36.7252188], [-97.0703802, 36.7250749], [-97.0702723, 36.7250692], [-97.0702466, 36.72516], [-97.0702475, 36.725216], [-97.0703793, 36.7252188]]]}, "properties": {"osm_id": 263912039, "building": "yes", "name": "", "height": null, "height_m": null, "levels": null, "tract_id": "40071000202", "tract_name": "2.02", "tags": {"building": "yes"}}}, {"type": "Feature", "geometry": {"type": "Polygon", "coordinates": [[[-97.0707269, 36.7250668], [-97.0707335, 36.7248384], [-97.0705454, 36.7248349], [-97.0705439, 36.7248862], [-97.0705629, 36.7248865], [-97.0705605, 36.7249718], [-97.0704914, 36.7249705], [-97.0704888, 36.7250624], [-97.0707269, 36.7250668]]]}, "properties": {"osm_id": 263912040, "building": "yes", "name": "", "height": null, "height_m": null, "levels": null, "tract_id": "40071000202", "tract_name": "2.02", "tags": {"building": "yes"}}}, {"type": "Feature", "geometry": {"type": "Polygon", "coordinates": [[[-97.0701958, 36.7257701], [-97.0701995, 36.7256209], [-97.0700206, 36.725618], [-97.0700148, 36.7255958], [-97.0697767, 36.725592], [-97.0697729, 36.7257442], [-97.0699902, 36.7257477], [-97.0699897, 36.7257668], [-97.0701958, 36.7257701]]]}, "properties": {"osm_id": 263912041, "building": "yes", "name": "", "height": null, "height_m": null, "levels": null, "tract_id": "40071000202", "tract_name": "2.02", "tags": {"addr:city": "Ponca City", "addr:postcode": "74601", "amenity": "pharmacy", "building": "yes", "healthcare": "pharmacy"}}}, {"type": "Feature", "geometry": {"type": "Polygon", "coordinates": [[[-97.0705708, 36.7261174], [-97.0705724, 36.725781], [-97.070404, 36.7257805], [-97.0704024, 36.7261169], [-97.0705708, 36.7261174]]]}, "properties": {"osm_id": 263912042, "building": "yes", "name": "", "height": null, "height_m": null, "levels": null, "tract_id": "40071000202", "tract_name": "2.02", "tags": {"building": "yes"}}}, {"type": "Feature", "geometry": {"type": "Polygon", "coordinates": [[[-97.0702329, 36.7264306], [-97.0702347, 36.7263481], [-97.0703389, 36.7263496], [-97.0703414, 36.7262337], [-97.0702497, 36.7262324], [-97.070251, 36.7261754], [-97.0699546, 36.7261713], [-97.0699517, 36.726307], [-97.0699102, 36.7263064], [-97.0699094, 36.7263439], [-97.0699609, 36.7263446], [-97.0699591, 36.7264268], [-97.0702329, 36.7264306]]]}, "properties": {"osm_id": 263912043, "building": "yes", "name": "", "height": null, "height_m": null, "levels": null, "tract_id": "40071000202", "tract_name": "2.02", "tags": {"building": "yes"}}}, {"type": "Feature", "geometry": {"type": "Polygon", "coordinates": [[[-97.0708027, 36.7260131], [-97.0708077, 36.7258167], [-97.0708747, 36.7258178], [-97.0708936, 36.7258096], [-97.0709301, 36.7258131], [-97.070949, 36.7258224], [-97.0710765, 36.7258232], [-97.0710747, 36.7260072], [-97.0710365, 36.726007], [-97.0710263, 36.7259953], [-97.0708703, 36.7259977], [-97.0708587, 36.726014], [-97.0708027, 36.7260131]]]}, "properties": {"osm_id": 263912044, "building": "yes", "name": "", "height": null, "height_m": null, "levels": null, "tract_id": "40071000202", "tract_name": "2.02", "tags": {"building": "yes"}}}, {"type": "Feature", "geometry": {"type": "Polygon", "coordinates": [[[-97.0526234, 36.7394457], [-97.0526231, 36.7395874], [-97.0527888, 36.7395877], [-97.0527883, 36.7398], [-97.0527879, 36.7399837], [-97.0525137, 36.7399833], [-97.0524716, 36.7399832], [-97.0524713, 36.7400875], [-97.0524711, 36.7401906], [-97.052312, 36.7401903], [-97.0522926, 36.7401903], [-97.0522928, 36.7400983], [-97.052293, 36.7400134], [-97.0522931, 36.7399845], [-97.0520228, 36.7399841], [-97.0519513, 36.7399839], [-97.0519515, 36.7399116], [-97.0519517, 36.7398379], [-97.0520167, 36.739838], [-97.052291, 36.7398384], [-97.052291, 36.7398244], [-97.0522917, 36.7395829], [-97.0524508, 36.7395832], [-97.0524511, 36.7394455], [-97.0526234, 36.7394457]]]}, "properties": {"osm_id": 376412201, "building": "yes", "name": "Ponca City Assembly", "height": null, "height_m": null, "levels": null, "tract_id": "40071000202", "tract_name": "2.02", "tags": {"addr:city": "Ponca City", "addr:housenumber": "2313", "addr:postcode": "74604", "addr:state": "OK", "addr:street": "East Prospect Avenue", "amenity": "place_of_worship", "building": "yes", "name": "Ponca City Assembly", "religion": "christian"}}}, {"type": "Feature", "geometry": {"type": "Polygon", "coordinates": [[[-97.0560382, 36.738814], [-97.0560374, 36.7391533], [-97.056001, 36.7391532], [-97.0560005, 36.7393476], [-97.0559616, 36.7393476], [-97.0559611, 36.7394899], [-97.055684, 36.7394893], [-97.0556843, 36.7393869], [-97.0553004, 36.739386], [-97.0553006, 36.7393441], [-97.0552021, 36.7393438], [-97.0552007, 36.7397057], [-97.0551128, 36.7397055], [-97.0551126, 36.7397369], [-97.0550593, 36.7397367], [-97.0550591, 36.7397961], [-97.0549482, 36.7397958], [-97.0549494, 36.7395227], [-97.0549223, 36.7395226], [-97.0549242, 36.7391093], [-97.0552776, 36.7391104], [-97.0552777, 36.739078], [-97.0553914, 36.7390784], [-97.0553912, 36.7391101], [-97.0556841, 36.7391109], [-97.055684, 36.7391378], [-97.055741, 36.7391379], [-97.0557412, 36.7390723], [-97.0557267, 36.7390722], [-97.0557269, 36.7390083], [-97.0557438, 36.7390083], [-97.055744, 36.7389302], [-97.055728, 36.7389302], [-97.0557281, 36.7388789], [-97.0558223, 36.7388791], [-97.0558224, 36.7388434], [-97.055884, 36.7388435], [-97.055884, 36.7388137], [-97.0560382, 36.738814]]]}, "properties": {"osm_id": 376412205, "building": "school", "name": "EM Trout Elementary School", "height": null, "height_m": null, "levels": null, "tract_id": "40071000202", "tract_name": "2.02", "tags": {"building": "school", "name": "EM Trout Elementary School"}}}, {"type": "Feature", "geometry": {"type": "Polygon", "coordinates": [[[-97.0705095, 36.740047], [-97.0699999, 36.7400491], [-97.0699972, 36.7396451], [-97.0705068, 36.739643], [-97.0705095, 36.740047]]]}, "properties": {"osm_id": 605936428, "building": "retail", "name": "", "height": null, "height_m": null, "levels": null, "tract_id": "40071000202", "tract_name": "2.02", "tags": {"building": "retail"}}}, {"type": "Feature", "geometry": {"type": "Polygon", "coordinates": [[[-97.0741976, 36.739188], [-97.0739978, 36.7391869], [-97.0739992, 36.7390268], [-97.0740501, 36.7390271], [-97.0740504, 36.7389934], [-97.0740918, 36.7389936], [-97.0740917, 36.7390098], [-97.0741991, 36.7390103], [-97.0741976, 36.739188]]]}, "properties": {"osm_id": 605936437, "building": "yes", "name": "Chili's", "height": null, "height_m": null, "levels": null, "tract_id": "40071000202", "tract_name": "2.02", "tags": {"addr:city": "Ponca City", "addr:housenumber": "801", "addr:postcode": "74601", "addr:state": "OK", "addr:street": "East Prospect Avenue", "amenity": "restaurant", "brand": "Chili's", "brand:wikidata": "Q1072948", "building": "yes", "cuisine": "tex-mex", "name": "Chili's", "official_name": "Chili's Grill & Bar"}}}, {"type": "Feature", "geometry": {"type": "Polygon", "coordinates": [[[-97.0734594, 36.7390717], [-97.0733509, 36.7390708], [-97.0733535, 36.7388698], [-97.0734621, 36.7388708], [-97.0734594, 36.7390717]]]}, "properties": {"osm_id": 605936438, "building": "retail", "name": "Schlotzsky's", "height": null, "height_m": 3.0, "levels": 1, "tract_id": "40071000202", "tract_name": "2.02", "tags": {"addr:city": "Ponca City", "addr:housenumber": "813", "addr:postcode": "74601", "addr:state": "OK", "addr:street": "East Prospect Avenue", "amenity": "fast_food", "brand": "Schlotzsky's", "brand:wikidata": "Q2244796", "building": "retail", "building:levels": "1", "cuisine": "sandwich", "name": "Schlotzsky's", "phone": "+1-580-749-5246", "takeaway": "yes"}}}, {"type": "Feature", "geometry": {"type": "Polygon", "coordinates": [[[-97.0714901, 36.7391507], [-97.0714109, 36.7391511], [-97.0714082, 36.7388416], [-97.0714874, 36.7388411], [-97.0714901, 36.7391507]]]}, "properties": {"osm_id": 605936439, "building": "roof", "name": "Murphy USA", "height": null, "height_m": null, "levels": null, "tract_id": "40071000202", "tract_name": "2.02", "tags": {"addr:city": "Ponca City", "addr:housenumber": "1115", "addr:postcode": "74601", "addr:state": "OK", "addr:street": "East Prospect Avenue", "amenity": "fuel", "brand": "Murphy USA", "brand:wikidata": "Q19604459", "building": "roof", "name": "Murphy USA"}}}, {"type": "Feature", "geometry": {"type": "Polygon", "coordinates": [[[-97.0728249, 36.7393625], [-97.0723663, 36.7393604], [-97.072368, 36.7391303], [-97.0728266, 36.7391325], [-97.0728249, 36.7393625]]]}, "properties": {"osm_id": 605936440, "building": "retail", "name": "", "height": null, "height_m": 3.0, "levels": 1, "tract_id": "40071000202", "tract_name": "2.02", "tags": {"building": "retail", "building:levels": "1"}}}, {"type": "Feature", "geometry": {"type": "Polygon", "coordinates": [[[-97.0752038, 36.7377187], [-97.0752062, 36.7375434], [-97.075123, 36.7375427], [-97.0751235, 36.7375043], [-97.0749597, 36.7375028], [-97.0749591, 36.7375452], [-97.0748784, 36.7375445], [-97.074876, 36.7377157], [-97.0752038, 36.7377187]]]}, "properties": {"osm_id": 626789633, "building": "yes", "name": "Hunan", "height": null, "height_m": null, "levels": null, "tract_id": "40071000202", "tract_name": "2.02", "tags": {"addr:city": "Ponca City", "addr:housenumber": "2800", "addr:postcode": "74601", "addr:state": "OK", "addr:street": "North 5th Street", "amenity": "restaurant", "building": "yes", "cuisine": "chinese", "name": "Hunan"}}}, {"type": "Feature", "geometry": {"type": "Polygon", "coordinates": [[[-97.0749929, 36.7382649], [-97.0749929, 36.737956], [-97.0748528, 36.737956], [-97.0748027, 36.737956], [-97.0748027, 36.7382649], [-97.0749929, 36.7382649]]]}, "properties": {"osm_id": 626789635, "building": "yes", "name": "Ground Round Bar & Grill Ponca City", "height": null, "height_m": null, "levels": null, "tract_id": "40071000202", "tract_name": "2.02", "tags": {"addr:city": "Ponca City", "addr:housenumber": "720", "addr:postcode": "74601", "addr:state": "OK", "addr:street": "East Prospect Avenue", "amenity": "restaurant", "building": "yes", "cuisine": "american", "name": "Ground Round Bar & Grill Ponca City"}}}, {"type": "Feature", "geometry": {"type": "Polygon", "coordinates": [[[-97.0751622, 36.7364338], [-97.0751815, 36.7363729], [-97.0752159, 36.7363799], [-97.0752353, 36.7363185], [-97.0750554, 36.7362818], [-97.0750249, 36.7363781], [-97.0751162, 36.7363967], [-97.0751079, 36.7364227], [-97.0751622, 36.7364338]]]}, "properties": {"osm_id": 626789636, "building": "yes", "name": "", "height": null, "height_m": null, "levels": null, "tract_id": "40071000202", "tract_name": "2.02", "tags": {"building": "yes"}}}, {"type": "Feature", "geometry": {"type": "Polygon", "coordinates": [[[-97.0750161, 36.7368463], [-97.0750582, 36.7367186], [-97.075024, 36.7367113], [-97.0750417, 36.7366576], [-97.0748727, 36.7366219], [-97.0748636, 36.7366494], [-97.0748083, 36.7366377], [-97.0747833, 36.7367135], [-97.0748226, 36.7367218], [-97.0747968, 36.7367999], [-97.0750161, 36.7368463]]]}, "properties": {"osm_id": 626789637, "building": "yes", "name": "", "height": null, "height_m": null, "levels": null, "tract_id": "40071000202", "tract_name": "2.02", "tags": {"building": "yes"}}}, {"type": "Feature", "geometry": {"type": "Polygon", "coordinates": [[[-97.0752963, 36.7369022], [-97.0753384, 36.7367744], [-97.0753041, 36.7367672], [-97.0753218, 36.7367135], [-97.0751529, 36.7366777], [-97.0751438, 36.7367053], [-97.0750885, 36.7366935], [-97.0750635, 36.7367693], [-97.0751028, 36.7367776], [-97.075077, 36.7368557], [-97.0752963, 36.7369022]]]}, "properties": {"osm_id": 626789638, "building": "yes", "name": "", "height": null, "height_m": null, "levels": null, "tract_id": "40071000202", "tract_name": "2.02", "tags": {"building": "yes"}}}, {"type": "Feature", "geometry": {"type": "Polygon", "coordinates": [[[-97.0755826, 36.7369143], [-97.0754177, 36.7369166], [-97.0754183, 36.7369449], [-97.075349, 36.7369459], [-97.075352, 36.7370859], [-97.0753875, 36.7370854], [-97.0753884, 36.7371313], [-97.0754862, 36.73713], [-97.0754855, 36.7370974], [-97.0755863, 36.7370961], [-97.0755826, 36.7369143]]]}, "properties": {"osm_id": 626789639, "building": "yes", "name": "", "height": null, "height_m": null, "levels": null, "tract_id": "40071000202", "tract_name": "2.02", "tags": {"building": "yes"}}}, {"type": "Feature", "geometry": {"type": "Polygon", "coordinates": [[[-97.0761296, 36.7369196], [-97.0759648, 36.7369237], [-97.0759659, 36.736952], [-97.0758966, 36.7369537], [-97.075902, 36.7370937], [-97.0759375, 36.7370929], [-97.0759392, 36.7371387], [-97.0760369, 36.7371363], [-97.0760357, 36.7371037], [-97.0761365, 36.7371013], [-97.0761296, 36.7369196]]]}, "properties": {"osm_id": 626789640, "building": "yes", "name": "", "height": null, "height_m": null, "levels": null, "tract_id": "40071000202", "tract_name": "2.02", "tags": {"building": "yes"}}}, {"type": "Feature", "geometry": {"type": "Polygon", "coordinates": [[[-97.0761399, 36.7366865], [-97.075975, 36.7366884], [-97.0759755, 36.7367168], [-97.0759062, 36.7367176], [-97.0759087, 36.7368576], [-97.0759442, 36.7368572], [-97.075945, 36.736903], [-97.0760428, 36.7369019], [-97.0760422, 36.7368694], [-97.0761431, 36.7368683], [-97.0761399, 36.7366865]]]}, "properties": {"osm_id": 626789641, "building": "yes", "name": "", "height": null, "height_m": null, "levels": null, "tract_id": "40071000202", "tract_name": "2.02", "tags": {"building": "yes"}}}, {"type": "Feature", "geometry": {"type": "Polygon", "coordinates": [[[-97.0757506, 36.7363826], [-97.075589, 36.7363564], [-97.075582, 36.7363842], [-97.0755141, 36.7363731], [-97.0754793, 36.7365104], [-97.0755141, 36.736516], [-97.0755027, 36.736561], [-97.0755985, 36.7365766], [-97.0756066, 36.7365447], [-97.0757054, 36.7365608], [-97.0757506, 36.7363826]]]}, "properties": {"osm_id": 626789642, "building": "yes", "name": "", "height": null, "height_m": null, "levels": null, "tract_id": "40071000202", "tract_name": "2.02", "tags": {"building": "yes"}}}, {"type": "Feature", "geometry": {"type": "Polygon", "coordinates": [[[-97.0757941, 36.736167], [-97.0756325, 36.7361407], [-97.0756254, 36.7361686], [-97.0755575, 36.7361575], [-97.0755227, 36.7362948], [-97.0755575, 36.7363004], [-97.0755461, 36.7363454], [-97.075642, 36.736361], [-97.0756501, 36.7363291], [-97.0757489, 36.7363452], [-97.0757941, 36.736167]]]}, "properties": {"osm_id": 626789643, "building": "yes", "name": "", "height": null, "height_m": null, "levels": null, "tract_id": "40071000202", "tract_name": "2.02", "tags": {"building": "yes"}}}, {"type": "Feature", "geometry": {"type": "Polygon", "coordinates": [[[-97.0761282, 36.735839], [-97.0759633, 36.7358395], [-97.0759635, 36.7358679], [-97.0758942, 36.735868], [-97.0758948, 36.7360081], [-97.0759303, 36.736008], [-97.0759305, 36.7360538], [-97.0760282, 36.7360536], [-97.0760281, 36.736021], [-97.076129, 36.7360208], [-97.0761282, 36.735839]]]}, "properties": {"osm_id": 626789644, "building": "yes", "name": "", "height": null, "height_m": null, "levels": null, "tract_id": "40071000202", "tract_name": "2.02", "tags": {"building": "yes"}}}, {"type": "Feature", "geometry": {"type": "Polygon", "coordinates": [[[-97.0752984, 36.735841], [-97.0751335, 36.7358415], [-97.0751336, 36.7358699], [-97.0750643, 36.7358701], [-97.0750649, 36.7360101], [-97.0751005, 36.73601], [-97.0751006, 36.7360559], [-97.0751984, 36.7360556], [-97.0751983, 36.7360231], [-97.0752991, 36.7360228], [-97.0752984, 36.735841]]]}, "properties": {"osm_id": 626789645, "building": "yes", "name": "", "height": null, "height_m": null, "levels": null, "tract_id": "40071000202", "tract_name": "2.02", "tags": {"building": "yes"}}}, {"type": "Feature", "geometry": {"type": "Polygon", "coordinates": [[[-97.0759177, 36.735441], [-97.0757528, 36.7354415], [-97.0757529, 36.7354699], [-97.0756836, 36.7354701], [-97.0756842, 36.7356101], [-97.0757197, 36.73561], [-97.0757199, 36.7356559], [-97.0758177, 36.7356556], [-97.0758176, 36.7356231], [-97.0759184, 36.7356228], [-97.0759177, 36.735441]]]}, "properties": {"osm_id": 626789646, "building": "yes", "name": "", "height": null, "height_m": null, "levels": null, "tract_id": "40071000202", "tract_name": "2.02", "tags": {"building": "yes"}}}, {"type": "Feature", "geometry": {"type": "Polygon", "coordinates": [[[-97.0753523, 36.7353497], [-97.0754886, 36.735424], [-97.0755085, 36.7354006], [-97.0755658, 36.7354318], [-97.0756642, 36.735316], [-97.0756348, 36.7353], [-97.075667, 36.7352621], [-97.0755861, 36.735218], [-97.0755633, 36.7352449], [-97.0754799, 36.7351994], [-97.0753523, 36.7353497]]]}, "properties": {"osm_id": 626789647, "building": "yes", "name": "", "height": null, "height_m": null, "levels": null, "tract_id": "40071000202", "tract_name": "2.02", "tags": {"building": "yes"}}}, {"type": "Feature", "geometry": {"type": "Polygon", "coordinates": [[[-97.0755528, 36.7356463], [-97.0755531, 36.7355142], [-97.0755176, 36.7355141], [-97.0755178, 36.7354586], [-97.075343, 36.7354583], [-97.0753429, 36.7354868], [-97.0752857, 36.7354867], [-97.0752856, 36.7355651], [-97.0753262, 36.7355652], [-97.075326, 36.735646], [-97.0755528, 36.7356463]]]}, "properties": {"osm_id": 626789648, "building": "yes", "name": "", "height": null, "height_m": null, "levels": null, "tract_id": "40071000202", "tract_name": "2.02", "tags": {"building": "yes"}}}, {"type": "Feature", "geometry": {"type": "Polygon", "coordinates": [[[-97.0755854, 36.7360422], [-97.0755831, 36.7359101], [-97.0755477, 36.7359105], [-97.0755467, 36.735855], [-97.075372, 36.7358569], [-97.0753725, 36.7358853], [-97.0753153, 36.735886], [-97.0753166, 36.7359643], [-97.0753572, 36.7359639], [-97.0753586, 36.7360447], [-97.0755854, 36.7360422]]]}, "properties": {"osm_id": 626789649, "building": "yes", "name": "", "height": null, "height_m": null, "levels": null, "tract_id": "40071000202", "tract_name": "2.02", "tags": {"building": "yes"}}}, {"type": "Feature", "geometry": {"type": "Polygon", "coordinates": [[[-97.0758714, 36.7360359], [-97.0758691, 36.7359038], [-97.0758337, 36.7359042], [-97.0758327, 36.7358487], [-97.075658, 36.7358506], [-97.0756585, 36.735879], [-97.0756013, 36.7358797], [-97.0756026, 36.735958], [-97.0756432, 36.7359576], [-97.0756446, 36.7360384], [-97.0758714, 36.7360359]]]}, "properties": {"osm_id": 626789650, "building": "yes", "name": "", "height": null, "height_m": null, "levels": null, "tract_id": "40071000202", "tract_name": "2.02", "tags": {"building": "yes"}}}, {"type": "Feature", "geometry": {"type": "Polygon", "coordinates": [[[-97.0762092, 36.7395504], [-97.0762092, 36.7399116], [-97.0761207, 36.7399116], [-97.0761207, 36.7395504], [-97.0762092, 36.7395504]]]}, "properties": {"osm_id": 671074087, "building": "yes", "name": "", "height": null, "height_m": null, "levels": null, "tract_id": "40071000202", "tract_name": "2.02", "tags": {"building": "yes"}}}, {"type": "Feature", "geometry": {"type": "Polygon", "coordinates": [[[-97.075949, 36.7400061], [-97.0754367, 36.7399986], [-97.0754391, 36.7398952], [-97.0759514, 36.7399028], [-97.075949, 36.7400061]]]}, "properties": {"osm_id": 671074088, "building": "yes", "name": "", "height": null, "height_m": null, "levels": null, "tract_id": "40071000202", "tract_name": "2.02", "tags": {"building": "yes"}}}, {"type": "Feature", "geometry": {"type": "Polygon", "coordinates": [[[-97.0761099, 36.7395279], [-97.0760965, 36.739112], [-97.0762185, 36.7391094], [-97.0762319, 36.7395254], [-97.0761099, 36.7395279]]]}, "properties": {"osm_id": 671074089, "building": "yes", "name": "", "height": null, "height_m": null, "levels": null, "tract_id": "40071000202", "tract_name": "2.02", "tags": {"building": "yes"}}}, {"type": "Feature", "geometry": {"type": "Polygon", "coordinates": [[[-97.0758055, 36.7395429], [-97.0753214, 36.7395333], [-97.0753354, 36.7390835], [-97.0758195, 36.7390931], [-97.0758055, 36.7395429]]]}, "properties": {"osm_id": 671074090, "building": "yes", "name": "", "height": null, "height_m": null, "levels": null, "tract_id": "40071000202", "tract_name": "2.02", "tags": {"building": "yes"}}}, {"type": "Feature", "geometry": {"type": "Polygon", "coordinates": [[[-97.0737361, 36.7377843], [-97.0730752, 36.7377864], [-97.073074, 36.7375391], [-97.0737349, 36.737537], [-97.0737361, 36.7377843]]]}, "properties": {"osm_id": 671074091, "building": "yes", "name": "AMC CLASSIC Ponca City 4", "height": null, "height_m": null, "levels": null, "tract_id": "40071000202", "tract_name": "2.02", "tags": {"addr:city": "Ponca City", "addr:housenumber": "800", "addr:postcode": "74601", "addr:state": "OK", "addr:street": "East Prospect Avenue", "amenity": "cinema", "building": "yes", "name": "AMC CLASSIC Ponca City 4", "screen": "4", "website": "https://www.amctheatres.com/movie-theatres/oklahoma-city/amc-classic-ponca-city-4", "wikidata": "Q43194279"}}}, {"type": "Feature", "geometry": {"type": "Polygon", "coordinates": [[[-97.0716522, 36.737844], [-97.0716522, 36.737813], [-97.0720551, 36.7378127], [-97.0720549, 36.7376732], [-97.0721851, 36.7376731], [-97.0721849, 36.7375608], [-97.0714856, 36.7375615], [-97.071486, 36.7378442], [-97.0716522, 36.737844]]]}, "properties": {"osm_id": 867186670, "building": "yes", "name": "ALDI", "height": null, "height_m": null, "levels": null, "tract_id": "40071000202", "tract_name": "2.02", "tags": {"addr:city": "Ponca City", "addr:county": "Kay, OK", "addr:housenumber": "1000", "addr:postcode": "74601", "addr:state": "OK", "addr:street": "East Prospect Avenue", "brand": "ALDI", "brand:wikidata": "Q41171672", "building": "yes", "name": "ALDI", "opening_hours": "Mo, We, Fr-Su 09:00-21:00, Tu, Th 08:30-21:00", "phone": "+1 833-747-5010", "shop": "supermarket", "website": "https://stores.aldi.us/ok/ponca-city/1000-e-prospect-ave"}}}, {"type": "Feature", "geometry": {"type": "Polygon", "coordinates": [[[-97.0726045, 36.738288], [-97.0726047, 36.7382602], [-97.0726483, 36.7382604], [-97.0726506, 36.738007], [-97.0724353, 36.7380058], [-97.072433, 36.7382588], [-97.0724627, 36.738259], [-97.0724624, 36.7382872], [-97.0726045, 36.738288]]]}, "properties": {"osm_id": 867186671, "building": "yes", "name": "Los Portales", "height": null, "height_m": null, "levels": null, "tract_id": "40071000202", "tract_name": "2.02", "tags": {"addr:city": "Ponca City", "addr:housenumber": "900", "addr:postcode": "74601", "addr:state": "OK", "addr:street": "East Prospect Avenue", "amenity": "restaurant", "building": "yes", "cuisine": "mexican", "name": "Los Portales"}}}, {"type": "Feature", "geometry": {"type": "Polygon", "coordinates": [[[-97.0696438, 36.7389977], [-97.069644, 36.738977], [-97.0697238, 36.7389775], [-97.0697242, 36.7389362], [-97.069766, 36.7389365], [-97.0697677, 36.7387538], [-97.0696442, 36.7387531], [-97.0696445, 36.7387196], [-97.0695596, 36.7387191], [-97.0695592, 36.7387594], [-97.0695252, 36.7387592], [-97.0695247, 36.7388149], [-97.0695024, 36.7388147], [-97.0695014, 36.7389267], [-97.0695234, 36.7389268], [-97.0695227, 36.738997], [-97.0696438, 36.7389977]]]}, "properties": {"osm_id": 867186672, "building": "yes", "name": "RibCrib BBQ", "height": null, "height_m": null, "levels": null, "tract_id": "40071000202", "tract_name": "2.02", "tags": {"addr:city": "Ponca City", "addr:housenumber": "1209", "addr:postcode": "74601", "addr:state": "OK", "addr:street": "East Prospect Avenue", "amenity": "restaurant", "brand": "RibCrib", "brand:wikidata": "Q7322197", "building": "yes", "name": "RibCrib BBQ", "website": "https://ribcrib.com/locations/?location=ponca-city"}}}, {"type": "Feature", "geometry": {"type": "Polygon", "coordinates": [[[-97.0688867, 36.7393524], [-97.0688866, 36.7393257], [-97.0689218, 36.7393256], [-97.0689217, 36.7393134], [-97.0689547, 36.7393133], [-97.0689538, 36.7390799], [-97.0687694, 36.7390803], [-97.0687702, 36.7392959], [-97.0687954, 36.7392958], [-97.0687956, 36.739326], [-97.0688577, 36.7393258], [-97.0688578, 36.7393525], [-97.0688867, 36.7393524]]]}, "properties": {"osm_id": 867186673, "building": "yes", "name": "Danny's BBQ Head Quarters", "height": null, "height_m": null, "levels": null, "tract_id": "40071000202", "tract_name": "2.02", "tags": {"addr:city": "Ponca City", "addr:housenumber": "1217", "addr:postcode": "74601", "addr:state": "OK", "addr:street": "East Prospect Avenue", "amenity": "restaurant", "building": "yes", "name": "Danny's BBQ Head Quarters"}}}, {"type": "Feature", "geometry": {"type": "Polygon", "coordinates": [[[-97.0676523, 36.7394951], [-97.0680634, 36.7394944], [-97.068065, 36.7401021], [-97.0679949, 36.7401022], [-97.0679951, 36.7401731], [-97.067928, 36.7401732], [-97.0679279, 36.7401354], [-97.0678207, 36.7401356], [-97.0678206, 36.7401025], [-97.0676539, 36.7401028], [-97.0676523, 36.7394951]]]}, "properties": {"osm_id": 867186674, "building": "retail", "name": "Cato", "height": null, "height_m": null, "levels": null, "tract_id": "40071000202", "tract_name": "2.02", "tags": {"addr:city": "Ponca City", "addr:housenumber": "3012", "addr:postcode": "74601", "addr:state": "OK", "addr:street": "North 14th Street", "brand": "Cato", "brand:wikidata": "Q16956136", "building": "retail", "clothes": "women", "name": "Cato", "official_name": "Cato Fashions", "shop": "clothes", "website": "https://stores.catofashions.com/ok/ponca-city/3012-north-14th-street"}}}, {"type": "Feature", "geometry": {"type": "Polygon", "coordinates": [[[-97.0668032, 36.7402413], [-97.0668052, 36.7399868], [-97.0665517, 36.7399855], [-97.0665496, 36.74024], [-97.0668032, 36.7402413]]]}, "properties": {"osm_id": 867186675, "building": "yes", "name": "O'Reilly Auto Parts", "height": null, "height_m": null, "levels": null, "tract_id": "40071000202", "tract_name": "2.02", "tags": {"addr:city": "Ponca City", "addr:housenumber": "3019", "addr:postcode": "74601", "addr:state": "OK", "addr:street": "North 14th Street", "brand": "O'Reilly Auto Parts", "brand:wikidata": "Q7071951", "building": "yes", "name": "O'Reilly Auto Parts", "shop": "car_parts", "website": "https://locations.oreillyauto.com/ok/poncacity/autoparts-258.html"}}}, {"type": "Feature", "geometry": {"type": "Polygon", "coordinates": [[[-97.0668478, 36.7410657], [-97.0668451, 36.7407559], [-97.0669626, 36.7407553], [-97.0669615, 36.7406318], [-97.0668424, 36.7406325], [-97.0668415, 36.7405268], [-97.0666091, 36.7405281], [-97.0666138, 36.741067], [-97.0668478, 36.7410657]]]}, "properties": {"osm_id": 867186676, "building": "yes", "name": "Comfort Inn & Suites", "height": null, "height_m": null, "levels": null, "tract_id": "40071000202", "tract_name": "2.02", "tags": {"addr:city": "Ponca City", "addr:housenumber": "3101", "addr:postcode": "74601", "addr:state": "OK", "addr:street": "North 14th Street", "branch": "Ponca City near Marland Mansion", "brand": "Comfort Inn & Suites", "brand:wikidata": "Q113152349", "building": "yes", "name": "Comfort Inn & Suites", "phone": "+1 580-910-5211", "ref": "OK137", "tourism": "hotel", "website": "https://www.choicehotels.com/oklahoma/ponca-city/comfort-inn-hotels"}}}, {"type": "Feature", "geometry": {"type": "Polygon", "coordinates": [[[-97.0699454, 36.7382805], [-97.0699467, 36.7382203], [-97.0699607, 36.7382205], [-97.0699618, 36.7381688], [-97.0699438, 36.7381685], [-97.0699457, 36.7380816], [-97.0698114, 36.7380798], [-97.0698096, 36.7381636], [-97.0697944, 36.7381634], [-97.0697934, 36.7382091], [-97.0698097, 36.7382093], [-97.0698082, 36.7382785], [-97.0699454, 36.7382805]]]}, "properties": {"osm_id": 867186687, "building": "yes", "name": "Taco Bell", "height": null, "height_m": null, "levels": null, "tract_id": "40071000202", "tract_name": "2.02", "tags": {"addr:city": "Ponca City", "addr:housenumber": "1202", "addr:postcode": "74601", "addr:state": "OK", "addr:street": "East Prospect Avenue", "amenity": "fast_food", "brand": "Taco Bell", "brand:wikidata": "Q752941", "building": "yes", "cuisine": "tex-mex", "name": "Taco Bell", "opening_hours": "08:00-04:00", "phone": "+1 580-762-4596", "takeaway": "yes", "website": "https://locations.tacobell.com/ok/ponca-city/1202-e-prospect-ave.html"}}}, {"type": "Feature", "geometry": {"type": "Polygon", "coordinates": [[[-97.0653705, 36.7374554], [-97.0653707, 36.7373957], [-97.0654049, 36.7373958], [-97.0654052, 36.7372778], [-97.0653776, 36.7372778], [-97.0653776, 36.7372502], [-97.0653564, 36.7372502], [-97.0653563, 36.7371392], [-97.0651447, 36.7371394], [-97.0651448, 36.7372404], [-97.0648117, 36.7372407], [-97.0648117, 36.7372218], [-97.0646377, 36.737222], [-97.0646377, 36.7372391], [-97.0645867, 36.7372392], [-97.0645869, 36.7373249], [-97.0645252, 36.737325], [-97.064474, 36.7372651], [-97.0643866, 36.7372634], [-97.0643482, 36.7373028], [-97.0643482, 36.7373848], [-97.06441, 36.7374532], [-97.0653705, 36.7374554]]]}, "properties": {"osm_id": 867186688, "building": "yes", "name": "Holiday Inn Express & Suites", "height": null, "height_m": null, "levels": null, "tract_id": "40071000202", "tract_name": "2.02", "tags": {"addr:city": "Ponca City", "addr:housenumber": "2809", "addr:postcode": "74601", "addr:state": "OK", "addr:street": "North 14th Street", "brand": "Holiday Inn Express & Suites", "brand:wikidata": "Q5880423", "building": "yes", "name": "Holiday Inn Express & Suites", "tourism": "hotel"}}}, {"type": "Feature", "geometry": {"type": "Polygon", "coordinates": [[[-97.0669759, 36.7361134], [-97.0669765, 36.7360712], [-97.0668622, 36.7360703], [-97.0668629, 36.7360093], [-97.0669809, 36.7360102], [-97.0669815, 36.735959], [-97.0665023, 36.7359552], [-97.0665017, 36.7360036], [-97.0665556, 36.736004], [-97.0665549, 36.7360567], [-97.0665025, 36.7360563], [-97.0665018, 36.7361095], [-97.0669759, 36.7361134]]]}, "properties": {"osm_id": 867186690, "building": "yes", "name": "Sonic", "height": null, "height_m": null, "levels": null, "tract_id": "40071000202", "tract_name": "2.02", "tags": {"addr:city": "Ponca City", "addr:housenumber": "2603", "addr:postcode": "74601", "addr:state": "OK", "addr:street": "North 14th Street", "amenity": "fast_food", "brand": "Sonic", "brand:wikidata": "Q7561808", "building": "yes", "cuisine": "burger", "drive_in": "yes", "name": "Sonic", "opening_hours": "Mo-Th 07:00-22:00; Fr-Sa 07:00-23:00; Su 08:00-22:00", "phone": "+1 580-762-9110", "takeaway": "yes", "website": "https://locations.sonicdrivein.com/ok/poncacity/2603-n.-14th-street.html"}}}, {"type": "Feature", "geometry": {"type": "Polygon", "coordinates": [[[-97.0654829, 36.7368365], [-97.065483, 36.7368249], [-97.0654951, 36.7368249], [-97.0654951, 36.7368077], [-97.0654674, 36.7368077], [-97.0654674, 36.73677], [-97.0655159, 36.73677], [-97.0655158, 36.7366298], [-97.0655291, 36.7366333], [-97.0655302, 36.7365536], [-97.0654998, 36.7365533], [-97.0655001, 36.7365335], [-97.0655489, 36.736534], [-97.0655512, 36.7363849], [-97.0655293, 36.7363847], [-97.0655307, 36.7362929], [-97.0654843, 36.7362925], [-97.0654846, 36.7362716], [-97.0655218, 36.736272], [-97.0655233, 36.7361767], [-97.0654923, 36.7361764], [-97.0654931, 36.7361228], [-97.0653486, 36.7361214], [-97.0653478, 36.7361749], [-97.065324, 36.7361747], [-97.0653209, 36.7363901], [-97.0651707, 36.7363886], [-97.0651681, 36.7365671], [-97.0652832, 36.7365681], [-97.0652836, 36.7365355], [-97.0653217, 36.7365358], [-97.0653188, 36.7367713], [-97.0653697, 36.7367717], [-97.0653695, 36.7367905], [-97.0653429, 36.7367903], [-97.0653426, 36.7368358], [-97.0654829, 36.7368365]]]}, "properties": {"osm_id": 867186691, "building": "yes", "name": "Hampton Inn & Suites", "height": null, "height_m": null, "levels": null, "tract_id": "40071000202", "tract_name": "2.02", "tags": {"addr:city": "Ponca City", "addr:housenumber": "2805", "addr:postcode": "74601", "addr:state": "OK", "addr:street": "North 14th Street", "branch": "Ponca City", "brand": "Hampton Inn & Suites", "brand:wikidata": "Q5646230", "building": "yes", "name": "Hampton Inn & Suites", "official_name": "Hampton Inn & Suites by Hilton", "phone": "+1 580-765-3700", "ref": "PNCHXHX", "tourism": "hotel", "website": "https://www.hilton.com/en/hotels/pnchxhx-hampton-suites-ponca-city/"}}}, {"type": "Feature", "geometry": {"type": "Polygon", "coordinates": [[[-97.0742347, 36.738232], [-97.0742342, 36.7381137], [-97.0742218, 36.7381162], [-97.0742213, 36.7380496], [-97.0740853, 36.7380502], [-97.0740859, 36.7381338], [-97.0739552, 36.7381344], [-97.0739557, 36.7382103], [-97.07406, 36.7382099], [-97.0740601, 36.7382284], [-97.0740787, 36.7382283], [-97.074079, 36.7382666], [-97.0741255, 36.7382665], [-97.0741256, 36.738284], [-97.0741832, 36.7382838], [-97.0741832, 36.7382726], [-97.0742175, 36.7382725], [-97.0742173, 36.738232], [-97.0742347, 36.738232]]]}, "properties": {"osm_id": 868811396, "building": "yes", "name": "Equity Bank", "height": null, "height_m": null, "levels": null, "tract_id": "40071000202", "tract_name": "2.02", "tags": {"addr:city": "Ponca City", "addr:housenumber": "802", "addr:postcode": "74601", "addr:state": "OK", "addr:street": "East Prospect Avenue", "amenity": "bank", "brand": "Equity Bank", "brand:wikidata": "Q62260414", "building": "yes", "name": "Equity Bank"}}}, {"type": "Feature", "geometry": {"type": "Polygon", "coordinates": [[[-97.0679078, 36.7328493], [-97.0679078, 36.7329482], [-97.0677455, 36.7329482], [-97.0677455, 36.7329299], [-97.067661, 36.7329299], [-97.067661, 36.7328493], [-97.0679078, 36.7328493]]]}, "properties": {"osm_id": 883764195, "building": "retail", "name": "Arby's", "height": null, "height_m": null, "levels": null, "tract_id": "40071000202", "tract_name": "2.02", "tags": {"addr:city": "Ponca City", "addr:housenumber": "2408", "addr:postcode": "74601", "addr:state": "OK", "addr:street": "North 14th Street", "amenity": "fast_food", "brand": "Arby's", "brand:wikidata": "Q630866", "building": "retail", "check_date": "2024-06-21", "cuisine": "sandwich", "name": "Arby's", "opening_hours": "10:00-23:00", "phone": "+1 580-762-8202", "takeaway": "yes", "website": "https://www.arbys.com/locations/us/ok/ponca-city/2408-n-14th-st/store-5949/"}}}, {"type": "Feature", "geometry": {"type": "Polygon", "coordinates": [[[-97.0665973, 36.7327973], [-97.0665938, 36.7326781], [-97.0668112, 36.732674], [-97.0668147, 36.7327932], [-97.0665973, 36.7327973]]]}, "properties": {"osm_id": 894016295, "building": "yes", "name": "", "height": null, "height_m": null, "levels": null, "tract_id": "40071000202", "tract_name": "2.02", "tags": {"building": "yes"}}}, {"type": "Feature", "geometry": {"type": "Polygon", "coordinates": [[[-97.0679775, 36.729003], [-97.0676134, 36.7290039], [-97.0676134, 36.7290126], [-97.0675256, 36.7290129], [-97.0675251, 36.7288789], [-97.0677502, 36.7288784], [-97.0677501, 36.7288671], [-97.067977, 36.7288666], [-97.0679775, 36.729003]]]}, "properties": {"osm_id": 894016976, "building": "yes", "name": "McDonald's", "height": null, "height_m": null, "levels": null, "tract_id": "40071000202", "tract_name": "2.02", "tags": {"addr:city": "Ponca City", "addr:housenumber": "2124", "addr:postcode": "74601-1829", "addr:state": "OK", "addr:street": "North 14th Street", "amenity": "fast_food", "brand": "McDonald's", "brand:wikidata": "Q38076", "building": "yes", "cuisine": "burger", "drive_through": "yes", "internet_access": "wlan", "name": "McDonald's", "opening_hours": "05:00-22:00", "phone": "+1 580-762-8686", "takeaway": "yes", "website": "https://www.mcdonalds.com/us/en-us/location/3032.html"}}}, {"type": "Feature", "geometry": {"type": "Polygon", "coordinates": [[[-97.0665063, 36.7316875], [-97.0665091, 36.7315349], [-97.0666915, 36.731537], [-97.0666911, 36.7315564], [-97.0668493, 36.7315582], [-97.0668469, 36.7316915], [-97.0668382, 36.7316914], [-97.066837, 36.7317566], [-97.0666848, 36.7317549], [-97.066686, 36.7316896], [-97.0665063, 36.7316875]]]}, "properties": {"osm_id": 949187164, "building": "yes", "name": "Pizza Hut", "height": null, "height_m": null, "levels": null, "tract_id": "40071000202", "tract_name": "2.02", "tags": {"addr:city": "Ponca City", "addr:housenumber": "2301", "addr:postcode": "74601", "addr:state": "OK", "addr:street": "North 14th Street", "amenity": "restaurant", "brand": "Pizza Hut", "brand:wikidata": "Q191615", "building": "yes", "cuisine": "pizza", "name": "Pizza Hut", "phone": "+1 580-762-7729", "website": "https://locations.pizzahut.com/ok/ponca-city/2301-n-14th-st"}}}, {"type": "Feature", "geometry": {"type": "Polygon", "coordinates": [[[-97.0679976, 36.7339811], [-97.0675577, 36.7339768], [-97.0675595, 36.7338573], [-97.0679994, 36.7338616], [-97.0679993, 36.7338677], [-97.0680215, 36.7338679], [-97.06802, 36.7339716], [-97.0679978, 36.7339714], [-97.0679976, 36.7339811]]]}, "properties": {"osm_id": 991592551, "building": "retail", "name": "Braum's", "height": null, "height_m": null, "levels": null, "tract_id": "40071000202", "tract_name": "2.02", "tags": {"amenity": "fast_food", "brand": "Braum's", "brand:wikidata": "Q4958263", "building": "retail", "cuisine": "american;ice_cream", "name": "Braum's", "shop": "dairy"}}}, {"type": "Feature", "geometry": {"type": "Polygon", "coordinates": [[[-97.0678541, 36.7325258], [-97.0678547, 36.7326053], [-97.0676173, 36.7326064], [-97.0676167, 36.7325269], [-97.0678541, 36.7325258]]]}, "properties": {"osm_id": 991592771, "building": "retail", "name": "Chinese Express", "height": null, "height_m": null, "levels": null, "tract_id": "40071000202", "tract_name": "2.02", "tags": {"amenity": "restaurant", "building": "retail", "cuisine": "chinese", "name": "Chinese Express"}}}, {"type": "Feature", "geometry": {"type": "Polygon", "coordinates": [[[-97.0678559, 36.7333165], [-97.0678554, 36.7334018], [-97.0676703, 36.7334012], [-97.0676708, 36.7333159], [-97.0678559, 36.7333165]]]}, "properties": {"osm_id": 991592773, "building": "retail", "name": "", "height": null, "height_m": null, "levels": null, "tract_id": "40071000202", "tract_name": "2.02", "tags": {"building": "retail", "shop": "vacant"}}}, {"type": "Feature", "geometry": {"type": "Polygon", "coordinates": [[[-97.0678563, 36.7332312], [-97.0678559, 36.7333165], [-97.0676708, 36.7333159], [-97.0676712, 36.7332306], [-97.0678563, 36.7332312]]]}, "properties": {"osm_id": 991592774, "building": "retail", "name": "Glo Tanning", "height": null, "height_m": null, "levels": null, "tract_id": "40071000202", "tract_name": "2.02", "tags": {"addr:city": "Ponca City", "addr:country": "US", "addr:housenumber": "2412", "addr:postcode": "74604", "addr:state": "OK", "addr:street": "North 14th Street", "beauty": "tanning", "building": "retail", "name": "Glo Tanning", "opening_hours": "Mo-Fr 09:00-21:00;Sa-Su 10:00-18:00", "phone": "+1 405 708 6320", "shop": "beauty", "website": "https://www.glotanning.com/location/ponca-city"}}}, {"type": "Feature", "geometry": {"type": "Polygon", "coordinates": [[[-97.0678568, 36.733146], [-97.0678563, 36.7332312], [-97.0676712, 36.7332306], [-97.0676717, 36.7331454], [-97.0678568, 36.733146]]]}, "properties": {"osm_id": 991592775, "building": "retail", "name": "Regional Finance", "height": null, "height_m": null, "levels": null, "tract_id": "40071000202", "tract_name": "2.02", "tags": {"building": "retail", "name": "Regional Finance", "shop": "money_lender"}}}, {"type": "Feature", "geometry": {"type": "Polygon", "coordinates": [[[-97.0667264, 36.7446591], [-97.0665014, 36.7446592], [-97.0665013, 36.7445993], [-97.0665377, 36.7445993], [-97.0665376, 36.7444962], [-97.0665065, 36.7444962], [-97.0665064, 36.7443787], [-97.0665349, 36.7443787], [-97.0665349, 36.7442616], [-97.0664893, 36.7442616], [-97.0664894, 36.7441872], [-97.0667362, 36.7441873], [-97.0667362, 36.7442611], [-97.0667019, 36.7442611], [-97.0667018, 36.7443625], [-97.0667382, 36.7443626], [-97.066738, 36.7445102], [-97.0667044, 36.7445102], [-97.0667043, 36.7445757], [-97.0667263, 36.744582], [-97.0667264, 36.7446591]]]}, "properties": {"osm_id": 1056575536, "building": "yes", "name": "Fairfield Inn & Suites", "height": null, "height_m": null, "levels": null, "tract_id": "40071000202", "tract_name": "2.02", "tags": {"addr:city": "Ponca City", "addr:housenumber": "3405", "addr:postcode": "74601", "addr:state": "OK", "addr:street": "North 14th Street", "branch": "Ponca City", "brand": "Fairfield Inn", "brand:wikidata": "Q5430314", "building": "yes", "name": "Fairfield Inn & Suites", "official_name": "Fairfield Inn & Suites by Marriott", "ref": "PNCFI", "tourism": "hotel", "website": "https://www.marriott.com/pncfi"}}}, {"type": "Feature", "geometry": {"type": "Polygon", "coordinates": [[[-97.0669717, 36.7289552], [-97.0667352, 36.7289573], [-97.066732, 36.7287199], [-97.0669406, 36.728718], [-97.0669413, 36.7287717], [-97.0669692, 36.7287714], [-97.0669717, 36.7289552]]]}, "properties": {"osm_id": 1081972205, "building": "retail", "name": "", "height": null, "height_m": null, "levels": null, "tract_id": "40071000202", "tract_name": "2.02", "tags": {"building": "retail"}}}, {"type": "Feature", "geometry": {"type": "Polygon", "coordinates": [[[-97.066046, 36.7256027], [-97.0660435, 36.7249098], [-97.0659513, 36.72491], [-97.0659509, 36.7248069], [-97.0656272, 36.7248076], [-97.0656299, 36.7255572], [-97.0656306, 36.7256005], [-97.066046, 36.7256027]]]}, "properties": {"osm_id": 1081972259, "building": "yes", "name": "", "height": null, "height_m": null, "levels": null, "tract_id": "40071000202", "tract_name": "2.02", "tags": {"building": "yes", "source": "microsoft/BuildingFootprints"}}}, {"type": "Feature", "geometry": {"type": "Polygon", "coordinates": [[[-97.066046, 36.7256027], [-97.0656306, 36.7256005], [-97.0656299, 36.7255572], [-97.0653464, 36.7255578], [-97.0653488, 36.726224], [-97.06539, 36.7262239], [-97.0656221, 36.7262227], [-97.0660482, 36.7262217], [-97.066046, 36.7256027]]]}, "properties": {"osm_id": 1081972260, "building": "yes", "name": "Homeland", "height": null, "height_m": null, "levels": null, "tract_id": "40071000202", "tract_name": "2.02", "tags": {"building": "yes", "name": "Homeland", "shop": "supermarket", "source": "microsoft/BuildingFootprints"}}}, {"type": "Feature", "geometry": {"type": "Polygon", "coordinates": [[[-97.0653669, 36.7247899], [-97.0653615, 36.7250734], [-97.065571, 36.725076], [-97.0655764, 36.7247925], [-97.0653669, 36.7247899]]]}, "properties": {"osm_id": 1081972263, "building": "yes", "name": "", "height": null, "height_m": null, "levels": null, "tract_id": "40071000202", "tract_name": "2.02", "tags": {"building": "yes", "source": "microsoft/BuildingFootprints"}}}, {"type": "Feature", "geometry": {"type": "Polygon", "coordinates": [[[-97.06539, 36.7262239], [-97.0653937, 36.7272518], [-97.0651146, 36.7272524], [-97.0651165, 36.7278057], [-97.0652019, 36.7278055], [-97.0652035, 36.7282491], [-97.0660546, 36.7282472], [-97.066053, 36.7277993], [-97.0656276, 36.7278002], [-97.0656221, 36.7262227], [-97.06539, 36.7262239]]]}, "properties": {"osm_id": 1081972264, "building": "yes", "name": "", "height": null, "height_m": null, "levels": null, "tract_id": "40071000202", "tract_name": "2.02", "tags": {"building": "yes", "source": "microsoft/BuildingFootprints"}}}, {"type": "Feature", "geometry": {"type": "Polygon", "coordinates": [[[-97.078196, 36.7245955], [-97.0780981, 36.724595], [-97.0781001, 36.7243359], [-97.078198, 36.7243364], [-97.078196, 36.7245955]]]}, "properties": {"osm_id": 1091962547, "building": "roof", "name": "", "height": null, "height_m": null, "levels": null, "tract_id": "40071000202", "tract_name": "2.02", "tags": {"building": "roof"}}}, {"type": "Feature", "geometry": {"type": "Polygon", "coordinates": [[[-97.078312, 36.7245643], [-97.07831, 36.7243257], [-97.078366, 36.7243253], [-97.078366, 36.7243339], [-97.0783583, 36.724334], [-97.0783603, 36.7245576], [-97.0783679, 36.7245575], [-97.078368, 36.724564], [-97.078312, 36.7245643]]]}, "properties": {"osm_id": 1091962548, "building": "roof", "name": "", "height": null, "height_m": null, "levels": null, "tract_id": "40071000202", "tract_name": "2.02", "tags": {"building": "roof"}}}, {"type": "Feature", "geometry": {"type": "Polygon", "coordinates": [[[-97.0785018, 36.7245568], [-97.0783679, 36.7245575], [-97.0783603, 36.7245576], [-97.0783583, 36.724334], [-97.078366, 36.7243339], [-97.0784998, 36.7243332], [-97.0785018, 36.7245568]]]}, "properties": {"osm_id": 1091962549, "building": "retail", "name": "Sonic", "height": null, "height_m": null, "levels": null, "tract_id": "40071000202", "tract_name": "2.02", "tags": {"addr:city": "Ponca City", "addr:housenumber": "501", "addr:postcode": "74601", "addr:state": "OK", "addr:street": "East Hartford", "amenity": "fast_food", "brand": "Sonic", "brand:wikidata": "Q7561808", "building": "retail", "cuisine": "burger", "drive_in": "yes", "name": "Sonic", "opening_hours": "Mo-Th 07:00-22:00; Fr-Sa 07:00-23:00; Su 08:00-22:00", "phone": "+1 580-762-6828", "takeaway": "yes", "website": "https://locations.sonicdrivein.com/ok/poncacity/501-e.-hartford.html"}}}, {"type": "Feature", "geometry": {"type": "Polygon", "coordinates": [[[-97.0667647, 36.7528254], [-97.0670275, 36.7528224], [-97.0670255, 36.7527064], [-97.0667627, 36.7527093], [-97.0667647, 36.7528254]]]}, "properties": {"osm_id": 1205369666, "building": "yes", "name": "", "height": null, "height_m": null, "levels": null, "tract_id": "40071000202", "tract_name": "2.02", "tags": {"building": "yes", "shop": "yes", "source": "microsoft/BuildingFootprints"}}}, {"type": "Feature", "geometry": {"type": "Polygon", "coordinates": [[[-97.0668087, 36.7457038], [-97.0660663, 36.7457135], [-97.0660625, 36.7455244], [-97.0661283, 36.7455235], [-97.0661277, 36.7454952], [-97.0663278, 36.7454926], [-97.0663282, 36.7455116], [-97.0667491, 36.7455059], [-97.0667497, 36.7455334], [-97.0668314, 36.7455323], [-97.0668334, 36.7456285], [-97.0668072, 36.7456288], [-97.0668087, 36.7457038]]]}, "properties": {"osm_id": 1225837204, "building": "yes", "name": "La Quinta Inn & Suites", "height": null, "height_m": null, "levels": null, "tract_id": "40071000202", "tract_name": "2.02", "tags": {"addr:city": "Ponca City", "addr:housenumber": "3413", "addr:postcode": "74601", "addr:state": "OK", "addr:street": "North 14th Street", "branch": "Ponca City", "brand": "La Quinta Inn & Suites", "brand:wikidata": "Q6464734", "building": "yes", "name": "La Quinta Inn & Suites", "official_name": "La Quinta Inn & Suites by Wyndham", "phone": "+1 580-352-5096", "ref": "53330", "tourism": "hotel", "website": "https://www.wyndhamhotels.com/laquinta/ponca-city-oklahoma/la-quinta-ponca-city/overview"}}}, {"type": "Feature", "geometry": {"type": "Polygon", "coordinates": [[[-97.0667454, 36.737987], [-97.066746, 36.7380475], [-97.0667342, 36.7380475], [-97.0667347, 36.7380958], [-97.0667208, 36.7381044], [-97.0667214, 36.738164], [-97.0667041, 36.7381792], [-97.0665351, 36.7381804], [-97.0665352, 36.7381889], [-97.0664493, 36.7381895], [-97.0664347, 36.7381794], [-97.0664323, 36.7379739], [-97.0667279, 36.7379717], [-97.0667454, 36.737987]]]}, "properties": {"osm_id": 1231942103, "building": "yes", "name": "RCB Bank", "height": null, "height_m": null, "levels": null, "tract_id": "40071000202", "tract_name": "2.02", "tags": {"amenity": "bank", "brand": "RCB Bank", "brand:wikidata": "Q131427051", "building": "yes", "name": "RCB Bank"}}}, {"type": "Feature", "geometry": {"type": "Polygon", "coordinates": [[[-97.0680634, 36.7394944], [-97.0685071, 36.7394936], [-97.0685073, 36.7395821], [-97.0684747, 36.7395822], [-97.0684761, 36.7401014], [-97.068296, 36.7401017], [-97.0682962, 36.7401925], [-97.0682151, 36.7401926], [-97.0682149, 36.7401018], [-97.068065, 36.7401021], [-97.0680634, 36.7394944]]]}, "properties": {"osm_id": 1231942104, "building": "retail", "name": "Tractor Supply Company", "height": null, "height_m": null, "levels": null, "tract_id": "40071000202", "tract_name": "2.02", "tags": {"addr:city": "Ponca City", "addr:housenumber": "3008", "addr:postcode": "74601", "addr:state": "OK", "addr:street": "North 14th Street", "brand": "Tractor Supply Company", "brand:wikidata": "Q15109925", "building": "retail", "name": "Tractor Supply Company", "opening_hours": "Mo-Sa 08:00-21:00; Su 09:00-19:00", "phone": "+1 580-762-0005", "ref": "559", "shop": "country_store"}}}, {"type": "Feature", "geometry": {"type": "Polygon", "coordinates": [[[-97.0514961, 36.7394127], [-97.0514903, 36.7395156], [-97.0516027, 36.7395197], [-97.0516085, 36.7394167], [-97.0514961, 36.7394127]]]}, "properties": {"osm_id": 1274298708, "building": "yes", "name": "", "height": null, "height_m": null, "levels": null, "tract_id": "40071000202", "tract_name": "2.02", "tags": {"building": "yes"}}}, {"type": "Feature", "geometry": {"type": "Polygon", "coordinates": [[[-97.0496834, 36.7399158], [-97.0495742, 36.7399135], [-97.0495739, 36.7399239], [-97.0495509, 36.7399234], [-97.0495495, 36.7399675], [-97.0495725, 36.739968], [-97.0495722, 36.7399758], [-97.0496814, 36.7399781], [-97.0496816, 36.7399717], [-97.0497, 36.7399721], [-97.0497016, 36.7399233], [-97.0496832, 36.7399229], [-97.0496834, 36.7399158]]]}, "properties": {"osm_id": 1274298709, "building": "detached", "name": "", "height": null, "height_m": null, "levels": null, "tract_id": "40071000202", "tract_name": "2.02", "tags": {"building": "detached"}}}, {"type": "Feature", "geometry": {"type": "Polygon", "coordinates": [[[-97.0497253, 36.7387642], [-97.0497252, 36.7386916], [-97.0496025, 36.7386917], [-97.0496026, 36.7387643], [-97.0497253, 36.7387642]]]}, "properties": {"osm_id": 1274298724, "building": "detached", "name": "", "height": null, "height_m": null, "levels": null, "tract_id": "40071000202", "tract_name": "2.02", "tags": {"building": "detached"}}}, {"type": "Feature", "geometry": {"type": "Polygon", "coordinates": [[[-97.049817, 36.7392455], [-97.0498151, 36.7393207], [-97.0499368, 36.7393227], [-97.0499386, 36.7392474], [-97.049817, 36.7392455]]]}, "properties": {"osm_id": 1274298729, "building": "yes", "name": "", "height": null, "height_m": null, "levels": null, "tract_id": "40071000202", "tract_name": "2.02", "tags": {"building": "yes"}}}, {"type": "Feature", "geometry": {"type": "Polygon", "coordinates": [[[-97.0498602, 36.7398739], [-97.0498587, 36.7399534], [-97.0499429, 36.7399544], [-97.0499444, 36.7398749], [-97.0498602, 36.7398739]]]}, "properties": {"osm_id": 1274298730, "building": "yes", "name": "", "height": null, "height_m": null, "levels": null, "tract_id": "40071000202", "tract_name": "2.02", "tags": {"building": "yes"}}}, {"type": "Feature", "geometry": {"type": "Polygon", "coordinates": [[[-97.0496223, 36.7395162], [-97.0497659, 36.7395179], [-97.0497672, 36.7394514], [-97.0497771, 36.7394515], [-97.0497781, 36.7393978], [-97.049737, 36.7393973], [-97.0497383, 36.7393285], [-97.0496445, 36.7393274], [-97.0496421, 36.7394515], [-97.0496235, 36.7394513], [-97.0496223, 36.7395162]]]}, "properties": {"osm_id": 1274298760, "building": "yes", "name": "", "height": null, "height_m": null, "levels": null, "tract_id": "40071000202", "tract_name": "2.02", "tags": {"building": "yes"}}}, {"type": "Feature", "geometry": {"type": "Polygon", "coordinates": [[[-97.0694929, 36.7333749], [-97.069289, 36.7333715], [-97.069292, 36.7332589], [-97.0693535, 36.73326], [-97.0693586, 36.7330662], [-97.069501, 36.7330686], [-97.0694929, 36.7333749]]]}, "properties": {"osm_id": 1305853936, "building": "retail", "name": "", "height": null, "height_m": null, "levels": null, "tract_id": "40071000202", "tract_name": "2.02", "tags": {"building": "retail", "shop": "yes"}}}, {"type": "Feature", "geometry": {"type": "Polygon", "coordinates": [[[-97.0688479, 36.7333706], [-97.0688465, 36.7331223], [-97.069057, 36.7331216], [-97.0690584, 36.7333699], [-97.0688479, 36.7333706]]]}, "properties": {"osm_id": 1305853937, "building": "retail", "name": "KinderCare", "height": null, "height_m": null, "levels": null, "tract_id": "40071000202", "tract_name": "2.02", "tags": {"after_school": "yes", "alt_name": "KinderCare Learning Center", "amenity": "kindergarten", "brand": "KinderCare", "brand:wikidata": "Q6410551", "building": "retail", "fee": "yes", "isced:level": "0", "name": "KinderCare", "nursery": "yes", "preschool": "yes"}}}, {"type": "Feature", "geometry": {"type": "Polygon", "coordinates": [[[-97.0684777, 36.7334566], [-97.0684737, 36.7332105], [-97.0685734, 36.7332094], [-97.0685761, 36.7333736], [-97.0685606, 36.7333738], [-97.068562, 36.7334557], [-97.0684777, 36.7334566]]]}, "properties": {"osm_id": 1305853938, "building": "retail", "name": "", "height": null, "height_m": null, "levels": null, "tract_id": "40071000202", "tract_name": "2.02", "tags": {"amenity": "fast_food", "building": "retail"}}}, {"type": "Feature", "geometry": {"type": "Polygon", "coordinates": [[[-97.0682162, 36.7334115], [-97.0681156, 36.733412], [-97.0681143, 36.7332572], [-97.0682149, 36.7332567], [-97.0682162, 36.7334115]]]}, "properties": {"osm_id": 1305853939, "building": "retail", "name": "", "height": null, "height_m": null, "levels": null, "tract_id": "40071000202", "tract_name": "2.02", "tags": {"amenity": "fast_food", "building": "retail"}}}, {"type": "Feature", "geometry": {"type": "Polygon", "coordinates": [[[-97.067476, 36.726934], [-97.0676771, 36.7269376], [-97.0676759, 36.7269816], [-97.0678339, 36.7269844], [-97.0678293, 36.7271507], [-97.0674702, 36.7271444], [-97.067476, 36.726934]]]}, "properties": {"osm_id": 1392686997, "building": "yes", "name": "", "height": null, "height_m": null, "levels": null, "tract_id": "40071000202", "tract_name": "2.02", "tags": {"building": "yes"}}}, {"type": "Feature", "geometry": {"type": "Polygon", "coordinates": [[[-97.067855, 36.7276332], [-97.0683431, 36.7276357], [-97.0683409, 36.7279108], [-97.0678528, 36.7279082], [-97.067855, 36.7276332]]]}, "properties": {"osm_id": 1392686998, "building": "yes", "name": "", "height": null, "height_m": null, "levels": null, "tract_id": "40071000202", "tract_name": "2.02", "tags": {"building": "yes"}}}, {"type": "Feature", "geometry": {"type": "Polygon", "coordinates": [[[-97.0679136, 36.7275628], [-97.0675637, 36.7275553], [-97.0675651, 36.7275133], [-97.0675285, 36.7275126], [-97.0675362, 36.7272832], [-97.0677185, 36.7272871], [-97.0677159, 36.7273644], [-97.06792, 36.7273687], [-97.0679136, 36.7275628]]]}, "properties": {"osm_id": 1392686999, "building": "yes", "name": "", "height": null, "height_m": null, "levels": null, "tract_id": "40071000202", "tract_name": "2.02", "tags": {"building": "yes"}}}, {"type": "Feature", "geometry": {"type": "Polygon", "coordinates": [[[-97.0675366, 36.7286326], [-97.0678686, 36.7286373], [-97.0678678, 36.7286723], [-97.0680628, 36.7286751], [-97.0680609, 36.7287591], [-97.067534, 36.7287516], [-97.0675366, 36.7286326]]]}, "properties": {"osm_id": 1392687000, "building": "yes", "name": "", "height": null, "height_m": null, "levels": null, "tract_id": "40071000202", "tract_name": "2.02", "tags": {"building": "yes"}}}, {"type": "Feature", "geometry": {"type": "Polygon", "coordinates": [[[-97.0676674, 36.7293981], [-97.0681628, 36.7293955], [-97.0681623, 36.7293326], [-97.0683245, 36.7293317], [-97.0683261, 36.7295372], [-97.0675835, 36.729541], [-97.0675826, 36.7294313], [-97.0676677, 36.7294309], [-97.0676674, 36.7293981]]]}, "properties": {"osm_id": 1392687001, "building": "yes", "name": "", "height": null, "height_m": null, "levels": null, "tract_id": "40071000202", "tract_name": "2.02", "tags": {"building": "yes"}}}, {"type": "Feature", "geometry": {"type": "Polygon", "coordinates": [[[-97.066104, 36.7297724], [-97.0664597, 36.7297751], [-97.0664585, 36.7298793], [-97.0665143, 36.7298797], [-97.0665099, 36.7302612], [-97.0659919, 36.7302575], [-97.0659961, 36.7298908], [-97.0661026, 36.7298916], [-97.066104, 36.7297724]]]}, "properties": {"osm_id": 1392687002, "building": "yes", "name": "", "height": null, "height_m": null, "levels": null, "tract_id": "40071000202", "tract_name": "2.02", "tags": {"building": "yes"}}}, {"type": "Feature", "geometry": {"type": "Polygon", "coordinates": [[[-97.0686314, 36.7350807], [-97.0690143, 36.7350836], [-97.0690132, 36.7351758], [-97.0694285, 36.735179], [-97.069417, 36.7361228], [-97.0695466, 36.7361238], [-97.0695457, 36.7362011], [-97.0688606, 36.7361958], [-97.0688584, 36.7363803], [-97.0686185, 36.7363785], [-97.0686217, 36.7361121], [-97.0685444, 36.7360632], [-97.0685422, 36.7359447], [-97.0686215, 36.7359094], [-97.0686314, 36.7350807]]]}, "properties": {"osm_id": 1392687003, "building": "yes", "name": "", "height": null, "height_m": null, "levels": null, "tract_id": "40071000202", "tract_name": "2.02", "tags": {"building": "yes"}}}, {"type": "Feature", "geometry": {"type": "Polygon", "coordinates": [[[-97.0687926, 36.7338669], [-97.0694312, 36.7338737], [-97.0694211, 36.7344853], [-97.0687817, 36.7344785], [-97.0687852, 36.7342672], [-97.0687491, 36.7342668], [-97.0687521, 36.7340826], [-97.068789, 36.734083], [-97.0687926, 36.7338669]]]}, "properties": {"osm_id": 1392687004, "building": "yes", "name": "", "height": null, "height_m": null, "levels": null, "tract_id": "40071000202", "tract_name": "2.02", "tags": {"building": "yes"}}}, {"type": "Feature", "geometry": {"type": "Polygon", "coordinates": [[[-97.0660883, 36.7334642], [-97.0664609, 36.7334668], [-97.0664588, 36.7336635], [-97.0667307, 36.7336655], [-97.0667282, 36.7338906], [-97.0664702, 36.7338887], [-97.0664697, 36.7339352], [-97.0660832, 36.7339325], [-97.0660883, 36.7334642]]]}, "properties": {"osm_id": 1392687005, "building": "yes", "name": "", "height": null, "height_m": null, "levels": null, "tract_id": "40071000202", "tract_name": "2.02", "tags": {"building": "yes"}}}, {"type": "Feature", "geometry": {"type": "Polygon", "coordinates": [[[-97.0667077, 36.7342864], [-97.0669818, 36.7342864], [-97.0669817, 36.7344322], [-97.0667077, 36.7344322], [-97.0667077, 36.7342864]]]}, "properties": {"osm_id": 1392687006, "building": "yes", "name": "", "height": null, "height_m": null, "levels": null, "tract_id": "40071000202", "tract_name": "2.02", "tags": {"building": "yes"}}}, {"type": "Feature", "geometry": {"type": "Polygon", "coordinates": [[[-97.0676667, 36.7321887], [-97.0679307, 36.7321948], [-97.0679282, 36.732265], [-97.0676642, 36.7322589], [-97.0676667, 36.7321887]]]}, "properties": {"osm_id": 1392687007, "building": "yes", "name": "", "height": null, "height_m": null, "levels": null, "tract_id": "40071000202", "tract_name": "2.02", "tags": {"building": "yes"}}}, {"type": "Feature", "geometry": {"type": "Polygon", "coordinates": [[[-97.0675959, 36.730894], [-97.0678114, 36.7308961], [-97.06781, 36.7309873], [-97.0675945, 36.7309852], [-97.0675959, 36.730894]]]}, "properties": {"osm_id": 1392687008, "building": "yes", "name": "", "height": null, "height_m": null, "levels": null, "tract_id": "40071000202", "tract_name": "2.02", "tags": {"building": "yes"}}}, {"type": "Feature", "geometry": {"type": "Polygon", "coordinates": [[[-97.0664153, 36.7366309], [-97.066819, 36.7366293], [-97.0668198, 36.7367723], [-97.0664162, 36.7367738], [-97.0664153, 36.7366309]]]}, "properties": {"osm_id": 1392687009, "building": "yes", "name": "", "height": null, "height_m": null, "levels": null, "tract_id": "40071000202", "tract_name": "2.02", "tags": {"building": "yes"}}}, {"type": "Feature", "geometry": {"type": "Polygon", "coordinates": [[[-97.066462, 36.7369841], [-97.0669942, 36.7369832], [-97.0669945, 36.7370972], [-97.0664623, 36.737098], [-97.066462, 36.7369841]]]}, "properties": {"osm_id": 1392687010, "building": "yes", "name": "", "height": null, "height_m": null, "levels": null, "tract_id": "40071000202", "tract_name": "2.02", "tags": {"building": "yes"}}}, {"type": "Feature", "geometry": {"type": "Polygon", "coordinates": [[[-97.0676087, 36.7370735], [-97.0678714, 36.7370735], [-97.0678714, 36.7371486], [-97.0676087, 36.7371486], [-97.0676087, 36.7370735]]]}, "properties": {"osm_id": 1392687011, "building": "yes", "name": "", "height": null, "height_m": null, "levels": null, "tract_id": "40071000202", "tract_name": "2.02", "tags": {"building": "yes"}}}, {"type": "Feature", "geometry": {"type": "Polygon", "coordinates": [[[-97.0676319, 36.7362473], [-97.0678505, 36.7362456], [-97.0678523, 36.7363917], [-97.0676337, 36.7363935], [-97.0676319, 36.7362473]]]}, "properties": {"osm_id": 1392687012, "building": "yes", "name": "", "height": null, "height_m": null, "levels": null, "tract_id": "40071000202", "tract_name": "2.02", "tags": {"building": "yes"}}}, {"type": "Feature", "geometry": {"type": "Polygon", "coordinates": [[[-97.066298, 36.7354914], [-97.0666644, 36.735485], [-97.0666691, 36.7356582], [-97.0663028, 36.7356647], [-97.066298, 36.7354914]]]}, "properties": {"osm_id": 1392687013, "building": "yes", "name": "", "height": null, "height_m": null, "levels": null, "tract_id": "40071000202", "tract_name": "2.02", "tags": {"building": "yes"}}}, {"type": "Feature", "geometry": {"type": "Polygon", "coordinates": [[[-97.066331, 36.7388252], [-97.0664032, 36.7388269], [-97.0664045, 36.7387905], [-97.0665554, 36.738794], [-97.0665456, 36.7390681], [-97.0663385, 36.7390634], [-97.0663412, 36.7389879], [-97.0663252, 36.7389875], [-97.066331, 36.7388252]]]}, "properties": {"osm_id": 1392687014, "building": "yes", "name": "", "height": null, "height_m": null, "levels": null, "tract_id": "40071000202", "tract_name": "2.02", "tags": {"building": "yes"}}}, {"type": "Feature", "geometry": {"type": "Polygon", "coordinates": [[[-97.0676322, 36.738831], [-97.0678947, 36.7388397], [-97.0678868, 36.7389923], [-97.0676243, 36.7389836], [-97.0676322, 36.738831]]]}, "properties": {"osm_id": 1392687015, "building": "yes", "name": "", "height": null, "height_m": null, "levels": null, "tract_id": "40071000202", "tract_name": "2.02", "tags": {"building": "yes"}}}, {"type": "Feature", "geometry": {"type": "Polygon", "coordinates": [[[-97.0675405, 36.7382189], [-97.0678872, 36.7382242], [-97.0678845, 36.7383374], [-97.0675378, 36.738332], [-97.0675405, 36.7382189]]]}, "properties": {"osm_id": 1392687016, "building": "yes", "name": "", "height": null, "height_m": null, "levels": null, "tract_id": "40071000202", "tract_name": "2.02", "tags": {"building": "yes"}}}, {"type": "Feature", "geometry": {"type": "Polygon", "coordinates": [[[-97.0687553, 36.7367197], [-97.0687459, 36.7372192], [-97.0687875, 36.7372197], [-97.0687681, 36.7382677], [-97.0695735, 36.7382773], [-97.0695828, 36.7377797], [-97.0696302, 36.7377803], [-97.0696403, 36.7372436], [-97.0693265, 36.7372398], [-97.0693362, 36.7367267], [-97.0687553, 36.7367197]]]}, "properties": {"osm_id": 1392687017, "building": "yes", "name": "", "height": null, "height_m": null, "levels": null, "tract_id": "40071000202", "tract_name": "2.02", "tags": {"building": "yes"}}}, {"type": "Feature", "geometry": {"type": "Polygon", "coordinates": [[[-97.0663748, 36.7373677], [-97.0666687, 36.7373641], [-97.0666736, 36.7376261], [-97.0663797, 36.7376296], [-97.0663748, 36.7373677]]]}, "properties": {"osm_id": 1392687018, "building": "yes", "name": "", "height": null, "height_m": null, "levels": null, "tract_id": "40071000202", "tract_name": "2.02", "tags": {"building": "yes"}}}, {"type": "Feature", "geometry": {"type": "Polygon", "coordinates": [[[-97.0663275, 36.7349512], [-97.0667418, 36.734949], [-97.0667428, 36.7350689], [-97.0666106, 36.7350696], [-97.0666125, 36.7352977], [-97.0667488, 36.735297], [-97.0667501, 36.7354491], [-97.0665038, 36.7354504], [-97.0665005, 36.7350658], [-97.0663285, 36.7350668], [-97.0663275, 36.7349512]]]}, "properties": {"osm_id": 1392687019, "building": "yes", "name": "", "height": null, "height_m": null, "levels": null, "tract_id": "40071000202", "tract_name": "2.02", "tags": {"building": "yes"}}}, {"type": "Feature", "geometry": {"type": "Polygon", "coordinates": [[[-97.0668096, 36.7422171], [-97.066374, 36.7422129], [-97.0663811, 36.7417287], [-97.0666437, 36.7417312], [-97.0666427, 36.7418004], [-97.0668159, 36.7418021], [-97.0668096, 36.7422171]]]}, "properties": {"osm_id": 1392687020, "building": "yes", "name": "", "height": null, "height_m": null, "levels": null, "tract_id": "40071000202", "tract_name": "2.02", "tags": {"building": "yes"}}}, {"type": "Feature", "geometry": {"type": "Polygon", "coordinates": [[[-97.0674519, 36.7406715], [-97.0677141, 36.7406746], [-97.0677119, 36.7407951], [-97.0674496, 36.740792], [-97.0674519, 36.7406715]]]}, "properties": {"osm_id": 1392687021, "building": "yes", "name": "", "height": null, "height_m": null, "levels": null, "tract_id": "40071000202", "tract_name": "2.02", "tags": {"building": "yes"}}}, {"type": "Feature", "geometry": {"type": "Polygon", "coordinates": [[[-97.0667568, 36.743003], [-97.0668315, 36.7429431], [-97.0669917, 36.742942], [-97.0669959, 36.7433255], [-97.0668292, 36.7433267], [-97.0667568, 36.7432612], [-97.0665275, 36.7432599], [-97.0665284, 36.7431637], [-97.0664632, 36.7431633], [-97.0664647, 36.7430012], [-97.0667568, 36.743003]]]}, "properties": {"osm_id": 1392687022, "building": "yes", "name": "", "height": null, "height_m": null, "levels": null, "tract_id": "40071000202", "tract_name": "2.02", "tags": {"building": "yes"}}}, {"type": "Feature", "geometry": {"type": "Polygon", "coordinates": [[[-97.0676892, 36.7433762], [-97.0677843, 36.7433804], [-97.0677802, 36.7434399], [-97.0678575, 36.7434434], [-97.0678523, 36.7435182], [-97.0677931, 36.7435155], [-97.0677886, 36.7435797], [-97.0676754, 36.7435747], [-97.0676892, 36.7433762]]]}, "properties": {"osm_id": 1392687023, "building": "yes", "name": "", "height": null, "height_m": null, "levels": null, "tract_id": "40071000202", "tract_name": "2.02", "tags": {"building": "yes"}}}, {"type": "Feature", "geometry": {"type": "Polygon", "coordinates": [[[-97.0662804, 36.7460141], [-97.0662816, 36.7461178], [-97.0664483, 36.7461165], [-97.0664475, 36.7460478], [-97.0665073, 36.7460474], [-97.0665107, 36.7463481], [-97.0664582, 36.7463485], [-97.0664593, 36.7464486], [-97.0663631, 36.7464494], [-97.0663622, 36.7463708], [-97.0662676, 36.7463715], [-97.0662688, 36.7464776], [-97.0661465, 36.7464786], [-97.066141, 36.7460152], [-97.0662804, 36.7460141]]]}, "properties": {"osm_id": 1392687024, "building": "yes", "name": "", "height": null, "height_m": null, "levels": null, "tract_id": "40071000202", "tract_name": "2.02", "tags": {"building": "yes"}}}, {"type": "Feature", "geometry": {"type": "Polygon", "coordinates": [[[-97.0668375, 36.7472973], [-97.0661528, 36.7472893], [-97.0661503, 36.7474282], [-97.066835, 36.747436], [-97.0668375, 36.7472973]]]}, "properties": {"osm_id": 1392687025, "building": "yes", "name": "", "height": null, "height_m": null, "levels": null, "tract_id": "40071000202", "tract_name": "2.02", "tags": {"building": "yes"}}}, {"type": "Feature", "geometry": {"type": "Polygon", "coordinates": [[[-97.0682332, 36.7451929], [-97.0682267, 36.7454778], [-97.0684585, 36.7454812], [-97.0684591, 36.7454559], [-97.0687364, 36.74546], [-97.0687369, 36.7454377], [-97.0691473, 36.7454436], [-97.0691459, 36.7455071], [-97.0691997, 36.7455079], [-97.0692066, 36.7451946], [-97.0688276, 36.7451892], [-97.0688302, 36.7450727], [-97.0693128, 36.7450796], [-97.0693158, 36.7449452], [-97.06836, 36.7449316], [-97.0683567, 36.7450787], [-97.0685583, 36.7450815], [-97.068555, 36.7452294], [-97.0685026, 36.7452287], [-97.0685033, 36.7451969], [-97.0682332, 36.7451929]]]}, "properties": {"osm_id": 1392687026, "building": "yes", "name": "", "height": null, "height_m": null, "levels": null, "tract_id": "40071000202", "tract_name": "2.02", "tags": {"building": "yes"}}}, {"type": "Feature", "geometry": {"type": "Polygon", "coordinates": [[[-97.0665544, 36.7292958], [-97.0669581, 36.7292994], [-97.0669558, 36.7294671], [-97.0665522, 36.7294636], [-97.0665544, 36.7292958]]]}, "properties": {"osm_id": 1392687037, "building": "yes", "name": "", "height": null, "height_m": null, "levels": null, "tract_id": "40071000202", "tract_name": "2.02", "tags": {"building": "yes"}}}, {"type": "Feature", "geometry": {"type": "Polygon", "coordinates": [[[-97.0675229, 36.729728], [-97.0677911, 36.7297303], [-97.06779, 36.7298088], [-97.0675218, 36.7298064], [-97.0675229, 36.729728]]]}, "properties": {"osm_id": 1392687038, "building": "yes", "name": "", "height": null, "height_m": null, "levels": null, "tract_id": "40071000202", "tract_name": "2.02", "tags": {"building": "yes"}}}]}