{"type": "FeatureCollection", "features": [{"type": "Feature", "geometry": {"type": "Polygon", "coordinates": [[[-97.4472873, 35.2207157], [-97.447003, 35.2208362], [-97.4469762, 35.2208028], [-97.4466811, 35.2209282], [-97.4467804, 35.221086], [-97.4466785, 35.2211298], [-97.4469386, 35.221539], [-97.4470674, 35.2214826], [-97.4471022, 35.2215325], [-97.4472417, 35.2214695], [-97.4472846, 35.2215351], [-97.4475144, 35.2214381], [-97.4476009, 35.2214016], [-97.4475149, 35.221268], [-97.4475529, 35.221252], [-97.4475394, 35.2212323], [-97.4475985, 35.2212087], [-97.4472873, 35.2207157]]]}, "properties": {"osm_id": 185127916, "building": "public", "name": "", "height": null, "height_m": null, "levels": null, "tract_id": "40027200100", "tract_name": "2001", "tags": {"addr:city": "Norman", "addr:housenumber": "225", "addr:postcode": "73069", "addr:street": "North Webster Avenue", "building": "public", "shop": "vacant"}}}, {"type": "Feature", "geometry": {"type": "Polygon", "coordinates": [[[-97.4408544, 35.221337], [-97.4414917, 35.2210637], [-97.4414314, 35.2209699], [-97.4411387, 35.2210954], [-97.4409821, 35.2208516], [-97.4406992, 35.2209729], [-97.440852, 35.2212107], [-97.4408412, 35.2212154], [-97.4408616, 35.2212471], [-97.4408107, 35.221269], [-97.4408544, 35.221337]]]}, "properties": {"osm_id": 258225350, "building": "yes", "name": "Norman Transcript Newspaper", "height": null, "height_m": null, "levels": null, "tract_id": "40027200100", "tract_name": "2001", "tags": {"building": "yes", "name": "Norman Transcript Newspaper", "source": "Bing"}}}, {"type": "Feature", "geometry": {"type": "Polygon", "coordinates": [[[-97.4434834, 35.2214592], [-97.4433265, 35.2215265], [-97.4431098, 35.2211898], [-97.4431121, 35.2211752], [-97.4431688, 35.2211262], [-97.443259, 35.2211214], [-97.4432702, 35.2211278], [-97.4434834, 35.2214592]]]}, "properties": {"osm_id": 323575213, "building": "yes", "name": "Sooner Theatre", "height": null, "height_m": null, "levels": null, "tract_id": "40027200100", "tract_name": "2001", "tags": {"amenity": "theatre", "building": "yes", "name": "Sooner Theatre", "wikidata": "Q43189695"}}}, {"type": "Feature", "geometry": {"type": "Polygon", "coordinates": [[[-97.4420823, 35.2200402], [-97.4418111, 35.2201549], [-97.4416863, 35.2199579], [-97.4415998, 35.2199945], [-97.4416299, 35.2200419], [-97.4414006, 35.2201389], [-97.4412141, 35.2198445], [-97.4414493, 35.219745], [-97.441538, 35.219885], [-97.4415467, 35.2198699], [-97.4415895, 35.2198518], [-97.4416116, 35.219853], [-97.4415066, 35.2196873], [-97.4417843, 35.2195699], [-97.4420823, 35.2200402]]]}, "properties": {"osm_id": 323575709, "building": "yes", "name": "Cleveland County Courthouse", "height": null, "height_m": null, "levels": null, "tract_id": "40027200100", "tract_name": "2001", "tags": {"addr:city": "Norman", "addr:housenumber": "200", "addr:postcode": "73069", "addr:state": "OK", "addr:street": "South Peters Avenue", "amenity": "courthouse", "building": "yes", "emergency": "psap", "name": "Cleveland County Courthouse", "phone": "+1-405-321-6402", "wikidata": "Q134284736"}}}, {"type": "Feature", "geometry": {"type": "Polygon", "coordinates": [[[-97.4477099, 35.2188345], [-97.4478032, 35.2187929], [-97.4477672, 35.2187389], [-97.4477765, 35.2187348], [-97.4477062, 35.2186296], [-97.4476035, 35.2186754], [-97.4477099, 35.2188345]]]}, "properties": {"osm_id": 324094176, "building": "yes", "name": "Metro Glass", "height": null, "height_m": null, "levels": null, "tract_id": "40027200100", "tract_name": "2001", "tags": {"building": "yes", "name": "Metro Glass"}}}, {"type": "Feature", "geometry": {"type": "Polygon", "coordinates": [[[-97.447705, 35.2189321], [-97.4475594, 35.218996], [-97.4473679, 35.2187049], [-97.4475136, 35.218641], [-97.447705, 35.2189321]]]}, "properties": {"osm_id": 324094222, "building": "yes", "name": "", "height": null, "height_m": null, "levels": null, "tract_id": "40027200100", "tract_name": "2001", "tags": {"building": "yes"}}}, {"type": "Feature", "geometry": {"type": "Polygon", "coordinates": [[[-97.4474502, 35.219042], [-97.4468493, 35.2193046], [-97.4468116, 35.219292], [-97.4467431, 35.219229], [-97.44665, 35.2190802], [-97.4467293, 35.2190471], [-97.4467602, 35.2190723], [-97.4468942, 35.2190137], [-97.4468223, 35.2189038], [-97.4469786, 35.2188355], [-97.4470091, 35.2188821], [-97.4471557, 35.218818], [-97.4471375, 35.2187902], [-97.4472525, 35.21874], [-97.4474502, 35.219042]]]}, "properties": {"osm_id": 324366588, "building": "yes", "name": "", "height": null, "height_m": null, "levels": null, "tract_id": "40027200100", "tract_name": "2001", "tags": {"building": "yes"}}}, {"type": "Feature", "geometry": {"type": "Polygon", "coordinates": [[[-97.4473576, 35.2196272], [-97.4471566, 35.2197095], [-97.4471904, 35.2197646], [-97.4471356, 35.2197871], [-97.4472007, 35.2198931], [-97.4470972, 35.2199355], [-97.4468832, 35.219587], [-97.4472425, 35.2194398], [-97.4473576, 35.2196272]]]}, "properties": {"osm_id": 324366594, "building": "yes", "name": "", "height": null, "height_m": null, "levels": null, "tract_id": "40027200100", "tract_name": "2001", "tags": {"building": "yes", "shop": "yes"}}}, {"type": "Feature", "geometry": {"type": "Polygon", "coordinates": [[[-97.4465483, 35.2194217], [-97.4461522, 35.2195889], [-97.4461072, 35.2195177], [-97.4460792, 35.2195215], [-97.4459151, 35.219262], [-97.4463352, 35.2190847], [-97.4465483, 35.2194217]]]}, "properties": {"osm_id": 324366707, "building": "yes", "name": "", "height": null, "height_m": null, "levels": null, "tract_id": "40027200100", "tract_name": "2001", "tags": {"addr:city": "Norman", "addr:housenumber": "101", "addr:postcode": "73069", "addr:state": "OK", "addr:street": "South Webster Avenue", "building": "yes"}}}, {"type": "Feature", "geometry": {"type": "Polygon", "coordinates": [[[-97.447534, 35.2200274], [-97.447457, 35.2199059], [-97.4471617, 35.2200308], [-97.4472387, 35.2201523], [-97.447534, 35.2200274]]]}, "properties": {"osm_id": 324366711, "building": "yes", "name": "", "height": null, "height_m": null, "levels": null, "tract_id": "40027200100", "tract_name": "2001", "tags": {"building": "yes"}}}, {"type": "Feature", "geometry": {"type": "Polygon", "coordinates": [[[-97.4476003, 35.2198496], [-97.4477816, 35.2201327], [-97.4476688, 35.2201809], [-97.4474874, 35.2198978], [-97.4476003, 35.2198496]]]}, "properties": {"osm_id": 324366716, "building": "yes", "name": "", "height": null, "height_m": null, "levels": null, "tract_id": "40027200100", "tract_name": "2001", "tags": {"building": "yes"}}}, {"type": "Feature", "geometry": {"type": "Polygon", "coordinates": [[[-97.4483007, 35.2204615], [-97.4482947, 35.2204507], [-97.4481494, 35.2202325], [-97.4474689, 35.2205157], [-97.4476257, 35.2207538], [-97.4483007, 35.2204615]]]}, "properties": {"osm_id": 324366742, "building": "yes", "name": "", "height": null, "height_m": null, "levels": null, "tract_id": "40027200100", "tract_name": "2001", "tags": {"building": "yes"}}}, {"type": "Feature", "geometry": {"type": "Polygon", "coordinates": [[[-97.4457437, 35.2200866], [-97.445667, 35.2201174], [-97.445757, 35.220262], [-97.4457445, 35.2202672], [-97.4457739, 35.2203144], [-97.4457844, 35.22031], [-97.4458762, 35.2204572], [-97.4459533, 35.2204252], [-97.4458615, 35.2202784], [-97.4457437, 35.2200866]]]}, "properties": {"osm_id": 324924271, "building": "commercial", "name": "", "height": null, "height_m": 6.0, "levels": 2, "tract_id": "40027200100", "tract_name": "2001", "tags": {"addr:city": "Norman", "addr:housenumber": "205", "addr:postcode": "73069", "addr:state": "OK", "addr:street": "West Main Street", "building": "commercial", "building:levels": "2"}}}, {"type": "Feature", "geometry": {"type": "Polygon", "coordinates": [[[-97.4463984, 35.2203619], [-97.4464354, 35.2204176], [-97.4464832, 35.2204938], [-97.4463321, 35.2205594], [-97.4463139, 35.2205309], [-97.446161, 35.2205959], [-97.4461768, 35.2206207], [-97.4461063, 35.2206507], [-97.4460238, 35.2205213], [-97.4463984, 35.2203619]]]}, "properties": {"osm_id": 324924790, "building": "commercial", "name": "", "height": null, "height_m": 6.0, "levels": 2, "tract_id": "40027200100", "tract_name": "2001", "tags": {"addr:city": "norman", "addr:housenumber": "224", "addr:postcode": "73069", "addr:state": "OK", "addr:street": "West Gray Street", "building": "commercial", "building:levels": "2"}}}, {"type": "Feature", "geometry": {"type": "Polygon", "coordinates": [[[-97.4485352, 35.2202648], [-97.4484432, 35.2203021], [-97.4483521, 35.220152], [-97.4484442, 35.2201148], [-97.4485352, 35.2202648]]]}, "properties": {"osm_id": 325847123, "building": "yes", "name": "", "height": null, "height_m": null, "levels": null, "tract_id": "40027200100", "tract_name": "2001", "tags": {"building": "yes"}}}, {"type": "Feature", "geometry": {"type": "Polygon", "coordinates": [[[-97.448412, 35.2203993], [-97.4484847, 35.2205104], [-97.4483674, 35.2205617], [-97.4482947, 35.2204507], [-97.448412, 35.2203993]]]}, "properties": {"osm_id": 325847162, "building": "yes", "name": "", "height": null, "height_m": null, "levels": null, "tract_id": "40027200100", "tract_name": "2001", "tags": {"building": "yes"}}}, {"type": "Feature", "geometry": {"type": "Polygon", "coordinates": [[[-97.4460887, 35.220639], [-97.4461481, 35.2207342], [-97.4460731, 35.2207655], [-97.4460563, 35.2207385], [-97.4460317, 35.2207488], [-97.4460406, 35.2207631], [-97.4459161, 35.2208148], [-97.4458646, 35.2207323], [-97.4460887, 35.220639]]]}, "properties": {"osm_id": 325847200, "building": "commercial", "name": "", "height": 6.75, "height_m": 6.75, "levels": 2, "tract_id": "40027200100", "tract_name": "2001", "tags": {"addr:city": "Norman", "addr:housenumber": "118-132", "addr:postcode": "73069", "addr:state": "OK", "addr:street": "North Santa Fe Avenue", "building": "commercial", "building:levels": "2", "height": "6.75"}}}, {"type": "Feature", "geometry": {"type": "Polygon", "coordinates": [[[-97.446173, 35.2218518], [-97.4462805, 35.2218094], [-97.4460724, 35.2214815], [-97.4460577, 35.2214869], [-97.4459786, 35.2213566], [-97.445996, 35.22135], [-97.4459291, 35.2212473], [-97.4458212, 35.2212898], [-97.4458297, 35.2213029], [-97.4456933, 35.2213601], [-97.4456849, 35.2213489], [-97.4454584, 35.2214434], [-97.4455201, 35.221542], [-97.4455615, 35.2215253], [-97.4458351, 35.2219416], [-97.4461464, 35.2218105], [-97.446173, 35.2218518]]]}, "properties": {"osm_id": 375158161, "building": "public", "name": "Norman Post Office", "height": null, "height_m": null, "levels": null, "tract_id": "40027200100", "tract_name": "2001", "tags": {"amenity": "post_office", "building": "public", "name": "Norman Post Office", "operator": "United States Postal Service", "operator:short": "USPS", "operator:type": "public", "operator:website": "https://www.usps.com", "operator:wikidata": "Q668687", "operator:wikipedia": "en:United States Postal Service", "short_name": "USPS"}}}, {"type": "Feature", "geometry": {"type": "Polygon", "coordinates": [[[-97.4476305, 35.2225455], [-97.4474827, 35.2223098], [-97.4470343, 35.2224975], [-97.4471821, 35.2227331], [-97.4476305, 35.2225455]]]}, "properties": {"osm_id": 375158653, "building": "public", "name": "", "height": null, "height_m": null, "levels": null, "tract_id": "40027200100", "tract_name": "2001", "tags": {"addr:city": "Norman", "addr:country": "US", "addr:housenumber": "201", "addr:state": "OK", "addr:street": "West Gray Street", "addr:unit": "A", "building": "public"}}}, {"type": "Feature", "geometry": {"type": "Polygon", "coordinates": [[[-97.446428, 35.2230983], [-97.4465453, 35.2230484], [-97.4464527, 35.222903], [-97.4463354, 35.2229528], [-97.4462026, 35.2227276], [-97.4457827, 35.2229063], [-97.4458307, 35.2229815], [-97.4457543, 35.223014], [-97.4458932, 35.2232319], [-97.4459659, 35.2232009], [-97.4460158, 35.2232792], [-97.446428, 35.2230983]]]}, "properties": {"osm_id": 375158691, "building": "public", "name": "201-B West Gray", "height": null, "height_m": null, "levels": null, "tract_id": "40027200100", "tract_name": "2001", "tags": {"building": "public", "name": "201-B West Gray"}}}, {"type": "Feature", "geometry": {"type": "Polygon", "coordinates": [[[-97.4475289, 35.2221355], [-97.4472539, 35.2216995], [-97.4469564, 35.2218247], [-97.4472365, 35.2222626], [-97.4475289, 35.2221355]]]}, "properties": {"osm_id": 375158722, "building": "public", "name": "", "height": null, "height_m": null, "levels": null, "tract_id": "40027200100", "tract_name": "2001", "tags": {"addr:city": "Norman", "addr:country": "US", "addr:housenumber": "201", "addr:state": "OK", "addr:street": "West Gray Street", "addr:unit": "C", "building": "public"}}}, {"type": "Feature", "geometry": {"type": "Polygon", "coordinates": [[[-97.4469272, 35.2218332], [-97.4470323, 35.2217884], [-97.4469508, 35.2216609], [-97.4469232, 35.2216727], [-97.4467714, 35.2214349], [-97.4467132, 35.2214597], [-97.446723, 35.2214751], [-97.4466786, 35.221494], [-97.4467226, 35.2215631], [-97.4466584, 35.2215904], [-97.4466712, 35.2216104], [-97.4465938, 35.2216434], [-97.446616, 35.2216781], [-97.4465476, 35.2217073], [-97.4465803, 35.2217584], [-97.446546, 35.221773], [-97.446584, 35.2218324], [-97.4465559, 35.2218443], [-97.4465894, 35.2218968], [-97.4464768, 35.2219448], [-97.4464955, 35.221974], [-97.4464739, 35.2219832], [-97.4465163, 35.2220496], [-97.4467717, 35.2219408], [-97.4468206, 35.2220174], [-97.4469417, 35.2219658], [-97.4468813, 35.2218713], [-97.4469365, 35.2218478], [-97.4469272, 35.2218332]]]}, "properties": {"osm_id": 375158877, "building": "public", "name": "", "height": null, "height_m": null, "levels": null, "tract_id": "40027200100", "tract_name": "2001", "tags": {"addr:city": "Norman", "addr:country": "US", "addr:housenumber": "201", "addr:state": "OK", "addr:street": "West Gray Street", "building": "public"}}}, {"type": "Feature", "geometry": {"type": "Polygon", "coordinates": [[[-97.4430071, 35.2200255], [-97.4429758, 35.2199732], [-97.4429986, 35.2199641], [-97.4429135, 35.2198219], [-97.4428873, 35.2198323], [-97.4428342, 35.2197436], [-97.4427689, 35.2197697], [-97.4428221, 35.2198586], [-97.4427997, 35.2198675], [-97.4428851, 35.2200101], [-97.4429167, 35.2199975], [-97.4429477, 35.2200492], [-97.4430071, 35.2200255]]]}, "properties": {"osm_id": 377072890, "building": "train_station", "name": "Norman Amtrak", "height": null, "height_m": null, "levels": null, "tract_id": "40027200100", "tract_name": "2001", "tags": {"addr:city": "Norman", "addr:housenumber": "200", "addr:postcode": "73069", "addr:street": "South Jones Avenue", "building": "train_station", "name": "Norman Amtrak", "website": "http://www.pasnorman.org/normandepot/depothistory"}}}, {"type": "Feature", "geometry": {"type": "Polygon", "coordinates": [[[-97.4410971, 35.2252604], [-97.4410757, 35.2252272], [-97.4410856, 35.225223], [-97.4410246, 35.2251282], [-97.4410677, 35.2251097], [-97.4410214, 35.2250377], [-97.4409934, 35.2250497], [-97.4409483, 35.2249795], [-97.4408848, 35.2250068], [-97.4408755, 35.2249924], [-97.4408391, 35.225008], [-97.4408553, 35.2250332], [-97.4408427, 35.2250386], [-97.4409514, 35.2252075], [-97.4409048, 35.2252275], [-97.4409301, 35.2252668], [-97.440981, 35.2252449], [-97.441014, 35.2252961], [-97.4410971, 35.2252604]]]}, "properties": {"osm_id": 378822648, "building": "retail", "name": "Van's Pig Stand", "height": null, "height_m": null, "levels": null, "tract_id": "40027200100", "tract_name": "2001", "tags": {"addr:housenumber": "320", "addr:postcode": "73071", "addr:street": "North Porter Avenue", "building": "retail", "cuisine": "barbecue", "name": "Van's Pig Stand", "opening_hours": "Su-Th 11:00-21:00; Fr-Sa 11:00-22:00", "website": "http://pigstands.com/norman-porter/"}}}, {"type": "Feature", "geometry": {"type": "Polygon", "coordinates": [[[-97.4424063, 35.2241863], [-97.442269, 35.2239698], [-97.4421172, 35.224034], [-97.4422544, 35.2242506], [-97.4424063, 35.2241863]]]}, "properties": {"osm_id": 385498526, "building": "yes", "name": "Able Community Based Services", "height": null, "height_m": null, "levels": null, "tract_id": "40027200100", "tract_name": "2001", "tags": {"addr:city": "Norman", "addr:housenumber": "300", "addr:postcode": "73069", "addr:street": "North Crawford Street", "amenity": "social_facility", "building": "yes", "name": "Able Community Based Services", "social_facility": "outreach"}}}, {"type": "Feature", "geometry": {"type": "Polygon", "coordinates": [[[-97.4425467, 35.2228955], [-97.4424846, 35.2227998], [-97.4425168, 35.2227859], [-97.4424541, 35.2226892], [-97.4421267, 35.2228309], [-97.44219, 35.2229285], [-97.4422269, 35.2229126], [-97.4422883, 35.2230073], [-97.4425467, 35.2228955]]]}, "properties": {"osm_id": 385498528, "building": "school", "name": "NPS Professional Development Center", "height": null, "height_m": null, "levels": null, "tract_id": "40027200100", "tract_name": "2001", "tags": {"addr:city": "Norman", "addr:housenumber": "207", "addr:postcode": "73069", "addr:street": "East Gray Street", "building": "school", "name": "NPS Professional Development Center", "website": "https://www.norman.k12.ok.us/index.php?pdc"}}}, {"type": "Feature", "geometry": {"type": "Polygon", "coordinates": [[[-97.4414484, 35.223926], [-97.4414845, 35.2239114], [-97.4414373, 35.2238372], [-97.4413987, 35.2238534], [-97.4413894, 35.2238395], [-97.4412109, 35.223908], [-97.441092, 35.2237259], [-97.4409856, 35.22377], [-97.4411796, 35.224064], [-97.4414608, 35.2239455], [-97.4414484, 35.223926]]]}, "properties": {"osm_id": 385499841, "building": "yes", "name": "YoungLife", "height": null, "height_m": null, "levels": null, "tract_id": "40027200100", "tract_name": "2001", "tags": {"addr:city": "Norman", "addr:housenumber": "291", "addr:postcode": "73069", "addr:street": "North Crawford Street", "building": "yes", "name": "YoungLife", "website": "https://norman.younglife.org/Pages/default.aspx"}}}, {"type": "Feature", "geometry": {"type": "Polygon", "coordinates": [[[-97.4486166, 35.2208841], [-97.4485962, 35.2208532], [-97.4486182, 35.2208435], [-97.4486103, 35.2208316], [-97.4486416, 35.2208178], [-97.4486105, 35.2207706], [-97.448547, 35.2207986], [-97.4485117, 35.2207451], [-97.4484332, 35.2207797], [-97.4484489, 35.2208035], [-97.4483792, 35.2208341], [-97.448358, 35.220802], [-97.4483242, 35.2208168], [-97.4483099, 35.2207951], [-97.4482344, 35.2208284], [-97.4483217, 35.2209605], [-97.4484017, 35.2209253], [-97.4484291, 35.2209667], [-97.4486166, 35.2208841]]]}, "properties": {"osm_id": 385851246, "building": "yes", "name": "Montford Inn", "height": null, "height_m": null, "levels": null, "tract_id": "40027200100", "tract_name": "2001", "tags": {"addr:city": "Norman", "addr:housenumber": "322", "addr:postcode": "73069", "addr:street": "West Tonhawa Street", "building": "yes", "name": "Montford Inn", "website": "https://www.montfordinn.com/"}}}, {"type": "Feature", "geometry": {"type": "Polygon", "coordinates": [[[-97.4438088, 35.2228556], [-97.4436239, 35.2229297], [-97.4436093, 35.2229052], [-97.4435746, 35.222919], [-97.4434606, 35.222728], [-97.4436968, 35.222634], [-97.4437866, 35.2227846], [-97.4437698, 35.2227914], [-97.4437907, 35.222826], [-97.4438088, 35.2228556]]]}, "properties": {"osm_id": 386533596, "building": "commercial", "name": "The Crucible Foundry", "height": null, "height_m": null, "levels": null, "tract_id": "40027200100", "tract_name": "2001", "tags": {"addr:city": "Norman", "addr:housenumber": "110", "addr:postcode": "73069", "addr:street": "East Tonhawa Street", "building": "commercial", "name": "The Crucible Foundry", "website": "https://www.thecruciblellc.com/"}}}, {"type": "Feature", "geometry": {"type": "Polygon", "coordinates": [[[-97.4437866, 35.2227846], [-97.4437698, 35.2227914], [-97.4437907, 35.222826], [-97.4438088, 35.2228556], [-97.4438449, 35.2228408], [-97.4438546, 35.2228566], [-97.4439843, 35.2228037], [-97.4439598, 35.2227635], [-97.4439727, 35.2227583], [-97.4439439, 35.2227112], [-97.4439318, 35.2227161], [-97.4439086, 35.2226781], [-97.4437944, 35.2227247], [-97.4438221, 35.2227701], [-97.4437866, 35.2227846]]]}, "properties": {"osm_id": 386534397, "building": "commercial", "name": "The Crucible Foundry", "height": null, "height_m": null, "levels": null, "tract_id": "40027200100", "tract_name": "2001", "tags": {"building": "commercial", "name": "The Crucible Foundry"}}}, {"type": "Feature", "geometry": {"type": "Polygon", "coordinates": [[[-97.4408033, 35.2201273], [-97.4407402, 35.2200246], [-97.4407737, 35.2200092], [-97.4407818, 35.2200024], [-97.4407805, 35.2199893], [-97.4407683, 35.2199676], [-97.4407415, 35.219927], [-97.4407358, 35.2199167], [-97.4407267, 35.2199095], [-97.4407114, 35.2199101], [-97.440696, 35.2199148], [-97.4406744, 35.2199249], [-97.4406168, 35.2198394], [-97.440523, 35.2198786], [-97.440574, 35.2199594], [-97.4405563, 35.2199671], [-97.4406302, 35.2200857], [-97.4406469, 35.2200777], [-97.4407066, 35.2201703], [-97.4408033, 35.2201273]]]}, "properties": {"osm_id": 386676468, "building": "commercial", "name": "Lawyers Building", "height": null, "height_m": null, "levels": null, "tract_id": "40027200100", "tract_name": "2001", "tags": {"addr:city": "Norman", "addr:housenumber": "231", "addr:postcode": "73079", "addr:street": "South Peters Avenue", "building": "commercial", "name": "Lawyers Building"}}}, {"type": "Feature", "geometry": {"type": "Polygon", "coordinates": [[[-97.4435673, 35.2225062], [-97.4434069, 35.2222505], [-97.443361, 35.2222697], [-97.443268, 35.2223086], [-97.4434285, 35.2225643], [-97.4435673, 35.2225062]]]}, "properties": {"osm_id": 386807306, "building": "office", "name": "Norman Chamber of Commerce", "height": null, "height_m": null, "levels": null, "tract_id": "40027200100", "tract_name": "2001", "tags": {"addr:city": "Norman", "addr:housenumber": "115", "addr:postcode": "73069", "addr:street": "East Gray Street", "building": "office", "name": "Norman Chamber of Commerce", "office": "association", "website": "https://www.normanchamber.com/"}}}, {"type": "Feature", "geometry": {"type": "Polygon", "coordinates": [[[-97.4414967, 35.2243646], [-97.4415563, 35.2244585], [-97.4417257, 35.2243868], [-97.441666, 35.2242928], [-97.4414967, 35.2243646]]]}, "properties": {"osm_id": 386970423, "building": "yes", "name": "Able Community Based Services", "height": null, "height_m": null, "levels": null, "tract_id": "40027200100", "tract_name": "2001", "tags": {"amenity": "social_facility", "building": "yes", "name": "Able Community Based Services", "social_facility": "outreach"}}}, {"type": "Feature", "geometry": {"type": "Polygon", "coordinates": [[[-97.4403048, 35.2239809], [-97.4401639, 35.2240389], [-97.440075, 35.2238946], [-97.4402153, 35.2238349], [-97.4402585, 35.223905], [-97.4403038, 35.2238863], [-97.44035, 35.2239613], [-97.4403043, 35.2239801], [-97.4403048, 35.2239809]]]}, "properties": {"osm_id": 388134068, "building": "commercial", "name": "A-1 Automotive Repair", "height": null, "height_m": null, "levels": null, "tract_id": "40027200100", "tract_name": "2001", "tags": {"addr:city": "Norman", "addr:housenumber": "204", "addr:postcode": "73071", "addr:street": "North Porter Avenue", "building": "commercial", "name": "A-1 Automotive Repair"}}}, {"type": "Feature", "geometry": {"type": "Polygon", "coordinates": [[[-97.4409404, 35.2236978], [-97.4408409, 35.2235395], [-97.4407698, 35.2235688], [-97.4406592, 35.2234066], [-97.4405157, 35.2234668], [-97.4407176, 35.2237879], [-97.4408646, 35.2237263], [-97.4408732, 35.2237399], [-97.4409474, 35.2237088], [-97.4409404, 35.2236978]]]}, "properties": {"osm_id": 388136631, "building": "commercial", "name": "", "height": null, "height_m": null, "levels": null, "tract_id": "40027200100", "tract_name": "2001", "tags": {"building": "commercial"}}}, {"type": "Feature", "geometry": {"type": "Polygon", "coordinates": [[[-97.4420229, 35.22325], [-97.441962, 35.2231559], [-97.4418076, 35.2229176], [-97.4416595, 35.22298], [-97.4417835, 35.2231773], [-97.441874, 35.2233144], [-97.4420229, 35.22325]]]}, "properties": {"osm_id": 388136632, "building": "commercial", "name": "", "height": null, "height_m": null, "levels": null, "tract_id": "40027200100", "tract_name": "2001", "tags": {"building": "commercial"}}}, {"type": "Feature", "geometry": {"type": "Polygon", "coordinates": [[[-97.4420368, 35.2231245], [-97.4418841, 35.2228816], [-97.4418076, 35.2229176], [-97.441962, 35.2231559], [-97.4420368, 35.2231245]]]}, "properties": {"osm_id": 388136633, "building": "commercial", "name": "", "height": null, "height_m": null, "levels": null, "tract_id": "40027200100", "tract_name": "2001", "tags": {"building": "commercial"}}}, {"type": "Feature", "geometry": {"type": "Polygon", "coordinates": [[[-97.4417107, 35.2232078], [-97.4417068, 35.2231999], [-97.4415859, 35.2230127], [-97.4416595, 35.22298], [-97.4417835, 35.2231773], [-97.4417107, 35.2232078]]]}, "properties": {"osm_id": 388136634, "building": "commercial", "name": "", "height": null, "height_m": null, "levels": null, "tract_id": "40027200100", "tract_name": "2001", "tags": {"building": "commercial"}}}, {"type": "Feature", "geometry": {"type": "Polygon", "coordinates": [[[-97.4413855, 35.2232885], [-97.4412967, 35.2231459], [-97.4414464, 35.2230837], [-97.4415351, 35.2232263], [-97.4413855, 35.2232885]]]}, "properties": {"osm_id": 388136635, "building": "commercial", "name": "", "height": null, "height_m": null, "levels": null, "tract_id": "40027200100", "tract_name": "2001", "tags": {"building": "commercial"}}}, {"type": "Feature", "geometry": {"type": "Polygon", "coordinates": [[[-97.4401206, 35.2236111], [-97.4398874, 35.2237103], [-97.4400198, 35.223918], [-97.440075, 35.2238946], [-97.4402153, 35.2238349], [-97.440253, 35.2238189], [-97.4401206, 35.2236111]]]}, "properties": {"osm_id": 388136636, "building": "commercial", "name": "", "height": null, "height_m": null, "levels": null, "tract_id": "40027200100", "tract_name": "2001", "tags": {"building": "commercial"}}}, {"type": "Feature", "geometry": {"type": "Polygon", "coordinates": [[[-97.4417068, 35.2231999], [-97.4415604, 35.2232631], [-97.4415351, 35.2232263], [-97.4414464, 35.2230837], [-97.4414394, 35.2230759], [-97.4415859, 35.2230127], [-97.4417068, 35.2231999]]]}, "properties": {"osm_id": 388136637, "building": "commercial", "name": "", "height": null, "height_m": null, "levels": null, "tract_id": "40027200100", "tract_name": "2001", "tags": {"building": "commercial"}}}, {"type": "Feature", "geometry": {"type": "Polygon", "coordinates": [[[-97.4435931, 35.2221596], [-97.443687, 35.222313], [-97.4438088, 35.2222628], [-97.4438383, 35.2223076], [-97.443974, 35.2222495], [-97.4438546, 35.2220588], [-97.4437044, 35.2221224], [-97.4436989, 35.2221142], [-97.4435931, 35.2221596]]]}, "properties": {"osm_id": 388137794, "building": "commercial", "name": "", "height": null, "height_m": null, "levels": null, "tract_id": "40027200100", "tract_name": "2001", "tags": {"building": "commercial"}}}, {"type": "Feature", "geometry": {"type": "Polygon", "coordinates": [[[-97.4440581, 35.2223842], [-97.4436897, 35.2225386], [-97.4436527, 35.2224797], [-97.4440211, 35.2223253], [-97.4440581, 35.2223842]]]}, "properties": {"osm_id": 388137795, "building": "commercial", "name": "", "height": null, "height_m": null, "levels": null, "tract_id": "40027200100", "tract_name": "2001", "tags": {"building": "commercial"}}}, {"type": "Feature", "geometry": {"type": "Polygon", "coordinates": [[[-97.4430041, 35.2228065], [-97.4428432, 35.22255], [-97.4428046, 35.2224883], [-97.4428805, 35.2224565], [-97.4430801, 35.2227747], [-97.4430041, 35.2228065]]]}, "properties": {"osm_id": 388137796, "building": "commercial", "name": "", "height": null, "height_m": null, "levels": null, "tract_id": "40027200100", "tract_name": "2001", "tags": {"building": "commercial"}}}, {"type": "Feature", "geometry": {"type": "Polygon", "coordinates": [[[-97.4431659, 35.222761], [-97.4429537, 35.2224272], [-97.4428805, 35.2224565], [-97.4430801, 35.2227747], [-97.4430918, 35.2227925], [-97.4431659, 35.222761]]]}, "properties": {"osm_id": 388137797, "building": "commercial", "name": "", "height": null, "height_m": null, "levels": null, "tract_id": "40027200100", "tract_name": "2001", "tags": {"building": "commercial"}}}, {"type": "Feature", "geometry": {"type": "Polygon", "coordinates": [[[-97.4427731, 35.2225774], [-97.4427374, 35.2225165], [-97.4428046, 35.2224883], [-97.4428432, 35.22255], [-97.4427731, 35.2225774]]]}, "properties": {"osm_id": 388137798, "building": "commercial", "name": "", "height": null, "height_m": null, "levels": null, "tract_id": "40027200100", "tract_name": "2001", "tags": {"building": "commercial"}}}, {"type": "Feature", "geometry": {"type": "Polygon", "coordinates": [[[-97.439881, 35.2190531], [-97.4398582, 35.2191036], [-97.4398658, 35.2191159], [-97.4398956, 35.2191041], [-97.4399084, 35.2191257], [-97.4399482, 35.2191089], [-97.4399784, 35.2191564], [-97.4400389, 35.2192578], [-97.4398868, 35.2193184], [-97.4398277, 35.2192193], [-97.4398195, 35.2192228], [-97.4397084, 35.219046], [-97.4397705, 35.2190199], [-97.439881, 35.2190531]]]}, "properties": {"osm_id": 388782338, "building": "yes", "name": "", "height": null, "height_m": null, "levels": null, "tract_id": "40027200100", "tract_name": "2001", "tags": {"building": "yes", "operator": "City of Norman Parks and Recreation Dept."}}}, {"type": "Feature", "geometry": {"type": "Polygon", "coordinates": [[[-97.4392511, 35.2194821], [-97.4393059, 35.2194604], [-97.4393707, 35.2195693], [-97.4391057, 35.2196745], [-97.4390409, 35.2195656], [-97.4391952, 35.2195043], [-97.4391585, 35.2194407], [-97.4390602, 35.219479], [-97.4390135, 35.219399], [-97.4391219, 35.2193567], [-97.4391406, 35.2193887], [-97.4391898, 35.2193711], [-97.4392048, 35.2193991], [-97.4391567, 35.2194162], [-97.4391606, 35.219423], [-97.4392067, 35.2194052], [-97.4392111, 35.2194128], [-97.4392603, 35.2193948], [-97.4392883, 35.2194459], [-97.4392404, 35.2194635], [-97.4392511, 35.2194821]]]}, "properties": {"osm_id": 388782341, "building": "yes", "name": "Mary Abbott Children's House", "height": null, "height_m": null, "levels": null, "tract_id": "40027200100", "tract_name": "2001", "tags": {"addr:city": "Norman", "addr:housenumber": "231", "addr:postcode": "73069", "addr:street": "East Symmes Street", "amenity": "social_facility", "building": "yes", "name": "Mary Abbott Children's House", "social_facility:for": "abused", "website": "https://www.abbott-house.org/"}}}, {"type": "Feature", "geometry": {"type": "Polygon", "coordinates": [[[-97.4401861, 35.2191575], [-97.4400379, 35.2192156], [-97.4399398, 35.2190487], [-97.440088, 35.2189906], [-97.4401861, 35.2191575]]]}, "properties": {"osm_id": 388782342, "building": "yes", "name": "Senior Citizens Center", "height": null, "height_m": null, "levels": null, "tract_id": "40027200100", "tract_name": "2001", "tags": {"addr:city": "Norman", "addr:housenumber": "329", "addr:postcode": "73069", "addr:street": "South Peters Avenue", "amenity": "community_centre", "building": "yes", "community_centre:for": "senior", "name": "Senior Citizens Center", "operator": "City of Norman Parks and Recreation Dept."}}}, {"type": "Feature", "geometry": {"type": "Polygon", "coordinates": [[[-97.4405938, 35.2189201], [-97.4404583, 35.2189826], [-97.4404282, 35.2189372], [-97.4404422, 35.2189136], [-97.4404301, 35.2188949], [-97.4403872, 35.2189125], [-97.4403054, 35.2187927], [-97.4404467, 35.2187318], [-97.4405026, 35.2188171], [-97.4404918, 35.2188387], [-97.4405039, 35.2188632], [-97.4405428, 35.2188452], [-97.4405938, 35.2189201]]]}, "properties": {"osm_id": 388936500, "building": "commercial", "name": "", "height": null, "height_m": null, "levels": null, "tract_id": "40027200100", "tract_name": "2001", "tags": {"building": "commercial"}}}, {"type": "Feature", "geometry": {"type": "Polygon", "coordinates": [[[-97.4480369, 35.2191024], [-97.4480806, 35.2191684], [-97.4481173, 35.219227], [-97.4477552, 35.2193782], [-97.4476765, 35.2192526], [-97.4480369, 35.2191024]]]}, "properties": {"osm_id": 390853013, "building": "commercial", "name": "", "height": null, "height_m": 15.0, "levels": 5, "tract_id": "40027200100", "tract_name": "2001", "tags": {"building": "commercial", "building:levels": "5"}}}, {"type": "Feature", "geometry": {"type": "Polygon", "coordinates": [[[-97.4477744, 35.219409], [-97.4477254, 35.2194295], [-97.4476985, 35.2193866], [-97.4475556, 35.2194462], [-97.4475608, 35.2194546], [-97.44749, 35.2194842], [-97.4476263, 35.219702], [-97.447832, 35.2196161], [-97.4477959, 35.2195584], [-97.4479735, 35.2194843], [-97.4479908, 35.2195119], [-97.4481007, 35.219466], [-97.4480819, 35.2194361], [-97.4482523, 35.219365], [-97.4481192, 35.2191523], [-97.4480806, 35.2191684], [-97.4481173, 35.219227], [-97.4477552, 35.2193782], [-97.4477744, 35.219409]]]}, "properties": {"osm_id": 390853018, "building": "commercial", "name": "", "height": null, "height_m": null, "levels": null, "tract_id": "40027200100", "tract_name": "2001", "tags": {"addr:city": "Norman", "addr:housenumber": "330", "addr:postcode": "73069", "addr:street": "West Gray Street", "building": "commercial"}}}, {"type": "Feature", "geometry": {"type": "Polygon", "coordinates": [[[-97.4430311, 35.2218173], [-97.4430934, 35.2217906], [-97.4430967, 35.2217957], [-97.4431324, 35.2217804], [-97.4431837, 35.2218601], [-97.4431423, 35.2218779], [-97.4431395, 35.2218735], [-97.4430828, 35.2218978], [-97.443088, 35.2219058], [-97.4430249, 35.2219329], [-97.4430305, 35.2219416], [-97.4429335, 35.2219832], [-97.4428616, 35.2218714], [-97.4428955, 35.2218569], [-97.4429054, 35.2218722], [-97.4429651, 35.2218466], [-97.4429613, 35.2218407], [-97.4430278, 35.2218122], [-97.4430311, 35.2218173]]]}, "properties": {"osm_id": 402979353, "building": "bank", "name": "First Fidelity Bank", "height": null, "height_m": null, "levels": null, "tract_id": "40027200100", "tract_name": "2001", "tags": {"amenity": "bank", "atm": "yes", "building": "bank", "name": "First Fidelity Bank"}}}, {"type": "Feature", "geometry": {"type": "Polygon", "coordinates": [[[-97.4434173, 35.2218386], [-97.4433841, 35.221787], [-97.4433955, 35.2217821], [-97.4433746, 35.2217496], [-97.4435445, 35.2216768], [-97.4435946, 35.2217546], [-97.4435551, 35.2217716], [-97.4435591, 35.2217778], [-97.4434173, 35.2218386]]]}, "properties": {"osm_id": 402979355, "building": "yes", "name": "Sergio's Italian Bistro", "height": null, "height_m": null, "levels": null, "tract_id": "40027200100", "tract_name": "2001", "tags": {"amenity": "restaurant", "building": "yes", "cuisine": "italian", "name": "Sergio's Italian Bistro"}}}, {"type": "Feature", "geometry": {"type": "Polygon", "coordinates": [[[-97.443261, 35.2215551], [-97.4433265, 35.2215265], [-97.4431098, 35.2211898], [-97.4430454, 35.2212176], [-97.443261, 35.2215551]]]}, "properties": {"osm_id": 402980255, "building": "commercial", "name": "", "height": null, "height_m": null, "levels": null, "tract_id": "40027200100", "tract_name": "2001", "tags": {"building": "commercial"}}}, {"type": "Feature", "geometry": {"type": "Polygon", "coordinates": [[[-97.4427874, 35.2215681], [-97.4426378, 35.2216319], [-97.442725, 35.2217683], [-97.4426542, 35.2217984], [-97.4425681, 35.2216636], [-97.4424163, 35.2217283], [-97.4425078, 35.2218715], [-97.4422933, 35.221963], [-97.4420744, 35.2216172], [-97.4427922, 35.2213147], [-97.4430454, 35.2212176], [-97.443261, 35.2215551], [-97.4430912, 35.2216275], [-97.4430832, 35.221615], [-97.4430009, 35.2216501], [-97.442946, 35.2216735], [-97.4429512, 35.2216816], [-97.4428795, 35.2217122], [-97.4427874, 35.2215681]]]}, "properties": {"osm_id": 402980256, "building": "commercial", "name": "", "height": null, "height_m": null, "levels": null, "tract_id": "40027200100", "tract_name": "2001", "tags": {"building": "commercial"}}}, {"type": "Feature", "geometry": {"type": "Polygon", "coordinates": [[[-97.4424328, 35.2211566], [-97.442435, 35.2211601], [-97.4423791, 35.2211836], [-97.442381, 35.2211866], [-97.4422132, 35.2212571], [-97.4422135, 35.2212576], [-97.4420654, 35.2213198], [-97.4418554, 35.2209862], [-97.4419301, 35.2209548], [-97.4419482, 35.2209836], [-97.4420261, 35.2209509], [-97.4421319, 35.221119], [-97.4422075, 35.2210872], [-97.4421369, 35.220975], [-97.4422059, 35.220946], [-97.44218, 35.2209048], [-97.4422494, 35.2208757], [-97.4422727, 35.2209127], [-97.4423522, 35.2208793], [-97.4423875, 35.2209354], [-97.442468, 35.2209016], [-97.4424043, 35.2208005], [-97.4424714, 35.2207723], [-97.4424459, 35.2207318], [-97.4425842, 35.2206737], [-97.4425847, 35.2206746], [-97.4427437, 35.2206078], [-97.4427728, 35.220654], [-97.4429231, 35.2205909], [-97.4431028, 35.2208765], [-97.4429139, 35.2209558], [-97.4429129, 35.2209543], [-97.4428081, 35.2209983], [-97.4428084, 35.2209987], [-97.4424328, 35.2211566]]]}, "properties": {"osm_id": 402983228, "building": "commercial", "name": "", "height": null, "height_m": null, "levels": null, "tract_id": "40027200100", "tract_name": "2001", "tags": {"building": "commercial"}}}, {"type": "Feature", "geometry": {"type": "Polygon", "coordinates": [[[-97.4415876, 35.2215208], [-97.4415143, 35.2215511], [-97.4413572, 35.2216159], [-97.4412721, 35.2216514], [-97.4412366, 35.2216662], [-97.4411525, 35.2217014], [-97.4410673, 35.2217375], [-97.4410096, 35.2217612], [-97.4409169, 35.2218], [-97.4408334, 35.2218361], [-97.4407221, 35.221882], [-97.4407235, 35.2218843], [-97.4406065, 35.2219332], [-97.4405481, 35.2219575], [-97.4403305, 35.2216098], [-97.4407018, 35.221457], [-97.440768, 35.2215628], [-97.4408403, 35.2215326], [-97.4407844, 35.2214433], [-97.4410121, 35.2213482], [-97.441002, 35.221332], [-97.441263, 35.2212229], [-97.4412612, 35.2212201], [-97.4415174, 35.2211131], [-97.4417346, 35.2214602], [-97.4415876, 35.2215208]]]}, "properties": {"osm_id": 402983699, "building": "commercial", "name": "", "height": null, "height_m": null, "levels": null, "tract_id": "40027200100", "tract_name": "2001", "tags": {"building": "commercial"}}}, {"type": "Feature", "geometry": {"type": "Polygon", "coordinates": [[[-97.4395088, 35.2209579], [-97.4396081, 35.2209154], [-97.4396893, 35.2210422], [-97.439723, 35.221028], [-97.4397515, 35.2210731], [-97.4397181, 35.2210871], [-97.439734, 35.221112], [-97.4396362, 35.2211538], [-97.4396479, 35.2211717], [-97.4395911, 35.2211964], [-97.4394514, 35.2209815], [-97.4395082, 35.2209569], [-97.4395088, 35.2209579]]]}, "properties": {"osm_id": 403557824, "building": "yes", "name": "Blu", "height": null, "height_m": null, "levels": null, "tract_id": "40027200100", "tract_name": "2001", "tags": {"addr:city": "Norman", "addr:housenumber": "201", "addr:postcode": "73079", "addr:state": "OK", "addr:street": "South Crawford Avenue", "amenity": "restaurant", "building": "yes", "name": "Blu", "opening_hours": "Mo-Sa 11:00-02:00; Su 10:00-02:00; PH off", "website": "http://gldining.com/blu/"}}}, {"type": "Feature", "geometry": {"type": "Polygon", "coordinates": [[[-97.4393789, 35.2222674], [-97.4393552, 35.2222299], [-97.439419, 35.222203], [-97.4394419, 35.2222392], [-97.4395361, 35.2223881], [-97.4394723, 35.2224151], [-97.4393789, 35.2222674]]]}, "properties": {"osm_id": 403557825, "building": "commercial", "name": "The Moon Sushi", "height": null, "height_m": null, "levels": null, "tract_id": "40027200100", "tract_name": "2001", "tags": {"addr:city": "Norman", "addr:housenumber": "326", "addr:postcode": "73069", "addr:state": "OK", "addr:street": "East Main Street", "amenity": "restaurant", "building": "commercial", "cuisine": "sushi", "name": "The Moon Sushi", "opening_hours": "We-Sa 11:00-21:00; Mo-Tu 16:00-21:00", "phone": "+14058578244", "website": "https://www.themoonsushi.com/"}}}, {"type": "Feature", "geometry": {"type": "Polygon", "coordinates": [[[-97.4388643, 35.2217519], [-97.439015, 35.221688], [-97.4390506, 35.2217439], [-97.439123, 35.2217131], [-97.4391638, 35.2217772], [-97.4391774, 35.2217987], [-97.4391029, 35.2218302], [-97.4391979, 35.2219796], [-97.439049, 35.2220427], [-97.4388643, 35.2217519]]]}, "properties": {"osm_id": 403557827, "building": "yes", "name": "", "height": null, "height_m": null, "levels": null, "tract_id": "40027200100", "tract_name": "2001", "tags": {"building": "yes"}}}, {"type": "Feature", "geometry": {"type": "Polygon", "coordinates": [[[-97.4394413, 35.2209569], [-97.4393853, 35.2208646], [-97.4395808, 35.2207854], [-97.4396369, 35.2208777], [-97.4394413, 35.2209569]]]}, "properties": {"osm_id": 403557828, "building": "yes", "name": "", "height": null, "height_m": null, "levels": null, "tract_id": "40027200100", "tract_name": "2001", "tags": {"building": "yes"}}}, {"type": "Feature", "geometry": {"type": "Polygon", "coordinates": [[[-97.4406015, 35.2214459], [-97.4403025, 35.2215712], [-97.4400877, 35.2212292], [-97.4403867, 35.2211038], [-97.4406015, 35.2214459]]]}, "properties": {"osm_id": 403557829, "building": "commercial", "name": "", "height": null, "height_m": null, "levels": null, "tract_id": "40027200100", "tract_name": "2001", "tags": {"building": "commercial"}}}, {"type": "Feature", "geometry": {"type": "Polygon", "coordinates": [[[-97.4392773, 35.2211347], [-97.4392947, 35.2211273], [-97.4393193, 35.2211662], [-97.4393021, 35.2211734], [-97.4393828, 35.2212993], [-97.4392162, 35.2213705], [-97.4390523, 35.2211147], [-97.4392189, 35.2210435], [-97.4392773, 35.2211347]]]}, "properties": {"osm_id": 403557831, "building": "commercial", "name": "", "height": null, "height_m": null, "levels": null, "tract_id": "40027200100", "tract_name": "2001", "tags": {"building": "commercial", "layer": "1"}}}, {"type": "Feature", "geometry": {"type": "Polygon", "coordinates": [[[-97.4400835, 35.2215873], [-97.4401199, 35.221646], [-97.4398228, 35.2217691], [-97.4397864, 35.2217105], [-97.4399364, 35.2216483], [-97.4400835, 35.2215873]]]}, "properties": {"osm_id": 403557832, "building": "commercial", "name": "", "height": null, "height_m": null, "levels": null, "tract_id": "40027200100", "tract_name": "2001", "tags": {"building": "commercial"}}}, {"type": "Feature", "geometry": {"type": "Polygon", "coordinates": [[[-97.4401053, 35.2207151], [-97.4400332, 35.2207523], [-97.4399641, 35.2206398], [-97.4400378, 35.2206107], [-97.4400514, 35.2206303], [-97.4400863, 35.2206875], [-97.4401053, 35.2207151]]]}, "properties": {"osm_id": 403557908, "building": "yes", "name": "Arvest Bank", "height": null, "height_m": null, "levels": null, "tract_id": "40027200100", "tract_name": "2001", "tags": {"amenity": "bank", "brand": "Arvest Bank", "brand:wikidata": "Q4802393", "building": "yes", "name": "Arvest Bank"}}}, {"type": "Feature", "geometry": {"type": "Polygon", "coordinates": [[[-97.4402427, 35.2206203], [-97.4401244, 35.2206711], [-97.4400863, 35.2206875], [-97.4400514, 35.2206303], [-97.4402066, 35.2205615], [-97.4402185, 35.2205787], [-97.4402538, 35.2205648], [-97.4402708, 35.2205907], [-97.4402341, 35.220605], [-97.4402427, 35.2206203]]]}, "properties": {"osm_id": 403557909, "building": "roof", "name": "", "height": null, "height_m": null, "levels": null, "tract_id": "40027200100", "tract_name": "2001", "tags": {"building": "roof", "layer": "1"}}}, {"type": "Feature", "geometry": {"type": "Polygon", "coordinates": [[[-97.4402756, 35.2233026], [-97.4402778, 35.2233061], [-97.440163, 35.223354], [-97.4401644, 35.2233563], [-97.4400883, 35.2233881], [-97.4399909, 35.2232326], [-97.4396975, 35.2233552], [-97.4395861, 35.2231772], [-97.4398795, 35.2230547], [-97.4398768, 35.2230503], [-97.4399529, 35.2230185], [-97.44004, 35.2231576], [-97.4400761, 35.2231425], [-97.4400548, 35.2231084], [-97.4400982, 35.2230903], [-97.4400758, 35.2230545], [-97.4402201, 35.2229942], [-97.4403847, 35.223257], [-97.4402756, 35.2233026]]]}, "properties": {"osm_id": 403558133, "building": "commercial", "name": "", "height": null, "height_m": null, "levels": null, "tract_id": "40027200100", "tract_name": "2001", "tags": {"building": "commercial"}}}, {"type": "Feature", "geometry": {"type": "Polygon", "coordinates": [[[-97.4409803, 35.2230107], [-97.4408032, 35.2230847], [-97.4405906, 35.2227451], [-97.4407677, 35.2226711], [-97.4409803, 35.2230107]]]}, "properties": {"osm_id": 403558134, "building": "commercial", "name": "", "height": null, "height_m": null, "levels": null, "tract_id": "40027200100", "tract_name": "2001", "tags": {"building": "commercial"}}}, {"type": "Feature", "geometry": {"type": "Polygon", "coordinates": [[[-97.4403817, 35.2226488], [-97.4402298, 35.2224102], [-97.440266, 35.2223948], [-97.4403054, 35.2223781], [-97.4404445, 35.2225966], [-97.4405048, 35.2226913], [-97.4404666, 35.2227051], [-97.4404292, 35.2227234], [-97.4403817, 35.2226488]]]}, "properties": {"osm_id": 404167585, "building": "commercial", "name": "", "height": null, "height_m": null, "levels": null, "tract_id": "40027200100", "tract_name": "2001", "tags": {"building": "commercial"}}}, {"type": "Feature", "geometry": {"type": "Polygon", "coordinates": [[[-97.4403781, 35.2223472], [-97.4404499, 35.2223167], [-97.4406488, 35.2226293], [-97.440577, 35.2226598], [-97.4405172, 35.2225658], [-97.4403781, 35.2223472]]]}, "properties": {"osm_id": 404167586, "building": "commercial", "name": "", "height": null, "height_m": null, "levels": null, "tract_id": "40027200100", "tract_name": "2001", "tags": {"building": "commercial"}}}, {"type": "Feature", "geometry": {"type": "Polygon", "coordinates": [[[-97.4396326, 35.2226638], [-97.4397047, 35.2226332], [-97.4398178, 35.222811], [-97.4399182, 35.2229688], [-97.4398461, 35.2229994], [-97.4396326, 35.2226638]]]}, "properties": {"osm_id": 404167587, "building": "commercial", "name": "", "height": null, "height_m": null, "levels": null, "tract_id": "40027200100", "tract_name": "2001", "tags": {"building": "commercial"}}}, {"type": "Feature", "geometry": {"type": "Polygon", "coordinates": [[[-97.444476, 35.2209694], [-97.4443515, 35.2207734], [-97.4442887, 35.2208], [-97.4442348, 35.2207151], [-97.4444896, 35.2206071], [-97.4445875, 35.2207613], [-97.4445641, 35.2207712], [-97.4446167, 35.2208538], [-97.444642, 35.2208431], [-97.44467, 35.2208871], [-97.444476, 35.2209694]]]}, "properties": {"osm_id": 404661161, "building": "yes", "name": "Benvenuti's Ristorante", "height": null, "height_m": null, "levels": null, "tract_id": "40027200100", "tract_name": "2001", "tags": {"addr:city": "Norman", "addr:housenumber": "105", "addr:postcode": "73069", "addr:state": "OK", "addr:street": "West Main Street", "amenity": "restaurant", "building": "yes", "name": "Benvenuti's Ristorante", "opening_hours": "Su-We 17:00-21:00; Th-Sa 17:00-22:00", "website": "https://benvenutisristorante.com/"}}}, {"type": "Feature", "geometry": {"type": "Polygon", "coordinates": [[[-97.444941, 35.2208165], [-97.4447982, 35.2208767], [-97.4445995, 35.2205617], [-97.4447422, 35.2205015], [-97.444941, 35.2208165]]]}, "properties": {"osm_id": 404661162, "building": "commercial", "name": "", "height": null, "height_m": 3.0, "levels": 1, "tract_id": "40027200100", "tract_name": "2001", "tags": {"addr:city": "Norman", "addr:housenumber": "115", "addr:postcode": "73069", "addr:state": "OK", "addr:street": "West Main Street", "building": "commercial", "building:levels": "1"}}}, {"type": "Feature", "geometry": {"type": "Polygon", "coordinates": [[[-97.4441477, 35.2204391], [-97.4441188, 35.2203909], [-97.4439596, 35.2204528], [-97.443803, 35.2202072], [-97.4438195, 35.2201998], [-97.4437864, 35.2201618], [-97.4443056, 35.2199447], [-97.4443917, 35.2200822], [-97.4445432, 35.2200189], [-97.4444819, 35.219921], [-97.4447748, 35.2197987], [-97.4447469, 35.2197542], [-97.4448263, 35.2197211], [-97.4448783, 35.2198041], [-97.4450314, 35.2197402], [-97.4451024, 35.2198536], [-97.4451002, 35.2198545], [-97.4451811, 35.2200043], [-97.4441477, 35.2204391]]]}, "properties": {"osm_id": 404661163, "building": "commercial", "name": "", "height": null, "height_m": null, "levels": null, "tract_id": "40027200100", "tract_name": "2001", "tags": {"building": "commercial"}}}, {"type": "Feature", "geometry": {"type": "Polygon", "coordinates": [[[-97.4456471, 35.2209737], [-97.4456219, 35.2209843], [-97.4456341, 35.2210037], [-97.4456035, 35.2210165], [-97.4455954, 35.2210199], [-97.4455684, 35.2210312], [-97.445481, 35.2208922], [-97.4455026, 35.2208832], [-97.4454929, 35.2208677], [-97.4455622, 35.2208386], [-97.4456471, 35.2209737]]]}, "properties": {"osm_id": 404732350, "building": "residential", "name": "", "height": null, "height_m": 6.0, "levels": 2, "tract_id": "40027200100", "tract_name": "2001", "tags": {"addr:city": "Norman", "addr:housenumber": "126-128", "addr:postcode": "73069", "addr:state": "OK", "addr:street": "West Gray Street", "building": "residential", "building:levels": "2"}}}, {"type": "Feature", "geometry": {"type": "Polygon", "coordinates": [[[-97.4454574, 35.2208719], [-97.4453958, 35.220774], [-97.445622, 35.220679], [-97.4456836, 35.2207769], [-97.4454574, 35.2208719]]]}, "properties": {"osm_id": 404732352, "building": "commercial", "name": "", "height": null, "height_m": 3.0, "levels": 1, "tract_id": "40027200100", "tract_name": "2001", "tags": {"addr:city": "Norman", "addr:housenumber": "111", "addr:postcode": "73069", "addr:state": "OK", "addr:street": "North Santa Fe Avenue", "building": "commercial", "building:levels": "1"}}}, {"type": "Feature", "geometry": {"type": "Polygon", "coordinates": [[[-97.4455936, 35.2208551], [-97.4456378, 35.2208365], [-97.4456542, 35.2208625], [-97.4457183, 35.2208356], [-97.4458041, 35.2209716], [-97.4456959, 35.2210172], [-97.4455936, 35.2208551]]]}, "properties": {"osm_id": 404732353, "building": "commercial", "name": "", "height": null, "height_m": 3.0, "levels": 1, "tract_id": "40027200100", "tract_name": "2001", "tags": {"addr:city": "Norman", "addr:housenumber": "132", "addr:postcode": "73069", "addr:state": "OK", "addr:street": "West Gray Street", "building": "commercial", "building:levels": "1"}}}, {"type": "Feature", "geometry": {"type": "Polygon", "coordinates": [[[-97.4448931, 35.2212386], [-97.4448841, 35.2212424], [-97.4449458, 35.2213382], [-97.4448849, 35.2213644], [-97.4448231, 35.2212684], [-97.4447812, 35.2212864], [-97.4446235, 35.2210415], [-97.4447352, 35.2209935], [-97.4448931, 35.2212386]]]}, "properties": {"osm_id": 404732355, "building": "commercial", "name": "", "height": null, "height_m": null, "levels": null, "tract_id": "40027200100", "tract_name": "2001", "tags": {"addr:city": "Norman", "addr:housenumber": "104", "addr:postcode": "73069", "addr:state": "OK", "addr:street": "West Gray Street", "building": "commercial"}}}, {"type": "Feature", "geometry": {"type": "Polygon", "coordinates": [[[-97.4456222, 35.2217232], [-97.4455114, 35.2217698], [-97.4454851, 35.2217279], [-97.4451097, 35.2218856], [-97.4449276, 35.2215963], [-97.4454138, 35.221392], [-97.4455663, 35.2216344], [-97.4455699, 35.22164], [-97.4456222, 35.2217232]]]}, "properties": {"osm_id": 404732356, "building": "commercial", "name": "", "height": null, "height_m": null, "levels": null, "tract_id": "40027200100", "tract_name": "2001", "tags": {"building": "commercial"}}}, {"type": "Feature", "geometry": {"type": "Polygon", "coordinates": [[[-97.4465083, 35.2205339], [-97.446865, 35.2203849], [-97.4469369, 35.2204998], [-97.4470866, 35.2204336], [-97.4469558, 35.2202245], [-97.4468656, 35.2200873], [-97.4467154, 35.2201501], [-97.4467901, 35.2202694], [-97.4464354, 35.2204176], [-97.4464832, 35.2204938], [-97.4465083, 35.2205339]]]}, "properties": {"osm_id": 404795483, "building": "commercial", "name": "", "height": null, "height_m": 6.0, "levels": 2, "tract_id": "40027200100", "tract_name": "2001", "tags": {"addr:city": "Norman", "addr:housenumber": "226", "addr:postcode": "73069", "addr:state": "OK", "addr:street": "West Gray Street", "building": "commercial", "building:levels": "2"}}}, {"type": "Feature", "geometry": {"type": "Polygon", "coordinates": [[[-97.4462725, 35.2176255], [-97.4462816, 35.217621], [-97.4464658, 35.2175418], [-97.4465706, 35.2177032], [-97.4459004, 35.2179933], [-97.4458, 35.2178385], [-97.4458767, 35.2178066], [-97.4458848, 35.2178174], [-97.4460566, 35.2177453], [-97.4459699, 35.2176036], [-97.4461045, 35.2175472], [-97.4461553, 35.2176301], [-97.4462065, 35.217611], [-97.4462725, 35.2176255]]]}, "properties": {"osm_id": 404797233, "building": "church", "name": "First Christian Church", "height": null, "height_m": null, "levels": null, "tract_id": "40027200100", "tract_name": "2001", "tags": {"addr:city": "Norman", "addr:housenumber": "220", "addr:postcode": "73069", "addr:state": "OK", "addr:street": "South Webster Avenue", "amenity": "place_of_worship", "building": "church", "name": "First Christian Church", "religion": "christian", "website": "https://fccnorman.org/", "wikidata": "Q118779815"}}}, {"type": "Feature", "geometry": {"type": "Polygon", "coordinates": [[[-97.4467108, 35.2181463], [-97.4461703, 35.2183742], [-97.4459741, 35.2180636], [-97.4465146, 35.2178357], [-97.4467108, 35.2181463]]]}, "properties": {"osm_id": 404824092, "building": "yes", "name": "Family Life Center", "height": null, "height_m": null, "levels": null, "tract_id": "40027200100", "tract_name": "2001", "tags": {"building": "yes", "leisure": "fitness_centre", "name": "Family Life Center", "operator": "First Baptist Church of Norman"}}}, {"type": "Feature", "geometry": {"type": "Polygon", "coordinates": [[[-97.4437946, 35.2194093], [-97.4437089, 35.2192753], [-97.4436713, 35.2192193], [-97.4437383, 35.2191911], [-97.4436446, 35.2190426], [-97.4438622, 35.218951], [-97.4440767, 35.2192909], [-97.4438785, 35.2193746], [-97.4437946, 35.2194093]]]}, "properties": {"osm_id": 405676017, "building": "commercial", "name": "Copelin's Furniture Warehouse", "height": null, "height_m": null, "levels": null, "tract_id": "40027200100", "tract_name": "2001", "tags": {"building": "commercial", "name": "Copelin's Furniture Warehouse"}}}, {"type": "Feature", "geometry": {"type": "Polygon", "coordinates": [[[-97.4430107, 35.2184702], [-97.4430166, 35.2184796], [-97.4429315, 35.2185155], [-97.442972, 35.2185796], [-97.4428263, 35.2186411], [-97.4426017, 35.2182858], [-97.4427117, 35.2182394], [-97.4428836, 35.2181668], [-97.4428944, 35.2181839], [-97.442949, 35.2181609], [-97.4429835, 35.2182155], [-97.4429284, 35.2182387], [-97.4430215, 35.218386], [-97.4430782, 35.2183621], [-97.4430995, 35.218396], [-97.4430439, 35.2184194], [-97.4430623, 35.2184484], [-97.4430107, 35.2184702]]]}, "properties": {"osm_id": 405676018, "building": "commercial", "name": "", "height": null, "height_m": null, "levels": null, "tract_id": "40027200100", "tract_name": "2001", "tags": {"building": "commercial"}}}, {"type": "Feature", "geometry": {"type": "Polygon", "coordinates": [[[-97.4449631, 35.2195963], [-97.4447656, 35.2196795], [-97.4445508, 35.2193392], [-97.4447482, 35.219256], [-97.4449631, 35.2195963]]]}, "properties": {"osm_id": 405676019, "building": "commercial", "name": "", "height": null, "height_m": null, "levels": null, "tract_id": "40027200100", "tract_name": "2001", "tags": {"building": "commercial"}}}, {"type": "Feature", "geometry": {"type": "Polygon", "coordinates": [[[-97.4438631, 35.2200627], [-97.4437504, 35.2201093], [-97.4435371, 35.2197654], [-97.4436497, 35.2197188], [-97.4438631, 35.2200627]]]}, "properties": {"osm_id": 405676020, "building": "yes", "name": "", "height": null, "height_m": null, "levels": null, "tract_id": "40027200100", "tract_name": "2001", "tags": {"building": "yes"}}}, {"type": "Feature", "geometry": {"type": "Polygon", "coordinates": [[[-97.4442412, 35.2191764], [-97.4442047, 35.2191918], [-97.4441686, 35.2191346], [-97.4442051, 35.2191193], [-97.4442412, 35.2191764]]]}, "properties": {"osm_id": 405676021, "building": "yes", "name": "", "height": null, "height_m": null, "levels": null, "tract_id": "40027200100", "tract_name": "2001", "tags": {"building": "yes"}}}, {"type": "Feature", "geometry": {"type": "Polygon", "coordinates": [[[-97.4442168, 35.2192273], [-97.4441441, 35.2192579], [-97.4439329, 35.2189233], [-97.4440056, 35.2188927], [-97.4442168, 35.2192273]]]}, "properties": {"osm_id": 405676022, "building": "hut", "name": "Doyle's Electric", "height": null, "height_m": null, "levels": null, "tract_id": "40027200100", "tract_name": "2001", "tags": {"building": "hut", "name": "Doyle's Electric"}}}, {"type": "Feature", "geometry": {"type": "Polygon", "coordinates": [[[-97.4441883, 35.2196883], [-97.4440757, 35.2197354], [-97.4440356, 35.2196713], [-97.4440032, 35.2196849], [-97.4439477, 35.2195965], [-97.4440397, 35.219558], [-97.4440428, 35.2195567], [-97.4440927, 35.2195358], [-97.4441883, 35.2196883]]]}, "properties": {"osm_id": 405676024, "building": "commercial", "name": "", "height": null, "height_m": null, "levels": null, "tract_id": "40027200100", "tract_name": "2001", "tags": {"building": "commercial"}}}, {"type": "Feature", "geometry": {"type": "Polygon", "coordinates": [[[-97.4405172, 35.2225658], [-97.4404445, 35.2225966], [-97.4403054, 35.2223781], [-97.4403781, 35.2223472], [-97.4405172, 35.2225658]]]}, "properties": {"osm_id": 456769787, "building": "commercial", "name": "", "height": null, "height_m": null, "levels": null, "tract_id": "40027200100", "tract_name": "2001", "tags": {"building": "commercial"}}}, {"type": "Feature", "geometry": {"type": "Polygon", "coordinates": [[[-97.4404499, 35.2223167], [-97.4405234, 35.2222855], [-97.4407378, 35.2226223], [-97.4406642, 35.2226536], [-97.4406488, 35.2226293], [-97.4404499, 35.2223167]]]}, "properties": {"osm_id": 456769788, "building": "commercial", "name": "", "height": null, "height_m": null, "levels": null, "tract_id": "40027200100", "tract_name": "2001", "tags": {"addr:city": "Norman", "addr:housenumber": "301", "addr:state": "OK", "addr:street": "East Main Street", "building": "commercial"}}}, {"type": "Feature", "geometry": {"type": "Polygon", "coordinates": [[[-97.4397707, 35.2230315], [-97.4397011, 35.223061], [-97.4394875, 35.2227254], [-97.4395571, 35.2226959], [-97.4397707, 35.2230315]]]}, "properties": {"osm_id": 456769789, "building": "commercial", "name": "", "height": null, "height_m": null, "levels": null, "tract_id": "40027200100", "tract_name": "2001", "tags": {"building": "commercial"}}}, {"type": "Feature", "geometry": {"type": "Polygon", "coordinates": [[[-97.4395571, 35.2226959], [-97.4396326, 35.2226638], [-97.4398461, 35.2229994], [-97.4397707, 35.2230315], [-97.4395571, 35.2226959]]]}, "properties": {"osm_id": 456769790, "building": "commercial", "name": "Resonator Institute", "height": null, "height_m": null, "levels": null, "tract_id": "40027200100", "tract_name": "2001", "tags": {"addr:housenumber": "325", "addr:postcode": "73069", "addr:state": "OK", "addr:street": "East Main Street", "building": "commercial", "check_date": "2024-04-25", "email": "resonator.ok@gmail.com", "internet_access": "no", "name": "Resonator Institute", "shop": "furniture", "website": "https://www.resonator.space", "wheelchair": "yes"}}}, {"type": "Feature", "geometry": {"type": "Polygon", "coordinates": [[[-97.4397047, 35.2226332], [-97.4397814, 35.2226006], [-97.4398834, 35.2227609], [-97.4398946, 35.2227784], [-97.4398178, 35.222811], [-97.4397047, 35.2226332]]]}, "properties": {"osm_id": 456769791, "building": "commercial", "name": "", "height": null, "height_m": null, "levels": null, "tract_id": "40027200100", "tract_name": "2001", "tags": {"building": "commercial"}}}, {"type": "Feature", "geometry": {"type": "Polygon", "coordinates": [[[-97.4397814, 35.2226006], [-97.4398571, 35.2225685], [-97.4399299, 35.2225376], [-97.4400228, 35.2226835], [-97.4399515, 35.2227137], [-97.4399607, 35.2227281], [-97.4398834, 35.2227609], [-97.4397814, 35.2226006]]]}, "properties": {"osm_id": 456769792, "building": "commercial", "name": "", "height": null, "height_m": null, "levels": null, "tract_id": "40027200100", "tract_name": "2001", "tags": {"building": "commercial"}}}, {"type": "Feature", "geometry": {"type": "Polygon", "coordinates": [[[-97.4399299, 35.2225376], [-97.4400047, 35.2225058], [-97.4400966, 35.2226503], [-97.4402051, 35.2228207], [-97.4401303, 35.2228525], [-97.4400228, 35.2226835], [-97.4399299, 35.2225376]]]}, "properties": {"osm_id": 456769793, "building": "commercial", "name": "", "height": null, "height_m": null, "levels": null, "tract_id": "40027200100", "tract_name": "2001", "tags": {"building": "commercial"}}}, {"type": "Feature", "geometry": {"type": "Polygon", "coordinates": [[[-97.4400047, 35.2225058], [-97.440078, 35.2224746], [-97.44017, 35.2226191], [-97.4400966, 35.2226503], [-97.4400047, 35.2225058]]]}, "properties": {"osm_id": 456769794, "building": "commercial", "name": "", "height": null, "height_m": null, "levels": null, "tract_id": "40027200100", "tract_name": "2001", "tags": {"building": "commercial"}}}, {"type": "Feature", "geometry": {"type": "Polygon", "coordinates": [[[-97.440078, 35.2224746], [-97.4401567, 35.2224413], [-97.4402486, 35.2225857], [-97.44017, 35.2226191], [-97.440078, 35.2224746]]]}, "properties": {"osm_id": 456769795, "building": "commercial", "name": "Red Brick Bar", "height": null, "height_m": null, "levels": null, "tract_id": "40027200100", "tract_name": "2001", "tags": {"addr:city": "Norman", "addr:country": "US", "addr:housenumber": "311", "addr:state": "OK", "addr:street": "East Main Street", "amenity": "bar", "building": "commercial", "email": "redbrickbar@hotmail.com", "mapillary": "502037084542249", "name": "Red Brick Bar", "opening_hours": "Mo-Su 00:00-02:00,12:00-24:00", "phone": "+1 405 579 6227"}}}, {"type": "Feature", "geometry": {"type": "Polygon", "coordinates": [[[-97.4401567, 35.2224413], [-97.4402298, 35.2224102], [-97.4403817, 35.2226488], [-97.4403085, 35.2226799], [-97.4402486, 35.2225857], [-97.4401567, 35.2224413]]]}, "properties": {"osm_id": 456769796, "building": "commercial", "name": "", "height": null, "height_m": null, "levels": null, "tract_id": "40027200100", "tract_name": "2001", "tags": {"building": "commercial"}}}, {"type": "Feature", "geometry": {"type": "Polygon", "coordinates": [[[-97.4399364, 35.2216483], [-97.4397624, 35.2213681], [-97.4399094, 35.2213071], [-97.4400333, 35.2215066], [-97.4400835, 35.2215873], [-97.4399364, 35.2216483]]]}, "properties": {"osm_id": 456769797, "building": "commercial", "name": "", "height": null, "height_m": null, "levels": null, "tract_id": "40027200100", "tract_name": "2001", "tags": {"building": "commercial"}}}, {"type": "Feature", "geometry": {"type": "Polygon", "coordinates": [[[-97.4394723, 35.2224151], [-97.4393998, 35.2224456], [-97.4393064, 35.2222979], [-97.4393789, 35.2222674], [-97.4394723, 35.2224151]]]}, "properties": {"osm_id": 456769798, "building": "commercial", "name": "", "height": null, "height_m": null, "levels": null, "tract_id": "40027200100", "tract_name": "2001", "tags": {"building": "commercial"}}}, {"type": "Feature", "geometry": {"type": "Polygon", "coordinates": [[[-97.4394419, 35.2222392], [-97.4396044, 35.2221706], [-97.4396986, 35.2223195], [-97.4395361, 35.2223881], [-97.4394419, 35.2222392]]]}, "properties": {"osm_id": 456769799, "building": "commercial", "name": "", "height": null, "height_m": null, "levels": null, "tract_id": "40027200100", "tract_name": "2001", "tags": {"building": "commercial"}}}, {"type": "Feature", "geometry": {"type": "Polygon", "coordinates": [[[-97.4396044, 35.2221706], [-97.4395262, 35.222047], [-97.4395964, 35.2220174], [-97.4397723, 35.2222904], [-97.4396994, 35.2223208], [-97.4396986, 35.2223195], [-97.4396044, 35.2221706]]]}, "properties": {"osm_id": 456769800, "building": "commercial", "name": "", "height": null, "height_m": null, "levels": null, "tract_id": "40027200100", "tract_name": "2001", "tags": {"building": "commercial"}}}, {"type": "Feature", "geometry": {"type": "Polygon", "coordinates": [[[-97.4396548, 35.221976], [-97.4397409, 35.2219375], [-97.4399284, 35.2222254], [-97.439839, 35.2222617], [-97.4396548, 35.221976]]]}, "properties": {"osm_id": 456769801, "building": "commercial", "name": "", "height": null, "height_m": null, "levels": null, "tract_id": "40027200100", "tract_name": "2001", "tags": {"building": "commercial"}}}, {"type": "Feature", "geometry": {"type": "Polygon", "coordinates": [[[-97.4397409, 35.2219375], [-97.4398914, 35.2218708], [-97.4400755, 35.222162], [-97.4399284, 35.2222254], [-97.4397409, 35.2219375]]]}, "properties": {"osm_id": 456769802, "building": "commercial", "name": "", "height": null, "height_m": null, "levels": null, "tract_id": "40027200100", "tract_name": "2001", "tags": {"addr:city": "Norman", "addr:housenumber": "310", "addr:state": "OK", "addr:street": "East Main Street", "building": "commercial"}}}, {"type": "Feature", "geometry": {"type": "Polygon", "coordinates": [[[-97.440003, 35.2217583], [-97.4401536, 35.2216947], [-97.4403704, 35.2220375], [-97.4402198, 35.2221011], [-97.440003, 35.2217583]]]}, "properties": {"osm_id": 456769803, "building": "commercial", "name": "", "height": null, "height_m": null, "levels": null, "tract_id": "40027200100", "tract_name": "2001", "tags": {"addr:city": "Norman", "addr:housenumber": "300", "addr:postcode": "73069", "addr:state": "OK", "addr:street": "East Main Street", "building": "commercial"}}}, {"type": "Feature", "geometry": {"type": "Polygon", "coordinates": [[[-97.4402198, 35.2221011], [-97.4400755, 35.222162], [-97.4398914, 35.2218708], [-97.4398587, 35.2218192], [-97.440003, 35.2217583], [-97.4402198, 35.2221011]]]}, "properties": {"osm_id": 456769804, "building": "commercial", "name": "", "height": null, "height_m": null, "levels": null, "tract_id": "40027200100", "tract_name": "2001", "tags": {"addr:city": "Norman", "addr:housenumber": "306", "addr:state": "OK", "addr:street": "East Main Street", "building": "commercial"}}}, {"type": "Feature", "geometry": {"type": "Polygon", "coordinates": [[[-97.439049, 35.2220427], [-97.4389096, 35.2221019], [-97.4387248, 35.2218111], [-97.4388643, 35.2217519], [-97.439049, 35.2220427]]]}, "properties": {"osm_id": 456769805, "building": "yes", "name": "", "height": null, "height_m": null, "levels": null, "tract_id": "40027200100", "tract_name": "2001", "tags": {"building": "yes"}}}, {"type": "Feature", "geometry": {"type": "Polygon", "coordinates": [[[-97.4391638, 35.2217772], [-97.4392358, 35.2217467], [-97.4392367, 35.2217481], [-97.4393292, 35.2218937], [-97.4392572, 35.2219242], [-97.4391774, 35.2217987], [-97.4391638, 35.2217772]]]}, "properties": {"osm_id": 456769806, "building": "yes", "name": "", "height": null, "height_m": null, "levels": null, "tract_id": "40027200100", "tract_name": "2001", "tags": {"building": "yes"}}}, {"type": "Feature", "geometry": {"type": "Polygon", "coordinates": [[[-97.4392367, 35.2217481], [-97.4393548, 35.221698], [-97.4393939, 35.2217596], [-97.4394859, 35.2219043], [-97.4393677, 35.2219544], [-97.4393292, 35.2218937], [-97.4392367, 35.2217481]]]}, "properties": {"osm_id": 456769807, "building": "yes", "name": "", "height": null, "height_m": null, "levels": null, "tract_id": "40027200100", "tract_name": "2001", "tags": {"building": "yes"}}}, {"type": "Feature", "geometry": {"type": "Polygon", "coordinates": [[[-97.4393939, 35.2217596], [-97.4395028, 35.2217134], [-97.4395948, 35.2218581], [-97.4394859, 35.2219043], [-97.4393939, 35.2217596]]]}, "properties": {"osm_id": 456769808, "building": "yes", "name": "", "height": null, "height_m": null, "levels": null, "tract_id": "40027200100", "tract_name": "2001", "tags": {"building": "yes"}}}, {"type": "Feature", "geometry": {"type": "Polygon", "coordinates": [[[-97.439839, 35.2222617], [-97.4397723, 35.2222904], [-97.4395964, 35.2220174], [-97.4395882, 35.2220046], [-97.4396548, 35.221976], [-97.439839, 35.2222617]]]}, "properties": {"osm_id": 780509700, "building": "commercial", "name": "", "height": null, "height_m": null, "levels": null, "tract_id": "40027200100", "tract_name": "2001", "tags": {"building": "commercial"}}}, {"type": "Feature", "geometry": {"type": "Polygon", "coordinates": [[[-97.4395094, 35.220663], [-97.4393835, 35.2204681], [-97.4392714, 35.2205164], [-97.4393973, 35.2207113], [-97.4395094, 35.220663]]]}, "properties": {"osm_id": 780546428, "building": "yes", "name": "", "height": null, "height_m": null, "levels": null, "tract_id": "40027200100", "tract_name": "2001", "tags": {"building": "yes"}}}, {"type": "Feature", "geometry": {"type": "Polygon", "coordinates": [[[-97.439362, 35.2207285], [-97.4392362, 35.2205336], [-97.439124, 35.220582], [-97.4392499, 35.2207768], [-97.439362, 35.2207285]]]}, "properties": {"osm_id": 780546429, "building": "yes", "name": "", "height": null, "height_m": null, "levels": null, "tract_id": "40027200100", "tract_name": "2001", "tags": {"building": "yes"}}}, {"type": "Feature", "geometry": {"type": "Polygon", "coordinates": [[[-97.4419314, 35.2190286], [-97.4418573, 35.2190591], [-97.4418348, 35.2190227], [-97.4416388, 35.2191033], [-97.441542, 35.2189462], [-97.4417375, 35.2188658], [-97.4416453, 35.2187162], [-97.44172, 35.2186855], [-97.4419314, 35.2190286]]]}, "properties": {"osm_id": 792247955, "building": "yes", "name": "", "height": null, "height_m": null, "levels": null, "tract_id": "40027200100", "tract_name": "2001", "tags": {"building": "yes"}}}, {"type": "Feature", "geometry": {"type": "Polygon", "coordinates": [[[-97.447048, 35.220186], [-97.4471674, 35.220377], [-97.4471538, 35.2204055], [-97.4470866, 35.2204336], [-97.4469558, 35.2202245], [-97.447048, 35.220186]]]}, "properties": {"osm_id": 801697833, "building": "commercial", "name": "", "height": null, "height_m": 3.0, "levels": 1, "tract_id": "40027200100", "tract_name": "2001", "tags": {"addr:city": "Norman", "addr:housenumber": "230", "addr:postcode": "73069", "addr:state": "OK", "addr:street": "West Gray Street", "building": "commercial", "building:levels": "1"}}}, {"type": "Feature", "geometry": {"type": "Polygon", "coordinates": [[[-97.4384624, 35.2207474], [-97.4382052, 35.2208539], [-97.4381634, 35.2208873], [-97.4381774, 35.2209246], [-97.4382157, 35.2209304], [-97.4382544, 35.2209183], [-97.4383184, 35.2210181], [-97.4384402, 35.2209667], [-97.4385655, 35.2209137], [-97.4384624, 35.2207474]]]}, "properties": {"osm_id": 947013981, "building": "yes", "name": "", "height": null, "height_m": null, "levels": null, "tract_id": "40027200100", "tract_name": "2001", "tags": {"amenity": "cafe", "building": "yes", "cuisine": "coffee_shop", "source": "microsoft/BuildingFootprints"}}}, {"type": "Feature", "geometry": {"type": "Polygon", "coordinates": [[[-97.4450779, 35.2207595], [-97.444941, 35.2208165], [-97.4447422, 35.2205015], [-97.4448767, 35.2204449], [-97.4450779, 35.2207595]]]}, "properties": {"osm_id": 1199626403, "building": "commercial", "name": "", "height": null, "height_m": 3.0, "levels": 1, "tract_id": "40027200100", "tract_name": "2001", "tags": {"addr:city": "Norman", "addr:housenumber": "117-119", "addr:postcode": "73069", "addr:state": "OK", "addr:street": "West Main Street", "building": "commercial", "building:levels": "1"}}}, {"type": "Feature", "geometry": {"type": "Polygon", "coordinates": [[[-97.4451645, 35.2207227], [-97.4450779, 35.2207595], [-97.4448767, 35.2204449], [-97.4449629, 35.2204073], [-97.4451645, 35.2207227]]]}, "properties": {"osm_id": 1199626404, "building": "commercial", "name": "", "height": 0.0, "height_m": 9.0, "levels": 3, "tract_id": "40027200100", "tract_name": "2001", "tags": {"addr:city": "Norman", "addr:housenumber": "121", "addr:postcode": "73069", "addr:state": "OK", "addr:street": "West Main Street", "building": "commercial", "building:levels": "3", "height": "0"}}}, {"type": "Feature", "geometry": {"type": "Polygon", "coordinates": [[[-97.4452597, 35.220714], [-97.4451805, 35.2207478], [-97.4451645, 35.2207227], [-97.4449629, 35.2204073], [-97.445042, 35.2203735], [-97.4452433, 35.2206884], [-97.4452597, 35.220714]]]}, "properties": {"osm_id": 1199626405, "building": "commercial", "name": "", "height": null, "height_m": 3.0, "levels": 1, "tract_id": "40027200100", "tract_name": "2001", "tags": {"addr:city": "Norman", "addr:housenumber": "123", "addr:postcode": "73069", "addr:state": "OK", "addr:street": "West Main Street", "building": "commercial", "building:levels": "1"}}}, {"type": "Feature", "geometry": {"type": "Polygon", "coordinates": [[[-97.4453885, 35.220627], [-97.4452433, 35.2206884], [-97.445042, 35.2203735], [-97.4451902, 35.2203108], [-97.4453885, 35.220627]]]}, "properties": {"osm_id": 1199626406, "building": "commercial", "name": "Mango Cannabis", "height": null, "height_m": 3.0, "levels": 1, "tract_id": "40027200100", "tract_name": "2001", "tags": {"addr:city": "Norman", "addr:housenumber": "127", "addr:postcode": "73069", "addr:state": "OK", "addr:street": "West Main Street", "building": "commercial", "building:levels": "1", "name": "Mango Cannabis", "shop": "cannabis"}}}, {"type": "Feature", "geometry": {"type": "Polygon", "coordinates": [[[-97.4459361, 35.2202479], [-97.4458152, 35.2200555], [-97.4457437, 35.2200866], [-97.4458615, 35.2202784], [-97.4459361, 35.2202479]]]}, "properties": {"osm_id": 1199781863, "building": "commercial", "name": "", "height": null, "height_m": 6.0, "levels": 2, "tract_id": "40027200100", "tract_name": "2001", "tags": {"addr:city": "Norman", "addr:housenumber": "207", "addr:postcode": "73069", "addr:state": "OK", "addr:street": "West Main Street", "building": "commercial", "building:levels": "2"}}}, {"type": "Feature", "geometry": {"type": "Polygon", "coordinates": [[[-97.4460273, 35.2202362], [-97.4458933, 35.2200227], [-97.4458152, 35.2200555], [-97.4459361, 35.2202479], [-97.4459494, 35.220269], [-97.4460273, 35.2202362]]]}, "properties": {"osm_id": 1199781864, "building": "commercial", "name": "", "height": null, "height_m": 3.0, "levels": 1, "tract_id": "40027200100", "tract_name": "2001", "tags": {"addr:city": "Norman", "addr:housenumber": "209", "addr:postcode": "73069", "addr:state": "OK", "addr:street": "West Main Street", "building": "commercial", "building:levels": "1"}}}, {"type": "Feature", "geometry": {"type": "Polygon", "coordinates": [[[-97.4461056, 35.2202034], [-97.4460753, 35.2201551], [-97.4459714, 35.2199899], [-97.4458933, 35.2200227], [-97.4460273, 35.2202362], [-97.4461056, 35.2202034]]]}, "properties": {"osm_id": 1199781865, "building": "commercial", "name": "", "height": null, "height_m": 3.0, "levels": 1, "tract_id": "40027200100", "tract_name": "2001", "tags": {"addr:city": "Norman", "addr:housenumber": "211", "addr:postcode": "73069", "addr:state": "OK", "addr:street": "West Main Street", "building": "commercial", "building:levels": "1"}}}, {"type": "Feature", "geometry": {"type": "Polygon", "coordinates": [[[-97.4461488, 35.2201242], [-97.4461336, 35.2201], [-97.4460447, 35.219959], [-97.4459714, 35.2199899], [-97.4460753, 35.2201551], [-97.4461488, 35.2201242]]]}, "properties": {"osm_id": 1199781866, "building": "commercial", "name": "", "height": null, "height_m": 3.0, "levels": 1, "tract_id": "40027200100", "tract_name": "2001", "tags": {"addr:city": "Norman", "addr:housenumber": "213", "addr:postcode": "73069", "addr:state": "OK", "addr:street": "West Main Street", "building": "commercial", "building:levels": "1"}}}, {"type": "Feature", "geometry": {"type": "Polygon", "coordinates": [[[-97.4462071, 35.220069], [-97.4461179, 35.2199282], [-97.4460447, 35.219959], [-97.4461336, 35.2201], [-97.4462071, 35.220069]]]}, "properties": {"osm_id": 1199781867, "building": "commercial", "name": "Forward Foods", "height": null, "height_m": 6.0, "levels": 2, "tract_id": "40027200100", "tract_name": "2001", "tags": {"addr:city": "Norman", "addr:housenumber": "215", "addr:postcode": "73069", "addr:state": "OK", "addr:street": "West Main Street", "building": "commercial", "building:levels": "2", "check_date": "2024-11-07", "email": "forwardfoods@gmail.com", "name": "Forward Foods", "opening_hours": "Tu-Sa 11:00-18:00", "payment:cash": "yes", "payment:credit_cards": "yes", "payment:debit_cards": "yes", "phone": "+1 405 321 1007", "shop": "deli", "website": "https://forwardfoods.com/", "wheelchair": "yes"}}}, {"type": "Feature", "geometry": {"type": "Polygon", "coordinates": [[[-97.4464067, 35.2202325], [-97.4461934, 35.2198962], [-97.4461179, 35.2199282], [-97.4462071, 35.220069], [-97.4463311, 35.2202645], [-97.4464067, 35.2202325]]]}, "properties": {"osm_id": 1199781868, "building": "commercial", "name": "", "height": null, "height_m": 3.0, "levels": 1, "tract_id": "40027200100", "tract_name": "2001", "tags": {"addr:city": "Norman", "addr:housenumber": "217", "addr:postcode": "73069", "addr:state": "OK", "addr:street": "West Main Street", "building": "commercial", "building:levels": "1"}}}, {"type": "Feature", "geometry": {"type": "Polygon", "coordinates": [[[-97.4466773, 35.2199004], [-97.4465644, 35.219728], [-97.4464274, 35.2197879], [-97.4464848, 35.2198755], [-97.4465154, 35.2198621], [-97.446571, 35.2199469], [-97.4466773, 35.2199004]]]}, "properties": {"osm_id": 1199781869, "building": "commercial", "name": "", "height": null, "height_m": 9.0, "levels": 3, "tract_id": "40027200100", "tract_name": "2001", "tags": {"addr:city": "Norman", "addr:housenumber": "227", "addr:postcode": "73069", "addr:state": "OK", "addr:street": "West Main Street", "building": "commercial", "building:levels": "3"}}}, {"type": "Feature", "geometry": {"type": "Polygon", "coordinates": [[[-97.4467589, 35.2197215], [-97.4466931, 35.2197514], [-97.4466664, 35.2197122], [-97.4466983, 35.2196977], [-97.4466869, 35.2196811], [-97.4467209, 35.2196657], [-97.4467589, 35.2197215]]]}, "properties": {"osm_id": 1199781870, "building": "commercial", "name": "", "height": null, "height_m": 3.0, "levels": 1, "tract_id": "40027200100", "tract_name": "2001", "tags": {"addr:city": "Norman", "addr:housenumber": "231", "addr:postcode": "73069", "addr:state": "OK", "addr:street": "West Main Street", "building": "commercial", "building:levels": "1"}}}, {"type": "Feature", "geometry": {"type": "Polygon", "coordinates": [[[-97.4388962, 35.2213328], [-97.4386065, 35.2214533], [-97.4385448, 35.2213482], [-97.4386001, 35.2213247], [-97.4386173, 35.2213107], [-97.4386297, 35.2212944], [-97.4386297, 35.2212788], [-97.4386287, 35.2212625], [-97.4386258, 35.221257], [-97.4389249, 35.2211302], [-97.4389896, 35.2212282], [-97.4389153, 35.2212586], [-97.4389001, 35.2212687], [-97.4388934, 35.2212804], [-97.4388868, 35.2212928], [-97.4388839, 35.221306], [-97.4388849, 35.22132], [-97.4388962, 35.2213328]]]}, "properties": {"osm_id": 1206032333, "building": "yes", "name": "City of Norman Transit Center", "height": null, "height_m": null, "levels": null, "tract_id": "40027200100", "tract_name": "2001", "tags": {"amenity": "bus_station", "building": "yes", "bus": "yes", "name": "City of Norman Transit Center", "network": "Embark Norman", "operator": "Embark Norman / City of Norman", "public_transport": "station"}}}, {"type": "Feature", "geometry": {"type": "Polygon", "coordinates": [[[-97.4435553, 35.2194604], [-97.4431675, 35.2188435], [-97.4430179, 35.2189062], [-97.4434058, 35.2195231], [-97.4435553, 35.2194604]]]}, "properties": {"osm_id": 1230505029, "building": "yes", "name": "The Well", "height": null, "height_m": null, "levels": null, "tract_id": "40027200100", "tract_name": "2001", "tags": {"addr:city": "Norman", "addr:housenumber": "210", "addr:postcode": "73069", "addr:state": "OK", "addr:street": "James Garner Avenue", "amenity": "community_centre", "building": "yes", "name": "The Well", "operator": "Cleveland County", "operator:type": "public/government", "website": "https://thewellok.org"}}}, {"type": "Feature", "geometry": {"type": "Polygon", "coordinates": [[[-97.4384789, 35.2210281], [-97.438355, 35.2210796], [-97.4383184, 35.2210181], [-97.4384402, 35.2209667], [-97.4384789, 35.2210281]]]}, "properties": {"osm_id": 1307310531, "building": "yes", "name": "The Lore", "height": null, "height_m": null, "levels": null, "tract_id": "40027200100", "tract_name": "2001", "tags": {"addr:city": "Norman", "addr:housenumber": "220", "addr:postcode": "73071", "addr:state": "OK", "addr:street": "S Porter Ave", "building": "yes", "check_date": "2024-11-23", "name": "The Lore", "opening_hours": "Mo off; Tu-Th 11:00-18:00; Fr 11:00-20:00; Sa 09:00-20:00; Su 09:00-18:00", "payment:cash": "yes", "payment:credit_cards": "yes", "payment:debit_cards": "yes", "shop": "books", "wheelchair": "yes"}}}]}