{"type": "FeatureCollection", "features": [{"type": "Feature", "geometry": {"type": "Polygon", "coordinates": [[[-95.8327427, 36.0715064], [-95.8321064, 36.0715026], [-95.8321074, 36.0716416], [-95.8313033, 36.0716412], [-95.8313004, 36.0712523], [-95.8312345, 36.0712523], [-95.8312317, 36.0707152], [-95.8312947, 36.0707175], [-95.8312976, 36.0705323], [-95.8318933, 36.0705323], [-95.8318933, 36.0706064], [-95.8325348, 36.0706064], [-95.8325348, 36.070567], [-95.8327468, 36.070567], [-95.8327427, 36.0715064]]]}, "properties": {"osm_id": 195665545, "building": "industrial", "name": "", "height": null, "height_m": null, "levels": null, "tract_id": "40143007409", "tract_name": "74.09", "tags": {"building": "industrial"}}}, {"type": "Feature", "geometry": {"type": "Polygon", "coordinates": [[[-95.8383461, 36.0710345], [-95.8383479, 36.0712554], [-95.838222, 36.071256], [-95.8382224, 36.0713038], [-95.8378957, 36.0713055], [-95.8378935, 36.0710369], [-95.8383461, 36.0710345]]]}, "properties": {"osm_id": 196231381, "building": "yes", "name": "", "height": null, "height_m": null, "levels": null, "tract_id": "40143007409", "tract_name": "74.09", "tags": {"building": "yes"}}}, {"type": "Feature", "geometry": {"type": "Polygon", "coordinates": [[[-95.8327255, 36.0613597], [-95.8322938, 36.0613597], [-95.8322938, 36.0611964], [-95.8327255, 36.0611964], [-95.8327255, 36.0613597]]]}, "properties": {"osm_id": 205015027, "building": "roof", "name": "QuikTrip", "height": null, "height_m": null, "levels": null, "tract_id": "40143007409", "tract_name": "74.09", "tags": {"addr:city": "Broken Arrow", "addr:country": "US", "addr:housenumber": "3502", "addr:postcode": "74012", "addr:state": "OK", "addr:street": "West Kenosha Street North", "amenity": "fuel", "brand": "QuikTrip", "brand:wikidata": "Q7271953", "building": "roof", "fuel:e10": "yes", "name": "QuikTrip", "short_name": "QT"}}}, {"type": "Feature", "geometry": {"type": "Polygon", "coordinates": [[[-95.832736, 36.0616302], [-95.8323227, 36.0616302], [-95.8323227, 36.0615305], [-95.832736, 36.0615305], [-95.832736, 36.0616302]]]}, "properties": {"osm_id": 205015028, "building": "retail", "name": "QuikTrip", "height": null, "height_m": null, "levels": null, "tract_id": "40143007409", "tract_name": "74.09", "tags": {"addr:city": "Broken Arrow", "addr:country": "US", "addr:housenumber": "3502", "addr:postcode": "74012", "addr:state": "OK", "addr:street": "West Kenosha Street North", "building": "retail", "name": "QuikTrip"}}}, {"type": "Feature", "geometry": {"type": "Polygon", "coordinates": [[[-95.8283543, 36.0751086], [-95.8283154, 36.0751082], [-95.828235, 36.0751075], [-95.828164, 36.0751069], [-95.82807, 36.0751061], [-95.8280003, 36.0751055], [-95.8279065, 36.0751047], [-95.8278313, 36.075104], [-95.8277361, 36.0751032], [-95.8276983, 36.0751029], [-95.827702, 36.0748251], [-95.828358, 36.0748308], [-95.8283543, 36.0751086]]]}, "properties": {"osm_id": 231170476, "building": "yes", "name": "", "height": null, "height_m": null, "levels": null, "tract_id": "40143007409", "tract_name": "74.09", "tags": {"building": "yes"}}}, {"type": "Feature", "geometry": {"type": "Polygon", "coordinates": [[[-95.8492914, 36.066964], [-95.8493045, 36.0669541], [-95.8493228, 36.0669434], [-95.8493427, 36.0669347], [-95.8493637, 36.066928], [-95.8493856, 36.0669235], [-95.8494081, 36.0669213], [-95.8494307, 36.0669214], [-95.8494531, 36.0669237], [-95.849475, 36.0669283], [-95.849496, 36.0669351], [-95.8495157, 36.0669439], [-95.849534, 36.0669547], [-95.8495457, 36.0669637], [-95.8498306, 36.0667334], [-95.8498959, 36.0667862], [-95.8498803, 36.0667988], [-95.8500192, 36.0669111], [-95.8500348, 36.0668985], [-95.8502091, 36.0670394], [-95.8501948, 36.067051], [-95.8504007, 36.0672175], [-95.8504151, 36.0672059], [-95.8504873, 36.0672643], [-95.8504075, 36.0673288], [-95.8504135, 36.0673337], [-95.8503559, 36.0673803], [-95.8503498, 36.0673755], [-95.8503402, 36.0673832], [-95.8503625, 36.0674014], [-95.8503778, 36.0674154], [-95.8503908, 36.0674308], [-95.8504013, 36.0674474], [-95.8504091, 36.067465], [-95.8504141, 36.0674832], [-95.8504163, 36.0675018], [-95.8504156, 36.0675204], [-95.850412, 36.0675389], [-95.8504055, 36.0675568], [-95.8503964, 36.0675739], [-95.8503846, 36.06759], [-95.8503704, 36.0676047], [-95.8503541, 36.0676179], [-95.8503359, 36.0676294], [-95.850316, 36.0676389], [-95.8502948, 36.0676463], [-95.8502726, 36.0676515], [-95.8502498, 36.0676544], [-95.8502268, 36.067655], [-95.8502038, 36.0676532], [-95.8501812, 36.0676492], [-95.8501595, 36.0676428], [-95.850139, 36.0676344], [-95.8501199, 36.0676239], [-95.8500965, 36.0676066], [-95.8500856, 36.0676155], [-95.8501577, 36.0676738], [-95.850092, 36.0677269], [-95.8500865, 36.0677225], [-95.8499184, 36.0678584], [-95.8497313, 36.0677072], [-95.8493894, 36.0679835], [-95.8492222, 36.0678484], [-95.8490237, 36.0680087], [-95.8489242, 36.0679283], [-95.8488746, 36.0679684], [-95.8488022, 36.0679099], [-95.8487502, 36.0679519], [-95.848537, 36.0677795], [-95.8490101, 36.0673971], [-95.8488978, 36.0673064], [-95.8488303, 36.067361], [-95.8487716, 36.0673136], [-95.8489042, 36.0672064], [-95.8488612, 36.0671716], [-95.8488802, 36.0671563], [-95.8488059, 36.0670962], [-95.8487507, 36.0671408], [-95.848432, 36.0668849], [-95.8482436, 36.0670367], [-95.8479499, 36.0668003], [-95.8481082, 36.0666724], [-95.8480438, 36.0666236], [-95.8482523, 36.0664524], [-95.8483174, 36.0665006], [-95.848367, 36.0664589], [-95.8484267, 36.066506], [-95.8486342, 36.0663374], [-95.848837, 36.0665011], [-95.8490017, 36.0663697], [-95.8490791, 36.0664315], [-95.8490892, 36.0664255], [-95.8491056, 36.0664182], [-95.8491227, 36.0664169], [-95.8491388, 36.0664193], [-95.8491542, 36.0664258], [-95.8491938, 36.0664593], [-95.8492078, 36.0664488], [-95.8494591, 36.066653], [-95.8494478, 36.0666623], [-95.8494593, 36.0666759], [-95.849466, 36.0666894], [-95.849468, 36.0667028], [-95.8494638, 36.0667197], [-95.8494539, 36.066736], [-95.8492326, 36.0669164], [-95.8492914, 36.066964]]]}, "properties": {"osm_id": 231171577, "building": "school", "name": "Union 8th Grade Center", "height": null, "height_m": null, "levels": null, "tract_id": "40143007409", "tract_name": "74.09", "tags": {"addr:city": "Broken Arrow", "addr:country": "US", "addr:housenumber": "6501", "addr:postcode": "74012", "addr:state": "OK", "addr:street": "South Garnett Road East", "building": "school", "gnis:feature_id": "1803856", "name": "Union 8th Grade Center", "phone": "918-357-4325", "website": "https://8gc.unionps.org/"}}}, {"type": "Feature", "geometry": {"type": "Polygon", "coordinates": [[[-95.8293708, 36.0615999], [-95.8292561, 36.0616011], [-95.8292518, 36.0613219], [-95.8293665, 36.0613208], [-95.8293708, 36.0615999]]]}, "properties": {"osm_id": 332920691, "building": "retail", "name": "DQ Grill & Chill", "height": null, "height_m": null, "levels": null, "tract_id": "40143007409", "tract_name": "74.09", "tags": {"addr:city": "Broken Arrow", "addr:country": "US", "addr:housenumber": "3102", "addr:postcode": "74012-8967", "addr:state": "OK", "addr:street": "West Kenosha Street", "alt_name": "Dairy Queen", "amenity": "fast_food", "brand": "DQ Grill & Chill", "brand:wikidata": "Q1141226", "building": "retail", "cuisine": "ice_cream;burger", "name": "DQ Grill & Chill", "phone": "+1 918-806-8037", "takeaway": "yes", "website": "https://www.dairyqueen.com/locations/ok/broken-arrow/3120-w-kenosha-st/12639"}}}, {"type": "Feature", "geometry": {"type": "Polygon", "coordinates": [[[-95.8160868, 36.0615282], [-95.815787, 36.0615304], [-95.8157843, 36.0612881], [-95.8160841, 36.0612859], [-95.8160868, 36.0615282]]]}, "properties": {"osm_id": 479558900, "building": "yes", "name": "Advance Auto Parts", "height": null, "height_m": null, "levels": null, "tract_id": "40143007409", "tract_name": "74.09", "tags": {"brand": "Advance Auto Parts", "brand:wikidata": "Q4686051", "building": "yes", "name": "Advance Auto Parts", "shop": "car_parts", "website": "https://stores.advanceautoparts.com/ok/broken-arrow/1000-n-aspen-ave", "wheelchair": "yes"}}}, {"type": "Feature", "geometry": {"type": "Polygon", "coordinates": [[[-95.8178085, 36.0615496], [-95.817441, 36.0617577], [-95.8173644, 36.0616694], [-95.8177319, 36.0614612], [-95.8178085, 36.0615496]]]}, "properties": {"osm_id": 479874313, "building": "yes", "name": "", "height": null, "height_m": null, "levels": null, "tract_id": "40143007409", "tract_name": "74.09", "tags": {"building": "yes"}}}, {"type": "Feature", "geometry": {"type": "Polygon", "coordinates": [[[-95.8187699, 36.0627645], [-95.8181167, 36.0627625], [-95.8181111, 36.0623174], [-95.8187721, 36.0623247], [-95.8187699, 36.0627645]]]}, "properties": {"osm_id": 479874314, "building": "yes", "name": "", "height": null, "height_m": null, "levels": null, "tract_id": "40143007409", "tract_name": "74.09", "tags": {"building": "yes"}}}, {"type": "Feature", "geometry": {"type": "Polygon", "coordinates": [[[-95.831713, 36.0613821], [-95.8318176, 36.0613821], [-95.8318176, 36.0616726], [-95.831713, 36.0616726], [-95.831713, 36.0613821]]]}, "properties": {"osm_id": 479874316, "building": "yes", "name": "", "height": null, "height_m": null, "levels": null, "tract_id": "40143007409", "tract_name": "74.09", "tags": {"building": "yes"}}}, {"type": "Feature", "geometry": {"type": "Polygon", "coordinates": [[[-95.8410653, 36.0734364], [-95.8408038, 36.0734326], [-95.8408062, 36.0733261], [-95.8410677, 36.0733299], [-95.8410653, 36.0734364]]]}, "properties": {"osm_id": 479874318, "building": "yes", "name": "", "height": null, "height_m": null, "levels": null, "tract_id": "40143007409", "tract_name": "74.09", "tags": {"building": "yes"}}}, {"type": "Feature", "geometry": {"type": "Polygon", "coordinates": [[[-95.8410264, 36.0736085], [-95.8408212, 36.0736058], [-95.8408239, 36.0734714], [-95.8410291, 36.0734741], [-95.8410264, 36.0736085]]]}, "properties": {"osm_id": 479874319, "building": "yes", "name": "", "height": null, "height_m": null, "levels": null, "tract_id": "40143007409", "tract_name": "74.09", "tags": {"building": "yes"}}}, {"type": "Feature", "geometry": {"type": "Polygon", "coordinates": [[[-95.8409855, 36.0737258], [-95.8406583, 36.0737247], [-95.8406588, 36.0736218], [-95.840986, 36.0736229], [-95.8409855, 36.0737258]]]}, "properties": {"osm_id": 479874320, "building": "yes", "name": "", "height": null, "height_m": null, "levels": null, "tract_id": "40143007409", "tract_name": "74.09", "tags": {"building": "yes"}}}, {"type": "Feature", "geometry": {"type": "Polygon", "coordinates": [[[-95.8414951, 36.0736006], [-95.8414973, 36.0734933], [-95.8418325, 36.0734976], [-95.8418304, 36.0736049], [-95.8414951, 36.0736006]]]}, "properties": {"osm_id": 479874321, "building": "yes", "name": "", "height": null, "height_m": null, "levels": null, "tract_id": "40143007409", "tract_name": "74.09", "tags": {"building": "yes"}}}, {"type": "Feature", "geometry": {"type": "Polygon", "coordinates": [[[-95.8418358, 36.0736808], [-95.8418381, 36.0737973], [-95.8415109, 36.0738016], [-95.8415085, 36.0736852], [-95.8418358, 36.0736808]]]}, "properties": {"osm_id": 479874322, "building": "yes", "name": "", "height": null, "height_m": null, "levels": null, "tract_id": "40143007409", "tract_name": "74.09", "tags": {"building": "yes"}}}, {"type": "Feature", "geometry": {"type": "Polygon", "coordinates": [[[-95.8418438, 36.0742385], [-95.8414951, 36.0742374], [-95.8414962, 36.0740087], [-95.8418449, 36.0740097], [-95.8418438, 36.0742385]]]}, "properties": {"osm_id": 479874323, "building": "yes", "name": "", "height": null, "height_m": null, "levels": null, "tract_id": "40143007409", "tract_name": "74.09", "tags": {"building": "yes"}}}, {"type": "Feature", "geometry": {"type": "Polygon", "coordinates": [[[-95.8409895, 36.0751073], [-95.8406529, 36.0751084], [-95.8406522, 36.0749674], [-95.8409888, 36.0749664], [-95.8409895, 36.0751073]]]}, "properties": {"osm_id": 479874325, "building": "yes", "name": "", "height": null, "height_m": null, "levels": null, "tract_id": "40143007409", "tract_name": "74.09", "tags": {"building": "yes"}}}, {"type": "Feature", "geometry": {"type": "Polygon", "coordinates": [[[-95.841766, 36.0746418], [-95.8417669, 36.0747806], [-95.8415081, 36.0747817], [-95.8415072, 36.0746428], [-95.841766, 36.0746418]]]}, "properties": {"osm_id": 479874326, "building": "yes", "name": "", "height": null, "height_m": null, "levels": null, "tract_id": "40143007409", "tract_name": "74.09", "tags": {"building": "yes"}}}, {"type": "Feature", "geometry": {"type": "Polygon", "coordinates": [[[-95.8418371, 36.0745908], [-95.8415005, 36.0745941], [-95.8414989, 36.0744862], [-95.8418355, 36.0744829], [-95.8418371, 36.0745908]]]}, "properties": {"osm_id": 479874328, "building": "yes", "name": "", "height": null, "height_m": null, "levels": null, "tract_id": "40143007409", "tract_name": "74.09", "tags": {"building": "yes"}}}, {"type": "Feature", "geometry": {"type": "Polygon", "coordinates": [[[-95.8410593, 36.0747832], [-95.8407267, 36.0747854], [-95.8407256, 36.0746771], [-95.8410582, 36.0746749], [-95.8410593, 36.0747832]]]}, "properties": {"osm_id": 479874329, "building": "yes", "name": "", "height": null, "height_m": null, "levels": null, "tract_id": "40143007409", "tract_name": "74.09", "tags": {"building": "yes"}}}, {"type": "Feature", "geometry": {"type": "Polygon", "coordinates": [[[-95.8410767, 36.0744065], [-95.8407307, 36.0744065], [-95.8407307, 36.0742895], [-95.8410767, 36.0742895], [-95.8410767, 36.0744065]]]}, "properties": {"osm_id": 479874331, "building": "yes", "name": "", "height": null, "height_m": null, "levels": null, "tract_id": "40143007409", "tract_name": "74.09", "tags": {"building": "yes"}}}, {"type": "Feature", "geometry": {"type": "Polygon", "coordinates": [[[-95.8410499, 36.0740922], [-95.8410483, 36.0742557], [-95.8407023, 36.0742535], [-95.8407039, 36.07409], [-95.8410499, 36.0740922]]]}, "properties": {"osm_id": 479874333, "building": "yes", "name": "", "height": null, "height_m": null, "levels": null, "tract_id": "40143007409", "tract_name": "74.09", "tags": {"building": "yes"}}}, {"type": "Feature", "geometry": {"type": "Polygon", "coordinates": [[[-95.8398308, 36.0740797], [-95.8400239, 36.0740793], [-95.8400253, 36.0744597], [-95.8398322, 36.0744602], [-95.8398308, 36.0740797]]]}, "properties": {"osm_id": 479874335, "building": "yes", "name": "", "height": null, "height_m": null, "levels": null, "tract_id": "40143007409", "tract_name": "74.09", "tags": {"building": "yes"}}}, {"type": "Feature", "geometry": {"type": "Polygon", "coordinates": [[[-95.8382859, 36.0738369], [-95.8382845, 36.0741132], [-95.8379479, 36.0741121], [-95.8379493, 36.0738358], [-95.8382859, 36.0738369]]]}, "properties": {"osm_id": 479874337, "building": "yes", "name": "", "height": null, "height_m": null, "levels": null, "tract_id": "40143007409", "tract_name": "74.09", "tags": {"building": "yes"}}}, {"type": "Feature", "geometry": {"type": "Polygon", "coordinates": [[[-95.8382778, 36.0741648], [-95.8382846, 36.0745717], [-95.837783, 36.0745771], [-95.8377763, 36.0741702], [-95.8382778, 36.0741648]]]}, "properties": {"osm_id": 479874339, "building": "yes", "name": "", "height": null, "height_m": null, "levels": null, "tract_id": "40143007409", "tract_name": "74.09", "tags": {"building": "yes"}}}, {"type": "Feature", "geometry": {"type": "Polygon", "coordinates": [[[-95.8361119, 36.0746109], [-95.8361106, 36.0750237], [-95.8358062, 36.0750231], [-95.8357278, 36.0750229], [-95.8354703, 36.0750224], [-95.8353925, 36.0750222], [-95.8351048, 36.0750216], [-95.8351061, 36.0746087], [-95.8361119, 36.0746109]]]}, "properties": {"osm_id": 479874342, "building": "yes", "name": "", "height": null, "height_m": null, "levels": null, "tract_id": "40143007409", "tract_name": "74.09", "tags": {"building": "yes"}}}, {"type": "Feature", "geometry": {"type": "Polygon", "coordinates": [[[-95.8506703, 36.0751656], [-95.8506717, 36.0749655], [-95.8501136, 36.0749629], [-95.8501122, 36.075163], [-95.8506703, 36.0751656]]]}, "properties": {"osm_id": 497268204, "building": "industrial", "name": "Greg's Automotive", "height": null, "height_m": null, "levels": null, "tract_id": "40143007409", "tract_name": "74.09", "tags": {"addr:city": "Broken Arrow", "addr:country": "US", "addr:housenumber": "6101", "addr:postcode": "74012", "addr:state": "OK", "addr:street": "South Garnett Road East", "building": "industrial", "name": "Greg's Automotive", "shop": "car_repair"}}}, {"type": "Feature", "geometry": {"type": "Polygon", "coordinates": [[[-95.8169417, 36.074843], [-95.8169417, 36.074613], [-95.8164225, 36.074613], [-95.8164225, 36.074843], [-95.8169417, 36.074843]]]}, "properties": {"osm_id": 522283078, "building": "industrial", "name": "Ryan Lawn and Tree", "height": null, "height_m": null, "levels": null, "tract_id": "40143007409", "tract_name": "74.09", "tags": {"building": "industrial", "craft": "gardener", "name": "Ryan Lawn and Tree"}}}, {"type": "Feature", "geometry": {"type": "Polygon", "coordinates": [[[-95.8159102, 36.0742725], [-95.8159102, 36.0742085], [-95.8156533, 36.0742085], [-95.8156533, 36.0742725], [-95.8159102, 36.0742725]]]}, "properties": {"osm_id": 522283079, "building": "yes", "name": "Waffle House", "height": null, "height_m": null, "levels": null, "tract_id": "40143007409", "tract_name": "74.09", "tags": {"amenity": "restaurant", "brand": "Waffle House", "brand:wikidata": "Q1701206", "building": "yes", "check_date": "2024-09-24", "check_date:opening_hours": "2024-09-24", "cuisine": "american", "name": "Waffle House", "opening_hours": "24/7", "phone": "+1 918-258-4754", "website": "https://locations.wafflehouse.com/brokenarrow-ok-1242/"}}}, {"type": "Feature", "geometry": {"type": "Polygon", "coordinates": [[[-95.8161053, 36.0740964], [-95.816107, 36.073932], [-95.8156725, 36.0739291], [-95.8156708, 36.0740935], [-95.8161053, 36.0740964]]]}, "properties": {"osm_id": 522283080, "building": "yes", "name": "", "height": null, "height_m": null, "levels": null, "tract_id": "40143007409", "tract_name": "74.09", "tags": {"building": "yes", "shop": "yes"}}}, {"type": "Feature", "geometry": {"type": "Polygon", "coordinates": [[[-95.816809, 36.0741207], [-95.8167081, 36.0741217], [-95.8167091, 36.0741878], [-95.8163944, 36.0741908], [-95.8163874, 36.0737124], [-95.8168029, 36.0737084], [-95.816809, 36.0741207]]]}, "properties": {"osm_id": 522283081, "building": "industrial", "name": "Professional Turf Products", "height": null, "height_m": null, "levels": null, "tract_id": "40143007409", "tract_name": "74.09", "tags": {"building": "industrial", "name": "Professional Turf Products", "shop": "trade", "trade": "landscape"}}}, {"type": "Feature", "geometry": {"type": "Polygon", "coordinates": [[[-95.8210306, 36.0621405], [-95.8209254, 36.062141], [-95.8209239, 36.0619477], [-95.8206759, 36.0619489], [-95.8206735, 36.061619], [-95.8206532, 36.0616191], [-95.8206521, 36.061463], [-95.820842, 36.0614621], [-95.8208422, 36.0614833], [-95.8210257, 36.0614824], [-95.8210306, 36.0621405]]]}, "properties": {"osm_id": 525211960, "building": "retail", "name": "ALDI", "height": null, "height_m": null, "levels": null, "tract_id": "40143007409", "tract_name": "74.09", "tags": {"addr:city": "Broken Arrow", "addr:county": "Tulsa, OK", "addr:housenumber": "2400", "addr:postcode": "74012", "addr:state": "OK", "addr:street": "West Kenosha Street", "brand": "ALDI", "brand:wikidata": "Q41171672", "building": "retail", "check_date": "2023-07-16", "name": "ALDI", "opening_hours": "Mo-Su 09:00-20:00", "phone": "+1 855-955-2534", "shop": "supermarket", "website": "https://stores.aldi.us/ok/broken-arrow/2400-w-kenosha-street", "wheelchair": "yes"}}}, {"type": "Feature", "geometry": {"type": "Polygon", "coordinates": [[[-95.8343035, 36.0741336], [-95.8336061, 36.0741336], [-95.8336061, 36.0732968], [-95.8343035, 36.0732968], [-95.8343035, 36.0741336]]]}, "properties": {"osm_id": 600848669, "building": "yes", "name": "", "height": null, "height_m": null, "levels": null, "tract_id": "40143007409", "tract_name": "74.09", "tags": {"building": "yes"}}}, {"type": "Feature", "geometry": {"type": "Polygon", "coordinates": [[[-95.837199, 36.0742236], [-95.8367148, 36.0742247], [-95.8367121, 36.073196], [-95.8371922, 36.0731992], [-95.837199, 36.0742236]]]}, "properties": {"osm_id": 600848670, "building": "yes", "name": "", "height": null, "height_m": null, "levels": null, "tract_id": "40143007409", "tract_name": "74.09", "tags": {"building": "yes"}}}, {"type": "Feature", "geometry": {"type": "Polygon", "coordinates": [[[-95.8354059, 36.0741705], [-95.8354059, 36.0732144], [-95.8360067, 36.0732144], [-95.8360067, 36.0741705], [-95.8354059, 36.0741705]]]}, "properties": {"osm_id": 600848671, "building": "yes", "name": "", "height": null, "height_m": null, "levels": null, "tract_id": "40143007409", "tract_name": "74.09", "tags": {"building": "yes"}}}, {"type": "Feature", "geometry": {"type": "Polygon", "coordinates": [[[-95.8465659, 36.0720172], [-95.8463808, 36.0720179], [-95.8463801, 36.0719061], [-95.8464767, 36.0719057], [-95.8464766, 36.0718807], [-95.8465269, 36.0718805], [-95.8465271, 36.0719055], [-95.8465652, 36.0719053], [-95.8465659, 36.0720172]]]}, "properties": {"osm_id": 738987276, "building": "detached", "name": "", "height": null, "height_m": null, "levels": null, "tract_id": "40143007409", "tract_name": "74.09", "tags": {"building": "detached"}}}, {"type": "Feature", "geometry": {"type": "Polygon", "coordinates": [[[-95.8463547, 36.0720145], [-95.8462715, 36.0720148], [-95.8462715, 36.0720053], [-95.8461734, 36.0720057], [-95.8461728, 36.0719065], [-95.8462876, 36.071906], [-95.8462874, 36.0718698], [-95.8463283, 36.0718697], [-95.8463285, 36.0719058], [-95.846354, 36.0719057], [-95.8463547, 36.0720145]]]}, "properties": {"osm_id": 738987277, "building": "detached", "name": "", "height": null, "height_m": null, "levels": null, "tract_id": "40143007409", "tract_name": "74.09", "tags": {"building": "detached"}}}, {"type": "Feature", "geometry": {"type": "Polygon", "coordinates": [[[-95.8461354, 36.0720188], [-95.8459519, 36.0720196], [-95.8459513, 36.0719232], [-95.8460676, 36.0719227], [-95.8460677, 36.0719365], [-95.8461349, 36.0719362], [-95.8461354, 36.0720188]]]}, "properties": {"osm_id": 738987278, "building": "detached", "name": "", "height": null, "height_m": null, "levels": null, "tract_id": "40143007409", "tract_name": "74.09", "tags": {"building": "detached"}}}, {"type": "Feature", "geometry": {"type": "Polygon", "coordinates": [[[-95.8459255, 36.0720215], [-95.8458189, 36.072022], [-95.8458188, 36.0719999], [-95.845738, 36.0720002], [-95.8457375, 36.071908], [-95.8458155, 36.0719077], [-95.8458153, 36.0718764], [-95.8458891, 36.0718761], [-95.8458893, 36.0719074], [-95.8459248, 36.0719073], [-95.8459255, 36.0720215]]]}, "properties": {"osm_id": 738987279, "building": "detached", "name": "", "height": null, "height_m": null, "levels": null, "tract_id": "40143007409", "tract_name": "74.09", "tags": {"building": "detached"}}}, {"type": "Feature", "geometry": {"type": "Polygon", "coordinates": [[[-95.8457056, 36.0720156], [-95.8456037, 36.072016], [-95.8456035, 36.0719982], [-95.8455289, 36.0719985], [-95.8455283, 36.0719075], [-95.8457049, 36.0719068], [-95.8457056, 36.0720156]]]}, "properties": {"osm_id": 738987280, "building": "detached", "name": "", "height": null, "height_m": null, "levels": null, "tract_id": "40143007409", "tract_name": "74.09", "tags": {"building": "detached"}}}, {"type": "Feature", "geometry": {"type": "Polygon", "coordinates": [[[-95.8450793, 36.0720199], [-95.8450786, 36.0719047], [-95.845265, 36.0719039], [-95.8452657, 36.0720191], [-95.8450793, 36.0720199]]]}, "properties": {"osm_id": 738987281, "building": "detached", "name": "", "height": null, "height_m": null, "levels": null, "tract_id": "40143007409", "tract_name": "74.09", "tags": {"building": "detached"}}}, {"type": "Feature", "geometry": {"type": "Polygon", "coordinates": [[[-95.8450491, 36.0720199], [-95.8449573, 36.0720203], [-95.8449572, 36.0719982], [-95.8449146, 36.0719984], [-95.8449145, 36.0719852], [-95.8448656, 36.0719854], [-95.8448651, 36.0719043], [-95.8450441, 36.0719036], [-95.8450445, 36.071963], [-95.8450487, 36.071963], [-95.8450491, 36.0720199]]]}, "properties": {"osm_id": 738987282, "building": "detached", "name": "", "height": null, "height_m": null, "levels": null, "tract_id": "40143007409", "tract_name": "74.09", "tags": {"building": "detached"}}}, {"type": "Feature", "geometry": {"type": "Polygon", "coordinates": [[[-95.8448379, 36.0720221], [-95.8446589, 36.0720228], [-95.844658, 36.0718772], [-95.8448095, 36.0718766], [-95.8448097, 36.0719076], [-95.8448372, 36.0719075], [-95.8448379, 36.0720221]]]}, "properties": {"osm_id": 738987283, "building": "detached", "name": "", "height": null, "height_m": null, "levels": null, "tract_id": "40143007409", "tract_name": "74.09", "tags": {"building": "detached"}}}, {"type": "Feature", "geometry": {"type": "Polygon", "coordinates": [[[-95.8463687, 36.0716454], [-95.8461977, 36.0716461], [-95.8461969, 36.0715205], [-95.8462772, 36.0715201], [-95.8462772, 36.0715285], [-95.8463338, 36.0715283], [-95.8463339, 36.0715424], [-95.8463681, 36.0715422], [-95.8463687, 36.0716454]]]}, "properties": {"osm_id": 738987284, "building": "detached", "name": "", "height": null, "height_m": null, "levels": null, "tract_id": "40143007409", "tract_name": "74.09", "tags": {"building": "detached"}}}, {"type": "Feature", "geometry": {"type": "Polygon", "coordinates": [[[-95.8461421, 36.0716611], [-95.8459717, 36.0716618], [-95.8459709, 36.0715258], [-95.8460661, 36.0715254], [-95.8460663, 36.0715653], [-95.8461415, 36.071565], [-95.8461421, 36.0716611]]]}, "properties": {"osm_id": 738987285, "building": "detached", "name": "", "height": null, "height_m": null, "levels": null, "tract_id": "40143007409", "tract_name": "74.09", "tags": {"building": "detached"}}}, {"type": "Feature", "geometry": {"type": "Polygon", "coordinates": [[[-95.8459396, 36.0716443], [-95.8457318, 36.0716451], [-95.8457311, 36.0715299], [-95.8458504, 36.0715295], [-95.8458504, 36.0715219], [-95.8459388, 36.0715215], [-95.8459396, 36.0716443]]]}, "properties": {"osm_id": 738987286, "building": "detached", "name": "", "height": null, "height_m": null, "levels": null, "tract_id": "40143007409", "tract_name": "74.09", "tags": {"building": "detached"}}}, {"type": "Feature", "geometry": {"type": "Polygon", "coordinates": [[[-95.8457026, 36.0716476], [-95.8455346, 36.0716482], [-95.8455339, 36.0715405], [-95.8456284, 36.0715401], [-95.8456283, 36.0715224], [-95.8457018, 36.0715221], [-95.8457026, 36.0716476]]]}, "properties": {"osm_id": 738987287, "building": "detached", "name": "", "height": null, "height_m": null, "levels": null, "tract_id": "40143007409", "tract_name": "74.09", "tags": {"building": "detached"}}}, {"type": "Feature", "geometry": {"type": "Polygon", "coordinates": [[[-95.8450799, 36.0716465], [-95.8450792, 36.0715236], [-95.8451537, 36.0715233], [-95.8451537, 36.0715321], [-95.8452106, 36.0715319], [-95.8452107, 36.0715425], [-95.8452409, 36.0715424], [-95.8452416, 36.0716519], [-95.8452589, 36.0716518], [-95.8452592, 36.071701], [-95.8451916, 36.0717013], [-95.8451915, 36.0716929], [-95.845103, 36.0716932], [-95.8451027, 36.0716464], [-95.8450799, 36.0716465]]]}, "properties": {"osm_id": 738987288, "building": "detached", "name": "", "height": null, "height_m": null, "levels": null, "tract_id": "40143007409", "tract_name": "74.09", "tags": {"building": "detached"}}}, {"type": "Feature", "geometry": {"type": "Polygon", "coordinates": [[[-95.8450397, 36.0716486], [-95.8448707, 36.0716493], [-95.8448699, 36.0715253], [-95.8449498, 36.071525], [-95.8449499, 36.0715364], [-95.8449726, 36.0715363], [-95.8449727, 36.0715463], [-95.8450391, 36.0715461], [-95.8450397, 36.0716486]]]}, "properties": {"osm_id": 738987289, "building": "detached", "name": "", "height": null, "height_m": null, "levels": null, "tract_id": "40143007409", "tract_name": "74.09", "tags": {"building": "detached"}}}, {"type": "Feature", "geometry": {"type": "Polygon", "coordinates": [[[-95.8448285, 36.0716508], [-95.8446635, 36.0716515], [-95.8446627, 36.0715253], [-95.8447392, 36.071525], [-95.8447393, 36.0715365], [-95.8447621, 36.0715364], [-95.8447621, 36.0715438], [-95.8448278, 36.0715435], [-95.8448285, 36.0716508]]]}, "properties": {"osm_id": 738987290, "building": "detached", "name": "", "height": null, "height_m": null, "levels": null, "tract_id": "40143007409", "tract_name": "74.09", "tags": {"building": "detached"}}}, {"type": "Feature", "geometry": {"type": "Polygon", "coordinates": [[[-95.8452523, 36.07346], [-95.8453408, 36.0733844], [-95.8454355, 36.0734568], [-95.8454422, 36.0734511], [-95.8454812, 36.073481], [-95.845386, 36.0735623], [-95.8452523, 36.07346]]]}, "properties": {"osm_id": 738989248, "building": "detached", "name": "", "height": null, "height_m": null, "levels": null, "tract_id": "40143007409", "tract_name": "74.09", "tags": {"building": "detached"}}}, {"type": "Feature", "geometry": {"type": "Polygon", "coordinates": [[[-95.8450582, 36.0733724], [-95.8451045, 36.0732907], [-95.8451894, 36.0733221], [-95.8451861, 36.0733279], [-95.8452568, 36.0733541], [-95.8451824, 36.0734853], [-95.8451106, 36.0734587], [-95.8451419, 36.0734035], [-95.8450582, 36.0733724]]]}, "properties": {"osm_id": 738989249, "building": "detached", "name": "", "height": null, "height_m": null, "levels": null, "tract_id": "40143007409", "tract_name": "74.09", "tags": {"building": "detached"}}}, {"type": "Feature", "geometry": {"type": "Polygon", "coordinates": [[[-95.8448385, 36.0732808], [-95.8450112, 36.073309], [-95.8449933, 36.0733809], [-95.8449983, 36.0733817], [-95.8449878, 36.0734235], [-95.8449002, 36.0734092], [-95.8449057, 36.073387], [-95.844891, 36.0733846], [-95.8448943, 36.0733711], [-95.8448191, 36.0733588], [-95.8448385, 36.0732808]]]}, "properties": {"osm_id": 738989250, "building": "detached", "name": "", "height": null, "height_m": null, "levels": null, "tract_id": "40143007409", "tract_name": "74.09", "tags": {"building": "detached"}}}, {"type": "Feature", "geometry": {"type": "Polygon", "coordinates": [[[-95.8447802, 36.0734066], [-95.8446977, 36.0734066], [-95.8446977, 36.0733808], [-95.8445998, 36.0733808], [-95.8445998, 36.0732909], [-95.8447802, 36.0732909], [-95.8447802, 36.0734066]]]}, "properties": {"osm_id": 738989251, "building": "detached", "name": "", "height": null, "height_m": null, "levels": null, "tract_id": "40143007409", "tract_name": "74.09", "tags": {"building": "detached"}}}, {"type": "Feature", "geometry": {"type": "Polygon", "coordinates": [[[-95.8458246, 36.0729958], [-95.8458246, 36.0731188], [-95.845663, 36.0731188], [-95.845663, 36.0730223], [-95.8457354, 36.0730223], [-95.8457354, 36.0729958], [-95.8458246, 36.0729958]]]}, "properties": {"osm_id": 738989252, "building": "detached", "name": "", "height": null, "height_m": null, "levels": null, "tract_id": "40143007409", "tract_name": "74.09", "tags": {"building": "detached"}}}, {"type": "Feature", "geometry": {"type": "Polygon", "coordinates": [[[-95.8456285, 36.0731071], [-95.8454417, 36.0731071], [-95.8454417, 36.0730028], [-95.8456285, 36.0730028], [-95.8456285, 36.0731071]]]}, "properties": {"osm_id": 738989253, "building": "detached", "name": "", "height": null, "height_m": null, "levels": null, "tract_id": "40143007409", "tract_name": "74.09", "tags": {"building": "detached"}}}, {"type": "Feature", "geometry": {"type": "Polygon", "coordinates": [[[-95.8452607, 36.0731128], [-95.8452607, 36.0730185], [-95.8453294, 36.0730185], [-95.8453294, 36.0729922], [-95.8454149, 36.0729922], [-95.8454149, 36.0731128], [-95.8452607, 36.0731128]]]}, "properties": {"osm_id": 738989254, "building": "detached", "name": "", "height": null, "height_m": null, "levels": null, "tract_id": "40143007409", "tract_name": "74.09", "tags": {"building": "detached"}}}, {"type": "Feature", "geometry": {"type": "Polygon", "coordinates": [[[-95.845203, 36.073106], [-95.845024, 36.073106], [-95.845024, 36.0730182], [-95.8451239, 36.0730182], [-95.8451239, 36.0729901], [-95.845203, 36.0729901], [-95.845203, 36.073106]]]}, "properties": {"osm_id": 738989255, "building": "detached", "name": "", "height": null, "height_m": null, "levels": null, "tract_id": "40143007409", "tract_name": "74.09", "tags": {"building": "detached"}}}, {"type": "Feature", "geometry": {"type": "Polygon", "coordinates": [[[-95.8448134, 36.0731082], [-95.8448134, 36.0730169], [-95.8448979, 36.0730169], [-95.8448979, 36.0729911], [-95.8449961, 36.0729911], [-95.8449961, 36.0731082], [-95.8448134, 36.0731082]]]}, "properties": {"osm_id": 738989256, "building": "detached", "name": "", "height": null, "height_m": null, "levels": null, "tract_id": "40143007409", "tract_name": "74.09", "tags": {"building": "detached"}}}, {"type": "Feature", "geometry": {"type": "Polygon", "coordinates": [[[-95.8447779, 36.0731017], [-95.8445935, 36.0731017], [-95.8445935, 36.0729865], [-95.8447779, 36.0729865], [-95.8447779, 36.0731017]]]}, "properties": {"osm_id": 738989257, "building": "detached", "name": "", "height": null, "height_m": null, "levels": null, "tract_id": "40143007409", "tract_name": "74.09", "tags": {"building": "detached"}}}, {"type": "Feature", "geometry": {"type": "Polygon", "coordinates": [[[-95.8461843, 36.0728654], [-95.8462977, 36.0728605], [-95.8463071, 36.0730036], [-95.8461651, 36.0730097], [-95.8461596, 36.0729258], [-95.8461782, 36.072925], [-95.8461747, 36.0728715], [-95.8461847, 36.0728711], [-95.8461843, 36.0728654]]]}, "properties": {"osm_id": 738989258, "building": "detached", "name": "", "height": null, "height_m": null, "levels": null, "tract_id": "40143007409", "tract_name": "74.09", "tags": {"addr:city": "Broken Arrow", "addr:country": "US", "addr:housenumber": "6162", "addr:postcode": "74012", "addr:state": "OK", "addr:street": "South 117th Avenue East", "building": "detached"}}}, {"type": "Feature", "geometry": {"type": "Polygon", "coordinates": [[[-95.8463496, 36.0727787], [-95.8461859, 36.0728247], [-95.8461591, 36.0727624], [-95.8462285, 36.0727428], [-95.846196, 36.0726673], [-95.8462903, 36.0726408], [-95.8463496, 36.0727787]]]}, "properties": {"osm_id": 738989259, "building": "detached", "name": "", "height": null, "height_m": null, "levels": null, "tract_id": "40143007409", "tract_name": "74.09", "tags": {"addr:city": "Broken Arrow", "addr:country": "US", "addr:housenumber": "6166", "addr:postcode": "74012", "addr:state": "OK", "addr:street": "South 117th Avenue East", "building": "detached"}}}, {"type": "Feature", "geometry": {"type": "Polygon", "coordinates": [[[-95.845894, 36.0726462], [-95.8458949, 36.0725536], [-95.8460838, 36.0725548], [-95.8460825, 36.0726799], [-95.8460003, 36.0726793], [-95.8460006, 36.0726469], [-95.845894, 36.0726462]]]}, "properties": {"osm_id": 738989260, "building": "detached", "name": "", "height": null, "height_m": null, "levels": null, "tract_id": "40143007409", "tract_name": "74.09", "tags": {"building": "detached"}}}, {"type": "Feature", "geometry": {"type": "Polygon", "coordinates": [[[-95.8456787, 36.0725706], [-95.8457887, 36.0725713], [-95.845789, 36.0725433], [-95.8458346, 36.0725436], [-95.8458343, 36.0725716], [-95.8458559, 36.0725717], [-95.8458546, 36.0727016], [-95.845746, 36.0727009], [-95.8457465, 36.072649], [-95.845678, 36.0726485], [-95.8456787, 36.0725706]]]}, "properties": {"osm_id": 738989261, "building": "detached", "name": "", "height": null, "height_m": null, "levels": null, "tract_id": "40143007409", "tract_name": "74.09", "tags": {"building": "detached"}}}, {"type": "Feature", "geometry": {"type": "Polygon", "coordinates": [[[-95.8454682, 36.0726638], [-95.8454689, 36.07259], [-95.8456439, 36.0725912], [-95.8456426, 36.0727199], [-95.8455595, 36.0727194], [-95.8455601, 36.0726644], [-95.8454682, 36.0726638]]]}, "properties": {"osm_id": 738989262, "building": "detached", "name": "", "height": null, "height_m": null, "levels": null, "tract_id": "40143007409", "tract_name": "74.09", "tags": {"building": "detached"}}}, {"type": "Feature", "geometry": {"type": "Polygon", "coordinates": [[[-95.8452509, 36.0726817], [-95.8452519, 36.0725813], [-95.84543, 36.0725825], [-95.8454286, 36.0727201], [-95.845329, 36.0727194], [-95.8453294, 36.0726822], [-95.8452509, 36.0726817]]]}, "properties": {"osm_id": 738989263, "building": "detached", "name": "", "height": null, "height_m": null, "levels": null, "tract_id": "40143007409", "tract_name": "74.09", "tags": {"building": "detached"}}}, {"type": "Feature", "geometry": {"type": "Polygon", "coordinates": [[[-95.8450357, 36.0726058], [-95.8451135, 36.0726063], [-95.8451138, 36.0725774], [-95.8451667, 36.0725778], [-95.8451664, 36.0726066], [-95.8452178, 36.072607], [-95.8452166, 36.0727186], [-95.8451107, 36.0727179], [-95.8451108, 36.0727092], [-95.8450347, 36.0727087], [-95.8450357, 36.0726058]]]}, "properties": {"osm_id": 738989264, "building": "detached", "name": "", "height": null, "height_m": null, "levels": null, "tract_id": "40143007409", "tract_name": "74.09", "tags": {"building": "detached"}}}, {"type": "Feature", "geometry": {"type": "Polygon", "coordinates": [[[-95.8448225, 36.0725998], [-95.8450005, 36.072601], [-95.8449996, 36.0726909], [-95.8450077, 36.0726909], [-95.8450074, 36.0727217], [-95.8449181, 36.0727211], [-95.8449183, 36.0726985], [-95.8448215, 36.0726979], [-95.8448225, 36.0725998]]]}, "properties": {"osm_id": 738989265, "building": "detached", "name": "", "height": null, "height_m": null, "levels": null, "tract_id": "40143007409", "tract_name": "74.09", "tags": {"building": "detached"}}}, {"type": "Feature", "geometry": {"type": "Polygon", "coordinates": [[[-95.8447856, 36.0727191], [-95.8447064, 36.0727186], [-95.8447069, 36.0726673], [-95.8446063, 36.0726666], [-95.8446072, 36.0725835], [-95.8447869, 36.0725847], [-95.8447856, 36.0727191]]]}, "properties": {"osm_id": 738989266, "building": "detached", "name": "", "height": null, "height_m": null, "levels": null, "tract_id": "40143007409", "tract_name": "74.09", "tags": {"building": "detached"}}}, {"type": "Feature", "geometry": {"type": "Polygon", "coordinates": [[[-95.8474235, 36.0716232], [-95.8473451, 36.0716942], [-95.8472168, 36.0716015], [-95.8473197, 36.0715084], [-95.847397, 36.0715642], [-95.8473725, 36.0715863], [-95.8474235, 36.0716232]]]}, "properties": {"osm_id": 738989267, "building": "detached", "name": "", "height": null, "height_m": null, "levels": null, "tract_id": "40143007409", "tract_name": "74.09", "tags": {"building": "detached"}}}, {"type": "Feature", "geometry": {"type": "Polygon", "coordinates": [[[-95.847284, 36.0714898], [-95.8470963, 36.0715381], [-95.8470404, 36.0713958], [-95.8471964, 36.0713557], [-95.8472262, 36.0714314], [-95.8472579, 36.0714233], [-95.847284, 36.0714898]]]}, "properties": {"osm_id": 738989268, "building": "detached", "name": "", "height": null, "height_m": null, "levels": null, "tract_id": "40143007409", "tract_name": "74.09", "tags": {"building": "detached"}}}, {"type": "Feature", "geometry": {"type": "Polygon", "coordinates": [[[-95.846808, 36.0715283], [-95.8466893, 36.0715028], [-95.8467086, 36.0714441], [-95.8466505, 36.0714317], [-95.846678, 36.0713481], [-95.8468529, 36.0713856], [-95.8468507, 36.0713925], [-95.8468908, 36.0714011], [-95.8468742, 36.0714516], [-95.8468358, 36.0714434], [-95.846808, 36.0715283]]]}, "properties": {"osm_id": 738989269, "building": "detached", "name": "", "height": null, "height_m": null, "levels": null, "tract_id": "40143007409", "tract_name": "74.09", "tags": {"building": "detached"}}}, {"type": "Feature", "geometry": {"type": "Polygon", "coordinates": [[[-95.8467329, 36.0716774], [-95.8466806, 36.0717081], [-95.8466225, 36.0716434], [-95.8465527, 36.0716844], [-95.8464971, 36.0716225], [-95.8465392, 36.0715978], [-95.8465087, 36.0715639], [-95.8465887, 36.0715169], [-95.8467329, 36.0716774]]]}, "properties": {"osm_id": 738989270, "building": "detached", "name": "", "height": null, "height_m": null, "levels": null, "tract_id": "40143007409", "tract_name": "74.09", "tags": {"building": "detached"}}}, {"type": "Feature", "geometry": {"type": "Polygon", "coordinates": [[[-95.8472706, 36.0720649], [-95.8472218, 36.0720658], [-95.8472205, 36.0720164], [-95.8472693, 36.0720156], [-95.8472706, 36.0720649]]]}, "properties": {"osm_id": 738989271, "building": "shed", "name": "", "height": null, "height_m": null, "levels": null, "tract_id": "40143007409", "tract_name": "74.09", "tags": {"building": "shed"}}}, {"type": "Feature", "geometry": {"type": "Polygon", "coordinates": [[[-95.8473424, 36.0721684], [-95.8473706, 36.0720272], [-95.8474855, 36.0720422], [-95.8474704, 36.0721176], [-95.8475426, 36.072127], [-95.8475295, 36.0721928], [-95.8473424, 36.0721684]]]}, "properties": {"osm_id": 738989272, "building": "detached", "name": "", "height": null, "height_m": null, "levels": null, "tract_id": "40143007409", "tract_name": "74.09", "tags": {"building": "detached"}}}, {"type": "Feature", "geometry": {"type": "Polygon", "coordinates": [[[-95.8472385, 36.072173], [-95.8470456, 36.0721785], [-95.8470427, 36.0721119], [-95.8470896, 36.0721106], [-95.8470866, 36.0720424], [-95.847193, 36.0720393], [-95.8471965, 36.072121], [-95.8472362, 36.0721199], [-95.8472385, 36.072173]]]}, "properties": {"osm_id": 738989273, "building": "detached", "name": "", "height": null, "height_m": null, "levels": null, "tract_id": "40143007409", "tract_name": "74.09", "tags": {"addr:city": "Broken Arrow", "addr:country": "US", "addr:housenumber": "6340", "addr:postcode": "74012", "addr:state": "OK", "addr:street": "South 116th Avenue East", "building": "detached"}}}, {"type": "Feature", "geometry": {"type": "Polygon", "coordinates": [[[-95.8470748, 36.0719798], [-95.8469213, 36.0719841], [-95.8469209, 36.0719749], [-95.8468354, 36.0719773], [-95.8468323, 36.071906], [-95.8470714, 36.0718992], [-95.8470748, 36.0719798]]]}, "properties": {"osm_id": 738989274, "building": "detached", "name": "", "height": null, "height_m": null, "levels": null, "tract_id": "40143007409", "tract_name": "74.09", "tags": {"building": "detached"}}}, {"type": "Feature", "geometry": {"type": "Polygon", "coordinates": [[[-95.8468009, 36.072008], [-95.8466229, 36.0720164], [-95.8466161, 36.0719229], [-95.8467942, 36.0719145], [-95.8468009, 36.072008]]]}, "properties": {"osm_id": 738989275, "building": "detached", "name": "", "height": null, "height_m": null, "levels": null, "tract_id": "40143007409", "tract_name": "74.09", "tags": {"building": "detached"}}}, {"type": "Feature", "geometry": {"type": "Polygon", "coordinates": [[[-95.8471406, 36.0727169], [-95.8470038, 36.0727169], [-95.8470038, 36.0726367], [-95.8470279, 36.0726367], [-95.8470279, 36.0725727], [-95.8471406, 36.0725727], [-95.8471406, 36.0727169]]]}, "properties": {"osm_id": 738989276, "building": "detached", "name": "", "height": null, "height_m": null, "levels": null, "tract_id": "40143007409", "tract_name": "74.09", "tags": {"addr:city": "Broken Arrow", "addr:country": "US", "addr:housenumber": "6326", "addr:postcode": "74012", "addr:state": "OK", "addr:street": "South 116th Avenue East", "building": "detached"}}}, {"type": "Feature", "geometry": {"type": "Polygon", "coordinates": [[[-95.8470487, 36.0724126], [-95.847166, 36.0724126], [-95.847166, 36.0725408], [-95.8470068, 36.0725408], [-95.8470068, 36.0724752], [-95.8470487, 36.0724752], [-95.8470487, 36.0724126]]]}, "properties": {"osm_id": 738989277, "building": "detached", "name": "", "height": null, "height_m": null, "levels": null, "tract_id": "40143007409", "tract_name": "74.09", "tags": {"addr:city": "Broken Arrow", "addr:country": "US", "addr:housenumber": "6332", "addr:postcode": "74012", "addr:state": "OK", "addr:street": "South 116th Avenue East", "building": "detached"}}}, {"type": "Feature", "geometry": {"type": "Polygon", "coordinates": [[[-95.8471463, 36.0723722], [-95.8470017, 36.0723722], [-95.8470017, 36.0722898], [-95.8470272, 36.0722898], [-95.8470272, 36.0722275], [-95.8471409, 36.0722275], [-95.8471409, 36.0722565], [-95.8471463, 36.0722565], [-95.8471463, 36.0723722]]]}, "properties": {"osm_id": 738989278, "building": "detached", "name": "", "height": null, "height_m": null, "levels": null, "tract_id": "40143007409", "tract_name": "74.09", "tags": {"addr:city": "Broken Arrow", "addr:country": "US", "addr:housenumber": "6336", "addr:postcode": "74012", "addr:state": "OK", "addr:street": "South 116th Avenue East", "building": "detached"}}}, {"type": "Feature", "geometry": {"type": "Polygon", "coordinates": [[[-95.846535, 36.072389], [-95.846535, 36.0723009], [-95.8466085, 36.0723009], [-95.8466085, 36.0722717], [-95.846642, 36.0722717], [-95.846642, 36.0722839], [-95.8467094, 36.0722839], [-95.8467094, 36.072389], [-95.846535, 36.072389]]]}, "properties": {"osm_id": 738989279, "building": "detached", "name": "", "height": null, "height_m": null, "levels": null, "tract_id": "40143007409", "tract_name": "74.09", "tags": {"building": "detached"}}}, {"type": "Feature", "geometry": {"type": "Polygon", "coordinates": [[[-95.8464935, 36.0724231], [-95.8464143, 36.0724231], [-95.8464143, 36.0724494], [-95.846356, 36.0724494], [-95.846356, 36.0724231], [-95.8463171, 36.0724231], [-95.8463171, 36.0723223], [-95.8463798, 36.0723223], [-95.8463798, 36.0722866], [-95.8464935, 36.0722866], [-95.8464935, 36.0724231]]]}, "properties": {"osm_id": 738989280, "building": "detached", "name": "", "height": null, "height_m": null, "levels": null, "tract_id": "40143007409", "tract_name": "74.09", "tags": {"building": "detached"}}}, {"type": "Feature", "geometry": {"type": "Polygon", "coordinates": [[[-95.8460925, 36.0723958], [-95.8460925, 36.0722939], [-95.846178, 36.0722939], [-95.846178, 36.0722836], [-95.8462853, 36.0722836], [-95.8462853, 36.0723958], [-95.8460925, 36.0723958]]]}, "properties": {"osm_id": 738989281, "building": "detached", "name": "", "height": null, "height_m": null, "levels": null, "tract_id": "40143007409", "tract_name": "74.09", "tags": {"building": "detached"}}}, {"type": "Feature", "geometry": {"type": "Polygon", "coordinates": [[[-95.8458903, 36.0723427], [-95.8459828, 36.0723427], [-95.8459828, 36.0722833], [-95.8460724, 36.0722833], [-95.8460724, 36.0724218], [-95.8460576, 36.0724218], [-95.8460576, 36.0724519], [-95.8459942, 36.0724519], [-95.8459942, 36.0724218], [-95.8458903, 36.0724218], [-95.8458903, 36.0723427]]]}, "properties": {"osm_id": 738989282, "building": "detached", "name": "", "height": null, "height_m": null, "levels": null, "tract_id": "40143007409", "tract_name": "74.09", "tags": {"building": "detached"}}}, {"type": "Feature", "geometry": {"type": "Polygon", "coordinates": [[[-95.8456787, 36.0723922], [-95.8456787, 36.0722982], [-95.8457492, 36.0722982], [-95.8457492, 36.0722738], [-95.845784, 36.0722738], [-95.845784, 36.0722876], [-95.8458538, 36.0722876], [-95.8458538, 36.0723922], [-95.8456787, 36.0723922]]]}, "properties": {"osm_id": 738989283, "building": "detached", "name": "", "height": null, "height_m": null, "levels": null, "tract_id": "40143007409", "tract_name": "74.09", "tags": {"building": "detached"}}}, {"type": "Feature", "geometry": {"type": "Polygon", "coordinates": [[[-95.8454669, 36.0724202], [-95.8454669, 36.0723218], [-95.8455426, 36.0723218], [-95.8455426, 36.0722855], [-95.8456425, 36.0722855], [-95.8456425, 36.0724202], [-95.845612, 36.0724202], [-95.845612, 36.0724505], [-95.8455306, 36.0724505], [-95.8455306, 36.0724202], [-95.8454669, 36.0724202]]]}, "properties": {"osm_id": 738989284, "building": "detached", "name": "", "height": null, "height_m": null, "levels": null, "tract_id": "40143007409", "tract_name": "74.09", "tags": {"building": "detached"}}}, {"type": "Feature", "geometry": {"type": "Polygon", "coordinates": [[[-95.8452506, 36.0723917], [-95.8452506, 36.0723017], [-95.845325, 36.0723017], [-95.845325, 36.0722847], [-95.845429, 36.0722847], [-95.845429, 36.0723917], [-95.8452506, 36.0723917]]]}, "properties": {"osm_id": 738989285, "building": "detached", "name": "", "height": null, "height_m": null, "levels": null, "tract_id": "40143007409", "tract_name": "74.09", "tags": {"building": "detached"}}}, {"type": "Feature", "geometry": {"type": "Polygon", "coordinates": [[[-95.845033, 36.0724237], [-95.845033, 36.0723294], [-95.8451101, 36.0723294], [-95.8451101, 36.0722887], [-95.8452144, 36.0722887], [-95.8452144, 36.0724546], [-95.8451537, 36.0724546], [-95.8451537, 36.0724237], [-95.845033, 36.0724237]]]}, "properties": {"osm_id": 738989286, "building": "detached", "name": "", "height": null, "height_m": null, "levels": null, "tract_id": "40143007409", "tract_name": "74.09", "tags": {"building": "detached"}}}, {"type": "Feature", "geometry": {"type": "Polygon", "coordinates": [[[-95.8448204, 36.0723974], [-95.8448204, 36.0722996], [-95.8450015, 36.0722996], [-95.8450015, 36.0723974], [-95.8448204, 36.0723974]]]}, "properties": {"osm_id": 738989287, "building": "detached", "name": "", "height": null, "height_m": null, "levels": null, "tract_id": "40143007409", "tract_name": "74.09", "tags": {"building": "detached"}}}, {"type": "Feature", "geometry": {"type": "Polygon", "coordinates": [[[-95.8447872, 36.0724074], [-95.8446122, 36.0724074], [-95.8446122, 36.072292], [-95.8447872, 36.072292], [-95.8447872, 36.0724074]]]}, "properties": {"osm_id": 738989288, "building": "detached", "name": "", "height": null, "height_m": null, "levels": null, "tract_id": "40143007409", "tract_name": "74.09", "tags": {"building": "detached"}}}, {"type": "Feature", "geometry": {"type": "Polygon", "coordinates": [[[-95.8466765, 36.072576], [-95.8466765, 36.0726578], [-95.8464975, 36.0726578], [-95.8464975, 36.0725164], [-95.846635, 36.0725164], [-95.846635, 36.072576], [-95.8466765, 36.072576]]]}, "properties": {"osm_id": 738989684, "building": "detached", "name": "", "height": null, "height_m": null, "levels": null, "tract_id": "40143007409", "tract_name": "74.09", "tags": {"addr:city": "Broken Arrow", "addr:country": "US", "addr:housenumber": "6329", "addr:postcode": "74012", "addr:state": "OK", "addr:street": "South 116th Avenue East", "building": "detached"}}}, {"type": "Feature", "geometry": {"type": "Polygon", "coordinates": [[[-95.8466839, 36.0728313], [-95.8465131, 36.0728368], [-95.8465057, 36.072688], [-95.8465921, 36.0726852], [-95.8465962, 36.0727685], [-95.8466806, 36.0727657], [-95.8466839, 36.0728313]]]}, "properties": {"osm_id": 738989685, "building": "detached", "name": "", "height": null, "height_m": null, "levels": null, "tract_id": "40143007409", "tract_name": "74.09", "tags": {"addr:city": "Broken Arrow", "addr:country": "US", "addr:housenumber": "6325", "addr:postcode": "74012", "addr:state": "OK", "addr:street": "South 116th Avenue East", "building": "detached"}}}, {"type": "Feature", "geometry": {"type": "Polygon", "coordinates": [[[-95.8466973, 36.0729971], [-95.846523, 36.0730052], [-95.8465126, 36.0728593], [-95.8466377, 36.0728534], [-95.8466421, 36.0729144], [-95.8466912, 36.0729121], [-95.8466973, 36.0729971]]]}, "properties": {"osm_id": 738989686, "building": "detached", "name": "", "height": null, "height_m": null, "levels": null, "tract_id": "40143007409", "tract_name": "74.09", "tags": {"addr:city": "Broken Arrow", "addr:country": "US", "addr:housenumber": "6321", "addr:postcode": "74012", "addr:state": "OK", "addr:street": "South 116th Avenue East", "building": "detached"}}}, {"type": "Feature", "geometry": {"type": "Polygon", "coordinates": [[[-95.8467624, 36.0731597], [-95.8466343, 36.0731933], [-95.8466248, 36.0731697], [-95.8466004, 36.0731761], [-95.8465559, 36.0730654], [-95.8466887, 36.0730306], [-95.8467119, 36.0730883], [-95.8467316, 36.0730831], [-95.8467624, 36.0731597]]]}, "properties": {"osm_id": 738989687, "building": "detached", "name": "", "height": null, "height_m": null, "levels": null, "tract_id": "40143007409", "tract_name": "74.09", "tags": {"addr:city": "Broken Arrow", "addr:country": "US", "addr:housenumber": "6315", "addr:postcode": "74012", "addr:state": "OK", "addr:street": "South 116th Avenue East", "building": "detached"}}}, {"type": "Feature", "geometry": {"type": "Polygon", "coordinates": [[[-95.8468482, 36.0733136], [-95.8466826, 36.0733879], [-95.8465975, 36.0732639], [-95.8467081, 36.0732143], [-95.8467552, 36.073283], [-95.8468103, 36.0732583], [-95.8468482, 36.0733136]]]}, "properties": {"osm_id": 738989688, "building": "detached", "name": "", "height": null, "height_m": null, "levels": null, "tract_id": "40143007409", "tract_name": "74.09", "tags": {"addr:city": "Broken Arrow", "addr:country": "US", "addr:housenumber": "6311", "addr:postcode": "74012", "addr:state": "OK", "addr:street": "South 116th Avenue East", "building": "detached"}}}, {"type": "Feature", "geometry": {"type": "Polygon", "coordinates": [[[-95.8473571, 36.0732394], [-95.8473943, 36.0732913], [-95.847422, 36.0732784], [-95.8474566, 36.0733268], [-95.847429, 36.0733397], [-95.8474466, 36.0733644], [-95.8473155, 36.0734257], [-95.8472756, 36.07337], [-95.8473129, 36.0733526], [-95.8472633, 36.0732833], [-95.8473571, 36.0732394]]]}, "properties": {"osm_id": 738989689, "building": "detached", "name": "", "height": null, "height_m": null, "levels": null, "tract_id": "40143007409", "tract_name": "74.09", "tags": {"addr:city": "Broken Arrow", "addr:country": "US", "addr:housenumber": "6306", "addr:postcode": "74012", "addr:state": "OK", "addr:street": "South 116th Avenue East", "building": "detached"}}}, {"type": "Feature", "geometry": {"type": "Polygon", "coordinates": [[[-95.8472304, 36.0730995], [-95.8473191, 36.0732254], [-95.8472084, 36.0732763], [-95.8471198, 36.0731505], [-95.8472304, 36.0730995]]]}, "properties": {"osm_id": 738989690, "building": "detached", "name": "", "height": null, "height_m": null, "levels": null, "tract_id": "40143007409", "tract_name": "74.09", "tags": {"addr:city": "Broken Arrow", "addr:country": "US", "addr:housenumber": "6310", "addr:postcode": "74012", "addr:state": "OK", "addr:street": "South 116th Avenue East", "building": "detached"}}}, {"type": "Feature", "geometry": {"type": "Polygon", "coordinates": [[[-95.8471704, 36.0729177], [-95.8472256, 36.0730585], [-95.8470935, 36.0730923], [-95.8470383, 36.0729516], [-95.8471704, 36.0729177]]]}, "properties": {"osm_id": 738989691, "building": "detached", "name": "", "height": null, "height_m": null, "levels": null, "tract_id": "40143007409", "tract_name": "74.09", "tags": {"addr:city": "Broken Arrow", "addr:country": "US", "addr:housenumber": "6314", "addr:postcode": "74012", "addr:state": "OK", "addr:street": "South 116th Avenue East", "building": "detached"}}}, {"type": "Feature", "geometry": {"type": "Polygon", "coordinates": [[[-95.8471439, 36.072751], [-95.8471564, 36.0728259], [-95.8471846, 36.0728229], [-95.8471914, 36.0728635], [-95.8471632, 36.0728666], [-95.847168, 36.0728952], [-95.8470192, 36.0729115], [-95.8470082, 36.0728456], [-95.8470448, 36.0728416], [-95.8470382, 36.0728022], [-95.847055, 36.0728003], [-95.8470485, 36.0727615], [-95.8471439, 36.072751]]]}, "properties": {"osm_id": 738989692, "building": "detached", "name": "", "height": null, "height_m": null, "levels": null, "tract_id": "40143007409", "tract_name": "74.09", "tags": {"addr:city": "Broken Arrow", "addr:country": "US", "addr:housenumber": "6322", "addr:postcode": "74012", "addr:state": "OK", "addr:street": "South 116th Avenue East", "building": "detached"}}}, {"type": "Feature", "geometry": {"type": "Polygon", "coordinates": [[[-95.8474094, 36.0727646], [-95.8475215, 36.0727505], [-95.8475358, 36.072825], [-95.8476101, 36.0728156], [-95.8476221, 36.0728785], [-95.8474358, 36.0729019], [-95.8474094, 36.0727646]]]}, "properties": {"osm_id": 738989693, "building": "detached", "name": "", "height": null, "height_m": null, "levels": null, "tract_id": "40143007409", "tract_name": "74.09", "tags": {"building": "detached"}}}, {"type": "Feature", "geometry": {"type": "Polygon", "coordinates": [[[-95.8476006, 36.0727169], [-95.8474478, 36.0727162], [-95.8474479, 36.0726941], [-95.8474133, 36.072694], [-95.8474135, 36.0726593], [-95.8474482, 36.0726595], [-95.8474487, 36.0725876], [-95.847564, 36.0725881], [-95.8475637, 36.0726378], [-95.8476011, 36.072638], [-95.8476006, 36.0727169]]]}, "properties": {"osm_id": 738989694, "building": "detached", "name": "", "height": null, "height_m": null, "levels": null, "tract_id": "40143007409", "tract_name": "74.09", "tags": {"building": "detached"}}}, {"type": "Feature", "geometry": {"type": "Polygon", "coordinates": [[[-95.8475932, 36.0725673], [-95.8475032, 36.0725669], [-95.8475034, 36.0725445], [-95.8474024, 36.0725441], [-95.8474032, 36.0724339], [-95.8474548, 36.0724341], [-95.847455, 36.0724011], [-95.8475539, 36.0724016], [-95.8475536, 36.072447], [-95.8475699, 36.0724471], [-95.8475697, 36.0724745], [-95.8475938, 36.0724746], [-95.8475932, 36.0725673]]]}, "properties": {"osm_id": 738989695, "building": "detached", "name": "", "height": null, "height_m": null, "levels": null, "tract_id": "40143007409", "tract_name": "74.09", "tags": {"building": "detached"}}}, {"type": "Feature", "geometry": {"type": "Polygon", "coordinates": [[[-95.8474557, 36.0722231], [-95.847567, 36.0722231], [-95.847567, 36.0722833], [-95.8475892, 36.0722833], [-95.8475892, 36.0723668], [-95.8474557, 36.0723668], [-95.8474557, 36.0723158], [-95.8474296, 36.0723158], [-95.8474296, 36.0722817], [-95.8474557, 36.0722817], [-95.8474557, 36.0722231]]]}, "properties": {"osm_id": 738989696, "building": "detached", "name": "", "height": null, "height_m": null, "levels": null, "tract_id": "40143007409", "tract_name": "74.09", "tags": {"building": "detached"}}}, {"type": "Feature", "geometry": {"type": "Polygon", "coordinates": [[[-95.8469763, 36.0734941], [-95.8470125, 36.0735448], [-95.8469868, 36.0735568], [-95.8470385, 36.0736294], [-95.8469556, 36.073668], [-95.8468677, 36.0735447], [-95.8469763, 36.0734941]]]}, "properties": {"osm_id": 738989697, "building": "detached", "name": "", "height": null, "height_m": null, "levels": null, "tract_id": "40143007409", "tract_name": "74.09", "tags": {"addr:city": "Broken Arrow", "addr:country": "US", "addr:housenumber": "6303", "addr:postcode": "74012", "addr:state": "OK", "addr:street": "South 116th Avenue East", "building": "detached"}}}, {"type": "Feature", "geometry": {"type": "Polygon", "coordinates": [[[-95.8467181, 36.0734068], [-95.8468274, 36.0733559], [-95.846865, 36.0734085], [-95.8469007, 36.0733919], [-95.8469501, 36.073461], [-95.846805, 36.0735286], [-95.8467951, 36.0735147], [-95.8467603, 36.0735309], [-95.846726, 36.0734828], [-95.8467607, 36.0734666], [-95.8467181, 36.0734068]]]}, "properties": {"osm_id": 738989698, "building": "detached", "name": "", "height": null, "height_m": null, "levels": null, "tract_id": "40143007409", "tract_name": "74.09", "tags": {"addr:city": "Broken Arrow", "addr:country": "US", "addr:housenumber": "6307", "addr:postcode": "74012", "addr:state": "OK", "addr:street": "South 116th Avenue East", "building": "detached"}}}, {"type": "Feature", "geometry": {"type": "Polygon", "coordinates": [[[-95.8463104, 36.0734128], [-95.846405, 36.0733673], [-95.8464944, 36.0734886], [-95.8463998, 36.0735341], [-95.8463104, 36.0734128]]]}, "properties": {"osm_id": 738989699, "building": "detached", "name": "", "height": null, "height_m": null, "levels": null, "tract_id": "40143007409", "tract_name": "74.09", "tags": {"addr:city": "Broken Arrow", "addr:country": "US", "addr:housenumber": "6142", "addr:postcode": "74012", "addr:state": "OK", "addr:street": "South 117th Avenue East", "building": "detached"}}}, {"type": "Feature", "geometry": {"type": "Polygon", "coordinates": [[[-95.8462588, 36.0733738], [-95.8462271, 36.0732948], [-95.8462654, 36.0732848], [-95.8462418, 36.0732259], [-95.8463658, 36.0731935], [-95.8463924, 36.0732599], [-95.8464246, 36.0732515], [-95.8464532, 36.0733228], [-95.8462588, 36.0733738]]]}, "properties": {"osm_id": 738989700, "building": "detached", "name": "", "height": null, "height_m": null, "levels": null, "tract_id": "40143007409", "tract_name": "74.09", "tags": {"addr:city": "Broken Arrow", "addr:country": "US", "addr:housenumber": "6150", "addr:postcode": "74012", "addr:state": "OK", "addr:street": "South 117th Avenue East", "building": "detached"}}}, {"type": "Feature", "geometry": {"type": "Polygon", "coordinates": [[[-95.8462953, 36.0730472], [-95.8463121, 36.0730916], [-95.8463319, 36.0730867], [-95.8463645, 36.0731727], [-95.8461816, 36.0732178], [-95.8461526, 36.0731411], [-95.8462011, 36.0731291], [-95.8461808, 36.0730755], [-95.8462953, 36.0730472]]]}, "properties": {"osm_id": 738989701, "building": "detached", "name": "", "height": null, "height_m": null, "levels": null, "tract_id": "40143007409", "tract_name": "74.09", "tags": {"addr:city": "Broken Arrow", "addr:country": "US", "addr:housenumber": "6156", "addr:postcode": "74012", "addr:state": "OK", "addr:street": "South 117th Avenue East", "building": "detached"}}}, {"type": "Feature", "geometry": {"type": "Polygon", "coordinates": [[[-95.845719, 36.0734494], [-95.8458155, 36.0734079], [-95.8458596, 36.073475], [-95.8459251, 36.0734469], [-95.8459624, 36.0735037], [-95.8458004, 36.0735733], [-95.845719, 36.0734494]]]}, "properties": {"osm_id": 738989702, "building": "detached", "name": "", "height": null, "height_m": null, "levels": null, "tract_id": "40143007409", "tract_name": "74.09", "tags": {"addr:city": "Broken Arrow", "addr:country": "US", "addr:housenumber": "6149", "addr:postcode": "74012", "addr:state": "OK", "addr:street": "South 117th Avenue East", "building": "detached"}}}, {"type": "Feature", "geometry": {"type": "Polygon", "coordinates": [[[-95.8458762, 36.0733361], [-95.8456979, 36.0733838], [-95.8456495, 36.0732656], [-95.8457568, 36.0732369], [-95.8457796, 36.0732927], [-95.8458507, 36.0732737], [-95.8458762, 36.0733361]]]}, "properties": {"osm_id": 738989703, "building": "detached", "name": "", "height": null, "height_m": null, "levels": null, "tract_id": "40143007409", "tract_name": "74.09", "tags": {"addr:city": "Broken Arrow", "addr:country": "US", "addr:housenumber": "6153", "addr:postcode": "74012", "addr:state": "OK", "addr:street": "South 117th Avenue East", "building": "detached"}}}, {"type": "Feature", "geometry": {"type": "Polygon", "coordinates": [[[-95.8494648, 36.0637936], [-95.8494647, 36.0637201], [-95.8495126, 36.0637201], [-95.8495125, 36.063615], [-95.849463, 36.063615], [-95.849463, 36.063539], [-95.8492526, 36.0635391], [-95.8492391, 36.0635391], [-95.8492391, 36.0636032], [-95.8489751, 36.0636033], [-95.8489753, 36.0639345], [-95.8489555, 36.0639345], [-95.8489555, 36.0639532], [-95.8489473, 36.0639639], [-95.8489506, 36.0640106], [-95.8489605, 36.0640213], [-95.8489605, 36.0640322], [-95.8489752, 36.0640322], [-95.8489766, 36.0643192], [-95.8490992, 36.0643188], [-95.8490993, 36.064327], [-95.8491422, 36.0643269], [-95.8491421, 36.0643219], [-95.8491826, 36.0643217], [-95.8491826, 36.0643252], [-95.8493023, 36.0643248], [-95.8493023, 36.0643202], [-95.8493365, 36.0643201], [-95.8494639, 36.0643198], [-95.8494638, 36.0642983], [-95.8494926, 36.0642982], [-95.8494925, 36.0642736], [-95.8495063, 36.0642735], [-95.8495061, 36.0641945], [-95.8494979, 36.0641945], [-95.8494979, 36.0641616], [-95.8494666, 36.0641616], [-95.8494665, 36.0641249], [-95.849447, 36.0641249], [-95.8494469, 36.0640805], [-95.8494145, 36.0640806], [-95.849408, 36.0640742], [-95.8493656, 36.0640736], [-95.8493534, 36.0640788], [-95.8493298, 36.064079], [-95.8493304, 36.0641253], [-95.8493153, 36.0641294], [-95.8493152, 36.0641434], [-95.8493151, 36.064174], [-95.8491808, 36.0641736], [-95.8491813, 36.0640408], [-95.8491914, 36.0640409], [-95.8491915, 36.0640142], [-95.8492088, 36.0640142], [-95.8492089, 36.0639691], [-95.8491887, 36.0639691], [-95.8491887, 36.0639396], [-95.8491835, 36.0639395], [-95.8491834, 36.0638083], [-95.8491833, 36.0637637], [-95.8491833, 36.0637183], [-95.8492156, 36.0637183], [-95.8492417, 36.0637183], [-95.8492418, 36.0637938], [-95.8494648, 36.0637936]]]}, "properties": {"osm_id": 740508519, "building": "yes", "name": "Homewood Suites", "height": null, "height_m": null, "levels": null, "tract_id": "40143007409", "tract_name": "74.09", "tags": {"brand": "Homewood Suites", "brand:wikidata": "Q5890701", "building": "yes", "name": "Homewood Suites", "official_name": "Homewood Suites by Hilton", "tourism": "hotel"}}}, {"type": "Feature", "geometry": {"type": "Polygon", "coordinates": [[[-95.8504939, 36.0644188], [-95.8504939, 36.0641398], [-95.8500811, 36.0641398], [-95.8500811, 36.0644188], [-95.8504939, 36.0644188]]]}, "properties": {"osm_id": 740508520, "building": "retail", "name": "Johnson Floor & Home", "height": null, "height_m": null, "levels": null, "tract_id": "40143007409", "tract_name": "74.09", "tags": {"addr:city": "Broken Arrow", "addr:country": "US", "addr:housenumber": "6551", "addr:postcode": "74012", "addr:state": "OK", "addr:street": "South Garnett Road East", "brand": "Carpet One", "building": "retail", "name": "Johnson Floor & Home", "shop": "flooring"}}}, {"type": "Feature", "geometry": {"type": "Polygon", "coordinates": [[[-95.8180176, 36.0666192], [-95.8175402, 36.0664743], [-95.8175158, 36.0665269], [-95.8179932, 36.0666717], [-95.8180176, 36.0666192]]]}, "properties": {"osm_id": 745409733, "building": "yes", "name": "", "height": null, "height_m": null, "levels": null, "tract_id": "40143007409", "tract_name": "74.09", "tags": {"building": "yes"}}}, {"type": "Feature", "geometry": {"type": "Polygon", "coordinates": [[[-95.8209752, 36.0668376], [-95.8200848, 36.0662945], [-95.8200574, 36.0663239], [-95.8205964, 36.0666526], [-95.8205874, 36.0666621], [-95.8209389, 36.0668765], [-95.8209752, 36.0668376]]]}, "properties": {"osm_id": 745409734, "building": "yes", "name": "", "height": null, "height_m": null, "levels": null, "tract_id": "40143007409", "tract_name": "74.09", "tags": {"building": "yes"}}}, {"type": "Feature", "geometry": {"type": "Polygon", "coordinates": [[[-95.8203474, 36.0669117], [-95.8203578, 36.0665387], [-95.8202269, 36.0665364], [-95.8202209, 36.0667539], [-95.820215, 36.0667537], [-95.8202107, 36.0669093], [-95.8203474, 36.0669117]]]}, "properties": {"osm_id": 745409735, "building": "yes", "name": "", "height": null, "height_m": null, "levels": null, "tract_id": "40143007409", "tract_name": "74.09", "tags": {"building": "yes"}}}, {"type": "Feature", "geometry": {"type": "Polygon", "coordinates": [[[-95.8227916, 36.0656239], [-95.8227394, 36.0656242], [-95.8227395, 36.0656336], [-95.8226778, 36.065634], [-95.8226777, 36.0656254], [-95.8226155, 36.0656258], [-95.8226156, 36.0656347], [-95.8225523, 36.0656351], [-95.8225522, 36.0656259], [-95.8224974, 36.0656262], [-95.8224963, 36.0655115], [-95.822551, 36.0655111], [-95.8225509, 36.0655008], [-95.8225986, 36.0655005], [-95.8225987, 36.0655122], [-95.8226908, 36.0655116], [-95.8226906, 36.0655001], [-95.8227387, 36.0654998], [-95.8227388, 36.0655098], [-95.8227904, 36.0655095], [-95.8227916, 36.0656239]]]}, "properties": {"osm_id": 745409736, "building": "yes", "name": "", "height": null, "height_m": null, "levels": null, "tract_id": "40143007409", "tract_name": "74.09", "tags": {"building": "yes"}}}, {"type": "Feature", "geometry": {"type": "Polygon", "coordinates": [[[-95.8224287, 36.0656246], [-95.8223765, 36.0656249], [-95.8223766, 36.0656343], [-95.8223149, 36.0656346], [-95.8223148, 36.0656261], [-95.8222527, 36.0656265], [-95.8222528, 36.0656354], [-95.8221895, 36.0656358], [-95.8221894, 36.0656266], [-95.8221345, 36.0656269], [-95.8221334, 36.0655121], [-95.8221882, 36.0655118], [-95.8221881, 36.0655015], [-95.8222357, 36.0655011], [-95.8222358, 36.0655129], [-95.8223279, 36.0655123], [-95.8223278, 36.0655008], [-95.8223759, 36.0655005], [-95.822376, 36.0655105], [-95.8224276, 36.0655102], [-95.8224287, 36.0656246]]]}, "properties": {"osm_id": 745409737, "building": "yes", "name": "", "height": null, "height_m": null, "levels": null, "tract_id": "40143007409", "tract_name": "74.09", "tags": {"building": "yes"}}}, {"type": "Feature", "geometry": {"type": "Polygon", "coordinates": [[[-95.8220562, 36.0656263], [-95.8220041, 36.0656266], [-95.8220041, 36.065636], [-95.8219424, 36.0656363], [-95.8219423, 36.0656278], [-95.8218802, 36.0656282], [-95.8218803, 36.0656371], [-95.821817, 36.0656375], [-95.8218169, 36.0656283], [-95.821762, 36.0656286], [-95.8217609, 36.0655138], [-95.8218157, 36.0655135], [-95.8218156, 36.0655032], [-95.8218632, 36.0655028], [-95.8218633, 36.0655146], [-95.8219554, 36.065514], [-95.8219553, 36.0655025], [-95.8220034, 36.0655022], [-95.8220035, 36.0655122], [-95.8220551, 36.0655119], [-95.8220562, 36.0656263]]]}, "properties": {"osm_id": 745409738, "building": "yes", "name": "", "height": null, "height_m": null, "levels": null, "tract_id": "40143007409", "tract_name": "74.09", "tags": {"building": "yes"}}}, {"type": "Feature", "geometry": {"type": "Polygon", "coordinates": [[[-95.8215901, 36.0656254], [-95.8215379, 36.0656257], [-95.821538, 36.0656351], [-95.8214763, 36.0656355], [-95.8214762, 36.0656269], [-95.8214141, 36.0656273], [-95.8214141, 36.0656363], [-95.8213508, 36.0656367], [-95.8213508, 36.0656274], [-95.8212959, 36.0656278], [-95.8212948, 36.065513], [-95.8213495, 36.0655126], [-95.8213494, 36.0655023], [-95.8213971, 36.065502], [-95.8213972, 36.0655138], [-95.8214893, 36.0655132], [-95.8214892, 36.0655016], [-95.8215372, 36.0655013], [-95.8215373, 36.0655113], [-95.8215889, 36.065511], [-95.8215901, 36.0656254]]]}, "properties": {"osm_id": 745409739, "building": "yes", "name": "", "height": null, "height_m": null, "levels": null, "tract_id": "40143007409", "tract_name": "74.09", "tags": {"building": "yes"}}}, {"type": "Feature", "geometry": {"type": "Polygon", "coordinates": [[[-95.822772, 36.065067], [-95.8227728, 36.0651092], [-95.8227844, 36.065109], [-95.8227853, 36.0651589], [-95.8227747, 36.0651591], [-95.8227756, 36.0652093], [-95.8227867, 36.0652092], [-95.8227877, 36.0652603], [-95.8227762, 36.0652605], [-95.822777, 36.0653048], [-95.8226351, 36.0653065], [-95.8226342, 36.0652623], [-95.8226215, 36.0652624], [-95.8226207, 36.0652239], [-95.8226353, 36.0652237], [-95.8226339, 36.0651493], [-95.8226196, 36.0651495], [-95.8226189, 36.0651106], [-95.8226313, 36.0651105], [-95.8226305, 36.0650688], [-95.822772, 36.065067]]]}, "properties": {"osm_id": 745409740, "building": "yes", "name": "", "height": null, "height_m": null, "levels": null, "tract_id": "40143007409", "tract_name": "74.09", "tags": {"building": "yes"}}}, {"type": "Feature", "geometry": {"type": "Polygon", "coordinates": [[[-95.8227717, 36.0647555], [-95.8227725, 36.0647977], [-95.8227841, 36.0647975], [-95.822785, 36.0648474], [-95.8227744, 36.0648476], [-95.8227753, 36.0648978], [-95.8227864, 36.0648977], [-95.8227873, 36.0649488], [-95.8227759, 36.064949], [-95.8227767, 36.0649933], [-95.8226347, 36.064995], [-95.8226339, 36.0649508], [-95.8226211, 36.0649509], [-95.8226204, 36.0649124], [-95.822635, 36.0649122], [-95.8226336, 36.0648378], [-95.8226193, 36.064838], [-95.8226186, 36.0647991], [-95.822631, 36.064799], [-95.8226302, 36.0647572], [-95.8227717, 36.0647555]]]}, "properties": {"osm_id": 745409741, "building": "yes", "name": "", "height": null, "height_m": null, "levels": null, "tract_id": "40143007409", "tract_name": "74.09", "tags": {"building": "yes"}}}, {"type": "Feature", "geometry": {"type": "Polygon", "coordinates": [[[-95.8219843, 36.0653335], [-95.8217855, 36.0653342], [-95.821785, 36.0652341], [-95.8218104, 36.0652341], [-95.8218098, 36.0651196], [-95.82158, 36.0651204], [-95.8215799, 36.0651012], [-95.8214711, 36.0651016], [-95.8214709, 36.0650564], [-95.8214488, 36.0650564], [-95.8214482, 36.0649431], [-95.8216134, 36.0649425], [-95.8216135, 36.0649625], [-95.821761, 36.064962], [-95.8217608, 36.0649274], [-95.8218981, 36.0649269], [-95.8218979, 36.0648911], [-95.8218807, 36.0648912], [-95.8218804, 36.0648415], [-95.8218802, 36.0647982], [-95.821997, 36.0647978], [-95.8219972, 36.0648431], [-95.8219975, 36.0648887], [-95.8219884, 36.0648887], [-95.8219886, 36.0649296], [-95.8220169, 36.0649295], [-95.8220171, 36.0649605], [-95.8221654, 36.0649599], [-95.8221653, 36.0649405], [-95.8223309, 36.0649399], [-95.8223315, 36.0650468], [-95.8223078, 36.0650468], [-95.8223081, 36.0651021], [-95.8221972, 36.0651024], [-95.8221973, 36.06512], [-95.8220064, 36.0651207], [-95.8220072, 36.06527], [-95.8219839, 36.06527], [-95.8219843, 36.0653335]]]}, "properties": {"osm_id": 745409742, "building": "yes", "name": "", "height": null, "height_m": null, "levels": null, "tract_id": "40143007409", "tract_name": "74.09", "tags": {"building": "yes"}}}, {"type": "Feature", "geometry": {"type": "Polygon", "coordinates": [[[-95.816412, 36.0614594], [-95.8164114, 36.0612994], [-95.8164956, 36.0612991], [-95.8164958, 36.0613362], [-95.8164847, 36.0613362], [-95.8164851, 36.0614592], [-95.816412, 36.0614594]]]}, "properties": {"osm_id": 803902209, "building": "yes", "name": "Sonic", "height": null, "height_m": null, "levels": null, "tract_id": "40143007409", "tract_name": "74.09", "tags": {"addr:city": "Broken Arrow", "addr:housenumber": "2220", "addr:postcode": "74012", "addr:state": "OK", "addr:street": "West Kenosha Street", "air_conditioning": "no", "amenity": "fast_food", "brand": "Sonic", "brand:wikidata": "Q7561808", "building": "yes", "cuisine": "burger", "drive_in": "yes", "name": "Sonic", "opening_hours": "Mo-Sa 06:00-23:00; Su 07:00-23:00", "phone": "+1 918-251-1632", "takeaway": "yes", "website": "https://locations.sonicdrivein.com/ok/brokenarrow/2220-w.-kenosha-street.html"}}}, {"type": "Feature", "geometry": {"type": "Polygon", "coordinates": [[[-95.8162019, 36.0615566], [-95.8162019, 36.0612384], [-95.8162505, 36.0612378], [-95.8162528, 36.0615566], [-95.8162019, 36.0615566]]]}, "properties": {"osm_id": 803902210, "building": "roof", "name": "", "height": null, "height_m": null, "levels": null, "tract_id": "40143007409", "tract_name": "74.09", "tags": {"building": "roof"}}}, {"type": "Feature", "geometry": {"type": "Polygon", "coordinates": [[[-95.8166456, 36.0614657], [-95.8166441, 36.0612104], [-95.8166941, 36.0612104], [-95.8166926, 36.0614651], [-95.8166456, 36.0614657]]]}, "properties": {"osm_id": 803902211, "building": "roof", "name": "", "height": null, "height_m": null, "levels": null, "tract_id": "40143007409", "tract_name": "74.09", "tags": {"building": "roof"}}}, {"type": "Feature", "geometry": {"type": "Polygon", "coordinates": [[[-95.8418479, 36.0751561], [-95.8418466, 36.0748776], [-95.8415381, 36.0748776], [-95.8415368, 36.0751095], [-95.8415971, 36.0751572], [-95.8418479, 36.0751561]]]}, "properties": {"osm_id": 803907660, "building": "yes", "name": "", "height": null, "height_m": null, "levels": null, "tract_id": "40143007409", "tract_name": "74.09", "tags": {"building": "yes", "shop": "vacant"}}}, {"type": "Feature", "geometry": {"type": "Polygon", "coordinates": [[[-95.8375514, 36.0746624], [-95.836567, 36.0746635], [-95.8365683, 36.0750798], [-95.8375514, 36.0750787], [-95.8375514, 36.0746624]]]}, "properties": {"osm_id": 804454788, "building": "yes", "name": "The Galley Manufacturing & Distribution", "height": null, "height_m": null, "levels": null, "tract_id": "40143007409", "tract_name": "74.09", "tags": {"building": "yes", "name": "The Galley Manufacturing & Distribution", "shop": "trade"}}}, {"type": "Feature", "geometry": {"type": "Polygon", "coordinates": [[[-95.8482118, 36.0682848], [-95.8480481, 36.0682858], [-95.8480503, 36.0683906], [-95.8481229, 36.0683899], [-95.8481238, 36.0684121], [-95.8482149, 36.068411], [-95.8482118, 36.0682848]]]}, "properties": {"osm_id": 810855298, "building": "yes", "name": "", "height": null, "height_m": null, "levels": null, "tract_id": "40143007409", "tract_name": "74.09", "tags": {"building": "yes"}}}, {"type": "Feature", "geometry": {"type": "Polygon", "coordinates": [[[-95.8477677, 36.0682805], [-95.8475917, 36.0682804], [-95.8475916, 36.0683999], [-95.8476012, 36.0683999], [-95.8476012, 36.0684052], [-95.8476801, 36.0684053], [-95.8476801, 36.0683938], [-95.8477005, 36.0683938], [-95.8477005, 36.0683827], [-95.8477676, 36.0683827], [-95.8477677, 36.0682805]]]}, "properties": {"osm_id": 810855302, "building": "yes", "name": "", "height": null, "height_m": null, "levels": null, "tract_id": "40143007409", "tract_name": "74.09", "tags": {"building": "yes"}}}, {"type": "Feature", "geometry": {"type": "Polygon", "coordinates": [[[-95.8477727, 36.0682233], [-95.8477721, 36.0681846], [-95.847814, 36.0681842], [-95.8478146, 36.0682228], [-95.8477727, 36.0682233]]]}, "properties": {"osm_id": 810855303, "building": "yes", "name": "", "height": null, "height_m": null, "levels": null, "tract_id": "40143007409", "tract_name": "74.09", "tags": {"building": "yes"}}}, {"type": "Feature", "geometry": {"type": "Polygon", "coordinates": [[[-95.8475111, 36.0683584], [-95.8474007, 36.068389], [-95.847403, 36.0683944], [-95.8473251, 36.068416], [-95.8472566, 36.0682543], [-95.8473389, 36.0682315], [-95.8473606, 36.0682828], [-95.8474666, 36.0682534], [-95.8475111, 36.0683584]]]}, "properties": {"osm_id": 810855304, "building": "yes", "name": "", "height": null, "height_m": null, "levels": null, "tract_id": "40143007409", "tract_name": "74.09", "tags": {"building": "yes"}}}, {"type": "Feature", "geometry": {"type": "Polygon", "coordinates": [[[-95.8475074, 36.0681757], [-95.8474566, 36.0681814], [-95.8474625, 36.0682157], [-95.8475133, 36.06821], [-95.8475074, 36.0681757]]]}, "properties": {"osm_id": 810855305, "building": "yes", "name": "", "height": null, "height_m": null, "levels": null, "tract_id": "40143007409", "tract_name": "74.09", "tags": {"building": "yes"}}}, {"type": "Feature", "geometry": {"type": "Polygon", "coordinates": [[[-95.8479924, 36.0681939], [-95.8479924, 36.0681553], [-95.8480269, 36.0681553], [-95.8480269, 36.0681939], [-95.8479924, 36.0681939]]]}, "properties": {"osm_id": 810856377, "building": "yes", "name": "", "height": null, "height_m": null, "levels": null, "tract_id": "40143007409", "tract_name": "74.09", "tags": {"building": "yes"}}}, {"type": "Feature", "geometry": {"type": "Polygon", "coordinates": [[[-95.8477997, 36.0688129], [-95.8476646, 36.0688134], [-95.8476641, 36.0687462], [-95.847596, 36.0687465], [-95.8475954, 36.0686538], [-95.8477987, 36.068653], [-95.8477989, 36.0686879], [-95.8478409, 36.0686878], [-95.8478411, 36.0687216], [-95.8477991, 36.0687218], [-95.8477997, 36.0688129]]]}, "properties": {"osm_id": 825403902, "building": "yes", "name": "", "height": null, "height_m": null, "levels": null, "tract_id": "40143007409", "tract_name": "74.09", "tags": {"building": "yes"}}}, {"type": "Feature", "geometry": {"type": "Polygon", "coordinates": [[[-95.8478949, 36.0686855], [-95.8478274, 36.0686858], [-95.8478272, 36.0686541], [-95.8478947, 36.0686538], [-95.8478949, 36.0686855]]]}, "properties": {"osm_id": 825403903, "building": "yes", "name": "", "height": null, "height_m": null, "levels": null, "tract_id": "40143007409", "tract_name": "74.09", "tags": {"building": "yes"}}}, {"type": "Feature", "geometry": {"type": "Polygon", "coordinates": [[[-95.8479533, 36.0688392], [-95.8479265, 36.0688388], [-95.8479271, 36.0688087], [-95.8479539, 36.0688091], [-95.8479533, 36.0688392]]]}, "properties": {"osm_id": 825403904, "building": "yes", "name": "", "height": null, "height_m": null, "levels": null, "tract_id": "40143007409", "tract_name": "74.09", "tags": {"building": "yes"}}}, {"type": "Feature", "geometry": {"type": "Polygon", "coordinates": [[[-95.848246, 36.0689175], [-95.8481983, 36.0689175], [-95.8481983, 36.0688527], [-95.8480736, 36.0688527], [-95.8480736, 36.0689478], [-95.8480361, 36.0689478], [-95.8480361, 36.0689963], [-95.8480736, 36.0689963], [-95.8480736, 36.068998], [-95.848246, 36.068998], [-95.848246, 36.0689175]]]}, "properties": {"osm_id": 825403905, "building": "yes", "name": "", "height": null, "height_m": null, "levels": null, "tract_id": "40143007409", "tract_name": "74.09", "tags": {"building": "yes", "source": "microsoft/BuildingFootprints"}}}, {"type": "Feature", "geometry": {"type": "Polygon", "coordinates": [[[-95.8477836, 36.0690301], [-95.8476061, 36.0690309], [-95.8476067, 36.0691122], [-95.847661, 36.0691119], [-95.8476615, 36.0691756], [-95.8477847, 36.069175], [-95.8477836, 36.0690301]]]}, "properties": {"osm_id": 825403906, "building": "yes", "name": "", "height": null, "height_m": null, "levels": null, "tract_id": "40143007409", "tract_name": "74.09", "tags": {"building": "yes", "source": "microsoft/BuildingFootprints"}}}, {"type": "Feature", "geometry": {"type": "Polygon", "coordinates": [[[-95.848058, 36.069167], [-95.848248, 36.069167], [-95.848248, 36.06911], [-95.848189, 36.06911], [-95.848189, 36.06903], [-95.848058, 36.06903], [-95.848058, 36.069167]]]}, "properties": {"osm_id": 825403907, "building": "yes", "name": "", "height": null, "height_m": null, "levels": null, "tract_id": "40143007409", "tract_name": "74.09", "tags": {"building": "yes", "source": "microsoft/BuildingFootprints"}}}, {"type": "Feature", "geometry": {"type": "Polygon", "coordinates": [[[-95.8477451, 36.068856], [-95.847679, 36.0688559], [-95.8476788, 36.0688695], [-95.8476455, 36.0688695], [-95.8476446, 36.0689263], [-95.8476543, 36.0689264], [-95.8476542, 36.0689383], [-95.8476067, 36.0689383], [-95.847606, 36.069003], [-95.847806, 36.069004], [-95.8478111, 36.069004], [-95.847812, 36.0689202], [-95.847745, 36.0689202], [-95.8477451, 36.068856]]]}, "properties": {"osm_id": 825403908, "building": "yes", "name": "", "height": null, "height_m": null, "levels": null, "tract_id": "40143007409", "tract_name": "74.09", "tags": {"building": "yes", "source": "microsoft/BuildingFootprints"}}}, {"type": "Feature", "geometry": {"type": "Polygon", "coordinates": [[[-95.8480438, 36.0688245], [-95.848246, 36.0688245], [-95.848246, 36.0687541], [-95.8482124, 36.0687541], [-95.8482124, 36.068679], [-95.8481175, 36.068679], [-95.8481175, 36.0686836], [-95.8480619, 36.0686836], [-95.8480619, 36.06874], [-95.8480438, 36.06874], [-95.8480438, 36.0688245]]]}, "properties": {"osm_id": 825403909, "building": "yes", "name": "", "height": null, "height_m": null, "levels": null, "tract_id": "40143007409", "tract_name": "74.09", "tags": {"building": "yes", "source": "microsoft/BuildingFootprints"}}}, {"type": "Feature", "geometry": {"type": "Polygon", "coordinates": [[[-95.8475367, 36.0630974], [-95.8475354, 36.0629874], [-95.8473508, 36.0629918], [-95.8473494, 36.0629811], [-95.8473117, 36.0629818], [-95.8473118, 36.0629929], [-95.8471286, 36.0629943], [-95.8471298, 36.0631005], [-95.8475367, 36.0630974]]]}, "properties": {"osm_id": 840927568, "building": "yes", "name": "", "height": null, "height_m": null, "levels": null, "tract_id": "40143007409", "tract_name": "74.09", "tags": {"building": "yes"}}}, {"type": "Feature", "geometry": {"type": "Polygon", "coordinates": [[[-95.8475144, 36.0629088], [-95.8475143, 36.0628589], [-95.8473027, 36.0628592], [-95.8473028, 36.0629195], [-95.8473733, 36.0629194], [-95.8473733, 36.0629103], [-95.8474479, 36.0629102], [-95.8474479, 36.062917], [-95.8474818, 36.062917], [-95.8474818, 36.0629089], [-95.8475144, 36.0629088]]]}, "properties": {"osm_id": 840927569, "building": "yes", "name": "", "height": null, "height_m": null, "levels": null, "tract_id": "40143007409", "tract_name": "74.09", "tags": {"building": "yes"}}}, {"type": "Feature", "geometry": {"type": "Polygon", "coordinates": [[[-95.847517, 36.0628522], [-95.8475159, 36.0628019], [-95.8474533, 36.0628028], [-95.8474532, 36.0627962], [-95.8474298, 36.0627965], [-95.8474299, 36.0628044], [-95.8473056, 36.0628062], [-95.8473067, 36.0628552], [-95.847517, 36.0628522]]]}, "properties": {"osm_id": 840927570, "building": "yes", "name": "", "height": null, "height_m": null, "levels": null, "tract_id": "40143007409", "tract_name": "74.09", "tags": {"building": "yes"}}}, {"type": "Feature", "geometry": {"type": "Polygon", "coordinates": [[[-95.8470013, 36.0630062], [-95.8470013, 36.0628603], [-95.8469893, 36.0628603], [-95.8469893, 36.062842], [-95.8469464, 36.062842], [-95.8469464, 36.0628592], [-95.8469324, 36.0628592], [-95.8469324, 36.0630062], [-95.8470013, 36.0630062]]]}, "properties": {"osm_id": 840927571, "building": "yes", "name": "", "height": null, "height_m": null, "levels": null, "tract_id": "40143007409", "tract_name": "74.09", "tags": {"building": "yes"}}}, {"type": "Feature", "geometry": {"type": "Polygon", "coordinates": [[[-95.8462544, 36.0698493], [-95.846118, 36.0698569], [-95.8461188, 36.0699886], [-95.8463015, 36.0699893], [-95.846299, 36.0699297], [-95.8462638, 36.0699311], [-95.8462544, 36.0698493]]]}, "properties": {"osm_id": 938788566, "building": "detached", "name": "", "height": null, "height_m": null, "levels": null, "tract_id": "40143007409", "tract_name": "74.09", "tags": {"building": "detached"}}}, {"type": "Feature", "geometry": {"type": "Polygon", "coordinates": [[[-95.8462417, 36.0698305], [-95.846152, 36.0698254], [-95.8461449, 36.0697696], [-95.846091, 36.0697651], [-95.8460822, 36.0696792], [-95.8462948, 36.0696824], [-95.8462988, 36.0697638], [-95.8462639, 36.069767], [-95.8462417, 36.0698305]]]}, "properties": {"osm_id": 938788567, "building": "detached", "name": "", "height": null, "height_m": null, "levels": null, "tract_id": "40143007409", "tract_name": "74.09", "tags": {"building": "detached"}}}, {"type": "Feature", "geometry": {"type": "Polygon", "coordinates": [[[-95.8463045, 36.0696514], [-95.8461295, 36.0696501], [-95.8461189, 36.0695093], [-95.8462604, 36.0695074], [-95.846262, 36.069543], [-95.8462767, 36.069543], [-95.8462743, 36.0695886], [-95.846307, 36.069588], [-95.8463045, 36.0696514]]]}, "properties": {"osm_id": 938788568, "building": "detached", "name": "", "height": null, "height_m": null, "levels": null, "tract_id": "40143007409", "tract_name": "74.09", "tags": {"building": "detached"}}}, {"type": "Feature", "geometry": {"type": "Polygon", "coordinates": [[[-95.846305, 36.0694838], [-95.8460118, 36.0694794], [-95.8460043, 36.0694307], [-95.8461432, 36.069429], [-95.8461466, 36.0693672], [-95.8462468, 36.0693677], [-95.8462481, 36.0694], [-95.8462698, 36.0694], [-95.8462705, 36.0694181], [-95.8462996, 36.069417], [-95.846305, 36.0694838]]]}, "properties": {"osm_id": 938788569, "building": "detached", "name": "", "height": null, "height_m": null, "levels": null, "tract_id": "40143007409", "tract_name": "74.09", "tags": {"building": "detached"}}}, {"type": "Feature", "geometry": {"type": "Polygon", "coordinates": [[[-95.8462482, 36.0693144], [-95.8461188, 36.0693093], [-95.8461131, 36.0692455], [-95.846085, 36.0692376], [-95.8460833, 36.0691756], [-95.846294, 36.0691737], [-95.8462975, 36.0692316], [-95.8462471, 36.0692316], [-95.8462482, 36.0693144]]]}, "properties": {"osm_id": 938788570, "building": "detached", "name": "", "height": null, "height_m": null, "levels": null, "tract_id": "40143007409", "tract_name": "74.09", "tags": {"building": "detached"}}}, {"type": "Feature", "geometry": {"type": "Polygon", "coordinates": [[[-95.8462419, 36.0691408], [-95.8461343, 36.0691404], [-95.8461285, 36.0690552], [-95.8461096, 36.0690533], [-95.8461114, 36.069007], [-95.8463078, 36.0690084], [-95.8463192, 36.069076], [-95.846254, 36.0690839], [-95.8462419, 36.0691408]]]}, "properties": {"osm_id": 938788571, "building": "detached", "name": "", "height": null, "height_m": null, "levels": null, "tract_id": "40143007409", "tract_name": "74.09", "tags": {"building": "detached"}}}, {"type": "Feature", "geometry": {"type": "Polygon", "coordinates": [[[-95.8463011, 36.0689745], [-95.8461183, 36.0689715], [-95.8461005, 36.0689076], [-95.8461128, 36.0688437], [-95.8462434, 36.0688402], [-95.8462459, 36.0688977], [-95.8462943, 36.0688967], [-95.8463011, 36.0689745]]]}, "properties": {"osm_id": 938788572, "building": "detached", "name": "", "height": null, "height_m": null, "levels": null, "tract_id": "40143007409", "tract_name": "74.09", "tags": {"building": "detached"}}}, {"type": "Feature", "geometry": {"type": "Polygon", "coordinates": [[[-95.8462461, 36.0688103], [-95.8461135, 36.0688065], [-95.8461141, 36.0687136], [-95.8460781, 36.068707], [-95.8460754, 36.0686669], [-95.8461277, 36.0686669], [-95.8461264, 36.068652], [-95.846293, 36.0686542], [-95.8462984, 36.0687372], [-95.8462529, 36.0687372], [-95.8462461, 36.0688103]]]}, "properties": {"osm_id": 938788573, "building": "detached", "name": "", "height": null, "height_m": null, "levels": null, "tract_id": "40143007409", "tract_name": "74.09", "tags": {"building": "detached"}}}, {"type": "Feature", "geometry": {"type": "Polygon", "coordinates": [[[-95.8458093, 36.068808], [-95.845657, 36.0688073], [-95.8456562, 36.068726], [-95.8456995, 36.0687226], [-95.8456945, 36.0686735], [-95.8457926, 36.0686722], [-95.8457885, 36.0687246], [-95.8458101, 36.068728], [-95.8458093, 36.068808]]]}, "properties": {"osm_id": 938788574, "building": "detached", "name": "", "height": null, "height_m": null, "levels": null, "tract_id": "40143007409", "tract_name": "74.09", "tags": {"building": "detached"}}}, {"type": "Feature", "geometry": {"type": "Polygon", "coordinates": [[[-95.8458666, 36.0689825], [-95.8456633, 36.0689813], [-95.8456626, 36.0689197], [-95.8457028, 36.0689157], [-95.8456922, 36.0688581], [-95.8457988, 36.0688479], [-95.8458023, 36.0688992], [-95.845863, 36.0688998], [-95.8458666, 36.0689825]]]}, "properties": {"osm_id": 938788575, "building": "detached", "name": "", "height": null, "height_m": null, "levels": null, "tract_id": "40143007409", "tract_name": "74.09", "tags": {"building": "detached"}}}, {"type": "Feature", "geometry": {"type": "Polygon", "coordinates": [[[-95.8458216, 36.0691439], [-95.8457028, 36.0691428], [-95.8457041, 36.0690951], [-95.84569, 36.0690859], [-95.845688, 36.0690631], [-95.8456618, 36.0690658], [-95.8456621, 36.0690401], [-95.8456625, 36.0690045], [-95.8458189, 36.0690056], [-95.8458283, 36.0690251], [-95.8458645, 36.0690262], [-95.8458659, 36.0690663], [-95.8458283, 36.0690712], [-95.8458216, 36.0691439]]]}, "properties": {"osm_id": 938788576, "building": "detached", "name": "", "height": null, "height_m": null, "levels": null, "tract_id": "40143007409", "tract_name": "74.09", "tags": {"building": "detached"}}}, {"type": "Feature", "geometry": {"type": "Polygon", "coordinates": [[[-95.8458142, 36.0691834], [-95.8457011, 36.0691765], [-95.8456961, 36.069234], [-95.8456634, 36.0692357], [-95.8456613, 36.0693162], [-95.8458234, 36.0693128], [-95.8458142, 36.0691834]]]}, "properties": {"osm_id": 938788577, "building": "detached", "name": "", "height": null, "height_m": null, "levels": null, "tract_id": "40143007409", "tract_name": "74.09", "tags": {"building": "detached"}}}, {"type": "Feature", "geometry": {"type": "Polygon", "coordinates": [[[-95.8457894, 36.0693458], [-95.8457035, 36.0693432], [-95.8457011, 36.0693908], [-95.8456549, 36.0693966], [-95.8456581, 36.0694803], [-95.8458531, 36.0694828], [-95.8458571, 36.069403], [-95.845795, 36.0693985], [-95.8457894, 36.0693458]]]}, "properties": {"osm_id": 938788578, "building": "detached", "name": "", "height": null, "height_m": null, "levels": null, "tract_id": "40143007409", "tract_name": "74.09", "tags": {"building": "detached"}}}, {"type": "Feature", "geometry": {"type": "Polygon", "coordinates": [[[-95.8458217, 36.0695156], [-95.8456654, 36.0695151], [-95.8456805, 36.0696807], [-95.8458495, 36.0696675], [-95.8458256, 36.0695875], [-95.8458539, 36.0695833], [-95.8458584, 36.0695454], [-95.8458271, 36.069546], [-95.8458217, 36.0695156]]]}, "properties": {"osm_id": 938788579, "building": "detached", "name": "", "height": null, "height_m": null, "levels": null, "tract_id": "40143007409", "tract_name": "74.09", "tags": {"building": "detached"}}}, {"type": "Feature", "geometry": {"type": "Polygon", "coordinates": [[[-95.8459327, 36.069879], [-95.8458802, 36.0699459], [-95.8457139, 36.0698734], [-95.8457495, 36.0698047], [-95.8457866, 36.0698109], [-95.8458152, 36.0697678], [-95.8459064, 36.0697984], [-95.8458755, 36.0698528], [-95.8459327, 36.069879]]]}, "properties": {"osm_id": 938788580, "building": "detached", "name": "", "height": null, "height_m": null, "levels": null, "tract_id": "40143007409", "tract_name": "74.09", "tags": {"building": "detached"}}}, {"type": "Feature", "geometry": {"type": "Polygon", "coordinates": [[[-95.8457501, 36.0700588], [-95.8457141, 36.0699655], [-95.8456156, 36.0699857], [-95.8455994, 36.0699477], [-95.8455251, 36.0699655], [-95.8455803, 36.0701159], [-95.8456376, 36.0701123], [-95.8456317, 36.070079], [-95.8457501, 36.0700588]]]}, "properties": {"osm_id": 938788581, "building": "detached", "name": "", "height": null, "height_m": null, "levels": null, "tract_id": "40143007409", "tract_name": "74.09", "tags": {"building": "detached"}}}, {"type": "Feature", "geometry": {"type": "Polygon", "coordinates": [[[-95.8454757, 36.0699793], [-95.8452987, 36.069938], [-95.8452541, 36.070014], [-95.845329, 36.0700372], [-95.8453059, 36.0700836], [-95.8453944, 36.0701113], [-95.8454757, 36.0699793]]]}, "properties": {"osm_id": 938788582, "building": "detached", "name": "", "height": null, "height_m": null, "levels": null, "tract_id": "40143007409", "tract_name": "74.09", "tags": {"building": "detached"}}}, {"type": "Feature", "geometry": {"type": "Polygon", "coordinates": [[[-95.8452714, 36.0698757], [-95.8452415, 36.0698054], [-95.845221, 36.0698086], [-95.8451957, 36.0697518], [-95.8450763, 36.069784], [-95.845128, 36.0699063], [-95.8452714, 36.0698757]]]}, "properties": {"osm_id": 938788583, "building": "detached", "name": "", "height": null, "height_m": null, "levels": null, "tract_id": "40143007409", "tract_name": "74.09", "tags": {"building": "detached"}}}, {"type": "Feature", "geometry": {"type": "Polygon", "coordinates": [[[-95.8452676, 36.0696643], [-95.8451523, 36.0696643], [-95.8451508, 36.0695901], [-95.8451138, 36.069589], [-95.8451103, 36.0695435], [-95.8451473, 36.0695424], [-95.8451508, 36.0695119], [-95.8453074, 36.069513], [-95.8453145, 36.0696005], [-95.8452726, 36.0696011], [-95.8452676, 36.0696643]]]}, "properties": {"osm_id": 938788584, "building": "detached", "name": "", "height": null, "height_m": null, "levels": null, "tract_id": "40143007409", "tract_name": "74.09", "tags": {"building": "detached"}}}, {"type": "Feature", "geometry": {"type": "Polygon", "coordinates": [[[-95.8453215, 36.0694856], [-95.8451329, 36.0694829], [-95.8451337, 36.0693492], [-95.8452692, 36.0693459], [-95.8452683, 36.069405], [-95.8452974, 36.069407], [-95.8453207, 36.0694231], [-95.8453215, 36.0694856]]]}, "properties": {"osm_id": 938788585, "building": "detached", "name": "", "height": null, "height_m": null, "levels": null, "tract_id": "40143007409", "tract_name": "74.09", "tags": {"building": "detached"}}}, {"type": "Feature", "geometry": {"type": "Polygon", "coordinates": [[[-95.8453287, 36.0693156], [-95.8451744, 36.0693149], [-95.8451663, 36.0691792], [-95.8452944, 36.0691807], [-95.8452953, 36.069239], [-95.8453196, 36.069239], [-95.8453287, 36.0693156]]]}, "properties": {"osm_id": 938788586, "building": "detached", "name": "", "height": null, "height_m": null, "levels": null, "tract_id": "40143007409", "tract_name": "74.09", "tags": {"building": "detached"}}}, {"type": "Feature", "geometry": {"type": "Polygon", "coordinates": [[[-95.8453224, 36.0691541], [-95.845172, 36.0691453], [-95.8451647, 36.0690166], [-95.845299, 36.0690137], [-95.845299, 36.0690656], [-95.8453136, 36.0691209], [-95.8453224, 36.0691541]]]}, "properties": {"osm_id": 938788587, "building": "detached", "name": "", "height": null, "height_m": null, "levels": null, "tract_id": "40143007409", "tract_name": "74.09", "tags": {"building": "detached"}}}, {"type": "Feature", "geometry": {"type": "Polygon", "coordinates": [[[-95.8453257, 36.0689842], [-95.8451686, 36.0689786], [-95.8451644, 36.0688476], [-95.8452928, 36.0688504], [-95.845297, 36.0688997], [-95.8453082, 36.0688969], [-95.8453201, 36.0689168], [-95.8453257, 36.0689842]]]}, "properties": {"osm_id": 938788588, "building": "detached", "name": "", "height": null, "height_m": null, "levels": null, "tract_id": "40143007409", "tract_name": "74.09", "tags": {"building": "detached"}}}, {"type": "Feature", "geometry": {"type": "Polygon", "coordinates": [[[-95.8453177, 36.0687951], [-95.8451646, 36.0687973], [-95.8451674, 36.0686633], [-95.8452931, 36.0686655], [-95.8452913, 36.068689], [-95.8453132, 36.0686898], [-95.8453104, 36.0687362], [-95.8453177, 36.0687951]]]}, "properties": {"osm_id": 938788589, "building": "detached", "name": "", "height": null, "height_m": null, "levels": null, "tract_id": "40143007409", "tract_name": "74.09", "tags": {"building": "detached"}}}, {"type": "Feature", "geometry": {"type": "Polygon", "coordinates": [[[-95.8448865, 36.0688073], [-95.8448876, 36.0687253], [-95.844829, 36.0687337], [-95.8448133, 36.068672], [-95.8447285, 36.068672], [-95.8447212, 36.0687278], [-95.8446877, 36.068732], [-95.8446929, 36.0688056], [-95.8448865, 36.0688073]]]}, "properties": {"osm_id": 938788590, "building": "detached", "name": "", "height": null, "height_m": null, "levels": null, "tract_id": "40143007409", "tract_name": "74.09", "tags": {"building": "detached"}}}, {"type": "Feature", "geometry": {"type": "Polygon", "coordinates": [[[-95.844799, 36.0688427], [-95.8447178, 36.0688417], [-95.8447103, 36.0688963], [-95.8446815, 36.0689033], [-95.8446803, 36.0689781], [-95.8448728, 36.0689892], [-95.8448803, 36.0689023], [-95.8448628, 36.0688538], [-95.844799, 36.0688427]]]}, "properties": {"osm_id": 938788591, "building": "detached", "name": "", "height": null, "height_m": null, "levels": null, "tract_id": "40143007409", "tract_name": "74.09", "tags": {"building": "detached"}}}, {"type": "Feature", "geometry": {"type": "Polygon", "coordinates": [[[-95.8448477, 36.0690115], [-95.8447346, 36.0690107], [-95.8447366, 36.0690679], [-95.8446855, 36.0690727], [-95.8446864, 36.069145], [-95.8448625, 36.069149], [-95.8448477, 36.0690115]]]}, "properties": {"osm_id": 938788592, "building": "detached", "name": "", "height": null, "height_m": null, "levels": null, "tract_id": "40143007409", "tract_name": "74.09", "tags": {"building": "detached"}}}, {"type": "Feature", "geometry": {"type": "Polygon", "coordinates": [[[-95.8448082, 36.0691795], [-95.8447145, 36.0691815], [-95.8447239, 36.0692345], [-95.8446924, 36.0692366], [-95.844689, 36.0693171], [-95.8448805, 36.0693178], [-95.8448805, 36.0692325], [-95.8448201, 36.0692373], [-95.8448082, 36.0691795]]]}, "properties": {"osm_id": 938788593, "building": "detached", "name": "", "height": null, "height_m": null, "levels": null, "tract_id": "40143007409", "tract_name": "74.09", "tags": {"building": "detached"}}}, {"type": "Feature", "geometry": {"type": "Polygon", "coordinates": [[[-95.8448512, 36.0694839], [-95.8448512, 36.0693502], [-95.844689, 36.0693386], [-95.844684, 36.0694004], [-95.8447268, 36.0694011], [-95.8447235, 36.0694772], [-95.8448512, 36.0694839]]]}, "properties": {"osm_id": 938788594, "building": "detached", "name": "", "height": null, "height_m": null, "levels": null, "tract_id": "40143007409", "tract_name": "74.09", "tags": {"building": "detached"}}}, {"type": "Feature", "geometry": {"type": "Polygon", "coordinates": [[[-95.8448375, 36.0696515], [-95.8448365, 36.0695175], [-95.8447083, 36.0695183], [-95.8447111, 36.0695827], [-95.8446855, 36.0695819], [-95.8446891, 36.0696537], [-95.8448375, 36.0696515]]]}, "properties": {"osm_id": 938788595, "building": "detached", "name": "", "height": null, "height_m": null, "levels": null, "tract_id": "40143007409", "tract_name": "74.09", "tags": {"building": "detached"}}}, {"type": "Feature", "geometry": {"type": "Polygon", "coordinates": [[[-95.844896, 36.0696808], [-95.8447037, 36.0696879], [-95.844724, 36.0697465], [-95.8446843, 36.069748], [-95.8446863, 36.0698207], [-95.8448602, 36.0698175], [-95.8448438, 36.0697629], [-95.8448989, 36.0697566], [-95.844896, 36.0696808]]]}, "properties": {"osm_id": 938788596, "building": "detached", "name": "", "height": null, "height_m": null, "levels": null, "tract_id": "40143007409", "tract_name": "74.09", "tags": {"building": "detached"}}}, {"type": "Feature", "geometry": {"type": "Polygon", "coordinates": [[[-95.8448601, 36.06986], [-95.8447432, 36.0698592], [-95.8447399, 36.0699213], [-95.844688, 36.0699169], [-95.8446858, 36.0699974], [-95.8448666, 36.0699974], [-95.8448601, 36.06986]]]}, "properties": {"osm_id": 938788597, "building": "detached", "name": "", "height": null, "height_m": null, "levels": null, "tract_id": "40143007409", "tract_name": "74.09", "tags": {"building": "detached"}}}, {"type": "Feature", "geometry": {"type": "Polygon", "coordinates": [[[-95.844879, 36.0701642], [-95.8448806, 36.0700283], [-95.8446928, 36.0700296], [-95.8446903, 36.0700822], [-95.8447117, 36.0700896], [-95.8447084, 36.0701062], [-95.8447266, 36.0701115], [-95.8447249, 36.0701655], [-95.844879, 36.0701642]]]}, "properties": {"osm_id": 938788598, "building": "detached", "name": "", "height": null, "height_m": null, "levels": null, "tract_id": "40143007409", "tract_name": "74.09", "tags": {"building": "detached"}}}, {"type": "Feature", "geometry": {"type": "Polygon", "coordinates": [[[-95.8448524, 36.0703192], [-95.8446722, 36.0703131], [-95.8446736, 36.0704125], [-95.8447446, 36.0704152], [-95.8447473, 36.0704539], [-95.8448572, 36.0704555], [-95.8448524, 36.0703192]]]}, "properties": {"osm_id": 938788599, "building": "detached", "name": "", "height": null, "height_m": null, "levels": null, "tract_id": "40143007409", "tract_name": "74.09", "tags": {"building": "detached"}}}, {"type": "Feature", "geometry": {"type": "Polygon", "coordinates": [[[-95.8450573, 36.0704548], [-95.8450516, 36.0703322], [-95.84489, 36.0703328], [-95.8448907, 36.0704279], [-95.8449616, 36.0704302], [-95.8449602, 36.0704474], [-95.8450013, 36.0704474], [-95.8449765, 36.0704571], [-95.8450573, 36.0704548]]]}, "properties": {"osm_id": 938788600, "building": "detached", "name": "", "height": null, "height_m": null, "levels": null, "tract_id": "40143007409", "tract_name": "74.09", "tags": {"building": "detached"}}}, {"type": "Feature", "geometry": {"type": "Polygon", "coordinates": [[[-95.8452591, 36.0704519], [-95.8452576, 36.0703063], [-95.8452319, 36.0703039], [-95.8452304, 36.070276], [-95.845154, 36.0702629], [-95.8451554, 36.0703075], [-95.8450871, 36.0703081], [-95.8450841, 36.0703996], [-95.8451547, 36.0703966], [-95.8451562, 36.0704483], [-95.8452591, 36.0704519]]]}, "properties": {"osm_id": 938788601, "building": "detached", "name": "", "height": null, "height_m": null, "levels": null, "tract_id": "40143007409", "tract_name": "74.09", "tags": {"building": "detached"}}}, {"type": "Feature", "geometry": {"type": "Polygon", "coordinates": [[[-95.8454763, 36.0704505], [-95.8454625, 36.0702578], [-95.845387, 36.0702541], [-95.8453843, 36.0703002], [-95.8453023, 36.0703047], [-95.8453051, 36.0704036], [-95.8453769, 36.0704081], [-95.8453751, 36.0704535], [-95.8454763, 36.0704505]]]}, "properties": {"osm_id": 938788602, "building": "detached", "name": "", "height": null, "height_m": null, "levels": null, "tract_id": "40143007409", "tract_name": "74.09", "tags": {"building": "detached"}}}, {"type": "Feature", "geometry": {"type": "Polygon", "coordinates": [[[-95.845684, 36.0704577], [-95.8456824, 36.0703127], [-95.8455153, 36.070318], [-95.8455112, 36.0704072], [-95.8455836, 36.0704105], [-95.8455894, 36.0704564], [-95.845684, 36.0704577]]]}, "properties": {"osm_id": 938788603, "building": "detached", "name": "", "height": null, "height_m": null, "levels": null, "tract_id": "40143007409", "tract_name": "74.09", "tags": {"building": "detached"}}}, {"type": "Feature", "geometry": {"type": "Polygon", "coordinates": [[[-95.8458917, 36.0704506], [-95.8458891, 36.0703074], [-95.8457179, 36.0703109], [-95.8457179, 36.0704049], [-95.8458181, 36.0704008], [-95.8458241, 36.070452], [-95.8458917, 36.0704506]]]}, "properties": {"osm_id": 938788604, "building": "detached", "name": "", "height": null, "height_m": null, "levels": null, "tract_id": "40143007409", "tract_name": "74.09", "tags": {"building": "detached"}}}, {"type": "Feature", "geometry": {"type": "Polygon", "coordinates": [[[-95.8461057, 36.070451], [-95.8459869, 36.0704532], [-95.8459877, 36.0704221], [-95.8459388, 36.0704207], [-95.8459318, 36.0703465], [-95.8459974, 36.0703423], [-95.8459965, 36.0702858], [-95.8461101, 36.0702886], [-95.8461057, 36.070451]]]}, "properties": {"osm_id": 938788605, "building": "detached", "name": "", "height": null, "height_m": null, "levels": null, "tract_id": "40143007409", "tract_name": "74.09", "tags": {"building": "detached"}}}, {"type": "Feature", "geometry": {"type": "Polygon", "coordinates": [[[-95.8463302, 36.0704499], [-95.846337, 36.070397], [-95.8463098, 36.0703816], [-95.846307, 36.0703057], [-95.8461981, 36.0703013], [-95.8461464, 36.0703145], [-95.846145, 36.0703739], [-95.8462213, 36.0703783], [-95.846224, 36.0704432], [-95.8463302, 36.0704499]]]}, "properties": {"osm_id": 938788606, "building": "detached", "name": "", "height": null, "height_m": null, "levels": null, "tract_id": "40143007409", "tract_name": "74.09", "tags": {"building": "detached"}}}, {"type": "Feature", "geometry": {"type": "Polygon", "coordinates": [[[-95.8462618, 36.070166], [-95.8460982, 36.0701701], [-95.8461071, 36.0700379], [-95.8463011, 36.0700184], [-95.8463061, 36.070085], [-95.8462567, 36.0700881], [-95.8462618, 36.070166]]]}, "properties": {"osm_id": 938788607, "building": "detached", "name": "", "height": null, "height_m": null, "levels": null, "tract_id": "40143007409", "tract_name": "74.09", "tags": {"building": "detached"}}}, {"type": "Feature", "geometry": {"type": "Polygon", "coordinates": [[[-95.820167, 36.0731507], [-95.8198215, 36.0731514], [-95.8198194, 36.0724549], [-95.819916, 36.0724547], [-95.8199162, 36.0725096], [-95.8201016, 36.0725092], [-95.820102, 36.0726478], [-95.8201654, 36.0726477], [-95.820167, 36.0731507]]]}, "properties": {"osm_id": 941448372, "building": "yes", "name": "Broken Arrow Electric Supply", "height": null, "height_m": null, "levels": null, "tract_id": "40143007409", "tract_name": "74.09", "tags": {"building": "yes", "name": "Broken Arrow Electric Supply", "shop": "electrical"}}}, {"type": "Feature", "geometry": {"type": "Polygon", "coordinates": [[[-95.8196595, 36.0730136], [-95.8195251, 36.0730129], [-95.8195054, 36.0730926], [-95.8194295, 36.0730923], [-95.8194291, 36.073013], [-95.8192471, 36.0730118], [-95.8192507, 36.0724623], [-95.8196632, 36.0724642], [-95.8196595, 36.0730136]]]}, "properties": {"osm_id": 941448373, "building": "warehouse", "name": "Broken Arrow Electric Supply", "height": null, "height_m": null, "levels": null, "tract_id": "40143007409", "tract_name": "74.09", "tags": {"building": "warehouse", "name": "Broken Arrow Electric Supply"}}}, {"type": "Feature", "geometry": {"type": "Polygon", "coordinates": [[[-95.8215654, 36.0719784], [-95.8205939, 36.0719787], [-95.8205931, 36.0705337], [-95.8215644, 36.0705333], [-95.8215654, 36.0719784]]]}, "properties": {"osm_id": 947002820, "building": "industrial", "name": "", "height": null, "height_m": null, "levels": null, "tract_id": "40143007409", "tract_name": "74.09", "tags": {"building": "industrial"}}}, {"type": "Feature", "geometry": {"type": "Polygon", "coordinates": [[[-95.8229115, 36.0716566], [-95.8221893, 36.0716568], [-95.8221887, 36.0705544], [-95.822431, 36.0705543], [-95.822431, 36.0705163], [-95.8226701, 36.0705163], [-95.8226701, 36.070553], [-95.8229111, 36.0705529], [-95.8229115, 36.0716566]]]}, "properties": {"osm_id": 947002821, "building": "industrial", "name": "", "height": null, "height_m": null, "levels": null, "tract_id": "40143007409", "tract_name": "74.09", "tags": {"building": "industrial"}}}, {"type": "Feature", "geometry": {"type": "Polygon", "coordinates": [[[-95.8239196, 36.0724017], [-95.8234015, 36.0724016], [-95.8234017, 36.0718567], [-95.8234561, 36.0718567], [-95.8239198, 36.0718568], [-95.8239196, 36.0724017]]]}, "properties": {"osm_id": 947002822, "building": "industrial", "name": "", "height": null, "height_m": null, "levels": null, "tract_id": "40143007409", "tract_name": "74.09", "tags": {"building": "industrial"}}}, {"type": "Feature", "geometry": {"type": "Polygon", "coordinates": [[[-95.8239192, 36.0717203], [-95.8234552, 36.0717202], [-95.8234045, 36.0717202], [-95.8234048, 36.0711747], [-95.8234547, 36.0711747], [-95.8239195, 36.0711749], [-95.8239192, 36.0717203]]]}, "properties": {"osm_id": 947002823, "building": "industrial", "name": "", "height": null, "height_m": null, "levels": null, "tract_id": "40143007409", "tract_name": "74.09", "tags": {"building": "industrial"}}}, {"type": "Feature", "geometry": {"type": "Polygon", "coordinates": [[[-95.82392, 36.0710379], [-95.8234547, 36.0710377], [-95.823405, 36.0710377], [-95.8234053, 36.0704926], [-95.8239204, 36.0704928], [-95.82392, 36.0710379]]]}, "properties": {"osm_id": 947002824, "building": "industrial", "name": "", "height": null, "height_m": null, "levels": null, "tract_id": "40143007409", "tract_name": "74.09", "tags": {"building": "industrial"}}}, {"type": "Feature", "geometry": {"type": "Polygon", "coordinates": [[[-95.8234053, 36.0704926], [-95.8234056, 36.0701244], [-95.8239203, 36.0701233], [-95.8239204, 36.0704928], [-95.8234053, 36.0704926]]]}, "properties": {"osm_id": 947002825, "building": "industrial", "name": "", "height": null, "height_m": null, "levels": null, "tract_id": "40143007409", "tract_name": "74.09", "tags": {"building": "industrial"}}}, {"type": "Feature", "geometry": {"type": "Polygon", "coordinates": [[[-95.8239198, 36.0718568], [-95.8239192, 36.0717203], [-95.8234552, 36.0717202], [-95.8234561, 36.0718567], [-95.8239198, 36.0718568]]]}, "properties": {"osm_id": 947002826, "building": "industrial", "name": "", "height": null, "height_m": null, "levels": null, "tract_id": "40143007409", "tract_name": "74.09", "tags": {"building": "industrial"}}}, {"type": "Feature", "geometry": {"type": "Polygon", "coordinates": [[[-95.8239195, 36.0711749], [-95.82392, 36.0710379], [-95.8234547, 36.0710377], [-95.8234547, 36.0711747], [-95.8239195, 36.0711749]]]}, "properties": {"osm_id": 947002827, "building": "industrial", "name": "", "height": null, "height_m": null, "levels": null, "tract_id": "40143007409", "tract_name": "74.09", "tags": {"building": "industrial"}}}, {"type": "Feature", "geometry": {"type": "Polygon", "coordinates": [[[-95.8229854, 36.0723608], [-95.8223722, 36.0723617], [-95.8223718, 36.0721924], [-95.8220793, 36.0721928], [-95.8220785, 36.0718409], [-95.8229842, 36.0718395], [-95.8229854, 36.0723608]]]}, "properties": {"osm_id": 947002828, "building": "industrial", "name": "", "height": null, "height_m": null, "levels": null, "tract_id": "40143007409", "tract_name": "74.09", "tags": {"building": "industrial"}}}, {"type": "Feature", "geometry": {"type": "Polygon", "coordinates": [[[-95.8302453, 36.0616728], [-95.8302101, 36.061673], [-95.8302101, 36.0616691], [-95.8299604, 36.0616703], [-95.8299597, 36.0615677], [-95.8299111, 36.0615679], [-95.8299099, 36.0614093], [-95.8300385, 36.0614086], [-95.8300383, 36.061383], [-95.830118, 36.0613826], [-95.8301182, 36.0614114], [-95.8302433, 36.0614108], [-95.8302453, 36.0616728]]]}, "properties": {"osm_id": 955136794, "building": "yes", "name": "Ted's Cafe Escondido", "height": null, "height_m": null, "levels": null, "tract_id": "40143007409", "tract_name": "74.09", "tags": {"amenity": "restaurant", "building": "yes", "cuisine": "mexican", "name": "Ted's Cafe Escondido"}}}, {"type": "Feature", "geometry": {"type": "Polygon", "coordinates": [[[-95.8205352, 36.0731494], [-95.8202967, 36.0731498], [-95.8202955, 36.0726259], [-95.8204709, 36.0726257], [-95.8204712, 36.0727386], [-95.8205341, 36.0727385], [-95.8205352, 36.0731494]]]}, "properties": {"osm_id": 955169093, "building": "industrial", "name": "", "height": null, "height_m": null, "levels": null, "tract_id": "40143007409", "tract_name": "74.09", "tags": {"building": "industrial"}}}, {"type": "Feature", "geometry": {"type": "Polygon", "coordinates": [[[-95.8238775, 36.0735794], [-95.8235114, 36.0735797], [-95.8235107, 36.0730336], [-95.8238768, 36.0730333], [-95.8238775, 36.0735794]]]}, "properties": {"osm_id": 955169094, "building": "industrial", "name": "", "height": null, "height_m": null, "levels": null, "tract_id": "40143007409", "tract_name": "74.09", "tags": {"building": "industrial"}}}, {"type": "Feature", "geometry": {"type": "Polygon", "coordinates": [[[-95.8240515, 36.0743426], [-95.8235583, 36.0743409], [-95.8235613, 36.0737477], [-95.8240546, 36.0737493], [-95.8240515, 36.0743426]]]}, "properties": {"osm_id": 955169095, "building": "industrial", "name": "", "height": null, "height_m": null, "levels": null, "tract_id": "40143007409", "tract_name": "74.09", "tags": {"building": "industrial"}}}, {"type": "Feature", "geometry": {"type": "Polygon", "coordinates": [[[-95.825376, 36.0742228], [-95.8245313, 36.0742231], [-95.8245311, 36.0739461], [-95.8253758, 36.0739458], [-95.825376, 36.0742228]]]}, "properties": {"osm_id": 955169096, "building": "industrial", "name": "", "height": null, "height_m": null, "levels": null, "tract_id": "40143007409", "tract_name": "74.09", "tags": {"building": "industrial"}}}, {"type": "Feature", "geometry": {"type": "Polygon", "coordinates": [[[-95.8264327, 36.0705777], [-95.8264021, 36.0705601], [-95.8263713, 36.0705951], [-95.8264019, 36.0706127], [-95.8264327, 36.0705777]]]}, "properties": {"osm_id": 955169097, "building": "service", "name": "", "height": null, "height_m": null, "levels": null, "tract_id": "40143007409", "tract_name": "74.09", "tags": {"building": "service"}}}, {"type": "Feature", "geometry": {"type": "Polygon", "coordinates": [[[-95.8262833, 36.0706985], [-95.8262747, 36.0706932], [-95.826267, 36.0707014], [-95.8261909, 36.0706546], [-95.8261992, 36.0706458], [-95.8261519, 36.0706168], [-95.8262121, 36.0705528], [-95.8263441, 36.0706339], [-95.8262833, 36.0706985]]]}, "properties": {"osm_id": 955169098, "building": "service", "name": "", "height": null, "height_m": null, "levels": null, "tract_id": "40143007409", "tract_name": "74.09", "tags": {"building": "service"}}}, {"type": "Feature", "geometry": {"type": "Polygon", "coordinates": [[[-95.8230313, 36.075154], [-95.8228151, 36.0751552], [-95.8228144, 36.0748181], [-95.823031, 36.0748184], [-95.8230313, 36.075154]]]}, "properties": {"osm_id": 990643826, "building": "yes", "name": "", "height": null, "height_m": null, "levels": null, "tract_id": "40143007409", "tract_name": "74.09", "tags": {"addr:city": "Broken Arrow", "addr:country": "US", "addr:housenumber": "2901", "addr:state": "OK", "addr:street": "West Albany Street", "building": "yes"}}}, {"type": "Feature", "geometry": {"type": "Polygon", "coordinates": [[[-95.8225662, 36.0751787], [-95.8225648, 36.0744386], [-95.8222959, 36.074439], [-95.8222968, 36.0751795], [-95.8225662, 36.0751787]]]}, "properties": {"osm_id": 990643827, "building": "yes", "name": "", "height": null, "height_m": null, "levels": null, "tract_id": "40143007409", "tract_name": "74.09", "tags": {"addr:city": "Broken Arrow", "addr:country": "US", "addr:housenumber": "2300", "addr:state": "OK", "addr:street": "North Hemlock Avenue", "building": "yes"}}}, {"type": "Feature", "geometry": {"type": "Polygon", "coordinates": [[[-95.8377441, 36.0612996], [-95.8375, 36.061298], [-95.8375011, 36.0611922], [-95.8377452, 36.0611939], [-95.8377441, 36.0612996]]]}, "properties": {"osm_id": 1005605791, "building": "yes", "name": "Doctor Okie Dispensary", "height": null, "height_m": null, "levels": null, "tract_id": "40143007409", "tract_name": "74.09", "tags": {"building": "yes", "name": "Doctor Okie Dispensary", "shop": "cannabis"}}}, {"type": "Feature", "geometry": {"type": "Polygon", "coordinates": [[[-95.8403953, 36.0696774], [-95.8397878, 36.0696764], [-95.8397851, 36.069452], [-95.8403913, 36.0694487], [-95.8403953, 36.0696774]]]}, "properties": {"osm_id": 1011902948, "building": "yes", "name": "Admiral Express", "height": null, "height_m": null, "levels": null, "tract_id": "40143007409", "tract_name": "74.09", "tags": {"addr:city": "Broken Arrow", "addr:housenumber": "1823", "addr:postcode": "74012", "addr:state": "OK", "addr:street": "North Yellowood Avenue", "building": "yes", "name": "Admiral Express", "shop": "stationery"}}}, {"type": "Feature", "geometry": {"type": "Polygon", "coordinates": [[[-95.8504618, 36.0636251], [-95.8500172, 36.0636294], [-95.8500147, 36.0634603], [-95.8504593, 36.063456], [-95.8504618, 36.0636251]]]}, "properties": {"osm_id": 1060159785, "building": "yes", "name": "Robertson Tire", "height": null, "height_m": null, "levels": null, "tract_id": "40143007409", "tract_name": "74.09", "tags": {"addr:city": "Broken Arrow", "addr:country": "US", "addr:housenumber": "6601", "addr:postcode": "74012", "addr:state": "OK", "addr:street": "South Garnett Road East", "building": "yes", "name": "Robertson Tire", "service": "tyres", "shop": "car_repair"}}}, {"type": "Feature", "geometry": {"type": "Polygon", "coordinates": [[[-95.8505416, 36.0616932], [-95.8501326, 36.0616932], [-95.8501326, 36.061633], [-95.8502338, 36.061633], [-95.8502338, 36.0615322], [-95.8501366, 36.0615322], [-95.8501366, 36.0613614], [-95.850146, 36.0613614], [-95.850146, 36.0613181], [-95.8501942, 36.0613181], [-95.8501942, 36.0613105], [-95.8504162, 36.0613105], [-95.8504162, 36.0613192], [-95.8504631, 36.0613192], [-95.8504631, 36.0613587], [-95.8504786, 36.0613587], [-95.8504786, 36.0615317], [-95.8503867, 36.0615317], [-95.8503867, 36.061633], [-95.8505416, 36.061633], [-95.8505416, 36.0616932]]]}, "properties": {"osm_id": 1071802483, "building": "office", "name": "RCB Bank", "height": null, "height_m": null, "levels": null, "tract_id": "40143007409", "tract_name": "74.09", "tags": {"amenity": "bank", "atm": "yes", "brand": "RCB Bank", "brand:wikidata": "Q24914906", "building": "office", "drive_through": "yes", "name": "RCB Bank", "opening_hours": "Mo-Fr 09:00-17:00"}}}, {"type": "Feature", "geometry": {"type": "Polygon", "coordinates": [[[-95.825983, 36.0747252], [-95.8250937, 36.074732], [-95.8250986, 36.0751482], [-95.8252645, 36.0751469], [-95.8254408, 36.0751456], [-95.8254392, 36.0750019], [-95.8257251, 36.0749997], [-95.825727, 36.0751633], [-95.8258491, 36.0751624], [-95.8259881, 36.0751613], [-95.825983, 36.0747252]]]}, "properties": {"osm_id": 1189896355, "building": "industrial", "name": "", "height": null, "height_m": null, "levels": null, "tract_id": "40143007409", "tract_name": "74.09", "tags": {"building": "industrial", "source": "microsoft/BuildingFootprints"}}}, {"type": "Feature", "geometry": {"type": "Polygon", "coordinates": [[[-95.8169355, 36.0751424], [-95.8164586, 36.0751416], [-95.8164591, 36.0749669], [-95.816936, 36.0749678], [-95.8169355, 36.0751424]]]}, "properties": {"osm_id": 1243789263, "building": "industrial", "name": "Lifetime Transmissions", "height": null, "height_m": null, "levels": null, "tract_id": "40143007409", "tract_name": "74.09", "tags": {"addr:housenumber": "2221", "addr:postcode": "74012", "addr:street": "West Albany Street", "building": "industrial", "name": "Lifetime Transmissions", "shop": "car_repair"}}}, {"type": "Feature", "geometry": {"type": "Polygon", "coordinates": [[[-95.8182062, 36.07344], [-95.8180771, 36.0734403], [-95.8180774, 36.073534], [-95.8180215, 36.0735341], [-95.8180213, 36.0734871], [-95.8177182, 36.0734878], [-95.8177181, 36.0734411], [-95.817596, 36.0734414], [-95.817596, 36.0734353], [-95.8175025, 36.0734355], [-95.8175006, 36.0728863], [-95.8175941, 36.0728861], [-95.8175933, 36.0726718], [-95.8182036, 36.0726704], [-95.8182062, 36.07344]]]}, "properties": {"osm_id": 1243789264, "building": "industrial", "name": "UniFirst", "height": null, "height_m": null, "levels": null, "tract_id": "40143007409", "tract_name": "74.09", "tags": {"building": "industrial", "description": "A uniform service - they provide uniforms for other businesses, and clean and repair the uniforms on a regular basis.", "industrial": "laundry", "name": "UniFirst"}}}, {"type": "Feature", "geometry": {"type": "Polygon", "coordinates": [[[-95.8169788, 36.0735348], [-95.8164702, 36.0735325], [-95.8164753, 36.0727841], [-95.8169839, 36.0727864], [-95.8169788, 36.0735348]]]}, "properties": {"osm_id": 1243789265, "building": "industrial", "name": "", "height": null, "height_m": null, "levels": null, "tract_id": "40143007409", "tract_name": "74.09", "tags": {"building": "industrial"}}}, {"type": "Feature", "geometry": {"type": "Polygon", "coordinates": [[[-95.8163564, 36.0684316], [-95.8163575, 36.0683327], [-95.8164608, 36.0683334], [-95.8164593, 36.0684749], [-95.8164028, 36.0684745], [-95.8164033, 36.0684319], [-95.8163564, 36.0684316]]]}, "properties": {"osm_id": 1243789266, "building": "detached", "name": "", "height": null, "height_m": null, "levels": null, "tract_id": "40143007409", "tract_name": "74.09", "tags": {"building": "detached"}}}, {"type": "Feature", "geometry": {"type": "Polygon", "coordinates": [[[-95.8164384, 36.0686794], [-95.816233, 36.0686803], [-95.8162324, 36.0685959], [-95.8164379, 36.0685951], [-95.8164384, 36.0686794]]]}, "properties": {"osm_id": 1243789267, "building": "detached", "name": "Evans Automotive Repair", "height": null, "height_m": null, "levels": null, "tract_id": "40143007409", "tract_name": "74.09", "tags": {"building": "detached", "name": "Evans Automotive Repair", "shop": "car_repair"}}}, {"type": "Feature", "geometry": {"type": "Polygon", "coordinates": [[[-95.8163311, 36.0621173], [-95.8162338, 36.0617998], [-95.8165345, 36.0617395], [-95.8166319, 36.0620571], [-95.8163311, 36.0621173]]]}, "properties": {"osm_id": 1243789268, "building": "commercial", "name": "Toyosu Buffet", "height": null, "height_m": null, "levels": null, "tract_id": "40143007409", "tract_name": "74.09", "tags": {"amenity": "restaurant", "building": "commercial", "cuisine": "japanese", "description": "Hibachi, Sushi", "name": "Toyosu Buffet"}}}, {"type": "Feature", "geometry": {"type": "Polygon", "coordinates": [[[-95.8237774, 36.0615266], [-95.8235153, 36.0615281], [-95.8235135, 36.0613092], [-95.8236013, 36.0613087], [-95.8236011, 36.0612817], [-95.8236884, 36.0612812], [-95.8236886, 36.0613082], [-95.8237755, 36.0613077], [-95.8237774, 36.0615266]]]}, "properties": {"osm_id": 1273347882, "building": "commercial", "name": "", "height": null, "height_m": 6.0, "levels": 2, "tract_id": "40143007409", "tract_name": "74.09", "tags": {"addr:city": "Broken Arrow", "addr:postcode": "74012", "building": "commercial", "building:levels": "2"}}}, {"type": "Feature", "geometry": {"type": "Polygon", "coordinates": [[[-95.8351543, 36.0696833], [-95.8350149, 36.069577], [-95.8351456, 36.0694662], [-95.8352884, 36.0693451], [-95.8354467, 36.0694686], [-95.8351543, 36.0696833]]]}, "properties": {"osm_id": 1279538256, "building": "yes", "name": "", "height": null, "height_m": null, "levels": null, "tract_id": "40143007409", "tract_name": "74.09", "tags": {"amenity": "place_of_worship", "building": "yes"}}}, {"type": "Feature", "geometry": {"type": "Polygon", "coordinates": [[[-95.8342931, 36.0692255], [-95.8336668, 36.0692169], [-95.8336601, 36.068961], [-95.8343012, 36.0689621], [-95.8342931, 36.0692255]]]}, "properties": {"osm_id": 1281066368, "building": "church", "name": "", "height": null, "height_m": null, "levels": null, "tract_id": "40143007409", "tract_name": "74.09", "tags": {"addr:city": "Broken Arrow", "addr:country": "US", "addr:housenumber": "6900", "addr:postcode": "74012", "addr:state": "OK", "addr:street": "South 129th Avenue East", "amenity": "place_of_worship", "building": "church"}}}, {"type": "Feature", "geometry": {"type": "Polygon", "coordinates": [[[-95.8326834, 36.0648584], [-95.8326854, 36.0646711], [-95.8326102, 36.0646678], [-95.8326081, 36.0646037], [-95.8319821, 36.0646021], [-95.8319678, 36.0649011], [-95.8323195, 36.0649061], [-95.8323215, 36.0648551], [-95.8326834, 36.0648584]]]}, "properties": {"osm_id": 1281066412, "building": "yes", "name": "", "height": null, "height_m": null, "levels": null, "tract_id": "40143007409", "tract_name": "74.09", "tags": {"amenity": "place_of_worship", "building": "yes"}}}, {"type": "Feature", "geometry": {"type": "Polygon", "coordinates": [[[-95.8384073, 36.0751536], [-95.8376871, 36.0751504], [-95.8376887, 36.0749238], [-95.8380452, 36.0749254], [-95.8380454, 36.0748934], [-95.8383553, 36.0748948], [-95.8383548, 36.0749778], [-95.8384085, 36.0749781], [-95.8384073, 36.0751536]]]}, "properties": {"osm_id": 1292694634, "building": "industrial", "name": "Empire Laser & Metal Work", "height": null, "height_m": 3.0, "levels": 1, "tract_id": "40143007409", "tract_name": "74.09", "tags": {"building": "industrial", "building:colour": "brown", "building:levels": "1", "craft": "metal_construction", "name": "Empire Laser & Metal Work", "roof:colour": "grey", "roof:levels": "0", "shop": "craft"}}}, {"type": "Feature", "geometry": {"type": "Polygon", "coordinates": [[[-95.8405249, 36.0750279], [-95.8404565, 36.0750279], [-95.8404565, 36.0751298], [-95.8400837, 36.0751298], [-95.8400837, 36.0750268], [-95.8401132, 36.0750268], [-95.8401132, 36.074681], [-95.8405249, 36.074681], [-95.8405249, 36.0750279]]]}, "properties": {"osm_id": 1292694645, "building": "industrial", "name": "Yale Cleaners Corporate Office", "height": null, "height_m": null, "levels": null, "tract_id": "40143007409", "tract_name": "74.09", "tags": {"building": "industrial", "building:colour": "blue", "building:material": "concrete", "name": "Yale Cleaners Corporate Office", "office": "company", "roof:colour": "grey", "roof:material": "tar_paper"}}}, {"type": "Feature", "geometry": {"type": "Polygon", "coordinates": [[[-95.8195795, 36.074816], [-95.81958, 36.0750675], [-95.819546, 36.0750946], [-95.8195171, 36.0750946], [-95.8194085, 36.0750947], [-95.8191483, 36.0750956], [-95.819084, 36.0750956], [-95.8187916, 36.0750956], [-95.8187018, 36.0750956], [-95.8186655, 36.0750956], [-95.8186278, 36.0750658], [-95.8186273, 36.0748171], [-95.8195795, 36.074816]]]}, "properties": {"osm_id": 1292952980, "building": "yes", "name": "", "height": null, "height_m": null, "levels": null, "tract_id": "40143007409", "tract_name": "74.09", "tags": {"building": "yes"}}}, {"type": "Feature", "geometry": {"type": "Polygon", "coordinates": [[[-95.8273935, 36.0751206], [-95.8267041, 36.0751217], [-95.8267034, 36.074829], [-95.8273928, 36.0748279], [-95.8273935, 36.0751206]]]}, "properties": {"osm_id": 1292952986, "building": "commercial", "name": "", "height": null, "height_m": 3.0, "levels": 1, "tract_id": "40143007409", "tract_name": "74.09", "tags": {"building": "commercial", "building:colour": "beige", "building:levels": "1", "building:material": "concrete", "roof:colour": "black", "roof:levels": "0", "roof:material": "tar_paper", "roof:shape": "flat", "shop": "vacant"}}}, {"type": "Feature", "geometry": {"type": "Polygon", "coordinates": [[[-95.8294708, 36.0751238], [-95.8291946, 36.0751243], [-95.8291939, 36.0748485], [-95.8291316, 36.0748486], [-95.8291313, 36.0747098], [-95.8290297, 36.0747099], [-95.8290294, 36.074575], [-95.8294695, 36.0745743], [-95.8294708, 36.0751238]]]}, "properties": {"osm_id": 1292952991, "building": "yes", "name": "", "height": null, "height_m": null, "levels": null, "tract_id": "40143007409", "tract_name": "74.09", "tags": {"building": "yes"}}}, {"type": "Feature", "geometry": {"type": "Polygon", "coordinates": [[[-95.8308783, 36.0736155], [-95.8308777, 36.0737304], [-95.830955, 36.0737307], [-95.8309521, 36.0743003], [-95.8307938, 36.0742997], [-95.8307912, 36.0748196], [-95.8302755, 36.0748179], [-95.8302776, 36.0743925], [-95.830332, 36.0743927], [-95.8303325, 36.0742982], [-95.8302761, 36.074298], [-95.8302775, 36.0740238], [-95.8301479, 36.0740233], [-95.8301488, 36.0738517], [-95.8298847, 36.0738508], [-95.8298859, 36.0736123], [-95.8308783, 36.0736155]]]}, "properties": {"osm_id": 1292952995, "building": "yes", "name": "A. G. Equipment Company", "height": null, "height_m": null, "levels": null, "tract_id": "40143007409", "tract_name": "74.09", "tags": {"addr:city": "Broken Arrow", "addr:country": "US", "addr:housenumber": "3401", "addr:state": "OK", "addr:street": "West Albany Street", "building": "yes", "name": "A. G. Equipment Company", "office": "company"}}}, {"type": "Feature", "geometry": {"type": "Polygon", "coordinates": [[[-95.8156628, 36.0749233], [-95.8156628, 36.0747184], [-95.8158512, 36.0747184], [-95.8158512, 36.0749233], [-95.8156628, 36.0749233]]]}, "properties": {"osm_id": 1358274941, "building": "roof", "name": "", "height": null, "height_m": null, "levels": null, "tract_id": "40143007409", "tract_name": "74.09", "tags": {"building": "roof"}}}, {"type": "Feature", "geometry": {"type": "Polygon", "coordinates": [[[-95.8158512, 36.0750144], [-95.8158512, 36.0751401], [-95.8156628, 36.0751401], [-95.8156628, 36.0750144], [-95.8158512, 36.0750144]]]}, "properties": {"osm_id": 1358274942, "building": "roof", "name": "", "height": null, "height_m": null, "levels": null, "tract_id": "40143007409", "tract_name": "74.09", "tags": {"building": "roof"}}}, {"type": "Feature", "geometry": {"type": "Polygon", "coordinates": [[[-95.8158512, 36.0750144], [-95.8156628, 36.0750144], [-95.8156521, 36.0750144], [-95.8156521, 36.0749233], [-95.8156628, 36.0749233], [-95.8158512, 36.0749233], [-95.8158512, 36.0750144]]]}, "properties": {"osm_id": 1358274943, "building": "retail", "name": "", "height": null, "height_m": null, "levels": null, "tract_id": "40143007409", "tract_name": "74.09", "tags": {"building": "retail", "old_name": "Phillips 66", "shop": "vacant"}}}, {"type": "Feature", "geometry": {"type": "Polygon", "coordinates": [[[-95.8341976, 36.0652588], [-95.8339514, 36.0652584], [-95.8339515, 36.0652192], [-95.833465, 36.0652184], [-95.8334655, 36.0650006], [-95.8341982, 36.0650019], [-95.8341976, 36.0652588]]]}, "properties": {"osm_id": 1381744197, "building": "yes", "name": "", "height": null, "height_m": null, "levels": null, "tract_id": "40143007409", "tract_name": "74.09", "tags": {"building": "yes"}}}, {"type": "Feature", "geometry": {"type": "Polygon", "coordinates": [[[-95.8504102, 36.0733185], [-95.8503042, 36.0733188], [-95.8503037, 36.0732122], [-95.8502751, 36.0732123], [-95.8502747, 36.0731137], [-95.8503033, 36.0731136], [-95.8503029, 36.0730413], [-95.8504088, 36.073041], [-95.8504091, 36.0731017], [-95.8504315, 36.0731016], [-95.8504322, 36.0732507], [-95.8504098, 36.0732508], [-95.8504102, 36.0733185]]]}, "properties": {"osm_id": 1385635958, "building": "retail", "name": "Arby's", "height": null, "height_m": null, "levels": null, "tract_id": "40143007409", "tract_name": "74.09", "tags": {"addr:city": "Broken Arrow", "addr:country": "US", "addr:full": "6237 S GARNETT RD E", "addr:housenumber": "6237", "addr:postcode": "74012", "addr:state": "OK", "addr:street": "South Garnett Road East", "amenity": "fast_food", "brand": "Arby's", "brand:wikidata": "Q630866", "building": "retail", "cuisine": "sandwich", "name": "Arby's", "source": "INCOG", "takeaway": "yes"}}}]}