{"type": "FeatureCollection", "features": [{"type": "Feature", "geometry": {"type": "Polygon", "coordinates": [[[-96.6715617, 35.2344302], [-96.6713902, 35.2344363], [-96.6713822, 35.234284], [-96.6715537, 35.234278], [-96.6715617, 35.2344302]]]}, "properties": {"osm_id": 880513138, "building": "yes", "name": "", "height": null, "height_m": null, "levels": null, "tract_id": "40133583400", "tract_name": "5834", "tags": {"building": "yes"}}}, {"type": "Feature", "geometry": {"type": "Polygon", "coordinates": [[[-96.6716275, 35.2337084], [-96.671628, 35.2336129], [-96.6713262, 35.2336118], [-96.6713257, 35.2337073], [-96.6716275, 35.2337084]]]}, "properties": {"osm_id": 880513140, "building": "commercial", "name": "KFC", "height": null, "height_m": null, "levels": null, "tract_id": "40133583400", "tract_name": "5834", "tags": {"addr:city": "Seminole", "addr:country": "US", "addr:housenumber": "1101", "addr:postcode": "74868", "addr:state": "OK", "addr:street": "North Milt Phillips Avenue", "alt_name": "Kentucky Fried Chicken", "amenity": "fast_food", "brand": "KFC", "brand:wikidata": "Q524757", "building": "commercial", "cuisine": "chicken", "name": "KFC", "takeaway": "yes", "website": "https://locations.kfc.com/ok/seminole/1101-north-milt-phillips"}}}, {"type": "Feature", "geometry": {"type": "Polygon", "coordinates": [[[-96.6722371, 35.2370232], [-96.6722355, 35.2368852], [-96.671827, 35.2368884], [-96.6718267, 35.2368564], [-96.6716477, 35.2368578], [-96.6716501, 35.237055], [-96.671829, 35.2370536], [-96.6718287, 35.2370264], [-96.6722371, 35.2370232]]]}, "properties": {"osm_id": 880513142, "building": "yes", "name": "", "height": null, "height_m": null, "levels": null, "tract_id": "40133583400", "tract_name": "5834", "tags": {"building": "yes"}}}, {"type": "Feature", "geometry": {"type": "Polygon", "coordinates": [[[-96.6725129, 35.2369684], [-96.6726841, 35.236967], [-96.6726808, 35.236691], [-96.6725096, 35.2366924], [-96.6725129, 35.2369684]]]}, "properties": {"osm_id": 880513144, "building": "yes", "name": "", "height": null, "height_m": null, "levels": null, "tract_id": "40133583400", "tract_name": "5834", "tags": {"building": "yes"}}}, {"type": "Feature", "geometry": {"type": "Polygon", "coordinates": [[[-96.6716829, 35.2379828], [-96.6716593, 35.2379829], [-96.67166, 35.2380762], [-96.6718008, 35.2380755], [-96.6718001, 35.2379822], [-96.6717764, 35.2379823], [-96.6717758, 35.2379012], [-96.6717756, 35.2378655], [-96.6716821, 35.237866], [-96.6716824, 35.2379035], [-96.6716829, 35.2379828]]]}, "properties": {"osm_id": 880513172, "building": "commercial", "name": "", "height": null, "height_m": null, "levels": null, "tract_id": "40133583400", "tract_name": "5834", "tags": {"building": "commercial"}}}, {"type": "Feature", "geometry": {"type": "Polygon", "coordinates": [[[-96.6720177, 35.237539], [-96.6720172, 35.2374198], [-96.6716149, 35.2374209], [-96.6716154, 35.23754], [-96.6720177, 35.237539]]]}, "properties": {"osm_id": 880513173, "building": "commercial", "name": "McDonald's", "height": null, "height_m": null, "levels": null, "tract_id": "40133583400", "tract_name": "5834", "tags": {"addr:city": "Seminole", "addr:housenumber": "1423", "addr:street": "North Milt Phillips Avenue", "amenity": "fast_food", "brand": "McDonald's", "brand:wikidata": "Q38076", "building": "commercial", "cuisine": "burger", "name": "McDonald's", "takeaway": "yes", "website": "https://www.mcdonalds.com/us/en-us/location/ok/seminole/1423-milt-phillips-blvd/10915.html"}}}, {"type": "Feature", "geometry": {"type": "Polygon", "coordinates": [[[-96.6718903, 35.2472941], [-96.6719104, 35.2473145], [-96.6719587, 35.2473145], [-96.6719762, 35.2472943], [-96.6721532, 35.2472948], [-96.6721538, 35.2471501], [-96.6717649, 35.247149], [-96.6717643, 35.2472937], [-96.6718903, 35.2472941]]]}, "properties": {"osm_id": 880513176, "building": "commercial", "name": "", "height": null, "height_m": null, "levels": null, "tract_id": "40133583400", "tract_name": "5834", "tags": {"building": "commercial"}}}, {"type": "Feature", "geometry": {"type": "Polygon", "coordinates": [[[-96.6714987, 35.2460747], [-96.6714957, 35.245838], [-96.6717518, 35.2458358], [-96.6717549, 35.2460725], [-96.6714987, 35.2460747]]]}, "properties": {"osm_id": 880513177, "building": "commercial", "name": "", "height": null, "height_m": null, "levels": null, "tract_id": "40133583400", "tract_name": "5834", "tags": {"building": "commercial"}}}, {"type": "Feature", "geometry": {"type": "Polygon", "coordinates": [[[-96.671783, 35.2398962], [-96.6717837, 35.2399856], [-96.6716754, 35.2399861], [-96.6716757, 35.2400305], [-96.6715735, 35.240031], [-96.6715725, 35.2398973], [-96.671783, 35.2398962]]]}, "properties": {"osm_id": 880513184, "building": "commercial", "name": "", "height": null, "height_m": null, "levels": null, "tract_id": "40133583400", "tract_name": "5834", "tags": {"building": "commercial"}}}, {"type": "Feature", "geometry": {"type": "Polygon", "coordinates": [[[-96.6720128, 35.2407726], [-96.6716838, 35.2407691], [-96.671682, 35.2408838], [-96.672011, 35.2408872], [-96.6720128, 35.2407726]]]}, "properties": {"osm_id": 880513185, "building": "commercial", "name": "", "height": null, "height_m": null, "levels": null, "tract_id": "40133583400", "tract_name": "5834", "tags": {"building": "commercial"}}}, {"type": "Feature", "geometry": {"type": "Polygon", "coordinates": [[[-96.6721926, 35.2407745], [-96.6721908, 35.2408891], [-96.6725162, 35.2408926], [-96.672518, 35.2407779], [-96.6724267, 35.2407769], [-96.6724272, 35.2407502], [-96.6722823, 35.2407486], [-96.6722819, 35.2407754], [-96.6721926, 35.2407745]]]}, "properties": {"osm_id": 880513186, "building": "commercial", "name": "", "height": null, "height_m": null, "levels": null, "tract_id": "40133583400", "tract_name": "5834", "tags": {"building": "commercial"}}}, {"type": "Feature", "geometry": {"type": "Polygon", "coordinates": [[[-96.6723827, 35.2399947], [-96.6726802, 35.2399934], [-96.6730413, 35.2399918], [-96.6730396, 35.2397297], [-96.6729506, 35.2397301], [-96.67295, 35.2396276], [-96.672896, 35.2396279], [-96.6728941, 35.2393206], [-96.6723806, 35.2393227], [-96.6723811, 35.2394017], [-96.6723384, 35.2394276], [-96.6723407, 35.2395085], [-96.6723154, 35.2395089], [-96.6723191, 35.239634], [-96.6723404, 35.2396336], [-96.6723427, 35.2397133], [-96.6723811, 35.2397474], [-96.6723827, 35.2399947]]]}, "properties": {"osm_id": 880513187, "building": "commercial", "name": "Cash Saver", "height": null, "height_m": null, "levels": null, "tract_id": "40133583400", "tract_name": "5834", "tags": {"addr:city": "Seminole", "addr:housenumber": "1701", "addr:postcode": "74868", "addr:state": "OK", "addr:street": "North Milt Phillips Avenue", "building": "commercial", "name": "Cash Saver", "phone": "+1-405-382-5135", "shop": "supermarket", "website": "https://www.cashsaverfoods.com"}}}, {"type": "Feature", "geometry": {"type": "Polygon", "coordinates": [[[-96.6723827, 35.2399947], [-96.6726802, 35.2399934], [-96.6726802, 35.2402872], [-96.6723892, 35.2402872], [-96.6723827, 35.2399947]]]}, "properties": {"osm_id": 880513188, "building": "commercial", "name": "Seminole Maple Garden", "height": null, "height_m": null, "levels": null, "tract_id": "40133583400", "tract_name": "5834", "tags": {"addr:city": "Seminole", "addr:housenumber": "1713", "addr:postcode": "74868", "addr:state": "OK", "addr:street": "North Milt Phillips Avenue", "amenity": "restaurant", "building": "commercial", "cuisine": "chinese", "name": "Seminole Maple Garden", "phone": "+1-405-382-1160", "website": "https://seminolemaplegardenok.com"}}}, {"type": "Feature", "geometry": {"type": "Polygon", "coordinates": [[[-96.6723892, 35.2402872], [-96.6726802, 35.2402872], [-96.6729203, 35.2402872], [-96.6729203, 35.2405632], [-96.6723892, 35.2405632], [-96.6723892, 35.2402872]]]}, "properties": {"osm_id": 880513189, "building": "commercial", "name": "Sharpe's", "height": null, "height_m": null, "levels": null, "tract_id": "40133583400", "tract_name": "5834", "tags": {"addr:city": "Seminole", "addr:housenumber": "1725", "addr:postcode": "74868", "addr:state": "OK", "addr:street": "North Milt Phillips Avenue", "building": "commercial", "name": "Sharpe's", "phone": "+1-405-382-0952", "shop": "department_store", "website": "https://sharpeclothing.com"}}}, {"type": "Feature", "geometry": {"type": "Polygon", "coordinates": [[[-96.6717978, 35.2433026], [-96.6717016, 35.2433039], [-96.6716999, 35.2432183], [-96.6716772, 35.2432186], [-96.6716754, 35.243132], [-96.6716981, 35.2431317], [-96.6716976, 35.24311], [-96.6717938, 35.2431087], [-96.6717978, 35.2433026]]]}, "properties": {"osm_id": 880513193, "building": "commercial", "name": "", "height": null, "height_m": null, "levels": null, "tract_id": "40133583400", "tract_name": "5834", "tags": {"building": "commercial"}}}, {"type": "Feature", "geometry": {"type": "Polygon", "coordinates": [[[-96.6718179, 35.2437374], [-96.6718169, 35.2436632], [-96.6715808, 35.2436654], [-96.6715819, 35.2437396], [-96.6718179, 35.2437374]]]}, "properties": {"osm_id": 880513194, "building": "commercial", "name": "", "height": null, "height_m": null, "levels": null, "tract_id": "40133583400", "tract_name": "5834", "tags": {"building": "commercial"}}}, {"type": "Feature", "geometry": {"type": "Polygon", "coordinates": [[[-96.7332901, 35.2897871], [-96.7331989, 35.2898589], [-96.7330661, 35.2897466], [-96.7331375, 35.2896904], [-96.7331988, 35.2897424], [-96.7332188, 35.2897267], [-96.7332901, 35.2897871]]]}, "properties": {"osm_id": 989787621, "building": "yes", "name": "", "height": null, "height_m": null, "levels": null, "tract_id": "40133583400", "tract_name": "5834", "tags": {"building": "yes"}}}, {"type": "Feature", "geometry": {"type": "Polygon", "coordinates": [[[-96.7327977, 35.200406], [-96.7326709, 35.2003872], [-96.7326885, 35.2003077], [-96.7328153, 35.2003264], [-96.7327977, 35.200406]]]}, "properties": {"osm_id": 1021696682, "building": "barn", "name": "", "height": null, "height_m": null, "levels": null, "tract_id": "40133583400", "tract_name": "5834", "tags": {"building": "barn"}}}, {"type": "Feature", "geometry": {"type": "Polygon", "coordinates": [[[-96.7320494, 35.1995988], [-96.7321066, 35.1995731], [-96.7321687, 35.1996655], [-96.7322507, 35.1996287], [-96.7321888, 35.1995366], [-96.7322054, 35.1995292], [-96.7321201, 35.1994023], [-96.7319643, 35.1994722], [-96.7320494, 35.1995988]]]}, "properties": {"osm_id": 1021696683, "building": "house", "name": "", "height": null, "height_m": null, "levels": null, "tract_id": "40133583400", "tract_name": "5834", "tags": {"addr:city": "Seminole", "addr:housenumber": "12565", "addr:postcode": "74868", "addr:state": "OK", "addr:street": "CR 3520", "building": "house"}}}, {"type": "Feature", "geometry": {"type": "Polygon", "coordinates": [[[-96.6791846, 35.2459652], [-96.679025, 35.2459652], [-96.679025, 35.2460342], [-96.6789365, 35.2460342], [-96.6789365, 35.2459652], [-96.6789284, 35.2459652], [-96.6789284, 35.2458173], [-96.6790451, 35.2458173], [-96.6790451, 35.2458053], [-96.6791551, 35.2458053], [-96.6791551, 35.2458173], [-96.6791846, 35.2458173], [-96.6791846, 35.2459652]]]}, "properties": {"osm_id": 1153893498, "building": "yes", "name": "", "height": null, "height_m": null, "levels": null, "tract_id": "40133583400", "tract_name": "5834", "tags": {"building": "yes"}}}, {"type": "Feature", "geometry": {"type": "Polygon", "coordinates": [[[-96.6794072, 35.2460309], [-96.679367, 35.2460307], [-96.6793669, 35.2460421], [-96.679277, 35.2460416], [-96.6792771, 35.2460302], [-96.679241, 35.2460299], [-96.6792436, 35.2457222], [-96.6794523, 35.2457234], [-96.6794512, 35.2458537], [-96.6794088, 35.2458535], [-96.6794072, 35.2460309]]]}, "properties": {"osm_id": 1153893499, "building": "church", "name": "", "height": null, "height_m": null, "levels": null, "tract_id": "40133583400", "tract_name": "5834", "tags": {"addr:city": "Seminole", "addr:housenumber": "811", "addr:postcode": "74868", "addr:state": "OK", "addr:street": "Wrangler Boulevard West", "building": "church"}}}, {"type": "Feature", "geometry": {"type": "Polygon", "coordinates": [[[-96.6749789, 35.2351992], [-96.6749802, 35.2353449], [-96.6748719, 35.2353456], [-96.6748705, 35.2351999], [-96.6749789, 35.2351992]]]}, "properties": {"osm_id": 1207998863, "building": "yes", "name": "", "height": null, "height_m": null, "levels": null, "tract_id": "40133583400", "tract_name": "5834", "tags": {"building": "yes"}}}, {"type": "Feature", "geometry": {"type": "Polygon", "coordinates": [[[-96.6719778, 35.2322165], [-96.6719759, 35.2323877], [-96.6718731, 35.232387], [-96.671875, 35.2322158], [-96.6719778, 35.2322165]]]}, "properties": {"osm_id": 1207998900, "building": "yes", "name": "", "height": null, "height_m": null, "levels": null, "tract_id": "40133583400", "tract_name": "5834", "tags": {"building": "yes"}}}, {"type": "Feature", "geometry": {"type": "Polygon", "coordinates": [[[-96.672813, 35.2330659], [-96.6728023, 35.2332291], [-96.6727061, 35.2332249], [-96.6727169, 35.2330617], [-96.672813, 35.2330659]]]}, "properties": {"osm_id": 1207998919, "building": "yes", "name": "", "height": null, "height_m": null, "levels": null, "tract_id": "40133583400", "tract_name": "5834", "tags": {"building": "yes"}}}, {"type": "Feature", "geometry": {"type": "Polygon", "coordinates": [[[-96.6985381, 35.2369967], [-96.6982672, 35.2369989], [-96.6982649, 35.2368153], [-96.6985358, 35.2368131], [-96.6985381, 35.2369967]]]}, "properties": {"osm_id": 1208171619, "building": "yes", "name": "", "height": null, "height_m": null, "levels": null, "tract_id": "40133583400", "tract_name": "5834", "tags": {"building": "yes"}}}, {"type": "Feature", "geometry": {"type": "Polygon", "coordinates": [[[-96.6952207, 35.2393301], [-96.6950291, 35.239327], [-96.6950313, 35.2392361], [-96.6952229, 35.2392392], [-96.6952207, 35.2393301]]]}, "properties": {"osm_id": 1208171620, "building": "yes", "name": "", "height": null, "height_m": null, "levels": null, "tract_id": "40133583400", "tract_name": "5834", "tags": {"building": "yes"}}}, {"type": "Feature", "geometry": {"type": "Polygon", "coordinates": [[[-96.693977, 35.239412], [-96.6941834, 35.2394125], [-96.694182, 35.2397806], [-96.6939756, 35.23978], [-96.693977, 35.239412]]]}, "properties": {"osm_id": 1208171621, "building": "yes", "name": "", "height": null, "height_m": null, "levels": null, "tract_id": "40133583400", "tract_name": "5834", "tags": {"building": "yes"}}}, {"type": "Feature", "geometry": {"type": "Polygon", "coordinates": [[[-96.6952001, 35.2405577], [-96.6954093, 35.2407494], [-96.6952346, 35.2408766], [-96.6950254, 35.2406849], [-96.6952001, 35.2405577]]]}, "properties": {"osm_id": 1208171622, "building": "yes", "name": "", "height": null, "height_m": null, "levels": null, "tract_id": "40133583400", "tract_name": "5834", "tags": {"building": "yes"}}}, {"type": "Feature", "geometry": {"type": "Polygon", "coordinates": [[[-96.6911298, 35.2432533], [-96.6911177, 35.2431675], [-96.6913859, 35.2431423], [-96.691398, 35.2432281], [-96.6911298, 35.2432533]]]}, "properties": {"osm_id": 1208171623, "building": "yes", "name": "", "height": null, "height_m": null, "levels": null, "tract_id": "40133583400", "tract_name": "5834", "tags": {"building": "yes"}}}, {"type": "Feature", "geometry": {"type": "Polygon", "coordinates": [[[-96.6976465, 35.247099], [-96.6976427, 35.2471811], [-96.6975451, 35.2471781], [-96.6975489, 35.247096], [-96.6976465, 35.247099]]]}, "properties": {"osm_id": 1208171624, "building": "yes", "name": "", "height": null, "height_m": null, "levels": null, "tract_id": "40133583400", "tract_name": "5834", "tags": {"building": "yes"}}}, {"type": "Feature", "geometry": {"type": "Polygon", "coordinates": [[[-96.6991932, 35.2472987], [-96.6991992, 35.2474065], [-96.6990864, 35.2474108], [-96.6990804, 35.2473029], [-96.6991932, 35.2472987]]]}, "properties": {"osm_id": 1208171625, "building": "yes", "name": "", "height": null, "height_m": null, "levels": null, "tract_id": "40133583400", "tract_name": "5834", "tags": {"building": "yes"}}}, {"type": "Feature", "geometry": {"type": "Polygon", "coordinates": [[[-96.7014025, 35.2477659], [-96.701585, 35.2480013], [-96.7013456, 35.2481251], [-96.7012415, 35.2479909], [-96.701313, 35.247954], [-96.7012345, 35.2478528], [-96.7014025, 35.2477659]]]}, "properties": {"osm_id": 1208171626, "building": "yes", "name": "", "height": null, "height_m": null, "levels": null, "tract_id": "40133583400", "tract_name": "5834", "tags": {"building": "yes"}}}, {"type": "Feature", "geometry": {"type": "Polygon", "coordinates": [[[-96.6942331, 35.2455638], [-96.6942353, 35.2454578], [-96.6943936, 35.24546], [-96.6943914, 35.245566], [-96.6942331, 35.2455638]]]}, "properties": {"osm_id": 1208171629, "building": "yes", "name": "", "height": null, "height_m": null, "levels": null, "tract_id": "40133583400", "tract_name": "5834", "tags": {"building": "yes"}}}, {"type": "Feature", "geometry": {"type": "Polygon", "coordinates": [[[-96.6939045, 35.2453267], [-96.6939562, 35.2454592], [-96.6938357, 35.2454905], [-96.693784, 35.245358], [-96.6939045, 35.2453267]]]}, "properties": {"osm_id": 1208171630, "building": "yes", "name": "", "height": null, "height_m": null, "levels": null, "tract_id": "40133583400", "tract_name": "5834", "tags": {"building": "yes"}}}, {"type": "Feature", "geometry": {"type": "Polygon", "coordinates": [[[-96.6895654, 35.2489634], [-96.6894025, 35.2489618], [-96.6894036, 35.2488861], [-96.6895666, 35.2488877], [-96.6895654, 35.2489634]]]}, "properties": {"osm_id": 1208171631, "building": "yes", "name": "", "height": null, "height_m": null, "levels": null, "tract_id": "40133583400", "tract_name": "5834", "tags": {"building": "yes"}}}, {"type": "Feature", "geometry": {"type": "Polygon", "coordinates": [[[-96.6846869, 35.2495912], [-96.6846793, 35.2484868], [-96.686174, 35.24848], [-96.6861816, 35.2495843], [-96.6846869, 35.2495912]]]}, "properties": {"osm_id": 1208171634, "building": "yes", "name": "", "height": null, "height_m": null, "levels": null, "tract_id": "40133583400", "tract_name": "5834", "tags": {"building": "yes"}}}, {"type": "Feature", "geometry": {"type": "Polygon", "coordinates": [[[-96.6811225, 35.2479312], [-96.6808556, 35.2479257], [-96.6808589, 35.2478171], [-96.6811258, 35.2478226], [-96.6811225, 35.2479312]]]}, "properties": {"osm_id": 1208171635, "building": "yes", "name": "", "height": null, "height_m": null, "levels": null, "tract_id": "40133583400", "tract_name": "5834", "tags": {"building": "yes"}}}, {"type": "Feature", "geometry": {"type": "Polygon", "coordinates": [[[-96.6783384, 35.2474208], [-96.6783544, 35.2475369], [-96.6782413, 35.2475473], [-96.6782252, 35.2474312], [-96.6783384, 35.2474208]]]}, "properties": {"osm_id": 1208171636, "building": "yes", "name": "", "height": null, "height_m": null, "levels": null, "tract_id": "40133583400", "tract_name": "5834", "tags": {"building": "yes"}}}, {"type": "Feature", "geometry": {"type": "Polygon", "coordinates": [[[-96.6851332, 35.2454812], [-96.6852733, 35.2454827], [-96.6852731, 35.2454936], [-96.6855219, 35.2454963], [-96.685518, 35.2457392], [-96.6852727, 35.2457366], [-96.6852724, 35.2457561], [-96.6851288, 35.2457545], [-96.6851332, 35.2454812]]]}, "properties": {"osm_id": 1208171639, "building": "church", "name": "", "height": null, "height_m": null, "levels": null, "tract_id": "40133583400", "tract_name": "5834", "tags": {"building": "church"}}}, {"type": "Feature", "geometry": {"type": "Polygon", "coordinates": [[[-96.6862725, 35.2458924], [-96.6860392, 35.2458862], [-96.6860468, 35.2456952], [-96.6862801, 35.2457014], [-96.6862725, 35.2458924]]]}, "properties": {"osm_id": 1208171640, "building": "yes", "name": "", "height": null, "height_m": null, "levels": null, "tract_id": "40133583400", "tract_name": "5834", "tags": {"building": "yes"}}}, {"type": "Feature", "geometry": {"type": "Polygon", "coordinates": [[[-96.6911468, 35.2480438], [-96.6908936, 35.2480462], [-96.6908925, 35.2479666], [-96.6911457, 35.2479643], [-96.6911468, 35.2480438]]]}, "properties": {"osm_id": 1208171645, "building": "yes", "name": "", "height": null, "height_m": null, "levels": null, "tract_id": "40133583400", "tract_name": "5834", "tags": {"building": "yes"}}}, {"type": "Feature", "geometry": {"type": "Polygon", "coordinates": [[[-96.6907902, 35.2479308], [-96.6907897, 35.247847], [-96.6911339, 35.2478455], [-96.6911345, 35.2479292], [-96.6907902, 35.2479308]]]}, "properties": {"osm_id": 1208171646, "building": "yes", "name": "", "height": null, "height_m": null, "levels": null, "tract_id": "40133583400", "tract_name": "5834", "tags": {"building": "yes"}}}, {"type": "Feature", "geometry": {"type": "Polygon", "coordinates": [[[-96.7021161, 35.2532779], [-96.7021105, 35.2531934], [-96.7023331, 35.2531836], [-96.7023388, 35.253268], [-96.7021161, 35.2532779]]]}, "properties": {"osm_id": 1208171647, "building": "yes", "name": "", "height": null, "height_m": null, "levels": null, "tract_id": "40133583400", "tract_name": "5834", "tags": {"building": "yes"}}}, {"type": "Feature", "geometry": {"type": "Polygon", "coordinates": [[[-96.7036502, 35.2535507], [-96.7036578, 35.2536909], [-96.7035391, 35.2536952], [-96.7035315, 35.253555], [-96.7036502, 35.2535507]]]}, "properties": {"osm_id": 1208171648, "building": "yes", "name": "", "height": null, "height_m": null, "levels": null, "tract_id": "40133583400", "tract_name": "5834", "tags": {"building": "yes"}}}, {"type": "Feature", "geometry": {"type": "Polygon", "coordinates": [[[-96.7041077, 35.2550774], [-96.704093, 35.2549686], [-96.7041893, 35.2549599], [-96.704204, 35.2550687], [-96.7041077, 35.2550774]]]}, "properties": {"osm_id": 1208171649, "building": "yes", "name": "", "height": null, "height_m": null, "levels": null, "tract_id": "40133583400", "tract_name": "5834", "tags": {"building": "yes"}}}, {"type": "Feature", "geometry": {"type": "Polygon", "coordinates": [[[-96.7042357, 35.2549094], [-96.7041276, 35.2549206], [-96.7041195, 35.254868], [-96.7042276, 35.2548568], [-96.7042357, 35.2549094]]]}, "properties": {"osm_id": 1208171650, "building": "yes", "name": "", "height": null, "height_m": null, "levels": null, "tract_id": "40133583400", "tract_name": "5834", "tags": {"building": "yes"}}}, {"type": "Feature", "geometry": {"type": "Polygon", "coordinates": [[[-96.6715994, 35.283511], [-96.6714306, 35.2835133], [-96.6714283, 35.2834046], [-96.6715971, 35.2834022], [-96.6715994, 35.283511]]]}, "properties": {"osm_id": 1208171651, "building": "yes", "name": "", "height": null, "height_m": null, "levels": null, "tract_id": "40133583400", "tract_name": "5834", "tags": {"building": "yes"}}}, {"type": "Feature", "geometry": {"type": "Polygon", "coordinates": [[[-96.6719503, 35.2701883], [-96.6719546, 35.2701404], [-96.6720323, 35.2701451], [-96.672028, 35.270193], [-96.6719503, 35.2701883]]]}, "properties": {"osm_id": 1208171653, "building": "yes", "name": "", "height": null, "height_m": null, "levels": null, "tract_id": "40133583400", "tract_name": "5834", "tags": {"building": "yes"}}}, {"type": "Feature", "geometry": {"type": "Polygon", "coordinates": [[[-96.6722846, 35.2702204], [-96.6720982, 35.2702554], [-96.6720486, 35.2700794], [-96.672235, 35.2700444], [-96.6722846, 35.2702204]]]}, "properties": {"osm_id": 1208171654, "building": "yes", "name": "", "height": null, "height_m": null, "levels": null, "tract_id": "40133583400", "tract_name": "5834", "tags": {"building": "yes"}}}, {"type": "Feature", "geometry": {"type": "Polygon", "coordinates": [[[-96.6721451, 35.2702773], [-96.6723489, 35.2702391], [-96.6723945, 35.2704012], [-96.6721907, 35.2704394], [-96.6721451, 35.2702773]]]}, "properties": {"osm_id": 1208171655, "building": "yes", "name": "", "height": null, "height_m": null, "levels": null, "tract_id": "40133583400", "tract_name": "5834", "tags": {"building": "yes"}}}, {"type": "Feature", "geometry": {"type": "Polygon", "coordinates": [[[-96.6725069, 35.27081], [-96.6720422, 35.2708975], [-96.6720048, 35.270765], [-96.6724695, 35.2706775], [-96.6725069, 35.27081]]]}, "properties": {"osm_id": 1208171656, "building": "yes", "name": "", "height": null, "height_m": null, "levels": null, "tract_id": "40133583400", "tract_name": "5834", "tags": {"building": "yes"}}}, {"type": "Feature", "geometry": {"type": "Polygon", "coordinates": [[[-96.67264, 35.2711741], [-96.6721009, 35.2712639], [-96.6720654, 35.2711218], [-96.6726045, 35.271032], [-96.67264, 35.2711741]]]}, "properties": {"osm_id": 1208171657, "building": "yes", "name": "", "height": null, "height_m": null, "levels": null, "tract_id": "40133583400", "tract_name": "5834", "tags": {"building": "yes"}}}, {"type": "Feature", "geometry": {"type": "Polygon", "coordinates": [[[-96.6718474, 35.2722537], [-96.671547, 35.2722558], [-96.6715451, 35.2720866], [-96.6718456, 35.2720844], [-96.6718474, 35.2722537]]]}, "properties": {"osm_id": 1208171658, "building": "yes", "name": "", "height": null, "height_m": null, "levels": null, "tract_id": "40133583400", "tract_name": "5834", "tags": {"building": "yes"}}}, {"type": "Feature", "geometry": {"type": "Polygon", "coordinates": [[[-96.6721391, 35.2731548], [-96.6722881, 35.2731009], [-96.6723679, 35.2732482], [-96.6722189, 35.273302], [-96.6721391, 35.2731548]]]}, "properties": {"osm_id": 1208171659, "building": "yes", "name": "", "height": null, "height_m": null, "levels": null, "tract_id": "40133583400", "tract_name": "5834", "tags": {"building": "yes"}}}, {"type": "Feature", "geometry": {"type": "Polygon", "coordinates": [[[-96.6718876, 35.2731219], [-96.6718045, 35.2729588], [-96.6719578, 35.2729067], [-96.6720409, 35.2730698], [-96.6718876, 35.2731219]]]}, "properties": {"osm_id": 1208171660, "building": "yes", "name": "", "height": null, "height_m": null, "levels": null, "tract_id": "40133583400", "tract_name": "5834", "tags": {"building": "yes"}}}, {"type": "Feature", "geometry": {"type": "Polygon", "coordinates": [[[-96.6721504, 35.2724769], [-96.6715871, 35.2726751], [-96.6715453, 35.272596], [-96.6721086, 35.2723978], [-96.6721504, 35.2724769]]]}, "properties": {"osm_id": 1208171661, "building": "yes", "name": "", "height": null, "height_m": null, "levels": null, "tract_id": "40133583400", "tract_name": "5834", "tags": {"building": "yes"}}}, {"type": "Feature", "geometry": {"type": "Polygon", "coordinates": [[[-96.6724652, 35.2726984], [-96.6719095, 35.2728811], [-96.6718658, 35.2727926], [-96.6724215, 35.2726099], [-96.6724652, 35.2726984]]]}, "properties": {"osm_id": 1208171662, "building": "yes", "name": "", "height": null, "height_m": null, "levels": null, "tract_id": "40133583400", "tract_name": "5834", "tags": {"building": "yes"}}}, {"type": "Feature", "geometry": {"type": "Polygon", "coordinates": [[[-96.6727781, 35.2728981], [-96.6722319, 35.2730994], [-96.6721865, 35.2730173], [-96.6727328, 35.272816], [-96.6727781, 35.2728981]]]}, "properties": {"osm_id": 1208171663, "building": "yes", "name": "", "height": null, "height_m": null, "levels": null, "tract_id": "40133583400", "tract_name": "5834", "tags": {"building": "yes"}}}, {"type": "Feature", "geometry": {"type": "Polygon", "coordinates": [[[-96.6903483, 35.245643], [-96.6904657, 35.2456434], [-96.6904638, 35.2460074], [-96.6903464, 35.246007], [-96.6903483, 35.245643]]]}, "properties": {"osm_id": 1208171664, "building": "yes", "name": "", "height": null, "height_m": null, "levels": null, "tract_id": "40133583400", "tract_name": "5834", "tags": {"building": "yes"}}}, {"type": "Feature", "geometry": {"type": "Polygon", "coordinates": [[[-96.6908244, 35.2459032], [-96.690821, 35.2457229], [-96.6910694, 35.2457198], [-96.6910728, 35.2459001], [-96.6908244, 35.2459032]]]}, "properties": {"osm_id": 1208171665, "building": "yes", "name": "", "height": null, "height_m": null, "levels": null, "tract_id": "40133583400", "tract_name": "5834", "tags": {"building": "yes"}}}, {"type": "Feature", "geometry": {"type": "Polygon", "coordinates": [[[-96.6902004, 35.2461758], [-96.6901996, 35.2460547], [-96.6905409, 35.2460532], [-96.6905418, 35.2461743], [-96.6902004, 35.2461758]]]}, "properties": {"osm_id": 1208171666, "building": "yes", "name": "", "height": null, "height_m": null, "levels": null, "tract_id": "40133583400", "tract_name": "5834", "tags": {"building": "yes"}}}, {"type": "Feature", "geometry": {"type": "Polygon", "coordinates": [[[-96.692537, 35.2456895], [-96.6918618, 35.2456941], [-96.6918611, 35.2456246], [-96.6925363, 35.2456199], [-96.692537, 35.2456895]]]}, "properties": {"osm_id": 1208171667, "building": "yes", "name": "", "height": null, "height_m": null, "levels": null, "tract_id": "40133583400", "tract_name": "5834", "tags": {"building": "yes"}}}, {"type": "Feature", "geometry": {"type": "Polygon", "coordinates": [[[-96.6919775, 35.2460674], [-96.6925503, 35.2460612], [-96.6925512, 35.2461185], [-96.6919784, 35.2461247], [-96.6919775, 35.2460674]]]}, "properties": {"osm_id": 1208171668, "building": "yes", "name": "", "height": null, "height_m": null, "levels": null, "tract_id": "40133583400", "tract_name": "5834", "tags": {"building": "yes"}}}, {"type": "Feature", "geometry": {"type": "Polygon", "coordinates": [[[-96.6924668, 35.2459001], [-96.6924668, 35.24599], [-96.6919282, 35.24599], [-96.6919282, 35.2459001], [-96.6924668, 35.2459001]]]}, "properties": {"osm_id": 1208171669, "building": "yes", "name": "", "height": null, "height_m": null, "levels": null, "tract_id": "40133583400", "tract_name": "5834", "tags": {"building": "yes"}}}, {"type": "Feature", "geometry": {"type": "Polygon", "coordinates": [[[-96.6919434, 35.2458459], [-96.6919414, 35.2457603], [-96.6924611, 35.2457526], [-96.692463, 35.2458382], [-96.6919434, 35.2458459]]]}, "properties": {"osm_id": 1208171670, "building": "yes", "name": "", "height": null, "height_m": null, "levels": null, "tract_id": "40133583400", "tract_name": "5834", "tags": {"building": "yes"}}}, {"type": "Feature", "geometry": {"type": "Polygon", "coordinates": [[[-96.6953971, 35.2458653], [-96.6953887, 35.2457552], [-96.6957102, 35.245739], [-96.6957186, 35.245849], [-96.6953971, 35.2458653]]]}, "properties": {"osm_id": 1208171671, "building": "yes", "name": "", "height": null, "height_m": null, "levels": null, "tract_id": "40133583400", "tract_name": "5834", "tags": {"building": "yes"}}}, {"type": "Feature", "geometry": {"type": "Polygon", "coordinates": [[[-96.6951543, 35.2458777], [-96.6951473, 35.2457705], [-96.6953597, 35.2457612], [-96.6953667, 35.2458684], [-96.6951543, 35.2458777]]]}, "properties": {"osm_id": 1208171672, "building": "yes", "name": "", "height": null, "height_m": null, "levels": null, "tract_id": "40133583400", "tract_name": "5834", "tags": {"building": "yes"}}}, {"type": "Feature", "geometry": {"type": "Polygon", "coordinates": [[[-96.6949134, 35.245887], [-96.6949078, 35.245787], [-96.6950728, 35.2457808], [-96.6950785, 35.2458808], [-96.6949134, 35.245887]]]}, "properties": {"osm_id": 1208171673, "building": "yes", "name": "", "height": null, "height_m": null, "levels": null, "tract_id": "40133583400", "tract_name": "5834", "tags": {"building": "yes"}}}, {"type": "Feature", "geometry": {"type": "Polygon", "coordinates": [[[-96.6950901, 35.2459937], [-96.6952293, 35.245984], [-96.6952467, 35.2461516], [-96.6951075, 35.2461612], [-96.6950901, 35.2459937]]]}, "properties": {"osm_id": 1208171674, "building": "yes", "name": "", "height": null, "height_m": null, "levels": null, "tract_id": "40133583400", "tract_name": "5834", "tags": {"building": "yes"}}}, {"type": "Feature", "geometry": {"type": "Polygon", "coordinates": [[[-96.6958505, 35.2459039], [-96.6959874, 35.2459034], [-96.6959888, 35.2461443], [-96.6958518, 35.2461448], [-96.6958505, 35.2459039]]]}, "properties": {"osm_id": 1208171675, "building": "yes", "name": "", "height": null, "height_m": null, "levels": null, "tract_id": "40133583400", "tract_name": "5834", "tags": {"building": "yes"}}}, {"type": "Feature", "geometry": {"type": "Polygon", "coordinates": [[[-96.7003548, 35.2674057], [-96.7003585, 35.2672964], [-96.7005634, 35.2673011], [-96.7005597, 35.2674103], [-96.7003548, 35.2674057]]]}, "properties": {"osm_id": 1208171676, "building": "yes", "name": "", "height": null, "height_m": null, "levels": null, "tract_id": "40133583400", "tract_name": "5834", "tags": {"building": "yes"}}}, {"type": "Feature", "geometry": {"type": "Polygon", "coordinates": [[[-96.6981894, 35.2613981], [-96.6982947, 35.2614048], [-96.6982839, 35.2615175], [-96.6981787, 35.2615109], [-96.6981894, 35.2613981]]]}, "properties": {"osm_id": 1208171677, "building": "yes", "name": "", "height": null, "height_m": null, "levels": null, "tract_id": "40133583400", "tract_name": "5834", "tags": {"building": "yes"}}}, {"type": "Feature", "geometry": {"type": "Polygon", "coordinates": [[[-96.6988197, 35.2615218], [-96.6988197, 35.2614079], [-96.698931, 35.2614079], [-96.698931, 35.2615218], [-96.6988197, 35.2615218]]]}, "properties": {"osm_id": 1208171678, "building": "yes", "name": "", "height": null, "height_m": null, "levels": null, "tract_id": "40133583400", "tract_name": "5834", "tags": {"building": "yes"}}}, {"type": "Feature", "geometry": {"type": "Polygon", "coordinates": [[[-96.6868036, 35.2743304], [-96.6866651, 35.2743335], [-96.6866604, 35.2741929], [-96.6867988, 35.2741898], [-96.6868036, 35.2743304]]]}, "properties": {"osm_id": 1208171684, "building": "yes", "name": "", "height": null, "height_m": null, "levels": null, "tract_id": "40133583400", "tract_name": "5834", "tags": {"building": "yes"}}}, {"type": "Feature", "geometry": {"type": "Polygon", "coordinates": [[[-96.6717492, 35.2781803], [-96.671891, 35.2781777], [-96.6718957, 35.2783488], [-96.671754, 35.2783514], [-96.6717492, 35.2781803]]]}, "properties": {"osm_id": 1208171687, "building": "yes", "name": "", "height": null, "height_m": null, "levels": null, "tract_id": "40133583400", "tract_name": "5834", "tags": {"building": "yes"}}}, {"type": "Feature", "geometry": {"type": "Polygon", "coordinates": [[[-96.6718858, 35.2791697], [-96.6718886, 35.2790081], [-96.6721513, 35.2790112], [-96.6721485, 35.2791728], [-96.6718858, 35.2791697]]]}, "properties": {"osm_id": 1208171688, "building": "yes", "name": "", "height": null, "height_m": null, "levels": null, "tract_id": "40133583400", "tract_name": "5834", "tags": {"building": "yes"}}}, {"type": "Feature", "geometry": {"type": "Polygon", "coordinates": [[[-96.6856542, 35.2618293], [-96.6856542, 35.2617085], [-96.6861227, 35.2617085], [-96.6861227, 35.2618293], [-96.6856542, 35.2618293]]]}, "properties": {"osm_id": 1208171689, "building": "yes", "name": "", "height": null, "height_m": null, "levels": null, "tract_id": "40133583400", "tract_name": "5834", "tags": {"building": "yes"}}}, {"type": "Feature", "geometry": {"type": "Polygon", "coordinates": [[[-96.6848011, 35.2585104], [-96.6848052, 35.2587929], [-96.6846251, 35.2587946], [-96.684621, 35.2585121], [-96.6848011, 35.2585104]]]}, "properties": {"osm_id": 1208171690, "building": "yes", "name": "", "height": null, "height_m": null, "levels": null, "tract_id": "40133583400", "tract_name": "5834", "tags": {"building": "yes"}}}, {"type": "Feature", "geometry": {"type": "Polygon", "coordinates": [[[-96.6879757, 35.2457452], [-96.6879794, 35.2459156], [-96.6878548, 35.2459175], [-96.687851, 35.2457471], [-96.6879757, 35.2457452]]]}, "properties": {"osm_id": 1208171691, "building": "yes", "name": "", "height": null, "height_m": null, "levels": null, "tract_id": "40133583400", "tract_name": "5834", "tags": {"building": "yes"}}}, {"type": "Feature", "geometry": {"type": "Polygon", "coordinates": [[[-96.6879738, 35.2459776], [-96.6879662, 35.2462502], [-96.6878673, 35.2462484], [-96.6878749, 35.2459758], [-96.6879738, 35.2459776]]]}, "properties": {"osm_id": 1208171692, "building": "yes", "name": "", "height": null, "height_m": null, "levels": null, "tract_id": "40133583400", "tract_name": "5834", "tags": {"building": "yes"}}}, {"type": "Feature", "geometry": {"type": "Polygon", "coordinates": [[[-96.6846603, 35.2499913], [-96.6832495, 35.2499913], [-96.6832495, 35.2492597], [-96.6846603, 35.2492597], [-96.6846603, 35.2499913]]]}, "properties": {"osm_id": 1208171693, "building": "yes", "name": "", "height": null, "height_m": null, "levels": null, "tract_id": "40133583400", "tract_name": "5834", "tags": {"building": "yes"}}}, {"type": "Feature", "geometry": {"type": "Polygon", "coordinates": [[[-96.6754656, 35.2374054], [-96.6753527, 35.237403], [-96.6753565, 35.2372814], [-96.6754694, 35.2372838], [-96.6754656, 35.2374054]]]}, "properties": {"osm_id": 1208171694, "building": "yes", "name": "", "height": null, "height_m": null, "levels": null, "tract_id": "40133583400", "tract_name": "5834", "tags": {"building": "yes"}}}, {"type": "Feature", "geometry": {"type": "Polygon", "coordinates": [[[-96.6756287, 35.2374054], [-96.6756287, 35.2372915], [-96.6757321, 35.2372915], [-96.6757321, 35.2374054], [-96.6756287, 35.2374054]]]}, "properties": {"osm_id": 1208171695, "building": "yes", "name": "", "height": null, "height_m": null, "levels": null, "tract_id": "40133583400", "tract_name": "5834", "tags": {"building": "yes"}}}, {"type": "Feature", "geometry": {"type": "Polygon", "coordinates": [[[-96.6779347, 35.2373111], [-96.677932, 35.2374327], [-96.677831, 35.2374312], [-96.6778337, 35.2373096], [-96.6779347, 35.2373111]]]}, "properties": {"osm_id": 1208171696, "building": "yes", "name": "", "height": null, "height_m": null, "levels": null, "tract_id": "40133583400", "tract_name": "5834", "tags": {"building": "yes"}}}, {"type": "Feature", "geometry": {"type": "Polygon", "coordinates": [[[-96.6807832, 35.2368757], [-96.6807826, 35.2368322], [-96.6808416, 35.2368317], [-96.6808422, 35.2368752], [-96.6807832, 35.2368757]]]}, "properties": {"osm_id": 1208171697, "building": "yes", "name": "", "height": null, "height_m": null, "levels": null, "tract_id": "40133583400", "tract_name": "5834", "tags": {"building": "yes"}}}, {"type": "Feature", "geometry": {"type": "Polygon", "coordinates": [[[-96.6800845, 35.2356374], [-96.6799973, 35.2356368], [-96.6799978, 35.2355836], [-96.680085, 35.2355841], [-96.6800845, 35.2356374]]]}, "properties": {"osm_id": 1208171698, "building": "yes", "name": "", "height": null, "height_m": null, "levels": null, "tract_id": "40133583400", "tract_name": "5834", "tags": {"building": "yes"}}}, {"type": "Feature", "geometry": {"type": "Polygon", "coordinates": [[[-96.6803064, 35.2357661], [-96.6801636, 35.235765], [-96.6801649, 35.2356482], [-96.6803078, 35.2356493], [-96.6803064, 35.2357661]]]}, "properties": {"osm_id": 1208171699, "building": "yes", "name": "", "height": null, "height_m": null, "levels": null, "tract_id": "40133583400", "tract_name": "5834", "tags": {"building": "yes"}}}, {"type": "Feature", "geometry": {"type": "Polygon", "coordinates": [[[-96.6803181, 35.2333505], [-96.6802005, 35.2333521], [-96.6801991, 35.2332794], [-96.6803167, 35.2332779], [-96.6803181, 35.2333505]]]}, "properties": {"osm_id": 1208171700, "building": "yes", "name": "", "height": null, "height_m": null, "levels": null, "tract_id": "40133583400", "tract_name": "5834", "tags": {"building": "yes"}}}, {"type": "Feature", "geometry": {"type": "Polygon", "coordinates": [[[-96.6796363, 35.2330508], [-96.6796315, 35.2328889], [-96.6797351, 35.2328869], [-96.6797398, 35.2330487], [-96.6796363, 35.2330508]]]}, "properties": {"osm_id": 1208171701, "building": "yes", "name": "", "height": null, "height_m": null, "levels": null, "tract_id": "40133583400", "tract_name": "5834", "tags": {"building": "yes"}}}, {"type": "Feature", "geometry": {"type": "Polygon", "coordinates": [[[-96.6795348, 35.2328881], [-96.6795339, 35.2330593], [-96.679436, 35.2330589], [-96.6794369, 35.2328877], [-96.6795348, 35.2328881]]]}, "properties": {"osm_id": 1208171702, "building": "yes", "name": "", "height": null, "height_m": null, "levels": null, "tract_id": "40133583400", "tract_name": "5834", "tags": {"building": "yes"}}}, {"type": "Feature", "geometry": {"type": "Polygon", "coordinates": [[[-96.6795306, 35.2327816], [-96.6794247, 35.2327847], [-96.679418, 35.2326291], [-96.6795239, 35.2326261], [-96.6795306, 35.2327816]]]}, "properties": {"osm_id": 1208171703, "building": "yes", "name": "", "height": null, "height_m": null, "levels": null, "tract_id": "40133583400", "tract_name": "5834", "tags": {"building": "yes"}}}, {"type": "Feature", "geometry": {"type": "Polygon", "coordinates": [[[-96.6797586, 35.23235], [-96.6797599, 35.2325439], [-96.6796462, 35.2325444], [-96.6796449, 35.2323505], [-96.6797586, 35.23235]]]}, "properties": {"osm_id": 1208171704, "building": "yes", "name": "", "height": null, "height_m": null, "levels": null, "tract_id": "40133583400", "tract_name": "5834", "tags": {"building": "yes"}}}, {"type": "Feature", "geometry": {"type": "Polygon", "coordinates": [[[-96.6774599, 35.233545], [-96.6772816, 35.2335388], [-96.6772859, 35.2334576], [-96.6774641, 35.2334638], [-96.6774599, 35.233545]]]}, "properties": {"osm_id": 1208171705, "building": "yes", "name": "", "height": null, "height_m": null, "levels": null, "tract_id": "40133583400", "tract_name": "5834", "tags": {"building": "yes"}}}, {"type": "Feature", "geometry": {"type": "Polygon", "coordinates": [[[-96.675715, 35.2326093], [-96.6755699, 35.2326077], [-96.6755712, 35.2325286], [-96.6757163, 35.2325301], [-96.675715, 35.2326093]]]}, "properties": {"osm_id": 1208171706, "building": "yes", "name": "", "height": null, "height_m": null, "levels": null, "tract_id": "40133583400", "tract_name": "5834", "tags": {"building": "yes"}}}, {"type": "Feature", "geometry": {"type": "Polygon", "coordinates": [[[-96.6754979, 35.2323428], [-96.6754998, 35.2324822], [-96.6753658, 35.2324834], [-96.6753639, 35.232344], [-96.6754979, 35.2323428]]]}, "properties": {"osm_id": 1208171707, "building": "yes", "name": "", "height": null, "height_m": null, "levels": null, "tract_id": "40133583400", "tract_name": "5834", "tags": {"building": "yes"}}}, {"type": "Feature", "geometry": {"type": "Polygon", "coordinates": [[[-96.6752163, 35.2331639], [-96.6752712, 35.2331639], [-96.6752712, 35.233257], [-96.6752163, 35.233257], [-96.6752163, 35.2331639]]]}, "properties": {"osm_id": 1208171708, "building": "yes", "name": "", "height": null, "height_m": null, "levels": null, "tract_id": "40133583400", "tract_name": "5834", "tags": {"building": "yes"}}}, {"type": "Feature", "geometry": {"type": "Polygon", "coordinates": [[[-96.675573, 35.2323018], [-96.675573, 35.2322186], [-96.6757675, 35.2322186], [-96.6757675, 35.2323018], [-96.675573, 35.2323018]]]}, "properties": {"osm_id": 1208171718, "building": "yes", "name": "", "height": null, "height_m": null, "levels": null, "tract_id": "40133583400", "tract_name": "5834", "tags": {"building": "yes"}}}, {"type": "Feature", "geometry": {"type": "Polygon", "coordinates": [[[-96.6766681, 35.2321592], [-96.6766719, 35.2323017], [-96.6765579, 35.2323038], [-96.6765541, 35.2321612], [-96.6766681, 35.2321592]]]}, "properties": {"osm_id": 1208171720, "building": "yes", "name": "", "height": null, "height_m": null, "levels": null, "tract_id": "40133583400", "tract_name": "5834", "tags": {"building": "yes"}}}, {"type": "Feature", "geometry": {"type": "Polygon", "coordinates": [[[-96.6774693, 35.2321348], [-96.6775284, 35.2321345], [-96.677529, 35.232221], [-96.67747, 35.2322213], [-96.6774693, 35.2321348]]]}, "properties": {"osm_id": 1208171721, "building": "yes", "name": "", "height": null, "height_m": null, "levels": null, "tract_id": "40133583400", "tract_name": "5834", "tags": {"building": "yes"}}}, {"type": "Feature", "geometry": {"type": "Polygon", "coordinates": [[[-96.6772285, 35.2321615], [-96.6773566, 35.2321593], [-96.6773642, 35.2324521], [-96.6772361, 35.2324543], [-96.6772285, 35.2321615]]]}, "properties": {"osm_id": 1208171722, "building": "yes", "name": "", "height": null, "height_m": null, "levels": null, "tract_id": "40133583400", "tract_name": "5834", "tags": {"building": "yes"}}}, {"type": "Feature", "geometry": {"type": "Polygon", "coordinates": [[[-96.6773774, 35.2324598], [-96.6773727, 35.2323025], [-96.6774651, 35.2323007], [-96.6774699, 35.2324579], [-96.6773774, 35.2324598]]]}, "properties": {"osm_id": 1208171723, "building": "yes", "name": "", "height": null, "height_m": null, "levels": null, "tract_id": "40133583400", "tract_name": "5834", "tags": {"building": "yes"}}}, {"type": "Feature", "geometry": {"type": "Polygon", "coordinates": [[[-96.6781797, 35.2324179], [-96.6779274, 35.2324187], [-96.6779267, 35.2322701], [-96.678179, 35.2322694], [-96.6781797, 35.2324179]]]}, "properties": {"osm_id": 1208171724, "building": "yes", "name": "", "height": null, "height_m": null, "levels": null, "tract_id": "40133583400", "tract_name": "5834", "tags": {"building": "yes"}}}, {"type": "Feature", "geometry": {"type": "Polygon", "coordinates": [[[-96.6842051, 35.2360427], [-96.6842704, 35.2360404], [-96.6842674, 35.2359836], [-96.6842022, 35.2359859], [-96.6842051, 35.2360427]]]}, "properties": {"osm_id": 1233931780, "building": "yes", "name": "", "height": null, "height_m": null, "levels": null, "tract_id": "40133583400", "tract_name": "5834", "tags": {"building": "yes", "source": "microsoft/BuildingFootprints"}}}, {"type": "Feature", "geometry": {"type": "Polygon", "coordinates": [[[-96.6834958, 35.2358884], [-96.6834966, 35.2359607], [-96.6834751, 35.2359608], [-96.6834803, 35.2363999], [-96.6839621, 35.2363962], [-96.683963, 35.2364728], [-96.6837601, 35.2364744], [-96.6837625, 35.2366738], [-96.6842667, 35.2366698], [-96.6842644, 35.2364727], [-96.6840015, 35.2364747], [-96.6840006, 35.2363959], [-96.6843144, 35.2363934], [-96.684312, 35.2361875], [-96.68373, 35.236192], [-96.683729, 35.236111], [-96.684023, 35.2361087], [-96.6840221, 35.2360266], [-96.6840606, 35.2360263], [-96.6840614, 35.2360876], [-96.6841623, 35.2360868], [-96.6841603, 35.235917], [-96.6840594, 35.2359178], [-96.6840601, 35.2359835], [-96.6839743, 35.2359842], [-96.6839733, 35.2358988], [-96.6835791, 35.2359019], [-96.6835789, 35.2358877], [-96.6834958, 35.2358884]]]}, "properties": {"osm_id": 1233931781, "building": "yes", "name": "", "height": null, "height_m": null, "levels": null, "tract_id": "40133583400", "tract_name": "5834", "tags": {"building": "yes", "source": "microsoft/BuildingFootprints"}}}, {"type": "Feature", "geometry": {"type": "Polygon", "coordinates": [[[-96.6830973, 35.2353274], [-96.6830952, 35.2354216], [-96.6829061, 35.2354188], [-96.6829082, 35.2353246], [-96.6830973, 35.2353274]]]}, "properties": {"osm_id": 1233932209, "building": "detached", "name": "", "height": null, "height_m": null, "levels": null, "tract_id": "40133583400", "tract_name": "5834", "tags": {"building": "detached"}}}, {"type": "Feature", "geometry": {"type": "Polygon", "coordinates": [[[-96.6831677, 35.2361763], [-96.683118, 35.2361779], [-96.6831167, 35.2361511], [-96.6831664, 35.2361495], [-96.6831677, 35.2361763]]]}, "properties": {"osm_id": 1233932210, "building": "yes", "name": "", "height": null, "height_m": null, "levels": null, "tract_id": "40133583400", "tract_name": "5834", "tags": {"building": "yes"}}}, {"type": "Feature", "geometry": {"type": "Polygon", "coordinates": [[[-96.6828525, 35.2366517], [-96.6830349, 35.2366517], [-96.6830349, 35.2368138], [-96.6828525, 35.2368138], [-96.6828525, 35.2366517]]]}, "properties": {"osm_id": 1233932211, "building": "detached", "name": "", "height": null, "height_m": null, "levels": null, "tract_id": "40133583400", "tract_name": "5834", "tags": {"building": "detached"}}}, {"type": "Feature", "geometry": {"type": "Polygon", "coordinates": [[[-96.6833195, 35.2353324], [-96.6831997, 35.2353301], [-96.6831967, 35.2354339], [-96.6833996, 35.2354378], [-96.683402, 35.2353549], [-96.6833393, 35.2353537], [-96.6833384, 35.2353847], [-96.683318, 35.2353843], [-96.6833195, 35.2353324]]]}, "properties": {"osm_id": 1233932212, "building": "detached", "name": "", "height": null, "height_m": null, "levels": null, "tract_id": "40133583400", "tract_name": "5834", "tags": {"building": "detached", "source": "microsoft/BuildingFootprints"}}}, {"type": "Feature", "geometry": {"type": "Polygon", "coordinates": [[[-96.683616, 35.2353266], [-96.6834809, 35.2353277], [-96.6834836, 35.2355402], [-96.6836188, 35.235539], [-96.683616, 35.2353266]]]}, "properties": {"osm_id": 1233932213, "building": "detached", "name": "", "height": null, "height_m": null, "levels": null, "tract_id": "40133583400", "tract_name": "5834", "tags": {"building": "detached", "source": "microsoft/BuildingFootprints"}}}, {"type": "Feature", "geometry": {"type": "Polygon", "coordinates": [[[-96.684076, 35.2354808], [-96.6840754, 35.2354228], [-96.6840523, 35.235423], [-96.6840516, 35.2353539], [-96.683939, 35.2353547], [-96.6839403, 35.2354818], [-96.684076, 35.2354808]]]}, "properties": {"osm_id": 1233932214, "building": "detached", "name": "", "height": null, "height_m": null, "levels": null, "tract_id": "40133583400", "tract_name": "5834", "tags": {"building": "detached", "source": "microsoft/BuildingFootprints"}}}, {"type": "Feature", "geometry": {"type": "Polygon", "coordinates": [[[-96.6830317, 35.2364896], [-96.6829995, 35.2364895], [-96.6829998, 35.2364107], [-96.6828497, 35.2364104], [-96.6828491, 35.2365658], [-96.6829973, 35.2365662], [-96.6829974, 35.2365526], [-96.6830314, 35.2365526], [-96.6830317, 35.2364896]]]}, "properties": {"osm_id": 1233932215, "building": "detached", "name": "", "height": null, "height_m": null, "levels": null, "tract_id": "40133583400", "tract_name": "5834", "tags": {"building": "detached", "source": "microsoft/BuildingFootprints"}}}, {"type": "Feature", "geometry": {"type": "Polygon", "coordinates": [[[-96.6828875, 35.2359539], [-96.6829901, 35.2361137], [-96.6830742, 35.2360776], [-96.6830185, 35.2359908], [-96.6831131, 35.2359502], [-96.6830663, 35.2358773], [-96.6828875, 35.2359539]]]}, "properties": {"osm_id": 1233932216, "building": "detached", "name": "", "height": null, "height_m": null, "levels": null, "tract_id": "40133583400", "tract_name": "5834", "tags": {"building": "detached", "source": "microsoft/BuildingFootprints"}}}, {"type": "Feature", "geometry": {"type": "Polygon", "coordinates": [[[-96.6839326, 35.2353003], [-96.6840329, 35.2353019], [-96.6840378, 35.2351026], [-96.6839375, 35.235101], [-96.6839326, 35.2353003]]]}, "properties": {"osm_id": 1233932217, "building": "detached", "name": "", "height": null, "height_m": null, "levels": null, "tract_id": "40133583400", "tract_name": "5834", "tags": {"building": "detached", "source": "microsoft/BuildingFootprints"}}}, {"type": "Feature", "geometry": {"type": "Polygon", "coordinates": [[[-96.6828902, 35.2370436], [-96.6829947, 35.2370459], [-96.6829993, 35.236908], [-96.6828948, 35.2369056], [-96.6828902, 35.2370436]]]}, "properties": {"osm_id": 1233932218, "building": "detached", "name": "", "height": null, "height_m": null, "levels": null, "tract_id": "40133583400", "tract_name": "5834", "tags": {"building": "detached", "source": "microsoft/BuildingFootprints"}}}, {"type": "Feature", "geometry": {"type": "Polygon", "coordinates": [[[-96.6829068, 35.2371891], [-96.682913, 35.2373028], [-96.683012, 35.2372993], [-96.6830059, 35.2371856], [-96.6829068, 35.2371891]]]}, "properties": {"osm_id": 1233932219, "building": "detached", "name": "", "height": null, "height_m": null, "levels": null, "tract_id": "40133583400", "tract_name": "5834", "tags": {"building": "detached", "source": "microsoft/BuildingFootprints"}}}, {"type": "Feature", "geometry": {"type": "Polygon", "coordinates": [[[-96.6828061, 35.2358802], [-96.6828882, 35.2358946], [-96.682922, 35.2357659], [-96.6827287, 35.235732], [-96.6827034, 35.2358284], [-96.6828146, 35.2358479], [-96.6828061, 35.2358802]]]}, "properties": {"osm_id": 1233932220, "building": "detached", "name": "", "height": null, "height_m": null, "levels": null, "tract_id": "40133583400", "tract_name": "5834", "tags": {"building": "detached", "source": "microsoft/BuildingFootprints"}}}, {"type": "Feature", "geometry": {"type": "Polygon", "coordinates": [[[-96.6828685, 35.2362394], [-96.6829006, 35.2362384], [-96.6829056, 35.2363446], [-96.6830386, 35.2363404], [-96.6830368, 35.2363032], [-96.6830646, 35.2363023], [-96.6830618, 35.2362443], [-96.6830323, 35.2362452], [-96.6830284, 35.2361621], [-96.682865, 35.2361672], [-96.6828685, 35.2362394]]]}, "properties": {"osm_id": 1233932221, "building": "detached", "name": "", "height": null, "height_m": null, "levels": null, "tract_id": "40133583400", "tract_name": "5834", "tags": {"building": "detached", "source": "microsoft/BuildingFootprints"}}}, {"type": "Feature", "geometry": {"type": "Polygon", "coordinates": [[[-96.675378, 35.2410645], [-96.675379, 35.2409515], [-96.6751476, 35.2409501], [-96.6751466, 35.2410632], [-96.675378, 35.2410645]]]}, "properties": {"osm_id": 1303527199, "building": "yes", "name": "", "height": null, "height_m": null, "levels": null, "tract_id": "40133583400", "tract_name": "5834", "tags": {"building": "yes"}}}, {"type": "Feature", "geometry": {"type": "Polygon", "coordinates": [[[-96.6747164, 35.2399342], [-96.6747286, 35.2397658], [-96.6746106, 35.2397601], [-96.6745984, 35.2399285], [-96.6747164, 35.2399342]]]}, "properties": {"osm_id": 1303527200, "building": "yes", "name": "", "height": null, "height_m": null, "levels": null, "tract_id": "40133583400", "tract_name": "5834", "tags": {"building": "yes"}}}, {"type": "Feature", "geometry": {"type": "Polygon", "coordinates": [[[-96.678466, 35.240716], [-96.6785778, 35.2406925], [-96.6785504, 35.2406057], [-96.6784386, 35.2406292], [-96.678466, 35.240716]]]}, "properties": {"osm_id": 1303527202, "building": "garage", "name": "", "height": null, "height_m": null, "levels": null, "tract_id": "40133583400", "tract_name": "5834", "tags": {"building": "garage"}}}, {"type": "Feature", "geometry": {"type": "Polygon", "coordinates": [[[-96.7056456, 35.2474406], [-96.7056421, 35.247376], [-96.7055607, 35.2473789], [-96.7055642, 35.2474435], [-96.7056456, 35.2474406]]]}, "properties": {"osm_id": 1341527178, "building": "yes", "name": "", "height": null, "height_m": null, "levels": null, "tract_id": "40133583400", "tract_name": "5834", "tags": {"building": "yes", "source": "microsoft/BuildingFootprints"}}}, {"type": "Feature", "geometry": {"type": "Polygon", "coordinates": [[[-96.7047405, 35.2471687], [-96.7044831, 35.2471645], [-96.7044784, 35.2473572], [-96.7047357, 35.2473614], [-96.7047405, 35.2471687]]]}, "properties": {"osm_id": 1341527179, "building": "yes", "name": "", "height": null, "height_m": null, "levels": null, "tract_id": "40133583400", "tract_name": "5834", "tags": {"building": "yes", "source": "microsoft/BuildingFootprints"}}}, {"type": "Feature", "geometry": {"type": "Polygon", "coordinates": [[[-96.7037948, 35.2474002], [-96.7037951, 35.2470366], [-96.7036637, 35.2470365], [-96.7036638, 35.2469905], [-96.7035243, 35.2469905], [-96.7035242, 35.2470365], [-96.7033864, 35.2470364], [-96.703386, 35.2474], [-96.7037948, 35.2474002]]]}, "properties": {"osm_id": 1341527180, "building": "yes", "name": "", "height": null, "height_m": null, "levels": null, "tract_id": "40133583400", "tract_name": "5834", "tags": {"building": "yes", "source": "microsoft/BuildingFootprints"}}}, {"type": "Feature", "geometry": {"type": "Polygon", "coordinates": [[[-96.7031118, 35.2471744], [-96.7032873, 35.2471968], [-96.7033142, 35.2470556], [-96.7032734, 35.2470504], [-96.7032828, 35.2470013], [-96.7031597, 35.2469856], [-96.7031514, 35.2470292], [-96.7030597, 35.2470175], [-96.7030252, 35.2471985], [-96.7031053, 35.2472087], [-96.7031118, 35.2471744]]]}, "properties": {"osm_id": 1341527181, "building": "yes", "name": "", "height": null, "height_m": null, "levels": null, "tract_id": "40133583400", "tract_name": "5834", "tags": {"building": "yes", "source": "microsoft/BuildingFootprints"}}}, {"type": "Feature", "geometry": {"type": "Polygon", "coordinates": [[[-96.7026267, 35.2472629], [-96.7029163, 35.2476714], [-96.7030107, 35.2476268], [-96.7030282, 35.2476515], [-96.7030968, 35.2477482], [-96.7030345, 35.2477777], [-96.7032299, 35.2480533], [-96.7034931, 35.2479289], [-96.7033035, 35.2476614], [-96.7031348, 35.2477412], [-96.7030596, 35.2476352], [-96.7030382, 35.247605], [-96.7031869, 35.2475348], [-96.7031322, 35.2474577], [-96.7031704, 35.2474396], [-96.7031267, 35.2473779], [-96.7030724, 35.2474036], [-96.7028859, 35.2471404], [-96.7026267, 35.2472629]]]}, "properties": {"osm_id": 1341527182, "building": "yes", "name": "", "height": null, "height_m": null, "levels": null, "tract_id": "40133583400", "tract_name": "5834", "tags": {"building": "yes", "source": "microsoft/BuildingFootprints"}}}, {"type": "Feature", "geometry": {"type": "Polygon", "coordinates": [[[-96.704137, 35.2480835], [-96.7040967, 35.2480255], [-96.7041514, 35.2480001], [-96.7040651, 35.2478759], [-96.7041016, 35.247859], [-96.7040521, 35.2477878], [-96.7040216, 35.2478019], [-96.7039779, 35.2477389], [-96.7037974, 35.2478226], [-96.7038089, 35.2478392], [-96.7036446, 35.2479154], [-96.7036895, 35.24798], [-96.7036647, 35.2479915], [-96.703655, 35.247996], [-96.70369, 35.2480463], [-96.703723, 35.2480937], [-96.7037777, 35.2480683], [-96.7038733, 35.2482058], [-96.704137, 35.2480835]]]}, "properties": {"osm_id": 1341527183, "building": "yes", "name": "", "height": null, "height_m": null, "levels": null, "tract_id": "40133583400", "tract_name": "5834", "tags": {"building": "yes", "source": "microsoft/BuildingFootprints"}}}, {"type": "Feature", "geometry": {"type": "Polygon", "coordinates": [[[-96.7043843, 35.2490885], [-96.704139, 35.2487557], [-96.7041543, 35.2487484], [-96.7041671, 35.2487423], [-96.7041523, 35.2487216], [-96.704146, 35.2487129], [-96.7042141, 35.2486805], [-96.7040588, 35.2484631], [-96.7040079, 35.2484874], [-96.7038597, 35.2482798], [-96.7037305, 35.2483413], [-96.7036966, 35.2482939], [-96.7035085, 35.2483835], [-96.7035517, 35.248444], [-96.7034436, 35.2484955], [-96.7037739, 35.2489581], [-96.703856, 35.248919], [-96.7040903, 35.2492246], [-96.704165, 35.2491896], [-96.7041748, 35.2492011], [-96.7043843, 35.2490885]]]}, "properties": {"osm_id": 1341527184, "building": "yes", "name": "", "height": null, "height_m": null, "levels": null, "tract_id": "40133583400", "tract_name": "5834", "tags": {"building": "yes", "source": "microsoft/BuildingFootprints"}}}, {"type": "Feature", "geometry": {"type": "Polygon", "coordinates": [[[-96.7051259, 35.2483933], [-96.7046651, 35.247766], [-96.7045882, 35.2478037], [-96.7045733, 35.2477835], [-96.7044992, 35.2478198], [-96.70452, 35.2478481], [-96.7043248, 35.2479438], [-96.7044353, 35.2480942], [-96.704384, 35.2481194], [-96.7044491, 35.2482079], [-96.7044266, 35.248219], [-96.7045839, 35.2484332], [-96.7045355, 35.2484569], [-96.7045989, 35.2485432], [-96.7046394, 35.2485234], [-96.7046979, 35.248603], [-96.7051259, 35.2483933]]]}, "properties": {"osm_id": 1341527185, "building": "yes", "name": "", "height": null, "height_m": null, "levels": null, "tract_id": "40133583400", "tract_name": "5834", "tags": {"building": "yes", "source": "microsoft/BuildingFootprints"}}}, {"type": "Feature", "geometry": {"type": "Polygon", "coordinates": [[[-96.7052898, 35.2488683], [-96.7051657, 35.2486891], [-96.7050051, 35.2487632], [-96.7049442, 35.2486753], [-96.7048182, 35.2487335], [-96.704982, 35.2489701], [-96.7049565, 35.2489818], [-96.7049904, 35.2490307], [-96.7050301, 35.2490124], [-96.7050572, 35.2490515], [-96.7051902, 35.24899], [-96.7051505, 35.2489327], [-96.7052898, 35.2488683]]]}, "properties": {"osm_id": 1341527186, "building": "yes", "name": "", "height": null, "height_m": null, "levels": null, "tract_id": "40133583400", "tract_name": "5834", "tags": {"building": "yes", "source": "microsoft/BuildingFootprints"}}}, {"type": "Feature", "geometry": {"type": "Polygon", "coordinates": [[[-96.7051207, 35.2490668], [-96.7050844, 35.249217], [-96.7051711, 35.2493258], [-96.7053556, 35.2493618], [-96.7054505, 35.2489807], [-96.7053839, 35.2489719], [-96.7053725, 35.2490068], [-96.7052673, 35.2489899], [-96.7051207, 35.2490668]]]}, "properties": {"osm_id": 1341527187, "building": "yes", "name": "", "height": null, "height_m": null, "levels": null, "tract_id": "40133583400", "tract_name": "5834", "tags": {"building": "yes", "source": "microsoft/BuildingFootprints"}}}, {"type": "Feature", "geometry": {"type": "Polygon", "coordinates": [[[-96.7052933, 35.2495369], [-96.7050414, 35.2491902], [-96.704608, 35.2494003], [-96.7046697, 35.2494853], [-96.7046439, 35.2494978], [-96.7048229, 35.249744], [-96.7050034, 35.2496565], [-96.7050146, 35.249672], [-96.7052933, 35.2495369]]]}, "properties": {"osm_id": 1341527188, "building": "yes", "name": "", "height": null, "height_m": null, "levels": null, "tract_id": "40133583400", "tract_name": "5834", "tags": {"building": "yes", "source": "microsoft/BuildingFootprints"}}}, {"type": "Feature", "geometry": {"type": "Polygon", "coordinates": [[[-96.7073343, 35.2478288], [-96.7072726, 35.2478604], [-96.7072993, 35.2478952], [-96.7073402, 35.2479485], [-96.7072217, 35.248009], [-96.7072718, 35.2480744], [-96.7072043, 35.2481088], [-96.7072797, 35.2482072], [-96.7073966, 35.2481475], [-96.7074195, 35.2481517], [-96.7074305, 35.248166], [-96.7074049, 35.2482596], [-96.7075811, 35.2482918], [-96.7076137, 35.2481729], [-96.7076531, 35.2481801], [-96.707718, 35.2482648], [-96.7078414, 35.2482018], [-96.7077914, 35.2481364], [-96.7078558, 35.2481035], [-96.7077811, 35.2480059], [-96.70768, 35.2480575], [-96.7076342, 35.2479977], [-96.7077248, 35.2479514], [-96.7076488, 35.2478522], [-96.7075706, 35.2478922], [-96.7075296, 35.2478386], [-96.7074081, 35.2479007], [-96.7074662, 35.2479766], [-96.7074613, 35.2479946], [-96.70736, 35.2478623], [-96.7073343, 35.2478288]]]}, "properties": {"osm_id": 1341527189, "building": "yes", "name": "", "height": null, "height_m": null, "levels": null, "tract_id": "40133583400", "tract_name": "5834", "tags": {"building": "yes", "source": "microsoft/BuildingFootprints"}}}, {"type": "Feature", "geometry": {"type": "Polygon", "coordinates": [[[-96.7059067, 35.2480768], [-96.7058976, 35.2481572], [-96.7059828, 35.2481635], [-96.7059918, 35.2480831], [-96.7059067, 35.2480768]]]}, "properties": {"osm_id": 1341527190, "building": "yes", "name": "", "height": null, "height_m": null, "levels": null, "tract_id": "40133583400", "tract_name": "5834", "tags": {"building": "yes", "source": "microsoft/BuildingFootprints"}}}, {"type": "Feature", "geometry": {"type": "Polygon", "coordinates": [[[-96.7084692, 35.2474088], [-96.708476, 35.2468656], [-96.7084063, 35.246865], [-96.7083306, 35.2468074], [-96.7081498, 35.2468059], [-96.7081099, 35.2468409], [-96.7080848, 35.2468218], [-96.70801, 35.2468212], [-96.7079637, 35.2468618], [-96.707963, 35.2469209], [-96.7079876, 35.2469396], [-96.7079299, 35.2469902], [-96.7079255, 35.2473446], [-96.7080008, 35.247402], [-96.7080656, 35.2473452], [-96.7081282, 35.2473457], [-96.7081262, 35.2475067], [-96.7083606, 35.2475086], [-96.7083619, 35.2474079], [-96.7084692, 35.2474088]]]}, "properties": {"osm_id": 1341527191, "building": "yes", "name": "", "height": null, "height_m": null, "levels": null, "tract_id": "40133583400", "tract_name": "5834", "tags": {"building": "yes", "source": "microsoft/BuildingFootprints"}}}, {"type": "Feature", "geometry": {"type": "Polygon", "coordinates": [[[-96.7074996, 35.2491526], [-96.7074834, 35.2492086], [-96.7074301, 35.2491983], [-96.707387, 35.2493465], [-96.7073438, 35.2493382], [-96.7073276, 35.2493942], [-96.707292, 35.2493873], [-96.7072999, 35.2493603], [-96.7072226, 35.2493454], [-96.707183, 35.2493377], [-96.707155, 35.2494341], [-96.7071929, 35.2494415], [-96.7072884, 35.24946], [-96.7072788, 35.2494931], [-96.7073155, 35.2495003], [-96.7072951, 35.2495708], [-96.7073179, 35.2495752], [-96.7072941, 35.2496571], [-96.7073335, 35.2496647], [-96.7073155, 35.249727], [-96.7075503, 35.2497724], [-96.7075666, 35.2497164], [-96.7076238, 35.2497275], [-96.7077569, 35.2492692], [-96.7077174, 35.2492616], [-96.7077358, 35.2491983], [-96.7074996, 35.2491526]]]}, "properties": {"osm_id": 1341527192, "building": "yes", "name": "", "height": null, "height_m": null, "levels": null, "tract_id": "40133583400", "tract_name": "5834", "tags": {"building": "yes", "source": "microsoft/BuildingFootprints"}}}, {"type": "Feature", "geometry": {"type": "Polygon", "coordinates": [[[-96.705977, 35.2505317], [-96.7060207, 35.2508052], [-96.706291, 35.2507764], [-96.7062466, 35.2504986], [-96.7062005, 35.2505035], [-96.7061953, 35.2504712], [-96.7060687, 35.2504847], [-96.7060746, 35.2505213], [-96.705977, 35.2505317]]]}, "properties": {"osm_id": 1341527193, "building": "yes", "name": "", "height": null, "height_m": null, "levels": null, "tract_id": "40133583400", "tract_name": "5834", "tags": {"building": "yes", "source": "microsoft/BuildingFootprints"}}}, {"type": "Feature", "geometry": {"type": "Polygon", "coordinates": [[[-96.6909019, 35.2469464], [-96.6911529, 35.2469501], [-96.6911512, 35.2470274], [-96.691272, 35.2470291], [-96.6912622, 35.2474769], [-96.6911194, 35.2474748], [-96.6911173, 35.2475659], [-96.6911621, 35.2475666], [-96.6911585, 35.2477295], [-96.6909183, 35.2477259], [-96.690922, 35.247559], [-96.6906985, 35.2475557], [-96.6907041, 35.2473034], [-96.6909178, 35.2473066], [-96.6909213, 35.2471488], [-96.6908156, 35.2471473], [-96.6908184, 35.2470191], [-96.6909002, 35.2470203], [-96.6909019, 35.2469464]]]}, "properties": {"osm_id": 1395942160, "building": "yes", "name": "", "height": null, "height_m": null, "levels": null, "tract_id": "40133583400", "tract_name": "5834", "tags": {"building": "yes"}}}, {"type": "Feature", "geometry": {"type": "Polygon", "coordinates": [[[-96.7010552, 35.2454321], [-96.7017364, 35.2454327], [-96.7017359, 35.2457821], [-96.7015315, 35.2457819], [-96.7015317, 35.2456044], [-96.7010549, 35.2456039], [-96.7010552, 35.2454321]]]}, "properties": {"osm_id": 1395942161, "building": "yes", "name": "", "height": null, "height_m": null, "levels": null, "tract_id": "40133583400", "tract_name": "5834", "tags": {"building": "yes"}}}, {"type": "Feature", "geometry": {"type": "Polygon", "coordinates": [[[-96.6993209, 35.2459389], [-96.6996628, 35.2459435], [-96.6996584, 35.246162], [-96.6992541, 35.2461567], [-96.6992575, 35.2459815], [-96.6993201, 35.2459824], [-96.6993209, 35.2459389]]]}, "properties": {"osm_id": 1395942162, "building": "yes", "name": "", "height": null, "height_m": null, "levels": null, "tract_id": "40133583400", "tract_name": "5834", "tags": {"building": "yes"}}}, {"type": "Feature", "geometry": {"type": "Polygon", "coordinates": [[[-96.6722571, 35.2446803], [-96.6718716, 35.2446793], [-96.671874, 35.244051], [-96.672129, 35.2440516], [-96.6721282, 35.2442791], [-96.6722586, 35.2442795], [-96.6722571, 35.2446803]]]}, "properties": {"osm_id": 1395942163, "building": "yes", "name": "", "height": null, "height_m": null, "levels": null, "tract_id": "40133583400", "tract_name": "5834", "tags": {"building": "yes"}}}, {"type": "Feature", "geometry": {"type": "Polygon", "coordinates": [[[-96.67188, 35.2447901], [-96.6721546, 35.2447915], [-96.6721541, 35.2448569], [-96.6722468, 35.2448574], [-96.6722451, 35.2450806], [-96.6718778, 35.2450787], [-96.67188, 35.2447901]]]}, "properties": {"osm_id": 1395942164, "building": "yes", "name": "", "height": null, "height_m": null, "levels": null, "tract_id": "40133583400", "tract_name": "5834", "tags": {"building": "yes"}}}]}