{"type": "FeatureCollection", "features": [{"type": "Feature", "geometry": {"type": "Polygon", "coordinates": [[[-98.3936431, 34.6307053], [-98.3935103, 34.6307048], [-98.3935123, 34.6306385], [-98.3936431, 34.6306397], [-98.3936431, 34.6307053]]]}, "properties": {"osm_id": 1223633077, "building": "yes", "name": "", "height": null, "height_m": null, "levels": null, "tract_id": "40031000800", "tract_name": "8", "tags": {"building": "yes"}}}, {"type": "Feature", "geometry": {"type": "Polygon", "coordinates": [[[-98.4071977, 34.6235303], [-98.4071983, 34.623753], [-98.4076203, 34.6237522], [-98.4076201, 34.6236602], [-98.4076997, 34.6236601], [-98.4077001, 34.6238157], [-98.4071121, 34.6238167], [-98.4071111, 34.6234664], [-98.4072381, 34.6234662], [-98.4072383, 34.6235303], [-98.4071977, 34.6235303]]]}, "properties": {"osm_id": 1238437021, "building": "yes", "name": "Travel Inn", "height": null, "height_m": null, "levels": null, "tract_id": "40031000800", "tract_name": "8", "tags": {"addr:city": "Lawton", "addr:housenumber": "131", "addr:postcode": "73507", "addr:state": "OK", "addr:street": "Northwest Cache Road", "building": "yes", "name": "Travel Inn", "phone": "+1-580-353-7580", "tourism": "motel"}}}, {"type": "Feature", "geometry": {"type": "Polygon", "coordinates": [[[-98.4071103, 34.6241509], [-98.4072443, 34.624151], [-98.4072444, 34.6239516], [-98.4073347, 34.6239517], [-98.4073347, 34.6238578], [-98.4066275, 34.6238575], [-98.4066274, 34.6239554], [-98.4066328, 34.6239554], [-98.4066327, 34.6240266], [-98.4067733, 34.6240267], [-98.4067734, 34.6239545], [-98.4071105, 34.6239546], [-98.4071103, 34.6241509]]]}, "properties": {"osm_id": 1238437022, "building": "yes", "name": "", "height": null, "height_m": null, "levels": null, "tract_id": "40031000800", "tract_name": "8", "tags": {"building": "yes"}}}, {"type": "Feature", "geometry": {"type": "Polygon", "coordinates": [[[-98.4094975, 34.6283155], [-98.4096655, 34.6283154], [-98.4096654, 34.6281862], [-98.4098443, 34.6281861], [-98.4098442, 34.6281325], [-98.4098871, 34.6281325], [-98.4098871, 34.6280964], [-98.4098441, 34.6280965], [-98.409844, 34.628043], [-98.408607, 34.6280442], [-98.4086072, 34.6281871], [-98.408787, 34.628187], [-98.4087871, 34.6283165], [-98.4089625, 34.6283163], [-98.4089623, 34.6281874], [-98.4091777, 34.6281872], [-98.4091778, 34.6282384], [-98.4091362, 34.6282385], [-98.4091362, 34.6283159], [-98.4093588, 34.6283158], [-98.4093587, 34.6281857], [-98.4094974, 34.6281856], [-98.4094975, 34.6283155]]]}, "properties": {"osm_id": 1238437023, "building": "yes", "name": "", "height": null, "height_m": null, "levels": null, "tract_id": "40031000800", "tract_name": "8", "tags": {"building": "yes"}}}, {"type": "Feature", "geometry": {"type": "Polygon", "coordinates": [[[-98.4048589, 34.626738], [-98.4048593, 34.6269049], [-98.4055518, 34.6269038], [-98.4055514, 34.6267359], [-98.4053058, 34.6267363], [-98.4053056, 34.6266174], [-98.4054857, 34.6266171], [-98.4054854, 34.6264576], [-98.4053081, 34.6264578], [-98.4053079, 34.6263375], [-98.4055471, 34.6263371], [-98.4055467, 34.6261733], [-98.4048559, 34.6261745], [-98.4048563, 34.6263374], [-98.4051117, 34.626337], [-98.405112, 34.6264566], [-98.4048625, 34.6264571], [-98.404863, 34.6266196], [-98.4051095, 34.6266191], [-98.4051099, 34.6267376], [-98.4048589, 34.626738]]]}, "properties": {"osm_id": 1238437024, "building": "yes", "name": "", "height": null, "height_m": null, "levels": null, "tract_id": "40031000800", "tract_name": "8", "tags": {"building": "yes"}}}, {"type": "Feature", "geometry": {"type": "Polygon", "coordinates": [[[-98.4163033, 34.6240811], [-98.4161259, 34.6240813], [-98.4161261, 34.6241804], [-98.4163948, 34.6241801], [-98.4163938, 34.6234896], [-98.4162588, 34.6234897], [-98.416259, 34.6235954], [-98.4163024, 34.6235953], [-98.4163033, 34.6240811]]]}, "properties": {"osm_id": 1238437025, "building": "yes", "name": "", "height": null, "height_m": null, "levels": null, "tract_id": "40031000800", "tract_name": "8", "tags": {"building": "yes"}}}, {"type": "Feature", "geometry": {"type": "Polygon", "coordinates": [[[-98.4054558, 34.6277954], [-98.4052138, 34.6277954], [-98.4052137, 34.6271496], [-98.4054942, 34.6271496], [-98.4054943, 34.6274391], [-98.4054558, 34.6274391], [-98.4054558, 34.6277954]]]}, "properties": {"osm_id": 1238437026, "building": "yes", "name": "", "height": null, "height_m": null, "levels": null, "tract_id": "40031000800", "tract_name": "8", "tags": {"building": "yes"}}}, {"type": "Feature", "geometry": {"type": "Polygon", "coordinates": [[[-98.4111334, 34.6237549], [-98.4115717, 34.6237556], [-98.4115722, 34.6235542], [-98.4115276, 34.6235541], [-98.4115278, 34.6234582], [-98.4116469, 34.6234584], [-98.411646, 34.6238153], [-98.4110568, 34.6238143], [-98.4110578, 34.6234513], [-98.4111719, 34.6234515], [-98.4111717, 34.6235249], [-98.4111339, 34.6235248], [-98.4111334, 34.6237549]]]}, "properties": {"osm_id": 1238437027, "building": "yes", "name": "", "height": null, "height_m": null, "levels": null, "tract_id": "40031000800", "tract_name": "8", "tags": {"building": "yes"}}}, {"type": "Feature", "geometry": {"type": "Polygon", "coordinates": [[[-98.4097352, 34.6236367], [-98.4097766, 34.6236366], [-98.4097765, 34.6236027], [-98.4097336, 34.6236028], [-98.4097333, 34.6235213], [-98.4095709, 34.6235217], [-98.4095719, 34.6237987], [-98.4096752, 34.6237984], [-98.4096752, 34.6237812], [-98.4097565, 34.623781], [-98.4097564, 34.6237507], [-98.4097356, 34.6237508], [-98.4097352, 34.6236367]]]}, "properties": {"osm_id": 1291137539, "building": "yes", "name": "", "height": null, "height_m": null, "levels": null, "tract_id": "40031000800", "tract_name": "8", "tags": {"building": "yes"}}}, {"type": "Feature", "geometry": {"type": "Polygon", "coordinates": [[[-98.4093963, 34.623961], [-98.4094996, 34.6239609], [-98.4094995, 34.6238765], [-98.4093959, 34.6238766], [-98.409396, 34.6239327], [-98.4093821, 34.6239327], [-98.4093822, 34.623949], [-98.4093962, 34.623949], [-98.4093963, 34.623961]]]}, "properties": {"osm_id": 1291137540, "building": "house", "name": "", "height": null, "height_m": null, "levels": null, "tract_id": "40031000800", "tract_name": "8", "tags": {"building": "house"}}}, {"type": "Feature", "geometry": {"type": "Polygon", "coordinates": [[[-98.4093973, 34.623969], [-98.4094989, 34.6239689], [-98.4094993, 34.6241147], [-98.4093978, 34.6241149], [-98.4093978, 34.6241116], [-98.4093868, 34.6241117], [-98.4093868, 34.624094], [-98.4093978, 34.624094], [-98.4093975, 34.6239901], [-98.4093832, 34.6239901], [-98.4093832, 34.6239757], [-98.4093973, 34.6239756], [-98.4093973, 34.623969]]]}, "properties": {"osm_id": 1291137541, "building": "house", "name": "", "height": null, "height_m": null, "levels": null, "tract_id": "40031000800", "tract_name": "8", "tags": {"building": "house"}}}, {"type": "Feature", "geometry": {"type": "Polygon", "coordinates": [[[-98.4090995, 34.6240109], [-98.4090983, 34.6238697], [-98.4092008, 34.623869], [-98.4092012, 34.6239218], [-98.4092156, 34.6239217], [-98.4092159, 34.6239558], [-98.4092037, 34.6239559], [-98.4092041, 34.6240103], [-98.4090995, 34.6240109]]]}, "properties": {"osm_id": 1291137542, "building": "house", "name": "", "height": null, "height_m": null, "levels": null, "tract_id": "40031000800", "tract_name": "8", "tags": {"building": "house"}}}, {"type": "Feature", "geometry": {"type": "Polygon", "coordinates": [[[-98.4091914, 34.6238562], [-98.4091924, 34.6237395], [-98.40912, 34.6237391], [-98.4091196, 34.6237958], [-98.4090986, 34.6237957], [-98.4090983, 34.6238321], [-98.409106, 34.6238321], [-98.4091058, 34.6238558], [-98.4091914, 34.6238562]]]}, "properties": {"osm_id": 1291137543, "building": "house", "name": "", "height": null, "height_m": null, "levels": null, "tract_id": "40031000800", "tract_name": "8", "tags": {"building": "house"}}}, {"type": "Feature", "geometry": {"type": "Polygon", "coordinates": [[[-98.4093785, 34.6238564], [-98.4093788, 34.6237784], [-98.4094944, 34.6237788], [-98.409494, 34.6238567], [-98.4093785, 34.6238564]]]}, "properties": {"osm_id": 1291137544, "building": "house", "name": "", "height": null, "height_m": null, "levels": null, "tract_id": "40031000800", "tract_name": "8", "tags": {"building": "house"}}}, {"type": "Feature", "geometry": {"type": "Polygon", "coordinates": [[[-98.4092738, 34.6241841], [-98.4092735, 34.6241248], [-98.4093555, 34.6241245], [-98.4093555, 34.6241137], [-98.4093779, 34.6241136], [-98.409378, 34.6241243], [-98.409392, 34.6241243], [-98.4093922, 34.6241831], [-98.4093791, 34.6241831], [-98.4093792, 34.6241974], [-98.4093551, 34.6241975], [-98.409355, 34.6241838], [-98.4092738, 34.6241841]]]}, "properties": {"osm_id": 1291137545, "building": "house", "name": "", "height": null, "height_m": null, "levels": null, "tract_id": "40031000800", "tract_name": "8", "tags": {"building": "house"}}}, {"type": "Feature", "geometry": {"type": "Polygon", "coordinates": [[[-98.4092052, 34.6241253], [-98.4092048, 34.6240499], [-98.4091079, 34.6240503], [-98.4091083, 34.6241257], [-98.4092052, 34.6241253]]]}, "properties": {"osm_id": 1291137546, "building": "house", "name": "", "height": null, "height_m": null, "levels": null, "tract_id": "40031000800", "tract_name": "8", "tags": {"building": "house"}}}, {"type": "Feature", "geometry": {"type": "Polygon", "coordinates": [[[-98.406903, 34.6237146], [-98.4069021, 34.6235779], [-98.4069536, 34.6235777], [-98.4069534, 34.6235461], [-98.406719, 34.6235472], [-98.4067185, 34.6234665], [-98.4066274, 34.6234669], [-98.4066279, 34.6235451], [-98.4065926, 34.6235452], [-98.4065939, 34.623758], [-98.4066274, 34.6237579], [-98.4066271, 34.6237158], [-98.406903, 34.6237146]]]}, "properties": {"osm_id": 1291137548, "building": "yes", "name": "Super 9 Motel", "height": null, "height_m": null, "levels": null, "tract_id": "40031000800", "tract_name": "8", "tags": {"addr:city": "Lawton", "addr:housenumber": "1201", "addr:postcode": "73507", "addr:state": "OK", "addr:street": "Northwest Cache Road", "building": "yes", "name": "Super 9 Motel", "tourism": "motel"}}}, {"type": "Feature", "geometry": {"type": "Polygon", "coordinates": [[[-98.4140633, 34.6237235], [-98.4140619, 34.6234749], [-98.4141554, 34.6234745], [-98.4141573, 34.623805], [-98.4136264, 34.623807], [-98.4136245, 34.623472], [-98.413738, 34.6234716], [-98.4137388, 34.6236003], [-98.4137307, 34.6236004], [-98.4137314, 34.6237248], [-98.4140633, 34.6237235]]]}, "properties": {"osm_id": 1291137549, "building": "yes", "name": "Ranch Motel", "height": null, "height_m": null, "levels": null, "tract_id": "40031000800", "tract_name": "8", "tags": {"addr:city": "Lawton", "addr:housenumber": "1601", "addr:postcode": "73507", "addr:state": "OK", "addr:street": "Northwest Cache Road", "building": "yes", "name": "Ranch Motel", "tourism": "motel"}}}, {"type": "Feature", "geometry": {"type": "Polygon", "coordinates": [[[-98.4140742, 34.6240916], [-98.4140745, 34.6239964], [-98.4143347, 34.6239971], [-98.4143348, 34.623955], [-98.4143179, 34.6239549], [-98.4143184, 34.6238177], [-98.4137382, 34.6238164], [-98.4137378, 34.6239416], [-98.4138653, 34.6239419], [-98.4139231, 34.6239869], [-98.4139227, 34.6240912], [-98.4140742, 34.6240916]]]}, "properties": {"osm_id": 1291137550, "building": "commercial", "name": "Ron Stephens Service", "height": null, "height_m": null, "levels": null, "tract_id": "40031000800", "tract_name": "8", "tags": {"addr:city": "Lawton", "addr:housenumber": "1602", "addr:postcode": "73507", "addr:state": "OK", "addr:street": "Northwest Lawton Avenue", "building": "commercial", "name": "Ron Stephens Service"}}}, {"type": "Feature", "geometry": {"type": "Polygon", "coordinates": [[[-98.4143153, 34.6237986], [-98.4143123, 34.6235126], [-98.4144927, 34.6235114], [-98.4144957, 34.6237974], [-98.4143153, 34.6237986]]]}, "properties": {"osm_id": 1291137551, "building": "yes", "name": "Hibdon Tires Plus", "height": null, "height_m": null, "levels": null, "tract_id": "40031000800", "tract_name": "8", "tags": {"addr:city": "Lawton", "addr:housenumber": "1611", "addr:postcode": "73507", "addr:state": "OK", "addr:street": "Northwest Cache Road", "building": "yes", "name": "Hibdon Tires Plus", "operator": "Hibdon Tires", "phone": "+1-580-215-1750", "shop": "tyres", "website": "https://local.hibdontire.com/oklahoma/lawton/1611-nw-cache-rd/"}}}, {"type": "Feature", "geometry": {"type": "Polygon", "coordinates": [[[-98.4069293, 34.6241719], [-98.4068007, 34.624171], [-98.4068015, 34.6240892], [-98.4067922, 34.6240891], [-98.4067924, 34.624065], [-98.4068289, 34.6240653], [-98.4068291, 34.6240486], [-98.4068889, 34.624049], [-98.4068886, 34.6240718], [-98.4069309, 34.624072], [-98.4069307, 34.62409], [-98.4069478, 34.6240901], [-98.4069476, 34.6241153], [-98.4069298, 34.6241152], [-98.4069293, 34.6241719]]]}, "properties": {"osm_id": 1291137552, "building": "yes", "name": "", "height": null, "height_m": null, "levels": null, "tract_id": "40031000800", "tract_name": "8", "tags": {"addr:city": "Lawton", "addr:housenumber": "1200", "addr:postcode": "73507", "addr:state": "OK", "addr:street": "Northwest Lawton Avenue", "building": "yes"}}}, {"type": "Feature", "geometry": {"type": "Polygon", "coordinates": [[[-98.4213035, 34.6286987], [-98.4215194, 34.6286984], [-98.4215188, 34.6283409], [-98.4215698, 34.6283408], [-98.4215692, 34.6279777], [-98.4213022, 34.6279781], [-98.4213035, 34.6286987]]]}, "properties": {"osm_id": 1336923307, "building": "yes", "name": "", "height": null, "height_m": null, "levels": null, "tract_id": "40031000800", "tract_name": "8", "tags": {"building": "yes", "source": "microsoft/BuildingFootprints"}}}, {"type": "Feature", "geometry": {"type": "Polygon", "coordinates": [[[-98.4218359, 34.6261893], [-98.4218354, 34.626527], [-98.4216101, 34.6265268], [-98.4216095, 34.6268755], [-98.4220693, 34.626876], [-98.4220695, 34.626801], [-98.4220495, 34.6268009], [-98.4220505, 34.6261896], [-98.4218359, 34.6261893]]]}, "properties": {"osm_id": 1336943470, "building": "yes", "name": "", "height": null, "height_m": null, "levels": null, "tract_id": "40031000800", "tract_name": "8", "tags": {"building": "yes", "source": "microsoft/BuildingFootprints"}}}, {"type": "Feature", "geometry": {"type": "Polygon", "coordinates": [[[-98.4219748, 34.6256167], [-98.4219763, 34.6253982], [-98.4218647, 34.6253977], [-98.4218617, 34.6258524], [-98.4219904, 34.625853], [-98.4219907, 34.6258154], [-98.4220175, 34.6258156], [-98.4220188, 34.6256169], [-98.4219748, 34.6256167]]]}, "properties": {"osm_id": 1336943471, "building": "yes", "name": "", "height": null, "height_m": null, "levels": null, "tract_id": "40031000800", "tract_name": "8", "tags": {"building": "yes", "source": "microsoft/BuildingFootprints"}}}, {"type": "Feature", "geometry": {"type": "Polygon", "coordinates": [[[-98.4217595, 34.6249942], [-98.421931, 34.6249974], [-98.4219298, 34.6250427], [-98.4220129, 34.6250443], [-98.422014, 34.6250024], [-98.4220248, 34.6250026], [-98.4220273, 34.6249144], [-98.4217619, 34.6249093], [-98.4217595, 34.6249942]]]}, "properties": {"osm_id": 1336943472, "building": "yes", "name": "", "height": null, "height_m": null, "levels": null, "tract_id": "40031000800", "tract_name": "8", "tags": {"building": "yes", "source": "microsoft/BuildingFootprints"}}}, {"type": "Feature", "geometry": {"type": "Polygon", "coordinates": [[[-98.4215606, 34.6248782], [-98.4215579, 34.625015], [-98.4216678, 34.6250165], [-98.4216706, 34.6248797], [-98.4215606, 34.6248782]]]}, "properties": {"osm_id": 1336943473, "building": "yes", "name": "", "height": null, "height_m": null, "levels": null, "tract_id": "40031000800", "tract_name": "8", "tags": {"building": "yes", "source": "microsoft/BuildingFootprints"}}}, {"type": "Feature", "geometry": {"type": "Polygon", "coordinates": [[[-98.4207262, 34.6263188], [-98.4216554, 34.6263148], [-98.4216548, 34.6262276], [-98.4207257, 34.6262317], [-98.4207262, 34.6263188]]]}, "properties": {"osm_id": 1336943474, "building": "yes", "name": "", "height": null, "height_m": null, "levels": null, "tract_id": "40031000800", "tract_name": "8", "tags": {"building": "yes", "source": "microsoft/BuildingFootprints"}}}, {"type": "Feature", "geometry": {"type": "Polygon", "coordinates": [[[-98.4219149, 34.6277288], [-98.421914, 34.6276504], [-98.4219462, 34.6276501], [-98.4219446, 34.62751], [-98.4218305, 34.6275109], [-98.4218299, 34.627459], [-98.421728, 34.6274598], [-98.4217311, 34.6277302], [-98.4219149, 34.6277288]]]}, "properties": {"osm_id": 1336943475, "building": "yes", "name": "", "height": null, "height_m": null, "levels": null, "tract_id": "40031000800", "tract_name": "8", "tags": {"building": "yes", "source": "microsoft/BuildingFootprints"}}}, {"type": "Feature", "geometry": {"type": "Polygon", "coordinates": [[[-98.4216507, 34.6236519], [-98.4216538, 34.6238107], [-98.4217932, 34.6238089], [-98.4217942, 34.6238585], [-98.4218451, 34.6238578], [-98.4218411, 34.6236494], [-98.4216507, 34.6236519]]]}, "properties": {"osm_id": 1336943487, "building": "yes", "name": "", "height": null, "height_m": null, "levels": null, "tract_id": "40031000800", "tract_name": "8", "tags": {"building": "yes", "source": "microsoft/BuildingFootprints"}}}, {"type": "Feature", "geometry": {"type": "Polygon", "coordinates": [[[-98.4219373, 34.6240679], [-98.4219389, 34.6239796], [-98.4216869, 34.6239764], [-98.4216852, 34.6240647], [-98.4219373, 34.6240679]]]}, "properties": {"osm_id": 1336943488, "building": "yes", "name": "", "height": null, "height_m": null, "levels": null, "tract_id": "40031000800", "tract_name": "8", "tags": {"building": "yes", "source": "microsoft/BuildingFootprints"}}}, {"type": "Feature", "geometry": {"type": "Polygon", "coordinates": [[[-98.4209362, 34.6236864], [-98.4209339, 34.6235419], [-98.4208267, 34.623543], [-98.4208289, 34.6236875], [-98.4209362, 34.6236864]]]}, "properties": {"osm_id": 1336943489, "building": "yes", "name": "", "height": null, "height_m": null, "levels": null, "tract_id": "40031000800", "tract_name": "8", "tags": {"building": "yes", "source": "microsoft/BuildingFootprints"}}}, {"type": "Feature", "geometry": {"type": "Polygon", "coordinates": [[[-98.4056102, 34.6235481], [-98.4056124, 34.6238275], [-98.4060667, 34.6238251], [-98.406067, 34.6238582], [-98.406302, 34.6238569], [-98.4063012, 34.6237541], [-98.4063066, 34.623754], [-98.4063049, 34.6235444], [-98.4056102, 34.6235481]]]}, "properties": {"osm_id": 1336943632, "building": "yes", "name": "", "height": null, "height_m": null, "levels": null, "tract_id": "40031000800", "tract_name": "8", "tags": {"building": "yes", "source": "microsoft/BuildingFootprints"}}}, {"type": "Feature", "geometry": {"type": "Polygon", "coordinates": [[[-98.4056627, 34.6240717], [-98.4056617, 34.6241864], [-98.4060828, 34.6241891], [-98.4060838, 34.6240743], [-98.4056627, 34.6240717]]]}, "properties": {"osm_id": 1336943633, "building": "yes", "name": "", "height": null, "height_m": null, "levels": null, "tract_id": "40031000800", "tract_name": "8", "tags": {"building": "yes", "source": "microsoft/BuildingFootprints"}}}, {"type": "Feature", "geometry": {"type": "Polygon", "coordinates": [[[-98.4055701, 34.6244052], [-98.4052564, 34.6244093], [-98.405256, 34.6243903], [-98.4051648, 34.6243915], [-98.4051652, 34.6244091], [-98.4050294, 34.6244109], [-98.405029, 34.6243888], [-98.4049609, 34.6243897], [-98.4049619, 34.6244405], [-98.4049817, 34.6244402], [-98.4049849, 34.6246079], [-98.4050697, 34.6246068], [-98.4050717, 34.6247097], [-98.4052417, 34.6247075], [-98.4052399, 34.6246156], [-98.4052013, 34.6246161], [-98.4052002, 34.6245588], [-98.4052646, 34.6245579], [-98.4052665, 34.6246572], [-98.4055749, 34.6246532], [-98.4055701, 34.6244052]]]}, "properties": {"osm_id": 1336943634, "building": "yes", "name": "", "height": null, "height_m": null, "levels": null, "tract_id": "40031000800", "tract_name": "8", "tags": {"building": "yes", "source": "microsoft/BuildingFootprints"}}}, {"type": "Feature", "geometry": {"type": "Polygon", "coordinates": [[[-98.4049257, 34.6250298], [-98.4052421, 34.625033], [-98.4052454, 34.6248167], [-98.4049289, 34.6248135], [-98.4049257, 34.6250298]]]}, "properties": {"osm_id": 1336943635, "building": "yes", "name": "", "height": null, "height_m": null, "levels": null, "tract_id": "40031000800", "tract_name": "8", "tags": {"building": "yes", "source": "microsoft/BuildingFootprints"}}}, {"type": "Feature", "geometry": {"type": "Polygon", "coordinates": [[[-98.4052663, 34.6252707], [-98.4049873, 34.6252688], [-98.4049839, 34.6256131], [-98.405192, 34.6256145], [-98.4051927, 34.6255425], [-98.4052635, 34.625543], [-98.4052663, 34.6252707]]]}, "properties": {"osm_id": 1336943636, "building": "yes", "name": "", "height": null, "height_m": null, "levels": null, "tract_id": "40031000800", "tract_name": "8", "tags": {"building": "yes", "source": "microsoft/BuildingFootprints"}}}, {"type": "Feature", "geometry": {"type": "Polygon", "coordinates": [[[-98.4054336, 34.6252748], [-98.4053451, 34.6252732], [-98.4053378, 34.6255468], [-98.4054263, 34.6255483], [-98.4054336, 34.6252748]]]}, "properties": {"osm_id": 1336943637, "building": "yes", "name": "", "height": null, "height_m": null, "levels": null, "tract_id": "40031000800", "tract_name": "8", "tags": {"building": "yes", "source": "microsoft/BuildingFootprints"}}}, {"type": "Feature", "geometry": {"type": "Polygon", "coordinates": [[[-98.4054961, 34.6255484], [-98.4056157, 34.6255472], [-98.4056118, 34.6252736], [-98.4054921, 34.6252747], [-98.4054961, 34.6255484]]]}, "properties": {"osm_id": 1336943638, "building": "yes", "name": "", "height": null, "height_m": null, "levels": null, "tract_id": "40031000800", "tract_name": "8", "tags": {"building": "yes", "source": "microsoft/BuildingFootprints"}}}, {"type": "Feature", "geometry": {"type": "Polygon", "coordinates": [[[-98.4084304, 34.6240111], [-98.4087254, 34.6240137], [-98.4087276, 34.6238482], [-98.4084325, 34.6238456], [-98.4084304, 34.6240111]]]}, "properties": {"osm_id": 1336943639, "building": "yes", "name": "", "height": null, "height_m": null, "levels": null, "tract_id": "40031000800", "tract_name": "8", "tags": {"building": "yes", "source": "microsoft/BuildingFootprints"}}}, {"type": "Feature", "geometry": {"type": "Polygon", "coordinates": [[[-98.4085682, 34.623558], [-98.40847, 34.6235569], [-98.4084694, 34.6235945], [-98.4083477, 34.6235931], [-98.408345, 34.6237586], [-98.408471, 34.62376], [-98.4084719, 34.6237059], [-98.4085658, 34.6237069], [-98.4085682, 34.623558]]]}, "properties": {"osm_id": 1336943640, "building": "yes", "name": "", "height": null, "height_m": null, "levels": null, "tract_id": "40031000800", "tract_name": "8", "tags": {"building": "yes", "source": "microsoft/BuildingFootprints"}}}, {"type": "Feature", "geometry": {"type": "Polygon", "coordinates": [[[-98.4089083, 34.623851], [-98.4087393, 34.6238497], [-98.4087364, 34.6241013], [-98.4089054, 34.6241026], [-98.4089083, 34.623851]]]}, "properties": {"osm_id": 1336943641, "building": "yes", "name": "", "height": null, "height_m": null, "levels": null, "tract_id": "40031000800", "tract_name": "8", "tags": {"building": "yes", "source": "microsoft/BuildingFootprints"}}}, {"type": "Feature", "geometry": {"type": "Polygon", "coordinates": [[[-98.4118975, 34.6234973], [-98.4118973, 34.6234753], [-98.4118625, 34.6234754], [-98.4118639, 34.623727], [-98.4121375, 34.623726], [-98.4121378, 34.6237811], [-98.4125777, 34.6237794], [-98.412576, 34.6234947], [-98.4118975, 34.6234973]]]}, "properties": {"osm_id": 1336943645, "building": "yes", "name": "", "height": null, "height_m": null, "levels": null, "tract_id": "40031000800", "tract_name": "8", "tags": {"building": "yes", "source": "microsoft/BuildingFootprints"}}}, {"type": "Feature", "geometry": {"type": "Polygon", "coordinates": [[[-98.4124667, 34.6238891], [-98.4121394, 34.6238874], [-98.4121397, 34.6238476], [-98.4120647, 34.6238472], [-98.4120643, 34.6238946], [-98.4118631, 34.6238935], [-98.4118613, 34.6241331], [-98.412099, 34.6241343], [-98.4121003, 34.6239676], [-98.4121335, 34.6239678], [-98.4121318, 34.6241796], [-98.4123213, 34.6241806], [-98.4123213, 34.624185], [-98.4124644, 34.6241858], [-98.4124667, 34.6238891]]]}, "properties": {"osm_id": 1336943646, "building": "yes", "name": "", "height": null, "height_m": null, "levels": null, "tract_id": "40031000800", "tract_name": "8", "tags": {"building": "yes", "source": "microsoft/BuildingFootprints"}}}, {"type": "Feature", "geometry": {"type": "Polygon", "coordinates": [[[-98.4153898, 34.6238023], [-98.4156409, 34.6238037], [-98.415643, 34.6235543], [-98.4155491, 34.6235538], [-98.4155493, 34.6235265], [-98.4154849, 34.6235262], [-98.4154847, 34.6235548], [-98.4153918, 34.6235543], [-98.4153898, 34.6238023]]]}, "properties": {"osm_id": 1336943652, "building": "yes", "name": "", "height": null, "height_m": null, "levels": null, "tract_id": "40031000800", "tract_name": "8", "tags": {"building": "yes", "source": "microsoft/BuildingFootprints"}}}, {"type": "Feature", "geometry": {"type": "Polygon", "coordinates": [[[-98.4171323, 34.6237985], [-98.4173013, 34.6237992], [-98.4173015, 34.6237617], [-98.4174651, 34.6237625], [-98.4174648, 34.6238132], [-98.4176338, 34.623814], [-98.4176357, 34.623516], [-98.4171341, 34.6235138], [-98.4171323, 34.6237985]]]}, "properties": {"osm_id": 1336943655, "building": "yes", "name": "", "height": null, "height_m": null, "levels": null, "tract_id": "40031000800", "tract_name": "8", "tags": {"building": "yes", "source": "microsoft/BuildingFootprints"}}}, {"type": "Feature", "geometry": {"type": "Polygon", "coordinates": [[[-98.4183181, 34.6236892], [-98.4183209, 34.6234928], [-98.4181493, 34.6234911], [-98.4181454, 34.6237603], [-98.4182876, 34.6237617], [-98.4182886, 34.6236889], [-98.4183181, 34.6236892]]]}, "properties": {"osm_id": 1336943656, "building": "yes", "name": "", "height": null, "height_m": null, "levels": null, "tract_id": "40031000800", "tract_name": "8", "tags": {"building": "yes", "source": "microsoft/BuildingFootprints"}}}, {"type": "Feature", "geometry": {"type": "Polygon", "coordinates": [[[-98.4186851, 34.6234337], [-98.4185564, 34.6234321], [-98.4185509, 34.6237322], [-98.4185912, 34.6237327], [-98.4185906, 34.6237648], [-98.4186791, 34.6237659], [-98.4186851, 34.6234337]]]}, "properties": {"osm_id": 1336943657, "building": "yes", "name": "", "height": null, "height_m": null, "levels": null, "tract_id": "40031000800", "tract_name": "8", "tags": {"building": "yes", "source": "microsoft/BuildingFootprints"}}}, {"type": "Feature", "geometry": {"type": "Polygon", "coordinates": [[[-98.4198131, 34.6237984], [-98.4200142, 34.6237956], [-98.420009, 34.6235418], [-98.4198079, 34.6235446], [-98.4198131, 34.6237984]]]}, "properties": {"osm_id": 1336943661, "building": "yes", "name": "", "height": null, "height_m": null, "levels": null, "tract_id": "40031000800", "tract_name": "8", "tags": {"building": "yes", "source": "microsoft/BuildingFootprints"}}}, {"type": "Feature", "geometry": {"type": "Polygon", "coordinates": [[[-98.4200279, 34.623777], [-98.4203632, 34.6237752], [-98.420362, 34.6236339], [-98.4200268, 34.6236358], [-98.4200279, 34.623777]]]}, "properties": {"osm_id": 1336943662, "building": "yes", "name": "", "height": null, "height_m": null, "levels": null, "tract_id": "40031000800", "tract_name": "8", "tags": {"building": "yes", "source": "microsoft/BuildingFootprints"}}}, {"type": "Feature", "geometry": {"type": "Polygon", "coordinates": [[[-98.4194664, 34.6236635], [-98.4194646, 34.6237739], [-98.4195773, 34.6237751], [-98.419579, 34.6236647], [-98.4194664, 34.6236635]]]}, "properties": {"osm_id": 1336943663, "building": "yes", "name": "", "height": null, "height_m": null, "levels": null, "tract_id": "40031000800", "tract_name": "8", "tags": {"building": "yes", "source": "microsoft/BuildingFootprints"}}}, {"type": "Feature", "geometry": {"type": "Polygon", "coordinates": [[[-98.4213994, 34.6236403], [-98.4211447, 34.6236358], [-98.4211416, 34.623755], [-98.4213963, 34.6237595], [-98.4213994, 34.6236403]]]}, "properties": {"osm_id": 1336943664, "building": "yes", "name": "", "height": null, "height_m": null, "levels": null, "tract_id": "40031000800", "tract_name": "8", "tags": {"building": "yes", "source": "microsoft/BuildingFootprints"}}}, {"type": "Feature", "geometry": {"type": "Polygon", "coordinates": [[[-98.4211661, 34.6249335], [-98.4210187, 34.6249303], [-98.4210161, 34.625013], [-98.4211635, 34.6250162], [-98.4211661, 34.6249335]]]}, "properties": {"osm_id": 1336943665, "building": "yes", "name": "", "height": null, "height_m": null, "levels": null, "tract_id": "40031000800", "tract_name": "8", "tags": {"building": "yes", "source": "microsoft/BuildingFootprints"}}}, {"type": "Feature", "geometry": {"type": "Polygon", "coordinates": [[[-98.4207999, 34.6253004], [-98.4206846, 34.6252988], [-98.4206816, 34.6254489], [-98.4207969, 34.6254504], [-98.4207999, 34.6253004]]]}, "properties": {"osm_id": 1336943666, "building": "yes", "name": "", "height": null, "height_m": null, "levels": null, "tract_id": "40031000800", "tract_name": "8", "tags": {"building": "yes", "source": "microsoft/BuildingFootprints"}}}, {"type": "Feature", "geometry": {"type": "Polygon", "coordinates": [[[-98.4208721, 34.625595], [-98.4212207, 34.6255944], [-98.4212204, 34.6254531], [-98.4208717, 34.6254537], [-98.4208721, 34.625595]]]}, "properties": {"osm_id": 1336943667, "building": "yes", "name": "", "height": null, "height_m": null, "levels": null, "tract_id": "40031000800", "tract_name": "8", "tags": {"building": "yes", "source": "microsoft/BuildingFootprints"}}}, {"type": "Feature", "geometry": {"type": "Polygon", "coordinates": [[[-98.4201278, 34.6265916], [-98.4203344, 34.6265926], [-98.4203366, 34.6262571], [-98.4201301, 34.6262562], [-98.4201278, 34.6265916]]]}, "properties": {"osm_id": 1336943668, "building": "yes", "name": "", "height": null, "height_m": null, "levels": null, "tract_id": "40031000800", "tract_name": "8", "tags": {"building": "yes", "source": "microsoft/BuildingFootprints"}}}, {"type": "Feature", "geometry": {"type": "Polygon", "coordinates": [[[-98.4200658, 34.6266116], [-98.4200665, 34.6266977], [-98.4199914, 34.6266981], [-98.419992, 34.6267776], [-98.4200805, 34.6267771], [-98.4200809, 34.6268301], [-98.4201855, 34.6268295], [-98.4201853, 34.6268008], [-98.4202685, 34.6268004], [-98.4202683, 34.6267761], [-98.4203434, 34.6267757], [-98.4203428, 34.6267007], [-98.4202677, 34.6267011], [-98.420267, 34.6266106], [-98.4200658, 34.6266116]]]}, "properties": {"osm_id": 1336943669, "building": "yes", "name": "", "height": null, "height_m": null, "levels": null, "tract_id": "40031000800", "tract_name": "8", "tags": {"building": "yes", "source": "microsoft/BuildingFootprints"}}}, {"type": "Feature", "geometry": {"type": "Polygon", "coordinates": [[[-98.4207942, 34.6271416], [-98.4207083, 34.6271406], [-98.4207071, 34.6272167], [-98.4206842, 34.6272165], [-98.4206825, 34.627318], [-98.4207912, 34.6273192], [-98.4207942, 34.6271416]]]}, "properties": {"osm_id": 1336943670, "building": "yes", "name": "", "height": null, "height_m": null, "levels": null, "tract_id": "40031000800", "tract_name": "8", "tags": {"building": "yes", "source": "microsoft/BuildingFootprints"}}}, {"type": "Feature", "geometry": {"type": "Polygon", "coordinates": [[[-98.42098, 34.6272389], [-98.4209767, 34.6271463], [-98.420848, 34.6271494], [-98.4208514, 34.6272431], [-98.4208674, 34.6272427], [-98.4208689, 34.6272835], [-98.4209439, 34.6272817], [-98.4209424, 34.6272398], [-98.42098, 34.6272389]]]}, "properties": {"osm_id": 1336943671, "building": "yes", "name": "", "height": null, "height_m": null, "levels": null, "tract_id": "40031000800", "tract_name": "8", "tags": {"building": "yes", "source": "microsoft/BuildingFootprints"}}}, {"type": "Feature", "geometry": {"type": "Polygon", "coordinates": [[[-98.4211516, 34.6271446], [-98.4210255, 34.6271441], [-98.421025, 34.6272379], [-98.4211511, 34.6272384], [-98.4211516, 34.6271446]]]}, "properties": {"osm_id": 1336943672, "building": "yes", "name": "", "height": null, "height_m": null, "levels": null, "tract_id": "40031000800", "tract_name": "8", "tags": {"building": "yes", "source": "microsoft/BuildingFootprints"}}}, {"type": "Feature", "geometry": {"type": "Polygon", "coordinates": [[[-98.421191, 34.6271377], [-98.4211937, 34.627237], [-98.421317, 34.6272348], [-98.4213143, 34.6271355], [-98.421191, 34.6271377]]]}, "properties": {"osm_id": 1336943673, "building": "yes", "name": "", "height": null, "height_m": null, "levels": null, "tract_id": "40031000800", "tract_name": "8", "tags": {"building": "yes", "source": "microsoft/BuildingFootprints"}}}, {"type": "Feature", "geometry": {"type": "Polygon", "coordinates": [[[-98.4213668, 34.6272361], [-98.4214901, 34.627235], [-98.4214889, 34.6271346], [-98.4213655, 34.6271356], [-98.4213668, 34.6272361]]]}, "properties": {"osm_id": 1336943674, "building": "yes", "name": "", "height": null, "height_m": null, "levels": null, "tract_id": "40031000800", "tract_name": "8", "tags": {"building": "yes", "source": "microsoft/BuildingFootprints"}}}, {"type": "Feature", "geometry": {"type": "Polygon", "coordinates": [[[-98.405121, 34.6285379], [-98.4049641, 34.6285371], [-98.4049648, 34.6284469], [-98.4051217, 34.6284477], [-98.405121, 34.6285379]]]}, "properties": {"osm_id": 1349908710, "building": "yes", "name": "", "height": null, "height_m": null, "levels": null, "tract_id": "40031000800", "tract_name": "8", "tags": {"building": "yes"}}}, {"type": "Feature", "geometry": {"type": "Polygon", "coordinates": [[[-98.4054161, 34.6304743], [-98.4051888, 34.6304747], [-98.4051881, 34.630185], [-98.4054154, 34.6301846], [-98.4054161, 34.6304743]]]}, "properties": {"osm_id": 1349908733, "building": "yes", "name": "", "height": null, "height_m": null, "levels": null, "tract_id": "40031000800", "tract_name": "8", "tags": {"building": "yes"}}}, {"type": "Feature", "geometry": {"type": "Polygon", "coordinates": [[[-98.4053641, 34.6290361], [-98.4049276, 34.6290342], [-98.4049282, 34.6289447], [-98.4053647, 34.6289466], [-98.4053641, 34.6290361]]]}, "properties": {"osm_id": 1349908734, "building": "yes", "name": "", "height": null, "height_m": null, "levels": null, "tract_id": "40031000800", "tract_name": "8", "tags": {"building": "yes"}}}, {"type": "Feature", "geometry": {"type": "Polygon", "coordinates": [[[-98.4053634, 34.6292036], [-98.4049316, 34.6292044], [-98.4049314, 34.6291184], [-98.4053632, 34.6291176], [-98.4053634, 34.6292036]]]}, "properties": {"osm_id": 1349908735, "building": "yes", "name": "", "height": null, "height_m": null, "levels": null, "tract_id": "40031000800", "tract_name": "8", "tags": {"building": "yes"}}}, {"type": "Feature", "geometry": {"type": "Polygon", "coordinates": [[[-98.4053484, 34.6292728], [-98.4050184, 34.6292731], [-98.4050184, 34.6292282], [-98.4053483, 34.6292279], [-98.4053484, 34.6292728]]]}, "properties": {"osm_id": 1349908736, "building": "yes", "name": "", "height": null, "height_m": null, "levels": null, "tract_id": "40031000800", "tract_name": "8", "tags": {"building": "yes"}}}, {"type": "Feature", "geometry": {"type": "Polygon", "coordinates": [[[-98.4053011, 34.6295184], [-98.4049427, 34.6295192], [-98.4049425, 34.629463], [-98.4053009, 34.6294621], [-98.4053011, 34.6295184]]]}, "properties": {"osm_id": 1349908737, "building": "yes", "name": "", "height": null, "height_m": null, "levels": null, "tract_id": "40031000800", "tract_name": "8", "tags": {"building": "yes"}}}, {"type": "Feature", "geometry": {"type": "Polygon", "coordinates": [[[-98.4062952, 34.629035], [-98.4054664, 34.6290334], [-98.4054666, 34.6289489], [-98.4062954, 34.6289505], [-98.4062952, 34.629035]]]}, "properties": {"osm_id": 1349908738, "building": "yes", "name": "", "height": null, "height_m": null, "levels": null, "tract_id": "40031000800", "tract_name": "8", "tags": {"building": "yes"}}}, {"type": "Feature", "geometry": {"type": "Polygon", "coordinates": [[[-98.4062979, 34.6292039], [-98.4054657, 34.6292055], [-98.4054654, 34.6291167], [-98.4062976, 34.6291151], [-98.4062979, 34.6292039]]]}, "properties": {"osm_id": 1349908739, "building": "yes", "name": "", "height": null, "height_m": null, "levels": null, "tract_id": "40031000800", "tract_name": "8", "tags": {"building": "yes"}}}, {"type": "Feature", "geometry": {"type": "Polygon", "coordinates": [[[-98.4062969, 34.6293722], [-98.405462, 34.6293746], [-98.4054617, 34.6292916], [-98.4062965, 34.6292891], [-98.4062969, 34.6293722]]]}, "properties": {"osm_id": 1349908740, "building": "yes", "name": "", "height": null, "height_m": null, "levels": null, "tract_id": "40031000800", "tract_name": "8", "tags": {"building": "yes"}}}, {"type": "Feature", "geometry": {"type": "Polygon", "coordinates": [[[-98.4062965, 34.6295427], [-98.4054644, 34.6295427], [-98.4054644, 34.6294615], [-98.4062965, 34.6294615], [-98.4062965, 34.6295427]]]}, "properties": {"osm_id": 1349908741, "building": "yes", "name": "", "height": null, "height_m": null, "levels": null, "tract_id": "40031000800", "tract_name": "8", "tags": {"building": "yes"}}}, {"type": "Feature", "geometry": {"type": "Polygon", "coordinates": [[[-98.4112677, 34.6239438], [-98.4110802, 34.6239421], [-98.4110816, 34.6238351], [-98.4112691, 34.6238368], [-98.4112677, 34.6239438]]]}, "properties": {"osm_id": 1349908742, "building": "yes", "name": "", "height": null, "height_m": null, "levels": null, "tract_id": "40031000800", "tract_name": "8", "tags": {"building": "yes"}}}, {"type": "Feature", "geometry": {"type": "Polygon", "coordinates": [[[-98.4116199, 34.6240381], [-98.4115025, 34.6240363], [-98.411504, 34.6239726], [-98.4116213, 34.6239744], [-98.4116199, 34.6240381]]]}, "properties": {"osm_id": 1349908743, "building": "yes", "name": "", "height": null, "height_m": null, "levels": null, "tract_id": "40031000800", "tract_name": "8", "tags": {"building": "yes"}}}, {"type": "Feature", "geometry": {"type": "Polygon", "coordinates": [[[-98.4114903, 34.6240908], [-98.4113522, 34.6240886], [-98.4113539, 34.6240136], [-98.4114921, 34.6240158], [-98.4114903, 34.6240908]]]}, "properties": {"osm_id": 1349908744, "building": "yes", "name": "", "height": null, "height_m": null, "levels": null, "tract_id": "40031000800", "tract_name": "8", "tags": {"building": "yes"}}}, {"type": "Feature", "geometry": {"type": "Polygon", "coordinates": [[[-98.4116465, 34.6241879], [-98.4114987, 34.6241857], [-98.4115006, 34.6240958], [-98.4116485, 34.624098], [-98.4116465, 34.6241879]]]}, "properties": {"osm_id": 1349908745, "building": "yes", "name": "", "height": null, "height_m": null, "levels": null, "tract_id": "40031000800", "tract_name": "8", "tags": {"building": "yes"}}}, {"type": "Feature", "geometry": {"type": "Polygon", "coordinates": [[[-98.4155029, 34.6241797], [-98.4154025, 34.6241802], [-98.4153998, 34.6238414], [-98.4155002, 34.6238409], [-98.4155029, 34.6241797]]]}, "properties": {"osm_id": 1349908746, "building": "yes", "name": "", "height": null, "height_m": null, "levels": null, "tract_id": "40031000800", "tract_name": "8", "tags": {"building": "yes"}}}, {"type": "Feature", "geometry": {"type": "Polygon", "coordinates": [[[-98.4151096, 34.6240268], [-98.4149988, 34.6240274], [-98.4149978, 34.6238947], [-98.4151086, 34.6238941], [-98.4151096, 34.6240268]]]}, "properties": {"osm_id": 1349908747, "building": "yes", "name": "", "height": null, "height_m": null, "levels": null, "tract_id": "40031000800", "tract_name": "8", "tags": {"building": "yes"}}}, {"type": "Feature", "geometry": {"type": "Polygon", "coordinates": [[[-98.4151096, 34.6241719], [-98.4149994, 34.624174], [-98.4149957, 34.6240438], [-98.4151059, 34.6240417], [-98.4151096, 34.6241719]]]}, "properties": {"osm_id": 1349908748, "building": "yes", "name": "", "height": null, "height_m": null, "levels": null, "tract_id": "40031000800", "tract_name": "8", "tags": {"building": "yes"}}}, {"type": "Feature", "geometry": {"type": "Polygon", "coordinates": [[[-98.4168044, 34.6237186], [-98.4166605, 34.6237191], [-98.4166595, 34.6235299], [-98.4168034, 34.6235294], [-98.4168044, 34.6237186]]]}, "properties": {"osm_id": 1349908749, "building": "yes", "name": "", "height": null, "height_m": null, "levels": null, "tract_id": "40031000800", "tract_name": "8", "tags": {"building": "yes"}}}, {"type": "Feature", "geometry": {"type": "Polygon", "coordinates": [[[-98.4200573, 34.624093], [-98.4198533, 34.6240935], [-98.4198527, 34.6238993], [-98.4200566, 34.6238988], [-98.4200573, 34.624093]]]}, "properties": {"osm_id": 1349908750, "building": "yes", "name": "", "height": null, "height_m": null, "levels": null, "tract_id": "40031000800", "tract_name": "8", "tags": {"building": "yes"}}}, {"type": "Feature", "geometry": {"type": "Polygon", "coordinates": [[[-98.4120693, 34.6245027], [-98.4118822, 34.6245036], [-98.4118816, 34.6244071], [-98.4120687, 34.6244063], [-98.4120693, 34.6245027]]]}, "properties": {"osm_id": 1350331325, "building": "yes", "name": "", "height": null, "height_m": null, "levels": null, "tract_id": "40031000800", "tract_name": "8", "tags": {"building": "yes"}}}, {"type": "Feature", "geometry": {"type": "Polygon", "coordinates": [[[-98.4115674, 34.6256016], [-98.4114403, 34.6256016], [-98.4114403, 34.6254554], [-98.4115674, 34.6254554], [-98.4115674, 34.6256016]]]}, "properties": {"osm_id": 1350331326, "building": "yes", "name": "", "height": null, "height_m": null, "levels": null, "tract_id": "40031000800", "tract_name": "8", "tags": {"building": "yes"}}}, {"type": "Feature", "geometry": {"type": "Polygon", "coordinates": [[[-98.4105689, 34.6268324], [-98.4104744, 34.6268324], [-98.4104744, 34.626719], [-98.4105689, 34.626719], [-98.4105689, 34.6268324]]]}, "properties": {"osm_id": 1350331327, "building": "yes", "name": "", "height": null, "height_m": null, "levels": null, "tract_id": "40031000800", "tract_name": "8", "tags": {"building": "yes"}}}, {"type": "Feature", "geometry": {"type": "Polygon", "coordinates": [[[-98.41086, 34.6268329], [-98.4107586, 34.6268333], [-98.410758, 34.6267141], [-98.4108593, 34.6267137], [-98.41086, 34.6268329]]]}, "properties": {"osm_id": 1350331328, "building": "yes", "name": "", "height": null, "height_m": null, "levels": null, "tract_id": "40031000800", "tract_name": "8", "tags": {"building": "yes"}}}, {"type": "Feature", "geometry": {"type": "Polygon", "coordinates": [[[-98.4110434, 34.6268307], [-98.4109403, 34.6268312], [-98.4109393, 34.6266994], [-98.4110424, 34.6266988], [-98.4110434, 34.6268307]]]}, "properties": {"osm_id": 1350331329, "building": "yes", "name": "", "height": null, "height_m": null, "levels": null, "tract_id": "40031000800", "tract_name": "8", "tags": {"building": "yes"}}}, {"type": "Feature", "geometry": {"type": "Polygon", "coordinates": [[[-98.4110776, 34.626626], [-98.4105428, 34.6266227], [-98.4105435, 34.6265413], [-98.4110783, 34.6265446], [-98.4110776, 34.626626]]]}, "properties": {"osm_id": 1350331330, "building": "yes", "name": "", "height": null, "height_m": null, "levels": null, "tract_id": "40031000800", "tract_name": "8", "tags": {"building": "yes"}}}, {"type": "Feature", "geometry": {"type": "Polygon", "coordinates": [[[-98.4124173, 34.6259308], [-98.4120874, 34.6259288], [-98.4120884, 34.62582], [-98.4124183, 34.625822], [-98.4124173, 34.6259308]]]}, "properties": {"osm_id": 1350331331, "building": "yes", "name": "", "height": null, "height_m": null, "levels": null, "tract_id": "40031000800", "tract_name": "8", "tags": {"building": "yes"}}}, {"type": "Feature", "geometry": {"type": "Polygon", "coordinates": [[[-98.4124187, 34.6257614], [-98.4120874, 34.6257586], [-98.4120888, 34.6256493], [-98.41242, 34.6256521], [-98.4124187, 34.6257614]]]}, "properties": {"osm_id": 1350331332, "building": "yes", "name": "", "height": null, "height_m": null, "levels": null, "tract_id": "40031000800", "tract_name": "8", "tags": {"building": "yes"}}}, {"type": "Feature", "geometry": {"type": "Polygon", "coordinates": [[[-98.4125796, 34.6257531], [-98.4124776, 34.6257533], [-98.4124773, 34.6256369], [-98.4125793, 34.6256367], [-98.4125796, 34.6257531]]]}, "properties": {"osm_id": 1350331333, "building": "yes", "name": "", "height": null, "height_m": null, "levels": null, "tract_id": "40031000800", "tract_name": "8", "tags": {"building": "yes"}}}, {"type": "Feature", "geometry": {"type": "Polygon", "coordinates": [[[-98.4128921, 34.6257605], [-98.4126235, 34.6257567], [-98.4126259, 34.6256434], [-98.4128945, 34.6256473], [-98.4128921, 34.6257605]]]}, "properties": {"osm_id": 1350331334, "building": "yes", "name": "", "height": null, "height_m": null, "levels": null, "tract_id": "40031000800", "tract_name": "8", "tags": {"building": "yes"}}}, {"type": "Feature", "geometry": {"type": "Polygon", "coordinates": [[[-98.4128887, 34.6259305], [-98.4126309, 34.6259302], [-98.4126311, 34.6258196], [-98.4128889, 34.6258198], [-98.4128887, 34.6259305]]]}, "properties": {"osm_id": 1350331335, "building": "yes", "name": "", "height": null, "height_m": null, "levels": null, "tract_id": "40031000800", "tract_name": "8", "tags": {"building": "yes"}}}, {"type": "Feature", "geometry": {"type": "Polygon", "coordinates": [[[-98.4160879, 34.6240147], [-98.4159756, 34.6240147], [-98.4159756, 34.6238395], [-98.4160879, 34.6238395], [-98.4160879, 34.6240147]]]}, "properties": {"osm_id": 1350331337, "building": "yes", "name": "", "height": null, "height_m": null, "levels": null, "tract_id": "40031000800", "tract_name": "8", "tags": {"building": "yes"}}}]}