{"type": "FeatureCollection", "features": [{"type": "Feature", "geometry": {"type": "Polygon", "coordinates": [[[-96.4685844, 35.8699713], [-96.4684617, 35.8700669], [-96.4683756, 35.8699944], [-96.4684983, 35.8698988], [-96.4685844, 35.8699713]]]}, "properties": {"osm_id": 382767829, "building": "yes", "name": "", "height": null, "height_m": null, "levels": null, "tract_id": "40037020702", "tract_name": "207.02", "tags": {"building": "yes"}}}, {"type": "Feature", "geometry": {"type": "Polygon", "coordinates": [[[-96.4699178, 35.8693038], [-96.4698102, 35.8693329], [-96.4697536, 35.8691952], [-96.4698612, 35.8691661], [-96.4699178, 35.8693038]]]}, "properties": {"osm_id": 382767830, "building": "yes", "name": "", "height": null, "height_m": null, "levels": null, "tract_id": "40037020702", "tract_name": "207.02", "tags": {"building": "yes"}}}, {"type": "Feature", "geometry": {"type": "Polygon", "coordinates": [[[-96.4712303, 35.8713894], [-96.4710591, 35.8713845], [-96.4710632, 35.8712917], [-96.4711661, 35.8712946], [-96.471165, 35.8713187], [-96.4712333, 35.8713207], [-96.4712303, 35.8713894]]]}, "properties": {"osm_id": 382767832, "building": "yes", "name": "", "height": null, "height_m": null, "levels": null, "tract_id": "40037020702", "tract_name": "207.02", "tags": {"building": "yes"}}}, {"type": "Feature", "geometry": {"type": "Polygon", "coordinates": [[[-96.6178871, 35.7715533], [-96.6177691, 35.7713803], [-96.6178312, 35.7713524], [-96.6179492, 35.7715254], [-96.6178871, 35.7715533]]]}, "properties": {"osm_id": 407628988, "building": "roof", "name": "", "height": null, "height_m": null, "levels": null, "tract_id": "40037020702", "tract_name": "207.02", "tags": {"building": "roof"}}}, {"type": "Feature", "geometry": {"type": "Polygon", "coordinates": [[[-96.3861519, 36.0026816], [-96.385991, 36.0026816], [-96.385991, 36.0026208], [-96.3861519, 36.0026208], [-96.3861519, 36.0026816]]]}, "properties": {"osm_id": 516484312, "building": "roof", "name": "", "height": null, "height_m": null, "levels": null, "tract_id": "40037020702", "tract_name": "207.02", "tags": {"amenity": "fuel", "building": "roof"}}}, {"type": "Feature", "geometry": {"type": "Polygon", "coordinates": [[[-96.3864751, 36.0028454], [-96.3862015, 36.0028476], [-96.3862005, 36.0027653], [-96.3864741, 36.0027631], [-96.3864751, 36.0028454]]]}, "properties": {"osm_id": 516484313, "building": "roof", "name": "", "height": null, "height_m": null, "levels": null, "tract_id": "40037020702", "tract_name": "207.02", "tags": {"amenity": "fuel", "building": "roof"}}}, {"type": "Feature", "geometry": {"type": "Polygon", "coordinates": [[[-96.3861693, 36.0024526], [-96.3865086, 36.0024461], [-96.386513, 36.0025961], [-96.3861737, 36.0026026], [-96.3861693, 36.0024526]]]}, "properties": {"osm_id": 516484314, "building": "retail", "name": "", "height": null, "height_m": null, "levels": null, "tract_id": "40037020702", "tract_name": "207.02", "tags": {"building": "retail", "shop": "convenience"}}}, {"type": "Feature", "geometry": {"type": "Polygon", "coordinates": [[[-96.3179983, 35.9067613], [-96.3179702, 35.9067188], [-96.3181928, 35.9066221], [-96.3182209, 35.9066646], [-96.3179983, 35.9067613]]]}, "properties": {"osm_id": 584469102, "building": "house", "name": "", "height": null, "height_m": null, "levels": null, "tract_id": "40037020702", "tract_name": "207.02", "tags": {"addr:city": "Bristow", "addr:country": "US", "addr:housenumber": "28991", "addr:postcode": "74010", "addr:state": "OK", "addr:street": "West Highway 66", "building": "house"}}}, {"type": "Feature", "geometry": {"type": "Polygon", "coordinates": [[[-96.3143325, 35.9878565], [-96.3144318, 35.9876168], [-96.3143246, 35.9875876], [-96.3142252, 35.9878273], [-96.3143325, 35.9878565]]]}, "properties": {"osm_id": 854324713, "building": "detached", "name": "", "height": null, "height_m": null, "levels": null, "tract_id": "40037020702", "tract_name": "207.02", "tags": {"building": "detached"}}}, {"type": "Feature", "geometry": {"type": "Polygon", "coordinates": [[[-96.3158404, 35.9874586], [-96.3156366, 35.9874379], [-96.315618, 35.9875584], [-96.3158217, 35.9875791], [-96.3158404, 35.9874586]]]}, "properties": {"osm_id": 854324714, "building": "farm_auxiliary", "name": "", "height": null, "height_m": null, "levels": null, "tract_id": "40037020702", "tract_name": "207.02", "tags": {"building": "farm_auxiliary"}}}, {"type": "Feature", "geometry": {"type": "Polygon", "coordinates": [[[-96.3141787, 35.987417], [-96.3141822, 35.9873035], [-96.3142838, 35.9873056], [-96.3142803, 35.9874191], [-96.3141787, 35.987417]]]}, "properties": {"osm_id": 854324715, "building": "yes", "name": "", "height": null, "height_m": null, "levels": null, "tract_id": "40037020702", "tract_name": "207.02", "tags": {"building": "yes"}}}, {"type": "Feature", "geometry": {"type": "Polygon", "coordinates": [[[-96.3147485, 35.9875045], [-96.3146878, 35.9875261], [-96.3147166, 35.9875791], [-96.3147772, 35.9875576], [-96.3147485, 35.9875045]]]}, "properties": {"osm_id": 854324716, "building": "yes", "name": "", "height": null, "height_m": null, "levels": null, "tract_id": "40037020702", "tract_name": "207.02", "tags": {"building": "yes"}}}, {"type": "Feature", "geometry": {"type": "Polygon", "coordinates": [[[-96.3091285, 35.9864387], [-96.3091646, 35.9863116], [-96.3092672, 35.9863307], [-96.3092311, 35.9864577], [-96.3091285, 35.9864387]]]}, "properties": {"osm_id": 855652134, "building": "yes", "name": "", "height": null, "height_m": null, "levels": null, "tract_id": "40037020702", "tract_name": "207.02", "tags": {"building": "yes"}}}, {"type": "Feature", "geometry": {"type": "Polygon", "coordinates": [[[-96.3095447, 35.9862038], [-96.3095981, 35.9860802], [-96.3096699, 35.9861005], [-96.3096166, 35.9862241], [-96.3095447, 35.9862038]]]}, "properties": {"osm_id": 855652135, "building": "yes", "name": "", "height": null, "height_m": null, "levels": null, "tract_id": "40037020702", "tract_name": "207.02", "tags": {"building": "yes"}}}, {"type": "Feature", "geometry": {"type": "Polygon", "coordinates": [[[-96.2803185, 35.9442079], [-96.280234, 35.9442075], [-96.2802343, 35.9441592], [-96.2803188, 35.9441596], [-96.2803185, 35.9442079]]]}, "properties": {"osm_id": 972724511, "building": "service", "name": "", "height": null, "height_m": null, "levels": null, "tract_id": "40037020702", "tract_name": "207.02", "tags": {"building": "service"}}}, {"type": "Feature", "geometry": {"type": "Polygon", "coordinates": [[[-96.4762311, 35.8712523], [-96.47623, 35.8711907], [-96.4761298, 35.8711898], [-96.4761286, 35.8712523], [-96.4762311, 35.8712523]]]}, "properties": {"osm_id": 986226907, "building": "yes", "name": "", "height": null, "height_m": null, "levels": null, "tract_id": "40037020702", "tract_name": "207.02", "tags": {"building": "yes"}}}, {"type": "Feature", "geometry": {"type": "Polygon", "coordinates": [[[-96.4760136, 35.8713807], [-96.4758813, 35.8713818], [-96.475876, 35.871295], [-96.4760136, 35.8712917], [-96.4760136, 35.8713807]]]}, "properties": {"osm_id": 986226908, "building": "yes", "name": "", "height": null, "height_m": null, "levels": null, "tract_id": "40037020702", "tract_name": "207.02", "tags": {"building": "yes"}}}, {"type": "Feature", "geometry": {"type": "Polygon", "coordinates": [[[-96.5307544, 35.8533054], [-96.5307725, 35.8532616], [-96.5306963, 35.8532433], [-96.5306796, 35.8532881], [-96.5307544, 35.8533054]]]}, "properties": {"osm_id": 1021133511, "building": "service", "name": "", "height": null, "height_m": null, "levels": null, "tract_id": "40037020702", "tract_name": "207.02", "tags": {"building": "service"}}}, {"type": "Feature", "geometry": {"type": "Polygon", "coordinates": [[[-96.61807, 35.771629], [-96.618159, 35.771651], [-96.618186, 35.771577], [-96.618098, 35.771555], [-96.61807, 35.771629]]]}, "properties": {"osm_id": 1026617010, "building": "yes", "name": "", "height": null, "height_m": null, "levels": null, "tract_id": "40037020702", "tract_name": "207.02", "tags": {"building": "yes", "source": "microsoft/BuildingFootprints"}}}, {"type": "Feature", "geometry": {"type": "Polygon", "coordinates": [[[-96.6182906, 35.7716671], [-96.6183128, 35.7715961], [-96.6182182, 35.7715857], [-96.6181914, 35.7716539], [-96.6182906, 35.7716671]]]}, "properties": {"osm_id": 1026617011, "building": "yes", "name": "", "height": null, "height_m": null, "levels": null, "tract_id": "40037020702", "tract_name": "207.02", "tags": {"building": "yes"}}}, {"type": "Feature", "geometry": {"type": "Polygon", "coordinates": [[[-96.2578862, 35.9428292], [-96.2578877, 35.9427778], [-96.2578433, 35.942777], [-96.2578418, 35.9428283], [-96.2578862, 35.9428292]]]}, "properties": {"osm_id": 1092772405, "building": "yes", "name": "", "height": null, "height_m": null, "levels": null, "tract_id": "40037020702", "tract_name": "207.02", "tags": {"building": "yes"}}}, {"type": "Feature", "geometry": {"type": "Polygon", "coordinates": [[[-96.2578268, 35.942829], [-96.2578271, 35.9428156], [-96.257788, 35.9428151], [-96.2577877, 35.9428285], [-96.2578268, 35.942829]]]}, "properties": {"osm_id": 1092772406, "building": "yes", "name": "", "height": null, "height_m": null, "levels": null, "tract_id": "40037020702", "tract_name": "207.02", "tags": {"building": "yes"}}}, {"type": "Feature", "geometry": {"type": "Polygon", "coordinates": [[[-96.2578304, 35.9428077], [-96.2577882, 35.9428077], [-96.2577883, 35.942749], [-96.2578305, 35.942749], [-96.2578304, 35.9428077]]]}, "properties": {"osm_id": 1092772407, "building": "yes", "name": "", "height": null, "height_m": null, "levels": null, "tract_id": "40037020702", "tract_name": "207.02", "tags": {"building": "yes"}}}, {"type": "Feature", "geometry": {"type": "Polygon", "coordinates": [[[-96.6180403, 35.9588926], [-96.6180393, 35.9588049], [-96.6178183, 35.9588066], [-96.6178186, 35.9588309], [-96.6177826, 35.9588311], [-96.6177836, 35.9589102], [-96.6179475, 35.958909], [-96.6179473, 35.9588934], [-96.6180403, 35.9588926]]]}, "properties": {"osm_id": 1244692121, "building": "house", "name": "", "height": null, "height_m": null, "levels": null, "tract_id": "40037020702", "tract_name": "207.02", "tags": {"addr:city": "Cushing", "addr:housenumber": "55940", "addr:postcode": "74023", "addr:state": "OK", "addr:street": "West 141st Street South", "building": "house"}}}]}