{"type": "FeatureCollection", "features": [{"type": "Feature", "geometry": {"type": "Polygon", "coordinates": [[[-95.896446, 36.0988294], [-95.8956488, 36.0988294], [-95.8956488, 36.0987107], [-95.8957709, 36.0987107], [-95.8957709, 36.0985934], [-95.896446, 36.0985934], [-95.896446, 36.0986522], [-95.8965927, 36.0986522], [-95.8965927, 36.0988165], [-95.896446, 36.0988165], [-95.896446, 36.0988294]]]}, "properties": {"osm_id": 192349614, "building": "yes", "name": "Mazzio's Corporation", "height": null, "height_m": null, "levels": null, "tract_id": "40143006905", "tract_name": "69.05", "tags": {"addr:city": "Tulsa", "addr:country": "US", "addr:housenumber": "4441", "addr:postcode": "74145", "addr:state": "OK", "addr:street": "South 72nd East Avenue", "building": "yes", "name": "Mazzio's Corporation"}}}, {"type": "Feature", "geometry": {"type": "Polygon", "coordinates": [[[-95.8955277, 36.0974622], [-95.8955314, 36.0977928], [-95.8949793, 36.0977969], [-95.8949787, 36.0977382], [-95.8948201, 36.0977393], [-95.8948188, 36.0976253], [-95.8949887, 36.097624], [-95.8949875, 36.0975192], [-95.8952726, 36.0975171], [-95.8952738, 36.0976232], [-95.8953888, 36.0976224], [-95.895387, 36.0974632], [-95.8955277, 36.0974622]]]}, "properties": {"osm_id": 192349615, "building": "yes", "name": "", "height": null, "height_m": null, "levels": null, "tract_id": "40143006905", "tract_name": "69.05", "tags": {"building": "yes"}}}, {"type": "Feature", "geometry": {"type": "Polygon", "coordinates": [[[-95.896601, 36.0992028], [-95.8960069, 36.0992037], [-95.8960062, 36.0989179], [-95.8966003, 36.098917], [-95.896601, 36.0992028]]]}, "properties": {"osm_id": 192349621, "building": "yes", "name": "Mazzio's Corporation", "height": null, "height_m": null, "levels": null, "tract_id": "40143006905", "tract_name": "69.05", "tags": {"addr:city": "Tulsa", "addr:country": "US", "addr:housenumber": "4441", "addr:postcode": "74145", "addr:state": "OK", "addr:street": "South 72nd East Avenue", "building": "yes", "name": "Mazzio's Corporation"}}}, {"type": "Feature", "geometry": {"type": "Polygon", "coordinates": [[[-95.8891239, 36.1021329], [-95.8888509, 36.1020653], [-95.8890241, 36.1016088], [-95.8892971, 36.1016764], [-95.8891239, 36.1021329]]]}, "properties": {"osm_id": 199139818, "building": "yes", "name": "", "height": null, "height_m": null, "levels": null, "tract_id": "40143006905", "tract_name": "69.05", "tags": {"building": "yes"}}}, {"type": "Feature", "geometry": {"type": "Polygon", "coordinates": [[[-95.8896063, 36.1021695], [-95.8894597, 36.1021329], [-95.8894304, 36.102204], [-95.8892944, 36.1021695], [-95.8894037, 36.1018982], [-95.8893691, 36.1018874], [-95.8894384, 36.1017173], [-95.8897582, 36.1018078], [-95.8896063, 36.1021695]]]}, "properties": {"osm_id": 199139819, "building": "yes", "name": "", "height": null, "height_m": null, "levels": null, "tract_id": "40143006905", "tract_name": "69.05", "tags": {"building": "yes"}}}, {"type": "Feature", "geometry": {"type": "Polygon", "coordinates": [[[-95.8931977, 36.0916322], [-95.8931049, 36.0916017], [-95.8932243, 36.0913643], [-95.8933172, 36.0913947], [-95.8931977, 36.0916322]]]}, "properties": {"osm_id": 250698424, "building": "yes", "name": "", "height": null, "height_m": null, "levels": null, "tract_id": "40143006905", "tract_name": "69.05", "tags": {"building": "yes"}}}, {"type": "Feature", "geometry": {"type": "Polygon", "coordinates": [[[-95.8923177, 36.0918289], [-95.8921683, 36.0921259], [-95.8920051, 36.0920723], [-95.8921545, 36.0917753], [-95.8923177, 36.0918289]]]}, "properties": {"osm_id": 250698425, "building": "yes", "name": "", "height": null, "height_m": null, "levels": null, "tract_id": "40143006905", "tract_name": "69.05", "tags": {"building": "yes"}}}, {"type": "Feature", "geometry": {"type": "Polygon", "coordinates": [[[-95.8916873, 36.091078], [-95.891314, 36.091073], [-95.891317, 36.090926], [-95.8916902, 36.0909309], [-95.8916873, 36.091078]]]}, "properties": {"osm_id": 250698426, "building": "yes", "name": "", "height": null, "height_m": null, "levels": null, "tract_id": "40143006905", "tract_name": "69.05", "tags": {"building": "yes"}}}, {"type": "Feature", "geometry": {"type": "Polygon", "coordinates": [[[-95.8911959, 36.0927657], [-95.8910045, 36.0927631], [-95.8910139, 36.0922993], [-95.8912053, 36.0923018], [-95.8911959, 36.0927657]]]}, "properties": {"osm_id": 250698427, "building": "yes", "name": "", "height": null, "height_m": null, "levels": null, "tract_id": "40143006905", "tract_name": "69.05", "tags": {"building": "yes"}}}, {"type": "Feature", "geometry": {"type": "Polygon", "coordinates": [[[-95.8952246, 36.0936894], [-95.8946169, 36.0936814], [-95.8946196, 36.0935495], [-95.8952273, 36.0935575], [-95.8952246, 36.0936894]]]}, "properties": {"osm_id": 250698428, "building": "yes", "name": "", "height": null, "height_m": null, "levels": null, "tract_id": "40143006905", "tract_name": "69.05", "tags": {"building": "yes"}}}, {"type": "Feature", "geometry": {"type": "Polygon", "coordinates": [[[-95.8918955, 36.092649], [-95.8917341, 36.0925967], [-95.891885, 36.0922926], [-95.8920464, 36.0923449], [-95.8918955, 36.092649]]]}, "properties": {"osm_id": 250698429, "building": "yes", "name": "", "height": null, "height_m": null, "levels": null, "tract_id": "40143006905", "tract_name": "69.05", "tags": {"building": "yes"}}}, {"type": "Feature", "geometry": {"type": "Polygon", "coordinates": [[[-95.891273, 36.0920418], [-95.8908683, 36.0920365], [-95.8908714, 36.0918849], [-95.891276, 36.0918903], [-95.891273, 36.0920418]]]}, "properties": {"osm_id": 250698430, "building": "yes", "name": "", "height": null, "height_m": null, "levels": null, "tract_id": "40143006905", "tract_name": "69.05", "tags": {"building": "yes"}}}, {"type": "Feature", "geometry": {"type": "Polygon", "coordinates": [[[-95.8912449, 36.0905481], [-95.8910681, 36.0905522], [-95.8910575, 36.0902531], [-95.8912343, 36.090249], [-95.8912449, 36.0905481]]]}, "properties": {"osm_id": 250698431, "building": "yes", "name": "", "height": null, "height_m": null, "levels": null, "tract_id": "40143006905", "tract_name": "69.05", "tags": {"building": "yes"}}}, {"type": "Feature", "geometry": {"type": "Polygon", "coordinates": [[[-95.8950472, 36.0934922], [-95.8948672, 36.0934872], [-95.8948878, 36.0930033], [-95.8950678, 36.0930083], [-95.8950472, 36.0934922]]]}, "properties": {"osm_id": 250698432, "building": "yes", "name": "", "height": null, "height_m": null, "levels": null, "tract_id": "40143006905", "tract_name": "69.05", "tags": {"building": "yes"}}}, {"type": "Feature", "geometry": {"type": "Polygon", "coordinates": [[[-95.8931618, 36.0904974], [-95.8928605, 36.0904934], [-95.8928668, 36.0901816], [-95.8931681, 36.0901856], [-95.8931618, 36.0904974]]]}, "properties": {"osm_id": 250698433, "building": "yes", "name": "", "height": null, "height_m": null, "levels": null, "tract_id": "40143006905", "tract_name": "69.05", "tags": {"building": "yes"}}}, {"type": "Feature", "geometry": {"type": "Polygon", "coordinates": [[[-95.8917718, 36.0915094], [-95.8913609, 36.091504], [-95.8913639, 36.0913574], [-95.8917748, 36.0913628], [-95.8917718, 36.0915094]]]}, "properties": {"osm_id": 250698434, "building": "yes", "name": "", "height": null, "height_m": null, "levels": null, "tract_id": "40143006905", "tract_name": "69.05", "tags": {"building": "yes"}}}, {"type": "Feature", "geometry": {"type": "Polygon", "coordinates": [[[-95.8907302, 36.0912965], [-95.8903475, 36.0912915], [-95.8903508, 36.0911293], [-95.8907335, 36.0911344], [-95.8907302, 36.0912965]]]}, "properties": {"osm_id": 250698435, "building": "yes", "name": "", "height": null, "height_m": null, "levels": null, "tract_id": "40143006905", "tract_name": "69.05", "tags": {"building": "yes"}}}, {"type": "Feature", "geometry": {"type": "Polygon", "coordinates": [[[-95.8908212, 36.0918416], [-95.8908089, 36.0913727], [-95.8909971, 36.0913695], [-95.8910094, 36.0918383], [-95.8908212, 36.0918416]]]}, "properties": {"osm_id": 250698436, "building": "yes", "name": "", "height": null, "height_m": null, "levels": null, "tract_id": "40143006905", "tract_name": "69.05", "tags": {"building": "yes"}}}, {"type": "Feature", "geometry": {"type": "Polygon", "coordinates": [[[-95.8915649, 36.0904036], [-95.8913171, 36.0904003], [-95.8913206, 36.0902265], [-95.8915684, 36.0902298], [-95.8915649, 36.0904036]]]}, "properties": {"osm_id": 250698437, "building": "yes", "name": "", "height": null, "height_m": null, "levels": null, "tract_id": "40143006905", "tract_name": "69.05", "tags": {"building": "yes"}}}, {"type": "Feature", "geometry": {"type": "Polygon", "coordinates": [[[-95.8926587, 36.0926666], [-95.8925559, 36.0926328], [-95.8926743, 36.0923975], [-95.892777, 36.0924312], [-95.8926587, 36.0926666]]]}, "properties": {"osm_id": 250698438, "building": "yes", "name": "", "height": null, "height_m": null, "levels": null, "tract_id": "40143006905", "tract_name": "69.05", "tags": {"building": "yes"}}}, {"type": "Feature", "geometry": {"type": "Polygon", "coordinates": [[[-95.8936273, 36.0908102], [-95.8935148, 36.0907954], [-95.8935546, 36.0905982], [-95.8936671, 36.090613], [-95.8936273, 36.0908102]]]}, "properties": {"osm_id": 250698439, "building": "yes", "name": "", "height": null, "height_m": null, "levels": null, "tract_id": "40143006905", "tract_name": "69.05", "tags": {"building": "yes"}}}, {"type": "Feature", "geometry": {"type": "Polygon", "coordinates": [[[-95.8919663, 36.092052], [-95.8915805, 36.0920469], [-95.8915833, 36.0919053], [-95.8919692, 36.0919103], [-95.8919663, 36.092052]]]}, "properties": {"osm_id": 250698440, "building": "yes", "name": "", "height": null, "height_m": null, "levels": null, "tract_id": "40143006905", "tract_name": "69.05", "tags": {"building": "yes"}}}, {"type": "Feature", "geometry": {"type": "Polygon", "coordinates": [[[-95.8918755, 36.0912148], [-95.8917239, 36.0911651], [-95.8918792, 36.0908562], [-95.8920308, 36.090906], [-95.8918755, 36.0912148]]]}, "properties": {"osm_id": 250698441, "building": "yes", "name": "", "height": null, "height_m": null, "levels": null, "tract_id": "40143006905", "tract_name": "69.05", "tags": {"building": "yes"}}}, {"type": "Feature", "geometry": {"type": "Polygon", "coordinates": [[[-95.8948032, 36.0934814], [-95.8946784, 36.0934798], [-95.8946879, 36.0930067], [-95.8948127, 36.0930083], [-95.8948032, 36.0934814]]]}, "properties": {"osm_id": 250698442, "building": "yes", "name": "", "height": null, "height_m": null, "levels": null, "tract_id": "40143006905", "tract_name": "69.05", "tags": {"building": "yes"}}}, {"type": "Feature", "geometry": {"type": "Polygon", "coordinates": [[[-95.8917136, 36.0928721], [-95.8914592, 36.0926427], [-95.8915912, 36.0925471], [-95.8918456, 36.0927766], [-95.8917136, 36.0928721]]]}, "properties": {"osm_id": 250698443, "building": "yes", "name": "", "height": null, "height_m": null, "levels": null, "tract_id": "40143006905", "tract_name": "69.05", "tags": {"building": "yes"}}}, {"type": "Feature", "geometry": {"type": "Polygon", "coordinates": [[[-95.8928317, 36.0923654], [-95.8927137, 36.0923272], [-95.8928293, 36.0920942], [-95.8929473, 36.0921324], [-95.8928317, 36.0923654]]]}, "properties": {"osm_id": 250698444, "building": "yes", "name": "", "height": null, "height_m": null, "levels": null, "tract_id": "40143006905", "tract_name": "69.05", "tags": {"building": "yes"}}}, {"type": "Feature", "geometry": {"type": "Polygon", "coordinates": [[[-95.8923836, 36.091768], [-95.8920009, 36.0916424], [-95.8920735, 36.091498], [-95.8924562, 36.0916236], [-95.8923836, 36.091768]]]}, "properties": {"osm_id": 250698445, "building": "yes", "name": "", "height": null, "height_m": null, "levels": null, "tract_id": "40143006905", "tract_name": "69.05", "tags": {"building": "yes"}}}, {"type": "Feature", "geometry": {"type": "Polygon", "coordinates": [[[-95.8912512, 36.0910982], [-95.8910647, 36.0911014], [-95.8910563, 36.0907795], [-95.8912428, 36.0907764], [-95.8912512, 36.0910982]]]}, "properties": {"osm_id": 250698446, "building": "yes", "name": "", "height": null, "height_m": null, "levels": null, "tract_id": "40143006905", "tract_name": "69.05", "tags": {"building": "yes"}}}, {"type": "Feature", "geometry": {"type": "Polygon", "coordinates": [[[-95.8946434, 36.0935316], [-95.894519, 36.0935338], [-95.8945053, 36.0930105], [-95.8946297, 36.0930084], [-95.8946434, 36.0935316]]]}, "properties": {"osm_id": 250698447, "building": "yes", "name": "", "height": null, "height_m": null, "levels": null, "tract_id": "40143006905", "tract_name": "69.05", "tags": {"building": "yes"}}}, {"type": "Feature", "geometry": {"type": "Polygon", "coordinates": [[[-95.8915159, 36.0929507], [-95.8910016, 36.0929595], [-95.8909977, 36.0928112], [-95.891512, 36.0928024], [-95.8915159, 36.0929507]]]}, "properties": {"osm_id": 250698448, "building": "yes", "name": "", "height": null, "height_m": null, "levels": null, "tract_id": "40143006905", "tract_name": "69.05", "tags": {"building": "yes"}}}, {"type": "Feature", "geometry": {"type": "Polygon", "coordinates": [[[-95.8920575, 36.0908244], [-95.8919012, 36.0908271], [-95.8918913, 36.0904494], [-95.8920476, 36.0904468], [-95.8920575, 36.0908244]]]}, "properties": {"osm_id": 250698449, "building": "yes", "name": "", "height": null, "height_m": null, "levels": null, "tract_id": "40143006905", "tract_name": "69.05", "tags": {"building": "yes"}}}, {"type": "Feature", "geometry": {"type": "Polygon", "coordinates": [[[-95.891703, 36.0907281], [-95.8910662, 36.0907197], [-95.8910686, 36.090599], [-95.8917054, 36.0906074], [-95.891703, 36.0907281]]]}, "properties": {"osm_id": 250698450, "building": "yes", "name": "", "height": null, "height_m": null, "levels": null, "tract_id": "40143006905", "tract_name": "69.05", "tags": {"building": "yes"}}}, {"type": "Feature", "geometry": {"type": "Polygon", "coordinates": [[[-95.8923335, 36.0910982], [-95.8924355, 36.0908842], [-95.8927476, 36.0909813], [-95.8926457, 36.0911953], [-95.8923335, 36.0910982]]]}, "properties": {"osm_id": 250698451, "building": "yes", "name": "", "height": null, "height_m": null, "levels": null, "tract_id": "40143006905", "tract_name": "69.05", "tags": {"building": "yes"}}}, {"type": "Feature", "geometry": {"type": "Polygon", "coordinates": [[[-95.8915177, 36.0920672], [-95.8913438, 36.0920649], [-95.8913516, 36.0916821], [-95.8915254, 36.0916844], [-95.8915177, 36.0920672]]]}, "properties": {"osm_id": 250698452, "building": "yes", "name": "", "height": null, "height_m": null, "levels": null, "tract_id": "40143006905", "tract_name": "69.05", "tags": {"building": "yes"}}}, {"type": "Feature", "geometry": {"type": "Polygon", "coordinates": [[[-95.8920669, 36.0903884], [-95.8916654, 36.0903831], [-95.8916684, 36.0902339], [-95.8920699, 36.0902392], [-95.8920669, 36.0903884]]]}, "properties": {"osm_id": 250698453, "building": "yes", "name": "", "height": null, "height_m": null, "levels": null, "tract_id": "40143006905", "tract_name": "69.05", "tags": {"building": "yes"}}}, {"type": "Feature", "geometry": {"type": "Polygon", "coordinates": [[[-95.8934698, 36.091158], [-95.8933706, 36.0911254], [-95.8934738, 36.0909203], [-95.8935729, 36.0909529], [-95.8934698, 36.091158]]]}, "properties": {"osm_id": 250698454, "building": "yes", "name": "", "height": null, "height_m": null, "levels": null, "tract_id": "40143006905", "tract_name": "69.05", "tags": {"building": "yes"}}}, {"type": "Feature", "geometry": {"type": "Polygon", "coordinates": [[[-95.8918126, 36.0918466], [-95.8916594, 36.0917963], [-95.891854, 36.0914094], [-95.8920072, 36.0914597], [-95.8918126, 36.0918466]]]}, "properties": {"osm_id": 250698455, "building": "yes", "name": "", "height": null, "height_m": null, "levels": null, "tract_id": "40143006905", "tract_name": "69.05", "tags": {"building": "yes"}}}, {"type": "Feature", "geometry": {"type": "Polygon", "coordinates": [[[-95.8912636, 36.0917275], [-95.8910983, 36.0917313], [-95.8910847, 36.0913484], [-95.89125, 36.0913445], [-95.8912636, 36.0917275]]]}, "properties": {"osm_id": 250698456, "building": "yes", "name": "", "height": null, "height_m": null, "levels": null, "tract_id": "40143006905", "tract_name": "69.05", "tags": {"building": "yes"}}}, {"type": "Feature", "geometry": {"type": "Polygon", "coordinates": [[[-95.891701, 36.0924614], [-95.8912932, 36.0924561], [-95.8912961, 36.092312], [-95.8917039, 36.0923173], [-95.891701, 36.0924614]]]}, "properties": {"osm_id": 250698457, "building": "yes", "name": "", "height": null, "height_m": null, "levels": null, "tract_id": "40143006905", "tract_name": "69.05", "tags": {"building": "yes"}}}, {"type": "Feature", "geometry": {"type": "Polygon", "coordinates": [[[-95.8986017, 36.1029913], [-95.8977326, 36.103], [-95.8977326, 36.1029089], [-95.8975771, 36.1029089], [-95.8974805, 36.1028439], [-95.8974698, 36.1014656], [-95.8986929, 36.1014396], [-95.8986929, 36.1014873], [-95.898827, 36.1014916], [-95.8988377, 36.1029003], [-95.898607, 36.1029003], [-95.8986017, 36.1029913]]]}, "properties": {"osm_id": 255357220, "building": "yes", "name": "", "height": null, "height_m": null, "levels": null, "tract_id": "40143006905", "tract_name": "69.05", "tags": {"building": "yes"}}}, {"type": "Feature", "geometry": {"type": "Polygon", "coordinates": [[[-95.8982748, 36.1002393], [-95.8976758, 36.1002415], [-95.8976707, 36.0993397], [-95.8972827, 36.0993412], [-95.8972773, 36.0983714], [-95.898343, 36.0983675], [-95.8983473, 36.0991527], [-95.898536, 36.0991521], [-95.8985384, 36.099581], [-95.8982712, 36.099582], [-95.8982748, 36.1002393]]]}, "properties": {"osm_id": 255357221, "building": "yes", "name": "", "height": null, "height_m": null, "levels": null, "tract_id": "40143006905", "tract_name": "69.05", "tags": {"building": "yes"}}}, {"type": "Feature", "geometry": {"type": "Polygon", "coordinates": [[[-95.8981885, 36.1011318], [-95.8981834, 36.1006117], [-95.8974753, 36.1006162], [-95.8974804, 36.1011363], [-95.8981885, 36.1011318]]]}, "properties": {"osm_id": 255357222, "building": "yes", "name": "", "height": null, "height_m": null, "levels": null, "tract_id": "40143006905", "tract_name": "69.05", "tags": {"building": "yes"}}}, {"type": "Feature", "geometry": {"type": "Polygon", "coordinates": [[[-95.890012, 36.091518], [-95.8893033, 36.0915225], [-95.8893001, 36.0911853], [-95.8900087, 36.0911808], [-95.890012, 36.091518]]]}, "properties": {"osm_id": 330766842, "building": "yes", "name": "", "height": null, "height_m": null, "levels": null, "tract_id": "40143006905", "tract_name": "69.05", "tags": {"building": "yes"}}}, {"type": "Feature", "geometry": {"type": "Polygon", "coordinates": [[[-95.8885819, 36.0914368], [-95.8879715, 36.0914368], [-95.8879715, 36.0911859], [-95.8885819, 36.0911859], [-95.8885819, 36.0914368]]]}, "properties": {"osm_id": 330766843, "building": "yes", "name": "", "height": null, "height_m": null, "levels": null, "tract_id": "40143006905", "tract_name": "69.05", "tags": {"building": "yes"}}}, {"type": "Feature", "geometry": {"type": "Polygon", "coordinates": [[[-95.8892008, 36.0925123], [-95.8888908, 36.0925112], [-95.8888933, 36.0920181], [-95.8892033, 36.0920192], [-95.8892008, 36.0925123]]]}, "properties": {"osm_id": 330766844, "building": "yes", "name": "", "height": null, "height_m": null, "levels": null, "tract_id": "40143006905", "tract_name": "69.05", "tags": {"building": "yes"}}}, {"type": "Feature", "geometry": {"type": "Polygon", "coordinates": [[[-95.8878681, 36.0914382], [-95.8873594, 36.0914354], [-95.8873615, 36.0911888], [-95.8878702, 36.0911916], [-95.8878681, 36.0914382]]]}, "properties": {"osm_id": 330766846, "building": "yes", "name": "", "height": null, "height_m": null, "levels": null, "tract_id": "40143006905", "tract_name": "69.05", "tags": {"building": "yes"}}}, {"type": "Feature", "geometry": {"type": "Polygon", "coordinates": [[[-95.8900095, 36.091935], [-95.8892984, 36.0919394], [-95.8892951, 36.0916022], [-95.8900063, 36.0915978], [-95.8900095, 36.091935]]]}, "properties": {"osm_id": 330766847, "building": "yes", "name": "", "height": null, "height_m": null, "levels": null, "tract_id": "40143006905", "tract_name": "69.05", "tags": {"building": "yes"}}}, {"type": "Feature", "geometry": {"type": "Polygon", "coordinates": [[[-95.8891955, 36.0911065], [-95.8888907, 36.0911084], [-95.888885, 36.0905254], [-95.8891899, 36.0905234], [-95.8891955, 36.0911065]]]}, "properties": {"osm_id": 330766851, "building": "yes", "name": "", "height": null, "height_m": null, "levels": null, "tract_id": "40143006905", "tract_name": "69.05", "tags": {"building": "yes"}}}, {"type": "Feature", "geometry": {"type": "Polygon", "coordinates": [[[-95.8877664, 36.0911098], [-95.8873578, 36.0911117], [-95.8873543, 36.0906099], [-95.8877628, 36.0906081], [-95.8877664, 36.0911098]]]}, "properties": {"osm_id": 330766852, "building": "yes", "name": "", "height": null, "height_m": null, "levels": null, "tract_id": "40143006905", "tract_name": "69.05", "tags": {"building": "yes"}}}, {"type": "Feature", "geometry": {"type": "Polygon", "coordinates": [[[-95.8885767, 36.0906137], [-95.8885782, 36.0911056], [-95.8879681, 36.0911068], [-95.8879678, 36.0910247], [-95.8878606, 36.0910249], [-95.8878593, 36.0906152], [-95.8885767, 36.0906137]]]}, "properties": {"osm_id": 330766854, "building": "yes", "name": "", "height": null, "height_m": null, "levels": null, "tract_id": "40143006905", "tract_name": "69.05", "tags": {"building": "yes"}}}, {"type": "Feature", "geometry": {"type": "Polygon", "coordinates": [[[-95.8897024, 36.0911065], [-95.889399, 36.0911084], [-95.8893981, 36.0910185], [-95.8892967, 36.0910191], [-95.889292, 36.0905239], [-95.8896968, 36.0905214], [-95.8897024, 36.0911065]]]}, "properties": {"osm_id": 330766855, "building": "yes", "name": "", "height": null, "height_m": null, "levels": null, "tract_id": "40143006905", "tract_name": "69.05", "tags": {"building": "yes"}}}, {"type": "Feature", "geometry": {"type": "Polygon", "coordinates": [[[-95.8899376, 36.0925143], [-95.8893001, 36.0925183], [-95.889296, 36.0920994], [-95.889397, 36.0920987], [-95.8893962, 36.0920164], [-95.8897093, 36.0920145], [-95.8897107, 36.0921558], [-95.8899341, 36.0921544], [-95.8899376, 36.0925143]]]}, "properties": {"osm_id": 330766857, "building": "yes", "name": "", "height": null, "height_m": null, "levels": null, "tract_id": "40143006905", "tract_name": "69.05", "tags": {"building": "yes"}}}, {"type": "Feature", "geometry": {"type": "Polygon", "coordinates": [[[-95.8909319, 36.1005849], [-95.8907398, 36.1003659], [-95.8914237, 36.099974], [-95.8916159, 36.100193], [-95.8909319, 36.1005849]]]}, "properties": {"osm_id": 624425595, "building": "yes", "name": "", "height": null, "height_m": null, "levels": null, "tract_id": "40143006905", "tract_name": "69.05", "tags": {"building": "yes"}}}, {"type": "Feature", "geometry": {"type": "Polygon", "coordinates": [[[-95.8902253, 36.0998078], [-95.8902372, 36.0994815], [-95.8893779, 36.0994609], [-95.8893659, 36.0997873], [-95.8902253, 36.0998078]]]}, "properties": {"osm_id": 624425596, "building": "yes", "name": "", "height": null, "height_m": null, "levels": null, "tract_id": "40143006905", "tract_name": "69.05", "tags": {"building": "yes"}}}, {"type": "Feature", "geometry": {"type": "Polygon", "coordinates": [[[-95.8914347, 36.0992775], [-95.8914299, 36.0987988], [-95.890622, 36.098804], [-95.8906273, 36.0993341], [-95.8906985, 36.0993336], [-95.890698, 36.0992823], [-95.8914347, 36.0992775]]]}, "properties": {"osm_id": 624425597, "building": "yes", "name": "", "height": null, "height_m": null, "levels": null, "tract_id": "40143006905", "tract_name": "69.05", "tags": {"building": "yes"}}}, {"type": "Feature", "geometry": {"type": "Polygon", "coordinates": [[[-95.8904015, 36.0991209], [-95.8904008, 36.0983909], [-95.890475, 36.0983909], [-95.8906191, 36.0983908], [-95.8906192, 36.0985404], [-95.8915834, 36.0985399], [-95.8915829, 36.098028], [-95.8906117, 36.0980286], [-95.890612, 36.09832], [-95.890475, 36.0983201], [-95.890411, 36.0983201], [-95.8904107, 36.0980116], [-95.8893253, 36.0980123], [-95.8893257, 36.0984755], [-95.8892332, 36.0984756], [-95.8892333, 36.0986301], [-95.8891502, 36.0986301], [-95.8891504, 36.0988457], [-95.8892063, 36.0988457], [-95.8892066, 36.0991216], [-95.8904015, 36.0991209]]]}, "properties": {"osm_id": 624425598, "building": "yes", "name": "", "height": null, "height_m": null, "levels": null, "tract_id": "40143006905", "tract_name": "69.05", "tags": {"building": "yes"}}}, {"type": "Feature", "geometry": {"type": "Polygon", "coordinates": [[[-95.8882371, 36.0984892], [-95.8882357, 36.098154], [-95.8881929, 36.0981542], [-95.8881924, 36.0980445], [-95.8879541, 36.0980451], [-95.8879545, 36.0981606], [-95.8879181, 36.0981607], [-95.8879195, 36.09849], [-95.8882371, 36.0984892]]]}, "properties": {"osm_id": 624425599, "building": "yes", "name": "", "height": null, "height_m": null, "levels": null, "tract_id": "40143006905", "tract_name": "69.05", "tags": {"building": "yes"}}}, {"type": "Feature", "geometry": {"type": "Polygon", "coordinates": [[[-95.8873439, 36.098628], [-95.8873451, 36.0983103], [-95.8870758, 36.0983096], [-95.8870746, 36.0986274], [-95.8873439, 36.098628]]]}, "properties": {"osm_id": 624426349, "building": "retail", "name": "Coast to Coast Motors", "height": null, "height_m": null, "levels": null, "tract_id": "40143006905", "tract_name": "69.05", "tags": {"addr:city": "Tulsa", "addr:country": "US", "addr:housenumber": "4430", "addr:postcode": "74145", "addr:state": "OK", "addr:street": "South Memorial Drive East", "building": "retail", "name": "Coast to Coast Motors", "shop": "car"}}}, {"type": "Feature", "geometry": {"type": "Polygon", "coordinates": [[[-95.8869095, 36.0990659], [-95.8869091, 36.0991489], [-95.8872913, 36.0991503], [-95.8872917, 36.0990673], [-95.8869095, 36.0990659]]]}, "properties": {"osm_id": 624426353, "building": "yes", "name": "Signs Now", "height": null, "height_m": null, "levels": null, "tract_id": "40143006905", "tract_name": "69.05", "tags": {"addr:city": "Tulsa", "addr:country": "US", "addr:housenumber": "4404", "addr:postcode": "74145", "addr:state": "OK", "addr:street": "South Memorial Drive East", "building": "yes", "craft": "signmaker", "name": "Signs Now"}}}, {"type": "Feature", "geometry": {"type": "Polygon", "coordinates": [[[-95.8875375, 36.099724], [-95.8875386, 36.0994926], [-95.8871598, 36.0994915], [-95.8871606, 36.0993316], [-95.8869169, 36.0993309], [-95.8869151, 36.0997221], [-95.8875375, 36.099724]]]}, "properties": {"osm_id": 624426354, "building": "yes", "name": "Volkswagen", "height": null, "height_m": null, "levels": null, "tract_id": "40143006905", "tract_name": "69.05", "tags": {"addr:city": "Tulsa", "addr:country": "US", "addr:housenumber": "4240", "addr:postcode": "74145", "addr:state": "OK", "addr:street": "South Memorial Drive East", "branch": "Don Thornton", "brand": "Volkswagen", "brand:wikidata": "Q246", "building": "yes", "name": "Volkswagen", "shop": "car"}}}, {"type": "Feature", "geometry": {"type": "Polygon", "coordinates": [[[-95.8880736, 36.0995823], [-95.888073, 36.0993318], [-95.8878778, 36.0993321], [-95.8878785, 36.0995826], [-95.8880736, 36.0995823]]]}, "properties": {"osm_id": 624426356, "building": "yes", "name": "", "height": null, "height_m": null, "levels": null, "tract_id": "40143006905", "tract_name": "69.05", "tags": {"building": "yes"}}}, {"type": "Feature", "geometry": {"type": "Polygon", "coordinates": [[[-95.8886737, 36.1008253], [-95.8886701, 36.1001838], [-95.8884249, 36.1001847], [-95.8884257, 36.1003315], [-95.8881827, 36.1003324], [-95.8881821, 36.1002183], [-95.8879597, 36.1002191], [-95.8879598, 36.1002286], [-95.8877492, 36.1002293], [-95.8877493, 36.1002427], [-95.8876323, 36.1002431], [-95.8876137, 36.1003469], [-95.887607, 36.1004379], [-95.8876044, 36.1005907], [-95.8876205, 36.1006969], [-95.8876357, 36.1007709], [-95.887863, 36.1007701], [-95.8878646, 36.1010482], [-95.8881291, 36.1010472], [-95.8881282, 36.1008811], [-95.8881101, 36.1008812], [-95.8881098, 36.1008273], [-95.8886737, 36.1008253]]]}, "properties": {"osm_id": 624426357, "building": "yes", "name": "Lexus", "height": null, "height_m": null, "levels": null, "tract_id": "40143006905", "tract_name": "69.05", "tags": {"addr:city": "Tulsa", "addr:country": "US", "addr:housenumber": "4210", "addr:postcode": "74145", "addr:state": "OK", "addr:street": "South Memorial Drive East", "brand": "Lexus", "brand:wikidata": "Q35919", "building": "yes", "name": "Lexus", "shop": "car"}}}, {"type": "Feature", "geometry": {"type": "Polygon", "coordinates": [[[-95.8921285, 36.1019548], [-95.8922767, 36.1015462], [-95.8921202, 36.1015091], [-95.891972, 36.1019178], [-95.8921285, 36.1019548]]]}, "properties": {"osm_id": 624426359, "building": "yes", "name": "", "height": null, "height_m": null, "levels": null, "tract_id": "40143006905", "tract_name": "69.05", "tags": {"building": "yes"}}}, {"type": "Feature", "geometry": {"type": "Polygon", "coordinates": [[[-95.8915428, 36.1017982], [-95.8917246, 36.1013447], [-95.8915258, 36.1012926], [-95.891344, 36.1017462], [-95.8915428, 36.1017982]]]}, "properties": {"osm_id": 624426361, "building": "yes", "name": "", "height": null, "height_m": null, "levels": null, "tract_id": "40143006905", "tract_name": "69.05", "tags": {"building": "yes"}}}, {"type": "Feature", "geometry": {"type": "Polygon", "coordinates": [[[-95.8906353, 36.1015488], [-95.8908382, 36.1010518], [-95.8905571, 36.1009768], [-95.8903542, 36.1014739], [-95.8906353, 36.1015488]]]}, "properties": {"osm_id": 624426363, "building": "yes", "name": "", "height": null, "height_m": null, "levels": null, "tract_id": "40143006905", "tract_name": "69.05", "tags": {"building": "yes"}}}, {"type": "Feature", "geometry": {"type": "Polygon", "coordinates": [[[-95.8912788, 36.1017348], [-95.8914499, 36.1012839], [-95.8913148, 36.1012504], [-95.8911437, 36.1017013], [-95.8912788, 36.1017348]]]}, "properties": {"osm_id": 624426365, "building": "yes", "name": "", "height": null, "height_m": null, "levels": null, "tract_id": "40143006905", "tract_name": "69.05", "tags": {"building": "yes"}}}, {"type": "Feature", "geometry": {"type": "Polygon", "coordinates": [[[-95.8910646, 36.1016625], [-95.8912338, 36.1012431], [-95.8910582, 36.1011969], [-95.8908891, 36.1016163], [-95.8910646, 36.1016625]]]}, "properties": {"osm_id": 624426366, "building": "yes", "name": "", "height": null, "height_m": null, "levels": null, "tract_id": "40143006905", "tract_name": "69.05", "tags": {"building": "yes"}}}, {"type": "Feature", "geometry": {"type": "Polygon", "coordinates": [[[-95.8923276, 36.1010779], [-95.8922499, 36.1009583], [-95.8922919, 36.1009405], [-95.8921522, 36.1007252], [-95.8920569, 36.1007656], [-95.8920935, 36.1008219], [-95.8920331, 36.1008475], [-95.8920719, 36.1009073], [-95.8920503, 36.1009164], [-95.8921924, 36.1011352], [-95.8923276, 36.1010779]]]}, "properties": {"osm_id": 624426368, "building": "yes", "name": "", "height": null, "height_m": null, "levels": null, "tract_id": "40143006905", "tract_name": "69.05", "tags": {"building": "yes"}}}, {"type": "Feature", "geometry": {"type": "Polygon", "coordinates": [[[-95.8914988, 36.101096], [-95.8916184, 36.101029], [-95.8915956, 36.1010025], [-95.8917049, 36.1009413], [-95.8916915, 36.1009256], [-95.8917723, 36.1008804], [-95.8917278, 36.1008286], [-95.8914181, 36.101002], [-95.8914988, 36.101096]]]}, "properties": {"osm_id": 624426370, "building": "yes", "name": "", "height": null, "height_m": null, "levels": null, "tract_id": "40143006905", "tract_name": "69.05", "tags": {"building": "yes"}}}, {"type": "Feature", "geometry": {"type": "Polygon", "coordinates": [[[-95.8919147, 36.1008468], [-95.8921294, 36.1006761], [-95.8920733, 36.10063], [-95.8918585, 36.1008006], [-95.8919147, 36.1008468]]]}, "properties": {"osm_id": 624426372, "building": "yes", "name": "", "height": null, "height_m": null, "levels": null, "tract_id": "40143006905", "tract_name": "69.05", "tags": {"building": "yes"}}}, {"type": "Feature", "geometry": {"type": "Polygon", "coordinates": [[[-95.8920236, 36.100551], [-95.8919406, 36.1005985], [-95.8919498, 36.100609], [-95.8912556, 36.1010056], [-95.8911886, 36.100929], [-95.8915156, 36.1007421], [-95.891511, 36.1007309], [-95.8919575, 36.1004755], [-95.8920236, 36.100551]]]}, "properties": {"osm_id": 624426373, "building": "yes", "name": "", "height": null, "height_m": null, "levels": null, "tract_id": "40143006905", "tract_name": "69.05", "tags": {"building": "yes"}}}, {"type": "Feature", "geometry": {"type": "Polygon", "coordinates": [[[-95.89183, 36.1004228], [-95.8917547, 36.1003361], [-95.8913672, 36.1005557], [-95.8914424, 36.1006424], [-95.89183, 36.1004228]]]}, "properties": {"osm_id": 624426375, "building": "yes", "name": "", "height": null, "height_m": null, "levels": null, "tract_id": "40143006905", "tract_name": "69.05", "tags": {"building": "yes"}}}, {"type": "Feature", "geometry": {"type": "Polygon", "coordinates": [[[-95.8913912, 36.1006779], [-95.8913126, 36.1005876], [-95.8908513, 36.1008501], [-95.89093, 36.1009404], [-95.8913912, 36.1006779]]]}, "properties": {"osm_id": 624426377, "building": "yes", "name": "", "height": null, "height_m": null, "levels": null, "tract_id": "40143006905", "tract_name": "69.05", "tags": {"building": "yes"}}}, {"type": "Feature", "geometry": {"type": "Polygon", "coordinates": [[[-95.9032182, 36.0989919], [-95.9028132, 36.0989905], [-95.9028134, 36.0989344], [-95.9032185, 36.0989358], [-95.9032182, 36.0989919]]]}, "properties": {"osm_id": 691102873, "building": "yes", "name": "", "height": null, "height_m": null, "levels": null, "tract_id": "40143006905", "tract_name": "69.05", "tags": {"building": "yes"}}}, {"type": "Feature", "geometry": {"type": "Polygon", "coordinates": [[[-95.9036453, 36.0989913], [-95.9032379, 36.0989919], [-95.9032378, 36.098935], [-95.9036452, 36.0989344], [-95.9036453, 36.0989913]]]}, "properties": {"osm_id": 691102874, "building": "yes", "name": "", "height": null, "height_m": null, "levels": null, "tract_id": "40143006905", "tract_name": "69.05", "tags": {"building": "yes"}}}, {"type": "Feature", "geometry": {"type": "Polygon", "coordinates": [[[-95.9040657, 36.0989908], [-95.9036621, 36.0989908], [-95.9036621, 36.0989347], [-95.9040657, 36.0989347], [-95.9040657, 36.0989908]]]}, "properties": {"osm_id": 691102875, "building": "yes", "name": "", "height": null, "height_m": null, "levels": null, "tract_id": "40143006905", "tract_name": "69.05", "tags": {"building": "yes"}}}, {"type": "Feature", "geometry": {"type": "Polygon", "coordinates": [[[-95.9035434, 36.09878], [-95.9040535, 36.0987796], [-95.9040536, 36.098848], [-95.9035435, 36.0988484], [-95.9035434, 36.09878]]]}, "properties": {"osm_id": 691102876, "building": "yes", "name": "", "height": null, "height_m": null, "levels": null, "tract_id": "40143006905", "tract_name": "69.05", "tags": {"building": "yes"}}}, {"type": "Feature", "geometry": {"type": "Polygon", "coordinates": [[[-95.903475, 36.0988489], [-95.9034706, 36.0982298], [-95.9032367, 36.0982309], [-95.9032362, 36.0981601], [-95.903522, 36.0981587], [-95.903527, 36.0988486], [-95.903475, 36.0988489]]]}, "properties": {"osm_id": 691102877, "building": "yes", "name": "", "height": null, "height_m": null, "levels": null, "tract_id": "40143006905", "tract_name": "69.05", "tags": {"building": "yes"}}}, {"type": "Feature", "geometry": {"type": "Polygon", "coordinates": [[[-95.9032711, 36.0983211], [-95.9033724, 36.0983208], [-95.9033751, 36.098871], [-95.9032738, 36.0988714], [-95.9032711, 36.0983211]]]}, "properties": {"osm_id": 691102878, "building": "yes", "name": "", "height": null, "height_m": null, "levels": null, "tract_id": "40143006905", "tract_name": "69.05", "tags": {"building": "yes"}}}, {"type": "Feature", "geometry": {"type": "Polygon", "coordinates": [[[-95.9030854, 36.0988705], [-95.903083, 36.0983772], [-95.9031706, 36.0983769], [-95.9031729, 36.0988702], [-95.9030854, 36.0988705]]]}, "properties": {"osm_id": 691102879, "building": "yes", "name": "", "height": null, "height_m": null, "levels": null, "tract_id": "40143006905", "tract_name": "69.05", "tags": {"building": "yes"}}}, {"type": "Feature", "geometry": {"type": "Polygon", "coordinates": [[[-95.902897, 36.0983812], [-95.9029824, 36.098381], [-95.9029848, 36.0988694], [-95.9028993, 36.0988697], [-95.902897, 36.0983812]]]}, "properties": {"osm_id": 691102880, "building": "yes", "name": "", "height": null, "height_m": null, "levels": null, "tract_id": "40143006905", "tract_name": "69.05", "tags": {"building": "yes"}}}, {"type": "Feature", "geometry": {"type": "Polygon", "coordinates": [[[-95.9028849, 36.0977137], [-95.9031237, 36.097713], [-95.9031257, 36.0981285], [-95.9028869, 36.0981293], [-95.9028849, 36.0977137]]]}, "properties": {"osm_id": 691102881, "building": "yes", "name": "", "height": null, "height_m": null, "levels": null, "tract_id": "40143006905", "tract_name": "69.05", "tags": {"building": "yes"}}}, {"type": "Feature", "geometry": {"type": "Polygon", "coordinates": [[[-95.9038774, 36.0987014], [-95.9040633, 36.0986993], [-95.9040613, 36.0985892], [-95.9038755, 36.0985914], [-95.9038774, 36.0987014]]]}, "properties": {"osm_id": 691102884, "building": "yes", "name": "SecurCare Self Storage", "height": null, "height_m": null, "levels": null, "tract_id": "40143006905", "tract_name": "69.05", "tags": {"addr:city": "Tulsa", "addr:country": "US", "addr:housenumber": "4411", "addr:postcode": "74145", "addr:state": "OK", "addr:street": "South Sheridan Road", "brand": "SecurCare Self Storage", "brand:wikidata": "Q124821649", "building": "yes", "name": "SecurCare Self Storage", "opening_hours": "Mo-Fr 10:00-13:00,14:00-18:00; Sa 10:00-13:00,14:00-17:00", "shop": "storage_rental", "website": "https://securcareselfstorage.com/self-storage-locations/oklahoma/tulsa-ok-storage-units/4411-south-sheridan-road"}}}, {"type": "Feature", "geometry": {"type": "Polygon", "coordinates": [[[-95.9036308, 36.0987042], [-95.9036223, 36.0982144], [-95.903805, 36.0982123], [-95.903803, 36.0980935], [-95.9040527, 36.0980906], [-95.9040613, 36.0985892], [-95.9038755, 36.0985914], [-95.9038774, 36.0987014], [-95.9036308, 36.0987042]]]}, "properties": {"osm_id": 691102885, "building": "yes", "name": "", "height": null, "height_m": null, "levels": null, "tract_id": "40143006905", "tract_name": "69.05", "tags": {"building": "yes"}}}, {"type": "Feature", "geometry": {"type": "Polygon", "coordinates": [[[-95.904121, 36.0975282], [-95.9041211, 36.0977636], [-95.9038248, 36.0977637], [-95.9038247, 36.0975283], [-95.904121, 36.0975282]]]}, "properties": {"osm_id": 715682298, "building": "yes", "name": "", "height": null, "height_m": null, "levels": null, "tract_id": "40143006905", "tract_name": "69.05", "tags": {"building": "yes"}}}, {"type": "Feature", "geometry": {"type": "Polygon", "coordinates": [[[-95.8880013, 36.1030808], [-95.8882166, 36.1025387], [-95.8881159, 36.1025126], [-95.8882575, 36.1021662], [-95.8891158, 36.1023938], [-95.8893345, 36.1025098], [-95.8889747, 36.1034158], [-95.8887154, 36.1033486], [-95.8887452, 36.1032736], [-95.8880013, 36.1030808]]]}, "properties": {"osm_id": 743540487, "building": "yes", "name": "Blue Cross Blue Shield of Oklahoma", "height": null, "height_m": null, "levels": null, "tract_id": "40143006905", "tract_name": "69.05", "tags": {"building": "yes", "name": "Blue Cross Blue Shield of Oklahoma", "office": "insurance"}}}, {"type": "Feature", "geometry": {"type": "Polygon", "coordinates": [[[-95.8869754, 36.1038268], [-95.8869754, 36.1034297], [-95.8871068, 36.1034297], [-95.8871068, 36.1035602], [-95.8871765, 36.1035602], [-95.8871765, 36.1035559], [-95.8872302, 36.1035559], [-95.8872302, 36.1036664], [-95.8871792, 36.1036664], [-95.8871792, 36.1036632], [-95.8871423, 36.1036632], [-95.8871423, 36.1038268], [-95.8869754, 36.1038268]]]}, "properties": {"osm_id": 743540488, "building": "retail", "name": "Lofton Motorsports", "height": null, "height_m": null, "levels": null, "tract_id": "40143006905", "tract_name": "69.05", "tags": {"addr:city": "Tulsa", "addr:country": "US", "addr:housenumber": "4122", "addr:postcode": "74145", "addr:state": "OK", "addr:street": "South Memorial Drive East", "building": "retail", "check_date": "2024-01-20", "fax": "+1 918 747 7569", "name": "Lofton Motorsports", "phone": "+1 918 747 7566", "shop": "car_repair", "website": "https://loftonmotorsports.com/"}}}, {"type": "Feature", "geometry": {"type": "Polygon", "coordinates": [[[-95.8877063, 36.1039373], [-95.8880563, 36.1039373], [-95.8880556, 36.1039904], [-95.8880918, 36.1040283], [-95.888057, 36.1040576], [-95.8880586, 36.1040717], [-95.8880234, 36.1040717], [-95.8880235, 36.1040816], [-95.8879705, 36.1040817], [-95.8879705, 36.1040944], [-95.8879356, 36.1040944], [-95.8879356, 36.1041041], [-95.887827, 36.1041043], [-95.887827, 36.1040946], [-95.8877914, 36.1040947], [-95.8877914, 36.1040825], [-95.8877398, 36.1040826], [-95.8877398, 36.1040722], [-95.8877046, 36.1040717], [-95.8877049, 36.1040592], [-95.8876674, 36.1040278], [-95.8877056, 36.1039915], [-95.8877063, 36.1039373]]]}, "properties": {"osm_id": 743540489, "building": "retail", "name": "QuikTrip", "height": null, "height_m": null, "levels": null, "tract_id": "40143006905", "tract_name": "69.05", "tags": {"addr:city": "Tulsa", "addr:country": "US", "addr:housenumber": "7998", "addr:postcode": "74145", "addr:state": "OK", "addr:street": "East 41st Street South", "brand": "QuikTrip", "brand:wikidata": "Q7271953", "building": "retail", "name": "QuikTrip", "shop": "convenience", "short_name": "QT"}}}, {"type": "Feature", "geometry": {"type": "Polygon", "coordinates": [[[-95.8874743, 36.1041751], [-95.8869432, 36.1041751], [-95.8869432, 36.1040137], [-95.8874743, 36.1040137], [-95.8874743, 36.1041751]]]}, "properties": {"osm_id": 743540490, "building": "roof", "name": "QuikTrip", "height": null, "height_m": null, "levels": null, "tract_id": "40143006905", "tract_name": "69.05", "tags": {"amenity": "fuel", "brand": "QuikTrip", "brand:wikidata": "Q7271953", "building": "roof", "name": "QuikTrip", "short_name": "QT"}}}, {"type": "Feature", "geometry": {"type": "Polygon", "coordinates": [[[-95.8892519, 36.0971394], [-95.8889884, 36.0971397], [-95.8889877, 36.0967854], [-95.8890346, 36.0967853], [-95.8890345, 36.0967005], [-95.889182, 36.0967004], [-95.8891822, 36.0967851], [-95.8892512, 36.096785], [-95.8892519, 36.0971394]]]}, "properties": {"osm_id": 779016107, "building": "yes", "name": "", "height": null, "height_m": null, "levels": null, "tract_id": "40143006905", "tract_name": "69.05", "tags": {"building": "yes"}}}, {"type": "Feature", "geometry": {"type": "Polygon", "coordinates": [[[-95.8889703, 36.0971248], [-95.8888469, 36.0971249], [-95.8888467, 36.097011], [-95.8886855, 36.0970112], [-95.888685, 36.0967062], [-95.8889696, 36.0967059], [-95.8889703, 36.0971248]]]}, "properties": {"osm_id": 779016108, "building": "yes", "name": "", "height": null, "height_m": null, "levels": null, "tract_id": "40143006905", "tract_name": "69.05", "tags": {"building": "yes"}}}, {"type": "Feature", "geometry": {"type": "Polygon", "coordinates": [[[-95.8886041, 36.0970104], [-95.888175, 36.0970123], [-95.888173, 36.0967089], [-95.8886021, 36.096707], [-95.8886041, 36.0970104]]]}, "properties": {"osm_id": 779016109, "building": "yes", "name": "", "height": null, "height_m": null, "levels": null, "tract_id": "40143006905", "tract_name": "69.05", "tags": {"building": "yes"}}}, {"type": "Feature", "geometry": {"type": "Polygon", "coordinates": [[[-95.8881167, 36.0968349], [-95.8881159, 36.0967341], [-95.887904, 36.0967351], [-95.8879048, 36.096836], [-95.8879925, 36.0968355], [-95.8881167, 36.0968349]]]}, "properties": {"osm_id": 779016110, "building": "yes", "name": "", "height": null, "height_m": null, "levels": null, "tract_id": "40143006905", "tract_name": "69.05", "tags": {"building": "yes"}}}, {"type": "Feature", "geometry": {"type": "Polygon", "coordinates": [[[-95.8881294, 36.097108], [-95.8879945, 36.0971086], [-95.8879925, 36.0968355], [-95.8881167, 36.0968349], [-95.8881274, 36.0968349], [-95.8881294, 36.097108]]]}, "properties": {"osm_id": 779016111, "building": "yes", "name": "", "height": null, "height_m": null, "levels": null, "tract_id": "40143006905", "tract_name": "69.05", "tags": {"building": "yes"}}}, {"type": "Feature", "geometry": {"type": "Polygon", "coordinates": [[[-95.8874555, 36.0971096], [-95.8878203, 36.0971102], [-95.8878209, 36.096836], [-95.8874562, 36.0968354], [-95.8874555, 36.0971096]]]}, "properties": {"osm_id": 779016112, "building": "yes", "name": "", "height": null, "height_m": null, "levels": null, "tract_id": "40143006905", "tract_name": "69.05", "tags": {"building": "yes"}}}, {"type": "Feature", "geometry": {"type": "Polygon", "coordinates": [[[-95.8873583, 36.0971356], [-95.8873583, 36.0969693], [-95.8868802, 36.0969693], [-95.8868802, 36.0971356], [-95.8873583, 36.0971356]]]}, "properties": {"osm_id": 779016113, "building": "yes", "name": "Fellers", "height": null, "height_m": null, "levels": null, "tract_id": "40143006905", "tract_name": "69.05", "tags": {"addr:city": "Tulsa", "addr:country": "US", "addr:housenumber": "4620", "addr:postcode": "74145", "addr:state": "OK", "addr:street": "South Memorial Drive East", "building": "yes", "name": "Fellers", "shop": "yes", "source": "INCOG"}}}, {"type": "Feature", "geometry": {"type": "Polygon", "coordinates": [[[-95.8885807, 36.0975951], [-95.888459, 36.0975948], [-95.8884594, 36.0974771], [-95.8883967, 36.0974769], [-95.8883976, 36.0972018], [-95.888582, 36.0972023], [-95.8885807, 36.0975951]]]}, "properties": {"osm_id": 779016114, "building": "yes", "name": "", "height": null, "height_m": null, "levels": null, "tract_id": "40143006905", "tract_name": "69.05", "tags": {"building": "yes"}}}, {"type": "Feature", "geometry": {"type": "Polygon", "coordinates": [[[-95.8881861, 36.0975894], [-95.8883872, 36.0975894], [-95.8883872, 36.0973122], [-95.8881861, 36.0973122], [-95.8881861, 36.0975894]]]}, "properties": {"osm_id": 779016115, "building": "yes", "name": "", "height": null, "height_m": null, "levels": null, "tract_id": "40143006905", "tract_name": "69.05", "tags": {"building": "yes"}}}, {"type": "Feature", "geometry": {"type": "Polygon", "coordinates": [[[-95.8878323, 36.0975653], [-95.88749, 36.0975644], [-95.8874912, 36.0972731], [-95.8875264, 36.0972732], [-95.8875266, 36.0972177], [-95.8878337, 36.0972185], [-95.8878323, 36.0975653]]]}, "properties": {"osm_id": 779016120, "building": "yes", "name": "O'Reilly Auto Parts", "height": null, "height_m": null, "levels": null, "tract_id": "40143006905", "tract_name": "69.05", "tags": {"brand": "O'Reilly Auto Parts", "brand:wikidata": "Q7071951", "building": "yes", "name": "O'Reilly Auto Parts", "shop": "car_parts", "website": "https://locations.oreillyauto.com/ok/tulsa/autoparts-162.html"}}}, {"type": "Feature", "geometry": {"type": "Polygon", "coordinates": [[[-95.8985322, 36.095524], [-95.8984626, 36.0953776], [-95.8982587, 36.0954409], [-95.8982952, 36.0955177], [-95.8983819, 36.0954908], [-95.898415, 36.0955604], [-95.8985322, 36.095524]]]}, "properties": {"osm_id": 810617456, "building": "yes", "name": "", "height": null, "height_m": null, "levels": null, "tract_id": "40143006905", "tract_name": "69.05", "tags": {"building": "yes"}}}, {"type": "Feature", "geometry": {"type": "Polygon", "coordinates": [[[-95.8984698, 36.0953441], [-95.8983014, 36.0953219], [-95.898337, 36.0951425], [-95.898506, 36.0951631], [-95.8984698, 36.0953441]]]}, "properties": {"osm_id": 810617459, "building": "yes", "name": "", "height": null, "height_m": null, "levels": null, "tract_id": "40143006905", "tract_name": "69.05", "tags": {"building": "yes"}}}, {"type": "Feature", "geometry": {"type": "Polygon", "coordinates": [[[-95.8985569, 36.0951816], [-95.8985237, 36.0951776], [-95.8985281, 36.0951531], [-95.8985614, 36.0951571], [-95.8985569, 36.0951816]]]}, "properties": {"osm_id": 810617460, "building": "yes", "name": "", "height": null, "height_m": null, "levels": null, "tract_id": "40143006905", "tract_name": "69.05", "tags": {"building": "yes"}}}, {"type": "Feature", "geometry": {"type": "Polygon", "coordinates": [[[-95.8985831, 36.0951507], [-95.8985493, 36.0951501], [-95.8985499, 36.0951263], [-95.8985838, 36.0951269], [-95.8985831, 36.0951507]]]}, "properties": {"osm_id": 810617461, "building": "yes", "name": "", "height": null, "height_m": null, "levels": null, "tract_id": "40143006905", "tract_name": "69.05", "tags": {"building": "yes"}}}, {"type": "Feature", "geometry": {"type": "Polygon", "coordinates": [[[-95.8983491, 36.0951289], [-95.8983397, 36.0949516], [-95.8985091, 36.0949458], [-95.8985128, 36.0950165], [-95.8985506, 36.0950152], [-95.898554, 36.0950807], [-95.8985182, 36.0950819], [-95.8985204, 36.095123], [-95.8983491, 36.0951289]]]}, "properties": {"osm_id": 810617462, "building": "yes", "name": "", "height": null, "height_m": null, "levels": null, "tract_id": "40143006905", "tract_name": "69.05", "tags": {"building": "yes"}}}, {"type": "Feature", "geometry": {"type": "Polygon", "coordinates": [[[-95.8982626, 36.0949483], [-95.8983471, 36.0947569], [-95.8982518, 36.0947294], [-95.8982296, 36.0947797], [-95.8981447, 36.0947552], [-95.8981024, 36.094851], [-95.898151, 36.094865], [-95.8981458, 36.0948768], [-95.8982002, 36.0948925], [-95.8981854, 36.094926], [-95.8982626, 36.0949483]]]}, "properties": {"osm_id": 810617466, "building": "yes", "name": "", "height": null, "height_m": null, "levels": null, "tract_id": "40143006905", "tract_name": "69.05", "tags": {"building": "yes"}}}, {"type": "Feature", "geometry": {"type": "Polygon", "coordinates": [[[-95.8983785, 36.0948682], [-95.8984443, 36.0948213], [-95.8984102, 36.09479], [-95.8983443, 36.0948369], [-95.8983785, 36.0948682]]]}, "properties": {"osm_id": 810617467, "building": "yes", "name": "", "height": null, "height_m": null, "levels": null, "tract_id": "40143006905", "tract_name": "69.05", "tags": {"building": "yes"}}}, {"type": "Feature", "geometry": {"type": "Polygon", "coordinates": [[[-95.8977366, 36.094938], [-95.8978324, 36.0947846], [-95.8979489, 36.094832], [-95.897888, 36.0949296], [-95.8979231, 36.0949439], [-95.8978882, 36.0949998], [-95.8977366, 36.094938]]]}, "properties": {"osm_id": 810617471, "building": "yes", "name": "", "height": null, "height_m": null, "levels": null, "tract_id": "40143006905", "tract_name": "69.05", "tags": {"building": "yes"}}}, {"type": "Feature", "geometry": {"type": "Polygon", "coordinates": [[[-95.8975942, 36.0951994], [-95.8976026, 36.0950655], [-95.8976759, 36.0950685], [-95.8976792, 36.095015], [-95.8978, 36.0950199], [-95.8977914, 36.0951572], [-95.8978518, 36.0951597], [-95.8978473, 36.0952315], [-95.8977185, 36.0952262], [-95.8977199, 36.0952045], [-95.8975942, 36.0951994]]]}, "properties": {"osm_id": 810617472, "building": "yes", "name": "", "height": null, "height_m": null, "levels": null, "tract_id": "40143006905", "tract_name": "69.05", "tags": {"building": "yes"}}}, {"type": "Feature", "geometry": {"type": "Polygon", "coordinates": [[[-95.8979167, 36.0954484], [-95.8979076, 36.0953494], [-95.897859, 36.0953523], [-95.8978513, 36.0952689], [-95.8977165, 36.095277], [-95.8977254, 36.0953734], [-95.8976933, 36.0953753], [-95.8976987, 36.0954336], [-95.8977343, 36.0954315], [-95.8977361, 36.0954503], [-95.8978277, 36.0954448], [-95.8978285, 36.0954537], [-95.8979167, 36.0954484]]]}, "properties": {"osm_id": 810617475, "building": "yes", "name": "", "height": null, "height_m": null, "levels": null, "tract_id": "40143006905", "tract_name": "69.05", "tags": {"building": "yes"}}}, {"type": "Feature", "geometry": {"type": "Polygon", "coordinates": [[[-95.8978843, 36.0957412], [-95.8979856, 36.095875], [-95.8980138, 36.095861], [-95.8980447, 36.0959018], [-95.8981284, 36.0958605], [-95.8980925, 36.0958131], [-95.8980981, 36.0958103], [-95.8980836, 36.0957911], [-95.8980936, 36.0957862], [-95.8980671, 36.0957511], [-95.8980528, 36.0957581], [-95.8979976, 36.0956851], [-95.8978843, 36.0957412]]]}, "properties": {"osm_id": 810617482, "building": "yes", "name": "", "height": null, "height_m": null, "levels": null, "tract_id": "40143006905", "tract_name": "69.05", "tags": {"building": "yes"}}}, {"type": "Feature", "geometry": {"type": "Polygon", "coordinates": [[[-95.897458, 36.0948927], [-95.897316, 36.094857], [-95.8973431, 36.0947867], [-95.8973022, 36.0947764], [-95.8973285, 36.0947081], [-95.8973706, 36.0947187], [-95.8973969, 36.0946502], [-95.8975379, 36.0946856], [-95.8975218, 36.0947274], [-95.8975031, 36.0947227], [-95.8974887, 36.0947602], [-95.8974969, 36.0947622], [-95.8974785, 36.0948102], [-95.8974713, 36.0948084], [-95.8974568, 36.0948462], [-95.8974742, 36.0948506], [-95.897458, 36.0948927]]]}, "properties": {"osm_id": 810617485, "building": "yes", "name": "", "height": null, "height_m": null, "levels": null, "tract_id": "40143006905", "tract_name": "69.05", "tags": {"building": "yes"}}}, {"type": "Feature", "geometry": {"type": "Polygon", "coordinates": [[[-95.8973711, 36.0951301], [-95.8972231, 36.0950993], [-95.8972469, 36.0950247], [-95.8972095, 36.0950169], [-95.8972322, 36.0949461], [-95.8972726, 36.0949545], [-95.8972963, 36.0948804], [-95.89744, 36.0949104], [-95.8974243, 36.0949598], [-95.8974088, 36.0949566], [-95.8974002, 36.0949835], [-95.8974451, 36.0949929], [-95.8974242, 36.0950585], [-95.8973776, 36.0950488], [-95.8973687, 36.0950767], [-95.897387, 36.0950805], [-95.8973711, 36.0951301]]]}, "properties": {"osm_id": 810617488, "building": "yes", "name": "", "height": null, "height_m": null, "levels": null, "tract_id": "40143006905", "tract_name": "69.05", "tags": {"building": "yes"}}}, {"type": "Feature", "geometry": {"type": "Polygon", "coordinates": [[[-95.8973335, 36.0953468], [-95.8971754, 36.0953432], [-95.8971778, 36.095272], [-95.8971898, 36.0952723], [-95.8971922, 36.0952046], [-95.8971819, 36.0952044], [-95.8971843, 36.0951353], [-95.8973448, 36.0951389], [-95.8973439, 36.0951637], [-95.8974353, 36.0951658], [-95.8974298, 36.0953228], [-95.8973344, 36.0953206], [-95.8973335, 36.0953468]]]}, "properties": {"osm_id": 810771393, "building": "yes", "name": "", "height": null, "height_m": null, "levels": null, "tract_id": "40143006905", "tract_name": "69.05", "tags": {"building": "yes"}}}, {"type": "Feature", "geometry": {"type": "Polygon", "coordinates": [[[-95.897381, 36.0955773], [-95.8972261, 36.0955994], [-95.8972112, 36.095531], [-95.8972199, 36.0955297], [-95.8972052, 36.095462], [-95.8971954, 36.0954634], [-95.8971808, 36.0953965], [-95.8973327, 36.0953748], [-95.8973386, 36.0954018], [-95.8974317, 36.0953885], [-95.8974639, 36.095536], [-95.8973748, 36.0955487], [-95.897381, 36.0955773]]]}, "properties": {"osm_id": 810771399, "building": "yes", "name": "", "height": null, "height_m": null, "levels": null, "tract_id": "40143006905", "tract_name": "69.05", "tags": {"building": "yes"}}}, {"type": "Feature", "geometry": {"type": "Polygon", "coordinates": [[[-95.8974702, 36.0957879], [-95.8973985, 36.0958111], [-95.8973845, 36.0957829], [-95.8973172, 36.0958046], [-95.8972617, 36.0956926], [-95.8973268, 36.0956715], [-95.8973127, 36.095643], [-95.897387, 36.095619], [-95.8974097, 36.0956648], [-95.8974478, 36.0956525], [-95.8974852, 36.095728], [-95.8974467, 36.0957405], [-95.8974702, 36.0957879]]]}, "properties": {"osm_id": 810771401, "building": "yes", "name": "", "height": null, "height_m": null, "levels": null, "tract_id": "40143006905", "tract_name": "69.05", "tags": {"building": "yes"}}}, {"type": "Feature", "geometry": {"type": "Polygon", "coordinates": [[[-95.8977943, 36.095716], [-95.8977719, 36.0956728], [-95.8978253, 36.0956593], [-95.8977965, 36.0955847], [-95.897734, 36.0955995], [-95.8977082, 36.0955346], [-95.8978791, 36.0954936], [-95.8979089, 36.0955758], [-95.8979559, 36.0955637], [-95.8979664, 36.0955926], [-95.8979583, 36.0955944], [-95.8979747, 36.095643], [-95.8978538, 36.0956743], [-95.8978619, 36.095695], [-95.8977943, 36.095716]]]}, "properties": {"osm_id": 810771404, "building": "yes", "name": "", "height": null, "height_m": null, "levels": null, "tract_id": "40143006905", "tract_name": "69.05", "tags": {"building": "yes"}}}, {"type": "Feature", "geometry": {"type": "Polygon", "coordinates": [[[-95.8926637, 36.096259], [-95.8926615, 36.0957589], [-95.8930004, 36.0957579], [-95.8930017, 36.0960533], [-95.893072, 36.0960531], [-95.8930722, 36.0961023], [-95.8930255, 36.0961236], [-95.8930012, 36.0961237], [-95.8930018, 36.096258], [-95.8926637, 36.096259]]]}, "properties": {"osm_id": 842865986, "building": "yes", "name": "", "height": null, "height_m": null, "levels": null, "tract_id": "40143006905", "tract_name": "69.05", "tags": {"building": "yes"}}}, {"type": "Feature", "geometry": {"type": "Polygon", "coordinates": [[[-95.9011594, 36.1040335], [-95.9006992, 36.1040368], [-95.9006903, 36.104062], [-95.9002031, 36.1040572], [-95.900196, 36.1038575], [-95.900243, 36.1038237], [-95.9011644, 36.1038247], [-95.9011594, 36.1040335]]]}, "properties": {"osm_id": 882827397, "building": "retail", "name": "Synergy Motorworks", "height": null, "height_m": 6.0, "levels": 2, "tract_id": "40143006905", "tract_name": "69.05", "tags": {"addr:city": "Tulsa", "addr:country": "US", "addr:housenumber": "6810", "addr:postcode": "74145", "addr:state": "OK", "addr:street": "East 41st Street South", "building": "retail", "building:levels": "2", "check_date": "2024-06-07", "name": "Synergy Motorworks", "opening_hours": "Mo-Fr 09:00-18:00; Sa 10:00-16:00", "operator": "Synergy Motorworks", "payment:cash": "yes", "payment:credit_cards": "yes", "payment:debit_cards": "yes", "phone": "+1-918-610-7433", "shop": "motorcycle", "website": "https://www.synergymotorworks.com"}}}, {"type": "Feature", "geometry": {"type": "Polygon", "coordinates": [[[-95.8950277, 36.0970282], [-95.8950227, 36.0966237], [-95.8951616, 36.0966226], [-95.8951607, 36.0965546], [-95.8953781, 36.0965529], [-95.8953806, 36.0967548], [-95.8952998, 36.0967554], [-95.8953031, 36.097026], [-95.8950277, 36.0970282]]]}, "properties": {"osm_id": 922625459, "building": "yes", "name": "", "height": null, "height_m": null, "levels": null, "tract_id": "40143006905", "tract_name": "69.05", "tags": {"building": "yes"}}}, {"type": "Feature", "geometry": {"type": "Polygon", "coordinates": [[[-95.8953257, 36.0964255], [-95.8949075, 36.096627], [-95.8948827, 36.0965935], [-95.8948007, 36.0966331], [-95.8947953, 36.0966258], [-95.8947813, 36.0966326], [-95.8947591, 36.0966025], [-95.8947649, 36.0965996], [-95.8947474, 36.0965759], [-95.8947394, 36.0965797], [-95.894725, 36.0965601], [-95.8947313, 36.0965571], [-95.8947222, 36.0965446], [-95.8948094, 36.0965026], [-95.8947983, 36.0964877], [-95.8952212, 36.0962839], [-95.8953257, 36.0964255]]]}, "properties": {"osm_id": 922625462, "building": "yes", "name": "", "height": null, "height_m": null, "levels": null, "tract_id": "40143006905", "tract_name": "69.05", "tags": {"building": "yes"}}}, {"type": "Feature", "geometry": {"type": "Polygon", "coordinates": [[[-95.8944124, 36.0970546], [-95.8941792, 36.0967737], [-95.8940645, 36.0968359], [-95.8941111, 36.0968921], [-95.8939956, 36.0969547], [-95.8941401, 36.0971287], [-95.8942512, 36.0970684], [-95.8942934, 36.0971192], [-95.8944124, 36.0970546]]]}, "properties": {"osm_id": 922625463, "building": "yes", "name": "", "height": null, "height_m": null, "levels": null, "tract_id": "40143006905", "tract_name": "69.05", "tags": {"building": "yes"}}}, {"type": "Feature", "geometry": {"type": "Polygon", "coordinates": [[[-95.8938964, 36.0966984], [-95.8936638, 36.0966979], [-95.8936629, 36.0969872], [-95.893689, 36.0969873], [-95.8936889, 36.0970197], [-95.8937798, 36.0970199], [-95.8937799, 36.0969862], [-95.8938955, 36.0969865], [-95.8938964, 36.0966984]]]}, "properties": {"osm_id": 922625464, "building": "yes", "name": "", "height": null, "height_m": null, "levels": null, "tract_id": "40143006905", "tract_name": "69.05", "tags": {"building": "yes"}}}, {"type": "Feature", "geometry": {"type": "Polygon", "coordinates": [[[-95.895261, 36.0979251], [-95.8949132, 36.097924], [-95.8949119, 36.0982101], [-95.8950511, 36.0982106], [-95.8950512, 36.0982019], [-95.8952598, 36.0982025], [-95.895261, 36.0979251]]]}, "properties": {"osm_id": 922625465, "building": "yes", "name": "", "height": null, "height_m": null, "levels": null, "tract_id": "40143006905", "tract_name": "69.05", "tags": {"building": "yes"}}}, {"type": "Feature", "geometry": {"type": "Polygon", "coordinates": [[[-95.8956174, 36.0978372], [-95.8954186, 36.0978387], [-95.8954209, 36.0980553], [-95.8956202, 36.0980537], [-95.8956174, 36.0978372]]]}, "properties": {"osm_id": 922625466, "building": "yes", "name": "", "height": null, "height_m": null, "levels": null, "tract_id": "40143006905", "tract_name": "69.05", "tags": {"building": "yes"}}}, {"type": "Feature", "geometry": {"type": "Polygon", "coordinates": [[[-95.8956225, 36.0982451], [-95.8954232, 36.0982467], [-95.8954209, 36.0980553], [-95.8956202, 36.0980537], [-95.8956225, 36.0982451]]]}, "properties": {"osm_id": 922625467, "building": "yes", "name": "", "height": null, "height_m": null, "levels": null, "tract_id": "40143006905", "tract_name": "69.05", "tags": {"building": "yes"}}}, {"type": "Feature", "geometry": {"type": "Polygon", "coordinates": [[[-95.8890506, 36.0935326], [-95.8888258, 36.0935333], [-95.8888243, 36.0932043], [-95.8890489, 36.0932036], [-95.8890492, 36.0932619], [-95.8890547, 36.0932618], [-95.8890549, 36.0932962], [-95.8890498, 36.0932962], [-95.8890501, 36.0933514], [-95.8890552, 36.0933514], [-95.8890554, 36.0933841], [-95.8890495, 36.0933842], [-95.8890498, 36.0934434], [-95.8890557, 36.0934434], [-95.8890558, 36.0934751], [-95.8890503, 36.0934751], [-95.8890506, 36.0935326]]]}, "properties": {"osm_id": 985732067, "building": "yes", "name": "", "height": null, "height_m": null, "levels": null, "tract_id": "40143006905", "tract_name": "69.05", "tags": {"building": "yes"}}}, {"type": "Feature", "geometry": {"type": "Polygon", "coordinates": [[[-95.888795, 36.0935314], [-95.8885736, 36.0935314], [-95.8885738, 36.0932064], [-95.8887952, 36.0932064], [-95.888795, 36.0935314]]]}, "properties": {"osm_id": 985732068, "building": "yes", "name": "", "height": null, "height_m": null, "levels": null, "tract_id": "40143006905", "tract_name": "69.05", "tags": {"building": "yes"}}}, {"type": "Feature", "geometry": {"type": "Polygon", "coordinates": [[[-95.8887549, 36.0937066], [-95.8885767, 36.0937076], [-95.8885759, 36.0936105], [-95.8887541, 36.0936095], [-95.8887549, 36.0937066]]]}, "properties": {"osm_id": 985732069, "building": "yes", "name": "", "height": null, "height_m": null, "levels": null, "tract_id": "40143006905", "tract_name": "69.05", "tags": {"building": "yes"}}}, {"type": "Feature", "geometry": {"type": "Polygon", "coordinates": [[[-95.8890343, 36.093703], [-95.8889334, 36.0937036], [-95.8889325, 36.0936125], [-95.8890335, 36.0936119], [-95.8890343, 36.093703]]]}, "properties": {"osm_id": 985732070, "building": "yes", "name": "", "height": null, "height_m": null, "levels": null, "tract_id": "40143006905", "tract_name": "69.05", "tags": {"building": "yes"}}}, {"type": "Feature", "geometry": {"type": "Polygon", "coordinates": [[[-95.8898713, 36.0934683], [-95.889767, 36.0934683], [-95.889767, 36.093443], [-95.8896115, 36.0934431], [-95.8896116, 36.0934674], [-95.8895062, 36.0934674], [-95.889506, 36.0932796], [-95.8895167, 36.0932796], [-95.8895167, 36.093255], [-95.8895929, 36.093255], [-95.8895929, 36.0932831], [-95.8896104, 36.0932831], [-95.8896104, 36.093307], [-95.889765, 36.093307], [-95.889765, 36.0932815], [-95.8898713, 36.0932815], [-95.8898713, 36.0934683]]]}, "properties": {"osm_id": 985732071, "building": "yes", "name": "", "height": null, "height_m": null, "levels": null, "tract_id": "40143006905", "tract_name": "69.05", "tags": {"building": "yes"}}}, {"type": "Feature", "geometry": {"type": "Polygon", "coordinates": [[[-95.8870552, 36.0903401], [-95.8869204, 36.0903399], [-95.8869207, 36.0902001], [-95.8870555, 36.0902003], [-95.8870552, 36.0903401]]]}, "properties": {"osm_id": 1006327777, "building": "retail", "name": "Sezchuan Express", "height": null, "height_m": null, "levels": null, "tract_id": "40143006905", "tract_name": "69.05", "tags": {"addr:city": "Tulsa", "addr:country": "US", "addr:housenumber": "8021", "addr:postcode": "74145", "addr:state": "OK", "addr:street": "East 51st Street South", "amenity": "restaurant", "building": "retail", "cuisine": "chinese", "name": "Sezchuan Express"}}}, {"type": "Feature", "geometry": {"type": "Polygon", "coordinates": [[[-95.8869345, 36.1018162], [-95.8869351, 36.1015762], [-95.8872095, 36.1015767], [-95.8872094, 36.1015865], [-95.8872725, 36.1015866], [-95.8872719, 36.1017979], [-95.8872088, 36.1017978], [-95.8872088, 36.1018167], [-95.8869345, 36.1018162]]]}, "properties": {"osm_id": 1006327781, "building": "yes", "name": "Audi", "height": null, "height_m": null, "levels": null, "tract_id": "40143006905", "tract_name": "69.05", "tags": {"addr:city": "Tulsa", "addr:country": "US", "addr:housenumber": "4208", "addr:postcode": "74145", "addr:state": "OK", "addr:street": "South Memorial Drive East", "brand": "Audi", "brand:wikidata": "Q23317", "building": "yes", "name": "Audi", "shop": "car"}}}, {"type": "Feature", "geometry": {"type": "Polygon", "coordinates": [[[-95.8871672, 36.0952831], [-95.8871672, 36.0949927], [-95.8873791, 36.0949927], [-95.8873791, 36.0952831], [-95.8871672, 36.0952831]]]}, "properties": {"osm_id": 1009499009, "building": "retail", "name": "Marc Miller Premium Pre-Owned", "height": null, "height_m": 3.0, "levels": 1, "tract_id": "40143006905", "tract_name": "69.05", "tags": {"addr:city": "Tulsa", "addr:country": "US", "addr:housenumber": "4666", "addr:postcode": "74145", "addr:state": "OK", "addr:street": "South Memorial Drive East", "building": "retail", "building:levels": "1", "name": "Marc Miller Premium Pre-Owned", "roof:levels": "0", "roof:shape": "flat", "shop": "car"}}}, {"type": "Feature", "geometry": {"type": "Polygon", "coordinates": [[[-95.8872917, 36.0990673], [-95.8872922, 36.0989836], [-95.88691, 36.0989822], [-95.8869095, 36.0990659], [-95.8872917, 36.0990673]]]}, "properties": {"osm_id": 1009499010, "building": "yes", "name": "Hertz", "height": null, "height_m": null, "levels": null, "tract_id": "40143006905", "tract_name": "69.05", "tags": {"addr:city": "Tulsa", "addr:country": "US", "addr:housenumber": "4404", "addr:postcode": "74145", "addr:state": "OK", "addr:street": "South Memorial Drive East", "amenity": "car_rental", "brand": "Hertz", "brand:wikidata": "Q1543874", "building": "yes", "name": "Hertz"}}}, {"type": "Feature", "geometry": {"type": "Polygon", "coordinates": [[[-95.8963725, 36.1040072], [-95.896372, 36.1041583], [-95.8961246, 36.1041578], [-95.8961251, 36.1040067], [-95.8963725, 36.1040072]]]}, "properties": {"osm_id": 1009499012, "building": "yes", "name": "State Farm", "height": null, "height_m": null, "levels": null, "tract_id": "40143006905", "tract_name": "69.05", "tags": {"brand": "State Farm", "brand:wikidata": "Q2007336", "building": "yes", "name": "State Farm", "office": "insurance"}}}, {"type": "Feature", "geometry": {"type": "Polygon", "coordinates": [[[-95.8988602, 36.1041416], [-95.8985827, 36.104144], [-95.8985774, 36.1037431], [-95.8988549, 36.1037406], [-95.8988602, 36.1041416]]]}, "properties": {"osm_id": 1009499013, "building": "industrial", "name": "Boomers Audio", "height": null, "height_m": null, "levels": null, "tract_id": "40143006905", "tract_name": "69.05", "tags": {"addr:city": "Tulsa", "addr:country": "US", "addr:housenumber": "7010", "addr:postcode": "74145", "addr:state": "OK", "addr:street": "East 41st Street South", "building": "industrial", "name": "Boomers Audio", "shop": "electronics"}}}, {"type": "Feature", "geometry": {"type": "Polygon", "coordinates": [[[-95.9038129, 36.103914], [-95.9039766, 36.103913], [-95.9039779, 36.1040506], [-95.9038143, 36.1040516], [-95.9038129, 36.103914]]]}, "properties": {"osm_id": 1009499015, "building": "yes", "name": "Enterprise Car Sales", "height": null, "height_m": null, "levels": null, "tract_id": "40143006905", "tract_name": "69.05", "tags": {"brand": "Enterprise Car Sales", "brand:wikidata": "Q5380295", "building": "yes", "name": "Enterprise Car Sales", "second_hand": "only", "shop": "car"}}}, {"type": "Feature", "geometry": {"type": "Polygon", "coordinates": [[[-95.9034628, 36.0980204], [-95.9032372, 36.0980226], [-95.9032283, 36.097723], [-95.9034593, 36.0977194], [-95.9034628, 36.0980204]]]}, "properties": {"osm_id": 1018914403, "building": "construction", "name": "", "height": null, "height_m": null, "levels": null, "tract_id": "40143006905", "tract_name": "69.05", "tags": {"building": "construction"}}}, {"type": "Feature", "geometry": {"type": "Polygon", "coordinates": [[[-95.903226, 36.0976625], [-95.9032206, 36.0974457], [-95.9034533, 36.0974419], [-95.9034587, 36.0976587], [-95.903226, 36.0976625]]]}, "properties": {"osm_id": 1018914404, "building": "construction", "name": "", "height": null, "height_m": null, "levels": null, "tract_id": "40143006905", "tract_name": "69.05", "tags": {"building": "construction"}}}, {"type": "Feature", "geometry": {"type": "Polygon", "coordinates": [[[-95.9041583, 36.1029556], [-95.9041582, 36.1029872], [-95.9041881, 36.1029872], [-95.9041878, 36.1030863], [-95.9041479, 36.1030862], [-95.9041478, 36.1031197], [-95.9039679, 36.1031192], [-95.903968, 36.1031017], [-95.9038319, 36.1031011], [-95.9038321, 36.1030781], [-95.9037083, 36.1030776], [-95.9037077, 36.1031701], [-95.9037429, 36.1031702], [-95.9037424, 36.1032488], [-95.9037959, 36.103249], [-95.903795, 36.1034105], [-95.9038192, 36.1034106], [-95.9038186, 36.1035698], [-95.9037936, 36.1035698], [-95.9037935, 36.1036502], [-95.9034795, 36.1036499], [-95.9034804, 36.1030623], [-95.9035887, 36.1030624], [-95.9035888, 36.1029551], [-95.9041583, 36.1029556]]]}, "properties": {"osm_id": 1151076148, "building": "yes", "name": "", "height": null, "height_m": null, "levels": null, "tract_id": "40143006905", "tract_name": "69.05", "tags": {"building": "yes"}}}, {"type": "Feature", "geometry": {"type": "Polygon", "coordinates": [[[-95.903233, 36.1030591], [-95.9016331, 36.1030623], [-95.9016328, 36.1029773], [-95.9032328, 36.102974], [-95.903233, 36.1030591]]]}, "properties": {"osm_id": 1269878937, "building": "industrial", "name": "", "height": null, "height_m": null, "levels": null, "tract_id": "40143006905", "tract_name": "69.05", "tags": {"addr:city": "Tulsa", "addr:postcode": "74145", "building": "industrial"}}}, {"type": "Feature", "geometry": {"type": "Polygon", "coordinates": [[[-95.9032344, 36.1036838], [-95.9016345, 36.103687], [-95.9016342, 36.1036012], [-95.9032341, 36.103598], [-95.9032344, 36.1036838]]]}, "properties": {"osm_id": 1269878938, "building": "industrial", "name": "", "height": null, "height_m": null, "levels": null, "tract_id": "40143006905", "tract_name": "69.05", "tags": {"addr:city": "Tulsa", "addr:postcode": "74145", "building": "industrial"}}}, {"type": "Feature", "geometry": {"type": "Polygon", "coordinates": [[[-95.9032344, 36.1035039], [-95.9016345, 36.1035071], [-95.9016342, 36.1034183], [-95.9032341, 36.103415], [-95.9032344, 36.1035039]]]}, "properties": {"osm_id": 1269878939, "building": "industrial", "name": "", "height": null, "height_m": null, "levels": null, "tract_id": "40143006905", "tract_name": "69.05", "tags": {"addr:city": "Tulsa", "addr:postcode": "74145", "building": "industrial"}}}, {"type": "Feature", "geometry": {"type": "Polygon", "coordinates": [[[-95.9032349, 36.1032422], [-95.901635, 36.1032455], [-95.9016347, 36.1031566], [-95.9032347, 36.1031534], [-95.9032349, 36.1032422]]]}, "properties": {"osm_id": 1269878940, "building": "industrial", "name": "", "height": null, "height_m": null, "levels": null, "tract_id": "40143006905", "tract_name": "69.05", "tags": {"addr:city": "Tulsa", "addr:postcode": "74145", "building": "industrial"}}}, {"type": "Feature", "geometry": {"type": "Polygon", "coordinates": [[[-95.9032349, 36.1033582], [-95.9016363, 36.1033614], [-95.9016361, 36.1033018], [-95.9032347, 36.1032986], [-95.9032349, 36.1033582]]]}, "properties": {"osm_id": 1269878941, "building": "industrial", "name": "", "height": null, "height_m": null, "levels": null, "tract_id": "40143006905", "tract_name": "69.05", "tags": {"addr:city": "Tulsa", "addr:postcode": "74145", "building": "industrial"}}}, {"type": "Feature", "geometry": {"type": "Polygon", "coordinates": [[[-95.9018112, 36.0998817], [-95.9018061, 36.0990585], [-95.9022555, 36.0990567], [-95.9022606, 36.0998799], [-95.9018112, 36.0998817]]]}, "properties": {"osm_id": 1269878942, "building": "industrial", "name": "", "height": null, "height_m": null, "levels": null, "tract_id": "40143006905", "tract_name": "69.05", "tags": {"addr:city": "Tulsa", "addr:postcode": "74145", "building": "industrial"}}}, {"type": "Feature", "geometry": {"type": "Polygon", "coordinates": [[[-95.9024735, 36.0993537], [-95.9024717, 36.0990595], [-95.9028956, 36.0990578], [-95.9028977, 36.0993978], [-95.9028989, 36.0996047], [-95.902475, 36.0996064], [-95.9024735, 36.0993537]]]}, "properties": {"osm_id": 1269878943, "building": "industrial", "name": "", "height": null, "height_m": null, "levels": null, "tract_id": "40143006905", "tract_name": "69.05", "tags": {"addr:city": "Tulsa", "addr:postcode": "74145", "building": "industrial"}}}, {"type": "Feature", "geometry": {"type": "Polygon", "coordinates": [[[-95.9034299, 36.0990556], [-95.903432, 36.0993957], [-95.9028977, 36.0993978], [-95.9028956, 36.0990578], [-95.9034299, 36.0990556]]]}, "properties": {"osm_id": 1269878944, "building": "industrial", "name": "", "height": null, "height_m": null, "levels": null, "tract_id": "40143006905", "tract_name": "69.05", "tags": {"addr:city": "Tulsa", "addr:postcode": "74145", "building": "industrial"}}}, {"type": "Feature", "geometry": {"type": "Polygon", "coordinates": [[[-95.9040872, 36.0998776], [-95.9038929, 36.0998784], [-95.9038929, 36.0998868], [-95.9037594, 36.0998873], [-95.9037593, 36.0998659], [-95.9034349, 36.0998672], [-95.903432, 36.0993957], [-95.9034299, 36.0990556], [-95.9040821, 36.099053], [-95.9040872, 36.0998776]]]}, "properties": {"osm_id": 1269878945, "building": "industrial", "name": "", "height": null, "height_m": null, "levels": null, "tract_id": "40143006905", "tract_name": "69.05", "tags": {"addr:city": "Tulsa", "addr:postcode": "74145", "building": "industrial"}}}, {"type": "Feature", "geometry": {"type": "Polygon", "coordinates": [[[-95.9023002, 36.1017611], [-95.9017954, 36.1017619], [-95.901794, 36.1012105], [-95.9022988, 36.1012096], [-95.9023002, 36.1017611]]]}, "properties": {"osm_id": 1269878946, "building": "industrial", "name": "", "height": null, "height_m": null, "levels": null, "tract_id": "40143006905", "tract_name": "69.05", "tags": {"addr:city": "Tulsa", "addr:postcode": "74145", "building": "industrial"}}}, {"type": "Feature", "geometry": {"type": "Polygon", "coordinates": [[[-95.9030054, 36.1004812], [-95.9030063, 36.1005671], [-95.9028687, 36.100568], [-95.9028678, 36.1004822], [-95.9030054, 36.1004812]]]}, "properties": {"osm_id": 1269878947, "building": "industrial", "name": "", "height": null, "height_m": null, "levels": null, "tract_id": "40143006905", "tract_name": "69.05", "tags": {"addr:city": "Tulsa", "addr:postcode": "74145", "building": "industrial"}}}, {"type": "Feature", "geometry": {"type": "Polygon", "coordinates": [[[-95.9028386, 36.1009789], [-95.9028343, 36.1005683], [-95.9028687, 36.100568], [-95.9030063, 36.1005671], [-95.9032514, 36.1005654], [-95.9032557, 36.1009761], [-95.9028386, 36.1009789]]]}, "properties": {"osm_id": 1269878948, "building": "industrial", "name": "", "height": null, "height_m": null, "levels": null, "tract_id": "40143006905", "tract_name": "69.05", "tags": {"addr:city": "Tulsa", "addr:postcode": "74145", "building": "industrial"}}}, {"type": "Feature", "geometry": {"type": "Polygon", "coordinates": [[[-95.9028043, 36.1009808], [-95.901785, 36.1009808], [-95.901785, 36.1003176], [-95.9023684, 36.1003176], [-95.9023684, 36.1003111], [-95.9028123, 36.1003111], [-95.9028123, 36.100297], [-95.9029961, 36.100297], [-95.9029961, 36.1004509], [-95.9028043, 36.1004509], [-95.9028043, 36.1009808]]]}, "properties": {"osm_id": 1269878949, "building": "industrial", "name": "", "height": null, "height_m": null, "levels": null, "tract_id": "40143006905", "tract_name": "69.05", "tags": {"addr:city": "Tulsa", "addr:postcode": "74145", "building": "industrial"}}}, {"type": "Feature", "geometry": {"type": "Polygon", "coordinates": [[[-95.9039117, 36.1012087], [-95.9040703, 36.1012074], [-95.9040732, 36.1014435], [-95.9040542, 36.1014437], [-95.9040575, 36.1017089], [-95.9039179, 36.10171], [-95.9039117, 36.1012087]]]}, "properties": {"osm_id": 1269878950, "building": "retail", "name": "", "height": null, "height_m": null, "levels": null, "tract_id": "40143006905", "tract_name": "69.05", "tags": {"building": "retail"}}}, {"type": "Feature", "geometry": {"type": "Polygon", "coordinates": [[[-95.9030279, 36.1017623], [-95.9026926, 36.101764], [-95.9026883, 36.1012136], [-95.9030235, 36.1012118], [-95.9030279, 36.1017623]]]}, "properties": {"osm_id": 1269878951, "building": "industrial", "name": "", "height": null, "height_m": null, "levels": null, "tract_id": "40143006905", "tract_name": "69.05", "tags": {"addr:city": "Tulsa", "addr:postcode": "74145", "building": "industrial"}}}, {"type": "Feature", "geometry": {"type": "Polygon", "coordinates": [[[-95.9032592, 36.1039746], [-95.903244, 36.1039747], [-95.9032441, 36.1039952], [-95.9027963, 36.1039959], [-95.9027963, 36.1039753], [-95.9027768, 36.1039753], [-95.9027764, 36.1037965], [-95.9032589, 36.1037958], [-95.9032592, 36.1039746]]]}, "properties": {"osm_id": 1269878955, "building": "retail", "name": "", "height": null, "height_m": null, "levels": null, "tract_id": "40143006905", "tract_name": "69.05", "tags": {"addr:city": "Tulsa", "addr:country": "US", "addr:housenumber": "6554;6550", "addr:postcode": "74145", "addr:state": "OK", "addr:street": "East 41st Street South", "building": "retail"}}}, {"type": "Feature", "geometry": {"type": "Polygon", "coordinates": [[[-95.9036074, 36.1040514], [-95.9035975, 36.1040514], [-95.9035976, 36.1040701], [-95.9033573, 36.1040708], [-95.9033572, 36.1040521], [-95.9033339, 36.1040522], [-95.9033323, 36.1037176], [-95.9036058, 36.1037168], [-95.9036074, 36.1040514]]]}, "properties": {"osm_id": 1269878956, "building": "retail", "name": "", "height": null, "height_m": null, "levels": null, "tract_id": "40143006905", "tract_name": "69.05", "tags": {"addr:city": "Tulsa", "addr:country": "US", "addr:housenumber": "6540", "addr:postcode": "74145", "addr:state": "OK", "addr:street": "East 41st Street South", "building": "retail"}}}, {"type": "Feature", "geometry": {"type": "Polygon", "coordinates": [[[-95.9011338, 36.0979971], [-95.9010634, 36.0979974], [-95.9010656, 36.0983106], [-95.9011326, 36.0983103], [-95.9011336, 36.0984582], [-95.9012093, 36.0984579], [-95.9012103, 36.0986039], [-95.9011346, 36.0986042], [-95.9011357, 36.0987514], [-95.9003889, 36.0987548], [-95.9003798, 36.0974461], [-95.9010595, 36.097443], [-95.9012657, 36.0974421], [-95.9012662, 36.09752], [-95.9012296, 36.0975201], [-95.901231, 36.0977212], [-95.9011319, 36.0977217], [-95.9011338, 36.0979971]]]}, "properties": {"osm_id": 1270005193, "building": "industrial", "name": "", "height": null, "height_m": null, "levels": null, "tract_id": "40143006905", "tract_name": "69.05", "tags": {"addr:city": "Tulsa", "addr:postcode": "74145", "building": "industrial"}}}, {"type": "Feature", "geometry": {"type": "Polygon", "coordinates": [[[-95.9001482, 36.101832], [-95.9002066, 36.1016688], [-95.9004697, 36.1013979], [-95.9010454, 36.1013949], [-95.9010466, 36.1015425], [-95.9010488, 36.1018272], [-95.9004799, 36.1018302], [-95.900482, 36.1020913], [-95.9001503, 36.102093], [-95.9001482, 36.101832]]]}, "properties": {"osm_id": 1270005194, "building": "industrial", "name": "", "height": null, "height_m": null, "levels": null, "tract_id": "40143006905", "tract_name": "69.05", "tags": {"addr:city": "Tulsa", "addr:postcode": "74145", "building": "industrial"}}}, {"type": "Feature", "geometry": {"type": "Polygon", "coordinates": [[[-95.9011004, 36.1027807], [-95.9001559, 36.1027857], [-95.9001503, 36.102093], [-95.900482, 36.1020913], [-95.9010949, 36.1020881], [-95.9011004, 36.1027807]]]}, "properties": {"osm_id": 1270005195, "building": "industrial", "name": "", "height": null, "height_m": null, "levels": null, "tract_id": "40143006905", "tract_name": "69.05", "tags": {"addr:city": "Tulsa", "addr:postcode": "74145", "building": "industrial"}}}, {"type": "Feature", "geometry": {"type": "Polygon", "coordinates": [[[-95.9011301, 36.1032809], [-95.9008094, 36.1032828], [-95.9008088, 36.1032249], [-95.9005585, 36.1032264], [-95.9005574, 36.1031018], [-95.9008077, 36.1031002], [-95.9008067, 36.1030031], [-95.9011275, 36.1030011], [-95.9011301, 36.1032809]]]}, "properties": {"osm_id": 1270005196, "building": "industrial", "name": "", "height": null, "height_m": null, "levels": null, "tract_id": "40143006905", "tract_name": "69.05", "tags": {"addr:city": "Tulsa", "addr:postcode": "74145", "building": "industrial"}}}, {"type": "Feature", "geometry": {"type": "Polygon", "coordinates": [[[-95.9010986, 36.1036392], [-95.9002517, 36.1036431], [-95.9002501, 36.1034222], [-95.901097, 36.1034183], [-95.9010986, 36.1036392]]]}, "properties": {"osm_id": 1270005197, "building": "industrial", "name": "", "height": null, "height_m": null, "levels": null, "tract_id": "40143006905", "tract_name": "69.05", "tags": {"addr:city": "Tulsa", "addr:postcode": "74145", "building": "industrial"}}}, {"type": "Feature", "geometry": {"type": "Polygon", "coordinates": [[[-95.9008446, 36.1009473], [-95.9001659, 36.1009484], [-95.9001654, 36.100746], [-95.9008441, 36.100745], [-95.9008446, 36.1009473]]]}, "properties": {"osm_id": 1270049600, "building": "industrial", "name": "", "height": null, "height_m": null, "levels": null, "tract_id": "40143006905", "tract_name": "69.05", "tags": {"addr:city": "Tulsa", "addr:postcode": "74145", "building": "industrial"}}}, {"type": "Feature", "geometry": {"type": "Polygon", "coordinates": [[[-95.900913, 36.1005222], [-95.9009134, 36.1007166], [-95.9002962, 36.1007176], [-95.9002957, 36.1005232], [-95.9005339, 36.1005228], [-95.9005334, 36.1003228], [-95.9010746, 36.1003219], [-95.9010746, 36.1003447], [-95.9011669, 36.1003445], [-95.9011673, 36.1005218], [-95.900913, 36.1005222]]]}, "properties": {"osm_id": 1270049601, "building": "industrial", "name": "", "height": null, "height_m": null, "levels": null, "tract_id": "40143006905", "tract_name": "69.05", "tags": {"addr:city": "Tulsa", "addr:postcode": "74145", "building": "industrial"}}}, {"type": "Feature", "geometry": {"type": "Polygon", "coordinates": [[[-95.8998333, 36.0988978], [-95.8998385, 36.0998681], [-95.8997303, 36.0998685], [-95.8997303, 36.0998786], [-95.8996033, 36.099879], [-95.8996032, 36.0998689], [-95.8994941, 36.0998693], [-95.899493, 36.0996575], [-95.8994766, 36.0996576], [-95.8994758, 36.0995203], [-95.8994922, 36.0995202], [-95.8994908, 36.0992444], [-95.8994764, 36.0992444], [-95.8994757, 36.0991084], [-95.89949, 36.0991083], [-95.8994889, 36.098899], [-95.8998333, 36.0988978]]]}, "properties": {"osm_id": 1270049602, "building": "industrial", "name": "", "height": null, "height_m": null, "levels": null, "tract_id": "40143006905", "tract_name": "69.05", "tags": {"addr:city": "Tulsa", "addr:postcode": "74145", "building": "industrial"}}}, {"type": "Feature", "geometry": {"type": "Polygon", "coordinates": [[[-95.8998359, 36.0987904], [-95.8994834, 36.0987911], [-95.8994829, 36.0986459], [-95.8993666, 36.0986462], [-95.8993664, 36.0985916], [-95.8993512, 36.0985916], [-95.8993507, 36.0984509], [-95.8994005, 36.0984508], [-95.8994003, 36.0983961], [-95.8994821, 36.0983959], [-95.8994809, 36.0979948], [-95.8993359, 36.0979951], [-95.8993357, 36.0979426], [-95.8993497, 36.0979425], [-95.899349, 36.097691], [-95.8993782, 36.097691], [-95.8993781, 36.0976776], [-95.8993474, 36.0976777], [-95.8993472, 36.09762], [-95.8993607, 36.0976199], [-95.8993606, 36.097581], [-95.8994796, 36.0975808], [-95.8994792, 36.0974533], [-95.8998318, 36.0974526], [-95.8998359, 36.0987904]]]}, "properties": {"osm_id": 1270049603, "building": "industrial", "name": "", "height": null, "height_m": null, "levels": null, "tract_id": "40143006905", "tract_name": "69.05", "tags": {"addr:city": "Tulsa", "addr:postcode": "74145", "building": "industrial"}}}, {"type": "Feature", "geometry": {"type": "Polygon", "coordinates": [[[-95.9000519, 36.0979815], [-95.9000517, 36.0978919], [-95.9000343, 36.0978919], [-95.900034, 36.0977929], [-95.9000514, 36.0977929], [-95.900051, 36.0976924], [-95.9000337, 36.0976924], [-95.9000334, 36.0975955], [-95.9000507, 36.0975955], [-95.9000503, 36.0974439], [-95.9002937, 36.0974434], [-95.9002982, 36.0989302], [-95.9000549, 36.0989307], [-95.9000547, 36.0988768], [-95.9000374, 36.0988769], [-95.9000371, 36.0987771], [-95.9000544, 36.0987771], [-95.9000541, 36.0986789], [-95.9000368, 36.0986789], [-95.9000364, 36.0985776], [-95.9000538, 36.0985776], [-95.9000535, 36.0984802], [-95.9000361, 36.0984802], [-95.9000358, 36.0983789], [-95.9000532, 36.0983789], [-95.9000529, 36.0982807], [-95.9000355, 36.0982807], [-95.9000352, 36.0981841], [-95.9000526, 36.0981841], [-95.9000522, 36.0980804], [-95.9000349, 36.0980805], [-95.9000346, 36.0979815], [-95.9000519, 36.0979815]]]}, "properties": {"osm_id": 1270049604, "building": "industrial", "name": "", "height": null, "height_m": null, "levels": null, "tract_id": "40143006905", "tract_name": "69.05", "tags": {"addr:city": "Tulsa", "addr:postcode": "74145", "building": "industrial"}}}, {"type": "Feature", "geometry": {"type": "Polygon", "coordinates": [[[-95.902094, 36.0978058], [-95.9017878, 36.0978066], [-95.9017863, 36.0974417], [-95.9020924, 36.0974409], [-95.902094, 36.0978058]]]}, "properties": {"osm_id": 1270049605, "building": "industrial", "name": "", "height": null, "height_m": null, "levels": null, "tract_id": "40143006905", "tract_name": "69.05", "tags": {"addr:city": "Tulsa", "addr:postcode": "74145", "building": "industrial"}}}, {"type": "Feature", "geometry": {"type": "Polygon", "coordinates": [[[-95.9024445, 36.0978367], [-95.9022639, 36.0978381], [-95.9022593, 36.0974373], [-95.9024399, 36.0974359], [-95.9024445, 36.0978367]]]}, "properties": {"osm_id": 1270049606, "building": "industrial", "name": "", "height": null, "height_m": null, "levels": null, "tract_id": "40143006905", "tract_name": "69.05", "tags": {"addr:city": "Tulsa", "addr:postcode": "74145", "building": "industrial"}}}, {"type": "Feature", "geometry": {"type": "Polygon", "coordinates": [[[-95.9024399, 36.0974359], [-95.9026487, 36.0974344], [-95.9026499, 36.0975458], [-95.9026128, 36.097546], [-95.9026161, 36.0978354], [-95.9024445, 36.0978367], [-95.9024399, 36.0974359]]]}, "properties": {"osm_id": 1270049607, "building": "industrial", "name": "", "height": null, "height_m": null, "levels": null, "tract_id": "40143006905", "tract_name": "69.05", "tags": {"addr:city": "Tulsa", "addr:postcode": "74145", "building": "industrial"}}}, {"type": "Feature", "geometry": {"type": "Polygon", "coordinates": [[[-95.9027479, 36.0988272], [-95.901988, 36.0988304], [-95.9019874, 36.0987415], [-95.9019284, 36.0987417], [-95.9019249, 36.0982085], [-95.9019032, 36.0982086], [-95.9019014, 36.0979268], [-95.9027421, 36.0979233], [-95.9027479, 36.0988272]]]}, "properties": {"osm_id": 1270049608, "building": "industrial", "name": "", "height": null, "height_m": null, "levels": null, "tract_id": "40143006905", "tract_name": "69.05", "tags": {"addr:city": "Tulsa", "addr:postcode": "74145", "building": "industrial"}}}, {"type": "Feature", "geometry": {"type": "Polygon", "coordinates": [[[-95.9007833, 36.0995937], [-95.9007834, 36.0996109], [-95.9007877, 36.0996109], [-95.9007891, 36.0998945], [-95.9005484, 36.0998953], [-95.900547, 36.0996116], [-95.9007225, 36.0996111], [-95.9007224, 36.0995939], [-95.9007833, 36.0995937]]]}, "properties": {"osm_id": 1270049615, "building": "industrial", "name": "", "height": null, "height_m": null, "levels": null, "tract_id": "40143006905", "tract_name": "69.05", "tags": {"addr:city": "Tulsa", "addr:postcode": "74145", "building": "industrial"}}}, {"type": "Feature", "geometry": {"type": "Polygon", "coordinates": [[[-95.9012423, 36.0998797], [-95.9010032, 36.0998805], [-95.9010025, 36.0997566], [-95.9012417, 36.0997558], [-95.9012423, 36.0998797]]]}, "properties": {"osm_id": 1270049616, "building": "industrial", "name": "", "height": null, "height_m": null, "levels": null, "tract_id": "40143006905", "tract_name": "69.05", "tags": {"addr:city": "Tulsa", "addr:postcode": "74145", "building": "industrial"}}}, {"type": "Feature", "geometry": {"type": "Polygon", "coordinates": [[[-95.9036203, 36.1027919], [-95.9026987, 36.1027968], [-95.9026975, 36.1026558], [-95.9026783, 36.1026559], [-95.9026757, 36.1023342], [-95.9025427, 36.1023349], [-95.9025416, 36.1022009], [-95.9026493, 36.1022003], [-95.9026497, 36.1022441], [-95.9036157, 36.1022389], [-95.9036203, 36.1027919]]]}, "properties": {"osm_id": 1270049617, "building": "industrial", "name": "", "height": null, "height_m": null, "levels": null, "tract_id": "40143006905", "tract_name": "69.05", "tags": {"addr:city": "Tulsa", "addr:postcode": "74145", "building": "industrial"}}}, {"type": "Feature", "geometry": {"type": "Polygon", "coordinates": [[[-95.9039577, 36.102657], [-95.9039499, 36.1021967], [-95.9041545, 36.1021944], [-95.9041637, 36.1027374], [-95.9038727, 36.1027407], [-95.9038713, 36.102658], [-95.9039577, 36.102657]]]}, "properties": {"osm_id": 1270049618, "building": "industrial", "name": "", "height": null, "height_m": null, "levels": null, "tract_id": "40143006905", "tract_name": "69.05", "tags": {"addr:city": "Tulsa", "addr:postcode": "74145", "building": "industrial"}}}, {"type": "Feature", "geometry": {"type": "Polygon", "coordinates": [[[-95.9017312, 36.1022043], [-95.9020708, 36.1022024], [-95.9020754, 36.1027393], [-95.9017357, 36.1027411], [-95.9017312, 36.1022043]]]}, "properties": {"osm_id": 1270049619, "building": "industrial", "name": "", "height": null, "height_m": null, "levels": null, "tract_id": "40143006905", "tract_name": "69.05", "tags": {"addr:city": "Tulsa", "addr:postcode": "74145", "building": "industrial"}}}, {"type": "Feature", "geometry": {"type": "Polygon", "coordinates": [[[-95.9036244, 36.1010555], [-95.9036202, 36.1004537], [-95.9035501, 36.100454], [-95.9035487, 36.1002551], [-95.9036259, 36.1002548], [-95.9036257, 36.1002298], [-95.9036822, 36.1002296], [-95.9036824, 36.1002545], [-95.9038568, 36.1002537], [-95.9038571, 36.1002979], [-95.9038875, 36.1002978], [-95.9038894, 36.1005637], [-95.903859, 36.1005639], [-95.9038591, 36.1005857], [-95.9038895, 36.1005855], [-95.9038905, 36.1007174], [-95.9038601, 36.1007175], [-95.9038602, 36.1007392], [-95.9038906, 36.100739], [-95.9038925, 36.1010064], [-95.9038621, 36.1010066], [-95.9038624, 36.1010544], [-95.9036244, 36.1010555]]]}, "properties": {"osm_id": 1270049621, "building": "retail", "name": "", "height": null, "height_m": null, "levels": null, "tract_id": "40143006905", "tract_name": "69.05", "tags": {"addr:city": "Tulsa", "addr:postcode": "74145", "building": "retail"}}}, {"type": "Feature", "geometry": {"type": "Polygon", "coordinates": [[[-95.9010071, 36.0995155], [-95.9009376, 36.0995155], [-95.9009376, 36.0994041], [-95.9010071, 36.0994041], [-95.9010071, 36.0995155]]]}, "properties": {"osm_id": 1270049622, "building": "industrial", "name": "", "height": null, "height_m": null, "levels": null, "tract_id": "40143006905", "tract_name": "69.05", "tags": {"building": "industrial"}}}, {"type": "Feature", "geometry": {"type": "Polygon", "coordinates": [[[-95.9013618, 36.0995283], [-95.9010281, 36.0995298], [-95.9010262, 36.099261], [-95.9013599, 36.0992594], [-95.9013618, 36.0995283]]]}, "properties": {"osm_id": 1270049623, "building": "industrial", "name": "", "height": null, "height_m": null, "levels": null, "tract_id": "40143006905", "tract_name": "69.05", "tags": {"addr:city": "Tulsa", "addr:postcode": "74145", "building": "industrial"}}}, {"type": "Feature", "geometry": {"type": "Polygon", "coordinates": [[[-95.9002796, 36.1007146], [-95.9001581, 36.1007151], [-95.9001569, 36.1005089], [-95.9002784, 36.1005085], [-95.9002796, 36.1007146]]]}, "properties": {"osm_id": 1270088606, "building": "industrial", "name": "", "height": null, "height_m": null, "levels": null, "tract_id": "40143006905", "tract_name": "69.05", "tags": {"building": "industrial"}}}, {"type": "Feature", "geometry": {"type": "Polygon", "coordinates": [[[-95.8989848, 36.1001999], [-95.8988692, 36.1001999], [-95.8988692, 36.1002086], [-95.8987949, 36.1002086], [-95.8987949, 36.100083], [-95.8988768, 36.100083], [-95.8988768, 36.1000898], [-95.898971, 36.1000898], [-95.898971, 36.1001443], [-95.8989848, 36.1001443], [-95.8989848, 36.1001999]]]}, "properties": {"osm_id": 1270088607, "building": "yes", "name": "", "height": null, "height_m": null, "levels": null, "tract_id": "40143006905", "tract_name": "69.05", "tags": {"building": "yes"}}}, {"type": "Feature", "geometry": {"type": "Polygon", "coordinates": [[[-95.8998443, 36.1006069], [-95.8993632, 36.1006082], [-95.8993621, 36.1003335], [-95.8998432, 36.1003322], [-95.8998443, 36.1006069]]]}, "properties": {"osm_id": 1270088608, "building": "industrial", "name": "", "height": null, "height_m": null, "levels": null, "tract_id": "40143006905", "tract_name": "69.05", "tags": {"addr:city": "Tulsa", "addr:postcode": "74145", "building": "industrial"}}}, {"type": "Feature", "geometry": {"type": "Polygon", "coordinates": [[[-95.8997322, 36.1008766], [-95.8993653, 36.1008776], [-95.8993645, 36.1007009], [-95.8997315, 36.1006999], [-95.8997322, 36.1008766]]]}, "properties": {"osm_id": 1270088609, "building": "industrial", "name": "", "height": null, "height_m": null, "levels": null, "tract_id": "40143006905", "tract_name": "69.05", "tags": {"addr:city": "Tulsa", "addr:postcode": "74145", "building": "industrial"}}}, {"type": "Feature", "geometry": {"type": "Polygon", "coordinates": [[[-95.8997322, 36.1010111], [-95.8993679, 36.1010133], [-95.8993671, 36.1009277], [-95.8997314, 36.1009255], [-95.8997322, 36.1010111]]]}, "properties": {"osm_id": 1270088610, "building": "industrial", "name": "", "height": null, "height_m": null, "levels": null, "tract_id": "40143006905", "tract_name": "69.05", "tags": {"addr:city": "Tulsa", "addr:postcode": "74145", "building": "industrial"}}}, {"type": "Feature", "geometry": {"type": "Polygon", "coordinates": [[[-95.8994416, 36.1011092], [-95.8994416, 36.1011056], [-95.8993674, 36.101106], [-95.8993667, 36.1010286], [-95.8994409, 36.1010281], [-95.8994408, 36.1010221], [-95.8997454, 36.1010203], [-95.8997462, 36.1011074], [-95.8994416, 36.1011092]]]}, "properties": {"osm_id": 1270088611, "building": "industrial", "name": "", "height": null, "height_m": null, "levels": null, "tract_id": "40143006905", "tract_name": "69.05", "tags": {"addr:city": "Tulsa", "addr:postcode": "74145", "building": "industrial"}}}, {"type": "Feature", "geometry": {"type": "Polygon", "coordinates": [[[-95.8994447, 36.101287], [-95.8994447, 36.1012834], [-95.8993704, 36.1012838], [-95.8993698, 36.1012064], [-95.899444, 36.1012059], [-95.8994439, 36.1011999], [-95.8997485, 36.1011981], [-95.8997493, 36.1012852], [-95.8994447, 36.101287]]]}, "properties": {"osm_id": 1270088612, "building": "industrial", "name": "", "height": null, "height_m": null, "levels": null, "tract_id": "40143006905", "tract_name": "69.05", "tags": {"addr:city": "Tulsa", "addr:postcode": "74145", "building": "industrial"}}}, {"type": "Feature", "geometry": {"type": "Polygon", "coordinates": [[[-95.8997778, 36.1013793], [-95.8993542, 36.1013818], [-95.8993534, 36.1012974], [-95.899777, 36.1012949], [-95.8997778, 36.1013793]]]}, "properties": {"osm_id": 1270088613, "building": "industrial", "name": "", "height": null, "height_m": null, "levels": null, "tract_id": "40143006905", "tract_name": "69.05", "tags": {"addr:city": "Tulsa", "addr:postcode": "74145", "building": "industrial"}}}, {"type": "Feature", "geometry": {"type": "Polygon", "coordinates": [[[-95.8998468, 36.1015801], [-95.8993712, 36.1015821], [-95.8993721, 36.1017203], [-95.8995083, 36.1017197], [-95.8995081, 36.1016908], [-95.8998475, 36.1016893], [-95.8998468, 36.1015801]]]}, "properties": {"osm_id": 1270200721, "building": "industrial", "name": "", "height": null, "height_m": null, "levels": null, "tract_id": "40143006905", "tract_name": "69.05", "tags": {"addr:city": "Tulsa", "addr:postcode": "74145", "building": "industrial"}}}, {"type": "Feature", "geometry": {"type": "Polygon", "coordinates": [[[-95.8998511, 36.1020714], [-95.8993755, 36.1020742], [-95.8993743, 36.1019359], [-95.8995105, 36.1019352], [-95.8995107, 36.1019641], [-95.8998502, 36.1019622], [-95.8998511, 36.1020714]]]}, "properties": {"osm_id": 1270200722, "building": "industrial", "name": "", "height": null, "height_m": null, "levels": null, "tract_id": "40143006905", "tract_name": "69.05", "tags": {"addr:city": "Tulsa", "addr:postcode": "74145", "building": "industrial"}}}, {"type": "Feature", "geometry": {"type": "Polygon", "coordinates": [[[-95.8998612, 36.1030232], [-95.8994333, 36.103026], [-95.8994253, 36.1022128], [-95.8998531, 36.10221], [-95.8998612, 36.1030232]]]}, "properties": {"osm_id": 1270200723, "building": "industrial", "name": "", "height": null, "height_m": null, "levels": null, "tract_id": "40143006905", "tract_name": "69.05", "tags": {"addr:city": "Tulsa", "addr:postcode": "74145", "building": "industrial"}}}, {"type": "Feature", "geometry": {"type": "Polygon", "coordinates": [[[-95.8995216, 36.1039646], [-95.8995177, 36.1039646], [-95.8995167, 36.1037995], [-95.8998543, 36.1037982], [-95.8998553, 36.1039633], [-95.8998601, 36.1039632], [-95.8998611, 36.1041278], [-95.8995226, 36.1041292], [-95.8995216, 36.1039646]]]}, "properties": {"osm_id": 1270200728, "building": "industrial", "name": "", "height": null, "height_m": null, "levels": null, "tract_id": "40143006905", "tract_name": "69.05", "tags": {"addr:city": "Tulsa", "addr:country": "US", "addr:housenumber": "6848", "addr:postcode": "74145", "addr:state": "OK", "addr:street": "East 41st Street South", "building": "industrial"}}}, {"type": "Feature", "geometry": {"type": "Polygon", "coordinates": [[[-95.9037296, 36.090423], [-95.9037289, 36.0902671], [-95.9038731, 36.0902667], [-95.9039157, 36.0903021], [-95.9039163, 36.0904224], [-95.9037296, 36.090423]]]}, "properties": {"osm_id": 1271733795, "building": "retail", "name": "Moody's Jewelry", "height": null, "height_m": null, "levels": null, "tract_id": "40143006905", "tract_name": "69.05", "tags": {"addr:postcode": "74145", "building": "retail", "name": "Moody's Jewelry", "opening_hours": "Mo-Sa 10:00-18:00", "shop": "jewelry"}}}, {"type": "Feature", "geometry": {"type": "Polygon", "coordinates": [[[-95.9033516, 36.0901632], [-95.9033523, 36.0902808], [-95.903353, 36.0903876], [-95.9033536, 36.090491], [-95.9031505, 36.0904918], [-95.9031485, 36.090164], [-95.9033516, 36.0901632]]]}, "properties": {"osm_id": 1271733796, "building": "retail", "name": "", "height": null, "height_m": null, "levels": null, "tract_id": "40143006905", "tract_name": "69.05", "tags": {"building": "retail"}}}, {"type": "Feature", "geometry": {"type": "Polygon", "coordinates": [[[-95.8904502, 36.0903661], [-95.8904475, 36.090081], [-95.8906284, 36.0900799], [-95.890631, 36.090365], [-95.8904502, 36.0903661]]]}, "properties": {"osm_id": 1320811338, "building": "roof", "name": "Perfect", "height": null, "height_m": null, "levels": null, "tract_id": "40143006905", "tract_name": "69.05", "tags": {"amenity": "fuel", "building": "roof", "layer": "1", "name": "Perfect"}}}, {"type": "Feature", "geometry": {"type": "Polygon", "coordinates": [[[-95.8905916, 36.0903476], [-95.8907142, 36.0903476], [-95.8907142, 36.0903631], [-95.8907493, 36.0903631], [-95.8907493, 36.090502], [-95.890546, 36.090502], [-95.890546, 36.0904655], [-95.8905348, 36.0904655], [-95.8905348, 36.0904167], [-95.890521, 36.0904057], [-95.8905916, 36.0903476]]]}, "properties": {"osm_id": 1320811339, "building": "retail", "name": "Perfect Food & Gas", "height": null, "height_m": null, "levels": null, "tract_id": "40143006905", "tract_name": "69.05", "tags": {"addr:city": "Tulsa", "addr:housenumber": "7625", "addr:postcode": "74145", "addr:street": "East 51st Street South", "building": "retail", "name": "Perfect Food & Gas", "phone": "+1 918 619 6538", "ref": "2", "shop": "convenience"}}}, {"type": "Feature", "geometry": {"type": "Polygon", "coordinates": [[[-95.8870749, 36.09328], [-95.8870731, 36.0935002], [-95.8871975, 36.0935009], [-95.8871993, 36.0932807], [-95.8870749, 36.09328]]]}, "properties": {"osm_id": 1416572187, "building": "retail", "name": "Wendy's", "height": null, "height_m": null, "levels": null, "tract_id": "40143006905", "tract_name": "69.05", "tags": {"addr:city": "Tulsa", "addr:country": "US", "addr:housenumber": "4840", "addr:postcode": "74145", "addr:state": "OK", "addr:street": "South Memorial Drive East", "amenity": "fast_food", "brand": "Wendy's", "brand:wikidata": "Q550258", "building": "retail", "cuisine": "burger", "drive_through": "yes", "name": "Wendy's", "opening_hours": "Mo-Su 06:30-22:00", "opening_hours:drive_through": "Mo-Su 06:30-00:00", "phone": "+1 918-770-8538", "takeaway": "yes", "website": "https://locations.wendys.com/united-states/ok/tulsa/4840-s-memorial-dr"}}}, {"type": "Feature", "geometry": {"type": "Polygon", "coordinates": [[[-95.8892317, 36.1042017], [-95.8892275, 36.1040677], [-95.8893764, 36.1040646], [-95.8893807, 36.1041986], [-95.8892317, 36.1042017]]]}, "properties": {"osm_id": 1417952788, "building": "retail", "name": "Budget Truck Rental", "height": null, "height_m": null, "levels": null, "tract_id": "40143006905", "tract_name": "69.05", "tags": {"addr:city": "Tulsa", "addr:country": "US", "addr:housenumber": "7922", "addr:postcode": "74145", "addr:state": "OK", "addr:street": "East 41st Street South", "amenity": "car_rental", "brand": "Budget Truck Rental", "brand:wikidata": "Q4985029", "building": "retail", "name": "Budget Truck Rental", "official_name": "Avis Car Rental"}}}, {"type": "Feature", "geometry": {"type": "Polygon", "coordinates": [[[-95.8965306, 36.1036563], [-95.8965306, 36.1038237], [-95.8958416, 36.1038237], [-95.8958416, 36.1040696], [-95.8956197, 36.1040696], [-95.8956197, 36.1037332], [-95.8957233, 36.1037332], [-95.8957233, 36.1036563], [-95.8965306, 36.1036563]]]}, "properties": {"osm_id": 1417960612, "building": "retail", "name": "", "height": null, "height_m": null, "levels": null, "tract_id": "40143006905", "tract_name": "69.05", "tags": {"building": "retail"}}}, {"type": "Feature", "geometry": {"type": "Polygon", "coordinates": [[[-95.888444, 36.0925286], [-95.8873655, 36.0925334], [-95.8873626, 36.0921154], [-95.8884411, 36.0921104], [-95.888444, 36.0925286]]]}, "properties": {"osm_id": 1421909656, "building": "retail", "name": "Jim Norton Chevrolet", "height": null, "height_m": null, "levels": null, "tract_id": "40143006905", "tract_name": "69.05", "tags": {"brand": "Chevrolet", "brand:wikidata": "Q29570", "building": "retail", "name": "Jim Norton Chevrolet", "shop": "car"}}}, {"type": "Feature", "geometry": {"type": "Polygon", "coordinates": [[[-95.8884444, 36.0919714], [-95.8880995, 36.0919709], [-95.8880999, 36.0918219], [-95.8884448, 36.0918224], [-95.8884444, 36.0919714]]]}, "properties": {"osm_id": 1421909657, "building": "retail", "name": "", "height": null, "height_m": null, "levels": null, "tract_id": "40143006905", "tract_name": "69.05", "tags": {"building": "retail"}}}]}