{"type": "FeatureCollection", "features": [{"type": "Feature", "geometry": {"type": "Polygon", "coordinates": [[[-97.5774237, 35.5659177], [-97.5774237, 35.5657272], [-97.5775897, 35.5657295], [-97.5776225, 35.5657494], [-97.5776224, 35.5658867], [-97.5775844, 35.5659176], [-97.5774237, 35.5659177]]]}, "properties": {"osm_id": 138286752, "building": "yes", "name": "Louie's Grill & Bar", "height": null, "height_m": null, "levels": null, "tract_id": "40109108508", "tract_name": "1085.08", "tags": {"addr:city": "Oklahoma City", "addr:housenumber": "9401", "addr:state": "OK", "addr:street": "Lake Hefner Parkway", "alt_name": "Louie's Bar and Grill", "amenity": "restaurant", "building": "yes", "name": "Louie's Grill & Bar", "url": "http://louies.ehsrg.com"}}}, {"type": "Feature", "geometry": {"type": "Polygon", "coordinates": [[[-97.619234, 35.5647104], [-97.6193178, 35.5647099], [-97.6193198, 35.5649754], [-97.6195159, 35.5649744], [-97.6195138, 35.5647007], [-97.6196495, 35.5647], [-97.6196488, 35.5646178], [-97.6197256, 35.5646174], [-97.6197265, 35.5647258], [-97.6198146, 35.5647254], [-97.6198144, 35.5646985], [-97.6200186, 35.5646975], [-97.6200191, 35.5647541], [-97.6200229, 35.564754], [-97.6200234, 35.5648086], [-97.6200902, 35.5648083], [-97.6200913, 35.5649577], [-97.6201577, 35.5649573], [-97.6201579, 35.5649796], [-97.6201694, 35.5649796], [-97.6201699, 35.565039], [-97.6201583, 35.5650391], [-97.6201585, 35.5650604], [-97.620092, 35.5650607], [-97.6200932, 35.5652126], [-97.6200218, 35.565213], [-97.6200227, 35.5653238], [-97.6198217, 35.5653249], [-97.6198215, 35.5653], [-97.6197295, 35.5653005], [-97.6197303, 35.5654067], [-97.6196536, 35.5654071], [-97.619653, 35.5653251], [-97.6195189, 35.5653258], [-97.619518, 35.5652059], [-97.6193201, 35.5652069], [-97.6193206, 35.5652686], [-97.6192793, 35.5652688], [-97.6192799, 35.5653442], [-97.6190242, 35.5653455], [-97.6190236, 35.5652683], [-97.6189744, 35.5652685], [-97.6189727, 35.565047], [-97.6188846, 35.5650475], [-97.6188842, 35.5650022], [-97.6189724, 35.5650018], [-97.6189701, 35.5647113], [-97.6190559, 35.5647109], [-97.6190553, 35.5646415], [-97.6191073, 35.5646413], [-97.6191068, 35.5645738], [-97.6191826, 35.5645734], [-97.6191831, 35.5646409], [-97.6192335, 35.5646406], [-97.619234, 35.5647104]]]}, "properties": {"osm_id": 138286794, "building": "yes", "name": "North Macarthur Church of Christ", "height": null, "height_m": null, "levels": null, "tract_id": "40109108508", "tract_name": "1085.08", "tags": {"amenity": "place_of_worship", "building": "yes", "ele": "357", "gnis:feature_id": "1809458", "name": "North Macarthur Church of Christ", "religion": "christian"}}}, {"type": "Feature", "geometry": {"type": "Polygon", "coordinates": [[[-97.5982163, 35.5427209], [-97.5982167, 35.542703], [-97.5982201, 35.542518], [-97.5981775, 35.5425175], [-97.5981781, 35.5424866], [-97.5981037, 35.5424857], [-97.5981024, 35.5425566], [-97.598073, 35.5425562], [-97.5980723, 35.542594], [-97.5980717, 35.5426233], [-97.5981166, 35.5426239], [-97.5981148, 35.5427197], [-97.5982163, 35.5427209]]]}, "properties": {"osm_id": 227955269, "building": "yes", "name": "", "height": null, "height_m": null, "levels": null, "tract_id": "40109108508", "tract_name": "1085.08", "tags": {"building": "yes", "source": "Bing"}}}, {"type": "Feature", "geometry": {"type": "Polygon", "coordinates": [[[-97.5983682, 35.5425152], [-97.5983627, 35.5427009], [-97.5982167, 35.542703], [-97.5982201, 35.542518], [-97.5983682, 35.5425152]]]}, "properties": {"osm_id": 227955273, "building": "roof", "name": "", "height": null, "height_m": null, "levels": null, "tract_id": "40109108508", "tract_name": "1085.08", "tags": {"building": "roof", "source": "Bing"}}}, {"type": "Feature", "geometry": {"type": "Polygon", "coordinates": [[[-97.5970796, 35.5461248], [-97.5970008, 35.5461235], [-97.597, 35.5461567], [-97.5970778, 35.5461595], [-97.5970796, 35.5461248]]]}, "properties": {"osm_id": 228010299, "building": "yes", "name": "", "height": null, "height_m": null, "levels": null, "tract_id": "40109108508", "tract_name": "1085.08", "tags": {"building": "yes", "source": "Bing"}}}, {"type": "Feature", "geometry": {"type": "Polygon", "coordinates": [[[-97.6156131, 35.5486515], [-97.6156157, 35.5485059], [-97.6156766, 35.5485058], [-97.6156793, 35.548652], [-97.6156131, 35.5486515]]]}, "properties": {"osm_id": 228166383, "building": "roof", "name": "", "height": null, "height_m": null, "levels": null, "tract_id": "40109108508", "tract_name": "1085.08", "tags": {"building": "roof", "source": "Bing"}}}, {"type": "Feature", "geometry": {"type": "Polygon", "coordinates": [[[-97.6156157, 35.5485059], [-97.6156131, 35.5486515], [-97.6154003, 35.5486498], [-97.6153985, 35.5485064], [-97.6156157, 35.5485059]]]}, "properties": {"osm_id": 228166384, "building": "yes", "name": "", "height": null, "height_m": null, "levels": null, "tract_id": "40109108508", "tract_name": "1085.08", "tags": {"building": "yes", "source": "Bing"}}}, {"type": "Feature", "geometry": {"type": "Polygon", "coordinates": [[[-97.6104274, 35.5463407], [-97.6104289, 35.5461459], [-97.6101593, 35.5461446], [-97.6101578, 35.5463393], [-97.6104274, 35.5463407]]]}, "properties": {"osm_id": 228166567, "building": "yes", "name": "Hideaway Pizza", "height": null, "height_m": null, "levels": null, "tract_id": "40109108508", "tract_name": "1085.08", "tags": {"addr:city": "Warr Acres", "addr:housenumber": "5501", "addr:postcode": "73132", "addr:state": "OK", "addr:street": "Northwest Expressway", "amenity": "restaurant", "bar": "yes", "building": "yes", "contact:facebook": "HideawayPizza", "contact:instagram": "hideawaypizza", "contact:twitter": "hideawaypizza", "contact:youtube": "https://www.youtube.com/user/hideawaypizza/videos", "craft": "caterer", "cuisine": "bavarian;pizza;burger", "email": "guestrelations@hideawaypizza.com", "name": "Hideaway Pizza", "opening_hours": "Su-Th 11:00-21:30; Fr-Sa 11:00-22:30", "phone": "+1 405 603 7177", "toilets": "yes", "toilets:access": "customers", "website": "https://www.hideawaypizza.com/", "website:menu": "https://www.hideawaypizza.com/menu"}}}, {"type": "Feature", "geometry": {"type": "Polygon", "coordinates": [[[-97.598043, 35.5494499], [-97.5982043, 35.5495019], [-97.598152, 35.5496095], [-97.5979907, 35.5495575], [-97.598043, 35.5494499]]]}, "properties": {"osm_id": 228599059, "building": "yes", "name": "", "height": null, "height_m": null, "levels": null, "tract_id": "40109108508", "tract_name": "1085.08", "tags": {"building": "yes", "source": "Bing"}}}, {"type": "Feature", "geometry": {"type": "Polygon", "coordinates": [[[-97.605924, 35.5444313], [-97.6057896, 35.5447999], [-97.6059508, 35.5448329], [-97.6059328, 35.5448837], [-97.605916, 35.5449311], [-97.6060123, 35.5449548], [-97.6060284, 35.544906], [-97.6060447, 35.5448569], [-97.6062512, 35.5449071], [-97.6063907, 35.5445317], [-97.605924, 35.5444313]]]}, "properties": {"osm_id": 228601054, "building": "yes", "name": "LifeShare Oklahoma", "height": null, "height_m": null, "levels": null, "tract_id": "40109108508", "tract_name": "1085.08", "tags": {"addr:city": "Oklahoma City", "addr:housenumber": "4705", "addr:postcode": "73132", "addr:state": "OK", "addr:street": "Northwest Expressway", "amenity": "clinic", "building": "yes", "contact:facebook": "LifeShareOK", "contact:instagram": "lifeshareok", "contact:linkedin": "https://www.linkedin.com/company/lifeshare-network/", "contact:twitter": "LifeShareOK", "contact:youtube": "https://www.youtube.com/@lifeshareok8557", "healthcare": "clinic", "healthcare:speciality": "transplant", "name": "LifeShare Oklahoma", "phone": "+1 405 840 5551 \u200b", "source": "Bing", "website": "https://www.lifeshareoklahoma.org/"}}}, {"type": "Feature", "geometry": {"type": "Polygon", "coordinates": [[[-97.6152313, 35.5501316], [-97.6152337, 35.5505547], [-97.615121, 35.5505525], [-97.6151267, 35.5506051], [-97.614955, 35.5506029], [-97.6149523, 35.5507513], [-97.6152313, 35.5507535], [-97.615239, 35.5509301], [-97.6165107, 35.5509303], [-97.6165107, 35.5500661], [-97.6163897, 35.5500637], [-97.6163736, 35.5500375], [-97.6161191, 35.5500443], [-97.6161027, 35.5500702], [-97.6157623, 35.5500683], [-97.6157677, 35.5501381], [-97.6152313, 35.5501316]]]}, "properties": {"osm_id": 228602324, "building": "yes", "name": "", "height": null, "height_m": null, "levels": null, "tract_id": "40109108508", "tract_name": "1085.08", "tags": {"building": "yes", "source": "Bing"}}}, {"type": "Feature", "geometry": {"type": "Polygon", "coordinates": [[[-97.5752331, 35.5621606], [-97.5751609, 35.5621604], [-97.5751617, 35.5620153], [-97.575234, 35.5620156], [-97.5752331, 35.5621606]]]}, "properties": {"osm_id": 228873208, "building": "yes", "name": "", "height": null, "height_m": null, "levels": null, "tract_id": "40109108508", "tract_name": "1085.08", "tags": {"building": "yes", "source": "Bing"}}}, {"type": "Feature", "geometry": {"type": "Polygon", "coordinates": [[[-97.5783145, 35.563661], [-97.5781361, 35.5635675], [-97.5779818, 35.5637623], [-97.5781087, 35.5638288], [-97.578071, 35.5638764], [-97.5781225, 35.5639033], [-97.5783145, 35.563661]]]}, "properties": {"osm_id": 228873723, "building": "yes", "name": "Redrock Canyon Grill", "height": null, "height_m": null, "levels": null, "tract_id": "40109108508", "tract_name": "1085.08", "tags": {"addr:city": "Oklahoma City", "addr:housenumber": "9221", "addr:state": "OK", "addr:street": "Lake Hefner Parkway", "amenity": "restaurant", "building": "yes", "name": "Redrock Canyon Grill", "source": "Bing"}}}, {"type": "Feature", "geometry": {"type": "Polygon", "coordinates": [[[-97.5778089, 35.5637959], [-97.5778447, 35.5639482], [-97.5777624, 35.563961], [-97.5777698, 35.5639928], [-97.5774797, 35.564038], [-97.5774702, 35.5639976], [-97.5773922, 35.5640098], [-97.5773584, 35.563866], [-97.5774273, 35.5638553], [-97.5775732, 35.5638326], [-97.5778089, 35.5637959]]]}, "properties": {"osm_id": 228873725, "building": "commercial", "name": "Hall Capital", "height": null, "height_m": null, "levels": null, "tract_id": "40109108508", "tract_name": "1085.08", "tags": {"building": "commercial", "name": "Hall Capital", "source": "Bing"}}}, {"type": "Feature", "geometry": {"type": "Polygon", "coordinates": [[[-97.5785198, 35.5628772], [-97.5782623, 35.5628816], [-97.5782677, 35.5627725], [-97.5782331, 35.5627726], [-97.5782382, 35.5625914], [-97.5783778, 35.5625878], [-97.5784957, 35.5625848], [-97.5785013, 35.5626395], [-97.5785225, 35.5626394], [-97.5785198, 35.5628772]]]}, "properties": {"osm_id": 228873726, "building": "yes", "name": "Hefner Grill", "height": null, "height_m": null, "levels": null, "tract_id": "40109108508", "tract_name": "1085.08", "tags": {"amenity": "restaurant", "building": "yes", "name": "Hefner Grill", "source": "Bing"}}}, {"type": "Feature", "geometry": {"type": "Polygon", "coordinates": [[[-97.578552, 35.5629971], [-97.5784313, 35.5635535], [-97.5782623, 35.5635055], [-97.578265, 35.5634859], [-97.5781738, 35.5634728], [-97.5782757, 35.5630037], [-97.5783753, 35.5630061], [-97.5783777, 35.5629884], [-97.578552, 35.5629971]]]}, "properties": {"osm_id": 228873728, "building": "yes", "name": "", "height": null, "height_m": null, "levels": null, "tract_id": "40109108508", "tract_name": "1085.08", "tags": {"building": "yes", "source": "Bing"}}}, {"type": "Feature", "geometry": {"type": "Polygon", "coordinates": [[[-97.5759199, 35.562691], [-97.5757443, 35.5626939], [-97.5757427, 35.5626295], [-97.5755262, 35.5626331], [-97.5755236, 35.5625321], [-97.5759158, 35.5625256], [-97.5759199, 35.562691]]]}, "properties": {"osm_id": 228873790, "building": "yes", "name": "", "height": null, "height_m": null, "levels": null, "tract_id": "40109108508", "tract_name": "1085.08", "tags": {"building": "yes", "source": "Bing"}}}, {"type": "Feature", "geometry": {"type": "Polygon", "coordinates": [[[-97.601091, 35.5532866], [-97.6008771, 35.5534626], [-97.600776, 35.5533824], [-97.6007465, 35.5534068], [-97.6005361, 35.5532394], [-97.6005174, 35.5532537], [-97.6004283, 35.5531846], [-97.6005078, 35.5531167], [-97.6004767, 35.5530926], [-97.6005532, 35.5530273], [-97.6003, 35.5528309], [-97.6004482, 35.5527045], [-97.600821, 35.5529936], [-97.6007088, 35.5530893], [-97.6008512, 35.5531997], [-97.6008756, 35.5531789], [-97.6009158, 35.5532116], [-97.6009531, 35.5531801], [-97.601091, 35.5532866]]]}, "properties": {"osm_id": 245750115, "building": "yes", "name": "Lake Hefner Golf Club", "height": null, "height_m": null, "levels": null, "tract_id": "40109108508", "tract_name": "1085.08", "tags": {"addr:city": "Oklahoma City", "addr:housenumber": "4491", "addr:postcode": "73116-1530", "addr:state": "OK", "addr:street": "South Lake Hefner Drive", "building": "yes", "name": "Lake Hefner Golf Club", "phone": "405-843-1565", "source": "Bing", "website": "http://okcgolf.com/hefner/"}}}, {"type": "Feature", "geometry": {"type": "Polygon", "coordinates": [[[-97.5897532, 35.5488428], [-97.5897076, 35.548845], [-97.5897076, 35.5486922], [-97.5897586, 35.5486922], [-97.5897532, 35.5488428]]]}, "properties": {"osm_id": 245907401, "building": "yes", "name": "", "height": null, "height_m": null, "levels": null, "tract_id": "40109108508", "tract_name": "1085.08", "tags": {"building": "yes", "source": "Bing"}}}, {"type": "Feature", "geometry": {"type": "Polygon", "coordinates": [[[-97.5826506, 35.5517616], [-97.5824817, 35.5518434], [-97.5823958, 35.5517201], [-97.5825674, 35.5516415], [-97.5826506, 35.5517616]]]}, "properties": {"osm_id": 245907625, "building": "yes", "name": "Stars & Stripes Park Bob Hope Pavilion", "height": null, "height_m": null, "levels": null, "tract_id": "40109108508", "tract_name": "1085.08", "tags": {"addr:city": "Oklahoma City", "addr:housenumber": "3701", "addr:postcode": "73120", "addr:state": "OK", "addr:street": "South Lake Hefner Drive", "amenity": "events_venue", "building": "yes", "email": "parkrentals@okc.gov", "name": "Stars & Stripes Park Bob Hope Pavilion", "phone": "+1 405 297 2756", "source": "Bing", "website": "https://www.okc.gov/Home/Components/FacilityDirectory/FacilityDirectory/34/2846"}}}, {"type": "Feature", "geometry": {"type": "Polygon", "coordinates": [[[-97.6187832, 35.5509104], [-97.6187805, 35.550738], [-97.6185311, 35.550738], [-97.6185311, 35.5509148], [-97.6187832, 35.5509104]]]}, "properties": {"osm_id": 262138572, "building": "yes", "name": "Whataburger", "height": null, "height_m": null, "levels": null, "tract_id": "40109108508", "tract_name": "1085.08", "tags": {"addr:city": "Oklahoma City", "addr:housenumber": "7820", "addr:postcode": "73132", "addr:state": "OK", "addr:street": "North Macarthur Boulevard", "amenity": "fast_food", "branch": "MacArthur & Wilshire", "brand": "Whataburger", "brand:wikidata": "Q376627", "building": "yes", "cuisine": "burger", "name": "Whataburger", "phone": "+1 405-728-9665", "takeaway": "yes", "website": "https://locations.whataburger.com/ok/oklahoma-city/7820-n-macarthur-blvd.html"}}}, {"type": "Feature", "geometry": {"type": "Polygon", "coordinates": [[[-97.6192843, 35.5571194], [-97.6189786, 35.5571173], [-97.6189732, 35.5574817], [-97.61922, 35.5574795], [-97.6192173, 35.5572089], [-97.6193729, 35.5572067], [-97.6193755, 35.5571216], [-97.6199549, 35.5571107], [-97.6199656, 35.5572482], [-97.620148, 35.5572482], [-97.620148, 35.5575122], [-97.6200729, 35.55751], [-97.6200756, 35.5581014], [-97.618933, 35.5580992], [-97.6189383, 35.5578875], [-97.6196867, 35.557881], [-97.6196894, 35.5577064], [-97.6189652, 35.5577042], [-97.6189625, 35.557689], [-97.6187184, 35.5576911], [-97.6187077, 35.5569121], [-97.6192897, 35.55691], [-97.6192843, 35.5571194]]]}, "properties": {"osm_id": 269445339, "building": "yes", "name": "", "height": null, "height_m": null, "levels": null, "tract_id": "40109108508", "tract_name": "1085.08", "tags": {"building": "yes", "source": "Bing"}}}, {"type": "Feature", "geometry": {"type": "Polygon", "coordinates": [[[-97.6186395, 35.5570968], [-97.6186456, 35.5569626], [-97.6185933, 35.556961], [-97.6185872, 35.5570952], [-97.6186395, 35.5570968]]]}, "properties": {"osm_id": 269445340, "building": "yes", "name": "", "height": null, "height_m": null, "levels": null, "tract_id": "40109108508", "tract_name": "1085.08", "tags": {"building": "yes", "roof:shape": "flat", "source": "Bing"}}}, {"type": "Feature", "geometry": {"type": "Polygon", "coordinates": [[[-97.6180344, 35.5568074], [-97.6179137, 35.5568118], [-97.6179191, 35.5568925], [-97.6180398, 35.5568925], [-97.6180344, 35.5568074]]]}, "properties": {"osm_id": 269445369, "building": "yes", "name": "", "height": null, "height_m": null, "levels": null, "tract_id": "40109108508", "tract_name": "1085.08", "tags": {"building": "yes", "roof:shape": "gabled", "source": "Bing"}}}, {"type": "Feature", "geometry": {"type": "Polygon", "coordinates": [[[-97.6194827, 35.5526804], [-97.6190991, 35.5528354], [-97.619031, 35.5527226], [-97.6192787, 35.5526194], [-97.6193502, 35.5525895], [-97.6193636, 35.5526092], [-97.6194253, 35.5525874], [-97.6194827, 35.5526804]]]}, "properties": {"osm_id": 269450344, "building": "yes", "name": "", "height": null, "height_m": null, "levels": null, "tract_id": "40109108508", "tract_name": "1085.08", "tags": {"building": "yes", "roof:shape": "flat", "source": "Bing"}}}, {"type": "Feature", "geometry": {"type": "Polygon", "coordinates": [[[-97.6189152, 35.5527971], [-97.6185929, 35.5529296], [-97.6185064, 35.5527903], [-97.618664, 35.5527255], [-97.6188286, 35.5526578], [-97.6189152, 35.5527971]]]}, "properties": {"osm_id": 269450345, "building": "yes", "name": "", "height": null, "height_m": null, "levels": null, "tract_id": "40109108508", "tract_name": "1085.08", "tags": {"amenity": "animal_boarding", "building": "yes", "roof:shape": "flat", "source": "Bing"}}}, {"type": "Feature", "geometry": {"type": "Polygon", "coordinates": [[[-97.6175166, 35.5508517], [-97.6174281, 35.5508517], [-97.6174308, 35.5508015], [-97.6171803, 35.5508001], [-97.6171385, 35.550771], [-97.6171374, 35.5506823], [-97.6171841, 35.5506488], [-97.6177741, 35.5506466], [-97.617809, 35.5506771], [-97.617809, 35.5507688], [-97.6177661, 35.5508037], [-97.6175183, 35.5508023], [-97.6175166, 35.5508517]]]}, "properties": {"osm_id": 269450346, "building": "yes", "name": "", "height": null, "height_m": null, "levels": null, "tract_id": "40109108508", "tract_name": "1085.08", "tags": {"building": "yes", "roof:shape": "flat", "source": "Bing"}}}, {"type": "Feature", "geometry": {"type": "Polygon", "coordinates": [[[-97.6187022, 35.5516482], [-97.61867, 35.5516024], [-97.6186421, 35.5514548], [-97.6185466, 35.5514671], [-97.6185643, 35.5515835], [-97.618516, 35.5515923], [-97.6185294, 35.5516534], [-97.6187022, 35.5516482]]]}, "properties": {"osm_id": 269450349, "building": "yes", "name": "", "height": null, "height_m": null, "levels": null, "tract_id": "40109108508", "tract_name": "1085.08", "tags": {"building": "yes", "roof:shape": "flat", "source": "Bing"}}}, {"type": "Feature", "geometry": {"type": "Polygon", "coordinates": [[[-97.6186861, 35.552388], [-97.6183642, 35.5525233], [-97.6179528, 35.5518585], [-97.6179528, 35.5513413], [-97.6181899, 35.5513427], [-97.6181899, 35.5518097], [-97.6182505, 35.5519043], [-97.6182972, 35.5519516], [-97.6183444, 35.5519807], [-97.6184087, 35.5519938], [-97.6184436, 35.5520025], [-97.618493, 35.5520432], [-97.6186861, 35.552388]]]}, "properties": {"osm_id": 269450350, "building": "yes", "name": "", "height": null, "height_m": null, "levels": null, "tract_id": "40109108508", "tract_name": "1085.08", "tags": {"building": "yes", "roof:shape": "flat", "source": "Bing"}}}, {"type": "Feature", "geometry": {"type": "Polygon", "coordinates": [[[-97.6188333, 35.5514238], [-97.6187515, 35.5514355], [-97.6186868, 35.5514447], [-97.6187003, 35.5515073], [-97.6187677, 35.5514977], [-97.6188468, 35.5514865], [-97.6188333, 35.5514238]]]}, "properties": {"osm_id": 269450352, "building": "roof", "name": "", "height": null, "height_m": null, "levels": null, "tract_id": "40109108508", "tract_name": "1085.08", "tags": {"building": "roof", "roof:shape": "flat", "source": "Bing"}}}, {"type": "Feature", "geometry": {"type": "Polygon", "coordinates": [[[-97.6113756, 35.5472389], [-97.6115695, 35.5469397], [-97.6112735, 35.5468127], [-97.6110795, 35.5471119], [-97.6113756, 35.5472389]]]}, "properties": {"osm_id": 269453342, "building": "yes", "name": "", "height": null, "height_m": null, "levels": null, "tract_id": "40109108508", "tract_name": "1085.08", "tags": {"building": "yes", "roof:shape": "flat", "source": "Bing"}}}, {"type": "Feature", "geometry": {"type": "Polygon", "coordinates": [[[-97.6137908, 35.5485523], [-97.6138822, 35.5480675], [-97.6136432, 35.5480377], [-97.6136489, 35.5480077], [-97.6135743, 35.5479984], [-97.6135652, 35.5480468], [-97.6130294, 35.5479799], [-97.6130375, 35.5479371], [-97.612971, 35.5479288], [-97.6129635, 35.5479689], [-97.6126998, 35.547936], [-97.6126118, 35.5484026], [-97.6128692, 35.5484347], [-97.6128602, 35.5484824], [-97.6129514, 35.5484938], [-97.6129587, 35.5484548], [-97.6131163, 35.5484745], [-97.6130956, 35.5485846], [-97.6132924, 35.5486092], [-97.6133144, 35.5484928], [-97.6134657, 35.5485117], [-97.6135838, 35.5485264], [-97.6137908, 35.5485523]]]}, "properties": {"osm_id": 269453343, "building": "yes", "name": "", "height": null, "height_m": null, "levels": null, "tract_id": "40109108508", "tract_name": "1085.08", "tags": {"building": "yes", "roof:shape": "flat", "source": "Bing"}}}, {"type": "Feature", "geometry": {"type": "Polygon", "coordinates": [[[-97.6122905, 35.5500243], [-97.6120541, 35.5499826], [-97.6121547, 35.5496053], [-97.6123911, 35.549647], [-97.6122905, 35.5500243]]]}, "properties": {"osm_id": 269453344, "building": "yes", "name": "", "height": null, "height_m": null, "levels": null, "tract_id": "40109108508", "tract_name": "1085.08", "tags": {"building": "yes", "roof:shape": "gabled", "source": "Bing"}}}, {"type": "Feature", "geometry": {"type": "Polygon", "coordinates": [[[-97.6143343, 35.5488747], [-97.6138118, 35.548812], [-97.6136993, 35.5487985], [-97.613465, 35.5487704], [-97.6133791, 35.5492438], [-97.613616, 35.5492722], [-97.6136069, 35.5493225], [-97.6136964, 35.5493333], [-97.6137059, 35.549281], [-97.6142628, 35.5493478], [-97.6142997, 35.5491449], [-97.61436, 35.5491521], [-97.6143727, 35.5490822], [-97.6142983, 35.5490733], [-97.6143343, 35.5488747]]]}, "properties": {"osm_id": 269453345, "building": "yes", "name": "", "height": null, "height_m": null, "levels": null, "tract_id": "40109108508", "tract_name": "1085.08", "tags": {"building": "yes", "roof:shape": "flat", "source": "Bing"}}}, {"type": "Feature", "geometry": {"type": "Polygon", "coordinates": [[[-97.6113592, 35.5494886], [-97.6113334, 35.5494883], [-97.6113347, 35.5493765], [-97.6109324, 35.5493803], [-97.6109324, 35.5493683], [-97.6108962, 35.5493355], [-97.6108948, 35.5493137], [-97.6104898, 35.5493121], [-97.6104871, 35.5497174], [-97.610699, 35.5497213], [-97.6106996, 35.5497536], [-97.6109597, 35.549752], [-97.610959, 35.5497198], [-97.6113582, 35.5497163], [-97.6113592, 35.5494886]]]}, "properties": {"osm_id": 269453346, "building": "yes", "name": "Life Church", "height": null, "height_m": null, "levels": null, "tract_id": "40109108508", "tract_name": "1085.08", "tags": {"addr:state": "OK", "amenity": "place_of_worship", "building": "yes", "name": "Life Church", "religion": "christian", "roof:shape": "flat", "source": "Bing"}}}, {"type": "Feature", "geometry": {"type": "Polygon", "coordinates": [[[-97.6105831, 35.5464964], [-97.6102049, 35.5465013], [-97.6102049, 35.5466497], [-97.610272, 35.5466519], [-97.610272, 35.5473306], [-97.6101931, 35.5473335], [-97.6101915, 35.5482341], [-97.6105069, 35.5482348], [-97.610508, 35.5484501], [-97.6108315, 35.5484531], [-97.6108301, 35.5474432], [-97.6108299, 35.5473306], [-97.6105798, 35.5473246], [-97.6105811, 35.5469917], [-97.6105621, 35.5469917], [-97.6105629, 35.5467822], [-97.6105782, 35.5467823], [-97.6105791, 35.5465618], [-97.6105829, 35.5465618], [-97.6105831, 35.5464964]]]}, "properties": {"osm_id": 269453347, "building": "yes", "name": "", "height": null, "height_m": null, "levels": null, "tract_id": "40109108508", "tract_name": "1085.08", "tags": {"building": "yes", "roof:shape": "flat", "source": "Bing"}}}, {"type": "Feature", "geometry": {"type": "Polygon", "coordinates": [[[-97.6138118, 35.548812], [-97.6138222, 35.5487684], [-97.6137669, 35.5487611], [-97.6135781, 35.5485655], [-97.6135838, 35.5485264], [-97.6134657, 35.5485117], [-97.6134638, 35.5485516], [-97.6137015, 35.5487815], [-97.6136993, 35.5487985], [-97.6138118, 35.548812]]]}, "properties": {"osm_id": 269453350, "building": "yes", "name": "", "height": null, "height_m": null, "levels": null, "tract_id": "40109108508", "tract_name": "1085.08", "tags": {"building": "yes", "roof:shape": "flat", "source": "Bing"}}}, {"type": "Feature", "geometry": {"type": "Polygon", "coordinates": [[[-97.6140846, 35.549602], [-97.6133312, 35.5495082], [-97.6133511, 35.5494024], [-97.6135174, 35.5494231], [-97.6135381, 35.5493133], [-97.6136069, 35.5493225], [-97.6136964, 35.5493333], [-97.6141252, 35.5493865], [-97.6140846, 35.549602]]]}, "properties": {"osm_id": 269453352, "building": "yes", "name": "", "height": null, "height_m": null, "levels": null, "tract_id": "40109108508", "tract_name": "1085.08", "tags": {"building": "yes", "roof:shape": "flat", "source": "Bing"}}}, {"type": "Feature", "geometry": {"type": "Polygon", "coordinates": [[[-97.595618, 35.5544037], [-97.5954961, 35.5544037], [-97.5954961, 35.5542262], [-97.595618, 35.5542262], [-97.595618, 35.5544037]]]}, "properties": {"osm_id": 290230008, "building": "roof", "name": "", "height": null, "height_m": null, "levels": null, "tract_id": "40109108508", "tract_name": "1085.08", "tags": {"building": "roof", "layer": "1", "source": "Bing"}}}, {"type": "Feature", "geometry": {"type": "Polygon", "coordinates": [[[-97.604513, 35.5509718], [-97.6044703, 35.5509718], [-97.6044703, 35.5509847], [-97.604434, 35.5509847], [-97.6044341, 35.5509718], [-97.6043857, 35.5509718], [-97.6043857, 35.5509053], [-97.6044136, 35.5509053], [-97.6044136, 35.5508448], [-97.6044629, 35.5508448], [-97.6044629, 35.5509053], [-97.604513, 35.5509053], [-97.604513, 35.5509718]]]}, "properties": {"osm_id": 290255304, "building": "yes", "name": "", "height": null, "height_m": null, "levels": null, "tract_id": "40109108508", "tract_name": "1085.08", "tags": {"building": "yes", "source": "Bing"}}}, {"type": "Feature", "geometry": {"type": "Polygon", "coordinates": [[[-97.5989732, 35.5517412], [-97.5988352, 35.5517765], [-97.5988103, 35.5517119], [-97.5989482, 35.5516766], [-97.5989732, 35.5517412]]]}, "properties": {"osm_id": 290255305, "building": "yes", "name": "", "height": null, "height_m": null, "levels": null, "tract_id": "40109108508", "tract_name": "1085.08", "tags": {"building": "yes", "source": "Bing"}}}, {"type": "Feature", "geometry": {"type": "Polygon", "coordinates": [[[-97.5968578, 35.5520117], [-97.5968715, 35.5520831], [-97.5968817, 35.5521367], [-97.5966794, 35.5521623], [-97.5966554, 35.5520373], [-97.5968578, 35.5520117]]]}, "properties": {"osm_id": 290255306, "building": "roof", "name": "", "height": null, "height_m": null, "levels": null, "tract_id": "40109108508", "tract_name": "1085.08", "tags": {"building": "roof", "layer": "1", "source": "Bing"}}}, {"type": "Feature", "geometry": {"type": "Polygon", "coordinates": [[[-97.601847, 35.5537042], [-97.6019392, 35.5536961], [-97.6019523, 35.5537955], [-97.6018602, 35.5538036], [-97.601847, 35.5537042]]]}, "properties": {"osm_id": 290255307, "building": "roof", "name": "", "height": null, "height_m": null, "levels": null, "tract_id": "40109108508", "tract_name": "1085.08", "tags": {"building": "roof", "source": "Bing"}}}, {"type": "Feature", "geometry": {"type": "Polygon", "coordinates": [[[-97.6043709, 35.5510519], [-97.6043263, 35.5510519], [-97.6043263, 35.5510421], [-97.6042789, 35.5510421], [-97.6042789, 35.5509847], [-97.6043709, 35.5509847], [-97.6043709, 35.5510519]]]}, "properties": {"osm_id": 290255309, "building": "yes", "name": "", "height": null, "height_m": null, "levels": null, "tract_id": "40109108508", "tract_name": "1085.08", "tags": {"building": "yes", "source": "Bing"}}}, {"type": "Feature", "geometry": {"type": "Polygon", "coordinates": [[[-97.6050054, 35.5506929], [-97.6050054, 35.5509318], [-97.6048224, 35.5509318], [-97.6048224, 35.5509695], [-97.6047146, 35.5509695], [-97.6047146, 35.550838], [-97.604657, 35.550838], [-97.604657, 35.5506929], [-97.6050054, 35.5506929]]]}, "properties": {"osm_id": 290255310, "building": "yes", "name": "", "height": null, "height_m": null, "levels": null, "tract_id": "40109108508", "tract_name": "1085.08", "tags": {"building": "yes", "source": "Bing"}}}, {"type": "Feature", "geometry": {"type": "Polygon", "coordinates": [[[-97.5940798, 35.5469879], [-97.5938972, 35.5468962], [-97.5939576, 35.5468166], [-97.5941402, 35.5469083], [-97.5940798, 35.5469879]]]}, "properties": {"osm_id": 290262547, "building": "roof", "name": "", "height": null, "height_m": null, "levels": null, "tract_id": "40109108508", "tract_name": "1085.08", "tags": {"building": "roof", "layer": "1", "source": "Bing"}}}, {"type": "Feature", "geometry": {"type": "Polygon", "coordinates": [[[-97.6070364, 35.5450201], [-97.6069364, 35.5449962], [-97.6069203, 35.5450411], [-97.6068235, 35.5450179], [-97.6069407, 35.5446928], [-97.6069744, 35.5447009], [-97.6069778, 35.5446912], [-97.6069813, 35.5446816], [-97.6070342, 35.5446942], [-97.6070308, 35.5447039], [-97.6070273, 35.5447135], [-97.6071375, 35.5447399], [-97.6070364, 35.5450201]]]}, "properties": {"osm_id": 291844965, "building": "yes", "name": "Lemongrass Hotpot", "height": null, "height_m": null, "levels": null, "tract_id": "40109108508", "tract_name": "1085.08", "tags": {"addr:city": "Oklahoma City", "addr:housenumber": "4801", "addr:postcode": "73132", "addr:state": "OK", "addr:street": "Northwest Expressway", "amenity": "restaurant", "building": "yes", "contact:facebook": "https://www.facebook.com/p/Lemongrass-Hotpot-100070270211778/", "contact:yelp": "https://www.yelp.com/biz/lemongrass-hot-pot-oklahoma-city", "cuisine": "asian", "name": "Lemongrass Hotpot", "opening_hours": "Mo-Th 12:00-22:00; Fr, Sa 12:00-22:30; Su 12:00-21:30", "phone": "+1 405 470 2790", "source": "Bing", "toilets": "yes"}}}, {"type": "Feature", "geometry": {"type": "Polygon", "coordinates": [[[-97.6072761, 35.5454743], [-97.6074365, 35.5448857], [-97.60757, 35.5449098], [-97.607567, 35.5449209], [-97.6076309, 35.5449324], [-97.6075172, 35.5453493], [-97.607673, 35.5453774], [-97.6076439, 35.5454841], [-97.6076283, 35.5454813], [-97.6076136, 35.5455352], [-97.6075861, 35.5455303], [-97.6075811, 35.5455483], [-97.6073645, 35.5455092], [-97.6073694, 35.5454912], [-97.6072761, 35.5454743]]]}, "properties": {"osm_id": 291844966, "building": "yes", "name": "Extended Stay America - Oklahoma City - Northwest", "height": null, "height_m": null, "levels": null, "tract_id": "40109108508", "tract_name": "1085.08", "tags": {"addr:city": "Oklahoma City", "addr:housenumber": "4811", "addr:postcode": "73132", "addr:state": "OK", "addr:street": "Northwest Expressway", "brand": "Extended Stay America", "brand:wikidata": "Q5421850", "breakfast": "yes", "building": "yes", "dog": "yes", "fitness_centre": "yes", "internet_access": "wlan", "internet_access:fee": "no", "laundry_service": "yes", "name": "Extended Stay America - Oklahoma City - Northwest", "phone": "+1 405 722 2802", "service:copy": "yes", "service:fax": "yes", "smoking": "no", "source": "Bing", "tourism": "hotel", "website": "https://extendedstayamerica.com/hotels/ok/oklahoma-city/northwest"}}}, {"type": "Feature", "geometry": {"type": "Polygon", "coordinates": [[[-97.6122399, 35.5474282], [-97.6121613, 35.5475991], [-97.6120153, 35.5475546], [-97.6119983, 35.5475915], [-97.6119784, 35.5476348], [-97.6120674, 35.5476619], [-97.6120434, 35.5477139], [-97.6119457, 35.5476841], [-97.6118572, 35.5476572], [-97.6118809, 35.5476057], [-97.6119199, 35.5476176], [-97.6119398, 35.5475744], [-97.6119574, 35.5475362], [-97.6118779, 35.547512], [-97.6119563, 35.5473418], [-97.6120697, 35.5473763], [-97.6120905, 35.5473311], [-97.6121276, 35.5473424], [-97.6121629, 35.5473531], [-97.6121421, 35.5473984], [-97.6122399, 35.5474282]]]}, "properties": {"osm_id": 291844967, "building": "yes", "name": "", "height": null, "height_m": null, "levels": null, "tract_id": "40109108508", "tract_name": "1085.08", "tags": {"building": "yes", "source": "Bing"}}}, {"type": "Feature", "geometry": {"type": "Polygon", "coordinates": [[[-97.6091689, 35.5460722], [-97.6090741, 35.5461024], [-97.609066, 35.5460855], [-97.6089768, 35.5461139], [-97.6087648, 35.5456739], [-97.6086742, 35.5456758], [-97.6085919, 35.545622], [-97.6086022, 35.5456128], [-97.6085726, 35.5455959], [-97.6086268, 35.5455387], [-97.6086464, 35.545545], [-97.6086667, 35.5455417], [-97.6086666, 35.5454974], [-97.608629, 35.5455028], [-97.6086217, 35.5454549], [-97.6086156, 35.5454144], [-97.6087256, 35.5454013], [-97.6087308, 35.5454404], [-97.6087376, 35.5454919], [-97.6086974, 35.5454952], [-97.6087028, 35.5455487], [-97.6087131, 35.5455506], [-97.6087535, 35.5455069], [-97.6087628, 35.5455111], [-97.6088412, 35.5454408], [-97.6089958, 35.5455419], [-97.6089438, 35.5455976], [-97.6089414, 35.5456105], [-97.6091689, 35.5460722]]]}, "properties": {"osm_id": 291844968, "building": "yes", "name": "La Quinta Inn & Suites Oklahoma City - NW Expwy", "height": null, "height_m": null, "levels": null, "tract_id": "40109108508", "tract_name": "1085.08", "tags": {"addr:city": "Oklahoma City", "addr:housenumber": "4829", "addr:postcode": "73132", "addr:state": "OK", "addr:street": "Northwest Expressway", "branch": "Oklahoma City", "brand": "La Quinta Inn & Suites", "brand:wikidata": "Q6464734", "building": "yes", "layer": "1", "name": "La Quinta Inn & Suites Oklahoma City - NW Expwy", "official_name": "La Quinta Inn & Suites by Wyndham", "phone": "+1 405-367-3183", "ref": "53326", "source": "Bing", "tourism": "hotel", "website": "https://www.wyndhamhotels.com/laquinta/oklahoma-city-oklahoma/la-quinta-oklahoma-city-nw-expwy/overview"}}}, {"type": "Feature", "geometry": {"type": "Polygon", "coordinates": [[[-97.5998453, 35.5454038], [-97.5997298, 35.5454038], [-97.5997298, 35.5453148], [-97.5998453, 35.5453148], [-97.5998453, 35.5454038]]]}, "properties": {"osm_id": 291844970, "building": "yes", "name": "", "height": null, "height_m": null, "levels": null, "tract_id": "40109108508", "tract_name": "1085.08", "tags": {"building": "yes", "source": "Bing"}}}, {"type": "Feature", "geometry": {"type": "Polygon", "coordinates": [[[-97.609951, 35.5464831], [-97.609614, 35.5464831], [-97.609614, 35.5462588], [-97.609951, 35.5462588], [-97.609951, 35.5464831]]]}, "properties": {"osm_id": 291844971, "building": "yes", "name": "Communications Federal Credit Union", "height": null, "height_m": null, "levels": null, "tract_id": "40109108508", "tract_name": "1085.08", "tags": {"amenity": "bank", "atm": "yes", "building": "yes", "drive_through": "yes", "name": "Communications Federal Credit Union", "source": "Bing"}}}, {"type": "Feature", "geometry": {"type": "Polygon", "coordinates": [[[-97.6081536, 35.5455252], [-97.6081018, 35.5455136], [-97.6080825, 35.5455707], [-97.6079368, 35.5455381], [-97.6080345, 35.5452494], [-97.608232, 35.5452936], [-97.6081536, 35.5455252]]]}, "properties": {"osm_id": 291844972, "building": "yes", "name": "", "height": null, "height_m": null, "levels": null, "tract_id": "40109108508", "tract_name": "1085.08", "tags": {"building": "yes", "source": "Bing"}}}, {"type": "Feature", "geometry": {"type": "Polygon", "coordinates": [[[-97.6198913, 35.554241], [-97.6197414, 35.5541105], [-97.6198044, 35.554052], [-97.6199618, 35.5541788], [-97.6198913, 35.554241]]]}, "properties": {"osm_id": 324886838, "building": "apartments", "name": "", "height": null, "height_m": 6.0, "levels": 2, "tract_id": "40109108508", "tract_name": "1085.08", "tags": {"building": "apartments", "building:levels": "2", "roof:shape": "flat"}}}, {"type": "Feature", "geometry": {"type": "Polygon", "coordinates": [[[-97.6201147, 35.5542105], [-97.6199783, 35.5540898], [-97.6200547, 35.5540398], [-97.6201821, 35.5541715], [-97.6201147, 35.5542105]]]}, "properties": {"osm_id": 324886845, "building": "apartments", "name": "", "height": null, "height_m": 6.0, "levels": 2, "tract_id": "40109108508", "tract_name": "1085.08", "tags": {"building": "apartments", "building:levels": "2", "roof:shape": "flat"}}}, {"type": "Feature", "geometry": {"type": "Polygon", "coordinates": [[[-97.619575, 35.5537203], [-97.6195345, 35.5536495], [-97.6200832, 35.553419], [-97.6201252, 35.5534995], [-97.619575, 35.5537203]]]}, "properties": {"osm_id": 324886846, "building": "apartments", "name": "", "height": null, "height_m": 6.0, "levels": 2, "tract_id": "40109108508", "tract_name": "1085.08", "tags": {"building": "apartments", "building:levels": "2", "roof:shape": "flat"}}}, {"type": "Feature", "geometry": {"type": "Polygon", "coordinates": [[[-97.6197431, 35.5543593], [-97.6198322, 35.5542645], [-97.6195894, 35.5541308], [-97.6195057, 35.5542274], [-97.6197431, 35.5543593]]]}, "properties": {"osm_id": 324886853, "building": "apartments", "name": "", "height": null, "height_m": 6.0, "levels": 2, "tract_id": "40109108508", "tract_name": "1085.08", "tags": {"building": "apartments", "building:levels": "2", "roof:shape": "flat"}}}, {"type": "Feature", "geometry": {"type": "Polygon", "coordinates": [[[-97.6201896, 35.5539581], [-97.6200652, 35.5536422], [-97.6201492, 35.5536227], [-97.6202691, 35.5539373], [-97.6202543, 35.5539412], [-97.6201896, 35.5539581]]]}, "properties": {"osm_id": 324886855, "building": "apartments", "name": "", "height": null, "height_m": 6.0, "levels": 2, "tract_id": "40109108508", "tract_name": "1085.08", "tags": {"building": "apartments", "building:levels": "2", "roof:shape": "flat"}}}, {"type": "Feature", "geometry": {"type": "Polygon", "coordinates": [[[-97.6195016, 35.5537495], [-97.6194596, 35.5536824], [-97.6191778, 35.5537983], [-97.6192197, 35.5538703], [-97.6195016, 35.5537495]]]}, "properties": {"osm_id": 324886859, "building": "apartments", "name": "", "height": null, "height_m": 6.0, "levels": 2, "tract_id": "40109108508", "tract_name": "1085.08", "tags": {"building": "apartments", "building:levels": "2", "roof:shape": "flat"}}}, {"type": "Feature", "geometry": {"type": "Polygon", "coordinates": [[[-97.6199573, 35.5540739], [-97.6196964, 35.5538056], [-97.6197834, 35.5537532], [-97.6200397, 35.5540215], [-97.6199573, 35.5540739]]]}, "properties": {"osm_id": 324886865, "building": "apartments", "name": "", "height": null, "height_m": 6.0, "levels": 2, "tract_id": "40109108508", "tract_name": "1085.08", "tags": {"building": "apartments", "building:levels": "2", "roof:shape": "flat"}}}, {"type": "Feature", "geometry": {"type": "Polygon", "coordinates": [[[-97.6197625, 35.5543729], [-97.6202512, 35.5546461], [-97.6203442, 35.5545363], [-97.6198465, 35.5542729], [-97.6197625, 35.5543729]]]}, "properties": {"osm_id": 324886872, "building": "apartments", "name": "", "height": null, "height_m": 6.0, "levels": 2, "tract_id": "40109108508", "tract_name": "1085.08", "tags": {"building": "apartments", "building:levels": "2", "roof:shape": "flat"}}}, {"type": "Feature", "geometry": {"type": "Polygon", "coordinates": [[[-97.6202376, 35.5543203], [-97.6201911, 35.5539934], [-97.6202826, 35.5539849], [-97.6202829, 35.5539873], [-97.6203291, 35.5543118], [-97.6202376, 35.5543203]]]}, "properties": {"osm_id": 324886873, "building": "apartments", "name": "", "height": null, "height_m": 6.0, "levels": 2, "tract_id": "40109108508", "tract_name": "1085.08", "tags": {"building": "apartments", "building:levels": "2", "roof:shape": "flat"}}}, {"type": "Feature", "geometry": {"type": "Polygon", "coordinates": [[[-97.6194761, 35.5542166], [-97.619557, 35.5541166], [-97.6190818, 35.5538642], [-97.6189994, 35.5539581], [-97.6194761, 35.5542166]]]}, "properties": {"osm_id": 324886877, "building": "apartments", "name": "", "height": null, "height_m": 6.0, "levels": 2, "tract_id": "40109108508", "tract_name": "1085.08", "tags": {"building": "apartments", "building:levels": "2", "roof:shape": "flat"}}}, {"type": "Feature", "geometry": {"type": "Polygon", "coordinates": [[[-97.6197264, 35.554063], [-97.6194776, 35.5537995], [-97.6194596, 35.5538129], [-97.6194056, 35.5538495], [-97.6196635, 35.5541081], [-97.6197264, 35.554063]]]}, "properties": {"osm_id": 324886899, "building": "apartments", "name": "", "height": null, "height_m": 6.0, "levels": 2, "tract_id": "40109108508", "tract_name": "1085.08", "tags": {"building": "apartments", "building:levels": "2", "roof:shape": "flat"}}}, {"type": "Feature", "geometry": {"type": "Polygon", "coordinates": [[[-97.6200877, 35.5538447], [-97.6200779, 35.5538281], [-97.6200202, 35.5537312], [-97.6198883, 35.5537886], [-97.6199333, 35.5538678], [-97.6199993, 35.5538373], [-97.6200232, 35.5538751], [-97.6200877, 35.5538447]]]}, "properties": {"osm_id": 324886919, "building": "apartments", "name": "", "height": null, "height_m": 6.0, "levels": 2, "tract_id": "40109108508", "tract_name": "1085.08", "tags": {"building": "apartments", "building:levels": "2", "roof:shape": "flat"}}}, {"type": "Feature", "geometry": {"type": "Polygon", "coordinates": [[[-97.6200838, 35.5554009], [-97.6201468, 35.5552744], [-97.6202273, 35.5553038], [-97.6202219, 35.5553169], [-97.6203359, 35.5553606], [-97.6202568, 35.5555111], [-97.6201039, 35.5554566], [-97.6201254, 35.555414], [-97.6200838, 35.5554009]]]}, "properties": {"osm_id": 790852878, "building": "house", "name": "5833", "height": null, "height_m": null, "levels": null, "tract_id": "40109108508", "tract_name": "1085.08", "tags": {"addr:city": "Oklahoma City", "addr:housenumber": "5833", "addr:postcode": "73132", "addr:state": "OK", "addr:street": "Northwest 82nd Street", "building": "house", "name": "5833"}}}, {"type": "Feature", "geometry": {"type": "Polygon", "coordinates": [[[-97.6198035, 35.5553246], [-97.6199068, 35.5551871], [-97.6201294, 35.5552667], [-97.620002, 35.5554271], [-97.6198035, 35.5553246]]]}, "properties": {"osm_id": 790852879, "building": "house", "name": "5829", "height": null, "height_m": null, "levels": null, "tract_id": "40109108508", "tract_name": "1085.08", "tags": {"building": "house", "name": "5829"}}}, {"type": "Feature", "geometry": {"type": "Polygon", "coordinates": [[[-97.6195822, 35.5552078], [-97.6197043, 35.5550507], [-97.6199081, 35.5551533], [-97.6198263, 35.5552569], [-97.6197244, 35.5552056], [-97.6196908, 35.5552569], [-97.6195822, 35.5552078]]]}, "properties": {"osm_id": 790852880, "building": "house", "name": "5825", "height": null, "height_m": null, "levels": null, "tract_id": "40109108508", "tract_name": "1085.08", "tags": {"building": "house", "name": "5825"}}}, {"type": "Feature", "geometry": {"type": "Polygon", "coordinates": [[[-97.6193864, 35.5550867], [-97.6195004, 35.5549449], [-97.6197069, 35.5550365], [-97.6196117, 35.555138], [-97.619546, 35.5551052], [-97.6195219, 35.5551434], [-97.6193864, 35.5550867]]]}, "properties": {"osm_id": 790852881, "building": "house", "name": "5821", "height": null, "height_m": null, "levels": null, "tract_id": "40109108508", "tract_name": "1085.08", "tags": {"building": "house", "name": "5821"}}}, {"type": "Feature", "geometry": {"type": "Polygon", "coordinates": [[[-97.6191692, 35.5549743], [-97.6192912, 35.5548248], [-97.6194897, 35.5549296], [-97.6194025, 35.5550234], [-97.6193676, 35.5550038], [-97.6193475, 35.5550278], [-97.6192925, 35.5549983], [-97.6192711, 35.5550223], [-97.6191692, 35.5549743]]]}, "properties": {"osm_id": 790852882, "building": "house", "name": "5817", "height": null, "height_m": null, "levels": null, "tract_id": "40109108508", "tract_name": "1085.08", "tags": {"building": "house", "name": "5817"}}}, {"type": "Feature", "geometry": {"type": "Polygon", "coordinates": [[[-97.6191034, 35.5547037], [-97.6190069, 35.5548238], [-97.619078, 35.5548663], [-97.6190337, 35.5549241], [-97.6191303, 35.5549798], [-97.6192872, 35.5548063], [-97.6191034, 35.5547037]]]}, "properties": {"osm_id": 790852883, "building": "house", "name": "5813", "height": null, "height_m": null, "levels": null, "tract_id": "40109108508", "tract_name": "1085.08", "tags": {"building": "house", "name": "5813"}}}, {"type": "Feature", "geometry": {"type": "Polygon", "coordinates": [[[-97.6188124, 35.5547463], [-97.6188835, 35.5546077], [-97.6189814, 35.5546383], [-97.6189573, 35.5546852], [-97.6190525, 35.5547299], [-97.6189747, 35.5548248], [-97.6189492, 35.5548587], [-97.6188848, 35.5548292], [-97.6189036, 35.5547899], [-97.6188124, 35.5547463]]]}, "properties": {"osm_id": 790852884, "building": "house", "name": "5809", "height": null, "height_m": null, "levels": null, "tract_id": "40109108508", "tract_name": "1085.08", "tags": {"building": "house", "name": "5809"}}}, {"type": "Feature", "geometry": {"type": "Polygon", "coordinates": [[[-97.6186341, 35.5548238], [-97.618563, 35.554707], [-97.6187105, 35.5546295], [-97.618791, 35.5546175], [-97.6188071, 35.5547583], [-97.6186341, 35.5548238]]]}, "properties": {"osm_id": 790852885, "building": "house", "name": "5801", "height": null, "height_m": null, "levels": null, "tract_id": "40109108508", "tract_name": "1085.08", "tags": {"building": "house", "name": "5801"}}}, {"type": "Feature", "geometry": {"type": "Polygon", "coordinates": [[[-97.6184222, 35.5549361], [-97.6183243, 35.5547823], [-97.6185254, 35.5546994], [-97.6185911, 35.5548205], [-97.6185107, 35.5548499], [-97.6185294, 35.5548849], [-97.6184222, 35.5549361]]]}, "properties": {"osm_id": 790852886, "building": "house", "name": "5737", "height": null, "height_m": null, "levels": null, "tract_id": "40109108508", "tract_name": "1085.08", "tags": {"building": "house", "name": "5737"}}}, {"type": "Feature", "geometry": {"type": "Polygon", "coordinates": [[[-97.618394, 35.554928], [-97.6183108, 35.5548058], [-97.6181016, 35.5548581], [-97.6181687, 35.554976], [-97.6182867, 35.5549236], [-97.6183108, 35.5549629], [-97.618394, 35.554928]]]}, "properties": {"osm_id": 790852887, "building": "house", "name": "5733", "height": null, "height_m": null, "levels": null, "tract_id": "40109108508", "tract_name": "1085.08", "tags": {"building": "house", "name": "5733"}}}, {"type": "Feature", "geometry": {"type": "Polygon", "coordinates": [[[-97.6180104, 35.55512], [-97.6178951, 35.5549432], [-97.6180748, 35.5548778], [-97.6181419, 35.5549869], [-97.6180453, 35.5550196], [-97.6180748, 35.5550938], [-97.6180104, 35.55512]]]}, "properties": {"osm_id": 790852888, "building": "house", "name": "5729", "height": null, "height_m": null, "levels": null, "tract_id": "40109108508", "tract_name": "1085.08", "tags": {"building": "house", "name": "5729"}}}, {"type": "Feature", "geometry": {"type": "Polygon", "coordinates": [[[-97.6178006, 35.5552051], [-97.6176986, 35.5550545], [-97.6178864, 35.5549891], [-97.6179588, 35.5550894], [-97.6178864, 35.5551134], [-97.6179078, 35.5551636], [-97.6178006, 35.5552051]]]}, "properties": {"osm_id": 790852889, "building": "house", "name": "5725", "height": null, "height_m": null, "levels": null, "tract_id": "40109108508", "tract_name": "1085.08", "tags": {"building": "house", "name": "5725"}}}, {"type": "Feature", "geometry": {"type": "Polygon", "coordinates": [[[-97.6167143, 35.5556481], [-97.6166257, 35.5554953], [-97.6164353, 35.5555651], [-97.6164997, 35.5556939], [-97.6165694, 35.5556633], [-97.6165936, 35.5556982], [-97.6167143, 35.5556481]]]}, "properties": {"osm_id": 790852890, "building": "house", "name": "5701", "height": null, "height_m": null, "levels": null, "tract_id": "40109108508", "tract_name": "1085.08", "tags": {"building": "house", "name": "5701"}}}, {"type": "Feature", "geometry": {"type": "Polygon", "coordinates": [[[-97.6167438, 35.5556284], [-97.6166472, 35.5554778], [-97.6168484, 35.5553949], [-97.6169181, 35.5555171], [-97.6168403, 35.5555389], [-97.6168591, 35.555576], [-97.6167438, 35.5556284]]]}, "properties": {"osm_id": 790852891, "building": "house", "name": "5705", "height": null, "height_m": null, "levels": null, "tract_id": "40109108508", "tract_name": "1085.08", "tags": {"building": "house", "name": "5705"}}}, {"type": "Feature", "geometry": {"type": "Polygon", "coordinates": [[[-97.6169288, 35.5554997], [-97.6168725, 35.5553906], [-97.6170764, 35.5553251], [-97.6171461, 35.5554604], [-97.6170415, 35.5554975], [-97.6170147, 35.5554669], [-97.6169288, 35.5554997]]]}, "properties": {"osm_id": 790852892, "building": "house", "name": "5709", "height": null, "height_m": null, "levels": null, "tract_id": "40109108508", "tract_name": "1085.08", "tags": {"building": "house", "name": "5709"}}}, {"type": "Feature", "geometry": {"type": "Polygon", "coordinates": [[[-97.6171407, 35.5554124], [-97.6170764, 35.555312], [-97.6172641, 35.5552269], [-97.6173634, 35.5553927], [-97.6172614, 35.555432], [-97.6172212, 35.5553884], [-97.6171407, 35.5554124]]]}, "properties": {"osm_id": 790852893, "building": "house", "name": "5713", "height": null, "height_m": null, "levels": null, "tract_id": "40109108508", "tract_name": "1085.08", "tags": {"building": "house", "name": "5713"}}}, {"type": "Feature", "geometry": {"type": "Polygon", "coordinates": [[[-97.6175699, 35.5552989], [-97.6174814, 35.5551331], [-97.6172909, 35.5552182], [-97.6173553, 35.5553447], [-97.6174331, 35.5553076], [-97.6174572, 35.5553513], [-97.6175699, 35.5552989]]]}, "properties": {"osm_id": 790852894, "building": "house", "name": "5717", "height": null, "height_m": null, "levels": null, "tract_id": "40109108508", "tract_name": "1085.08", "tags": {"building": "house", "name": "5717"}}}, {"type": "Feature", "geometry": {"type": "Polygon", "coordinates": [[[-97.6175699, 35.5552989], [-97.6174867, 35.5551134], [-97.6176799, 35.5550676], [-97.6177576, 35.5551767], [-97.6177094, 35.5551985], [-97.6177389, 35.55524], [-97.6175699, 35.5552989]]]}, "properties": {"osm_id": 790852895, "building": "house", "name": "5721", "height": null, "height_m": null, "levels": null, "tract_id": "40109108508", "tract_name": "1085.08", "tags": {"building": "house", "name": "5721"}}}, {"type": "Feature", "geometry": {"type": "Polygon", "coordinates": [[[-97.6168725, 35.5559732], [-97.6167491, 35.5557703], [-97.616953, 35.5556961], [-97.6170683, 35.5559077], [-97.6168725, 35.5559732]]]}, "properties": {"osm_id": 790855011, "building": "house", "name": "5700", "height": null, "height_m": null, "levels": null, "tract_id": "40109108508", "tract_name": "1085.08", "tags": {"building": "house", "name": "5700"}}}, {"type": "Feature", "geometry": {"type": "Polygon", "coordinates": [[[-97.6170925, 35.5563747], [-97.6169932, 35.5562285], [-97.6171917, 35.5561521], [-97.6172614, 35.5562721], [-97.617189, 35.5563027], [-97.6172024, 35.5563332], [-97.6170925, 35.5563747]]]}, "properties": {"osm_id": 790855012, "building": "house", "name": "5701", "height": null, "height_m": null, "levels": null, "tract_id": "40109108508", "tract_name": "1085.08", "tags": {"building": "house", "name": "5701"}}}, {"type": "Feature", "geometry": {"type": "Polygon", "coordinates": [[[-97.6187393, 35.5556611], [-97.6188144, 35.5555324], [-97.6190102, 35.555624], [-97.6189378, 35.5557288], [-97.6188815, 35.5557048], [-97.6188734, 35.5557222], [-97.6187393, 35.5556611]]]}, "properties": {"osm_id": 790855013, "building": "house", "name": "5801", "height": null, "height_m": null, "levels": null, "tract_id": "40109108508", "tract_name": "1085.08", "tags": {"building": "house", "name": "5801"}}}, {"type": "Feature", "geometry": {"type": "Polygon", "coordinates": [[[-97.6200938, 35.5563289], [-97.6201019, 35.5561434], [-97.6203326, 35.5561565], [-97.6203218, 35.556283], [-97.6202414, 35.556283], [-97.6202387, 35.5563354], [-97.6200938, 35.5563289]]]}, "properties": {"osm_id": 790855014, "building": "house", "name": "5833", "height": null, "height_m": null, "levels": null, "tract_id": "40109108508", "tract_name": "1085.08", "tags": {"building": "house", "name": "5833"}}}, {"type": "Feature", "geometry": {"type": "Polygon", "coordinates": [[[-97.616607, 35.5565122], [-97.6165426, 35.5564271], [-97.6166284, 35.5563987], [-97.6165909, 35.5563703], [-97.6167357, 35.5563332], [-97.6168055, 35.556438], [-97.616607, 35.5565122]]]}, "properties": {"osm_id": 790856188, "building": "house", "name": "5617", "height": null, "height_m": null, "levels": null, "tract_id": "40109108508", "tract_name": "1085.08", "tags": {"building": "house", "name": "5617"}}}, {"type": "Feature", "geometry": {"type": "Polygon", "coordinates": [[[-97.6168376, 35.556438], [-97.6167625, 35.556318], [-97.6169637, 35.5562503], [-97.6170281, 35.5563681], [-97.6168376, 35.556438]]]}, "properties": {"osm_id": 790856189, "building": "house", "name": "5621", "height": null, "height_m": null, "levels": null, "tract_id": "40109108508", "tract_name": "1085.08", "tags": {"building": "house", "name": "5621"}}}, {"type": "Feature", "geometry": {"type": "Polygon", "coordinates": [[[-97.6163307, 35.5566824], [-97.6163736, 35.5567631], [-97.6165024, 35.5567151], [-97.6165453, 35.5565907], [-97.6164621, 35.5564489], [-97.6163817, 35.5564707], [-97.6164165, 35.5565449], [-97.6163817, 35.5566584], [-97.6163307, 35.5566824]]]}, "properties": {"osm_id": 790856190, "building": "house", "name": "5613", "height": null, "height_m": null, "levels": null, "tract_id": "40109108508", "tract_name": "1085.08", "tags": {"building": "house", "name": "5613"}}}, {"type": "Feature", "geometry": {"type": "Polygon", "coordinates": [[[-97.6161725, 35.5568744], [-97.6160303, 35.5566584], [-97.6159069, 35.556726], [-97.6159686, 35.5568264], [-97.6159069, 35.5568526], [-97.6159713, 35.5569464], [-97.6161725, 35.5568744]]]}, "properties": {"osm_id": 790856191, "building": "house", "name": "8400", "height": null, "height_m": null, "levels": null, "tract_id": "40109108508", "tract_name": "1085.08", "tags": {"building": "house", "name": "8400"}}}, {"type": "Feature", "geometry": {"type": "Polygon", "coordinates": [[[-97.6155636, 35.5570162], [-97.6155636, 35.556846], [-97.6158264, 35.5567173], [-97.6158828, 35.5568177], [-97.6157755, 35.5568788], [-97.6158211, 35.5569115], [-97.6157299, 35.556966], [-97.6156923, 35.556942], [-97.6156494, 35.5569529], [-97.6156602, 35.5570162], [-97.6155636, 35.5570162]]]}, "properties": {"osm_id": 790856192, "building": "house", "name": "8401", "height": null, "height_m": null, "levels": null, "tract_id": "40109108508", "tract_name": "1085.08", "tags": {"building": "house", "name": "8401"}}}, {"type": "Feature", "geometry": {"type": "Polygon", "coordinates": [[[-97.6152605, 35.5568504], [-97.6152578, 35.5567391], [-97.6153141, 35.5566736], [-97.6150915, 35.5565449], [-97.6150057, 35.5566125], [-97.615003, 35.5567544], [-97.6150674, 35.556774], [-97.6150754, 35.5568395], [-97.6152605, 35.5568504]]]}, "properties": {"osm_id": 790856193, "building": "house", "name": "5600", "height": null, "height_m": null, "levels": null, "tract_id": "40109108508", "tract_name": "1085.08", "tags": {"building": "house", "name": "5600"}}}, {"type": "Feature", "geometry": {"type": "Polygon", "coordinates": [[[-97.6166472, 35.556091], [-97.6165426, 35.555923], [-97.6163173, 35.5560299], [-97.6164192, 35.5561718], [-97.6166472, 35.556091]]]}, "properties": {"osm_id": 790856194, "building": "house", "name": "5624", "height": null, "height_m": null, "levels": null, "tract_id": "40109108508", "tract_name": "1085.08", "tags": {"building": "house", "name": "5624"}}}, {"type": "Feature", "geometry": {"type": "Polygon", "coordinates": [[[-97.6162073, 35.5562612], [-97.6161, 35.556091], [-97.6162932, 35.5560343], [-97.6163951, 35.5561739], [-97.6162073, 35.5562612]]]}, "properties": {"osm_id": 790856195, "building": "house", "name": "5620", "height": null, "height_m": null, "levels": null, "tract_id": "40109108508", "tract_name": "1085.08", "tags": {"building": "house", "name": "5620"}}}, {"type": "Feature", "geometry": {"type": "Polygon", "coordinates": [[[-97.6159713, 35.5563507], [-97.615864, 35.5561827], [-97.6160705, 35.5561041], [-97.6161698, 35.55627], [-97.6159713, 35.5563507]]]}, "properties": {"osm_id": 790856196, "building": "house", "name": "5616", "height": null, "height_m": null, "levels": null, "tract_id": "40109108508", "tract_name": "1085.08", "tags": {"building": "house", "name": "5616"}}}, {"type": "Feature", "geometry": {"type": "Polygon", "coordinates": [[[-97.6157648, 35.5564467], [-97.6156628, 35.5562874], [-97.615864, 35.5562176], [-97.6159579, 35.5563681], [-97.6157648, 35.5564467]]]}, "properties": {"osm_id": 790856197, "building": "house", "name": "5612", "height": null, "height_m": null, "levels": null, "tract_id": "40109108508", "tract_name": "1085.08", "tags": {"building": "house", "name": "5612"}}}, {"type": "Feature", "geometry": {"type": "Polygon", "coordinates": [[[-97.6155287, 35.5565667], [-97.6154322, 35.5563965], [-97.6156655, 35.5563245], [-97.6157299, 35.5564402], [-97.6156467, 35.5564685], [-97.6156762, 35.5565078], [-97.6155287, 35.5565667]]]}, "properties": {"osm_id": 790856198, "building": "house", "name": "5608", "height": null, "height_m": null, "levels": null, "tract_id": "40109108508", "tract_name": "1085.08", "tags": {"building": "house", "name": "5608"}}}, {"type": "Feature", "geometry": {"type": "Polygon", "coordinates": [[[-97.6153302, 35.556654], [-97.6151908, 35.55651], [-97.6153946, 35.5564052], [-97.6155073, 35.5565711], [-97.6153302, 35.556654]]]}, "properties": {"osm_id": 790856199, "building": "house", "name": "5604", "height": null, "height_m": null, "levels": null, "tract_id": "40109108508", "tract_name": "1085.08", "tags": {"building": "house", "name": "5604"}}}, {"type": "Feature", "geometry": {"type": "Polygon", "coordinates": [[[-97.5770608, 35.5642945], [-97.5771992, 35.5641961], [-97.5771595, 35.5641592], [-97.577222, 35.5641147], [-97.577226, 35.5640613], [-97.5771804, 35.5640155], [-97.577112, 35.5640111], [-97.5770036, 35.5639033], [-97.5768144, 35.5640291], [-97.5768384, 35.5640529], [-97.5767916, 35.564084], [-97.5768448, 35.5641369], [-97.5768039, 35.5641641], [-97.5768137, 35.5641738], [-97.5767483, 35.5642174], [-97.5767933, 35.5642622], [-97.5768411, 35.5642304], [-97.5768371, 35.5642587], [-97.5768773, 35.5642969], [-97.5769511, 35.5643013], [-97.5770034, 35.5642729], [-97.5769873, 35.564226], [-97.5770608, 35.5642945]]]}, "properties": {"osm_id": 830651123, "building": "yes", "name": "Mama Roja M\u00e9xican Kitchen", "height": null, "height_m": null, "levels": null, "tract_id": "40109108508", "tract_name": "1085.08", "tags": {"addr:city": "Oklahoma City", "addr:housenumber": "9219", "addr:state": "OK", "addr:street": "Lake Hefner Parkway", "amenity": "restaurant", "building": "yes", "name": "Mama Roja M\u00e9xican Kitchen"}}}, {"type": "Feature", "geometry": {"type": "Polygon", "coordinates": [[[-97.620361, 35.5625495], [-97.6200814, 35.5625524], [-97.6200778, 35.5627021], [-97.620361, 35.5627007], [-97.620361, 35.5625495]]]}, "properties": {"osm_id": 1227222777, "building": "yes", "name": "", "height": null, "height_m": null, "levels": null, "tract_id": "40109108508", "tract_name": "1085.08", "tags": {"amenity": "veterinary", "building": "yes"}}}, {"type": "Feature", "geometry": {"type": "Polygon", "coordinates": [[[-97.6200104, 35.5628695], [-97.6200067, 35.5631382], [-97.6195258, 35.5631334], [-97.6195211, 35.5639068], [-97.6197498, 35.5639062], [-97.619735, 35.5633142], [-97.620247, 35.5633167], [-97.6202491, 35.5628651], [-97.6200104, 35.5628695]]]}, "properties": {"osm_id": 1227222778, "building": "retail", "name": "", "height": null, "height_m": null, "levels": null, "tract_id": "40109108508", "tract_name": "1085.08", "tags": {"building": "retail"}}}, {"type": "Feature", "geometry": {"type": "Polygon", "coordinates": [[[-97.6202334, 35.5638647], [-97.6202395, 35.5637368], [-97.6204537, 35.5637343], [-97.6204521, 35.5638684], [-97.6202334, 35.5638647]]]}, "properties": {"osm_id": 1227222779, "building": "yes", "name": "Sunnyside Diner", "height": null, "height_m": null, "levels": null, "tract_id": "40109108508", "tract_name": "1085.08", "tags": {"amenity": "restaurant", "building": "yes", "name": "Sunnyside Diner"}}}, {"type": "Feature", "geometry": {"type": "Polygon", "coordinates": [[[-97.6177163, 35.5513549], [-97.6177493, 35.5513545], [-97.6177479, 35.5512798], [-97.617563, 35.5512821], [-97.6175646, 35.5513685], [-97.6175487, 35.5513687], [-97.61755, 35.5514386], [-97.6177178, 35.5514365], [-97.6177163, 35.5513549]]]}, "properties": {"osm_id": 1236284446, "building": "house", "name": "", "height": null, "height_m": null, "levels": null, "tract_id": "40109108508", "tract_name": "1085.08", "tags": {"building": "house"}}}, {"type": "Feature", "geometry": {"type": "Polygon", "coordinates": [[[-97.6172298, 35.5513783], [-97.6169113, 35.5513816], [-97.6169098, 35.5512815], [-97.6172282, 35.5512782], [-97.6172298, 35.5513783]]]}, "properties": {"osm_id": 1236284447, "building": "house", "name": "", "height": null, "height_m": null, "levels": null, "tract_id": "40109108508", "tract_name": "1085.08", "tags": {"building": "house"}}}, {"type": "Feature", "geometry": {"type": "Polygon", "coordinates": [[[-97.6168194, 35.5513799], [-97.616819, 35.5512969], [-97.6166515, 35.5512974], [-97.6166514, 35.5512843], [-97.6165721, 35.5512845], [-97.6165726, 35.5513806], [-97.6168194, 35.5513799]]]}, "properties": {"osm_id": 1236284448, "building": "house", "name": "", "height": null, "height_m": null, "levels": null, "tract_id": "40109108508", "tract_name": "1085.08", "tags": {"building": "house"}}}, {"type": "Feature", "geometry": {"type": "Polygon", "coordinates": [[[-97.6160378, 35.5514355], [-97.6162283, 35.5514333], [-97.6162268, 35.5513456], [-97.6161397, 35.5513466], [-97.6161385, 35.5512806], [-97.6160351, 35.5512818], [-97.6160378, 35.5514355]]]}, "properties": {"osm_id": 1236284449, "building": "house", "name": "", "height": null, "height_m": null, "levels": null, "tract_id": "40109108508", "tract_name": "1085.08", "tags": {"building": "house"}}}, {"type": "Feature", "geometry": {"type": "Polygon", "coordinates": [[[-97.6158079, 35.5514892], [-97.6158076, 35.5514676], [-97.6158609, 35.5514671], [-97.6158606, 35.55144], [-97.6159107, 35.5514396], [-97.6159092, 35.5513168], [-97.6158207, 35.5513175], [-97.6158209, 35.5513328], [-97.6156892, 35.5513339], [-97.6156912, 35.5514902], [-97.6158079, 35.5514892]]]}, "properties": {"osm_id": 1236284450, "building": "house", "name": "", "height": null, "height_m": null, "levels": null, "tract_id": "40109108508", "tract_name": "1085.08", "tags": {"building": "house"}}}, {"type": "Feature", "geometry": {"type": "Polygon", "coordinates": [[[-97.6153518, 35.5514773], [-97.6153521, 35.5514468], [-97.6154186, 35.5514473], [-97.6154201, 35.5513127], [-97.615324, 35.551312], [-97.6153237, 35.5513395], [-97.6151827, 35.5513385], [-97.6151816, 35.5514418], [-97.6152964, 35.5514426], [-97.6152961, 35.5514769], [-97.6153518, 35.5514773]]]}, "properties": {"osm_id": 1236284451, "building": "house", "name": "", "height": null, "height_m": null, "levels": null, "tract_id": "40109108508", "tract_name": "1085.08", "tags": {"building": "house"}}}, {"type": "Feature", "geometry": {"type": "Polygon", "coordinates": [[[-97.6156279, 35.5515004], [-97.6156253, 35.551457], [-97.6156592, 35.5514557], [-97.6156513, 35.5513185], [-97.6155106, 35.5513239], [-97.6155139, 35.5513808], [-97.6154332, 35.5513839], [-97.6154404, 35.5515077], [-97.6156279, 35.5515004]]]}, "properties": {"osm_id": 1236284452, "building": "house", "name": "", "height": null, "height_m": null, "levels": null, "tract_id": "40109108508", "tract_name": "1085.08", "tags": {"building": "house"}}}, {"type": "Feature", "geometry": {"type": "Polygon", "coordinates": [[[-97.6151573, 35.5514238], [-97.614937, 35.5514227], [-97.6149375, 35.5513451], [-97.6149881, 35.5513453], [-97.6149882, 35.551326], [-97.6150657, 35.5513263], [-97.6150658, 35.5513131], [-97.6151581, 35.5513135], [-97.6151573, 35.5514238]]]}, "properties": {"osm_id": 1236284453, "building": "house", "name": "", "height": null, "height_m": null, "levels": null, "tract_id": "40109108508", "tract_name": "1085.08", "tags": {"building": "house"}}}, {"type": "Feature", "geometry": {"type": "Polygon", "coordinates": [[[-97.6148235, 35.5514522], [-97.6147581, 35.5514528], [-97.6147579, 35.551435], [-97.6146014, 35.5514364], [-97.6146007, 35.5513821], [-97.6146358, 35.5513818], [-97.6146352, 35.5513368], [-97.6146022, 35.5513371], [-97.6146015, 35.5512862], [-97.6147214, 35.5512851], [-97.614722, 35.5513242], [-97.6148217, 35.5513232], [-97.6148235, 35.5514522]]]}, "properties": {"osm_id": 1236284454, "building": "house", "name": "", "height": null, "height_m": null, "levels": null, "tract_id": "40109108508", "tract_name": "1085.08", "tags": {"building": "house"}}}, {"type": "Feature", "geometry": {"type": "Polygon", "coordinates": [[[-97.6145941, 35.5516523], [-97.614747, 35.5516491], [-97.6147446, 35.5515717], [-97.6148003, 35.5515706], [-97.6147974, 35.5514732], [-97.6146256, 35.5514767], [-97.614629, 35.5515874], [-97.6145921, 35.5515881], [-97.6145941, 35.5516523]]]}, "properties": {"osm_id": 1236284455, "building": "house", "name": "", "height": null, "height_m": null, "levels": null, "tract_id": "40109108508", "tract_name": "1085.08", "tags": {"building": "house"}}}, {"type": "Feature", "geometry": {"type": "Polygon", "coordinates": [[[-97.6145908, 35.5518696], [-97.6147449, 35.5518708], [-97.6147452, 35.5518464], [-97.6147846, 35.5518467], [-97.6147854, 35.5517846], [-97.6147453, 35.5517843], [-97.6147465, 35.5516815], [-97.6146248, 35.5516806], [-97.6146234, 35.5517986], [-97.6145917, 35.5517984], [-97.6145908, 35.5518696]]]}, "properties": {"osm_id": 1236284456, "building": "house", "name": "", "height": null, "height_m": null, "levels": null, "tract_id": "40109108508", "tract_name": "1085.08", "tags": {"building": "house"}}}, {"type": "Feature", "geometry": {"type": "Polygon", "coordinates": [[[-97.6142672, 35.5514521], [-97.614265, 35.5512881], [-97.6141588, 35.5512891], [-97.614161, 35.551453], [-97.6142672, 35.5514521]]]}, "properties": {"osm_id": 1236284457, "building": "house", "name": "", "height": null, "height_m": null, "levels": null, "tract_id": "40109108508", "tract_name": "1085.08", "tags": {"building": "house"}}}, {"type": "Feature", "geometry": {"type": "Polygon", "coordinates": [[[-97.614266, 35.5516454], [-97.614064, 35.5516464], [-97.6140634, 35.5515635], [-97.6140856, 35.5515634], [-97.614085, 35.5514811], [-97.6142352, 35.5514804], [-97.6142359, 35.551577], [-97.6142655, 35.5515768], [-97.614266, 35.5516454]]]}, "properties": {"osm_id": 1236284458, "building": "house", "name": "", "height": null, "height_m": null, "levels": null, "tract_id": "40109108508", "tract_name": "1085.08", "tags": {"building": "house"}}}, {"type": "Feature", "geometry": {"type": "Polygon", "coordinates": [[[-97.6142752, 35.5518904], [-97.6141241, 35.5518897], [-97.6141245, 35.5518241], [-97.614079, 35.5518239], [-97.6140798, 35.5517041], [-97.6142305, 35.5517047], [-97.6142298, 35.5518176], [-97.6142757, 35.5518178], [-97.6142752, 35.5518904]]]}, "properties": {"osm_id": 1236284460, "building": "house", "name": "", "height": null, "height_m": null, "levels": null, "tract_id": "40109108508", "tract_name": "1085.08", "tags": {"building": "house"}}}, {"type": "Feature", "geometry": {"type": "Polygon", "coordinates": [[[-97.6142754, 35.5521047], [-97.614108, 35.5521038], [-97.6141096, 35.5519045], [-97.6142494, 35.5519052], [-97.6142483, 35.5520324], [-97.614276, 35.5520326], [-97.6142754, 35.5521047]]]}, "properties": {"osm_id": 1236284461, "building": "house", "name": "", "height": null, "height_m": null, "levels": null, "tract_id": "40109108508", "tract_name": "1085.08", "tags": {"building": "house"}}}, {"type": "Feature", "geometry": {"type": "Polygon", "coordinates": [[[-97.6140767, 35.5519372], [-97.6140092, 35.5519387], [-97.614008, 35.5519027], [-97.6140755, 35.5519012], [-97.6140767, 35.5519372]]]}, "properties": {"osm_id": 1236284462, "building": "shed", "name": "", "height": null, "height_m": null, "levels": null, "tract_id": "40109108508", "tract_name": "1085.08", "tags": {"building": "shed"}}}, {"type": "Feature", "geometry": {"type": "Polygon", "coordinates": [[[-97.6141307, 35.5523298], [-97.6142648, 35.5523299], [-97.6142648, 35.5522532], [-97.614201, 35.5522532], [-97.6142011, 35.5521271], [-97.6140886, 35.552127], [-97.6140884, 35.5522808], [-97.6141308, 35.5522808], [-97.6141307, 35.5523298]]]}, "properties": {"osm_id": 1236284463, "building": "house", "name": "", "height": null, "height_m": null, "levels": null, "tract_id": "40109108508", "tract_name": "1085.08", "tags": {"building": "house"}}}, {"type": "Feature", "geometry": {"type": "Polygon", "coordinates": [[[-97.6145915, 35.5520709], [-97.6147565, 35.5520693], [-97.614756, 35.5520345], [-97.6147972, 35.5520342], [-97.6147964, 35.5519772], [-97.614807, 35.5519771], [-97.614806, 35.5519019], [-97.6146349, 35.5519034], [-97.6146353, 35.5519345], [-97.6146247, 35.5519346], [-97.6146255, 35.5519967], [-97.6145905, 35.551997], [-97.6145915, 35.5520709]]]}, "properties": {"osm_id": 1236284464, "building": "house", "name": "", "height": null, "height_m": null, "levels": null, "tract_id": "40109108508", "tract_name": "1085.08", "tags": {"building": "house"}}}, {"type": "Feature", "geometry": {"type": "Polygon", "coordinates": [[[-97.6145944, 35.5522809], [-97.6147843, 35.5522844], [-97.614787, 35.5521871], [-97.614813, 35.5521876], [-97.6148154, 35.5521017], [-97.6146016, 35.5520977], [-97.6145998, 35.5521593], [-97.6146255, 35.5521598], [-97.614624, 35.5522142], [-97.6145963, 35.5522137], [-97.6145944, 35.5522809]]]}, "properties": {"osm_id": 1236284465, "building": "house", "name": "", "height": null, "height_m": null, "levels": null, "tract_id": "40109108508", "tract_name": "1085.08", "tags": {"building": "house"}}}, {"type": "Feature", "geometry": {"type": "Polygon", "coordinates": [[[-97.6151872, 35.5521052], [-97.6151129, 35.5519836], [-97.6150251, 35.5520192], [-97.6150352, 35.5520356], [-97.6149609, 35.5520657], [-97.6150256, 35.5521716], [-97.6150959, 35.5521431], [-97.6150859, 35.5521268], [-97.6151046, 35.5521192], [-97.6151141, 35.5521348], [-97.6151872, 35.5521052]]]}, "properties": {"osm_id": 1236284466, "building": "house", "name": "", "height": null, "height_m": null, "levels": null, "tract_id": "40109108508", "tract_name": "1085.08", "tags": {"building": "house"}}}, {"type": "Feature", "geometry": {"type": "Polygon", "coordinates": [[[-97.6153861, 35.552018], [-97.6152666, 35.5520701], [-97.6152422, 35.552033], [-97.6151886, 35.5520563], [-97.615118, 35.551949], [-97.6151266, 35.5519452], [-97.615103, 35.5519094], [-97.6152163, 35.5518601], [-97.6152421, 35.5518993], [-97.6152519, 35.5518951], [-97.6152601, 35.5519076], [-97.6153016, 35.5518895], [-97.6153861, 35.552018]]]}, "properties": {"osm_id": 1236284467, "building": "house", "name": "", "height": null, "height_m": null, "levels": null, "tract_id": "40109108508", "tract_name": "1085.08", "tags": {"building": "house"}}}, {"type": "Feature", "geometry": {"type": "Polygon", "coordinates": [[[-97.614256, 35.5525458], [-97.6142572, 35.5523523], [-97.6140724, 35.5523516], [-97.614072, 35.5524256], [-97.6141294, 35.5524258], [-97.6141286, 35.5525453], [-97.614256, 35.5525458]]]}, "properties": {"osm_id": 1236284469, "building": "house", "name": "", "height": null, "height_m": null, "levels": null, "tract_id": "40109108508", "tract_name": "1085.08", "tags": {"building": "house"}}}, {"type": "Feature", "geometry": {"type": "Polygon", "coordinates": [[[-97.6142595, 35.5527499], [-97.6140716, 35.5527506], [-97.6140713, 35.5527], [-97.6140949, 35.5526999], [-97.6140943, 35.5525778], [-97.6142262, 35.5525773], [-97.6142268, 35.5526837], [-97.6142592, 35.5526836], [-97.6142595, 35.5527499]]]}, "properties": {"osm_id": 1236284470, "building": "house", "name": "", "height": null, "height_m": null, "levels": null, "tract_id": "40109108508", "tract_name": "1085.08", "tags": {"building": "house"}}}, {"type": "Feature", "geometry": {"type": "Polygon", "coordinates": [[[-97.6141181, 35.5529715], [-97.6141181, 35.5529791], [-97.6141825, 35.5529793], [-97.6141826, 35.5529717], [-97.6142572, 35.5529719], [-97.6142576, 35.5528863], [-97.6142175, 35.5528862], [-97.614218, 35.5527773], [-97.6140881, 35.5527769], [-97.6140879, 35.5528286], [-97.6140764, 35.5528286], [-97.6140762, 35.5528882], [-97.6140884, 35.5528882], [-97.6140883, 35.5529055], [-97.6140709, 35.5529054], [-97.6140707, 35.5529713], [-97.6141181, 35.5529715]]]}, "properties": {"osm_id": 1236284471, "building": "house", "name": "", "height": null, "height_m": null, "levels": null, "tract_id": "40109108508", "tract_name": "1085.08", "tags": {"building": "house"}}}, {"type": "Feature", "geometry": {"type": "Polygon", "coordinates": [[[-97.6153969, 35.5520202], [-97.615309, 35.5518837], [-97.615474, 35.5518134], [-97.615537, 35.5519112], [-97.6154556, 35.5519459], [-97.6154805, 35.5519846], [-97.6153969, 35.5520202]]]}, "properties": {"osm_id": 1236284472, "building": "house", "name": "", "height": null, "height_m": null, "levels": null, "tract_id": "40109108508", "tract_name": "1085.08", "tags": {"building": "house"}}}, {"type": "Feature", "geometry": {"type": "Polygon", "coordinates": [[[-97.6156763, 35.5519088], [-97.6156388, 35.5518499], [-97.6155537, 35.5518859], [-97.6154995, 35.5518008], [-97.6156591, 35.5517335], [-97.6157508, 35.5518774], [-97.6156763, 35.5519088]]]}, "properties": {"osm_id": 1236284473, "building": "house", "name": "", "height": null, "height_m": null, "levels": null, "tract_id": "40109108508", "tract_name": "1085.08", "tags": {"building": "house"}}}, {"type": "Feature", "geometry": {"type": "Polygon", "coordinates": [[[-97.6157763, 35.5518629], [-97.6156884, 35.5517264], [-97.6158534, 35.551656], [-97.6159164, 35.5517538], [-97.615835, 35.5517885], [-97.6158599, 35.5518272], [-97.6157763, 35.5518629]]]}, "properties": {"osm_id": 1236284474, "building": "house", "name": "", "height": null, "height_m": null, "levels": null, "tract_id": "40109108508", "tract_name": "1085.08", "tags": {"building": "house"}}}, {"type": "Feature", "geometry": {"type": "Polygon", "coordinates": [[[-97.616046, 35.5517481], [-97.6161205, 35.5517168], [-97.6160429, 35.5515943], [-97.6158845, 35.5516608], [-97.6159611, 35.5517816], [-97.6160299, 35.5517527], [-97.6160207, 35.5517383], [-97.6160358, 35.551732], [-97.616046, 35.5517481]]]}, "properties": {"osm_id": 1236284475, "building": "house", "name": "", "height": null, "height_m": null, "levels": null, "tract_id": "40109108508", "tract_name": "1085.08", "tags": {"building": "house"}}}, {"type": "Feature", "geometry": {"type": "Polygon", "coordinates": [[[-97.6161767, 35.5516342], [-97.6162319, 35.5516563], [-97.6162315, 35.5516479], [-97.6162391, 35.551648], [-97.616243, 35.551518], [-97.6161981, 35.5515171], [-97.6161999, 35.5514581], [-97.616011, 35.5514544], [-97.6160099, 35.5514923], [-97.6160237, 35.5514925], [-97.616023, 35.5515175], [-97.6160619, 35.5515182], [-97.616061, 35.5515513], [-97.6160723, 35.5515515], [-97.6160713, 35.5515889], [-97.6160965, 35.5515893], [-97.6160962, 35.5516004], [-97.6161431, 35.5516012], [-97.6161439, 35.5515665], [-97.6161546, 35.5515669], [-97.6161586, 35.5516], [-97.616172, 35.5515988], [-97.6161767, 35.5516342]]]}, "properties": {"osm_id": 1236284476, "building": "house", "name": "", "height": null, "height_m": null, "levels": null, "tract_id": "40109108508", "tract_name": "1085.08", "tags": {"building": "house"}}}, {"type": "Feature", "geometry": {"type": "Polygon", "coordinates": [[[-97.6176924, 35.5516298], [-97.6176923, 35.5515751], [-97.6177799, 35.5515749], [-97.6177796, 35.5514707], [-97.6175732, 35.5514712], [-97.6175733, 35.5515115], [-97.6175556, 35.5515116], [-97.6175558, 35.5515494], [-97.6175635, 35.5515494], [-97.6175635, 35.5515643], [-97.6175542, 35.5515643], [-97.6175543, 35.5515719], [-97.617542, 35.5515719], [-97.6175421, 35.55163], [-97.6176924, 35.5516298]]]}, "properties": {"osm_id": 1236284477, "building": "house", "name": "", "height": null, "height_m": null, "levels": null, "tract_id": "40109108508", "tract_name": "1085.08", "tags": {"building": "house"}}}]}