{"type": "FeatureCollection", "features": [{"type": "Feature", "geometry": {"type": "Polygon", "coordinates": [[[-95.5190543, 33.998806], [-95.5191333, 33.9987677], [-95.5190399, 33.9986353], [-95.5189609, 33.9986737], [-95.5190543, 33.998806]]]}, "properties": {"osm_id": 764323127, "building": "yes", "name": "", "height": null, "height_m": null, "levels": null, "tract_id": "40023967200", "tract_name": "9672", "tags": {"building": "yes"}}}, {"type": "Feature", "geometry": {"type": "Polygon", "coordinates": [[[-95.5188599, 33.9986681], [-95.5189472, 33.9986214], [-95.5188489, 33.9984952], [-95.5187616, 33.9985419], [-95.5188599, 33.9986681]]]}, "properties": {"osm_id": 764323128, "building": "yes", "name": "", "height": null, "height_m": null, "levels": null, "tract_id": "40023967200", "tract_name": "9672", "tags": {"building": "yes"}}}, {"type": "Feature", "geometry": {"type": "Polygon", "coordinates": [[[-95.5188205, 33.9984583], [-95.5188937, 33.9984203], [-95.5187737, 33.9982612], [-95.5187004, 33.9982993], [-95.5188205, 33.9984583]]]}, "properties": {"osm_id": 764323129, "building": "yes", "name": "", "height": null, "height_m": null, "levels": null, "tract_id": "40023967200", "tract_name": "9672", "tags": {"building": "yes"}}}, {"type": "Feature", "geometry": {"type": "Polygon", "coordinates": [[[-95.5187334, 33.9982234], [-95.5187978, 33.9981595], [-95.5185917, 33.9980166], [-95.5185272, 33.9980806], [-95.5187334, 33.9982234]]]}, "properties": {"osm_id": 764323130, "building": "yes", "name": "", "height": null, "height_m": null, "levels": null, "tract_id": "40023967200", "tract_name": "9672", "tags": {"building": "yes"}}}, {"type": "Feature", "geometry": {"type": "Polygon", "coordinates": [[[-95.5186858, 33.997377], [-95.5186858, 33.9972948], [-95.5184511, 33.9972948], [-95.5184511, 33.997377], [-95.5186858, 33.997377]]]}, "properties": {"osm_id": 764323131, "building": "yes", "name": "", "height": null, "height_m": null, "levels": null, "tract_id": "40023967200", "tract_name": "9672", "tags": {"building": "yes"}}}, {"type": "Feature", "geometry": {"type": "Polygon", "coordinates": [[[-95.5189992, 33.9974137], [-95.5189999, 33.9973281], [-95.5187732, 33.9973269], [-95.5187726, 33.9974125], [-95.5189992, 33.9974137]]]}, "properties": {"osm_id": 764323132, "building": "yes", "name": "", "height": null, "height_m": null, "levels": null, "tract_id": "40023967200", "tract_name": "9672", "tags": {"building": "yes"}}}, {"type": "Feature", "geometry": {"type": "Polygon", "coordinates": [[[-95.5191708, 33.9976918], [-95.5191723, 33.9974569], [-95.5190792, 33.9974565], [-95.5190777, 33.9976914], [-95.5191708, 33.9976918]]]}, "properties": {"osm_id": 764323133, "building": "yes", "name": "", "height": null, "height_m": null, "levels": null, "tract_id": "40023967200", "tract_name": "9672", "tags": {"building": "yes"}}}, {"type": "Feature", "geometry": {"type": "Polygon", "coordinates": [[[-95.5192165, 33.997983], [-95.5192158, 33.9977548], [-95.5191074, 33.9977551], [-95.5191082, 33.9979833], [-95.5192165, 33.997983]]]}, "properties": {"osm_id": 764323134, "building": "yes", "name": "", "height": null, "height_m": null, "levels": null, "tract_id": "40023967200", "tract_name": "9672", "tags": {"building": "yes"}}}, {"type": "Feature", "geometry": {"type": "Polygon", "coordinates": [[[-95.5188434, 33.9978398], [-95.5188441, 33.9976351], [-95.51875, 33.9976349], [-95.5187492, 33.9978396], [-95.5188434, 33.9978398]]]}, "properties": {"osm_id": 764323135, "building": "yes", "name": "", "height": null, "height_m": null, "levels": null, "tract_id": "40023967200", "tract_name": "9672", "tags": {"building": "yes"}}}, {"type": "Feature", "geometry": {"type": "Polygon", "coordinates": [[[-95.5186278, 33.9977719], [-95.5186285, 33.9975923], [-95.5185324, 33.9975921], [-95.5185317, 33.9977716], [-95.5186278, 33.9977719]]]}, "properties": {"osm_id": 764323136, "building": "yes", "name": "", "height": null, "height_m": null, "levels": null, "tract_id": "40023967200", "tract_name": "9672", "tags": {"building": "yes"}}}, {"type": "Feature", "geometry": {"type": "Polygon", "coordinates": [[[-95.5192724, 33.9982492], [-95.5192732, 33.9980126], [-95.519177, 33.9980124], [-95.5191763, 33.998249], [-95.5192724, 33.9982492]]]}, "properties": {"osm_id": 764323137, "building": "yes", "name": "", "height": null, "height_m": null, "levels": null, "tract_id": "40023967200", "tract_name": "9672", "tags": {"building": "yes"}}}, {"type": "Feature", "geometry": {"type": "Polygon", "coordinates": [[[-95.5194563, 33.998588], [-95.51954, 33.9985467], [-95.5194026, 33.9983553], [-95.519319, 33.9983965], [-95.5194563, 33.998588]]]}, "properties": {"osm_id": 764323138, "building": "yes", "name": "", "height": null, "height_m": null, "levels": null, "tract_id": "40023967200", "tract_name": "9672", "tags": {"building": "yes"}}}, {"type": "Feature", "geometry": {"type": "Polygon", "coordinates": [[[-95.5196438, 33.9982004], [-95.5195907, 33.9981271], [-95.5193554, 33.9982442], [-95.5194084, 33.9983175], [-95.5196438, 33.9982004]]]}, "properties": {"osm_id": 764323139, "building": "yes", "name": "", "height": null, "height_m": null, "levels": null, "tract_id": "40023967200", "tract_name": "9672", "tags": {"building": "yes"}}}, {"type": "Feature", "geometry": {"type": "Polygon", "coordinates": [[[-95.5198157, 33.9983809], [-95.5198962, 33.9983415], [-95.5197514, 33.9981381], [-95.519671, 33.9981775], [-95.5198157, 33.9983809]]]}, "properties": {"osm_id": 764323140, "building": "yes", "name": "", "height": null, "height_m": null, "levels": null, "tract_id": "40023967200", "tract_name": "9672", "tags": {"building": "yes"}}}, {"type": "Feature", "geometry": {"type": "Polygon", "coordinates": [[[-95.5200054, 33.9983275], [-95.5202483, 33.9982074], [-95.5201962, 33.9981348], [-95.5199532, 33.9982549], [-95.5200054, 33.9983275]]]}, "properties": {"osm_id": 764323141, "building": "yes", "name": "", "height": null, "height_m": null, "levels": null, "tract_id": "40023967200", "tract_name": "9672", "tags": {"building": "yes"}}}, {"type": "Feature", "geometry": {"type": "Polygon", "coordinates": [[[-95.5204215, 33.9984897], [-95.5205071, 33.9984468], [-95.5203645, 33.998251], [-95.5202789, 33.9982938], [-95.5204215, 33.9984897]]]}, "properties": {"osm_id": 764323142, "building": "yes", "name": "", "height": null, "height_m": null, "levels": null, "tract_id": "40023967200", "tract_name": "9672", "tags": {"building": "yes"}}}, {"type": "Feature", "geometry": {"type": "Polygon", "coordinates": [[[-95.5205098, 33.9986387], [-95.5204598, 33.9985673], [-95.5202182, 33.9986835], [-95.5202682, 33.998755], [-95.5205098, 33.9986387]]]}, "properties": {"osm_id": 764323143, "building": "yes", "name": "", "height": null, "height_m": null, "levels": null, "tract_id": "40023967200", "tract_name": "9672", "tags": {"building": "yes"}}}, {"type": "Feature", "geometry": {"type": "Polygon", "coordinates": [[[-95.5201896, 33.9990549], [-95.5201896, 33.9988334], [-95.5200904, 33.9988334], [-95.5200904, 33.9990549], [-95.5201896, 33.9990549]]]}, "properties": {"osm_id": 764323144, "building": "yes", "name": "", "height": null, "height_m": null, "levels": null, "tract_id": "40023967200", "tract_name": "9672", "tags": {"building": "yes"}}}, {"type": "Feature", "geometry": {"type": "Polygon", "coordinates": [[[-95.5201036, 33.9992571], [-95.5201025, 33.9991691], [-95.5198222, 33.9991715], [-95.5198233, 33.9992596], [-95.5201036, 33.9992571]]]}, "properties": {"osm_id": 764323145, "building": "yes", "name": "", "height": null, "height_m": null, "levels": null, "tract_id": "40023967200", "tract_name": "9672", "tags": {"building": "yes"}}}, {"type": "Feature", "geometry": {"type": "Polygon", "coordinates": [[[-95.5196592, 33.9991908], [-95.5196613, 33.9990063], [-95.5195592, 33.9990055], [-95.5195571, 33.99919], [-95.5196592, 33.9991908]]]}, "properties": {"osm_id": 764323146, "building": "yes", "name": "", "height": null, "height_m": null, "levels": null, "tract_id": "40023967200", "tract_name": "9672", "tags": {"building": "yes"}}}, {"type": "Feature", "geometry": {"type": "Polygon", "coordinates": [[[-95.5195658, 33.9989724], [-95.5195655, 33.9988911], [-95.5193328, 33.9988916], [-95.5193331, 33.998973], [-95.5195658, 33.9989724]]]}, "properties": {"osm_id": 764323147, "building": "yes", "name": "", "height": null, "height_m": null, "levels": null, "tract_id": "40023967200", "tract_name": "9672", "tags": {"building": "yes"}}}, {"type": "Feature", "geometry": {"type": "Polygon", "coordinates": [[[-95.519567, 33.9992938], [-95.5195664, 33.9992074], [-95.5193286, 33.9992086], [-95.5193292, 33.999295], [-95.519567, 33.9992938]]]}, "properties": {"osm_id": 764323148, "building": "yes", "name": "", "height": null, "height_m": null, "levels": null, "tract_id": "40023967200", "tract_name": "9672", "tags": {"building": "yes"}}}, {"type": "Feature", "geometry": {"type": "Polygon", "coordinates": [[[-95.5197798, 33.9995323], [-95.5197777, 33.999341], [-95.5196815, 33.9993418], [-95.5196837, 33.999533], [-95.5197798, 33.9995323]]]}, "properties": {"osm_id": 764323149, "building": "yes", "name": "", "height": null, "height_m": null, "levels": null, "tract_id": "40023967200", "tract_name": "9672", "tags": {"building": "yes"}}}, {"type": "Feature", "geometry": {"type": "Polygon", "coordinates": [[[-95.519627, 33.999721], [-95.519627, 33.9995298], [-95.5195237, 33.9995298], [-95.5195237, 33.999721], [-95.519627, 33.999721]]]}, "properties": {"osm_id": 764323150, "building": "yes", "name": "", "height": null, "height_m": null, "levels": null, "tract_id": "40023967200", "tract_name": "9672", "tags": {"building": "yes"}}}, {"type": "Feature", "geometry": {"type": "Polygon", "coordinates": [[[-95.5194662, 34.0000494], [-95.5196222, 33.9998338], [-95.5195282, 33.9997871], [-95.5193722, 34.0000027], [-95.5194662, 34.0000494]]]}, "properties": {"osm_id": 764323151, "building": "yes", "name": "", "height": null, "height_m": null, "levels": null, "tract_id": "40023967200", "tract_name": "9672", "tags": {"building": "yes"}}}, {"type": "Feature", "geometry": {"type": "Polygon", "coordinates": [[[-95.519254, 34.0003222], [-95.5194051, 34.0001083], [-95.5193018, 34.0000582], [-95.5191508, 34.0002721], [-95.519254, 34.0003222]]]}, "properties": {"osm_id": 764323152, "building": "yes", "name": "", "height": null, "height_m": null, "levels": null, "tract_id": "40023967200", "tract_name": "9672", "tags": {"building": "yes"}}}, {"type": "Feature", "geometry": {"type": "Polygon", "coordinates": [[[-95.5192334, 34.0006213], [-95.5192252, 34.0003747], [-95.5191189, 34.0003771], [-95.5191271, 34.0006237], [-95.5192334, 34.0006213]]]}, "properties": {"osm_id": 764323153, "building": "yes", "name": "", "height": null, "height_m": null, "levels": null, "tract_id": "40023967200", "tract_name": "9672", "tags": {"building": "yes"}}}, {"type": "Feature", "geometry": {"type": "Polygon", "coordinates": [[[-95.5188732, 34.0006297], [-95.5188689, 34.0003864], [-95.5187475, 34.0003879], [-95.5187517, 34.0006312], [-95.5188732, 34.0006297]]]}, "properties": {"osm_id": 764323154, "building": "yes", "name": "", "height": null, "height_m": null, "levels": null, "tract_id": "40023967200", "tract_name": "9672", "tags": {"building": "yes"}}}, {"type": "Feature", "geometry": {"type": "Polygon", "coordinates": [[[-95.5186309, 34.0006604], [-95.5186264, 34.0004079], [-95.5185121, 34.0004093], [-95.5185165, 34.0006618], [-95.5186309, 34.0006604]]]}, "properties": {"osm_id": 764323155, "building": "yes", "name": "", "height": null, "height_m": null, "levels": null, "tract_id": "40023967200", "tract_name": "9672", "tags": {"building": "yes"}}}, {"type": "Feature", "geometry": {"type": "Polygon", "coordinates": [[[-95.5189359, 34.0003109], [-95.5189286, 34.0000668], [-95.5188102, 34.0000692], [-95.5188174, 34.0003133], [-95.5189359, 34.0003109]]]}, "properties": {"osm_id": 764323156, "building": "yes", "name": "", "height": null, "height_m": null, "levels": null, "tract_id": "40023967200", "tract_name": "9672", "tags": {"building": "yes"}}}, {"type": "Feature", "geometry": {"type": "Polygon", "coordinates": [[[-95.5185721, 34.0003131], [-95.5185626, 34.0000664], [-95.5184464, 34.0000695], [-95.5184558, 34.0003162], [-95.5185721, 34.0003131]]]}, "properties": {"osm_id": 764323157, "building": "yes", "name": "", "height": null, "height_m": null, "levels": null, "tract_id": "40023967200", "tract_name": "9672", "tags": {"building": "yes"}}}, {"type": "Feature", "geometry": {"type": "Polygon", "coordinates": [[[-95.5188483, 33.9999985], [-95.5188322, 33.9999068], [-95.5185399, 33.9999422], [-95.518556, 34.0000337], [-95.5188483, 33.9999985]]]}, "properties": {"osm_id": 764323158, "building": "yes", "name": "", "height": null, "height_m": null, "levels": null, "tract_id": "40023967200", "tract_name": "9672", "tags": {"building": "yes"}}}, {"type": "Feature", "geometry": {"type": "Polygon", "coordinates": [[[-95.5191058, 33.9990512], [-95.5191044, 33.998886], [-95.5190042, 33.9988866], [-95.5190056, 33.9990518], [-95.5191058, 33.9990512]]]}, "properties": {"osm_id": 764323159, "building": "yes", "name": "", "height": null, "height_m": null, "levels": null, "tract_id": "40023967200", "tract_name": "9672", "tags": {"building": "yes"}}}, {"type": "Feature", "geometry": {"type": "Polygon", "coordinates": [[[-95.5190182, 33.9992774], [-95.5190189, 33.9991214], [-95.5189106, 33.9991211], [-95.51891, 33.9992771], [-95.5190182, 33.9992774]]]}, "properties": {"osm_id": 764323160, "building": "yes", "name": "", "height": null, "height_m": null, "levels": null, "tract_id": "40023967200", "tract_name": "9672", "tags": {"building": "yes"}}}, {"type": "Feature", "geometry": {"type": "Polygon", "coordinates": [[[-95.5191137, 33.9995176], [-95.5191137, 33.9993448], [-95.5190105, 33.9993448], [-95.5190105, 33.9995176], [-95.5191137, 33.9995176]]]}, "properties": {"osm_id": 764323161, "building": "yes", "name": "", "height": null, "height_m": null, "levels": null, "tract_id": "40023967200", "tract_name": "9672", "tags": {"building": "yes"}}}, {"type": "Feature", "geometry": {"type": "Polygon", "coordinates": [[[-95.5189521, 33.9996219], [-95.5189524, 33.9995339], [-95.5187642, 33.9995333], [-95.5187639, 33.9996214], [-95.5189521, 33.9996219]]]}, "properties": {"osm_id": 764323162, "building": "yes", "name": "", "height": null, "height_m": null, "levels": null, "tract_id": "40023967200", "tract_name": "9672", "tags": {"building": "yes"}}}, {"type": "Feature", "geometry": {"type": "Polygon", "coordinates": [[[-95.5187074, 33.9997076], [-95.5187074, 33.9996246], [-95.5185141, 33.9996246], [-95.5185141, 33.9997077], [-95.5187074, 33.9997076]]]}, "properties": {"osm_id": 764323163, "building": "yes", "name": "", "height": null, "height_m": null, "levels": null, "tract_id": "40023967200", "tract_name": "9672", "tags": {"building": "yes"}}}, {"type": "Feature", "geometry": {"type": "Polygon", "coordinates": [[[-95.5185264, 33.9995425], [-95.5185251, 33.9993831], [-95.5184198, 33.9993837], [-95.5184212, 33.9995431], [-95.5185264, 33.9995425]]]}, "properties": {"osm_id": 764323164, "building": "yes", "name": "", "height": null, "height_m": null, "levels": null, "tract_id": "40023967200", "tract_name": "9672", "tags": {"building": "yes"}}}, {"type": "Feature", "geometry": {"type": "Polygon", "coordinates": [[[-95.5186168, 33.9993137], [-95.5186148, 33.999156], [-95.5185187, 33.9991569], [-95.5185207, 33.9993146], [-95.5186168, 33.9993137]]]}, "properties": {"osm_id": 764323165, "building": "yes", "name": "", "height": null, "height_m": null, "levels": null, "tract_id": "40023967200", "tract_name": "9672", "tags": {"building": "yes"}}}, {"type": "Feature", "geometry": {"type": "Polygon", "coordinates": [[[-95.5185291, 33.9990833], [-95.5185284, 33.9989256], [-95.5184303, 33.9989259], [-95.518431, 33.9990836], [-95.5185291, 33.9990833]]]}, "properties": {"osm_id": 764323166, "building": "yes", "name": "", "height": null, "height_m": null, "levels": null, "tract_id": "40023967200", "tract_name": "9672", "tags": {"building": "yes"}}}, {"type": "Feature", "geometry": {"type": "Polygon", "coordinates": [[[-95.518535, 33.9987946], [-95.5185357, 33.998636], [-95.5184385, 33.9986358], [-95.5184379, 33.9987943], [-95.518535, 33.9987946]]]}, "properties": {"osm_id": 764323167, "building": "yes", "name": "", "height": null, "height_m": null, "levels": null, "tract_id": "40023967200", "tract_name": "9672", "tags": {"building": "yes"}}}, {"type": "Feature", "geometry": {"type": "Polygon", "coordinates": [[[-95.5186099, 33.9985513], [-95.5186106, 33.9983961], [-95.5185195, 33.9983958], [-95.5185188, 33.998551], [-95.5186099, 33.9985513]]]}, "properties": {"osm_id": 764323168, "building": "yes", "name": "", "height": null, "height_m": null, "levels": null, "tract_id": "40023967200", "tract_name": "9672", "tags": {"building": "yes"}}}, {"type": "Feature", "geometry": {"type": "Polygon", "coordinates": [[[-95.5185115, 33.9983111], [-95.5185834, 33.9982483], [-95.5184528, 33.9981453], [-95.5183808, 33.9982081], [-95.5185115, 33.9983111]]]}, "properties": {"osm_id": 764323169, "building": "yes", "name": "", "height": null, "height_m": null, "levels": null, "tract_id": "40023967200", "tract_name": "9672", "tags": {"building": "yes"}}}, {"type": "Feature", "geometry": {"type": "Polygon", "coordinates": [[[-95.5227442, 33.9995263], [-95.5227898, 33.9993544], [-95.5227304, 33.9993436], [-95.5227486, 33.9992753], [-95.522616, 33.9992511], [-95.5225974, 33.999321], [-95.5225193, 33.9993067], [-95.5224741, 33.9994771], [-95.5227442, 33.9995263]]]}, "properties": {"osm_id": 764323170, "building": "yes", "name": "Factory Direct", "height": null, "height_m": null, "levels": null, "tract_id": "40023967200", "tract_name": "9672", "tags": {"addr:city": "Hugo", "addr:housenumber": "1300", "addr:postcode": "74743", "addr:state": "OK", "addr:street": "South F Street", "building": "yes", "name": "Factory Direct", "shop": "cannabis"}}}, {"type": "Feature", "geometry": {"type": "Polygon", "coordinates": [[[-95.5231981, 33.9988707], [-95.5233148, 33.9987006], [-95.5231638, 33.9986294], [-95.523047, 33.9987994], [-95.5231981, 33.9988707]]]}, "properties": {"osm_id": 764324747, "building": "yes", "name": "", "height": null, "height_m": null, "levels": null, "tract_id": "40023967200", "tract_name": "9672", "tags": {"building": "yes"}}}, {"type": "Feature", "geometry": {"type": "Polygon", "coordinates": [[[-95.518079, 34.0086511], [-95.5181308, 34.0083684], [-95.5178569, 34.0083339], [-95.5178051, 34.0086166], [-95.518079, 34.0086511]]]}, "properties": {"osm_id": 764324748, "building": "yes", "name": "Family Dollar", "height": null, "height_m": null, "levels": null, "tract_id": "40023967200", "tract_name": "9672", "tags": {"addr:city": "Hugo", "addr:housenumber": "530", "addr:postcode": "74743", "addr:state": "OK", "addr:street": "West Main Street", "brand": "Family Dollar", "brand:wikidata": "Q5433101", "building": "yes", "name": "Family Dollar", "shop": "variety_store"}}}, {"type": "Feature", "geometry": {"type": "Polygon", "coordinates": [[[-95.5193867, 34.0080228], [-95.519446, 34.0076905], [-95.5192681, 34.0076687], [-95.5192088, 34.0080009], [-95.5193867, 34.0080228]]]}, "properties": {"osm_id": 764324749, "building": "yes", "name": "Main Tire", "height": null, "height_m": null, "levels": null, "tract_id": "40023967200", "tract_name": "9672", "tags": {"addr:city": "Hugo", "addr:housenumber": "402", "addr:postcode": "74743", "addr:state": "OK", "addr:street": "South F Street", "building": "yes", "name": "Main Tire", "shop": "tyres"}}}, {"type": "Feature", "geometry": {"type": "Polygon", "coordinates": [[[-95.5183108, 34.0078138], [-95.5183447, 34.0076073], [-95.5179892, 34.0075672], [-95.5179601, 34.0077446], [-95.5180597, 34.0077559], [-95.5180549, 34.007785], [-95.5183108, 34.0078138]]]}, "properties": {"osm_id": 764324750, "building": "yes", "name": "Los Compadre's", "height": null, "height_m": null, "levels": null, "tract_id": "40023967200", "tract_name": "9672", "tags": {"addr:city": "Hugo", "addr:housenumber": "505", "addr:postcode": "74743", "addr:state": "OK", "addr:street": "West Main Street", "amenity": "restaurant", "building": "yes", "cuisine": "mexican", "name": "Los Compadre's"}}}, {"type": "Feature", "geometry": {"type": "Polygon", "coordinates": [[[-95.5172989, 34.0116461], [-95.5173244, 34.0114961], [-95.5172266, 34.0114847], [-95.5172011, 34.0116347], [-95.5172989, 34.0116461]]]}, "properties": {"osm_id": 764324751, "building": "roof", "name": "Shell", "height": null, "height_m": null, "levels": null, "tract_id": "40023967200", "tract_name": "9672", "tags": {"amenity": "fuel", "brand": "Shell", "brand:wikidata": "Q110716465", "building": "roof", "name": "Shell"}}}, {"type": "Feature", "geometry": {"type": "Polygon", "coordinates": [[[-95.5174242, 34.0118538], [-95.5174281, 34.0118315], [-95.5175146, 34.011842], [-95.5175371, 34.0117144], [-95.5173485, 34.0116916], [-95.5173222, 34.0118414], [-95.5174242, 34.0118538]]]}, "properties": {"osm_id": 764324752, "building": "yes", "name": "E-Z Mart", "height": null, "height_m": null, "levels": null, "tract_id": "40023967200", "tract_name": "9672", "tags": {"addr:city": "Hugo", "addr:housenumber": "502", "addr:postcode": "74743", "addr:state": "OK", "addr:street": "West Jackson Street", "building": "yes", "name": "E-Z Mart", "shop": "convenience"}}}, {"type": "Feature", "geometry": {"type": "Polygon", "coordinates": [[[-95.5178261, 34.0133362], [-95.5178369, 34.0132744], [-95.5176578, 34.0132529], [-95.5176628, 34.013224], [-95.5176862, 34.0132268], [-95.5177008, 34.0131419], [-95.5177394, 34.0131465], [-95.5177491, 34.0130896], [-95.5175303, 34.013064], [-95.5175435, 34.0129866], [-95.5173835, 34.0129679], [-95.517392, 34.0129177], [-95.5175373, 34.0129347], [-95.5175481, 34.0128708], [-95.5175648, 34.0128684], [-95.5175793, 34.0127887], [-95.5172507, 34.0127477], [-95.5172576, 34.0127099], [-95.517586, 34.0127509], [-95.5176139, 34.0125973], [-95.517259, 34.0125531], [-95.5172502, 34.0126015], [-95.5171224, 34.0125856], [-95.5171149, 34.0126269], [-95.5170415, 34.0126178], [-95.5169853, 34.012927], [-95.5169252, 34.0129195], [-95.5169137, 34.0129825], [-95.5168977, 34.0129805], [-95.5168776, 34.0130915], [-95.5168915, 34.0131238], [-95.5168794, 34.0131914], [-95.5169233, 34.0131968], [-95.5169183, 34.0132251], [-95.5170723, 34.0132439], [-95.5170751, 34.0132281], [-95.5174974, 34.0132796], [-95.5174944, 34.0132962], [-95.5178261, 34.0133362]]]}, "properties": {"osm_id": 764324754, "building": "yes", "name": "", "height": null, "height_m": null, "levels": null, "tract_id": "40023967200", "tract_name": "9672", "tags": {"building": "yes"}}}, {"type": "Feature", "geometry": {"type": "Polygon", "coordinates": [[[-95.5234489, 34.0109871], [-95.5233431, 34.0109727], [-95.5233592, 34.0108916], [-95.523465, 34.010906], [-95.5234489, 34.0109871]]]}, "properties": {"osm_id": 1081972921, "building": "yes", "name": "", "height": null, "height_m": null, "levels": null, "tract_id": "40023967200", "tract_name": "9672", "tags": {"building": "yes"}}}, {"type": "Feature", "geometry": {"type": "Polygon", "coordinates": [[[-95.5239122, 34.0110355], [-95.5239297, 34.0109377], [-95.5240177, 34.0109484], [-95.5240003, 34.0110463], [-95.5239122, 34.0110355]]]}, "properties": {"osm_id": 1081972922, "building": "yes", "name": "", "height": null, "height_m": null, "levels": null, "tract_id": "40023967200", "tract_name": "9672", "tags": {"building": "yes"}}}, {"type": "Feature", "geometry": {"type": "Polygon", "coordinates": [[[-95.5243984, 34.0119721], [-95.5242482, 34.0119737], [-95.5242456, 34.0118014], [-95.5243957, 34.0117998], [-95.5243984, 34.0119721]]]}, "properties": {"osm_id": 1081972923, "building": "yes", "name": "", "height": null, "height_m": null, "levels": null, "tract_id": "40023967200", "tract_name": "9672", "tags": {"building": "yes"}}}, {"type": "Feature", "geometry": {"type": "Polygon", "coordinates": [[[-95.5230157, 34.011354], [-95.5228541, 34.0113401], [-95.5228655, 34.0112492], [-95.5229787, 34.0112589], [-95.5229771, 34.0112717], [-95.5230255, 34.0112759], [-95.5230157, 34.011354]]]}, "properties": {"osm_id": 1081972924, "building": "yes", "name": "", "height": null, "height_m": null, "levels": null, "tract_id": "40023967200", "tract_name": "9672", "tags": {"building": "yes"}}}, {"type": "Feature", "geometry": {"type": "Polygon", "coordinates": [[[-95.522891, 34.0114346], [-95.5228045, 34.0114279], [-95.5228124, 34.0113573], [-95.5228989, 34.011364], [-95.522891, 34.0114346]]]}, "properties": {"osm_id": 1081972925, "building": "yes", "name": "", "height": null, "height_m": null, "levels": null, "tract_id": "40023967200", "tract_name": "9672", "tags": {"building": "yes"}}}, {"type": "Feature", "geometry": {"type": "Polygon", "coordinates": [[[-95.5229708, 34.011628], [-95.5229165, 34.011623], [-95.5229219, 34.0115828], [-95.5229762, 34.0115878], [-95.5229708, 34.011628]]]}, "properties": {"osm_id": 1081972926, "building": "yes", "name": "", "height": null, "height_m": null, "levels": null, "tract_id": "40023967200", "tract_name": "9672", "tags": {"building": "yes"}}}, {"type": "Feature", "geometry": {"type": "Polygon", "coordinates": [[[-95.5228762, 34.0117036], [-95.5227745, 34.0116907], [-95.5227933, 34.011589], [-95.522895, 34.0116019], [-95.5228762, 34.0117036]]]}, "properties": {"osm_id": 1081972927, "building": "yes", "name": "", "height": null, "height_m": null, "levels": null, "tract_id": "40023967200", "tract_name": "9672", "tags": {"building": "yes"}}}, {"type": "Feature", "geometry": {"type": "Polygon", "coordinates": [[[-95.5229198, 34.0119148], [-95.5228246, 34.0119002], [-95.5228588, 34.0117468], [-95.522954, 34.0117614], [-95.5229198, 34.0119148]]]}, "properties": {"osm_id": 1081972928, "building": "yes", "name": "", "height": null, "height_m": null, "levels": null, "tract_id": "40023967200", "tract_name": "9672", "tags": {"building": "yes"}}}, {"type": "Feature", "geometry": {"type": "Polygon", "coordinates": [[[-95.523237, 34.0124101], [-95.5230881, 34.0123912], [-95.5231069, 34.0122898], [-95.5232557, 34.0123087], [-95.523237, 34.0124101]]]}, "properties": {"osm_id": 1081972929, "building": "yes", "name": "", "height": null, "height_m": null, "levels": null, "tract_id": "40023967200", "tract_name": "9672", "tags": {"building": "yes"}}}, {"type": "Feature", "geometry": {"type": "Polygon", "coordinates": [[[-95.5237131, 34.0123789], [-95.5234422, 34.0123512], [-95.5234576, 34.0122478], [-95.5237285, 34.0122756], [-95.5237131, 34.0123789]]]}, "properties": {"osm_id": 1081972930, "building": "yes", "name": "", "height": null, "height_m": null, "levels": null, "tract_id": "40023967200", "tract_name": "9672", "tags": {"building": "yes"}}}, {"type": "Feature", "geometry": {"type": "Polygon", "coordinates": [[[-95.5239605, 34.0120132], [-95.5239072, 34.0120094], [-95.5239186, 34.0119004], [-95.5239719, 34.0119043], [-95.5239605, 34.0120132]]]}, "properties": {"osm_id": 1081972931, "building": "yes", "name": "", "height": null, "height_m": null, "levels": null, "tract_id": "40023967200", "tract_name": "9672", "tags": {"building": "yes"}}}, {"type": "Feature", "geometry": {"type": "Polygon", "coordinates": [[[-95.523294, 34.0118537], [-95.5232417, 34.0118459], [-95.523252, 34.0117984], [-95.5233043, 34.0118062], [-95.523294, 34.0118537]]]}, "properties": {"osm_id": 1081972932, "building": "yes", "name": "", "height": null, "height_m": null, "levels": null, "tract_id": "40023967200", "tract_name": "9672", "tags": {"building": "yes"}}}, {"type": "Feature", "geometry": {"type": "Polygon", "coordinates": [[[-95.5232028, 34.0118798], [-95.5233745, 34.0118976], [-95.5233673, 34.0119452], [-95.5231956, 34.0119274], [-95.5232028, 34.0118798]]]}, "properties": {"osm_id": 1081972933, "building": "yes", "name": "", "height": null, "height_m": null, "levels": null, "tract_id": "40023967200", "tract_name": "9672", "tags": {"building": "yes"}}}, {"type": "Feature", "geometry": {"type": "Polygon", "coordinates": [[[-95.523463, 34.0116536], [-95.523449, 34.0117197], [-95.5232505, 34.0116908], [-95.5232645, 34.0116247], [-95.523463, 34.0116536]]]}, "properties": {"osm_id": 1081972934, "building": "yes", "name": "", "height": null, "height_m": null, "levels": null, "tract_id": "40023967200", "tract_name": "9672", "tags": {"building": "yes"}}}, {"type": "Feature", "geometry": {"type": "Polygon", "coordinates": [[[-95.5235146, 34.0114974], [-95.5234616, 34.0114944], [-95.5234657, 34.011445], [-95.5235186, 34.0114479], [-95.5235146, 34.0114974]]]}, "properties": {"osm_id": 1081972935, "building": "yes", "name": "", "height": null, "height_m": null, "levels": null, "tract_id": "40023967200", "tract_name": "9672", "tags": {"building": "yes"}}}, {"type": "Feature", "geometry": {"type": "Polygon", "coordinates": [[[-95.5235622, 34.0113468], [-95.5233087, 34.0113179], [-95.5233238, 34.0112269], [-95.5233971, 34.0112353], [-95.5234001, 34.0112173], [-95.5234866, 34.0112272], [-95.5234836, 34.0112451], [-95.5235773, 34.0112558], [-95.5235622, 34.0113468]]]}, "properties": {"osm_id": 1081972936, "building": "yes", "name": "", "height": null, "height_m": null, "levels": null, "tract_id": "40023967200", "tract_name": "9672", "tags": {"building": "yes"}}}, {"type": "Feature", "geometry": {"type": "Polygon", "coordinates": [[[-95.5372141, 34.0160623], [-95.5372137, 34.0158637], [-95.5369875, 34.015864], [-95.536988, 34.0160927], [-95.5370785, 34.0160926], [-95.5370781, 34.0159589], [-95.5371036, 34.0159589], [-95.5371038, 34.0160624], [-95.5372141, 34.0160623]]]}, "properties": {"osm_id": 1090649932, "building": "church", "name": "", "height": null, "height_m": null, "levels": null, "tract_id": "40023967200", "tract_name": "9672", "tags": {"amenity": "place_of_worship", "building": "church", "religion": "christian"}}}, {"type": "Feature", "geometry": {"type": "Polygon", "coordinates": [[[-95.5399278, 34.0335327], [-95.539926, 34.0334144], [-95.5398328, 34.0334154], [-95.5398346, 34.0335337], [-95.5399278, 34.0335327]]]}, "properties": {"osm_id": 1090650812, "building": "hangar", "name": "", "height": null, "height_m": null, "levels": null, "tract_id": "40023967200", "tract_name": "9672", "tags": {"aeroway": "hangar", "building": "hangar"}}}, {"type": "Feature", "geometry": {"type": "Polygon", "coordinates": [[[-95.5399234, 34.0333566], [-95.5399216, 34.0332383], [-95.5398283, 34.0332393], [-95.5398301, 34.0333576], [-95.5399234, 34.0333566]]]}, "properties": {"osm_id": 1090650813, "building": "hangar", "name": "", "height": null, "height_m": null, "levels": null, "tract_id": "40023967200", "tract_name": "9672", "tags": {"aeroway": "hangar", "building": "hangar"}}}, {"type": "Feature", "geometry": {"type": "Polygon", "coordinates": [[[-95.5395991, 34.0333556], [-95.5395973, 34.0332373], [-95.5395041, 34.0332383], [-95.5395059, 34.0333566], [-95.5395991, 34.0333556]]]}, "properties": {"osm_id": 1090650814, "building": "hangar", "name": "", "height": null, "height_m": null, "levels": null, "tract_id": "40023967200", "tract_name": "9672", "tags": {"aeroway": "hangar", "building": "hangar"}}}, {"type": "Feature", "geometry": {"type": "Polygon", "coordinates": [[[-95.5396027, 34.0335369], [-95.5396009, 34.0334186], [-95.5395077, 34.0334196], [-95.5395095, 34.0335379], [-95.5396027, 34.0335369]]]}, "properties": {"osm_id": 1090650815, "building": "hangar", "name": "", "height": null, "height_m": null, "levels": null, "tract_id": "40023967200", "tract_name": "9672", "tags": {"aeroway": "hangar", "building": "hangar"}}}, {"type": "Feature", "geometry": {"type": "Polygon", "coordinates": [[[-95.5396003, 34.0331887], [-95.5395985, 34.0330704], [-95.5395053, 34.0330714], [-95.5395071, 34.0331897], [-95.5396003, 34.0331887]]]}, "properties": {"osm_id": 1090650816, "building": "hangar", "name": "", "height": null, "height_m": null, "levels": null, "tract_id": "40023967200", "tract_name": "9672", "tags": {"aeroway": "hangar", "building": "hangar"}}}, {"type": "Feature", "geometry": {"type": "Polygon", "coordinates": [[[-95.5396003, 34.0330134], [-95.5395985, 34.0328952], [-95.5395053, 34.0328961], [-95.5395071, 34.0330144], [-95.5396003, 34.0330134]]]}, "properties": {"osm_id": 1090650817, "building": "hangar", "name": "", "height": null, "height_m": null, "levels": null, "tract_id": "40023967200", "tract_name": "9672", "tags": {"aeroway": "hangar", "building": "hangar"}}}, {"type": "Feature", "geometry": {"type": "Polygon", "coordinates": [[[-95.5395953, 34.0328373], [-95.5395935, 34.032719], [-95.5395003, 34.03272], [-95.539502, 34.0328383], [-95.5395953, 34.0328373]]]}, "properties": {"osm_id": 1090650818, "building": "hangar", "name": "", "height": null, "height_m": null, "levels": null, "tract_id": "40023967200", "tract_name": "9672", "tags": {"aeroway": "hangar", "building": "hangar"}}}, {"type": "Feature", "geometry": {"type": "Polygon", "coordinates": [[[-95.5399251, 34.0328398], [-95.5399233, 34.0327215], [-95.5398301, 34.0327225], [-95.5398318, 34.0328408], [-95.5399251, 34.0328398]]]}, "properties": {"osm_id": 1090650819, "building": "hangar", "name": "", "height": null, "height_m": null, "levels": null, "tract_id": "40023967200", "tract_name": "9672", "tags": {"aeroway": "hangar", "building": "hangar"}}}, {"type": "Feature", "geometry": {"type": "Polygon", "coordinates": [[[-95.5399251, 34.0330109], [-95.5399233, 34.0328927], [-95.5398301, 34.0328936], [-95.5398318, 34.0330119], [-95.5399251, 34.0330109]]]}, "properties": {"osm_id": 1090650820, "building": "hangar", "name": "", "height": null, "height_m": null, "levels": null, "tract_id": "40023967200", "tract_name": "9672", "tags": {"aeroway": "hangar", "building": "hangar"}}}, {"type": "Feature", "geometry": {"type": "Polygon", "coordinates": [[[-95.5399231, 34.0331862], [-95.5399213, 34.033068], [-95.5398281, 34.0330689], [-95.5398298, 34.0331872], [-95.5399231, 34.0331862]]]}, "properties": {"osm_id": 1090650821, "building": "hangar", "name": "", "height": null, "height_m": null, "levels": null, "tract_id": "40023967200", "tract_name": "9672", "tags": {"aeroway": "hangar", "building": "hangar"}}}, {"type": "Feature", "geometry": {"type": "Polygon", "coordinates": [[[-95.5400011, 34.0335369], [-95.5399978, 34.0334134], [-95.540106, 34.0334114], [-95.5401093, 34.0335349], [-95.5400011, 34.0335369]]]}, "properties": {"osm_id": 1090650822, "building": "hangar", "name": "", "height": null, "height_m": null, "levels": null, "tract_id": "40023967200", "tract_name": "9672", "tags": {"aeroway": "hangar", "building": "hangar"}}}, {"type": "Feature", "geometry": {"type": "Polygon", "coordinates": [[[-95.5400095, 34.0333603], [-95.5400061, 34.0332367], [-95.5401144, 34.0332347], [-95.5401177, 34.0333583], [-95.5400095, 34.0333603]]]}, "properties": {"osm_id": 1090650823, "building": "hangar", "name": "", "height": null, "height_m": null, "levels": null, "tract_id": "40023967200", "tract_name": "9672", "tags": {"aeroway": "hangar", "building": "hangar"}}}, {"type": "Feature", "geometry": {"type": "Polygon", "coordinates": [[[-95.540005, 34.0331879], [-95.5400016, 34.0330644], [-95.5401099, 34.0330624], [-95.5401132, 34.0331859], [-95.540005, 34.0331879]]]}, "properties": {"osm_id": 1090650824, "building": "hangar", "name": "", "height": null, "height_m": null, "levels": null, "tract_id": "40023967200", "tract_name": "9672", "tags": {"aeroway": "hangar", "building": "hangar"}}}, {"type": "Feature", "geometry": {"type": "Polygon", "coordinates": [[[-95.5400004, 34.0330131], [-95.5399971, 34.0328895], [-95.5401053, 34.0328875], [-95.5401087, 34.033011], [-95.5400004, 34.0330131]]]}, "properties": {"osm_id": 1090650825, "building": "hangar", "name": "", "height": null, "height_m": null, "levels": null, "tract_id": "40023967200", "tract_name": "9672", "tags": {"aeroway": "hangar", "building": "hangar"}}}, {"type": "Feature", "geometry": {"type": "Polygon", "coordinates": [[[-95.5399999, 34.0328386], [-95.5399966, 34.0327151], [-95.5401048, 34.032713], [-95.5401082, 34.0328366], [-95.5399999, 34.0328386]]]}, "properties": {"osm_id": 1090650826, "building": "hangar", "name": "", "height": null, "height_m": null, "levels": null, "tract_id": "40023967200", "tract_name": "9672", "tags": {"aeroway": "hangar", "building": "hangar"}}}, {"type": "Feature", "geometry": {"type": "Polygon", "coordinates": [[[-95.5401073, 34.0326656], [-95.5401042, 34.0324093], [-95.5399486, 34.0324107], [-95.5399518, 34.0326669], [-95.5401073, 34.0326656]]]}, "properties": {"osm_id": 1090650827, "building": "yes", "name": "", "height": null, "height_m": null, "levels": null, "tract_id": "40023967200", "tract_name": "9672", "tags": {"building": "yes"}}}, {"type": "Feature", "geometry": {"type": "Polygon", "coordinates": [[[-95.5398019, 34.0324952], [-95.5398018, 34.0324456], [-95.5395527, 34.0324457], [-95.5395528, 34.0324954], [-95.5398019, 34.0324952]]]}, "properties": {"osm_id": 1090650828, "building": "yes", "name": "", "height": null, "height_m": null, "levels": null, "tract_id": "40023967200", "tract_name": "9672", "tags": {"building": "yes"}}}, {"type": "Feature", "geometry": {"type": "Polygon", "coordinates": [[[-95.5395705, 34.0325673], [-95.5395723, 34.0325177], [-95.5393233, 34.0325117], [-95.5393215, 34.0325613], [-95.5395705, 34.0325673]]]}, "properties": {"osm_id": 1090650829, "building": "yes", "name": "", "height": null, "height_m": null, "levels": null, "tract_id": "40023967200", "tract_name": "9672", "tags": {"building": "yes"}}}, {"type": "Feature", "geometry": {"type": "Polygon", "coordinates": [[[-95.531908, 34.0099104], [-95.5319107, 34.0098203], [-95.5317649, 34.0098172], [-95.5317689, 34.0096851], [-95.5316459, 34.0096825], [-95.5316391, 34.0099047], [-95.531908, 34.0099104]]]}, "properties": {"osm_id": 1090650922, "building": "church", "name": "Mount Calvary Baptist Church", "height": null, "height_m": null, "levels": null, "tract_id": "40023967200", "tract_name": "9672", "tags": {"amenity": "place_of_worship", "building": "church", "denomination": "baptist", "ele": "163", "gnis:feature_id": "1798374", "name": "Mount Calvary Baptist Church", "religion": "christian"}}}, {"type": "Feature", "geometry": {"type": "Polygon", "coordinates": [[[-95.5282312, 34.0072964], [-95.5282294, 34.007002], [-95.5281031, 34.0070025], [-95.5281048, 34.0072969], [-95.5282312, 34.0072964]]]}, "properties": {"osm_id": 1090650923, "building": "church", "name": "", "height": null, "height_m": null, "levels": null, "tract_id": "40023967200", "tract_name": "9672", "tags": {"building": "church"}}}, {"type": "Feature", "geometry": {"type": "Polygon", "coordinates": [[[-95.5288392, 34.0072712], [-95.5288284, 34.0071007], [-95.5293112, 34.0070796], [-95.529322, 34.00725], [-95.5288392, 34.0072712]]]}, "properties": {"osm_id": 1090650924, "building": "church", "name": "", "height": null, "height_m": null, "levels": null, "tract_id": "40023967200", "tract_name": "9672", "tags": {"building": "church"}}}, {"type": "Feature", "geometry": {"type": "Polygon", "coordinates": [[[-95.5172504, 34.0076221], [-95.5172837, 34.0074261], [-95.5168568, 34.0073762], [-95.5168235, 34.0075722], [-95.5172504, 34.0076221]]]}, "properties": {"osm_id": 1090651243, "building": "yes", "name": "Dollar General", "height": null, "height_m": null, "levels": null, "tract_id": "40023967200", "tract_name": "9672", "tags": {"addr:city": "Hugo", "addr:housenumber": "407", "addr:postcode": "74743", "addr:state": "OK", "addr:street": "West Main Street", "brand": "Dollar General", "brand:wikidata": "Q145168", "building": "yes", "name": "Dollar General", "shop": "variety_store", "website": "https://www.dollargeneral.com/store-directory/ok/hugo/22381"}}}, {"type": "Feature", "geometry": {"type": "Polygon", "coordinates": [[[-95.5209937, 34.0082163], [-95.5210451, 34.0078793], [-95.5208726, 34.0078612], [-95.5208412, 34.008067], [-95.5208864, 34.0080718], [-95.5208664, 34.008203], [-95.5209937, 34.0082163]]]}, "properties": {"osm_id": 1090651244, "building": "church", "name": "", "height": null, "height_m": null, "levels": null, "tract_id": "40023967200", "tract_name": "9672", "tags": {"amenity": "place_of_worship", "building": "church", "religion": "christian"}}}, {"type": "Feature", "geometry": {"type": "Polygon", "coordinates": [[[-95.5194936, 34.0070195], [-95.519499, 34.0069805], [-95.5195155, 34.0069821], [-95.5195306, 34.0068737], [-95.5192647, 34.0068483], [-95.5192497, 34.006956], [-95.5194408, 34.0069743], [-95.5194353, 34.0070139], [-95.5194936, 34.0070195]]]}, "properties": {"osm_id": 1090651503, "building": "church", "name": "", "height": null, "height_m": null, "levels": null, "tract_id": "40023967200", "tract_name": "9672", "tags": {"building": "church"}}}, {"type": "Feature", "geometry": {"type": "Polygon", "coordinates": [[[-95.5196229, 34.0068513], [-95.5196342, 34.006776], [-95.5195944, 34.0067719], [-95.5196076, 34.0066842], [-95.5195151, 34.0066746], [-95.5195018, 34.0067625], [-95.5194255, 34.0067546], [-95.5194375, 34.0066754], [-95.5193002, 34.0066611], [-95.5192876, 34.0067445], [-95.5192498, 34.0067406], [-95.5192391, 34.0068116], [-95.5196229, 34.0068513]]]}, "properties": {"osm_id": 1090651504, "building": "church", "name": "", "height": null, "height_m": null, "levels": null, "tract_id": "40023967200", "tract_name": "9672", "tags": {"building": "church"}}}, {"type": "Feature", "geometry": {"type": "Polygon", "coordinates": [[[-95.52296, 34.0036159], [-95.5229608, 34.003499], [-95.5226585, 34.0034976], [-95.5226577, 34.0036145], [-95.52296, 34.0036159]]]}, "properties": {"osm_id": 1090651684, "building": "church", "name": "Emmanuel Baptist Church", "height": null, "height_m": null, "levels": null, "tract_id": "40023967200", "tract_name": "9672", "tags": {"addr:city": "Hugo", "addr:housenumber": "811", "addr:postcode": "74743", "addr:state": "OK", "addr:street": "South I Street", "amenity": "place_of_worship", "building": "church", "denomination": "baptist", "name": "Emmanuel Baptist Church", "religion": "christian"}}}, {"type": "Feature", "geometry": {"type": "Polygon", "coordinates": [[[-95.5228302, 34.0034837], [-95.5228292, 34.0034076], [-95.5226931, 34.0034088], [-95.5226941, 34.0034849], [-95.5228302, 34.0034837]]]}, "properties": {"osm_id": 1090651685, "building": "church", "name": "", "height": null, "height_m": null, "levels": null, "tract_id": "40023967200", "tract_name": "9672", "tags": {"building": "church"}}}, {"type": "Feature", "geometry": {"type": "Polygon", "coordinates": [[[-95.5258461, 34.0052273], [-95.5258741, 34.0050176], [-95.5257681, 34.0050079], [-95.5257535, 34.0051175], [-95.5256166, 34.0051049], [-95.5256032, 34.0052051], [-95.5258461, 34.0052273]]]}, "properties": {"osm_id": 1090651686, "building": "church", "name": "", "height": null, "height_m": null, "levels": null, "tract_id": "40023967200", "tract_name": "9672", "tags": {"amenity": "place_of_worship", "building": "church", "religion": "christian"}}}, {"type": "Feature", "geometry": {"type": "Polygon", "coordinates": [[[-95.5202826, 34.0126334], [-95.5203214, 34.0124147], [-95.5203983, 34.0124241], [-95.5204219, 34.0122911], [-95.5200289, 34.0122431], [-95.520005, 34.0123778], [-95.5201281, 34.0123928], [-95.5200896, 34.0126099], [-95.5202826, 34.0126334]]]}, "properties": {"osm_id": 1090651866, "building": "church", "name": "Clayton Ave Baptist Church", "height": null, "height_m": null, "levels": null, "tract_id": "40023967200", "tract_name": "9672", "tags": {"addr:city": "Hugo", "addr:housenumber": "210", "addr:postcode": "74743", "addr:state": "OK", "addr:street": "North H Street", "amenity": "place_of_worship", "building": "church", "denomination": "baptist", "name": "Clayton Ave Baptist Church", "religion": "christian"}}}, {"type": "Feature", "geometry": {"type": "Polygon", "coordinates": [[[-95.5206635, 34.0112359], [-95.5207108, 34.0108866], [-95.52057, 34.0108735], [-95.5205226, 34.0112228], [-95.5206635, 34.0112359]]]}, "properties": {"osm_id": 1090651867, "building": "church", "name": "Hugo Church of the Nazarene", "height": null, "height_m": null, "levels": null, "tract_id": "40023967200", "tract_name": "9672", "tags": {"addr:city": "Hugo", "addr:housenumber": "100", "addr:postcode": "74743", "addr:state": "OK", "addr:street": "North H Street", "amenity": "place_of_worship", "building": "church", "denomination": "nazarene", "name": "Hugo Church of the Nazarene", "religion": "christian"}}}, {"type": "Feature", "geometry": {"type": "Polygon", "coordinates": [[[-95.5251097, 33.9861402], [-95.5251462, 33.9858221], [-95.524833, 33.9857974], [-95.5247966, 33.9861155], [-95.5251097, 33.9861402]]]}, "properties": {"osm_id": 1090654144, "building": "church", "name": "First Assembly of God", "height": null, "height_m": null, "levels": null, "tract_id": "40023967200", "tract_name": "9672", "tags": {"amenity": "place_of_worship", "building": "church", "denomination": "assemblies_of_god", "name": "First Assembly of God", "religion": "christian"}}}, {"type": "Feature", "geometry": {"type": "Polygon", "coordinates": [[[-95.5251478, 33.9858068], [-95.5251708, 33.9856204], [-95.5248989, 33.9855973], [-95.5248758, 33.9857837], [-95.5251478, 33.9858068]]]}, "properties": {"osm_id": 1090654145, "building": "church", "name": "", "height": null, "height_m": null, "levels": null, "tract_id": "40023967200", "tract_name": "9672", "tags": {"building": "church"}}}, {"type": "Feature", "geometry": {"type": "Polygon", "coordinates": [[[-95.5251235, 33.9863302], [-95.525088, 33.9866208], [-95.5255104, 33.9866562], [-95.5255459, 33.9863657], [-95.5251235, 33.9863302]]]}, "properties": {"osm_id": 1090654146, "building": "church", "name": "", "height": null, "height_m": null, "levels": null, "tract_id": "40023967200", "tract_name": "9672", "tags": {"building": "church"}}}, {"type": "Feature", "geometry": {"type": "Polygon", "coordinates": [[[-95.5190636, 34.0053617], [-95.5190888, 34.0051898], [-95.5187933, 34.00516], [-95.5187681, 34.0053319], [-95.5190636, 34.0053617]]]}, "properties": {"osm_id": 1111234769, "building": "yes", "name": "Ruffin's Transmision and Automotive", "height": null, "height_m": null, "levels": null, "tract_id": "40023967200", "tract_name": "9672", "tags": {"addr:city": "Hugo", "addr:housenumber": "609", "addr:postcode": "74743", "addr:state": "OK", "addr:street": "South F Street", "building": "yes", "name": "Ruffin's Transmision and Automotive", "shop": "car_repair"}}}, {"type": "Feature", "geometry": {"type": "Polygon", "coordinates": [[[-95.5210897, 33.9990288], [-95.5211926, 33.9987781], [-95.5210533, 33.9987388], [-95.5210981, 33.9986297], [-95.5209141, 33.9985778], [-95.5207665, 33.9989376], [-95.5210897, 33.9990288]]]}, "properties": {"osm_id": 1111234772, "building": "yes", "name": "Deep South Greenery", "height": null, "height_m": null, "levels": null, "tract_id": "40023967200", "tract_name": "9672", "tags": {"addr:city": "Hugo", "addr:housenumber": "1303", "addr:postcode": "74743", "addr:state": "OK", "addr:street": "South F Street", "building": "yes", "name": "Deep South Greenery", "shop": "cannabis"}}}, {"type": "Feature", "geometry": {"type": "Polygon", "coordinates": [[[-95.5208045, 34.0009832], [-95.5209188, 34.0007915], [-95.5206603, 34.0006855], [-95.5205459, 34.0008771], [-95.5208045, 34.0009832]]]}, "properties": {"osm_id": 1111234773, "building": "yes", "name": "", "height": null, "height_m": null, "levels": null, "tract_id": "40023967200", "tract_name": "9672", "tags": {"building": "yes"}}}, {"type": "Feature", "geometry": {"type": "Polygon", "coordinates": [[[-95.5193933, 34.0014095], [-95.5194737, 34.0010054], [-95.5193916, 34.0009942], [-95.5193111, 34.0013983], [-95.5193933, 34.0014095]]]}, "properties": {"osm_id": 1111234774, "building": "yes", "name": "", "height": null, "height_m": null, "levels": null, "tract_id": "40023967200", "tract_name": "9672", "tags": {"building": "yes"}}}, {"type": "Feature", "geometry": {"type": "Polygon", "coordinates": [[[-95.517837, 34.0016536], [-95.517837, 34.0015673], [-95.517552, 34.0015673], [-95.517552, 34.0016537], [-95.517837, 34.0016536]]]}, "properties": {"osm_id": 1111234775, "building": "yes", "name": "", "height": null, "height_m": null, "levels": null, "tract_id": "40023967200", "tract_name": "9672", "tags": {"building": "yes"}}}, {"type": "Feature", "geometry": {"type": "Polygon", "coordinates": [[[-95.5174315, 34.0015668], [-95.5174326, 34.001355], [-95.5172714, 34.0013543], [-95.5172702, 34.0015662], [-95.5174315, 34.0015668]]]}, "properties": {"osm_id": 1111234776, "building": "yes", "name": "", "height": null, "height_m": null, "levels": null, "tract_id": "40023967200", "tract_name": "9672", "tags": {"building": "yes"}}}, {"type": "Feature", "geometry": {"type": "Polygon", "coordinates": [[[-95.51656, 34.0013227], [-95.517009, 34.0013182], [-95.5170046, 34.0010093], [-95.5165571, 34.0010137], [-95.5165586, 34.0011182], [-95.5169647, 34.0011141], [-95.5169662, 34.0012209], [-95.5165586, 34.001225], [-95.51656, 34.0013227]]]}, "properties": {"osm_id": 1111234777, "building": "yes", "name": "Washington Community Center", "height": null, "height_m": null, "levels": null, "tract_id": "40023967200", "tract_name": "9672", "tags": {"addr:city": "Hugo", "addr:housenumber": "300", "addr:postcode": "74743", "addr:state": "OK", "addr:street": "West Bissell Street", "amenity": "community_centre", "building": "yes", "name": "Washington Community Center"}}}, {"type": "Feature", "geometry": {"type": "Polygon", "coordinates": [[[-95.5206366, 34.0015925], [-95.520667, 34.0014564], [-95.5201242, 34.0013731], [-95.5200955, 34.0015018], [-95.5203939, 34.0015476], [-95.5203851, 34.0015873], [-95.5205424, 34.0016114], [-95.5205496, 34.0015791], [-95.5206366, 34.0015925]]]}, "properties": {"osm_id": 1111234778, "building": "yes", "name": "Kwick Mart", "height": null, "height_m": null, "levels": null, "tract_id": "40023967200", "tract_name": "9672", "tags": {"addr:city": "Hugo", "addr:housenumber": "1101", "addr:postcode": "74743", "addr:state": "OK", "addr:street": "South F Street", "building": "yes", "name": "Kwick Mart", "shop": "convenience"}}}, {"type": "Feature", "geometry": {"type": "Polygon", "coordinates": [[[-95.5204598, 34.002876], [-95.5204718, 34.0027901], [-95.5203059, 34.0027742], [-95.5202939, 34.0028602], [-95.5204598, 34.002876]]]}, "properties": {"osm_id": 1111234779, "building": "yes", "name": "", "height": null, "height_m": null, "levels": null, "tract_id": "40023967200", "tract_name": "9672", "tags": {"building": "yes"}}}, {"type": "Feature", "geometry": {"type": "Polygon", "coordinates": [[[-95.5202373, 34.0029206], [-95.5202526, 34.002807], [-95.5201044, 34.0027933], [-95.5200891, 34.0029068], [-95.5202373, 34.0029206]]]}, "properties": {"osm_id": 1111234780, "building": "yes", "name": "", "height": null, "height_m": null, "levels": null, "tract_id": "40023967200", "tract_name": "9672", "tags": {"building": "yes"}}}, {"type": "Feature", "geometry": {"type": "Polygon", "coordinates": [[[-95.5334481, 34.0169155], [-95.5334655, 34.0168013], [-95.5333548, 34.0167897], [-95.5333497, 34.016823], [-95.5333146, 34.0168193], [-95.5333194, 34.0167879], [-95.5332321, 34.0167788], [-95.5332161, 34.0168836], [-95.5331163, 34.0168731], [-95.5330996, 34.0169823], [-95.5333241, 34.0170059], [-95.5333396, 34.0169042], [-95.5334481, 34.0169155]]]}, "properties": {"osm_id": 1111618647, "building": "yes", "name": "Choctaw Veterinary Clinic", "height": null, "height_m": null, "levels": null, "tract_id": "40023967200", "tract_name": "9672", "tags": {"addr:city": "Hugo", "addr:housenumber": "1808", "addr:postcode": "74743", "addr:state": "OK", "addr:street": "Old Highway 70", "amenity": "veterinary", "building": "yes", "name": "Choctaw Veterinary Clinic"}}}, {"type": "Feature", "geometry": {"type": "Polygon", "coordinates": [[[-95.5337902, 34.0175295], [-95.5338299, 34.0173384], [-95.5336884, 34.0173182], [-95.5336488, 34.0175093], [-95.5337902, 34.0175295]]]}, "properties": {"osm_id": 1111618649, "building": "yes", "name": "", "height": null, "height_m": null, "levels": null, "tract_id": "40023967200", "tract_name": "9672", "tags": {"building": "yes"}}}, {"type": "Feature", "geometry": {"type": "Polygon", "coordinates": [[[-95.5339329, 34.0172785], [-95.5339866, 34.0171213], [-95.5339294, 34.0171079], [-95.5338757, 34.0172651], [-95.5339329, 34.0172785]]]}, "properties": {"osm_id": 1111618650, "building": "yes", "name": "", "height": null, "height_m": null, "levels": null, "tract_id": "40023967200", "tract_name": "9672", "tags": {"building": "yes"}}}, {"type": "Feature", "geometry": {"type": "Polygon", "coordinates": [[[-95.534254, 34.0185623], [-95.5342687, 34.0184706], [-95.5340655, 34.0184483], [-95.5341455, 34.0179478], [-95.5341711, 34.0179506], [-95.5342132, 34.0176875], [-95.5340373, 34.0176682], [-95.5340198, 34.0177777], [-95.5340023, 34.0177758], [-95.5339856, 34.01788], [-95.533732, 34.0178522], [-95.5337161, 34.0179518], [-95.5339778, 34.0179804], [-95.5339453, 34.0181845], [-95.5337092, 34.0181587], [-95.5337006, 34.0182125], [-95.5339374, 34.0182384], [-95.5339222, 34.0183338], [-95.5336816, 34.0183075], [-95.533674, 34.0183552], [-95.5339008, 34.0183799], [-95.5338969, 34.0184045], [-95.5336631, 34.018379], [-95.533648, 34.0184743], [-95.5338738, 34.018499], [-95.5338704, 34.0185202], [-95.534254, 34.0185623]]]}, "properties": {"osm_id": 1111618651, "building": "yes", "name": "", "height": null, "height_m": null, "levels": null, "tract_id": "40023967200", "tract_name": "9672", "tags": {"building": "yes"}}}, {"type": "Feature", "geometry": {"type": "Polygon", "coordinates": [[[-95.5344212, 34.0194393], [-95.5344393, 34.0188375], [-95.5343963, 34.0188366], [-95.5343783, 34.0194384], [-95.5344212, 34.0194393]]]}, "properties": {"osm_id": 1111618652, "building": "yes", "name": "", "height": null, "height_m": null, "levels": null, "tract_id": "40023967200", "tract_name": "9672", "tags": {"building": "yes"}}}, {"type": "Feature", "geometry": {"type": "Polygon", "coordinates": [[[-95.5382285, 34.0224066], [-95.5382536, 34.0222931], [-95.5377017, 34.0222094], [-95.5377406, 34.0220331], [-95.5375581, 34.0220054], [-95.5374877, 34.022324], [-95.5378205, 34.0223745], [-95.5378268, 34.0223457], [-95.5382285, 34.0224066]]]}, "properties": {"osm_id": 1111618654, "building": "yes", "name": "United Ag & Turf", "height": null, "height_m": null, "levels": null, "tract_id": "40023967200", "tract_name": "9672", "tags": {"addr:city": "Hugo", "addr:housenumber": "1700", "addr:postcode": "74743", "addr:state": "OK", "addr:street": "West Jackson Street", "building": "yes", "name": "United Ag & Turf", "shop": "trade", "trade": "agricultural_supplies"}}}, {"type": "Feature", "geometry": {"type": "Polygon", "coordinates": [[[-95.5387376, 34.0215494], [-95.538856, 34.0214535], [-95.538788, 34.0213958], [-95.5386696, 34.0214917], [-95.5387376, 34.0215494]]]}, "properties": {"osm_id": 1111618655, "building": "yes", "name": "", "height": null, "height_m": null, "levels": null, "tract_id": "40023967200", "tract_name": "9672", "tags": {"building": "yes"}}}, {"type": "Feature", "geometry": {"type": "Polygon", "coordinates": [[[-95.5386262, 34.0213089], [-95.5386723, 34.0211164], [-95.5385342, 34.0210937], [-95.5384881, 34.0212862], [-95.5386262, 34.0213089]]]}, "properties": {"osm_id": 1111618656, "building": "yes", "name": "", "height": null, "height_m": null, "levels": null, "tract_id": "40023967200", "tract_name": "9672", "tags": {"building": "yes"}}}, {"type": "Feature", "geometry": {"type": "Polygon", "coordinates": [[[-95.5384253, 34.0212838], [-95.5384523, 34.0211623], [-95.5382899, 34.0211375], [-95.5382629, 34.021259], [-95.5384253, 34.0212838]]]}, "properties": {"osm_id": 1111618657, "building": "yes", "name": "", "height": null, "height_m": null, "levels": null, "tract_id": "40023967200", "tract_name": "9672", "tags": {"building": "yes"}}}, {"type": "Feature", "geometry": {"type": "Polygon", "coordinates": [[[-95.5383827, 34.0205441], [-95.5382459, 34.020291], [-95.5382985, 34.0202715], [-95.5383302, 34.0203302], [-95.5384597, 34.0202821], [-95.5383773, 34.0201296], [-95.5384494, 34.0201028], [-95.538419, 34.0200464], [-95.5385976, 34.0199801], [-95.5385171, 34.0198311], [-95.5380797, 34.0199935], [-95.5381653, 34.0201517], [-95.5381123, 34.0201714], [-95.5380569, 34.0200687], [-95.5379056, 34.0201248], [-95.5379521, 34.0202109], [-95.5378731, 34.0202403], [-95.5379497, 34.0203823], [-95.5377932, 34.0204403], [-95.5378019, 34.0204565], [-95.5377257, 34.0204848], [-95.5377968, 34.0206166], [-95.5378238, 34.0206066], [-95.5378583, 34.0206705], [-95.5379076, 34.0206522], [-95.5379383, 34.020709], [-95.5383827, 34.0205441]]]}, "properties": {"osm_id": 1111618658, "building": "yes", "name": "", "height": null, "height_m": null, "levels": null, "tract_id": "40023967200", "tract_name": "9672", "tags": {"building": "yes", "man_made": "works"}}}, {"type": "Feature", "geometry": {"type": "Polygon", "coordinates": [[[-95.5418766, 34.0220828], [-95.5419097, 34.0219972], [-95.5417202, 34.0219468], [-95.5416871, 34.0220324], [-95.5418766, 34.0220828]]]}, "properties": {"osm_id": 1111618660, "building": "yes", "name": "McCraw Oil & Propane", "height": null, "height_m": null, "levels": null, "tract_id": "40023967200", "tract_name": "9672", "tags": {"addr:city": "Hugo", "addr:housenumber": "2804", "addr:postcode": "74743", "addr:state": "OK", "addr:street": "Old Highway 70", "building": "yes", "name": "McCraw Oil & Propane", "shop": "gas"}}}, {"type": "Feature", "geometry": {"type": "Polygon", "coordinates": [[[-95.5338909, 34.0208351], [-95.5340525, 34.0207229], [-95.5339725, 34.0206437], [-95.5339972, 34.0206265], [-95.5339325, 34.0205625], [-95.5339189, 34.0205719], [-95.533783, 34.0204374], [-95.5336102, 34.0205574], [-95.5338909, 34.0208351]]]}, "properties": {"osm_id": 1111618661, "building": "yes", "name": "Choctaw Travel Plaza", "height": null, "height_m": null, "levels": null, "tract_id": "40023967200", "tract_name": "9672", "tags": {"addr:city": "Hugo", "addr:housenumber": "1908", "addr:postcode": "74743", "addr:state": "OK", "addr:street": "West Jackson Street", "building": "yes", "name": "Choctaw Travel Plaza", "shop": "convenience"}}}, {"type": "Feature", "geometry": {"type": "Polygon", "coordinates": [[[-95.5342994, 34.0206016], [-95.5343913, 34.0205359], [-95.5342615, 34.0204112], [-95.5341579, 34.0203117], [-95.534066, 34.0203774], [-95.5341689, 34.0204762], [-95.5342994, 34.0206016]]]}, "properties": {"osm_id": 1111618662, "building": "roof", "name": "Choctaw", "height": null, "height_m": null, "levels": null, "tract_id": "40023967200", "tract_name": "9672", "tags": {"amenity": "fuel", "building": "roof", "name": "Choctaw"}}}, {"type": "Feature", "geometry": {"type": "Polygon", "coordinates": [[[-95.5292546, 34.0159649], [-95.5291795, 34.0157088], [-95.5292269, 34.0156993], [-95.5291939, 34.0155868], [-95.5287528, 34.0156757], [-95.5287765, 34.0157568], [-95.5288113, 34.0157498], [-95.5288959, 34.016038], [-95.5290225, 34.0160125], [-95.5289972, 34.0159265], [-95.5290865, 34.0159084], [-95.5291116, 34.0159938], [-95.5292546, 34.0159649]]]}, "properties": {"osm_id": 1111618663, "building": "yes", "name": "Choctaw Nation Tribal Services", "height": null, "height_m": null, "levels": null, "tract_id": "40023967200", "tract_name": "9672", "tags": {"addr:city": "Hugo", "addr:housenumber": "403", "addr:postcode": "74743", "addr:state": "OK", "addr:street": "Chahta Circle", "building": "yes", "name": "Choctaw Nation Tribal Services", "office": "government"}}}, {"type": "Feature", "geometry": {"type": "Polygon", "coordinates": [[[-95.5262666, 34.0129792], [-95.5262695, 34.0128073], [-95.5260105, 34.0128042], [-95.5260075, 34.0129762], [-95.5262666, 34.0129792]]]}, "properties": {"osm_id": 1111618666, "building": "yes", "name": "Choctaw Nation Optometry Clinic", "height": null, "height_m": null, "levels": null, "tract_id": "40023967200", "tract_name": "9672", "tags": {"addr:city": "Hugo", "addr:postcode": "74743", "addr:state": "OK", "building": "yes", "healthcare": "optometrist", "name": "Choctaw Nation Optometry Clinic"}}}, {"type": "Feature", "geometry": {"type": "Polygon", "coordinates": [[[-95.5267361, 34.0131058], [-95.5267343, 34.0130233], [-95.5265411, 34.0130262], [-95.5265429, 34.0131087], [-95.5267361, 34.0131058]]]}, "properties": {"osm_id": 1111618667, "building": "yes", "name": "", "height": null, "height_m": null, "levels": null, "tract_id": "40023967200", "tract_name": "9672", "tags": {"building": "yes"}}}, {"type": "Feature", "geometry": {"type": "Polygon", "coordinates": [[[-95.5245393, 34.0125911], [-95.524535, 34.0122918], [-95.5243333, 34.0122938], [-95.5243376, 34.0125931], [-95.5245393, 34.0125911]]]}, "properties": {"osm_id": 1111622418, "building": "yes", "name": "Davidson Tractor & Implement", "height": null, "height_m": null, "levels": null, "tract_id": "40023967200", "tract_name": "9672", "tags": {"addr:city": "Hugo", "addr:housenumber": "1106", "addr:postcode": "74743", "addr:state": "OK", "addr:street": "West Jackson Street", "building": "yes", "name": "Davidson Tractor & Implement", "shop": "country_store"}}}, {"type": "Feature", "geometry": {"type": "Polygon", "coordinates": [[[-95.5245144, 34.0128803], [-95.5245093, 34.0127316], [-95.524309, 34.0127363], [-95.5243141, 34.012885], [-95.5245144, 34.0128803]]]}, "properties": {"osm_id": 1111622419, "building": "yes", "name": "", "height": null, "height_m": null, "levels": null, "tract_id": "40023967200", "tract_name": "9672", "tags": {"building": "yes"}}}, {"type": "Feature", "geometry": {"type": "Polygon", "coordinates": [[[-95.5242934, 34.0125717], [-95.5242915, 34.012475], [-95.524187, 34.0124764], [-95.5241889, 34.0125731], [-95.5242934, 34.0125717]]]}, "properties": {"osm_id": 1111622420, "building": "yes", "name": "", "height": null, "height_m": null, "levels": null, "tract_id": "40023967200", "tract_name": "9672", "tags": {"building": "yes"}}}, {"type": "Feature", "geometry": {"type": "Polygon", "coordinates": [[[-95.5251474, 34.0115834], [-95.5251443, 34.011311], [-95.5249451, 34.0113125], [-95.5249483, 34.0115849], [-95.5251474, 34.0115834]]]}, "properties": {"osm_id": 1111622421, "building": "yes", "name": "", "height": null, "height_m": null, "levels": null, "tract_id": "40023967200", "tract_name": "9672", "tags": {"building": "yes"}}}, {"type": "Feature", "geometry": {"type": "Polygon", "coordinates": [[[-95.5186168, 34.0119264], [-95.5186469, 34.0117421], [-95.5184839, 34.0117238], [-95.5184909, 34.0116805], [-95.5184047, 34.0116708], [-95.5183752, 34.0118512], [-95.5184324, 34.0118577], [-95.5184202, 34.0119323], [-95.5185549, 34.0119474], [-95.5185594, 34.01192], [-95.5186168, 34.0119264]]]}, "properties": {"osm_id": 1111622422, "building": "yes", "name": "Roma Italian", "height": null, "height_m": null, "levels": null, "tract_id": "40023967200", "tract_name": "9672", "tags": {"addr:city": "Hugo", "addr:housenumber": "602", "addr:postcode": "74743", "addr:state": "OK", "addr:street": "West Jackson Street", "amenity": "restaurant", "building": "yes", "cuisine": "italian", "name": "Roma Italian"}}}, {"type": "Feature", "geometry": {"type": "Polygon", "coordinates": [[[-95.5193495, 34.0121028], [-95.5193971, 34.0117738], [-95.5191209, 34.0117464], [-95.5191075, 34.0118386], [-95.519278, 34.0118556], [-95.5192559, 34.0120077], [-95.5187284, 34.0119552], [-95.5187625, 34.0117199], [-95.5186618, 34.0117099], [-95.5186156, 34.0120299], [-95.5193495, 34.0121028]]]}, "properties": {"osm_id": 1111622423, "building": "yes", "name": "Village Inn", "height": null, "height_m": null, "levels": null, "tract_id": "40023967200", "tract_name": "9672", "tags": {"addr:city": "Hugo", "addr:housenumber": "610", "addr:postcode": "74743", "addr:state": "OK", "addr:street": "West Jackson Street", "building": "yes", "name": "Village Inn", "tourism": "motel"}}}, {"type": "Feature", "geometry": {"type": "Polygon", "coordinates": [[[-95.5201715, 34.0121932], [-95.5201835, 34.0121196], [-95.5195848, 34.0120525], [-95.5195728, 34.012126], [-95.5201715, 34.0121932]]]}, "properties": {"osm_id": 1111622424, "building": "yes", "name": "", "height": null, "height_m": null, "levels": null, "tract_id": "40023967200", "tract_name": "9672", "tags": {"building": "yes"}}}, {"type": "Feature", "geometry": {"type": "Polygon", "coordinates": [[[-95.5205345, 34.0122393], [-95.5205847, 34.0119018], [-95.520454, 34.0118884], [-95.5204037, 34.012226], [-95.5205345, 34.0122393]]]}, "properties": {"osm_id": 1111622425, "building": "yes", "name": "", "height": null, "height_m": null, "levels": null, "tract_id": "40023967200", "tract_name": "9672", "tags": {"building": "yes"}}}, {"type": "Feature", "geometry": {"type": "Polygon", "coordinates": [[[-95.515998, 34.0107508], [-95.5159041, 34.01015], [-95.5154968, 34.0101937], [-95.5155087, 34.0102699], [-95.5155854, 34.0102617], [-95.5156673, 34.0107862], [-95.515998, 34.0107508]]]}, "properties": {"osm_id": 1111622429, "building": "yes", "name": "", "height": null, "height_m": null, "levels": null, "tract_id": "40023967200", "tract_name": "9672", "tags": {"building": "yes"}}}, {"type": "Feature", "geometry": {"type": "Polygon", "coordinates": [[[-95.5500872, 33.987037], [-95.5499618, 33.9869904], [-95.5501255, 33.9866879], [-95.5502509, 33.9867345], [-95.5500872, 33.987037]]]}, "properties": {"osm_id": 1357696069, "building": "yes", "name": "", "height": null, "height_m": null, "levels": null, "tract_id": "40023967200", "tract_name": "9672", "tags": {"building": "yes"}}}, {"type": "Feature", "geometry": {"type": "Polygon", "coordinates": [[[-95.5517784, 33.9860651], [-95.5515846, 33.9858727], [-95.5517512, 33.9857574], [-95.551882, 33.9858872], [-95.5518194, 33.9859306], [-95.5518823, 33.9859931], [-95.5517784, 33.9860651]]]}, "properties": {"osm_id": 1357696070, "building": "yes", "name": "", "height": null, "height_m": null, "levels": null, "tract_id": "40023967200", "tract_name": "9672", "tags": {"building": "yes"}}}, {"type": "Feature", "geometry": {"type": "Polygon", "coordinates": [[[-95.552353, 33.9862847], [-95.5522021, 33.9863887], [-95.5519513, 33.9861385], [-95.5521023, 33.9860345], [-95.552353, 33.9862847]]]}, "properties": {"osm_id": 1357696071, "building": "yes", "name": "", "height": null, "height_m": null, "levels": null, "tract_id": "40023967200", "tract_name": "9672", "tags": {"building": "yes"}}}, {"type": "Feature", "geometry": {"type": "Polygon", "coordinates": [[[-95.5521265, 33.9867127], [-95.5520186, 33.9867788], [-95.5519465, 33.9866979], [-95.5520544, 33.9866318], [-95.5521265, 33.9867127]]]}, "properties": {"osm_id": 1357696072, "building": "yes", "name": "", "height": null, "height_m": null, "levels": null, "tract_id": "40023967200", "tract_name": "9672", "tags": {"building": "yes"}}}, {"type": "Feature", "geometry": {"type": "Polygon", "coordinates": [[[-95.5376515, 33.984696], [-95.5375768, 33.9847107], [-95.537531, 33.9845508], [-95.537822, 33.9844935], [-95.5378678, 33.9846534], [-95.5377789, 33.9846709], [-95.5377933, 33.9847212], [-95.5376659, 33.9847463], [-95.5376515, 33.984696]]]}, "properties": {"osm_id": 1357696080, "building": "yes", "name": "", "height": null, "height_m": null, "levels": null, "tract_id": "40023967200", "tract_name": "9672", "tags": {"building": "yes"}}}, {"type": "Feature", "geometry": {"type": "Polygon", "coordinates": [[[-95.5453384, 33.9831705], [-95.5452524, 33.9831595], [-95.5452679, 33.9830767], [-95.5453538, 33.9830877], [-95.5453384, 33.9831705]]]}, "properties": {"osm_id": 1357696081, "building": "yes", "name": "", "height": null, "height_m": null, "levels": null, "tract_id": "40023967200", "tract_name": "9672", "tags": {"building": "yes"}}}, {"type": "Feature", "geometry": {"type": "Polygon", "coordinates": [[[-95.5450232, 33.9830137], [-95.5448154, 33.9830054], [-95.5448235, 33.9828654], [-95.5450314, 33.9828738], [-95.5450232, 33.9830137]]]}, "properties": {"osm_id": 1357696082, "building": "yes", "name": "", "height": null, "height_m": null, "levels": null, "tract_id": "40023967200", "tract_name": "9672", "tags": {"building": "yes"}}}, {"type": "Feature", "geometry": {"type": "Polygon", "coordinates": [[[-95.5449951, 33.9834552], [-95.5449374, 33.983494], [-95.544871, 33.9834261], [-95.5449287, 33.9833874], [-95.5449951, 33.9834552]]]}, "properties": {"osm_id": 1357696083, "building": "yes", "name": "", "height": null, "height_m": null, "levels": null, "tract_id": "40023967200", "tract_name": "9672", "tags": {"building": "yes"}}}, {"type": "Feature", "geometry": {"type": "Polygon", "coordinates": [[[-95.5449648, 33.9835474], [-95.5448984, 33.9835838], [-95.5448724, 33.9835511], [-95.5447289, 33.9836298], [-95.5447049, 33.9835998], [-95.5449148, 33.9834847], [-95.5449648, 33.9835474]]]}, "properties": {"osm_id": 1357696084, "building": "yes", "name": "", "height": null, "height_m": null, "levels": null, "tract_id": "40023967200", "tract_name": "9672", "tags": {"building": "yes"}}}, {"type": "Feature", "geometry": {"type": "Polygon", "coordinates": [[[-95.5441874, 33.983811], [-95.5441348, 33.9838294], [-95.5440774, 33.9837165], [-95.5442786, 33.9836463], [-95.5442874, 33.9836637], [-95.5444001, 33.9836244], [-95.5444486, 33.9837199], [-95.544296, 33.9837731], [-95.5443319, 33.9838439], [-95.5442233, 33.9838817], [-95.5441874, 33.983811]]]}, "properties": {"osm_id": 1357696085, "building": "yes", "name": "", "height": null, "height_m": null, "levels": null, "tract_id": "40023967200", "tract_name": "9672", "tags": {"building": "yes"}}}, {"type": "Feature", "geometry": {"type": "Polygon", "coordinates": [[[-95.5434407, 33.9840679], [-95.5430507, 33.9841166], [-95.5429622, 33.9836284], [-95.5433522, 33.9835797], [-95.5434407, 33.9840679]]]}, "properties": {"osm_id": 1357696086, "building": "yes", "name": "", "height": null, "height_m": null, "levels": null, "tract_id": "40023967200", "tract_name": "9672", "tags": {"building": "yes"}}}, {"type": "Feature", "geometry": {"type": "Polygon", "coordinates": [[[-95.5249631, 33.9830048], [-95.5250203, 33.983004], [-95.5250216, 33.9830633], [-95.5249076, 33.983065], [-95.5249063, 33.9830057], [-95.5249278, 33.9830053], [-95.524927, 33.9829667], [-95.5249623, 33.9829662], [-95.5249631, 33.9830048]]]}, "properties": {"osm_id": 1357696100, "building": "yes", "name": "", "height": null, "height_m": null, "levels": null, "tract_id": "40023967200", "tract_name": "9672", "tags": {"building": "yes"}}}, {"type": "Feature", "geometry": {"type": "Polygon", "coordinates": [[[-95.5247967, 33.9828947], [-95.5246388, 33.9828978], [-95.5246368, 33.9828268], [-95.5247947, 33.9828237], [-95.5247967, 33.9828947]]]}, "properties": {"osm_id": 1357696101, "building": "yes", "name": "", "height": null, "height_m": null, "levels": null, "tract_id": "40023967200", "tract_name": "9672", "tags": {"building": "yes"}}}, {"type": "Feature", "geometry": {"type": "Polygon", "coordinates": [[[-95.5412098, 34.0178343], [-95.5411303, 34.0178337], [-95.541131, 34.0177637], [-95.5412105, 34.0177642], [-95.5412098, 34.0178343]]]}, "properties": {"osm_id": 1359263783, "building": "yes", "name": "", "height": null, "height_m": null, "levels": null, "tract_id": "40023967200", "tract_name": "9672", "tags": {"building": "yes"}}}, {"type": "Feature", "geometry": {"type": "Polygon", "coordinates": [[[-95.5404943, 34.0177491], [-95.5404629, 34.0177453], [-95.5404957, 34.0175608], [-95.5411461, 34.0176403], [-95.5411252, 34.0177578], [-95.5410464, 34.0177481], [-95.5410413, 34.0177768], [-95.5409262, 34.0177627], [-95.5409222, 34.0177855], [-95.540694, 34.0177576], [-95.5406913, 34.0177732], [-95.540596, 34.0177615], [-95.5405916, 34.0177865], [-95.5404899, 34.017774], [-95.5404943, 34.0177491]]]}, "properties": {"osm_id": 1359263784, "building": "yes", "name": "", "height": null, "height_m": null, "levels": null, "tract_id": "40023967200", "tract_name": "9672", "tags": {"building": "yes"}}}, {"type": "Feature", "geometry": {"type": "Polygon", "coordinates": [[[-95.5395783, 34.0171768], [-95.5394053, 34.0171834], [-95.5393993, 34.0170752], [-95.5395723, 34.0170686], [-95.5395783, 34.0171768]]]}, "properties": {"osm_id": 1359263785, "building": "yes", "name": "", "height": null, "height_m": null, "levels": null, "tract_id": "40023967200", "tract_name": "9672", "tags": {"building": "yes"}}}, {"type": "Feature", "geometry": {"type": "Polygon", "coordinates": [[[-95.539239, 34.0212666], [-95.5392196, 34.0212668], [-95.5392177, 34.021154], [-95.5394618, 34.0211512], [-95.5394637, 34.021264], [-95.5394073, 34.0212647], [-95.5394087, 34.0213468], [-95.5392403, 34.0213487], [-95.539239, 34.0212666]]]}, "properties": {"osm_id": 1359263787, "building": "yes", "name": "", "height": null, "height_m": null, "levels": null, "tract_id": "40023967200", "tract_name": "9672", "tags": {"building": "yes"}}}, {"type": "Feature", "geometry": {"type": "Polygon", "coordinates": [[[-95.5391499, 34.0203831], [-95.5391485, 34.0204253], [-95.5390754, 34.0204237], [-95.5390768, 34.0203815], [-95.5391499, 34.0203831]]]}, "properties": {"osm_id": 1359263788, "building": "yes", "name": "", "height": null, "height_m": null, "levels": null, "tract_id": "40023967200", "tract_name": "9672", "tags": {"building": "yes"}}}, {"type": "Feature", "geometry": {"type": "Polygon", "coordinates": [[[-95.5391486, 34.0206036], [-95.5390849, 34.0206022], [-95.5390868, 34.0205415], [-95.5391505, 34.0205429], [-95.5391541, 34.0204334], [-95.5391678, 34.0204337], [-95.5391685, 34.0204114], [-95.5392471, 34.0204131], [-95.5392428, 34.020545], [-95.5392793, 34.0205458], [-95.5392773, 34.0206065], [-95.5392408, 34.0206057], [-95.5392397, 34.0206393], [-95.5391475, 34.0206373], [-95.5391486, 34.0206036]]]}, "properties": {"osm_id": 1359263789, "building": "yes", "name": "", "height": null, "height_m": null, "levels": null, "tract_id": "40023967200", "tract_name": "9672", "tags": {"building": "yes"}}}, {"type": "Feature", "geometry": {"type": "Polygon", "coordinates": [[[-95.5388126, 34.0190637], [-95.5382935, 34.0187393], [-95.5387844, 34.0181997], [-95.5393034, 34.018524], [-95.5388126, 34.0190637]]]}, "properties": {"osm_id": 1359263790, "building": "yes", "name": "", "height": null, "height_m": null, "levels": null, "tract_id": "40023967200", "tract_name": "9672", "tags": {"building": "yes"}}}, {"type": "Feature", "geometry": {"type": "Polygon", "coordinates": [[[-95.5390238, 34.019236], [-95.5389637, 34.0192007], [-95.5390797, 34.0190651], [-95.5391398, 34.0191004], [-95.5390238, 34.019236]]]}, "properties": {"osm_id": 1359263791, "building": "yes", "name": "", "height": null, "height_m": null, "levels": null, "tract_id": "40023967200", "tract_name": "9672", "tags": {"building": "yes"}}}, {"type": "Feature", "geometry": {"type": "Polygon", "coordinates": [[[-95.5408061, 34.0203131], [-95.5407479, 34.020314], [-95.5407459, 34.0202222], [-95.5408041, 34.0202214], [-95.5408061, 34.0203131]]]}, "properties": {"osm_id": 1359263792, "building": "yes", "name": "", "height": null, "height_m": null, "levels": null, "tract_id": "40023967200", "tract_name": "9672", "tags": {"building": "yes"}}}, {"type": "Feature", "geometry": {"type": "Polygon", "coordinates": [[[-95.5441512, 34.0219565], [-95.5441121, 34.0219484], [-95.5441221, 34.021915], [-95.5441612, 34.0219232], [-95.5441512, 34.0219565]]]}, "properties": {"osm_id": 1359263793, "building": "yes", "name": "", "height": null, "height_m": null, "levels": null, "tract_id": "40023967200", "tract_name": "9672", "tags": {"building": "yes"}}}, {"type": "Feature", "geometry": {"type": "Polygon", "coordinates": [[[-95.5443232, 34.0221794], [-95.5442242, 34.0221422], [-95.5442946, 34.0220133], [-95.5443936, 34.0220504], [-95.5443232, 34.0221794]]]}, "properties": {"osm_id": 1359263794, "building": "yes", "name": "", "height": null, "height_m": null, "levels": null, "tract_id": "40023967200", "tract_name": "9672", "tags": {"building": "yes"}}}, {"type": "Feature", "geometry": {"type": "Polygon", "coordinates": [[[-95.5433187, 34.0216881], [-95.5432503, 34.0216742], [-95.5432634, 34.0216299], [-95.5433318, 34.0216438], [-95.5433187, 34.0216881]]]}, "properties": {"osm_id": 1359263795, "building": "yes", "name": "", "height": null, "height_m": null, "levels": null, "tract_id": "40023967200", "tract_name": "9672", "tags": {"building": "yes"}}}, {"type": "Feature", "geometry": {"type": "Polygon", "coordinates": [[[-95.5436528, 34.0218513], [-95.5435854, 34.0218377], [-95.5436216, 34.0217149], [-95.5436891, 34.0217285], [-95.5436528, 34.0218513]]]}, "properties": {"osm_id": 1359263796, "building": "yes", "name": "", "height": null, "height_m": null, "levels": null, "tract_id": "40023967200", "tract_name": "9672", "tags": {"building": "yes"}}}, {"type": "Feature", "geometry": {"type": "Polygon", "coordinates": [[[-95.5426025, 34.0212835], [-95.5424931, 34.0212809], [-95.5424985, 34.0211214], [-95.5426079, 34.021124], [-95.5426025, 34.0212835]]]}, "properties": {"osm_id": 1359263798, "building": "yes", "name": "", "height": null, "height_m": null, "levels": null, "tract_id": "40023967200", "tract_name": "9672", "tags": {"building": "yes"}}}, {"type": "Feature", "geometry": {"type": "Polygon", "coordinates": [[[-95.5428872, 34.0208413], [-95.5428221, 34.0208493], [-95.5428141, 34.0208044], [-95.5428792, 34.0207964], [-95.5428872, 34.0208413]]]}, "properties": {"osm_id": 1359263799, "building": "yes", "name": "", "height": null, "height_m": null, "levels": null, "tract_id": "40023967200", "tract_name": "9672", "tags": {"building": "yes"}}}, {"type": "Feature", "geometry": {"type": "Polygon", "coordinates": [[[-95.5428273, 34.0209456], [-95.5427004, 34.0209611], [-95.5426858, 34.0208789], [-95.5428836, 34.0208547], [-95.5428983, 34.0209369], [-95.5428893, 34.020938], [-95.5428926, 34.0209564], [-95.5428306, 34.020964], [-95.5428273, 34.0209456]]]}, "properties": {"osm_id": 1359263800, "building": "yes", "name": "", "height": null, "height_m": null, "levels": null, "tract_id": "40023967200", "tract_name": "9672", "tags": {"building": "yes"}}}, {"type": "Feature", "geometry": {"type": "Polygon", "coordinates": [[[-95.5457331, 34.0192868], [-95.5458115, 34.0191992], [-95.5457956, 34.0191895], [-95.5458352, 34.0191453], [-95.5459346, 34.0192064], [-95.5458165, 34.0193381], [-95.5457331, 34.0192868]]]}, "properties": {"osm_id": 1359263801, "building": "yes", "name": "", "height": null, "height_m": null, "levels": null, "tract_id": "40023967200", "tract_name": "9672", "tags": {"building": "yes"}}}, {"type": "Feature", "geometry": {"type": "Polygon", "coordinates": [[[-95.5503766, 34.0255884], [-95.5502274, 34.025589], [-95.5502264, 34.0254281], [-95.5503756, 34.0254275], [-95.5503766, 34.0255884]]]}, "properties": {"osm_id": 1359263806, "building": "yes", "name": "", "height": null, "height_m": null, "levels": null, "tract_id": "40023967200", "tract_name": "9672", "tags": {"building": "yes"}}}, {"type": "Feature", "geometry": {"type": "Polygon", "coordinates": [[[-95.5347896, 34.0208522], [-95.5346892, 34.0208313], [-95.53472, 34.0207293], [-95.5348204, 34.0207502], [-95.5347896, 34.0208522]]]}, "properties": {"osm_id": 1359281348, "building": "yes", "name": "", "height": null, "height_m": null, "levels": null, "tract_id": "40023967200", "tract_name": "9672", "tags": {"building": "yes"}}}, {"type": "Feature", "geometry": {"type": "Polygon", "coordinates": [[[-95.536408, 34.0224839], [-95.5360807, 34.0224861], [-95.5360791, 34.022315], [-95.5364063, 34.0223128], [-95.536408, 34.0224839]]]}, "properties": {"osm_id": 1359281349, "building": "yes", "name": "", "height": null, "height_m": null, "levels": null, "tract_id": "40023967200", "tract_name": "9672", "tags": {"building": "yes"}}}, {"type": "Feature", "geometry": {"type": "Polygon", "coordinates": [[[-95.5379596, 34.0200402], [-95.5378591, 34.0200991], [-95.5377921, 34.0200206], [-95.5378927, 34.0199617], [-95.5379596, 34.0200402]]]}, "properties": {"osm_id": 1359281350, "building": "yes", "name": "", "height": null, "height_m": null, "levels": null, "tract_id": "40023967200", "tract_name": "9672", "tags": {"building": "yes"}}}, {"type": "Feature", "geometry": {"type": "Polygon", "coordinates": [[[-95.5519138, 34.0256142], [-95.5517341, 34.0256187], [-95.551732, 34.0255589], [-95.5517465, 34.0255586], [-95.551745, 34.025515], [-95.5518119, 34.0255133], [-95.5518091, 34.0254362], [-95.5519256, 34.0254333], [-95.5519298, 34.0255524], [-95.5519116, 34.0255528], [-95.5519138, 34.0256142]]]}, "properties": {"osm_id": 1386515384, "building": "yes", "name": "", "height": null, "height_m": null, "levels": null, "tract_id": "40023967200", "tract_name": "9672", "tags": {"building": "yes"}}}, {"type": "Feature", "geometry": {"type": "Polygon", "coordinates": [[[-95.5518545, 34.0249714], [-95.5518562, 34.0250421], [-95.5517293, 34.0250441], [-95.5517278, 34.0249794], [-95.5517026, 34.0249798], [-95.5517005, 34.0248893], [-95.5517257, 34.0248889], [-95.5517246, 34.0248418], [-95.5518515, 34.0248398], [-95.5518536, 34.0249296], [-95.5519504, 34.0249281], [-95.5519514, 34.0249698], [-95.5518545, 34.0249714]]]}, "properties": {"osm_id": 1386515385, "building": "yes", "name": "", "height": null, "height_m": null, "levels": null, "tract_id": "40023967200", "tract_name": "9672", "tags": {"building": "yes"}}}, {"type": "Feature", "geometry": {"type": "Polygon", "coordinates": [[[-95.5609648, 34.0269927], [-95.561038, 34.0269922], [-95.5610389, 34.0270794], [-95.5608344, 34.0270808], [-95.5608335, 34.0269936], [-95.5609017, 34.0269931], [-95.5609015, 34.026977], [-95.5609646, 34.0269766], [-95.5609648, 34.0269927]]]}, "properties": {"osm_id": 1386515387, "building": "yes", "name": "", "height": null, "height_m": null, "levels": null, "tract_id": "40023967200", "tract_name": "9672", "tags": {"building": "yes"}}}, {"type": "Feature", "geometry": {"type": "Polygon", "coordinates": [[[-95.5702514, 34.0266104], [-95.5700556, 34.0265832], [-95.5700724, 34.0265004], [-95.5702682, 34.0265277], [-95.5702514, 34.0266104]]]}, "properties": {"osm_id": 1386515399, "building": "yes", "name": "", "height": null, "height_m": null, "levels": null, "tract_id": "40023967200", "tract_name": "9672", "tags": {"building": "yes"}}}, {"type": "Feature", "geometry": {"type": "Polygon", "coordinates": [[[-95.5589052, 34.0267369], [-95.558904, 34.0266685], [-95.5589819, 34.0266675], [-95.5589831, 34.026736], [-95.5589052, 34.0267369]]]}, "properties": {"osm_id": 1386515415, "building": "garage", "name": "", "height": null, "height_m": null, "levels": null, "tract_id": "40023967200", "tract_name": "9672", "tags": {"building": "garage"}}}, {"type": "Feature", "geometry": {"type": "Polygon", "coordinates": [[[-95.5590299, 34.0267354], [-95.5589835, 34.026736], [-95.5589816, 34.0266281], [-95.5591431, 34.0266262], [-95.5591434, 34.0266416], [-95.5591901, 34.0266411], [-95.5591917, 34.0267335], [-95.5591463, 34.026734], [-95.5591467, 34.026761], [-95.5590303, 34.0267624], [-95.5590299, 34.0267354]]]}, "properties": {"osm_id": 1386515416, "building": "detached", "name": "", "height": null, "height_m": null, "levels": null, "tract_id": "40023967200", "tract_name": "9672", "tags": {"building": "detached"}}}, {"type": "Feature", "geometry": {"type": "Polygon", "coordinates": [[[-95.5589375, 34.0271247], [-95.5588338, 34.0271188], [-95.5588408, 34.0270343], [-95.5589446, 34.0270402], [-95.5589375, 34.0271247]]]}, "properties": {"osm_id": 1386515417, "building": "yes", "name": "", "height": null, "height_m": null, "levels": null, "tract_id": "40023967200", "tract_name": "9672", "tags": {"building": "yes"}}}, {"type": "Feature", "geometry": {"type": "Polygon", "coordinates": [[[-95.5585044, 34.0268469], [-95.5585044, 34.026796], [-95.5585479, 34.026796], [-95.5585479, 34.0268135], [-95.5585526, 34.0268135], [-95.5585526, 34.0268469], [-95.5585044, 34.0268469]]]}, "properties": {"osm_id": 1386515418, "building": "yes", "name": "", "height": null, "height_m": null, "levels": null, "tract_id": "40023967200", "tract_name": "9672", "tags": {"building": "yes"}}}, {"type": "Feature", "geometry": {"type": "Polygon", "coordinates": [[[-95.5585523, 34.0271092], [-95.5584835, 34.0271087], [-95.5584849, 34.0269775], [-95.5585537, 34.026978], [-95.5585523, 34.0271092]]]}, "properties": {"osm_id": 1386515419, "building": "yes", "name": "", "height": null, "height_m": null, "levels": null, "tract_id": "40023967200", "tract_name": "9672", "tags": {"building": "yes"}}}, {"type": "Feature", "geometry": {"type": "Polygon", "coordinates": [[[-95.5583337, 34.027108], [-95.5582009, 34.0271071], [-95.5582023, 34.0269818], [-95.558335, 34.0269827], [-95.5583337, 34.027108]]]}, "properties": {"osm_id": 1386515420, "building": "yes", "name": "", "height": null, "height_m": null, "levels": null, "tract_id": "40023967200", "tract_name": "9672", "tags": {"building": "yes"}}}, {"type": "Feature", "geometry": {"type": "Polygon", "coordinates": [[[-95.557691, 34.0270472], [-95.5575914, 34.0269986], [-95.5576364, 34.0269353], [-95.557736, 34.0269839], [-95.557691, 34.0270472]]]}, "properties": {"osm_id": 1386515421, "building": "garage", "name": "", "height": null, "height_m": null, "levels": null, "tract_id": "40023967200", "tract_name": "9672", "tags": {"building": "garage"}}}, {"type": "Feature", "geometry": {"type": "Polygon", "coordinates": [[[-95.5575062, 34.0269304], [-95.5575003, 34.0269275], [-95.5575958, 34.026793], [-95.5576046, 34.0267973], [-95.5576187, 34.0267774], [-95.5576826, 34.0268086], [-95.5576319, 34.02688], [-95.5576636, 34.0268954], [-95.5576094, 34.0269718], [-95.5575797, 34.0269572], [-95.5575749, 34.0269639], [-95.5575703, 34.0269617], [-95.5575575, 34.0269797], [-95.5574934, 34.0269484], [-95.5575062, 34.0269304]]]}, "properties": {"osm_id": 1386515422, "building": "detached", "name": "", "height": null, "height_m": null, "levels": null, "tract_id": "40023967200", "tract_name": "9672", "tags": {"building": "detached"}}}, {"type": "Feature", "geometry": {"type": "Polygon", "coordinates": [[[-95.5579069, 34.0269238], [-95.5578481, 34.0269268], [-95.5578432, 34.026861], [-95.557902, 34.026858], [-95.5579069, 34.0269238]]]}, "properties": {"osm_id": 1386515423, "building": "yes", "name": "", "height": null, "height_m": null, "levels": null, "tract_id": "40023967200", "tract_name": "9672", "tags": {"building": "yes"}}}, {"type": "Feature", "geometry": {"type": "Polygon", "coordinates": [[[-95.5531195, 34.0270755], [-95.5529086, 34.0270759], [-95.5529083, 34.0269488], [-95.5531192, 34.0269485], [-95.5531195, 34.0270755]]]}, "properties": {"osm_id": 1386515431, "building": "barn", "name": "", "height": null, "height_m": null, "levels": null, "tract_id": "40023967200", "tract_name": "9672", "tags": {"building": "barn"}}}, {"type": "Feature", "geometry": {"type": "Polygon", "coordinates": [[[-95.5528003, 34.026766], [-95.5528006, 34.0269055], [-95.5524546, 34.0269061], [-95.5524543, 34.0267665], [-95.5528003, 34.026766]]]}, "properties": {"osm_id": 1386515432, "building": "barn", "name": "", "height": null, "height_m": null, "levels": null, "tract_id": "40023967200", "tract_name": "9672", "tags": {"building": "barn"}}}, {"type": "Feature", "geometry": {"type": "Polygon", "coordinates": [[[-95.5560002, 34.0277241], [-95.5560007, 34.0276643], [-95.5560572, 34.0276646], [-95.5560567, 34.0277244], [-95.5560002, 34.0277241]]]}, "properties": {"osm_id": 1386515436, "building": "yes", "name": "", "height": null, "height_m": null, "levels": null, "tract_id": "40023967200", "tract_name": "9672", "tags": {"building": "yes"}}}, {"type": "Feature", "geometry": {"type": "Polygon", "coordinates": [[[-95.5559687, 34.0277207], [-95.5558951, 34.0277203], [-95.5558956, 34.0276685], [-95.5559691, 34.0276689], [-95.5559687, 34.0277207]]]}, "properties": {"osm_id": 1386515437, "building": "yes", "name": "", "height": null, "height_m": null, "levels": null, "tract_id": "40023967200", "tract_name": "9672", "tags": {"building": "yes"}}}, {"type": "Feature", "geometry": {"type": "Polygon", "coordinates": [[[-95.5561909, 34.0276646], [-95.556101, 34.0276641], [-95.5561016, 34.0275982], [-95.5561479, 34.0275985], [-95.556148, 34.0275852], [-95.5561916, 34.0275854], [-95.5561909, 34.0276646]]]}, "properties": {"osm_id": 1386515438, "building": "yes", "name": "", "height": null, "height_m": null, "levels": null, "tract_id": "40023967200", "tract_name": "9672", "tags": {"building": "yes"}}}, {"type": "Feature", "geometry": {"type": "Polygon", "coordinates": [[[-95.5613498, 34.0321809], [-95.5613172, 34.03229], [-95.5611308, 34.0322517], [-95.5611634, 34.0321426], [-95.5613498, 34.0321809]]]}, "properties": {"osm_id": 1386517516, "building": "barn", "name": "", "height": null, "height_m": null, "levels": null, "tract_id": "40023967200", "tract_name": "9672", "tags": {"building": "barn"}}}, {"type": "Feature", "geometry": {"type": "Polygon", "coordinates": [[[-95.560865, 34.0312857], [-95.560865, 34.0313663], [-95.5607504, 34.0313663], [-95.5607504, 34.0312857], [-95.560865, 34.0312857]]]}, "properties": {"osm_id": 1386517517, "building": "yes", "name": "", "height": null, "height_m": null, "levels": null, "tract_id": "40023967200", "tract_name": "9672", "tags": {"building": "yes"}}}, {"type": "Feature", "geometry": {"type": "Polygon", "coordinates": [[[-95.5603487, 34.0312318], [-95.5599645, 34.0311823], [-95.5599966, 34.0310108], [-95.5603809, 34.0310603], [-95.5603487, 34.0312318]]]}, "properties": {"osm_id": 1386517518, "building": "yes", "name": "", "height": null, "height_m": null, "levels": null, "tract_id": "40023967200", "tract_name": "9672", "tags": {"building": "yes"}}}, {"type": "Feature", "geometry": {"type": "Polygon", "coordinates": [[[-95.5611514, 34.0304054], [-95.561145, 34.0305608], [-95.5609679, 34.0305558], [-95.5609743, 34.0304004], [-95.5611514, 34.0304054]]]}, "properties": {"osm_id": 1386517523, "building": "yes", "name": "", "height": null, "height_m": null, "levels": null, "tract_id": "40023967200", "tract_name": "9672", "tags": {"building": "yes"}}}, {"type": "Feature", "geometry": {"type": "Polygon", "coordinates": [[[-95.5548089, 34.0210206], [-95.5547396, 34.0210131], [-95.5547503, 34.0209445], [-95.5548197, 34.0209519], [-95.5548089, 34.0210206]]]}, "properties": {"osm_id": 1386517526, "building": "yes", "name": "", "height": null, "height_m": null, "levels": null, "tract_id": "40023967200", "tract_name": "9672", "tags": {"building": "yes"}}}, {"type": "Feature", "geometry": {"type": "Polygon", "coordinates": [[[-95.5547972, 34.0216553], [-95.5546371, 34.0216186], [-95.5546899, 34.0214602], [-95.55485, 34.0214969], [-95.5547972, 34.0216553]]]}, "properties": {"osm_id": 1386517527, "building": "yes", "name": "", "height": null, "height_m": null, "levels": null, "tract_id": "40023967200", "tract_name": "9672", "tags": {"building": "yes"}}}, {"type": "Feature", "geometry": {"type": "Polygon", "coordinates": [[[-95.5552805, 34.0216222], [-95.5553286, 34.0216333], [-95.5552827, 34.0217709], [-95.5552223, 34.021757], [-95.555217, 34.0217731], [-95.5551049, 34.0217474], [-95.5551103, 34.0217314], [-95.5549601, 34.021697], [-95.5550061, 34.0215594], [-95.555098, 34.0215804], [-95.5551033, 34.0215643], [-95.555168, 34.0215791], [-95.5551626, 34.0215952], [-95.5552059, 34.0216051], [-95.5552154, 34.0215765], [-95.5552901, 34.0215936], [-95.5552805, 34.0216222]]]}, "properties": {"osm_id": 1386517528, "building": "yes", "name": "", "height": null, "height_m": null, "levels": null, "tract_id": "40023967200", "tract_name": "9672", "tags": {"building": "yes"}}}, {"type": "Feature", "geometry": {"type": "Polygon", "coordinates": [[[-95.5528204, 34.0226632], [-95.5526551, 34.0226762], [-95.5526423, 34.0225649], [-95.5528076, 34.0225518], [-95.5528204, 34.0226632]]]}, "properties": {"osm_id": 1386517529, "building": "yes", "name": "", "height": null, "height_m": null, "levels": null, "tract_id": "40023967200", "tract_name": "9672", "tags": {"building": "yes"}}}, {"type": "Feature", "geometry": {"type": "Polygon", "coordinates": [[[-95.5531316, 34.022898], [-95.5530387, 34.0229421], [-95.5529824, 34.0228607], [-95.5530752, 34.0228166], [-95.5531316, 34.022898]]]}, "properties": {"osm_id": 1386517530, "building": "yes", "name": "", "height": null, "height_m": null, "levels": null, "tract_id": "40023967200", "tract_name": "9672", "tags": {"building": "yes"}}}, {"type": "Feature", "geometry": {"type": "Polygon", "coordinates": [[[-95.5529854, 34.0231474], [-95.5528271, 34.0231877], [-95.552767, 34.0230256], [-95.5527512, 34.0230296], [-95.5527179, 34.0229398], [-95.5528788, 34.0228988], [-95.5529091, 34.0229807], [-95.5529223, 34.0229774], [-95.5529353, 34.0230123], [-95.5529894, 34.0230356], [-95.5529608, 34.0230812], [-95.5529854, 34.0231474]]]}, "properties": {"osm_id": 1386517531, "building": "yes", "name": "", "height": null, "height_m": null, "levels": null, "tract_id": "40023967200", "tract_name": "9672", "tags": {"building": "yes"}}}, {"type": "Feature", "geometry": {"type": "Polygon", "coordinates": [[[-95.5529334, 34.0228581], [-95.5528862, 34.0229014], [-95.5528346, 34.0228628], [-95.5528818, 34.0228195], [-95.5529334, 34.0228581]]]}, "properties": {"osm_id": 1386517532, "building": "yes", "name": "", "height": null, "height_m": null, "levels": null, "tract_id": "40023967200", "tract_name": "9672", "tags": {"building": "yes"}}}, {"type": "Feature", "geometry": {"type": "Polygon", "coordinates": [[[-95.5527815, 34.0249434], [-95.5526198, 34.0249422], [-95.5526209, 34.024844], [-95.5527826, 34.0248452], [-95.5527815, 34.0249434]]]}, "properties": {"osm_id": 1386517534, "building": "yes", "name": "", "height": null, "height_m": null, "levels": null, "tract_id": "40023967200", "tract_name": "9672", "tags": {"building": "yes"}}}, {"type": "Feature", "geometry": {"type": "Polygon", "coordinates": [[[-95.5529146, 34.0252274], [-95.5527725, 34.0252263], [-95.5527745, 34.0250471], [-95.5529646, 34.0250486], [-95.5529641, 34.0250915], [-95.5529701, 34.0250916], [-95.5529698, 34.0251186], [-95.5529539, 34.0251185], [-95.5529534, 34.0251588], [-95.5529462, 34.0251588], [-95.5529456, 34.0252088], [-95.5529148, 34.0252085], [-95.5529146, 34.0252274]]]}, "properties": {"osm_id": 1386517535, "building": "yes", "name": "", "height": null, "height_m": null, "levels": null, "tract_id": "40023967200", "tract_name": "9672", "tags": {"building": "yes"}}}, {"type": "Feature", "geometry": {"type": "Polygon", "coordinates": [[[-95.5548207, 34.0256078], [-95.554722, 34.0256572], [-95.5546752, 34.0255928], [-95.5547738, 34.0255435], [-95.5548207, 34.0256078]]]}, "properties": {"osm_id": 1386517536, "building": "yes", "name": "", "height": null, "height_m": null, "levels": null, "tract_id": "40023967200", "tract_name": "9672", "tags": {"building": "yes"}}}, {"type": "Feature", "geometry": {"type": "Polygon", "coordinates": [[[-95.5547833, 34.0254871], [-95.5547394, 34.0255091], [-95.5547528, 34.0255274], [-95.5546264, 34.0255907], [-95.554584, 34.0255325], [-95.5546195, 34.0255147], [-95.5545673, 34.0254431], [-95.5545947, 34.0254294], [-95.5545827, 34.0254129], [-95.5546118, 34.0253983], [-95.5546034, 34.0253868], [-95.5546818, 34.0253476], [-95.5547833, 34.0254871]]]}, "properties": {"osm_id": 1386517537, "building": "yes", "name": "", "height": null, "height_m": null, "levels": null, "tract_id": "40023967200", "tract_name": "9672", "tags": {"building": "yes"}}}, {"type": "Feature", "geometry": {"type": "Polygon", "coordinates": [[[-95.5561799, 34.0285613], [-95.5561004, 34.0285615], [-95.5561001, 34.0284626], [-95.5561795, 34.0284624], [-95.5561799, 34.0285613]]]}, "properties": {"osm_id": 1386517538, "building": "yes", "name": "", "height": null, "height_m": null, "levels": null, "tract_id": "40023967200", "tract_name": "9672", "tags": {"building": "yes"}}}, {"type": "Feature", "geometry": {"type": "Polygon", "coordinates": [[[-95.5562935, 34.0281475], [-95.5562229, 34.0281466], [-95.5562266, 34.0279665], [-95.5563091, 34.0279677], [-95.5563084, 34.0280015], [-95.5562965, 34.0280014], [-95.5562935, 34.0281475]]]}, "properties": {"osm_id": 1386517539, "building": "yes", "name": "", "height": null, "height_m": null, "levels": null, "tract_id": "40023967200", "tract_name": "9672", "tags": {"building": "yes"}}}, {"type": "Feature", "geometry": {"type": "Polygon", "coordinates": [[[-95.555852, 34.0280603], [-95.5557092, 34.0280914], [-95.5556683, 34.0279627], [-95.5558111, 34.0279315], [-95.555852, 34.0280603]]]}, "properties": {"osm_id": 1386517540, "building": "yes", "name": "", "height": null, "height_m": null, "levels": null, "tract_id": "40023967200", "tract_name": "9672", "tags": {"building": "yes"}}}, {"type": "Feature", "geometry": {"type": "Polygon", "coordinates": [[[-95.5577308, 34.027459], [-95.557731, 34.0273895], [-95.5577543, 34.0273895], [-95.5577543, 34.0273722], [-95.5578388, 34.0273723], [-95.5578382, 34.0276413], [-95.5577303, 34.0276411], [-95.5577306, 34.0275435], [-95.5576926, 34.0275435], [-95.5576929, 34.0274589], [-95.5577308, 34.027459]]]}, "properties": {"osm_id": 1386517542, "building": "yes", "name": "", "height": null, "height_m": null, "levels": null, "tract_id": "40023967200", "tract_name": "9672", "tags": {"building": "yes"}}}, {"type": "Feature", "geometry": {"type": "Polygon", "coordinates": [[[-95.5577054, 34.0279492], [-95.5575994, 34.0279475], [-95.5576014, 34.0278632], [-95.5577073, 34.0278648], [-95.5577054, 34.0279492]]]}, "properties": {"osm_id": 1386517543, "building": "yes", "name": "", "height": null, "height_m": null, "levels": null, "tract_id": "40023967200", "tract_name": "9672", "tags": {"building": "yes"}}}, {"type": "Feature", "geometry": {"type": "Polygon", "coordinates": [[[-95.5577189, 34.028409], [-95.5577322, 34.0284549], [-95.5576022, 34.0284807], [-95.5575922, 34.0284461], [-95.557576, 34.0284493], [-95.5575435, 34.028337], [-95.5575596, 34.0283337], [-95.5575425, 34.0282745], [-95.5576434, 34.0282544], [-95.5576515, 34.0282823], [-95.5576806, 34.0282765], [-95.5576904, 34.0283103], [-95.5577278, 34.0283029], [-95.5577564, 34.0284015], [-95.5577189, 34.028409]]]}, "properties": {"osm_id": 1386517544, "building": "yes", "name": "", "height": null, "height_m": null, "levels": null, "tract_id": "40023967200", "tract_name": "9672", "tags": {"building": "yes"}}}, {"type": "Feature", "geometry": {"type": "Polygon", "coordinates": [[[-95.5577714, 34.0289017], [-95.5576038, 34.0288972], [-95.557607, 34.0288151], [-95.5577746, 34.0288195], [-95.5577714, 34.0289017]]]}, "properties": {"osm_id": 1386517545, "building": "yes", "name": "", "height": null, "height_m": null, "levels": null, "tract_id": "40023967200", "tract_name": "9672", "tags": {"building": "yes"}}}, {"type": "Feature", "geometry": {"type": "Polygon", "coordinates": [[[-95.5577538, 34.0290627], [-95.5578788, 34.0290767], [-95.5578643, 34.0291657], [-95.5577258, 34.0291502], [-95.557723, 34.0291679], [-95.5576327, 34.0291578], [-95.5576501, 34.0290511], [-95.5576963, 34.0290563], [-95.5576978, 34.029047], [-95.5577553, 34.0290534], [-95.5577538, 34.0290627]]]}, "properties": {"osm_id": 1386517546, "building": "yes", "name": "", "height": null, "height_m": null, "levels": null, "tract_id": "40023967200", "tract_name": "9672", "tags": {"building": "yes"}}}, {"type": "Feature", "geometry": {"type": "Polygon", "coordinates": [[[-95.5577139, 34.0292234], [-95.5576237, 34.0292133], [-95.5576326, 34.0291584], [-95.5577229, 34.0291685], [-95.5577139, 34.0292234]]]}, "properties": {"osm_id": 1386517547, "building": "garage", "name": "", "height": null, "height_m": null, "levels": null, "tract_id": "40023967200", "tract_name": "9672", "tags": {"building": "garage"}}}, {"type": "Feature", "geometry": {"type": "Polygon", "coordinates": [[[-95.5573963, 34.0293696], [-95.5573066, 34.0293474], [-95.5573335, 34.0292729], [-95.5574231, 34.0292951], [-95.5573963, 34.0293696]]]}, "properties": {"osm_id": 1386517548, "building": "yes", "name": "", "height": null, "height_m": null, "levels": null, "tract_id": "40023967200", "tract_name": "9672", "tags": {"building": "yes"}}}, {"type": "Feature", "geometry": {"type": "Polygon", "coordinates": [[[-95.5568309, 34.0295527], [-95.5568323, 34.0295841], [-95.5567574, 34.0295865], [-95.5567493, 34.0294148], [-95.5568243, 34.0294124], [-95.5568284, 34.029501], [-95.5568715, 34.0294996], [-95.5568739, 34.0295513], [-95.5568309, 34.0295527]]]}, "properties": {"osm_id": 1386517549, "building": "yes", "name": "", "height": null, "height_m": null, "levels": null, "tract_id": "40023967200", "tract_name": "9672", "tags": {"building": "yes"}}}, {"type": "Feature", "geometry": {"type": "Polygon", "coordinates": [[[-95.5559251, 34.0301098], [-95.5559331, 34.0299975], [-95.555976, 34.0299997], [-95.5559739, 34.0300293], [-95.556032, 34.0300321], [-95.5560289, 34.0300751], [-95.5559965, 34.0300735], [-95.5559937, 34.0301132], [-95.5559251, 34.0301098]]]}, "properties": {"osm_id": 1386517550, "building": "yes", "name": "", "height": null, "height_m": null, "levels": null, "tract_id": "40023967200", "tract_name": "9672", "tags": {"building": "yes"}}}, {"type": "Feature", "geometry": {"type": "Polygon", "coordinates": [[[-95.556084, 34.0301415], [-95.5561068, 34.0299464], [-95.5561533, 34.0299502], [-95.5561305, 34.0301452], [-95.556084, 34.0301415]]]}, "properties": {"osm_id": 1386517551, "building": "yes", "name": "", "height": null, "height_m": null, "levels": null, "tract_id": "40023967200", "tract_name": "9672", "tags": {"building": "yes"}}}, {"type": "Feature", "geometry": {"type": "Polygon", "coordinates": [[[-95.571563, 34.0267515], [-95.5715898, 34.026795], [-95.571524, 34.0268228], [-95.5714973, 34.0267793], [-95.571563, 34.0267515]]]}, "properties": {"osm_id": 1386517642, "building": "yes", "name": "", "height": null, "height_m": null, "levels": null, "tract_id": "40023967200", "tract_name": "9672", "tags": {"building": "yes"}}}, {"type": "Feature", "geometry": {"type": "Polygon", "coordinates": [[[-95.5715657, 34.0267238], [-95.5714611, 34.0267234], [-95.5714617, 34.0265861], [-95.5715664, 34.0265865], [-95.5715657, 34.0267238]]]}, "properties": {"osm_id": 1386517643, "building": "yes", "name": "", "height": null, "height_m": null, "levels": null, "tract_id": "40023967200", "tract_name": "9672", "tags": {"building": "yes"}}}, {"type": "Feature", "geometry": {"type": "Polygon", "coordinates": [[[-95.5717548, 34.026871], [-95.5716079, 34.0268688], [-95.5716099, 34.026781], [-95.5717567, 34.0267832], [-95.5717548, 34.026871]]]}, "properties": {"osm_id": 1386517644, "building": "yes", "name": "", "height": null, "height_m": null, "levels": null, "tract_id": "40023967200", "tract_name": "9672", "tags": {"building": "yes"}}}, {"type": "Feature", "geometry": {"type": "Polygon", "coordinates": [[[-95.5728042, 34.0269127], [-95.5727016, 34.0268999], [-95.5727095, 34.0268567], [-95.5728121, 34.0268695], [-95.5728042, 34.0269127]]]}, "properties": {"osm_id": 1386517645, "building": "yes", "name": "", "height": null, "height_m": null, "levels": null, "tract_id": "40023967200", "tract_name": "9672", "tags": {"building": "yes"}}}, {"type": "Feature", "geometry": {"type": "Polygon", "coordinates": [[[-95.5726426, 34.0265893], [-95.5726473, 34.0264214], [-95.5727277, 34.026423], [-95.5727267, 34.0264592], [-95.5727761, 34.0264602], [-95.5727743, 34.0265235], [-95.5727531, 34.0265231], [-95.5727512, 34.0265914], [-95.5726426, 34.0265893]]]}, "properties": {"osm_id": 1386517646, "building": "yes", "name": "", "height": null, "height_m": null, "levels": null, "tract_id": "40023967200", "tract_name": "9672", "tags": {"building": "yes"}}}, {"type": "Feature", "geometry": {"type": "Polygon", "coordinates": [[[-95.519262, 33.9919914], [-95.5192036, 33.9919879], [-95.5192217, 33.9917794], [-95.5192801, 33.9917829], [-95.519262, 33.9919914]]]}, "properties": {"osm_id": 1387152022, "building": "yes", "name": "", "height": null, "height_m": null, "levels": null, "tract_id": "40023967200", "tract_name": "9672", "tags": {"building": "yes"}}}, {"type": "Feature", "geometry": {"type": "Polygon", "coordinates": [[[-95.5194692, 33.9915488], [-95.5193771, 33.9915521], [-95.5193711, 33.991437], [-95.5194631, 33.9914337], [-95.5194692, 33.9915488]]]}, "properties": {"osm_id": 1387152023, "building": "yes", "name": "", "height": null, "height_m": null, "levels": null, "tract_id": "40023967200", "tract_name": "9672", "tags": {"building": "yes"}}}, {"type": "Feature", "geometry": {"type": "Polygon", "coordinates": [[[-95.5198755, 33.9916455], [-95.5197427, 33.991645], [-95.5197432, 33.9915777], [-95.5198759, 33.9915783], [-95.5198755, 33.9916455]]]}, "properties": {"osm_id": 1387152024, "building": "yes", "name": "", "height": null, "height_m": null, "levels": null, "tract_id": "40023967200", "tract_name": "9672", "tags": {"building": "yes"}}}, {"type": "Feature", "geometry": {"type": "Polygon", "coordinates": [[[-95.5201437, 33.9916422], [-95.5200727, 33.9916401], [-95.5200754, 33.9915773], [-95.5201464, 33.9915794], [-95.5201437, 33.9916422]]]}, "properties": {"osm_id": 1387152025, "building": "yes", "name": "", "height": null, "height_m": null, "levels": null, "tract_id": "40023967200", "tract_name": "9672", "tags": {"building": "yes"}}}, {"type": "Feature", "geometry": {"type": "Polygon", "coordinates": [[[-95.5204345, 33.9918102], [-95.5204301, 33.9918707], [-95.5203379, 33.9918661], [-95.5203448, 33.9917719], [-95.5202872, 33.991769], [-95.5202923, 33.9917], [-95.5203498, 33.9917029], [-95.5203547, 33.9916359], [-95.5204468, 33.9916405], [-95.5204393, 33.9917436], [-95.5204718, 33.9917453], [-95.5204669, 33.9918118], [-95.5204345, 33.9918102]]]}, "properties": {"osm_id": 1387152026, "building": "yes", "name": "", "height": null, "height_m": null, "levels": null, "tract_id": "40023967200", "tract_name": "9672", "tags": {"building": "yes"}}}, {"type": "Feature", "geometry": {"type": "Polygon", "coordinates": [[[-95.520658, 33.9913342], [-95.5204059, 33.9913342], [-95.5204059, 33.9912908], [-95.520658, 33.9912908], [-95.520658, 33.9913342]]]}, "properties": {"osm_id": 1387152027, "building": "yes", "name": "", "height": null, "height_m": null, "levels": null, "tract_id": "40023967200", "tract_name": "9672", "tags": {"building": "yes"}}}, {"type": "Feature", "geometry": {"type": "Polygon", "coordinates": [[[-95.5207345, 33.9913759], [-95.520671, 33.9913778], [-95.5206663, 33.9912699], [-95.5207298, 33.991268], [-95.5207345, 33.9913759]]]}, "properties": {"osm_id": 1387152028, "building": "yes", "name": "", "height": null, "height_m": null, "levels": null, "tract_id": "40023967200", "tract_name": "9672", "tags": {"building": "yes"}}}, {"type": "Feature", "geometry": {"type": "Polygon", "coordinates": [[[-95.5212229, 33.9907497], [-95.5212217, 33.9906448], [-95.5211827, 33.9906451], [-95.5211819, 33.9905816], [-95.5213174, 33.9905805], [-95.5213187, 33.9906909], [-95.5213091, 33.9906909], [-95.5213098, 33.990749], [-95.5212229, 33.9907497]]]}, "properties": {"osm_id": 1387152029, "building": "yes", "name": "", "height": null, "height_m": null, "levels": null, "tract_id": "40023967200", "tract_name": "9672", "tags": {"building": "yes"}}}, {"type": "Feature", "geometry": {"type": "Polygon", "coordinates": [[[-95.5209853, 33.9906409], [-95.5208673, 33.9906448], [-95.5208642, 33.9905801], [-95.5209822, 33.9905762], [-95.5209853, 33.9906409]]]}, "properties": {"osm_id": 1387152030, "building": "yes", "name": "", "height": null, "height_m": null, "levels": null, "tract_id": "40023967200", "tract_name": "9672", "tags": {"building": "yes"}}}, {"type": "Feature", "geometry": {"type": "Polygon", "coordinates": [[[-95.5221923, 33.988541], [-95.522152, 33.9885419], [-95.5221536, 33.988591], [-95.5220379, 33.9885937], [-95.5220309, 33.9883827], [-95.5221869, 33.9883792], [-95.5221923, 33.988541]]]}, "properties": {"osm_id": 1387152031, "building": "yes", "name": "", "height": null, "height_m": null, "levels": null, "tract_id": "40023967200", "tract_name": "9672", "tags": {"building": "yes"}}}, {"type": "Feature", "geometry": {"type": "Polygon", "coordinates": [[[-95.5217081, 33.9874473], [-95.5217081, 33.9872372], [-95.5218483, 33.9872372], [-95.5218483, 33.9874473], [-95.5217081, 33.9874473]]]}, "properties": {"osm_id": 1387152032, "building": "barn", "name": "", "height": null, "height_m": null, "levels": null, "tract_id": "40023967200", "tract_name": "9672", "tags": {"building": "barn"}}}, {"type": "Feature", "geometry": {"type": "Polygon", "coordinates": [[[-95.5220816, 33.9851711], [-95.5220038, 33.9851713], [-95.5220034, 33.9850938], [-95.5220812, 33.9850935], [-95.5220816, 33.9851711]]]}, "properties": {"osm_id": 1387152033, "building": "yes", "name": "", "height": null, "height_m": null, "levels": null, "tract_id": "40023967200", "tract_name": "9672", "tags": {"building": "yes"}}}, {"type": "Feature", "geometry": {"type": "Polygon", "coordinates": [[[-95.5223247, 33.9849942], [-95.522212, 33.9849899], [-95.5222181, 33.9848828], [-95.5223307, 33.9848872], [-95.5223247, 33.9849942]]]}, "properties": {"osm_id": 1387152034, "building": "yes", "name": "", "height": null, "height_m": null, "levels": null, "tract_id": "40023967200", "tract_name": "9672", "tags": {"building": "yes"}}}, {"type": "Feature", "geometry": {"type": "Polygon", "coordinates": [[[-95.522311, 33.9848447], [-95.5221703, 33.9848378], [-95.52218, 33.9847021], [-95.5223207, 33.984709], [-95.522311, 33.9848447]]]}, "properties": {"osm_id": 1387152035, "building": "yes", "name": "", "height": null, "height_m": null, "levels": null, "tract_id": "40023967200", "tract_name": "9672", "tags": {"building": "yes"}}}, {"type": "Feature", "geometry": {"type": "Polygon", "coordinates": [[[-95.5219107, 33.9846068], [-95.5219173, 33.9844583], [-95.5220168, 33.9844613], [-95.5220135, 33.9845343], [-95.5219985, 33.9845338], [-95.5219981, 33.9845436], [-95.5220385, 33.9845448], [-95.5220356, 33.9846106], [-95.5219107, 33.9846068]]]}, "properties": {"osm_id": 1387152036, "building": "yes", "name": "", "height": null, "height_m": null, "levels": null, "tract_id": "40023967200", "tract_name": "9672", "tags": {"building": "yes"}}}, {"type": "Feature", "geometry": {"type": "Polygon", "coordinates": [[[-95.5199664, 33.9851772], [-95.5199161, 33.9851764], [-95.5199174, 33.9851182], [-95.5199677, 33.985119], [-95.5199664, 33.9851772]]]}, "properties": {"osm_id": 1387152037, "building": "yes", "name": "", "height": null, "height_m": null, "levels": null, "tract_id": "40023967200", "tract_name": "9672", "tags": {"building": "yes"}}}, {"type": "Feature", "geometry": {"type": "Polygon", "coordinates": [[[-95.5200625, 33.9852203], [-95.5200646, 33.9851269], [-95.5201143, 33.9851276], [-95.5201122, 33.9852211], [-95.5200625, 33.9852203]]]}, "properties": {"osm_id": 1387152038, "building": "yes", "name": "", "height": null, "height_m": null, "levels": null, "tract_id": "40023967200", "tract_name": "9672", "tags": {"building": "yes"}}}, {"type": "Feature", "geometry": {"type": "Polygon", "coordinates": [[[-95.5202571, 33.9852233], [-95.520113, 33.9852211], [-95.5201163, 33.9850704], [-95.5202604, 33.9850726], [-95.5202571, 33.9852233]]]}, "properties": {"osm_id": 1387152039, "building": "yes", "name": "", "height": null, "height_m": null, "levels": null, "tract_id": "40023967200", "tract_name": "9672", "tags": {"building": "yes"}}}, {"type": "Feature", "geometry": {"type": "Polygon", "coordinates": [[[-95.520125, 33.9848797], [-95.5201297, 33.984788], [-95.5202214, 33.9847912], [-95.5202167, 33.9848829], [-95.520125, 33.9848797]]]}, "properties": {"osm_id": 1387152040, "building": "yes", "name": "", "height": null, "height_m": null, "levels": null, "tract_id": "40023967200", "tract_name": "9672", "tags": {"building": "yes"}}}, {"type": "Feature", "geometry": {"type": "Polygon", "coordinates": [[[-95.5205671, 33.9839996], [-95.5205617, 33.9840494], [-95.520551, 33.9840486], [-95.5205452, 33.9841026], [-95.520409, 33.9840926], [-95.520419, 33.9839991], [-95.5203787, 33.9839961], [-95.5203894, 33.9838955], [-95.5205768, 33.9839093], [-95.5205747, 33.9839285], [-95.5205966, 33.9839301], [-95.520589, 33.9840012], [-95.5205671, 33.9839996]]]}, "properties": {"osm_id": 1387152041, "building": "yes", "name": "", "height": null, "height_m": null, "levels": null, "tract_id": "40023967200", "tract_name": "9672", "tags": {"building": "yes"}}}, {"type": "Feature", "geometry": {"type": "Polygon", "coordinates": [[[-95.5200693, 33.9837605], [-95.5198963, 33.9837488], [-95.519908, 33.98363], [-95.520081, 33.9836417], [-95.5200693, 33.9837605]]]}, "properties": {"osm_id": 1387152042, "building": "yes", "name": "", "height": null, "height_m": null, "levels": null, "tract_id": "40023967200", "tract_name": "9672", "tags": {"building": "yes"}}}, {"type": "Feature", "geometry": {"type": "Polygon", "coordinates": [[[-95.5201565, 33.9835308], [-95.5200293, 33.9835315], [-95.520029, 33.9834865], [-95.5200609, 33.9834863], [-95.52006, 33.9833651], [-95.5202269, 33.9833642], [-95.5202278, 33.9834693], [-95.520156, 33.9834697], [-95.5201565, 33.9835308]]]}, "properties": {"osm_id": 1387152043, "building": "yes", "name": "", "height": null, "height_m": null, "levels": null, "tract_id": "40023967200", "tract_name": "9672", "tags": {"building": "yes"}}}, {"type": "Feature", "geometry": {"type": "Polygon", "coordinates": [[[-95.5218177, 33.9841107], [-95.5218216, 33.9840113], [-95.5219194, 33.984014], [-95.5219126, 33.9841841], [-95.5218149, 33.9841815], [-95.5218159, 33.9841545], [-95.5217812, 33.9841536], [-95.5217829, 33.9841098], [-95.5218177, 33.9841107]]]}, "properties": {"osm_id": 1387152044, "building": "yes", "name": "", "height": null, "height_m": null, "levels": null, "tract_id": "40023967200", "tract_name": "9672", "tags": {"building": "yes"}}}, {"type": "Feature", "geometry": {"type": "Polygon", "coordinates": [[[-95.5219267, 33.9840029], [-95.5218087, 33.9839997], [-95.5218107, 33.9839495], [-95.5219287, 33.9839527], [-95.5219267, 33.9840029]]]}, "properties": {"osm_id": 1387152045, "building": "yes", "name": "", "height": null, "height_m": null, "levels": null, "tract_id": "40023967200", "tract_name": "9672", "tags": {"building": "yes"}}}, {"type": "Feature", "geometry": {"type": "Polygon", "coordinates": [[[-95.5221346, 33.9834774], [-95.5220112, 33.983473], [-95.5220136, 33.9834284], [-95.5221369, 33.9834328], [-95.5221346, 33.9834774]]]}, "properties": {"osm_id": 1387152046, "building": "yes", "name": "", "height": null, "height_m": null, "levels": null, "tract_id": "40023967200", "tract_name": "9672", "tags": {"building": "yes"}}}, {"type": "Feature", "geometry": {"type": "Polygon", "coordinates": [[[-95.5223016, 33.9838639], [-95.5222057, 33.9838605], [-95.5222087, 33.9838015], [-95.5223046, 33.9838048], [-95.5223016, 33.9838639]]]}, "properties": {"osm_id": 1387152047, "building": "yes", "name": "", "height": null, "height_m": null, "levels": null, "tract_id": "40023967200", "tract_name": "9672", "tags": {"building": "yes"}}}, {"type": "Feature", "geometry": {"type": "Polygon", "coordinates": [[[-95.5220309, 33.9836898], [-95.5221215, 33.9836884], [-95.5221232, 33.9837639], [-95.5220326, 33.9837653], [-95.5220309, 33.9836898]]]}, "properties": {"osm_id": 1387152048, "building": "yes", "name": "", "height": null, "height_m": null, "levels": null, "tract_id": "40023967200", "tract_name": "9672", "tags": {"building": "yes"}}}, {"type": "Feature", "geometry": {"type": "Polygon", "coordinates": [[[-95.5221809, 33.9838578], [-95.5220347, 33.98386], [-95.5220326, 33.9837659], [-95.5221788, 33.9837637], [-95.5221809, 33.9838578]]]}, "properties": {"osm_id": 1387152049, "building": "yes", "name": "", "height": null, "height_m": null, "levels": null, "tract_id": "40023967200", "tract_name": "9672", "tags": {"building": "yes"}}}, {"type": "Feature", "geometry": {"type": "Polygon", "coordinates": [[[-95.5219864, 33.9837343], [-95.5218384, 33.9837336], [-95.521839, 33.983648], [-95.5218717, 33.9836481], [-95.5218724, 33.983543], [-95.5219878, 33.9835436], [-95.5219864, 33.9837343]]]}, "properties": {"osm_id": 1387152050, "building": "yes", "name": "", "height": null, "height_m": null, "levels": null, "tract_id": "40023967200", "tract_name": "9672", "tags": {"building": "yes"}}}, {"type": "Feature", "geometry": {"type": "Polygon", "coordinates": [[[-95.5219924, 33.9830209], [-95.5219089, 33.9830204], [-95.5219093, 33.9829715], [-95.5219929, 33.982972], [-95.5219924, 33.9830209]]]}, "properties": {"osm_id": 1387152051, "building": "yes", "name": "", "height": null, "height_m": null, "levels": null, "tract_id": "40023967200", "tract_name": "9672", "tags": {"building": "yes"}}}, {"type": "Feature", "geometry": {"type": "Polygon", "coordinates": [[[-95.5219475, 33.9830838], [-95.5218907, 33.9830834], [-95.5218912, 33.9830237], [-95.521948, 33.9830241], [-95.5219475, 33.9830838]]]}, "properties": {"osm_id": 1387152052, "building": "yes", "name": "", "height": null, "height_m": null, "levels": null, "tract_id": "40023967200", "tract_name": "9672", "tags": {"building": "yes"}}}, {"type": "Feature", "geometry": {"type": "Polygon", "coordinates": [[[-95.5218818, 33.9830137], [-95.5217932, 33.9830132], [-95.5217946, 33.9828619], [-95.5218831, 33.9828625], [-95.5218818, 33.9830137]]]}, "properties": {"osm_id": 1387152053, "building": "yes", "name": "", "height": null, "height_m": null, "levels": null, "tract_id": "40023967200", "tract_name": "9672", "tags": {"building": "yes"}}}, {"type": "Feature", "geometry": {"type": "Polygon", "coordinates": [[[-95.5210423, 34.0231192], [-95.5209336, 34.0231153], [-95.5209387, 34.0230175], [-95.5210474, 34.0230214], [-95.5210423, 34.0231192]]]}, "properties": {"osm_id": 1387434670, "building": "yes", "name": "", "height": null, "height_m": null, "levels": null, "tract_id": "40023967200", "tract_name": "9672", "tags": {"building": "yes"}}}, {"type": "Feature", "geometry": {"type": "Polygon", "coordinates": [[[-95.521001, 34.0233557], [-95.5209171, 34.0233586], [-95.5209135, 34.023287], [-95.5209975, 34.0232841], [-95.521001, 34.0233557]]]}, "properties": {"osm_id": 1387434671, "building": "yes", "name": "", "height": null, "height_m": null, "levels": null, "tract_id": "40023967200", "tract_name": "9672", "tags": {"building": "yes"}}}, {"type": "Feature", "geometry": {"type": "Polygon", "coordinates": [[[-95.5209087, 34.0234512], [-95.5209041, 34.0233598], [-95.521035, 34.0233553], [-95.5210423, 34.0235017], [-95.5210147, 34.0235027], [-95.5210182, 34.0235719], [-95.5209149, 34.0235754], [-95.5209113, 34.0235032], [-95.5208632, 34.0235049], [-95.5208606, 34.0234528], [-95.5209087, 34.0234512]]]}, "properties": {"osm_id": 1387434672, "building": "yes", "name": "", "height": null, "height_m": null, "levels": null, "tract_id": "40023967200", "tract_name": "9672", "tags": {"building": "yes"}}}, {"type": "Feature", "geometry": {"type": "Polygon", "coordinates": [[[-95.5214875, 34.0265148], [-95.5214104, 34.0265148], [-95.5214104, 34.0264653], [-95.5214875, 34.0264653], [-95.5214875, 34.0265148]]]}, "properties": {"osm_id": 1387434673, "building": "yes", "name": "", "height": null, "height_m": null, "levels": null, "tract_id": "40023967200", "tract_name": "9672", "tags": {"building": "yes"}}}, {"type": "Feature", "geometry": {"type": "Polygon", "coordinates": [[[-95.5214734, 34.0262558], [-95.5214902, 34.0262558], [-95.5214902, 34.0263875], [-95.5214795, 34.0263875], [-95.5214795, 34.0264098], [-95.5213936, 34.0264098], [-95.5213936, 34.0263875], [-95.5213856, 34.0263875], [-95.5213856, 34.0262558], [-95.521395, 34.0262558], [-95.521395, 34.0262386], [-95.5214734, 34.0262386], [-95.5214734, 34.0262558]]]}, "properties": {"osm_id": 1387434674, "building": "yes", "name": "", "height": null, "height_m": null, "levels": null, "tract_id": "40023967200", "tract_name": "9672", "tags": {"building": "yes"}}}, {"type": "Feature", "geometry": {"type": "Polygon", "coordinates": [[[-95.5256587, 34.0299348], [-95.5255597, 34.0299386], [-95.5255558, 34.0298695], [-95.5256548, 34.0298656], [-95.5256587, 34.0299348]]]}, "properties": {"osm_id": 1387434678, "building": "yes", "name": "", "height": null, "height_m": null, "levels": null, "tract_id": "40023967200", "tract_name": "9672", "tags": {"building": "yes"}}}, {"type": "Feature", "geometry": {"type": "Polygon", "coordinates": [[[-95.5254217, 34.0297504], [-95.5254247, 34.0298035], [-95.5253358, 34.0298069], [-95.5253251, 34.0296185], [-95.5254139, 34.0296151], [-95.5254172, 34.0296718], [-95.5254775, 34.0296694], [-95.525482, 34.029748], [-95.5254217, 34.0297504]]]}, "properties": {"osm_id": 1387434679, "building": "yes", "name": "", "height": null, "height_m": null, "levels": null, "tract_id": "40023967200", "tract_name": "9672", "tags": {"building": "yes"}}}, {"type": "Feature", "geometry": {"type": "Polygon", "coordinates": [[[-95.5158882, 34.0107877], [-95.5157044, 34.0108058], [-95.5156284, 34.0102745], [-95.5155673, 34.0102805], [-95.515557, 34.0102085], [-95.5159556, 34.0101693], [-95.516042, 34.0107726], [-95.5160331, 34.0107735], [-95.5160366, 34.0107981], [-95.5158917, 34.0108124], [-95.5158882, 34.0107877]]]}, "properties": {"osm_id": 1389900513, "building": "yes", "name": "", "height": null, "height_m": null, "levels": null, "tract_id": "40023967200", "tract_name": "9672", "tags": {"building": "yes"}}}, {"type": "Feature", "geometry": {"type": "Polygon", "coordinates": [[[-95.5162411, 34.0101417], [-95.5161415, 34.0101303], [-95.5161811, 34.0098929], [-95.5162807, 34.0099043], [-95.5162411, 34.0101417]]]}, "properties": {"osm_id": 1389900514, "building": "yes", "name": "", "height": null, "height_m": null, "levels": null, "tract_id": "40023967200", "tract_name": "9672", "tags": {"building": "yes"}}}, {"type": "Feature", "geometry": {"type": "Polygon", "coordinates": [[[-95.5168346, 34.0100327], [-95.5164959, 34.0099927], [-95.5165078, 34.0099238], [-95.5168464, 34.0099638], [-95.5168346, 34.0100327]]]}, "properties": {"osm_id": 1389900515, "building": "yes", "name": "", "height": null, "height_m": null, "levels": null, "tract_id": "40023967200", "tract_name": "9672", "tags": {"building": "yes"}}}, {"type": "Feature", "geometry": {"type": "Polygon", "coordinates": [[[-95.5183212, 34.0084864], [-95.5181606, 34.0084686], [-95.5181941, 34.0082607], [-95.5183547, 34.0082785], [-95.5183212, 34.0084864]]]}, "properties": {"osm_id": 1389900516, "building": "yes", "name": "", "height": null, "height_m": null, "levels": null, "tract_id": "40023967200", "tract_name": "9672", "tags": {"building": "yes"}}}, {"type": "Feature", "geometry": {"type": "Polygon", "coordinates": [[[-95.5172201, 34.0082612], [-95.5170465, 34.0082412], [-95.5170533, 34.0082004], [-95.517227, 34.0082204], [-95.5172201, 34.0082612]]]}, "properties": {"osm_id": 1389900517, "building": "yes", "name": "", "height": null, "height_m": null, "levels": null, "tract_id": "40023967200", "tract_name": "9672", "tags": {"building": "yes"}}}, {"type": "Feature", "geometry": {"type": "Polygon", "coordinates": [[[-95.5168158, 34.0083335], [-95.5166957, 34.008322], [-95.5167174, 34.0081656], [-95.5166831, 34.0081623], [-95.5166939, 34.0080847], [-95.5168483, 34.0080994], [-95.5168158, 34.0083335]]]}, "properties": {"osm_id": 1389900518, "building": "yes", "name": "", "height": null, "height_m": null, "levels": null, "tract_id": "40023967200", "tract_name": "9672", "tags": {"building": "yes"}}}, {"type": "Feature", "geometry": {"type": "Polygon", "coordinates": [[[-95.5162693, 34.0081306], [-95.5161079, 34.0081124], [-95.5161206, 34.0080348], [-95.516282, 34.0080531], [-95.5162693, 34.0081306]]]}, "properties": {"osm_id": 1389900519, "building": "yes", "name": "", "height": null, "height_m": null, "levels": null, "tract_id": "40023967200", "tract_name": "9672", "tags": {"building": "yes"}}}, {"type": "Feature", "geometry": {"type": "Polygon", "coordinates": [[[-95.5159541, 34.0082924], [-95.5157563, 34.00827], [-95.5157834, 34.0081053], [-95.5159812, 34.0081277], [-95.5159541, 34.0082924]]]}, "properties": {"osm_id": 1389900520, "building": "yes", "name": "", "height": null, "height_m": null, "levels": null, "tract_id": "40023967200", "tract_name": "9672", "tags": {"building": "yes"}}}, {"type": "Feature", "geometry": {"type": "Polygon", "coordinates": [[[-95.5290641, 34.0436976], [-95.5289795, 34.0437271], [-95.5289426, 34.0436543], [-95.5290272, 34.0436248], [-95.5290641, 34.0436976]]]}, "properties": {"osm_id": 1391527610, "building": "yes", "name": "", "height": null, "height_m": null, "levels": null, "tract_id": "40023967200", "tract_name": "9672", "tags": {"building": "yes"}}}, {"type": "Feature", "geometry": {"type": "Polygon", "coordinates": [[[-95.5289079, 34.0438704], [-95.5287857, 34.0439388], [-95.5286992, 34.0438327], [-95.5288213, 34.0437643], [-95.5289079, 34.0438704]]]}, "properties": {"osm_id": 1391527611, "building": "yes", "name": "", "height": null, "height_m": null, "levels": null, "tract_id": "40023967200", "tract_name": "9672", "tags": {"building": "yes"}}}, {"type": "Feature", "geometry": {"type": "Polygon", "coordinates": [[[-95.531812, 34.0432754], [-95.5315948, 34.0432654], [-95.5316046, 34.0431178], [-95.5318219, 34.0431278], [-95.531812, 34.0432754]]]}, "properties": {"osm_id": 1391527612, "building": "yes", "name": "", "height": null, "height_m": null, "levels": null, "tract_id": "40023967200", "tract_name": "9672", "tags": {"building": "yes"}}}, {"type": "Feature", "geometry": {"type": "Polygon", "coordinates": [[[-95.5318657, 34.0429164], [-95.5317484, 34.0428983], [-95.5317786, 34.0427644], [-95.5318958, 34.0427825], [-95.5318657, 34.0429164]]]}, "properties": {"osm_id": 1391527613, "building": "yes", "name": "", "height": null, "height_m": null, "levels": null, "tract_id": "40023967200", "tract_name": "9672", "tags": {"building": "yes"}}}, {"type": "Feature", "geometry": {"type": "Polygon", "coordinates": [[[-95.5316017, 34.0426051], [-95.5315066, 34.0425978], [-95.531514, 34.0425316], [-95.5316091, 34.0425389], [-95.5316017, 34.0426051]]]}, "properties": {"osm_id": 1391527614, "building": "yes", "name": "", "height": null, "height_m": null, "levels": null, "tract_id": "40023967200", "tract_name": "9672", "tags": {"building": "yes"}}}, {"type": "Feature", "geometry": {"type": "Polygon", "coordinates": [[[-95.5318489, 34.0426275], [-95.5316018, 34.0426086], [-95.5316206, 34.0424397], [-95.5317239, 34.0424476], [-95.5317208, 34.0424752], [-95.5318006, 34.0424813], [-95.5318019, 34.0424695], [-95.531866, 34.0424745], [-95.5318489, 34.0426275]]]}, "properties": {"osm_id": 1391527615, "building": "detached", "name": "", "height": null, "height_m": null, "levels": null, "tract_id": "40023967200", "tract_name": "9672", "tags": {"building": "detached"}}}, {"type": "Feature", "geometry": {"type": "Polygon", "coordinates": [[[-95.5334569, 34.0499471], [-95.5332889, 34.0499514], [-95.5332808, 34.0497341], [-95.5334488, 34.0497299], [-95.5334569, 34.0499471]]]}, "properties": {"osm_id": 1391527620, "building": "yes", "name": "", "height": null, "height_m": null, "levels": null, "tract_id": "40023967200", "tract_name": "9672", "tags": {"building": "yes"}}}, {"type": "Feature", "geometry": {"type": "Polygon", "coordinates": [[[-95.5296636, 34.0483475], [-95.5295978, 34.0483456], [-95.5296002, 34.0482895], [-95.5296659, 34.0482914], [-95.5296636, 34.0483475]]]}, "properties": {"osm_id": 1391527635, "building": "yes", "name": "", "height": null, "height_m": null, "levels": null, "tract_id": "40023967200", "tract_name": "9672", "tags": {"building": "yes"}}}, {"type": "Feature", "geometry": {"type": "Polygon", "coordinates": [[[-95.5294644, 34.0483274], [-95.5294015, 34.0483256], [-95.5294061, 34.0482181], [-95.5296354, 34.0482248], [-95.5296327, 34.0482876], [-95.5295784, 34.0482861], [-95.5295766, 34.0483307], [-95.5295251, 34.0483292], [-95.5295248, 34.0483375], [-95.5294641, 34.0483358], [-95.5294644, 34.0483274]]]}, "properties": {"osm_id": 1391527636, "building": "yes", "name": "", "height": null, "height_m": null, "levels": null, "tract_id": "40023967200", "tract_name": "9672", "tags": {"building": "yes"}}}, {"type": "Feature", "geometry": {"type": "Polygon", "coordinates": [[[-95.5301598, 34.0483014], [-95.5299566, 34.0483025], [-95.5299556, 34.0481714], [-95.5300431, 34.0481709], [-95.5300425, 34.0480933], [-95.5301581, 34.0480927], [-95.5301598, 34.0483014]]]}, "properties": {"osm_id": 1391527637, "building": "yes", "name": "", "height": null, "height_m": null, "levels": null, "tract_id": "40023967200", "tract_name": "9672", "tags": {"building": "yes"}}}, {"type": "Feature", "geometry": {"type": "Polygon", "coordinates": [[[-95.5514281, 33.9963379], [-95.55136, 33.9963092], [-95.5514029, 33.9962392], [-95.551471, 33.9962679], [-95.5514281, 33.9963379]]]}, "properties": {"osm_id": 1415834399, "building": "garage", "name": "", "height": null, "height_m": null, "levels": null, "tract_id": "40023967200", "tract_name": "9672", "tags": {"building": "garage"}}}, {"type": "Feature", "geometry": {"type": "Polygon", "coordinates": [[[-95.5513455, 33.9963317], [-95.5512835, 33.9963056], [-95.5512921, 33.9962915], [-95.5512411, 33.99627], [-95.5512985, 33.9961762], [-95.5514116, 33.9962238], [-95.5513455, 33.9963317]]]}, "properties": {"osm_id": 1415834400, "building": "detached", "name": "", "height": null, "height_m": null, "levels": null, "tract_id": "40023967200", "tract_name": "9672", "tags": {"building": "detached"}}}, {"type": "Feature", "geometry": {"type": "Polygon", "coordinates": [[[-95.551568, 33.9958871], [-95.5515651, 33.9959264], [-95.5514422, 33.9959201], [-95.5514526, 33.9957795], [-95.5515755, 33.9957857], [-95.5515727, 33.9958244], [-95.5515792, 33.9958247], [-95.5515745, 33.9958875], [-95.551568, 33.9958871]]]}, "properties": {"osm_id": 1415834401, "building": "yes", "name": "", "height": null, "height_m": null, "levels": null, "tract_id": "40023967200", "tract_name": "9672", "tags": {"building": "yes"}}}, {"type": "Feature", "geometry": {"type": "Polygon", "coordinates": [[[-95.5511263, 33.9955078], [-95.5510657, 33.9955064], [-95.5510677, 33.9954471], [-95.5511283, 33.9954486], [-95.5511263, 33.9955078]]]}, "properties": {"osm_id": 1415834402, "building": "yes", "name": "", "height": null, "height_m": null, "levels": null, "tract_id": "40023967200", "tract_name": "9672", "tags": {"building": "yes"}}}, {"type": "Feature", "geometry": {"type": "Polygon", "coordinates": [[[-95.5514735, 33.9950644], [-95.5514961, 33.9951359], [-95.5513737, 33.9951625], [-95.5513511, 33.995091], [-95.5514735, 33.9950644]]]}, "properties": {"osm_id": 1415834403, "building": "garage", "name": "", "height": null, "height_m": null, "levels": null, "tract_id": "40023967200", "tract_name": "9672", "tags": {"building": "garage"}}}, {"type": "Feature", "geometry": {"type": "Polygon", "coordinates": [[[-95.5516983, 33.9952437], [-95.5515747, 33.9952707], [-95.5515356, 33.9951474], [-95.5515027, 33.9951545], [-95.5514741, 33.9950642], [-95.5516307, 33.9950302], [-95.5516983, 33.9952437]]]}, "properties": {"osm_id": 1415834404, "building": "detached", "name": "", "height": null, "height_m": null, "levels": null, "tract_id": "40023967200", "tract_name": "9672", "tags": {"building": "detached"}}}, {"type": "Feature", "geometry": {"type": "Polygon", "coordinates": [[[-95.5517546, 33.9947645], [-95.5515873, 33.9947592], [-95.5515911, 33.9946753], [-95.5517584, 33.9946806], [-95.5517546, 33.9947645]]]}, "properties": {"osm_id": 1415834405, "building": "yes", "name": "", "height": null, "height_m": null, "levels": null, "tract_id": "40023967200", "tract_name": "9672", "tags": {"building": "yes"}}}, {"type": "Feature", "geometry": {"type": "Polygon", "coordinates": [[[-95.5471234, 33.9965235], [-95.547197, 33.9966204], [-95.5471199, 33.9966606], [-95.5471579, 33.9967106], [-95.5470848, 33.9967488], [-95.5469732, 33.9966019], [-95.5471234, 33.9965235]]]}, "properties": {"osm_id": 1415834407, "building": "yes", "name": "", "height": null, "height_m": null, "levels": null, "tract_id": "40023967200", "tract_name": "9672", "tags": {"building": "yes"}}}, {"type": "Feature", "geometry": {"type": "Polygon", "coordinates": [[[-95.5469906, 33.9970394], [-95.5468914, 33.9970434], [-95.5468834, 33.9969055], [-95.5469826, 33.9969015], [-95.5469906, 33.9970394]]]}, "properties": {"osm_id": 1415834408, "building": "yes", "name": "", "height": null, "height_m": null, "levels": null, "tract_id": "40023967200", "tract_name": "9672", "tags": {"building": "yes"}}}, {"type": "Feature", "geometry": {"type": "Polygon", "coordinates": [[[-95.5400491, 33.9955945], [-95.5399764, 33.9955423], [-95.5400669, 33.9954556], [-95.5401396, 33.9955078], [-95.5400491, 33.9955945]]]}, "properties": {"osm_id": 1415834409, "building": "yes", "name": "", "height": null, "height_m": null, "levels": null, "tract_id": "40023967200", "tract_name": "9672", "tags": {"building": "yes"}}}, {"type": "Feature", "geometry": {"type": "Polygon", "coordinates": [[[-95.5402167, 33.9957579], [-95.5401188, 33.995864], [-95.5399163, 33.9957356], [-95.5400142, 33.9956295], [-95.5402167, 33.9957579]]]}, "properties": {"osm_id": 1415834410, "building": "yes", "name": "", "height": null, "height_m": null, "levels": null, "tract_id": "40023967200", "tract_name": "9672", "tags": {"building": "yes"}}}, {"type": "Feature", "geometry": {"type": "Polygon", "coordinates": [[[-95.5396676, 33.9950915], [-95.5396289, 33.995047], [-95.5396944, 33.995008], [-95.539809, 33.99514], [-95.5397436, 33.9951791], [-95.5396962, 33.9951245], [-95.5396819, 33.9951331], [-95.5396533, 33.9951001], [-95.5396676, 33.9950915]]]}, "properties": {"osm_id": 1415834411, "building": "yes", "name": "", "height": null, "height_m": null, "levels": null, "tract_id": "40023967200", "tract_name": "9672", "tags": {"building": "yes"}}}, {"type": "Feature", "geometry": {"type": "Polygon", "coordinates": [[[-95.5392842, 33.9948064], [-95.5392853, 33.9948134], [-95.5391532, 33.9948278], [-95.539135, 33.994713], [-95.5391908, 33.9947069], [-95.5391865, 33.9946798], [-95.5392627, 33.9946714], [-95.5392714, 33.994726], [-95.5393704, 33.9947152], [-95.5393832, 33.9947956], [-95.5392842, 33.9948064]]]}, "properties": {"osm_id": 1415834412, "building": "yes", "name": "", "height": null, "height_m": null, "levels": null, "tract_id": "40023967200", "tract_name": "9672", "tags": {"building": "yes"}}}, {"type": "Feature", "geometry": {"type": "Polygon", "coordinates": [[[-95.5263276, 33.9986243], [-95.5261569, 33.9986193], [-95.5261587, 33.9985776], [-95.5262387, 33.99858], [-95.5262397, 33.9985549], [-95.5262763, 33.9985559], [-95.5262752, 33.998581], [-95.5264158, 33.9985851], [-95.5264141, 33.9986268], [-95.526353, 33.998625], [-95.5263524, 33.9986399], [-95.526327, 33.9986391], [-95.5263276, 33.9986243]]]}, "properties": {"osm_id": 1415835231, "building": "yes", "name": "", "height": null, "height_m": null, "levels": null, "tract_id": "40023967200", "tract_name": "9672", "tags": {"building": "yes"}}}, {"type": "Feature", "geometry": {"type": "Polygon", "coordinates": [[[-95.5263742, 33.9982983], [-95.5263108, 33.9982985], [-95.5263105, 33.9982438], [-95.5263739, 33.9982436], [-95.5263742, 33.9982983]]]}, "properties": {"osm_id": 1415835232, "building": "yes", "name": "", "height": null, "height_m": null, "levels": null, "tract_id": "40023967200", "tract_name": "9672", "tags": {"building": "yes"}}}, {"type": "Feature", "geometry": {"type": "Polygon", "coordinates": [[[-95.5262996, 33.9981338], [-95.5262994, 33.9980926], [-95.526403, 33.9980922], [-95.5264037, 33.9982077], [-95.5263, 33.9982081], [-95.5262998, 33.9981684], [-95.5262883, 33.9981685], [-95.5262881, 33.9981338], [-95.5262996, 33.9981338]]]}, "properties": {"osm_id": 1415835233, "building": "yes", "name": "", "height": null, "height_m": null, "levels": null, "tract_id": "40023967200", "tract_name": "9672", "tags": {"building": "yes"}}}, {"type": "Feature", "geometry": {"type": "Polygon", "coordinates": [[[-95.5266763, 33.998288], [-95.5265877, 33.9982858], [-95.5265908, 33.9982033], [-95.5266793, 33.9982056], [-95.5266763, 33.998288]]]}, "properties": {"osm_id": 1415835234, "building": "yes", "name": "", "height": null, "height_m": null, "levels": null, "tract_id": "40023967200", "tract_name": "9672", "tags": {"building": "yes"}}}, {"type": "Feature", "geometry": {"type": "Polygon", "coordinates": [[[-95.5290902, 33.997746], [-95.5289709, 33.9977493], [-95.5289676, 33.9976697], [-95.529087, 33.9976663], [-95.5290902, 33.997746]]]}, "properties": {"osm_id": 1415835237, "building": "yes", "name": "", "height": null, "height_m": null, "levels": null, "tract_id": "40023967200", "tract_name": "9672", "tags": {"building": "yes"}}}, {"type": "Feature", "geometry": {"type": "Polygon", "coordinates": [[[-95.5297336, 33.9973846], [-95.5296512, 33.9973819], [-95.5296535, 33.997334], [-95.529736, 33.9973368], [-95.5297336, 33.9973846]]]}, "properties": {"osm_id": 1415835238, "building": "yes", "name": "", "height": null, "height_m": null, "levels": null, "tract_id": "40023967200", "tract_name": "9672", "tags": {"building": "yes"}}}, {"type": "Feature", "geometry": {"type": "Polygon", "coordinates": [[[-95.5294705, 33.9973644], [-95.5294668, 33.9974395], [-95.5293082, 33.9974342], [-95.5293119, 33.9973591], [-95.5294705, 33.9973644]]]}, "properties": {"osm_id": 1415835239, "building": "yes", "name": "", "height": null, "height_m": null, "levels": null, "tract_id": "40023967200", "tract_name": "9672", "tags": {"building": "yes"}}}, {"type": "Feature", "geometry": {"type": "Polygon", "coordinates": [[[-95.5721407, 34.0552858], [-95.5721405, 34.0553471], [-95.572042, 34.0553469], [-95.5720421, 34.0553048], [-95.5720159, 34.0553047], [-95.572016, 34.0552856], [-95.5721407, 34.0552858]]]}, "properties": {"osm_id": 1418972587, "building": "yes", "name": "", "height": null, "height_m": null, "levels": null, "tract_id": "40023967200", "tract_name": "9672", "tags": {"building": "yes"}}}, {"type": "Feature", "geometry": {"type": "Polygon", "coordinates": [[[-95.5721947, 34.0555994], [-95.5720964, 34.0556005], [-95.5720956, 34.0555469], [-95.5720486, 34.0555475], [-95.5720478, 34.0554995], [-95.5722598, 34.0554971], [-95.5722601, 34.0555165], [-95.5721933, 34.0555172], [-95.5721947, 34.0555994]]]}, "properties": {"osm_id": 1418972588, "building": "yes", "name": "", "height": null, "height_m": null, "levels": null, "tract_id": "40023967200", "tract_name": "9672", "tags": {"building": "yes"}}}, {"type": "Feature", "geometry": {"type": "Polygon", "coordinates": [[[-95.5257361, 33.9898931], [-95.5255993, 33.9898931], [-95.5255993, 33.9898014], [-95.5257361, 33.9898014], [-95.5257361, 33.9898931]]]}, "properties": {"osm_id": 1421184917, "building": "yes", "name": "", "height": null, "height_m": null, "levels": null, "tract_id": "40023967200", "tract_name": "9672", "tags": {"building": "yes"}}}, {"type": "Feature", "geometry": {"type": "Polygon", "coordinates": [[[-95.5246817, 33.9846657], [-95.5246793, 33.9847246], [-95.5245307, 33.9847206], [-95.5245343, 33.9846293], [-95.5245194, 33.9846289], [-95.5245214, 33.9845775], [-95.5245363, 33.9845779], [-95.524538, 33.9845332], [-95.5246867, 33.9845372], [-95.524685, 33.9845809], [-95.5247021, 33.9845814], [-95.5246988, 33.9846662], [-95.5246817, 33.9846657]]]}, "properties": {"osm_id": 1421184918, "building": "yes", "name": "", "height": null, "height_m": null, "levels": null, "tract_id": "40023967200", "tract_name": "9672", "tags": {"building": "yes"}}}, {"type": "Feature", "geometry": {"type": "Polygon", "coordinates": [[[-95.5246693, 33.9852817], [-95.5246116, 33.9852834], [-95.5246089, 33.9852189], [-95.5246666, 33.9852172], [-95.5246693, 33.9852817]]]}, "properties": {"osm_id": 1421184919, "building": "yes", "name": "", "height": null, "height_m": null, "levels": null, "tract_id": "40023967200", "tract_name": "9672", "tags": {"building": "yes"}}}, {"type": "Feature", "geometry": {"type": "Polygon", "coordinates": [[[-95.5247384, 33.988457], [-95.5246929, 33.9884569], [-95.5246936, 33.98832], [-95.524739, 33.9883201], [-95.5247384, 33.988457]]]}, "properties": {"osm_id": 1421184925, "building": "yes", "name": "", "height": null, "height_m": null, "levels": null, "tract_id": "40023967200", "tract_name": "9672", "tags": {"building": "yes"}}}, {"type": "Feature", "geometry": {"type": "Polygon", "coordinates": [[[-95.5246807, 33.9885082], [-95.5246241, 33.988508], [-95.5246244, 33.9884526], [-95.524681, 33.9884528], [-95.5246807, 33.9885082]]]}, "properties": {"osm_id": 1421184926, "building": "yes", "name": "", "height": null, "height_m": null, "levels": null, "tract_id": "40023967200", "tract_name": "9672", "tags": {"building": "yes"}}}, {"type": "Feature", "geometry": {"type": "Polygon", "coordinates": [[[-95.5245724, 33.9886082], [-95.5245727, 33.9885478], [-95.5246773, 33.9885482], [-95.5246767, 33.9886822], [-95.524572, 33.9886818], [-95.5245723, 33.98863], [-95.5245526, 33.9886299], [-95.5245527, 33.9886081], [-95.5245724, 33.9886082]]]}, "properties": {"osm_id": 1421184927, "building": "yes", "name": "", "height": null, "height_m": null, "levels": null, "tract_id": "40023967200", "tract_name": "9672", "tags": {"building": "yes"}}}, {"type": "Feature", "geometry": {"type": "Polygon", "coordinates": [[[-95.5247612, 33.9883163], [-95.5246277, 33.9883158], [-95.5246282, 33.9882341], [-95.5247617, 33.9882346], [-95.5247612, 33.9883163]]]}, "properties": {"osm_id": 1421184928, "building": "yes", "name": "", "height": null, "height_m": null, "levels": null, "tract_id": "40023967200", "tract_name": "9672", "tags": {"building": "yes"}}}, {"type": "Feature", "geometry": {"type": "Polygon", "coordinates": [[[-95.5264885, 33.9886883], [-95.5264071, 33.9886848], [-95.5264141, 33.9885727], [-95.5264954, 33.9885761], [-95.5264885, 33.9886883]]]}, "properties": {"osm_id": 1421184929, "building": "yes", "name": "", "height": null, "height_m": null, "levels": null, "tract_id": "40023967200", "tract_name": "9672", "tags": {"building": "yes"}}}, {"type": "Feature", "geometry": {"type": "Polygon", "coordinates": [[[-95.5264342, 33.9884426], [-95.5263132, 33.9884374], [-95.5263162, 33.9883897], [-95.5264371, 33.9883949], [-95.5264342, 33.9884426]]]}, "properties": {"osm_id": 1421184930, "building": "yes", "name": "", "height": null, "height_m": null, "levels": null, "tract_id": "40023967200", "tract_name": "9672", "tags": {"building": "yes"}}}, {"type": "Feature", "geometry": {"type": "Polygon", "coordinates": [[[-95.5264395, 33.9883464], [-95.5262826, 33.9883397], [-95.5262912, 33.9882016], [-95.5264481, 33.9882083], [-95.5264395, 33.9883464]]]}, "properties": {"osm_id": 1421184931, "building": "yes", "name": "", "height": null, "height_m": null, "levels": null, "tract_id": "40023967200", "tract_name": "9672", "tags": {"building": "yes"}}}, {"type": "Feature", "geometry": {"type": "Polygon", "coordinates": [[[-95.5538417, 34.0109849], [-95.5538417, 34.0108899], [-95.5539288, 34.0108899], [-95.5539288, 34.0109849], [-95.5538417, 34.0109849]]]}, "properties": {"osm_id": 1424332520, "building": "yes", "name": "", "height": null, "height_m": null, "levels": null, "tract_id": "40023967200", "tract_name": "9672", "tags": {"building": "yes"}}}, {"type": "Feature", "geometry": {"type": "Polygon", "coordinates": [[[-95.5540931, 34.0107748], [-95.5540428, 34.0106492], [-95.5540656, 34.0106429], [-95.5541159, 34.0107685], [-95.5540931, 34.0107748]]]}, "properties": {"osm_id": 1424332521, "building": "yes", "name": "", "height": null, "height_m": null, "levels": null, "tract_id": "40023967200", "tract_name": "9672", "tags": {"building": "yes"}}}, {"type": "Feature", "geometry": {"type": "Polygon", "coordinates": [[[-95.5556575, 34.0114821], [-95.5556575, 34.011523], [-95.5555931, 34.011523], [-95.5555931, 34.0114821], [-95.5556575, 34.0114821]]]}, "properties": {"osm_id": 1424332522, "building": "yes", "name": "", "height": null, "height_m": null, "levels": null, "tract_id": "40023967200", "tract_name": "9672", "tags": {"building": "yes"}}}, {"type": "Feature", "geometry": {"type": "Polygon", "coordinates": [[[-95.555457, 34.0114318], [-95.5554551, 34.0114583], [-95.555383, 34.0114547], [-95.5553849, 34.0114282], [-95.555457, 34.0114318]]]}, "properties": {"osm_id": 1424332523, "building": "yes", "name": "", "height": null, "height_m": null, "levels": null, "tract_id": "40023967200", "tract_name": "9672", "tags": {"building": "yes"}}}, {"type": "Feature", "geometry": {"type": "Polygon", "coordinates": [[[-95.5542555, 34.011426], [-95.5541692, 34.0114251], [-95.5541704, 34.011342], [-95.5543117, 34.0113434], [-95.5543122, 34.0113125], [-95.5543932, 34.0113133], [-95.5543915, 34.0114274], [-95.5542942, 34.0114264], [-95.554294, 34.0114418], [-95.5542553, 34.0114414], [-95.5542555, 34.011426]]]}, "properties": {"osm_id": 1424332524, "building": "detached", "name": "", "height": null, "height_m": null, "levels": null, "tract_id": "40023967200", "tract_name": "9672", "tags": {"building": "detached"}}}, {"type": "Feature", "geometry": {"type": "Polygon", "coordinates": [[[-95.5560243, 34.0114243], [-95.5560238, 34.011514], [-95.5558216, 34.0115132], [-95.5558221, 34.0114235], [-95.5560243, 34.0114243]]]}, "properties": {"osm_id": 1424332525, "building": "detached", "name": "", "height": null, "height_m": null, "levels": null, "tract_id": "40023967200", "tract_name": "9672", "tags": {"building": "detached"}}}, {"type": "Feature", "geometry": {"type": "Polygon", "coordinates": [[[-95.5548542, 34.0122858], [-95.5548164, 34.0122812], [-95.5548218, 34.0122512], [-95.5548596, 34.0122558], [-95.5548542, 34.0122858]]]}, "properties": {"osm_id": 1424332526, "building": "yes", "name": "", "height": null, "height_m": null, "levels": null, "tract_id": "40023967200", "tract_name": "9672", "tags": {"building": "yes"}}}, {"type": "Feature", "geometry": {"type": "Polygon", "coordinates": [[[-95.5547187, 34.0121703], [-95.5547154, 34.0121938], [-95.5547009, 34.0121925], [-95.554698, 34.0122139], [-95.5546422, 34.0122086], [-95.5546484, 34.0121636], [-95.5546096, 34.0121599], [-95.5546195, 34.012088], [-95.5548773, 34.0121124], [-95.5548674, 34.0121844], [-95.5547187, 34.0121703]]]}, "properties": {"osm_id": 1424332527, "building": "yes", "name": "", "height": null, "height_m": null, "levels": null, "tract_id": "40023967200", "tract_name": "9672", "tags": {"building": "yes"}}}, {"type": "Feature", "geometry": {"type": "Polygon", "coordinates": [[[-95.5557732, 34.0384391], [-95.5557728, 34.0383713], [-95.5559008, 34.0383708], [-95.5559022, 34.038608], [-95.5557742, 34.0386085], [-95.5557737, 34.0385279], [-95.5556951, 34.0385282], [-95.5556945, 34.0384395], [-95.5557732, 34.0384391]]]}, "properties": {"osm_id": 1433240082, "building": "yes", "name": "", "height": null, "height_m": null, "levels": null, "tract_id": "40023967200", "tract_name": "9672", "tags": {"building": "yes"}}}, {"type": "Feature", "geometry": {"type": "Polygon", "coordinates": [[[-95.5559442, 34.0379775], [-95.5559147, 34.0379742], [-95.5559224, 34.037928], [-95.5559519, 34.0379314], [-95.5559442, 34.0379775]]]}, "properties": {"osm_id": 1433240083, "building": "yes", "name": "", "height": null, "height_m": null, "levels": null, "tract_id": "40023967200", "tract_name": "9672", "tags": {"building": "yes"}}}, {"type": "Feature", "geometry": {"type": "Polygon", "coordinates": [[[-95.5554101, 34.0381734], [-95.5553471, 34.0381651], [-95.5553558, 34.0381196], [-95.5554188, 34.038128], [-95.5554101, 34.0381734]]]}, "properties": {"osm_id": 1433240084, "building": "yes", "name": "", "height": null, "height_m": null, "levels": null, "tract_id": "40023967200", "tract_name": "9672", "tags": {"building": "yes"}}}, {"type": "Feature", "geometry": {"type": "Polygon", "coordinates": [[[-95.5555569, 34.0380423], [-95.5553934, 34.0380187], [-95.5554216, 34.0378847], [-95.5555851, 34.0379084], [-95.5555569, 34.0380423]]]}, "properties": {"osm_id": 1433240085, "building": "yes", "name": "", "height": null, "height_m": null, "levels": null, "tract_id": "40023967200", "tract_name": "9672", "tags": {"building": "yes"}}}, {"type": "Feature", "geometry": {"type": "Polygon", "coordinates": [[[-95.5595186, 34.0391258], [-95.5594344, 34.0391655], [-95.5593953, 34.0391086], [-95.5594794, 34.0390689], [-95.5595186, 34.0391258]]]}, "properties": {"osm_id": 1433240086, "building": "yes", "name": "", "height": null, "height_m": null, "levels": null, "tract_id": "40023967200", "tract_name": "9672", "tags": {"building": "yes"}}}, {"type": "Feature", "geometry": {"type": "Polygon", "coordinates": [[[-95.5599594, 34.0393083], [-95.5597975, 34.0393442], [-95.5597637, 34.0392393], [-95.5599256, 34.0392034], [-95.5599594, 34.0393083]]]}, "properties": {"osm_id": 1433240087, "building": "yes", "name": "", "height": null, "height_m": null, "levels": null, "tract_id": "40023967200", "tract_name": "9672", "tags": {"building": "yes"}}}, {"type": "Feature", "geometry": {"type": "Polygon", "coordinates": [[[-95.571783, 34.042393], [-95.5717119, 34.0423872], [-95.5717247, 34.0422795], [-95.5717957, 34.0422852], [-95.571783, 34.042393]]]}, "properties": {"osm_id": 1433240089, "building": "yes", "name": "", "height": null, "height_m": null, "levels": null, "tract_id": "40023967200", "tract_name": "9672", "tags": {"building": "yes"}}}, {"type": "Feature", "geometry": {"type": "Polygon", "coordinates": [[[-95.5712646, 34.0418552], [-95.5712241, 34.0418561], [-95.5712224, 34.0418063], [-95.5712629, 34.0418053], [-95.5712646, 34.0418552]]]}, "properties": {"osm_id": 1433240090, "building": "yes", "name": "", "height": null, "height_m": null, "levels": null, "tract_id": "40023967200", "tract_name": "9672", "tags": {"building": "yes"}}}, {"type": "Feature", "geometry": {"type": "Polygon", "coordinates": [[[-95.5715439, 34.0420374], [-95.5714482, 34.0420396], [-95.5714453, 34.0419557], [-95.5715411, 34.0419535], [-95.5715439, 34.0420374]]]}, "properties": {"osm_id": 1433240091, "building": "yes", "name": "", "height": null, "height_m": null, "levels": null, "tract_id": "40023967200", "tract_name": "9672", "tags": {"building": "yes"}}}, {"type": "Feature", "geometry": {"type": "Polygon", "coordinates": [[[-95.5717342, 34.0419767], [-95.5715942, 34.04198], [-95.5715885, 34.0418138], [-95.5717286, 34.0418105], [-95.5717342, 34.0419767]]]}, "properties": {"osm_id": 1433240092, "building": "yes", "name": "", "height": null, "height_m": null, "levels": null, "tract_id": "40023967200", "tract_name": "9672", "tags": {"building": "yes"}}}, {"type": "Feature", "geometry": {"type": "Polygon", "coordinates": [[[-95.5717317, 34.0417526], [-95.5716368, 34.0417549], [-95.5716344, 34.0416846], [-95.5717293, 34.0416824], [-95.5717317, 34.0417526]]]}, "properties": {"osm_id": 1433240093, "building": "yes", "name": "", "height": null, "height_m": null, "levels": null, "tract_id": "40023967200", "tract_name": "9672", "tags": {"building": "yes"}}}, {"type": "Feature", "geometry": {"type": "Polygon", "coordinates": [[[-95.5716522, 34.0416001], [-95.571331, 34.0416076], [-95.5713266, 34.0414782], [-95.5715613, 34.0414727], [-95.571562, 34.0414939], [-95.5715915, 34.0414932], [-95.5715919, 34.0415055], [-95.5716489, 34.0415041], [-95.5716522, 34.0416001]]]}, "properties": {"osm_id": 1433240094, "building": "yes", "name": "", "height": null, "height_m": null, "levels": null, "tract_id": "40023967200", "tract_name": "9672", "tags": {"building": "yes"}}}, {"type": "Feature", "geometry": {"type": "Polygon", "coordinates": [[[-95.571738, 34.0421935], [-95.5717333, 34.0421308], [-95.5718011, 34.0421273], [-95.5718041, 34.0421669], [-95.5717835, 34.0421679], [-95.5717852, 34.0421911], [-95.571738, 34.0421935]]]}, "properties": {"osm_id": 1433253776, "building": "yes", "name": "", "height": null, "height_m": null, "levels": null, "tract_id": "40023967200", "tract_name": "9672", "tags": {"building": "yes"}}}, {"type": "Feature", "geometry": {"type": "Polygon", "coordinates": [[[-95.5561323, 34.0432177], [-95.5560314, 34.0432165], [-95.5560327, 34.0431442], [-95.5561336, 34.0431455], [-95.5561323, 34.0432177]]]}, "properties": {"osm_id": 1434794283, "building": "garage", "name": "", "height": null, "height_m": null, "levels": null, "tract_id": "40023967200", "tract_name": "9672", "tags": {"building": "garage"}}}, {"type": "Feature", "geometry": {"type": "Polygon", "coordinates": [[[-95.5561348, 34.0430807], [-95.5561336, 34.0431445], [-95.5560297, 34.0431432], [-95.5560323, 34.0429987], [-95.5561363, 34.043], [-95.5561355, 34.0430403], [-95.5561689, 34.0430408], [-95.5561681, 34.0430812], [-95.5561348, 34.0430807]]]}, "properties": {"osm_id": 1434794284, "building": "detached", "name": "", "height": null, "height_m": null, "levels": null, "tract_id": "40023967200", "tract_name": "9672", "tags": {"building": "detached"}}}, {"type": "Feature", "geometry": {"type": "Polygon", "coordinates": [[[-95.5546778, 34.0477803], [-95.554645, 34.0477825], [-95.5546399, 34.047732], [-95.5546728, 34.0477297], [-95.5546778, 34.0477803]]]}, "properties": {"osm_id": 1434794286, "building": "yes", "name": "", "height": null, "height_m": null, "levels": null, "tract_id": "40023967200", "tract_name": "9672", "tags": {"building": "yes"}}}, {"type": "Feature", "geometry": {"type": "Polygon", "coordinates": [[[-95.5544204, 34.0478042], [-95.554251, 34.0477397], [-95.5542726, 34.0477009], [-95.5544419, 34.0477654], [-95.5544204, 34.0478042]]]}, "properties": {"osm_id": 1434794287, "building": "yes", "name": "", "height": null, "height_m": null, "levels": null, "tract_id": "40023967200", "tract_name": "9672", "tags": {"building": "yes"}}}, {"type": "Feature", "geometry": {"type": "Polygon", "coordinates": [[[-95.5575103, 34.0492159], [-95.5574501, 34.0492066], [-95.5574563, 34.0491793], [-95.5575164, 34.0491886], [-95.5575103, 34.0492159]]]}, "properties": {"osm_id": 1434794292, "building": "yes", "name": "", "height": null, "height_m": null, "levels": null, "tract_id": "40023967200", "tract_name": "9672", "tags": {"building": "yes"}}}, {"type": "Feature", "geometry": {"type": "Polygon", "coordinates": [[[-95.5576367, 34.0492337], [-95.5576759, 34.0490601], [-95.5577909, 34.0490779], [-95.5577605, 34.0492124], [-95.5577162, 34.0492055], [-95.5577074, 34.0492447], [-95.5576367, 34.0492337]]]}, "properties": {"osm_id": 1434794293, "building": "yes", "name": "", "height": null, "height_m": null, "levels": null, "tract_id": "40023967200", "tract_name": "9672", "tags": {"building": "yes"}}}, {"type": "Feature", "geometry": {"type": "Polygon", "coordinates": [[[-95.5567566, 34.0485281], [-95.5567628, 34.0486043], [-95.5566535, 34.0486104], [-95.5566473, 34.0485342], [-95.5567566, 34.0485281]]]}, "properties": {"osm_id": 1434794294, "building": "yes", "name": "", "height": null, "height_m": null, "levels": null, "tract_id": "40023967200", "tract_name": "9672", "tags": {"building": "yes"}}}, {"type": "Feature", "geometry": {"type": "Polygon", "coordinates": [[[-95.5568209, 34.0486992], [-95.5568295, 34.0487862], [-95.5566652, 34.0487973], [-95.5566566, 34.0487104], [-95.5568209, 34.0486992]]]}, "properties": {"osm_id": 1434794295, "building": "yes", "name": "", "height": null, "height_m": null, "levels": null, "tract_id": "40023967200", "tract_name": "9672", "tags": {"building": "yes"}}}, {"type": "Feature", "geometry": {"type": "Polygon", "coordinates": [[[-95.5561175, 34.0507971], [-95.5559921, 34.0507994], [-95.5559904, 34.0507338], [-95.5561158, 34.0507315], [-95.5561175, 34.0507971]]]}, "properties": {"osm_id": 1434794296, "building": "yes", "name": "", "height": null, "height_m": null, "levels": null, "tract_id": "40023967200", "tract_name": "9672", "tags": {"building": "yes"}}}, {"type": "Feature", "geometry": {"type": "Polygon", "coordinates": [[[-95.5561472, 34.0477642], [-95.5561474, 34.0477686], [-95.5560432, 34.0477716], [-95.5560364, 34.0476088], [-95.5561407, 34.0476058], [-95.5561449, 34.0477082], [-95.5561655, 34.0477076], [-95.5561678, 34.0477636], [-95.5561472, 34.0477642]]]}, "properties": {"osm_id": 1434794298, "building": "yes", "name": "", "height": null, "height_m": null, "levels": null, "tract_id": "40023967200", "tract_name": "9672", "tags": {"building": "yes"}}}, {"type": "Feature", "geometry": {"type": "Polygon", "coordinates": [[[-95.5553145, 34.047113], [-95.5552113, 34.0471213], [-95.5552015, 34.0470385], [-95.5553048, 34.0470301], [-95.5553145, 34.047113]]]}, "properties": {"osm_id": 1434794299, "building": "yes", "name": "", "height": null, "height_m": null, "levels": null, "tract_id": "40023967200", "tract_name": "9672", "tags": {"building": "yes"}}}, {"type": "Feature", "geometry": {"type": "Polygon", "coordinates": [[[-95.5576494, 34.0448806], [-95.5575905, 34.0448835], [-95.5575844, 34.0448017], [-95.5575515, 34.0448033], [-95.5575503, 34.0447872], [-95.5575163, 34.0447889], [-95.5575133, 34.0447488], [-95.5575473, 34.0447471], [-95.557546, 34.044729], [-95.557579, 34.0447273], [-95.5575778, 34.0447114], [-95.5576545, 34.0447075], [-95.5576611, 34.0447978], [-95.5576434, 34.0447987], [-95.5576494, 34.0448806]]]}, "properties": {"osm_id": 1434794302, "building": "yes", "name": "", "height": null, "height_m": null, "levels": null, "tract_id": "40023967200", "tract_name": "9672", "tags": {"building": "yes"}}}, {"type": "Feature", "geometry": {"type": "Polygon", "coordinates": [[[-95.557762, 34.0454326], [-95.5576448, 34.045441], [-95.5576334, 34.0453327], [-95.5577507, 34.0453242], [-95.557762, 34.0454326]]]}, "properties": {"osm_id": 1434794303, "building": "yes", "name": "", "height": null, "height_m": null, "levels": null, "tract_id": "40023967200", "tract_name": "9672", "tags": {"building": "yes"}}}, {"type": "Feature", "geometry": {"type": "Polygon", "coordinates": [[[-95.5538955, 34.0333971], [-95.55384, 34.033398], [-95.5538391, 34.033363], [-95.5538946, 34.033362], [-95.5538955, 34.0333971]]]}, "properties": {"osm_id": 1434794306, "building": "yes", "name": "", "height": null, "height_m": null, "levels": null, "tract_id": "40023967200", "tract_name": "9672", "tags": {"building": "yes"}}}, {"type": "Feature", "geometry": {"type": "Polygon", "coordinates": [[[-95.5541498, 34.033247], [-95.5541501, 34.033374], [-95.5541237, 34.033374], [-95.5541236, 34.0333321], [-95.5540022, 34.0333323], [-95.5540019, 34.0332473], [-95.5541498, 34.033247]]]}, "properties": {"osm_id": 1434794307, "building": "yes", "name": "", "height": null, "height_m": null, "levels": null, "tract_id": "40023967200", "tract_name": "9672", "tags": {"building": "yes"}}}, {"type": "Feature", "geometry": {"type": "Polygon", "coordinates": [[[-95.554361, 34.0331039], [-95.5542504, 34.0331031], [-95.5542509, 34.0330528], [-95.5543616, 34.0330536], [-95.554361, 34.0331039]]]}, "properties": {"osm_id": 1434794308, "building": "yes", "name": "", "height": null, "height_m": null, "levels": null, "tract_id": "40023967200", "tract_name": "9672", "tags": {"building": "yes"}}}, {"type": "Feature", "geometry": {"type": "Polygon", "coordinates": [[[-95.554767, 34.0333407], [-95.5545823, 34.033339], [-95.5545837, 34.0332292], [-95.5547151, 34.0332304], [-95.5547147, 34.0332614], [-95.5547681, 34.0332619], [-95.554767, 34.0333407]]]}, "properties": {"osm_id": 1434794309, "building": "yes", "name": "", "height": null, "height_m": null, "levels": null, "tract_id": "40023967200", "tract_name": "9672", "tags": {"building": "yes"}}}, {"type": "Feature", "geometry": {"type": "Polygon", "coordinates": [[[-95.5549152, 34.0339225], [-95.5546503, 34.0339348], [-95.5546466, 34.0338807], [-95.5547655, 34.0338751], [-95.5547518, 34.033672], [-95.5548978, 34.0336652], [-95.5549152, 34.0339225]]]}, "properties": {"osm_id": 1434794310, "building": "yes", "name": "", "height": null, "height_m": null, "levels": null, "tract_id": "40023967200", "tract_name": "9672", "tags": {"building": "yes"}}}, {"type": "Feature", "geometry": {"type": "Polygon", "coordinates": [[[-95.5550057, 34.0335154], [-95.5548348, 34.0335188], [-95.5548318, 34.0334164], [-95.5548705, 34.0334156], [-95.5548713, 34.0334443], [-95.5550037, 34.0334417], [-95.5550057, 34.0335154]]]}, "properties": {"osm_id": 1434794311, "building": "yes", "name": "", "height": null, "height_m": null, "levels": null, "tract_id": "40023967200", "tract_name": "9672", "tags": {"building": "yes"}}}, {"type": "Feature", "geometry": {"type": "Polygon", "coordinates": [[[-95.5552049, 34.0334904], [-95.5551265, 34.0334931], [-95.5551234, 34.0334315], [-95.5552019, 34.0334289], [-95.5552049, 34.0334904]]]}, "properties": {"osm_id": 1434794312, "building": "yes", "name": "", "height": null, "height_m": null, "levels": null, "tract_id": "40023967200", "tract_name": "9672", "tags": {"building": "yes"}}}, {"type": "Feature", "geometry": {"type": "Polygon", "coordinates": [[[-95.5553427, 34.0334868], [-95.5552109, 34.0334913], [-95.555206, 34.0333907], [-95.5553378, 34.0333863], [-95.5553427, 34.0334868]]]}, "properties": {"osm_id": 1434794313, "building": "yes", "name": "", "height": null, "height_m": null, "levels": null, "tract_id": "40023967200", "tract_name": "9672", "tags": {"building": "yes"}}}, {"type": "Feature", "geometry": {"type": "Polygon", "coordinates": [[[-95.5570948, 34.0334671], [-95.5571053, 34.0335353], [-95.5570081, 34.0335455], [-95.5569976, 34.0334774], [-95.5570948, 34.0334671]]]}, "properties": {"osm_id": 1434794314, "building": "yes", "name": "", "height": null, "height_m": null, "levels": null, "tract_id": "40023967200", "tract_name": "9672", "tags": {"building": "yes"}}}, {"type": "Feature", "geometry": {"type": "Polygon", "coordinates": [[[-95.5567921, 34.0333001], [-95.5567379, 34.0332996], [-95.5567385, 34.0332607], [-95.5567927, 34.0332612], [-95.5567921, 34.0333001]]]}, "properties": {"osm_id": 1434794315, "building": "yes", "name": "", "height": null, "height_m": null, "levels": null, "tract_id": "40023967200", "tract_name": "9672", "tags": {"building": "yes"}}}, {"type": "Feature", "geometry": {"type": "Polygon", "coordinates": [[[-95.5568701, 34.0330987], [-95.5568059, 34.033098], [-95.5568072, 34.0330111], [-95.5568714, 34.0330118], [-95.5568719, 34.032979], [-95.5570232, 34.0329805], [-95.5570231, 34.0329888], [-95.5571232, 34.0329898], [-95.557121, 34.0331423], [-95.5568695, 34.0331398], [-95.5568701, 34.0330987]]]}, "properties": {"osm_id": 1434794316, "building": "yes", "name": "", "height": null, "height_m": null, "levels": null, "tract_id": "40023967200", "tract_name": "9672", "tags": {"building": "yes"}}}, {"type": "Feature", "geometry": {"type": "Polygon", "coordinates": [[[-95.5236091, 34.0332418], [-95.5235267, 34.0332418], [-95.5235267, 34.0331606], [-95.5236091, 34.0331606], [-95.5236091, 34.0332418]]]}, "properties": {"osm_id": 1436142626, "building": "yes", "name": "", "height": null, "height_m": null, "levels": null, "tract_id": "40023967200", "tract_name": "9672", "tags": {"building": "yes"}}}, {"type": "Feature", "geometry": {"type": "Polygon", "coordinates": [[[-95.5243978, 34.0352554], [-95.5244049, 34.0353386], [-95.5242022, 34.0353505], [-95.5241957, 34.0352743], [-95.524279, 34.0352694], [-95.524265, 34.0351059], [-95.5243844, 34.0350989], [-95.5243929, 34.0351983], [-95.5244176, 34.0351969], [-95.5244225, 34.0352539], [-95.5243978, 34.0352554]]]}, "properties": {"osm_id": 1436142631, "building": "yes", "name": "", "height": null, "height_m": null, "levels": null, "tract_id": "40023967200", "tract_name": "9672", "tags": {"building": "yes"}}}, {"type": "Feature", "geometry": {"type": "Polygon", "coordinates": [[[-95.5246324, 34.0346176], [-95.5244526, 34.0346232], [-95.5244392, 34.0343254], [-95.524619, 34.0343198], [-95.5246324, 34.0346176]]]}, "properties": {"osm_id": 1436142632, "building": "yes", "name": "", "height": null, "height_m": null, "levels": null, "tract_id": "40023967200", "tract_name": "9672", "tags": {"building": "yes"}}}, {"type": "Feature", "geometry": {"type": "Polygon", "coordinates": [[[-95.5254337, 34.0346704], [-95.5253191, 34.0346893], [-95.5253005, 34.0346119], [-95.5254152, 34.0345931], [-95.5254337, 34.0346704]]]}, "properties": {"osm_id": 1436142633, "building": "yes", "name": "", "height": null, "height_m": null, "levels": null, "tract_id": "40023967200", "tract_name": "9672", "tags": {"building": "yes"}}}, {"type": "Feature", "geometry": {"type": "Polygon", "coordinates": [[[-95.5239102, 34.0344693], [-95.5238264, 34.0344776], [-95.5238204, 34.0344361], [-95.5239042, 34.0344278], [-95.5239102, 34.0344693]]]}, "properties": {"osm_id": 1436142634, "building": "yes", "name": "", "height": null, "height_m": null, "levels": null, "tract_id": "40023967200", "tract_name": "9672", "tags": {"building": "yes"}}}, {"type": "Feature", "geometry": {"type": "Polygon", "coordinates": [[[-95.5241168, 34.0346443], [-95.523964, 34.0346483], [-95.5239573, 34.0344716], [-95.52411, 34.0344676], [-95.5241168, 34.0346443]]]}, "properties": {"osm_id": 1436142635, "building": "yes", "name": "", "height": null, "height_m": null, "levels": null, "tract_id": "40023967200", "tract_name": "9672", "tags": {"building": "yes"}}}, {"type": "Feature", "geometry": {"type": "Polygon", "coordinates": [[[-95.5203727, 34.0263442], [-95.5201561, 34.0263409], [-95.5201579, 34.026262], [-95.5203745, 34.0262654], [-95.5203727, 34.0263442]]]}, "properties": {"osm_id": 1444531718, "building": "yes", "name": "", "height": null, "height_m": null, "levels": null, "tract_id": "40023967200", "tract_name": "9672", "tags": {"building": "yes"}}}, {"type": "Feature", "geometry": {"type": "Polygon", "coordinates": [[[-95.5210071, 34.0263992], [-95.5209722, 34.0263994], [-95.5209719, 34.0263577], [-95.5210067, 34.0263575], [-95.5210071, 34.0263992]]]}, "properties": {"osm_id": 1444531719, "building": "yes", "name": "", "height": null, "height_m": null, "levels": null, "tract_id": "40023967200", "tract_name": "9672", "tags": {"building": "yes"}}}, {"type": "Feature", "geometry": {"type": "Polygon", "coordinates": [[[-95.520938, 34.0263989], [-95.5207945, 34.0264003], [-95.5207939, 34.02636], [-95.5209374, 34.0263586], [-95.520938, 34.0263989]]]}, "properties": {"osm_id": 1444531720, "building": "yes", "name": "", "height": null, "height_m": null, "levels": null, "tract_id": "40023967200", "tract_name": "9672", "tags": {"building": "yes"}}}, {"type": "Feature", "geometry": {"type": "Polygon", "coordinates": [[[-95.5211747, 34.0265323], [-95.5211379, 34.026533], [-95.5211368, 34.0264942], [-95.5211736, 34.0264935], [-95.5211747, 34.0265323]]]}, "properties": {"osm_id": 1444531721, "building": "yes", "name": "", "height": null, "height_m": null, "levels": null, "tract_id": "40023967200", "tract_name": "9672", "tags": {"building": "yes"}}}, {"type": "Feature", "geometry": {"type": "Polygon", "coordinates": [[[-95.5211254, 34.026534], [-95.521091, 34.0265346], [-95.5210897, 34.0264877], [-95.5211241, 34.026487], [-95.5211254, 34.026534]]]}, "properties": {"osm_id": 1444531722, "building": "yes", "name": "", "height": null, "height_m": null, "levels": null, "tract_id": "40023967200", "tract_name": "9672", "tags": {"building": "yes"}}}]}