{"type": "FeatureCollection", "features": [{"type": "Feature", "geometry": {"type": "Polygon", "coordinates": [[[-97.5707348, 35.4852002], [-97.5706302, 35.4851991], [-97.5706289, 35.4853356], [-97.570607, 35.4853534], [-97.5705887, 35.4853684], [-97.5703888, 35.4853684], [-97.5703727, 35.4853826], [-97.5703714, 35.4854536], [-97.5706302, 35.4854514], [-97.5707308, 35.4853706], [-97.5707348, 35.4852002]]]}, "properties": {"osm_id": 230255029, "building": "office", "name": "", "height": null, "height_m": null, "levels": null, "tract_id": "40109102200", "tract_name": "1022", "tags": {"building": "office"}}}, {"type": "Feature", "geometry": {"type": "Polygon", "coordinates": [[[-97.5696823, 35.4851039], [-97.5696769, 35.4855516], [-97.5695053, 35.4855494], [-97.5695053, 35.4855712], [-97.5690788, 35.4855647], [-97.5690788, 35.4855429], [-97.5688937, 35.4855407], [-97.5688937, 35.4851344], [-97.5695375, 35.4851366], [-97.5695375, 35.4850973], [-97.5696823, 35.4851039]]]}, "properties": {"osm_id": 231086801, "building": "yes", "name": "El Mariachi Supermercado", "height": null, "height_m": null, "levels": null, "tract_id": "40109102200", "tract_name": "1022", "tags": {"building": "yes", "name": "El Mariachi Supermercado", "shop": "supermarket", "source": "Bing;local_knowledge"}}}, {"type": "Feature", "geometry": {"type": "Polygon", "coordinates": [[[-97.5776576, 35.4815978], [-97.5775208, 35.4815945], [-97.5775141, 35.4817375], [-97.5776544, 35.4817384], [-97.5776576, 35.4815978]]]}, "properties": {"osm_id": 231522503, "building": "yes", "name": "", "height": null, "height_m": null, "levels": null, "tract_id": "40109102200", "tract_name": "1022", "tags": {"building": "yes", "source": "Bing"}}}, {"type": "Feature", "geometry": {"type": "Polygon", "coordinates": [[[-97.5776624, 35.4812751], [-97.5776647, 35.4810842], [-97.5775257, 35.481083], [-97.5775233, 35.481274], [-97.5776624, 35.4812751]]]}, "properties": {"osm_id": 231522504, "building": "yes", "name": "", "height": null, "height_m": null, "levels": null, "tract_id": "40109102200", "tract_name": "1022", "tags": {"building": "yes", "source": "Bing"}}}, {"type": "Feature", "geometry": {"type": "Polygon", "coordinates": [[[-97.5660565, 35.4788075], [-97.5660174, 35.4788072], [-97.5659344, 35.4788067], [-97.5659342, 35.4788337], [-97.5659327, 35.479], [-97.5660547, 35.4790007], [-97.5660565, 35.4788075]]]}, "properties": {"osm_id": 268208113, "building": "yes", "name": "Bob's", "height": null, "height_m": null, "levels": null, "tract_id": "40109102200", "tract_name": "1022", "tags": {"addr:city": "Oklahoma City", "addr:postcode": "73107", "addr:state": "OK", "addr:street": "North May Avenue", "building": "yes", "name": "Bob's", "roof:shape": "flat", "shop": "convenience", "source": "Bing;local_knowledge"}}}, {"type": "Feature", "geometry": {"type": "Polygon", "coordinates": [[[-97.5660174, 35.4788072], [-97.5660163, 35.4787871], [-97.5660147, 35.4787563], [-97.5659208, 35.4787563], [-97.5658785, 35.4787893], [-97.5658323, 35.4788262], [-97.5658323, 35.4789966], [-97.5658711, 35.4789977], [-97.5659327, 35.479], [-97.5659342, 35.4788337], [-97.5659344, 35.4788067], [-97.5660174, 35.4788072]]]}, "properties": {"osm_id": 268208145, "building": "roof", "name": "Shamrock", "height": null, "height_m": null, "levels": null, "tract_id": "40109102200", "tract_name": "1022", "tags": {"addr:city": "Oklahoma City", "addr:postcode": "73107", "addr:state": "OK", "addr:street": "North May Avenue", "amenity": "fuel", "brand": "Shamrock", "building": "roof", "name": "Shamrock", "roof:material": "metal", "roof:shape": "flat", "source": "Bing;local_knowledge"}}}, {"type": "Feature", "geometry": {"type": "Polygon", "coordinates": [[[-97.5676052, 35.4793744], [-97.5676079, 35.4790861], [-97.5664807, 35.4790829], [-97.5664795, 35.4792197], [-97.5660617, 35.4792166], [-97.5660618, 35.4793613], [-97.5664787, 35.4793648], [-97.5676052, 35.4793744]]]}, "properties": {"osm_id": 268208669, "building": "yes", "name": "", "height": null, "height_m": null, "levels": null, "tract_id": "40109102200", "tract_name": "1022", "tags": {"building": "yes", "source": "Bing"}}}, {"type": "Feature", "geometry": {"type": "Polygon", "coordinates": [[[-97.5760195, 35.4858173], [-97.5761845, 35.4858189], [-97.5761845, 35.4856689], [-97.57629, 35.4856705], [-97.5763073, 35.485747], [-97.5763438, 35.4857408], [-97.576361, 35.4857908], [-97.5763879, 35.4858111], [-97.5764128, 35.4858267], [-97.5764474, 35.485833], [-97.5764819, 35.485833], [-97.5765222, 35.4858205], [-97.5765567, 35.4858017], [-97.5765817, 35.4857783], [-97.5765951, 35.4857221], [-97.576597, 35.4856518], [-97.5765836, 35.4856002], [-97.5765586, 35.4855565], [-97.5765299, 35.4855408], [-97.5764857, 35.485533], [-97.5764397, 35.485533], [-97.5763994, 35.485544], [-97.5763879, 35.4855299], [-97.5760253, 35.4855315], [-97.5760195, 35.4858173]]]}, "properties": {"osm_id": 825695137, "building": "church", "name": "Apostolic Assembly of the Faith in Christ Jesus", "height": null, "height_m": null, "levels": null, "tract_id": "40109102200", "tract_name": "1022", "tags": {"amenity": "place_of_worship", "building": "church", "denomination": "apostolic_assembly_of_the_faith_in_christ_jesus", "denomination:wikidata": "Q3625552", "ele": "383", "gnis:feature_id": "1809444", "name": "Apostolic Assembly of the Faith in Christ Jesus", "religion": "christian"}}}, {"type": "Feature", "geometry": {"type": "Polygon", "coordinates": [[[-97.5759305, 35.4854403], [-97.575933, 35.4851458], [-97.5757191, 35.4851446], [-97.5757167, 35.4854391], [-97.5759305, 35.4854403]]]}, "properties": {"osm_id": 825695138, "building": "yes", "name": "", "height": null, "height_m": null, "levels": null, "tract_id": "40109102200", "tract_name": "1022", "tags": {"building": "yes"}}}, {"type": "Feature", "geometry": {"type": "Polygon", "coordinates": [[[-97.5658463, 35.4797447], [-97.5658465, 35.4799326], [-97.5659962, 35.4799323], [-97.5659926, 35.479744], [-97.5658463, 35.4797447]]]}, "properties": {"osm_id": 1251179779, "building": "yes", "name": "El Primo Supermarket & Mobiles", "height": null, "height_m": null, "levels": null, "tract_id": "40109102200", "tract_name": "1022", "tags": {"addr:city": "Oklahoma City", "addr:housenumber": "1123", "addr:postcode": "73107", "addr:state": "OK", "addr:street": "North May Avenue", "building": "yes", "language:es": "main", "name": "El Primo Supermarket & Mobiles", "shop": "convenience"}}}, {"type": "Feature", "geometry": {"type": "Polygon", "coordinates": [[[-97.5659274, 35.4823439], [-97.5659265, 35.4824137], [-97.5657894, 35.4824125], [-97.5657903, 35.4823427], [-97.5659274, 35.4823439]]]}, "properties": {"osm_id": 1251179787, "building": "yes", "name": "", "height": null, "height_m": null, "levels": null, "tract_id": "40109102200", "tract_name": "1022", "tags": {"addr:city": "Oklahoma City", "addr:housenumber": "1307", "addr:postcode": "73107", "addr:state": "OK", "addr:street": "North May Avenue", "building": "yes"}}}, {"type": "Feature", "geometry": {"type": "Polygon", "coordinates": [[[-97.5658123, 35.4827216], [-97.5659269, 35.4827215], [-97.5659275, 35.4830045], [-97.5658396, 35.4830047], [-97.5658393, 35.4828851], [-97.5658127, 35.4828851], [-97.5658123, 35.4827216]]]}, "properties": {"osm_id": 1251179788, "building": "yes", "name": "El Rinconcito", "height": null, "height_m": null, "levels": null, "tract_id": "40109102200", "tract_name": "1022", "tags": {"addr:city": "Oklahoma City", "addr:housenumber": "1317", "addr:postcode": "73107", "addr:state": "OK", "addr:street": "North May Avenue", "building": "yes", "language:es": "main", "name": "El Rinconcito", "shop": "supermarket"}}}, {"type": "Feature", "geometry": {"type": "Polygon", "coordinates": [[[-97.5658008, 35.4843201], [-97.5658013, 35.4843625], [-97.5657668, 35.4843628], [-97.5657682, 35.4844877], [-97.5658985, 35.4844868], [-97.5658967, 35.4843194], [-97.5658008, 35.4843201]]]}, "properties": {"osm_id": 1251179789, "building": "yes", "name": "Best Budz Dispensary", "height": null, "height_m": null, "levels": null, "tract_id": "40109102200", "tract_name": "1022", "tags": {"addr:city": "Oklahoma City", "addr:postcode": "73107", "addr:state": "OK", "addr:street": "North May Avenue", "building": "yes", "name": "Best Budz Dispensary", "opening_hours": "10:00-22:00", "phone": "+1 405 225 1281", "shop": "cannabis"}}}, {"type": "Feature", "geometry": {"type": "Polygon", "coordinates": [[[-97.5657974, 35.4837608], [-97.5657918, 35.4839713], [-97.5657949, 35.4839786], [-97.5658016, 35.4839845], [-97.5658095, 35.4839885], [-97.5659267, 35.4839905], [-97.5659297, 35.4837613], [-97.5657974, 35.4837608]]]}, "properties": {"osm_id": 1251179790, "building": "yes", "name": "Igesia Bautista Cristiana El Olivar", "height": null, "height_m": null, "levels": null, "tract_id": "40109102200", "tract_name": "1022", "tags": {"addr:city": "Oklahoma City", "addr:housenumber": "1411", "addr:postcode": "73107", "addr:state": "OK", "addr:street": "North May Avenue", "amenity": "place_of_worship", "building": "yes", "denomination": "baptist", "language:es": "main", "name": "Igesia Bautista Cristiana El Olivar", "phone": "+1 405 881 2705", "religion": "christian"}}}]}