{"type": "FeatureCollection", "features": [{"type": "Feature", "geometry": {"type": "Polygon", "coordinates": [[[-96.6291839, 34.3006279], [-96.6289301, 34.3006304], [-96.6289316, 34.3007331], [-96.6291854, 34.3007306], [-96.6291839, 34.3006279]]]}, "properties": {"osm_id": 298121723, "building": "yes", "name": "", "height": null, "height_m": null, "levels": null, "tract_id": "40069660202", "tract_name": "6602.02", "tags": {"building": "yes"}}}, {"type": "Feature", "geometry": {"type": "Polygon", "coordinates": [[[-96.7112356, 34.3536811], [-96.7112376, 34.3535939], [-96.7110221, 34.3535939], [-96.7110201, 34.3536744], [-96.7112356, 34.3536811]]]}, "properties": {"osm_id": 1026620326, "building": "yes", "name": "Tishomingo National Fish Hatchery", "height": null, "height_m": null, "levels": null, "tract_id": "40069660202", "tract_name": "6602.02", "tags": {"addr:city": "Tishomingo", "addr:housenumber": "5501", "addr:postcode": "73460", "addr:state": "OK", "addr:street": "Old Highway 7", "building": "yes", "name": "Tishomingo National Fish Hatchery"}}}, {"type": "Feature", "geometry": {"type": "Polygon", "coordinates": [[[-96.6154364, 34.2738664], [-96.6155763, 34.2737433], [-96.6154889, 34.2736755], [-96.6153491, 34.2737987], [-96.6154364, 34.2738664]]]}, "properties": {"osm_id": 1026662764, "building": "yes", "name": "Old Silo Winery", "height": null, "height_m": null, "levels": null, "tract_id": "40069660202", "tract_name": "6602.02", "tags": {"addr:city": "Tishomingo", "addr:housenumber": "2300", "addr:postcode": "73460", "addr:state": "OK", "addr:street": "East Cheadle Road", "building": "yes", "craft": "winery", "name": "Old Silo Winery"}}}, {"type": "Feature", "geometry": {"type": "Polygon", "coordinates": [[[-96.7621449, 34.376811], [-96.7622883, 34.3767979], [-96.7622771, 34.3767148], [-96.7621338, 34.3767279], [-96.7621449, 34.376811]]]}, "properties": {"osm_id": 1026670780, "building": "yes", "name": "Pennington Creek Hunting Club", "height": null, "height_m": null, "levels": null, "tract_id": "40069660202", "tract_name": "6602.02", "tags": {"addr:city": "Mill Creek", "addr:housenumber": "8301", "addr:postcode": "74856", "addr:state": "OK", "addr:street": "Rocky Road", "building": "yes", "club": "hunting", "name": "Pennington Creek Hunting Club"}}}, {"type": "Feature", "geometry": {"type": "Polygon", "coordinates": [[[-96.5747187, 34.2872737], [-96.5746704, 34.2872972], [-96.5746514, 34.2872706], [-96.5746998, 34.2872471], [-96.5747187, 34.2872737]]]}, "properties": {"osm_id": 1133940632, "building": "yes", "name": "", "height": null, "height_m": null, "levels": null, "tract_id": "40069660202", "tract_name": "6602.02", "tags": {"building": "yes"}}}, {"type": "Feature", "geometry": {"type": "Polygon", "coordinates": [[[-96.5895815, 34.2445858], [-96.5896456, 34.2444928], [-96.5898021, 34.2445665], [-96.589738, 34.2446595], [-96.5895815, 34.2445858]]]}, "properties": {"osm_id": 1133940667, "building": "yes", "name": "", "height": null, "height_m": null, "levels": null, "tract_id": "40069660202", "tract_name": "6602.02", "tags": {"building": "yes"}}}, {"type": "Feature", "geometry": {"type": "Polygon", "coordinates": [[[-96.5916547, 34.2445781], [-96.5914857, 34.2445903], [-96.591478, 34.2445167], [-96.5916469, 34.2445045], [-96.5916547, 34.2445781]]]}, "properties": {"osm_id": 1133940668, "building": "yes", "name": "", "height": null, "height_m": null, "levels": null, "tract_id": "40069660202", "tract_name": "6602.02", "tags": {"building": "yes"}}}, {"type": "Feature", "geometry": {"type": "Polygon", "coordinates": [[[-96.5918157, 34.2315763], [-96.5918721, 34.231611], [-96.5918238, 34.2316648], [-96.5917674, 34.2316301], [-96.5918157, 34.2315763]]]}, "properties": {"osm_id": 1133940677, "building": "yes", "name": "", "height": null, "height_m": null, "levels": null, "tract_id": "40069660202", "tract_name": "6602.02", "tags": {"building": "yes"}}}, {"type": "Feature", "geometry": {"type": "Polygon", "coordinates": [[[-96.5907555, 34.2314951], [-96.590637, 34.2314849], [-96.5906483, 34.2313948], [-96.5907668, 34.231405], [-96.5907555, 34.2314951]]]}, "properties": {"osm_id": 1133940678, "building": "yes", "name": "", "height": null, "height_m": null, "levels": null, "tract_id": "40069660202", "tract_name": "6602.02", "tags": {"building": "yes"}}}, {"type": "Feature", "geometry": {"type": "Polygon", "coordinates": [[[-96.5851839, 34.2287068], [-96.5850417, 34.2286929], [-96.5850573, 34.2285836], [-96.5851995, 34.2285975], [-96.5851839, 34.2287068]]]}, "properties": {"osm_id": 1133940679, "building": "yes", "name": "", "height": null, "height_m": null, "levels": null, "tract_id": "40069660202", "tract_name": "6602.02", "tags": {"building": "yes"}}}, {"type": "Feature", "geometry": {"type": "Polygon", "coordinates": [[[-96.5855768, 34.2287846], [-96.5854223, 34.2287721], [-96.5854346, 34.228668], [-96.5855892, 34.2286805], [-96.5855768, 34.2287846]]]}, "properties": {"osm_id": 1133940680, "building": "yes", "name": "", "height": null, "height_m": null, "levels": null, "tract_id": "40069660202", "tract_name": "6602.02", "tags": {"building": "yes"}}}, {"type": "Feature", "geometry": {"type": "Polygon", "coordinates": [[[-96.5838481, 34.2245083], [-96.583845, 34.2244559], [-96.5840005, 34.2244496], [-96.5840036, 34.224502], [-96.5838481, 34.2245083]]]}, "properties": {"osm_id": 1133940683, "building": "yes", "name": "", "height": null, "height_m": null, "levels": null, "tract_id": "40069660202", "tract_name": "6602.02", "tags": {"building": "yes"}}}, {"type": "Feature", "geometry": {"type": "Polygon", "coordinates": [[[-96.585029, 34.2248774], [-96.5849686, 34.224874], [-96.5849727, 34.2248242], [-96.585033, 34.2248275], [-96.585029, 34.2248774]]]}, "properties": {"osm_id": 1133940684, "building": "yes", "name": "", "height": null, "height_m": null, "levels": null, "tract_id": "40069660202", "tract_name": "6602.02", "tags": {"building": "yes"}}}, {"type": "Feature", "geometry": {"type": "Polygon", "coordinates": [[[-96.5849604, 34.2246275], [-96.584976, 34.2244871], [-96.5851411, 34.2244996], [-96.5851254, 34.22464], [-96.5849604, 34.2246275]]]}, "properties": {"osm_id": 1133940685, "building": "yes", "name": "", "height": null, "height_m": null, "levels": null, "tract_id": "40069660202", "tract_name": "6602.02", "tags": {"building": "yes"}}}, {"type": "Feature", "geometry": {"type": "Polygon", "coordinates": [[[-96.7106647, 34.3008773], [-96.7104966, 34.3007217], [-96.710741, 34.3005506], [-96.7109122, 34.3007088], [-96.7106647, 34.3008773]]]}, "properties": {"osm_id": 1183448364, "building": "yes", "name": "Cookhouse", "height": null, "height_m": 3.0, "levels": 1, "tract_id": "40069660202", "tract_name": "6602.02", "tags": {"building": "yes", "building:levels": "1", "name": "Cookhouse"}}}, {"type": "Feature", "geometry": {"type": "Polygon", "coordinates": [[[-96.7111862, 34.3009904], [-96.7108609, 34.3009519], [-96.7109044, 34.3007448], [-96.7112282, 34.300786], [-96.7111862, 34.3009904]]]}, "properties": {"osm_id": 1183448365, "building": "yes", "name": "East Dining Hall", "height": null, "height_m": 3.0, "levels": 1, "tract_id": "40069660202", "tract_name": "6602.02", "tags": {"building": "yes", "building:levels": "1", "name": "East Dining Hall"}}}, {"type": "Feature", "geometry": {"type": "Polygon", "coordinates": [[[-96.7106694, 34.3005661], [-96.7105137, 34.3003372], [-96.7102973, 34.3004375], [-96.7104686, 34.3006754], [-96.7106694, 34.3005661]]]}, "properties": {"osm_id": 1183448366, "building": "yes", "name": "West Dining Hall", "height": null, "height_m": null, "levels": null, "tract_id": "40069660202", "tract_name": "6602.02", "tags": {"building": "yes", "name": "West Dining Hall"}}}, {"type": "Feature", "geometry": {"type": "Polygon", "coordinates": [[[-96.7112313, 34.3007564], [-96.7112485, 34.3006445], [-96.711085, 34.3006227], [-96.7110679, 34.3007384], [-96.7112313, 34.3007564]]]}, "properties": {"osm_id": 1183448367, "building": "yes", "name": "Central Bathroom/Shower", "height": null, "height_m": 3.0, "levels": 1, "tract_id": "40069660202", "tract_name": "6602.02", "tags": {"building": "yes", "building:levels": "1", "name": "Central Bathroom/Shower"}}}, {"type": "Feature", "geometry": {"type": "Polygon", "coordinates": [[[-96.7102148, 34.3003989], [-96.7103767, 34.3002214], [-96.7102195, 34.3001301], [-96.7100607, 34.3003063], [-96.7102148, 34.3003989]]]}, "properties": {"osm_id": 1183448368, "building": "yes", "name": "Headquarters", "height": null, "height_m": 3.0, "levels": 1, "tract_id": "40069660202", "tract_name": "6602.02", "tags": {"building": "yes", "building:levels": "1", "name": "Headquarters"}}}, {"type": "Feature", "geometry": {"type": "Polygon", "coordinates": [[[-96.7141349, 34.3016968], [-96.7141678, 34.3016112], [-96.7139346, 34.3015467], [-96.7138997, 34.3016273], [-96.7141349, 34.3016968]]]}, "properties": {"osm_id": 1183448371, "building": "yes", "name": "West Bathroom/Showers", "height": null, "height_m": 3.0, "levels": 1, "tract_id": "40069660202", "tract_name": "6602.02", "tags": {"building": "yes", "building:levels": "1", "name": "West Bathroom/Showers"}}}, {"type": "Feature", "geometry": {"type": "Polygon", "coordinates": [[[-96.7061331, 34.2994374], [-96.7059203, 34.2995367], [-96.7058707, 34.2994636], [-96.7060826, 34.2993569], [-96.7061331, 34.2994374]]]}, "properties": {"osm_id": 1183448372, "building": "yes", "name": "East Bathroom/Showers", "height": null, "height_m": 3.0, "levels": 1, "tract_id": "40069660202", "tract_name": "6602.02", "tags": {"building": "yes", "building:levels": "1", "name": "East Bathroom/Showers"}}}, {"type": "Feature", "geometry": {"type": "Polygon", "coordinates": [[[-96.7118299, 34.2991839], [-96.7119668, 34.2990585], [-96.7118814, 34.2989924], [-96.7117371, 34.2991201], [-96.7118299, 34.2991839]]]}, "properties": {"osm_id": 1183448373, "building": "yes", "name": "Aquatics Doghouse", "height": null, "height_m": 3.0, "levels": 1, "tract_id": "40069660202", "tract_name": "6602.02", "tags": {"building": "yes", "building:levels": "1", "name": "Aquatics Doghouse"}}}, {"type": "Feature", "geometry": {"type": "Polygon", "coordinates": [[[-96.7194575, 34.3737656], [-96.7193041, 34.373771], [-96.719296, 34.373614], [-96.7194493, 34.3736086], [-96.7194575, 34.3737656]]]}, "properties": {"osm_id": 1321701879, "building": "yes", "name": "", "height": null, "height_m": null, "levels": null, "tract_id": "40069660202", "tract_name": "6602.02", "tags": {"building": "yes"}}}, {"type": "Feature", "geometry": {"type": "Polygon", "coordinates": [[[-96.7346554, 34.3577511], [-96.7344901, 34.3577992], [-96.7344246, 34.3576458], [-96.7345899, 34.3575977], [-96.7346554, 34.3577511]]]}, "properties": {"osm_id": 1321701881, "building": "hangar", "name": "", "height": null, "height_m": null, "levels": null, "tract_id": "40069660202", "tract_name": "6602.02", "tags": {"aeroway": "hangar", "building": "hangar"}}}]}