{"type": "FeatureCollection", "features": [{"type": "Feature", "geometry": {"type": "Polygon", "coordinates": [[[-97.4779233, 35.6243249], [-97.4772585, 35.6243233], [-97.4770554, 35.6241516], [-97.4770587, 35.623701], [-97.477294, 35.6237015], [-97.4772905, 35.6240621], [-97.4773774, 35.6241312], [-97.4779227, 35.6241314], [-97.4779233, 35.6243249]]]}, "properties": {"osm_id": 92438632, "building": "yes", "name": "", "height": null, "height_m": null, "levels": null, "tract_id": "40109108304", "tract_name": "1083.04", "tags": {"building": "yes"}}}, {"type": "Feature", "geometry": {"type": "Polygon", "coordinates": [[[-97.4624823, 35.6241152], [-97.4624866, 35.6243682], [-97.462252, 35.6243713], [-97.4621744, 35.6243723], [-97.4621719, 35.6242548], [-97.4621694, 35.6241338], [-97.4620948, 35.6241344], [-97.4620946, 35.6241681], [-97.4620127, 35.6241686], [-97.4620122, 35.6241535], [-97.4619369, 35.6241541], [-97.4619326, 35.6240061], [-97.4620416, 35.6240053], [-97.4620574, 35.6240052], [-97.462089, 35.624005], [-97.4620886, 35.6240218], [-97.4622268, 35.6240189], [-97.462226, 35.6240102], [-97.462236, 35.6240101], [-97.4622555, 35.6240099], [-97.4622909, 35.6240096], [-97.4622902, 35.6239914], [-97.462288, 35.6239331], [-97.4624447, 35.6239313], [-97.4624482, 35.6241152], [-97.4624823, 35.6241152]]]}, "properties": {"osm_id": 92438633, "building": "church", "name": "The Church of Jesus Christ of Latter-day Saints", "height": null, "height_m": null, "levels": null, "tract_id": "40109108304", "tract_name": "1083.04", "tags": {"amenity": "place_of_worship", "building": "church", "denomination": "mormon", "name": "The Church of Jesus Christ of Latter-day Saints", "religion": "christian"}}}, {"type": "Feature", "geometry": {"type": "Polygon", "coordinates": [[[-97.4668341, 35.636538], [-97.4664583, 35.636411], [-97.4665049, 35.6363199], [-97.4665523, 35.6363359], [-97.466579, 35.6362837], [-97.4668403, 35.636372], [-97.4668093, 35.6364328], [-97.4668763, 35.6364554], [-97.4668341, 35.636538]]]}, "properties": {"osm_id": 115207399, "building": "school", "name": "", "height": null, "height_m": null, "levels": null, "tract_id": "40109108304", "tract_name": "1083.04", "tags": {"building": "school"}}}, {"type": "Feature", "geometry": {"type": "Polygon", "coordinates": [[[-97.4688617, 35.6360914], [-97.4678698, 35.6360979], [-97.4678669, 35.635858], [-97.4681376, 35.6358591], [-97.4681374, 35.6358293], [-97.4685579, 35.6358265], [-97.4685571, 35.6358538], [-97.4690081, 35.6358548], [-97.4690125, 35.6360309], [-97.4688603, 35.6360266], [-97.4688617, 35.6360914]]]}, "properties": {"osm_id": 115207416, "building": "school", "name": "", "height": null, "height_m": null, "levels": null, "tract_id": "40109108304", "tract_name": "1083.04", "tags": {"building": "school"}}}, {"type": "Feature", "geometry": {"type": "Polygon", "coordinates": [[[-97.4689655, 35.6378446], [-97.4686122, 35.6378438], [-97.4686117, 35.6378038], [-97.4686111, 35.637755], [-97.4685323, 35.6377541], [-97.4685293, 35.6376974], [-97.4684334, 35.6376965], [-97.4684342, 35.6377196], [-97.4682904, 35.6377211], [-97.4682918, 35.6377534], [-97.4681801, 35.6377549], [-97.4681787, 35.6377189], [-97.4678688, 35.6377196], [-97.4678657, 35.637349], [-97.4679545, 35.6373482], [-97.4679754, 35.6373693], [-97.4680085, 35.6373673], [-97.4683649, 35.6373623], [-97.4683622, 35.6372329], [-97.4684233, 35.63723], [-97.4684279, 35.6371371], [-97.4680139, 35.6371382], [-97.4680135, 35.6370667], [-97.4679662, 35.6370683], [-97.4679638, 35.636942], [-97.4680106, 35.636942], [-97.4680095, 35.6368888], [-97.468035, 35.6368871], [-97.4680347, 35.6368143], [-97.467981, 35.6367718], [-97.4677351, 35.6367738], [-97.4676892, 35.6367721], [-97.4676515, 35.636762], [-97.4676251, 35.636747], [-97.4676028, 35.6367266], [-97.4675947, 35.6366995], [-97.4675949, 35.6366288], [-97.4675142, 35.636624], [-97.4675126, 35.6361761], [-97.4692205, 35.6361707], [-97.4692215, 35.6362545], [-97.4694547, 35.6362564], [-97.4694549, 35.6360596], [-97.4695704, 35.636032], [-97.4697071, 35.6360157], [-97.4698039, 35.6360201], [-97.4699782, 35.636059], [-97.4699817, 35.6362568], [-97.4701324, 35.6363529], [-97.4704232, 35.6363527], [-97.4704252, 35.636609], [-97.470369, 35.6366075], [-97.4703695, 35.6366583], [-97.4702317, 35.6366561], [-97.4702328, 35.6366904], [-97.4701261, 35.6366906], [-97.4701258, 35.6366626], [-97.4699859, 35.6367777], [-97.469942, 35.6367467], [-97.469885, 35.6367898], [-97.4698537, 35.6367622], [-97.4698166, 35.636793], [-97.4697814, 35.6367656], [-97.46974, 35.636803], [-97.4695349, 35.6366639], [-97.4695331, 35.6366229], [-97.4691349, 35.6366229], [-97.4691331, 35.6366566], [-97.4690683, 35.6366566], [-97.4690737, 35.6372321], [-97.4689825, 35.6372338], [-97.4689846, 35.6373459], [-97.4690739, 35.6373466], [-97.4690737, 35.6375806], [-97.4689599, 35.6375813], [-97.4689646, 35.6378033], [-97.4689655, 35.6378446]]]}, "properties": {"osm_id": 115207441, "building": "school", "name": "", "height": null, "height_m": null, "levels": null, "tract_id": "40109108304", "tract_name": "1083.04", "tags": {"building": "school"}}}, {"type": "Feature", "geometry": {"type": "Polygon", "coordinates": [[[-97.4672433, 35.6365817], [-97.4668638, 35.6362552], [-97.4670945, 35.6360781], [-97.4673487, 35.6362969], [-97.4672267, 35.6363905], [-97.467352, 35.6364983], [-97.4672433, 35.6365817]]]}, "properties": {"osm_id": 115207459, "building": "school", "name": "", "height": null, "height_m": null, "levels": null, "tract_id": "40109108304", "tract_name": "1083.04", "tags": {"building": "school"}}}, {"type": "Feature", "geometry": {"type": "Polygon", "coordinates": [[[-97.4873155, 35.6240267], [-97.4871005, 35.6241569], [-97.4870174, 35.6240697], [-97.4870017, 35.6240799], [-97.4869336, 35.6240062], [-97.487003, 35.6239615], [-97.4869744, 35.6239282], [-97.4870011, 35.6239102], [-97.4870221, 35.6238982], [-97.487062, 35.6239118], [-97.4870752, 35.6239272], [-97.4871458, 35.6238856], [-97.4871499, 35.6238908], [-97.4871773, 35.6238769], [-97.4873155, 35.6240267]]]}, "properties": {"osm_id": 115577349, "building": "yes", "name": "On The Border", "height": null, "height_m": null, "levels": null, "tract_id": "40109108304", "tract_name": "1083.04", "tags": {"addr:city": "Edmond", "addr:housenumber": "3233", "addr:postcode": "73013", "addr:state": "OK", "addr:street": "South Broadway", "amenity": "restaurant", "brand": "On The Border", "brand:wikidata": "Q7091305", "building": "yes", "cuisine": "tex-mex", "name": "On The Border", "official_name": "On The Border Mexican Grill & Cantina"}}}, {"type": "Feature", "geometry": {"type": "Polygon", "coordinates": [[[-97.4788782, 35.6247319], [-97.4784884, 35.6247291], [-97.4784889, 35.6246837], [-97.4785053, 35.6246838], [-97.478506, 35.6246133], [-97.4788081, 35.6246155], [-97.4788072, 35.6246927], [-97.4788787, 35.6246932], [-97.4788782, 35.6247319]]]}, "properties": {"osm_id": 115577352, "building": "yes", "name": "Sonic", "height": null, "height_m": null, "levels": null, "tract_id": "40109108304", "tract_name": "1083.04", "tags": {"addr:city": "Edmond", "addr:housenumber": "3121", "addr:postcode": "73013", "addr:state": "OK", "addr:street": "South Boulevard", "amenity": "fast_food", "brand": "Sonic", "brand:wikidata": "Q7561808", "building": "yes", "cuisine": "burger", "drive_in": "yes", "drive_through": "yes", "name": "Sonic", "opening_hours": "Mo-Sa 06:00-24:00; Su 07:00-24:00", "phone": "+1 405-348-3600", "takeaway": "yes", "website": "https://locations.sonicdrivein.com/ok/edmond/3121-s.-boulevard.html"}}}, {"type": "Feature", "geometry": {"type": "Polygon", "coordinates": [[[-97.4795417, 35.6239263], [-97.4790128, 35.6239234], [-97.4790141, 35.6237733], [-97.4795429, 35.6237762], [-97.4795417, 35.6239263]]]}, "properties": {"osm_id": 115577357, "building": "yes", "name": "", "height": null, "height_m": null, "levels": null, "tract_id": "40109108304", "tract_name": "1083.04", "tags": {"building": "yes"}}}, {"type": "Feature", "geometry": {"type": "Polygon", "coordinates": [[[-97.4823864, 35.624074], [-97.4822024, 35.6240712], [-97.4822041, 35.6240063], [-97.4820826, 35.6240063], [-97.4820861, 35.6237847], [-97.4823899, 35.6237861], [-97.4823864, 35.624074]]]}, "properties": {"osm_id": 115577359, "building": "yes", "name": "Johnnie's Charcoal Broiler", "height": null, "height_m": null, "levels": null, "tract_id": "40109108304", "tract_name": "1083.04", "tags": {"addr:city": "Edmond", "addr:housenumber": "33", "addr:postcode": "73013", "addr:state": "OK", "addr:street": "East 33rd Street", "amenity": "restaurant", "building": "yes", "cuisine": "burger", "name": "Johnnie's Charcoal Broiler"}}}, {"type": "Feature", "geometry": {"type": "Polygon", "coordinates": [[[-97.4803045, 35.6240083], [-97.480017, 35.6240083], [-97.480017, 35.6237775], [-97.4803045, 35.6237775], [-97.4803045, 35.6240083]]]}, "properties": {"osm_id": 115577363, "building": "yes", "name": "", "height": null, "height_m": null, "levels": null, "tract_id": "40109108304", "tract_name": "1083.04", "tags": {"building": "yes"}}}, {"type": "Feature", "geometry": {"type": "Polygon", "coordinates": [[[-97.4788412, 35.6243164], [-97.4788737, 35.6242901], [-97.4788758, 35.6239439], [-97.4788179, 35.6239443], [-97.4788172, 35.6239334], [-97.4786121, 35.6239337], [-97.4786026, 35.6239232], [-97.4785685, 35.6239232], [-97.4785359, 35.6239232], [-97.4785157, 35.6239371], [-97.4785159, 35.6241088], [-97.4785257, 35.6241084], [-97.4785259, 35.624184], [-97.478526, 35.6242439], [-97.4784894, 35.6242436], [-97.4784677, 35.6242435], [-97.4784672, 35.6243152], [-97.4784889, 35.6243153], [-97.4785241, 35.6243155], [-97.4788412, 35.6243164]]]}, "properties": {"osm_id": 229840624, "building": "yes", "name": "Walgreens", "height": null, "height_m": null, "levels": null, "tract_id": "40109108304", "tract_name": "1083.04", "tags": {"amenity": "pharmacy", "brand": "Walgreens", "brand:wikidata": "Q1591889", "building": "yes", "dispensing": "yes", "healthcare": "pharmacy", "name": "Walgreens"}}}, {"type": "Feature", "geometry": {"type": "Polygon", "coordinates": [[[-97.4834752, 35.6251919], [-97.4827407, 35.625189], [-97.4827406, 35.6252141], [-97.4827261, 35.625287], [-97.4826733, 35.625283], [-97.4826748, 35.6243342], [-97.4825767, 35.6243346], [-97.4825748, 35.6239468], [-97.4826316, 35.6239475], [-97.4826881, 35.6239925], [-97.4832873, 35.6239983], [-97.4834822, 35.6241538], [-97.4834752, 35.6251919]]]}, "properties": {"osm_id": 238024087, "building": "retail", "name": "", "height": null, "height_m": null, "levels": null, "tract_id": "40109108304", "tract_name": "1083.04", "tags": {"building": "retail"}}}, {"type": "Feature", "geometry": {"type": "Polygon", "coordinates": [[[-97.4852162, 35.6306889], [-97.484889, 35.6306583], [-97.4849882, 35.6299389], [-97.486332, 35.6300545], [-97.4862381, 35.6307019], [-97.4852296, 35.6306169], [-97.4852162, 35.6306889]]]}, "properties": {"osm_id": 238024595, "building": "yes", "name": "Academy Sports + Outdoors", "height": null, "height_m": null, "levels": null, "tract_id": "40109108304", "tract_name": "1083.04", "tags": {"brand": "Academy Sports + Outdoors", "brand:wikidata": "Q4671380", "building": "yes", "name": "Academy Sports + Outdoors", "shop": "sports", "website": "https://www.academy.com/storelocator/oklahoma/edmond/store-0085"}}}, {"type": "Feature", "geometry": {"type": "Polygon", "coordinates": [[[-97.4857057, 35.6355176], [-97.484948, 35.6354503], [-97.4849686, 35.635297], [-97.4848285, 35.6352846], [-97.4847999, 35.6352821], [-97.484828, 35.6350732], [-97.4848592, 35.635076], [-97.4849471, 35.6350838], [-97.4849775, 35.6348576], [-97.4849576, 35.6348559], [-97.4849907, 35.6346086], [-97.4850105, 35.6346104], [-97.4850393, 35.6343955], [-97.4850984, 35.6343991], [-97.4851189, 35.6342375], [-97.4852903, 35.6342513], [-97.4857198, 35.6342858], [-97.4857292, 35.634209], [-97.4858897, 35.634222], [-97.4857057, 35.6355176]]]}, "properties": {"osm_id": 238024596, "building": "yes", "name": "The Home Depot", "height": null, "height_m": null, "levels": null, "tract_id": "40109108304", "tract_name": "1083.04", "tags": {"addr:city": "Edmond", "addr:housenumber": "1901", "addr:postcode": "73013", "addr:state": "OK", "addr:street": "South Broadway", "alt_name": "Home Depot", "branch": "Edmond", "brand": "The Home Depot", "brand:wikidata": "Q864407", "building": "yes", "name": "The Home Depot", "opening_hours": "Mo-Sa 06:00-22:00; Su 08:00-20:00", "phone": "+1 405-330-0151", "ref": "3907", "shop": "doityourself", "website": "https://www.homedepot.com/l/edmond/ok/edmond/73013/3907"}}}, {"type": "Feature", "geometry": {"type": "Polygon", "coordinates": [[[-97.4878243, 35.6239589], [-97.4878254, 35.623868], [-97.4876144, 35.6238652], [-97.4876137, 35.6239574], [-97.4878243, 35.6239589]]]}, "properties": {"osm_id": 248946584, "building": "yes", "name": "", "height": null, "height_m": null, "levels": null, "tract_id": "40109108304", "tract_name": "1083.04", "tags": {"building": "yes", "shop": "yes", "source": "Bing"}}}, {"type": "Feature", "geometry": {"type": "Polygon", "coordinates": [[[-97.4863976, 35.6250048], [-97.4861559, 35.6249051], [-97.4861043, 35.6249877], [-97.486346, 35.6250874], [-97.4863976, 35.6250048]]]}, "properties": {"osm_id": 248946585, "building": "yes", "name": "Starbucks", "height": null, "height_m": null, "levels": null, "tract_id": "40109108304", "tract_name": "1083.04", "tags": {"amenity": "cafe", "brand": "Starbucks", "brand:wikidata": "Q37158", "building": "yes", "cuisine": "coffee_shop", "name": "Starbucks", "official_name": "Starbucks Coffee", "source": "Bing", "survey:date": "2021-02-12", "takeaway": "yes"}}}, {"type": "Feature", "geometry": {"type": "Polygon", "coordinates": [[[-97.4867524, 35.6246805], [-97.4864688, 35.624562], [-97.4863838, 35.6246963], [-97.4866674, 35.6248149], [-97.4867524, 35.6246805]]]}, "properties": {"osm_id": 248946586, "building": "yes", "name": "", "height": null, "height_m": null, "levels": null, "tract_id": "40109108304", "tract_name": "1083.04", "tags": {"building": "yes", "shop": "yes", "source": "Bing"}}}, {"type": "Feature", "geometry": {"type": "Polygon", "coordinates": [[[-97.4842809, 35.6376924], [-97.484293, 35.6376081], [-97.4844742, 35.6376252], [-97.4844621, 35.6377095], [-97.4842809, 35.6376924]]]}, "properties": {"osm_id": 309854843, "building": "yes", "name": "Chipotle", "height": null, "height_m": null, "levels": null, "tract_id": "40109108304", "tract_name": "1083.04", "tags": {"addr:city": "Edmond", "addr:housenumber": "1569", "addr:postcode": "73013", "addr:state": "OK", "addr:street": "South Broadway", "amenity": "fast_food", "brand": "Chipotle", "brand:wikidata": "Q465751", "building": "yes", "cuisine": "mexican", "name": "Chipotle", "official_name": "Chipotle Mexican Grill", "phone": "+1 405-341-6765", "takeaway": "yes", "website": "https://locations.chipotle.com/ok/edmond/1569-s-broadway"}}}, {"type": "Feature", "geometry": {"type": "Polygon", "coordinates": [[[-97.484293, 35.6376081], [-97.4843076, 35.637512], [-97.4844871, 35.6375291], [-97.4844742, 35.6376252], [-97.484293, 35.6376081]]]}, "properties": {"osm_id": 309854844, "building": "yes", "name": "", "height": null, "height_m": null, "levels": null, "tract_id": "40109108304", "tract_name": "1083.04", "tags": {"building": "yes"}}}, {"type": "Feature", "geometry": {"type": "Polygon", "coordinates": [[[-97.4843076, 35.637512], [-97.4843146, 35.6374374], [-97.4845, 35.6374556], [-97.4844871, 35.6375291], [-97.4843076, 35.637512]]]}, "properties": {"osm_id": 309854845, "building": "yes", "name": "", "height": null, "height_m": null, "levels": null, "tract_id": "40109108304", "tract_name": "1083.04", "tags": {"building": "yes"}}}, {"type": "Feature", "geometry": {"type": "Polygon", "coordinates": [[[-97.4843146, 35.6374374], [-97.4843366, 35.637289], [-97.4844246, 35.6372976], [-97.4844196, 35.6373312], [-97.4844769, 35.6373368], [-97.4844695, 35.6373871], [-97.4845096, 35.637391], [-97.4845, 35.6374556], [-97.4843146, 35.6374374]]]}, "properties": {"osm_id": 309854846, "building": "yes", "name": "", "height": null, "height_m": null, "levels": null, "tract_id": "40109108304", "tract_name": "1083.04", "tags": {"building": "yes"}}}, {"type": "Feature", "geometry": {"type": "Polygon", "coordinates": [[[-97.4839552, 35.6380479], [-97.4839662, 35.6379589], [-97.4841478, 35.6379739], [-97.4841353, 35.6380603], [-97.4839552, 35.6380479]]]}, "properties": {"osm_id": 310695781, "building": "yes", "name": "AT&T", "height": null, "height_m": null, "levels": null, "tract_id": "40109108304", "tract_name": "1083.04", "tags": {"addr:city": "Edmond", "addr:postcode": "73013", "addr:state": "OK", "brand": "AT&T", "brand:wikidata": "Q298594", "building": "yes", "name": "AT&T", "shop": "mobile_phone"}}}, {"type": "Feature", "geometry": {"type": "Polygon", "coordinates": [[[-97.4839662, 35.6379589], [-97.4839798, 35.6378339], [-97.4840642, 35.6378414], [-97.4841169, 35.6378426], [-97.4841599, 35.6378896], [-97.4841478, 35.6379739], [-97.4839662, 35.6379589]]]}, "properties": {"osm_id": 310695785, "building": "yes", "name": "Starbucks", "height": null, "height_m": null, "levels": null, "tract_id": "40109108304", "tract_name": "1083.04", "tags": {"addr:city": "Edmond", "addr:housenumber": "1509", "addr:postcode": "73013", "addr:state": "OK", "addr:street": "South Broadway", "amenity": "cafe", "branch": "15th & Broadway - Edmond", "brand": "Starbucks", "brand:wikidata": "Q37158", "building": "yes", "cuisine": "coffee_shop", "name": "Starbucks", "official_name": "Starbucks Coffee", "phone": "+1 405-216-0699", "ref": "17643", "takeaway": "yes", "website": "https://www.starbucks.com/store-locator/store/17643/15th-broadway-edmond-1509-south-broadway-edmond-ok-730134010-us"}}}, {"type": "Feature", "geometry": {"type": "Polygon", "coordinates": [[[-97.4852037, 35.637714], [-97.4854092, 35.6377328], [-97.4853711, 35.6380081], [-97.4851656, 35.6379893], [-97.4852037, 35.637714]]]}, "properties": {"osm_id": 435854852, "building": "yes", "name": "", "height": null, "height_m": null, "levels": null, "tract_id": "40109108304", "tract_name": "1083.04", "tags": {"building": "yes"}}}, {"type": "Feature", "geometry": {"type": "Polygon", "coordinates": [[[-97.4612877, 35.6250611], [-97.4612571, 35.6250613], [-97.4612164, 35.6250616], [-97.4611722, 35.6250619], [-97.4611331, 35.6250621], [-97.461096, 35.6250624], [-97.4610512, 35.6250626], [-97.4610265, 35.6250628], [-97.4609963, 35.625063], [-97.4609958, 35.6250121], [-97.4609957, 35.6250081], [-97.4610497, 35.6250077], [-97.4610883, 35.6250075], [-97.4610873, 35.6249031], [-97.4610871, 35.6248815], [-97.4610871, 35.6248761], [-97.4610381, 35.6248764], [-97.461037, 35.6247557], [-97.4609881, 35.6247561], [-97.4609881, 35.6247523], [-97.4609879, 35.6247344], [-97.4609878, 35.6247247], [-97.4609876, 35.6247041], [-97.4609873, 35.6246764], [-97.460995, 35.6246763], [-97.4609945, 35.6246194], [-97.4610377, 35.6246192], [-97.4610375, 35.6245999], [-97.4611775, 35.6245991], [-97.4611777, 35.6246206], [-97.4612809, 35.62462], [-97.4612824, 35.6247804], [-97.4612469, 35.6247806], [-97.4612473, 35.6248183], [-97.4612479, 35.6248782], [-97.4611666, 35.6248787], [-97.4611667, 35.624895], [-97.4611668, 35.6249056], [-97.4611669, 35.624911], [-97.4611678, 35.6250083], [-97.4611728, 35.6250083], [-97.4612154, 35.625008], [-97.4612568, 35.6250077], [-97.4612871, 35.6250075], [-97.4612877, 35.6250611]]]}, "properties": {"osm_id": 546151567, "building": "yes", "name": "Tinker Federal Credit Union", "height": null, "height_m": null, "levels": null, "tract_id": "40109108304", "tract_name": "1083.04", "tags": {"addr:city": "Edmond", "addr:housenumber": "3141", "addr:postcode": "73013", "addr:state": "OK", "addr:street": "South Bryant Avenue", "amenity": "bank", "atm": "yes", "building": "yes", "drive_through": "yes", "name": "Tinker Federal Credit Union"}}}, {"type": "Feature", "geometry": {"type": "Polygon", "coordinates": [[[-97.4838626, 35.6240552], [-97.483861, 35.6239192], [-97.4837974, 35.6239196], [-97.4837978, 35.6239338], [-97.4836435, 35.6239921], [-97.483643, 35.6240538], [-97.4838626, 35.6240552]]]}, "properties": {"osm_id": 548015130, "building": "yes", "name": "All About Cha", "height": null, "height_m": null, "levels": null, "tract_id": "40109108304", "tract_name": "1083.04", "tags": {"addr:city": "Edmond", "addr:housenumber": "3272", "addr:postcode": "73013", "addr:state": "OK", "addr:street": "South Broadway", "amenity": "cafe", "building": "yes", "name": "All About Cha", "wheelchair": "yes"}}}, {"type": "Feature", "geometry": {"type": "Polygon", "coordinates": [[[-97.4851613, 35.6239833], [-97.4849716, 35.6239023], [-97.484962, 35.6239149], [-97.4848291, 35.6239097], [-97.4847945, 35.6239083], [-97.4847952, 35.623952], [-97.4847443, 35.623952], [-97.4847458, 35.6239095], [-97.4846918, 35.6239089], [-97.4846314, 35.6239083], [-97.4846241, 35.6241698], [-97.4847192, 35.6241692], [-97.4847849, 35.6241986], [-97.4847122, 35.6243148], [-97.4849524, 35.6243167], [-97.4851613, 35.6239833]]]}, "properties": {"osm_id": 548015134, "building": "yes", "name": "", "height": null, "height_m": null, "levels": null, "tract_id": "40109108304", "tract_name": "1083.04", "tags": {"building": "yes"}}}, {"type": "Feature", "geometry": {"type": "Polygon", "coordinates": [[[-97.4855161, 35.6243066], [-97.4855613, 35.6242398], [-97.4855013, 35.624213], [-97.4854438, 35.6241874], [-97.4854628, 35.6241594], [-97.4853614, 35.624114], [-97.4852668, 35.6242539], [-97.4852791, 35.6242594], [-97.4852477, 35.6243058], [-97.4852577, 35.6243103], [-97.485245, 35.624329], [-97.4853135, 35.6243596], [-97.4853251, 35.6243423], [-97.4853369, 35.6243476], [-97.4853998, 35.6242546], [-97.4854598, 35.6242814], [-97.4855161, 35.6243066]]]}, "properties": {"osm_id": 548015135, "building": "yes", "name": "MidFirst Bank", "height": null, "height_m": null, "levels": null, "tract_id": "40109108304", "tract_name": "1083.04", "tags": {"amenity": "bank", "brand": "MidFirst Bank", "brand:wikidata": "Q17081131", "building": "yes", "name": "MidFirst Bank"}}}, {"type": "Feature", "geometry": {"type": "Polygon", "coordinates": [[[-97.4848168, 35.6253616], [-97.4847216, 35.6253655], [-97.4847222, 35.625375], [-97.4846102, 35.6253795], [-97.4846029, 35.6252613], [-97.4845874, 35.6252619], [-97.4845849, 35.6252219], [-97.4845983, 35.6252213], [-97.4845918, 35.6251151], [-97.4846474, 35.6251129], [-97.4846488, 35.6251366], [-97.4847102, 35.6251341], [-97.4847142, 35.6251998], [-97.4847429, 35.6251986], [-97.4847481, 35.6252831], [-97.4848118, 35.6252805], [-97.4848168, 35.6253616]]]}, "properties": {"osm_id": 548024408, "building": "yes", "name": "Burger King", "height": null, "height_m": null, "levels": null, "tract_id": "40109108304", "tract_name": "1083.04", "tags": {"addr:city": "Edmond", "addr:housenumber": "3100", "addr:postcode": "73013-4056", "addr:state": "OK", "addr:street": "South Broadway", "amenity": "fast_food", "brand": "Burger King", "brand:wikidata": "Q177054", "building": "yes", "cuisine": "burger", "delivery": "yes", "drive_through": "yes", "internet_access": "wlan", "name": "Burger King", "opening_hours": "Mo-Sa 06:00-22:00; Su 07:00-22:00", "phone": "+1 405-341-7398", "ref": "3372", "takeaway": "yes", "website": "https://www.bk.com/store-locator/store/restaurant_1864"}}}, {"type": "Feature", "geometry": {"type": "Polygon", "coordinates": [[[-97.4818669, 35.6243958], [-97.4818669, 35.6242017], [-97.481833, 35.6242017], [-97.4818348, 35.6240438], [-97.481735, 35.6240409], [-97.481735, 35.6239859], [-97.4815782, 35.6239844], [-97.4815764, 35.6241134], [-97.4816174, 35.6241148], [-97.4816156, 35.6242191], [-97.4815889, 35.6242191], [-97.4815871, 35.6243292], [-97.4816192, 35.6243306], [-97.4816156, 35.6244349], [-97.4818294, 35.6244378], [-97.4818312, 35.6243973], [-97.4818669, 35.6243958]]]}, "properties": {"osm_id": 548195449, "building": "commercial", "name": "", "height": null, "height_m": null, "levels": null, "tract_id": "40109108304", "tract_name": "1083.04", "tags": {"building": "commercial"}}}, {"type": "Feature", "geometry": {"type": "Polygon", "coordinates": [[[-97.4805114, 35.6236901], [-97.4808219, 35.6238406], [-97.4808221, 35.6238317], [-97.4809554, 35.6238316], [-97.4809555, 35.6238416], [-97.4812776, 35.6236957], [-97.4813519, 35.6238059], [-97.4810248, 35.6239571], [-97.4810245, 35.6239697], [-97.4812912, 35.6241934], [-97.4811808, 35.6242835], [-97.4809513, 35.6240918], [-97.4809488, 35.6242309], [-97.480816, 35.6242295], [-97.4808183, 35.624087], [-97.4805828, 35.6242781], [-97.4804773, 35.6241832], [-97.4807499, 35.6239667], [-97.4807492, 35.623954], [-97.4804303, 35.6237986], [-97.4805114, 35.6236901]]]}, "properties": {"osm_id": 548195487, "building": "commercial", "name": "", "height": null, "height_m": null, "levels": null, "tract_id": "40109108304", "tract_name": "1083.04", "tags": {"building": "commercial"}}}, {"type": "Feature", "geometry": {"type": "Polygon", "coordinates": [[[-97.4802549, 35.6246653], [-97.4800458, 35.6246642], [-97.4800493, 35.6243583], [-97.4802573, 35.6243583], [-97.4802549, 35.6246653]]]}, "properties": {"osm_id": 548195488, "building": "commercial", "name": "", "height": null, "height_m": null, "levels": null, "tract_id": "40109108304", "tract_name": "1083.04", "tags": {"building": "commercial"}}}, {"type": "Feature", "geometry": {"type": "Polygon", "coordinates": [[[-97.4801522, 35.6251388], [-97.4800396, 35.6251388], [-97.4800405, 35.6250426], [-97.4801539, 35.6250432], [-97.4801522, 35.6251388]]]}, "properties": {"osm_id": 548195504, "building": "residential", "name": "", "height": null, "height_m": null, "levels": null, "tract_id": "40109108304", "tract_name": "1083.04", "tags": {"building": "residential"}}}, {"type": "Feature", "geometry": {"type": "Polygon", "coordinates": [[[-97.4801547, 35.6249235], [-97.4800405, 35.6249228], [-97.4800413, 35.6248293], [-97.4801564, 35.6248279], [-97.4801547, 35.6249235]]]}, "properties": {"osm_id": 548195506, "building": "residential", "name": "", "height": null, "height_m": null, "levels": null, "tract_id": "40109108304", "tract_name": "1083.04", "tags": {"building": "residential"}}}, {"type": "Feature", "geometry": {"type": "Polygon", "coordinates": [[[-97.4787298, 35.6245223], [-97.4784894, 35.6245215], [-97.4784894, 35.6244787], [-97.4787309, 35.6244804], [-97.4787298, 35.6245223]]]}, "properties": {"osm_id": 548195512, "building": "roof", "name": "", "height": null, "height_m": null, "levels": null, "tract_id": "40109108304", "tract_name": "1083.04", "tags": {"building": "roof"}}}, {"type": "Feature", "geometry": {"type": "Polygon", "coordinates": [[[-97.4790951, 35.6247924], [-97.4790972, 35.6246087], [-97.4792489, 35.6246079], [-97.4792468, 35.6247933], [-97.4790951, 35.6247924]]]}, "properties": {"osm_id": 548195513, "building": "yes", "name": "", "height": null, "height_m": null, "levels": null, "tract_id": "40109108304", "tract_name": "1083.04", "tags": {"building": "yes"}}}, {"type": "Feature", "geometry": {"type": "Polygon", "coordinates": [[[-97.4778758, 35.6246234], [-97.4776288, 35.6246221], [-97.4776273, 35.6244883], [-97.4778758, 35.6244908], [-97.4778758, 35.6246234]]]}, "properties": {"osm_id": 548195540, "building": "yes", "name": "", "height": null, "height_m": null, "levels": null, "tract_id": "40109108304", "tract_name": "1083.04", "tags": {"building": "yes"}}}, {"type": "Feature", "geometry": {"type": "Polygon", "coordinates": [[[-97.4778758, 35.6246234], [-97.4779042, 35.6246033], [-97.477965, 35.6246033], [-97.4779842, 35.6245865], [-97.477985, 35.6245264], [-97.4779665, 35.6245083], [-97.4779042, 35.6245089], [-97.4778758, 35.6244908], [-97.4778758, 35.6246234]]]}, "properties": {"osm_id": 548195541, "building": "roof", "name": "", "height": null, "height_m": null, "levels": null, "tract_id": "40109108304", "tract_name": "1083.04", "tags": {"building": "roof"}}}, {"type": "Feature", "geometry": {"type": "Polygon", "coordinates": [[[-97.4778527, 35.625051], [-97.4776719, 35.625056], [-97.4776673, 35.6248503], [-97.4778481, 35.6248497], [-97.4778527, 35.625051]]]}, "properties": {"osm_id": 548195542, "building": "yes", "name": "", "height": null, "height_m": null, "levels": null, "tract_id": "40109108304", "tract_name": "1083.04", "tags": {"building": "yes"}}}, {"type": "Feature", "geometry": {"type": "Polygon", "coordinates": [[[-97.4774135, 35.6250587], [-97.4773992, 35.6247212], [-97.4771288, 35.6247275], [-97.4771441, 35.6250634], [-97.4774135, 35.6250587]]]}, "properties": {"osm_id": 548195543, "building": "yes", "name": "", "height": null, "height_m": null, "levels": null, "tract_id": "40109108304", "tract_name": "1083.04", "tags": {"building": "yes"}}}, {"type": "Feature", "geometry": {"type": "Polygon", "coordinates": [[[-97.483529, 35.625803], [-97.4833297, 35.6257999], [-97.483329, 35.6256574], [-97.4835297, 35.6256599], [-97.483529, 35.625803]]]}, "properties": {"osm_id": 548201193, "building": "yes", "name": "", "height": null, "height_m": null, "levels": null, "tract_id": "40109108304", "tract_name": "1083.04", "tags": {"building": "yes"}}}, {"type": "Feature", "geometry": {"type": "Polygon", "coordinates": [[[-97.4837989, 35.6258162], [-97.4837966, 35.6261663], [-97.4843612, 35.6261719], [-97.4843612, 35.6261538], [-97.4844789, 35.6261563], [-97.4844789, 35.6261494], [-97.4845289, 35.6261494], [-97.4845281, 35.6260331], [-97.4843605, 35.6260306], [-97.4843612, 35.626055], [-97.4843397, 35.626055], [-97.4843405, 35.6260688], [-97.4841341, 35.6260676], [-97.4841341, 35.6260596], [-97.4840205, 35.6260593], [-97.4840209, 35.6260662], [-97.4839303, 35.6260652], [-97.4839282, 35.6259592], [-97.4839436, 35.6259599], [-97.4839423, 35.6258977], [-97.4839312, 35.6258977], [-97.4839286, 35.6258182], [-97.4837989, 35.6258162]]]}, "properties": {"osm_id": 548201194, "building": "yes", "name": "", "height": null, "height_m": null, "levels": null, "tract_id": "40109108304", "tract_name": "1083.04", "tags": {"building": "yes"}}}, {"type": "Feature", "geometry": {"type": "Polygon", "coordinates": [[[-97.4842551, 35.625642], [-97.4842576, 35.6258943], [-97.4845448, 35.6258984], [-97.4845457, 35.6258392], [-97.4845443, 35.6257836], [-97.4843519, 35.6257812], [-97.484351, 35.6256424], [-97.4842551, 35.625642]]]}, "properties": {"osm_id": 548201196, "building": "yes", "name": "", "height": null, "height_m": null, "levels": null, "tract_id": "40109108304", "tract_name": "1083.04", "tags": {"building": "yes"}}}, {"type": "Feature", "geometry": {"type": "Polygon", "coordinates": [[[-97.4843397, 35.6262076], [-97.4842247, 35.6262047], [-97.4841134, 35.6262185], [-97.4839459, 35.6266074], [-97.4841365, 35.6266624], [-97.4843397, 35.6262076]]]}, "properties": {"osm_id": 548201198, "building": "yes", "name": "", "height": null, "height_m": null, "levels": null, "tract_id": "40109108304", "tract_name": "1083.04", "tags": {"building": "yes"}}}, {"type": "Feature", "geometry": {"type": "Polygon", "coordinates": [[[-97.4842443, 35.6269325], [-97.4844617, 35.6269485], [-97.4844849, 35.6267522], [-97.4842657, 35.6267356], [-97.4842443, 35.6269325]]]}, "properties": {"osm_id": 548201199, "building": "yes", "name": "", "height": null, "height_m": null, "levels": null, "tract_id": "40109108304", "tract_name": "1083.04", "tags": {"building": "yes"}}}, {"type": "Feature", "geometry": {"type": "Polygon", "coordinates": [[[-97.4840136, 35.626792], [-97.4838104, 35.6267805], [-97.4838149, 35.6266689], [-97.4840216, 35.6266834], [-97.4840136, 35.626792]]]}, "properties": {"osm_id": 548201200, "building": "yes", "name": "", "height": null, "height_m": null, "levels": null, "tract_id": "40109108304", "tract_name": "1083.04", "tags": {"building": "yes"}}}, {"type": "Feature", "geometry": {"type": "Polygon", "coordinates": [[[-97.4839191, 35.6269188], [-97.4839245, 35.6268587], [-97.4838122, 35.6268536], [-97.4838122, 35.6269108], [-97.4839191, 35.6269188]]]}, "properties": {"osm_id": 548201202, "building": "yes", "name": "", "height": null, "height_m": null, "levels": null, "tract_id": "40109108304", "tract_name": "1083.04", "tags": {"building": "yes"}}}, {"type": "Feature", "geometry": {"type": "Polygon", "coordinates": [[[-97.4844448, 35.627094], [-97.4844555, 35.6269897], [-97.484378, 35.6269847], [-97.4843807, 35.6269651], [-97.4841401, 35.6269448], [-97.4841267, 35.6270882], [-97.4843628, 35.6271063], [-97.4843655, 35.6270861], [-97.4844448, 35.627094]]]}, "properties": {"osm_id": 548201203, "building": "yes", "name": "", "height": null, "height_m": null, "levels": null, "tract_id": "40109108304", "tract_name": "1083.04", "tags": {"building": "yes"}}}, {"type": "Feature", "geometry": {"type": "Polygon", "coordinates": [[[-97.4842149, 35.6273221], [-97.4844528, 35.6273431], [-97.4844698, 35.6272012], [-97.4842319, 35.6271802], [-97.4842149, 35.6273221]]]}, "properties": {"osm_id": 548201205, "building": "yes", "name": "", "height": null, "height_m": null, "levels": null, "tract_id": "40109108304", "tract_name": "1083.04", "tags": {"building": "yes"}}}, {"type": "Feature", "geometry": {"type": "Polygon", "coordinates": [[[-97.4842149, 35.6273221], [-97.4839833, 35.6273011], [-97.4840029, 35.6271607], [-97.4842319, 35.6271802], [-97.4842149, 35.6273221]]]}, "properties": {"osm_id": 548201207, "building": "yes", "name": "", "height": null, "height_m": null, "levels": null, "tract_id": "40109108304", "tract_name": "1083.04", "tags": {"building": "yes"}}}, {"type": "Feature", "geometry": {"type": "Polygon", "coordinates": [[[-97.4844029, 35.6275264], [-97.4843807, 35.6276929], [-97.4843958, 35.6276944], [-97.4843887, 35.6277494], [-97.4843717, 35.6277472], [-97.4843619, 35.6278247], [-97.4841971, 35.6278074], [-97.4841989, 35.6277929], [-97.4841829, 35.6277929], [-97.4841873, 35.6277538], [-97.4842025, 35.6277552], [-97.4842025, 35.6277443], [-97.4841071, 35.6277328], [-97.4840845, 35.6277599], [-97.4840697, 35.6277777], [-97.4840457, 35.6277661], [-97.4840368, 35.6277733], [-97.4840091, 35.6277588], [-97.4840145, 35.6277509], [-97.4839869, 35.6277371], [-97.4840016, 35.627719], [-97.4840528, 35.627656], [-97.4841356, 35.627698], [-97.4841241, 35.6277096], [-97.4842087, 35.6277168], [-97.4842176, 35.6276444], [-97.4840528, 35.6276299], [-97.4840688, 35.627496], [-97.4844029, 35.6275264]]]}, "properties": {"osm_id": 548201208, "building": "yes", "name": "", "height": null, "height_m": null, "levels": null, "tract_id": "40109108304", "tract_name": "1083.04", "tags": {"building": "yes"}}}, {"type": "Feature", "geometry": {"type": "Polygon", "coordinates": [[[-97.4832411, 35.6281521], [-97.483128, 35.6280934], [-97.4833855, 35.6277871], [-97.4835904, 35.6278986], [-97.4835236, 35.6279819], [-97.4834505, 35.6279435], [-97.4833819, 35.6280369], [-97.4833445, 35.6280174], [-97.4832411, 35.6281521]]]}, "properties": {"osm_id": 548201210, "building": "yes", "name": "", "height": null, "height_m": null, "levels": null, "tract_id": "40109108304", "tract_name": "1083.04", "tags": {"building": "yes"}}}, {"type": "Feature", "geometry": {"type": "Polygon", "coordinates": [[[-97.4832741, 35.6281875], [-97.4833614, 35.6280782], [-97.4834229, 35.6281101], [-97.4835004, 35.6280094], [-97.4835325, 35.6280268], [-97.48361, 35.6279377], [-97.4837089, 35.6279862], [-97.4834674, 35.6282882], [-97.4832741, 35.6281875]]]}, "properties": {"osm_id": 548201212, "building": "yes", "name": "", "height": null, "height_m": null, "levels": null, "tract_id": "40109108304", "tract_name": "1083.04", "tags": {"building": "yes"}}}, {"type": "Feature", "geometry": {"type": "Polygon", "coordinates": [[[-97.4838283, 35.6283983], [-97.4838479, 35.6281926], [-97.4841018, 35.6282114], [-97.4840991, 35.6282382], [-97.4842639, 35.628252], [-97.4842417, 35.6284678], [-97.4841918, 35.6284635], [-97.4841744, 35.6286239], [-97.4840412, 35.6286126], [-97.4840368, 35.628646], [-97.4839637, 35.6286387], [-97.4839886, 35.6284091], [-97.4838283, 35.6283983]]]}, "properties": {"osm_id": 548201214, "building": "yes", "name": "", "height": null, "height_m": null, "levels": null, "tract_id": "40109108304", "tract_name": "1083.04", "tags": {"building": "yes"}}}, {"type": "Feature", "geometry": {"type": "Polygon", "coordinates": [[[-97.4838165, 35.6291723], [-97.4842063, 35.6291775], [-97.4842037, 35.6290427], [-97.4840957, 35.6290427], [-97.4840751, 35.6290238], [-97.484012, 35.6290228], [-97.4839979, 35.6290406], [-97.4838178, 35.6290395], [-97.4838165, 35.6291723]]]}, "properties": {"osm_id": 548201215, "building": "yes", "name": "", "height": null, "height_m": null, "levels": null, "tract_id": "40109108304", "tract_name": "1083.04", "tags": {"building": "yes"}}}, {"type": "Feature", "geometry": {"type": "Polygon", "coordinates": [[[-97.4841561, 35.6295916], [-97.4840481, 35.6295853], [-97.4840545, 35.6295027], [-97.4840185, 35.6295006], [-97.4840352, 35.629279], [-97.4841728, 35.6292863], [-97.4841561, 35.6295916]]]}, "properties": {"osm_id": 548201216, "building": "yes", "name": "", "height": null, "height_m": null, "levels": null, "tract_id": "40109108304", "tract_name": "1083.04", "tags": {"building": "yes"}}}, {"type": "Feature", "geometry": {"type": "Polygon", "coordinates": [[[-97.4839027, 35.6296052], [-97.4838422, 35.6296052], [-97.4838422, 35.6295937], [-97.4837818, 35.6295916], [-97.4837843, 35.6294358], [-97.4839027, 35.6294348], [-97.4839027, 35.6296052]]]}, "properties": {"osm_id": 548201217, "building": "yes", "name": "", "height": null, "height_m": null, "levels": null, "tract_id": "40109108304", "tract_name": "1083.04", "tags": {"building": "yes"}}}, {"type": "Feature", "geometry": {"type": "Polygon", "coordinates": [[[-97.4836777, 35.6299753], [-97.4836798, 35.6300612], [-97.4837456, 35.6300624], [-97.4837456, 35.6301455], [-97.4838599, 35.630146], [-97.4838607, 35.6301577], [-97.4839307, 35.6301582], [-97.4839307, 35.6301431], [-97.483995, 35.6301426], [-97.4839965, 35.6301338], [-97.4840093, 35.6301344], [-97.4840086, 35.6300804], [-97.4839957, 35.6300804], [-97.4839957, 35.630074], [-97.4839164, 35.6300734], [-97.4839157, 35.6299764], [-97.4836777, 35.6299753]]]}, "properties": {"osm_id": 548201218, "building": "yes", "name": "", "height": null, "height_m": null, "levels": null, "tract_id": "40109108304", "tract_name": "1083.04", "tags": {"building": "yes"}}}, {"type": "Feature", "geometry": {"type": "Polygon", "coordinates": [[[-97.4835141, 35.6331932], [-97.483605, 35.6331961], [-97.4836041, 35.6331295], [-97.4835845, 35.6331295], [-97.4835845, 35.6330926], [-97.483671, 35.633094], [-97.4836754, 35.632913], [-97.4835022, 35.6329133], [-97.4835141, 35.6331932]]]}, "properties": {"osm_id": 548201219, "building": "yes", "name": "", "height": null, "height_m": null, "levels": null, "tract_id": "40109108304", "tract_name": "1083.04", "tags": {"building": "yes"}}}, {"type": "Feature", "geometry": {"type": "Polygon", "coordinates": [[[-97.4836016, 35.6327872], [-97.4837085, 35.6327882], [-97.4837094, 35.6326877], [-97.4835282, 35.6326853], [-97.4835303, 35.6327864], [-97.4835704, 35.6327865], [-97.4835707, 35.6327976], [-97.483602, 35.6327977], [-97.4836016, 35.6327872]]]}, "properties": {"osm_id": 548201220, "building": "yes", "name": "", "height": null, "height_m": null, "levels": null, "tract_id": "40109108304", "tract_name": "1083.04", "tags": {"building": "yes"}}}, {"type": "Feature", "geometry": {"type": "Polygon", "coordinates": [[[-97.4833916, 35.63279], [-97.4834019, 35.6326399], [-97.4832528, 35.6326329], [-97.4832448, 35.6327825], [-97.4833916, 35.63279]]]}, "properties": {"osm_id": 548201221, "building": "yes", "name": "", "height": null, "height_m": null, "levels": null, "tract_id": "40109108304", "tract_name": "1083.04", "tags": {"building": "yes"}}}, {"type": "Feature", "geometry": {"type": "Polygon", "coordinates": [[[-97.4837421, 35.6321974], [-97.4833943, 35.6321932], [-97.4833943, 35.6320707], [-97.483741, 35.6320741], [-97.4837421, 35.6321974]]]}, "properties": {"osm_id": 548201222, "building": "yes", "name": "", "height": null, "height_m": null, "levels": null, "tract_id": "40109108304", "tract_name": "1083.04", "tags": {"building": "yes"}}}, {"type": "Feature", "geometry": {"type": "Polygon", "coordinates": [[[-97.4837741, 35.6320548], [-97.483417, 35.6320514], [-97.4834201, 35.6319105], [-97.4835739, 35.631913], [-97.4835749, 35.6318879], [-97.4836213, 35.6318895], [-97.4836213, 35.6319155], [-97.4837761, 35.6319164], [-97.4837741, 35.6320548]]]}, "properties": {"osm_id": 548201223, "building": "yes", "name": "", "height": null, "height_m": null, "levels": null, "tract_id": "40109108304", "tract_name": "1083.04", "tags": {"building": "yes"}}}, {"type": "Feature", "geometry": {"type": "Polygon", "coordinates": [[[-97.4834348, 35.6314759], [-97.4836051, 35.6314917], [-97.4836106, 35.6314557], [-97.4840066, 35.6314906], [-97.4840246, 35.6313656], [-97.4836272, 35.6313308], [-97.4836549, 35.6311091], [-97.4834804, 35.6310956], [-97.4834348, 35.6314759]]]}, "properties": {"osm_id": 548201224, "building": "yes", "name": "", "height": null, "height_m": null, "levels": null, "tract_id": "40109108304", "tract_name": "1083.04", "tags": {"building": "yes"}}}, {"type": "Feature", "geometry": {"type": "Polygon", "coordinates": [[[-97.4840453, 35.6311968], [-97.483828, 35.6311755], [-97.483846, 35.6310449], [-97.484062, 35.6310663], [-97.4840453, 35.6311968]]]}, "properties": {"osm_id": 548201225, "building": "yes", "name": "", "height": null, "height_m": null, "levels": null, "tract_id": "40109108304", "tract_name": "1083.04", "tags": {"building": "yes"}}}, {"type": "Feature", "geometry": {"type": "Polygon", "coordinates": [[[-97.4836729, 35.6306882], [-97.4834694, 35.6306859], [-97.4834763, 35.6302673], [-97.4841298, 35.6302673], [-97.4841284, 35.6303877], [-97.483666, 35.6303832], [-97.4836646, 35.6303641], [-97.4836203, 35.6303641], [-97.4836203, 35.630408], [-97.4836674, 35.6304091], [-97.4836729, 35.6306882]]]}, "properties": {"osm_id": 548201226, "building": "yes", "name": "", "height": null, "height_m": null, "levels": null, "tract_id": "40109108304", "tract_name": "1083.04", "tags": {"building": "yes"}}}, {"type": "Feature", "geometry": {"type": "Polygon", "coordinates": [[[-97.4608963, 35.6375525], [-97.4610651, 35.6375525], [-97.4610651, 35.6376736], [-97.4611413, 35.6376749], [-97.4611413, 35.6377597], [-97.461103, 35.6377599], [-97.461104, 35.6378854], [-97.461058, 35.6378847], [-97.4610589, 35.6379191], [-97.460955, 35.6379191], [-97.4609393, 35.6379318], [-97.4609066, 35.6379052], [-97.4608814, 35.6378847], [-97.4608979, 35.6378727], [-97.460897, 35.6378099], [-97.4609136, 35.6378099], [-97.4609136, 35.6377539], [-97.460897, 35.6377539], [-97.4608963, 35.6375525]]]}, "properties": {"osm_id": 551989711, "building": "yes", "name": "", "height": null, "height_m": null, "levels": null, "tract_id": "40109108304", "tract_name": "1083.04", "tags": {"amenity": "bank", "building": "yes"}}}, {"type": "Feature", "geometry": {"type": "Polygon", "coordinates": [[[-97.4620026, 35.6376373], [-97.4615326, 35.6376387], [-97.4615354, 35.6378787], [-97.4616685, 35.6378782], [-97.4616674, 35.6378492], [-97.4617118, 35.6378486], [-97.4617121, 35.6378778], [-97.4618231, 35.6378766], [-97.4618229, 35.6378491], [-97.4618667, 35.6378486], [-97.4618671, 35.6378768], [-97.4620035, 35.6378765], [-97.4620026, 35.6376373]]]}, "properties": {"osm_id": 551989712, "building": "commercial", "name": "", "height": null, "height_m": null, "levels": null, "tract_id": "40109108304", "tract_name": "1083.04", "tags": {"building": "commercial"}}}, {"type": "Feature", "geometry": {"type": "Polygon", "coordinates": [[[-97.4626232, 35.6380726], [-97.4626232, 35.6374554], [-97.4623566, 35.6374538], [-97.4623643, 35.6378591], [-97.4623863, 35.6378596], [-97.4623863, 35.6378955], [-97.4623522, 35.6378947], [-97.4623513, 35.6379269], [-97.4623863, 35.6379269], [-97.4623872, 35.6379687], [-97.4624065, 35.6379695], [-97.4624074, 35.6380726], [-97.4626232, 35.6380726]]]}, "properties": {"osm_id": 551989713, "building": "commercial", "name": "", "height": null, "height_m": null, "levels": null, "tract_id": "40109108304", "tract_name": "1083.04", "tags": {"building": "commercial"}}}, {"type": "Feature", "geometry": {"type": "Polygon", "coordinates": [[[-97.4686979, 35.6241878], [-97.4688551, 35.6241888], [-97.4688551, 35.6241497], [-97.4688657, 35.62415], [-97.4688657, 35.6241219], [-97.4688708, 35.6241219], [-97.4688711, 35.6240791], [-97.4688637, 35.6240791], [-97.4688634, 35.6240516], [-97.4688534, 35.6240514], [-97.4688537, 35.6240011], [-97.4686971, 35.624], [-97.4686979, 35.6241878]]]}, "properties": {"osm_id": 553810973, "building": "commercial", "name": "", "height": null, "height_m": null, "levels": null, "tract_id": "40109108304", "tract_name": "1083.04", "tags": {"building": "commercial"}}}, {"type": "Feature", "geometry": {"type": "Polygon", "coordinates": [[[-97.4682586, 35.6244587], [-97.468395, 35.6244577], [-97.4683961, 35.6244018], [-97.4684065, 35.6244018], [-97.4684065, 35.6243717], [-97.4684118, 35.6243714], [-97.4684116, 35.6243329], [-97.4684053, 35.6243328], [-97.4684053, 35.6243022], [-97.4683946, 35.6243022], [-97.468395, 35.6242755], [-97.4682579, 35.6242745], [-97.4682586, 35.6244587]]]}, "properties": {"osm_id": 553810974, "building": "commercial", "name": "", "height": null, "height_m": null, "levels": null, "tract_id": "40109108304", "tract_name": "1083.04", "tags": {"building": "commercial"}}}, {"type": "Feature", "geometry": {"type": "Polygon", "coordinates": [[[-97.4692925, 35.6244568], [-97.4691489, 35.6244549], [-97.4691489, 35.624272], [-97.4692931, 35.6242739], [-97.4692925, 35.6244568]]]}, "properties": {"osm_id": 553810975, "building": "commercial", "name": "", "height": null, "height_m": null, "levels": null, "tract_id": "40109108304", "tract_name": "1083.04", "tags": {"building": "commercial"}}}, {"type": "Feature", "geometry": {"type": "Polygon", "coordinates": [[[-97.4692937, 35.6246643], [-97.4691489, 35.6246623], [-97.4691465, 35.6244756], [-97.4692925, 35.624478], [-97.4692937, 35.6246643]]]}, "properties": {"osm_id": 553810976, "building": "commercial", "name": "", "height": null, "height_m": null, "levels": null, "tract_id": "40109108304", "tract_name": "1083.04", "tags": {"building": "commercial"}}}, {"type": "Feature", "geometry": {"type": "Polygon", "coordinates": [[[-97.4688592, 35.6247704], [-97.468706, 35.624769], [-97.468706, 35.6245847], [-97.4688592, 35.6245859], [-97.4688592, 35.6247704]]]}, "properties": {"osm_id": 553810977, "building": "commercial", "name": "", "height": null, "height_m": null, "levels": null, "tract_id": "40109108304", "tract_name": "1083.04", "tags": {"building": "commercial"}}}, {"type": "Feature", "geometry": {"type": "Polygon", "coordinates": [[[-97.4682547, 35.6249057], [-97.4684024, 35.6249061], [-97.4684033, 35.6247265], [-97.4682533, 35.6247242], [-97.4682547, 35.6249057]]]}, "properties": {"osm_id": 553810978, "building": "commercial", "name": "", "height": null, "height_m": null, "levels": null, "tract_id": "40109108304", "tract_name": "1083.04", "tags": {"building": "commercial"}}}, {"type": "Feature", "geometry": {"type": "Polygon", "coordinates": [[[-97.4692816, 35.6252963], [-97.4690706, 35.6252955], [-97.4690702, 35.6251802], [-97.4690954, 35.6251566], [-97.4690683, 35.6251353], [-97.4691011, 35.6251078], [-97.4691297, 35.6251299], [-97.4691573, 35.625109], [-97.4692811, 35.6251105], [-97.4692816, 35.6252963]]]}, "properties": {"osm_id": 553810979, "building": "commercial", "name": "", "height": null, "height_m": null, "levels": null, "tract_id": "40109108304", "tract_name": "1083.04", "tags": {"building": "commercial"}}}, {"type": "Feature", "geometry": {"type": "Polygon", "coordinates": [[[-97.4670286, 35.624154], [-97.4670286, 35.6238989], [-97.4669333, 35.6238989], [-97.4667985, 35.6238983], [-97.4667645, 35.6238989], [-97.4667679, 35.6239907], [-97.4668, 35.6239904], [-97.4668356, 35.6239907], [-97.4668642, 35.6239907], [-97.4668658, 35.6241527], [-97.4670286, 35.624154]]]}, "properties": {"osm_id": 553811702, "building": "church", "name": "", "height": null, "height_m": null, "levels": null, "tract_id": "40109108304", "tract_name": "1083.04", "tags": {"building": "church"}}}, {"type": "Feature", "geometry": {"type": "Polygon", "coordinates": [[[-97.4612761, 35.6303223], [-97.4611302, 35.6303225], [-97.4609921, 35.6303227], [-97.4608163, 35.6303229], [-97.460803, 35.630323], [-97.4608023, 35.6301729], [-97.4612761, 35.6301748], [-97.4612761, 35.6303223]]]}, "properties": {"osm_id": 555267956, "building": "commercial", "name": "", "height": null, "height_m": null, "levels": null, "tract_id": "40109108304", "tract_name": "1083.04", "tags": {"building": "commercial"}}}, {"type": "Feature", "geometry": {"type": "Polygon", "coordinates": [[[-97.4608113, 35.6308784], [-97.4610213, 35.6308787], [-97.4610217, 35.6307252], [-97.4609174, 35.6307252], [-97.460822, 35.6307252], [-97.4608099, 35.6307252], [-97.4608113, 35.6308784]]]}, "properties": {"osm_id": 555267960, "building": "commercial", "name": "", "height": null, "height_m": null, "levels": null, "tract_id": "40109108304", "tract_name": "1083.04", "tags": {"building": "commercial"}}}, {"type": "Feature", "geometry": {"type": "Polygon", "coordinates": [[[-97.461046, 35.6308775], [-97.4612528, 35.6308768], [-97.4612522, 35.6307231], [-97.4611479, 35.630724], [-97.461046, 35.630725], [-97.461046, 35.6308775]]]}, "properties": {"osm_id": 555267961, "building": "commercial", "name": "", "height": null, "height_m": null, "levels": null, "tract_id": "40109108304", "tract_name": "1083.04", "tags": {"building": "commercial"}}}, {"type": "Feature", "geometry": {"type": "Polygon", "coordinates": [[[-97.4612559, 35.6275094], [-97.4610899, 35.6275119], [-97.4610897, 35.6275195], [-97.460972, 35.6275207], [-97.4609715, 35.6275128], [-97.4608102, 35.6275145], [-97.4608089, 35.6274565], [-97.4608148, 35.6274564], [-97.4608128, 35.6273438], [-97.4612443, 35.6273406], [-97.4612443, 35.6274413], [-97.4612551, 35.6274407], [-97.4612559, 35.6275094]]]}, "properties": {"osm_id": 555267971, "building": "commercial", "name": "", "height": null, "height_m": null, "levels": null, "tract_id": "40109108304", "tract_name": "1083.04", "tags": {"building": "commercial"}}}, {"type": "Feature", "geometry": {"type": "Polygon", "coordinates": [[[-97.4610128, 35.6278058], [-97.4609279, 35.6278072], [-97.4609279, 35.6278123], [-97.460844, 35.6278138], [-97.4608391, 35.6276949], [-97.4608282, 35.6276949], [-97.4608242, 35.6275886], [-97.4609411, 35.6275877], [-97.4609429, 35.6276264], [-97.4610088, 35.6276268], [-97.4610128, 35.6278058]]]}, "properties": {"osm_id": 555267972, "building": "commercial", "name": "", "height": null, "height_m": null, "levels": null, "tract_id": "40109108304", "tract_name": "1083.04", "tags": {"building": "commercial"}}}, {"type": "Feature", "geometry": {"type": "Polygon", "coordinates": [[[-97.4609306, 35.6282681], [-97.4610713, 35.6282672], [-97.4610718, 35.6282382], [-97.461108, 35.6282386], [-97.461108, 35.6281763], [-97.4610904, 35.6281758], [-97.4610904, 35.6281464], [-97.4610633, 35.6281464], [-97.4610638, 35.6281143], [-97.4609343, 35.6281152], [-97.4609359, 35.6281685], [-97.4609184, 35.6281685], [-97.46092, 35.6282161], [-97.4609296, 35.6282161], [-97.4609306, 35.6282681]]]}, "properties": {"osm_id": 555267976, "building": "commercial", "name": "", "height": null, "height_m": null, "levels": null, "tract_id": "40109108304", "tract_name": "1083.04", "tags": {"building": "commercial"}}}, {"type": "Feature", "geometry": {"type": "Polygon", "coordinates": [[[-97.4610253, 35.6268079], [-97.4608711, 35.6268071], [-97.4608702, 35.6267046], [-97.460843, 35.6267042], [-97.4608435, 35.6266527], [-97.4608702, 35.6266527], [-97.4608697, 35.6265538], [-97.4610232, 35.626553], [-97.4610253, 35.6268079]]]}, "properties": {"osm_id": 555267979, "building": "commercial", "name": "", "height": null, "height_m": null, "levels": null, "tract_id": "40109108304", "tract_name": "1083.04", "tags": {"building": "commercial"}}}, {"type": "Feature", "geometry": {"type": "Polygon", "coordinates": [[[-97.4612239, 35.6268996], [-97.4612161, 35.6268473], [-97.4611961, 35.6268491], [-97.4611889, 35.6267979], [-97.4612182, 35.6267956], [-97.4612139, 35.6267677], [-97.4612068, 35.6267683], [-97.4612004, 35.6267236], [-97.4612082, 35.6267224], [-97.4612032, 35.6266928], [-97.4611979, 35.6266934], [-97.4611921, 35.6266491], [-97.4612889, 35.6266404], [-97.4612999, 35.626724], [-97.4614212, 35.6267137], [-97.4614419, 35.6268822], [-97.4612239, 35.6268996]]]}, "properties": {"osm_id": 555267980, "building": "commercial", "name": "", "height": null, "height_m": null, "levels": null, "tract_id": "40109108304", "tract_name": "1083.04", "tags": {"building": "commercial"}}}, {"type": "Feature", "geometry": {"type": "Polygon", "coordinates": [[[-97.4615079, 35.6269413], [-97.4613043, 35.6269393], [-97.4613059, 35.6271755], [-97.461354, 35.6271755], [-97.4613548, 35.6271835], [-97.4614069, 35.6271842], [-97.4614069, 35.6271761], [-97.4615079, 35.6271761], [-97.4615079, 35.6269413]]]}, "properties": {"osm_id": 555267981, "building": "commercial", "name": "", "height": null, "height_m": null, "levels": null, "tract_id": "40109108304", "tract_name": "1083.04", "tags": {"building": "commercial"}}}, {"type": "Feature", "geometry": {"type": "Polygon", "coordinates": [[[-97.4614637, 35.6261952], [-97.4612846, 35.6261952], [-97.4612811, 35.6260243], [-97.4614628, 35.6260228], [-97.4614637, 35.6261952]]]}, "properties": {"osm_id": 555267986, "building": "commercial", "name": "", "height": null, "height_m": null, "levels": null, "tract_id": "40109108304", "tract_name": "1083.04", "tags": {"building": "commercial"}}}, {"type": "Feature", "geometry": {"type": "Polygon", "coordinates": [[[-97.4636019, 35.6240673], [-97.4636008, 35.6238939], [-97.4637527, 35.6238939], [-97.4637516, 35.6240682], [-97.4636019, 35.6240673]]]}, "properties": {"osm_id": 555267994, "building": "commercial", "name": "", "height": null, "height_m": null, "levels": null, "tract_id": "40109108304", "tract_name": "1083.04", "tags": {"building": "commercial"}}}, {"type": "Feature", "geometry": {"type": "Polygon", "coordinates": [[[-97.4636008, 35.6240911], [-97.4636059, 35.6242686], [-97.4637579, 35.6242672], [-97.4637539, 35.6240892], [-97.4636008, 35.6240911]]]}, "properties": {"osm_id": 555267995, "building": "commercial", "name": "", "height": null, "height_m": null, "levels": null, "tract_id": "40109108304", "tract_name": "1083.04", "tags": {"building": "commercial"}}}, {"type": "Feature", "geometry": {"type": "Polygon", "coordinates": [[[-97.4636048, 35.6244742], [-97.4636014, 35.624298], [-97.4637562, 35.6242971], [-97.4637602, 35.6244728], [-97.4636048, 35.6244742]]]}, "properties": {"osm_id": 555267996, "building": "commercial", "name": "", "height": null, "height_m": null, "levels": null, "tract_id": "40109108304", "tract_name": "1083.04", "tags": {"building": "commercial"}}}, {"type": "Feature", "geometry": {"type": "Polygon", "coordinates": [[[-97.4636077, 35.6247062], [-97.4636042, 35.6245352], [-97.4637281, 35.6245347], [-97.4637286, 35.6245483], [-97.4637456, 35.624548], [-97.4637493, 35.6245517], [-97.4637831, 35.6245268], [-97.4638204, 35.6245557], [-97.4637877, 35.6245832], [-97.4637917, 35.6245874], [-97.4637917, 35.6246004], [-97.4638083, 35.6246002], [-97.4638106, 35.6247044], [-97.4636077, 35.6247062]]]}, "properties": {"osm_id": 555267997, "building": "commercial", "name": "", "height": null, "height_m": null, "levels": null, "tract_id": "40109108304", "tract_name": "1083.04", "tags": {"building": "commercial"}}}, {"type": "Feature", "geometry": {"type": "Polygon", "coordinates": [[[-97.4638961, 35.6247073], [-97.464109, 35.6247053], [-97.4641065, 35.624585], [-97.464056, 35.624585], [-97.464056, 35.6245789], [-97.4639709, 35.6245797], [-97.4639709, 35.6245862], [-97.4639471, 35.6245866], [-97.4639466, 35.6245797], [-97.4638927, 35.6245801], [-97.4638961, 35.6247073]]]}, "properties": {"osm_id": 555267998, "building": "commercial", "name": "", "height": null, "height_m": null, "levels": null, "tract_id": "40109108304", "tract_name": "1083.04", "tags": {"building": "commercial"}}}, {"type": "Feature", "geometry": {"type": "Polygon", "coordinates": [[[-97.4642312, 35.6244062], [-97.4640081, 35.6244075], [-97.4640073, 35.6242774], [-97.4640692, 35.6242774], [-97.46407, 35.6242887], [-97.4640958, 35.6242887], [-97.4640954, 35.624279], [-97.4641804, 35.624278], [-97.4641808, 35.6242881], [-97.4642284, 35.6242871], [-97.4642312, 35.6244062]]]}, "properties": {"osm_id": 555267999, "building": "commercial", "name": "", "height": null, "height_m": null, "levels": null, "tract_id": "40109108304", "tract_name": "1083.04", "tags": {"building": "commercial"}}}, {"type": "Feature", "geometry": {"type": "Polygon", "coordinates": [[[-97.4643616, 35.6247043], [-97.46414, 35.6247049], [-97.4641372, 35.6245829], [-97.4641879, 35.6245834], [-97.4641877, 35.6245784], [-97.4642781, 35.6245779], [-97.4642785, 35.6245828], [-97.4643004, 35.6245831], [-97.464295, 35.6245755], [-97.464361, 35.6245748], [-97.4643616, 35.6247043]]]}, "properties": {"osm_id": 555268000, "building": "commercial", "name": "", "height": null, "height_m": null, "levels": null, "tract_id": "40109108304", "tract_name": "1083.04", "tags": {"building": "commercial"}}}, {"type": "Feature", "geometry": {"type": "Polygon", "coordinates": [[[-97.4644362, 35.6246975], [-97.4646506, 35.6246975], [-97.4646455, 35.624526], [-97.4645171, 35.624526], [-97.4645176, 35.6245409], [-97.4645013, 35.6245407], [-97.4644956, 35.6245458], [-97.4644641, 35.6245234], [-97.4644268, 35.6245527], [-97.4644593, 35.6245774], [-97.4644531, 35.624583], [-97.4644531, 35.6245938], [-97.4644382, 35.6245942], [-97.4644362, 35.6246975]]]}, "properties": {"osm_id": 555268001, "building": "commercial", "name": "", "height": null, "height_m": null, "levels": null, "tract_id": "40109108304", "tract_name": "1083.04", "tags": {"building": "commercial"}}}, {"type": "Feature", "geometry": {"type": "Polygon", "coordinates": [[[-97.4646442, 35.6244676], [-97.46448, 35.6244682], [-97.46448, 35.6244199], [-97.4644907, 35.6244199], [-97.4644907, 35.6243986], [-97.4644749, 35.6243989], [-97.4644749, 35.6243593], [-97.46449, 35.6243593], [-97.4644885, 35.6242922], [-97.4646431, 35.6242913], [-97.4646442, 35.6244676]]]}, "properties": {"osm_id": 555268002, "building": "commercial", "name": "", "height": null, "height_m": null, "levels": null, "tract_id": "40109108304", "tract_name": "1083.04", "tags": {"building": "commercial"}}}, {"type": "Feature", "geometry": {"type": "Polygon", "coordinates": [[[-97.4646427, 35.6242616], [-97.4644911, 35.6242616], [-97.4644911, 35.6242199], [-97.4644856, 35.6242196], [-97.4644856, 35.6241926], [-97.4644775, 35.6241926], [-97.4644763, 35.6241509], [-97.4644941, 35.6241512], [-97.4644941, 35.6241311], [-97.4644775, 35.6241308], [-97.4644771, 35.6240852], [-97.4646409, 35.6240855], [-97.4646427, 35.6242616]]]}, "properties": {"osm_id": 555268003, "building": "commercial", "name": "", "height": null, "height_m": null, "levels": null, "tract_id": "40109108304", "tract_name": "1083.04", "tags": {"building": "commercial"}}}, {"type": "Feature", "geometry": {"type": "Polygon", "coordinates": [[[-97.4646394, 35.6240573], [-97.4644885, 35.6240582], [-97.4644881, 35.6240193], [-97.4644811, 35.6240196], [-97.4644808, 35.6239902], [-97.4644752, 35.6239902], [-97.4644745, 35.6239515], [-97.4644948, 35.6239515], [-97.4644915, 35.6239383], [-97.4644719, 35.6239383], [-97.4644712, 35.6238885], [-97.4646368, 35.6238867], [-97.4646394, 35.6240573]]]}, "properties": {"osm_id": 555268004, "building": "commercial", "name": "", "height": null, "height_m": null, "levels": null, "tract_id": "40109108304", "tract_name": "1083.04", "tags": {"building": "commercial"}}}, {"type": "Feature", "geometry": {"type": "Polygon", "coordinates": [[[-97.4848029, 35.6249482], [-97.4847288, 35.6249477], [-97.4847288, 35.6249423], [-97.484577, 35.6249423], [-97.484577, 35.6246897], [-97.4848089, 35.6246892], [-97.4848077, 35.6247145], [-97.4848214, 35.6247145], [-97.4848208, 35.6247456], [-97.4848077, 35.6247461], [-97.4848077, 35.6247602], [-97.4847927, 35.6247602], [-97.4847933, 35.6248879], [-97.4848017, 35.6248879], [-97.4848029, 35.6249482]]]}, "properties": {"osm_id": 561345549, "building": "yes", "name": "", "height": null, "height_m": null, "levels": null, "tract_id": "40109108304", "tract_name": "1083.04", "tags": {"building": "yes"}}}, {"type": "Feature", "geometry": {"type": "Polygon", "coordinates": [[[-97.4861083, 35.6255405], [-97.4859532, 35.6254983], [-97.4859491, 35.6255078], [-97.4858916, 35.6254921], [-97.4859636, 35.6253115], [-97.4859297, 35.625258], [-97.4860342, 35.6252169], [-97.4860578, 35.6252597], [-97.4860965, 35.6252715], [-97.4860875, 35.6252929], [-97.4861775, 35.6253165], [-97.4861284, 35.6254381], [-97.486145, 35.6254426], [-97.4861083, 35.6255405]]]}, "properties": {"osm_id": 561345551, "building": "yes", "name": "Brent's Cajun", "height": null, "height_m": null, "levels": null, "tract_id": "40109108304", "tract_name": "1083.04", "tags": {"amenity": "restaurant", "building": "yes", "cuisine": "seafood", "name": "Brent's Cajun"}}}, {"type": "Feature", "geometry": {"type": "Polygon", "coordinates": [[[-97.4857588, 35.6262293], [-97.4855103, 35.6261821], [-97.4855649, 35.6259904], [-97.4858137, 35.6260387], [-97.4857588, 35.6262293]]]}, "properties": {"osm_id": 561345552, "building": "yes", "name": "", "height": null, "height_m": null, "levels": null, "tract_id": "40109108304", "tract_name": "1083.04", "tags": {"building": "yes"}}}, {"type": "Feature", "geometry": {"type": "Polygon", "coordinates": [[[-97.4856197, 35.6266054], [-97.4854409, 35.6265891], [-97.4854629, 35.6264012], [-97.4856446, 35.6264164], [-97.4856197, 35.6266054]]]}, "properties": {"osm_id": 561345553, "building": "yes", "name": "", "height": null, "height_m": null, "levels": null, "tract_id": "40109108304", "tract_name": "1083.04", "tags": {"building": "yes"}}}, {"type": "Feature", "geometry": {"type": "Polygon", "coordinates": [[[-97.4856485, 35.6266982], [-97.4854318, 35.6266783], [-97.4854207, 35.6267648], [-97.485637, 35.6267835], [-97.4856485, 35.6266982]]]}, "properties": {"osm_id": 561345554, "building": "yes", "name": "", "height": null, "height_m": null, "levels": null, "tract_id": "40109108304", "tract_name": "1083.04", "tags": {"building": "yes"}}}, {"type": "Feature", "geometry": {"type": "Polygon", "coordinates": [[[-97.4856005, 35.6272188], [-97.4853598, 35.6271966], [-97.4853651, 35.62716], [-97.4853584, 35.6271592], [-97.4853656, 35.627105], [-97.4853718, 35.6271054], [-97.4853829, 35.6270213], [-97.4856245, 35.6270454], [-97.4856005, 35.6272188]]]}, "properties": {"osm_id": 561345555, "building": "yes", "name": "", "height": null, "height_m": null, "levels": null, "tract_id": "40109108304", "tract_name": "1083.04", "tags": {"building": "yes"}}}, {"type": "Feature", "geometry": {"type": "Polygon", "coordinates": [[[-97.4860239, 35.6267913], [-97.4858393, 35.6267746], [-97.4858589, 35.6266358], [-97.486043, 35.6266538], [-97.4860239, 35.6267913]]]}, "properties": {"osm_id": 561345556, "building": "yes", "name": "", "height": null, "height_m": null, "levels": null, "tract_id": "40109108304", "tract_name": "1083.04", "tags": {"building": "yes"}}}, {"type": "Feature", "geometry": {"type": "Polygon", "coordinates": [[[-97.4860478, 35.6266012], [-97.4858647, 35.6265832], [-97.4858843, 35.626441], [-97.4860665, 35.6264616], [-97.4860478, 35.6266012]]]}, "properties": {"osm_id": 561345557, "building": "yes", "name": "", "height": null, "height_m": null, "levels": null, "tract_id": "40109108304", "tract_name": "1083.04", "tags": {"building": "yes"}}}, {"type": "Feature", "geometry": {"type": "Polygon", "coordinates": [[[-97.4867713, 35.6261826], [-97.4865848, 35.6261651], [-97.4866054, 35.6260232], [-97.4867905, 35.6260419], [-97.4867713, 35.6261826]]]}, "properties": {"osm_id": 561345558, "building": "yes", "name": "", "height": null, "height_m": null, "levels": null, "tract_id": "40109108304", "tract_name": "1083.04", "tags": {"building": "yes"}}}, {"type": "Feature", "geometry": {"type": "Polygon", "coordinates": [[[-97.4867432, 35.6264001], [-97.4865581, 35.6263837], [-97.4865761, 35.6262424], [-97.48676, 35.6262588], [-97.4867432, 35.6264001]]]}, "properties": {"osm_id": 561345559, "building": "yes", "name": "", "height": null, "height_m": null, "levels": null, "tract_id": "40109108304", "tract_name": "1083.04", "tags": {"building": "yes"}}}, {"type": "Feature", "geometry": {"type": "Polygon", "coordinates": [[[-97.4867039, 35.6267009], [-97.4865323, 35.6266854], [-97.4865576, 35.6264808], [-97.4867286, 35.6264958], [-97.4867039, 35.6267009]]]}, "properties": {"osm_id": 561345560, "building": "yes", "name": "", "height": null, "height_m": null, "levels": null, "tract_id": "40109108304", "tract_name": "1083.04", "tags": {"building": "yes"}}}, {"type": "Feature", "geometry": {"type": "Polygon", "coordinates": [[[-97.4866626, 35.6269985], [-97.4864907, 35.6269831], [-97.4865187, 35.6267763], [-97.4866891, 35.6267921], [-97.4866626, 35.6269985]]]}, "properties": {"osm_id": 561345561, "building": "yes", "name": "", "height": null, "height_m": null, "levels": null, "tract_id": "40109108304", "tract_name": "1083.04", "tags": {"building": "yes"}}}, {"type": "Feature", "geometry": {"type": "Polygon", "coordinates": [[[-97.4866341, 35.6272167], [-97.4864492, 35.6271988], [-97.4864677, 35.6270619], [-97.4866511, 35.6270789], [-97.4866341, 35.6272167]]]}, "properties": {"osm_id": 561345562, "building": "yes", "name": "", "height": null, "height_m": null, "levels": null, "tract_id": "40109108304", "tract_name": "1083.04", "tags": {"building": "yes"}}}, {"type": "Feature", "geometry": {"type": "Polygon", "coordinates": [[[-97.4866046, 35.6274356], [-97.4864207, 35.6274177], [-97.4864367, 35.6272776], [-97.4866221, 35.6272971], [-97.4866046, 35.6274356]]]}, "properties": {"osm_id": 561345563, "building": "yes", "name": "", "height": null, "height_m": null, "levels": null, "tract_id": "40109108304", "tract_name": "1083.04", "tags": {"building": "yes"}}}, {"type": "Feature", "geometry": {"type": "Polygon", "coordinates": [[[-97.4865766, 35.6276538], [-97.4863917, 35.6276359], [-97.4864097, 35.6274945], [-97.4865931, 35.6275136], [-97.4865766, 35.6276538]]]}, "properties": {"osm_id": 561345564, "building": "yes", "name": "", "height": null, "height_m": null, "levels": null, "tract_id": "40109108304", "tract_name": "1083.04", "tags": {"building": "yes"}}}, {"type": "Feature", "geometry": {"type": "Polygon", "coordinates": [[[-97.4865477, 35.6278744], [-97.4863607, 35.6278565], [-97.4863787, 35.6277147], [-97.4865656, 35.6277322], [-97.4865477, 35.6278744]]]}, "properties": {"osm_id": 561345565, "building": "yes", "name": "", "height": null, "height_m": null, "levels": null, "tract_id": "40109108304", "tract_name": "1083.04", "tags": {"building": "yes"}}}, {"type": "Feature", "geometry": {"type": "Polygon", "coordinates": [[[-97.4865367, 35.6280775], [-97.4863712, 35.6280625], [-97.4863837, 35.6279503], [-97.4865497, 35.627965], [-97.4865367, 35.6280775]]]}, "properties": {"osm_id": 561345566, "building": "yes", "name": "", "height": null, "height_m": null, "levels": null, "tract_id": "40109108304", "tract_name": "1083.04", "tags": {"building": "yes"}}}, {"type": "Feature", "geometry": {"type": "Polygon", "coordinates": [[[-97.4865941, 35.6282761], [-97.4864917, 35.6282672], [-97.4865097, 35.6281031], [-97.4866136, 35.6281132], [-97.4865941, 35.6282761]]]}, "properties": {"osm_id": 561345567, "building": "yes", "name": "", "height": null, "height_m": null, "levels": null, "tract_id": "40109108304", "tract_name": "1083.04", "tags": {"building": "yes"}}}, {"type": "Feature", "geometry": {"type": "Polygon", "coordinates": [[[-97.4865537, 35.6285617], [-97.4861173, 35.6285227], [-97.4861388, 35.6283586], [-97.4865756, 35.6283988], [-97.4865537, 35.6285617]]]}, "properties": {"osm_id": 561345568, "building": "yes", "name": "", "height": null, "height_m": null, "levels": null, "tract_id": "40109108304", "tract_name": "1083.04", "tags": {"building": "yes"}}}, {"type": "Feature", "geometry": {"type": "Polygon", "coordinates": [[[-97.4859549, 35.6282034], [-97.4859554, 35.6281291], [-97.4859684, 35.6281291], [-97.4859679, 35.6281193], [-97.4859654, 35.6281136], [-97.4859584, 35.6281112], [-97.4858149, 35.6281096], [-97.485807, 35.628112], [-97.485802, 35.6281169], [-97.4857995, 35.6281214], [-97.4857975, 35.6282335], [-97.4857995, 35.6282376], [-97.4858035, 35.6282408], [-97.4858095, 35.628242], [-97.4859574, 35.6282428], [-97.4859654, 35.6282412], [-97.4859684, 35.628238], [-97.4859704, 35.6282327], [-97.4859704, 35.6282038], [-97.4859549, 35.6282034]]]}, "properties": {"osm_id": 561345569, "building": "yes", "name": "", "height": null, "height_m": null, "levels": null, "tract_id": "40109108304", "tract_name": "1083.04", "tags": {"building": "yes"}}}, {"type": "Feature", "geometry": {"type": "Polygon", "coordinates": [[[-97.4860137, 35.6268402], [-97.485832, 35.6268238], [-97.4858102, 35.6269721], [-97.4859935, 35.6269898], [-97.4860137, 35.6268402]]]}, "properties": {"osm_id": 561345570, "building": "yes", "name": "", "height": null, "height_m": null, "levels": null, "tract_id": "40109108304", "tract_name": "1083.04", "tags": {"building": "yes"}}}, {"type": "Feature", "geometry": {"type": "Polygon", "coordinates": [[[-97.4859741, 35.627176], [-97.4857862, 35.627159], [-97.4858087, 35.6270182], [-97.4859928, 35.6270359], [-97.4859741, 35.627176]]]}, "properties": {"osm_id": 561345571, "building": "yes", "name": "", "height": null, "height_m": null, "levels": null, "tract_id": "40109108304", "tract_name": "1083.04", "tags": {"building": "yes"}}}, {"type": "Feature", "geometry": {"type": "Polygon", "coordinates": [[[-97.4859493, 35.6273673], [-97.4857629, 35.627349], [-97.4857815, 35.6272089], [-97.4859671, 35.6272291], [-97.4859493, 35.6273673]]]}, "properties": {"osm_id": 561345572, "building": "yes", "name": "", "height": null, "height_m": null, "levels": null, "tract_id": "40109108304", "tract_name": "1083.04", "tags": {"building": "yes"}}}, {"type": "Feature", "geometry": {"type": "Polygon", "coordinates": [[[-97.485926, 35.6274039], [-97.4857559, 35.6273875], [-97.4856976, 35.6278124], [-97.4858685, 35.6278288], [-97.485926, 35.6274039]]]}, "properties": {"osm_id": 561345573, "building": "yes", "name": "", "height": null, "height_m": null, "levels": null, "tract_id": "40109108304", "tract_name": "1083.04", "tags": {"building": "yes"}}}, {"type": "Feature", "geometry": {"type": "Polygon", "coordinates": [[[-97.485533, 35.6277272], [-97.4852875, 35.6277051], [-97.4853124, 35.627527], [-97.4853745, 35.6275334], [-97.4853862, 35.6274601], [-97.4854615, 35.6274664], [-97.4854491, 35.6275428], [-97.4855563, 35.6275529], [-97.485533, 35.6277272]]]}, "properties": {"osm_id": 561345574, "building": "yes", "name": "", "height": null, "height_m": null, "levels": null, "tract_id": "40109108304", "tract_name": "1083.04", "tags": {"building": "yes"}}}, {"type": "Feature", "geometry": {"type": "Polygon", "coordinates": [[[-97.485379, 35.6283999], [-97.4852275, 35.6283864], [-97.485239, 35.6282866], [-97.4852231, 35.6282849], [-97.4852282, 35.6282421], [-97.4852426, 35.6282432], [-97.4852571, 35.6281365], [-97.4854093, 35.628147], [-97.485379, 35.6283999]]]}, "properties": {"osm_id": 561345575, "building": "yes", "name": "Jimmy's Egg", "height": null, "height_m": null, "levels": null, "tract_id": "40109108304", "tract_name": "1083.04", "tags": {"amenity": "restaurant", "building": "yes", "name": "Jimmy's Egg"}}}, {"type": "Feature", "geometry": {"type": "Polygon", "coordinates": [[[-97.4855789, 35.6288152], [-97.4855515, 35.6288128], [-97.4855443, 35.6288809], [-97.4855183, 35.6288785], [-97.4855166, 35.6288871], [-97.4854053, 35.6288768], [-97.4854034, 35.6288904], [-97.4852314, 35.6288774], [-97.4852316, 35.6288699], [-97.4852257, 35.6288695], [-97.4852265, 35.6288638], [-97.4852191, 35.6288633], [-97.4852265, 35.6288032], [-97.4852196, 35.6288027], [-97.4852237, 35.6287606], [-97.4852385, 35.6287623], [-97.4852392, 35.6287511], [-97.4852564, 35.6287523], [-97.4852636, 35.628689], [-97.4854412, 35.6287035], [-97.4854456, 35.6286735], [-97.4855438, 35.6286825], [-97.4855383, 35.6287311], [-97.485588, 35.6287345], [-97.4855789, 35.6288152]]]}, "properties": {"osm_id": 561345576, "building": "yes", "name": "", "height": null, "height_m": null, "levels": null, "tract_id": "40109108304", "tract_name": "1083.04", "tags": {"building": "yes"}}}, {"type": "Feature", "geometry": {"type": "Polygon", "coordinates": [[[-97.4684118, 35.6251018], [-97.4682558, 35.6251013], [-97.468257, 35.6249289], [-97.4684112, 35.6249298], [-97.4684118, 35.6251018]]]}, "properties": {"osm_id": 561350825, "building": "commercial", "name": "", "height": null, "height_m": null, "levels": null, "tract_id": "40109108304", "tract_name": "1083.04", "tags": {"building": "commercial"}}}, {"type": "Feature", "geometry": {"type": "Polygon", "coordinates": [[[-97.4687632, 35.6253105], [-97.4685356, 35.6253143], [-97.4685333, 35.6251982], [-97.4687603, 35.6251954], [-97.4687632, 35.6253105]]]}, "properties": {"osm_id": 561350826, "building": "commercial", "name": "", "height": null, "height_m": null, "levels": null, "tract_id": "40109108304", "tract_name": "1083.04", "tags": {"building": "commercial"}}}, {"type": "Feature", "geometry": {"type": "Polygon", "coordinates": [[[-97.4690074, 35.6253073], [-97.4687833, 35.6253101], [-97.4687821, 35.6251964], [-97.4690051, 35.6251926], [-97.4690074, 35.6253073]]]}, "properties": {"osm_id": 561350827, "building": "commercial", "name": "", "height": null, "height_m": null, "levels": null, "tract_id": "40109108304", "tract_name": "1083.04", "tags": {"building": "commercial"}}}, {"type": "Feature", "geometry": {"type": "Polygon", "coordinates": [[[-97.4692889, 35.6250743], [-97.4691542, 35.6250743], [-97.4691508, 35.6248878], [-97.4692889, 35.6248888], [-97.4692889, 35.6250743]]]}, "properties": {"osm_id": 561350828, "building": "commercial", "name": "", "height": null, "height_m": null, "levels": null, "tract_id": "40109108304", "tract_name": "1083.04", "tags": {"building": "commercial"}}}, {"type": "Feature", "geometry": {"type": "Polygon", "coordinates": [[[-97.4692878, 35.6248697], [-97.4691508, 35.6248687], [-97.4691525, 35.6246823], [-97.4692889, 35.6246856], [-97.4692878, 35.6248697]]]}, "properties": {"osm_id": 561350829, "building": "commercial", "name": "", "height": null, "height_m": null, "levels": null, "tract_id": "40109108304", "tract_name": "1083.04", "tags": {"building": "commercial"}}}, {"type": "Feature", "geometry": {"type": "Polygon", "coordinates": [[[-97.469293, 35.6242513], [-97.4691479, 35.6242489], [-97.4691519, 35.6240648], [-97.4692947, 35.6240676], [-97.469293, 35.6242513]]]}, "properties": {"osm_id": 561350830, "building": "commercial", "name": "", "height": null, "height_m": null, "levels": null, "tract_id": "40109108304", "tract_name": "1083.04", "tags": {"building": "commercial"}}}, {"type": "Feature", "geometry": {"type": "Polygon", "coordinates": [[[-97.4776429, 35.6378789], [-97.4777844, 35.6378776], [-97.4777847, 35.6378989], [-97.4778046, 35.6378987], [-97.4778068, 35.6380483], [-97.4777803, 35.6380678], [-97.4776697, 35.6380688], [-97.4776694, 35.6380495], [-97.4776453, 35.6380498], [-97.4776429, 35.6378789]]]}, "properties": {"osm_id": 669271820, "building": "yes", "name": "7-Eleven", "height": null, "height_m": null, "levels": null, "tract_id": "40109108304", "tract_name": "1083.04", "tags": {"brand": "7-Eleven", "brand:wikidata": "Q259340", "building": "yes", "contact:website": "https://www.7-eleven.com/locations/ok/edmond/1500-s-boulevard-41405", "name": "7-Eleven", "shop": "convenience"}}}, {"type": "Feature", "geometry": {"type": "Polygon", "coordinates": [[[-97.4780298, 35.6379968], [-97.477964, 35.6379976], [-97.4779625, 35.6379199], [-97.4780282, 35.637919], [-97.4780298, 35.6379968]]]}, "properties": {"osm_id": 669271821, "building": "roof", "name": "", "height": null, "height_m": null, "levels": null, "tract_id": "40109108304", "tract_name": "1083.04", "tags": {"building": "roof"}}}, {"type": "Feature", "geometry": {"type": "Polygon", "coordinates": [[[-97.4777009, 35.6377677], [-97.4777009, 35.6375906], [-97.4778496, 35.6375892], [-97.4778504, 35.6376073], [-97.4778726, 35.6376059], [-97.4778735, 35.6376482], [-97.4778487, 35.6376476], [-97.4778496, 35.6377108], [-97.4778726, 35.6377087], [-97.4778718, 35.6377538], [-97.4778479, 35.6377538], [-97.4778487, 35.637767], [-97.4777009, 35.6377677]]]}, "properties": {"osm_id": 669271822, "building": "commercial", "name": "", "height": null, "height_m": null, "levels": null, "tract_id": "40109108304", "tract_name": "1083.04", "tags": {"building": "commercial"}}}, {"type": "Feature", "geometry": {"type": "Polygon", "coordinates": [[[-97.4777, 35.6374204], [-97.4777009, 35.6372475], [-97.4778709, 35.6372475], [-97.4778923, 35.6372475], [-97.4778889, 35.6374211], [-97.4777, 35.6374204]]]}, "properties": {"osm_id": 669271823, "building": "commercial", "name": "", "height": null, "height_m": null, "levels": null, "tract_id": "40109108304", "tract_name": "1083.04", "tags": {"building": "commercial"}}}, {"type": "Feature", "geometry": {"type": "Polygon", "coordinates": [[[-97.4778709, 35.6372475], [-97.4778709, 35.6370884], [-97.4777026, 35.6370884], [-97.4777009, 35.6372475], [-97.4778709, 35.6372475]]]}, "properties": {"osm_id": 669271824, "building": "commercial", "name": "", "height": null, "height_m": null, "levels": null, "tract_id": "40109108304", "tract_name": "1083.04", "tags": {"building": "commercial"}}}, {"type": "Feature", "geometry": {"type": "Polygon", "coordinates": [[[-97.4777846, 35.6366439], [-97.4776162, 35.6366439], [-97.4776153, 35.6364607], [-97.4777846, 35.6364592], [-97.4777846, 35.6366439]]]}, "properties": {"osm_id": 669271825, "building": "commercial", "name": "", "height": null, "height_m": null, "levels": null, "tract_id": "40109108304", "tract_name": "1083.04", "tags": {"building": "commercial"}}}, {"type": "Feature", "geometry": {"type": "Polygon", "coordinates": [[[-97.4778683, 35.6363396], [-97.477538, 35.6363403], [-97.4775362, 35.6361295], [-97.4776107, 35.6361295], [-97.4776107, 35.6362297], [-97.4777671, 35.636229], [-97.4777643, 35.6361669], [-97.4778664, 35.6361684], [-97.4778683, 35.6363396]]]}, "properties": {"osm_id": 669271826, "building": "commercial", "name": "", "height": null, "height_m": null, "levels": null, "tract_id": "40109108304", "tract_name": "1083.04", "tags": {"building": "commercial"}}}, {"type": "Feature", "geometry": {"type": "Polygon", "coordinates": [[[-97.4787963, 35.6375652], [-97.4785948, 35.6375607], [-97.4785985, 35.6377798], [-97.4787972, 35.6377798], [-97.4787963, 35.6375652]]]}, "properties": {"osm_id": 669271827, "building": "commercial", "name": "", "height": null, "height_m": null, "levels": null, "tract_id": "40109108304", "tract_name": "1083.04", "tags": {"building": "commercial"}}}, {"type": "Feature", "geometry": {"type": "Polygon", "coordinates": [[[-97.4786785, 35.6380467], [-97.4785774, 35.6380437], [-97.4785764, 35.6378448], [-97.4786822, 35.6378463], [-97.4786785, 35.6380467]]]}, "properties": {"osm_id": 669271828, "building": "yes", "name": "", "height": null, "height_m": null, "levels": null, "tract_id": "40109108304", "tract_name": "1083.04", "tags": {"amenity": "fuel", "building": "yes"}}}, {"type": "Feature", "geometry": {"type": "Polygon", "coordinates": [[[-97.4785608, 35.638099], [-97.478409, 35.638099], [-97.4784136, 35.6379809], [-97.478559, 35.6379816], [-97.4785608, 35.638099]]]}, "properties": {"osm_id": 669271829, "building": "roof", "name": "", "height": null, "height_m": null, "levels": null, "tract_id": "40109108304", "tract_name": "1083.04", "tags": {"building": "roof"}}}, {"type": "Feature", "geometry": {"type": "Polygon", "coordinates": [[[-97.4788588, 35.6378358], [-97.4788616, 35.6379981], [-97.4790621, 35.6380011], [-97.4790603, 35.6378388], [-97.4788588, 35.6378358]]]}, "properties": {"osm_id": 669271830, "building": "commercial", "name": "", "height": null, "height_m": null, "levels": null, "tract_id": "40109108304", "tract_name": "1083.04", "tags": {"building": "commercial"}}}, {"type": "Feature", "geometry": {"type": "Polygon", "coordinates": [[[-97.4790621, 35.6380011], [-97.4791927, 35.6380026], [-97.4791927, 35.6378388], [-97.4790603, 35.6378388], [-97.4790621, 35.6380011]]]}, "properties": {"osm_id": 669271831, "building": "commercial", "name": "", "height": null, "height_m": null, "levels": null, "tract_id": "40109108304", "tract_name": "1083.04", "tags": {"building": "commercial"}}}, {"type": "Feature", "geometry": {"type": "Polygon", "coordinates": [[[-97.4791927, 35.6380026], [-97.4793564, 35.6380033], [-97.4793564, 35.6378381], [-97.4791927, 35.6378388], [-97.4791927, 35.6380026]]]}, "properties": {"osm_id": 669271832, "building": "commercial", "name": "", "height": null, "height_m": null, "levels": null, "tract_id": "40109108304", "tract_name": "1083.04", "tags": {"building": "commercial"}}}, {"type": "Feature", "geometry": {"type": "Polygon", "coordinates": [[[-97.4793564, 35.6380033], [-97.4794889, 35.6380011], [-97.479488, 35.6378396], [-97.4793564, 35.6378381], [-97.4793564, 35.6380033]]]}, "properties": {"osm_id": 669271833, "building": "commercial", "name": "", "height": null, "height_m": null, "levels": null, "tract_id": "40109108304", "tract_name": "1083.04", "tags": {"building": "commercial"}}}, {"type": "Feature", "geometry": {"type": "Polygon", "coordinates": [[[-97.4794889, 35.6380011], [-97.4796232, 35.638004], [-97.4796223, 35.6378418], [-97.479488, 35.6378396], [-97.4794889, 35.6380011]]]}, "properties": {"osm_id": 669271834, "building": "commercial", "name": "", "height": null, "height_m": null, "levels": null, "tract_id": "40109108304", "tract_name": "1083.04", "tags": {"building": "commercial"}}}, {"type": "Feature", "geometry": {"type": "Polygon", "coordinates": [[[-97.4796232, 35.638004], [-97.4797575, 35.6380033], [-97.4797547, 35.6378403], [-97.4796223, 35.6378418], [-97.4796232, 35.638004]]]}, "properties": {"osm_id": 669271835, "building": "commercial", "name": "", "height": null, "height_m": null, "levels": null, "tract_id": "40109108304", "tract_name": "1083.04", "tags": {"building": "commercial"}}}, {"type": "Feature", "geometry": {"type": "Polygon", "coordinates": [[[-97.4797575, 35.6380033], [-97.4798872, 35.6380018], [-97.479889, 35.6378403], [-97.4797547, 35.6378403], [-97.4797575, 35.6380033]]]}, "properties": {"osm_id": 669271836, "building": "commercial", "name": "", "height": null, "height_m": null, "levels": null, "tract_id": "40109108304", "tract_name": "1083.04", "tags": {"building": "commercial"}}}, {"type": "Feature", "geometry": {"type": "Polygon", "coordinates": [[[-97.4830923, 35.6380508], [-97.4830149, 35.6380417], [-97.4830321, 35.6379179], [-97.4830936, 35.6379284], [-97.4830774, 35.6380201], [-97.4830951, 35.6380234], [-97.4830923, 35.6380508]]]}, "properties": {"osm_id": 669271853, "building": "commercial", "name": "", "height": null, "height_m": null, "levels": null, "tract_id": "40109108304", "tract_name": "1083.04", "tags": {"building": "commercial"}}}, {"type": "Feature", "geometry": {"type": "Polygon", "coordinates": [[[-97.4824544, 35.6380609], [-97.4823643, 35.6380609], [-97.4823643, 35.6380747], [-97.4823638, 35.6381045], [-97.4823643, 35.6381364], [-97.4823127, 35.6381364], [-97.482312, 35.638105], [-97.4823112, 35.6380735], [-97.4823109, 35.6380602], [-97.4822235, 35.6380587], [-97.4822226, 35.6378979], [-97.4824507, 35.6378987], [-97.4824544, 35.6380609]]]}, "properties": {"osm_id": 669271855, "building": "commercial", "name": "", "height": null, "height_m": null, "levels": null, "tract_id": "40109108304", "tract_name": "1083.04", "tags": {"building": "commercial"}}}, {"type": "Feature", "geometry": {"type": "Polygon", "coordinates": [[[-97.4816201, 35.6379525], [-97.4813644, 35.637954], [-97.4813635, 35.6380654], [-97.4816192, 35.6380676], [-97.4816201, 35.6379525]]]}, "properties": {"osm_id": 669271856, "building": "commercial", "name": "", "height": null, "height_m": null, "levels": null, "tract_id": "40109108304", "tract_name": "1083.04", "tags": {"building": "commercial"}}}, {"type": "Feature", "geometry": {"type": "Polygon", "coordinates": [[[-97.4810993, 35.6380128], [-97.4806885, 35.6380096], [-97.4806924, 35.6375405], [-97.4810993, 35.6375462], [-97.4810993, 35.6380128]]]}, "properties": {"osm_id": 669271857, "building": "commercial", "name": "", "height": null, "height_m": null, "levels": null, "tract_id": "40109108304", "tract_name": "1083.04", "tags": {"building": "commercial"}}}, {"type": "Feature", "geometry": {"type": "Polygon", "coordinates": [[[-97.4807498, 35.6373281], [-97.4805716, 35.6373273], [-97.4805716, 35.6373212], [-97.4805092, 35.6373212], [-97.4805105, 35.6371079], [-97.4805793, 35.6371084], [-97.480578, 35.6370789], [-97.4807475, 35.6370799], [-97.4807498, 35.6373281]]]}, "properties": {"osm_id": 669271858, "building": "commercial", "name": "", "height": null, "height_m": null, "levels": null, "tract_id": "40109108304", "tract_name": "1083.04", "tags": {"building": "commercial"}}}, {"type": "Feature", "geometry": {"type": "Polygon", "coordinates": [[[-97.4811252, 35.6374941], [-97.4809628, 35.637492], [-97.4809621, 35.6372922], [-97.481101, 35.6372927], [-97.4810978, 35.6370768], [-97.4812736, 35.6370779], [-97.4814896, 35.6370121], [-97.4815661, 35.637172], [-97.4816298, 35.637305], [-97.481638, 35.6373222], [-97.4811252, 35.6374941]]]}, "properties": {"osm_id": 669271859, "building": "commercial", "name": "", "height": null, "height_m": null, "levels": null, "tract_id": "40109108304", "tract_name": "1083.04", "tags": {"building": "commercial"}}}, {"type": "Feature", "geometry": {"type": "Polygon", "coordinates": [[[-97.4816364, 35.6371041], [-97.4815661, 35.637172], [-97.4816298, 35.637305], [-97.4816645, 35.637274], [-97.4818771, 35.6374244], [-97.4819648, 35.6373392], [-97.4816364, 35.6371041]]]}, "properties": {"osm_id": 669271860, "building": "commercial", "name": "", "height": null, "height_m": null, "levels": null, "tract_id": "40109108304", "tract_name": "1083.04", "tags": {"building": "commercial"}}}, {"type": "Feature", "geometry": {"type": "Polygon", "coordinates": [[[-97.4817545, 35.6367392], [-97.4817015, 35.6367885], [-97.4817528, 35.636826], [-97.4815323, 35.6370288], [-97.4816364, 35.6371041], [-97.4819648, 35.6373392], [-97.482246, 35.6370941], [-97.4822244, 35.6370785], [-97.4817545, 35.6367392]]]}, "properties": {"osm_id": 669271861, "building": "commercial", "name": "", "height": null, "height_m": null, "levels": null, "tract_id": "40109108304", "tract_name": "1083.04", "tags": {"building": "commercial"}}}, {"type": "Feature", "geometry": {"type": "Polygon", "coordinates": [[[-97.4822244, 35.6370785], [-97.482346, 35.6369684], [-97.4823742, 35.6369865], [-97.4824904, 35.6368795], [-97.4824588, 35.6368545], [-97.4825306, 35.6367906], [-97.4825656, 35.6368114], [-97.4828263, 35.6365669], [-97.4826264, 35.6364297], [-97.4825947, 35.6364079], [-97.4826528, 35.6363551], [-97.4824904, 35.6361828], [-97.4823468, 35.6361814], [-97.4817545, 35.6367392], [-97.4822244, 35.6370785]]]}, "properties": {"osm_id": 669271862, "building": "commercial", "name": "Goodwill Thrift Store & Donation Center", "height": null, "height_m": null, "levels": null, "tract_id": "40109108304", "tract_name": "1083.04", "tags": {"addr:city": "Edmond", "addr:housenumber": "1632", "addr:postcode": "73013", "addr:state": "OK", "addr:street": "South Broadway", "building": "commercial", "name": "Goodwill Thrift Store & Donation Center", "phone": "+14058445556", "url": "https://okgoodwill.org/"}}}, {"type": "Feature", "geometry": {"type": "Polygon", "coordinates": [[[-97.4832476, 35.636046], [-97.48321, 35.6360418], [-97.4830502, 35.6361467], [-97.4830639, 35.6361606], [-97.4826264, 35.6364297], [-97.4828263, 35.6365669], [-97.4828895, 35.636512], [-97.4832143, 35.6363148], [-97.4832476, 35.636046]]]}, "properties": {"osm_id": 669271863, "building": "commercial", "name": "", "height": null, "height_m": null, "levels": null, "tract_id": "40109108304", "tract_name": "1083.04", "tags": {"building": "commercial"}}}, {"type": "Feature", "geometry": {"type": "Polygon", "coordinates": [[[-97.4843501, 35.637249], [-97.4840692, 35.6372229], [-97.4841276, 35.6367523], [-97.4844086, 35.6367811], [-97.4843501, 35.637249]]]}, "properties": {"osm_id": 669271864, "building": "commercial", "name": "", "height": null, "height_m": null, "levels": null, "tract_id": "40109108304", "tract_name": "1083.04", "tags": {"building": "commercial"}}}, {"type": "Feature", "geometry": {"type": "Polygon", "coordinates": [[[-97.4847989, 35.6365397], [-97.4842052, 35.6365387], [-97.4842068, 35.6363669], [-97.4847955, 35.6363718], [-97.4847989, 35.6365397]]]}, "properties": {"osm_id": 669271865, "building": "commercial", "name": "", "height": null, "height_m": null, "levels": null, "tract_id": "40109108304", "tract_name": "1083.04", "tags": {"building": "commercial"}}}, {"type": "Feature", "geometry": {"type": "Polygon", "coordinates": [[[-97.484764, 35.6362546], [-97.4841896, 35.6362518], [-97.4841884, 35.6360561], [-97.4847595, 35.6360598], [-97.484764, 35.6362546]]]}, "properties": {"osm_id": 669271867, "building": "commercial", "name": "", "height": null, "height_m": null, "levels": null, "tract_id": "40109108304", "tract_name": "1083.04", "tags": {"building": "commercial"}}}, {"type": "Feature", "geometry": {"type": "Polygon", "coordinates": [[[-97.485315, 35.6325036], [-97.4852586, 35.632896], [-97.4857989, 35.6329402], [-97.4858849, 35.6329472], [-97.4858943, 35.6328976], [-97.4858045, 35.6328763], [-97.4858487, 35.6325559], [-97.485315, 35.6325036]]]}, "properties": {"osm_id": 669595554, "building": "commercial", "name": "", "height": null, "height_m": null, "levels": null, "tract_id": "40109108304", "tract_name": "1083.04", "tags": {"building": "commercial"}}}, {"type": "Feature", "geometry": {"type": "Polygon", "coordinates": [[[-97.4852586, 35.632896], [-97.4852452, 35.6330213], [-97.4852157, 35.633017], [-97.4851902, 35.6332153], [-97.4852238, 35.6332186], [-97.4852077, 35.6333298], [-97.4857454, 35.6333777], [-97.4857803, 35.6330747], [-97.4858836, 35.6330856], [-97.4858943, 35.632981], [-97.4857924, 35.6329755], [-97.4857989, 35.6329402], [-97.4852586, 35.632896]]]}, "properties": {"osm_id": 669595555, "building": "commercial", "name": "", "height": null, "height_m": null, "levels": null, "tract_id": "40109108304", "tract_name": "1083.04", "tags": {"building": "commercial"}}}, {"type": "Feature", "geometry": {"type": "Polygon", "coordinates": [[[-97.4850436, 35.6318807], [-97.4850511, 35.6318139], [-97.4850366, 35.6318131], [-97.4850421, 35.6317597], [-97.4849574, 35.6317536], [-97.4849599, 35.6317357], [-97.4848591, 35.6317287], [-97.4848561, 35.6317475], [-97.4848241, 35.6317475], [-97.4848045, 35.6317617], [-97.4847779, 35.631741], [-97.4847499, 35.6317878], [-97.4847574, 35.6318318], [-97.484792, 35.631868], [-97.4848411, 35.6318827], [-97.4848802, 35.6318856], [-97.4848817, 35.631875], [-97.4849343, 35.631879], [-97.4849358, 35.6318713], [-97.4850436, 35.6318807]]]}, "properties": {"osm_id": 669595560, "building": "yes", "name": "", "height": null, "height_m": null, "levels": null, "tract_id": "40109108304", "tract_name": "1083.04", "tags": {"amenity": "restaurant", "building": "yes"}}}, {"type": "Feature", "geometry": {"type": "Polygon", "coordinates": [[[-97.4851079, 35.6316167], [-97.4848886, 35.6316134], [-97.48489, 35.6315349], [-97.48487, 35.6315327], [-97.4848721, 35.6314201], [-97.4848941, 35.6314212], [-97.4848941, 35.6313881], [-97.484939, 35.6313882], [-97.4850755, 35.6313885], [-97.485203, 35.6313887], [-97.4852016, 35.6314985], [-97.4851085, 35.6314985], [-97.4851079, 35.6316167]]]}, "properties": {"osm_id": 669595561, "building": "commercial", "name": "", "height": null, "height_m": null, "levels": null, "tract_id": "40109108304", "tract_name": "1083.04", "tags": {"building": "commercial"}}}, {"type": "Feature", "geometry": {"type": "Polygon", "coordinates": [[[-97.4850755, 35.6313885], [-97.4850782, 35.631266], [-97.484941, 35.6312649], [-97.484939, 35.6313882], [-97.4850755, 35.6313885]]]}, "properties": {"osm_id": 669595562, "building": "roof", "name": "", "height": null, "height_m": null, "levels": null, "tract_id": "40109108304", "tract_name": "1083.04", "tags": {"building": "roof"}}}, {"type": "Feature", "geometry": {"type": "Polygon", "coordinates": [[[-97.4850552, 35.6310632], [-97.4850561, 35.6309227], [-97.4852211, 35.6309206], [-97.4852211, 35.6309101], [-97.4853196, 35.6309094], [-97.4853214, 35.630922], [-97.4859168, 35.6309311], [-97.4859151, 35.6309606], [-97.4859323, 35.6309606], [-97.4859323, 35.6310428], [-97.4859142, 35.6310428], [-97.485909, 35.6313652], [-97.485871, 35.6313652], [-97.4858719, 35.6313758], [-97.4857759, 35.6313744], [-97.4857759, 35.631361], [-97.485737, 35.6313617], [-97.4857414, 35.6310702], [-97.4853179, 35.6310674], [-97.4853179, 35.6310779], [-97.4852168, 35.6310765], [-97.4852168, 35.6310653], [-97.4850552, 35.6310632]]]}, "properties": {"osm_id": 669595563, "building": "commercial", "name": "", "height": null, "height_m": null, "levels": null, "tract_id": "40109108304", "tract_name": "1083.04", "tags": {"building": "commercial"}}}, {"type": "Feature", "geometry": {"type": "Polygon", "coordinates": [[[-97.4767023, 35.6239449], [-97.476579, 35.6239449], [-97.4765749, 35.6238206], [-97.4765508, 35.6238206], [-97.4765481, 35.6237389], [-97.4766983, 35.6237378], [-97.4767023, 35.6239449]]]}, "properties": {"osm_id": 678618089, "building": "yes", "name": "", "height": null, "height_m": 3.0, "levels": 1, "tract_id": "40109108304", "tract_name": "1083.04", "tags": {"addr:city": "Edmond", "addr:housenumber": "317", "addr:postcode": "73013", "addr:state": "OK", "addr:street": "East 33rd Street", "building": "yes", "building:levels": "1"}}}, {"type": "Feature", "geometry": {"type": "Polygon", "coordinates": [[[-97.4769089, 35.6240092], [-97.4767546, 35.6240092], [-97.4767493, 35.6237432], [-97.4769048, 35.6237432], [-97.4769089, 35.6240092]]]}, "properties": {"osm_id": 678618092, "building": "yes", "name": "", "height": null, "height_m": 3.0, "levels": 1, "tract_id": "40109108304", "tract_name": "1083.04", "tags": {"addr:city": "Edmond", "addr:housenumber": "313", "addr:postcode": "73013", "addr:state": "OK", "addr:street": "East 33rd Street", "building": "yes", "building:levels": "1"}}}, {"type": "Feature", "geometry": {"type": "Polygon", "coordinates": [[[-97.479891, 35.625921], [-97.4789925, 35.6259101], [-97.4789979, 35.6256223], [-97.4788208, 35.6256158], [-97.4788182, 35.6255678], [-97.4786921, 35.6255656], [-97.4786948, 35.6255874], [-97.478617, 35.6255874], [-97.478617, 35.6255613], [-97.4785821, 35.6255613], [-97.4785821, 35.6254065], [-97.4788155, 35.6254108], [-97.4788155, 35.6253803], [-97.4788799, 35.6253803], [-97.4788825, 35.6254065], [-97.4789871, 35.6254043], [-97.4789898, 35.6253498], [-97.4791776, 35.6253541], [-97.4791749, 35.6257793], [-97.4793197, 35.6257815], [-97.4793197, 35.6256114], [-97.4795209, 35.6256158], [-97.4795236, 35.6256681], [-97.4798615, 35.6256746], [-97.4798589, 35.6258229], [-97.4798937, 35.6258251], [-97.479891, 35.625921]]]}, "properties": {"osm_id": 678619631, "building": "yes", "name": "", "height": null, "height_m": 3.0, "levels": 1, "tract_id": "40109108304", "tract_name": "1083.04", "tags": {"addr:city": "Edmond", "addr:housenumber": "3207", "addr:postcode": "73013", "addr:state": "OK", "addr:street": "South Boulevard Street", "building": "yes", "building:levels": "1"}}}, {"type": "Feature", "geometry": {"type": "Polygon", "coordinates": [[[-97.4796027, 35.6267843], [-97.4790582, 35.6267778], [-97.4790582, 35.626756], [-97.479026, 35.6267582], [-97.479026, 35.6267233], [-97.4789992, 35.6267233], [-97.4789751, 35.6266644], [-97.4788651, 35.6266644], [-97.4788624, 35.6265859], [-97.4789778, 35.6265838], [-97.4789858, 35.6265511], [-97.479085, 35.6265532], [-97.479085, 35.6265249], [-97.4790609, 35.6265227], [-97.479085, 35.6264333], [-97.4791065, 35.6264355], [-97.4791065, 35.6263418], [-97.4789858, 35.6263396], [-97.4789858, 35.6262589], [-97.4791119, 35.6262589], [-97.4791119, 35.6261608], [-97.4793372, 35.626163], [-97.4793345, 35.6260954], [-97.4794498, 35.6260976], [-97.4794498, 35.6265053], [-97.4796027, 35.6265096], [-97.4796027, 35.6267843]]]}, "properties": {"osm_id": 678620643, "building": "yes", "name": "First Church of the Nazarene", "height": null, "height_m": 3.0, "levels": 1, "tract_id": "40109108304", "tract_name": "1083.04", "tags": {"addr:city": "EdmondK", "addr:housenumber": "3001", "addr:postcode": "73013", "addr:state": "OK", "addr:street": "South Boulevard Street", "building": "yes", "building:levels": "1", "name": "First Church of the Nazarene"}}}, {"type": "Feature", "geometry": {"type": "Polygon", "coordinates": [[[-97.4787739, 35.6250124], [-97.4785379, 35.6250091], [-97.4785406, 35.6249121], [-97.4787752, 35.6249132], [-97.4787739, 35.6250124]]]}, "properties": {"osm_id": 678622063, "building": "yes", "name": "", "height": null, "height_m": 3.0, "levels": 1, "tract_id": "40109108304", "tract_name": "1083.04", "tags": {"addr:city": "Edmond", "addr:housenumber": "176", "addr:postcode": "73013", "addr:state": "OK", "addr:street": "Clay Drive", "building": "yes", "building:levels": "1"}}}, {"type": "Feature", "geometry": {"type": "Polygon", "coordinates": [[[-97.4790649, 35.6250146], [-97.4788302, 35.6250124], [-97.4788302, 35.6249132], [-97.4790649, 35.6249154], [-97.4790649, 35.6250146]]]}, "properties": {"osm_id": 678622064, "building": "yes", "name": "", "height": null, "height_m": 3.0, "levels": 1, "tract_id": "40109108304", "tract_name": "1083.04", "tags": {"addr:city": "Edmond", "addr:housenumber": "164", "addr:postcode": "73013", "addr:state": "OK", "addr:street": "Clay Drive", "building": "yes", "building:levels": "1"}}}, {"type": "Feature", "geometry": {"type": "Polygon", "coordinates": [[[-97.4793573, 35.6250167], [-97.4791213, 35.6250146], [-97.4791213, 35.6249165], [-97.4793559, 35.6249175], [-97.4793573, 35.6250167]]]}, "properties": {"osm_id": 678622065, "building": "yes", "name": "", "height": null, "height_m": 3.0, "levels": 1, "tract_id": "40109108304", "tract_name": "1083.04", "tags": {"addr:city": "Edmond", "addr:housenumber": "154", "addr:postcode": "73013", "addr:state": "OK", "addr:street": "Clay Drive", "building": "yes", "building:levels": "1"}}}, {"type": "Feature", "geometry": {"type": "Polygon", "coordinates": [[[-97.4796483, 35.6250178], [-97.4794176, 35.6250146], [-97.4794176, 35.6249175], [-97.4796483, 35.6249197], [-97.4796483, 35.6250178]]]}, "properties": {"osm_id": 678622066, "building": "yes", "name": "", "height": null, "height_m": null, "levels": null, "tract_id": "40109108304", "tract_name": "1083.04", "tags": {"building": "yes"}}}, {"type": "Feature", "geometry": {"type": "Polygon", "coordinates": [[[-97.4773554, 35.627597], [-97.4771666, 35.627596], [-97.477169, 35.6273703], [-97.477178, 35.6273703], [-97.477178, 35.6273501], [-97.4777758, 35.6273535], [-97.4777734, 35.6275247], [-97.4777444, 35.6275247], [-97.4777456, 35.6275084], [-97.4776391, 35.6275089], [-97.4776349, 35.6277254], [-97.4777622, 35.6277263], [-97.477758, 35.6279183], [-97.4778758, 35.6279183], [-97.4778752, 35.6280087], [-97.4779764, 35.6280078], [-97.4779753, 35.6281098], [-97.4778735, 35.6281088], [-97.4778746, 35.6281939], [-97.477761, 35.6281925], [-97.4777628, 35.628257], [-97.4776645, 35.6282565], [-97.4776639, 35.6282233], [-97.4774893, 35.6282238], [-97.4774905, 35.628256], [-97.4773917, 35.6282555], [-97.4773917, 35.6282243], [-97.4772206, 35.6282223], [-97.4772218, 35.628256], [-97.4771229, 35.6282546], [-97.4771235, 35.6282185], [-97.4771306, 35.628218], [-97.4771306, 35.6279808], [-97.4771093, 35.6279649], [-97.4769548, 35.6280944], [-97.4769264, 35.6280727], [-97.4769963, 35.6280135], [-97.4769738, 35.6279953], [-97.4769838, 35.6279861], [-97.4765772, 35.6279928], [-97.4765731, 35.6276772], [-97.476547, 35.6276768], [-97.4765364, 35.6272928], [-97.4771306, 35.6272847], [-97.4771383, 35.6278418], [-97.4771981, 35.6278918], [-97.4774633, 35.6278904], [-97.4774627, 35.6278668], [-97.4775355, 35.6278663], [-97.4775355, 35.6278803], [-97.4775929, 35.6278812], [-97.4775935, 35.6277711], [-97.4774337, 35.6277706], [-97.4774355, 35.6275199], [-97.477355, 35.6275204], [-97.4773554, 35.627597]]]}, "properties": {"osm_id": 698370257, "building": "church", "name": "New Covenant United Methodist Church", "height": null, "height_m": null, "levels": null, "tract_id": "40109108304", "tract_name": "1083.04", "tags": {"addr:city": "Edmond", "addr:housenumber": "2700", "addr:postcode": "73013", "addr:state": "OK", "addr:street": "South Boulevard Street", "building": "church", "name": "New Covenant United Methodist Church"}}}, {"type": "Feature", "geometry": {"type": "Polygon", "coordinates": [[[-97.4774905, 35.629608], [-97.4772841, 35.629553], [-97.4772726, 35.6295362], [-97.4771373, 35.6295372], [-97.4771338, 35.6293564], [-97.4771614, 35.6293573], [-97.4771603, 35.6293404], [-97.4771579, 35.6293042], [-97.477229, 35.6293051], [-97.4772312, 35.629337], [-97.4772325, 35.6293564], [-97.4772703, 35.6293554], [-97.4772806, 35.6293396], [-97.4774836, 35.6292827], [-97.4775524, 35.6293377], [-97.4775707, 35.6293927], [-97.4776028, 35.6293933], [-97.47762, 35.6293937], [-97.4776212, 35.6294403], [-97.4776223, 35.6294878], [-97.4775878, 35.6294884], [-97.4775742, 35.6294887], [-97.4775547, 35.6295502], [-97.4774905, 35.629608]]]}, "properties": {"osm_id": 698370272, "building": "church", "name": "", "height": null, "height_m": null, "levels": null, "tract_id": "40109108304", "tract_name": "1083.04", "tags": {"building": "church"}}}, {"type": "Feature", "geometry": {"type": "Polygon", "coordinates": [[[-97.4684109, 35.6242527], [-97.4682586, 35.6242508], [-97.4682593, 35.6240719], [-97.4684079, 35.6240706], [-97.4684079, 35.6240948], [-97.4684193, 35.6240948], [-97.4684208, 35.6241963], [-97.4684102, 35.6241963], [-97.4684109, 35.6242527]]]}, "properties": {"osm_id": 757458048, "building": "commercial", "name": "", "height": null, "height_m": null, "levels": null, "tract_id": "40109108304", "tract_name": "1083.04", "tags": {"building": "commercial"}}}, {"type": "Feature", "geometry": {"type": "Polygon", "coordinates": [[[-97.4684087, 35.6240508], [-97.4682609, 35.6240508], [-97.4682593, 35.6238737], [-97.4684041, 35.6238719], [-97.4684048, 35.6239288], [-97.468417, 35.6239288], [-97.4684186, 35.6239957], [-97.4684064, 35.6239963], [-97.4684087, 35.6240508]]]}, "properties": {"osm_id": 757458049, "building": "commercial", "name": "", "height": null, "height_m": null, "levels": null, "tract_id": "40109108304", "tract_name": "1083.04", "tags": {"building": "commercial"}}}, {"type": "Feature", "geometry": {"type": "Polygon", "coordinates": [[[-97.4610776, 35.6272926], [-97.4608905, 35.6272903], [-97.4608877, 35.6270078], [-97.4610757, 35.627007], [-97.4610747, 35.6270448], [-97.4611023, 35.6270441], [-97.4611051, 35.6272641], [-97.4610785, 35.6272641], [-97.4610776, 35.6272926]]]}, "properties": {"osm_id": 757754484, "building": "commercial", "name": "", "height": null, "height_m": null, "levels": null, "tract_id": "40109108304", "tract_name": "1083.04", "tags": {"building": "commercial"}}}, {"type": "Feature", "geometry": {"type": "Polygon", "coordinates": [[[-97.4614964, 35.6303207], [-97.4614563, 35.6303208], [-97.4613991, 35.630321], [-97.4613002, 35.6303214], [-97.4613003, 35.6301677], [-97.4614954, 35.630167], [-97.4614964, 35.6303207]]]}, "properties": {"osm_id": 757754486, "building": "commercial", "name": "", "height": null, "height_m": null, "levels": null, "tract_id": "40109108304", "tract_name": "1083.04", "tags": {"building": "commercial"}}}, {"type": "Feature", "geometry": {"type": "Polygon", "coordinates": [[[-97.4696613, 35.6374842], [-97.4693588, 35.6374834], [-97.4693577, 35.6372516], [-97.4693935, 35.6372508], [-97.4693945, 35.6371835], [-97.4696276, 35.6371835], [-97.4696255, 35.6373156], [-97.4696592, 35.6373164], [-97.4696613, 35.6374842]]]}, "properties": {"osm_id": 757757661, "building": "school", "name": "", "height": null, "height_m": null, "levels": null, "tract_id": "40109108304", "tract_name": "1083.04", "tags": {"building": "school"}}}, {"type": "Feature", "geometry": {"type": "Polygon", "coordinates": [[[-97.4764075, 35.6278543], [-97.4761788, 35.6278556], [-97.476174, 35.6276348], [-97.4758659, 35.6276335], [-97.4758675, 35.6276813], [-97.4760517, 35.6276774], [-97.4760612, 35.6282325], [-97.4754196, 35.6282338], [-97.4754243, 35.6283255], [-97.4757579, 35.6283216], [-97.4757611, 35.6285436], [-97.4753132, 35.6285488], [-97.4753068, 35.6280582], [-97.4751766, 35.6280608], [-97.4751686, 35.6277859], [-97.4752195, 35.6277846], [-97.4752163, 35.6275716], [-97.4752798, 35.6275703], [-97.4752782, 35.6274644], [-97.4761645, 35.6274489], [-97.4761629, 35.6272243], [-97.4763884, 35.6272204], [-97.4764075, 35.6278543]]]}, "properties": {"osm_id": 757758317, "building": "school", "name": "Orvis Risner Elementary School", "height": null, "height_m": null, "levels": null, "tract_id": "40109108304", "tract_name": "1083.04", "tags": {"building": "school", "name": "Orvis Risner Elementary School"}}}, {"type": "Feature", "geometry": {"type": "Polygon", "coordinates": [[[-97.4777272, 35.635829], [-97.4775396, 35.635831], [-97.4775445, 35.6356184], [-97.4777247, 35.6356184], [-97.4777272, 35.635829]]]}, "properties": {"osm_id": 759687338, "building": "commercial", "name": "", "height": null, "height_m": null, "levels": null, "tract_id": "40109108304", "tract_name": "1083.04", "tags": {"building": "commercial"}}}, {"type": "Feature", "geometry": {"type": "Polygon", "coordinates": [[[-97.4778283, 35.6352071], [-97.4776112, 35.6352091], [-97.4776062, 35.6350587], [-97.4778185, 35.6350607], [-97.4778283, 35.6352071]]]}, "properties": {"osm_id": 759687339, "building": "commercial", "name": "", "height": null, "height_m": null, "levels": null, "tract_id": "40109108304", "tract_name": "1083.04", "tags": {"building": "commercial"}}}, {"type": "Feature", "geometry": {"type": "Polygon", "coordinates": [[[-97.4778629, 35.6350085], [-97.4777592, 35.6350106], [-97.4777617, 35.6349544], [-97.4777272, 35.6349544], [-97.4777272, 35.6348842], [-97.477858, 35.6348842], [-97.4778629, 35.6350085]]]}, "properties": {"osm_id": 759687340, "building": "commercial", "name": "", "height": null, "height_m": null, "levels": null, "tract_id": "40109108304", "tract_name": "1083.04", "tags": {"building": "commercial"}}}, {"type": "Feature", "geometry": {"type": "Polygon", "coordinates": [[[-97.4777913, 35.6355943], [-97.4775494, 35.6355923], [-97.4775519, 35.6354438], [-97.4777864, 35.6354438], [-97.4777913, 35.6355943]]]}, "properties": {"osm_id": 759687341, "building": "commercial", "name": "", "height": null, "height_m": null, "levels": null, "tract_id": "40109108304", "tract_name": "1083.04", "tags": {"building": "commercial"}}}, {"type": "Feature", "geometry": {"type": "Polygon", "coordinates": [[[-97.4876292, 35.6245067], [-97.4876614, 35.6245187], [-97.487766, 35.6243002], [-97.4875715, 35.6242958], [-97.4875145, 35.6242985], [-97.4874609, 35.6243182], [-97.4874193, 35.6243541], [-97.4873873, 35.6244253], [-97.4876292, 35.6245067]]]}, "properties": {"osm_id": 1157466859, "building": "retail", "name": "", "height": null, "height_m": null, "levels": null, "tract_id": "40109108304", "tract_name": "1083.04", "tags": {"building": "retail", "shop": "yes"}}}, {"type": "Feature", "geometry": {"type": "Polygon", "coordinates": [[[-97.4874717, 35.6248161], [-97.4874402, 35.6248779], [-97.4871983, 35.6247965], [-97.4872298, 35.6247347], [-97.4874717, 35.6248161]]]}, "properties": {"osm_id": 1157466860, "building": "retail", "name": "", "height": null, "height_m": null, "levels": null, "tract_id": "40109108304", "tract_name": "1083.04", "tags": {"building": "retail", "shop": "yes"}}}, {"type": "Feature", "geometry": {"type": "Polygon", "coordinates": [[[-97.4875032, 35.6247542], [-97.4874717, 35.6248161], [-97.4872298, 35.6247347], [-97.4872613, 35.6246728], [-97.4875032, 35.6247542]]]}, "properties": {"osm_id": 1157466861, "building": "retail", "name": "", "height": null, "height_m": null, "levels": null, "tract_id": "40109108304", "tract_name": "1083.04", "tags": {"building": "retail", "shop": "yes"}}}, {"type": "Feature", "geometry": {"type": "Polygon", "coordinates": [[[-97.4875347, 35.6246923], [-97.4875032, 35.6247542], [-97.4872613, 35.6246728], [-97.4872928, 35.6246109], [-97.4875347, 35.6246923]]]}, "properties": {"osm_id": 1157466862, "building": "retail", "name": "", "height": null, "height_m": null, "levels": null, "tract_id": "40109108304", "tract_name": "1083.04", "tags": {"building": "retail", "shop": "yes"}}}, {"type": "Feature", "geometry": {"type": "Polygon", "coordinates": [[[-97.4875662, 35.6246304], [-97.4875347, 35.6246923], [-97.4872928, 35.6246109], [-97.4873243, 35.6245491], [-97.4875662, 35.6246304]]]}, "properties": {"osm_id": 1157466863, "building": "retail", "name": "", "height": null, "height_m": null, "levels": null, "tract_id": "40109108304", "tract_name": "1083.04", "tags": {"building": "retail", "shop": "yes"}}}, {"type": "Feature", "geometry": {"type": "Polygon", "coordinates": [[[-97.4875977, 35.6245686], [-97.4875662, 35.6246304], [-97.4873243, 35.6245491], [-97.4873558, 35.6244872], [-97.4875977, 35.6245686]]]}, "properties": {"osm_id": 1157466864, "building": "retail", "name": "TITLE Boxing Club Edmond", "height": null, "height_m": null, "levels": null, "tract_id": "40109108304", "tract_name": "1083.04", "tags": {"addr:city": "Edmond", "addr:housename": "TITLE Boxing Club Edmond", "addr:housenumber": "3209", "addr:postcode": "73013", "addr:street": "South Broadway", "building": "retail", "leisure": "fitness_centre", "name": "TITLE Boxing Club Edmond", "phone": "+1 405 757 0400", "sport": "boxing", "website": "https://edmond-broadway.titleboxingclub.com/"}}}, {"type": "Feature", "geometry": {"type": "Polygon", "coordinates": [[[-97.4876292, 35.6245067], [-97.4875977, 35.6245686], [-97.4873558, 35.6244872], [-97.4873873, 35.6244253], [-97.4876292, 35.6245067]]]}, "properties": {"osm_id": 1157466865, "building": "retail", "name": "", "height": null, "height_m": null, "levels": null, "tract_id": "40109108304", "tract_name": "1083.04", "tags": {"building": "retail", "shop": "yes"}}}, {"type": "Feature", "geometry": {"type": "Polygon", "coordinates": [[[-97.4871246, 35.6249384], [-97.4871983, 35.6247965], [-97.4874402, 35.6248779], [-97.4873703, 35.6250209], [-97.4871246, 35.6249384]]]}, "properties": {"osm_id": 1157466866, "building": "retail", "name": "", "height": null, "height_m": null, "levels": null, "tract_id": "40109108304", "tract_name": "1083.04", "tags": {"building": "retail", "shop": "yes"}}}, {"type": "Feature", "geometry": {"type": "Polygon", "coordinates": [[[-97.4869674, 35.6252575], [-97.4869229, 35.6253473], [-97.4870259, 35.625381], [-97.4870389, 35.6253548], [-97.4871829, 35.625402], [-97.4872144, 35.6253384], [-97.4869674, 35.6252575]]]}, "properties": {"osm_id": 1157466867, "building": "retail", "name": "", "height": null, "height_m": null, "levels": null, "tract_id": "40109108304", "tract_name": "1083.04", "tags": {"building": "retail", "shop": "yes"}}}, {"type": "Feature", "geometry": {"type": "Polygon", "coordinates": [[[-97.4869989, 35.6251939], [-97.4869674, 35.6252575], [-97.4872144, 35.6253384], [-97.4872459, 35.6252748], [-97.4869989, 35.6251939]]]}, "properties": {"osm_id": 1157466868, "building": "retail", "name": "", "height": null, "height_m": null, "levels": null, "tract_id": "40109108304", "tract_name": "1083.04", "tags": {"building": "retail", "shop": "yes"}}}, {"type": "Feature", "geometry": {"type": "Polygon", "coordinates": [[[-97.4870304, 35.6251303], [-97.4869989, 35.6251939], [-97.4872459, 35.6252748], [-97.4872774, 35.6252112], [-97.4870304, 35.6251303]]]}, "properties": {"osm_id": 1157466869, "building": "retail", "name": "", "height": null, "height_m": null, "levels": null, "tract_id": "40109108304", "tract_name": "1083.04", "tags": {"building": "retail", "shop": "yes"}}}, {"type": "Feature", "geometry": {"type": "Polygon", "coordinates": [[[-97.4870619, 35.6250667], [-97.4870304, 35.6251303], [-97.4872774, 35.6252112], [-97.487309, 35.6251476], [-97.4870619, 35.6250667]]]}, "properties": {"osm_id": 1157466870, "building": "retail", "name": "", "height": null, "height_m": null, "levels": null, "tract_id": "40109108304", "tract_name": "1083.04", "tags": {"building": "retail", "shop": "yes"}}}, {"type": "Feature", "geometry": {"type": "Polygon", "coordinates": [[[-97.4870934, 35.6250031], [-97.4870619, 35.6250667], [-97.487309, 35.6251476], [-97.4873405, 35.625084], [-97.4870934, 35.6250031]]]}, "properties": {"osm_id": 1157466871, "building": "retail", "name": "", "height": null, "height_m": null, "levels": null, "tract_id": "40109108304", "tract_name": "1083.04", "tags": {"building": "retail", "shop": "yes"}}}, {"type": "Feature", "geometry": {"type": "Polygon", "coordinates": [[[-97.4871246, 35.6249384], [-97.4870934, 35.6250031], [-97.4873405, 35.625084], [-97.4873703, 35.6250209], [-97.4871246, 35.6249384]]]}, "properties": {"osm_id": 1157466872, "building": "retail", "name": "Glo Tanning", "height": null, "height_m": null, "levels": null, "tract_id": "40109108304", "tract_name": "1083.04", "tags": {"addr:city": "Edmond", "addr:country": "US", "addr:housenumber": "3209", "addr:postcode": "73013", "addr:state": "OK", "addr:street": "South Broadway", "beauty": "tanning", "building": "retail", "name": "Glo Tanning", "opening_hours": "Mo-Fr 09:00-21:00; Sa,Su 10:00-18:00", "phone": "+1 405 708 6320", "shop": "beauty"}}}, {"type": "Feature", "geometry": {"type": "Polygon", "coordinates": [[[-97.4636284, 35.6379513], [-97.4634983, 35.637951], [-97.4634992, 35.6377439], [-97.4636292, 35.6377442], [-97.4636284, 35.6379513]]]}, "properties": {"osm_id": 1212624698, "building": "retail", "name": "Andy's Frozen Custard", "height": null, "height_m": null, "levels": null, "tract_id": "40109108304", "tract_name": "1083.04", "tags": {"addr:city": "Edmond", "addr:country": "US", "addr:housenumber": "1200", "addr:postcode": "73013", "addr:state": "OK", "addr:street": "East 15th Street", "amenity": "ice_cream", "building": "retail", "name": "Andy's Frozen Custard", "opening_hours": "Mo-Su 11:00-23:00", "operator": "Ranchers Custard Company", "phone": "+1 405 960 1069", "takeaway": "yes", "website": "https://www.eatandys.com/", "wheelchair": "yes"}}}, {"type": "Feature", "geometry": {"type": "Polygon", "coordinates": [[[-97.4630097, 35.6379882], [-97.4627457, 35.637989], [-97.4627442, 35.6376444], [-97.4630081, 35.6376436], [-97.4630097, 35.6379882]]]}, "properties": {"osm_id": 1350402059, "building": "yes", "name": "", "height": null, "height_m": null, "levels": null, "tract_id": "40109108304", "tract_name": "1083.04", "tags": {"building": "yes"}}}, {"type": "Feature", "geometry": {"type": "Polygon", "coordinates": [[[-97.4857198, 35.6342858], [-97.4857292, 35.634209], [-97.4857371, 35.6341438], [-97.4853079, 35.6341047], [-97.4853032, 35.634138], [-97.4852903, 35.6342513], [-97.4857198, 35.6342858]]]}, "properties": {"osm_id": 1356158824, "building": "roof", "name": "", "height": null, "height_m": null, "levels": null, "tract_id": "40109108304", "tract_name": "1083.04", "tags": {"building": "roof", "layer": "1"}}}, {"type": "Feature", "geometry": {"type": "Polygon", "coordinates": [[[-97.4852903, 35.6342513], [-97.4851189, 35.6342375], [-97.4851574, 35.633921], [-97.4852373, 35.6339274], [-97.4852142, 35.6341313], [-97.4853032, 35.634138], [-97.4852903, 35.6342513]]]}, "properties": {"osm_id": 1356158825, "building": "roof", "name": "", "height": null, "height_m": null, "levels": null, "tract_id": "40109108304", "tract_name": "1083.04", "tags": {"building": "roof", "layer": "1"}}}]}