{"type": "FeatureCollection", "features": [{"type": "Feature", "geometry": {"type": "Polygon", "coordinates": [[[-97.6525263, 34.7140977], [-97.6523759, 34.7141061], [-97.6523571, 34.7138768], [-97.6525075, 34.7138684], [-97.6525263, 34.7140977]]]}, "properties": {"osm_id": 436115568, "building": "yes", "name": "", "height": null, "height_m": null, "levels": null, "tract_id": "40049681700", "tract_name": "6817", "tags": {"building": "yes"}}}, {"type": "Feature", "geometry": {"type": "Polygon", "coordinates": [[[-97.6517431, 34.713831], [-97.6516599, 34.713831], [-97.6516599, 34.7137604], [-97.6517431, 34.7137604], [-97.6517431, 34.713831]]]}, "properties": {"osm_id": 436115569, "building": "yes", "name": "", "height": null, "height_m": null, "levels": null, "tract_id": "40049681700", "tract_name": "6817", "tags": {"building": "yes"}}}, {"type": "Feature", "geometry": {"type": "Polygon", "coordinates": [[[-97.6245412, 34.7335574], [-97.6245225, 34.7335199], [-97.6245476, 34.7335114], [-97.6245214, 34.7334592], [-97.6244963, 34.7334677], [-97.6244821, 34.7334393], [-97.624408, 34.7334644], [-97.6244672, 34.7335825], [-97.6245412, 34.7335574]]]}, "properties": {"osm_id": 436115570, "building": "yes", "name": "", "height": null, "height_m": null, "levels": null, "tract_id": "40049681700", "tract_name": "6817", "tags": {"building": "yes"}}}, {"type": "Feature", "geometry": {"type": "Polygon", "coordinates": [[[-97.6376746, 34.7791302], [-97.6374359, 34.7791324], [-97.6374338, 34.7789808], [-97.6376725, 34.7789786], [-97.6376746, 34.7791302]]]}, "properties": {"osm_id": 436167432, "building": "yes", "name": "", "height": null, "height_m": null, "levels": null, "tract_id": "40049681700", "tract_name": "6817", "tags": {"building": "yes"}}}, {"type": "Feature", "geometry": {"type": "Polygon", "coordinates": [[[-97.6052052, 34.75207], [-97.6051515, 34.7520702], [-97.6051502, 34.7518609], [-97.6052038, 34.7518607], [-97.6052052, 34.75207]]]}, "properties": {"osm_id": 436167433, "building": "yes", "name": "", "height": null, "height_m": null, "levels": null, "tract_id": "40049681700", "tract_name": "6817", "tags": {"building": "yes"}}}, {"type": "Feature", "geometry": {"type": "Polygon", "coordinates": [[[-97.6169144, 34.7648895], [-97.6167997, 34.7649008], [-97.6167809, 34.764773], [-97.6168956, 34.7647617], [-97.6169144, 34.7648895]]]}, "properties": {"osm_id": 436167434, "building": "yes", "name": "", "height": null, "height_m": null, "levels": null, "tract_id": "40049681700", "tract_name": "6817", "tags": {"building": "yes"}}}, {"type": "Feature", "geometry": {"type": "Polygon", "coordinates": [[[-97.6014809, 34.7519532], [-97.6014125, 34.7520206], [-97.6012033, 34.7518774], [-97.6012717, 34.75181], [-97.6014809, 34.7519532]]]}, "properties": {"osm_id": 436167435, "building": "yes", "name": "", "height": null, "height_m": null, "levels": null, "tract_id": "40049681700", "tract_name": "6817", "tags": {"building": "yes"}}}, {"type": "Feature", "geometry": {"type": "Polygon", "coordinates": [[[-97.6375593, 34.7772223], [-97.6374253, 34.7772193], [-97.6374307, 34.7770563], [-97.6375646, 34.7770593], [-97.6375593, 34.7772223]]]}, "properties": {"osm_id": 436167436, "building": "yes", "name": "", "height": null, "height_m": null, "levels": null, "tract_id": "40049681700", "tract_name": "6817", "tags": {"building": "yes"}}}, {"type": "Feature", "geometry": {"type": "Polygon", "coordinates": [[[-97.6168929, 34.7646339], [-97.6168017, 34.7646295], [-97.616806, 34.7645694], [-97.6168972, 34.7645738], [-97.6168929, 34.7646339]]]}, "properties": {"osm_id": 436167437, "building": "yes", "name": "", "height": null, "height_m": null, "levels": null, "tract_id": "40049681700", "tract_name": "6817", "tags": {"building": "yes"}}}, {"type": "Feature", "geometry": {"type": "Polygon", "coordinates": [[[-97.6052722, 34.7520722], [-97.6052722, 34.7520182], [-97.6053352, 34.7520182], [-97.6053352, 34.7520722], [-97.6052722, 34.7520722]]]}, "properties": {"osm_id": 436167438, "building": "yes", "name": "", "height": null, "height_m": null, "levels": null, "tract_id": "40049681700", "tract_name": "6817", "tags": {"building": "yes"}}}, {"type": "Feature", "geometry": {"type": "Polygon", "coordinates": [[[-97.6299325, 34.7535454], [-97.6297689, 34.7535521], [-97.6297626, 34.7534475], [-97.6299262, 34.7534409], [-97.6299325, 34.7535454]]]}, "properties": {"osm_id": 436167439, "building": "yes", "name": "", "height": null, "height_m": null, "levels": null, "tract_id": "40049681700", "tract_name": "6817", "tags": {"building": "yes"}}}, {"type": "Feature", "geometry": {"type": "Polygon", "coordinates": [[[-97.6336969, 34.7546903], [-97.6335786, 34.7547011], [-97.6335625, 34.7545821], [-97.6336809, 34.7545713], [-97.6336969, 34.7546903]]]}, "properties": {"osm_id": 436167440, "building": "yes", "name": "", "height": null, "height_m": null, "levels": null, "tract_id": "40049681700", "tract_name": "6817", "tags": {"building": "yes"}}}, {"type": "Feature", "geometry": {"type": "Polygon", "coordinates": [[[-97.6373581, 34.7770439], [-97.6372566, 34.7770392], [-97.637262, 34.7769599], [-97.6373635, 34.7769646], [-97.6373581, 34.7770439]]]}, "properties": {"osm_id": 436167441, "building": "yes", "name": "", "height": null, "height_m": null, "levels": null, "tract_id": "40049681700", "tract_name": "6817", "tags": {"building": "yes"}}}, {"type": "Feature", "geometry": {"type": "Polygon", "coordinates": [[[-97.637629, 34.7782556], [-97.6373983, 34.7782468], [-97.6374037, 34.7781512], [-97.6376344, 34.77816], [-97.637629, 34.7782556]]]}, "properties": {"osm_id": 436167442, "building": "yes", "name": "", "height": null, "height_m": null, "levels": null, "tract_id": "40049681700", "tract_name": "6817", "tags": {"building": "yes"}}}, {"type": "Feature", "geometry": {"type": "Polygon", "coordinates": [[[-97.6238465, 34.7835009], [-97.623648, 34.7834723], [-97.6236694, 34.783372], [-97.6238679, 34.7834006], [-97.6238465, 34.7835009]]]}, "properties": {"osm_id": 436167443, "building": "yes", "name": "", "height": null, "height_m": null, "levels": null, "tract_id": "40049681700", "tract_name": "6817", "tags": {"building": "yes"}}}, {"type": "Feature", "geometry": {"type": "Polygon", "coordinates": [[[-97.6037621, 34.7818663], [-97.6035073, 34.7818487], [-97.6035215, 34.7817109], [-97.6037763, 34.7817285], [-97.6037621, 34.7818663]]]}, "properties": {"osm_id": 436167444, "building": "yes", "name": "", "height": null, "height_m": null, "levels": null, "tract_id": "40049681700", "tract_name": "6817", "tags": {"building": "yes"}}}, {"type": "Feature", "geometry": {"type": "Polygon", "coordinates": [[[-97.6132853, 34.7674895], [-97.6131884, 34.7675126], [-97.6131347, 34.7673605], [-97.6132317, 34.7673375], [-97.6132853, 34.7674895]]]}, "properties": {"osm_id": 436167445, "building": "yes", "name": "", "height": null, "height_m": null, "levels": null, "tract_id": "40049681700", "tract_name": "6817", "tags": {"building": "yes"}}}, {"type": "Feature", "geometry": {"type": "Polygon", "coordinates": [[[-97.6159541, 34.7675556], [-97.6157369, 34.7675534], [-97.6157394, 34.7673833], [-97.6159567, 34.7673855], [-97.6159541, 34.7675556]]]}, "properties": {"osm_id": 436167446, "building": "yes", "name": "", "height": null, "height_m": null, "levels": null, "tract_id": "40049681700", "tract_name": "6817", "tags": {"building": "yes"}}}, {"type": "Feature", "geometry": {"type": "Polygon", "coordinates": [[[-97.6167534, 34.7645568], [-97.6166564, 34.7645524], [-97.6166618, 34.7644709], [-97.6167588, 34.7644752], [-97.6167534, 34.7645568]]]}, "properties": {"osm_id": 436167447, "building": "yes", "name": "", "height": null, "height_m": null, "levels": null, "tract_id": "40049681700", "tract_name": "6817", "tags": {"building": "yes"}}}, {"type": "Feature", "geometry": {"type": "Polygon", "coordinates": [[[-97.6376156, 34.7780441], [-97.6374144, 34.7780353], [-97.6374229, 34.7779047], [-97.6376241, 34.7779135], [-97.6376156, 34.7780441]]]}, "properties": {"osm_id": 436167448, "building": "yes", "name": "", "height": null, "height_m": null, "levels": null, "tract_id": "40049681700", "tract_name": "6817", "tags": {"building": "yes"}}}, {"type": "Feature", "geometry": {"type": "Polygon", "coordinates": [[[-97.6014836, 34.7520744], [-97.6014312, 34.752037], [-97.6015197, 34.7519533], [-97.6015721, 34.7519907], [-97.6014836, 34.7520744]]]}, "properties": {"osm_id": 436167449, "building": "yes", "name": "", "height": null, "height_m": null, "levels": null, "tract_id": "40049681700", "tract_name": "6817", "tags": {"building": "yes"}}}, {"type": "Feature", "geometry": {"type": "Polygon", "coordinates": [[[-97.6076903, 34.8117462], [-97.6077019, 34.8116117], [-97.6075014, 34.8116001], [-97.6074898, 34.8117345], [-97.6076903, 34.8117462]]]}, "properties": {"osm_id": 1026645918, "building": "yes", "name": "Murray-Lindsay Mansion", "height": null, "height_m": null, "levels": null, "tract_id": "40049681700", "tract_name": "6817", "tags": {"addr:city": "Lindsay", "addr:housenumber": "13031", "addr:postcode": "73052", "addr:state": "OK", "addr:street": "North County Road", "addr:unit": "3025", "building": "yes", "name": "Murray-Lindsay Mansion", "tourism": "museum"}}}, {"type": "Feature", "geometry": {"type": "Polygon", "coordinates": [[[-97.4833285, 34.8022339], [-97.4832224, 34.8022285], [-97.4832271, 34.8021651], [-97.4831941, 34.8021634], [-97.4832001, 34.802084], [-97.4832272, 34.8020854], [-97.4832305, 34.8020415], [-97.4833425, 34.8020472], [-97.4833285, 34.8022339]]]}, "properties": {"osm_id": 1322049583, "building": "house", "name": "", "height": null, "height_m": null, "levels": null, "tract_id": "40049681700", "tract_name": "6817", "tags": {"building": "house"}}}, {"type": "Feature", "geometry": {"type": "Polygon", "coordinates": [[[-97.4833113, 34.8028305], [-97.483112, 34.8028279], [-97.4831162, 34.8026187], [-97.4833155, 34.8026214], [-97.4833113, 34.8028305]]]}, "properties": {"osm_id": 1322049584, "building": "yes", "name": "", "height": null, "height_m": null, "levels": null, "tract_id": "40049681700", "tract_name": "6817", "tags": {"building": "yes"}}}, {"type": "Feature", "geometry": {"type": "Polygon", "coordinates": [[[-97.4832888, 34.8030999], [-97.4831647, 34.8030966], [-97.4831709, 34.8029406], [-97.483295, 34.8029439], [-97.4832888, 34.8030999]]]}, "properties": {"osm_id": 1322049585, "building": "hangar", "name": "", "height": null, "height_m": null, "levels": null, "tract_id": "40049681700", "tract_name": "6817", "tags": {"aeroway": "hangar", "building": "hangar"}}}, {"type": "Feature", "geometry": {"type": "Polygon", "coordinates": [[[-97.5275744, 34.7825124], [-97.5275764, 34.7824559], [-97.5274214, 34.7824521], [-97.5274184, 34.7825347], [-97.5275236, 34.7825373], [-97.5275245, 34.7825112], [-97.5275744, 34.7825124]]]}, "properties": {"osm_id": 1355013270, "building": "house", "name": "", "height": null, "height_m": null, "levels": null, "tract_id": "40049681700", "tract_name": "6817", "tags": {"building": "house"}}}, {"type": "Feature", "geometry": {"type": "Polygon", "coordinates": [[[-97.5288703, 34.8010392], [-97.5288711, 34.8009302], [-97.5287115, 34.8009294], [-97.528711, 34.8009941], [-97.5286648, 34.8009939], [-97.5286645, 34.8010382], [-97.5288703, 34.8010392]]]}, "properties": {"osm_id": 1355013274, "building": "yes", "name": "", "height": null, "height_m": null, "levels": null, "tract_id": "40049681700", "tract_name": "6817", "tags": {"building": "yes"}}}, {"type": "Feature", "geometry": {"type": "Polygon", "coordinates": [[[-97.5282621, 34.7880118], [-97.5282726, 34.7878663], [-97.5281838, 34.787862], [-97.5281804, 34.7879099], [-97.5281623, 34.7879091], [-97.5281573, 34.787978], [-97.52818, 34.7879791], [-97.5281779, 34.7880077], [-97.5282621, 34.7880118]]]}, "properties": {"osm_id": 1355013275, "building": "house", "name": "", "height": null, "height_m": null, "levels": null, "tract_id": "40049681700", "tract_name": "6817", "tags": {"building": "house"}}}, {"type": "Feature", "geometry": {"type": "Polygon", "coordinates": [[[-97.5294279, 34.7845379], [-97.5293855, 34.7843875], [-97.5292909, 34.7844054], [-97.5293332, 34.7845558], [-97.5294279, 34.7845379]]]}, "properties": {"osm_id": 1355013276, "building": "house", "name": "", "height": null, "height_m": null, "levels": null, "tract_id": "40049681700", "tract_name": "6817", "tags": {"building": "house"}}}, {"type": "Feature", "geometry": {"type": "Polygon", "coordinates": [[[-97.5278142, 34.7763747], [-97.5278161, 34.7762769], [-97.5277195, 34.7762756], [-97.5277183, 34.7763346], [-97.5277368, 34.7763348], [-97.527736, 34.7763736], [-97.5278142, 34.7763747]]]}, "properties": {"osm_id": 1355013277, "building": "house", "name": "", "height": null, "height_m": null, "levels": null, "tract_id": "40049681700", "tract_name": "6817", "tags": {"building": "house"}}}, {"type": "Feature", "geometry": {"type": "Polygon", "coordinates": [[[-97.5284324, 34.7728436], [-97.5284314, 34.7726725], [-97.5283576, 34.7726728], [-97.5283576, 34.7726588], [-97.5283375, 34.7726588], [-97.5283374, 34.7726408], [-97.5282735, 34.7726411], [-97.5282736, 34.7726605], [-97.5282531, 34.7726605], [-97.5282534, 34.7727107], [-97.5282243, 34.7727108], [-97.5282247, 34.7727797], [-97.5282855, 34.7727795], [-97.5282858, 34.7728442], [-97.5284324, 34.7728436]]]}, "properties": {"osm_id": 1355013278, "building": "house", "name": "", "height": null, "height_m": null, "levels": null, "tract_id": "40049681700", "tract_name": "6817", "tags": {"building": "house"}}}, {"type": "Feature", "geometry": {"type": "Polygon", "coordinates": [[[-97.5290655, 34.7533204], [-97.5291199, 34.7531226], [-97.529036, 34.753107], [-97.5289816, 34.7533048], [-97.5290655, 34.7533204]]]}, "properties": {"osm_id": 1355013279, "building": "house", "name": "", "height": null, "height_m": null, "levels": null, "tract_id": "40049681700", "tract_name": "6817", "tags": {"building": "house"}}}]}