{"type": "FeatureCollection", "features": [{"type": "Feature", "geometry": {"type": "Polygon", "coordinates": [[[-95.7659205, 36.1660836], [-95.7659187, 36.1661676], [-95.7658981, 36.1669907], [-95.7662268, 36.1669898], [-95.7668187, 36.1669884], [-95.7668381, 36.165885], [-95.7659249, 36.1658699], [-95.7659205, 36.1660836]]]}, "properties": {"osm_id": 50563411, "building": "parking", "name": "", "height": null, "height_m": null, "levels": null, "tract_id": "40131050407", "tract_name": "504.07", "tags": {"amenity": "parking", "building": "parking", "parking": "multi-storey"}}}, {"type": "Feature", "geometry": {"type": "Polygon", "coordinates": [[[-95.7658725, 36.1653769], [-95.76606, 36.1654189], [-95.7660949, 36.1652825], [-95.7660546, 36.1651656], [-95.7658783, 36.1652088], [-95.7658913, 36.1652692], [-95.7658838, 36.1653472], [-95.7658725, 36.1653769]]]}, "properties": {"osm_id": 159196697, "building": "roof", "name": "", "height": null, "height_m": null, "levels": null, "tract_id": "40131050407", "tract_name": "504.07", "tags": {"building": "roof", "layer": "1", "source": "Bing"}}}, {"type": "Feature", "geometry": {"type": "Polygon", "coordinates": [[[-95.7645955, 36.1654168], [-95.7644641, 36.1653128], [-95.7646009, 36.1651418], [-95.764765, 36.1651047], [-95.7648098, 36.165164], [-95.7648442, 36.165192], [-95.7648128, 36.1652955], [-95.7645955, 36.1654168]]]}, "properties": {"osm_id": 159196708, "building": "roof", "name": "", "height": null, "height_m": null, "levels": null, "tract_id": "40131050407", "tract_name": "504.07", "tags": {"building": "roof", "layer": "1", "source": "Bing"}}}, {"type": "Feature", "geometry": {"type": "Polygon", "coordinates": [[[-95.7659205, 36.1660836], [-95.7658225, 36.1660781], [-95.7658633, 36.1654012], [-95.7658725, 36.1653769], [-95.7658838, 36.1653472], [-95.7658913, 36.1652692], [-95.7658783, 36.1652088], [-95.765858, 36.1646921], [-95.7656863, 36.1645362], [-95.7656184, 36.1645271], [-95.7656279, 36.1641386], [-95.7655398, 36.1640354], [-95.7653488, 36.1640513], [-95.7653283, 36.1639631], [-95.7650814, 36.1639556], [-95.7650496, 36.1638701], [-95.7646352, 36.1638666], [-95.7646284, 36.1639474], [-95.7648093, 36.1639741], [-95.764809, 36.1645164], [-95.7640253, 36.1645], [-95.7639459, 36.1645601], [-95.7639461, 36.1650266], [-95.7640281, 36.1650713], [-95.7645613, 36.165072], [-95.7645715, 36.1650364], [-95.7645927, 36.165014], [-95.7647633, 36.165017], [-95.7647603, 36.1650531], [-95.764765, 36.1651047], [-95.7648098, 36.165164], [-95.7648442, 36.165192], [-95.7648794, 36.1652062], [-95.7649463, 36.1652261], [-95.7649927, 36.1652627], [-95.7650162, 36.1656667], [-95.7651683, 36.1657891], [-95.764842, 36.1660601], [-95.7646951, 36.1661821], [-95.7645385, 36.1660528], [-95.7642405, 36.1660568], [-95.763889, 36.165979], [-95.763903, 36.1659267], [-95.7636637, 36.1658797], [-95.7635952, 36.1661128], [-95.7636809, 36.1661319], [-95.763607, 36.1663606], [-95.7648526, 36.1665853], [-95.7649756, 36.1664633], [-95.7650944, 36.1665544], [-95.7652867, 36.1664095], [-95.7653347, 36.1664142], [-95.765345, 36.1664859], [-95.7655469, 36.1664883], [-95.7655386, 36.1668344], [-95.7657581, 36.1667712], [-95.7657927, 36.1661679], [-95.7659187, 36.1661676], [-95.7659205, 36.1660836]]]}, "properties": {"osm_id": 195664424, "building": "yes", "name": "Hard Rock Hotel and Casino", "height": null, "height_m": null, "levels": null, "tract_id": "40131050407", "tract_name": "504.07", "tags": {"addr:city": "Tulsa", "addr:country": "US", "addr:housenumber": "777", "addr:postcode": "74015", "addr:state": "OK", "addr:street": "West Cherokee Street", "brand": "Hard Rock Hotel", "brand:wikidata": "Q109275902", "building": "yes", "name": "Hard Rock Hotel and Casino", "official_name": "Hard Rock Hotels & Resorts", "tourism": "hotel"}}}, {"type": "Feature", "geometry": {"type": "Polygon", "coordinates": [[[-95.7618611, 36.1711076], [-95.7619396, 36.1711068], [-95.7619399, 36.1711237], [-95.7620276, 36.1711238], [-95.7620277, 36.1711058], [-95.7621067, 36.171105], [-95.7621051, 36.1710106], [-95.7618596, 36.1710133], [-95.7618611, 36.1711076]]]}, "properties": {"osm_id": 222963049, "building": "house", "name": "", "height": null, "height_m": null, "levels": null, "tract_id": "40131050407", "tract_name": "504.07", "tags": {"addr:city": "Catoosa", "addr:country": "US", "addr:housenumber": "19278", "addr:postcode": "74015", "addr:street": "Town Lane", "building": "house"}}}, {"type": "Feature", "geometry": {"type": "Polygon", "coordinates": [[[-95.8118037, 36.1649571], [-95.8114613, 36.1649558], [-95.8114616, 36.1649006], [-95.8114485, 36.1649005], [-95.8114486, 36.1648783], [-95.811334, 36.1648779], [-95.8113348, 36.1647359], [-95.8114501, 36.1647364], [-95.8114517, 36.1644535], [-95.811469, 36.1644535], [-95.8114694, 36.1643836], [-95.811636, 36.1643843], [-95.8116356, 36.1644548], [-95.8118066, 36.1644555], [-95.8118037, 36.1649571]]]}, "properties": {"osm_id": 263884562, "building": "yes", "name": "Messer Construction", "height": null, "height_m": null, "levels": null, "tract_id": "40131050407", "tract_name": "504.07", "tags": {"addr:city": "Tulsa", "addr:housenumber": "14811", "addr:postcode": "74116", "addr:state": "OK", "addr:street": "East Skelly Drive South", "building": "yes", "name": "Messer Construction"}}}, {"type": "Feature", "geometry": {"type": "Polygon", "coordinates": [[[-95.8006882, 36.1646045], [-95.7995604, 36.1645998], [-95.7995618, 36.1643912], [-95.7995041, 36.1643909], [-95.7995052, 36.1642134], [-95.7999011, 36.164215], [-95.7999016, 36.1641385], [-95.80004, 36.164139], [-95.8000402, 36.1641054], [-95.8002076, 36.1641061], [-95.8002074, 36.1641397], [-95.800348, 36.1641403], [-95.8003475, 36.1642169], [-95.8006906, 36.1642184], [-95.8006882, 36.1646045]]]}, "properties": {"osm_id": 352616225, "building": "office", "name": "AT&T", "height": null, "height_m": null, "levels": null, "tract_id": "40131050407", "tract_name": "504.07", "tags": {"addr:housenumber": "15901", "addr:street": "East Skelly Drive South", "brand": "AT&T", "brand:wikidata": "Q35476", "building": "office", "check_date": "2025-05-26", "name": "AT&T", "office": "telecommunication"}}}, {"type": "Feature", "geometry": {"type": "Polygon", "coordinates": [[[-95.7962529, 36.1847822], [-95.796255, 36.1853576], [-95.7963561, 36.1853573], [-95.7963564, 36.1854135], [-95.7962533, 36.1854144], [-95.7962538, 36.1861812], [-95.7960163, 36.1861819], [-95.7960172, 36.1869499], [-95.7957723, 36.1869514], [-95.7957731, 36.1863446], [-95.795536, 36.186346], [-95.7955378, 36.1861013], [-95.7953201, 36.1861008], [-95.795321, 36.1860462], [-95.7954551, 36.1860447], [-95.7954564, 36.1860131], [-95.7955378, 36.1860135], [-95.7955378, 36.1852922], [-95.7953268, 36.1852922], [-95.7953268, 36.1848483], [-95.7955378, 36.1848483], [-95.7955378, 36.1847822], [-95.7962529, 36.1847822]]]}, "properties": {"osm_id": 354122767, "building": "yes", "name": "SPX Corp", "height": null, "height_m": null, "levels": null, "tract_id": "40131050407", "tract_name": "504.07", "tags": {"addr:city": "Tulsa", "addr:housenumber": "2121", "addr:postcode": "74116", "addr:state": "OK", "addr:street": "North 161st East Avenue", "building": "yes", "name": "SPX Corp"}}}, {"type": "Feature", "geometry": {"type": "Polygon", "coordinates": [[[-95.795009, 36.1861644], [-95.7946507, 36.1861652], [-95.7946469, 36.1850874], [-95.7950052, 36.1850866], [-95.795009, 36.1861644]]]}, "properties": {"osm_id": 354122840, "building": "yes", "name": "", "height": null, "height_m": null, "levels": null, "tract_id": "40131050407", "tract_name": "504.07", "tags": {"building": "yes"}}}, {"type": "Feature", "geometry": {"type": "Polygon", "coordinates": [[[-95.7970585, 36.1855418], [-95.7968208, 36.1855418], [-95.7968208, 36.1855515], [-95.7965701, 36.1855515], [-95.7965701, 36.1849884], [-95.7970585, 36.1849884], [-95.7970585, 36.1855418]]]}, "properties": {"osm_id": 354122863, "building": "yes", "name": "", "height": null, "height_m": null, "levels": null, "tract_id": "40131050407", "tract_name": "504.07", "tags": {"building": "yes"}}}, {"type": "Feature", "geometry": {"type": "Polygon", "coordinates": [[[-95.8142312, 36.1684694], [-95.8138855, 36.16847], [-95.8138868, 36.1682811], [-95.8138751, 36.168281], [-95.8138739, 36.1684686], [-95.8137143, 36.1684679], [-95.8137155, 36.1682803], [-95.8137041, 36.1682803], [-95.8137032, 36.168422], [-95.8133924, 36.1684206], [-95.8133949, 36.1680456], [-95.8138883, 36.1680478], [-95.8138899, 36.1678174], [-95.8138728, 36.1678171], [-95.8138728, 36.1676702], [-95.8142332, 36.1676721], [-95.8142315, 36.1683363], [-95.8142922, 36.1683364], [-95.8142926, 36.1681613], [-95.8144395, 36.1681616], [-95.8144391, 36.1683366], [-95.8144958, 36.1683367], [-95.8144956, 36.1684139], [-95.8144803, 36.1684139], [-95.8144801, 36.1684828], [-95.8143924, 36.1684827], [-95.8143925, 36.1684759], [-95.8142846, 36.1684757], [-95.8142848, 36.1683786], [-95.8142314, 36.1683785], [-95.8142312, 36.1684694]]]}, "properties": {"osm_id": 424751642, "building": "yes", "name": "", "height": null, "height_m": null, "levels": null, "tract_id": "40131050407", "tract_name": "504.07", "tags": {"building": "yes"}}}, {"type": "Feature", "geometry": {"type": "Polygon", "coordinates": [[[-95.8133477, 36.168424], [-95.8130336, 36.1684229], [-95.8130369, 36.1680448], [-95.8133497, 36.1680467], [-95.8133477, 36.168424]]]}, "properties": {"osm_id": 424751644, "building": "yes", "name": "", "height": null, "height_m": null, "levels": null, "tract_id": "40131050407", "tract_name": "504.07", "tags": {"building": "yes"}}}, {"type": "Feature", "geometry": {"type": "Polygon", "coordinates": [[[-95.7665724, 36.1747079], [-95.766448, 36.1744008], [-95.7664304, 36.1743574], [-95.7664073, 36.1743627], [-95.7663982, 36.1743447], [-95.7663024, 36.1743693], [-95.7663396, 36.1744533], [-95.7662776, 36.1744706], [-95.766314, 36.1745613], [-95.7662834, 36.1745699], [-95.7663173, 36.1746486], [-95.7664023, 36.1746279], [-95.7664527, 36.1747425], [-95.7665724, 36.1747079]]]}, "properties": {"osm_id": 713788675, "building": "house", "name": "", "height": null, "height_m": 6.0, "levels": 2, "tract_id": "40131050407", "tract_name": "504.07", "tags": {"addr:city": "Catoosa", "addr:housenumber": "1261", "addr:state": "OK", "addr:street": "Aspen Lane", "building": "house", "building:levels": "2", "roof:levels": "0"}}}, {"type": "Feature", "geometry": {"type": "Polygon", "coordinates": [[[-95.8011889, 36.1633987], [-95.8010884, 36.1633982], [-95.8010897, 36.1632303], [-95.8011903, 36.1632309], [-95.8011889, 36.1633987]]]}, "properties": {"osm_id": 716002141, "building": "yes", "name": "", "height": null, "height_m": null, "levels": null, "tract_id": "40131050407", "tract_name": "504.07", "tags": {"building": "yes"}}}, {"type": "Feature", "geometry": {"type": "Polygon", "coordinates": [[[-95.8014069, 36.1632292], [-95.8014048, 36.1633455], [-95.8012808, 36.1633441], [-95.8012806, 36.1633562], [-95.8012188, 36.1633554], [-95.8012211, 36.1632271], [-95.8012808, 36.1632278], [-95.801281, 36.1632141], [-95.8013467, 36.1632148], [-95.8013465, 36.1632285], [-95.8014069, 36.1632292]]]}, "properties": {"osm_id": 716002142, "building": "yes", "name": "United Built Homes", "height": null, "height_m": null, "levels": null, "tract_id": "40131050407", "tract_name": "504.07", "tags": {"building": "yes", "name": "United Built Homes", "shop": "trade"}}}, {"type": "Feature", "geometry": {"type": "Polygon", "coordinates": [[[-95.8016463, 36.1633435], [-95.8014672, 36.1633407], [-95.8014695, 36.1632413], [-95.8016486, 36.163244], [-95.8016463, 36.1633435]]]}, "properties": {"osm_id": 716002143, "building": "yes", "name": "", "height": null, "height_m": null, "levels": null, "tract_id": "40131050407", "tract_name": "504.07", "tags": {"building": "yes"}}}, {"type": "Feature", "geometry": {"type": "Polygon", "coordinates": [[[-95.801895, 36.1633397], [-95.8017509, 36.163338], [-95.8017519, 36.163279], [-95.8017318, 36.1632788], [-95.8017327, 36.1632299], [-95.8018396, 36.1632311], [-95.8018393, 36.1632449], [-95.8018967, 36.1632456], [-95.801895, 36.1633397]]]}, "properties": {"osm_id": 716002144, "building": "yes", "name": "", "height": null, "height_m": null, "levels": null, "tract_id": "40131050407", "tract_name": "504.07", "tags": {"building": "yes"}}}, {"type": "Feature", "geometry": {"type": "Polygon", "coordinates": [[[-95.8037612, 36.1633781], [-95.8037692, 36.1639823], [-95.8034306, 36.1639852], [-95.8034264, 36.1636683], [-95.8031379, 36.1636708], [-95.803135, 36.1634471], [-95.8033524, 36.1634452], [-95.8033516, 36.1633817], [-95.8037612, 36.1633781]]]}, "properties": {"osm_id": 716002146, "building": "industrial", "name": "T & W Tire", "height": null, "height_m": null, "levels": null, "tract_id": "40131050407", "tract_name": "504.07", "tags": {"brand": "Michelin", "brand:wikidata": "Q151107", "building": "industrial", "name": "T & W Tire", "shop": "tyres"}}}, {"type": "Feature", "geometry": {"type": "Polygon", "coordinates": [[[-95.8059914, 36.1632363], [-95.8059914, 36.1636499], [-95.8052994, 36.1636499], [-95.8052994, 36.1635508], [-95.8051955, 36.1635508], [-95.8051955, 36.1633315], [-95.8052994, 36.1633315], [-95.8052994, 36.1632363], [-95.8059914, 36.1632363]]]}, "properties": {"osm_id": 716002147, "building": "yes", "name": "W&B Service Company", "height": null, "height_m": null, "levels": null, "tract_id": "40131050407", "tract_name": "504.07", "tags": {"addr:city": "Tulsa", "addr:housenumber": "15403", "addr:postcode": "74116", "addr:state": "OK", "addr:street": "East Skelly Drive South", "brand": "Carrier", "building": "yes", "name": "W&B Service Company", "shop": "trade", "trade": "transportation"}}}, {"type": "Feature", "geometry": {"type": "Polygon", "coordinates": [[[-95.8068927, 36.1629829], [-95.806892, 36.1630674], [-95.8068745, 36.1630673], [-95.8068718, 36.1634112], [-95.8066988, 36.1634103], [-95.8067015, 36.1630664], [-95.8066841, 36.1630663], [-95.8066848, 36.1629818], [-95.8068927, 36.1629829]]]}, "properties": {"osm_id": 716002148, "building": "commercial", "name": "Palomino Horse Breeders of America", "height": null, "height_m": null, "levels": null, "tract_id": "40131050407", "tract_name": "504.07", "tags": {"addr:city": "Tulsa", "addr:country": "US", "addr:housenumber": "15253", "addr:postcode": "74116", "addr:state": "OK", "addr:street": "East Skelly Drive South", "amenity": "animal_breeding", "animal_breeding": "horse", "building": "commercial", "name": "Palomino Horse Breeders of America", "website": "https://www.palominohba.com/"}}}, {"type": "Feature", "geometry": {"type": "Polygon", "coordinates": [[[-95.8075565, 36.1629645], [-95.8075565, 36.1631031], [-95.8075243, 36.1631031], [-95.8075243, 36.1634052], [-95.807012, 36.1634052], [-95.807012, 36.163102], [-95.8069812, 36.163102], [-95.8069812, 36.1629645], [-95.8075565, 36.1629645]]]}, "properties": {"osm_id": 716002149, "building": "yes", "name": "Spectrum Paint", "height": null, "height_m": null, "levels": null, "tract_id": "40131050407", "tract_name": "504.07", "tags": {"building": "yes", "check_date": "2025-05-26", "name": "Spectrum Paint", "shop": "doityourself"}}}, {"type": "Feature", "geometry": {"type": "Polygon", "coordinates": [[[-95.8076604, 36.1634052], [-95.8076625, 36.1630614], [-95.8076469, 36.1630613], [-95.8076474, 36.1629756], [-95.8079183, 36.1629767], [-95.8079178, 36.1630615], [-95.8079013, 36.1630614], [-95.8078993, 36.1634061], [-95.8076604, 36.1634052]]]}, "properties": {"osm_id": 716002150, "building": "industrial", "name": "", "height": null, "height_m": null, "levels": null, "tract_id": "40131050407", "tract_name": "504.07", "tags": {"building": "industrial"}}}, {"type": "Feature", "geometry": {"type": "Polygon", "coordinates": [[[-95.8082421, 36.1633961], [-95.8082012, 36.1633958], [-95.8082019, 36.1633292], [-95.8082428, 36.1633295], [-95.8082421, 36.1633961]]]}, "properties": {"osm_id": 716002151, "building": "yes", "name": "", "height": null, "height_m": null, "levels": null, "tract_id": "40131050407", "tract_name": "504.07", "tags": {"building": "yes"}}}, {"type": "Feature", "geometry": {"type": "Polygon", "coordinates": [[[-95.8081506, 36.1631356], [-95.8079796, 36.1631312], [-95.8079799, 36.1631237], [-95.807936, 36.1631226], [-95.8079382, 36.1630658], [-95.8079821, 36.1630669], [-95.8079828, 36.1630503], [-95.8081538, 36.1630547], [-95.8081506, 36.1631356]]]}, "properties": {"osm_id": 716002152, "building": "yes", "name": "", "height": null, "height_m": null, "levels": null, "tract_id": "40131050407", "tract_name": "504.07", "tags": {"building": "yes"}}}, {"type": "Feature", "geometry": {"type": "Polygon", "coordinates": [[[-95.8112633, 36.1636499], [-95.8108664, 36.1636542], [-95.8108609, 36.1633256], [-95.8112578, 36.1633213], [-95.8112633, 36.1636499]]]}, "properties": {"osm_id": 716002153, "building": "yes", "name": "", "height": null, "height_m": null, "levels": null, "tract_id": "40131050407", "tract_name": "504.07", "tags": {"building": "yes"}}}, {"type": "Feature", "geometry": {"type": "Polygon", "coordinates": [[[-95.8148246, 36.1727837], [-95.8145195, 36.1727837], [-95.8145195, 36.1726354], [-95.8146094, 36.1726354], [-95.8146094, 36.1725845], [-95.8146945, 36.1725845], [-95.8146945, 36.1726354], [-95.8148246, 36.1726354], [-95.8148246, 36.1727837]]]}, "properties": {"osm_id": 716002176, "building": "yes", "name": "", "height": null, "height_m": null, "levels": null, "tract_id": "40131050407", "tract_name": "504.07", "tags": {"amenity": "place_of_worship", "building": "yes", "religion": "christian"}}}, {"type": "Feature", "geometry": {"type": "Polygon", "coordinates": [[[-95.7973206, 36.2209943], [-95.7972034, 36.2209985], [-95.7972055, 36.2210366], [-95.7973227, 36.2210324], [-95.7973206, 36.2209943]]]}, "properties": {"osm_id": 717767083, "building": "yes", "name": "", "height": null, "height_m": null, "levels": null, "tract_id": "40131050407", "tract_name": "504.07", "tags": {"building": "yes"}}}, {"type": "Feature", "geometry": {"type": "Polygon", "coordinates": [[[-95.7973063, 36.2208198], [-95.7971993, 36.2208291], [-95.7971969, 36.220811], [-95.7971191, 36.2208177], [-95.797109, 36.2207414], [-95.7972706, 36.2207274], [-95.7972712, 36.2207315], [-95.7972943, 36.2207295], [-95.7973063, 36.2208198]]]}, "properties": {"osm_id": 717767084, "building": "yes", "name": "", "height": null, "height_m": null, "levels": null, "tract_id": "40131050407", "tract_name": "504.07", "tags": {"building": "yes"}}}, {"type": "Feature", "geometry": {"type": "Polygon", "coordinates": [[[-95.7979185, 36.2193378], [-95.7978989, 36.2192531], [-95.7978319, 36.2192632], [-95.7978191, 36.219208], [-95.7978825, 36.2191985], [-95.7978456, 36.2190389], [-95.7977044, 36.2190601], [-95.7977137, 36.2191002], [-95.7976979, 36.2191026], [-95.7977028, 36.2191237], [-95.7977159, 36.2191217], [-95.7977221, 36.2191488], [-95.7977006, 36.219152], [-95.7977106, 36.2191956], [-95.7977312, 36.2191925], [-95.7977341, 36.2192052], [-95.797727, 36.2192062], [-95.7977467, 36.2192914], [-95.7978089, 36.219282], [-95.7978115, 36.219293], [-95.7978037, 36.2192941], [-95.7978173, 36.219353], [-95.7979185, 36.2193378]]]}, "properties": {"osm_id": 717767085, "building": "yes", "name": "", "height": null, "height_m": null, "levels": null, "tract_id": "40131050407", "tract_name": "504.07", "tags": {"building": "yes"}}}, {"type": "Feature", "geometry": {"type": "Polygon", "coordinates": [[[-95.792759, 36.2182137], [-95.7926209, 36.2182014], [-95.7926312, 36.2181259], [-95.7927693, 36.2181382], [-95.792759, 36.2182137]]]}, "properties": {"osm_id": 717767086, "building": "yes", "name": "", "height": null, "height_m": null, "levels": null, "tract_id": "40131050407", "tract_name": "504.07", "tags": {"building": "yes"}}}, {"type": "Feature", "geometry": {"type": "Polygon", "coordinates": [[[-95.7923635, 36.2180029], [-95.7924546, 36.2180044], [-95.7924544, 36.2180109], [-95.7926153, 36.2180135], [-95.7926131, 36.2181037], [-95.7925358, 36.2181024], [-95.7925355, 36.2181124], [-95.7924348, 36.2181108], [-95.7924352, 36.2180952], [-95.7923613, 36.2180941], [-95.7923635, 36.2180029]]]}, "properties": {"osm_id": 717767087, "building": "yes", "name": "", "height": null, "height_m": null, "levels": null, "tract_id": "40131050407", "tract_name": "504.07", "tags": {"building": "yes"}}}, {"type": "Feature", "geometry": {"type": "Polygon", "coordinates": [[[-95.792283, 36.2180729], [-95.7922834, 36.2180432], [-95.7922481, 36.2180429], [-95.7922478, 36.2180727], [-95.792283, 36.2180729]]]}, "properties": {"osm_id": 717767088, "building": "yes", "name": "", "height": null, "height_m": null, "levels": null, "tract_id": "40131050407", "tract_name": "504.07", "tags": {"building": "yes"}}}, {"type": "Feature", "geometry": {"type": "Polygon", "coordinates": [[[-95.7909171, 36.2181098], [-95.7911046, 36.2181092], [-95.7911042, 36.2180158], [-95.7910364, 36.218016], [-95.7910363, 36.218005], [-95.7908278, 36.2180056], [-95.7908282, 36.2180754], [-95.7909169, 36.2180751], [-95.7909171, 36.2181098]]]}, "properties": {"osm_id": 717767089, "building": "yes", "name": "", "height": null, "height_m": null, "levels": null, "tract_id": "40131050407", "tract_name": "504.07", "tags": {"building": "yes"}}}, {"type": "Feature", "geometry": {"type": "Polygon", "coordinates": [[[-95.8010253, 36.1824612], [-95.8006159, 36.1824616], [-95.8006159, 36.1824576], [-95.8004834, 36.1824577], [-95.8004834, 36.1824355], [-95.8006153, 36.1824354], [-95.8006153, 36.1823666], [-95.8005885, 36.1823667], [-95.8005884, 36.1823099], [-95.8010251, 36.1823095], [-95.8010253, 36.1824612]]]}, "properties": {"osm_id": 718970188, "building": "yes", "name": "", "height": null, "height_m": null, "levels": null, "tract_id": "40131050407", "tract_name": "504.07", "tags": {"building": "yes"}}}, {"type": "Feature", "geometry": {"type": "Polygon", "coordinates": [[[-95.806574, 36.1854569], [-95.8058214, 36.1849659], [-95.8058524, 36.184935], [-95.8057212, 36.1848493], [-95.8056917, 36.1848788], [-95.8056489, 36.1848509], [-95.8057929, 36.1847072], [-95.8054061, 36.1844547], [-95.8052608, 36.1845996], [-95.8048957, 36.1843613], [-95.8049477, 36.1843094], [-95.8049081, 36.1842836], [-95.8048533, 36.1843384], [-95.8044329, 36.1840643], [-95.8037483, 36.1847484], [-95.8044825, 36.1852271], [-95.8038843, 36.1858248], [-95.8040735, 36.1859482], [-95.8037458, 36.1862755], [-95.8038517, 36.1863446], [-95.8041786, 36.1860179], [-95.8043645, 36.1861391], [-95.805102, 36.185402], [-95.8060254, 36.186004], [-95.8061852, 36.1858444], [-95.8062382, 36.185879], [-95.8064691, 36.1856483], [-95.8064166, 36.185614], [-95.806574, 36.1854569]]]}, "properties": {"osm_id": 718970189, "building": "yes", "name": "", "height": null, "height_m": null, "levels": null, "tract_id": "40131050407", "tract_name": "504.07", "tags": {"building": "yes"}}}, {"type": "Feature", "geometry": {"type": "Polygon", "coordinates": [[[-95.798146, 36.1991367], [-95.7981446, 36.1990894], [-95.7981741, 36.1990888], [-95.7981755, 36.1991362], [-95.798146, 36.1991367]]]}, "properties": {"osm_id": 722042528, "building": "yes", "name": "", "height": null, "height_m": null, "levels": null, "tract_id": "40131050407", "tract_name": "504.07", "tags": {"building": "yes"}}}, {"type": "Feature", "geometry": {"type": "Polygon", "coordinates": [[[-95.7648216, 36.1911656], [-95.7646021, 36.1910995], [-95.7646509, 36.190994], [-95.7648703, 36.1910601], [-95.7648216, 36.1911656]]]}, "properties": {"osm_id": 726381986, "building": "yes", "name": "", "height": null, "height_m": null, "levels": null, "tract_id": "40131050407", "tract_name": "504.07", "tags": {"building": "yes"}}}, {"type": "Feature", "geometry": {"type": "Polygon", "coordinates": [[[-95.762162, 36.1699817], [-95.7620413, 36.1699831], [-95.7620376, 36.1697731], [-95.7621583, 36.1697717], [-95.762162, 36.1699817]]]}, "properties": {"osm_id": 728199310, "building": "yes", "name": "Taco Bell", "height": null, "height_m": null, "levels": null, "tract_id": "40131050407", "tract_name": "504.07", "tags": {"addr:city": "Catoosa", "addr:housenumber": "1100", "addr:postcode": "74015", "addr:state": "OK", "addr:street": "North 193rd East Avenue", "amenity": "fast_food", "brand": "Taco Bell", "brand:wikidata": "Q752941", "building": "yes", "cuisine": "tex-mex", "name": "Taco Bell", "opening_hours": "Mo-We 08:00-02:00; Th-Sa 08:00-03:00; Su 08:00-02:00", "phone": "+1 918-379-6958", "takeaway": "yes", "website": "https://locations.tacobell.com/ok/catoosa/1100-n-193rd-east-ave.html"}}}, {"type": "Feature", "geometry": {"type": "Polygon", "coordinates": [[[-95.8134741, 36.2238801], [-95.8134808, 36.2238011], [-95.8135593, 36.2238054], [-95.8135614, 36.2237801], [-95.8136257, 36.2237836], [-95.8136236, 36.2238089], [-95.8137363, 36.2238151], [-95.8137296, 36.2238942], [-95.8136143, 36.2238878], [-95.813613, 36.2239028], [-95.8135325, 36.2238983], [-95.8135338, 36.2238834], [-95.8134741, 36.2238801]]]}, "properties": {"osm_id": 736591984, "building": "yes", "name": "", "height": null, "height_m": null, "levels": null, "tract_id": "40131050407", "tract_name": "504.07", "tags": {"building": "yes"}}}, {"type": "Feature", "geometry": {"type": "Polygon", "coordinates": [[[-95.7627182, 36.1649983], [-95.7630014, 36.1649988], [-95.763002, 36.1648313], [-95.7627187, 36.1648307], [-95.7627182, 36.1649983]]]}, "properties": {"osm_id": 738077513, "building": "commercial", "name": "Cherokee Smoke Shop", "height": null, "height_m": null, "levels": null, "tract_id": "40131050407", "tract_name": "504.07", "tags": {"building": "commercial", "name": "Cherokee Smoke Shop", "shop": "tobacco"}}}, {"type": "Feature", "geometry": {"type": "Polygon", "coordinates": [[[-95.7620429, 36.1648189], [-95.7623449, 36.1648216], [-95.7623462, 36.1647206], [-95.7622815, 36.1647201], [-95.7622818, 36.1646988], [-95.7620759, 36.1646971], [-95.7620756, 36.1647183], [-95.7620443, 36.164718], [-95.7620429, 36.1648189]]]}, "properties": {"osm_id": 738077514, "building": "yes", "name": "McDonald's", "height": null, "height_m": null, "levels": null, "tract_id": "40131050407", "tract_name": "504.07", "tags": {"addr:city": "Catoosa", "addr:housenumber": "300", "addr:postcode": "74015", "addr:state": "OK", "addr:street": "North 193rd Avenue East", "air_conditioning": "yes", "amenity": "fast_food", "brand": "McDonald's", "brand:wikidata": "Q38076", "building": "yes", "cuisine": "burger", "drive_through": "yes", "internet_access": "wlan", "name": "McDonald's", "opening_hours": "05:00-22:00", "phone": "+1 918-266-7892", "takeaway": "yes", "website": "https://www.mcdonalds.com/us/en-us/location/7020.html", "wheelchair": "yes"}}}, {"type": "Feature", "geometry": {"type": "Polygon", "coordinates": [[[-95.763358, 36.164274], [-95.7634492, 36.1642743], [-95.7634503, 36.1640567], [-95.7633591, 36.1640564], [-95.763358, 36.164274]]]}, "properties": {"osm_id": 738077523, "building": "yes", "name": "Waffle House", "height": null, "height_m": null, "levels": null, "tract_id": "40131050407", "tract_name": "504.07", "tags": {"addr:city": "Catoosa", "addr:housenumber": "19260", "addr:postcode": "74015", "addr:state": "OK", "addr:street": "Timbercrest Circle", "air_conditioning": "yes", "amenity": "restaurant", "brand": "Waffle House", "brand:wikidata": "Q1701206", "building": "yes", "check_date": "2024-09-24", "check_date:opening_hours": "2024-09-24", "cuisine": "american", "name": "Waffle House", "opening_hours": "24/7", "phone": "+1 918-266-5818", "website": "https://locations.wafflehouse.com/catoosa-ok-619/"}}}, {"type": "Feature", "geometry": {"type": "Polygon", "coordinates": [[[-95.7811169, 36.2070734], [-95.7810307, 36.2070643], [-95.7810373, 36.2070238], [-95.7811235, 36.2070329], [-95.7811169, 36.2070734]]]}, "properties": {"osm_id": 738327179, "building": "yes", "name": "", "height": null, "height_m": null, "levels": null, "tract_id": "40131050407", "tract_name": "504.07", "tags": {"building": "yes"}}}, {"type": "Feature", "geometry": {"type": "Polygon", "coordinates": [[[-95.7810767, 36.2071175], [-95.7810833, 36.2070822], [-95.7810515, 36.2070783], [-95.7810449, 36.2071136], [-95.7810767, 36.2071175]]]}, "properties": {"osm_id": 738327180, "building": "yes", "name": "", "height": null, "height_m": null, "levels": null, "tract_id": "40131050407", "tract_name": "504.07", "tags": {"building": "yes"}}}, {"type": "Feature", "geometry": {"type": "Polygon", "coordinates": [[[-95.7812319, 36.2074177], [-95.7812408, 36.2073852], [-95.7812134, 36.2073804], [-95.7812045, 36.2074129], [-95.7812319, 36.2074177]]]}, "properties": {"osm_id": 738327181, "building": "yes", "name": "", "height": null, "height_m": null, "levels": null, "tract_id": "40131050407", "tract_name": "504.07", "tags": {"building": "yes"}}}, {"type": "Feature", "geometry": {"type": "Polygon", "coordinates": [[[-95.7811014, 36.2074006], [-95.7808294, 36.2074845], [-95.7808272, 36.2074799], [-95.7807184, 36.2075134], [-95.7806755, 36.2074229], [-95.7807915, 36.2073871], [-95.7807805, 36.2073639], [-95.780864, 36.2073382], [-95.7808741, 36.2073595], [-95.780898, 36.2073522], [-95.7809056, 36.2073681], [-95.781063, 36.2073195], [-95.7811014, 36.2074006]]]}, "properties": {"osm_id": 738327182, "building": "yes", "name": "", "height": null, "height_m": null, "levels": null, "tract_id": "40131050407", "tract_name": "504.07", "tags": {"building": "yes"}}}, {"type": "Feature", "geometry": {"type": "Polygon", "coordinates": [[[-95.7807866, 36.2073036], [-95.7807573, 36.2073129], [-95.7807452, 36.2072882], [-95.7807745, 36.2072789], [-95.7807866, 36.2073036]]]}, "properties": {"osm_id": 738327183, "building": "yes", "name": "", "height": null, "height_m": null, "levels": null, "tract_id": "40131050407", "tract_name": "504.07", "tags": {"building": "yes"}}}, {"type": "Feature", "geometry": {"type": "Polygon", "coordinates": [[[-95.7797819, 36.2083753], [-95.7799552, 36.2082894], [-95.7798952, 36.2082105], [-95.7797218, 36.2082965], [-95.7797819, 36.2083753]]]}, "properties": {"osm_id": 738327184, "building": "yes", "name": "", "height": null, "height_m": null, "levels": null, "tract_id": "40131050407", "tract_name": "504.07", "tags": {"building": "yes"}}}, {"type": "Feature", "geometry": {"type": "Polygon", "coordinates": [[[-95.779555, 36.2083982], [-95.7795204, 36.2083574], [-95.7795518, 36.2083401], [-95.7795863, 36.2083808], [-95.779555, 36.2083982]]]}, "properties": {"osm_id": 738327185, "building": "yes", "name": "", "height": null, "height_m": null, "levels": null, "tract_id": "40131050407", "tract_name": "504.07", "tags": {"building": "yes"}}}, {"type": "Feature", "geometry": {"type": "Polygon", "coordinates": [[[-95.779546, 36.2083095], [-95.7796669, 36.2082465], [-95.7797226, 36.2083161], [-95.7796017, 36.2083791], [-95.779546, 36.2083095]]]}, "properties": {"osm_id": 738327186, "building": "yes", "name": "", "height": null, "height_m": null, "levels": null, "tract_id": "40131050407", "tract_name": "504.07", "tags": {"building": "yes"}}}, {"type": "Feature", "geometry": {"type": "Polygon", "coordinates": [[[-95.7793063, 36.2086182], [-95.7792072, 36.2085421], [-95.7792808, 36.2084798], [-95.7793798, 36.2085559], [-95.7793063, 36.2086182]]]}, "properties": {"osm_id": 738327187, "building": "yes", "name": "", "height": null, "height_m": null, "levels": null, "tract_id": "40131050407", "tract_name": "504.07", "tags": {"building": "yes"}}}, {"type": "Feature", "geometry": {"type": "Polygon", "coordinates": [[[-95.7789131, 36.2086907], [-95.7789065, 36.2086541], [-95.7789395, 36.2086503], [-95.7789439, 36.2086748], [-95.7790268, 36.2086652], [-95.7790096, 36.2085685], [-95.7787492, 36.2085986], [-95.7787686, 36.2087075], [-95.7789131, 36.2086907]]]}, "properties": {"osm_id": 738327188, "building": "yes", "name": "", "height": null, "height_m": null, "levels": null, "tract_id": "40131050407", "tract_name": "504.07", "tags": {"building": "yes"}}}, {"type": "Feature", "geometry": {"type": "Polygon", "coordinates": [[[-95.7776944, 36.1705468], [-95.7775675, 36.1705511], [-95.7775627, 36.1704568], [-95.7776896, 36.1704526], [-95.7776944, 36.1705468]]]}, "properties": {"osm_id": 738331100, "building": "yes", "name": "", "height": null, "height_m": null, "levels": null, "tract_id": "40131050407", "tract_name": "504.07", "tags": {"building": "yes"}}}, {"type": "Feature", "geometry": {"type": "Polygon", "coordinates": [[[-95.7788241, 36.1705715], [-95.7784312, 36.1705866], [-95.7784265, 36.170508], [-95.7785955, 36.1705015], [-95.7785958, 36.1705063], [-95.7787162, 36.1705017], [-95.7787139, 36.1704628], [-95.7788174, 36.1704588], [-95.7788241, 36.1705715]]]}, "properties": {"osm_id": 738331101, "building": "yes", "name": "", "height": null, "height_m": null, "levels": null, "tract_id": "40131050407", "tract_name": "504.07", "tags": {"building": "yes"}}}, {"type": "Feature", "geometry": {"type": "Polygon", "coordinates": [[[-95.7784627, 36.1721232], [-95.7784641, 36.172054], [-95.7785532, 36.1720552], [-95.778552, 36.172113], [-95.7785566, 36.1721131], [-95.7785556, 36.1721568], [-95.7784885, 36.1721558], [-95.7784892, 36.1721236], [-95.7784627, 36.1721232]]]}, "properties": {"osm_id": 738331102, "building": "yes", "name": "", "height": null, "height_m": null, "levels": null, "tract_id": "40131050407", "tract_name": "504.07", "tags": {"building": "yes"}}}, {"type": "Feature", "geometry": {"type": "Polygon", "coordinates": [[[-95.7789536, 36.1729097], [-95.7787104, 36.1729044], [-95.7787145, 36.1727831], [-95.7789577, 36.1727885], [-95.7789536, 36.1729097]]]}, "properties": {"osm_id": 738331103, "building": "yes", "name": "", "height": null, "height_m": null, "levels": null, "tract_id": "40131050407", "tract_name": "504.07", "tags": {"building": "yes"}}}, {"type": "Feature", "geometry": {"type": "Polygon", "coordinates": [[[-95.7786281, 36.1729389], [-95.7786308, 36.172869], [-95.7785505, 36.1728669], [-95.7785478, 36.1729369], [-95.7786281, 36.1729389]]]}, "properties": {"osm_id": 738331104, "building": "yes", "name": "", "height": null, "height_m": null, "levels": null, "tract_id": "40131050407", "tract_name": "504.07", "tags": {"building": "yes"}}}, {"type": "Feature", "geometry": {"type": "Polygon", "coordinates": [[[-95.7786205, 36.1732878], [-95.7784234, 36.1732882], [-95.7784236, 36.1733443], [-95.7786207, 36.1733438], [-95.7786205, 36.1732878]]]}, "properties": {"osm_id": 738331105, "building": "yes", "name": "", "height": null, "height_m": null, "levels": null, "tract_id": "40131050407", "tract_name": "504.07", "tags": {"building": "yes"}}}, {"type": "Feature", "geometry": {"type": "Polygon", "coordinates": [[[-95.7783728, 36.1733475], [-95.7782344, 36.173346], [-95.7782358, 36.1732619], [-95.7783743, 36.1732634], [-95.7783728, 36.1733475]]]}, "properties": {"osm_id": 738331106, "building": "yes", "name": "", "height": null, "height_m": null, "levels": null, "tract_id": "40131050407", "tract_name": "504.07", "tags": {"building": "yes"}}}, {"type": "Feature", "geometry": {"type": "Polygon", "coordinates": [[[-95.7860285, 36.1807559], [-95.7860286, 36.1805602], [-95.7860021, 36.1805601], [-95.7860022, 36.1804993], [-95.7860283, 36.1804993], [-95.7860283, 36.18048], [-95.7861975, 36.1804801], [-95.7861974, 36.1804998], [-95.7862233, 36.1804998], [-95.7862232, 36.1805602], [-95.7861986, 36.1805601], [-95.7861985, 36.1806739], [-95.7862394, 36.1806739], [-95.7862394, 36.1807372], [-95.7861988, 36.1807372], [-95.7861988, 36.180756], [-95.7860285, 36.1807559]]]}, "properties": {"osm_id": 739823195, "building": "yes", "name": "", "height": null, "height_m": null, "levels": null, "tract_id": "40131050407", "tract_name": "504.07", "tags": {"building": "yes"}}}, {"type": "Feature", "geometry": {"type": "Polygon", "coordinates": [[[-95.7856522, 36.1806157], [-95.7851397, 36.1806171], [-95.7851398, 36.180633], [-95.7851167, 36.180633], [-95.7851168, 36.1806532], [-95.7851396, 36.1806531], [-95.78514, 36.180759], [-95.7852229, 36.1807588], [-95.7852232, 36.1808259], [-95.7853667, 36.1808255], [-95.7853668, 36.1808524], [-95.7855109, 36.1808521], [-95.7855105, 36.1807575], [-95.7856516, 36.1807571], [-95.7856513, 36.1806584], [-95.7857133, 36.1806582], [-95.7857132, 36.180637], [-95.7856523, 36.1806372], [-95.7856522, 36.1806157]]]}, "properties": {"osm_id": 739823196, "building": "yes", "name": "", "height": null, "height_m": null, "levels": null, "tract_id": "40131050407", "tract_name": "504.07", "tags": {"building": "yes"}}}, {"type": "Feature", "geometry": {"type": "Polygon", "coordinates": [[[-95.7847593, 36.1806178], [-95.7847589, 36.1804405], [-95.7846488, 36.1804407], [-95.7846492, 36.180618], [-95.7847593, 36.1806178]]]}, "properties": {"osm_id": 739823197, "building": "yes", "name": "", "height": null, "height_m": null, "levels": null, "tract_id": "40131050407", "tract_name": "504.07", "tags": {"building": "yes"}}}, {"type": "Feature", "geometry": {"type": "Polygon", "coordinates": [[[-95.7847647, 36.18072], [-95.7847139, 36.1807208], [-95.7847133, 36.1806947], [-95.7847641, 36.180694], [-95.7847647, 36.18072]]]}, "properties": {"osm_id": 739823198, "building": "yes", "name": "", "height": null, "height_m": null, "levels": null, "tract_id": "40131050407", "tract_name": "504.07", "tags": {"building": "yes"}}}, {"type": "Feature", "geometry": {"type": "Polygon", "coordinates": [[[-95.7846765, 36.1816321], [-95.7846788, 36.1809743], [-95.7848198, 36.1809743], [-95.7848167, 36.1816327], [-95.7846765, 36.1816321]]]}, "properties": {"osm_id": 739823199, "building": "yes", "name": "", "height": null, "height_m": null, "levels": null, "tract_id": "40131050407", "tract_name": "504.07", "tags": {"building": "yes"}}}, {"type": "Feature", "geometry": {"type": "Polygon", "coordinates": [[[-95.785152, 36.1824774], [-95.7851556, 36.1818483], [-95.784948, 36.1818475], [-95.7849462, 36.1821582], [-95.7848805, 36.1821579], [-95.7848799, 36.1822667], [-95.7849449, 36.1822669], [-95.7849437, 36.1824766], [-95.785152, 36.1824774]]]}, "properties": {"osm_id": 739823200, "building": "yes", "name": "", "height": null, "height_m": null, "levels": null, "tract_id": "40131050407", "tract_name": "504.07", "tags": {"building": "yes"}}}, {"type": "Feature", "geometry": {"type": "Polygon", "coordinates": [[[-95.7851837, 36.1819928], [-95.7851833, 36.1818796], [-95.7852579, 36.1818794], [-95.7852583, 36.1819926], [-95.7851837, 36.1819928]]]}, "properties": {"osm_id": 739823201, "building": "yes", "name": "", "height": null, "height_m": null, "levels": null, "tract_id": "40131050407", "tract_name": "504.07", "tags": {"building": "yes"}}}, {"type": "Feature", "geometry": {"type": "Polygon", "coordinates": [[[-95.7858099, 36.1819377], [-95.7856052, 36.1819375], [-95.7856054, 36.1818245], [-95.7858101, 36.1818248], [-95.7858099, 36.1819377]]]}, "properties": {"osm_id": 739823202, "building": "yes", "name": "", "height": null, "height_m": null, "levels": null, "tract_id": "40131050407", "tract_name": "504.07", "tags": {"building": "yes"}}}, {"type": "Feature", "geometry": {"type": "Polygon", "coordinates": [[[-95.7858116, 36.1822143], [-95.7858116, 36.1819514], [-95.7856385, 36.1819505], [-95.7856364, 36.1822138], [-95.7858116, 36.1822143]]]}, "properties": {"osm_id": 739823203, "building": "yes", "name": "", "height": null, "height_m": null, "levels": null, "tract_id": "40131050407", "tract_name": "504.07", "tags": {"building": "yes"}}}, {"type": "Feature", "geometry": {"type": "Polygon", "coordinates": [[[-95.7711271, 36.1948534], [-95.7708396, 36.1948404], [-95.7708574, 36.1945836], [-95.7709589, 36.1945882], [-95.77095, 36.1947164], [-95.7710057, 36.194719], [-95.7710034, 36.1947513], [-95.7711338, 36.1947572], [-95.7711271, 36.1948534]]]}, "properties": {"osm_id": 740020209, "building": "yes", "name": "", "height": null, "height_m": null, "levels": null, "tract_id": "40131050407", "tract_name": "504.07", "tags": {"building": "yes"}}}, {"type": "Feature", "geometry": {"type": "Polygon", "coordinates": [[[-95.7778603, 36.2035189], [-95.7778623, 36.2033549], [-95.7778777, 36.203355], [-95.7778785, 36.2032856], [-95.7777349, 36.2032844], [-95.7777341, 36.2033512], [-95.7777113, 36.2033511], [-95.7777101, 36.2034453], [-95.777731, 36.2034454], [-95.7777301, 36.2035179], [-95.7778603, 36.2035189]]]}, "properties": {"osm_id": 744766105, "building": "yes", "name": "", "height": null, "height_m": null, "levels": null, "tract_id": "40131050407", "tract_name": "504.07", "tags": {"building": "yes"}}}, {"type": "Feature", "geometry": {"type": "Polygon", "coordinates": [[[-95.7775323, 36.2036317], [-95.7775137, 36.203545], [-95.7774574, 36.2035528], [-95.777476, 36.2036395], [-95.7775323, 36.2036317]]]}, "properties": {"osm_id": 744766106, "building": "yes", "name": "", "height": null, "height_m": null, "levels": null, "tract_id": "40131050407", "tract_name": "504.07", "tags": {"building": "yes"}}}, {"type": "Feature", "geometry": {"type": "Polygon", "coordinates": [[[-95.77781, 36.2028141], [-95.7777676, 36.2028236], [-95.7777568, 36.2027922], [-95.7777992, 36.2027827], [-95.77781, 36.2028141]]]}, "properties": {"osm_id": 744766107, "building": "yes", "name": "", "height": null, "height_m": null, "levels": null, "tract_id": "40131050407", "tract_name": "504.07", "tags": {"building": "yes"}}}, {"type": "Feature", "geometry": {"type": "Polygon", "coordinates": [[[-95.7776068, 36.2029467], [-95.7776007, 36.2029235], [-95.7775796, 36.2029271], [-95.7775858, 36.2029504], [-95.7776068, 36.2029467]]]}, "properties": {"osm_id": 744766108, "building": "yes", "name": "", "height": null, "height_m": null, "levels": null, "tract_id": "40131050407", "tract_name": "504.07", "tags": {"building": "yes"}}}, {"type": "Feature", "geometry": {"type": "Polygon", "coordinates": [[[-95.7774755, 36.2030053], [-95.7774292, 36.2028371], [-95.7773025, 36.2028598], [-95.7773488, 36.203028], [-95.7774755, 36.2030053]]]}, "properties": {"osm_id": 744766109, "building": "yes", "name": "", "height": null, "height_m": null, "levels": null, "tract_id": "40131050407", "tract_name": "504.07", "tags": {"building": "yes"}}}, {"type": "Feature", "geometry": {"type": "Polygon", "coordinates": [[[-95.7772449, 36.2029798], [-95.7772357, 36.2029403], [-95.7772001, 36.2029457], [-95.7772092, 36.2029852], [-95.7772449, 36.2029798]]]}, "properties": {"osm_id": 744766110, "building": "yes", "name": "", "height": null, "height_m": null, "levels": null, "tract_id": "40131050407", "tract_name": "504.07", "tags": {"building": "yes"}}}, {"type": "Feature", "geometry": {"type": "Polygon", "coordinates": [[[-95.7772473, 36.2030182], [-95.7772187, 36.2030226], [-95.7772139, 36.2030025], [-95.7772425, 36.2029981], [-95.7772473, 36.2030182]]]}, "properties": {"osm_id": 744766111, "building": "yes", "name": "", "height": null, "height_m": null, "levels": null, "tract_id": "40131050407", "tract_name": "504.07", "tags": {"building": "yes"}}}, {"type": "Feature", "geometry": {"type": "Polygon", "coordinates": [[[-95.7770276, 36.2031243], [-95.7768981, 36.203165], [-95.776921, 36.2032124], [-95.7770505, 36.2031718], [-95.7770276, 36.2031243]]]}, "properties": {"osm_id": 744766112, "building": "yes", "name": "", "height": null, "height_m": null, "levels": null, "tract_id": "40131050407", "tract_name": "504.07", "tags": {"building": "yes"}}}, {"type": "Feature", "geometry": {"type": "Polygon", "coordinates": [[[-95.7768944, 36.2032192], [-95.7767668, 36.2032628], [-95.77675, 36.2032308], [-95.7768776, 36.2031873], [-95.7768944, 36.2032192]]]}, "properties": {"osm_id": 744766113, "building": "yes", "name": "", "height": null, "height_m": null, "levels": null, "tract_id": "40131050407", "tract_name": "504.07", "tags": {"building": "yes"}}}, {"type": "Feature", "geometry": {"type": "Polygon", "coordinates": [[[-95.8106926, 36.1973732], [-95.8101371, 36.1973705], [-95.8101362, 36.1973132], [-95.8100627, 36.1973139], [-95.8100655, 36.1955152], [-95.8103088, 36.1955152], [-95.8103026, 36.1953809], [-95.8103345, 36.1953809], [-95.8103338, 36.1953249], [-95.8102984, 36.1953245], [-95.8103004, 36.1945076], [-95.8102728, 36.1945082], [-95.8102728, 36.194444], [-95.8102996, 36.194444], [-95.8103004, 36.1944091], [-95.8103361, 36.1944079], [-95.8103383, 36.1937455], [-95.8107006, 36.1937437], [-95.8106994, 36.1938648], [-95.810762, 36.193864], [-95.8107629, 36.1939352], [-95.8107316, 36.1939352], [-95.8107297, 36.1943332], [-95.8111994, 36.1943339], [-95.8111969, 36.1946139], [-95.8111629, 36.1946148], [-95.8111632, 36.1946881], [-95.8110885, 36.1946881], [-95.8110883, 36.1946159], [-95.8106985, 36.1946168], [-95.8106968, 36.1953818], [-95.8107309, 36.195381], [-95.8107317, 36.1955295], [-95.8106959, 36.1955293], [-95.8106921, 36.1970985], [-95.8107904, 36.1970997], [-95.8107881, 36.1973151], [-95.8106915, 36.1973159], [-95.8106926, 36.1973732]]]}, "properties": {"osm_id": 745374502, "building": "industrial", "name": "", "height": null, "height_m": null, "levels": null, "tract_id": "40131050407", "tract_name": "504.07", "tags": {"building": "industrial"}}}, {"type": "Feature", "geometry": {"type": "Polygon", "coordinates": [[[-95.8117049, 36.1955801], [-95.8115824, 36.1955794], [-95.8115804, 36.1957855], [-95.8116298, 36.1957858], [-95.8116295, 36.1958227], [-95.8116579, 36.1958229], [-95.8116582, 36.1957871], [-95.8117029, 36.1957873], [-95.8117049, 36.1955801]]]}, "properties": {"osm_id": 745374503, "building": "yes", "name": "", "height": null, "height_m": null, "levels": null, "tract_id": "40131050407", "tract_name": "504.07", "tags": {"building": "yes"}}}, {"type": "Feature", "geometry": {"type": "Polygon", "coordinates": [[[-95.8118423, 36.1956839], [-95.8118418, 36.1954865], [-95.8117287, 36.1954867], [-95.8117292, 36.1956836], [-95.81177, 36.1956835], [-95.8117701, 36.1957238], [-95.8118005, 36.1957238], [-95.8118004, 36.195684], [-95.8118423, 36.1956839]]]}, "properties": {"osm_id": 745374504, "building": "yes", "name": "", "height": null, "height_m": null, "levels": null, "tract_id": "40131050407", "tract_name": "504.07", "tags": {"building": "yes"}}}, {"type": "Feature", "geometry": {"type": "Polygon", "coordinates": [[[-95.7946806, 36.2155388], [-95.7945923, 36.2155353], [-95.794595, 36.2154923], [-95.7945788, 36.2154917], [-95.7945831, 36.2154212], [-95.7945716, 36.2154207], [-95.7945726, 36.2154047], [-95.7945596, 36.2154042], [-95.7945609, 36.2153831], [-95.7945739, 36.2153836], [-95.7945787, 36.2153062], [-95.7946904, 36.2153106], [-95.7946897, 36.2153214], [-95.7947105, 36.2153223], [-95.7947087, 36.215351], [-95.7946913, 36.2153503], [-95.7946877, 36.215409], [-95.7946811, 36.2154087], [-95.7946805, 36.2154184], [-95.794734, 36.2154206], [-95.79473, 36.2154857], [-95.7946839, 36.2154839], [-95.7946806, 36.2155388]]]}, "properties": {"osm_id": 749651944, "building": "yes", "name": "", "height": null, "height_m": null, "levels": null, "tract_id": "40131050407", "tract_name": "504.07", "tags": {"building": "yes"}}}, {"type": "Feature", "geometry": {"type": "Polygon", "coordinates": [[[-95.7945565, 36.2156411], [-95.7944278, 36.2156346], [-95.7944336, 36.215559], [-95.7945624, 36.2155655], [-95.7945565, 36.2156411]]]}, "properties": {"osm_id": 749651945, "building": "yes", "name": "", "height": null, "height_m": null, "levels": null, "tract_id": "40131050407", "tract_name": "504.07", "tags": {"building": "yes"}}}, {"type": "Feature", "geometry": {"type": "Polygon", "coordinates": [[[-95.7938276, 36.2160295], [-95.7938953, 36.2160346], [-95.7938852, 36.2161222], [-95.7938176, 36.2161172], [-95.7938276, 36.2160295]]]}, "properties": {"osm_id": 749651946, "building": "yes", "name": "", "height": null, "height_m": null, "levels": null, "tract_id": "40131050407", "tract_name": "504.07", "tags": {"building": "yes"}}}, {"type": "Feature", "geometry": {"type": "Polygon", "coordinates": [[[-95.7937995, 36.2153744], [-95.7937398, 36.215371], [-95.7937438, 36.2153241], [-95.7938035, 36.2153274], [-95.7937995, 36.2153744]]]}, "properties": {"osm_id": 749651947, "building": "yes", "name": "", "height": null, "height_m": null, "levels": null, "tract_id": "40131050407", "tract_name": "504.07", "tags": {"building": "yes"}}}, {"type": "Feature", "geometry": {"type": "Polygon", "coordinates": [[[-95.7931993, 36.2156383], [-95.793304, 36.2156442], [-95.7933126, 36.2155445], [-95.7932079, 36.2155386], [-95.7931993, 36.2156383]]]}, "properties": {"osm_id": 749651948, "building": "yes", "name": "", "height": null, "height_m": null, "levels": null, "tract_id": "40131050407", "tract_name": "504.07", "tags": {"building": "yes"}}}, {"type": "Feature", "geometry": {"type": "Polygon", "coordinates": [[[-95.7931497, 36.2161437], [-95.7931557, 36.2160798], [-95.7932043, 36.2160828], [-95.7931983, 36.2161467], [-95.7931497, 36.2161437]]]}, "properties": {"osm_id": 749651949, "building": "yes", "name": "", "height": null, "height_m": null, "levels": null, "tract_id": "40131050407", "tract_name": "504.07", "tags": {"building": "yes"}}}, {"type": "Feature", "geometry": {"type": "Polygon", "coordinates": [[[-95.7930142, 36.2163655], [-95.7929982, 36.2162946], [-95.7930655, 36.2162847], [-95.7930721, 36.2163135], [-95.7931031, 36.216309], [-95.7931126, 36.2163509], [-95.7930142, 36.2163655]]]}, "properties": {"osm_id": 749651950, "building": "yes", "name": "", "height": null, "height_m": null, "levels": null, "tract_id": "40131050407", "tract_name": "504.07", "tags": {"building": "yes"}}}, {"type": "Feature", "geometry": {"type": "Polygon", "coordinates": [[[-95.7926971, 36.2164163], [-95.7926696, 36.2162562], [-95.7928441, 36.2162367], [-95.7928716, 36.2163968], [-95.7926971, 36.2164163]]]}, "properties": {"osm_id": 749651951, "building": "yes", "name": "", "height": null, "height_m": null, "levels": null, "tract_id": "40131050407", "tract_name": "504.07", "tags": {"building": "yes"}}}, {"type": "Feature", "geometry": {"type": "Polygon", "coordinates": [[[-95.7989211, 36.1866705], [-95.7978737, 36.1866743], [-95.7978726, 36.1864779], [-95.7978162, 36.1864781], [-95.7978154, 36.186333], [-95.7980734, 36.1863321], [-95.7980742, 36.186476], [-95.79892, 36.186473], [-95.7989211, 36.1866705]]]}, "properties": {"osm_id": 805118770, "building": "yes", "name": "", "height": null, "height_m": null, "levels": null, "tract_id": "40131050407", "tract_name": "504.07", "tags": {"building": "yes"}}}, {"type": "Feature", "geometry": {"type": "Polygon", "coordinates": [[[-95.7848666, 36.2155007], [-95.7847862, 36.2155169], [-95.784799, 36.2155582], [-95.7848795, 36.2155419], [-95.7848666, 36.2155007]]]}, "properties": {"osm_id": 810828970, "building": "yes", "name": "", "height": null, "height_m": null, "levels": null, "tract_id": "40131050407", "tract_name": "504.07", "tags": {"building": "yes"}}}, {"type": "Feature", "geometry": {"type": "Polygon", "coordinates": [[[-95.7855986, 36.2159707], [-95.7855822, 36.2159104], [-95.7856773, 36.2158936], [-95.7856937, 36.2159539], [-95.7855986, 36.2159707]]]}, "properties": {"osm_id": 810828971, "building": "yes", "name": "", "height": null, "height_m": null, "levels": null, "tract_id": "40131050407", "tract_name": "504.07", "tags": {"building": "yes"}}}, {"type": "Feature", "geometry": {"type": "Polygon", "coordinates": [[[-95.7855577, 36.215869], [-95.785512, 36.2158775], [-95.7855039, 36.215849], [-95.7855496, 36.2158405], [-95.7855577, 36.215869]]]}, "properties": {"osm_id": 810828972, "building": "yes", "name": "", "height": null, "height_m": null, "levels": null, "tract_id": "40131050407", "tract_name": "504.07", "tags": {"building": "yes"}}}, {"type": "Feature", "geometry": {"type": "Polygon", "coordinates": [[[-95.785323, 36.2159872], [-95.7854389, 36.2159687], [-95.7854242, 36.215906], [-95.7855035, 36.2158921], [-95.7854892, 36.2158326], [-95.7854089, 36.215847], [-95.7854064, 36.2158371], [-95.7852865, 36.2158572], [-95.785323, 36.2159872]]]}, "properties": {"osm_id": 810828973, "building": "yes", "name": "", "height": null, "height_m": null, "levels": null, "tract_id": "40131050407", "tract_name": "504.07", "tags": {"building": "yes"}}}, {"type": "Feature", "geometry": {"type": "Polygon", "coordinates": [[[-95.7858274, 36.2159823], [-95.7858894, 36.2159712], [-95.7858968, 36.2159983], [-95.7858348, 36.2160094], [-95.7858274, 36.2159823]]]}, "properties": {"osm_id": 810828974, "building": "yes", "name": "", "height": null, "height_m": null, "levels": null, "tract_id": "40131050407", "tract_name": "504.07", "tags": {"building": "yes"}}}, {"type": "Feature", "geometry": {"type": "Polygon", "coordinates": [[[-95.7874503, 36.2174227], [-95.7874799, 36.2173306], [-95.7873685, 36.2173073], [-95.7873428, 36.2173872], [-95.7873746, 36.2173939], [-95.7873707, 36.2174061], [-95.7874503, 36.2174227]]]}, "properties": {"osm_id": 810828976, "building": "yes", "name": "", "height": null, "height_m": null, "levels": null, "tract_id": "40131050407", "tract_name": "504.07", "tags": {"building": "yes"}}}, {"type": "Feature", "geometry": {"type": "Polygon", "coordinates": [[[-95.7873525, 36.2173256], [-95.7873719, 36.2172605], [-95.7873203, 36.2172505], [-95.7873009, 36.2173156], [-95.7873525, 36.2173256]]]}, "properties": {"osm_id": 810828977, "building": "yes", "name": "", "height": null, "height_m": null, "levels": null, "tract_id": "40131050407", "tract_name": "504.07", "tags": {"building": "yes"}}}, {"type": "Feature", "geometry": {"type": "Polygon", "coordinates": [[[-95.7798486, 36.1902137], [-95.7797957, 36.1902136], [-95.7797961, 36.1900941], [-95.7797587, 36.190094], [-95.7797588, 36.1900561], [-95.7797962, 36.1900562], [-95.7797963, 36.190029], [-95.7798493, 36.1900292], [-95.779849, 36.1901], [-95.7798809, 36.1901001], [-95.7798807, 36.1901293], [-95.7798489, 36.1901293], [-95.7798486, 36.1902137]]]}, "properties": {"osm_id": 837677881, "building": "yes", "name": "", "height": null, "height_m": null, "levels": null, "tract_id": "40131050407", "tract_name": "504.07", "tags": {"building": "yes"}}}, {"type": "Feature", "geometry": {"type": "Polygon", "coordinates": [[[-95.7801061, 36.189969], [-95.7799539, 36.189969], [-95.7799539, 36.190008], [-95.7801061, 36.190008], [-95.7801061, 36.189969]]]}, "properties": {"osm_id": 837677882, "building": "yes", "name": "", "height": null, "height_m": null, "levels": null, "tract_id": "40131050407", "tract_name": "504.07", "tags": {"building": "yes", "source": "microsoft/BuildingFootprints"}}}, {"type": "Feature", "geometry": {"type": "Polygon", "coordinates": [[[-95.778932, 36.189852], [-95.778932, 36.190094], [-95.779047, 36.190094], [-95.779047, 36.189852], [-95.778932, 36.189852]]]}, "properties": {"osm_id": 837677883, "building": "yes", "name": "", "height": null, "height_m": null, "levels": null, "tract_id": "40131050407", "tract_name": "504.07", "tags": {"building": "yes", "source": "microsoft/BuildingFootprints"}}}, {"type": "Feature", "geometry": {"type": "Polygon", "coordinates": [[[-95.7871315, 36.1776926], [-95.7871303, 36.1778024], [-95.7869083, 36.1778008], [-95.7869095, 36.177691], [-95.7871315, 36.1776926]]]}, "properties": {"osm_id": 837682224, "building": "yes", "name": "", "height": null, "height_m": null, "levels": null, "tract_id": "40131050407", "tract_name": "504.07", "tags": {"building": "yes"}}}, {"type": "Feature", "geometry": {"type": "Polygon", "coordinates": [[[-95.7894321, 36.1793763], [-95.7899346, 36.1793766], [-95.7899348, 36.1791096], [-95.790047, 36.1791096], [-95.7900471, 36.1788964], [-95.7899376, 36.1788963], [-95.7899379, 36.1783487], [-95.7894922, 36.1783485], [-95.7894915, 36.1793277], [-95.7894322, 36.1793277], [-95.7894321, 36.1793763]]]}, "properties": {"osm_id": 837682225, "building": "yes", "name": "", "height": null, "height_m": null, "levels": null, "tract_id": "40131050407", "tract_name": "504.07", "tags": {"building": "yes", "source": "microsoft/BuildingFootprints"}}}, {"type": "Feature", "geometry": {"type": "Polygon", "coordinates": [[[-95.787799, 36.178625], [-95.787714, 36.178625], [-95.787714, 36.178761], [-95.787799, 36.178761], [-95.787799, 36.178625]]]}, "properties": {"osm_id": 837682226, "building": "yes", "name": "", "height": null, "height_m": null, "levels": null, "tract_id": "40131050407", "tract_name": "504.07", "tags": {"building": "yes", "source": "microsoft/BuildingFootprints"}}}, {"type": "Feature", "geometry": {"type": "Polygon", "coordinates": [[[-95.788556, 36.179847], [-95.788559, 36.17957], [-95.787795, 36.179564], [-95.787792, 36.179838], [-95.787993, 36.17984], [-95.787992, 36.179907], [-95.788104, 36.179908], [-95.788105, 36.179843], [-95.788556, 36.179847]]]}, "properties": {"osm_id": 837682227, "building": "yes", "name": "", "height": null, "height_m": null, "levels": null, "tract_id": "40131050407", "tract_name": "504.07", "tags": {"building": "yes", "source": "microsoft/BuildingFootprints"}}}, {"type": "Feature", "geometry": {"type": "Polygon", "coordinates": [[[-95.7899405, 36.1777034], [-95.7894836, 36.1777002], [-95.7894786, 36.1781676], [-95.7898322, 36.1781701], [-95.7898316, 36.1782313], [-95.7899376, 36.1782321], [-95.7899393, 36.1780748], [-95.7900605, 36.1780757], [-95.7900631, 36.1778364], [-95.789939, 36.1778356], [-95.7899405, 36.1777034]]]}, "properties": {"osm_id": 837682228, "building": "yes", "name": "", "height": null, "height_m": null, "levels": null, "tract_id": "40131050407", "tract_name": "504.07", "tags": {"building": "yes", "source": "microsoft/BuildingFootprints"}}}, {"type": "Feature", "geometry": {"type": "Polygon", "coordinates": [[[-95.787864, 36.179166], [-95.788204, 36.179167], [-95.788211, 36.178173], [-95.787868, 36.178172], [-95.787866, 36.178422], [-95.787819, 36.178421], [-95.787819, 36.178449], [-95.787869, 36.178449], [-95.787864, 36.179166]]]}, "properties": {"osm_id": 837682229, "building": "yes", "name": "", "height": null, "height_m": null, "levels": null, "tract_id": "40131050407", "tract_name": "504.07", "tags": {"building": "yes", "source": "microsoft/BuildingFootprints"}}}, {"type": "Feature", "geometry": {"type": "Polygon", "coordinates": [[[-95.789618, 36.1799832], [-95.789618, 36.180121], [-95.790034, 36.180121], [-95.790034, 36.1799832], [-95.789618, 36.1799832]]]}, "properties": {"osm_id": 837682230, "building": "yes", "name": "", "height": null, "height_m": null, "levels": null, "tract_id": "40131050407", "tract_name": "504.07", "tags": {"building": "yes", "source": "microsoft/BuildingFootprints"}}}, {"type": "Feature", "geometry": {"type": "Polygon", "coordinates": [[[-95.797997, 36.186951], [-95.797895, 36.186951], [-95.797895, 36.187031], [-95.797997, 36.187031], [-95.797997, 36.186951]]]}, "properties": {"osm_id": 837686701, "building": "yes", "name": "", "height": null, "height_m": null, "levels": null, "tract_id": "40131050407", "tract_name": "504.07", "tags": {"building": "yes", "source": "microsoft/BuildingFootprints"}}}, {"type": "Feature", "geometry": {"type": "Polygon", "coordinates": [[[-95.795784, 36.187007], [-95.79554, 36.187007], [-95.79554, 36.18707], [-95.795784, 36.18707], [-95.795784, 36.187007]]]}, "properties": {"osm_id": 837686702, "building": "yes", "name": "", "height": null, "height_m": null, "levels": null, "tract_id": "40131050407", "tract_name": "504.07", "tags": {"building": "yes", "source": "microsoft/BuildingFootprints"}}}, {"type": "Feature", "geometry": {"type": "Polygon", "coordinates": [[[-95.7953232, 36.1859673], [-95.795323, 36.1858838], [-95.795426, 36.1858836], [-95.7954263, 36.1859671], [-95.7953232, 36.1859673]]]}, "properties": {"osm_id": 838002738, "building": "yes", "name": "", "height": null, "height_m": null, "levels": null, "tract_id": "40131050407", "tract_name": "504.07", "tags": {"building": "yes"}}}, {"type": "Feature", "geometry": {"type": "Polygon", "coordinates": [[[-95.7955277, 36.1863497], [-95.7953543, 36.1863507], [-95.7953529, 36.1861857], [-95.7955263, 36.1861847], [-95.7955277, 36.1863497]]]}, "properties": {"osm_id": 838002739, "building": "yes", "name": "", "height": null, "height_m": null, "levels": null, "tract_id": "40131050407", "tract_name": "504.07", "tags": {"building": "yes"}}}, {"type": "Feature", "geometry": {"type": "Polygon", "coordinates": [[[-95.7979277, 36.1840109], [-95.7979579, 36.183459], [-95.7983027, 36.1834713], [-95.7982723, 36.1840232], [-95.7979277, 36.1840109]]]}, "properties": {"osm_id": 838002740, "building": "yes", "name": "", "height": null, "height_m": null, "levels": null, "tract_id": "40131050407", "tract_name": "504.07", "tags": {"building": "yes"}}}, {"type": "Feature", "geometry": {"type": "Polygon", "coordinates": [[[-95.7983141, 36.1840271], [-95.7983469, 36.1834751], [-95.7986943, 36.1834885], [-95.7986613, 36.1840406], [-95.7983141, 36.1840271]]]}, "properties": {"osm_id": 838002741, "building": "yes", "name": "", "height": null, "height_m": null, "levels": null, "tract_id": "40131050407", "tract_name": "504.07", "tags": {"building": "yes"}}}, {"type": "Feature", "geometry": {"type": "Polygon", "coordinates": [[[-95.7995978, 36.1832715], [-95.799431, 36.1832714], [-95.7994309, 36.1833329], [-95.7991663, 36.1833327], [-95.7991664, 36.1832769], [-95.7987542, 36.1832766], [-95.7987542, 36.1832552], [-95.7985094, 36.1832551], [-95.7985095, 36.1831274], [-95.7987546, 36.1831275], [-95.7987546, 36.183107], [-95.798835, 36.183107], [-95.798835, 36.1830406], [-95.799017, 36.1830407], [-95.7990169, 36.183108], [-95.799436, 36.1831081], [-95.799436, 36.1830433], [-95.7995979, 36.1830434], [-95.7995978, 36.1832715]]]}, "properties": {"osm_id": 838002742, "building": "yes", "name": "", "height": null, "height_m": null, "levels": null, "tract_id": "40131050407", "tract_name": "504.07", "tags": {"building": "yes"}}}, {"type": "Feature", "geometry": {"type": "Polygon", "coordinates": [[[-95.7996476, 36.1860214], [-95.799647, 36.1858543], [-95.799755, 36.185854], [-95.7997555, 36.1860211], [-95.7996476, 36.1860214]]]}, "properties": {"osm_id": 838002743, "building": "yes", "name": "", "height": null, "height_m": null, "levels": null, "tract_id": "40131050407", "tract_name": "504.07", "tags": {"building": "yes"}}}, {"type": "Feature", "geometry": {"type": "Polygon", "coordinates": [[[-95.7967491, 36.1832506], [-95.7967525, 36.1831373], [-95.7968548, 36.1831393], [-95.7968515, 36.1832526], [-95.7967491, 36.1832506]]]}, "properties": {"osm_id": 838002744, "building": "yes", "name": "", "height": null, "height_m": null, "levels": null, "tract_id": "40131050407", "tract_name": "504.07", "tags": {"building": "yes"}}}, {"type": "Feature", "geometry": {"type": "Polygon", "coordinates": [[[-95.7967312, 36.183115], [-95.7967342, 36.1830065], [-95.7966979, 36.1830058], [-95.7966994, 36.1829504], [-95.7968045, 36.1829523], [-95.7968, 36.1831162], [-95.7967312, 36.183115]]]}, "properties": {"osm_id": 838002745, "building": "yes", "name": "", "height": null, "height_m": null, "levels": null, "tract_id": "40131050407", "tract_name": "504.07", "tags": {"building": "yes"}}}, {"type": "Feature", "geometry": {"type": "Polygon", "coordinates": [[[-95.796965, 36.1830922], [-95.7969679, 36.1830292], [-95.7969303, 36.1830281], [-95.7969331, 36.1829679], [-95.7969721, 36.1829691], [-95.7969751, 36.1829031], [-95.7970736, 36.182906], [-95.797072, 36.1829399], [-95.7970847, 36.1829403], [-95.797082, 36.1829982], [-95.7970669, 36.1829977], [-95.797065, 36.1830382], [-95.7971257, 36.1830401], [-95.797123, 36.183097], [-95.796965, 36.1830922]]]}, "properties": {"osm_id": 838002746, "building": "yes", "name": "", "height": null, "height_m": null, "levels": null, "tract_id": "40131050407", "tract_name": "504.07", "tags": {"building": "yes"}}}, {"type": "Feature", "geometry": {"type": "Polygon", "coordinates": [[[-95.7969833, 36.1827308], [-95.7969905, 36.1825582], [-95.7970882, 36.1825609], [-95.7970811, 36.1827334], [-95.7969833, 36.1827308]]]}, "properties": {"osm_id": 838002747, "building": "yes", "name": "", "height": null, "height_m": null, "levels": null, "tract_id": "40131050407", "tract_name": "504.07", "tags": {"building": "yes"}}}, {"type": "Feature", "geometry": {"type": "Polygon", "coordinates": [[[-95.7968553, 36.1825518], [-95.7968585, 36.1825058], [-95.7969051, 36.1825079], [-95.7969019, 36.1825539], [-95.7968553, 36.1825518]]]}, "properties": {"osm_id": 838002748, "building": "yes", "name": "", "height": null, "height_m": null, "levels": null, "tract_id": "40131050407", "tract_name": "504.07", "tags": {"building": "yes"}}}, {"type": "Feature", "geometry": {"type": "Polygon", "coordinates": [[[-95.7967822, 36.1824883], [-95.7967221, 36.1824895], [-95.7967209, 36.1824482], [-95.796781, 36.1824471], [-95.7967822, 36.1824883]]]}, "properties": {"osm_id": 838002749, "building": "yes", "name": "", "height": null, "height_m": null, "levels": null, "tract_id": "40131050407", "tract_name": "504.07", "tags": {"building": "yes"}}}, {"type": "Feature", "geometry": {"type": "Polygon", "coordinates": [[[-95.7969677, 36.182255], [-95.7969648, 36.1823859], [-95.7969817, 36.1823861], [-95.7969802, 36.1824509], [-95.7971387, 36.1824532], [-95.7971402, 36.1823873], [-95.7970861, 36.1823865], [-95.7970876, 36.1823203], [-95.7970792, 36.1823202], [-95.7970806, 36.1822566], [-95.7969677, 36.182255]]]}, "properties": {"osm_id": 838002750, "building": "yes", "name": "", "height": null, "height_m": null, "levels": null, "tract_id": "40131050407", "tract_name": "504.07", "tags": {"building": "yes"}}}, {"type": "Feature", "geometry": {"type": "Polygon", "coordinates": [[[-95.7982938, 36.1824189], [-95.7981837, 36.1824177], [-95.7981825, 36.1824831], [-95.7982927, 36.1824843], [-95.7982938, 36.1824189]]]}, "properties": {"osm_id": 838002751, "building": "yes", "name": "", "height": null, "height_m": null, "levels": null, "tract_id": "40131050407", "tract_name": "504.07", "tags": {"building": "yes"}}}, {"type": "Feature", "geometry": {"type": "Polygon", "coordinates": [[[-95.7981891, 36.1822728], [-95.798191, 36.1820844], [-95.7982767, 36.1820849], [-95.7982775, 36.1820048], [-95.7981906, 36.1820042], [-95.7981925, 36.1818113], [-95.7978008, 36.1818087], [-95.7977988, 36.182017], [-95.7977105, 36.1820164], [-95.79771, 36.1820586], [-95.7977979, 36.1820592], [-95.7977957, 36.1822701], [-95.7981891, 36.1822728]]]}, "properties": {"osm_id": 838002752, "building": "yes", "name": "", "height": null, "height_m": null, "levels": null, "tract_id": "40131050407", "tract_name": "504.07", "tags": {"building": "yes"}}}, {"type": "Feature", "geometry": {"type": "Polygon", "coordinates": [[[-95.7998795, 36.1822888], [-95.7988575, 36.1822903], [-95.7988566, 36.1818756], [-95.7992111, 36.1818751], [-95.799211, 36.1818484], [-95.7988785, 36.1818488], [-95.7988783, 36.1817489], [-95.7993183, 36.1817483], [-95.7993181, 36.1816649], [-95.7994185, 36.1816648], [-95.7994187, 36.1817467], [-95.7998013, 36.1817463], [-95.7998015, 36.1818517], [-95.7995053, 36.1818521], [-95.7995054, 36.1818751], [-95.8000469, 36.1818744], [-95.800047, 36.1819299], [-95.7998793, 36.1819301], [-95.7998798, 36.1821504], [-95.7999477, 36.1821504], [-95.7999478, 36.1822266], [-95.7998794, 36.1822267], [-95.7998795, 36.1822888]]]}, "properties": {"osm_id": 838002753, "building": "yes", "name": "", "height": null, "height_m": null, "levels": null, "tract_id": "40131050407", "tract_name": "504.07", "tags": {"building": "yes"}}}, {"type": "Feature", "geometry": {"type": "Polygon", "coordinates": [[[-95.7827622, 36.1848264], [-95.7825549, 36.1847289], [-95.7826753, 36.1845621], [-95.7827349, 36.1845886], [-95.7828798, 36.1843868], [-95.7827367, 36.184318], [-95.7827142, 36.184349], [-95.7826771, 36.1843316], [-95.7826991, 36.1843011], [-95.7824678, 36.1841921], [-95.7825579, 36.1840675], [-95.7830875, 36.1843218], [-95.783002, 36.1844406], [-95.7830741, 36.1844725], [-95.7830305, 36.1845331], [-95.7831359, 36.1845826], [-95.7830292, 36.1847282], [-95.7828843, 36.1846617], [-95.7828526, 36.1847055], [-95.7828832, 36.1847199], [-95.7828332, 36.1847892], [-95.7828002, 36.1847736], [-95.7827622, 36.1848264]]]}, "properties": {"osm_id": 843211220, "building": "yes", "name": "", "height": null, "height_m": null, "levels": null, "tract_id": "40131050407", "tract_name": "504.07", "tags": {"building": "yes"}}}, {"type": "Feature", "geometry": {"type": "Polygon", "coordinates": [[[-95.7828477, 36.1825964], [-95.7828464, 36.182928], [-95.7829594, 36.1829283], [-95.7829593, 36.1829668], [-95.7830144, 36.1829669], [-95.7830145, 36.1829308], [-95.7830569, 36.1829309], [-95.7830581, 36.1825969], [-95.7828477, 36.1825964]]]}, "properties": {"osm_id": 843211222, "building": "yes", "name": "", "height": null, "height_m": null, "levels": null, "tract_id": "40131050407", "tract_name": "504.07", "tags": {"building": "yes"}}}, {"type": "Feature", "geometry": {"type": "Polygon", "coordinates": [[[-95.7810402, 36.1833498], [-95.7806108, 36.1833502], [-95.7806105, 36.183187], [-95.7801902, 36.1831874], [-95.7801892, 36.1826293], [-95.780378, 36.1826291], [-95.7803778, 36.1825489], [-95.7805511, 36.1825486], [-95.7805513, 36.1826318], [-95.780616, 36.1826318], [-95.7806158, 36.1825494], [-95.7808711, 36.1825491], [-95.7808712, 36.1826323], [-95.7810391, 36.1826321], [-95.7810402, 36.1833498]]]}, "properties": {"osm_id": 843211223, "building": "yes", "name": "", "height": null, "height_m": null, "levels": null, "tract_id": "40131050407", "tract_name": "504.07", "tags": {"building": "yes"}}}, {"type": "Feature", "geometry": {"type": "Polygon", "coordinates": [[[-95.7791877, 36.1842216], [-95.7791141, 36.1842133], [-95.779121, 36.1841735], [-95.7791946, 36.1841819], [-95.7791877, 36.1842216]]]}, "properties": {"osm_id": 843211224, "building": "yes", "name": "", "height": null, "height_m": null, "levels": null, "tract_id": "40131050407", "tract_name": "504.07", "tags": {"building": "yes"}}}, {"type": "Feature", "geometry": {"type": "Polygon", "coordinates": [[[-95.7788883, 36.1841127], [-95.7786333, 36.1841112], [-95.7786323, 36.1842167], [-95.7787646, 36.1842175], [-95.7787643, 36.1842511], [-95.778831, 36.1842515], [-95.7788311, 36.184238], [-95.7788872, 36.1842384], [-95.7788883, 36.1841127]]]}, "properties": {"osm_id": 843211225, "building": "yes", "name": "", "height": null, "height_m": null, "levels": null, "tract_id": "40131050407", "tract_name": "504.07", "tags": {"building": "yes"}}}, {"type": "Feature", "geometry": {"type": "Polygon", "coordinates": [[[-95.7753143, 36.1775024], [-95.7752295, 36.1775133], [-95.7752202, 36.1774767], [-95.7751756, 36.1774829], [-95.7751684, 36.1774513], [-95.7751558, 36.1774536], [-95.7751504, 36.1774302], [-95.7751637, 36.1774284], [-95.7751583, 36.177394], [-95.7752515, 36.1773825], [-95.7752557, 36.1774073], [-95.7752639, 36.177406], [-95.7752675, 36.1774245], [-95.7752598, 36.1774251], [-95.7752667, 36.177466], [-95.7753047, 36.1774611], [-95.7753143, 36.1775024]]]}, "properties": {"osm_id": 978355395, "building": "yes", "name": "", "height": null, "height_m": null, "levels": null, "tract_id": "40131050407", "tract_name": "504.07", "tags": {"building": "yes"}}}, {"type": "Feature", "geometry": {"type": "Polygon", "coordinates": [[[-95.7751411, 36.1778036], [-95.7750791, 36.177808], [-95.775074, 36.17775], [-95.775136, 36.1777464], [-95.7751411, 36.1778036]]]}, "properties": {"osm_id": 978355396, "building": "yes", "name": "", "height": null, "height_m": null, "levels": null, "tract_id": "40131050407", "tract_name": "504.07", "tags": {"building": "yes"}}}, {"type": "Feature", "geometry": {"type": "Polygon", "coordinates": [[[-95.7956527, 36.1638263], [-95.7951162, 36.1638242], [-95.7951172, 36.1636637], [-95.7956537, 36.1636658], [-95.7956527, 36.1638263]]]}, "properties": {"osm_id": 1002055414, "building": "roof", "name": "QuikTrip", "height": null, "height_m": null, "levels": null, "tract_id": "40131050407", "tract_name": "504.07", "tags": {"addr:city": "Tulsa", "addr:housenumber": "16141", "addr:postcode": "74116", "addr:state": "OK", "addr:street": "East Skelly Drive South", "amenity": "fuel", "brand": "QuikTrip", "brand:wikidata": "Q7271953", "building": "roof", "check_date": "2025-05-26", "check_date:compressed_air": "2025-05-26", "compressed_air": "yes", "hgv": "no", "name": "QuikTrip", "short_name": "QT"}}}, {"type": "Feature", "geometry": {"type": "Polygon", "coordinates": [[[-95.7955664, 36.1641658], [-95.795156, 36.1641652], [-95.7951562, 36.1640618], [-95.7951768, 36.1640619], [-95.7952163, 36.1640342], [-95.7952163, 36.1640158], [-95.7952505, 36.1640159], [-95.7952506, 36.164006], [-95.7953008, 36.1640061], [-95.7953008, 36.1639951], [-95.7953377, 36.1639951], [-95.7953377, 36.163985], [-95.7954417, 36.1639851], [-95.7954416, 36.1639952], [-95.7954772, 36.1639953], [-95.7954772, 36.1640063], [-95.7955295, 36.1640064], [-95.7955295, 36.1640162], [-95.7955667, 36.1640163], [-95.7955666, 36.1640304], [-95.7956053, 36.1640618], [-95.7955665, 36.1640911], [-95.7955664, 36.1641658]]]}, "properties": {"osm_id": 1002055415, "building": "retail", "name": "QuikTrip", "height": null, "height_m": null, "levels": null, "tract_id": "40131050407", "tract_name": "504.07", "tags": {"addr:city": "Tulsa", "addr:housenumber": "16141", "addr:postcode": "74116", "addr:state": "OK", "addr:street": "East Skelly Drive South", "brand": "QuikTrip", "brand:wikidata": "Q7271953", "building": "retail", "name": "QuikTrip", "shop": "convenience", "short_name": "QT"}}}, {"type": "Feature", "geometry": {"type": "Polygon", "coordinates": [[[-95.7955027, 36.1646958], [-95.7949407, 36.1646936], [-95.7949412, 36.1646113], [-95.7955032, 36.1646135], [-95.7955027, 36.1646958]]]}, "properties": {"osm_id": 1002055416, "building": "roof", "name": "QuikTrip", "height": null, "height_m": null, "levels": null, "tract_id": "40131050407", "tract_name": "504.07", "tags": {"addr:city": "Tulsa", "addr:housenumber": "16141", "addr:postcode": "74116", "addr:state": "OK", "addr:street": "East Skelly Drive South", "amenity": "fuel", "brand": "QuikTrip", "brand:wikidata": "Q7271953", "building": "roof", "hgv": "yes", "name": "QuikTrip", "short_name": "QT"}}}, {"type": "Feature", "geometry": {"type": "Polygon", "coordinates": [[[-95.7961911, 36.1631277], [-95.7964119, 36.1631264], [-95.79641, 36.1629174], [-95.7961892, 36.1629186], [-95.7961896, 36.1629627], [-95.7961533, 36.1629629], [-95.7961544, 36.1630845], [-95.7961907, 36.1630843], [-95.7961911, 36.1631277]]]}, "properties": {"osm_id": 1016200885, "building": "yes", "name": "", "height": null, "height_m": null, "levels": null, "tract_id": "40131050407", "tract_name": "504.07", "tags": {"building": "yes"}}}, {"type": "Feature", "geometry": {"type": "Polygon", "coordinates": [[[-95.7594466, 36.2281164], [-95.7597002, 36.2281167], [-95.7596997, 36.2283933], [-95.7594461, 36.228393], [-95.7594466, 36.2281164]]]}, "properties": {"osm_id": 1026075256, "building": "commercial", "name": "", "height": null, "height_m": null, "levels": null, "tract_id": "40131050407", "tract_name": "504.07", "tags": {"building": "commercial"}}}, {"type": "Feature", "geometry": {"type": "Polygon", "coordinates": [[[-95.7597712, 36.23135], [-95.7595583, 36.2313506], [-95.7595556, 36.2307361], [-95.7597685, 36.2307355], [-95.7597712, 36.23135]]]}, "properties": {"osm_id": 1026075266, "building": "retail", "name": "", "height": null, "height_m": null, "levels": null, "tract_id": "40131050407", "tract_name": "504.07", "tags": {"building": "retail"}}}, {"type": "Feature", "geometry": {"type": "Polygon", "coordinates": [[[-95.7596096, 36.2316666], [-95.7595413, 36.2316668], [-95.7595408, 36.2315172], [-95.7596091, 36.2315171], [-95.7596096, 36.2316666]]]}, "properties": {"osm_id": 1026075267, "building": "roof", "name": "", "height": null, "height_m": null, "levels": null, "tract_id": "40131050407", "tract_name": "504.07", "tags": {"amenity": "fuel", "building": "roof", "fuel:diesel": "yes", "layer": "1"}}}, {"type": "Feature", "geometry": {"type": "Polygon", "coordinates": [[[-95.7593315, 36.2318922], [-95.7592526, 36.2318931], [-95.7592504, 36.2317632], [-95.7593294, 36.2317623], [-95.7593315, 36.2318922]]]}, "properties": {"osm_id": 1026075268, "building": "roof", "name": "", "height": null, "height_m": null, "levels": null, "tract_id": "40131050407", "tract_name": "504.07", "tags": {"amenity": "fuel", "building": "roof", "fuel:octane_87": "yes", "layer": "1"}}}, {"type": "Feature", "geometry": {"type": "Polygon", "coordinates": [[[-95.7596435, 36.2319179], [-95.7595026, 36.2319184], [-95.7595016, 36.2317218], [-95.7596424, 36.2317213], [-95.7596435, 36.2319179]]]}, "properties": {"osm_id": 1026075269, "building": "retail", "name": "", "height": null, "height_m": null, "levels": null, "tract_id": "40131050407", "tract_name": "504.07", "tags": {"building": "retail", "shop": "convenience"}}}, {"type": "Feature", "geometry": {"type": "Polygon", "coordinates": [[[-95.760623, 36.2289421], [-95.7605811, 36.2289428], [-95.7605801, 36.2288983], [-95.7606219, 36.2288977], [-95.760623, 36.2289421]]]}, "properties": {"osm_id": 1026075271, "building": "service", "name": "", "height": null, "height_m": null, "levels": null, "tract_id": "40131050407", "tract_name": "504.07", "tags": {"building": "service"}}}, {"type": "Feature", "geometry": {"type": "Polygon", "coordinates": [[[-95.7607501, 36.2289746], [-95.7606823, 36.2289759], [-95.7606814, 36.2289443], [-95.7607492, 36.228943], [-95.7607501, 36.2289746]]]}, "properties": {"osm_id": 1026075272, "building": "service", "name": "", "height": null, "height_m": null, "levels": null, "tract_id": "40131050407", "tract_name": "504.07", "tags": {"building": "service"}}}, {"type": "Feature", "geometry": {"type": "Polygon", "coordinates": [[[-95.7607633, 36.2290489], [-95.760695, 36.2290494], [-95.7606947, 36.2290178], [-95.760763, 36.2290174], [-95.7607633, 36.2290489]]]}, "properties": {"osm_id": 1026075273, "building": "service", "name": "", "height": null, "height_m": null, "levels": null, "tract_id": "40131050407", "tract_name": "504.07", "tags": {"building": "service"}}}, {"type": "Feature", "geometry": {"type": "Polygon", "coordinates": [[[-95.7627212, 36.2247673], [-95.7625973, 36.224769], [-95.7625966, 36.2247325], [-95.7625014, 36.2247337], [-95.7625081, 36.2250635], [-95.7624227, 36.2250647], [-95.762426, 36.2252282], [-95.76215, 36.2252319], [-95.7621501, 36.2252398], [-95.762024, 36.2252414], [-95.7620168, 36.2248936], [-95.7621431, 36.2248919], [-95.76214, 36.2247394], [-95.7621146, 36.2247398], [-95.7621062, 36.2243326], [-95.7627154, 36.2243244], [-95.7627238, 36.2247304], [-95.7627204, 36.2247305], [-95.7627212, 36.2247673]]]}, "properties": {"osm_id": 1026075274, "building": "industrial", "name": "", "height": null, "height_m": null, "levels": null, "tract_id": "40131050407", "tract_name": "504.07", "tags": {"building": "industrial"}}}, {"type": "Feature", "geometry": {"type": "Polygon", "coordinates": [[[-95.7988288, 36.1646292], [-95.7988287, 36.1646756], [-95.7986029, 36.1646751], [-95.7986031, 36.1645897], [-95.7986033, 36.1645526], [-95.7986034, 36.1645155], [-95.7986037, 36.1644309], [-95.7988298, 36.1644314], [-95.7988292, 36.1646019], [-95.7988581, 36.1646019], [-95.798858, 36.1646293], [-95.7988288, 36.1646292]]]}, "properties": {"osm_id": 1102595562, "building": "yes", "name": "Cherokee Nation Tag Office", "height": null, "height_m": null, "levels": null, "tract_id": "40131050407", "tract_name": "504.07", "tags": {"addr:city": "Catoosa", "addr:housenumber": "400", "addr:postcode": "74116", "addr:state": "OK", "addr:street": "North 161st East Avenue", "brand": "Cherokee Nation Tag Office", "brand:website": "https://tagoffice.cherokee.org/", "building": "yes", "government": "transportation", "name": "Cherokee Nation Tag Office", "office": "government", "operator": "Cherokee Nation", "source:feature": "KartaView 2019-11-17", "survey:date": "2019-11-17"}}}, {"type": "Feature", "geometry": {"type": "Polygon", "coordinates": [[[-95.7986031, 36.1645897], [-95.798551, 36.1645895], [-95.798501, 36.1645893], [-95.7985014, 36.1645151], [-95.798551, 36.1645153], [-95.7986034, 36.1645155], [-95.7986033, 36.1645526], [-95.7986031, 36.1645897]]]}, "properties": {"osm_id": 1102595563, "building": "roof", "name": "", "height": null, "height_m": null, "levels": null, "tract_id": "40131050407", "tract_name": "504.07", "tags": {"building": "roof", "layer": "1"}}}, {"type": "Feature", "geometry": {"type": "Polygon", "coordinates": [[[-95.7667713, 36.1712813], [-95.7667026, 36.1712832], [-95.7666988, 36.1711904], [-95.7667674, 36.1711886], [-95.7667713, 36.1712813]]]}, "properties": {"osm_id": 1197751240, "building": "yes", "name": "", "height": null, "height_m": null, "levels": null, "tract_id": "40131050407", "tract_name": "504.07", "tags": {"building": "yes"}}}, {"type": "Feature", "geometry": {"type": "Polygon", "coordinates": [[[-95.7654883, 36.1721034], [-95.7655911, 36.1721004], [-95.7655891, 36.1720554], [-95.7654863, 36.1720584], [-95.7654883, 36.1721034]]]}, "properties": {"osm_id": 1197751241, "building": "yes", "name": "", "height": null, "height_m": null, "levels": null, "tract_id": "40131050407", "tract_name": "504.07", "tags": {"building": "yes"}}}, {"type": "Feature", "geometry": {"type": "Polygon", "coordinates": [[[-95.7658179, 36.172388], [-95.7657227, 36.1724122], [-95.7656718, 36.1722817], [-95.765767, 36.1722575], [-95.7658179, 36.172388]]]}, "properties": {"osm_id": 1197751242, "building": "yes", "name": "", "height": null, "height_m": null, "levels": null, "tract_id": "40131050407", "tract_name": "504.07", "tags": {"building": "yes"}}}, {"type": "Feature", "geometry": {"type": "Polygon", "coordinates": [[[-95.7665755, 36.1721677], [-95.7665415, 36.1718403], [-95.7667354, 36.1718271], [-95.7667695, 36.1721546], [-95.7665755, 36.1721677]]]}, "properties": {"osm_id": 1197751243, "building": "yes", "name": "", "height": null, "height_m": null, "levels": null, "tract_id": "40131050407", "tract_name": "504.07", "tags": {"building": "yes"}}}, {"type": "Feature", "geometry": {"type": "Polygon", "coordinates": [[[-95.766874, 36.1717281], [-95.7669589, 36.1716977], [-95.7669242, 36.1716346], [-95.7668393, 36.1716649], [-95.766874, 36.1717281]]]}, "properties": {"osm_id": 1197751244, "building": "yes", "name": "", "height": null, "height_m": null, "levels": null, "tract_id": "40131050407", "tract_name": "504.07", "tags": {"building": "yes"}}}, {"type": "Feature", "geometry": {"type": "Polygon", "coordinates": [[[-95.7669886, 36.171683], [-95.7669453, 36.1716085], [-95.7670653, 36.1715632], [-95.7671085, 36.1716377], [-95.7669886, 36.171683]]]}, "properties": {"osm_id": 1197751245, "building": "yes", "name": "", "height": null, "height_m": null, "levels": null, "tract_id": "40131050407", "tract_name": "504.07", "tags": {"building": "yes"}}}, {"type": "Feature", "geometry": {"type": "Polygon", "coordinates": [[[-95.7673012, 36.1715859], [-95.7674468, 36.1715275], [-95.7673269, 36.1713327], [-95.7671813, 36.1713911], [-95.7673012, 36.1715859]]]}, "properties": {"osm_id": 1197751246, "building": "yes", "name": "", "height": null, "height_m": null, "levels": null, "tract_id": "40131050407", "tract_name": "504.07", "tags": {"building": "yes"}}}, {"type": "Feature", "geometry": {"type": "Polygon", "coordinates": [[[-95.7667821, 36.1714553], [-95.7670724, 36.1713718], [-95.7670147, 36.1712411], [-95.7667244, 36.1713245], [-95.7667821, 36.1714553]]]}, "properties": {"osm_id": 1197751247, "building": "yes", "name": "", "height": null, "height_m": null, "levels": null, "tract_id": "40131050407", "tract_name": "504.07", "tags": {"building": "yes"}}}, {"type": "Feature", "geometry": {"type": "Polygon", "coordinates": [[[-95.7665364, 36.1714657], [-95.7665749, 36.1712897], [-95.7664263, 36.1712686], [-95.7664357, 36.1712255], [-95.7664061, 36.1711928], [-95.7663096, 36.1711791], [-95.7662709, 36.1712036], [-95.7662629, 36.1712401], [-95.7660851, 36.1712148], [-95.7660398, 36.1714223], [-95.7663837, 36.1714713], [-95.7663895, 36.1714448], [-95.7665364, 36.1714657]]]}, "properties": {"osm_id": 1197751248, "building": "yes", "name": "", "height": null, "height_m": null, "levels": null, "tract_id": "40131050407", "tract_name": "504.07", "tags": {"building": "yes"}}}, {"type": "Feature", "geometry": {"type": "Polygon", "coordinates": [[[-95.767514, 36.1666309], [-95.7674412, 36.1669674], [-95.7674071, 36.1669626], [-95.7673487, 36.1672327], [-95.7673865, 36.167238], [-95.7673724, 36.1673032], [-95.7675088, 36.1673225], [-95.7675227, 36.1672581], [-95.7675621, 36.1672637], [-95.7676207, 36.1669928], [-95.7675764, 36.1669866], [-95.7676492, 36.1666499], [-95.767514, 36.1666309]]]}, "properties": {"osm_id": 1197751265, "building": "yes", "name": "", "height": null, "height_m": null, "levels": null, "tract_id": "40131050407", "tract_name": "504.07", "tags": {"building": "yes"}}}, {"type": "Feature", "geometry": {"type": "Polygon", "coordinates": [[[-95.7677528, 36.1668454], [-95.7676515, 36.1668322], [-95.7676834, 36.1666731], [-95.7677846, 36.1666863], [-95.7677528, 36.1668454]]]}, "properties": {"osm_id": 1197751266, "building": "yes", "name": "", "height": null, "height_m": null, "levels": null, "tract_id": "40131050407", "tract_name": "504.07", "tags": {"building": "yes"}}}, {"type": "Feature", "geometry": {"type": "Polygon", "coordinates": [[[-95.7657229, 36.1630621], [-95.7656994, 36.1630316], [-95.7657493, 36.1630066], [-95.7657728, 36.163037], [-95.7657229, 36.1630621]]]}, "properties": {"osm_id": 1210292686, "building": "yes", "name": "", "height": null, "height_m": null, "levels": null, "tract_id": "40131050407", "tract_name": "504.07", "tags": {"building": "yes"}}}, {"type": "Feature", "geometry": {"type": "Polygon", "coordinates": [[[-95.7709152, 36.170548], [-95.7709142, 36.1705078], [-95.7709442, 36.1705073], [-95.7709452, 36.1705475], [-95.7709152, 36.170548]]]}, "properties": {"osm_id": 1210779137, "building": "yes", "name": "", "height": null, "height_m": null, "levels": null, "tract_id": "40131050407", "tract_name": "504.07", "tags": {"building": "yes"}}}, {"type": "Feature", "geometry": {"type": "Polygon", "coordinates": [[[-95.7650586, 36.1668138], [-95.7650693, 36.166745], [-95.765016, 36.1667396], [-95.7650053, 36.1668084], [-95.7650586, 36.1668138]]]}, "properties": {"osm_id": 1211166188, "building": "yes", "name": "", "height": null, "height_m": null, "levels": null, "tract_id": "40131050407", "tract_name": "504.07", "tags": {"building": "yes"}}}, {"type": "Feature", "geometry": {"type": "Polygon", "coordinates": [[[-95.7652262, 36.1668441], [-95.7650782, 36.1668254], [-95.7650909, 36.1667595], [-95.765239, 36.1667782], [-95.7652262, 36.1668441]]]}, "properties": {"osm_id": 1211166189, "building": "yes", "name": "", "height": null, "height_m": null, "levels": null, "tract_id": "40131050407", "tract_name": "504.07", "tags": {"building": "yes"}}}, {"type": "Feature", "geometry": {"type": "Polygon", "coordinates": [[[-95.7625847, 36.169386], [-95.7627641, 36.1694695], [-95.7628718, 36.1693185], [-95.762688, 36.169233], [-95.7626431, 36.169296], [-95.7626317, 36.1692907], [-95.7625891, 36.1693504], [-95.7626049, 36.1693577], [-95.7625847, 36.169386]]]}, "properties": {"osm_id": 1211166191, "building": "yes", "name": "", "height": null, "height_m": null, "levels": null, "tract_id": "40131050407", "tract_name": "504.07", "tags": {"building": "yes"}}}, {"type": "Feature", "geometry": {"type": "Polygon", "coordinates": [[[-95.7624761, 36.1705674], [-95.7624228, 36.1705086], [-95.7624839, 36.1704725], [-95.7624553, 36.1704409], [-95.7625128, 36.1704069], [-95.7625309, 36.1704268], [-95.7626238, 36.1703719], [-95.7626871, 36.1704417], [-95.762613, 36.1704855], [-95.7626258, 36.1704997], [-95.7625656, 36.1705353], [-95.7625533, 36.1705217], [-95.7624761, 36.1705674]]]}, "properties": {"osm_id": 1211583963, "building": "house", "name": "", "height": null, "height_m": null, "levels": null, "tract_id": "40131050407", "tract_name": "504.07", "tags": {"building": "house"}}}, {"type": "Feature", "geometry": {"type": "Polygon", "coordinates": [[[-95.7624783, 36.1710806], [-95.7625146, 36.1710592], [-95.7624911, 36.1710332], [-95.7625047, 36.1710251], [-95.7625168, 36.1710385], [-95.7625584, 36.1710139], [-95.7625761, 36.1710335], [-95.7626483, 36.1709909], [-95.7625958, 36.1709329], [-95.7625537, 36.1709577], [-95.7625345, 36.1709366], [-95.7625289, 36.1709399], [-95.7625241, 36.1709346], [-95.762493, 36.1709277], [-95.7623925, 36.170987], [-95.7624321, 36.1710307], [-95.7624293, 36.1710324], [-95.7624582, 36.1710642], [-95.7624616, 36.1710622], [-95.7624783, 36.1710806]]]}, "properties": {"osm_id": 1211583964, "building": "house", "name": "", "height": null, "height_m": null, "levels": null, "tract_id": "40131050407", "tract_name": "504.07", "tags": {"building": "house"}}}, {"type": "Feature", "geometry": {"type": "Polygon", "coordinates": [[[-95.7621415, 36.1709977], [-95.7621413, 36.1711012], [-95.7622035, 36.1711013], [-95.7622035, 36.1711122], [-95.7622721, 36.1711122], [-95.7622721, 36.1711006], [-95.7622877, 36.1711006], [-95.7622877, 36.1710894], [-95.7623533, 36.1710895], [-95.7623534, 36.1710149], [-95.7622904, 36.1710148], [-95.7622904, 36.1709978], [-95.7621415, 36.1709977]]]}, "properties": {"osm_id": 1211583965, "building": "house", "name": "", "height": null, "height_m": null, "levels": null, "tract_id": "40131050407", "tract_name": "504.07", "tags": {"building": "house"}}}, {"type": "Feature", "geometry": {"type": "Polygon", "coordinates": [[[-95.7622209, 36.1707453], [-95.7623546, 36.1705846], [-95.7624461, 36.1706342], [-95.7623508, 36.1707487], [-95.7623417, 36.1707437], [-95.7623032, 36.17079], [-95.7622209, 36.1707453]]]}, "properties": {"osm_id": 1211583966, "building": "house", "name": "", "height": null, "height_m": null, "levels": null, "tract_id": "40131050407", "tract_name": "504.07", "tags": {"building": "house"}}}, {"type": "Feature", "geometry": {"type": "Polygon", "coordinates": [[[-95.7629446, 36.1718153], [-95.7630117, 36.1717467], [-95.7629598, 36.1717137], [-95.7629745, 36.1716987], [-95.7629366, 36.1716745], [-95.7629229, 36.1716885], [-95.7628243, 36.1716257], [-95.7627538, 36.1716978], [-95.7628341, 36.171749], [-95.7628366, 36.1717464], [-95.7629446, 36.1718153]]]}, "properties": {"osm_id": 1212115081, "building": "house", "name": "", "height": null, "height_m": null, "levels": null, "tract_id": "40131050407", "tract_name": "504.07", "tags": {"building": "house"}}}, {"type": "Feature", "geometry": {"type": "Polygon", "coordinates": [[[-95.7625388, 36.1717458], [-95.7625386, 36.1716311], [-95.7627163, 36.1716309], [-95.7627165, 36.1717465], [-95.7626395, 36.1717466], [-95.7626395, 36.171725], [-95.7625915, 36.1717251], [-95.7625916, 36.1717457], [-95.7625388, 36.1717458]]]}, "properties": {"osm_id": 1212115082, "building": "house", "name": "", "height": null, "height_m": null, "levels": null, "tract_id": "40131050407", "tract_name": "504.07", "tags": {"building": "house"}}}, {"type": "Feature", "geometry": {"type": "Polygon", "coordinates": [[[-95.7622306, 36.1717626], [-95.7622305, 36.1716532], [-95.7622969, 36.1716532], [-95.7622969, 36.171628], [-95.7623648, 36.171628], [-95.7623648, 36.1716552], [-95.7624438, 36.1716552], [-95.7624438, 36.1716972], [-95.7624189, 36.1716972], [-95.762419, 36.1717493], [-95.7623383, 36.1717493], [-95.7623383, 36.1717169], [-95.7623029, 36.1717169], [-95.762303, 36.1717625], [-95.7622306, 36.1717626]]]}, "properties": {"osm_id": 1212115083, "building": "house", "name": "", "height": null, "height_m": null, "levels": null, "tract_id": "40131050407", "tract_name": "504.07", "tags": {"building": "house"}}}, {"type": "Feature", "geometry": {"type": "Polygon", "coordinates": [[[-95.7619777, 36.1717905], [-95.7619787, 36.1716381], [-95.762148, 36.1716388], [-95.7621481, 36.1716258], [-95.7621843, 36.1716259], [-95.7621832, 36.1717914], [-95.7619777, 36.1717905]]]}, "properties": {"osm_id": 1212115084, "building": "house", "name": "", "height": null, "height_m": null, "levels": null, "tract_id": "40131050407", "tract_name": "504.07", "tags": {"building": "house"}}}, {"type": "Feature", "geometry": {"type": "Polygon", "coordinates": [[[-95.7621934, 36.1714951], [-95.7623028, 36.1714949], [-95.7623028, 36.1714829], [-95.7624018, 36.1714827], [-95.7624016, 36.1714171], [-95.7624148, 36.171417], [-95.7624147, 36.1713908], [-95.7624009, 36.1713908], [-95.7624008, 36.1713451], [-95.7622967, 36.1713453], [-95.7622968, 36.1713916], [-95.7622841, 36.1713916], [-95.7622842, 36.1714252], [-95.7622703, 36.1714252], [-95.7622703, 36.1714203], [-95.7621932, 36.1714205], [-95.7621934, 36.1714951]]]}, "properties": {"osm_id": 1212115085, "building": "house", "name": "", "height": null, "height_m": null, "levels": null, "tract_id": "40131050407", "tract_name": "504.07", "tags": {"building": "house"}}}, {"type": "Feature", "geometry": {"type": "Polygon", "coordinates": [[[-95.762977, 36.1714422], [-95.7630376, 36.1714076], [-95.7629936, 36.1713574], [-95.762933, 36.171392], [-95.762977, 36.1714422]]]}, "properties": {"osm_id": 1212115086, "building": "garage", "name": "", "height": null, "height_m": null, "levels": null, "tract_id": "40131050407", "tract_name": "504.07", "tags": {"building": "garage"}}}, {"type": "Feature", "geometry": {"type": "Polygon", "coordinates": [[[-95.7628116, 36.1714375], [-95.7629754, 36.171342], [-95.7629332, 36.1712948], [-95.7629094, 36.1713087], [-95.7628919, 36.1712892], [-95.7628781, 36.1712972], [-95.7628291, 36.1712425], [-95.76277, 36.1712769], [-95.7627779, 36.1712857], [-95.7627115, 36.1713245], [-95.7627582, 36.1713766], [-95.7627273, 36.1713946], [-95.7627572, 36.1714281], [-95.7627874, 36.1714104], [-95.7628116, 36.1714375]]]}, "properties": {"osm_id": 1212115087, "building": "house", "name": "", "height": null, "height_m": null, "levels": null, "tract_id": "40131050407", "tract_name": "504.07", "tags": {"building": "house"}}}, {"type": "Feature", "geometry": {"type": "Polygon", "coordinates": [[[-95.763663, 36.1717947], [-95.7636641, 36.1716955], [-95.7637154, 36.1716958], [-95.7637162, 36.1716162], [-95.763839, 36.1716171], [-95.7638378, 36.1717271], [-95.7638672, 36.1717273], [-95.7638667, 36.1717738], [-95.7638416, 36.1717736], [-95.7638414, 36.1717877], [-95.7637275, 36.1717869], [-95.7637274, 36.1717952], [-95.763663, 36.1717947]]]}, "properties": {"osm_id": 1212115088, "building": "house", "name": "", "height": null, "height_m": null, "levels": null, "tract_id": "40131050407", "tract_name": "504.07", "tags": {"building": "house"}}}, {"type": "Feature", "geometry": {"type": "Polygon", "coordinates": [[[-95.763476, 36.1714449], [-95.7635182, 36.1714914], [-95.7635725, 36.1714593], [-95.7636182, 36.1715097], [-95.7637256, 36.1714462], [-95.7636361, 36.1713476], [-95.7635928, 36.1713732], [-95.7635845, 36.1713641], [-95.7635235, 36.1714001], [-95.7635334, 36.171411], [-95.763476, 36.1714449]]]}, "properties": {"osm_id": 1212115089, "building": "house", "name": "", "height": null, "height_m": null, "levels": null, "tract_id": "40131050407", "tract_name": "504.07", "tags": {"building": "house"}}}, {"type": "Feature", "geometry": {"type": "Polygon", "coordinates": [[[-95.763459, 36.1713787], [-95.763543, 36.1713296], [-95.7635026, 36.1712845], [-95.7635383, 36.1712637], [-95.7635107, 36.1712329], [-95.7634686, 36.1712574], [-95.7634288, 36.171213], [-95.7633331, 36.1712688], [-95.7633717, 36.1713118], [-95.763368, 36.171314], [-95.7633981, 36.1713475], [-95.7634197, 36.1713349], [-95.763459, 36.1713787]]]}, "properties": {"osm_id": 1212115090, "building": "house", "name": "", "height": null, "height_m": null, "levels": null, "tract_id": "40131050407", "tract_name": "504.07", "tags": {"building": "house"}}}, {"type": "Feature", "geometry": {"type": "Polygon", "coordinates": [[[-95.7634213, 36.1712055], [-95.763471, 36.171176], [-95.7634504, 36.1711534], [-95.7634007, 36.171183], [-95.7634213, 36.1712055]]]}, "properties": {"osm_id": 1212115091, "building": "garage", "name": "", "height": null, "height_m": null, "levels": null, "tract_id": "40131050407", "tract_name": "504.07", "tags": {"building": "garage"}}}, {"type": "Feature", "geometry": {"type": "Polygon", "coordinates": [[[-95.7632452, 36.1712303], [-95.7634149, 36.1711334], [-95.7634113, 36.1711292], [-95.7634304, 36.1711183], [-95.7633798, 36.1710605], [-95.7633534, 36.1710756], [-95.7633038, 36.171019], [-95.7631987, 36.1710791], [-95.7632549, 36.1711433], [-95.7631976, 36.171176], [-95.7632452, 36.1712303]]]}, "properties": {"osm_id": 1212115092, "building": "house", "name": "", "height": null, "height_m": null, "levels": null, "tract_id": "40131050407", "tract_name": "504.07", "tags": {"building": "house"}}}, {"type": "Feature", "geometry": {"type": "Polygon", "coordinates": [[[-95.7631199, 36.1710417], [-95.7632532, 36.170963], [-95.7632119, 36.1709173], [-95.7632505, 36.1708946], [-95.7632064, 36.1708458], [-95.763168, 36.1708685], [-95.7631435, 36.1708414], [-95.7630318, 36.1709073], [-95.7630859, 36.1709671], [-95.763064, 36.17098], [-95.7631199, 36.1710417]]]}, "properties": {"osm_id": 1212115093, "building": "house", "name": "", "height": null, "height_m": null, "levels": null, "tract_id": "40131050407", "tract_name": "504.07", "tags": {"building": "house"}}}, {"type": "Feature", "geometry": {"type": "Polygon", "coordinates": [[[-95.7630462, 36.1708221], [-95.7631205, 36.1707799], [-95.7630274, 36.1706729], [-95.7629549, 36.1707141], [-95.7629432, 36.1707006], [-95.7628616, 36.1707469], [-95.7628984, 36.1707892], [-95.7629798, 36.170743], [-95.7630082, 36.1707756], [-95.7629729, 36.1707957], [-95.7630029, 36.1708301], [-95.7630366, 36.170811], [-95.7630462, 36.1708221]]]}, "properties": {"osm_id": 1212115094, "building": "house", "name": "", "height": null, "height_m": null, "levels": null, "tract_id": "40131050407", "tract_name": "504.07", "tags": {"building": "house"}}}, {"type": "Feature", "geometry": {"type": "Polygon", "coordinates": [[[-95.7621072, 36.1727994], [-95.7620472, 36.17278], [-95.7620581, 36.1727581], [-95.7620267, 36.1727479], [-95.7620472, 36.1727068], [-95.7620785, 36.1727169], [-95.7620735, 36.172727], [-95.7621335, 36.1727464], [-95.7621072, 36.1727994]]]}, "properties": {"osm_id": 1212182407, "building": "garage", "name": "", "height": null, "height_m": null, "levels": null, "tract_id": "40131050407", "tract_name": "504.07", "tags": {"building": "garage"}}}, {"type": "Feature", "geometry": {"type": "Polygon", "coordinates": [[[-95.7625101, 36.1730056], [-95.7623089, 36.1729927], [-95.7623183, 36.1728964], [-95.7624102, 36.1729023], [-95.7624114, 36.1728906], [-95.7624522, 36.1728932], [-95.7624511, 36.1729052], [-95.7625196, 36.1729096], [-95.7625101, 36.1730056]]]}, "properties": {"osm_id": 1212182408, "building": "house", "name": "", "height": null, "height_m": null, "levels": null, "tract_id": "40131050407", "tract_name": "504.07", "tags": {"building": "house"}}}, {"type": "Feature", "geometry": {"type": "Polygon", "coordinates": [[[-95.7628401, 36.1727949], [-95.7629971, 36.1727032], [-95.76308, 36.1727957], [-95.7630074, 36.1728381], [-95.762994, 36.1728231], [-95.7628238, 36.1729225], [-95.7627761, 36.1728694], [-95.7628619, 36.1728192], [-95.7628401, 36.1727949]]]}, "properties": {"osm_id": 1212182409, "building": "house", "name": "", "height": null, "height_m": null, "levels": null, "tract_id": "40131050407", "tract_name": "504.07", "tags": {"building": "house"}}}, {"type": "Feature", "geometry": {"type": "Polygon", "coordinates": [[[-95.7622589, 36.1724913], [-95.7624021, 36.172481], [-95.7623895, 36.1723666], [-95.7622587, 36.1723759], [-95.7622619, 36.172405], [-95.7622496, 36.1724059], [-95.7622589, 36.1724913]]]}, "properties": {"osm_id": 1212182410, "building": "house", "name": "", "height": null, "height_m": null, "levels": null, "tract_id": "40131050407", "tract_name": "504.07", "tags": {"building": "house"}}}, {"type": "Feature", "geometry": {"type": "Polygon", "coordinates": [[[-95.7626602, 36.1725672], [-95.7627244, 36.1725292], [-95.7626174, 36.1724116], [-95.7625476, 36.172453], [-95.7625605, 36.1724672], [-95.7625458, 36.1724759], [-95.7625538, 36.1724847], [-95.7625375, 36.1724943], [-95.7625496, 36.1725076], [-95.7625309, 36.1725187], [-95.7625736, 36.1725658], [-95.7626291, 36.1725329], [-95.7626602, 36.1725672]]]}, "properties": {"osm_id": 1212182411, "building": "house", "name": "", "height": null, "height_m": null, "levels": null, "tract_id": "40131050407", "tract_name": "504.07", "tags": {"building": "house"}}}, {"type": "Feature", "geometry": {"type": "Polygon", "coordinates": [[[-95.7622588, 36.1723254], [-95.762361, 36.1723242], [-95.7623579, 36.1721551], [-95.7622574, 36.1721563], [-95.7622338, 36.172175], [-95.7622341, 36.1721928], [-95.762227, 36.1721929], [-95.7622276, 36.1722263], [-95.7622356, 36.1722262], [-95.7622362, 36.1722638], [-95.7622576, 36.1722635], [-95.7622588, 36.1723254]]]}, "properties": {"osm_id": 1212182412, "building": "house", "name": "", "height": null, "height_m": null, "levels": null, "tract_id": "40131050407", "tract_name": "504.07", "tags": {"building": "house"}}}, {"type": "Feature", "geometry": {"type": "Polygon", "coordinates": [[[-95.7623619, 36.1720667], [-95.7624805, 36.1721978], [-95.7626139, 36.1721192], [-95.7625604, 36.17206], [-95.7625484, 36.1720671], [-95.7625237, 36.1720397], [-95.7624763, 36.1720676], [-95.7625115, 36.1721064], [-95.7624772, 36.1721266], [-95.7624446, 36.1720906], [-95.7624613, 36.1720807], [-95.7624185, 36.1720334], [-95.7623619, 36.1720667]]]}, "properties": {"osm_id": 1212182413, "building": "house", "name": "", "height": null, "height_m": null, "levels": null, "tract_id": "40131050407", "tract_name": "504.07", "tags": {"building": "house"}}}, {"type": "Feature", "geometry": {"type": "Polygon", "coordinates": [[[-95.7631803, 36.1722593], [-95.7630868, 36.172154], [-95.7631074, 36.1721421], [-95.7630946, 36.1721277], [-95.763154, 36.1720933], [-95.7631659, 36.1721068], [-95.7632067, 36.1720832], [-95.7633011, 36.1721895], [-95.7631803, 36.1722593]]]}, "properties": {"osm_id": 1212182414, "building": "house", "name": "", "height": null, "height_m": null, "levels": null, "tract_id": "40131050407", "tract_name": "504.07", "tags": {"building": "house"}}}, {"type": "Feature", "geometry": {"type": "Polygon", "coordinates": [[[-95.7627877, 36.1721745], [-95.7627287, 36.172096], [-95.7628135, 36.1720544], [-95.7628175, 36.1720598], [-95.762887, 36.1720257], [-95.7629393, 36.1720953], [-95.7628588, 36.1721347], [-95.7628615, 36.1721383], [-95.7627877, 36.1721745]]]}, "properties": {"osm_id": 1212182415, "building": "house", "name": "", "height": null, "height_m": null, "levels": null, "tract_id": "40131050407", "tract_name": "504.07", "tags": {"building": "house"}}}, {"type": "Feature", "geometry": {"type": "Polygon", "coordinates": [[[-95.7630899, 36.1720186], [-95.7629562, 36.1719946], [-95.7629654, 36.1719612], [-95.7629587, 36.17196], [-95.7629658, 36.1719344], [-95.7629847, 36.1719378], [-95.7629991, 36.1718857], [-95.7630944, 36.1719028], [-95.7630793, 36.1719575], [-95.763094, 36.1719601], [-95.7630852, 36.171992], [-95.7630967, 36.1719941], [-95.7630899, 36.1720186]]]}, "properties": {"osm_id": 1212182416, "building": "house", "name": "", "height": null, "height_m": null, "levels": null, "tract_id": "40131050407", "tract_name": "504.07", "tags": {"building": "house"}}}, {"type": "Feature", "geometry": {"type": "Polygon", "coordinates": [[[-95.7631165, 36.1727498], [-95.7630482, 36.1726763], [-95.7631044, 36.1726422], [-95.7631009, 36.1726384], [-95.7631588, 36.1726033], [-95.7631754, 36.1726211], [-95.7632299, 36.1725881], [-95.7632852, 36.1726476], [-95.7631165, 36.1727498]]]}, "properties": {"osm_id": 1212182417, "building": "house", "name": "", "height": null, "height_m": null, "levels": null, "tract_id": "40131050407", "tract_name": "504.07", "tags": {"building": "house"}}}, {"type": "Feature", "geometry": {"type": "Polygon", "coordinates": [[[-95.7632745, 36.1725414], [-95.7633454, 36.1726193], [-95.7635199, 36.1725159], [-95.763449, 36.1724379], [-95.7632745, 36.1725414]]]}, "properties": {"osm_id": 1212182418, "building": "house", "name": "", "height": null, "height_m": null, "levels": null, "tract_id": "40131050407", "tract_name": "504.07", "tags": {"building": "house"}}}, {"type": "Feature", "geometry": {"type": "Polygon", "coordinates": [[[-95.7637158, 36.1724317], [-95.7636106, 36.1723096], [-95.7634614, 36.1723934], [-95.7635457, 36.1724912], [-95.7636215, 36.1724487], [-95.7636424, 36.172473], [-95.7637158, 36.1724317]]]}, "properties": {"osm_id": 1212182419, "building": "house", "name": "", "height": null, "height_m": null, "levels": null, "tract_id": "40131050407", "tract_name": "504.07", "tags": {"building": "house"}}}, {"type": "Feature", "geometry": {"type": "Polygon", "coordinates": [[[-95.763659, 36.1722587], [-95.7638271, 36.1722233], [-95.7637817, 36.1720827], [-95.7636643, 36.1721074], [-95.7636908, 36.1721896], [-95.7636401, 36.1722003], [-95.763659, 36.1722587]]]}, "properties": {"osm_id": 1212182420, "building": "house", "name": "", "height": null, "height_m": null, "levels": null, "tract_id": "40131050407", "tract_name": "504.07", "tags": {"building": "house"}}}, {"type": "Feature", "geometry": {"type": "Polygon", "coordinates": [[[-95.7636668, 36.1720309], [-95.7637888, 36.1720303], [-95.7637883, 36.1719622], [-95.7638054, 36.1719621], [-95.7638052, 36.1719417], [-95.7637882, 36.1719418], [-95.7637879, 36.171902], [-95.7637717, 36.1719021], [-95.7637712, 36.1718442], [-95.7636804, 36.1718446], [-95.7636808, 36.1719018], [-95.7636656, 36.1719018], [-95.7636658, 36.1719251], [-95.763659, 36.1719251], [-95.7636592, 36.1719528], [-95.7636662, 36.1719528], [-95.7636668, 36.1720309]]]}, "properties": {"osm_id": 1212182421, "building": "house", "name": "", "height": null, "height_m": null, "levels": null, "tract_id": "40131050407", "tract_name": "504.07", "tags": {"building": "house"}}}, {"type": "Feature", "geometry": {"type": "Polygon", "coordinates": [[[-95.7632113, 36.1720161], [-95.7633517, 36.1720143], [-95.7633507, 36.1719655], [-95.763361, 36.1719653], [-95.7633598, 36.1719005], [-95.7633491, 36.1719006], [-95.7633489, 36.1718879], [-95.7633351, 36.1718881], [-95.7633341, 36.1718353], [-95.7632387, 36.1718365], [-95.7632397, 36.1718898], [-95.7631865, 36.1718905], [-95.763188, 36.1719655], [-95.7632104, 36.1719653], [-95.7632113, 36.1720161]]]}, "properties": {"osm_id": 1212182422, "building": "house", "name": "", "height": null, "height_m": null, "levels": null, "tract_id": "40131050407", "tract_name": "504.07", "tags": {"building": "house"}}}, {"type": "Feature", "geometry": {"type": "Polygon", "coordinates": [[[-95.8004168, 36.1666358], [-95.8000529, 36.1666369], [-95.800043, 36.1668735], [-95.8004083, 36.1668712], [-95.8004168, 36.1666358]]]}, "properties": {"osm_id": 1216920389, "building": "yes", "name": "", "height": null, "height_m": null, "levels": null, "tract_id": "40131050407", "tract_name": "504.07", "tags": {"building": "yes"}}}, {"type": "Feature", "geometry": {"type": "Polygon", "coordinates": [[[-95.7997188, 36.1668701], [-95.7993663, 36.1668701], [-95.7993621, 36.167149], [-95.799682, 36.167149], [-95.7996806, 36.1671981], [-95.7994498, 36.1672027], [-95.7994456, 36.1677924], [-95.7997953, 36.1677935], [-95.7998009, 36.1672015], [-95.7997103, 36.1671992], [-95.7997188, 36.1668701]]]}, "properties": {"osm_id": 1216920390, "building": "yes", "name": "", "height": null, "height_m": null, "levels": null, "tract_id": "40131050407", "tract_name": "504.07", "tags": {"building": "yes"}}}, {"type": "Feature", "geometry": {"type": "Polygon", "coordinates": [[[-95.7990166, 36.1674735], [-95.7985934, 36.1674781], [-95.7985877, 36.1674438], [-95.7981602, 36.167445], [-95.7981602, 36.1677284], [-95.7985183, 36.1677295], [-95.7985197, 36.1676987], [-95.7990096, 36.1676975], [-95.7990166, 36.1674735]]]}, "properties": {"osm_id": 1216920391, "building": "yes", "name": "", "height": null, "height_m": null, "levels": null, "tract_id": "40131050407", "tract_name": "504.07", "tags": {"building": "yes"}}}, {"type": "Feature", "geometry": {"type": "Polygon", "coordinates": [[[-95.7971767, 36.1681926], [-95.7967263, 36.1681919], [-95.7967279, 36.168362], [-95.7971759, 36.1683626], [-95.7971767, 36.1681926]]]}, "properties": {"osm_id": 1216920392, "building": "yes", "name": "", "height": null, "height_m": null, "levels": null, "tract_id": "40131050407", "tract_name": "504.07", "tags": {"building": "yes"}}}, {"type": "Feature", "geometry": {"type": "Polygon", "coordinates": [[[-95.797273, 36.167725], [-95.7971104, 36.167723], [-95.7971007, 36.1678628], [-95.7972682, 36.1678635], [-95.797273, 36.167725]]]}, "properties": {"osm_id": 1216920393, "building": "yes", "name": "", "height": null, "height_m": null, "levels": null, "tract_id": "40131050407", "tract_name": "504.07", "tags": {"building": "yes"}}}, {"type": "Feature", "geometry": {"type": "Polygon", "coordinates": [[[-95.7994312, 36.1683697], [-95.7992686, 36.1686519], [-95.7993369, 36.1686769], [-95.7992296, 36.1688659], [-95.7991759, 36.1688383], [-95.7989288, 36.1692414], [-95.7986035, 36.1691232], [-95.7987466, 36.1688777], [-95.7987222, 36.1688659], [-95.7988149, 36.168711], [-95.7990166, 36.1683657], [-95.799041, 36.1683683], [-95.7991076, 36.1682423], [-95.7994312, 36.1683697]]]}, "properties": {"osm_id": 1216920394, "building": "yes", "name": "", "height": null, "height_m": null, "levels": null, "tract_id": "40131050407", "tract_name": "504.07", "tags": {"building": "yes"}}}, {"type": "Feature", "geometry": {"type": "Polygon", "coordinates": [[[-95.7958121, 36.1662173], [-95.7950589, 36.1662104], [-95.7950546, 36.1678457], [-95.7958057, 36.1678491], [-95.7958121, 36.1662173]]]}, "properties": {"osm_id": 1216920395, "building": "yes", "name": "", "height": null, "height_m": null, "levels": null, "tract_id": "40131050407", "tract_name": "504.07", "tags": {"building": "yes"}}}, {"type": "Feature", "geometry": {"type": "Polygon", "coordinates": [[[-95.7971784, 36.1686848], [-95.7964971, 36.1686831], [-95.7964961, 36.1688511], [-95.7968405, 36.1688537], [-95.7968458, 36.1688771], [-95.7966591, 36.1688753], [-95.796657, 36.1692452], [-95.7969756, 36.1692452], [-95.7969714, 36.1694478], [-95.7971816, 36.169453], [-95.7971795, 36.1691759], [-95.7969263, 36.1691741], [-95.7969274, 36.1688545], [-95.7971741, 36.1688519], [-95.7971784, 36.1686848]]]}, "properties": {"osm_id": 1216920396, "building": "yes", "name": "", "height": null, "height_m": null, "levels": null, "tract_id": "40131050407", "tract_name": "504.07", "tags": {"building": "yes"}}}, {"type": "Feature", "geometry": {"type": "Polygon", "coordinates": [[[-95.7957749, 36.1693191], [-95.7957712, 36.1691547], [-95.7954359, 36.1691532], [-95.7954368, 36.1693206], [-95.7957749, 36.1693191]]]}, "properties": {"osm_id": 1216920397, "building": "yes", "name": "", "height": null, "height_m": null, "levels": null, "tract_id": "40131050407", "tract_name": "504.07", "tags": {"building": "yes"}}}, {"type": "Feature", "geometry": {"type": "Polygon", "coordinates": [[[-95.7964827, 36.1698582], [-95.7960662, 36.1698552], [-95.7960687, 36.1698751], [-95.7956422, 36.1698771], [-95.7956496, 36.1700442], [-95.7960699, 36.1700472], [-95.7960736, 36.1701258], [-95.7958554, 36.1701258], [-95.7958567, 36.1701686], [-95.7956188, 36.1701646], [-95.7956188, 36.1705854], [-95.7972792, 36.1705969], [-95.797283, 36.1701626], [-95.7966292, 36.1701694], [-95.7966198, 36.1700707], [-95.7964835, 36.1700714], [-95.7964827, 36.1698582]]]}, "properties": {"osm_id": 1216920398, "building": "yes", "name": "", "height": null, "height_m": null, "levels": null, "tract_id": "40131050407", "tract_name": "504.07", "tags": {"building": "yes"}}}, {"type": "Feature", "geometry": {"type": "Polygon", "coordinates": [[[-95.788041, 36.1820069], [-95.7880389, 36.1822725], [-95.7889616, 36.1822774], [-95.7889638, 36.1820116], [-95.788041, 36.1820069]]]}, "properties": {"osm_id": 1329509949, "building": "industrial", "name": "", "height": null, "height_m": null, "levels": null, "tract_id": "40131050407", "tract_name": "504.07", "tags": {"building": "industrial"}}}, {"type": "Feature", "geometry": {"type": "Polygon", "coordinates": [[[-95.7898978, 36.1844701], [-95.7898961, 36.1850197], [-95.7909388, 36.1850217], [-95.7909404, 36.184472], [-95.7898978, 36.1844701]]]}, "properties": {"osm_id": 1329509950, "building": "industrial", "name": "", "height": null, "height_m": null, "levels": null, "tract_id": "40131050407", "tract_name": "504.07", "tags": {"building": "industrial"}}}, {"type": "Feature", "geometry": {"type": "Polygon", "coordinates": [[[-95.8025588, 36.1637247], [-95.8025615, 36.1632472], [-95.8028017, 36.1632481], [-95.802799, 36.1637256], [-95.8025588, 36.1637247]]]}, "properties": {"osm_id": 1344892363, "building": "industrial", "name": "BD Energy Systems", "height": null, "height_m": 6.0, "levels": 2, "tract_id": "40131050407", "tract_name": "504.07", "tags": {"building": "industrial", "building:levels": "2", "name": "BD Energy Systems", "roof:levels": "0", "roof:orientation": "along", "roof:shape": "gabled", "shop": "trade"}}}, {"type": "Feature", "geometry": {"type": "Polygon", "coordinates": [[[-95.8022162, 36.163717], [-95.8022189, 36.1632395], [-95.8024591, 36.1632404], [-95.8024564, 36.1637179], [-95.8022162, 36.163717]]]}, "properties": {"osm_id": 1344892364, "building": "industrial", "name": "Primoris", "height": null, "height_m": 6.0, "levels": 2, "tract_id": "40131050407", "tract_name": "504.07", "tags": {"building": "industrial", "building:levels": "2", "check_date": "2024-06-30", "name": "Primoris", "roof:levels": "0", "roof:orientation": "along", "roof:shape": "gabled", "shop": "trade"}}}, {"type": "Feature", "geometry": {"type": "Polygon", "coordinates": [[[-95.7972897, 36.1639936], [-95.7968479, 36.163992], [-95.7968486, 36.1638644], [-95.7972904, 36.163866], [-95.7972897, 36.1639936]]]}, "properties": {"osm_id": 1344892366, "building": "industrial", "name": "Jake's Fireworks", "height": null, "height_m": null, "levels": null, "tract_id": "40131050407", "tract_name": "504.07", "tags": {"building": "industrial", "check_date": "2024-06-30", "name": "Jake's Fireworks", "shop": "pyrotechnics"}}}, {"type": "Feature", "geometry": {"type": "Polygon", "coordinates": [[[-95.794, 36.1644402], [-95.7932657, 36.1644392], [-95.7932663, 36.1641582], [-95.7937324, 36.1641589], [-95.7937325, 36.1641019], [-95.7939389, 36.1641022], [-95.7940006, 36.1641517], [-95.794, 36.1644402]]]}, "properties": {"osm_id": 1344892367, "building": "industrial", "name": "Cummins", "height": null, "height_m": null, "levels": null, "tract_id": "40131050407", "tract_name": "504.07", "tags": {"building": "industrial", "check_date": "2024-06-30", "name": "Cummins", "shop": "truck_repair"}}}, {"type": "Feature", "geometry": {"type": "Polygon", "coordinates": [[[-95.7965514, 36.1651516], [-95.796553, 36.164831], [-95.7969056, 36.1648322], [-95.796904, 36.1651527], [-95.7965514, 36.1651516]]]}, "properties": {"osm_id": 1353926900, "building": "industrial", "name": "Boss Truck Shop", "height": null, "height_m": null, "levels": null, "tract_id": "40131050407", "tract_name": "504.07", "tags": {"brand": "Boss Truck Shop", "building": "industrial", "name": "Boss Truck Shop", "phone": "+1 918 437 0822", "service:vehicle:truck_repair": "yes", "shop": "truck_repair", "website": "https://bosstruckshops.com/locations/tulsa-ok-boss-truck-shop/"}}}, {"type": "Feature", "geometry": {"type": "Polygon", "coordinates": [[[-95.7947986, 36.1648149], [-95.7946955, 36.1648145], [-95.7946967, 36.1646156], [-95.7947998, 36.1646161], [-95.7947986, 36.1648149]]]}, "properties": {"osm_id": 1353926901, "building": "roof", "name": "", "height": null, "height_m": null, "levels": null, "tract_id": "40131050407", "tract_name": "504.07", "tags": {"building": "roof"}}}]}