{"type": "FeatureCollection", "features": [{"type": "Feature", "geometry": {"type": "Polygon", "coordinates": [[[-95.3767454, 35.9601196], [-95.3765477, 35.960112], [-95.3765495, 35.9600806], [-95.3765531, 35.9600209], [-95.3765606, 35.9598931], [-95.3767584, 35.9599008], [-95.3767454, 35.9601196]]]}, "properties": {"osm_id": 245145505, "building": "yes", "name": "Blue Sky Bank", "height": null, "height_m": null, "levels": null, "tract_id": "40145030101", "tract_name": "301.01", "tags": {"addr:city": "Wagoner", "addr:housenumber": "201", "addr:postcode": "74467", "addr:street": "East Cherokee Street", "amenity": "bank", "building": "yes", "fixme": "Name changed. See if phone number and opening hours also changed.", "name": "Blue Sky Bank", "opening_hours": "Mo-Fr 09:00-16:00", "phone": "+1-918-485-5555", "was:name": "American Bank"}}}, {"type": "Feature", "geometry": {"type": "Polygon", "coordinates": [[[-95.3776362, 35.960358], [-95.3775371, 35.9603536], [-95.3770726, 35.9603331], [-95.3770857, 35.9601954], [-95.3776488, 35.960223], [-95.3776362, 35.960358]]]}, "properties": {"osm_id": 245145538, "building": "yes", "name": "Moon\u2019s Alley on Main", "height": null, "height_m": null, "levels": null, "tract_id": "40145030101", "tract_name": "301.01", "tags": {"addr:housenumber": "123", "addr:street": "North Main Street", "building": "yes", "check_date": "2025-08-15", "internet_access": "wlan", "leisure": "sports_centre", "name": "Moon\u2019s Alley on Main", "payment:apple_pay": "yes", "payment:cash": "yes", "payment:contactless": "yes", "payment:credit_cards": "yes", "payment:debit_cards": "yes", "phone": "+1 (918) 201-4072", "sport": "10pin"}}}, {"type": "Feature", "geometry": {"type": "Polygon", "coordinates": [[[-95.3250137, 35.9642751], [-95.3247525, 35.9642862], [-95.3247495, 35.9642391], [-95.3250106, 35.9642281], [-95.3250137, 35.9642751]]]}, "properties": {"osm_id": 258559785, "building": "yes", "name": "", "height": null, "height_m": null, "levels": null, "tract_id": "40145030101", "tract_name": "301.01", "tags": {"addr:city": "Wagoner", "addr:country": "US", "addr:housenumber": "72636", "addr:postcode": "74467", "addr:street": "South 314 Way", "building": "yes"}}}, {"type": "Feature", "geometry": {"type": "Polygon", "coordinates": [[[-95.3940009, 35.9605607], [-95.3940572, 35.9605751], [-95.3940392, 35.9606214], [-95.3939885, 35.9606085], [-95.3939613, 35.9606786], [-95.3939361, 35.9606722], [-95.393922, 35.9607083], [-95.3938317, 35.9606853], [-95.3938465, 35.9606473], [-95.3938184, 35.9606401], [-95.3939068, 35.9604125], [-95.3940448, 35.9604477], [-95.3940009, 35.9605607]]]}, "properties": {"osm_id": 402810181, "building": "commercial", "name": "Arby's", "height": null, "height_m": null, "levels": null, "tract_id": "40145030101", "tract_name": "301.01", "tags": {"addr:city": "Wagoner", "addr:housenumber": "1302", "addr:postcode": "74467", "addr:state": "OK", "addr:street": "West Cherokee Street", "amenity": "fast_food", "brand": "Arby's", "brand:wikidata": "Q630866", "building": "commercial", "check_date": "2024-06-21", "cuisine": "sandwich", "name": "Arby's", "opening_hours": "09:30-23:00", "phone": "+1 918-485-3609", "takeaway": "yes", "website": "https://www.arbys.com/locations/us/ok/wagoner/1302-w--cherokee/store-6207/"}}}, {"type": "Feature", "geometry": {"type": "Polygon", "coordinates": [[[-95.395467, 35.959774], [-95.3951929, 35.9597716], [-95.3951988, 35.959666], [-95.3954716, 35.9596723], [-95.395467, 35.959774]]]}, "properties": {"osm_id": 402810182, "building": "yes", "name": "Taco Bell", "height": null, "height_m": null, "levels": null, "tract_id": "40145030101", "tract_name": "301.01", "tags": {"addr:city": "Wagoner", "addr:housenumber": "1401", "addr:postcode": "74467", "addr:state": "OK", "addr:street": "West Highway 51", "amenity": "fast_food", "brand": "Taco Bell", "brand:wikidata": "Q752941", "building": "yes", "cuisine": "tex-mex", "name": "Taco Bell", "opening_hours": "09:00-02:00", "phone": "+1 918-614-0021", "takeaway": "yes", "website": "https://locations.tacobell.com/ok/wagoner/1401-w-highway-51.html"}}}, {"type": "Feature", "geometry": {"type": "Polygon", "coordinates": [[[-95.3901415, 35.9605086], [-95.3901492, 35.9603636], [-95.3900727, 35.9603609], [-95.390065, 35.9605059], [-95.3901415, 35.9605086]]]}, "properties": {"osm_id": 960103633, "building": "yes", "name": "Sonic", "height": null, "height_m": null, "levels": null, "tract_id": "40145030101", "tract_name": "301.01", "tags": {"amenity": "fast_food", "brand": "Sonic", "brand:wikidata": "Q7561808", "building": "yes", "cuisine": "burger", "drive_in": "yes", "name": "Sonic", "takeaway": "yes"}}}, {"type": "Feature", "geometry": {"type": "Polygon", "coordinates": [[[-95.3719955, 35.9597226], [-95.3717258, 35.9597108], [-95.371716, 35.959857], [-95.3717533, 35.9598586], [-95.3717484, 35.9599316], [-95.3719392, 35.95994], [-95.371944, 35.9598681], [-95.3719856, 35.9598699], [-95.3719955, 35.9597226]]]}, "properties": {"osm_id": 960109169, "building": "yes", "name": "Crossroads Community Church", "height": null, "height_m": null, "levels": null, "tract_id": "40145030101", "tract_name": "301.01", "tags": {"amenity": "place_of_worship", "building": "yes", "name": "Crossroads Community Church", "religion": "christian"}}}, {"type": "Feature", "geometry": {"type": "Polygon", "coordinates": [[[-95.3747201, 35.9601512], [-95.3747336, 35.9599792], [-95.3747018, 35.9599775], [-95.3747044, 35.9599448], [-95.3744924, 35.9599339], [-95.3744946, 35.9599065], [-95.3742878, 35.9598958], [-95.3742946, 35.9598107], [-95.374224, 35.9598071], [-95.3742171, 35.9598947], [-95.3740001, 35.9598835], [-95.373999, 35.9598976], [-95.3735731, 35.959876], [-95.3735539, 35.9601246], [-95.3740408, 35.9601493], [-95.3740448, 35.9600968], [-95.3744682, 35.9601183], [-95.3744667, 35.9601382], [-95.3747201, 35.9601512]]]}, "properties": {"osm_id": 960109173, "building": "yes", "name": "Wagoner County Courthouse", "height": null, "height_m": null, "levels": null, "tract_id": "40145030101", "tract_name": "301.01", "tags": {"amenity": "courthouse", "building": "yes", "name": "Wagoner County Courthouse"}}}, {"type": "Feature", "geometry": {"type": "Polygon", "coordinates": [[[-95.3922163, 35.960516], [-95.3920373, 35.9605074], [-95.3920545, 35.9602743], [-95.3922336, 35.960283], [-95.3922163, 35.960516]]]}, "properties": {"osm_id": 960614070, "building": "yes", "name": "", "height": null, "height_m": null, "levels": null, "tract_id": "40145030101", "tract_name": "301.01", "tags": {"building": "yes", "office": "yes"}}}, {"type": "Feature", "geometry": {"type": "Polygon", "coordinates": [[[-95.3919886, 35.9605048], [-95.3918642, 35.9604991], [-95.3918468, 35.9607444], [-95.391678, 35.9607366], [-95.3917118, 35.960259], [-95.3918741, 35.9602666], [-95.3918684, 35.9603469], [-95.3919994, 35.960353], [-95.3919886, 35.9605048]]]}, "properties": {"osm_id": 960614071, "building": "yes", "name": "", "height": null, "height_m": null, "levels": null, "tract_id": "40145030101", "tract_name": "301.01", "tags": {"building": "yes"}}}, {"type": "Feature", "geometry": {"type": "Polygon", "coordinates": [[[-95.3857633, 35.971051], [-95.3859169, 35.9710589], [-95.3859272, 35.9709268], [-95.3860358, 35.9709324], [-95.3860433, 35.9708362], [-95.3857811, 35.9708228], [-95.3857633, 35.971051]]]}, "properties": {"osm_id": 1149759993, "building": "yes", "name": "", "height": null, "height_m": null, "levels": null, "tract_id": "40145030101", "tract_name": "301.01", "tags": {"amenity": "place_of_worship", "building": "yes", "denomination": "jehovahs_witness", "religion": "christian", "source": "microsoft/BuildingFootprints"}}}, {"type": "Feature", "geometry": {"type": "Polygon", "coordinates": [[[-95.3335831, 35.9607064], [-95.3336202, 35.9607239], [-95.3335126, 35.9608732], [-95.3334755, 35.9608557], [-95.3335831, 35.9607064]]]}, "properties": {"osm_id": 1202529048, "building": "static_caravan", "name": "", "height": null, "height_m": null, "levels": null, "tract_id": "40145030101", "tract_name": "301.01", "tags": {"building": "static_caravan"}}}, {"type": "Feature", "geometry": {"type": "Polygon", "coordinates": [[[-95.3333044, 35.9611543], [-95.3329745, 35.9611218], [-95.3329864, 35.9610429], [-95.3333163, 35.9610755], [-95.3333044, 35.9611543]]]}, "properties": {"osm_id": 1202529049, "building": "commercial", "name": "", "height": null, "height_m": null, "levels": null, "tract_id": "40145030101", "tract_name": "301.01", "tags": {"building": "commercial"}}}, {"type": "Feature", "geometry": {"type": "Polygon", "coordinates": [[[-95.333012, 35.9617036], [-95.3328431, 35.9616602], [-95.3328786, 35.9615696], [-95.3330476, 35.961613], [-95.333012, 35.9617036]]]}, "properties": {"osm_id": 1202529050, "building": "commercial", "name": "", "height": null, "height_m": null, "levels": null, "tract_id": "40145030101", "tract_name": "301.01", "tags": {"building": "commercial"}}}, {"type": "Feature", "geometry": {"type": "Polygon", "coordinates": [[[-95.3988992, 35.9603462], [-95.3988247, 35.9603462], [-95.3988133, 35.9603462], [-95.3988133, 35.9602469], [-95.3987731, 35.9602469], [-95.3987369, 35.9602469], [-95.3987369, 35.9603462], [-95.3987221, 35.9603462], [-95.3986464, 35.9603462], [-95.3986464, 35.9601763], [-95.3988992, 35.9601763], [-95.3988992, 35.9603462]]]}, "properties": {"osm_id": 1215688122, "building": "apartments", "name": "", "height": null, "height_m": null, "levels": null, "tract_id": "40145030101", "tract_name": "301.01", "tags": {"building": "apartments"}}}, {"type": "Feature", "geometry": {"type": "Polygon", "coordinates": [[[-95.3992157, 35.9601768], [-95.3992162, 35.9603483], [-95.3991439, 35.9603484], [-95.3991305, 35.9603485], [-95.3991302, 35.9602467], [-95.3990923, 35.9602468], [-95.3990604, 35.9602469], [-95.3990608, 35.9603486], [-95.3990413, 35.9603487], [-95.3989675, 35.9603488], [-95.3989669, 35.9601774], [-95.3992157, 35.9601768]]]}, "properties": {"osm_id": 1215688123, "building": "apartments", "name": "", "height": null, "height_m": null, "levels": null, "tract_id": "40145030101", "tract_name": "301.01", "tags": {"building": "apartments"}}}, {"type": "Feature", "geometry": {"type": "Polygon", "coordinates": [[[-95.3995697, 35.9600954], [-95.39957, 35.9602078], [-95.3995951, 35.9602077], [-95.3995953, 35.9602967], [-95.3995703, 35.9602968], [-95.3995705, 35.9604048], [-95.3994034, 35.9604051], [-95.3994031, 35.9602962], [-95.399374, 35.9602963], [-95.3993738, 35.9602067], [-95.3994029, 35.9602067], [-95.3994026, 35.9600957], [-95.3995697, 35.9600954]]]}, "properties": {"osm_id": 1215688129, "building": "apartments", "name": "", "height": null, "height_m": null, "levels": null, "tract_id": "40145030101", "tract_name": "301.01", "tags": {"building": "apartments"}}}, {"type": "Feature", "geometry": {"type": "Polygon", "coordinates": [[[-95.3991986, 35.9594853], [-95.3991103, 35.9594851], [-95.3991107, 35.9593321], [-95.3991991, 35.9593323], [-95.3991986, 35.9594853]]]}, "properties": {"osm_id": 1215688165, "building": "retail", "name": "VN Nails", "height": null, "height_m": null, "levels": null, "tract_id": "40145030101", "tract_name": "301.01", "tags": {"addr:city": "Wagoner", "addr:country": "US", "addr:state": "OK", "beauty": "nails", "building": "retail", "name": "VN Nails", "shop": "beauty"}}}, {"type": "Feature", "geometry": {"type": "Polygon", "coordinates": [[[-95.3991103, 35.9594851], [-95.3989812, 35.9594848], [-95.3989816, 35.9593318], [-95.3991107, 35.9593321], [-95.3991103, 35.9594851]]]}, "properties": {"osm_id": 1215688166, "building": "retail", "name": "Mo's Cafe", "height": null, "height_m": null, "levels": null, "tract_id": "40145030101", "tract_name": "301.01", "tags": {"addr:city": "Wagoner", "addr:country": "US", "addr:state": "OK", "amenity": "restaurant", "building": "retail", "name": "Mo's Cafe"}}}, {"type": "Feature", "geometry": {"type": "Polygon", "coordinates": [[[-95.3993674, 35.9594856], [-95.3991986, 35.9594853], [-95.3991991, 35.9593323], [-95.3993679, 35.9593326], [-95.3993674, 35.9594856]]]}, "properties": {"osm_id": 1215688167, "building": "retail", "name": "Sun Loan Company", "height": null, "height_m": null, "levels": null, "tract_id": "40145030101", "tract_name": "301.01", "tags": {"addr:city": "Wagoner", "addr:country": "US", "addr:state": "OK", "building": "retail", "name": "Sun Loan Company", "shop": "money_lender"}}}, {"type": "Feature", "geometry": {"type": "Polygon", "coordinates": [[[-95.3994864, 35.9594858], [-95.3993674, 35.9594856], [-95.3993679, 35.9593326], [-95.3994869, 35.9593328], [-95.3994864, 35.9594858]]]}, "properties": {"osm_id": 1215688168, "building": "retail", "name": "Jackson Hewitt", "height": null, "height_m": null, "levels": null, "tract_id": "40145030101", "tract_name": "301.01", "tags": {"addr:city": "Wagoner", "addr:country": "US", "addr:state": "OK", "brand": "Jackson Hewitt", "brand:wikidata": "Q6117132", "building": "retail", "name": "Jackson Hewitt", "office": "tax_advisor", "official_name": "Jackson Hewitt Tax Service"}}}, {"type": "Feature", "geometry": {"type": "Polygon", "coordinates": [[[-95.3995686, 35.959486], [-95.3994864, 35.9594858], [-95.3994869, 35.9593328], [-95.399569, 35.959333], [-95.3995686, 35.959486]]]}, "properties": {"osm_id": 1215688169, "building": "retail", "name": "Wagoner Health Curbside", "height": null, "height_m": null, "levels": null, "tract_id": "40145030101", "tract_name": "301.01", "tags": {"addr:city": "Wagoner", "addr:country": "US", "addr:state": "OK", "amenity": "clinic", "building": "retail", "name": "Wagoner Health Curbside"}}}, {"type": "Feature", "geometry": {"type": "Polygon", "coordinates": [[[-95.398721, 35.9607705], [-95.3989016, 35.9607671], [-95.3988986, 35.9606618], [-95.3988079, 35.9606635], [-95.3988084, 35.960679], [-95.3987184, 35.9606807], [-95.398721, 35.9607705]]]}, "properties": {"osm_id": 1215688186, "building": "residential", "name": "", "height": null, "height_m": null, "levels": null, "tract_id": "40145030101", "tract_name": "301.01", "tags": {"building": "residential", "source": "microsoft/BuildingFootprints"}}}, {"type": "Feature", "geometry": {"type": "Polygon", "coordinates": [[[-95.3989609, 35.9606877], [-95.3989605, 35.9607854], [-95.3991643, 35.9607859], [-95.3991646, 35.9607165], [-95.399067, 35.9607162], [-95.3990672, 35.960688], [-95.3989609, 35.9606877]]]}, "properties": {"osm_id": 1215688187, "building": "residential", "name": "", "height": null, "height_m": null, "levels": null, "tract_id": "40145030101", "tract_name": "301.01", "tags": {"building": "residential", "source": "microsoft/BuildingFootprints"}}}, {"type": "Feature", "geometry": {"type": "Polygon", "coordinates": [[[-95.3994148, 35.9606712], [-95.3993344, 35.9606695], [-95.3993331, 35.9607085], [-95.399243, 35.9607065], [-95.3992399, 35.9607987], [-95.3994104, 35.9608025], [-95.3994148, 35.9606712]]]}, "properties": {"osm_id": 1215688188, "building": "residential", "name": "", "height": null, "height_m": null, "levels": null, "tract_id": "40145030101", "tract_name": "301.01", "tags": {"building": "residential", "source": "microsoft/BuildingFootprints"}}}, {"type": "Feature", "geometry": {"type": "Polygon", "coordinates": [[[-95.3995095, 35.9608035], [-95.3996164, 35.9608032], [-95.3996158, 35.9606578], [-95.3994687, 35.9606582], [-95.399469, 35.960745], [-95.3995093, 35.9607449], [-95.3995095, 35.9608035]]]}, "properties": {"osm_id": 1215688189, "building": "residential", "name": "", "height": null, "height_m": null, "levels": null, "tract_id": "40145030101", "tract_name": "301.01", "tags": {"building": "residential", "source": "microsoft/BuildingFootprints"}}}, {"type": "Feature", "geometry": {"type": "Polygon", "coordinates": [[[-95.3987636, 35.9593715], [-95.3986429, 35.9593703], [-95.3986412, 35.9594811], [-95.3987619, 35.9594823], [-95.3987636, 35.9593715]]]}, "properties": {"osm_id": 1215688190, "building": "retail", "name": "Baitmasters Outdoors", "height": null, "height_m": null, "levels": null, "tract_id": "40145030101", "tract_name": "301.01", "tags": {"addr:city": "Wagoner", "addr:country": "US", "addr:housenumber": "1516", "addr:state": "OK", "addr:street": "West Highway 51", "building": "retail", "name": "Baitmasters Outdoors", "shop": "fishing", "source": "microsoft/BuildingFootprints"}}}, {"type": "Feature", "geometry": {"type": "Polygon", "coordinates": [[[-95.4034291, 35.9597903], [-95.4036038, 35.9597942], [-95.403585, 35.9603456], [-95.4031474, 35.9603359], [-95.4031662, 35.9597844], [-95.4033182, 35.9597878], [-95.4033212, 35.9596994], [-95.4034321, 35.9597019], [-95.4034291, 35.9597903]]]}, "properties": {"osm_id": 1235904088, "building": "church", "name": "", "height": null, "height_m": null, "levels": null, "tract_id": "40145030101", "tract_name": "301.01", "tags": {"building": "church"}}}, {"type": "Feature", "geometry": {"type": "Polygon", "coordinates": [[[-95.3699832, 35.9596918], [-95.3699789, 35.9597742], [-95.3698956, 35.9597714], [-95.3698936, 35.9598096], [-95.3698073, 35.9598066], [-95.3698136, 35.959686], [-95.3699832, 35.9596918]]]}, "properties": {"osm_id": 1320811335, "building": "retail", "name": "Russ Restaurant", "height": null, "height_m": null, "levels": null, "tract_id": "40145030101", "tract_name": "301.01", "tags": {"addr:city": "Wagoner", "addr:housenumber": "609", "addr:postcode": "74467", "addr:street": "East Cherokee Street", "amenity": "restaurant", "building": "retail", "cuisine": "american", "name": "Russ Restaurant", "phone": "+1 918 201 7000"}}}, {"type": "Feature", "geometry": {"type": "Polygon", "coordinates": [[[-95.3691186, 35.9596894], [-95.3690106, 35.9596862], [-95.3690173, 35.9595375], [-95.3691253, 35.9595407], [-95.3691186, 35.9596894]]]}, "properties": {"osm_id": 1320811336, "building": "roof", "name": "Stop-N-Go", "height": null, "height_m": null, "levels": null, "tract_id": "40145030101", "tract_name": "301.01", "tags": {"amenity": "fuel", "building": "roof", "layer": "1", "name": "Stop-N-Go"}}}, {"type": "Feature", "geometry": {"type": "Polygon", "coordinates": [[[-95.3693258, 35.9598398], [-95.3691226, 35.9598316], [-95.3691295, 35.9597198], [-95.3693326, 35.959728], [-95.3693258, 35.9598398]]]}, "properties": {"osm_id": 1320811337, "building": "retail", "name": "Stop-N-Go", "height": null, "height_m": null, "levels": null, "tract_id": "40145030101", "tract_name": "301.01", "tags": {"addr:city": "Wagoner", "addr:housenumber": "701", "addr:postcode": "74467", "addr:street": "East Cherokee Street", "building": "retail", "name": "Stop-N-Go", "shop": "convenience"}}}, {"type": "Feature", "geometry": {"type": "Polygon", "coordinates": [[[-95.3765229, 35.9600795], [-95.3764227, 35.9601172], [-95.3763696, 35.9601082], [-95.3763637, 35.9600911], [-95.3763924, 35.9600644], [-95.3765124, 35.9600193], [-95.3765531, 35.9600209], [-95.3765495, 35.9600806], [-95.3765229, 35.9600795]]]}, "properties": {"osm_id": 1373236308, "building": "roof", "name": "", "height": null, "height_m": null, "levels": null, "tract_id": "40145030101", "tract_name": "301.01", "tags": {"building": "roof", "operator": "Blue Sky Bank"}}}, {"type": "Feature", "geometry": {"type": "Polygon", "coordinates": [[[-95.375257, 35.9598193], [-95.3762528, 35.959882], [-95.3762297, 35.9601229], [-95.3761818, 35.9601199], [-95.376173, 35.960212], [-95.3761156, 35.9602085], [-95.3761207, 35.9601551], [-95.3758523, 35.9601385], [-95.375839, 35.9602788], [-95.3756626, 35.9602679], [-95.3756793, 35.9600899], [-95.375305, 35.9600669], [-95.3752984, 35.9601371], [-95.3751764, 35.9601296], [-95.3752016, 35.9598617], [-95.375257, 35.9598193]]]}, "properties": {"osm_id": 1386166204, "building": "yes", "name": "", "height": null, "height_m": null, "levels": null, "tract_id": "40145030101", "tract_name": "301.01", "tags": {"building": "yes"}}}, {"type": "Feature", "geometry": {"type": "Polygon", "coordinates": [[[-95.3765039, 35.9603501], [-95.3767348, 35.9603559], [-95.3767173, 35.9608151], [-95.3763245, 35.9608052], [-95.3763299, 35.9606626], [-95.3764474, 35.9606655], [-95.3764532, 35.9605132], [-95.3764976, 35.9605143], [-95.3765039, 35.9603501]]]}, "properties": {"osm_id": 1386166205, "building": "yes", "name": "", "height": null, "height_m": null, "levels": null, "tract_id": "40145030101", "tract_name": "301.01", "tags": {"building": "yes"}}}, {"type": "Feature", "geometry": {"type": "Polygon", "coordinates": [[[-95.3770967, 35.9600483], [-95.3776598, 35.9600758], [-95.3776488, 35.960223], [-95.3770857, 35.9601954], [-95.3770967, 35.9600483]]]}, "properties": {"osm_id": 1386166207, "building": "yes", "name": "", "height": null, "height_m": null, "levels": null, "tract_id": "40145030101", "tract_name": "301.01", "tags": {"building": "yes"}}}, {"type": "Feature", "geometry": {"type": "Polygon", "coordinates": [[[-95.3770726, 35.9603331], [-95.3770563, 35.9605325], [-95.3775216, 35.9605575], [-95.3775371, 35.9603536], [-95.3770726, 35.9603331]]]}, "properties": {"osm_id": 1386166208, "building": "yes", "name": "", "height": null, "height_m": null, "levels": null, "tract_id": "40145030101", "tract_name": "301.01", "tags": {"building": "yes"}}}, {"type": "Feature", "geometry": {"type": "Polygon", "coordinates": [[[-95.3969814, 35.9600004], [-95.3969814, 35.9598941], [-95.3972469, 35.9598941], [-95.3972469, 35.9600004], [-95.3969814, 35.9600004]]]}, "properties": {"osm_id": 1416231584, "building": "yes", "name": "Daylight Donuts", "height": null, "height_m": null, "levels": null, "tract_id": "40145030101", "tract_name": "301.01", "tags": {"addr:postcode": "74467", "amenity": "fast_food", "building": "yes", "cuisine": "donut", "name": "Daylight Donuts"}}}, {"type": "Feature", "geometry": {"type": "Polygon", "coordinates": [[[-95.3976855, 35.9597584], [-95.3975494, 35.9597729], [-95.3975249, 35.9596234], [-95.3976611, 35.9596089], [-95.3976855, 35.9597584]]]}, "properties": {"osm_id": 1416231585, "building": "roof", "name": "", "height": null, "height_m": null, "levels": null, "tract_id": "40145030101", "tract_name": "301.01", "tags": {"building": "roof"}}}, {"type": "Feature", "geometry": {"type": "Polygon", "coordinates": [[[-95.3976761, 35.959424], [-95.3977055, 35.9596041], [-95.3976611, 35.9596089], [-95.3975249, 35.9596234], [-95.3974721, 35.9596291], [-95.3974427, 35.959449], [-95.3976761, 35.959424]]]}, "properties": {"osm_id": 1416231586, "building": "yes", "name": "Armstrong Bank", "height": null, "height_m": null, "levels": null, "tract_id": "40145030101", "tract_name": "301.01", "tags": {"addr:postcode": "74467", "amenity": "bank", "building": "yes", "name": "Armstrong Bank"}}}, {"type": "Feature", "geometry": {"type": "Polygon", "coordinates": [[[-95.3613903, 35.9628943], [-95.3613861, 35.9627895], [-95.3613859, 35.9627845], [-95.3618074, 35.9627803], [-95.3618118, 35.962743], [-95.3618613, 35.9627437], [-95.3618631, 35.9628718], [-95.3616258, 35.9628746], [-95.3616258, 35.9628865], [-95.3616067, 35.9628865], [-95.3616067, 35.9628922], [-95.3613903, 35.9628943]]]}, "properties": {"osm_id": 1429762822, "building": "school", "name": "", "height": null, "height_m": null, "levels": null, "tract_id": "40145030101", "tract_name": "301.01", "tags": {"building": "school"}}}, {"type": "Feature", "geometry": {"type": "Polygon", "coordinates": [[[-95.3609518, 35.9617963], [-95.3609511, 35.9615937], [-95.3608878, 35.9615901], [-95.3608885, 35.9617963], [-95.3609518, 35.9617963]]]}, "properties": {"osm_id": 1429762824, "building": "school", "name": "", "height": null, "height_m": null, "levels": null, "tract_id": "40145030101", "tract_name": "301.01", "tags": {"building": "school"}}}, {"type": "Feature", "geometry": {"type": "Polygon", "coordinates": [[[-95.3612123, 35.9615311], [-95.3612053, 35.961363], [-95.3618102, 35.9613588], [-95.3618102, 35.9614699], [-95.3618102, 35.961548], [-95.3614313, 35.9615473], [-95.3614287, 35.9615318], [-95.3612123, 35.9615311]]]}, "properties": {"osm_id": 1429762827, "building": "school", "name": "", "height": null, "height_m": null, "levels": null, "tract_id": "40145030101", "tract_name": "301.01", "tags": {"building": "school"}}}, {"type": "Feature", "geometry": {"type": "Polygon", "coordinates": [[[-95.3618171, 35.962229], [-95.3618459, 35.962229], [-95.3618415, 35.9620749], [-95.3618146, 35.9620742], [-95.3618171, 35.962229]]]}, "properties": {"osm_id": 1429762831, "building": "school", "name": "", "height": null, "height_m": null, "levels": null, "tract_id": "40145030101", "tract_name": "301.01", "tags": {"building": "school"}}}, {"type": "Feature", "geometry": {"type": "Polygon", "coordinates": [[[-95.3617648, 35.9626668], [-95.361767, 35.9625493], [-95.3618726, 35.9625505], [-95.3618704, 35.9626681], [-95.3617648, 35.9626668]]]}, "properties": {"osm_id": 1429762833, "building": "school", "name": "", "height": null, "height_m": null, "levels": null, "tract_id": "40145030101", "tract_name": "301.01", "tags": {"building": "school"}}}, {"type": "Feature", "geometry": {"type": "Polygon", "coordinates": [[[-95.3619448, 35.9619455], [-95.3619447, 35.9619191], [-95.3619284, 35.9619191], [-95.3618939, 35.9619192], [-95.361894, 35.9619456], [-95.3619448, 35.9619455]]]}, "properties": {"osm_id": 1429762835, "building": "yes", "name": "", "height": null, "height_m": null, "levels": null, "tract_id": "40145030101", "tract_name": "301.01", "tags": {"building": "yes", "shop": "ticket"}}}, {"type": "Feature", "geometry": {"type": "Polygon", "coordinates": [[[-95.3192732, 35.9695101], [-95.3192832, 35.9695102], [-95.3192818, 35.9696127], [-95.3191873, 35.9696119], [-95.3191886, 35.9695094], [-95.3192147, 35.9695096], [-95.3192153, 35.9694673], [-95.3192738, 35.9694678], [-95.3192732, 35.9695101]]]}, "properties": {"osm_id": 1432453351, "building": "yes", "name": "", "height": null, "height_m": null, "levels": null, "tract_id": "40145030101", "tract_name": "301.01", "tags": {"building": "yes"}}}, {"type": "Feature", "geometry": {"type": "Polygon", "coordinates": [[[-95.3190957, 35.969468], [-95.3191672, 35.969556], [-95.3190558, 35.9696153], [-95.3189843, 35.9695273], [-95.3190957, 35.969468]]]}, "properties": {"osm_id": 1432453352, "building": "house", "name": "", "height": null, "height_m": null, "levels": null, "tract_id": "40145030101", "tract_name": "301.01", "tags": {"building": "house"}}}, {"type": "Feature", "geometry": {"type": "Polygon", "coordinates": [[[-95.3184785, 35.969553], [-95.3185993, 35.969554], [-95.318598, 35.9696565], [-95.318551, 35.9696561], [-95.3185503, 35.9697154], [-95.3184765, 35.9697148], [-95.3184785, 35.969553]]]}, "properties": {"osm_id": 1432453353, "building": "house", "name": "", "height": null, "height_m": null, "levels": null, "tract_id": "40145030101", "tract_name": "301.01", "tags": {"building": "house"}}}, {"type": "Feature", "geometry": {"type": "Polygon", "coordinates": [[[-95.3186401, 35.9691742], [-95.318455, 35.9691737], [-95.3184554, 35.9690961], [-95.3186404, 35.9690966], [-95.3186401, 35.9691742]]]}, "properties": {"osm_id": 1432453354, "building": "house", "name": "", "height": null, "height_m": null, "levels": null, "tract_id": "40145030101", "tract_name": "301.01", "tags": {"building": "house"}}}]}