{"type": "FeatureCollection", "features": [{"type": "Feature", "geometry": {"type": "Polygon", "coordinates": [[[-95.345285, 35.6605595], [-95.3451462, 35.6605578], [-95.3451499, 35.6603624], [-95.3452318, 35.6603635], [-95.3452315, 35.6603823], [-95.3452883, 35.660383], [-95.345285, 35.6605595]]]}, "properties": {"osm_id": 185736818, "building": "house", "name": "", "height": null, "height_m": null, "levels": null, "tract_id": "40101000600", "tract_name": "6", "tags": {"building": "house"}}}, {"type": "Feature", "geometry": {"type": "Polygon", "coordinates": [[[-95.3591062, 35.6598634], [-95.3593674, 35.6598645], [-95.3593687, 35.6596681], [-95.3591075, 35.6596669], [-95.3591062, 35.6598634]]]}, "properties": {"osm_id": 210778415, "building": "hangar", "name": "", "height": null, "height_m": null, "levels": null, "tract_id": "40101000600", "tract_name": "6", "tags": {"aeroway": "hangar", "building": "hangar"}}}, {"type": "Feature", "geometry": {"type": "Polygon", "coordinates": [[[-95.359381, 35.6618337], [-95.3583035, 35.6618337], [-95.3583027, 35.6617248], [-95.3593756, 35.6617248], [-95.359381, 35.6618337]]]}, "properties": {"osm_id": 210778417, "building": "hangar", "name": "", "height": null, "height_m": null, "levels": null, "tract_id": "40101000600", "tract_name": "6", "tags": {"aeroway": "hangar", "building": "hangar"}}}, {"type": "Feature", "geometry": {"type": "Polygon", "coordinates": [[[-95.3593717, 35.6614057], [-95.3590961, 35.6614076], [-95.3590927, 35.6610806], [-95.3593683, 35.6610788], [-95.3593697, 35.6612192], [-95.3593713, 35.6613716], [-95.3593717, 35.6614057]]]}, "properties": {"osm_id": 210778423, "building": "hangar", "name": "", "height": null, "height_m": null, "levels": null, "tract_id": "40101000600", "tract_name": "6", "tags": {"aeroway": "hangar", "building": "hangar"}}}, {"type": "Feature", "geometry": {"type": "Polygon", "coordinates": [[[-95.359381, 35.6621039], [-95.3583081, 35.6620821], [-95.3582974, 35.6619558], [-95.3593756, 35.6619601], [-95.359381, 35.6621039]]]}, "properties": {"osm_id": 210778434, "building": "hangar", "name": "", "height": null, "height_m": null, "levels": null, "tract_id": "40101000600", "tract_name": "6", "tags": {"aeroway": "hangar", "building": "hangar"}}}, {"type": "Feature", "geometry": {"type": "Polygon", "coordinates": [[[-95.3593654, 35.658787], [-95.3586767, 35.6587873], [-95.3586766, 35.6584456], [-95.3593652, 35.6584454], [-95.3593652, 35.6584951], [-95.3593654, 35.6587435], [-95.3593654, 35.658787]]]}, "properties": {"osm_id": 210778441, "building": "hangar", "name": "", "height": null, "height_m": null, "levels": null, "tract_id": "40101000600", "tract_name": "6", "tags": {"aeroway": "hangar", "building": "hangar"}}}, {"type": "Feature", "geometry": {"type": "Polygon", "coordinates": [[[-95.3589553, 35.6594276], [-95.3593729, 35.6594263], [-95.3593716, 35.6591423], [-95.3593713, 35.6590921], [-95.3589537, 35.6590934], [-95.3589553, 35.6594276]]]}, "properties": {"osm_id": 210778443, "building": "hangar", "name": "", "height": null, "height_m": null, "levels": null, "tract_id": "40101000600", "tract_name": "6", "tags": {"aeroway": "hangar", "building": "hangar"}}}, {"type": "Feature", "geometry": {"type": "Polygon", "coordinates": [[[-95.359367, 35.66058], [-95.3589318, 35.6605727], [-95.3589404, 35.6602316], [-95.3593756, 35.6602389], [-95.3593736, 35.6603153], [-95.3593698, 35.6604696], [-95.359367, 35.66058]]]}, "properties": {"osm_id": 210778448, "building": "hangar", "name": "", "height": null, "height_m": null, "levels": null, "tract_id": "40101000600", "tract_name": "6", "tags": {"aeroway": "hangar", "building": "hangar"}}}, {"type": "Feature", "geometry": {"type": "Polygon", "coordinates": [[[-95.3594507, 35.6623001], [-95.3582974, 35.6622957], [-95.3583035, 35.6624744], [-95.35944, 35.6624831], [-95.3594507, 35.6623001]]]}, "properties": {"osm_id": 210778449, "building": "hangar", "name": "", "height": null, "height_m": null, "levels": null, "tract_id": "40101000600", "tract_name": "6", "tags": {"aeroway": "hangar", "building": "hangar"}}}, {"type": "Feature", "geometry": {"type": "Polygon", "coordinates": [[[-95.358445, 35.6575831], [-95.3584763, 35.657583], [-95.3590001, 35.6580113], [-95.3589572, 35.6580592], [-95.3586085, 35.6583207], [-95.3580935, 35.6578936], [-95.358445, 35.6575831]]]}, "properties": {"osm_id": 210778451, "building": "hangar", "name": "", "height": null, "height_m": null, "levels": null, "tract_id": "40101000600", "tract_name": "6", "tags": {"aeroway": "hangar", "building": "hangar"}}}, {"type": "Feature", "geometry": {"type": "Polygon", "coordinates": [[[-95.357941, 35.6592731], [-95.357713, 35.6592753], [-95.3577103, 35.6590856], [-95.3579382, 35.6590834], [-95.357941, 35.6592731]]]}, "properties": {"osm_id": 210781938, "building": "hangar", "name": "", "height": null, "height_m": null, "levels": null, "tract_id": "40101000600", "tract_name": "6", "tags": {"aeroway": "hangar", "building": "hangar"}}}, {"type": "Feature", "geometry": {"type": "Polygon", "coordinates": [[[-95.3579376, 35.6608303], [-95.3577142, 35.66083], [-95.3577145, 35.6606599], [-95.357938, 35.6606603], [-95.3579376, 35.6608303]]]}, "properties": {"osm_id": 210781940, "building": "hangar", "name": "", "height": null, "height_m": null, "levels": null, "tract_id": "40101000600", "tract_name": "6", "tags": {"aeroway": "hangar", "building": "hangar"}}}, {"type": "Feature", "geometry": {"type": "Polygon", "coordinates": [[[-95.3585303, 35.659271], [-95.3582616, 35.6592698], [-95.3582632, 35.6590577], [-95.3585318, 35.6590589], [-95.3585303, 35.659271]]]}, "properties": {"osm_id": 210781943, "building": "hangar", "name": "", "height": null, "height_m": null, "levels": null, "tract_id": "40101000600", "tract_name": "6", "tags": {"aeroway": "hangar", "building": "hangar"}}}, {"type": "Feature", "geometry": {"type": "Polygon", "coordinates": [[[-95.3892119, 35.703973], [-95.3892119, 35.7030059], [-95.3857992, 35.70299], [-95.3858103, 35.704395], [-95.3854559, 35.7043946], [-95.3854769, 35.7064468], [-95.3856393, 35.7064438], [-95.3856269, 35.7078856], [-95.3855256, 35.7078808], [-95.3855245, 35.7080945], [-95.3853578, 35.7080946], [-95.3853686, 35.7082896], [-95.3854483, 35.7082875], [-95.385445, 35.7083615], [-95.3858102, 35.7083614], [-95.3857994, 35.7089538], [-95.3864557, 35.708954], [-95.3864641, 35.7090664], [-95.386873, 35.7090605], [-95.3868711, 35.7089439], [-95.3873894, 35.7089484], [-95.3873922, 35.7086059], [-95.3874413, 35.7086078], [-95.38744, 35.7083407], [-95.3871862, 35.7083419], [-95.3871837, 35.7081362], [-95.3872684, 35.7081381], [-95.3872689, 35.707911], [-95.3870307, 35.7079087], [-95.3870472, 35.7064425], [-95.3869211, 35.7064403], [-95.3869003, 35.7048039], [-95.3870535, 35.7048002], [-95.3870443, 35.7041105], [-95.3872005, 35.7041072], [-95.3872057, 35.70398], [-95.3892119, 35.703973]]]}, "properties": {"osm_id": 233959152, "building": "factory", "name": "Dal Tile", "height": null, "height_m": null, "levels": null, "tract_id": "40101000600", "tract_name": "6", "tags": {"addr:housename": "Dal Tile", "addr:housenumber": "3801", "addr:postcode": "74401", "addr:street": "Dal Tile Road", "building": "factory", "name": "Dal Tile"}}}, {"type": "Feature", "geometry": {"type": "Polygon", "coordinates": [[[-95.3885713, 35.7089523], [-95.3877372, 35.7089436], [-95.3877415, 35.708669], [-95.3885757, 35.7086777], [-95.3885713, 35.7089523]]]}, "properties": {"osm_id": 488912166, "building": "yes", "name": "", "height": null, "height_m": null, "levels": null, "tract_id": "40101000600", "tract_name": "6", "tags": {"building": "yes"}}}, {"type": "Feature", "geometry": {"type": "Polygon", "coordinates": [[[-95.3845252, 35.7124848], [-95.3841105, 35.7124733], [-95.3841279, 35.7120606], [-95.3845426, 35.7120721], [-95.3845252, 35.7124848]]]}, "properties": {"osm_id": 488912169, "building": "yes", "name": "", "height": null, "height_m": null, "levels": null, "tract_id": "40101000600", "tract_name": "6", "tags": {"building": "yes"}}}, {"type": "Feature", "geometry": {"type": "Polygon", "coordinates": [[[-95.3692398, 35.6943498], [-95.3687311, 35.6943557], [-95.368729, 35.6942351], [-95.3692377, 35.6942292], [-95.3692398, 35.6943498]]]}, "properties": {"osm_id": 987682290, "building": "yes", "name": "", "height": null, "height_m": null, "levels": null, "tract_id": "40101000600", "tract_name": "6", "tags": {"building": "yes"}}}, {"type": "Feature", "geometry": {"type": "Polygon", "coordinates": [[[-95.3685126, 35.6942471], [-95.3683969, 35.6942071], [-95.368411, 35.6941803], [-95.3683953, 35.6941748], [-95.3684291, 35.6941103], [-95.3684519, 35.6941182], [-95.3684851, 35.6940549], [-95.3685936, 35.6940924], [-95.3685126, 35.6942471]]]}, "properties": {"osm_id": 987682291, "building": "yes", "name": "", "height": null, "height_m": null, "levels": null, "tract_id": "40101000600", "tract_name": "6", "tags": {"building": "yes"}}}, {"type": "Feature", "geometry": {"type": "Polygon", "coordinates": [[[-95.369177, 35.6938114], [-95.3691119, 35.6937691], [-95.3691434, 35.6937371], [-95.3690624, 35.6936845], [-95.3691518, 35.6935938], [-95.3692979, 35.6936887], [-95.369177, 35.6938114]]]}, "properties": {"osm_id": 987682292, "building": "yes", "name": "", "height": null, "height_m": null, "levels": null, "tract_id": "40101000600", "tract_name": "6", "tags": {"building": "yes"}}}, {"type": "Feature", "geometry": {"type": "Polygon", "coordinates": [[[-95.3756992, 35.7263632], [-95.3757002, 35.7262927], [-95.3755952, 35.7262918], [-95.3755954, 35.7262761], [-95.3755568, 35.7262758], [-95.3755566, 35.7262943], [-95.3755316, 35.7262941], [-95.3755307, 35.7263618], [-95.3756992, 35.7263632]]]}, "properties": {"osm_id": 987686766, "building": "yes", "name": "", "height": null, "height_m": null, "levels": null, "tract_id": "40101000600", "tract_name": "6", "tags": {"building": "yes"}}}, {"type": "Feature", "geometry": {"type": "Polygon", "coordinates": [[[-95.3764396, 35.7265479], [-95.3762622, 35.726539], [-95.3762508, 35.7266895], [-95.3762737, 35.7266907], [-95.3762707, 35.7267306], [-95.3762615, 35.7267301], [-95.3762573, 35.7267861], [-95.3764381, 35.7267951], [-95.3764435, 35.7267244], [-95.3764134, 35.7267229], [-95.3764161, 35.7266878], [-95.3764089, 35.7266875], [-95.3764132, 35.7266297], [-95.3764333, 35.7266307], [-95.3764396, 35.7265479]]]}, "properties": {"osm_id": 987686767, "building": "yes", "name": "", "height": null, "height_m": null, "levels": null, "tract_id": "40101000600", "tract_name": "6", "tags": {"building": "yes"}}}, {"type": "Feature", "geometry": {"type": "Polygon", "coordinates": [[[-95.3733902, 35.7453543], [-95.3734946, 35.7451511], [-95.3729259, 35.7449605], [-95.3728633, 35.7450664], [-95.3731502, 35.7451722], [-95.3731137, 35.7452696], [-95.3733902, 35.7453543]]]}, "properties": {"osm_id": 1057391436, "building": "yes", "name": "", "height": null, "height_m": null, "levels": null, "tract_id": "40101000600", "tract_name": "6", "tags": {"addr:city": "Muskogee", "addr:housenumber": "502", "addr:postcode": "74401", "addr:state": "OK", "addr:street": "South 3rd Street", "building": "yes"}}}, {"type": "Feature", "geometry": {"type": "Polygon", "coordinates": [[[-95.3771234, 35.6647384], [-95.3766935, 35.6647401], [-95.3766874, 35.6645477], [-95.3771244, 35.6645452], [-95.3771234, 35.6647384]]]}, "properties": {"osm_id": 1230463810, "building": "yes", "name": "Dollar General", "height": null, "height_m": null, "levels": null, "tract_id": "40101000600", "tract_name": "6", "tags": {"brand": "Dollar General", "brand:wikidata": "Q145168", "building": "yes", "name": "Dollar General", "shop": "variety_store", "website": "https://www.dollargeneral.com/store-directory/ok/muskogee/14061"}}}, {"type": "Feature", "geometry": {"type": "Polygon", "coordinates": [[[-95.3765516, 35.6820537], [-95.3765515, 35.6819358], [-95.3766557, 35.6819358], [-95.3766556, 35.6817888], [-95.3771425, 35.6817886], [-95.3771427, 35.6820533], [-95.3765516, 35.6820537]]]}, "properties": {"osm_id": 1351847364, "building": "industrial", "name": "Nasuni Corporation", "height": null, "height_m": null, "levels": null, "tract_id": "40101000600", "tract_name": "6", "tags": {"addr:city": "Muskogee", "addr:housenumber": "5301", "addr:postcode": "74403", "addr:street": "South Cherokee Street", "building": "industrial", "name": "Nasuni Corporation"}}}, {"type": "Feature", "geometry": {"type": "Polygon", "coordinates": [[[-95.3732623, 35.7403643], [-95.3730645, 35.7402912], [-95.3729954, 35.7404145], [-95.3731932, 35.7404876], [-95.3732623, 35.7403643]]]}, "properties": {"osm_id": 1424484903, "building": "yes", "name": "Re-Up Cannabis Dispensary", "height": null, "height_m": null, "levels": null, "tract_id": "40101000600", "tract_name": "6", "tags": {"addr:city": "Muskogee", "addr:housenumber": "29", "addr:postcode": "74401", "addr:state": "OK", "addr:street": "West Southside Boulevard", "building": "yes", "name": "Re-Up Cannabis Dispensary", "opening_hours": "Mo-Th 08:00-22:30, Fr-Sa 08:00-23:30, Su 09:00-22:30", "phone": "+1-918-913-7316", "shop": "cannabis"}}}, {"type": "Feature", "geometry": {"type": "Polygon", "coordinates": [[[-95.3741298, 35.7459856], [-95.3741681, 35.7458629], [-95.3734363, 35.7457021], [-95.3734015, 35.745798], [-95.3734936, 35.7458149], [-95.3734867, 35.7458375], [-95.3741298, 35.7459856]]]}, "properties": {"osm_id": 1424484904, "building": "yes", "name": "Oklahoma Music Hall of Fame", "height": null, "height_m": null, "levels": null, "tract_id": "40101000600", "tract_name": "6", "tags": {"addr:city": "Muskogee", "addr:housenumber": "401", "addr:postcode": "74401", "addr:state": "OK", "addr:street": "South 3rd Street", "building": "yes", "name": "Oklahoma Music Hall of Fame", "tourism": "museum"}}}, {"type": "Feature", "geometry": {"type": "Polygon", "coordinates": [[[-95.3657368, 35.7391649], [-95.3659293, 35.7388177], [-95.365805, 35.7387717], [-95.3657622, 35.7388479], [-95.3652942, 35.7386748], [-95.365192, 35.7388603], [-95.3656649, 35.7390329], [-95.3656162, 35.7391209], [-95.3657368, 35.7391649]]]}, "properties": {"osm_id": 1433111002, "building": "yes", "name": "Immanuel Baptist Church", "height": null, "height_m": null, "levels": null, "tract_id": "40101000600", "tract_name": "6", "tags": {"addr:city": "Muskogee", "addr:housenumber": "711", "addr:postcode": "74403", "addr:state": "OK", "addr:street": "Spaulding Boulevard", "amenity": "place_of_worship", "area": "yes", "building": "yes", "denomination": "southern_baptist", "ele": "170", "gnis:feature_id": "1799033", "name": "Immanuel Baptist Church", "religion": "christian"}}}, {"type": "Feature", "geometry": {"type": "Polygon", "coordinates": [[[-95.3806046, 35.742268], [-95.3800759, 35.7420808], [-95.3799218, 35.7423676], [-95.380204, 35.7424675], [-95.3801875, 35.7424983], [-95.3802682, 35.7425269], [-95.3802776, 35.7425095], [-95.3804432, 35.7425682], [-95.3806046, 35.742268]]]}, "properties": {"osm_id": 1433111004, "building": "yes", "name": "Berean Seventh Day Adventist Church", "height": null, "height_m": null, "levels": null, "tract_id": "40101000600", "tract_name": "6", "tags": {"amenity": "place_of_worship", "area": "yes", "building": "yes", "ele": "176", "gnis:feature_id": "1798859", "name": "Berean Seventh Day Adventist Church", "religion": "christian"}}}]}