{"type": "FeatureCollection", "features": [{"type": "Feature", "geometry": {"type": "Polygon", "coordinates": [[[-97.438337, 35.5842919], [-97.4383404, 35.5825665], [-97.4375827, 35.5825655], [-97.4375793, 35.5842909], [-97.438337, 35.5842919]]]}, "properties": {"osm_id": 50800332, "building": "yes", "name": "", "height": null, "height_m": null, "levels": null, "tract_id": "40109108101", "tract_name": "1081.01", "tags": {"building": "yes", "source": "Yahoo"}}}, {"type": "Feature", "geometry": {"type": "Polygon", "coordinates": [[[-97.4342385, 35.5837469], [-97.4367202, 35.5837561], [-97.4367248, 35.5829237], [-97.4342431, 35.5829146], [-97.4342385, 35.5837469]]]}, "properties": {"osm_id": 50800333, "building": "yes", "name": "", "height": null, "height_m": null, "levels": null, "tract_id": "40109108101", "tract_name": "1081.01", "tags": {"building": "yes", "source": "Yahoo"}}}, {"type": "Feature", "geometry": {"type": "Polygon", "coordinates": [[[-97.4369434, 35.5859758], [-97.4347942, 35.5850292], [-97.4351113, 35.584553], [-97.4372606, 35.5854996], [-97.4369434, 35.5859758]]]}, "properties": {"osm_id": 50800334, "building": "yes", "name": "", "height": null, "height_m": null, "levels": null, "tract_id": "40109108101", "tract_name": "1081.01", "tags": {"building": "yes", "source": "Yahoo"}}}, {"type": "Feature", "geometry": {"type": "Polygon", "coordinates": [[[-97.428971, 35.593867], [-97.4289626, 35.593815], [-97.4288425, 35.5935228], [-97.4289278, 35.5935249], [-97.4290463, 35.5938063], [-97.4290536, 35.593871], [-97.428971, 35.593867]]]}, "properties": {"osm_id": 182470899, "building": "roof", "name": "Shell", "height": null, "height_m": null, "levels": null, "tract_id": "40109108101", "tract_name": "1081.01", "tags": {"amenity": "fuel", "brand": "Shell", "brand:wikidata": "Q154950", "building": "roof", "name": "Shell", "source": "Bing", "source:name": "local_knowledge"}}}, {"type": "Feature", "geometry": {"type": "Polygon", "coordinates": [[[-97.4305312, 35.5943439], [-97.4305335, 35.5941679], [-97.4307687, 35.59417], [-97.4307664, 35.5943484], [-97.4306764, 35.5943476], [-97.430676, 35.5943729], [-97.430622, 35.5943724], [-97.4306224, 35.5943447], [-97.4305312, 35.5943439]]]}, "properties": {"osm_id": 182470900, "building": "retail", "name": "IHOP", "height": null, "height_m": null, "levels": null, "tract_id": "40109108101", "tract_name": "1081.01", "tags": {"addr:city": "Oklahoma City", "addr:housenumber": "12230", "addr:postcode": "73131", "addr:state": "OK", "addr:street": "North I-35 Service Road", "amenity": "restaurant", "brand": "IHOP", "brand:wikidata": "Q1185675", "building": "retail", "cuisine": "breakfast;pancake", "name": "IHOP", "source": "Bing", "source:name": "local_knowledge"}}}, {"type": "Feature", "geometry": {"type": "Polygon", "coordinates": [[[-97.4357576, 35.5894376], [-97.4356628, 35.5893971], [-97.4357403, 35.589277], [-97.4358351, 35.5893175], [-97.4357576, 35.5894376]]]}, "properties": {"osm_id": 182470901, "building": "roof", "name": "Diamond Shamrock", "height": null, "height_m": null, "levels": null, "tract_id": "40109108101", "tract_name": "1081.01", "tags": {"amenity": "fuel", "brand": "Diamond Shamrock", "brand:wikidata": "Q16973722", "building": "roof", "name": "Diamond Shamrock", "source": "Bing", "source:name": "local_knowledge"}}}, {"type": "Feature", "geometry": {"type": "Polygon", "coordinates": [[[-97.4289741, 35.5939966], [-97.428971, 35.593867], [-97.4287419, 35.5938706], [-97.4287428, 35.5939105], [-97.4286971, 35.5939112], [-97.4286992, 35.5940009], [-97.4289741, 35.5939966]]]}, "properties": {"osm_id": 182470902, "building": "retail", "name": "Central Truck Stop", "height": null, "height_m": null, "levels": null, "tract_id": "40109108101", "tract_name": "1081.01", "tags": {"addr:city": "Oklahoma City", "addr:housenumber": "12204", "addr:postcode": "73131", "addr:state": "OK", "addr:street": "North I-35 Service Road", "building": "retail", "name": "Central Truck Stop", "shop": "convenience", "source": "Bing", "source:name": "local_knowledge"}}}, {"type": "Feature", "geometry": {"type": "Polygon", "coordinates": [[[-97.4319338, 35.5919693], [-97.4317257, 35.5917739], [-97.4318706, 35.5916718], [-97.4320787, 35.5918672], [-97.4319338, 35.5919693]]]}, "properties": {"osm_id": 182470903, "building": "retail", "name": "Charly's", "height": null, "height_m": null, "levels": null, "tract_id": "40109108101", "tract_name": "1081.01", "tags": {"amenity": "restaurant", "building": "retail", "name": "Charly's", "source": "Bing", "source:name": "local_knowledge"}}}, {"type": "Feature", "geometry": {"type": "Polygon", "coordinates": [[[-97.4354668, 35.5893671], [-97.4355062, 35.5893098], [-97.4353706, 35.5892482], [-97.4353312, 35.5893056], [-97.4354668, 35.5893671]]]}, "properties": {"osm_id": 182470904, "building": "roof", "name": "Diamond Shamrock", "height": null, "height_m": null, "levels": null, "tract_id": "40109108101", "tract_name": "1081.01", "tags": {"amenity": "fuel", "brand": "Diamond Shamrock", "brand:wikidata": "Q16973722", "building": "roof", "name": "Diamond Shamrock", "source": "Bing", "source:name": "local_knowledge"}}}, {"type": "Feature", "geometry": {"type": "Polygon", "coordinates": [[[-97.431474, 35.5922777], [-97.4316797, 35.592127], [-97.4314764, 35.5919546], [-97.4314598, 35.5919765], [-97.4311942, 35.5917649], [-97.4311755, 35.5917802], [-97.4311486, 35.591754], [-97.4310199, 35.5918456], [-97.4310601, 35.591874], [-97.4310467, 35.5918892], [-97.4314061, 35.5921837], [-97.4313874, 35.592212], [-97.431474, 35.5922777]]]}, "properties": {"osm_id": 182470905, "building": "retail", "name": "Sleep Inn", "height": null, "height_m": null, "levels": null, "tract_id": "40109108101", "tract_name": "1081.01", "tags": {"addr:city": "Oklahoma City", "addr:housenumber": "12024", "addr:postcode": "73131", "addr:state": "OK", "addr:street": "North I-35 Service Road", "branch": "Oklahoma City North", "brand": "Sleep Inn & Suites", "brand:wikidata": "Q69588194", "building": "retail", "name": "Sleep Inn", "phone": "+1 405-478-9898", "ref": "OK119", "source": "Bing", "source:name": "local_knowledge", "tourism": "hotel", "website": "http://www.sleepinn.com/hotel-oklahoma_city-oklahoma-OK119"}}}, {"type": "Feature", "geometry": {"type": "Polygon", "coordinates": [[[-97.4331615, 35.5909044], [-97.433156, 35.5909256], [-97.4332441, 35.5910028], [-97.4334657, 35.5908356], [-97.4333563, 35.5907397], [-97.4332652, 35.5908085], [-97.4329636, 35.5905442], [-97.4330758, 35.5904595], [-97.432929, 35.5903308], [-97.4329077, 35.5903469], [-97.4327204, 35.5901827], [-97.4325921, 35.5902852], [-97.4327981, 35.5904595], [-97.4327043, 35.5905331], [-97.4328025, 35.5906255], [-97.4328282, 35.5906131], [-97.4331615, 35.5909044]]]}, "properties": {"osm_id": 182470906, "building": "retail", "name": "OYO Oklahoma City Northeast", "height": null, "height_m": null, "levels": null, "tract_id": "40109108101", "tract_name": "1081.01", "tags": {"addr:city": "Oklahoma City", "addr:housenumber": "11900", "addr:postcode": "73131", "addr:state": "OK", "addr:street": "North I-35 Service Road", "brand": "OYO", "brand:wikidata": "Q24906315", "building": "retail", "name": "OYO Oklahoma City Northeast", "phone": "(405)478-2888", "source": "Bing", "source:name": "local_knowledge", "tourism": "hotel"}}}, {"type": "Feature", "geometry": {"type": "Polygon", "coordinates": [[[-97.4356025, 35.5894413], [-97.4355094, 35.5894057], [-97.4355941, 35.5892593], [-97.4356872, 35.5892949], [-97.4356025, 35.5894413]]]}, "properties": {"osm_id": 182470907, "building": "retail", "name": "Diamond Shamrock", "height": null, "height_m": null, "levels": null, "tract_id": "40109108101", "tract_name": "1081.01", "tags": {"building": "retail", "name": "Diamond Shamrock", "shop": "convenience", "source": "Bing", "source:name": "local_knowledge"}}}, {"type": "Feature", "geometry": {"type": "Polygon", "coordinates": [[[-97.4401538, 35.5815858], [-97.44016, 35.5810295], [-97.4384783, 35.5810171], [-97.4384721, 35.5815734], [-97.4401538, 35.5815858]]]}, "properties": {"osm_id": 229834724, "building": "yes", "name": "", "height": null, "height_m": null, "levels": null, "tract_id": "40109108101", "tract_name": "1081.01", "tags": {"building": "yes", "source": "Bing"}}}, {"type": "Feature", "geometry": {"type": "Polygon", "coordinates": [[[-97.4413359, 35.577141], [-97.4409041, 35.5768469], [-97.4407673, 35.5769798], [-97.4411991, 35.5772739], [-97.4413359, 35.577141]]]}, "properties": {"osm_id": 229834731, "building": "yes", "name": "", "height": null, "height_m": null, "levels": null, "tract_id": "40109108101", "tract_name": "1081.01", "tags": {"building": "yes", "source": "Bing"}}}, {"type": "Feature", "geometry": {"type": "Polygon", "coordinates": [[[-97.4418132, 35.5767315], [-97.4416738, 35.5768698], [-97.4415065, 35.5767583], [-97.4416459, 35.57662], [-97.4418132, 35.5767315]]]}, "properties": {"osm_id": 229834732, "building": "yes", "name": "", "height": null, "height_m": null, "levels": null, "tract_id": "40109108101", "tract_name": "1081.01", "tags": {"building": "yes", "source": "Bing"}}}, {"type": "Feature", "geometry": {"type": "Polygon", "coordinates": [[[-97.4447726, 35.5738693], [-97.4448874, 35.5736847], [-97.4451665, 35.5737996], [-97.4450516, 35.5739842], [-97.4447726, 35.5738693]]]}, "properties": {"osm_id": 229927499, "building": "yes", "name": "", "height": null, "height_m": null, "levels": null, "tract_id": "40109108101", "tract_name": "1081.01", "tags": {"building": "yes", "source": "Bing"}}}, {"type": "Feature", "geometry": {"type": "Polygon", "coordinates": [[[-97.4436725, 35.574145], [-97.4432781, 35.5739242], [-97.4431594, 35.5740644], [-97.4435538, 35.5742853], [-97.4436725, 35.574145]]]}, "properties": {"osm_id": 229927500, "building": "yes", "name": "", "height": null, "height_m": null, "levels": null, "tract_id": "40109108101", "tract_name": "1081.01", "tags": {"building": "yes", "source": "Bing"}}}, {"type": "Feature", "geometry": {"type": "Polygon", "coordinates": [[[-97.4444885, 35.5741055], [-97.4444885, 35.5739311], [-97.4438932, 35.5739311], [-97.4438932, 35.5741055], [-97.4444885, 35.5741055]]]}, "properties": {"osm_id": 229927501, "building": "yes", "name": "", "height": null, "height_m": null, "levels": null, "tract_id": "40109108101", "tract_name": "1081.01", "tags": {"building": "yes", "source": "Bing"}}}, {"type": "Feature", "geometry": {"type": "Polygon", "coordinates": [[[-97.4220916, 35.5996535], [-97.4219454, 35.5996811], [-97.4219272, 35.5996176], [-97.4220734, 35.5995899], [-97.4220916, 35.5996535]]]}, "properties": {"osm_id": 369317062, "building": "yes", "name": "PIKEPASS Center", "height": null, "height_m": null, "levels": null, "tract_id": "40109108101", "tract_name": "1081.01", "tags": {"barrier": "toll_booth", "building": "yes", "name": "PIKEPASS Center", "operator": "Oklahoma Turnpike Authority", "phone": "+1-800-745-3727", "website": "https://www.pikepass.com/"}}}, {"type": "Feature", "geometry": {"type": "Polygon", "coordinates": [[[-97.4293491, 35.5942497], [-97.4293463, 35.5938085], [-97.4291796, 35.5938092], [-97.4291823, 35.5942504], [-97.4293491, 35.5942497]]]}, "properties": {"osm_id": 788076930, "building": "roof", "name": "Shell", "height": null, "height_m": null, "levels": null, "tract_id": "40109108101", "tract_name": "1081.01", "tags": {"amenity": "fuel", "brand": "Shell", "brand:wikidata": "Q154950", "building": "roof", "name": "Shell"}}}, {"type": "Feature", "geometry": {"type": "Polygon", "coordinates": [[[-97.4298872, 35.5966722], [-97.430014, 35.5965729], [-97.4298394, 35.5964255], [-97.4298618, 35.596408], [-97.4298465, 35.596395], [-97.4299305, 35.5963292], [-97.4297286, 35.5961589], [-97.4294954, 35.5963417], [-97.4298872, 35.5966722]]]}, "properties": {"osm_id": 788076932, "building": "yes", "name": "", "height": null, "height_m": null, "levels": null, "tract_id": "40109108101", "tract_name": "1081.01", "tags": {"building": "yes"}}}, {"type": "Feature", "geometry": {"type": "Polygon", "coordinates": [[[-97.4283035, 35.596259], [-97.4283016, 35.5958809], [-97.4280052, 35.5958819], [-97.4280071, 35.5962599], [-97.4283035, 35.596259]]]}, "properties": {"osm_id": 788076933, "building": "yes", "name": "", "height": null, "height_m": null, "levels": null, "tract_id": "40109108101", "tract_name": "1081.01", "tags": {"building": "yes"}}}, {"type": "Feature", "geometry": {"type": "Polygon", "coordinates": [[[-97.4270755, 35.5967891], [-97.4273001, 35.5964047], [-97.427113, 35.5963324], [-97.4268883, 35.5967167], [-97.4270755, 35.5967891]]]}, "properties": {"osm_id": 788076934, "building": "yes", "name": "", "height": null, "height_m": null, "levels": null, "tract_id": "40109108101", "tract_name": "1081.01", "tags": {"building": "yes"}}}, {"type": "Feature", "geometry": {"type": "Polygon", "coordinates": [[[-97.4268273, 35.5961934], [-97.4269996, 35.595895], [-97.4268019, 35.5958195], [-97.4266295, 35.5961179], [-97.4268273, 35.5961934]]]}, "properties": {"osm_id": 788076935, "building": "yes", "name": "", "height": null, "height_m": null, "levels": null, "tract_id": "40109108101", "tract_name": "1081.01", "tags": {"building": "yes"}}}, {"type": "Feature", "geometry": {"type": "Polygon", "coordinates": [[[-97.4294974, 35.5971736], [-97.4298505, 35.5969001], [-97.4293695, 35.5964895], [-97.4290164, 35.596763], [-97.4294974, 35.5971736]]]}, "properties": {"osm_id": 788076936, "building": "yes", "name": "", "height": null, "height_m": null, "levels": null, "tract_id": "40109108101", "tract_name": "1081.01", "tags": {"building": "yes"}}}, {"type": "Feature", "geometry": {"type": "Polygon", "coordinates": [[[-97.4265333, 35.5964387], [-97.4266309, 35.5962679], [-97.4265686, 35.5962443], [-97.426471, 35.5964152], [-97.4265333, 35.5964387]]]}, "properties": {"osm_id": 788076937, "building": "yes", "name": "", "height": null, "height_m": null, "levels": null, "tract_id": "40109108101", "tract_name": "1081.01", "tags": {"building": "yes"}}}, {"type": "Feature", "geometry": {"type": "Polygon", "coordinates": [[[-97.4288902, 35.5977219], [-97.4287075, 35.5975637], [-97.4287465, 35.597534], [-97.42841, 35.5972425], [-97.4283565, 35.5972834], [-97.4283078, 35.5972412], [-97.4280382, 35.5974469], [-97.4281158, 35.5975141], [-97.4280508, 35.5975637], [-97.4283514, 35.5978241], [-97.4284007, 35.5977865], [-97.4285904, 35.5979508], [-97.4288902, 35.5977219]]]}, "properties": {"osm_id": 788076940, "building": "yes", "name": "", "height": null, "height_m": null, "levels": null, "tract_id": "40109108101", "tract_name": "1081.01", "tags": {"building": "yes"}}}, {"type": "Feature", "geometry": {"type": "Polygon", "coordinates": [[[-97.3824853, 35.5950634], [-97.3824867, 35.5949813], [-97.3823391, 35.5949798], [-97.3823389, 35.5949897], [-97.382272, 35.594989], [-97.3822708, 35.5950612], [-97.3824853, 35.5950634]]]}, "properties": {"osm_id": 942404657, "building": "house", "name": "", "height": null, "height_m": null, "levels": null, "tract_id": "40109108101", "tract_name": "1081.01", "tags": {"building": "house"}}}, {"type": "Feature", "geometry": {"type": "Polygon", "coordinates": [[[-97.3835313, 35.5898793], [-97.3835052, 35.5897224], [-97.3833823, 35.5897359], [-97.3834084, 35.5898928], [-97.3835313, 35.5898793]]]}, "properties": {"osm_id": 942557027, "building": "house", "name": "", "height": null, "height_m": null, "levels": null, "tract_id": "40109108101", "tract_name": "1081.01", "tags": {"building": "house"}}}, {"type": "Feature", "geometry": {"type": "Polygon", "coordinates": [[[-97.3774954, 35.5988535], [-97.3777418, 35.598779], [-97.3776722, 35.5986268], [-97.3775937, 35.5986506], [-97.3776237, 35.5987161], [-97.3774558, 35.5987668], [-97.3774954, 35.5988535]]]}, "properties": {"osm_id": 942557028, "building": "house", "name": "", "height": null, "height_m": null, "levels": null, "tract_id": "40109108101", "tract_name": "1081.01", "tags": {"building": "house"}}}, {"type": "Feature", "geometry": {"type": "Polygon", "coordinates": [[[-97.3722284, 35.6000106], [-97.3722295, 35.599827], [-97.3721504, 35.5998267], [-97.3721501, 35.5998808], [-97.3721023, 35.5999139], [-97.3720987, 35.5999479], [-97.3721405, 35.5999771], [-97.3721403, 35.6000103], [-97.3722284, 35.6000106]]]}, "properties": {"osm_id": 942557029, "building": "house", "name": "", "height": null, "height_m": null, "levels": null, "tract_id": "40109108101", "tract_name": "1081.01", "tags": {"building": "house"}}}, {"type": "Feature", "geometry": {"type": "Polygon", "coordinates": [[[-97.3759527, 35.597463], [-97.375906, 35.5973763], [-97.375823, 35.5974059], [-97.3758177, 35.5973961], [-97.3755993, 35.5974739], [-97.3756228, 35.5975174], [-97.3755926, 35.5975282], [-97.3756211, 35.5975811], [-97.3759527, 35.597463]]]}, "properties": {"osm_id": 942557030, "building": "house", "name": "", "height": null, "height_m": null, "levels": null, "tract_id": "40109108101", "tract_name": "1081.01", "tags": {"building": "house"}}}, {"type": "Feature", "geometry": {"type": "Polygon", "coordinates": [[[-97.376733, 35.5952457], [-97.3767328, 35.5951497], [-97.3764753, 35.59515], [-97.3764755, 35.5952921], [-97.3765733, 35.595292], [-97.3765732, 35.5952459], [-97.376733, 35.5952457]]]}, "properties": {"osm_id": 942557031, "building": "house", "name": "", "height": null, "height_m": null, "levels": null, "tract_id": "40109108101", "tract_name": "1081.01", "tags": {"building": "house"}}}, {"type": "Feature", "geometry": {"type": "Polygon", "coordinates": [[[-97.3781447, 35.5951833], [-97.3781239, 35.5950378], [-97.3780414, 35.5950456], [-97.3780497, 35.5951033], [-97.3778753, 35.5951198], [-97.3778879, 35.5952076], [-97.3781447, 35.5951833]]]}, "properties": {"osm_id": 942557032, "building": "house", "name": "", "height": null, "height_m": null, "levels": null, "tract_id": "40109108101", "tract_name": "1081.01", "tags": {"building": "house"}}}, {"type": "Feature", "geometry": {"type": "Polygon", "coordinates": [[[-97.3793882, 35.5951501], [-97.3793911, 35.5950785], [-97.3792582, 35.595075], [-97.3792593, 35.5950471], [-97.379209, 35.5950458], [-97.379205, 35.5951452], [-97.3793882, 35.5951501]]]}, "properties": {"osm_id": 942557034, "building": "house", "name": "", "height": null, "height_m": null, "levels": null, "tract_id": "40109108101", "tract_name": "1081.01", "tags": {"building": "house"}}}, {"type": "Feature", "geometry": {"type": "Polygon", "coordinates": [[[-97.3786674, 35.596767], [-97.3786678, 35.5966945], [-97.3784464, 35.5966938], [-97.3784461, 35.5967662], [-97.3786674, 35.596767]]]}, "properties": {"osm_id": 942557035, "building": "house", "name": "", "height": null, "height_m": null, "levels": null, "tract_id": "40109108101", "tract_name": "1081.01", "tags": {"building": "house"}}}, {"type": "Feature", "geometry": {"type": "Polygon", "coordinates": [[[-97.379087, 35.5995485], [-97.3790249, 35.5996286], [-97.3788181, 35.5995226], [-97.3788827, 35.5994393], [-97.3789599, 35.5994789], [-97.3789771, 35.5994567], [-97.3790175, 35.5994774], [-97.3789979, 35.5995028], [-97.379087, 35.5995485]]]}, "properties": {"osm_id": 942557036, "building": "house", "name": "", "height": null, "height_m": null, "levels": null, "tract_id": "40109108101", "tract_name": "1081.01", "tags": {"building": "house"}}}, {"type": "Feature", "geometry": {"type": "Polygon", "coordinates": [[[-97.3835022, 35.5957092], [-97.3836589, 35.5956345], [-97.3836113, 35.5955685], [-97.3835811, 35.5955829], [-97.3835395, 35.5955252], [-97.3835773, 35.5955072], [-97.3835355, 35.5954492], [-97.3833292, 35.5955474], [-97.3833618, 35.5955926], [-97.3834323, 35.5955591], [-97.3835047, 35.5956596], [-97.3834763, 35.5956732], [-97.3835022, 35.5957092]]]}, "properties": {"osm_id": 942559618, "building": "house", "name": "", "height": null, "height_m": null, "levels": null, "tract_id": "40109108101", "tract_name": "1081.01", "tags": {"building": "house"}}}, {"type": "Feature", "geometry": {"type": "Polygon", "coordinates": [[[-97.3825167, 35.5956874], [-97.3825182, 35.5956339], [-97.3824817, 35.5956332], [-97.3824801, 35.5956867], [-97.3825167, 35.5956874]]]}, "properties": {"osm_id": 942566047, "building": "yes", "name": "", "height": null, "height_m": null, "levels": null, "tract_id": "40109108101", "tract_name": "1081.01", "tags": {"building": "yes"}}}, {"type": "Feature", "geometry": {"type": "Polygon", "coordinates": [[[-97.3936383, 35.5985791], [-97.3936227, 35.5985052], [-97.3935535, 35.5985149], [-97.3935258, 35.5983837], [-97.3933817, 35.5984038], [-97.3933901, 35.5984432], [-97.3933601, 35.5984474], [-97.3933725, 35.5985061], [-97.3933923, 35.5985033], [-97.3933996, 35.598538], [-97.3933612, 35.5985433], [-97.3933724, 35.5985965], [-97.3935288, 35.5985746], [-97.3935329, 35.5985938], [-97.3936383, 35.5985791]]]}, "properties": {"osm_id": 942578024, "building": "house", "name": "", "height": null, "height_m": null, "levels": null, "tract_id": "40109108101", "tract_name": "1081.01", "tags": {"building": "house"}}}, {"type": "Feature", "geometry": {"type": "Polygon", "coordinates": [[[-97.3947933, 35.5993381], [-97.3947628, 35.5991984], [-97.3946114, 35.5992202], [-97.3946156, 35.5992396], [-97.3945326, 35.5992516], [-97.3945429, 35.5992989], [-97.3945703, 35.599295], [-97.3945788, 35.599334], [-97.3945552, 35.5993374], [-97.3944482, 35.5994115], [-97.3944942, 35.5994555], [-97.3945708, 35.5994025], [-97.3946373, 35.5993929], [-97.3946494, 35.599448], [-97.3946757, 35.5994442], [-97.3946834, 35.5994794], [-97.3947639, 35.5994678], [-97.3947443, 35.5993781], [-97.3947702, 35.5993744], [-97.3947632, 35.5993425], [-97.3947933, 35.5993381]]]}, "properties": {"osm_id": 942578025, "building": "house", "name": "", "height": null, "height_m": null, "levels": null, "tract_id": "40109108101", "tract_name": "1081.01", "tags": {"building": "house"}}}, {"type": "Feature", "geometry": {"type": "Polygon", "coordinates": [[[-97.3946584, 35.6006891], [-97.3946426, 35.6005656], [-97.3945623, 35.6005723], [-97.3945641, 35.6005869], [-97.3944998, 35.6005923], [-97.3944962, 35.6005634], [-97.3944216, 35.6005696], [-97.3944266, 35.6006089], [-97.394375, 35.6006132], [-97.39439, 35.6007314], [-97.3944163, 35.6007292], [-97.3944185, 35.6007466], [-97.3944651, 35.6007427], [-97.3944661, 35.6007509], [-97.3945095, 35.6007472], [-97.3945067, 35.6007252], [-97.3945331, 35.600723], [-97.3945349, 35.6007371], [-97.3945846, 35.600733], [-97.3945837, 35.6007257], [-97.394636, 35.6007213], [-97.3946322, 35.6006913], [-97.3946584, 35.6006891]]]}, "properties": {"osm_id": 942578026, "building": "house", "name": "", "height": null, "height_m": null, "levels": null, "tract_id": "40109108101", "tract_name": "1081.01", "tags": {"building": "house"}}}, {"type": "Feature", "geometry": {"type": "Polygon", "coordinates": [[[-97.3938785, 35.6007985], [-97.3938816, 35.6006841], [-97.3937823, 35.6006823], [-97.3937832, 35.6006497], [-97.3936821, 35.6006479], [-97.3936807, 35.6006984], [-97.3936104, 35.6006972], [-97.3936082, 35.6007762], [-97.3935944, 35.6007759], [-97.3935934, 35.6008108], [-97.3936255, 35.6008114], [-97.3936249, 35.600831], [-97.3937983, 35.6008343], [-97.3938018, 35.600825], [-97.3938544, 35.6008259], [-97.3938552, 35.6007981], [-97.3938785, 35.6007985]]]}, "properties": {"osm_id": 942578027, "building": "house", "name": "", "height": null, "height_m": null, "levels": null, "tract_id": "40109108101", "tract_name": "1081.01", "tags": {"building": "house"}}}, {"type": "Feature", "geometry": {"type": "Polygon", "coordinates": [[[-97.3918493, 35.6006831], [-97.3917956, 35.600491], [-97.3916015, 35.6005269], [-97.3916182, 35.6005868], [-97.3916443, 35.600582], [-97.3916813, 35.6007141], [-97.3918493, 35.6006831]]]}, "properties": {"osm_id": 942578028, "building": "house", "name": "", "height": null, "height_m": null, "levels": null, "tract_id": "40109108101", "tract_name": "1081.01", "tags": {"building": "house"}}}, {"type": "Feature", "geometry": {"type": "Polygon", "coordinates": [[[-97.3913869, 35.6001921], [-97.3911937, 35.599937], [-97.3913466, 35.5998604], [-97.3913989, 35.5999293], [-97.3913866, 35.5999354], [-97.3914427, 35.6000093], [-97.3913824, 35.6000396], [-97.3914183, 35.6000871], [-97.3914273, 35.6000826], [-97.3914763, 35.6001473], [-97.3913869, 35.6001921]]]}, "properties": {"osm_id": 942578029, "building": "house", "name": "", "height": null, "height_m": null, "levels": null, "tract_id": "40109108101", "tract_name": "1081.01", "tags": {"building": "house"}}}, {"type": "Feature", "geometry": {"type": "Polygon", "coordinates": [[[-97.3921009, 35.5996919], [-97.3920306, 35.5995479], [-97.3920756, 35.5995334], [-97.3920425, 35.5994656], [-97.3919176, 35.5995058], [-97.3919276, 35.5995265], [-97.3918973, 35.5995363], [-97.3919248, 35.5995929], [-97.3919087, 35.5995981], [-97.3919561, 35.5996953], [-97.3919362, 35.5997017], [-97.3919544, 35.5997391], [-97.3921009, 35.5996919]]]}, "properties": {"osm_id": 942578030, "building": "house", "name": "", "height": null, "height_m": null, "levels": null, "tract_id": "40109108101", "tract_name": "1081.01", "tags": {"building": "house"}}}, {"type": "Feature", "geometry": {"type": "Polygon", "coordinates": [[[-97.3904546, 35.5972993], [-97.3902857, 35.5973423], [-97.3902228, 35.5971787], [-97.3901652, 35.5971934], [-97.3901345, 35.5971137], [-97.3902588, 35.5970821], [-97.3902699, 35.5971109], [-97.3903434, 35.5970922], [-97.3903916, 35.5972174], [-97.3904091, 35.5972129], [-97.390426, 35.597257], [-97.3904372, 35.5972541], [-97.3904546, 35.5972993]]]}, "properties": {"osm_id": 942578031, "building": "house", "name": "", "height": null, "height_m": null, "levels": null, "tract_id": "40109108101", "tract_name": "1081.01", "tags": {"building": "house"}}}, {"type": "Feature", "geometry": {"type": "Polygon", "coordinates": [[[-97.3952933, 35.5979133], [-97.3954454, 35.5978307], [-97.3953716, 35.5977409], [-97.3954237, 35.5977125], [-97.3953769, 35.5976555], [-97.3952998, 35.5976974], [-97.3953271, 35.5977307], [-97.3952298, 35.5977836], [-97.3952569, 35.5978167], [-97.3952272, 35.5978328], [-97.3952933, 35.5979133]]]}, "properties": {"osm_id": 942579634, "building": "house", "name": "", "height": null, "height_m": null, "levels": null, "tract_id": "40109108101", "tract_name": "1081.01", "tags": {"building": "house"}}}, {"type": "Feature", "geometry": {"type": "Polygon", "coordinates": [[[-97.3939894, 35.5974697], [-97.3941948, 35.5972688], [-97.3943004, 35.5973401], [-97.3942025, 35.5974359], [-97.3942243, 35.5974507], [-97.3941281, 35.5975448], [-97.3941028, 35.5975277], [-97.3940354, 35.5975936], [-97.3939499, 35.5975358], [-97.394006, 35.5974809], [-97.3939894, 35.5974697]]]}, "properties": {"osm_id": 942579635, "building": "house", "name": "", "height": null, "height_m": null, "levels": null, "tract_id": "40109108101", "tract_name": "1081.01", "tags": {"building": "house"}}}, {"type": "Feature", "geometry": {"type": "Polygon", "coordinates": [[[-97.392356, 35.5966247], [-97.3924426, 35.5966212], [-97.3924378, 35.5965421], [-97.3921373, 35.5965541], [-97.3921437, 35.5966587], [-97.3923576, 35.5966502], [-97.392356, 35.5966247]]]}, "properties": {"osm_id": 942579636, "building": "house", "name": "", "height": null, "height_m": null, "levels": null, "tract_id": "40109108101", "tract_name": "1081.01", "tags": {"building": "house"}}}, {"type": "Feature", "geometry": {"type": "Polygon", "coordinates": [[[-97.3721652, 35.6019021], [-97.3721642, 35.6018186], [-97.3721177, 35.6018189], [-97.3721166, 35.6017241], [-97.3719158, 35.6017256], [-97.3719167, 35.6018017], [-97.3720509, 35.6018007], [-97.372052, 35.6019029], [-97.3721652, 35.6019021]]]}, "properties": {"osm_id": 942581078, "building": "house", "name": "", "height": null, "height_m": null, "levels": null, "tract_id": "40109108101", "tract_name": "1081.01", "tags": {"building": "house"}}}, {"type": "Feature", "geometry": {"type": "Polygon", "coordinates": [[[-97.3705233, 35.6020815], [-97.3706854, 35.6020568], [-97.3706739, 35.6020066], [-97.3707017, 35.6020023], [-97.370692, 35.6019601], [-97.3707199, 35.6019559], [-97.370708, 35.6019046], [-97.3706842, 35.6019082], [-97.3706757, 35.6018714], [-97.3706405, 35.6018768], [-97.3706257, 35.6018687], [-97.3706758, 35.6018081], [-97.370695, 35.6018185], [-97.3707767, 35.6017197], [-97.3706902, 35.6016725], [-97.3706039, 35.6017769], [-97.3706163, 35.6017836], [-97.3705767, 35.6018315], [-97.3705692, 35.6018274], [-97.3705408, 35.6018317], [-97.3705244, 35.6017596], [-97.3704283, 35.6017741], [-97.3704315, 35.6017881], [-97.3703578, 35.6017993], [-97.370375, 35.6018746], [-97.370433, 35.6018658], [-97.3704505, 35.6019422], [-97.370522, 35.6019313], [-97.370545, 35.6020317], [-97.370513, 35.6020366], [-97.3705233, 35.6020815]]]}, "properties": {"osm_id": 942581079, "building": "house", "name": "", "height": null, "height_m": null, "levels": null, "tract_id": "40109108101", "tract_name": "1081.01", "tags": {"building": "house"}}}, {"type": "Feature", "geometry": {"type": "Polygon", "coordinates": [[[-97.3702015, 35.5994681], [-97.3702234, 35.5992591], [-97.3703247, 35.5992661], [-97.370339, 35.5991298], [-97.3703613, 35.5991314], [-97.3703639, 35.5991065], [-97.3704463, 35.5991122], [-97.3704422, 35.5991515], [-97.3704768, 35.5991539], [-97.3704627, 35.5992881], [-97.3704174, 35.5992849], [-97.3704131, 35.5993255], [-97.3703771, 35.599323], [-97.370375, 35.599343], [-97.3703287, 35.5993398], [-97.3703144, 35.5994759], [-97.3702015, 35.5994681]]]}, "properties": {"osm_id": 942581080, "building": "house", "name": "", "height": null, "height_m": null, "levels": null, "tract_id": "40109108101", "tract_name": "1081.01", "tags": {"building": "house"}}}, {"type": "Feature", "geometry": {"type": "Polygon", "coordinates": [[[-97.431753, 35.591499], [-97.431441, 35.591231], [-97.431212, 35.591407], [-97.431524, 35.591675], [-97.431753, 35.591499]]]}, "properties": {"osm_id": 946203420, "building": "yes", "name": "", "height": null, "height_m": null, "levels": null, "tract_id": "40109108101", "tract_name": "1081.01", "tags": {"building": "yes", "source": "microsoft/BuildingFootprints"}}}, {"type": "Feature", "geometry": {"type": "Polygon", "coordinates": [[[-97.4112973, 35.5970207], [-97.4111435, 35.5969526], [-97.4111005, 35.5970168], [-97.4109251, 35.596939], [-97.4109742, 35.5968657], [-97.4110369, 35.5968935], [-97.4111041, 35.5967933], [-97.4112128, 35.5968414], [-97.4112003, 35.59686], [-97.4112366, 35.5968761], [-97.4112605, 35.5968404], [-97.4113139, 35.5968641], [-97.4112962, 35.5968904], [-97.4113644, 35.5969206], [-97.4112973, 35.5970207]]]}, "properties": {"osm_id": 973772512, "building": "house", "name": "", "height": null, "height_m": null, "levels": null, "tract_id": "40109108101", "tract_name": "1081.01", "tags": {"building": "house"}}}, {"type": "Feature", "geometry": {"type": "Polygon", "coordinates": [[[-97.3541872, 35.5653733], [-97.3540619, 35.5653689], [-97.3540631, 35.5653524], [-97.354046, 35.5653518], [-97.3540456, 35.565321], [-97.354065, 35.5653204], [-97.3540674, 35.5652748], [-97.3541234, 35.5652764], [-97.354123, 35.5652913], [-97.3541907, 35.5652948], [-97.3541903, 35.5653367], [-97.3541989, 35.5653369], [-97.3541982, 35.5653542], [-97.354189, 35.565354], [-97.3541872, 35.5653733]]]}, "properties": {"osm_id": 984175619, "building": "yes", "name": "", "height": null, "height_m": null, "levels": null, "tract_id": "40109108101", "tract_name": "1081.01", "tags": {"building": "yes"}}}, {"type": "Feature", "geometry": {"type": "Polygon", "coordinates": [[[-97.4115562, 35.596111], [-97.4114841, 35.5960535], [-97.4113834, 35.5961373], [-97.4113563, 35.5961163], [-97.4113263, 35.5961429], [-97.4113221, 35.5961391], [-97.4112994, 35.5961391], [-97.4112797, 35.5961566], [-97.4112777, 35.5961782], [-97.4112809, 35.59618], [-97.4112491, 35.5962078], [-97.4112272, 35.5961895], [-97.4112175, 35.596197], [-97.4112024, 35.5961861], [-97.4111397, 35.5962395], [-97.4111906, 35.5962807], [-97.4111844, 35.5962865], [-97.4112234, 35.5963182], [-97.4112148, 35.5963253], [-97.411251, 35.596354], [-97.411268, 35.5963407], [-97.4112882, 35.5963567], [-97.4112959, 35.5963515], [-97.411355, 35.5963969], [-97.4114205, 35.5963409], [-97.4113848, 35.5963113], [-97.4113633, 35.5963128], [-97.41132, 35.59628], [-97.4113204, 35.5962642], [-97.4113497, 35.5962399], [-97.4113689, 35.5962395], [-97.4114537, 35.596306], [-97.4115297, 35.5962421], [-97.4114853, 35.5962087], [-97.4114769, 35.5962137], [-97.4114558, 35.5961965], [-97.4115562, 35.596111]]]}, "properties": {"osm_id": 987896405, "building": "yes", "name": "", "height": null, "height_m": null, "levels": null, "tract_id": "40109108101", "tract_name": "1081.01", "tags": {"building": "yes"}}}, {"type": "Feature", "geometry": {"type": "Polygon", "coordinates": [[[-97.4120899, 35.5964125], [-97.4120071, 35.5964713], [-97.4119299, 35.5963992], [-97.4119423, 35.5963904], [-97.4118258, 35.5962833], [-97.4118253, 35.5962596], [-97.4118613, 35.5962387], [-97.4118679, 35.5962435], [-97.4119034, 35.5962196], [-97.4119243, 35.5962394], [-97.4119524, 35.5962183], [-97.4119394, 35.5962064], [-97.4119698, 35.5961821], [-97.4120236, 35.5962342], [-97.4119794, 35.5962652], [-97.4120294, 35.5963184], [-97.4120048, 35.5963343], [-97.4120899, 35.5964125]]]}, "properties": {"osm_id": 987896406, "building": "yes", "name": "", "height": null, "height_m": null, "levels": null, "tract_id": "40109108101", "tract_name": "1081.01", "tags": {"building": "yes"}}}, {"type": "Feature", "geometry": {"type": "Polygon", "coordinates": [[[-97.4348314, 35.5630801], [-97.4347291, 35.5630808], [-97.434729, 35.5630713], [-97.4345849, 35.5630722], [-97.434584, 35.562975], [-97.4345617, 35.5629752], [-97.4345615, 35.5629573], [-97.4345574, 35.5629573], [-97.4345572, 35.562935], [-97.4345619, 35.562935], [-97.4345617, 35.5629176], [-97.4346747, 35.5629169], [-97.4346748, 35.5629307], [-97.4347453, 35.5629302], [-97.4347458, 35.5629825], [-97.4348305, 35.562982], [-97.4348314, 35.5630801]]]}, "properties": {"osm_id": 987910971, "building": "yes", "name": "", "height": null, "height_m": null, "levels": null, "tract_id": "40109108101", "tract_name": "1081.01", "tags": {"building": "yes"}}}, {"type": "Feature", "geometry": {"type": "Polygon", "coordinates": [[[-97.434436, 35.559019], [-97.434525, 35.559023], [-97.434532, 35.558918], [-97.434575, 35.55892], [-97.434577, 35.558883], [-97.434598, 35.558884], [-97.434605, 35.558786], [-97.434509, 35.558781], [-97.434516, 35.558677], [-97.434385, 35.558671], [-97.434375, 35.558813], [-97.43445, 35.558816], [-97.434436, 35.559019]]]}, "properties": {"osm_id": 1090688318, "building": "yes", "name": "", "height": null, "height_m": null, "levels": null, "tract_id": "40109108101", "tract_name": "1081.01", "tags": {"building": "yes", "source": "microsoft/BuildingFootprints"}}}, {"type": "Feature", "geometry": {"type": "Polygon", "coordinates": [[[-97.435711, 35.558831], [-97.435608, 35.558925], [-97.435689, 35.558985], [-97.435804, 35.558881], [-97.435759, 35.558848], [-97.435748, 35.558858], [-97.435711, 35.558831]]]}, "properties": {"osm_id": 1090688319, "building": "yes", "name": "", "height": null, "height_m": null, "levels": null, "tract_id": "40109108101", "tract_name": "1081.01", "tags": {"building": "yes", "source": "microsoft/BuildingFootprints"}}}, {"type": "Feature", "geometry": {"type": "Polygon", "coordinates": [[[-97.441506, 35.564704], [-97.441424, 35.564706], [-97.441425, 35.564753], [-97.441271, 35.564755], [-97.441273, 35.564826], [-97.441289, 35.564826], [-97.441293, 35.564936], [-97.441435, 35.564933], [-97.441434, 35.564899], [-97.441511, 35.564897], [-97.441506, 35.564704]]]}, "properties": {"osm_id": 1090688320, "building": "yes", "name": "", "height": null, "height_m": null, "levels": null, "tract_id": "40109108101", "tract_name": "1081.01", "tags": {"building": "yes", "source": "microsoft/BuildingFootprints"}}}, {"type": "Feature", "geometry": {"type": "Polygon", "coordinates": [[[-97.439646, 35.56225], [-97.439934, 35.562317], [-97.439956, 35.562252], [-97.439884, 35.562236], [-97.439906, 35.562173], [-97.439939, 35.56218], [-97.439966, 35.562102], [-97.439747, 35.562051], [-97.4397, 35.562189], [-97.43967, 35.562182], [-97.439646, 35.56225]]]}, "properties": {"osm_id": 1090688321, "building": "yes", "name": "", "height": null, "height_m": null, "levels": null, "tract_id": "40109108101", "tract_name": "1081.01", "tags": {"building": "yes", "source": "microsoft/BuildingFootprints"}}}, {"type": "Feature", "geometry": {"type": "Polygon", "coordinates": [[[-97.436988, 35.565352], [-97.437055, 35.565352], [-97.437055, 35.565378], [-97.437227, 35.565379], [-97.437228, 35.56518], [-97.437037, 35.56518], [-97.437037, 35.565147], [-97.436943, 35.565147], [-97.436943, 35.565254], [-97.436989, 35.565254], [-97.436988, 35.565352]]]}, "properties": {"osm_id": 1090688322, "building": "yes", "name": "", "height": null, "height_m": null, "levels": null, "tract_id": "40109108101", "tract_name": "1081.01", "tags": {"building": "yes", "source": "microsoft/BuildingFootprints"}}}, {"type": "Feature", "geometry": {"type": "Polygon", "coordinates": [[[-97.43629, 35.563003], [-97.436356, 35.563096], [-97.436542, 35.563007], [-97.43647, 35.562908], [-97.436413, 35.562935], [-97.436438, 35.562969], [-97.43636, 35.563006], [-97.43634, 35.562979], [-97.43629, 35.563003]]]}, "properties": {"osm_id": 1090688323, "building": "yes", "name": "", "height": null, "height_m": null, "levels": null, "tract_id": "40109108101", "tract_name": "1081.01", "tags": {"building": "yes", "source": "microsoft/BuildingFootprints"}}}, {"type": "Feature", "geometry": {"type": "Polygon", "coordinates": [[[-97.440894, 35.560218], [-97.440884, 35.560241], [-97.440814, 35.560221], [-97.44079, 35.560275], [-97.440716, 35.560253], [-97.440693, 35.560306], [-97.440711, 35.560312], [-97.440646, 35.560458], [-97.44074, 35.560485], [-97.44078, 35.560394], [-97.440949, 35.560443], [-97.440981, 35.56037], [-97.441022, 35.560382], [-97.441089, 35.560229], [-97.440999, 35.560203], [-97.440981, 35.560243], [-97.440894, 35.560218]]]}, "properties": {"osm_id": 1090688324, "building": "yes", "name": "", "height": null, "height_m": null, "levels": null, "tract_id": "40109108101", "tract_name": "1081.01", "tags": {"building": "yes", "source": "microsoft/BuildingFootprints"}}}, {"type": "Feature", "geometry": {"type": "Polygon", "coordinates": [[[-97.442132, 35.56123], [-97.442131, 35.561104], [-97.442095, 35.561104], [-97.442095, 35.561044], [-97.441983, 35.561045], [-97.44188, 35.560959], [-97.441813, 35.561012], [-97.441902, 35.561087], [-97.441902, 35.561122], [-97.441962, 35.561122], [-97.441937, 35.561142], [-97.441938, 35.56124], [-97.441995, 35.56124], [-97.442008, 35.56123], [-97.442132, 35.56123]]]}, "properties": {"osm_id": 1090688325, "building": "yes", "name": "", "height": null, "height_m": null, "levels": null, "tract_id": "40109108101", "tract_name": "1081.01", "tags": {"building": "yes", "source": "microsoft/BuildingFootprints"}}}, {"type": "Feature", "geometry": {"type": "Polygon", "coordinates": [[[-97.436381, 35.566002], [-97.436231, 35.566004], [-97.436232, 35.566143], [-97.436383, 35.566141], [-97.436381, 35.566002]]]}, "properties": {"osm_id": 1090688326, "building": "yes", "name": "", "height": null, "height_m": null, "levels": null, "tract_id": "40109108101", "tract_name": "1081.01", "tags": {"building": "yes", "source": "microsoft/BuildingFootprints"}}}, {"type": "Feature", "geometry": {"type": "Polygon", "coordinates": [[[-97.44056, 35.558805], [-97.440536, 35.558705], [-97.440475, 35.558715], [-97.440459, 35.558653], [-97.440315, 35.558677], [-97.440322, 35.558705], [-97.440233, 35.558719], [-97.440261, 35.558831], [-97.440422, 35.558805], [-97.440415, 35.558778], [-97.440461, 35.55877], [-97.440473, 35.558819], [-97.44056, 35.558805]]]}, "properties": {"osm_id": 1090688327, "building": "yes", "name": "", "height": null, "height_m": null, "levels": null, "tract_id": "40109108101", "tract_name": "1081.01", "tags": {"building": "yes", "source": "microsoft/BuildingFootprints"}}}, {"type": "Feature", "geometry": {"type": "Polygon", "coordinates": [[[-97.435918, 35.562293], [-97.435915, 35.562093], [-97.435719, 35.562094], [-97.43572, 35.562166], [-97.435762, 35.562166], [-97.435762, 35.562205], [-97.43575, 35.562205], [-97.435751, 35.562245], [-97.435719, 35.562245], [-97.43572, 35.562338], [-97.435822, 35.562337], [-97.435821, 35.562294], [-97.435918, 35.562293]]]}, "properties": {"osm_id": 1090688328, "building": "yes", "name": "", "height": null, "height_m": null, "levels": null, "tract_id": "40109108101", "tract_name": "1081.01", "tags": {"building": "yes", "source": "microsoft/BuildingFootprints"}}}, {"type": "Feature", "geometry": {"type": "Polygon", "coordinates": [[[-97.438159, 35.558824], [-97.438458, 35.558838], [-97.438466, 35.558731], [-97.438166, 35.558717], [-97.438159, 35.558824]]]}, "properties": {"osm_id": 1090688329, "building": "yes", "name": "", "height": null, "height_m": null, "levels": null, "tract_id": "40109108101", "tract_name": "1081.01", "tags": {"building": "yes", "source": "microsoft/BuildingFootprints"}}}, {"type": "Feature", "geometry": {"type": "Polygon", "coordinates": [[[-97.436881, 35.558812], [-97.436759, 35.558701], [-97.436699, 35.558745], [-97.436821, 35.558856], [-97.436881, 35.558812]]]}, "properties": {"osm_id": 1090688330, "building": "yes", "name": "", "height": null, "height_m": null, "levels": null, "tract_id": "40109108101", "tract_name": "1081.01", "tags": {"building": "yes", "source": "microsoft/BuildingFootprints"}}}, {"type": "Feature", "geometry": {"type": "Polygon", "coordinates": [[[-97.441524, 35.559368], [-97.441653, 35.559576], [-97.44188, 35.559483], [-97.441788, 35.559335], [-97.441641, 35.559396], [-97.441603, 35.559335], [-97.441524, 35.559368]]]}, "properties": {"osm_id": 1090688331, "building": "yes", "name": "", "height": null, "height_m": null, "levels": null, "tract_id": "40109108101", "tract_name": "1081.01", "tags": {"building": "yes", "source": "microsoft/BuildingFootprints"}}}, {"type": "Feature", "geometry": {"type": "Polygon", "coordinates": [[[-97.438495, 35.562742], [-97.43853, 35.562603], [-97.438481, 35.562595], [-97.438485, 35.562579], [-97.438344, 35.562555], [-97.438324, 35.562633], [-97.438234, 35.562618], [-97.43819, 35.562794], [-97.438334, 35.562817], [-97.438359, 35.562719], [-97.438495, 35.562742]]]}, "properties": {"osm_id": 1090688332, "building": "yes", "name": "", "height": null, "height_m": null, "levels": null, "tract_id": "40109108101", "tract_name": "1081.01", "tags": {"building": "yes", "source": "microsoft/BuildingFootprints"}}}, {"type": "Feature", "geometry": {"type": "Polygon", "coordinates": [[[-97.439319, 35.561447], [-97.439169, 35.561399], [-97.439152, 35.561434], [-97.439114, 35.561422], [-97.439077, 35.561498], [-97.439005, 35.561475], [-97.43897, 35.561548], [-97.439246, 35.561636], [-97.439276, 35.561574], [-97.439261, 35.561569], [-97.439319, 35.561447]]]}, "properties": {"osm_id": 1090688333, "building": "yes", "name": "", "height": null, "height_m": null, "levels": null, "tract_id": "40109108101", "tract_name": "1081.01", "tags": {"building": "yes", "source": "microsoft/BuildingFootprints"}}}, {"type": "Feature", "geometry": {"type": "Polygon", "coordinates": [[[-97.438371, 35.564735], [-97.438373, 35.564608], [-97.438393, 35.564609], [-97.438394, 35.564535], [-97.438107, 35.564533], [-97.438106, 35.564611], [-97.438151, 35.564611], [-97.43815, 35.564733], [-97.438371, 35.564735]]]}, "properties": {"osm_id": 1090688334, "building": "yes", "name": "", "height": null, "height_m": null, "levels": null, "tract_id": "40109108101", "tract_name": "1081.01", "tags": {"building": "yes", "source": "microsoft/BuildingFootprints"}}}, {"type": "Feature", "geometry": {"type": "Polygon", "coordinates": [[[-97.439169, 35.561041], [-97.439034, 35.560985], [-97.439047, 35.560964], [-97.438973, 35.560934], [-97.438866, 35.561105], [-97.439015, 35.561167], [-97.438995, 35.561198], [-97.439094, 35.561239], [-97.43915, 35.56115], [-97.439111, 35.561134], [-97.439169, 35.561041]]]}, "properties": {"osm_id": 1090688335, "building": "yes", "name": "", "height": null, "height_m": null, "levels": null, "tract_id": "40109108101", "tract_name": "1081.01", "tags": {"building": "yes", "source": "microsoft/BuildingFootprints"}}}, {"type": "Feature", "geometry": {"type": "Polygon", "coordinates": [[[-97.442088, 35.561831], [-97.442318, 35.561833], [-97.44232, 35.561687], [-97.442349, 35.561687], [-97.44235, 35.561618], [-97.442257, 35.561618], [-97.442258, 35.561551], [-97.442163, 35.56155], [-97.442162, 35.561613], [-97.442074, 35.561613], [-97.442072, 35.561688], [-97.442114, 35.561688], [-97.442113, 35.561752], [-97.442089, 35.561751], [-97.442088, 35.561831]]]}, "properties": {"osm_id": 1090688336, "building": "yes", "name": "", "height": null, "height_m": null, "levels": null, "tract_id": "40109108101", "tract_name": "1081.01", "tags": {"building": "yes", "source": "microsoft/BuildingFootprints"}}}, {"type": "Feature", "geometry": {"type": "Polygon", "coordinates": [[[-97.441234, 35.56299], [-97.441236, 35.563088], [-97.441264, 35.563087], [-97.441267, 35.563198], [-97.441459, 35.563195], [-97.441457, 35.563115], [-97.441474, 35.563115], [-97.441473, 35.563043], [-97.441391, 35.563044], [-97.441389, 35.562988], [-97.441234, 35.56299]]]}, "properties": {"osm_id": 1090688337, "building": "yes", "name": "", "height": null, "height_m": null, "levels": null, "tract_id": "40109108101", "tract_name": "1081.01", "tags": {"building": "yes", "source": "microsoft/BuildingFootprints"}}}, {"type": "Feature", "geometry": {"type": "Polygon", "coordinates": [[[-97.438246, 35.562323], [-97.438457, 35.562359], [-97.438471, 35.562305], [-97.438494, 35.562309], [-97.438512, 35.562236], [-97.43848, 35.562231], [-97.438494, 35.562176], [-97.438376, 35.562156], [-97.438385, 35.562119], [-97.438274, 35.5621], [-97.438254, 35.562175], [-97.438283, 35.56218], [-97.438246, 35.562323]]]}, "properties": {"osm_id": 1090688338, "building": "yes", "name": "", "height": null, "height_m": null, "levels": null, "tract_id": "40109108101", "tract_name": "1081.01", "tags": {"building": "yes", "source": "microsoft/BuildingFootprints"}}}, {"type": "Feature", "geometry": {"type": "Polygon", "coordinates": [[[-97.437326, 35.56329], [-97.437326, 35.563342], [-97.43731, 35.563342], [-97.437311, 35.563451], [-97.437488, 35.563451], [-97.437487, 35.563364], [-97.437548, 35.563363], [-97.437547, 35.563289], [-97.437326, 35.56329]]]}, "properties": {"osm_id": 1090688339, "building": "yes", "name": "", "height": null, "height_m": null, "levels": null, "tract_id": "40109108101", "tract_name": "1081.01", "tags": {"building": "yes", "source": "microsoft/BuildingFootprints"}}}, {"type": "Feature", "geometry": {"type": "Polygon", "coordinates": [[[-97.440464, 35.561199], [-97.44034, 35.561166], [-97.440322, 35.561213], [-97.440288, 35.561204], [-97.440246, 35.561309], [-97.440207, 35.561299], [-97.440169, 35.561395], [-97.440234, 35.561412], [-97.440245, 35.561387], [-97.44038, 35.561422], [-97.440429, 35.561298], [-97.440425, 35.561297], [-97.440464, 35.561199]]]}, "properties": {"osm_id": 1090688340, "building": "yes", "name": "", "height": null, "height_m": null, "levels": null, "tract_id": "40109108101", "tract_name": "1081.01", "tags": {"building": "yes", "source": "microsoft/BuildingFootprints"}}}, {"type": "Feature", "geometry": {"type": "Polygon", "coordinates": [[[-97.441894, 35.563757], [-97.442047, 35.563757], [-97.442047, 35.563744], [-97.442152, 35.563744], [-97.442152, 35.563714], [-97.442192, 35.563714], [-97.442192, 35.56362], [-97.442141, 35.56362], [-97.442142, 35.563487], [-97.442032, 35.563487], [-97.442032, 35.563546], [-97.441994, 35.563545], [-97.441994, 35.563679], [-97.441894, 35.563678], [-97.441894, 35.563757]]]}, "properties": {"osm_id": 1090688341, "building": "yes", "name": "", "height": null, "height_m": null, "levels": null, "tract_id": "40109108101", "tract_name": "1081.01", "tags": {"building": "yes", "source": "microsoft/BuildingFootprints"}}}, {"type": "Feature", "geometry": {"type": "Polygon", "coordinates": [[[-97.441961, 35.564833], [-97.441848, 35.564846], [-97.441857, 35.564897], [-97.441739, 35.564911], [-97.44177, 35.565087], [-97.442001, 35.565059], [-97.441961, 35.564833]]]}, "properties": {"osm_id": 1090688342, "building": "yes", "name": "", "height": null, "height_m": null, "levels": null, "tract_id": "40109108101", "tract_name": "1081.01", "tags": {"building": "yes", "source": "microsoft/BuildingFootprints"}}}, {"type": "Feature", "geometry": {"type": "Polygon", "coordinates": [[[-97.44234, 35.562506], [-97.442139, 35.562508], [-97.44214, 35.562569], [-97.442073, 35.56257], [-97.442074, 35.562634], [-97.442171, 35.562633], [-97.442172, 35.562735], [-97.442135, 35.562736], [-97.442136, 35.562803], [-97.442305, 35.562802], [-97.442303, 35.562716], [-97.442364, 35.562715], [-97.442362, 35.562573], [-97.442341, 35.562573], [-97.44234, 35.562506]]]}, "properties": {"osm_id": 1090688343, "building": "yes", "name": "", "height": null, "height_m": null, "levels": null, "tract_id": "40109108101", "tract_name": "1081.01", "tags": {"building": "yes", "source": "microsoft/BuildingFootprints"}}}, {"type": "Feature", "geometry": {"type": "Polygon", "coordinates": [[[-97.440562, 35.564629], [-97.440561, 35.564683], [-97.440494, 35.564683], [-97.440494, 35.564757], [-97.440534, 35.564757], [-97.440534, 35.564805], [-97.440755, 35.564806], [-97.440756, 35.564662], [-97.440649, 35.564662], [-97.440649, 35.564629], [-97.440562, 35.564629]]]}, "properties": {"osm_id": 1090688344, "building": "yes", "name": "", "height": null, "height_m": null, "levels": null, "tract_id": "40109108101", "tract_name": "1081.01", "tags": {"building": "yes", "source": "microsoft/BuildingFootprints"}}}, {"type": "Feature", "geometry": {"type": "Polygon", "coordinates": [[[-97.438105, 35.559489], [-97.438116, 35.559589], [-97.438484, 35.559563], [-97.438473, 35.559463], [-97.438105, 35.559489]]]}, "properties": {"osm_id": 1090688345, "building": "yes", "name": "", "height": null, "height_m": null, "levels": null, "tract_id": "40109108101", "tract_name": "1081.01", "tags": {"building": "yes", "source": "microsoft/BuildingFootprints"}}}, {"type": "Feature", "geometry": {"type": "Polygon", "coordinates": [[[-97.436593, 35.565036], [-97.436592, 35.564962], [-97.436567, 35.564963], [-97.436564, 35.564803], [-97.43633, 35.564807], [-97.436336, 35.565032], [-97.4364, 35.565031], [-97.436402, 35.565101], [-97.436493, 35.565099], [-97.436492, 35.565038], [-97.436593, 35.565036]]]}, "properties": {"osm_id": 1090688346, "building": "yes", "name": "", "height": null, "height_m": null, "levels": null, "tract_id": "40109108101", "tract_name": "1081.01", "tags": {"building": "yes", "source": "microsoft/BuildingFootprints"}}}, {"type": "Feature", "geometry": {"type": "Polygon", "coordinates": [[[-97.435482, 35.5643], [-97.435481, 35.564374], [-97.435551, 35.564375], [-97.43555, 35.564412], [-97.435529, 35.564412], [-97.435528, 35.564495], [-97.435722, 35.564497], [-97.435725, 35.564302], [-97.435482, 35.5643]]]}, "properties": {"osm_id": 1090688347, "building": "yes", "name": "", "height": null, "height_m": null, "levels": null, "tract_id": "40109108101", "tract_name": "1081.01", "tags": {"building": "yes", "source": "microsoft/BuildingFootprints"}}}, {"type": "Feature", "geometry": {"type": "Polygon", "coordinates": [[[-97.437694, 35.558875], [-97.437696, 35.55878], [-97.437618, 35.558779], [-97.437619, 35.558701], [-97.437494, 35.5587], [-97.437493, 35.558775], [-97.437339, 35.558773], [-97.437338, 35.558845], [-97.437456, 35.558847], [-97.437455, 35.558902], [-97.43753, 35.558903], [-97.43753, 35.558872], [-97.437694, 35.558875]]]}, "properties": {"osm_id": 1090688348, "building": "yes", "name": "", "height": null, "height_m": null, "levels": null, "tract_id": "40109108101", "tract_name": "1081.01", "tags": {"building": "yes", "source": "microsoft/BuildingFootprints"}}}, {"type": "Feature", "geometry": {"type": "Polygon", "coordinates": [[[-97.437683, 35.561111], [-97.437685, 35.560981], [-97.437581, 35.560979], [-97.437579, 35.561056], [-97.437365, 35.561053], [-97.437362, 35.56118], [-97.437389, 35.56118], [-97.437389, 35.561208], [-97.437611, 35.561211], [-97.437612, 35.561202], [-97.437689, 35.561203], [-97.43769, 35.56119], [-97.437805, 35.561191], [-97.437806, 35.561113], [-97.437683, 35.561111]]]}, "properties": {"osm_id": 1090688349, "building": "yes", "name": "", "height": null, "height_m": null, "levels": null, "tract_id": "40109108101", "tract_name": "1081.01", "tags": {"building": "yes", "source": "microsoft/BuildingFootprints"}}}, {"type": "Feature", "geometry": {"type": "Polygon", "coordinates": [[[-97.439891, 35.564788], [-97.440091, 35.564788], [-97.440091, 35.564806], [-97.440255, 35.564806], [-97.440255, 35.564685], [-97.440164, 35.564685], [-97.440164, 35.564614], [-97.440081, 35.564614], [-97.440081, 35.564653], [-97.439963, 35.564653], [-97.439963, 35.564624], [-97.439892, 35.564624], [-97.439891, 35.564788]]]}, "properties": {"osm_id": 1090688350, "building": "yes", "name": "", "height": null, "height_m": null, "levels": null, "tract_id": "40109108101", "tract_name": "1081.01", "tags": {"building": "yes", "source": "microsoft/BuildingFootprints"}}}, {"type": "Feature", "geometry": {"type": "Polygon", "coordinates": [[[-97.437538, 35.563768], [-97.437374, 35.563765], [-97.437366, 35.564004], [-97.437586, 35.56401], [-97.437592, 35.563844], [-97.437535, 35.563842], [-97.437538, 35.563768]]]}, "properties": {"osm_id": 1090688351, "building": "yes", "name": "", "height": null, "height_m": null, "levels": null, "tract_id": "40109108101", "tract_name": "1081.01", "tags": {"building": "yes", "source": "microsoft/BuildingFootprints"}}}, {"type": "Feature", "geometry": {"type": "Polygon", "coordinates": [[[-97.440754, 35.559443], [-97.440711, 35.559359], [-97.440675, 35.559372], [-97.440656, 35.559335], [-97.440384, 35.559428], [-97.440446, 35.559548], [-97.440754, 35.559443]]]}, "properties": {"osm_id": 1090688352, "building": "yes", "name": "", "height": null, "height_m": null, "levels": null, "tract_id": "40109108101", "tract_name": "1081.01", "tags": {"building": "yes", "source": "microsoft/BuildingFootprints"}}}, {"type": "Feature", "geometry": {"type": "Polygon", "coordinates": [[[-97.434433, 35.563711], [-97.434425, 35.563743], [-97.434366, 35.563732], [-97.434353, 35.563782], [-97.434408, 35.563792], [-97.434368, 35.563945], [-97.434469, 35.563963], [-97.434503, 35.563833], [-97.434488, 35.56383], [-97.434499, 35.563788], [-97.43453, 35.563793], [-97.434546, 35.563731], [-97.434433, 35.563711]]]}, "properties": {"osm_id": 1090688353, "building": "yes", "name": "", "height": null, "height_m": null, "levels": null, "tract_id": "40109108101", "tract_name": "1081.01", "tags": {"building": "yes", "source": "microsoft/BuildingFootprints"}}}, {"type": "Feature", "geometry": {"type": "Polygon", "coordinates": [[[-97.442214, 35.563058], [-97.441911, 35.56306], [-97.441912, 35.563137], [-97.441967, 35.563137], [-97.441968, 35.563288], [-97.442177, 35.563287], [-97.442177, 35.563242], [-97.442216, 35.563242], [-97.442214, 35.563058]]]}, "properties": {"osm_id": 1090688354, "building": "yes", "name": "", "height": null, "height_m": null, "levels": null, "tract_id": "40109108101", "tract_name": "1081.01", "tags": {"building": "yes", "source": "microsoft/BuildingFootprints"}}}, {"type": "Feature", "geometry": {"type": "Polygon", "coordinates": [[[-97.436162, 35.561474], [-97.436251, 35.561566], [-97.436336, 35.561511], [-97.436449, 35.561627], [-97.436581, 35.561541], [-97.436465, 35.561422], [-97.436579, 35.561349], [-97.436516, 35.561285], [-97.436317, 35.561413], [-97.436293, 35.561389], [-97.436162, 35.561474]]]}, "properties": {"osm_id": 1090688355, "building": "yes", "name": "", "height": null, "height_m": null, "levels": null, "tract_id": "40109108101", "tract_name": "1081.01", "tags": {"building": "yes", "source": "microsoft/BuildingFootprints"}}}, {"type": "Feature", "geometry": {"type": "Polygon", "coordinates": [[[-97.437544, 35.566511], [-97.437476, 35.566417], [-97.437226, 35.566537], [-97.437268, 35.566595], [-97.437233, 35.566612], [-97.437349, 35.566772], [-97.437456, 35.566721], [-97.437426, 35.566679], [-97.437511, 35.566639], [-97.437451, 35.566555], [-97.437544, 35.566511]]]}, "properties": {"osm_id": 1090688356, "building": "yes", "name": "", "height": null, "height_m": null, "levels": null, "tract_id": "40109108101", "tract_name": "1081.01", "tags": {"building": "yes", "source": "microsoft/BuildingFootprints"}}}, {"type": "Feature", "geometry": {"type": "Polygon", "coordinates": [[[-97.44063, 35.562477], [-97.440506, 35.562461], [-97.440508, 35.562448], [-97.440416, 35.562437], [-97.440393, 35.562561], [-97.440368, 35.562558], [-97.440355, 35.562631], [-97.440474, 35.562646], [-97.440467, 35.562681], [-97.440552, 35.562692], [-97.440572, 35.562585], [-97.440609, 35.56259], [-97.44063, 35.562477]]]}, "properties": {"osm_id": 1090688357, "building": "yes", "name": "", "height": null, "height_m": null, "levels": null, "tract_id": "40109108101", "tract_name": "1081.01", "tags": {"building": "yes", "source": "microsoft/BuildingFootprints"}}}, {"type": "Feature", "geometry": {"type": "Polygon", "coordinates": [[[-97.439451, 35.563008], [-97.439429, 35.563112], [-97.439398, 35.563108], [-97.439359, 35.563291], [-97.43955, 35.563318], [-97.439611, 35.56303], [-97.439451, 35.563008]]]}, "properties": {"osm_id": 1090688358, "building": "yes", "name": "", "height": null, "height_m": null, "levels": null, "tract_id": "40109108101", "tract_name": "1081.01", "tags": {"building": "yes", "source": "microsoft/BuildingFootprints"}}}, {"type": "Feature", "geometry": {"type": "Polygon", "coordinates": [[[-97.436408, 35.562694], [-97.436508, 35.562733], [-97.436475, 35.562788], [-97.436591, 35.562834], [-97.436614, 35.562795], [-97.436657, 35.562812], [-97.436696, 35.562747], [-97.436655, 35.562731], [-97.436694, 35.562667], [-97.436549, 35.56261], [-97.436519, 35.562661], [-97.436445, 35.562632], [-97.436408, 35.562694]]]}, "properties": {"osm_id": 1090688359, "building": "yes", "name": "", "height": null, "height_m": null, "levels": null, "tract_id": "40109108101", "tract_name": "1081.01", "tags": {"building": "yes", "source": "microsoft/BuildingFootprints"}}}, {"type": "Feature", "geometry": {"type": "Polygon", "coordinates": [[[-97.436147, 35.567069], [-97.436232, 35.567066], [-97.436227, 35.566944], [-97.436141, 35.566947], [-97.436147, 35.567069]]]}, "properties": {"osm_id": 1090688360, "building": "yes", "name": "", "height": null, "height_m": null, "levels": null, "tract_id": "40109108101", "tract_name": "1081.01", "tags": {"building": "yes", "source": "microsoft/BuildingFootprints"}}}, {"type": "Feature", "geometry": {"type": "Polygon", "coordinates": [[[-97.435773, 35.564905], [-97.435538, 35.5649], [-97.435535, 35.564977], [-97.435622, 35.564979], [-97.435618, 35.565109], [-97.435802, 35.565113], [-97.435806, 35.564995], [-97.435769, 35.564995], [-97.435773, 35.564905]]]}, "properties": {"osm_id": 1090688361, "building": "yes", "name": "", "height": null, "height_m": null, "levels": null, "tract_id": "40109108101", "tract_name": "1081.01", "tags": {"building": "yes", "source": "microsoft/BuildingFootprints"}}}, {"type": "Feature", "geometry": {"type": "Polygon", "coordinates": [[[-97.437603, 35.559754], [-97.437496, 35.559618], [-97.437289, 35.559726], [-97.437468, 35.559951], [-97.437566, 35.5599], [-97.437496, 35.55981], [-97.437603, 35.559754]]]}, "properties": {"osm_id": 1090688362, "building": "yes", "name": "", "height": null, "height_m": null, "levels": null, "tract_id": "40109108101", "tract_name": "1081.01", "tags": {"building": "yes", "source": "microsoft/BuildingFootprints"}}}, {"type": "Feature", "geometry": {"type": "Polygon", "coordinates": [[[-97.440063, 35.561597], [-97.439997, 35.561724], [-97.439972, 35.561716], [-97.439934, 35.561791], [-97.440142, 35.561861], [-97.440228, 35.561692], [-97.440192, 35.56168], [-97.440209, 35.561646], [-97.440063, 35.561597]]]}, "properties": {"osm_id": 1090688363, "building": "yes", "name": "", "height": null, "height_m": null, "levels": null, "tract_id": "40109108101", "tract_name": "1081.01", "tags": {"building": "yes", "source": "microsoft/BuildingFootprints"}}}, {"type": "Feature", "geometry": {"type": "Polygon", "coordinates": [[[-97.443219, 35.563622], [-97.44338, 35.563617], [-97.443376, 35.563533], [-97.443216, 35.563538], [-97.443219, 35.563622]]]}, "properties": {"osm_id": 1090688364, "building": "yes", "name": "", "height": null, "height_m": null, "levels": null, "tract_id": "40109108101", "tract_name": "1081.01", "tags": {"building": "yes", "source": "microsoft/BuildingFootprints"}}}, {"type": "Feature", "geometry": {"type": "Polygon", "coordinates": [[[-97.43602, 35.561309], [-97.435736, 35.561313], [-97.435738, 35.561407], [-97.436022, 35.561403], [-97.43602, 35.561309]]]}, "properties": {"osm_id": 1090688365, "building": "yes", "name": "", "height": null, "height_m": null, "levels": null, "tract_id": "40109108101", "tract_name": "1081.01", "tags": {"building": "yes", "source": "microsoft/BuildingFootprints"}}}, {"type": "Feature", "geometry": {"type": "Polygon", "coordinates": [[[-97.439793, 35.558922], [-97.439693, 35.558927], [-97.439694, 35.558948], [-97.439452, 35.558959], [-97.439457, 35.559043], [-97.439507, 35.559041], [-97.43951, 35.559088], [-97.439671, 35.55908], [-97.439668, 35.559038], [-97.4398, 35.559032], [-97.439793, 35.558922]]]}, "properties": {"osm_id": 1090688366, "building": "yes", "name": "", "height": null, "height_m": null, "levels": null, "tract_id": "40109108101", "tract_name": "1081.01", "tags": {"building": "yes", "source": "microsoft/BuildingFootprints"}}}, {"type": "Feature", "geometry": {"type": "Polygon", "coordinates": [[[-97.436837, 35.560611], [-97.436775, 35.560468], [-97.436589, 35.560521], [-97.436663, 35.560692], [-97.436644, 35.560697], [-97.436675, 35.560768], [-97.436849, 35.560718], [-97.436806, 35.56062], [-97.436837, 35.560611]]]}, "properties": {"osm_id": 1090688367, "building": "yes", "name": "", "height": null, "height_m": null, "levels": null, "tract_id": "40109108101", "tract_name": "1081.01", "tags": {"building": "yes", "source": "microsoft/BuildingFootprints"}}}, {"type": "Feature", "geometry": {"type": "Polygon", "coordinates": [[[-97.439831, 35.560526], [-97.439748, 35.560364], [-97.439657, 35.560395], [-97.439695, 35.56047], [-97.439548, 35.56052], [-97.43958, 35.560581], [-97.439538, 35.560595], [-97.439565, 35.560649], [-97.439782, 35.560575], [-97.439768, 35.560547], [-97.439831, 35.560526]]]}, "properties": {"osm_id": 1090688368, "building": "yes", "name": "", "height": null, "height_m": null, "levels": null, "tract_id": "40109108101", "tract_name": "1081.01", "tags": {"building": "yes", "source": "microsoft/BuildingFootprints"}}}, {"type": "Feature", "geometry": {"type": "Polygon", "coordinates": [[[-97.434501, 35.55949], [-97.434464, 35.559681], [-97.434432, 35.559676], [-97.434419, 35.55974], [-97.43463, 35.559767], [-97.434664, 35.559592], [-97.43463, 35.559587], [-97.434653, 35.559465], [-97.434558, 35.559453], [-97.43455, 35.559496], [-97.434501, 35.55949]]]}, "properties": {"osm_id": 1090688369, "building": "yes", "name": "", "height": null, "height_m": null, "levels": null, "tract_id": "40109108101", "tract_name": "1081.01", "tags": {"building": "yes", "source": "microsoft/BuildingFootprints"}}}, {"type": "Feature", "geometry": {"type": "Polygon", "coordinates": [[[-97.437635, 35.561596], [-97.437653, 35.561932], [-97.43772, 35.561929], [-97.437721, 35.561948], [-97.437852, 35.561943], [-97.437845, 35.561803], [-97.437896, 35.561801], [-97.437886, 35.561619], [-97.437814, 35.561621], [-97.437818, 35.561692], [-97.437731, 35.561695], [-97.437725, 35.561593], [-97.437635, 35.561596]]]}, "properties": {"osm_id": 1090688370, "building": "yes", "name": "", "height": null, "height_m": null, "levels": null, "tract_id": "40109108101", "tract_name": "1081.01", "tags": {"building": "yes", "source": "microsoft/BuildingFootprints"}}}, {"type": "Feature", "geometry": {"type": "Polygon", "coordinates": [[[-97.439561, 35.564072], [-97.439462, 35.564069], [-97.439465, 35.56403], [-97.439352, 35.564025], [-97.439349, 35.564091], [-97.439322, 35.56409], [-97.439312, 35.564263], [-97.439478, 35.564269], [-97.439483, 35.564191], [-97.439507, 35.564192], [-97.439509, 35.564146], [-97.439557, 35.564148], [-97.439561, 35.564072]]]}, "properties": {"osm_id": 1090688371, "building": "yes", "name": "", "height": null, "height_m": null, "levels": null, "tract_id": "40109108101", "tract_name": "1081.01", "tags": {"building": "yes", "source": "microsoft/BuildingFootprints"}}}, {"type": "Feature", "geometry": {"type": "Polygon", "coordinates": [[[-97.441028, 35.561247], [-97.441287, 35.561297], [-97.441304, 35.561239], [-97.44135, 35.561248], [-97.44137, 35.561177], [-97.441307, 35.561165], [-97.441325, 35.561101], [-97.441229, 35.561083], [-97.441221, 35.561109], [-97.441076, 35.561081], [-97.441028, 35.561247]]]}, "properties": {"osm_id": 1090688372, "building": "yes", "name": "", "height": null, "height_m": null, "levels": null, "tract_id": "40109108101", "tract_name": "1081.01", "tags": {"building": "yes", "source": "microsoft/BuildingFootprints"}}}, {"type": "Feature", "geometry": {"type": "Polygon", "coordinates": [[[-97.441126, 35.564037], [-97.441125, 35.564218], [-97.441272, 35.564218], [-97.441272, 35.564242], [-97.441406, 35.564243], [-97.441406, 35.564287], [-97.441486, 35.564287], [-97.441487, 35.564213], [-97.44135, 35.564212], [-97.441351, 35.564062], [-97.441257, 35.564061], [-97.441258, 35.564037], [-97.441126, 35.564037]]]}, "properties": {"osm_id": 1090688373, "building": "yes", "name": "", "height": null, "height_m": null, "levels": null, "tract_id": "40109108101", "tract_name": "1081.01", "tags": {"building": "yes", "source": "microsoft/BuildingFootprints"}}}, {"type": "Feature", "geometry": {"type": "Polygon", "coordinates": [[[-97.438407, 35.562982], [-97.438202, 35.562973], [-97.438196, 35.563071], [-97.438124, 35.563068], [-97.438118, 35.563159], [-97.438394, 35.563171], [-97.438407, 35.562982]]]}, "properties": {"osm_id": 1090688374, "building": "yes", "name": "", "height": null, "height_m": null, "levels": null, "tract_id": "40109108101", "tract_name": "1081.01", "tags": {"building": "yes", "source": "microsoft/BuildingFootprints"}}}, {"type": "Feature", "geometry": {"type": "Polygon", "coordinates": [[[-97.435437, 35.560854], [-97.43529, 35.560824], [-97.43527, 35.560887], [-97.43531, 35.560896], [-97.435268, 35.56103], [-97.435395, 35.561056], [-97.435431, 35.560942], [-97.43541, 35.560937], [-97.435437, 35.560854]]]}, "properties": {"osm_id": 1090688375, "building": "yes", "name": "", "height": null, "height_m": null, "levels": null, "tract_id": "40109108101", "tract_name": "1081.01", "tags": {"building": "yes", "source": "microsoft/BuildingFootprints"}}}, {"type": "Feature", "geometry": {"type": "Polygon", "coordinates": [[[-97.44127, 35.561812], [-97.441274, 35.562041], [-97.441425, 35.562039], [-97.441425, 35.561992], [-97.441458, 35.561992], [-97.441456, 35.5619], [-97.441491, 35.5619], [-97.44149, 35.561831], [-97.441385, 35.561833], [-97.441385, 35.561811], [-97.44127, 35.561812]]]}, "properties": {"osm_id": 1090688376, "building": "yes", "name": "", "height": null, "height_m": null, "levels": null, "tract_id": "40109108101", "tract_name": "1081.01", "tags": {"building": "yes", "source": "microsoft/BuildingFootprints"}}}, {"type": "Feature", "geometry": {"type": "Polygon", "coordinates": [[[-97.443523, 35.563218], [-97.443816, 35.563222], [-97.443817, 35.563163], [-97.443763, 35.563162], [-97.443764, 35.563122], [-97.443686, 35.563121], [-97.443686, 35.56314], [-97.443524, 35.563138], [-97.443523, 35.563218]]]}, "properties": {"osm_id": 1090688377, "building": "yes", "name": "", "height": null, "height_m": null, "levels": null, "tract_id": "40109108101", "tract_name": "1081.01", "tags": {"building": "yes", "source": "microsoft/BuildingFootprints"}}}, {"type": "Feature", "geometry": {"type": "Polygon", "coordinates": [[[-97.434549, 35.564514], [-97.434673, 35.564523], [-97.434691, 35.564364], [-97.434567, 35.564355], [-97.434549, 35.564514]]]}, "properties": {"osm_id": 1090688378, "building": "yes", "name": "", "height": null, "height_m": null, "levels": null, "tract_id": "40109108101", "tract_name": "1081.01", "tags": {"building": "yes", "source": "microsoft/BuildingFootprints"}}}, {"type": "Feature", "geometry": {"type": "Polygon", "coordinates": [[[-97.442008, 35.562103], [-97.44201, 35.562189], [-97.44195, 35.56219], [-97.441952, 35.562264], [-97.44217, 35.56226], [-97.442169, 35.562208], [-97.442214, 35.562207], [-97.442211, 35.562099], [-97.442008, 35.562103]]]}, "properties": {"osm_id": 1090688379, "building": "yes", "name": "", "height": null, "height_m": null, "levels": null, "tract_id": "40109108101", "tract_name": "1081.01", "tags": {"building": "yes", "source": "microsoft/BuildingFootprints"}}}, {"type": "Feature", "geometry": {"type": "Polygon", "coordinates": [[[-97.435712, 35.56716], [-97.435831, 35.567153], [-97.435841, 35.567275], [-97.436028, 35.567264], [-97.436022, 35.567192], [-97.436097, 35.567188], [-97.436091, 35.567123], [-97.435984, 35.567129], [-97.435972, 35.566981], [-97.435998, 35.56698], [-97.435993, 35.566919], [-97.435797, 35.56693], [-97.435801, 35.566972], [-97.435697, 35.566978], [-97.435712, 35.56716]]]}, "properties": {"osm_id": 1090688380, "building": "yes", "name": "", "height": null, "height_m": null, "levels": null, "tract_id": "40109108101", "tract_name": "1081.01", "tags": {"building": "yes", "source": "microsoft/BuildingFootprints"}}}, {"type": "Feature", "geometry": {"type": "Polygon", "coordinates": [[[-97.442489, 35.56166], [-97.442491, 35.561723], [-97.442465, 35.561724], [-97.442468, 35.5618], [-97.44254, 35.561798], [-97.442535, 35.561659], [-97.442489, 35.56166]]]}, "properties": {"osm_id": 1090688381, "building": "yes", "name": "", "height": null, "height_m": null, "levels": null, "tract_id": "40109108101", "tract_name": "1081.01", "tags": {"building": "yes", "source": "microsoft/BuildingFootprints"}}}, {"type": "Feature", "geometry": {"type": "Polygon", "coordinates": [[[-97.437756, 35.56042], [-97.437643, 35.560379], [-97.437558, 35.560533], [-97.437559, 35.560534], [-97.437525, 35.560596], [-97.437666, 35.560647], [-97.43771, 35.560567], [-97.437728, 35.560574], [-97.437761, 35.560514], [-97.437714, 35.560496], [-97.437756, 35.56042]]]}, "properties": {"osm_id": 1090688382, "building": "yes", "name": "", "height": null, "height_m": null, "levels": null, "tract_id": "40109108101", "tract_name": "1081.01", "tags": {"building": "yes", "source": "microsoft/BuildingFootprints"}}}, {"type": "Feature", "geometry": {"type": "Polygon", "coordinates": [[[-97.434646, 35.561852], [-97.434636, 35.561711], [-97.434411, 35.561721], [-97.434416, 35.561791], [-97.434448, 35.56179], [-97.434459, 35.561934], [-97.43468, 35.561924], [-97.434675, 35.561851], [-97.434646, 35.561852]]]}, "properties": {"osm_id": 1090688383, "building": "yes", "name": "", "height": null, "height_m": null, "levels": null, "tract_id": "40109108101", "tract_name": "1081.01", "tags": {"building": "yes", "source": "microsoft/BuildingFootprints"}}}, {"type": "Feature", "geometry": {"type": "Polygon", "coordinates": [[[-97.442239, 35.564444], [-97.442112, 35.564429], [-97.442103, 35.564477], [-97.441991, 35.564463], [-97.441977, 35.564538], [-97.442048, 35.564546], [-97.442028, 35.564649], [-97.442188, 35.564668], [-97.442209, 35.564557], [-97.442218, 35.564559], [-97.442239, 35.564444]]]}, "properties": {"osm_id": 1090688384, "building": "yes", "name": "", "height": null, "height_m": null, "levels": null, "tract_id": "40109108101", "tract_name": "1081.01", "tags": {"building": "yes", "source": "microsoft/BuildingFootprints"}}}, {"type": "Feature", "geometry": {"type": "Polygon", "coordinates": [[[-97.438395, 35.563695], [-97.438395, 35.563583], [-97.438364, 35.563583], [-97.438364, 35.563517], [-97.438126, 35.563517], [-97.438127, 35.563587], [-97.43818, 35.563587], [-97.43818, 35.563709], [-97.438272, 35.563709], [-97.438272, 35.563695], [-97.438395, 35.563695]]]}, "properties": {"osm_id": 1090688385, "building": "yes", "name": "", "height": null, "height_m": null, "levels": null, "tract_id": "40109108101", "tract_name": "1081.01", "tags": {"building": "yes", "source": "microsoft/BuildingFootprints"}}}, {"type": "Feature", "geometry": {"type": "Polygon", "coordinates": [[[-97.43769, 35.565295], [-97.437763, 35.565276], [-97.437775, 35.565307], [-97.437899, 35.565275], [-97.437834, 35.565111], [-97.43772, 35.565141], [-97.437703, 35.565097], [-97.43762, 35.565119], [-97.43769, 35.565295]]]}, "properties": {"osm_id": 1090688386, "building": "yes", "name": "", "height": null, "height_m": null, "levels": null, "tract_id": "40109108101", "tract_name": "1081.01", "tags": {"building": "yes", "source": "microsoft/BuildingFootprints"}}}, {"type": "Feature", "geometry": {"type": "Polygon", "coordinates": [[[-97.439597, 35.562808], [-97.439742, 35.56283], [-97.439796, 35.562598], [-97.439677, 35.56258], [-97.439682, 35.562557], [-97.439565, 35.562539], [-97.439546, 35.562623], [-97.43958, 35.562629], [-97.439553, 35.562742], [-97.43961, 35.562751], [-97.439597, 35.562808]]]}, "properties": {"osm_id": 1090688387, "building": "yes", "name": "", "height": null, "height_m": null, "levels": null, "tract_id": "40109108101", "tract_name": "1081.01", "tags": {"building": "yes", "source": "microsoft/BuildingFootprints"}}}, {"type": "Feature", "geometry": {"type": "Polygon", "coordinates": [[[-97.436571, 35.560222], [-97.436636, 35.560208], [-97.436672, 35.560315], [-97.436764, 35.560295], [-97.436724, 35.560172], [-97.436744, 35.560168], [-97.436716, 35.560085], [-97.436659, 35.560098], [-97.436643, 35.560051], [-97.436523, 35.560077], [-97.436571, 35.560222]]]}, "properties": {"osm_id": 1090688388, "building": "yes", "name": "", "height": null, "height_m": null, "levels": null, "tract_id": "40109108101", "tract_name": "1081.01", "tags": {"building": "yes", "source": "microsoft/BuildingFootprints"}}}, {"type": "Feature", "geometry": {"type": "Polygon", "coordinates": [[[-97.44121, 35.558643], [-97.441193, 35.55866], [-97.441135, 35.55862], [-97.441052, 35.558701], [-97.441283, 35.558856], [-97.441363, 35.558778], [-97.441303, 35.558737], [-97.441322, 35.558718], [-97.44121, 35.558643]]]}, "properties": {"osm_id": 1090688389, "building": "yes", "name": "", "height": null, "height_m": null, "levels": null, "tract_id": "40109108101", "tract_name": "1081.01", "tags": {"building": "yes", "source": "microsoft/BuildingFootprints"}}}, {"type": "Feature", "geometry": {"type": "Polygon", "coordinates": [[[-97.434235, 35.566657], [-97.434309, 35.56672], [-97.434319, 35.566758], [-97.434419, 35.566842], [-97.434398, 35.566858], [-97.434468, 35.566917], [-97.434578, 35.566831], [-97.434491, 35.566758], [-97.434519, 35.566736], [-97.434543, 35.566732], [-97.434604, 35.566784], [-97.434708, 35.566767], [-97.434804, 35.566848], [-97.434883, 35.566785], [-97.434868, 35.566724], [-97.434824, 35.566686], [-97.43486, 35.566658], [-97.434813, 35.566618], [-97.434798, 35.56663], [-97.434693, 35.566647], [-97.434671, 35.566664], [-97.434679, 35.566695], [-97.434655, 35.566714], [-97.434615, 35.566721], [-97.4346, 35.566659], [-97.434618, 35.566645], [-97.434593, 35.566624], [-97.434482, 35.566642], [-97.43445, 35.566616], [-97.43443, 35.566535], [-97.434379, 35.566543], [-97.434235, 35.566657]]]}, "properties": {"osm_id": 1090688390, "building": "yes", "name": "", "height": null, "height_m": null, "levels": null, "tract_id": "40109108101", "tract_name": "1081.01", "tags": {"building": "yes", "source": "microsoft/BuildingFootprints"}}}, {"type": "Feature", "geometry": {"type": "Polygon", "coordinates": [[[-97.443332, 35.562136], [-97.443333, 35.562259], [-97.443435, 35.562258], [-97.443434, 35.562135], [-97.443332, 35.562136]]]}, "properties": {"osm_id": 1090688391, "building": "yes", "name": "", "height": null, "height_m": null, "levels": null, "tract_id": "40109108101", "tract_name": "1081.01", "tags": {"building": "yes", "source": "microsoft/BuildingFootprints"}}}, {"type": "Feature", "geometry": {"type": "Polygon", "coordinates": [[[-97.435242, 35.558798], [-97.435299, 35.558844], [-97.435335, 35.558814], [-97.435368, 35.55884], [-97.435329, 35.558872], [-97.435395, 35.558925], [-97.435551, 35.558795], [-97.435395, 35.558671], [-97.435242, 35.558798]]]}, "properties": {"osm_id": 1090688392, "building": "yes", "name": "", "height": null, "height_m": null, "levels": null, "tract_id": "40109108101", "tract_name": "1081.01", "tags": {"building": "yes", "source": "microsoft/BuildingFootprints"}}}, {"type": "Feature", "geometry": {"type": "Polygon", "coordinates": [[[-97.438574, 35.560451], [-97.438619, 35.560443], [-97.438639, 35.560402], [-97.438622, 35.560338], [-97.438595, 35.560329], [-97.438621, 35.560275], [-97.438616, 35.560255], [-97.438517, 35.560272], [-97.438447, 35.560417], [-97.438403, 35.560425], [-97.438386, 35.56046], [-97.438393, 35.56049], [-97.438429, 35.560501], [-97.438498, 35.560489], [-97.438485, 35.560516], [-97.4385, 35.560577], [-97.438473, 35.560581], [-97.438491, 35.560652], [-97.438532, 35.560645], [-97.438538, 35.56067], [-97.438582, 35.560662], [-97.438564, 35.560595], [-97.438574, 35.560576], [-97.438558, 35.560516], [-97.438579, 35.560473], [-97.438574, 35.560451]]]}, "properties": {"osm_id": 1090688393, "building": "yes", "name": "", "height": null, "height_m": null, "levels": null, "tract_id": "40109108101", "tract_name": "1081.01", "tags": {"building": "yes", "source": "microsoft/BuildingFootprints"}}}, {"type": "Feature", "geometry": {"type": "Polygon", "coordinates": [[[-97.438361, 35.567345], [-97.438192, 35.567323], [-97.438147, 35.567552], [-97.438316, 35.567574], [-97.438361, 35.567345]]]}, "properties": {"osm_id": 1090688394, "building": "yes", "name": "", "height": null, "height_m": null, "levels": null, "tract_id": "40109108101", "tract_name": "1081.01", "tags": {"building": "yes", "source": "microsoft/BuildingFootprints"}}}, {"type": "Feature", "geometry": {"type": "Polygon", "coordinates": [[[-97.439456, 35.564868], [-97.439641, 35.564868], [-97.439641, 35.564887], [-97.439706, 35.564887], [-97.439706, 35.564903], [-97.439765, 35.564903], [-97.439765, 35.564789], [-97.439713, 35.564788], [-97.439713, 35.564615], [-97.43962, 35.564615], [-97.43962, 35.564705], [-97.439524, 35.564705], [-97.439524, 35.564692], [-97.439457, 35.564692], [-97.439456, 35.564868]]]}, "properties": {"osm_id": 1090688395, "building": "yes", "name": "", "height": null, "height_m": null, "levels": null, "tract_id": "40109108101", "tract_name": "1081.01", "tags": {"building": "yes", "source": "microsoft/BuildingFootprints"}}}, {"type": "Feature", "geometry": {"type": "Polygon", "coordinates": [[[-97.440325, 35.560933], [-97.440538, 35.561015], [-97.440585, 35.560934], [-97.440612, 35.560945], [-97.440643, 35.560891], [-97.440586, 35.560869], [-97.440621, 35.560808], [-97.440471, 35.560751], [-97.440411, 35.560855], [-97.440378, 35.560842], [-97.440325, 35.560933]]]}, "properties": {"osm_id": 1090688396, "building": "yes", "name": "", "height": null, "height_m": null, "levels": null, "tract_id": "40109108101", "tract_name": "1081.01", "tags": {"building": "yes", "source": "microsoft/BuildingFootprints"}}}, {"type": "Feature", "geometry": {"type": "Polygon", "coordinates": [[[-97.438264, 35.561026], [-97.438262, 35.561098], [-97.438329, 35.561099], [-97.438325, 35.561189], [-97.438419, 35.561191], [-97.43842, 35.56117], [-97.438625, 35.561175], [-97.438628, 35.561097], [-97.43861, 35.561096], [-97.438614, 35.561001], [-97.438568, 35.561], [-97.438569, 35.560976], [-97.438352, 35.560971], [-97.43835, 35.561028], [-97.438264, 35.561026]]]}, "properties": {"osm_id": 1090688397, "building": "yes", "name": "", "height": null, "height_m": null, "levels": null, "tract_id": "40109108101", "tract_name": "1081.01", "tags": {"building": "yes", "source": "microsoft/BuildingFootprints"}}}, {"type": "Feature", "geometry": {"type": "Polygon", "coordinates": [[[-97.437674, 35.564283], [-97.437621, 35.564284], [-97.437619, 35.564168], [-97.437403, 35.564171], [-97.437405, 35.564283], [-97.437436, 35.564283], [-97.437437, 35.564334], [-97.437547, 35.564333], [-97.437547, 35.564359], [-97.437676, 35.564357], [-97.437674, 35.564283]]]}, "properties": {"osm_id": 1090688398, "building": "yes", "name": "", "height": null, "height_m": null, "levels": null, "tract_id": "40109108101", "tract_name": "1081.01", "tags": {"building": "yes", "source": "microsoft/BuildingFootprints"}}}, {"type": "Feature", "geometry": {"type": "Polygon", "coordinates": [[[-97.434473, 35.56497], [-97.434466, 35.565107], [-97.434427, 35.565106], [-97.434425, 35.56516], [-97.434609, 35.565166], [-97.434616, 35.565047], [-97.434708, 35.56505], [-97.434712, 35.564978], [-97.434473, 35.56497]]]}, "properties": {"osm_id": 1090688399, "building": "yes", "name": "", "height": null, "height_m": null, "levels": null, "tract_id": "40109108101", "tract_name": "1081.01", "tags": {"building": "yes", "source": "microsoft/BuildingFootprints"}}}, {"type": "Feature", "geometry": {"type": "Polygon", "coordinates": [[[-97.440306, 35.564245], [-97.440384, 35.564308], [-97.440465, 35.564241], [-97.440408, 35.564195], [-97.440446, 35.564164], [-97.440381, 35.564111], [-97.44031, 35.564169], [-97.440273, 35.564139], [-97.440287, 35.564127], [-97.44025, 35.564098], [-97.440171, 35.564163], [-97.440102, 35.564107], [-97.440037, 35.564161], [-97.440084, 35.564199], [-97.44003, 35.564243], [-97.440107, 35.564305], [-97.440192, 35.564236], [-97.440256, 35.564287], [-97.440306, 35.564245]]]}, "properties": {"osm_id": 1090688400, "building": "yes", "name": "", "height": null, "height_m": null, "levels": null, "tract_id": "40109108101", "tract_name": "1081.01", "tags": {"building": "yes", "source": "microsoft/BuildingFootprints"}}}, {"type": "Feature", "geometry": {"type": "Polygon", "coordinates": [[[-97.435467, 35.56036], [-97.435626, 35.560396], [-97.435703, 35.560174], [-97.435544, 35.560137], [-97.435467, 35.56036]]]}, "properties": {"osm_id": 1090688401, "building": "yes", "name": "", "height": null, "height_m": null, "levels": null, "tract_id": "40109108101", "tract_name": "1081.01", "tags": {"building": "yes", "source": "microsoft/BuildingFootprints"}}}, {"type": "Feature", "geometry": {"type": "Polygon", "coordinates": [[[-97.439934, 35.559803], [-97.439885, 35.560024], [-97.440144, 35.560061], [-97.440156, 35.560006], [-97.440086, 35.559996], [-97.440093, 35.559962], [-97.440041, 35.559955], [-97.440058, 35.559881], [-97.440149, 35.559894], [-97.440161, 35.559836], [-97.439934, 35.559803]]]}, "properties": {"osm_id": 1090688402, "building": "yes", "name": "", "height": null, "height_m": null, "levels": null, "tract_id": "40109108101", "tract_name": "1081.01", "tags": {"building": "yes", "source": "microsoft/BuildingFootprints"}}}, {"type": "Feature", "geometry": {"type": "Polygon", "coordinates": [[[-97.436715, 35.559412], [-97.436583, 35.559353], [-97.436567, 35.559378], [-97.436503, 35.55935], [-97.436463, 35.559409], [-97.436385, 35.559374], [-97.436338, 35.559442], [-97.436584, 35.559552], [-97.436637, 35.559473], [-97.436666, 35.559486], [-97.436715, 35.559412]]]}, "properties": {"osm_id": 1090688403, "building": "yes", "name": "", "height": null, "height_m": null, "levels": null, "tract_id": "40109108101", "tract_name": "1081.01", "tags": {"building": "yes", "source": "microsoft/BuildingFootprints"}}}, {"type": "Feature", "geometry": {"type": "Polygon", "coordinates": [[[-97.44063, 35.561827], [-97.440613, 35.56197], [-97.440587, 35.561968], [-97.440578, 35.562045], [-97.440671, 35.562052], [-97.440664, 35.562114], [-97.440757, 35.562122], [-97.440764, 35.562056], [-97.440855, 35.562063], [-97.440863, 35.561994], [-97.440834, 35.561992], [-97.440852, 35.561844], [-97.44063, 35.561827]]]}, "properties": {"osm_id": 1090688404, "building": "yes", "name": "", "height": null, "height_m": null, "levels": null, "tract_id": "40109108101", "tract_name": "1081.01", "tags": {"building": "yes", "source": "microsoft/BuildingFootprints"}}}, {"type": "Feature", "geometry": {"type": "Polygon", "coordinates": [[[-97.438946, 35.559868], [-97.439048, 35.559914], [-97.439174, 35.559732], [-97.439148, 35.55972], [-97.439192, 35.559656], [-97.439105, 35.559617], [-97.439004, 35.559764], [-97.439014, 35.559769], [-97.438946, 35.559868]]]}, "properties": {"osm_id": 1090688405, "building": "yes", "name": "", "height": null, "height_m": null, "levels": null, "tract_id": "40109108101", "tract_name": "1081.01", "tags": {"building": "yes", "source": "microsoft/BuildingFootprints"}}}, {"type": "Feature", "geometry": {"type": "Polygon", "coordinates": [[[-97.438887, 35.558958], [-97.43903, 35.559022], [-97.439065, 35.558971], [-97.43914, 35.559005], [-97.439199, 35.558918], [-97.439115, 35.55888], [-97.439097, 35.558906], [-97.438903, 35.558817], [-97.438863, 35.558876], [-97.438925, 35.558903], [-97.438887, 35.558958]]]}, "properties": {"osm_id": 1090688406, "building": "yes", "name": "", "height": null, "height_m": null, "levels": null, "tract_id": "40109108101", "tract_name": "1081.01", "tags": {"building": "yes", "source": "microsoft/BuildingFootprints"}}}, {"type": "Feature", "geometry": {"type": "Polygon", "coordinates": [[[-97.441643, 35.559857], [-97.441396, 35.559697], [-97.441331, 35.559763], [-97.441375, 35.559791], [-97.44126, 35.559909], [-97.441337, 35.559959], [-97.441395, 35.559899], [-97.441463, 35.559943], [-97.441411, 35.559996], [-97.44147, 35.560034], [-97.441643, 35.559857]]]}, "properties": {"osm_id": 1090688407, "building": "yes", "name": "", "height": null, "height_m": null, "levels": null, "tract_id": "40109108101", "tract_name": "1081.01", "tags": {"building": "yes", "source": "microsoft/BuildingFootprints"}}}, {"type": "Feature", "geometry": {"type": "Polygon", "coordinates": [[[-97.442266, 35.55918], [-97.442164, 35.559171], [-97.442152, 35.559263], [-97.4421, 35.559258], [-97.442103, 35.559234], [-97.441939, 35.55922], [-97.44192, 35.559368], [-97.442173, 35.55939], [-97.442173, 35.559392], [-97.442235, 35.559397], [-97.442238, 35.559376], [-97.442365, 35.559387], [-97.442374, 35.559315], [-97.442318, 35.55931], [-97.442316, 35.559323], [-97.442248, 35.559317], [-97.442266, 35.55918]]]}, "properties": {"osm_id": 1090688408, "building": "yes", "name": "", "height": null, "height_m": null, "levels": null, "tract_id": "40109108101", "tract_name": "1081.01", "tags": {"building": "yes", "source": "microsoft/BuildingFootprints"}}}, {"type": "Feature", "geometry": {"type": "Polygon", "coordinates": [[[-97.434548, 35.560124], [-97.434472, 35.560115], [-97.434479, 35.560076], [-97.434375, 35.560064], [-97.434325, 35.56033], [-97.434433, 35.560344], [-97.434439, 35.560309], [-97.434513, 35.560318], [-97.434548, 35.560124]]]}, "properties": {"osm_id": 1090688409, "building": "yes", "name": "", "height": null, "height_m": null, "levels": null, "tract_id": "40109108101", "tract_name": "1081.01", "tags": {"building": "yes", "source": "microsoft/BuildingFootprints"}}}, {"type": "Feature", "geometry": {"type": "Polygon", "coordinates": [[[-97.437285, 35.562965], [-97.437408, 35.562963], [-97.437409, 35.563001], [-97.437536, 35.562999], [-97.437534, 35.562916], [-97.437492, 35.562917], [-97.437489, 35.562776], [-97.43728, 35.56278], [-97.437285, 35.562965]]]}, "properties": {"osm_id": 1090688410, "building": "yes", "name": "", "height": null, "height_m": null, "levels": null, "tract_id": "40109108101", "tract_name": "1081.01", "tags": {"building": "yes", "source": "microsoft/BuildingFootprints"}}}, {"type": "Feature", "geometry": {"type": "Polygon", "coordinates": [[[-97.441471, 35.56371], [-97.44147, 35.563573], [-97.441453, 35.563573], [-97.441452, 35.563478], [-97.441337, 35.563479], [-97.441336, 35.563454], [-97.44122, 35.563454], [-97.441221, 35.563544], [-97.441262, 35.563543], [-97.441263, 35.563657], [-97.441322, 35.563657], [-97.441322, 35.563711], [-97.441471, 35.56371]]]}, "properties": {"osm_id": 1090688411, "building": "yes", "name": "", "height": null, "height_m": null, "levels": null, "tract_id": "40109108101", "tract_name": "1081.01", "tags": {"building": "yes", "source": "microsoft/BuildingFootprints"}}}, {"type": "Feature", "geometry": {"type": "Polygon", "coordinates": [[[-97.441211, 35.562392], [-97.44121, 35.56247], [-97.441264, 35.56247], [-97.441264, 35.562562], [-97.441267, 35.562562], [-97.441267, 35.562669], [-97.441414, 35.562669], [-97.441414, 35.562631], [-97.441446, 35.562631], [-97.441447, 35.562392], [-97.441211, 35.562392]]]}, "properties": {"osm_id": 1090688412, "building": "yes", "name": "", "height": null, "height_m": null, "levels": null, "tract_id": "40109108101", "tract_name": "1081.01", "tags": {"building": "yes", "source": "microsoft/BuildingFootprints"}}}, {"type": "Feature", "geometry": {"type": "Polygon", "coordinates": [[[-97.435642, 35.562372], [-97.435533, 35.562374], [-97.435536, 35.562458], [-97.435645, 35.562455], [-97.435642, 35.562372]]]}, "properties": {"osm_id": 1090688413, "building": "yes", "name": "", "height": null, "height_m": null, "levels": null, "tract_id": "40109108101", "tract_name": "1081.01", "tags": {"building": "yes", "source": "microsoft/BuildingFootprints"}}}, {"type": "Feature", "geometry": {"type": "Polygon", "coordinates": [[[-97.435633, 35.561423], [-97.435495, 35.561435], [-97.435514, 35.561578], [-97.435498, 35.561579], [-97.435518, 35.561734], [-97.43557, 35.56173], [-97.435573, 35.561751], [-97.435675, 35.561742], [-97.435633, 35.561423]]]}, "properties": {"osm_id": 1090688414, "building": "yes", "name": "", "height": null, "height_m": null, "levels": null, "tract_id": "40109108101", "tract_name": "1081.01", "tags": {"building": "yes", "source": "microsoft/BuildingFootprints"}}}, {"type": "Feature", "geometry": {"type": "Polygon", "coordinates": [[[-97.443869, 35.56213], [-97.443867, 35.562019], [-97.443434, 35.562024], [-97.443436, 35.562135], [-97.443869, 35.56213]]]}, "properties": {"osm_id": 1090688415, "building": "yes", "name": "", "height": null, "height_m": null, "levels": null, "tract_id": "40109108101", "tract_name": "1081.01", "tags": {"building": "yes", "source": "microsoft/BuildingFootprints"}}}, {"type": "Feature", "geometry": {"type": "Polygon", "coordinates": [[[-97.440288, 35.563542], [-97.440083, 35.563535], [-97.44008, 35.563611], [-97.440037, 35.563609], [-97.440034, 35.563677], [-97.440109, 35.563679], [-97.440108, 35.563704], [-97.440152, 35.563705], [-97.44015, 35.563736], [-97.440231, 35.563738], [-97.440233, 35.56368], [-97.440282, 35.563681], [-97.440288, 35.563542]]]}, "properties": {"osm_id": 1090688416, "building": "yes", "name": "", "height": null, "height_m": null, "levels": null, "tract_id": "40109108101", "tract_name": "1081.01", "tags": {"building": "yes", "source": "microsoft/BuildingFootprints"}}}, {"type": "Feature", "geometry": {"type": "Polygon", "coordinates": [[[-97.435602, 35.559402], [-97.435449, 35.559399], [-97.435446, 35.559518], [-97.435512, 35.559519], [-97.435508, 35.559632], [-97.435595, 35.559634], [-97.435602, 35.559402]]]}, "properties": {"osm_id": 1090688417, "building": "yes", "name": "", "height": null, "height_m": null, "levels": null, "tract_id": "40109108101", "tract_name": "1081.01", "tags": {"building": "yes", "source": "microsoft/BuildingFootprints"}}}, {"type": "Feature", "geometry": {"type": "Polygon", "coordinates": [[[-97.436967, 35.561657], [-97.436974, 35.561741], [-97.436902, 35.561745], [-97.436908, 35.561821], [-97.436991, 35.561816], [-97.436995, 35.561871], [-97.43726, 35.561856], [-97.437251, 35.561749], [-97.437273, 35.561748], [-97.437266, 35.561664], [-97.43706, 35.561676], [-97.437058, 35.561652], [-97.436967, 35.561657]]]}, "properties": {"osm_id": 1090688418, "building": "yes", "name": "", "height": null, "height_m": null, "levels": null, "tract_id": "40109108101", "tract_name": "1081.01", "tags": {"building": "yes", "source": "microsoft/BuildingFootprints"}}}, {"type": "Feature", "geometry": {"type": "Polygon", "coordinates": [[[-97.44387, 35.562215], [-97.44375, 35.562211], [-97.443748, 35.562278], [-97.443867, 35.562281], [-97.44387, 35.562215]]]}, "properties": {"osm_id": 1090688419, "building": "yes", "name": "", "height": null, "height_m": null, "levels": null, "tract_id": "40109108101", "tract_name": "1081.01", "tags": {"building": "yes", "source": "microsoft/BuildingFootprints"}}}, {"type": "Feature", "geometry": {"type": "Polygon", "coordinates": [[[-97.439099, 35.564586], [-97.439095, 35.564643], [-97.439051, 35.564641], [-97.439047, 35.564702], [-97.439089, 35.564704], [-97.439084, 35.56478], [-97.439307, 35.56479], [-97.439316, 35.564648], [-97.439204, 35.564643], [-97.439207, 35.564591], [-97.439099, 35.564586]]]}, "properties": {"osm_id": 1090688420, "building": "yes", "name": "", "height": null, "height_m": null, "levels": null, "tract_id": "40109108101", "tract_name": "1081.01", "tags": {"building": "yes", "source": "microsoft/BuildingFootprints"}}}, {"type": "Feature", "geometry": {"type": "Polygon", "coordinates": [[[-97.438583, 35.561866], [-97.438739, 35.561919], [-97.438764, 35.56187], [-97.438788, 35.561878], [-97.438823, 35.561812], [-97.438786, 35.561799], [-97.438815, 35.561744], [-97.438609, 35.561674], [-97.438572, 35.561747], [-97.438634, 35.561768], [-97.438583, 35.561866]]]}, "properties": {"osm_id": 1090688421, "building": "yes", "name": "", "height": null, "height_m": null, "levels": null, "tract_id": "40109108101", "tract_name": "1081.01", "tags": {"building": "yes", "source": "microsoft/BuildingFootprints"}}}, {"type": "Feature", "geometry": {"type": "Polygon", "coordinates": [[[-97.436697, 35.559041], [-97.436727, 35.559071], [-97.436722, 35.559074], [-97.436812, 35.559164], [-97.437013, 35.559031], [-97.436933, 35.558951], [-97.43689, 35.558979], [-97.43685, 35.558939], [-97.436697, 35.559041]]]}, "properties": {"osm_id": 1090688422, "building": "yes", "name": "", "height": null, "height_m": null, "levels": null, "tract_id": "40109108101", "tract_name": "1081.01", "tags": {"building": "yes", "source": "microsoft/BuildingFootprints"}}}, {"type": "Feature", "geometry": {"type": "Polygon", "coordinates": [[[-97.439575, 35.563528], [-97.43943, 35.563515], [-97.439425, 35.563547], [-97.439385, 35.563543], [-97.439371, 35.563645], [-97.439308, 35.563639], [-97.439298, 35.56371], [-97.43933, 35.563713], [-97.439325, 35.56375], [-97.439367, 35.563753], [-97.439359, 35.563812], [-97.43948, 35.563823], [-97.439487, 35.563769], [-97.439504, 35.56377], [-97.439515, 35.563695], [-97.43955, 35.563698], [-97.439557, 35.563651], [-97.439534, 35.563649], [-97.439541, 35.563601], [-97.439565, 35.563603], [-97.439575, 35.563528]]]}, "properties": {"osm_id": 1090688423, "building": "yes", "name": "", "height": null, "height_m": null, "levels": null, "tract_id": "40109108101", "tract_name": "1081.01", "tags": {"building": "yes", "source": "microsoft/BuildingFootprints"}}}, {"type": "Feature", "geometry": {"type": "Polygon", "coordinates": [[[-97.440324, 35.562975], [-97.440161, 35.562975], [-97.440161, 35.563213], [-97.440314, 35.563213], [-97.440314, 35.563172], [-97.440346, 35.563172], [-97.440346, 35.563078], [-97.44037, 35.563078], [-97.44037, 35.563017], [-97.440324, 35.563017], [-97.440324, 35.562975]]]}, "properties": {"osm_id": 1090688424, "building": "yes", "name": "", "height": null, "height_m": null, "levels": null, "tract_id": "40109108101", "tract_name": "1081.01", "tags": {"building": "yes", "source": "microsoft/BuildingFootprints"}}}, {"type": "Feature", "geometry": {"type": "Polygon", "coordinates": [[[-97.442201, 35.564227], [-97.442204, 35.564061], [-97.442105, 35.564059], [-97.442106, 35.564002], [-97.442097, 35.564002], [-97.442098, 35.563936], [-97.441922, 35.563934], [-97.441919, 35.564105], [-97.441899, 35.564105], [-97.441896, 35.564257], [-97.442027, 35.564259], [-97.442029, 35.564167], [-97.442074, 35.564168], [-97.442073, 35.564225], [-97.442201, 35.564227]]]}, "properties": {"osm_id": 1090688425, "building": "yes", "name": "", "height": null, "height_m": null, "levels": null, "tract_id": "40109108101", "tract_name": "1081.01", "tags": {"building": "yes", "source": "microsoft/BuildingFootprints"}}}, {"type": "Feature", "geometry": {"type": "Polygon", "coordinates": [[[-97.447441, 35.561362], [-97.447441, 35.562083], [-97.447508, 35.562083], [-97.447508, 35.56214], [-97.447574, 35.56214], [-97.447647, 35.562194], [-97.447752, 35.562194], [-97.447752, 35.562228], [-97.44778, 35.562249], [-97.44778, 35.562295], [-97.447808, 35.562316], [-97.447847, 35.562316], [-97.447888, 35.562279], [-97.44797, 35.562279], [-97.44803, 35.562323], [-97.448118, 35.562323], [-97.448173, 35.562364], [-97.448219, 35.562324], [-97.448272, 35.562363], [-97.448412, 35.562237], [-97.448333, 35.562179], [-97.44849, 35.562039], [-97.449167, 35.56204], [-97.449168, 35.561363], [-97.447441, 35.561362]]]}, "properties": {"osm_id": 1090688428, "building": "yes", "name": "", "height": null, "height_m": null, "levels": null, "tract_id": "40109108101", "tract_name": "1081.01", "tags": {"building": "yes", "source": "microsoft/BuildingFootprints"}}}, {"type": "Feature", "geometry": {"type": "Polygon", "coordinates": [[[-97.450394, 35.561582], [-97.451097, 35.561575], [-97.451099, 35.561738], [-97.451346, 35.561736], [-97.451344, 35.561576], [-97.451392, 35.561576], [-97.451391, 35.561496], [-97.451412, 35.561496], [-97.451412, 35.561448], [-97.45139, 35.561448], [-97.451389, 35.561347], [-97.451225, 35.561348], [-97.451225, 35.561323], [-97.450391, 35.561331], [-97.450394, 35.561582]]]}, "properties": {"osm_id": 1090688429, "building": "yes", "name": "", "height": null, "height_m": null, "levels": null, "tract_id": "40109108101", "tract_name": "1081.01", "tags": {"building": "yes", "source": "microsoft/BuildingFootprints"}}}, {"type": "Feature", "geometry": {"type": "Polygon", "coordinates": [[[-97.45122, 35.560644], [-97.451943, 35.560642], [-97.451942, 35.560504], [-97.452035, 35.560504], [-97.452034, 35.560259], [-97.451747, 35.560261], [-97.451747, 35.560324], [-97.451597, 35.560324], [-97.451597, 35.560362], [-97.451313, 35.560363], [-97.451313, 35.560328], [-97.451219, 35.560328], [-97.45122, 35.560644]]]}, "properties": {"osm_id": 1090688430, "building": "yes", "name": "", "height": null, "height_m": null, "levels": null, "tract_id": "40109108101", "tract_name": "1081.01", "tags": {"building": "yes", "source": "microsoft/BuildingFootprints"}}}, {"type": "Feature", "geometry": {"type": "Polygon", "coordinates": [[[-97.450396, 35.5619], [-97.450901, 35.561896], [-97.4509, 35.561837], [-97.450396, 35.561841], [-97.450396, 35.5619]]]}, "properties": {"osm_id": 1090688434, "building": "yes", "name": "", "height": null, "height_m": null, "levels": null, "tract_id": "40109108101", "tract_name": "1081.01", "tags": {"building": "yes", "source": "microsoft/BuildingFootprints"}}}, {"type": "Feature", "geometry": {"type": "Polygon", "coordinates": [[[-97.449253, 35.562492], [-97.449227, 35.56229], [-97.448822, 35.562324], [-97.448848, 35.562526], [-97.449253, 35.562492]]]}, "properties": {"osm_id": 1090688435, "building": "yes", "name": "", "height": null, "height_m": null, "levels": null, "tract_id": "40109108101", "tract_name": "1081.01", "tags": {"building": "yes", "source": "microsoft/BuildingFootprints"}}}, {"type": "Feature", "geometry": {"type": "Polygon", "coordinates": [[[-97.449661, 35.561066], [-97.449656, 35.561412], [-97.44979, 35.561414], [-97.449794, 35.561135], [-97.449923, 35.561136], [-97.449923, 35.561069], [-97.449661, 35.561066]]]}, "properties": {"osm_id": 1090688439, "building": "yes", "name": "", "height": null, "height_m": null, "levels": null, "tract_id": "40109108101", "tract_name": "1081.01", "tags": {"building": "yes", "source": "microsoft/BuildingFootprints"}}}, {"type": "Feature", "geometry": {"type": "Polygon", "coordinates": [[[-97.448997, 35.562554], [-97.449043, 35.562917], [-97.449173, 35.562907], [-97.449128, 35.562543], [-97.448997, 35.562554]]]}, "properties": {"osm_id": 1090688441, "building": "yes", "name": "", "height": null, "height_m": null, "levels": null, "tract_id": "40109108101", "tract_name": "1081.01", "tags": {"building": "yes", "source": "microsoft/BuildingFootprints"}}}, {"type": "Feature", "geometry": {"type": "Polygon", "coordinates": [[[-97.44823, 35.563581], [-97.448223, 35.563747], [-97.448351, 35.563751], [-97.448358, 35.563585], [-97.44823, 35.563581]]]}, "properties": {"osm_id": 1090688449, "building": "yes", "name": "", "height": null, "height_m": null, "levels": null, "tract_id": "40109108101", "tract_name": "1081.01", "tags": {"building": "yes", "source": "microsoft/BuildingFootprints"}}}, {"type": "Feature", "geometry": {"type": "Polygon", "coordinates": [[[-97.4340216, 35.5906201], [-97.4341375, 35.5905316], [-97.4340973, 35.5904933], [-97.4341106, 35.5904817], [-97.4339587, 35.5903579], [-97.4339826, 35.590338], [-97.4339422, 35.5903016], [-97.4339742, 35.5902798], [-97.4340229, 35.5902414], [-97.4339382, 35.5901635], [-97.4338847, 35.5902022], [-97.4338394, 35.5902406], [-97.4336497, 35.5901317], [-97.4336246, 35.5901193], [-97.4335869, 35.5901475], [-97.4334778, 35.5902331], [-97.4335174, 35.5902665], [-97.4334988, 35.5902812], [-97.4336091, 35.5903742], [-97.4335902, 35.590389], [-97.4336459, 35.590436], [-97.4335858, 35.5904832], [-97.4337001, 35.5905796], [-97.4337721, 35.5905231], [-97.4338184, 35.5905621], [-97.4338262, 35.590556], [-97.4338905, 35.5906103], [-97.4339021, 35.5906012], [-97.4339463, 35.5905646], [-97.4340216, 35.5906201]]]}, "properties": {"osm_id": 1113209281, "building": "yes", "name": "Hampton Inn Oklahoma City Northeast", "height": null, "height_m": null, "levels": null, "tract_id": "40109108101", "tract_name": "1081.01", "tags": {"addr:city": "Oklahoma City", "addr:housenumber": "11820", "addr:postcode": "73131", "addr:state": "OK", "addr:street": "North I-35 Service Road", "alt_name": "Hampton Inn", "branch": "Oklahoma City Northeast", "brand": "Hampton", "brand:wikidata": "Q5646230", "building": "yes", "name": "Hampton Inn Oklahoma City Northeast", "official_name": "Hampton Inn & Suites by Hilton", "phone": "+1 405-608-2744", "ref": "OKCNEHX", "tourism": "hotel", "website": "https://www.hilton.com/en/hotels/okcnehx-hampton-oklahoma-city-northeast/"}}}, {"type": "Feature", "geometry": {"type": "Polygon", "coordinates": [[[-97.4536876, 35.5557696], [-97.4536877, 35.5555496], [-97.4534291, 35.5555496], [-97.4534291, 35.5555649], [-97.4529819, 35.5555649], [-97.4529819, 35.5557891], [-97.4536074, 35.5557891], [-97.4536074, 35.5557696], [-97.4536876, 35.5557696]]]}, "properties": {"osm_id": 1113211109, "building": "yes", "name": "Vermeer Great Plains", "height": null, "height_m": null, "levels": null, "tract_id": "40109108101", "tract_name": "1081.01", "tags": {"addr:city": "Oklahoma City", "addr:housenumber": "8300", "addr:postcode": "73131", "addr:state": "OK", "addr:street": "North I-35 Service Road", "building": "yes", "name": "Vermeer Great Plains", "shop": "trade", "trade": "building_materials"}}}, {"type": "Feature", "geometry": {"type": "Polygon", "coordinates": [[[-97.4529494, 35.5545919], [-97.4529488, 35.5541674], [-97.4522327, 35.554168], [-97.4522333, 35.5545925], [-97.4529494, 35.5545919]]]}, "properties": {"osm_id": 1113211110, "building": "yes", "name": "", "height": null, "height_m": null, "levels": null, "tract_id": "40109108101", "tract_name": "1081.01", "tags": {"building": "yes"}}}, {"type": "Feature", "geometry": {"type": "Polygon", "coordinates": [[[-97.452043, 35.55454], [-97.4520448, 35.5541728], [-97.4518308, 35.5541722], [-97.451829, 35.5545393], [-97.452043, 35.55454]]]}, "properties": {"osm_id": 1113211111, "building": "yes", "name": "", "height": null, "height_m": null, "levels": null, "tract_id": "40109108101", "tract_name": "1081.01", "tags": {"building": "yes"}}}, {"type": "Feature", "geometry": {"type": "Polygon", "coordinates": [[[-97.4345187, 35.5892981], [-97.4346943, 35.5893695], [-97.434987, 35.5888776], [-97.4348212, 35.5888154], [-97.4345187, 35.5892981]]]}, "properties": {"osm_id": 1230736806, "building": "yes", "name": "", "height": null, "height_m": null, "levels": null, "tract_id": "40109108101", "tract_name": "1081.01", "tags": {"building": "yes"}}}, {"type": "Feature", "geometry": {"type": "Polygon", "coordinates": [[[-97.4343147, 35.5895747], [-97.4341066, 35.589559], [-97.4341559, 35.5889325], [-97.4343598, 35.5889482], [-97.4343147, 35.5895747]]]}, "properties": {"osm_id": 1230736809, "building": "yes", "name": "", "height": null, "height_m": null, "levels": null, "tract_id": "40109108101", "tract_name": "1081.01", "tags": {"building": "yes"}}}, {"type": "Feature", "geometry": {"type": "Polygon", "coordinates": [[[-97.433347, 35.5898661], [-97.4333981, 35.5899056], [-97.4334779, 35.5899673], [-97.4337826, 35.5897265], [-97.4336517, 35.5896235], [-97.433347, 35.5898661]]]}, "properties": {"osm_id": 1230736810, "building": "yes", "name": "Storelocal Storage", "height": null, "height_m": null, "levels": null, "tract_id": "40109108101", "tract_name": "1081.01", "tags": {"building": "yes", "name": "Storelocal Storage", "operator": "Storelocal Storage", "shop": "storage_rental"}}}, {"type": "Feature", "geometry": {"type": "Polygon", "coordinates": [[[-97.4334779, 35.5899673], [-97.4332131, 35.5901689], [-97.4331367, 35.5901067], [-97.4333981, 35.5899056], [-97.4334779, 35.5899673]]]}, "properties": {"osm_id": 1230736811, "building": "yes", "name": "Storelocal Storage", "height": null, "height_m": null, "levels": null, "tract_id": "40109108101", "tract_name": "1081.01", "tags": {"building": "yes", "name": "Storelocal Storage", "operator": "Storelocal Storage", "shop": "storage_rental"}}}, {"type": "Feature", "geometry": {"type": "Polygon", "coordinates": [[[-97.4343587, 35.5888236], [-97.4341376, 35.5888127], [-97.4341477, 35.5886783], [-97.4341934, 35.5886806], [-97.4342293, 35.5882015], [-97.4344048, 35.5882102], [-97.4343587, 35.5888236]]]}, "properties": {"osm_id": 1230736812, "building": "yes", "name": "", "height": null, "height_m": null, "levels": null, "tract_id": "40109108101", "tract_name": "1081.01", "tags": {"building": "yes"}}}, {"type": "Feature", "geometry": {"type": "Polygon", "coordinates": [[[-97.4349136, 35.5887014], [-97.4349775, 35.5885807], [-97.4346797, 35.588463], [-97.4346148, 35.5885754], [-97.4349136, 35.5887014]]]}, "properties": {"osm_id": 1230736813, "building": "yes", "name": "", "height": null, "height_m": null, "levels": null, "tract_id": "40109108101", "tract_name": "1081.01", "tags": {"building": "yes"}}}, {"type": "Feature", "geometry": {"type": "Polygon", "coordinates": [[[-97.4350606, 35.5886135], [-97.4349775, 35.5885807], [-97.4346797, 35.588463], [-97.4347524, 35.5883414], [-97.4351333, 35.588492], [-97.4350606, 35.5886135]]]}, "properties": {"osm_id": 1230736814, "building": "yes", "name": "", "height": null, "height_m": null, "levels": null, "tract_id": "40109108101", "tract_name": "1081.01", "tags": {"building": "yes"}}}, {"type": "Feature", "geometry": {"type": "Polygon", "coordinates": [[[-97.4359192, 35.5886087], [-97.4359288, 35.5885915], [-97.4359092, 35.5885842], [-97.435923, 35.5885597], [-97.4359518, 35.5885704], [-97.4360182, 35.5884525], [-97.4360922, 35.58848], [-97.436083, 35.5884963], [-97.436129, 35.5885135], [-97.4361062, 35.588554], [-97.4360827, 35.5885452], [-97.4360248, 35.588648], [-97.4359192, 35.5886087]]]}, "properties": {"osm_id": 1230736815, "building": "yes", "name": "", "height": null, "height_m": null, "levels": null, "tract_id": "40109108101", "tract_name": "1081.01", "tags": {"building": "yes"}}}, {"type": "Feature", "geometry": {"type": "Polygon", "coordinates": [[[-97.4359704, 35.5885011], [-97.435935, 35.5884853], [-97.4359743, 35.5884271], [-97.4360097, 35.588443], [-97.4359704, 35.5885011]]]}, "properties": {"osm_id": 1230736816, "building": "yes", "name": "", "height": null, "height_m": null, "levels": null, "tract_id": "40109108101", "tract_name": "1081.01", "tags": {"building": "yes"}}}, {"type": "Feature", "geometry": {"type": "Polygon", "coordinates": [[[-97.435935, 35.5884853], [-97.4358912, 35.5884647], [-97.4359294, 35.5884076], [-97.4359743, 35.5884271], [-97.435935, 35.5884853]]]}, "properties": {"osm_id": 1230736817, "building": "yes", "name": "", "height": null, "height_m": null, "levels": null, "tract_id": "40109108101", "tract_name": "1081.01", "tags": {"building": "yes"}}}, {"type": "Feature", "geometry": {"type": "Polygon", "coordinates": [[[-97.4358912, 35.5884647], [-97.4358493, 35.5884477], [-97.4358906, 35.5883895], [-97.4359294, 35.5884076], [-97.4358912, 35.5884647]]]}, "properties": {"osm_id": 1230736818, "building": "yes", "name": "", "height": null, "height_m": null, "levels": null, "tract_id": "40109108101", "tract_name": "1081.01", "tags": {"building": "yes"}}}, {"type": "Feature", "geometry": {"type": "Polygon", "coordinates": [[[-97.435808, 35.5884251], [-97.4358493, 35.5884477], [-97.4358906, 35.5883895], [-97.4358499, 35.5883715], [-97.435808, 35.5884251]]]}, "properties": {"osm_id": 1230736819, "building": "yes", "name": "", "height": null, "height_m": null, "levels": null, "tract_id": "40109108101", "tract_name": "1081.01", "tags": {"building": "yes"}}}, {"type": "Feature", "geometry": {"type": "Polygon", "coordinates": [[[-97.4356033, 35.5884826], [-97.4356748, 35.5883619], [-97.4357154, 35.5883778], [-97.4357403, 35.5883358], [-97.4356127, 35.5882857], [-97.4356034, 35.5883014], [-97.4355599, 35.5882843], [-97.4354812, 35.588417], [-97.4355282, 35.5884355], [-97.4355197, 35.5884498], [-97.4356033, 35.5884826]]]}, "properties": {"osm_id": 1230736820, "building": "yes", "name": "", "height": null, "height_m": null, "levels": null, "tract_id": "40109108101", "tract_name": "1081.01", "tags": {"building": "yes"}}}, {"type": "Feature", "geometry": {"type": "Polygon", "coordinates": [[[-97.433711, 35.5892068], [-97.433774, 35.5892619], [-97.4335088, 35.5894626], [-97.4333829, 35.5893526], [-97.4337014, 35.5891116], [-97.4337643, 35.5891665], [-97.433711, 35.5892068]]]}, "properties": {"osm_id": 1230736821, "building": "yes", "name": "", "height": null, "height_m": null, "levels": null, "tract_id": "40109108101", "tract_name": "1081.01", "tags": {"building": "yes", "operator": "Storelocal Storage", "shop": "storage_rental"}}}, {"type": "Feature", "geometry": {"type": "Polygon", "coordinates": [[[-97.4335088, 35.5894626], [-97.4335192, 35.5894701], [-97.4333745, 35.5895858], [-97.4332273, 35.5894615], [-97.4333704, 35.5893471], [-97.4333829, 35.5893526], [-97.4335088, 35.5894626]]]}, "properties": {"osm_id": 1230736822, "building": "yes", "name": "", "height": null, "height_m": null, "levels": null, "tract_id": "40109108101", "tract_name": "1081.01", "tags": {"building": "yes", "shop": "storage_rental"}}}, {"type": "Feature", "geometry": {"type": "Polygon", "coordinates": [[[-97.4333745, 35.5895858], [-97.4332281, 35.5896989], [-97.4330793, 35.5895713], [-97.4332273, 35.5894615], [-97.4333745, 35.5895858]]]}, "properties": {"osm_id": 1230736823, "building": "yes", "name": "", "height": null, "height_m": null, "levels": null, "tract_id": "40109108101", "tract_name": "1081.01", "tags": {"building": "yes", "operator": "Storelocal Storage", "shop": "storage_rental"}}}, {"type": "Feature", "geometry": {"type": "Polygon", "coordinates": [[[-97.433255, 35.589718], [-97.4332281, 35.5896989], [-97.4330793, 35.5895713], [-97.4330598, 35.5895561], [-97.4328126, 35.5897465], [-97.4330102, 35.5899091], [-97.433255, 35.589718]]]}, "properties": {"osm_id": 1230736824, "building": "yes", "name": "", "height": null, "height_m": null, "levels": null, "tract_id": "40109108101", "tract_name": "1081.01", "tags": {"building": "yes", "operator": "Storelocal Storage", "shop": "storage_rental"}}}, {"type": "Feature", "geometry": {"type": "Polygon", "coordinates": [[[-97.433711, 35.5887504], [-97.433605, 35.5886692], [-97.4337024, 35.588585], [-97.4338121, 35.5886712], [-97.433711, 35.5887504]]]}, "properties": {"osm_id": 1230736825, "building": "yes", "name": "", "height": null, "height_m": null, "levels": null, "tract_id": "40109108101", "tract_name": "1081.01", "tags": {"building": "yes", "operator": "Storelocal Storage", "shop": "storage_rental"}}}, {"type": "Feature", "geometry": {"type": "Polygon", "coordinates": [[[-97.433711, 35.5887504], [-97.433801, 35.5888255], [-97.4336358, 35.5889658], [-97.4334362, 35.5887965], [-97.433605, 35.5886692], [-97.433711, 35.5887504]]]}, "properties": {"osm_id": 1230736826, "building": "yes", "name": "", "height": null, "height_m": null, "levels": null, "tract_id": "40109108101", "tract_name": "1081.01", "tags": {"building": "yes", "operator": "Storelocal Storage", "shop": "storage_rental"}}}, {"type": "Feature", "geometry": {"type": "Polygon", "coordinates": [[[-97.4336358, 35.5889658], [-97.4332846, 35.5892314], [-97.4332531, 35.5892047], [-97.4331061, 35.5890797], [-97.4330923, 35.5890681], [-97.4334362, 35.5887965], [-97.4336358, 35.5889658]]]}, "properties": {"osm_id": 1230736827, "building": "yes", "name": "", "height": null, "height_m": null, "levels": null, "tract_id": "40109108101", "tract_name": "1081.01", "tags": {"building": "yes", "operator": "Storelocal Storage", "shop": "storage_rental"}}}, {"type": "Feature", "geometry": {"type": "Polygon", "coordinates": [[[-97.4329531, 35.5894349], [-97.432932, 35.589417], [-97.4328089, 35.5893126], [-97.4331061, 35.5890797], [-97.4332531, 35.5892047], [-97.4329531, 35.5894349]]]}, "properties": {"osm_id": 1230736828, "building": "yes", "name": "", "height": null, "height_m": null, "levels": null, "tract_id": "40109108101", "tract_name": "1081.01", "tags": {"building": "yes", "operator": "Storelocal Storage", "shop": "storage_rental"}}}, {"type": "Feature", "geometry": {"type": "Polygon", "coordinates": [[[-97.4326709, 35.5896143], [-97.432932, 35.589417], [-97.4328089, 35.5893126], [-97.4325476, 35.5895221], [-97.4326709, 35.5896143]]]}, "properties": {"osm_id": 1230736829, "building": "yes", "name": "", "height": null, "height_m": null, "levels": null, "tract_id": "40109108101", "tract_name": "1081.01", "tags": {"building": "yes", "operator": "Storelocal Storage", "shop": "storage_rental"}}}, {"type": "Feature", "geometry": {"type": "Polygon", "coordinates": [[[-97.4338289, 35.5882898], [-97.4337519, 35.5882265], [-97.4333217, 35.5885792], [-97.4333917, 35.5886347], [-97.4338289, 35.5882898]]]}, "properties": {"osm_id": 1230736830, "building": "yes", "name": "", "height": null, "height_m": null, "levels": null, "tract_id": "40109108101", "tract_name": "1081.01", "tags": {"building": "yes", "operator": "Storelocal Storage", "shop": "storage_rental"}}}, {"type": "Feature", "geometry": {"type": "Polygon", "coordinates": [[[-97.4333217, 35.5885792], [-97.4331779, 35.5886916], [-97.4332388, 35.588744], [-97.4332442, 35.5887486], [-97.4333917, 35.5886347], [-97.4333217, 35.5885792]]]}, "properties": {"osm_id": 1230736831, "building": "yes", "name": "", "height": null, "height_m": null, "levels": null, "tract_id": "40109108101", "tract_name": "1081.01", "tags": {"building": "yes", "operator": "Storelocal Storage", "shop": "storage_rental"}}}, {"type": "Feature", "geometry": {"type": "Polygon", "coordinates": [[[-97.4332442, 35.5887486], [-97.4330994, 35.5888633], [-97.4330275, 35.5888055], [-97.4331779, 35.5886916], [-97.4332388, 35.588744], [-97.4332442, 35.5887486]]]}, "properties": {"osm_id": 1230736832, "building": "yes", "name": "", "height": null, "height_m": null, "levels": null, "tract_id": "40109108101", "tract_name": "1081.01", "tags": {"building": "yes", "operator": "Storelocal Storage", "shop": "storage_rental"}}}, {"type": "Feature", "geometry": {"type": "Polygon", "coordinates": [[[-97.4330994, 35.5888633], [-97.4329537, 35.5889805], [-97.4328832, 35.5889195], [-97.4330275, 35.5888055], [-97.4330994, 35.5888633]]]}, "properties": {"osm_id": 1230736833, "building": "yes", "name": "", "height": null, "height_m": null, "levels": null, "tract_id": "40109108101", "tract_name": "1081.01", "tags": {"building": "yes", "operator": "Storelocal Storage", "shop": "storage_rental"}}}, {"type": "Feature", "geometry": {"type": "Polygon", "coordinates": [[[-97.4329537, 35.5889805], [-97.4328057, 35.5890931], [-97.4327381, 35.5890344], [-97.4328832, 35.5889195], [-97.4329537, 35.5889805]]]}, "properties": {"osm_id": 1230736834, "building": "yes", "name": "", "height": null, "height_m": null, "levels": null, "tract_id": "40109108101", "tract_name": "1081.01", "tags": {"building": "yes", "operator": "Storelocal Storage", "shop": "storage_rental"}}}, {"type": "Feature", "geometry": {"type": "Polygon", "coordinates": [[[-97.4328057, 35.5890931], [-97.4326613, 35.589205], [-97.4325909, 35.5891486], [-97.4327381, 35.5890344], [-97.4328057, 35.5890931]]]}, "properties": {"osm_id": 1230736835, "building": "yes", "name": "", "height": null, "height_m": null, "levels": null, "tract_id": "40109108101", "tract_name": "1081.01", "tags": {"building": "yes", "operator": "Storelocal Storage", "shop": "storage_rental"}}}, {"type": "Feature", "geometry": {"type": "Polygon", "coordinates": [[[-97.4326613, 35.589205], [-97.4325162, 35.5893202], [-97.4324472, 35.5892616], [-97.4325909, 35.5891486], [-97.4326613, 35.589205]]]}, "properties": {"osm_id": 1230736836, "building": "yes", "name": "", "height": null, "height_m": null, "levels": null, "tract_id": "40109108101", "tract_name": "1081.01", "tags": {"building": "yes", "operator": "Storelocal Storage", "shop": "storage_rental"}}}, {"type": "Feature", "geometry": {"type": "Polygon", "coordinates": [[[-97.4325162, 35.5893202], [-97.4323652, 35.5894384], [-97.4322993, 35.5893803], [-97.4324472, 35.5892616], [-97.4325162, 35.5893202]]]}, "properties": {"osm_id": 1230736837, "building": "yes", "name": "", "height": null, "height_m": null, "levels": null, "tract_id": "40109108101", "tract_name": "1081.01", "tags": {"building": "yes", "operator": "Storelocal Storage", "shop": "storage_rental"}}}, {"type": "Feature", "geometry": {"type": "Polygon", "coordinates": [[[-97.4350257, 35.588224], [-97.4342487, 35.5879698], [-97.4344014, 35.5876611], [-97.4349377, 35.5878365], [-97.4349479, 35.5878159], [-97.4351886, 35.5878946], [-97.4350257, 35.588224]]]}, "properties": {"osm_id": 1257956752, "building": "yes", "name": "", "height": null, "height_m": null, "levels": null, "tract_id": "40109108101", "tract_name": "1081.01", "tags": {"building": "yes"}}}, {"type": "Feature", "geometry": {"type": "Polygon", "coordinates": [[[-97.4361219, 35.58726], [-97.4356291, 35.5871449], [-97.4355896, 35.5872567], [-97.4341512, 35.5869204], [-97.4343586, 35.5863312], [-97.436313, 35.5867882], [-97.4362584, 35.5869452], [-97.436235, 35.5869397], [-97.4361219, 35.58726]]]}, "properties": {"osm_id": 1257956755, "building": "yes", "name": "", "height": null, "height_m": null, "levels": null, "tract_id": "40109108101", "tract_name": "1081.01", "tags": {"building": "yes"}}}, {"type": "Feature", "geometry": {"type": "Polygon", "coordinates": [[[-97.4365721, 35.5520861], [-97.4365853, 35.5520163], [-97.436673, 35.5520272], [-97.4366598, 35.5520971], [-97.4365721, 35.5520861]]]}, "properties": {"osm_id": 1375051249, "building": "yes", "name": "", "height": null, "height_m": null, "levels": null, "tract_id": "40109108101", "tract_name": "1081.01", "tags": {"building": "yes"}}}, {"type": "Feature", "geometry": {"type": "Polygon", "coordinates": [[[-97.4364905, 35.552732], [-97.4365582, 35.5527477], [-97.4365392, 35.5528019], [-97.4364715, 35.5527863], [-97.4364905, 35.552732]]]}, "properties": {"osm_id": 1375051250, "building": "shed", "name": "", "height": null, "height_m": null, "levels": null, "tract_id": "40109108101", "tract_name": "1081.01", "tags": {"building": "shed"}}}, {"type": "Feature", "geometry": {"type": "Polygon", "coordinates": [[[-97.4405612, 35.5532719], [-97.4405579, 35.5532361], [-97.4405534, 35.5532364], [-97.4405515, 35.5532154], [-97.4405567, 35.553215], [-97.4405562, 35.5532099], [-97.4404575, 35.553216], [-97.4404523, 35.5531592], [-97.4404598, 35.5531587], [-97.4404508, 35.5530611], [-97.4405144, 35.5530572], [-97.4405148, 35.5530619], [-97.4405438, 35.5530601], [-97.4405482, 35.5531078], [-97.4405954, 35.5531048], [-97.4405949, 35.5530995], [-97.4406372, 35.553097], [-97.4406361, 35.5530854], [-97.4406778, 35.5530828], [-97.4406786, 35.5530914], [-97.4407404, 35.5530875], [-97.4407416, 35.5531002], [-97.4407689, 35.5530985], [-97.4407779, 35.5531954], [-97.4407489, 35.5531972], [-97.4407503, 35.553213], [-97.4406964, 35.5532163], [-97.4406978, 35.5532308], [-97.440643, 35.5532342], [-97.4406442, 35.553247], [-97.4406232, 35.5532484], [-97.440625, 35.5532679], [-97.4405612, 35.5532719]]]}, "properties": {"osm_id": 1375051251, "building": "detached", "name": "", "height": null, "height_m": null, "levels": null, "tract_id": "40109108101", "tract_name": "1081.01", "tags": {"building": "detached"}}}, {"type": "Feature", "geometry": {"type": "Polygon", "coordinates": [[[-97.4365306, 35.5531458], [-97.4365303, 35.5531336], [-97.4364854, 35.5531364], [-97.4364829, 35.5530639], [-97.4365276, 35.5530631], [-97.4365272, 35.5530478], [-97.4366779, 35.5530452], [-97.4366805, 35.5531431], [-97.4365306, 35.5531458]]]}, "properties": {"osm_id": 1375051252, "building": "detached", "name": "", "height": null, "height_m": null, "levels": null, "tract_id": "40109108101", "tract_name": "1081.01", "tags": {"addr:city": "Oklahoma City", "addr:country": "US", "addr:housenumber": "8009", "addr:state": "OK", "addr:street": "Wilshire Lane", "building": "detached"}}}, {"type": "Feature", "geometry": {"type": "Polygon", "coordinates": [[[-97.4367296, 35.5518094], [-97.436618, 35.551799], [-97.436628, 35.5517282], [-97.4367384, 35.5517385], [-97.4367393, 35.5517318], [-97.4367854, 35.5517361], [-97.4367883, 35.5517158], [-97.4368603, 35.5517225], [-97.4368579, 35.5517393], [-97.436912, 35.5517443], [-97.4369084, 35.55177], [-97.4369379, 35.5517727], [-97.4369334, 35.5518049], [-97.4369062, 35.5518023], [-97.4369009, 35.5518403], [-97.4368512, 35.5518356], [-97.4368527, 35.5518248], [-97.436729, 35.5518132], [-97.4367296, 35.5518094]]]}, "properties": {"osm_id": 1375051253, "building": "detached", "name": "", "height": null, "height_m": null, "levels": null, "tract_id": "40109108101", "tract_name": "1081.01", "tags": {"addr:city": "Oklahoma City", "addr:country": "US", "addr:housenumber": "7909", "addr:state": "OK", "addr:street": "Wilshire Lane", "building": "detached"}}}, {"type": "Feature", "geometry": {"type": "Polygon", "coordinates": [[[-97.4403427, 35.5532266], [-97.440424, 35.5532246], [-97.4404269, 35.5533066], [-97.4403459, 35.5533096], [-97.4403427, 35.5532266]]]}, "properties": {"osm_id": 1375051254, "building": "garage", "name": "", "height": null, "height_m": null, "levels": null, "tract_id": "40109108101", "tract_name": "1081.01", "tags": {"building": "garage"}}}, {"type": "Feature", "geometry": {"type": "Polygon", "coordinates": [[[-97.4365979, 35.5518782], [-97.4366053, 35.551819], [-97.4366879, 35.5518259], [-97.4366804, 35.5518851], [-97.4365979, 35.5518782]]]}, "properties": {"osm_id": 1375051255, "building": "garage", "name": "", "height": null, "height_m": null, "levels": null, "tract_id": "40109108101", "tract_name": "1081.01", "tags": {"building": "garage"}}}, {"type": "Feature", "geometry": {"type": "Polygon", "coordinates": [[[-97.4342584, 35.5518602], [-97.4342693, 35.5517812], [-97.4344667, 35.5517995], [-97.4344557, 35.5518785], [-97.4342584, 35.5518602]]]}, "properties": {"osm_id": 1375061710, "building": "detached", "name": "", "height": null, "height_m": null, "levels": null, "tract_id": "40109108101", "tract_name": "1081.01", "tags": {"building": "detached"}}}, {"type": "Feature", "geometry": {"type": "Polygon", "coordinates": [[[-97.4345547, 35.5521629], [-97.4345592, 35.5520774], [-97.4346297, 35.5520798], [-97.4346251, 35.5521654], [-97.4345547, 35.5521629]]]}, "properties": {"osm_id": 1375061711, "building": "yes", "name": "", "height": null, "height_m": null, "levels": null, "tract_id": "40109108101", "tract_name": "1081.01", "tags": {"building": "yes"}}}, {"type": "Feature", "geometry": {"type": "Polygon", "coordinates": [[[-97.4349026, 35.5515689], [-97.4348741, 35.5515267], [-97.434815, 35.5515542], [-97.4347525, 35.5514618], [-97.4348004, 35.5514431], [-97.4348338, 35.551426], [-97.4348471, 35.5514427], [-97.4348924, 35.5514215], [-97.4348816, 35.5514063], [-97.4349774, 35.5513623], [-97.4350664, 35.5514936], [-97.4349026, 35.5515689]]]}, "properties": {"osm_id": 1375061712, "building": "detached", "name": "", "height": null, "height_m": null, "levels": null, "tract_id": "40109108101", "tract_name": "1081.01", "tags": {"building": "detached"}}}, {"type": "Feature", "geometry": {"type": "Polygon", "coordinates": [[[-97.4344634, 35.5525413], [-97.4344664, 35.5524892], [-97.4345305, 35.5524916], [-97.4345275, 35.5525437], [-97.4344634, 35.5525413]]]}, "properties": {"osm_id": 1375061714, "building": "shed", "name": "", "height": null, "height_m": null, "levels": null, "tract_id": "40109108101", "tract_name": "1081.01", "tags": {"building": "shed"}}}, {"type": "Feature", "geometry": {"type": "Polygon", "coordinates": [[[-97.4344877, 35.5524786], [-97.4344899, 35.5524531], [-97.4345355, 35.5524559], [-97.434533, 35.5524824], [-97.4344877, 35.5524786]]]}, "properties": {"osm_id": 1375061716, "building": "shed", "name": "", "height": null, "height_m": null, "levels": null, "tract_id": "40109108101", "tract_name": "1081.01", "tags": {"building": "shed"}}}, {"type": "Feature", "geometry": {"type": "Polygon", "coordinates": [[[-97.4346621, 35.5519468], [-97.4347478, 35.5519469], [-97.4347478, 35.5519199], [-97.4348537, 35.55192], [-97.4348534, 35.5520599], [-97.4346619, 35.5520596], [-97.4346621, 35.5519468]]]}, "properties": {"osm_id": 1375061717, "building": "detached", "name": "", "height": null, "height_m": null, "levels": null, "tract_id": "40109108101", "tract_name": "1081.01", "tags": {"building": "detached"}}}, {"type": "Feature", "geometry": {"type": "Polygon", "coordinates": [[[-97.4373485, 35.5521523], [-97.4372265, 35.5521532], [-97.4372252, 35.5520299], [-97.4373472, 35.552029], [-97.4373485, 35.5521523]]]}, "properties": {"osm_id": 1375063812, "building": "garage", "name": "", "height": null, "height_m": null, "levels": null, "tract_id": "40109108101", "tract_name": "1081.01", "tags": {"building": "garage"}}}, {"type": "Feature", "geometry": {"type": "Polygon", "coordinates": [[[-97.4359229, 35.5521381], [-97.4359116, 35.552236], [-97.4357547, 35.552224], [-97.435766, 35.5521261], [-97.4359229, 35.5521381]]]}, "properties": {"osm_id": 1375063813, "building": "barn", "name": "", "height": null, "height_m": null, "levels": null, "tract_id": "40109108101", "tract_name": "1081.01", "tags": {"building": "barn"}}}, {"type": "Feature", "geometry": {"type": "Polygon", "coordinates": [[[-97.4360841, 35.5516455], [-97.4362139, 35.5516445], [-97.4362158, 35.5518157], [-97.436086, 35.5518167], [-97.4360841, 35.5516455]]]}, "properties": {"osm_id": 1375063814, "building": "detached", "name": "", "height": null, "height_m": null, "levels": null, "tract_id": "40109108101", "tract_name": "1081.01", "tags": {"building": "detached"}}}, {"type": "Feature", "geometry": {"type": "Polygon", "coordinates": [[[-97.4373583, 35.5534601], [-97.4373289, 35.5533562], [-97.4373207, 35.5533577], [-97.4373029, 35.5532948], [-97.437385, 35.5532794], [-97.4373865, 35.5532846], [-97.4374425, 35.5532741], [-97.437452, 35.5533079], [-97.4374911, 35.5533005], [-97.4375274, 35.5534284], [-97.4373583, 35.5534601]]]}, "properties": {"osm_id": 1375063815, "building": "detached", "name": "", "height": null, "height_m": null, "levels": null, "tract_id": "40109108101", "tract_name": "1081.01", "tags": {"building": "detached"}}}, {"type": "Feature", "geometry": {"type": "Polygon", "coordinates": [[[-97.4376201, 35.5540416], [-97.4376721, 35.5540258], [-97.4376835, 35.5540509], [-97.4376315, 35.5540667], [-97.4376201, 35.5540416]]]}, "properties": {"osm_id": 1375063816, "building": "yes", "name": "", "height": null, "height_m": null, "levels": null, "tract_id": "40109108101", "tract_name": "1081.01", "tags": {"building": "yes"}}}, {"type": "Feature", "geometry": {"type": "Polygon", "coordinates": [[[-97.4373013, 35.5543095], [-97.4373838, 35.5543111], [-97.4373826, 35.5543512], [-97.4373001, 35.5543496], [-97.4373013, 35.5543095]]]}, "properties": {"osm_id": 1375063817, "building": "yes", "name": "", "height": null, "height_m": null, "levels": null, "tract_id": "40109108101", "tract_name": "1081.01", "tags": {"building": "yes"}}}, {"type": "Feature", "geometry": {"type": "Polygon", "coordinates": [[[-97.4372571, 35.5528568], [-97.4372534, 35.5527782], [-97.4373182, 35.5527762], [-97.4373191, 35.5527944], [-97.4373613, 35.5527931], [-97.4373656, 35.5528839], [-97.4372422, 35.5528877], [-97.4372408, 35.5528573], [-97.4372571, 35.5528568]]]}, "properties": {"osm_id": 1375063818, "building": "detached", "name": "", "height": null, "height_m": null, "levels": null, "tract_id": "40109108101", "tract_name": "1081.01", "tags": {"building": "detached"}}}, {"type": "Feature", "geometry": {"type": "Polygon", "coordinates": [[[-97.4355945, 35.551868], [-97.4355914, 35.5518664], [-97.4355845, 35.5518695], [-97.4355662, 35.5518661], [-97.4355613, 35.5518564], [-97.4355172, 35.5518408], [-97.4355522, 35.5517662], [-97.4355622, 35.5517704], [-97.435766, 35.5517014], [-97.4357762, 35.5516902], [-97.4359084, 35.5517323], [-97.4358691, 35.5518178], [-97.4358143, 35.5518], [-97.4357863, 35.5518558], [-97.435786, 35.5518543], [-97.4356721, 35.5518949], [-97.4355945, 35.551868]]]}, "properties": {"osm_id": 1375063819, "building": "detached", "name": "", "height": null, "height_m": null, "levels": null, "tract_id": "40109108101", "tract_name": "1081.01", "tags": {"building": "detached"}}}, {"type": "Feature", "geometry": {"type": "Polygon", "coordinates": [[[-97.4374018, 35.553734], [-97.43748, 35.553724], [-97.4374943, 35.5537986], [-97.4374161, 35.5538086], [-97.4374018, 35.553734]]]}, "properties": {"osm_id": 1375063820, "building": "yes", "name": "", "height": null, "height_m": null, "levels": null, "tract_id": "40109108101", "tract_name": "1081.01", "tags": {"building": "yes"}}}, {"type": "Feature", "geometry": {"type": "Polygon", "coordinates": [[[-97.4361348, 35.5519157], [-97.4361357, 35.551823], [-97.4362091, 35.5518234], [-97.4362083, 35.5519161], [-97.4361348, 35.5519157]]]}, "properties": {"osm_id": 1375063821, "building": "garage", "name": "", "height": null, "height_m": null, "levels": null, "tract_id": "40109108101", "tract_name": "1081.01", "tags": {"building": "garage"}}}, {"type": "Feature", "geometry": {"type": "Polygon", "coordinates": [[[-97.4422233, 35.5516988], [-97.4422246, 35.5516344], [-97.4423068, 35.5516355], [-97.4423055, 35.5516999], [-97.4422233, 35.5516988]]]}, "properties": {"osm_id": 1375071652, "building": "garage", "name": "", "height": null, "height_m": null, "levels": null, "tract_id": "40109108101", "tract_name": "1081.01", "tags": {"building": "garage"}}}, {"type": "Feature", "geometry": {"type": "Polygon", "coordinates": [[[-97.4421023, 35.5514025], [-97.4421453, 35.5514001], [-97.4421497, 35.5514533], [-97.4421084, 35.5514566], [-97.4421023, 35.5514025]]]}, "properties": {"osm_id": 1375071658, "building": "yes", "name": "", "height": null, "height_m": null, "levels": null, "tract_id": "40109108101", "tract_name": "1081.01", "tags": {"building": "yes"}}}, {"type": "Feature", "geometry": {"type": "Polygon", "coordinates": [[[-97.4422564, 35.5514734], [-97.4422574, 35.5514369], [-97.4422467, 35.5514367], [-97.4422477, 35.5514029], [-97.4422677, 35.5514033], [-97.442271, 35.5512919], [-97.4423939, 35.5512943], [-97.4423916, 35.5513707], [-97.4423756, 35.5513703], [-97.4423725, 35.5514757], [-97.4422564, 35.5514734]]]}, "properties": {"osm_id": 1375071663, "building": "detached", "name": "", "height": null, "height_m": null, "levels": null, "tract_id": "40109108101", "tract_name": "1081.01", "tags": {"building": "detached"}}}, {"type": "Feature", "geometry": {"type": "Polygon", "coordinates": [[[-97.4424446, 35.5518989], [-97.4423985, 35.5519052], [-97.4423716, 35.551775], [-97.4424797, 35.5517603], [-97.4424736, 35.5517306], [-97.4425168, 35.5517247], [-97.4425357, 35.5518163], [-97.4425029, 35.5518208], [-97.4425168, 35.551888], [-97.442488, 35.551892], [-97.4424967, 35.5519343], [-97.4424531, 35.5519402], [-97.4424446, 35.5518989]]]}, "properties": {"osm_id": 1375071665, "building": "detached", "name": "", "height": null, "height_m": null, "levels": null, "tract_id": "40109108101", "tract_name": "1081.01", "tags": {"building": "detached"}}}, {"type": "Feature", "geometry": {"type": "Polygon", "coordinates": [[[-97.4384254, 35.5523291], [-97.4384933, 35.5523234], [-97.4385027, 35.5523908], [-97.4384354, 35.5523971], [-97.4384254, 35.5523291]]]}, "properties": {"osm_id": 1375097875, "building": "yes", "name": "", "height": null, "height_m": null, "levels": null, "tract_id": "40109108101", "tract_name": "1081.01", "tags": {"building": "yes"}}}, {"type": "Feature", "geometry": {"type": "Polygon", "coordinates": [[[-97.429551, 35.5516814], [-97.4295511, 35.5516674], [-97.4295225, 35.551667], [-97.4295244, 35.5515873], [-97.4295496, 35.5515877], [-97.4295506, 35.5515506], [-97.4295445, 35.5515506], [-97.4295455, 35.5515045], [-97.4295596, 35.5515045], [-97.4295601, 35.5514834], [-97.42966, 35.5514852], [-97.429658, 35.5515687], [-97.4297232, 35.5515699], [-97.4297218, 35.5516292], [-97.4297719, 35.5516303], [-97.4297705, 35.5516792], [-97.4296219, 35.5516765], [-97.4296219, 35.5516829], [-97.429551, 35.5516814]]]}, "properties": {"osm_id": 1375097876, "building": "yes", "name": "", "height": null, "height_m": null, "levels": null, "tract_id": "40109108101", "tract_name": "1081.01", "tags": {"building": "yes"}}}, {"type": "Feature", "geometry": {"type": "Polygon", "coordinates": [[[-97.4406037, 35.5554363], [-97.4406077, 35.5553775], [-97.4405984, 35.555377], [-97.4405986, 35.5553744], [-97.4403975, 35.5553653], [-97.4404064, 35.555234], [-97.4407592, 35.5552499], [-97.4407502, 35.5553813], [-97.4406888, 35.5553785], [-97.4406887, 35.5553806], [-97.4406804, 35.5553802], [-97.4406763, 35.5554396], [-97.4406037, 35.5554363]]]}, "properties": {"osm_id": 1375097877, "building": "yes", "name": "", "height": null, "height_m": null, "levels": null, "tract_id": "40109108101", "tract_name": "1081.01", "tags": {"building": "yes"}}}, {"type": "Feature", "geometry": {"type": "Polygon", "coordinates": [[[-97.4299287, 35.5520345], [-97.4299282, 35.5519685], [-97.4299635, 35.5519683], [-97.4299637, 35.5520003], [-97.4299908, 35.5520002], [-97.4299909, 35.5520109], [-97.4299973, 35.5520109], [-97.4299975, 35.5520341], [-97.4299287, 35.5520345]]]}, "properties": {"osm_id": 1375097881, "building": "yes", "name": "", "height": null, "height_m": null, "levels": null, "tract_id": "40109108101", "tract_name": "1081.01", "tags": {"building": "yes"}}}, {"type": "Feature", "geometry": {"type": "Polygon", "coordinates": [[[-97.4382362, 35.5525134], [-97.4382246, 35.5524303], [-97.4383279, 35.5524206], [-97.4383364, 35.5524809], [-97.4383668, 35.552478], [-97.438373, 35.5525304], [-97.4382048, 35.5525417], [-97.4382013, 35.5525166], [-97.4382362, 35.5525134]]]}, "properties": {"osm_id": 1375097883, "building": "yes", "name": "", "height": null, "height_m": null, "levels": null, "tract_id": "40109108101", "tract_name": "1081.01", "tags": {"building": "yes"}}}, {"type": "Feature", "geometry": {"type": "Polygon", "coordinates": [[[-97.4381869, 35.5519242], [-97.4381866, 35.5519051], [-97.4380951, 35.5519059], [-97.4380933, 35.5517631], [-97.4381486, 35.5517626], [-97.4381491, 35.5517983], [-97.4381865, 35.551798], [-97.4381863, 35.55178], [-97.4382354, 35.5517795], [-97.4382356, 35.5517971], [-97.438248, 35.551797], [-97.4382494, 35.5519061], [-97.438221, 35.5519063], [-97.4382212, 35.5519239], [-97.4381869, 35.5519242]]]}, "properties": {"osm_id": 1375097887, "building": "detached", "name": "", "height": null, "height_m": null, "levels": null, "tract_id": "40109108101", "tract_name": "1081.01", "tags": {"building": "detached"}}}, {"type": "Feature", "geometry": {"type": "Polygon", "coordinates": [[[-97.4298107, 35.5548171], [-97.4298451, 35.5545174], [-97.4299427, 35.5545249], [-97.4299082, 35.5548245], [-97.4298107, 35.5548171]]]}, "properties": {"osm_id": 1375097888, "building": "yes", "name": "", "height": null, "height_m": null, "levels": null, "tract_id": "40109108101", "tract_name": "1081.01", "tags": {"building": "yes"}}}, {"type": "Feature", "geometry": {"type": "Polygon", "coordinates": [[[-97.4382771, 35.5520065], [-97.4382783, 35.5519386], [-97.4383584, 35.5519396], [-97.4383572, 35.5520074], [-97.4382771, 35.5520065]]]}, "properties": {"osm_id": 1375097891, "building": "garage", "name": "", "height": null, "height_m": null, "levels": null, "tract_id": "40109108101", "tract_name": "1081.01", "tags": {"building": "garage"}}}, {"type": "Feature", "geometry": {"type": "Polygon", "coordinates": [[[-97.4389493, 35.5517944], [-97.4389972, 35.5517945], [-97.4389968, 35.5519217], [-97.4388988, 35.5519215], [-97.4388992, 35.5518133], [-97.4389492, 35.5518135], [-97.4389493, 35.5517944]]]}, "properties": {"osm_id": 1375097892, "building": "detached", "name": "", "height": null, "height_m": null, "levels": null, "tract_id": "40109108101", "tract_name": "1081.01", "tags": {"building": "detached"}}}, {"type": "Feature", "geometry": {"type": "Polygon", "coordinates": [[[-97.4387919, 35.5519859], [-97.4387924, 35.5519165], [-97.438879, 35.551917], [-97.4388784, 35.5519863], [-97.4387919, 35.5519859]]]}, "properties": {"osm_id": 1375097895, "building": "garage", "name": "", "height": null, "height_m": null, "levels": null, "tract_id": "40109108101", "tract_name": "1081.01", "tags": {"building": "garage"}}}, {"type": "Feature", "geometry": {"type": "Polygon", "coordinates": [[[-97.4392238, 35.552738], [-97.4393477, 35.5526553], [-97.4393732, 35.5526808], [-97.4392494, 35.5527635], [-97.4392238, 35.552738]]]}, "properties": {"osm_id": 1375097896, "building": "yes", "name": "", "height": null, "height_m": null, "levels": null, "tract_id": "40109108101", "tract_name": "1081.01", "tags": {"building": "yes"}}}, {"type": "Feature", "geometry": {"type": "Polygon", "coordinates": [[[-97.4388859, 35.5523306], [-97.4390697, 35.5522914], [-97.4390794, 35.5523216], [-97.4388955, 35.5523608], [-97.4388859, 35.5523306]]]}, "properties": {"osm_id": 1375097897, "building": "yes", "name": "", "height": null, "height_m": null, "levels": null, "tract_id": "40109108101", "tract_name": "1081.01", "tags": {"building": "yes"}}}, {"type": "Feature", "geometry": {"type": "Polygon", "coordinates": [[[-97.4394566, 35.5518878], [-97.4395109, 35.5517677], [-97.4395484, 35.551779], [-97.4394942, 35.5518992], [-97.4394566, 35.5518878]]]}, "properties": {"osm_id": 1375098328, "building": "yes", "name": "", "height": null, "height_m": null, "levels": null, "tract_id": "40109108101", "tract_name": "1081.01", "tags": {"building": "yes"}}}, {"type": "Feature", "geometry": {"type": "Polygon", "coordinates": [[[-97.4242162, 35.5808712], [-97.4240481, 35.5808704], [-97.4240503, 35.5805916], [-97.4242184, 35.5805925], [-97.4242162, 35.5808712]]]}, "properties": {"osm_id": 1391296554, "building": "yes", "name": "", "height": null, "height_m": null, "levels": null, "tract_id": "40109108101", "tract_name": "1081.01", "tags": {"building": "yes"}}}, {"type": "Feature", "geometry": {"type": "Polygon", "coordinates": [[[-97.4239826, 35.5808737], [-97.4238424, 35.580873], [-97.4238425, 35.5808574], [-97.4237605, 35.5808569], [-97.423764, 35.5804236], [-97.4239861, 35.5804248], [-97.4239826, 35.5808737]]]}, "properties": {"osm_id": 1391296555, "building": "yes", "name": "", "height": null, "height_m": null, "levels": null, "tract_id": "40109108101", "tract_name": "1081.01", "tags": {"building": "yes"}}}, {"type": "Feature", "geometry": {"type": "Polygon", "coordinates": [[[-97.423956, 35.5812098], [-97.4238118, 35.5812093], [-97.4238124, 35.5810983], [-97.4239566, 35.5810988], [-97.423956, 35.5812098]]]}, "properties": {"osm_id": 1391296556, "building": "yes", "name": "", "height": null, "height_m": null, "levels": null, "tract_id": "40109108101", "tract_name": "1081.01", "tags": {"building": "yes"}}}, {"type": "Feature", "geometry": {"type": "Polygon", "coordinates": [[[-97.4238008, 35.5812086], [-97.4236322, 35.5812061], [-97.4236352, 35.5810739], [-97.4238038, 35.5810764], [-97.4238008, 35.5812086]]]}, "properties": {"osm_id": 1391296557, "building": "yes", "name": "", "height": null, "height_m": null, "levels": null, "tract_id": "40109108101", "tract_name": "1081.01", "tags": {"building": "yes"}}}, {"type": "Feature", "geometry": {"type": "Polygon", "coordinates": [[[-97.4209206, 35.5815491], [-97.4209177, 35.581347], [-97.4210383, 35.5813458], [-97.4210385, 35.5813602], [-97.4211277, 35.5813593], [-97.4211298, 35.5813537], [-97.4212286, 35.5813533], [-97.4212285, 35.5813373], [-97.4213491, 35.5813367], [-97.4213496, 35.5814066], [-97.4213814, 35.5814065], [-97.4213816, 35.5814336], [-97.4215237, 35.581433], [-97.421523, 35.5813365], [-97.4216116, 35.5813361], [-97.4216115, 35.5813162], [-97.4217999, 35.5813153], [-97.4218, 35.5813344], [-97.4219553, 35.5813337], [-97.421955, 35.5812973], [-97.4220893, 35.5812966], [-97.4220872, 35.5809935], [-97.4219386, 35.5809942], [-97.4219376, 35.5808543], [-97.4220289, 35.5808539], [-97.4220284, 35.5807784], [-97.4222932, 35.5807772], [-97.4222928, 35.5807217], [-97.4223646, 35.5807214], [-97.4223647, 35.5807305], [-97.4224709, 35.58073], [-97.4224712, 35.5807744], [-97.4226343, 35.5807736], [-97.4226348, 35.5808492], [-97.4227269, 35.5808488], [-97.422728, 35.5809936], [-97.4225814, 35.5809943], [-97.4225822, 35.5811021], [-97.4224952, 35.5811025], [-97.4224952, 35.5810967], [-97.4224231, 35.581097], [-97.4224233, 35.5811177], [-97.4224766, 35.5811174], [-97.4224766, 35.581112], [-97.4227994, 35.5811103], [-97.4227998, 35.5811638], [-97.4228583, 35.5811634], [-97.4228566, 35.5809587], [-97.4228849, 35.5809586], [-97.4228841, 35.5808566], [-97.4229654, 35.5808561], [-97.4229651, 35.5808113], [-97.42283, 35.580812], [-97.4228283, 35.5806066], [-97.422795, 35.5806068], [-97.4227617, 35.5806069], [-97.4227613, 35.5805577], [-97.4228269, 35.5805574], [-97.4228262, 35.5804727], [-97.4229279, 35.5804721], [-97.4229537, 35.5804305], [-97.4230804, 35.5804825], [-97.4231231, 35.580482], [-97.4231218, 35.5803988], [-97.4232769, 35.5803971], [-97.4232783, 35.5804784], [-97.4232889, 35.5804782], [-97.4232922, 35.5806796], [-97.4232739, 35.5806798], [-97.4232759, 35.5808055], [-97.4230262, 35.5808081], [-97.423027, 35.5808568], [-97.4231056, 35.5808559], [-97.4231072, 35.5809558], [-97.4231361, 35.5809555], [-97.4231394, 35.5811657], [-97.4231104, 35.581166], [-97.423112, 35.5812677], [-97.4230187, 35.5812686], [-97.4230202, 35.5813605], [-97.422981, 35.5813609], [-97.4229801, 35.5813014], [-97.4229417, 35.5813018], [-97.4229418, 35.5813091], [-97.4228667, 35.5813098], [-97.4228669, 35.5813246], [-97.4229294, 35.581324], [-97.4229316, 35.5814712], [-97.4229581, 35.581471], [-97.4229611, 35.5816682], [-97.4229325, 35.5816685], [-97.422934, 35.5817692], [-97.4228286, 35.5817703], [-97.4228298, 35.5818485], [-97.4227717, 35.5818491], [-97.4227705, 35.5817709], [-97.4226636, 35.581772], [-97.422662, 35.5816704], [-97.4226369, 35.5816706], [-97.422634, 35.5814734], [-97.4226621, 35.5814732], [-97.4226601, 35.5813376], [-97.422625, 35.581338], [-97.4226255, 35.5813713], [-97.4225725, 35.5813718], [-97.422572, 35.5813393], [-97.4224826, 35.5813402], [-97.4224874, 35.5816541], [-97.4224505, 35.5816545], [-97.4224512, 35.5817005], [-97.4225419, 35.5816996], [-97.4225449, 35.5818956], [-97.4222044, 35.5818991], [-97.4222014, 35.5817014], [-97.4222433, 35.581701], [-97.4222426, 35.581652], [-97.4221404, 35.581653], [-97.4221424, 35.5817792], [-97.4220183, 35.5817804], [-97.4220191, 35.5818333], [-97.4219606, 35.5818339], [-97.4219598, 35.5817799], [-97.4218066, 35.5817815], [-97.4218069, 35.5818018], [-97.4216182, 35.5818036], [-97.4216179, 35.5817831], [-97.4215328, 35.581784], [-97.4215309, 35.5816583], [-97.4214393, 35.5816592], [-97.4214364, 35.5814655], [-97.4213481, 35.5814664], [-97.4213492, 35.5815449], [-97.4209206, 35.5815491]]]}, "properties": {"osm_id": 1391296558, "building": "school", "name": "", "height": null, "height_m": null, "levels": null, "tract_id": "40109108101", "tract_name": "1081.01", "tags": {"building": "school"}}}, {"type": "Feature", "geometry": {"type": "Polygon", "coordinates": [[[-97.3842051, 35.5653205], [-97.3842032, 35.5652747], [-97.3841602, 35.5652759], [-97.384162, 35.5653217], [-97.3842051, 35.5653205]]]}, "properties": {"osm_id": 1394007541, "building": "yes", "name": "", "height": null, "height_m": null, "levels": null, "tract_id": "40109108101", "tract_name": "1081.01", "tags": {"building": "yes"}}}, {"type": "Feature", "geometry": {"type": "Polygon", "coordinates": [[[-97.4116952, 35.5824464], [-97.4113686, 35.5824439], [-97.4112469, 35.5824477], [-97.411119, 35.5825341], [-97.4110774, 35.5825316], [-97.4110451, 35.5825116], [-97.4110343, 35.5824803], [-97.4110405, 35.5824527], [-97.4110682, 35.5824277], [-97.4110944, 35.5824101], [-97.410985, 35.5823287], [-97.4110528, 35.5822761], [-97.4111498, 35.5823625], [-97.4112238, 35.5822936], [-97.4112284, 35.5822372], [-97.4114318, 35.5822385], [-97.4114318, 35.5821771], [-97.4113994, 35.582122], [-97.4114734, 35.5820894], [-97.4115072, 35.5821595], [-97.4115026, 35.5822335], [-97.4116906, 35.5822347], [-97.4116952, 35.5824464]]]}, "properties": {"osm_id": 1422686062, "building": "yes", "name": "", "height": null, "height_m": null, "levels": null, "tract_id": "40109108101", "tract_name": "1081.01", "tags": {"building": "yes", "golf": "clubhouse"}}}, {"type": "Feature", "geometry": {"type": "Polygon", "coordinates": [[[-97.4139535, 35.5682779], [-97.4137903, 35.568346], [-97.4138353, 35.5684173], [-97.4138181, 35.5684244], [-97.4138453, 35.5684674], [-97.4138246, 35.5684761], [-97.4138847, 35.5685714], [-97.4140861, 35.5684873], [-97.4140668, 35.5684568], [-97.4141113, 35.5684382], [-97.4140788, 35.5683866], [-97.4140339, 35.5684053], [-97.4139535, 35.5682779]]]}, "properties": {"osm_id": 1428396449, "building": "house", "name": "", "height": null, "height_m": null, "levels": null, "tract_id": "40109108101", "tract_name": "1081.01", "tags": {"addr:city": "Oklahoma City", "addr:housenumber": "9717", "addr:postcode": "73151", "addr:state": "OK", "addr:street": "Quail Hollow Way", "building": "house"}}}, {"type": "Feature", "geometry": {"type": "Polygon", "coordinates": [[[-97.4135827, 35.5679907], [-97.4135565, 35.5679523], [-97.413515, 35.5679711], [-97.4135057, 35.5679575], [-97.4134558, 35.5679801], [-97.4135104, 35.5680598], [-97.4134993, 35.5680648], [-97.4136031, 35.5682167], [-97.4137488, 35.5681507], [-97.4137289, 35.5681217], [-97.4138163, 35.5680822], [-97.4137784, 35.5680269], [-97.4137199, 35.5680534], [-97.4136799, 35.567995], [-97.4136486, 35.5680091], [-97.4136233, 35.5679723], [-97.4135827, 35.5679907]]]}, "properties": {"osm_id": 1428396450, "building": "house", "name": "", "height": null, "height_m": null, "levels": null, "tract_id": "40109108101", "tract_name": "1081.01", "tags": {"addr:city": "Oklahoma City", "addr:housenumber": "9709", "addr:postcode": "73151", "addr:state": "OK", "addr:street": "Quail Hollow Way", "building": "house"}}}, {"type": "Feature", "geometry": {"type": "Polygon", "coordinates": [[[-97.413453, 35.5676357], [-97.4133704, 35.5676724], [-97.4133503, 35.5676425], [-97.413251, 35.5676867], [-97.4133707, 35.5678651], [-97.4135009, 35.5678073], [-97.4135164, 35.5678305], [-97.4135683, 35.5678075], [-97.413453, 35.5676357]]]}, "properties": {"osm_id": 1428396451, "building": "house", "name": "", "height": null, "height_m": null, "levels": null, "tract_id": "40109108101", "tract_name": "1081.01", "tags": {"addr:city": "Oklahoma City", "addr:housenumber": "9701", "addr:postcode": "73151", "addr:state": "OK", "addr:street": "Quail Hollow Way", "building": "house"}}}, {"type": "Feature", "geometry": {"type": "Polygon", "coordinates": [[[-97.4132535, 35.5672044], [-97.413031, 35.5672993], [-97.4130938, 35.5673967], [-97.4130645, 35.5674093], [-97.4131059, 35.5674736], [-97.4132448, 35.5674145], [-97.4132612, 35.56744], [-97.4133253, 35.5674127], [-97.4133143, 35.5673957], [-97.4133373, 35.5673859], [-97.4133072, 35.567339], [-97.4133331, 35.567328], [-97.4132535, 35.5672044]]]}, "properties": {"osm_id": 1428396452, "building": "house", "name": "", "height": null, "height_m": null, "levels": null, "tract_id": "40109108101", "tract_name": "1081.01", "tags": {"addr:city": "Oklahoma City", "addr:housenumber": "9609", "addr:postcode": "73151", "addr:state": "OK", "addr:street": "Quail Hollow Way", "building": "house"}}}, {"type": "Feature", "geometry": {"type": "Polygon", "coordinates": [[[-97.4129678, 35.5669146], [-97.4128488, 35.5669526], [-97.4129109, 35.5670815], [-97.4129344, 35.567074], [-97.4129541, 35.5671149], [-97.4128811, 35.5671382], [-97.41291, 35.5671982], [-97.4131316, 35.5671276], [-97.4131173, 35.5670978], [-97.413159, 35.5670845], [-97.4131326, 35.5670297], [-97.4130833, 35.5670454], [-97.4130398, 35.5669553], [-97.4129944, 35.5669698], [-97.4129678, 35.5669146]]]}, "properties": {"osm_id": 1428396453, "building": "house", "name": "", "height": null, "height_m": null, "levels": null, "tract_id": "40109108101", "tract_name": "1081.01", "tags": {"addr:city": "Oklahoma City", "addr:housenumber": "9601", "addr:postcode": "73151", "addr:state": "OK", "addr:street": "Quail Hollow Way", "building": "house"}}}, {"type": "Feature", "geometry": {"type": "Polygon", "coordinates": [[[-97.4128464, 35.5664437], [-97.412744, 35.5664447], [-97.4127445, 35.5664831], [-97.4127125, 35.5664834], [-97.4127143, 35.5666101], [-97.4127431, 35.5666099], [-97.4127434, 35.5666357], [-97.4126432, 35.5666367], [-97.4126442, 35.5667101], [-97.4127685, 35.566709], [-97.4127683, 35.566697], [-97.4129412, 35.5666954], [-97.4129403, 35.5666363], [-97.4129042, 35.5666366], [-97.4129022, 35.5664918], [-97.4128789, 35.566492], [-97.4128785, 35.5664596], [-97.4128466, 35.5664599], [-97.4128464, 35.5664437]]]}, "properties": {"osm_id": 1428396454, "building": "house", "name": "", "height": null, "height_m": null, "levels": null, "tract_id": "40109108101", "tract_name": "1081.01", "tags": {"addr:city": "Oklahoma City", "addr:housenumber": "9509", "addr:postcode": "73151", "addr:state": "OK", "addr:street": "Quail Hollow Way", "building": "house"}}}, {"type": "Feature", "geometry": {"type": "Polygon", "coordinates": [[[-97.4149076, 35.5668624], [-97.4148164, 35.5669004], [-97.4148343, 35.5669289], [-97.4148091, 35.5669394], [-97.4148009, 35.5669264], [-97.4147194, 35.5669603], [-97.4148207, 35.5671214], [-97.4150187, 35.5670391], [-97.4149076, 35.5668624]]]}, "properties": {"osm_id": 1428396455, "building": "house", "name": "", "height": null, "height_m": null, "levels": null, "tract_id": "40109108101", "tract_name": "1081.01", "tags": {"addr:city": "Oklahoma City", "addr:housenumber": "6317", "addr:postcode": "73151", "addr:state": "OK", "addr:street": "Northeast 95th Court", "building": "house"}}}, {"type": "Feature", "geometry": {"type": "Polygon", "coordinates": [[[-97.4151897, 35.5668946], [-97.4151562, 35.5669095], [-97.4151973, 35.5669709], [-97.4152297, 35.5669566], [-97.4152616, 35.5670041], [-97.4154442, 35.5669232], [-97.4153354, 35.5667607], [-97.4151539, 35.5668411], [-97.4151897, 35.5668946]]]}, "properties": {"osm_id": 1428396456, "building": "house", "name": "", "height": null, "height_m": null, "levels": null, "tract_id": "40109108101", "tract_name": "1081.01", "tags": {"addr:city": "Oklahoma City", "addr:housenumber": "6309", "addr:postcode": "73151", "addr:state": "OK", "addr:street": "Northeast 95th Court", "building": "house"}}}, {"type": "Feature", "geometry": {"type": "Polygon", "coordinates": [[[-97.4155419, 35.5676752], [-97.4153665, 35.5674686], [-97.4153291, 35.5674896], [-97.4152876, 35.5674407], [-97.4151534, 35.5675161], [-97.4152565, 35.5676375], [-97.4152816, 35.5676234], [-97.4152949, 35.5676391], [-97.4152511, 35.5676637], [-97.4153069, 35.5677294], [-97.4154061, 35.5676737], [-97.4154508, 35.5677263], [-97.4155419, 35.5676752]]]}, "properties": {"osm_id": 1428396457, "building": "house", "name": "", "height": null, "height_m": null, "levels": null, "tract_id": "40109108101", "tract_name": "1081.01", "tags": {"addr:city": "Oklahoma City", "addr:housenumber": "9701", "addr:postcode": "73151", "addr:state": "OK", "addr:street": "Autumn Creek Lane", "building": "house"}}}, {"type": "Feature", "geometry": {"type": "Polygon", "coordinates": [[[-97.4149174, 35.5678936], [-97.4147847, 35.5679726], [-97.4148335, 35.5680268], [-97.4147513, 35.5680757], [-97.414817, 35.5681488], [-97.4149004, 35.5680992], [-97.4148875, 35.5680848], [-97.4149697, 35.5680358], [-97.4149823, 35.5680498], [-97.4150295, 35.5680217], [-97.4149659, 35.567951], [-97.4149925, 35.5679352], [-97.4149686, 35.5679087], [-97.4149441, 35.5679232], [-97.4149174, 35.5678936]]]}, "properties": {"osm_id": 1428396458, "building": "house", "name": "", "height": null, "height_m": null, "levels": null, "tract_id": "40109108101", "tract_name": "1081.01", "tags": {"addr:city": "Oklahoma City", "addr:housenumber": "9708", "addr:postcode": "73151", "addr:state": "OK", "addr:street": "Autumn Creek Lane", "building": "house"}}}, {"type": "Feature", "geometry": {"type": "Polygon", "coordinates": [[[-97.4146431, 35.5675827], [-97.4145676, 35.567623], [-97.4145884, 35.5676487], [-97.4145238, 35.5676832], [-97.4145781, 35.5677504], [-97.4145493, 35.5677658], [-97.414585, 35.56781], [-97.4145394, 35.5678344], [-97.4145768, 35.5678808], [-97.4148134, 35.5677544], [-97.4147849, 35.5677191], [-97.4148103, 35.5677055], [-97.4147779, 35.5676654], [-97.4148032, 35.5676518], [-97.4147368, 35.5675696], [-97.4146639, 35.5676085], [-97.4146431, 35.5675827]]]}, "properties": {"osm_id": 1428396459, "building": "house", "name": "", "height": null, "height_m": null, "levels": null, "tract_id": "40109108101", "tract_name": "1081.01", "tags": {"addr:city": "Oklahoma City", "addr:housenumber": "9700", "addr:postcode": "73151", "addr:state": "OK", "addr:street": "Autumn Creek Lane", "building": "house"}}}, {"type": "Feature", "geometry": {"type": "Polygon", "coordinates": [[[-97.4143785, 35.5674522], [-97.4142795, 35.5674947], [-97.4143261, 35.5675666], [-97.4144371, 35.5675191], [-97.4144231, 35.5674975], [-97.4145791, 35.5674306], [-97.4144948, 35.5673004], [-97.4144609, 35.567315], [-97.4144222, 35.5672553], [-97.414368, 35.5672785], [-97.4143747, 35.5672888], [-97.4142836, 35.5673278], [-97.4143443, 35.5674215], [-97.4143555, 35.5674167], [-97.4143785, 35.5674522]]]}, "properties": {"osm_id": 1428396460, "building": "house", "name": "", "height": null, "height_m": null, "levels": null, "tract_id": "40109108101", "tract_name": "1081.01", "tags": {"addr:city": "Oklahoma City", "addr:housenumber": "9608", "addr:postcode": "73151", "addr:state": "OK", "addr:street": "Autumn Creek Lane", "building": "house"}}}, {"type": "Feature", "geometry": {"type": "Polygon", "coordinates": [[[-97.4142631, 35.5669777], [-97.4140417, 35.567077], [-97.4141271, 35.5672029], [-97.4141466, 35.5671941], [-97.4141728, 35.5672327], [-97.4143746, 35.5671422], [-97.4142631, 35.5669777]]]}, "properties": {"osm_id": 1428396461, "building": "house", "name": "", "height": null, "height_m": null, "levels": null, "tract_id": "40109108101", "tract_name": "1081.01", "tags": {"addr:city": "Oklahoma City", "addr:housenumber": "9600", "addr:postcode": "73151", "addr:state": "OK", "addr:street": "Autumn Creek Lane", "building": "house"}}}, {"type": "Feature", "geometry": {"type": "Polygon", "coordinates": [[[-97.4139612, 35.5668277], [-97.4138924, 35.5668585], [-97.4139379, 35.5669258], [-97.4141577, 35.5668275], [-97.4140356, 35.5666468], [-97.4140254, 35.5666514], [-97.4139958, 35.5666077], [-97.4137987, 35.5666958], [-97.4138329, 35.5667464], [-97.4138892, 35.5667212], [-97.4139612, 35.5668277]]]}, "properties": {"osm_id": 1428396462, "building": "house", "name": "", "height": null, "height_m": null, "levels": null, "tract_id": "40109108101", "tract_name": "1081.01", "tags": {"addr:city": "Oklahoma City", "addr:housenumber": "9508", "addr:postcode": "73151", "addr:state": "OK", "addr:street": "Autumn Creek Lane", "building": "house"}}}, {"type": "Feature", "geometry": {"type": "Polygon", "coordinates": [[[-97.413649, 35.566425], [-97.4134735, 35.5665021], [-97.4135217, 35.5665747], [-97.4135945, 35.5665427], [-97.413648, 35.5666232], [-97.4135929, 35.5666474], [-97.413627, 35.5666988], [-97.4136703, 35.5666798], [-97.4136815, 35.5666967], [-97.4137635, 35.5666606], [-97.4137547, 35.5666474], [-97.4138569, 35.5666025], [-97.4137618, 35.5664593], [-97.4137348, 35.5664711], [-97.4137129, 35.5664381], [-97.4136702, 35.5664568], [-97.413649, 35.566425]]]}, "properties": {"osm_id": 1428396463, "building": "house", "name": "", "height": null, "height_m": null, "levels": null, "tract_id": "40109108101", "tract_name": "1081.01", "tags": {"addr:city": "Oklahoma City", "addr:housenumber": "9500", "addr:postcode": "73151", "addr:state": "OK", "addr:street": "Autumn Creek Lane", "building": "house"}}}, {"type": "Feature", "geometry": {"type": "Polygon", "coordinates": [[[-97.4146518, 35.5664158], [-97.4146272, 35.5663679], [-97.4144496, 35.566428], [-97.4145045, 35.5665353], [-97.4145281, 35.5665273], [-97.4145398, 35.5665501], [-97.4145124, 35.5665594], [-97.4145536, 35.5666397], [-97.4145962, 35.5666253], [-97.4146136, 35.5666593], [-97.4147254, 35.5666215], [-97.4146882, 35.5665488], [-97.4147294, 35.5665349], [-97.414666, 35.566411], [-97.4146518, 35.5664158]]]}, "properties": {"osm_id": 1428396464, "building": "house", "name": "", "height": null, "height_m": null, "levels": null, "tract_id": "40109108101", "tract_name": "1081.01", "tags": {"addr:city": "Oklahoma City", "addr:housenumber": "9501", "addr:postcode": "73151", "addr:state": "OK", "addr:street": "Autumn Creek Lane", "building": "house"}}}, {"type": "Feature", "geometry": {"type": "Polygon", "coordinates": [[[-97.4145928, 35.5659338], [-97.4145925, 35.5659186], [-97.4144937, 35.5659195], [-97.4144948, 35.5660014], [-97.4144842, 35.5660015], [-97.4144848, 35.5660403], [-97.4145252, 35.56604], [-97.4145257, 35.5660721], [-97.4144416, 35.5660729], [-97.4144427, 35.5661493], [-97.4145464, 35.5661483], [-97.4145467, 35.5661739], [-97.4147104, 35.5661723], [-97.4147089, 35.5660717], [-97.4146889, 35.5660719], [-97.4146882, 35.5660229], [-97.4146641, 35.5660231], [-97.4146634, 35.5659751], [-97.414629, 35.5659754], [-97.4146284, 35.5659335], [-97.4145928, 35.5659338]]]}, "properties": {"osm_id": 1428396465, "building": "house", "name": "", "height": null, "height_m": null, "levels": null, "tract_id": "40109108101", "tract_name": "1081.01", "tags": {"addr:city": "Oklahoma City", "addr:housenumber": "9401", "addr:postcode": "73151", "addr:state": "OK", "addr:street": "Autumn Park Lane", "building": "house"}}}, {"type": "Feature", "geometry": {"type": "Polygon", "coordinates": [[[-97.414327, 35.5687607], [-97.4142462, 35.5688094], [-97.4143827, 35.5689592], [-97.4144234, 35.5689346], [-97.4144559, 35.5689703], [-97.4145572, 35.5689092], [-97.4144342, 35.5687743], [-97.414373, 35.5688112], [-97.414327, 35.5687607]]]}, "properties": {"osm_id": 1428396466, "building": "house", "name": "", "height": null, "height_m": null, "levels": null, "tract_id": "40109108101", "tract_name": "1081.01", "tags": {"addr:city": "Oklahoma City", "addr:housenumber": "6417", "addr:postcode": "73151", "addr:state": "OK", "addr:street": "Northeast 97th Street", "building": "house"}}}, {"type": "Feature", "geometry": {"type": "Polygon", "coordinates": [[[-97.4138484, 35.5690445], [-97.4137228, 35.5691147], [-97.4137398, 35.5691348], [-97.4136447, 35.569188], [-97.4137511, 35.569314], [-97.4139947, 35.5691779], [-97.4139464, 35.5691207], [-97.4139235, 35.5691335], [-97.4138484, 35.5690445]]]}, "properties": {"osm_id": 1428396467, "building": "house", "name": "", "height": null, "height_m": null, "levels": null, "tract_id": "40109108101", "tract_name": "1081.01", "tags": {"addr:city": "Oklahoma City", "addr:housenumber": "6501", "addr:postcode": "73151", "addr:state": "OK", "addr:street": "Northeast 97th Street", "building": "house"}}}, {"type": "Feature", "geometry": {"type": "Polygon", "coordinates": [[[-97.4133226, 35.5693901], [-97.4134127, 35.56949], [-97.413441, 35.5694731], [-97.4135062, 35.5695453], [-97.4136158, 35.5694799], [-97.4135855, 35.5694464], [-97.4136269, 35.5694217], [-97.413535, 35.5693199], [-97.4134683, 35.5693596], [-97.4134615, 35.569352], [-97.41342, 35.5693768], [-97.4133856, 35.5693387], [-97.4133405, 35.5693656], [-97.4133486, 35.5693746], [-97.4133226, 35.5693901]]]}, "properties": {"osm_id": 1428396468, "building": "house", "name": "", "height": null, "height_m": null, "levels": null, "tract_id": "40109108101", "tract_name": "1081.01", "tags": {"addr:city": "Oklahoma City", "addr:housenumber": "6509", "addr:postcode": "73151", "addr:state": "OK", "addr:street": "Northeast 97th Street", "building": "house"}}}, {"type": "Feature", "geometry": {"type": "Polygon", "coordinates": [[[-97.4122944, 35.5697652], [-97.4122629, 35.5698345], [-97.4121984, 35.5698151], [-97.4121668, 35.5698848], [-97.4121193, 35.5698705], [-97.4121124, 35.5698856], [-97.4120446, 35.5698653], [-97.4120496, 35.5698545], [-97.4119859, 35.5698354], [-97.4120509, 35.5696922], [-97.4122944, 35.5697652]]]}, "properties": {"osm_id": 1428396469, "building": "house", "name": "", "height": null, "height_m": null, "levels": null, "tract_id": "40109108101", "tract_name": "1081.01", "tags": {"addr:city": "Oklahoma City", "addr:housenumber": "9800", "addr:postcode": "73151", "addr:state": "OK", "addr:street": "Northeast 97th Street", "building": "house"}}}, {"type": "Feature", "geometry": {"type": "Polygon", "coordinates": [[[-97.4123854, 35.5693624], [-97.4122352, 35.5695195], [-97.4122787, 35.5695471], [-97.4122443, 35.5695831], [-97.4122892, 35.5696115], [-97.4123298, 35.569569], [-97.4124081, 35.5696185], [-97.412466, 35.5695579], [-97.4124287, 35.5695344], [-97.4124741, 35.5694869], [-97.4125109, 35.5695102], [-97.4125516, 35.5694676], [-97.4123854, 35.5693624]]]}, "properties": {"osm_id": 1428396470, "building": "house", "name": "", "height": null, "height_m": null, "levels": null, "tract_id": "40109108101", "tract_name": "1081.01", "tags": {"addr:city": "Oklahoma City", "addr:housenumber": "6524", "addr:postcode": "73151", "addr:state": "OK", "addr:street": "Northeast 97th Street", "building": "house"}}}, {"type": "Feature", "geometry": {"type": "Polygon", "coordinates": [[[-97.4128712, 35.5692088], [-97.4127575, 35.5690753], [-97.4126117, 35.5691575], [-97.412631, 35.5691802], [-97.4125753, 35.5692115], [-97.4126396, 35.569287], [-97.4126095, 35.5693039], [-97.4126771, 35.5693833], [-97.4127495, 35.5693425], [-97.4127171, 35.5693044], [-97.4127452, 35.5692886], [-97.4127172, 35.5692558], [-97.4127725, 35.5692246], [-97.4127954, 35.5692515], [-97.4128712, 35.5692088]]]}, "properties": {"osm_id": 1428396471, "building": "house", "name": "", "height": null, "height_m": null, "levels": null, "tract_id": "40109108101", "tract_name": "1081.01", "tags": {"addr:city": "Oklahoma City", "addr:housenumber": "6516", "addr:postcode": "73151", "addr:state": "OK", "addr:street": "Northeast 97th Street", "building": "house"}}}, {"type": "Feature", "geometry": {"type": "Polygon", "coordinates": [[[-97.4132525, 35.5689908], [-97.4131924, 35.5689219], [-97.4131756, 35.5689316], [-97.4131588, 35.5689123], [-97.4131178, 35.568936], [-97.4130847, 35.5688981], [-97.4130008, 35.5689466], [-97.4129834, 35.5689267], [-97.412875, 35.5689893], [-97.4129729, 35.5691015], [-97.4129929, 35.56909], [-97.4130517, 35.5691574], [-97.413125, 35.569115], [-97.4130909, 35.5690759], [-97.4131901, 35.5690187], [-97.4131948, 35.5690241], [-97.4132525, 35.5689908]]]}, "properties": {"osm_id": 1428396472, "building": "house", "name": "", "height": null, "height_m": null, "levels": null, "tract_id": "40109108101", "tract_name": "1081.01", "tags": {"addr:city": "Oklahoma City", "addr:housenumber": "6508", "addr:postcode": "73151", "addr:state": "OK", "addr:street": "Northeast 97th Street", "building": "house"}}}, {"type": "Feature", "geometry": {"type": "Polygon", "coordinates": [[[-97.4132906, 35.568612], [-97.4131349, 35.5687019], [-97.4132277, 35.5688082], [-97.4132376, 35.5688025], [-97.4132556, 35.5688231], [-97.4132974, 35.5687989], [-97.4132908, 35.5687913], [-97.413324, 35.5687721], [-97.41337, 35.5688247], [-97.4134404, 35.5687841], [-97.4133977, 35.5687352], [-97.4134701, 35.5686934], [-97.4134152, 35.5686306], [-97.4133606, 35.5686622], [-97.4133861, 35.5686913], [-97.4133687, 35.5687013], [-97.4132906, 35.568612]]]}, "properties": {"osm_id": 1428396473, "building": "house", "name": "", "height": null, "height_m": null, "levels": null, "tract_id": "40109108101", "tract_name": "1081.01", "tags": {"addr:city": "Oklahoma City", "addr:housenumber": "6500", "addr:postcode": "73151", "addr:state": "OK", "addr:street": "Northeast 97th Street", "building": "house"}}}, {"type": "Feature", "geometry": {"type": "Polygon", "coordinates": [[[-97.4130323, 35.5681211], [-97.4129017, 35.567929], [-97.4128266, 35.5679628], [-97.4128423, 35.5679858], [-97.4127453, 35.5680295], [-97.4127831, 35.5680851], [-97.4127406, 35.5681043], [-97.4127829, 35.5681666], [-97.4128183, 35.5681506], [-97.4128472, 35.5681931], [-97.4129537, 35.5681452], [-97.4129596, 35.5681538], [-97.4130323, 35.5681211]]]}, "properties": {"osm_id": 1428396474, "building": "house", "name": "", "height": null, "height_m": null, "levels": null, "tract_id": "40109108101", "tract_name": "1081.01", "tags": {"addr:city": "Oklahoma City", "addr:housenumber": "6507", "addr:postcode": "73151", "addr:state": "OK", "addr:street": "Northeast 96th Circle", "building": "house"}}}, {"type": "Feature", "geometry": {"type": "Polygon", "coordinates": [[[-97.4126037, 35.5682215], [-97.4124799, 35.5682809], [-97.4124962, 35.5683034], [-97.4123797, 35.5683593], [-97.4124377, 35.5684393], [-97.4125498, 35.5683855], [-97.4125756, 35.5684212], [-97.412683, 35.5683697], [-97.4126751, 35.5683588], [-97.4127197, 35.5683374], [-97.4126575, 35.5682516], [-97.4126338, 35.568263], [-97.4126037, 35.5682215]]]}, "properties": {"osm_id": 1428396475, "building": "house", "name": "", "height": null, "height_m": null, "levels": null, "tract_id": "40109108101", "tract_name": "1081.01", "tags": {"addr:city": "Oklahoma City", "addr:housenumber": "6509", "addr:postcode": "73151", "addr:state": "OK", "addr:street": "Northeast 96th Circle", "building": "house"}}}, {"type": "Feature", "geometry": {"type": "Polygon", "coordinates": [[[-97.412118, 35.568513], [-97.4121206, 35.5685961], [-97.4120742, 35.568597], [-97.4120766, 35.5686749], [-97.4121143, 35.5686741], [-97.4121156, 35.5687158], [-97.4122087, 35.5687139], [-97.4122096, 35.568745], [-97.4123301, 35.5687426], [-97.412323, 35.5685088], [-97.412118, 35.568513]]]}, "properties": {"osm_id": 1428396476, "building": "house", "name": "", "height": null, "height_m": null, "levels": null, "tract_id": "40109108101", "tract_name": "1081.01", "tags": {"addr:city": "Oklahoma City", "addr:housenumber": "6517", "addr:postcode": "73151", "addr:state": "OK", "addr:street": "Northeast 96th Circle", "building": "house"}}}, {"type": "Feature", "geometry": {"type": "Polygon", "coordinates": [[[-97.4119, 35.5682841], [-97.4118482, 35.5683302], [-97.4118182, 35.5683079], [-97.4117591, 35.5683605], [-97.4117898, 35.5683833], [-97.4117371, 35.5684303], [-97.4118186, 35.5684909], [-97.4118039, 35.5685039], [-97.4118992, 35.5685747], [-97.4120409, 35.5684485], [-97.4120009, 35.5684187], [-97.412015, 35.5684062], [-97.4119778, 35.5683786], [-97.4119676, 35.5683876], [-97.4119476, 35.5683728], [-97.4119803, 35.5683437], [-97.4119, 35.5682841]]]}, "properties": {"osm_id": 1428396477, "building": "house", "name": "", "height": null, "height_m": null, "levels": null, "tract_id": "40109108101", "tract_name": "1081.01", "tags": {"addr:city": "Oklahoma City", "addr:housenumber": "6524", "addr:postcode": "73151", "addr:state": "OK", "addr:street": "Northeast 96th Circle", "building": "house"}}}, {"type": "Feature", "geometry": {"type": "Polygon", "coordinates": [[[-97.4118877, 35.5678998], [-97.4117499, 35.5680707], [-97.4119178, 35.5681603], [-97.4119789, 35.5680845], [-97.411936, 35.5680616], [-97.4119552, 35.5680378], [-97.4119851, 35.5680538], [-97.4120426, 35.5679825], [-97.4118877, 35.5678998]]]}, "properties": {"osm_id": 1428396478, "building": "house", "name": "", "height": null, "height_m": null, "levels": null, "tract_id": "40109108101", "tract_name": "1081.01", "tags": {"addr:city": "Oklahoma City", "addr:housenumber": "6516", "addr:postcode": "73151", "addr:state": "OK", "addr:street": "Northeast 96th Circle", "building": "house"}}}, {"type": "Feature", "geometry": {"type": "Polygon", "coordinates": [[[-97.4122836, 35.5675858], [-97.4124094, 35.5677629], [-97.4123396, 35.5677956], [-97.4123852, 35.5678598], [-97.4123093, 35.5678955], [-97.4122788, 35.5678527], [-97.4121854, 35.5678966], [-97.4121205, 35.5678053], [-97.4120806, 35.567824], [-97.4120432, 35.5677713], [-97.4122197, 35.5676884], [-97.412207, 35.5676705], [-97.4122512, 35.5676497], [-97.4122253, 35.5676132], [-97.4122836, 35.5675858]]]}, "properties": {"osm_id": 1428396479, "building": "house", "name": "", "height": null, "height_m": null, "levels": null, "tract_id": "40109108101", "tract_name": "1081.01", "tags": {"addr:city": "Oklahoma City", "addr:housenumber": "6508", "addr:postcode": "73151", "addr:state": "OK", "addr:street": "Northeast 96th Circle", "building": "house"}}}, {"type": "Feature", "geometry": {"type": "Polygon", "coordinates": [[[-97.4126669, 35.5674666], [-97.4126164, 35.5674894], [-97.4126307, 35.5675104], [-97.4125833, 35.5675319], [-97.4125686, 35.5675104], [-97.4125267, 35.5675294], [-97.4125439, 35.5675546], [-97.4124928, 35.5675777], [-97.4126095, 35.5677484], [-97.4126887, 35.5677126], [-97.4126712, 35.567687], [-97.4127053, 35.5676716], [-97.4127175, 35.5676894], [-97.4127952, 35.5676542], [-97.4126669, 35.5674666]]]}, "properties": {"osm_id": 1428396480, "building": "house", "name": "", "height": null, "height_m": null, "levels": null, "tract_id": "40109108101", "tract_name": "1081.01", "tags": {"addr:city": "Oklahoma City", "addr:housenumber": "6500", "addr:postcode": "73151", "addr:state": "OK", "addr:street": "Northeast 96th Circle", "building": "house"}}}, {"type": "Feature", "geometry": {"type": "Polygon", "coordinates": [[[-97.4122721, 35.5671], [-97.412186, 35.5671392], [-97.4121688, 35.5671141], [-97.4121428, 35.5671259], [-97.4120929, 35.5670533], [-97.4119643, 35.5671118], [-97.4120796, 35.5672795], [-97.4123202, 35.56717], [-97.4122721, 35.5671]]]}, "properties": {"osm_id": 1428396481, "building": "house", "name": "", "height": null, "height_m": null, "levels": null, "tract_id": "40109108101", "tract_name": "1081.01", "tags": {"addr:city": "Oklahoma City", "addr:housenumber": "9600", "addr:postcode": "73151", "addr:state": "OK", "addr:street": "Quail Hollow Way", "building": "house"}}}, {"type": "Feature", "geometry": {"type": "Polygon", "coordinates": [[[-97.4122312, 35.5666423], [-97.4120133, 35.5666645], [-97.4120285, 35.5667631], [-97.4120633, 35.5667596], [-97.4120676, 35.5667877], [-97.4120505, 35.5667895], [-97.41206, 35.566851], [-97.41211, 35.5668459], [-97.4121173, 35.5668938], [-97.412185, 35.5668869], [-97.4121886, 35.56691], [-97.4122731, 35.5669013], [-97.4122644, 35.5668447], [-97.4122369, 35.5668475], [-97.412221, 35.5667445], [-97.4122466, 35.5667419], [-97.4122312, 35.5666423]]]}, "properties": {"osm_id": 1428396482, "building": "house", "name": "", "height": null, "height_m": null, "levels": null, "tract_id": "40109108101", "tract_name": "1081.01", "tags": {"addr:city": "Oklahoma City", "addr:housenumber": "9508", "addr:postcode": "73151", "addr:state": "OK", "addr:street": "Quail Hollow Way", "building": "house"}}}, {"type": "Feature", "geometry": {"type": "Polygon", "coordinates": [[[-97.4121329, 35.5662869], [-97.4119055, 35.5663062], [-97.4119237, 35.5664477], [-97.4119489, 35.5664456], [-97.4119577, 35.566514], [-97.4120472, 35.5665064], [-97.4120407, 35.5664566], [-97.4121219, 35.5664497], [-97.4121187, 35.5664243], [-97.4121566, 35.5664211], [-97.412147, 35.5663467], [-97.412182, 35.5663437], [-97.4121766, 35.5663016], [-97.4121352, 35.5663051], [-97.4121329, 35.5662869]]]}, "properties": {"osm_id": 1428396483, "building": "house", "name": "", "height": null, "height_m": null, "levels": null, "tract_id": "40109108101", "tract_name": "1081.01", "tags": {"addr:city": "Oklahoma City", "addr:housenumber": "9500", "addr:postcode": "73151", "addr:state": "OK", "addr:street": "Quail Hollow Way", "building": "house"}}}, {"type": "Feature", "geometry": {"type": "Polygon", "coordinates": [[[-97.4132231, 35.5659767], [-97.4129867, 35.5659767], [-97.4129867, 35.5660253], [-97.4129572, 35.5660253], [-97.4129572, 35.5661003], [-97.4130001, 35.5661003], [-97.4130001, 35.5661592], [-97.4130829, 35.5661592], [-97.4130829, 35.5661057], [-97.4132231, 35.5661057], [-97.4132231, 35.5659767]]]}, "properties": {"osm_id": 1428396484, "building": "house", "name": "", "height": null, "height_m": null, "levels": null, "tract_id": "40109108101", "tract_name": "1081.01", "tags": {"addr:city": "Oklahoma City", "addr:housenumber": "6408", "addr:postcode": "73151", "addr:state": "OK", "addr:street": "East 94th Street", "building": "house"}}}, {"type": "Feature", "geometry": {"type": "Polygon", "coordinates": [[[-97.4138086, 35.5659028], [-97.4137506, 35.5659034], [-97.413751, 35.5659296], [-97.4137041, 35.5659301], [-97.4137049, 35.5659787], [-97.4136074, 35.5659797], [-97.4136105, 35.566164], [-97.4137943, 35.566162], [-97.4137924, 35.5660442], [-97.413811, 35.566044], [-97.4138086, 35.5659028]]]}, "properties": {"osm_id": 1428396485, "building": "house", "name": "", "height": null, "height_m": null, "levels": null, "tract_id": "40109108101", "tract_name": "1081.01", "tags": {"addr:city": "Oklahoma City", "addr:housenumber": "6400", "addr:postcode": "73151", "addr:state": "OK", "addr:street": "East 94th Street", "building": "house"}}}]}