{"type": "FeatureCollection", "features": [{"type": "Feature", "geometry": {"type": "Polygon", "coordinates": [[[-97.3707237, 34.9850405], [-97.3707384, 34.9850403], [-97.3707339, 34.9847721], [-97.3705742, 34.9847739], [-97.3705806, 34.9851507], [-97.3707256, 34.9851491], [-97.3707237, 34.9850405]]]}, "properties": {"osm_id": 147108235, "building": "commercial", "name": "Braum's", "height": null, "height_m": null, "levels": null, "tract_id": "40087400300", "tract_name": "4003", "tags": {"amenity": "fast_food", "brand": "Braum's", "brand:wikidata": "Q4958263", "building": "commercial", "cuisine": "american;ice_cream", "name": "Braum's", "shop": "dairy"}}}, {"type": "Feature", "geometry": {"type": "Polygon", "coordinates": [[[-97.3713359, 34.9845352], [-97.3714882, 34.9845354], [-97.3714882, 34.9845156], [-97.3715813, 34.9845157], [-97.3715814, 34.9844712], [-97.371606, 34.9844712], [-97.3716062, 34.9843994], [-97.3715838, 34.9843994], [-97.3715839, 34.984362], [-97.3713557, 34.9843616], [-97.3713556, 34.9843867], [-97.3713058, 34.9843866], [-97.3713055, 34.984487], [-97.371336, 34.9844871], [-97.3713359, 34.9845352]]]}, "properties": {"osm_id": 147108259, "building": "yes", "name": "McDonald's", "height": null, "height_m": null, "levels": null, "tract_id": "40087400300", "tract_name": "4003", "tags": {"amenity": "fast_food", "brand": "McDonald's", "brand:wikidata": "Q38076", "building": "yes", "cuisine": "burger", "name": "McDonald's", "takeaway": "yes", "website": "https://www.mcdonalds.com/us/en-us/location/ok/purcell/2211-s-9th/11657.html"}}}, {"type": "Feature", "geometry": {"type": "Polygon", "coordinates": [[[-97.3604285, 35.0238337], [-97.3604887, 35.02377], [-97.3604091, 35.0237207], [-97.3603489, 35.0237859], [-97.3604285, 35.0238337]]]}, "properties": {"osm_id": 473491235, "building": "pavilion", "name": "Red Hill Picnic Pavilion", "height": null, "height_m": 3.0, "levels": 1, "tract_id": "40087400300", "tract_name": "4003", "tags": {"building": "pavilion", "building:levels": "1", "name": "Red Hill Picnic Pavilion", "tourism": "picnic_site", "wheelchair": "yes"}}}, {"type": "Feature", "geometry": {"type": "Polygon", "coordinates": [[[-97.3713976, 34.991258], [-97.3719883, 34.9912611], [-97.3719851, 34.9915216], [-97.3719086, 34.991521], [-97.3719079, 34.9915746], [-97.3718574, 34.9915742], [-97.3718581, 34.9915251], [-97.3713942, 34.9915211], [-97.3713976, 34.991258]]]}, "properties": {"osm_id": 582081751, "building": "retail", "name": "McClain County Ag Services", "height": null, "height_m": null, "levels": null, "tract_id": "40087400300", "tract_name": "4003", "tags": {"addr:city": "Purcell", "addr:housenumber": "1721", "addr:postcode": "73080", "addr:state": "OK", "addr:street": "Hardcastle Boulevard", "building": "retail", "name": "McClain County Ag Services"}}}, {"type": "Feature", "geometry": {"type": "Polygon", "coordinates": [[[-97.3732604, 34.9931682], [-97.3722644, 34.9931608], [-97.3722753, 34.9921726], [-97.3732714, 34.9921801], [-97.3732604, 34.9931682]]]}, "properties": {"osm_id": 582082087, "building": "yes", "name": "McClain County Expo Center", "height": null, "height_m": null, "levels": null, "tract_id": "40087400300", "tract_name": "4003", "tags": {"addr:city": "Purcell", "addr:housenumber": "1715", "addr:postcode": "73080", "addr:state": "OK", "addr:street": "Hardcastle Boulevard", "amenity": "community_centre", "building": "yes", "name": "McClain County Expo Center"}}}, {"type": "Feature", "geometry": {"type": "Polygon", "coordinates": [[[-97.3739232, 35.0294601], [-97.3738405, 35.0294599], [-97.373841, 35.0293106], [-97.3740852, 35.0293112], [-97.3740848, 35.0294404], [-97.3739233, 35.0294401], [-97.3739232, 35.0294601]]]}, "properties": {"osm_id": 767400024, "building": "yes", "name": "Comanche Construction, llc", "height": null, "height_m": 3.0, "levels": 1, "tract_id": "40087400300", "tract_name": "4003", "tags": {"building": "yes", "building:levels": "1", "description": "Construction group", "name": "Comanche Construction, llc"}}}, {"type": "Feature", "geometry": {"type": "Polygon", "coordinates": [[[-97.3653578, 35.0272688], [-97.3653554, 35.0271627], [-97.3653449, 35.027164], [-97.3653443, 35.0271501], [-97.3653035, 35.0271483], [-97.3653027, 35.0270957], [-97.3652165, 35.0270969], [-97.3652178, 35.0271264], [-97.3651299, 35.0271386], [-97.3651345, 35.0272775], [-97.3653427, 35.0272805], [-97.3653427, 35.0272692], [-97.3653578, 35.0272688]]]}, "properties": {"osm_id": 987932270, "building": "yes", "name": "", "height": null, "height_m": null, "levels": null, "tract_id": "40087400300", "tract_name": "4003", "tags": {"building": "yes"}}}, {"type": "Feature", "geometry": {"type": "Polygon", "coordinates": [[[-97.365364, 35.0276722], [-97.3653645, 35.0276429], [-97.3653465, 35.0276431], [-97.365346, 35.0276063], [-97.3653617, 35.0276065], [-97.3653609, 35.0275086], [-97.3652201, 35.0275091], [-97.3652202, 35.0275422], [-97.3650685, 35.0275407], [-97.3650694, 35.02765], [-97.3652203, 35.0276509], [-97.3652203, 35.027671], [-97.365364, 35.0276722]]]}, "properties": {"osm_id": 987932271, "building": "yes", "name": "", "height": null, "height_m": null, "levels": null, "tract_id": "40087400300", "tract_name": "4003", "tags": {"building": "yes"}}}, {"type": "Feature", "geometry": {"type": "Polygon", "coordinates": [[[-97.3661074, 35.027259], [-97.366107, 35.0272031], [-97.3661369, 35.0272026], [-97.3661368, 35.027097], [-97.3660218, 35.0270938], [-97.3660214, 35.0271239], [-97.36593, 35.0271246], [-97.365933, 35.0272184], [-97.3660251, 35.0272208], [-97.3660251, 35.0272372], [-97.3660116, 35.0272373], [-97.3660121, 35.0272586], [-97.3661074, 35.027259]]]}, "properties": {"osm_id": 987932272, "building": "yes", "name": "", "height": null, "height_m": null, "levels": null, "tract_id": "40087400300", "tract_name": "4003", "tags": {"building": "yes"}}}, {"type": "Feature", "geometry": {"type": "Polygon", "coordinates": [[[-97.3569858, 35.0124519], [-97.3570525, 35.0116106], [-97.3570989, 35.0116131], [-97.3570729, 35.0119411], [-97.3571612, 35.0119458], [-97.357156, 35.0120116], [-97.3571833, 35.012013], [-97.3571807, 35.0120459], [-97.357135, 35.0120435], [-97.3571307, 35.0120985], [-97.3570541, 35.0120944], [-97.3570277, 35.0124283], [-97.3570571, 35.0124298], [-97.357055, 35.0124555], [-97.3569858, 35.0124519]]]}, "properties": {"osm_id": 1026588958, "building": "train_station", "name": "Purcell", "height": null, "height_m": null, "levels": null, "tract_id": "40087400300", "tract_name": "4003", "tags": {"addr:city": "Purcell", "addr:postcode": "73080", "addr:state": "OK", "addr:street": "East Main Street", "building": "train_station", "name": "Purcell", "wikidata": "Q7260908"}}}, {"type": "Feature", "geometry": {"type": "Polygon", "coordinates": [[[-97.3600934, 35.0120116], [-97.3600937, 35.0120083], [-97.3601153, 35.0117318], [-97.3601198, 35.0116736], [-97.3599497, 35.011667], [-97.359945, 35.0117215], [-97.3599207, 35.0120022], [-97.3600934, 35.0120116]]]}, "properties": {"osm_id": 1026610245, "building": "yes", "name": "The Grand Canadian Theater", "height": null, "height_m": null, "levels": null, "tract_id": "40087400300", "tract_name": "4003", "tags": {"addr:city": "Purcell", "addr:housenumber": "116", "addr:postcode": "73080", "addr:state": "OK", "addr:street": "West Main Street", "amenity": "events_venue", "building": "yes", "name": "The Grand Canadian Theater", "website": "https://www.thegrandcanadiantheater.com/"}}}, {"type": "Feature", "geometry": {"type": "Polygon", "coordinates": [[[-97.3617966, 35.0142851], [-97.3621006, 35.0142983], [-97.3621289, 35.0138577], [-97.3619895, 35.0138517], [-97.3619775, 35.0140385], [-97.3618129, 35.0140314], [-97.3617966, 35.0142851]]]}, "properties": {"osm_id": 1026649665, "building": "yes", "name": "McClain County Museum", "height": null, "height_m": null, "levels": null, "tract_id": "40087400300", "tract_name": "4003", "tags": {"addr:city": "Purcell", "addr:housenumber": "203", "addr:postcode": "73080", "addr:state": "OK", "addr:street": "West Washington Street", "building": "yes", "name": "McClain County Museum", "tourism": "museum"}}}, {"type": "Feature", "geometry": {"type": "Polygon", "coordinates": [[[-97.3683891, 35.0378606], [-97.368274, 35.03843], [-97.3674591, 35.0383133], [-97.3674627, 35.0382807], [-97.3672096, 35.0382467], [-97.3671778, 35.0383952], [-97.3664513, 35.0382873], [-97.3665646, 35.0377005], [-97.3668725, 35.0377468], [-97.3668513, 35.0378548], [-97.3669265, 35.0378649], [-97.3669256, 35.0378823], [-97.3669982, 35.0378866], [-97.3670114, 35.0378352], [-97.3669504, 35.0378222], [-97.3669566, 35.0377599], [-97.3671618, 35.0377874], [-97.3671548, 35.0378511], [-97.3670875, 35.0378424], [-97.3670707, 35.0379388], [-97.3672539, 35.0379555], [-97.3672645, 35.0379185], [-97.3673255, 35.037925], [-97.3674052, 35.0378816], [-97.3674609, 35.0379417], [-97.3675317, 35.0379555], [-97.3675273, 35.038004], [-97.3680546, 35.0380844], [-97.3681033, 35.0378149], [-97.3683891, 35.0378606]]]}, "properties": {"osm_id": 1056717304, "building": "school", "name": "Purcell High School", "height": null, "height_m": null, "levels": null, "tract_id": "40087400300", "tract_name": "4003", "tags": {"building": "school", "name": "Purcell High School"}}}, {"type": "Feature", "geometry": {"type": "Polygon", "coordinates": [[[-97.3632216, 35.016192], [-97.3631191, 35.0161884], [-97.3631204, 35.0161635], [-97.3628902, 35.0161553], [-97.3628958, 35.0160491], [-97.3631043, 35.0160565], [-97.3631056, 35.0160331], [-97.3632298, 35.0160375], [-97.3632216, 35.016192]]]}, "properties": {"osm_id": 1117689661, "building": "church", "name": "Our Lady of Victory Catholic Church", "height": null, "height_m": null, "levels": null, "tract_id": "40087400300", "tract_name": "4003", "tags": {"addr:city": "Purcell", "addr:housenumber": "307", "addr:postcode": "73080", "addr:state": "OK", "addr:street": "West Jefferson Street", "amenity": "place_of_worship", "building": "church", "denomination": "roman_catholic", "diocese": "Oklahoma_City", "name": "Our Lady of Victory Catholic Church", "phone": "+1-405-527-3077", "religion": "christian", "website": "https://olvpurcell.org/"}}}, {"type": "Feature", "geometry": {"type": "Polygon", "coordinates": [[[-97.3598427, 35.0119982], [-97.3597173, 35.0119911], [-97.3597303, 35.011824], [-97.3597401, 35.0116983], [-97.3597428, 35.0116379], [-97.3598722, 35.0116445], [-97.3598649, 35.0117192], [-97.3598596, 35.0117781], [-97.3598427, 35.0119982]]]}, "properties": {"osm_id": 1135196390, "building": "yes", "name": "", "height": null, "height_m": null, "levels": null, "tract_id": "40087400300", "tract_name": "4003", "tags": {"building": "yes"}}}, {"type": "Feature", "geometry": {"type": "Polygon", "coordinates": [[[-97.3599207, 35.0120022], [-97.3598427, 35.0119982], [-97.3598596, 35.0117781], [-97.3598649, 35.0117192], [-97.359945, 35.0117215], [-97.3599207, 35.0120022]]]}, "properties": {"osm_id": 1135196391, "building": "yes", "name": "", "height": null, "height_m": null, "levels": null, "tract_id": "40087400300", "tract_name": "4003", "tags": {"building": "yes"}}}, {"type": "Feature", "geometry": {"type": "Polygon", "coordinates": [[[-97.3601847, 35.0120136], [-97.3600937, 35.0120083], [-97.3601153, 35.0117318], [-97.3602068, 35.0117379], [-97.3601847, 35.0120136]]]}, "properties": {"osm_id": 1135196392, "building": "yes", "name": "", "height": null, "height_m": null, "levels": null, "tract_id": "40087400300", "tract_name": "4003", "tags": {"building": "yes"}}}, {"type": "Feature", "geometry": {"type": "Polygon", "coordinates": [[[-97.3602699, 35.0120185], [-97.3601847, 35.0120136], [-97.3602068, 35.0117379], [-97.3602883, 35.0117425], [-97.3602699, 35.0120185]]]}, "properties": {"osm_id": 1135196393, "building": "yes", "name": "", "height": null, "height_m": null, "levels": null, "tract_id": "40087400300", "tract_name": "4003", "tags": {"building": "yes"}}}, {"type": "Feature", "geometry": {"type": "Polygon", "coordinates": [[[-97.3603477, 35.0120229], [-97.3602699, 35.0120185], [-97.3602883, 35.0117425], [-97.36029, 35.011717], [-97.3603738, 35.0117181], [-97.3603477, 35.0120229]]]}, "properties": {"osm_id": 1135196394, "building": "yes", "name": "", "height": null, "height_m": null, "levels": null, "tract_id": "40087400300", "tract_name": "4003", "tags": {"building": "yes"}}}, {"type": "Feature", "geometry": {"type": "Polygon", "coordinates": [[[-97.3604335, 35.0120262], [-97.3603477, 35.0120229], [-97.3603738, 35.0117181], [-97.3604617, 35.0117225], [-97.3604482, 35.0118038], [-97.3604335, 35.0120262]]]}, "properties": {"osm_id": 1135196395, "building": "yes", "name": "", "height": null, "height_m": null, "levels": null, "tract_id": "40087400300", "tract_name": "4003", "tags": {"building": "yes"}}}, {"type": "Feature", "geometry": {"type": "Polygon", "coordinates": [[[-97.3605113, 35.0120301], [-97.3604335, 35.0120262], [-97.3604482, 35.0118038], [-97.3605327, 35.0118093], [-97.3605113, 35.0120301]]]}, "properties": {"osm_id": 1135196396, "building": "yes", "name": "", "height": null, "height_m": null, "levels": null, "tract_id": "40087400300", "tract_name": "4003", "tags": {"building": "yes"}}}, {"type": "Feature", "geometry": {"type": "Polygon", "coordinates": [[[-97.3606031, 35.012035], [-97.3605113, 35.0120301], [-97.3605327, 35.0118093], [-97.3606192, 35.0118126], [-97.3606031, 35.012035]]]}, "properties": {"osm_id": 1135196397, "building": "yes", "name": "", "height": null, "height_m": null, "levels": null, "tract_id": "40087400300", "tract_name": "4003", "tags": {"building": "yes"}}}, {"type": "Feature", "geometry": {"type": "Polygon", "coordinates": [[[-97.3606789, 35.0120383], [-97.3606031, 35.012035], [-97.3606192, 35.0118126], [-97.3606975, 35.0118166], [-97.3606789, 35.0120383]]]}, "properties": {"osm_id": 1135196398, "building": "yes", "name": "", "height": null, "height_m": null, "levels": null, "tract_id": "40087400300", "tract_name": "4003", "tags": {"building": "yes"}}}, {"type": "Feature", "geometry": {"type": "Polygon", "coordinates": [[[-97.3607614, 35.0120438], [-97.3606789, 35.0120383], [-97.3606975, 35.0118166], [-97.3607111, 35.0116549], [-97.3607902, 35.0116571], [-97.3607815, 35.0117664], [-97.3607614, 35.0120438]]]}, "properties": {"osm_id": 1135196399, "building": "yes", "name": "", "height": null, "height_m": null, "levels": null, "tract_id": "40087400300", "tract_name": "4003", "tags": {"building": "yes"}}}, {"type": "Feature", "geometry": {"type": "Polygon", "coordinates": [[[-97.3608284, 35.0120485], [-97.3607614, 35.0120438], [-97.3607815, 35.0117664], [-97.3608479, 35.0117697], [-97.3608284, 35.0120485]]]}, "properties": {"osm_id": 1135196400, "building": "yes", "name": "", "height": null, "height_m": null, "levels": null, "tract_id": "40087400300", "tract_name": "4003", "tags": {"building": "yes"}}}, {"type": "Feature", "geometry": {"type": "Polygon", "coordinates": [[[-97.3609112, 35.0120523], [-97.3608284, 35.0120485], [-97.3608479, 35.0117697], [-97.3608533, 35.0116914], [-97.3609361, 35.0116952], [-97.3609112, 35.0120523]]]}, "properties": {"osm_id": 1135196401, "building": "yes", "name": "", "height": null, "height_m": null, "levels": null, "tract_id": "40087400300", "tract_name": "4003", "tags": {"building": "yes"}}}, {"type": "Feature", "geometry": {"type": "Polygon", "coordinates": [[[-97.3597817, 35.0126556], [-97.3596972, 35.0126534], [-97.35971, 35.0123239], [-97.3598032, 35.0123272], [-97.3597817, 35.0126556]]]}, "properties": {"osm_id": 1135196402, "building": "yes", "name": "", "height": null, "height_m": null, "levels": null, "tract_id": "40087400300", "tract_name": "4003", "tags": {"building": "yes"}}}, {"type": "Feature", "geometry": {"type": "Polygon", "coordinates": [[[-97.3598662, 35.0126589], [-97.3597817, 35.0126556], [-97.3598032, 35.0123272], [-97.3598836, 35.0123338], [-97.3598689, 35.0125523], [-97.3598662, 35.0126589]]]}, "properties": {"osm_id": 1135196403, "building": "yes", "name": "", "height": null, "height_m": null, "levels": null, "tract_id": "40087400300", "tract_name": "4003", "tags": {"building": "yes"}}}, {"type": "Feature", "geometry": {"type": "Polygon", "coordinates": [[[-97.3599668, 35.0125578], [-97.3598689, 35.0125523], [-97.3598836, 35.0123338], [-97.3599748, 35.0123349], [-97.3599668, 35.0125578]]]}, "properties": {"osm_id": 1135196404, "building": "yes", "name": "", "height": null, "height_m": null, "levels": null, "tract_id": "40087400300", "tract_name": "4003", "tags": {"building": "yes"}}}, {"type": "Feature", "geometry": {"type": "Polygon", "coordinates": [[[-97.3600513, 35.0125611], [-97.3599668, 35.0125578], [-97.3599748, 35.0123349], [-97.3600593, 35.0123382], [-97.3600513, 35.0125611]]]}, "properties": {"osm_id": 1135196405, "building": "yes", "name": "", "height": null, "height_m": null, "levels": null, "tract_id": "40087400300", "tract_name": "4003", "tags": {"building": "yes"}}}, {"type": "Feature", "geometry": {"type": "Polygon", "coordinates": [[[-97.360219, 35.0125679], [-97.3600513, 35.0125611], [-97.3600593, 35.0123382], [-97.3602303, 35.0123453], [-97.3602296, 35.0123535], [-97.360219, 35.0125679]]]}, "properties": {"osm_id": 1135196406, "building": "yes", "name": "", "height": null, "height_m": null, "levels": null, "tract_id": "40087400300", "tract_name": "4003", "tags": {"building": "yes"}}}, {"type": "Feature", "geometry": {"type": "Polygon", "coordinates": [[[-97.3603745, 35.0126325], [-97.3603718, 35.0127149], [-97.3602122, 35.0127061], [-97.360219, 35.0125679], [-97.3602296, 35.0123535], [-97.3603892, 35.012359], [-97.3603745, 35.0126325]]]}, "properties": {"osm_id": 1135196407, "building": "yes", "name": "", "height": null, "height_m": null, "levels": null, "tract_id": "40087400300", "tract_name": "4003", "tags": {"building": "yes"}}}, {"type": "Feature", "geometry": {"type": "Polygon", "coordinates": [[[-97.3604689, 35.0126369], [-97.3603745, 35.0126325], [-97.3603892, 35.012359], [-97.3604831, 35.0123656], [-97.3604689, 35.0126369]]]}, "properties": {"osm_id": 1135196408, "building": "yes", "name": "", "height": null, "height_m": null, "levels": null, "tract_id": "40087400300", "tract_name": "4003", "tags": {"building": "yes"}}}, {"type": "Feature", "geometry": {"type": "Polygon", "coordinates": [[[-97.3606494, 35.0123722], [-97.3604831, 35.0123656], [-97.3604689, 35.0126369], [-97.3604576, 35.0128533], [-97.3606253, 35.0128566], [-97.3606494, 35.0123722]]]}, "properties": {"osm_id": 1135196409, "building": "yes", "name": "", "height": null, "height_m": null, "levels": null, "tract_id": "40087400300", "tract_name": "4003", "tags": {"building": "yes"}}}, {"type": "Feature", "geometry": {"type": "Polygon", "coordinates": [[[-97.3607352, 35.0123755], [-97.3606494, 35.0123722], [-97.3606253, 35.0128566], [-97.3607057, 35.0128588], [-97.3607178, 35.0126666], [-97.3607352, 35.0123755]]]}, "properties": {"osm_id": 1135196410, "building": "yes", "name": "", "height": null, "height_m": null, "levels": null, "tract_id": "40087400300", "tract_name": "4003", "tags": {"building": "yes"}}}, {"type": "Feature", "geometry": {"type": "Polygon", "coordinates": [[[-97.3607822, 35.0126699], [-97.3607178, 35.0126666], [-97.3607352, 35.0123755], [-97.360801, 35.0123788], [-97.3607822, 35.0126699]]]}, "properties": {"osm_id": 1135196411, "building": "yes", "name": "", "height": null, "height_m": null, "levels": null, "tract_id": "40087400300", "tract_name": "4003", "tags": {"building": "yes"}}}, {"type": "Feature", "geometry": {"type": "Polygon", "coordinates": [[[-97.360864, 35.0126732], [-97.3607822, 35.0126699], [-97.360801, 35.0123788], [-97.3608828, 35.0123821], [-97.360864, 35.0126732]]]}, "properties": {"osm_id": 1135196412, "building": "yes", "name": "", "height": null, "height_m": null, "levels": null, "tract_id": "40087400300", "tract_name": "4003", "tags": {"building": "yes"}}}, {"type": "Feature", "geometry": {"type": "Polygon", "coordinates": [[[-97.361501, 35.01208], [-97.3614085, 35.0120778], [-97.3614125, 35.0120449], [-97.3612475, 35.0120377], [-97.361273, 35.0116956], [-97.3613582, 35.0117], [-97.3613622, 35.0116451], [-97.3614333, 35.0116489], [-97.3614293, 35.0117071], [-97.3613817, 35.0117055], [-97.3613662, 35.0119306], [-97.3614386, 35.0119345], [-97.3614514, 35.0117555], [-97.3615298, 35.0117588], [-97.3615158, 35.0119438], [-97.361501, 35.01208]]]}, "properties": {"osm_id": 1135196413, "building": "yes", "name": "", "height": null, "height_m": null, "levels": null, "tract_id": "40087400300", "tract_name": "4003", "tags": {"building": "yes"}}}, {"type": "Feature", "geometry": {"type": "Polygon", "coordinates": [[[-97.3615828, 35.0120844], [-97.361501, 35.01208], [-97.3615158, 35.0119438], [-97.3615298, 35.0117588], [-97.3615345, 35.0116956], [-97.3616163, 35.0116967], [-97.3615828, 35.0120844]]]}, "properties": {"osm_id": 1135196414, "building": "yes", "name": "", "height": null, "height_m": null, "levels": null, "tract_id": "40087400300", "tract_name": "4003", "tags": {"building": "yes"}}}, {"type": "Feature", "geometry": {"type": "Polygon", "coordinates": [[[-97.361666, 35.0120894], [-97.3615828, 35.0120844], [-97.3616163, 35.0116967], [-97.3616968, 35.0117011], [-97.3616921, 35.0117598], [-97.3616868, 35.0118686], [-97.361666, 35.0120894]]]}, "properties": {"osm_id": 1135196415, "building": "yes", "name": "", "height": null, "height_m": null, "levels": null, "tract_id": "40087400300", "tract_name": "4003", "tags": {"building": "yes"}}}, {"type": "Feature", "geometry": {"type": "Polygon", "coordinates": [[[-97.3617478, 35.0120938], [-97.361666, 35.0120894], [-97.3616868, 35.0118686], [-97.3616921, 35.0117598], [-97.36178, 35.0117637], [-97.3617733, 35.0118466], [-97.3617478, 35.0120938]]]}, "properties": {"osm_id": 1135196416, "building": "yes", "name": "", "height": null, "height_m": null, "levels": null, "tract_id": "40087400300", "tract_name": "4003", "tags": {"building": "yes"}}}, {"type": "Feature", "geometry": {"type": "Polygon", "coordinates": [[[-97.3618323, 35.0120987], [-97.3617478, 35.0120938], [-97.3617733, 35.0118466], [-97.3618497, 35.0118505], [-97.3618323, 35.0120987]]]}, "properties": {"osm_id": 1135196417, "building": "yes", "name": "", "height": null, "height_m": null, "levels": null, "tract_id": "40087400300", "tract_name": "4003", "tags": {"building": "yes"}}}, {"type": "Feature", "geometry": {"type": "Polygon", "coordinates": [[[-97.3619221, 35.0121053], [-97.3618323, 35.0120987], [-97.3618497, 35.0118505], [-97.3619087, 35.0118538], [-97.36191, 35.0118098], [-97.361953, 35.011812], [-97.3619489, 35.0118603], [-97.3619409, 35.0118598], [-97.3619359, 35.0119114], [-97.3619221, 35.0121053]]]}, "properties": {"osm_id": 1135196418, "building": "yes", "name": "", "height": null, "height_m": null, "levels": null, "tract_id": "40087400300", "tract_name": "4003", "tags": {"building": "yes"}}}, {"type": "Feature", "geometry": {"type": "Polygon", "coordinates": [[[-97.3620093, 35.0121097], [-97.3619221, 35.0121053], [-97.3619359, 35.0119114], [-97.3620188, 35.0119142], [-97.3620093, 35.0121097]]]}, "properties": {"osm_id": 1135196419, "building": "yes", "name": "", "height": null, "height_m": null, "levels": null, "tract_id": "40087400300", "tract_name": "4003", "tags": {"building": "yes"}}}, {"type": "Feature", "geometry": {"type": "Polygon", "coordinates": [[[-97.362083, 35.0121141], [-97.3620093, 35.0121097], [-97.3620188, 35.0119142], [-97.362024, 35.0118065], [-97.3621018, 35.0118109], [-97.362083, 35.0121141]]]}, "properties": {"osm_id": 1135196420, "building": "yes", "name": "", "height": null, "height_m": null, "levels": null, "tract_id": "40087400300", "tract_name": "4003", "tags": {"building": "yes"}}}, {"type": "Feature", "geometry": {"type": "Polygon", "coordinates": [[[-97.3622856, 35.0128269], [-97.3622386, 35.0128247], [-97.3622413, 35.0127984], [-97.3622042, 35.0127972], [-97.3622252, 35.0124425], [-97.3622856, 35.012448], [-97.3622802, 35.0125194], [-97.3622963, 35.0125194], [-97.3622936, 35.0125809], [-97.362301, 35.0125812], [-97.3622856, 35.0128269]]]}, "properties": {"osm_id": 1135196421, "building": "yes", "name": "", "height": null, "height_m": null, "levels": null, "tract_id": "40087400300", "tract_name": "4003", "tags": {"building": "yes"}}}, {"type": "Feature", "geometry": {"type": "Polygon", "coordinates": [[[-97.362197, 35.012917], [-97.3621301, 35.0129136], [-97.362138, 35.0127896], [-97.3621099, 35.0127885], [-97.3621367, 35.0124381], [-97.3622252, 35.0124425], [-97.3622042, 35.0127972], [-97.362197, 35.012917]]]}, "properties": {"osm_id": 1135196422, "building": "yes", "name": "", "height": null, "height_m": null, "levels": null, "tract_id": "40087400300", "tract_name": "4003", "tags": {"building": "yes"}}}, {"type": "Feature", "geometry": {"type": "Polygon", "coordinates": [[[-97.3621286, 35.0129368], [-97.3620254, 35.0129324], [-97.3620482, 35.0126007], [-97.3620576, 35.0124348], [-97.3621367, 35.0124381], [-97.3621099, 35.0127885], [-97.362138, 35.0127896], [-97.3621301, 35.0129136], [-97.3621286, 35.0129368]]]}, "properties": {"osm_id": 1135196423, "building": "yes", "name": "", "height": null, "height_m": null, "levels": null, "tract_id": "40087400300", "tract_name": "4003", "tags": {"building": "yes"}}}, {"type": "Feature", "geometry": {"type": "Polygon", "coordinates": [[[-97.3620482, 35.0126007], [-97.3619628, 35.0125962], [-97.3619717, 35.0124315], [-97.3620576, 35.0124348], [-97.3620482, 35.0126007]]]}, "properties": {"osm_id": 1135196424, "building": "yes", "name": "", "height": null, "height_m": null, "levels": null, "tract_id": "40087400300", "tract_name": "4003", "tags": {"building": "yes"}}}, {"type": "Feature", "geometry": {"type": "Polygon", "coordinates": [[[-97.3619583, 35.0126787], [-97.3618779, 35.0126743], [-97.3618886, 35.012426], [-97.3619717, 35.0124315], [-97.3619628, 35.0125962], [-97.3619583, 35.0126787]]]}, "properties": {"osm_id": 1135196425, "building": "yes", "name": "", "height": null, "height_m": null, "levels": null, "tract_id": "40087400300", "tract_name": "4003", "tags": {"building": "yes"}}}, {"type": "Feature", "geometry": {"type": "Polygon", "coordinates": [[[-97.3618779, 35.0126743], [-97.3617893, 35.0126699], [-97.3618054, 35.0124216], [-97.3618886, 35.012426], [-97.3618779, 35.0126743]]]}, "properties": {"osm_id": 1135196426, "building": "yes", "name": "", "height": null, "height_m": null, "levels": null, "tract_id": "40087400300", "tract_name": "4003", "tags": {"building": "yes"}}}, {"type": "Feature", "geometry": {"type": "Polygon", "coordinates": [[[-97.3617893, 35.0126699], [-97.3617075, 35.0126677], [-97.3617236, 35.0124183], [-97.3618054, 35.0124216], [-97.3617893, 35.0126699]]]}, "properties": {"osm_id": 1135196427, "building": "yes", "name": "", "height": null, "height_m": null, "levels": null, "tract_id": "40087400300", "tract_name": "4003", "tags": {"building": "yes"}}}, {"type": "Feature", "geometry": {"type": "Polygon", "coordinates": [[[-97.3617075, 35.0126677], [-97.3616244, 35.0126644], [-97.3616405, 35.0124139], [-97.3617236, 35.0124183], [-97.3617075, 35.0126677]]]}, "properties": {"osm_id": 1135196428, "building": "yes", "name": "", "height": null, "height_m": null, "levels": null, "tract_id": "40087400300", "tract_name": "4003", "tags": {"building": "yes"}}}, {"type": "Feature", "geometry": {"type": "Polygon", "coordinates": [[[-97.3616244, 35.0126644], [-97.3615439, 35.0126589], [-97.3615547, 35.0124107], [-97.3616405, 35.0124139], [-97.3616244, 35.0126644]]]}, "properties": {"osm_id": 1135196429, "building": "yes", "name": "", "height": null, "height_m": null, "levels": null, "tract_id": "40087400300", "tract_name": "4003", "tags": {"building": "yes"}}}, {"type": "Feature", "geometry": {"type": "Polygon", "coordinates": [[[-97.3615439, 35.0126589], [-97.3614648, 35.0126556], [-97.3614742, 35.0124074], [-97.3615547, 35.0124107], [-97.3615439, 35.0126589]]]}, "properties": {"osm_id": 1135196430, "building": "yes", "name": "", "height": null, "height_m": null, "levels": null, "tract_id": "40087400300", "tract_name": "4003", "tags": {"building": "yes"}}}, {"type": "Feature", "geometry": {"type": "Polygon", "coordinates": [[[-97.3614648, 35.0126556], [-97.3613736, 35.0126545], [-97.3613897, 35.012403], [-97.3614742, 35.0124074], [-97.3614648, 35.0126556]]]}, "properties": {"osm_id": 1135196431, "building": "yes", "name": "", "height": null, "height_m": null, "levels": null, "tract_id": "40087400300", "tract_name": "4003", "tags": {"building": "yes"}}}, {"type": "Feature", "geometry": {"type": "Polygon", "coordinates": [[[-97.3613736, 35.0126545], [-97.3613897, 35.012403], [-97.361214, 35.0123964], [-97.3612019, 35.0126468], [-97.3613736, 35.0126545]]]}, "properties": {"osm_id": 1135196432, "building": "yes", "name": "", "height": null, "height_m": null, "levels": null, "tract_id": "40087400300", "tract_name": "4003", "tags": {"building": "yes"}}}, {"type": "Feature", "geometry": {"type": "Polygon", "coordinates": [[[-97.3654224, 35.0130532], [-97.3657483, 35.013062], [-97.3658033, 35.0130236], [-97.36581, 35.0127039], [-97.3654304, 35.0126951], [-97.3654224, 35.0130532]]]}, "properties": {"osm_id": 1135196436, "building": "yes", "name": "Walgreens", "height": null, "height_m": null, "levels": null, "tract_id": "40087400300", "tract_name": "4003", "tags": {"brand": "Walgreens", "brand:wikidata": "Q1591889", "building": "yes", "name": "Walgreens", "operator": "Walgreens", "shop": "chemist", "website": "https://www.walgreens.com/locator/walgreens-116+n+green+ave-purcell-ok-73080/id=13123"}}}, {"type": "Feature", "geometry": {"type": "Polygon", "coordinates": [[[-97.3704826, 34.9827005], [-97.3701451, 34.9831785], [-97.3699602, 34.9830919], [-97.3702956, 34.9826156], [-97.3704826, 34.9827005]]]}, "properties": {"osm_id": 1225798343, "building": "yes", "name": "Holiday Inn Express & Suites. Purcell, Oklahoma", "height": null, "height_m": null, "levels": null, "tract_id": "40087400300", "tract_name": "4003", "tags": {"addr:city": "Purcell", "addr:housenumber": "2300", "addr:postcode": "73080", "addr:state": "OK", "addr:street": "South 9th", "branch": "Purcell", "brand": "Holiday Inn Express", "brand:wikidata": "Q5880423", "building": "yes", "name": "Holiday Inn Express & Suites. Purcell, Oklahoma", "phone": "+1 405-527-3053", "ref": "OKCPC", "tourism": "hotel", "website": "https://www.ihg.com/holidayinnexpress/hotels/us/en/purcell/okcpc/hoteldetail"}}}, {"type": "Feature", "geometry": {"type": "Polygon", "coordinates": [[[-97.3737601, 35.0415901], [-97.3737573, 35.0413185], [-97.3735016, 35.0413273], [-97.3734924, 35.0412453], [-97.3731011, 35.0412403], [-97.3730969, 35.0416204], [-97.3730367, 35.0416131], [-97.3730297, 35.0416711], [-97.3733358, 35.0416783], [-97.3733411, 35.0416131], [-97.3735871, 35.0416175], [-97.3735889, 35.0415871], [-97.3737601, 35.0415901]]]}, "properties": {"osm_id": 1225884817, "building": "yes", "name": "Zeck Ford", "height": null, "height_m": null, "levels": null, "tract_id": "40087400300", "tract_name": "4003", "tags": {"brand": "Ford", "brand:wikidata": "Q44294", "building": "yes", "name": "Zeck Ford", "shop": "car"}}}, {"type": "Feature", "geometry": {"type": "Polygon", "coordinates": [[[-97.3665089, 35.0143019], [-97.3663865, 35.0143007], [-97.3663996, 35.0140811], [-97.3665182, 35.0140855], [-97.3665089, 35.0143019]]]}, "properties": {"osm_id": 1230255912, "building": "yes", "name": "Carl's Jr.", "height": null, "height_m": null, "levels": null, "tract_id": "40087400300", "tract_name": "4003", "tags": {"addr:city": "Purcell", "addr:housenumber": "503", "addr:postcode": "73080", "addr:state": "OK", "addr:street": "West Washington Street", "amenity": "fast_food", "brand": "Carl's Jr.", "brand:wikidata": "Q1043486", "building": "yes", "cuisine": "burger", "name": "Carl's Jr.", "phone": "+1 405-527-9595", "ref": "1101230", "takeaway": "yes", "website": "https://locations.carlsjr.com/ok/purcell/503-w-washington-st"}}}, {"type": "Feature", "geometry": {"type": "Polygon", "coordinates": [[[-97.3615088, 35.0133398], [-97.3615172, 35.0132439], [-97.3615194, 35.0132165], [-97.361526, 35.0131176], [-97.3613079, 35.0131063], [-97.3612907, 35.0133285], [-97.3615088, 35.0133398]]]}, "properties": {"osm_id": 1280355340, "building": "yes", "name": "McClain County Courthouse", "height": null, "height_m": null, "levels": null, "tract_id": "40087400300", "tract_name": "4003", "tags": {"amenity": "courthouse", "building": "yes", "name": "McClain County Courthouse"}}}, {"type": "Feature", "geometry": {"type": "Polygon", "coordinates": [[[-97.3619628, 35.0133216], [-97.3619774, 35.0131399], [-97.3618833, 35.0131348], [-97.3618867, 35.0130916], [-97.3617827, 35.013086], [-97.361779, 35.0131321], [-97.3615808, 35.0131213], [-97.3615748, 35.0131966], [-97.3615426, 35.0131948], [-97.3615407, 35.0132177], [-97.3615194, 35.0132165], [-97.3615172, 35.0132439], [-97.3615393, 35.0132451], [-97.3615375, 35.0132671], [-97.3615736, 35.0132691], [-97.3615754, 35.0132461], [-97.3616565, 35.0132505], [-97.3616521, 35.0133054], [-97.3617318, 35.0133097], [-97.3617289, 35.0133468], [-97.3618032, 35.0133508], [-97.3618062, 35.0133132], [-97.3619628, 35.0133216]]]}, "properties": {"osm_id": 1280355341, "building": "yes", "name": "McClain County Sheriffs Office", "height": null, "height_m": null, "levels": null, "tract_id": "40087400300", "tract_name": "4003", "tags": {"addr:city": "Purcell", "addr:housenumber": "121", "addr:postcode": "73080", "addr:state": "OK", "addr:street": "North 2nd Avenue", "amenity": "police", "building": "yes", "emergency": "psap", "name": "McClain County Sheriffs Office"}}}, {"type": "Feature", "geometry": {"type": "Polygon", "coordinates": [[[-97.3664141, 35.0149318], [-97.3663555, 35.0149308], [-97.36636, 35.0147436], [-97.3663833, 35.0147439], [-97.3663843, 35.0147014], [-97.3664765, 35.0147029], [-97.3664741, 35.0148003], [-97.3665011, 35.0148007], [-97.3664982, 35.0149186], [-97.3664721, 35.0149181], [-97.3664719, 35.0149256], [-97.3664143, 35.0149247], [-97.3664141, 35.0149318]]]}, "properties": {"osm_id": 1323252385, "building": "yes", "name": "Love's", "height": null, "height_m": null, "levels": null, "tract_id": "40087400300", "tract_name": "4003", "tags": {"brand": "Love's", "brand:wikidata": "Q1872496", "building": "yes", "name": "Love's", "shop": "convenience"}}}, {"type": "Feature", "geometry": {"type": "Polygon", "coordinates": [[[-97.366287, 35.0150171], [-97.3662892, 35.0149586], [-97.36621, 35.0149566], [-97.3662078, 35.0150151], [-97.366287, 35.0150171]]]}, "properties": {"osm_id": 1323252386, "building": "roof", "name": "", "height": null, "height_m": null, "levels": null, "tract_id": "40087400300", "tract_name": "4003", "tags": {"building": "roof", "layer": "1"}}}, {"type": "Feature", "geometry": {"type": "Polygon", "coordinates": [[[-97.3597173, 35.0119911], [-97.3595552, 35.0119845], [-97.3596047, 35.0114975], [-97.3598808, 35.011512], [-97.3598722, 35.0116445], [-97.3597428, 35.0116379], [-97.3597401, 35.0116983], [-97.3597303, 35.011824], [-97.3597173, 35.0119911]]]}, "properties": {"osm_id": 1354788644, "building": "yes", "name": "", "height": null, "height_m": null, "levels": null, "tract_id": "40087400300", "tract_name": "4003", "tags": {"building": "yes"}}}]}