{"type": "FeatureCollection", "features": [{"type": "Feature", "geometry": {"type": "Polygon", "coordinates": [[[-95.6144036, 36.1277787], [-95.61432, 36.1277857], [-95.6143071, 36.1276846], [-95.6143908, 36.1276776], [-95.6144036, 36.1277787]]]}, "properties": {"osm_id": 189353155, "building": "yes", "name": "", "height": null, "height_m": null, "levels": null, "tract_id": "40145030800", "tract_name": "308", "tags": {"building": "yes", "source": "Bing"}}}, {"type": "Feature", "geometry": {"type": "Polygon", "coordinates": [[[-95.6147274, 36.1274554], [-95.6145263, 36.1274582], [-95.6145217, 36.1272417], [-95.6147229, 36.1272389], [-95.6147274, 36.1274554]]]}, "properties": {"osm_id": 189353158, "building": "yes", "name": "", "height": null, "height_m": null, "levels": null, "tract_id": "40145030800", "tract_name": "308", "tags": {"building": "yes", "source": "Bing"}}}, {"type": "Feature", "geometry": {"type": "Polygon", "coordinates": [[[-95.6154558, 36.1275395], [-95.6152037, 36.1275368], [-95.6152016, 36.1276667], [-95.6154537, 36.1276694], [-95.6154558, 36.1275395]]]}, "properties": {"osm_id": 189353164, "building": "yes", "name": "", "height": null, "height_m": null, "levels": null, "tract_id": "40145030800", "tract_name": "308", "tags": {"building": "yes", "source": "Bing"}}}, {"type": "Feature", "geometry": {"type": "Polygon", "coordinates": [[[-95.5781035, 36.1224106], [-95.5779923, 36.1224017], [-95.5780148, 36.1222196], [-95.578126, 36.1222286], [-95.5781035, 36.1224106]]]}, "properties": {"osm_id": 189354549, "building": "yes", "name": "", "height": null, "height_m": null, "levels": null, "tract_id": "40145030800", "tract_name": "308", "tags": {"building": "yes", "source": "Bing"}}}, {"type": "Feature", "geometry": {"type": "Polygon", "coordinates": [[[-95.5899892, 35.9513712], [-95.5897746, 35.951369], [-95.5897764, 35.9512517], [-95.589991, 35.9512539], [-95.5899892, 35.9513712]]]}, "properties": {"osm_id": 649787293, "building": "service", "name": "", "height": null, "height_m": null, "levels": null, "tract_id": "40145030800", "tract_name": "308", "tags": {"building": "service"}}}, {"type": "Feature", "geometry": {"type": "Polygon", "coordinates": [[[-95.5889088, 35.9539223], [-95.5887451, 35.9539269], [-95.5887384, 35.9537711], [-95.5889021, 35.9537665], [-95.5889088, 35.9539223]]]}, "properties": {"osm_id": 649787299, "building": "yes", "name": "", "height": null, "height_m": null, "levels": null, "tract_id": "40145030800", "tract_name": "308", "tags": {"building": "yes", "layer": "1"}}}, {"type": "Feature", "geometry": {"type": "Polygon", "coordinates": [[[-95.5894902, 35.9542154], [-95.5893279, 35.9542173], [-95.5893252, 35.9540631], [-95.5894876, 35.9540613], [-95.5894902, 35.9542154]]]}, "properties": {"osm_id": 649787310, "building": "yes", "name": "", "height": null, "height_m": null, "levels": null, "tract_id": "40145030800", "tract_name": "308", "tags": {"building": "yes"}}}, {"type": "Feature", "geometry": {"type": "Polygon", "coordinates": [[[-95.5886534, 35.9539657], [-95.5885192, 35.9539695], [-95.5885151, 35.9538762], [-95.5886494, 35.9538724], [-95.5886534, 35.9539657]]]}, "properties": {"osm_id": 649787313, "building": "yes", "name": "", "height": null, "height_m": null, "levels": null, "tract_id": "40145030800", "tract_name": "308", "tags": {"building": "yes"}}}, {"type": "Feature", "geometry": {"type": "Polygon", "coordinates": [[[-95.5886373, 35.9540591], [-95.5885732, 35.9540581], [-95.5885745, 35.9540006], [-95.5886386, 35.9540015], [-95.5886373, 35.9540591]]]}, "properties": {"osm_id": 649787314, "building": "yes", "name": "", "height": null, "height_m": null, "levels": null, "tract_id": "40145030800", "tract_name": "308", "tags": {"building": "yes"}}}, {"type": "Feature", "geometry": {"type": "Polygon", "coordinates": [[[-95.5897008, 35.9541145], [-95.5895828, 35.9541145], [-95.5895828, 35.9540233], [-95.5897008, 35.9540233], [-95.5897008, 35.9541145]]]}, "properties": {"osm_id": 649787315, "building": "yes", "name": "", "height": null, "height_m": null, "levels": null, "tract_id": "40145030800", "tract_name": "308", "tags": {"building": "yes"}}}, {"type": "Feature", "geometry": {"type": "Polygon", "coordinates": [[[-95.5896391, 35.9539962], [-95.5895802, 35.9539971], [-95.5895789, 35.9539384], [-95.5896378, 35.9539376], [-95.5896391, 35.9539962]]]}, "properties": {"osm_id": 649787316, "building": "yes", "name": "", "height": null, "height_m": null, "levels": null, "tract_id": "40145030800", "tract_name": "308", "tags": {"building": "yes"}}}, {"type": "Feature", "geometry": {"type": "Polygon", "coordinates": [[[-95.6030746, 35.9090151], [-95.6032707, 35.9090088], [-95.6032722, 35.9090401], [-95.6034063, 35.9090358], [-95.6034109, 35.9091314], [-95.6032944, 35.9091351], [-95.6032961, 35.9091714], [-95.6030826, 35.9091782], [-95.6030746, 35.9090151]]]}, "properties": {"osm_id": 803859714, "building": "yes", "name": "", "height": null, "height_m": null, "levels": null, "tract_id": "40145030800", "tract_name": "308", "tags": {"building": "yes"}}}, {"type": "Feature", "geometry": {"type": "Polygon", "coordinates": [[[-95.569077, 36.0640057], [-95.5690398, 36.0640045], [-95.5690412, 36.0639776], [-95.5690784, 36.0639788], [-95.569077, 36.0640057]]]}, "properties": {"osm_id": 804052649, "building": "shed", "name": "", "height": null, "height_m": null, "levels": null, "tract_id": "40145030800", "tract_name": "308", "tags": {"building": "shed"}}}, {"type": "Feature", "geometry": {"type": "Polygon", "coordinates": [[[-95.569139, 36.0638581], [-95.5689928, 36.0638527], [-95.5689992, 36.0637394], [-95.5691454, 36.0637448], [-95.569139, 36.0638581]]]}, "properties": {"osm_id": 804052650, "building": "barn", "name": "", "height": null, "height_m": null, "levels": null, "tract_id": "40145030800", "tract_name": "308", "tags": {"building": "barn"}}}, {"type": "Feature", "geometry": {"type": "Polygon", "coordinates": [[[-95.5688842, 36.0628597], [-95.5688579, 36.0629501], [-95.5687765, 36.0629346], [-95.568766, 36.0629706], [-95.5686596, 36.0629503], [-95.5686964, 36.062824], [-95.5688842, 36.0628597]]]}, "properties": {"osm_id": 804052651, "building": "house", "name": "", "height": null, "height_m": null, "levels": null, "tract_id": "40145030800", "tract_name": "308", "tags": {"building": "house"}}}, {"type": "Feature", "geometry": {"type": "Polygon", "coordinates": [[[-95.5689432, 36.0630462], [-95.5688909, 36.0630364], [-95.568904, 36.0629904], [-95.5689563, 36.0630002], [-95.5689432, 36.0630462]]]}, "properties": {"osm_id": 804052652, "building": "shed", "name": "", "height": null, "height_m": null, "levels": null, "tract_id": "40145030800", "tract_name": "308", "tags": {"building": "shed"}}}, {"type": "Feature", "geometry": {"type": "Polygon", "coordinates": [[[-95.568911, 36.0629801], [-95.5689298, 36.0628988], [-95.5690087, 36.0629107], [-95.5689899, 36.062992], [-95.568911, 36.0629801]]]}, "properties": {"osm_id": 804052653, "building": "garage", "name": "", "height": null, "height_m": null, "levels": null, "tract_id": "40145030800", "tract_name": "308", "tags": {"building": "garage"}}}, {"type": "Feature", "geometry": {"type": "Polygon", "coordinates": [[[-95.5692788, 36.062854], [-95.5692775, 36.0627941], [-95.5693522, 36.062793], [-95.5693536, 36.0628529], [-95.5692788, 36.062854]]]}, "properties": {"osm_id": 804052654, "building": "garage", "name": "", "height": null, "height_m": null, "levels": null, "tract_id": "40145030800", "tract_name": "308", "tags": {"building": "garage"}}}, {"type": "Feature", "geometry": {"type": "Polygon", "coordinates": [[[-95.5693683, 36.0630895], [-95.5693696, 36.0629345], [-95.56945, 36.0629349], [-95.5694487, 36.06309], [-95.5693683, 36.0630895]]]}, "properties": {"osm_id": 804052655, "building": "house", "name": "", "height": null, "height_m": null, "levels": null, "tract_id": "40145030800", "tract_name": "308", "tags": {"building": "house"}}}, {"type": "Feature", "geometry": {"type": "Polygon", "coordinates": [[[-95.6095585, 35.9513807], [-95.6094913, 35.9513803], [-95.6094915, 35.9513505], [-95.6095587, 35.9513509], [-95.6095585, 35.9513807]]]}, "properties": {"osm_id": 965372889, "building": "service", "name": "", "height": null, "height_m": null, "levels": null, "tract_id": "40145030800", "tract_name": "308", "tags": {"building": "service", "fixme": "Check if it still exists. Recent imagery is unclear but this building seems to be missing."}}}, {"type": "Feature", "geometry": {"type": "Polygon", "coordinates": [[[-95.6084644, 35.9513804], [-95.6083496, 35.9513782], [-95.6083532, 35.9512581], [-95.608468, 35.9512604], [-95.6084644, 35.9513804]]]}, "properties": {"osm_id": 965372892, "building": "yes", "name": "Turnpike Tavern", "height": null, "height_m": null, "levels": null, "tract_id": "40145030800", "tract_name": "308", "tags": {"amenity": "bar", "building": "yes", "name": "Turnpike Tavern"}}}, {"type": "Feature", "geometry": {"type": "Polygon", "coordinates": [[[-95.6274561, 35.9448851], [-95.6274628, 35.9448343], [-95.6273351, 35.9448233], [-95.6273285, 35.9448742], [-95.6274561, 35.9448851]]]}, "properties": {"osm_id": 985699094, "building": "yes", "name": "", "height": null, "height_m": null, "levels": null, "tract_id": "40145030800", "tract_name": "308", "tags": {"building": "yes"}}}, {"type": "Feature", "geometry": {"type": "Polygon", "coordinates": [[[-95.6024528, 35.9293911], [-95.6023155, 35.9293958], [-95.6023098, 35.9292879], [-95.6024472, 35.9292832], [-95.6024528, 35.9293911]]]}, "properties": {"osm_id": 985799590, "building": "barn", "name": "", "height": null, "height_m": null, "levels": null, "tract_id": "40145030800", "tract_name": "308", "tags": {"building": "barn"}}}, {"type": "Feature", "geometry": {"type": "Polygon", "coordinates": [[[-95.6015672, 35.929651], [-95.6015164, 35.9296501], [-95.6015217, 35.9294409], [-95.6015725, 35.9294418], [-95.6015672, 35.929651]]]}, "properties": {"osm_id": 985799591, "building": "static_caravan", "name": "", "height": null, "height_m": null, "levels": null, "tract_id": "40145030800", "tract_name": "308", "tags": {"building": "static_caravan"}}}, {"type": "Feature", "geometry": {"type": "Polygon", "coordinates": [[[-95.6015101, 35.9288062], [-95.601462, 35.9288037], [-95.6014768, 35.9286211], [-95.6015249, 35.9286236], [-95.6015101, 35.9288062]]]}, "properties": {"osm_id": 985799592, "building": "static_caravan", "name": "", "height": null, "height_m": null, "levels": null, "tract_id": "40145030800", "tract_name": "308", "tags": {"building": "static_caravan"}}}, {"type": "Feature", "geometry": {"type": "Polygon", "coordinates": [[[-95.603896, 35.9291065], [-95.60372, 35.9291031], [-95.6037233, 35.9289906], [-95.6037017, 35.9289902], [-95.6037043, 35.9289031], [-95.603801, 35.928905], [-95.6037995, 35.9289571], [-95.6039004, 35.9289591], [-95.603896, 35.9291065]]]}, "properties": {"osm_id": 985799593, "building": "house", "name": "", "height": null, "height_m": null, "levels": null, "tract_id": "40145030800", "tract_name": "308", "tags": {"building": "house"}}}, {"type": "Feature", "geometry": {"type": "Polygon", "coordinates": [[[-95.6033607, 35.9292774], [-95.6032437, 35.9292813], [-95.6032349, 35.9291087], [-95.6033518, 35.9291048], [-95.6033607, 35.9292774]]]}, "properties": {"osm_id": 985799594, "building": "garage", "name": "", "height": null, "height_m": null, "levels": null, "tract_id": "40145030800", "tract_name": "308", "tags": {"building": "garage"}}}, {"type": "Feature", "geometry": {"type": "Polygon", "coordinates": [[[-95.573409, 36.0022834], [-95.5733189, 36.0022827], [-95.5733207, 36.0022119], [-95.5734099, 36.0022126], [-95.573409, 36.0022834]]]}, "properties": {"osm_id": 986113397, "building": "yes", "name": "", "height": null, "height_m": null, "levels": null, "tract_id": "40145030800", "tract_name": "308", "tags": {"building": "yes"}}}, {"type": "Feature", "geometry": {"type": "Polygon", "coordinates": [[[-95.57162, 36.0691841], [-95.5718346, 36.0690757], [-95.5718944, 36.0691531], [-95.5716798, 36.0692615], [-95.57162, 36.0691841]]]}, "properties": {"osm_id": 993511540, "building": "house", "name": "", "height": null, "height_m": null, "levels": null, "tract_id": "40145030800", "tract_name": "308", "tags": {"building": "house"}}}, {"type": "Feature", "geometry": {"type": "Polygon", "coordinates": [[[-95.5716857, 36.0710259], [-95.5714779, 36.0710096], [-95.5714987, 36.0708357], [-95.5717066, 36.0708519], [-95.5716857, 36.0710259]]]}, "properties": {"osm_id": 993511541, "building": "garage", "name": "", "height": null, "height_m": null, "levels": null, "tract_id": "40145030800", "tract_name": "308", "tags": {"building": "garage"}}}, {"type": "Feature", "geometry": {"type": "Polygon", "coordinates": [[[-95.5709226, 36.0706075], [-95.5712391, 36.0706226], [-95.5712281, 36.0707734], [-95.570996, 36.0707624], [-95.570991, 36.0708123], [-95.5709079, 36.0708069], [-95.5709226, 36.0706075]]]}, "properties": {"osm_id": 993511542, "building": "house", "name": "", "height": null, "height_m": null, "levels": null, "tract_id": "40145030800", "tract_name": "308", "tags": {"building": "house"}}}, {"type": "Feature", "geometry": {"type": "Polygon", "coordinates": [[[-95.5750559, 36.0677088], [-95.574258, 36.0677077], [-95.5742587, 36.0673424], [-95.5750567, 36.0673435], [-95.5750559, 36.0677088]]]}, "properties": {"osm_id": 993511543, "building": "yes", "name": "", "height": null, "height_m": null, "levels": null, "tract_id": "40145030800", "tract_name": "308", "tags": {"building": "yes"}}}, {"type": "Feature", "geometry": {"type": "Polygon", "coordinates": [[[-95.5763474, 36.068498], [-95.576283, 36.0684969], [-95.5762843, 36.0684492], [-95.5763486, 36.0684503], [-95.5763474, 36.068498]]]}, "properties": {"osm_id": 993511544, "building": "yes", "name": "", "height": null, "height_m": null, "levels": null, "tract_id": "40145030800", "tract_name": "308", "tags": {"building": "yes"}}}, {"type": "Feature", "geometry": {"type": "Polygon", "coordinates": [[[-95.5764306, 36.0687386], [-95.5761945, 36.0687397], [-95.5761931, 36.0685445], [-95.5764292, 36.0685435], [-95.5764306, 36.0687386]]]}, "properties": {"osm_id": 993511545, "building": "yes", "name": "", "height": null, "height_m": null, "levels": null, "tract_id": "40145030800", "tract_name": "308", "tags": {"building": "yes"}}}, {"type": "Feature", "geometry": {"type": "Polygon", "coordinates": [[[-95.5717823, 36.0747417], [-95.5716723, 36.0746702], [-95.5717292, 36.0746131], [-95.5718392, 36.0746846], [-95.5717823, 36.0747417]]]}, "properties": {"osm_id": 993511546, "building": "yes", "name": "", "height": null, "height_m": null, "levels": null, "tract_id": "40145030800", "tract_name": "308", "tags": {"building": "yes"}}}, {"type": "Feature", "geometry": {"type": "Polygon", "coordinates": [[[-95.5827848, 36.0323012], [-95.5828103, 36.0322612], [-95.5827561, 36.0322386], [-95.5827307, 36.0322786], [-95.5827848, 36.0323012]]]}, "properties": {"osm_id": 1013817022, "building": "service", "name": "", "height": null, "height_m": null, "levels": null, "tract_id": "40145030800", "tract_name": "308", "tags": {"building": "service"}}}, {"type": "Feature", "geometry": {"type": "Polygon", "coordinates": [[[-95.632291, 35.9644091], [-95.6322921, 35.9643337], [-95.6323771, 35.9643346], [-95.6323776, 35.9643039], [-95.6324749, 35.9643049], [-95.6324744, 35.9643356], [-95.6325579, 35.9643364], [-95.6325564, 35.9644336], [-95.6324574, 35.9644326], [-95.6324575, 35.9644237], [-95.6323712, 35.9644229], [-95.6323714, 35.9644099], [-95.632291, 35.9644091]]]}, "properties": {"osm_id": 1015276651, "building": "house", "name": "", "height": null, "height_m": null, "levels": null, "tract_id": "40145030800", "tract_name": "308", "tags": {"addr:housenumber": "30828", "addr:street": "East 137th Street South", "building": "house"}}}, {"type": "Feature", "geometry": {"type": "Polygon", "coordinates": [[[-95.6325839, 35.9636119], [-95.6323144, 35.9636108], [-95.6323149, 35.9635207], [-95.6325845, 35.9635218], [-95.6325839, 35.9636119]]]}, "properties": {"osm_id": 1015276652, "building": "house", "name": "", "height": null, "height_m": null, "levels": null, "tract_id": "40145030800", "tract_name": "308", "tags": {"addr:housenumber": "30831", "addr:street": "East 138th Street South", "building": "house"}}}, {"type": "Feature", "geometry": {"type": "Polygon", "coordinates": [[[-95.6328575, 35.9636249], [-95.6328575, 35.9635272], [-95.6329574, 35.9635272], [-95.6329574, 35.9635024], [-95.6330436, 35.9635024], [-95.6330436, 35.9636247], [-95.6330607, 35.9636247], [-95.6330607, 35.9636583], [-95.6329574, 35.9636583], [-95.6329574, 35.9636249], [-95.6328575, 35.9636249]]]}, "properties": {"osm_id": 1015276653, "building": "house", "name": "", "height": null, "height_m": null, "levels": null, "tract_id": "40145030800", "tract_name": "308", "tags": {"addr:housenumber": "30787", "addr:postcode": "74429", "addr:street": "East 138th Street South", "building": "house"}}}, {"type": "Feature", "geometry": {"type": "Polygon", "coordinates": [[[-95.6333953, 35.9636032], [-95.6333953, 35.9635251], [-95.63363, 35.9635251], [-95.63363, 35.9636032], [-95.63363, 35.9636434], [-95.6335174, 35.9636434], [-95.6335174, 35.9636032], [-95.6333953, 35.9636032]]]}, "properties": {"osm_id": 1015276654, "building": "house", "name": "", "height": null, "height_m": null, "levels": null, "tract_id": "40145030800", "tract_name": "308", "tags": {"addr:housenumber": "30745", "addr:street": "East 138th Street South", "building": "house"}}}, {"type": "Feature", "geometry": {"type": "Polygon", "coordinates": [[[-95.6335576, 35.9630475], [-95.6335576, 35.9630198], [-95.6336716, 35.9630198], [-95.6336716, 35.9631327], [-95.6335656, 35.9631327], [-95.6335656, 35.9631229], [-95.6334765, 35.9631229], [-95.6334765, 35.9631158], [-95.6333967, 35.9631158], [-95.6333967, 35.9630475], [-95.6335576, 35.9630475]]]}, "properties": {"osm_id": 1015276655, "building": "house", "name": "", "height": null, "height_m": null, "levels": null, "tract_id": "40145030800", "tract_name": "308", "tags": {"addr:housenumber": "30740", "addr:street": "East 138th Street South", "building": "house"}}}, {"type": "Feature", "geometry": {"type": "Polygon", "coordinates": [[[-95.633575, 35.9643576], [-95.6335039, 35.9643576], [-95.6335039, 35.9644135], [-95.633402, 35.9644135], [-95.633402, 35.9643576], [-95.633402, 35.9642599], [-95.633575, 35.9642599], [-95.633575, 35.9643576]]]}, "properties": {"osm_id": 1015276656, "building": "house", "name": "", "height": null, "height_m": null, "levels": null, "tract_id": "40145030800", "tract_name": "308", "tags": {"addr:housenumber": "30740", "addr:street": "East 137th Street South", "building": "house"}}}, {"type": "Feature", "geometry": {"type": "Polygon", "coordinates": [[[-95.6341222, 35.9644032], [-95.6340147, 35.9644027], [-95.6340145, 35.9644225], [-95.6339519, 35.9644222], [-95.6339519, 35.964416], [-95.6338713, 35.9644156], [-95.633872, 35.9643152], [-95.6341228, 35.9643163], [-95.6341222, 35.9644032]]]}, "properties": {"osm_id": 1015276657, "building": "house", "name": "", "height": null, "height_m": null, "levels": null, "tract_id": "40145030800", "tract_name": "308", "tags": {"addr:housenumber": "30702", "addr:street": "East 137th Street South", "building": "house"}}}, {"type": "Feature", "geometry": {"type": "Polygon", "coordinates": [[[-95.6346278, 35.964426], [-95.6343743, 35.9644227], [-95.6343762, 35.9643272], [-95.6346297, 35.9643304], [-95.6346278, 35.964426]]]}, "properties": {"osm_id": 1015276658, "building": "house", "name": "", "height": null, "height_m": null, "levels": null, "tract_id": "40145030800", "tract_name": "308", "tags": {"addr:housenumber": "30664", "addr:street": "East 137th Street South", "building": "house"}}}, {"type": "Feature", "geometry": {"type": "Polygon", "coordinates": [[[-95.6351897, 35.9644227], [-95.6349483, 35.9644227], [-95.6349483, 35.9643403], [-95.6351897, 35.9643403], [-95.6351897, 35.9644227]]]}, "properties": {"osm_id": 1015276659, "building": "house", "name": "", "height": null, "height_m": null, "levels": null, "tract_id": "40145030800", "tract_name": "308", "tags": {"addr:housenumber": "30616", "addr:street": "East 137th Street South", "building": "house"}}}, {"type": "Feature", "geometry": {"type": "Polygon", "coordinates": [[[-95.6354888, 35.9644217], [-95.6354878, 35.9643448], [-95.6357453, 35.9643426], [-95.6357463, 35.9644195], [-95.6354888, 35.9644217]]]}, "properties": {"osm_id": 1015276660, "building": "house", "name": "", "height": null, "height_m": null, "levels": null, "tract_id": "40145030800", "tract_name": "308", "tags": {"addr:housenumber": "30508", "addr:street": "East 137th Street South", "building": "house"}}}, {"type": "Feature", "geometry": {"type": "Polygon", "coordinates": [[[-95.5629028, 35.9474204], [-95.5627231, 35.9472922], [-95.5627842, 35.9472361], [-95.5628628, 35.9472922], [-95.5629271, 35.9472331], [-95.5630281, 35.9473052], [-95.5629028, 35.9474204]]]}, "properties": {"osm_id": 1082223202, "building": "yes", "name": "", "height": null, "height_m": null, "levels": null, "tract_id": "40145030800", "tract_name": "308", "tags": {"building": "yes"}}}, {"type": "Feature", "geometry": {"type": "Polygon", "coordinates": [[[-95.5622765, 35.9469589], [-95.5622645, 35.9467505], [-95.5624885, 35.946742], [-95.5625005, 35.9469504], [-95.5622765, 35.9469589]]]}, "properties": {"osm_id": 1082223203, "building": "yes", "name": "", "height": null, "height_m": null, "levels": null, "tract_id": "40145030800", "tract_name": "308", "tags": {"building": "yes"}}}, {"type": "Feature", "geometry": {"type": "Polygon", "coordinates": [[[-95.5539067, 35.9498827], [-95.5538365, 35.9498308], [-95.5539076, 35.9497678], [-95.5539778, 35.9498197], [-95.5539067, 35.9498827]]]}, "properties": {"osm_id": 1082223204, "building": "yes", "name": "", "height": null, "height_m": null, "levels": null, "tract_id": "40145030800", "tract_name": "308", "tags": {"building": "yes"}}}, {"type": "Feature", "geometry": {"type": "Polygon", "coordinates": [[[-95.5545786, 35.9501682], [-95.5544458, 35.9501628], [-95.5544519, 35.9500652], [-95.5545847, 35.9500706], [-95.5545786, 35.9501682]]]}, "properties": {"osm_id": 1082223205, "building": "yes", "name": "", "height": null, "height_m": null, "levels": null, "tract_id": "40145030800", "tract_name": "308", "tags": {"building": "yes"}}}, {"type": "Feature", "geometry": {"type": "Polygon", "coordinates": [[[-95.5525093, 35.9505808], [-95.5524664, 35.9505753], [-95.5524719, 35.9505465], [-95.5525149, 35.9505519], [-95.5525093, 35.9505808]]]}, "properties": {"osm_id": 1082223206, "building": "yes", "name": "", "height": null, "height_m": null, "levels": null, "tract_id": "40145030800", "tract_name": "308", "tags": {"building": "yes"}}}, {"type": "Feature", "geometry": {"type": "Polygon", "coordinates": [[[-95.5520211, 35.9509054], [-95.5520386, 35.9506937], [-95.552235, 35.9507043], [-95.5522176, 35.950916], [-95.5520211, 35.9509054]]]}, "properties": {"osm_id": 1082223207, "building": "yes", "name": "", "height": null, "height_m": null, "levels": null, "tract_id": "40145030800", "tract_name": "308", "tags": {"building": "yes"}}}, {"type": "Feature", "geometry": {"type": "Polygon", "coordinates": [[[-95.5521613, 35.9501221], [-95.5520602, 35.9500817], [-95.5520852, 35.9500408], [-95.5520519, 35.9500275], [-95.5521068, 35.9499376], [-95.5521346, 35.9499487], [-95.5521793, 35.9498754], [-95.5522748, 35.9499135], [-95.55223, 35.9499868], [-95.5522411, 35.9499912], [-95.5521613, 35.9501221]]]}, "properties": {"osm_id": 1082223208, "building": "yes", "name": "", "height": null, "height_m": null, "levels": null, "tract_id": "40145030800", "tract_name": "308", "tags": {"building": "yes"}}}, {"type": "Feature", "geometry": {"type": "Polygon", "coordinates": [[[-95.5522437, 35.9497372], [-95.5522007, 35.9497956], [-95.5521041, 35.9497489], [-95.5521472, 35.9496905], [-95.5522437, 35.9497372]]]}, "properties": {"osm_id": 1082223209, "building": "yes", "name": "", "height": null, "height_m": null, "levels": null, "tract_id": "40145030800", "tract_name": "308", "tags": {"building": "yes"}}}, {"type": "Feature", "geometry": {"type": "Polygon", "coordinates": [[[-95.5498713, 35.9508478], [-95.5498727, 35.950956], [-95.5498089, 35.9509565], [-95.5498083, 35.9509037], [-95.5497392, 35.9509043], [-95.5497386, 35.9508489], [-95.5498713, 35.9508478]]]}, "properties": {"osm_id": 1082223210, "building": "yes", "name": "", "height": null, "height_m": null, "levels": null, "tract_id": "40145030800", "tract_name": "308", "tags": {"building": "yes"}}}, {"type": "Feature", "geometry": {"type": "Polygon", "coordinates": [[[-95.549072, 35.9510118], [-95.548726, 35.9510118], [-95.548726, 35.9508967], [-95.549072, 35.9508967], [-95.549072, 35.9510118]]]}, "properties": {"osm_id": 1082223211, "building": "yes", "name": "", "height": null, "height_m": null, "levels": null, "tract_id": "40145030800", "tract_name": "308", "tags": {"building": "yes"}}}, {"type": "Feature", "geometry": {"type": "Polygon", "coordinates": [[[-95.54873, 35.9512886], [-95.548596, 35.9512897], [-95.5485934, 35.9510715], [-95.5487274, 35.9510704], [-95.54873, 35.9512886]]]}, "properties": {"osm_id": 1082223212, "building": "yes", "name": "", "height": null, "height_m": null, "levels": null, "tract_id": "40145030800", "tract_name": "308", "tags": {"building": "yes"}}}, {"type": "Feature", "geometry": {"type": "Polygon", "coordinates": [[[-95.5483425, 35.9510302], [-95.5482744, 35.9510314], [-95.548273, 35.9509815], [-95.5483411, 35.9509803], [-95.5483425, 35.9510302]]]}, "properties": {"osm_id": 1082223213, "building": "yes", "name": "", "height": null, "height_m": null, "levels": null, "tract_id": "40145030800", "tract_name": "308", "tags": {"building": "yes"}}}, {"type": "Feature", "geometry": {"type": "Polygon", "coordinates": [[[-95.5482285, 35.9512854], [-95.5480838, 35.9512869], [-95.5480798, 35.9510437], [-95.5482245, 35.9510422], [-95.5482285, 35.9512854]]]}, "properties": {"osm_id": 1082223214, "building": "yes", "name": "", "height": null, "height_m": null, "levels": null, "tract_id": "40145030800", "tract_name": "308", "tags": {"building": "yes"}}}, {"type": "Feature", "geometry": {"type": "Polygon", "coordinates": [[[-95.547967, 35.9509553], [-95.5479694, 35.9512846], [-95.5475991, 35.9512864], [-95.5475981, 35.9511512], [-95.5475285, 35.9511515], [-95.5475271, 35.9509575], [-95.547967, 35.9509553]]]}, "properties": {"osm_id": 1082223215, "building": "yes", "name": "", "height": null, "height_m": null, "levels": null, "tract_id": "40145030800", "tract_name": "308", "tags": {"building": "yes"}}}, {"type": "Feature", "geometry": {"type": "Polygon", "coordinates": [[[-95.5482928, 35.9501769], [-95.548289, 35.9502999], [-95.5482635, 35.9502994], [-95.5482625, 35.9503295], [-95.5481552, 35.9503273], [-95.5481561, 35.9502972], [-95.5481307, 35.9502967], [-95.5481346, 35.9501736], [-95.5482928, 35.9501769]]]}, "properties": {"osm_id": 1082223216, "building": "yes", "name": "", "height": null, "height_m": null, "levels": null, "tract_id": "40145030800", "tract_name": "308", "tags": {"building": "yes"}}}, {"type": "Feature", "geometry": {"type": "Polygon", "coordinates": [[[-95.5486389, 35.9503072], [-95.5484962, 35.9503027], [-95.5485042, 35.9501344], [-95.5486469, 35.9501389], [-95.5486389, 35.9503072]]]}, "properties": {"osm_id": 1082223217, "building": "yes", "name": "", "height": null, "height_m": null, "levels": null, "tract_id": "40145030800", "tract_name": "308", "tags": {"building": "yes"}}}, {"type": "Feature", "geometry": {"type": "Polygon", "coordinates": [[[-95.5495173, 35.949836], [-95.5492491, 35.9498371], [-95.5492484, 35.9497383], [-95.5495167, 35.9497373], [-95.5495173, 35.949836]]]}, "properties": {"osm_id": 1082223218, "building": "yes", "name": "", "height": null, "height_m": null, "levels": null, "tract_id": "40145030800", "tract_name": "308", "tags": {"building": "yes"}}}, {"type": "Feature", "geometry": {"type": "Polygon", "coordinates": [[[-95.5495226, 35.9499587], [-95.5492169, 35.9499598], [-95.5492163, 35.9498533], [-95.5495221, 35.9498523], [-95.5495226, 35.9499587]]]}, "properties": {"osm_id": 1082223219, "building": "yes", "name": "", "height": null, "height_m": null, "levels": null, "tract_id": "40145030800", "tract_name": "308", "tags": {"building": "yes"}}}, {"type": "Feature", "geometry": {"type": "Polygon", "coordinates": [[[-95.5487475, 35.9489685], [-95.548742, 35.949101], [-95.5487274, 35.9491006], [-95.5487236, 35.9491923], [-95.5486073, 35.9491892], [-95.5486102, 35.9491188], [-95.5486207, 35.9491191], [-95.5486216, 35.9490977], [-95.5485811, 35.9490967], [-95.5485865, 35.9489642], [-95.5487475, 35.9489685]]]}, "properties": {"osm_id": 1082223220, "building": "yes", "name": "", "height": null, "height_m": null, "levels": null, "tract_id": "40145030800", "tract_name": "308", "tags": {"building": "yes"}}}, {"type": "Feature", "geometry": {"type": "Polygon", "coordinates": [[[-95.5486375, 35.9494636], [-95.5486429, 35.9493529], [-95.548729, 35.9493556], [-95.5487236, 35.9494663], [-95.5486375, 35.9494636]]]}, "properties": {"osm_id": 1082223221, "building": "yes", "name": "", "height": null, "height_m": null, "levels": null, "tract_id": "40145030800", "tract_name": "308", "tags": {"building": "yes"}}}, {"type": "Feature", "geometry": {"type": "Polygon", "coordinates": [[[-95.5490224, 35.9490402], [-95.5489808, 35.9490402], [-95.5489808, 35.949012], [-95.5490224, 35.949012], [-95.5490224, 35.9490402]]]}, "properties": {"osm_id": 1082223222, "building": "yes", "name": "", "height": null, "height_m": null, "levels": null, "tract_id": "40145030800", "tract_name": "308", "tags": {"building": "yes"}}}, {"type": "Feature", "geometry": {"type": "Polygon", "coordinates": [[[-95.5490787, 35.9491748], [-95.5490505, 35.9491745], [-95.5490518, 35.9491061], [-95.5490801, 35.9491064], [-95.5490787, 35.9491748]]]}, "properties": {"osm_id": 1082223223, "building": "yes", "name": "", "height": null, "height_m": null, "levels": null, "tract_id": "40145030800", "tract_name": "308", "tags": {"building": "yes"}}}, {"type": "Feature", "geometry": {"type": "Polygon", "coordinates": [[[-95.5494998, 35.9489577], [-95.5494717, 35.9489583], [-95.5494703, 35.9489148], [-95.5494985, 35.9489143], [-95.5494998, 35.9489577]]]}, "properties": {"osm_id": 1082223224, "building": "yes", "name": "", "height": null, "height_m": null, "levels": null, "tract_id": "40145030800", "tract_name": "308", "tags": {"building": "yes"}}}, {"type": "Feature", "geometry": {"type": "Polygon", "coordinates": [[[-95.5495039, 35.9490478], [-95.5494731, 35.9490484], [-95.5494718, 35.949005], [-95.5495025, 35.9490044], [-95.5495039, 35.9490478]]]}, "properties": {"osm_id": 1082223225, "building": "yes", "name": "", "height": null, "height_m": null, "levels": null, "tract_id": "40145030800", "tract_name": "308", "tags": {"building": "yes"}}}, {"type": "Feature", "geometry": {"type": "Polygon", "coordinates": [[[-95.5494824, 35.9493019], [-95.5494516, 35.9493019], [-95.5494516, 35.9492649], [-95.5494824, 35.9492649], [-95.5494824, 35.9493019]]]}, "properties": {"osm_id": 1082223226, "building": "yes", "name": "", "height": null, "height_m": null, "levels": null, "tract_id": "40145030800", "tract_name": "308", "tags": {"building": "yes"}}}, {"type": "Feature", "geometry": {"type": "Polygon", "coordinates": [[[-95.5494945, 35.9494343], [-95.5493711, 35.9494343], [-95.5493711, 35.9493322], [-95.5494945, 35.9493322], [-95.5494945, 35.9494343]]]}, "properties": {"osm_id": 1082223227, "building": "yes", "name": "", "height": null, "height_m": null, "levels": null, "tract_id": "40145030800", "tract_name": "308", "tags": {"building": "yes"}}}, {"type": "Feature", "geometry": {"type": "Polygon", "coordinates": [[[-95.5495676, 35.9463954], [-95.5495635, 35.9462923], [-95.5496084, 35.9462912], [-95.5496124, 35.9463943], [-95.5495676, 35.9463954]]]}, "properties": {"osm_id": 1082223228, "building": "yes", "name": "", "height": null, "height_m": null, "levels": null, "tract_id": "40145030800", "tract_name": "308", "tags": {"building": "yes"}}}, {"type": "Feature", "geometry": {"type": "Polygon", "coordinates": [[[-95.5512627, 35.946346], [-95.5512553, 35.9461788], [-95.5513955, 35.9461748], [-95.5514029, 35.946342], [-95.5512627, 35.946346]]]}, "properties": {"osm_id": 1082223229, "building": "yes", "name": "", "height": null, "height_m": null, "levels": null, "tract_id": "40145030800", "tract_name": "308", "tags": {"building": "yes"}}}, {"type": "Feature", "geometry": {"type": "Polygon", "coordinates": [[[-95.5510153, 35.9451822], [-95.5510174, 35.9452319], [-95.5509398, 35.9452341], [-95.5509409, 35.9452591], [-95.5508274, 35.9452623], [-95.5508242, 35.9451876], [-95.5510153, 35.9451822]]]}, "properties": {"osm_id": 1082223230, "building": "yes", "name": "", "height": null, "height_m": null, "levels": null, "tract_id": "40145030800", "tract_name": "308", "tags": {"building": "yes"}}}, {"type": "Feature", "geometry": {"type": "Polygon", "coordinates": [[[-95.5504929, 35.9457657], [-95.5504353, 35.9457674], [-95.5504336, 35.9457289], [-95.5504913, 35.9457273], [-95.5504929, 35.9457657]]]}, "properties": {"osm_id": 1082223231, "building": "yes", "name": "", "height": null, "height_m": null, "levels": null, "tract_id": "40145030800", "tract_name": "308", "tags": {"building": "yes"}}}, {"type": "Feature", "geometry": {"type": "Polygon", "coordinates": [[[-95.5507511, 35.9458732], [-95.5507468, 35.9457543], [-95.5507238, 35.9457548], [-95.5507208, 35.9456713], [-95.5507438, 35.9456707], [-95.5507417, 35.9456126], [-95.5508897, 35.9456092], [-95.550891, 35.9456475], [-95.5509265, 35.9456467], [-95.5509282, 35.9456941], [-95.5509638, 35.9456932], [-95.5509654, 35.9457368], [-95.5509298, 35.9457376], [-95.5509335, 35.945841], [-95.5508049, 35.945844], [-95.5508059, 35.9458719], [-95.5507511, 35.9458732]]]}, "properties": {"osm_id": 1082223232, "building": "yes", "name": "", "height": null, "height_m": null, "levels": null, "tract_id": "40145030800", "tract_name": "308", "tags": {"building": "yes"}}}, {"type": "Feature", "geometry": {"type": "Polygon", "coordinates": [[[-95.5526233, 35.9452582], [-95.5525904, 35.9452582], [-95.5525904, 35.9453374], [-95.5524905, 35.9453374], [-95.5524905, 35.9453553], [-95.5524181, 35.9453553], [-95.5524181, 35.9453195], [-95.5523913, 35.9453195], [-95.5523913, 35.9453103], [-95.5523765, 35.9453103], [-95.5523765, 35.9452288], [-95.5523913, 35.9452288], [-95.5523913, 35.9452153], [-95.5524288, 35.9452153], [-95.5524288, 35.9452066], [-95.5525234, 35.9452066], [-95.5525234, 35.9451822], [-95.5526233, 35.9451822], [-95.5526233, 35.9452582]]]}, "properties": {"osm_id": 1082223233, "building": "yes", "name": "", "height": null, "height_m": null, "levels": null, "tract_id": "40145030800", "tract_name": "308", "tags": {"building": "yes"}}}, {"type": "Feature", "geometry": {"type": "Polygon", "coordinates": [[[-95.5529612, 35.9455768], [-95.5528547, 35.9455811], [-95.5528466, 35.9454486], [-95.5529532, 35.9454444], [-95.5529612, 35.9455768]]]}, "properties": {"osm_id": 1082223234, "building": "yes", "name": "", "height": null, "height_m": null, "levels": null, "tract_id": "40145030800", "tract_name": "308", "tags": {"building": "yes"}}}, {"type": "Feature", "geometry": {"type": "Polygon", "coordinates": [[[-95.5534836, 35.9448206], [-95.5534889, 35.9448553], [-95.5534192, 35.9448623], [-95.5534139, 35.9448277], [-95.5534836, 35.9448206]]]}, "properties": {"osm_id": 1082223237, "building": "yes", "name": "", "height": null, "height_m": null, "levels": null, "tract_id": "40145030800", "tract_name": "308", "tags": {"building": "yes"}}}, {"type": "Feature", "geometry": {"type": "Polygon", "coordinates": [[[-95.5537149, 35.9448363], [-95.5537222, 35.9448826], [-95.5536536, 35.9448897], [-95.5536586, 35.9449213], [-95.5535976, 35.9449276], [-95.5535926, 35.944896], [-95.5534594, 35.9449098], [-95.5534521, 35.9448635], [-95.5537149, 35.9448363]]]}, "properties": {"osm_id": 1082223238, "building": "yes", "name": "", "height": null, "height_m": null, "levels": null, "tract_id": "40145030800", "tract_name": "308", "tags": {"building": "yes"}}}, {"type": "Feature", "geometry": {"type": "Polygon", "coordinates": [[[-95.5538256, 35.9450112], [-95.5538135, 35.9449113], [-95.5538824, 35.9449058], [-95.5538842, 35.9449205], [-95.5539062, 35.9449187], [-95.5539127, 35.9449726], [-95.5538907, 35.9449743], [-95.5538945, 35.9450057], [-95.5538256, 35.9450112]]]}, "properties": {"osm_id": 1082223239, "building": "yes", "name": "", "height": null, "height_m": null, "levels": null, "tract_id": "40145030800", "tract_name": "308", "tags": {"building": "yes"}}}, {"type": "Feature", "geometry": {"type": "Polygon", "coordinates": [[[-95.554413, 35.9450969], [-95.5542896, 35.9451013], [-95.5542856, 35.9450265], [-95.554409, 35.9450222], [-95.554413, 35.9450969]]]}, "properties": {"osm_id": 1082223240, "building": "yes", "name": "", "height": null, "height_m": null, "levels": null, "tract_id": "40145030800", "tract_name": "308", "tags": {"building": "yes"}}}, {"type": "Feature", "geometry": {"type": "Polygon", "coordinates": [[[-95.5539315, 35.9467608], [-95.5539146, 35.9467074], [-95.5538938, 35.9467118], [-95.5538715, 35.9466414], [-95.5536984, 35.9466773], [-95.5537317, 35.9467824], [-95.5537633, 35.9467758], [-95.5537692, 35.9467944], [-95.5537834, 35.9467915], [-95.5537909, 35.9468152], [-95.5538798, 35.9467967], [-95.5538723, 35.9467731], [-95.5539315, 35.9467608]]]}, "properties": {"osm_id": 1082223241, "building": "yes", "name": "", "height": null, "height_m": null, "levels": null, "tract_id": "40145030800", "tract_name": "308", "tags": {"building": "yes"}}}, {"type": "Feature", "geometry": {"type": "Polygon", "coordinates": [[[-95.5568048, 35.945604], [-95.5566441, 35.9455914], [-95.5566616, 35.9454454], [-95.5568223, 35.9454579], [-95.5568048, 35.945604]]]}, "properties": {"osm_id": 1082223243, "building": "yes", "name": "", "height": null, "height_m": null, "levels": null, "tract_id": "40145030800", "tract_name": "308", "tags": {"building": "yes"}}}, {"type": "Feature", "geometry": {"type": "Polygon", "coordinates": [[[-95.5567398, 35.9452131], [-95.5567249, 35.9452494], [-95.5567182, 35.9452476], [-95.5567079, 35.9452728], [-95.556658, 35.9452594], [-95.5566683, 35.9452342], [-95.5565713, 35.9452082], [-95.5565862, 35.9451718], [-95.5566307, 35.9451838], [-95.5566446, 35.94515], [-95.5566955, 35.9451637], [-95.5566816, 35.9451975], [-95.5567398, 35.9452131]]]}, "properties": {"osm_id": 1082223244, "building": "yes", "name": "", "height": null, "height_m": null, "levels": null, "tract_id": "40145030800", "tract_name": "308", "tags": {"building": "yes"}}}, {"type": "Feature", "geometry": {"type": "Polygon", "coordinates": [[[-95.5569698, 35.9452668], [-95.5568571, 35.9452337], [-95.5568706, 35.9452037], [-95.5568369, 35.9451938], [-95.5568543, 35.9451549], [-95.556888, 35.9451648], [-95.5569195, 35.9450947], [-95.5570322, 35.9451279], [-95.5569698, 35.9452668]]]}, "properties": {"osm_id": 1082223245, "building": "yes", "name": "", "height": null, "height_m": null, "levels": null, "tract_id": "40145030800", "tract_name": "308", "tags": {"building": "yes"}}}, {"type": "Feature", "geometry": {"type": "Polygon", "coordinates": [[[-95.5568846, 35.945073], [-95.5567953, 35.9450651], [-95.5568108, 35.9449511], [-95.5569001, 35.944959], [-95.5568846, 35.945073]]]}, "properties": {"osm_id": 1082223246, "building": "yes", "name": "", "height": null, "height_m": null, "levels": null, "tract_id": "40145030800", "tract_name": "308", "tags": {"building": "yes"}}}, {"type": "Feature", "geometry": {"type": "Polygon", "coordinates": [[[-95.6352862, 35.9491814], [-95.6352903, 35.949912], [-95.6353195, 35.9499119], [-95.6353201, 35.9500239], [-95.6353492, 35.9500238], [-95.6353495, 35.9500879], [-95.6353651, 35.9500879], [-95.6353659, 35.9502338], [-95.6351977, 35.9502344], [-95.6351997, 35.9505954], [-95.6351843, 35.9505955], [-95.6351846, 35.9506553], [-95.6351441, 35.9506555], [-95.635145, 35.9508179], [-95.6347206, 35.9508194], [-95.6347189, 35.9505048], [-95.6345598, 35.9505054], [-95.6345586, 35.9502882], [-95.6347177, 35.9502877], [-95.6347173, 35.9502164], [-95.6348284, 35.950216], [-95.6348276, 35.9500621], [-95.6347903, 35.9500622], [-95.63479, 35.9500113], [-95.6346974, 35.9500116], [-95.6346945, 35.9494758], [-95.6347357, 35.9494756], [-95.6347351, 35.9493714], [-95.6343866, 35.9493726], [-95.6343862, 35.9492923], [-95.6344331, 35.9492921], [-95.6344325, 35.9491845], [-95.6352862, 35.9491814]]]}, "properties": {"osm_id": 1087508286, "building": "school", "name": "Coweta High School", "height": null, "height_m": null, "levels": null, "tract_id": "40145030800", "tract_name": "308", "tags": {"addr:housenumber": "14699", "addr:street": "South 305th East Avenue", "building": "school", "fax": "+1 918 486 6107", "name": "Coweta High School", "phone": "+1 918 486 6103"}}}, {"type": "Feature", "geometry": {"type": "Polygon", "coordinates": [[[-95.635369, 35.953864], [-95.635241, 35.953864], [-95.635241, 35.953957], [-95.635369, 35.953957], [-95.635369, 35.953864]]]}, "properties": {"osm_id": 1087508291, "building": "yes", "name": "", "height": null, "height_m": null, "levels": null, "tract_id": "40145030800", "tract_name": "308", "tags": {"building": "yes", "source": "microsoft/BuildingFootprints"}}}, {"type": "Feature", "geometry": {"type": "Polygon", "coordinates": [[[-95.635292, 35.953043], [-95.635383, 35.953043], [-95.635383, 35.952884], [-95.635292, 35.952884], [-95.635292, 35.953043]]]}, "properties": {"osm_id": 1087508295, "building": "yes", "name": "", "height": null, "height_m": null, "levels": null, "tract_id": "40145030800", "tract_name": "308", "tags": {"building": "yes", "source": "microsoft/BuildingFootprints"}}}, {"type": "Feature", "geometry": {"type": "Polygon", "coordinates": [[[-95.634962, 35.953885], [-95.635149, 35.953885], [-95.635149, 35.953799], [-95.634962, 35.953799], [-95.634962, 35.953885]]]}, "properties": {"osm_id": 1087508296, "building": "yes", "name": "", "height": null, "height_m": null, "levels": null, "tract_id": "40145030800", "tract_name": "308", "tags": {"building": "yes", "source": "microsoft/BuildingFootprints"}}}, {"type": "Feature", "geometry": {"type": "Polygon", "coordinates": [[[-95.635217, 35.953304], [-95.635069, 35.953304], [-95.635069, 35.953397], [-95.635217, 35.953397], [-95.635217, 35.953304]]]}, "properties": {"osm_id": 1087508297, "building": "yes", "name": "", "height": null, "height_m": null, "levels": null, "tract_id": "40145030800", "tract_name": "308", "tags": {"building": "yes", "source": "microsoft/BuildingFootprints"}}}, {"type": "Feature", "geometry": {"type": "Polygon", "coordinates": [[[-95.6356252, 35.9526558], [-95.6356468, 35.9526562], [-95.6356452, 35.9527232], [-95.6356879, 35.9527238], [-95.6356861, 35.952801], [-95.6358015, 35.9528028], [-95.6358094, 35.9524777], [-95.6356296, 35.9524749], [-95.6356252, 35.9526558]]]}, "properties": {"osm_id": 1087508298, "building": "yes", "name": "", "height": null, "height_m": null, "levels": null, "tract_id": "40145030800", "tract_name": "308", "tags": {"building": "yes", "source": "microsoft/BuildingFootprints"}}}, {"type": "Feature", "geometry": {"type": "Polygon", "coordinates": [[[-95.6332214, 35.9504591], [-95.6332477, 35.9503969], [-95.6332845, 35.9504071], [-95.6332581, 35.9504693], [-95.6332214, 35.9504591]]]}, "properties": {"osm_id": 1104927687, "building": "service", "name": "", "height": null, "height_m": null, "levels": null, "tract_id": "40145030800", "tract_name": "308", "tags": {"building": "service"}}}, {"type": "Feature", "geometry": {"type": "Polygon", "coordinates": [[[-95.6351052, 35.9472627], [-95.6350004, 35.9472627], [-95.6350004, 35.9471967], [-95.6351052, 35.9471967], [-95.6351052, 35.9472627]]]}, "properties": {"osm_id": 1104927690, "building": "service", "name": "", "height": null, "height_m": null, "levels": null, "tract_id": "40145030800", "tract_name": "308", "tags": {"building": "service"}}}, {"type": "Feature", "geometry": {"type": "Polygon", "coordinates": [[[-95.6332404, 35.9480696], [-95.6331941, 35.9480837], [-95.6331739, 35.9480403], [-95.6332202, 35.9480261], [-95.6332404, 35.9480696]]]}, "properties": {"osm_id": 1104927692, "building": "gazebo", "name": "", "height": null, "height_m": null, "levels": null, "tract_id": "40145030800", "tract_name": "308", "tags": {"building": "gazebo"}}}, {"type": "Feature", "geometry": {"type": "Polygon", "coordinates": [[[-95.6339103, 35.9493648], [-95.6339111, 35.9495256], [-95.6335718, 35.9495266], [-95.633571, 35.9493659], [-95.6339103, 35.9493648]]]}, "properties": {"osm_id": 1104927694, "building": "yes", "name": "Indoor Athletic Facility", "height": null, "height_m": null, "levels": null, "tract_id": "40145030800", "tract_name": "308", "tags": {"building": "yes", "name": "Indoor Athletic Facility"}}}, {"type": "Feature", "geometry": {"type": "Polygon", "coordinates": [[[-95.6354578, 35.9483591], [-95.6355585, 35.9483801], [-95.6355565, 35.9484186], [-95.6355532, 35.9484523], [-95.6355464, 35.9484849], [-95.6355317, 35.9485207], [-95.6355156, 35.9485516], [-95.6354959, 35.9485765], [-95.6353952, 35.9485554], [-95.6353876, 35.9485793], [-95.6354472, 35.9485918], [-95.6353007, 35.949051], [-95.635241, 35.9490385], [-95.6352204, 35.9490342], [-95.6351561, 35.9490208], [-95.6351468, 35.94905], [-95.6349477, 35.9490083], [-95.634957, 35.9489791], [-95.6348182, 35.9489501], [-95.6350677, 35.9481684], [-95.6351687, 35.9481895], [-95.6352141, 35.9481377], [-95.6352071, 35.9481337], [-95.6355625, 35.9477276], [-95.6358422, 35.947888], [-95.6354868, 35.9482941], [-95.6354799, 35.9482901], [-95.6354578, 35.9483591]]]}, "properties": {"osm_id": 1104927695, "building": "school", "name": "Coweta Intermediate High School", "height": null, "height_m": null, "levels": null, "tract_id": "40145030800", "tract_name": "308", "tags": {"addr:housenumber": "14705", "addr:street": "South 305th East Avenue", "building": "school", "fax": "+1 918 486 1062", "name": "Coweta Intermediate High School", "phone": "+1 918 486 4474"}}}, {"type": "Feature", "geometry": {"type": "Polygon", "coordinates": [[[-95.6337775, 35.9491151], [-95.6337766, 35.9489745], [-95.633935, 35.9489738], [-95.6339341, 35.9488407], [-95.6334887, 35.9488427], [-95.6334879, 35.9487178], [-95.6339693, 35.9487156], [-95.6339699, 35.9488012], [-95.6341812, 35.9488003], [-95.6341825, 35.9489826], [-95.6341343, 35.9489828], [-95.6341352, 35.9491135], [-95.6337775, 35.9491151]]]}, "properties": {"osm_id": 1104927696, "building": "yes", "name": "Agricultural Education Building", "height": null, "height_m": null, "levels": null, "tract_id": "40145030800", "tract_name": "308", "tags": {"building": "yes", "name": "Agricultural Education Building"}}}, {"type": "Feature", "geometry": {"type": "Polygon", "coordinates": [[[-95.6070212, 35.9514705], [-95.6068495, 35.9514737], [-95.6068455, 35.9513354], [-95.6070171, 35.9513321], [-95.6070212, 35.9514705]]]}, "properties": {"osm_id": 1109167912, "building": "commercial", "name": "Axon Construction, Incorporated", "height": null, "height_m": null, "levels": null, "tract_id": "40145030800", "tract_name": "308", "tags": {"building": "commercial", "name": "Axon Construction, Incorporated", "phone": "+1 918 282 0988"}}}, {"type": "Feature", "geometry": {"type": "Polygon", "coordinates": [[[-95.6066865, 35.951256], [-95.6066845, 35.9511906], [-95.6068307, 35.9511876], [-95.6068327, 35.9512531], [-95.6068227, 35.9512533], [-95.6068294, 35.9514704], [-95.6067992, 35.951471], [-95.6067308, 35.9514724], [-95.6066933, 35.9514732], [-95.6066865, 35.951256]]]}, "properties": {"osm_id": 1109167913, "building": "commercial", "name": "Complete Heating and Air Conditioning Services", "height": null, "height_m": null, "levels": null, "tract_id": "40145030800", "tract_name": "308", "tags": {"building": "commercial", "name": "Complete Heating and Air Conditioning Services", "phone": "918-322-9548"}}}, {"type": "Feature", "geometry": {"type": "Polygon", "coordinates": [[[-95.5848788, 35.9507268], [-95.5848816, 35.9508283], [-95.5847589, 35.9508305], [-95.5847561, 35.950729], [-95.5848788, 35.9507268]]]}, "properties": {"osm_id": 1115722515, "building": "yes", "name": "", "height": null, "height_m": null, "levels": null, "tract_id": "40145030800", "tract_name": "308", "tags": {"building": "yes"}}}, {"type": "Feature", "geometry": {"type": "Polygon", "coordinates": [[[-95.6191152, 35.9512539], [-95.6189907, 35.9512521], [-95.6189933, 35.9511273], [-95.6191179, 35.951129], [-95.6191152, 35.9512539]]]}, "properties": {"osm_id": 1115722517, "building": "barn", "name": "", "height": null, "height_m": null, "levels": null, "tract_id": "40145030800", "tract_name": "308", "tags": {"building": "barn"}}}, {"type": "Feature", "geometry": {"type": "Polygon", "coordinates": [[[-95.6206393, 35.9505383], [-95.6210354, 35.9503707], [-95.6209716, 35.9502719], [-95.6207763, 35.9503545], [-95.6208061, 35.9504006], [-95.6207064, 35.9504428], [-95.6206862, 35.9504115], [-95.6206009, 35.9504476], [-95.6206233, 35.9504822], [-95.6205744, 35.9505015], [-95.6205113, 35.9505026], [-95.6204456, 35.9504874], [-95.6203765, 35.9504476], [-95.6203573, 35.9504201], [-95.6204134, 35.9503944], [-95.6203553, 35.9503113], [-95.6202481, 35.9503605], [-95.6203129, 35.9504531], [-95.620345, 35.9504831], [-95.6204242, 35.950533], [-95.6205019, 35.9505547], [-95.6205757, 35.9505547], [-95.6206393, 35.9505383]]]}, "properties": {"osm_id": 1115722520, "building": "roof", "name": "", "height": null, "height_m": null, "levels": null, "tract_id": "40145030800", "tract_name": "308", "tags": {"building": "roof"}}}, {"type": "Feature", "geometry": {"type": "Polygon", "coordinates": [[[-95.6205558, 35.9504237], [-95.6207369, 35.950344], [-95.6206883, 35.9502717], [-95.6207168, 35.9502591], [-95.6206202, 35.9501155], [-95.6207754, 35.9500471], [-95.6205886, 35.9497693], [-95.6207772, 35.9496862], [-95.6207304, 35.9496166], [-95.6207154, 35.9496231], [-95.6206386, 35.9495089], [-95.6203639, 35.94963], [-95.6203938, 35.9496745], [-95.6203182, 35.9497079], [-95.6202874, 35.9496621], [-95.6201616, 35.9497175], [-95.620141, 35.9496869], [-95.6200127, 35.9497435], [-95.6200324, 35.9497728], [-95.6198629, 35.9498476], [-95.6198453, 35.9498214], [-95.6196221, 35.9499198], [-95.6197187, 35.9500633], [-95.6197078, 35.9500681], [-95.6197534, 35.950136], [-95.6198844, 35.9500782], [-95.6200233, 35.9502849], [-95.6202898, 35.9501675], [-95.6204423, 35.9503944], [-95.6204791, 35.9504157], [-95.6205167, 35.9504244], [-95.6205558, 35.9504237]]]}, "properties": {"osm_id": 1115722521, "building": "yes", "name": "Creek Nation Health System", "height": null, "height_m": null, "levels": null, "tract_id": "40145030800", "tract_name": "308", "tags": {"addr:city": "Coweta", "addr:housenumber": "31870", "addr:postcode": "74429", "addr:street": "East State Highway 51", "amenity": "clinic", "building": "yes", "name": "Creek Nation Health System", "official_name": "Muscogee (Creek) Nation Koweta Indian Health Facility"}}}, {"type": "Feature", "geometry": {"type": "Polygon", "coordinates": [[[-95.6197308, 35.9491227], [-95.6197801, 35.9491992], [-95.6195977, 35.9492763], [-95.6195484, 35.9491998], [-95.6197308, 35.9491227]]]}, "properties": {"osm_id": 1115722522, "building": "yes", "name": "", "height": null, "height_m": null, "levels": null, "tract_id": "40145030800", "tract_name": "308", "tags": {"building": "yes"}}}, {"type": "Feature", "geometry": {"type": "Polygon", "coordinates": [[[-95.619354, 35.9493485], [-95.619215, 35.9494117], [-95.6190809, 35.9492185], [-95.6192198, 35.9491553], [-95.619354, 35.9493485]]]}, "properties": {"osm_id": 1115722523, "building": "yes", "name": "", "height": null, "height_m": null, "levels": null, "tract_id": "40145030800", "tract_name": "308", "tags": {"building": "yes"}}}, {"type": "Feature", "geometry": {"type": "Polygon", "coordinates": [[[-95.6225459, 35.9504119], [-95.6225468, 35.9506285], [-95.6220854, 35.9506298], [-95.6220845, 35.9504131], [-95.6225459, 35.9504119]]]}, "properties": {"osm_id": 1115722524, "building": "yes", "name": "Food Distribution", "height": null, "height_m": null, "levels": null, "tract_id": "40145030800", "tract_name": "308", "tags": {"building": "yes", "name": "Food Distribution", "official_name": "Muscogee Creek Nation Food Distribution'"}}}, {"type": "Feature", "geometry": {"type": "Polygon", "coordinates": [[[-95.5834241, 35.9499024], [-95.5834246, 35.949871], [-95.5833349, 35.9498701], [-95.5833344, 35.9499015], [-95.5834241, 35.9499024]]]}, "properties": {"osm_id": 1136020061, "building": "service", "name": "", "height": null, "height_m": null, "levels": null, "tract_id": "40145030800", "tract_name": "308", "tags": {"building": "service"}}}, {"type": "Feature", "geometry": {"type": "Polygon", "coordinates": [[[-95.5675313, 35.9510892], [-95.5675308, 35.9510175], [-95.5674311, 35.951018], [-95.567431, 35.9510049], [-95.5673998, 35.9510051], [-95.5673997, 35.9509879], [-95.5673264, 35.9509882], [-95.5673266, 35.9510206], [-95.5672832, 35.9510208], [-95.567284, 35.9511297], [-95.5674341, 35.9511289], [-95.5674338, 35.9510896], [-95.5675313, 35.9510892]]]}, "properties": {"osm_id": 1136020062, "building": "house", "name": "", "height": null, "height_m": null, "levels": null, "tract_id": "40145030800", "tract_name": "308", "tags": {"building": "house"}}}, {"type": "Feature", "geometry": {"type": "Polygon", "coordinates": [[[-95.6165991, 36.0665353], [-95.6164372, 36.0665355], [-95.616437, 36.0663904], [-95.6166014, 36.0663902], [-95.6166015, 36.0664239], [-95.6166857, 36.0664237], [-95.6166859, 36.0664867], [-95.616599, 36.0664868], [-95.6165991, 36.0665353]]]}, "properties": {"osm_id": 1149057340, "building": "yes", "name": "", "height": null, "height_m": null, "levels": null, "tract_id": "40145030800", "tract_name": "308", "tags": {"building": "yes", "source": "Bing Maps Aerial"}}}, {"type": "Feature", "geometry": {"type": "Polygon", "coordinates": [[[-95.634086, 35.9506372], [-95.6339633, 35.9506937], [-95.6339306, 35.9506471], [-95.6340533, 35.9505906], [-95.634086, 35.9506372]]]}, "properties": {"osm_id": 1156048025, "building": "yes", "name": "", "height": null, "height_m": null, "levels": null, "tract_id": "40145030800", "tract_name": "308", "tags": {"building": "yes"}}}, {"type": "Feature", "geometry": {"type": "Polygon", "coordinates": [[[-95.6340565, 35.9505401], [-95.6340668, 35.9504754], [-95.6340102, 35.9504695], [-95.6339998, 35.9505341], [-95.6340565, 35.9505401]]]}, "properties": {"osm_id": 1156048026, "building": "roof", "name": "", "height": null, "height_m": null, "levels": null, "tract_id": "40145030800", "tract_name": "308", "tags": {"building": "roof"}}}, {"type": "Feature", "geometry": {"type": "Polygon", "coordinates": [[[-95.6338768, 35.9506226], [-95.6338944, 35.9505809], [-95.6338158, 35.950559], [-95.6337981, 35.9506007], [-95.6338768, 35.9506226]]]}, "properties": {"osm_id": 1156048027, "building": "roof", "name": "", "height": null, "height_m": null, "levels": null, "tract_id": "40145030800", "tract_name": "308", "tags": {"building": "roof"}}}, {"type": "Feature", "geometry": {"type": "Polygon", "coordinates": [[[-95.6337065, 35.9505694], [-95.6337177, 35.9505429], [-95.6336213, 35.9505162], [-95.6336101, 35.9505426], [-95.6337065, 35.9505694]]]}, "properties": {"osm_id": 1156048028, "building": "roof", "name": "", "height": null, "height_m": null, "levels": null, "tract_id": "40145030800", "tract_name": "308", "tags": {"building": "roof"}}}, {"type": "Feature", "geometry": {"type": "Polygon", "coordinates": [[[-95.6340833, 35.9503718], [-95.6340964, 35.9502903], [-95.6340605, 35.9502865], [-95.6340474, 35.950368], [-95.6340833, 35.9503718]]]}, "properties": {"osm_id": 1156048029, "building": "yes", "name": "", "height": null, "height_m": null, "levels": null, "tract_id": "40145030800", "tract_name": "308", "tags": {"building": "yes"}}}, {"type": "Feature", "geometry": {"type": "Polygon", "coordinates": [[[-95.6341551, 35.9502285], [-95.6340739, 35.9502199], [-95.634096, 35.9500821], [-95.6341772, 35.9500906], [-95.6341551, 35.9502285]]]}, "properties": {"osm_id": 1156048030, "building": "yes", "name": "Lady Tigers Fieldhouse", "height": null, "height_m": null, "levels": null, "tract_id": "40145030800", "tract_name": "308", "tags": {"building": "yes", "name": "Lady Tigers Fieldhouse"}}}, {"type": "Feature", "geometry": {"type": "Polygon", "coordinates": [[[-95.6349836, 35.962744], [-95.6350167, 35.9627434], [-95.6350193, 35.9628439], [-95.6349863, 35.9628445], [-95.6349877, 35.9628943], [-95.63489, 35.962896], [-95.634886, 35.9627457], [-95.6349836, 35.962744]]]}, "properties": {"osm_id": 1167553736, "building": "garage", "name": "", "height": null, "height_m": null, "levels": null, "tract_id": "40145030800", "tract_name": "308", "tags": {"building": "garage"}}}, {"type": "Feature", "geometry": {"type": "Polygon", "coordinates": [[[-95.6356785, 35.9631099], [-95.6355996, 35.9631101], [-95.6355995, 35.9630879], [-95.6354901, 35.9630882], [-95.6354898, 35.9630185], [-95.6355017, 35.9630185], [-95.6355015, 35.9629644], [-95.6355938, 35.9629642], [-95.6355938, 35.9629725], [-95.635627, 35.9629725], [-95.6356269, 35.9629526], [-95.6356779, 35.9629525], [-95.6356785, 35.9631099]]]}, "properties": {"osm_id": 1167553737, "building": "house", "name": "", "height": null, "height_m": null, "levels": null, "tract_id": "40145030800", "tract_name": "308", "tags": {"addr:housenumber": "30576", "addr:street": "East 138th Street South", "building": "house"}}}, {"type": "Feature", "geometry": {"type": "Polygon", "coordinates": [[[-95.634949, 35.9629943], [-95.6350213, 35.962994], [-95.6350214, 35.9630171], [-95.6350402, 35.9630171], [-95.6350407, 35.9631126], [-95.6350093, 35.9631127], [-95.6350093, 35.9631229], [-95.6349477, 35.9631231], [-95.6349477, 35.9631129], [-95.6348905, 35.9631131], [-95.63489, 35.9630176], [-95.6349491, 35.9630174], [-95.634949, 35.9629943]]]}, "properties": {"osm_id": 1167553738, "building": "house", "name": "", "height": null, "height_m": null, "levels": null, "tract_id": "40145030800", "tract_name": "308", "tags": {"addr:housenumber": "30620", "addr:street": "East 138th Street South", "building": "house"}}}, {"type": "Feature", "geometry": {"type": "Polygon", "coordinates": [[[-95.6360359, 35.9631218], [-95.6360379, 35.9630618], [-95.6360391, 35.9630618], [-95.636042, 35.9629736], [-95.6362197, 35.9629774], [-95.6362168, 35.9630656], [-95.6361339, 35.9630638], [-95.6361319, 35.9631239], [-95.6360359, 35.9631218]]]}, "properties": {"osm_id": 1167553739, "building": "house", "name": "", "height": null, "height_m": null, "levels": null, "tract_id": "40145030800", "tract_name": "308", "tags": {"addr:housenumber": "30532", "addr:street": "East 138th Street South", "building": "house"}}}, {"type": "Feature", "geometry": {"type": "Polygon", "coordinates": [[[-95.6360648, 35.9637888], [-95.6360646, 35.9637396], [-95.6361041, 35.9637395], [-95.6361037, 35.9636439], [-95.6362284, 35.9636436], [-95.6362288, 35.9637444], [-95.6362492, 35.9637443], [-95.6362494, 35.9638053], [-95.6361043, 35.9638057], [-95.6361043, 35.9637887], [-95.6360648, 35.9637888]]]}, "properties": {"osm_id": 1167553740, "building": "house", "name": "", "height": null, "height_m": null, "levels": null, "tract_id": "40145030800", "tract_name": "308", "tags": {"addr:housenumber": "13767", "addr:street": "South 305th East Avenue", "building": "house"}}}, {"type": "Feature", "geometry": {"type": "Polygon", "coordinates": [[[-95.6357396, 35.9636195], [-95.6356779, 35.9636195], [-95.6356779, 35.9636491], [-95.6357248, 35.9636491], [-95.6357248, 35.9637313], [-95.6356061, 35.9637313], [-95.6356061, 35.9636542], [-95.6356014, 35.9636542], [-95.6356014, 35.9636195], [-95.6354807, 35.9636195], [-95.6354807, 35.9635359], [-95.6355253, 35.9635359], [-95.6355253, 35.9635218], [-95.6355552, 35.9635218], [-95.6355552, 35.9635107], [-95.6356296, 35.9635107], [-95.6356296, 35.9635218], [-95.6356614, 35.9635218], [-95.6356614, 35.9635359], [-95.6357396, 35.9635359], [-95.6357396, 35.9636195]]]}, "properties": {"osm_id": 1167553741, "building": "house", "name": "", "height": null, "height_m": null, "levels": null, "tract_id": "40145030800", "tract_name": "308", "tags": {"addr:housenumber": "30575", "addr:street": "East 138th Street South", "building": "house"}}}, {"type": "Feature", "geometry": {"type": "Polygon", "coordinates": [[[-95.634027, 35.9631161], [-95.6339039, 35.9631164], [-95.6339036, 35.9630388], [-95.6339962, 35.9630385], [-95.6339961, 35.9630176], [-95.634055, 35.9630175], [-95.6340551, 35.9630384], [-95.6341349, 35.9630382], [-95.6341352, 35.9631259], [-95.634027, 35.9631262], [-95.634027, 35.9631161]]]}, "properties": {"osm_id": 1167553742, "building": "house", "name": "", "height": null, "height_m": null, "levels": null, "tract_id": "40145030800", "tract_name": "308", "tags": {"addr:housenumber": "30702", "addr:street": "East 138th Street South", "building": "house"}}}, {"type": "Feature", "geometry": {"type": "Polygon", "coordinates": [[[-95.6346459, 35.9631191], [-95.6345078, 35.9631188], [-95.6345077, 35.9631283], [-95.6344085, 35.9631281], [-95.6344088, 35.9630371], [-95.6346462, 35.9630377], [-95.6346459, 35.9631191]]]}, "properties": {"osm_id": 1167553743, "building": "house", "name": "", "height": null, "height_m": null, "levels": null, "tract_id": "40145030800", "tract_name": "308", "tags": {"addr:housenumber": "30664", "addr:street": "East 138th Street South", "building": "house"}}}, {"type": "Feature", "geometry": {"type": "Polygon", "coordinates": [[[-95.6361911, 35.9643054], [-95.636187, 35.9643626], [-95.6360795, 35.9643576], [-95.636095, 35.9641411], [-95.6362024, 35.9641461], [-95.6361978, 35.964211], [-95.6362116, 35.9642116], [-95.6362049, 35.964306], [-95.6361911, 35.9643054]]]}, "properties": {"osm_id": 1167553744, "building": "house", "name": "", "height": null, "height_m": null, "levels": null, "tract_id": "40145030800", "tract_name": "308", "tags": {"addr:housenumber": "13725", "addr:street": "South 305th East Avenue", "building": "house"}}}, {"type": "Feature", "geometry": {"type": "Polygon", "coordinates": [[[-95.6345929, 35.9635104], [-95.6345929, 35.9635229], [-95.6346586, 35.9635229], [-95.6346586, 35.9636], [-95.6344186, 35.9636], [-95.6344186, 35.9635229], [-95.6344186, 35.9635104], [-95.6345929, 35.9635104]]]}, "properties": {"osm_id": 1167553745, "building": "house", "name": "", "height": null, "height_m": null, "levels": null, "tract_id": "40145030800", "tract_name": "308", "tags": {"addr:housenumber": "30663", "addr:street": "East 138th Street South", "building": "house"}}}, {"type": "Feature", "geometry": {"type": "Polygon", "coordinates": [[[-95.635175, 35.9636054], [-95.6351303, 35.9636052], [-95.63513, 35.9636461], [-95.635005, 35.9636455], [-95.6350053, 35.9636046], [-95.6349389, 35.9636043], [-95.6349395, 35.9635229], [-95.634953, 35.963523], [-95.6349532, 35.9635025], [-95.6350221, 35.9635028], [-95.635022, 35.9635127], [-95.6351066, 35.9635131], [-95.6351065, 35.9635237], [-95.6351755, 35.963524], [-95.635175, 35.9636054]]]}, "properties": {"osm_id": 1167553746, "building": "house", "name": "", "height": null, "height_m": null, "levels": null, "tract_id": "40145030800", "tract_name": "308", "tags": {"addr:housenumber": "30621", "addr:street": "East 138th Street South", "building": "house"}}}, {"type": "Feature", "geometry": {"type": "Polygon", "coordinates": [[[-95.6340243, 35.9636211], [-95.6339227, 35.9636205], [-95.6339237, 35.9635066], [-95.6341376, 35.9635079], [-95.6341369, 35.9635783], [-95.6341082, 35.9635781], [-95.6341078, 35.9636216], [-95.6341017, 35.9636216], [-95.6341014, 35.9636521], [-95.634024, 35.9636516], [-95.6340243, 35.9636211]]]}, "properties": {"osm_id": 1167553747, "building": "house", "name": "", "height": null, "height_m": null, "levels": null, "tract_id": "40145030800", "tract_name": "308", "tags": {"addr:housenumber": "30703", "addr:street": "East 138th Street South", "building": "house"}}}, {"type": "Feature", "geometry": {"type": "Polygon", "coordinates": [[[-95.6322947, 35.9639173], [-95.6322033, 35.9639176], [-95.6322026, 35.9638052], [-95.632294, 35.9638048], [-95.6322947, 35.9639173]]]}, "properties": {"osm_id": 1167553748, "building": "shed", "name": "", "height": null, "height_m": null, "levels": null, "tract_id": "40145030800", "tract_name": "308", "tags": {"building": "shed"}}}, {"type": "Feature", "geometry": {"type": "Polygon", "coordinates": [[[-95.6327744, 35.9642495], [-95.6327016, 35.9642498], [-95.6327013, 35.9641814], [-95.632774, 35.9641811], [-95.6327744, 35.9642495]]]}, "properties": {"osm_id": 1167553749, "building": "shed", "name": "", "height": null, "height_m": null, "levels": null, "tract_id": "40145030800", "tract_name": "308", "tags": {"building": "shed"}}}, {"type": "Feature", "geometry": {"type": "Polygon", "coordinates": [[[-95.6327449, 35.9639256], [-95.6327261, 35.963892], [-95.6327626, 35.9638786], [-95.6327814, 35.9639123], [-95.6327449, 35.9639256]]]}, "properties": {"osm_id": 1167553750, "building": "shed", "name": "", "height": null, "height_m": null, "levels": null, "tract_id": "40145030800", "tract_name": "308", "tags": {"building": "shed"}}}, {"type": "Feature", "geometry": {"type": "Polygon", "coordinates": [[[-95.6330667, 35.9638702], [-95.6329982, 35.9638694], [-95.6329996, 35.9637967], [-95.6330681, 35.9637975], [-95.6330667, 35.9638702]]]}, "properties": {"osm_id": 1167553751, "building": "shed", "name": "", "height": null, "height_m": null, "levels": null, "tract_id": "40145030800", "tract_name": "308", "tags": {"building": "shed"}}}, {"type": "Feature", "geometry": {"type": "Polygon", "coordinates": [[[-95.6331861, 35.9638485], [-95.6330855, 35.9638485], [-95.6330855, 35.9637834], [-95.6331861, 35.9637834], [-95.6331861, 35.9638485]]]}, "properties": {"osm_id": 1167553752, "building": "shed", "name": "", "height": null, "height_m": null, "levels": null, "tract_id": "40145030800", "tract_name": "308", "tags": {"building": "shed"}}}, {"type": "Feature", "geometry": {"type": "Polygon", "coordinates": [[[-95.6337346, 35.9637487], [-95.6336837, 35.9637487], [-95.6336837, 35.9637204], [-95.6337346, 35.9637204], [-95.6337346, 35.9637487]]]}, "properties": {"osm_id": 1167553753, "building": "house", "name": "", "height": null, "height_m": null, "levels": null, "tract_id": "40145030800", "tract_name": "308", "tags": {"building": "house"}}}, {"type": "Feature", "geometry": {"type": "Polygon", "coordinates": [[[-95.6349316, 35.9637063], [-95.6348499, 35.9637081], [-95.6348472, 35.9636284], [-95.6349289, 35.9636266], [-95.6349316, 35.9637063]]]}, "properties": {"osm_id": 1167553754, "building": "shed", "name": "", "height": null, "height_m": null, "levels": null, "tract_id": "40145030800", "tract_name": "308", "tags": {"building": "shed"}}}, {"type": "Feature", "geometry": {"type": "Polygon", "coordinates": [[[-95.6353017, 35.9638301], [-95.6352643, 35.963831], [-95.6352623, 35.9637778], [-95.6352997, 35.9637769], [-95.6353017, 35.9638301]]]}, "properties": {"osm_id": 1167553755, "building": "shed", "name": "", "height": null, "height_m": null, "levels": null, "tract_id": "40145030800", "tract_name": "308", "tags": {"building": "shed"}}}, {"type": "Feature", "geometry": {"type": "Polygon", "coordinates": [[[-95.6358274, 35.9638594], [-95.635792, 35.9638603], [-95.6357906, 35.9638261], [-95.6358261, 35.9638252], [-95.6358274, 35.9638594]]]}, "properties": {"osm_id": 1167553756, "building": "shed", "name": "", "height": null, "height_m": null, "levels": null, "tract_id": "40145030800", "tract_name": "308", "tags": {"building": "shed"}}}, {"type": "Feature", "geometry": {"type": "Polygon", "coordinates": [[[-95.6354787, 35.9642355], [-95.6353768, 35.9642312], [-95.6353828, 35.9641368], [-95.6354848, 35.9641411], [-95.6354787, 35.9642355]]]}, "properties": {"osm_id": 1167553757, "building": "shed", "name": "", "height": null, "height_m": null, "levels": null, "tract_id": "40145030800", "tract_name": "308", "tags": {"building": "shed"}}}, {"type": "Feature", "geometry": {"type": "Polygon", "coordinates": [[[-95.6352259, 35.9640466], [-95.6352259, 35.9640146], [-95.6352574, 35.9640146], [-95.6352574, 35.9640466], [-95.6352259, 35.9640466]]]}, "properties": {"osm_id": 1167553758, "building": "house", "name": "", "height": null, "height_m": null, "levels": null, "tract_id": "40145030800", "tract_name": "308", "tags": {"building": "house"}}}, {"type": "Feature", "geometry": {"type": "Polygon", "coordinates": [[[-95.634774, 35.9642556], [-95.6347029, 35.9642556], [-95.6347029, 35.9642046], [-95.634774, 35.9642046], [-95.634774, 35.9642556]]]}, "properties": {"osm_id": 1167553759, "building": "shed", "name": "", "height": null, "height_m": null, "levels": null, "tract_id": "40145030800", "tract_name": "308", "tags": {"building": "shed"}}}, {"type": "Feature", "geometry": {"type": "Polygon", "coordinates": [[[-95.633347, 35.9640613], [-95.6332746, 35.9640591], [-95.6332767, 35.9640126], [-95.6333492, 35.9640148], [-95.633347, 35.9640613]]]}, "properties": {"osm_id": 1167553760, "building": "shed", "name": "", "height": null, "height_m": null, "levels": null, "tract_id": "40145030800", "tract_name": "308", "tags": {"building": "shed"}}}, {"type": "Feature", "geometry": {"type": "Polygon", "coordinates": [[[-95.6334101, 35.9639465], [-95.6333819, 35.9639473], [-95.6333806, 35.9639169], [-95.6334101, 35.9639161], [-95.6334101, 35.9638952], [-95.6334798, 35.9638952], [-95.6334798, 35.9639484], [-95.6334101, 35.9639484], [-95.6334101, 35.9639465]]]}, "properties": {"osm_id": 1167553761, "building": "shed", "name": "", "height": null, "height_m": null, "levels": null, "tract_id": "40145030800", "tract_name": "308", "tags": {"building": "shed"}}}, {"type": "Feature", "geometry": {"type": "Polygon", "coordinates": [[[-95.6336407, 35.9639451], [-95.6335428, 35.9639451], [-95.6335428, 35.9638844], [-95.6336407, 35.9638844], [-95.6336407, 35.9639451]]]}, "properties": {"osm_id": 1167553762, "building": "shed", "name": "", "height": null, "height_m": null, "levels": null, "tract_id": "40145030800", "tract_name": "308", "tags": {"building": "shed"}}}, {"type": "Feature", "geometry": {"type": "Polygon", "coordinates": [[[-95.6338003, 35.9640667], [-95.6338003, 35.9640233], [-95.6338808, 35.9640233], [-95.6338808, 35.9640667], [-95.6338003, 35.9640667]]]}, "properties": {"osm_id": 1167553763, "building": "shed", "name": "", "height": null, "height_m": null, "levels": null, "tract_id": "40145030800", "tract_name": "308", "tags": {"building": "shed"}}}, {"type": "Feature", "geometry": {"type": "Polygon", "coordinates": [[[-95.6342134, 35.9639147], [-95.6341288, 35.9639157], [-95.6341275, 35.9638375], [-95.634212, 35.9638366], [-95.6342134, 35.9639147]]]}, "properties": {"osm_id": 1167553764, "building": "shed", "name": "", "height": null, "height_m": null, "levels": null, "tract_id": "40145030800", "tract_name": "308", "tags": {"building": "shed"}}}, {"type": "Feature", "geometry": {"type": "Polygon", "coordinates": [[[-95.6334557, 35.9653188], [-95.6334553, 35.9653525], [-95.6333742, 35.9653519], [-95.6333745, 35.9653183], [-95.6334557, 35.9653188]]]}, "properties": {"osm_id": 1167792050, "building": "shed", "name": "", "height": null, "height_m": null, "levels": null, "tract_id": "40145030800", "tract_name": "308", "tags": {"building": "shed"}}}, {"type": "Feature", "geometry": {"type": "Polygon", "coordinates": [[[-95.6334704, 35.9652564], [-95.6334704, 35.9652808], [-95.6334288, 35.9652808], [-95.6334288, 35.9652564], [-95.6334704, 35.9652564]]]}, "properties": {"osm_id": 1167792051, "building": "shed", "name": "", "height": null, "height_m": null, "levels": null, "tract_id": "40145030800", "tract_name": "308", "tags": {"building": "shed"}}}, {"type": "Feature", "geometry": {"type": "Polygon", "coordinates": [[[-95.633461, 35.9649617], [-95.6334598, 35.964986], [-95.6334089, 35.9649844], [-95.6334101, 35.9649601], [-95.633461, 35.9649617]]]}, "properties": {"osm_id": 1167792052, "building": "shed", "name": "", "height": null, "height_m": null, "levels": null, "tract_id": "40145030800", "tract_name": "308", "tags": {"building": "shed"}}}, {"type": "Feature", "geometry": {"type": "Polygon", "coordinates": [[[-95.6339546, 35.9653562], [-95.6338567, 35.9653541], [-95.6338599, 35.9652596], [-95.6339578, 35.9652618], [-95.6339546, 35.9653562]]]}, "properties": {"osm_id": 1167792053, "building": "barn", "name": "", "height": null, "height_m": null, "levels": null, "tract_id": "40145030800", "tract_name": "308", "tags": {"building": "barn"}}}, {"type": "Feature", "geometry": {"type": "Polygon", "coordinates": [[[-95.6344206, 35.9652374], [-95.6342952, 35.9652374], [-95.6342952, 35.9651272], [-95.6344206, 35.9651272], [-95.6344206, 35.9652374]]]}, "properties": {"osm_id": 1167792054, "building": "barn", "name": "", "height": null, "height_m": null, "levels": null, "tract_id": "40145030800", "tract_name": "308", "tags": {"building": "barn"}}}, {"type": "Feature", "geometry": {"type": "Polygon", "coordinates": [[[-95.6339029, 35.9649758], [-95.6337451, 35.9649765], [-95.6337448, 35.9649311], [-95.6336944, 35.9649313], [-95.6336936, 35.9648105], [-95.6339019, 35.9648096], [-95.6339029, 35.9649758]]]}, "properties": {"osm_id": 1167792055, "building": "house", "name": "", "height": null, "height_m": null, "levels": null, "tract_id": "40145030800", "tract_name": "308", "tags": {"addr:housenumber": "30717", "addr:street": "East 137th Street South", "building": "house"}}}, {"type": "Feature", "geometry": {"type": "Polygon", "coordinates": [[[-95.6330789, 35.9648652], [-95.6330795, 35.9649574], [-95.6329688, 35.9649579], [-95.6329675, 35.96475], [-95.6330781, 35.9647495], [-95.6330786, 35.9648178], [-95.6331127, 35.9648177], [-95.633113, 35.9648651], [-95.6330789, 35.9648652]]]}, "properties": {"osm_id": 1167792056, "building": "house", "name": "", "height": null, "height_m": null, "levels": null, "tract_id": "40145030800", "tract_name": "308", "tags": {"addr:housenumber": "13684", "addr:postcode": "74429", "addr:street": "South 308th East Avenue", "building": "house"}}}, {"type": "Feature", "geometry": {"type": "Polygon", "coordinates": [[[-95.6322949, 35.9648062], [-95.6324076, 35.9648059], [-95.6324083, 35.9650176], [-95.6322956, 35.9650178], [-95.6322954, 35.9649529], [-95.6322674, 35.964953], [-95.6322673, 35.964895], [-95.6322952, 35.964895], [-95.6322951, 35.9648629], [-95.6322892, 35.9648629], [-95.6322891, 35.9648062], [-95.6322949, 35.9648062]]]}, "properties": {"osm_id": 1167792057, "building": "house", "name": "", "height": null, "height_m": null, "levels": null, "tract_id": "40145030800", "tract_name": "308", "tags": {"addr:housenumber": "13681", "addr:postcode": "74429", "addr:street": "South 308th East Avenue", "building": "house"}}}, {"type": "Feature", "geometry": {"type": "Polygon", "coordinates": [[[-95.6323566, 35.9655424], [-95.6323553, 35.9653476], [-95.6324565, 35.9653471], [-95.6324579, 35.9655419], [-95.6323566, 35.9655424]]]}, "properties": {"osm_id": 1167792058, "building": "house", "name": "", "height": null, "height_m": null, "levels": null, "tract_id": "40145030800", "tract_name": "308", "tags": {"addr:housenumber": "13647", "addr:postcode": "74429", "addr:street": "South 308th East Avenue", "building": "house"}}}, {"type": "Feature", "geometry": {"type": "Polygon", "coordinates": [[[-95.6323519, 35.9658919], [-95.6323493, 35.9656819], [-95.6324551, 35.965681], [-95.6324578, 35.965891], [-95.6323519, 35.9658919]]]}, "properties": {"osm_id": 1167792059, "building": "house", "name": "", "height": null, "height_m": null, "levels": null, "tract_id": "40145030800", "tract_name": "308", "tags": {"addr:housenumber": "13623", "addr:postcode": "74429", "addr:street": "South 308th East Avenue", "building": "house"}}}, {"type": "Feature", "geometry": {"type": "Polygon", "coordinates": [[[-95.6323546, 35.9662067], [-95.6323546, 35.9660157], [-95.6324532, 35.9660157], [-95.6324532, 35.9662067], [-95.6323546, 35.9662067]]]}, "properties": {"osm_id": 1167792060, "building": "house", "name": "", "height": null, "height_m": null, "levels": null, "tract_id": "40145030800", "tract_name": "308", "tags": {"addr:housenumber": "13403", "addr:postcode": "74429", "addr:street": "South 308th East Avenue", "building": "house"}}}, {"type": "Feature", "geometry": {"type": "Polygon", "coordinates": [[[-95.6331258, 35.9655413], [-95.6329989, 35.9655425], [-95.632998, 35.9654762], [-95.6329735, 35.9654764], [-95.6329724, 35.9653978], [-95.6331237, 35.9653964], [-95.6331258, 35.9655413]]]}, "properties": {"osm_id": 1167792061, "building": "house", "name": "", "height": null, "height_m": null, "levels": null, "tract_id": "40145030800", "tract_name": "308", "tags": {"addr:housenumber": "13648", "addr:postcode": "74429", "addr:street": "South 308th East Avenue", "building": "house"}}}, {"type": "Feature", "geometry": {"type": "Polygon", "coordinates": [[[-95.6331127, 35.9652119], [-95.6331144, 35.9652678], [-95.6330119, 35.9652698], [-95.6330108, 35.9652308], [-95.6330034, 35.965231], [-95.6330017, 35.9651738], [-95.6329675, 35.9651744], [-95.6329649, 35.9650857], [-95.632984, 35.9650853], [-95.6329827, 35.9650422], [-95.6331076, 35.9650398], [-95.6331103, 35.9651307], [-95.6331669, 35.9651296], [-95.6331693, 35.9652108], [-95.6331127, 35.9652119]]]}, "properties": {"osm_id": 1167792062, "building": "house", "name": "", "height": null, "height_m": null, "levels": null, "tract_id": "40145030800", "tract_name": "308", "tags": {"addr:housenumber": "13670", "addr:postcode": "74429", "addr:street": "South 308th East Avenue", "building": "house"}}}, {"type": "Feature", "geometry": {"type": "Polygon", "coordinates": [[[-95.6331157, 35.9658935], [-95.6330024, 35.9658938], [-95.6330017, 35.9656875], [-95.633115, 35.9656873], [-95.6331157, 35.9658935]]]}, "properties": {"osm_id": 1167792063, "building": "house", "name": "", "height": null, "height_m": null, "levels": null, "tract_id": "40145030800", "tract_name": "308", "tags": {"addr:housenumber": "13624", "addr:postcode": "74429", "addr:street": "South 308th East Avenue", "building": "house"}}}, {"type": "Feature", "geometry": {"type": "Polygon", "coordinates": [[[-95.6334255, 35.9657584], [-95.6333437, 35.9657595], [-95.6333424, 35.9656949], [-95.6334242, 35.9656938], [-95.6334255, 35.9657584]]]}, "properties": {"osm_id": 1167792064, "building": "house", "name": "", "height": null, "height_m": null, "levels": null, "tract_id": "40145030800", "tract_name": "308", "tags": {"building": "house"}}}, {"type": "Feature", "geometry": {"type": "Polygon", "coordinates": [[[-95.6331432, 35.9661995], [-95.6331436, 35.9662512], [-95.6330393, 35.9662517], [-95.6330388, 35.9662001], [-95.6330896, 35.9661998], [-95.6330888, 35.9661085], [-95.6330653, 35.9661086], [-95.6330647, 35.9660395], [-95.6330882, 35.9660394], [-95.6330882, 35.9660391], [-95.6332143, 35.9660384], [-95.6332144, 35.9660571], [-95.6332538, 35.9660569], [-95.6332542, 35.9661039], [-95.6332148, 35.9661041], [-95.6332156, 35.9661991], [-95.6331432, 35.9661995]]]}, "properties": {"osm_id": 1167792065, "building": "house", "name": "", "height": null, "height_m": null, "levels": null, "tract_id": "40145030800", "tract_name": "308", "tags": {"addr:housenumber": "13602", "addr:postcode": "74429", "addr:street": "South 308th East Avenue", "building": "house"}}}, {"type": "Feature", "geometry": {"type": "Polygon", "coordinates": [[[-95.6324262, 35.9665864], [-95.6324257, 35.9666202], [-95.6322835, 35.9666189], [-95.6322844, 35.9665556], [-95.6322976, 35.9665558], [-95.6322983, 35.9665037], [-95.6322851, 35.9665035], [-95.6322856, 35.9664748], [-95.6324592, 35.9664764], [-95.6324588, 35.9665052], [-95.6324583, 35.9665422], [-95.6324458, 35.9665421], [-95.6324451, 35.9665866], [-95.6324262, 35.9665864]]]}, "properties": {"osm_id": 1167792066, "building": "house", "name": "", "height": null, "height_m": null, "levels": null, "tract_id": "40145030800", "tract_name": "308", "tags": {"addr:housenumber": "13597", "addr:postcode": "74429", "addr:street": "South 308th East Avenue", "building": "house"}}}, {"type": "Feature", "geometry": {"type": "Polygon", "coordinates": [[[-95.6355317, 35.966191], [-95.6354432, 35.9662086], [-95.6353997, 35.9660653], [-95.6354881, 35.9660477], [-95.6355317, 35.966191]]]}, "properties": {"osm_id": 1167792067, "building": "house", "name": "", "height": null, "height_m": null, "levels": null, "tract_id": "40145030800", "tract_name": "308", "tags": {"addr:housenumber": "13407", "addr:postcode": "74429", "addr:street": "South 305th East Avenue", "building": "house"}}}, {"type": "Feature", "geometry": {"type": "Polygon", "coordinates": [[[-95.6360219, 35.9661615], [-95.6360215, 35.9662072], [-95.6360071, 35.9662071], [-95.636007, 35.9662255], [-95.6359247, 35.9662251], [-95.6359249, 35.9662067], [-95.6359253, 35.9661609], [-95.6358562, 35.9661606], [-95.6358567, 35.9661014], [-95.6359387, 35.9661018], [-95.6359389, 35.9660851], [-95.636054, 35.9660857], [-95.6360539, 35.9661025], [-95.6360534, 35.9661616], [-95.6360219, 35.9661615]]]}, "properties": {"osm_id": 1167792068, "building": "house", "name": "", "height": null, "height_m": null, "levels": null, "tract_id": "40145030800", "tract_name": "308", "tags": {"addr:housenumber": "13609", "addr:postcode": "74429", "addr:street": "South 305th East Avenue", "building": "house"}}}, {"type": "Feature", "geometry": {"type": "Polygon", "coordinates": [[[-95.63512, 35.9656298], [-95.6352031, 35.9656309], [-95.6352018, 35.9656981], [-95.6351186, 35.965697], [-95.63512, 35.9656298]]]}, "properties": {"osm_id": 1167792069, "building": "stable", "name": "", "height": null, "height_m": null, "levels": null, "tract_id": "40145030800", "tract_name": "308", "tags": {"building": "stable"}}}, {"type": "Feature", "geometry": {"type": "Polygon", "coordinates": [[[-95.6353922, 35.9656439], [-95.635289, 35.9656424], [-95.6352917, 35.9655198], [-95.6353949, 35.9655212], [-95.6353922, 35.9656439]]]}, "properties": {"osm_id": 1167792070, "building": "stable", "name": "", "height": null, "height_m": null, "levels": null, "tract_id": "40145030800", "tract_name": "308", "tags": {"building": "stable"}}}, {"type": "Feature", "geometry": {"type": "Polygon", "coordinates": [[[-95.6357087, 35.9656743], [-95.6357221, 35.9654203], [-95.635828, 35.9654239], [-95.6358244, 35.9654935], [-95.6358428, 35.9654941], [-95.6358374, 35.9655962], [-95.6358018, 35.965595], [-95.6357975, 35.9656774], [-95.6357087, 35.9656743]]]}, "properties": {"osm_id": 1167792071, "building": "house", "name": "", "height": null, "height_m": null, "levels": null, "tract_id": "40145030800", "tract_name": "308", "tags": {"addr:housenumber": "13645", "addr:postcode": "74429", "addr:street": "South 305th East Avenue", "building": "house"}}}, {"type": "Feature", "geometry": {"type": "Polygon", "coordinates": [[[-95.6327315, 35.9606593], [-95.6327869, 35.9607882], [-95.6325522, 35.9608544], [-95.6324968, 35.9607256], [-95.6327315, 35.9606593]]]}, "properties": {"osm_id": 1172877415, "building": "commercial", "name": "Koweta Indian Community Center", "height": null, "height_m": null, "levels": null, "tract_id": "40145030800", "tract_name": "308", "tags": {"addr:housenumber": "30925", "addr:postcode": "74429", "addr:street": "East 141st Street South", "building": "commercial", "name": "Koweta Indian Community Center"}}}, {"type": "Feature", "geometry": {"type": "Polygon", "coordinates": [[[-95.6269398, 35.9601053], [-95.6269792, 35.9600422], [-95.6269941, 35.9600483], [-95.6270082, 35.9600256], [-95.6269702, 35.9600101], [-95.6270332, 35.9599093], [-95.6270709, 35.9599247], [-95.6270946, 35.9598869], [-95.6271763, 35.9599204], [-95.6271173, 35.9600147], [-95.6271608, 35.9600325], [-95.6271249, 35.96009], [-95.6270817, 35.9600723], [-95.6270364, 35.9601448], [-95.6269398, 35.9601053]]]}, "properties": {"osm_id": 1172877416, "building": "house", "name": "", "height": null, "height_m": null, "levels": null, "tract_id": "40145030800", "tract_name": "308", "tags": {"addr:housenumber": "31325", "addr:postcode": "74429", "addr:street": "East 141st Street South", "building": "house"}}}, {"type": "Feature", "geometry": {"type": "Polygon", "coordinates": [[[-95.6295772, 35.9593871], [-95.6295691, 35.9593871], [-95.6295691, 35.9593231], [-95.6296764, 35.9593231], [-95.6296764, 35.9593383], [-95.6297717, 35.9593383], [-95.6297717, 35.9594208], [-95.6295772, 35.9594208], [-95.6295772, 35.9593871]]]}, "properties": {"osm_id": 1172877417, "building": "house", "name": "", "height": null, "height_m": null, "levels": null, "tract_id": "40145030800", "tract_name": "308", "tags": {"addr:postcode": "74429", "addr:street": "East 141st Street South", "building": "house"}}}, {"type": "Feature", "geometry": {"type": "Polygon", "coordinates": [[[-95.6290957, 35.9593182], [-95.6291251, 35.959318], [-95.6291252, 35.959329], [-95.6292162, 35.9593285], [-95.6292171, 35.9594338], [-95.6291694, 35.9594341], [-95.6291695, 35.9594501], [-95.6291012, 35.9594505], [-95.6291011, 35.9594344], [-95.629024, 35.9594349], [-95.6290239, 35.9594227], [-95.6289905, 35.9594229], [-95.6289897, 35.9593298], [-95.6290958, 35.9593292], [-95.6290957, 35.9593182]]]}, "properties": {"osm_id": 1172877418, "building": "house", "name": "", "height": null, "height_m": null, "levels": null, "tract_id": "40145030800", "tract_name": "308", "tags": {"addr:housenumber": "31255", "addr:postcode": "74429", "addr:street": "East 141st Street South", "building": "house"}}}, {"type": "Feature", "geometry": {"type": "Polygon", "coordinates": [[[-95.6303451, 35.9594406], [-95.6303459, 35.9594637], [-95.6302867, 35.9594651], [-95.6302805, 35.9593034], [-95.630361, 35.9593014], [-95.6303621, 35.9593292], [-95.6304764, 35.9593263], [-95.6304804, 35.9594309], [-95.6304446, 35.9594318], [-95.6304449, 35.9594381], [-95.6303451, 35.9594406]]]}, "properties": {"osm_id": 1172877419, "building": "house", "name": "", "height": null, "height_m": null, "levels": null, "tract_id": "40145030800", "tract_name": "308", "tags": {"addr:postcode": "74429", "addr:street": "East 141st Street South", "building": "house"}}}, {"type": "Feature", "geometry": {"type": "Polygon", "coordinates": [[[-95.630062, 35.9619739], [-95.6299557, 35.9619739], [-95.6299557, 35.9619696], [-95.6298468, 35.9619696], [-95.6298468, 35.9619001], [-95.629893, 35.9619001], [-95.629893, 35.9618708], [-95.629954, 35.9618708], [-95.629954, 35.9618903], [-95.630062, 35.9618903], [-95.630062, 35.9619739]]]}, "properties": {"osm_id": 1172877420, "building": "house", "name": "", "height": null, "height_m": null, "levels": null, "tract_id": "40145030800", "tract_name": "308", "tags": {"addr:housenumber": "31097", "addr:postcode": "74429", "addr:street": "East 141st Street South", "building": "house"}}}, {"type": "Feature", "geometry": {"type": "Polygon", "coordinates": [[[-95.6326371, 35.9592419], [-95.6327227, 35.9592393], [-95.6327235, 35.9592568], [-95.6328117, 35.9592541], [-95.6328153, 35.9593301], [-95.6326416, 35.9593355], [-95.6326371, 35.9592419]]]}, "properties": {"osm_id": 1172877421, "building": "house", "name": "", "height": null, "height_m": null, "levels": null, "tract_id": "40145030800", "tract_name": "308", "tags": {"addr:postcode": "74429", "addr:street": "East 141st Street South", "building": "house"}}}, {"type": "Feature", "geometry": {"type": "Polygon", "coordinates": [[[-95.6317612, 35.9598154], [-95.6316385, 35.9598143], [-95.6316397, 35.9597253], [-95.6317624, 35.9597264], [-95.6317612, 35.9598154]]]}, "properties": {"osm_id": 1172877422, "building": "garage", "name": "", "height": null, "height_m": null, "levels": null, "tract_id": "40145030800", "tract_name": "308", "tags": {"building": "garage"}}}, {"type": "Feature", "geometry": {"type": "Polygon", "coordinates": [[[-95.6313399, 35.9595716], [-95.6312577, 35.9595717], [-95.6312575, 35.9594918], [-95.6313397, 35.9594917], [-95.6313399, 35.9595716]]]}, "properties": {"osm_id": 1172877423, "building": "garage", "name": "", "height": null, "height_m": null, "levels": null, "tract_id": "40145030800", "tract_name": "308", "tags": {"building": "garage"}}}, {"type": "Feature", "geometry": {"type": "Polygon", "coordinates": [[[-95.6313401, 35.9597084], [-95.631257, 35.959707], [-95.6312596, 35.9596061], [-95.6313427, 35.9596075], [-95.6313401, 35.9597084]]]}, "properties": {"osm_id": 1172877424, "building": "shed", "name": "", "height": null, "height_m": null, "levels": null, "tract_id": "40145030800", "tract_name": "308", "tags": {"building": "shed"}}}, {"type": "Feature", "geometry": {"type": "Polygon", "coordinates": [[[-95.6313474, 35.9593996], [-95.6310893, 35.959398], [-95.6310902, 35.9593074], [-95.6313483, 35.959309], [-95.6313474, 35.9593996]]]}, "properties": {"osm_id": 1172877425, "building": "house", "name": "", "height": null, "height_m": null, "levels": null, "tract_id": "40145030800", "tract_name": "308", "tags": {"addr:postcode": "74429", "addr:street": "East 141st Street South", "building": "house"}}}, {"type": "Feature", "geometry": {"type": "Polygon", "coordinates": [[[-95.6317773, 35.9593956], [-95.6317773, 35.9594012], [-95.6317511, 35.9594011], [-95.6317509, 35.9594217], [-95.6316814, 35.9594213], [-95.6316816, 35.9593951], [-95.631615, 35.9593947], [-95.6316159, 35.959284], [-95.6317543, 35.9592848], [-95.6317544, 35.9592754], [-95.6318363, 35.9592758], [-95.6318357, 35.9593496], [-95.6318172, 35.9593495], [-95.6318168, 35.9593958], [-95.6317773, 35.9593956]]]}, "properties": {"osm_id": 1172877426, "building": "house", "name": "", "height": null, "height_m": null, "levels": null, "tract_id": "40145030800", "tract_name": "308", "tags": {"addr:housenumber": "30951", "addr:postcode": "74429", "addr:street": "East 141st Street South", "building": "house"}}}, {"type": "Feature", "geometry": {"type": "Polygon", "coordinates": [[[-95.6280356, 35.9597377], [-95.6280357, 35.9597154], [-95.6280467, 35.9597155], [-95.6280469, 35.9596845], [-95.6280145, 35.9596844], [-95.6280148, 35.9596058], [-95.6280472, 35.9596059], [-95.6280473, 35.959585], [-95.6281288, 35.9595852], [-95.6281286, 35.9596236], [-95.6281992, 35.9596238], [-95.6281991, 35.9596491], [-95.6282455, 35.9596493], [-95.6282448, 35.9598154], [-95.6280463, 35.9598148], [-95.6280466, 35.9597378], [-95.6280356, 35.9597377]]]}, "properties": {"osm_id": 1172877430, "building": "house", "name": "", "height": null, "height_m": null, "levels": null, "tract_id": "40145030800", "tract_name": "308", "tags": {"addr:housenumber": "31265", "addr:postcode": "74429", "addr:street": "East 141st Street South", "building": "house"}}}, {"type": "Feature", "geometry": {"type": "Polygon", "coordinates": [[[-95.6262948, 35.9617262], [-95.6261727, 35.961725], [-95.6261739, 35.9616549], [-95.6262959, 35.9616562], [-95.6262948, 35.9617262]]]}, "properties": {"osm_id": 1172877431, "building": "garage", "name": "", "height": null, "height_m": null, "levels": null, "tract_id": "40145030800", "tract_name": "308", "tags": {"building": "garage"}}}, {"type": "Feature", "geometry": {"type": "Polygon", "coordinates": [[[-95.6261198, 35.9597795], [-95.6260952, 35.959779], [-95.6260937, 35.9598191], [-95.6261118, 35.9598143], [-95.6261527, 35.9599136], [-95.6260635, 35.9599377], [-95.6260244, 35.9598427], [-95.6259683, 35.9598414], [-95.6259699, 35.9597967], [-95.6259307, 35.9597958], [-95.6259372, 35.9596152], [-95.6261009, 35.9596191], [-95.6260992, 35.9596646], [-95.6261239, 35.9596652], [-95.6261227, 35.9597002], [-95.6261335, 35.9597005], [-95.6261319, 35.9597453], [-95.6261211, 35.9597451], [-95.6261198, 35.9597795]]]}, "properties": {"osm_id": 1172877432, "building": "house", "name": "", "height": null, "height_m": null, "levels": null, "tract_id": "40145030800", "tract_name": "308", "tags": {"addr:housenumber": "31357", "addr:postcode": "74429", "addr:street": "East 141st Street South", "building": "house"}}}, {"type": "Feature", "geometry": {"type": "Polygon", "coordinates": [[[-95.6262951, 35.9612718], [-95.626319, 35.9614105], [-95.6262981, 35.9614129], [-95.6263163, 35.9615187], [-95.6261725, 35.9615349], [-95.6261496, 35.9614023], [-95.6261105, 35.9614067], [-95.626099, 35.96134], [-95.6261278, 35.9613367], [-95.62612, 35.9612915], [-95.6262951, 35.9612718]]]}, "properties": {"osm_id": 1172877433, "building": "house", "name": "", "height": null, "height_m": null, "levels": null, "tract_id": "40145030800", "tract_name": "308", "tags": {"addr:housenumber": "31391", "addr:postcode": "74429", "addr:street": "East 141st Street South", "building": "house"}}}, {"type": "Feature", "geometry": {"type": "Polygon", "coordinates": [[[-95.5896284, 35.9496666], [-95.589627, 35.9496183], [-95.5896462, 35.949618], [-95.5896467, 35.9496354], [-95.5896623, 35.9496351], [-95.5896632, 35.949666], [-95.5896284, 35.9496666]]]}, "properties": {"osm_id": 1184893085, "building": "yes", "name": "", "height": null, "height_m": null, "levels": null, "tract_id": "40145030800", "tract_name": "308", "tags": {"building": "yes"}}}, {"type": "Feature", "geometry": {"type": "Polygon", "coordinates": [[[-95.511908, 35.9508194], [-95.5118074, 35.9508165], [-95.5118195, 35.9505451], [-95.5119201, 35.950548], [-95.511908, 35.9508194]]]}, "properties": {"osm_id": 1235904119, "building": "yes", "name": "", "height": null, "height_m": null, "levels": null, "tract_id": "40145030800", "tract_name": "308", "tags": {"building": "yes"}}}, {"type": "Feature", "geometry": {"type": "Polygon", "coordinates": [[[-95.512075, 35.9508473], [-95.5119744, 35.9508444], [-95.5119865, 35.9505729], [-95.512087, 35.9505759], [-95.512075, 35.9508473]]]}, "properties": {"osm_id": 1235904120, "building": "yes", "name": "", "height": null, "height_m": null, "levels": null, "tract_id": "40145030800", "tract_name": "308", "tags": {"building": "yes"}}}, {"type": "Feature", "geometry": {"type": "Polygon", "coordinates": [[[-95.5168051, 35.9512864], [-95.5163048, 35.9513179], [-95.5162828, 35.9510886], [-95.516783, 35.9510572], [-95.5168051, 35.9512864]]]}, "properties": {"osm_id": 1235904121, "building": "stable", "name": "Kriner Equine", "height": null, "height_m": null, "levels": null, "tract_id": "40145030800", "tract_name": "308", "tags": {"building": "stable", "name": "Kriner Equine"}}}, {"type": "Feature", "geometry": {"type": "Polygon", "coordinates": [[[-95.6238247, 35.9633434], [-95.623661, 35.9633596], [-95.6236359, 35.9631925], [-95.6237996, 35.9631764], [-95.6238247, 35.9633434]]]}, "properties": {"osm_id": 1242222750, "building": "barn", "name": "", "height": null, "height_m": null, "levels": null, "tract_id": "40145030800", "tract_name": "308", "tags": {"building": "barn"}}}, {"type": "Feature", "geometry": {"type": "Polygon", "coordinates": [[[-95.6258898, 35.9637991], [-95.6258403, 35.963793], [-95.6258517, 35.9637328], [-95.6259012, 35.9637389], [-95.6258898, 35.9637991]]]}, "properties": {"osm_id": 1242222751, "building": "stable", "name": "", "height": null, "height_m": null, "levels": null, "tract_id": "40145030800", "tract_name": "308", "tags": {"building": "stable"}}}, {"type": "Feature", "geometry": {"type": "Polygon", "coordinates": [[[-95.6256484, 35.96322], [-95.6257552, 35.9632264], [-95.6257384, 35.963412], [-95.6256317, 35.9634057], [-95.6256484, 35.96322]]]}, "properties": {"osm_id": 1242222753, "building": "house", "name": "", "height": null, "height_m": null, "levels": null, "tract_id": "40145030800", "tract_name": "308", "tags": {"building": "house"}}}, {"type": "Feature", "geometry": {"type": "Polygon", "coordinates": [[[-95.6259201, 35.962918], [-95.6257892, 35.9629078], [-95.6257989, 35.9628261], [-95.6259299, 35.9628364], [-95.6259201, 35.962918]]]}, "properties": {"osm_id": 1242222754, "building": "garage", "name": "", "height": null, "height_m": null, "levels": null, "tract_id": "40145030800", "tract_name": "308", "tags": {"building": "garage"}}}, {"type": "Feature", "geometry": {"type": "Polygon", "coordinates": [[[-95.6258906, 35.9630124], [-95.6257393, 35.9629994], [-95.6257482, 35.9629318], [-95.6258994, 35.9629447], [-95.6258906, 35.9630124]]]}, "properties": {"osm_id": 1242222755, "building": "roof", "name": "", "height": null, "height_m": null, "levels": null, "tract_id": "40145030800", "tract_name": "308", "tags": {"building": "roof", "layer": "1"}}}, {"type": "Feature", "geometry": {"type": "Polygon", "coordinates": [[[-95.6362452, 35.942477], [-95.6359884, 35.9424839], [-95.6359844, 35.9423876], [-95.6361166, 35.942384], [-95.6361174, 35.9424031], [-95.6361534, 35.9424021], [-95.6361548, 35.9424358], [-95.6361853, 35.942435], [-95.6361837, 35.9423973], [-95.6362418, 35.9423957], [-95.6362452, 35.942477]]]}, "properties": {"osm_id": 1243347239, "building": "house", "name": "", "height": null, "height_m": null, "levels": null, "tract_id": "40145030800", "tract_name": "308", "tags": {"addr:city": "Coweta", "addr:housenumber": "15241", "addr:postcode": "74429", "addr:street": "South 305th East Avenue", "building": "house"}}}, {"type": "Feature", "geometry": {"type": "Polygon", "coordinates": [[[-95.615806, 35.9525529], [-95.6157791, 35.9525531], [-95.6157791, 35.9525605], [-95.6157478, 35.9525607], [-95.6157478, 35.9525557], [-95.6157144, 35.9525559], [-95.6157144, 35.9525534], [-95.6157064, 35.9525535], [-95.615705, 35.9523976], [-95.6157482, 35.9523974], [-95.6157482, 35.9523907], [-95.6158512, 35.9523901], [-95.6158513, 35.9523968], [-95.6159061, 35.9523965], [-95.615908, 35.9526044], [-95.6158327, 35.9526048], [-95.6158324, 35.9525791], [-95.6158062, 35.9525793], [-95.615806, 35.9525529]]]}, "properties": {"osm_id": 1255868846, "building": "house", "name": "", "height": null, "height_m": null, "levels": null, "tract_id": "40145030800", "tract_name": "308", "tags": {"addr:city": "Coweta", "addr:postcode": "74429", "addr:street": "East 146th Street South", "building": "house"}}}, {"type": "Feature", "geometry": {"type": "Polygon", "coordinates": [[[-95.6165665, 35.9531288], [-95.6163452, 35.9531271], [-95.6163465, 35.9530121], [-95.6164507, 35.9530128], [-95.6164504, 35.9530372], [-95.6164804, 35.9530375], [-95.6164809, 35.9529892], [-95.616568, 35.9529898], [-95.6165665, 35.9531288]]]}, "properties": {"osm_id": 1255868847, "building": "house", "name": "", "height": null, "height_m": null, "levels": null, "tract_id": "40145030800", "tract_name": "308", "tags": {"addr:city": "Coweta", "addr:postcode": "74429", "addr:street": "East 146th Street South", "building": "house"}}}, {"type": "Feature", "geometry": {"type": "Polygon", "coordinates": [[[-95.6135793, 35.9531808], [-95.6135181, 35.9531802], [-95.6135213, 35.9529747], [-95.6135952, 35.9529754], [-95.6135948, 35.9530028], [-95.6136238, 35.9530031], [-95.6136236, 35.9530149], [-95.6136834, 35.9530155], [-95.6136833, 35.9530208], [-95.6137234, 35.9530212], [-95.6137209, 35.9531822], [-95.6136815, 35.9531818], [-95.6136811, 35.9532095], [-95.6135788, 35.9532084], [-95.6135793, 35.9531808]]]}, "properties": {"osm_id": 1255868848, "building": "house", "name": "", "height": null, "height_m": null, "levels": null, "tract_id": "40145030800", "tract_name": "308", "tags": {"addr:city": "Coweta", "addr:housenumber": "32767", "addr:postcode": "74429", "addr:street": "East 146th Street South", "building": "house"}}}, {"type": "Feature", "geometry": {"type": "Polygon", "coordinates": [[[-95.6111848, 35.9530659], [-95.6111011, 35.9530599], [-95.6111024, 35.9530479], [-95.6110565, 35.9530447], [-95.6110538, 35.95307], [-95.6110288, 35.9530682], [-95.6110206, 35.9531445], [-95.6110639, 35.9531476], [-95.6110603, 35.9531803], [-95.61113, 35.9531853], [-95.6111314, 35.9531728], [-95.6111729, 35.9531757], [-95.6111693, 35.9532093], [-95.6112541, 35.9532153], [-95.6112707, 35.9530623], [-95.6112343, 35.9530597], [-95.6112351, 35.9530526], [-95.6111866, 35.9530492], [-95.6111848, 35.9530659]]]}, "properties": {"osm_id": 1255868850, "building": "house", "name": "", "height": null, "height_m": null, "levels": null, "tract_id": "40145030800", "tract_name": "308", "tags": {"addr:city": "Coweta", "addr:housenumber": "33101", "addr:postcode": "74429", "addr:street": "East 146th Street South", "building": "house"}}}, {"type": "Feature", "geometry": {"type": "Polygon", "coordinates": [[[-95.617633, 35.9530148], [-95.6177171, 35.9530155], [-95.6177173, 35.9530035], [-95.6177633, 35.9530039], [-95.6177629, 35.9530293], [-95.617788, 35.9530295], [-95.617787, 35.9531061], [-95.6177435, 35.9531057], [-95.617743, 35.9531385], [-95.6176731, 35.9531379], [-95.6176733, 35.9531254], [-95.6176316, 35.953125], [-95.6176311, 35.9531587], [-95.6175459, 35.953158], [-95.617548, 35.9530044], [-95.6175845, 35.9530047], [-95.6175846, 35.9529976], [-95.6176332, 35.952998], [-95.617633, 35.9530148]]]}, "properties": {"osm_id": 1255868851, "building": "house", "name": "", "height": null, "height_m": null, "levels": null, "tract_id": "40145030800", "tract_name": "308", "tags": {"addr:city": "Coweta", "addr:postcode": "74429", "addr:street": "East 146th Street South", "building": "house"}}}, {"type": "Feature", "geometry": {"type": "Polygon", "coordinates": [[[-95.6180657, 35.9532035], [-95.6179306, 35.9531987], [-95.6179363, 35.9530925], [-95.6180715, 35.9530973], [-95.6180657, 35.9532035]]]}, "properties": {"osm_id": 1255868852, "building": "garage", "name": "", "height": null, "height_m": null, "levels": null, "tract_id": "40145030800", "tract_name": "308", "tags": {"building": "garage"}}}, {"type": "Feature", "geometry": {"type": "Polygon", "coordinates": [[[-95.6152576, 35.9531554], [-95.615208, 35.9531559], [-95.6152063, 35.9530503], [-95.615223, 35.9530502], [-95.6152229, 35.9530378], [-95.6152678, 35.9530374], [-95.6152679, 35.9530452], [-95.6152934, 35.9530449], [-95.6152928, 35.9530061], [-95.6153342, 35.9530057], [-95.6153341, 35.9529991], [-95.6153841, 35.9529986], [-95.6153842, 35.9530051], [-95.6153881, 35.9530051], [-95.6153911, 35.9531924], [-95.6153372, 35.9531929], [-95.615337, 35.9531809], [-95.615258, 35.9531817], [-95.6152576, 35.9531554]]]}, "properties": {"osm_id": 1255868853, "building": "house", "name": "", "height": null, "height_m": null, "levels": null, "tract_id": "40145030800", "tract_name": "308", "tags": {"addr:city": "Coweta", "addr:housenumber": "32517", "addr:postcode": "74429", "addr:street": "East 146th Street South", "building": "house"}}}, {"type": "Feature", "geometry": {"type": "Polygon", "coordinates": [[[-95.6159631, 35.9531608], [-95.6158386, 35.9531602], [-95.6158388, 35.9531347], [-95.6157973, 35.9531345], [-95.6157983, 35.9530043], [-95.6158398, 35.9530045], [-95.6158398, 35.9529981], [-95.6158885, 35.9529984], [-95.6158886, 35.9529862], [-95.6159644, 35.9529866], [-95.6159631, 35.9531608]]]}, "properties": {"osm_id": 1255868854, "building": "house", "name": "", "height": null, "height_m": null, "levels": null, "tract_id": "40145030800", "tract_name": "308", "tags": {"addr:city": "Coweta", "addr:postcode": "74429", "addr:street": "East 146th Street South", "building": "house"}}}, {"type": "Feature", "geometry": {"type": "Polygon", "coordinates": [[[-95.614191, 35.953156], [-95.6141253, 35.9531559], [-95.6141253, 35.9531437], [-95.6139969, 35.9531433], [-95.6139975, 35.9530063], [-95.6140317, 35.9530064], [-95.6140318, 35.9529964], [-95.6140637, 35.9529965], [-95.6140637, 35.9530064], [-95.6140865, 35.9530064], [-95.6140866, 35.9529828], [-95.6141917, 35.952983], [-95.614191, 35.953156]]]}, "properties": {"osm_id": 1255868855, "building": "house", "name": "", "height": null, "height_m": null, "levels": null, "tract_id": "40145030800", "tract_name": "308", "tags": {"addr:city": "Coweta", "addr:housenumber": "32683", "addr:postcode": "74429", "addr:street": "East 146th Street South", "building": "house"}}}, {"type": "Feature", "geometry": {"type": "Polygon", "coordinates": [[[-95.6147132, 35.953159], [-95.6146475, 35.9531588], [-95.6146476, 35.9531467], [-95.61451, 35.9531463], [-95.6145107, 35.9530024], [-95.6145496, 35.9530025], [-95.6145496, 35.9529964], [-95.6145816, 35.9529965], [-95.6145815, 35.953008], [-95.6146111, 35.9530081], [-95.6146112, 35.9529857], [-95.614714, 35.952986], [-95.6147132, 35.953159]]]}, "properties": {"osm_id": 1255868856, "building": "house", "name": "", "height": null, "height_m": null, "levels": null, "tract_id": "40145030800", "tract_name": "308", "tags": {"addr:city": "Coweta", "addr:housenumber": "32601", "addr:postcode": "74429", "addr:street": "East 146th Street South", "building": "house"}}}, {"type": "Feature", "geometry": {"type": "Polygon", "coordinates": [[[-95.6169569, 35.9526081], [-95.6169569, 35.9525854], [-95.6168669, 35.9525853], [-95.6168673, 35.9524477], [-95.6169988, 35.952448], [-95.6169989, 35.9524371], [-95.6170606, 35.9524372], [-95.6170601, 35.9526083], [-95.6169569, 35.9526081]]]}, "properties": {"osm_id": 1255868857, "building": "house", "name": "", "height": null, "height_m": null, "levels": null, "tract_id": "40145030800", "tract_name": "308", "tags": {"addr:city": "Coweta", "addr:postcode": "74429", "addr:street": "East 146th Street South", "building": "house"}}}, {"type": "Feature", "geometry": {"type": "Polygon", "coordinates": [[[-95.6169882, 35.9531666], [-95.6170501, 35.9531666], [-95.6170501, 35.9531528], [-95.6171796, 35.9531529], [-95.6171797, 35.9530212], [-95.6171488, 35.9530212], [-95.6171488, 35.9530136], [-95.6171166, 35.9530136], [-95.6171166, 35.953022], [-95.617091, 35.953022], [-95.617091, 35.9529966], [-95.6169883, 35.9529965], [-95.6169882, 35.9531666]]]}, "properties": {"osm_id": 1255868858, "building": "house", "name": "", "height": null, "height_m": null, "levels": null, "tract_id": "40145030800", "tract_name": "308", "tags": {"addr:city": "Coweta", "addr:postcode": "74429", "addr:street": "East 146th Street South", "building": "house"}}}, {"type": "Feature", "geometry": {"type": "Polygon", "coordinates": [[[-95.6183267, 35.9531813], [-95.6181345, 35.9531794], [-95.6181367, 35.9530335], [-95.618175, 35.9530339], [-95.6181751, 35.9530266], [-95.6181998, 35.9530269], [-95.6181996, 35.9530341], [-95.6182214, 35.9530344], [-95.6182219, 35.9530008], [-95.6183295, 35.9530018], [-95.6183267, 35.9531813]]]}, "properties": {"osm_id": 1255868859, "building": "house", "name": "", "height": null, "height_m": null, "levels": null, "tract_id": "40145030800", "tract_name": "308", "tags": {"addr:city": "Coweta", "addr:postcode": "74429", "addr:street": "East 146th Street South", "building": "house"}}}, {"type": "Feature", "geometry": {"type": "Polygon", "coordinates": [[[-95.6181971, 35.9524414], [-95.618259, 35.952442], [-95.6182589, 35.9524522], [-95.6183884, 35.9524535], [-95.6183863, 35.9525916], [-95.6183554, 35.9525913], [-95.6183553, 35.9525989], [-95.618323, 35.9525986], [-95.6183232, 35.9525902], [-95.6182976, 35.95259], [-95.6182972, 35.9526154], [-95.6181945, 35.9526144], [-95.6181971, 35.9524414]]]}, "properties": {"osm_id": 1255868860, "building": "house", "name": "", "height": null, "height_m": null, "levels": null, "tract_id": "40145030800", "tract_name": "308", "tags": {"addr:city": "Coweta", "addr:postcode": "74429", "addr:street": "East 146th Street South", "building": "house"}}}, {"type": "Feature", "geometry": {"type": "Polygon", "coordinates": [[[-95.617427, 35.9525744], [-95.6174204, 35.9525745], [-95.6174175, 35.9524362], [-95.6174561, 35.9524356], [-95.6174557, 35.9524177], [-95.6175184, 35.9524169], [-95.6175188, 35.9524348], [-95.6175481, 35.9524344], [-95.6175476, 35.9524099], [-95.6175976, 35.9524092], [-95.6176019, 35.9526122], [-95.6175519, 35.9526128], [-95.6175518, 35.9526097], [-95.6175194, 35.9526101], [-95.6175186, 35.9525731], [-95.6174917, 35.9525735], [-95.6174919, 35.9525846], [-95.6174578, 35.9525851], [-95.6174576, 35.9525768], [-95.617427, 35.9525773], [-95.617427, 35.9525744]]]}, "properties": {"osm_id": 1255868861, "building": "house", "name": "", "height": null, "height_m": null, "levels": null, "tract_id": "40145030800", "tract_name": "308", "tags": {"addr:city": "Coweta", "addr:postcode": "74429", "addr:street": "East 146th Street South", "building": "house"}}}, {"type": "Feature", "geometry": {"type": "Polygon", "coordinates": [[[-95.6164388, 35.9524362], [-95.6165007, 35.9524368], [-95.6165005, 35.952447], [-95.6166325, 35.9524483], [-95.6166304, 35.9525865], [-95.616597, 35.9525862], [-95.6165969, 35.9525937], [-95.6165647, 35.9525934], [-95.6165648, 35.9525851], [-95.6165393, 35.9525848], [-95.6165389, 35.9526102], [-95.6164362, 35.9526092], [-95.6164388, 35.9524362]]]}, "properties": {"osm_id": 1255868862, "building": "house", "name": "", "height": null, "height_m": null, "levels": null, "tract_id": "40145030800", "tract_name": "308", "tags": {"addr:city": "Coweta", "addr:postcode": "74429", "addr:street": "East 146th Street South", "building": "house"}}}, {"type": "Feature", "geometry": {"type": "Polygon", "coordinates": [[[-95.6138589, 35.9525282], [-95.6138605, 35.9524434], [-95.6140314, 35.9524455], [-95.6140288, 35.9525783], [-95.6139919, 35.9525778], [-95.6139917, 35.9525873], [-95.6139308, 35.9525865], [-95.6139306, 35.9525986], [-95.6138557, 35.9525976], [-95.6138558, 35.9525945], [-95.6138467, 35.9525944], [-95.613848, 35.952528], [-95.6138589, 35.9525282]]]}, "properties": {"osm_id": 1255868863, "building": "house", "name": "", "height": null, "height_m": null, "levels": null, "tract_id": "40145030800", "tract_name": "308", "tags": {"addr:city": "Coweta", "addr:housenumber": "32692", "addr:postcode": "74429", "addr:street": "East 146th Street South", "building": "house"}}}, {"type": "Feature", "geometry": {"type": "Polygon", "coordinates": [[[-95.6144267, 35.9524173], [-95.6145186, 35.9524177], [-95.6145186, 35.9524048], [-95.6145891, 35.9524052], [-95.614589, 35.952418], [-95.6146252, 35.9524182], [-95.6146241, 35.9525793], [-95.6145906, 35.9525792], [-95.6145906, 35.9525828], [-95.6145538, 35.9525827], [-95.6145539, 35.9525751], [-95.6145284, 35.952575], [-95.6145282, 35.9525973], [-95.6144255, 35.9525968], [-95.6144267, 35.9524173]]]}, "properties": {"osm_id": 1255868864, "building": "house", "name": "", "height": null, "height_m": null, "levels": null, "tract_id": "40145030800", "tract_name": "308", "tags": {"addr:city": "Coweta", "addr:housenumber": "32610", "addr:postcode": "74429", "addr:street": "East 146th Street South", "building": "house"}}}, {"type": "Feature", "geometry": {"type": "Polygon", "coordinates": [[[-95.6132988, 35.9524113], [-95.6132392, 35.9524108], [-95.6132393, 35.9524045], [-95.6131366, 35.9524037], [-95.6131365, 35.95241], [-95.6131003, 35.9524097], [-95.6130983, 35.9525708], [-95.6131319, 35.9525711], [-95.6131318, 35.9525747], [-95.6131685, 35.952575], [-95.6131686, 35.9525675], [-95.6131942, 35.9525677], [-95.6131939, 35.95259], [-95.6132966, 35.9525908], [-95.6132988, 35.9524113]]]}, "properties": {"osm_id": 1255868865, "building": "house", "name": "", "height": null, "height_m": null, "levels": null, "tract_id": "40145030800", "tract_name": "308", "tags": {"addr:city": "Coweta", "addr:housenumber": "32776", "addr:postcode": "74429", "addr:street": "East 146th Street South", "building": "house"}}}, {"type": "Feature", "geometry": {"type": "Polygon", "coordinates": [[[-95.6126804, 35.9523828], [-95.61274, 35.952383], [-95.61274, 35.9523767], [-95.6128428, 35.9523771], [-95.6128427, 35.9523835], [-95.6128789, 35.9523836], [-95.6128778, 35.9525448], [-95.6128443, 35.9525446], [-95.6128443, 35.9525483], [-95.6128076, 35.9525481], [-95.6128076, 35.9525405], [-95.6127821, 35.9525404], [-95.6127819, 35.9525627], [-95.6126792, 35.9525623], [-95.6126804, 35.9523828]]]}, "properties": {"osm_id": 1255868866, "building": "house", "name": "", "height": null, "height_m": null, "levels": null, "tract_id": "40145030800", "tract_name": "308", "tags": {"addr:city": "Coweta", "addr:postcode": "74429", "addr:street": "East 146th Street South", "building": "house"}}}, {"type": "Feature", "geometry": {"type": "Polygon", "coordinates": [[[-95.6120315, 35.9525679], [-95.6119881, 35.952568], [-95.6119877, 35.9524426], [-95.6120284, 35.9524425], [-95.6120283, 35.9524213], [-95.6120805, 35.9524212], [-95.6120805, 35.9524075], [-95.6121824, 35.9524073], [-95.6121829, 35.9525952], [-95.6120831, 35.9525954], [-95.6120831, 35.9525763], [-95.6120315, 35.9525764], [-95.6120315, 35.9525679]]]}, "properties": {"osm_id": 1255868867, "building": "house", "name": "", "height": null, "height_m": null, "levels": null, "tract_id": "40145030800", "tract_name": "308", "tags": {"addr:city": "Coweta", "addr:housenumber": "32944", "addr:postcode": "74429", "addr:street": "East 146th Street South", "building": "house"}}}, {"type": "Feature", "geometry": {"type": "Polygon", "coordinates": [[[-95.6115144, 35.9525374], [-95.6115155, 35.9524038], [-95.611689, 35.9524047], [-95.6116885, 35.9524758], [-95.6117257, 35.952476], [-95.6117252, 35.9525385], [-95.6116916, 35.9525383], [-95.6116916, 35.9525428], [-95.611615, 35.9525424], [-95.611615, 35.9525379], [-95.6115144, 35.9525374]]]}, "properties": {"osm_id": 1255868868, "building": "house", "name": "", "height": null, "height_m": null, "levels": null, "tract_id": "40145030800", "tract_name": "308", "tags": {"addr:city": "Coweta", "addr:housenumber": "33024", "addr:postcode": "74429", "addr:street": "East 146th Street South", "building": "house"}}}, {"type": "Feature", "geometry": {"type": "Polygon", "coordinates": [[[-95.5452613, 35.9460383], [-95.545192, 35.9460383], [-95.545192, 35.9460042], [-95.5452613, 35.9460042], [-95.5452613, 35.9460383]]]}, "properties": {"osm_id": 1256031605, "building": "service", "name": "", "height": null, "height_m": null, "levels": null, "tract_id": "40145030800", "tract_name": "308", "tags": {"building": "service"}}}, {"type": "Feature", "geometry": {"type": "Polygon", "coordinates": [[[-95.5813103, 35.9513045], [-95.5809785, 35.951303], [-95.58098, 35.9510843], [-95.5813118, 35.9510858], [-95.5813103, 35.9513045]]]}, "properties": {"osm_id": 1259561744, "building": "industrial", "name": "Larry Smith Marine Services", "height": null, "height_m": null, "levels": null, "tract_id": "40145030800", "tract_name": "308", "tags": {"building": "industrial", "name": "Larry Smith Marine Services", "shop": "boat_repair"}}}, {"type": "Feature", "geometry": {"type": "Polygon", "coordinates": [[[-95.5814692, 35.9510659], [-95.5813716, 35.9510649], [-95.5813792, 35.9505721], [-95.5814769, 35.9505731], [-95.5814692, 35.9510659]]]}, "properties": {"osm_id": 1259561745, "building": "industrial", "name": "", "height": null, "height_m": null, "levels": null, "tract_id": "40145030800", "tract_name": "308", "tags": {"building": "industrial"}}}, {"type": "Feature", "geometry": {"type": "Polygon", "coordinates": [[[-95.5818094, 35.9510734], [-95.5817099, 35.9510727], [-95.5817157, 35.9505784], [-95.5818152, 35.9505791], [-95.5818094, 35.9510734]]]}, "properties": {"osm_id": 1259561746, "building": "industrial", "name": "", "height": null, "height_m": null, "levels": null, "tract_id": "40145030800", "tract_name": "308", "tags": {"building": "industrial"}}}, {"type": "Feature", "geometry": {"type": "Polygon", "coordinates": [[[-95.5838194, 35.9513955], [-95.5837314, 35.9513969], [-95.5837291, 35.9513004], [-95.5838171, 35.951299], [-95.5838194, 35.9513955]]]}, "properties": {"osm_id": 1259561747, "building": "retail", "name": "", "height": null, "height_m": null, "levels": null, "tract_id": "40145030800", "tract_name": "308", "tags": {"building": "retail", "description": "This was a burger and ice cream shop for decades, then it closed in 2017 or 2018.", "shop": "vacant"}}}, {"type": "Feature", "geometry": {"type": "Polygon", "coordinates": [[[-95.6240504, 35.9490635], [-95.6241719, 35.9491338], [-95.6240244, 35.949301], [-95.6239029, 35.9492307], [-95.6240504, 35.9490635]]]}, "properties": {"osm_id": 1259561754, "building": "warehouse", "name": "", "height": null, "height_m": null, "levels": null, "tract_id": "40145030800", "tract_name": "308", "tags": {"building": "warehouse"}}}, {"type": "Feature", "geometry": {"type": "Polygon", "coordinates": [[[-95.6243563, 35.9503896], [-95.6240967, 35.9503514], [-95.624144, 35.9501407], [-95.6244036, 35.9501789], [-95.6243563, 35.9503896]]]}, "properties": {"osm_id": 1259561755, "building": "school", "name": "", "height": null, "height_m": null, "levels": null, "tract_id": "40145030800", "tract_name": "308", "tags": {"building": "school"}}}, {"type": "Feature", "geometry": {"type": "Polygon", "coordinates": [[[-95.6235993, 35.9500312], [-95.6238447, 35.9500673], [-95.6237433, 35.9505187], [-95.623498, 35.9504826], [-95.6235993, 35.9500312]]]}, "properties": {"osm_id": 1259561756, "building": "school", "name": "", "height": null, "height_m": null, "levels": null, "tract_id": "40145030800", "tract_name": "308", "tags": {"building": "school"}}}, {"type": "Feature", "geometry": {"type": "Polygon", "coordinates": [[[-95.6238465, 35.9496539], [-95.6240663, 35.9497778], [-95.6238716, 35.9500041], [-95.6236518, 35.9498802], [-95.6238465, 35.9496539]]]}, "properties": {"osm_id": 1259561757, "building": "school", "name": "", "height": null, "height_m": null, "levels": null, "tract_id": "40145030800", "tract_name": "308", "tags": {"building": "school"}}}, {"type": "Feature", "geometry": {"type": "Polygon", "coordinates": [[[-95.62414, 35.9493336], [-95.6243477, 35.9494506], [-95.6241078, 35.9497297], [-95.6239001, 35.9496126], [-95.62414, 35.9493336]]]}, "properties": {"osm_id": 1259561758, "building": "school", "name": "", "height": null, "height_m": null, "levels": null, "tract_id": "40145030800", "tract_name": "308", "tags": {"building": "school"}}}, {"type": "Feature", "geometry": {"type": "Polygon", "coordinates": [[[-95.6244973, 35.9489839], [-95.6251292, 35.9490906], [-95.6250517, 35.9493914], [-95.6244198, 35.9492848], [-95.6244973, 35.9489839]]]}, "properties": {"osm_id": 1259561759, "building": "school", "name": "", "height": null, "height_m": null, "levels": null, "tract_id": "40145030800", "tract_name": "308", "tags": {"building": "school"}}}, {"type": "Feature", "geometry": {"type": "Polygon", "coordinates": [[[-95.6361561, 36.046799], [-95.6361537, 36.0466693], [-95.6360672, 36.0466704], [-95.6360642, 36.0465096], [-95.6363128, 36.0465066], [-95.6363158, 36.0466673], [-95.6362206, 36.0466685], [-95.636223, 36.0467982], [-95.6362526, 36.0467978], [-95.6362531, 36.0468223], [-95.6363448, 36.0468212], [-95.6363463, 36.0469044], [-95.6362547, 36.0469055], [-95.6362551, 36.046929], [-95.6359205, 36.0469331], [-95.6359181, 36.0468019], [-95.6361561, 36.046799]]]}, "properties": {"osm_id": 1274085047, "building": "church", "name": "Sunnyside Church", "height": null, "height_m": null, "levels": null, "tract_id": "40145030800", "tract_name": "308", "tags": {"addr:city": "Coweta", "addr:postcode": "74429", "amenity": "place_of_worship", "building": "church", "ele": "189", "gnis:feature_id": "1098649", "name": "Sunnyside Church", "religion": "christian"}}}, {"type": "Feature", "geometry": {"type": "Polygon", "coordinates": [[[-95.6360837, 35.9390049], [-95.6360494, 35.9390366], [-95.6358496, 35.9388949], [-95.6358885, 35.938859], [-95.6359415, 35.9388966], [-95.635957, 35.9388823], [-95.6360031, 35.938915], [-95.6359831, 35.9389335], [-95.6360837, 35.9390049]]]}, "properties": {"osm_id": 1313243846, "building": "house", "name": "", "height": null, "height_m": null, "levels": null, "tract_id": "40145030800", "tract_name": "308", "tags": {"addr:city": "Coweta", "addr:housenumber": "15485", "addr:postcode": "74429", "addr:street": "South 305th East Avenue", "building": "house"}}}, {"type": "Feature", "geometry": {"type": "Polygon", "coordinates": [[[-95.6357644, 35.938536], [-95.6357656, 35.9383787], [-95.6356211, 35.938378], [-95.63562, 35.9385353], [-95.6357644, 35.938536]]]}, "properties": {"osm_id": 1313243847, "building": "barn", "name": "", "height": null, "height_m": null, "levels": null, "tract_id": "40145030800", "tract_name": "308", "tags": {"building": "barn"}}}, {"type": "Feature", "geometry": {"type": "Polygon", "coordinates": [[[-95.635827, 35.9379342], [-95.6358351, 35.9377674], [-95.6356149, 35.9377605], [-95.6356069, 35.9379273], [-95.635827, 35.9379342]]]}, "properties": {"osm_id": 1313243972, "building": "barn", "name": "", "height": null, "height_m": null, "levels": null, "tract_id": "40145030800", "tract_name": "308", "tags": {"addr:city": "Coweta", "addr:housenumber": "15537", "addr:postcode": "74429", "addr:street": "South 305th East Avenue", "building": "barn"}}}, {"type": "Feature", "geometry": {"type": "Polygon", "coordinates": [[[-95.6356463, 35.9369948], [-95.6356473, 35.9369351], [-95.6356118, 35.9369347], [-95.6356135, 35.9368385], [-95.6355226, 35.9368374], [-95.6355231, 35.9368074], [-95.6354749, 35.9368069], [-95.6354745, 35.9368324], [-95.6354354, 35.9368319], [-95.6354327, 35.9369898], [-95.6354877, 35.9369904], [-95.635488, 35.9369714], [-95.6355089, 35.9369716], [-95.6355087, 35.9369804], [-95.6355326, 35.9369806], [-95.6355323, 35.9370008], [-95.6356133, 35.9370017], [-95.6356134, 35.9369944], [-95.6356463, 35.9369948]]]}, "properties": {"osm_id": 1313244417, "building": "house", "name": "", "height": null, "height_m": null, "levels": null, "tract_id": "40145030800", "tract_name": "308", "tags": {"addr:city": "Coweta", "addr:postcode": "74429", "addr:street": "East 156th Street South", "building": "house"}}}, {"type": "Feature", "geometry": {"type": "Polygon", "coordinates": [[[-95.6355279, 35.9367298], [-95.6355286, 35.9367021], [-95.635477, 35.9367012], [-95.6354762, 35.9367289], [-95.6355279, 35.9367298]]]}, "properties": {"osm_id": 1313244419, "building": "shed", "name": "", "height": null, "height_m": null, "levels": null, "tract_id": "40145030800", "tract_name": "308", "tags": {"building": "shed"}}}, {"type": "Feature", "geometry": {"type": "Polygon", "coordinates": [[[-95.6349816, 35.9368945], [-95.6349653, 35.9368662], [-95.6350067, 35.9368506], [-95.6349656, 35.9367796], [-95.6348248, 35.9368331], [-95.6348646, 35.9369019], [-95.6349033, 35.9368872], [-95.6349209, 35.9369175], [-95.6349816, 35.9368945]]]}, "properties": {"osm_id": 1313244841, "building": "house", "name": "", "height": null, "height_m": null, "levels": null, "tract_id": "40145030800", "tract_name": "308", "tags": {"addr:city": "Coweta", "addr:postcode": "74429", "addr:street": "East 156th Street South", "building": "house"}}}, {"type": "Feature", "geometry": {"type": "Polygon", "coordinates": [[[-95.6350249, 35.9366418], [-95.6351214, 35.9366256], [-95.6351045, 35.9365596], [-95.635008, 35.9365758], [-95.6350249, 35.9366418]]]}, "properties": {"osm_id": 1313244843, "building": "barn", "name": "", "height": null, "height_m": null, "levels": null, "tract_id": "40145030800", "tract_name": "308", "tags": {"building": "barn"}}}, {"type": "Feature", "geometry": {"type": "Polygon", "coordinates": [[[-95.6344178, 35.9368839], [-95.6344166, 35.9367425], [-95.6342267, 35.9367435], [-95.6342275, 35.936835], [-95.634228, 35.936907], [-95.6343091, 35.9369066], [-95.6343089, 35.9368771], [-95.634334, 35.936877], [-95.634334, 35.9368683], [-95.6343466, 35.9368682], [-95.6343468, 35.9368842], [-95.6344178, 35.9368839]]]}, "properties": {"osm_id": 1313245092, "building": "house", "name": "", "height": null, "height_m": null, "levels": null, "tract_id": "40145030800", "tract_name": "308", "tags": {"addr:city": "Coweta", "addr:postcode": "74429", "addr:street": "East 156th Street South", "building": "house"}}}, {"type": "Feature", "geometry": {"type": "Polygon", "coordinates": [[[-95.634228, 35.936907], [-95.634229, 35.9369142], [-95.6341486, 35.9369139], [-95.6341479, 35.9368356], [-95.6342275, 35.936835], [-95.634228, 35.936907]]]}, "properties": {"osm_id": 1313245093, "building": "garage", "name": "", "height": null, "height_m": null, "levels": null, "tract_id": "40145030800", "tract_name": "308", "tags": {"building": "garage"}}}, {"type": "Feature", "geometry": {"type": "Polygon", "coordinates": [[[-95.6342065, 35.9368225], [-95.6342066, 35.9367998], [-95.634148, 35.9367995], [-95.6341478, 35.9368222], [-95.6342065, 35.9368225]]]}, "properties": {"osm_id": 1313245094, "building": "shed", "name": "", "height": null, "height_m": null, "levels": null, "tract_id": "40145030800", "tract_name": "308", "tags": {"building": "shed"}}}, {"type": "Feature", "geometry": {"type": "Polygon", "coordinates": [[[-95.633363, 35.9369455], [-95.6333582, 35.9368671], [-95.6333914, 35.9368658], [-95.6333864, 35.9367828], [-95.6333283, 35.9367851], [-95.6333259, 35.9367468], [-95.633267, 35.9367491], [-95.6332696, 35.936792], [-95.6332209, 35.936794], [-95.6332257, 35.9368728], [-95.6332805, 35.9368707], [-95.6332853, 35.9369486], [-95.633363, 35.9369455]]]}, "properties": {"osm_id": 1313245955, "building": "house", "name": "", "height": null, "height_m": null, "levels": null, "tract_id": "40145030800", "tract_name": "308", "tags": {"addr:city": "Coweta", "addr:postcode": "74429", "addr:street": "East 156th Street South", "building": "house"}}}, {"type": "Feature", "geometry": {"type": "Polygon", "coordinates": [[[-95.6336597, 35.9370544], [-95.6336574, 35.9369714], [-95.6336189, 35.936972], [-95.6335164, 35.9369739], [-95.6335187, 35.9370569], [-95.6336597, 35.9370544]]]}, "properties": {"osm_id": 1313245956, "building": "barn", "name": "", "height": null, "height_m": null, "levels": null, "tract_id": "40145030800", "tract_name": "308", "tags": {"building": "barn"}}}, {"type": "Feature", "geometry": {"type": "Polygon", "coordinates": [[[-95.6336189, 35.936972], [-95.6336222, 35.9369269], [-95.6335179, 35.9369263], [-95.6335164, 35.9369739], [-95.6336189, 35.936972]]]}, "properties": {"osm_id": 1313245957, "building": "roof", "name": "", "height": null, "height_m": null, "levels": null, "tract_id": "40145030800", "tract_name": "308", "tags": {"building": "roof", "layer": "1"}}}, {"type": "Feature", "geometry": {"type": "Polygon", "coordinates": [[[-95.6327353, 35.9365825], [-95.6327361, 35.9364459], [-95.6326477, 35.9364456], [-95.6326478, 35.9364261], [-95.6325572, 35.9364258], [-95.6325568, 35.936497], [-95.6325764, 35.9364971], [-95.6325759, 35.9365819], [-95.6327353, 35.9365825]]]}, "properties": {"osm_id": 1313246760, "building": "house", "name": "", "height": null, "height_m": null, "levels": null, "tract_id": "40145030800", "tract_name": "308", "tags": {"addr:city": "Coweta", "addr:postcode": "74429", "addr:street": "South 305th East Avenue", "building": "house"}}}, {"type": "Feature", "geometry": {"type": "Polygon", "coordinates": [[[-95.6319351, 35.9357159], [-95.6319335, 35.9355847], [-95.6319961, 35.9355842], [-95.6319953, 35.9355212], [-95.6319363, 35.9355217], [-95.6319356, 35.9354665], [-95.6318195, 35.9354674], [-95.6318205, 35.9355509], [-95.6317877, 35.9355512], [-95.6317887, 35.9356313], [-95.6318222, 35.9356311], [-95.6318233, 35.9357168], [-95.6319351, 35.9357159]]]}, "properties": {"osm_id": 1313247656, "building": "house", "name": "", "height": null, "height_m": null, "levels": null, "tract_id": "40145030800", "tract_name": "308", "tags": {"addr:city": "Coweta", "addr:postcode": "74429", "addr:street": "South 305th East Avenue", "building": "house"}}}, {"type": "Feature", "geometry": {"type": "Polygon", "coordinates": [[[-95.6323015, 35.9352138], [-95.6321601, 35.9352702], [-95.6321321, 35.9352241], [-95.6321526, 35.9352159], [-95.6320924, 35.9351168], [-95.6322134, 35.9350687], [-95.6323015, 35.9352138]]]}, "properties": {"osm_id": 1313247873, "building": "house", "name": "", "height": null, "height_m": null, "levels": null, "tract_id": "40145030800", "tract_name": "308", "tags": {"addr:city": "Coweta", "addr:postcode": "74429", "addr:street": "South 305th East Avenue", "building": "house"}}}, {"type": "Feature", "geometry": {"type": "Polygon", "coordinates": [[[-95.6333611, 35.9354715], [-95.6332867, 35.9355183], [-95.6332307, 35.9354599], [-95.6332468, 35.9354498], [-95.6332192, 35.9354211], [-95.6332128, 35.9354251], [-95.6331928, 35.9354042], [-95.63318, 35.9354123], [-95.6331558, 35.935387], [-95.6331431, 35.935395], [-95.633097, 35.9353468], [-95.633082, 35.9353562], [-95.6330601, 35.9353333], [-95.6330722, 35.9353256], [-95.6330121, 35.9352629], [-95.6331395, 35.9351829], [-95.6331605, 35.9352049], [-95.6332029, 35.9351783], [-95.6333113, 35.9352914], [-95.6332349, 35.9353394], [-95.6332611, 35.9353667], [-95.6332399, 35.93538], [-95.6332839, 35.9354259], [-95.6333048, 35.9354128], [-95.6333611, 35.9354715]]]}, "properties": {"osm_id": 1313248261, "building": "house", "name": "", "height": null, "height_m": null, "levels": null, "tract_id": "40145030800", "tract_name": "308", "tags": {"addr:city": "Coweta", "addr:postcode": "74429", "addr:street": "South 305th East Avenue", "building": "house"}}}, {"type": "Feature", "geometry": {"type": "Polygon", "coordinates": [[[-95.6314227, 35.9366943], [-95.6312951, 35.9367325], [-95.6312005, 35.9365253], [-95.6313803, 35.9364715], [-95.6314124, 35.9365418], [-95.6313735, 35.9365535], [-95.6313831, 35.9365746], [-95.6314367, 35.9365586], [-95.6314779, 35.936649], [-95.6314111, 35.9366689], [-95.6314227, 35.9366943]]]}, "properties": {"osm_id": 1313249389, "building": "house", "name": "", "height": null, "height_m": null, "levels": null, "tract_id": "40145030800", "tract_name": "308", "tags": {"addr:city": "Coweta", "addr:postcode": "74429", "addr:street": "South 305th East Avenue", "building": "house"}}}, {"type": "Feature", "geometry": {"type": "Polygon", "coordinates": [[[-95.631251, 35.9363918], [-95.6312582, 35.9362257], [-95.6310845, 35.9362207], [-95.6310773, 35.9363869], [-95.631251, 35.9363918]]]}, "properties": {"osm_id": 1313249390, "building": "garage", "name": "", "height": null, "height_m": null, "levels": null, "tract_id": "40145030800", "tract_name": "308", "tags": {"building": "garage"}}}, {"type": "Feature", "geometry": {"type": "Polygon", "coordinates": [[[-95.6327921, 35.9387009], [-95.6327953, 35.9386387], [-95.6328899, 35.9386419], [-95.632891, 35.9386207], [-95.6330044, 35.9386245], [-95.6329993, 35.9387231], [-95.6328818, 35.9387192], [-95.6328825, 35.938704], [-95.6327921, 35.9387009]]]}, "properties": {"osm_id": 1313249619, "building": "house", "name": "", "height": null, "height_m": null, "levels": null, "tract_id": "40145030800", "tract_name": "308", "tags": {"addr:city": "Coweta", "addr:postcode": "74429", "addr:street": "South 305th East Avenue", "building": "house"}}}, {"type": "Feature", "geometry": {"type": "Polygon", "coordinates": [[[-95.6323757, 35.9390456], [-95.6323772, 35.939038], [-95.6324028, 35.9390414], [-95.6324154, 35.9389775], [-95.6323911, 35.9389743], [-95.6323935, 35.9389621], [-95.632293, 35.938949], [-95.6322764, 35.9390327], [-95.6323757, 35.9390456]]]}, "properties": {"osm_id": 1313251173, "building": "house", "name": "", "height": null, "height_m": null, "levels": null, "tract_id": "40145030800", "tract_name": "308", "tags": {"addr:city": "Coweta", "addr:postcode": "74429", "addr:street": "South 305th East Avenue", "building": "house"}}}, {"type": "Feature", "geometry": {"type": "Polygon", "coordinates": [[[-95.632283, 35.9391012], [-95.6322866, 35.9390601], [-95.6322601, 35.9390586], [-95.6322565, 35.9390996], [-95.632283, 35.9391012]]]}, "properties": {"osm_id": 1313251174, "building": "shed", "name": "", "height": null, "height_m": null, "levels": null, "tract_id": "40145030800", "tract_name": "308", "tags": {"building": "shed"}}}, {"type": "Feature", "geometry": {"type": "Polygon", "coordinates": [[[-95.6300564, 35.9391379], [-95.6300572, 35.9389829], [-95.6300863, 35.938983], [-95.6300866, 35.9389286], [-95.6299105, 35.9389279], [-95.6299093, 35.9391373], [-95.6300564, 35.9391379]]]}, "properties": {"osm_id": 1313251486, "building": "house", "name": "", "height": null, "height_m": null, "levels": null, "tract_id": "40145030800", "tract_name": "308", "tags": {"addr:city": "Coweta", "addr:postcode": "74429", "addr:street": "East 156th Street South", "building": "house"}}}, {"type": "Feature", "geometry": {"type": "Polygon", "coordinates": [[[-95.6282151, 35.9356759], [-95.6283043, 35.9356738], [-95.6283035, 35.9356509], [-95.628328, 35.9356504], [-95.6283235, 35.9355239], [-95.6282224, 35.9355262], [-95.6282232, 35.9355472], [-95.6282106, 35.9355475], [-95.6282151, 35.9356759]]]}, "properties": {"osm_id": 1313255058, "building": "house", "name": "", "height": null, "height_m": null, "levels": null, "tract_id": "40145030800", "tract_name": "308", "tags": {"addr:city": "Coweta", "addr:postcode": "74429", "addr:street": "East 156th Street South", "building": "house"}}}, {"type": "Feature", "geometry": {"type": "Polygon", "coordinates": [[[-95.6282579, 35.9358473], [-95.6284316, 35.9358441], [-95.6284288, 35.9357425], [-95.628255, 35.9357457], [-95.6282579, 35.9358473]]]}, "properties": {"osm_id": 1313255059, "building": "barn", "name": "", "height": null, "height_m": null, "levels": null, "tract_id": "40145030800", "tract_name": "308", "tags": {"building": "barn"}}}, {"type": "Feature", "geometry": {"type": "Polygon", "coordinates": [[[-95.6357549, 35.959744], [-95.6357375, 35.9597258], [-95.6357057, 35.9597458], [-95.6356773, 35.959716], [-95.6357091, 35.9596961], [-95.6356021, 35.9595841], [-95.6356747, 35.9595387], [-95.6358275, 35.9596986], [-95.6357549, 35.959744]]]}, "properties": {"osm_id": 1351848912, "building": "detached", "name": "", "height": null, "height_m": null, "levels": null, "tract_id": "40145030800", "tract_name": "308", "tags": {"addr:city": "Coweta", "addr:housenumber": "14077", "addr:postcode": "74429", "addr:state": "OK", "addr:street": "South 305th East Avenue", "building": "detached"}}}, {"type": "Feature", "geometry": {"type": "Polygon", "coordinates": [[[-95.6356088, 35.960522], [-95.6355833, 35.9605219], [-95.635583, 35.960588], [-95.6354576, 35.9605876], [-95.6354579, 35.9605215], [-95.6354452, 35.9605215], [-95.6354455, 35.9604546], [-95.635529, 35.9604549], [-95.6355294, 35.9603754], [-95.6355978, 35.9603756], [-95.6355974, 35.9604551], [-95.6356091, 35.9604551], [-95.6356088, 35.960522]]]}, "properties": {"osm_id": 1351849365, "building": "detached", "name": "", "height": null, "height_m": null, "levels": null, "tract_id": "40145030800", "tract_name": "308", "tags": {"addr:city": "Coweta", "addr:housenumber": "14055", "addr:postcode": "74429", "addr:state": "OK", "addr:street": "South 305th East Avenue", "building": "detached"}}}, {"type": "Feature", "geometry": {"type": "Polygon", "coordinates": [[[-95.6353728, 35.960293], [-95.6353071, 35.960293], [-95.6353071, 35.9602501], [-95.6353728, 35.9602501], [-95.6353728, 35.960293]]]}, "properties": {"osm_id": 1351849366, "building": "yes", "name": "", "height": null, "height_m": null, "levels": null, "tract_id": "40145030800", "tract_name": "308", "tags": {"building": "yes"}}}, {"type": "Feature", "geometry": {"type": "Polygon", "coordinates": [[[-95.6354599, 35.9602631], [-95.6354593, 35.9603098], [-95.6353983, 35.9603093], [-95.6353989, 35.9602626], [-95.6354599, 35.9602631]]]}, "properties": {"osm_id": 1351849367, "building": "yes", "name": "", "height": null, "height_m": null, "levels": null, "tract_id": "40145030800", "tract_name": "308", "tags": {"building": "yes"}}}, {"type": "Feature", "geometry": {"type": "Polygon", "coordinates": [[[-95.6354585, 35.9600734], [-95.6353486, 35.9600699], [-95.6353574, 35.9598863], [-95.6354673, 35.9598897], [-95.6354585, 35.9600734]]]}, "properties": {"osm_id": 1351849368, "building": "detached", "name": "", "height": null, "height_m": null, "levels": null, "tract_id": "40145030800", "tract_name": "308", "tags": {"addr:city": "Coweta", "addr:postcode": "74429", "addr:state": "OK", "addr:street": "South 305th East Avenue", "building": "detached", "fixme": "Survey to verify building type: I think this is a barn or a garage, not a house."}}}, {"type": "Feature", "geometry": {"type": "Polygon", "coordinates": [[[-95.6338446, 35.9612097], [-95.6338443, 35.9612575], [-95.6338676, 35.9612576], [-95.6338668, 35.9613902], [-95.6337547, 35.9613898], [-95.6337554, 35.9612842], [-95.6335772, 35.9612835], [-95.6335777, 35.9612086], [-95.6338446, 35.9612097]]]}, "properties": {"osm_id": 1351849833, "building": "detached", "name": "", "height": null, "height_m": null, "levels": null, "tract_id": "40145030800", "tract_name": "308", "tags": {"addr:city": "Coweta", "addr:postcode": "74429", "addr:state": "OK", "addr:street": "South 305th East Avenue", "building": "detached"}}}, {"type": "Feature", "geometry": {"type": "Polygon", "coordinates": [[[-95.6335844, 35.9609937], [-95.6335837, 35.9610739], [-95.6335281, 35.9610736], [-95.6335276, 35.9611264], [-95.6333981, 35.9611257], [-95.6333993, 35.9609926], [-95.6335844, 35.9609937]]]}, "properties": {"osm_id": 1351849834, "building": "garage", "name": "", "height": null, "height_m": null, "levels": null, "tract_id": "40145030800", "tract_name": "308", "tags": {"building": "garage"}}}, {"type": "Feature", "geometry": {"type": "Polygon", "coordinates": [[[-95.6349371, 35.960922], [-95.6346928, 35.9609106], [-95.6346957, 35.9608709], [-95.6349399, 35.9608822], [-95.6349371, 35.960922]]]}, "properties": {"osm_id": 1351849835, "building": "static_caravan", "name": "", "height": null, "height_m": null, "levels": null, "tract_id": "40145030800", "tract_name": "308", "tags": {"addr:city": "Coweta", "addr:postcode": "74429", "addr:state": "OK", "addr:street": "South 305th East Avenue", "building": "static_caravan"}}}, {"type": "Feature", "geometry": {"type": "Polygon", "coordinates": [[[-95.634769, 35.959506], [-95.6347664, 35.9594276], [-95.634932, 35.9594239], [-95.6349323, 35.9594325], [-95.6350164, 35.9594307], [-95.6350187, 35.9595006], [-95.634918, 35.9595028], [-95.6349189, 35.9595278], [-95.6348666, 35.9595289], [-95.6348658, 35.9595039], [-95.634769, 35.959506]]]}, "properties": {"osm_id": 1351849837, "building": "detached", "name": "", "height": null, "height_m": null, "levels": null, "tract_id": "40145030800", "tract_name": "308", "tags": {"addr:city": "Coweta", "addr:housenumber": "30675", "addr:postcode": "74429", "addr:state": "OK", "addr:street": "East 141st Street South", "building": "detached"}}}, {"type": "Feature", "geometry": {"type": "Polygon", "coordinates": [[[-95.6320643, 35.9606604], [-95.6321313, 35.9608173], [-95.6320351, 35.9608443], [-95.631968, 35.9606874], [-95.6320643, 35.9606604]]]}, "properties": {"osm_id": 1351851080, "building": "yes", "name": "", "height": null, "height_m": null, "levels": null, "tract_id": "40145030800", "tract_name": "308", "tags": {"building": "yes"}}}, {"type": "Feature", "geometry": {"type": "Polygon", "coordinates": [[[-95.6321957, 35.9604379], [-95.6322661, 35.9605931], [-95.6321297, 35.9606337], [-95.6320593, 35.9604784], [-95.6321957, 35.9604379]]]}, "properties": {"osm_id": 1351851081, "building": "yes", "name": "", "height": null, "height_m": null, "levels": null, "tract_id": "40145030800", "tract_name": "308", "tags": {"building": "yes"}}}, {"type": "Feature", "geometry": {"type": "Polygon", "coordinates": [[[-95.6339703, 35.9593849], [-95.6338392, 35.9593866], [-95.6338381, 35.9593257], [-95.6338942, 35.959325], [-95.6338934, 35.9592818], [-95.6339683, 35.9592808], [-95.6339703, 35.9593849]]]}, "properties": {"osm_id": 1351851082, "building": "detached", "name": "", "height": null, "height_m": null, "levels": null, "tract_id": "40145030800", "tract_name": "308", "tags": {"addr:city": "Coweta", "addr:housenumber": "30775", "addr:postcode": "74429", "addr:state": "OK", "addr:street": "East 141st Street South", "building": "detached"}}}, {"type": "Feature", "geometry": {"type": "Polygon", "coordinates": [[[-95.6328681, 35.9643139], [-95.6329957, 35.9643136], [-95.6329957, 35.9643076], [-95.6330396, 35.9643075], [-95.6330395, 35.9642754], [-95.6330987, 35.9642753], [-95.6330988, 35.9642958], [-95.6331409, 35.9642957], [-95.6331413, 35.9644012], [-95.6329458, 35.9644017], [-95.6329459, 35.9644066], [-95.6328685, 35.9644068], [-95.6328681, 35.9643139]]]}, "properties": {"osm_id": 1415875767, "building": "yes", "name": "", "height": null, "height_m": null, "levels": null, "tract_id": "40145030800", "tract_name": "308", "tags": {"addr:housenumber": "30784", "addr:postcode": "74429", "addr:street": "East 137th Street South", "building": "yes", "description": "concrete pad only, the house burned down"}}}, {"type": "Feature", "geometry": {"type": "Polygon", "coordinates": [[[-95.6324306, 35.9629265], [-95.6324846, 35.9629904], [-95.6324198, 35.9630263], [-95.6324286, 35.9630367], [-95.6323825, 35.9630622], [-95.6323737, 35.9630518], [-95.6322626, 35.9631133], [-95.6322087, 35.9630495], [-95.6322615, 35.9630202], [-95.632264, 35.9630232], [-95.6323242, 35.9629899], [-95.6323217, 35.9629869], [-95.6324306, 35.9629265]]]}, "properties": {"osm_id": 1415875770, "building": "house", "name": "", "height": null, "height_m": null, "levels": null, "tract_id": "40145030800", "tract_name": "308", "tags": {"addr:postcode": "74429", "addr:street": "East 138th Street South", "building": "house"}}}, {"type": "Feature", "geometry": {"type": "Polygon", "coordinates": [[[-95.6168702, 35.9546107], [-95.6167628, 35.9546088], [-95.6167657, 35.9544985], [-95.6168731, 35.9545004], [-95.6168702, 35.9546107]]]}, "properties": {"osm_id": 1416944978, "building": "shed", "name": "", "height": null, "height_m": null, "levels": null, "tract_id": "40145030800", "tract_name": "308", "tags": {"building": "shed"}}}, {"type": "Feature", "geometry": {"type": "Polygon", "coordinates": [[[-95.6164629, 35.955363], [-95.6163812, 35.9553623], [-95.6163621, 35.9553383], [-95.6163624, 35.9553164], [-95.6164635, 35.9553172], [-95.6164629, 35.955363]]]}, "properties": {"osm_id": 1416944979, "building": "shed", "name": "", "height": null, "height_m": null, "levels": null, "tract_id": "40145030800", "tract_name": "308", "tags": {"building": "shed"}}}, {"type": "Feature", "geometry": {"type": "Polygon", "coordinates": [[[-95.6163693, 35.9551191], [-95.6161928, 35.9551171], [-95.616197, 35.954869], [-95.6163735, 35.954871], [-95.6163693, 35.9551191]]]}, "properties": {"osm_id": 1416944980, "building": "shed", "name": "", "height": null, "height_m": null, "levels": null, "tract_id": "40145030800", "tract_name": "308", "tags": {"building": "shed"}}}, {"type": "Feature", "geometry": {"type": "Polygon", "coordinates": [[[-95.617653, 35.9553035], [-95.6174507, 35.9553052], [-95.6174494, 35.9552019], [-95.6176516, 35.9552002], [-95.617653, 35.9553035]]]}, "properties": {"osm_id": 1416944981, "building": "shed", "name": "", "height": null, "height_m": null, "levels": null, "tract_id": "40145030800", "tract_name": "308", "tags": {"building": "shed"}}}, {"type": "Feature", "geometry": {"type": "Polygon", "coordinates": [[[-95.5778213, 35.9689544], [-95.5778814, 35.9689529], [-95.577883, 35.9689913], [-95.5778228, 35.9689929], [-95.5778213, 35.9689544]]]}, "properties": {"osm_id": 1417728932, "building": "service", "name": "", "height": null, "height_m": null, "levels": null, "tract_id": "40145030800", "tract_name": "308", "tags": {"building": "service"}}}, {"type": "Feature", "geometry": {"type": "Polygon", "coordinates": [[[-95.5819056, 35.9682435], [-95.5818857, 35.968263], [-95.5818753, 35.9682868], [-95.5818756, 35.9683121], [-95.5818865, 35.9683357], [-95.5819067, 35.968355], [-95.5819339, 35.9683674], [-95.5819647, 35.9683716], [-95.5819954, 35.968367], [-95.5820223, 35.9683542], [-95.5820422, 35.9683347], [-95.5820526, 35.9683109], [-95.5820524, 35.9682856], [-95.5820414, 35.968262], [-95.5820212, 35.9682427], [-95.581994, 35.9682303], [-95.5819632, 35.9682261], [-95.5819325, 35.9682307], [-95.5819056, 35.9682435]]]}, "properties": {"osm_id": 1417728933, "building": "yes", "name": "", "height": null, "height_m": null, "levels": null, "tract_id": "40145030800", "tract_name": "308", "tags": {"building": "yes"}}}, {"type": "Feature", "geometry": {"type": "Polygon", "coordinates": [[[-95.5821329, 35.9682413], [-95.5821131, 35.9682608], [-95.5821026, 35.9682846], [-95.5821029, 35.9683099], [-95.5821138, 35.9683336], [-95.582134, 35.9683528], [-95.5821612, 35.9683652], [-95.582192, 35.9683694], [-95.5822227, 35.9683648], [-95.5822496, 35.968352], [-95.5822695, 35.9683325], [-95.5822799, 35.9683087], [-95.5822797, 35.9682835], [-95.5822688, 35.9682598], [-95.5822485, 35.9682406], [-95.5822213, 35.9682281], [-95.5821905, 35.9682239], [-95.5821598, 35.9682285], [-95.5821329, 35.9682413]]]}, "properties": {"osm_id": 1417728934, "building": "yes", "name": "", "height": null, "height_m": null, "levels": null, "tract_id": "40145030800", "tract_name": "308", "tags": {"building": "yes"}}}]}