{"type": "FeatureCollection", "features": [{"type": "Feature", "geometry": {"type": "Polygon", "coordinates": [[[-101.4824025, 36.6772665], [-101.4823561, 36.6773703], [-101.4824629, 36.677401], [-101.4825847, 36.677372], [-101.482546, 36.6772676], [-101.4826536, 36.6772689], [-101.4826555, 36.6771658], [-101.4823173, 36.6771616], [-101.4823153, 36.6772655], [-101.4824025, 36.6772665]]]}, "properties": {"osm_id": 348026123, "building": "yes", "name": "Seafood & Taco Shop", "height": null, "height_m": null, "levels": null, "tract_id": "40139950800", "tract_name": "9508", "tags": {"addr:city": "Guymon", "addr:housenumber": "119", "addr:postcode": "73942", "addr:state": "OK", "addr:street": "Southwest 2nd Street", "amenity": "restaurant", "building": "yes", "name": "Seafood & Taco Shop", "phone": "(580) 468-5800"}}}, {"type": "Feature", "geometry": {"type": "Polygon", "coordinates": [[[-101.4805783, 36.6819226], [-101.4805791, 36.6820622], [-101.4806665, 36.6820613], [-101.4806652, 36.6819769], [-101.4806326, 36.6819772], [-101.4806317, 36.681922], [-101.4805783, 36.6819226]]]}, "properties": {"osm_id": 348028800, "building": "yes", "name": "", "height": null, "height_m": null, "levels": null, "tract_id": "40139950800", "tract_name": "9508", "tags": {"building": "yes"}}}, {"type": "Feature", "geometry": {"type": "Polygon", "coordinates": [[[-101.4805791, 36.6820622], [-101.4805783, 36.6819226], [-101.4804126, 36.6819243], [-101.4804187, 36.6823101], [-101.480583, 36.6823085], [-101.4805791, 36.6820622]]]}, "properties": {"osm_id": 348028802, "building": "yes", "name": "Guymon Glass Co", "height": null, "height_m": null, "levels": null, "tract_id": "40139950800", "tract_name": "9508", "tags": {"addr:city": "Guymon", "addr:housenumber": "124", "addr:postcode": "73942", "addr:state": "OK", "addr:street": "Northeast 4th Street", "building": "yes", "name": "Guymon Glass Co", "phone": "(580) 338-8188", "shop": "car_repair"}}}, {"type": "Feature", "geometry": {"type": "Polygon", "coordinates": [[[-101.481447, 36.6820022], [-101.4809685, 36.6820046], [-101.4809691, 36.6819292], [-101.4814468, 36.6819273], [-101.481447, 36.6820022]]]}, "properties": {"osm_id": 348030078, "building": "yes", "name": "Sun Loan Company", "height": null, "height_m": null, "levels": null, "tract_id": "40139950800", "tract_name": "9508", "tags": {"addr:city": "Guymon", "addr:housenumber": "401", "addr:postcode": "73942", "addr:state": "OK", "addr:street": "North Main Street", "building": "yes", "name": "Sun Loan Company", "office": "financial", "phone": "(580) 338-6151", "website": "https://sunloan.com/"}}}, {"type": "Feature", "geometry": {"type": "Polygon", "coordinates": [[[-101.4814498, 36.6822684], [-101.4810528, 36.6822701], [-101.4810523, 36.6822006], [-101.4814486, 36.6821986], [-101.4814498, 36.6822684]]]}, "properties": {"osm_id": 348031314, "building": "yes", "name": "", "height": null, "height_m": null, "levels": null, "tract_id": "40139950800", "tract_name": "9508", "tags": {"building": "yes"}}}, {"type": "Feature", "geometry": {"type": "Polygon", "coordinates": [[[-101.4814498, 36.6822684], [-101.4814492, 36.6824016], [-101.4809864, 36.6824019], [-101.4809711, 36.6824028], [-101.4809701, 36.6822705], [-101.4810528, 36.6822701], [-101.4814498, 36.6822684]]]}, "properties": {"osm_id": 348031316, "building": "yes", "name": "Guymon Community Theatre", "height": null, "height_m": null, "levels": null, "tract_id": "40139950800", "tract_name": "9508", "tags": {"addr:city": "Guymon", "addr:housenumber": "413", "addr:postcode": "73942", "addr:state": "OK", "addr:street": "North Main Street", "amenity": "theatre", "building": "yes", "name": "Guymon Community Theatre", "phone": "(580) 338-0019", "website": "http://www.guymoncommunitytheatre.org"}}}, {"type": "Feature", "geometry": {"type": "Polygon", "coordinates": [[[-101.4806147, 36.6829555], [-101.4806185, 36.6833502], [-101.4804106, 36.6833514], [-101.4804069, 36.6829567], [-101.4806147, 36.6829555]]]}, "properties": {"osm_id": 348031711, "building": "yes", "name": "Pub On the Bricks", "height": null, "height_m": null, "levels": null, "tract_id": "40139950800", "tract_name": "9508", "tags": {"amenity": "pub", "building": "yes", "name": "Pub On the Bricks", "phone": "(580) 338-3463", "source": "https://www.facebook.com/pages/The-Pub-On-The-Bricks/271926599503515?fref=ts"}}}, {"type": "Feature", "geometry": {"type": "Polygon", "coordinates": [[[-101.4812809, 36.6836413], [-101.4810712, 36.6836428], [-101.4810717, 36.6837244], [-101.4811781, 36.683724], [-101.4812157, 36.683696], [-101.4812817, 36.6836954], [-101.4812809, 36.6836413]]]}, "properties": {"osm_id": 348032594, "building": "yes", "name": "Conoco", "height": null, "height_m": null, "levels": null, "tract_id": "40139950800", "tract_name": "9508", "tags": {"addr:city": "Guymon", "addr:housenumber": "523", "addr:postcode": "73942", "addr:state": "OK", "addr:street": "North Main Street", "amenity": "fuel", "brand": "Conoco", "brand:wikidata": "Q109341187", "building": "yes", "name": "Conoco", "phone": "(580) 338-3599"}}}, {"type": "Feature", "geometry": {"type": "Polygon", "coordinates": [[[-101.4811936, 36.6831584], [-101.4814482, 36.6831578], [-101.4814474, 36.6830902], [-101.4809627, 36.6830907], [-101.4809629, 36.6831588], [-101.4811936, 36.6831584]]]}, "properties": {"osm_id": 348033338, "building": "yes", "name": "Zak's Cheese", "height": null, "height_m": null, "levels": null, "tract_id": "40139950800", "tract_name": "9508", "tags": {"addr:city": "Guymon", "addr:housenumber": "505", "addr:postcode": "73942", "addr:state": "OK", "addr:street": "North Main Street", "building": "yes", "name": "Zak's Cheese", "opening_hours": "Mo-Sa 10:00-18:00", "phone": "(580) 338-5155", "shop": "deli", "website": "http://www.zakscheese.com"}}}, {"type": "Feature", "geometry": {"type": "Polygon", "coordinates": [[[-101.481449, 36.6832275], [-101.4811938, 36.6832285], [-101.4811936, 36.6831584], [-101.4814482, 36.6831578], [-101.481449, 36.6832275]]]}, "properties": {"osm_id": 348033543, "building": "yes", "name": "Mitre Box Frame Shop", "height": null, "height_m": null, "levels": null, "tract_id": "40139950800", "tract_name": "9508", "tags": {"addr:city": "Guymon", "addr:housenumber": "507", "addr:postcode": "73942", "addr:state": "OK", "addr:street": "North Main Street", "building": "yes", "name": "Mitre Box Frame Shop", "phone": "(580) 338-2319", "shop": "frame"}}}, {"type": "Feature", "geometry": {"type": "Polygon", "coordinates": [[[-101.481037, 36.6835128], [-101.4814525, 36.6835103], [-101.4814541, 36.6836397], [-101.4810378, 36.6836429], [-101.481037, 36.6835128]]]}, "properties": {"osm_id": 348033822, "building": "yes", "name": "", "height": null, "height_m": null, "levels": null, "tract_id": "40139950800", "tract_name": "9508", "tags": {"building": "yes"}}}, {"type": "Feature", "geometry": {"type": "Polygon", "coordinates": [[[-101.4810963, 36.6833687], [-101.4814507, 36.6833666], [-101.4814525, 36.6835103], [-101.4809517, 36.6835131], [-101.4809508, 36.6833693], [-101.4810963, 36.6833687]]]}, "properties": {"osm_id": 348033823, "building": "yes", "name": "Panhandle Furniture Co", "height": null, "height_m": null, "levels": null, "tract_id": "40139950800", "tract_name": "9508", "tags": {"addr:city": "Guymon", "addr:housenumber": "515", "addr:postcode": "73942", "addr:state": "OK", "addr:street": "North Main Street", "building": "yes", "name": "Panhandle Furniture Co", "phone": "(580) 338-3114", "shop": "furniture"}}}, {"type": "Feature", "geometry": {"type": "Polygon", "coordinates": [[[-101.4811943, 36.6833022], [-101.4814499, 36.6833011], [-101.481449, 36.6832275], [-101.4811938, 36.6832285], [-101.4811943, 36.6833022]]]}, "properties": {"osm_id": 348033824, "building": "yes", "name": "Western-Shamrock Finance", "height": null, "height_m": null, "levels": null, "tract_id": "40139950800", "tract_name": "9508", "tags": {"addr:city": "Guymon", "addr:housenumber": "509", "addr:postcode": "73942", "addr:state": "OK", "addr:street": "North Main Street", "building": "yes", "name": "Western-Shamrock Finance", "office": "financial", "phone": "(580) 338-6800", "website": "https://westernshamrock.com/"}}}, {"type": "Feature", "geometry": {"type": "Polygon", "coordinates": [[[-101.4813964, 36.6837173], [-101.4813576, 36.6837495], [-101.4813798, 36.6837667], [-101.4814186, 36.6837345], [-101.4813964, 36.6837173]]]}, "properties": {"osm_id": 348033943, "building": "yes", "name": "", "height": null, "height_m": null, "levels": null, "tract_id": "40139950800", "tract_name": "9508", "tags": {"building": "yes"}}}, {"type": "Feature", "geometry": {"type": "Polygon", "coordinates": [[[-101.4693839, 36.6837227], [-101.4696334, 36.6833224], [-101.4693873, 36.6832374], [-101.469148, 36.6836267], [-101.4693839, 36.6837227]]]}, "properties": {"osm_id": 400573827, "building": "yes", "name": "", "height": null, "height_m": null, "levels": null, "tract_id": "40139950800", "tract_name": "9508", "tags": {"brand": "Quality Inn", "brand:wikidata": "Q113152195", "building": "yes", "tourism": "hotel"}}}, {"type": "Feature", "geometry": {"type": "Polygon", "coordinates": [[[-101.475724, 36.6892891], [-101.4757231, 36.6893761], [-101.4755608, 36.6893751], [-101.4755617, 36.689288], [-101.475724, 36.6892891]]]}, "properties": {"osm_id": 578701282, "building": "yes", "name": "Johnson Chiropractic", "height": null, "height_m": null, "levels": null, "tract_id": "40139950800", "tract_name": "9508", "tags": {"addr:housenumber": "517", "addr:street": "Northeast 12th Street", "building": "yes", "check_date": "2023-12-11", "healthcare": "alternative", "healthcare:speciality": "chiropractic", "name": "Johnson Chiropractic", "opening_hours": "Mo,We-Th 08:30-17:30; Tu,Fr-Su off", "phone": "+1 580-338-2070", "website": "https://www.johnsonchiropractic.org/"}}}, {"type": "Feature", "geometry": {"type": "Polygon", "coordinates": [[[-101.4751402, 36.6837773], [-101.4747886, 36.6837712], [-101.4747932, 36.6835991], [-101.4751448, 36.6836051], [-101.4751402, 36.6837773]]]}, "properties": {"osm_id": 578701285, "building": "yes", "name": "Panhandle Drug Collection Center", "height": null, "height_m": null, "levels": null, "tract_id": "40139950800", "tract_name": "9508", "tags": {"addr:housenumber": "520", "addr:street": "North East Street", "building": "yes", "healthcare": "laboratory", "name": "Panhandle Drug Collection Center"}}}, {"type": "Feature", "geometry": {"type": "Polygon", "coordinates": [[[-101.4751567, 36.6780287], [-101.474981, 36.6780287], [-101.474981, 36.6779416], [-101.4751567, 36.6779416], [-101.4751567, 36.6780287]]]}, "properties": {"osm_id": 578701286, "building": "yes", "name": "Traders Pawn", "height": null, "height_m": null, "levels": null, "tract_id": "40139950800", "tract_name": "9508", "tags": {"addr:housenumber": "520", "addr:street": "Northeast Highway 54", "building": "yes", "name": "Traders Pawn", "shop": "pawnbroker"}}}, {"type": "Feature", "geometry": {"type": "Polygon", "coordinates": [[[-101.4781702, 36.6815371], [-101.4778617, 36.6815393], [-101.477858, 36.6811995], [-101.4781665, 36.6811973], [-101.4781702, 36.6815371]]]}, "properties": {"osm_id": 578701294, "building": "yes", "name": "", "height": null, "height_m": null, "levels": null, "tract_id": "40139950800", "tract_name": "9508", "tags": {"addr:housenumber": "315", "addr:street": "Northeast 4th Street", "building": "yes"}}}, {"type": "Feature", "geometry": {"type": "Polygon", "coordinates": [[[-101.4690721, 36.6872694], [-101.4689327, 36.6874824], [-101.4683832, 36.6872509], [-101.4685227, 36.687038], [-101.4690721, 36.6872694]]]}, "properties": {"osm_id": 578701295, "building": "office", "name": "", "height": null, "height_m": null, "levels": null, "tract_id": "40139950800", "tract_name": "9508", "tags": {"building": "office"}}}, {"type": "Feature", "geometry": {"type": "Polygon", "coordinates": [[[-101.4697695, 36.6850594], [-101.4696553, 36.6852276], [-101.4694534, 36.6851394], [-101.4694981, 36.6850735], [-101.4694635, 36.6850584], [-101.4694874, 36.6850233], [-101.4695089, 36.6850327], [-101.4695545, 36.6849655], [-101.4697695, 36.6850594]]]}, "properties": {"osm_id": 578701299, "building": "yes", "name": "AutoZone", "height": null, "height_m": null, "levels": null, "tract_id": "40139950800", "tract_name": "9508", "tags": {"addr:housenumber": "602", "addr:street": "Northeast Highway 54", "brand": "AutoZone", "brand:wikidata": "Q4826087", "building": "yes", "name": "AutoZone", "shop": "car_parts", "website": "https://www.autozone.com/locations/ok/guymon/602-ne-hwy-54.html"}}}, {"type": "Feature", "geometry": {"type": "Polygon", "coordinates": [[[-101.4814479, 36.6809254], [-101.481448, 36.680997], [-101.4813945, 36.6809971], [-101.4813946, 36.6810703], [-101.4813517, 36.6810704], [-101.4813519, 36.6811695], [-101.4809957, 36.68117], [-101.4809956, 36.6811272], [-101.4809628, 36.6811273], [-101.4809628, 36.6810875], [-101.4810941, 36.6810873], [-101.481094, 36.6810551], [-101.4811743, 36.681055], [-101.4811741, 36.6809257], [-101.4814479, 36.6809254]]]}, "properties": {"osm_id": 578701300, "building": "yes", "name": "", "height": null, "height_m": null, "levels": null, "tract_id": "40139950800", "tract_name": "9508", "tags": {"addr:housenumber": "301", "addr:street": "North Main Street", "building": "yes"}}}, {"type": "Feature", "geometry": {"type": "Polygon", "coordinates": [[[-101.4812574, 36.6892977], [-101.4811045, 36.6892977], [-101.4811045, 36.6890385], [-101.4812574, 36.6890385], [-101.4812574, 36.6892977]]]}, "properties": {"osm_id": 579442118, "building": "retail", "name": "", "height": null, "height_m": null, "levels": null, "tract_id": "40139950800", "tract_name": "9508", "tags": {"building": "retail"}}}, {"type": "Feature", "geometry": {"type": "Polygon", "coordinates": [[[-101.4813808, 36.68933], [-101.4812976, 36.68933], [-101.4812976, 36.6891644], [-101.4813808, 36.6891644], [-101.4813808, 36.68933]]]}, "properties": {"osm_id": 579442119, "building": "retail", "name": "", "height": null, "height_m": null, "levels": null, "tract_id": "40139950800", "tract_name": "9508", "tags": {"building": "retail"}}}, {"type": "Feature", "geometry": {"type": "Polygon", "coordinates": [[[-101.482168, 36.689217], [-101.481991, 36.689217], [-101.481991, 36.6891299], [-101.482168, 36.6891299], [-101.482168, 36.689217]]]}, "properties": {"osm_id": 579442120, "building": "yes", "name": "", "height": null, "height_m": null, "levels": null, "tract_id": "40139950800", "tract_name": "9508", "tags": {"building": "yes"}}}, {"type": "Feature", "geometry": {"type": "Polygon", "coordinates": [[[-101.4819279, 36.6891751], [-101.4817697, 36.6891751], [-101.4817697, 36.6890654], [-101.4819279, 36.6890654], [-101.4819279, 36.6891751]]]}, "properties": {"osm_id": 579442121, "building": "yes", "name": "", "height": null, "height_m": null, "levels": null, "tract_id": "40139950800", "tract_name": "9508", "tags": {"building": "yes"}}}, {"type": "Feature", "geometry": {"type": "Polygon", "coordinates": [[[-101.4820084, 36.6887987], [-101.4818099, 36.6887987], [-101.4818099, 36.6887019], [-101.4820084, 36.6887019], [-101.4820084, 36.6887987]]]}, "properties": {"osm_id": 579442122, "building": "yes", "name": "", "height": null, "height_m": null, "levels": null, "tract_id": "40139950800", "tract_name": "9508", "tags": {"building": "yes"}}}, {"type": "Feature", "geometry": {"type": "Polygon", "coordinates": [[[-101.4810321, 36.6888116], [-101.4810321, 36.688732], [-101.481126, 36.688732], [-101.481126, 36.6886675], [-101.4813781, 36.6886675], [-101.4813781, 36.6887476], [-101.4813412, 36.6887476], [-101.4813412, 36.6887901], [-101.4812467, 36.6887901], [-101.4812467, 36.6888116], [-101.4810321, 36.6888116]]]}, "properties": {"osm_id": 579442123, "building": "detached", "name": "", "height": null, "height_m": null, "levels": null, "tract_id": "40139950800", "tract_name": "9508", "tags": {"building": "detached"}}}, {"type": "Feature", "geometry": {"type": "Polygon", "coordinates": [[[-101.481421, 36.6885191], [-101.4812171, 36.6885126], [-101.4812207, 36.6884401], [-101.4814246, 36.6884465], [-101.481421, 36.6885191]]]}, "properties": {"osm_id": 579442124, "building": "yes", "name": "", "height": null, "height_m": null, "levels": null, "tract_id": "40139950800", "tract_name": "9508", "tags": {"building": "yes"}}}, {"type": "Feature", "geometry": {"type": "Polygon", "coordinates": [[[-101.481362, 36.6881083], [-101.4811555, 36.6881083], [-101.4811555, 36.6880072], [-101.481362, 36.6880072], [-101.481362, 36.6881083]]]}, "properties": {"osm_id": 579442125, "building": "yes", "name": "", "height": null, "height_m": null, "levels": null, "tract_id": "40139950800", "tract_name": "9508", "tags": {"building": "yes"}}}, {"type": "Feature", "geometry": {"type": "Polygon", "coordinates": [[[-101.4820191, 36.6884116], [-101.4817885, 36.6884116], [-101.4817885, 36.6883062], [-101.4820191, 36.6883062], [-101.4820191, 36.6884116]]]}, "properties": {"osm_id": 579442126, "building": "yes", "name": "", "height": null, "height_m": null, "levels": null, "tract_id": "40139950800", "tract_name": "9508", "tags": {"building": "yes"}}}, {"type": "Feature", "geometry": {"type": "Polygon", "coordinates": [[[-101.4820513, 36.6882524], [-101.4818126, 36.6882545], [-101.4818115, 36.6881729], [-101.4820502, 36.6881707], [-101.4820513, 36.6882524]]]}, "properties": {"osm_id": 579442127, "building": "yes", "name": "", "height": null, "height_m": null, "levels": null, "tract_id": "40139950800", "tract_name": "9508", "tags": {"building": "yes"}}}, {"type": "Feature", "geometry": {"type": "Polygon", "coordinates": [[[-101.4827138, 36.6882115], [-101.4822364, 36.6882137], [-101.4822353, 36.6880524], [-101.4827127, 36.6880502], [-101.4827138, 36.6882115]]]}, "properties": {"osm_id": 579442128, "building": "yes", "name": "", "height": null, "height_m": null, "levels": null, "tract_id": "40139950800", "tract_name": "9508", "tags": {"building": "yes"}}}, {"type": "Feature", "geometry": {"type": "Polygon", "coordinates": [[[-101.4820647, 36.6881083], [-101.4817858, 36.6880997], [-101.4817912, 36.6879864], [-101.4820702, 36.687995], [-101.4820647, 36.6881083]]]}, "properties": {"osm_id": 579442129, "building": "yes", "name": "", "height": null, "height_m": null, "levels": null, "tract_id": "40139950800", "tract_name": "9508", "tags": {"building": "yes"}}}, {"type": "Feature", "geometry": {"type": "Polygon", "coordinates": [[[-101.4810401, 36.6875663], [-101.4809707, 36.687568], [-101.480968, 36.6874992], [-101.4810374, 36.6874974], [-101.4810401, 36.6875663]]]}, "properties": {"osm_id": 579442130, "building": "yes", "name": "", "height": null, "height_m": null, "levels": null, "tract_id": "40139950800", "tract_name": "9508", "tags": {"building": "yes"}}}, {"type": "Feature", "geometry": {"type": "Polygon", "coordinates": [[[-101.4813754, 36.6870931], [-101.4812292, 36.6870931], [-101.4812292, 36.687014], [-101.4813754, 36.687014], [-101.4813754, 36.6870931]]]}, "properties": {"osm_id": 579442131, "building": "yes", "name": "", "height": null, "height_m": null, "levels": null, "tract_id": "40139950800", "tract_name": "9508", "tags": {"building": "yes"}}}, {"type": "Feature", "geometry": {"type": "Polygon", "coordinates": [[[-101.4813767, 36.6872334], [-101.4811206, 36.6872334], [-101.4811206, 36.6871646], [-101.4812312, 36.6871646], [-101.4812312, 36.6871345], [-101.4813124, 36.6871345], [-101.4813124, 36.6871554], [-101.4813767, 36.6871554], [-101.4813767, 36.6872334]]]}, "properties": {"osm_id": 579442132, "building": "yes", "name": "", "height": null, "height_m": null, "levels": null, "tract_id": "40139950800", "tract_name": "9508", "tags": {"building": "yes"}}}, {"type": "Feature", "geometry": {"type": "Polygon", "coordinates": [[[-101.4810643, 36.6875856], [-101.4812495, 36.6875838], [-101.4812522, 36.6877602], [-101.4810669, 36.687762], [-101.4810643, 36.6875856]]]}, "properties": {"osm_id": 579442133, "building": "yes", "name": "", "height": null, "height_m": null, "levels": null, "tract_id": "40139950800", "tract_name": "9508", "tags": {"building": "yes"}}}, {"type": "Feature", "geometry": {"type": "Polygon", "coordinates": [[[-101.481936, 36.686564], [-101.4818126, 36.686564], [-101.4818126, 36.6864672], [-101.481936, 36.6864672], [-101.481936, 36.686564]]]}, "properties": {"osm_id": 579442135, "building": "yes", "name": "", "height": null, "height_m": null, "levels": null, "tract_id": "40139950800", "tract_name": "9508", "tags": {"building": "yes"}}}, {"type": "Feature", "geometry": {"type": "Polygon", "coordinates": [[[-101.4819789, 36.6866973], [-101.4818421, 36.6866973], [-101.4818421, 36.6866134], [-101.4819789, 36.6866134], [-101.4819789, 36.6866973]]]}, "properties": {"osm_id": 579442136, "building": "yes", "name": "", "height": null, "height_m": null, "levels": null, "tract_id": "40139950800", "tract_name": "9508", "tags": {"building": "yes"}}}, {"type": "Feature", "geometry": {"type": "Polygon", "coordinates": [[[-101.4818931, 36.6863682], [-101.4817885, 36.6863661], [-101.4817919, 36.686259], [-101.4818965, 36.6862612], [-101.4818931, 36.6863682]]]}, "properties": {"osm_id": 579442137, "building": "yes", "name": "", "height": null, "height_m": null, "levels": null, "tract_id": "40139950800", "tract_name": "9508", "tags": {"building": "yes"}}}, {"type": "Feature", "geometry": {"type": "Polygon", "coordinates": [[[-101.481071, 36.6863774], [-101.4809952, 36.6863774], [-101.4809952, 36.6863526], [-101.481071, 36.6863526], [-101.481071, 36.6863774]]]}, "properties": {"osm_id": 579442138, "building": "yes", "name": "", "height": null, "height_m": null, "levels": null, "tract_id": "40139950800", "tract_name": "9508", "tags": {"building": "yes"}}}, {"type": "Feature", "geometry": {"type": "Polygon", "coordinates": [[[-101.4811823, 36.6863876], [-101.4811011, 36.6863876], [-101.4811011, 36.6863413], [-101.4811823, 36.6863413], [-101.4811823, 36.6863876]]]}, "properties": {"osm_id": 579442139, "building": "yes", "name": "", "height": null, "height_m": null, "levels": null, "tract_id": "40139950800", "tract_name": "9508", "tags": {"building": "yes"}}}, {"type": "Feature", "geometry": {"type": "Polygon", "coordinates": [[[-101.4810964, 36.686437], [-101.4810321, 36.686437], [-101.4810321, 36.6863833], [-101.4810964, 36.6863833], [-101.4810964, 36.686437]]]}, "properties": {"osm_id": 579442140, "building": "yes", "name": "", "height": null, "height_m": null, "levels": null, "tract_id": "40139950800", "tract_name": "9508", "tags": {"building": "yes"}}}, {"type": "Feature", "geometry": {"type": "Polygon", "coordinates": [[[-101.4813459, 36.6867038], [-101.4811798, 36.6867056], [-101.4811772, 36.6865486], [-101.4813432, 36.6865467], [-101.4813459, 36.6867038]]]}, "properties": {"osm_id": 579442141, "building": "yes", "name": "", "height": null, "height_m": null, "levels": null, "tract_id": "40139950800", "tract_name": "9508", "tags": {"building": "yes"}}}, {"type": "Feature", "geometry": {"type": "Polygon", "coordinates": [[[-101.4813539, 36.6864973], [-101.4811827, 36.6865013], [-101.4811801, 36.6864282], [-101.4813513, 36.6864241], [-101.4813539, 36.6864973]]]}, "properties": {"osm_id": 579442142, "building": "yes", "name": "", "height": null, "height_m": null, "levels": null, "tract_id": "40139950800", "tract_name": "9508", "tags": {"building": "yes"}}}, {"type": "Feature", "geometry": {"type": "Polygon", "coordinates": [[[-101.48137, 36.6863058], [-101.48137, 36.6863833], [-101.4812279, 36.6863833], [-101.4812279, 36.6863058], [-101.48137, 36.6863058]]]}, "properties": {"osm_id": 579442143, "building": "yes", "name": "", "height": null, "height_m": null, "levels": null, "tract_id": "40139950800", "tract_name": "9508", "tags": {"building": "yes"}}}, {"type": "Feature", "geometry": {"type": "Polygon", "coordinates": [[[-101.4813751, 36.6861911], [-101.4812514, 36.6861911], [-101.4812514, 36.6861288], [-101.4813751, 36.6861288], [-101.4813751, 36.6861911]]]}, "properties": {"osm_id": 579442144, "building": "yes", "name": "", "height": null, "height_m": null, "levels": null, "tract_id": "40139950800", "tract_name": "9508", "tags": {"building": "yes"}}}, {"type": "Feature", "geometry": {"type": "Polygon", "coordinates": [[[-101.4820084, 36.6856756], [-101.4817777, 36.6856756], [-101.4817777, 36.6855917], [-101.4820084, 36.6855917], [-101.4820084, 36.6856756]]]}, "properties": {"osm_id": 579442145, "building": "yes", "name": "", "height": null, "height_m": null, "levels": null, "tract_id": "40139950800", "tract_name": "9508", "tags": {"building": "yes"}}}, {"type": "Feature", "geometry": {"type": "Polygon", "coordinates": [[[-101.4817724, 36.6854476], [-101.4820618, 36.6854533], [-101.4820591, 36.6855415], [-101.4817697, 36.6855358], [-101.4817724, 36.6854476]]]}, "properties": {"osm_id": 579442146, "building": "yes", "name": "", "height": null, "height_m": null, "levels": null, "tract_id": "40139950800", "tract_name": "9508", "tags": {"building": "yes"}}}, {"type": "Feature", "geometry": {"type": "Polygon", "coordinates": [[[-101.4814478, 36.6857509], [-101.4809597, 36.6857488], [-101.4809646, 36.685024], [-101.4814528, 36.6850261], [-101.4814485, 36.6856562], [-101.4814478, 36.6857509]]]}, "properties": {"osm_id": 579442147, "building": "yes", "name": "", "height": null, "height_m": null, "levels": null, "tract_id": "40139950800", "tract_name": "9508", "tags": {"building": "yes"}}}, {"type": "Feature", "geometry": {"type": "Polygon", "coordinates": [[[-101.4827111, 36.6857079], [-101.4823554, 36.6857096], [-101.4823544, 36.6855831], [-101.4827102, 36.6855814], [-101.4827111, 36.6857079]]]}, "properties": {"osm_id": 579442148, "building": "yes", "name": "", "height": null, "height_m": null, "levels": null, "tract_id": "40139950800", "tract_name": "9508", "tags": {"building": "yes"}}}, {"type": "Feature", "geometry": {"type": "Polygon", "coordinates": [[[-101.4821345, 36.6853014], [-101.4819561, 36.6853022], [-101.4819548, 36.685125], [-101.4821331, 36.6851241], [-101.4821345, 36.6853014]]]}, "properties": {"osm_id": 579442149, "building": "yes", "name": "", "height": null, "height_m": null, "levels": null, "tract_id": "40139950800", "tract_name": "9508", "tags": {"building": "yes"}}}, {"type": "Feature", "geometry": {"type": "Polygon", "coordinates": [[[-101.4807344, 36.6841226], [-101.480373, 36.6841244], [-101.4803723, 36.684028], [-101.4807336, 36.6840262], [-101.4807344, 36.6841226]]]}, "properties": {"osm_id": 579442150, "building": "yes", "name": "", "height": null, "height_m": null, "levels": null, "tract_id": "40139950800", "tract_name": "9508", "tags": {"building": "yes"}}}, {"type": "Feature", "geometry": {"type": "Polygon", "coordinates": [[[-101.4806297, 36.6845184], [-101.4804346, 36.6845194], [-101.4804339, 36.6844281], [-101.4806291, 36.6844271], [-101.4806297, 36.6845184]]]}, "properties": {"osm_id": 579442151, "building": "yes", "name": "", "height": null, "height_m": null, "levels": null, "tract_id": "40139950800", "tract_name": "9508", "tags": {"building": "yes"}}}, {"type": "Feature", "geometry": {"type": "Polygon", "coordinates": [[[-101.4806378, 36.6846539], [-101.4804267, 36.684655], [-101.4804259, 36.684555], [-101.480637, 36.6845539], [-101.4806378, 36.6846539]]]}, "properties": {"osm_id": 579442152, "building": "yes", "name": "", "height": null, "height_m": null, "levels": null, "tract_id": "40139950800", "tract_name": "9508", "tags": {"building": "yes"}}}, {"type": "Feature", "geometry": {"type": "Polygon", "coordinates": [[[-101.4806432, 36.6847916], [-101.4804668, 36.6847924], [-101.4804661, 36.6847034], [-101.4806425, 36.6847025], [-101.4806432, 36.6847916]]]}, "properties": {"osm_id": 579442153, "building": "yes", "name": "", "height": null, "height_m": null, "levels": null, "tract_id": "40139950800", "tract_name": "9508", "tags": {"building": "yes"}}}, {"type": "Feature", "geometry": {"type": "Polygon", "coordinates": [[[-101.4814604, 36.6848346], [-101.4809427, 36.6848371], [-101.4809408, 36.6845811], [-101.4810764, 36.6845804], [-101.4810755, 36.6844618], [-101.4814575, 36.6844599], [-101.4814604, 36.6848346]]]}, "properties": {"osm_id": 579442154, "building": "yes", "name": "", "height": null, "height_m": null, "levels": null, "tract_id": "40139950800", "tract_name": "9508", "tags": {"building": "yes"}}}, {"type": "Feature", "geometry": {"type": "Polygon", "coordinates": [[[-101.4820118, 36.6847331], [-101.4818361, 36.6847323], [-101.4818367, 36.6846515], [-101.4820124, 36.6846523], [-101.4820118, 36.6847331]]]}, "properties": {"osm_id": 579442155, "building": "yes", "name": "", "height": null, "height_m": null, "levels": null, "tract_id": "40139950800", "tract_name": "9508", "tags": {"building": "yes"}}}, {"type": "Feature", "geometry": {"type": "Polygon", "coordinates": [[[-101.4820869, 36.6846331], [-101.4817114, 36.6846313], [-101.4817124, 36.6844899], [-101.482088, 36.6844917], [-101.4820869, 36.6846331]]]}, "properties": {"osm_id": 579442156, "building": "yes", "name": "", "height": null, "height_m": null, "levels": null, "tract_id": "40139950800", "tract_name": "9508", "tags": {"building": "yes"}}}, {"type": "Feature", "geometry": {"type": "Polygon", "coordinates": [[[-101.4827842, 36.6842369], [-101.4822666, 36.6842369], [-101.4822666, 36.6839917], [-101.4827842, 36.6839917], [-101.4827842, 36.6842369]]]}, "properties": {"osm_id": 579442157, "building": "yes", "name": "", "height": null, "height_m": null, "levels": null, "tract_id": "40139950800", "tract_name": "9508", "tags": {"building": "yes"}}}, {"type": "Feature", "geometry": {"type": "Polygon", "coordinates": [[[-101.4814394, 36.6843704], [-101.4811739, 36.6843704], [-101.4811739, 36.6840348], [-101.4814394, 36.6840348], [-101.4814394, 36.6843704]]]}, "properties": {"osm_id": 579442158, "building": "yes", "name": "", "height": null, "height_m": null, "levels": null, "tract_id": "40139950800", "tract_name": "9508", "tags": {"building": "yes"}}}, {"type": "Feature", "geometry": {"type": "Polygon", "coordinates": [[[-101.4819814, 36.6842327], [-101.4817159, 36.6842327], [-101.4817159, 36.6840025], [-101.4819814, 36.6840025], [-101.4819814, 36.6842327]]]}, "properties": {"osm_id": 579442159, "building": "yes", "name": "", "height": null, "height_m": null, "levels": null, "tract_id": "40139950800", "tract_name": "9508", "tags": {"building": "yes"}}}, {"type": "Feature", "geometry": {"type": "Polygon", "coordinates": [[[-101.482743, 36.6833685], [-101.4823889, 36.6833685], [-101.4823889, 36.6832093], [-101.4823467, 36.6832093], [-101.4823467, 36.6831684], [-101.4823138, 36.6831684], [-101.4823138, 36.6831168], [-101.4822495, 36.6831168], [-101.4822495, 36.6829662], [-101.4824184, 36.6829662], [-101.4824184, 36.6830222], [-101.4825713, 36.6830222], [-101.4825713, 36.6829662], [-101.482743, 36.6829662], [-101.482743, 36.6833685]]]}, "properties": {"osm_id": 579442160, "building": "yes", "name": "", "height": null, "height_m": null, "levels": null, "tract_id": "40139950800", "tract_name": "9508", "tags": {"building": "yes"}}}, {"type": "Feature", "geometry": {"type": "Polygon", "coordinates": [[[-101.4826977, 36.6837656], [-101.4824268, 36.6837656], [-101.4824268, 36.6833827], [-101.4825556, 36.6833827], [-101.4825556, 36.6834644], [-101.4826977, 36.6834644], [-101.4826977, 36.6837656]]]}, "properties": {"osm_id": 579442161, "building": "yes", "name": "", "height": null, "height_m": null, "levels": null, "tract_id": "40139950800", "tract_name": "9508", "tags": {"building": "yes"}}}, {"type": "Feature", "geometry": {"type": "Polygon", "coordinates": [[[-101.4822064, 36.6837939], [-101.4817116, 36.6837961], [-101.4817058, 36.6829661], [-101.4822045, 36.6829638], [-101.4822054, 36.6831026], [-101.4821691, 36.6831027], [-101.482171, 36.6833759], [-101.4822035, 36.6833758], [-101.4822064, 36.6837939]]]}, "properties": {"osm_id": 579442162, "building": "yes", "name": "", "height": null, "height_m": null, "levels": null, "tract_id": "40139950800", "tract_name": "9508", "tags": {"building": "yes"}}}, {"type": "Feature", "geometry": {"type": "Polygon", "coordinates": [[[-101.4827259, 36.6800029], [-101.4825553, 36.6800002], [-101.4825579, 36.679891], [-101.4827285, 36.6798936], [-101.4827259, 36.6800029]]]}, "properties": {"osm_id": 579442164, "building": "yes", "name": "", "height": null, "height_m": null, "levels": null, "tract_id": "40139950800", "tract_name": "9508", "tags": {"building": "yes"}}}, {"type": "Feature", "geometry": {"type": "Polygon", "coordinates": [[[-101.4827031, 36.6806165], [-101.482349, 36.6806165], [-101.482349, 36.6801776], [-101.4827031, 36.6801776], [-101.4827031, 36.6806165]]]}, "properties": {"osm_id": 579442165, "building": "yes", "name": "", "height": null, "height_m": null, "levels": null, "tract_id": "40139950800", "tract_name": "9508", "tags": {"building": "yes"}}}, {"type": "Feature", "geometry": {"type": "Polygon", "coordinates": [[[-101.4823081, 36.6806142], [-101.4820629, 36.6806179], [-101.4820676, 36.6803703], [-101.4823143, 36.6803653], [-101.4823081, 36.6806142]]]}, "properties": {"osm_id": 579442166, "building": "yes", "name": "", "height": null, "height_m": null, "levels": null, "tract_id": "40139950800", "tract_name": "9508", "tags": {"building": "yes"}}}, {"type": "Feature", "geometry": {"type": "Polygon", "coordinates": [[[-101.4827031, 36.6816662], [-101.482408, 36.6816662], [-101.482408, 36.6813306], [-101.4827031, 36.6813306], [-101.4827031, 36.6816662]]]}, "properties": {"osm_id": 579442168, "building": "yes", "name": "", "height": null, "height_m": null, "levels": null, "tract_id": "40139950800", "tract_name": "9508", "tags": {"building": "yes"}}}, {"type": "Feature", "geometry": {"type": "Polygon", "coordinates": [[[-101.4822257, 36.6814145], [-101.4822257, 36.6808499], [-101.4827004, 36.6808499], [-101.4827004, 36.6812876], [-101.4825623, 36.6812876], [-101.4825623, 36.6812586], [-101.4825992, 36.6812586], [-101.4825992, 36.6812376], [-101.4825623, 36.6812376], [-101.4825623, 36.6812155], [-101.4825985, 36.6812155], [-101.4825985, 36.6811827], [-101.4825623, 36.6811827], [-101.4825623, 36.6811542], [-101.4825261, 36.6811542], [-101.4825261, 36.6810435], [-101.4823142, 36.6810435], [-101.4823142, 36.6814145], [-101.4822257, 36.6814145]]]}, "properties": {"osm_id": 579442169, "building": "yes", "name": "", "height": null, "height_m": null, "levels": null, "tract_id": "40139950800", "tract_name": "9508", "tags": {"building": "yes"}}}, {"type": "Feature", "geometry": {"type": "Polygon", "coordinates": [[[-101.4823437, 36.6816834], [-101.4822292, 36.6816829], [-101.482231, 36.6814274], [-101.4823455, 36.6814279], [-101.4823437, 36.6816834]]]}, "properties": {"osm_id": 579442170, "building": "yes", "name": "", "height": null, "height_m": null, "levels": null, "tract_id": "40139950800", "tract_name": "9508", "tags": {"building": "yes"}}}, {"type": "Feature", "geometry": {"type": "Polygon", "coordinates": [[[-101.4809061, 36.6823943], [-101.4809047, 36.6825965], [-101.4807748, 36.6825959], [-101.4807738, 36.6827465], [-101.4804045, 36.6827449], [-101.480406, 36.6825337], [-101.4804903, 36.6825341], [-101.4805599, 36.6825344], [-101.4805601, 36.6825127], [-101.4806397, 36.682513], [-101.4806405, 36.6823931], [-101.4809061, 36.6823943]]]}, "properties": {"osm_id": 579442171, "building": "yes", "name": "", "height": null, "height_m": null, "levels": null, "tract_id": "40139950800", "tract_name": "9508", "tags": {"building": "yes"}}}, {"type": "Feature", "geometry": {"type": "Polygon", "coordinates": [[[-101.4824027, 36.6819247], [-101.4824073, 36.6821941], [-101.4824067, 36.6822788], [-101.4822713, 36.6822782], [-101.4822737, 36.6819242], [-101.4824027, 36.6819247]]]}, "properties": {"osm_id": 579442172, "building": "yes", "name": "", "height": null, "height_m": null, "levels": null, "tract_id": "40139950800", "tract_name": "9508", "tags": {"building": "yes"}}}, {"type": "Feature", "geometry": {"type": "Polygon", "coordinates": [[[-101.4827299, 36.6827492], [-101.4825636, 36.6827484], [-101.4825663, 36.6823534], [-101.4827327, 36.6823541], [-101.4827299, 36.6827492]]]}, "properties": {"osm_id": 579442173, "building": "yes", "name": "", "height": null, "height_m": null, "levels": null, "tract_id": "40139950800", "tract_name": "9508", "tags": {"building": "yes"}}}, {"type": "Feature", "geometry": {"type": "Polygon", "coordinates": [[[-101.4822001, 36.6827611], [-101.4817154, 36.6827589], [-101.4817173, 36.6824814], [-101.4820491, 36.6824829], [-101.4822021, 36.6824836], [-101.4822001, 36.6827611]]]}, "properties": {"osm_id": 579442175, "building": "yes", "name": "", "height": null, "height_m": null, "levels": null, "tract_id": "40139950800", "tract_name": "9508", "tags": {"building": "yes"}}}, {"type": "Feature", "geometry": {"type": "Polygon", "coordinates": [[[-101.4821532, 36.6816877], [-101.4816675, 36.6816914], [-101.4816657, 36.6815392], [-101.481665, 36.6814769], [-101.4816624, 36.6812575], [-101.4819333, 36.6812554], [-101.4819347, 36.6813695], [-101.4821494, 36.6813678], [-101.4821508, 36.681479], [-101.4821515, 36.6815414], [-101.4821532, 36.6816877]]]}, "properties": {"osm_id": 579442178, "building": "yes", "name": "", "height": null, "height_m": null, "levels": null, "tract_id": "40139950800", "tract_name": "9508", "tags": {"building": "yes"}}}, {"type": "Feature", "geometry": {"type": "Polygon", "coordinates": [[[-101.481252, 36.6815715], [-101.4809704, 36.6815737], [-101.480968, 36.6813743], [-101.4811103, 36.6813732], [-101.4811098, 36.6813381], [-101.4812492, 36.6813371], [-101.481252, 36.6815715]]]}, "properties": {"osm_id": 579442179, "building": "yes", "name": "Texas County Courthouse", "height": null, "height_m": null, "levels": null, "tract_id": "40139950800", "tract_name": "9508", "tags": {"addr:housenumber": "319", "addr:street": "North Main Street", "amenity": "courthouse", "building": "yes", "name": "Texas County Courthouse"}}}, {"type": "Feature", "geometry": {"type": "Polygon", "coordinates": [[[-101.4665631, 36.6885081], [-101.4663953, 36.6887716], [-101.466262, 36.6887026], [-101.4664236, 36.6884495], [-101.4665631, 36.6885081]]]}, "properties": {"osm_id": 580531676, "building": "yes", "name": "Allsup's", "height": null, "height_m": null, "levels": null, "tract_id": "40139950800", "tract_name": "9508", "tags": {"addr:housenumber": "1015", "addr:street": "East Highway 54", "brand": "Allsup's", "brand:wikidata": "Q4733292", "building": "yes", "name": "Allsup's", "shop": "convenience"}}}, {"type": "Feature", "geometry": {"type": "Polygon", "coordinates": [[[-101.4727137, 36.6892368], [-101.4727197, 36.6886552], [-101.4725012, 36.6886538], [-101.4724953, 36.6892353], [-101.4727137, 36.6892368]]]}, "properties": {"osm_id": 673232377, "building": "yes", "name": "", "height": null, "height_m": null, "levels": null, "tract_id": "40139950800", "tract_name": "9508", "tags": {"building": "yes"}}}, {"type": "Feature", "geometry": {"type": "Polygon", "coordinates": [[[-101.4723129, 36.6890526], [-101.4723095, 36.6889201], [-101.4720029, 36.6889252], [-101.4720063, 36.6890577], [-101.4723129, 36.6890526]]]}, "properties": {"osm_id": 673232378, "building": "yes", "name": "", "height": null, "height_m": null, "levels": null, "tract_id": "40139950800", "tract_name": "9508", "tags": {"building": "yes"}}}, {"type": "Feature", "geometry": {"type": "Polygon", "coordinates": [[[-101.4711227, 36.6891844], [-101.4709609, 36.6891835], [-101.4709624, 36.6890126], [-101.47065, 36.6890108], [-101.470652, 36.6887852], [-101.4712572, 36.6887887], [-101.4712553, 36.689015], [-101.4711242, 36.6890143], [-101.4711227, 36.6891844]]]}, "properties": {"osm_id": 673232379, "building": "yes", "name": "", "height": null, "height_m": null, "levels": null, "tract_id": "40139950800", "tract_name": "9508", "tags": {"building": "yes"}}}, {"type": "Feature", "geometry": {"type": "Polygon", "coordinates": [[[-101.469828, 36.6879425], [-101.469648, 36.6877765], [-101.4694953, 36.687883], [-101.4696753, 36.688049], [-101.469828, 36.6879425]]]}, "properties": {"osm_id": 673232380, "building": "yes", "name": "", "height": null, "height_m": null, "levels": null, "tract_id": "40139950800", "tract_name": "9508", "tags": {"building": "yes"}}}, {"type": "Feature", "geometry": {"type": "Polygon", "coordinates": [[[-101.4694624, 36.6880969], [-101.4693435, 36.6879881], [-101.4691353, 36.6881345], [-101.4692542, 36.6882433], [-101.4694624, 36.6880969]]]}, "properties": {"osm_id": 673232381, "building": "yes", "name": "", "height": null, "height_m": null, "levels": null, "tract_id": "40139950800", "tract_name": "9508", "tags": {"building": "yes"}}}, {"type": "Feature", "geometry": {"type": "Polygon", "coordinates": [[[-101.4674381, 36.6871947], [-101.4674376, 36.6870033], [-101.4668853, 36.6870043], [-101.4668858, 36.6871957], [-101.4674381, 36.6871947]]]}, "properties": {"osm_id": 673232382, "building": "yes", "name": "", "height": null, "height_m": null, "levels": null, "tract_id": "40139950800", "tract_name": "9508", "tags": {"building": "yes"}}}, {"type": "Feature", "geometry": {"type": "Polygon", "coordinates": [[[-101.4673861, 36.6876758], [-101.4673869, 36.6874465], [-101.4664452, 36.6874443], [-101.4664446, 36.6876099], [-101.4672551, 36.6876118], [-101.4672549, 36.6876755], [-101.4673861, 36.6876758]]]}, "properties": {"osm_id": 673232383, "building": "yes", "name": "", "height": null, "height_m": null, "levels": null, "tract_id": "40139950800", "tract_name": "9508", "tags": {"building": "yes"}}}, {"type": "Feature", "geometry": {"type": "Polygon", "coordinates": [[[-101.4667204, 36.6881347], [-101.4667252, 36.6878389], [-101.4665169, 36.6878367], [-101.4665121, 36.6881325], [-101.4667204, 36.6881347]]]}, "properties": {"osm_id": 673232384, "building": "yes", "name": "", "height": null, "height_m": null, "levels": null, "tract_id": "40139950800", "tract_name": "9508", "tags": {"building": "yes"}}}, {"type": "Feature", "geometry": {"type": "Polygon", "coordinates": [[[-101.467385, 36.6868552], [-101.4673883, 36.6867274], [-101.4670481, 36.6867218], [-101.4670448, 36.6868496], [-101.467385, 36.6868552]]]}, "properties": {"osm_id": 673232385, "building": "yes", "name": "", "height": null, "height_m": null, "levels": null, "tract_id": "40139950800", "tract_name": "9508", "tags": {"building": "yes"}}}, {"type": "Feature", "geometry": {"type": "Polygon", "coordinates": [[[-101.467727, 36.6868548], [-101.4677428, 36.6867426], [-101.4675726, 36.6867272], [-101.4675569, 36.6868394], [-101.467727, 36.6868548]]]}, "properties": {"osm_id": 673232386, "building": "yes", "name": "", "height": null, "height_m": null, "levels": null, "tract_id": "40139950800", "tract_name": "9508", "tags": {"building": "yes"}}}, {"type": "Feature", "geometry": {"type": "Polygon", "coordinates": [[[-101.4747928, 36.6813207], [-101.4750929, 36.6813357], [-101.4750779, 36.6811311], [-101.474774, 36.6811432], [-101.4747928, 36.6813207]]]}, "properties": {"osm_id": 760117540, "building": "yes", "name": "La Luz Del Mundo", "height": null, "height_m": null, "levels": null, "tract_id": "40139950800", "tract_name": "9508", "tags": {"amenity": "place_of_worship", "building": "yes", "name": "La Luz Del Mundo"}}}, {"type": "Feature", "geometry": {"type": "Polygon", "coordinates": [[[-101.4857189, 36.6804592], [-101.4857179, 36.6805362], [-101.4857459, 36.6805362], [-101.4857439, 36.6806342], [-101.4858999, 36.6806352], [-101.4859029, 36.6804612], [-101.4857189, 36.6804592]]]}, "properties": {"osm_id": 863148752, "building": "yes", "name": "", "height": null, "height_m": null, "levels": null, "tract_id": "40139950800", "tract_name": "9508", "tags": {"building": "yes", "source": "microsoft/BuildingFootprints"}}}, {"type": "Feature", "geometry": {"type": "Polygon", "coordinates": [[[-101.486502, 36.6804513], [-101.486502, 36.6806343], [-101.486601, 36.6806343], [-101.486601, 36.6804513], [-101.486502, 36.6804513]]]}, "properties": {"osm_id": 863148753, "building": "yes", "name": "", "height": null, "height_m": null, "levels": null, "tract_id": "40139950800", "tract_name": "9508", "tags": {"building": "yes", "source": "microsoft/BuildingFootprints"}}}, {"type": "Feature", "geometry": {"type": "Polygon", "coordinates": [[[-101.4864377, 36.6803035], [-101.4864377, 36.6804025], [-101.4866087, 36.6804025], [-101.4866087, 36.6803035], [-101.4864377, 36.6803035]]]}, "properties": {"osm_id": 863148754, "building": "yes", "name": "", "height": null, "height_m": null, "levels": null, "tract_id": "40139950800", "tract_name": "9508", "tags": {"building": "yes", "source": "microsoft/BuildingFootprints"}}}, {"type": "Feature", "geometry": {"type": "Polygon", "coordinates": [[[-101.4860877, 36.6800797], [-101.4860077, 36.6800797], [-101.4860077, 36.6801787], [-101.4860877, 36.6801787], [-101.4860877, 36.6800797]]]}, "properties": {"osm_id": 863148755, "building": "yes", "name": "", "height": null, "height_m": null, "levels": null, "tract_id": "40139950800", "tract_name": "9508", "tags": {"building": "yes", "source": "microsoft/BuildingFootprints"}}}, {"type": "Feature", "geometry": {"type": "Polygon", "coordinates": [[[-101.4865914, 36.680017], [-101.4865004, 36.680017], [-101.4865004, 36.680149], [-101.4865914, 36.680149], [-101.4865914, 36.680017]]]}, "properties": {"osm_id": 863148756, "building": "yes", "name": "", "height": null, "height_m": null, "levels": null, "tract_id": "40139950800", "tract_name": "9508", "tags": {"building": "yes", "source": "microsoft/BuildingFootprints"}}}, {"type": "Feature", "geometry": {"type": "Polygon", "coordinates": [[[-101.4870917, 36.6801823], [-101.4869847, 36.6801823], [-101.4869847, 36.6803153], [-101.4870917, 36.6803153], [-101.4870917, 36.6801823]]]}, "properties": {"osm_id": 863148757, "building": "yes", "name": "", "height": null, "height_m": null, "levels": null, "tract_id": "40139950800", "tract_name": "9508", "tags": {"building": "yes", "source": "microsoft/BuildingFootprints"}}}, {"type": "Feature", "geometry": {"type": "Polygon", "coordinates": [[[-101.4873657, 36.6806071], [-101.4872717, 36.6806071], [-101.4872717, 36.6806951], [-101.4873657, 36.6806951], [-101.4873657, 36.6806071]]]}, "properties": {"osm_id": 863148758, "building": "yes", "name": "", "height": null, "height_m": null, "levels": null, "tract_id": "40139950800", "tract_name": "9508", "tags": {"building": "yes", "source": "microsoft/BuildingFootprints"}}}, {"type": "Feature", "geometry": {"type": "Polygon", "coordinates": [[[-101.4877051, 36.6803299], [-101.4877051, 36.6804199], [-101.4878981, 36.6804199], [-101.4878981, 36.6803299], [-101.4877051, 36.6803299]]]}, "properties": {"osm_id": 863148759, "building": "yes", "name": "", "height": null, "height_m": null, "levels": null, "tract_id": "40139950800", "tract_name": "9508", "tags": {"building": "yes", "source": "microsoft/BuildingFootprints"}}}, {"type": "Feature", "geometry": {"type": "Polygon", "coordinates": [[[-101.4878841, 36.6805232], [-101.4878841, 36.6804462], [-101.4877501, 36.6804462], [-101.4877501, 36.6805232], [-101.4878841, 36.6805232]]]}, "properties": {"osm_id": 863148760, "building": "yes", "name": "", "height": null, "height_m": null, "levels": null, "tract_id": "40139950800", "tract_name": "9508", "tags": {"building": "yes", "source": "microsoft/BuildingFootprints"}}}, {"type": "Feature", "geometry": {"type": "Polygon", "coordinates": [[[-101.4877406, 36.6806412], [-101.4879036, 36.6806412], [-101.4879036, 36.6805362], [-101.4877406, 36.6805362], [-101.4877406, 36.6806412]]]}, "properties": {"osm_id": 863148761, "building": "yes", "name": "", "height": null, "height_m": null, "levels": null, "tract_id": "40139950800", "tract_name": "9508", "tags": {"building": "yes", "source": "microsoft/BuildingFootprints"}}}, {"type": "Feature", "geometry": {"type": "Polygon", "coordinates": [[[-101.4885677, 36.6800736], [-101.4885677, 36.6801576], [-101.4886807, 36.6801576], [-101.4886807, 36.6800736], [-101.4885677, 36.6800736]]]}, "properties": {"osm_id": 863148762, "building": "yes", "name": "", "height": null, "height_m": null, "levels": null, "tract_id": "40139950800", "tract_name": "9508", "tags": {"building": "yes", "source": "microsoft/BuildingFootprints"}}}, {"type": "Feature", "geometry": {"type": "Polygon", "coordinates": [[[-101.4897941, 36.6795254], [-101.4897931, 36.6796994], [-101.4898811, 36.6796994], [-101.4898811, 36.6796614], [-101.4899601, 36.6796614], [-101.4899611, 36.6795254], [-101.4897941, 36.6795254]]]}, "properties": {"osm_id": 863148763, "building": "yes", "name": "", "height": null, "height_m": null, "levels": null, "tract_id": "40139950800", "tract_name": "9508", "tags": {"building": "yes", "source": "microsoft/BuildingFootprints"}}}, {"type": "Feature", "geometry": {"type": "Polygon", "coordinates": [[[-101.4890564, 36.6797557], [-101.4891654, 36.6797547], [-101.4891634, 36.6795717], [-101.4889784, 36.6795727], [-101.4889794, 36.6796897], [-101.4890564, 36.6796887], [-101.4890564, 36.6797557]]]}, "properties": {"osm_id": 863148764, "building": "yes", "name": "", "height": null, "height_m": null, "levels": null, "tract_id": "40139950800", "tract_name": "9508", "tags": {"building": "yes", "source": "microsoft/BuildingFootprints"}}}, {"type": "Feature", "geometry": {"type": "Polygon", "coordinates": [[[-101.4898932, 36.6792279], [-101.4898922, 36.6790929], [-101.4897232, 36.6790939], [-101.4897232, 36.6790409], [-101.4896052, 36.6790409], [-101.4896052, 36.6791499], [-101.4894952, 36.6791499], [-101.4894962, 36.6792299], [-101.4898932, 36.6792279]]]}, "properties": {"osm_id": 863148765, "building": "yes", "name": "", "height": null, "height_m": null, "levels": null, "tract_id": "40139950800", "tract_name": "9508", "tags": {"building": "yes", "source": "microsoft/BuildingFootprints"}}}, {"type": "Feature", "geometry": {"type": "Polygon", "coordinates": [[[-101.4895868, 36.6789929], [-101.4897128, 36.6789929], [-101.4897128, 36.6788679], [-101.4895868, 36.6788679], [-101.4895868, 36.6789929]]]}, "properties": {"osm_id": 863148766, "building": "yes", "name": "", "height": null, "height_m": null, "levels": null, "tract_id": "40139950800", "tract_name": "9508", "tags": {"building": "yes", "source": "microsoft/BuildingFootprints"}}}, {"type": "Feature", "geometry": {"type": "Polygon", "coordinates": [[[-101.4897266, 36.6787285], [-101.4895798, 36.6787305], [-101.4895816, 36.6788179], [-101.4897284, 36.6788159], [-101.4897266, 36.6787285]]]}, "properties": {"osm_id": 863148767, "building": "yes", "name": "", "height": null, "height_m": null, "levels": null, "tract_id": "40139950800", "tract_name": "9508", "tags": {"building": "yes", "source": "microsoft/BuildingFootprints"}}}, {"type": "Feature", "geometry": {"type": "Polygon", "coordinates": [[[-101.4898784, 36.6787401], [-101.4897317, 36.6787421], [-101.4897335, 36.6788295], [-101.4898803, 36.6788275], [-101.4898784, 36.6787401]]]}, "properties": {"osm_id": 863148768, "building": "yes", "name": "", "height": null, "height_m": null, "levels": null, "tract_id": "40139950800", "tract_name": "9508", "tags": {"building": "yes", "source": "microsoft/BuildingFootprints"}}}, {"type": "Feature", "geometry": {"type": "Polygon", "coordinates": [[[-101.4899724, 36.6789185], [-101.4899724, 36.6788515], [-101.4898494, 36.6788515], [-101.4898494, 36.6789185], [-101.4899724, 36.6789185]]]}, "properties": {"osm_id": 863148769, "building": "yes", "name": "", "height": null, "height_m": null, "levels": null, "tract_id": "40139950800", "tract_name": "9508", "tags": {"building": "yes", "source": "microsoft/BuildingFootprints"}}}, {"type": "Feature", "geometry": {"type": "Polygon", "coordinates": [[[-101.4903944, 36.6789195], [-101.4902714, 36.6789185], [-101.4902704, 36.6791375], [-101.4904714, 36.6791375], [-101.4904714, 36.6790705], [-101.4903944, 36.6790705], [-101.4903944, 36.6789195]]]}, "properties": {"osm_id": 863148770, "building": "yes", "name": "", "height": null, "height_m": null, "levels": null, "tract_id": "40139950800", "tract_name": "9508", "tags": {"building": "yes", "source": "microsoft/BuildingFootprints"}}}, {"type": "Feature", "geometry": {"type": "Polygon", "coordinates": [[[-101.490317, 36.6786802], [-101.490317, 36.6788762], [-101.490464, 36.6788762], [-101.490464, 36.6786802], [-101.490317, 36.6786802]]]}, "properties": {"osm_id": 863148771, "building": "yes", "name": "", "height": null, "height_m": null, "levels": null, "tract_id": "40139950800", "tract_name": "9508", "tags": {"building": "yes", "source": "microsoft/BuildingFootprints"}}}, {"type": "Feature", "geometry": {"type": "Polygon", "coordinates": [[[-101.4914406, 36.6784537], [-101.4915936, 36.6784537], [-101.4915936, 36.6783737], [-101.4914406, 36.6783737], [-101.4914406, 36.6784537]]]}, "properties": {"osm_id": 863148772, "building": "yes", "name": "", "height": null, "height_m": null, "levels": null, "tract_id": "40139950800", "tract_name": "9508", "tags": {"building": "yes", "source": "microsoft/BuildingFootprints"}}}, {"type": "Feature", "geometry": {"type": "Polygon", "coordinates": [[[-101.4909778, 36.6783284], [-101.4908698, 36.6783284], [-101.4908698, 36.6784724], [-101.4909778, 36.6784724], [-101.4909778, 36.6783284]]]}, "properties": {"osm_id": 863148773, "building": "yes", "name": "", "height": null, "height_m": null, "levels": null, "tract_id": "40139950800", "tract_name": "9508", "tags": {"building": "yes", "source": "microsoft/BuildingFootprints"}}}, {"type": "Feature", "geometry": {"type": "Polygon", "coordinates": [[[-101.4909809, 36.6783077], [-101.4909809, 36.6781787], [-101.4908769, 36.6781787], [-101.4908769, 36.6783077], [-101.4909809, 36.6783077]]]}, "properties": {"osm_id": 863148774, "building": "yes", "name": "", "height": null, "height_m": null, "levels": null, "tract_id": "40139950800", "tract_name": "9508", "tags": {"building": "yes", "source": "microsoft/BuildingFootprints"}}}, {"type": "Feature", "geometry": {"type": "Polygon", "coordinates": [[[-101.4909832, 36.6780155], [-101.4908682, 36.6780155], [-101.4908682, 36.6781595], [-101.4910482, 36.6781595], [-101.4910482, 36.6780675], [-101.4909832, 36.6780675], [-101.4909832, 36.6780155]]]}, "properties": {"osm_id": 863148775, "building": "yes", "name": "", "height": null, "height_m": null, "levels": null, "tract_id": "40139950800", "tract_name": "9508", "tags": {"building": "yes", "source": "microsoft/BuildingFootprints"}}}, {"type": "Feature", "geometry": {"type": "Polygon", "coordinates": [[[-101.4909745, 36.6778562], [-101.4908725, 36.6778562], [-101.4908725, 36.6779832], [-101.4909745, 36.6779832], [-101.4909745, 36.6778562]]]}, "properties": {"osm_id": 863148776, "building": "yes", "name": "", "height": null, "height_m": null, "levels": null, "tract_id": "40139950800", "tract_name": "9508", "tags": {"building": "yes", "source": "microsoft/BuildingFootprints"}}}, {"type": "Feature", "geometry": {"type": "Polygon", "coordinates": [[[-101.4909048, 36.6778044], [-101.4910638, 36.6778044], [-101.4910638, 36.6776924], [-101.4910068, 36.6776924], [-101.4910068, 36.6776114], [-101.4909048, 36.6776114], [-101.4909048, 36.6778044]]]}, "properties": {"osm_id": 863148777, "building": "yes", "name": "", "height": null, "height_m": null, "levels": null, "tract_id": "40139950800", "tract_name": "9508", "tags": {"building": "yes", "source": "microsoft/BuildingFootprints"}}}, {"type": "Feature", "geometry": {"type": "Polygon", "coordinates": [[[-101.4902642, 36.6775973], [-101.4902642, 36.6777413], [-101.4904462, 36.6777413], [-101.4904462, 36.6776663], [-101.4903742, 36.6776663], [-101.4903742, 36.6775973], [-101.4902642, 36.6775973]]]}, "properties": {"osm_id": 863150006, "building": "yes", "name": "", "height": null, "height_m": null, "levels": null, "tract_id": "40139950800", "tract_name": "9508", "tags": {"building": "yes", "source": "microsoft/BuildingFootprints"}}}, {"type": "Feature", "geometry": {"type": "Polygon", "coordinates": [[[-101.4902744, 36.6775569], [-101.4904454, 36.6775569], [-101.4904454, 36.6774819], [-101.4903944, 36.6774819], [-101.4903944, 36.6774109], [-101.4902744, 36.6774109], [-101.4902744, 36.6775569]]]}, "properties": {"osm_id": 863150007, "building": "yes", "name": "", "height": null, "height_m": null, "levels": null, "tract_id": "40139950800", "tract_name": "9508", "tags": {"building": "yes", "source": "microsoft/BuildingFootprints"}}}, {"type": "Feature", "geometry": {"type": "Polygon", "coordinates": [[[-101.4902573, 36.6770452], [-101.4902563, 36.6771322], [-101.4903343, 36.6771322], [-101.4903343, 36.6771902], [-101.4904403, 36.6771902], [-101.4904413, 36.6769862], [-101.4903323, 36.6769862], [-101.4903323, 36.6770452], [-101.4902573, 36.6770452]]]}, "properties": {"osm_id": 863150008, "building": "yes", "name": "", "height": null, "height_m": null, "levels": null, "tract_id": "40139950800", "tract_name": "9508", "tags": {"building": "yes", "source": "microsoft/BuildingFootprints"}}}, {"type": "Feature", "geometry": {"type": "Polygon", "coordinates": [[[-101.4910439, 36.6769653], [-101.4910119, 36.6769643], [-101.4910129, 36.6768693], [-101.4908759, 36.6768683], [-101.4908729, 36.6770743], [-101.4910419, 36.6770763], [-101.4910439, 36.6769653]]]}, "properties": {"osm_id": 863150009, "building": "yes", "name": "", "height": null, "height_m": null, "levels": null, "tract_id": "40139950800", "tract_name": "9508", "tags": {"building": "yes", "source": "microsoft/BuildingFootprints"}}}, {"type": "Feature", "geometry": {"type": "Polygon", "coordinates": [[[-101.4908542, 36.6767829], [-101.4909622, 36.6767829], [-101.4909622, 36.6765699], [-101.4908542, 36.6765699], [-101.4908542, 36.6767829]]]}, "properties": {"osm_id": 863150010, "building": "yes", "name": "", "height": null, "height_m": null, "levels": null, "tract_id": "40139950800", "tract_name": "9508", "tags": {"building": "yes", "source": "microsoft/BuildingFootprints"}}}, {"type": "Feature", "geometry": {"type": "Polygon", "coordinates": [[[-101.4917023, 36.6768195], [-101.4918333, 36.6768185], [-101.4918323, 36.6765635], [-101.4917003, 36.6765635], [-101.4917023, 36.6768195]]]}, "properties": {"osm_id": 863150011, "building": "yes", "name": "", "height": null, "height_m": null, "levels": null, "tract_id": "40139950800", "tract_name": "9508", "tags": {"building": "yes", "source": "microsoft/BuildingFootprints"}}}, {"type": "Feature", "geometry": {"type": "Polygon", "coordinates": [[[-101.4908621, 36.6763671], [-101.4909751, 36.6763671], [-101.4909751, 36.6761541], [-101.4908621, 36.6761541], [-101.4908621, 36.6763671]]]}, "properties": {"osm_id": 863150012, "building": "yes", "name": "", "height": null, "height_m": null, "levels": null, "tract_id": "40139950800", "tract_name": "9508", "tags": {"building": "yes", "source": "microsoft/BuildingFootprints"}}}, {"type": "Feature", "geometry": {"type": "Polygon", "coordinates": [[[-101.4901542, 36.6763166], [-101.4904412, 36.6763166], [-101.4904412, 36.6762216], [-101.4901542, 36.6762216], [-101.4901542, 36.6763166]]]}, "properties": {"osm_id": 863150013, "building": "yes", "name": "", "height": null, "height_m": null, "levels": null, "tract_id": "40139950800", "tract_name": "9508", "tags": {"building": "yes", "source": "microsoft/BuildingFootprints"}}}, {"type": "Feature", "geometry": {"type": "Polygon", "coordinates": [[[-101.4902231, 36.6756776], [-101.4902231, 36.6757596], [-101.4903681, 36.6757596], [-101.4903681, 36.6756976], [-101.4904401, 36.6756976], [-101.4904401, 36.6756236], [-101.4902551, 36.6756236], [-101.4902551, 36.6756776], [-101.4902231, 36.6756776]]]}, "properties": {"osm_id": 863150014, "building": "yes", "name": "", "height": null, "height_m": null, "levels": null, "tract_id": "40139950800", "tract_name": "9508", "tags": {"building": "yes", "source": "microsoft/BuildingFootprints"}}}, {"type": "Feature", "geometry": {"type": "Polygon", "coordinates": [[[-101.4902984, 36.6755974], [-101.4904404, 36.6755974], [-101.4904404, 36.6755284], [-101.4904114, 36.6755284], [-101.4904114, 36.6754444], [-101.4902474, 36.6754444], [-101.4902474, 36.6755154], [-101.4902984, 36.6755154], [-101.4902984, 36.6755974]]]}, "properties": {"osm_id": 863150015, "building": "yes", "name": "", "height": null, "height_m": null, "levels": null, "tract_id": "40139950800", "tract_name": "9508", "tags": {"building": "yes", "source": "microsoft/BuildingFootprints"}}}, {"type": "Feature", "geometry": {"type": "Polygon", "coordinates": [[[-101.4902898, 36.6754209], [-101.4904098, 36.6754209], [-101.4904088, 36.6752439], [-101.4902878, 36.6752449], [-101.4902888, 36.6753109], [-101.4902188, 36.6753119], [-101.4902198, 36.6753869], [-101.4902888, 36.6753869], [-101.4902898, 36.6754209]]]}, "properties": {"osm_id": 863150016, "building": "yes", "name": "", "height": null, "height_m": null, "levels": null, "tract_id": "40139950800", "tract_name": "9508", "tags": {"building": "yes", "source": "microsoft/BuildingFootprints"}}}, {"type": "Feature", "geometry": {"type": "Polygon", "coordinates": [[[-101.4902104, 36.6751206], [-101.4902104, 36.6752236], [-101.4904354, 36.6752236], [-101.4904354, 36.6751526], [-101.4903524, 36.6751526], [-101.4903524, 36.6750776], [-101.4902294, 36.6750776], [-101.4902294, 36.6751206], [-101.4902104, 36.6751206]]]}, "properties": {"osm_id": 863150017, "building": "yes", "name": "", "height": null, "height_m": null, "levels": null, "tract_id": "40139950800", "tract_name": "9508", "tags": {"building": "yes", "source": "microsoft/BuildingFootprints"}}}, {"type": "Feature", "geometry": {"type": "Polygon", "coordinates": [[[-101.4910602, 36.6754626], [-101.4908912, 36.6754626], [-101.4908912, 36.6755526], [-101.4910602, 36.6755526], [-101.4910602, 36.6754626]]]}, "properties": {"osm_id": 863150018, "building": "yes", "name": "", "height": null, "height_m": null, "levels": null, "tract_id": "40139950800", "tract_name": "9508", "tags": {"building": "yes", "source": "microsoft/BuildingFootprints"}}}, {"type": "Feature", "geometry": {"type": "Polygon", "coordinates": [[[-101.4891508, 36.6752602], [-101.4890508, 36.6752602], [-101.4890508, 36.6754362], [-101.4891508, 36.6754362], [-101.4891508, 36.6752602]]]}, "properties": {"osm_id": 863150019, "building": "yes", "name": "", "height": null, "height_m": null, "levels": null, "tract_id": "40139950800", "tract_name": "9508", "tags": {"building": "yes", "source": "microsoft/BuildingFootprints"}}}, {"type": "Feature", "geometry": {"type": "Polygon", "coordinates": [[[-101.488905, 36.6754266], [-101.4890201, 36.6754264], [-101.4890207, 36.6753554], [-101.4889047, 36.6753556], [-101.488905, 36.6754266]]]}, "properties": {"osm_id": 863150020, "building": "yes", "name": "", "height": null, "height_m": null, "levels": null, "tract_id": "40139950800", "tract_name": "9508", "tags": {"building": "yes", "source": "microsoft/BuildingFootprints"}}}, {"type": "Feature", "geometry": {"type": "Polygon", "coordinates": [[[-101.4891416, 36.6755733], [-101.4889676, 36.6755733], [-101.4889676, 36.6756513], [-101.4891416, 36.6756513], [-101.4891416, 36.6755733]]]}, "properties": {"osm_id": 863150021, "building": "yes", "name": "", "height": null, "height_m": null, "levels": null, "tract_id": "40139950800", "tract_name": "9508", "tags": {"building": "yes", "source": "microsoft/BuildingFootprints"}}}, {"type": "Feature", "geometry": {"type": "Polygon", "coordinates": [[[-101.4891065, 36.6759848], [-101.4887925, 36.6759848], [-101.4887925, 36.6760298], [-101.4891065, 36.6760298], [-101.4891065, 36.6759848]]]}, "properties": {"osm_id": 863150022, "building": "yes", "name": "", "height": null, "height_m": null, "levels": null, "tract_id": "40139950800", "tract_name": "9508", "tags": {"building": "yes", "source": "microsoft/BuildingFootprints"}}}, {"type": "Feature", "geometry": {"type": "Polygon", "coordinates": [[[-101.4890545, 36.6759244], [-101.4890545, 36.6758214], [-101.4888965, 36.6758214], [-101.4888965, 36.6759244], [-101.4890545, 36.6759244]]]}, "properties": {"osm_id": 863150023, "building": "yes", "name": "", "height": null, "height_m": null, "levels": null, "tract_id": "40139950800", "tract_name": "9508", "tags": {"building": "yes", "source": "microsoft/BuildingFootprints"}}}, {"type": "Feature", "geometry": {"type": "Polygon", "coordinates": [[[-101.4888827, 36.675934], [-101.4888827, 36.675837], [-101.4887537, 36.675837], [-101.4887537, 36.675934], [-101.4888827, 36.675934]]]}, "properties": {"osm_id": 863150024, "building": "yes", "name": "", "height": null, "height_m": null, "levels": null, "tract_id": "40139950800", "tract_name": "9508", "tags": {"building": "yes", "source": "microsoft/BuildingFootprints"}}}, {"type": "Feature", "geometry": {"type": "Polygon", "coordinates": [[[-101.4875774, 36.6762393], [-101.4875774, 36.6763513], [-101.4876824, 36.6763513], [-101.4876824, 36.6762393], [-101.4875774, 36.6762393]]]}, "properties": {"osm_id": 863150025, "building": "yes", "name": "", "height": null, "height_m": null, "levels": null, "tract_id": "40139950800", "tract_name": "9508", "tags": {"building": "yes", "source": "microsoft/BuildingFootprints"}}}, {"type": "Feature", "geometry": {"type": "Polygon", "coordinates": [[[-101.4872201, 36.6768541], [-101.4869221, 36.6768541], [-101.4869221, 36.6769721], [-101.4871911, 36.6769721], [-101.4871911, 36.6769311], [-101.4872201, 36.6769311], [-101.4872201, 36.6768541]]]}, "properties": {"osm_id": 863150026, "building": "yes", "name": "", "height": null, "height_m": null, "levels": null, "tract_id": "40139950800", "tract_name": "9508", "tags": {"building": "yes", "source": "microsoft/BuildingFootprints"}}}, {"type": "Feature", "geometry": {"type": "Polygon", "coordinates": [[[-101.4864545, 36.6771537], [-101.4865625, 36.6771537], [-101.4865625, 36.6770827], [-101.4864545, 36.6770827], [-101.4864545, 36.6771537]]]}, "properties": {"osm_id": 863150027, "building": "yes", "name": "", "height": null, "height_m": null, "levels": null, "tract_id": "40139950800", "tract_name": "9508", "tags": {"building": "yes", "source": "microsoft/BuildingFootprints"}}}, {"type": "Feature", "geometry": {"type": "Polygon", "coordinates": [[[-101.4855728, 36.6770024], [-101.4856398, 36.6770694], [-101.4858748, 36.6769174], [-101.4858078, 36.6768504], [-101.4855728, 36.6770024]]]}, "properties": {"osm_id": 863150028, "building": "yes", "name": "", "height": null, "height_m": null, "levels": null, "tract_id": "40139950800", "tract_name": "9508", "tags": {"building": "yes", "source": "microsoft/BuildingFootprints"}}}, {"type": "Feature", "geometry": {"type": "Polygon", "coordinates": [[[-101.4852159, 36.6764043], [-101.4851739, 36.6764353], [-101.4852689, 36.6765173], [-101.4853879, 36.6764283], [-101.4852469, 36.6763063], [-101.4851699, 36.6763643], [-101.4852159, 36.6764043]]]}, "properties": {"osm_id": 863150029, "building": "yes", "name": "", "height": null, "height_m": null, "levels": null, "tract_id": "40139950800", "tract_name": "9508", "tags": {"building": "yes", "source": "microsoft/BuildingFootprints"}}}, {"type": "Feature", "geometry": {"type": "Polygon", "coordinates": [[[-101.4843691, 36.6767977], [-101.4847881, 36.6767977], [-101.4847891, 36.6765457], [-101.4843691, 36.6765447], [-101.4843691, 36.6767977]]]}, "properties": {"osm_id": 863150030, "building": "yes", "name": "", "height": null, "height_m": null, "levels": null, "tract_id": "40139950800", "tract_name": "9508", "tags": {"building": "yes", "source": "microsoft/BuildingFootprints"}}}, {"type": "Feature", "geometry": {"type": "Polygon", "coordinates": [[[-101.4838968, 36.6766666], [-101.4837468, 36.6766666], [-101.4837468, 36.6767786], [-101.4838968, 36.6767786], [-101.4838968, 36.6766666]]]}, "properties": {"osm_id": 863150031, "building": "yes", "name": "", "height": null, "height_m": null, "levels": null, "tract_id": "40139950800", "tract_name": "9508", "tags": {"building": "yes", "source": "microsoft/BuildingFootprints"}}}, {"type": "Feature", "geometry": {"type": "Polygon", "coordinates": [[[-101.4832221, 36.6772182], [-101.4833511, 36.6772192], [-101.4833531, 36.6770312], [-101.4832991, 36.6770312], [-101.4832991, 36.6770042], [-101.4832231, 36.6770032], [-101.4832221, 36.6772182]]]}, "properties": {"osm_id": 863150032, "building": "yes", "name": "", "height": null, "height_m": null, "levels": null, "tract_id": "40139950800", "tract_name": "9508", "tags": {"building": "yes", "source": "microsoft/BuildingFootprints"}}}, {"type": "Feature", "geometry": {"type": "Polygon", "coordinates": [[[-101.4817773, 36.6762643], [-101.4817773, 36.6763573], [-101.4821963, 36.6763573], [-101.4821963, 36.6762643], [-101.4817773, 36.6762643]]]}, "properties": {"osm_id": 863150033, "building": "yes", "name": "", "height": null, "height_m": null, "levels": null, "tract_id": "40139950800", "tract_name": "9508", "tags": {"building": "yes", "source": "microsoft/BuildingFootprints"}}}, {"type": "Feature", "geometry": {"type": "Polygon", "coordinates": [[[-101.4819272, 36.6762088], [-101.4822092, 36.6762088], [-101.4822092, 36.6761168], [-101.4819272, 36.6761168], [-101.4819272, 36.6762088]]]}, "properties": {"osm_id": 863150034, "building": "yes", "name": "", "height": null, "height_m": null, "levels": null, "tract_id": "40139950800", "tract_name": "9508", "tags": {"building": "yes", "source": "microsoft/BuildingFootprints"}}}, {"type": "Feature", "geometry": {"type": "Polygon", "coordinates": [[[-101.4821883, 36.6759741], [-101.4817833, 36.6759741], [-101.4817833, 36.6760671], [-101.4821883, 36.6760671], [-101.4821883, 36.6759741]]]}, "properties": {"osm_id": 863150035, "building": "yes", "name": "", "height": null, "height_m": null, "levels": null, "tract_id": "40139950800", "tract_name": "9508", "tags": {"building": "yes", "source": "microsoft/BuildingFootprints"}}}, {"type": "Feature", "geometry": {"type": "Polygon", "coordinates": [[[-101.4810764, 36.6762872], [-101.4810464, 36.6762862], [-101.4810464, 36.6763362], [-101.4813624, 36.6763382], [-101.4813634, 36.6762142], [-101.4810764, 36.6762122], [-101.4810764, 36.6762872]]]}, "properties": {"osm_id": 863150036, "building": "yes", "name": "", "height": null, "height_m": null, "levels": null, "tract_id": "40139950800", "tract_name": "9508", "tags": {"building": "yes", "source": "microsoft/BuildingFootprints"}}}, {"type": "Feature", "geometry": {"type": "Polygon", "coordinates": [[[-101.4809826, 36.6761948], [-101.4813956, 36.6761948], [-101.4813956, 36.6760788], [-101.4809826, 36.6760788], [-101.4809826, 36.6761948]]]}, "properties": {"osm_id": 863150037, "building": "yes", "name": "", "height": null, "height_m": null, "levels": null, "tract_id": "40139950800", "tract_name": "9508", "tags": {"building": "yes", "source": "microsoft/BuildingFootprints"}}}, {"type": "Feature", "geometry": {"type": "Polygon", "coordinates": [[[-101.4807558, 36.6758409], [-101.4805488, 36.6758409], [-101.4805488, 36.6758749], [-101.4807558, 36.6758749], [-101.4807558, 36.6758409]]]}, "properties": {"osm_id": 863150038, "building": "yes", "name": "", "height": null, "height_m": null, "levels": null, "tract_id": "40139950800", "tract_name": "9508", "tags": {"building": "yes", "source": "microsoft/BuildingFootprints"}}}, {"type": "Feature", "geometry": {"type": "Polygon", "coordinates": [[[-101.4807675, 36.6757261], [-101.4805365, 36.6757261], [-101.4805365, 36.6757741], [-101.4807675, 36.6757741], [-101.4807675, 36.6757261]]]}, "properties": {"osm_id": 863150039, "building": "yes", "name": "", "height": null, "height_m": null, "levels": null, "tract_id": "40139950800", "tract_name": "9508", "tags": {"building": "yes", "source": "microsoft/BuildingFootprints"}}}, {"type": "Feature", "geometry": {"type": "Polygon", "coordinates": [[[-101.4795792, 36.676201], [-101.4795792, 36.676118], [-101.4794062, 36.676119], [-101.4794062, 36.676201], [-101.4795792, 36.676201]]]}, "properties": {"osm_id": 863150040, "building": "yes", "name": "", "height": null, "height_m": null, "levels": null, "tract_id": "40139950800", "tract_name": "9508", "tags": {"building": "yes", "source": "microsoft/BuildingFootprints"}}}, {"type": "Feature", "geometry": {"type": "Polygon", "coordinates": [[[-101.4795098, 36.6762457], [-101.4795098, 36.6763657], [-101.4795978, 36.6763657], [-101.4795978, 36.6762457], [-101.4795098, 36.6762457]]]}, "properties": {"osm_id": 863150041, "building": "yes", "name": "", "height": null, "height_m": null, "levels": null, "tract_id": "40139950800", "tract_name": "9508", "tags": {"building": "yes", "source": "microsoft/BuildingFootprints"}}}, {"type": "Feature", "geometry": {"type": "Polygon", "coordinates": [[[-101.478638, 36.6757058], [-101.478638, 36.6757898], [-101.478823, 36.6757898], [-101.478823, 36.6757058], [-101.478638, 36.6757058]]]}, "properties": {"osm_id": 863150042, "building": "yes", "name": "", "height": null, "height_m": null, "levels": null, "tract_id": "40139950800", "tract_name": "9508", "tags": {"building": "yes", "source": "microsoft/BuildingFootprints"}}}, {"type": "Feature", "geometry": {"type": "Polygon", "coordinates": [[[-101.4786347, 36.6755843], [-101.4786357, 36.6756543], [-101.4788457, 36.6756543], [-101.4788457, 36.6755833], [-101.4786347, 36.6755843]]]}, "properties": {"osm_id": 863150043, "building": "yes", "name": "", "height": null, "height_m": null, "levels": null, "tract_id": "40139950800", "tract_name": "9508", "tags": {"building": "yes", "source": "microsoft/BuildingFootprints"}}}, {"type": "Feature", "geometry": {"type": "Polygon", "coordinates": [[[-101.4779973, 36.6756592], [-101.4779973, 36.6755602], [-101.4778633, 36.6755602], [-101.4778633, 36.6756592], [-101.4779973, 36.6756592]]]}, "properties": {"osm_id": 863150044, "building": "yes", "name": "", "height": null, "height_m": null, "levels": null, "tract_id": "40139950800", "tract_name": "9508", "tags": {"building": "yes", "source": "microsoft/BuildingFootprints"}}}, {"type": "Feature", "geometry": {"type": "Polygon", "coordinates": [[[-101.4773405, 36.6756397], [-101.4775065, 36.6756397], [-101.4775065, 36.6755687], [-101.4774615, 36.6755687], [-101.4774615, 36.6755127], [-101.4773405, 36.6755127], [-101.4773405, 36.6756397]]]}, "properties": {"osm_id": 863150045, "building": "yes", "name": "", "height": null, "height_m": null, "levels": null, "tract_id": "40139950800", "tract_name": "9508", "tags": {"building": "yes", "source": "microsoft/BuildingFootprints"}}}, {"type": "Feature", "geometry": {"type": "Polygon", "coordinates": [[[-101.476161, 36.6759394], [-101.475948, 36.6759394], [-101.475948, 36.6760574], [-101.476161, 36.6760574], [-101.476161, 36.6759394]]]}, "properties": {"osm_id": 863150046, "building": "yes", "name": "", "height": null, "height_m": null, "levels": null, "tract_id": "40139950800", "tract_name": "9508", "tags": {"building": "yes", "source": "microsoft/BuildingFootprints"}}}, {"type": "Feature", "geometry": {"type": "Polygon", "coordinates": [[[-101.4761524, 36.6758841], [-101.4761524, 36.6758151], [-101.4759994, 36.6758151], [-101.4759994, 36.6758841], [-101.4761524, 36.6758841]]]}, "properties": {"osm_id": 863150047, "building": "yes", "name": "", "height": null, "height_m": null, "levels": null, "tract_id": "40139950800", "tract_name": "9508", "tags": {"building": "yes", "source": "microsoft/BuildingFootprints"}}}, {"type": "Feature", "geometry": {"type": "Polygon", "coordinates": [[[-101.4760319, 36.6760924], [-101.4760319, 36.6761844], [-101.4761499, 36.6761844], [-101.4761499, 36.6760924], [-101.4760319, 36.6760924]]]}, "properties": {"osm_id": 863150048, "building": "yes", "name": "", "height": null, "height_m": null, "levels": null, "tract_id": "40139950800", "tract_name": "9508", "tags": {"building": "yes", "source": "microsoft/BuildingFootprints"}}}, {"type": "Feature", "geometry": {"type": "Polygon", "coordinates": [[[-101.4750686, 36.6761901], [-101.4748676, 36.6761901], [-101.4748676, 36.6763091], [-101.4752456, 36.6763091], [-101.4752456, 36.6761041], [-101.4750686, 36.6761041], [-101.4750686, 36.6761901]]]}, "properties": {"osm_id": 863150049, "building": "yes", "name": "", "height": null, "height_m": null, "levels": null, "tract_id": "40139950800", "tract_name": "9508", "tags": {"building": "yes", "source": "microsoft/BuildingFootprints"}}}, {"type": "Feature", "geometry": {"type": "Polygon", "coordinates": [[[-101.4745265, 36.6762291], [-101.4740735, 36.6762291], [-101.4740735, 36.6763691], [-101.4745265, 36.6763691], [-101.4745265, 36.6762291]]]}, "properties": {"osm_id": 863150050, "building": "yes", "name": "", "height": null, "height_m": null, "levels": null, "tract_id": "40139950800", "tract_name": "9508", "tags": {"building": "yes", "source": "microsoft/BuildingFootprints"}}}, {"type": "Feature", "geometry": {"type": "Polygon", "coordinates": [[[-101.4745181, 36.6759302], [-101.4743031, 36.6759302], [-101.4743031, 36.6760492], [-101.4745181, 36.6760492], [-101.4745181, 36.6759302]]]}, "properties": {"osm_id": 863150051, "building": "yes", "name": "", "height": null, "height_m": null, "levels": null, "tract_id": "40139950800", "tract_name": "9508", "tags": {"building": "yes", "source": "microsoft/BuildingFootprints"}}}, {"type": "Feature", "geometry": {"type": "Polygon", "coordinates": [[[-101.4742266, 36.6759064], [-101.4739696, 36.6759064], [-101.4739696, 36.6760524], [-101.4742266, 36.6760524], [-101.4742266, 36.6759064]]]}, "properties": {"osm_id": 863150052, "building": "yes", "name": "", "height": null, "height_m": null, "levels": null, "tract_id": "40139950800", "tract_name": "9508", "tags": {"building": "yes", "source": "microsoft/BuildingFootprints"}}}, {"type": "Feature", "geometry": {"type": "Polygon", "coordinates": [[[-101.4745316, 36.6756493], [-101.4743516, 36.6756493], [-101.4743516, 36.6758563], [-101.4745316, 36.6758563], [-101.4745316, 36.6756493]]]}, "properties": {"osm_id": 863150053, "building": "yes", "name": "", "height": null, "height_m": null, "levels": null, "tract_id": "40139950800", "tract_name": "9508", "tags": {"building": "yes", "source": "microsoft/BuildingFootprints"}}}, {"type": "Feature", "geometry": {"type": "Polygon", "coordinates": [[[-101.474176, 36.6756564], [-101.473996, 36.6756564], [-101.473996, 36.6758614], [-101.474176, 36.6758614], [-101.474176, 36.6756564]]]}, "properties": {"osm_id": 863150054, "building": "yes", "name": "", "height": null, "height_m": null, "levels": null, "tract_id": "40139950800", "tract_name": "9508", "tags": {"building": "yes", "source": "microsoft/BuildingFootprints"}}}, {"type": "Feature", "geometry": {"type": "Polygon", "coordinates": [[[-101.4741496, 36.6754461], [-101.4741516, 36.6755491], [-101.4744866, 36.6755461], [-101.4744846, 36.6754431], [-101.4741496, 36.6754461]]]}, "properties": {"osm_id": 863150055, "building": "yes", "name": "", "height": null, "height_m": null, "levels": null, "tract_id": "40139950800", "tract_name": "9508", "tags": {"building": "yes", "source": "microsoft/BuildingFootprints"}}}, {"type": "Feature", "geometry": {"type": "Polygon", "coordinates": [[[-101.487754, 36.6826806], [-101.4878567, 36.6826743], [-101.4878438, 36.6825396], [-101.4877412, 36.6825459], [-101.487754, 36.6826806]]]}, "properties": {"osm_id": 874464905, "building": "yes", "name": "", "height": null, "height_m": null, "levels": null, "tract_id": "40139950800", "tract_name": "9508", "tags": {"building": "yes"}}}, {"type": "Feature", "geometry": {"type": "Polygon", "coordinates": [[[-101.4876283, 36.6826854], [-101.4876173, 36.6825243], [-101.4875179, 36.6825286], [-101.4875288, 36.6826897], [-101.4876283, 36.6826854]]]}, "properties": {"osm_id": 874464906, "building": "yes", "name": "", "height": null, "height_m": null, "levels": null, "tract_id": "40139950800", "tract_name": "9508", "tags": {"building": "yes"}}}, {"type": "Feature", "geometry": {"type": "Polygon", "coordinates": [[[-101.4872323, 36.6826658], [-101.4872305, 36.6824075], [-101.4869889, 36.6824086], [-101.4869892, 36.6824568], [-101.4869108, 36.6824572], [-101.4869116, 36.6825649], [-101.4869745, 36.6825646], [-101.4869752, 36.682667], [-101.4872323, 36.6826658]]]}, "properties": {"osm_id": 874464907, "building": "yes", "name": "", "height": null, "height_m": null, "levels": null, "tract_id": "40139950800", "tract_name": "9508", "tags": {"building": "yes"}}}, {"type": "Feature", "geometry": {"type": "Polygon", "coordinates": [[[-101.4876924, 36.6822751], [-101.4878619, 36.6822668], [-101.4878559, 36.6821883], [-101.4877461, 36.6821936], [-101.4877486, 36.6822262], [-101.4876889, 36.6822292], [-101.4876924, 36.6822751]]]}, "properties": {"osm_id": 874464908, "building": "yes", "name": "", "height": null, "height_m": null, "levels": null, "tract_id": "40139950800", "tract_name": "9508", "tags": {"building": "yes"}}}, {"type": "Feature", "geometry": {"type": "Polygon", "coordinates": [[[-101.4877758, 36.6820722], [-101.4877753, 36.6820294], [-101.4877454, 36.6820296], [-101.4877442, 36.6819401], [-101.4878638, 36.6819391], [-101.4878651, 36.6820349], [-101.4878256, 36.6820352], [-101.4878261, 36.6820717], [-101.4877758, 36.6820722]]]}, "properties": {"osm_id": 874464909, "building": "yes", "name": "", "height": null, "height_m": null, "levels": null, "tract_id": "40139950800", "tract_name": "9508", "tags": {"building": "yes"}}}, {"type": "Feature", "geometry": {"type": "Polygon", "coordinates": [[[-101.4874825, 36.6820737], [-101.4875906, 36.6820737], [-101.4875906, 36.6819587], [-101.4874825, 36.6819587], [-101.4874825, 36.6820737]]]}, "properties": {"osm_id": 874464910, "building": "yes", "name": "", "height": null, "height_m": null, "levels": null, "tract_id": "40139950800", "tract_name": "9508", "tags": {"building": "yes"}}}, {"type": "Feature", "geometry": {"type": "Polygon", "coordinates": [[[-101.4872056, 36.6822081], [-101.4872027, 36.6821228], [-101.4870062, 36.682127], [-101.4870091, 36.6822124], [-101.4872056, 36.6822081]]]}, "properties": {"osm_id": 874464911, "building": "yes", "name": "", "height": null, "height_m": null, "levels": null, "tract_id": "40139950800", "tract_name": "9508", "tags": {"building": "yes"}}}, {"type": "Feature", "geometry": {"type": "Polygon", "coordinates": [[[-101.4872094, 36.6820728], [-101.4869508, 36.6820746], [-101.4869501, 36.6820139], [-101.4869797, 36.6820137], [-101.4869788, 36.6819319], [-101.4870931, 36.6819311], [-101.4870926, 36.6818849], [-101.4872073, 36.6818841], [-101.4872094, 36.6820728]]]}, "properties": {"osm_id": 874464912, "building": "yes", "name": "", "height": null, "height_m": null, "levels": null, "tract_id": "40139950800", "tract_name": "9508", "tags": {"building": "yes"}}}, {"type": "Feature", "geometry": {"type": "Polygon", "coordinates": [[[-101.4861996, 36.6827035], [-101.4863614, 36.6827021], [-101.4863605, 36.6826361], [-101.4861987, 36.6826375], [-101.4861996, 36.6827035]]]}, "properties": {"osm_id": 874464913, "building": "yes", "name": "", "height": null, "height_m": null, "levels": null, "tract_id": "40139950800", "tract_name": "9508", "tags": {"building": "yes"}}}, {"type": "Feature", "geometry": {"type": "Polygon", "coordinates": [[[-101.4864316, 36.6821611], [-101.4864428, 36.681965], [-101.4865949, 36.6819705], [-101.4865838, 36.6821666], [-101.4864316, 36.6821611]]]}, "properties": {"osm_id": 874464914, "building": "yes", "name": "", "height": null, "height_m": null, "levels": null, "tract_id": "40139950800", "tract_name": "9508", "tags": {"building": "yes"}}}, {"type": "Feature", "geometry": {"type": "Polygon", "coordinates": [[[-101.4846098, 36.6832186], [-101.4846075, 36.682956], [-101.4843612, 36.6829574], [-101.4843636, 36.68322], [-101.4846098, 36.6832186]]]}, "properties": {"osm_id": 874464915, "building": "yes", "name": "", "height": null, "height_m": null, "levels": null, "tract_id": "40139950800", "tract_name": "9508", "tags": {"building": "yes"}}}, {"type": "Feature", "geometry": {"type": "Polygon", "coordinates": [[[-101.4845775, 36.6835171], [-101.484574, 36.6834125], [-101.4843997, 36.6834163], [-101.4844032, 36.6835209], [-101.4845775, 36.6835171]]]}, "properties": {"osm_id": 874464916, "building": "yes", "name": "", "height": null, "height_m": null, "levels": null, "tract_id": "40139950800", "tract_name": "9508", "tags": {"building": "yes"}}}, {"type": "Feature", "geometry": {"type": "Polygon", "coordinates": [[[-101.4850439, 36.6837706], [-101.4850482, 36.6836556], [-101.4852802, 36.6836579], [-101.4852789, 36.6837375], [-101.4851183, 36.6837359], [-101.4851178, 36.6837706], [-101.4850439, 36.6837706]]]}, "properties": {"osm_id": 874464917, "building": "yes", "name": "", "height": null, "height_m": null, "levels": null, "tract_id": "40139950800", "tract_name": "9508", "tags": {"building": "yes"}}}, {"type": "Feature", "geometry": {"type": "Polygon", "coordinates": [[[-101.4850654, 36.6835624], [-101.4850701, 36.6833723], [-101.485247, 36.6833751], [-101.4852423, 36.6835652], [-101.4850654, 36.6835624]]]}, "properties": {"osm_id": 874464918, "building": "yes", "name": "", "height": null, "height_m": null, "levels": null, "tract_id": "40139950800", "tract_name": "9508", "tags": {"building": "yes"}}}, {"type": "Feature", "geometry": {"type": "Polygon", "coordinates": [[[-101.4850418, 36.6833514], [-101.4852652, 36.6833472], [-101.4852633, 36.6832814], [-101.4850398, 36.6832857], [-101.4850418, 36.6833514]]]}, "properties": {"osm_id": 874464919, "building": "yes", "name": "", "height": null, "height_m": null, "levels": null, "tract_id": "40139950800", "tract_name": "9508", "tags": {"building": "yes"}}}, {"type": "Feature", "geometry": {"type": "Polygon", "coordinates": [[[-101.485252, 36.6832248], [-101.4852502, 36.6831905], [-101.4853152, 36.6831882], [-101.4853119, 36.6831273], [-101.4849725, 36.6831389], [-101.4849776, 36.6832342], [-101.485252, 36.6832248]]]}, "properties": {"osm_id": 874464920, "building": "yes", "name": "", "height": null, "height_m": null, "levels": null, "tract_id": "40139950800", "tract_name": "9508", "tags": {"building": "yes"}}}, {"type": "Feature", "geometry": {"type": "Polygon", "coordinates": [[[-101.4814501, 36.682682], [-101.4809736, 36.6826836], [-101.4809739, 36.6827519], [-101.4814504, 36.6827506], [-101.4814501, 36.682682]]]}, "properties": {"osm_id": 934825866, "building": "yes", "name": "", "height": null, "height_m": null, "levels": null, "tract_id": "40139950800", "tract_name": "9508", "tags": {"building": "yes"}}}, {"type": "Feature", "geometry": {"type": "Polygon", "coordinates": [[[-101.4809733, 36.6826141], [-101.4814498, 36.6826128], [-101.4814494, 36.6825459], [-101.4811005, 36.6825471], [-101.4809729, 36.6825476], [-101.4809733, 36.6826141]]]}, "properties": {"osm_id": 934825867, "building": "yes", "name": "", "height": null, "height_m": null, "levels": null, "tract_id": "40139950800", "tract_name": "9508", "tags": {"building": "yes"}}}, {"type": "Feature", "geometry": {"type": "Polygon", "coordinates": [[[-101.4809736, 36.6826836], [-101.4814501, 36.682682], [-101.4814498, 36.6826128], [-101.4809733, 36.6826141], [-101.4809736, 36.6826836]]]}, "properties": {"osm_id": 934825868, "building": "yes", "name": "", "height": null, "height_m": null, "levels": null, "tract_id": "40139950800", "tract_name": "9508", "tags": {"building": "yes"}}}, {"type": "Feature", "geometry": {"type": "Polygon", "coordinates": [[[-101.4811005, 36.6824808], [-101.4811005, 36.6825471], [-101.4814494, 36.6825459], [-101.4814493, 36.6824806], [-101.4811005, 36.6824808]]]}, "properties": {"osm_id": 934825869, "building": "yes", "name": "", "height": null, "height_m": null, "levels": null, "tract_id": "40139950800", "tract_name": "9508", "tags": {"building": "yes"}}}, {"type": "Feature", "geometry": {"type": "Polygon", "coordinates": [[[-101.4814492, 36.6824016], [-101.4814493, 36.6824806], [-101.4811005, 36.6824808], [-101.4809865, 36.6824808], [-101.4809864, 36.6824019], [-101.4814492, 36.6824016]]]}, "properties": {"osm_id": 934825870, "building": "yes", "name": "", "height": null, "height_m": null, "levels": null, "tract_id": "40139950800", "tract_name": "9508", "tags": {"building": "yes"}}}, {"type": "Feature", "geometry": {"type": "Polygon", "coordinates": [[[-101.4809685, 36.6820046], [-101.4809701, 36.6822011], [-101.4810523, 36.6822006], [-101.4814486, 36.6821986], [-101.481447, 36.6820022], [-101.4809685, 36.6820046]]]}, "properties": {"osm_id": 934825871, "building": "yes", "name": "", "height": null, "height_m": null, "levels": null, "tract_id": "40139950800", "tract_name": "9508", "tags": {"building": "yes"}}}, {"type": "Feature", "geometry": {"type": "Polygon", "coordinates": [[[-101.4824073, 36.6821941], [-101.4824027, 36.6819247], [-101.4825894, 36.6819256], [-101.4825875, 36.6821949], [-101.4824073, 36.6821941]]]}, "properties": {"osm_id": 934825872, "building": "yes", "name": "", "height": null, "height_m": null, "levels": null, "tract_id": "40139950800", "tract_name": "9508", "tags": {"building": "yes"}}}, {"type": "Feature", "geometry": {"type": "Polygon", "coordinates": [[[-101.4819977, 36.6872167], [-101.4818556, 36.6872183], [-101.4818557, 36.6872266], [-101.4817271, 36.687228], [-101.4817254, 36.6871263], [-101.4818592, 36.6871248], [-101.4818595, 36.6871408], [-101.4819963, 36.6871393], [-101.4819977, 36.6872167]]]}, "properties": {"osm_id": 991593190, "building": "yes", "name": "H&R Block", "height": null, "height_m": null, "levels": null, "tract_id": "40139950800", "tract_name": "9508", "tags": {"brand": "H&R Block", "brand:wikidata": "Q5627799", "building": "yes", "name": "H&R Block", "office": "tax_advisor"}}}, {"type": "Feature", "geometry": {"type": "Polygon", "coordinates": [[[-101.4820486, 36.6873533], [-101.4817549, 36.6873523], [-101.4817554, 36.6872662], [-101.4820491, 36.6872673], [-101.4820486, 36.6873533]]]}, "properties": {"osm_id": 991593191, "building": "yes", "name": "", "height": null, "height_m": null, "levels": null, "tract_id": "40139950800", "tract_name": "9508", "tags": {"building": "yes", "healthcare": "alternative", "healthcare:speciality": "chiropractic"}}}, {"type": "Feature", "geometry": {"type": "Polygon", "coordinates": [[[-101.4818998, 36.6871049], [-101.4817294, 36.6871071], [-101.4817267, 36.6869654], [-101.481897, 36.6869633], [-101.4818998, 36.6871049]]]}, "properties": {"osm_id": 991593192, "building": "yes", "name": "", "height": null, "height_m": null, "levels": null, "tract_id": "40139950800", "tract_name": "9508", "tags": {"building": "yes", "shop": "vacant"}}}, {"type": "Feature", "geometry": {"type": "Polygon", "coordinates": [[[-101.4814489, 36.6860842], [-101.4814523, 36.6859442], [-101.4810415, 36.6859442], [-101.4810415, 36.6860828], [-101.4814489, 36.6860842]]]}, "properties": {"osm_id": 1051359250, "building": "yes", "name": "", "height": null, "height_m": null, "levels": null, "tract_id": "40139950800", "tract_name": "9508", "tags": {"building": "yes"}}}, {"type": "Feature", "geometry": {"type": "Polygon", "coordinates": [[[-101.4813271, 36.6777114], [-101.4812426, 36.6777103], [-101.4812439, 36.6776436], [-101.4813284, 36.6776446], [-101.4813271, 36.6777114]]]}, "properties": {"osm_id": 1096435247, "building": "yes", "name": "", "height": null, "height_m": null, "levels": null, "tract_id": "40139950800", "tract_name": "9508", "tags": {"building": "yes"}}}, {"type": "Feature", "geometry": {"type": "Polygon", "coordinates": [[[-101.4814317, 36.6777921], [-101.4813459, 36.6777899], [-101.4813487, 36.677719], [-101.4814345, 36.6777211], [-101.4814317, 36.6777921]]]}, "properties": {"osm_id": 1096435248, "building": "yes", "name": "", "height": null, "height_m": null, "levels": null, "tract_id": "40139950800", "tract_name": "9508", "tags": {"building": "yes"}}}, {"type": "Feature", "geometry": {"type": "Polygon", "coordinates": [[[-101.4808235, 36.6784261], [-101.4807463, 36.6784254], [-101.4807476, 36.6783366], [-101.4808249, 36.6783374], [-101.4808235, 36.6784261]]]}, "properties": {"osm_id": 1096435249, "building": "yes", "name": "", "height": null, "height_m": null, "levels": null, "tract_id": "40139950800", "tract_name": "9508", "tags": {"building": "yes"}}}, {"type": "Feature", "geometry": {"type": "Polygon", "coordinates": [[[-101.4807404, 36.6783379], [-101.4807404, 36.6784272], [-101.4805064, 36.6784272], [-101.4805064, 36.6783379], [-101.4807404, 36.6783379]]]}, "properties": {"osm_id": 1096435250, "building": "yes", "name": "", "height": null, "height_m": null, "levels": null, "tract_id": "40139950800", "tract_name": "9508", "tags": {"building": "yes"}}}, {"type": "Feature", "geometry": {"type": "Polygon", "coordinates": [[[-101.4813325, 36.6771322], [-101.4809818, 36.6771327], [-101.4809816, 36.6770451], [-101.4811367, 36.6770448], [-101.4811366, 36.677015], [-101.4813632, 36.6770146], [-101.4813634, 36.6771096], [-101.4813324, 36.6771096], [-101.4813325, 36.6771322]]]}, "properties": {"osm_id": 1096435251, "building": "yes", "name": "", "height": null, "height_m": null, "levels": null, "tract_id": "40139950800", "tract_name": "9508", "tags": {"building": "yes"}}}, {"type": "Feature", "geometry": {"type": "Polygon", "coordinates": [[[-101.4799011, 36.6769354], [-101.4799022, 36.6770434], [-101.4797952, 36.6770441], [-101.4797983, 36.6773396], [-101.4801273, 36.6773373], [-101.480122, 36.6768408], [-101.4799538, 36.6768419], [-101.4799548, 36.676935], [-101.4799011, 36.6769354]]]}, "properties": {"osm_id": 1096435252, "building": "yes", "name": "", "height": null, "height_m": null, "levels": null, "tract_id": "40139950800", "tract_name": "9508", "tags": {"building": "yes", "source": "microsoft/BuildingFootprints"}}}, {"type": "Feature", "geometry": {"type": "Polygon", "coordinates": [[[-101.481254, 36.677796], [-101.481029, 36.677797], [-101.48103, 36.677896], [-101.481255, 36.677895], [-101.481254, 36.677796]]]}, "properties": {"osm_id": 1096435253, "building": "yes", "name": "", "height": null, "height_m": null, "levels": null, "tract_id": "40139950800", "tract_name": "9508", "tags": {"building": "yes", "source": "microsoft/BuildingFootprints"}}}, {"type": "Feature", "geometry": {"type": "Polygon", "coordinates": [[[-101.4814209, 36.6780853], [-101.4814211, 36.6780003], [-101.4811608, 36.6779998], [-101.4811608, 36.6779933], [-101.4809786, 36.677993], [-101.4809783, 36.6780973], [-101.4811621, 36.6780977], [-101.4811622, 36.6780848], [-101.4814209, 36.6780853]]]}, "properties": {"osm_id": 1096435254, "building": "yes", "name": "", "height": null, "height_m": null, "levels": null, "tract_id": "40139950800", "tract_name": "9508", "tags": {"building": "yes", "source": "microsoft/BuildingFootprints"}}}, {"type": "Feature", "geometry": {"type": "Polygon", "coordinates": [[[-101.4804681, 36.6770911], [-101.4806097, 36.6770919], [-101.4806104, 36.6770159], [-101.4804688, 36.6770151], [-101.4804681, 36.6770911]]]}, "properties": {"osm_id": 1096435255, "building": "yes", "name": "", "height": null, "height_m": null, "levels": null, "tract_id": "40139950800", "tract_name": "9508", "tags": {"building": "yes", "source": "microsoft/BuildingFootprints"}}}, {"type": "Feature", "geometry": {"type": "Polygon", "coordinates": [[[-101.479429, 36.67836], [-101.479821, 36.678362], [-101.479823, 36.677986], [-101.479432, 36.677984], [-101.479429, 36.67836]]]}, "properties": {"osm_id": 1096435256, "building": "yes", "name": "", "height": null, "height_m": null, "levels": null, "tract_id": "40139950800", "tract_name": "9508", "tags": {"building": "yes", "source": "microsoft/BuildingFootprints"}}}, {"type": "Feature", "geometry": {"type": "Polygon", "coordinates": [[[-101.480474, 36.6769543], [-101.480603, 36.6769507], [-101.4806, 36.6768822], [-101.480471, 36.6768858], [-101.480474, 36.6769543]]]}, "properties": {"osm_id": 1096435257, "building": "yes", "name": "", "height": null, "height_m": null, "levels": null, "tract_id": "40139950800", "tract_name": "9508", "tags": {"building": "yes", "source": "microsoft/BuildingFootprints"}}}, {"type": "Feature", "geometry": {"type": "Polygon", "coordinates": [[[-101.480884, 36.6768], [-101.480888, 36.676628], [-101.480732, 36.6766261], [-101.4807297, 36.6767471], [-101.4807058, 36.6767468], [-101.4807031, 36.6768797], [-101.4807271, 36.67688], [-101.480746, 36.67688], [-101.480747, 36.676798], [-101.480884, 36.6768]]]}, "properties": {"osm_id": 1096435258, "building": "yes", "name": "", "height": null, "height_m": null, "levels": null, "tract_id": "40139950800", "tract_name": "9508", "tags": {"building": "yes", "source": "microsoft/BuildingFootprints"}}}, {"type": "Feature", "geometry": {"type": "Polygon", "coordinates": [[[-101.481301, 36.67683], [-101.481373, 36.676831], [-101.481375, 36.676743], [-101.48121, 36.67674], [-101.481208, 36.67686], [-101.4813, 36.676861], [-101.481301, 36.67683]]]}, "properties": {"osm_id": 1096435259, "building": "yes", "name": "", "height": null, "height_m": null, "levels": null, "tract_id": "40139950800", "tract_name": "9508", "tags": {"building": "yes", "source": "microsoft/BuildingFootprints"}}}, {"type": "Feature", "geometry": {"type": "Polygon", "coordinates": [[[-101.4806511, 36.677293], [-101.4806529, 36.6771919], [-101.4806725, 36.6771921], [-101.4806735, 36.6771327], [-101.4805501, 36.6771313], [-101.4805489, 36.6771929], [-101.4804849, 36.6771921], [-101.4804831, 36.677291], [-101.4806511, 36.677293]]]}, "properties": {"osm_id": 1096435260, "building": "yes", "name": "", "height": null, "height_m": null, "levels": null, "tract_id": "40139950800", "tract_name": "9508", "tags": {"building": "yes", "source": "microsoft/BuildingFootprints"}}}, {"type": "Feature", "geometry": {"type": "Polygon", "coordinates": [[[-101.481699, 36.677399], [-101.48182, 36.677397], [-101.481815, 36.677177], [-101.481694, 36.677179], [-101.481699, 36.677399]]]}, "properties": {"osm_id": 1096435261, "building": "hotel", "name": "", "height": null, "height_m": null, "levels": null, "tract_id": "40139950800", "tract_name": "9508", "tags": {"building": "hotel", "source": "microsoft/BuildingFootprints"}}}, {"type": "Feature", "geometry": {"type": "Polygon", "coordinates": [[[-101.480829, 36.678209], [-101.480731, 36.67821], [-101.480732, 36.678317], [-101.48083, 36.678316], [-101.480829, 36.678209]]]}, "properties": {"osm_id": 1096435262, "building": "yes", "name": "", "height": null, "height_m": null, "levels": null, "tract_id": "40139950800", "tract_name": "9508", "tags": {"building": "yes", "source": "microsoft/BuildingFootprints"}}}, {"type": "Feature", "geometry": {"type": "Polygon", "coordinates": [[[-101.482186, 36.676875], [-101.481705, 36.676877], [-101.481706, 36.677104], [-101.481799, 36.677104], [-101.481798, 36.676949], [-101.482096, 36.676948], [-101.482098, 36.67735], [-101.482033, 36.67735], [-101.482034, 36.677424], [-101.482189, 36.677424], [-101.482186, 36.676875]]]}, "properties": {"osm_id": 1096435263, "building": "hotel", "name": "", "height": null, "height_m": null, "levels": null, "tract_id": "40139950800", "tract_name": "9508", "tags": {"building": "hotel", "source": "microsoft/BuildingFootprints"}}}, {"type": "Feature", "geometry": {"type": "Polygon", "coordinates": [[[-101.481206, 36.676996], [-101.481297, 36.676998], [-101.481298, 36.676966], [-101.481372, 36.676967], [-101.481375, 36.676879], [-101.48121, 36.676876], [-101.481206, 36.676996]]]}, "properties": {"osm_id": 1096435264, "building": "yes", "name": "", "height": null, "height_m": null, "levels": null, "tract_id": "40139950800", "tract_name": "9508", "tags": {"building": "yes", "source": "microsoft/BuildingFootprints"}}}, {"type": "Feature", "geometry": {"type": "Polygon", "coordinates": [[[-101.4804815, 36.6778487], [-101.4806212, 36.6778483], [-101.4806208, 36.6777931], [-101.4806567, 36.677793], [-101.4806563, 36.677722], [-101.4806203, 36.6777221], [-101.4806202, 36.6777043], [-101.4804795, 36.6777047], [-101.4804815, 36.6778487]]]}, "properties": {"osm_id": 1096435265, "building": "yes", "name": "", "height": null, "height_m": null, "levels": null, "tract_id": "40139950800", "tract_name": "9508", "tags": {"building": "yes", "source": "microsoft/BuildingFootprints"}}}, {"type": "Feature", "geometry": {"type": "Polygon", "coordinates": [[[-101.480727, 36.678018], [-101.480885, 36.678019], [-101.480886, 36.677935], [-101.480728, 36.677934], [-101.480727, 36.678018]]]}, "properties": {"osm_id": 1096435266, "building": "yes", "name": "", "height": null, "height_m": null, "levels": null, "tract_id": "40139950800", "tract_name": "9508", "tags": {"building": "yes", "source": "microsoft/BuildingFootprints"}}}, {"type": "Feature", "geometry": {"type": "Polygon", "coordinates": [[[-101.479834, 36.678012], [-101.479835, 36.678105], [-101.479921, 36.678104], [-101.479919, 36.678011], [-101.479834, 36.678012]]]}, "properties": {"osm_id": 1096435267, "building": "yes", "name": "", "height": null, "height_m": null, "levels": null, "tract_id": "40139950800", "tract_name": "9508", "tags": {"building": "yes", "source": "microsoft/BuildingFootprints"}}}, {"type": "Feature", "geometry": {"type": "Polygon", "coordinates": [[[-101.481317, 36.67844], [-101.481315, 36.678337], [-101.481106, 36.678339], [-101.481108, 36.678442], [-101.481317, 36.67844]]]}, "properties": {"osm_id": 1096435268, "building": "yes", "name": "", "height": null, "height_m": null, "levels": null, "tract_id": "40139950800", "tract_name": "9508", "tags": {"building": "yes", "source": "microsoft/BuildingFootprints"}}}, {"type": "Feature", "geometry": {"type": "Polygon", "coordinates": [[[-101.480956, 36.676656], [-101.480958, 36.676727], [-101.481099, 36.676725], [-101.481096, 36.676609], [-101.480995, 36.67661], [-101.480996, 36.676656], [-101.480956, 36.676656]]]}, "properties": {"osm_id": 1096435269, "building": "yes", "name": "", "height": null, "height_m": null, "levels": null, "tract_id": "40139950800", "tract_name": "9508", "tags": {"building": "yes", "source": "microsoft/BuildingFootprints"}}}, {"type": "Feature", "geometry": {"type": "Polygon", "coordinates": [[[-101.480553, 36.678235], [-101.4804654, 36.6782334], [-101.4804634, 36.6783044], [-101.480551, 36.678306], [-101.480553, 36.678235]]]}, "properties": {"osm_id": 1096435270, "building": "yes", "name": "", "height": null, "height_m": null, "levels": null, "tract_id": "40139950800", "tract_name": "9508", "tags": {"building": "yes", "source": "microsoft/BuildingFootprints"}}}, {"type": "Feature", "geometry": {"type": "Polygon", "coordinates": [[[-101.481754, 36.676626], [-101.481756, 36.67685], [-101.481896, 36.676849], [-101.481895, 36.676743], [-101.482007, 36.676742], [-101.482006, 36.676625], [-101.481754, 36.676626]]]}, "properties": {"osm_id": 1096435271, "building": "yes", "name": "", "height": null, "height_m": null, "levels": null, "tract_id": "40139950800", "tract_name": "9508", "tags": {"building": "yes", "source": "microsoft/BuildingFootprints"}}}, {"type": "Feature", "geometry": {"type": "Polygon", "coordinates": [[[-101.480856, 36.67803], [-101.480733, 36.678027], [-101.48073, 36.678143], [-101.480853, 36.678146], [-101.480856, 36.67803]]]}, "properties": {"osm_id": 1096435272, "building": "yes", "name": "", "height": null, "height_m": null, "levels": null, "tract_id": "40139950800", "tract_name": "9508", "tags": {"building": "yes", "source": "microsoft/BuildingFootprints"}}}, {"type": "Feature", "geometry": {"type": "Polygon", "coordinates": [[[-101.4799459, 36.6766122], [-101.4799497, 36.6767793], [-101.4800467, 36.6767775], [-101.4800419, 36.6766104], [-101.4799459, 36.6766122]]]}, "properties": {"osm_id": 1096435273, "building": "yes", "name": "", "height": null, "height_m": null, "levels": null, "tract_id": "40139950800", "tract_name": "9508", "tags": {"building": "yes", "source": "microsoft/BuildingFootprints"}}}, {"type": "Feature", "geometry": {"type": "Polygon", "coordinates": [[[-101.468464, 36.6786735], [-101.4681501, 36.6792813], [-101.4683946, 36.6793626], [-101.4687087, 36.6787549], [-101.468464, 36.6786735]]]}, "properties": {"osm_id": 1136765276, "building": "yes", "name": "", "height": null, "height_m": null, "levels": null, "tract_id": "40139950800", "tract_name": "9508", "tags": {"building": "yes"}}}, {"type": "Feature", "geometry": {"type": "Polygon", "coordinates": [[[-101.4691365, 36.6789242], [-101.4691303, 36.6792489], [-101.4695125, 36.6792536], [-101.4695187, 36.6789289], [-101.4691365, 36.6789242]]]}, "properties": {"osm_id": 1136765277, "building": "yes", "name": "", "height": null, "height_m": null, "levels": null, "tract_id": "40139950800", "tract_name": "9508", "tags": {"building": "yes"}}}, {"type": "Feature", "geometry": {"type": "Polygon", "coordinates": [[[-101.4681109, 36.675481], [-101.4681193, 36.6755113], [-101.4681433, 36.6755983], [-101.4680456, 36.6756157], [-101.4680132, 36.6754984], [-101.4681109, 36.675481]]]}, "properties": {"osm_id": 1136765284, "building": "yes", "name": "", "height": null, "height_m": null, "levels": null, "tract_id": "40139950800", "tract_name": "9508", "tags": {"building": "yes"}}}, {"type": "Feature", "geometry": {"type": "Polygon", "coordinates": [[[-101.4682014, 36.6755521], [-101.4682209, 36.6756265], [-101.4683131, 36.6756109], [-101.4682935, 36.6755366], [-101.4682014, 36.6755521]]]}, "properties": {"osm_id": 1136765285, "building": "yes", "name": "", "height": null, "height_m": null, "levels": null, "tract_id": "40139950800", "tract_name": "9508", "tags": {"building": "yes"}}}, {"type": "Feature", "geometry": {"type": "Polygon", "coordinates": [[[-101.4680268, 36.6757093], [-101.468021, 36.67576], [-101.4680704, 36.6757636], [-101.4680762, 36.6757129], [-101.4680268, 36.6757093]]]}, "properties": {"osm_id": 1136765286, "building": "yes", "name": "", "height": null, "height_m": null, "levels": null, "tract_id": "40139950800", "tract_name": "9508", "tags": {"building": "yes"}}}, {"type": "Feature", "geometry": {"type": "Polygon", "coordinates": [[[-101.4686628, 36.6756647], [-101.4686347, 36.6757116], [-101.4686863, 36.6757315], [-101.4686968, 36.6757139], [-101.4687144, 36.6756846], [-101.4686628, 36.6756647]]]}, "properties": {"osm_id": 1136765287, "building": "yes", "name": "", "height": null, "height_m": null, "levels": null, "tract_id": "40139950800", "tract_name": "9508", "tags": {"building": "yes"}}}, {"type": "Feature", "geometry": {"type": "Polygon", "coordinates": [[[-101.4688195, 36.6755686], [-101.4687914, 36.6756155], [-101.468843, 36.6756354], [-101.4688711, 36.6755885], [-101.4688195, 36.6755686]]]}, "properties": {"osm_id": 1136765288, "building": "yes", "name": "", "height": null, "height_m": null, "levels": null, "tract_id": "40139950800", "tract_name": "9508", "tags": {"building": "yes"}}}, {"type": "Feature", "geometry": {"type": "Polygon", "coordinates": [[[-101.4689254, 36.6757492], [-101.468908, 36.6757781], [-101.4688972, 36.6757961], [-101.4689489, 36.675816], [-101.468977, 36.6757691], [-101.4689254, 36.6757492]]]}, "properties": {"osm_id": 1136765289, "building": "yes", "name": "", "height": null, "height_m": null, "levels": null, "tract_id": "40139950800", "tract_name": "9508", "tags": {"building": "yes"}}}, {"type": "Feature", "geometry": {"type": "Polygon", "coordinates": [[[-101.4694013, 36.675849], [-101.469415, 36.6757981], [-101.469359, 36.6757884], [-101.4693453, 36.6758392], [-101.4694013, 36.675849]]]}, "properties": {"osm_id": 1136765290, "building": "yes", "name": "", "height": null, "height_m": null, "levels": null, "tract_id": "40139950800", "tract_name": "9508", "tags": {"building": "yes"}}}, {"type": "Feature", "geometry": {"type": "Polygon", "coordinates": [[[-101.4694378, 36.675686], [-101.4694515, 36.6756351], [-101.4693955, 36.6756254], [-101.4693818, 36.6756762], [-101.4694378, 36.675686]]]}, "properties": {"osm_id": 1136765291, "building": "yes", "name": "", "height": null, "height_m": null, "levels": null, "tract_id": "40139950800", "tract_name": "9508", "tags": {"building": "yes"}}}, {"type": "Feature", "geometry": {"type": "Polygon", "coordinates": [[[-101.4657698, 36.6765572], [-101.4657695, 36.6766632], [-101.4660403, 36.6766636], [-101.4660405, 36.6765576], [-101.4657698, 36.6765572]]]}, "properties": {"osm_id": 1136765309, "building": "yes", "name": "", "height": null, "height_m": null, "levels": null, "tract_id": "40139950800", "tract_name": "9508", "tags": {"building": "yes"}}}, {"type": "Feature", "geometry": {"type": "Polygon", "coordinates": [[[-101.4698313, 36.6755487], [-101.4698396, 36.6757891], [-101.470002, 36.6757855], [-101.4699937, 36.6755451], [-101.4698313, 36.6755487]]]}, "properties": {"osm_id": 1136765312, "building": "yes", "name": "", "height": null, "height_m": null, "levels": null, "tract_id": "40139950800", "tract_name": "9508", "tags": {"building": "yes"}}}, {"type": "Feature", "geometry": {"type": "Polygon", "coordinates": [[[-101.46998, 36.6759425], [-101.469981, 36.6760084], [-101.4700762, 36.6760075], [-101.4700752, 36.6759416], [-101.46998, 36.6759425]]]}, "properties": {"osm_id": 1136765313, "building": "yes", "name": "", "height": null, "height_m": null, "levels": null, "tract_id": "40139950800", "tract_name": "9508", "tags": {"building": "yes"}}}, {"type": "Feature", "geometry": {"type": "Polygon", "coordinates": [[[-101.4704347, 36.6820073], [-101.4704012, 36.6820652], [-101.470554, 36.6821221], [-101.4705875, 36.6820642], [-101.4704347, 36.6820073]]]}, "properties": {"osm_id": 1136765315, "building": "roof", "name": "", "height": null, "height_m": null, "levels": null, "tract_id": "40139950800", "tract_name": "9508", "tags": {"building": "roof", "layer": "1"}}}, {"type": "Feature", "geometry": {"type": "Polygon", "coordinates": [[[-101.4704764, 36.6818723], [-101.4707289, 36.681968], [-101.4708647, 36.6817375], [-101.4697938, 36.6813316], [-101.4697173, 36.6814615], [-101.4705357, 36.6817718], [-101.4704764, 36.6818723]]]}, "properties": {"osm_id": 1136765316, "building": "yes", "name": "", "height": null, "height_m": null, "levels": null, "tract_id": "40139950800", "tract_name": "9508", "tags": {"building": "yes"}}}, {"type": "Feature", "geometry": {"type": "Polygon", "coordinates": [[[-101.4698376, 36.6824347], [-101.4698403, 36.6825343], [-101.4695739, 36.6825389], [-101.4695712, 36.6824394], [-101.4698376, 36.6824347]]]}, "properties": {"osm_id": 1136765317, "building": "roof", "name": "", "height": null, "height_m": null, "levels": null, "tract_id": "40139950800", "tract_name": "9508", "tags": {"building": "roof", "layer": "1"}}}, {"type": "Feature", "geometry": {"type": "Polygon", "coordinates": [[[-101.4700672, 36.6826463], [-101.4700538, 36.6829344], [-101.4701681, 36.6829379], [-101.4701816, 36.6826497], [-101.4700672, 36.6826463]]]}, "properties": {"osm_id": 1136765318, "building": "roof", "name": "", "height": null, "height_m": null, "levels": null, "tract_id": "40139950800", "tract_name": "9508", "tags": {"building": "roof", "layer": "1"}}}, {"type": "Feature", "geometry": {"type": "Polygon", "coordinates": [[[-101.4695257, 36.6826151], [-101.4695178, 36.6828973], [-101.4693637, 36.6828945], [-101.4693717, 36.6826123], [-101.4695257, 36.6826151]]]}, "properties": {"osm_id": 1136765319, "building": "yes", "name": "", "height": null, "height_m": null, "levels": null, "tract_id": "40139950800", "tract_name": "9508", "tags": {"building": "yes"}}}, {"type": "Feature", "geometry": {"type": "Polygon", "coordinates": [[[-101.4919749, 36.6886394], [-101.4919731, 36.6885644], [-101.4918775, 36.6885659], [-101.4918767, 36.6885313], [-101.4919118, 36.6885308], [-101.49191, 36.6884568], [-101.4917661, 36.6884591], [-101.4917669, 36.6884919], [-101.4916914, 36.6884931], [-101.4916942, 36.688609], [-101.4917315, 36.6886084], [-101.4917323, 36.6886431], [-101.4919749, 36.6886394]]]}, "properties": {"osm_id": 1149320162, "building": "yes", "name": "", "height": null, "height_m": null, "levels": null, "tract_id": "40139950800", "tract_name": "9508", "tags": {"amenity": "place_of_worship", "building": "yes", "denomination": "jehovahs_witness", "religion": "christian"}}}, {"type": "Feature", "geometry": {"type": "Polygon", "coordinates": [[[-101.482374, 36.6784403], [-101.4823794, 36.6782897], [-101.4822704, 36.6782872], [-101.4822651, 36.6784378], [-101.482374, 36.6784403]]]}, "properties": {"osm_id": 1343466141, "building": "yes", "name": "", "height": null, "height_m": null, "levels": null, "tract_id": "40139950800", "tract_name": "9508", "tags": {"building": "yes"}}}, {"type": "Feature", "geometry": {"type": "Polygon", "coordinates": [[[-101.478849, 36.6771777], [-101.4783493, 36.6771767], [-101.4783486, 36.6773753], [-101.4785736, 36.6773758], [-101.4785734, 36.6774265], [-101.4788482, 36.677427], [-101.478849, 36.6771777]]]}, "properties": {"osm_id": 1343466142, "building": "yes", "name": "", "height": null, "height_m": null, "levels": null, "tract_id": "40139950800", "tract_name": "9508", "tags": {"building": "yes"}}}, {"type": "Feature", "geometry": {"type": "Polygon", "coordinates": [[[-101.4788406, 36.6771144], [-101.4788403, 36.6770004], [-101.4784838, 36.6770009], [-101.4784217, 36.677001], [-101.4784219, 36.6771151], [-101.4788406, 36.6771144]]]}, "properties": {"osm_id": 1343466143, "building": "yes", "name": "", "height": null, "height_m": null, "levels": null, "tract_id": "40139950800", "tract_name": "9508", "tags": {"building": "yes"}}}, {"type": "Feature", "geometry": {"type": "Polygon", "coordinates": [[[-101.4788317, 36.6769879], [-101.4788308, 36.6768757], [-101.4784827, 36.6768775], [-101.4784836, 36.6769897], [-101.4788317, 36.6769879]]]}, "properties": {"osm_id": 1343466144, "building": "yes", "name": "", "height": null, "height_m": null, "levels": null, "tract_id": "40139950800", "tract_name": "9508", "tags": {"building": "yes"}}}, {"type": "Feature", "geometry": {"type": "Polygon", "coordinates": [[[-101.4792696, 36.6771265], [-101.4795582, 36.6771268], [-101.4795584, 36.6769551], [-101.4792698, 36.6769549], [-101.4792696, 36.6771265]]]}, "properties": {"osm_id": 1343466145, "building": "yes", "name": "", "height": null, "height_m": null, "levels": null, "tract_id": "40139950800", "tract_name": "9508", "tags": {"building": "yes"}}}, {"type": "Feature", "geometry": {"type": "Polygon", "coordinates": [[[-101.479565, 36.6772382], [-101.4795643, 36.6771551], [-101.4794218, 36.6771559], [-101.479422, 36.6771739], [-101.4793099, 36.6771746], [-101.4793104, 36.6772396], [-101.479565, 36.6772382]]]}, "properties": {"osm_id": 1343466146, "building": "yes", "name": "", "height": null, "height_m": null, "levels": null, "tract_id": "40139950800", "tract_name": "9508", "tags": {"building": "yes"}}}, {"type": "Feature", "geometry": {"type": "Polygon", "coordinates": [[[-101.4793155, 36.6767283], [-101.4793153, 36.6766382], [-101.4791791, 36.6766385], [-101.4791794, 36.6767285], [-101.4793155, 36.6767283]]]}, "properties": {"osm_id": 1343466147, "building": "yes", "name": "", "height": null, "height_m": null, "levels": null, "tract_id": "40139950800", "tract_name": "9508", "tags": {"building": "yes"}}}, {"type": "Feature", "geometry": {"type": "Polygon", "coordinates": [[[-101.4809035, 36.6819271], [-101.4809019, 36.6821315], [-101.480817, 36.6821311], [-101.4808155, 36.682315], [-101.480725, 36.6823146], [-101.480728, 36.6819262], [-101.4809035, 36.6819271]]]}, "properties": {"osm_id": 1343466148, "building": "yes", "name": "", "height": null, "height_m": null, "levels": null, "tract_id": "40139950800", "tract_name": "9508", "tags": {"building": "yes"}}}, {"type": "Feature", "geometry": {"type": "Polygon", "coordinates": [[[-101.4792955, 36.6827523], [-101.4792946, 36.6824764], [-101.479121, 36.6824768], [-101.4791218, 36.6827526], [-101.4792955, 36.6827523]]]}, "properties": {"osm_id": 1343466149, "building": "yes", "name": "", "height": null, "height_m": null, "levels": null, "tract_id": "40139950800", "tract_name": "9508", "tags": {"building": "yes"}}}, {"type": "Feature", "geometry": {"type": "Polygon", "coordinates": [[[-101.4809046, 36.6837982], [-101.4809031, 36.6836589], [-101.4806644, 36.6836605], [-101.4806659, 36.6837998], [-101.4809046, 36.6837982]]]}, "properties": {"osm_id": 1343466150, "building": "yes", "name": "", "height": null, "height_m": null, "levels": null, "tract_id": "40139950800", "tract_name": "9508", "tags": {"building": "yes"}}}, {"type": "Feature", "geometry": {"type": "Polygon", "coordinates": [[[-101.4872797, 36.6801281], [-101.4872806, 36.6800315], [-101.4869948, 36.6800297], [-101.4869946, 36.6800466], [-101.4869707, 36.6800464], [-101.4869701, 36.6801084], [-101.4870025, 36.6801086], [-101.4870019, 36.6801677], [-101.4872652, 36.6801694], [-101.4872656, 36.680128], [-101.4872797, 36.6801281]]]}, "properties": {"osm_id": 1343466151, "building": "yes", "name": "", "height": null, "height_m": null, "levels": null, "tract_id": "40139950800", "tract_name": "9508", "tags": {"building": "yes"}}}, {"type": "Feature", "geometry": {"type": "Polygon", "coordinates": [[[-101.472013, 36.6822382], [-101.4717116, 36.6823308], [-101.4716718, 36.6822478], [-101.4719733, 36.6821551], [-101.472013, 36.6822382]]]}, "properties": {"osm_id": 1343466152, "building": "yes", "name": "", "height": null, "height_m": null, "levels": null, "tract_id": "40139950800", "tract_name": "9508", "tags": {"building": "yes"}}}, {"type": "Feature", "geometry": {"type": "Polygon", "coordinates": [[[-101.4716881, 36.6824153], [-101.4714726, 36.682075], [-101.4712946, 36.6821475], [-101.47151, 36.6824878], [-101.4716881, 36.6824153]]]}, "properties": {"osm_id": 1343466153, "building": "yes", "name": "", "height": null, "height_m": null, "levels": null, "tract_id": "40139950800", "tract_name": "9508", "tags": {"building": "yes"}}}, {"type": "Feature", "geometry": {"type": "Polygon", "coordinates": [[[-101.4838185, 36.6779991], [-101.4836356, 36.677998], [-101.4836382, 36.6777241], [-101.4838212, 36.6777252], [-101.4838185, 36.6779991]]]}, "properties": {"osm_id": 1381888661, "building": "yes", "name": "", "height": null, "height_m": null, "levels": null, "tract_id": "40139950800", "tract_name": "9508", "tags": {"building": "yes"}}}, {"type": "Feature", "geometry": {"type": "Polygon", "coordinates": [[[-101.4842814, 36.6779088], [-101.4842797, 36.6776339], [-101.4845789, 36.6776327], [-101.4845796, 36.6777504], [-101.4845432, 36.6777505], [-101.4845439, 36.677862], [-101.484463, 36.6778623], [-101.4844633, 36.6779081], [-101.4842814, 36.6779088]]]}, "properties": {"osm_id": 1381888662, "building": "yes", "name": "", "height": null, "height_m": null, "levels": null, "tract_id": "40139950800", "tract_name": "9508", "tags": {"building": "yes"}}}, {"type": "Feature", "geometry": {"type": "Polygon", "coordinates": [[[-101.4833151, 36.6788358], [-101.483225, 36.6787598], [-101.4831382, 36.6788259], [-101.4831595, 36.6788439], [-101.4830891, 36.6788976], [-101.483158, 36.6789557], [-101.4833151, 36.6788358]]]}, "properties": {"osm_id": 1381888663, "building": "yes", "name": "", "height": null, "height_m": null, "levels": null, "tract_id": "40139950800", "tract_name": "9508", "tags": {"building": "yes"}}}, {"type": "Feature", "geometry": {"type": "Polygon", "coordinates": [[[-101.4831397, 36.6786955], [-101.4830035, 36.6786955], [-101.4830035, 36.6785895], [-101.4831397, 36.6785895], [-101.4831397, 36.6786955]]]}, "properties": {"osm_id": 1381888664, "building": "yes", "name": "", "height": null, "height_m": null, "levels": null, "tract_id": "40139950800", "tract_name": "9508", "tags": {"building": "yes"}}}, {"type": "Feature", "geometry": {"type": "Polygon", "coordinates": [[[-101.4833442, 36.6785775], [-101.4829895, 36.6785764], [-101.4829901, 36.6784548], [-101.4833448, 36.678456], [-101.4833442, 36.6785775]]]}, "properties": {"osm_id": 1381888665, "building": "yes", "name": "", "height": null, "height_m": null, "levels": null, "tract_id": "40139950800", "tract_name": "9508", "tags": {"building": "yes"}}}, {"type": "Feature", "geometry": {"type": "Polygon", "coordinates": [[[-101.4831847, 36.6781855], [-101.4833963, 36.678184], [-101.4833948, 36.6780459], [-101.4831876, 36.6780474], [-101.4831874, 36.6780295], [-101.4830182, 36.6780307], [-101.48302, 36.6782014], [-101.4831849, 36.6782003], [-101.4831847, 36.6781855]]]}, "properties": {"osm_id": 1381888666, "building": "yes", "name": "", "height": null, "height_m": null, "levels": null, "tract_id": "40139950800", "tract_name": "9508", "tags": {"building": "yes"}}}, {"type": "Feature", "geometry": {"type": "Polygon", "coordinates": [[[-101.4821106, 36.677924], [-101.4819288, 36.6779255], [-101.4819257, 36.6776909], [-101.4819986, 36.6776902], [-101.4820004, 36.6778322], [-101.4821094, 36.6778312], [-101.4821106, 36.677924]]]}, "properties": {"osm_id": 1381888667, "building": "yes", "name": "", "height": null, "height_m": null, "levels": null, "tract_id": "40139950800", "tract_name": "9508", "tags": {"building": "yes"}}}, {"type": "Feature", "geometry": {"type": "Polygon", "coordinates": [[[-101.4825708, 36.6780436], [-101.4825713, 36.6778879], [-101.4824209, 36.6778876], [-101.4824203, 36.6780432], [-101.4825708, 36.6780436]]]}, "properties": {"osm_id": 1381888668, "building": "yes", "name": "", "height": null, "height_m": null, "levels": null, "tract_id": "40139950800", "tract_name": "9508", "tags": {"building": "yes"}}}, {"type": "Feature", "geometry": {"type": "Polygon", "coordinates": [[[-101.4826652, 36.6778147], [-101.4824449, 36.6778164], [-101.482444, 36.677743], [-101.4826643, 36.6777413], [-101.4826652, 36.6778147]]]}, "properties": {"osm_id": 1381888669, "building": "yes", "name": "", "height": null, "height_m": null, "levels": null, "tract_id": "40139950800", "tract_name": "9508", "tags": {"building": "yes"}}}, {"type": "Feature", "geometry": {"type": "Polygon", "coordinates": [[[-101.483365, 36.6778247], [-101.4830764, 36.6778235], [-101.483077, 36.6777371], [-101.4833656, 36.6777383], [-101.483365, 36.6778247]]]}, "properties": {"osm_id": 1381888670, "building": "yes", "name": "", "height": null, "height_m": null, "levels": null, "tract_id": "40139950800", "tract_name": "9508", "tags": {"building": "yes"}}}, {"type": "Feature", "geometry": {"type": "Polygon", "coordinates": [[[-101.4847915, 36.6775811], [-101.4847022, 36.6775807], [-101.4847026, 36.6775169], [-101.484792, 36.6775172], [-101.4847915, 36.6775811]]]}, "properties": {"osm_id": 1381888671, "building": "shed", "name": "", "height": null, "height_m": null, "levels": null, "tract_id": "40139950800", "tract_name": "9508", "tags": {"building": "shed"}}}, {"type": "Feature", "geometry": {"type": "Polygon", "coordinates": [[[-101.4852897, 36.6773593], [-101.4850674, 36.6774549], [-101.4850234, 36.6773891], [-101.4852457, 36.6772935], [-101.4852897, 36.6773593]]]}, "properties": {"osm_id": 1381888672, "building": "yes", "name": "", "height": null, "height_m": null, "levels": null, "tract_id": "40139950800", "tract_name": "9508", "tags": {"building": "yes"}}}, {"type": "Feature", "geometry": {"type": "Polygon", "coordinates": [[[-101.4822498, 36.6786842], [-101.4822512, 36.6789929], [-101.4823477, 36.6789262], [-101.4823451, 36.6786864], [-101.4822498, 36.6786842]]]}, "properties": {"osm_id": 1381888673, "building": "yes", "name": "", "height": null, "height_m": null, "levels": null, "tract_id": "40139950800", "tract_name": "9508", "tags": {"building": "yes"}}}, {"type": "Feature", "geometry": {"type": "Polygon", "coordinates": [[[-101.4825796, 36.6788297], [-101.4826174, 36.6788632], [-101.4827539, 36.6787639], [-101.4826747, 36.6786939], [-101.4824766, 36.6788381], [-101.482518, 36.6788746], [-101.4825796, 36.6788297]]]}, "properties": {"osm_id": 1381888674, "building": "yes", "name": "", "height": null, "height_m": null, "levels": null, "tract_id": "40139950800", "tract_name": "9508", "tags": {"building": "yes"}}}, {"type": "Feature", "geometry": {"type": "Polygon", "coordinates": [[[-101.4817885, 36.6794403], [-101.4817872, 36.6794629], [-101.4818529, 36.6795189], [-101.4820688, 36.6793608], [-101.481928, 36.6792317], [-101.4817228, 36.6793866], [-101.4817885, 36.6794403]]]}, "properties": {"osm_id": 1381888675, "building": "yes", "name": "", "height": null, "height_m": null, "levels": null, "tract_id": "40139950800", "tract_name": "9508", "tags": {"building": "yes"}}}, {"type": "Feature", "geometry": {"type": "Polygon", "coordinates": [[[-101.4824379, 36.6794577], [-101.482357, 36.6795157], [-101.4823053, 36.6794694], [-101.4823863, 36.6794113], [-101.4824379, 36.6794577]]]}, "properties": {"osm_id": 1381888676, "building": "yes", "name": "", "height": null, "height_m": null, "levels": null, "tract_id": "40139950800", "tract_name": "9508", "tags": {"building": "yes"}}}, {"type": "Feature", "geometry": {"type": "Polygon", "coordinates": [[[-101.4821777, 36.6786887], [-101.4821744, 36.6789729], [-101.4820198, 36.6789717], [-101.4820214, 36.6788352], [-101.4817958, 36.6788335], [-101.4817967, 36.6787611], [-101.4818434, 36.6787301], [-101.481844, 36.6786862], [-101.4821777, 36.6786887]]]}, "properties": {"osm_id": 1381888677, "building": "yes", "name": "", "height": null, "height_m": null, "levels": null, "tract_id": "40139950800", "tract_name": "9508", "tags": {"building": "yes"}}}, {"type": "Feature", "geometry": {"type": "Polygon", "coordinates": [[[-101.4814305, 36.6791213], [-101.4814293, 36.6789737], [-101.4810973, 36.6789753], [-101.481098, 36.6790701], [-101.4810984, 36.679123], [-101.4814305, 36.6791213]]]}, "properties": {"osm_id": 1381888678, "building": "yes", "name": "", "height": null, "height_m": null, "levels": null, "tract_id": "40139950800", "tract_name": "9508", "tags": {"building": "yes"}}}, {"type": "Feature", "geometry": {"type": "Polygon", "coordinates": [[[-101.481098, 36.6790701], [-101.4809535, 36.6790724], [-101.4809473, 36.6788117], [-101.4810919, 36.6788095], [-101.4810973, 36.6789753], [-101.481098, 36.6790701]]]}, "properties": {"osm_id": 1381888679, "building": "yes", "name": "", "height": null, "height_m": null, "levels": null, "tract_id": "40139950800", "tract_name": "9508", "tags": {"building": "yes"}}}, {"type": "Feature", "geometry": {"type": "Polygon", "coordinates": [[[-101.4807416, 36.6790252], [-101.4805114, 36.6790256], [-101.4805112, 36.6789334], [-101.4804816, 36.6789334], [-101.4804813, 36.6788154], [-101.4805121, 36.6788153], [-101.4805119, 36.678741], [-101.4805454, 36.6787409], [-101.4805453, 36.6787247], [-101.480636, 36.6787246], [-101.480636, 36.6787396], [-101.4806723, 36.6787396], [-101.4806727, 36.6788791], [-101.4807412, 36.678879], [-101.4807416, 36.6790252]]]}, "properties": {"osm_id": 1381888680, "building": "yes", "name": "", "height": null, "height_m": null, "levels": null, "tract_id": "40139950800", "tract_name": "9508", "tags": {"building": "yes"}}}, {"type": "Feature", "geometry": {"type": "Polygon", "coordinates": [[[-101.4805939, 36.6793777], [-101.4805933, 36.6793493], [-101.4806553, 36.6793485], [-101.4806548, 36.6793212], [-101.480726, 36.6793203], [-101.4807247, 36.6792568], [-101.4804818, 36.67926], [-101.4804829, 36.6793147], [-101.4804579, 36.679315], [-101.4804588, 36.6793603], [-101.4804805, 36.67936], [-101.4804809, 36.6793792], [-101.4805939, 36.6793777]]]}, "properties": {"osm_id": 1381888681, "building": "yes", "name": "", "height": null, "height_m": null, "levels": null, "tract_id": "40139950800", "tract_name": "9508", "tags": {"building": "yes"}}}, {"type": "Feature", "geometry": {"type": "Polygon", "coordinates": [[[-101.4800793, 36.6794556], [-101.4798634, 36.679455], [-101.479864, 36.6793421], [-101.4800799, 36.6793427], [-101.4800793, 36.6794556]]]}, "properties": {"osm_id": 1381888682, "building": "yes", "name": "", "height": null, "height_m": null, "levels": null, "tract_id": "40139950800", "tract_name": "9508", "tags": {"building": "yes"}}}, {"type": "Feature", "geometry": {"type": "Polygon", "coordinates": [[[-101.4800618, 36.6789797], [-101.4800611, 36.6789423], [-101.4800606, 36.6789114], [-101.4801223, 36.6789107], [-101.4801234, 36.678979], [-101.4800618, 36.6789797]]]}, "properties": {"osm_id": 1381888683, "building": "yes", "name": "", "height": null, "height_m": null, "levels": null, "tract_id": "40139950800", "tract_name": "9508", "tags": {"building": "yes"}}}, {"type": "Feature", "geometry": {"type": "Polygon", "coordinates": [[[-101.4800611, 36.6789423], [-101.4799327, 36.6789455], [-101.4799314, 36.6789186], [-101.479859, 36.6789197], [-101.4798603, 36.678938], [-101.4798295, 36.678938], [-101.4798255, 36.678867], [-101.4800602, 36.6788616], [-101.4800606, 36.6789114], [-101.4800611, 36.6789423]]]}, "properties": {"osm_id": 1381888684, "building": "yes", "name": "", "height": null, "height_m": null, "levels": null, "tract_id": "40139950800", "tract_name": "9508", "tags": {"building": "yes"}}}, {"type": "Feature", "geometry": {"type": "Polygon", "coordinates": [[[-101.4810803, 36.679614], [-101.4809925, 36.6796157], [-101.4809892, 36.6795026], [-101.481077, 36.6795009], [-101.4810803, 36.679614]]]}, "properties": {"osm_id": 1381888685, "building": "yes", "name": "", "height": null, "height_m": null, "levels": null, "tract_id": "40139950800", "tract_name": "9508", "tags": {"building": "yes"}}}, {"type": "Feature", "geometry": {"type": "Polygon", "coordinates": [[[-101.4808895, 36.6798119], [-101.4808894, 36.6796549], [-101.4808134, 36.6796543], [-101.4807493, 36.679655], [-101.4807494, 36.6798119], [-101.4808895, 36.6798119]]]}, "properties": {"osm_id": 1381888686, "building": "yes", "name": "", "height": null, "height_m": null, "levels": null, "tract_id": "40139950800", "tract_name": "9508", "tags": {"building": "yes"}}}, {"type": "Feature", "geometry": {"type": "Polygon", "coordinates": [[[-101.4808134, 36.6796543], [-101.4808137, 36.6796275], [-101.4808401, 36.6796277], [-101.4808406, 36.6795905], [-101.4807429, 36.6795897], [-101.4807437, 36.6795281], [-101.4808908, 36.6795292], [-101.4808894, 36.6796549], [-101.4808134, 36.6796543]]]}, "properties": {"osm_id": 1381888687, "building": "yes", "name": "", "height": null, "height_m": null, "levels": null, "tract_id": "40139950800", "tract_name": "9508", "tags": {"building": "yes"}}}, {"type": "Feature", "geometry": {"type": "Polygon", "coordinates": [[[-101.480595, 36.6795174], [-101.4804777, 36.6795192], [-101.4804773, 36.6795034], [-101.48046, 36.6795036], [-101.4804588, 36.6794525], [-101.4804776, 36.6794522], [-101.4804773, 36.6794383], [-101.4805931, 36.6794365], [-101.480595, 36.6795174]]]}, "properties": {"osm_id": 1381888688, "building": "yes", "name": "", "height": null, "height_m": null, "levels": null, "tract_id": "40139950800", "tract_name": "9508", "tags": {"building": "yes"}}}, {"type": "Feature", "geometry": {"type": "Polygon", "coordinates": [[[-101.4801109, 36.6797977], [-101.4798307, 36.6797973], [-101.4798308, 36.6797268], [-101.4801111, 36.6797273], [-101.4801109, 36.6797977]]]}, "properties": {"osm_id": 1381888689, "building": "yes", "name": "", "height": null, "height_m": null, "levels": null, "tract_id": "40139950800", "tract_name": "9508", "tags": {"building": "yes"}}}, {"type": "Feature", "geometry": {"type": "Polygon", "coordinates": [[[-101.4794816, 36.6809361], [-101.4794815, 36.6809885], [-101.4793084, 36.6809882], [-101.4793088, 36.6808344], [-101.4795458, 36.6808348], [-101.4795455, 36.6809362], [-101.4794816, 36.6809361]]]}, "properties": {"osm_id": 1381888690, "building": "yes", "name": "", "height": null, "height_m": null, "levels": null, "tract_id": "40139950800", "tract_name": "9508", "tags": {"building": "yes"}}}, {"type": "Feature", "geometry": {"type": "Polygon", "coordinates": [[[-101.4788528, 36.6802747], [-101.4788523, 36.6800611], [-101.4786417, 36.6800614], [-101.4786422, 36.680275], [-101.4788528, 36.6802747]]]}, "properties": {"osm_id": 1381888691, "building": "yes", "name": "", "height": null, "height_m": null, "levels": null, "tract_id": "40139950800", "tract_name": "9508", "tags": {"building": "yes"}}}, {"type": "Feature", "geometry": {"type": "Polygon", "coordinates": [[[-101.4784965, 36.6817046], [-101.4784964, 36.6816747], [-101.478768, 36.681674], [-101.4787676, 36.6815751], [-101.4783717, 36.6815761], [-101.4783722, 36.6817049], [-101.4784965, 36.6817046]]]}, "properties": {"osm_id": 1381888693, "building": "yes", "name": "", "height": null, "height_m": null, "levels": null, "tract_id": "40139950800", "tract_name": "9508", "tags": {"building": "yes"}}}, {"type": "Feature", "geometry": {"type": "Polygon", "coordinates": [[[-101.4780098, 36.6806757], [-101.4780144, 36.6804422], [-101.4779117, 36.6804409], [-101.4779084, 36.6806095], [-101.4779397, 36.6806099], [-101.4779384, 36.6806748], [-101.4780098, 36.6806757]]]}, "properties": {"osm_id": 1381888694, "building": "yes", "name": "", "height": null, "height_m": null, "levels": null, "tract_id": "40139950800", "tract_name": "9508", "tags": {"building": "yes"}}}, {"type": "Feature", "geometry": {"type": "Polygon", "coordinates": [[[-101.4779429, 36.6801248], [-101.4782491, 36.6801253], [-101.4782493, 36.6800366], [-101.4779432, 36.6800361], [-101.4779429, 36.6801248]]]}, "properties": {"osm_id": 1381888695, "building": "yes", "name": "", "height": null, "height_m": null, "levels": null, "tract_id": "40139950800", "tract_name": "9508", "tags": {"building": "yes"}}}, {"type": "Feature", "geometry": {"type": "Polygon", "coordinates": [[[-101.4794351, 36.6797777], [-101.479437, 36.679732], [-101.479236, 36.6797267], [-101.4792341, 36.6797724], [-101.4794351, 36.6797777]]]}, "properties": {"osm_id": 1381888696, "building": "yes", "name": "", "height": null, "height_m": null, "levels": null, "tract_id": "40139950800", "tract_name": "9508", "tags": {"building": "yes"}}}, {"type": "Feature", "geometry": {"type": "Polygon", "coordinates": [[[-101.4793043, 36.6795085], [-101.4793033, 36.6794818], [-101.4793305, 36.6794812], [-101.4793292, 36.6794454], [-101.4793084, 36.6794459], [-101.4793073, 36.6794147], [-101.4791711, 36.6794178], [-101.4791744, 36.6795114], [-101.4793043, 36.6795085]]]}, "properties": {"osm_id": 1381888697, "building": "yes", "name": "", "height": null, "height_m": null, "levels": null, "tract_id": "40139950800", "tract_name": "9508", "tags": {"building": "yes"}}}, {"type": "Feature", "geometry": {"type": "Polygon", "coordinates": [[[-101.4794277, 36.6796544], [-101.4792029, 36.679653], [-101.4792033, 36.6796115], [-101.4794281, 36.6796131], [-101.4794277, 36.6796544]]]}, "properties": {"osm_id": 1381888698, "building": "yes", "name": "", "height": null, "height_m": null, "levels": null, "tract_id": "40139950800", "tract_name": "9508", "tags": {"building": "yes"}}}, {"type": "Feature", "geometry": {"type": "Polygon", "coordinates": [[[-101.4791891, 36.6796594], [-101.479188, 36.6796242], [-101.4791118, 36.6796257], [-101.4791129, 36.679661], [-101.4791891, 36.6796594]]]}, "properties": {"osm_id": 1381888699, "building": "shed", "name": "", "height": null, "height_m": null, "levels": null, "tract_id": "40139950800", "tract_name": "9508", "tags": {"building": "shed"}}}, {"type": "Feature", "geometry": {"type": "Polygon", "coordinates": [[[-101.4792371, 36.67936], [-101.4792378, 36.6793902], [-101.4794031, 36.6793876], [-101.4794014, 36.6793208], [-101.479326, 36.6793221], [-101.4793247, 36.6792713], [-101.4791628, 36.6792739], [-101.479165, 36.6793611], [-101.4792371, 36.67936]]]}, "properties": {"osm_id": 1381888700, "building": "yes", "name": "", "height": null, "height_m": null, "levels": null, "tract_id": "40139950800", "tract_name": "9508", "tags": {"building": "yes"}}}, {"type": "Feature", "geometry": {"type": "Polygon", "coordinates": [[[-101.4791549, 36.6793998], [-101.4791542, 36.6793436], [-101.479081, 36.6793442], [-101.4790818, 36.6794004], [-101.4791549, 36.6793998]]]}, "properties": {"osm_id": 1381888701, "building": "yes", "name": "", "height": null, "height_m": null, "levels": null, "tract_id": "40139950800", "tract_name": "9508", "tags": {"building": "yes"}}}, {"type": "Feature", "geometry": {"type": "Polygon", "coordinates": [[[-101.4793079, 36.6791657], [-101.4793076, 36.6791402], [-101.4791747, 36.6791414], [-101.479176, 36.6792322], [-101.4793019, 36.6792311], [-101.4793016, 36.6792061], [-101.4793321, 36.6792059], [-101.4793315, 36.6791655], [-101.4793079, 36.6791657]]]}, "properties": {"osm_id": 1381888702, "building": "yes", "name": "", "height": null, "height_m": null, "levels": null, "tract_id": "40139950800", "tract_name": "9508", "tags": {"building": "yes"}}}, {"type": "Feature", "geometry": {"type": "Polygon", "coordinates": [[[-101.4793096, 36.6790321], [-101.4793093, 36.6790066], [-101.4791764, 36.6790078], [-101.4791777, 36.6790986], [-101.4793036, 36.6790975], [-101.4793033, 36.6790725], [-101.4793338, 36.6790723], [-101.4793332, 36.6790319], [-101.4793096, 36.6790321]]]}, "properties": {"osm_id": 1381888703, "building": "yes", "name": "", "height": null, "height_m": null, "levels": null, "tract_id": "40139950800", "tract_name": "9508", "tags": {"building": "yes"}}}, {"type": "Feature", "geometry": {"type": "Polygon", "coordinates": [[[-101.4793462, 36.6789885], [-101.4793456, 36.6789572], [-101.4793988, 36.6789566], [-101.4793969, 36.6788487], [-101.4792572, 36.6788504], [-101.4792597, 36.6789895], [-101.4793462, 36.6789885]]]}, "properties": {"osm_id": 1381888704, "building": "yes", "name": "", "height": null, "height_m": null, "levels": null, "tract_id": "40139950800", "tract_name": "9508", "tags": {"building": "yes"}}}, {"type": "Feature", "geometry": {"type": "Polygon", "coordinates": [[[-101.4793472, 36.67883], [-101.4791505, 36.6788289], [-101.4791513, 36.678742], [-101.4792661, 36.6787427], [-101.4792662, 36.6787279], [-101.4793481, 36.6787284], [-101.4793472, 36.67883]]]}, "properties": {"osm_id": 1381888705, "building": "yes", "name": "", "height": null, "height_m": null, "levels": null, "tract_id": "40139950800", "tract_name": "9508", "tags": {"building": "yes"}}}, {"type": "Feature", "geometry": {"type": "Polygon", "coordinates": [[[-101.4787612, 36.6789431], [-101.4784716, 36.6789508], [-101.4784697, 36.6789045], [-101.4787593, 36.6788968], [-101.4787612, 36.6789431]]]}, "properties": {"osm_id": 1381888706, "building": "yes", "name": "", "height": null, "height_m": null, "levels": null, "tract_id": "40139950800", "tract_name": "9508", "tags": {"building": "yes"}}}, {"type": "Feature", "geometry": {"type": "Polygon", "coordinates": [[[-101.4787611, 36.678817], [-101.4784273, 36.678817], [-101.4784273, 36.6787285], [-101.478512, 36.6787285], [-101.478512, 36.6787149], [-101.4785686, 36.6787149], [-101.4785686, 36.6787285], [-101.47868, 36.6787285], [-101.4786799, 36.6787174], [-101.4787287, 36.6787174], [-101.4787287, 36.6787298], [-101.478761, 36.6787298], [-101.4787611, 36.678817]]]}, "properties": {"osm_id": 1381888707, "building": "yes", "name": "", "height": null, "height_m": null, "levels": null, "tract_id": "40139950800", "tract_name": "9508", "tags": {"building": "yes"}}}, {"type": "Feature", "geometry": {"type": "Polygon", "coordinates": [[[-101.4782721, 36.6788894], [-101.4782734, 36.6787305], [-101.4781859, 36.6787301], [-101.4781857, 36.6787558], [-101.4781404, 36.6787556], [-101.4781406, 36.6787357], [-101.4781093, 36.6787355], [-101.4781092, 36.6787575], [-101.4780116, 36.678757], [-101.4780108, 36.6788558], [-101.47804, 36.6788559], [-101.4780397, 36.6788882], [-101.4782721, 36.6788894]]]}, "properties": {"osm_id": 1381888708, "building": "yes", "name": "", "height": null, "height_m": null, "levels": null, "tract_id": "40139950800", "tract_name": "9508", "tags": {"building": "yes"}}}, {"type": "Feature", "geometry": {"type": "Polygon", "coordinates": [[[-101.4779255, 36.6787327], [-101.4779318, 36.6788549], [-101.4778678, 36.678857], [-101.4778661, 36.6788225], [-101.4778417, 36.6788233], [-101.4778379, 36.6787511], [-101.4778881, 36.6787494], [-101.4778873, 36.678734], [-101.4779255, 36.6787327]]]}, "properties": {"osm_id": 1381888709, "building": "yes", "name": "", "height": null, "height_m": null, "levels": null, "tract_id": "40139950800", "tract_name": "9508", "tags": {"building": "yes"}}}, {"type": "Feature", "geometry": {"type": "Polygon", "coordinates": [[[-101.4788119, 36.6797781], [-101.4785823, 36.6797757], [-101.4785831, 36.6797201], [-101.4786209, 36.6797204], [-101.4786218, 36.6796668], [-101.4788136, 36.6796687], [-101.4788119, 36.6797781]]]}, "properties": {"osm_id": 1381888710, "building": "yes", "name": "", "height": null, "height_m": null, "levels": null, "tract_id": "40139950800", "tract_name": "9508", "tags": {"building": "yes"}}}, {"type": "Feature", "geometry": {"type": "Polygon", "coordinates": [[[-101.4787866, 36.679608], [-101.4786944, 36.6796072], [-101.4786956, 36.6795201], [-101.4787879, 36.6795209], [-101.4787866, 36.679608]]]}, "properties": {"osm_id": 1381888711, "building": "yes", "name": "", "height": null, "height_m": null, "levels": null, "tract_id": "40139950800", "tract_name": "9508", "tags": {"building": "yes"}}}, {"type": "Feature", "geometry": {"type": "Polygon", "coordinates": [[[-101.4786009, 36.6792005], [-101.4786598, 36.679202], [-101.4786594, 36.6792097], [-101.478732, 36.6792116], [-101.4787355, 36.6792031], [-101.4787946, 36.6792047], [-101.4787984, 36.6791116], [-101.4787277, 36.6791097], [-101.4787271, 36.6791256], [-101.4786041, 36.6791224], [-101.4786009, 36.6792005]]]}, "properties": {"osm_id": 1381888712, "building": "yes", "name": "", "height": null, "height_m": null, "levels": null, "tract_id": "40139950800", "tract_name": "9508", "tags": {"building": "yes"}}}, {"type": "Feature", "geometry": {"type": "Polygon", "coordinates": [[[-101.478664, 36.6793471], [-101.478427, 36.6793448], [-101.4784276, 36.6793045], [-101.4786646, 36.6793068], [-101.478664, 36.6793471]]]}, "properties": {"osm_id": 1381888713, "building": "yes", "name": "", "height": null, "height_m": null, "levels": null, "tract_id": "40139950800", "tract_name": "9508", "tags": {"building": "yes"}}}, {"type": "Feature", "geometry": {"type": "Polygon", "coordinates": [[[-101.4832533, 36.6795067], [-101.4831194, 36.6796053], [-101.4830311, 36.6795282], [-101.483165, 36.6794296], [-101.4832533, 36.6795067]]]}, "properties": {"osm_id": 1381888714, "building": "yes", "name": "", "height": null, "height_m": null, "levels": null, "tract_id": "40139950800", "tract_name": "9508", "tags": {"building": "yes"}}}, {"type": "Feature", "geometry": {"type": "Polygon", "coordinates": [[[-101.4834823, 36.6798117], [-101.4829922, 36.679812], [-101.4829921, 36.6796734], [-101.4833136, 36.6796732], [-101.4833135, 36.6796397], [-101.4834821, 36.6796396], [-101.4834823, 36.6798117]]]}, "properties": {"osm_id": 1381888715, "building": "yes", "name": "", "height": null, "height_m": null, "levels": null, "tract_id": "40139950800", "tract_name": "9508", "tags": {"building": "yes"}}}, {"type": "Feature", "geometry": {"type": "Polygon", "coordinates": [[[-101.4834235, 36.6792956], [-101.4834232, 36.6792437], [-101.4834838, 36.6792435], [-101.4834846, 36.6793618], [-101.4833813, 36.6793623], [-101.4833808, 36.6792958], [-101.4834235, 36.6792956]]]}, "properties": {"osm_id": 1381888716, "building": "yes", "name": "", "height": null, "height_m": null, "levels": null, "tract_id": "40139950800", "tract_name": "9508", "tags": {"building": "yes"}}}, {"type": "Feature", "geometry": {"type": "Polygon", "coordinates": [[[-101.4818602, 36.6805274], [-101.4818553, 36.6806927], [-101.4817369, 36.6806904], [-101.4817185, 36.6806768], [-101.4817138, 36.6804989], [-101.4823739, 36.6800134], [-101.4824287, 36.6800735], [-101.4823184, 36.6801525], [-101.4823078, 36.6801407], [-101.4822065, 36.6802169], [-101.4821972, 36.6802098], [-101.4819742, 36.6803778], [-101.4819819, 36.6803939], [-101.4818355, 36.680489], [-101.4818344, 36.6805269], [-101.4818602, 36.6805274]]]}, "properties": {"osm_id": 1381888717, "building": "yes", "name": "", "height": null, "height_m": null, "levels": null, "tract_id": "40139950800", "tract_name": "9508", "tags": {"building": "yes"}}}, {"type": "Feature", "geometry": {"type": "Polygon", "coordinates": [[[-101.4786682, 36.6784245], [-101.4786687, 36.6784502], [-101.4787953, 36.6784488], [-101.4787938, 36.6783636], [-101.4786049, 36.6783661], [-101.4786064, 36.6784252], [-101.4786682, 36.6784245]]]}, "properties": {"osm_id": 1381888718, "building": "yes", "name": "", "height": null, "height_m": null, "levels": null, "tract_id": "40139950800", "tract_name": "9508", "tags": {"building": "yes"}}}, {"type": "Feature", "geometry": {"type": "Polygon", "coordinates": [[[-101.4786064, 36.6784252], [-101.4786067, 36.6784385], [-101.47852, 36.6784399], [-101.4785182, 36.6783675], [-101.4786049, 36.6783661], [-101.4786064, 36.6784252]]]}, "properties": {"osm_id": 1381888719, "building": "yes", "name": "", "height": null, "height_m": null, "levels": null, "tract_id": "40139950800", "tract_name": "9508", "tags": {"building": "yes"}}}, {"type": "Feature", "geometry": {"type": "Polygon", "coordinates": [[[-101.4788166, 36.6778424], [-101.4788188, 36.678117], [-101.4787383, 36.6781174], [-101.4787361, 36.6778428], [-101.4788166, 36.6778424]]]}, "properties": {"osm_id": 1381888720, "building": "yes", "name": "", "height": null, "height_m": null, "levels": null, "tract_id": "40139950800", "tract_name": "9508", "tags": {"building": "yes"}}}, {"type": "Feature", "geometry": {"type": "Polygon", "coordinates": [[[-101.4784393, 36.6777887], [-101.4784414, 36.6781181], [-101.4783609, 36.6781185], [-101.4783545, 36.67779], [-101.4784393, 36.6777887]]]}, "properties": {"osm_id": 1381888721, "building": "yes", "name": "", "height": null, "height_m": null, "levels": null, "tract_id": "40139950800", "tract_name": "9508", "tags": {"building": "yes"}}}, {"type": "Feature", "geometry": {"type": "Polygon", "coordinates": [[[-101.4788166, 36.6778424], [-101.4788302, 36.6778424], [-101.4788291, 36.6776841], [-101.4787096, 36.6776847], [-101.4787107, 36.6778429], [-101.4787361, 36.6778428], [-101.4788166, 36.6778424]]]}, "properties": {"osm_id": 1381888722, "building": "yes", "name": "", "height": null, "height_m": null, "levels": null, "tract_id": "40139950800", "tract_name": "9508", "tags": {"building": "yes"}}}, {"type": "Feature", "geometry": {"type": "Polygon", "coordinates": [[[-101.4784393, 36.6777887], [-101.4784777, 36.6777882], [-101.4784752, 36.6776784], [-101.478352, 36.6776802], [-101.4783545, 36.67779], [-101.4784393, 36.6777887]]]}, "properties": {"osm_id": 1381888723, "building": "yes", "name": "", "height": null, "height_m": null, "levels": null, "tract_id": "40139950800", "tract_name": "9508", "tags": {"building": "yes"}}}, {"type": "Feature", "geometry": {"type": "Polygon", "coordinates": [[[-101.4740499, 36.6784084], [-101.4741795, 36.6784067], [-101.4741835, 36.6786067], [-101.474054, 36.6786083], [-101.4740499, 36.6784084]]]}, "properties": {"osm_id": 1408937601, "building": "yes", "name": "", "height": null, "height_m": null, "levels": null, "tract_id": "40139950800", "tract_name": "9508", "tags": {"building": "yes"}}}, {"type": "Feature", "geometry": {"type": "Polygon", "coordinates": [[[-101.4731724, 36.679129], [-101.4734669, 36.6793407], [-101.4733844, 36.6794145], [-101.4732125, 36.6792908], [-101.4731879, 36.6793128], [-101.4730654, 36.6792247], [-101.4731724, 36.679129]]]}, "properties": {"osm_id": 1408937602, "building": "yes", "name": "", "height": null, "height_m": null, "levels": null, "tract_id": "40139950800", "tract_name": "9508", "tags": {"building": "yes"}}}, {"type": "Feature", "geometry": {"type": "Polygon", "coordinates": [[[-101.47304, 36.6792514], [-101.4733844, 36.6794145], [-101.4728458, 36.6801533], [-101.4728705, 36.6801657], [-101.4726517, 36.6805141], [-101.4723837, 36.6804152], [-101.472433, 36.6803312], [-101.4726271, 36.6804054], [-101.4727534, 36.6802027], [-101.4725531, 36.680099], [-101.4725254, 36.6801385], [-101.4724484, 36.6801088], [-101.4725778, 36.6799186], [-101.4726548, 36.6799433], [-101.4726333, 36.6799878], [-101.472815, 36.6800644], [-101.473271, 36.6794417], [-101.4729968, 36.6793008], [-101.47304, 36.6792514]]]}, "properties": {"osm_id": 1408937603, "building": "hotel", "name": "", "height": null, "height_m": null, "levels": null, "tract_id": "40139950800", "tract_name": "9508", "tags": {"building": "hotel"}}}, {"type": "Feature", "geometry": {"type": "Polygon", "coordinates": [[[-101.4860013, 36.6757598], [-101.4862015, 36.6759363], [-101.4863272, 36.6758447], [-101.4863939, 36.6759035], [-101.4865336, 36.6758016], [-101.4864679, 36.6757436], [-101.4868181, 36.6754884], [-101.4869012, 36.6755617], [-101.4872924, 36.6752766], [-101.4870918, 36.6750995], [-101.4864588, 36.6755609], [-101.4863752, 36.6754871], [-101.4860013, 36.6757598]]]}, "properties": {"osm_id": 1408937604, "building": "yes", "name": "", "height": null, "height_m": null, "levels": null, "tract_id": "40139950800", "tract_name": "9508", "tags": {"building": "yes"}}}, {"type": "Feature", "geometry": {"type": "Polygon", "coordinates": [[[-101.4817173, 36.6824814], [-101.4817037, 36.6819228], [-101.4821996, 36.681915], [-101.4822033, 36.6820664], [-101.4821514, 36.6820672], [-101.4821544, 36.6821879], [-101.4820421, 36.6821897], [-101.4820491, 36.6824829], [-101.4817173, 36.6824814]]]}, "properties": {"osm_id": 1408937605, "building": "yes", "name": "", "height": null, "height_m": null, "levels": null, "tract_id": "40139950800", "tract_name": "9508", "tags": {"building": "yes"}}}, {"type": "Feature", "geometry": {"type": "Polygon", "coordinates": [[[-101.4830433, 36.6834067], [-101.4840552, 36.6834103], [-101.4840547, 36.6835039], [-101.4839322, 36.6835035], [-101.483932, 36.683531], [-101.483879, 36.6835308], [-101.4838779, 36.6837088], [-101.4839331, 36.683709], [-101.4839326, 36.6837912], [-101.4835657, 36.6837898], [-101.4835666, 36.6836407], [-101.4836839, 36.6836412], [-101.4836834, 36.6837234], [-101.4837228, 36.6837235], [-101.4837239, 36.6835245], [-101.4833365, 36.6835231], [-101.4833352, 36.6837502], [-101.4830414, 36.6837492], [-101.4830433, 36.6834067]]]}, "properties": {"osm_id": 1408937606, "building": "yes", "name": "", "height": null, "height_m": null, "levels": null, "tract_id": "40139950800", "tract_name": "9508", "tags": {"building": "yes"}}}, {"type": "Feature", "geometry": {"type": "Polygon", "coordinates": [[[-101.4723101, 36.68042], [-101.4726461, 36.6805498], [-101.472353, 36.6810379], [-101.4722134, 36.6809839], [-101.4722294, 36.6809572], [-101.4722702, 36.6809729], [-101.4724394, 36.6806913], [-101.4723891, 36.6806719], [-101.472408, 36.6806404], [-101.4723804, 36.6806298], [-101.4723955, 36.6806046], [-101.4722361, 36.6805431], [-101.4723101, 36.68042]]]}, "properties": {"osm_id": 1408937607, "building": "hotel", "name": "", "height": null, "height_m": null, "levels": null, "tract_id": "40139950800", "tract_name": "9508", "tags": {"building": "hotel"}}}, {"type": "Feature", "geometry": {"type": "Polygon", "coordinates": [[[-101.4756649, 36.6779063], [-101.4759676, 36.6779101], [-101.4759653, 36.6780251], [-101.4756627, 36.6780212], [-101.4756649, 36.6779063]]]}, "properties": {"osm_id": 1408937608, "building": "yes", "name": "", "height": null, "height_m": null, "levels": null, "tract_id": "40139950800", "tract_name": "9508", "tags": {"building": "yes"}}}, {"type": "Feature", "geometry": {"type": "Polygon", "coordinates": [[[-101.4721753, 36.680985], [-101.4723493, 36.6810561], [-101.4720521, 36.6815242], [-101.471878, 36.6814531], [-101.4721753, 36.680985]]]}, "properties": {"osm_id": 1408937609, "building": "retail", "name": "", "height": null, "height_m": null, "levels": null, "tract_id": "40139950800", "tract_name": "9508", "tags": {"building": "retail"}}}, {"type": "Feature", "geometry": {"type": "Polygon", "coordinates": [[[-101.4697935, 36.6846322], [-101.4707917, 36.6846338], [-101.4707913, 36.6847902], [-101.4697041, 36.6847887], [-101.4697935, 36.6846322]]]}, "properties": {"osm_id": 1408937610, "building": "yes", "name": "", "height": null, "height_m": null, "levels": null, "tract_id": "40139950800", "tract_name": "9508", "tags": {"building": "yes"}}}, {"type": "Feature", "geometry": {"type": "Polygon", "coordinates": [[[-101.4684161, 36.6850699], [-101.4687095, 36.6851905], [-101.4690387, 36.6846755], [-101.4688224, 36.6845866], [-101.4688761, 36.6845026], [-101.468799, 36.6844709], [-101.4684161, 36.6850699]]]}, "properties": {"osm_id": 1408937611, "building": "yes", "name": "", "height": null, "height_m": null, "levels": null, "tract_id": "40139950800", "tract_name": "9508", "tags": {"building": "yes"}}}, {"type": "Feature", "geometry": {"type": "Polygon", "coordinates": [[[-101.4683204, 36.6853748], [-101.4685667, 36.6854681], [-101.4683527, 36.6858312], [-101.4681065, 36.6857379], [-101.4683204, 36.6853748]]]}, "properties": {"osm_id": 1408937612, "building": "yes", "name": "", "height": null, "height_m": null, "levels": null, "tract_id": "40139950800", "tract_name": "9508", "tags": {"building": "yes"}}}, {"type": "Feature", "geometry": {"type": "Polygon", "coordinates": [[[-101.467803, 36.6885203], [-101.4679732, 36.6885842], [-101.4676954, 36.6890596], [-101.4678712, 36.6891256], [-101.4678095, 36.6892313], [-101.4674026, 36.6890785], [-101.4676298, 36.6886893], [-101.4676908, 36.6887122], [-101.467803, 36.6885203]]]}, "properties": {"osm_id": 1408937614, "building": "yes", "name": "", "height": null, "height_m": null, "levels": null, "tract_id": "40139950800", "tract_name": "9508", "tags": {"building": "yes"}}}]}