{"type": "FeatureCollection", "features": [{"type": "Feature", "geometry": {"type": "Polygon", "coordinates": [[[-98.4721525, 34.6321275], [-98.4721529, 34.6322224], [-98.4720857, 34.6322226], [-98.4720876, 34.6327014], [-98.4721526, 34.6327012], [-98.4721529, 34.6327885], [-98.4721084, 34.6327886], [-98.4721089, 34.6329022], [-98.472036, 34.6329024], [-98.472036, 34.6329253], [-98.4719492, 34.6329255], [-98.4719499, 34.6331031], [-98.4715989, 34.6331041], [-98.4715993, 34.6331849], [-98.4712063, 34.6331859], [-98.471206, 34.6331054], [-98.4706859, 34.6331068], [-98.4706855, 34.6329997], [-98.4708927, 34.6329991], [-98.4708882, 34.6318624], [-98.4706777, 34.631863], [-98.4706773, 34.6317697], [-98.471115, 34.6317685], [-98.4711146, 34.6316763], [-98.4711582, 34.6316762], [-98.4711573, 34.6314492], [-98.4713444, 34.6314487], [-98.4713457, 34.6317736], [-98.4716699, 34.6317727], [-98.4716691, 34.6315532], [-98.4718791, 34.6315526], [-98.4718792, 34.631571], [-98.4721578, 34.6315702], [-98.4721586, 34.6317787], [-98.4719775, 34.6317792], [-98.4719786, 34.6320473], [-98.4721123, 34.6320469], [-98.4721126, 34.6321276], [-98.4721525, 34.6321275]]]}, "properties": {"osm_id": 480687502, "building": "yes", "name": "Walmart Supercenter", "height": null, "height_m": null, "levels": null, "tract_id": "40031000405", "tract_name": "4.05", "tags": {"addr:city": "Lawton", "addr:country": "US", "addr:housenumber": "6301", "addr:postcode": "73505", "addr:state": "OK", "addr:street": "Northwest Quanhah Parker Trail Way", "brand": "Walmart", "brand:wikidata": "Q483551", "building": "yes", "name": "Walmart Supercenter", "opening_hours": "24/7", "operator": "Walmart", "operator:wikidata": "Q483551", "payment:app:walmart": "yes", "payment:apple_pay": "no", "payment:google_pay": "no", "payment:samsung_pay": "no", "phone": "+1 580-510-9130", "ref": "5071", "ref:walmart": "5071", "sensory_friendly:accommodation": "dimmed_light;static_screens;no_pa", "sensory_friendly:conditional": "yes @ 08:00-10:00", "shop": "supermarket", "website": "https://www.walmart.com/store/5071-lawton-ok"}}}, {"type": "Feature", "geometry": {"type": "Polygon", "coordinates": [[[-98.4743221, 34.6322306], [-98.4743219, 34.6322895], [-98.4742544, 34.6322893], [-98.4741747, 34.6322891], [-98.4741034, 34.6322889], [-98.4740379, 34.6322887], [-98.4739517, 34.6322884], [-98.4739519, 34.6322296], [-98.474037, 34.6322299], [-98.4741026, 34.63223], [-98.4741738, 34.6322302], [-98.4742538, 34.6322304], [-98.4743221, 34.6322306]]]}, "properties": {"osm_id": 524768046, "building": "yes", "name": "Murphy USA", "height": null, "height_m": null, "levels": null, "tract_id": "40031000405", "tract_name": "4.05", "tags": {"amenity": "fuel", "brand": "Murphy USA", "brand:wikidata": "Q19604459", "building": "yes", "name": "Murphy USA"}}}, {"type": "Feature", "geometry": {"type": "Polygon", "coordinates": [[[-98.4699229, 34.636514], [-98.4697597, 34.6365148], [-98.4697595, 34.6364874], [-98.4695185, 34.6364884], [-98.4695192, 34.6365927], [-98.4694863, 34.6365928], [-98.4694871, 34.6367234], [-98.4694575, 34.6367236], [-98.4694582, 34.6368442], [-98.4694121, 34.6368444], [-98.4694138, 34.6371048], [-98.469458, 34.6371046], [-98.469459, 34.6372604], [-98.4694889, 34.6372602], [-98.4694898, 34.6373939], [-98.4695165, 34.6373938], [-98.4695172, 34.6375019], [-98.4697583, 34.6375009], [-98.4697582, 34.6374797], [-98.4699222, 34.637479], [-98.4699215, 34.6373746], [-98.4699457, 34.6373745], [-98.469945, 34.6372604], [-98.4699953, 34.6372602], [-98.4699946, 34.6371429], [-98.4700246, 34.6371427], [-98.4700244, 34.6371158], [-98.4700642, 34.6371157], [-98.4700625, 34.6368564], [-98.4700225, 34.6368565], [-98.4700224, 34.6368349], [-98.4699946, 34.636835], [-98.4699939, 34.6367256], [-98.4699477, 34.6367258], [-98.469947, 34.6366131], [-98.4699235, 34.6366132], [-98.4699229, 34.636514]]]}, "properties": {"osm_id": 524770098, "building": "commercial", "name": "Patriot Theater", "height": null, "height_m": null, "levels": null, "tract_id": "40031000405", "tract_name": "4.05", "tags": {"addr:city": "Lawton", "addr:housenumber": "2803", "addr:postcode": "73505", "addr:state": "OK", "addr:street": "Northwest Rogers Lane", "amenity": "cinema", "building": "commercial", "currency:BCH": "yes", "name": "Patriot Theater", "website": "https://www.amctheatres.com/movie-theatres/wichita-falls-tx", "wikidata": "Q43193063"}}}, {"type": "Feature", "geometry": {"type": "Polygon", "coordinates": [[[-98.4739318, 34.6330522], [-98.4742364, 34.6330504], [-98.4742341, 34.6326029], [-98.4739295, 34.6326029], [-98.4739318, 34.6330522]]]}, "properties": {"osm_id": 1030200118, "building": "yes", "name": "", "height": null, "height_m": null, "levels": null, "tract_id": "40031000405", "tract_name": "4.05", "tags": {"building": "yes"}}}, {"type": "Feature", "geometry": {"type": "Polygon", "coordinates": [[[-98.4590561, 34.6285453], [-98.4588056, 34.6285446], [-98.4588082, 34.628556], [-98.4586569, 34.6286739], [-98.4586566, 34.6288749], [-98.4590557, 34.6288753], [-98.4590561, 34.6285453]]]}, "properties": {"osm_id": 1292212628, "building": "yes", "name": "Bingo Country", "height": null, "height_m": null, "levels": null, "tract_id": "40031000405", "tract_name": "4.05", "tags": {"addr:city": "Lawton", "addr:housenumber": "1826", "addr:postcode": "73505", "addr:state": "OK", "addr:street": "Northwest 52nd Street", "amenity": "gambling", "building": "yes", "gambling": "bingo", "name": "Bingo Country"}}}, {"type": "Feature", "geometry": {"type": "Polygon", "coordinates": [[[-98.4585456, 34.6288745], [-98.4585454, 34.628674], [-98.4586569, 34.6286739], [-98.4586566, 34.6288749], [-98.4585456, 34.6288745]]]}, "properties": {"osm_id": 1292212629, "building": "yes", "name": "Bright Cleaners", "height": null, "height_m": null, "levels": null, "tract_id": "40031000405", "tract_name": "4.05", "tags": {"addr:city": "Lawton", "addr:housenumber": "1830", "addr:postcode": "73505", "addr:state": "OK", "addr:street": "Northwest 52nd Street", "building": "yes", "name": "Bright Cleaners", "phone": "+1-580-248-8599", "shop": "dry_cleaning"}}}, {"type": "Feature", "geometry": {"type": "Polygon", "coordinates": [[[-98.4584383, 34.6286739], [-98.4584378, 34.6288749], [-98.4585456, 34.6288745], [-98.4585454, 34.628674], [-98.4584383, 34.6286739]]]}, "properties": {"osm_id": 1292212630, "building": "yes", "name": "Diva Nails & Spa", "height": null, "height_m": null, "levels": null, "tract_id": "40031000405", "tract_name": "4.05", "tags": {"addr:city": "Lawton", "addr:housenumber": "1832", "addr:postcode": "73505", "addr:state": "OK", "addr:street": "Northwest 52nd Street", "beauty": "nails", "building": "yes", "name": "Diva Nails & Spa", "phone": "+1-580-591-0384", "shop": "beauty"}}}, {"type": "Feature", "geometry": {"type": "Polygon", "coordinates": [[[-98.4584378, 34.6288749], [-98.4584383, 34.6286739], [-98.4582673, 34.6286733], [-98.4582662, 34.6288748], [-98.4584378, 34.6288749]]]}, "properties": {"osm_id": 1292212631, "building": "yes", "name": "Kingdom Medical Equipment", "height": null, "height_m": null, "levels": null, "tract_id": "40031000405", "tract_name": "4.05", "tags": {"addr:city": "Lawton", "addr:housenumber": "1834", "addr:postcode": "73505", "addr:state": "OK", "addr:street": "Northwest 52nd Street", "building": "yes", "name": "Kingdom Medical Equipment", "phone": "+1-580-355-1511", "shop": "medical_supply", "website": "https://www.kingdommedicalequipment.com/"}}}, {"type": "Feature", "geometry": {"type": "Polygon", "coordinates": [[[-98.4588056, 34.6285446], [-98.4588095, 34.6275997], [-98.4588585, 34.6275998], [-98.4588583, 34.627633], [-98.4591203, 34.6276337], [-98.45912, 34.6277124], [-98.4596898, 34.6277141], [-98.459689, 34.6278891], [-98.4595248, 34.6278886], [-98.4595218, 34.6285458], [-98.4591478, 34.6285447], [-98.4591476, 34.6286002], [-98.459079, 34.6286001], [-98.4590792, 34.6285453], [-98.4590561, 34.6285453], [-98.4588056, 34.6285446]]]}, "properties": {"osm_id": 1292212632, "building": "yes", "name": "Atwoods", "height": null, "height_m": null, "levels": null, "tract_id": "40031000405", "tract_name": "4.05", "tags": {"addr:city": "Lawton", "addr:housenumber": "1820", "addr:postcode": "73505", "addr:state": "OK", "addr:street": "Northwest 52nd Street", "brand": "Atwoods", "brand:wikidata": "Q4818874", "building": "yes", "name": "Atwoods", "operator": "Atwoods", "phone": "+1-580-595-9000", "shop": "country_store", "website": "https://www.atwoods.com/"}}}, {"type": "Feature", "geometry": {"type": "Polygon", "coordinates": [[[-98.4581254, 34.6287025], [-98.4581255, 34.6288943], [-98.4582662, 34.6288944], [-98.4582662, 34.6288748], [-98.4582673, 34.6286733], [-98.458125, 34.6286725], [-98.4581254, 34.6287025]]]}, "properties": {"osm_id": 1292212633, "building": "yes", "name": "Traditions Health Hospice", "height": null, "height_m": null, "levels": null, "tract_id": "40031000405", "tract_name": "4.05", "tags": {"addr:city": "Lawton", "addr:housenumber": "1836", "addr:postcode": "73505", "addr:state": "OK", "addr:street": "Northwest 52nd Street", "building": "yes", "healthcare": "hospice", "name": "Traditions Health Hospice", "operator": "Traditions Health", "phone": "+1-580-353-2711", "website": "https://www.traditionshealth.com/locations/lawton-ok-hospice/"}}}, {"type": "Feature", "geometry": {"type": "Polygon", "coordinates": [[[-98.4581256, 34.6291406], [-98.4581255, 34.6288943], [-98.4581254, 34.6287025], [-98.4579937, 34.6287025], [-98.4579937, 34.6286871], [-98.4577202, 34.6286871], [-98.4577202, 34.6287009], [-98.457595, 34.6287009], [-98.4575952, 34.6291408], [-98.4581256, 34.6291406]]]}, "properties": {"osm_id": 1292212634, "building": "yes", "name": "Deep Dive Deals", "height": null, "height_m": null, "levels": null, "tract_id": "40031000405", "tract_name": "4.05", "tags": {"addr:city": "Lawton", "addr:housenumber": "1838", "addr:postcode": "73505", "addr:state": "OK", "addr:street": "Northwest 52nd Street", "brand": "Goodwill", "building": "yes", "name": "Deep Dive Deals", "operator": "Deep Dive Deals", "shop": "variety_store", "website": "https://deepdivedeals.store/"}}}, {"type": "Feature", "geometry": {"type": "Polygon", "coordinates": [[[-98.4739969, 34.6317701], [-98.4742034, 34.6317702], [-98.4742034, 34.6317579], [-98.4743268, 34.631758], [-98.4743269, 34.6316312], [-98.474284, 34.6316312], [-98.474284, 34.6315959], [-98.4741794, 34.6315958], [-98.4741796, 34.6314291], [-98.4740642, 34.631429], [-98.4740641, 34.6315967], [-98.473997, 34.6315967], [-98.4739969, 34.6317701]]]}, "properties": {"osm_id": 1336925575, "building": "yes", "name": "", "height": null, "height_m": null, "levels": null, "tract_id": "40031000405", "tract_name": "4.05", "tags": {"building": "yes", "source": "microsoft/BuildingFootprints"}}}, {"type": "Feature", "geometry": {"type": "Polygon", "coordinates": [[[-98.4696195, 34.6313704], [-98.469651, 34.6312272], [-98.4695045, 34.6312054], [-98.4694974, 34.6312375], [-98.4694299, 34.6312274], [-98.4693994, 34.6313663], [-98.4694835, 34.6313788], [-98.4694897, 34.6313511], [-98.4696195, 34.6313704]]]}, "properties": {"osm_id": 1336931768, "building": "yes", "name": "", "height": null, "height_m": null, "levels": null, "tract_id": "40031000405", "tract_name": "4.05", "tags": {"building": "yes", "source": "microsoft/BuildingFootprints"}}}, {"type": "Feature", "geometry": {"type": "Polygon", "coordinates": [[[-98.4699818, 34.6314031], [-98.4700136, 34.6313309], [-98.4699543, 34.6313132], [-98.4699646, 34.6312898], [-98.4698565, 34.6312576], [-98.4698359, 34.6313044], [-98.4697339, 34.631274], [-98.469689, 34.6313762], [-98.4698255, 34.6314169], [-98.469849, 34.6313635], [-98.4699818, 34.6314031]]]}, "properties": {"osm_id": 1336931769, "building": "yes", "name": "", "height": null, "height_m": null, "levels": null, "tract_id": "40031000405", "tract_name": "4.05", "tags": {"building": "yes", "source": "microsoft/BuildingFootprints"}}}, {"type": "Feature", "geometry": {"type": "Polygon", "coordinates": [[[-98.4701163, 34.6314583], [-98.4699313, 34.6314881], [-98.4699551, 34.631588], [-98.4699344, 34.6315913], [-98.4699491, 34.631653], [-98.4701547, 34.6316198], [-98.4701163, 34.6314583]]]}, "properties": {"osm_id": 1336931770, "building": "yes", "name": "", "height": null, "height_m": null, "levels": null, "tract_id": "40031000405", "tract_name": "4.05", "tags": {"building": "yes", "source": "microsoft/BuildingFootprints"}}}, {"type": "Feature", "geometry": {"type": "Polygon", "coordinates": [[[-98.4699552, 34.6317212], [-98.4699507, 34.6318911], [-98.4700741, 34.6318933], [-98.4700757, 34.6318293], [-98.4701079, 34.6318299], [-98.4701107, 34.631724], [-98.4699552, 34.6317212]]]}, "properties": {"osm_id": 1336931771, "building": "yes", "name": "", "height": null, "height_m": null, "levels": null, "tract_id": "40031000405", "tract_name": "4.05", "tags": {"building": "yes", "source": "microsoft/BuildingFootprints"}}}, {"type": "Feature", "geometry": {"type": "Polygon", "coordinates": [[[-98.4699601, 34.6319566], [-98.4699601, 34.6321464], [-98.4700057, 34.6321464], [-98.4700057, 34.6322346], [-98.4701183, 34.6322346], [-98.4701183, 34.6321111], [-98.4701613, 34.6321111], [-98.4701613, 34.6319963], [-98.4701183, 34.6319963], [-98.4701183, 34.6319566], [-98.4699601, 34.6319566]]]}, "properties": {"osm_id": 1336931772, "building": "yes", "name": "", "height": null, "height_m": null, "levels": null, "tract_id": "40031000405", "tract_name": "4.05", "tags": {"building": "yes", "source": "microsoft/BuildingFootprints"}}}, {"type": "Feature", "geometry": {"type": "Polygon", "coordinates": [[[-98.4701407, 34.6324237], [-98.4701166, 34.6324234], [-98.4701173, 34.6323867], [-98.4700288, 34.6323855], [-98.470028, 34.6324244], [-98.4699878, 34.6324238], [-98.4699864, 34.63249], [-98.4699489, 34.6324895], [-98.4699475, 34.6325557], [-98.4701379, 34.6325583], [-98.4701407, 34.6324237]]]}, "properties": {"osm_id": 1336931773, "building": "yes", "name": "", "height": null, "height_m": null, "levels": null, "tract_id": "40031000405", "tract_name": "4.05", "tags": {"building": "yes", "source": "microsoft/BuildingFootprints"}}}, {"type": "Feature", "geometry": {"type": "Polygon", "coordinates": [[[-98.4701278, 34.6327284], [-98.470126, 34.6326247], [-98.4699892, 34.6326263], [-98.469991, 34.6327242], [-98.4699481, 34.6327247], [-98.4699493, 34.6327931], [-98.4701611, 34.6327906], [-98.47016, 34.632728], [-98.4701278, 34.6327284]]]}, "properties": {"osm_id": 1336931774, "building": "yes", "name": "", "height": null, "height_m": null, "levels": null, "tract_id": "40031000405", "tract_name": "4.05", "tags": {"building": "yes", "source": "microsoft/BuildingFootprints"}}}, {"type": "Feature", "geometry": {"type": "Polygon", "coordinates": [[[-98.4667293, 34.6307776], [-98.4665228, 34.6307801], [-98.4665254, 34.6309235], [-98.4666583, 34.6309219], [-98.4666588, 34.6309484], [-98.4667324, 34.6309475], [-98.4667293, 34.6307776]]]}, "properties": {"osm_id": 1336931775, "building": "yes", "name": "", "height": null, "height_m": null, "levels": null, "tract_id": "40031000405", "tract_name": "4.05", "tags": {"building": "yes", "source": "microsoft/BuildingFootprints"}}}, {"type": "Feature", "geometry": {"type": "Polygon", "coordinates": [[[-98.4670055, 34.6307749], [-98.4669262, 34.6307756], [-98.4669275, 34.6308718], [-98.4668095, 34.6308728], [-98.4668111, 34.6309886], [-98.4669291, 34.6309875], [-98.4669294, 34.6310162], [-98.4670088, 34.6310155], [-98.4670055, 34.6307749]]]}, "properties": {"osm_id": 1336931776, "building": "yes", "name": "", "height": null, "height_m": null, "levels": null, "tract_id": "40031000405", "tract_name": "4.05", "tags": {"building": "yes", "source": "microsoft/BuildingFootprints"}}}, {"type": "Feature", "geometry": {"type": "Polygon", "coordinates": [[[-98.4670657, 34.6308341], [-98.4670695, 34.631015], [-98.4671606, 34.6310137], [-98.4671595, 34.6309576], [-98.4672089, 34.6309569], [-98.4672101, 34.631013], [-98.4672974, 34.6310118], [-98.4672927, 34.630788], [-98.4672122, 34.6307891], [-98.4672131, 34.630832], [-98.4670657, 34.6308341]]]}, "properties": {"osm_id": 1336931777, "building": "yes", "name": "", "height": null, "height_m": null, "levels": null, "tract_id": "40031000405", "tract_name": "4.05", "tags": {"building": "yes", "source": "microsoft/BuildingFootprints"}}}, {"type": "Feature", "geometry": {"type": "Polygon", "coordinates": [[[-98.4675711, 34.6308412], [-98.4674945, 34.6308403], [-98.467494, 34.6308681], [-98.4673695, 34.6308667], [-98.4673676, 34.6309824], [-98.4674841, 34.6309837], [-98.4674836, 34.6310136], [-98.4675683, 34.6310146], [-98.4675711, 34.6308412]]]}, "properties": {"osm_id": 1336931778, "building": "yes", "name": "", "height": null, "height_m": null, "levels": null, "tract_id": "40031000405", "tract_name": "4.05", "tags": {"building": "yes", "source": "microsoft/BuildingFootprints"}}}, {"type": "Feature", "geometry": {"type": "Polygon", "coordinates": [[[-98.4678576, 34.6310107], [-98.4678608, 34.6308938], [-98.4677616, 34.630892], [-98.4677611, 34.6309106], [-98.46765, 34.6309085], [-98.4676458, 34.6310664], [-98.4677274, 34.6310679], [-98.4677284, 34.6310291], [-98.4677702, 34.6310299], [-98.4677707, 34.6310091], [-98.4678576, 34.6310107]]]}, "properties": {"osm_id": 1336931779, "building": "yes", "name": "", "height": null, "height_m": null, "levels": null, "tract_id": "40031000405", "tract_name": "4.05", "tags": {"building": "yes", "source": "microsoft/BuildingFootprints"}}}, {"type": "Feature", "geometry": {"type": "Polygon", "coordinates": [[[-98.4679654, 34.631115], [-98.4681204, 34.6311451], [-98.468115, 34.6311639], [-98.4681973, 34.6311799], [-98.4682301, 34.6310658], [-98.4681731, 34.6310547], [-98.4681785, 34.6310359], [-98.4679981, 34.6310009], [-98.4679654, 34.631115]]]}, "properties": {"osm_id": 1336931780, "building": "yes", "name": "", "height": null, "height_m": null, "levels": null, "tract_id": "40031000405", "tract_name": "4.05", "tags": {"building": "yes", "source": "microsoft/BuildingFootprints"}}}, {"type": "Feature", "geometry": {"type": "Polygon", "coordinates": [[[-98.4682617, 34.6311897], [-98.4684855, 34.6312328], [-98.4685248, 34.6310948], [-98.4684435, 34.6310791], [-98.4684315, 34.6311209], [-98.4682892, 34.6310935], [-98.4682617, 34.6311897]]]}, "properties": {"osm_id": 1336931781, "building": "yes", "name": "", "height": null, "height_m": null, "levels": null, "tract_id": "40031000405", "tract_name": "4.05", "tags": {"building": "yes", "source": "microsoft/BuildingFootprints"}}}, {"type": "Feature", "geometry": {"type": "Polygon", "coordinates": [[[-98.4685689, 34.6312264], [-98.4686781, 34.6312422], [-98.4686705, 34.6312777], [-98.4687605, 34.6312908], [-98.4688022, 34.631096], [-98.4686955, 34.6310805], [-98.4686859, 34.6311255], [-98.4685933, 34.631112], [-98.4685689, 34.6312264]]]}, "properties": {"osm_id": 1336931782, "building": "yes", "name": "", "height": null, "height_m": null, "levels": null, "tract_id": "40031000405", "tract_name": "4.05", "tags": {"building": "yes", "source": "microsoft/BuildingFootprints"}}}, {"type": "Feature", "geometry": {"type": "Polygon", "coordinates": [[[-98.4690014, 34.631208], [-98.4689046, 34.6311897], [-98.4688765, 34.6312903], [-98.469066, 34.6313262], [-98.4691117, 34.6311626], [-98.4690189, 34.6311451], [-98.4690014, 34.631208]]]}, "properties": {"osm_id": 1336931783, "building": "yes", "name": "", "height": null, "height_m": null, "levels": null, "tract_id": "40031000405", "tract_name": "4.05", "tags": {"building": "yes", "source": "microsoft/BuildingFootprints"}}}, {"type": "Feature", "geometry": {"type": "Polygon", "coordinates": [[[-98.4684338, 34.6315018], [-98.4681729, 34.6314622], [-98.4681507, 34.6315613], [-98.4682067, 34.6315698], [-98.4682005, 34.6315975], [-98.4682861, 34.6316105], [-98.4682904, 34.6315913], [-98.4684097, 34.6316094], [-98.4684338, 34.6315018]]]}, "properties": {"osm_id": 1336931784, "building": "yes", "name": "", "height": null, "height_m": null, "levels": null, "tract_id": "40031000405", "tract_name": "4.05", "tags": {"building": "yes", "source": "microsoft/BuildingFootprints"}}}, {"type": "Feature", "geometry": {"type": "Polygon", "coordinates": [[[-98.4682293, 34.6318101], [-98.4680615, 34.6317154], [-98.4680227, 34.6317619], [-98.4680464, 34.6317753], [-98.4680014, 34.6318293], [-98.4679795, 34.631817], [-98.4679319, 34.631874], [-98.4680487, 34.6319399], [-98.46808, 34.6319024], [-98.4681055, 34.6319168], [-98.4681656, 34.6318447], [-98.4681893, 34.6318581], [-98.4682293, 34.6318101]]]}, "properties": {"osm_id": 1336931785, "building": "yes", "name": "", "height": null, "height_m": null, "levels": null, "tract_id": "40031000405", "tract_name": "4.05", "tags": {"building": "yes", "source": "microsoft/BuildingFootprints"}}}, {"type": "Feature", "geometry": {"type": "Polygon", "coordinates": [[[-98.467758, 34.6320436], [-98.4677341, 34.6320256], [-98.4676667, 34.632086], [-98.4677891, 34.6321784], [-98.4678391, 34.6321335], [-98.4678697, 34.6321566], [-98.4679352, 34.6320978], [-98.4679066, 34.6320763], [-98.4679681, 34.6320211], [-98.4678675, 34.6319453], [-98.467758, 34.6320436]]]}, "properties": {"osm_id": 1336931786, "building": "yes", "name": "", "height": null, "height_m": null, "levels": null, "tract_id": "40031000405", "tract_name": "4.05", "tags": {"building": "yes", "source": "microsoft/BuildingFootprints"}}}, {"type": "Feature", "geometry": {"type": "Polygon", "coordinates": [[[-98.4677698, 34.6322314], [-98.4676294, 34.632124], [-98.4674636, 34.6322707], [-98.4676039, 34.6323781], [-98.4677698, 34.6322314]]]}, "properties": {"osm_id": 1336931787, "building": "yes", "name": "", "height": null, "height_m": null, "levels": null, "tract_id": "40031000405", "tract_name": "4.05", "tags": {"building": "yes", "source": "microsoft/BuildingFootprints"}}}, {"type": "Feature", "geometry": {"type": "Polygon", "coordinates": [[[-98.4660606, 34.6317574], [-98.466064, 34.6318434], [-98.4660201, 34.6318445], [-98.4660265, 34.6320065], [-98.4661186, 34.632004], [-98.4661161, 34.6319413], [-98.4662437, 34.6319379], [-98.4662395, 34.631832], [-98.466195, 34.6318332], [-98.4661919, 34.6317539], [-98.4660606, 34.6317574]]]}, "properties": {"osm_id": 1336931788, "building": "yes", "name": "", "height": null, "height_m": null, "levels": null, "tract_id": "40031000405", "tract_name": "4.05", "tags": {"building": "yes", "source": "microsoft/BuildingFootprints"}}}, {"type": "Feature", "geometry": {"type": "Polygon", "coordinates": [[[-98.4660697, 34.6323809], [-98.466332, 34.6323482], [-98.4663145, 34.6322533], [-98.4660523, 34.6322859], [-98.4660697, 34.6323809]]]}, "properties": {"osm_id": 1336931789, "building": "yes", "name": "", "height": null, "height_m": null, "levels": null, "tract_id": "40031000405", "tract_name": "4.05", "tags": {"building": "yes", "source": "microsoft/BuildingFootprints"}}}, {"type": "Feature", "geometry": {"type": "Polygon", "coordinates": [[[-98.4666459, 34.6323789], [-98.4666076, 34.6322081], [-98.4665298, 34.63222], [-98.4665353, 34.6322444], [-98.466416, 34.6322625], [-98.4664426, 34.6323811], [-98.4665748, 34.632361], [-98.4665811, 34.6323887], [-98.4666459, 34.6323789]]]}, "properties": {"osm_id": 1336931790, "building": "yes", "name": "", "height": null, "height_m": null, "levels": null, "tract_id": "40031000405", "tract_name": "4.05", "tags": {"building": "yes", "source": "microsoft/BuildingFootprints"}}}, {"type": "Feature", "geometry": {"type": "Polygon", "coordinates": [[[-98.4667274, 34.6321843], [-98.4666901, 34.6322829], [-98.4667341, 34.6322942], [-98.4667227, 34.6323243], [-98.4668913, 34.6323676], [-98.4669401, 34.6322388], [-98.4667274, 34.6321843]]]}, "properties": {"osm_id": 1336931791, "building": "yes", "name": "", "height": null, "height_m": null, "levels": null, "tract_id": "40031000405", "tract_name": "4.05", "tags": {"building": "yes", "source": "microsoft/BuildingFootprints"}}}, {"type": "Feature", "geometry": {"type": "Polygon", "coordinates": [[[-98.4663395, 34.6325685], [-98.4663368, 34.632638], [-98.4662885, 34.6326368], [-98.466286, 34.6327017], [-98.4663165, 34.6327025], [-98.4663137, 34.6327753], [-98.4664413, 34.6327786], [-98.4664493, 34.6325714], [-98.4663395, 34.6325685]]]}, "properties": {"osm_id": 1336931792, "building": "yes", "name": "", "height": null, "height_m": null, "levels": null, "tract_id": "40031000405", "tract_name": "4.05", "tags": {"building": "yes", "source": "microsoft/BuildingFootprints"}}}, {"type": "Feature", "geometry": {"type": "Polygon", "coordinates": [[[-98.4662818, 34.6328155], [-98.4661228, 34.6328052], [-98.4661128, 34.6329093], [-98.4660702, 34.6329065], [-98.4660644, 34.6329669], [-98.4661603, 34.6329732], [-98.4661571, 34.6330071], [-98.4662584, 34.6330137], [-98.4662651, 34.6329435], [-98.4662465, 34.6329423], [-98.4662517, 34.6328874], [-98.4662747, 34.6328889], [-98.4662818, 34.6328155]]]}, "properties": {"osm_id": 1336931793, "building": "yes", "name": "", "height": null, "height_m": null, "levels": null, "tract_id": "40031000405", "tract_name": "4.05", "tags": {"building": "yes", "source": "microsoft/BuildingFootprints"}}}, {"type": "Feature", "geometry": {"type": "Polygon", "coordinates": [[[-98.4665218, 34.6333117], [-98.4666054, 34.6334637], [-98.4667902, 34.6333949], [-98.4667197, 34.6332667], [-98.4665994, 34.6333115], [-98.4665863, 34.6332876], [-98.4665218, 34.6333117]]]}, "properties": {"osm_id": 1336931794, "building": "yes", "name": "", "height": null, "height_m": null, "levels": null, "tract_id": "40031000405", "tract_name": "4.05", "tags": {"building": "yes", "source": "microsoft/BuildingFootprints"}}}, {"type": "Feature", "geometry": {"type": "Polygon", "coordinates": [[[-98.4669281, 34.6330376], [-98.4669652, 34.6330563], [-98.4670381, 34.6329584], [-98.4668722, 34.6328748], [-98.4668357, 34.6329239], [-98.4668553, 34.6329337], [-98.4667496, 34.6330757], [-98.4668589, 34.6331307], [-98.4669281, 34.6330376]]]}, "properties": {"osm_id": 1336931795, "building": "yes", "name": "", "height": null, "height_m": null, "levels": null, "tract_id": "40031000405", "tract_name": "4.05", "tags": {"building": "yes", "source": "microsoft/BuildingFootprints"}}}, {"type": "Feature", "geometry": {"type": "Polygon", "coordinates": [[[-98.4670654, 34.6326014], [-98.4670137, 34.6326398], [-98.4670278, 34.6326526], [-98.4669122, 34.6327387], [-98.4670323, 34.6328479], [-98.4671996, 34.6327235], [-98.4670654, 34.6326014]]]}, "properties": {"osm_id": 1336931796, "building": "yes", "name": "", "height": null, "height_m": null, "levels": null, "tract_id": "40031000405", "tract_name": "4.05", "tags": {"building": "yes", "source": "microsoft/BuildingFootprints"}}}, {"type": "Feature", "geometry": {"type": "Polygon", "coordinates": [[[-98.4672574, 34.6324738], [-98.4672081, 34.6325112], [-98.4671894, 34.6324945], [-98.4670995, 34.6325627], [-98.4671944, 34.6326474], [-98.4672582, 34.632599], [-98.467281, 34.6326193], [-98.4673563, 34.6325621], [-98.4672574, 34.6324738]]]}, "properties": {"osm_id": 1336931797, "building": "yes", "name": "", "height": null, "height_m": null, "levels": null, "tract_id": "40031000405", "tract_name": "4.05", "tags": {"building": "yes", "source": "microsoft/BuildingFootprints"}}}, {"type": "Feature", "geometry": {"type": "Polygon", "coordinates": [[[-98.4662023, 34.6330602], [-98.4660857, 34.6330757], [-98.4661352, 34.6333284], [-98.4662519, 34.6333128], [-98.4662023, 34.6330602]]]}, "properties": {"osm_id": 1336931798, "building": "yes", "name": "", "height": null, "height_m": null, "levels": null, "tract_id": "40031000405", "tract_name": "4.05", "tags": {"building": "yes", "source": "microsoft/BuildingFootprints"}}}, {"type": "Feature", "geometry": {"type": "Polygon", "coordinates": [[[-98.4677602, 34.6328903], [-98.4676825, 34.632823], [-98.4676647, 34.6328369], [-98.4675528, 34.63274], [-98.4674762, 34.6327999], [-98.4676658, 34.6329641], [-98.4677602, 34.6328903]]]}, "properties": {"osm_id": 1336931799, "building": "yes", "name": "", "height": null, "height_m": null, "levels": null, "tract_id": "40031000405", "tract_name": "4.05", "tags": {"building": "yes", "source": "microsoft/BuildingFootprints"}}}, {"type": "Feature", "geometry": {"type": "Polygon", "coordinates": [[[-98.4678439, 34.6329361], [-98.4676726, 34.6330866], [-98.4677369, 34.6331361], [-98.4677722, 34.6331051], [-98.467927, 34.6332244], [-98.4680696, 34.6330991], [-98.4679839, 34.6330331], [-98.4679344, 34.6330766], [-98.4678796, 34.6330343], [-98.4679225, 34.6329967], [-98.4678439, 34.6329361]]]}, "properties": {"osm_id": 1336931800, "building": "yes", "name": "", "height": null, "height_m": null, "levels": null, "tract_id": "40031000405", "tract_name": "4.05", "tags": {"building": "yes", "source": "microsoft/BuildingFootprints"}}}, {"type": "Feature", "geometry": {"type": "Polygon", "coordinates": [[[-98.4680188, 34.6332757], [-98.4681185, 34.6333512], [-98.4680952, 34.633372], [-98.4681475, 34.6334116], [-98.4682964, 34.6332785], [-98.4682339, 34.6332312], [-98.468216, 34.6332473], [-98.4681672, 34.6332103], [-98.4681418, 34.633233], [-98.4681011, 34.6332022], [-98.4680188, 34.6332757]]]}, "properties": {"osm_id": 1336931801, "building": "yes", "name": "", "height": null, "height_m": null, "levels": null, "tract_id": "40031000405", "tract_name": "4.05", "tags": {"building": "yes", "source": "microsoft/BuildingFootprints"}}}, {"type": "Feature", "geometry": {"type": "Polygon", "coordinates": [[[-98.4685129, 34.633479], [-98.4683962, 34.6333868], [-98.4684142, 34.6333714], [-98.4683467, 34.6333181], [-98.4682403, 34.6334092], [-98.4683087, 34.6334632], [-98.4682771, 34.6334903], [-98.4683928, 34.6335818], [-98.4685129, 34.633479]]]}, "properties": {"osm_id": 1336931802, "building": "yes", "name": "", "height": null, "height_m": null, "levels": null, "tract_id": "40031000405", "tract_name": "4.05", "tags": {"building": "yes", "source": "microsoft/BuildingFootprints"}}}, {"type": "Feature", "geometry": {"type": "Polygon", "coordinates": [[[-98.4686366, 34.6336643], [-98.4687021, 34.6336053], [-98.4686173, 34.6335416], [-98.4684709, 34.6336734], [-98.4685922, 34.6337646], [-98.4686732, 34.6336917], [-98.4686366, 34.6336643]]]}, "properties": {"osm_id": 1336931803, "building": "yes", "name": "", "height": null, "height_m": null, "levels": null, "tract_id": "40031000405", "tract_name": "4.05", "tags": {"building": "yes", "source": "microsoft/BuildingFootprints"}}}, {"type": "Feature", "geometry": {"type": "Polygon", "coordinates": [[[-98.4687835, 34.6338524], [-98.4686764, 34.6339456], [-98.4687302, 34.6339874], [-98.4689377, 34.6338069], [-98.4688788, 34.6337611], [-98.4688539, 34.6337827], [-98.4687973, 34.6337387], [-98.4687218, 34.6338043], [-98.4687835, 34.6338524]]]}, "properties": {"osm_id": 1336931804, "building": "yes", "name": "", "height": null, "height_m": null, "levels": null, "tract_id": "40031000405", "tract_name": "4.05", "tags": {"building": "yes", "source": "microsoft/BuildingFootprints"}}}, {"type": "Feature", "geometry": {"type": "Polygon", "coordinates": [[[-98.4687155, 34.6330944], [-98.4688211, 34.6330008], [-98.4687088, 34.6329149], [-98.4685662, 34.6330413], [-98.4686276, 34.6330882], [-98.4685768, 34.6331332], [-98.4686791, 34.6332114], [-98.4687668, 34.6331336], [-98.4687155, 34.6330944]]]}, "properties": {"osm_id": 1336931805, "building": "yes", "name": "", "height": null, "height_m": null, "levels": null, "tract_id": "40031000405", "tract_name": "4.05", "tags": {"building": "yes", "source": "microsoft/BuildingFootprints"}}}, {"type": "Feature", "geometry": {"type": "Polygon", "coordinates": [[[-98.4687787, 34.6332828], [-98.4689407, 34.6334091], [-98.4690505, 34.6333138], [-98.4689592, 34.6332426], [-98.4690141, 34.6331949], [-98.4689434, 34.6331398], [-98.4687787, 34.6332828]]]}, "properties": {"osm_id": 1336931806, "building": "yes", "name": "", "height": null, "height_m": null, "levels": null, "tract_id": "40031000405", "tract_name": "4.05", "tags": {"building": "yes", "source": "microsoft/BuildingFootprints"}}}, {"type": "Feature", "geometry": {"type": "Polygon", "coordinates": [[[-98.4690091, 34.633473], [-98.4690956, 34.6335483], [-98.4691556, 34.6335016], [-98.4692252, 34.6335623], [-98.4692989, 34.633505], [-98.469248, 34.6334607], [-98.4692943, 34.6334247], [-98.4692046, 34.6333466], [-98.4690832, 34.6334409], [-98.4690677, 34.6334274], [-98.4690091, 34.633473]]]}, "properties": {"osm_id": 1336931807, "building": "yes", "name": "", "height": null, "height_m": null, "levels": null, "tract_id": "40031000405", "tract_name": "4.05", "tags": {"building": "yes", "source": "microsoft/BuildingFootprints"}}}, {"type": "Feature", "geometry": {"type": "Polygon", "coordinates": [[[-98.466391, 34.6310195], [-98.4663549, 34.6309877], [-98.466405, 34.6309491], [-98.4662912, 34.630849], [-98.4661888, 34.6309278], [-98.4662684, 34.6309979], [-98.4662549, 34.6310083], [-98.4663251, 34.6310701], [-98.466391, 34.6310195]]]}, "properties": {"osm_id": 1336931857, "building": "yes", "name": "", "height": null, "height_m": null, "levels": null, "tract_id": "40031000405", "tract_name": "4.05", "tags": {"building": "yes", "source": "microsoft/BuildingFootprints"}}}, {"type": "Feature", "geometry": {"type": "Polygon", "coordinates": [[[-98.4663752, 34.6312747], [-98.4662819, 34.631245], [-98.4662512, 34.6313102], [-98.4662162, 34.6312991], [-98.4661738, 34.6313893], [-98.466372, 34.6314525], [-98.4664081, 34.6313757], [-98.4663382, 34.6313534], [-98.4663752, 34.6312747]]]}, "properties": {"osm_id": 1336931858, "building": "yes", "name": "", "height": null, "height_m": null, "levels": null, "tract_id": "40031000405", "tract_name": "4.05", "tags": {"building": "yes", "source": "microsoft/BuildingFootprints"}}}, {"type": "Feature", "geometry": {"type": "Polygon", "coordinates": [[[-98.4665267, 34.6315415], [-98.4667427, 34.6315446], [-98.4667451, 34.631432], [-98.4666684, 34.631431], [-98.4666687, 34.6314177], [-98.4666258, 34.6314171], [-98.4666269, 34.631362], [-98.4665304, 34.6313606], [-98.4665267, 34.6315415]]]}, "properties": {"osm_id": 1336931859, "building": "yes", "name": "", "height": null, "height_m": null, "levels": null, "tract_id": "40031000405", "tract_name": "4.05", "tags": {"building": "yes", "source": "microsoft/BuildingFootprints"}}}, {"type": "Feature", "geometry": {"type": "Polygon", "coordinates": [[[-98.4669242, 34.6313115], [-98.4669225, 34.6313742], [-98.4668329, 34.6313726], [-98.4668306, 34.6314576], [-98.4670221, 34.6314611], [-98.467024, 34.6313905], [-98.4670025, 34.6313901], [-98.4670046, 34.6313129], [-98.4669242, 34.6313115]]]}, "properties": {"osm_id": 1336931860, "building": "yes", "name": "", "height": null, "height_m": null, "levels": null, "tract_id": "40031000405", "tract_name": "4.05", "tags": {"building": "yes", "source": "microsoft/BuildingFootprints"}}}, {"type": "Feature", "geometry": {"type": "Polygon", "coordinates": [[[-98.4670621, 34.631467], [-98.4671415, 34.6314661], [-98.467141, 34.6314374], [-98.4673261, 34.6314354], [-98.4673243, 34.6313273], [-98.4672385, 34.6313282], [-98.4672388, 34.6313437], [-98.4671621, 34.6313445], [-98.4671619, 34.6313281], [-98.4670599, 34.6313292], [-98.4670621, 34.631467]]]}, "properties": {"osm_id": 1336931861, "building": "yes", "name": "", "height": null, "height_m": null, "levels": null, "tract_id": "40031000405", "tract_name": "4.05", "tags": {"building": "yes", "source": "microsoft/BuildingFootprints"}}}, {"type": "Feature", "geometry": {"type": "Polygon", "coordinates": [[[-98.4675106, 34.6314907], [-98.4674715, 34.6315567], [-98.4675214, 34.6315767], [-98.4674781, 34.6316498], [-98.4675844, 34.6316924], [-98.4676224, 34.6316281], [-98.4676788, 34.6316507], [-98.4677231, 34.6315758], [-98.4675106, 34.6314907]]]}, "properties": {"osm_id": 1336931862, "building": "yes", "name": "", "height": null, "height_m": null, "levels": null, "tract_id": "40031000405", "tract_name": "4.05", "tags": {"building": "yes", "source": "microsoft/BuildingFootprints"}}}, {"type": "Feature", "geometry": {"type": "Polygon", "coordinates": [[[-98.467731, 34.631359], [-98.4675388, 34.631312], [-98.4675168, 34.6313728], [-98.4675809, 34.6313885], [-98.4675526, 34.6314667], [-98.4677621, 34.6315179], [-98.4677907, 34.6314388], [-98.4677094, 34.6314189], [-98.467731, 34.631359]]]}, "properties": {"osm_id": 1336931863, "building": "yes", "name": "", "height": null, "height_m": null, "levels": null, "tract_id": "40031000405", "tract_name": "4.05", "tags": {"building": "yes", "source": "microsoft/BuildingFootprints"}}}, {"type": "Feature", "geometry": {"type": "Polygon", "coordinates": [[[-98.4673731, 34.6317976], [-98.467436, 34.6318519], [-98.4675147, 34.6317902], [-98.467449, 34.6317336], [-98.4674645, 34.6317214], [-98.4673793, 34.631648], [-98.4672263, 34.6317681], [-98.4673141, 34.6318439], [-98.4673731, 34.6317976]]]}, "properties": {"osm_id": 1336931864, "building": "yes", "name": "", "height": null, "height_m": null, "levels": null, "tract_id": "40031000405", "tract_name": "4.05", "tags": {"building": "yes", "source": "microsoft/BuildingFootprints"}}}, {"type": "Feature", "geometry": {"type": "Polygon", "coordinates": [[[-98.4672432, 34.6318496], [-98.4669884, 34.6318527], [-98.4669905, 34.6319718], [-98.4670817, 34.6319707], [-98.4670814, 34.6319531], [-98.467245, 34.6319511], [-98.4672432, 34.6318496]]]}, "properties": {"osm_id": 1336931865, "building": "yes", "name": "", "height": null, "height_m": null, "levels": null, "tract_id": "40031000405", "tract_name": "4.05", "tags": {"building": "yes", "source": "microsoft/BuildingFootprints"}}}, {"type": "Feature", "geometry": {"type": "Polygon", "coordinates": [[[-98.4667686, 34.6319139], [-98.4667645, 34.6318147], [-98.4666236, 34.6318187], [-98.4666276, 34.6319179], [-98.4667686, 34.6319139]]]}, "properties": {"osm_id": 1336931866, "building": "yes", "name": "", "height": null, "height_m": null, "levels": null, "tract_id": "40031000405", "tract_name": "4.05", "tags": {"building": "yes", "source": "microsoft/BuildingFootprints"}}}, {"type": "Feature", "geometry": {"type": "Polygon", "coordinates": [[[-98.4663358, 34.6317881], [-98.4663349, 34.6318995], [-98.4664975, 34.6319003], [-98.4664973, 34.6319268], [-98.4665804, 34.6319272], [-98.4665815, 34.6317772], [-98.4664018, 34.6317763], [-98.4664017, 34.6317885], [-98.4663358, 34.6317881]]]}, "properties": {"osm_id": 1336931867, "building": "yes", "name": "", "height": null, "height_m": null, "levels": null, "tract_id": "40031000405", "tract_name": "4.05", "tags": {"building": "yes", "source": "microsoft/BuildingFootprints"}}}, {"type": "Feature", "geometry": {"type": "Polygon", "coordinates": [[[-98.4687069, 34.6315904], [-98.4687114, 34.631569], [-98.4686203, 34.6315559], [-98.4685895, 34.6317016], [-98.4687509, 34.6317247], [-98.4687541, 34.6317097], [-98.4688036, 34.6317168], [-98.4688267, 34.6316075], [-98.4687069, 34.6315904]]]}, "properties": {"osm_id": 1336931868, "building": "yes", "name": "", "height": null, "height_m": null, "levels": null, "tract_id": "40031000405", "tract_name": "4.05", "tags": {"building": "yes", "source": "microsoft/BuildingFootprints"}}}, {"type": "Feature", "geometry": {"type": "Polygon", "coordinates": [[[-98.4688658, 34.6318058], [-98.4689557, 34.6318179], [-98.4689646, 34.6317727], [-98.4690707, 34.6317869], [-98.4690899, 34.6316902], [-98.4689984, 34.6316779], [-98.4690088, 34.6316255], [-98.4689043, 34.6316115], [-98.4688658, 34.6318058]]]}, "properties": {"osm_id": 1336931869, "building": "yes", "name": "", "height": null, "height_m": null, "levels": null, "tract_id": "40031000405", "tract_name": "4.05", "tags": {"building": "yes", "source": "microsoft/BuildingFootprints"}}}, {"type": "Feature", "geometry": {"type": "Polygon", "coordinates": [[[-98.4693632, 34.6316916], [-98.4691865, 34.6316726], [-98.4691685, 34.6317863], [-98.4692291, 34.6317928], [-98.4692134, 34.6318918], [-98.4693162, 34.6319029], [-98.4693304, 34.6318139], [-98.4693436, 34.6318153], [-98.4693632, 34.6316916]]]}, "properties": {"osm_id": 1336931870, "building": "yes", "name": "", "height": null, "height_m": null, "levels": null, "tract_id": "40031000405", "tract_name": "4.05", "tags": {"building": "yes", "source": "microsoft/BuildingFootprints"}}}, {"type": "Feature", "geometry": {"type": "Polygon", "coordinates": [[[-98.4694317, 34.6319579], [-98.4695695, 34.6319781], [-98.4695818, 34.6319211], [-98.469547, 34.631916], [-98.4695895, 34.6317192], [-98.4694866, 34.6317041], [-98.4694317, 34.6319579]]]}, "properties": {"osm_id": 1336931871, "building": "yes", "name": "", "height": null, "height_m": null, "levels": null, "tract_id": "40031000405", "tract_name": "4.05", "tags": {"building": "yes", "source": "microsoft/BuildingFootprints"}}}, {"type": "Feature", "geometry": {"type": "Polygon", "coordinates": [[[-98.4694248, 34.6321108], [-98.4694202, 34.6322682], [-98.4695891, 34.6322716], [-98.4695911, 34.6322024], [-98.469567, 34.6322019], [-98.4695701, 34.632096], [-98.4695899, 34.6320964], [-98.4695913, 34.6320501], [-98.4694535, 34.6320473], [-98.4694516, 34.6321113], [-98.4694248, 34.6321108]]]}, "properties": {"osm_id": 1336931872, "building": "yes", "name": "", "height": null, "height_m": null, "levels": null, "tract_id": "40031000405", "tract_name": "4.05", "tags": {"building": "yes", "source": "microsoft/BuildingFootprints"}}}, {"type": "Feature", "geometry": {"type": "Polygon", "coordinates": [[[-98.4695781, 34.6323179], [-98.4693823, 34.6323194], [-98.4693843, 34.6324981], [-98.4695801, 34.6324967], [-98.4695781, 34.6323179]]]}, "properties": {"osm_id": 1336931873, "building": "yes", "name": "", "height": null, "height_m": null, "levels": null, "tract_id": "40031000405", "tract_name": "4.05", "tags": {"building": "yes", "source": "microsoft/BuildingFootprints"}}}, {"type": "Feature", "geometry": {"type": "Polygon", "coordinates": [[[-98.4694269, 34.6326745], [-98.469428, 34.6327584], [-98.4695755, 34.6327571], [-98.4695728, 34.6325483], [-98.4693787, 34.63255], [-98.4693803, 34.6326749], [-98.4694269, 34.6326745]]]}, "properties": {"osm_id": 1336931874, "building": "yes", "name": "", "height": null, "height_m": null, "levels": null, "tract_id": "40031000405", "tract_name": "4.05", "tags": {"building": "yes", "source": "microsoft/BuildingFootprints"}}}, {"type": "Feature", "geometry": {"type": "Polygon", "coordinates": [[[-98.4695409, 34.6328983], [-98.4695421, 34.6328167], [-98.4693795, 34.632815], [-98.4693771, 34.6329708], [-98.4695782, 34.6329729], [-98.4695794, 34.6328987], [-98.4695409, 34.6328983]]]}, "properties": {"osm_id": 1336931875, "building": "yes", "name": "", "height": null, "height_m": null, "levels": null, "tract_id": "40031000405", "tract_name": "4.05", "tags": {"building": "yes", "source": "microsoft/BuildingFootprints"}}}, {"type": "Feature", "geometry": {"type": "Polygon", "coordinates": [[[-98.4693603, 34.6332164], [-98.4695317, 34.6332473], [-98.4695497, 34.63318], [-98.4695548, 34.6331809], [-98.4695812, 34.6330819], [-98.4694047, 34.63305], [-98.4693603, 34.6332164]]]}, "properties": {"osm_id": 1336931876, "building": "yes", "name": "", "height": null, "height_m": null, "levels": null, "tract_id": "40031000405", "tract_name": "4.05", "tags": {"building": "yes", "source": "microsoft/BuildingFootprints"}}}, {"type": "Feature", "geometry": {"type": "Polygon", "coordinates": [[[-98.4690207, 34.6319932], [-98.4688952, 34.6320853], [-98.4690018, 34.6321836], [-98.468966, 34.6322099], [-98.4690339, 34.6322726], [-98.4691952, 34.6321542], [-98.4690207, 34.6319932]]]}, "properties": {"osm_id": 1336931877, "building": "yes", "name": "", "height": null, "height_m": null, "levels": null, "tract_id": "40031000405", "tract_name": "4.05", "tags": {"building": "yes", "source": "microsoft/BuildingFootprints"}}}, {"type": "Feature", "geometry": {"type": "Polygon", "coordinates": [[[-98.4689655, 34.6324106], [-98.468963, 34.632512], [-98.4689271, 34.6325114], [-98.4689255, 34.6325732], [-98.4691062, 34.6325763], [-98.4691072, 34.6325344], [-98.4691394, 34.6325349], [-98.4691413, 34.6324586], [-98.4691065, 34.632458], [-98.4691076, 34.632413], [-98.4689655, 34.6324106]]]}, "properties": {"osm_id": 1336931878, "building": "yes", "name": "", "height": null, "height_m": null, "levels": null, "tract_id": "40031000405", "tract_name": "4.05", "tags": {"building": "yes", "source": "microsoft/BuildingFootprints"}}}, {"type": "Feature", "geometry": {"type": "Polygon", "coordinates": [[[-98.468831, 34.632801], [-98.4689977, 34.6328303], [-98.4690174, 34.6327543], [-98.4690242, 34.6327555], [-98.4690459, 34.6326719], [-98.4689946, 34.6326629], [-98.4690041, 34.6326262], [-98.468882, 34.6326047], [-98.468831, 34.632801]]]}, "properties": {"osm_id": 1336931879, "building": "yes", "name": "", "height": null, "height_m": null, "levels": null, "tract_id": "40031000405", "tract_name": "4.05", "tags": {"building": "yes", "source": "microsoft/BuildingFootprints"}}}, {"type": "Feature", "geometry": {"type": "Polygon", "coordinates": [[[-98.4688125, 34.6320783], [-98.46878, 34.6319631], [-98.4685113, 34.6320145], [-98.4685438, 34.6321297], [-98.4688125, 34.6320783]]]}, "properties": {"osm_id": 1336931880, "building": "yes", "name": "", "height": null, "height_m": null, "levels": null, "tract_id": "40031000405", "tract_name": "4.05", "tags": {"building": "yes", "source": "microsoft/BuildingFootprints"}}}, {"type": "Feature", "geometry": {"type": "Polygon", "coordinates": [[[-98.4683063, 34.6323188], [-98.4684428, 34.6323355], [-98.4684771, 34.6321455], [-98.4682977, 34.6321235], [-98.4682776, 34.6322346], [-98.4683206, 34.6322398], [-98.4683063, 34.6323188]]]}, "properties": {"osm_id": 1336931881, "building": "yes", "name": "", "height": null, "height_m": null, "levels": null, "tract_id": "40031000405", "tract_name": "4.05", "tags": {"building": "yes", "source": "microsoft/BuildingFootprints"}}}, {"type": "Feature", "geometry": {"type": "Polygon", "coordinates": [[[-98.4684011, 34.6324507], [-98.468327, 34.6326555], [-98.4684986, 34.6326975], [-98.4685261, 34.6326213], [-98.4684876, 34.6326119], [-98.4685342, 34.6324833], [-98.4684011, 34.6324507]]]}, "properties": {"osm_id": 1336931882, "building": "yes", "name": "", "height": null, "height_m": null, "levels": null, "tract_id": "40031000405", "tract_name": "4.05", "tags": {"building": "yes", "source": "microsoft/BuildingFootprints"}}}, {"type": "Feature", "geometry": {"type": "Polygon", "coordinates": [[[-98.46836, 34.6327841], [-98.4681376, 34.6326178], [-98.4680415, 34.6327048], [-98.4682639, 34.6328711], [-98.46836, 34.6327841]]]}, "properties": {"osm_id": 1336931883, "building": "yes", "name": "", "height": null, "height_m": null, "levels": null, "tract_id": "40031000405", "tract_name": "4.05", "tags": {"building": "yes", "source": "microsoft/BuildingFootprints"}}}, {"type": "Feature", "geometry": {"type": "Polygon", "coordinates": [[[-98.4678917, 34.6325836], [-98.4679516, 34.6326299], [-98.4680841, 34.6325137], [-98.468, 34.6324488], [-98.468012, 34.6324382], [-98.4679488, 34.6323893], [-98.4678243, 34.6324984], [-98.467879, 34.6325407], [-98.4679065, 34.6325166], [-98.4679393, 34.6325419], [-98.4678917, 34.6325836]]]}, "properties": {"osm_id": 1336931884, "building": "yes", "name": "", "height": null, "height_m": null, "levels": null, "tract_id": "40031000405", "tract_name": "4.05", "tags": {"building": "yes", "source": "microsoft/BuildingFootprints"}}}, {"type": "Feature", "geometry": {"type": "Polygon", "coordinates": [[[-98.4699334, 34.633046], [-98.469932, 34.6331086], [-98.4699739, 34.6331092], [-98.4699708, 34.6332452], [-98.470138, 34.6332478], [-98.4701425, 34.6330492], [-98.4699334, 34.633046]]]}, "properties": {"osm_id": 1336931885, "building": "yes", "name": "", "height": null, "height_m": null, "levels": null, "tract_id": "40031000405", "tract_name": "4.05", "tags": {"building": "yes", "source": "microsoft/BuildingFootprints"}}}, {"type": "Feature", "geometry": {"type": "Polygon", "coordinates": [[[-98.4701948, 34.6333262], [-98.4700123, 34.6332842], [-98.4699914, 34.6333456], [-98.4700487, 34.6333588], [-98.4700215, 34.6334386], [-98.4699519, 34.6334226], [-98.4699338, 34.6334758], [-98.4700267, 34.6334972], [-98.4699961, 34.6335872], [-98.4700981, 34.6336107], [-98.4701948, 34.6333262]]]}, "properties": {"osm_id": 1336931886, "building": "yes", "name": "", "height": null, "height_m": null, "levels": null, "tract_id": "40031000405", "tract_name": "4.05", "tags": {"building": "yes", "source": "microsoft/BuildingFootprints"}}}, {"type": "Feature", "geometry": {"type": "Polygon", "coordinates": [[[-98.4698389, 34.6337382], [-98.4699615, 34.6336299], [-98.4698369, 34.6335345], [-98.4697371, 34.6336228], [-98.4696825, 34.633581], [-98.4696076, 34.6336472], [-98.4698117, 34.6338035], [-98.4698639, 34.6337574], [-98.4698389, 34.6337382]]]}, "properties": {"osm_id": 1336931887, "building": "yes", "name": "", "height": null, "height_m": null, "levels": null, "tract_id": "40031000405", "tract_name": "4.05", "tags": {"building": "yes", "source": "microsoft/BuildingFootprints"}}}, {"type": "Feature", "geometry": {"type": "Polygon", "coordinates": [[[-98.4696997, 34.6339288], [-98.4697686, 34.6338666], [-98.4695476, 34.6337007], [-98.4694506, 34.6337881], [-98.4695267, 34.6338453], [-98.4695022, 34.6338674], [-98.4695871, 34.6339311], [-98.4696397, 34.6338837], [-98.4696997, 34.6339288]]]}, "properties": {"osm_id": 1336931888, "building": "yes", "name": "", "height": null, "height_m": null, "levels": null, "tract_id": "40031000405", "tract_name": "4.05", "tags": {"building": "yes", "source": "microsoft/BuildingFootprints"}}}, {"type": "Feature", "geometry": {"type": "Polygon", "coordinates": [[[-98.4698098, 34.6339349], [-98.469829, 34.6339513], [-98.4697637, 34.6340032], [-98.4698382, 34.6340668], [-98.4699091, 34.6340106], [-98.4699574, 34.6340518], [-98.470045, 34.6339823], [-98.4699633, 34.6339125], [-98.469978, 34.6339008], [-98.4699177, 34.6338493], [-98.4698098, 34.6339349]]]}, "properties": {"osm_id": 1336931889, "building": "yes", "name": "", "height": null, "height_m": null, "levels": null, "tract_id": "40031000405", "tract_name": "4.05", "tags": {"building": "yes", "source": "microsoft/BuildingFootprints"}}}, {"type": "Feature", "geometry": {"type": "Polygon", "coordinates": [[[-98.4699863, 34.6342939], [-98.4700468, 34.6342959], [-98.4700456, 34.6343215], [-98.47021, 34.6343268], [-98.4702132, 34.6342593], [-98.4701784, 34.6342582], [-98.4701839, 34.6341436], [-98.4700607, 34.6341396], [-98.4700591, 34.6341727], [-98.4699921, 34.6341705], [-98.4699863, 34.6342939]]]}, "properties": {"osm_id": 1336931890, "building": "yes", "name": "", "height": null, "height_m": null, "levels": null, "tract_id": "40031000405", "tract_name": "4.05", "tags": {"building": "yes", "source": "microsoft/BuildingFootprints"}}}, {"type": "Feature", "geometry": {"type": "Polygon", "coordinates": [[[-98.4700566, 34.634531], [-98.4699828, 34.6344347], [-98.4700096, 34.6344207], [-98.4699624, 34.6343591], [-98.4698504, 34.6344173], [-98.4698879, 34.6344662], [-98.4697958, 34.634514], [-98.4698829, 34.6346277], [-98.4699451, 34.6345955], [-98.4699652, 34.6346217], [-98.4700381, 34.6345839], [-98.4700144, 34.6345529], [-98.4700566, 34.634531]]]}, "properties": {"osm_id": 1336931891, "building": "yes", "name": "", "height": null, "height_m": null, "levels": null, "tract_id": "40031000405", "tract_name": "4.05", "tags": {"building": "yes", "source": "microsoft/BuildingFootprints"}}}, {"type": "Feature", "geometry": {"type": "Polygon", "coordinates": [[[-98.4696227, 34.6345043], [-98.4695, 34.6344668], [-98.4694581, 34.63456], [-98.4696679, 34.634624], [-98.4697422, 34.6344591], [-98.469655, 34.6344325], [-98.4696227, 34.6345043]]]}, "properties": {"osm_id": 1336931892, "building": "yes", "name": "", "height": null, "height_m": null, "levels": null, "tract_id": "40031000405", "tract_name": "4.05", "tags": {"building": "yes", "source": "microsoft/BuildingFootprints"}}}, {"type": "Feature", "geometry": {"type": "Polygon", "coordinates": [[[-98.4693988, 34.6343081], [-98.469336, 34.6342609], [-98.4692457, 34.6343422], [-98.4693646, 34.6344316], [-98.4695056, 34.6343046], [-98.4694496, 34.6342625], [-98.4693988, 34.6343081]]]}, "properties": {"osm_id": 1336931893, "building": "yes", "name": "", "height": null, "height_m": null, "levels": null, "tract_id": "40031000405", "tract_name": "4.05", "tags": {"building": "yes", "source": "microsoft/BuildingFootprints"}}}, {"type": "Feature", "geometry": {"type": "Polygon", "coordinates": [[[-98.4691335, 34.6340372], [-98.4690177, 34.6341365], [-98.4691364, 34.6342302], [-98.4691672, 34.6342038], [-98.4692016, 34.6342309], [-98.4693262, 34.6341241], [-98.4692416, 34.6340572], [-98.4692496, 34.6340503], [-98.4691979, 34.6340095], [-98.4691502, 34.6340505], [-98.4691335, 34.6340372]]]}, "properties": {"osm_id": 1336931894, "building": "yes", "name": "", "height": null, "height_m": null, "levels": null, "tract_id": "40031000405", "tract_name": "4.05", "tags": {"building": "yes", "source": "microsoft/BuildingFootprints"}}}, {"type": "Feature", "geometry": {"type": "Polygon", "coordinates": [[[-98.4635558, 34.6338791], [-98.4641127, 34.6338773], [-98.4641109, 34.6335264], [-98.4635423, 34.6335283], [-98.4635421, 34.6334819], [-98.4634858, 34.6334821], [-98.4634859, 34.6335208], [-98.4631078, 34.6335221], [-98.4631083, 34.6336268], [-98.4630422, 34.633627], [-98.463043, 34.6337903], [-98.4631976, 34.6337898], [-98.4631981, 34.6339002], [-98.4631606, 34.6339003], [-98.4631623, 34.6342568], [-98.4632653, 34.6342565], [-98.4632655, 34.6342852], [-98.4634522, 34.6342845], [-98.463452, 34.6342568], [-98.4635577, 34.6342565], [-98.4635558, 34.6338791]]]}, "properties": {"osm_id": 1336931895, "building": "yes", "name": "", "height": null, "height_m": null, "levels": null, "tract_id": "40031000405", "tract_name": "4.05", "tags": {"building": "yes", "source": "microsoft/BuildingFootprints"}}}, {"type": "Feature", "geometry": {"type": "Polygon", "coordinates": [[[-98.4643451, 34.6335783], [-98.4641798, 34.6335791], [-98.4641812, 34.6337689], [-98.4643464, 34.6337681], [-98.4643451, 34.6335783]]]}, "properties": {"osm_id": 1336931896, "building": "yes", "name": "", "height": null, "height_m": null, "levels": null, "tract_id": "40031000405", "tract_name": "4.05", "tags": {"building": "yes", "source": "microsoft/BuildingFootprints"}}}, {"type": "Feature", "geometry": {"type": "Polygon", "coordinates": [[[-98.4643232, 34.6322335], [-98.4643001, 34.6321542], [-98.4643382, 34.6321467], [-98.464305, 34.6320329], [-98.4641259, 34.6320683], [-98.4641822, 34.6322613], [-98.4643232, 34.6322335]]]}, "properties": {"osm_id": 1336931897, "building": "yes", "name": "", "height": null, "height_m": null, "levels": null, "tract_id": "40031000405", "tract_name": "4.05", "tags": {"building": "yes", "source": "microsoft/BuildingFootprints"}}}, {"type": "Feature", "geometry": {"type": "Polygon", "coordinates": [[[-98.4642931, 34.6323157], [-98.4641581, 34.6323129], [-98.4641556, 34.6323945], [-98.4641207, 34.6323938], [-98.4641187, 34.6324599], [-98.4642886, 34.6324634], [-98.4642931, 34.6323157]]]}, "properties": {"osm_id": 1336931898, "building": "yes", "name": "", "height": null, "height_m": null, "levels": null, "tract_id": "40031000405", "tract_name": "4.05", "tags": {"building": "yes", "source": "microsoft/BuildingFootprints"}}}, {"type": "Feature", "geometry": {"type": "Polygon", "coordinates": [[[-98.4643057, 34.6325248], [-98.4641287, 34.6325263], [-98.4641297, 34.6326101], [-98.4640885, 34.6326105], [-98.4640893, 34.6326767], [-98.4642851, 34.6326751], [-98.4642843, 34.6326133], [-98.4643068, 34.6326131], [-98.4643057, 34.6325248]]]}, "properties": {"osm_id": 1336931899, "building": "yes", "name": "", "height": null, "height_m": null, "levels": null, "tract_id": "40031000405", "tract_name": "4.05", "tags": {"building": "yes", "source": "microsoft/BuildingFootprints"}}}, {"type": "Feature", "geometry": {"type": "Polygon", "coordinates": [[[-98.4642605, 34.6327302], [-98.4641308, 34.6327327], [-98.4641333, 34.6328187], [-98.4640877, 34.6328196], [-98.4640896, 34.632888], [-98.464297, 34.632884], [-98.4642956, 34.6328321], [-98.4642634, 34.6328328], [-98.4642605, 34.6327302]]]}, "properties": {"osm_id": 1336931900, "building": "yes", "name": "", "height": null, "height_m": null, "levels": null, "tract_id": "40031000405", "tract_name": "4.05", "tags": {"building": "yes", "source": "microsoft/BuildingFootprints"}}}, {"type": "Feature", "geometry": {"type": "Polygon", "coordinates": [[[-98.4640797, 34.6330896], [-98.4642289, 34.6330923], [-98.4642325, 34.6329544], [-98.4641236, 34.6329525], [-98.4641223, 34.6330021], [-98.464082, 34.6330014], [-98.4640797, 34.6330896]]]}, "properties": {"osm_id": 1336931901, "building": "yes", "name": "", "height": null, "height_m": null, "levels": null, "tract_id": "40031000405", "tract_name": "4.05", "tags": {"building": "yes", "source": "microsoft/BuildingFootprints"}}}, {"type": "Feature", "geometry": {"type": "Polygon", "coordinates": [[[-98.4635809, 34.6323724], [-98.4635832, 34.6324694], [-98.4636503, 34.6324683], [-98.4636529, 34.6325764], [-98.4637548, 34.6325747], [-98.4637498, 34.6323696], [-98.4635809, 34.6323724]]]}, "properties": {"osm_id": 1336931902, "building": "yes", "name": "", "height": null, "height_m": null, "levels": null, "tract_id": "40031000405", "tract_name": "4.05", "tags": {"building": "yes", "source": "microsoft/BuildingFootprints"}}}, {"type": "Feature", "geometry": {"type": "Polygon", "coordinates": [[[-98.4637604, 34.6326117], [-98.4635834, 34.63261], [-98.4635813, 34.6327645], [-98.4637583, 34.6327662], [-98.4637604, 34.6326117]]]}, "properties": {"osm_id": 1336931903, "building": "yes", "name": "", "height": null, "height_m": null, "levels": null, "tract_id": "40031000405", "tract_name": "4.05", "tags": {"building": "yes", "source": "microsoft/BuildingFootprints"}}}, {"type": "Feature", "geometry": {"type": "Polygon", "coordinates": [[[-98.4635806, 34.6330025], [-98.4637558, 34.6330047], [-98.463757, 34.6329385], [-98.4637061, 34.6329378], [-98.4637077, 34.6328474], [-98.4635833, 34.6328459], [-98.4635806, 34.6330025]]]}, "properties": {"osm_id": 1336931904, "building": "yes", "name": "", "height": null, "height_m": null, "levels": null, "tract_id": "40031000405", "tract_name": "4.05", "tags": {"building": "yes", "source": "microsoft/BuildingFootprints"}}}, {"type": "Feature", "geometry": {"type": "Polygon", "coordinates": [[[-98.4635415, 34.6321253], [-98.4637238, 34.6321213], [-98.4637207, 34.6320233], [-98.4636467, 34.6320249], [-98.4636447, 34.6319641], [-98.4635364, 34.6319665], [-98.4635415, 34.6321253]]]}, "properties": {"osm_id": 1336931905, "building": "yes", "name": "", "height": null, "height_m": null, "levels": null, "tract_id": "40031000405", "tract_name": "4.05", "tags": {"building": "yes", "source": "microsoft/BuildingFootprints"}}}, {"type": "Feature", "geometry": {"type": "Polygon", "coordinates": [[[-98.4633935, 34.6321296], [-98.4634756, 34.63213], [-98.4634767, 34.6319809], [-98.4634096, 34.6319806], [-98.4634099, 34.6319465], [-98.4632972, 34.6319459], [-98.4632961, 34.6320948], [-98.4633937, 34.6320953], [-98.4633935, 34.6321296]]]}, "properties": {"osm_id": 1336931906, "building": "yes", "name": "", "height": null, "height_m": null, "levels": null, "tract_id": "40031000405", "tract_name": "4.05", "tags": {"building": "yes", "source": "microsoft/BuildingFootprints"}}}, {"type": "Feature", "geometry": {"type": "Polygon", "coordinates": [[[-98.4576681, 34.63593], [-98.4576709, 34.6360769], [-98.4579299, 34.6360736], [-98.4579271, 34.6359302], [-98.4577969, 34.6359319], [-98.4577969, 34.6359283], [-98.4576681, 34.63593]]]}, "properties": {"osm_id": 1336932144, "building": "yes", "name": "", "height": null, "height_m": null, "levels": null, "tract_id": "40031000405", "tract_name": "4.05", "tags": {"building": "yes", "source": "microsoft/BuildingFootprints"}}}, {"type": "Feature", "geometry": {"type": "Polygon", "coordinates": [[[-98.4575965, 34.6352631], [-98.4574169, 34.6352659], [-98.4574192, 34.6353718], [-98.4574165, 34.6353718], [-98.457419, 34.6354821], [-98.457596, 34.6354794], [-98.4575936, 34.6353713], [-98.4575989, 34.6353712], [-98.4575965, 34.6352631]]]}, "properties": {"osm_id": 1336932145, "building": "yes", "name": "", "height": null, "height_m": null, "levels": null, "tract_id": "40031000405", "tract_name": "4.05", "tags": {"building": "yes", "source": "microsoft/BuildingFootprints"}}}, {"type": "Feature", "geometry": {"type": "Polygon", "coordinates": [[[-98.4579355, 34.6352828], [-98.4576728, 34.6352791], [-98.4576697, 34.6354247], [-98.4578011, 34.6354266], [-98.4578012, 34.6354244], [-98.4579326, 34.6354262], [-98.4579355, 34.6352828]]]}, "properties": {"osm_id": 1336932146, "building": "yes", "name": "", "height": null, "height_m": null, "levels": null, "tract_id": "40031000405", "tract_name": "4.05", "tags": {"building": "yes", "source": "microsoft/BuildingFootprints"}}}, {"type": "Feature", "geometry": {"type": "Polygon", "coordinates": [[[-98.4578995, 34.6350004], [-98.4579011, 34.6352321], [-98.4580191, 34.6352316], [-98.4580175, 34.6349999], [-98.4578995, 34.6350004]]]}, "properties": {"osm_id": 1336932147, "building": "yes", "name": "", "height": null, "height_m": null, "levels": null, "tract_id": "40031000405", "tract_name": "4.05", "tags": {"building": "yes", "source": "microsoft/BuildingFootprints"}}}, {"type": "Feature", "geometry": {"type": "Polygon", "coordinates": [[[-98.4583145, 34.635001], [-98.4581976, 34.6350022], [-98.458201, 34.6352317], [-98.4583179, 34.6352305], [-98.4583145, 34.635001]]]}, "properties": {"osm_id": 1336932148, "building": "yes", "name": "", "height": null, "height_m": null, "levels": null, "tract_id": "40031000405", "tract_name": "4.05", "tags": {"building": "yes", "source": "microsoft/BuildingFootprints"}}}, {"type": "Feature", "geometry": {"type": "Polygon", "coordinates": [[[-98.4585208, 34.6348706], [-98.4585247, 34.6350162], [-98.4587162, 34.6350128], [-98.4587139, 34.6349267], [-98.4586495, 34.6349279], [-98.4586479, 34.6348683], [-98.4585208, 34.6348706]]]}, "properties": {"osm_id": 1336932149, "building": "yes", "name": "", "height": null, "height_m": null, "levels": null, "tract_id": "40031000405", "tract_name": "4.05", "tags": {"building": "yes", "source": "microsoft/BuildingFootprints"}}}, {"type": "Feature", "geometry": {"type": "Polygon", "coordinates": [[[-98.4585217, 34.6351849], [-98.4587159, 34.6351865], [-98.4587169, 34.6351071], [-98.4586406, 34.6351065], [-98.4586414, 34.6350403], [-98.4585234, 34.6350393], [-98.4585217, 34.6351849]]]}, "properties": {"osm_id": 1336932150, "building": "yes", "name": "", "height": null, "height_m": null, "levels": null, "tract_id": "40031000405", "tract_name": "4.05", "tags": {"building": "yes", "source": "microsoft/BuildingFootprints"}}}, {"type": "Feature", "geometry": {"type": "Polygon", "coordinates": [[[-98.4586997, 34.6352174], [-98.4585296, 34.6352155], [-98.4585282, 34.6353046], [-98.4585668, 34.6353051], [-98.458566, 34.6353594], [-98.4587215, 34.6353611], [-98.4587228, 34.6352825], [-98.4586986, 34.6352822], [-98.4586997, 34.6352174]]]}, "properties": {"osm_id": 1336932151, "building": "yes", "name": "", "height": null, "height_m": null, "levels": null, "tract_id": "40031000405", "tract_name": "4.05", "tags": {"building": "yes", "source": "microsoft/BuildingFootprints"}}}, {"type": "Feature", "geometry": {"type": "Polygon", "coordinates": [[[-98.4587098, 34.6354762], [-98.4586814, 34.6354766], [-98.4586798, 34.6354074], [-98.4585366, 34.6354097], [-98.4585386, 34.6354987], [-98.4585038, 34.6354993], [-98.458505, 34.6355522], [-98.4587115, 34.635549], [-98.4587098, 34.6354762]]]}, "properties": {"osm_id": 1336932152, "building": "yes", "name": "", "height": null, "height_m": null, "levels": null, "tract_id": "40031000405", "tract_name": "4.05", "tags": {"building": "yes", "source": "microsoft/BuildingFootprints"}}}, {"type": "Feature", "geometry": {"type": "Polygon", "coordinates": [[[-98.4587282, 34.6357526], [-98.4586856, 34.6355879], [-98.4585203, 34.6356169], [-98.4585367, 34.6356802], [-98.4585712, 34.6356742], [-98.4585974, 34.6357755], [-98.4587282, 34.6357526]]]}, "properties": {"osm_id": 1336932153, "building": "yes", "name": "", "height": null, "height_m": null, "levels": null, "tract_id": "40031000405", "tract_name": "4.05", "tags": {"building": "yes", "source": "microsoft/BuildingFootprints"}}}, {"type": "Feature", "geometry": {"type": "Polygon", "coordinates": [[[-98.4587643, 34.635762], [-98.4586983, 34.6358565], [-98.4588152, 34.6359118], [-98.4588002, 34.6359334], [-98.4588465, 34.6359553], [-98.4589377, 34.6358249], [-98.4588671, 34.6357915], [-98.4588571, 34.6358058], [-98.4587643, 34.635762]]]}, "properties": {"osm_id": 1336932154, "building": "yes", "name": "", "height": null, "height_m": null, "levels": null, "tract_id": "40031000405", "tract_name": "4.05", "tags": {"building": "yes", "source": "microsoft/BuildingFootprints"}}}, {"type": "Feature", "geometry": {"type": "Polygon", "coordinates": [[[-98.4591052, 34.6360055], [-98.4591336, 34.6358965], [-98.4589657, 34.635867], [-98.4589319, 34.635997], [-98.4590114, 34.636011], [-98.4590169, 34.6359899], [-98.4591052, 34.6360055]]]}, "properties": {"osm_id": 1336932155, "building": "yes", "name": "", "height": null, "height_m": null, "levels": null, "tract_id": "40031000405", "tract_name": "4.05", "tags": {"building": "yes", "source": "microsoft/BuildingFootprints"}}}, {"type": "Feature", "geometry": {"type": "Polygon", "coordinates": [[[-98.4592764, 34.6358916], [-98.4592771, 34.6359269], [-98.4591779, 34.6359282], [-98.4591797, 34.6360231], [-98.459279, 34.6360217], [-98.4592796, 34.6360548], [-98.4593654, 34.6360537], [-98.4593622, 34.6358904], [-98.4592764, 34.6358916]]]}, "properties": {"osm_id": 1336932156, "building": "yes", "name": "", "height": null, "height_m": null, "levels": null, "tract_id": "40031000405", "tract_name": "4.05", "tags": {"building": "yes", "source": "microsoft/BuildingFootprints"}}}, {"type": "Feature", "geometry": {"type": "Polygon", "coordinates": [[[-98.4593951, 34.6360156], [-98.4595774, 34.6360195], [-98.4595818, 34.6358783], [-98.4594773, 34.6358761], [-98.4594759, 34.6359202], [-98.4593982, 34.6359185], [-98.4593951, 34.6360156]]]}, "properties": {"osm_id": 1336932157, "building": "yes", "name": "", "height": null, "height_m": null, "levels": null, "tract_id": "40031000405", "tract_name": "4.05", "tags": {"building": "yes", "source": "microsoft/BuildingFootprints"}}}, {"type": "Feature", "geometry": {"type": "Polygon", "coordinates": [[[-98.4597866, 34.6360165], [-98.4597672, 34.6359688], [-98.4598214, 34.6359539], [-98.4597818, 34.6358567], [-98.4596963, 34.6358802], [-98.4597036, 34.6358981], [-98.4596299, 34.6359184], [-98.4596815, 34.6360454], [-98.4597866, 34.6360165]]]}, "properties": {"osm_id": 1336932158, "building": "yes", "name": "", "height": null, "height_m": null, "levels": null, "tract_id": "40031000405", "tract_name": "4.05", "tags": {"building": "yes", "source": "microsoft/BuildingFootprints"}}}, {"type": "Feature", "geometry": {"type": "Polygon", "coordinates": [[[-98.4600743, 34.6358711], [-98.4599462, 34.635755], [-98.4598219, 34.6358479], [-98.45995, 34.6359639], [-98.4600743, 34.6358711]]]}, "properties": {"osm_id": 1336932159, "building": "yes", "name": "", "height": null, "height_m": null, "levels": null, "tract_id": "40031000405", "tract_name": "4.05", "tags": {"building": "yes", "source": "microsoft/BuildingFootprints"}}}, {"type": "Feature", "geometry": {"type": "Polygon", "coordinates": [[[-98.4600933, 34.6356045], [-98.4600645, 34.6356686], [-98.4600149, 34.6356535], [-98.4599827, 34.6357254], [-98.4601503, 34.6357763], [-98.4601721, 34.6357277], [-98.4602169, 34.6357414], [-98.4602561, 34.635654], [-98.4600933, 34.6356045]]]}, "properties": {"osm_id": 1336932160, "building": "yes", "name": "", "height": null, "height_m": null, "levels": null, "tract_id": "40031000405", "tract_name": "4.05", "tags": {"building": "yes", "source": "microsoft/BuildingFootprints"}}}, {"type": "Feature", "geometry": {"type": "Polygon", "coordinates": [[[-98.4601451, 34.6354075], [-98.4601432, 34.6354913], [-98.4601003, 34.6354907], [-98.4600989, 34.6355568], [-98.4602651, 34.6355593], [-98.4602684, 34.6354093], [-98.4601451, 34.6354075]]]}, "properties": {"osm_id": 1336932161, "building": "yes", "name": "", "height": null, "height_m": null, "levels": null, "tract_id": "40031000405", "tract_name": "4.05", "tags": {"building": "yes", "source": "microsoft/BuildingFootprints"}}}, {"type": "Feature", "geometry": {"type": "Polygon", "coordinates": [[[-98.4602429, 34.6352111], [-98.4601046, 34.635213], [-98.4601061, 34.6352889], [-98.4600433, 34.6352897], [-98.4600447, 34.6353595], [-98.4602458, 34.6353568], [-98.4602429, 34.6352111]]]}, "properties": {"osm_id": 1336932162, "building": "yes", "name": "", "height": null, "height_m": null, "levels": null, "tract_id": "40031000405", "tract_name": "4.05", "tags": {"building": "yes", "source": "microsoft/BuildingFootprints"}}}, {"type": "Feature", "geometry": {"type": "Polygon", "coordinates": [[[-98.4601737, 34.6349842], [-98.4602944, 34.6349851], [-98.4602951, 34.6349211], [-98.4602506, 34.6349207], [-98.4602513, 34.6348537], [-98.4600464, 34.6348522], [-98.4600446, 34.6350164], [-98.4601734, 34.6350173], [-98.4601737, 34.6349842]]]}, "properties": {"osm_id": 1336932163, "building": "yes", "name": "", "height": null, "height_m": null, "levels": null, "tract_id": "40031000405", "tract_name": "4.05", "tags": {"building": "yes", "source": "microsoft/BuildingFootprints"}}}, {"type": "Feature", "geometry": {"type": "Polygon", "coordinates": [[[-98.4607154, 34.6350185], [-98.4607144, 34.6348875], [-98.4605523, 34.6348883], [-98.4605522, 34.6348685], [-98.4604701, 34.6348689], [-98.4604714, 34.6350198], [-98.4607154, 34.6350185]]]}, "properties": {"osm_id": 1336932164, "building": "yes", "name": "", "height": null, "height_m": null, "levels": null, "tract_id": "40031000405", "tract_name": "4.05", "tags": {"building": "yes", "source": "microsoft/BuildingFootprints"}}}, {"type": "Feature", "geometry": {"type": "Polygon", "coordinates": [[[-98.4605307, 34.6352309], [-98.4605262, 34.6353786], [-98.4607005, 34.6353822], [-98.4607049, 34.6352344], [-98.4605307, 34.6352309]]]}, "properties": {"osm_id": 1336932165, "building": "yes", "name": "", "height": null, "height_m": null, "levels": null, "tract_id": "40031000405", "tract_name": "4.05", "tags": {"building": "yes", "source": "microsoft/BuildingFootprints"}}}, {"type": "Feature", "geometry": {"type": "Polygon", "coordinates": [[[-98.4607071, 34.6355689], [-98.4607089, 34.6355014], [-98.4606579, 34.6355005], [-98.4606601, 34.6354145], [-98.4605449, 34.6354125], [-98.4605409, 34.635566], [-98.4607071, 34.6355689]]]}, "properties": {"osm_id": 1336932166, "building": "yes", "name": "", "height": null, "height_m": null, "levels": null, "tract_id": "40031000405", "tract_name": "4.05", "tags": {"building": "yes", "source": "microsoft/BuildingFootprints"}}}, {"type": "Feature", "geometry": {"type": "Polygon", "coordinates": [[[-98.4606703, 34.6355979], [-98.4605496, 34.6355965], [-98.4605468, 34.635762], [-98.4607092, 34.6357639], [-98.4607104, 34.6356955], [-98.4606686, 34.635695], [-98.4606703, 34.6355979]]]}, "properties": {"osm_id": 1336932167, "building": "yes", "name": "", "height": null, "height_m": null, "levels": null, "tract_id": "40031000405", "tract_name": "4.05", "tags": {"building": "yes", "source": "microsoft/BuildingFootprints"}}}, {"type": "Feature", "geometry": {"type": "Polygon", "coordinates": [[[-98.460524, 34.6357904], [-98.4605233, 34.6358817], [-98.4604926, 34.6358816], [-98.4604921, 34.6359456], [-98.4607121, 34.6359467], [-98.4607126, 34.6358774], [-98.460636, 34.635877], [-98.4606366, 34.635791], [-98.460524, 34.6357904]]]}, "properties": {"osm_id": 1336932168, "building": "yes", "name": "", "height": null, "height_m": null, "levels": null, "tract_id": "40031000405", "tract_name": "4.05", "tags": {"building": "yes", "source": "microsoft/BuildingFootprints"}}}, {"type": "Feature", "geometry": {"type": "Polygon", "coordinates": [[[-98.4607113, 34.6361179], [-98.4607118, 34.636053], [-98.4606528, 34.6360527], [-98.4606534, 34.6359732], [-98.4605381, 34.6359726], [-98.4605374, 34.6360639], [-98.4605025, 34.6360638], [-98.4605021, 34.6361167], [-98.4607113, 34.6361179]]]}, "properties": {"osm_id": 1336932169, "building": "yes", "name": "", "height": null, "height_m": null, "levels": null, "tract_id": "40031000405", "tract_name": "4.05", "tags": {"building": "yes", "source": "microsoft/BuildingFootprints"}}}, {"type": "Feature", "geometry": {"type": "Polygon", "coordinates": [[[-98.4597152, 34.6349271], [-98.4596337, 34.6349263], [-98.4596345, 34.6348623], [-98.4595219, 34.6348613], [-98.4595201, 34.6349981], [-98.4597143, 34.6349999], [-98.4597152, 34.6349271]]]}, "properties": {"osm_id": 1336932170, "building": "yes", "name": "", "height": null, "height_m": null, "levels": null, "tract_id": "40031000405", "tract_name": "4.05", "tags": {"building": "yes", "source": "microsoft/BuildingFootprints"}}}, {"type": "Feature", "geometry": {"type": "Polygon", "coordinates": [[[-98.4595242, 34.6352158], [-98.4595205, 34.6353592], [-98.4597135, 34.6353626], [-98.4597154, 34.6352906], [-98.4596564, 34.6352896], [-98.4596582, 34.6352182], [-98.4595242, 34.6352158]]]}, "properties": {"osm_id": 1336932171, "building": "yes", "name": "", "height": null, "height_m": null, "levels": null, "tract_id": "40031000405", "tract_name": "4.05", "tags": {"building": "yes", "source": "microsoft/BuildingFootprints"}}}, {"type": "Feature", "geometry": {"type": "Polygon", "coordinates": [[[-98.4596914, 34.6354287], [-98.4595225, 34.6354268], [-98.4595199, 34.6355879], [-98.4596271, 34.6355891], [-98.4596281, 34.6355317], [-98.4596897, 34.6355324], [-98.4596914, 34.6354287]]]}, "properties": {"osm_id": 1336932172, "building": "yes", "name": "", "height": null, "height_m": null, "levels": null, "tract_id": "40031000405", "tract_name": "4.05", "tags": {"building": "yes", "source": "microsoft/BuildingFootprints"}}}, {"type": "Feature", "geometry": {"type": "Polygon", "coordinates": [[[-98.4591475, 34.6355926], [-98.4592348, 34.6355935], [-98.4592372, 34.6354376], [-98.4590602, 34.6354358], [-98.4590587, 34.6355343], [-98.4591483, 34.6355352], [-98.4591475, 34.6355926]]]}, "properties": {"osm_id": 1336932173, "building": "yes", "name": "", "height": null, "height_m": null, "levels": null, "tract_id": "40031000405", "tract_name": "4.05", "tags": {"building": "yes", "source": "microsoft/BuildingFootprints"}}}, {"type": "Feature", "geometry": {"type": "Polygon", "coordinates": [[[-98.459461, 34.6356032], [-98.4594657, 34.6354532], [-98.4592941, 34.6354496], [-98.4592907, 34.6355599], [-98.4593818, 34.6355618], [-98.4593806, 34.6356015], [-98.459461, 34.6356032]]]}, "properties": {"osm_id": 1336932174, "building": "yes", "name": "", "height": null, "height_m": null, "levels": null, "tract_id": "40031000405", "tract_name": "4.05", "tags": {"building": "yes", "source": "microsoft/BuildingFootprints"}}}, {"type": "Feature", "geometry": {"type": "Polygon", "coordinates": [[[-98.4592183, 34.6353549], [-98.4592157, 34.6352159], [-98.4590924, 34.6352174], [-98.4590937, 34.6352902], [-98.4590428, 34.6352909], [-98.459044, 34.6353571], [-98.4592183, 34.6353549]]]}, "properties": {"osm_id": 1336932175, "building": "yes", "name": "", "height": null, "height_m": null, "levels": null, "tract_id": "40031000405", "tract_name": "4.05", "tags": {"building": "yes", "source": "microsoft/BuildingFootprints"}}}, {"type": "Feature", "geometry": {"type": "Polygon", "coordinates": [[[-98.4592379, 34.6350421], [-98.4591211, 34.6350406], [-98.4591197, 34.6351156], [-98.4590419, 34.6351146], [-98.4590405, 34.6351874], [-98.4592684, 34.6351903], [-98.4592694, 34.6351396], [-98.4592361, 34.6351392], [-98.4592379, 34.6350421]]]}, "properties": {"osm_id": 1336932176, "building": "yes", "name": "", "height": null, "height_m": null, "levels": null, "tract_id": "40031000405", "tract_name": "4.05", "tags": {"building": "yes", "source": "microsoft/BuildingFootprints"}}}, {"type": "Feature", "geometry": {"type": "Polygon", "coordinates": [[[-98.4592056, 34.6348579], [-98.4590824, 34.6348622], [-98.4590863, 34.6349379], [-98.4590424, 34.6349394], [-98.459046, 34.6350091], [-98.4592441, 34.6350022], [-98.4592413, 34.6349471], [-98.4592103, 34.6349482], [-98.4592056, 34.6348579]]]}, "properties": {"osm_id": 1336932177, "building": "yes", "name": "", "height": null, "height_m": null, "levels": null, "tract_id": "40031000405", "tract_name": "4.05", "tags": {"building": "yes", "source": "microsoft/BuildingFootprints"}}}, {"type": "Feature", "geometry": {"type": "Polygon", "coordinates": [[[-98.4595468, 34.6350343], [-98.4595427, 34.6351931], [-98.4597132, 34.6351961], [-98.4597149, 34.6351263], [-98.4596667, 34.6351255], [-98.459669, 34.6350364], [-98.4595468, 34.6350343]]]}, "properties": {"osm_id": 1336932178, "building": "yes", "name": "", "height": null, "height_m": null, "levels": null, "tract_id": "40031000405", "tract_name": "4.05", "tags": {"building": "yes", "source": "microsoft/BuildingFootprints"}}}, {"type": "Feature", "geometry": {"type": "Polygon", "coordinates": [[[-98.4583879, 34.6363945], [-98.4585166, 34.6363925], [-98.4585167, 34.6363947], [-98.4586481, 34.6363927], [-98.4586448, 34.6362485], [-98.4585148, 34.6362505], [-98.4585148, 34.6362483], [-98.4583846, 34.6362503], [-98.4583879, 34.6363945]]]}, "properties": {"osm_id": 1336932179, "building": "yes", "name": "", "height": null, "height_m": null, "levels": null, "tract_id": "40031000405", "tract_name": "4.05", "tags": {"building": "yes", "source": "microsoft/BuildingFootprints"}}}, {"type": "Feature", "geometry": {"type": "Polygon", "coordinates": [[[-98.4587006, 34.6362479], [-98.4586971, 34.6363943], [-98.4588284, 34.6363964], [-98.4588285, 34.6363934], [-98.4589584, 34.6363955], [-98.4589619, 34.6362499], [-98.4588293, 34.6362478], [-98.4588293, 34.63625], [-98.4587006, 34.6362479]]]}, "properties": {"osm_id": 1336932180, "building": "yes", "name": "", "height": null, "height_m": null, "levels": null, "tract_id": "40031000405", "tract_name": "4.05", "tags": {"building": "yes", "source": "microsoft/BuildingFootprints"}}}, {"type": "Feature", "geometry": {"type": "Polygon", "coordinates": [[[-98.4592966, 34.6362462], [-98.4591223, 34.6362493], [-98.459125, 34.6363551], [-98.4591224, 34.6363552], [-98.4591251, 34.6364633], [-98.4593021, 34.6364602], [-98.4592966, 34.6362462]]]}, "properties": {"osm_id": 1336932181, "building": "yes", "name": "", "height": null, "height_m": null, "levels": null, "tract_id": "40031000405", "tract_name": "4.05", "tags": {"building": "yes", "source": "microsoft/BuildingFootprints"}}}, {"type": "Feature", "geometry": {"type": "Polygon", "coordinates": [[[-98.4591243, 34.6365233], [-98.459121, 34.6366292], [-98.4591237, 34.6366293], [-98.4591203, 34.6367359], [-98.4592945, 34.6367396], [-98.459298, 34.6366308], [-98.4592967, 34.6366308], [-98.4593, 34.6365271], [-98.4591243, 34.6365233]]]}, "properties": {"osm_id": 1336932182, "building": "yes", "name": "", "height": null, "height_m": null, "levels": null, "tract_id": "40031000405", "tract_name": "4.05", "tags": {"building": "yes", "source": "microsoft/BuildingFootprints"}}}, {"type": "Feature", "geometry": {"type": "Polygon", "coordinates": [[[-98.4591629, 34.6370599], [-98.4591629, 34.6370585], [-98.459022, 34.6370596], [-98.4590241, 34.6372331], [-98.4593071, 34.6372308], [-98.459305, 34.6370587], [-98.4591629, 34.6370599]]]}, "properties": {"osm_id": 1336932183, "building": "yes", "name": "", "height": null, "height_m": null, "levels": null, "tract_id": "40031000405", "tract_name": "4.05", "tags": {"building": "yes", "source": "microsoft/BuildingFootprints"}}}, {"type": "Feature", "geometry": {"type": "Polygon", "coordinates": [[[-98.4591633, 34.6375756], [-98.4590239, 34.6375769], [-98.4590264, 34.6377499], [-98.459308, 34.637747], [-98.4593054, 34.6375741], [-98.4591633, 34.6375756]]]}, "properties": {"osm_id": 1336932184, "building": "yes", "name": "", "height": null, "height_m": null, "levels": null, "tract_id": "40031000405", "tract_name": "4.05", "tags": {"building": "yes", "source": "microsoft/BuildingFootprints"}}}, {"type": "Feature", "geometry": {"type": "Polygon", "coordinates": [[[-98.4587032, 34.6368674], [-98.4587056, 34.6370086], [-98.4588343, 34.6370072], [-98.4588343, 34.6370094], [-98.4589657, 34.6370079], [-98.4589634, 34.6368667], [-98.4588346, 34.6368681], [-98.4588346, 34.6368659], [-98.4587032, 34.6368674]]]}, "properties": {"osm_id": 1336932185, "building": "yes", "name": "", "height": null, "height_m": null, "levels": null, "tract_id": "40031000405", "tract_name": "4.05", "tags": {"building": "yes", "source": "microsoft/BuildingFootprints"}}}, {"type": "Feature", "geometry": {"type": "Polygon", "coordinates": [[[-98.4586565, 34.6370075], [-98.4586536, 34.6368641], [-98.4585222, 34.6368658], [-98.4585222, 34.6368636], [-98.4583921, 34.6368654], [-98.4583949, 34.6370066], [-98.4585223, 34.6370049], [-98.4585224, 34.6370093], [-98.4586565, 34.6370075]]]}, "properties": {"osm_id": 1336932186, "building": "yes", "name": "", "height": null, "height_m": null, "levels": null, "tract_id": "40031000405", "tract_name": "4.05", "tags": {"building": "yes", "source": "microsoft/BuildingFootprints"}}}, {"type": "Feature", "geometry": {"type": "Polygon", "coordinates": [[[-98.4589665, 34.6365586], [-98.4587063, 34.6365574], [-98.4587054, 34.6367039], [-98.4588354, 34.6367045], [-98.4588354, 34.6367036], [-98.4589655, 34.6367042], [-98.4589665, 34.6365586]]]}, "properties": {"osm_id": 1336932187, "building": "yes", "name": "", "height": null, "height_m": null, "levels": null, "tract_id": "40031000405", "tract_name": "4.05", "tags": {"building": "yes", "source": "microsoft/BuildingFootprints"}}}, {"type": "Feature", "geometry": {"type": "Polygon", "coordinates": [[[-98.4586559, 34.6365565], [-98.4585218, 34.6365544], [-98.4585218, 34.6365566], [-98.4583958, 34.6365547], [-98.4583924, 34.6367003], [-98.4585211, 34.6367023], [-98.4585212, 34.6367001], [-98.4586526, 34.6367021], [-98.4586559, 34.6365565]]]}, "properties": {"osm_id": 1336932188, "building": "yes", "name": "", "height": null, "height_m": null, "levels": null, "tract_id": "40031000405", "tract_name": "4.05", "tags": {"building": "yes", "source": "microsoft/BuildingFootprints"}}}, {"type": "Feature", "geometry": {"type": "Polygon", "coordinates": [[[-98.4582732, 34.636557], [-98.4580104, 34.6365531], [-98.4580071, 34.6366987], [-98.4581385, 34.6367007], [-98.4581386, 34.6366993], [-98.4582699, 34.6367013], [-98.4582732, 34.636557]]]}, "properties": {"osm_id": 1336932189, "building": "yes", "name": "", "height": null, "height_m": null, "levels": null, "tract_id": "40031000405", "tract_name": "4.05", "tags": {"building": "yes", "source": "microsoft/BuildingFootprints"}}}, {"type": "Feature", "geometry": {"type": "Polygon", "coordinates": [[[-98.4579594, 34.6366998], [-98.4579622, 34.6365542], [-98.457698, 34.6365508], [-98.4576952, 34.6366986], [-98.4578253, 34.6367003], [-98.4578254, 34.6366981], [-98.4579594, 34.6366998]]]}, "properties": {"osm_id": 1336932190, "building": "yes", "name": "", "height": null, "height_m": null, "levels": null, "tract_id": "40031000405", "tract_name": "4.05", "tags": {"building": "yes", "source": "microsoft/BuildingFootprints"}}}, {"type": "Feature", "geometry": {"type": "Polygon", "coordinates": [[[-98.4577256, 34.6362448], [-98.4577227, 34.6363895], [-98.4578541, 34.6363913], [-98.4578541, 34.63639], [-98.457984, 34.6363917], [-98.4579869, 34.6362483], [-98.4577256, 34.6362448]]]}, "properties": {"osm_id": 1336932191, "building": "yes", "name": "", "height": null, "height_m": null, "levels": null, "tract_id": "40031000405", "tract_name": "4.05", "tags": {"building": "yes", "source": "microsoft/BuildingFootprints"}}}, {"type": "Feature", "geometry": {"type": "Polygon", "coordinates": [[[-98.4577203, 34.6370035], [-98.457849, 34.6370051], [-98.457849, 34.6370029], [-98.4579831, 34.6370046], [-98.4579858, 34.6368634], [-98.4578503, 34.6368617], [-98.4578503, 34.636863], [-98.457723, 34.6368614], [-98.4577203, 34.6370035]]]}, "properties": {"osm_id": 1336932192, "building": "yes", "name": "", "height": null, "height_m": null, "levels": null, "tract_id": "40031000405", "tract_name": "4.05", "tags": {"building": "yes", "source": "microsoft/BuildingFootprints"}}}, {"type": "Feature", "geometry": {"type": "Polygon", "coordinates": [[[-98.4574667, 34.6374057], [-98.4574671, 34.6375381], [-98.4575637, 34.6375379], [-98.4575641, 34.6376725], [-98.4574139, 34.6376728], [-98.4574142, 34.6377567], [-98.4577695, 34.6377559], [-98.4577693, 34.6376721], [-98.4576258, 34.6376724], [-98.4576254, 34.6375378], [-98.457734, 34.6375375], [-98.4577341, 34.6375751], [-98.4577985, 34.6375749], [-98.4577983, 34.6375374], [-98.4578346, 34.6375373], [-98.4578344, 34.6374799], [-98.4577512, 34.6374801], [-98.457751, 34.6374051], [-98.4574667, 34.6374057]]]}, "properties": {"osm_id": 1336932193, "building": "yes", "name": "", "height": null, "height_m": null, "levels": null, "tract_id": "40031000405", "tract_name": "4.05", "tags": {"building": "yes", "layer": "1", "source": "microsoft/BuildingFootprints"}}}, {"type": "Feature", "geometry": {"type": "Polygon", "coordinates": [[[-98.4579817, 34.6372287], [-98.4582687, 34.6372315], [-98.4582711, 34.6370616], [-98.4581236, 34.6370602], [-98.4581236, 34.6370624], [-98.4579841, 34.637061], [-98.4579817, 34.6372287]]]}, "properties": {"osm_id": 1336932314, "building": "yes", "name": "", "height": null, "height_m": null, "levels": null, "tract_id": "40031000405", "tract_name": "4.05", "tags": {"building": "yes", "source": "microsoft/BuildingFootprints"}}}, {"type": "Feature", "geometry": {"type": "Polygon", "coordinates": [[[-98.4588099, 34.6370643], [-98.4585337, 34.6370614], [-98.458531, 34.6372291], [-98.4588073, 34.637232], [-98.4588099, 34.6370643]]]}, "properties": {"osm_id": 1336932315, "building": "yes", "name": "", "height": null, "height_m": null, "levels": null, "tract_id": "40031000405", "tract_name": "4.05", "tags": {"building": "yes", "source": "microsoft/BuildingFootprints"}}}, {"type": "Feature", "geometry": {"type": "Polygon", "coordinates": [[[-98.4583228, 34.6372649], [-98.4584609, 34.6372672], [-98.4584662, 34.637059], [-98.458328, 34.6370567], [-98.4583228, 34.6372649]]]}, "properties": {"osm_id": 1336932316, "building": "yes", "name": "", "height": null, "height_m": null, "levels": null, "tract_id": "40031000405", "tract_name": "4.05", "tags": {"building": "yes", "source": "microsoft/BuildingFootprints"}}}, {"type": "Feature", "geometry": {"type": "Polygon", "coordinates": [[[-98.4585575, 34.6374039], [-98.4588096, 34.6374001], [-98.4588071, 34.6372898], [-98.4585551, 34.6372936], [-98.4585575, 34.6374039]]]}, "properties": {"osm_id": 1336932317, "building": "yes", "name": "", "height": null, "height_m": null, "levels": null, "tract_id": "40031000405", "tract_name": "4.05", "tags": {"building": "yes", "source": "microsoft/BuildingFootprints"}}}, {"type": "Feature", "geometry": {"type": "Polygon", "coordinates": [[[-98.4588132, 34.6374648], [-98.4586684, 34.6374627], [-98.4586684, 34.6374635], [-98.4585316, 34.6374615], [-98.4585279, 34.6376349], [-98.4588094, 34.6376391], [-98.4588132, 34.6374648]]]}, "properties": {"osm_id": 1336932318, "building": "yes", "name": "", "height": null, "height_m": null, "levels": null, "tract_id": "40031000405", "tract_name": "4.05", "tags": {"building": "yes", "source": "microsoft/BuildingFootprints"}}}, {"type": "Feature", "geometry": {"type": "Polygon", "coordinates": [[[-98.4579842, 34.6376391], [-98.4582683, 34.6376336], [-98.4582634, 34.6374615], [-98.4581213, 34.6374643], [-98.4581213, 34.637463], [-98.4579792, 34.6374657], [-98.4579842, 34.6376391]]]}, "properties": {"osm_id": 1336932319, "building": "yes", "name": "", "height": null, "height_m": null, "levels": null, "tract_id": "40031000405", "tract_name": "4.05", "tags": {"building": "yes", "source": "microsoft/BuildingFootprints"}}}, {"type": "Feature", "geometry": {"type": "Polygon", "coordinates": [[[-98.4583236, 34.6374302], [-98.4583244, 34.6376399], [-98.4584585, 34.6376395], [-98.4584577, 34.6374299], [-98.4583236, 34.6374302]]]}, "properties": {"osm_id": 1336932320, "building": "yes", "name": "", "height": null, "height_m": null, "levels": null, "tract_id": "40031000405", "tract_name": "4.05", "tags": {"building": "yes", "source": "microsoft/BuildingFootprints"}}}, {"type": "Feature", "geometry": {"type": "Polygon", "coordinates": [[[-98.4579843, 34.6372884], [-98.4579819, 34.6374], [-98.4582419, 34.6374039], [-98.4582444, 34.6372922], [-98.4579843, 34.6372884]]]}, "properties": {"osm_id": 1336932321, "building": "yes", "name": "", "height": null, "height_m": null, "levels": null, "tract_id": "40031000405", "tract_name": "4.05", "tags": {"building": "yes", "source": "microsoft/BuildingFootprints"}}}, {"type": "Feature", "geometry": {"type": "Polygon", "coordinates": [[[-98.4596497, 34.6367912], [-98.4596477, 34.6366477], [-98.4594748, 34.6366494], [-98.4594768, 34.6367928], [-98.4596497, 34.6367912]]]}, "properties": {"osm_id": 1336932322, "building": "yes", "name": "", "height": null, "height_m": null, "levels": null, "tract_id": "40031000405", "tract_name": "4.05", "tags": {"building": "yes", "source": "microsoft/BuildingFootprints"}}}, {"type": "Feature", "geometry": {"type": "Polygon", "coordinates": [[[-98.4595333, 34.6368278], [-98.4595323, 34.6368631], [-98.459476, 34.6368621], [-98.4594738, 34.6369459], [-98.4595461, 34.6369472], [-98.4595455, 34.6369715], [-98.4596822, 34.636974], [-98.4596861, 34.6368306], [-98.4595333, 34.6368278]]]}, "properties": {"osm_id": 1336932323, "building": "yes", "name": "", "height": null, "height_m": null, "levels": null, "tract_id": "40031000405", "tract_name": "4.05", "tags": {"building": "yes", "source": "microsoft/BuildingFootprints"}}}, {"type": "Feature", "geometry": {"type": "Polygon", "coordinates": [[[-98.45969, 34.6370452], [-98.4595093, 34.6370399], [-98.4595036, 34.63717], [-98.4596844, 34.6371753], [-98.45969, 34.6370452]]]}, "properties": {"osm_id": 1336932324, "building": "yes", "name": "", "height": null, "height_m": null, "levels": null, "tract_id": "40031000405", "tract_name": "4.05", "tags": {"building": "yes", "source": "microsoft/BuildingFootprints"}}}, {"type": "Feature", "geometry": {"type": "Polygon", "coordinates": [[[-98.4594789, 34.637248], [-98.4594761, 34.637334], [-98.4595351, 34.6373353], [-98.4595339, 34.6373706], [-98.459625, 34.6373726], [-98.4596257, 34.6373527], [-98.4596847, 34.637354], [-98.4596888, 34.6372261], [-98.4595334, 34.6372227], [-98.4595325, 34.6372492], [-98.4594789, 34.637248]]]}, "properties": {"osm_id": 1336932325, "building": "yes", "name": "", "height": null, "height_m": null, "levels": null, "tract_id": "40031000405", "tract_name": "4.05", "tags": {"building": "yes", "source": "microsoft/BuildingFootprints"}}}, {"type": "Feature", "geometry": {"type": "Polygon", "coordinates": [[[-98.4594766, 34.6375625], [-98.4596321, 34.637565], [-98.4596325, 34.6375459], [-98.4596861, 34.6375468], [-98.459688, 34.6374688], [-98.4596639, 34.6374684], [-98.4596651, 34.637414], [-98.4594801, 34.6374111], [-98.4594766, 34.6375625]]]}, "properties": {"osm_id": 1336932326, "building": "yes", "name": "", "height": null, "height_m": null, "levels": null, "tract_id": "40031000405", "tract_name": "4.05", "tags": {"building": "yes", "source": "microsoft/BuildingFootprints"}}}, {"type": "Feature", "geometry": {"type": "Polygon", "coordinates": [[[-98.4596867, 34.6376036], [-98.4594426, 34.6376008], [-98.4594402, 34.637742], [-98.4596843, 34.6377448], [-98.4596867, 34.6376036]]]}, "properties": {"osm_id": 1336932327, "building": "yes", "name": "", "height": null, "height_m": null, "levels": null, "tract_id": "40031000405", "tract_name": "4.05", "tags": {"building": "yes", "source": "microsoft/BuildingFootprints"}}}, {"type": "Feature", "geometry": {"type": "Polygon", "coordinates": [[[-98.4601814, 34.637543], [-98.4600044, 34.6375452], [-98.460008, 34.6377415], [-98.460185, 34.6377393], [-98.4601814, 34.637543]]]}, "properties": {"osm_id": 1336932328, "building": "yes", "name": "", "height": null, "height_m": null, "levels": null, "tract_id": "40031000405", "tract_name": "4.05", "tags": {"building": "yes", "source": "microsoft/BuildingFootprints"}}}, {"type": "Feature", "geometry": {"type": "Polygon", "coordinates": [[[-98.4602963, 34.6375575], [-98.4602969, 34.637584], [-98.4602607, 34.6375845], [-98.4602644, 34.63775], [-98.4603717, 34.6377484], [-98.4603674, 34.6375564], [-98.4602963, 34.6375575]]]}, "properties": {"osm_id": 1336932329, "building": "yes", "name": "", "height": null, "height_m": null, "levels": null, "tract_id": "40031000405", "tract_name": "4.05", "tags": {"building": "yes", "source": "microsoft/BuildingFootprints"}}}, {"type": "Feature", "geometry": {"type": "Polygon", "coordinates": [[[-98.4594866, 34.636384], [-98.4594571, 34.6364476], [-98.4594946, 34.6364593], [-98.4594625, 34.6365287], [-98.4594883, 34.6365368], [-98.4594678, 34.6365811], [-98.4595568, 34.636609], [-98.4596389, 34.6364316], [-98.4594866, 34.636384]]]}, "properties": {"osm_id": 1336932330, "building": "yes", "name": "", "height": null, "height_m": null, "levels": null, "tract_id": "40031000405", "tract_name": "4.05", "tags": {"building": "yes", "source": "microsoft/BuildingFootprints"}}}, {"type": "Feature", "geometry": {"type": "Polygon", "coordinates": [[[-98.4598303, 34.636342], [-98.4597931, 34.6361861], [-98.4596083, 34.6362159], [-98.4596338, 34.6363229], [-98.4596714, 34.6363169], [-98.459683, 34.6363657], [-98.4598303, 34.636342]]]}, "properties": {"osm_id": 1336932331, "building": "yes", "name": "", "height": null, "height_m": null, "levels": null, "tract_id": "40031000405", "tract_name": "4.05", "tags": {"building": "yes", "source": "microsoft/BuildingFootprints"}}}, {"type": "Feature", "geometry": {"type": "Polygon", "coordinates": [[[-98.4598843, 34.6361986], [-98.4598805, 34.6363442], [-98.460044, 34.6363471], [-98.4600479, 34.6362015], [-98.4598843, 34.6361986]]]}, "properties": {"osm_id": 1336932332, "building": "yes", "name": "", "height": null, "height_m": null, "levels": null, "tract_id": "40031000405", "tract_name": "4.05", "tags": {"building": "yes", "source": "microsoft/BuildingFootprints"}}}, {"type": "Feature", "geometry": {"type": "Polygon", "coordinates": [[[-98.460263, 34.6362663], [-98.4600994, 34.636267], [-98.4601003, 34.6364113], [-98.4602639, 34.6364106], [-98.460263, 34.6362663]]]}, "properties": {"osm_id": 1336932333, "building": "yes", "name": "", "height": null, "height_m": null, "levels": null, "tract_id": "40031000405", "tract_name": "4.05", "tags": {"building": "yes", "source": "microsoft/BuildingFootprints"}}}, {"type": "Feature", "geometry": {"type": "Polygon", "coordinates": [[[-98.4604073, 34.6364085], [-98.4604958, 34.6364075], [-98.4604927, 34.6362287], [-98.4604364, 34.6362294], [-98.4604369, 34.6362581], [-98.4603269, 34.6362594], [-98.4603284, 34.6363432], [-98.4604062, 34.6363423], [-98.4604073, 34.6364085]]]}, "properties": {"osm_id": 1336932334, "building": "yes", "name": "", "height": null, "height_m": null, "levels": null, "tract_id": "40031000405", "tract_name": "4.05", "tags": {"building": "yes", "source": "microsoft/BuildingFootprints"}}}, {"type": "Feature", "geometry": {"type": "Polygon", "coordinates": [[[-98.4605537, 34.6362775], [-98.4605506, 34.6364099], [-98.4607275, 34.6364128], [-98.4607308, 34.6362782], [-98.4606569, 34.636277], [-98.4606569, 34.6362792], [-98.4605537, 34.6362775]]]}, "properties": {"osm_id": 1336932335, "building": "yes", "name": "", "height": null, "height_m": null, "levels": null, "tract_id": "40031000405", "tract_name": "4.05", "tags": {"building": "yes", "source": "microsoft/BuildingFootprints"}}}, {"type": "Feature", "geometry": {"type": "Polygon", "coordinates": [[[-98.457678, 34.6330689], [-98.4574993, 34.6330706], [-98.4575008, 34.6331788], [-98.4574982, 34.6331788], [-98.4574997, 34.6332878], [-98.4576812, 34.633286], [-98.457678, 34.6330689]]]}, "properties": {"osm_id": 1336932336, "building": "yes", "name": "", "height": null, "height_m": null, "levels": null, "tract_id": "40031000405", "tract_name": "4.05", "tags": {"building": "yes", "source": "microsoft/BuildingFootprints"}}}, {"type": "Feature", "geometry": {"type": "Polygon", "coordinates": [[[-98.4577127, 34.6332248], [-98.4579969, 34.6332219], [-98.4579954, 34.6331226], [-98.4577111, 34.6331256], [-98.4577127, 34.6332248]]]}, "properties": {"osm_id": 1336932337, "building": "yes", "name": "", "height": null, "height_m": null, "levels": null, "tract_id": "40031000405", "tract_name": "4.05", "tags": {"building": "yes", "source": "microsoft/BuildingFootprints"}}}, {"type": "Feature", "geometry": {"type": "Polygon", "coordinates": [[[-98.4580411, 34.633069], [-98.4580391, 34.6331794], [-98.4580417, 34.6331794], [-98.4580398, 34.6332844], [-98.4582212, 34.6332867], [-98.4582251, 34.6330713], [-98.4580411, 34.633069]]]}, "properties": {"osm_id": 1336932338, "building": "yes", "name": "", "height": null, "height_m": null, "levels": null, "tract_id": "40031000405", "tract_name": "4.05", "tags": {"building": "yes", "source": "microsoft/BuildingFootprints"}}}, {"type": "Feature", "geometry": {"type": "Polygon", "coordinates": [[[-98.4582907, 34.6334781], [-98.4582895, 34.6333302], [-98.4581608, 34.6333309], [-98.4581608, 34.6333318], [-98.4580294, 34.6333325], [-98.4580305, 34.6334795], [-98.4582907, 34.6334781]]]}, "properties": {"osm_id": 1336932339, "building": "yes", "name": "", "height": null, "height_m": null, "levels": null, "tract_id": "40031000405", "tract_name": "4.05", "tags": {"building": "yes", "source": "microsoft/BuildingFootprints"}}}, {"type": "Feature", "geometry": {"type": "Polygon", "coordinates": [[[-98.45785, 34.6332869], [-98.4577293, 34.6332884], [-98.4577337, 34.6335223], [-98.4578543, 34.6335208], [-98.45785, 34.6332869]]]}, "properties": {"osm_id": 1336932340, "building": "yes", "name": "", "height": null, "height_m": null, "levels": null, "tract_id": "40031000405", "tract_name": "4.05", "tags": {"building": "yes", "source": "microsoft/BuildingFootprints"}}}, {"type": "Feature", "geometry": {"type": "Polygon", "coordinates": [[[-98.4574388, 34.633479], [-98.4575702, 34.6334782], [-98.4575702, 34.6334795], [-98.4576999, 34.6334787], [-98.4576986, 34.6333331], [-98.4575662, 34.6333339], [-98.4575662, 34.6333317], [-98.4574375, 34.6333325], [-98.4574388, 34.633479]]]}, "properties": {"osm_id": 1336932341, "building": "yes", "name": "", "height": null, "height_m": null, "levels": null, "tract_id": "40031000405", "tract_name": "4.05", "tags": {"building": "yes", "source": "microsoft/BuildingFootprints"}}}, {"type": "Feature", "geometry": {"type": "Polygon", "coordinates": [[[-98.4577113, 34.6335881], [-98.4577095, 34.6336851], [-98.4579938, 34.6336886], [-98.4579955, 34.6335915], [-98.4577113, 34.6335881]]]}, "properties": {"osm_id": 1336932342, "building": "yes", "name": "", "height": null, "height_m": null, "levels": null, "tract_id": "40031000405", "tract_name": "4.05", "tags": {"building": "yes", "source": "microsoft/BuildingFootprints"}}}, {"type": "Feature", "geometry": {"type": "Polygon", "coordinates": [[[-98.4580394, 34.6335231], [-98.4580369, 34.6336312], [-98.4580396, 34.6336312], [-98.4580371, 34.633738], [-98.4582211, 34.6337409], [-98.4582261, 34.633526], [-98.4580394, 34.6335231]]]}, "properties": {"osm_id": 1336932343, "building": "yes", "name": "", "height": null, "height_m": null, "levels": null, "tract_id": "40031000405", "tract_name": "4.05", "tags": {"building": "yes", "source": "microsoft/BuildingFootprints"}}}, {"type": "Feature", "geometry": {"type": "Polygon", "coordinates": [[[-98.4578783, 34.6338189], [-98.4577496, 34.6338204], [-98.4577495, 34.6338182], [-98.4576154, 34.6338196], [-98.4576178, 34.6339653], [-98.4578806, 34.6339624], [-98.4578783, 34.6338189]]]}, "properties": {"osm_id": 1336932344, "building": "yes", "name": "", "height": null, "height_m": null, "levels": null, "tract_id": "40031000405", "tract_name": "4.05", "tags": {"building": "yes", "source": "microsoft/BuildingFootprints"}}}, {"type": "Feature", "geometry": {"type": "Polygon", "coordinates": [[[-98.4574179, 34.6338149], [-98.4574157, 34.6339252], [-98.4574184, 34.6339253], [-98.4574164, 34.634029], [-98.4575934, 34.6340313], [-98.4575975, 34.6338173], [-98.4574179, 34.6338149]]]}, "properties": {"osm_id": 1336932345, "building": "yes", "name": "", "height": null, "height_m": null, "levels": null, "tract_id": "40031000405", "tract_name": "4.05", "tags": {"building": "yes", "source": "microsoft/BuildingFootprints"}}}, {"type": "Feature", "geometry": {"type": "Polygon", "coordinates": [[[-98.4583135, 34.6339855], [-98.4581714, 34.6339841], [-98.4581694, 34.6341289], [-98.4583115, 34.6341302], [-98.4583135, 34.6339855]]]}, "properties": {"osm_id": 1336932346, "building": "yes", "name": "", "height": null, "height_m": null, "levels": null, "tract_id": "40031000405", "tract_name": "4.05", "tags": {"building": "yes", "source": "microsoft/BuildingFootprints"}}}, {"type": "Feature", "geometry": {"type": "Polygon", "coordinates": [[[-98.4581968, 34.6345915], [-98.4583765, 34.6345891], [-98.4583744, 34.6344818], [-98.4583771, 34.6344818], [-98.458375, 34.634375], [-98.4581953, 34.6343774], [-98.4581973, 34.6344811], [-98.4581947, 34.6344811], [-98.4581968, 34.6345915]]]}, "properties": {"osm_id": 1336932347, "building": "yes", "name": "", "height": null, "height_m": null, "levels": null, "tract_id": "40031000405", "tract_name": "4.05", "tags": {"building": "yes", "source": "microsoft/BuildingFootprints"}}}, {"type": "Feature", "geometry": {"type": "Polygon", "coordinates": [[[-98.4578871, 34.6344456], [-98.4577557, 34.634447], [-98.4577556, 34.6344426], [-98.4576269, 34.634444], [-98.4576291, 34.6345896], [-98.4577579, 34.6345882], [-98.4577579, 34.6345905], [-98.4578893, 34.6345891], [-98.4578871, 34.6344456]]]}, "properties": {"osm_id": 1336932348, "building": "yes", "name": "", "height": null, "height_m": null, "levels": null, "tract_id": "40031000405", "tract_name": "4.05", "tags": {"building": "yes", "source": "microsoft/BuildingFootprints"}}}, {"type": "Feature", "geometry": {"type": "Polygon", "coordinates": [[[-98.4577699, 34.6264878], [-98.4575902, 34.6264871], [-98.4575893, 34.6266438], [-98.457533, 34.6266436], [-98.4575325, 34.6267328], [-98.4577685, 34.6267337], [-98.4577699, 34.6264878]]]}, "properties": {"osm_id": 1336932351, "building": "yes", "name": "", "height": null, "height_m": null, "levels": null, "tract_id": "40031000405", "tract_name": "4.05", "tags": {"building": "yes", "source": "microsoft/BuildingFootprints"}}}, {"type": "Feature", "geometry": {"type": "Polygon", "coordinates": [[[-98.4578424, 34.6268453], [-98.4577699, 34.6268447], [-98.4577702, 34.6268218], [-98.4576591, 34.6268209], [-98.4576582, 34.6268902], [-98.4575924, 34.6268896], [-98.4575915, 34.6269625], [-98.4576505, 34.6269629], [-98.4576493, 34.6270667], [-98.4578397, 34.6270682], [-98.4578424, 34.6268453]]]}, "properties": {"osm_id": 1336932352, "building": "yes", "name": "", "height": null, "height_m": null, "levels": null, "tract_id": "40031000405", "tract_name": "4.05", "tags": {"building": "yes", "source": "microsoft/BuildingFootprints"}}}]}