{"type": "FeatureCollection", "features": [{"type": "Feature", "geometry": {"type": "Polygon", "coordinates": [[[-95.8402853, 36.1144242], [-95.8406193, 36.1146932], [-95.8405689, 36.114734], [-95.8405478, 36.114717], [-95.8404386, 36.1148055], [-95.8406407, 36.1149683], [-95.84075, 36.1148797], [-95.8407423, 36.1148735], [-95.8407792, 36.1148436], [-95.8407699, 36.1148361], [-95.8407833, 36.1148252], [-95.840859, 36.1148862], [-95.8408797, 36.1148693], [-95.8408638, 36.1148565], [-95.8409616, 36.1147772], [-95.8409775, 36.1147901], [-95.8410001, 36.1147718], [-95.8409239, 36.1147105], [-95.8409411, 36.1146965], [-95.840952, 36.1147053], [-95.8409678, 36.1146925], [-95.8410228, 36.1147368], [-95.8410775, 36.1146924], [-95.8411369, 36.1147403], [-95.8410621, 36.1148009], [-95.8412511, 36.114953], [-95.841424, 36.1148128], [-95.8412362, 36.1146617], [-95.8411781, 36.1147088], [-95.8410949, 36.1146418], [-95.8411507, 36.1145967], [-95.8411182, 36.1145706], [-95.8411319, 36.1145595], [-95.8411198, 36.1145497], [-95.8411346, 36.1145377], [-95.8412096, 36.1145981], [-95.8412315, 36.1145804], [-95.841215, 36.1145671], [-95.8413143, 36.1144866], [-95.8413294, 36.1144987], [-95.8413465, 36.1144848], [-95.841273, 36.1144256], [-95.8412905, 36.1144114], [-95.8413041, 36.1144223], [-95.8413238, 36.1144063], [-95.841134, 36.1142534], [-95.8411145, 36.1142692], [-95.8411271, 36.1142794], [-95.8411091, 36.114294], [-95.8410347, 36.1142342], [-95.8409019, 36.1143418], [-95.8408711, 36.1143169], [-95.8410039, 36.1142093], [-95.8409439, 36.114161], [-95.8409815, 36.1141306], [-95.8408719, 36.1140423], [-95.8409176, 36.1140053], [-95.8408697, 36.1139667], [-95.840824, 36.1140037], [-95.8407587, 36.1139512], [-95.840535, 36.1141325], [-95.8405537, 36.1141475], [-95.8405646, 36.1141387], [-95.8406012, 36.1141682], [-95.8402853, 36.1144242]]]}, "properties": {"osm_id": 230597778, "building": "kindergarten", "name": "Briarglen", "height": null, "height_m": null, "levels": null, "tract_id": "40143009006", "tract_name": "90.06", "tags": {"addr:city": "Tulsa", "addr:country": "US", "addr:housenumber": "3303", "addr:postcode": "74146", "addr:state": "OK", "addr:street": "South 121st Avenue East", "building": "kindergarten", "name": "Briarglen", "operator": "CAP Tulsa"}}}, {"type": "Feature", "geometry": {"type": "Polygon", "coordinates": [[[-95.8498005, 36.1155393], [-95.8498198, 36.1155698], [-95.8497818, 36.1155854], [-95.8497625, 36.115555], [-95.8498005, 36.1155393]]]}, "properties": {"osm_id": 502968105, "building": "yes", "name": "", "height": null, "height_m": null, "levels": null, "tract_id": "40143009006", "tract_name": "90.06", "tags": {"building": "yes"}}}, {"type": "Feature", "geometry": {"type": "Polygon", "coordinates": [[[-95.8472504, 36.114496], [-95.8474442, 36.11451], [-95.8474472, 36.1144828], [-95.84747, 36.1144844], [-95.8474864, 36.1143365], [-95.8474124, 36.1143312], [-95.847407, 36.1143795], [-95.8473924, 36.1143784], [-95.847394, 36.1143638], [-95.8473293, 36.1143592], [-95.8473282, 36.1143694], [-95.8472649, 36.1143648], [-95.8472504, 36.114496]]]}, "properties": {"osm_id": 615406047, "building": "detached", "name": "", "height": null, "height_m": null, "levels": null, "tract_id": "40143009006", "tract_name": "90.06", "tags": {"building": "detached"}}}, {"type": "Feature", "geometry": {"type": "Polygon", "coordinates": [[[-95.847122, 36.114545], [-95.847142, 36.1145189], [-95.8471253, 36.1145105], [-95.8471027, 36.1145399], [-95.847122, 36.114545]]]}, "properties": {"osm_id": 615406281, "building": "residential", "name": "", "height": null, "height_m": null, "levels": null, "tract_id": "40143009006", "tract_name": "90.06", "tags": {"building": "residential"}}}, {"type": "Feature", "geometry": {"type": "Polygon", "coordinates": [[[-95.8477809, 36.1143711], [-95.8476063, 36.1144443], [-95.8475226, 36.1143142], [-95.8475919, 36.1142851], [-95.8476233, 36.1143339], [-95.8477286, 36.1142897], [-95.8477809, 36.1143711]]]}, "properties": {"osm_id": 615407594, "building": "detached", "name": "", "height": null, "height_m": null, "levels": null, "tract_id": "40143009006", "tract_name": "90.06", "tags": {"building": "detached"}}}, {"type": "Feature", "geometry": {"type": "Polygon", "coordinates": [[[-95.8480872, 36.1146072], [-95.8479903, 36.1145947], [-95.8480195, 36.1144473], [-95.8481887, 36.1144692], [-95.8481727, 36.1145505], [-95.8481003, 36.1145412], [-95.8480872, 36.1146072]]]}, "properties": {"osm_id": 616892115, "building": "detached", "name": "", "height": null, "height_m": null, "levels": null, "tract_id": "40143009006", "tract_name": "90.06", "tags": {"addr:city": "Tulsa", "addr:country": "US", "addr:housenumber": "3321", "addr:postcode": "74146", "addr:state": "OK", "addr:street": "South 116th Avenue East", "building": "detached"}}}, {"type": "Feature", "geometry": {"type": "Polygon", "coordinates": [[[-95.8478118, 36.1142385], [-95.8476893, 36.1142147], [-95.8476995, 36.1141806], [-95.8476861, 36.114178], [-95.8477073, 36.1141067], [-95.8477226, 36.1141097], [-95.8477337, 36.1140724], [-95.8478543, 36.1140958], [-95.8478118, 36.1142385]]]}, "properties": {"osm_id": 616892116, "building": "detached", "name": "", "height": null, "height_m": null, "levels": null, "tract_id": "40143009006", "tract_name": "90.06", "tags": {"building": "detached"}}}, {"type": "Feature", "geometry": {"type": "Polygon", "coordinates": [[[-95.8478175, 36.1140623], [-95.847668, 36.11404], [-95.8476835, 36.1139722], [-95.8477024, 36.1139751], [-95.8477201, 36.1138978], [-95.8478506, 36.1139173], [-95.8478175, 36.1140623]]]}, "properties": {"osm_id": 616892117, "building": "detached", "name": "", "height": null, "height_m": null, "levels": null, "tract_id": "40143009006", "tract_name": "90.06", "tags": {"building": "detached"}}}, {"type": "Feature", "geometry": {"type": "Polygon", "coordinates": [[[-95.8471674, 36.1141289], [-95.8471776, 36.1140766], [-95.8471644, 36.1140749], [-95.8471813, 36.1139886], [-95.8470692, 36.1139743], [-95.8470421, 36.1141129], [-95.8471674, 36.1141289]]]}, "properties": {"osm_id": 616892118, "building": "detached", "name": "", "height": null, "height_m": null, "levels": null, "tract_id": "40143009006", "tract_name": "90.06", "tags": {"building": "detached"}}}, {"type": "Feature", "geometry": {"type": "Polygon", "coordinates": [[[-95.8472047, 36.1139636], [-95.8471122, 36.1139501], [-95.8471445, 36.1138047], [-95.8473132, 36.1138292], [-95.847295, 36.1139113], [-95.847232, 36.1139022], [-95.84723, 36.1139112], [-95.8472168, 36.1139093], [-95.8472047, 36.1139636]]]}, "properties": {"osm_id": 616892119, "building": "detached", "name": "", "height": null, "height_m": null, "levels": null, "tract_id": "40143009006", "tract_name": "90.06", "tags": {"building": "detached"}}}, {"type": "Feature", "geometry": {"type": "Polygon", "coordinates": [[[-95.8473277, 36.1137971], [-95.8473439, 36.1137391], [-95.8473155, 36.1137339], [-95.8473339, 36.1136679], [-95.8472253, 36.113648], [-95.8471906, 36.1137721], [-95.8473277, 36.1137971]]]}, "properties": {"osm_id": 616892120, "building": "detached", "name": "", "height": null, "height_m": null, "levels": null, "tract_id": "40143009006", "tract_name": "90.06", "tags": {"building": "detached"}}}, {"type": "Feature", "geometry": {"type": "Polygon", "coordinates": [[[-95.8478775, 36.113831], [-95.8478922, 36.1137688], [-95.8477583, 36.1137481], [-95.8477601, 36.1137404], [-95.8476785, 36.1137278], [-95.8476629, 36.1137937], [-95.8476752, 36.1137955], [-95.8476624, 36.1138498], [-95.8477606, 36.1138649], [-95.8477724, 36.1138148], [-95.8478775, 36.113831]]]}, "properties": {"osm_id": 616892121, "building": "detached", "name": "", "height": null, "height_m": null, "levels": null, "tract_id": "40143009006", "tract_name": "90.06", "tags": {"building": "detached"}}}, {"type": "Feature", "geometry": {"type": "Polygon", "coordinates": [[[-95.8481963, 36.1144518], [-95.8480243, 36.1144277], [-95.8480562, 36.1142793], [-95.8482057, 36.1143003], [-95.8481892, 36.1143772], [-95.8482117, 36.1143804], [-95.8481963, 36.1144518]]]}, "properties": {"osm_id": 617025560, "building": "detached", "name": "", "height": null, "height_m": null, "levels": null, "tract_id": "40143009006", "tract_name": "90.06", "tags": {"addr:city": "Tulsa", "addr:country": "US", "addr:housenumber": "3325", "addr:postcode": "74146", "addr:state": "OK", "addr:street": "South 116th Avenue East", "building": "detached"}}}, {"type": "Feature", "geometry": {"type": "Polygon", "coordinates": [[[-95.8481522, 36.1142764], [-95.8481608, 36.1142267], [-95.8481719, 36.114228], [-95.848174, 36.1142163], [-95.8482444, 36.1142243], [-95.8482591, 36.1141399], [-95.8480865, 36.1141203], [-95.8480612, 36.1142661], [-95.8481522, 36.1142764]]]}, "properties": {"osm_id": 617025562, "building": "detached", "name": "", "height": null, "height_m": null, "levels": null, "tract_id": "40143009006", "tract_name": "90.06", "tags": {"addr:city": "Tulsa", "addr:country": "US", "addr:housenumber": "3331", "addr:postcode": "74146", "addr:state": "OK", "addr:street": "South 116th Avenue East", "building": "detached"}}}, {"type": "Feature", "geometry": {"type": "Polygon", "coordinates": [[[-95.8482655, 36.1141269], [-95.8480798, 36.1141004], [-95.8480981, 36.1140172], [-95.8481389, 36.1140231], [-95.8481535, 36.1139565], [-95.8482723, 36.1139735], [-95.8482551, 36.1140518], [-95.8482811, 36.1140555], [-95.8482655, 36.1141269]]]}, "properties": {"osm_id": 617025564, "building": "detached", "name": "", "height": null, "height_m": null, "levels": null, "tract_id": "40143009006", "tract_name": "90.06", "tags": {"addr:city": "Tulsa", "addr:country": "US", "addr:housenumber": "3335", "addr:postcode": "74146", "addr:state": "OK", "addr:street": "South 116th Avenue East", "building": "detached"}}}, {"type": "Feature", "geometry": {"type": "Polygon", "coordinates": [[[-95.8482974, 36.1139521], [-95.8481652, 36.1139345], [-95.8481911, 36.1138076], [-95.8482969, 36.1138217], [-95.8482835, 36.1138873], [-95.8483098, 36.1138908], [-95.8482974, 36.1139521]]]}, "properties": {"osm_id": 617025566, "building": "detached", "name": "", "height": null, "height_m": null, "levels": null, "tract_id": "40143009006", "tract_name": "90.06", "tags": {"addr:city": "Tulsa", "addr:country": "US", "addr:housenumber": "3341", "addr:postcode": "74146", "addr:state": "OK", "addr:street": "South 116th Avenue East", "building": "detached"}}}, {"type": "Feature", "geometry": {"type": "Polygon", "coordinates": [[[-95.8485465, 36.1152169], [-95.8483687, 36.1151915], [-95.8483792, 36.1151436], [-95.8483988, 36.1151464], [-95.8484208, 36.1150461], [-95.848579, 36.1150687], [-95.8485465, 36.1152169]]]}, "properties": {"osm_id": 617025568, "building": "detached", "name": "", "height": null, "height_m": null, "levels": null, "tract_id": "40143009006", "tract_name": "90.06", "tags": {"addr:city": "Tulsa", "addr:country": "US", "addr:housenumber": "3306", "addr:postcode": "74146", "addr:state": "OK", "addr:street": "South 116th Avenue East", "building": "detached"}}}, {"type": "Feature", "geometry": {"type": "Polygon", "coordinates": [[[-95.8486125, 36.1149018], [-95.8485814, 36.115046], [-95.8484056, 36.1150212], [-95.8484198, 36.1149555], [-95.8484819, 36.1149643], [-95.8484988, 36.1148858], [-95.8486125, 36.1149018]]]}, "properties": {"osm_id": 617025570, "building": "detached", "name": "", "height": null, "height_m": null, "levels": null, "tract_id": "40143009006", "tract_name": "90.06", "tags": {"addr:city": "Tulsa", "addr:country": "US", "addr:housenumber": "3310", "addr:postcode": "74146", "addr:state": "OK", "addr:street": "South 116th Avenue East", "building": "detached"}}}, {"type": "Feature", "geometry": {"type": "Polygon", "coordinates": [[[-95.8487067, 36.1150534], [-95.8486727, 36.1150475], [-95.8486841, 36.1150047], [-95.8487181, 36.1150106], [-95.8487067, 36.1150534]]]}, "properties": {"osm_id": 617025572, "building": "shed", "name": "", "height": null, "height_m": null, "levels": null, "tract_id": "40143009006", "tract_name": "90.06", "tags": {"building": "shed"}}}, {"type": "Feature", "geometry": {"type": "Polygon", "coordinates": [[[-95.8486214, 36.1148328], [-95.848592, 36.1148286], [-95.8485839, 36.1148658], [-95.8484578, 36.1148479], [-95.8484599, 36.1148382], [-95.8484424, 36.1148357], [-95.8484538, 36.1147832], [-95.8484709, 36.1147857], [-95.8484873, 36.1147105], [-95.8486079, 36.1147276], [-95.8485974, 36.1147756], [-95.8486328, 36.1147806], [-95.8486214, 36.1148328]]]}, "properties": {"osm_id": 617025573, "building": "detached", "name": "", "height": null, "height_m": null, "levels": null, "tract_id": "40143009006", "tract_name": "90.06", "tags": {"addr:city": "Tulsa", "addr:country": "US", "addr:housenumber": "3316", "addr:postcode": "74146", "addr:state": "OK", "addr:street": "South 116th Avenue East", "building": "detached"}}}, {"type": "Feature", "geometry": {"type": "Polygon", "coordinates": [[[-95.84867, 36.1146957], [-95.8486187, 36.1146883], [-95.8486154, 36.1147031], [-95.848483, 36.1146838], [-95.8485023, 36.1145971], [-95.8485232, 36.1146001], [-95.8485365, 36.1145408], [-95.8486455, 36.1145567], [-95.848633, 36.1146125], [-95.8486868, 36.1146203], [-95.84867, 36.1146957]]]}, "properties": {"osm_id": 617025576, "building": "detached", "name": "", "height": null, "height_m": null, "levels": null, "tract_id": "40143009006", "tract_name": "90.06", "tags": {"addr:city": "Tulsa", "addr:country": "US", "addr:housenumber": "3320", "addr:postcode": "74146", "addr:state": "OK", "addr:street": "South 116th Avenue East", "building": "detached"}}}, {"type": "Feature", "geometry": {"type": "Polygon", "coordinates": [[[-95.8487204, 36.1145201], [-95.8486841, 36.1145151], [-95.8486824, 36.1145234], [-95.8485749, 36.1145087], [-95.8485872, 36.11445], [-95.8485311, 36.1144423], [-95.8485453, 36.1143746], [-95.8487035, 36.1143962], [-95.8486876, 36.1144723], [-95.8487292, 36.114478], [-95.8487204, 36.1145201]]]}, "properties": {"osm_id": 617025578, "building": "detached", "name": "", "height": null, "height_m": null, "levels": null, "tract_id": "40143009006", "tract_name": "90.06", "tags": {"addr:city": "Tulsa", "addr:country": "US", "addr:housenumber": "3326", "addr:postcode": "74146", "addr:state": "OK", "addr:street": "South 116th Avenue East", "building": "detached"}}}, {"type": "Feature", "geometry": {"type": "Polygon", "coordinates": [[[-95.8486547, 36.1143585], [-95.8486684, 36.1142886], [-95.8487238, 36.1142957], [-95.8487391, 36.1142174], [-95.8485962, 36.1141991], [-95.8485883, 36.1142396], [-95.8485641, 36.1142365], [-95.8485552, 36.1142822], [-95.8485735, 36.1142846], [-95.8485613, 36.1143466], [-95.8486547, 36.1143585]]]}, "properties": {"osm_id": 617025580, "building": "detached", "name": "", "height": null, "height_m": null, "levels": null, "tract_id": "40143009006", "tract_name": "90.06", "tags": {"addr:city": "Tulsa", "addr:country": "US", "addr:housenumber": "3332", "addr:postcode": "74146", "addr:state": "OK", "addr:street": "South 116th Avenue East", "building": "detached"}}}, {"type": "Feature", "geometry": {"type": "Polygon", "coordinates": [[[-95.8487301, 36.1141946], [-95.8487549, 36.1140478], [-95.848635, 36.1140346], [-95.8486223, 36.1141096], [-95.8485953, 36.1141066], [-95.8485831, 36.1141784], [-95.8487301, 36.1141946]]]}, "properties": {"osm_id": 617025582, "building": "detached", "name": "", "height": null, "height_m": null, "levels": null, "tract_id": "40143009006", "tract_name": "90.06", "tags": {"addr:city": "Tulsa", "addr:country": "US", "addr:housenumber": "3336", "addr:postcode": "74146", "addr:state": "OK", "addr:street": "South 116th Avenue East", "building": "detached"}}}, {"type": "Feature", "geometry": {"type": "Polygon", "coordinates": [[[-95.8488483, 36.1139761], [-95.8488622, 36.113907], [-95.8486494, 36.1138789], [-95.8486252, 36.1139981], [-95.8487235, 36.1140111], [-95.8487337, 36.1139609], [-95.8488483, 36.1139761]]]}, "properties": {"osm_id": 617025584, "building": "detached", "name": "", "height": null, "height_m": null, "levels": null, "tract_id": "40143009006", "tract_name": "90.06", "tags": {"addr:city": "Tulsa", "addr:country": "US", "addr:housenumber": "3342", "addr:postcode": "74146", "addr:state": "OK", "addr:street": "South 116th Avenue East", "building": "detached"}}}, {"type": "Feature", "geometry": {"type": "Polygon", "coordinates": [[[-95.8466908, 36.1136783], [-95.8468781, 36.1137105], [-95.8469011, 36.1136231], [-95.846832, 36.1136112], [-95.8468353, 36.1135989], [-95.8467931, 36.1135916], [-95.8467982, 36.113572], [-95.8467222, 36.1135589], [-95.8466908, 36.1136783]]]}, "properties": {"osm_id": 617025585, "building": "detached", "name": "", "height": null, "height_m": null, "levels": null, "tract_id": "40143009006", "tract_name": "90.06", "tags": {"building": "detached"}}}, {"type": "Feature", "geometry": {"type": "Polygon", "coordinates": [[[-95.8466424, 36.1138594], [-95.8466587, 36.1137991], [-95.8466753, 36.113802], [-95.8466932, 36.1137356], [-95.8468158, 36.1137572], [-95.8468023, 36.1138072], [-95.8468361, 36.1138131], [-95.8468155, 36.1138898], [-95.8466424, 36.1138594]]]}, "properties": {"osm_id": 617025587, "building": "detached", "name": "", "height": null, "height_m": null, "levels": null, "tract_id": "40143009006", "tract_name": "90.06", "tags": {"addr:city": "Tulsa", "addr:country": "US", "addr:housenumber": "3334", "addr:postcode": "74146", "addr:state": "OK", "addr:street": "South 118th Avenue East", "building": "detached"}}}, {"type": "Feature", "geometry": {"type": "Polygon", "coordinates": [[[-95.8467252, 36.1140538], [-95.8467621, 36.1139056], [-95.8466547, 36.1138882], [-95.8466448, 36.1139281], [-95.8466206, 36.1139242], [-95.8465937, 36.1140325], [-95.8467252, 36.1140538]]]}, "properties": {"osm_id": 617025589, "building": "detached", "name": "", "height": null, "height_m": null, "levels": null, "tract_id": "40143009006", "tract_name": "90.06", "tags": {"addr:city": "Tulsa", "addr:country": "US", "addr:housenumber": "3330", "addr:postcode": "74146", "addr:state": "OK", "addr:street": "South 118th Avenue East", "building": "detached"}}}, {"type": "Feature", "geometry": {"type": "Polygon", "coordinates": [[[-95.8467125, 36.1140717], [-95.8466008, 36.1140518], [-95.8465746, 36.1141473], [-95.8465552, 36.1141438], [-95.8465417, 36.114193], [-95.8466723, 36.1142163], [-95.8466827, 36.1141783], [-95.846712, 36.1141836], [-95.8467241, 36.1141394], [-95.8466954, 36.1141342], [-95.8467125, 36.1140717]]]}, "properties": {"osm_id": 617025592, "building": "detached", "name": "", "height": null, "height_m": null, "levels": null, "tract_id": "40143009006", "tract_name": "90.06", "tags": {"addr:city": "Tulsa", "addr:country": "US", "addr:housenumber": "3326", "addr:postcode": "74146", "addr:state": "OK", "addr:street": "South 118th Avenue East", "building": "detached"}}}, {"type": "Feature", "geometry": {"type": "Polygon", "coordinates": [[[-95.8467166, 36.1144181], [-95.8465828, 36.1143943], [-95.8465972, 36.1143413], [-95.8465762, 36.1143376], [-95.8465954, 36.114267], [-95.8466131, 36.1142702], [-95.8466228, 36.1142346], [-95.8467599, 36.1142589], [-95.8467166, 36.1144181]]]}, "properties": {"osm_id": 617025594, "building": "detached", "name": "", "height": null, "height_m": null, "levels": null, "tract_id": "40143009006", "tract_name": "90.06", "tags": {"addr:city": "Tulsa", "addr:country": "US", "addr:housenumber": "3322", "addr:postcode": "74146", "addr:state": "OK", "addr:street": "South 118th Avenue East", "building": "detached"}}}, {"type": "Feature", "geometry": {"type": "Polygon", "coordinates": [[[-95.8466644, 36.1146169], [-95.8467545, 36.1144709], [-95.8466519, 36.1144295], [-95.8466015, 36.1145111], [-95.846532, 36.1144831], [-95.8464922, 36.1145475], [-95.8466644, 36.1146169]]]}, "properties": {"osm_id": 617025595, "building": "detached", "name": "", "height": null, "height_m": null, "levels": null, "tract_id": "40143009006", "tract_name": "90.06", "tags": {"addr:city": "Tulsa", "addr:country": "US", "addr:housenumber": "3318", "addr:postcode": "74146", "addr:state": "OK", "addr:street": "South 118th Avenue East", "building": "detached"}}}, {"type": "Feature", "geometry": {"type": "Polygon", "coordinates": [[[-95.8465127, 36.1146698], [-95.8464695, 36.1145613], [-95.8463848, 36.1145833], [-95.8463911, 36.1145992], [-95.8462943, 36.1146243], [-95.8463312, 36.1147169], [-95.8465127, 36.1146698]]]}, "properties": {"osm_id": 617025597, "building": "detached", "name": "", "height": null, "height_m": null, "levels": null, "tract_id": "40143009006", "tract_name": "90.06", "tags": {"building": "detached"}}}, {"type": "Feature", "geometry": {"type": "Polygon", "coordinates": [[[-95.8461962, 36.1146245], [-95.8461147, 36.1146981], [-95.845984, 36.1146037], [-95.8461044, 36.114495], [-95.8461668, 36.1145401], [-95.8461279, 36.1145752], [-95.8461962, 36.1146245]]]}, "properties": {"osm_id": 617775640, "building": "detached", "name": "", "height": null, "height_m": null, "levels": null, "tract_id": "40143009006", "tract_name": "90.06", "tags": {"building": "detached"}}}, {"type": "Feature", "geometry": {"type": "Polygon", "coordinates": [[[-95.8459452, 36.1145043], [-95.8459047, 36.1143572], [-95.845989, 36.1143421], [-95.8459851, 36.1143281], [-95.8460594, 36.1143148], [-95.8460809, 36.1143926], [-95.8460068, 36.1144059], [-95.8460297, 36.1144892], [-95.8459452, 36.1145043]]]}, "properties": {"osm_id": 617775641, "building": "detached", "name": "", "height": null, "height_m": null, "levels": null, "tract_id": "40143009006", "tract_name": "90.06", "tags": {"addr:city": "Tulsa", "addr:country": "US", "addr:housenumber": "3317", "addr:postcode": "74146", "addr:state": "OK", "addr:street": "South 118th Avenue East", "building": "detached"}}}, {"type": "Feature", "geometry": {"type": "Polygon", "coordinates": [[[-95.8460908, 36.1143043], [-95.8461226, 36.1142382], [-95.8460546, 36.1142168], [-95.8460901, 36.1141431], [-95.8459837, 36.1141097], [-95.8459165, 36.1142496], [-95.8460908, 36.1143043]]]}, "properties": {"osm_id": 617775642, "building": "detached", "name": "", "height": null, "height_m": null, "levels": null, "tract_id": "40143009006", "tract_name": "90.06", "tags": {"addr:city": "Tulsa", "addr:country": "US", "addr:housenumber": "3321", "addr:postcode": "74146", "addr:state": "OK", "addr:street": "South 118th Avenue East", "building": "detached"}}}, {"type": "Feature", "geometry": {"type": "Polygon", "coordinates": [[[-95.8462243, 36.1141396], [-95.8462518, 36.1140455], [-95.8462278, 36.1140409], [-95.8462423, 36.1139914], [-95.8461267, 36.1139693], [-95.8460847, 36.114113], [-95.8462243, 36.1141396]]]}, "properties": {"osm_id": 617775643, "building": "detached", "name": "", "height": null, "height_m": null, "levels": null, "tract_id": "40143009006", "tract_name": "90.06", "tags": {"addr:city": "Tulsa", "addr:country": "US", "addr:housenumber": "3325", "addr:postcode": "74146", "addr:state": "OK", "addr:street": "South 118th Avenue East", "building": "detached"}}}, {"type": "Feature", "geometry": {"type": "Polygon", "coordinates": [[[-95.8459857, 36.1140924], [-95.8459406, 36.1140843], [-95.8459491, 36.1140534], [-95.8459942, 36.1140615], [-95.8459857, 36.1140924]]]}, "properties": {"osm_id": 617775644, "building": "shed", "name": "", "height": null, "height_m": null, "levels": null, "tract_id": "40143009006", "tract_name": "90.06", "tags": {"building": "shed"}}}, {"type": "Feature", "geometry": {"type": "Polygon", "coordinates": [[[-95.8460128, 36.1140472], [-95.8459665, 36.1140376], [-95.8459767, 36.1140054], [-95.846023, 36.114015], [-95.8460128, 36.1140472]]]}, "properties": {"osm_id": 617775645, "building": "shed", "name": "", "height": null, "height_m": null, "levels": null, "tract_id": "40143009006", "tract_name": "90.06", "tags": {"building": "shed"}}}, {"type": "Feature", "geometry": {"type": "Polygon", "coordinates": [[[-95.8462968, 36.1138904], [-95.8462741, 36.1139732], [-95.8461328, 36.1139479], [-95.8461748, 36.1137946], [-95.8462874, 36.1138148], [-95.8462681, 36.1138853], [-95.8462968, 36.1138904]]]}, "properties": {"osm_id": 617775646, "building": "detached", "name": "", "height": null, "height_m": null, "levels": null, "tract_id": "40143009006", "tract_name": "90.06", "tags": {"addr:city": "Tulsa", "addr:country": "US", "addr:housenumber": "3329", "addr:postcode": "74146", "addr:state": "OK", "addr:street": "South 118th Avenue East", "building": "detached"}}}, {"type": "Feature", "geometry": {"type": "Polygon", "coordinates": [[[-95.8462532, 36.113793], [-95.8461527, 36.113775], [-95.8461934, 36.1136268], [-95.846364, 36.1136574], [-95.8463435, 36.1137323], [-95.8462733, 36.1137198], [-95.8462532, 36.113793]]]}, "properties": {"osm_id": 617775647, "building": "detached", "name": "", "height": null, "height_m": null, "levels": null, "tract_id": "40143009006", "tract_name": "90.06", "tags": {"addr:city": "Tulsa", "addr:country": "US", "addr:housenumber": "3333", "addr:postcode": "74146", "addr:state": "OK", "addr:street": "South 118th Avenue East", "building": "detached"}}}, {"type": "Feature", "geometry": {"type": "Polygon", "coordinates": [[[-95.8463639, 36.1136484], [-95.8464039, 36.113502], [-95.8463028, 36.1134839], [-95.8462975, 36.1135031], [-95.8462123, 36.1134879], [-95.8461886, 36.1135745], [-95.8462363, 36.1135831], [-95.8462252, 36.1136236], [-95.8463639, 36.1136484]]]}, "properties": {"osm_id": 617775648, "building": "detached", "name": "", "height": null, "height_m": null, "levels": null, "tract_id": "40143009006", "tract_name": "90.06", "tags": {"building": "detached"}}}, {"type": "Feature", "geometry": {"type": "Polygon", "coordinates": [[[-95.8498509, 36.1149735], [-95.849691, 36.1149762], [-95.8496866, 36.1148011], [-95.849722, 36.1148005], [-95.8497208, 36.1147533], [-95.8498453, 36.1147512], [-95.8498509, 36.1149735]]]}, "properties": {"osm_id": 617775649, "building": "barn", "name": "", "height": null, "height_m": null, "levels": null, "tract_id": "40143009006", "tract_name": "90.06", "tags": {"building": "barn"}}}, {"type": "Feature", "geometry": {"type": "Polygon", "coordinates": [[[-95.8499151, 36.1147368], [-95.8498365, 36.1147356], [-95.8498388, 36.1146359], [-95.8499174, 36.1146371], [-95.8499151, 36.1147368]]]}, "properties": {"osm_id": 617775650, "building": "garages", "name": "", "height": null, "height_m": null, "levels": null, "tract_id": "40143009006", "tract_name": "90.06", "tags": {"building": "garages"}}}, {"type": "Feature", "geometry": {"type": "Polygon", "coordinates": [[[-95.8498075, 36.1146309], [-95.849673, 36.1146301], [-95.8496735, 36.114576], [-95.8496911, 36.1145762], [-95.8496918, 36.1144923], [-95.8498018, 36.1144929], [-95.8498017, 36.114503], [-95.8498475, 36.1145032], [-95.8498468, 36.1145802], [-95.8498079, 36.11458], [-95.8498075, 36.1146309]]]}, "properties": {"osm_id": 617775651, "building": "detached", "name": "", "height": null, "height_m": null, "levels": null, "tract_id": "40143009006", "tract_name": "90.06", "tags": {"building": "detached"}}}, {"type": "Feature", "geometry": {"type": "Polygon", "coordinates": [[[-95.8496526, 36.1149245], [-95.8494721, 36.1149352], [-95.8494622, 36.1148261], [-95.8495233, 36.1148225], [-95.8495223, 36.1148111], [-95.8495641, 36.1148086], [-95.8495692, 36.1148647], [-95.8496468, 36.1148601], [-95.8496526, 36.1149245]]]}, "properties": {"osm_id": 617775652, "building": "detached", "name": "", "height": null, "height_m": null, "levels": null, "tract_id": "40143009006", "tract_name": "90.06", "tags": {"building": "detached"}}}, {"type": "Feature", "geometry": {"type": "Polygon", "coordinates": [[[-95.8491927, 36.114889], [-95.8492613, 36.1148372], [-95.8492175, 36.1147994], [-95.8492255, 36.1147934], [-95.8492114, 36.1147813], [-95.8492624, 36.1147428], [-95.8491914, 36.1146814], [-95.8490639, 36.1147778], [-95.8491927, 36.114889]]]}, "properties": {"osm_id": 617775653, "building": "detached", "name": "", "height": null, "height_m": null, "levels": null, "tract_id": "40143009006", "tract_name": "90.06", "tags": {"building": "detached"}}}, {"type": "Feature", "geometry": {"type": "Polygon", "coordinates": [[[-95.8491879, 36.1146453], [-95.849187, 36.1145773], [-95.849163, 36.1145775], [-95.8491619, 36.1144957], [-95.8490421, 36.1144967], [-95.8490427, 36.1145494], [-95.8489607, 36.1145501], [-95.8489615, 36.1146109], [-95.8490446, 36.1146102], [-95.849045, 36.1146464], [-95.8491879, 36.1146453]]]}, "properties": {"osm_id": 617775654, "building": "detached", "name": "", "height": null, "height_m": null, "levels": null, "tract_id": "40143009006", "tract_name": "90.06", "tags": {"building": "detached"}}}, {"type": "Feature", "geometry": {"type": "Polygon", "coordinates": [[[-95.8492563, 36.1144715], [-95.8492553, 36.1143996], [-95.849186, 36.1144002], [-95.8491859, 36.1143892], [-95.8492537, 36.1143886], [-95.8492527, 36.114314], [-95.8490876, 36.1143154], [-95.8490877, 36.1143242], [-95.8490436, 36.1143246], [-95.8490449, 36.1144265], [-95.8490814, 36.1144262], [-95.849082, 36.114473], [-95.8492563, 36.1144715]]]}, "properties": {"osm_id": 617775655, "building": "detached", "name": "", "height": null, "height_m": null, "levels": null, "tract_id": "40143009006", "tract_name": "90.06", "tags": {"building": "detached"}}}, {"type": "Feature", "geometry": {"type": "Polygon", "coordinates": [[[-95.8491832, 36.1142703], [-95.8490821, 36.114265], [-95.8490951, 36.1141023], [-95.8492824, 36.1141121], [-95.8492758, 36.1141941], [-95.8491897, 36.1141896], [-95.8491832, 36.1142703]]]}, "properties": {"osm_id": 617775656, "building": "detached", "name": "", "height": null, "height_m": null, "levels": null, "tract_id": "40143009006", "tract_name": "90.06", "tags": {"building": "detached"}}}, {"type": "Feature", "geometry": {"type": "Polygon", "coordinates": [[[-95.8490545, 36.1141437], [-95.8490589, 36.114105], [-95.8490176, 36.114102], [-95.8490132, 36.1141406], [-95.8490545, 36.1141437]]]}, "properties": {"osm_id": 617775657, "building": "shed", "name": "", "height": null, "height_m": null, "levels": null, "tract_id": "40143009006", "tract_name": "90.06", "tags": {"building": "shed"}}}, {"type": "Feature", "geometry": {"type": "Polygon", "coordinates": [[[-95.8489168, 36.1142265], [-95.84889, 36.114223], [-95.8488961, 36.1141929], [-95.8489229, 36.1141964], [-95.8489168, 36.1142265]]]}, "properties": {"osm_id": 617775658, "building": "shed", "name": "", "height": null, "height_m": null, "levels": null, "tract_id": "40143009006", "tract_name": "90.06", "tags": {"building": "shed"}}}, {"type": "Feature", "geometry": {"type": "Polygon", "coordinates": [[[-95.8492835, 36.1140525], [-95.8491099, 36.1140402], [-95.8491195, 36.1139515], [-95.8492322, 36.1139595], [-95.8492332, 36.1139501], [-95.8492941, 36.1139544], [-95.8492835, 36.1140525]]]}, "properties": {"osm_id": 617775659, "building": "detached", "name": "", "height": null, "height_m": null, "levels": null, "tract_id": "40143009006", "tract_name": "90.06", "tags": {"building": "detached"}}}, {"type": "Feature", "geometry": {"type": "Polygon", "coordinates": [[[-95.849871, 36.1144331], [-95.8498705, 36.1143797], [-95.849785, 36.1143802], [-95.8497843, 36.1143071], [-95.8496793, 36.1143077], [-95.8496801, 36.1143907], [-95.8496126, 36.1143911], [-95.8496133, 36.1144601], [-95.8497774, 36.114459], [-95.8497771, 36.1144337], [-95.849871, 36.1144331]]]}, "properties": {"osm_id": 617775660, "building": "detached", "name": "", "height": null, "height_m": null, "levels": null, "tract_id": "40143009006", "tract_name": "90.06", "tags": {"building": "detached"}}}, {"type": "Feature", "geometry": {"type": "Polygon", "coordinates": [[[-95.8498206, 36.1142805], [-95.849608, 36.1142802], [-95.8496081, 36.1141939], [-95.8497071, 36.114194], [-95.8497072, 36.1141472], [-95.8498208, 36.1141473], [-95.8498206, 36.1142805]]]}, "properties": {"osm_id": 617775661, "building": "detached", "name": "", "height": null, "height_m": null, "levels": null, "tract_id": "40143009006", "tract_name": "90.06", "tags": {"building": "detached"}}}, {"type": "Feature", "geometry": {"type": "Polygon", "coordinates": [[[-95.849746, 36.1140931], [-95.8497216, 36.1140921], [-95.8497212, 36.1140999], [-95.8496508, 36.1140972], [-95.8496581, 36.1139735], [-95.8498877, 36.1139824], [-95.8498833, 36.1140567], [-95.8497485, 36.1140515], [-95.849746, 36.1140931]]]}, "properties": {"osm_id": 617775662, "building": "detached", "name": "", "height": null, "height_m": null, "levels": null, "tract_id": "40143009006", "tract_name": "90.06", "tags": {"building": "detached"}}}, {"type": "Feature", "geometry": {"type": "Polygon", "coordinates": [[[-95.8500206, 36.1140706], [-95.8500222, 36.1139801], [-95.8502464, 36.1139828], [-95.8502447, 36.1140732], [-95.8500206, 36.1140706]]]}, "properties": {"osm_id": 617775663, "building": "detached", "name": "", "height": null, "height_m": null, "levels": null, "tract_id": "40143009006", "tract_name": "90.06", "tags": {"building": "detached"}}}, {"type": "Feature", "geometry": {"type": "Polygon", "coordinates": [[[-95.8502629, 36.1141409], [-95.8500755, 36.1141397], [-95.850075, 36.1141909], [-95.8500993, 36.114191], [-95.8500984, 36.1142844], [-95.8501872, 36.114285], [-95.8501877, 36.1142304], [-95.8501998, 36.1142304], [-95.8501999, 36.1142159], [-95.8502622, 36.1142163], [-95.8502629, 36.1141409]]]}, "properties": {"osm_id": 617775664, "building": "detached", "name": "", "height": null, "height_m": null, "levels": null, "tract_id": "40143009006", "tract_name": "90.06", "tags": {"building": "detached"}}}, {"type": "Feature", "geometry": {"type": "Polygon", "coordinates": [[[-95.8502715, 36.1143863], [-95.8502426, 36.1143862], [-95.8502431, 36.1143042], [-95.8501294, 36.1143036], [-95.8501283, 36.1144557], [-95.850271, 36.1144563], [-95.8502715, 36.1143863]]]}, "properties": {"osm_id": 617775665, "building": "detached", "name": "", "height": null, "height_m": null, "levels": null, "tract_id": "40143009006", "tract_name": "90.06", "tags": {"building": "detached"}}}, {"type": "Feature", "geometry": {"type": "Polygon", "coordinates": [[[-95.8502658, 36.1145543], [-95.8501961, 36.1145545], [-95.8501966, 36.114635], [-95.8500877, 36.1146354], [-95.8500868, 36.1144765], [-95.8502654, 36.1144758], [-95.8502658, 36.1145543]]]}, "properties": {"osm_id": 617775666, "building": "detached", "name": "", "height": null, "height_m": null, "levels": null, "tract_id": "40143009006", "tract_name": "90.06", "tags": {"building": "detached"}}}, {"type": "Feature", "geometry": {"type": "Polygon", "coordinates": [[[-95.8502664, 36.1147995], [-95.8502664, 36.1147461], [-95.8502508, 36.1147462], [-95.8502507, 36.1146522], [-95.8501407, 36.1146523], [-95.8501408, 36.11472], [-95.8500672, 36.1147201], [-95.8500673, 36.1147798], [-95.8501447, 36.1147798], [-95.8501447, 36.1147996], [-95.8502664, 36.1147995]]]}, "properties": {"osm_id": 617775667, "building": "detached", "name": "", "height": null, "height_m": null, "levels": null, "tract_id": "40143009006", "tract_name": "90.06", "tags": {"building": "detached"}}}, {"type": "Feature", "geometry": {"type": "Polygon", "coordinates": [[[-95.850224, 36.1149114], [-95.8502246, 36.1148482], [-95.8500139, 36.1148467], [-95.8500132, 36.1149132], [-95.8500853, 36.1149136], [-95.8500847, 36.1149723], [-95.8501948, 36.1149731], [-95.8501955, 36.1149112], [-95.850224, 36.1149114]]]}, "properties": {"osm_id": 617775668, "building": "detached", "name": "", "height": null, "height_m": null, "levels": null, "tract_id": "40143009006", "tract_name": "90.06", "tags": {"building": "detached"}}}, {"type": "Feature", "geometry": {"type": "Polygon", "coordinates": [[[-95.8501422, 36.1150787], [-95.8501408, 36.1150014], [-95.8499982, 36.1150031], [-95.849999, 36.1150496], [-95.8500262, 36.1150493], [-95.850028, 36.1151506], [-95.850119, 36.1151496], [-95.850118, 36.115093], [-95.8501289, 36.1150928], [-95.8501287, 36.1150788], [-95.8501422, 36.1150787]]]}, "properties": {"osm_id": 617775669, "building": "detached", "name": "", "height": null, "height_m": null, "levels": null, "tract_id": "40143009006", "tract_name": "90.06", "tags": {"building": "detached"}}}, {"type": "Feature", "geometry": {"type": "Polygon", "coordinates": [[[-95.8501747, 36.1153697], [-95.8500601, 36.115255], [-95.8501633, 36.1151877], [-95.850227, 36.1152515], [-95.8502668, 36.1152255], [-95.8503177, 36.1152765], [-95.8501747, 36.1153697]]]}, "properties": {"osm_id": 617775671, "building": "detached", "name": "", "height": null, "height_m": null, "levels": null, "tract_id": "40143009006", "tract_name": "90.06", "tags": {"building": "detached"}}}, {"type": "Feature", "geometry": {"type": "Polygon", "coordinates": [[[-95.8503755, 36.1154362], [-95.8503706, 36.1154023], [-95.8503229, 36.1154067], [-95.8503278, 36.1154407], [-95.8503755, 36.1154362]]]}, "properties": {"osm_id": 617775672, "building": "shed", "name": "", "height": null, "height_m": null, "levels": null, "tract_id": "40143009006", "tract_name": "90.06", "tags": {"building": "shed"}}}, {"type": "Feature", "geometry": {"type": "Polygon", "coordinates": [[[-95.8505603, 36.1154174], [-95.8505492, 36.1153306], [-95.8505396, 36.1153314], [-95.8504366, 36.11534], [-95.8504315, 36.1153003], [-95.8503421, 36.1153079], [-95.8503541, 36.1154011], [-95.8504347, 36.1153943], [-95.850439, 36.1154276], [-95.8504962, 36.1154228], [-95.8505603, 36.1154174]]]}, "properties": {"osm_id": 617775673, "building": "detached", "name": "", "height": null, "height_m": null, "levels": null, "tract_id": "40143009006", "tract_name": "90.06", "tags": {"building": "detached"}}}, {"type": "Feature", "geometry": {"type": "Polygon", "coordinates": [[[-95.8505321, 36.1152727], [-95.8505396, 36.1153314], [-95.8504366, 36.11534], [-95.8504315, 36.1153003], [-95.8504291, 36.1152813], [-95.8505321, 36.1152727]]]}, "properties": {"osm_id": 617775674, "building": "roof", "name": "", "height": null, "height_m": null, "levels": null, "tract_id": "40143009006", "tract_name": "90.06", "tags": {"building": "roof"}}}, {"type": "Feature", "geometry": {"type": "Polygon", "coordinates": [[[-95.8505002, 36.1154537], [-95.8504962, 36.1154228], [-95.850439, 36.1154276], [-95.8504315, 36.1154283], [-95.8504354, 36.1154591], [-95.8505002, 36.1154537]]]}, "properties": {"osm_id": 617775675, "building": "roof", "name": "", "height": null, "height_m": null, "levels": null, "tract_id": "40143009006", "tract_name": "90.06", "tags": {"building": "roof"}}}, {"type": "Feature", "geometry": {"type": "Polygon", "coordinates": [[[-95.8506179, 36.1155151], [-95.8506145, 36.1154796], [-95.8505584, 36.1154831], [-95.8505618, 36.1155186], [-95.8506179, 36.1155151]]]}, "properties": {"osm_id": 617775676, "building": "shed", "name": "", "height": null, "height_m": null, "levels": null, "tract_id": "40143009006", "tract_name": "90.06", "tags": {"building": "shed"}}}, {"type": "Feature", "geometry": {"type": "Polygon", "coordinates": [[[-95.8506732, 36.1153672], [-95.8505657, 36.115292], [-95.8506311, 36.115231], [-95.8506467, 36.1152419], [-95.8506809, 36.1152101], [-95.8506933, 36.1152188], [-95.8507407, 36.1151745], [-95.8508201, 36.1152301], [-95.8506732, 36.1153672]]]}, "properties": {"osm_id": 617775677, "building": "detached", "name": "", "height": null, "height_m": null, "levels": null, "tract_id": "40143009006", "tract_name": "90.06", "tags": {"building": "detached"}}}, {"type": "Feature", "geometry": {"type": "Polygon", "coordinates": [[[-95.8507961, 36.1151386], [-95.8506721, 36.1151376], [-95.8506739, 36.1149945], [-95.8507979, 36.1149955], [-95.8507961, 36.1151386]]]}, "properties": {"osm_id": 617775678, "building": "detached", "name": "", "height": null, "height_m": null, "levels": null, "tract_id": "40143009006", "tract_name": "90.06", "tags": {"building": "detached"}}}, {"type": "Feature", "geometry": {"type": "Polygon", "coordinates": [[[-95.8508497, 36.1149505], [-95.8507674, 36.11495], [-95.8507671, 36.1149758], [-95.8506643, 36.1149751], [-95.8506659, 36.1148275], [-95.8507716, 36.1148283], [-95.8507714, 36.1148459], [-95.8508508, 36.1148464], [-95.8508497, 36.1149505]]]}, "properties": {"osm_id": 617775679, "building": "detached", "name": "", "height": null, "height_m": null, "levels": null, "tract_id": "40143009006", "tract_name": "90.06", "tags": {"building": "detached"}}}, {"type": "Feature", "geometry": {"type": "Polygon", "coordinates": [[[-95.8507738, 36.1148027], [-95.8507736, 36.1146506], [-95.8506619, 36.1146506], [-95.850662, 36.1147304], [-95.8505973, 36.1147304], [-95.8505974, 36.1148028], [-95.8507738, 36.1148027]]]}, "properties": {"osm_id": 617775680, "building": "detached", "name": "", "height": null, "height_m": null, "levels": null, "tract_id": "40143009006", "tract_name": "90.06", "tags": {"building": "detached"}}}, {"type": "Feature", "geometry": {"type": "Polygon", "coordinates": [[[-95.8507949, 36.1144746], [-95.8507947, 36.1146099], [-95.8506782, 36.1146097], [-95.8506782, 36.1146172], [-95.8505893, 36.1146171], [-95.8505894, 36.1145516], [-95.850661, 36.1145517], [-95.8506611, 36.1144745], [-95.8507949, 36.1144746]]]}, "properties": {"osm_id": 617775681, "building": "detached", "name": "", "height": null, "height_m": null, "levels": null, "tract_id": "40143009006", "tract_name": "90.06", "tags": {"building": "detached"}}}, {"type": "Feature", "geometry": {"type": "Polygon", "coordinates": [[[-95.8507109, 36.1143059], [-95.850714, 36.1144534], [-95.8505846, 36.1144552], [-95.8505838, 36.1144175], [-95.8505697, 36.1144177], [-95.8505682, 36.1143475], [-95.850588, 36.1143472], [-95.8505871, 36.1143077], [-95.8507109, 36.1143059]]]}, "properties": {"osm_id": 617775682, "building": "detached", "name": "", "height": null, "height_m": null, "levels": null, "tract_id": "40143009006", "tract_name": "90.06", "tags": {"building": "detached"}}}, {"type": "Feature", "geometry": {"type": "Polygon", "coordinates": [[[-95.8507954, 36.1142613], [-95.8507956, 36.1142009], [-95.850771, 36.1142009], [-95.8507711, 36.1141747], [-95.8507235, 36.1141746], [-95.8507236, 36.114129], [-95.8506205, 36.1141288], [-95.8506202, 36.1142082], [-95.8505947, 36.1142081], [-95.8505945, 36.1142806], [-95.850759, 36.114281], [-95.850759, 36.1142612], [-95.8507954, 36.1142613]]]}, "properties": {"osm_id": 617775683, "building": "detached", "name": "", "height": null, "height_m": null, "levels": null, "tract_id": "40143009006", "tract_name": "90.06", "tags": {"building": "detached"}}}, {"type": "Feature", "geometry": {"type": "Polygon", "coordinates": [[[-95.8507708, 36.114079], [-95.8507093, 36.1140791], [-95.8507095, 36.1141091], [-95.8505884, 36.1141094], [-95.8505879, 36.1139948], [-95.8507062, 36.1139945], [-95.8507061, 36.1139789], [-95.8507703, 36.1139787], [-95.8507708, 36.114079]]]}, "properties": {"osm_id": 617775684, "building": "detached", "name": "", "height": null, "height_m": null, "levels": null, "tract_id": "40143009006", "tract_name": "90.06", "tags": {"building": "detached"}}}, {"type": "Feature", "geometry": {"type": "Polygon", "coordinates": [[[-95.8508583, 36.1143532], [-95.8508593, 36.1143161], [-95.8508198, 36.1143154], [-95.8508188, 36.1143525], [-95.8508583, 36.1143532]]]}, "properties": {"osm_id": 617775685, "building": "shed", "name": "", "height": null, "height_m": null, "levels": null, "tract_id": "40143009006", "tract_name": "90.06", "tags": {"building": "shed"}}}, {"type": "Feature", "geometry": {"type": "Polygon", "coordinates": [[[-95.8502885, 36.1098854], [-95.8502871, 36.1097298], [-95.8502335, 36.1097301], [-95.8502338, 36.1097575], [-95.8501308, 36.1097581], [-95.8501317, 36.1098537], [-95.8502095, 36.1098533], [-95.8502098, 36.1098859], [-95.8502885, 36.1098854]]]}, "properties": {"osm_id": 624033916, "building": "yes", "name": "", "height": null, "height_m": null, "levels": null, "tract_id": "40143009006", "tract_name": "90.06", "tags": {"building": "yes"}}}, {"type": "Feature", "geometry": {"type": "Polygon", "coordinates": [[[-95.8500839, 36.1098868], [-95.8500853, 36.1097787], [-95.8499066, 36.1097772], [-95.8499054, 36.1098679], [-95.8500135, 36.1098688], [-95.8500133, 36.1098862], [-95.8500839, 36.1098868]]]}, "properties": {"osm_id": 624033917, "building": "yes", "name": "", "height": null, "height_m": null, "levels": null, "tract_id": "40143009006", "tract_name": "90.06", "tags": {"building": "yes"}}}, {"type": "Feature", "geometry": {"type": "Polygon", "coordinates": [[[-95.8498695, 36.1098795], [-95.8498716, 36.1097609], [-95.8497075, 36.1097591], [-95.8497059, 36.1098509], [-95.8497946, 36.1098519], [-95.8497941, 36.1098786], [-95.8498695, 36.1098795]]]}, "properties": {"osm_id": 624033918, "building": "yes", "name": "", "height": null, "height_m": null, "levels": null, "tract_id": "40143009006", "tract_name": "90.06", "tags": {"building": "yes"}}}, {"type": "Feature", "geometry": {"type": "Polygon", "coordinates": [[[-95.8496683, 36.1098796], [-95.8496663, 36.1097428], [-95.8495393, 36.109744], [-95.8495399, 36.1097806], [-95.8494926, 36.1097811], [-95.849494, 36.1098698], [-95.849572, 36.1098691], [-95.8495721, 36.1098805], [-95.8496683, 36.1098796]]]}, "properties": {"osm_id": 624033919, "building": "yes", "name": "", "height": null, "height_m": null, "levels": null, "tract_id": "40143009006", "tract_name": "90.06", "tags": {"building": "yes"}}}, {"type": "Feature", "geometry": {"type": "Polygon", "coordinates": [[[-95.8494642, 36.1098836], [-95.8494601, 36.109773], [-95.8492826, 36.1097773], [-95.8492859, 36.1098662], [-95.8493895, 36.1098637], [-95.8493903, 36.1098854], [-95.8494642, 36.1098836]]]}, "properties": {"osm_id": 624033920, "building": "yes", "name": "", "height": null, "height_m": null, "levels": null, "tract_id": "40143009006", "tract_name": "90.06", "tags": {"building": "yes"}}}, {"type": "Feature", "geometry": {"type": "Polygon", "coordinates": [[[-95.8490523, 36.1098851], [-95.8490482, 36.109775], [-95.8490159, 36.1097758], [-95.8490146, 36.1097412], [-95.8489442, 36.1097429], [-95.8489455, 36.1097784], [-95.8488588, 36.1097805], [-95.8488629, 36.1098897], [-95.8490523, 36.1098851]]]}, "properties": {"osm_id": 624033921, "building": "yes", "name": "", "height": null, "height_m": null, "levels": null, "tract_id": "40143009006", "tract_name": "90.06", "tags": {"building": "yes"}}}, {"type": "Feature", "geometry": {"type": "Polygon", "coordinates": [[[-95.8488378, 36.1098843], [-95.848834, 36.1097779], [-95.8486634, 36.1097819], [-95.8486671, 36.1098882], [-95.8488378, 36.1098843]]]}, "properties": {"osm_id": 624033922, "building": "yes", "name": "", "height": null, "height_m": null, "levels": null, "tract_id": "40143009006", "tract_name": "90.06", "tags": {"building": "yes"}}}, {"type": "Feature", "geometry": {"type": "Polygon", "coordinates": [[[-95.8486295, 36.1098778], [-95.8486282, 36.1097776], [-95.8484524, 36.109779], [-95.8484534, 36.1098638], [-95.8485345, 36.1098631], [-95.8485347, 36.1098786], [-95.8486295, 36.1098778]]]}, "properties": {"osm_id": 624033923, "building": "yes", "name": "", "height": null, "height_m": null, "levels": null, "tract_id": "40143009006", "tract_name": "90.06", "tags": {"building": "yes"}}}, {"type": "Feature", "geometry": {"type": "Polygon", "coordinates": [[[-95.8484236, 36.1098823], [-95.8484217, 36.1097548], [-95.8482435, 36.1097565], [-95.8482449, 36.1098475], [-95.8483416, 36.1098466], [-95.8483421, 36.1098831], [-95.8484236, 36.1098823]]]}, "properties": {"osm_id": 624033924, "building": "yes", "name": "", "height": null, "height_m": null, "levels": null, "tract_id": "40143009006", "tract_name": "90.06", "tags": {"building": "yes"}}}, {"type": "Feature", "geometry": {"type": "Polygon", "coordinates": [[[-95.8482165, 36.1098791], [-95.8482152, 36.1097778], [-95.8480379, 36.1097793], [-95.848039, 36.1098652], [-95.8481417, 36.1098643], [-95.8481419, 36.1098798], [-95.8482165, 36.1098791]]]}, "properties": {"osm_id": 624033925, "building": "yes", "name": "", "height": null, "height_m": null, "levels": null, "tract_id": "40143009006", "tract_name": "90.06", "tags": {"building": "yes"}}}, {"type": "Feature", "geometry": {"type": "Polygon", "coordinates": [[[-95.8479969, 36.1098784], [-95.8479962, 36.1097536], [-95.847823, 36.1097542], [-95.8478236, 36.1098438], [-95.8479083, 36.1098435], [-95.8479085, 36.1098787], [-95.8479969, 36.1098784]]]}, "properties": {"osm_id": 624033926, "building": "yes", "name": "", "height": null, "height_m": null, "levels": null, "tract_id": "40143009006", "tract_name": "90.06", "tags": {"building": "yes"}}}, {"type": "Feature", "geometry": {"type": "Polygon", "coordinates": [[[-95.8478049, 36.1098777], [-95.847803, 36.1097762], [-95.8476159, 36.1097786], [-95.8476176, 36.1098639], [-95.8477187, 36.1098626], [-95.847719, 36.1098787], [-95.8478049, 36.1098777]]]}, "properties": {"osm_id": 624033927, "building": "yes", "name": "", "height": null, "height_m": null, "levels": null, "tract_id": "40143009006", "tract_name": "90.06", "tags": {"building": "yes"}}}, {"type": "Feature", "geometry": {"type": "Polygon", "coordinates": [[[-95.8475941, 36.1098816], [-95.8475928, 36.1097787], [-95.8474198, 36.1097802], [-95.8474208, 36.1098602], [-95.8475071, 36.1098594], [-95.8475074, 36.1098823], [-95.8475941, 36.1098816]]]}, "properties": {"osm_id": 624033928, "building": "yes", "name": "", "height": null, "height_m": null, "levels": null, "tract_id": "40143009006", "tract_name": "90.06", "tags": {"building": "yes"}}}, {"type": "Feature", "geometry": {"type": "Polygon", "coordinates": [[[-95.8473728, 36.1098687], [-95.8473727, 36.109794], [-95.8473086, 36.1097941], [-95.8473086, 36.1097489], [-95.8472561, 36.1097489], [-95.8472562, 36.1097925], [-95.8472004, 36.1097926], [-95.8472006, 36.109878], [-95.8472876, 36.1098779], [-95.8472876, 36.1098688], [-95.8473728, 36.1098687]]]}, "properties": {"osm_id": 624033929, "building": "yes", "name": "", "height": null, "height_m": null, "levels": null, "tract_id": "40143009006", "tract_name": "90.06", "tags": {"building": "yes"}}}, {"type": "Feature", "geometry": {"type": "Polygon", "coordinates": [[[-95.8471746, 36.10988], [-95.84717, 36.1097533], [-95.8469973, 36.1097574], [-95.8470005, 36.1098435], [-95.8470757, 36.1098417], [-95.8470772, 36.1098824], [-95.8471746, 36.10988]]]}, "properties": {"osm_id": 624033930, "building": "yes", "name": "", "height": null, "height_m": null, "levels": null, "tract_id": "40143009006", "tract_name": "90.06", "tags": {"building": "yes"}}}, {"type": "Feature", "geometry": {"type": "Polygon", "coordinates": [[[-95.8469661, 36.1098767], [-95.8469678, 36.1097688], [-95.8467845, 36.1097669], [-95.846783, 36.1098597], [-95.8468794, 36.1098607], [-95.8468791, 36.1098758], [-95.8469661, 36.1098767]]]}, "properties": {"osm_id": 624033931, "building": "yes", "name": "", "height": null, "height_m": null, "levels": null, "tract_id": "40143009006", "tract_name": "90.06", "tags": {"building": "yes"}}}, {"type": "Feature", "geometry": {"type": "Polygon", "coordinates": [[[-95.8467623, 36.1098804], [-95.8467627, 36.1097744], [-95.8465807, 36.1097739], [-95.8465803, 36.109861], [-95.8466695, 36.1098612], [-95.8466694, 36.1098802], [-95.8467623, 36.1098804]]]}, "properties": {"osm_id": 624033932, "building": "yes", "name": "", "height": null, "height_m": null, "levels": null, "tract_id": "40143009006", "tract_name": "90.06", "tags": {"building": "yes"}}}, {"type": "Feature", "geometry": {"type": "Polygon", "coordinates": [[[-95.8465529, 36.1098745], [-95.8465519, 36.1097731], [-95.8465069, 36.1097734], [-95.8465067, 36.1097514], [-95.8464637, 36.1097517], [-95.8464639, 36.1097692], [-95.846367, 36.1097698], [-95.8463678, 36.1098594], [-95.8464661, 36.1098588], [-95.8464663, 36.1098751], [-95.8465529, 36.1098745]]]}, "properties": {"osm_id": 624033933, "building": "yes", "name": "", "height": null, "height_m": null, "levels": null, "tract_id": "40143009006", "tract_name": "90.06", "tags": {"building": "yes"}}}, {"type": "Feature", "geometry": {"type": "Polygon", "coordinates": [[[-95.8463474, 36.1098753], [-95.8463457, 36.109704], [-95.8462479, 36.1097046], [-95.8462485, 36.1097733], [-95.8461629, 36.1097738], [-95.8461637, 36.1098577], [-95.8462496, 36.1098572], [-95.8462498, 36.1098759], [-95.8463474, 36.1098753]]]}, "properties": {"osm_id": 624033934, "building": "yes", "name": "", "height": null, "height_m": null, "levels": null, "tract_id": "40143009006", "tract_name": "90.06", "tags": {"building": "yes"}}}, {"type": "Feature", "geometry": {"type": "Polygon", "coordinates": [[[-95.8463484, 36.1095231], [-95.8463471, 36.109386], [-95.8462678, 36.1093865], [-95.8462681, 36.1094196], [-95.8462016, 36.10942], [-95.8462027, 36.109524], [-95.8463484, 36.1095231]]]}, "properties": {"osm_id": 624033935, "building": "yes", "name": "", "height": null, "height_m": null, "levels": null, "tract_id": "40143009006", "tract_name": "90.06", "tags": {"building": "yes"}}}, {"type": "Feature", "geometry": {"type": "Polygon", "coordinates": [[[-95.8465586, 36.1094835], [-95.8465576, 36.1093899], [-95.8463823, 36.1093912], [-95.8463833, 36.1094848], [-95.8465586, 36.1094835]]]}, "properties": {"osm_id": 624033936, "building": "yes", "name": "", "height": null, "height_m": null, "levels": null, "tract_id": "40143009006", "tract_name": "90.06", "tags": {"building": "yes"}}}, {"type": "Feature", "geometry": {"type": "Polygon", "coordinates": [[[-95.8467543, 36.1095266], [-95.8467513, 36.1093894], [-95.8466693, 36.1093906], [-95.8466701, 36.1094282], [-95.8465901, 36.1094293], [-95.8465923, 36.1095289], [-95.8467543, 36.1095266]]]}, "properties": {"osm_id": 624033937, "building": "yes", "name": "", "height": null, "height_m": null, "levels": null, "tract_id": "40143009006", "tract_name": "90.06", "tags": {"building": "yes"}}}, {"type": "Feature", "geometry": {"type": "Polygon", "coordinates": [[[-95.8469683, 36.1094795], [-95.8469661, 36.1093834], [-95.8467887, 36.1093861], [-95.846791, 36.1094822], [-95.8469683, 36.1094795]]]}, "properties": {"osm_id": 624033938, "building": "yes", "name": "", "height": null, "height_m": null, "levels": null, "tract_id": "40143009006", "tract_name": "90.06", "tags": {"building": "yes"}}}, {"type": "Feature", "geometry": {"type": "Polygon", "coordinates": [[[-95.84717, 36.1095487], [-95.8471675, 36.1093932], [-95.8470802, 36.1093941], [-95.8470807, 36.1094268], [-95.8470116, 36.1094275], [-95.8470132, 36.1095261], [-95.8471068, 36.1095251], [-95.8471072, 36.1095494], [-95.84717, 36.1095487]]]}, "properties": {"osm_id": 624033939, "building": "yes", "name": "", "height": null, "height_m": null, "levels": null, "tract_id": "40143009006", "tract_name": "90.06", "tags": {"building": "yes"}}}, {"type": "Feature", "geometry": {"type": "Polygon", "coordinates": [[[-95.8473817, 36.1094864], [-95.8473835, 36.1093861], [-95.847313, 36.1093853], [-95.8473127, 36.1094022], [-95.8472086, 36.109401], [-95.8472069, 36.1094894], [-95.8472399, 36.1094898], [-95.8472388, 36.1095532], [-95.8472855, 36.1095537], [-95.8472863, 36.1095116], [-95.8473461, 36.1095123], [-95.8473466, 36.109486], [-95.8473817, 36.1094864]]]}, "properties": {"osm_id": 624033940, "building": "yes", "name": "", "height": null, "height_m": null, "levels": null, "tract_id": "40143009006", "tract_name": "90.06", "tags": {"building": "yes"}}}, {"type": "Feature", "geometry": {"type": "Polygon", "coordinates": [[[-95.8475673, 36.1095431], [-95.8475679, 36.1095164], [-95.8475801, 36.1095139], [-95.8475826, 36.1093904], [-95.8474991, 36.1093893], [-95.8474984, 36.1094233], [-95.8474168, 36.1094222], [-95.8474149, 36.1095151], [-95.8475169, 36.1095165], [-95.8475164, 36.1095424], [-95.8475673, 36.1095431]]]}, "properties": {"osm_id": 624033941, "building": "yes", "name": "", "height": null, "height_m": null, "levels": null, "tract_id": "40143009006", "tract_name": "90.06", "tags": {"building": "yes"}}}, {"type": "Feature", "geometry": {"type": "Polygon", "coordinates": [[[-95.8477976, 36.1094902], [-95.8477951, 36.1093911], [-95.8477183, 36.1093924], [-95.8477187, 36.1094059], [-95.8476181, 36.1094075], [-95.8476202, 36.1094931], [-95.8477976, 36.1094902]]]}, "properties": {"osm_id": 624033942, "building": "yes", "name": "", "height": null, "height_m": null, "levels": null, "tract_id": "40143009006", "tract_name": "90.06", "tags": {"building": "yes"}}}, {"type": "Feature", "geometry": {"type": "Polygon", "coordinates": [[[-95.8480114, 36.1094945], [-95.8480106, 36.1093919], [-95.8479055, 36.1093924], [-95.8479055, 36.1093992], [-95.8478268, 36.1093996], [-95.8478276, 36.1094955], [-95.8480114, 36.1094945]]]}, "properties": {"osm_id": 624033943, "building": "yes", "name": "", "height": null, "height_m": null, "levels": null, "tract_id": "40143009006", "tract_name": "90.06", "tags": {"building": "yes"}}}, {"type": "Feature", "geometry": {"type": "Polygon", "coordinates": [[[-95.8482174, 36.1094918], [-95.8482153, 36.1093924], [-95.8481137, 36.1093932], [-95.8481157, 36.1094006], [-95.8480364, 36.1094022], [-95.8480385, 36.1094909], [-95.8482174, 36.1094918]]]}, "properties": {"osm_id": 624033944, "building": "yes", "name": "", "height": null, "height_m": null, "levels": null, "tract_id": "40143009006", "tract_name": "90.06", "tags": {"building": "yes"}}}, {"type": "Feature", "geometry": {"type": "Polygon", "coordinates": [[[-95.848423, 36.1094559], [-95.8484221, 36.1093879], [-95.8482401, 36.1093894], [-95.8482417, 36.1095164], [-95.8483504, 36.1095155], [-95.8483502, 36.1094972], [-95.8483894, 36.1094969], [-95.8483889, 36.1094562], [-95.848423, 36.1094559]]]}, "properties": {"osm_id": 624033945, "building": "yes", "name": "", "height": null, "height_m": null, "levels": null, "tract_id": "40143009006", "tract_name": "90.06", "tags": {"building": "yes"}}}, {"type": "Feature", "geometry": {"type": "Polygon", "coordinates": [[[-95.8485149, 36.1097034], [-95.8485138, 36.1096554], [-95.8484645, 36.1096561], [-95.8484656, 36.1097042], [-95.8485149, 36.1097034]]]}, "properties": {"osm_id": 624033946, "building": "yes", "name": "", "height": null, "height_m": null, "levels": null, "tract_id": "40143009006", "tract_name": "90.06", "tags": {"building": "yes"}}}, {"type": "Feature", "geometry": {"type": "Polygon", "coordinates": [[[-95.8484237, 36.1095886], [-95.8484237, 36.1095566], [-95.8483901, 36.1095566], [-95.8483901, 36.1095886], [-95.8484237, 36.1095886]]]}, "properties": {"osm_id": 624033947, "building": "yes", "name": "", "height": null, "height_m": null, "levels": null, "tract_id": "40143009006", "tract_name": "90.06", "tags": {"building": "yes"}}}, {"type": "Feature", "geometry": {"type": "Polygon", "coordinates": [[[-95.8486276, 36.1095054], [-95.8486294, 36.1094151], [-95.8485184, 36.1094137], [-95.8485189, 36.1093877], [-95.8484545, 36.1093869], [-95.848451, 36.1095665], [-95.8485615, 36.1095679], [-95.8485627, 36.1095045], [-95.8486276, 36.1095054]]]}, "properties": {"osm_id": 624033948, "building": "yes", "name": "", "height": null, "height_m": null, "levels": null, "tract_id": "40143009006", "tract_name": "90.06", "tags": {"building": "yes"}}}, {"type": "Feature", "geometry": {"type": "Polygon", "coordinates": [[[-95.848838, 36.1095087], [-95.8488389, 36.1093903], [-95.848756, 36.1093899], [-95.8487557, 36.109425], [-95.8486768, 36.1094246], [-95.8486762, 36.1095078], [-95.848838, 36.1095087]]]}, "properties": {"osm_id": 624033949, "building": "yes", "name": "", "height": null, "height_m": null, "levels": null, "tract_id": "40143009006", "tract_name": "90.06", "tags": {"building": "yes"}}}, {"type": "Feature", "geometry": {"type": "Polygon", "coordinates": [[[-95.8490474, 36.1095317], [-95.8490453, 36.1093919], [-95.8489668, 36.1093927], [-95.8489671, 36.1094151], [-95.8488686, 36.109416], [-95.84887, 36.109509], [-95.8489439, 36.1095083], [-95.8489443, 36.1095327], [-95.8490474, 36.1095317]]]}, "properties": {"osm_id": 624033950, "building": "yes", "name": "", "height": null, "height_m": null, "levels": null, "tract_id": "40143009006", "tract_name": "90.06", "tags": {"building": "yes"}}}, {"type": "Feature", "geometry": {"type": "Polygon", "coordinates": [[[-95.8491822, 36.1095141], [-95.8491815, 36.109457], [-95.84925, 36.1094564], [-95.8492492, 36.1093938], [-95.8490907, 36.1093951], [-95.8490922, 36.1095149], [-95.8491822, 36.1095141]]]}, "properties": {"osm_id": 624033951, "building": "yes", "name": "", "height": null, "height_m": null, "levels": null, "tract_id": "40143009006", "tract_name": "90.06", "tags": {"building": "yes"}}}, {"type": "Feature", "geometry": {"type": "Polygon", "coordinates": [[[-95.8496776, 36.1094981], [-95.849677, 36.1093931], [-95.8495695, 36.1093935], [-95.8495696, 36.1094183], [-95.8494857, 36.1094186], [-95.8494861, 36.1094989], [-95.8496776, 36.1094981]]]}, "properties": {"osm_id": 624033952, "building": "yes", "name": "", "height": null, "height_m": null, "levels": null, "tract_id": "40143009006", "tract_name": "90.06", "tags": {"building": "yes"}}}, {"type": "Feature", "geometry": {"type": "Polygon", "coordinates": [[[-95.8498605, 36.1094907], [-95.8498591, 36.1093922], [-95.8497148, 36.1093935], [-95.8497162, 36.109492], [-95.8498605, 36.1094907]]]}, "properties": {"osm_id": 624033953, "building": "yes", "name": "", "height": null, "height_m": null, "levels": null, "tract_id": "40143009006", "tract_name": "90.06", "tags": {"building": "yes"}}}, {"type": "Feature", "geometry": {"type": "Polygon", "coordinates": [[[-95.8502607, 36.109575], [-95.8502602, 36.1095418], [-95.8502712, 36.1095417], [-95.8502704, 36.1094876], [-95.8502571, 36.1094878], [-95.8502566, 36.1094545], [-95.850239, 36.1094547], [-95.850238, 36.1093907], [-95.8501635, 36.1093914], [-95.8501662, 36.1095759], [-95.8502607, 36.109575]]]}, "properties": {"osm_id": 624033954, "building": "yes", "name": "", "height": null, "height_m": null, "levels": null, "tract_id": "40143009006", "tract_name": "90.06", "tags": {"building": "yes"}}}, {"type": "Feature", "geometry": {"type": "Polygon", "coordinates": [[[-95.8502992, 36.1091217], [-95.8502986, 36.1090186], [-95.850291, 36.1090187], [-95.8502907, 36.1089787], [-95.8501989, 36.108979], [-95.8501991, 36.1090175], [-95.8501215, 36.1090178], [-95.850122, 36.1091062], [-95.8502243, 36.1091058], [-95.8502244, 36.109122], [-95.8502992, 36.1091217]]]}, "properties": {"osm_id": 624033955, "building": "yes", "name": "", "height": null, "height_m": null, "levels": null, "tract_id": "40143009006", "tract_name": "90.06", "tags": {"building": "yes"}}}, {"type": "Feature", "geometry": {"type": "Polygon", "coordinates": [[[-95.8500915, 36.1091201], [-95.8500919, 36.1090146], [-95.8500424, 36.1090145], [-95.8500426, 36.108976], [-95.8499812, 36.1089758], [-95.849981, 36.1090123], [-95.849914, 36.1090121], [-95.8499137, 36.1090961], [-95.8500009, 36.1090963], [-95.8500008, 36.1091199], [-95.8500915, 36.1091201]]]}, "properties": {"osm_id": 624034511, "building": "yes", "name": "", "height": null, "height_m": null, "levels": null, "tract_id": "40143009006", "tract_name": "90.06", "tags": {"building": "yes"}}}, {"type": "Feature", "geometry": {"type": "Polygon", "coordinates": [[[-95.8498873, 36.1091222], [-95.8498871, 36.1090171], [-95.8497088, 36.1090174], [-95.849709, 36.1091041], [-95.8498104, 36.1091039], [-95.8498105, 36.1091223], [-95.8498873, 36.1091222]]]}, "properties": {"osm_id": 624034512, "building": "yes", "name": "", "height": null, "height_m": null, "levels": null, "tract_id": "40143009006", "tract_name": "90.06", "tags": {"building": "yes"}}}, {"type": "Feature", "geometry": {"type": "Polygon", "coordinates": [[[-95.8496735, 36.1090967], [-95.8496745, 36.1090032], [-95.8496436, 36.109003], [-95.8496439, 36.1089744], [-95.8495759, 36.1089739], [-95.8495757, 36.1090009], [-95.8495, 36.1090004], [-95.8494987, 36.109121], [-95.8495602, 36.1091214], [-95.8495605, 36.1090959], [-95.8496735, 36.1090967]]]}, "properties": {"osm_id": 624034513, "building": "yes", "name": "", "height": null, "height_m": null, "levels": null, "tract_id": "40143009006", "tract_name": "90.06", "tags": {"building": "yes"}}}, {"type": "Feature", "geometry": {"type": "Polygon", "coordinates": [[[-95.8491953, 36.1091212], [-95.8491953, 36.1091084], [-95.8491837, 36.1091084], [-95.8491837, 36.1090662], [-95.8492336, 36.1090662], [-95.8492336, 36.1089997], [-95.8491447, 36.1089997], [-95.8491447, 36.1089718], [-95.8491001, 36.1089718], [-95.8491002, 36.1089971], [-95.849091, 36.1089972], [-95.8490911, 36.1091213], [-95.8491953, 36.1091212]]]}, "properties": {"osm_id": 624034514, "building": "yes", "name": "", "height": null, "height_m": null, "levels": null, "tract_id": "40143009006", "tract_name": "90.06", "tags": {"building": "yes"}}}, {"type": "Feature", "geometry": {"type": "Polygon", "coordinates": [[[-95.8490544, 36.1091186], [-95.8490516, 36.1090116], [-95.848874, 36.1090145], [-95.8488764, 36.1091037], [-95.8489582, 36.1091023], [-95.8489587, 36.1091202], [-95.8490544, 36.1091186]]]}, "properties": {"osm_id": 624034515, "building": "yes", "name": "", "height": null, "height_m": null, "levels": null, "tract_id": "40143009006", "tract_name": "90.06", "tags": {"building": "yes"}}}, {"type": "Feature", "geometry": {"type": "Polygon", "coordinates": [[[-95.8488489, 36.10912], [-95.8488471, 36.1090112], [-95.8486726, 36.1090131], [-95.8486739, 36.1090939], [-95.8487483, 36.1090931], [-95.8487488, 36.1091211], [-95.8488489, 36.10912]]]}, "properties": {"osm_id": 624034516, "building": "yes", "name": "", "height": null, "height_m": null, "levels": null, "tract_id": "40143009006", "tract_name": "90.06", "tags": {"building": "yes"}}}, {"type": "Feature", "geometry": {"type": "Polygon", "coordinates": [[[-95.8486369, 36.1091163], [-95.8486342, 36.1089976], [-95.8484618, 36.1090001], [-95.8484636, 36.1090805], [-95.8485609, 36.1090791], [-95.8485618, 36.1091174], [-95.8486369, 36.1091163]]]}, "properties": {"osm_id": 624034517, "building": "yes", "name": "", "height": null, "height_m": null, "levels": null, "tract_id": "40143009006", "tract_name": "90.06", "tags": {"building": "yes"}}}, {"type": "Feature", "geometry": {"type": "Polygon", "coordinates": [[[-95.8484317, 36.1090864], [-95.8484321, 36.1089884], [-95.8482626, 36.1089879], [-95.8482625, 36.1090121], [-95.8482519, 36.1090121], [-95.8482515, 36.1091136], [-95.8482655, 36.1091061], [-95.8482654, 36.1091199], [-95.848316, 36.1091201], [-95.8483161, 36.1090861], [-95.8484317, 36.1090864]]]}, "properties": {"osm_id": 624034518, "building": "yes", "name": "", "height": null, "height_m": null, "levels": null, "tract_id": "40143009006", "tract_name": "90.06", "tags": {"building": "yes"}}}, {"type": "Feature", "geometry": {"type": "Polygon", "coordinates": [[[-95.8482196, 36.1091177], [-95.8482195, 36.1089972], [-95.8480494, 36.1089973], [-95.8480494, 36.1090919], [-95.8481391, 36.1090919], [-95.8481391, 36.1091177], [-95.8482196, 36.1091177]]]}, "properties": {"osm_id": 624034519, "building": "yes", "name": "", "height": null, "height_m": null, "levels": null, "tract_id": "40143009006", "tract_name": "90.06", "tags": {"building": "yes"}}}, {"type": "Feature", "geometry": {"type": "Polygon", "coordinates": [[[-95.8480162, 36.1091188], [-95.8480149, 36.1090115], [-95.847841, 36.1090128], [-95.847842, 36.1090942], [-95.847914, 36.1090936], [-95.8479143, 36.1091195], [-95.8480162, 36.1091188]]]}, "properties": {"osm_id": 624034520, "building": "yes", "name": "", "height": null, "height_m": null, "levels": null, "tract_id": "40143009006", "tract_name": "90.06", "tags": {"building": "yes"}}}, {"type": "Feature", "geometry": {"type": "Polygon", "coordinates": [[[-95.8473798, 36.1091175], [-95.8473797, 36.1089921], [-95.8472135, 36.1089921], [-95.8472135, 36.1090829], [-95.8473012, 36.1090829], [-95.8473012, 36.1091175], [-95.8473798, 36.1091175]]]}, "properties": {"osm_id": 624034521, "building": "yes", "name": "", "height": null, "height_m": null, "levels": null, "tract_id": "40143009006", "tract_name": "90.06", "tags": {"building": "yes"}}}, {"type": "Feature", "geometry": {"type": "Polygon", "coordinates": [[[-95.8502965, 36.1088417], [-95.8502965, 36.1087674], [-95.8501933, 36.1087674], [-95.8501933, 36.1087247], [-95.8503005, 36.1087247], [-95.8503005, 36.1086319], [-95.8501173, 36.1086319], [-95.8501173, 36.1088417], [-95.8502965, 36.1088417]]]}, "properties": {"osm_id": 624034522, "building": "yes", "name": "", "height": null, "height_m": null, "levels": null, "tract_id": "40143009006", "tract_name": "90.06", "tags": {"addr:city": "Tulsa", "addr:country": "US", "addr:housenumber": "11407", "addr:postcode": "74146", "addr:state": "OK", "addr:street": "East 38th Street South", "building": "yes"}}}, {"type": "Feature", "geometry": {"type": "Polygon", "coordinates": [[[-95.8500868, 36.1087481], [-95.8500862, 36.1086296], [-95.8499967, 36.1086299], [-95.8499969, 36.1086658], [-95.8499074, 36.1086661], [-95.8499079, 36.1087487], [-95.8500868, 36.1087481]]]}, "properties": {"osm_id": 624034523, "building": "yes", "name": "", "height": null, "height_m": null, "levels": null, "tract_id": "40143009006", "tract_name": "90.06", "tags": {"addr:city": "Tulsa", "addr:country": "US", "addr:housenumber": "11411", "addr:postcode": "74146", "addr:state": "OK", "addr:street": "East 38th Street South", "building": "yes"}}}, {"type": "Feature", "geometry": {"type": "Polygon", "coordinates": [[[-95.8498776, 36.1087427], [-95.8498773, 36.1086336], [-95.8498044, 36.1086337], [-95.8498045, 36.1086544], [-95.8496988, 36.1086546], [-95.849699, 36.108743], [-95.8498776, 36.1087427]]]}, "properties": {"osm_id": 624034524, "building": "yes", "name": "", "height": null, "height_m": null, "levels": null, "tract_id": "40143009006", "tract_name": "90.06", "tags": {"addr:city": "Tulsa", "addr:country": "US", "addr:housenumber": "11417", "addr:postcode": "74146", "addr:state": "OK", "addr:street": "East 38th Street South", "building": "yes"}}}, {"type": "Feature", "geometry": {"type": "Polygon", "coordinates": [[[-95.8496643, 36.1087652], [-95.8496672, 36.1086288], [-95.849585, 36.1086276], [-95.8495846, 36.1086459], [-95.8495016, 36.1086447], [-95.8494997, 36.1087338], [-95.8495918, 36.1087351], [-95.8495912, 36.1087641], [-95.8496643, 36.1087652]]]}, "properties": {"osm_id": 624034525, "building": "yes", "name": "", "height": null, "height_m": null, "levels": null, "tract_id": "40143009006", "tract_name": "90.06", "tags": {"addr:city": "Tulsa", "addr:country": "US", "addr:housenumber": "11421", "addr:postcode": "74146", "addr:state": "OK", "addr:street": "East 38th Street South", "building": "yes"}}}, {"type": "Feature", "geometry": {"type": "Polygon", "coordinates": [[[-95.8494604, 36.1087762], [-95.8494611, 36.1086275], [-95.8493834, 36.1086273], [-95.849383, 36.1086921], [-95.8492942, 36.1086918], [-95.8492938, 36.1087757], [-95.8494604, 36.1087762]]]}, "properties": {"osm_id": 624034526, "building": "yes", "name": "", "height": null, "height_m": null, "levels": null, "tract_id": "40143009006", "tract_name": "90.06", "tags": {"addr:city": "Tulsa", "addr:country": "US", "addr:housenumber": "11427", "addr:postcode": "74146", "addr:state": "OK", "addr:street": "East 38th Street South", "building": "yes"}}}, {"type": "Feature", "geometry": {"type": "Polygon", "coordinates": [[[-95.848844, 36.1086931], [-95.8488434, 36.108627], [-95.8486655, 36.108628], [-95.8486663, 36.1087182], [-95.8487603, 36.1087177], [-95.8487601, 36.1086936], [-95.848844, 36.1086931]]]}, "properties": {"osm_id": 624034527, "building": "yes", "name": "", "height": null, "height_m": null, "levels": null, "tract_id": "40143009006", "tract_name": "90.06", "tags": {"addr:city": "Tulsa", "addr:country": "US", "addr:housenumber": "11441", "addr:postcode": "74146", "addr:state": "OK", "addr:street": "East 38th Street South", "building": "yes"}}}, {"type": "Feature", "geometry": {"type": "Polygon", "coordinates": [[[-95.8486314, 36.1087435], [-95.8486305, 36.108656], [-95.8485128, 36.1086569], [-95.8485126, 36.1086332], [-95.8484592, 36.1086336], [-95.8484604, 36.1087447], [-95.8486314, 36.1087435]]]}, "properties": {"osm_id": 624034528, "building": "yes", "name": "", "height": null, "height_m": null, "levels": null, "tract_id": "40143009006", "tract_name": "90.06", "tags": {"addr:city": "Tulsa", "addr:country": "US", "addr:housenumber": "11445", "addr:postcode": "74146", "addr:state": "OK", "addr:street": "East 38th Street South", "building": "yes"}}}, {"type": "Feature", "geometry": {"type": "Polygon", "coordinates": [[[-95.8484269, 36.1087333], [-95.8484267, 36.1086301], [-95.8483316, 36.1086303], [-95.8483317, 36.1086509], [-95.8482487, 36.108651], [-95.8482489, 36.1087336], [-95.8484269, 36.1087333]]]}, "properties": {"osm_id": 624034529, "building": "yes", "name": "", "height": null, "height_m": null, "levels": null, "tract_id": "40143009006", "tract_name": "90.06", "tags": {"addr:city": "Tulsa", "addr:country": "US", "addr:housenumber": "11451", "addr:postcode": "74146", "addr:state": "OK", "addr:street": "East 38th Street South", "building": "yes"}}}, {"type": "Feature", "geometry": {"type": "Polygon", "coordinates": [[[-95.8482142, 36.108738], [-95.8482142, 36.1086262], [-95.8481308, 36.1086262], [-95.8481308, 36.1086598], [-95.8480503, 36.1086598], [-95.8480503, 36.108738], [-95.8482142, 36.108738]]]}, "properties": {"osm_id": 624034530, "building": "yes", "name": "", "height": null, "height_m": null, "levels": null, "tract_id": "40143009006", "tract_name": "90.06", "tags": {"addr:city": "Tulsa", "addr:country": "US", "addr:housenumber": "11455", "addr:postcode": "74146", "addr:state": "OK", "addr:street": "East 38th Street South", "building": "yes"}}}, {"type": "Feature", "geometry": {"type": "Polygon", "coordinates": [[[-95.8480052, 36.1087477], [-95.8480021, 36.1086513], [-95.8478961, 36.1086536], [-95.8478954, 36.1086304], [-95.8478308, 36.1086317], [-95.8478344, 36.1087455], [-95.8478824, 36.1087445], [-95.8478834, 36.1087767], [-95.84796, 36.1087751], [-95.8479591, 36.1087487], [-95.8480052, 36.1087477]]]}, "properties": {"osm_id": 624034531, "building": "yes", "name": "", "height": null, "height_m": null, "levels": null, "tract_id": "40143009006", "tract_name": "90.06", "tags": {"addr:city": "Tulsa", "addr:country": "US", "addr:housenumber": "11459", "addr:postcode": "74146", "addr:state": "OK", "addr:street": "East 38th Street South", "building": "yes"}}}, {"type": "Feature", "geometry": {"type": "Polygon", "coordinates": [[[-95.8477915, 36.1087345], [-95.8477922, 36.1086334], [-95.8476956, 36.1086329], [-95.8476954, 36.1086507], [-95.8476243, 36.1086504], [-95.8476238, 36.1087338], [-95.8477915, 36.1087345]]]}, "properties": {"osm_id": 624034532, "building": "yes", "name": "", "height": null, "height_m": null, "levels": null, "tract_id": "40143009006", "tract_name": "90.06", "tags": {"addr:city": "Tulsa", "addr:country": "US", "addr:housenumber": "11465", "addr:postcode": "74146", "addr:state": "OK", "addr:street": "East 38th Street South", "building": "yes"}}}, {"type": "Feature", "geometry": {"type": "Polygon", "coordinates": [[[-95.8475947, 36.1087359], [-95.8475964, 36.1086291], [-95.8474988, 36.1086281], [-95.8474985, 36.1086484], [-95.8474089, 36.1086475], [-95.8474075, 36.108734], [-95.8475947, 36.1087359]]]}, "properties": {"osm_id": 624034533, "building": "yes", "name": "", "height": null, "height_m": null, "levels": null, "tract_id": "40143009006", "tract_name": "90.06", "tags": {"addr:city": "Tulsa", "addr:country": "US", "addr:housenumber": "11469", "addr:postcode": "74146", "addr:state": "OK", "addr:street": "East 38th Street South", "building": "yes"}}}, {"type": "Feature", "geometry": {"type": "Polygon", "coordinates": [[[-95.8473768, 36.1087754], [-95.8473817, 36.108627], [-95.8472887, 36.108625], [-95.8472881, 36.1086421], [-95.8472083, 36.1086404], [-95.8472046, 36.1087515], [-95.8472884, 36.1087533], [-95.8472878, 36.1087735], [-95.8473768, 36.1087754]]]}, "properties": {"osm_id": 624034534, "building": "yes", "name": "", "height": null, "height_m": null, "levels": null, "tract_id": "40143009006", "tract_name": "90.06", "tags": {"addr:city": "Tulsa", "addr:country": "US", "addr:housenumber": "11475", "addr:postcode": "74146", "addr:state": "OK", "addr:street": "East 38th Street South", "building": "yes"}}}, {"type": "Feature", "geometry": {"type": "Polygon", "coordinates": [[[-95.840476, 36.1155402], [-95.8403805, 36.1155409], [-95.8403797, 36.1154719], [-95.8403147, 36.1154724], [-95.8403138, 36.115398], [-95.8404744, 36.1153968], [-95.840476, 36.1155402]]]}, "properties": {"osm_id": 636455416, "building": "detached", "name": "", "height": null, "height_m": null, "levels": null, "tract_id": "40143009006", "tract_name": "90.06", "tags": {"addr:city": "Tulsa", "addr:country": "US", "addr:housenumber": "3263", "addr:postcode": "74146", "addr:state": "OK", "addr:street": "South 122nd Avenue East", "building": "detached"}}}, {"type": "Feature", "geometry": {"type": "Polygon", "coordinates": [[[-95.8404791, 36.1157231], [-95.8403341, 36.1157227], [-95.8403347, 36.1155812], [-95.8404711, 36.1155816], [-95.8404708, 36.1156577], [-95.8404794, 36.1156577], [-95.8404791, 36.1157231]]]}, "properties": {"osm_id": 636455417, "building": "detached", "name": "", "height": null, "height_m": null, "levels": null, "tract_id": "40143009006", "tract_name": "90.06", "tags": {"addr:city": "Tulsa", "addr:country": "US", "addr:housenumber": "3257", "addr:postcode": "74146", "addr:state": "OK", "addr:street": "South 122nd Avenue East", "building": "detached"}}}, {"type": "Feature", "geometry": {"type": "Polygon", "coordinates": [[[-95.840461, 36.1158857], [-95.8403167, 36.1158864], [-95.8403157, 36.1157446], [-95.8404311, 36.1157441], [-95.8404314, 36.1157894], [-95.8404371, 36.1157894], [-95.8404373, 36.1158222], [-95.8404606, 36.1158221], [-95.840461, 36.1158857]]]}, "properties": {"osm_id": 636455418, "building": "detached", "name": "", "height": null, "height_m": null, "levels": null, "tract_id": "40143009006", "tract_name": "90.06", "tags": {"addr:city": "Tulsa", "addr:country": "US", "addr:housenumber": "3253", "addr:postcode": "74146", "addr:state": "OK", "addr:street": "South 122nd Avenue East", "building": "detached"}}}, {"type": "Feature", "geometry": {"type": "Polygon", "coordinates": [[[-95.8404009, 36.1160589], [-95.8402639, 36.1160565], [-95.8402673, 36.1159269], [-95.840381, 36.1159289], [-95.8403793, 36.1159944], [-95.8404026, 36.1159948], [-95.8404009, 36.1160589]]]}, "properties": {"osm_id": 636455419, "building": "detached", "name": "", "height": null, "height_m": null, "levels": null, "tract_id": "40143009006", "tract_name": "90.06", "tags": {"addr:city": "Tulsa", "addr:country": "US", "addr:housenumber": "3247", "addr:postcode": "74146", "addr:state": "OK", "addr:street": "South 122nd Avenue East", "building": "detached"}}}, {"type": "Feature", "geometry": {"type": "Polygon", "coordinates": [[[-95.8405192, 36.1162111], [-95.8404076, 36.1162899], [-95.8403882, 36.1162719], [-95.8403638, 36.1162891], [-95.840323, 36.1162514], [-95.8403512, 36.1162315], [-95.8403022, 36.1161863], [-95.8403806, 36.1161309], [-95.8404404, 36.1161862], [-95.8404698, 36.1161655], [-95.8405192, 36.1162111]]]}, "properties": {"osm_id": 636455420, "building": "detached", "name": "", "height": null, "height_m": null, "levels": null, "tract_id": "40143009006", "tract_name": "90.06", "tags": {"addr:city": "Tulsa", "addr:country": "US", "addr:housenumber": "3243", "addr:postcode": "74146", "addr:state": "OK", "addr:street": "South 122nd Avenue East", "building": "detached"}}}, {"type": "Feature", "geometry": {"type": "Polygon", "coordinates": [[[-95.8407441, 36.1163371], [-95.8405746, 36.1163407], [-95.8405715, 36.1162463], [-95.8406613, 36.1162443], [-95.8406607, 36.1162256], [-95.8407404, 36.1162239], [-95.8407441, 36.1163371]]]}, "properties": {"osm_id": 636455421, "building": "detached", "name": "", "height": null, "height_m": null, "levels": null, "tract_id": "40143009006", "tract_name": "90.06", "tags": {"addr:city": "Tulsa", "addr:country": "US", "addr:housenumber": "3240", "addr:postcode": "74146", "addr:state": "OK", "addr:street": "South 122nd Avenue East", "building": "detached"}}}, {"type": "Feature", "geometry": {"type": "Polygon", "coordinates": [[[-95.8408616, 36.1162971], [-95.8407746, 36.1161962], [-95.8408428, 36.1161578], [-95.8408554, 36.1161724], [-95.8409301, 36.1161303], [-95.8410046, 36.1162166], [-95.8408616, 36.1162971]]]}, "properties": {"osm_id": 636455422, "building": "detached", "name": "", "height": null, "height_m": null, "levels": null, "tract_id": "40143009006", "tract_name": "90.06", "tags": {"addr:city": "Tulsa", "addr:country": "US", "addr:housenumber": "3246", "addr:postcode": "74146", "addr:state": "OK", "addr:street": "South 122nd Avenue East", "building": "detached"}}}, {"type": "Feature", "geometry": {"type": "Polygon", "coordinates": [[[-95.8410823, 36.116099], [-95.8408956, 36.1160688], [-95.840911, 36.1160067], [-95.8409234, 36.1160087], [-95.840944, 36.1159255], [-95.8410518, 36.1159429], [-95.8410365, 36.1160046], [-95.841103, 36.1160154], [-95.8410823, 36.116099]]]}, "properties": {"osm_id": 636455423, "building": "detached", "name": "", "height": null, "height_m": null, "levels": null, "tract_id": "40143009006", "tract_name": "90.06", "tags": {"addr:city": "Tulsa", "addr:country": "US", "addr:housenumber": "3250", "addr:postcode": "74146", "addr:state": "OK", "addr:street": "South 122nd Avenue East", "building": "detached"}}}, {"type": "Feature", "geometry": {"type": "Polygon", "coordinates": [[[-95.840991, 36.115895], [-95.8408456, 36.1158953], [-95.8408453, 36.1158185], [-95.8408726, 36.1158184], [-95.8408724, 36.1157581], [-95.8409906, 36.1157579], [-95.840991, 36.115895]]]}, "properties": {"osm_id": 636455424, "building": "detached", "name": "", "height": null, "height_m": null, "levels": null, "tract_id": "40143009006", "tract_name": "90.06", "tags": {"addr:city": "Tulsa", "addr:country": "US", "addr:housenumber": "3256", "addr:postcode": "74146", "addr:state": "OK", "addr:street": "South 122nd Avenue East", "building": "detached"}}}, {"type": "Feature", "geometry": {"type": "Polygon", "coordinates": [[[-95.840911, 36.115714], [-95.8408179, 36.115713], [-95.8408204, 36.1155723], [-95.8409791, 36.1155741], [-95.8409779, 36.1156449], [-95.8409122, 36.1156441], [-95.840911, 36.115714]]]}, "properties": {"osm_id": 636455425, "building": "detached", "name": "", "height": null, "height_m": null, "levels": null, "tract_id": "40143009006", "tract_name": "90.06", "tags": {"addr:city": "Tulsa", "addr:country": "US", "addr:housenumber": "3260", "addr:postcode": "74146", "addr:state": "OK", "addr:street": "South 122nd Avenue East", "building": "detached"}}}, {"type": "Feature", "geometry": {"type": "Polygon", "coordinates": [[[-95.8410043, 36.1155451], [-95.8408169, 36.1155466], [-95.8408161, 36.1154794], [-95.8408233, 36.1154793], [-95.8408223, 36.1154002], [-95.8409596, 36.1153991], [-95.8409603, 36.1154611], [-95.8410032, 36.1154608], [-95.8410043, 36.1155451]]]}, "properties": {"osm_id": 636455426, "building": "detached", "name": "", "height": null, "height_m": null, "levels": null, "tract_id": "40143009006", "tract_name": "90.06", "tags": {"addr:city": "Tulsa", "addr:country": "US", "addr:housenumber": "3266", "addr:postcode": "74146", "addr:state": "OK", "addr:street": "South 122nd Avenue East", "building": "detached"}}}, {"type": "Feature", "geometry": {"type": "Polygon", "coordinates": [[[-95.8494476, 36.1095002], [-95.8494688, 36.1095002], [-95.8494692, 36.1093938], [-95.8493942, 36.1093937], [-95.8493942, 36.1094053], [-95.8493727, 36.1094052], [-95.8493727, 36.1094161], [-95.8493023, 36.109416], [-95.8493021, 36.1094968], [-95.8493661, 36.109497], [-95.8493659, 36.1095367], [-95.8494044, 36.1095368], [-95.8494043, 36.1095459], [-95.8494281, 36.1095459], [-95.8494281, 36.1095379], [-95.8494474, 36.109538], [-95.8494476, 36.1095002]]]}, "properties": {"osm_id": 747826781, "building": "yes", "name": "", "height": null, "height_m": null, "levels": null, "tract_id": "40143009006", "tract_name": "90.06", "tags": {"building": "yes"}}}, {"type": "Feature", "geometry": {"type": "Polygon", "coordinates": [[[-95.8492857, 36.1094861], [-95.849285, 36.1095164], [-95.8492242, 36.1095155], [-95.8492249, 36.1094852], [-95.8492857, 36.1094861]]]}, "properties": {"osm_id": 747826782, "building": "yes", "name": "", "height": null, "height_m": null, "levels": null, "tract_id": "40143009006", "tract_name": "90.06", "tags": {"building": "yes"}}}, {"type": "Feature", "geometry": {"type": "Polygon", "coordinates": [[[-95.849111, 36.1095916], [-95.8491102, 36.1095631], [-95.8490793, 36.1095637], [-95.8490801, 36.1095921], [-95.849111, 36.1095916]]]}, "properties": {"osm_id": 747826783, "building": "yes", "name": "", "height": null, "height_m": null, "levels": null, "tract_id": "40143009006", "tract_name": "90.06", "tags": {"building": "yes"}}}, {"type": "Feature", "geometry": {"type": "Polygon", "coordinates": [[[-95.8491174, 36.1096964], [-95.8491163, 36.1096698], [-95.8490869, 36.1096706], [-95.8490881, 36.1096972], [-95.8491174, 36.1096964]]]}, "properties": {"osm_id": 747826784, "building": "yes", "name": "", "height": null, "height_m": null, "levels": null, "tract_id": "40143009006", "tract_name": "90.06", "tags": {"building": "yes"}}}, {"type": "Feature", "geometry": {"type": "Polygon", "coordinates": [[[-95.849531, 36.109714], [-95.8495333, 36.1096819], [-95.8495041, 36.1096806], [-95.8495018, 36.1097127], [-95.849531, 36.109714]]]}, "properties": {"osm_id": 747826785, "building": "yes", "name": "", "height": null, "height_m": null, "levels": null, "tract_id": "40143009006", "tract_name": "90.06", "tags": {"building": "yes"}}}, {"type": "Feature", "geometry": {"type": "Polygon", "coordinates": [[[-95.8494745, 36.1097335], [-95.8494721, 36.1096968], [-95.8494465, 36.1096979], [-95.8494473, 36.10971], [-95.8494401, 36.1097103], [-95.8494406, 36.1097165], [-95.8494442, 36.1097164], [-95.8494454, 36.1097347], [-95.8494745, 36.1097335]]]}, "properties": {"osm_id": 747826786, "building": "yes", "name": "", "height": null, "height_m": null, "levels": null, "tract_id": "40143009006", "tract_name": "90.06", "tags": {"building": "yes"}}}, {"type": "Feature", "geometry": {"type": "Polygon", "coordinates": [[[-95.8494628, 36.1096896], [-95.8494734, 36.1096764], [-95.8494563, 36.1096675], [-95.8494458, 36.1096807], [-95.8494628, 36.1096896]]]}, "properties": {"osm_id": 747826787, "building": "yes", "name": "", "height": null, "height_m": null, "levels": null, "tract_id": "40143009006", "tract_name": "90.06", "tags": {"building": "yes"}}}, {"type": "Feature", "geometry": {"type": "Polygon", "coordinates": [[[-95.8499081, 36.1095526], [-95.8499074, 36.1095284], [-95.8499005, 36.1095285], [-95.8499002, 36.1095174], [-95.8498681, 36.109518], [-95.8498691, 36.1095533], [-95.8499081, 36.1095526]]]}, "properties": {"osm_id": 747826788, "building": "yes", "name": "", "height": null, "height_m": null, "levels": null, "tract_id": "40143009006", "tract_name": "90.06", "tags": {"building": "yes"}}}, {"type": "Feature", "geometry": {"type": "Polygon", "coordinates": [[[-95.8500891, 36.1095487], [-95.8500886, 36.1095179], [-95.8500932, 36.1095179], [-95.8500915, 36.1094197], [-95.849976, 36.109421], [-95.8499755, 36.1093948], [-95.8499156, 36.1093955], [-95.8499176, 36.1095131], [-95.8499869, 36.1095123], [-95.8499876, 36.1095499], [-95.8500891, 36.1095487]]]}, "properties": {"osm_id": 747826789, "building": "yes", "name": "", "height": null, "height_m": null, "levels": null, "tract_id": "40143009006", "tract_name": "90.06", "tags": {"building": "yes"}}}, {"type": "Feature", "geometry": {"type": "Polygon", "coordinates": [[[-95.8494742, 36.1091224], [-95.8494743, 36.1090085], [-95.8492923, 36.1090084], [-95.8492922, 36.1091015], [-95.8493812, 36.1091016], [-95.8493812, 36.1091223], [-95.8494742, 36.1091224]]]}, "properties": {"osm_id": 747826790, "building": "yes", "name": "", "height": null, "height_m": null, "levels": null, "tract_id": "40143009006", "tract_name": "90.06", "tags": {"building": "yes"}}}, {"type": "Feature", "geometry": {"type": "Polygon", "coordinates": [[[-95.848862, 36.1088925], [-95.8488307, 36.1089136], [-95.8488115, 36.1088949], [-95.8488428, 36.1088738], [-95.848862, 36.1088925]]]}, "properties": {"osm_id": 747826791, "building": "yes", "name": "", "height": null, "height_m": null, "levels": null, "tract_id": "40143009006", "tract_name": "90.06", "tags": {"building": "yes"}}}, {"type": "Feature", "geometry": {"type": "Polygon", "coordinates": [[[-95.8488991, 36.1089788], [-95.8488964, 36.108944], [-95.8488668, 36.1089455], [-95.8488694, 36.1089803], [-95.8488991, 36.1089788]]]}, "properties": {"osm_id": 747826792, "building": "yes", "name": "", "height": null, "height_m": null, "levels": null, "tract_id": "40143009006", "tract_name": "90.06", "tags": {"building": "yes"}}}, {"type": "Feature", "geometry": {"type": "Polygon", "coordinates": [[[-95.849261, 36.1089118], [-95.8492593, 36.1088872], [-95.8492171, 36.108889], [-95.8492187, 36.1089136], [-95.849261, 36.1089118]]]}, "properties": {"osm_id": 747826793, "building": "yes", "name": "", "height": null, "height_m": null, "levels": null, "tract_id": "40143009006", "tract_name": "90.06", "tags": {"building": "yes"}}}, {"type": "Feature", "geometry": {"type": "Polygon", "coordinates": [[[-95.8493, 36.1088519], [-95.8492981, 36.1088261], [-95.8492827, 36.1088269], [-95.8492846, 36.1088526], [-95.8493, 36.1088519]]]}, "properties": {"osm_id": 747826794, "building": "yes", "name": "", "height": null, "height_m": null, "levels": null, "tract_id": "40143009006", "tract_name": "90.06", "tags": {"building": "yes"}}}, {"type": "Feature", "geometry": {"type": "Polygon", "coordinates": [[[-95.8494758, 36.1088512], [-95.8494744, 36.1088205], [-95.8494403, 36.1088215], [-95.8494417, 36.1088523], [-95.8494758, 36.1088512]]]}, "properties": {"osm_id": 747826795, "building": "yes", "name": "", "height": null, "height_m": null, "levels": null, "tract_id": "40143009006", "tract_name": "90.06", "tags": {"building": "yes"}}}, {"type": "Feature", "geometry": {"type": "Polygon", "coordinates": [[[-95.8478352, 36.1091159], [-95.8478338, 36.1090623], [-95.847807, 36.1090627], [-95.8478054, 36.1089983], [-95.8477678, 36.1089989], [-95.8477669, 36.1089611], [-95.8477212, 36.1089619], [-95.8477213, 36.1089648], [-95.847714, 36.108965], [-95.8477147, 36.1089901], [-95.8477211, 36.1089923], [-95.8477213, 36.1089981], [-95.8476361, 36.1089995], [-95.8476382, 36.1090805], [-95.8477327, 36.1090789], [-95.8477337, 36.1091176], [-95.8478352, 36.1091159]]]}, "properties": {"osm_id": 747826796, "building": "yes", "name": "", "height": null, "height_m": null, "levels": null, "tract_id": "40143009006", "tract_name": "90.06", "tags": {"building": "yes"}}}, {"type": "Feature", "geometry": {"type": "Polygon", "coordinates": [[[-95.8476003, 36.1091152], [-95.8475997, 36.1090721], [-95.8476213, 36.1090719], [-95.8476205, 36.1090179], [-95.8476011, 36.1090181], [-95.8476009, 36.109007], [-95.8475518, 36.1090074], [-95.8475514, 36.1089806], [-95.8474931, 36.1089812], [-95.8474935, 36.1090085], [-95.8474193, 36.1090092], [-95.8474204, 36.1090923], [-95.8474983, 36.1090916], [-95.8474986, 36.1091162], [-95.8476003, 36.1091152]]]}, "properties": {"osm_id": 747826797, "building": "yes", "name": "", "height": null, "height_m": null, "levels": null, "tract_id": "40143009006", "tract_name": "90.06", "tags": {"building": "yes"}}}, {"type": "Feature", "geometry": {"type": "Polygon", "coordinates": [[[-95.8476015, 36.108929], [-95.8476008, 36.1089033], [-95.8475677, 36.1089038], [-95.8475683, 36.1089296], [-95.8476015, 36.108929]]]}, "properties": {"osm_id": 747836924, "building": "yes", "name": "", "height": null, "height_m": null, "levels": null, "tract_id": "40143009006", "tract_name": "90.06", "tags": {"building": "yes"}}}, {"type": "Feature", "geometry": {"type": "Polygon", "coordinates": [[[-95.8473558, 36.1089129], [-95.8473578, 36.1088906], [-95.8473257, 36.1088886], [-95.8473236, 36.1089109], [-95.8473558, 36.1089129]]]}, "properties": {"osm_id": 747836925, "building": "yes", "name": "", "height": null, "height_m": null, "levels": null, "tract_id": "40143009006", "tract_name": "90.06", "tags": {"building": "yes"}}}, {"type": "Feature", "geometry": {"type": "Polygon", "coordinates": [[[-95.8469317, 36.1091151], [-95.8469307, 36.1089935], [-95.846907, 36.1089936], [-95.8469068, 36.1089674], [-95.8468311, 36.1089678], [-95.8468313, 36.1089944], [-95.8467743, 36.1089947], [-95.846775, 36.1090868], [-95.84684, 36.1090864], [-95.8468402, 36.1091156], [-95.8469317, 36.1091151]]]}, "properties": {"osm_id": 747836926, "building": "yes", "name": "", "height": null, "height_m": null, "levels": null, "tract_id": "40143009006", "tract_name": "90.06", "tags": {"building": "yes"}}}, {"type": "Feature", "geometry": {"type": "Polygon", "coordinates": [[[-95.8469792, 36.1089264], [-95.8469764, 36.1088863], [-95.8469449, 36.1088877], [-95.8469477, 36.1089279], [-95.8469792, 36.1089264]]]}, "properties": {"osm_id": 747836927, "building": "yes", "name": "", "height": null, "height_m": null, "levels": null, "tract_id": "40143009006", "tract_name": "90.06", "tags": {"building": "yes"}}}, {"type": "Feature", "geometry": {"type": "Polygon", "coordinates": [[[-95.8467448, 36.1091171], [-95.8467432, 36.1090066], [-95.8465638, 36.1090083], [-95.8465651, 36.1090952], [-95.84665, 36.1090944], [-95.8466503, 36.109118], [-95.8467448, 36.1091171]]]}, "properties": {"osm_id": 747836928, "building": "yes", "name": "", "height": null, "height_m": null, "levels": null, "tract_id": "40143009006", "tract_name": "90.06", "tags": {"building": "yes"}}}, {"type": "Feature", "geometry": {"type": "Polygon", "coordinates": [[[-95.8465263, 36.1091155], [-95.846523, 36.1089928], [-95.8463623, 36.1089956], [-95.8463647, 36.1090855], [-95.8464482, 36.109084], [-95.8464491, 36.1091169], [-95.8465263, 36.1091155]]]}, "properties": {"osm_id": 747836929, "building": "yes", "name": "", "height": null, "height_m": null, "levels": null, "tract_id": "40143009006", "tract_name": "90.06", "tags": {"building": "yes"}}}, {"type": "Feature", "geometry": {"type": "Polygon", "coordinates": [[[-95.8463285, 36.1091153], [-95.8463276, 36.1090042], [-95.8462824, 36.1090044], [-95.8462822, 36.1089791], [-95.8462288, 36.1089794], [-95.846229, 36.1090061], [-95.8461511, 36.1090066], [-95.8461518, 36.1090947], [-95.8462335, 36.1090943], [-95.8462337, 36.1091158], [-95.8463285, 36.1091153]]]}, "properties": {"osm_id": 747836930, "building": "yes", "name": "", "height": null, "height_m": null, "levels": null, "tract_id": "40143009006", "tract_name": "90.06", "tags": {"building": "yes"}}}, {"type": "Feature", "geometry": {"type": "Polygon", "coordinates": [[[-95.8461109, 36.1091144], [-95.8461088, 36.1089919], [-95.8459481, 36.1089937], [-95.8459497, 36.1090858], [-95.846019, 36.109085], [-95.8460195, 36.1091155], [-95.8461109, 36.1091144]]]}, "properties": {"osm_id": 747836931, "building": "yes", "name": "", "height": null, "height_m": null, "levels": null, "tract_id": "40143009006", "tract_name": "90.06", "tags": {"building": "yes"}}}, {"type": "Feature", "geometry": {"type": "Polygon", "coordinates": [[[-95.840792, 36.1124792], [-95.840614, 36.1124792], [-95.8406139, 36.11244], [-95.8406195, 36.11244], [-95.8406195, 36.1123702], [-95.8407138, 36.1123701], [-95.8407138, 36.1123655], [-95.8407919, 36.1123654], [-95.840792, 36.1124792]]]}, "properties": {"osm_id": 837269918, "building": "detached", "name": "", "height": null, "height_m": null, "levels": null, "tract_id": "40143009006", "tract_name": "90.06", "tags": {"addr:city": "Tulsa", "addr:country": "US", "addr:housenumber": "12147", "addr:postcode": "74146", "addr:state": "OK", "addr:street": "East 35th Street South", "building": "detached"}}}, {"type": "Feature", "geometry": {"type": "Polygon", "coordinates": [[[-95.8408299, 36.1124703], [-95.8408282, 36.1123804], [-95.8409264, 36.1123792], [-95.8409261, 36.1123629], [-95.841003, 36.112362], [-95.8410049, 36.1124681], [-95.8409909, 36.1124682], [-95.8409915, 36.1125011], [-95.8409295, 36.1125019], [-95.8409289, 36.1124691], [-95.8408299, 36.1124703]]]}, "properties": {"osm_id": 837269919, "building": "detached", "name": "", "height": null, "height_m": null, "levels": null, "tract_id": "40143009006", "tract_name": "90.06", "tags": {"addr:city": "Tulsa", "addr:country": "US", "addr:housenumber": "12141", "addr:postcode": "74146", "addr:state": "OK", "addr:street": "East 35th Street South", "building": "detached"}}}, {"type": "Feature", "geometry": {"type": "Polygon", "coordinates": [[[-95.8412185, 36.1124485], [-95.8411992, 36.1124489], [-95.8412005, 36.1124894], [-95.841127, 36.1124909], [-95.8411257, 36.1124496], [-95.8410699, 36.1124507], [-95.8410668, 36.1123543], [-95.8411093, 36.1123534], [-95.841109, 36.1123444], [-95.84117, 36.1123431], [-95.8411703, 36.112353], [-95.8412154, 36.1123521], [-95.8412185, 36.1124485]]]}, "properties": {"osm_id": 837269920, "building": "detached", "name": "", "height": null, "height_m": null, "levels": null, "tract_id": "40143009006", "tract_name": "90.06", "tags": {"addr:city": "Tulsa", "addr:country": "US", "addr:housenumber": "12137", "addr:postcode": "74146", "addr:state": "OK", "addr:street": "East 35th Street South", "building": "detached"}}}, {"type": "Feature", "geometry": {"type": "Polygon", "coordinates": [[[-95.8412377, 36.1125944], [-95.8412014, 36.1125949], [-95.8412008, 36.1125674], [-95.8412371, 36.1125669], [-95.8412377, 36.1125944]]]}, "properties": {"osm_id": 837269921, "building": "yes", "name": "", "height": null, "height_m": null, "levels": null, "tract_id": "40143009006", "tract_name": "90.06", "tags": {"building": "yes"}}}, {"type": "Feature", "geometry": {"type": "Polygon", "coordinates": [[[-95.8412548, 36.1125793], [-95.8412533, 36.1125179], [-95.8413001, 36.1125172], [-95.8413015, 36.1125785], [-95.8412548, 36.1125793]]]}, "properties": {"osm_id": 837269922, "building": "yes", "name": "", "height": null, "height_m": null, "levels": null, "tract_id": "40143009006", "tract_name": "90.06", "tags": {"building": "yes"}}}, {"type": "Feature", "geometry": {"type": "Polygon", "coordinates": [[[-95.8414395, 36.1123508], [-95.84144, 36.1124668], [-95.8413975, 36.1124669], [-95.8413977, 36.112504], [-95.8413467, 36.1125042], [-95.8413465, 36.1124666], [-95.8412659, 36.1124669], [-95.8412653, 36.1123576], [-95.8413599, 36.1123573], [-95.8413599, 36.1123511], [-95.8414395, 36.1123508]]]}, "properties": {"osm_id": 837269923, "building": "detached", "name": "", "height": null, "height_m": null, "levels": null, "tract_id": "40143009006", "tract_name": "90.06", "tags": {"addr:city": "Tulsa", "addr:country": "US", "addr:housenumber": "12131", "addr:postcode": "74146", "addr:state": "OK", "addr:street": "East 35th Street South", "building": "detached"}}}, {"type": "Feature", "geometry": {"type": "Polygon", "coordinates": [[[-95.8414926, 36.1123507], [-95.8414908, 36.1124481], [-95.8415626, 36.112449], [-95.8415619, 36.1124872], [-95.8416306, 36.112488], [-95.8416312, 36.1124524], [-95.8416422, 36.1124526], [-95.841644, 36.1123533], [-95.8416045, 36.1123528], [-95.8416047, 36.1123453], [-95.8415416, 36.1123445], [-95.8415415, 36.1123512], [-95.8414926, 36.1123507]]]}, "properties": {"osm_id": 837269924, "building": "detached", "name": "", "height": null, "height_m": null, "levels": null, "tract_id": "40143009006", "tract_name": "90.06", "tags": {"addr:city": "Tulsa", "addr:country": "US", "addr:housenumber": "12127", "addr:postcode": "74146", "addr:state": "OK", "addr:street": "East 35th Street South", "building": "detached"}}}, {"type": "Feature", "geometry": {"type": "Polygon", "coordinates": [[[-95.8418656, 36.1124607], [-95.8417115, 36.11246], [-95.8417121, 36.1123656], [-95.8417609, 36.1123658], [-95.841761, 36.1123516], [-95.8418226, 36.1123518], [-95.8418225, 36.1123662], [-95.8418662, 36.1123664], [-95.8418656, 36.1124607]]]}, "properties": {"osm_id": 837269925, "building": "detached", "name": "", "height": null, "height_m": null, "levels": null, "tract_id": "40143009006", "tract_name": "90.06", "tags": {"addr:city": "Tulsa", "addr:country": "US", "addr:housenumber": "12121", "addr:postcode": "74146", "addr:state": "OK", "addr:street": "East 35th Street South", "building": "detached"}}}, {"type": "Feature", "geometry": {"type": "Polygon", "coordinates": [[[-95.8421065, 36.1125082], [-95.841919, 36.1125099], [-95.8419175, 36.1124047], [-95.8420159, 36.1124038], [-95.8420153, 36.1123619], [-95.8421044, 36.112361], [-95.8421065, 36.1125082]]]}, "properties": {"osm_id": 837269926, "building": "detached", "name": "", "height": null, "height_m": null, "levels": null, "tract_id": "40143009006", "tract_name": "90.06", "tags": {"addr:city": "Tulsa", "addr:country": "US", "addr:housenumber": "12117", "addr:postcode": "74146", "addr:state": "OK", "addr:street": "East 35th Street South", "building": "detached"}}}, {"type": "Feature", "geometry": {"type": "Polygon", "coordinates": [[[-95.8370792, 36.1074908], [-95.8372768, 36.107346], [-95.8371182, 36.1072047], [-95.8370397, 36.1072623], [-95.8370898, 36.1073069], [-95.837047, 36.1073383], [-95.8369969, 36.1072936], [-95.8369207, 36.1073495], [-95.8370792, 36.1074908]]]}, "properties": {"osm_id": 870238844, "building": "yes", "name": "", "height": null, "height_m": null, "levels": null, "tract_id": "40143009006", "tract_name": "90.06", "tags": {"building": "yes"}}}, {"type": "Feature", "geometry": {"type": "Polygon", "coordinates": [[[-95.8368476, 36.1076389], [-95.8370451, 36.1074917], [-95.8368996, 36.1073644], [-95.8368349, 36.1074126], [-95.8368871, 36.1074583], [-95.8368165, 36.1075108], [-95.8367653, 36.107466], [-95.8367031, 36.1075123], [-95.8368476, 36.1076389]]]}, "properties": {"osm_id": 870238845, "building": "yes", "name": "", "height": null, "height_m": null, "levels": null, "tract_id": "40143009006", "tract_name": "90.06", "tags": {"building": "yes"}}}, {"type": "Feature", "geometry": {"type": "Polygon", "coordinates": [[[-95.8366388, 36.1078006], [-95.8368363, 36.1076559], [-95.8366778, 36.1075146], [-95.8365992, 36.1075721], [-95.8366493, 36.1076168], [-95.8366065, 36.1076481], [-95.8365564, 36.1076035], [-95.8364802, 36.1076594], [-95.8366388, 36.1078006]]]}, "properties": {"osm_id": 870238846, "building": "yes", "name": "", "height": null, "height_m": null, "levels": null, "tract_id": "40143009006", "tract_name": "90.06", "tags": {"building": "yes"}}}, {"type": "Feature", "geometry": {"type": "Polygon", "coordinates": [[[-95.8506556, 36.1186239], [-95.8503096, 36.1186261], [-95.8503068, 36.1183379], [-95.8506528, 36.1183357], [-95.8506556, 36.1186239]]]}, "properties": {"osm_id": 909393791, "building": "yes", "name": "Advance Auto Parts", "height": null, "height_m": null, "levels": null, "tract_id": "40143009006", "tract_name": "90.06", "tags": {"addr:city": "Tulsa", "addr:country": "US", "addr:housenumber": "3105", "addr:postcode": "74146", "addr:state": "OK", "addr:street": "South Garnett Road East", "brand": "Advance Auto Parts", "brand:wikidata": "Q4686051", "building": "yes", "name": "Advance Auto Parts", "phone": "+1-918-270-2376", "shop": "car_parts", "website": "https://stores.advanceautoparts.com/ok/tulsa/3105-s-garnett-rd"}}}, {"type": "Feature", "geometry": {"type": "Polygon", "coordinates": [[[-95.8351507, 36.1112433], [-95.8350036, 36.1112434], [-95.8350034, 36.1111295], [-95.8351505, 36.1111294], [-95.8351507, 36.1112433]]]}, "properties": {"osm_id": 910597549, "building": "service", "name": "", "height": null, "height_m": null, "levels": null, "tract_id": "40143009006", "tract_name": "90.06", "tags": {"building": "service"}}}, {"type": "Feature", "geometry": {"type": "Polygon", "coordinates": [[[-95.8493168, 36.1186579], [-95.8496594, 36.1186584], [-95.8496594, 36.1186831], [-95.8497834, 36.1186832], [-95.8497841, 36.1183866], [-95.8493173, 36.118386], [-95.8493168, 36.1186579]]]}, "properties": {"osm_id": 945749396, "building": "yes", "name": "Walgreens", "height": null, "height_m": null, "levels": null, "tract_id": "40143009006", "tract_name": "90.06", "tags": {"addr:city": "Tulsa", "addr:country": "US", "addr:housenumber": "11332", "addr:postcode": "74146", "addr:state": "OK", "addr:street": "East 31st Street South", "brand": "Walgreens", "brand:wikidata": "Q1591889", "building": "yes", "name": "Walgreens", "phone": "+1 918 622 9684", "ref": "3037", "shop": "chemist", "website": "https://www.walgreens.com/locator/walgreens-11332+e+31st+st-tulsa-ok-74146/id=3037"}}}, {"type": "Feature", "geometry": {"type": "Polygon", "coordinates": [[[-95.844622, 36.1169471], [-95.8443454, 36.1169618], [-95.8443486, 36.1170006], [-95.8441312, 36.1170122], [-95.8441432, 36.117159], [-95.8442938, 36.1171509], [-95.8443051, 36.1172883], [-95.844361, 36.1172854], [-95.8443671, 36.11736], [-95.8443792, 36.1173593], [-95.8443845, 36.1174241], [-95.8445996, 36.1174137], [-95.8446153, 36.117459], [-95.8446336, 36.1175117], [-95.8446653, 36.1175046], [-95.8446757, 36.1175346], [-95.8445831, 36.1175536], [-95.8444402, 36.1176069], [-95.8443326, 36.1176633], [-95.8443165, 36.1176476], [-95.8441941, 36.1177095], [-95.8439862, 36.1178696], [-95.8440712, 36.1179415], [-95.8440832, 36.1179323], [-95.8440954, 36.1179426], [-95.8441802, 36.1180145], [-95.8443358, 36.1178946], [-95.8443304, 36.1178899], [-95.8443574, 36.1178691], [-95.8443612, 36.1178723], [-95.8445597, 36.1178743], [-95.8445592, 36.1178978], [-95.8445568, 36.1180102], [-95.8447086, 36.1180123], [-95.8447076, 36.1180594], [-95.8447473, 36.11806], [-95.8449163, 36.1180623], [-95.8449185, 36.1179561], [-95.8449139, 36.117956], [-95.8449145, 36.1179267], [-95.8448908, 36.1178434], [-95.8452107, 36.1177827], [-95.8452221, 36.1178022], [-95.8454239, 36.1177275], [-95.8455936, 36.1176132], [-95.8456506, 36.1175579], [-95.8456157, 36.1175325], [-95.8456653, 36.1174859], [-95.845548, 36.1174008], [-95.8455399, 36.1174073], [-95.8454192, 36.1173862], [-95.8454092, 36.1174339], [-95.8453287, 36.1174187], [-95.8451068, 36.1174279], [-95.8451115, 36.1174501], [-95.8448207, 36.1175041], [-95.8448134, 36.1174808], [-95.8448397, 36.1174755], [-95.8448264, 36.1174327], [-95.8448133, 36.1173907], [-95.844901, 36.1173729], [-95.8449038, 36.117382], [-95.8450298, 36.1173564], [-95.8449924, 36.1172364], [-95.8450511, 36.1172245], [-95.8450351, 36.117173], [-95.8450469, 36.1171706], [-95.8449881, 36.1169817], [-95.844973, 36.1169847], [-95.8449496, 36.1169093], [-95.8446294, 36.1169744], [-95.844622, 36.1169471]]]}, "properties": {"osm_id": 1016200856, "building": "school", "name": "", "height": null, "height_m": null, "levels": null, "tract_id": "40143009006", "tract_name": "90.06", "tags": {"addr:city": "Tulsa", "addr:country": "US", "addr:housenumber": "12000", "addr:postcode": "74146", "addr:state": "OK", "addr:street": "East 31st Street South", "building": "school", "office": "property_management"}}}, {"type": "Feature", "geometry": {"type": "Polygon", "coordinates": [[[-95.848223, 36.1170271], [-95.848222, 36.1168578], [-95.8483428, 36.1168574], [-95.8483437, 36.1170267], [-95.848223, 36.1170271]]]}, "properties": {"osm_id": 1056200725, "building": "yes", "name": "", "height": null, "height_m": null, "levels": null, "tract_id": "40143009006", "tract_name": "90.06", "tags": {"building": "yes"}}}, {"type": "Feature", "geometry": {"type": "Polygon", "coordinates": [[[-95.8493676, 36.1166364], [-95.8494324, 36.1165355], [-95.8495969, 36.1166045], [-95.8495321, 36.1167054], [-95.8493676, 36.1166364]]]}, "properties": {"osm_id": 1056200726, "building": "yes", "name": "", "height": null, "height_m": null, "levels": null, "tract_id": "40143009006", "tract_name": "90.06", "tags": {"building": "yes"}}}, {"type": "Feature", "geometry": {"type": "Polygon", "coordinates": [[[-95.8507821, 36.1171025], [-95.8507786, 36.1172297], [-95.850689, 36.117228], [-95.8506888, 36.1172354], [-95.850594, 36.1172337], [-95.8505945, 36.117219], [-95.8504928, 36.1172171], [-95.8504961, 36.1170991], [-95.8506076, 36.1171012], [-95.850608, 36.1170838], [-95.8506576, 36.1170847], [-95.8506572, 36.1171002], [-95.8507821, 36.1171025]]]}, "properties": {"osm_id": 1056200727, "building": "yes", "name": "", "height": null, "height_m": null, "levels": null, "tract_id": "40143009006", "tract_name": "90.06", "tags": {"addr:city": "Tulsa", "addr:country": "US", "addr:housenumber": "3205", "addr:postcode": "74146", "addr:state": "OK", "addr:street": "South Garnett Road East", "building": "yes"}}}, {"type": "Feature", "geometry": {"type": "Polygon", "coordinates": [[[-95.8401671, 36.1139297], [-95.8401121, 36.1139292], [-95.8401127, 36.1138931], [-95.8401677, 36.1138937], [-95.8401671, 36.1139297]]]}, "properties": {"osm_id": 1056200736, "building": "yes", "name": "", "height": null, "height_m": null, "levels": null, "tract_id": "40143009006", "tract_name": "90.06", "tags": {"building": "yes"}}}, {"type": "Feature", "geometry": {"type": "Polygon", "coordinates": [[[-95.8406781, 36.1138912], [-95.840654, 36.1139112], [-95.8406333, 36.113895], [-95.8406574, 36.113875], [-95.8406781, 36.1138912]]]}, "properties": {"osm_id": 1056200737, "building": "yes", "name": "", "height": null, "height_m": null, "levels": null, "tract_id": "40143009006", "tract_name": "90.06", "tags": {"building": "yes"}}}, {"type": "Feature", "geometry": {"type": "Polygon", "coordinates": [[[-95.8500172, 36.1172627], [-95.8500159, 36.117146], [-95.8502358, 36.1171443], [-95.8502372, 36.1172611], [-95.8500172, 36.1172627]]]}, "properties": {"osm_id": 1056200779, "building": "yes", "name": "", "height": null, "height_m": null, "levels": null, "tract_id": "40143009006", "tract_name": "90.06", "tags": {"addr:city": "Tulsa", "addr:country": "US", "addr:housenumber": "11320", "addr:postcode": "74146", "addr:state": "OK", "addr:street": "East 32nd Street South", "building": "yes"}}}, {"type": "Feature", "geometry": {"type": "Polygon", "coordinates": [[[-95.8444557, 36.1165775], [-95.8443564, 36.1166284], [-95.8443123, 36.1165723], [-95.8444116, 36.1165214], [-95.8444557, 36.1165775]]]}, "properties": {"osm_id": 1056200780, "building": "yes", "name": "", "height": null, "height_m": null, "levels": null, "tract_id": "40143009006", "tract_name": "90.06", "tags": {"building": "yes"}}}, {"type": "Feature", "geometry": {"type": "Polygon", "coordinates": [[[-95.8436242, 36.1155418], [-95.8436369, 36.1157351], [-95.8435877, 36.1157373], [-95.8435749, 36.1155439], [-95.8436242, 36.1155418]]]}, "properties": {"osm_id": 1056200781, "building": "yes", "name": "", "height": null, "height_m": null, "levels": null, "tract_id": "40143009006", "tract_name": "90.06", "tags": {"building": "yes"}}}, {"type": "Feature", "geometry": {"type": "Polygon", "coordinates": [[[-95.8440164, 36.1156956], [-95.8437154, 36.1156934], [-95.8437168, 36.1155594], [-95.8440179, 36.1155616], [-95.8440164, 36.1156956]]]}, "properties": {"osm_id": 1056200782, "building": "yes", "name": "", "height": null, "height_m": null, "levels": null, "tract_id": "40143009006", "tract_name": "90.06", "tags": {"building": "yes"}}}, {"type": "Feature", "geometry": {"type": "Polygon", "coordinates": [[[-95.8424876, 36.1160692], [-95.8423966, 36.1161374], [-95.8423295, 36.1160789], [-95.8424206, 36.1160107], [-95.8424876, 36.1160692]]]}, "properties": {"osm_id": 1056200783, "building": "yes", "name": "", "height": null, "height_m": null, "levels": null, "tract_id": "40143009006", "tract_name": "90.06", "tags": {"building": "yes"}}}, {"type": "Feature", "geometry": {"type": "Polygon", "coordinates": [[[-95.843178, 36.1157547], [-95.8429514, 36.1159409], [-95.8428459, 36.115857], [-95.8430725, 36.1156709], [-95.843178, 36.1157547]]]}, "properties": {"osm_id": 1056200784, "building": "yes", "name": "", "height": null, "height_m": null, "levels": null, "tract_id": "40143009006", "tract_name": "90.06", "tags": {"building": "yes"}}}, {"type": "Feature", "geometry": {"type": "Polygon", "coordinates": [[[-95.8427992, 36.1155781], [-95.8428044, 36.115842], [-95.8426595, 36.1158439], [-95.8426543, 36.11558], [-95.8427992, 36.1155781]]]}, "properties": {"osm_id": 1056200785, "building": "yes", "name": "", "height": null, "height_m": null, "levels": null, "tract_id": "40143009006", "tract_name": "90.06", "tags": {"building": "yes"}}}, {"type": "Feature", "geometry": {"type": "Polygon", "coordinates": [[[-95.8422728, 36.1157585], [-95.8423766, 36.115673], [-95.8426113, 36.1158587], [-95.8425076, 36.1159443], [-95.8422728, 36.1157585]]]}, "properties": {"osm_id": 1056200786, "building": "yes", "name": "", "height": null, "height_m": null, "levels": null, "tract_id": "40143009006", "tract_name": "90.06", "tags": {"building": "yes"}}}, {"type": "Feature", "geometry": {"type": "Polygon", "coordinates": [[[-95.8425919, 36.1163494], [-95.842559, 36.1163773], [-95.8425217, 36.1163487], [-95.8425546, 36.1163208], [-95.8425919, 36.1163494]]]}, "properties": {"osm_id": 1056200787, "building": "yes", "name": "", "height": null, "height_m": null, "levels": null, "tract_id": "40143009006", "tract_name": "90.06", "tags": {"building": "yes"}}}, {"type": "Feature", "geometry": {"type": "Polygon", "coordinates": [[[-95.842851, 36.1162221], [-95.8429589, 36.1161366], [-95.8431808, 36.1163191], [-95.843073, 36.1164047], [-95.842851, 36.1162221]]]}, "properties": {"osm_id": 1056200788, "building": "yes", "name": "", "height": null, "height_m": null, "levels": null, "tract_id": "40143009006", "tract_name": "90.06", "tags": {"building": "yes"}}}, {"type": "Feature", "geometry": {"type": "Polygon", "coordinates": [[[-95.8428048, 36.1162335], [-95.8428048, 36.1164968], [-95.8426539, 36.1164968], [-95.8426539, 36.1162335], [-95.8428048, 36.1162335]]]}, "properties": {"osm_id": 1056200789, "building": "yes", "name": "", "height": null, "height_m": null, "levels": null, "tract_id": "40143009006", "tract_name": "90.06", "tags": {"building": "yes"}}}, {"type": "Feature", "geometry": {"type": "Polygon", "coordinates": [[[-95.8401812, 36.1176386], [-95.8402319, 36.1177613], [-95.8400983, 36.1177973], [-95.8400477, 36.1176746], [-95.8401812, 36.1176386]]]}, "properties": {"osm_id": 1056200790, "building": "yes", "name": "", "height": null, "height_m": null, "levels": null, "tract_id": "40143009006", "tract_name": "90.06", "tags": {"addr:city": "Tulsa", "addr:country": "US", "addr:housenumber": "12135", "addr:postcode": "74146", "addr:state": "OK", "addr:street": "East 32nd Street South", "building": "yes"}}}, {"type": "Feature", "geometry": {"type": "Polygon", "coordinates": [[[-95.8338286, 36.1178794], [-95.8338283, 36.1180734], [-95.8336149, 36.1180732], [-95.8336151, 36.1179935], [-95.8335999, 36.1179935], [-95.8335999, 36.1179599], [-95.8336146, 36.1179599], [-95.8336148, 36.1178777], [-95.8337168, 36.1178778], [-95.8337168, 36.1178702], [-95.8337649, 36.1178702], [-95.8337649, 36.1178794], [-95.8338286, 36.1178794]]]}, "properties": {"osm_id": 1056200791, "building": "yes", "name": "Braum's", "height": null, "height_m": null, "levels": null, "tract_id": "40143009006", "tract_name": "90.06", "tags": {"addr:city": "Tulsa", "addr:country": "US", "addr:housenumber": "3126", "addr:postcode": "74146", "addr:state": "OK", "addr:street": "South 129th Avenue East", "amenity": "fast_food", "brand": "Braum's", "brand:wikidata": "Q4958263", "building": "yes", "cuisine": "ice_cream;burger", "name": "Braum's", "phone": "+1-918-665-7289", "ref": "168", "shop": "dairy", "takeaway": "yes"}}}, {"type": "Feature", "geometry": {"type": "Polygon", "coordinates": [[[-95.8336752, 36.1171814], [-95.8337792, 36.1171807], [-95.8337826, 36.1174802], [-95.8336785, 36.117481], [-95.8336752, 36.1171814]]]}, "properties": {"osm_id": 1056200792, "building": "retail", "name": "", "height": null, "height_m": null, "levels": null, "tract_id": "40143009006", "tract_name": "90.06", "tags": {"building": "retail"}}}, {"type": "Feature", "geometry": {"type": "Polygon", "coordinates": [[[-95.8335639, 36.1174317], [-95.8334848, 36.1174315], [-95.8334855, 36.1172252], [-95.8335646, 36.1172253], [-95.8335639, 36.1174317]]]}, "properties": {"osm_id": 1056200793, "building": "roof", "name": "", "height": null, "height_m": null, "levels": null, "tract_id": "40143009006", "tract_name": "90.06", "tags": {"building": "roof", "layer": "1"}}}, {"type": "Feature", "geometry": {"type": "Polygon", "coordinates": [[[-95.833987, 36.1170715], [-95.8335806, 36.1170747], [-95.8335787, 36.1169192], [-95.8336263, 36.1169188], [-95.8336259, 36.1168894], [-95.8336987, 36.1168888], [-95.8336961, 36.116673], [-95.8337697, 36.1166724], [-95.8337686, 36.1165861], [-95.833698, 36.1165867], [-95.8336979, 36.1165805], [-95.8336625, 36.1165808], [-95.8336622, 36.1165621], [-95.833647, 36.1165622], [-95.8336236, 36.1165624], [-95.8336234, 36.1165518], [-95.8336108, 36.1165519], [-95.8335783, 36.1165522], [-95.8335778, 36.1165119], [-95.8336089, 36.1165117], [-95.8336088, 36.1165054], [-95.8336243, 36.1165053], [-95.8335813, 36.1164615], [-95.8335733, 36.1164339], [-95.8335679, 36.116364], [-95.833635, 36.1163359], [-95.8336283, 36.1163218], [-95.8337262, 36.1163023], [-95.8337382, 36.1162844], [-95.8338033, 36.116285], [-95.833814, 36.1163023], [-95.8339126, 36.1163212], [-95.8339092, 36.1163326], [-95.8339749, 36.1163624], [-95.8339769, 36.1164318], [-95.8339635, 36.1164545], [-95.8339655, 36.1164643], [-95.8339799, 36.116493], [-95.8340189, 36.1164927], [-95.8340197, 36.1165609], [-95.8339807, 36.1165613], [-95.833987, 36.1170715]]]}, "properties": {"osm_id": 1056200794, "building": "church", "name": "", "height": null, "height_m": null, "levels": null, "tract_id": "40143009006", "tract_name": "90.06", "tags": {"addr:city": "Tulsa", "addr:country": "US", "addr:housenumber": "3160", "addr:postcode": "74146", "addr:state": "OK", "addr:street": "South 129th Avenue East", "amenity": "place_of_worship", "building": "church", "religion": "christian"}}}, {"type": "Feature", "geometry": {"type": "Polygon", "coordinates": [[[-95.8339671, 36.1187247], [-95.8338362, 36.118725], [-95.8337201, 36.1187253], [-95.8336324, 36.1187255], [-95.8336318, 36.1185525], [-95.8337235, 36.1185523], [-95.8337775, 36.1185522], [-95.8338368, 36.1185521], [-95.8339665, 36.1185518], [-95.8339671, 36.1187247]]]}, "properties": {"osm_id": 1056200795, "building": "roof", "name": "", "height": null, "height_m": null, "levels": null, "tract_id": "40143009006", "tract_name": "90.06", "tags": {"building": "roof", "layer": "1"}}}, {"type": "Feature", "geometry": {"type": "Polygon", "coordinates": [[[-95.850663, 36.1058709], [-95.8506623, 36.105956], [-95.8504451, 36.1059549], [-95.8504457, 36.1058698], [-95.850663, 36.1058709]]]}, "properties": {"osm_id": 1078377079, "building": "yes", "name": "Mazzio's", "height": null, "height_m": null, "levels": null, "tract_id": "40143009006", "tract_name": "90.06", "tags": {"addr:city": "Tulsa", "addr:country": "US", "addr:housenumber": "3975", "addr:postcode": "74146", "addr:state": "OK", "addr:street": "South Garnett Road", "amenity": "restaurant", "brand": "Mazzio's", "brand:wikidata": "Q3853292", "building": "yes", "cuisine": "pizza", "name": "Mazzio's"}}}, {"type": "Feature", "geometry": {"type": "Polygon", "coordinates": [[[-95.8505657, 36.105062], [-95.8506985, 36.105062], [-95.8506985, 36.1051807], [-95.8507139, 36.1051807], [-95.8507139, 36.1052126], [-95.8506985, 36.1052126], [-95.8506985, 36.1052663], [-95.8507133, 36.1052663], [-95.8507133, 36.1053096], [-95.8506925, 36.1053096], [-95.8506925, 36.1053199], [-95.8505879, 36.1053199], [-95.8505879, 36.105282], [-95.8505657, 36.105282], [-95.8505657, 36.105062]]]}, "properties": {"osm_id": 1078377097, "building": "yes", "name": "Arby's", "height": null, "height_m": null, "levels": null, "tract_id": "40143009006", "tract_name": "90.06", "tags": {"addr:city": "Tulsa", "addr:country": "US", "addr:housenumber": "4027", "addr:postcode": "74146", "addr:state": "OK", "addr:street": "South Garnett Road", "amenity": "fast_food", "brand": "Arby's", "brand:wikidata": "Q630866", "building": "yes", "check_date": "2024-06-21", "cuisine": "sandwich", "name": "Arby's", "opening_hours": "09:30-23:30", "phone": "+1 918-270-2877", "takeaway": "yes", "website": "https://www.arbys.com/locations/us/ok/tulsa/4027-s-garnet/store-798/"}}}, {"type": "Feature", "geometry": {"type": "Polygon", "coordinates": [[[-95.8339204, 36.1182947], [-95.8335783, 36.1182932], [-95.8335777, 36.1183856], [-95.8336732, 36.118386], [-95.8336731, 36.1184062], [-95.833841, 36.118407], [-95.8338411, 36.1183865], [-95.8339197, 36.1183868], [-95.8339204, 36.1182947]]]}, "properties": {"osm_id": 1083263208, "building": "retail", "name": "QuikTrip", "height": null, "height_m": null, "levels": null, "tract_id": "40143009006", "tract_name": "90.06", "tags": {"addr:city": "Tulsa", "addr:country": "US", "addr:housenumber": "3108", "addr:postcode": "74134", "addr:state": "OK", "addr:street": "South 129th Avenue East", "brand": "QuikTrip", "brand:wikidata": "Q7271953", "building": "retail", "name": "QuikTrip", "opening_hours": "24/7", "shop": "convenience", "short_name": "QT"}}}, {"type": "Feature", "geometry": {"type": "Polygon", "coordinates": [[[-95.8429214, 36.1186878], [-95.8424118, 36.1186868], [-95.8424125, 36.1184701], [-95.842507, 36.1184703], [-95.8425076, 36.1182686], [-95.8425077, 36.1182567], [-95.8424492, 36.1182565], [-95.8424497, 36.1180984], [-95.842611, 36.1180987], [-95.8427836, 36.1180991], [-95.8427832, 36.118223], [-95.8428241, 36.1182231], [-95.8428239, 36.1182892], [-95.8428237, 36.1183553], [-95.8427834, 36.1183552], [-95.8427832, 36.1184158], [-95.8428235, 36.1184159], [-95.8428234, 36.1184333], [-95.8428233, 36.1184688], [-95.8429222, 36.118469], [-95.8429214, 36.1186878]]]}, "properties": {"osm_id": 1150758787, "building": "commercial", "name": "Community Health Connection", "height": null, "height_m": 3.0, "levels": 1, "tract_id": "40143009006", "tract_name": "90.06", "tags": {"amenity": "clinic", "building": "commercial", "building:levels": "1", "name": "Community Health Connection"}}}, {"type": "Feature", "geometry": {"type": "Polygon", "coordinates": [[[-95.8475397, 36.1183391], [-95.847743, 36.1183472], [-95.8477245, 36.1186493], [-95.8475212, 36.1186412], [-95.8475397, 36.1183391]]]}, "properties": {"osm_id": 1385221765, "building": "retail", "name": "AutoZone", "height": null, "height_m": null, "levels": null, "tract_id": "40143009006", "tract_name": "90.06", "tags": {"addr:city": "Tulsa", "addr:housenumber": "11612", "addr:postcode": "74146", "addr:state": "OK", "addr:street": "East 31st Street South", "brand": "AutoZone", "brand:wikidata": "Q4826087", "building": "retail", "name": "AutoZone", "phone": "+1 918 622 9200", "ref": "526", "shop": "car_parts"}}}, {"type": "Feature", "geometry": {"type": "Polygon", "coordinates": [[[-95.8358659, 36.1184603], [-95.8358655, 36.1185974], [-95.8346431, 36.1185953], [-95.8346435, 36.1184582], [-95.8358659, 36.1184603]]]}, "properties": {"osm_id": 1385235488, "building": "retail", "name": "", "height": null, "height_m": null, "levels": null, "tract_id": "40143009006", "tract_name": "90.06", "tags": {"addr:city": "Tulsa", "addr:country": "US", "addr:housenumber": "12630", "addr:postcode": "74146", "addr:state": "OK", "addr:street": "East 31st Street South", "building": "retail"}}}, {"type": "Feature", "geometry": {"type": "Polygon", "coordinates": [[[-95.8505054, 36.1181288], [-95.8505054, 36.1176272], [-95.8506797, 36.1176272], [-95.8506797, 36.1178775], [-95.8507857, 36.1178775], [-95.8507857, 36.1181288], [-95.8505054, 36.1181288]]]}, "properties": {"osm_id": 1385690680, "building": "retail", "name": "", "height": null, "height_m": null, "levels": null, "tract_id": "40143009006", "tract_name": "90.06", "tags": {"addr:city": "Tulsa", "addr:country": "US", "addr:housenumber": "3151", "addr:postcode": "74146", "addr:state": "OK", "addr:street": "South Garnett Road East", "building": "retail"}}}, {"type": "Feature", "geometry": {"type": "Polygon", "coordinates": [[[-95.8498898, 36.1052121], [-95.8498899, 36.1051991], [-95.850048, 36.1051996], [-95.8500483, 36.1051373], [-95.8501258, 36.1051376], [-95.8501271, 36.1048819], [-95.8500495, 36.1048816], [-95.8500498, 36.1048203], [-95.8498928, 36.1048198], [-95.8498925, 36.1048837], [-95.8498201, 36.1048835], [-95.8497812, 36.1048448], [-95.8496933, 36.1049149], [-95.8497048, 36.1049236], [-95.8497047, 36.104937], [-95.8495559, 36.1049366], [-95.8495545, 36.105211], [-95.8498898, 36.1052121]]]}, "properties": {"osm_id": 1385973646, "building": "retail", "name": "Oklahoma Central Credit Union", "height": null, "height_m": null, "levels": null, "tract_id": "40143009006", "tract_name": "90.06", "tags": {"addr:city": "Tulsa", "addr:country": "US", "addr:housenumber": "11335", "addr:postcode": "74146", "addr:state": "OK", "addr:street": "East 41st Street South", "amenity": "bank", "building": "retail", "name": "Oklahoma Central Credit Union", "source": "INCOG"}}}, {"type": "Feature", "geometry": {"type": "Polygon", "coordinates": [[[-95.8352567, 36.1183475], [-95.8354096, 36.1183465], [-95.8354083, 36.118223], [-95.8353171, 36.1182236], [-95.8353174, 36.118254], [-95.8352557, 36.1182544], [-95.8352567, 36.1183475]]]}, "properties": {"osm_id": 1387919963, "building": "detached", "name": "", "height": null, "height_m": null, "levels": null, "tract_id": "40143009006", "tract_name": "90.06", "tags": {"addr:city": "Tulsa", "addr:country": "US", "addr:housenumber": "12643", "addr:postcode": "74146", "addr:state": "OK", "addr:street": "East 31st Place South", "building": "detached"}}}, {"type": "Feature", "geometry": {"type": "Polygon", "coordinates": [[[-95.8342055, 36.1183184], [-95.8343366, 36.1182045], [-95.8342765, 36.1181593], [-95.834221, 36.1182075], [-95.8341579, 36.1181601], [-95.8340823, 36.1182258], [-95.8342055, 36.1183184]]]}, "properties": {"osm_id": 1387919964, "building": "detached", "name": "", "height": null, "height_m": null, "levels": null, "tract_id": "40143009006", "tract_name": "90.06", "tags": {"addr:city": "Tulsa", "addr:country": "US", "addr:housenumber": "3101", "addr:postcode": "74146", "addr:state": "OK", "addr:street": "South 128th Avenue East", "building": "detached"}}}, {"type": "Feature", "geometry": {"type": "Polygon", "coordinates": [[[-95.8346084, 36.118428], [-95.8341911, 36.1184249], [-95.8341892, 36.1185983], [-95.8342605, 36.1185988], [-95.8342603, 36.1186183], [-95.8343086, 36.1186186], [-95.8343088, 36.1185948], [-95.8344242, 36.1185956], [-95.8344239, 36.1186195], [-95.834609, 36.1186208], [-95.8346095, 36.1185688], [-95.83458, 36.1185686], [-95.8345807, 36.1185044], [-95.8346076, 36.1185046], [-95.8346084, 36.118428]]]}, "properties": {"osm_id": 1387919965, "building": "retail", "name": "", "height": null, "height_m": null, "levels": null, "tract_id": "40143009006", "tract_name": "90.06", "tags": {"addr:city": "Tulsa", "addr:country": "US", "addr:housenumber": "12802", "addr:postcode": "74146", "addr:state": "OK", "addr:street": "East 31st Street South", "building": "retail"}}}, {"type": "Feature", "geometry": {"type": "Polygon", "coordinates": [[[-95.8345229, 36.1182252], [-95.8344371, 36.1182267], [-95.8344379, 36.118257], [-95.8343666, 36.1182583], [-95.8343692, 36.1183514], [-95.8345263, 36.1183486], [-95.8345229, 36.1182252]]]}, "properties": {"osm_id": 1387919966, "building": "detached", "name": "", "height": null, "height_m": null, "levels": null, "tract_id": "40143009006", "tract_name": "90.06", "tags": {"addr:city": "Tulsa", "addr:country": "US", "addr:housenumber": "12663", "addr:postcode": "74146", "addr:state": "OK", "addr:street": "East 31st Place South", "building": "detached"}}}, {"type": "Feature", "geometry": {"type": "Polygon", "coordinates": [[[-95.8345646, 36.1183258], [-95.8347427, 36.1183276], [-95.8347443, 36.1182214], [-95.8346681, 36.1182207], [-95.8346679, 36.118238], [-95.834566, 36.118237], [-95.8345646, 36.1183258]]]}, "properties": {"osm_id": 1387919967, "building": "detached", "name": "", "height": null, "height_m": null, "levels": null, "tract_id": "40143009006", "tract_name": "90.06", "tags": {"addr:city": "Tulsa", "addr:country": "US", "addr:housenumber": "12659", "addr:postcode": "74146", "addr:state": "OK", "addr:street": "East 31st Place South", "building": "detached"}}}, {"type": "Feature", "geometry": {"type": "Polygon", "coordinates": [[[-95.8375296, 36.1180205], [-95.8375307, 36.1180737], [-95.837492, 36.1180742], [-95.8374935, 36.1181488], [-95.8376502, 36.1181467], [-95.8376475, 36.1180189], [-95.8375296, 36.1180205]]]}, "properties": {"osm_id": 1387919968, "building": "detached", "name": "", "height": null, "height_m": null, "levels": null, "tract_id": "40143009006", "tract_name": "90.06", "tags": {"addr:city": "Tulsa", "addr:country": "US", "addr:housenumber": "3122", "addr:postcode": "74146", "addr:state": "OK", "addr:street": "South 126th Avenue East", "building": "detached"}}}, {"type": "Feature", "geometry": {"type": "Polygon", "coordinates": [[[-95.8360787, 36.118226], [-95.8359848, 36.1182255], [-95.8359845, 36.1182558], [-95.8359201, 36.1182554], [-95.8359192, 36.1183464], [-95.8360775, 36.1183474], [-95.8360787, 36.118226]]]}, "properties": {"osm_id": 1387919969, "building": "detached", "name": "", "height": null, "height_m": null, "levels": null, "tract_id": "40143009006", "tract_name": "90.06", "tags": {"addr:city": "Tulsa", "addr:country": "US", "addr:housenumber": "12627", "addr:postcode": "74146", "addr:state": "OK", "addr:street": "East 31st Place South", "building": "detached"}}}, {"type": "Feature", "geometry": {"type": "Polygon", "coordinates": [[[-95.8364501, 36.1184657], [-95.8362125, 36.1184643], [-95.8362128, 36.1184349], [-95.8361457, 36.1184345], [-95.8361455, 36.1184596], [-95.8359551, 36.1184585], [-95.8359539, 36.1185894], [-95.836449, 36.1185923], [-95.8364501, 36.1184657]]]}, "properties": {"osm_id": 1387919970, "building": "retail", "name": "", "height": null, "height_m": null, "levels": null, "tract_id": "40143009006", "tract_name": "90.06", "tags": {"addr:city": "Tulsa", "addr:country": "US", "addr:housenumber": "12620", "addr:postcode": "74146", "addr:state": "OK", "addr:street": "East 31st Street South", "building": "retail"}}}, {"type": "Feature", "geometry": {"type": "Polygon", "coordinates": [[[-95.835013, 36.1182451], [-95.8350111, 36.1183495], [-95.8351803, 36.1183515], [-95.8351825, 36.118223], [-95.8351081, 36.1182221], [-95.8351077, 36.1182462], [-95.835013, 36.1182451]]]}, "properties": {"osm_id": 1387919971, "building": "detached", "name": "", "height": null, "height_m": null, "levels": null, "tract_id": "40143009006", "tract_name": "90.06", "tags": {"addr:city": "Tulsa", "addr:country": "US", "addr:housenumber": "12649", "addr:postcode": "74146", "addr:state": "OK", "addr:street": "East 31st Place South", "building": "detached"}}}, {"type": "Feature", "geometry": {"type": "Polygon", "coordinates": [[[-95.8366042, 36.1182505], [-95.8366062, 36.1183545], [-95.8367778, 36.1183524], [-95.8367755, 36.1182301], [-95.8366843, 36.1182312], [-95.8366847, 36.1182495], [-95.8366042, 36.1182505]]]}, "properties": {"osm_id": 1387919972, "building": "detached", "name": "", "height": null, "height_m": null, "levels": null, "tract_id": "40143009006", "tract_name": "90.06", "tags": {"addr:city": "Tulsa", "addr:country": "US", "addr:housenumber": "12613", "addr:postcode": "74146", "addr:state": "OK", "addr:street": "East 31st Place South", "building": "detached"}}}, {"type": "Feature", "geometry": {"type": "Polygon", "coordinates": [[[-95.8356894, 36.1182495], [-95.8356913, 36.1183526], [-95.8358683, 36.1183505], [-95.835866, 36.118227], [-95.8357721, 36.1182281], [-95.8357725, 36.1182485], [-95.8356894, 36.1182495]]]}, "properties": {"osm_id": 1387919973, "building": "detached", "name": "", "height": null, "height_m": null, "levels": null, "tract_id": "40143009006", "tract_name": "90.06", "tags": {"addr:city": "Tulsa", "addr:country": "US", "addr:housenumber": "12631", "addr:postcode": "74146", "addr:state": "OK", "addr:street": "East 31st Place South", "building": "detached"}}}, {"type": "Feature", "geometry": {"type": "Polygon", "coordinates": [[[-95.835458, 36.1183279], [-95.8356403, 36.1183306], [-95.8356427, 36.1182236], [-95.8354604, 36.1182209], [-95.835458, 36.1183279]]]}, "properties": {"osm_id": 1387919974, "building": "detached", "name": "", "height": null, "height_m": null, "levels": null, "tract_id": "40143009006", "tract_name": "90.06", "tags": {"addr:city": "Tulsa", "addr:country": "US", "addr:housenumber": "12637", "addr:postcode": "74146", "addr:state": "OK", "addr:street": "East 31st Place South", "building": "detached"}}}, {"type": "Feature", "geometry": {"type": "Polygon", "coordinates": [[[-95.8365369, 36.1182256], [-95.8364431, 36.118224], [-95.8364423, 36.1182544], [-95.8363764, 36.1182532], [-95.8363739, 36.1183485], [-95.8364612, 36.11835], [-95.8364606, 36.1183738], [-95.836533, 36.1183751], [-95.8365369, 36.1182256]]]}, "properties": {"osm_id": 1387919975, "building": "detached", "name": "", "height": null, "height_m": null, "levels": null, "tract_id": "40143009006", "tract_name": "90.06", "tags": {"addr:city": "Tulsa", "addr:country": "US", "addr:housenumber": "12617", "addr:postcode": "74146", "addr:state": "OK", "addr:street": "East 31st Place South", "building": "detached"}}}, {"type": "Feature", "geometry": {"type": "Polygon", "coordinates": [[[-95.8349632, 36.1183308], [-95.8349622, 36.1182312], [-95.8347852, 36.1182324], [-95.8347863, 36.118332], [-95.8349632, 36.1183308]]]}, "properties": {"osm_id": 1387919976, "building": "detached", "name": "", "height": null, "height_m": null, "levels": null, "tract_id": "40143009006", "tract_name": "90.06", "tags": {"addr:city": "Tulsa", "addr:country": "US", "addr:housenumber": "12653", "addr:postcode": "74146", "addr:state": "OK", "addr:street": "East 31st Place South", "building": "detached"}}}, {"type": "Feature", "geometry": {"type": "Polygon", "coordinates": [[[-95.8369983, 36.1182277], [-95.836816, 36.1182249], [-95.8368135, 36.1183298], [-95.8369959, 36.1183326], [-95.8369983, 36.1182277]]]}, "properties": {"osm_id": 1387919977, "building": "detached", "name": "", "height": null, "height_m": null, "levels": null, "tract_id": "40143009006", "tract_name": "90.06", "tags": {"addr:city": "Tulsa", "addr:country": "US", "addr:housenumber": "12607", "addr:postcode": "74146", "addr:state": "OK", "addr:street": "East 31st Place South", "building": "detached"}}}, {"type": "Feature", "geometry": {"type": "Polygon", "coordinates": [[[-95.8373563, 36.1183757], [-95.8375146, 36.1183744], [-95.8375128, 36.11824], [-95.8373959, 36.118241], [-95.8373968, 36.1183082], [-95.8373555, 36.1183086], [-95.8373563, 36.1183757]]]}, "properties": {"osm_id": 1387919978, "building": "detached", "name": "", "height": null, "height_m": null, "levels": null, "tract_id": "40143009006", "tract_name": "90.06", "tags": {"addr:city": "Tulsa", "addr:country": "US", "addr:housenumber": "3116", "addr:postcode": "74146", "addr:state": "OK", "addr:street": "South 126th Avenue East", "building": "detached"}}}, {"type": "Feature", "geometry": {"type": "Polygon", "coordinates": [[[-95.8362223, 36.1182239], [-95.8362216, 36.1182499], [-95.8361465, 36.1182486], [-95.8361438, 36.1183516], [-95.8363127, 36.1183546], [-95.8363161, 36.1182255], [-95.8362223, 36.1182239]]]}, "properties": {"osm_id": 1387919979, "building": "detached", "name": "", "height": null, "height_m": null, "levels": null, "tract_id": "40143009006", "tract_name": "90.06", "tags": {"addr:city": "Tulsa", "addr:country": "US", "addr:housenumber": "12621", "addr:postcode": "74146", "addr:state": "OK", "addr:street": "East 31st Place South", "building": "detached"}}}, {"type": "Feature", "geometry": {"type": "Polygon", "coordinates": [[[-95.8367155, 36.1187981], [-95.8369006, 36.1187986], [-95.8369009, 36.1187321], [-95.8367158, 36.1187315], [-95.8367155, 36.1187981]]]}, "properties": {"osm_id": 1387920037, "building": "roof", "name": "", "height": null, "height_m": null, "levels": null, "tract_id": "40143009006", "tract_name": "90.06", "tags": {"building": "roof"}}}, {"type": "Feature", "geometry": {"type": "Polygon", "coordinates": [[[-95.8367894, 36.1184606], [-95.8367888, 36.1185971], [-95.8369953, 36.1185977], [-95.8369959, 36.1184612], [-95.8367894, 36.1184606]]]}, "properties": {"osm_id": 1387920038, "building": "retail", "name": "Food Plaza", "height": null, "height_m": null, "levels": null, "tract_id": "40143009006", "tract_name": "90.06", "tags": {"addr:city": "Tulsa", "addr:country": "US", "addr:housenumber": "12602", "addr:postcode": "74146", "addr:state": "OK", "addr:street": "East 31st Street South", "building": "retail", "check_date": "2022-11-14", "name": "Food Plaza", "shop": "convenience"}}}, {"type": "Feature", "geometry": {"type": "Polygon", "coordinates": [[[-95.8375681, 36.1185013], [-95.8375662, 36.1184342], [-95.8374472, 36.1184365], [-95.8374531, 36.1186412], [-95.8375721, 36.118639], [-95.8375717, 36.1186238], [-95.8376709, 36.1186219], [-95.8376673, 36.1184995], [-95.8375681, 36.1185013]]]}, "properties": {"osm_id": 1387921232, "building": "commercial", "name": "", "height": null, "height_m": null, "levels": null, "tract_id": "40143009006", "tract_name": "90.06", "tags": {"addr:city": "Tulsa", "addr:country": "US", "addr:housenumber": "12440", "addr:postcode": "74146", "addr:state": "OK", "addr:street": "East 31st Street South", "building": "commercial"}}}, {"type": "Feature", "geometry": {"type": "Polygon", "coordinates": [[[-95.8390845, 36.118781], [-95.8390493, 36.1187816], [-95.8390483, 36.1187431], [-95.8390836, 36.1187425], [-95.8390845, 36.118781]]]}, "properties": {"osm_id": 1387921365, "building": "shed", "name": "", "height": null, "height_m": null, "levels": null, "tract_id": "40143009006", "tract_name": "90.06", "tags": {"building": "shed"}}}, {"type": "Feature", "geometry": {"type": "Polygon", "coordinates": [[[-95.8397185, 36.1186089], [-95.8397191, 36.1184726], [-95.8395961, 36.1184723], [-95.8395955, 36.1186085], [-95.8397185, 36.1186089]]]}, "properties": {"osm_id": 1387921366, "building": "detached", "name": "", "height": null, "height_m": null, "levels": null, "tract_id": "40143009006", "tract_name": "90.06", "tags": {"addr:city": "Tulsa", "addr:country": "US", "addr:housenumber": "3110", "addr:postcode": "74146", "addr:state": "OK", "addr:street": "South 124th Avenue East", "building": "detached"}}}, {"type": "Feature", "geometry": {"type": "Polygon", "coordinates": [[[-95.8392506, 36.1186105], [-95.8392512, 36.1185427], [-95.8392297, 36.1185426], [-95.8392305, 36.1184625], [-95.8391098, 36.1184617], [-95.8391093, 36.1185137], [-95.8390772, 36.1185135], [-95.8390765, 36.1185865], [-95.8391106, 36.1185867], [-95.8391104, 36.1186096], [-95.8392506, 36.1186105]]]}, "properties": {"osm_id": 1387921367, "building": "detached", "name": "", "height": null, "height_m": null, "levels": null, "tract_id": "40143009006", "tract_name": "90.06", "tags": {"addr:city": "Tulsa", "addr:country": "US", "addr:housenumber": "3109", "addr:postcode": "74146", "addr:state": "OK", "addr:street": "South 124th Avenue East", "building": "detached"}}}, {"type": "Feature", "geometry": {"type": "Polygon", "coordinates": [[[-95.8392464, 36.1186394], [-95.8390899, 36.118642], [-95.8390936, 36.1187871], [-95.8392518, 36.1187845], [-95.8392501, 36.1187173], [-95.8391826, 36.1187185], [-95.8391823, 36.118709], [-95.8392481, 36.1187079], [-95.8392464, 36.1186394]]]}, "properties": {"osm_id": 1387921368, "building": "detached", "name": "", "height": null, "height_m": null, "levels": null, "tract_id": "40143009006", "tract_name": "90.06", "tags": {"addr:city": "Tulsa", "addr:country": "US", "addr:housenumber": "3103", "addr:postcode": "74146", "addr:state": "OK", "addr:street": "South 124th Avenue East", "building": "detached"}}}, {"type": "Feature", "geometry": {"type": "Polygon", "coordinates": [[[-95.8397265, 36.1187822], [-95.8397299, 36.1186415], [-95.8395893, 36.1186393], [-95.839586, 36.11878], [-95.8397265, 36.1187822]]]}, "properties": {"osm_id": 1387921369, "building": "detached", "name": "", "height": null, "height_m": null, "levels": null, "tract_id": "40143009006", "tract_name": "90.06", "tags": {"addr:city": "Tulsa", "addr:country": "US", "addr:housenumber": "3104", "addr:postcode": "74146", "addr:state": "OK", "addr:street": "South 124th Avenue East", "building": "detached"}}}, {"type": "Feature", "geometry": {"type": "Polygon", "coordinates": [[[-95.8391301, 36.1182881], [-95.8391278, 36.1184322], [-95.8392503, 36.1184334], [-95.8392508, 36.118397], [-95.8392608, 36.1183971], [-95.8392618, 36.1183282], [-95.8392519, 36.1183281], [-95.8392525, 36.1182894], [-95.8391301, 36.1182881]]]}, "properties": {"osm_id": 1387921370, "building": "detached", "name": "", "height": null, "height_m": null, "levels": null, "tract_id": "40143009006", "tract_name": "90.06", "tags": {"addr:city": "Tulsa", "addr:country": "US", "addr:housenumber": "3113", "addr:postcode": "74146", "addr:state": "OK", "addr:street": "South 124th Avenue East", "building": "detached"}}}, {"type": "Feature", "geometry": {"type": "Polygon", "coordinates": [[[-95.8397161, 36.118296], [-95.8396045, 36.1182962], [-95.8396048, 36.1183837], [-95.8395835, 36.1183837], [-95.8395837, 36.1184418], [-95.8397166, 36.1184415], [-95.8397161, 36.118296]]]}, "properties": {"osm_id": 1387921371, "building": "detached", "name": "", "height": null, "height_m": null, "levels": null, "tract_id": "40143009006", "tract_name": "90.06", "tags": {"addr:city": "Tulsa", "addr:country": "US", "addr:housenumber": "3114", "addr:postcode": "74146", "addr:state": "OK", "addr:street": "South 124th Avenue East", "building": "detached"}}}, {"type": "Feature", "geometry": {"type": "Polygon", "coordinates": [[[-95.8395788, 36.1179607], [-95.8395797, 36.1180247], [-95.8396065, 36.1180244], [-95.8396078, 36.1181067], [-95.8397112, 36.1181057], [-95.839709, 36.1179595], [-95.8395788, 36.1179607]]]}, "properties": {"osm_id": 1387921372, "building": "yes", "name": "", "height": null, "height_m": null, "levels": null, "tract_id": "40143009006", "tract_name": "90.06", "tags": {"building": "yes"}}}, {"type": "Feature", "geometry": {"type": "Polygon", "coordinates": [[[-95.8395794, 36.1182774], [-95.8397001, 36.118277], [-95.8396995, 36.1181232], [-95.8395788, 36.1181235], [-95.8395794, 36.1182774]]]}, "properties": {"osm_id": 1387921373, "building": "detached", "name": "", "height": null, "height_m": null, "levels": null, "tract_id": "40143009006", "tract_name": "90.06", "tags": {"addr:city": "Tulsa", "addr:country": "US", "addr:housenumber": "3120", "addr:postcode": "74146", "addr:state": "OK", "addr:street": "South 124th Avenue East", "building": "detached"}}}, {"type": "Feature", "geometry": {"type": "Polygon", "coordinates": [[[-95.839231, 36.1181214], [-95.8390924, 36.1181207], [-95.8390915, 36.1182486], [-95.8392458, 36.1182493], [-95.8392462, 36.1181852], [-95.8392306, 36.1181852], [-95.839231, 36.1181214]]]}, "properties": {"osm_id": 1387921374, "building": "detached", "name": "", "height": null, "height_m": null, "levels": null, "tract_id": "40143009006", "tract_name": "90.06", "tags": {"addr:city": "Tulsa", "addr:country": "US", "addr:housenumber": "3119", "addr:postcode": "74146", "addr:state": "OK", "addr:street": "South 124th Avenue East", "building": "detached"}}}, {"type": "Feature", "geometry": {"type": "Polygon", "coordinates": [[[-95.8398939, 36.1180958], [-95.8398623, 36.1180954], [-95.839863, 36.1180597], [-95.8398946, 36.11806], [-95.8398939, 36.1180958]]]}, "properties": {"osm_id": 1387921703, "building": "yes", "name": "", "height": null, "height_m": null, "levels": null, "tract_id": "40143009006", "tract_name": "90.06", "tags": {"building": "yes"}}}, {"type": "Feature", "geometry": {"type": "Polygon", "coordinates": [[[-95.8399013, 36.1181538], [-95.839863, 36.1181538], [-95.839863, 36.1181191], [-95.8399013, 36.1181191], [-95.8399013, 36.1181538]]]}, "properties": {"osm_id": 1387921704, "building": "yes", "name": "", "height": null, "height_m": null, "levels": null, "tract_id": "40143009006", "tract_name": "90.06", "tags": {"building": "yes"}}}, {"type": "Feature", "geometry": {"type": "Polygon", "coordinates": [[[-95.8398832, 36.1185822], [-95.8398409, 36.1185822], [-95.8398409, 36.1185513], [-95.8398832, 36.1185513], [-95.8398832, 36.1185822]]]}, "properties": {"osm_id": 1387921705, "building": "yes", "name": "", "height": null, "height_m": null, "levels": null, "tract_id": "40143009006", "tract_name": "90.06", "tags": {"building": "yes"}}}, {"type": "Feature", "geometry": {"type": "Polygon", "coordinates": [[[-95.8398791, 36.1187718], [-95.8398161, 36.1187718], [-95.8398161, 36.118742], [-95.8398791, 36.118742], [-95.8398791, 36.1187718]]]}, "properties": {"osm_id": 1387921706, "building": "yes", "name": "", "height": null, "height_m": null, "levels": null, "tract_id": "40143009006", "tract_name": "90.06", "tags": {"building": "yes"}}}, {"type": "Feature", "geometry": {"type": "Polygon", "coordinates": [[[-95.8406372, 36.1180863], [-95.8405524, 36.1180779], [-95.8405582, 36.1180394], [-95.840643, 36.1180478], [-95.8406372, 36.1180863]]]}, "properties": {"osm_id": 1387921707, "building": "yes", "name": "", "height": null, "height_m": null, "levels": null, "tract_id": "40143009006", "tract_name": "90.06", "tags": {"building": "yes"}}}, {"type": "Feature", "geometry": {"type": "Polygon", "coordinates": [[[-95.8411036, 36.1180598], [-95.841056, 36.1180598], [-95.841056, 36.1180292], [-95.8411036, 36.1180292], [-95.8411036, 36.1180598]]]}, "properties": {"osm_id": 1387921708, "building": "yes", "name": "", "height": null, "height_m": null, "levels": null, "tract_id": "40143009006", "tract_name": "90.06", "tags": {"building": "yes"}}}, {"type": "Feature", "geometry": {"type": "Polygon", "coordinates": [[[-95.841113, 36.1180939], [-95.8410596, 36.1180936], [-95.8410598, 36.118069], [-95.8411131, 36.1180693], [-95.841113, 36.1180939]]]}, "properties": {"osm_id": 1387921709, "building": "yes", "name": "", "height": null, "height_m": null, "levels": null, "tract_id": "40143009006", "tract_name": "90.06", "tags": {"building": "yes"}}}, {"type": "Feature", "geometry": {"type": "Polygon", "coordinates": [[[-95.8415204, 36.1182806], [-95.8415173, 36.1181138], [-95.8414154, 36.1181151], [-95.841416, 36.1181476], [-95.8413704, 36.1181481], [-95.8413729, 36.1182824], [-95.8415204, 36.1182806]]]}, "properties": {"osm_id": 1387921711, "building": "detached", "name": "", "height": null, "height_m": null, "levels": null, "tract_id": "40143009006", "tract_name": "90.06", "tags": {"addr:city": "Tulsa", "addr:country": "US", "addr:housenumber": "3123", "addr:postcode": "74146", "addr:state": "OK", "addr:street": "South 121st Avenue East", "building": "detached"}}}, {"type": "Feature", "geometry": {"type": "Polygon", "coordinates": [[[-95.8401972, 36.1187305], [-95.840272, 36.1187488], [-95.8402882, 36.1187058], [-95.8404362, 36.1187421], [-95.8404613, 36.1186756], [-95.8402384, 36.1186208], [-95.8401972, 36.1187305]]]}, "properties": {"osm_id": 1387921712, "building": "detached", "name": "", "height": null, "height_m": null, "levels": null, "tract_id": "40143009006", "tract_name": "90.06", "tags": {"addr:city": "Tulsa", "addr:country": "US", "addr:housenumber": "12131", "addr:postcode": "74146", "addr:state": "OK", "addr:street": "East 31st Place South", "building": "detached", "surface": "asphalt"}}}, {"type": "Feature", "geometry": {"type": "Polygon", "coordinates": [[[-95.8406856, 36.1185918], [-95.840589, 36.1185913], [-95.8405888, 36.1186173], [-95.8404976, 36.1186168], [-95.8404969, 36.1186991], [-95.8405425, 36.1186994], [-95.8405421, 36.118747], [-95.8406199, 36.1187474], [-95.8406203, 36.1187019], [-95.8406846, 36.1187023], [-95.8406856, 36.1185918]]]}, "properties": {"osm_id": 1387921713, "building": "detached", "name": "", "height": null, "height_m": null, "levels": null, "tract_id": "40143009006", "tract_name": "90.06", "tags": {"addr:city": "Tulsa", "addr:country": "US", "addr:housenumber": "12127", "addr:postcode": "74146", "addr:state": "OK", "addr:street": "East 31st Place South", "building": "detached", "surface": "asphalt"}}}, {"type": "Feature", "geometry": {"type": "Polygon", "coordinates": [[[-95.8408956, 36.1182284], [-95.8408969, 36.1181591], [-95.8407196, 36.1181574], [-95.8407159, 36.1182847], [-95.8407991, 36.1182857], [-95.8408002, 36.1182272], [-95.8408956, 36.1182284]]]}, "properties": {"osm_id": 1387921714, "building": "detached", "name": "", "height": null, "height_m": null, "levels": null, "tract_id": "40143009006", "tract_name": "90.06", "tags": {"addr:city": "Tulsa", "addr:country": "US", "addr:housenumber": "12122", "addr:postcode": "74146", "addr:state": "OK", "addr:street": "East 31st Place South", "building": "detached", "surface": "asphalt"}}}, {"type": "Feature", "geometry": {"type": "Polygon", "coordinates": [[[-95.8406636, 36.1182467], [-95.8406875, 36.1181507], [-95.840516, 36.1181229], [-95.8404922, 36.1182189], [-95.8405422, 36.118227], [-95.8405401, 36.1182354], [-95.8406225, 36.1182487], [-95.8406245, 36.1182403], [-95.8406636, 36.1182467]]]}, "properties": {"osm_id": 1387921715, "building": "detached", "name": "", "height": null, "height_m": null, "levels": null, "tract_id": "40143009006", "tract_name": "90.06", "tags": {"addr:city": "Tulsa", "addr:country": "US", "addr:housenumber": "12128", "addr:postcode": "74146", "addr:state": "OK", "addr:street": "East 31st Place South", "building": "detached", "surface": "asphalt"}}}, {"type": "Feature", "geometry": {"type": "Polygon", "coordinates": [[[-95.841146, 36.1186636], [-95.8413202, 36.1186667], [-95.8413232, 36.1185563], [-95.8412589, 36.1185551], [-95.8412582, 36.1185811], [-95.8411483, 36.1185792], [-95.841146, 36.1186636]]]}, "properties": {"osm_id": 1387921716, "building": "detached", "name": "", "height": null, "height_m": null, "levels": null, "tract_id": "40143009006", "tract_name": "90.06", "tags": {"addr:city": "Tulsa", "addr:country": "US", "addr:housenumber": "12111", "addr:postcode": "74146", "addr:state": "OK", "addr:street": "East 31st Place South", "building": "detached", "surface": "asphalt"}}}, {"type": "Feature", "geometry": {"type": "Polygon", "coordinates": [[[-95.8402167, 36.1185007], [-95.8401895, 36.1185112], [-95.8401504, 36.118445], [-95.8400447, 36.1184858], [-95.8401179, 36.1186098], [-95.8402509, 36.1185585], [-95.8402167, 36.1185007]]]}, "properties": {"osm_id": 1387921717, "building": "detached", "name": "", "height": null, "height_m": null, "levels": null, "tract_id": "40143009006", "tract_name": "90.06", "tags": {"addr:city": "Tulsa", "addr:country": "US", "addr:housenumber": "12135", "addr:postcode": "74146", "addr:state": "OK", "addr:street": "East 31st Place South", "building": "detached", "surface": "asphalt"}}}, {"type": "Feature", "geometry": {"type": "Polygon", "coordinates": [[[-95.8402421, 36.1181319], [-95.8402589, 36.1182135], [-95.8404402, 36.1181891], [-95.8404234, 36.1181077], [-95.8403604, 36.1181162], [-95.840354, 36.1180854], [-95.8403146, 36.1180907], [-95.8403209, 36.1181213], [-95.8402421, 36.1181319]]]}, "properties": {"osm_id": 1387921718, "building": "detached", "name": "", "height": null, "height_m": null, "levels": null, "tract_id": "40143009006", "tract_name": "90.06", "tags": {"addr:city": "Tulsa", "addr:country": "US", "addr:housenumber": "12132", "addr:postcode": "74146", "addr:state": "OK", "addr:street": "East 31st Place South", "building": "detached", "surface": "asphalt"}}}, {"type": "Feature", "geometry": {"type": "Polygon", "coordinates": [[[-95.841108, 36.1185543], [-95.8410141, 36.1185537], [-95.8410139, 36.1185753], [-95.8409361, 36.1185748], [-95.8409352, 36.1186593], [-95.8411069, 36.1186605], [-95.841108, 36.1185543]]]}, "properties": {"osm_id": 1387921719, "building": "detached", "name": "", "height": null, "height_m": null, "levels": null, "tract_id": "40143009006", "tract_name": "90.06", "tags": {"addr:city": "Tulsa", "addr:country": "US", "addr:housenumber": "12115", "addr:postcode": "74146", "addr:state": "OK", "addr:street": "East 31st Place South", "building": "detached", "surface": "asphalt"}}}, {"type": "Feature", "geometry": {"type": "Polygon", "coordinates": [[[-95.8411083, 36.1182321], [-95.8411092, 36.1181627], [-95.8410433, 36.1181622], [-95.8410437, 36.1181297], [-95.8409632, 36.118129], [-95.8409627, 36.118168], [-95.8409321, 36.1181678], [-95.8409306, 36.1182838], [-95.8410111, 36.1182844], [-95.8410117, 36.1182313], [-95.8411083, 36.1182321]]]}, "properties": {"osm_id": 1387921720, "building": "detached", "name": "", "height": null, "height_m": null, "levels": null, "tract_id": "40143009006", "tract_name": "90.06", "tags": {"addr:city": "Tulsa", "addr:country": "US", "addr:housenumber": "12116", "addr:postcode": "74146", "addr:state": "OK", "addr:street": "East 31st Place South", "building": "detached", "surface": "asphalt"}}}, {"type": "Feature", "geometry": {"type": "Polygon", "coordinates": [[[-95.841494, 36.1186121], [-95.8415272, 36.1186128], [-95.841529, 36.1185543], [-95.8413912, 36.1185516], [-95.8413854, 36.1187421], [-95.8414711, 36.1187438], [-95.8414729, 36.1186854], [-95.8414917, 36.1186858], [-95.841494, 36.1186121]]]}, "properties": {"osm_id": 1387921721, "building": "detached", "name": "", "height": null, "height_m": null, "levels": null, "tract_id": "40143009006", "tract_name": "90.06", "tags": {"addr:city": "Tulsa", "addr:country": "US", "addr:housenumber": "3109", "addr:postcode": "74146", "addr:state": "OK", "addr:street": "South 121st Avenue East", "building": "detached"}}}, {"type": "Feature", "geometry": {"type": "Polygon", "coordinates": [[[-95.8407231, 36.1186645], [-95.8409, 36.1186599], [-95.8408958, 36.1185539], [-95.8408073, 36.1185562], [-95.8408081, 36.1185757], [-95.8407197, 36.1185779], [-95.8407231, 36.1186645]]]}, "properties": {"osm_id": 1387921722, "building": "detached", "name": "", "height": null, "height_m": null, "levels": null, "tract_id": "40143009006", "tract_name": "90.06", "tags": {"addr:city": "Tulsa", "addr:country": "US", "addr:housenumber": "12121", "addr:postcode": "74146", "addr:state": "OK", "addr:street": "East 31st Place South", "building": "detached", "surface": "asphalt"}}}, {"type": "Feature", "geometry": {"type": "Polygon", "coordinates": [[[-95.8413218, 36.1181697], [-95.8411475, 36.1181722], [-95.8411496, 36.1182675], [-95.8412472, 36.1182661], [-95.8412476, 36.1182844], [-95.8413242, 36.1182833], [-95.8413218, 36.1181697]]]}, "properties": {"osm_id": 1387921723, "building": "detached", "name": "", "height": null, "height_m": null, "levels": null, "tract_id": "40143009006", "tract_name": "90.06", "tags": {"addr:city": "Tulsa", "addr:country": "US", "addr:housenumber": "12112", "addr:postcode": "74146", "addr:state": "OK", "addr:street": "East 31st Place South", "building": "detached", "surface": "asphalt"}}}, {"type": "Feature", "geometry": {"type": "Polygon", "coordinates": [[[-95.8401479, 36.1182184], [-95.8400562, 36.1183758], [-95.840148, 36.1184107], [-95.8402397, 36.1182533], [-95.8401479, 36.1182184]]]}, "properties": {"osm_id": 1387921724, "building": "detached", "name": "", "height": null, "height_m": null, "levels": null, "tract_id": "40143009006", "tract_name": "90.06", "tags": {"addr:city": "Tulsa", "addr:country": "US", "addr:housenumber": "12136", "addr:postcode": "74146", "addr:state": "OK", "addr:street": "East 31st Place South", "building": "detached", "surface": "asphalt"}}}, {"type": "Feature", "geometry": {"type": "Polygon", "coordinates": [[[-95.8421711, 36.11841], [-95.8420979, 36.1184109], [-95.8420973, 36.1183829], [-95.8421705, 36.1183819], [-95.8421711, 36.11841]]]}, "properties": {"osm_id": 1388131144, "building": "yes", "name": "", "height": null, "height_m": null, "levels": null, "tract_id": "40143009006", "tract_name": "90.06", "tags": {"building": "yes"}}}, {"type": "Feature", "geometry": {"type": "Polygon", "coordinates": [[[-95.8420276, 36.1184847], [-95.8419825, 36.1184853], [-95.841982, 36.1184587], [-95.8420271, 36.1184581], [-95.8420276, 36.1184847]]]}, "properties": {"osm_id": 1388131145, "building": "yes", "name": "", "height": null, "height_m": null, "levels": null, "tract_id": "40143009006", "tract_name": "90.06", "tags": {"building": "yes"}}}, {"type": "Feature", "geometry": {"type": "Polygon", "coordinates": [[[-95.8419766, 36.1184627], [-95.8418652, 36.1184642], [-95.8418662, 36.1185165], [-95.841856, 36.1185167], [-95.8418577, 36.118606], [-95.8419794, 36.1186045], [-95.8419766, 36.1184627]]]}, "properties": {"osm_id": 1388131146, "building": "detached", "name": "", "height": null, "height_m": null, "levels": null, "tract_id": "40143009006", "tract_name": "90.06", "tags": {"addr:city": "Tulsa", "addr:country": "US", "addr:housenumber": "3112", "addr:postcode": "74146", "addr:state": "OK", "addr:street": "South 121st Avenue East", "building": "detached"}}}, {"type": "Feature", "geometry": {"type": "Polygon", "coordinates": [[[-95.8418658, 36.1182659], [-95.8419758, 36.1182671], [-95.8419782, 36.1181241], [-95.8418682, 36.1181229], [-95.8418658, 36.1182659]]]}, "properties": {"osm_id": 1388131147, "building": "detached", "name": "", "height": null, "height_m": null, "levels": null, "tract_id": "40143009006", "tract_name": "90.06", "tags": {"addr:city": "Tulsa", "addr:country": "US", "addr:housenumber": "3122", "addr:postcode": "74146", "addr:state": "OK", "addr:street": "South 121st Avenue East", "building": "detached"}}}, {"type": "Feature", "geometry": {"type": "Polygon", "coordinates": [[[-95.8419772, 36.1186359], [-95.8418691, 36.1186372], [-95.8418708, 36.1187317], [-95.8418557, 36.1187319], [-95.8418567, 36.118783], [-95.8420456, 36.1187808], [-95.842044, 36.1186942], [-95.8419783, 36.1186949], [-95.8419772, 36.1186359]]]}, "properties": {"osm_id": 1388131148, "building": "detached", "name": "", "height": null, "height_m": null, "levels": null, "tract_id": "40143009006", "tract_name": "90.06", "tags": {"addr:city": "Tulsa", "addr:country": "US", "addr:housenumber": "3106", "addr:postcode": "74146", "addr:state": "OK", "addr:street": "South 121st Avenue East", "building": "detached"}}}, {"type": "Feature", "geometry": {"type": "Polygon", "coordinates": [[[-95.8418675, 36.1180901], [-95.8419875, 36.1180917], [-95.8419902, 36.1179539], [-95.8418702, 36.1179524], [-95.8418675, 36.1180901]]]}, "properties": {"osm_id": 1388131149, "building": "detached", "name": "", "height": null, "height_m": null, "levels": null, "tract_id": "40143009006", "tract_name": "90.06", "tags": {"addr:city": "Tulsa", "addr:country": "US", "addr:housenumber": "3126", "addr:postcode": "74146", "addr:state": "OK", "addr:street": "South 121st Avenue East", "building": "detached"}}}, {"type": "Feature", "geometry": {"type": "Polygon", "coordinates": [[[-95.8419849, 36.1184355], [-95.8419848, 36.1183922], [-95.8420227, 36.1183921], [-95.8420225, 36.1183191], [-95.841981, 36.1183192], [-95.841981, 36.1182947], [-95.8418776, 36.1182949], [-95.8418778, 36.1183599], [-95.841859, 36.1183599], [-95.8418592, 36.1184357], [-95.8419849, 36.1184355]]]}, "properties": {"osm_id": 1388131150, "building": "detached", "name": "", "height": null, "height_m": null, "levels": null, "tract_id": "40143009006", "tract_name": "90.06", "tags": {"addr:city": "Tulsa", "addr:country": "US", "addr:housenumber": "3116", "addr:postcode": "74146", "addr:state": "OK", "addr:street": "South 121st Avenue East", "building": "detached"}}}, {"type": "Feature", "geometry": {"type": "Polygon", "coordinates": [[[-95.8467879, 36.118599], [-95.8467005, 36.1186858], [-95.8468376, 36.1187759], [-95.8469174, 36.1186967], [-95.8468676, 36.118664], [-95.8468753, 36.1186564], [-95.8467879, 36.118599]]]}, "properties": {"osm_id": 1388906811, "building": "detached", "name": "", "height": null, "height_m": null, "levels": null, "tract_id": "40143009006", "tract_name": "90.06", "tags": {"addr:city": "Tulsa", "addr:country": "US", "addr:housenumber": "3101", "addr:postcode": "74146", "addr:state": "OK", "addr:street": "South 117th Avenue East", "building": "detached"}}}, {"type": "Feature", "geometry": {"type": "Polygon", "coordinates": [[[-95.8474054, 36.11842], [-95.847409, 36.1183204], [-95.8472991, 36.1183178], [-95.847296, 36.1184022], [-95.8472532, 36.1184012], [-95.8472503, 36.1184792], [-95.8474353, 36.1184835], [-95.8474375, 36.1184207], [-95.8474054, 36.11842]]]}, "properties": {"osm_id": 1388906812, "building": "detached", "name": "", "height": null, "height_m": null, "levels": null, "tract_id": "40143009006", "tract_name": "90.06", "tags": {"addr:city": "Tulsa", "addr:country": "US", "addr:housenumber": "3110", "addr:postcode": "74146", "addr:state": "OK", "addr:street": "South 117th Avenue East", "building": "detached"}}}, {"type": "Feature", "geometry": {"type": "Polygon", "coordinates": [[[-95.8474376, 36.1181246], [-95.8473179, 36.1181266], [-95.8473197, 36.1181953], [-95.8472824, 36.1181959], [-95.8472842, 36.1182648], [-95.8474411, 36.1182621], [-95.8474376, 36.1181246]]]}, "properties": {"osm_id": 1388906813, "building": "detached", "name": "", "height": null, "height_m": null, "levels": null, "tract_id": "40143009006", "tract_name": "90.06", "tags": {"addr:city": "Tulsa", "addr:country": "US", "addr:housenumber": "3114", "addr:postcode": "74146", "addr:state": "OK", "addr:street": "South 117th Avenue East", "building": "detached"}}}, {"type": "Feature", "geometry": {"type": "Polygon", "coordinates": [[[-95.8486386, 36.11837], [-95.848593, 36.1183703], [-95.8485928, 36.1183475], [-95.8483136, 36.1183489], [-95.8483155, 36.1185949], [-95.8486404, 36.1185932], [-95.8486386, 36.11837]]]}, "properties": {"osm_id": 1388906814, "building": "commercial", "name": "", "height": null, "height_m": null, "levels": null, "tract_id": "40143009006", "tract_name": "90.06", "tags": {"addr:city": "Tulsa", "addr:country": "US", "addr:housenumber": "11360", "addr:postcode": "74146", "addr:state": "OK", "addr:street": "East 31st Street South", "building": "commercial"}}}, {"type": "Feature", "geometry": {"type": "Polygon", "coordinates": [[[-95.8467571, 36.1181413], [-95.8469449, 36.1181416], [-95.8469451, 36.1180702], [-95.8468753, 36.11807], [-95.8468756, 36.1179964], [-95.8467576, 36.1179961], [-95.8467571, 36.1181413]]]}, "properties": {"osm_id": 1388906815, "building": "detached", "name": "", "height": null, "height_m": null, "levels": null, "tract_id": "40143009006", "tract_name": "90.06", "tags": {"addr:city": "Tulsa", "addr:country": "US", "addr:housenumber": "3117", "addr:postcode": "74146", "addr:state": "OK", "addr:street": "South 117th Avenue East", "building": "detached"}}}, {"type": "Feature", "geometry": {"type": "Polygon", "coordinates": [[[-95.8467379, 36.1181598], [-95.8467369, 36.1182357], [-95.846761, 36.1182359], [-95.84676, 36.1183139], [-95.846842, 36.1183146], [-95.8468431, 36.1182344], [-95.8469423, 36.1182353], [-95.8469433, 36.1181617], [-95.8467379, 36.1181598]]]}, "properties": {"osm_id": 1388906816, "building": "detached", "name": "", "height": null, "height_m": null, "levels": null, "tract_id": "40143009006", "tract_name": "90.06", "tags": {"addr:city": "Tulsa", "addr:country": "US", "addr:housenumber": "3109", "addr:postcode": "74146", "addr:state": "OK", "addr:street": "South 117th Avenue East", "building": "detached"}}}, {"type": "Feature", "geometry": {"type": "Polygon", "coordinates": [[[-95.8474015, 36.1185354], [-95.8472462, 36.1185004], [-95.8472261, 36.1185587], [-95.8472659, 36.1185677], [-95.8472374, 36.1186501], [-95.8473529, 36.1186761], [-95.8474015, 36.1185354]]]}, "properties": {"osm_id": 1388906817, "building": "detached", "name": "", "height": null, "height_m": null, "levels": null, "tract_id": "40143009006", "tract_name": "90.06", "tags": {"addr:city": "Tulsa", "addr:country": "US", "addr:housenumber": "3106", "addr:postcode": "74146", "addr:state": "OK", "addr:street": "South 117th Avenue East", "building": "detached"}}}, {"type": "Feature", "geometry": {"type": "Polygon", "coordinates": [[[-95.8472451, 36.1187775], [-95.847244, 36.1186939], [-95.847008, 36.1186958], [-95.8470093, 36.1188041], [-95.84713, 36.1188031], [-95.8471297, 36.1187784], [-95.8472451, 36.1187775]]]}, "properties": {"osm_id": 1388906818, "building": "detached", "name": "", "height": null, "height_m": null, "levels": null, "tract_id": "40143009006", "tract_name": "90.06", "tags": {"addr:city": "Tulsa", "addr:country": "US", "addr:housenumber": "3102", "addr:postcode": "74146", "addr:state": "OK", "addr:street": "South 117th Avenue East", "building": "detached"}}}, {"type": "Feature", "geometry": {"type": "Polygon", "coordinates": [[[-95.8338656, 36.1070064], [-95.8338006, 36.1070075], [-95.8338018, 36.1070556], [-95.8336927, 36.1070574], [-95.8336896, 36.1069322], [-95.833714, 36.1069318], [-95.8337126, 36.1068761], [-95.8338623, 36.1068737], [-95.8338656, 36.1070064]]]}, "properties": {"osm_id": 1413989487, "building": "office", "name": "Polo Club", "height": null, "height_m": null, "levels": null, "tract_id": "40143009006", "tract_name": "90.06", "tags": {"building": "office", "name": "Polo Club", "office": "property_management"}}}, {"type": "Feature", "geometry": {"type": "Polygon", "coordinates": [[[-95.8340353, 36.1048258], [-95.8340386, 36.1050815], [-95.8336873, 36.1050815], [-95.8336765, 36.1050902], [-95.8336209, 36.1050902], [-95.8336209, 36.1050452], [-95.8336443, 36.1050124], [-95.8336396, 36.1049982], [-95.8335813, 36.1050171], [-95.8335296, 36.1049124], [-95.8338012, 36.1048248], [-95.8338009, 36.1047741], [-95.8338438, 36.1047739], [-95.833855, 36.1047829], [-95.8340484, 36.1047823], [-95.8340485, 36.1048174], [-95.8340353, 36.1048258]]]}, "properties": {"osm_id": 1414478847, "building": "retail", "name": "", "height": null, "height_m": 3.0, "levels": 1, "tract_id": "40143009006", "tract_name": "90.06", "tags": {"building": "retail", "building:levels": "1", "roof:levels": "0", "roof:shape": "flat"}}}, {"type": "Feature", "geometry": {"type": "Polygon", "coordinates": [[[-95.8364352, 36.1050065], [-95.8362806, 36.1050065], [-95.8362806, 36.104978], [-95.8362367, 36.104978], [-95.8362367, 36.1049117], [-95.8362806, 36.1049117], [-95.8362806, 36.1048965], [-95.8364352, 36.1048965], [-95.8364352, 36.1050065]]]}, "properties": {"osm_id": 1414488733, "building": "office", "name": "Alexis Park", "height": null, "height_m": null, "levels": null, "tract_id": "40143009006", "tract_name": "90.06", "tags": {"building": "office", "name": "Alexis Park", "office": "property_management"}}}, {"type": "Feature", "geometry": {"type": "Polygon", "coordinates": [[[-95.8432386, 36.1056986], [-95.8430334, 36.1056979], [-95.8430348, 36.1054136], [-95.8429414, 36.1054133], [-95.8429423, 36.1052335], [-95.843056, 36.1052338], [-95.843055, 36.1054215], [-95.84324, 36.1054221], [-95.8432386, 36.1056986]]]}, "properties": {"osm_id": 1414495565, "building": "church", "name": "The Anglican Church of the Holy Spirit", "height": null, "height_m": null, "levels": null, "tract_id": "40143009006", "tract_name": "90.06", "tags": {"addr:city": "Tulsa", "addr:country": "US", "addr:housenumber": "12121", "addr:postcode": "74146", "addr:state": "OK", "addr:street": "East 41st Street South", "amenity": "place_of_worship", "building": "church", "denomination": "anglican", "name": "The Anglican Church of the Holy Spirit", "religion": "christian"}}}, {"type": "Feature", "geometry": {"type": "Polygon", "coordinates": [[[-95.8356607, 36.1049835], [-95.8352785, 36.1049862], [-95.8352772, 36.104868], [-95.8356594, 36.1048653], [-95.8356607, 36.1049835]]]}, "properties": {"osm_id": 1417945398, "building": "retail", "name": "", "height": null, "height_m": null, "levels": null, "tract_id": "40143009006", "tract_name": "90.06", "tags": {"addr:city": "Tulsa", "addr:country": "US", "addr:housenumber": "12705", "addr:postcode": "74146", "addr:state": "OK", "addr:street": "East 41st Street South", "building": "retail", "source": "INCOG"}}}, {"type": "Feature", "geometry": {"type": "Polygon", "coordinates": [[[-95.8371701, 36.1081061], [-95.8371111, 36.1081305], [-95.8370919, 36.1081003], [-95.837151, 36.1080759], [-95.8371701, 36.1081061]]]}, "properties": {"osm_id": 1420295276, "building": "yes", "name": "", "height": null, "height_m": null, "levels": null, "tract_id": "40143009006", "tract_name": "90.06", "tags": {"building": "yes"}}}, {"type": "Feature", "geometry": {"type": "Polygon", "coordinates": [[[-95.8372553, 36.1080753], [-95.8371956, 36.1080986], [-95.8371777, 36.1080687], [-95.8372374, 36.1080454], [-95.8372553, 36.1080753]]]}, "properties": {"osm_id": 1420295277, "building": "yes", "name": "", "height": null, "height_m": null, "levels": null, "tract_id": "40143009006", "tract_name": "90.06", "tags": {"building": "yes"}}}, {"type": "Feature", "geometry": {"type": "Polygon", "coordinates": [[[-95.8374779, 36.1079507], [-95.8374417, 36.1078862], [-95.8375012, 36.1078644], [-95.8375374, 36.1079288], [-95.8374779, 36.1079507]]]}, "properties": {"osm_id": 1420295279, "building": "yes", "name": "", "height": null, "height_m": null, "levels": null, "tract_id": "40143009006", "tract_name": "90.06", "tags": {"building": "yes"}}}, {"type": "Feature", "geometry": {"type": "Polygon", "coordinates": [[[-95.8375584, 36.1080379], [-95.8376016, 36.1081154], [-95.8373991, 36.1081891], [-95.8373559, 36.1081116], [-95.8375584, 36.1080379]]]}, "properties": {"osm_id": 1420295281, "building": "commercial", "name": "", "height": null, "height_m": null, "levels": null, "tract_id": "40143009006", "tract_name": "90.06", "tags": {"addr:city": "Tulsa", "addr:country": "US", "addr:housenumber": "12404", "addr:postcode": "74146", "addr:state": "OK", "addr:street": "East 38th Street South", "amenity": "community_centre", "building": "commercial", "community_centre:for": "athlete"}}}]}