{"type": "FeatureCollection", "features": [{"type": "Feature", "geometry": {"type": "Polygon", "coordinates": [[[-97.5400745, 34.8873116], [-97.5398727, 34.8872747], [-97.5398323, 34.8874231], [-97.5398781, 34.8874315], [-97.5398458, 34.8875505], [-97.5399329, 34.8875664], [-97.5399644, 34.8874503], [-97.5400334, 34.8874629], [-97.5400745, 34.8873116]]]}, "properties": {"osm_id": 814759325, "building": "yes", "name": "", "height": null, "height_m": null, "levels": null, "tract_id": "40087400201", "tract_name": "4002.01", "tags": {"building": "yes"}}}, {"type": "Feature", "geometry": {"type": "Polygon", "coordinates": [[[-97.5398855, 34.8818699], [-97.5397681, 34.8818608], [-97.5397585, 34.8819445], [-97.5398759, 34.8819536], [-97.5398855, 34.8818699]]]}, "properties": {"osm_id": 814759331, "building": "yes", "name": "", "height": null, "height_m": null, "levels": null, "tract_id": "40087400201", "tract_name": "4002.01", "tags": {"building": "yes"}}}, {"type": "Feature", "geometry": {"type": "Polygon", "coordinates": [[[-97.539933, 34.8822196], [-97.5398179, 34.8822135], [-97.539823, 34.8821482], [-97.5399381, 34.8821543], [-97.539933, 34.8822196]]]}, "properties": {"osm_id": 814759332, "building": "yes", "name": "", "height": null, "height_m": null, "levels": null, "tract_id": "40087400201", "tract_name": "4002.01", "tags": {"building": "yes"}}}, {"type": "Feature", "geometry": {"type": "Polygon", "coordinates": [[[-97.5394792, 34.8824249], [-97.5397022, 34.8824314], [-97.5396964, 34.882567], [-97.5396166, 34.8825646], [-97.5396157, 34.8825863], [-97.5395144, 34.8825833], [-97.5395154, 34.8825615], [-97.5394734, 34.8825602], [-97.5394792, 34.8824249]]]}, "properties": {"osm_id": 814759333, "building": "yes", "name": "", "height": null, "height_m": null, "levels": null, "tract_id": "40087400201", "tract_name": "4002.01", "tags": {"building": "yes"}}}, {"type": "Feature", "geometry": {"type": "Polygon", "coordinates": [[[-97.5397048, 34.882338], [-97.5398097, 34.882338], [-97.5398097, 34.8824168], [-97.5397048, 34.8824168], [-97.5397048, 34.882338]]]}, "properties": {"osm_id": 814759334, "building": "yes", "name": "", "height": null, "height_m": null, "levels": null, "tract_id": "40087400201", "tract_name": "4002.01", "tags": {"building": "yes"}}}, {"type": "Feature", "geometry": {"type": "Polygon", "coordinates": [[[-97.5390991, 34.882227], [-97.5389409, 34.8822153], [-97.5389332, 34.8822859], [-97.5390914, 34.8822975], [-97.5390991, 34.882227]]]}, "properties": {"osm_id": 814759335, "building": "yes", "name": "", "height": null, "height_m": null, "levels": null, "tract_id": "40087400201", "tract_name": "4002.01", "tags": {"building": "yes"}}}, {"type": "Feature", "geometry": {"type": "Polygon", "coordinates": [[[-97.5369976, 34.8851806], [-97.5366717, 34.8851831], [-97.5366705, 34.8850731], [-97.5369964, 34.8850705], [-97.5369976, 34.8851806]]]}, "properties": {"osm_id": 814759336, "building": "yes", "name": "", "height": null, "height_m": null, "levels": null, "tract_id": "40087400201", "tract_name": "4002.01", "tags": {"building": "yes"}}}, {"type": "Feature", "geometry": {"type": "Polygon", "coordinates": [[[-97.5359263, 34.8852673], [-97.5357258, 34.885268], [-97.5357253, 34.8851568], [-97.5359257, 34.885156], [-97.5359263, 34.8852673]]]}, "properties": {"osm_id": 814759337, "building": "yes", "name": "", "height": null, "height_m": null, "levels": null, "tract_id": "40087400201", "tract_name": "4002.01", "tags": {"building": "yes"}}}, {"type": "Feature", "geometry": {"type": "Polygon", "coordinates": [[[-97.5369049, 34.8846818], [-97.5366119, 34.8846818], [-97.5366119, 34.8846053], [-97.5369049, 34.8846053], [-97.5369049, 34.8846818]]]}, "properties": {"osm_id": 814759338, "building": "yes", "name": "", "height": null, "height_m": null, "levels": null, "tract_id": "40087400201", "tract_name": "4002.01", "tags": {"building": "yes"}}}, {"type": "Feature", "geometry": {"type": "Polygon", "coordinates": [[[-97.5362297, 34.8846789], [-97.5362293, 34.8844945], [-97.5360534, 34.8844947], [-97.5360534, 34.8845082], [-97.5359891, 34.8845083], [-97.5359895, 34.8846793], [-97.5362297, 34.8846789]]]}, "properties": {"osm_id": 814759339, "building": "yes", "name": "", "height": null, "height_m": null, "levels": null, "tract_id": "40087400201", "tract_name": "4002.01", "tags": {"building": "yes"}}}, {"type": "Feature", "geometry": {"type": "Polygon", "coordinates": [[[-97.5365624, 34.8845797], [-97.5365645, 34.8844978], [-97.5364923, 34.8844965], [-97.5364901, 34.8845784], [-97.5365624, 34.8845797]]]}, "properties": {"osm_id": 814759342, "building": "yes", "name": "", "height": null, "height_m": null, "levels": null, "tract_id": "40087400201", "tract_name": "4002.01", "tags": {"building": "yes"}}}, {"type": "Feature", "geometry": {"type": "Polygon", "coordinates": [[[-97.5367834, 34.8838789], [-97.5365085, 34.8838777], [-97.5365075, 34.884027], [-97.5367824, 34.8840282], [-97.5367834, 34.8838789]]]}, "properties": {"osm_id": 814759344, "building": "yes", "name": "", "height": null, "height_m": null, "levels": null, "tract_id": "40087400201", "tract_name": "4002.01", "tags": {"building": "yes"}}}, {"type": "Feature", "geometry": {"type": "Polygon", "coordinates": [[[-97.6675891, 34.9709591], [-97.6675891, 34.9708701], [-97.6675073, 34.9708701], [-97.6675073, 34.9709591], [-97.6675891, 34.9709591]]]}, "properties": {"osm_id": 1059597939, "building": "yes", "name": "", "height": null, "height_m": null, "levels": null, "tract_id": "40087400201", "tract_name": "4002.01", "tags": {"building": "yes"}}}, {"type": "Feature", "geometry": {"type": "Polygon", "coordinates": [[[-97.6673529, 34.9711854], [-97.6673546, 34.9711018], [-97.6672085, 34.9710999], [-97.6672068, 34.9711835], [-97.6673529, 34.9711854]]]}, "properties": {"osm_id": 1059597940, "building": "house", "name": "", "height": null, "height_m": null, "levels": null, "tract_id": "40087400201", "tract_name": "4002.01", "tags": {"addr:city": "Alex", "addr:housenumber": "11840", "addr:postcode": "73002", "addr:state": "OK", "addr:street": "180th Street", "building": "house"}}}, {"type": "Feature", "geometry": {"type": "Polygon", "coordinates": [[[-97.6667848, 34.9710786], [-97.6667984, 34.97098], [-97.6670804, 34.9710062], [-97.6670667, 34.9711047], [-97.6667848, 34.9710786]]]}, "properties": {"osm_id": 1059597941, "building": "house", "name": "", "height": null, "height_m": null, "levels": null, "tract_id": "40087400201", "tract_name": "4002.01", "tags": {"addr:city": "Alex", "addr:housenumber": "10273", "addr:postcode": "73002", "addr:state": "OK", "addr:street": "180th Street", "building": "house"}}}, {"type": "Feature", "geometry": {"type": "Polygon", "coordinates": [[[-97.353022, 34.9126627], [-97.3530216, 34.9127287], [-97.353041, 34.9127288], [-97.3530402, 34.9128735], [-97.3529758, 34.9128733], [-97.3529766, 34.9127459], [-97.3529434, 34.9127458], [-97.3529435, 34.9127328], [-97.3528618, 34.9127324], [-97.3528622, 34.9126609], [-97.3528695, 34.9126609], [-97.3528697, 34.9126363], [-97.353012, 34.9126369], [-97.3530119, 34.9126627], [-97.353022, 34.9126627]]]}, "properties": {"osm_id": 1321656955, "building": "yes", "name": "Diesel Engine Masters, LLC", "height": null, "height_m": null, "levels": null, "tract_id": "40087400201", "tract_name": "4002.01", "tags": {"building": "yes", "name": "Diesel Engine Masters, LLC", "service:vehicle:truck_repair": "yes", "shop": "car_repair"}}}, {"type": "Feature", "geometry": {"type": "Polygon", "coordinates": [[[-97.3350952, 34.9139415], [-97.3350921, 34.914456], [-97.3346454, 34.9144541], [-97.3346476, 34.9140902], [-97.3345788, 34.91409], [-97.3345792, 34.9140336], [-97.3346487, 34.9140339], [-97.3346487, 34.9140177], [-97.334546, 34.9140173], [-97.3345467, 34.913908], [-97.334516, 34.9139079], [-97.3345161, 34.9138792], [-97.3345471, 34.9138794], [-97.3345473, 34.9138515], [-97.3350167, 34.9138534], [-97.3350162, 34.9139412], [-97.3350952, 34.9139415]]]}, "properties": {"osm_id": 1321656960, "building": "industrial", "name": "Aztech Lubricants", "height": null, "height_m": null, "levels": null, "tract_id": "40087400201", "tract_name": "4002.01", "tags": {"building": "industrial", "name": "Aztech Lubricants"}}}, {"type": "Feature", "geometry": {"type": "Polygon", "coordinates": [[[-97.3321395, 34.9138891], [-97.3321417, 34.914651], [-97.3320489, 34.9146511], [-97.3320489, 34.9146652], [-97.3321471, 34.914665], [-97.3321473, 34.9147335], [-97.3322048, 34.9147334], [-97.3322049, 34.914775], [-97.3319871, 34.9147754], [-97.3319868, 34.9146595], [-97.3318015, 34.9146599], [-97.3318, 34.9140964], [-97.3318972, 34.9140962], [-97.3318966, 34.9138896], [-97.3321395, 34.9138891]]]}, "properties": {"osm_id": 1321656961, "building": "yes", "name": "Permastrong Wood Products", "height": null, "height_m": null, "levels": null, "tract_id": "40087400201", "tract_name": "4002.01", "tags": {"building": "yes", "craft": "carpenter", "name": "Permastrong Wood Products"}}}, {"type": "Feature", "geometry": {"type": "Polygon", "coordinates": [[[-97.3283163, 34.913825], [-97.3286832, 34.9138404], [-97.3286796, 34.9138983], [-97.3287226, 34.9139001], [-97.3286604, 34.9148979], [-97.328415, 34.9148877], [-97.3284109, 34.9149524], [-97.3283429, 34.9149496], [-97.328347, 34.914883], [-97.3281458, 34.9148746], [-97.3281847, 34.9142492], [-97.3282366, 34.9142514], [-97.3282629, 34.9138265], [-97.328316, 34.9138287], [-97.3283163, 34.913825]]]}, "properties": {"osm_id": 1321656962, "building": "industrial", "name": "American Directional Technology, Inc.", "height": null, "height_m": null, "levels": null, "tract_id": "40087400201", "tract_name": "4002.01", "tags": {"building": "industrial", "name": "American Directional Technology, Inc."}}}, {"type": "Feature", "geometry": {"type": "Polygon", "coordinates": [[[-97.3229219, 34.9156706], [-97.3229171, 34.9156663], [-97.3229141, 34.9156611], [-97.3229133, 34.9156553], [-97.3229147, 34.9156496], [-97.3229182, 34.9156446], [-97.3229235, 34.9156407], [-97.3229301, 34.9156384], [-97.3229371, 34.9156379], [-97.322944, 34.9156393], [-97.3229505, 34.9156427], [-97.3229552, 34.9156477], [-97.3229575, 34.9156537], [-97.3229572, 34.91566], [-97.3229542, 34.9156659], [-97.322949, 34.9156706], [-97.3229422, 34.9156735], [-97.3229352, 34.9156743], [-97.3229282, 34.9156733], [-97.3229219, 34.9156706]]]}, "properties": {"osm_id": 1321665059, "building": "yes", "name": "", "height": null, "height_m": null, "levels": null, "tract_id": "40087400201", "tract_name": "4002.01", "tags": {"building": "yes", "man_made": "water_tower"}}}, {"type": "Feature", "geometry": {"type": "Polygon", "coordinates": [[[-97.3227682, 34.9137215], [-97.322645, 34.9137212], [-97.3226438, 34.9140555], [-97.3227671, 34.9140558], [-97.3227682, 34.9137215]]]}, "properties": {"osm_id": 1321665061, "building": "yes", "name": "A-1 Storage", "height": null, "height_m": null, "levels": null, "tract_id": "40087400201", "tract_name": "4002.01", "tags": {"building": "yes", "name": "A-1 Storage", "shop": "storage_rental"}}}, {"type": "Feature", "geometry": {"type": "Polygon", "coordinates": [[[-97.3233296, 34.9135419], [-97.3233265, 34.9140334], [-97.3233254, 34.9142076], [-97.3231183, 34.9142067], [-97.3231226, 34.913541], [-97.3233296, 34.9135419]]]}, "properties": {"osm_id": 1321665062, "building": "industrial", "name": "Anasaz, LLC", "height": null, "height_m": null, "levels": null, "tract_id": "40087400201", "tract_name": "4002.01", "tags": {"building": "industrial", "name": "Anasaz, LLC"}}}, {"type": "Feature", "geometry": {"type": "Polygon", "coordinates": [[[-97.3232188, 34.9168647], [-97.3232192, 34.9168295], [-97.3231607, 34.9168291], [-97.3231603, 34.9168642], [-97.3232188, 34.9168647]]]}, "properties": {"osm_id": 1321665063, "building": "service", "name": "", "height": null, "height_m": null, "levels": null, "tract_id": "40087400201", "tract_name": "4002.01", "tags": {"building": "service"}}}, {"type": "Feature", "geometry": {"type": "Polygon", "coordinates": [[[-97.3214699, 34.9144911], [-97.3214694, 34.9144559], [-97.3214691, 34.9144266], [-97.321537, 34.914426], [-97.3215358, 34.9143334], [-97.3213786, 34.9143347], [-97.3213562, 34.9143349], [-97.3213579, 34.9144685], [-97.3213747, 34.9144684], [-97.321375, 34.9144919], [-97.3213804, 34.9144919], [-97.3214699, 34.9144911]]]}, "properties": {"osm_id": 1321665065, "building": "house", "name": "Flowers By Thistledown", "height": null, "height_m": null, "levels": null, "tract_id": "40087400201", "tract_name": "4002.01", "tags": {"addr:city": "Wayne", "addr:housenumber": "502", "addr:street": "Brakefield", "building": "house", "name": "Flowers By Thistledown", "shop": "florist"}}}, {"type": "Feature", "geometry": {"type": "Polygon", "coordinates": [[[-97.3188557, 34.9138438], [-97.3188562, 34.9136962], [-97.3186772, 34.9136959], [-97.318677, 34.913771], [-97.3186492, 34.9137709], [-97.318649, 34.9138434], [-97.3188557, 34.9138438]]]}, "properties": {"osm_id": 1321665075, "building": "yes", "name": "Wayne Superette", "height": null, "height_m": null, "levels": null, "tract_id": "40087400201", "tract_name": "4002.01", "tags": {"building": "yes", "name": "Wayne Superette", "shop": "convenience"}}}, {"type": "Feature", "geometry": {"type": "Polygon", "coordinates": [[[-97.3185765, 34.9137255], [-97.3185184, 34.9136768], [-97.3185805, 34.9136269], [-97.3186387, 34.9136755], [-97.3185765, 34.9137255]]]}, "properties": {"osm_id": 1321665076, "building": "roof", "name": "Finish Line", "height": null, "height_m": null, "levels": null, "tract_id": "40087400201", "tract_name": "4002.01", "tags": {"amenity": "fuel", "building": "roof", "name": "Finish Line"}}}, {"type": "Feature", "geometry": {"type": "Polygon", "coordinates": [[[-97.3137826, 34.9140163], [-97.3137825, 34.9139474], [-97.3137824, 34.9139336], [-97.3137543, 34.9139337], [-97.3137542, 34.9138736], [-97.3136461, 34.9138738], [-97.3136462, 34.9139344], [-97.3136215, 34.9139344], [-97.3136215, 34.9139474], [-97.3136216, 34.9140165], [-97.3136625, 34.9140164], [-97.3137826, 34.9140163]]]}, "properties": {"osm_id": 1321665087, "building": "house", "name": "McClain County Towing", "height": null, "height_m": null, "levels": null, "tract_id": "40087400201", "tract_name": "4002.01", "tags": {"addr:city": "Wayne", "addr:housenumber": "30319", "addr:street": "Bayless Street", "building": "house", "name": "McClain County Towing", "phone": "+14054493040", "service:vehicle:towing": "yes", "shop": "car_repair"}}}, {"type": "Feature", "geometry": {"type": "Polygon", "coordinates": [[[-97.3121772, 34.9142014], [-97.3121824, 34.9142094], [-97.3121905, 34.9142156], [-97.3122007, 34.9142191], [-97.3122117, 34.9142197], [-97.3122219, 34.9142174], [-97.3122306, 34.9142125], [-97.312237, 34.9142057], [-97.3122404, 34.9141975], [-97.3122404, 34.9141888], [-97.3122371, 34.9141806], [-97.3122307, 34.9141738], [-97.312222, 34.9141689], [-97.3122119, 34.9141665], [-97.3122013, 34.914167], [-97.3121915, 34.9141702], [-97.3121835, 34.9141757], [-97.3121778, 34.9141835], [-97.3121756, 34.9141924], [-97.3121772, 34.9142014]]]}, "properties": {"osm_id": 1321665088, "building": "yes", "name": "", "height": null, "height_m": null, "levels": null, "tract_id": "40087400201", "tract_name": "4002.01", "tags": {"building": "yes", "man_made": "water_tower"}}}, {"type": "Feature", "geometry": {"type": "Polygon", "coordinates": [[[-97.3125151, 34.9137128], [-97.3125176, 34.9139655], [-97.3123821, 34.9139664], [-97.3123807, 34.9138255], [-97.3122228, 34.9138266], [-97.3122217, 34.9137147], [-97.3125151, 34.9137128]]]}, "properties": {"osm_id": 1321665089, "building": "fire_station", "name": "Wayne Volunteer Fire Department", "height": null, "height_m": null, "levels": null, "tract_id": "40087400201", "tract_name": "4002.01", "tags": {"amenity": "fire_station", "building": "fire_station", "name": "Wayne Volunteer Fire Department"}}}, {"type": "Feature", "geometry": {"type": "Polygon", "coordinates": [[[-97.3152595, 34.9160729], [-97.3152565, 34.9160063], [-97.3152396, 34.9160068], [-97.3152387, 34.915987], [-97.3152379, 34.9159695], [-97.3151308, 34.9159727], [-97.3151337, 34.9160363], [-97.3151197, 34.9160367], [-97.3151215, 34.916078], [-97.3151477, 34.9160772], [-97.315148, 34.9160839], [-97.3152392, 34.9160811], [-97.3152389, 34.9160736], [-97.3152595, 34.9160729]]]}, "properties": {"osm_id": 1321665098, "building": "house", "name": "", "height": null, "height_m": null, "levels": null, "tract_id": "40087400201", "tract_name": "4002.01", "tags": {"addr:city": "Wayne", "addr:housenumber": "302", "addr:street": "Shannon Street", "building": "house"}}}, {"type": "Feature", "geometry": {"type": "Polygon", "coordinates": [[[-97.3151599, 34.9165227], [-97.3151585, 34.9164378], [-97.3150198, 34.9164394], [-97.3150213, 34.9165243], [-97.3151599, 34.9165227]]]}, "properties": {"osm_id": 1321665100, "building": "yes", "name": "King's Transmissions", "height": null, "height_m": null, "levels": null, "tract_id": "40087400201", "tract_name": "4002.01", "tags": {"addr:city": "Wayne", "addr:housenumber": "303", "addr:street": "Shannon Street", "building": "yes", "name": "King's Transmissions", "shop": "car_parts"}}}, {"type": "Feature", "geometry": {"type": "Polygon", "coordinates": [[[-97.3152424, 34.9167128], [-97.3152356, 34.916713], [-97.3152361, 34.9167347], [-97.3151958, 34.9167353], [-97.315157, 34.9167359], [-97.3151565, 34.9167143], [-97.3151514, 34.9167144], [-97.3151486, 34.9165933], [-97.3152236, 34.9165921], [-97.3152233, 34.9165812], [-97.3153144, 34.9165798], [-97.3153145, 34.9165835], [-97.3153159, 34.9166464], [-97.3152408, 34.9166476], [-97.3152424, 34.9167128]]]}, "properties": {"osm_id": 1321665102, "building": "house", "name": "", "height": null, "height_m": null, "levels": null, "tract_id": "40087400201", "tract_name": "4002.01", "tags": {"addr:city": "Wayne", "addr:housenumber": "300", "addr:street": "Shannon Street", "building": "house"}}}, {"type": "Feature", "geometry": {"type": "Polygon", "coordinates": [[[-97.3154371, 34.9166326], [-97.3154342, 34.9165828], [-97.3153634, 34.9165856], [-97.3153663, 34.9166353], [-97.3154371, 34.9166326]]]}, "properties": {"osm_id": 1321665103, "building": "carport", "name": "", "height": null, "height_m": null, "levels": null, "tract_id": "40087400201", "tract_name": "4002.01", "tags": {"building": "carport"}}}, {"type": "Feature", "geometry": {"type": "Polygon", "coordinates": [[[-97.3115699, 34.9143449], [-97.3117699, 34.9142922], [-97.3116356, 34.9139498], [-97.3114357, 34.9140025], [-97.3115699, 34.9143449]]]}, "properties": {"osm_id": 1321676242, "building": "yes", "name": "W & W Tire Co.", "height": null, "height_m": null, "levels": null, "tract_id": "40087400201", "tract_name": "4002.01", "tags": {"building": "yes", "name": "W & W Tire Co.", "shop": "tyres"}}}, {"type": "Feature", "geometry": {"type": "Polygon", "coordinates": [[[-97.3119582, 34.9155222], [-97.31207, 34.9155301], [-97.3120872, 34.9153665], [-97.3119754, 34.9153586], [-97.3119582, 34.9155222]]]}, "properties": {"osm_id": 1321676247, "building": "garages", "name": "", "height": null, "height_m": null, "levels": null, "tract_id": "40087400201", "tract_name": "4002.01", "tags": {"building": "garages"}}}, {"type": "Feature", "geometry": {"type": "Polygon", "coordinates": [[[-97.3096687, 34.9128769], [-97.3094617, 34.9127408], [-97.3096824, 34.9125151], [-97.3098894, 34.9126513], [-97.3096687, 34.9128769]]]}, "properties": {"osm_id": 1321676255, "building": "yes", "name": "Family Dollar", "height": null, "height_m": null, "levels": null, "tract_id": "40087400201", "tract_name": "4002.01", "tags": {"brand": "Family Dollar", "brand:wikidata": "Q5433101", "building": "yes", "name": "Family Dollar", "shop": "variety_store"}}}, {"type": "Feature", "geometry": {"type": "Polygon", "coordinates": [[[-97.3181945, 34.9228035], [-97.318192, 34.9227186], [-97.3181532, 34.9227194], [-97.3181501, 34.9226133], [-97.3181397, 34.9226135], [-97.3181381, 34.922561], [-97.3180636, 34.9225625], [-97.3180651, 34.9226137], [-97.3180461, 34.9226141], [-97.3180518, 34.9228063], [-97.3181945, 34.9228035]]]}, "properties": {"osm_id": 1321676257, "building": "yes", "name": "Blackwell Enterprises, Inc.", "height": null, "height_m": null, "levels": null, "tract_id": "40087400201", "tract_name": "4002.01", "tags": {"building": "yes", "craft": "agricultural_engines", "name": "Blackwell Enterprises, Inc."}}}, {"type": "Feature", "geometry": {"type": "Polygon", "coordinates": [[[-97.3172857, 34.9206411], [-97.3172855, 34.9206519], [-97.3172895, 34.9206621], [-97.3172973, 34.9206708], [-97.3173081, 34.9206769], [-97.3173206, 34.92068], [-97.3173341, 34.9206795], [-97.3173466, 34.9206753], [-97.3173568, 34.9206681], [-97.3173635, 34.9206585], [-97.317366, 34.9206476], [-97.317364, 34.9206367], [-97.3173578, 34.9206269], [-97.317348, 34.9206193], [-97.3173356, 34.9206148], [-97.3173222, 34.9206139], [-97.3173091, 34.9206166], [-97.3172982, 34.9206225], [-97.3172901, 34.920631], [-97.3172857, 34.9206411]]]}, "properties": {"osm_id": 1321676258, "building": "yes", "name": "", "height": null, "height_m": null, "levels": null, "tract_id": "40087400201", "tract_name": "4002.01", "tags": {"building": "yes", "man_made": "water_tower"}}}, {"type": "Feature", "geometry": {"type": "Polygon", "coordinates": [[[-97.3176778, 34.9208402], [-97.317599, 34.9209252], [-97.317577, 34.9209115], [-97.3174917, 34.9210036], [-97.3175478, 34.9210385], [-97.3175764, 34.9210077], [-97.3176455, 34.9210508], [-97.3176202, 34.9210781], [-97.3176878, 34.9211202], [-97.3176236, 34.9211895], [-97.3175912, 34.9211693], [-97.3175762, 34.9211854], [-97.3172548, 34.9209853], [-97.3173281, 34.9209062], [-97.3173807, 34.920939], [-97.3174645, 34.9208486], [-97.3174365, 34.9208311], [-97.3175195, 34.9207416], [-97.3176778, 34.9208402]]]}, "properties": {"osm_id": 1321676259, "building": "yes", "name": "Farmers Union Co-Op", "height": null, "height_m": null, "levels": null, "tract_id": "40087400201", "tract_name": "4002.01", "tags": {"building": "yes", "name": "Farmers Union Co-Op", "shop": "agrarian"}}}, {"type": "Feature", "geometry": {"type": "Polygon", "coordinates": [[[-97.318131, 34.9207321], [-97.3181929, 34.9206641], [-97.3180722, 34.9205902], [-97.3180103, 34.9206583], [-97.318131, 34.9207321]]]}, "properties": {"osm_id": 1321676260, "building": "barn", "name": "", "height": null, "height_m": null, "levels": null, "tract_id": "40087400201", "tract_name": "4002.01", "tags": {"building": "barn"}}}, {"type": "Feature", "geometry": {"type": "Polygon", "coordinates": [[[-97.3179177, 34.921028], [-97.3180108, 34.920923], [-97.317923, 34.9208707], [-97.3178299, 34.9209757], [-97.3179177, 34.921028]]]}, "properties": {"osm_id": 1321676261, "building": "barn", "name": "", "height": null, "height_m": null, "levels": null, "tract_id": "40087400201", "tract_name": "4002.01", "tags": {"building": "barn"}}}, {"type": "Feature", "geometry": {"type": "Polygon", "coordinates": [[[-97.3180438, 34.9209804], [-97.3179924, 34.9209494], [-97.3180363, 34.9209004], [-97.3180877, 34.9209314], [-97.3180438, 34.9209804]]]}, "properties": {"osm_id": 1321676262, "building": "carport", "name": "", "height": null, "height_m": null, "levels": null, "tract_id": "40087400201", "tract_name": "4002.01", "tags": {"building": "carport"}}}, {"type": "Feature", "geometry": {"type": "Polygon", "coordinates": [[[-97.3185927, 34.9199696], [-97.318595, 34.9197927], [-97.318635, 34.9197931], [-97.3186351, 34.9197836], [-97.3186554, 34.9197837], [-97.3186552, 34.919794], [-97.3189063, 34.9197962], [-97.3189053, 34.9198729], [-97.3190216, 34.9198739], [-97.3190226, 34.9198012], [-97.3191265, 34.9198021], [-97.3191242, 34.9199709], [-97.3190186, 34.9199699], [-97.3190191, 34.9199293], [-97.3189081, 34.9199283], [-97.3189075, 34.9199723], [-97.3185927, 34.9199696]]]}, "properties": {"osm_id": 1321676265, "building": "yes", "name": "Wayne Church of Christ", "height": null, "height_m": null, "levels": null, "tract_id": "40087400201", "tract_name": "4002.01", "tags": {"amenity": "place_of_worship", "building": "yes", "denomination": "church_of_christ", "name": "Wayne Church of Christ", "religion": "christian"}}}, {"type": "Feature", "geometry": {"type": "Polygon", "coordinates": [[[-97.3182623, 34.9201466], [-97.3183093, 34.9200704], [-97.3181628, 34.9200096], [-97.3181158, 34.9200858], [-97.3182623, 34.9201466]]]}, "properties": {"osm_id": 1321676267, "building": "yes", "name": "", "height": null, "height_m": null, "levels": null, "tract_id": "40087400201", "tract_name": "4002.01", "tags": {"amenity": "car_wash", "building": "yes"}}}, {"type": "Feature", "geometry": {"type": "Polygon", "coordinates": [[[-97.3176133, 34.9197978], [-97.3176767, 34.919727], [-97.3176149, 34.9196898], [-97.3176275, 34.9196758], [-97.3175982, 34.9196581], [-97.3175866, 34.919671], [-97.3175472, 34.9196473], [-97.3175673, 34.9196249], [-97.3174367, 34.9195462], [-97.3173651, 34.9196261], [-97.3173813, 34.9196359], [-97.3173686, 34.91965], [-97.317395, 34.9196659], [-97.3173745, 34.9196888], [-97.3174606, 34.9197406], [-97.3174808, 34.9197181], [-97.3176133, 34.9197978]]]}, "properties": {"osm_id": 1321676271, "building": "yes", "name": "Wayne United Methodist Church", "height": null, "height_m": null, "levels": null, "tract_id": "40087400201", "tract_name": "4002.01", "tags": {"amenity": "place_of_worship", "building": "yes", "denomination": "united_methodist", "name": "Wayne United Methodist Church", "religion": "christian"}}}, {"type": "Feature", "geometry": {"type": "Polygon", "coordinates": [[[-97.3180221, 34.9194976], [-97.3178702, 34.9194115], [-97.3180083, 34.9192477], [-97.3179564, 34.9192183], [-97.3178412, 34.9193549], [-97.3176476, 34.9192451], [-97.3178744, 34.9189762], [-97.3179275, 34.9190063], [-97.3179493, 34.9189804], [-97.3179653, 34.9189894], [-97.3179826, 34.9189688], [-97.3180333, 34.9189976], [-97.3180189, 34.9190146], [-97.3180394, 34.9190263], [-97.3180173, 34.9190524], [-97.3180725, 34.9190837], [-97.3179785, 34.9191951], [-97.3180279, 34.9192232], [-97.3181158, 34.919119], [-97.318236, 34.9191872], [-97.3180945, 34.9193548], [-97.3181221, 34.9193704], [-97.3181002, 34.9193964], [-97.3181051, 34.9193991], [-97.3180221, 34.9194976]]]}, "properties": {"osm_id": 1321676275, "building": "yes", "name": "Wayne First Baptist Church", "height": null, "height_m": null, "levels": null, "tract_id": "40087400201", "tract_name": "4002.01", "tags": {"amenity": "place_of_worship", "building": "yes", "denomination": "baptist", "name": "Wayne First Baptist Church", "religion": "christian"}}}, {"type": "Feature", "geometry": {"type": "Polygon", "coordinates": [[[-97.3181619, 34.9197628], [-97.3182172, 34.9196909], [-97.3181316, 34.9196466], [-97.3180763, 34.9197185], [-97.3181619, 34.9197628]]]}, "properties": {"osm_id": 1321676277, "building": "garage", "name": "", "height": null, "height_m": null, "levels": null, "tract_id": "40087400201", "tract_name": "4002.01", "tags": {"building": "garage"}}}, {"type": "Feature", "geometry": {"type": "Polygon", "coordinates": [[[-97.3172723, 34.9183632], [-97.3171665, 34.9183034], [-97.3172129, 34.9182483], [-97.3171628, 34.9182199], [-97.3172921, 34.9180662], [-97.3173735, 34.9181123], [-97.3173846, 34.9180991], [-97.3174302, 34.9181249], [-97.317419, 34.9181383], [-97.3175081, 34.9181887], [-97.3173745, 34.9183476], [-97.3173141, 34.9183135], [-97.3172723, 34.9183632]]]}, "properties": {"osm_id": 1321676278, "building": "yes", "name": "Wayne Public School Building", "height": null, "height_m": null, "levels": null, "tract_id": "40087400201", "tract_name": "4002.01", "tags": {"building": "yes", "name": "Wayne Public School Building", "office": "educational_institution"}}}, {"type": "Feature", "geometry": {"type": "Polygon", "coordinates": [[[-97.3182443, 34.9187573], [-97.3182436, 34.9186472], [-97.318252, 34.9186472], [-97.3182494, 34.9183322], [-97.3182715, 34.9183321], [-97.3182713, 34.9183064], [-97.3182711, 34.9182843], [-97.3182501, 34.9182844], [-97.3182479, 34.9180207], [-97.3182614, 34.9180206], [-97.3182603, 34.9178647], [-97.3182602, 34.9178487], [-97.3179372, 34.9178503], [-97.3179367, 34.9177749], [-97.3179489, 34.9177748], [-97.3179484, 34.9176833], [-97.3179403, 34.9176833], [-97.31794, 34.9175856], [-97.3179524, 34.9175856], [-97.3179523, 34.91751], [-97.3175944, 34.9175104], [-97.3175951, 34.9179459], [-97.3178257, 34.9179457], [-97.3178259, 34.9180154], [-97.3178156, 34.9180155], [-97.3178158, 34.9180457], [-97.3180438, 34.9180448], [-97.3180464, 34.9184825], [-97.3179034, 34.9184831], [-97.3179043, 34.9186432], [-97.3181335, 34.9186422], [-97.3181342, 34.9187578], [-97.3182443, 34.9187573]]]}, "properties": {"osm_id": 1321676279, "building": "school", "name": "Wayne Middle School", "height": null, "height_m": null, "levels": null, "tract_id": "40087400201", "tract_name": "4002.01", "tags": {"building": "school", "name": "Wayne Middle School"}}}, {"type": "Feature", "geometry": {"type": "Polygon", "coordinates": [[[-97.3175352, 34.917672], [-97.3175354, 34.9175917], [-97.3173832, 34.9175913], [-97.317383, 34.9176717], [-97.3175352, 34.917672]]]}, "properties": {"osm_id": 1321676280, "building": "school", "name": "", "height": null, "height_m": null, "levels": null, "tract_id": "40087400201", "tract_name": "4002.01", "tags": {"building": "school"}}}, {"type": "Feature", "geometry": {"type": "Polygon", "coordinates": [[[-97.3202745, 34.9185887], [-97.3202757, 34.9184487], [-97.3189853, 34.9184412], [-97.3189841, 34.918581], [-97.3202745, 34.9185887]]]}, "properties": {"osm_id": 1321676286, "building": "yes", "name": "", "height": null, "height_m": null, "levels": null, "tract_id": "40087400201", "tract_name": "4002.01", "tags": {"building": "yes", "depot": "bus", "industrial": "depot", "landuse": "industrial"}}}, {"type": "Feature", "geometry": {"type": "Polygon", "coordinates": [[[-97.3188987, 34.9185812], [-97.3189033, 34.9183868], [-97.3186978, 34.9183835], [-97.3186959, 34.9184649], [-97.318739, 34.9184656], [-97.3187364, 34.9185787], [-97.3188987, 34.9185812]]]}, "properties": {"osm_id": 1321676299, "building": "yes", "name": "Wayne Fine Arts Center", "height": null, "height_m": null, "levels": null, "tract_id": "40087400201", "tract_name": "4002.01", "tags": {"amenity": "arts_centre", "building": "yes", "name": "Wayne Fine Arts Center"}}}, {"type": "Feature", "geometry": {"type": "Polygon", "coordinates": [[[-97.3202906, 34.9176015], [-97.3202904, 34.9175369], [-97.3201738, 34.9175371], [-97.3201737, 34.9175118], [-97.3201001, 34.9175119], [-97.3201001, 34.9175346], [-97.3199821, 34.9175348], [-97.3199822, 34.9175896], [-97.3199656, 34.9175896], [-97.3199656, 34.9176022], [-97.3202906, 34.9176015]]]}, "properties": {"osm_id": 1321676300, "building": "grandstand", "name": "", "height": null, "height_m": null, "levels": null, "tract_id": "40087400201", "tract_name": "4002.01", "tags": {"building": "grandstand"}}}, {"type": "Feature", "geometry": {"type": "Polygon", "coordinates": [[[-97.3203228, 34.9182793], [-97.3203229, 34.9182606], [-97.3203611, 34.9182607], [-97.3203616, 34.9181901], [-97.3203459, 34.9181901], [-97.3203461, 34.9181632], [-97.3199364, 34.9181614], [-97.3199363, 34.9181772], [-97.3199604, 34.9181773], [-97.3199597, 34.9182803], [-97.3200786, 34.9182809], [-97.3200786, 34.918288], [-97.3202035, 34.9182885], [-97.3202036, 34.9182788], [-97.3203228, 34.9182793]]]}, "properties": {"osm_id": 1321676301, "building": "grandstand", "name": "", "height": null, "height_m": null, "levels": null, "tract_id": "40087400201", "tract_name": "4002.01", "tags": {"building": "grandstand"}}}, {"type": "Feature", "geometry": {"type": "Polygon", "coordinates": [[[-97.3217407, 34.9177842], [-97.3217104, 34.9177845], [-97.3217097, 34.9177306], [-97.32174, 34.9177303], [-97.3217407, 34.9177842]]]}, "properties": {"osm_id": 1321679897, "building": "yes", "name": "", "height": null, "height_m": null, "levels": null, "tract_id": "40087400201", "tract_name": "4002.01", "tags": {"amenity": "shelter", "building": "yes", "shelter_type": "dugout"}}}, {"type": "Feature", "geometry": {"type": "Polygon", "coordinates": [[[-97.321382, 34.9180844], [-97.3213822, 34.9180574], [-97.3213164, 34.9180571], [-97.3213162, 34.918084], [-97.321382, 34.9180844]]]}, "properties": {"osm_id": 1321679898, "building": "yes", "name": "", "height": null, "height_m": null, "levels": null, "tract_id": "40087400201", "tract_name": "4002.01", "tags": {"amenity": "shelter", "building": "yes", "shelter_type": "dugout"}}}, {"type": "Feature", "geometry": {"type": "Polygon", "coordinates": [[[-97.321688, 34.9183525], [-97.3216535, 34.9183514], [-97.3216573, 34.918271], [-97.3216918, 34.9182721], [-97.321688, 34.9183525]]]}, "properties": {"osm_id": 1321679899, "building": "yes", "name": "", "height": null, "height_m": null, "levels": null, "tract_id": "40087400201", "tract_name": "4002.01", "tags": {"amenity": "shelter", "building": "yes", "shelter_type": "dugout"}}}, {"type": "Feature", "geometry": {"type": "Polygon", "coordinates": [[[-97.3220715, 34.9180565], [-97.322072, 34.9180293], [-97.3219762, 34.9180282], [-97.3219758, 34.9180554], [-97.3220715, 34.9180565]]]}, "properties": {"osm_id": 1321679900, "building": "yes", "name": "", "height": null, "height_m": null, "levels": null, "tract_id": "40087400201", "tract_name": "4002.01", "tags": {"amenity": "shelter", "building": "yes", "shelter_type": "dugout"}}}, {"type": "Feature", "geometry": {"type": "Polygon", "coordinates": [[[-97.3222637, 34.9175863], [-97.3222631, 34.9175689], [-97.3221924, 34.9175705], [-97.322193, 34.9175879], [-97.3222637, 34.9175863]]]}, "properties": {"osm_id": 1321679901, "building": "yes", "name": "", "height": null, "height_m": null, "levels": null, "tract_id": "40087400201", "tract_name": "4002.01", "tags": {"amenity": "shelter", "building": "yes", "shelter_type": "dugout"}}}, {"type": "Feature", "geometry": {"type": "Polygon", "coordinates": [[[-97.3220974, 34.9177073], [-97.3221167, 34.9177076], [-97.3221177, 34.9176517], [-97.3220984, 34.9176515], [-97.3220974, 34.9177073]]]}, "properties": {"osm_id": 1321679902, "building": "yes", "name": "", "height": null, "height_m": null, "levels": null, "tract_id": "40087400201", "tract_name": "4002.01", "tags": {"amenity": "shelter", "building": "yes", "shelter_type": "dugout"}}}, {"type": "Feature", "geometry": {"type": "Polygon", "coordinates": [[[-97.3221288, 34.9175555], [-97.3221289, 34.9175398], [-97.3220602, 34.9175397], [-97.3220602, 34.9175553], [-97.3221288, 34.9175555]]]}, "properties": {"osm_id": 1321679903, "building": "yes", "name": "", "height": null, "height_m": null, "levels": null, "tract_id": "40087400201", "tract_name": "4002.01", "tags": {"amenity": "shelter", "building": "yes", "shelter_type": "dugout"}}}, {"type": "Feature", "geometry": {"type": "Polygon", "coordinates": [[[-97.3219535, 34.917447], [-97.3219332, 34.9174467], [-97.3219347, 34.9173881], [-97.3219549, 34.9173885], [-97.3219535, 34.917447]]]}, "properties": {"osm_id": 1321679904, "building": "yes", "name": "", "height": null, "height_m": null, "levels": null, "tract_id": "40087400201", "tract_name": "4002.01", "tags": {"amenity": "shelter", "building": "yes", "shelter_type": "dugout"}}}, {"type": "Feature", "geometry": {"type": "Polygon", "coordinates": [[[-97.3213569, 34.9182249], [-97.3213569, 34.918205], [-97.3212912, 34.918205], [-97.3212912, 34.9182249], [-97.3213569, 34.9182249]]]}, "properties": {"osm_id": 1321679905, "building": "yes", "name": "", "height": null, "height_m": null, "levels": null, "tract_id": "40087400201", "tract_name": "4002.01", "tags": {"amenity": "shelter", "building": "yes", "shelter_type": "dugout"}}}, {"type": "Feature", "geometry": {"type": "Polygon", "coordinates": [[[-97.3215827, 34.9184735], [-97.3216081, 34.9184736], [-97.3216084, 34.9184158], [-97.321583, 34.9184157], [-97.3215827, 34.9184735]]]}, "properties": {"osm_id": 1321679906, "building": "yes", "name": "", "height": null, "height_m": null, "levels": null, "tract_id": "40087400201", "tract_name": "4002.01", "tags": {"amenity": "shelter", "building": "yes", "shelter_type": "dugout"}}}, {"type": "Feature", "geometry": {"type": "Polygon", "coordinates": [[[-97.3144598, 34.9179769], [-97.314552, 34.917863], [-97.3144496, 34.9178073], [-97.3144033, 34.9178645], [-97.3144265, 34.917877], [-97.3143806, 34.9179338], [-97.3144598, 34.9179769]]]}, "properties": {"osm_id": 1321679909, "building": "yes", "name": "United States Post Office Wayne", "height": null, "height_m": null, "levels": null, "tract_id": "40087400201", "tract_name": "4002.01", "tags": {"amenity": "post_office", "building": "yes", "name": "United States Post Office Wayne", "operator": "United States Postal Service", "operator:short": "USPS", "operator:type": "public", "operator:wikidata": "Q668687"}}}, {"type": "Feature", "geometry": {"type": "Polygon", "coordinates": [[[-97.3136664, 34.9188786], [-97.3137138, 34.9188235], [-97.3136187, 34.9187685], [-97.3135713, 34.9188236], [-97.3136664, 34.9188786]]]}, "properties": {"osm_id": 1321679912, "building": "yes", "name": "Windstream Communications", "height": null, "height_m": null, "levels": null, "tract_id": "40087400201", "tract_name": "4002.01", "tags": {"building": "yes", "man_made": "tower", "name": "Windstream Communications", "tower:type": "communication"}}}, {"type": "Feature", "geometry": {"type": "Polygon", "coordinates": [[[-97.3137917, 34.918797], [-97.313695, 34.9187424], [-97.3137746, 34.9186477], [-97.3138712, 34.9187023], [-97.3137917, 34.918797]]]}, "properties": {"osm_id": 1321679913, "building": "yes", "name": "Junky Chick", "height": null, "height_m": null, "levels": null, "tract_id": "40087400201", "tract_name": "4002.01", "tags": {"building": "yes", "name": "Junky Chick", "shop": "gift"}}}, {"type": "Feature", "geometry": {"type": "Polygon", "coordinates": [[[-97.3139772, 34.9185465], [-97.3140887, 34.9184131], [-97.313818, 34.918261], [-97.3139056, 34.9181561], [-97.3137452, 34.918066], [-97.3136992, 34.9181211], [-97.3133085, 34.9179018], [-97.3131758, 34.9180606], [-97.3135622, 34.9182775], [-97.3135566, 34.9182842], [-97.3137253, 34.9183789], [-97.3137104, 34.9183967], [-97.3139772, 34.9185465]]]}, "properties": {"osm_id": 1321679914, "building": "yes", "name": "Rural Water District 8 McClain County", "height": null, "height_m": null, "levels": null, "tract_id": "40087400201", "tract_name": "4002.01", "tags": {"building": "yes", "name": "Rural Water District 8 McClain County", "office": "water_utility"}}}, {"type": "Feature", "geometry": {"type": "Polygon", "coordinates": [[[-97.3149863, 34.9183274], [-97.3150335, 34.9182717], [-97.3149011, 34.9181962], [-97.3149054, 34.9181911], [-97.3148122, 34.9181379], [-97.3147805, 34.9181752], [-97.3148713, 34.918227], [-97.3148514, 34.9182505], [-97.3149863, 34.9183274]]]}, "properties": {"osm_id": 1321679917, "building": "yes", "name": "The Mason Jar", "height": null, "height_m": null, "levels": null, "tract_id": "40087400201", "tract_name": "4002.01", "tags": {"building": "yes", "name": "The Mason Jar", "shop": "bakery"}}}, {"type": "Feature", "geometry": {"type": "Polygon", "coordinates": [[[-97.3147927, 34.9187007], [-97.3148919, 34.9187549], [-97.3149168, 34.9187242], [-97.3148897, 34.9187093], [-97.3149199, 34.9186721], [-97.3149513, 34.9186893], [-97.3149807, 34.9186532], [-97.3148773, 34.9185967], [-97.3147927, 34.9187007]]]}, "properties": {"osm_id": 1321679918, "building": "yes", "name": "Smiley's", "height": null, "height_m": null, "levels": null, "tract_id": "40087400201", "tract_name": "4002.01", "tags": {"building": "yes", "name": "Smiley's", "shop": "convenience"}}}, {"type": "Feature", "geometry": {"type": "Polygon", "coordinates": [[[-97.3148588, 34.9185839], [-97.3148992, 34.9185396], [-97.314831, 34.9184978], [-97.3147905, 34.9185421], [-97.3148588, 34.9185839]]]}, "properties": {"osm_id": 1321679919, "building": "roof", "name": "Valero", "height": null, "height_m": null, "levels": null, "tract_id": "40087400201", "tract_name": "4002.01", "tags": {"amenity": "fuel", "brand": "Valero", "brand:wikidata": "Q1283291", "building": "roof", "name": "Valero"}}}, {"type": "Feature", "geometry": {"type": "Polygon", "coordinates": [[[-97.3146178, 34.9185025], [-97.3146588, 34.918455], [-97.3145318, 34.9183814], [-97.3144909, 34.9184289], [-97.3146178, 34.9185025]]]}, "properties": {"osm_id": 1321679920, "building": "yes", "name": "Justin's Plumbing", "height": null, "height_m": null, "levels": null, "tract_id": "40087400201", "tract_name": "4002.01", "tags": {"building": "yes", "craft": "plumber", "name": "Justin's Plumbing"}}}, {"type": "Feature", "geometry": {"type": "Polygon", "coordinates": [[[-97.3145443, 34.9188397], [-97.3146249, 34.9187436], [-97.3146304, 34.918737], [-97.3143823, 34.918597], [-97.3143548, 34.9186297], [-97.3143274, 34.9186143], [-97.3143027, 34.9186438], [-97.3143276, 34.9186578], [-97.314298, 34.9186931], [-97.3143266, 34.9187093], [-97.3143223, 34.9187144], [-97.3145443, 34.9188397]]]}, "properties": {"osm_id": 1321679921, "building": "yes", "name": "Town of Wayne Multi-Purpose Center", "height": null, "height_m": null, "levels": null, "tract_id": "40087400201", "tract_name": "4002.01", "tags": {"amenity": "community_centre", "building": "yes", "name": "Town of Wayne Multi-Purpose Center"}}}, {"type": "Feature", "geometry": {"type": "Polygon", "coordinates": [[[-97.3142503, 34.919011], [-97.3143468, 34.9188963], [-97.3141696, 34.918796], [-97.3140731, 34.9189107], [-97.3142503, 34.919011]]]}, "properties": {"osm_id": 1321679923, "building": "yes", "name": "Baker's Antiques & Collectibles", "height": null, "height_m": null, "levels": null, "tract_id": "40087400201", "tract_name": "4002.01", "tags": {"building": "yes", "name": "Baker's Antiques & Collectibles", "shop": "antiques"}}}, {"type": "Feature", "geometry": {"type": "Polygon", "coordinates": [[[-97.3144072, 34.919244], [-97.3142779, 34.9191674], [-97.314467, 34.9189525], [-97.3145963, 34.9190291], [-97.3144072, 34.919244]]]}, "properties": {"osm_id": 1321679924, "building": "barn", "name": "", "height": null, "height_m": null, "levels": null, "tract_id": "40087400201", "tract_name": "4002.01", "tags": {"building": "barn"}}}, {"type": "Feature", "geometry": {"type": "Polygon", "coordinates": [[[-97.3141757, 34.9191406], [-97.314246, 34.9190593], [-97.3141792, 34.9190204], [-97.3141918, 34.9190058], [-97.3141218, 34.9189651], [-97.3141076, 34.9189815], [-97.3140901, 34.9189713], [-97.3140213, 34.9190507], [-97.3141757, 34.9191406]]]}, "properties": {"osm_id": 1321679925, "building": "yes", "name": "Wayne Town Hall", "height": null, "height_m": null, "levels": null, "tract_id": "40087400201", "tract_name": "4002.01", "tags": {"amenity": "townhall", "building": "yes", "name": "Wayne Town Hall", "townhall:type": "town"}}}]}