{"type": "FeatureCollection", "features": [{"type": "Feature", "geometry": {"type": "Polygon", "coordinates": [[[-96.7932709, 34.1963787], [-96.7932709, 34.1963033], [-96.7930912, 34.1963055], [-96.7930912, 34.1963832], [-96.7932709, 34.1963787]]]}, "properties": {"osm_id": 766355558, "building": "yes", "name": "", "height": null, "height_m": null, "levels": null, "tract_id": "40069660300", "tract_name": "6603", "tags": {"building": "yes"}}}, {"type": "Feature", "geometry": {"type": "Polygon", "coordinates": [[[-96.7930728, 34.196399], [-96.7929869, 34.1963984], [-96.7929876, 34.1963241], [-96.7930735, 34.1963247], [-96.7930728, 34.196399]]]}, "properties": {"osm_id": 766355559, "building": "yes", "name": "", "height": null, "height_m": null, "levels": null, "tract_id": "40069660300", "tract_name": "6603", "tags": {"building": "yes"}}}, {"type": "Feature", "geometry": {"type": "Polygon", "coordinates": [[[-96.7928703, 34.1963737], [-96.7928746, 34.196315], [-96.7927719, 34.1963099], [-96.7927677, 34.1963686], [-96.7928703, 34.1963737]]]}, "properties": {"osm_id": 766355561, "building": "yes", "name": "", "height": null, "height_m": null, "levels": null, "tract_id": "40069660300", "tract_name": "6603", "tags": {"building": "yes"}}}, {"type": "Feature", "geometry": {"type": "Polygon", "coordinates": [[[-96.7926881, 34.1963647], [-96.7927677, 34.1963686], [-96.7927719, 34.1963099], [-96.7926922, 34.196306], [-96.7926881, 34.1963647]]]}, "properties": {"osm_id": 766355562, "building": "yes", "name": "", "height": null, "height_m": null, "levels": null, "tract_id": "40069660300", "tract_name": "6603", "tags": {"building": "yes", "layer": "1"}}}, {"type": "Feature", "geometry": {"type": "Polygon", "coordinates": [[[-96.7915181, 34.1993154], [-96.7915466, 34.1992437], [-96.7914422, 34.1992153], [-96.7914268, 34.1992539], [-96.7914527, 34.1992609], [-96.7914395, 34.1992941], [-96.7915181, 34.1993154]]]}, "properties": {"osm_id": 766355563, "building": "yes", "name": "", "height": null, "height_m": null, "levels": null, "tract_id": "40069660300", "tract_name": "6603", "tags": {"building": "yes"}}}, {"type": "Feature", "geometry": {"type": "Polygon", "coordinates": [[[-96.7910443, 34.2000727], [-96.791034, 34.2002424], [-96.7912807, 34.2002527], [-96.7912911, 34.200083], [-96.7910443, 34.2000727]]]}, "properties": {"osm_id": 766355564, "building": "yes", "name": "", "height": null, "height_m": null, "levels": null, "tract_id": "40069660300", "tract_name": "6603", "tags": {"building": "yes"}}}, {"type": "Feature", "geometry": {"type": "Polygon", "coordinates": [[[-96.790253, 34.2004388], [-96.7902645, 34.2002269], [-96.7900727, 34.2002198], [-96.7900612, 34.2004316], [-96.790253, 34.2004388]]]}, "properties": {"osm_id": 766355565, "building": "yes", "name": "", "height": null, "height_m": null, "levels": null, "tract_id": "40069660300", "tract_name": "6603", "tags": {"building": "yes"}}}, {"type": "Feature", "geometry": {"type": "Polygon", "coordinates": [[[-96.7889409, 34.2013279], [-96.7889392, 34.2011754], [-96.7886905, 34.2011773], [-96.7886922, 34.2013298], [-96.7889409, 34.2013279]]]}, "properties": {"osm_id": 766355566, "building": "yes", "name": "", "height": null, "height_m": null, "levels": null, "tract_id": "40069660300", "tract_name": "6603", "tags": {"building": "yes"}}}, {"type": "Feature", "geometry": {"type": "Polygon", "coordinates": [[[-96.7884652, 34.1994919], [-96.7884642, 34.1994448], [-96.7884065, 34.1994456], [-96.7884075, 34.1994927], [-96.7884652, 34.1994919]]]}, "properties": {"osm_id": 766355567, "building": "yes", "name": "", "height": null, "height_m": null, "levels": null, "tract_id": "40069660300", "tract_name": "6603", "tags": {"building": "yes"}}}, {"type": "Feature", "geometry": {"type": "Polygon", "coordinates": [[[-96.7841902, 34.2001721], [-96.7841851, 34.2000385], [-96.7839348, 34.2000451], [-96.7839399, 34.2001787], [-96.7841902, 34.2001721]]]}, "properties": {"osm_id": 766355568, "building": "yes", "name": "", "height": null, "height_m": null, "levels": null, "tract_id": "40069660300", "tract_name": "6603", "tags": {"building": "yes"}}}, {"type": "Feature", "geometry": {"type": "Polygon", "coordinates": [[[-96.7528265, 34.2411307], [-96.752687, 34.2411296], [-96.7526891, 34.2409535], [-96.7528286, 34.2409547], [-96.7528265, 34.2411307]]]}, "properties": {"osm_id": 1010185336, "building": "yes", "name": "Ravia Community Center", "height": null, "height_m": null, "levels": null, "tract_id": "40069660300", "tract_name": "6603", "tags": {"addr:city": "Tishomingo", "addr:housenumber": "202", "addr:postcode": "73460", "addr:state": "OK", "addr:street": "2nd Street", "building": "yes", "name": "Ravia Community Center"}}}, {"type": "Feature", "geometry": {"type": "Polygon", "coordinates": [[[-96.896201, 34.227624], [-96.8957111, 34.227619], [-96.8957045, 34.2274901], [-96.8958717, 34.2274912], [-96.8958702, 34.2274379], [-96.8960445, 34.2274408], [-96.896049, 34.2274937], [-96.896201, 34.2274929], [-96.896201, 34.227624]]]}, "properties": {"osm_id": 1026613046, "building": "yes", "name": "The Stables at Washita Farms", "height": null, "height_m": null, "levels": null, "tract_id": "40069660300", "tract_name": "6603", "tags": {"addr:city": "Mannsville", "addr:housenumber": "15599", "addr:postcode": "73447", "addr:state": "OK", "addr:street": "Greasy Bend Road", "amenity": "events_venue", "building": "yes", "name": "The Stables at Washita Farms", "website": "https://www.thestablesatwashitafarms.com/"}}}, {"type": "Feature", "geometry": {"type": "Polygon", "coordinates": [[[-96.7511706, 34.2409562], [-96.751169, 34.2412056], [-96.7510885, 34.2412053], [-96.7510901, 34.2409559], [-96.7511706, 34.2409562]]]}, "properties": {"osm_id": 1134151159, "building": "yes", "name": "", "height": null, "height_m": null, "levels": null, "tract_id": "40069660300", "tract_name": "6603", "tags": {"building": "yes"}}}, {"type": "Feature", "geometry": {"type": "Polygon", "coordinates": [[[-96.7396336, 34.2438505], [-96.7394667, 34.2438654], [-96.7394554, 34.2437792], [-96.7396223, 34.2437643], [-96.7396336, 34.2438505]]]}, "properties": {"osm_id": 1134151160, "building": "yes", "name": "", "height": null, "height_m": null, "levels": null, "tract_id": "40069660300", "tract_name": "6603", "tags": {"building": "yes"}}}, {"type": "Feature", "geometry": {"type": "Polygon", "coordinates": [[[-96.7463893, 34.2474768], [-96.7464088, 34.2473892], [-96.7466506, 34.2474261], [-96.7466311, 34.2475136], [-96.7463893, 34.2474768]]]}, "properties": {"osm_id": 1134151161, "building": "yes", "name": "", "height": null, "height_m": null, "levels": null, "tract_id": "40069660300", "tract_name": "6603", "tags": {"building": "yes"}}}, {"type": "Feature", "geometry": {"type": "Polygon", "coordinates": [[[-96.7468796, 34.2484465], [-96.7467781, 34.2484394], [-96.7467843, 34.2483785], [-96.7468858, 34.2483855], [-96.7468796, 34.2484465]]]}, "properties": {"osm_id": 1134151162, "building": "yes", "name": "", "height": null, "height_m": null, "levels": null, "tract_id": "40069660300", "tract_name": "6603", "tags": {"building": "yes"}}}, {"type": "Feature", "geometry": {"type": "Polygon", "coordinates": [[[-96.7459208, 34.248684], [-96.7460338, 34.2486759], [-96.7460461, 34.2487935], [-96.7459332, 34.2488016], [-96.7459208, 34.248684]]]}, "properties": {"osm_id": 1134151163, "building": "yes", "name": "", "height": null, "height_m": null, "levels": null, "tract_id": "40069660300", "tract_name": "6603", "tags": {"building": "yes"}}}, {"type": "Feature", "geometry": {"type": "Polygon", "coordinates": [[[-96.7515234, 34.238551], [-96.7514199, 34.238555], [-96.7514123, 34.2384178], [-96.7515158, 34.2384139], [-96.7515234, 34.238551]]]}, "properties": {"osm_id": 1134151166, "building": "yes", "name": "", "height": null, "height_m": null, "levels": null, "tract_id": "40069660300", "tract_name": "6603", "tags": {"building": "yes"}}}, {"type": "Feature", "geometry": {"type": "Polygon", "coordinates": [[[-96.7594503, 34.2321105], [-96.7594521, 34.2319755], [-96.7596209, 34.2319771], [-96.7596191, 34.2321121], [-96.7594503, 34.2321105]]]}, "properties": {"osm_id": 1134151169, "building": "yes", "name": "", "height": null, "height_m": null, "levels": null, "tract_id": "40069660300", "tract_name": "6603", "tags": {"building": "yes"}}}, {"type": "Feature", "geometry": {"type": "Polygon", "coordinates": [[[-96.7602114, 34.2322738], [-96.7602007, 34.2323791], [-96.7601107, 34.2323728], [-96.7601214, 34.2322675], [-96.7602114, 34.2322738]]]}, "properties": {"osm_id": 1134151170, "building": "yes", "name": "", "height": null, "height_m": null, "levels": null, "tract_id": "40069660300", "tract_name": "6603", "tags": {"building": "yes"}}}, {"type": "Feature", "geometry": {"type": "Polygon", "coordinates": [[[-96.7691865, 34.2296157], [-96.7691974, 34.2295321], [-96.7693301, 34.2295439], [-96.7693193, 34.2296275], [-96.7691865, 34.2296157]]]}, "properties": {"osm_id": 1134151172, "building": "yes", "name": "", "height": null, "height_m": null, "levels": null, "tract_id": "40069660300", "tract_name": "6603", "tags": {"building": "yes"}}}, {"type": "Feature", "geometry": {"type": "Polygon", "coordinates": [[[-96.7637139, 34.2354943], [-96.7637651, 34.2355039], [-96.7637252, 34.2356497], [-96.763674, 34.2356401], [-96.7637139, 34.2354943]]]}, "properties": {"osm_id": 1134151176, "building": "yes", "name": "", "height": null, "height_m": null, "levels": null, "tract_id": "40069660300", "tract_name": "6603", "tags": {"building": "yes"}}}, {"type": "Feature", "geometry": {"type": "Polygon", "coordinates": [[[-96.7634085, 34.2355218], [-96.7633478, 34.2357374], [-96.7632861, 34.2357255], [-96.7633468, 34.2355099], [-96.7634085, 34.2355218]]]}, "properties": {"osm_id": 1134151177, "building": "yes", "name": "", "height": null, "height_m": null, "levels": null, "tract_id": "40069660300", "tract_name": "6603", "tags": {"building": "yes"}}}, {"type": "Feature", "geometry": {"type": "Polygon", "coordinates": [[[-96.7637342, 34.236158], [-96.7637404, 34.2361234], [-96.7638077, 34.2361317], [-96.7638016, 34.2361662], [-96.7637342, 34.236158]]]}, "properties": {"osm_id": 1134151178, "building": "yes", "name": "", "height": null, "height_m": null, "levels": null, "tract_id": "40069660300", "tract_name": "6603", "tags": {"building": "yes"}}}, {"type": "Feature", "geometry": {"type": "Polygon", "coordinates": [[[-96.7637693, 34.2361819], [-96.7637627, 34.2362383], [-96.7637127, 34.2362343], [-96.7637193, 34.2361779], [-96.7637693, 34.2361819]]]}, "properties": {"osm_id": 1134151179, "building": "yes", "name": "", "height": null, "height_m": null, "levels": null, "tract_id": "40069660300", "tract_name": "6603", "tags": {"building": "yes"}}}, {"type": "Feature", "geometry": {"type": "Polygon", "coordinates": [[[-96.763752, 34.2369366], [-96.7637826, 34.2368728], [-96.7638738, 34.2369027], [-96.7638431, 34.2369665], [-96.763752, 34.2369366]]]}, "properties": {"osm_id": 1134151180, "building": "yes", "name": "", "height": null, "height_m": null, "levels": null, "tract_id": "40069660300", "tract_name": "6603", "tags": {"building": "yes"}}}, {"type": "Feature", "geometry": {"type": "Polygon", "coordinates": [[[-96.7603981, 34.2369392], [-96.7603204, 34.2369231], [-96.7603396, 34.2368595], [-96.7604174, 34.2368756], [-96.7603981, 34.2369392]]]}, "properties": {"osm_id": 1134151181, "building": "yes", "name": "", "height": null, "height_m": null, "levels": null, "tract_id": "40069660300", "tract_name": "6603", "tags": {"building": "yes"}}}, {"type": "Feature", "geometry": {"type": "Polygon", "coordinates": [[[-96.7604555, 34.2366932], [-96.7605578, 34.2367125], [-96.7605162, 34.2368633], [-96.7604139, 34.236844], [-96.7604555, 34.2366932]]]}, "properties": {"osm_id": 1134151182, "building": "yes", "name": "", "height": null, "height_m": null, "levels": null, "tract_id": "40069660300", "tract_name": "6603", "tags": {"building": "yes"}}}, {"type": "Feature", "geometry": {"type": "Polygon", "coordinates": [[[-96.7593308, 34.241737], [-96.7594707, 34.241754], [-96.759447, 34.2418873], [-96.7593071, 34.2418703], [-96.7593308, 34.241737]]]}, "properties": {"osm_id": 1134151183, "building": "yes", "name": "", "height": null, "height_m": null, "levels": null, "tract_id": "40069660300", "tract_name": "6603", "tags": {"building": "yes"}}}, {"type": "Feature", "geometry": {"type": "Polygon", "coordinates": [[[-96.7563826, 34.2470414], [-96.7564094, 34.2470165], [-96.7566588, 34.2472006], [-96.756632, 34.2472254], [-96.7563826, 34.2470414]]]}, "properties": {"osm_id": 1134151184, "building": "yes", "name": "", "height": null, "height_m": null, "levels": null, "tract_id": "40069660300", "tract_name": "6603", "tags": {"building": "yes"}}}, {"type": "Feature", "geometry": {"type": "Polygon", "coordinates": [[[-96.7564121, 34.2468629], [-96.7562203, 34.2469039], [-96.7561882, 34.2468014], [-96.75638, 34.2467603], [-96.7564121, 34.2468629]]]}, "properties": {"osm_id": 1134151185, "building": "yes", "name": "", "height": null, "height_m": null, "levels": null, "tract_id": "40069660300", "tract_name": "6603", "tags": {"building": "yes"}}}, {"type": "Feature", "geometry": {"type": "Polygon", "coordinates": [[[-96.7569193, 34.2471084], [-96.7568282, 34.2471554], [-96.7567775, 34.2470883], [-96.7568685, 34.2470413], [-96.7569193, 34.2471084]]]}, "properties": {"osm_id": 1134151186, "building": "yes", "name": "", "height": null, "height_m": null, "levels": null, "tract_id": "40069660300", "tract_name": "6603", "tags": {"building": "yes"}}}, {"type": "Feature", "geometry": {"type": "Polygon", "coordinates": [[[-96.75452, 34.2468873], [-96.7538468, 34.2468967], [-96.7538421, 34.2466703], [-96.7545154, 34.2466609], [-96.75452, 34.2468873]]]}, "properties": {"osm_id": 1134151187, "building": "yes", "name": "", "height": null, "height_m": null, "levels": null, "tract_id": "40069660300", "tract_name": "6603", "tags": {"building": "yes"}}}, {"type": "Feature", "geometry": {"type": "Polygon", "coordinates": [[[-96.7431935, 34.2497775], [-96.7432702, 34.2497756], [-96.743275, 34.2499112], [-96.7431982, 34.2499131], [-96.7431935, 34.2497775]]]}, "properties": {"osm_id": 1134151188, "building": "yes", "name": "", "height": null, "height_m": null, "levels": null, "tract_id": "40069660300", "tract_name": "6603", "tags": {"building": "yes"}}}, {"type": "Feature", "geometry": {"type": "Polygon", "coordinates": [[[-96.7413538, 34.249217], [-96.7415198, 34.2492208], [-96.7415103, 34.249503], [-96.7413443, 34.2494992], [-96.7413538, 34.249217]]]}, "properties": {"osm_id": 1134151189, "building": "yes", "name": "", "height": null, "height_m": null, "levels": null, "tract_id": "40069660300", "tract_name": "6603", "tags": {"building": "yes"}}}, {"type": "Feature", "geometry": {"type": "Polygon", "coordinates": [[[-96.7335141, 34.2483007], [-96.7335248, 34.247997], [-96.7336156, 34.2479992], [-96.7336048, 34.2483029], [-96.7335141, 34.2483007]]]}, "properties": {"osm_id": 1134151195, "building": "yes", "name": "", "height": null, "height_m": null, "levels": null, "tract_id": "40069660300", "tract_name": "6603", "tags": {"building": "yes"}}}, {"type": "Feature", "geometry": {"type": "Polygon", "coordinates": [[[-96.7378941, 34.2477143], [-96.7379053, 34.2474065], [-96.7383532, 34.2474175], [-96.738342, 34.2477254], [-96.7378941, 34.2477143]]]}, "properties": {"osm_id": 1134151197, "building": "yes", "name": "", "height": null, "height_m": null, "levels": null, "tract_id": "40069660300", "tract_name": "6603", "tags": {"building": "yes"}}}, {"type": "Feature", "geometry": {"type": "Polygon", "coordinates": [[[-96.7431082, 34.2459408], [-96.743107, 34.2458692], [-96.7432545, 34.2458676], [-96.7432556, 34.2459392], [-96.7431082, 34.2459408]]]}, "properties": {"osm_id": 1134151199, "building": "yes", "name": "", "height": null, "height_m": null, "levels": null, "tract_id": "40069660300", "tract_name": "6603", "tags": {"building": "yes"}}}, {"type": "Feature", "geometry": {"type": "Polygon", "coordinates": [[[-96.7431186, 34.2457546], [-96.7428616, 34.2457491], [-96.7428662, 34.2456008], [-96.7431232, 34.2456063], [-96.7431186, 34.2457546]]]}, "properties": {"osm_id": 1134151200, "building": "yes", "name": "", "height": null, "height_m": null, "levels": null, "tract_id": "40069660300", "tract_name": "6603", "tags": {"building": "yes"}}}, {"type": "Feature", "geometry": {"type": "Polygon", "coordinates": [[[-96.7525846, 34.2396862], [-96.7526787, 34.2396907], [-96.7526654, 34.2398804], [-96.7525713, 34.2398759], [-96.7525846, 34.2396862]]]}, "properties": {"osm_id": 1134151205, "building": "yes", "name": "", "height": null, "height_m": null, "levels": null, "tract_id": "40069660300", "tract_name": "6603", "tags": {"building": "yes"}}}, {"type": "Feature", "geometry": {"type": "Polygon", "coordinates": [[[-96.7535495, 34.2406895], [-96.753672, 34.2406907], [-96.75367, 34.2408299], [-96.7535475, 34.2408287], [-96.7535495, 34.2406895]]]}, "properties": {"osm_id": 1134151206, "building": "yes", "name": "", "height": null, "height_m": null, "levels": null, "tract_id": "40069660300", "tract_name": "6603", "tags": {"building": "yes"}}}, {"type": "Feature", "geometry": {"type": "Polygon", "coordinates": [[[-96.7526952, 34.2406746], [-96.7527926, 34.2406701], [-96.7528027, 34.2408192], [-96.7527053, 34.2408237], [-96.7526952, 34.2406746]]]}, "properties": {"osm_id": 1134151207, "building": "yes", "name": "", "height": null, "height_m": null, "levels": null, "tract_id": "40069660300", "tract_name": "6603", "tags": {"building": "yes"}}}, {"type": "Feature", "geometry": {"type": "Polygon", "coordinates": [[[-96.7511981, 34.2422787], [-96.7510464, 34.2422787], [-96.7510464, 34.2421995], [-96.7511981, 34.2421995], [-96.7511981, 34.2422787]]]}, "properties": {"osm_id": 1134151208, "building": "yes", "name": "", "height": null, "height_m": null, "levels": null, "tract_id": "40069660300", "tract_name": "6603", "tags": {"building": "yes"}}}, {"type": "Feature", "geometry": {"type": "Polygon", "coordinates": [[[-96.7511735, 34.2420043], [-96.7512635, 34.2420058], [-96.7512607, 34.2421273], [-96.7511706, 34.2421259], [-96.7511735, 34.2420043]]]}, "properties": {"osm_id": 1134151209, "building": "yes", "name": "", "height": null, "height_m": null, "levels": null, "tract_id": "40069660300", "tract_name": "6603", "tags": {"building": "yes"}}}, {"type": "Feature", "geometry": {"type": "Polygon", "coordinates": [[[-96.7522052, 34.2423407], [-96.7522083, 34.242305], [-96.7522614, 34.2423081], [-96.7522583, 34.2423438], [-96.7522052, 34.2423407]]]}, "properties": {"osm_id": 1134151210, "building": "yes", "name": "", "height": null, "height_m": null, "levels": null, "tract_id": "40069660300", "tract_name": "6603", "tags": {"building": "yes"}}}, {"type": "Feature", "geometry": {"type": "Polygon", "coordinates": [[[-96.7525855, 34.2423602], [-96.7525834, 34.2422767], [-96.7528062, 34.2422728], [-96.7528084, 34.2423563], [-96.7525855, 34.2423602]]]}, "properties": {"osm_id": 1134151211, "building": "yes", "name": "", "height": null, "height_m": null, "levels": null, "tract_id": "40069660300", "tract_name": "6603", "tags": {"building": "yes"}}}, {"type": "Feature", "geometry": {"type": "Polygon", "coordinates": [[[-96.7521313, 34.2432712], [-96.7521097, 34.2431667], [-96.7522435, 34.2431478], [-96.752265, 34.2432524], [-96.7521313, 34.2432712]]]}, "properties": {"osm_id": 1134151212, "building": "yes", "name": "", "height": null, "height_m": null, "levels": null, "tract_id": "40069660300", "tract_name": "6603", "tags": {"building": "yes"}}}, {"type": "Feature", "geometry": {"type": "Polygon", "coordinates": [[[-96.7531071, 34.2434397], [-96.7531076, 34.2433977], [-96.7532887, 34.2433993], [-96.7532882, 34.2434413], [-96.7531071, 34.2434397]]]}, "properties": {"osm_id": 1134151213, "building": "yes", "name": "", "height": null, "height_m": null, "levels": null, "tract_id": "40069660300", "tract_name": "6603", "tags": {"building": "yes"}}}, {"type": "Feature", "geometry": {"type": "Polygon", "coordinates": [[[-96.7540364, 34.243435], [-96.7539084, 34.2434295], [-96.7539151, 34.2433234], [-96.7540431, 34.2433289], [-96.7540364, 34.243435]]]}, "properties": {"osm_id": 1134151214, "building": "yes", "name": "", "height": null, "height_m": null, "levels": null, "tract_id": "40069660300", "tract_name": "6603", "tags": {"building": "yes"}}}, {"type": "Feature", "geometry": {"type": "Polygon", "coordinates": [[[-96.7579226, 34.244915], [-96.7579349, 34.2447167], [-96.7579918, 34.2447191], [-96.7579794, 34.2449175], [-96.7579226, 34.244915]]]}, "properties": {"osm_id": 1134151215, "building": "yes", "name": "", "height": null, "height_m": null, "levels": null, "tract_id": "40069660300", "tract_name": "6603", "tags": {"building": "yes"}}}, {"type": "Feature", "geometry": {"type": "Polygon", "coordinates": [[[-96.7572087, 34.2446679], [-96.7571919, 34.24472], [-96.757133, 34.244707], [-96.7571497, 34.2446549], [-96.7572087, 34.2446679]]]}, "properties": {"osm_id": 1134151216, "building": "yes", "name": "", "height": null, "height_m": null, "levels": null, "tract_id": "40069660300", "tract_name": "6603", "tags": {"building": "yes"}}}, {"type": "Feature", "geometry": {"type": "Polygon", "coordinates": [[[-96.7658656, 34.2461418], [-96.7657205, 34.2461434], [-96.7657196, 34.2460904], [-96.7658647, 34.2460888], [-96.7658656, 34.2461418]]]}, "properties": {"osm_id": 1134151217, "building": "yes", "name": "", "height": null, "height_m": null, "levels": null, "tract_id": "40069660300", "tract_name": "6603", "tags": {"building": "yes"}}}, {"type": "Feature", "geometry": {"type": "Polygon", "coordinates": [[[-96.7652283, 34.246058], [-96.7652264, 34.2459728], [-96.7653288, 34.2459712], [-96.7653307, 34.2460564], [-96.7652283, 34.246058]]]}, "properties": {"osm_id": 1134151218, "building": "yes", "name": "", "height": null, "height_m": null, "levels": null, "tract_id": "40069660300", "tract_name": "6603", "tags": {"building": "yes"}}}, {"type": "Feature", "geometry": {"type": "Polygon", "coordinates": [[[-96.7412496, 34.2222787], [-96.7414043, 34.2222843], [-96.7413949, 34.2224595], [-96.7412402, 34.2224539], [-96.7412496, 34.2222787]]]}, "properties": {"osm_id": 1134151225, "building": "yes", "name": "", "height": null, "height_m": null, "levels": null, "tract_id": "40069660300", "tract_name": "6603", "tags": {"building": "yes"}}}, {"type": "Feature", "geometry": {"type": "Polygon", "coordinates": [[[-96.7415741, 34.2227211], [-96.7415915, 34.2225581], [-96.7417317, 34.2225684], [-96.7417143, 34.2227314], [-96.7415741, 34.2227211]]]}, "properties": {"osm_id": 1134151226, "building": "yes", "name": "", "height": null, "height_m": null, "levels": null, "tract_id": "40069660300", "tract_name": "6603", "tags": {"building": "yes"}}}, {"type": "Feature", "geometry": {"type": "Polygon", "coordinates": [[[-96.7490588, 34.2407155], [-96.7490607, 34.240819], [-96.7489796, 34.24082], [-96.7489777, 34.2407166], [-96.7490588, 34.2407155]]]}, "properties": {"osm_id": 1134151227, "building": "yes", "name": "", "height": null, "height_m": null, "levels": null, "tract_id": "40069660300", "tract_name": "6603", "tags": {"building": "yes"}}}, {"type": "Feature", "geometry": {"type": "Polygon", "coordinates": [[[-96.7489791, 34.2406999], [-96.7489782, 34.2405909], [-96.7490641, 34.2405904], [-96.749065, 34.2406994], [-96.7489791, 34.2406999]]]}, "properties": {"osm_id": 1134151228, "building": "yes", "name": "", "height": null, "height_m": null, "levels": null, "tract_id": "40069660300", "tract_name": "6603", "tags": {"building": "yes"}}}, {"type": "Feature", "geometry": {"type": "Polygon", "coordinates": [[[-96.7489563, 34.2409609], [-96.7490621, 34.2409594], [-96.7490649, 34.2410919], [-96.7489592, 34.2410934], [-96.7489563, 34.2409609]]]}, "properties": {"osm_id": 1134151229, "building": "yes", "name": "", "height": null, "height_m": null, "levels": null, "tract_id": "40069660300", "tract_name": "6603", "tags": {"building": "yes"}}}, {"type": "Feature", "geometry": {"type": "Polygon", "coordinates": [[[-96.74949, 34.2412627], [-96.7493539, 34.2412612], [-96.7493566, 34.2410927], [-96.7494927, 34.2410942], [-96.74949, 34.2412627]]]}, "properties": {"osm_id": 1134151230, "building": "yes", "name": "", "height": null, "height_m": null, "levels": null, "tract_id": "40069660300", "tract_name": "6603", "tags": {"building": "yes"}}}, {"type": "Feature", "geometry": {"type": "Polygon", "coordinates": [[[-96.7631202, 34.2418562], [-96.763126, 34.2416878], [-96.7633279, 34.2416925], [-96.7633222, 34.2418609], [-96.7631202, 34.2418562]]]}, "properties": {"osm_id": 1134151231, "building": "yes", "name": "", "height": null, "height_m": null, "levels": null, "tract_id": "40069660300", "tract_name": "6603", "tags": {"building": "yes"}}}, {"type": "Feature", "geometry": {"type": "Polygon", "coordinates": [[[-96.7642596, 34.241669], [-96.7642726, 34.2415715], [-96.7644423, 34.2415871], [-96.7644292, 34.2416845], [-96.7642596, 34.241669]]]}, "properties": {"osm_id": 1134151232, "building": "yes", "name": "", "height": null, "height_m": null, "levels": null, "tract_id": "40069660300", "tract_name": "6603", "tags": {"building": "yes"}}}, {"type": "Feature", "geometry": {"type": "Polygon", "coordinates": [[[-96.7651809, 34.2430462], [-96.7651474, 34.2430445], [-96.765154, 34.2429567], [-96.7651875, 34.2429584], [-96.7651809, 34.2430462]]]}, "properties": {"osm_id": 1134151233, "building": "yes", "name": "", "height": null, "height_m": null, "levels": null, "tract_id": "40069660300", "tract_name": "6603", "tags": {"building": "yes"}}}, {"type": "Feature", "geometry": {"type": "Polygon", "coordinates": [[[-96.7654768, 34.2428863], [-96.7654841, 34.2428269], [-96.765743, 34.2428489], [-96.7657356, 34.2429082], [-96.7654768, 34.2428863]]]}, "properties": {"osm_id": 1134151234, "building": "yes", "name": "", "height": null, "height_m": null, "levels": null, "tract_id": "40069660300", "tract_name": "6603", "tags": {"building": "yes"}}}, {"type": "Feature", "geometry": {"type": "Polygon", "coordinates": [[[-96.7666394, 34.2470504], [-96.7664326, 34.2471068], [-96.7663741, 34.2469603], [-96.7665808, 34.2469038], [-96.7666394, 34.2470504]]]}, "properties": {"osm_id": 1134151235, "building": "yes", "name": "", "height": null, "height_m": null, "levels": null, "tract_id": "40069660300", "tract_name": "6603", "tags": {"building": "yes"}}}, {"type": "Feature", "geometry": {"type": "Polygon", "coordinates": [[[-96.7589116, 34.2457601], [-96.7587997, 34.2458181], [-96.7587608, 34.2457667], [-96.7588727, 34.2457087], [-96.7589116, 34.2457601]]]}, "properties": {"osm_id": 1134151238, "building": "yes", "name": "", "height": null, "height_m": null, "levels": null, "tract_id": "40069660300", "tract_name": "6603", "tags": {"building": "yes"}}}, {"type": "Feature", "geometry": {"type": "Polygon", "coordinates": [[[-96.7537472, 34.2447347], [-96.7538317, 34.244782], [-96.7537046, 34.2449372], [-96.7536201, 34.24489], [-96.7537472, 34.2447347]]]}, "properties": {"osm_id": 1134151239, "building": "yes", "name": "", "height": null, "height_m": null, "levels": null, "tract_id": "40069660300", "tract_name": "6603", "tags": {"building": "yes"}}}, {"type": "Feature", "geometry": {"type": "Polygon", "coordinates": [[[-96.7544632, 34.2448907], [-96.75454, 34.2447316], [-96.7546408, 34.2447649], [-96.754564, 34.244924], [-96.7544632, 34.2448907]]]}, "properties": {"osm_id": 1134151240, "building": "yes", "name": "", "height": null, "height_m": null, "levels": null, "tract_id": "40069660300", "tract_name": "6603", "tags": {"building": "yes"}}}, {"type": "Feature", "geometry": {"type": "Polygon", "coordinates": [[[-96.7546481, 34.2438662], [-96.7545769, 34.2438693], [-96.7545734, 34.2438143], [-96.7546445, 34.2438111], [-96.7546481, 34.2438662]]]}, "properties": {"osm_id": 1134151241, "building": "yes", "name": "", "height": null, "height_m": null, "levels": null, "tract_id": "40069660300", "tract_name": "6603", "tags": {"building": "yes"}}}, {"type": "Feature", "geometry": {"type": "Polygon", "coordinates": [[[-96.7546386, 34.2439892], [-96.7544594, 34.2439963], [-96.754455, 34.2439212], [-96.7546343, 34.2439141], [-96.7546386, 34.2439892]]]}, "properties": {"osm_id": 1134151242, "building": "yes", "name": "", "height": null, "height_m": null, "levels": null, "tract_id": "40069660300", "tract_name": "6603", "tags": {"building": "yes"}}}, {"type": "Feature", "geometry": {"type": "Polygon", "coordinates": [[[-96.7545553, 34.2429124], [-96.7546512, 34.2428906], [-96.7546941, 34.2430198], [-96.7545982, 34.2430415], [-96.7545553, 34.2429124]]]}, "properties": {"osm_id": 1134151243, "building": "yes", "name": "", "height": null, "height_m": null, "levels": null, "tract_id": "40069660300", "tract_name": "6603", "tags": {"building": "yes"}}}, {"type": "Feature", "geometry": {"type": "Polygon", "coordinates": [[[-96.7534589, 34.2427969], [-96.7532901, 34.2427985], [-96.7532883, 34.2426626], [-96.753457, 34.242661], [-96.7534589, 34.2427969]]]}, "properties": {"osm_id": 1134151244, "building": "yes", "name": "", "height": null, "height_m": null, "levels": null, "tract_id": "40069660300", "tract_name": "6603", "tags": {"building": "yes"}}}, {"type": "Feature", "geometry": {"type": "Polygon", "coordinates": [[[-96.7575782, 34.2375093], [-96.7576685, 34.2375247], [-96.757639, 34.2376428], [-96.7575487, 34.2376273], [-96.7575782, 34.2375093]]]}, "properties": {"osm_id": 1134151245, "building": "yes", "name": "", "height": null, "height_m": null, "levels": null, "tract_id": "40069660300", "tract_name": "6603", "tags": {"building": "yes"}}}, {"type": "Feature", "geometry": {"type": "Polygon", "coordinates": [[[-96.7576808, 34.2374189], [-96.7577807, 34.2374333], [-96.7577667, 34.2374995], [-96.7576668, 34.2374851], [-96.7576808, 34.2374189]]]}, "properties": {"osm_id": 1134151246, "building": "yes", "name": "", "height": null, "height_m": null, "levels": null, "tract_id": "40069660300", "tract_name": "6603", "tags": {"building": "yes"}}}, {"type": "Feature", "geometry": {"type": "Polygon", "coordinates": [[[-96.7573261, 34.2384949], [-96.7572248, 34.2384722], [-96.7572436, 34.2384151], [-96.7573448, 34.2384378], [-96.7573261, 34.2384949]]]}, "properties": {"osm_id": 1134151247, "building": "yes", "name": "", "height": null, "height_m": null, "levels": null, "tract_id": "40069660300", "tract_name": "6603", "tags": {"building": "yes"}}}, {"type": "Feature", "geometry": {"type": "Polygon", "coordinates": [[[-96.7580999, 34.2383031], [-96.7580757, 34.2383735], [-96.7580121, 34.2383586], [-96.7580362, 34.2382882], [-96.7580999, 34.2383031]]]}, "properties": {"osm_id": 1134151248, "building": "yes", "name": "", "height": null, "height_m": null, "levels": null, "tract_id": "40069660300", "tract_name": "6603", "tags": {"building": "yes"}}}, {"type": "Feature", "geometry": {"type": "Polygon", "coordinates": [[[-96.7583815, 34.2221756], [-96.7569155, 34.2220156], [-96.7569354, 34.2218906], [-96.7584015, 34.2220505], [-96.7583815, 34.2221756]]]}, "properties": {"osm_id": 1134151250, "building": "yes", "name": "", "height": null, "height_m": null, "levels": null, "tract_id": "40069660300", "tract_name": "6603", "tags": {"building": "yes"}}}, {"type": "Feature", "geometry": {"type": "Polygon", "coordinates": [[[-96.7404013, 34.2221705], [-96.7403329, 34.2221678], [-96.7403358, 34.2221195], [-96.7404042, 34.2221223], [-96.7404013, 34.2221705]]]}, "properties": {"osm_id": 1134151253, "building": "yes", "name": "", "height": null, "height_m": null, "levels": null, "tract_id": "40069660300", "tract_name": "6603", "tags": {"building": "yes"}}}, {"type": "Feature", "geometry": {"type": "Polygon", "coordinates": [[[-96.7399, 34.2212111], [-96.7400752, 34.2212145], [-96.7400657, 34.2215485], [-96.7398906, 34.2215451], [-96.7399, 34.2212111]]]}, "properties": {"osm_id": 1134151254, "building": "yes", "name": "", "height": null, "height_m": null, "levels": null, "tract_id": "40069660300", "tract_name": "6603", "tags": {"building": "yes"}}}, {"type": "Feature", "geometry": {"type": "Polygon", "coordinates": [[[-96.7395767, 34.2216337], [-96.7395803, 34.2215314], [-96.739842, 34.2215377], [-96.7398384, 34.22164], [-96.7395767, 34.2216337]]]}, "properties": {"osm_id": 1134151255, "building": "yes", "name": "", "height": null, "height_m": null, "levels": null, "tract_id": "40069660300", "tract_name": "6603", "tags": {"building": "yes"}}}, {"type": "Feature", "geometry": {"type": "Polygon", "coordinates": [[[-96.7398318, 34.2218227], [-96.7396336, 34.2218157], [-96.7396392, 34.2217074], [-96.7398374, 34.2217144], [-96.7398318, 34.2218227]]]}, "properties": {"osm_id": 1134151256, "building": "yes", "name": "", "height": null, "height_m": null, "levels": null, "tract_id": "40069660300", "tract_name": "6603", "tags": {"building": "yes"}}}, {"type": "Feature", "geometry": {"type": "Polygon", "coordinates": [[[-96.7400224, 34.2220258], [-96.7395454, 34.2220078], [-96.7395529, 34.2218723], [-96.7400299, 34.2218904], [-96.7400224, 34.2220258]]]}, "properties": {"osm_id": 1134151257, "building": "yes", "name": "", "height": null, "height_m": null, "levels": null, "tract_id": "40069660300", "tract_name": "6603", "tags": {"building": "yes"}}}, {"type": "Feature", "geometry": {"type": "Polygon", "coordinates": [[[-96.7627662, 34.2454744], [-96.7627609, 34.2456196], [-96.7626539, 34.2456169], [-96.7626593, 34.2454717], [-96.7627662, 34.2454744]]]}, "properties": {"osm_id": 1134151265, "building": "yes", "name": "", "height": null, "height_m": null, "levels": null, "tract_id": "40069660300", "tract_name": "6603", "tags": {"building": "yes"}}}, {"type": "Feature", "geometry": {"type": "Polygon", "coordinates": [[[-96.7628945, 34.2460148], [-96.7628982, 34.2459362], [-96.7631173, 34.2459433], [-96.7631136, 34.2460219], [-96.7628945, 34.2460148]]]}, "properties": {"osm_id": 1134151266, "building": "yes", "name": "", "height": null, "height_m": null, "levels": null, "tract_id": "40069660300", "tract_name": "6603", "tags": {"building": "yes"}}}, {"type": "Feature", "geometry": {"type": "Polygon", "coordinates": [[[-96.7580134, 34.2434772], [-96.7579181, 34.2434556], [-96.7579342, 34.2434072], [-96.7580294, 34.2434289], [-96.7580134, 34.2434772]]]}, "properties": {"osm_id": 1134151267, "building": "yes", "name": "", "height": null, "height_m": null, "levels": null, "tract_id": "40069660300", "tract_name": "6603", "tags": {"building": "yes"}}}, {"type": "Feature", "geometry": {"type": "Polygon", "coordinates": [[[-96.757235, 34.2442777], [-96.757291, 34.2440961], [-96.7575442, 34.2441494], [-96.7574882, 34.244331], [-96.757235, 34.2442777]]]}, "properties": {"osm_id": 1134151268, "building": "yes", "name": "", "height": null, "height_m": null, "levels": null, "tract_id": "40069660300", "tract_name": "6603", "tags": {"building": "yes"}}}, {"type": "Feature", "geometry": {"type": "Polygon", "coordinates": [[[-96.7512918, 34.2427699], [-96.751269, 34.2430127], [-96.7510769, 34.2430004], [-96.7510997, 34.2427576], [-96.7512918, 34.2427699]]]}, "properties": {"osm_id": 1134151269, "building": "yes", "name": "", "height": null, "height_m": null, "levels": null, "tract_id": "40069660300", "tract_name": "6603", "tags": {"building": "yes"}}}, {"type": "Feature", "geometry": {"type": "Polygon", "coordinates": [[[-96.7486415, 34.2424136], [-96.7486411, 34.2423593], [-96.7489778, 34.2423578], [-96.7489782, 34.242412], [-96.7486415, 34.2424136]]]}, "properties": {"osm_id": 1134151270, "building": "yes", "name": "", "height": null, "height_m": null, "levels": null, "tract_id": "40069660300", "tract_name": "6603", "tags": {"building": "yes"}}}, {"type": "Feature", "geometry": {"type": "Polygon", "coordinates": [[[-96.7508237, 34.2417527], [-96.7506219, 34.2417538], [-96.750621, 34.2416487], [-96.7508229, 34.2416476], [-96.7508237, 34.2417527]]]}, "properties": {"osm_id": 1134151271, "building": "yes", "name": "", "height": null, "height_m": null, "levels": null, "tract_id": "40069660300", "tract_name": "6603", "tags": {"building": "yes"}}}, {"type": "Feature", "geometry": {"type": "Polygon", "coordinates": [[[-96.7510664, 34.241664], [-96.7511862, 34.2416769], [-96.7511688, 34.2417878], [-96.751049, 34.2417749], [-96.7510664, 34.241664]]]}, "properties": {"osm_id": 1134151272, "building": "yes", "name": "", "height": null, "height_m": null, "levels": null, "tract_id": "40069660300", "tract_name": "6603", "tags": {"building": "yes"}}}, {"type": "Feature", "geometry": {"type": "Polygon", "coordinates": [[[-96.7514305, 34.2412408], [-96.7514302, 34.2411737], [-96.7515976, 34.2411733], [-96.7515978, 34.2412404], [-96.7514305, 34.2412408]]]}, "properties": {"osm_id": 1134151273, "building": "roof", "name": "", "height": null, "height_m": null, "levels": null, "tract_id": "40069660300", "tract_name": "6603", "tags": {"building": "roof", "layer": "1"}}}, {"type": "Feature", "geometry": {"type": "Polygon", "coordinates": [[[-96.7512596, 34.241031], [-96.7512577, 34.2408999], [-96.751597, 34.2408966], [-96.7515989, 34.2410277], [-96.7512596, 34.241031]]]}, "properties": {"osm_id": 1134151274, "building": "yes", "name": "", "height": null, "height_m": null, "levels": null, "tract_id": "40069660300", "tract_name": "6603", "tags": {"building": "yes"}}}, {"type": "Feature", "geometry": {"type": "Polygon", "coordinates": [[[-96.753227, 34.2391146], [-96.7533275, 34.2391146], [-96.7533275, 34.2393042], [-96.753227, 34.2393042], [-96.753227, 34.2391146]]]}, "properties": {"osm_id": 1134151275, "building": "yes", "name": "", "height": null, "height_m": null, "levels": null, "tract_id": "40069660300", "tract_name": "6603", "tags": {"building": "yes"}}}, {"type": "Feature", "geometry": {"type": "Polygon", "coordinates": [[[-96.7478573, 34.2381559], [-96.7479565, 34.23816], [-96.7479461, 34.2383333], [-96.7478468, 34.2383292], [-96.7478573, 34.2381559]]]}, "properties": {"osm_id": 1134151276, "building": "yes", "name": "", "height": null, "height_m": null, "levels": null, "tract_id": "40069660300", "tract_name": "6603", "tags": {"building": "yes"}}}, {"type": "Feature", "geometry": {"type": "Polygon", "coordinates": [[[-96.7451857, 34.2406114], [-96.7453247, 34.2404628], [-96.7456211, 34.2406524], [-96.7454821, 34.2408009], [-96.7451857, 34.2406114]]]}, "properties": {"osm_id": 1134151277, "building": "yes", "name": "", "height": null, "height_m": null, "levels": null, "tract_id": "40069660300", "tract_name": "6603", "tags": {"building": "yes"}}}, {"type": "Feature", "geometry": {"type": "Polygon", "coordinates": [[[-96.7470887, 34.2421579], [-96.7473296, 34.2421719], [-96.7472947, 34.2425821], [-96.7470539, 34.2425681], [-96.7470887, 34.2421579]]]}, "properties": {"osm_id": 1134151278, "building": "yes", "name": "", "height": null, "height_m": null, "levels": null, "tract_id": "40069660300", "tract_name": "6603", "tags": {"building": "yes"}}}, {"type": "Feature", "geometry": {"type": "Polygon", "coordinates": [[[-96.751273, 34.246078], [-96.7512985, 34.2458053], [-96.751475, 34.2458166], [-96.7514495, 34.2460893], [-96.751273, 34.246078]]]}, "properties": {"osm_id": 1134151279, "building": "yes", "name": "", "height": null, "height_m": null, "levels": null, "tract_id": "40069660300", "tract_name": "6603", "tags": {"building": "yes"}}}, {"type": "Feature", "geometry": {"type": "Polygon", "coordinates": [[[-96.766224, 34.2449699], [-96.7660495, 34.2449707], [-96.766049, 34.2448894], [-96.7662235, 34.2448886], [-96.766224, 34.2449699]]]}, "properties": {"osm_id": 1134151283, "building": "yes", "name": "", "height": null, "height_m": null, "levels": null, "tract_id": "40069660300", "tract_name": "6603", "tags": {"building": "yes"}}}]}