{"type": "FeatureCollection", "features": [{"type": "Feature", "geometry": {"type": "Polygon", "coordinates": [[[-97.2418437, 34.7082335], [-97.2418448, 34.7081316], [-97.2421995, 34.7081341], [-97.2421984, 34.7082361], [-97.2418437, 34.7082335]]]}, "properties": {"osm_id": 319313635, "building": "roof", "name": "Love's", "height": null, "height_m": null, "levels": null, "tract_id": "40049681400", "tract_name": "6814", "tags": {"amenity": "fuel", "brand": "Love's", "brand:wikidata": "Q1872496", "building": "roof", "hgv": "no", "name": "Love's"}}}, {"type": "Feature", "geometry": {"type": "Polygon", "coordinates": [[[-97.2397298, 34.7093245], [-97.2396028, 34.7093245], [-97.2396028, 34.7090442], [-97.2397298, 34.7090442], [-97.2397298, 34.7093245]]]}, "properties": {"osm_id": 319313636, "building": "yes", "name": "", "height": null, "height_m": null, "levels": null, "tract_id": "40049681400", "tract_name": "6814", "tags": {"building": "yes"}}}, {"type": "Feature", "geometry": {"type": "Polygon", "coordinates": [[[-97.2397331, 34.7089755], [-97.2396061, 34.7089755], [-97.2396061, 34.7086952], [-97.2397331, 34.7086952], [-97.2397331, 34.7089755]]]}, "properties": {"osm_id": 319313637, "building": "yes", "name": "", "height": null, "height_m": null, "levels": null, "tract_id": "40049681400", "tract_name": "6814", "tags": {"building": "yes"}}}, {"type": "Feature", "geometry": {"type": "Polygon", "coordinates": [[[-97.2422622, 34.7086768], [-97.2422645, 34.7084441], [-97.2418859, 34.7084415], [-97.2418836, 34.7086743], [-97.2422622, 34.7086768]]]}, "properties": {"osm_id": 319313638, "building": "yes", "name": "", "height": null, "height_m": null, "levels": null, "tract_id": "40049681400", "tract_name": "6814", "tags": {"building": "yes"}}}, {"type": "Feature", "geometry": {"type": "Polygon", "coordinates": [[[-97.2221757, 34.7070173], [-97.2219424, 34.7070151], [-97.2219447, 34.7068447], [-97.222178, 34.7068469], [-97.2221757, 34.7070173]]]}, "properties": {"osm_id": 347705707, "building": "yes", "name": "", "height": null, "height_m": null, "levels": null, "tract_id": "40049681400", "tract_name": "6814", "tags": {"building": "yes"}}}, {"type": "Feature", "geometry": {"type": "Polygon", "coordinates": [[[-97.2221783, 34.7066613], [-97.2219734, 34.7066629], [-97.2219709, 34.7064348], [-97.2221757, 34.7064333], [-97.2221763, 34.7064838], [-97.2221783, 34.7066613]]]}, "properties": {"osm_id": 347705723, "building": "yes", "name": "", "height": null, "height_m": null, "levels": null, "tract_id": "40049681400", "tract_name": "6814", "tags": {"building": "yes"}}}, {"type": "Feature", "geometry": {"type": "Polygon", "coordinates": [[[-97.2209607, 34.7078659], [-97.2208397, 34.7078659], [-97.2208397, 34.7075012], [-97.2209607, 34.7075012], [-97.2209607, 34.7078659]]]}, "properties": {"osm_id": 347705732, "building": "yes", "name": "", "height": null, "height_m": null, "levels": null, "tract_id": "40049681400", "tract_name": "6814", "tags": {"building": "yes"}}}, {"type": "Feature", "geometry": {"type": "Polygon", "coordinates": [[[-97.2221861, 34.7057171], [-97.2220673, 34.7057182], [-97.2220621, 34.7053559], [-97.2221809, 34.7053548], [-97.2221861, 34.7057171]]]}, "properties": {"osm_id": 347705741, "building": "yes", "name": "", "height": null, "height_m": null, "levels": null, "tract_id": "40049681400", "tract_name": "6814", "tags": {"building": "yes"}}}, {"type": "Feature", "geometry": {"type": "Polygon", "coordinates": [[[-97.2198825, 34.7091469], [-97.219765, 34.7091448], [-97.2197671, 34.7090655], [-97.219787, 34.7083189], [-97.2199045, 34.708321], [-97.2198825, 34.7091469]]]}, "properties": {"osm_id": 347705748, "building": "yes", "name": "", "height": null, "height_m": null, "levels": null, "tract_id": "40049681400", "tract_name": "6814", "tags": {"building": "yes"}}}, {"type": "Feature", "geometry": {"type": "Polygon", "coordinates": [[[-97.2221783, 34.706056], [-97.2219761, 34.7060539], [-97.2219787, 34.7058899], [-97.2221809, 34.7058921], [-97.2221783, 34.706056]]]}, "properties": {"osm_id": 347705757, "building": "yes", "name": "", "height": null, "height_m": null, "levels": null, "tract_id": "40049681400", "tract_name": "6814", "tags": {"building": "yes"}}}, {"type": "Feature", "geometry": {"type": "Polygon", "coordinates": [[[-97.2203198, 34.708743], [-97.2201646, 34.7087417], [-97.2201695, 34.7083462], [-97.2202448, 34.7083469], [-97.2202452, 34.7083145], [-97.2203251, 34.7083152], [-97.2203198, 34.708743]]]}, "properties": {"osm_id": 347705764, "building": "yes", "name": "", "height": null, "height_m": null, "levels": null, "tract_id": "40049681400", "tract_name": "6814", "tags": {"building": "yes"}}}, {"type": "Feature", "geometry": {"type": "Polygon", "coordinates": [[[-97.2551359, 34.7388174], [-97.2551358, 34.7388064], [-97.254978, 34.7388074], [-97.2549778, 34.73879], [-97.254903, 34.7387905], [-97.2549014, 34.7386235], [-97.2551312, 34.738622], [-97.2551313, 34.7386322], [-97.2552525, 34.7386314], [-97.2552524, 34.7386205], [-97.2555546, 34.7386187], [-97.255555, 34.7386723], [-97.2555573, 34.7387457], [-97.255556, 34.738787], [-97.2555297, 34.7387872], [-97.2555298, 34.7387975], [-97.2554516, 34.7387979], [-97.2554518, 34.7388154], [-97.2553403, 34.7388161], [-97.2552908, 34.7388164], [-97.2551568, 34.7388173], [-97.2551359, 34.7388174]]]}, "properties": {"osm_id": 382629237, "building": "hotel", "name": "Holiday Inn Express & Suites Pauls Valley", "height": null, "height_m": null, "levels": null, "tract_id": "40049681400", "tract_name": "6814", "tags": {"addr:city": "Pauls Valley", "addr:housenumber": "2412", "addr:postcode": "73075", "addr:state": "OK", "addr:street": "West Grant Avenue", "brand": "Holiday Inn Express & Suites", "brand:wikidata": "Q5880423", "building": "hotel", "name": "Holiday Inn Express & Suites Pauls Valley", "tourism": "hotel", "website": "https://www.ihg.com/holidayinnexpress/hotels/us/en/pauls-valley/pvjes/hoteldetail", "wheelchair": "yes"}}}, {"type": "Feature", "geometry": {"type": "Polygon", "coordinates": [[[-97.2555573, 34.7387457], [-97.2556221, 34.7387938], [-97.2556883, 34.7387938], [-97.2557438, 34.7387495], [-97.2557453, 34.7386698], [-97.2557006, 34.7386267], [-97.2556205, 34.7386229], [-97.255555, 34.7386723], [-97.2555573, 34.7387457]]]}, "properties": {"osm_id": 382629266, "building": "hotel", "name": "", "height": null, "height_m": null, "levels": null, "tract_id": "40049681400", "tract_name": "6814", "tags": {"building": "hotel"}}}, {"type": "Feature", "geometry": {"type": "Polygon", "coordinates": [[[-97.2551568, 34.7388242], [-97.2551561, 34.73888], [-97.2551553, 34.7389508], [-97.2552908, 34.7389508], [-97.2552908, 34.7388822], [-97.2552908, 34.7388164], [-97.2551568, 34.7388173], [-97.2551568, 34.7388242]]]}, "properties": {"osm_id": 382629267, "building": "roof", "name": "", "height": null, "height_m": null, "levels": null, "tract_id": "40049681400", "tract_name": "6814", "tags": {"building": "roof"}}}, {"type": "Feature", "geometry": {"type": "Polygon", "coordinates": [[[-97.2560303, 34.7388852], [-97.2562078, 34.7388847], [-97.2562049, 34.7386291], [-97.2560312, 34.7386305], [-97.2560321, 34.7387122], [-97.2560153, 34.7387124], [-97.256016, 34.7387746], [-97.2560303, 34.7387747], [-97.2560303, 34.7388852]]]}, "properties": {"osm_id": 382629938, "building": "retail", "name": "Chicken Express", "height": null, "height_m": null, "levels": null, "tract_id": "40049681400", "tract_name": "6814", "tags": {"addr:city": "Pauls Valley", "addr:housenumber": "2416", "addr:postcode": "73075", "addr:state": "OK", "addr:street": "West Grant Avenue", "amenity": "fast_food", "brand": "Chicken Express", "brand:wikidata": "Q5096235", "building": "retail", "cuisine": "chicken", "drive_through": "yes", "name": "Chicken Express", "phone": "+1-405-238-4456", "takeaway": "yes", "wheelchair": "yes"}}}, {"type": "Feature", "geometry": {"type": "Polygon", "coordinates": [[[-97.2583957, 34.7389585], [-97.2584001, 34.738684], [-97.2582593, 34.7386825], [-97.2582549, 34.7389591], [-97.2582927, 34.7389595], [-97.2582925, 34.7389706], [-97.2583398, 34.7389711], [-97.25834, 34.7389579], [-97.2583957, 34.7389585]]]}, "properties": {"osm_id": 382642025, "building": "yes", "name": "Arby's", "height": null, "height_m": null, "levels": null, "tract_id": "40049681400", "tract_name": "6814", "tags": {"addr:city": "Pauls Valley", "addr:housenumber": "2514", "addr:postcode": "73075", "addr:state": "OK", "addr:street": "West Grant Avenue", "amenity": "fast_food", "brand": "Arby's", "brand:wikidata": "Q630866", "building": "yes", "check_date": "2024-06-21", "cuisine": "sandwich", "name": "Arby's", "opening_hours": "10:00-23:00", "phone": "+1 405-238-1930", "takeaway": "yes", "website": "https://www.arbys.com/locations/us/ok/pauls-valley/2514-w-grant-ave/store-7682/"}}}, {"type": "Feature", "geometry": {"type": "Polygon", "coordinates": [[[-97.2579427, 34.7387375], [-97.2579456, 34.7386181], [-97.257723, 34.7386145], [-97.2577177, 34.7388295], [-97.2579047, 34.7388326], [-97.257907, 34.7387369], [-97.2579427, 34.7387375]]]}, "properties": {"osm_id": 382642027, "building": "yes", "name": "", "height": null, "height_m": null, "levels": null, "tract_id": "40049681400", "tract_name": "6814", "tags": {"building": "yes"}}}, {"type": "Feature", "geometry": {"type": "Polygon", "coordinates": [[[-97.2567984, 34.7389103], [-97.2568054, 34.7387616], [-97.2566712, 34.7387574], [-97.2566643, 34.7389061], [-97.2567984, 34.7389103]]]}, "properties": {"osm_id": 382642029, "building": "retail", "name": "", "height": null, "height_m": null, "levels": null, "tract_id": "40049681400", "tract_name": "6814", "tags": {"addr:city": "Pauls Valley", "addr:housenumber": "2502", "addr:postcode": "73075", "addr:state": "OK", "addr:street": "West Grant Avenue", "building": "retail"}}}, {"type": "Feature", "geometry": {"type": "Polygon", "coordinates": [[[-97.2574928, 34.7389321], [-97.2574998, 34.738297], [-97.2573134, 34.7382956], [-97.2573064, 34.7389274], [-97.2573409, 34.7389276], [-97.2573406, 34.7389565], [-97.2573403, 34.7389855], [-97.257435, 34.7389862], [-97.2574353, 34.7389581], [-97.2574356, 34.7389317], [-97.2574928, 34.7389321]]]}, "properties": {"osm_id": 382642030, "building": "yes", "name": "Relax Inn", "height": null, "height_m": null, "levels": null, "tract_id": "40049681400", "tract_name": "6814", "tags": {"addr:city": "Pauls Valley", "addr:housenumber": "2506", "addr:postcode": "73075", "addr:state": "OK", "addr:street": "West Grant Avenue", "building": "yes", "name": "Relax Inn", "tourism": "hotel"}}}, {"type": "Feature", "geometry": {"type": "Polygon", "coordinates": [[[-97.2599972, 34.7386966], [-97.259998, 34.738536], [-97.2593478, 34.7385338], [-97.259347, 34.738699], [-97.2597163, 34.7387002], [-97.2597146, 34.738745], [-97.2597158, 34.7387873], [-97.2598092, 34.7387876], [-97.2598094, 34.7387461], [-97.2598096, 34.7386959], [-97.2599972, 34.7386966]]]}, "properties": {"osm_id": 382642052, "building": "hotel", "name": "Days Inn by Wyndham Pauls Valley", "height": null, "height_m": null, "levels": null, "tract_id": "40049681400", "tract_name": "6814", "tags": {"addr:city": "Pauls Valley", "addr:housenumber": "2606", "addr:postcode": "73075", "addr:state": "OK", "addr:street": "West Grant Avenue", "branch": "Pauls Valley", "brand": "Days Inn", "brand:wikidata": "Q1047239", "building": "hotel", "name": "Days Inn by Wyndham Pauls Valley", "phone": "+1 405-238-7548", "ref": "04102", "tourism": "hotel", "website": "https://daysinn.com/hotels/oklahoma/pauls-valley/days-inn-pauls-valley/hotel-overview", "wheelchair": "yes"}}}, {"type": "Feature", "geometry": {"type": "Polygon", "coordinates": [[[-97.2592378, 34.7387745], [-97.2592368, 34.7386121], [-97.2590215, 34.7386129], [-97.2590225, 34.7387765], [-97.2591041, 34.7387762], [-97.2591042, 34.7387922], [-97.2591509, 34.738792], [-97.2591508, 34.7387748], [-97.2592378, 34.7387745]]]}, "properties": {"osm_id": 382642053, "building": "yes", "name": "Stevenson's BBQ", "height": null, "height_m": null, "levels": null, "tract_id": "40049681400", "tract_name": "6814", "tags": {"addr:city": "Pauls Valley", "addr:housenumber": "2602", "addr:postcode": "73075", "addr:state": "OK", "addr:street": "West Grant Avenue", "amenity": "restaurant", "building": "yes", "cuisine": "american", "name": "Stevenson's BBQ", "opening_hours": "Tu-Sa 11:00-21:00; Su 11:00-19:00; Mo off", "phone": "+1 405 238 2040"}}}, {"type": "Feature", "geometry": {"type": "Polygon", "coordinates": [[[-97.2602974, 34.7387581], [-97.2602973, 34.7388539], [-97.2602046, 34.7388538], [-97.2602046, 34.7388803], [-97.260149, 34.7388803], [-97.260149, 34.7388537], [-97.2601198, 34.7388536], [-97.2601202, 34.7385326], [-97.2601621, 34.7385326], [-97.2601621, 34.7385124], [-97.260273, 34.7385125], [-97.260273, 34.7385328], [-97.2603024, 34.7385328], [-97.2603022, 34.7386884], [-97.2603353, 34.7386875], [-97.2603338, 34.7387578], [-97.2602974, 34.7387581]]]}, "properties": {"osm_id": 382642307, "building": "yes", "name": "Braum's", "height": null, "height_m": null, "levels": null, "tract_id": "40049681400", "tract_name": "6814", "tags": {"addr:city": "Pauls Valley", "addr:housenumber": "2702", "addr:postcode": "73075", "addr:state": "OK", "addr:street": "West Grant Avenue", "amenity": "fast_food", "brand": "Braum's", "brand:wikidata": "Q4958263", "building": "yes", "cuisine": "ice_cream;burger", "delivery": "no", "drive_through": "yes", "name": "Braum's", "phone": "+1-405-238-9142", "shop": "dairy", "takeaway": "yes"}}}, {"type": "Feature", "geometry": {"type": "Polygon", "coordinates": [[[-97.2595858, 34.7384298], [-97.2595854, 34.7382982], [-97.2595568, 34.7382983], [-97.2595565, 34.738192], [-97.2595813, 34.738192], [-97.2595793, 34.7381218], [-97.2595805, 34.7379446], [-97.2595623, 34.7379446], [-97.259562, 34.7378463], [-97.2595255, 34.7378463], [-97.2595254, 34.7378312], [-97.2593559, 34.7378316], [-97.2593559, 34.73785], [-97.2593274, 34.73785], [-97.2593278, 34.7379954], [-97.2593112, 34.7379954], [-97.2593053, 34.738054], [-97.2593115, 34.7381123], [-97.2593401, 34.7381122], [-97.2593406, 34.7383204], [-97.2593696, 34.7383203], [-97.2593697, 34.7383452], [-97.2594409, 34.7383451], [-97.2594411, 34.7384301], [-97.2595858, 34.7384298]]]}, "properties": {"osm_id": 382642461, "building": "yes", "name": "Comfort Inn & Suites", "height": null, "height_m": null, "levels": null, "tract_id": "40049681400", "tract_name": "6814", "tags": {"addr:city": "Pauls Valley", "addr:housenumber": "103", "addr:postcode": "73075", "addr:state": "OK", "addr:street": "South Humphrey Road", "branch": "Pauls Valley - City Lake", "brand": "Comfort Inn & Suites", "brand:wikidata": "Q113152349", "building": "yes", "name": "Comfort Inn & Suites", "phone": "+1 405-207-9730", "ref": "OK131", "tourism": "hotel", "website": "https://choicehotels.com/oklahoma/pauls-valley/comfort-inn-hotels?brand=CI"}}}, {"type": "Feature", "geometry": {"type": "Polygon", "coordinates": [[[-97.2595813, 34.738192], [-97.2595815, 34.7381996], [-97.2596666, 34.7381947], [-97.2597151, 34.7381971], [-97.2597129, 34.7381193], [-97.2596648, 34.7381205], [-97.2595793, 34.7381218], [-97.2595813, 34.738192]]]}, "properties": {"osm_id": 382642462, "building": "roof", "name": "", "height": null, "height_m": null, "levels": null, "tract_id": "40049681400", "tract_name": "6814", "tags": {"building": "roof"}}}, {"type": "Feature", "geometry": {"type": "Polygon", "coordinates": [[[-97.2110868, 34.6250352], [-97.2110868, 34.6252052], [-97.2110412, 34.6252052], [-97.2110412, 34.6250352], [-97.2110868, 34.6250352]]]}, "properties": {"osm_id": 792220627, "building": "yes", "name": "", "height": null, "height_m": null, "levels": null, "tract_id": "40049681400", "tract_name": "6814", "tags": {"building": "yes"}}}, {"type": "Feature", "geometry": {"type": "Polygon", "coordinates": [[[-97.2110412, 34.6250352], [-97.2110412, 34.6248962], [-97.2110868, 34.6248962], [-97.2110868, 34.6250352], [-97.2110412, 34.6250352]]]}, "properties": {"osm_id": 792220628, "building": "yes", "name": "", "height": null, "height_m": null, "levels": null, "tract_id": "40049681400", "tract_name": "6814", "tags": {"building": "yes"}}}, {"type": "Feature", "geometry": {"type": "Polygon", "coordinates": [[[-97.2118163, 34.6253884], [-97.2117412, 34.6253903], [-97.2117385, 34.6253197], [-97.2118136, 34.6253177], [-97.2118163, 34.6253884]]]}, "properties": {"osm_id": 792220631, "building": "yes", "name": "", "height": null, "height_m": null, "levels": null, "tract_id": "40049681400", "tract_name": "6814", "tags": {"building": "yes"}}}, {"type": "Feature", "geometry": {"type": "Polygon", "coordinates": [[[-97.2120577, 34.6254148], [-97.2119719, 34.6254148], [-97.2119719, 34.6253729], [-97.2120577, 34.6253729], [-97.2120577, 34.6254148]]]}, "properties": {"osm_id": 792220632, "building": "yes", "name": "", "height": null, "height_m": null, "levels": null, "tract_id": "40049681400", "tract_name": "6814", "tags": {"building": "yes"}}}, {"type": "Feature", "geometry": {"type": "Polygon", "coordinates": [[[-97.2121865, 34.6254546], [-97.2120577, 34.6254546], [-97.2120577, 34.6254148], [-97.2120577, 34.6253729], [-97.2121865, 34.6253729], [-97.2121865, 34.6254546]]]}, "properties": {"osm_id": 792220633, "building": "yes", "name": "", "height": null, "height_m": null, "levels": null, "tract_id": "40049681400", "tract_name": "6814", "tags": {"building": "yes"}}}, {"type": "Feature", "geometry": {"type": "Polygon", "coordinates": [[[-97.2122884, 34.6255561], [-97.2121814, 34.6255611], [-97.2121761, 34.6254839], [-97.212283, 34.6254788], [-97.2122884, 34.6255561]]]}, "properties": {"osm_id": 792220634, "building": "yes", "name": "", "height": null, "height_m": null, "levels": null, "tract_id": "40049681400", "tract_name": "6814", "tags": {"building": "yes"}}}, {"type": "Feature", "geometry": {"type": "Polygon", "coordinates": [[[-97.2121784, 34.6256797], [-97.2120738, 34.6256797], [-97.2120738, 34.6255958], [-97.2121784, 34.6255958], [-97.2121784, 34.6256797]]]}, "properties": {"osm_id": 792220635, "building": "yes", "name": "", "height": null, "height_m": null, "levels": null, "tract_id": "40049681400", "tract_name": "6814", "tags": {"building": "yes"}}}, {"type": "Feature", "geometry": {"type": "Polygon", "coordinates": [[[-97.2121757, 34.6255715], [-97.2120845, 34.6255715], [-97.2120845, 34.6254788], [-97.2121757, 34.6254788], [-97.2121757, 34.6255715]]]}, "properties": {"osm_id": 792220636, "building": "yes", "name": "", "height": null, "height_m": null, "levels": null, "tract_id": "40049681400", "tract_name": "6814", "tags": {"building": "yes"}}}, {"type": "Feature", "geometry": {"type": "Polygon", "coordinates": [[[-97.2124091, 34.6253972], [-97.212401, 34.6257459], [-97.212315, 34.6257446], [-97.2122356, 34.6257433], [-97.2122375, 34.6256631], [-97.2123168, 34.6256644], [-97.212323, 34.6253958], [-97.2124091, 34.6253972]]]}, "properties": {"osm_id": 792220637, "building": "yes", "name": "", "height": null, "height_m": null, "levels": null, "tract_id": "40049681400", "tract_name": "6814", "tags": {"building": "yes"}}}, {"type": "Feature", "geometry": {"type": "Polygon", "coordinates": [[[-97.2124574, 34.6251301], [-97.2125432, 34.625225], [-97.2124566, 34.6252781], [-97.2123708, 34.6251831], [-97.2124574, 34.6251301]]]}, "properties": {"osm_id": 792220638, "building": "yes", "name": "", "height": null, "height_m": null, "levels": null, "tract_id": "40049681400", "tract_name": "6814", "tags": {"building": "yes"}}}, {"type": "Feature", "geometry": {"type": "Polygon", "coordinates": [[[-97.2124064, 34.6251456], [-97.2123152, 34.6251118], [-97.2123635, 34.6250235], [-97.2124547, 34.6250573], [-97.2124064, 34.6251456]]]}, "properties": {"osm_id": 792220639, "building": "yes", "name": "", "height": null, "height_m": null, "levels": null, "tract_id": "40049681400", "tract_name": "6814", "tags": {"building": "yes"}}}, {"type": "Feature", "geometry": {"type": "Polygon", "coordinates": [[[-97.2125539, 34.6250573], [-97.2124547, 34.6250573], [-97.2124547, 34.6249756], [-97.2125539, 34.6249756], [-97.2125539, 34.6250573]]]}, "properties": {"osm_id": 792220640, "building": "yes", "name": "", "height": null, "height_m": null, "levels": null, "tract_id": "40049681400", "tract_name": "6814", "tags": {"building": "yes"}}}, {"type": "Feature", "geometry": {"type": "Polygon", "coordinates": [[[-97.2125405, 34.6248035], [-97.212388, 34.6249472], [-97.2121975, 34.6248104], [-97.2123501, 34.6246666], [-97.2125405, 34.6248035]]]}, "properties": {"osm_id": 792220641, "building": "yes", "name": "", "height": null, "height_m": null, "levels": null, "tract_id": "40049681400", "tract_name": "6814", "tags": {"building": "yes"}}}, {"type": "Feature", "geometry": {"type": "Polygon", "coordinates": [[[-97.2117117, 34.6249], [-97.2116004, 34.6249], [-97.2116004, 34.6248211], [-97.2117117, 34.6248211], [-97.2117117, 34.6249]]]}, "properties": {"osm_id": 792220642, "building": "yes", "name": "", "height": null, "height_m": null, "levels": null, "tract_id": "40049681400", "tract_name": "6814", "tags": {"building": "yes"}}}, {"type": "Feature", "geometry": {"type": "Polygon", "coordinates": [[[-97.2118444, 34.6249], [-97.2117358, 34.6249], [-97.2117358, 34.624815], [-97.2118444, 34.624815], [-97.2118444, 34.6249]]]}, "properties": {"osm_id": 792220643, "building": "yes", "name": "", "height": null, "height_m": null, "levels": null, "tract_id": "40049681400", "tract_name": "6814", "tags": {"building": "yes"}}}, {"type": "Feature", "geometry": {"type": "Polygon", "coordinates": [[[-97.2119786, 34.6249006], [-97.2118579, 34.6249006], [-97.2118579, 34.6248156], [-97.2119786, 34.6248156], [-97.2119786, 34.6249006]]]}, "properties": {"osm_id": 792220644, "building": "yes", "name": "", "height": null, "height_m": null, "levels": null, "tract_id": "40049681400", "tract_name": "6814", "tags": {"building": "yes"}}}, {"type": "Feature", "geometry": {"type": "Polygon", "coordinates": [[[-97.2102767, 34.6255142], [-97.2101882, 34.6255142], [-97.2101882, 34.6254303], [-97.2102767, 34.6254303], [-97.2102767, 34.6255142]]]}, "properties": {"osm_id": 792220645, "building": "yes", "name": "", "height": null, "height_m": null, "levels": null, "tract_id": "40049681400", "tract_name": "6814", "tags": {"building": "yes"}}}, {"type": "Feature", "geometry": {"type": "Polygon", "coordinates": [[[-97.2102056, 34.6260295], [-97.2100927, 34.6260879], [-97.2100565, 34.6260404], [-97.2101694, 34.6259821], [-97.2102056, 34.6260295]]]}, "properties": {"osm_id": 792220646, "building": "yes", "name": "", "height": null, "height_m": null, "levels": null, "tract_id": "40049681400", "tract_name": "6814", "tags": {"building": "yes"}}}, {"type": "Feature", "geometry": {"type": "Polygon", "coordinates": [[[-97.2096905, 34.6259913], [-97.2096767, 34.6259555], [-97.2095561, 34.6259869], [-97.2095328, 34.6259263], [-97.2096535, 34.625895], [-97.209743, 34.6258717], [-97.2098073, 34.6260395], [-97.2097179, 34.6260627], [-97.2096176, 34.6260888], [-97.2095902, 34.6260174], [-97.2096905, 34.6259913]]]}, "properties": {"osm_id": 792220647, "building": "yes", "name": "", "height": null, "height_m": null, "levels": null, "tract_id": "40049681400", "tract_name": "6814", "tags": {"building": "yes"}}}, {"type": "Feature", "geometry": {"type": "Polygon", "coordinates": [[[-97.2113227, 34.6255648], [-97.2113186, 34.6256479], [-97.2112497, 34.6256456], [-97.2112537, 34.6255626], [-97.2112557, 34.6255208], [-97.2112564, 34.6255074], [-97.2114623, 34.6255142], [-97.2114596, 34.6255693], [-97.2113227, 34.6255648]]]}, "properties": {"osm_id": 792220649, "building": "yes", "name": "", "height": null, "height_m": null, "levels": null, "tract_id": "40049681400", "tract_name": "6814", "tags": {"building": "yes"}}}, {"type": "Feature", "geometry": {"type": "Polygon", "coordinates": [[[-97.211422, 34.6253243], [-97.2113331, 34.6253662], [-97.2112794, 34.6252889], [-97.2113684, 34.6252471], [-97.211422, 34.6253243]]]}, "properties": {"osm_id": 792220650, "building": "yes", "name": "", "height": null, "height_m": null, "levels": null, "tract_id": "40049681400", "tract_name": "6814", "tags": {"building": "yes"}}}, {"type": "Feature", "geometry": {"type": "Polygon", "coordinates": [[[-97.2112557, 34.6255208], [-97.2111055, 34.6255208], [-97.2111055, 34.6253552], [-97.2112557, 34.6253552], [-97.2112557, 34.6255208]]]}, "properties": {"osm_id": 792220651, "building": "yes", "name": "", "height": null, "height_m": null, "levels": null, "tract_id": "40049681400", "tract_name": "6814", "tags": {"building": "yes"}}}, {"type": "Feature", "geometry": {"type": "Polygon", "coordinates": [[[-97.2115669, 34.6250242], [-97.2112182, 34.6250242], [-97.2112182, 34.624969], [-97.2115669, 34.624969], [-97.2115669, 34.6250242]]]}, "properties": {"osm_id": 792220652, "building": "yes", "name": "", "height": null, "height_m": null, "levels": null, "tract_id": "40049681400", "tract_name": "6814", "tags": {"building": "yes"}}}, {"type": "Feature", "geometry": {"type": "Polygon", "coordinates": [[[-97.2119772, 34.6250198], [-97.2116205, 34.6250198], [-97.2116205, 34.624958], [-97.2119772, 34.624958], [-97.2119772, 34.6250198]]]}, "properties": {"osm_id": 792220653, "building": "yes", "name": "", "height": null, "height_m": null, "levels": null, "tract_id": "40049681400", "tract_name": "6814", "tags": {"building": "yes"}}}, {"type": "Feature", "geometry": {"type": "Polygon", "coordinates": [[[-97.2104967, 34.6248631], [-97.2104327, 34.6248634], [-97.2104323, 34.6248101], [-97.2104963, 34.6248097], [-97.2104967, 34.6248631]]]}, "properties": {"osm_id": 792220655, "building": "yes", "name": "", "height": null, "height_m": null, "levels": null, "tract_id": "40049681400", "tract_name": "6814", "tags": {"building": "yes"}}}, {"type": "Feature", "geometry": {"type": "Polygon", "coordinates": [[[-97.2106496, 34.625214], [-97.2105491, 34.6252145], [-97.2105476, 34.6250242], [-97.2106481, 34.6250237], [-97.2106496, 34.625214]]]}, "properties": {"osm_id": 792220656, "building": "yes", "name": "", "height": null, "height_m": null, "levels": null, "tract_id": "40049681400", "tract_name": "6814", "tags": {"building": "yes"}}}, {"type": "Feature", "geometry": {"type": "Polygon", "coordinates": [[[-97.210777, 34.6250915], [-97.2106951, 34.6250919], [-97.210669, 34.6250921], [-97.2106683, 34.6250056], [-97.2106945, 34.6250054], [-97.2106938, 34.6249176], [-97.2107756, 34.6249171], [-97.210777, 34.6250915]]]}, "properties": {"osm_id": 792220657, "building": "yes", "name": "", "height": null, "height_m": null, "levels": null, "tract_id": "40049681400", "tract_name": "6814", "tags": {"building": "yes"}}}, {"type": "Feature", "geometry": {"type": "Polygon", "coordinates": [[[-97.2109473, 34.6251798], [-97.2108056, 34.6251767], [-97.2108083, 34.6250928], [-97.21095, 34.6250959], [-97.2109473, 34.6251798]]]}, "properties": {"osm_id": 792220658, "building": "yes", "name": "", "height": null, "height_m": null, "levels": null, "tract_id": "40049681400", "tract_name": "6814", "tags": {"building": "yes"}}}, {"type": "Feature", "geometry": {"type": "Polygon", "coordinates": [[[-97.2109553, 34.6252901], [-97.2108029, 34.6252839], [-97.2108082, 34.6251946], [-97.2109607, 34.6252007], [-97.2109553, 34.6252901]]]}, "properties": {"osm_id": 792220659, "building": "yes", "name": "", "height": null, "height_m": null, "levels": null, "tract_id": "40049681400", "tract_name": "6814", "tags": {"building": "yes"}}}, {"type": "Feature", "geometry": {"type": "Polygon", "coordinates": [[[-97.2108856, 34.625651], [-97.2107489, 34.6256559], [-97.2107436, 34.6255544], [-97.2108802, 34.6255495], [-97.2108856, 34.625651]]]}, "properties": {"osm_id": 792220660, "building": "yes", "name": "", "height": null, "height_m": null, "levels": null, "tract_id": "40049681400", "tract_name": "6814", "tags": {"building": "yes"}}}, {"type": "Feature", "geometry": {"type": "Polygon", "coordinates": [[[-97.2105236, 34.625412], [-97.2105245, 34.6253369], [-97.2107439, 34.6253386], [-97.2107431, 34.6254136], [-97.2105949, 34.6254125], [-97.2105921, 34.6256551], [-97.2105209, 34.6256546], [-97.2105236, 34.625412]]]}, "properties": {"osm_id": 792220661, "building": "yes", "name": "", "height": null, "height_m": null, "levels": null, "tract_id": "40049681400", "tract_name": "6814", "tags": {"building": "yes"}}}, {"type": "Feature", "geometry": {"type": "Polygon", "coordinates": [[[-97.2421368, 34.7091209], [-97.2420625, 34.7091214], [-97.2420586, 34.7087643], [-97.242133, 34.7087637], [-97.2421368, 34.7091209]]]}, "properties": {"osm_id": 878463516, "building": "roof", "name": "", "height": null, "height_m": null, "levels": null, "tract_id": "40049681400", "tract_name": "6814", "tags": {"amenity": "fuel", "building": "roof", "hgv": "yes"}}}, {"type": "Feature", "geometry": {"type": "Polygon", "coordinates": [[[-97.2531658, 34.6996654], [-97.2527369, 34.6998713], [-97.2529006, 34.7001018], [-97.2513792, 34.700832], [-97.2525721, 34.7025119], [-97.2545206, 34.7015767], [-97.2533205, 34.6998818], [-97.2531658, 34.6996654]]]}, "properties": {"osm_id": 878463517, "building": "warehouse", "name": "", "height": null, "height_m": null, "levels": null, "tract_id": "40049681400", "tract_name": "6814", "tags": {"building": "warehouse"}}}, {"type": "Feature", "geometry": {"type": "Polygon", "coordinates": [[[-97.2533205, 34.6998818], [-97.256123, 34.6985278], [-97.2555777, 34.6977649], [-97.2527752, 34.6991189], [-97.2531658, 34.6996654], [-97.2533205, 34.6998818]]]}, "properties": {"osm_id": 915820677, "building": "warehouse", "name": "", "height": null, "height_m": null, "levels": null, "tract_id": "40049681400", "tract_name": "6814", "tags": {"building": "warehouse"}}}, {"type": "Feature", "geometry": {"type": "Polygon", "coordinates": [[[-97.2481773, 34.7050931], [-97.2481785, 34.7053559], [-97.2482519, 34.7053556], [-97.248252, 34.7053885], [-97.2485944, 34.7053873], [-97.2485942, 34.7053544], [-97.2486713, 34.7053542], [-97.24867, 34.7050918], [-97.2484661, 34.7050925], [-97.248466, 34.7050647], [-97.2483754, 34.705065], [-97.2483755, 34.7050924], [-97.2481773, 34.7050931]]]}, "properties": {"osm_id": 947034949, "building": "yes", "name": "Jet Stream Casino", "height": null, "height_m": null, "levels": null, "tract_id": "40049681400", "tract_name": "6814", "tags": {"addr:city": "Pauls Valley", "addr:housenumber": "2001", "addr:postcode": "73075", "addr:state": "OK", "addr:street": "Airline Road", "amenity": "casino", "building": "yes", "name": "Jet Stream Casino", "source": "microsoft/BuildingFootprints"}}}, {"type": "Feature", "geometry": {"type": "Polygon", "coordinates": [[[-97.2059692, 34.694688], [-97.2058556, 34.6946977], [-97.2058452, 34.6946157], [-97.2059588, 34.6946059], [-97.2059692, 34.694688]]]}, "properties": {"osm_id": 962360396, "building": "yes", "name": "", "height": null, "height_m": null, "levels": null, "tract_id": "40049681400", "tract_name": "6814", "tags": {"building": "yes"}}}, {"type": "Feature", "geometry": {"type": "Polygon", "coordinates": [[[-97.2061211, 34.694678], [-97.2060075, 34.6946878], [-97.2059971, 34.6946058], [-97.2061107, 34.694596], [-97.2061211, 34.694678]]]}, "properties": {"osm_id": 962360397, "building": "yes", "name": "", "height": null, "height_m": null, "levels": null, "tract_id": "40049681400", "tract_name": "6814", "tags": {"building": "yes"}}}, {"type": "Feature", "geometry": {"type": "Polygon", "coordinates": [[[-97.2063136, 34.6943149], [-97.2055144, 34.6943728], [-97.2054983, 34.6942222], [-97.2057074, 34.694207], [-97.2057117, 34.6942467], [-97.2058298, 34.6942381], [-97.2058062, 34.6940181], [-97.20556, 34.694036], [-97.2055636, 34.6940695], [-97.2053214, 34.6940871], [-97.2053045, 34.6939299], [-97.2056689, 34.6939034], [-97.2056473, 34.6937037], [-97.2052823, 34.6937303], [-97.2052686, 34.6936027], [-97.2063094, 34.6935268], [-97.2063226, 34.6936492], [-97.2058707, 34.6936821], [-97.2058918, 34.6938772], [-97.2063468, 34.6938439], [-97.2063646, 34.6940089], [-97.2061342, 34.6940257], [-97.2061302, 34.6939885], [-97.2059349, 34.6940027], [-97.2059601, 34.6942365], [-97.2060961, 34.6942266], [-97.2060914, 34.6941834], [-97.2062979, 34.6941684], [-97.2063136, 34.6943149]]]}, "properties": {"osm_id": 962360398, "building": "yes", "name": "", "height": null, "height_m": null, "levels": null, "tract_id": "40049681400", "tract_name": "6814", "tags": {"building": "yes"}}}, {"type": "Feature", "geometry": {"type": "Polygon", "coordinates": [[[-97.2062219, 34.6932411], [-97.2054065, 34.6932991], [-97.2054182, 34.6934101], [-97.2062336, 34.6933519], [-97.2062219, 34.6932411]]]}, "properties": {"osm_id": 962360399, "building": "yes", "name": "", "height": null, "height_m": null, "levels": null, "tract_id": "40049681400", "tract_name": "6814", "tags": {"building": "yes"}}}, {"type": "Feature", "geometry": {"type": "Polygon", "coordinates": [[[-97.2072, 34.6934669], [-97.2079774, 34.6934084], [-97.2079966, 34.6935802], [-97.2078283, 34.6935928], [-97.2078213, 34.6935297], [-97.2076698, 34.693541], [-97.2076832, 34.6936608], [-97.2076431, 34.6936638], [-97.2076507, 34.6937321], [-97.2075554, 34.6937393], [-97.2075349, 34.693555], [-97.2073861, 34.6935661], [-97.2073925, 34.6936237], [-97.2072189, 34.6936368], [-97.2072, 34.6934669]]]}, "properties": {"osm_id": 962360400, "building": "yes", "name": "", "height": null, "height_m": null, "levels": null, "tract_id": "40049681400", "tract_name": "6814", "tags": {"building": "yes"}}}, {"type": "Feature", "geometry": {"type": "Polygon", "coordinates": [[[-97.2084904, 34.6933722], [-97.2092678, 34.6933137], [-97.2092869, 34.6934855], [-97.2091186, 34.6934982], [-97.2091116, 34.693435], [-97.2089602, 34.6934464], [-97.2089735, 34.6935661], [-97.2089334, 34.6935692], [-97.208941, 34.6936375], [-97.2088457, 34.6936446], [-97.2088253, 34.6934603], [-97.2086764, 34.6934715], [-97.2086828, 34.6935291], [-97.2085093, 34.6935421], [-97.2084904, 34.6933722]]]}, "properties": {"osm_id": 962360401, "building": "yes", "name": "", "height": null, "height_m": null, "levels": null, "tract_id": "40049681400", "tract_name": "6814", "tags": {"building": "yes"}}}, {"type": "Feature", "geometry": {"type": "Polygon", "coordinates": [[[-97.2066087, 34.6930759], [-97.2065391, 34.6925778], [-97.2063196, 34.6925985], [-97.2063348, 34.6927068], [-97.2060208, 34.6927365], [-97.206048, 34.6929306], [-97.2063819, 34.6928989], [-97.2063946, 34.6929893], [-97.2063198, 34.6929964], [-97.2063329, 34.6930904], [-97.2064044, 34.6930836], [-97.206406, 34.6930951], [-97.2066087, 34.6930759]]]}, "properties": {"osm_id": 962360402, "building": "yes", "name": "", "height": null, "height_m": null, "levels": null, "tract_id": "40049681400", "tract_name": "6814", "tags": {"building": "yes"}}}, {"type": "Feature", "geometry": {"type": "Polygon", "coordinates": [[[-97.2058582, 34.6927524], [-97.2057742, 34.6927591], [-97.205767, 34.6926977], [-97.205851, 34.692691], [-97.2058582, 34.6927524]]]}, "properties": {"osm_id": 962360403, "building": "yes", "name": "", "height": null, "height_m": null, "levels": null, "tract_id": "40049681400", "tract_name": "6814", "tags": {"building": "yes"}}}, {"type": "Feature", "geometry": {"type": "Polygon", "coordinates": [[[-97.2041698, 34.6923313], [-97.2044417, 34.69231], [-97.2044313, 34.6922205], [-97.2041594, 34.6922417], [-97.2041698, 34.6923313]]]}, "properties": {"osm_id": 962360404, "building": "yes", "name": "", "height": null, "height_m": null, "levels": null, "tract_id": "40049681400", "tract_name": "6814", "tags": {"building": "yes"}}}, {"type": "Feature", "geometry": {"type": "Polygon", "coordinates": [[[-97.2057382, 34.6925165], [-97.2056944, 34.6921634], [-97.2060222, 34.6921359], [-97.2060286, 34.6921876], [-97.2061231, 34.6921796], [-97.206108, 34.6920574], [-97.205856, 34.6920785], [-97.2057828, 34.6914865], [-97.20627, 34.6914457], [-97.2063437, 34.6920409], [-97.206503, 34.6920276], [-97.2065279, 34.6922293], [-97.2065729, 34.6922255], [-97.2065942, 34.6923972], [-97.20649, 34.692406], [-97.2064945, 34.6924427], [-97.2062125, 34.6924663], [-97.2062073, 34.6924241], [-97.2060617, 34.6924364], [-97.2060682, 34.6924888], [-97.2057382, 34.6925165]]]}, "properties": {"osm_id": 962360418, "building": "yes", "name": "", "height": null, "height_m": null, "levels": null, "tract_id": "40049681400", "tract_name": "6814", "tags": {"building": "yes"}}}, {"type": "Feature", "geometry": {"type": "Polygon", "coordinates": [[[-97.2082071, 34.6926147], [-97.2082172, 34.6927216], [-97.2082863, 34.6927172], [-97.2082896, 34.6927515], [-97.2083583, 34.6927471], [-97.2083553, 34.6927163], [-97.2087689, 34.6926896], [-97.2087741, 34.692744], [-97.2088148, 34.6927414], [-97.2088198, 34.6927941], [-97.2089415, 34.6927862], [-97.2089449, 34.6928215], [-97.2090704, 34.6928134], [-97.2090661, 34.6927693], [-97.2091741, 34.6927622], [-97.2091693, 34.6927125], [-97.2092235, 34.692709], [-97.2092186, 34.6926573], [-97.2097959, 34.6926198], [-97.2097921, 34.6925805], [-97.2098888, 34.6925742], [-97.2098812, 34.6924941], [-97.2097348, 34.6925036], [-97.2097312, 34.6924662], [-97.2093068, 34.6924935], [-97.2093085, 34.6925115], [-97.2091583, 34.6925211], [-97.2091671, 34.692614], [-97.2088117, 34.6926367], [-97.2088022, 34.6925357], [-97.208335, 34.6925655], [-97.2083388, 34.6926062], [-97.2082071, 34.6926147]]]}, "properties": {"osm_id": 962360426, "building": "yes", "name": "", "height": null, "height_m": null, "levels": null, "tract_id": "40049681400", "tract_name": "6814", "tags": {"building": "yes"}}}, {"type": "Feature", "geometry": {"type": "Polygon", "coordinates": [[[-97.2099453, 34.6924909], [-97.2101691, 34.6924743], [-97.2101808, 34.6925803], [-97.2101197, 34.6925848], [-97.2101213, 34.6925996], [-97.2100313, 34.6926063], [-97.2100296, 34.6925908], [-97.2099569, 34.6925962], [-97.2099453, 34.6924909]]]}, "properties": {"osm_id": 962360427, "building": "yes", "name": "", "height": null, "height_m": null, "levels": null, "tract_id": "40049681400", "tract_name": "6814", "tags": {"building": "yes"}}}, {"type": "Feature", "geometry": {"type": "Polygon", "coordinates": [[[-97.20969, 34.6922413], [-97.2096637, 34.6920064], [-97.2096755, 34.6920055], [-97.209673, 34.6919833], [-97.209721, 34.6919797], [-97.2097133, 34.6919114], [-97.20966, 34.6919154], [-97.2096566, 34.6918849], [-97.2096402, 34.6918862], [-97.2096136, 34.6916478], [-97.2094388, 34.691661], [-97.2094654, 34.6918984], [-97.2089186, 34.6919398], [-97.2089324, 34.6920632], [-97.2092879, 34.6920363], [-97.2092803, 34.6919684], [-97.2093236, 34.6919651], [-97.209331, 34.6920312], [-97.2094815, 34.6920198], [-97.2095079, 34.6922551], [-97.20969, 34.6922413]]]}, "properties": {"osm_id": 962360434, "building": "yes", "name": "", "height": null, "height_m": null, "levels": null, "tract_id": "40049681400", "tract_name": "6814", "tags": {"building": "yes"}}}, {"type": "Feature", "geometry": {"type": "Polygon", "coordinates": [[[-97.210089, 34.6913527], [-97.2097402, 34.6913804], [-97.2097277, 34.6912746], [-97.2100766, 34.6912469], [-97.210089, 34.6913527]]]}, "properties": {"osm_id": 962360438, "building": "yes", "name": "", "height": null, "height_m": null, "levels": null, "tract_id": "40049681400", "tract_name": "6814", "tags": {"building": "yes"}}}, {"type": "Feature", "geometry": {"type": "Polygon", "coordinates": [[[-97.2088426, 34.6913626], [-97.209243, 34.6913334], [-97.2092527, 34.6914231], [-97.2094612, 34.6914079], [-97.2094597, 34.6913941], [-97.2095234, 34.6913895], [-97.2095069, 34.6912361], [-97.209314, 34.6912502], [-97.2093046, 34.691163], [-97.2091531, 34.691174], [-97.2091508, 34.6911533], [-97.2092408, 34.6911468], [-97.2092317, 34.6910629], [-97.2091389, 34.6910697], [-97.2091376, 34.6910574], [-97.2089904, 34.6910682], [-97.2090032, 34.6911857], [-97.208858, 34.6911963], [-97.2088678, 34.6912867], [-97.2088347, 34.6912891], [-97.2088426, 34.6913626]]]}, "properties": {"osm_id": 962360439, "building": "yes", "name": "", "height": null, "height_m": null, "levels": null, "tract_id": "40049681400", "tract_name": "6814", "tags": {"building": "yes"}}}, {"type": "Feature", "geometry": {"type": "Polygon", "coordinates": [[[-97.2074948, 34.6922416], [-97.2072704, 34.6922969], [-97.2072978, 34.6923721], [-97.2075222, 34.6923168], [-97.2074948, 34.6922416]]]}, "properties": {"osm_id": 962360441, "building": "yes", "name": "", "height": null, "height_m": null, "levels": null, "tract_id": "40049681400", "tract_name": "6814", "tags": {"building": "yes"}}}, {"type": "Feature", "geometry": {"type": "Polygon", "coordinates": [[[-97.2069103, 34.6924067], [-97.2071439, 34.6923902], [-97.2071411, 34.6923628], [-97.2071953, 34.692359], [-97.2071802, 34.6922138], [-97.2068923, 34.6922341], [-97.2069103, 34.6924067]]]}, "properties": {"osm_id": 962360442, "building": "yes", "name": "", "height": null, "height_m": null, "levels": null, "tract_id": "40049681400", "tract_name": "6814", "tags": {"building": "yes"}}}, {"type": "Feature", "geometry": {"type": "Polygon", "coordinates": [[[-97.2078371, 34.6921834], [-97.207834, 34.6921487], [-97.207811, 34.6921501], [-97.2078021, 34.6920504], [-97.2078236, 34.6920491], [-97.2078194, 34.6920018], [-97.2079232, 34.6919955], [-97.2079395, 34.6921772], [-97.2078371, 34.6921834]]]}, "properties": {"osm_id": 962360443, "building": "yes", "name": "", "height": null, "height_m": null, "levels": null, "tract_id": "40049681400", "tract_name": "6814", "tags": {"building": "yes"}}}, {"type": "Feature", "geometry": {"type": "Polygon", "coordinates": [[[-97.2069082, 34.6918359], [-97.2068778, 34.6915576], [-97.2072033, 34.6915336], [-97.207209, 34.6915852], [-97.2072942, 34.6915789], [-97.2073136, 34.691756], [-97.2072226, 34.6917627], [-97.207228, 34.6918124], [-97.2069082, 34.6918359]]]}, "properties": {"osm_id": 962360444, "building": "yes", "name": "", "height": null, "height_m": null, "levels": null, "tract_id": "40049681400", "tract_name": "6814", "tags": {"building": "yes"}}}, {"type": "Feature", "geometry": {"type": "Polygon", "coordinates": [[[-97.2080264, 34.6916319], [-97.2077736, 34.6916487], [-97.207762, 34.6915304], [-97.207825, 34.6915262], [-97.2077948, 34.6912191], [-97.20793, 34.6912101], [-97.2079593, 34.6915079], [-97.2080138, 34.6915043], [-97.2080264, 34.6916319]]]}, "properties": {"osm_id": 962360445, "building": "yes", "name": "", "height": null, "height_m": null, "levels": null, "tract_id": "40049681400", "tract_name": "6814", "tags": {"building": "yes"}}}, {"type": "Feature", "geometry": {"type": "Polygon", "coordinates": [[[-97.2078836, 34.6909992], [-97.2078381, 34.6906495], [-97.2080562, 34.6906303], [-97.2081016, 34.69098], [-97.2078836, 34.6909992]]]}, "properties": {"osm_id": 962360449, "building": "yes", "name": "", "height": null, "height_m": null, "levels": null, "tract_id": "40049681400", "tract_name": "6814", "tags": {"building": "yes"}}}, {"type": "Feature", "geometry": {"type": "Polygon", "coordinates": [[[-97.2069622, 34.6910018], [-97.2067442, 34.6910178], [-97.2067348, 34.6909307], [-97.2069528, 34.6909148], [-97.2069622, 34.6910018]]]}, "properties": {"osm_id": 962360453, "building": "yes", "name": "", "height": null, "height_m": null, "levels": null, "tract_id": "40049681400", "tract_name": "6814", "tags": {"building": "yes"}}}, {"type": "Feature", "geometry": {"type": "Polygon", "coordinates": [[[-97.2114929, 34.6910343], [-97.2112409, 34.6910497], [-97.2112449, 34.6910937], [-97.2109214, 34.6911133], [-97.2109105, 34.6909914], [-97.2112265, 34.6909722], [-97.2112221, 34.6909232], [-97.2114814, 34.6909074], [-97.2114929, 34.6910343]]]}, "properties": {"osm_id": 962360454, "building": "yes", "name": "", "height": null, "height_m": null, "levels": null, "tract_id": "40049681400", "tract_name": "6814", "tags": {"building": "yes"}}}, {"type": "Feature", "geometry": {"type": "Polygon", "coordinates": [[[-97.2098321, 34.6908307], [-97.2097948, 34.6903847], [-97.2095745, 34.6903972], [-97.2095841, 34.6905124], [-97.2096124, 34.6905108], [-97.2096449, 34.6908988], [-97.2098054, 34.6908897], [-97.2098006, 34.6908324], [-97.2098321, 34.6908307]]]}, "properties": {"osm_id": 962360455, "building": "yes", "name": "", "height": null, "height_m": null, "levels": null, "tract_id": "40049681400", "tract_name": "6814", "tags": {"building": "yes"}}}, {"type": "Feature", "geometry": {"type": "Polygon", "coordinates": [[[-97.2110034, 34.6923942], [-97.2109974, 34.6923275], [-97.2109219, 34.6923321], [-97.2109202, 34.6923136], [-97.2108067, 34.6923205], [-97.21081, 34.6923568], [-97.210787, 34.6923582], [-97.2107913, 34.6924064], [-97.2108724, 34.6924015], [-97.210875, 34.6924313], [-97.2109585, 34.6924262], [-97.2109559, 34.6923971], [-97.2110034, 34.6923942]]]}, "properties": {"osm_id": 962360472, "building": "yes", "name": "", "height": null, "height_m": null, "levels": null, "tract_id": "40049681400", "tract_name": "6814", "tags": {"building": "yes"}}}, {"type": "Feature", "geometry": {"type": "Polygon", "coordinates": [[[-97.2114701, 34.6923749], [-97.2113748, 34.6923796], [-97.2113772, 34.6924123], [-97.2113142, 34.6924153], [-97.2113119, 34.6923836], [-97.2112362, 34.6923872], [-97.2112321, 34.6923297], [-97.211267, 34.692328], [-97.2112635, 34.6922794], [-97.2113595, 34.6922747], [-97.2113626, 34.6923174], [-97.2114293, 34.6923142], [-97.2114656, 34.6923124], [-97.2114701, 34.6923749]]]}, "properties": {"osm_id": 962360473, "building": "yes", "name": "", "height": null, "height_m": null, "levels": null, "tract_id": "40049681400", "tract_name": "6814", "tags": {"building": "yes"}}}, {"type": "Feature", "geometry": {"type": "Polygon", "coordinates": [[[-97.2109732, 34.6925181], [-97.2108854, 34.6925225], [-97.2108811, 34.6924646], [-97.2109689, 34.6924602], [-97.2109716, 34.6924959], [-97.2109732, 34.6925181]]]}, "properties": {"osm_id": 962360474, "building": "yes", "name": "", "height": null, "height_m": null, "levels": null, "tract_id": "40049681400", "tract_name": "6814", "tags": {"building": "yes"}}}, {"type": "Feature", "geometry": {"type": "Polygon", "coordinates": [[[-97.2598654, 34.7373586], [-97.2598619, 34.7375018], [-97.2596199, 34.7374978], [-97.2596197, 34.7375078], [-97.2592388, 34.7375015], [-97.2592391, 34.7374915], [-97.2590639, 34.7374886], [-97.2590674, 34.7373453], [-97.2591185, 34.7373462], [-97.259119, 34.7373234], [-97.2597949, 34.7373346], [-97.2597944, 34.7373574], [-97.2598654, 34.7373586]]]}, "properties": {"osm_id": 967605838, "building": "yes", "name": "Hampton Inn & Suites", "height": null, "height_m": null, "levels": null, "tract_id": "40049681400", "tract_name": "6814", "tags": {"addr:city": "Pauls Valley", "addr:housenumber": "105", "addr:postcode": "73075", "addr:state": "OK", "addr:street": "South Humphrey Road", "branch": "Pauls Valley", "brand": "Hampton Inn & Suites", "brand:wikidata": "Q5646230", "building": "yes", "name": "Hampton Inn & Suites", "official_name": "Hampton Inn & Suites by Hilton", "phone": "+1 405-238-7700", "ref": "OKCPVHX", "tourism": "hotel", "website": "https://hamptoninn3.hilton.com/en/hotels/oklahoma/hampton-inn-and-suites-pauls-valley-OKCPVHX/index.html"}}}, {"type": "Feature", "geometry": {"type": "Polygon", "coordinates": [[[-97.1717415, 34.5091871], [-97.1719102, 34.5088166], [-97.1720689, 34.5088657], [-97.172124, 34.5087448], [-97.1723331, 34.5088094], [-97.1722807, 34.5089247], [-97.1726485, 34.5090382], [-97.1727026, 34.5089192], [-97.1728842, 34.5089752], [-97.1728258, 34.5091039], [-97.1733326, 34.50926], [-97.173283, 34.5093694], [-97.1728103, 34.5092239], [-97.1727463, 34.5093651], [-97.1728291, 34.5093905], [-97.1727468, 34.5095722], [-97.1725705, 34.5095179], [-97.1726422, 34.5093597], [-97.1725889, 34.5093433], [-97.1726171, 34.5092813], [-97.1725289, 34.5092541], [-97.1725119, 34.5092916], [-97.1724463, 34.5092713], [-97.1724576, 34.5092465], [-97.1723486, 34.5092129], [-97.1723126, 34.509292], [-97.1721716, 34.5092484], [-97.172143, 34.5093113], [-97.1717415, 34.5091871]]]}, "properties": {"osm_id": 1010186171, "building": "yes", "name": "Treasure Valley Casino & Hotel", "height": null, "height_m": null, "levels": null, "tract_id": "40049681400", "tract_name": "6814", "tags": {"addr:city": "Davis", "addr:housenumber": "12252", "addr:postcode": "73030", "addr:state": "OK", "addr:street": "Ruppe Road", "building": "yes", "name": "Treasure Valley Casino & Hotel", "tourism": "hotel"}}}, {"type": "Feature", "geometry": {"type": "Polygon", "coordinates": [[[-97.1767468, 34.5126435], [-97.176536, 34.512655], [-97.1765333, 34.5126222], [-97.176507, 34.5126237], [-97.1765, 34.5125381], [-97.1765296, 34.5125365], [-97.1765276, 34.5125115], [-97.1764785, 34.5125142], [-97.1764701, 34.512413], [-97.1765235, 34.51241], [-97.1765171, 34.5123329], [-97.1767243, 34.5123211], [-97.1767307, 34.512398], [-97.1767487, 34.512397], [-97.1767575, 34.5125018], [-97.1767359, 34.5125082], [-97.1767468, 34.5126435]]]}, "properties": {"osm_id": 1026592232, "building": "chapel", "name": "Arbuckle Wedding Chapel", "height": null, "height_m": null, "levels": null, "tract_id": "40049681400", "tract_name": "6814", "tags": {"addr:city": "Davis", "addr:housenumber": "33429", "addr:postcode": "73030", "addr:state": "OK", "addr:street": "N3270 Road", "building": "chapel", "name": "Arbuckle Wedding Chapel"}}}, {"type": "Feature", "geometry": {"type": "Polygon", "coordinates": [[[-97.2789321, 34.6935438], [-97.2787577, 34.6935416], [-97.2787564, 34.6935813], [-97.2786746, 34.6935824], [-97.2786692, 34.6934655], [-97.2787108, 34.6934677], [-97.2787095, 34.6934258], [-97.2789375, 34.693417], [-97.2789321, 34.6935438]]]}, "properties": {"osm_id": 1026609876, "building": "yes", "name": "The Farmhouse at Grassroots Farms", "height": null, "height_m": null, "levels": null, "tract_id": "40049681400", "tract_name": "6814", "tags": {"addr:city": "Pauls Valley`", "addr:housenumber": "32106", "addr:postcode": "73075", "addr:state": "OK", "addr:street": "Airline Road", "amenity": "events_venue", "building": "yes", "name": "The Farmhouse at Grassroots Farms", "website": "https://www.grassrootsvintagevenue.com/"}}}, {"type": "Feature", "geometry": {"type": "Polygon", "coordinates": [[[-97.177201, 34.5076438], [-97.1770332, 34.507644], [-97.1770328, 34.5074241], [-97.1772006, 34.5074239], [-97.177201, 34.5076438]]]}, "properties": {"osm_id": 1026616505, "building": "retail", "name": "Chickasaw Travel Stop", "height": null, "height_m": null, "levels": null, "tract_id": "40049681400", "tract_name": "6814", "tags": {"addr:city": "Davis", "addr:housenumber": "33967", "addr:postcode": "73030", "addr:state": "OK", "addr:street": "County Road", "amenity": "casino", "building": "retail", "name": "Chickasaw Travel Stop"}}}, {"type": "Feature", "geometry": {"type": "Polygon", "coordinates": [[[-97.2211906, 34.7182303], [-97.2210894, 34.718191], [-97.2211714, 34.7180486], [-97.2212725, 34.7180879], [-97.2211906, 34.7182303]]]}, "properties": {"osm_id": 1091540323, "building": "church", "name": "Saint Timothy Church", "height": null, "height_m": null, "levels": null, "tract_id": "40049681400", "tract_name": "6814", "tags": {"amenity": "place_of_worship", "building": "church", "ele": "300", "gnis:feature_id": "1097643", "name": "Saint Timothy Church", "religion": "christian"}}}, {"type": "Feature", "geometry": {"type": "Polygon", "coordinates": [[[-97.2213333, 34.7171364], [-97.2213351, 34.7170112], [-97.2211723, 34.7170095], [-97.2211743, 34.7168729], [-97.2210475, 34.7168716], [-97.2210455, 34.7170065], [-97.2208962, 34.717005], [-97.2208944, 34.7171322], [-97.2213333, 34.7171364]]]}, "properties": {"osm_id": 1091540324, "building": "church", "name": "", "height": null, "height_m": null, "levels": null, "tract_id": "40049681400", "tract_name": "6814", "tags": {"amenity": "place_of_worship", "building": "church", "religion": "christian"}}}, {"type": "Feature", "geometry": {"type": "Polygon", "coordinates": [[[-97.2101143, 34.7303451], [-97.2101122, 34.7302453], [-97.2098734, 34.7302487], [-97.2098749, 34.7303193], [-97.209935, 34.7303185], [-97.2099356, 34.7303477], [-97.2101143, 34.7303451]]]}, "properties": {"osm_id": 1149555845, "building": "yes", "name": "", "height": null, "height_m": null, "levels": null, "tract_id": "40049681400", "tract_name": "6814", "tags": {"amenity": "place_of_worship", "building": "yes", "denomination": "jehovahs_witness", "religion": "christian"}}}, {"type": "Feature", "geometry": {"type": "Polygon", "coordinates": [[[-97.1984212, 34.5103157], [-97.1981405, 34.5103063], [-97.1981452, 34.5102115], [-97.1984259, 34.5102209], [-97.1984212, 34.5103157]]]}, "properties": {"osm_id": 1164532294, "building": "yes", "name": "", "height": null, "height_m": null, "levels": null, "tract_id": "40049681400", "tract_name": "6814", "tags": {"building": "yes"}}}, {"type": "Feature", "geometry": {"type": "Polygon", "coordinates": [[[-97.2091655, 34.519836], [-97.2088165, 34.5198485], [-97.2088041, 34.5196133], [-97.2091531, 34.5196008], [-97.2091655, 34.519836]]]}, "properties": {"osm_id": 1164532305, "building": "yes", "name": "", "height": null, "height_m": null, "levels": null, "tract_id": "40049681400", "tract_name": "6814", "tags": {"building": "yes"}}}, {"type": "Feature", "geometry": {"type": "Polygon", "coordinates": [[[-97.2445989, 34.708893], [-97.2447663, 34.7086954], [-97.2446807, 34.7086409], [-97.2446877, 34.7086285], [-97.244665, 34.7086154], [-97.2446712, 34.7086024], [-97.2446015, 34.7085593], [-97.2445933, 34.7085724], [-97.2445685, 34.7085565], [-97.2445574, 34.7085746], [-97.2444762, 34.7085252], [-97.2443108, 34.7087361], [-97.2445989, 34.708893]]]}, "properties": {"osm_id": 1232813513, "building": "yes", "name": "Chickasaw Nation WIC Clinic", "height": null, "height_m": null, "levels": null, "tract_id": "40049681400", "tract_name": "6814", "tags": {"building": "yes", "name": "Chickasaw Nation WIC Clinic", "office": "government"}}}, {"type": "Feature", "geometry": {"type": "Polygon", "coordinates": [[[-97.1708612, 34.5073893], [-97.1707694, 34.5073698], [-97.170725, 34.5073319], [-97.1707139, 34.5072862], [-97.1707298, 34.5072314], [-97.1707757, 34.5071923], [-97.170858, 34.5071727], [-97.170904, 34.5071766], [-97.1709626, 34.5072144], [-97.1709816, 34.5072627], [-97.1709879, 34.5073006], [-97.1709673, 34.5073541], [-97.1709293, 34.5073841], [-97.1708612, 34.5073893]]]}, "properties": {"osm_id": 1232813520, "building": "yes", "name": "Chickasaw Travel Stop", "height": null, "height_m": null, "levels": null, "tract_id": "40049681400", "tract_name": "6814", "tags": {"building": "yes", "name": "Chickasaw Travel Stop", "shop": "convenience"}}}, {"type": "Feature", "geometry": {"type": "Polygon", "coordinates": [[[-97.1679335, 34.5073828], [-97.1677855, 34.5073901], [-97.1677833, 34.5071881], [-97.1679357, 34.5071881], [-97.1679335, 34.5073828]]]}, "properties": {"osm_id": 1232813523, "building": "yes", "name": "Washita Medical Center", "height": null, "height_m": null, "levels": null, "tract_id": "40049681400", "tract_name": "6814", "tags": {"amenity": "clinic", "building": "yes", "healthcare": "clinic", "name": "Washita Medical Center"}}}, {"type": "Feature", "geometry": {"type": "Polygon", "coordinates": [[[-97.1770332, 34.507644], [-97.1768036, 34.5076443], [-97.1768032, 34.5074244], [-97.1770328, 34.5074241], [-97.1770332, 34.507644]]]}, "properties": {"osm_id": 1254386078, "building": "retail", "name": "Chickasaw Travel Stop", "height": null, "height_m": null, "levels": null, "tract_id": "40049681400", "tract_name": "6814", "tags": {"addr:city": "Davis", "addr:housenumber": "33967", "addr:postcode": "73030", "addr:state": "OK", "addr:street": "County Road", "building": "retail", "name": "Chickasaw Travel Stop", "shop": "convenience"}}}, {"type": "Feature", "geometry": {"type": "Polygon", "coordinates": [[[-97.1771367, 34.507107], [-97.1771371, 34.5071987], [-97.1767388, 34.5071998], [-97.1767384, 34.5071081], [-97.1771367, 34.507107]]]}, "properties": {"osm_id": 1254386079, "building": "roof", "name": "", "height": null, "height_m": null, "levels": null, "tract_id": "40049681400", "tract_name": "6814", "tags": {"building": "roof"}}}, {"type": "Feature", "geometry": {"type": "Polygon", "coordinates": [[[-97.2145838, 34.6248208], [-97.2146508, 34.6248216], [-97.214652, 34.6247478], [-97.214585, 34.624747], [-97.2145838, 34.6248208]]]}, "properties": {"osm_id": 1272543307, "building": "yes", "name": "", "height": null, "height_m": null, "levels": null, "tract_id": "40049681400", "tract_name": "6814", "tags": {"building": "yes"}}}, {"type": "Feature", "geometry": {"type": "Polygon", "coordinates": [[[-97.2140956, 34.624551], [-97.21388, 34.6245502], [-97.2138787, 34.6247974], [-97.2138304, 34.6247972], [-97.2138314, 34.6246096], [-97.2137161, 34.6246092], [-97.2137162, 34.6245771], [-97.2136636, 34.6245769], [-97.2136634, 34.624609], [-97.2136115, 34.6246088], [-97.2136104, 34.6248008], [-97.2135594, 34.6248006], [-97.213559, 34.6248801], [-97.213611, 34.6248803], [-97.21361, 34.6250745], [-97.2138289, 34.6250753], [-97.2138299, 34.6248767], [-97.2138782, 34.6248769], [-97.2138768, 34.6251351], [-97.2140924, 34.6251359], [-97.2140956, 34.624551]]]}, "properties": {"osm_id": 1272543308, "building": "yes", "name": "", "height": null, "height_m": null, "levels": null, "tract_id": "40049681400", "tract_name": "6814", "tags": {"building": "yes"}}}, {"type": "Feature", "geometry": {"type": "Polygon", "coordinates": [[[-97.2144181, 34.6248189], [-97.2144851, 34.6248189], [-97.2144851, 34.6247461], [-97.2144181, 34.6247461], [-97.2144181, 34.6248189]]]}, "properties": {"osm_id": 1272543309, "building": "yes", "name": "", "height": null, "height_m": null, "levels": null, "tract_id": "40049681400", "tract_name": "6814", "tags": {"building": "yes"}}}, {"type": "Feature", "geometry": {"type": "Polygon", "coordinates": [[[-97.2132081, 34.6248002], [-97.2133046, 34.6247985], [-97.2133012, 34.6246651], [-97.2132046, 34.6246668], [-97.2132081, 34.6248002]]]}, "properties": {"osm_id": 1272543310, "building": "yes", "name": "", "height": null, "height_m": null, "levels": null, "tract_id": "40049681400", "tract_name": "6814", "tags": {"building": "yes"}}}, {"type": "Feature", "geometry": {"type": "Polygon", "coordinates": [[[-97.2131235, 34.6247949], [-97.2131251, 34.6246824], [-97.2128838, 34.62468], [-97.2128821, 34.6247948], [-97.2129814, 34.6247958], [-97.2129808, 34.6248366], [-97.2130478, 34.6248372], [-97.2130484, 34.6247942], [-97.2131235, 34.6247949]]]}, "properties": {"osm_id": 1272543311, "building": "yes", "name": "", "height": null, "height_m": null, "levels": null, "tract_id": "40049681400", "tract_name": "6814", "tags": {"building": "yes"}}}, {"type": "Feature", "geometry": {"type": "Polygon", "coordinates": [[[-97.2147513, 34.6247476], [-97.2147501, 34.6248227], [-97.2148171, 34.6248234], [-97.2148183, 34.6247484], [-97.2147513, 34.6247476]]]}, "properties": {"osm_id": 1272543312, "building": "yes", "name": "", "height": null, "height_m": null, "levels": null, "tract_id": "40049681400", "tract_name": "6814", "tags": {"building": "yes"}}}, {"type": "Feature", "geometry": {"type": "Polygon", "coordinates": [[[-97.2146215, 34.6242584], [-97.2146196, 34.624382], [-97.2147375, 34.6243833], [-97.2147395, 34.6242597], [-97.2146215, 34.6242584]]]}, "properties": {"osm_id": 1272543313, "building": "yes", "name": "", "height": null, "height_m": null, "levels": null, "tract_id": "40049681400", "tract_name": "6814", "tags": {"building": "yes"}}}, {"type": "Feature", "geometry": {"type": "Polygon", "coordinates": [[[-97.2131507, 34.6250689], [-97.2133046, 34.6250704], [-97.2133064, 34.6249468], [-97.2132635, 34.6249464], [-97.2132655, 34.6248107], [-97.2131545, 34.6248096], [-97.2131507, 34.6250689]]]}, "properties": {"osm_id": 1272543314, "building": "yes", "name": "", "height": null, "height_m": null, "levels": null, "tract_id": "40049681400", "tract_name": "6814", "tags": {"building": "yes"}}}, {"type": "Feature", "geometry": {"type": "Polygon", "coordinates": [[[-97.2140761, 34.624252], [-97.2138606, 34.6242487], [-97.2138565, 34.6244319], [-97.214072, 34.6244351], [-97.2140761, 34.624252]]]}, "properties": {"osm_id": 1272543315, "building": "yes", "name": "", "height": null, "height_m": null, "levels": null, "tract_id": "40049681400", "tract_name": "6814", "tags": {"building": "yes"}}}, {"type": "Feature", "geometry": {"type": "Polygon", "coordinates": [[[-97.2145236, 34.6240475], [-97.214242, 34.624045], [-97.2142377, 34.6243804], [-97.2145193, 34.6243829], [-97.2145236, 34.6240475]]]}, "properties": {"osm_id": 1272543316, "building": "yes", "name": "", "height": null, "height_m": null, "levels": null, "tract_id": "40049681400", "tract_name": "6814", "tags": {"building": "yes"}}}, {"type": "Feature", "geometry": {"type": "Polygon", "coordinates": [[[-97.2142512, 34.6248174], [-97.2143182, 34.6248178], [-97.2143188, 34.624745], [-97.2142518, 34.6247446], [-97.2142512, 34.6248174]]]}, "properties": {"osm_id": 1272543317, "building": "yes", "name": "", "height": null, "height_m": null, "levels": null, "tract_id": "40049681400", "tract_name": "6814", "tags": {"building": "yes"}}}, {"type": "Feature", "geometry": {"type": "Polygon", "coordinates": [[[-97.2541027, 34.7387001], [-97.2541048, 34.7385627], [-97.2541261, 34.738563], [-97.2541275, 34.7384721], [-97.254094, 34.7384718], [-97.2540948, 34.7384232], [-97.2538195, 34.7384204], [-97.2538182, 34.7385076], [-97.253847, 34.7385079], [-97.2538449, 34.738643], [-97.2540259, 34.7386449], [-97.2540251, 34.7386993], [-97.2541027, 34.7387001]]]}, "properties": {"osm_id": 1303533990, "building": "yes", "name": "DaVita Dialysis", "height": null, "height_m": null, "levels": null, "tract_id": "40049681400", "tract_name": "6814", "tags": {"addr:city": "Pauls Valley", "addr:housenumber": "2410", "addr:postcode": "73075", "addr:state": "OK", "addr:street": "West Grant Avenue", "amenity": "clinic", "building": "yes", "healthcare": "dialysis", "healthcare:speciality": "nephrology", "name": "DaVita Dialysis", "operator": "DaVita Dialysis", "operator:wikidata": "Q5207184"}}}, {"type": "Feature", "geometry": {"type": "Polygon", "coordinates": [[[-97.2415245, 34.7096277], [-97.2417303, 34.7096293], [-97.2417283, 34.7097997], [-97.2415225, 34.7097981], [-97.2415245, 34.7096277]]]}, "properties": {"osm_id": 1352060769, "building": "yes", "name": "", "height": null, "height_m": null, "levels": null, "tract_id": "40049681400", "tract_name": "6814", "tags": {"building": "yes"}}}, {"type": "Feature", "geometry": {"type": "Polygon", "coordinates": [[[-97.2411502, 34.7088783], [-97.241147, 34.7091577], [-97.2405433, 34.709153], [-97.2405465, 34.7088735], [-97.2411502, 34.7088783]]]}, "properties": {"osm_id": 1352060770, "building": "yes", "name": "", "height": null, "height_m": null, "levels": null, "tract_id": "40049681400", "tract_name": "6814", "tags": {"building": "yes"}}}, {"type": "Feature", "geometry": {"type": "Polygon", "coordinates": [[[-97.2133015, 34.7265195], [-97.2132847, 34.7265401], [-97.2132771, 34.7265641], [-97.2132794, 34.7265888], [-97.2132914, 34.7266115], [-97.2133119, 34.7266297], [-97.2133384, 34.7266414], [-97.2133682, 34.7266453], [-97.2133974, 34.7266411], [-97.2134234, 34.7266294], [-97.2134434, 34.7266115], [-97.2134553, 34.7265892], [-97.2134579, 34.7265649], [-97.2134508, 34.7265413], [-97.2134348, 34.7265208], [-97.2134117, 34.7265056], [-97.2133838, 34.7264974], [-97.2133542, 34.726497], [-97.2133255, 34.7265046], [-97.2133015, 34.7265195]]]}, "properties": {"osm_id": 1352116949, "building": "storage_tank", "name": "", "height": null, "height_m": null, "levels": null, "tract_id": "40049681400", "tract_name": "6814", "tags": {"building": "storage_tank", "content": "water", "man_made": "storage_tank"}}}]}