{"type": "FeatureCollection", "features": [{"type": "Feature", "geometry": {"type": "Polygon", "coordinates": [[[-97.6550958, 35.5623195], [-97.654959, 35.5625244], [-97.6550609, 35.5625695], [-97.6550407, 35.5625998], [-97.6552579, 35.5626957], [-97.6551683, 35.5628298], [-97.6549522, 35.5627343], [-97.6548061, 35.5629531], [-97.6550367, 35.5630549], [-97.6549332, 35.56321], [-97.6547062, 35.5631097], [-97.6546628, 35.5631747], [-97.654182, 35.5629623], [-97.6541008, 35.5630839], [-97.6540986, 35.5630829], [-97.6540797, 35.5631111], [-97.6539926, 35.5630726], [-97.6539879, 35.5630798], [-97.6539356, 35.5630566], [-97.6538819, 35.563033], [-97.6539055, 35.5629976], [-97.6533254, 35.5627413], [-97.6533011, 35.5627778], [-97.6532488, 35.5627546], [-97.6531936, 35.5627303], [-97.6531981, 35.5627234], [-97.6530568, 35.562661], [-97.6530766, 35.5626314], [-97.6530571, 35.5626227], [-97.6531342, 35.5625072], [-97.6529325, 35.5624181], [-97.6534761, 35.5616039], [-97.6550958, 35.5623195]]]}, "properties": {"osm_id": 182877032, "building": "yes", "name": "Walmart Supercenter", "height": null, "height_m": null, "levels": null, "tract_id": "40109108521", "tract_name": "1085.21", "tags": {"addr:city": "Oklahoma City", "addr:country": "US", "addr:housenumber": "7800", "addr:postcode": "73132", "addr:state": "OK", "addr:street": "Northwest Expressway", "brand": "Walmart", "brand:wikidata": "Q483551", "building": "yes", "name": "Walmart Supercenter", "opening_hours": "Mo-Su 06:00-23:00", "operator": "Walmart", "operator:wikidata": "Q483551", "payment:app:walmart": "yes", "payment:apple_pay": "no", "payment:google_pay": "no", "payment:samsung_pay": "no", "phone": "+1 405-773-2625", "ref": "622", "ref:walmart": "622", "sensory_friendly:accommodation": "dimmed_light;static_screens;no_pa", "sensory_friendly:conditional": "yes @ 08:00-10:00", "shop": "supermarket", "website": "https://www.walmart.com/store/622-oklahoma-city-ok"}}}, {"type": "Feature", "geometry": {"type": "Polygon", "coordinates": [[[-97.6547537, 35.5647045], [-97.6545333, 35.5646088], [-97.6542744, 35.5644964], [-97.6542315, 35.5645619], [-97.6544885, 35.5646735], [-97.6547107, 35.56477], [-97.6547537, 35.5647045]]]}, "properties": {"osm_id": 229567439, "building": "roof", "name": "", "height": null, "height_m": null, "levels": null, "tract_id": "40109108521", "tract_name": "1085.21", "tags": {"amenity": "fuel", "building": "roof", "source": "Bing"}}}, {"type": "Feature", "geometry": {"type": "Polygon", "coordinates": [[[-97.6555023, 35.5649972], [-97.6555607, 35.5649833], [-97.6556891, 35.5647903], [-97.6556738, 35.5647836], [-97.6557147, 35.564722], [-97.6554193, 35.564593], [-97.6553343, 35.5645539], [-97.6553136, 35.5645453], [-97.6551333, 35.5648162], [-97.6552772, 35.5648796], [-97.6552677, 35.5648939], [-97.6555023, 35.5649972]]]}, "properties": {"osm_id": 229567440, "building": "retail", "name": "CVS Pharmacy", "height": null, "height_m": null, "levels": null, "tract_id": "40109108521", "tract_name": "1085.21", "tags": {"amenity": "pharmacy", "brand": "CVS Pharmacy", "brand:website": "https://www.cvs.com/", "brand:wikidata": "Q2078880", "building": "retail", "dispensing": "yes", "healthcare": "pharmacy", "name": "CVS Pharmacy", "short_name": "CVS", "source": "local_knowledge"}}}, {"type": "Feature", "geometry": {"type": "Polygon", "coordinates": [[[-97.6548034, 35.5642548], [-97.6548421, 35.5641944], [-97.6547343, 35.5641487], [-97.6546956, 35.5642091], [-97.6548034, 35.5642548]]]}, "properties": {"osm_id": 229567441, "building": "yes", "name": "", "height": null, "height_m": null, "levels": null, "tract_id": "40109108521", "tract_name": "1085.21", "tags": {"building": "yes"}}}, {"type": "Feature", "geometry": {"type": "Polygon", "coordinates": [[[-97.6556232, 35.5635568], [-97.6555679, 35.5635568], [-97.6555679, 35.5632492], [-97.6556232, 35.5632492], [-97.6556232, 35.5635568]]]}, "properties": {"osm_id": 229567442, "building": "roof", "name": "", "height": null, "height_m": null, "levels": null, "tract_id": "40109108521", "tract_name": "1085.21", "tags": {"building": "roof", "source": "Bing"}}}, {"type": "Feature", "geometry": {"type": "Polygon", "coordinates": [[[-97.6547412, 35.564526], [-97.6548024, 35.564432], [-97.6545029, 35.5643029], [-97.6544417, 35.5643969], [-97.6545708, 35.5644525], [-97.6545561, 35.5644751], [-97.654581, 35.5644858], [-97.6546074, 35.5644972], [-97.6546221, 35.5644746], [-97.6547412, 35.564526]]]}, "properties": {"osm_id": 229567443, "building": "yes", "name": "", "height": null, "height_m": null, "levels": null, "tract_id": "40109108521", "tract_name": "1085.21", "tags": {"building": "yes", "shop": "convenience", "source": "Bing"}}}, {"type": "Feature", "geometry": {"type": "Polygon", "coordinates": [[[-97.6558994, 35.5638267], [-97.6557513, 35.5638266], [-97.6557515, 35.5632236], [-97.6558421, 35.5632237], [-97.655842, 35.5635759], [-97.6558995, 35.5635759], [-97.6558994, 35.5638267]]]}, "properties": {"osm_id": 229567444, "building": "yes", "name": "", "height": null, "height_m": null, "levels": null, "tract_id": "40109108521", "tract_name": "1085.21", "tags": {"amenity": "car_wash", "building": "yes"}}}, {"type": "Feature", "geometry": {"type": "Polygon", "coordinates": [[[-97.6554296, 35.5644437], [-97.6554272, 35.5641342], [-97.6556898, 35.5641361], [-97.6556951, 35.5645441], [-97.6556471, 35.5645466], [-97.6554296, 35.5644437]]]}, "properties": {"osm_id": 229953666, "building": "retail", "name": "", "height": null, "height_m": null, "levels": null, "tract_id": "40109108521", "tract_name": "1085.21", "tags": {"building": "retail", "source": "Bing"}}}, {"type": "Feature", "geometry": {"type": "Polygon", "coordinates": [[[-97.6530031, 35.5619652], [-97.6528932, 35.5619173], [-97.6528686, 35.5619547], [-97.6525571, 35.561819], [-97.65233, 35.562164], [-97.6527513, 35.5623475], [-97.6530031, 35.5619652]]]}, "properties": {"osm_id": 229953667, "building": "yes", "name": "Office Depot", "height": null, "height_m": null, "levels": null, "tract_id": "40109108521", "tract_name": "1085.21", "tags": {"addr:city": "Oklahoma City", "addr:housenumber": "7730", "addr:postcode": "73132", "addr:state": "OK", "addr:street": "Northwest Expressway", "brand": "Office Depot", "brand:wikidata": "Q1337797", "building": "yes", "name": "Office Depot", "opening_hours": "Mo-Th 08:00-19:00; Fr 09:00-20:00; Sa 10:00-19:00; Su 11:00-18:00", "phone": "+1 405-773-1762", "ref": "2163", "shop": "stationery", "source": "Bing", "website": "https://www.officedepot.com/storelocator/ok/oklahoma-city/office-depot-2163"}}}, {"type": "Feature", "geometry": {"type": "Polygon", "coordinates": [[[-97.647914, 35.5613051], [-97.6479853, 35.5611959], [-97.6480064, 35.561205], [-97.6480315, 35.5612158], [-97.6481493, 35.5610354], [-97.6481021, 35.561015], [-97.648185, 35.5608882], [-97.6482069, 35.5608977], [-97.6482301, 35.5609077], [-97.6483451, 35.5607318], [-97.6483222, 35.5607218], [-97.648298, 35.5607114], [-97.6483887, 35.5605727], [-97.6484157, 35.5605314], [-97.6484445, 35.5605439], [-97.6484679, 35.560554], [-97.6484984, 35.5605074], [-97.6485314, 35.5604569], [-97.6485056, 35.5604457], [-97.6484783, 35.5604339], [-97.6485106, 35.5603845], [-97.6485925, 35.5602592], [-97.647851, 35.5599384], [-97.6471682, 35.5609831], [-97.6471915, 35.5609932], [-97.6472293, 35.5610095], [-97.6472666, 35.5610257], [-97.6473043, 35.561042], [-97.6473508, 35.5610621], [-97.6476966, 35.561216], [-97.647914, 35.5613051]]]}, "properties": {"osm_id": 229953668, "building": "retail", "name": "The Home Depot", "height": null, "height_m": null, "levels": null, "tract_id": "40109108521", "tract_name": "1085.21", "tags": {"addr:city": "Oklahoma City", "addr:housenumber": "7620", "addr:postcode": "73132", "addr:state": "OK", "addr:street": "Northwest Expressway", "alt_name": "Home Depot", "branch": "Northwest Oklahoma City", "brand": "The Home Depot", "brand:wikidata": "Q864407", "building": "retail", "name": "The Home Depot", "opening_hours": "Mo-Sa 06:00-22:00; Su 08:00-20:00", "phone": "+1 405-773-6077", "ref": "3909", "shop": "doityourself", "source": "Bing;local_knowledge", "website": "https://www.homedepot.com/l/nw-oklahoma-city/ok/oklahoma-city/73132/3909"}}}, {"type": "Feature", "geometry": {"type": "Polygon", "coordinates": [[[-97.6522538, 35.5618991], [-97.6526967, 35.5612279], [-97.6522834, 35.5610474], [-97.6523109, 35.5610058], [-97.6521859, 35.5609512], [-97.652111, 35.5610647], [-97.6517007, 35.5608855], [-97.6513054, 35.5614845], [-97.651484, 35.5615625], [-97.6514796, 35.5615692], [-97.6515052, 35.5615804], [-97.6515003, 35.5615877], [-97.6515261, 35.561599], [-97.6515222, 35.561605], [-97.6515499, 35.5616171], [-97.6515459, 35.5616231], [-97.6516947, 35.5616882], [-97.6517002, 35.5616799], [-97.6518371, 35.5617397], [-97.6518313, 35.5617484], [-97.6519811, 35.5618139], [-97.651986, 35.5618065], [-97.6520129, 35.5618183], [-97.6520162, 35.5618133], [-97.6520415, 35.5618244], [-97.6520464, 35.561817], [-97.6520733, 35.5618288], [-97.6520777, 35.5618221], [-97.6522538, 35.5618991]]]}, "properties": {"osm_id": 229953669, "building": "retail", "name": "Kohl's", "height": null, "height_m": null, "levels": null, "tract_id": "40109108521", "tract_name": "1085.21", "tags": {"addr:city": "Oklahoma City", "addr:housenumber": "9001", "addr:postcode": "73132", "addr:state": "OK", "addr:street": "Northwest Passage", "branch": "Northwest Oklahoma City", "brand": "Kohl's", "brand:wikidata": "Q967265", "building": "retail", "name": "Kohl's", "opening_hours": "Mo-Sa 09:00-21:00; Su 09:00-20:00", "phone": "+1 405-621-1779", "ref": "488", "shop": "department_store", "website": "https://www.kohls.com/stores/ok/oklahomacity-488.shtml"}}}, {"type": "Feature", "geometry": {"type": "Polygon", "coordinates": [[[-97.6507337, 35.56054], [-97.6505685, 35.5604676], [-97.6505364, 35.5605161], [-97.650438, 35.560473], [-97.6503421, 35.560431], [-97.6503718, 35.5603862], [-97.6494489, 35.5599817], [-97.6496414, 35.559691], [-97.6494312, 35.5595989], [-97.6495347, 35.5594426], [-97.6497468, 35.5595355], [-97.6499362, 35.5592494], [-97.6510966, 35.5597576], [-97.6508682, 35.5601027], [-97.6509883, 35.5601553], [-97.6507337, 35.56054]]]}, "properties": {"osm_id": 229953670, "building": "yes", "name": "Sam's Club", "height": null, "height_m": null, "levels": null, "tract_id": "40109108521", "tract_name": "1085.21", "tags": {"addr:city": "Oklahoma City", "addr:housenumber": "9000", "addr:postcode": "73132", "addr:state": "OK", "addr:street": "Northwest Passage", "brand": "Sam's Club", "brand:wikidata": "Q1972120", "building": "yes", "name": "Sam's Club", "opening_hours": "Mo 10:00-20:00; Sa 09:00-20:00; Su 10:00-18:00", "phone": "+1 405-773-3602", "ref": "4731", "shop": "wholesale", "website": "https://www.samsclub.com/club/oklahoma-city-ok-sams-club/4731"}}}, {"type": "Feature", "geometry": {"type": "Polygon", "coordinates": [[[-97.6559456, 35.5629539], [-97.6557665, 35.5629537], [-97.6557664, 35.5630148], [-97.6558544, 35.5630149], [-97.6558543, 35.5631037], [-97.6559253, 35.5631038], [-97.6559255, 35.563015], [-97.6559456, 35.563015], [-97.6559456, 35.5629539]]]}, "properties": {"osm_id": 229953671, "building": "yes", "name": "", "height": null, "height_m": null, "levels": null, "tract_id": "40109108521", "tract_name": "1085.21", "tags": {"building": "yes", "source": "Bing"}}}, {"type": "Feature", "geometry": {"type": "Polygon", "coordinates": [[[-97.6491369, 35.5597145], [-97.6490895, 35.559786], [-97.6485648, 35.5595557], [-97.6486122, 35.5594843], [-97.6491369, 35.5597145]]]}, "properties": {"osm_id": 229953672, "building": "roof", "name": "Sam's Club", "height": null, "height_m": null, "levels": null, "tract_id": "40109108521", "tract_name": "1085.21", "tags": {"amenity": "fuel", "brand": "Sam's Club", "brand:wikidata": "Q1972120", "building": "roof", "fuel:diesel": "yes", "fuel:gasoline": "yes", "name": "Sam's Club", "self_service": "yes", "source": "Bing"}}}, {"type": "Feature", "geometry": {"type": "Polygon", "coordinates": [[[-97.6526732, 35.557946], [-97.6526732, 35.557962], [-97.6526042, 35.5579619], [-97.6526042, 35.5579784], [-97.6525366, 35.5579783], [-97.6525371, 35.5576243], [-97.6525016, 35.5576242], [-97.6525016, 35.5575888], [-97.6525372, 35.5575888], [-97.6525377, 35.5572694], [-97.6529723, 35.5572699], [-97.6529724, 35.5572313], [-97.6530133, 35.5572314], [-97.6530133, 35.5572699], [-97.6534769, 35.5572704], [-97.653477, 35.5572334], [-97.6535182, 35.5572334], [-97.6535182, 35.5572704], [-97.6538846, 35.5572708], [-97.6538841, 35.5575894], [-97.6539189, 35.5575894], [-97.6539189, 35.557625], [-97.653884, 35.557625], [-97.6538835, 35.5579628], [-97.6534454, 35.5579623], [-97.6534454, 35.5579793], [-97.6533763, 35.5579792], [-97.6533764, 35.5579625], [-97.6533108, 35.5579624], [-97.6533108, 35.5579462], [-97.6532427, 35.5579461], [-97.6532428, 35.5579294], [-97.6530466, 35.5579292], [-97.6530465, 35.5579795], [-97.6529372, 35.5579794], [-97.6529373, 35.5579291], [-97.6527399, 35.5579289], [-97.6527399, 35.5579461], [-97.6526732, 35.557946]]]}, "properties": {"osm_id": 247535078, "building": "yes", "name": "", "height": null, "height_m": null, "levels": null, "tract_id": "40109108521", "tract_name": "1085.21", "tags": {"building": "yes", "source": "Bing"}}}, {"type": "Feature", "geometry": {"type": "Polygon", "coordinates": [[[-97.65202, 35.5567579], [-97.651837, 35.5567581], [-97.6518368, 35.5566588], [-97.6519317, 35.5566587], [-97.6519317, 35.5566211], [-97.6520197, 35.556621], [-97.65202, 35.5567579]]]}, "properties": {"osm_id": 247535080, "building": "house", "name": "", "height": null, "height_m": null, "levels": null, "tract_id": "40109108521", "tract_name": "1085.21", "tags": {"building": "house", "source": "Bing"}}}, {"type": "Feature", "geometry": {"type": "Polygon", "coordinates": [[[-97.652825, 35.5567481], [-97.6526446, 35.5567477], [-97.6526449, 35.5566265], [-97.6527423, 35.5566267], [-97.6527423, 35.5566348], [-97.6528255, 35.5566349], [-97.652825, 35.5567481]]]}, "properties": {"osm_id": 247535082, "building": "house", "name": "", "height": null, "height_m": null, "levels": null, "tract_id": "40109108521", "tract_name": "1085.21", "tags": {"building": "house", "source": "Bing"}}}, {"type": "Feature", "geometry": {"type": "Polygon", "coordinates": [[[-97.6540344, 35.5567797], [-97.6539401, 35.5567793], [-97.6539399, 35.5568064], [-97.65389, 35.5568062], [-97.6538901, 35.5567791], [-97.6538603, 35.5567789], [-97.6538611, 35.5566503], [-97.653923, 35.5566505], [-97.653923, 35.5566385], [-97.6539438, 35.5566385], [-97.6539439, 35.5566211], [-97.6539992, 35.5566214], [-97.6539991, 35.5566326], [-97.6540353, 35.5566328], [-97.6540344, 35.5567797]]]}, "properties": {"osm_id": 247535083, "building": "house", "name": "", "height": null, "height_m": null, "levels": null, "tract_id": "40109108521", "tract_name": "1085.21", "tags": {"building": "house", "source": "Bing"}}}, {"type": "Feature", "geometry": {"type": "Polygon", "coordinates": [[[-97.6542324, 35.5567952], [-97.6541447, 35.5567948], [-97.6541448, 35.5567815], [-97.6540553, 35.5567811], [-97.654056, 35.5566574], [-97.6540789, 35.5566575], [-97.6540791, 35.5566388], [-97.6541558, 35.5566391], [-97.6541559, 35.5566219], [-97.6542362, 35.5566223], [-97.6542353, 35.5567633], [-97.6542326, 35.5567632], [-97.6542324, 35.5567952]]]}, "properties": {"osm_id": 247535084, "building": "house", "name": "", "height": null, "height_m": null, "levels": null, "tract_id": "40109108521", "tract_name": "1085.21", "tags": {"building": "house", "source": "Bing"}}}, {"type": "Feature", "geometry": {"type": "Polygon", "coordinates": [[[-97.6530278, 35.5566246], [-97.6530273, 35.5567686], [-97.6530163, 35.5567686], [-97.6530162, 35.5567917], [-97.6529692, 35.5567916], [-97.6529693, 35.5567685], [-97.652846, 35.5567683], [-97.6528463, 35.5566484], [-97.6528754, 35.5566485], [-97.6528754, 35.5566508], [-97.6529244, 35.5566509], [-97.6529244, 35.5566391], [-97.6529559, 35.5566392], [-97.6529559, 35.5566244], [-97.6530278, 35.5566246]]]}, "properties": {"osm_id": 247535085, "building": "house", "name": "", "height": null, "height_m": null, "levels": null, "tract_id": "40109108521", "tract_name": "1085.21", "tags": {"building": "house", "source": "Bing"}}}, {"type": "Feature", "geometry": {"type": "Polygon", "coordinates": [[[-97.6544374, 35.5567688], [-97.6544337, 35.5567688], [-97.6544335, 35.5568002], [-97.6543832, 35.5568], [-97.6543834, 35.5567685], [-97.6542585, 35.556768], [-97.6542592, 35.5566444], [-97.6543167, 35.5566446], [-97.6543167, 35.5566515], [-97.6543374, 35.5566516], [-97.6543375, 35.5566329], [-97.6543562, 35.556633], [-97.6543563, 35.556624], [-97.6544383, 35.5566243], [-97.6544374, 35.5567688]]]}, "properties": {"osm_id": 247535087, "building": "house", "name": "", "height": null, "height_m": null, "levels": null, "tract_id": "40109108521", "tract_name": "1085.21", "tags": {"building": "house", "source": "Bing"}}}, {"type": "Feature", "geometry": {"type": "Polygon", "coordinates": [[[-97.6536296, 35.5567802], [-97.6535386, 35.5567798], [-97.6535385, 35.556807], [-97.6534902, 35.5568068], [-97.6534903, 35.5567796], [-97.6534516, 35.5567795], [-97.6534526, 35.556641], [-97.6535181, 35.5566413], [-97.6535182, 35.5566372], [-97.6535393, 35.5566373], [-97.6535394, 35.5566245], [-97.653596, 35.5566248], [-97.6535959, 35.5566331], [-97.6536305, 35.5566333], [-97.6536296, 35.5567802]]]}, "properties": {"osm_id": 247535088, "building": "house", "name": "", "height": null, "height_m": null, "levels": null, "tract_id": "40109108521", "tract_name": "1085.21", "tags": {"building": "house", "source": "Bing"}}}, {"type": "Feature", "geometry": {"type": "Polygon", "coordinates": [[[-97.6546376, 35.5567705], [-97.6544616, 35.5567698], [-97.6544625, 35.5566303], [-97.6545143, 35.5566305], [-97.6545143, 35.5566374], [-97.6545311, 35.5566375], [-97.6545312, 35.5566241], [-97.6546385, 35.5566245], [-97.6546376, 35.5567705]]]}, "properties": {"osm_id": 247535089, "building": "house", "name": "", "height": null, "height_m": null, "levels": null, "tract_id": "40109108521", "tract_name": "1085.21", "tags": {"building": "house", "source": "Bing"}}}, {"type": "Feature", "geometry": {"type": "Polygon", "coordinates": [[[-97.6518104, 35.5567688], [-97.6516379, 35.5567686], [-97.6516382, 35.5566429], [-97.6516772, 35.5566429], [-97.6516772, 35.5566341], [-97.6517382, 35.5566342], [-97.6517383, 35.5566265], [-97.6518107, 35.5566266], [-97.6518104, 35.5567688]]]}, "properties": {"osm_id": 247535093, "building": "house", "name": "", "height": null, "height_m": null, "levels": null, "tract_id": "40109108521", "tract_name": "1085.21", "tags": {"building": "house", "source": "Bing"}}}, {"type": "Feature", "geometry": {"type": "Polygon", "coordinates": [[[-97.6538307, 35.5567806], [-97.6536563, 35.5567799], [-97.6536572, 35.5566306], [-97.6536854, 35.5566307], [-97.6536855, 35.5566251], [-97.6537436, 35.5566253], [-97.6537435, 35.5566437], [-97.6537683, 35.5566438], [-97.6537683, 35.55665], [-97.6538315, 35.5566503], [-97.6538307, 35.5567806]]]}, "properties": {"osm_id": 247535094, "building": "house", "name": "", "height": null, "height_m": null, "levels": null, "tract_id": "40109108521", "tract_name": "1085.21", "tags": {"building": "house", "source": "Bing"}}}, {"type": "Feature", "geometry": {"type": "Polygon", "coordinates": [[[-97.6552323, 35.5568148], [-97.6550688, 35.5568143], [-97.6550696, 35.5566258], [-97.6551529, 35.5566261], [-97.6551528, 35.5566774], [-97.655233, 35.5566777], [-97.6552323, 35.5568148]]]}, "properties": {"osm_id": 247535096, "building": "house", "name": "", "height": null, "height_m": null, "levels": null, "tract_id": "40109108521", "tract_name": "1085.21", "tags": {"building": "house", "source": "Bing"}}}, {"type": "Feature", "geometry": {"type": "Polygon", "coordinates": [[[-97.6526207, 35.5567702], [-97.6524481, 35.5567698], [-97.6524484, 35.5566712], [-97.6524976, 35.5566713], [-97.6524976, 35.5566741], [-97.6525377, 35.5566741], [-97.6525379, 35.5566233], [-97.6526212, 35.5566235], [-97.6526207, 35.5567702]]]}, "properties": {"osm_id": 247535097, "building": "house", "name": "", "height": null, "height_m": null, "levels": null, "tract_id": "40109108521", "tract_name": "1085.21", "tags": {"building": "house", "source": "Bing"}}}, {"type": "Feature", "geometry": {"type": "Polygon", "coordinates": [[[-97.6548386, 35.5566248], [-97.654838, 35.556772], [-97.654665, 35.5567715], [-97.6546654, 35.5566712], [-97.6547263, 35.5566713], [-97.6547262, 35.5566781], [-97.6547563, 35.5566782], [-97.6547565, 35.5566246], [-97.6548386, 35.5566248]]]}, "properties": {"osm_id": 247535098, "building": "house", "name": "", "height": null, "height_m": null, "levels": null, "tract_id": "40109108521", "tract_name": "1085.21", "tags": {"building": "house", "source": "Bing"}}}, {"type": "Feature", "geometry": {"type": "Polygon", "coordinates": [[[-97.6516095, 35.5566202], [-97.6516099, 35.5567666], [-97.6514424, 35.5567668], [-97.6514421, 35.5566694], [-97.6515321, 35.5566692], [-97.651532, 35.5566203], [-97.6516095, 35.5566202]]]}, "properties": {"osm_id": 247535099, "building": "house", "name": "", "height": null, "height_m": null, "levels": null, "tract_id": "40109108521", "tract_name": "1085.21", "tags": {"building": "house", "source": "Bing"}}}, {"type": "Feature", "geometry": {"type": "Polygon", "coordinates": [[[-97.652353, 35.5566464], [-97.652363, 35.5566465], [-97.6523631, 35.5566433], [-97.6524238, 35.5566437], [-97.6524224, 35.5567701], [-97.6523386, 35.5567695], [-97.6523385, 35.5567763], [-97.6522605, 35.5567757], [-97.6522606, 35.5567689], [-97.6522416, 35.5567688], [-97.6522432, 35.5566225], [-97.6523277, 35.5566231], [-97.6523276, 35.5566338], [-97.6523531, 35.5566339], [-97.652353, 35.5566464]]]}, "properties": {"osm_id": 247535100, "building": "house", "name": "", "height": null, "height_m": null, "levels": null, "tract_id": "40109108521", "tract_name": "1085.21", "tags": {"building": "house", "source": "Bing"}}}, {"type": "Feature", "geometry": {"type": "Polygon", "coordinates": [[[-97.6556397, 35.5567917], [-97.6554665, 35.5567893], [-97.6554696, 35.5566416], [-97.655552, 35.5566427], [-97.6555509, 35.556693], [-97.6555842, 35.5566935], [-97.6555843, 35.5566883], [-97.6556418, 35.5566891], [-97.6556397, 35.5567917]]]}, "properties": {"osm_id": 247535101, "building": "house", "name": "", "height": null, "height_m": null, "levels": null, "tract_id": "40109108521", "tract_name": "1085.21", "tags": {"building": "house", "source": "Bing"}}}, {"type": "Feature", "geometry": {"type": "Polygon", "coordinates": [[[-97.6514129, 35.55665], [-97.6514119, 35.5567736], [-97.6512458, 35.5567728], [-97.6512465, 35.556682], [-97.6513416, 35.5566824], [-97.6513419, 35.5566496], [-97.6514129, 35.55665]]]}, "properties": {"osm_id": 247535102, "building": "house", "name": "", "height": null, "height_m": null, "levels": null, "tract_id": "40109108521", "tract_name": "1085.21", "tags": {"building": "house", "source": "Bing"}}}, {"type": "Feature", "geometry": {"type": "Polygon", "coordinates": [[[-97.6550424, 35.5567574], [-97.6549596, 35.5567575], [-97.6549596, 35.5567867], [-97.6548658, 35.5567867], [-97.6548656, 35.5566481], [-97.6549227, 35.5566481], [-97.6549227, 35.556652], [-97.6549593, 35.556652], [-97.6549593, 35.5566227], [-97.6550423, 35.5566227], [-97.6550424, 35.5567574]]]}, "properties": {"osm_id": 247535103, "building": "house", "name": "", "height": null, "height_m": null, "levels": null, "tract_id": "40109108521", "tract_name": "1085.21", "tags": {"building": "house", "source": "Bing"}}}, {"type": "Feature", "geometry": {"type": "Polygon", "coordinates": [[[-97.6522165, 35.556763], [-97.6520448, 35.5567634], [-97.6520444, 35.5566466], [-97.6521091, 35.5566465], [-97.6521091, 35.5566443], [-97.6521426, 35.5566442], [-97.6521426, 35.5566219], [-97.652216, 35.5566218], [-97.6522165, 35.556763]]]}, "properties": {"osm_id": 247535104, "building": "house", "name": "", "height": null, "height_m": null, "levels": null, "tract_id": "40109108521", "tract_name": "1085.21", "tags": {"building": "house", "source": "Bing"}}}, {"type": "Feature", "geometry": {"type": "Polygon", "coordinates": [[[-97.6554438, 35.5567971], [-97.655402, 35.5567967], [-97.6554019, 35.5568081], [-97.6553552, 35.5568077], [-97.6553554, 35.5567964], [-97.6552761, 35.5567958], [-97.6552778, 35.5566435], [-97.6553406, 35.556644], [-97.6553403, 35.55667], [-97.6553576, 35.5566702], [-97.6553574, 35.5566876], [-97.6553694, 35.5566877], [-97.65537, 35.5566432], [-97.6554457, 35.5566437], [-97.6554438, 35.5567971]]]}, "properties": {"osm_id": 247535105, "building": "house", "name": "", "height": null, "height_m": null, "levels": null, "tract_id": "40109108521", "tract_name": "1085.21", "tags": {"building": "house", "source": "Bing"}}}, {"type": "Feature", "geometry": {"type": "Polygon", "coordinates": [[[-97.6531239, 35.5566229], [-97.6531238, 35.5566635], [-97.6531423, 35.5566636], [-97.6531424, 35.5566364], [-97.653224, 35.5566366], [-97.6532236, 35.5567571], [-97.6531883, 35.5567571], [-97.6531881, 35.556786], [-97.65311, 35.5567859], [-97.6531101, 35.5567569], [-97.6530544, 35.5567567], [-97.6530549, 35.5566228], [-97.6531239, 35.5566229]]]}, "properties": {"osm_id": 247535106, "building": "house", "name": "", "height": null, "height_m": null, "levels": null, "tract_id": "40109108521", "tract_name": "1085.21", "tags": {"building": "house", "source": "Bing"}}}, {"type": "Feature", "geometry": {"type": "Polygon", "coordinates": [[[-97.6533592, 35.5567832], [-97.6532496, 35.5567828], [-97.6532502, 35.5566947], [-97.6532824, 35.5566948], [-97.6532825, 35.5566815], [-97.6533514, 35.5566818], [-97.6533517, 35.5566384], [-97.6534278, 35.5566387], [-97.653427, 35.5567688], [-97.6533593, 35.5567686], [-97.6533592, 35.5567832]]]}, "properties": {"osm_id": 247535107, "building": "house", "name": "", "height": null, "height_m": null, "levels": null, "tract_id": "40109108521", "tract_name": "1085.21", "tags": {"building": "house", "source": "Bing"}}}, {"type": "Feature", "geometry": {"type": "Polygon", "coordinates": [[[-97.6477825, 35.5551966], [-97.6481664, 35.5551977], [-97.648164, 35.5557408], [-97.6482137, 35.5557409], [-97.648213, 35.5559043], [-97.6482544, 35.5559045], [-97.6482539, 35.5560138], [-97.6482099, 35.5560137], [-97.6482092, 35.5561772], [-97.6477278, 35.5561758], [-97.6477297, 35.5557418], [-97.6477801, 35.555742], [-97.6477825, 35.5551966]]]}, "properties": {"osm_id": 291854644, "building": "yes", "name": "", "height": null, "height_m": null, "levels": null, "tract_id": "40109108521", "tract_name": "1085.21", "tags": {"building": "yes", "source": "Bing"}}}, {"type": "Feature", "geometry": {"type": "Polygon", "coordinates": [[[-97.6499795, 35.5577067], [-97.6491334, 35.5577045], [-97.6491107, 35.5577], [-97.6490919, 35.5576904], [-97.6490792, 35.5576776], [-97.6490731, 35.557663], [-97.649072, 35.5576466], [-97.6490754, 35.5576311], [-97.6490819, 35.5576188], [-97.6490938, 35.5576075], [-97.6491102, 35.5575994], [-97.6491283, 35.5575948], [-97.6491546, 35.5575945], [-97.6491577, 35.5572702], [-97.6491296, 35.55727], [-97.6491069, 35.5572354], [-97.6490925, 35.5572353], [-97.6490928, 35.5572101], [-97.649093, 35.5571848], [-97.6491076, 35.5571849], [-97.6491307, 35.5571503], [-97.6491588, 35.5571504], [-97.6491619, 35.5568276], [-97.6491309, 35.5568244], [-97.6491113, 35.5568193], [-97.6490955, 35.5568101], [-97.6490834, 35.556797], [-97.6490786, 35.5567829], [-97.6490777, 35.5567647], [-97.6490806, 35.5567509], [-97.6490866, 35.5567388], [-97.6490973, 35.5567278], [-97.6491126, 35.55672], [-97.6491325, 35.556715], [-97.6499848, 35.5567199], [-97.6499795, 35.5577067]]]}, "properties": {"osm_id": 291854645, "building": "yes", "name": "", "height": null, "height_m": null, "levels": null, "tract_id": "40109108521", "tract_name": "1085.21", "tags": {"building": "yes", "source": "Bing"}}}, {"type": "Feature", "geometry": {"type": "Polygon", "coordinates": [[[-97.6373186, 35.556923], [-97.6373331, 35.5569004], [-97.6373467, 35.5569062], [-97.6373501, 35.5569009], [-97.6373608, 35.5569055], [-97.6373845, 35.5568684], [-97.6373737, 35.5568639], [-97.6373764, 35.5568597], [-97.6373628, 35.556854], [-97.6373803, 35.5568266], [-97.6373199, 35.556801], [-97.6373279, 35.5567885], [-97.6371224, 35.5567016], [-97.6370506, 35.5568139], [-97.6372211, 35.556886], [-97.6372232, 35.5568827], [-97.6373186, 35.556923]]]}, "properties": {"osm_id": 323889842, "building": "retail", "name": "Chick-fil-A", "height": null, "height_m": null, "levels": null, "tract_id": "40109108521", "tract_name": "1085.21", "tags": {"addr:city": "Oklahoma City", "addr:housenumber": "7004", "addr:postcode": "73132", "addr:state": "OK", "addr:street": "Northwest Expressway", "amenity": "fast_food", "branch": "Rockwell South", "brand": "Chick-fil-A", "brand:wikidata": "Q491516", "building": "retail", "cuisine": "chicken", "delivery": "yes", "drive_through": "yes", "indoor_seating": "yes", "internet_access": "wlan", "name": "Chick-fil-A", "opening_hours": "Mo-Sa 06:00-22:00; Su off", "phone": "+1 405-728-9494", "ref": "02025", "roof:shape": "flat", "takeaway": "yes", "website": "https://www.chick-fil-a.com/locations/ok/rockwell-south"}}}, {"type": "Feature", "geometry": {"type": "Polygon", "coordinates": [[[-97.633467, 35.5552596], [-97.6334944, 35.5550891], [-97.6333989, 35.5550478], [-97.6334144, 35.5550229], [-97.6331974, 35.5549276], [-97.6332121, 35.5549036], [-97.633065, 35.554837], [-97.6329208, 35.5550498], [-97.6334358, 35.555275], [-97.6334476, 35.555251], [-97.633467, 35.5552596]]]}, "properties": {"osm_id": 323889952, "building": "retail", "name": "", "height": null, "height_m": null, "levels": null, "tract_id": "40109108521", "tract_name": "1085.21", "tags": {"building": "retail", "roof:shape": "flat"}}}, {"type": "Feature", "geometry": {"type": "Polygon", "coordinates": [[[-97.6512254, 35.5631961], [-97.6512841, 35.5631066], [-97.651265, 35.5630983], [-97.6512881, 35.563063], [-97.6513014, 35.5630687], [-97.6513555, 35.5629862], [-97.6512562, 35.5629432], [-97.6511531, 35.5631005], [-97.6511677, 35.5631069], [-97.6511349, 35.5631569], [-97.6512254, 35.5631961]]]}, "properties": {"osm_id": 323889959, "building": "retail", "name": "Wendy's", "height": null, "height_m": null, "levels": null, "tract_id": "40109108521", "tract_name": "1085.21", "tags": {"addr:city": "Oklahoma City", "addr:housenumber": "7716", "addr:postcode": "73132", "addr:state": "OK", "addr:street": "Northwest Expressway", "amenity": "fast_food", "brand": "Wendy's", "brand:wikidata": "Q550258", "building": "retail", "cuisine": "burger", "name": "Wendy's", "opening_hours": "06:30-22:00", "opening_hours:drive_through": "Mo-Su 06:30-00:00", "phone": "+1 405-721-8929", "takeaway": "yes", "website": "https://locations.wendys.com/united-states/ok/oklahoma-city/7716-northwest-expressway"}}}, {"type": "Feature", "geometry": {"type": "Polygon", "coordinates": [[[-97.6255971, 35.5517386], [-97.6256592, 35.5516452], [-97.6255047, 35.551577], [-97.6255237, 35.5515475], [-97.6254328, 35.5515073], [-97.6254366, 35.5515007], [-97.6254115, 35.5514901], [-97.6253872, 35.5515261], [-97.6253031, 35.551489], [-97.6251301, 35.5514876], [-97.6251063, 35.5515223], [-97.6251966, 35.5515615], [-97.6255352, 35.5517109], [-97.6255971, 35.5517386]]]}, "properties": {"osm_id": 323889965, "building": "retail", "name": "OnCue", "height": null, "height_m": null, "levels": null, "tract_id": "40109108521", "tract_name": "1085.21", "tags": {"addr:city": "Oklahoma City", "addr:housenumber": "6200", "addr:postcode": "73132", "addr:state": "OK", "addr:street": "Northwest Expressway", "building": "retail", "name": "OnCue", "ref": "108", "roof:shape": "flat", "shop": "convenience"}}}, {"type": "Feature", "geometry": {"type": "Polygon", "coordinates": [[[-97.6249425, 35.5517141], [-97.6248684, 35.5516813], [-97.6247925, 35.5516476], [-97.6247061, 35.5516093], [-97.6247424, 35.551557], [-97.6247495, 35.5515602], [-97.6247599, 35.5515561], [-97.6248309, 35.5515877], [-97.6249064, 35.5516201], [-97.6249815, 35.5516542], [-97.6250466, 35.5516837], [-97.6250596, 35.5516806], [-97.6251298, 35.551664], [-97.6251966, 35.5515615], [-97.6255352, 35.5517109], [-97.6254744, 35.5518015], [-97.6254654, 35.551815], [-97.6254788, 35.5518514], [-97.6254895, 35.5518805], [-97.6255237, 35.5518969], [-97.6254841, 35.5519542], [-97.6254225, 35.5519269], [-97.6253477, 35.5518937], [-97.6252375, 35.5518448], [-97.6252056, 35.5518307], [-97.6250966, 35.5517824], [-97.6250179, 35.5517475], [-97.6249425, 35.5517141]]]}, "properties": {"osm_id": 323889967, "building": "roof", "name": "Phillips 66", "height": null, "height_m": null, "levels": null, "tract_id": "40109108521", "tract_name": "1085.21", "tags": {"addr:city": "Oklahoma City", "addr:postcode": "73132", "addr:state": "OK", "amenity": "fuel", "brand": "Phillips 66", "brand:wikidata": "Q1656230", "building": "roof", "name": "Phillips 66", "roof:shape": "flat"}}}, {"type": "Feature", "geometry": {"type": "Polygon", "coordinates": [[[-97.6520262, 35.5590003], [-97.6519431, 35.5588217], [-97.6518316, 35.5588561], [-97.6518339, 35.5588611], [-97.6517546, 35.5588855], [-97.6517519, 35.5588798], [-97.6516429, 35.5589134], [-97.6517271, 35.5590941], [-97.6518404, 35.5590592], [-97.6518322, 35.5590415], [-97.6519089, 35.5590179], [-97.6519164, 35.5590341], [-97.6520262, 35.5590003]]]}, "properties": {"osm_id": 323890008, "building": "office", "name": "", "height": null, "height_m": null, "levels": null, "tract_id": "40109108521", "tract_name": "1085.21", "tags": {"building": "office"}}}, {"type": "Feature", "geometry": {"type": "Polygon", "coordinates": [[[-97.6509709, 35.562982], [-97.650904, 35.5629529], [-97.6508836, 35.562984], [-97.6508297, 35.5629606], [-97.650846, 35.5629356], [-97.6507565, 35.5628967], [-97.6508258, 35.5627912], [-97.6508603, 35.5628062], [-97.6508958, 35.5627521], [-97.6510455, 35.5628171], [-97.6510099, 35.5628712], [-97.6510362, 35.5628826], [-97.6509709, 35.562982]]]}, "properties": {"osm_id": 323890015, "building": "retail", "name": "IHOP", "height": null, "height_m": null, "levels": null, "tract_id": "40109108521", "tract_name": "1085.21", "tags": {"amenity": "restaurant", "brand": "IHOP", "brand:wikidata": "Q1185675", "building": "retail", "cuisine": "breakfast;pancake", "name": "IHOP"}}}, {"type": "Feature", "geometry": {"type": "Polygon", "coordinates": [[[-97.6399554, 35.5528803], [-97.6400612, 35.5527989], [-97.6400186, 35.5527623], [-97.6400726, 35.5527207], [-97.6398418, 35.5525221], [-97.6397603, 35.5525848], [-97.6397234, 35.5525531], [-97.639649, 35.5526103], [-97.6397441, 35.5526921], [-97.6397966, 35.5526517], [-97.6399103, 35.5527495], [-97.6398538, 35.552793], [-97.6399554, 35.5528803]]]}, "properties": {"osm_id": 323890020, "building": "warehouse", "name": "", "height": null, "height_m": null, "levels": null, "tract_id": "40109108521", "tract_name": "1085.21", "tags": {"building": "warehouse"}}}, {"type": "Feature", "geometry": {"type": "Polygon", "coordinates": [[[-97.6379421, 35.5557887], [-97.6377332, 35.5557886], [-97.6377333, 35.5557517], [-97.6374922, 35.5557516], [-97.6374922, 35.5557844], [-97.6374562, 35.5557927], [-97.6374188, 35.5557987], [-97.6373606, 35.5558051], [-97.6372997, 35.5558071], [-97.6372514, 35.5558057], [-97.6372038, 35.5558011], [-97.6371569, 35.555794], [-97.6371106, 35.5557842], [-97.6371107, 35.5557514], [-97.6368058, 35.5557513], [-97.6368058, 35.5557865], [-97.6356153, 35.555786], [-97.6356157, 35.5552501], [-97.6365009, 35.5552505], [-97.6365008, 35.5554166], [-97.6363234, 35.5554165], [-97.6363233, 35.5555115], [-97.6367976, 35.5555117], [-97.6367979, 35.5551009], [-97.6379925, 35.5551014], [-97.6379921, 35.5557466], [-97.6379421, 35.5557887]]]}, "properties": {"osm_id": 323890032, "building": "retail", "name": "", "height": null, "height_m": null, "levels": null, "tract_id": "40109108521", "tract_name": "1085.21", "tags": {"building": "retail", "roof:shape": "flat"}}}, {"type": "Feature", "geometry": {"type": "Polygon", "coordinates": [[[-97.6434859, 35.557819], [-97.6434861, 35.5575849], [-97.6435549, 35.5575849], [-97.6435551, 35.5574652], [-97.6435433, 35.5574651], [-97.6435433, 35.557401], [-97.6435551, 35.5574011], [-97.6435552, 35.5573651], [-97.6434765, 35.557365], [-97.6434767, 35.5571573], [-97.6432201, 35.5571571], [-97.64322, 35.5572303], [-97.6431369, 35.5572303], [-97.6431368, 35.557302], [-97.6431608, 35.557302], [-97.6431607, 35.5574349], [-97.6432205, 35.5574349], [-97.6432204, 35.557562], [-97.643137, 35.557562], [-97.6431367, 35.5577806], [-97.6432163, 35.5577807], [-97.6432163, 35.5577856], [-97.6431668, 35.5577856], [-97.6431668, 35.5578102], [-97.6432163, 35.5578102], [-97.6432163, 35.5578188], [-97.6434859, 35.557819]]]}, "properties": {"osm_id": 323890039, "building": "retail", "name": "", "height": null, "height_m": null, "levels": null, "tract_id": "40109108521", "tract_name": "1085.21", "tags": {"building": "retail"}}}, {"type": "Feature", "geometry": {"type": "Polygon", "coordinates": [[[-97.6278953, 35.5528606], [-97.6282925, 35.552251], [-97.6283758, 35.552287], [-97.6283733, 35.5522909], [-97.6284501, 35.552324], [-97.6283944, 35.5524095], [-97.6283381, 35.5523852], [-97.628211, 35.5525803], [-97.6282169, 35.5525828], [-97.6281688, 35.5526565], [-97.6281629, 35.552654], [-97.6280631, 35.5528073], [-97.6281473, 35.5528436], [-97.628137, 35.5528595], [-97.6281708, 35.5528741], [-97.6281252, 35.552944], [-97.6280853, 35.5529267], [-97.6280657, 35.5529568], [-97.6279576, 35.5529102], [-97.6279691, 35.5528924], [-97.6278953, 35.5528606]]]}, "properties": {"osm_id": 323890043, "building": "yes", "name": "Executive Inn", "height": null, "height_m": null, "levels": null, "tract_id": "40109108521", "tract_name": "1085.21", "tags": {"building": "yes", "name": "Executive Inn", "roof:shape": "gabled", "tourism": "motel"}}}, {"type": "Feature", "geometry": {"type": "Polygon", "coordinates": [[[-97.651754, 35.5576727], [-97.6517537, 35.5573593], [-97.6512223, 35.5573596], [-97.6512223, 35.557318], [-97.6509849, 35.5573181], [-97.6509849, 35.5573467], [-97.6508984, 35.5573467], [-97.6508984, 35.5573189], [-97.6508137, 35.5573189], [-97.6508141, 35.557715], [-97.6509513, 35.5577149], [-97.6509513, 35.5577634], [-97.6509889, 35.557773], [-97.6510184, 35.5577732], [-97.6510444, 35.5577733], [-97.6510831, 35.5577653], [-97.651083, 35.557715], [-97.6512187, 35.5577149], [-97.6512186, 35.557673], [-97.651754, 35.5576727]]]}, "properties": {"osm_id": 323890069, "building": "retail", "name": "", "height": null, "height_m": null, "levels": null, "tract_id": "40109108521", "tract_name": "1085.21", "tags": {"building": "retail"}}}, {"type": "Feature", "geometry": {"type": "Polygon", "coordinates": [[[-97.6557517, 35.5588838], [-97.6557517, 35.5588603], [-97.6557517, 35.5587913], [-97.6557743, 35.5587913], [-97.6557743, 35.5587094], [-97.65575, 35.5587094], [-97.65575, 35.5586962], [-97.6557975, 35.5586962], [-97.6557974, 35.5586815], [-97.6558279, 35.5586815], [-97.6558278, 35.5585994], [-97.6557849, 35.5585994], [-97.6557848, 35.558556], [-97.6554717, 35.5585562], [-97.6554718, 35.5586], [-97.6553758, 35.5586], [-97.6553759, 35.5586976], [-97.6554678, 35.5586976], [-97.6554678, 35.5588179], [-97.6555229, 35.5588179], [-97.6555229, 35.558865], [-97.6555229, 35.5588839], [-97.6557517, 35.5588838]]]}, "properties": {"osm_id": 323890082, "building": "office", "name": "", "height": null, "height_m": null, "levels": null, "tract_id": "40109108521", "tract_name": "1085.21", "tags": {"building": "office"}}}, {"type": "Feature", "geometry": {"type": "Polygon", "coordinates": [[[-97.6436905, 35.5593508], [-97.6435002, 35.5595067], [-97.6432712, 35.5593161], [-97.6434552, 35.55916], [-97.6435011, 35.5591999], [-97.64355, 35.5591594], [-97.6435501, 35.559075], [-97.643497, 35.5590749], [-97.6434985, 35.5589885], [-97.6434678, 35.5589878], [-97.6434686, 35.5588776], [-97.6435396, 35.5588786], [-97.6435373, 35.5584288], [-97.6436054, 35.5584294], [-97.6436055, 35.5584469], [-97.6436536, 35.5584474], [-97.6436539, 35.5584284], [-97.6437143, 35.5584289], [-97.643714, 35.5584479], [-97.643714, 35.5588779], [-97.6438762, 35.558879], [-97.6438763, 35.5590768], [-97.6436912, 35.5590759], [-97.643691, 35.5592743], [-97.6436476, 35.5593093], [-97.6436905, 35.5593508]]]}, "properties": {"osm_id": 323890083, "building": "retail", "name": "", "height": null, "height_m": null, "levels": null, "tract_id": "40109108521", "tract_name": "1085.21", "tags": {"building": "retail", "roof:shape": "flat"}}}, {"type": "Feature", "geometry": {"type": "Polygon", "coordinates": [[[-97.6504363, 35.5628521], [-97.6504694, 35.5627922], [-97.6504903, 35.5627982], [-97.6505393, 35.5627284], [-97.6505234, 35.5627164], [-97.6505381, 35.5626885], [-97.6505418, 35.5626725], [-97.6505393, 35.5626525], [-97.6505258, 35.5626366], [-97.6504906, 35.5626193], [-97.6504694, 35.5626204], [-97.6504468, 35.5626267], [-97.6504317, 35.5626341], [-97.6504208, 35.5626391], [-97.6503839, 35.5626948], [-97.6503605, 35.5626892], [-97.6503323, 35.5627238], [-97.6503445, 35.5627287], [-97.6502894, 35.5628113], [-97.6503668, 35.5628431], [-97.6503772, 35.5628256], [-97.6504363, 35.5628521]]]}, "properties": {"osm_id": 323890084, "building": "retail", "name": "Panda Express", "height": null, "height_m": null, "levels": null, "tract_id": "40109108521", "tract_name": "1085.21", "tags": {"addr:city": "Oklahoma City", "addr:housenumber": "7700", "addr:postcode": "73132", "addr:state": "OK", "addr:street": "Northwest Expressway", "amenity": "fast_food", "branch": "Northwest Expressway & Counci", "brand": "Panda Express", "brand:wikidata": "Q1358690", "building": "retail", "cuisine": "chinese", "name": "Panda Express", "opening_hours": "Mo-Th 10:00-21:00; Fr-Sa 10:00-21:30; Su 10:00-21:00", "phone": "+1 405-720-6666", "ref": "1445", "takeaway": "yes", "website": "https://www.pandaexpress.com/locations/ok/oklahoma-city/1445"}}}, {"type": "Feature", "geometry": {"type": "Polygon", "coordinates": [[[-97.6521459, 35.5594003], [-97.6521215, 35.559348], [-97.6521273, 35.5593462], [-97.6521152, 35.5593203], [-97.6521404, 35.5593125], [-97.6521113, 35.55925], [-97.6520853, 35.559258], [-97.6520732, 35.5592321], [-97.6520664, 35.5592342], [-97.6520422, 35.5591821], [-97.6520146, 35.5591906], [-97.6520118, 35.5591845], [-97.6519067, 35.5592169], [-97.6519113, 35.5592267], [-97.6518771, 35.5592373], [-97.651977, 35.5594519], [-97.6520105, 35.5594415], [-97.6520129, 35.5594468], [-97.6521164, 35.5594149], [-97.6521141, 35.5594101], [-97.6521459, 35.5594003]]]}, "properties": {"osm_id": 323890086, "building": "office", "name": "", "height": null, "height_m": null, "levels": null, "tract_id": "40109108521", "tract_name": "1085.21", "tags": {"building": "office"}}}, {"type": "Feature", "geometry": {"type": "Polygon", "coordinates": [[[-97.64192, 35.5582101], [-97.6419178, 35.556839], [-97.6419071, 35.5568393], [-97.6419059, 35.5567189], [-97.6418746, 35.556716], [-97.6418694, 35.5564521], [-97.6418955, 35.5564408], [-97.6419388, 35.55639], [-97.6420839, 35.5563922], [-97.6420847, 35.5562837], [-97.6422516, 35.5562837], [-97.6422523, 35.5561453], [-97.6425205, 35.5561462], [-97.6425201, 35.5563927], [-97.6425894, 35.5563927], [-97.6425889, 35.5564535], [-97.6425332, 35.5564535], [-97.6425348, 35.5568351], [-97.6424222, 35.556835], [-97.6424229, 35.5571112], [-97.6423404, 35.5571112], [-97.6423401, 35.5573309], [-97.6421881, 35.5573307], [-97.64219, 35.5582099], [-97.64192, 35.5582101]]]}, "properties": {"osm_id": 323890087, "building": "retail", "name": "", "height": null, "height_m": null, "levels": null, "tract_id": "40109108521", "tract_name": "1085.21", "tags": {"building": "retail", "roof:shape": "flat"}}}, {"type": "Feature", "geometry": {"type": "Polygon", "coordinates": [[[-97.6455049, 35.5599088], [-97.6454473, 35.5598839], [-97.6454405, 35.5598944], [-97.6452876, 35.5598282], [-97.6452945, 35.5598177], [-97.6452377, 35.5597931], [-97.6452743, 35.5597367], [-97.6452503, 35.5597264], [-97.6452864, 35.5596737], [-97.6452863, 35.5595157], [-97.6452331, 35.5595155], [-97.6452337, 35.5592946], [-97.6452944, 35.5592947], [-97.6452943, 35.5593397], [-97.6453645, 35.5593397], [-97.6453654, 35.5592677], [-97.6454003, 35.5592676], [-97.6454001, 35.559295], [-97.6454341, 35.5592949], [-97.6454339, 35.5592128], [-97.6455495, 35.559213], [-97.6455495, 35.5592553], [-97.645792, 35.5592558], [-97.645792, 35.5595174], [-97.6456088, 35.5595173], [-97.6456078, 35.5596445], [-97.6457563, 35.5597096], [-97.6458116, 35.5597338], [-97.6457392, 35.5598445], [-97.6456867, 35.559822], [-97.6455875, 35.5597795], [-97.6455049, 35.5599088]]]}, "properties": {"osm_id": 323890091, "building": "retail", "name": "", "height": null, "height_m": null, "levels": null, "tract_id": "40109108521", "tract_name": "1085.21", "tags": {"building": "retail", "roof:shape": "flat"}}}, {"type": "Feature", "geometry": {"type": "Polygon", "coordinates": [[[-97.6522807, 35.5600754], [-97.6522798, 35.5600609], [-97.6523239, 35.5600592], [-97.6523183, 35.559964], [-97.6523254, 35.5599637], [-97.6523235, 35.5599315], [-97.6523331, 35.5599311], [-97.6523292, 35.5598652], [-97.6523169, 35.5598657], [-97.6523151, 35.5598349], [-97.6523061, 35.5598353], [-97.6523019, 35.5597641], [-97.652254, 35.559766], [-97.6522533, 35.5597541], [-97.6521631, 35.5597576], [-97.6521639, 35.5597708], [-97.6521208, 35.5597725], [-97.652127, 35.559877], [-97.652119, 35.5598773], [-97.6521239, 35.5599592], [-97.6521347, 35.5599587], [-97.6521411, 35.560067], [-97.6521896, 35.5600651], [-97.6521905, 35.5600789], [-97.6522807, 35.5600754]]]}, "properties": {"osm_id": 323890092, "building": "office", "name": "", "height": null, "height_m": null, "levels": null, "tract_id": "40109108521", "tract_name": "1085.21", "tags": {"building": "office"}}}, {"type": "Feature", "geometry": {"type": "Polygon", "coordinates": [[[-97.6424555, 35.5585196], [-97.6424557, 35.5584821], [-97.6424446, 35.558482], [-97.6424449, 35.5584305], [-97.6424779, 35.5584306], [-97.6424783, 35.5583603], [-97.6424441, 35.5583602], [-97.6424446, 35.5582733], [-97.6424537, 35.5582734], [-97.6424539, 35.5582358], [-97.6424092, 35.5582357], [-97.6424092, 35.5582426], [-97.6419941, 35.5582413], [-97.6419941, 35.5582359], [-97.6419505, 35.5582358], [-97.6419503, 35.5582718], [-97.6419607, 35.5582718], [-97.6419604, 35.5583274], [-97.6419007, 35.5583272], [-97.6419006, 35.5583453], [-97.6419072, 35.5583523], [-97.6419069, 35.5584052], [-97.6419003, 35.5584119], [-97.6419002, 35.5584281], [-97.6419591, 35.5584283], [-97.6419588, 35.5584828], [-97.6419513, 35.5584828], [-97.6419511, 35.5585189], [-97.6419948, 35.558519], [-97.6419948, 35.5585098], [-97.6421592, 35.5585103], [-97.642159, 35.5585333], [-97.6421721, 35.5585333], [-97.6421798, 35.5585279], [-97.6422216, 35.558528], [-97.6422286, 35.5585335], [-97.642243, 35.5585336], [-97.6422431, 35.5585101], [-97.64241, 35.5585106], [-97.6424099, 35.5585195], [-97.6424555, 35.5585196]]]}, "properties": {"osm_id": 323890100, "building": "office", "name": "", "height": null, "height_m": null, "levels": null, "tract_id": "40109108521", "tract_name": "1085.21", "tags": {"building": "office", "roof:shape": "flat"}}}, {"type": "Feature", "geometry": {"type": "Polygon", "coordinates": [[[-97.6268649, 35.5516752], [-97.6269102, 35.5516233], [-97.626779, 35.5515475], [-97.6267337, 35.5515994], [-97.6268649, 35.5516752]]]}, "properties": {"osm_id": 323890103, "building": "roof", "name": "", "height": null, "height_m": null, "levels": null, "tract_id": "40109108521", "tract_name": "1085.21", "tags": {"building": "roof", "layer": "1", "roof:shape": "flat"}}}, {"type": "Feature", "geometry": {"type": "Polygon", "coordinates": [[[-97.6516496, 35.5633902], [-97.6517995, 35.5631603], [-97.6516785, 35.5631081], [-97.6515287, 35.563338], [-97.6516496, 35.5633902]]]}, "properties": {"osm_id": 323890106, "building": "retail", "name": "", "height": null, "height_m": null, "levels": null, "tract_id": "40109108521", "tract_name": "1085.21", "tags": {"building": "retail"}}}, {"type": "Feature", "geometry": {"type": "Polygon", "coordinates": [[[-97.644471, 35.5532619], [-97.6444677, 35.5529789], [-97.6442586, 35.5529805], [-97.6442619, 35.5532635], [-97.644471, 35.5532619]]]}, "properties": {"osm_id": 323890107, "building": "warehouse", "name": "", "height": null, "height_m": null, "levels": null, "tract_id": "40109108521", "tract_name": "1085.21", "tags": {"building": "warehouse"}}}, {"type": "Feature", "geometry": {"type": "Polygon", "coordinates": [[[-97.6462191, 35.5563606], [-97.6462209, 35.5561079], [-97.6460786, 35.5561093], [-97.6460821, 35.5563677], [-97.6462191, 35.5563606]]]}, "properties": {"osm_id": 323890111, "building": "warehouse", "name": "", "height": null, "height_m": null, "levels": null, "tract_id": "40109108521", "tract_name": "1085.21", "tags": {"building": "warehouse"}}}, {"type": "Feature", "geometry": {"type": "Polygon", "coordinates": [[[-97.6466109, 35.5572738], [-97.646605, 35.5569903], [-97.6463694, 35.5569935], [-97.6463753, 35.557277], [-97.6466109, 35.5572738]]]}, "properties": {"osm_id": 323890114, "building": "warehouse", "name": "", "height": null, "height_m": null, "levels": null, "tract_id": "40109108521", "tract_name": "1085.21", "tags": {"building": "warehouse"}}}, {"type": "Feature", "geometry": {"type": "Polygon", "coordinates": [[[-97.6436375, 35.5580361], [-97.6436377, 35.5579716], [-97.6428777, 35.5579699], [-97.6428775, 35.5580345], [-97.6436375, 35.5580361]]]}, "properties": {"osm_id": 323890115, "building": "retail", "name": "", "height": null, "height_m": null, "levels": null, "tract_id": "40109108521", "tract_name": "1085.21", "tags": {"building": "retail", "roof:shape": "flat"}}}, {"type": "Feature", "geometry": {"type": "Polygon", "coordinates": [[[-97.6472484, 35.5576879], [-97.6472497, 35.5575765], [-97.6469399, 35.5575742], [-97.646941, 35.5576875], [-97.6472484, 35.5576879]]]}, "properties": {"osm_id": 323890135, "building": "retail", "name": "", "height": null, "height_m": null, "levels": null, "tract_id": "40109108521", "tract_name": "1085.21", "tags": {"building": "retail", "roof:shape": "gabled"}}}, {"type": "Feature", "geometry": {"type": "Polygon", "coordinates": [[[-97.6452385, 35.5528509], [-97.6452375, 35.5525764], [-97.6450319, 35.5525769], [-97.6450329, 35.5528515], [-97.6452385, 35.5528509]]]}, "properties": {"osm_id": 323890137, "building": "warehouse", "name": "", "height": null, "height_m": null, "levels": null, "tract_id": "40109108521", "tract_name": "1085.21", "tags": {"building": "warehouse"}}}, {"type": "Feature", "geometry": {"type": "Polygon", "coordinates": [[[-97.6443915, 35.5552854], [-97.6443876, 35.555068], [-97.6441829, 35.5550705], [-97.6441868, 35.5552879], [-97.6443915, 35.5552854]]]}, "properties": {"osm_id": 323890142, "building": "retail", "name": "", "height": null, "height_m": null, "levels": null, "tract_id": "40109108521", "tract_name": "1085.21", "tags": {"building": "retail", "roof:shape": "flat"}}}, {"type": "Feature", "geometry": {"type": "Polygon", "coordinates": [[[-97.6445019, 35.5547263], [-97.6445014, 35.5544502], [-97.6442289, 35.5544474], [-97.6442276, 35.5547243], [-97.6445019, 35.5547263]]]}, "properties": {"osm_id": 323890146, "building": "warehouse", "name": "", "height": null, "height_m": null, "levels": null, "tract_id": "40109108521", "tract_name": "1085.21", "tags": {"building": "warehouse"}}}, {"type": "Feature", "geometry": {"type": "Polygon", "coordinates": [[[-97.6441586, 35.5541249], [-97.6441616, 35.5539936], [-97.6438459, 35.5539889], [-97.643843, 35.5541202], [-97.6441586, 35.5541249]]]}, "properties": {"osm_id": 323890151, "building": "warehouse", "name": "", "height": null, "height_m": null, "levels": null, "tract_id": "40109108521", "tract_name": "1085.21", "tags": {"building": "warehouse"}}}, {"type": "Feature", "geometry": {"type": "Polygon", "coordinates": [[[-97.6447974, 35.5580372], [-97.6447968, 35.5578906], [-97.6446151, 35.5578911], [-97.6446156, 35.5580376], [-97.6447974, 35.5580372]]]}, "properties": {"osm_id": 323890153, "building": "warehouse", "name": "", "height": null, "height_m": null, "levels": null, "tract_id": "40109108521", "tract_name": "1085.21", "tags": {"building": "warehouse"}}}, {"type": "Feature", "geometry": {"type": "Polygon", "coordinates": [[[-97.6453232, 35.5575914], [-97.6453192, 35.557338], [-97.6451609, 35.5573397], [-97.6451649, 35.5575931], [-97.6453232, 35.5575914]]]}, "properties": {"osm_id": 323890157, "building": "warehouse", "name": "", "height": null, "height_m": null, "levels": null, "tract_id": "40109108521", "tract_name": "1085.21", "tags": {"building": "warehouse"}}}, {"type": "Feature", "geometry": {"type": "Polygon", "coordinates": [[[-97.645622, 35.5567178], [-97.6456238, 35.5564573], [-97.6454827, 35.5564567], [-97.6454809, 35.5567172], [-97.645622, 35.5567178]]]}, "properties": {"osm_id": 323890163, "building": "retail", "name": "", "height": null, "height_m": null, "levels": null, "tract_id": "40109108521", "tract_name": "1085.21", "tags": {"building": "retail", "roof:shape": "gabled"}}}, {"type": "Feature", "geometry": {"type": "Polygon", "coordinates": [[[-97.6305393, 35.5528938], [-97.6307757, 35.5529959], [-97.6302415, 35.5538153], [-97.630005, 35.5537133], [-97.6305393, 35.5528938]]]}, "properties": {"osm_id": 323890173, "building": "retail", "name": "", "height": null, "height_m": null, "levels": null, "tract_id": "40109108521", "tract_name": "1085.21", "tags": {"building": "retail", "roof:shape": "flat"}}}, {"type": "Feature", "geometry": {"type": "Polygon", "coordinates": [[[-97.6370604, 35.5516679], [-97.637063, 35.5514573], [-97.6367171, 35.5514545], [-97.6367144, 35.5516651], [-97.6370604, 35.5516679]]]}, "properties": {"osm_id": 323890187, "building": "warehouse", "name": "", "height": null, "height_m": null, "levels": null, "tract_id": "40109108521", "tract_name": "1085.21", "tags": {"building": "warehouse"}}}, {"type": "Feature", "geometry": {"type": "Polygon", "coordinates": [[[-97.6470993, 35.5574505], [-97.6470995, 35.5572838], [-97.6469399, 35.5572837], [-97.6469397, 35.5574504], [-97.6470993, 35.5574505]]]}, "properties": {"osm_id": 323890191, "building": "warehouse", "name": "", "height": null, "height_m": null, "levels": null, "tract_id": "40109108521", "tract_name": "1085.21", "tags": {"building": "warehouse"}}}, {"type": "Feature", "geometry": {"type": "Polygon", "coordinates": [[[-97.6339491, 35.5520708], [-97.6339511, 35.5517963], [-97.6338664, 35.5517959], [-97.6338644, 35.5520704], [-97.6339491, 35.5520708]]]}, "properties": {"osm_id": 323890192, "building": "shed", "name": "", "height": null, "height_m": null, "levels": null, "tract_id": "40109108521", "tract_name": "1085.21", "tags": {"building": "shed"}}}, {"type": "Feature", "geometry": {"type": "Polygon", "coordinates": [[[-97.6459232, 35.557595], [-97.6459264, 35.5573365], [-97.6457706, 35.5573351], [-97.6457673, 35.5575936], [-97.6459232, 35.557595]]]}, "properties": {"osm_id": 323890194, "building": "retail", "name": "", "height": null, "height_m": null, "levels": null, "tract_id": "40109108521", "tract_name": "1085.21", "tags": {"building": "retail", "roof:shape": "gabled"}}}, {"type": "Feature", "geometry": {"type": "Polygon", "coordinates": [[[-97.6417177, 35.5548748], [-97.6417116, 35.5545215], [-97.641541, 35.5545235], [-97.6415471, 35.5548767], [-97.6417177, 35.5548748]]]}, "properties": {"osm_id": 323890195, "building": "apartments", "name": "", "height": null, "height_m": null, "levels": null, "tract_id": "40109108521", "tract_name": "1085.21", "tags": {"building": "apartments"}}}, {"type": "Feature", "geometry": {"type": "Polygon", "coordinates": [[[-97.6452106, 35.5552835], [-97.6452102, 35.5551068], [-97.6446042, 35.5551076], [-97.6446045, 35.5552843], [-97.6452106, 35.5552835]]]}, "properties": {"osm_id": 323890199, "building": "warehouse", "name": "", "height": null, "height_m": null, "levels": null, "tract_id": "40109108521", "tract_name": "1085.21", "tags": {"building": "warehouse", "roof:shape": "flat"}}}, {"type": "Feature", "geometry": {"type": "Polygon", "coordinates": [[[-97.6472338, 35.556464], [-97.6472348, 35.5563501], [-97.6470716, 35.5563492], [-97.6470718, 35.5563309], [-97.6469886, 35.5563304], [-97.6469885, 35.5563488], [-97.6469514, 35.5563486], [-97.6469504, 35.5564626], [-97.6472338, 35.556464]]]}, "properties": {"osm_id": 323890205, "building": "warehouse", "name": "", "height": null, "height_m": null, "levels": null, "tract_id": "40109108521", "tract_name": "1085.21", "tags": {"building": "warehouse"}}}, {"type": "Feature", "geometry": {"type": "Polygon", "coordinates": [[[-97.6458945, 35.5543696], [-97.6458925, 35.5538157], [-97.6457219, 35.5538161], [-97.645724, 35.55437], [-97.6458945, 35.5543696]]]}, "properties": {"osm_id": 323890206, "building": "warehouse", "name": "", "height": null, "height_m": null, "levels": null, "tract_id": "40109108521", "tract_name": "1085.21", "tags": {"building": "warehouse"}}}, {"type": "Feature", "geometry": {"type": "Polygon", "coordinates": [[[-97.6401555, 35.5534545], [-97.6400449, 35.5535046], [-97.6398757, 35.5532572], [-97.6399863, 35.5532071], [-97.6401555, 35.5534545]]]}, "properties": {"osm_id": 323890207, "building": "warehouse", "name": "", "height": null, "height_m": null, "levels": null, "tract_id": "40109108521", "tract_name": "1085.21", "tags": {"building": "warehouse"}}}, {"type": "Feature", "geometry": {"type": "Polygon", "coordinates": [[[-97.641472, 35.5544339], [-97.6414713, 35.5543062], [-97.6410199, 35.5543076], [-97.6410205, 35.5544353], [-97.641472, 35.5544339]]]}, "properties": {"osm_id": 323890208, "building": "apartments", "name": "", "height": null, "height_m": null, "levels": null, "tract_id": "40109108521", "tract_name": "1085.21", "tags": {"building": "apartments"}}}, {"type": "Feature", "geometry": {"type": "Polygon", "coordinates": [[[-97.643534, 35.556223], [-97.6435335, 35.5560822], [-97.6425863, 35.5560848], [-97.6425869, 35.5562256], [-97.643534, 35.556223]]]}, "properties": {"osm_id": 323890211, "building": "retail", "name": "", "height": null, "height_m": null, "levels": null, "tract_id": "40109108521", "tract_name": "1085.21", "tags": {"building": "retail", "roof:shape": "flat"}}}, {"type": "Feature", "geometry": {"type": "Polygon", "coordinates": [[[-97.6459154, 35.5567139], [-97.6459146, 35.5564494], [-97.6457723, 35.5564496], [-97.6457731, 35.5567141], [-97.6459154, 35.5567139]]]}, "properties": {"osm_id": 323890214, "building": "warehouse", "name": "", "height": null, "height_m": null, "levels": null, "tract_id": "40109108521", "tract_name": "1085.21", "tags": {"building": "warehouse"}}}, {"type": "Feature", "geometry": {"type": "Polygon", "coordinates": [[[-97.6414635, 35.5542289], [-97.6414651, 35.5541081], [-97.6410284, 35.5541043], [-97.6410268, 35.5542251], [-97.6414635, 35.5542289]]]}, "properties": {"osm_id": 323890215, "building": "apartments", "name": "", "height": null, "height_m": null, "levels": null, "tract_id": "40109108521", "tract_name": "1085.21", "tags": {"building": "apartments"}}}, {"type": "Feature", "geometry": {"type": "Polygon", "coordinates": [[[-97.6434148, 35.5539969], [-97.6434142, 35.5538752], [-97.6429553, 35.5538767], [-97.6429559, 35.5539984], [-97.6434148, 35.5539969]]]}, "properties": {"osm_id": 323890219, "building": "apartments", "name": "", "height": null, "height_m": null, "levels": null, "tract_id": "40109108521", "tract_name": "1085.21", "tags": {"building": "apartments"}}}, {"type": "Feature", "geometry": {"type": "Polygon", "coordinates": [[[-97.6459248, 35.5563357], [-97.64592, 35.556112], [-97.6457728, 35.5561141], [-97.6457776, 35.5563378], [-97.6459248, 35.5563357]]]}, "properties": {"osm_id": 323890222, "building": "warehouse", "name": "", "height": null, "height_m": null, "levels": null, "tract_id": "40109108521", "tract_name": "1085.21", "tags": {"building": "warehouse"}}}, {"type": "Feature", "geometry": {"type": "Polygon", "coordinates": [[[-97.6456222, 35.5572588], [-97.6456193, 35.5569969], [-97.6454666, 35.5569981], [-97.6454696, 35.55726], [-97.6456222, 35.5572588]]]}, "properties": {"osm_id": 323890223, "building": "warehouse", "name": "", "height": null, "height_m": null, "levels": null, "tract_id": "40109108521", "tract_name": "1085.21", "tags": {"building": "warehouse"}}}, {"type": "Feature", "geometry": {"type": "Polygon", "coordinates": [[[-97.6391895, 35.5531518], [-97.6391864, 35.5529682], [-97.6386659, 35.5529741], [-97.6386691, 35.5531577], [-97.6391895, 35.5531518]]]}, "properties": {"osm_id": 323890226, "building": "warehouse", "name": "", "height": null, "height_m": null, "levels": null, "tract_id": "40109108521", "tract_name": "1085.21", "tags": {"building": "warehouse"}}}, {"type": "Feature", "geometry": {"type": "Polygon", "coordinates": [[[-97.6286935, 35.5520629], [-97.6286973, 35.5518951], [-97.628236, 35.5518882], [-97.6282322, 35.552056], [-97.6286935, 35.5520629]]]}, "properties": {"osm_id": 323890228, "building": "apartments", "name": "", "height": null, "height_m": null, "levels": null, "tract_id": "40109108521", "tract_name": "1085.21", "tags": {"building": "apartments", "roof:shape": "gabled"}}}, {"type": "Feature", "geometry": {"type": "Polygon", "coordinates": [[[-97.6392024, 35.5528756], [-97.6392013, 35.5527049], [-97.6387485, 35.5527068], [-97.6387496, 35.5528776], [-97.6392024, 35.5528756]]]}, "properties": {"osm_id": 323890229, "building": "warehouse", "name": "", "height": null, "height_m": null, "levels": null, "tract_id": "40109108521", "tract_name": "1085.21", "tags": {"building": "warehouse"}}}, {"type": "Feature", "geometry": {"type": "Polygon", "coordinates": [[[-97.6336726, 35.5520374], [-97.6336717, 35.551828], [-97.6334259, 35.5518286], [-97.6334267, 35.552038], [-97.6336726, 35.5520374]]]}, "properties": {"osm_id": 323890231, "building": "warehouse", "name": "", "height": null, "height_m": null, "levels": null, "tract_id": "40109108521", "tract_name": "1085.21", "tags": {"building": "warehouse"}}}, {"type": "Feature", "geometry": {"type": "Polygon", "coordinates": [[[-97.6355482, 35.5527298], [-97.6355514, 35.5524524], [-97.6353673, 35.552451], [-97.6353642, 35.5527285], [-97.6355482, 35.5527298]]]}, "properties": {"osm_id": 323890241, "building": "warehouse", "name": "", "height": null, "height_m": null, "levels": null, "tract_id": "40109108521", "tract_name": "1085.21", "tags": {"building": "warehouse"}}}, {"type": "Feature", "geometry": {"type": "Polygon", "coordinates": [[[-97.6379577, 35.5526114], [-97.6379599, 35.5524483], [-97.6376919, 35.5524459], [-97.6376896, 35.552609], [-97.6379577, 35.5526114]]]}, "properties": {"osm_id": 323890243, "building": "retail", "name": "", "height": null, "height_m": null, "levels": null, "tract_id": "40109108521", "tract_name": "1085.21", "tags": {"building": "retail", "roof:shape": "flat"}}}, {"type": "Feature", "geometry": {"type": "Polygon", "coordinates": [[[-97.646031, 35.5535463], [-97.646031, 35.5533667], [-97.6456139, 35.5533667], [-97.6456138, 35.5535463], [-97.646031, 35.5535463]]]}, "properties": {"osm_id": 323890247, "building": "warehouse", "name": "", "height": null, "height_m": null, "levels": null, "tract_id": "40109108521", "tract_name": "1085.21", "tags": {"building": "warehouse", "roof:shape": "flat"}}}, {"type": "Feature", "geometry": {"type": "Polygon", "coordinates": [[[-97.6448209, 35.5575565], [-97.6448154, 35.5573381], [-97.6446056, 35.5573416], [-97.6446111, 35.55756], [-97.6448209, 35.5575565]]]}, "properties": {"osm_id": 323890253, "building": "warehouse", "name": "", "height": null, "height_m": null, "levels": null, "tract_id": "40109108521", "tract_name": "1085.21", "tags": {"building": "warehouse"}}}, {"type": "Feature", "geometry": {"type": "Polygon", "coordinates": [[[-97.6451903, 35.5546676], [-97.6451903, 35.5544999], [-97.6448443, 35.5544979], [-97.6448394, 35.5546736], [-97.6451903, 35.5546676]]]}, "properties": {"osm_id": 323890259, "building": "warehouse", "name": "", "height": null, "height_m": null, "levels": null, "tract_id": "40109108521", "tract_name": "1085.21", "tags": {"building": "warehouse"}}}, {"type": "Feature", "geometry": {"type": "Polygon", "coordinates": [[[-97.6492895, 35.5623469], [-97.6497297, 35.5616681], [-97.6494328, 35.5615406], [-97.6489926, 35.5622195], [-97.6492895, 35.5623469]]]}, "properties": {"osm_id": 323890270, "building": "retail", "name": "", "height": null, "height_m": null, "levels": null, "tract_id": "40109108521", "tract_name": "1085.21", "tags": {"building": "retail"}}}, {"type": "Feature", "geometry": {"type": "Polygon", "coordinates": [[[-97.6379777, 35.5529495], [-97.6379729, 35.5526587], [-97.6378081, 35.5526605], [-97.6378129, 35.5529513], [-97.6379777, 35.5529495]]]}, "properties": {"osm_id": 323890271, "building": "retail", "name": "", "height": null, "height_m": null, "levels": null, "tract_id": "40109108521", "tract_name": "1085.21", "tags": {"building": "retail", "roof:shape": "flat"}}}, {"type": "Feature", "geometry": {"type": "Polygon", "coordinates": [[[-97.627875, 35.5521256], [-97.6280034, 35.5519195], [-97.6281804, 35.5519943], [-97.6280468, 35.5521976], [-97.627875, 35.5521256]]]}, "properties": {"osm_id": 323890275, "building": "apartments", "name": "", "height": null, "height_m": null, "levels": null, "tract_id": "40109108521", "tract_name": "1085.21", "tags": {"building": "apartments", "roof:shape": "gabled"}}}, {"type": "Feature", "geometry": {"type": "Polygon", "coordinates": [[[-97.6448365, 35.5567091], [-97.6448315, 35.5564774], [-97.6446266, 35.5564803], [-97.6446316, 35.556712], [-97.6448365, 35.5567091]]]}, "properties": {"osm_id": 323890279, "building": "retail", "name": "", "height": null, "height_m": null, "levels": null, "tract_id": "40109108521", "tract_name": "1085.21", "tags": {"building": "retail", "roof:shape": "gabled"}}}, {"type": "Feature", "geometry": {"type": "Polygon", "coordinates": [[[-97.6403282, 35.5548468], [-97.6403282, 35.5549697], [-97.6398846, 35.5549698], [-97.6398845, 35.5548469], [-97.6403282, 35.5548468]]]}, "properties": {"osm_id": 323890282, "building": "apartments", "name": "", "height": null, "height_m": null, "levels": null, "tract_id": "40109108521", "tract_name": "1085.21", "tags": {"building": "apartments"}}}, {"type": "Feature", "geometry": {"type": "Polygon", "coordinates": [[[-97.6420329, 35.5541445], [-97.6418944, 35.554204], [-97.6416897, 35.5538888], [-97.6418282, 35.5538293], [-97.6420329, 35.5541445]]]}, "properties": {"osm_id": 323890287, "building": "apartments", "name": "", "height": null, "height_m": null, "levels": null, "tract_id": "40109108521", "tract_name": "1085.21", "tags": {"building": "apartments"}}}, {"type": "Feature", "geometry": {"type": "Polygon", "coordinates": [[[-97.6456218, 35.5575933], [-97.6454647, 35.5575913], [-97.6454696, 35.5573358], [-97.6456267, 35.5573358], [-97.6456218, 35.5575933]]]}, "properties": {"osm_id": 323890288, "building": "warehouse", "name": "", "height": null, "height_m": null, "levels": null, "tract_id": "40109108521", "tract_name": "1085.21", "tags": {"building": "warehouse"}}}, {"type": "Feature", "geometry": {"type": "Polygon", "coordinates": [[[-97.6471322, 35.5572044], [-97.6471326, 35.5570934], [-97.6469194, 35.5570928], [-97.6469189, 35.5572039], [-97.6471322, 35.5572044]]]}, "properties": {"osm_id": 323890289, "building": "warehouse", "name": "", "height": null, "height_m": null, "levels": null, "tract_id": "40109108521", "tract_name": "1085.21", "tags": {"building": "warehouse"}}}, {"type": "Feature", "geometry": {"type": "Polygon", "coordinates": [[[-97.6400687, 35.5582624], [-97.6400689, 35.5582116], [-97.6400938, 35.5582117], [-97.6400941, 35.5581448], [-97.6400692, 35.5581448], [-97.6400697, 35.5580397], [-97.6399568, 35.5580394], [-97.6399565, 35.5581055], [-97.6399342, 35.5581054], [-97.639934, 35.5581488], [-97.6399563, 35.5581488], [-97.6399558, 35.558262], [-97.6399746, 35.5582621], [-97.6399745, 35.5582826], [-97.64005, 35.5582828], [-97.6400501, 35.5582623], [-97.6400687, 35.5582624]]]}, "properties": {"osm_id": 323890292, "building": "retail", "name": "Taco Bueno", "height": null, "height_m": null, "levels": null, "tract_id": "40109108521", "tract_name": "1085.21", "tags": {"amenity": "fast_food", "brand": "Taco Bueno", "brand:wikidata": "Q7673958", "building": "retail", "cuisine": "mexican", "drive_through": "yes", "name": "Taco Bueno", "takeaway": "yes"}}}, {"type": "Feature", "geometry": {"type": "Polygon", "coordinates": [[[-97.6444738, 35.5535659], [-97.6444716, 35.5532884], [-97.6442593, 35.5532896], [-97.6442615, 35.553567], [-97.6444738, 35.5535659]]]}, "properties": {"osm_id": 323890297, "building": "warehouse", "name": "", "height": null, "height_m": null, "levels": null, "tract_id": "40109108521", "tract_name": "1085.21", "tags": {"building": "warehouse"}}}, {"type": "Feature", "geometry": {"type": "Polygon", "coordinates": [[[-97.6441624, 35.5536095], [-97.6441597, 35.5534548], [-97.6438272, 35.5534586], [-97.6438299, 35.5536133], [-97.6441624, 35.5536095]]]}, "properties": {"osm_id": 323890301, "building": "retail", "name": "", "height": null, "height_m": null, "levels": null, "tract_id": "40109108521", "tract_name": "1085.21", "tags": {"building": "retail", "roof:shape": "gabled"}}}, {"type": "Feature", "geometry": {"type": "Polygon", "coordinates": [[[-97.6453174, 35.556715], [-97.6453149, 35.5564525], [-97.6451677, 35.5564535], [-97.6451702, 35.556716], [-97.6453174, 35.556715]]]}, "properties": {"osm_id": 323890302, "building": "retail", "name": "", "height": null, "height_m": null, "levels": null, "tract_id": "40109108521", "tract_name": "1085.21", "tags": {"building": "retail", "roof:shape": "gabled"}}}, {"type": "Feature", "geometry": {"type": "Polygon", "coordinates": [[[-97.6453198, 35.5572573], [-97.6453162, 35.5569919], [-97.645167, 35.5569933], [-97.6451705, 35.5572586], [-97.6453198, 35.5572573]]]}, "properties": {"osm_id": 323890303, "building": "warehouse", "name": "", "height": null, "height_m": null, "levels": null, "tract_id": "40109108521", "tract_name": "1085.21", "tags": {"building": "warehouse"}}}, {"type": "Feature", "geometry": {"type": "Polygon", "coordinates": [[[-97.644385, 35.5565512], [-97.6443768, 35.5561009], [-97.6441165, 35.5561041], [-97.6441248, 35.5565544], [-97.644385, 35.5565512]]]}, "properties": {"osm_id": 323890304, "building": "warehouse", "name": "", "height": null, "height_m": null, "levels": null, "tract_id": "40109108521", "tract_name": "1085.21", "tags": {"building": "warehouse"}}}, {"type": "Feature", "geometry": {"type": "Polygon", "coordinates": [[[-97.6448328, 35.55638], [-97.6448298, 35.5561175], [-97.6446176, 35.5561191], [-97.6446206, 35.5563816], [-97.6448328, 35.55638]]]}, "properties": {"osm_id": 323890307, "building": "warehouse", "name": "", "height": null, "height_m": null, "levels": null, "tract_id": "40109108521", "tract_name": "1085.21", "tags": {"building": "warehouse"}}}, {"type": "Feature", "geometry": {"type": "Polygon", "coordinates": [[[-97.6452986, 35.5557273], [-97.6452965, 35.5555488], [-97.6446192, 35.5555541], [-97.6446213, 35.5557326], [-97.6452986, 35.5557273]]]}, "properties": {"osm_id": 323890310, "building": "warehouse", "name": "", "height": null, "height_m": null, "levels": null, "tract_id": "40109108521", "tract_name": "1085.21", "tags": {"building": "warehouse"}}}, {"type": "Feature", "geometry": {"type": "Polygon", "coordinates": [[[-97.6558198, 35.5597364], [-97.6558198, 35.5596811], [-97.6558441, 35.559681], [-97.655844, 35.5596099], [-97.6558255, 35.5596099], [-97.6558255, 35.5595767], [-97.6558223, 35.5595685], [-97.6558161, 35.5595612], [-97.6558076, 35.5595576], [-97.6557987, 35.5595555], [-97.6555703, 35.5595557], [-97.6555706, 35.5597367], [-97.6558198, 35.5597364]]]}, "properties": {"osm_id": 323890311, "building": "office", "name": "", "height": null, "height_m": null, "levels": null, "tract_id": "40109108521", "tract_name": "1085.21", "tags": {"building": "office"}}}, {"type": "Feature", "geometry": {"type": "Polygon", "coordinates": [[[-97.6284161, 35.5531121], [-97.6286489, 35.5527577], [-97.6284405, 35.5526671], [-97.6283676, 35.5527781], [-97.6283407, 35.5527664], [-97.6281808, 35.5530098], [-97.6284161, 35.5531121]]]}, "properties": {"osm_id": 323890329, "building": "retail", "name": "", "height": null, "height_m": null, "levels": null, "tract_id": "40109108521", "tract_name": "1085.21", "tags": {"building": "retail", "roof:shape": "flat"}}}, {"type": "Feature", "geometry": {"type": "Polygon", "coordinates": [[[-97.6336452, 35.5528272], [-97.6336461, 35.5527178], [-97.6334379, 35.5527166], [-97.633437, 35.5528246], [-97.6336452, 35.5528272]]]}, "properties": {"osm_id": 323890330, "building": "shed", "name": "", "height": null, "height_m": null, "levels": null, "tract_id": "40109108521", "tract_name": "1085.21", "tags": {"building": "shed"}}}, {"type": "Feature", "geometry": {"type": "Polygon", "coordinates": [[[-97.637062, 35.5520545], [-97.6370614, 35.5518459], [-97.6367179, 35.5518465], [-97.6367185, 35.5520551], [-97.637062, 35.5520545]]]}, "properties": {"osm_id": 323890333, "building": "warehouse", "name": "", "height": null, "height_m": null, "levels": null, "tract_id": "40109108521", "tract_name": "1085.21", "tags": {"building": "warehouse"}}}, {"type": "Feature", "geometry": {"type": "Polygon", "coordinates": [[[-97.6410379, 35.5548253], [-97.6410418, 35.5546915], [-97.6405928, 35.5546828], [-97.6405888, 35.5548165], [-97.6410379, 35.5548253]]]}, "properties": {"osm_id": 323890335, "building": "apartments", "name": "", "height": null, "height_m": null, "levels": null, "tract_id": "40109108521", "tract_name": "1085.21", "tags": {"building": "apartments"}}}, {"type": "Feature", "geometry": {"type": "Polygon", "coordinates": [[[-97.627195, 35.5520384], [-97.6272951, 35.5519004], [-97.6269737, 35.5517461], [-97.6269061, 35.5517136], [-97.626806, 35.5518517], [-97.627195, 35.5520384]]]}, "properties": {"osm_id": 323890339, "building": "apartments", "name": "", "height": null, "height_m": null, "levels": null, "tract_id": "40109108521", "tract_name": "1085.21", "tags": {"building": "apartments", "roof:shape": "gabled"}}}, {"type": "Feature", "geometry": {"type": "Polygon", "coordinates": [[[-97.6419584, 35.5548759], [-97.6419666, 35.5545197], [-97.6418119, 35.5545174], [-97.6418037, 35.5548736], [-97.6419584, 35.5548759]]]}, "properties": {"osm_id": 323890341, "building": "apartments", "name": "", "height": null, "height_m": null, "levels": null, "tract_id": "40109108521", "tract_name": "1085.21", "tags": {"building": "apartments"}}}, {"type": "Feature", "geometry": {"type": "Polygon", "coordinates": [[[-97.6397597, 35.5549674], [-97.6397632, 35.5548403], [-97.639319, 35.5548375], [-97.639319, 35.5549674], [-97.6397597, 35.5549674]]]}, "properties": {"osm_id": 323890343, "building": "apartments", "name": "", "height": null, "height_m": null, "levels": null, "tract_id": "40109108521", "tract_name": "1085.21", "tags": {"building": "apartments"}}}, {"type": "Feature", "geometry": {"type": "Polygon", "coordinates": [[[-97.6296888, 35.5535066], [-97.6298903, 35.5532172], [-97.6296302, 35.5530973], [-97.6294287, 35.5533868], [-97.6296888, 35.5535066]]]}, "properties": {"osm_id": 323890349, "building": "yes", "name": "AutoZone Auto Parts", "height": null, "height_m": null, "levels": null, "tract_id": "40109108521", "tract_name": "1085.21", "tags": {"building": "yes", "name": "AutoZone Auto Parts", "roof:shape": "flat", "shop": "car_parts"}}}, {"type": "Feature", "geometry": {"type": "Polygon", "coordinates": [[[-97.64601, 35.554816], [-97.64601, 35.5546912], [-97.6455745, 35.5546912], [-97.6455745, 35.554816], [-97.64601, 35.554816]]]}, "properties": {"osm_id": 323890354, "building": "warehouse", "name": "", "height": null, "height_m": null, "levels": null, "tract_id": "40109108521", "tract_name": "1085.21", "tags": {"building": "warehouse"}}}, {"type": "Feature", "geometry": {"type": "Polygon", "coordinates": [[[-97.6417738, 35.554198], [-97.6415792, 35.5538805], [-97.6414456, 35.5539347], [-97.6416403, 35.5542522], [-97.6417738, 35.554198]]]}, "properties": {"osm_id": 323890359, "building": "apartments", "name": "", "height": null, "height_m": null, "levels": null, "tract_id": "40109108521", "tract_name": "1085.21", "tags": {"building": "apartments"}}}, {"type": "Feature", "geometry": {"type": "Polygon", "coordinates": [[[-97.6433526, 35.5537986], [-97.6433561, 35.5534442], [-97.6432003, 35.5534432], [-97.6431967, 35.5537976], [-97.6433526, 35.5537986]]]}, "properties": {"osm_id": 323890361, "building": "apartments", "name": "", "height": null, "height_m": null, "levels": null, "tract_id": "40109108521", "tract_name": "1085.21", "tags": {"building": "apartments"}}}, {"type": "Feature", "geometry": {"type": "Polygon", "coordinates": [[[-97.6293259, 35.5528725], [-97.6297632, 35.5522236], [-97.629393, 35.5520585], [-97.6289557, 35.5527073], [-97.6293259, 35.5528725]]]}, "properties": {"osm_id": 323890365, "building": "retail", "name": "", "height": null, "height_m": null, "levels": null, "tract_id": "40109108521", "tract_name": "1085.21", "tags": {"building": "retail", "roof:shape": "flat"}}}, {"type": "Feature", "geometry": {"type": "Polygon", "coordinates": [[[-97.6395239, 35.5579561], [-97.6395234, 35.5578779], [-97.6395263, 35.5578779], [-97.6395258, 35.5578072], [-97.639523, 35.5578072], [-97.6395227, 35.5577591], [-97.6395192, 35.5577591], [-97.639519, 35.5577272], [-97.6394117, 35.5577277], [-97.6394119, 35.5577596], [-97.6394025, 35.5577596], [-97.6394037, 35.5579566], [-97.6395239, 35.5579561]]]}, "properties": {"osm_id": 323890367, "building": "retail", "name": "KFC", "height": null, "height_m": null, "levels": null, "tract_id": "40109108521", "tract_name": "1085.21", "tags": {"addr:city": "Oklahoma City", "addr:housenumber": "7120", "addr:postcode": "73132", "addr:state": "OK", "addr:street": "Northwest Expressway", "alt_name": "Kentucky Fried Chicken", "amenity": "fast_food", "brand": "KFC", "brand:wikidata": "Q524757", "building": "retail", "cuisine": "chicken", "drive_through": "yes", "name": "KFC", "takeaway": "yes", "website": "https://locations.kfc.com/ok/oklahoma-city/7120-nw-expressway"}}}, {"type": "Feature", "geometry": {"type": "Polygon", "coordinates": [[[-97.6459179, 35.555841], [-97.6459121, 35.5554218], [-97.6457747, 35.555423], [-97.6457805, 35.5558422], [-97.6459179, 35.555841]]]}, "properties": {"osm_id": 323890370, "building": "warehouse", "name": "", "height": null, "height_m": null, "levels": null, "tract_id": "40109108521", "tract_name": "1085.21", "tags": {"building": "warehouse"}}}, {"type": "Feature", "geometry": {"type": "Polygon", "coordinates": [[[-97.643119, 35.5533703], [-97.6430532, 35.5532613], [-97.6426474, 35.5534234], [-97.6427132, 35.5535324], [-97.643119, 35.5533703]]]}, "properties": {"osm_id": 323890371, "building": "apartments", "name": "", "height": null, "height_m": null, "levels": null, "tract_id": "40109108521", "tract_name": "1085.21", "tags": {"building": "apartments"}}}, {"type": "Feature", "geometry": {"type": "Polygon", "coordinates": [[[-97.6466046, 35.5563894], [-97.6466023, 35.5562194], [-97.6462726, 35.5562224], [-97.646275, 35.5563925], [-97.6466046, 35.5563894]]]}, "properties": {"osm_id": 323890372, "building": "warehouse", "name": "", "height": null, "height_m": null, "levels": null, "tract_id": "40109108521", "tract_name": "1085.21", "tags": {"building": "warehouse"}}}, {"type": "Feature", "geometry": {"type": "Polygon", "coordinates": [[[-97.6406734, 35.5574112], [-97.640686, 35.5570642], [-97.6404171, 35.5570578], [-97.6404046, 35.5574047], [-97.6406734, 35.5574112]]]}, "properties": {"osm_id": 323890373, "building": "retail", "name": "", "height": null, "height_m": 3.0, "levels": 1, "tract_id": "40109108521", "tract_name": "1085.21", "tags": {"addr:housenumber": "7116", "building": "retail", "building:levels": "1"}}}, {"type": "Feature", "geometry": {"type": "Polygon", "coordinates": [[[-97.6398331, 35.5536004], [-97.6396578, 35.55335], [-97.6395544, 35.5533979], [-97.6397297, 35.5536483], [-97.6398331, 35.5536004]]]}, "properties": {"osm_id": 323890374, "building": "warehouse", "name": "", "height": null, "height_m": null, "levels": null, "tract_id": "40109108521", "tract_name": "1085.21", "tags": {"building": "warehouse"}}}, {"type": "Feature", "geometry": {"type": "Polygon", "coordinates": [[[-97.6465594, 35.5565587], [-97.646559, 35.5564444], [-97.646343, 35.5564448], [-97.6463434, 35.5565591], [-97.6465594, 35.5565587]]]}, "properties": {"osm_id": 323890376, "building": "warehouse", "name": "", "height": null, "height_m": null, "levels": null, "tract_id": "40109108521", "tract_name": "1085.21", "tags": {"building": "warehouse"}}}, {"type": "Feature", "geometry": {"type": "Polygon", "coordinates": [[[-97.6338133, 35.5526283], [-97.633814, 35.5521276], [-97.6334064, 35.5521272], [-97.6334057, 35.5526279], [-97.6338133, 35.5526283]]]}, "properties": {"osm_id": 323890378, "building": "warehouse", "name": "", "height": null, "height_m": null, "levels": null, "tract_id": "40109108521", "tract_name": "1085.21", "tags": {"building": "warehouse", "roof:shape": "flat"}}}, {"type": "Feature", "geometry": {"type": "Polygon", "coordinates": [[[-97.6472084, 35.5582474], [-97.6472084, 35.5580831], [-97.6466408, 35.5580831], [-97.6466408, 35.5582474], [-97.6472084, 35.5582474]]]}, "properties": {"osm_id": 323890379, "building": "warehouse", "name": "", "height": null, "height_m": null, "levels": null, "tract_id": "40109108521", "tract_name": "1085.21", "tags": {"building": "warehouse"}}}, {"type": "Feature", "geometry": {"type": "Polygon", "coordinates": [[[-97.6454793, 35.5552307], [-97.6454887, 35.55507], [-97.6452973, 35.5550626], [-97.6452879, 35.5552233], [-97.6454793, 35.5552307]]]}, "properties": {"osm_id": 323890381, "building": "warehouse", "name": "", "height": null, "height_m": null, "levels": null, "tract_id": "40109108521", "tract_name": "1085.21", "tags": {"building": "warehouse", "roof:shape": "flat"}}}, {"type": "Feature", "geometry": {"type": "Polygon", "coordinates": [[[-97.630593, 35.5528058], [-97.6304198, 35.5529561], [-97.629806, 35.5524878], [-97.6299792, 35.5523375], [-97.630593, 35.5528058]]]}, "properties": {"osm_id": 323890384, "building": "retail", "name": "", "height": null, "height_m": null, "levels": null, "tract_id": "40109108521", "tract_name": "1085.21", "tags": {"building": "retail", "roof:shape": "flat"}}}, {"type": "Feature", "geometry": {"type": "Polygon", "coordinates": [[[-97.6337746, 35.5536547], [-97.6337686, 35.5531456], [-97.6333686, 35.5531487], [-97.6333746, 35.5536578], [-97.6337746, 35.5536547]]]}, "properties": {"osm_id": 323890390, "building": "warehouse", "name": "", "height": null, "height_m": null, "levels": null, "tract_id": "40109108521", "tract_name": "1085.21", "tags": {"building": "warehouse"}}}, {"type": "Feature", "geometry": {"type": "Polygon", "coordinates": [[[-97.6411352, 35.5587164], [-97.6411306, 35.5587234], [-97.6411653, 35.5587384], [-97.6412027, 35.5586812], [-97.6412371, 35.558696], [-97.641265, 35.5586532], [-97.641254, 35.5586485], [-97.6410213, 35.5585478], [-97.6409605, 35.5586407], [-97.6411352, 35.5587164]]]}, "properties": {"osm_id": 323890393, "building": "yes", "name": "Raising Cane's", "height": null, "height_m": 3.0, "levels": 1, "tract_id": "40109108521", "tract_name": "1085.21", "tags": {"addr:housenumber": "7234", "amenity": "fast_food", "brand": "Raising Cane's", "brand:wikidata": "Q7285144", "building": "yes", "building:levels": "1", "cuisine": "chicken", "drive_through": "yes", "name": "Raising Cane's", "official_name": "Raising Cane's Chicken Fingers", "takeaway": "yes"}}}, {"type": "Feature", "geometry": {"type": "Polygon", "coordinates": [[[-97.6452511, 35.553159], [-97.6452458, 35.5528809], [-97.645034, 35.5528836], [-97.6450393, 35.5531617], [-97.6452511, 35.553159]]]}, "properties": {"osm_id": 323890399, "building": "warehouse", "name": "", "height": null, "height_m": null, "levels": null, "tract_id": "40109108521", "tract_name": "1085.21", "tags": {"building": "warehouse"}}}, {"type": "Feature", "geometry": {"type": "Polygon", "coordinates": [[[-97.6290311, 35.5522197], [-97.6291683, 35.5520055], [-97.6289912, 35.5519304], [-97.628854, 35.5521446], [-97.6290311, 35.5522197]]]}, "properties": {"osm_id": 323890400, "building": "apartments", "name": "", "height": null, "height_m": null, "levels": null, "tract_id": "40109108521", "tract_name": "1085.21", "tags": {"building": "apartments", "roof:shape": "gabled"}}}, {"type": "Feature", "geometry": {"type": "Polygon", "coordinates": [[[-97.6443054, 35.555775], [-97.6443037, 35.5556593], [-97.644007, 35.5556621], [-97.6440087, 35.5557779], [-97.6443054, 35.555775]]]}, "properties": {"osm_id": 323890401, "building": "warehouse", "name": "", "height": null, "height_m": null, "levels": null, "tract_id": "40109108521", "tract_name": "1085.21", "tags": {"building": "warehouse"}}}, {"type": "Feature", "geometry": {"type": "Polygon", "coordinates": [[[-97.643513, 35.5547484], [-97.6435134, 35.5545088], [-97.64333, 35.5545086], [-97.6433296, 35.5547482], [-97.643513, 35.5547484]]]}, "properties": {"osm_id": 323890402, "building": "warehouse", "name": "", "height": null, "height_m": null, "levels": null, "tract_id": "40109108521", "tract_name": "1085.21", "tags": {"building": "warehouse"}}}, {"type": "Feature", "geometry": {"type": "Polygon", "coordinates": [[[-97.6462258, 35.5575926], [-97.6462274, 35.5573331], [-97.6460778, 35.5573325], [-97.6460761, 35.557592], [-97.6462258, 35.5575926]]]}, "properties": {"osm_id": 323890407, "building": "retail", "name": "", "height": null, "height_m": null, "levels": null, "tract_id": "40109108521", "tract_name": "1085.21", "tags": {"building": "retail", "roof:shape": "gabled"}}}, {"type": "Feature", "geometry": {"type": "Polygon", "coordinates": [[[-97.6325257, 35.5548783], [-97.6327004, 35.5546145], [-97.6330169, 35.5547532], [-97.6328422, 35.555017], [-97.6325257, 35.5548783]]]}, "properties": {"osm_id": 323890410, "building": "retail", "name": "", "height": null, "height_m": null, "levels": null, "tract_id": "40109108521", "tract_name": "1085.21", "tags": {"building": "retail"}}}, {"type": "Feature", "geometry": {"type": "Polygon", "coordinates": [[[-97.6435034, 35.5558108], [-97.6435039, 35.5556638], [-97.6435207, 35.5556638], [-97.6435209, 35.5556082], [-97.6435011, 35.5556081], [-97.6435014, 35.5555176], [-97.643521, 35.5555176], [-97.6435212, 35.5554617], [-97.6435046, 35.5554616], [-97.6435051, 35.555317], [-97.6429041, 35.5553157], [-97.6429036, 35.555463], [-97.6428871, 35.555463], [-97.6428869, 35.5555173], [-97.6429034, 35.5555173], [-97.6429031, 35.5556065], [-97.6428874, 35.5556065], [-97.6428873, 35.5556632], [-97.6429029, 35.5556632], [-97.6429024, 35.5558094], [-97.6430098, 35.5558097], [-97.6430098, 35.5558075], [-97.6430839, 35.5558077], [-97.6430839, 35.5558098], [-97.6431506, 35.55581], [-97.6431506, 35.5558072], [-97.6432596, 35.5558075], [-97.6432595, 35.5558102], [-97.6433273, 35.5558104], [-97.6433273, 35.555808], [-97.643401, 35.5558082], [-97.643401, 35.5558105], [-97.6435034, 35.5558108]]]}, "properties": {"osm_id": 323890413, "building": "retail", "name": "", "height": null, "height_m": null, "levels": null, "tract_id": "40109108521", "tract_name": "1085.21", "tags": {"building": "retail", "roof:shape": "flat"}}}, {"type": "Feature", "geometry": {"type": "Polygon", "coordinates": [[[-97.62923, 35.5519118], [-97.6292426, 35.5515614], [-97.6290413, 35.5515566], [-97.6290287, 35.551907], [-97.62923, 35.5519118]]]}, "properties": {"osm_id": 323890421, "building": "apartments", "name": "", "height": null, "height_m": null, "levels": null, "tract_id": "40109108521", "tract_name": "1085.21", "tags": {"building": "apartments", "roof:shape": "gabled"}}}, {"type": "Feature", "geometry": {"type": "Polygon", "coordinates": [[[-97.6402143, 35.5546455], [-97.6401449, 35.5545326], [-97.6397493, 35.5546963], [-97.6398256, 35.5548121], [-97.6402143, 35.5546455]]]}, "properties": {"osm_id": 323890426, "building": "apartments", "name": "", "height": null, "height_m": null, "levels": null, "tract_id": "40109108521", "tract_name": "1085.21", "tags": {"building": "apartments"}}}, {"type": "Feature", "geometry": {"type": "Polygon", "coordinates": [[[-97.6328736, 35.5532865], [-97.632516, 35.5530204], [-97.6326624, 35.5528901], [-97.63302, 35.5531562], [-97.6328736, 35.5532865]]]}, "properties": {"osm_id": 323890428, "building": "warehouse", "name": "", "height": null, "height_m": null, "levels": null, "tract_id": "40109108521", "tract_name": "1085.21", "tags": {"building": "warehouse"}}}, {"type": "Feature", "geometry": {"type": "Polygon", "coordinates": [[[-97.6367449, 35.5567659], [-97.6368687, 35.5565777], [-97.6366672, 35.55649], [-97.6365434, 35.5566781], [-97.6367449, 35.5567659]]]}, "properties": {"osm_id": 323890431, "building": "retail", "name": "", "height": null, "height_m": null, "levels": null, "tract_id": "40109108521", "tract_name": "1085.21", "tags": {"building": "retail", "roof:shape": "flat"}}}, {"type": "Feature", "geometry": {"type": "Polygon", "coordinates": [[[-97.6407829, 35.5546219], [-97.6407907, 35.5542718], [-97.6409331, 35.5542739], [-97.6409252, 35.554624], [-97.6407829, 35.5546219]]]}, "properties": {"osm_id": 323890434, "building": "apartments", "name": "", "height": null, "height_m": null, "levels": null, "tract_id": "40109108521", "tract_name": "1085.21", "tags": {"building": "apartments"}}}, {"type": "Feature", "geometry": {"type": "Polygon", "coordinates": [[[-97.6369512, 35.5528279], [-97.6369577, 35.5524266], [-97.6366106, 35.5524229], [-97.6366041, 35.5528242], [-97.6369512, 35.5528279]]]}, "properties": {"osm_id": 323890438, "building": "warehouse", "name": "", "height": null, "height_m": null, "levels": null, "tract_id": "40109108521", "tract_name": "1085.21", "tags": {"building": "warehouse"}}}, {"type": "Feature", "geometry": {"type": "Polygon", "coordinates": [[[-97.6424111, 35.5539182], [-97.6422092, 35.5536016], [-97.6420733, 35.5536589], [-97.6422752, 35.5539755], [-97.6424111, 35.5539182]]]}, "properties": {"osm_id": 323890442, "building": "apartments", "name": "", "height": null, "height_m": null, "levels": null, "tract_id": "40109108521", "tract_name": "1085.21", "tags": {"building": "apartments"}}}, {"type": "Feature", "geometry": {"type": "Polygon", "coordinates": [[[-97.6276583, 35.5527736], [-97.6277482, 35.5526355], [-97.6274849, 35.552522], [-97.627395, 35.5526602], [-97.6276583, 35.5527736]]]}, "properties": {"osm_id": 323890445, "building": "apartments", "name": "", "height": null, "height_m": null, "levels": null, "tract_id": "40109108521", "tract_name": "1085.21", "tags": {"building": "apartments", "roof:shape": "gabled"}}}, {"type": "Feature", "geometry": {"type": "Polygon", "coordinates": [[[-97.6472336, 35.5569558], [-97.6472329, 35.556846], [-97.6469446, 35.5568472], [-97.6469453, 35.556957], [-97.6472336, 35.5569558]]]}, "properties": {"osm_id": 323890446, "building": "warehouse", "name": "", "height": null, "height_m": null, "levels": null, "tract_id": "40109108521", "tract_name": "1085.21", "tags": {"building": "warehouse"}}}, {"type": "Feature", "geometry": {"type": "Polygon", "coordinates": [[[-97.6429231, 35.5539153], [-97.6429219, 35.5537926], [-97.6424618, 35.5537956], [-97.6424631, 35.5539183], [-97.6429231, 35.5539153]]]}, "properties": {"osm_id": 323890447, "building": "apartments", "name": "", "height": null, "height_m": null, "levels": null, "tract_id": "40109108521", "tract_name": "1085.21", "tags": {"building": "apartments"}}}, {"type": "Feature", "geometry": {"type": "Polygon", "coordinates": [[[-97.6471958, 35.5567096], [-97.6471959, 35.5565969], [-97.6469149, 35.5565969], [-97.6469149, 35.5567095], [-97.6471958, 35.5567096]]]}, "properties": {"osm_id": 323890451, "building": "warehouse", "name": "", "height": null, "height_m": null, "levels": null, "tract_id": "40109108521", "tract_name": "1085.21", "tags": {"building": "warehouse"}}}, {"type": "Feature", "geometry": {"type": "Polygon", "coordinates": [[[-97.6420016, 35.554429], [-97.6420018, 35.5543083], [-97.6415626, 35.5543075], [-97.6415623, 35.5544282], [-97.6420016, 35.554429]]]}, "properties": {"osm_id": 323890458, "building": "apartments", "name": "", "height": null, "height_m": null, "levels": null, "tract_id": "40109108521", "tract_name": "1085.21", "tags": {"building": "apartments"}}}, {"type": "Feature", "geometry": {"type": "Polygon", "coordinates": [[[-97.6379772, 35.5523311], [-97.6379769, 35.5522486], [-97.6376837, 35.5522491], [-97.6376839, 35.5523316], [-97.6379772, 35.5523311]]]}, "properties": {"osm_id": 323890460, "building": "retail", "name": "", "height": null, "height_m": null, "levels": null, "tract_id": "40109108521", "tract_name": "1085.21", "tags": {"building": "retail", "roof:shape": "flat"}}}, {"type": "Feature", "geometry": {"type": "Polygon", "coordinates": [[[-97.6277315, 35.5517752], [-97.6277327, 35.5516264], [-97.6282515, 35.5516315], [-97.628248, 35.5517882], [-97.6277315, 35.5517752]]]}, "properties": {"osm_id": 323890466, "building": "apartments", "name": "", "height": null, "height_m": null, "levels": null, "tract_id": "40109108521", "tract_name": "1085.21", "tags": {"building": "apartments", "roof:shape": "gabled"}}}, {"type": "Feature", "geometry": {"type": "Polygon", "coordinates": [[[-97.6462266, 35.5567184], [-97.6462341, 35.556461], [-97.6460831, 35.5564581], [-97.6460756, 35.5567155], [-97.6462266, 35.5567184]]]}, "properties": {"osm_id": 323890469, "building": "warehouse", "name": "", "height": null, "height_m": null, "levels": null, "tract_id": "40109108521", "tract_name": "1085.21", "tags": {"building": "warehouse"}}}, {"type": "Feature", "geometry": {"type": "Polygon", "coordinates": [[[-97.6459254, 35.5572584], [-97.6459201, 35.5569972], [-97.6457682, 35.5569992], [-97.6457735, 35.5572604], [-97.6459254, 35.5572584]]]}, "properties": {"osm_id": 323890480, "building": "warehouse", "name": "", "height": null, "height_m": null, "levels": null, "tract_id": "40109108521", "tract_name": "1085.21", "tags": {"building": "warehouse"}}}, {"type": "Feature", "geometry": {"type": "Polygon", "coordinates": [[[-97.6452362, 35.5525374], [-97.6452405, 35.5522552], [-97.6450287, 35.552253], [-97.6450244, 35.5525352], [-97.6452362, 35.5525374]]]}, "properties": {"osm_id": 323890491, "building": "warehouse", "name": "", "height": null, "height_m": null, "levels": null, "tract_id": "40109108521", "tract_name": "1085.21", "tags": {"building": "warehouse"}}}, {"type": "Feature", "geometry": {"type": "Polygon", "coordinates": [[[-97.6269372, 35.5524464], [-97.627107, 35.5522582], [-97.6267732, 35.5520588], [-97.6266034, 35.5522469], [-97.6269372, 35.5524464]]]}, "properties": {"osm_id": 323890495, "building": "retail", "name": "", "height": null, "height_m": null, "levels": null, "tract_id": "40109108521", "tract_name": "1085.21", "tags": {"building": "retail", "roof:shape": "flat"}}}, {"type": "Feature", "geometry": {"type": "Polygon", "coordinates": [[[-97.6448175, 35.5572319], [-97.6448146, 35.5570023], [-97.6446061, 35.5570039], [-97.6446089, 35.5572335], [-97.6448175, 35.5572319]]]}, "properties": {"osm_id": 323890497, "building": "warehouse", "name": "", "height": null, "height_m": null, "levels": null, "tract_id": "40109108521", "tract_name": "1085.21", "tags": {"building": "warehouse"}}}, {"type": "Feature", "geometry": {"type": "Polygon", "coordinates": [[[-97.64532, 35.5563537], [-97.6453192, 35.5561231], [-97.6451769, 35.5561235], [-97.6451777, 35.5563541], [-97.64532, 35.5563537]]]}, "properties": {"osm_id": 323890500, "building": "warehouse", "name": "", "height": null, "height_m": null, "levels": null, "tract_id": "40109108521", "tract_name": "1085.21", "tags": {"building": "warehouse"}}}, {"type": "Feature", "geometry": {"type": "Polygon", "coordinates": [[[-97.6444719, 35.5529582], [-97.6444737, 35.5525995], [-97.6442611, 35.5525988], [-97.6442594, 35.5529575], [-97.6444719, 35.5529582]]]}, "properties": {"osm_id": 323890504, "building": "warehouse", "name": "", "height": null, "height_m": null, "levels": null, "tract_id": "40109108521", "tract_name": "1085.21", "tags": {"building": "warehouse"}}}, {"type": "Feature", "geometry": {"type": "Polygon", "coordinates": [[[-97.6275309, 35.5524727], [-97.6275985, 35.5523716], [-97.6274209, 35.5522929], [-97.6273532, 35.552394], [-97.6275309, 35.5524727]]]}, "properties": {"osm_id": 323890508, "building": "apartments", "name": "", "height": null, "height_m": null, "levels": null, "tract_id": "40109108521", "tract_name": "1085.21", "tags": {"building": "apartments", "roof:shape": "gabled"}}}, {"type": "Feature", "geometry": {"type": "Polygon", "coordinates": [[[-97.6456193, 35.5558371], [-97.6456211, 35.5555237], [-97.6454788, 35.5555231], [-97.645477, 35.5558365], [-97.6456193, 35.5558371]]]}, "properties": {"osm_id": 323890509, "building": "warehouse", "name": "", "height": null, "height_m": null, "levels": null, "tract_id": "40109108521", "tract_name": "1085.21", "tags": {"building": "warehouse"}}}, {"type": "Feature", "geometry": {"type": "Polygon", "coordinates": [[[-97.6445906, 35.5593642], [-97.6447619, 35.5594436], [-97.6447618, 35.5595154], [-97.6448471, 35.5595154], [-97.6448469, 35.5596195], [-97.6448463, 35.5596603], [-97.6447441, 35.5596159], [-97.6446701, 35.5597395], [-97.6444261, 35.5596247], [-97.6445906, 35.5593642]]]}, "properties": {"osm_id": 323890512, "building": "retail", "name": "", "height": null, "height_m": null, "levels": null, "tract_id": "40109108521", "tract_name": "1085.21", "tags": {"building": "retail", "roof:shape": "flat"}}}, {"type": "Feature", "geometry": {"type": "Polygon", "coordinates": [[[-97.6272605, 35.5520519], [-97.6273624, 35.5519296], [-97.627553, 35.551701], [-97.6277254, 35.5517961], [-97.6274329, 35.5521471], [-97.6272605, 35.5520519]]]}, "properties": {"osm_id": 323890514, "building": "apartments", "name": "", "height": null, "height_m": null, "levels": null, "tract_id": "40109108521", "tract_name": "1085.21", "tags": {"building": "apartments", "roof:shape": "gabled"}}}, {"type": "Feature", "geometry": {"type": "Polygon", "coordinates": [[[-97.6441653, 35.5539404], [-97.6441653, 35.5537852], [-97.6438322, 35.5537852], [-97.6438287, 35.5539461], [-97.6441653, 35.5539404]]]}, "properties": {"osm_id": 323890515, "building": "warehouse", "name": "", "height": null, "height_m": null, "levels": null, "tract_id": "40109108521", "tract_name": "1085.21", "tags": {"building": "warehouse"}}}, {"type": "Feature", "geometry": {"type": "Polygon", "coordinates": [[[-97.6267222, 35.5518861], [-97.6268092, 35.5517877], [-97.6263892, 35.551542], [-97.6263022, 35.5516405], [-97.6267222, 35.5518861]]]}, "properties": {"osm_id": 323890520, "building": "retail", "name": "", "height": null, "height_m": null, "levels": null, "tract_id": "40109108521", "tract_name": "1085.21", "tags": {"building": "retail", "roof:shape": "flat"}}}, {"type": "Feature", "geometry": {"type": "Polygon", "coordinates": [[[-97.6287977, 35.5517993], [-97.6287992, 35.5516196], [-97.6282839, 35.5516168], [-97.6282824, 35.5517965], [-97.6287977, 35.5517993]]]}, "properties": {"osm_id": 323890525, "building": "apartments", "name": "", "height": null, "height_m": null, "levels": null, "tract_id": "40109108521", "tract_name": "1085.21", "tags": {"building": "apartments", "roof:shape": "gabled"}}}, {"type": "Feature", "geometry": {"type": "Polygon", "coordinates": [[[-97.6328226, 35.5516767], [-97.6328227, 35.5513139], [-97.632519, 35.5513139], [-97.632519, 35.5516766], [-97.6328226, 35.5516767]]]}, "properties": {"osm_id": 323890529, "building": "warehouse", "name": "", "height": null, "height_m": null, "levels": null, "tract_id": "40109108521", "tract_name": "1085.21", "tags": {"building": "warehouse"}}}, {"type": "Feature", "geometry": {"type": "Polygon", "coordinates": [[[-97.637575, 35.5528509], [-97.6375751, 35.552672], [-97.6372368, 35.552672], [-97.6372367, 35.5528508], [-97.637575, 35.5528509]]]}, "properties": {"osm_id": 323890530, "building": "retail", "name": "", "height": null, "height_m": null, "levels": null, "tract_id": "40109108521", "tract_name": "1085.21", "tags": {"building": "retail", "roof:shape": "flat"}}}, {"type": "Feature", "geometry": {"type": "Polygon", "coordinates": [[[-97.641289, 35.5548774], [-97.6412863, 35.5545141], [-97.6411232, 35.5545149], [-97.6411259, 35.5548782], [-97.641289, 35.5548774]]]}, "properties": {"osm_id": 323890537, "building": "apartments", "name": "", "height": null, "height_m": null, "levels": null, "tract_id": "40109108521", "tract_name": "1085.21", "tags": {"building": "apartments"}}}, {"type": "Feature", "geometry": {"type": "Polygon", "coordinates": [[[-97.6342936, 35.555482], [-97.6342926, 35.555214], [-97.6340496, 35.5552146], [-97.6340506, 35.5554826], [-97.6342936, 35.555482]]]}, "properties": {"osm_id": 323890539, "building": "retail", "name": "", "height": null, "height_m": null, "levels": null, "tract_id": "40109108521", "tract_name": "1085.21", "tags": {"building": "retail", "roof:shape": "flat"}}}, {"type": "Feature", "geometry": {"type": "Polygon", "coordinates": [[[-97.6531182, 35.5587443], [-97.6531193, 35.5585112], [-97.6527666, 35.55851], [-97.6527665, 35.558533], [-97.6527112, 35.5585328], [-97.6527114, 35.5585099], [-97.6524459, 35.558509], [-97.6524456, 35.558572], [-97.6524281, 35.558572], [-97.6524278, 35.5586205], [-97.6524454, 35.5586206], [-97.652445, 35.5586863], [-97.6527107, 35.5586872], [-97.6527113, 35.5585702], [-97.6527663, 35.5585704], [-97.6527655, 35.5587431], [-97.6529131, 35.5587436], [-97.652913, 35.5587555], [-97.6529747, 35.5587557], [-97.6529748, 35.5587438], [-97.6531182, 35.5587443]]]}, "properties": {"osm_id": 323890542, "building": "office", "name": "", "height": null, "height_m": null, "levels": null, "tract_id": "40109108521", "tract_name": "1085.21", "tags": {"building": "office"}}}, {"type": "Feature", "geometry": {"type": "Polygon", "coordinates": [[[-97.6381424, 35.5541475], [-97.6381443, 35.5536378], [-97.6377832, 35.5536369], [-97.6377812, 35.5541466], [-97.6381424, 35.5541475]]]}, "properties": {"osm_id": 323890545, "building": "warehouse", "name": "", "height": null, "height_m": null, "levels": null, "tract_id": "40109108521", "tract_name": "1085.21", "tags": {"building": "warehouse", "roof:shape": "flat"}}}, {"type": "Feature", "geometry": {"type": "Polygon", "coordinates": [[[-97.6428183, 35.5537159], [-97.6428181, 35.5535881], [-97.6423752, 35.5535888], [-97.6423754, 35.5537165], [-97.6428183, 35.5537159]]]}, "properties": {"osm_id": 323890547, "building": "apartments", "name": "", "height": null, "height_m": null, "levels": null, "tract_id": "40109108521", "tract_name": "1085.21", "tags": {"building": "apartments"}}}, {"type": "Feature", "geometry": {"type": "Polygon", "coordinates": [[[-97.6444098, 35.5574777], [-97.644407, 35.557318], [-97.6440954, 35.5573216], [-97.6440982, 35.5574813], [-97.6444098, 35.5574777]]]}, "properties": {"osm_id": 323890550, "building": "warehouse", "name": "", "height": null, "height_m": null, "levels": null, "tract_id": "40109108521", "tract_name": "1085.21", "tags": {"building": "warehouse"}}}, {"type": "Feature", "geometry": {"type": "Polygon", "coordinates": [[[-97.6329371, 35.5526881], [-97.6329337, 35.5521333], [-97.6325901, 35.5521347], [-97.6325936, 35.5526895], [-97.6329371, 35.5526881]]]}, "properties": {"osm_id": 323890552, "building": "warehouse", "name": "", "height": null, "height_m": null, "levels": null, "tract_id": "40109108521", "tract_name": "1085.21", "tags": {"building": "warehouse"}}}, {"type": "Feature", "geometry": {"type": "Polygon", "coordinates": [[[-97.6388866, 35.5558822], [-97.6388865, 35.5558269], [-97.6388987, 35.5558268], [-97.6388972, 35.5552598], [-97.6390282, 35.5552596], [-97.6390278, 35.555121], [-97.6399787, 35.5551194], [-97.639979, 35.5552211], [-97.6400988, 35.5552209], [-97.6400988, 35.5552562], [-97.6402819, 35.5552559], [-97.6402828, 35.5556093], [-97.6405415, 35.5556088], [-97.640541, 35.5554247], [-97.6406483, 35.5554246], [-97.6406483, 35.5554067], [-97.6407324, 35.5554066], [-97.6407325, 35.5554244], [-97.6407573, 35.5554244], [-97.6407572, 35.5553871], [-97.6408613, 35.555387], [-97.6408611, 35.55531], [-97.6409004, 35.55531], [-97.6409395, 35.5553478], [-97.6410644, 35.5553476], [-97.6410645, 35.5553871], [-97.6413451, 35.5553867], [-97.6413448, 35.5552811], [-97.6414174, 35.5552809], [-97.6414593, 35.5553181], [-97.6414594, 35.555359], [-97.6417689, 35.5553585], [-97.6417683, 35.5551414], [-97.6420118, 35.555141], [-97.6420121, 35.5552578], [-97.6420072, 35.5552578], [-97.6420073, 35.5553208], [-97.6420302, 35.5553208], [-97.6420303, 35.5553432], [-97.6421183, 35.555343], [-97.6421186, 35.5554322], [-97.6420305, 35.5554324], [-97.6420306, 35.555455], [-97.6420126, 35.555455], [-97.642013, 35.5556068], [-97.6417824, 35.5557923], [-97.6417825, 35.555832], [-97.6417047, 35.5558321], [-97.6417046, 35.5558002], [-97.6416597, 35.5558003], [-97.6416597, 35.5558138], [-97.6414756, 35.5558141], [-97.6414756, 35.5558006], [-97.6411075, 35.5558012], [-97.6411076, 35.55584], [-97.641007, 35.5558401], [-97.6410069, 35.5558013], [-97.6407859, 35.5558017], [-97.6407861, 35.5558739], [-97.6407482, 35.555874], [-97.6407481, 35.5558594], [-97.6406297, 35.5558596], [-97.6406298, 35.555891], [-97.6405439, 35.5558911], [-97.640544, 35.5559205], [-97.6405088, 35.5559205], [-97.6405087, 35.5559066], [-97.640488, 35.5559066], [-97.640488, 35.5559352], [-97.6404082, 35.5559353], [-97.6404082, 35.5559068], [-97.6403868, 35.5559068], [-97.6403868, 35.5559393], [-97.6402839, 35.5559395], [-97.6402839, 35.5559614], [-97.6402168, 35.5559615], [-97.6402168, 35.5559727], [-97.6401867, 35.5559738], [-97.6401544, 35.555974], [-97.6401218, 35.5559726], [-97.6400878, 35.5559699], [-97.6400537, 35.5559653], [-97.6400214, 35.5559589], [-97.6399914, 35.5559506], [-97.6399914, 35.55594], [-97.639692, 35.5559405], [-97.639692, 35.5559314], [-97.6395248, 35.5559317], [-97.6395247, 35.5558811], [-97.6388866, 35.5558822]]]}, "properties": {"osm_id": 323890557, "building": "retail", "name": "", "height": null, "height_m": null, "levels": null, "tract_id": "40109108521", "tract_name": "1085.21", "tags": {"building": "retail", "roof:shape": "flat"}}}, {"type": "Feature", "geometry": {"type": "Polygon", "coordinates": [[[-97.6425659, 35.5593234], [-97.6426552, 35.5591882], [-97.6426538, 35.5591477], [-97.6420731, 35.5588938], [-97.6419634, 35.55906], [-97.6425659, 35.5593234]]]}, "properties": {"osm_id": 323890559, "building": "retail", "name": "First Commercial Bank", "height": null, "height_m": null, "levels": null, "tract_id": "40109108521", "tract_name": "1085.21", "tags": {"building": "retail", "name": "First Commercial Bank"}}}, {"type": "Feature", "geometry": {"type": "Polygon", "coordinates": [[[-97.6338803, 35.5530002], [-97.6338786, 35.5528257], [-97.6336452, 35.5528272], [-97.6334641, 35.5528284], [-97.6334658, 35.5530028], [-97.6338803, 35.5530002]]]}, "properties": {"osm_id": 323890560, "building": "warehouse", "name": "", "height": null, "height_m": null, "levels": null, "tract_id": "40109108521", "tract_name": "1085.21", "tags": {"building": "warehouse"}}}, {"type": "Feature", "geometry": {"type": "Polygon", "coordinates": [[[-97.6428871, 35.5537455], [-97.6428857, 35.5536931], [-97.6430757, 35.5536897], [-97.6430774, 35.5537532], [-97.6429357, 35.5537557], [-97.6429354, 35.5537446], [-97.6428871, 35.5537455]]]}, "properties": {"osm_id": 323890561, "building": "apartments", "name": "", "height": null, "height_m": null, "levels": null, "tract_id": "40109108521", "tract_name": "1085.21", "tags": {"building": "apartments"}}}, {"type": "Feature", "geometry": {"type": "Polygon", "coordinates": [[[-97.6313485, 35.5543385], [-97.6314001, 35.5542609], [-97.6314165, 35.5542681], [-97.6314745, 35.554181], [-97.6314581, 35.5541738], [-97.63151, 35.5540957], [-97.6311183, 35.5539233], [-97.6311298, 35.5539059], [-97.6310858, 35.5538865], [-97.6310222, 35.553982], [-97.6310002, 35.5539723], [-97.6309478, 35.5540511], [-97.6309349, 35.5540455], [-97.6308772, 35.5541322], [-97.6309827, 35.5541787], [-97.6309909, 35.5541663], [-97.6312608, 35.5542851], [-97.6312532, 35.5542965], [-97.6313485, 35.5543385]]]}, "properties": {"osm_id": 323890562, "building": "retail", "name": "", "height": null, "height_m": null, "levels": null, "tract_id": "40109108521", "tract_name": "1085.21", "tags": {"building": "retail", "roof:shape": "flat"}}}, {"type": "Feature", "geometry": {"type": "Polygon", "coordinates": [[[-97.6451024, 35.5541314], [-97.6451056, 35.5538523], [-97.6445335, 35.5538479], [-97.6445362, 35.5536112], [-97.6442499, 35.553609], [-97.644244, 35.554125], [-97.6451024, 35.5541314]]]}, "properties": {"osm_id": 323890563, "building": "warehouse", "name": "", "height": null, "height_m": null, "levels": null, "tract_id": "40109108521", "tract_name": "1085.21", "tags": {"building": "warehouse"}}}, {"type": "Feature", "geometry": {"type": "Polygon", "coordinates": [[[-97.6277767, 35.5525931], [-97.6280127, 35.5522248], [-97.627838, 35.5521507], [-97.6276357, 35.5524664], [-97.6276854, 35.5524875], [-97.6276517, 35.55254], [-97.6277767, 35.5525931]]]}, "properties": {"osm_id": 323890567, "building": "apartments", "name": "", "height": null, "height_m": null, "levels": null, "tract_id": "40109108521", "tract_name": "1085.21", "tags": {"building": "apartments", "roof:shape": "gabled"}}}, {"type": "Feature", "geometry": {"type": "Polygon", "coordinates": [[[-97.6264863, 35.5521616], [-97.6267083, 35.5519161], [-97.6265363, 35.5518131], [-97.6264375, 35.5519224], [-97.6260841, 35.5517109], [-97.6259609, 35.5518471], [-97.6264863, 35.5521616]]]}, "properties": {"osm_id": 323890568, "building": "retail", "name": "", "height": null, "height_m": null, "levels": null, "tract_id": "40109108521", "tract_name": "1085.21", "tags": {"building": "retail", "roof:shape": "flat"}}}, {"type": "Feature", "geometry": {"type": "Polygon", "coordinates": [[[-97.6452414, 35.5533663], [-97.6452453, 35.5531875], [-97.6449101, 35.5531826], [-97.6449042, 35.5534498], [-97.6450014, 35.5534512], [-97.6450033, 35.5533628], [-97.6452414, 35.5533663]]]}, "properties": {"osm_id": 323890569, "building": "warehouse", "name": "", "height": null, "height_m": null, "levels": null, "tract_id": "40109108521", "tract_name": "1085.21", "tags": {"building": "warehouse"}}}, {"type": "Feature", "geometry": {"type": "Polygon", "coordinates": [[[-97.6351989, 35.5558528], [-97.6350483, 35.5558528], [-97.6350483, 35.5558746], [-97.6349947, 35.5558746], [-97.6349947, 35.5558528], [-97.6348855, 35.5558528], [-97.6348854, 35.5555617], [-97.6348904, 35.5555617], [-97.6348904, 35.5555061], [-97.6349631, 35.5555061], [-97.6349631, 35.5556087], [-97.6351016, 35.5556087], [-97.6351017, 35.5557646], [-97.6351989, 35.5557646], [-97.6351989, 35.5558528]]]}, "properties": {"osm_id": 323890571, "building": "yes", "name": "Hunan Wok", "height": null, "height_m": null, "levels": null, "tract_id": "40109108521", "tract_name": "1085.21", "tags": {"amenity": "restaurant", "building": "yes", "cuisine": "chinese", "name": "Hunan Wok", "roof:shape": "gabled"}}}, {"type": "Feature", "geometry": {"type": "Polygon", "coordinates": [[[-97.6347605, 35.5526201], [-97.6347654, 35.5522848], [-97.6344267, 35.5522848], [-97.6344267, 35.5524165], [-97.6345053, 35.5524165], [-97.6345053, 35.5526281], [-97.6347605, 35.5526201]]]}, "properties": {"osm_id": 323890573, "building": "warehouse", "name": "", "height": null, "height_m": null, "levels": null, "tract_id": "40109108521", "tract_name": "1085.21", "tags": {"building": "warehouse"}}}, {"type": "Feature", "geometry": {"type": "Polygon", "coordinates": [[[-97.6346815, 35.5556018], [-97.6346815, 35.555585], [-97.6347065, 35.555585], [-97.6347066, 35.5555228], [-97.6346816, 35.5555228], [-97.6346817, 35.5554013], [-97.6346376, 35.5554013], [-97.6346376, 35.5553728], [-97.6343432, 35.5553726], [-97.634343, 35.5556016], [-97.6344861, 35.5556017], [-97.6344861, 35.5556241], [-97.6345377, 35.5556241], [-97.6345377, 35.5556018], [-97.6346815, 35.5556018]]]}, "properties": {"osm_id": 323890575, "building": "retail", "name": "", "height": null, "height_m": null, "levels": null, "tract_id": "40109108521", "tract_name": "1085.21", "tags": {"building": "retail", "roof:shape": "flat"}}}, {"type": "Feature", "geometry": {"type": "Polygon", "coordinates": [[[-97.6550689, 35.5590539], [-97.6548505, 35.5592025], [-97.6548202, 35.5591731], [-97.6548097, 35.5591803], [-97.6547568, 35.5591288], [-97.6547673, 35.5591216], [-97.6545928, 35.5589518], [-97.6546073, 35.5589419], [-97.6545996, 35.5589344], [-97.6546449, 35.5589035], [-97.6546564, 35.5589147], [-97.654692, 35.5588904], [-97.6546744, 35.5588733], [-97.6547504, 35.5588216], [-97.6547565, 35.5588275], [-97.654787, 35.5588068], [-97.654799, 35.5588185], [-97.6548132, 35.5588089], [-97.6548826, 35.5588764], [-97.6549052, 35.5588611], [-97.654942, 35.5588969], [-97.6549217, 35.5589107], [-97.6550689, 35.5590539]]]}, "properties": {"osm_id": 323890581, "building": "office", "name": "", "height": null, "height_m": null, "levels": null, "tract_id": "40109108521", "tract_name": "1085.21", "tags": {"building": "office"}}}, {"type": "Feature", "geometry": {"type": "Polygon", "coordinates": [[[-97.6379566, 35.5535377], [-97.6379574, 35.553354], [-97.6378505, 35.5533536], [-97.6378504, 35.5533709], [-97.6373361, 35.5533694], [-97.6373367, 35.553231], [-97.6370976, 35.5532303], [-97.6370964, 35.5535352], [-97.6379566, 35.5535377]]]}, "properties": {"osm_id": 323890587, "building": "warehouse", "name": "", "height": null, "height_m": null, "levels": null, "tract_id": "40109108521", "tract_name": "1085.21", "tags": {"building": "warehouse", "roof:shape": "flat"}}}, {"type": "Feature", "geometry": {"type": "Polygon", "coordinates": [[[-97.6441633, 35.5546428], [-97.6441586, 35.5542983], [-97.6439346, 35.5543004], [-97.6439381, 35.554552], [-97.6439774, 35.5545516], [-97.6439787, 35.5546445], [-97.6441633, 35.5546428]]]}, "properties": {"osm_id": 323890588, "building": "warehouse", "name": "", "height": null, "height_m": null, "levels": null, "tract_id": "40109108521", "tract_name": "1085.21", "tags": {"building": "warehouse"}}}, {"type": "Feature", "geometry": {"type": "Polygon", "coordinates": [[[-97.6404749, 35.5546361], [-97.6403626, 35.5544705], [-97.6405484, 35.5543871], [-97.6406213, 35.5544947], [-97.6405063, 35.5545463], [-97.6405457, 35.5546044], [-97.6404749, 35.5546361]]]}, "properties": {"osm_id": 323890589, "building": "apartments", "name": "", "height": null, "height_m": null, "levels": null, "tract_id": "40109108521", "tract_name": "1085.21", "tags": {"building": "apartments"}}}, {"type": "Feature", "geometry": {"type": "Polygon", "coordinates": [[[-97.6380272, 35.5571196], [-97.6380272, 35.5570996], [-97.6380208, 35.5570996], [-97.6380208, 35.5570369], [-97.6380272, 35.5570369], [-97.6380272, 35.5570184], [-97.6380206, 35.5570184], [-97.6380206, 35.5569553], [-97.6380272, 35.5569553], [-97.6380272, 35.5569363], [-97.6380208, 35.5569363], [-97.6380208, 35.5568792], [-97.6380272, 35.5568792], [-97.6380272, 35.5568612], [-97.6378769, 35.5568612], [-97.6378769, 35.5568992], [-97.6378444, 35.5568992], [-97.6378444, 35.5570949], [-97.6378519, 35.5571014], [-97.6378519, 35.5571196], [-97.6378717, 35.5571196], [-97.6378717, 35.5571162], [-97.6379248, 35.5571162], [-97.6379248, 35.5571196], [-97.6379483, 35.5571196], [-97.6379483, 35.5571163], [-97.6380033, 35.5571163], [-97.6380033, 35.5571196], [-97.6380272, 35.5571196]]]}, "properties": {"osm_id": 323890590, "building": "retail", "name": "", "height": null, "height_m": null, "levels": null, "tract_id": "40109108521", "tract_name": "1085.21", "tags": {"building": "retail", "roof:shape": "flat"}}}, {"type": "Feature", "geometry": {"type": "Polygon", "coordinates": [[[-97.6406736, 35.5581009], [-97.6406847, 35.5578463], [-97.6406562, 35.5578455], [-97.6406671, 35.5575958], [-97.6405364, 35.557592], [-97.6405345, 35.5576357], [-97.6403664, 35.5576309], [-97.6403551, 35.5578912], [-97.6403851, 35.5578921], [-97.6403775, 35.5580671], [-97.6405117, 35.5580709], [-97.6405106, 35.5580962], [-97.6406736, 35.5581009]]]}, "properties": {"osm_id": 323890591, "building": "retail", "name": "", "height": null, "height_m": null, "levels": null, "tract_id": "40109108521", "tract_name": "1085.21", "tags": {"building": "retail"}}}, {"type": "Feature", "geometry": {"type": "Polygon", "coordinates": [[[-97.6388574, 35.5566476], [-97.638856, 35.5564779], [-97.638711, 35.5564788], [-97.6387127, 35.5566798], [-97.6388247, 35.5566792], [-97.6388245, 35.5566478], [-97.6388574, 35.5566476]]]}, "properties": {"osm_id": 323890592, "building": "retail", "name": "", "height": null, "height_m": null, "levels": null, "tract_id": "40109108521", "tract_name": "1085.21", "tags": {"building": "retail"}}}, {"type": "Feature", "geometry": {"type": "Polygon", "coordinates": [[[-97.6290983, 35.5531569], [-97.6292361, 35.5529462], [-97.629035, 35.5528592], [-97.6289822, 35.5529399], [-97.6289459, 35.5529241], [-97.6289153, 35.552971], [-97.6289274, 35.5529762], [-97.6288924, 35.5530297], [-97.6288776, 35.5530232], [-97.6288524, 35.5530617], [-97.6289843, 35.5531188], [-97.62899, 35.5531101], [-97.6290983, 35.5531569]]]}, "properties": {"osm_id": 323890595, "building": "office", "name": "Pepper Tree Dental", "height": null, "height_m": null, "levels": null, "tract_id": "40109108521", "tract_name": "1085.21", "tags": {"amenity": "dentist", "building": "office", "healthcare": "dentist", "name": "Pepper Tree Dental", "roof:shape": "flat"}}}, {"type": "Feature", "geometry": {"type": "Polygon", "coordinates": [[[-97.6473329, 35.5562298], [-97.6473351, 35.5559539], [-97.6472495, 35.5559535], [-97.6472485, 35.5560766], [-97.6469672, 35.5560752], [-97.6469661, 35.5562143], [-97.6472485, 35.5562158], [-97.6472484, 35.5562294], [-97.6473329, 35.5562298]]]}, "properties": {"osm_id": 323890596, "building": "warehouse", "name": "", "height": null, "height_m": null, "levels": null, "tract_id": "40109108521", "tract_name": "1085.21", "tags": {"building": "warehouse"}}}, {"type": "Feature", "geometry": {"type": "Polygon", "coordinates": [[[-97.641344, 35.5588456], [-97.6414521, 35.5586749], [-97.6415178, 35.5586583], [-97.6416584, 35.5587193], [-97.6415978, 35.5588131], [-97.6415803, 35.5588142], [-97.6415846, 35.5588241], [-97.6414995, 35.5588464], [-97.6414945, 35.5588342], [-97.6414578, 35.558893], [-97.641344, 35.5588456]]]}, "properties": {"osm_id": 323890598, "building": "yes", "name": "", "height": null, "height_m": null, "levels": null, "tract_id": "40109108521", "tract_name": "1085.21", "tags": {"building": "yes", "healthcare": "alternative", "healthcare:speciality": "chiropractic"}}}, {"type": "Feature", "geometry": {"type": "Polygon", "coordinates": [[[-97.644055, 35.5530548], [-97.6442017, 35.5530556], [-97.6442043, 35.5527538], [-97.6439633, 35.5527524], [-97.643962, 35.5529018], [-97.6439616, 35.5529469], [-97.644056, 35.5529475], [-97.644055, 35.5530548]]]}, "properties": {"osm_id": 323890599, "building": "warehouse", "name": "", "height": null, "height_m": null, "levels": null, "tract_id": "40109108521", "tract_name": "1085.21", "tags": {"building": "warehouse"}}}, {"type": "Feature", "geometry": {"type": "Polygon", "coordinates": [[[-97.6438445, 35.5529614], [-97.6438449, 35.5528373], [-97.6436051, 35.5528367], [-97.6436045, 35.5529774], [-97.6436972, 35.5529776], [-97.6436972, 35.5529611], [-97.6438445, 35.5529614]]]}, "properties": {"osm_id": 323890600, "building": "warehouse", "name": "", "height": null, "height_m": null, "levels": null, "tract_id": "40109108521", "tract_name": "1085.21", "tags": {"building": "warehouse"}}}, {"type": "Feature", "geometry": {"type": "Polygon", "coordinates": [[[-97.6405831, 35.5584868], [-97.6406031, 35.5584565], [-97.6406248, 35.5584661], [-97.6406724, 35.5583941], [-97.640597, 35.5583611], [-97.6406608, 35.5582646], [-97.6405984, 35.5582372], [-97.6405345, 35.5583337], [-97.6404585, 35.5583004], [-97.6404124, 35.5583701], [-97.6404345, 35.5583798], [-97.6404129, 35.5584124], [-97.640465, 35.5584352], [-97.6404607, 35.5584418], [-97.6405254, 35.5584701], [-97.6405297, 35.5584635], [-97.6405831, 35.5584868]]]}, "properties": {"osm_id": 323890602, "building": "retail", "name": "State Employees Credit Union", "height": null, "height_m": null, "levels": null, "tract_id": "40109108521", "tract_name": "1085.21", "tags": {"amenity": "bank", "brand": "State Employees Credit Union", "brand:wikidata": "Q7603196", "building": "retail", "name": "State Employees Credit Union", "short_name": "SECU"}}}, {"type": "Feature", "geometry": {"type": "Polygon", "coordinates": [[[-97.6336063, 35.5553442], [-97.6335972, 35.5553401], [-97.6336339, 35.5551718], [-97.6339096, 35.5552937], [-97.633895, 35.5553169], [-97.6339115, 35.5553242], [-97.633904, 35.5554772], [-97.6338871, 35.55547], [-97.6338727, 35.5554911], [-97.6336631, 35.5553982], [-97.6336596, 35.5554036], [-97.6335876, 35.5553723], [-97.6336063, 35.5553442]]]}, "properties": {"osm_id": 323890612, "building": "retail", "name": "", "height": null, "height_m": null, "levels": null, "tract_id": "40109108521", "tract_name": "1085.21", "tags": {"building": "retail", "roof:shape": "flat"}}}, {"type": "Feature", "geometry": {"type": "Polygon", "coordinates": [[[-97.6354312, 35.5561642], [-97.6354636, 35.5561643], [-97.6354711, 35.5557159], [-97.6354177, 35.5557164], [-97.6354175, 35.5557036], [-97.6353511, 35.5557043], [-97.6353513, 35.5557171], [-97.6352633, 35.555718], [-97.6352664, 35.5561095], [-97.6353045, 35.5561272], [-97.6352824, 35.5561593], [-97.6352988, 35.5561674], [-97.6353024, 35.5561626], [-97.6353657, 35.556194], [-97.6353621, 35.5561989], [-97.635426, 35.5562306], [-97.6354624, 35.5561798], [-97.6354312, 35.5561642]]]}, "properties": {"osm_id": 323890613, "building": "retail", "name": "", "height": null, "height_m": null, "levels": null, "tract_id": "40109108521", "tract_name": "1085.21", "tags": {"building": "retail", "roof:shape": "flat"}}}, {"type": "Feature", "geometry": {"type": "Polygon", "coordinates": [[[-97.6394114, 35.5573511], [-97.6394121, 35.5571625], [-97.6392222, 35.5571621], [-97.6392223, 35.5571436], [-97.6391425, 35.5571434], [-97.6391423, 35.5572097], [-97.6391321, 35.5572097], [-97.6391316, 35.5573504], [-97.6392059, 35.5573506], [-97.6392059, 35.5573594], [-97.6392204, 35.5573595], [-97.6392203, 35.5573825], [-97.6392656, 35.5573827], [-97.6392657, 35.5573596], [-97.6392784, 35.5573596], [-97.6392785, 35.5573507], [-97.6394114, 35.5573511]]]}, "properties": {"osm_id": 323890618, "building": "retail", "name": "Chili's", "height": null, "height_m": null, "levels": null, "tract_id": "40109108521", "tract_name": "1085.21", "tags": {"amenity": "restaurant", "brand": "Chili's", "brand:wikidata": "Q1072948", "building": "retail", "cuisine": "tex-mex", "name": "Chili's", "official_name": "Chili's Grill & Bar"}}}, {"type": "Feature", "geometry": {"type": "Polygon", "coordinates": [[[-97.6462366, 35.5602095], [-97.6462436, 35.5601986], [-97.6462835, 35.5602158], [-97.6463202, 35.5601595], [-97.6462804, 35.5601423], [-97.6463833, 35.5599845], [-97.64643, 35.5600047], [-97.6464711, 35.5600225], [-97.6465445, 35.55991], [-97.6465037, 35.5598924], [-97.646442, 35.5598658], [-97.6466631, 35.5595269], [-97.6463985, 35.5594126], [-97.6460888, 35.5598872], [-97.6460527, 35.5598716], [-97.6460216, 35.5599193], [-97.645916, 35.5598737], [-97.6458242, 35.5600143], [-97.6459298, 35.5600599], [-97.6459211, 35.5600732], [-97.646039, 35.5601241], [-97.6460288, 35.5601397], [-97.6461077, 35.5601738], [-97.6461179, 35.5601582], [-97.6462366, 35.5602095]]]}, "properties": {"osm_id": 323890621, "building": "yes", "name": "", "height": null, "height_m": null, "levels": null, "tract_id": "40109108521", "tract_name": "1085.21", "tags": {"building": "yes"}}}, {"type": "Feature", "geometry": {"type": "Polygon", "coordinates": [[[-97.6478546, 35.5547692], [-97.6478568, 35.5546172], [-97.6476399, 35.5546151], [-97.6476404, 35.55459], [-97.647519, 35.5545888], [-97.6475156, 35.5548212], [-97.6476152, 35.5548222], [-97.6476156, 35.5547935], [-97.6477635, 35.5547949], [-97.6477776, 35.5547685], [-97.6478546, 35.5547692]]]}, "properties": {"osm_id": 323890624, "building": "office", "name": "", "height": null, "height_m": null, "levels": null, "tract_id": "40109108521", "tract_name": "1085.21", "tags": {"building": "office", "roof:shape": "flat"}}}, {"type": "Feature", "geometry": {"type": "Polygon", "coordinates": [[[-97.6450607, 35.5596197], [-97.6450608, 35.5595168], [-97.6451062, 35.5595169], [-97.645107, 35.5590182], [-97.6449987, 35.5590181], [-97.6449988, 35.5589613], [-97.6449298, 35.5589612], [-97.6449297, 35.559018], [-97.6447552, 35.5590179], [-97.6447549, 35.5591819], [-97.6447624, 35.5591819], [-97.6447619, 35.5594436], [-97.6447618, 35.5595154], [-97.6448471, 35.5595154], [-97.6448469, 35.5596195], [-97.6450607, 35.5596197]]]}, "properties": {"osm_id": 323890625, "building": "retail", "name": "", "height": null, "height_m": null, "levels": null, "tract_id": "40109108521", "tract_name": "1085.21", "tags": {"building": "retail", "roof:shape": "flat"}}}, {"type": "Feature", "geometry": {"type": "Polygon", "coordinates": [[[-97.6320662, 35.5526661], [-97.6315099, 35.5522382], [-97.6317887, 35.5519983], [-97.6318322, 35.5520318], [-97.6319358, 35.5519426], [-97.6322738, 35.5522026], [-97.6321711, 35.552291], [-97.6323459, 35.5524255], [-97.6320662, 35.5526661]]]}, "properties": {"osm_id": 323890627, "building": "warehouse", "name": "", "height": null, "height_m": null, "levels": null, "tract_id": "40109108521", "tract_name": "1085.21", "tags": {"building": "warehouse"}}}, {"type": "Feature", "geometry": {"type": "Polygon", "coordinates": [[[-97.6431254, 35.5545979], [-97.6431255, 35.5545438], [-97.6431186, 35.5545438], [-97.6431187, 35.5543583], [-97.643131, 35.5543583], [-97.6431395, 35.554256], [-97.6431312, 35.5541464], [-97.6422061, 35.5541458], [-97.6422057, 35.5545462], [-97.6422788, 35.5545463], [-97.6422787, 35.5547006], [-97.6425306, 35.5547008], [-97.6425307, 35.5545975], [-97.6431254, 35.5545979]]]}, "properties": {"osm_id": 323890632, "building": "sport", "name": "YMCA", "height": null, "height_m": null, "levels": null, "tract_id": "40109108521", "tract_name": "1085.21", "tags": {"brand": "YMCA", "brand:wikidata": "Q157169", "building": "sport", "leisure": "sports_centre", "name": "YMCA", "roof:shape": "flat"}}}, {"type": "Feature", "geometry": {"type": "Polygon", "coordinates": [[[-97.6309282, 35.5539005], [-97.6312178, 35.5534611], [-97.6307703, 35.553266], [-97.6304806, 35.5537055], [-97.6306177, 35.5537652], [-97.6305466, 35.5538731], [-97.6307501, 35.5539618], [-97.6308212, 35.5538538], [-97.6309282, 35.5539005]]]}, "properties": {"osm_id": 323890636, "building": "retail", "name": "", "height": null, "height_m": null, "levels": null, "tract_id": "40109108521", "tract_name": "1085.21", "tags": {"building": "retail", "roof:shape": "flat"}}}, {"type": "Feature", "geometry": {"type": "Polygon", "coordinates": [[[-97.6546038, 35.5554965], [-97.6546038, 35.555643], [-97.6545209, 35.555643], [-97.6545209, 35.555589], [-97.6544908, 35.555589], [-97.6544908, 35.5555909], [-97.6544294, 35.5555909], [-97.6544294, 35.5554965], [-97.6546038, 35.5554965]]]}, "properties": {"osm_id": 472160177, "building": "house", "name": "", "height": null, "height_m": null, "levels": null, "tract_id": "40109108521", "tract_name": "1085.21", "tags": {"building": "house"}}}, {"type": "Feature", "geometry": {"type": "Polygon", "coordinates": [[[-97.6533931, 35.5552728], [-97.6533889, 35.5552728], [-97.653389, 35.5552868], [-97.6533375, 35.5552868], [-97.6533375, 35.5553023], [-97.6532832, 35.5553024], [-97.6532832, 35.555273], [-97.6532211, 35.5552731], [-97.6532208, 35.5551629], [-97.653275, 35.5551628], [-97.653275, 35.5551667], [-97.6533102, 35.5551667], [-97.6533102, 35.5551405], [-97.6533927, 35.5551404], [-97.6533931, 35.5552728]]]}, "properties": {"osm_id": 472160280, "building": "house", "name": "", "height": null, "height_m": null, "levels": null, "tract_id": "40109108521", "tract_name": "1085.21", "tags": {"building": "house"}}}, {"type": "Feature", "geometry": {"type": "Polygon", "coordinates": [[[-97.6535993, 35.5552832], [-97.6534195, 35.5552832], [-97.6534195, 35.5551683], [-97.653437, 35.5551683], [-97.653437, 35.5551648], [-97.653493, 35.5551648], [-97.653493, 35.5551683], [-97.6535161, 35.5551683], [-97.6535161, 35.5551383], [-97.6535993, 35.5551383], [-97.6535993, 35.5552832]]]}, "properties": {"osm_id": 472160281, "building": "house", "name": "", "height": null, "height_m": null, "levels": null, "tract_id": "40109108521", "tract_name": "1085.21", "tags": {"building": "house"}}}, {"type": "Feature", "geometry": {"type": "Polygon", "coordinates": [[[-97.6538014, 35.5552853], [-97.6537496, 35.5552853], [-97.6537496, 35.5553177], [-97.6536618, 35.5553177], [-97.6536618, 35.5552853], [-97.6536241, 35.5552853], [-97.6536241, 35.5551869], [-97.6536831, 35.5551869], [-97.6536831, 35.555194], [-97.6537159, 35.555194], [-97.6537159, 35.5551391], [-97.6538014, 35.5551391], [-97.6538014, 35.5552853]]]}, "properties": {"osm_id": 472160282, "building": "house", "name": "", "height": null, "height_m": null, "levels": null, "tract_id": "40109108521", "tract_name": "1085.21", "tags": {"building": "house"}}}, {"type": "Feature", "geometry": {"type": "Polygon", "coordinates": [[[-97.6538324, 35.5547149], [-97.6538324, 35.5549003], [-97.6537526, 35.5549003], [-97.6537526, 35.5548862], [-97.6537235, 35.5548862], [-97.6537235, 35.5548701], [-97.6536799, 35.5548701], [-97.6536799, 35.5548739], [-97.6536554, 35.5548739], [-97.6536554, 35.554755], [-97.6537513, 35.554755], [-97.6537513, 35.5547149], [-97.6538324, 35.5547149]]]}, "properties": {"osm_id": 472160283, "building": "house", "name": "", "height": null, "height_m": null, "levels": null, "tract_id": "40109108521", "tract_name": "1085.21", "tags": {"building": "house"}}}, {"type": "Feature", "geometry": {"type": "Polygon", "coordinates": [[[-97.6542385, 35.5547623], [-97.6542388, 35.5548989], [-97.6541574, 35.554899], [-97.6541573, 35.554859], [-97.6541496, 35.554859], [-97.6541496, 35.5548757], [-97.6541054, 35.5548758], [-97.6541054, 35.5548728], [-97.6540577, 35.5548729], [-97.6540574, 35.5547626], [-97.6542385, 35.5547623]]]}, "properties": {"osm_id": 472160284, "building": "house", "name": "", "height": null, "height_m": null, "levels": null, "tract_id": "40109108521", "tract_name": "1085.21", "tags": {"building": "house"}}}, {"type": "Feature", "geometry": {"type": "Polygon", "coordinates": [[[-97.6538011, 35.5562378], [-97.6538014, 35.5563848], [-97.6537173, 35.5563849], [-97.6537173, 35.5563666], [-97.6536975, 35.5563666], [-97.6536975, 35.5563553], [-97.65362, 35.5563554], [-97.6536197, 35.5562381], [-97.6538011, 35.5562378]]]}, "properties": {"osm_id": 472160285, "building": "house", "name": "", "height": null, "height_m": null, "levels": null, "tract_id": "40109108521", "tract_name": "1085.21", "tags": {"building": "house"}}}, {"type": "Feature", "geometry": {"type": "Polygon", "coordinates": [[[-97.6540002, 35.5562359], [-97.6540006, 35.5563845], [-97.6539174, 35.5563846], [-97.6539174, 35.5563808], [-97.6538923, 35.5563808], [-97.6538923, 35.5563701], [-97.6538762, 35.5563701], [-97.6538762, 35.5563796], [-97.6538225, 35.5563797], [-97.6538222, 35.5562362], [-97.6540002, 35.5562359]]]}, "properties": {"osm_id": 472160286, "building": "house", "name": "", "height": null, "height_m": null, "levels": null, "tract_id": "40109108521", "tract_name": "1085.21", "tags": {"building": "house"}}}, {"type": "Feature", "geometry": {"type": "Polygon", "coordinates": [[[-97.6546009, 35.5560475], [-97.6544312, 35.5560472], [-97.6544315, 35.5559592], [-97.6545234, 35.5559594], [-97.6545236, 35.5558997], [-97.6546013, 35.5558999], [-97.6546009, 35.5560475]]]}, "properties": {"osm_id": 472160287, "building": "house", "name": "", "height": null, "height_m": null, "levels": null, "tract_id": "40109108521", "tract_name": "1085.21", "tags": {"building": "house"}}}, {"type": "Feature", "geometry": {"type": "Polygon", "coordinates": [[[-97.6544016, 35.5560526], [-97.6542319, 35.5560526], [-97.6542319, 35.555949], [-97.6543104, 35.555949], [-97.6543104, 35.5559539], [-97.6543198, 35.5559539], [-97.6543198, 35.5558999], [-97.6544016, 35.5558999], [-97.6544016, 35.5560526]]]}, "properties": {"osm_id": 472160288, "building": "house", "name": "", "height": null, "height_m": null, "levels": null, "tract_id": "40109108521", "tract_name": "1085.21", "tags": {"building": "house"}}}, {"type": "Feature", "geometry": {"type": "Polygon", "coordinates": [[[-97.6547972, 35.5560251], [-97.6546426, 35.5560251], [-97.6546426, 35.5559413], [-97.6547201, 35.5559413], [-97.6547201, 35.5558832], [-97.6547972, 35.5558832], [-97.6547972, 35.5560251]]]}, "properties": {"osm_id": 472160289, "building": "house", "name": "", "height": null, "height_m": null, "levels": null, "tract_id": "40109108521", "tract_name": "1085.21", "tags": {"building": "house"}}}, {"type": "Feature", "geometry": {"type": "Polygon", "coordinates": [[[-97.6552364, 35.5560117], [-97.6550611, 35.556012], [-97.6550608, 35.5559105], [-97.655162, 35.5559104], [-97.6551619, 35.5558849], [-97.6552361, 35.5558848], [-97.6552364, 35.5560117]]]}, "properties": {"osm_id": 472160290, "building": "house", "name": "", "height": null, "height_m": null, "levels": null, "tract_id": "40109108521", "tract_name": "1085.21", "tags": {"building": "house"}}}, {"type": "Feature", "geometry": {"type": "Polygon", "coordinates": [[[-97.6554193, 35.564593], [-97.6554516, 35.5645465], [-97.6553666, 35.5645074], [-97.6553343, 35.5645539], [-97.6554193, 35.564593]]]}, "properties": {"osm_id": 723172226, "building": "roof", "name": "", "height": null, "height_m": null, "levels": null, "tract_id": "40109108521", "tract_name": "1085.21", "tags": {"building": "roof"}}}, {"type": "Feature", "geometry": {"type": "Polygon", "coordinates": [[[-97.6500613, 35.5618088], [-97.6500896, 35.5617661], [-97.6500632, 35.5617545], [-97.6500348, 35.5617972], [-97.6500613, 35.5618088]]]}, "properties": {"osm_id": 723187416, "building": "container", "name": "", "height": null, "height_m": null, "levels": null, "tract_id": "40109108521", "tract_name": "1085.21", "tags": {"amenity": "recycling", "building": "container", "recycling_type": "container"}}}, {"type": "Feature", "geometry": {"type": "Polygon", "coordinates": [[[-97.6483887, 35.5605727], [-97.6485388, 35.5606392], [-97.6486651, 35.5604506], [-97.6485106, 35.5603845], [-97.6484783, 35.5604339], [-97.6485056, 35.5604457], [-97.6485314, 35.5604569], [-97.6484984, 35.5605074], [-97.6484679, 35.560554], [-97.6484445, 35.5605439], [-97.6484157, 35.5605314], [-97.6483887, 35.5605727]]]}, "properties": {"osm_id": 723187431, "building": "roof", "name": "", "height": null, "height_m": null, "levels": null, "tract_id": "40109108521", "tract_name": "1085.21", "tags": {"building": "roof"}}}, {"type": "Feature", "geometry": {"type": "Polygon", "coordinates": [[[-97.6378715, 35.5566545], [-97.6378721, 35.5565994], [-97.637804, 35.5565989], [-97.6378033, 35.556654], [-97.6378715, 35.5566545]]]}, "properties": {"osm_id": 723196500, "building": "yes", "name": "", "height": null, "height_m": null, "levels": null, "tract_id": "40109108521", "tract_name": "1085.21", "tags": {"amenity": "fast_food", "building": "yes"}}}, {"type": "Feature", "geometry": {"type": "Polygon", "coordinates": [[[-97.6559154, 35.5566424], [-97.6558894, 35.556664], [-97.6559144, 35.5566839], [-97.6558454, 35.5567413], [-97.6558191, 35.5567204], [-97.6557807, 35.5567524], [-97.6556522, 35.5566502], [-97.6557149, 35.556598], [-97.6557255, 35.5566064], [-97.6557397, 35.5565946], [-97.6557441, 35.5566025], [-97.6558034, 35.5565532], [-97.6559154, 35.5566424]]]}, "properties": {"osm_id": 765920198, "building": "house", "name": "", "height": null, "height_m": null, "levels": null, "tract_id": "40109108521", "tract_name": "1085.21", "tags": {"building": "house"}}}, {"type": "Feature", "geometry": {"type": "Polygon", "coordinates": [[[-97.655978, 35.5564093], [-97.6559736, 35.5564335], [-97.6560051, 35.5564372], [-97.6559946, 35.5564948], [-97.6559646, 35.5564912], [-97.6559533, 35.5565534], [-97.655827, 35.5565383], [-97.6558419, 35.5564557], [-97.6558122, 35.5564522], [-97.6558234, 35.5563907], [-97.655978, 35.5564093]]]}, "properties": {"osm_id": 765920199, "building": "house", "name": "", "height": null, "height_m": null, "levels": null, "tract_id": "40109108521", "tract_name": "1085.21", "tags": {"building": "house"}}}, {"type": "Feature", "geometry": {"type": "Polygon", "coordinates": [[[-97.6559146, 35.5563711], [-97.6557603, 35.5563714], [-97.65576, 35.5563008], [-97.6557894, 35.5563007], [-97.6557894, 35.5562874], [-97.6557505, 35.5562875], [-97.6557503, 35.55623], [-97.6559142, 35.5562297], [-97.6559146, 35.5563711]]]}, "properties": {"osm_id": 765920200, "building": "house", "name": "", "height": null, "height_m": null, "levels": null, "tract_id": "40109108521", "tract_name": "1085.21", "tags": {"building": "house"}}}, {"type": "Feature", "geometry": {"type": "Polygon", "coordinates": [[[-97.6559119, 35.5562084], [-97.6557425, 35.5562068], [-97.6557434, 35.5561435], [-97.6557931, 35.556144], [-97.6557932, 35.5561332], [-97.6557782, 35.5561331], [-97.655779, 35.5560766], [-97.6558393, 35.5560771], [-97.6558395, 35.5560631], [-97.655914, 35.5560638], [-97.6559119, 35.5562084]]]}, "properties": {"osm_id": 765920201, "building": "house", "name": "", "height": null, "height_m": null, "levels": null, "tract_id": "40109108521", "tract_name": "1085.21", "tags": {"building": "house"}}}, {"type": "Feature", "geometry": {"type": "Polygon", "coordinates": [[[-97.6559379, 35.5560291], [-97.6557443, 35.5560315], [-97.655743, 35.5559599], [-97.6558119, 35.555959], [-97.6558105, 35.5558807], [-97.6559351, 35.5558792], [-97.6559379, 35.5560291]]]}, "properties": {"osm_id": 765920202, "building": "house", "name": "", "height": null, "height_m": null, "levels": null, "tract_id": "40109108521", "tract_name": "1085.21", "tags": {"building": "house"}}}, {"type": "Feature", "geometry": {"type": "Polygon", "coordinates": [[[-97.6554268, 35.5560331], [-97.6552801, 35.5560313], [-97.6552829, 35.555881], [-97.6553653, 35.555882], [-97.6553647, 35.5559149], [-97.6554291, 35.5559157], [-97.6554268, 35.5560331]]]}, "properties": {"osm_id": 765920203, "building": "house", "name": "", "height": null, "height_m": null, "levels": null, "tract_id": "40109108521", "tract_name": "1085.21", "tags": {"building": "house"}}}, {"type": "Feature", "geometry": {"type": "Polygon", "coordinates": [[[-97.6554646, 35.5563906], [-97.6553751, 35.5563918], [-97.6553739, 35.5563338], [-97.6552873, 35.5563349], [-97.6552854, 35.5562401], [-97.6554616, 35.5562378], [-97.6554646, 35.5563906]]]}, "properties": {"osm_id": 765920204, "building": "house", "name": "", "height": null, "height_m": null, "levels": null, "tract_id": "40109108521", "tract_name": "1085.21", "tags": {"building": "house"}}}, {"type": "Feature", "geometry": {"type": "Polygon", "coordinates": [[[-97.6551583, 35.5563874], [-97.6550566, 35.5563877], [-97.6550559, 35.5562367], [-97.655071, 35.5562367], [-97.6550709, 35.5562107], [-97.6551404, 35.5562105], [-97.6551405, 35.5562379], [-97.6552413, 35.5562375], [-97.6552419, 35.5563528], [-97.6551581, 35.5563531], [-97.6551583, 35.5563874]]]}, "properties": {"osm_id": 765920205, "building": "house", "name": "", "height": null, "height_m": null, "levels": null, "tract_id": "40109108521", "tract_name": "1085.21", "tags": {"building": "house"}}}, {"type": "Feature", "geometry": {"type": "Polygon", "coordinates": [[[-97.6550189, 35.5563814], [-97.6549321, 35.5563817], [-97.6549319, 35.5563449], [-97.6548972, 35.556345], [-97.6548972, 35.5563555], [-97.6548368, 35.5563557], [-97.6548361, 35.5562384], [-97.6550181, 35.5562377], [-97.6550189, 35.5563814]]]}, "properties": {"osm_id": 765920206, "building": "house", "name": "", "height": null, "height_m": null, "levels": null, "tract_id": "40109108521", "tract_name": "1085.21", "tags": {"building": "house"}}}, {"type": "Feature", "geometry": {"type": "Polygon", "coordinates": [[[-97.6547184, 35.5563838], [-97.6546318, 35.5563838], [-97.6546318, 35.5562326], [-97.6548129, 35.5562326], [-97.6548129, 35.5563249], [-97.6547184, 35.5563249], [-97.6547184, 35.5563838]]]}, "properties": {"osm_id": 765920207, "building": "house", "name": "", "height": null, "height_m": null, "levels": null, "tract_id": "40109108521", "tract_name": "1085.21", "tags": {"building": "house"}}}, {"type": "Feature", "geometry": {"type": "Polygon", "coordinates": [[[-97.6550077, 35.5558872], [-97.6550087, 35.5560045], [-97.6549693, 35.5560047], [-97.6549695, 35.5560306], [-97.6548575, 35.5560312], [-97.6548566, 35.5559197], [-97.6549154, 35.5559194], [-97.6549155, 35.5559364], [-97.6549342, 35.5559363], [-97.6549338, 35.5558876], [-97.6550077, 35.5558872]]]}, "properties": {"osm_id": 765920208, "building": "house", "name": "", "height": null, "height_m": null, "levels": null, "tract_id": "40109108521", "tract_name": "1085.21", "tags": {"building": "house"}}}, {"type": "Feature", "geometry": {"type": "Polygon", "coordinates": [[[-97.6529759, 35.5601951], [-97.652896, 35.5603245], [-97.6526993, 35.5602441], [-97.6527792, 35.5601148], [-97.6529759, 35.5601951]]]}, "properties": {"osm_id": 1055154365, "building": "yes", "name": "", "height": null, "height_m": null, "levels": null, "tract_id": "40109108521", "tract_name": "1085.21", "tags": {"building": "yes"}}}, {"type": "Feature", "geometry": {"type": "Polygon", "coordinates": [[[-97.6529929, 35.5602003], [-97.6529135, 35.5603279], [-97.6531055, 35.560407], [-97.6531849, 35.5602794], [-97.6529929, 35.5602003]]]}, "properties": {"osm_id": 1055154366, "building": "yes", "name": "", "height": null, "height_m": null, "levels": null, "tract_id": "40109108521", "tract_name": "1085.21", "tags": {"building": "yes"}}}, {"type": "Feature", "geometry": {"type": "Polygon", "coordinates": [[[-97.655618, 35.5537971], [-97.6556437, 35.5538672], [-97.6556942, 35.5538549], [-97.6557244, 35.5539371], [-97.655861, 35.5539039], [-97.655839, 35.5538438], [-97.6558624, 35.5538381], [-97.6558286, 35.553746], [-97.655618, 35.5537971]]]}, "properties": {"osm_id": 1251283029, "building": "yes", "name": "", "height": null, "height_m": null, "levels": null, "tract_id": "40109108521", "tract_name": "1085.21", "tags": {"building": "yes", "source": "microsoft/BuildingFootprints"}}}, {"type": "Feature", "geometry": {"type": "Polygon", "coordinates": [[[-97.6559114, 35.5539418], [-97.6556895, 35.5539644], [-97.6557051, 35.5540654], [-97.6557738, 35.5540584], [-97.6557807, 35.5541035], [-97.6559339, 35.5540879], [-97.6559114, 35.5539418]]]}, "properties": {"osm_id": 1251283030, "building": "yes", "name": "", "height": null, "height_m": null, "levels": null, "tract_id": "40109108521", "tract_name": "1085.21", "tags": {"building": "yes", "source": "microsoft/BuildingFootprints"}}}, {"type": "Feature", "geometry": {"type": "Polygon", "coordinates": [[[-97.655933, 35.5541304], [-97.6557281, 35.5541453], [-97.6557372, 35.5542276], [-97.6557585, 35.554226], [-97.6557659, 35.5542932], [-97.6559495, 35.5542797], [-97.655933, 35.5541304]]]}, "properties": {"osm_id": 1251283031, "building": "yes", "name": "", "height": null, "height_m": null, "levels": null, "tract_id": "40109108521", "tract_name": "1085.21", "tags": {"building": "yes", "source": "microsoft/BuildingFootprints"}}}, {"type": "Feature", "geometry": {"type": "Polygon", "coordinates": [[[-97.6557606, 35.5544755], [-97.6559456, 35.5544735], [-97.6559434, 35.5543361], [-97.6558549, 35.554337], [-97.6558546, 35.5543196], [-97.6557527, 35.5543207], [-97.6557541, 35.5544101], [-97.6557595, 35.5544101], [-97.6557606, 35.5544755]]]}, "properties": {"osm_id": 1251283032, "building": "yes", "name": "", "height": null, "height_m": null, "levels": null, "tract_id": "40109108521", "tract_name": "1085.21", "tags": {"building": "yes", "source": "microsoft/BuildingFootprints"}}}, {"type": "Feature", "geometry": {"type": "Polygon", "coordinates": [[[-97.6557565, 35.5546381], [-97.6559617, 35.5546386], [-97.6559623, 35.5545011], [-97.6557799, 35.5545007], [-97.6557796, 35.5545661], [-97.6557568, 35.5545661], [-97.6557565, 35.5546381]]]}, "properties": {"osm_id": 1251283033, "building": "yes", "name": "", "height": null, "height_m": null, "levels": null, "tract_id": "40109108521", "tract_name": "1085.21", "tags": {"building": "yes", "source": "microsoft/BuildingFootprints"}}}, {"type": "Feature", "geometry": {"type": "Polygon", "coordinates": [[[-97.6559747, 35.5546628], [-97.6557843, 35.5546656], [-97.6557858, 35.5547324], [-97.6557536, 35.5547329], [-97.6557552, 35.5548049], [-97.6559777, 35.5548016], [-97.6559747, 35.5546628]]]}, "properties": {"osm_id": 1251283034, "building": "yes", "name": "", "height": null, "height_m": null, "levels": null, "tract_id": "40109108521", "tract_name": "1085.21", "tags": {"building": "yes", "source": "microsoft/BuildingFootprints"}}}, {"type": "Feature", "geometry": {"type": "Polygon", "coordinates": [[[-97.655754, 35.5548222], [-97.6557527, 35.5548986], [-97.6557903, 35.554899], [-97.6557891, 35.5549688], [-97.6559352, 35.5549704], [-97.6559361, 35.5549215], [-97.6559669, 35.5549219], [-97.6559685, 35.5548246], [-97.655754, 35.5548222]]]}, "properties": {"osm_id": 1251283035, "building": "yes", "name": "", "height": null, "height_m": null, "levels": null, "tract_id": "40109108521", "tract_name": "1085.21", "tags": {"building": "yes", "source": "microsoft/BuildingFootprints"}}}, {"type": "Feature", "geometry": {"type": "Polygon", "coordinates": [[[-97.6557515, 35.5551366], [-97.6559325, 35.5551352], [-97.6559308, 35.5549903], [-97.6558101, 35.5549913], [-97.6558109, 35.555062], [-97.6557506, 35.5550625], [-97.6557515, 35.5551366]]]}, "properties": {"osm_id": 1251283036, "building": "yes", "name": "", "height": null, "height_m": null, "levels": null, "tract_id": "40109108521", "tract_name": "1085.21", "tags": {"building": "yes", "source": "microsoft/BuildingFootprints"}}}, {"type": "Feature", "geometry": {"type": "Polygon", "coordinates": [[[-97.6559198, 35.555156], [-97.6557629, 35.5551551], [-97.6557617, 35.5553026], [-97.6559186, 35.5553035], [-97.6559198, 35.555156]]]}, "properties": {"osm_id": 1251283037, "building": "yes", "name": "", "height": null, "height_m": null, "levels": null, "tract_id": "40109108521", "tract_name": "1085.21", "tags": {"building": "yes", "source": "microsoft/BuildingFootprints"}}}, {"type": "Feature", "geometry": {"type": "Polygon", "coordinates": [[[-97.6557524, 35.5554684], [-97.6559279, 35.5554653], [-97.6559244, 35.5553323], [-97.6557742, 35.5553349], [-97.6557759, 35.5553969], [-97.6557505, 35.5553973], [-97.6557524, 35.5554684]]]}, "properties": {"osm_id": 1251283038, "building": "yes", "name": "", "height": null, "height_m": null, "levels": null, "tract_id": "40109108521", "tract_name": "1085.21", "tags": {"building": "yes", "source": "microsoft/BuildingFootprints"}}}, {"type": "Feature", "geometry": {"type": "Polygon", "coordinates": [[[-97.6557439, 35.5556216], [-97.6559665, 35.5556242], [-97.6559675, 35.5555652], [-97.6559354, 35.5555649], [-97.6559363, 35.5555125], [-97.6558585, 35.5555116], [-97.655859, 35.5554854], [-97.6557463, 35.5554841], [-97.6557439, 35.5556216]]]}, "properties": {"osm_id": 1251283039, "building": "yes", "name": "", "height": null, "height_m": null, "levels": null, "tract_id": "40109108521", "tract_name": "1085.21", "tags": {"building": "yes", "source": "microsoft/BuildingFootprints"}}}, {"type": "Feature", "geometry": {"type": "Polygon", "coordinates": [[[-97.6553434, 35.5553461], [-97.6554842, 35.5553445], [-97.6554807, 35.5551394], [-97.6553936, 35.5551404], [-97.6553946, 35.5551972], [-97.6553007, 35.5551982], [-97.6553027, 35.555316], [-97.6553429, 35.5553156], [-97.6553434, 35.5553461]]]}, "properties": {"osm_id": 1251283040, "building": "yes", "name": "", "height": null, "height_m": null, "levels": null, "tract_id": "40109108521", "tract_name": "1085.21", "tags": {"building": "yes", "source": "microsoft/BuildingFootprints"}}}, {"type": "Feature", "geometry": {"type": "Polygon", "coordinates": [[[-97.6550756, 35.5552817], [-97.6552525, 35.555285], [-97.6552562, 35.5551563], [-97.6550792, 35.555153], [-97.6550756, 35.5552817]]]}, "properties": {"osm_id": 1251283041, "building": "yes", "name": "", "height": null, "height_m": null, "levels": null, "tract_id": "40109108521", "tract_name": "1085.21", "tags": {"building": "yes", "source": "microsoft/BuildingFootprints"}}}, {"type": "Feature", "geometry": {"type": "Polygon", "coordinates": [[[-97.6546506, 35.555282], [-97.6548263, 35.5552798], [-97.6548237, 35.5551414], [-97.6547378, 35.5551425], [-97.6547382, 35.5551609], [-97.6546483, 35.555162], [-97.6546506, 35.555282]]]}, "properties": {"osm_id": 1251283042, "building": "yes", "name": "", "height": null, "height_m": null, "levels": null, "tract_id": "40109108521", "tract_name": "1085.21", "tags": {"building": "yes", "source": "microsoft/BuildingFootprints"}}}, {"type": "Feature", "geometry": {"type": "Polygon", "coordinates": [[[-97.6548585, 35.5551935], [-97.6548609, 35.5552885], [-97.6550325, 35.5552857], [-97.655029, 35.555144], [-97.6549432, 35.5551453], [-97.6549443, 35.5551921], [-97.6548585, 35.5551935]]]}, "properties": {"osm_id": 1251283043, "building": "yes", "name": "", "height": null, "height_m": null, "levels": null, "tract_id": "40109108521", "tract_name": "1085.21", "tags": {"building": "yes", "source": "microsoft/BuildingFootprints"}}}, {"type": "Feature", "geometry": {"type": "Polygon", "coordinates": [[[-97.6544415, 35.5552787], [-97.6544991, 35.5552781], [-97.6544998, 35.555323], [-97.6546232, 35.5553217], [-97.6546204, 35.555145], [-97.6544394, 35.5551469], [-97.6544415, 35.5552787]]]}, "properties": {"osm_id": 1251283044, "building": "yes", "name": "", "height": null, "height_m": null, "levels": null, "tract_id": "40109108521", "tract_name": "1085.21", "tags": {"building": "yes", "source": "microsoft/BuildingFootprints"}}}, {"type": "Feature", "geometry": {"type": "Polygon", "coordinates": [[[-97.6540355, 35.5551641], [-97.6540341, 35.5552787], [-97.6542165, 35.5552802], [-97.6542182, 35.5551394], [-97.6541258, 35.5551386], [-97.6541254, 35.5551648], [-97.6540355, 35.5551641]]]}, "properties": {"osm_id": 1251283045, "building": "yes", "name": "", "height": null, "height_m": null, "levels": null, "tract_id": "40109108521", "tract_name": "1085.21", "tags": {"building": "yes", "source": "microsoft/BuildingFootprints"}}}, {"type": "Feature", "geometry": {"type": "Polygon", "coordinates": [[[-97.6538335, 35.5551534], [-97.6538347, 35.55528], [-97.6540117, 35.5552789], [-97.6540105, 35.5551405], [-97.653926, 35.555141], [-97.6539261, 35.5551529], [-97.6538335, 35.5551534]]]}, "properties": {"osm_id": 1251283046, "building": "yes", "name": "", "height": null, "height_m": null, "levels": null, "tract_id": "40109108521", "tract_name": "1085.21", "tags": {"building": "yes", "source": "microsoft/BuildingFootprints"}}}, {"type": "Feature", "geometry": {"type": "Polygon", "coordinates": [[[-97.6543327, 35.5551437], [-97.6543321, 35.5551926], [-97.6542449, 35.5551918], [-97.6542436, 35.5552869], [-97.6543027, 35.5552874], [-97.6543023, 35.5553114], [-97.654356, 35.5553119], [-97.6543563, 35.5552857], [-97.654418, 35.5552863], [-97.6544199, 35.5551445], [-97.6543327, 35.5551437]]]}, "properties": {"osm_id": 1251283047, "building": "yes", "name": "", "height": null, "height_m": null, "levels": null, "tract_id": "40109108521", "tract_name": "1085.21", "tags": {"building": "yes", "source": "microsoft/BuildingFootprints"}}}, {"type": "Feature", "geometry": {"type": "Polygon", "coordinates": [[[-97.6546491, 35.5554869], [-97.654648, 35.5556069], [-97.6547419, 35.5556074], [-97.6547417, 35.5556292], [-97.6548195, 35.5556297], [-97.6548207, 35.5554879], [-97.6546491, 35.5554869]]]}, "properties": {"osm_id": 1251283048, "building": "yes", "name": "", "height": null, "height_m": null, "levels": null, "tract_id": "40109108521", "tract_name": "1085.21", "tags": {"building": "yes", "source": "microsoft/BuildingFootprints"}}}, {"type": "Feature", "geometry": {"type": "Polygon", "coordinates": [[[-97.6548673, 35.555606], [-97.6549546, 35.5556071], [-97.6549542, 35.5556255], [-97.6550466, 35.5556266], [-97.6550492, 35.5554904], [-97.6548695, 35.5554882], [-97.6548673, 35.555606]]]}, "properties": {"osm_id": 1251283049, "building": "yes", "name": "", "height": null, "height_m": null, "levels": null, "tract_id": "40109108521", "tract_name": "1085.21", "tags": {"building": "yes", "source": "microsoft/BuildingFootprints"}}}, {"type": "Feature", "geometry": {"type": "Polygon", "coordinates": [[[-97.6552527, 35.5554822], [-97.6551803, 35.5554805], [-97.6551812, 35.5554565], [-97.6551303, 35.5554553], [-97.6551293, 35.5554836], [-97.6550757, 35.5554823], [-97.655072, 35.5555813], [-97.6551631, 35.5555835], [-97.6551615, 35.5556284], [-97.6552473, 35.5556305], [-97.6552527, 35.5554822]]]}, "properties": {"osm_id": 1251283050, "building": "yes", "name": "", "height": null, "height_m": null, "levels": null, "tract_id": "40109108521", "tract_name": "1085.21", "tags": {"building": "yes", "source": "microsoft/BuildingFootprints"}}}, {"type": "Feature", "geometry": {"type": "Polygon", "coordinates": [[[-97.6552893, 35.5555027], [-97.6552911, 35.5556388], [-97.6553784, 35.555638], [-97.655378, 35.555614], [-97.6554705, 35.5556132], [-97.655469, 35.555501], [-97.6552893, 35.5555027]]]}, "properties": {"osm_id": 1251283051, "building": "yes", "name": "", "height": null, "height_m": null, "levels": null, "tract_id": "40109108521", "tract_name": "1085.21", "tags": {"building": "yes", "source": "microsoft/BuildingFootprints"}}}, {"type": "Feature", "geometry": {"type": "Polygon", "coordinates": [[[-97.6544391, 35.5563603], [-97.6545249, 35.5563611], [-97.6545245, 35.5563851], [-97.6546211, 35.556386], [-97.6546232, 35.5562377], [-97.6544408, 35.556236], [-97.6544391, 35.5563603]]]}, "properties": {"osm_id": 1251283052, "building": "yes", "name": "", "height": null, "height_m": null, "levels": null, "tract_id": "40109108521", "tract_name": "1085.21", "tags": {"building": "yes", "source": "microsoft/BuildingFootprints"}}}, {"type": "Feature", "geometry": {"type": "Polygon", "coordinates": [[[-97.6542425, 35.5562404], [-97.6542412, 35.5563364], [-97.6543324, 35.5563372], [-97.6543318, 35.5563852], [-97.6544176, 35.5563859], [-97.6544195, 35.5562419], [-97.6542425, 35.5562404]]]}, "properties": {"osm_id": 1251283053, "building": "yes", "name": "", "height": null, "height_m": null, "levels": null, "tract_id": "40109108521", "tract_name": "1085.21", "tags": {"building": "yes", "source": "microsoft/BuildingFootprints"}}}, {"type": "Feature", "geometry": {"type": "Polygon", "coordinates": [[[-97.654046, 35.556231], [-97.6540423, 35.556354], [-97.654143, 35.5563561], [-97.6541421, 35.5563844], [-97.654221, 35.556386], [-97.6542256, 35.5562346], [-97.654046, 35.556231]]]}, "properties": {"osm_id": 1251283054, "building": "yes", "name": "", "height": null, "height_m": null, "levels": null, "tract_id": "40109108521", "tract_name": "1085.21", "tags": {"building": "yes", "source": "microsoft/BuildingFootprints"}}}, {"type": "Feature", "geometry": {"type": "Polygon", "coordinates": [[[-97.6540399, 35.5558837], [-97.6540376, 35.5560517], [-97.6541637, 35.5560528], [-97.6541642, 35.5560147], [-97.6542191, 35.5560152], [-97.6542203, 35.5559267], [-97.6541371, 35.555926], [-97.6541377, 35.5558845], [-97.6540399, 35.5558837]]]}, "properties": {"osm_id": 1251283055, "building": "yes", "name": "", "height": null, "height_m": null, "levels": null, "tract_id": "40109108521", "tract_name": "1085.21", "tags": {"building": "yes", "source": "microsoft/BuildingFootprints"}}}, {"type": "Feature", "geometry": {"type": "Polygon", "coordinates": [[[-97.6538142, 35.5558824], [-97.6537257, 35.5558831], [-97.6537263, 35.5559299], [-97.6536339, 35.5559307], [-97.6536352, 35.5560311], [-97.6538161, 35.5560295], [-97.6538142, 35.5558824]]]}, "properties": {"osm_id": 1251283056, "building": "yes", "name": "", "height": null, "height_m": null, "levels": null, "tract_id": "40109108521", "tract_name": "1085.21", "tags": {"building": "yes", "source": "microsoft/BuildingFootprints"}}}, {"type": "Feature", "geometry": {"type": "Polygon", "coordinates": [[[-97.6538358, 35.556028], [-97.6540153, 35.556033], [-97.6540212, 35.5558904], [-97.6538417, 35.5558854], [-97.6538358, 35.556028]]]}, "properties": {"osm_id": 1251283057, "building": "yes", "name": "", "height": null, "height_m": null, "levels": null, "tract_id": "40109108521", "tract_name": "1085.21", "tags": {"building": "yes", "source": "microsoft/BuildingFootprints"}}}, {"type": "Feature", "geometry": {"type": "Polygon", "coordinates": [[[-97.6536115, 35.5560151], [-97.6536105, 35.5559038], [-97.6535166, 35.5559044], [-97.6535164, 35.5558804], [-97.6534333, 35.5558808], [-97.6534344, 35.5560161], [-97.6536115, 35.5560151]]]}, "properties": {"osm_id": 1251283058, "building": "yes", "name": "", "height": null, "height_m": null, "levels": null, "tract_id": "40109108521", "tract_name": "1085.21", "tags": {"building": "yes", "source": "microsoft/BuildingFootprints"}}}, {"type": "Feature", "geometry": {"type": "Polygon", "coordinates": [[[-97.65323, 35.5560415], [-97.6534112, 35.5560435], [-97.6534138, 35.5558842], [-97.6533265, 35.5558832], [-97.6533256, 35.5559378], [-97.6532318, 35.5559368], [-97.65323, 35.5560415]]]}, "properties": {"osm_id": 1251283059, "building": "yes", "name": "", "height": null, "height_m": null, "levels": null, "tract_id": "40109108521", "tract_name": "1085.21", "tags": {"building": "yes", "source": "microsoft/BuildingFootprints"}}}, {"type": "Feature", "geometry": {"type": "Polygon", "coordinates": [[[-97.6532083, 35.5558828], [-97.6531252, 35.555884], [-97.6531263, 35.5559385], [-97.6530271, 35.5559399], [-97.6530292, 35.5560359], [-97.6532115, 35.5560333], [-97.6532083, 35.5558828]]]}, "properties": {"osm_id": 1251283060, "building": "yes", "name": "", "height": null, "height_m": null, "levels": null, "tract_id": "40109108521", "tract_name": "1085.21", "tags": {"building": "yes", "source": "microsoft/BuildingFootprints"}}}, {"type": "Feature", "geometry": {"type": "Polygon", "coordinates": [[[-97.6528103, 35.5559096], [-97.6528152, 35.5560207], [-97.6530027, 35.5560152], [-97.6529978, 35.5559041], [-97.6528103, 35.5559096]]]}, "properties": {"osm_id": 1251283061, "building": "yes", "name": "", "height": null, "height_m": null, "levels": null, "tract_id": "40109108521", "tract_name": "1085.21", "tags": {"building": "yes", "source": "microsoft/BuildingFootprints"}}}, {"type": "Feature", "geometry": {"type": "Polygon", "coordinates": [[[-97.6525899, 35.556019], [-97.6527735, 35.5560174], [-97.6527717, 35.555881], [-97.6526805, 35.5558818], [-97.6526808, 35.5559069], [-97.6525884, 35.5559078], [-97.6525899, 35.556019]]]}, "properties": {"osm_id": 1251283062, "building": "yes", "name": "", "height": null, "height_m": null, "levels": null, "tract_id": "40109108521", "tract_name": "1085.21", "tags": {"building": "yes", "source": "microsoft/BuildingFootprints"}}}, {"type": "Feature", "geometry": {"type": "Polygon", "coordinates": [[[-97.6525599, 35.5559475], [-97.6524619, 35.5559467], [-97.6524627, 35.5558834], [-97.6523822, 35.5558828], [-97.6523801, 35.5560486], [-97.6525586, 35.5560501], [-97.6525599, 35.5559475]]]}, "properties": {"osm_id": 1251283063, "building": "yes", "name": "", "height": null, "height_m": null, "levels": null, "tract_id": "40109108521", "tract_name": "1085.21", "tags": {"building": "yes", "source": "microsoft/BuildingFootprints"}}}, {"type": "Feature", "geometry": {"type": "Polygon", "coordinates": [[[-97.6522503, 35.5558973], [-97.6522509, 35.5559246], [-97.6521597, 35.5559259], [-97.6521619, 35.5560262], [-97.6522531, 35.5560249], [-97.6522538, 35.5560587], [-97.6522967, 35.5560581], [-97.652296, 35.5560254], [-97.6523377, 35.5560248], [-97.6523349, 35.5558961], [-97.6522503, 35.5558973]]]}, "properties": {"osm_id": 1251283064, "building": "yes", "name": "", "height": null, "height_m": null, "levels": null, "tract_id": "40109108521", "tract_name": "1085.21", "tags": {"building": "yes", "source": "microsoft/BuildingFootprints"}}}, {"type": "Feature", "geometry": {"type": "Polygon", "coordinates": [[[-97.6521799, 35.5561898], [-97.6521838, 35.5563785], [-97.6523581, 35.5563761], [-97.6523556, 35.5562594], [-97.6522913, 35.5562602], [-97.6522898, 35.5561882], [-97.6521799, 35.5561898]]]}, "properties": {"osm_id": 1251283065, "building": "yes", "name": "", "height": null, "height_m": null, "levels": null, "tract_id": "40109108521", "tract_name": "1085.21", "tags": {"building": "yes", "source": "microsoft/BuildingFootprints"}}}, {"type": "Feature", "geometry": {"type": "Polygon", "coordinates": [[[-97.6523827, 35.5563865], [-97.6524861, 35.5563853], [-97.6524857, 35.556358], [-97.6525607, 35.5563572], [-97.6525587, 35.5562372], [-97.6523802, 35.5562392], [-97.6523827, 35.5563865]]]}, "properties": {"osm_id": 1251283066, "building": "yes", "name": "", "height": null, "height_m": null, "levels": null, "tract_id": "40109108521", "tract_name": "1085.21", "tags": {"building": "yes", "source": "microsoft/BuildingFootprints"}}}, {"type": "Feature", "geometry": {"type": "Polygon", "coordinates": [[[-97.6527782, 35.5562492], [-97.6526027, 35.5562471], [-97.6526001, 35.5563867], [-97.6526859, 35.5563877], [-97.6526865, 35.5563594], [-97.6527761, 35.5563605], [-97.6527782, 35.5562492]]]}, "properties": {"osm_id": 1251283067, "building": "yes", "name": "", "height": null, "height_m": null, "levels": null, "tract_id": "40109108521", "tract_name": "1085.21", "tags": {"building": "yes", "source": "microsoft/BuildingFootprints"}}}, {"type": "Feature", "geometry": {"type": "Polygon", "coordinates": [[[-97.652818, 35.5562224], [-97.6528158, 35.5563249], [-97.6529108, 35.5563263], [-97.6529098, 35.5563721], [-97.6529929, 35.5563733], [-97.6529962, 35.556225], [-97.652818, 35.5562224]]]}, "properties": {"osm_id": 1251283068, "building": "yes", "name": "", "height": null, "height_m": null, "levels": null, "tract_id": "40109108521", "tract_name": "1085.21", "tags": {"building": "yes", "source": "microsoft/BuildingFootprints"}}}, {"type": "Feature", "geometry": {"type": "Polygon", "coordinates": [[[-97.6530243, 35.5562317], [-97.6530268, 35.5563626], [-97.6531126, 35.5563615], [-97.653113, 35.5563855], [-97.6532069, 35.5563844], [-97.6532039, 35.5562295], [-97.6530243, 35.5562317]]]}, "properties": {"osm_id": 1251283069, "building": "yes", "name": "", "height": null, "height_m": null, "levels": null, "tract_id": "40109108521", "tract_name": "1085.21", "tags": {"building": "yes", "source": "microsoft/BuildingFootprints"}}}, {"type": "Feature", "geometry": {"type": "Polygon", "coordinates": [[[-97.6534076, 35.5563706], [-97.6534026, 35.5562563], [-97.6532258, 35.5562614], [-97.6532308, 35.5563757], [-97.6534076, 35.5563706]]]}, "properties": {"osm_id": 1251283070, "building": "yes", "name": "", "height": null, "height_m": null, "levels": null, "tract_id": "40109108521", "tract_name": "1085.21", "tags": {"building": "yes", "source": "microsoft/BuildingFootprints"}}}, {"type": "Feature", "geometry": {"type": "Polygon", "coordinates": [[[-97.6535391, 35.556348], [-97.6536061, 35.5563491], [-97.6536084, 35.5562541], [-97.6534368, 35.5562513], [-97.6534336, 35.5563833], [-97.6535381, 35.5563851], [-97.6535391, 35.556348]]]}, "properties": {"osm_id": 1251283071, "building": "yes", "name": "", "height": null, "height_m": null, "levels": null, "tract_id": "40109108521", "tract_name": "1085.21", "tags": {"building": "yes", "source": "microsoft/BuildingFootprints"}}}, {"type": "Feature", "geometry": {"type": "Polygon", "coordinates": [[[-97.6542406, 35.5556149], [-97.6543252, 35.5556156], [-97.6543248, 35.555643], [-97.6544213, 35.5556439], [-97.6544233, 35.5554999], [-97.6542422, 35.5554983], [-97.6542406, 35.5556149]]]}, "properties": {"osm_id": 1251283072, "building": "yes", "name": "", "height": null, "height_m": null, "levels": null, "tract_id": "40109108521", "tract_name": "1085.21", "tags": {"building": "yes", "source": "microsoft/BuildingFootprints"}}}, {"type": "Feature", "geometry": {"type": "Polygon", "coordinates": [[[-97.6540365, 35.5555902], [-97.6541304, 35.5555914], [-97.6541293, 35.555645], [-97.6542151, 35.5556462], [-97.6542182, 35.5554945], [-97.6541712, 35.5554938], [-97.6541718, 35.5554676], [-97.6540954, 35.5554666], [-97.6540949, 35.5554928], [-97.6540386, 35.555492], [-97.6540365, 35.5555902]]]}, "properties": {"osm_id": 1251283073, "building": "yes", "name": "", "height": null, "height_m": null, "levels": null, "tract_id": "40109108521", "tract_name": "1085.21", "tags": {"building": "yes", "source": "microsoft/BuildingFootprints"}}}, {"type": "Feature", "geometry": {"type": "Polygon", "coordinates": [[[-97.6539159, 35.5554767], [-97.6539164, 35.5555094], [-97.653836, 35.5555102], [-97.653838, 35.5556411], [-97.654015, 35.5556393], [-97.6540125, 35.5554757], [-97.6539159, 35.5554767]]]}, "properties": {"osm_id": 1251283074, "building": "yes", "name": "", "height": null, "height_m": null, "levels": null, "tract_id": "40109108521", "tract_name": "1085.21", "tags": {"building": "yes", "source": "microsoft/BuildingFootprints"}}}, {"type": "Feature", "geometry": {"type": "Polygon", "coordinates": [[[-97.6552764, 35.5544553], [-97.6552779, 35.5545657], [-97.6554844, 35.5545639], [-97.6554822, 35.5543989], [-97.6553883, 35.5543998], [-97.655389, 35.5544543], [-97.6552764, 35.5544553]]]}, "properties": {"osm_id": 1251283411, "building": "yes", "name": "", "height": null, "height_m": null, "levels": null, "tract_id": "40109108521", "tract_name": "1085.21", "tags": {"building": "yes", "source": "microsoft/BuildingFootprints"}}}, {"type": "Feature", "geometry": {"type": "Polygon", "coordinates": [[[-97.6552959, 35.5548958], [-97.6553856, 35.5548985], [-97.6553878, 35.5548496], [-97.6554829, 35.5548525], [-97.6554871, 35.5547587], [-97.6553022, 35.5547533], [-97.6552959, 35.5548958]]]}, "properties": {"osm_id": 1251283412, "building": "yes", "name": "", "height": null, "height_m": null, "levels": null, "tract_id": "40109108521", "tract_name": "1085.21", "tags": {"building": "yes", "source": "microsoft/BuildingFootprints"}}}, {"type": "Feature", "geometry": {"type": "Polygon", "coordinates": [[[-97.6550871, 35.5545531], [-97.655252, 35.5545509], [-97.655249, 35.5544003], [-97.6551673, 35.5544014], [-97.6551681, 35.5544451], [-97.655085, 35.5544462], [-97.6550871, 35.5545531]]]}, "properties": {"osm_id": 1251283413, "building": "yes", "name": "", "height": null, "height_m": null, "levels": null, "tract_id": "40109108521", "tract_name": "1085.21", "tags": {"building": "yes", "source": "microsoft/BuildingFootprints"}}}, {"type": "Feature", "geometry": {"type": "Polygon", "coordinates": [[[-97.6548804, 35.5544112], [-97.6548766, 35.554543], [-97.6550548, 35.5545464], [-97.6550587, 35.5544147], [-97.6548804, 35.5544112]]]}, "properties": {"osm_id": 1251283414, "building": "yes", "name": "", "height": null, "height_m": null, "levels": null, "tract_id": "40109108521", "tract_name": "1085.21", "tags": {"building": "yes", "source": "microsoft/BuildingFootprints"}}}, {"type": "Feature", "geometry": {"type": "Polygon", "coordinates": [[[-97.6546738, 35.5543976], [-97.654677, 35.5545625], [-97.6548539, 35.5545603], [-97.6548517, 35.5544434], [-97.6547632, 35.5544445], [-97.6547623, 35.5543965], [-97.6546738, 35.5543976]]]}, "properties": {"osm_id": 1251283415, "building": "yes", "name": "", "height": null, "height_m": null, "levels": null, "tract_id": "40109108521", "tract_name": "1085.21", "tags": {"building": "yes", "source": "microsoft/BuildingFootprints"}}}, {"type": "Feature", "geometry": {"type": "Polygon", "coordinates": [[[-97.6546497, 35.5543993], [-97.6545641, 35.5544025], [-97.6545662, 35.5544386], [-97.6544671, 35.5544423], [-97.6544735, 35.5545543], [-97.6545137, 35.5545528], [-97.654515, 35.5545767], [-97.6545726, 35.5545746], [-97.6545713, 35.5545519], [-97.6546583, 35.5545486], [-97.6546497, 35.5543993]]]}, "properties": {"osm_id": 1251283416, "building": "yes", "name": "", "height": null, "height_m": null, "levels": null, "tract_id": "40109108521", "tract_name": "1085.21", "tags": {"building": "yes", "source": "microsoft/BuildingFootprints"}}}, {"type": "Feature", "geometry": {"type": "Polygon", "coordinates": [[[-97.6544403, 35.5543984], [-97.6543572, 35.5543999], [-97.6543579, 35.5544239], [-97.6542613, 35.5544257], [-97.6542647, 35.5545478], [-97.6544443, 35.5545445], [-97.6544403, 35.5543984]]]}, "properties": {"osm_id": 1251283417, "building": "yes", "name": "", "height": null, "height_m": null, "levels": null, "tract_id": "40109108521", "tract_name": "1085.21", "tags": {"building": "yes", "source": "microsoft/BuildingFootprints"}}}, {"type": "Feature", "geometry": {"type": "Polygon", "coordinates": [[[-97.6538266, 35.5544312], [-97.653828, 35.5545534], [-97.6539246, 35.5545526], [-97.6539249, 35.554581], [-97.6540054, 35.5545804], [-97.6540032, 35.5543971], [-97.6539227, 35.5543977], [-97.6539231, 35.5544305], [-97.6538266, 35.5544312]]]}, "properties": {"osm_id": 1251283418, "building": "yes", "name": "", "height": null, "height_m": null, "levels": null, "tract_id": "40109108521", "tract_name": "1085.21", "tags": {"building": "yes", "source": "microsoft/BuildingFootprints"}}}, {"type": "Feature", "geometry": {"type": "Polygon", "coordinates": [[[-97.6540471, 35.5545587], [-97.6542241, 35.5545602], [-97.654226, 35.5543997], [-97.6541402, 35.554399], [-97.6541395, 35.5544557], [-97.6540483, 35.554455], [-97.6540471, 35.5545587]]]}, "properties": {"osm_id": 1251283419, "building": "yes", "name": "", "height": null, "height_m": null, "levels": null, "tract_id": "40109108521", "tract_name": "1085.21", "tags": {"building": "yes", "source": "microsoft/BuildingFootprints"}}}, {"type": "Feature", "geometry": {"type": "Polygon", "coordinates": [[[-97.6533962, 35.5545414], [-97.653565, 35.5545451], [-97.6535698, 35.5544034], [-97.6534009, 35.5543996], [-97.6533962, 35.5545414]]]}, "properties": {"osm_id": 1251283420, "building": "yes", "name": "", "height": null, "height_m": null, "levels": null, "tract_id": "40109108521", "tract_name": "1085.21", "tags": {"building": "yes", "source": "microsoft/BuildingFootprints"}}}, {"type": "Feature", "geometry": {"type": "Polygon", "coordinates": [[[-97.653778, 35.5544039], [-97.6535997, 35.5544015], [-97.653597, 35.5545346], [-97.6536963, 35.5545359], [-97.6536957, 35.5545621], [-97.6537748, 35.5545631], [-97.653778, 35.5544039]]]}, "properties": {"osm_id": 1251283421, "building": "yes", "name": "", "height": null, "height_m": null, "levels": null, "tract_id": "40109108521", "tract_name": "1085.21", "tags": {"building": "yes", "source": "microsoft/BuildingFootprints"}}}, {"type": "Feature", "geometry": {"type": "Polygon", "coordinates": [[[-97.6531745, 35.5543951], [-97.6531551, 35.5545219], [-97.6532105, 35.5545275], [-97.6532052, 35.5545619], [-97.6533069, 35.5545722], [-97.6533337, 35.5543982], [-97.6532637, 35.5543911], [-97.6532617, 35.5544039], [-97.6531745, 35.5543951]]]}, "properties": {"osm_id": 1251283422, "building": "yes", "name": "", "height": null, "height_m": null, "levels": null, "tract_id": "40109108521", "tract_name": "1085.21", "tags": {"building": "yes", "source": "microsoft/BuildingFootprints"}}}, {"type": "Feature", "geometry": {"type": "Polygon", "coordinates": [[[-97.6528988, 35.5544803], [-97.6529798, 35.5545116], [-97.6529995, 35.5544777], [-97.6530346, 35.5544912], [-97.6531114, 35.5543594], [-97.6530304, 35.5543281], [-97.65302, 35.5543459], [-97.6529433, 35.5543164], [-97.6528738, 35.5544357], [-97.6529154, 35.5544518], [-97.6528988, 35.5544803]]]}, "properties": {"osm_id": 1251283423, "building": "yes", "name": "", "height": null, "height_m": null, "levels": null, "tract_id": "40109108521", "tract_name": "1085.21", "tags": {"building": "yes", "source": "microsoft/BuildingFootprints"}}}, {"type": "Feature", "geometry": {"type": "Polygon", "coordinates": [[[-97.6526751, 35.5542253], [-97.6526351, 35.5542117], [-97.6525988, 35.5542822], [-97.6527665, 35.5543394], [-97.6527971, 35.55428], [-97.6527777, 35.5542734], [-97.6528159, 35.5541992], [-97.6527076, 35.5541622], [-97.6526751, 35.5542253]]]}, "properties": {"osm_id": 1251283424, "building": "yes", "name": "", "height": null, "height_m": null, "levels": null, "tract_id": "40109108521", "tract_name": "1085.21", "tags": {"building": "yes", "source": "microsoft/BuildingFootprints"}}}, {"type": "Feature", "geometry": {"type": "Polygon", "coordinates": [[[-97.6525108, 35.5544423], [-97.6526494, 35.5544847], [-97.6527091, 35.5543558], [-97.6525706, 35.5543133], [-97.6525108, 35.5544423]]]}, "properties": {"osm_id": 1251283425, "building": "yes", "name": "", "height": null, "height_m": null, "levels": null, "tract_id": "40109108521", "tract_name": "1085.21", "tags": {"building": "yes", "source": "microsoft/BuildingFootprints"}}}, {"type": "Feature", "geometry": {"type": "Polygon", "coordinates": [[[-97.6524199, 35.5545932], [-97.6525305, 35.5546412], [-97.6526108, 35.554519], [-97.6524605, 35.5544537], [-97.6524226, 35.5545114], [-97.6524623, 35.5545286], [-97.6524199, 35.5545932]]]}, "properties": {"osm_id": 1251283426, "building": "yes", "name": "", "height": null, "height_m": null, "levels": null, "tract_id": "40109108521", "tract_name": "1085.21", "tags": {"building": "yes", "source": "microsoft/BuildingFootprints"}}}, {"type": "Feature", "geometry": {"type": "Polygon", "coordinates": [[[-97.6523549, 35.5546114], [-97.6523177, 35.5546771], [-97.6522945, 35.5546683], [-97.6522603, 35.5547286], [-97.6524151, 35.5547867], [-97.6524865, 35.5546607], [-97.6523549, 35.5546114]]]}, "properties": {"osm_id": 1251283427, "building": "yes", "name": "", "height": null, "height_m": null, "levels": null, "tract_id": "40109108521", "tract_name": "1085.21", "tags": {"building": "yes", "source": "microsoft/BuildingFootprints"}}}, {"type": "Feature", "geometry": {"type": "Polygon", "coordinates": [[[-97.6526786, 35.5548828], [-97.6527692, 35.5548967], [-97.652801, 35.5547597], [-97.6526326, 35.5547339], [-97.6526062, 35.5548477], [-97.6526839, 35.5548596], [-97.6526786, 35.5548828]]]}, "properties": {"osm_id": 1251283428, "building": "yes", "name": "", "height": null, "height_m": null, "levels": null, "tract_id": "40109108521", "tract_name": "1085.21", "tags": {"building": "yes", "source": "microsoft/BuildingFootprints"}}}, {"type": "Feature", "geometry": {"type": "Polygon", "coordinates": [[[-97.65287, 35.5549002], [-97.6529518, 35.5548996], [-97.6529517, 35.5548909], [-97.6530429, 35.5548903], [-97.6530416, 35.5547648], [-97.6528687, 35.5547659], [-97.65287, 35.5549002]]]}, "properties": {"osm_id": 1251283429, "building": "yes", "name": "", "height": null, "height_m": null, "levels": null, "tract_id": "40109108521", "tract_name": "1085.21", "tags": {"building": "yes", "source": "microsoft/BuildingFootprints"}}}, {"type": "Feature", "geometry": {"type": "Polygon", "coordinates": [[[-97.6531571, 35.5549028], [-97.6532482, 35.5549009], [-97.6532437, 35.5547538], [-97.6530668, 35.5547574], [-97.6530704, 35.5548762], [-97.6531562, 35.5548744], [-97.6531571, 35.5549028]]]}, "properties": {"osm_id": 1251283430, "building": "yes", "name": "", "height": null, "height_m": null, "levels": null, "tract_id": "40109108521", "tract_name": "1085.21", "tags": {"building": "yes", "source": "microsoft/BuildingFootprints"}}}, {"type": "Feature", "geometry": {"type": "Polygon", "coordinates": [[[-97.6533989, 35.5547343], [-97.6532742, 35.5547329], [-97.6532713, 35.5548955], [-97.6534322, 35.5548974], [-97.6534346, 35.5547621], [-97.6533984, 35.5547617], [-97.6533989, 35.5547343]]]}, "properties": {"osm_id": 1251283431, "building": "yes", "name": "", "height": null, "height_m": null, "levels": null, "tract_id": "40109108521", "tract_name": "1085.21", "tags": {"building": "yes", "source": "microsoft/BuildingFootprints"}}}, {"type": "Feature", "geometry": {"type": "Polygon", "coordinates": [[[-97.6536411, 35.5547199], [-97.6534668, 35.5547225], [-97.6534703, 35.5548752], [-97.6535507, 35.554874], [-97.6535514, 35.5549045], [-97.6536452, 35.5549031], [-97.6536411, 35.5547199]]]}, "properties": {"osm_id": 1251283432, "building": "yes", "name": "", "height": null, "height_m": null, "levels": null, "tract_id": "40109108521", "tract_name": "1085.21", "tags": {"building": "yes", "source": "microsoft/BuildingFootprints"}}}, {"type": "Feature", "geometry": {"type": "Polygon", "coordinates": [[[-97.653966, 35.5549003], [-97.6540545, 35.5548986], [-97.6540504, 35.5547491], [-97.6539592, 35.5547508], [-97.6539583, 35.5547193], [-97.6539101, 35.5547202], [-97.6539109, 35.5547485], [-97.6538626, 35.5547494], [-97.6538656, 35.5548563], [-97.6539648, 35.5548545], [-97.653966, 35.5549003]]]}, "properties": {"osm_id": 1251283433, "building": "yes", "name": "", "height": null, "height_m": null, "levels": null, "tract_id": "40109108521", "tract_name": "1085.21", "tags": {"building": "yes", "source": "microsoft/BuildingFootprints"}}}, {"type": "Feature", "geometry": {"type": "Polygon", "coordinates": [[[-97.6543794, 35.5549025], [-97.6544625, 35.5549009], [-97.654458, 35.5547439], [-97.6542757, 35.5547473], [-97.6542786, 35.5548477], [-97.6543778, 35.5548458], [-97.6543794, 35.5549025]]]}, "properties": {"osm_id": 1251283434, "building": "yes", "name": "", "height": null, "height_m": null, "levels": null, "tract_id": "40109108521", "tract_name": "1085.21", "tags": {"building": "yes", "source": "microsoft/BuildingFootprints"}}}, {"type": "Feature", "geometry": {"type": "Polygon", "coordinates": [[[-97.6544829, 35.5547171], [-97.654487, 35.5548588], [-97.6545607, 35.5548574], [-97.654562, 35.5549023], [-97.6546371, 35.5549008], [-97.6546325, 35.554746], [-97.6545682, 35.5547472], [-97.6545673, 35.5547154], [-97.6544829, 35.5547171]]]}, "properties": {"osm_id": 1251283435, "building": "yes", "name": "", "height": null, "height_m": null, "levels": null, "tract_id": "40109108521", "tract_name": "1085.21", "tags": {"building": "yes", "source": "microsoft/BuildingFootprints"}}}, {"type": "Feature", "geometry": {"type": "Polygon", "coordinates": [[[-97.6547738, 35.5548992], [-97.6548556, 35.5548998], [-97.6548575, 35.5547471], [-97.6546724, 35.5547456], [-97.6546712, 35.5548429], [-97.6547745, 35.5548437], [-97.6547738, 35.5548992]]]}, "properties": {"osm_id": 1251283436, "building": "yes", "name": "", "height": null, "height_m": null, "levels": null, "tract_id": "40109108521", "tract_name": "1085.21", "tags": {"building": "yes", "source": "microsoft/BuildingFootprints"}}}, {"type": "Feature", "geometry": {"type": "Polygon", "coordinates": [[[-97.6548768, 35.5547637], [-97.6548794, 35.5548924], [-97.6550618, 35.55489], [-97.6550592, 35.5547613], [-97.6548768, 35.5547637]]]}, "properties": {"osm_id": 1251283437, "building": "yes", "name": "", "height": null, "height_m": null, "levels": null, "tract_id": "40109108521", "tract_name": "1085.21", "tags": {"building": "yes", "source": "microsoft/BuildingFootprints"}}}, {"type": "Feature", "geometry": {"type": "Polygon", "coordinates": [[[-97.6551578, 35.5549032], [-97.6552476, 35.5549046], [-97.6552512, 35.5547476], [-97.6551989, 35.5547468], [-97.6551994, 35.5547262], [-97.6550975, 35.5547247], [-97.6550944, 35.5548608], [-97.6551587, 35.5548618], [-97.6551578, 35.5549032]]]}, "properties": {"osm_id": 1251283438, "building": "yes", "name": "", "height": null, "height_m": null, "levels": null, "tract_id": "40109108521", "tract_name": "1085.21", "tags": {"building": "yes", "source": "microsoft/BuildingFootprints"}}}, {"type": "Feature", "geometry": {"type": "Polygon", "coordinates": [[[-97.6530282, 35.5552681], [-97.65311, 35.5552695], [-97.6531093, 35.5552989], [-97.6531951, 35.5553004], [-97.6531992, 35.5551401], [-97.6531201, 35.5551388], [-97.6531196, 35.5551584], [-97.6530311, 35.5551569], [-97.6530282, 35.5552681]]]}, "properties": {"osm_id": 1251283439, "building": "yes", "name": "", "height": null, "height_m": null, "levels": null, "tract_id": "40109108521", "tract_name": "1085.21", "tags": {"building": "yes", "source": "microsoft/BuildingFootprints"}}}, {"type": "Feature", "geometry": {"type": "Polygon", "coordinates": [[[-97.6528243, 35.5551439], [-97.6528196, 35.5552725], [-97.6529965, 35.5552768], [-97.6530012, 35.5551482], [-97.6528243, 35.5551439]]]}, "properties": {"osm_id": 1251283440, "building": "yes", "name": "", "height": null, "height_m": null, "levels": null, "tract_id": "40109108521", "tract_name": "1085.21", "tags": {"building": "yes", "source": "microsoft/BuildingFootprints"}}}, {"type": "Feature", "geometry": {"type": "Polygon", "coordinates": [[[-97.6525971, 35.5552579], [-97.6526498, 35.5552669], [-97.6526427, 35.5552941], [-97.6527018, 35.5553042], [-97.6527091, 35.555276], [-97.6527745, 35.5552873], [-97.6528035, 35.5551754], [-97.6526263, 35.5551451], [-97.6525971, 35.5552579]]]}, "properties": {"osm_id": 1251283441, "building": "yes", "name": "", "height": null, "height_m": null, "levels": null, "tract_id": "40109108521", "tract_name": "1085.21", "tags": {"building": "yes", "source": "microsoft/BuildingFootprints"}}}, {"type": "Feature", "geometry": {"type": "Polygon", "coordinates": [[[-97.6524953, 35.5550955], [-97.6524902, 35.5551096], [-97.652416, 35.5550922], [-97.6523691, 35.5552241], [-97.6525424, 35.5552648], [-97.6525943, 35.5551188], [-97.6524953, 35.5550955]]]}, "properties": {"osm_id": 1251283442, "building": "yes", "name": "", "height": null, "height_m": null, "levels": null, "tract_id": "40109108521", "tract_name": "1085.21", "tags": {"building": "yes", "source": "microsoft/BuildingFootprints"}}}, {"type": "Feature", "geometry": {"type": "Polygon", "coordinates": [[[-97.6520313, 35.5550442], [-97.6521802, 35.555106], [-97.6521954, 35.5550818], [-97.6522315, 35.5550969], [-97.6522587, 35.5550536], [-97.6523034, 35.5550722], [-97.6523403, 35.5550133], [-97.6521553, 35.5549364], [-97.6521134, 35.555003], [-97.6520688, 35.5549845], [-97.6520313, 35.5550442]]]}, "properties": {"osm_id": 1251283443, "building": "yes", "name": "", "height": null, "height_m": null, "levels": null, "tract_id": "40109108521", "tract_name": "1085.21", "tags": {"building": "yes", "source": "microsoft/BuildingFootprints"}}}, {"type": "Feature", "geometry": {"type": "Polygon", "coordinates": [[[-97.6519476, 35.5551917], [-97.6519275, 35.5552598], [-97.6520963, 35.5552926], [-97.6521388, 35.5551481], [-97.6519954, 35.5551202], [-97.6519729, 35.5551966], [-97.6519476, 35.5551917]]]}, "properties": {"osm_id": 1251283444, "building": "yes", "name": "", "height": null, "height_m": null, "levels": null, "tract_id": "40109108521", "tract_name": "1085.21", "tags": {"building": "yes", "source": "microsoft/BuildingFootprints"}}}, {"type": "Feature", "geometry": {"type": "Polygon", "coordinates": [[[-97.6519328, 35.5553595], [-97.6519762, 35.5554978], [-97.6521323, 35.5554654], [-97.6520889, 35.5553271], [-97.6519328, 35.5553595]]]}, "properties": {"osm_id": 1251283445, "building": "yes", "name": "", "height": null, "height_m": null, "levels": null, "tract_id": "40109108521", "tract_name": "1085.21", "tags": {"building": "yes", "source": "microsoft/BuildingFootprints"}}}, {"type": "Feature", "geometry": {"type": "Polygon", "coordinates": [[[-97.6520273, 35.55552], [-97.6520464, 35.5555976], [-97.6519934, 35.5556062], [-97.6520104, 35.5556755], [-97.6521806, 35.5556478], [-97.6521446, 35.5555009], [-97.6520273, 35.55552]]]}, "properties": {"osm_id": 1251283446, "building": "yes", "name": "", "height": null, "height_m": null, "levels": null, "tract_id": "40109108521", "tract_name": "1085.21", "tags": {"building": "yes", "source": "microsoft/BuildingFootprints"}}}, {"type": "Feature", "geometry": {"type": "Polygon", "coordinates": [[[-97.6525321, 35.5556355], [-97.6525341, 35.5554828], [-97.6524403, 35.5554819], [-97.6524406, 35.5554558], [-97.6523602, 35.5554551], [-97.6523581, 35.5556132], [-97.6524453, 35.555614], [-97.652445, 35.5556347], [-97.6525321, 35.5556355]]]}, "properties": {"osm_id": 1251283447, "building": "yes", "name": "", "height": null, "height_m": null, "levels": null, "tract_id": "40109108521", "tract_name": "1085.21", "tags": {"building": "yes", "source": "microsoft/BuildingFootprints"}}}, {"type": "Feature", "geometry": {"type": "Polygon", "coordinates": [[[-97.6527507, 35.5554929], [-97.652571, 35.5554952], [-97.6525729, 35.5555912], [-97.6526668, 35.55559], [-97.6526678, 35.5556446], [-97.6527536, 35.5556434], [-97.6527507, 35.5554929]]]}, "properties": {"osm_id": 1251283448, "building": "yes", "name": "", "height": null, "height_m": null, "levels": null, "tract_id": "40109108521", "tract_name": "1085.21", "tags": {"building": "yes", "source": "microsoft/BuildingFootprints"}}}, {"type": "Feature", "geometry": {"type": "Polygon", "coordinates": [[[-97.6528008, 35.5556278], [-97.6529, 35.5556261], [-97.6529005, 35.5556469], [-97.6529863, 35.5556455], [-97.6529828, 35.5555047], [-97.6527978, 35.5555078], [-97.6528008, 35.5556278]]]}, "properties": {"osm_id": 1251283449, "building": "yes", "name": "", "height": null, "height_m": null, "levels": null, "tract_id": "40109108521", "tract_name": "1085.21", "tags": {"building": "yes", "source": "microsoft/BuildingFootprints"}}}, {"type": "Feature", "geometry": {"type": "Polygon", "coordinates": [[[-97.6531124, 35.5556424], [-97.6532035, 35.5556408], [-97.6531996, 35.555499], [-97.6530334, 35.5555021], [-97.6530359, 35.5555915], [-97.6531109, 35.5555901], [-97.6531124, 35.5556424]]]}, "properties": {"osm_id": 1251283450, "building": "yes", "name": "", "height": null, "height_m": null, "levels": null, "tract_id": "40109108521", "tract_name": "1085.21", "tags": {"building": "yes", "source": "microsoft/BuildingFootprints"}}}, {"type": "Feature", "geometry": {"type": "Polygon", "coordinates": [[[-97.6533092, 35.5556398], [-97.6534124, 35.5556416], [-97.6534158, 35.5555052], [-97.6532469, 35.5555023], [-97.6532439, 35.5556213], [-97.6533097, 35.5556224], [-97.6533092, 35.5556398]]]}, "properties": {"osm_id": 1251283451, "building": "yes", "name": "", "height": null, "height_m": null, "levels": null, "tract_id": "40109108521", "tract_name": "1085.21", "tags": {"building": "yes", "source": "microsoft/BuildingFootprints"}}}, {"type": "Feature", "geometry": {"type": "Polygon", "coordinates": [[[-97.6534329, 35.5556324], [-97.6535375, 35.555633], [-97.6535377, 35.5556155], [-97.6536128, 35.5556159], [-97.6536138, 35.5554959], [-97.6535696, 35.5554957], [-97.6535699, 35.5554695], [-97.6535014, 35.5554691], [-97.6535012, 35.5554953], [-97.6534341, 35.5554949], [-97.6534329, 35.5556324]]]}, "properties": {"osm_id": 1251283452, "building": "yes", "name": "", "height": null, "height_m": null, "levels": null, "tract_id": "40109108521", "tract_name": "1085.21", "tags": {"building": "yes", "source": "microsoft/BuildingFootprints"}}}, {"type": "Feature", "geometry": {"type": "Polygon", "coordinates": [[[-97.6538134, 35.5554959], [-97.6536364, 35.5554982], [-97.6536383, 35.5555942], [-97.6537268, 35.5555931], [-97.6537279, 35.5556454], [-97.6538164, 35.5556442], [-97.6538134, 35.5554959]]]}, "properties": {"osm_id": 1251283453, "building": "yes", "name": "", "height": null, "height_m": null, "levels": null, "tract_id": "40109108521", "tract_name": "1085.21", "tags": {"building": "yes", "source": "microsoft/BuildingFootprints"}}}, {"type": "Feature", "geometry": {"type": "Polygon", "coordinates": [[[-97.6476966, 35.561216], [-97.6476648, 35.5612632], [-97.6478068, 35.5613226], [-97.6477206, 35.5614588], [-97.6476573, 35.5615546], [-97.6477284, 35.5615862], [-97.647914, 35.5613051], [-97.6476966, 35.561216]]]}, "properties": {"osm_id": 1252381936, "building": "roof", "name": "", "height": null, "height_m": null, "levels": null, "tract_id": "40109108521", "tract_name": "1085.21", "tags": {"building": "roof"}}}, {"type": "Feature", "geometry": {"type": "Polygon", "coordinates": [[[-97.6476338, 35.5613093], [-97.6476648, 35.5612632], [-97.6476966, 35.561216], [-97.6473508, 35.5610621], [-97.6472881, 35.5611553], [-97.6476338, 35.5613093]]]}, "properties": {"osm_id": 1360892544, "building": "roof", "name": "", "height": null, "height_m": null, "levels": null, "tract_id": "40109108521", "tract_name": "1085.21", "tags": {"building": "roof", "layer": "1"}}}]}