{"type": "FeatureCollection", "features": [{"type": "Feature", "geometry": {"type": "Polygon", "coordinates": [[[-95.9590231, 36.0894508], [-95.9586015, 36.0894484], [-95.95856, 36.0894153], [-95.9585622, 36.0891598], [-95.9590256, 36.0891624], [-95.9590231, 36.0894508]]]}, "properties": {"osm_id": 385459113, "building": "retail", "name": "Dollar Tree", "height": null, "height_m": 3.0, "levels": 1, "tract_id": "40143006803", "tract_name": "68.03", "tags": {"brand": "Dollar Tree", "brand:wikidata": "Q5289230", "building": "retail", "building:levels": "1", "name": "Dollar Tree", "roof:levels": "0", "roof:shape": "flat", "shop": "variety_store"}}}, {"type": "Feature", "geometry": {"type": "Polygon", "coordinates": [[[-95.958876, 36.0810549], [-95.9588795, 36.0812599], [-95.9588397, 36.0812604], [-95.9588399, 36.081272], [-95.9587548, 36.0812729], [-95.9587546, 36.0812613], [-95.9586993, 36.0812619], [-95.9586973, 36.0811398], [-95.9587306, 36.0811394], [-95.9587292, 36.0810566], [-95.958876, 36.0810549]]]}, "properties": {"osm_id": 618120225, "building": "yes", "name": "Southern Hills Veterinary Hospital", "height": null, "height_m": null, "levels": null, "tract_id": "40143006803", "tract_name": "68.03", "tags": {"amenity": "veterinary", "building": "yes", "check_date": "2024-09-10", "name": "Southern Hills Veterinary Hospital", "phone": "+1 918 747 1311"}}}, {"type": "Feature", "geometry": {"type": "Polygon", "coordinates": [[[-95.9627799, 36.0894036], [-95.9623919, 36.0894026], [-95.9623925, 36.0892557], [-95.9627805, 36.0892567], [-95.9627799, 36.0894036]]]}, "properties": {"osm_id": 628240744, "building": "yes", "name": "", "height": null, "height_m": null, "levels": null, "tract_id": "40143006803", "tract_name": "68.03", "tags": {"building": "yes"}}}, {"type": "Feature", "geometry": {"type": "Polygon", "coordinates": [[[-95.9623432, 36.0893753], [-95.9619509, 36.0893823], [-95.9619471, 36.0892432], [-95.9623395, 36.0892362], [-95.9623432, 36.0893753]]]}, "properties": {"osm_id": 628240745, "building": "yes", "name": "", "height": null, "height_m": null, "levels": null, "tract_id": "40143006803", "tract_name": "68.03", "tags": {"building": "yes"}}}, {"type": "Feature", "geometry": {"type": "Polygon", "coordinates": [[[-95.9619019, 36.0893855], [-95.961903, 36.0892622], [-95.9616039, 36.0892605], [-95.9616029, 36.0893839], [-95.9619019, 36.0893855]]]}, "properties": {"osm_id": 628240746, "building": "yes", "name": "", "height": null, "height_m": null, "levels": null, "tract_id": "40143006803", "tract_name": "68.03", "tags": {"building": "yes"}}}, {"type": "Feature", "geometry": {"type": "Polygon", "coordinates": [[[-95.9612065, 36.0893863], [-95.9612053, 36.0890695], [-95.9610284, 36.08907], [-95.9610296, 36.0893867], [-95.9612065, 36.0893863]]]}, "properties": {"osm_id": 628240747, "building": "yes", "name": "", "height": null, "height_m": null, "levels": null, "tract_id": "40143006803", "tract_name": "68.03", "tags": {"building": "yes"}}}, {"type": "Feature", "geometry": {"type": "Polygon", "coordinates": [[[-95.9615268, 36.0890066], [-95.9610128, 36.0890085], [-95.961012, 36.0888622], [-95.961526, 36.0888604], [-95.9615268, 36.0890066]]]}, "properties": {"osm_id": 628240748, "building": "yes", "name": "", "height": null, "height_m": null, "levels": null, "tract_id": "40143006803", "tract_name": "68.03", "tags": {"building": "yes"}}}, {"type": "Feature", "geometry": {"type": "Polygon", "coordinates": [[[-95.9619482, 36.0888059], [-95.9615656, 36.0888106], [-95.9615629, 36.0886683], [-95.9619455, 36.0886637], [-95.9619482, 36.0888059]]]}, "properties": {"osm_id": 628240749, "building": "yes", "name": "", "height": null, "height_m": null, "levels": null, "tract_id": "40143006803", "tract_name": "68.03", "tags": {"building": "yes"}}}, {"type": "Feature", "geometry": {"type": "Polygon", "coordinates": [[[-95.9620141, 36.0891887], [-95.9620153, 36.0888748], [-95.9618321, 36.0888744], [-95.9618308, 36.0891882], [-95.9620141, 36.0891887]]]}, "properties": {"osm_id": 628240750, "building": "yes", "name": "", "height": null, "height_m": null, "levels": null, "tract_id": "40143006803", "tract_name": "68.03", "tags": {"building": "yes"}}}, {"type": "Feature", "geometry": {"type": "Polygon", "coordinates": [[[-95.9625321, 36.0891833], [-95.962141, 36.0891821], [-95.9621418, 36.089033], [-95.9625328, 36.0890343], [-95.9625321, 36.0891833]]]}, "properties": {"osm_id": 628240751, "building": "yes", "name": "", "height": null, "height_m": null, "levels": null, "tract_id": "40143006803", "tract_name": "68.03", "tags": {"building": "yes"}}}, {"type": "Feature", "geometry": {"type": "Polygon", "coordinates": [[[-95.9627654, 36.0892231], [-95.9627661, 36.0888035], [-95.9625857, 36.0888033], [-95.9625851, 36.089223], [-95.9627654, 36.0892231]]]}, "properties": {"osm_id": 628240752, "building": "yes", "name": "", "height": null, "height_m": null, "levels": null, "tract_id": "40143006803", "tract_name": "68.03", "tags": {"building": "yes"}}}, {"type": "Feature", "geometry": {"type": "Polygon", "coordinates": [[[-95.962442, 36.0889891], [-95.9620613, 36.0889922], [-95.9620594, 36.0888448], [-95.9624402, 36.0888417], [-95.962442, 36.0889891]]]}, "properties": {"osm_id": 628240753, "building": "yes", "name": "", "height": null, "height_m": null, "levels": null, "tract_id": "40143006803", "tract_name": "68.03", "tags": {"building": "yes"}}}, {"type": "Feature", "geometry": {"type": "Polygon", "coordinates": [[[-95.9627607, 36.0886022], [-95.9623798, 36.0886022], [-95.9623798, 36.0884581], [-95.9627607, 36.0884581], [-95.9627607, 36.0886022]]]}, "properties": {"osm_id": 628240754, "building": "yes", "name": "", "height": null, "height_m": null, "levels": null, "tract_id": "40143006803", "tract_name": "68.03", "tags": {"building": "yes"}}}, {"type": "Feature", "geometry": {"type": "Polygon", "coordinates": [[[-95.9623069, 36.0886007], [-95.96191, 36.0886015], [-95.9619096, 36.0884606], [-95.9623065, 36.0884598], [-95.9623069, 36.0886007]]]}, "properties": {"osm_id": 628240755, "building": "yes", "name": "", "height": null, "height_m": null, "levels": null, "tract_id": "40143006803", "tract_name": "68.03", "tags": {"building": "yes"}}}, {"type": "Feature", "geometry": {"type": "Polygon", "coordinates": [[[-95.9627882, 36.0884012], [-95.9622712, 36.0884028], [-95.9622705, 36.0882592], [-95.9627875, 36.0882576], [-95.9627882, 36.0884012]]]}, "properties": {"osm_id": 628240756, "building": "yes", "name": "", "height": null, "height_m": null, "levels": null, "tract_id": "40143006803", "tract_name": "68.03", "tags": {"building": "yes"}}}, {"type": "Feature", "geometry": {"type": "Polygon", "coordinates": [[[-95.9627883, 36.088203], [-95.962788, 36.088061], [-95.9622663, 36.0880618], [-95.9622667, 36.0882038], [-95.9627883, 36.088203]]]}, "properties": {"osm_id": 628240757, "building": "yes", "name": "", "height": null, "height_m": null, "levels": null, "tract_id": "40143006803", "tract_name": "68.03", "tags": {"building": "yes"}}}, {"type": "Feature", "geometry": {"type": "Polygon", "coordinates": [[[-95.9622153, 36.0883912], [-95.9622097, 36.0880774], [-95.9620347, 36.0880795], [-95.9620403, 36.0883932], [-95.9622153, 36.0883912]]]}, "properties": {"osm_id": 628240758, "building": "yes", "name": "", "height": null, "height_m": null, "levels": null, "tract_id": "40143006803", "tract_name": "68.03", "tags": {"building": "yes"}}}, {"type": "Feature", "geometry": {"type": "Polygon", "coordinates": [[[-95.9619817, 36.0882252], [-95.9619806, 36.0880859], [-95.9614717, 36.0880884], [-95.9614727, 36.0882276], [-95.9619817, 36.0882252]]]}, "properties": {"osm_id": 628240759, "building": "yes", "name": "", "height": null, "height_m": null, "levels": null, "tract_id": "40143006803", "tract_name": "68.03", "tags": {"building": "yes"}}}, {"type": "Feature", "geometry": {"type": "Polygon", "coordinates": [[[-95.9616502, 36.0886076], [-95.9616483, 36.0882862], [-95.961476, 36.0882869], [-95.9614778, 36.0886082], [-95.9616502, 36.0886076]]]}, "properties": {"osm_id": 628240760, "building": "yes", "name": "", "height": null, "height_m": null, "levels": null, "tract_id": "40143006803", "tract_name": "68.03", "tags": {"building": "yes"}}}, {"type": "Feature", "geometry": {"type": "Polygon", "coordinates": [[[-95.9614076, 36.0886586], [-95.9614068, 36.0885139], [-95.9610213, 36.0885154], [-95.9610221, 36.0886601], [-95.9614076, 36.0886586]]]}, "properties": {"osm_id": 628240761, "building": "yes", "name": "", "height": null, "height_m": null, "levels": null, "tract_id": "40143006803", "tract_name": "68.03", "tags": {"building": "yes"}}}, {"type": "Feature", "geometry": {"type": "Polygon", "coordinates": [[[-95.9614177, 36.0884349], [-95.9614168, 36.0881114], [-95.9612337, 36.0881117], [-95.9612346, 36.0884352], [-95.9614177, 36.0884349]]]}, "properties": {"osm_id": 628240762, "building": "yes", "name": "", "height": null, "height_m": null, "levels": null, "tract_id": "40143006803", "tract_name": "68.03", "tags": {"building": "yes"}}}, {"type": "Feature", "geometry": {"type": "Polygon", "coordinates": [[[-95.9611914, 36.0884774], [-95.9611864, 36.0880569], [-95.9610147, 36.0880583], [-95.9610198, 36.0884788], [-95.9611914, 36.0884774]]]}, "properties": {"osm_id": 628240763, "building": "yes", "name": "", "height": null, "height_m": null, "levels": null, "tract_id": "40143006803", "tract_name": "68.03", "tags": {"building": "yes"}}}, {"type": "Feature", "geometry": {"type": "Polygon", "coordinates": [[[-95.9635061, 36.0892666], [-95.9635092, 36.0889866], [-95.9633705, 36.0889856], [-95.9633687, 36.0891501], [-95.9632132, 36.089149], [-95.9632119, 36.0892645], [-95.9635061, 36.0892666]]]}, "properties": {"osm_id": 628241934, "building": "yes", "name": "", "height": null, "height_m": null, "levels": null, "tract_id": "40143006803", "tract_name": "68.03", "tags": {"building": "yes"}}}, {"type": "Feature", "geometry": {"type": "Polygon", "coordinates": [[[-95.9644184, 36.0883726], [-95.9644179, 36.0882891], [-95.9643397, 36.0882894], [-95.9643394, 36.0882398], [-95.9642505, 36.0882402], [-95.9642508, 36.0882892], [-95.9641707, 36.0882895], [-95.9641712, 36.0883736], [-95.9644184, 36.0883726]]]}, "properties": {"osm_id": 628241938, "building": "yes", "name": "", "height": null, "height_m": null, "levels": null, "tract_id": "40143006803", "tract_name": "68.03", "tags": {"building": "yes"}}}, {"type": "Feature", "geometry": {"type": "Polygon", "coordinates": [[[-95.9641008, 36.088337], [-95.9641002, 36.0882456], [-95.9637973, 36.0882468], [-95.9637978, 36.0883382], [-95.9641008, 36.088337]]]}, "properties": {"osm_id": 628241940, "building": "yes", "name": "", "height": null, "height_m": null, "levels": null, "tract_id": "40143006803", "tract_name": "68.03", "tags": {"building": "yes"}}}, {"type": "Feature", "geometry": {"type": "Polygon", "coordinates": [[[-95.9636148, 36.0883603], [-95.9636147, 36.0882749], [-95.9635397, 36.0882749], [-95.9635397, 36.0882282], [-95.9634564, 36.0882282], [-95.9634564, 36.0882748], [-95.963376, 36.0882748], [-95.9633761, 36.0883604], [-95.9636148, 36.0883603]]]}, "properties": {"osm_id": 628241941, "building": "yes", "name": "", "height": null, "height_m": null, "levels": null, "tract_id": "40143006803", "tract_name": "68.03", "tags": {"building": "yes"}}}, {"type": "Feature", "geometry": {"type": "Polygon", "coordinates": [[[-95.9633582, 36.0883515], [-95.9633589, 36.088266], [-95.9630452, 36.0882644], [-95.9630445, 36.0883499], [-95.9633582, 36.0883515]]]}, "properties": {"osm_id": 628241943, "building": "yes", "name": "", "height": null, "height_m": null, "levels": null, "tract_id": "40143006803", "tract_name": "68.03", "tags": {"building": "yes"}}}, {"type": "Feature", "geometry": {"type": "Polygon", "coordinates": [[[-95.963519, 36.0885227], [-95.9635192, 36.0884319], [-95.9632072, 36.0884316], [-95.9632071, 36.0885224], [-95.963519, 36.0885227]]]}, "properties": {"osm_id": 628241945, "building": "yes", "name": "", "height": null, "height_m": null, "levels": null, "tract_id": "40143006803", "tract_name": "68.03", "tags": {"building": "yes"}}}, {"type": "Feature", "geometry": {"type": "Polygon", "coordinates": [[[-95.9607169, 36.0893557], [-95.9607171, 36.0892381], [-95.9604114, 36.0892378], [-95.9604112, 36.0893554], [-95.9607169, 36.0893557]]]}, "properties": {"osm_id": 628241947, "building": "yes", "name": "", "height": null, "height_m": null, "levels": null, "tract_id": "40143006803", "tract_name": "68.03", "tags": {"building": "yes"}}}, {"type": "Feature", "geometry": {"type": "Polygon", "coordinates": [[[-95.9603538, 36.0893896], [-95.9599749, 36.0893925], [-95.9599732, 36.0892424], [-95.960352, 36.0892395], [-95.9603538, 36.0893896]]]}, "properties": {"osm_id": 628241948, "building": "yes", "name": "", "height": null, "height_m": null, "levels": null, "tract_id": "40143006803", "tract_name": "68.03", "tags": {"building": "yes"}}}, {"type": "Feature", "geometry": {"type": "Polygon", "coordinates": [[[-95.9599166, 36.0893949], [-95.9599197, 36.0890839], [-95.9597285, 36.0890826], [-95.9597254, 36.0893936], [-95.9599166, 36.0893949]]]}, "properties": {"osm_id": 628241950, "building": "yes", "name": "", "height": null, "height_m": null, "levels": null, "tract_id": "40143006803", "tract_name": "68.03", "tags": {"building": "yes"}}}, {"type": "Feature", "geometry": {"type": "Polygon", "coordinates": [[[-95.9604515, 36.0891997], [-95.9604502, 36.0890767], [-95.9601451, 36.0890789], [-95.9601465, 36.0892019], [-95.9604515, 36.0891997]]]}, "properties": {"osm_id": 628241952, "building": "yes", "name": "", "height": null, "height_m": null, "levels": null, "tract_id": "40143006803", "tract_name": "68.03", "tags": {"building": "yes"}}}, {"type": "Feature", "geometry": {"type": "Polygon", "coordinates": [[[-95.9586791, 36.0886635], [-95.9586428, 36.088625], [-95.9585677, 36.0886712], [-95.9584709, 36.0885684], [-95.9584533, 36.0885792], [-95.9583728, 36.0884937], [-95.958471, 36.0884333], [-95.9584999, 36.088464], [-95.9585417, 36.0884383], [-95.9585688, 36.0884671], [-95.9586513, 36.0884164], [-95.9587679, 36.0885402], [-95.9587523, 36.0885498], [-95.9587932, 36.0885933], [-95.9586791, 36.0886635]]]}, "properties": {"osm_id": 628241954, "building": "retail", "name": "", "height": null, "height_m": 3.0, "levels": 1, "tract_id": "40143006803", "tract_name": "68.03", "tags": {"building": "retail", "building:levels": "1", "roof:levels": "0", "roof:shape": "gabled_height_moved", "shop": "vacant"}}}, {"type": "Feature", "geometry": {"type": "Polygon", "coordinates": [[[-95.965487, 36.0890918], [-95.9647958, 36.0890969], [-95.9647918, 36.0887498], [-95.9649923, 36.0887483], [-95.9649949, 36.088975], [-95.9653076, 36.0889727], [-95.9653051, 36.0887474], [-95.9654343, 36.0887464], [-95.9654368, 36.0889645], [-95.9654856, 36.0889642], [-95.965487, 36.0890918]]]}, "properties": {"osm_id": 635296617, "building": "yes", "name": "", "height": null, "height_m": null, "levels": null, "tract_id": "40143006803", "tract_name": "68.03", "tags": {"building": "yes"}}}, {"type": "Feature", "geometry": {"type": "Polygon", "coordinates": [[[-95.965527, 36.0883432], [-95.9647611, 36.0883404], [-95.9647595, 36.0886145], [-95.9649577, 36.0886153], [-95.9649587, 36.0884535], [-95.9652965, 36.0884548], [-95.9652956, 36.0886083], [-95.9654353, 36.0886088], [-95.9654362, 36.0884426], [-95.9655264, 36.088443], [-95.965527, 36.0883432]]]}, "properties": {"osm_id": 635296618, "building": "yes", "name": "", "height": null, "height_m": null, "levels": null, "tract_id": "40143006803", "tract_name": "68.03", "tags": {"building": "yes"}}}, {"type": "Feature", "geometry": {"type": "Polygon", "coordinates": [[[-95.9649388, 36.0882768], [-95.9648287, 36.0882762], [-95.9648294, 36.0881965], [-95.9648135, 36.0881964], [-95.9648141, 36.0881265], [-95.9648294, 36.0881265], [-95.9648298, 36.0880816], [-95.9649421, 36.0880822], [-95.9649414, 36.0881753], [-95.9649802, 36.0881755], [-95.9649797, 36.0882376], [-95.964965, 36.0882376], [-95.9649648, 36.0882577], [-95.964939, 36.0882576], [-95.9649388, 36.0882768]]]}, "properties": {"osm_id": 635297402, "building": "detached", "name": "", "height": null, "height_m": null, "levels": null, "tract_id": "40143006803", "tract_name": "68.03", "tags": {"addr:city": "Tulsa", "addr:country": "US", "addr:housenumber": "5146", "addr:postcode": "74105", "addr:state": "OK", "addr:street": "South Wheeling Avenue East", "building": "detached"}}}, {"type": "Feature", "geometry": {"type": "Polygon", "coordinates": [[[-95.9644776, 36.0886271], [-95.9644774, 36.088424], [-95.96364, 36.0884246], [-95.96364, 36.0884495], [-95.9635923, 36.0884495], [-95.9635924, 36.0884955], [-95.9636417, 36.0884954], [-95.9636417, 36.088527], [-95.9643552, 36.0885265], [-95.9643553, 36.0886272], [-95.9644776, 36.0886271]]]}, "properties": {"osm_id": 635297403, "building": "yes", "name": "", "height": null, "height_m": null, "levels": null, "tract_id": "40143006803", "tract_name": "68.03", "tags": {"building": "yes"}}}, {"type": "Feature", "geometry": {"type": "Polygon", "coordinates": [[[-95.963841, 36.0888921], [-95.9637779, 36.0888925], [-95.9637757, 36.0887053], [-95.963838, 36.0887048], [-95.9638384, 36.088739], [-95.9638574, 36.0887388], [-95.963857, 36.0887055], [-95.9643173, 36.088702], [-95.9643175, 36.0887258], [-95.9643394, 36.0887256], [-95.96434, 36.0887716], [-95.9643151, 36.0887718], [-95.9643155, 36.0888039], [-95.9642491, 36.0888044], [-95.9642493, 36.0888177], [-95.9641458, 36.0888186], [-95.964146, 36.0888315], [-95.9639502, 36.0888331], [-95.9639507, 36.088875], [-95.9639363, 36.0888752], [-95.9639364, 36.0888838], [-95.9639052, 36.0888841], [-95.9639053, 36.0888931], [-95.9638579, 36.0888935], [-95.9638565, 36.0887776], [-95.9638396, 36.0887778], [-95.963841, 36.0888921]]]}, "properties": {"osm_id": 635297404, "building": "yes", "name": "", "height": null, "height_m": null, "levels": null, "tract_id": "40143006803", "tract_name": "68.03", "tags": {"addr:city": "Tulsa", "addr:country": "US", "addr:housenumber": "5121", "addr:postcode": "74105", "addr:state": "OK", "addr:street": "South Wheeling Avenue East", "building": "yes"}}}, {"type": "Feature", "geometry": {"type": "Polygon", "coordinates": [[[-95.9630569, 36.0886582], [-95.9630591, 36.0884276], [-95.9631759, 36.0884283], [-95.9631737, 36.0886589], [-95.9630569, 36.0886582]]]}, "properties": {"osm_id": 635297405, "building": "yes", "name": "", "height": null, "height_m": null, "levels": null, "tract_id": "40143006803", "tract_name": "68.03", "tags": {"building": "yes"}}}, {"type": "Feature", "geometry": {"type": "Polygon", "coordinates": [[[-95.9644129, 36.0879905], [-95.9644127, 36.0879033], [-95.9641754, 36.0879037], [-95.9641756, 36.0879916], [-95.9642563, 36.0879915], [-95.9642565, 36.0880415], [-95.9643351, 36.0880413], [-95.9643349, 36.0879907], [-95.9644129, 36.0879905]]]}, "properties": {"osm_id": 635297406, "building": "yes", "name": "", "height": null, "height_m": null, "levels": null, "tract_id": "40143006803", "tract_name": "68.03", "tags": {"building": "yes"}}}, {"type": "Feature", "geometry": {"type": "Polygon", "coordinates": [[[-95.9640749, 36.0880259], [-95.963969, 36.0880265], [-95.9639678, 36.0879034], [-95.9640737, 36.0879027], [-95.9640749, 36.0880259]]]}, "properties": {"osm_id": 635297407, "building": "yes", "name": "", "height": null, "height_m": null, "levels": null, "tract_id": "40143006803", "tract_name": "68.03", "tags": {"building": "yes"}}}, {"type": "Feature", "geometry": {"type": "Polygon", "coordinates": [[[-95.9636986, 36.0880003], [-95.9636989, 36.0879181], [-95.9633747, 36.0879173], [-95.9633743, 36.0879995], [-95.9636986, 36.0880003]]]}, "properties": {"osm_id": 635297408, "building": "yes", "name": "", "height": null, "height_m": null, "levels": null, "tract_id": "40143006803", "tract_name": "68.03", "tags": {"building": "yes"}}}, {"type": "Feature", "geometry": {"type": "Polygon", "coordinates": [[[-95.9633504, 36.0880006], [-95.9633521, 36.0879195], [-95.9630394, 36.0879151], [-95.9630376, 36.0879963], [-95.9633504, 36.0880006]]]}, "properties": {"osm_id": 635297409, "building": "yes", "name": "", "height": null, "height_m": null, "levels": null, "tract_id": "40143006803", "tract_name": "68.03", "tags": {"building": "yes"}}}, {"type": "Feature", "geometry": {"type": "Polygon", "coordinates": [[[-95.9633496, 36.0876691], [-95.9633522, 36.087504], [-95.9632612, 36.0875031], [-95.9632601, 36.0875751], [-95.9631614, 36.0875741], [-95.96316, 36.0876672], [-95.9633496, 36.0876691]]]}, "properties": {"osm_id": 635297410, "building": "yes", "name": "", "height": null, "height_m": null, "levels": null, "tract_id": "40143006803", "tract_name": "68.03", "tags": {"building": "yes"}}}, {"type": "Feature", "geometry": {"type": "Polygon", "coordinates": [[[-95.963094, 36.0876753], [-95.9630957, 36.0875869], [-95.9629938, 36.0875856], [-95.962995, 36.0875259], [-95.9629122, 36.0875249], [-95.9629106, 36.0876098], [-95.9629473, 36.0876103], [-95.9629461, 36.0876735], [-95.963094, 36.0876753]]]}, "properties": {"osm_id": 635297411, "building": "yes", "name": "", "height": null, "height_m": null, "levels": null, "tract_id": "40143006803", "tract_name": "68.03", "tags": {"building": "yes"}}}, {"type": "Feature", "geometry": {"type": "Polygon", "coordinates": [[[-95.9628577, 36.0877583], [-95.9628585, 36.0875461], [-95.9627789, 36.0875459], [-95.9627786, 36.0876136], [-95.9626881, 36.0876134], [-95.9626877, 36.0877257], [-95.9627777, 36.0877259], [-95.9627775, 36.0877581], [-95.9628577, 36.0877583]]]}, "properties": {"osm_id": 635297412, "building": "yes", "name": "", "height": null, "height_m": null, "levels": null, "tract_id": "40143006803", "tract_name": "68.03", "tags": {"building": "yes"}}}, {"type": "Feature", "geometry": {"type": "Polygon", "coordinates": [[[-95.9624706, 36.0877844], [-95.9624706, 36.0877602], [-95.9625184, 36.0877603], [-95.9625184, 36.0877688], [-95.9626044, 36.0877689], [-95.9626045, 36.0877039], [-95.9626213, 36.0877039], [-95.9626215, 36.087594], [-95.9624374, 36.0875939], [-95.9624372, 36.0877844], [-95.9624706, 36.0877844]]]}, "properties": {"osm_id": 635297413, "building": "yes", "name": "", "height": null, "height_m": null, "levels": null, "tract_id": "40143006803", "tract_name": "68.03", "tags": {"building": "yes"}}}, {"type": "Feature", "geometry": {"type": "Polygon", "coordinates": [[[-95.9624028, 36.0876946], [-95.9624018, 36.0875913], [-95.9622014, 36.0875926], [-95.9622024, 36.087696], [-95.9624028, 36.0876946]]]}, "properties": {"osm_id": 635297414, "building": "yes", "name": "", "height": null, "height_m": null, "levels": null, "tract_id": "40143006803", "tract_name": "68.03", "tags": {"building": "yes"}}}, {"type": "Feature", "geometry": {"type": "Polygon", "coordinates": [[[-95.9621809, 36.0877019], [-95.9621809, 36.0875875], [-95.9619624, 36.0875875], [-95.9619624, 36.0877348], [-95.9620321, 36.0877349], [-95.9620322, 36.0876704], [-95.9620819, 36.0876704], [-95.9620819, 36.0877018], [-95.9621809, 36.0877019]]]}, "properties": {"osm_id": 635298602, "building": "yes", "name": "", "height": null, "height_m": null, "levels": null, "tract_id": "40143006803", "tract_name": "68.03", "tags": {"building": "yes"}}}, {"type": "Feature", "geometry": {"type": "Polygon", "coordinates": [[[-95.9619277, 36.0877061], [-95.9619279, 36.0876003], [-95.9617258, 36.0876001], [-95.9617256, 36.0877059], [-95.9619277, 36.0877061]]]}, "properties": {"osm_id": 635298603, "building": "yes", "name": "", "height": null, "height_m": null, "levels": null, "tract_id": "40143006803", "tract_name": "68.03", "tags": {"building": "yes"}}}, {"type": "Feature", "geometry": {"type": "Polygon", "coordinates": [[[-95.9616944, 36.0875953], [-95.9614847, 36.0875962], [-95.9614854, 36.0877084], [-95.9616951, 36.0877076], [-95.9616944, 36.0875953]]]}, "properties": {"osm_id": 635298604, "building": "yes", "name": "", "height": null, "height_m": null, "levels": null, "tract_id": "40143006803", "tract_name": "68.03", "tags": {"building": "yes"}}}, {"type": "Feature", "geometry": {"type": "Polygon", "coordinates": [[[-95.9614559, 36.0877009], [-95.9614559, 36.0875985], [-95.9612424, 36.0875985], [-95.9612424, 36.0877539], [-95.9613232, 36.0877539], [-95.9613232, 36.0877317], [-95.9613692, 36.0877317], [-95.9613692, 36.0877009], [-95.9614559, 36.0877009]]]}, "properties": {"osm_id": 635298605, "building": "yes", "name": "", "height": null, "height_m": null, "levels": null, "tract_id": "40143006803", "tract_name": "68.03", "tags": {"building": "yes"}}}, {"type": "Feature", "geometry": {"type": "Polygon", "coordinates": [[[-95.9612259, 36.0877224], [-95.9612271, 36.0875968], [-95.9610105, 36.0875955], [-95.961009, 36.087753], [-95.9611008, 36.0877536], [-95.9611011, 36.0877217], [-95.9612259, 36.0877224]]]}, "properties": {"osm_id": 635298606, "building": "yes", "name": "", "height": null, "height_m": null, "levels": null, "tract_id": "40143006803", "tract_name": "68.03", "tags": {"building": "yes"}}}, {"type": "Feature", "geometry": {"type": "Polygon", "coordinates": [[[-95.9609782, 36.087759], [-95.9609794, 36.0876525], [-95.9608918, 36.0876518], [-95.9608924, 36.0875934], [-95.9607919, 36.0875927], [-95.9607901, 36.0877576], [-95.9609782, 36.087759]]]}, "properties": {"osm_id": 635298607, "building": "yes", "name": "", "height": null, "height_m": null, "levels": null, "tract_id": "40143006803", "tract_name": "68.03", "tags": {"building": "yes"}}}, {"type": "Feature", "geometry": {"type": "Polygon", "coordinates": [[[-95.9634394, 36.08673], [-95.9632093, 36.0867319], [-95.9632087, 36.0866786], [-95.9632742, 36.0866781], [-95.9632739, 36.086651], [-95.9631935, 36.0866517], [-95.9631925, 36.0865727], [-95.9634138, 36.0865708], [-95.9634152, 36.0866827], [-95.9634388, 36.0866825], [-95.9634394, 36.08673]]]}, "properties": {"osm_id": 635298608, "building": "detached", "name": "", "height": null, "height_m": null, "levels": null, "tract_id": "40143006803", "tract_name": "68.03", "tags": {"addr:city": "Tulsa", "addr:country": "US", "addr:housenumber": "5224", "addr:postcode": "74105", "addr:state": "OK", "addr:street": "South Xanthus Avenue East", "building": "detached"}}}, {"type": "Feature", "geometry": {"type": "Polygon", "coordinates": [[[-95.9632231, 36.0869746], [-95.9632213, 36.0867832], [-95.9635331, 36.0867813], [-95.9635342, 36.0869031], [-95.9634293, 36.0869037], [-95.963429, 36.0868711], [-95.9633527, 36.0868715], [-95.9633536, 36.0869738], [-95.9632231, 36.0869746]]]}, "properties": {"osm_id": 635298609, "building": "detached", "name": "", "height": null, "height_m": null, "levels": null, "tract_id": "40143006803", "tract_name": "68.03", "tags": {"addr:city": "Tulsa", "addr:country": "US", "addr:housenumber": "5212", "addr:postcode": "74105", "addr:state": "OK", "addr:street": "South Xanthus Avenue East", "building": "detached"}}}, {"type": "Feature", "geometry": {"type": "Polygon", "coordinates": [[[-95.9641024, 36.0863835], [-95.9639235, 36.0863836], [-95.9639234, 36.0862845], [-95.9641479, 36.0862844], [-95.9641479, 36.086367], [-95.9641024, 36.086367], [-95.9641024, 36.0863835]]]}, "properties": {"osm_id": 635298610, "building": "yes", "name": "", "height": null, "height_m": null, "levels": null, "tract_id": "40143006803", "tract_name": "68.03", "tags": {"building": "yes"}}}, {"type": "Feature", "geometry": {"type": "Polygon", "coordinates": [[[-95.9644164, 36.0864354], [-95.9644187, 36.0862744], [-95.96423, 36.0862727], [-95.9642285, 36.0863795], [-95.9643247, 36.0863804], [-95.964324, 36.0864346], [-95.9644164, 36.0864354]]]}, "properties": {"osm_id": 635298611, "building": "yes", "name": "", "height": null, "height_m": null, "levels": null, "tract_id": "40143006803", "tract_name": "68.03", "tags": {"building": "yes"}}}, {"type": "Feature", "geometry": {"type": "Polygon", "coordinates": [[[-95.9640477, 36.0872429], [-95.9640497, 36.0870867], [-95.9638934, 36.0870854], [-95.9638915, 36.0872416], [-95.9640477, 36.0872429]]]}, "properties": {"osm_id": 635298612, "building": "yes", "name": "", "height": null, "height_m": null, "levels": null, "tract_id": "40143006803", "tract_name": "68.03", "tags": {"building": "yes"}}}, {"type": "Feature", "geometry": {"type": "Polygon", "coordinates": [[[-95.9628581, 36.0870862], [-95.9628577, 36.0870234], [-95.9628336, 36.0870235], [-95.9628328, 36.0868997], [-95.9626668, 36.0869004], [-95.9626672, 36.0869619], [-95.9627214, 36.0869617], [-95.9627223, 36.0870868], [-95.9628581, 36.0870862]]]}, "properties": {"osm_id": 635298993, "building": "detached", "name": "", "height": null, "height_m": null, "levels": null, "tract_id": "40143006803", "tract_name": "68.03", "tags": {"addr:city": "Tulsa", "addr:country": "US", "addr:housenumber": "5211", "addr:postcode": "74105", "addr:state": "OK", "addr:street": "South Xanthus Avenue East", "building": "detached"}}}, {"type": "Feature", "geometry": {"type": "Polygon", "coordinates": [[[-95.9628453, 36.0868715], [-95.9628421, 36.0867396], [-95.9628534, 36.0867394], [-95.9628519, 36.086677], [-95.9627197, 36.0866791], [-95.9627244, 36.0868735], [-95.9628453, 36.0868715]]]}, "properties": {"osm_id": 635298994, "building": "detached", "name": "", "height": null, "height_m": null, "levels": null, "tract_id": "40143006803", "tract_name": "68.03", "tags": {"addr:city": "Tulsa", "addr:country": "US", "addr:housenumber": "5217", "addr:postcode": "74105", "addr:state": "OK", "addr:street": "South Xanthus Avenue East", "building": "detached"}}}, {"type": "Feature", "geometry": {"type": "Polygon", "coordinates": [[[-95.9622726, 36.0863883], [-95.9621729, 36.0863891], [-95.9621712, 36.0862491], [-95.9623891, 36.0862474], [-95.9623903, 36.0863402], [-95.9623186, 36.0863407], [-95.962319, 36.0863747], [-95.9622725, 36.0863751], [-95.9622726, 36.0863883]]]}, "properties": {"osm_id": 635298995, "building": "detached", "name": "", "height": null, "height_m": null, "levels": null, "tract_id": "40143006803", "tract_name": "68.03", "tags": {"building": "detached"}}}, {"type": "Feature", "geometry": {"type": "Polygon", "coordinates": [[[-95.9623312, 36.0866006], [-95.9623291, 36.0864912], [-95.962389, 36.0864904], [-95.9623878, 36.0864333], [-95.9622066, 36.0864356], [-95.9622098, 36.0866021], [-95.9623312, 36.0866006]]]}, "properties": {"osm_id": 635298996, "building": "detached", "name": "", "height": null, "height_m": null, "levels": null, "tract_id": "40143006803", "tract_name": "68.03", "tags": {"addr:city": "Tulsa", "addr:country": "US", "addr:housenumber": "5230", "addr:postcode": "74105", "addr:state": "OK", "addr:street": "South Yorktown Avenue East", "building": "detached"}}}, {"type": "Feature", "geometry": {"type": "Polygon", "coordinates": [[[-95.962358, 36.0867928], [-95.9623556, 36.0866162], [-95.9622088, 36.0866175], [-95.9622097, 36.0866806], [-95.9622362, 36.0866804], [-95.9622368, 36.0867266], [-95.9622108, 36.0867268], [-95.9622117, 36.0867941], [-95.962358, 36.0867928]]]}, "properties": {"osm_id": 635298997, "building": "detached", "name": "", "height": null, "height_m": null, "levels": null, "tract_id": "40143006803", "tract_name": "68.03", "tags": {"addr:city": "Tulsa", "addr:country": "US", "addr:housenumber": "5224", "addr:postcode": "74105", "addr:state": "OK", "addr:street": "South Yorktown Avenue East", "building": "detached"}}}, {"type": "Feature", "geometry": {"type": "Polygon", "coordinates": [[[-95.9623734, 36.0869696], [-95.9623731, 36.0869233], [-95.9623189, 36.0869235], [-95.9623182, 36.0868183], [-95.9622129, 36.0868187], [-95.962214, 36.0869703], [-95.9623734, 36.0869696]]]}, "properties": {"osm_id": 635298998, "building": "detached", "name": "", "height": null, "height_m": null, "levels": null, "tract_id": "40143006803", "tract_name": "68.03", "tags": {"addr:city": "Tulsa", "addr:country": "US", "addr:housenumber": "5218", "addr:postcode": "74105", "addr:state": "OK", "addr:street": "South Yorktown Avenue East", "building": "detached"}}}, {"type": "Feature", "geometry": {"type": "Polygon", "coordinates": [[[-95.9622196, 36.087178], [-95.9622175, 36.0870123], [-95.9623957, 36.0870108], [-95.9623965, 36.0870723], [-95.9623743, 36.0870724], [-95.9623749, 36.0871177], [-95.962339, 36.087118], [-95.9623398, 36.0871771], [-95.9622196, 36.087178]]]}, "properties": {"osm_id": 635298999, "building": "detached", "name": "", "height": null, "height_m": null, "levels": null, "tract_id": "40143006803", "tract_name": "68.03", "tags": {"addr:city": "Tulsa", "addr:country": "US", "addr:housenumber": "5212", "addr:postcode": "74105", "addr:state": "OK", "addr:street": "South Yorktown Avenue East", "building": "detached"}}}, {"type": "Feature", "geometry": {"type": "Polygon", "coordinates": [[[-95.9624682, 36.0873313], [-95.9624692, 36.0872415], [-95.9623433, 36.0872405], [-95.9623436, 36.0872179], [-95.9622732, 36.0872173], [-95.9622729, 36.0872414], [-95.9622099, 36.0872409], [-95.9622089, 36.0873292], [-95.9624682, 36.0873313]]]}, "properties": {"osm_id": 635299000, "building": "detached", "name": "", "height": null, "height_m": null, "levels": null, "tract_id": "40143006803", "tract_name": "68.03", "tags": {"building": "detached"}}}, {"type": "Feature", "geometry": {"type": "Polygon", "coordinates": [[[-95.9596277, 36.0759216], [-95.959629, 36.0757547], [-95.9598892, 36.075756], [-95.9598902, 36.0756326], [-95.9601189, 36.0756338], [-95.9601184, 36.075693], [-95.9601076, 36.0756929], [-95.9601062, 36.0758609], [-95.9600535, 36.0759173], [-95.9596277, 36.0759216]]]}, "properties": {"osm_id": 779222791, "building": "industrial", "name": "", "height": null, "height_m": null, "levels": null, "tract_id": "40143006803", "tract_name": "68.03", "tags": {"building": "industrial"}}}, {"type": "Feature", "geometry": {"type": "Polygon", "coordinates": [[[-95.9595524, 36.0760301], [-95.9592947, 36.0760299], [-95.9592951, 36.0757363], [-95.9595528, 36.0757365], [-95.9595524, 36.0760301]]]}, "properties": {"osm_id": 779222792, "building": "retail", "name": "Dollar General", "height": null, "height_m": 3.0, "levels": 1, "tract_id": "40143006803", "tract_name": "68.03", "tags": {"brand": "Dollar General", "brand:wikidata": "Q145168", "building": "retail", "building:levels": "1", "name": "Dollar General", "roof:levels": "0", "shop": "variety_store", "website": "https://www.dollargeneral.com/store-directory/ok/tulsa/9799"}}}, {"type": "Feature", "geometry": {"type": "Polygon", "coordinates": [[[-95.9592946, 36.0761662], [-95.9589752, 36.0761659], [-95.9589753, 36.0760957], [-95.9585499, 36.0760954], [-95.9585503, 36.07573], [-95.9592951, 36.0757306], [-95.9592951, 36.0757363], [-95.9592947, 36.0760299], [-95.9592946, 36.0761662]]]}, "properties": {"osm_id": 779222793, "building": "retail", "name": "", "height": null, "height_m": 3.0, "levels": 1, "tract_id": "40143006803", "tract_name": "68.03", "tags": {"building": "retail", "building:levels": "1", "roof:levels": "0", "roof:shape": "flat"}}}, {"type": "Feature", "geometry": {"type": "Polygon", "coordinates": [[[-95.9587667, 36.080881], [-95.9587386, 36.080881], [-95.9587385, 36.0809548], [-95.9585662, 36.0809547], [-95.9585662, 36.0808978], [-95.9585487, 36.0808978], [-95.9585488, 36.0808121], [-95.9585579, 36.0808122], [-95.958558, 36.0807314], [-95.9585533, 36.0807314], [-95.9585535, 36.0805667], [-95.9585582, 36.0805667], [-95.9585583, 36.0804333], [-95.9585085, 36.0804333], [-95.958509, 36.0800144], [-95.9584958, 36.0800144], [-95.9584959, 36.0799423], [-95.9585493, 36.0799423], [-95.9585498, 36.0794286], [-95.9585139, 36.0794286], [-95.958514, 36.0792606], [-95.9583047, 36.0792604], [-95.9583048, 36.0790977], [-95.9587687, 36.079098], [-95.9587667, 36.080881]]]}, "properties": {"osm_id": 779225631, "building": "retail", "name": "", "height": null, "height_m": 6.0, "levels": 2, "tract_id": "40143006803", "tract_name": "68.03", "tags": {"building": "retail", "building:levels": "2", "roof:levels": "0"}}}, {"type": "Feature", "geometry": {"type": "Polygon", "coordinates": [[[-95.9586247, 36.0786588], [-95.9584287, 36.0786583], [-95.9584288, 36.0785962], [-95.9586248, 36.0785955], [-95.9586247, 36.0786588]]]}, "properties": {"osm_id": 779225632, "building": "yes", "name": "Sonic", "height": null, "height_m": null, "levels": null, "tract_id": "40143006803", "tract_name": "68.03", "tags": {"addr:city": "Tulsa", "addr:country": "US", "addr:housenumber": "5908", "addr:postcode": "74105", "addr:state": "OK", "addr:street": "South Lewis Avenue East", "amenity": "fast_food", "brand": "Sonic", "brand:wikidata": "Q7561808", "building": "yes", "cuisine": "burger", "drive_in": "yes", "indoor_seating": "no", "name": "Sonic", "opening_hours": "Mo-Sa 06:00-23:00; Su 07:00-23:00", "outdoor_seating": "yes", "phone": "+1 918-743-1111", "takeaway": "yes", "website": "https://locations.sonicdrivein.com/ok/tulsa/5908-s.lewis-avenue.html"}}}, {"type": "Feature", "geometry": {"type": "Polygon", "coordinates": [[[-95.9587352, 36.0784086], [-95.9584732, 36.0784083], [-95.9584737, 36.0781279], [-95.9584903, 36.0781279], [-95.9584908, 36.0778602], [-95.9584765, 36.0778602], [-95.9584771, 36.0775843], [-95.9584913, 36.0775843], [-95.9584918, 36.0773134], [-95.958471, 36.0773133], [-95.9584711, 36.0772483], [-95.9584763, 36.0772483], [-95.9584769, 36.0769787], [-95.9584925, 36.0769787], [-95.9584925, 36.0769426], [-95.9586058, 36.0769427], [-95.9586058, 36.0769788], [-95.9587379, 36.076979], [-95.9587352, 36.0784086]]]}, "properties": {"osm_id": 779225637, "building": "retail", "name": "", "height": null, "height_m": 3.0, "levels": 1, "tract_id": "40143006803", "tract_name": "68.03", "tags": {"building": "retail", "building:levels": "1", "roof:levels": "0"}}}, {"type": "Feature", "geometry": {"type": "Polygon", "coordinates": [[[-95.9599388, 36.0823864], [-95.959826, 36.0823867], [-95.9598258, 36.0823293], [-95.9598525, 36.0823293], [-95.9598523, 36.082284], [-95.9598312, 36.082284], [-95.9598309, 36.0822209], [-95.9599382, 36.0822206], [-95.9599386, 36.0823342], [-95.9599499, 36.0823341], [-95.9599499, 36.0823463], [-95.9599387, 36.0823463], [-95.9599388, 36.0823864]]]}, "properties": {"osm_id": 779372615, "building": "yes", "name": "", "height": null, "height_m": null, "levels": null, "tract_id": "40143006803", "tract_name": "68.03", "tags": {"building": "yes"}}}, {"type": "Feature", "geometry": {"type": "Polygon", "coordinates": [[[-95.9599358, 36.0822014], [-95.9599362, 36.0821301], [-95.9599808, 36.0821303], [-95.9599804, 36.0822015], [-95.9599358, 36.0822014]]]}, "properties": {"osm_id": 779372616, "building": "yes", "name": "", "height": null, "height_m": null, "levels": null, "tract_id": "40143006803", "tract_name": "68.03", "tags": {"building": "yes"}}}, {"type": "Feature", "geometry": {"type": "Polygon", "coordinates": [[[-95.9592565, 36.0794984], [-95.958875, 36.0795039], [-95.9588711, 36.0793311], [-95.9589763, 36.0793296], [-95.9589776, 36.0793874], [-95.9591083, 36.0793855], [-95.9591027, 36.0791364], [-95.9589997, 36.0791379], [-95.9590006, 36.0791767], [-95.9588719, 36.0791786], [-95.9588684, 36.0790235], [-95.9592458, 36.0790179], [-95.9592565, 36.0794984]]]}, "properties": {"osm_id": 1181018637, "building": "yes", "name": "", "height": null, "height_m": null, "levels": null, "tract_id": "40143006803", "tract_name": "68.03", "tags": {"building": "yes"}}}, {"type": "Feature", "geometry": {"type": "Polygon", "coordinates": [[[-95.9596124, 36.0809181], [-95.9599939, 36.0809126], [-95.9599901, 36.0807397], [-95.9598849, 36.0807413], [-95.9598862, 36.0807991], [-95.9597555, 36.080801], [-95.95975, 36.0805519], [-95.959853, 36.0805504], [-95.9598538, 36.0805892], [-95.9599825, 36.0805874], [-95.9599791, 36.0804322], [-95.9596017, 36.0804377], [-95.9596124, 36.0809181]]]}, "properties": {"osm_id": 1181018638, "building": "yes", "name": "", "height": null, "height_m": null, "levels": null, "tract_id": "40143006803", "tract_name": "68.03", "tags": {"building": "yes"}}}, {"type": "Feature", "geometry": {"type": "Polygon", "coordinates": [[[-95.9595522, 36.0812056], [-95.9589293, 36.081206], [-95.9589291, 36.080995], [-95.9593453, 36.0809947], [-95.9593454, 36.0810398], [-95.9595521, 36.0810397], [-95.9595522, 36.0812056]]]}, "properties": {"osm_id": 1181018639, "building": "yes", "name": "", "height": null, "height_m": 3.0, "levels": 1, "tract_id": "40143006803", "tract_name": "68.03", "tags": {"building": "yes", "building:levels": "1", "roof:colour": "white", "roof:levels": "0", "roof:shape": "flat"}}}, {"type": "Feature", "geometry": {"type": "Polygon", "coordinates": [[[-95.9599937, 36.0812033], [-95.9596858, 36.0812065], [-95.9596832, 36.0810421], [-95.9599911, 36.0810389], [-95.9599937, 36.0812033]]]}, "properties": {"osm_id": 1181018640, "building": "office", "name": "Southern Hills Baptist Church Administrative Offices", "height": null, "height_m": 3.0, "levels": 1, "tract_id": "40143006803", "tract_name": "68.03", "tags": {"building": "office", "building:levels": "1", "name": "Southern Hills Baptist Church Administrative Offices", "office": "religion", "roof:colour": "white", "roof:levels": "0", "roof:shape": "flat"}}}, {"type": "Feature", "geometry": {"type": "Polygon", "coordinates": [[[-95.9588698, 36.0809138], [-95.9592653, 36.0809106], [-95.9592634, 36.080759], [-95.9592849, 36.0807588], [-95.9592827, 36.0805799], [-95.9591006, 36.0805814], [-95.959103, 36.0807754], [-95.9591233, 36.0807752], [-95.9591236, 36.0807991], [-95.9589876, 36.0808002], [-95.9589873, 36.0807739], [-95.958972, 36.080774], [-95.9589717, 36.0807508], [-95.9588678, 36.0807516], [-95.9588698, 36.0809138]]]}, "properties": {"osm_id": 1181018641, "building": "yes", "name": "", "height": null, "height_m": null, "levels": null, "tract_id": "40143006803", "tract_name": "68.03", "tags": {"building": "yes"}}}, {"type": "Feature", "geometry": {"type": "Polygon", "coordinates": [[[-95.9599589, 36.0793567], [-95.9597721, 36.0793565], [-95.9597723, 36.0791284], [-95.9599556, 36.0791285], [-95.9599556, 36.0790886], [-95.9599972, 36.0790887], [-95.9599973, 36.0790233], [-95.9596384, 36.0790232], [-95.9596381, 36.0794851], [-95.9597488, 36.0794852], [-95.9597488, 36.0794719], [-95.9598059, 36.0794719], [-95.9598059, 36.0794576], [-95.9599588, 36.0794577], [-95.9599589, 36.0793567]]]}, "properties": {"osm_id": 1181018642, "building": "yes", "name": "", "height": null, "height_m": null, "levels": null, "tract_id": "40143006803", "tract_name": "68.03", "tags": {"building": "yes"}}}, {"type": "Feature", "geometry": {"type": "Polygon", "coordinates": [[[-95.9586531, 36.0812355], [-95.9583025, 36.0812349], [-95.958303, 36.0810394], [-95.9586537, 36.08104], [-95.9586531, 36.0812355]]]}, "properties": {"osm_id": 1181018643, "building": "yes", "name": "", "height": null, "height_m": null, "levels": null, "tract_id": "40143006803", "tract_name": "68.03", "tags": {"building": "yes", "shop": "yes"}}}, {"type": "Feature", "geometry": {"type": "Polygon", "coordinates": [[[-95.965955, 36.0878461], [-95.965833, 36.0878461], [-95.965833, 36.087366], [-95.965955, 36.087366], [-95.965955, 36.0874294], [-95.9659725, 36.0874294], [-95.9659725, 36.0874619], [-95.965955, 36.0874619], [-95.965955, 36.0877486], [-95.9659731, 36.0877486], [-95.9659731, 36.0877849], [-95.965955, 36.0877849], [-95.965955, 36.0878461]]]}, "properties": {"osm_id": 1257543905, "building": "yes", "name": "", "height": null, "height_m": null, "levels": null, "tract_id": "40143006803", "tract_name": "68.03", "tags": {"building": "yes"}}}, {"type": "Feature", "geometry": {"type": "Polygon", "coordinates": [[[-95.9659544, 36.0878802], [-95.9659544, 36.0879409], [-95.9659711, 36.0879409], [-95.9659711, 36.0879735], [-95.9659544, 36.0879735], [-95.9659544, 36.0881008], [-95.9659698, 36.0881008], [-95.9659698, 36.0881344], [-95.9659544, 36.0881344], [-95.9659544, 36.0881972], [-95.9658303, 36.0881972], [-95.9658303, 36.0878802], [-95.9659544, 36.0878802]]]}, "properties": {"osm_id": 1257543906, "building": "yes", "name": "", "height": null, "height_m": null, "levels": null, "tract_id": "40143006803", "tract_name": "68.03", "tags": {"building": "yes"}}}, {"type": "Feature", "geometry": {"type": "Polygon", "coordinates": [[[-95.9659544, 36.0881972], [-95.9659544, 36.0882579], [-95.9659711, 36.0882579], [-95.9659711, 36.0882905], [-95.9659544, 36.0882905], [-95.9659544, 36.0884178], [-95.9659698, 36.0884178], [-95.9659698, 36.0884514], [-95.9659544, 36.0884514], [-95.9659544, 36.0885142], [-95.9658303, 36.0885142], [-95.9658303, 36.0881972], [-95.9659544, 36.0881972]]]}, "properties": {"osm_id": 1257543907, "building": "yes", "name": "", "height": null, "height_m": null, "levels": null, "tract_id": "40143006803", "tract_name": "68.03", "tags": {"building": "yes"}}}, {"type": "Feature", "geometry": {"type": "Polygon", "coordinates": [[[-95.9658581, 36.0886955], [-95.9657608, 36.0886966], [-95.9657602, 36.0886608], [-95.9658575, 36.0886597], [-95.9658581, 36.0886955]]]}, "properties": {"osm_id": 1257543915, "building": "yes", "name": "", "height": null, "height_m": null, "levels": null, "tract_id": "40143006803", "tract_name": "68.03", "tags": {"building": "yes"}}}, {"type": "Feature", "geometry": {"type": "Polygon", "coordinates": [[[-95.9658699, 36.0887028], [-95.9658709, 36.0887603], [-95.965887, 36.0887601], [-95.9658876, 36.0887969], [-95.9658715, 36.0887971], [-95.9658735, 36.0889152], [-95.9658863, 36.0889151], [-95.9658869, 36.0889487], [-95.9658741, 36.0889488], [-95.965875, 36.0890059], [-95.9657472, 36.0890074], [-95.965742, 36.0887042], [-95.9658699, 36.0887028]]]}, "properties": {"osm_id": 1257543916, "building": "yes", "name": "", "height": null, "height_m": null, "levels": null, "tract_id": "40143006803", "tract_name": "68.03", "tags": {"building": "yes"}}}, {"type": "Feature", "geometry": {"type": "Polygon", "coordinates": [[[-95.9667698, 36.0887277], [-95.9667718, 36.0888898], [-95.9666407, 36.0888908], [-95.9666387, 36.0887288], [-95.9667698, 36.0887277]]]}, "properties": {"osm_id": 1257543917, "building": "yes", "name": "", "height": null, "height_m": null, "levels": null, "tract_id": "40143006803", "tract_name": "68.03", "tags": {"building": "yes"}}}, {"type": "Feature", "geometry": {"type": "Polygon", "coordinates": [[[-95.9665619, 36.0888914], [-95.9660757, 36.0888968], [-95.9660729, 36.0887283], [-95.966559, 36.0887229], [-95.9665619, 36.0888914]]]}, "properties": {"osm_id": 1257543918, "building": "yes", "name": "", "height": null, "height_m": null, "levels": null, "tract_id": "40143006803", "tract_name": "68.03", "tags": {"building": "yes"}}}, {"type": "Feature", "geometry": {"type": "Polygon", "coordinates": [[[-95.9585145, 36.0877219], [-95.9583979, 36.0877216], [-95.9583978, 36.0877513], [-95.9583591, 36.0877512], [-95.9583587, 36.0878313], [-95.9583974, 36.0878315], [-95.9583973, 36.0878591], [-95.9583397, 36.0878589], [-95.9583393, 36.0879339], [-95.9583682, 36.087934], [-95.9583676, 36.0880586], [-95.9583387, 36.0880585], [-95.9583383, 36.0881375], [-95.9583959, 36.0881376], [-95.9583958, 36.0881631], [-95.958337, 36.0881629], [-95.9583366, 36.0882393], [-95.9583954, 36.0882395], [-95.9583953, 36.0882727], [-95.9585119, 36.088273], [-95.958512, 36.088239], [-95.9585722, 36.0882392], [-95.9585725, 36.0881671], [-95.9585124, 36.0881669], [-95.9585125, 36.088136], [-95.9585741, 36.0881362], [-95.9585745, 36.0880591], [-95.9585402, 36.088059], [-95.9585408, 36.0879332], [-95.9585751, 36.0879334], [-95.9585755, 36.0878582], [-95.9585139, 36.087858], [-95.958514, 36.0878326], [-95.958544, 36.0878327], [-95.9585444, 36.0877536], [-95.9585144, 36.0877535], [-95.9585145, 36.0877219]]]}, "properties": {"osm_id": 1313995692, "building": "apartments", "name": "", "height": null, "height_m": null, "levels": null, "tract_id": "40143006803", "tract_name": "68.03", "tags": {"building": "apartments", "noexit": "yes"}}}, {"type": "Feature", "geometry": {"type": "Polygon", "coordinates": [[[-95.9587445, 36.0874267], [-95.9588035, 36.087427], [-95.9588064, 36.0870571], [-95.9587474, 36.0870568], [-95.9587445, 36.0874267]]]}, "properties": {"osm_id": 1313995693, "building": "carport", "name": "", "height": null, "height_m": null, "levels": null, "tract_id": "40143006803", "tract_name": "68.03", "tags": {"amenity": "parking", "building": "carport", "parking": "carports"}}}, {"type": "Feature", "geometry": {"type": "Polygon", "coordinates": [[[-95.958594, 36.0874022], [-95.958653, 36.0874025], [-95.9586559, 36.0870326], [-95.9585969, 36.0870323], [-95.958594, 36.0874022]]]}, "properties": {"osm_id": 1313995694, "building": "carport", "name": "", "height": null, "height_m": null, "levels": null, "tract_id": "40143006803", "tract_name": "68.03", "tags": {"amenity": "parking", "building": "carport", "parking": "carports"}}}, {"type": "Feature", "geometry": {"type": "Polygon", "coordinates": [[[-95.9585823, 36.0875763], [-95.9585821, 36.0875069], [-95.95851, 36.087507], [-95.9585099, 36.087483], [-95.9585526, 36.087483], [-95.9585521, 36.0873188], [-95.9585094, 36.0873189], [-95.9585093, 36.0872945], [-95.9585506, 36.0872944], [-95.9585501, 36.0871302], [-95.9585088, 36.0871303], [-95.9585087, 36.0871066], [-95.9585808, 36.0871064], [-95.9585806, 36.0870416], [-95.9583211, 36.0870421], [-95.9583213, 36.0871043], [-95.9583967, 36.0871041], [-95.9583968, 36.0871341], [-95.9583717, 36.0871341], [-95.9583722, 36.0872945], [-95.9583973, 36.0872945], [-95.9583974, 36.0873221], [-95.9583723, 36.0873222], [-95.9583728, 36.0874826], [-95.9583979, 36.0874825], [-95.958398, 36.0875078], [-95.9583226, 36.087508], [-95.9583228, 36.0875768], [-95.9585823, 36.0875763]]]}, "properties": {"osm_id": 1313995695, "building": "apartments", "name": "", "height": null, "height_m": null, "levels": null, "tract_id": "40143006803", "tract_name": "68.03", "tags": {"building": "apartments"}}}, {"type": "Feature", "geometry": {"type": "Polygon", "coordinates": [[[-95.9586563, 36.0877269], [-95.9585987, 36.0877261], [-95.95859, 36.0881564], [-95.9586476, 36.0881571], [-95.9586563, 36.0877269]]]}, "properties": {"osm_id": 1313995696, "building": "carport", "name": "", "height": null, "height_m": null, "levels": null, "tract_id": "40143006803", "tract_name": "68.03", "tags": {"amenity": "parking", "building": "carport", "parking": "carports"}}}, {"type": "Feature", "geometry": {"type": "Polygon", "coordinates": [[[-95.9585932, 36.0875236], [-95.9586522, 36.0875239], [-95.958653, 36.087422], [-95.958594, 36.0874217], [-95.9585932, 36.0875236]]]}, "properties": {"osm_id": 1313995697, "building": "carport", "name": "", "height": null, "height_m": null, "levels": null, "tract_id": "40143006803", "tract_name": "68.03", "tags": {"amenity": "parking", "building": "carport", "parking": "carports"}}}, {"type": "Feature", "geometry": {"type": "Polygon", "coordinates": [[[-95.9599201, 36.087675], [-95.9596465, 36.0876759], [-95.9596469, 36.0877561], [-95.9597301, 36.0877558], [-95.9597302, 36.0877753], [-95.9596883, 36.0877754], [-95.9596894, 36.0879965], [-95.9597313, 36.0879964], [-95.9597314, 36.0880181], [-95.9596456, 36.0880184], [-95.959646, 36.0880986], [-95.9599223, 36.0880976], [-95.9599219, 36.0880174], [-95.959836, 36.0880177], [-95.9598359, 36.0879982], [-95.9598949, 36.087998], [-95.9598938, 36.0877747], [-95.9598375, 36.0877749], [-95.9598374, 36.0877554], [-95.9599205, 36.0877551], [-95.9599201, 36.087675]]]}, "properties": {"osm_id": 1315241637, "building": "apartments", "name": "", "height": null, "height_m": null, "levels": null, "tract_id": "40143006803", "tract_name": "68.03", "tags": {"building": "apartments"}}}, {"type": "Feature", "geometry": {"type": "Polygon", "coordinates": [[[-95.9593709, 36.0870317], [-95.9593711, 36.0871102], [-95.9593165, 36.0871103], [-95.9593165, 36.0871297], [-95.9593307, 36.0871297], [-95.9593314, 36.0873546], [-95.9593172, 36.0873546], [-95.9593173, 36.0873764], [-95.959372, 36.0873763], [-95.9593722, 36.0874541], [-95.9591067, 36.0874546], [-95.9591064, 36.0873801], [-95.9591845, 36.08738], [-95.9591844, 36.0873568], [-95.9591563, 36.0873568], [-95.9591556, 36.0871287], [-95.9591837, 36.0871287], [-95.9591836, 36.0871042], [-95.9591056, 36.0871043], [-95.9591053, 36.0870322], [-95.9593709, 36.0870317]]]}, "properties": {"osm_id": 1315241638, "building": "apartments", "name": "", "height": null, "height_m": null, "levels": null, "tract_id": "40143006803", "tract_name": "68.03", "tags": {"building": "apartments"}}}, {"type": "Feature", "geometry": {"type": "Polygon", "coordinates": [[[-95.9590732, 36.0874012], [-95.959073, 36.0873411], [-95.9590041, 36.0873412], [-95.959004, 36.087314], [-95.959031, 36.0873139], [-95.9590304, 36.0871519], [-95.9590035, 36.087152], [-95.9590034, 36.0871261], [-95.9590723, 36.0871259], [-95.959072, 36.08706], [-95.9588179, 36.0870606], [-95.9588181, 36.0871244], [-95.9588933, 36.0871242], [-95.9588934, 36.0871514], [-95.9588628, 36.0871515], [-95.9588634, 36.0873157], [-95.958894, 36.0873156], [-95.9588941, 36.087342], [-95.9588188, 36.0873422], [-95.958819, 36.0874018], [-95.9590732, 36.0874012]]]}, "properties": {"osm_id": 1315241639, "building": "apartments", "name": "", "height": null, "height_m": null, "levels": null, "tract_id": "40143006803", "tract_name": "68.03", "tags": {"building": "apartments"}}}, {"type": "Feature", "geometry": {"type": "Polygon", "coordinates": [[[-95.9605484, 36.0885435], [-95.9605484, 36.0884682], [-95.9606101, 36.0884682], [-95.96061, 36.0885435], [-95.9605484, 36.0885435]]]}, "properties": {"osm_id": 1315241644, "building": "carport", "name": "", "height": null, "height_m": null, "levels": null, "tract_id": "40143006803", "tract_name": "68.03", "tags": {"amenity": "parking", "building": "carport", "parking": "carports"}}}, {"type": "Feature", "geometry": {"type": "Polygon", "coordinates": [[[-95.9603244, 36.0883847], [-95.9602587, 36.0883847], [-95.9602587, 36.0883392], [-95.9603244, 36.0883393], [-95.9603244, 36.0883847]]]}, "properties": {"osm_id": 1315241645, "building": "carport", "name": "", "height": null, "height_m": null, "levels": null, "tract_id": "40143006803", "tract_name": "68.03", "tags": {"amenity": "parking", "building": "carport", "parking": "carports"}}}, {"type": "Feature", "geometry": {"type": "Polygon", "coordinates": [[[-95.9600021, 36.0885059], [-95.9601871, 36.0885052], [-95.9601868, 36.0884553], [-95.9600018, 36.088456], [-95.9600021, 36.0885059]]]}, "properties": {"osm_id": 1315241661, "building": "carport", "name": "", "height": null, "height_m": null, "levels": null, "tract_id": "40143006803", "tract_name": "68.03", "tags": {"amenity": "parking", "building": "carport", "parking": "carports"}}}, {"type": "Feature", "geometry": {"type": "Polygon", "coordinates": [[[-95.959325, 36.087683], [-95.9592633, 36.0876827], [-95.9592603, 36.0881303], [-95.959322, 36.0881305], [-95.959325, 36.087683]]]}, "properties": {"osm_id": 1315241662, "building": "carport", "name": "", "height": null, "height_m": null, "levels": null, "tract_id": "40143006803", "tract_name": "68.03", "tags": {"amenity": "parking", "building": "carport", "parking": "carports"}}}, {"type": "Feature", "geometry": {"type": "Polygon", "coordinates": [[[-95.9605464, 36.0885777], [-95.9605445, 36.0887272], [-95.9606062, 36.0887277], [-95.9606081, 36.0885782], [-95.9605464, 36.0885777]]]}, "properties": {"osm_id": 1315241663, "building": "carport", "name": "", "height": null, "height_m": null, "levels": null, "tract_id": "40143006803", "tract_name": "68.03", "tags": {"amenity": "parking", "building": "carport", "parking": "carports"}}}, {"type": "Feature", "geometry": {"type": "Polygon", "coordinates": [[[-95.9593892, 36.0874305], [-95.959452, 36.0874297], [-95.9594444, 36.0870332], [-95.9593815, 36.087034], [-95.9593892, 36.0874305]]]}, "properties": {"osm_id": 1315241664, "building": "carport", "name": "", "height": null, "height_m": null, "levels": null, "tract_id": "40143006803", "tract_name": "68.03", "tags": {"amenity": "parking", "building": "carport", "parking": "carports"}}}, {"type": "Feature", "geometry": {"type": "Polygon", "coordinates": [[[-95.9596171, 36.0876748], [-95.9593436, 36.0876758], [-95.959344, 36.087756], [-95.9594271, 36.0877557], [-95.9594272, 36.0877752], [-95.9593853, 36.0877753], [-95.9593865, 36.0879964], [-95.9594284, 36.0879963], [-95.9594285, 36.0880179], [-95.9593427, 36.0880182], [-95.9593431, 36.0880984], [-95.9596193, 36.0880975], [-95.9596189, 36.0880173], [-95.9595331, 36.0880176], [-95.959533, 36.0879981], [-95.959592, 36.0879979], [-95.9595908, 36.0877746], [-95.9595345, 36.0877748], [-95.9595344, 36.0877553], [-95.9596176, 36.087755], [-95.9596171, 36.0876748]]]}, "properties": {"osm_id": 1315241668, "building": "apartments", "name": "", "height": null, "height_m": null, "levels": null, "tract_id": "40143006803", "tract_name": "68.03", "tags": {"building": "apartments"}}}, {"type": "Feature", "geometry": {"type": "Polygon", "coordinates": [[[-95.9603521, 36.0883832], [-95.960535, 36.0883833], [-95.9605351, 36.0883378], [-95.9603522, 36.0883377], [-95.9603521, 36.0883832]]]}, "properties": {"osm_id": 1315241672, "building": "carport", "name": "", "height": null, "height_m": null, "levels": null, "tract_id": "40143006803", "tract_name": "68.03", "tags": {"amenity": "parking", "building": "carport", "parking": "carports"}}}, {"type": "Feature", "geometry": {"type": "Polygon", "coordinates": [[[-95.9602288, 36.0885082], [-95.9605317, 36.0885022], [-95.9605302, 36.0884535], [-95.9602273, 36.0884594], [-95.9602288, 36.0885082]]]}, "properties": {"osm_id": 1315241673, "building": "carport", "name": "", "height": null, "height_m": null, "levels": null, "tract_id": "40143006803", "tract_name": "68.03", "tags": {"amenity": "parking", "building": "carport", "parking": "carports"}}}, {"type": "Feature", "geometry": {"type": "Polygon", "coordinates": [[[-95.9590101, 36.0874996], [-95.9590718, 36.0875001], [-95.9590723, 36.0874545], [-95.9590106, 36.0874541], [-95.9590101, 36.0874996]]]}, "properties": {"osm_id": 1315241674, "building": "yes", "name": "", "height": null, "height_m": null, "levels": null, "tract_id": "40143006803", "tract_name": "68.03", "tags": {"building": "yes"}}}, {"type": "Feature", "geometry": {"type": "Polygon", "coordinates": [[[-95.9588071, 36.0876893], [-95.9587481, 36.0876886], [-95.9587408, 36.0881112], [-95.9587998, 36.0881119], [-95.9588071, 36.0876893]]]}, "properties": {"osm_id": 1315241675, "building": "carport", "name": "", "height": null, "height_m": null, "levels": null, "tract_id": "40143006803", "tract_name": "68.03", "tags": {"amenity": "parking", "building": "carport", "parking": "carports"}}}, {"type": "Feature", "geometry": {"type": "Polygon", "coordinates": [[[-95.9606116, 36.0878586], [-95.9605499, 36.087858], [-95.9605418, 36.0883737], [-95.9606034, 36.0883744], [-95.9606116, 36.0878586]]]}, "properties": {"osm_id": 1315241677, "building": "carport", "name": "", "height": null, "height_m": null, "levels": null, "tract_id": "40143006803", "tract_name": "68.03", "tags": {"amenity": "parking", "building": "carport", "parking": "carports"}}}, {"type": "Feature", "geometry": {"type": "Polygon", "coordinates": [[[-95.9605351, 36.0877831], [-95.9603537, 36.0877847], [-95.9603544, 36.0878334], [-95.9605358, 36.0878318], [-95.9605351, 36.0877831]]]}, "properties": {"osm_id": 1315241678, "building": "carport", "name": "", "height": null, "height_m": null, "levels": null, "tract_id": "40143006803", "tract_name": "68.03", "tags": {"amenity": "parking", "building": "carport", "parking": "carports"}}}, {"type": "Feature", "geometry": {"type": "Polygon", "coordinates": [[[-95.9601826, 36.087009], [-95.9601805, 36.0873557], [-95.9602401, 36.0873559], [-95.9602422, 36.0870092], [-95.9601826, 36.087009]]]}, "properties": {"osm_id": 1315241679, "building": "carport", "name": "", "height": null, "height_m": null, "levels": null, "tract_id": "40143006803", "tract_name": "68.03", "tags": {"amenity": "parking", "building": "carport", "parking": "carports"}}}, {"type": "Feature", "geometry": {"type": "Polygon", "coordinates": [[[-95.959598, 36.0883308], [-95.9595376, 36.0883305], [-95.9595349, 36.088674], [-95.9595952, 36.0886743], [-95.959598, 36.0883308]]]}, "properties": {"osm_id": 1315241681, "building": "carport", "name": "", "height": null, "height_m": null, "levels": null, "tract_id": "40143006803", "tract_name": "68.03", "tags": {"amenity": "parking", "building": "carport", "parking": "carports"}}}, {"type": "Feature", "geometry": {"type": "Polygon", "coordinates": [[[-95.9588142, 36.0881908], [-95.9591226, 36.0881883], [-95.959122, 36.0881384], [-95.9588136, 36.0881409], [-95.9588142, 36.0881908]]]}, "properties": {"osm_id": 1315241683, "building": "carport", "name": "", "height": null, "height_m": null, "levels": null, "tract_id": "40143006803", "tract_name": "68.03", "tags": {"amenity": "parking", "building": "carport", "parking": "carports"}}}, {"type": "Feature", "geometry": {"type": "Polygon", "coordinates": [[[-95.9589914, 36.0875917], [-95.9589933, 36.0875159], [-95.9589584, 36.0875153], [-95.9589598, 36.0874601], [-95.9588269, 36.087458], [-95.9588254, 36.0875199], [-95.958792, 36.0875194], [-95.9587903, 36.0875914], [-95.9588236, 36.0875919], [-95.9588226, 36.0876323], [-95.9589582, 36.0876345], [-95.9589592, 36.0875912], [-95.9589914, 36.0875917]]]}, "properties": {"osm_id": 1315241684, "building": "yes", "name": "", "height": null, "height_m": null, "levels": null, "tract_id": "40143006803", "tract_name": "68.03", "tags": {"building": "yes"}}}, {"type": "Feature", "geometry": {"type": "Polygon", "coordinates": [[[-95.9590631, 36.0877766], [-95.95902, 36.0877766], [-95.95902, 36.0877582], [-95.9590965, 36.0877582], [-95.9590965, 36.0876781], [-95.9588188, 36.0876781], [-95.9588188, 36.0877583], [-95.9588939, 36.0877583], [-95.9588939, 36.0877778], [-95.9588519, 36.0877778], [-95.9588519, 36.0879994], [-95.9589062, 36.0879995], [-95.9589062, 36.0880211], [-95.9588204, 36.0880211], [-95.9588204, 36.0880974], [-95.9590953, 36.0880975], [-95.9590953, 36.0880184], [-95.9590201, 36.0880183], [-95.9590201, 36.0879988], [-95.9590631, 36.0879989], [-95.9590631, 36.0877766]]]}, "properties": {"osm_id": 1315241686, "building": "apartments", "name": "", "height": null, "height_m": null, "levels": null, "tract_id": "40143006803", "tract_name": "68.03", "tags": {"building": "apartments"}}}, {"type": "Feature", "geometry": {"type": "Polygon", "coordinates": [[[-95.9596015, 36.0870343], [-95.9595398, 36.0870336], [-95.9595335, 36.0874302], [-95.9595952, 36.0874309], [-95.9596015, 36.0870343]]]}, "properties": {"osm_id": 1315241690, "building": "carport", "name": "", "height": null, "height_m": null, "levels": null, "tract_id": "40143006803", "tract_name": "68.03", "tags": {"amenity": "parking", "building": "carport", "parking": "carports"}}}, {"type": "Feature", "geometry": {"type": "Polygon", "coordinates": [[[-95.9596341, 36.0874935], [-95.9595161, 36.0874953], [-95.9595194, 36.0876383], [-95.9596374, 36.0876366], [-95.9596341, 36.0874935]]]}, "properties": {"osm_id": 1315241693, "building": "yes", "name": "Lewiston Apartment Homes", "height": null, "height_m": null, "levels": null, "tract_id": "40143006803", "tract_name": "68.03", "tags": {"building": "yes", "name": "Lewiston Apartment Homes", "office": "property_management"}}}, {"type": "Feature", "geometry": {"type": "Polygon", "coordinates": [[[-95.9591754, 36.0876834], [-95.9591149, 36.087684], [-95.9591209, 36.0881304], [-95.9591814, 36.0881299], [-95.9591754, 36.0876834]]]}, "properties": {"osm_id": 1315241694, "building": "carport", "name": "", "height": null, "height_m": null, "levels": null, "tract_id": "40143006803", "tract_name": "68.03", "tags": {"amenity": "parking", "building": "carport", "parking": "carports"}}}, {"type": "Feature", "geometry": {"type": "Polygon", "coordinates": [[[-95.9605408, 36.0888961], [-95.9606052, 36.0888969], [-95.960608, 36.0887495], [-95.9605437, 36.0887487], [-95.9605408, 36.0888961]]]}, "properties": {"osm_id": 1315241695, "building": "carport", "name": "", "height": null, "height_m": null, "levels": null, "tract_id": "40143006803", "tract_name": "68.03", "tags": {"amenity": "parking", "building": "carport", "parking": "carports"}}}, {"type": "Feature", "geometry": {"type": "Polygon", "coordinates": [[[-95.9605357, 36.0877155], [-95.9605369, 36.0876656], [-95.9601294, 36.0876588], [-95.9601282, 36.0877087], [-95.9605357, 36.0877155]]]}, "properties": {"osm_id": 1315241697, "building": "carport", "name": "", "height": null, "height_m": null, "levels": null, "tract_id": "40143006803", "tract_name": "68.03", "tags": {"amenity": "parking", "building": "carport", "parking": "carports"}}}, {"type": "Feature", "geometry": {"type": "Polygon", "coordinates": [[[-95.9600029, 36.088385], [-95.9602201, 36.0883828], [-95.9602193, 36.088333], [-95.9600021, 36.0883352], [-95.9600029, 36.088385]]]}, "properties": {"osm_id": 1315241699, "building": "carport", "name": "", "height": null, "height_m": null, "levels": null, "tract_id": "40143006803", "tract_name": "68.03", "tags": {"amenity": "parking", "building": "carport", "parking": "carports"}}}, {"type": "Feature", "geometry": {"type": "Polygon", "coordinates": [[[-95.9605256, 36.0882737], [-95.9605244, 36.0881705], [-95.9605008, 36.0881706], [-95.9605, 36.0880988], [-95.9604133, 36.0880994], [-95.9604143, 36.088187], [-95.9603901, 36.0881872], [-95.9603897, 36.0881433], [-95.960106, 36.0881454], [-95.9601065, 36.0881892], [-95.9600776, 36.0881894], [-95.9600766, 36.0880983], [-95.9599919, 36.0880989], [-95.9599943, 36.0883206], [-95.9600828, 36.0883199], [-95.9600823, 36.0882768], [-95.9604142, 36.0882744], [-95.9604147, 36.0883198], [-95.960504, 36.0883192], [-95.9605035, 36.0882738], [-95.9605256, 36.0882737]]]}, "properties": {"osm_id": 1315454760, "building": "apartments", "name": "", "height": null, "height_m": null, "levels": null, "tract_id": "40143006803", "tract_name": "68.03", "tags": {"building": "apartments"}}}, {"type": "Feature", "geometry": {"type": "Polygon", "coordinates": [[[-95.9601688, 36.0873753], [-95.9599226, 36.087375], [-95.9599228, 36.0873128], [-95.9599935, 36.0873129], [-95.9599936, 36.0872885], [-95.9599613, 36.0872885], [-95.9599617, 36.0871248], [-95.9599939, 36.0871249], [-95.9599939, 36.0870989], [-95.959924, 36.0870988], [-95.9599242, 36.0870374], [-95.9601669, 36.0870377], [-95.9601668, 36.0871011], [-95.9601037, 36.087101], [-95.9601036, 36.0871249], [-95.9601322, 36.0871249], [-95.9601319, 36.0872869], [-95.9601033, 36.0872869], [-95.9601032, 36.0873134], [-95.9601689, 36.0873135], [-95.9601688, 36.0873753]]]}, "properties": {"osm_id": 1315454761, "building": "apartments", "name": "", "height": null, "height_m": null, "levels": null, "tract_id": "40143006803", "tract_name": "68.03", "tags": {"building": "apartments"}}}, {"type": "Feature", "geometry": {"type": "Polygon", "coordinates": [[[-95.960476, 36.088956], [-95.9604752, 36.0887464], [-95.9603964, 36.0887466], [-95.9603967, 36.0888091], [-95.9603679, 36.0888091], [-95.9603677, 36.0887789], [-95.9601638, 36.0887794], [-95.960164, 36.0888097], [-95.9601311, 36.0888097], [-95.9601309, 36.0887481], [-95.9600521, 36.0887483], [-95.9600529, 36.0889514], [-95.960128, 36.0889512], [-95.9601278, 36.0888943], [-95.9601606, 36.0888942], [-95.9601607, 36.0889194], [-95.9603659, 36.0889189], [-95.9603658, 36.0888937], [-95.9603973, 36.0888936], [-95.9603976, 36.0889562], [-95.960476, 36.088956]]]}, "properties": {"osm_id": 1315454762, "building": "apartments", "name": "", "height": null, "height_m": null, "levels": null, "tract_id": "40143006803", "tract_name": "68.03", "tags": {"building": "apartments"}}}, {"type": "Feature", "geometry": {"type": "Polygon", "coordinates": [[[-95.9604829, 36.0887275], [-95.9604821, 36.0885179], [-95.9604033, 36.0885181], [-95.9604035, 36.0885806], [-95.9603747, 36.0885807], [-95.9603746, 36.0885504], [-95.9601707, 36.088551], [-95.9601708, 36.0885812], [-95.960138, 36.0885813], [-95.9601377, 36.0885196], [-95.960059, 36.0885198], [-95.9600598, 36.0887229], [-95.9601349, 36.0887227], [-95.9601346, 36.0886658], [-95.9601675, 36.0886657], [-95.9601676, 36.0886909], [-95.9603728, 36.0886904], [-95.9603727, 36.0886652], [-95.9604042, 36.0886651], [-95.9604045, 36.0887277], [-95.9604829, 36.0887275]]]}, "properties": {"osm_id": 1315454763, "building": "apartments", "name": "", "height": null, "height_m": null, "levels": null, "tract_id": "40143006803", "tract_name": "68.03", "tags": {"building": "apartments"}}}, {"type": "Feature", "geometry": {"type": "Polygon", "coordinates": [[[-95.9596573, 36.0889533], [-95.9598251, 36.088953], [-95.959825, 36.0889152], [-95.9598652, 36.0889152], [-95.9598649, 36.0888371], [-95.9598017, 36.0888372], [-95.9598016, 36.0888166], [-95.9598539, 36.0888165], [-95.9598532, 36.0885934], [-95.9597987, 36.0885935], [-95.9597986, 36.0885707], [-95.9598531, 36.0885706], [-95.9598525, 36.0883516], [-95.9598003, 36.0883517], [-95.9598002, 36.0883278], [-95.9598484, 36.0883278], [-95.9598481, 36.0882127], [-95.9596336, 36.0882131], [-95.9596339, 36.0883225], [-95.959685, 36.0883224], [-95.9596851, 36.0883517], [-95.9596323, 36.0883518], [-95.9596329, 36.0885728], [-95.959683, 36.0885727], [-95.9596831, 36.0885954], [-95.959633, 36.0885955], [-95.9596336, 36.0888124], [-95.9596864, 36.0888123], [-95.9596865, 36.0888399], [-95.959621, 36.08884], [-95.9596212, 36.0889201], [-95.9596572, 36.0889201], [-95.9596573, 36.0889533]]]}, "properties": {"osm_id": 1315454764, "building": "apartments", "name": "", "height": null, "height_m": null, "levels": null, "tract_id": "40143006803", "tract_name": "68.03", "tags": {"building": "apartments"}}}, {"type": "Feature", "geometry": {"type": "Polygon", "coordinates": [[[-95.9589264, 36.0866176], [-95.9591865, 36.0866205], [-95.9591897, 36.0864341], [-95.9590744, 36.0864328], [-95.9590734, 36.0864892], [-95.9590413, 36.0864888], [-95.9590402, 36.0865517], [-95.9589275, 36.0865504], [-95.9589264, 36.0866176]]]}, "properties": {"osm_id": 1315454765, "building": "detached", "name": "", "height": null, "height_m": null, "levels": null, "tract_id": "40143006803", "tract_name": "68.03", "tags": {"building": "detached"}}}, {"type": "Feature", "geometry": {"type": "Polygon", "coordinates": [[[-95.958468, 36.0854703], [-95.9584399, 36.0856356], [-95.9585461, 36.0856474], [-95.9585743, 36.0854821], [-95.958468, 36.0854703]]]}, "properties": {"osm_id": 1315454766, "building": "detached", "name": "", "height": null, "height_m": null, "levels": null, "tract_id": "40143006803", "tract_name": "68.03", "tags": {"building": "detached"}}}, {"type": "Feature", "geometry": {"type": "Polygon", "coordinates": [[[-95.9602077, 36.0867581], [-95.9603623, 36.0867724], [-95.9603763, 36.086674], [-95.9601422, 36.0866524], [-95.960122, 36.0867947], [-95.9602015, 36.086802], [-95.9602077, 36.0867581]]]}, "properties": {"osm_id": 1315454767, "building": "detached", "name": "", "height": null, "height_m": null, "levels": null, "tract_id": "40143006803", "tract_name": "68.03", "tags": {"building": "detached"}}}, {"type": "Feature", "geometry": {"type": "Polygon", "coordinates": [[[-95.959888, 36.0870314], [-95.9598022, 36.0870327], [-95.9598021, 36.0870251], [-95.9596129, 36.087028], [-95.9596147, 36.0871082], [-95.9596743, 36.0871073], [-95.9596806, 36.0873759], [-95.959613, 36.087377], [-95.9596149, 36.0874571], [-95.959891, 36.0874529], [-95.9598892, 36.0873749], [-95.95979, 36.0873764], [-95.9597895, 36.0873548], [-95.9598473, 36.0873539], [-95.959842, 36.0871292], [-95.9597923, 36.0871299], [-95.9597918, 36.0871077], [-95.9598898, 36.0871062], [-95.959888, 36.0870314]]]}, "properties": {"osm_id": 1315454770, "building": "apartments", "name": "", "height": null, "height_m": null, "levels": null, "tract_id": "40143006803", "tract_name": "68.03", "tags": {"building": "apartments"}}}, {"type": "Feature", "geometry": {"type": "Polygon", "coordinates": [[[-95.9604473, 36.0859083], [-95.9603331, 36.0859055], [-95.9603307, 36.0859682], [-95.9602476, 36.0859661], [-95.9602446, 36.0860441], [-95.9604418, 36.0860491], [-95.9604473, 36.0859083]]]}, "properties": {"osm_id": 1315454772, "building": "detached", "name": "", "height": null, "height_m": null, "levels": null, "tract_id": "40143006803", "tract_name": "68.03", "tags": {"building": "detached"}}}, {"type": "Feature", "geometry": {"type": "Polygon", "coordinates": [[[-95.9582108, 36.0850664], [-95.9582132, 36.0851639], [-95.9583563, 36.0851616], [-95.9583569, 36.0851854], [-95.9584149, 36.0851845], [-95.9584121, 36.0850718], [-95.9582737, 36.085074], [-95.9582735, 36.0850654], [-95.9582108, 36.0850664]]]}, "properties": {"osm_id": 1315454773, "building": "detached", "name": "", "height": null, "height_m": null, "levels": null, "tract_id": "40143006803", "tract_name": "68.03", "tags": {"building": "detached"}}}, {"type": "Feature", "geometry": {"type": "Polygon", "coordinates": [[[-95.958736, 36.0859415], [-95.9585514, 36.0858519], [-95.9584657, 36.085967], [-95.9585343, 36.0860003], [-95.9585517, 36.0859768], [-95.9586678, 36.0860332], [-95.958736, 36.0859415]]]}, "properties": {"osm_id": 1315454774, "building": "detached", "name": "", "height": null, "height_m": null, "levels": null, "tract_id": "40143006803", "tract_name": "68.03", "tags": {"building": "detached"}}}, {"type": "Feature", "geometry": {"type": "Polygon", "coordinates": [[[-95.9585586, 36.08567], [-95.9584477, 36.0856723], [-95.9584534, 36.0858511], [-95.9585644, 36.0858488], [-95.9585586, 36.08567]]]}, "properties": {"osm_id": 1315454775, "building": "detached", "name": "", "height": null, "height_m": null, "levels": null, "tract_id": "40143006803", "tract_name": "68.03", "tags": {"building": "detached"}}}, {"type": "Feature", "geometry": {"type": "Polygon", "coordinates": [[[-95.9583987, 36.0848648], [-95.9583921, 36.0850305], [-95.9585717, 36.0850352], [-95.9585745, 36.0849626], [-95.9585022, 36.0849607], [-95.9585059, 36.0848676], [-95.9583987, 36.0848648]]]}, "properties": {"osm_id": 1315454776, "building": "detached", "name": "", "height": null, "height_m": null, "levels": null, "tract_id": "40143006803", "tract_name": "68.03", "tags": {"building": "detached"}}}, {"type": "Feature", "geometry": {"type": "Polygon", "coordinates": [[[-95.9590431, 36.0861805], [-95.9590469, 36.086343], [-95.9591772, 36.086341], [-95.9591734, 36.0861785], [-95.9590431, 36.0861805]]]}, "properties": {"osm_id": 1315454777, "building": "detached", "name": "", "height": null, "height_m": null, "levels": null, "tract_id": "40143006803", "tract_name": "68.03", "tags": {"building": "detached"}}}, {"type": "Feature", "geometry": {"type": "Polygon", "coordinates": [[[-95.9591874, 36.0854952], [-95.9589826, 36.0854981], [-95.9589492, 36.0855496], [-95.9589759, 36.085561], [-95.9589518, 36.0855983], [-95.9590316, 36.0856328], [-95.9590544, 36.0855983], [-95.9590683, 36.0856048], [-95.9590695, 36.085645], [-95.9591613, 36.0856431], [-95.9591601, 36.0856031], [-95.9591907, 36.0856025], [-95.9591874, 36.0854952]]]}, "properties": {"osm_id": 1315454778, "building": "detached", "name": "", "height": null, "height_m": null, "levels": null, "tract_id": "40143006803", "tract_name": "68.03", "tags": {"building": "detached"}}}, {"type": "Feature", "geometry": {"type": "Polygon", "coordinates": [[[-95.9586243, 36.0854431], [-95.9586302, 36.0852611], [-95.9585155, 36.0852587], [-95.9585096, 36.0854407], [-95.9586243, 36.0854431]]]}, "properties": {"osm_id": 1315454779, "building": "detached", "name": "", "height": null, "height_m": null, "levels": null, "tract_id": "40143006803", "tract_name": "68.03", "tags": {"building": "detached"}}}, {"type": "Feature", "geometry": {"type": "Polygon", "coordinates": [[[-95.9604091, 36.0863745], [-95.9606215, 36.0864121], [-95.9606453, 36.0863242], [-95.9605132, 36.0863009], [-95.960528, 36.0862464], [-95.9604477, 36.0862322], [-95.9604091, 36.0863745]]]}, "properties": {"osm_id": 1315454782, "building": "detached", "name": "", "height": null, "height_m": null, "levels": null, "tract_id": "40143006803", "tract_name": "68.03", "tags": {"building": "detached"}}}, {"type": "Feature", "geometry": {"type": "Polygon", "coordinates": [[[-95.958564, 36.084652], [-95.9584326, 36.0846535], [-95.9584359, 36.0848356], [-95.9585673, 36.084834], [-95.958564, 36.084652]]]}, "properties": {"osm_id": 1315454783, "building": "detached", "name": "", "height": null, "height_m": null, "levels": null, "tract_id": "40143006803", "tract_name": "68.03", "tags": {"building": "detached"}}}, {"type": "Feature", "geometry": {"type": "Polygon", "coordinates": [[[-95.9597998, 36.0863601], [-95.959982, 36.0863647], [-95.9599862, 36.0862575], [-95.959804, 36.0862529], [-95.9597998, 36.0863601]]]}, "properties": {"osm_id": 1315454784, "building": "detached", "name": "", "height": null, "height_m": null, "levels": null, "tract_id": "40143006803", "tract_name": "68.03", "tags": {"building": "detached"}}}, {"type": "Feature", "geometry": {"type": "Polygon", "coordinates": [[[-95.9596963, 36.0859161], [-95.9596022, 36.0858799], [-95.9594836, 36.0860813], [-95.9595776, 36.0861175], [-95.9596345, 36.0860209], [-95.9596761, 36.0860369], [-95.9597102, 36.0859789], [-95.9596687, 36.0859629], [-95.9596963, 36.0859161]]]}, "properties": {"osm_id": 1315454785, "building": "detached", "name": "", "height": null, "height_m": null, "levels": null, "tract_id": "40143006803", "tract_name": "68.03", "tags": {"building": "detached"}}}, {"type": "Feature", "geometry": {"type": "Polygon", "coordinates": [[[-95.9599364, 36.0860532], [-95.9599397, 36.0859492], [-95.9598362, 36.0859471], [-95.9598382, 36.0858842], [-95.9597353, 36.0858821], [-95.959733, 36.0859558], [-95.9597555, 36.0859562], [-95.9597506, 36.0861089], [-95.9598326, 36.0861106], [-95.9598345, 36.0860511], [-95.9599364, 36.0860532]]]}, "properties": {"osm_id": 1315454786, "building": "detached", "name": "", "height": null, "height_m": null, "levels": null, "tract_id": "40143006803", "tract_name": "68.03", "tags": {"building": "detached"}}}, {"type": "Feature", "geometry": {"type": "Polygon", "coordinates": [[[-95.9595165, 36.0863666], [-95.9596289, 36.0863674], [-95.9596291, 36.0863519], [-95.9597301, 36.0863526], [-95.9597311, 36.086264], [-95.9596034, 36.0862631], [-95.9596042, 36.0861938], [-95.9595184, 36.0861932], [-95.9595165, 36.0863666]]]}, "properties": {"osm_id": 1315454787, "building": "detached", "name": "", "height": null, "height_m": null, "levels": null, "tract_id": "40143006803", "tract_name": "68.03", "tags": {"building": "detached"}}}, {"type": "Feature", "geometry": {"type": "Polygon", "coordinates": [[[-95.9590464, 36.0866315], [-95.9590405, 36.086833], [-95.9592025, 36.086836], [-95.9592044, 36.0867678], [-95.9591669, 36.086767], [-95.9591708, 36.0866339], [-95.9590464, 36.0866315]]]}, "properties": {"osm_id": 1315454788, "building": "detached", "name": "", "height": null, "height_m": null, "levels": null, "tract_id": "40143006803", "tract_name": "68.03", "tags": {"building": "detached"}}}, {"type": "Feature", "geometry": {"type": "Polygon", "coordinates": [[[-95.9587645, 36.0859434], [-95.9587618, 36.0860375], [-95.9589886, 36.0860417], [-95.9589913, 36.0859475], [-95.9587645, 36.0859434]]]}, "properties": {"osm_id": 1315454789, "building": "detached", "name": "", "height": null, "height_m": null, "levels": null, "tract_id": "40143006803", "tract_name": "68.03", "tags": {"building": "detached"}}}, {"type": "Feature", "geometry": {"type": "Polygon", "coordinates": [[[-95.9606034, 36.0858799], [-95.9606029, 36.0859536], [-95.9605509, 36.0859533], [-95.9605496, 36.0861202], [-95.9607117, 36.086121], [-95.9607123, 36.0860299], [-95.9607365, 36.0860301], [-95.9607375, 36.0858805], [-95.9606034, 36.0858799]]]}, "properties": {"osm_id": 1315454791, "building": "detached", "name": "", "height": null, "height_m": null, "levels": null, "tract_id": "40143006803", "tract_name": "68.03", "tags": {"building": "detached"}}}, {"type": "Feature", "geometry": {"type": "Polygon", "coordinates": [[[-95.9597562, 36.086665], [-95.9595118, 36.0866453], [-95.959488, 36.0868385], [-95.959565, 36.0868447], [-95.9595704, 36.0868007], [-95.9596395, 36.0868063], [-95.9596468, 36.0867473], [-95.9597344, 36.0867543], [-95.9597396, 36.0867125], [-95.9597768, 36.0867155], [-95.9597801, 36.0866886], [-95.9597535, 36.0866865], [-95.9597562, 36.086665]]]}, "properties": {"osm_id": 1315454792, "building": "detached", "name": "", "height": null, "height_m": null, "levels": null, "tract_id": "40143006803", "tract_name": "68.03", "tags": {"building": "detached"}}}, {"type": "Feature", "geometry": {"type": "Polygon", "coordinates": [[[-95.9600808, 36.0860346], [-95.9601988, 36.0860352], [-95.9601995, 36.0859572], [-95.9600933, 36.0859566], [-95.9600939, 36.0858786], [-95.9599989, 36.0858781], [-95.9599973, 36.0860753], [-95.9600805, 36.0860757], [-95.9600808, 36.0860346]]]}, "properties": {"osm_id": 1315454793, "building": "detached", "name": "", "height": null, "height_m": null, "levels": null, "tract_id": "40143006803", "tract_name": "68.03", "tags": {"building": "detached"}}}, {"type": "Feature", "geometry": {"type": "Polygon", "coordinates": [[[-95.9598895, 36.0867426], [-95.960073, 36.0867413], [-95.960072, 36.0866502], [-95.9598885, 36.0866516], [-95.9598895, 36.0867426]]]}, "properties": {"osm_id": 1315454795, "building": "detached", "name": "", "height": null, "height_m": null, "levels": null, "tract_id": "40143006803", "tract_name": "68.03", "tags": {"building": "detached"}}}, {"type": "Feature", "geometry": {"type": "Polygon", "coordinates": [[[-95.9584502, 36.0844812], [-95.9584492, 36.0844401], [-95.9583741, 36.0844413], [-95.9583766, 36.0845431], [-95.9584087, 36.0845426], [-95.9584101, 36.0845989], [-95.9585227, 36.0845971], [-95.9585218, 36.0845581], [-95.9585844, 36.0845572], [-95.9585825, 36.0844792], [-95.9584502, 36.0844812]]]}, "properties": {"osm_id": 1315454797, "building": "detached", "name": "", "height": null, "height_m": null, "levels": null, "tract_id": "40143006803", "tract_name": "68.03", "tags": {"building": "detached"}}}, {"type": "Feature", "geometry": {"type": "Polygon", "coordinates": [[[-95.9607115, 36.0868175], [-95.9607299, 36.0867207], [-95.9604582, 36.086687], [-95.9604398, 36.0867838], [-95.9607115, 36.0868175]]]}, "properties": {"osm_id": 1315454798, "building": "detached", "name": "", "height": null, "height_m": null, "levels": null, "tract_id": "40143006803", "tract_name": "68.03", "tags": {"building": "detached"}}}, {"type": "Feature", "geometry": {"type": "Polygon", "coordinates": [[[-95.9583775, 36.0865918], [-95.9584053, 36.0865915], [-95.958406, 36.0866507], [-95.9583621, 36.0866511], [-95.958363, 36.086726], [-95.9586052, 36.0867241], [-95.9586043, 36.0866495], [-95.9585233, 36.0866502], [-95.9585226, 36.0865906], [-95.9585492, 36.0865904], [-95.9585449, 36.0862263], [-95.9584376, 36.0862271], [-95.9584381, 36.0862662], [-95.9583737, 36.0862666], [-95.9583775, 36.0865918]]]}, "properties": {"osm_id": 1315454799, "building": "office", "name": "Boardwalk Offices", "height": null, "height_m": null, "levels": null, "tract_id": "40143006803", "tract_name": "68.03", "tags": {"addr:city": "Tulsa", "addr:housenumber": "5272", "addr:postcode": "74105", "addr:state": "OK", "addr:street": "South Lewis Avenue East", "building": "office", "name": "Boardwalk Offices"}}}, {"type": "Feature", "geometry": {"type": "Polygon", "coordinates": [[[-95.9592082, 36.0860809], [-95.9592019, 36.0859467], [-95.9592191, 36.0859462], [-95.959216, 36.0858802], [-95.9590499, 36.0858853], [-95.9590564, 36.0860227], [-95.9590965, 36.0860215], [-95.9590995, 36.0860842], [-95.9592082, 36.0860809]]]}, "properties": {"osm_id": 1315454800, "building": "detached", "name": "", "height": null, "height_m": null, "levels": null, "tract_id": "40143006803", "tract_name": "68.03", "tags": {"building": "detached"}}}, {"type": "Feature", "geometry": {"type": "Polygon", "coordinates": [[[-95.9603166, 36.0862686], [-95.960259, 36.086258], [-95.9602678, 36.0862271], [-95.9602133, 36.086217], [-95.9602016, 36.0862581], [-95.96012, 36.086243], [-95.9600902, 36.086348], [-95.9602839, 36.0863839], [-95.9603166, 36.0862686]]]}, "properties": {"osm_id": 1315454801, "building": "detached", "name": "", "height": null, "height_m": null, "levels": null, "tract_id": "40143006803", "tract_name": "68.03", "tags": {"building": "detached"}}}, {"type": "Feature", "geometry": {"type": "Polygon", "coordinates": [[[-95.9604039, 36.0873135], [-95.9603427, 36.087314], [-95.9603436, 36.0873826], [-95.9605931, 36.0873805], [-95.9605922, 36.0873126], [-95.9605258, 36.0873131], [-95.9605255, 36.0872891], [-95.9605605, 36.0872889], [-95.9605584, 36.0871252], [-95.9605234, 36.0871255], [-95.9605231, 36.0871007], [-95.9605935, 36.0871001], [-95.9605926, 36.0870299], [-95.9603405, 36.0870321], [-95.9603414, 36.0871005], [-95.9604093, 36.0871], [-95.9604096, 36.087125], [-95.9603872, 36.0871252], [-95.9603893, 36.0872899], [-95.9604036, 36.0872898], [-95.9604039, 36.0873135]]]}, "properties": {"osm_id": 1315549562, "building": "apartments", "name": "", "height": null, "height_m": null, "levels": null, "tract_id": "40143006803", "tract_name": "68.03", "tags": {"building": "apartments"}}}, {"type": "Feature", "geometry": {"type": "Polygon", "coordinates": [[[-95.9605006, 36.0878463], [-95.9604092, 36.0878472], [-95.9604099, 36.0878973], [-95.9600772, 36.0879004], [-95.9600765, 36.0878458], [-95.9599749, 36.0878467], [-95.9599781, 36.0880721], [-95.9600775, 36.0880712], [-95.9600764, 36.0879887], [-95.9601004, 36.0879885], [-95.9601011, 36.0880358], [-95.9603774, 36.0880332], [-95.9603767, 36.0879896], [-95.9604063, 36.0879893], [-95.9604075, 36.0880715], [-95.9605038, 36.0880706], [-95.9605006, 36.0878463]]]}, "properties": {"osm_id": 1315549563, "building": "apartments", "name": "", "height": null, "height_m": null, "levels": null, "tract_id": "40143006803", "tract_name": "68.03", "tags": {"building": "apartments"}}}, {"type": "Feature", "geometry": {"type": "Polygon", "coordinates": [[[-95.9605049, 36.0874248], [-95.960403, 36.0874233], [-95.9604013, 36.087497], [-95.9603745, 36.0874966], [-95.9603752, 36.0874641], [-95.9601473, 36.0874607], [-95.9601475, 36.0874542], [-95.9601103, 36.0874536], [-95.960109, 36.0875121], [-95.9600738, 36.0875116], [-95.9600757, 36.087425], [-95.9599792, 36.0874235], [-95.9599741, 36.0876489], [-95.9600733, 36.0876503], [-95.9600743, 36.087607], [-95.9603934, 36.0876117], [-95.9603926, 36.0876464], [-95.9604998, 36.087648], [-95.9605049, 36.0874248]]]}, "properties": {"osm_id": 1315549564, "building": "apartments", "name": "", "height": null, "height_m": null, "levels": null, "tract_id": "40143006803", "tract_name": "68.03", "tags": {"building": "apartments"}}}, {"type": "Feature", "geometry": {"type": "Polygon", "coordinates": [[[-95.9582517, 36.0784721], [-95.9582519, 36.0784321], [-95.9586536, 36.0784332], [-95.9586534, 36.0784731], [-95.9582517, 36.0784721]]]}, "properties": {"osm_id": 1315589725, "building": "carport", "name": "", "height": null, "height_m": null, "levels": null, "tract_id": "40143006803", "tract_name": "68.03", "tags": {"building": "carport"}}}, {"type": "Feature", "geometry": {"type": "Polygon", "coordinates": [[[-95.9586247, 36.0786588], [-95.9586245, 36.0787017], [-95.9582798, 36.0787009], [-95.95828, 36.0786579], [-95.9583215, 36.078658], [-95.9583217, 36.0785885], [-95.958429, 36.0785888], [-95.9584288, 36.0785962], [-95.9584287, 36.0786583], [-95.9586247, 36.0786588]]]}, "properties": {"osm_id": 1315589726, "building": "carport", "name": "", "height": null, "height_m": null, "levels": null, "tract_id": "40143006803", "tract_name": "68.03", "tags": {"building": "carport"}}}, {"type": "Feature", "geometry": {"type": "Polygon", "coordinates": [[[-95.9589692, 36.0840387], [-95.9592079, 36.0840387], [-95.9592079, 36.0841282], [-95.9591248, 36.0841282], [-95.9591248, 36.0841943], [-95.9590544, 36.0841943], [-95.9590544, 36.0841282], [-95.9589692, 36.0841282], [-95.9589692, 36.0840387]]]}, "properties": {"osm_id": 1315631427, "building": "yes", "name": "", "height": null, "height_m": null, "levels": null, "tract_id": "40143006803", "tract_name": "68.03", "tags": {"building": "yes", "shop": "yes"}}}, {"type": "Feature", "geometry": {"type": "Polygon", "coordinates": [[[-95.9592213, 36.0838334], [-95.9592207, 36.0840174], [-95.9590038, 36.0840169], [-95.9590042, 36.0839107], [-95.9590674, 36.0839109], [-95.9590677, 36.083833], [-95.9592213, 36.0838334]]]}, "properties": {"osm_id": 1315631428, "building": "yes", "name": "", "height": null, "height_m": null, "levels": null, "tract_id": "40143006803", "tract_name": "68.03", "tags": {"building": "yes", "shop": "yes"}}}, {"type": "Feature", "geometry": {"type": "Polygon", "coordinates": [[[-95.9592341, 36.0836361], [-95.9591053, 36.0836361], [-95.9591053, 36.0835797], [-95.9590537, 36.0835797], [-95.9590537, 36.0835646], [-95.9590195, 36.0835646], [-95.9590195, 36.0834562], [-95.9592341, 36.0834562], [-95.9592341, 36.0836361]]]}, "properties": {"osm_id": 1315631429, "building": "yes", "name": "", "height": null, "height_m": null, "levels": null, "tract_id": "40143006803", "tract_name": "68.03", "tags": {"building": "yes", "shop": "yes"}}}, {"type": "Feature", "geometry": {"type": "Polygon", "coordinates": [[[-95.9586433, 36.0838111], [-95.9586443, 36.0837198], [-95.9586368, 36.0837198], [-95.9586374, 36.083661], [-95.9586449, 36.083661], [-95.9586454, 36.0836199], [-95.9587052, 36.0836203], [-95.9587051, 36.0836323], [-95.958774, 36.0836328], [-95.9587722, 36.0838045], [-95.9587116, 36.0838041], [-95.9587115, 36.0838116], [-95.9586433, 36.0838111]]]}, "properties": {"osm_id": 1315631436, "building": "yes", "name": "", "height": null, "height_m": null, "levels": null, "tract_id": "40143006803", "tract_name": "68.03", "tags": {"building": "yes", "shop": "yes"}}}, {"type": "Feature", "geometry": {"type": "Polygon", "coordinates": [[[-95.9585642, 36.083577], [-95.9585635, 36.0834578], [-95.9587712, 36.0834571], [-95.9587717, 36.0835366], [-95.9586846, 36.0835369], [-95.9586848, 36.0835766], [-95.9585642, 36.083577]]]}, "properties": {"osm_id": 1315631437, "building": "yes", "name": "", "height": null, "height_m": null, "levels": null, "tract_id": "40143006803", "tract_name": "68.03", "tags": {"building": "yes", "shop": "yes"}}}, {"type": "Feature", "geometry": {"type": "Polygon", "coordinates": [[[-95.9585293, 36.0835928], [-95.9583999, 36.0835928], [-95.9583999, 36.0835158], [-95.9583577, 36.0835158], [-95.9583577, 36.083454], [-95.9585293, 36.083454], [-95.9585293, 36.0835928]]]}, "properties": {"osm_id": 1315631439, "building": "yes", "name": "", "height": null, "height_m": null, "levels": null, "tract_id": "40143006803", "tract_name": "68.03", "tags": {"building": "yes"}}}, {"type": "Feature", "geometry": {"type": "Polygon", "coordinates": [[[-95.9586065, 36.0838149], [-95.9586072, 36.0836933], [-95.9585065, 36.0836929], [-95.9585068, 36.0836392], [-95.9583443, 36.0836385], [-95.9583435, 36.0837785], [-95.9583677, 36.0837786], [-95.9583675, 36.083814], [-95.9586065, 36.0838149]]]}, "properties": {"osm_id": 1315631440, "building": "yes", "name": "Dental Implant Center of Oklahoma", "height": null, "height_m": null, "levels": null, "tract_id": "40143006803", "tract_name": "68.03", "tags": {"addr:city": "Tulsa", "addr:country": "US", "addr:housenumber": "5522", "addr:state": "OK", "addr:street": "South Lewis Avenue East", "amenity": "dentist", "building": "yes", "name": "Dental Implant Center of Oklahoma", "opening_hours": "Mo-Th 08:00-16:00; Fr-Su off", "phone": "+1 918 906 2525", "website": "https://www.dentalimplantcenterofoklahoma.com/"}}}, {"type": "Feature", "geometry": {"type": "Polygon", "coordinates": [[[-95.9586932, 36.0841921], [-95.9585372, 36.0841927], [-95.9585361, 36.0840152], [-95.9586301, 36.0840148], [-95.9586306, 36.084096], [-95.9586926, 36.0840957], [-95.9586932, 36.0841921]]]}, "properties": {"osm_id": 1315631447, "building": "yes", "name": "", "height": null, "height_m": null, "levels": null, "tract_id": "40143006803", "tract_name": "68.03", "tags": {"building": "yes", "shop": "yes"}}}, {"type": "Feature", "geometry": {"type": "Polygon", "coordinates": [[[-95.9582913, 36.0841856], [-95.9582906, 36.0840133], [-95.9584173, 36.084013], [-95.958418, 36.0841853], [-95.9582913, 36.0841856]]]}, "properties": {"osm_id": 1315631448, "building": "yes", "name": "", "height": null, "height_m": null, "levels": null, "tract_id": "40143006803", "tract_name": "68.03", "tags": {"building": "yes", "shop": "yes"}}}, {"type": "Feature", "geometry": {"type": "Polygon", "coordinates": [[[-95.9585461, 36.0830232], [-95.9585474, 36.083008], [-95.9583079, 36.0830082], [-95.9583081, 36.0831177], [-95.9585462, 36.083119], [-95.9585461, 36.0830232]]]}, "properties": {"osm_id": 1315632367, "building": "apartments", "name": "", "height": null, "height_m": null, "levels": null, "tract_id": "40143006803", "tract_name": "68.03", "tags": {"building": "apartments"}}}, {"type": "Feature", "geometry": {"type": "Polygon", "coordinates": [[[-95.9585488, 36.0833825], [-95.9587783, 36.0833823], [-95.9587765, 36.0832718], [-95.9585467, 36.0832719], [-95.958547, 36.0832885], [-95.9585488, 36.0833825]]]}, "properties": {"osm_id": 1315632368, "building": "apartments", "name": "", "height": null, "height_m": null, "levels": null, "tract_id": "40143006803", "tract_name": "68.03", "tags": {"building": "apartments"}}}, {"type": "Feature", "geometry": {"type": "Polygon", "coordinates": [[[-95.9599259, 36.0833816], [-95.9601554, 36.0833814], [-95.9601553, 36.0832709], [-95.9599255, 36.083271], [-95.9599259, 36.0833816]]]}, "properties": {"osm_id": 1315632513, "building": "apartments", "name": "", "height": null, "height_m": null, "levels": null, "tract_id": "40143006803", "tract_name": "68.03", "tags": {"building": "apartments"}}}, {"type": "Feature", "geometry": {"type": "Polygon", "coordinates": [[[-95.9596964, 36.0833817], [-95.9599259, 36.0833816], [-95.9599255, 36.083271], [-95.9596957, 36.0832712], [-95.9596964, 36.0833817]]]}, "properties": {"osm_id": 1315632514, "building": "apartments", "name": "", "height": null, "height_m": null, "levels": null, "tract_id": "40143006803", "tract_name": "68.03", "tags": {"building": "apartments"}}}, {"type": "Feature", "geometry": {"type": "Polygon", "coordinates": [[[-95.9594669, 36.0833819], [-95.9596964, 36.0833817], [-95.9596957, 36.0832712], [-95.9594659, 36.0832713], [-95.9594669, 36.0833819]]]}, "properties": {"osm_id": 1315632515, "building": "apartments", "name": "", "height": null, "height_m": null, "levels": null, "tract_id": "40143006803", "tract_name": "68.03", "tags": {"building": "apartments"}}}, {"type": "Feature", "geometry": {"type": "Polygon", "coordinates": [[[-95.9592373, 36.083382], [-95.9594669, 36.0833819], [-95.9594659, 36.0832713], [-95.9592361, 36.0832715], [-95.9592373, 36.083382]]]}, "properties": {"osm_id": 1315632516, "building": "apartments", "name": "", "height": null, "height_m": null, "levels": null, "tract_id": "40143006803", "tract_name": "68.03", "tags": {"building": "apartments"}}}, {"type": "Feature", "geometry": {"type": "Polygon", "coordinates": [[[-95.9590078, 36.0833822], [-95.9592373, 36.083382], [-95.9592361, 36.0832715], [-95.9590063, 36.0832716], [-95.9590078, 36.0833822]]]}, "properties": {"osm_id": 1315632517, "building": "apartments", "name": "", "height": null, "height_m": null, "levels": null, "tract_id": "40143006803", "tract_name": "68.03", "tags": {"building": "apartments"}}}, {"type": "Feature", "geometry": {"type": "Polygon", "coordinates": [[[-95.9587783, 36.0833823], [-95.9590078, 36.0833822], [-95.9590063, 36.0832716], [-95.9587765, 36.0832718], [-95.9587783, 36.0833823]]]}, "properties": {"osm_id": 1315632518, "building": "apartments", "name": "", "height": null, "height_m": null, "levels": null, "tract_id": "40143006803", "tract_name": "68.03", "tags": {"building": "apartments"}}}, {"type": "Feature", "geometry": {"type": "Polygon", "coordinates": [[[-95.9583094, 36.0832898], [-95.9583095, 36.0833983], [-95.9585488, 36.0833982], [-95.9585488, 36.0833825], [-95.958547, 36.0832885], [-95.9583094, 36.0832898]]]}, "properties": {"osm_id": 1315632519, "building": "apartments", "name": "", "height": null, "height_m": null, "levels": null, "tract_id": "40143006803", "tract_name": "68.03", "tags": {"building": "apartments"}}}, {"type": "Feature", "geometry": {"type": "Polygon", "coordinates": [[[-95.9599182, 36.0831386], [-95.9601468, 36.0831385], [-95.9601468, 36.0830226], [-95.9599181, 36.0830227], [-95.9599182, 36.0831386]]]}, "properties": {"osm_id": 1315632520, "building": "apartments", "name": "", "height": null, "height_m": null, "levels": null, "tract_id": "40143006803", "tract_name": "68.03", "tags": {"building": "apartments"}}}, {"type": "Feature", "geometry": {"type": "Polygon", "coordinates": [[[-95.9596895, 36.0831387], [-95.9599182, 36.0831386], [-95.9599181, 36.0830227], [-95.9596894, 36.0830228], [-95.9596895, 36.0831387]]]}, "properties": {"osm_id": 1315632521, "building": "apartments", "name": "", "height": null, "height_m": null, "levels": null, "tract_id": "40143006803", "tract_name": "68.03", "tags": {"building": "apartments"}}}, {"type": "Feature", "geometry": {"type": "Polygon", "coordinates": [[[-95.9594608, 36.0831388], [-95.9596895, 36.0831387], [-95.9596894, 36.0830228], [-95.9594608, 36.0830229], [-95.9594608, 36.0831388]]]}, "properties": {"osm_id": 1315632522, "building": "apartments", "name": "", "height": null, "height_m": null, "levels": null, "tract_id": "40143006803", "tract_name": "68.03", "tags": {"building": "apartments"}}}, {"type": "Feature", "geometry": {"type": "Polygon", "coordinates": [[[-95.9592322, 36.0831388], [-95.9594608, 36.0831388], [-95.9594608, 36.0830229], [-95.9592321, 36.0830229], [-95.9592322, 36.0831388]]]}, "properties": {"osm_id": 1315632523, "building": "apartments", "name": "", "height": null, "height_m": null, "levels": null, "tract_id": "40143006803", "tract_name": "68.03", "tags": {"building": "apartments"}}}, {"type": "Feature", "geometry": {"type": "Polygon", "coordinates": [[[-95.9590035, 36.0831389], [-95.9592322, 36.0831388], [-95.9592321, 36.0830229], [-95.9590034, 36.083023], [-95.9590035, 36.0831389]]]}, "properties": {"osm_id": 1315632524, "building": "apartments", "name": "", "height": null, "height_m": null, "levels": null, "tract_id": "40143006803", "tract_name": "68.03", "tags": {"building": "apartments"}}}, {"type": "Feature", "geometry": {"type": "Polygon", "coordinates": [[[-95.9587748, 36.083139], [-95.9590035, 36.0831389], [-95.9590034, 36.083023], [-95.9587748, 36.0830231], [-95.9587748, 36.083139]]]}, "properties": {"osm_id": 1315632525, "building": "apartments", "name": "", "height": null, "height_m": null, "levels": null, "tract_id": "40143006803", "tract_name": "68.03", "tags": {"building": "apartments"}}}, {"type": "Feature", "geometry": {"type": "Polygon", "coordinates": [[[-95.9585462, 36.0831391], [-95.9587748, 36.083139], [-95.9587748, 36.0830231], [-95.9585461, 36.0830232], [-95.9585462, 36.083119], [-95.9585462, 36.0831391]]]}, "properties": {"osm_id": 1315632526, "building": "apartments", "name": "", "height": null, "height_m": null, "levels": null, "tract_id": "40143006803", "tract_name": "68.03", "tags": {"building": "apartments"}}}, {"type": "Feature", "geometry": {"type": "Polygon", "coordinates": [[[-95.9608755, 36.0755378], [-95.9608762, 36.0756538], [-95.9609834, 36.0756534], [-95.9609839, 36.0757391], [-95.9611904, 36.0757383], [-95.96119, 36.0756581], [-95.9613697, 36.0756575], [-95.9613701, 36.0757377], [-95.9615793, 36.075737], [-95.9615789, 36.0756599], [-95.9616809, 36.0756596], [-95.9616802, 36.0755338], [-95.9613369, 36.0755351], [-95.9613367, 36.075495], [-95.961283, 36.0754952], [-95.9612832, 36.0755364], [-95.9608755, 36.0755378]]]}, "properties": {"osm_id": 1342537610, "building": "yes", "name": "", "height": null, "height_m": null, "levels": null, "tract_id": "40143006803", "tract_name": "68.03", "tags": {"building": "yes", "source": "microsoft/BuildingFootprints"}}}, {"type": "Feature", "geometry": {"type": "Polygon", "coordinates": [[[-95.9620095, 36.0761442], [-95.9621614, 36.0761446], [-95.9621618, 36.0760612], [-95.9622637, 36.0760615], [-95.9622644, 36.0758946], [-95.9621598, 36.0758943], [-95.9621601, 36.0758151], [-95.9622594, 36.0758153], [-95.9622601, 36.0756388], [-95.9621662, 36.0756385], [-95.9621666, 36.0755605], [-95.9620093, 36.07556], [-95.9620085, 36.0757421], [-95.9620112, 36.0757421], [-95.9620095, 36.0761442]]]}, "properties": {"osm_id": 1342537611, "building": "yes", "name": "", "height": null, "height_m": null, "levels": null, "tract_id": "40143006803", "tract_name": "68.03", "tags": {"building": "yes", "source": "microsoft/BuildingFootprints"}}}, {"type": "Feature", "geometry": {"type": "Polygon", "coordinates": [[[-95.9608873, 36.0760887], [-95.9616864, 36.0760981], [-95.9616885, 36.0759811], [-95.9615812, 36.0759798], [-95.9615828, 36.0758931], [-95.9614273, 36.0758913], [-95.9614261, 36.0759541], [-95.9614744, 36.0759547], [-95.9614739, 36.0759807], [-95.9611924, 36.0759774], [-95.9611939, 36.0758929], [-95.9609847, 36.0758904], [-95.9609831, 36.0759793], [-95.9608893, 36.0759782], [-95.9608873, 36.0760887]]]}, "properties": {"osm_id": 1342537612, "building": "yes", "name": "", "height": null, "height_m": null, "levels": null, "tract_id": "40143006803", "tract_name": "68.03", "tags": {"building": "yes", "source": "microsoft/BuildingFootprints"}}}, {"type": "Feature", "geometry": {"type": "Polygon", "coordinates": [[[-95.9606819, 36.0762406], [-95.9606804, 36.0763771], [-95.9607931, 36.0763779], [-95.9607924, 36.0764472], [-95.9609882, 36.0764486], [-95.9609891, 36.0763619], [-95.9611751, 36.0763631], [-95.9611743, 36.0764465], [-95.9613771, 36.0764479], [-95.961378, 36.0763623], [-95.9615684, 36.0763636], [-95.9615675, 36.076446], [-95.9617724, 36.0764474], [-95.9617731, 36.0763759], [-95.9618928, 36.0763767], [-95.9618942, 36.0762433], [-95.9617343, 36.0762422], [-95.9617346, 36.0762152], [-95.9616719, 36.0762148], [-95.9616715, 36.0762473], [-95.9606819, 36.0762406]]]}, "properties": {"osm_id": 1342537613, "building": "yes", "name": "", "height": null, "height_m": null, "levels": null, "tract_id": "40143006803", "tract_name": "68.03", "tags": {"building": "yes", "source": "microsoft/BuildingFootprints"}}}, {"type": "Feature", "geometry": {"type": "Polygon", "coordinates": [[[-95.9622617, 36.0763425], [-95.962263, 36.0761843], [-95.9619985, 36.0761828], [-95.9619965, 36.0764235], [-95.962194, 36.0764245], [-95.9621946, 36.0763421], [-95.9622617, 36.0763425]]]}, "properties": {"osm_id": 1342537614, "building": "yes", "name": "", "height": null, "height_m": null, "levels": null, "tract_id": "40143006803", "tract_name": "68.03", "tags": {"building": "yes", "source": "microsoft/BuildingFootprints"}}}, {"type": "Feature", "geometry": {"type": "Polygon", "coordinates": [[[-95.9622631, 36.076803], [-95.9622638, 36.0766849], [-95.9621689, 36.0766846], [-95.9621694, 36.0765988], [-95.9619612, 36.076598], [-95.9619607, 36.0766838], [-95.9618159, 36.0766832], [-95.9618161, 36.0766529], [-95.9617732, 36.0766527], [-95.9617735, 36.0766007], [-95.9615723, 36.0765999], [-95.9615718, 36.0766811], [-95.9615091, 36.0766809], [-95.9615084, 36.0768023], [-95.9615915, 36.0768026], [-95.9615914, 36.0768221], [-95.9617802, 36.0768228], [-95.9617803, 36.0768011], [-95.9622631, 36.076803]]]}, "properties": {"osm_id": 1342537615, "building": "yes", "name": "", "height": null, "height_m": null, "levels": null, "tract_id": "40143006803", "tract_name": "68.03", "tags": {"building": "yes", "source": "microsoft/BuildingFootprints"}}}, {"type": "Feature", "geometry": {"type": "Polygon", "coordinates": [[[-95.9612473, 36.0769577], [-95.9612482, 36.0770878], [-95.9613501, 36.0770873], [-95.9613506, 36.0771589], [-95.9615533, 36.077158], [-95.9615528, 36.0770735], [-95.9616558, 36.077073], [-95.9616563, 36.0771587], [-95.9618602, 36.0771579], [-95.9618596, 36.0770733], [-95.9619616, 36.0770729], [-95.9619621, 36.0771584], [-95.9621649, 36.0771575], [-95.9621643, 36.077073], [-95.9622646, 36.0770726], [-95.9622639, 36.0769533], [-95.9612473, 36.0769577]]]}, "properties": {"osm_id": 1342537616, "building": "yes", "name": "", "height": null, "height_m": null, "levels": null, "tract_id": "40143006803", "tract_name": "68.03", "tags": {"building": "yes", "source": "microsoft/BuildingFootprints"}}}, {"type": "Feature", "geometry": {"type": "Polygon", "coordinates": [[[-95.961252, 36.0775159], [-95.9622669, 36.0775191], [-95.9622675, 36.0773977], [-95.9621645, 36.0773973], [-95.9621649, 36.0773128], [-95.9619729, 36.0773122], [-95.9619725, 36.0773958], [-95.9618587, 36.0773954], [-95.9618591, 36.0773118], [-95.961658, 36.0773112], [-95.9616576, 36.0773969], [-95.9615567, 36.0773966], [-95.9615571, 36.0773121], [-95.9613522, 36.0773114], [-95.9613518, 36.0773948], [-95.9612526, 36.0773945], [-95.961252, 36.0775159]]]}, "properties": {"osm_id": 1342537617, "building": "yes", "name": "", "height": null, "height_m": null, "levels": null, "tract_id": "40143006803", "tract_name": "68.03", "tags": {"building": "yes", "source": "microsoft/BuildingFootprints"}}}, {"type": "Feature", "geometry": {"type": "Polygon", "coordinates": [[[-95.9611524, 36.0775199], [-95.9611535, 36.0773985], [-95.9610907, 36.0773981], [-95.9610915, 36.0773124], [-95.9608942, 36.0773112], [-95.9608934, 36.0773958], [-95.9607941, 36.0773952], [-95.9607949, 36.0773128], [-95.9606018, 36.0773116], [-95.9606009, 36.0774027], [-95.9604963, 36.077402], [-95.9604972, 36.0773132], [-95.9602826, 36.0773119], [-95.9602819, 36.0773932], [-95.9601842, 36.0773926], [-95.9601831, 36.077514], [-95.9611524, 36.0775199]]]}, "properties": {"osm_id": 1342537618, "building": "yes", "name": "", "height": null, "height_m": null, "levels": null, "tract_id": "40143006803", "tract_name": "68.03", "tags": {"building": "yes", "source": "microsoft/BuildingFootprints"}}}, {"type": "Feature", "geometry": {"type": "Polygon", "coordinates": [[[-95.9603282, 36.0768101], [-95.9609854, 36.0768076], [-95.9609853, 36.0768044], [-95.961444, 36.0768027], [-95.9614434, 36.076691], [-95.961372, 36.0766913], [-95.9613715, 36.0766002], [-95.9612229, 36.0766008], [-95.9612231, 36.0766398], [-95.9611947, 36.0766399], [-95.9611949, 36.0766832], [-95.9609964, 36.076684], [-95.960996, 36.0766016], [-95.9608125, 36.0766023], [-95.960813, 36.0766858], [-95.9606038, 36.0766866], [-95.9606033, 36.0766009], [-95.9603978, 36.0766017], [-95.9603982, 36.0766645], [-95.960365, 36.0766647], [-95.9603652, 36.0766994], [-95.9603276, 36.0766995], [-95.9603282, 36.0768101]]]}, "properties": {"osm_id": 1342537619, "building": "yes", "name": "", "height": null, "height_m": null, "levels": null, "tract_id": "40143006803", "tract_name": "68.03", "tags": {"building": "yes", "source": "microsoft/BuildingFootprints"}}}, {"type": "Feature", "geometry": {"type": "Polygon", "coordinates": [[[-95.9601885, 36.0769444], [-95.9601858, 36.0770983], [-95.9602823, 36.0770994], [-95.9602813, 36.0771579], [-95.9604851, 36.0771603], [-95.9604866, 36.0770714], [-95.9605885, 36.0770726], [-95.960587, 36.0771593], [-95.9607935, 36.0771617], [-95.9607951, 36.0770728], [-95.9608916, 36.0770739], [-95.9608901, 36.0771585], [-95.9610912, 36.0771608], [-95.9610928, 36.0770741], [-95.9611491, 36.0770747], [-95.9611512, 36.0769534], [-95.9610091, 36.0769517], [-95.961009, 36.0769604], [-95.9604619, 36.0769541], [-95.960462, 36.0769476], [-95.9601885, 36.0769444]]]}, "properties": {"osm_id": 1342537620, "building": "yes", "name": "", "height": null, "height_m": null, "levels": null, "tract_id": "40143006803", "tract_name": "68.03", "tags": {"building": "yes", "source": "microsoft/BuildingFootprints"}}}, {"type": "Feature", "geometry": {"type": "Polygon", "coordinates": [[[-95.9602917, 36.0779075], [-95.960494, 36.0779072], [-95.9604938, 36.0778302], [-95.9606011, 36.07783], [-95.9606007, 36.0777065], [-95.9601812, 36.0777072], [-95.9601815, 36.077821], [-95.9602915, 36.0778208], [-95.9602917, 36.0779075]]]}, "properties": {"osm_id": 1342537621, "building": "yes", "name": "", "height": null, "height_m": null, "levels": null, "tract_id": "40143006803", "tract_name": "68.03", "tags": {"building": "yes", "source": "microsoft/BuildingFootprints"}}}, {"type": "Feature", "geometry": {"type": "Polygon", "coordinates": [[[-95.9622391, 36.0777035], [-95.9612532, 36.0776998], [-95.9612524, 36.0778364], [-95.9613517, 36.0778367], [-95.9613513, 36.0779061], [-95.9615578, 36.0779069], [-95.9615583, 36.0778202], [-95.9616575, 36.0778205], [-95.9616571, 36.0779051], [-95.9618609, 36.0779059], [-95.9618612, 36.0778495], [-95.9618934, 36.0778496], [-95.9618936, 36.0778258], [-95.9619633, 36.077826], [-95.9619628, 36.0779062], [-95.9621694, 36.077907], [-95.9621699, 36.0778203], [-95.9622385, 36.0778205], [-95.9622391, 36.0777035]]]}, "properties": {"osm_id": 1342537622, "building": "yes", "name": "", "height": null, "height_m": null, "levels": null, "tract_id": "40143006803", "tract_name": "68.03", "tags": {"building": "yes", "source": "microsoft/BuildingFootprints"}}}, {"type": "Feature", "geometry": {"type": "Polygon", "coordinates": [[[-95.9622663, 36.0782889], [-95.9622669, 36.078173], [-95.9621649, 36.0781727], [-95.9621654, 36.078086], [-95.961963, 36.0780853], [-95.9619626, 36.078172], [-95.9618607, 36.0781717], [-95.9618611, 36.078086], [-95.9616557, 36.0780853], [-95.9616553, 36.0781753], [-95.9615576, 36.078175], [-95.961558, 36.0780861], [-95.961393, 36.0780856], [-95.9614304, 36.0781356], [-95.9613191, 36.0781352], [-95.9613189, 36.0781731], [-95.9612572, 36.0781729], [-95.9612566, 36.0782889], [-95.9613347, 36.0782892], [-95.9613564, 36.0783181], [-95.9614321, 36.0782811], [-95.9614481, 36.0783026], [-95.9617566, 36.0783036], [-95.9617564, 36.0783371], [-95.9618181, 36.0783373], [-95.9618183, 36.0782908], [-95.9619298, 36.0782911], [-95.9619297, 36.0783218], [-95.9619038, 36.0783344], [-95.9621227, 36.0783351], [-95.962123, 36.0782884], [-95.9622663, 36.0782889]]]}, "properties": {"osm_id": 1342537623, "building": "yes", "name": "", "height": null, "height_m": null, "levels": null, "tract_id": "40143006803", "tract_name": "68.03", "tags": {"building": "yes", "source": "microsoft/BuildingFootprints"}}}, {"type": "Feature", "geometry": {"type": "Polygon", "coordinates": [[[-95.9601825, 36.0782908], [-95.9611159, 36.0782939], [-95.9611158, 36.0783178], [-95.9611867, 36.078318], [-95.9611874, 36.0781738], [-95.9608966, 36.0781729], [-95.960897, 36.0780873], [-95.9606917, 36.0780866], [-95.9606914, 36.0781483], [-95.9606526, 36.0781482], [-95.9606525, 36.0781732], [-95.9604943, 36.0781726], [-95.9604947, 36.0780881], [-95.9602893, 36.0780874], [-95.960289, 36.0781524], [-95.9604472, 36.078153], [-95.9604471, 36.0781768], [-95.9601831, 36.0781759], [-95.9601825, 36.0782908]]]}, "properties": {"osm_id": 1342537624, "building": "yes", "name": "", "height": null, "height_m": null, "levels": null, "tract_id": "40143006803", "tract_name": "68.03", "tags": {"building": "yes", "source": "microsoft/BuildingFootprints"}}}, {"type": "Feature", "geometry": {"type": "Polygon", "coordinates": [[[-95.9612516, 36.0784759], [-95.9612517, 36.0785952], [-95.9613134, 36.0785951], [-95.9613135, 36.078619], [-95.9613537, 36.0786189], [-95.9613538, 36.0786818], [-95.9615576, 36.0786816], [-95.9615575, 36.0785961], [-95.9616567, 36.078596], [-95.9616569, 36.0786815], [-95.9618741, 36.0786814], [-95.961874, 36.0785958], [-95.9619679, 36.0785958], [-95.961968, 36.0786813], [-95.9621665, 36.0786811], [-95.9621664, 36.0786161], [-95.9622737, 36.078616], [-95.9622735, 36.0784772], [-95.9622225, 36.0784773], [-95.9622225, 36.0784296], [-95.9620937, 36.0784297], [-95.9620938, 36.0784752], [-95.9612516, 36.0784759]]]}, "properties": {"osm_id": 1342537625, "building": "yes", "name": "", "height": null, "height_m": null, "levels": null, "tract_id": "40143006803", "tract_name": "68.03", "tags": {"building": "yes", "source": "microsoft/BuildingFootprints"}}}, {"type": "Feature", "geometry": {"type": "Polygon", "coordinates": [[[-95.960191, 36.0784787], [-95.9601896, 36.0786229], [-95.9602861, 36.0786235], [-95.9602856, 36.078682], [-95.9604906, 36.0786833], [-95.9604915, 36.0785977], [-95.9605895, 36.0785983], [-95.9605887, 36.0786829], [-95.9607925, 36.0786842], [-95.9607934, 36.0785964], [-95.9609409, 36.0785973], [-95.9609417, 36.0785161], [-95.9608478, 36.0785155], [-95.9608481, 36.0784829], [-95.960191, 36.0784787]]]}, "properties": {"osm_id": 1342537843, "building": "yes", "name": "", "height": null, "height_m": null, "levels": null, "tract_id": "40143006803", "tract_name": "68.03", "tags": {"building": "yes", "source": "microsoft/BuildingFootprints"}}}, {"type": "Feature", "geometry": {"type": "Polygon", "coordinates": [[[-95.9609936, 36.0785922], [-95.9612242, 36.0785893], [-95.9612224, 36.0784961], [-95.9609918, 36.078499], [-95.9609936, 36.0785922]]]}, "properties": {"osm_id": 1342537844, "building": "yes", "name": "", "height": null, "height_m": null, "levels": null, "tract_id": "40143006803", "tract_name": "68.03", "tags": {"building": "yes", "source": "microsoft/BuildingFootprints"}}}, {"type": "Feature", "geometry": {"type": "Polygon", "coordinates": [[[-95.9588303, 36.0767084], [-95.9588306, 36.0767962], [-95.9592447, 36.0767953], [-95.9592444, 36.0767021], [-95.9590476, 36.0767025], [-95.9590476, 36.076708], [-95.9588303, 36.0767084]]]}, "properties": {"osm_id": 1342537845, "building": "yes", "name": "", "height": null, "height_m": null, "levels": null, "tract_id": "40143006803", "tract_name": "68.03", "tags": {"building": "yes", "source": "microsoft/BuildingFootprints"}}}, {"type": "Feature", "geometry": {"type": "Polygon", "coordinates": [[[-95.959285, 36.0767975], [-95.9595328, 36.0767946], [-95.9595312, 36.0767068], [-95.9592835, 36.0767097], [-95.959285, 36.0767975]]]}, "properties": {"osm_id": 1342537846, "building": "yes", "name": "", "height": null, "height_m": null, "levels": null, "tract_id": "40143006803", "tract_name": "68.03", "tags": {"building": "yes", "source": "microsoft/BuildingFootprints"}}}, {"type": "Feature", "geometry": {"type": "Polygon", "coordinates": [[[-95.9599846, 36.0767015], [-95.9595689, 36.0767063], [-95.9595704, 36.076793], [-95.9599861, 36.0767882], [-95.9599846, 36.0767015]]]}, "properties": {"osm_id": 1342537847, "building": "yes", "name": "", "height": null, "height_m": null, "levels": null, "tract_id": "40143006803", "tract_name": "68.03", "tags": {"building": "yes", "source": "microsoft/BuildingFootprints"}}}, {"type": "Feature", "geometry": {"type": "Polygon", "coordinates": [[[-95.9599881, 36.0768489], [-95.9595708, 36.0768439], [-95.9595693, 36.0769263], [-95.9599866, 36.0769312], [-95.9599881, 36.0768489]]]}, "properties": {"osm_id": 1342537848, "building": "yes", "name": "", "height": null, "height_m": null, "levels": null, "tract_id": "40143006803", "tract_name": "68.03", "tags": {"building": "yes", "source": "microsoft/BuildingFootprints"}}}, {"type": "Feature", "geometry": {"type": "Polygon", "coordinates": [[[-95.9595749, 36.0769948], [-95.959577, 36.0770771], [-95.9599872, 36.0770705], [-95.9599851, 36.0769881], [-95.9595749, 36.0769948]]]}, "properties": {"osm_id": 1342537849, "building": "yes", "name": "", "height": null, "height_m": null, "levels": null, "tract_id": "40143006803", "tract_name": "68.03", "tags": {"building": "yes", "source": "microsoft/BuildingFootprints"}}}, {"type": "Feature", "geometry": {"type": "Polygon", "coordinates": [[[-95.9588274, 36.0770715], [-95.9592431, 36.077076], [-95.9592446, 36.0769872], [-95.9588289, 36.0769826], [-95.9588274, 36.0770715]]]}, "properties": {"osm_id": 1342537850, "building": "yes", "name": "", "height": null, "height_m": null, "levels": null, "tract_id": "40143006803", "tract_name": "68.03", "tags": {"building": "yes", "source": "microsoft/BuildingFootprints"}}}, {"type": "Feature", "geometry": {"type": "Polygon", "coordinates": [[[-95.9588273, 36.0771387], [-95.9588282, 36.0772189], [-95.9592428, 36.0772159], [-95.9592419, 36.0771357], [-95.9588273, 36.0771387]]]}, "properties": {"osm_id": 1342537851, "building": "yes", "name": "", "height": null, "height_m": null, "levels": null, "tract_id": "40143006803", "tract_name": "68.03", "tags": {"building": "yes", "source": "microsoft/BuildingFootprints"}}}, {"type": "Feature", "geometry": {"type": "Polygon", "coordinates": [[[-95.9588295, 36.0773616], [-95.9592424, 36.0773562], [-95.9592408, 36.0772739], [-95.9588278, 36.0772792], [-95.9588295, 36.0773616]]]}, "properties": {"osm_id": 1342537852, "building": "yes", "name": "", "height": null, "height_m": null, "levels": null, "tract_id": "40143006803", "tract_name": "68.03", "tags": {"building": "yes", "source": "microsoft/BuildingFootprints"}}}, {"type": "Feature", "geometry": {"type": "Polygon", "coordinates": [[[-95.9592437, 36.0774231], [-95.958828, 36.0774203], [-95.9588272, 36.0775027], [-95.9592429, 36.0775055], [-95.9592437, 36.0774231]]]}, "properties": {"osm_id": 1342537853, "building": "yes", "name": "", "height": null, "height_m": null, "levels": null, "tract_id": "40143006803", "tract_name": "68.03", "tags": {"building": "yes", "source": "microsoft/BuildingFootprints"}}}, {"type": "Feature", "geometry": {"type": "Polygon", "coordinates": [[[-95.9590068, 36.077788], [-95.9592574, 36.0777854], [-95.9592562, 36.0777117], [-95.9590057, 36.0777143], [-95.9590068, 36.077788]]]}, "properties": {"osm_id": 1342537854, "building": "yes", "name": "", "height": null, "height_m": null, "levels": null, "tract_id": "40143006803", "tract_name": "68.03", "tags": {"building": "yes", "source": "microsoft/BuildingFootprints"}}}, {"type": "Feature", "geometry": {"type": "Polygon", "coordinates": [[[-95.9588318, 36.0779899], [-95.9588296, 36.07807], [-95.959244, 36.0780773], [-95.9592462, 36.0779972], [-95.9588318, 36.0779899]]]}, "properties": {"osm_id": 1342537855, "building": "yes", "name": "", "height": null, "height_m": null, "levels": null, "tract_id": "40143006803", "tract_name": "68.03", "tags": {"building": "yes", "source": "microsoft/BuildingFootprints"}}}, {"type": "Feature", "geometry": {"type": "Polygon", "coordinates": [[[-95.9592451, 36.078219], [-95.9592466, 36.0781398], [-95.9588321, 36.0781349], [-95.9588307, 36.0782141], [-95.9592451, 36.078219]]]}, "properties": {"osm_id": 1342537856, "building": "yes", "name": "", "height": null, "height_m": null, "levels": null, "tract_id": "40143006803", "tract_name": "68.03", "tags": {"building": "yes", "source": "microsoft/BuildingFootprints"}}}, {"type": "Feature", "geometry": {"type": "Polygon", "coordinates": [[[-95.9588327, 36.0782791], [-95.9588334, 36.0783594], [-95.9592464, 36.078357], [-95.9592458, 36.0782768], [-95.9588327, 36.0782791]]]}, "properties": {"osm_id": 1342537857, "building": "yes", "name": "", "height": null, "height_m": null, "levels": null, "tract_id": "40143006803", "tract_name": "68.03", "tags": {"building": "yes", "source": "microsoft/BuildingFootprints"}}}, {"type": "Feature", "geometry": {"type": "Polygon", "coordinates": [[[-95.9592452, 36.0785056], [-95.9592469, 36.0784254], [-95.9588325, 36.0784197], [-95.9588308, 36.0784999], [-95.9592452, 36.0785056]]]}, "properties": {"osm_id": 1342537858, "building": "yes", "name": "", "height": null, "height_m": null, "levels": null, "tract_id": "40143006803", "tract_name": "68.03", "tags": {"building": "yes", "source": "microsoft/BuildingFootprints"}}}, {"type": "Feature", "geometry": {"type": "Polygon", "coordinates": [[[-95.959246, 36.078647], [-95.959247, 36.0785656], [-95.9588313, 36.0785623], [-95.9588303, 36.0786437], [-95.959246, 36.078647]]]}, "properties": {"osm_id": 1342537859, "building": "yes", "name": "", "height": null, "height_m": null, "levels": null, "tract_id": "40143006803", "tract_name": "68.03", "tags": {"building": "yes", "source": "microsoft/BuildingFootprints"}}}, {"type": "Feature", "geometry": {"type": "Polygon", "coordinates": [[[-95.9595802, 36.0771355], [-95.9595809, 36.0772157], [-95.9599875, 36.0772136], [-95.9599868, 36.0771334], [-95.9595802, 36.0771355]]]}, "properties": {"osm_id": 1342537860, "building": "yes", "name": "", "height": null, "height_m": null, "levels": null, "tract_id": "40143006803", "tract_name": "68.03", "tags": {"building": "yes", "source": "microsoft/BuildingFootprints"}}}, {"type": "Feature", "geometry": {"type": "Polygon", "coordinates": [[[-95.9599865, 36.0772774], [-95.9595719, 36.0772791], [-95.9595724, 36.0773614], [-95.959987, 36.0773598], [-95.9599865, 36.0772774]]]}, "properties": {"osm_id": 1342537861, "building": "yes", "name": "", "height": null, "height_m": null, "levels": null, "tract_id": "40143006803", "tract_name": "68.03", "tags": {"building": "yes", "source": "microsoft/BuildingFootprints"}}}, {"type": "Feature", "geometry": {"type": "Polygon", "coordinates": [[[-95.9595741, 36.0775025], [-95.9599871, 36.0775069], [-95.9599884, 36.0774267], [-95.9595754, 36.0774223], [-95.9595741, 36.0775025]]]}, "properties": {"osm_id": 1342537862, "building": "yes", "name": "", "height": null, "height_m": null, "levels": null, "tract_id": "40143006803", "tract_name": "68.03", "tags": {"building": "yes", "source": "microsoft/BuildingFootprints"}}}, {"type": "Feature", "geometry": {"type": "Polygon", "coordinates": [[[-95.9599911, 36.0775651], [-95.9595727, 36.077569], [-95.9595739, 36.0776514], [-95.9599922, 36.0776475], [-95.9599911, 36.0775651]]]}, "properties": {"osm_id": 1342537863, "building": "yes", "name": "", "height": null, "height_m": null, "levels": null, "tract_id": "40143006803", "tract_name": "68.03", "tags": {"building": "yes", "source": "microsoft/BuildingFootprints"}}}, {"type": "Feature", "geometry": {"type": "Polygon", "coordinates": [[[-95.959574, 36.0777028], [-95.9595728, 36.0777873], [-95.9599885, 36.0777911], [-95.9599897, 36.0777065], [-95.959574, 36.0777028]]]}, "properties": {"osm_id": 1342537864, "building": "yes", "name": "", "height": null, "height_m": null, "levels": null, "tract_id": "40143006803", "tract_name": "68.03", "tags": {"building": "yes", "source": "microsoft/BuildingFootprints"}}}, {"type": "Feature", "geometry": {"type": "Polygon", "coordinates": [[[-95.9595706, 36.0779324], [-95.9599917, 36.0779345], [-95.9599923, 36.0778521], [-95.9595712, 36.07785], [-95.9595706, 36.0779324]]]}, "properties": {"osm_id": 1342537865, "building": "yes", "name": "", "height": null, "height_m": null, "levels": null, "tract_id": "40143006803", "tract_name": "68.03", "tags": {"building": "yes", "source": "microsoft/BuildingFootprints"}}}, {"type": "Feature", "geometry": {"type": "Polygon", "coordinates": [[[-95.959576, 36.078071], [-95.959989, 36.0780732], [-95.9599897, 36.077993], [-95.9595767, 36.0779908], [-95.959576, 36.078071]]]}, "properties": {"osm_id": 1342537866, "building": "yes", "name": "", "height": null, "height_m": null, "levels": null, "tract_id": "40143006803", "tract_name": "68.03", "tags": {"building": "yes", "source": "microsoft/BuildingFootprints"}}}, {"type": "Feature", "geometry": {"type": "Polygon", "coordinates": [[[-95.9599882, 36.0781332], [-95.9595741, 36.0781374], [-95.9595753, 36.0782198], [-95.9599895, 36.0782156], [-95.9599882, 36.0781332]]]}, "properties": {"osm_id": 1342537867, "building": "yes", "name": "", "height": null, "height_m": null, "levels": null, "tract_id": "40143006803", "tract_name": "68.03", "tags": {"building": "yes", "source": "microsoft/BuildingFootprints"}}}, {"type": "Feature", "geometry": {"type": "Polygon", "coordinates": [[[-95.9595746, 36.0782797], [-95.9595761, 36.0783599], [-95.9599864, 36.0783546], [-95.9599848, 36.0782744], [-95.9595746, 36.0782797]]]}, "properties": {"osm_id": 1342537868, "building": "yes", "name": "", "height": null, "height_m": null, "levels": null, "tract_id": "40143006803", "tract_name": "68.03", "tags": {"building": "yes", "source": "microsoft/BuildingFootprints"}}}, {"type": "Feature", "geometry": {"type": "Polygon", "coordinates": [[[-95.9599461, 36.0785019], [-95.9599457, 36.0784672], [-95.9599859, 36.0784669], [-95.9599854, 36.0784213], [-95.959575, 36.0784246], [-95.959576, 36.0785048], [-95.9599461, 36.0785019]]]}, "properties": {"osm_id": 1342537869, "building": "yes", "name": "", "height": null, "height_m": null, "levels": null, "tract_id": "40143006803", "tract_name": "68.03", "tags": {"building": "yes", "source": "microsoft/BuildingFootprints"}}}, {"type": "Feature", "geometry": {"type": "Polygon", "coordinates": [[[-95.9595768, 36.0786447], [-95.9599899, 36.0786422], [-95.9599891, 36.078561], [-95.9595761, 36.0785634], [-95.9595768, 36.0786447]]]}, "properties": {"osm_id": 1342537870, "building": "yes", "name": "", "height": null, "height_m": null, "levels": null, "tract_id": "40143006803", "tract_name": "68.03", "tags": {"building": "yes", "source": "microsoft/BuildingFootprints"}}}, {"type": "Feature", "geometry": {"type": "Polygon", "coordinates": [[[-95.9599928, 36.0787839], [-95.9599909, 36.0787026], [-95.9595768, 36.0787087], [-95.9595786, 36.0787899], [-95.9599928, 36.0787839]]]}, "properties": {"osm_id": 1342537871, "building": "yes", "name": "", "height": null, "height_m": null, "levels": null, "tract_id": "40143006803", "tract_name": "68.03", "tags": {"building": "yes", "source": "microsoft/BuildingFootprints"}}}, {"type": "Feature", "geometry": {"type": "Polygon", "coordinates": [[[-95.9592472, 36.0787861], [-95.9592452, 36.0787059], [-95.9588323, 36.0787124], [-95.9588343, 36.0787926], [-95.9592472, 36.0787861]]]}, "properties": {"osm_id": 1342537872, "building": "yes", "name": "", "height": null, "height_m": null, "levels": null, "tract_id": "40143006803", "tract_name": "68.03", "tags": {"building": "yes", "source": "microsoft/BuildingFootprints"}}}, {"type": "Feature", "geometry": {"type": "Polygon", "coordinates": [[[-95.9586529, 36.0825874], [-95.9584237, 36.0825873], [-95.9584236, 36.0827304], [-95.958539, 36.0827304], [-95.958539, 36.0826772], [-95.9586528, 36.0826773], [-95.9586529, 36.0825874]]]}, "properties": {"osm_id": 1342538176, "building": "yes", "name": "", "height": null, "height_m": null, "levels": null, "tract_id": "40143006803", "tract_name": "68.03", "tags": {"building": "yes", "source": "microsoft/BuildingFootprints"}}}, {"type": "Feature", "geometry": {"type": "Polygon", "coordinates": [[[-95.9587164, 36.082587], [-95.9587169, 36.0826771], [-95.9588108, 36.0826768], [-95.9588114, 36.082797], [-95.9587765, 36.0827971], [-95.9587768, 36.0828643], [-95.9590424, 36.0828634], [-95.959041, 36.082586], [-95.9587164, 36.082587]]]}, "properties": {"osm_id": 1342538177, "building": "yes", "name": "", "height": null, "height_m": null, "levels": null, "tract_id": "40143006803", "tract_name": "68.03", "tags": {"building": "yes", "source": "microsoft/BuildingFootprints"}}}, {"type": "Feature", "geometry": {"type": "Polygon", "coordinates": [[[-95.9586896, 36.0827377], [-95.9585223, 36.0827347], [-95.9585206, 36.0827966], [-95.9584375, 36.0827951], [-95.9584357, 36.0828623], [-95.9586861, 36.0828667], [-95.9586896, 36.0827377]]]}, "properties": {"osm_id": 1342538178, "building": "yes", "name": "", "height": null, "height_m": null, "levels": null, "tract_id": "40143006803", "tract_name": "68.03", "tags": {"building": "yes", "source": "microsoft/BuildingFootprints"}}}, {"type": "Feature", "geometry": {"type": "Polygon", "coordinates": [[[-95.9592385, 36.0825608], [-95.959227, 36.0829475], [-95.9593798, 36.0829505], [-95.9593849, 36.0827793], [-95.9594209, 36.08278], [-95.9594192, 36.0828352], [-95.9594074, 36.082835], [-95.9594041, 36.0829477], [-95.9594722, 36.082949], [-95.959477, 36.0827887], [-95.9594598, 36.0827883], [-95.9594633, 36.0826703], [-95.9594403, 36.0826699], [-95.9594434, 36.0825648], [-95.9592385, 36.0825608]]]}, "properties": {"osm_id": 1342538179, "building": "yes", "name": "", "height": null, "height_m": null, "levels": null, "tract_id": "40143006803", "tract_name": "68.03", "tags": {"building": "yes", "source": "microsoft/BuildingFootprints"}}}, {"type": "Feature", "geometry": {"type": "Polygon", "coordinates": [[[-95.9596652, 36.0844542], [-95.9594694, 36.0844551], [-95.9594698, 36.0845072], [-95.9595217, 36.0845069], [-95.9595219, 36.084534], [-95.9594388, 36.0845344], [-95.9594393, 36.0846146], [-95.9595198, 36.0846142], [-95.9595199, 36.0846326], [-95.9596719, 36.0846319], [-95.9596713, 36.0845626], [-95.959666, 36.0845626], [-95.9596652, 36.0844542]]]}, "properties": {"osm_id": 1342538180, "building": "yes", "name": "", "height": null, "height_m": null, "levels": null, "tract_id": "40143006803", "tract_name": "68.03", "tags": {"building": "yes", "source": "microsoft/BuildingFootprints"}}}, {"type": "Feature", "geometry": {"type": "Polygon", "coordinates": [[[-95.9596601, 36.0846521], [-95.9595144, 36.0846507], [-95.9595136, 36.0847071], [-95.959544, 36.0847073], [-95.9595424, 36.0848244], [-95.9596577, 36.0848254], [-95.9596601, 36.0846521]]]}, "properties": {"osm_id": 1342538181, "building": "yes", "name": "", "height": null, "height_m": null, "levels": null, "tract_id": "40143006803", "tract_name": "68.03", "tags": {"building": "yes", "source": "microsoft/BuildingFootprints"}}}, {"type": "Feature", "geometry": {"type": "Polygon", "coordinates": [[[-95.9595468, 36.0848497], [-95.9594449, 36.0848511], [-95.9594485, 36.0850234], [-95.9596255, 36.085021], [-95.9596237, 36.0849343], [-95.9595486, 36.0849353], [-95.9595468, 36.0848497]]]}, "properties": {"osm_id": 1342538182, "building": "yes", "name": "", "height": null, "height_m": null, "levels": null, "tract_id": "40143006803", "tract_name": "68.03", "tags": {"building": "yes", "source": "microsoft/BuildingFootprints"}}}, {"type": "Feature", "geometry": {"type": "Polygon", "coordinates": [[[-95.9596643, 36.0851507], [-95.9595838, 36.085152], [-95.9595814, 36.0850567], [-95.9594671, 36.0850586], [-95.9594714, 36.0852276], [-95.9596661, 36.0852243], [-95.9596643, 36.0851507]]]}, "properties": {"osm_id": 1342538183, "building": "yes", "name": "", "height": null, "height_m": null, "levels": null, "tract_id": "40143006803", "tract_name": "68.03", "tags": {"building": "yes", "source": "microsoft/BuildingFootprints"}}}, {"type": "Feature", "geometry": {"type": "Polygon", "coordinates": [[[-95.9596595, 36.0852677], [-95.9594826, 36.0852647], [-95.9594791, 36.0854012], [-95.9595417, 36.0854022], [-95.9595412, 36.0854239], [-95.9596554, 36.0854258], [-95.9596595, 36.0852677]]]}, "properties": {"osm_id": 1342538184, "building": "yes", "name": "", "height": null, "height_m": null, "levels": null, "tract_id": "40143006803", "tract_name": "68.03", "tags": {"building": "yes", "source": "microsoft/BuildingFootprints"}}}, {"type": "Feature", "geometry": {"type": "Polygon", "coordinates": [[[-95.9596692, 36.0856278], [-95.959667, 36.0855292], [-95.9594632, 36.0855323], [-95.9594637, 36.0855551], [-95.9593779, 36.0855563], [-95.9593797, 36.0856322], [-95.9596692, 36.0856278]]]}, "properties": {"osm_id": 1342538185, "building": "yes", "name": "", "height": null, "height_m": null, "levels": null, "tract_id": "40143006803", "tract_name": "68.03", "tags": {"building": "yes", "source": "microsoft/BuildingFootprints"}}}, {"type": "Feature", "geometry": {"type": "Polygon", "coordinates": [[[-95.9625944, 36.0757676], [-95.9627804, 36.0757691], [-95.9627812, 36.0757029], [-95.962724, 36.0757024], [-95.9627251, 36.0756135], [-95.9627036, 36.0756133], [-95.9627045, 36.0755461], [-95.9625945, 36.0755452], [-95.9625931, 36.0756601], [-95.9625609, 36.0756598], [-95.96256, 36.0757292], [-95.9625949, 36.0757295], [-95.9625944, 36.0757676]]]}, "properties": {"osm_id": 1342538425, "building": "detached", "name": "", "height": null, "height_m": null, "levels": null, "tract_id": "40143006803", "tract_name": "68.03", "tags": {"addr:city": "Tulsa", "addr:country": "US", "addr:housenumber": "6049", "addr:postcode": "74105", "addr:state": "OK", "addr:street": "South Yorktown Avenue East", "building": "detached"}}}, {"type": "Feature", "geometry": {"type": "Polygon", "coordinates": [[[-95.9626064, 36.0760219], [-95.962711, 36.0760228], [-95.9627117, 36.0759674], [-95.9627456, 36.0759677], [-95.9627468, 36.0758757], [-95.9627227, 36.0758755], [-95.9627235, 36.0758135], [-95.9626091, 36.0758126], [-95.9626064, 36.0760219]]]}, "properties": {"osm_id": 1342538426, "building": "detached", "name": "", "height": null, "height_m": null, "levels": null, "tract_id": "40143006803", "tract_name": "68.03", "tags": {"addr:city": "Tulsa", "addr:country": "US", "addr:housenumber": "6041", "addr:postcode": "74105", "addr:state": "OK", "addr:street": "South Yorktown Avenue East", "building": "detached"}}}, {"type": "Feature", "geometry": {"type": "Polygon", "coordinates": [[[-95.9626274, 36.0762836], [-95.962756, 36.0762803], [-95.9627474, 36.0760615], [-95.9626187, 36.0760649], [-95.9626274, 36.0762836]]]}, "properties": {"osm_id": 1342538427, "building": "detached", "name": "", "height": null, "height_m": null, "levels": null, "tract_id": "40143006803", "tract_name": "68.03", "tags": {"addr:city": "Tulsa", "addr:country": "US", "addr:housenumber": "6033", "addr:postcode": "74105", "addr:state": "OK", "addr:street": "South Yorktown Avenue East", "building": "detached"}}}, {"type": "Feature", "geometry": {"type": "Polygon", "coordinates": [[[-95.9626613, 36.0763238], [-95.9625433, 36.0763219], [-95.9625385, 36.0765213], [-95.9626618, 36.0765232], [-95.9626624, 36.0765006], [-95.9627589, 36.0765022], [-95.962761, 36.0764164], [-95.9626591, 36.0764148], [-95.9626613, 36.0763238]]]}, "properties": {"osm_id": 1342538428, "building": "detached", "name": "", "height": null, "height_m": null, "levels": null, "tract_id": "40143006803", "tract_name": "68.03", "tags": {"addr:city": "Tulsa", "addr:country": "US", "addr:housenumber": "6027", "addr:postcode": "74105", "addr:state": "OK", "addr:street": "South Yorktown Avenue East", "building": "detached"}}}, {"type": "Feature", "geometry": {"type": "Polygon", "coordinates": [[[-95.9627165, 36.0765714], [-95.9625905, 36.07657], [-95.96259, 36.076596], [-95.9625391, 36.0765954], [-95.9625372, 36.0767093], [-95.9625077, 36.076709], [-95.9625067, 36.0767632], [-95.9627508, 36.0767659], [-95.9627518, 36.0767061], [-95.9627142, 36.0767057], [-95.9627165, 36.0765714]]]}, "properties": {"osm_id": 1342538429, "building": "detached", "name": "", "height": null, "height_m": null, "levels": null, "tract_id": "40143006803", "tract_name": "68.03", "tags": {"addr:city": "Tulsa", "addr:country": "US", "addr:housenumber": "6019", "addr:postcode": "74105", "addr:state": "OK", "addr:street": "South Yorktown Avenue East", "building": "detached"}}}, {"type": "Feature", "geometry": {"type": "Polygon", "coordinates": [[[-95.9625393, 36.0769838], [-95.9627512, 36.0769852], [-95.962752, 36.0769019], [-95.9626608, 36.0769013], [-95.9626616, 36.0768242], [-95.9625409, 36.0768234], [-95.9625393, 36.0769838]]]}, "properties": {"osm_id": 1342538430, "building": "detached", "name": "", "height": null, "height_m": null, "levels": null, "tract_id": "40143006803", "tract_name": "68.03", "tags": {"addr:city": "Tulsa", "addr:country": "US", "addr:housenumber": "6011", "addr:postcode": "74105", "addr:state": "OK", "addr:street": "South Yorktown Avenue East", "building": "detached"}}}, {"type": "Feature", "geometry": {"type": "Polygon", "coordinates": [[[-95.9627587, 36.0772136], [-95.9627613, 36.0771248], [-95.9626622, 36.0771229], [-95.9626648, 36.0770328], [-95.9625442, 36.0770305], [-95.9625383, 36.0772289], [-95.962667, 36.0772314], [-95.9626676, 36.0772119], [-95.9627587, 36.0772136]]]}, "properties": {"osm_id": 1342538431, "building": "detached", "name": "", "height": null, "height_m": null, "levels": null, "tract_id": "40143006803", "tract_name": "68.03", "tags": {"addr:city": "Tulsa", "addr:country": "US", "addr:housenumber": "6005", "addr:postcode": "74105", "addr:state": "OK", "addr:street": "South Yorktown Avenue East", "building": "detached"}}}, {"type": "Feature", "geometry": {"type": "Polygon", "coordinates": [[[-95.9625895, 36.0774956], [-95.9627183, 36.0774969], [-95.9627217, 36.0772693], [-95.962593, 36.077268], [-95.9625895, 36.0774956]]]}, "properties": {"osm_id": 1342538432, "building": "detached", "name": "", "height": null, "height_m": null, "levels": null, "tract_id": "40143006803", "tract_name": "68.03", "tags": {"addr:city": "Tulsa", "addr:country": "US", "addr:housenumber": "5945", "addr:postcode": "74105", "addr:state": "OK", "addr:street": "South Yorktown Avenue East", "building": "detached"}}}, {"type": "Feature", "geometry": {"type": "Polygon", "coordinates": [[[-95.9627637, 36.0777195], [-95.9627622, 36.077622], [-95.962663, 36.077623], [-95.962662, 36.077558], [-95.9625413, 36.0775592], [-95.9625438, 36.0777217], [-95.9627637, 36.0777195]]]}, "properties": {"osm_id": 1342538433, "building": "detached", "name": "", "height": null, "height_m": null, "levels": null, "tract_id": "40143006803", "tract_name": "68.03", "tags": {"addr:city": "Tulsa", "addr:country": "US", "addr:housenumber": "5937", "addr:postcode": "74105", "addr:state": "OK", "addr:street": "South Yorktown Avenue East", "building": "detached"}}}, {"type": "Feature", "geometry": {"type": "Polygon", "coordinates": [[[-95.9625402, 36.077963], [-95.9626636, 36.0779618], [-95.9626622, 36.0778686], [-95.9627694, 36.0778675], [-95.9627681, 36.0777786], [-95.9626646, 36.0777796], [-95.9626643, 36.0777558], [-95.9625371, 36.0777571], [-95.9625402, 36.077963]]]}, "properties": {"osm_id": 1342538434, "building": "detached", "name": "", "height": null, "height_m": null, "levels": null, "tract_id": "40143006803", "tract_name": "68.03", "tags": {"addr:city": "Tulsa", "addr:country": "US", "addr:housenumber": "5931", "addr:postcode": "74105", "addr:state": "OK", "addr:street": "South Yorktown Avenue East", "building": "detached"}}}, {"type": "Feature", "geometry": {"type": "Polygon", "coordinates": [[[-95.9627554, 36.0784004], [-95.962697, 36.0781978], [-95.9625749, 36.0782208], [-95.9626333, 36.0784235], [-95.9627554, 36.0784004]]]}, "properties": {"osm_id": 1342538435, "building": "detached", "name": "", "height": null, "height_m": null, "levels": null, "tract_id": "40143006803", "tract_name": "68.03", "tags": {"addr:city": "Tulsa", "addr:country": "US", "addr:housenumber": "5917", "addr:postcode": "74105", "addr:state": "OK", "addr:street": "South Yorktown Avenue East", "building": "detached"}}}, {"type": "Feature", "geometry": {"type": "Polygon", "coordinates": [[[-95.9627625, 36.0787571], [-95.9627607, 36.0786543], [-95.9624577, 36.0786576], [-95.9624595, 36.0787604], [-95.9627625, 36.0787571]]]}, "properties": {"osm_id": 1342538436, "building": "detached", "name": "", "height": null, "height_m": null, "levels": null, "tract_id": "40143006803", "tract_name": "68.03", "tags": {"addr:city": "Tulsa", "addr:country": "US", "addr:housenumber": "2110", "addr:postcode": "74105", "addr:state": "OK", "addr:street": "East 59th Street South", "building": "detached"}}}, {"type": "Feature", "geometry": {"type": "Polygon", "coordinates": [[[-95.9604359, 36.079019], [-95.960275, 36.0790214], [-95.9602767, 36.0790962], [-95.960341, 36.0790952], [-95.960343, 36.0791819], [-95.9604396, 36.0791805], [-95.9604359, 36.079019]]]}, "properties": {"osm_id": 1342538437, "building": "yes", "name": "", "height": null, "height_m": null, "levels": null, "tract_id": "40143006803", "tract_name": "68.03", "tags": {"addr:city": "Tulsa", "addr:country": "US", "addr:housenumber": "5683", "addr:postcode": "74105", "addr:state": "OK", "addr:street": "South Zunis Avenue East", "building": "yes", "source": "microsoft/BuildingFootprints"}}}, {"type": "Feature", "geometry": {"type": "Polygon", "coordinates": [[[-95.9604486, 36.0792933], [-95.9604473, 36.0792164], [-95.9602033, 36.0792191], [-95.9602042, 36.0792744], [-95.96027, 36.0792737], [-95.9602718, 36.0793777], [-95.9603723, 36.0793766], [-95.9603709, 36.0792942], [-95.9604486, 36.0792933]]]}, "properties": {"osm_id": 1342538438, "building": "yes", "name": "", "height": null, "height_m": null, "levels": null, "tract_id": "40143006803", "tract_name": "68.03", "tags": {"addr:city": "Tulsa", "addr:country": "US", "addr:housenumber": "5677", "addr:postcode": "74105", "addr:state": "OK", "addr:street": "South Zunis Avenue East", "building": "yes", "source": "microsoft/BuildingFootprints"}}}, {"type": "Feature", "geometry": {"type": "Polygon", "coordinates": [[[-95.9603111, 36.0795681], [-95.9604318, 36.0795697], [-95.9604349, 36.0794115], [-95.9603089, 36.0794098], [-95.9603073, 36.07949], [-95.9602402, 36.0794892], [-95.9602393, 36.0795347], [-95.9603117, 36.0795356], [-95.9603111, 36.0795681]]]}, "properties": {"osm_id": 1342538439, "building": "yes", "name": "", "height": null, "height_m": null, "levels": null, "tract_id": "40143006803", "tract_name": "68.03", "tags": {"addr:city": "Tulsa", "addr:country": "US", "addr:housenumber": "5671", "addr:postcode": "74105", "addr:state": "OK", "addr:street": "South Zunis Avenue East", "building": "yes", "source": "microsoft/BuildingFootprints"}}}, {"type": "Feature", "geometry": {"type": "Polygon", "coordinates": [[[-95.9604437, 36.0796031], [-95.9602654, 36.079601], [-95.9602639, 36.0796833], [-95.9603283, 36.0796841], [-95.9603275, 36.0797264], [-95.9603267, 36.0797686], [-95.9604406, 36.07977], [-95.9604437, 36.0796031]]]}, "properties": {"osm_id": 1342538440, "building": "yes", "name": "", "height": null, "height_m": null, "levels": null, "tract_id": "40143006803", "tract_name": "68.03", "tags": {"addr:city": "Tulsa", "addr:country": "US", "addr:housenumber": "5665", "addr:postcode": "74105", "addr:state": "OK", "addr:street": "South Zunis Avenue East", "building": "yes", "source": "microsoft/BuildingFootprints"}}}, {"type": "Feature", "geometry": {"type": "Polygon", "coordinates": [[[-95.9602636, 36.0797928], [-95.9602666, 36.0799564], [-95.9603766, 36.0799551], [-95.9603751, 36.0798727], [-95.9604528, 36.0798718], [-95.9604513, 36.0797905], [-95.9602636, 36.0797928]]]}, "properties": {"osm_id": 1342538441, "building": "yes", "name": "", "height": null, "height_m": null, "levels": null, "tract_id": "40143006803", "tract_name": "68.03", "tags": {"addr:city": "Tulsa", "addr:country": "US", "addr:housenumber": "5661", "addr:postcode": "74105", "addr:state": "OK", "addr:street": "South Zunis Avenue East", "building": "yes", "source": "microsoft/BuildingFootprints"}}}, {"type": "Feature", "geometry": {"type": "Polygon", "coordinates": [[[-95.9604496, 36.080147], [-95.9604506, 36.080069], [-95.9604237, 36.0800687], [-95.9604248, 36.0799864], [-95.9603202, 36.0799855], [-95.9603182, 36.0801459], [-95.9604496, 36.080147]]]}, "properties": {"osm_id": 1342538442, "building": "yes", "name": "", "height": null, "height_m": null, "levels": null, "tract_id": "40143006803", "tract_name": "68.03", "tags": {"addr:city": "Tulsa", "addr:country": "US", "addr:housenumber": "5655", "addr:postcode": "74105", "addr:state": "OK", "addr:street": "South Zunis Avenue East", "building": "yes", "source": "microsoft/BuildingFootprints"}}}, {"type": "Feature", "geometry": {"type": "Polygon", "coordinates": [[[-95.960312, 36.080339], [-95.9604461, 36.0803377], [-95.9604436, 36.080173], [-95.9601781, 36.0801755], [-95.9601791, 36.0802395], [-95.9603105, 36.0802382], [-95.960312, 36.080339]]]}, "properties": {"osm_id": 1342538443, "building": "yes", "name": "", "height": null, "height_m": null, "levels": null, "tract_id": "40143006803", "tract_name": "68.03", "tags": {"addr:city": "Tulsa", "addr:country": "US", "addr:housenumber": "5649", "addr:postcode": "74105", "addr:state": "OK", "addr:street": "South Zunis Avenue East", "building": "yes", "source": "microsoft/BuildingFootprints"}}}, {"type": "Feature", "geometry": {"type": "Polygon", "coordinates": [[[-95.9603196, 36.0805232], [-95.960443, 36.0805237], [-95.9604439, 36.0803806], [-95.9602588, 36.0803799], [-95.9602583, 36.0804601], [-95.96032, 36.0804603], [-95.9603196, 36.0805232]]]}, "properties": {"osm_id": 1342538444, "building": "yes", "name": "", "height": null, "height_m": null, "levels": null, "tract_id": "40143006803", "tract_name": "68.03", "tags": {"addr:city": "Tulsa", "addr:country": "US", "addr:housenumber": "5643", "addr:postcode": "74105", "addr:state": "OK", "addr:street": "South Zunis Avenue East", "building": "yes", "source": "microsoft/BuildingFootprints"}}}, {"type": "Feature", "geometry": {"type": "Polygon", "coordinates": [[[-95.9602724, 36.0807166], [-95.9603757, 36.0807174], [-95.9603765, 36.0806502], [-95.9604449, 36.0806508], [-95.9604458, 36.0805706], [-95.9602742, 36.0805692], [-95.9602724, 36.0807166]]]}, "properties": {"osm_id": 1342538445, "building": "yes", "name": "", "height": null, "height_m": null, "levels": null, "tract_id": "40143006803", "tract_name": "68.03", "tags": {"addr:city": "Tulsa", "addr:country": "US", "addr:housenumber": "5637", "addr:postcode": "74105", "addr:state": "OK", "addr:street": "South Zunis Avenue East", "building": "yes", "source": "microsoft/BuildingFootprints"}}}, {"type": "Feature", "geometry": {"type": "Polygon", "coordinates": [[[-95.9604358, 36.0807596], [-95.9603218, 36.0807606], [-95.960324, 36.0809156], [-95.960438, 36.0809146], [-95.9604358, 36.0807596]]]}, "properties": {"osm_id": 1342538446, "building": "yes", "name": "", "height": null, "height_m": null, "levels": null, "tract_id": "40143006803", "tract_name": "68.03", "tags": {"addr:city": "Tulsa", "addr:country": "US", "addr:housenumber": "5633", "addr:postcode": "74105", "addr:state": "OK", "addr:street": "South Zunis Avenue East", "building": "yes", "source": "microsoft/BuildingFootprints"}}}, {"type": "Feature", "geometry": {"type": "Polygon", "coordinates": [[[-95.960261, 36.0811076], [-95.960446, 36.0811099], [-95.9604474, 36.0810384], [-95.9603777, 36.0810375], [-95.9603794, 36.0809475], [-95.9602641, 36.0809461], [-95.960261, 36.0811076]]]}, "properties": {"osm_id": 1342538447, "building": "yes", "name": "", "height": null, "height_m": null, "levels": null, "tract_id": "40143006803", "tract_name": "68.03", "tags": {"addr:city": "Tulsa", "addr:country": "US", "addr:housenumber": "5627", "addr:postcode": "74105", "addr:state": "OK", "addr:street": "South Zunis Avenue East", "building": "yes", "source": "microsoft/BuildingFootprints"}}}, {"type": "Feature", "geometry": {"type": "Polygon", "coordinates": [[[-95.96044, 36.0811398], [-95.9603265, 36.0811395], [-95.960326, 36.0812757], [-95.9602585, 36.0812755], [-95.9602583, 36.0813344], [-95.9604393, 36.0813348], [-95.96044, 36.0811398]]]}, "properties": {"osm_id": 1342538448, "building": "yes", "name": "", "height": null, "height_m": null, "levels": null, "tract_id": "40143006803", "tract_name": "68.03", "tags": {"addr:city": "Tulsa", "addr:country": "US", "addr:housenumber": "5621", "addr:postcode": "74105", "addr:state": "OK", "addr:street": "South Zunis Avenue East", "building": "yes", "source": "microsoft/BuildingFootprints"}}}, {"type": "Feature", "geometry": {"type": "Polygon", "coordinates": [[[-95.9604438, 36.0815919], [-95.9602455, 36.0815866], [-95.9602425, 36.0816602], [-95.9603283, 36.0816625], [-95.960325, 36.0817426], [-95.9604375, 36.0817456], [-95.9604438, 36.0815919]]]}, "properties": {"osm_id": 1342538449, "building": "yes", "name": "", "height": null, "height_m": null, "levels": null, "tract_id": "40143006803", "tract_name": "68.03", "tags": {"addr:city": "Tulsa", "addr:country": "US", "addr:housenumber": "5609", "addr:postcode": "74105", "addr:state": "OK", "addr:street": "South Zunis Avenue East", "building": "yes", "source": "microsoft/BuildingFootprints"}}}, {"type": "Feature", "geometry": {"type": "Polygon", "coordinates": [[[-95.9602126, 36.0818288], [-95.960211, 36.081909], [-95.9602513, 36.0819095], [-95.9602501, 36.0819723], [-95.9603707, 36.0819738], [-95.9603735, 36.0818308], [-95.9602126, 36.0818288]]]}, "properties": {"osm_id": 1342538450, "building": "yes", "name": "", "height": null, "height_m": null, "levels": null, "tract_id": "40143006803", "tract_name": "68.03", "tags": {"addr:city": "Tulsa", "addr:country": "US", "addr:housenumber": "5603", "addr:postcode": "74105", "addr:state": "OK", "addr:street": "South Zunis Avenue East", "building": "yes", "source": "microsoft/BuildingFootprints"}}}, {"type": "Feature", "geometry": {"type": "Polygon", "coordinates": [[[-95.9604417, 36.0821748], [-95.9603339, 36.0820286], [-95.9602417, 36.0820729], [-95.9603494, 36.0822191], [-95.9604417, 36.0821748]]]}, "properties": {"osm_id": 1342538451, "building": "yes", "name": "", "height": null, "height_m": null, "levels": null, "tract_id": "40143006803", "tract_name": "68.03", "tags": {"addr:city": "Tulsa", "addr:country": "US", "addr:housenumber": "5601", "addr:postcode": "74105", "addr:state": "OK", "addr:street": "South Zunis Avenue East", "building": "yes", "source": "microsoft/BuildingFootprints"}}}, {"type": "Feature", "geometry": {"type": "Polygon", "coordinates": [[[-95.9597213, 36.0825615], [-95.9595201, 36.0825593], [-95.9595193, 36.0826135], [-95.9595836, 36.0826142], [-95.9595826, 36.0826749], [-95.9597194, 36.0826763], [-95.9597213, 36.0825615]]]}, "properties": {"osm_id": 1342538452, "building": "yes", "name": "", "height": null, "height_m": null, "levels": null, "tract_id": "40143006803", "tract_name": "68.03", "tags": {"building": "yes", "source": "microsoft/BuildingFootprints"}}}, {"type": "Feature", "geometry": {"type": "Polygon", "coordinates": [[[-95.9599825, 36.0825576], [-95.9598458, 36.0825591], [-95.9598483, 36.0827194], [-95.959918, 36.0827187], [-95.9599172, 36.0826689], [-95.9599843, 36.0826682], [-95.9599825, 36.0825576]]]}, "properties": {"osm_id": 1342538453, "building": "yes", "name": "", "height": null, "height_m": null, "levels": null, "tract_id": "40143006803", "tract_name": "68.03", "tags": {"building": "yes", "source": "microsoft/BuildingFootprints"}}}, {"type": "Feature", "geometry": {"type": "Polygon", "coordinates": [[[-95.9600233, 36.082725], [-95.9600942, 36.0827258], [-95.9600951, 36.0826738], [-95.9601649, 36.0826746], [-95.960167, 36.0825598], [-95.9600264, 36.0825581], [-95.9600233, 36.082725]]]}, "properties": {"osm_id": 1342538454, "building": "yes", "name": "", "height": null, "height_m": null, "levels": null, "tract_id": "40143006803", "tract_name": "68.03", "tags": {"building": "yes", "source": "microsoft/BuildingFootprints"}}}, {"type": "Feature", "geometry": {"type": "Polygon", "coordinates": [[[-95.9596765, 36.0840347], [-95.9595783, 36.084033], [-95.9595788, 36.0840103], [-95.9595001, 36.084009], [-95.9594994, 36.0840361], [-95.9593637, 36.0840338], [-95.9593612, 36.0841291], [-95.9596739, 36.0841343], [-95.9596765, 36.0840347]]]}, "properties": {"osm_id": 1342538455, "building": "yes", "name": "", "height": null, "height_m": null, "levels": null, "tract_id": "40143006803", "tract_name": "68.03", "tags": {"building": "yes", "source": "microsoft/BuildingFootprints"}}}, {"type": "Feature", "geometry": {"type": "Polygon", "coordinates": [[[-95.9592574, 36.0844822], [-95.9590627, 36.0844783], [-95.9590619, 36.0845065], [-95.9589483, 36.0845042], [-95.958946, 36.08458], [-95.9589898, 36.0845809], [-95.9589886, 36.0846209], [-95.9590771, 36.0846227], [-95.9590785, 36.0845751], [-95.9592545, 36.0845786], [-95.9592574, 36.0844822]]]}, "properties": {"osm_id": 1342538456, "building": "yes", "name": "", "height": null, "height_m": null, "levels": null, "tract_id": "40143006803", "tract_name": "68.03", "tags": {"building": "yes", "source": "microsoft/BuildingFootprints"}}}, {"type": "Feature", "geometry": {"type": "Polygon", "coordinates": [[[-95.9591289, 36.0846535], [-95.9589475, 36.0846549], [-95.9589487, 36.0847524], [-95.9590201, 36.0847519], [-95.959021, 36.0848267], [-95.9591309, 36.0848259], [-95.9591289, 36.0846535]]]}, "properties": {"osm_id": 1342538457, "building": "yes", "name": "", "height": null, "height_m": null, "levels": null, "tract_id": "40143006803", "tract_name": "68.03", "tags": {"building": "yes", "source": "microsoft/BuildingFootprints"}}}, {"type": "Feature", "geometry": {"type": "Polygon", "coordinates": [[[-95.9589633, 36.0848595], [-95.9589575, 36.085036], [-95.9591022, 36.0850391], [-95.959108, 36.0848626], [-95.9589633, 36.0848595]]]}, "properties": {"osm_id": 1342538458, "building": "yes", "name": "", "height": null, "height_m": null, "levels": null, "tract_id": "40143006803", "tract_name": "68.03", "tags": {"building": "yes", "source": "microsoft/BuildingFootprints"}}}, {"type": "Feature", "geometry": {"type": "Polygon", "coordinates": [[[-95.9590457, 36.0850642], [-95.9590465, 36.0851607], [-95.9589445, 36.0851612], [-95.9589451, 36.0852392], [-95.9591704, 36.0852381], [-95.9591698, 36.0851536], [-95.9591403, 36.0851537], [-95.9591396, 36.0850637], [-95.9590457, 36.0850642]]]}, "properties": {"osm_id": 1342538459, "building": "yes", "name": "", "height": null, "height_m": null, "levels": null, "tract_id": "40143006803", "tract_name": "68.03", "tags": {"building": "yes", "source": "microsoft/BuildingFootprints"}}}, {"type": "Feature", "geometry": {"type": "Polygon", "coordinates": [[[-95.9591487, 36.0852653], [-95.958953, 36.0852633], [-95.9589501, 36.0854496], [-95.9590734, 36.0854509], [-95.9590746, 36.0853751], [-95.9591014, 36.0853753], [-95.959102, 36.0853385], [-95.9591476, 36.085339], [-95.9591487, 36.0852653]]]}, "properties": {"osm_id": 1342538460, "building": "yes", "name": "", "height": null, "height_m": null, "levels": null, "tract_id": "40143006803", "tract_name": "68.03", "tags": {"building": "yes", "source": "microsoft/BuildingFootprints"}}}, {"type": "Feature", "geometry": {"type": "Polygon", "coordinates": [[[-95.9601985, 36.0844682], [-95.9600993, 36.0844666], [-95.9600979, 36.0845251], [-95.9600121, 36.0845237], [-95.9600102, 36.0846006], [-95.9602461, 36.0846044], [-95.9602478, 36.0845351], [-95.9601969, 36.0845343], [-95.9601985, 36.0844682]]]}, "properties": {"osm_id": 1342538461, "building": "yes", "name": "", "height": null, "height_m": null, "levels": null, "tract_id": "40143006803", "tract_name": "68.03", "tags": {"building": "yes", "source": "microsoft/BuildingFootprints"}}}, {"type": "Feature", "geometry": {"type": "Polygon", "coordinates": [[[-95.9599942, 36.0847433], [-95.9599965, 36.0848235], [-95.9602378, 36.0848188], [-95.9602359, 36.0847528], [-95.9601662, 36.0847541], [-95.9601633, 36.0846577], [-95.9600678, 36.0846595], [-95.9600702, 36.0847418], [-95.9599942, 36.0847433]]]}, "properties": {"osm_id": 1342538462, "building": "yes", "name": "", "height": null, "height_m": null, "levels": null, "tract_id": "40143006803", "tract_name": "68.03", "tags": {"building": "yes", "source": "microsoft/BuildingFootprints"}}}, {"type": "Feature", "geometry": {"type": "Polygon", "coordinates": [[[-95.9601838, 36.084917], [-95.9601847, 36.0848542], [-95.9600077, 36.0848525], [-95.9600051, 36.0850302], [-95.9601141, 36.0850313], [-95.9601158, 36.0849164], [-95.9601838, 36.084917]]]}, "properties": {"osm_id": 1342538463, "building": "yes", "name": "", "height": null, "height_m": null, "levels": null, "tract_id": "40143006803", "tract_name": "68.03", "tags": {"building": "yes", "source": "microsoft/BuildingFootprints"}}}, {"type": "Feature", "geometry": {"type": "Polygon", "coordinates": [[[-95.9602087, 36.0851931], [-95.9602097, 36.0850522], [-95.9600944, 36.0850516], [-95.960094, 36.085108], [-95.9599974, 36.0851075], [-95.9599968, 36.0851942], [-95.960037, 36.0851944], [-95.9600368, 36.0852226], [-95.9601253, 36.085223], [-95.9601256, 36.0851927], [-95.9602087, 36.0851931]]]}, "properties": {"osm_id": 1342538464, "building": "yes", "name": "", "height": null, "height_m": null, "levels": null, "tract_id": "40143006803", "tract_name": "68.03", "tags": {"building": "yes", "source": "microsoft/BuildingFootprints"}}}, {"type": "Feature", "geometry": {"type": "Polygon", "coordinates": [[[-95.960126, 36.0852546], [-95.9599973, 36.0852568], [-95.960002, 36.0854366], [-95.9601307, 36.0854344], [-95.960126, 36.0852546]]]}, "properties": {"osm_id": 1342538465, "building": "yes", "name": "", "height": null, "height_m": null, "levels": null, "tract_id": "40143006803", "tract_name": "68.03", "tags": {"building": "yes", "source": "microsoft/BuildingFootprints"}}}, {"type": "Feature", "geometry": {"type": "Polygon", "coordinates": [[[-95.9602779, 36.085509], [-95.9600151, 36.0855104], [-95.9600158, 36.0855992], [-95.9600963, 36.0855988], [-95.9600965, 36.0856237], [-95.9602788, 36.0856228], [-95.9602779, 36.085509]]]}, "properties": {"osm_id": 1342538466, "building": "yes", "name": "", "height": null, "height_m": null, "levels": null, "tract_id": "40143006803", "tract_name": "68.03", "tags": {"building": "yes", "source": "microsoft/BuildingFootprints"}}}, {"type": "Feature", "geometry": {"type": "Polygon", "coordinates": [[[-95.9607121, 36.0854737], [-95.9605244, 36.0854716], [-95.9605232, 36.0855421], [-95.9605768, 36.0855427], [-95.9605751, 36.0856445], [-95.9607091, 36.085646], [-95.9607121, 36.0854737]]]}, "properties": {"osm_id": 1342538467, "building": "yes", "name": "", "height": null, "height_m": null, "levels": null, "tract_id": "40143006803", "tract_name": "68.03", "tags": {"building": "yes", "source": "microsoft/BuildingFootprints"}}}, {"type": "Feature", "geometry": {"type": "Polygon", "coordinates": [[[-95.9607126, 36.0852673], [-95.9605331, 36.0852713], [-95.9605367, 36.0853764], [-95.9605956, 36.085375], [-95.9605981, 36.0854465], [-95.9607187, 36.0854438], [-95.9607126, 36.0852673]]]}, "properties": {"osm_id": 1342538468, "building": "yes", "name": "", "height": null, "height_m": null, "levels": null, "tract_id": "40143006803", "tract_name": "68.03", "tags": {"building": "yes", "source": "microsoft/BuildingFootprints"}}}, {"type": "Feature", "geometry": {"type": "Polygon", "coordinates": [[[-95.9605933, 36.0852402], [-95.9607059, 36.0852421], [-95.9607106, 36.0850612], [-95.9605659, 36.0850587], [-95.9605643, 36.0851172], [-95.9605965, 36.0851178], [-95.9605933, 36.0852402]]]}, "properties": {"osm_id": 1342538469, "building": "yes", "name": "", "height": null, "height_m": null, "levels": null, "tract_id": "40143006803", "tract_name": "68.03", "tags": {"building": "yes", "source": "microsoft/BuildingFootprints"}}}, {"type": "Feature", "geometry": {"type": "Polygon", "coordinates": [[[-95.9606658, 36.0848552], [-95.9605344, 36.0848565], [-95.9605371, 36.0850385], [-95.9607221, 36.0850367], [-95.9607211, 36.0849652], [-95.9606674, 36.0849657], [-95.9606658, 36.0848552]]]}, "properties": {"osm_id": 1342538470, "building": "yes", "name": "", "height": null, "height_m": null, "levels": null, "tract_id": "40143006803", "tract_name": "68.03", "tags": {"building": "yes", "source": "microsoft/BuildingFootprints"}}}, {"type": "Feature", "geometry": {"type": "Polygon", "coordinates": [[[-95.9605832, 36.0848333], [-95.9607039, 36.0848309], [-95.9607005, 36.0847215], [-95.9607156, 36.0847212], [-95.9607132, 36.0846454], [-95.9605283, 36.0846491], [-95.9605293, 36.0846816], [-95.9605785, 36.0846806], [-95.9605832, 36.0848333]]]}, "properties": {"osm_id": 1342538471, "building": "yes", "name": "", "height": null, "height_m": null, "levels": null, "tract_id": "40143006803", "tract_name": "68.03", "tags": {"building": "yes", "source": "microsoft/BuildingFootprints"}}}, {"type": "Feature", "geometry": {"type": "Polygon", "coordinates": [[[-95.9604475, 36.0844528], [-95.9604496, 36.0845525], [-95.9607177, 36.0845489], [-95.9607161, 36.0844687], [-95.9606383, 36.0844698], [-95.9606379, 36.0844503], [-95.9604475, 36.0844528]]]}, "properties": {"osm_id": 1342538472, "building": "yes", "name": "", "height": null, "height_m": null, "levels": null, "tract_id": "40143006803", "tract_name": "68.03", "tags": {"building": "yes", "source": "microsoft/BuildingFootprints"}}}]}