{"type": "FeatureCollection", "features": [{"type": "Feature", "geometry": {"type": "Polygon", "coordinates": [[[-95.8547402, 36.1329598], [-95.8547397, 36.1329087], [-95.8546612, 36.1329092], [-95.8546577, 36.1325718], [-95.8545773, 36.1325723], [-95.8545813, 36.1329609], [-95.8547402, 36.1329598]]]}, "properties": {"osm_id": 71143115, "building": "yes", "name": "", "height": null, "height_m": null, "levels": null, "tract_id": "40143007313", "tract_name": "73.13", "tags": {"addr:city": "Tulsa", "addr:country": "US", "addr:housenumber": "2111", "addr:postcode": "74129", "addr:state": "OK", "addr:street": "South 109th Avenue East", "amenity": "car_wash", "building": "yes"}}}, {"type": "Feature", "geometry": {"type": "Polygon", "coordinates": [[[-95.854667, 36.1331018], [-95.8546666, 36.1330444], [-95.8545362, 36.133045], [-95.8545366, 36.1331023], [-95.854667, 36.1331018]]]}, "properties": {"osm_id": 71143116, "building": "yes", "name": "Minute Mart", "height": null, "height_m": null, "levels": null, "tract_id": "40143007313", "tract_name": "73.13", "tags": {"addr:city": "Tulsa", "addr:country": "US", "addr:housenumber": "10900", "addr:postcode": "74129", "addr:state": "OK", "addr:street": "East 21st Street South", "building": "yes", "name": "Minute Mart", "shop": "convenience"}}}, {"type": "Feature", "geometry": {"type": "Polygon", "coordinates": [[[-95.8536336, 36.1329898], [-95.8533708, 36.1329897], [-95.8533708, 36.1325132], [-95.8535988, 36.1325132], [-95.8535987, 36.1326497], [-95.8537275, 36.1326497], [-95.8537275, 36.1327277], [-95.8536336, 36.1327276], [-95.8536336, 36.1329898]]]}, "properties": {"osm_id": 71143117, "building": "yes", "name": "Buffet Palace", "height": null, "height_m": null, "levels": null, "tract_id": "40143007313", "tract_name": "73.13", "tags": {"addr:city": "Tulsa", "addr:country": "US", "addr:housenumber": "10934", "addr:postcode": "74129", "addr:state": "OK", "addr:street": "East 21st Street South", "amenity": "restaurant", "building": "yes", "cuisine": "chinese", "name": "Buffet Palace"}}}, {"type": "Feature", "geometry": {"type": "Polygon", "coordinates": [[[-95.8584415, 36.1248211], [-95.8581865, 36.1248211], [-95.8581865, 36.1246244], [-95.8580976, 36.1246244], [-95.8580976, 36.1245542], [-95.8577691, 36.1245542], [-95.8577691, 36.1244652], [-95.8577188, 36.1244652], [-95.8577188, 36.1243154], [-95.8577671, 36.1243154], [-95.8577671, 36.1242327], [-95.8581208, 36.1242327], [-95.8581208, 36.1241094], [-95.8584995, 36.1241094], [-95.8584995, 36.1242733], [-95.8586174, 36.1242733], [-95.8586174, 36.1244699], [-95.8585826, 36.1244699], [-95.8585826, 36.1244996], [-95.8586174, 36.1244996], [-95.8586174, 36.1245448], [-95.8586386, 36.1245448], [-95.8586386, 36.1246385], [-95.8586193, 36.1246385], [-95.8586193, 36.1246884], [-95.8585169, 36.1246884], [-95.8585169, 36.1246073], [-95.8584415, 36.1246073], [-95.8584415, 36.1248211]]]}, "properties": {"osm_id": 192029380, "building": "yes", "name": "", "height": null, "height_m": null, "levels": null, "tract_id": "40143007313", "tract_name": "73.13", "tags": {"addr:city": "Tulsa", "addr:country": "US", "addr:housenumber": "10620", "addr:postcode": "74129", "addr:state": "OK", "addr:street": "East 27th Street South", "building": "yes"}}}, {"type": "Feature", "geometry": {"type": "Polygon", "coordinates": [[[-95.8569503, 36.119457], [-95.8569518, 36.11927], [-95.8568065, 36.1192692], [-95.856805, 36.1194563], [-95.8569503, 36.119457]]]}, "properties": {"osm_id": 262141112, "building": "retail", "name": "Whataburger", "height": null, "height_m": null, "levels": null, "tract_id": "40143007313", "tract_name": "73.13", "tags": {"addr:city": "Tulsa", "addr:country": "US", "addr:housenumber": "10675", "addr:postcode": "74146", "addr:state": "OK", "addr:street": "East 31st Street South", "amenity": "fast_food", "branch": "31st & 108th", "brand": "Whataburger", "brand:wikidata": "Q376627", "building": "retail", "cuisine": "burger", "drive_through": "yes", "name": "Whataburger", "phone": "+1 918-622-0935", "takeaway": "yes", "website": "https://locations.whataburger.com/ok/tulsa/10675-e-31st-st.html"}}}, {"type": "Feature", "geometry": {"type": "Polygon", "coordinates": [[[-95.8522046, 36.1192474], [-95.8521888, 36.1192352], [-95.8521717, 36.1192219], [-95.8518773, 36.1192225], [-95.8518767, 36.1195475], [-95.8519578, 36.1196136], [-95.8522039, 36.1196136], [-95.8522046, 36.1192474]]]}, "properties": {"osm_id": 537811032, "building": "retail", "name": "", "height": null, "height_m": null, "levels": null, "tract_id": "40143007313", "tract_name": "73.13", "tags": {"addr:city": "Tulsa", "addr:country": "US", "addr:housenumber": "11223", "addr:postcode": "74129", "addr:state": "OK", "addr:street": "East 31st Street South", "building": "retail", "check_date": "2022-11-14", "shop": "vacant"}}}, {"type": "Feature", "geometry": {"type": "Polygon", "coordinates": [[[-95.8579364, 36.1196152], [-95.8577511, 36.1196164], [-95.8577485, 36.1193575], [-95.8579338, 36.1193563], [-95.8579364, 36.1196152]]]}, "properties": {"osm_id": 537811044, "building": "yes", "name": "Durango Auto Center", "height": null, "height_m": null, "levels": null, "tract_id": "40143007313", "tract_name": "73.13", "tags": {"addr:city": "Tulsa", "addr:country": "US", "addr:housenumber": "10661", "addr:postcode": "74146", "addr:state": "OK", "addr:street": "East 31st Street South", "building": "yes", "name": "Durango Auto Center", "phone": "+1 918 622 6660", "second_hand": "only", "shop": "car"}}}, {"type": "Feature", "geometry": {"type": "Polygon", "coordinates": [[[-95.8584856, 36.1195236], [-95.8581725, 36.1195247], [-95.8581717, 36.1193839], [-95.8582449, 36.1193837], [-95.8582449, 36.1193765], [-95.8583367, 36.1193762], [-95.8583368, 36.1193834], [-95.8583958, 36.1193831], [-95.8583957, 36.1193753], [-95.8584848, 36.119375], [-95.8584856, 36.1195236]]]}, "properties": {"osm_id": 537811046, "building": "yes", "name": "Eastland Eye Care", "height": null, "height_m": null, "levels": null, "tract_id": "40143007313", "tract_name": "73.13", "tags": {"addr:city": "Tulsa", "addr:country": "US", "addr:housenumber": "10651", "addr:postcode": "74146", "addr:state": "OK", "addr:street": "East 31st Street South", "building": "yes", "healthcare": "optometrist", "name": "Eastland Eye Care"}}}, {"type": "Feature", "geometry": {"type": "Polygon", "coordinates": [[[-95.858957, 36.1193194], [-95.8589557, 36.1197311], [-95.8587772, 36.1197307], [-95.8587786, 36.119319], [-95.858957, 36.1193194]]]}, "properties": {"osm_id": 537811047, "building": "industrial", "name": "Floyd & Sons Body Shop & Collission Center", "height": null, "height_m": null, "levels": null, "tract_id": "40143007313", "tract_name": "73.13", "tags": {"addr:city": "Tulsa", "addr:country": "US", "addr:housenumber": "10641", "addr:postcode": "74146", "addr:state": "OK", "addr:street": "East 31st Street South", "building": "industrial", "name": "Floyd & Sons Body Shop & Collission Center", "shop": "car_repair"}}}, {"type": "Feature", "geometry": {"type": "Polygon", "coordinates": [[[-95.8565434, 36.1193329], [-95.8565449, 36.1194116], [-95.8565633, 36.1194114], [-95.8565644, 36.1194672], [-95.8565446, 36.1194674], [-95.8565462, 36.1195548], [-95.8564423, 36.119556], [-95.8564382, 36.1193342], [-95.8565434, 36.1193329]]]}, "properties": {"osm_id": 537811049, "building": "retail", "name": "Starbucks", "height": null, "height_m": null, "levels": null, "tract_id": "40143007313", "tract_name": "73.13", "tags": {"addr:city": "Tulsa", "addr:country": "US", "addr:housenumber": "10801", "addr:postcode": "74146", "addr:state": "OK", "addr:street": "East 31st Street South", "amenity": "cafe", "brand": "Starbucks", "brand:wikidata": "Q37158", "building": "retail", "cuisine": "coffee_shop", "name": "Starbucks", "official_name": "Starbucks Coffee", "opening_hours": "Mo-Fr 04:30-21:00; Sa-Su 05:00-21:00", "phone": "+1 918 504 8248", "takeaway": "yes"}}}, {"type": "Feature", "geometry": {"type": "Polygon", "coordinates": [[[-95.8558068, 36.1197636], [-95.8558068, 36.1196656], [-95.8558919, 36.1196656], [-95.8558919, 36.1193633], [-95.8558732, 36.1193633], [-95.8558732, 36.1192956], [-95.8560455, 36.1192956], [-95.8560455, 36.1193102], [-95.8560964, 36.1193102], [-95.8560964, 36.1196672], [-95.8561756, 36.1196672], [-95.8561756, 36.1197636], [-95.8558068, 36.1197636]]]}, "properties": {"osm_id": 537811051, "building": "garage", "name": "Firestone", "height": null, "height_m": null, "levels": null, "tract_id": "40143007313", "tract_name": "73.13", "tags": {"addr:city": "Tulsa", "addr:country": "US", "addr:housenumber": "10815", "addr:postcode": "74146", "addr:state": "OK", "addr:street": "East 31st Street South", "brand": "Firestone", "brand:wikidata": "Q420837", "building": "garage", "name": "Firestone", "official_name": "Firestone Complete Auto Care", "shop": "car_repair"}}}, {"type": "Feature", "geometry": {"type": "Polygon", "coordinates": [[[-95.8555821, 36.119411], [-95.8555821, 36.1192604], [-95.8556767, 36.1192604], [-95.8556767, 36.1193276], [-95.8556881, 36.1193276], [-95.8556881, 36.1193638], [-95.8556767, 36.1193638], [-95.8556767, 36.119411], [-95.8556592, 36.119411], [-95.8556592, 36.1194326], [-95.8556244, 36.1194326], [-95.8556244, 36.119411], [-95.8555821, 36.119411]]]}, "properties": {"osm_id": 537811053, "building": "retail", "name": "Subway", "height": null, "height_m": null, "levels": null, "tract_id": "40143007313", "tract_name": "73.13", "tags": {"addr:city": "Tulsa", "addr:country": "US", "addr:housenumber": "10819", "addr:postcode": "74146", "addr:state": "OK", "addr:street": "East 31st Street South", "amenity": "fast_food", "brand": "Subway", "brand:wikidata": "Q244457", "building": "retail", "cuisine": "sandwich", "name": "Subway", "opening_hours": "Mo-Sa 08:00-23:00; Su 09:00-23:00", "phone": "+1 918 665 7788", "takeaway": "yes", "website": "https://restaurants.subway.com/united-states/ok/tulsa/10819-e-31st-street"}}}, {"type": "Feature", "geometry": {"type": "Polygon", "coordinates": [[[-95.8552723, 36.1193156], [-95.8552731, 36.119459], [-95.8552109, 36.1194592], [-95.8552106, 36.1194149], [-95.8551106, 36.1194153], [-95.8551101, 36.1193162], [-95.8552723, 36.1193156]]]}, "properties": {"osm_id": 537811054, "building": "retail", "name": "Papa John's", "height": null, "height_m": null, "levels": null, "tract_id": "40143007313", "tract_name": "73.13", "tags": {"addr:city": "Tulsa", "addr:country": "US", "addr:housenumber": "10829", "addr:postcode": "74146", "addr:state": "OK", "addr:street": "East 31st Street South", "amenity": "fast_food", "branch": "East 31st St", "brand": "Papa John's", "brand:wikidata": "Q2759586", "building": "retail", "cuisine": "pizza", "name": "Papa John's", "opening_hours": "Su-Th 10:30-24:00; Fr-Sa 10:30-01:00", "phone": "+1 918-628-7272", "takeaway": "yes", "website": "https://locations.papajohns.com/united-states/ok/74146/tulsa/10829-e-31st-st"}}}, {"type": "Feature", "geometry": {"type": "Polygon", "coordinates": [[[-95.8573879, 36.1278925], [-95.8571912, 36.1278391], [-95.857235, 36.1277338], [-95.8572998, 36.1277513], [-95.8573128, 36.12772], [-95.8574329, 36.1277526], [-95.8574349, 36.1277478], [-95.8574812, 36.1277604], [-95.857461, 36.1278089], [-95.8574521, 36.1278065], [-95.8574413, 36.1278323], [-95.8574158, 36.1278254], [-95.8573879, 36.1278925]]]}, "properties": {"osm_id": 739464488, "building": "detached", "name": "", "height": null, "height_m": null, "levels": null, "tract_id": "40143007313", "tract_name": "73.13", "tags": {"building": "detached"}}}, {"type": "Feature", "geometry": {"type": "Polygon", "coordinates": [[[-95.8575777, 36.1284286], [-95.857745, 36.128474], [-95.8577227, 36.1285278], [-95.857761, 36.1285382], [-95.8577409, 36.1285864], [-95.8577026, 36.128576], [-95.8576867, 36.1286142], [-95.8575494, 36.1285769], [-95.8575685, 36.1285311], [-95.8575385, 36.128523], [-95.8575777, 36.1284286]]]}, "properties": {"osm_id": 739464489, "building": "detached", "name": "", "height": null, "height_m": null, "levels": null, "tract_id": "40143007313", "tract_name": "73.13", "tags": {"building": "detached"}}}, {"type": "Feature", "geometry": {"type": "Polygon", "coordinates": [[[-95.8577044, 36.1284205], [-95.8575993, 36.128392], [-95.8576548, 36.1282586], [-95.8578352, 36.1283075], [-95.8578022, 36.1283869], [-95.8577269, 36.1283665], [-95.8577044, 36.1284205]]]}, "properties": {"osm_id": 739464490, "building": "detached", "name": "", "height": null, "height_m": null, "levels": null, "tract_id": "40143007313", "tract_name": "73.13", "tags": {"building": "detached"}}}, {"type": "Feature", "geometry": {"type": "Polygon", "coordinates": [[[-95.8577205, 36.1280983], [-95.8578958, 36.1281458], [-95.8578378, 36.1282853], [-95.8577349, 36.1282574], [-95.8577618, 36.1281927], [-95.8576894, 36.1281731], [-95.8577205, 36.1280983]]]}, "properties": {"osm_id": 739464491, "building": "detached", "name": "", "height": null, "height_m": null, "levels": null, "tract_id": "40143007313", "tract_name": "73.13", "tags": {"building": "detached"}}}, {"type": "Feature", "geometry": {"type": "Polygon", "coordinates": [[[-95.8579438, 36.1279807], [-95.8578868, 36.1281178], [-95.8577497, 36.1280806], [-95.8577913, 36.1279806], [-95.857775, 36.1279762], [-95.8577905, 36.1279391], [-95.8579438, 36.1279807]]]}, "properties": {"osm_id": 739464492, "building": "detached", "name": "", "height": null, "height_m": null, "levels": null, "tract_id": "40143007313", "tract_name": "73.13", "tags": {"building": "detached"}}}, {"type": "Feature", "geometry": {"type": "Polygon", "coordinates": [[[-95.8571955, 36.1282537], [-95.857165, 36.1283367], [-95.8572207, 36.1283501], [-95.8571984, 36.1284109], [-95.8571092, 36.1283896], [-95.8571163, 36.12837], [-95.8569801, 36.1283374], [-95.8570045, 36.128271], [-95.8570521, 36.1282824], [-95.8570734, 36.1282245], [-95.8571955, 36.1282537]]]}, "properties": {"osm_id": 739464493, "building": "detached", "name": "", "height": null, "height_m": null, "levels": null, "tract_id": "40143007313", "tract_name": "73.13", "tags": {"building": "detached"}}}, {"type": "Feature", "geometry": {"type": "Polygon", "coordinates": [[[-95.857343, 36.1280798], [-95.8571472, 36.1280214], [-95.8571856, 36.1279375], [-95.857157, 36.1279289], [-95.8571742, 36.1278913], [-95.8572028, 36.1278999], [-95.8572114, 36.1278811], [-95.8573248, 36.127915], [-95.8573007, 36.1279678], [-95.8573831, 36.1279924], [-95.857343, 36.1280798]]]}, "properties": {"osm_id": 739464494, "building": "detached", "name": "", "height": null, "height_m": null, "levels": null, "tract_id": "40143007313", "tract_name": "73.13", "tags": {"building": "detached"}}}, {"type": "Feature", "geometry": {"type": "Polygon", "coordinates": [[[-95.857271, 36.1282409], [-95.8570895, 36.1281871], [-95.8571286, 36.1281011], [-95.8570946, 36.128091], [-95.8571163, 36.1280431], [-95.8572578, 36.1280851], [-95.8572301, 36.1281459], [-95.8573042, 36.1281678], [-95.857271, 36.1282409]]]}, "properties": {"osm_id": 739464495, "building": "detached", "name": "", "height": null, "height_m": null, "levels": null, "tract_id": "40143007313", "tract_name": "73.13", "tags": {"building": "detached"}}}, {"type": "Feature", "geometry": {"type": "Polygon", "coordinates": [[[-95.8586337, 36.1284214], [-95.8584533, 36.1284219], [-95.8584528, 36.1283255], [-95.8584625, 36.1283255], [-95.8584622, 36.1282729], [-95.858557, 36.1282726], [-95.8585572, 36.1283237], [-95.8586332, 36.1283234], [-95.8586337, 36.1284214]]]}, "properties": {"osm_id": 739891269, "building": "yes", "name": "", "height": null, "height_m": null, "levels": null, "tract_id": "40143007313", "tract_name": "73.13", "tags": {"building": "yes"}}}, {"type": "Feature", "geometry": {"type": "Polygon", "coordinates": [[[-95.8582302, 36.1284247], [-95.8581862, 36.1284224], [-95.8581884, 36.1283934], [-95.8582325, 36.1283956], [-95.8582302, 36.1284247]]]}, "properties": {"osm_id": 739891270, "building": "yes", "name": "", "height": null, "height_m": null, "levels": null, "tract_id": "40143007313", "tract_name": "73.13", "tags": {"building": "yes"}}}, {"type": "Feature", "geometry": {"type": "Polygon", "coordinates": [[[-95.8584935, 36.128254], [-95.8584935, 36.1282204], [-95.8584626, 36.1282204], [-95.8584626, 36.1281719], [-95.8584942, 36.1281719], [-95.8584942, 36.12811], [-95.8586305, 36.12811], [-95.8586305, 36.128254], [-95.8584935, 36.128254]]]}, "properties": {"osm_id": 739891271, "building": "yes", "name": "", "height": null, "height_m": null, "levels": null, "tract_id": "40143007313", "tract_name": "73.13", "tags": {"building": "yes"}}}, {"type": "Feature", "geometry": {"type": "Polygon", "coordinates": [[[-95.8584506, 36.1279306], [-95.858632, 36.1279291], [-95.8586326, 36.1279746], [-95.8586235, 36.1279746], [-95.8586239, 36.1280049], [-95.858599, 36.1280051], [-95.8585999, 36.1280748], [-95.8584513, 36.128076], [-95.8584507, 36.1280358], [-95.8584134, 36.1280361], [-95.8584128, 36.1279862], [-95.8584513, 36.1279859], [-95.8584506, 36.1279306]]]}, "properties": {"osm_id": 739891272, "building": "yes", "name": "", "height": null, "height_m": null, "levels": null, "tract_id": "40143007313", "tract_name": "73.13", "tags": {"building": "yes"}}}, {"type": "Feature", "geometry": {"type": "Polygon", "coordinates": [[[-95.8580935, 36.1282388], [-95.8580662, 36.1282387], [-95.8580663, 36.1282184], [-95.8580936, 36.1282185], [-95.8580935, 36.1282388]]]}, "properties": {"osm_id": 739891273, "building": "yes", "name": "", "height": null, "height_m": null, "levels": null, "tract_id": "40143007313", "tract_name": "73.13", "tags": {"building": "yes"}}}, {"type": "Feature", "geometry": {"type": "Polygon", "coordinates": [[[-95.8581455, 36.1279007], [-95.8581195, 36.1278904], [-95.858131, 36.1278716], [-95.858157, 36.127882], [-95.8581455, 36.1279007]]]}, "properties": {"osm_id": 739891274, "building": "yes", "name": "", "height": null, "height_m": null, "levels": null, "tract_id": "40143007313", "tract_name": "73.13", "tags": {"building": "yes"}}}, {"type": "Feature", "geometry": {"type": "Polygon", "coordinates": [[[-95.8579158, 36.1279415], [-95.8579125, 36.1279488], [-95.8578166, 36.1279213], [-95.8578416, 36.1278647], [-95.8578226, 36.1278593], [-95.8578492, 36.1277989], [-95.8578682, 36.1278044], [-95.8578816, 36.1277738], [-95.8580522, 36.1278228], [-95.8580192, 36.1278978], [-95.8579743, 36.127885], [-95.8579457, 36.1279501], [-95.8579158, 36.1279415]]]}, "properties": {"osm_id": 739891275, "building": "yes", "name": "", "height": null, "height_m": null, "levels": null, "tract_id": "40143007313", "tract_name": "73.13", "tags": {"building": "yes"}}}, {"type": "Feature", "geometry": {"type": "Polygon", "coordinates": [[[-95.8575493, 36.1291481], [-95.8575489, 36.129063], [-95.8574708, 36.1290633], [-95.8574705, 36.1289847], [-95.8575685, 36.1289844], [-95.8575685, 36.1289889], [-95.8576522, 36.1289886], [-95.8576522, 36.1290017], [-95.8576779, 36.1290016], [-95.8576781, 36.1290443], [-95.8576506, 36.1290444], [-95.857651, 36.1291218], [-95.857618, 36.1291219], [-95.8576181, 36.1291479], [-95.8575493, 36.1291481]]]}, "properties": {"osm_id": 836919485, "building": "yes", "name": "", "height": null, "height_m": null, "levels": null, "tract_id": "40143007313", "tract_name": "73.13", "tags": {"building": "yes"}}}, {"type": "Feature", "geometry": {"type": "Polygon", "coordinates": [[[-95.8576193, 36.1289559], [-95.8576173, 36.1288188], [-95.8574769, 36.1288202], [-95.857478, 36.1288898], [-95.8574874, 36.1288897], [-95.8574884, 36.1289572], [-95.8576193, 36.1289559]]]}, "properties": {"osm_id": 836919486, "building": "yes", "name": "", "height": null, "height_m": null, "levels": null, "tract_id": "40143007313", "tract_name": "73.13", "tags": {"building": "yes"}}}, {"type": "Feature", "geometry": {"type": "Polygon", "coordinates": [[[-95.8575455, 36.1286277], [-95.8575326, 36.1287016], [-95.8575111, 36.1286992], [-95.8574989, 36.1287688], [-95.8576376, 36.1287846], [-95.8576479, 36.128726], [-95.8576374, 36.1287248], [-95.8576416, 36.1287007], [-95.8576715, 36.1287041], [-95.8576822, 36.1286433], [-95.8575455, 36.1286277]]]}, "properties": {"osm_id": 836919487, "building": "yes", "name": "", "height": null, "height_m": null, "levels": null, "tract_id": "40143007313", "tract_name": "73.13", "tags": {"building": "yes"}}}, {"type": "Feature", "geometry": {"type": "Polygon", "coordinates": [[[-95.8571504, 36.1285798], [-95.8569897, 36.1285439], [-95.857038, 36.1284031], [-95.8571714, 36.128433], [-95.8571462, 36.1285065], [-95.8571735, 36.1285126], [-95.8571504, 36.1285798]]]}, "properties": {"osm_id": 836919488, "building": "yes", "name": "", "height": null, "height_m": null, "levels": null, "tract_id": "40143007313", "tract_name": "73.13", "tags": {"building": "yes"}}}, {"type": "Feature", "geometry": {"type": "Polygon", "coordinates": [[[-95.8571499, 36.1286084], [-95.8569694, 36.1285971], [-95.8569551, 36.1287467], [-95.8570006, 36.1287496], [-95.8569984, 36.1287731], [-95.8570842, 36.1287784], [-95.8570864, 36.1287557], [-95.8570983, 36.1287565], [-95.8571051, 36.1286848], [-95.8571314, 36.1286864], [-95.8571342, 36.1286566], [-95.8571452, 36.1286572], [-95.8571499, 36.1286084]]]}, "properties": {"osm_id": 836919489, "building": "yes", "name": "", "height": null, "height_m": null, "levels": null, "tract_id": "40143007313", "tract_name": "73.13", "tags": {"building": "yes"}}}, {"type": "Feature", "geometry": {"type": "Polygon", "coordinates": [[[-95.8568847, 36.1289514], [-95.856884, 36.1288729], [-95.856931, 36.1288726], [-95.8569307, 36.128837], [-95.8569829, 36.1288367], [-95.8569827, 36.1288115], [-95.8570949, 36.1288109], [-95.8570951, 36.1288286], [-95.8571055, 36.1288285], [-95.8571066, 36.1289501], [-95.8568847, 36.1289514]]]}, "properties": {"osm_id": 836919490, "building": "yes", "name": "", "height": null, "height_m": null, "levels": null, "tract_id": "40143007313", "tract_name": "73.13", "tags": {"building": "yes"}}}, {"type": "Feature", "geometry": {"type": "Polygon", "coordinates": [[[-95.8546894, 36.1333031], [-95.8545097, 36.1333039], [-95.8545083, 36.1331024], [-95.8545366, 36.1331023], [-95.854667, 36.1331018], [-95.854688, 36.1331017], [-95.8546894, 36.1333031]]]}, "properties": {"osm_id": 917607482, "building": "roof", "name": "", "height": null, "height_m": null, "levels": null, "tract_id": "40143007313", "tract_name": "73.13", "tags": {"amenity": "fuel", "building": "roof"}}}, {"type": "Feature", "geometry": {"type": "Polygon", "coordinates": [[[-95.8588519, 36.1330971], [-95.8588543, 36.1330505], [-95.8588209, 36.1330497], [-95.8588214, 36.1329626], [-95.8587232, 36.1329647], [-95.8587242, 36.1330132], [-95.8587135, 36.1330135], [-95.8587135, 36.13304], [-95.8586432, 36.13304], [-95.8586425, 36.1331064], [-95.8587384, 36.1331034], [-95.8587386, 36.1331057], [-95.8587583, 36.1331058], [-95.8587584, 36.133103], [-95.8587821, 36.133103], [-95.8587818, 36.1331058], [-95.8587929, 36.1331056], [-95.8587939, 36.1331027], [-95.8588188, 36.1331026], [-95.8588192, 36.1330969], [-95.8588519, 36.1330971]]]}, "properties": {"osm_id": 987688622, "building": "yes", "name": "", "height": null, "height_m": null, "levels": null, "tract_id": "40143007313", "tract_name": "73.13", "tags": {"building": "yes"}}}, {"type": "Feature", "geometry": {"type": "Polygon", "coordinates": [[[-95.8541981, 36.1194267], [-95.8537616, 36.1194261], [-95.8537618, 36.1192972], [-95.8541984, 36.1192977], [-95.8541981, 36.1194267]]]}, "properties": {"osm_id": 1056200729, "building": "yes", "name": "", "height": null, "height_m": null, "levels": null, "tract_id": "40143007313", "tract_name": "73.13", "tags": {"building": "yes"}}}, {"type": "Feature", "geometry": {"type": "Polygon", "coordinates": [[[-95.8523524, 36.1212595], [-95.8523552, 36.1213273], [-95.8522953, 36.1213289], [-95.8522925, 36.1212611], [-95.8523524, 36.1212595]]]}, "properties": {"osm_id": 1056200730, "building": "yes", "name": "", "height": null, "height_m": null, "levels": null, "tract_id": "40143007313", "tract_name": "73.13", "tags": {"building": "yes"}}}, {"type": "Feature", "geometry": {"type": "Polygon", "coordinates": [[[-95.8592856, 36.1270746], [-95.859246, 36.1270752], [-95.8592452, 36.1270372], [-95.8592848, 36.1270366], [-95.8592856, 36.1270746]]]}, "properties": {"osm_id": 1197840810, "building": "yes", "name": "", "height": null, "height_m": null, "levels": null, "tract_id": "40143007313", "tract_name": "73.13", "tags": {"building": "yes"}}}, {"type": "Feature", "geometry": {"type": "Polygon", "coordinates": [[[-95.8592299, 36.1268953], [-95.8591885, 36.126895], [-95.859189, 36.1268574], [-95.8592304, 36.1268578], [-95.8592299, 36.1268953]]]}, "properties": {"osm_id": 1197840811, "building": "yes", "name": "", "height": null, "height_m": null, "levels": null, "tract_id": "40143007313", "tract_name": "73.13", "tags": {"building": "yes"}}}, {"type": "Feature", "geometry": {"type": "Polygon", "coordinates": [[[-95.8592219, 36.1267621], [-95.8591839, 36.1267618], [-95.8591843, 36.1267258], [-95.8592224, 36.1267262], [-95.8592219, 36.1267621]]]}, "properties": {"osm_id": 1197840812, "building": "yes", "name": "", "height": null, "height_m": null, "levels": null, "tract_id": "40143007313", "tract_name": "73.13", "tags": {"building": "yes"}}}, {"type": "Feature", "geometry": {"type": "Polygon", "coordinates": [[[-95.8577185, 36.1260705], [-95.8576846, 36.1260722], [-95.8576819, 36.1260387], [-95.8577158, 36.1260369], [-95.8577185, 36.1260705]]]}, "properties": {"osm_id": 1197840814, "building": "yes", "name": "", "height": null, "height_m": null, "levels": null, "tract_id": "40143007313", "tract_name": "73.13", "tags": {"building": "yes"}}}, {"type": "Feature", "geometry": {"type": "Polygon", "coordinates": [[[-95.8579854, 36.1254037], [-95.857935, 36.1254037], [-95.8579351, 36.1253555], [-95.8579855, 36.1253556], [-95.8579854, 36.1254037]]]}, "properties": {"osm_id": 1197840815, "building": "yes", "name": "", "height": null, "height_m": null, "levels": null, "tract_id": "40143007313", "tract_name": "73.13", "tags": {"building": "yes"}}}, {"type": "Feature", "geometry": {"type": "Polygon", "coordinates": [[[-95.8578902, 36.125479], [-95.8578901, 36.1255089], [-95.8578486, 36.1255088], [-95.8578487, 36.125479], [-95.8578902, 36.125479]]]}, "properties": {"osm_id": 1197840816, "building": "yes", "name": "", "height": null, "height_m": null, "levels": null, "tract_id": "40143007313", "tract_name": "73.13", "tags": {"building": "yes"}}}, {"type": "Feature", "geometry": {"type": "Polygon", "coordinates": [[[-95.8580638, 36.1255131], [-95.8580022, 36.1255126], [-95.8580026, 36.1254769], [-95.8580643, 36.1254775], [-95.8580638, 36.1255131]]]}, "properties": {"osm_id": 1197840817, "building": "yes", "name": "", "height": null, "height_m": null, "levels": null, "tract_id": "40143007313", "tract_name": "73.13", "tags": {"building": "yes"}}}, {"type": "Feature", "geometry": {"type": "Polygon", "coordinates": [[[-95.8581886, 36.1262904], [-95.8581879, 36.1262546], [-95.8582133, 36.1262543], [-95.858214, 36.1262901], [-95.8581886, 36.1262904]]]}, "properties": {"osm_id": 1197840818, "building": "yes", "name": "", "height": null, "height_m": null, "levels": null, "tract_id": "40143007313", "tract_name": "73.13", "tags": {"building": "yes"}}}, {"type": "Feature", "geometry": {"type": "Polygon", "coordinates": [[[-95.8578245, 36.1263137], [-95.8578245, 36.126357], [-95.8577748, 36.126357], [-95.8577748, 36.1263137], [-95.8578245, 36.1263137]]]}, "properties": {"osm_id": 1197840819, "building": "yes", "name": "", "height": null, "height_m": null, "levels": null, "tract_id": "40143007313", "tract_name": "73.13", "tags": {"building": "yes"}}}, {"type": "Feature", "geometry": {"type": "Polygon", "coordinates": [[[-95.8577547, 36.1262524], [-95.8577199, 36.1262524], [-95.8577199, 36.1262319], [-95.8577547, 36.1262319], [-95.8577547, 36.1262524]]]}, "properties": {"osm_id": 1197840820, "building": "yes", "name": "", "height": null, "height_m": null, "levels": null, "tract_id": "40143007313", "tract_name": "73.13", "tags": {"building": "yes"}}}, {"type": "Feature", "geometry": {"type": "Polygon", "coordinates": [[[-95.8575819, 36.1253109], [-95.8577039, 36.1253094], [-95.8577026, 36.1252431], [-95.8577362, 36.1252427], [-95.8577353, 36.1251963], [-95.8577031, 36.1251967], [-95.8577016, 36.1251187], [-95.8575783, 36.1251203], [-95.8575819, 36.1253109]]]}, "properties": {"osm_id": 1197840821, "building": "detached", "name": "", "height": null, "height_m": null, "levels": null, "tract_id": "40143007313", "tract_name": "73.13", "tags": {"building": "detached", "source": "microsoft/BuildingFootprints"}}}, {"type": "Feature", "geometry": {"type": "Polygon", "coordinates": [[[-95.858523, 36.1264828], [-95.8586024, 36.1264821], [-95.8586008, 36.1263586], [-95.8585771, 36.1263588], [-95.8585767, 36.126332], [-95.8585129, 36.1263325], [-95.8585133, 36.1263607], [-95.8584221, 36.1263615], [-95.8584232, 36.126446], [-95.85847, 36.1264456], [-95.8584702, 36.1264596], [-95.8585226, 36.1264591], [-95.858523, 36.1264828]]]}, "properties": {"osm_id": 1197840823, "building": "detached", "name": "", "height": null, "height_m": null, "levels": null, "tract_id": "40143007313", "tract_name": "73.13", "tags": {"addr:city": "Tulsa", "addr:country": "US", "addr:housenumber": "10610", "addr:postcode": "74129", "addr:state": "OK", "addr:street": "East 26th Street South", "building": "detached"}}}, {"type": "Feature", "geometry": {"type": "Polygon", "coordinates": [[[-95.8581569, 36.1272082], [-95.8581165, 36.1271978], [-95.8580913, 36.1272619], [-95.8582924, 36.1273136], [-95.8583118, 36.1272644], [-95.8582874, 36.1272581], [-95.8583208, 36.1271736], [-95.8581844, 36.1271385], [-95.8581569, 36.1272082]]]}, "properties": {"osm_id": 1197840824, "building": "detached", "name": "", "height": null, "height_m": null, "levels": null, "tract_id": "40143007313", "tract_name": "73.13", "tags": {"building": "detached", "source": "microsoft/BuildingFootprints"}}}, {"type": "Feature", "geometry": {"type": "Polygon", "coordinates": [[[-95.8591938, 36.1264737], [-95.8590948, 36.1264814], [-95.8591159, 36.1266574], [-95.8592149, 36.1266497], [-95.8591938, 36.1264737]]]}, "properties": {"osm_id": 1197840825, "building": "detached", "name": "", "height": null, "height_m": null, "levels": null, "tract_id": "40143007313", "tract_name": "73.13", "tags": {"building": "detached", "source": "microsoft/BuildingFootprints"}}}, {"type": "Feature", "geometry": {"type": "Polygon", "coordinates": [[[-95.8586033, 36.1275912], [-95.8584918, 36.1275928], [-95.8584949, 36.1277336], [-95.858629, 36.1277317], [-95.8586274, 36.1276611], [-95.8586049, 36.1276615], [-95.8586033, 36.1275912]]]}, "properties": {"osm_id": 1197840827, "building": "detached", "name": "", "height": null, "height_m": null, "levels": null, "tract_id": "40143007313", "tract_name": "73.13", "tags": {"building": "detached", "source": "microsoft/BuildingFootprints"}}}, {"type": "Feature", "geometry": {"type": "Polygon", "coordinates": [[[-95.8575657, 36.1263794], [-95.8575677, 36.1264921], [-95.8577355, 36.1264901], [-95.857732, 36.126296], [-95.8576583, 36.1262969], [-95.8576598, 36.1263783], [-95.8575657, 36.1263794]]]}, "properties": {"osm_id": 1197840829, "building": "detached", "name": "", "height": null, "height_m": null, "levels": null, "tract_id": "40143007313", "tract_name": "73.13", "tags": {"addr:city": "Tulsa", "addr:country": "US", "addr:housenumber": "10710", "addr:postcode": "74129", "addr:state": "OK", "addr:street": "East 26th Street South", "building": "detached"}}}, {"type": "Feature", "geometry": {"type": "Polygon", "coordinates": [[[-95.8589229, 36.1259445], [-95.8590306, 36.1259982], [-95.8590689, 36.125948], [-95.8591, 36.1259635], [-95.8591348, 36.125918], [-95.8591057, 36.1259035], [-95.859135, 36.1258652], [-95.8589874, 36.1257916], [-95.8589298, 36.1258669], [-95.8589678, 36.1258858], [-95.8589229, 36.1259445]]]}, "properties": {"osm_id": 1197840836, "building": "detached", "name": "", "height": null, "height_m": null, "levels": null, "tract_id": "40143007313", "tract_name": "73.13", "tags": {"building": "detached", "source": "microsoft/BuildingFootprints"}}}, {"type": "Feature", "geometry": {"type": "Polygon", "coordinates": [[[-95.8589618, 36.1279354], [-95.8590664, 36.1279333], [-95.8590647, 36.1278792], [-95.8590889, 36.1278787], [-95.8590877, 36.1278419], [-95.8591199, 36.1278413], [-95.8591178, 36.127772], [-95.858957, 36.1277752], [-95.8589618, 36.1279354]]]}, "properties": {"osm_id": 1197840838, "building": "detached", "name": "", "height": null, "height_m": null, "levels": null, "tract_id": "40143007313", "tract_name": "73.13", "tags": {"building": "detached", "source": "microsoft/BuildingFootprints"}}}, {"type": "Feature", "geometry": {"type": "Polygon", "coordinates": [[[-95.8584483, 36.1267383], [-95.8584501, 36.126825], [-95.8584931, 36.1268244], [-95.8584939, 36.1268655], [-95.8585288, 36.1268651], [-95.8585298, 36.1269139], [-95.8586263, 36.1269126], [-95.8586226, 36.126736], [-95.8584483, 36.1267383]]]}, "properties": {"osm_id": 1197840839, "building": "detached", "name": "", "height": null, "height_m": null, "levels": null, "tract_id": "40143007313", "tract_name": "73.13", "tags": {"building": "detached", "source": "microsoft/BuildingFootprints"}}}, {"type": "Feature", "geometry": {"type": "Polygon", "coordinates": [[[-95.8591473, 36.1283194], [-95.8590471, 36.1283181], [-95.8590453, 36.1284091], [-95.8589676, 36.1284081], [-95.8589664, 36.1284709], [-95.8591444, 36.1284732], [-95.8591473, 36.1283194]]]}, "properties": {"osm_id": 1197840840, "building": "detached", "name": "", "height": null, "height_m": null, "levels": null, "tract_id": "40143007313", "tract_name": "73.13", "tags": {"building": "detached", "source": "microsoft/BuildingFootprints"}}}, {"type": "Feature", "geometry": {"type": "Polygon", "coordinates": [[[-95.8590988, 36.127747], [-95.8591026, 36.1275997], [-95.8589847, 36.1275977], [-95.8589829, 36.1276648], [-95.8589625, 36.1276645], [-95.8589604, 36.1277446], [-95.8590988, 36.127747]]]}, "properties": {"osm_id": 1197840843, "building": "detached", "name": "", "height": null, "height_m": null, "levels": null, "tract_id": "40143007313", "tract_name": "73.13", "tags": {"building": "detached", "source": "microsoft/BuildingFootprints"}}}, {"type": "Feature", "geometry": {"type": "Polygon", "coordinates": [[[-95.8581553, 36.1264175], [-95.8579925, 36.126417], [-95.8579919, 36.1265621], [-95.858083, 36.1265624], [-95.8580833, 36.1264967], [-95.8581549, 36.1264969], [-95.8581553, 36.1264175]]]}, "properties": {"osm_id": 1197840844, "building": "detached", "name": "", "height": null, "height_m": null, "levels": null, "tract_id": "40143007313", "tract_name": "73.13", "tags": {"addr:city": "Tulsa", "addr:country": "US", "addr:housenumber": "10622", "addr:postcode": "74129", "addr:state": "OK", "addr:street": "East 26th Street South", "building": "detached"}}}, {"type": "Feature", "geometry": {"type": "Polygon", "coordinates": [[[-95.8575553, 36.1275906], [-95.8573832, 36.1275408], [-95.8573495, 36.1276168], [-95.8573719, 36.1276233], [-95.8573553, 36.1276605], [-95.857391, 36.1276708], [-95.8573748, 36.1277073], [-95.8574651, 36.1277335], [-95.8574975, 36.1276605], [-95.8575213, 36.1276674], [-95.8575553, 36.1275906]]]}, "properties": {"osm_id": 1197840845, "building": "detached", "name": "", "height": null, "height_m": null, "levels": null, "tract_id": "40143007313", "tract_name": "73.13", "tags": {"building": "detached", "source": "microsoft/BuildingFootprints"}}}, {"type": "Feature", "geometry": {"type": "Polygon", "coordinates": [[[-95.8588633, 36.1263974], [-95.8589533, 36.1264339], [-95.8589312, 36.1264694], [-95.8589958, 36.1264957], [-95.8590488, 36.1264106], [-95.8591027, 36.1264325], [-95.8591318, 36.1263857], [-95.8590816, 36.1263653], [-95.8590873, 36.1263561], [-95.8589291, 36.1262918], [-95.8588633, 36.1263974]]]}, "properties": {"osm_id": 1197840847, "building": "detached", "name": "", "height": null, "height_m": null, "levels": null, "tract_id": "40143007313", "tract_name": "73.13", "tags": {"addr:city": "Tulsa", "addr:country": "US", "addr:housenumber": "10602", "addr:postcode": "74129", "addr:state": "OK", "addr:street": "East 26th Street South", "building": "detached"}}}, {"type": "Feature", "geometry": {"type": "Polygon", "coordinates": [[[-95.858798, 36.1259955], [-95.858735, 36.1260447], [-95.8588235, 36.1261186], [-95.8589648, 36.1260081], [-95.8588442, 36.1259074], [-95.8587658, 36.1259686], [-95.858798, 36.1259955]]]}, "properties": {"osm_id": 1197840848, "building": "detached", "name": "", "height": null, "height_m": null, "levels": null, "tract_id": "40143007313", "tract_name": "73.13", "tags": {"building": "detached", "source": "microsoft/BuildingFootprints"}}}, {"type": "Feature", "geometry": {"type": "Polygon", "coordinates": [[[-95.8585049, 36.1261102], [-95.8586873, 36.1261093], [-95.8586865, 36.1260075], [-95.8586022, 36.1260079], [-95.8586019, 36.1259754], [-95.8585039, 36.1259759], [-95.8585049, 36.1261102]]]}, "properties": {"osm_id": 1197840849, "building": "detached", "name": "", "height": null, "height_m": null, "levels": null, "tract_id": "40143007313", "tract_name": "73.13", "tags": {"building": "detached", "source": "microsoft/BuildingFootprints"}}}, {"type": "Feature", "geometry": {"type": "Polygon", "coordinates": [[[-95.8589804, 36.1268732], [-95.8589812, 36.1269078], [-95.8589655, 36.126908], [-95.8589669, 36.1269703], [-95.8589826, 36.1269701], [-95.8589838, 36.1270236], [-95.8590846, 36.1270222], [-95.8590836, 36.1269788], [-95.8591384, 36.126978], [-95.8591368, 36.1269066], [-95.8591088, 36.126907], [-95.859108, 36.1268714], [-95.8589804, 36.1268732]]]}, "properties": {"osm_id": 1197840850, "building": "detached", "name": "", "height": null, "height_m": null, "levels": null, "tract_id": "40143007313", "tract_name": "73.13", "tags": {"building": "detached", "source": "microsoft/BuildingFootprints"}}}, {"type": "Feature", "geometry": {"type": "Polygon", "coordinates": [[[-95.8585273, 36.1257004], [-95.8586355, 36.1256995], [-95.8586336, 36.1255522], [-95.8585253, 36.1255531], [-95.8585273, 36.1257004]]]}, "properties": {"osm_id": 1197840852, "building": "detached", "name": "", "height": null, "height_m": null, "levels": null, "tract_id": "40143007313", "tract_name": "73.13", "tags": {"building": "detached", "source": "microsoft/BuildingFootprints"}}}, {"type": "Feature", "geometry": {"type": "Polygon", "coordinates": [[[-95.8589693, 36.1271882], [-95.8590542, 36.127188], [-95.8590543, 36.1272118], [-95.8591173, 36.1272116], [-95.8591172, 36.1271889], [-95.8591475, 36.1271888], [-95.8591468, 36.1270533], [-95.859041, 36.1270537], [-95.8590413, 36.1271122], [-95.8589689, 36.1271124], [-95.8589693, 36.1271882]]]}, "properties": {"osm_id": 1197840854, "building": "detached", "name": "", "height": null, "height_m": null, "levels": null, "tract_id": "40143007313", "tract_name": "73.13", "tags": {"building": "detached", "source": "microsoft/BuildingFootprints"}}}, {"type": "Feature", "geometry": {"type": "Polygon", "coordinates": [[[-95.8574369, 36.1274568], [-95.8574785, 36.1274673], [-95.8574641, 36.1275048], [-95.8574959, 36.1275128], [-95.857481, 36.1275515], [-95.8575739, 36.1275748], [-95.8576337, 36.1274195], [-95.8574673, 36.1273778], [-95.8574369, 36.1274568]]]}, "properties": {"osm_id": 1197840855, "building": "detached", "name": "", "height": null, "height_m": null, "levels": null, "tract_id": "40143007313", "tract_name": "73.13", "tags": {"building": "detached", "source": "microsoft/BuildingFootprints"}}}, {"type": "Feature", "geometry": {"type": "Polygon", "coordinates": [[[-95.8582452, 36.1256466], [-95.8583149, 36.1256477], [-95.8583138, 36.1256996], [-95.8584291, 36.1257013], [-95.8584325, 36.1255475], [-95.8582475, 36.1255449], [-95.8582452, 36.1256466]]]}, "properties": {"osm_id": 1197840856, "building": "detached", "name": "", "height": null, "height_m": null, "levels": null, "tract_id": "40143007313", "tract_name": "73.13", "tags": {"building": "detached", "source": "microsoft/BuildingFootprints"}}}, {"type": "Feature", "geometry": {"type": "Polygon", "coordinates": [[[-95.8579512, 36.1275851], [-95.8580727, 36.12762], [-95.8581306, 36.1274884], [-95.8580091, 36.1274535], [-95.8579512, 36.1275851]]]}, "properties": {"osm_id": 1197840857, "building": "detached", "name": "", "height": null, "height_m": null, "levels": null, "tract_id": "40143007313", "tract_name": "73.13", "tags": {"building": "detached", "source": "microsoft/BuildingFootprints"}}}, {"type": "Feature", "geometry": {"type": "Polygon", "coordinates": [[[-95.8591445, 36.1272406], [-95.8590227, 36.1272389], [-95.859021, 36.1273168], [-95.858962, 36.127316], [-95.8589606, 36.1273831], [-95.8591413, 36.1273857], [-95.8591445, 36.1272406]]]}, "properties": {"osm_id": 1197840859, "building": "detached", "name": "", "height": null, "height_m": null, "levels": null, "tract_id": "40143007313", "tract_name": "73.13", "tags": {"building": "detached", "source": "microsoft/BuildingFootprints"}}}, {"type": "Feature", "geometry": {"type": "Polygon", "coordinates": [[[-95.8578805, 36.1277476], [-95.8580538, 36.1277916], [-95.8581021, 36.1276673], [-95.8580045, 36.1276426], [-95.8579868, 36.1276879], [-95.8579111, 36.1276687], [-95.8578805, 36.1277476]]]}, "properties": {"osm_id": 1197840860, "building": "detached", "name": "", "height": null, "height_m": null, "levels": null, "tract_id": "40143007313", "tract_name": "73.13", "tags": {"building": "detached", "source": "microsoft/BuildingFootprints"}}}, {"type": "Feature", "geometry": {"type": "Polygon", "coordinates": [[[-95.8577797, 36.1265109], [-95.8578882, 36.1265096], [-95.857889, 36.126556], [-95.8579656, 36.1265551], [-95.8579631, 36.1264186], [-95.8577781, 36.1264209], [-95.8577797, 36.1265109]]]}, "properties": {"osm_id": 1197840861, "building": "detached", "name": "", "height": null, "height_m": null, "levels": null, "tract_id": "40143007313", "tract_name": "73.13", "tags": {"addr:city": "Tulsa", "addr:country": "US", "addr:housenumber": "10704", "addr:postcode": "74129", "addr:state": "OK", "addr:street": "East 26th Street South", "building": "detached"}}}, {"type": "Feature", "geometry": {"type": "Polygon", "coordinates": [[[-95.8589734, 36.1280971], [-95.8590968, 36.1280962], [-95.8590964, 36.1280668], [-95.8591286, 36.1280666], [-95.859128, 36.1280136], [-95.8590959, 36.1280139], [-95.8590952, 36.1279576], [-95.8589719, 36.1279584], [-95.8589734, 36.1280971]]]}, "properties": {"osm_id": 1197840862, "building": "detached", "name": "", "height": null, "height_m": null, "levels": null, "tract_id": "40143007313", "tract_name": "73.13", "tags": {"building": "detached", "source": "microsoft/BuildingFootprints"}}}, {"type": "Feature", "geometry": {"type": "Polygon", "coordinates": [[[-95.8583937, 36.1263736], [-95.8582033, 36.1263746], [-95.8582043, 36.1265002], [-95.8583009, 36.1264997], [-95.8583005, 36.1264573], [-95.8583944, 36.1264568], [-95.8583937, 36.1263736]]]}, "properties": {"osm_id": 1197840864, "building": "detached", "name": "", "height": null, "height_m": null, "levels": null, "tract_id": "40143007313", "tract_name": "73.13", "tags": {"addr:city": "Tulsa", "addr:country": "US", "addr:housenumber": "10616", "addr:postcode": "74129", "addr:state": "OK", "addr:street": "East 26th Street South", "building": "detached"}}}, {"type": "Feature", "geometry": {"type": "Polygon", "coordinates": [[[-95.8591777, 36.1267037], [-95.8590624, 36.1267027], [-95.8590615, 36.1267677], [-95.8589784, 36.126767], [-95.8589774, 36.1268384], [-95.8592027, 36.1268404], [-95.8592034, 36.1267884], [-95.8591766, 36.1267882], [-95.8591777, 36.1267037]]]}, "properties": {"osm_id": 1197840865, "building": "detached", "name": "", "height": null, "height_m": null, "levels": null, "tract_id": "40143007313", "tract_name": "73.13", "tags": {"building": "detached", "source": "microsoft/BuildingFootprints"}}}, {"type": "Feature", "geometry": {"type": "Polygon", "coordinates": [[[-95.8584285, 36.1271835], [-95.8584253, 36.1273512], [-95.8586306, 36.1273538], [-95.8586319, 36.1272889], [-95.8585284, 36.1272875], [-95.8585304, 36.1271848], [-95.8584285, 36.1271835]]]}, "properties": {"osm_id": 1197840867, "building": "detached", "name": "", "height": null, "height_m": null, "levels": null, "tract_id": "40143007313", "tract_name": "73.13", "tags": {"building": "detached", "source": "microsoft/BuildingFootprints"}}}, {"type": "Feature", "geometry": {"type": "Polygon", "coordinates": [[[-95.858172, 36.1268377], [-95.8581783, 36.127026], [-95.8582831, 36.1270237], [-95.8582808, 36.1269545], [-95.8583183, 36.1269536], [-95.8583158, 36.1268788], [-95.8582756, 36.1268797], [-95.8582741, 36.1268355], [-95.858172, 36.1268377]]]}, "properties": {"osm_id": 1197840868, "building": "detached", "name": "", "height": null, "height_m": null, "levels": null, "tract_id": "40143007313", "tract_name": "73.13", "tags": {"building": "detached", "source": "microsoft/BuildingFootprints"}}}, {"type": "Feature", "geometry": {"type": "Polygon", "coordinates": [[[-95.8592572, 36.1254611], [-95.8589676, 36.1254659], [-95.8589696, 36.1255438], [-95.8592591, 36.1255391], [-95.8592572, 36.1254611]]]}, "properties": {"osm_id": 1197840869, "building": "yes", "name": "", "height": null, "height_m": null, "levels": null, "tract_id": "40143007313", "tract_name": "73.13", "tags": {"building": "yes", "source": "microsoft/BuildingFootprints"}}}, {"type": "Feature", "geometry": {"type": "Polygon", "coordinates": [[[-95.8586306, 36.1269521], [-95.8585035, 36.126951], [-95.8585008, 36.127149], [-95.8586279, 36.1271502], [-95.8586306, 36.1269521]]]}, "properties": {"osm_id": 1197840870, "building": "detached", "name": "", "height": null, "height_m": null, "levels": null, "tract_id": "40143007313", "tract_name": "73.13", "tags": {"building": "detached", "source": "microsoft/BuildingFootprints"}}}, {"type": "Feature", "geometry": {"type": "Polygon", "coordinates": [[[-95.8576777, 36.1272537], [-95.8575597, 36.127225], [-95.8575382, 36.1272826], [-95.8574915, 36.1272712], [-95.8574604, 36.1273546], [-95.8576423, 36.1273989], [-95.8576631, 36.1273433], [-95.8576459, 36.1273391], [-95.8576777, 36.1272537]]]}, "properties": {"osm_id": 1197840871, "building": "detached", "name": "", "height": null, "height_m": null, "levels": null, "tract_id": "40143007313", "tract_name": "73.13", "tags": {"building": "detached", "source": "microsoft/BuildingFootprints"}}}, {"type": "Feature", "geometry": {"type": "Polygon", "coordinates": [[[-95.8581037, 36.1254273], [-95.8580058, 36.125426], [-95.8580051, 36.1254598], [-95.858103, 36.1254611], [-95.8581037, 36.1254273]]]}, "properties": {"osm_id": 1197840873, "building": "yes", "name": "", "height": null, "height_m": null, "levels": null, "tract_id": "40143007313", "tract_name": "73.13", "tags": {"building": "yes", "source": "microsoft/BuildingFootprints"}}}, {"type": "Feature", "geometry": {"type": "Polygon", "coordinates": [[[-95.8590998, 36.1282853], [-95.8590955, 36.1281424], [-95.8589658, 36.1281449], [-95.8589701, 36.1282879], [-95.8590998, 36.1282853]]]}, "properties": {"osm_id": 1197840876, "building": "detached", "name": "", "height": null, "height_m": null, "levels": null, "tract_id": "40143007313", "tract_name": "73.13", "tags": {"building": "detached", "source": "microsoft/BuildingFootprints"}}}, {"type": "Feature", "geometry": {"type": "Polygon", "coordinates": [[[-95.8577725, 36.1252323], [-95.8578556, 36.1252335], [-95.8578548, 36.1252703], [-95.8579111, 36.1252712], [-95.857912, 36.1252322], [-95.8579549, 36.1252328], [-95.8579574, 36.1251202], [-95.8578797, 36.125119], [-95.8578793, 36.1251364], [-95.8577747, 36.1251348], [-95.8577725, 36.1252323]]]}, "properties": {"osm_id": 1197840878, "building": "detached", "name": "", "height": null, "height_m": null, "levels": null, "tract_id": "40143007313", "tract_name": "73.13", "tags": {"addr:city": "Tulsa", "addr:country": "US", "addr:housenumber": "10623", "addr:postcode": "74129", "addr:state": "OK", "addr:street": "East 27th Street South", "building": "detached"}}}, {"type": "Feature", "geometry": {"type": "Polygon", "coordinates": [[[-95.8578929, 36.1264173], [-95.8579411, 36.1264161], [-95.8579404, 36.1263966], [-95.8578921, 36.1263979], [-95.8578929, 36.1264173]]]}, "properties": {"osm_id": 1197840880, "building": "yes", "name": "", "height": null, "height_m": null, "levels": null, "tract_id": "40143007313", "tract_name": "73.13", "tags": {"building": "yes", "source": "microsoft/BuildingFootprints"}}}, {"type": "Feature", "geometry": {"type": "Polygon", "coordinates": [[[-95.8584837, 36.1275515], [-95.8586232, 36.127553], [-95.858625, 36.127436], [-95.8585982, 36.1274357], [-95.8585988, 36.1273989], [-95.8584877, 36.1273978], [-95.8584868, 36.1274575], [-95.858409, 36.1274567], [-95.858408, 36.1275195], [-95.8584842, 36.1275203], [-95.8584837, 36.1275515]]]}, "properties": {"osm_id": 1197840882, "building": "detached", "name": "", "height": null, "height_m": null, "levels": null, "tract_id": "40143007313", "tract_name": "73.13", "tags": {"building": "detached", "source": "microsoft/BuildingFootprints"}}}, {"type": "Feature", "geometry": {"type": "Polygon", "coordinates": [[[-95.8580076, 36.1251678], [-95.8580043, 36.1252665], [-95.8581946, 36.1252707], [-95.8581996, 36.1251213], [-95.8581138, 36.1251194], [-95.8581121, 36.1251701], [-95.8580076, 36.1251678]]]}, "properties": {"osm_id": 1197840883, "building": "detached", "name": "", "height": null, "height_m": null, "levels": null, "tract_id": "40143007313", "tract_name": "73.13", "tags": {"addr:city": "Tulsa", "addr:country": "US", "addr:housenumber": "10619", "addr:postcode": "74129", "addr:state": "OK", "addr:street": "East 27th Street South", "building": "detached"}}}, {"type": "Feature", "geometry": {"type": "Polygon", "coordinates": [[[-95.8589623, 36.127488], [-95.8590401, 36.1274889], [-95.859039, 36.1275538], [-95.8591436, 36.127555], [-95.8591459, 36.127412], [-95.8589636, 36.12741], [-95.8589623, 36.127488]]]}, "properties": {"osm_id": 1197840884, "building": "detached", "name": "", "height": null, "height_m": null, "levels": null, "tract_id": "40143007313", "tract_name": "73.13", "tags": {"building": "detached", "source": "microsoft/BuildingFootprints"}}}, {"type": "Feature", "geometry": {"type": "Polygon", "coordinates": [[[-95.8582397, 36.1252483], [-95.8583309, 36.1252473], [-95.8583304, 36.1252169], [-95.8584001, 36.1252161], [-95.8583996, 36.1251901], [-95.8584345, 36.1251897], [-95.8584332, 36.1251161], [-95.8582374, 36.1251184], [-95.8582397, 36.1252483]]]}, "properties": {"osm_id": 1197840885, "building": "detached", "name": "", "height": null, "height_m": null, "levels": null, "tract_id": "40143007313", "tract_name": "73.13", "tags": {"addr:city": "Tulsa", "addr:country": "US", "addr:housenumber": "10613", "addr:postcode": "74129", "addr:state": "OK", "addr:street": "East 27th Street South", "building": "detached"}}}, {"type": "Feature", "geometry": {"type": "Polygon", "coordinates": [[[-95.858022, 36.1274124], [-95.858136, 36.1274424], [-95.8581565, 36.1273915], [-95.8582331, 36.1274117], [-95.8582647, 36.1273333], [-95.8580742, 36.1272832], [-95.858022, 36.1274124]]]}, "properties": {"osm_id": 1197840887, "building": "detached", "name": "", "height": null, "height_m": null, "levels": null, "tract_id": "40143007313", "tract_name": "73.13", "tags": {"building": "detached", "source": "microsoft/BuildingFootprints"}}}, {"type": "Feature", "geometry": {"type": "Polygon", "coordinates": [[[-95.8579797, 36.1256137], [-95.8578951, 36.1256136], [-95.8578952, 36.1255658], [-95.857801, 36.1255657], [-95.857801, 36.1255912], [-95.8577786, 36.1255911], [-95.8577784, 36.1256918], [-95.8578848, 36.1256919], [-95.8578848, 36.1257038], [-95.8579795, 36.1257039], [-95.8579797, 36.1256137]]]}, "properties": {"osm_id": 1197840889, "building": "detached", "name": "", "height": null, "height_m": null, "levels": null, "tract_id": "40143007313", "tract_name": "73.13", "tags": {"building": "detached", "source": "microsoft/BuildingFootprints"}}}, {"type": "Feature", "geometry": {"type": "Polygon", "coordinates": [[[-95.8575926, 36.1257001], [-95.8576934, 36.1257011], [-95.8576965, 36.1255018], [-95.8575957, 36.1255008], [-95.8575926, 36.1257001]]]}, "properties": {"osm_id": 1197840890, "building": "detached", "name": "", "height": null, "height_m": null, "levels": null, "tract_id": "40143007313", "tract_name": "73.13", "tags": {"building": "detached", "source": "microsoft/BuildingFootprints"}}}, {"type": "Feature", "geometry": {"type": "Polygon", "coordinates": [[[-95.8577724, 36.1260842], [-95.8579789, 36.1260859], [-95.8579803, 36.1259711], [-95.8578972, 36.1259704], [-95.857897, 36.1259868], [-95.8578473, 36.1259864], [-95.8578474, 36.1259713], [-95.8577738, 36.1259706], [-95.8577724, 36.1260842]]]}, "properties": {"osm_id": 1197840898, "building": "detached", "name": "", "height": null, "height_m": null, "levels": null, "tract_id": "40143007313", "tract_name": "73.13", "tags": {"building": "detached", "source": "microsoft/BuildingFootprints"}}}, {"type": "Feature", "geometry": {"type": "Polygon", "coordinates": [[[-95.858459, 36.1277991], [-95.8584604, 36.1278576], [-95.8584915, 36.1278571], [-95.8584927, 36.1279091], [-95.8586037, 36.1279074], [-95.8586016, 36.1278186], [-95.8586284, 36.1278182], [-95.8586269, 36.1277532], [-95.8584928, 36.1277553], [-95.8584938, 36.1277986], [-95.858459, 36.1277991]]]}, "properties": {"osm_id": 1197840900, "building": "detached", "name": "", "height": null, "height_m": null, "levels": null, "tract_id": "40143007313", "tract_name": "73.13", "tags": {"building": "detached", "source": "microsoft/BuildingFootprints"}}}, {"type": "Feature", "geometry": {"type": "Polygon", "coordinates": [[[-95.8584617, 36.1251414], [-95.8584644, 36.1252736], [-95.8586467, 36.1252712], [-95.8586437, 36.1251195], [-95.8585632, 36.1251206], [-95.8585636, 36.1251401], [-95.8584617, 36.1251414]]]}, "properties": {"osm_id": 1197840903, "building": "detached", "name": "", "height": null, "height_m": null, "levels": null, "tract_id": "40143007313", "tract_name": "73.13", "tags": {"addr:city": "Tulsa", "addr:country": "US", "addr:housenumber": "10607", "addr:postcode": "74129", "addr:state": "OK", "addr:street": "East 27th Street South", "building": "detached"}}}, {"type": "Feature", "geometry": {"type": "Polygon", "coordinates": [[[-95.8582617, 36.1259694], [-95.8582609, 36.1260777], [-95.8584742, 36.1260789], [-95.8584751, 36.1259705], [-95.8582617, 36.1259694]]]}, "properties": {"osm_id": 1197840904, "building": "detached", "name": "", "height": null, "height_m": null, "levels": null, "tract_id": "40143007313", "tract_name": "73.13", "tags": {"building": "detached", "source": "microsoft/BuildingFootprints"}}}, {"type": "Feature", "geometry": {"type": "Polygon", "coordinates": [[[-95.8575897, 36.1270358], [-95.8575443, 36.1271398], [-95.8575777, 36.1271494], [-95.8575626, 36.127184], [-95.8577153, 36.1272275], [-95.8577422, 36.1271658], [-95.8576969, 36.1271529], [-95.8577305, 36.1270758], [-95.8575897, 36.1270358]]]}, "properties": {"osm_id": 1197840906, "building": "detached", "name": "", "height": null, "height_m": null, "levels": null, "tract_id": "40143007313", "tract_name": "73.13", "tags": {"building": "detached", "source": "microsoft/BuildingFootprints"}}}, {"type": "Feature", "geometry": {"type": "Polygon", "coordinates": [[[-95.8580142, 36.1259688], [-95.8580165, 36.1261118], [-95.8580996, 36.1261109], [-95.8580992, 36.1260871], [-95.8582226, 36.1260858], [-95.858221, 36.1259883], [-95.8580923, 36.1259896], [-95.8580919, 36.125968], [-95.8580142, 36.1259688]]]}, "properties": {"osm_id": 1197840908, "building": "detached", "name": "", "height": null, "height_m": null, "levels": null, "tract_id": "40143007313", "tract_name": "73.13", "tags": {"building": "detached", "source": "microsoft/BuildingFootprints"}}}, {"type": "Feature", "geometry": {"type": "Polygon", "coordinates": [[[-95.8580075, 36.125702], [-95.8582031, 36.1257002], [-95.8582014, 36.1255811], [-95.8580058, 36.1255829], [-95.8580075, 36.125702]]]}, "properties": {"osm_id": 1197840910, "building": "detached", "name": "", "height": null, "height_m": null, "levels": null, "tract_id": "40143007313", "tract_name": "73.13", "tags": {"building": "detached", "source": "microsoft/BuildingFootprints"}}}, {"type": "Feature", "geometry": {"type": "Polygon", "coordinates": [[[-95.8576387, 36.1269701], [-95.8576963, 36.1270194], [-95.8577914, 36.1269469], [-95.85762, 36.1268001], [-95.8575249, 36.1268726], [-95.8575993, 36.1269363], [-95.8575709, 36.126958], [-95.8576103, 36.1269917], [-95.8576387, 36.1269701]]]}, "properties": {"osm_id": 1197840911, "building": "detached", "name": "", "height": null, "height_m": null, "levels": null, "tract_id": "40143007313", "tract_name": "73.13", "tags": {"building": "detached", "source": "microsoft/BuildingFootprints"}}}, {"type": "Feature", "geometry": {"type": "Polygon", "coordinates": [[[-95.8587196, 36.1262805], [-95.8587191, 36.1262566], [-95.8586292, 36.1262577], [-95.8586324, 36.1264396], [-95.8587439, 36.1264383], [-95.8587426, 36.126369], [-95.8588097, 36.1263682], [-95.8588081, 36.1262794], [-95.8587196, 36.1262805]]]}, "properties": {"osm_id": 1197840914, "building": "detached", "name": "", "height": null, "height_m": null, "levels": null, "tract_id": "40143007313", "tract_name": "73.13", "tags": {"addr:city": "Tulsa", "addr:country": "US", "addr:housenumber": "10606", "addr:postcode": "74129", "addr:state": "OK", "addr:street": "East 26th Street South", "building": "detached"}}}, {"type": "Feature", "geometry": {"type": "Polygon", "coordinates": [[[-95.8516889, 36.1328832], [-95.8514676, 36.1328832], [-95.8514676, 36.1328068], [-95.8516889, 36.1328068], [-95.8516889, 36.1328832]]]}, "properties": {"osm_id": 1240050260, "building": "industrial", "name": "", "height": null, "height_m": null, "levels": null, "tract_id": "40143007313", "tract_name": "73.13", "tags": {"amenity": "car_wash", "building": "industrial"}}}, {"type": "Feature", "geometry": {"type": "Polygon", "coordinates": [[[-95.85142, 36.1331437], [-95.8513382, 36.1331444], [-95.8513355, 36.1329299], [-95.8514173, 36.1329292], [-95.85142, 36.1331437]]]}, "properties": {"osm_id": 1240050261, "building": "roof", "name": "", "height": null, "height_m": null, "levels": null, "tract_id": "40143007313", "tract_name": "73.13", "tags": {"building": "roof"}}}, {"type": "Feature", "geometry": {"type": "Polygon", "coordinates": [[[-95.8517781, 36.1332401], [-95.8517781, 36.1333062], [-95.8515072, 36.1333062], [-95.8515072, 36.1332401], [-95.8517781, 36.1332401]]]}, "properties": {"osm_id": 1240050262, "building": "roof", "name": "", "height": null, "height_m": null, "levels": null, "tract_id": "40143007313", "tract_name": "73.13", "tags": {"building": "roof"}}}, {"type": "Feature", "geometry": {"type": "Polygon", "coordinates": [[[-95.8517781, 36.1331155], [-95.8516251, 36.133117], [-95.8515749, 36.1330722], [-95.851573, 36.1329444], [-95.8517755, 36.1329424], [-95.8517781, 36.1331155]]]}, "properties": {"osm_id": 1240050263, "building": "retail", "name": "Joy Mart", "height": null, "height_m": null, "levels": null, "tract_id": "40143007313", "tract_name": "73.13", "tags": {"addr:city": "Tulsa", "addr:country": "US", "addr:housenumber": "2112", "addr:postcode": "74129", "addr:state": "OK", "addr:street": "South Garnett Road East", "building": "retail", "name": "Joy Mart", "shop": "convenience", "source": "INCOG"}}}, {"type": "Feature", "geometry": {"type": "Polygon", "coordinates": [[[-95.8521838, 36.1331637], [-95.8520389, 36.1331635], [-95.8520396, 36.132923], [-95.8521844, 36.1329233], [-95.8521838, 36.1331637]]]}, "properties": {"osm_id": 1240050264, "building": "yes", "name": "Pizza Hut", "height": null, "height_m": null, "levels": null, "tract_id": "40143007313", "tract_name": "73.13", "tags": {"addr:city": "Tulsa", "addr:country": "US", "addr:housenumber": "11122", "addr:postcode": "74129", "addr:state": "OK", "addr:street": "East 21st Street South", "amenity": "restaurant", "brand": "Pizza Hut", "brand:wikidata": "Q191615", "building": "yes", "cuisine": "pizza", "name": "Pizza Hut", "phone": "+1 918-234-1512", "website": "https://locations.pizzahut.com/ok/tulsa/11122-e-21st-st"}}}, {"type": "Feature", "geometry": {"type": "Polygon", "coordinates": [[[-95.8528174, 36.1332065], [-95.8527075, 36.1332076], [-95.8527042, 36.1329796], [-95.8528141, 36.1329785], [-95.8528174, 36.1332065]]]}, "properties": {"osm_id": 1240050265, "building": "yes", "name": "KFC", "height": null, "height_m": null, "levels": null, "tract_id": "40143007313", "tract_name": "73.13", "tags": {"addr:city": "Tulsa", "addr:country": "US", "addr:housenumber": "11104", "addr:postcode": "74129", "addr:state": "OK", "addr:street": "East 21st Street South", "alt_name": "Kentucky Fried Chicken", "amenity": "fast_food", "brand": "KFC", "brand:wikidata": "Q524757", "building": "yes", "cuisine": "chicken", "name": "KFC", "opening_hours": "10:30-22:00", "takeaway": "yes", "website": "https://locations.kfc.com/ok/tulsa/11104-e-21st-street/"}}}, {"type": "Feature", "geometry": {"type": "Polygon", "coordinates": [[[-95.8532956, 36.1330289], [-95.8531749, 36.1330296], [-95.8531736, 36.1328779], [-95.8532942, 36.1328772], [-95.8532956, 36.1330289]]]}, "properties": {"osm_id": 1240050266, "building": "retail", "name": "H&R Block", "height": null, "height_m": null, "levels": null, "tract_id": "40143007313", "tract_name": "73.13", "tags": {"brand": "H&R Block", "brand:wikidata": "Q5627799", "building": "retail", "name": "H&R Block", "office": "tax_advisor"}}}, {"type": "Feature", "geometry": {"type": "Polygon", "coordinates": [[[-95.8539782, 36.1331832], [-95.8539762, 36.1329222], [-95.854133, 36.1329214], [-95.854135, 36.1331824], [-95.8539782, 36.1331832]]]}, "properties": {"osm_id": 1240050267, "building": "yes", "name": "Meineke", "height": null, "height_m": null, "levels": null, "tract_id": "40143007313", "tract_name": "73.13", "tags": {"addr:city": "Tulsa", "addr:country": "US", "addr:housenumber": "10920", "addr:postcode": "74129", "addr:state": "OK", "addr:street": "East 21st Street South", "brand": "Meineke", "brand:wikidata": "Q6810159", "building": "yes", "name": "Meineke", "official_name": "Meineke Car Care Center", "shop": "car_repair"}}}, {"type": "Feature", "geometry": {"type": "Polygon", "coordinates": [[[-95.8565041, 36.1333143], [-95.8563271, 36.1333154], [-95.8563271, 36.1333113], [-95.8563265, 36.1332504], [-95.8563264, 36.1332438], [-95.8563895, 36.1332434], [-95.8563886, 36.1331504], [-95.8565026, 36.1331497], [-95.8565041, 36.1333143]]]}, "properties": {"osm_id": 1240050268, "building": "detached", "name": "Estetica Belanova", "height": null, "height_m": null, "levels": null, "tract_id": "40143007313", "tract_name": "73.13", "tags": {"addr:city": "Tulsa", "addr:country": "US", "addr:housenumber": "10720", "addr:postcode": "74129", "addr:state": "OK", "addr:street": "East 21st Street South", "building": "detached", "name": "Estetica Belanova", "shop": "hairdresser"}}}, {"type": "Feature", "geometry": {"type": "Polygon", "coordinates": [[[-95.8525592, 36.1323916], [-95.8515011, 36.1323947], [-95.8515025, 36.1326828], [-95.851827, 36.1326819], [-95.8518269, 36.1326569], [-95.8522385, 36.1326556], [-95.8522391, 36.1327803], [-95.8525609, 36.1327794], [-95.8525592, 36.1323916]]]}, "properties": {"osm_id": 1241434064, "building": "retail", "name": "", "height": null, "height_m": null, "levels": null, "tract_id": "40143007313", "tract_name": "73.13", "tags": {"building": "retail"}}}, {"type": "Feature", "geometry": {"type": "Polygon", "coordinates": [[[-95.8535738, 36.1320178], [-95.8535577, 36.13204], [-95.8535061, 36.1320157], [-95.8535222, 36.1319934], [-95.8535738, 36.1320178]]]}, "properties": {"osm_id": 1319771964, "building": "yes", "name": "", "height": null, "height_m": null, "levels": null, "tract_id": "40143007313", "tract_name": "73.13", "tags": {"building": "yes"}}}, {"type": "Feature", "geometry": {"type": "Polygon", "coordinates": [[[-95.8537234, 36.1319268], [-95.8536885, 36.1319258], [-95.8536912, 36.1318662], [-95.853726, 36.1318672], [-95.8537234, 36.1319268]]]}, "properties": {"osm_id": 1319771965, "building": "yes", "name": "", "height": null, "height_m": null, "levels": null, "tract_id": "40143007313", "tract_name": "73.13", "tags": {"building": "yes"}}}, {"type": "Feature", "geometry": {"type": "Polygon", "coordinates": [[[-95.8553448, 36.1323736], [-95.8551718, 36.1323736], [-95.8551718, 36.1321006], [-95.8553448, 36.1321006], [-95.8553448, 36.1323736]]]}, "properties": {"osm_id": 1319771966, "building": "commercial", "name": "", "height": null, "height_m": null, "levels": null, "tract_id": "40143007313", "tract_name": "73.13", "tags": {"addr:city": "Tulsa", "addr:country": "US", "addr:housenumber": "2134", "addr:postcode": "74129", "addr:state": "OK", "addr:street": "South 109th Avenue East", "building": "commercial", "shop": "yes", "source": "INCOG"}}}, {"type": "Feature", "geometry": {"type": "Polygon", "coordinates": [[[-95.8553555, 36.1320389], [-95.8551825, 36.1320389], [-95.8551825, 36.1318937], [-95.8553555, 36.1318937], [-95.8553555, 36.1320389]]]}, "properties": {"osm_id": 1319771967, "building": "commercial", "name": "", "height": null, "height_m": null, "levels": null, "tract_id": "40143007313", "tract_name": "73.13", "tags": {"addr:city": "Tulsa", "addr:country": "US", "addr:housenumber": "2140", "addr:postcode": "74129", "addr:state": "OK", "addr:street": "South 109th Avenue East", "building": "commercial", "shop": "yes", "source": "INCOG"}}}, {"type": "Feature", "geometry": {"type": "Polygon", "coordinates": [[[-95.8553461, 36.131858], [-95.8551731, 36.131858], [-95.8551731, 36.1317129], [-95.8553461, 36.1317129], [-95.8553461, 36.131858]]]}, "properties": {"osm_id": 1319771968, "building": "commercial", "name": "", "height": null, "height_m": null, "levels": null, "tract_id": "40143007313", "tract_name": "73.13", "tags": {"addr:city": "Tulsa", "addr:country": "US", "addr:housenumber": "2146", "addr:postcode": "74129", "addr:state": "OK", "addr:street": "South 109th Avenue East", "building": "commercial", "shop": "yes", "source": "INCOG"}}}, {"type": "Feature", "geometry": {"type": "Polygon", "coordinates": [[[-95.8553448, 36.1316533], [-95.8551718, 36.1316533], [-95.8551718, 36.1315081], [-95.8553448, 36.1315081], [-95.8553448, 36.1316533]]]}, "properties": {"osm_id": 1319771969, "building": "commercial", "name": "", "height": null, "height_m": null, "levels": null, "tract_id": "40143007313", "tract_name": "73.13", "tags": {"addr:city": "Tulsa", "addr:country": "US", "addr:housenumber": "2150", "addr:postcode": "74129", "addr:state": "OK", "addr:street": "South 109th Avenue East", "building": "commercial", "shop": "yes", "source": "INCOG"}}}, {"type": "Feature", "geometry": {"type": "Polygon", "coordinates": [[[-95.8553501, 36.1314713], [-95.8551771, 36.1314713], [-95.8551771, 36.1313262], [-95.8553501, 36.1313262], [-95.8553501, 36.1314713]]]}, "properties": {"osm_id": 1319771970, "building": "commercial", "name": "", "height": null, "height_m": null, "levels": null, "tract_id": "40143007313", "tract_name": "73.13", "tags": {"addr:city": "Tulsa", "addr:country": "US", "addr:housenumber": "2158", "addr:postcode": "74129", "addr:state": "OK", "addr:street": "South 109th Avenue East", "building": "commercial", "shop": "yes", "source": "INCOG"}}}, {"type": "Feature", "geometry": {"type": "Polygon", "coordinates": [[[-95.8553501, 36.1312709], [-95.8551771, 36.1312709], [-95.8551771, 36.1311258], [-95.8553501, 36.1311258], [-95.8553501, 36.1312709]]]}, "properties": {"osm_id": 1319771971, "building": "commercial", "name": "", "height": null, "height_m": null, "levels": null, "tract_id": "40143007313", "tract_name": "73.13", "tags": {"addr:city": "Tulsa", "addr:country": "US", "addr:housenumber": "2162", "addr:postcode": "74129", "addr:state": "OK", "addr:street": "South 109th Avenue East", "building": "commercial", "shop": "yes", "source": "INCOG"}}}, {"type": "Feature", "geometry": {"type": "Polygon", "coordinates": [[[-95.8553501, 36.1310868], [-95.8551771, 36.1310868], [-95.8551771, 36.1309416], [-95.8553501, 36.1309416], [-95.8553501, 36.1310868]]]}, "properties": {"osm_id": 1319771972, "building": "commercial", "name": "", "height": null, "height_m": null, "levels": null, "tract_id": "40143007313", "tract_name": "73.13", "tags": {"addr:city": "Tulsa", "addr:country": "US", "addr:housenumber": "2168", "addr:postcode": "74129", "addr:state": "OK", "addr:street": "South 109th Avenue East", "building": "commercial", "shop": "yes", "source": "INCOG"}}}, {"type": "Feature", "geometry": {"type": "Polygon", "coordinates": [[[-95.8553474, 36.1308853], [-95.8551744, 36.1308853], [-95.8551744, 36.1307402], [-95.8553474, 36.1307402], [-95.8553474, 36.1308853]]]}, "properties": {"osm_id": 1319771973, "building": "commercial", "name": "", "height": null, "height_m": null, "levels": null, "tract_id": "40143007313", "tract_name": "73.13", "tags": {"addr:city": "Tulsa", "addr:country": "US", "addr:housenumber": "2172", "addr:postcode": "74129", "addr:state": "OK", "addr:street": "South 109th Avenue East", "building": "commercial", "shop": "yes", "source": "INCOG"}}}, {"type": "Feature", "geometry": {"type": "Polygon", "coordinates": [[[-95.8553474, 36.1307012], [-95.8551744, 36.1307012], [-95.8551744, 36.130556], [-95.8553474, 36.130556], [-95.8553474, 36.1307012]]]}, "properties": {"osm_id": 1319771974, "building": "commercial", "name": "", "height": null, "height_m": null, "levels": null, "tract_id": "40143007313", "tract_name": "73.13", "tags": {"addr:city": "Tulsa", "addr:country": "US", "addr:housenumber": "2178", "addr:postcode": "74129", "addr:state": "OK", "addr:street": "South 109th Avenue East", "building": "commercial", "shop": "yes", "source": "INCOG"}}}, {"type": "Feature", "geometry": {"type": "Polygon", "coordinates": [[[-95.8553481, 36.1304965], [-95.8551751, 36.1304965], [-95.8551751, 36.1303513], [-95.8553481, 36.1303513], [-95.8553481, 36.1304965]]]}, "properties": {"osm_id": 1319771975, "building": "commercial", "name": "", "height": null, "height_m": null, "levels": null, "tract_id": "40143007313", "tract_name": "73.13", "tags": {"addr:city": "Tulsa", "addr:country": "US", "addr:housenumber": "2184", "addr:postcode": "74129", "addr:state": "OK", "addr:street": "South 109th Avenue East", "building": "commercial", "shop": "yes", "source": "INCOG"}}}, {"type": "Feature", "geometry": {"type": "Polygon", "coordinates": [[[-95.8553521, 36.1302907], [-95.8551782, 36.1302918], [-95.8551762, 36.1300997], [-95.8552898, 36.130099], [-95.8552891, 36.1300354], [-95.8553495, 36.130035], [-95.8553521, 36.1302907]]]}, "properties": {"osm_id": 1319771976, "building": "commercial", "name": "", "height": null, "height_m": null, "levels": null, "tract_id": "40143007313", "tract_name": "73.13", "tags": {"addr:city": "Tulsa", "addr:country": "US", "addr:housenumber": "2190", "addr:postcode": "74129", "addr:state": "OK", "addr:street": "South 109th Avenue East", "building": "commercial", "shop": "yes", "source": "INCOG"}}}, {"type": "Feature", "geometry": {"type": "Polygon", "coordinates": [[[-95.8547325, 36.1192945], [-95.8546006, 36.1192949], [-95.8546027, 36.1197658], [-95.8541909, 36.119767], [-95.8541907, 36.1197383], [-95.8540575, 36.1197387], [-95.8540583, 36.1199031], [-95.8547352, 36.1199012], [-95.8547325, 36.1192945]]]}, "properties": {"osm_id": 1380466017, "building": "retail", "name": "", "height": null, "height_m": null, "levels": null, "tract_id": "40143007313", "tract_name": "73.13", "tags": {"building": "retail"}}}, {"type": "Feature", "geometry": {"type": "Polygon", "coordinates": [[[-95.8532461, 36.1307726], [-95.8532442, 36.1312208], [-95.8519294, 36.1312173], [-95.8519312, 36.1307691], [-95.8532461, 36.1307726]]]}, "properties": {"osm_id": 1385608910, "building": "yes", "name": "", "height": null, "height_m": null, "levels": null, "tract_id": "40143007313", "tract_name": "73.13", "tags": {"addr:city": "Tulsa", "addr:country": "US", "addr:housenumber": "2160", "addr:postcode": "74129", "addr:state": "OK", "addr:street": "South Garnett Road East", "building": "yes", "source": "INCOG"}}}, {"type": "Feature", "geometry": {"type": "Polygon", "coordinates": [[[-95.8516145, 36.1195328], [-95.8514515, 36.1195328], [-95.8514515, 36.1194505], [-95.8516145, 36.1194505], [-95.8516145, 36.1195328]]]}, "properties": {"osm_id": 1385663234, "building": "retail", "name": "Church's Chicken", "height": null, "height_m": null, "levels": null, "tract_id": "40143007313", "tract_name": "73.13", "tags": {"addr:city": "Tulsa", "addr:country": "US", "addr:housenumber": "3036", "addr:postcode": "74129", "addr:state": "OK", "addr:street": "South Garnett Road East", "amenity": "fast_food", "brand": "Church's Chicken", "brand:wikidata": "Q1089932", "building": "retail", "cuisine": "chicken", "name": "Church's Chicken", "opening_hours": "Su-Th 10:00-23:00, Fr-Sa 10:00-24:00", "phone": "+1 918 628 1497", "takeaway": "yes", "website": "https://locations.churchs.com/ok/tulsa/3036-s.-garnett-road"}}}, {"type": "Feature", "geometry": {"type": "Polygon", "coordinates": [[[-95.8533053, 36.1192711], [-95.8529069, 36.119273], [-95.8529104, 36.1197517], [-95.8522743, 36.1200648], [-95.8516869, 36.1200658], [-95.8516856, 36.1203118], [-95.8523601, 36.1203128], [-95.8530806, 36.1199561], [-95.8530803, 36.11992], [-95.85331, 36.1199189], [-95.8533053, 36.1192711]]]}, "properties": {"osm_id": 1385663235, "building": "retail", "name": "", "height": null, "height_m": null, "levels": null, "tract_id": "40143007313", "tract_name": "73.13", "tags": {"building": "retail"}}}, {"type": "Feature", "geometry": {"type": "Polygon", "coordinates": [[[-95.8516668, 36.1319371], [-95.8514703, 36.1319382], [-95.8514701, 36.1319132], [-95.851451, 36.1319133], [-95.8514501, 36.1318056], [-95.8514692, 36.1318055], [-95.851469, 36.1317797], [-95.851542, 36.1317793], [-95.8515421, 36.1317861], [-95.8516655, 36.1317854], [-95.8516656, 36.1317919], [-95.8516916, 36.1317918], [-95.8517165, 36.1318071], [-95.8517168, 36.1318466], [-95.8517237, 36.1318466], [-95.8517241, 36.131895], [-95.8516664, 36.1318954], [-95.8516668, 36.1319371]]]}, "properties": {"osm_id": 1385908661, "building": "yes", "name": "", "height": null, "height_m": null, "levels": null, "tract_id": "40143007313", "tract_name": "73.13", "tags": {"addr:city": "Tulsa", "addr:country": "US", "addr:housenumber": "2140", "addr:postcode": "74129", "addr:state": "OK", "addr:street": "South Garnett Road East", "building": "yes"}}}, {"type": "Feature", "geometry": {"type": "Polygon", "coordinates": [[[-95.8517063, 36.1309349], [-95.8515178, 36.1309378], [-95.8515118, 36.1306884], [-95.8517003, 36.1306855], [-95.8517063, 36.1309349]]]}, "properties": {"osm_id": 1385911106, "building": "retail", "name": "", "height": null, "height_m": null, "levels": null, "tract_id": "40143007313", "tract_name": "73.13", "tags": {"addr:city": "Tulsa", "addr:country": "US", "addr:housenumber": "2170", "addr:postcode": "74129", "addr:state": "OK", "addr:street": "South Garnett Road East", "building": "retail"}}}, {"type": "Feature", "geometry": {"type": "Polygon", "coordinates": [[[-95.8517768, 36.1306329], [-95.8514576, 36.1306351], [-95.8514559, 36.1304791], [-95.8516909, 36.1304775], [-95.8516904, 36.1304261], [-95.8517746, 36.1304255], [-95.8517768, 36.1306329]]]}, "properties": {"osm_id": 1385911107, "building": "yes", "name": "", "height": null, "height_m": null, "levels": null, "tract_id": "40143007313", "tract_name": "73.13", "tags": {"addr:city": "Tulsa", "addr:country": "US", "addr:housenumber": "2182", "addr:postcode": "74129", "addr:state": "OK", "addr:street": "South Garnett Road East", "building": "yes"}}}]}