{"type": "FeatureCollection", "features": [{"type": "Feature", "geometry": {"type": "Polygon", "coordinates": [[[-95.7838138, 36.0606666], [-95.7834051, 36.0603354], [-95.7836134, 36.060164], [-95.7837306, 36.0601655], [-95.783817, 36.0602326], [-95.7838138, 36.0606666]]]}, "properties": {"osm_id": 180510622, "building": "commercial", "name": "Oklahoma AgCredit", "height": null, "height_m": null, "levels": null, "tract_id": "40143007402", "tract_name": "74.02", "tags": {"addr:city": "Broken Arrow", "addr:country": "US", "addr:housenumber": "601", "addr:postcode": "74012", "addr:state": "OK", "addr:street": "East Kenosha Street", "amenity": "bank", "building": "commercial", "name": "Oklahoma AgCredit"}}}, {"type": "Feature", "geometry": {"type": "Polygon", "coordinates": [[[-95.7885254, 36.0481069], [-95.7885256, 36.048144], [-95.7885335, 36.048144], [-95.7885338, 36.0482148], [-95.7885497, 36.0482148], [-95.7885498, 36.048239], [-95.7885625, 36.048239], [-95.7885625, 36.0482534], [-95.78863, 36.0482532], [-95.7886299, 36.0482426], [-95.7886484, 36.0482425], [-95.7886486, 36.048291], [-95.7887191, 36.0482908], [-95.7887182, 36.0480548], [-95.788651, 36.048055], [-95.7886513, 36.0481277], [-95.7886191, 36.0481278], [-95.788619, 36.0481044], [-95.7885904, 36.0481045], [-95.7885901, 36.0480447], [-95.7885206, 36.0480449], [-95.7885209, 36.048107], [-95.7885254, 36.0481069]]]}, "properties": {"osm_id": 230913397, "building": "house", "name": "", "height": null, "height_m": null, "levels": null, "tract_id": "40143007402", "tract_name": "74.02", "tags": {"addr:city": "Broken Arrow", "addr:housenumber": "219", "addr:postcode": "74012", "addr:state": "OK", "addr:street": "East Fort Worth Street", "building": "house"}}}, {"type": "Feature", "geometry": {"type": "Polygon", "coordinates": [[[-95.7837108, 36.0583791], [-95.7806666, 36.0583824], [-95.7806654, 36.0577081], [-95.7811101, 36.0577076], [-95.7811099, 36.0576338], [-95.7834948, 36.0576311], [-95.7834955, 36.0580598], [-95.7835815, 36.0580597], [-95.7835819, 36.0582677], [-95.7837106, 36.0582676], [-95.7837108, 36.0583791]]]}, "properties": {"osm_id": 255041765, "building": "industrial", "name": "FlightSafety", "height": null, "height_m": null, "levels": null, "tract_id": "40143007402", "tract_name": "74.02", "tags": {"addr:city": "Broken Arrow", "addr:country": "US", "addr:housenumber": "600", "addr:postcode": "74012", "addr:state": "OK", "addr:street": "North 9th Street East", "building": "industrial", "name": "FlightSafety"}}}, {"type": "Feature", "geometry": {"type": "Polygon", "coordinates": [[[-95.7815133, 36.0595894], [-95.7815005, 36.0595871], [-95.7814881, 36.0595836], [-95.7814765, 36.0595788], [-95.7814656, 36.0595729], [-95.7814557, 36.0595659], [-95.7814471, 36.059558], [-95.7814397, 36.0595492], [-95.7814337, 36.0595398], [-95.7814292, 36.0595299], [-95.7814263, 36.0595195], [-95.781425, 36.059509], [-95.7814254, 36.0594984], [-95.7814274, 36.0594879], [-95.781431, 36.0594778], [-95.7814362, 36.059468], [-95.7814429, 36.0594589], [-95.7814509, 36.0594505], [-95.7814601, 36.059443], [-95.7814704, 36.0594365], [-95.7814817, 36.0594311], [-95.7814937, 36.0594268], [-95.7815062, 36.0594239], [-95.7815192, 36.0594222], [-95.7815323, 36.0594218], [-95.7815453, 36.0594228], [-95.7815581, 36.0594251], [-95.7815704, 36.0594286], [-95.7815821, 36.0594334], [-95.781593, 36.0594393], [-95.7816028, 36.0594463], [-95.7816115, 36.0594542], [-95.7816189, 36.059463], [-95.7816249, 36.0594724], [-95.7816294, 36.0594823], [-95.7816323, 36.0594927], [-95.7816335, 36.0595032], [-95.7816332, 36.0595138], [-95.7816312, 36.0595243], [-95.7816275, 36.0595344], [-95.7816224, 36.0595442], [-95.7816157, 36.0595533], [-95.7816077, 36.0595617], [-95.7815985, 36.0595692], [-95.7815882, 36.0595757], [-95.7815769, 36.0595811], [-95.7815649, 36.0595854], [-95.7815523, 36.0595883], [-95.7815394, 36.05959], [-95.7815263, 36.0595904], [-95.7815133, 36.0595894]]]}, "properties": {"osm_id": 263303860, "building": "storage_tank", "name": "", "height": null, "height_m": null, "levels": null, "tract_id": "40143007402", "tract_name": "74.02", "tags": {"addr:city": "Broken Arrow", "building": "storage_tank", "content": "water", "man_made": "storage_tank", "operator": "City of Broken Arrow", "operator:type": "government", "operator:wikidata": "Q835810"}}}, {"type": "Feature", "geometry": {"type": "Polygon", "coordinates": [[[-95.7813337, 36.0594368], [-95.7813256, 36.0594499], [-95.7813156, 36.0594621], [-95.7813038, 36.0594732], [-95.7812903, 36.059483], [-95.7812754, 36.0594914], [-95.7812594, 36.0594982], [-95.7812424, 36.0595033], [-95.7812248, 36.0595067], [-95.7812067, 36.0595082], [-95.7811886, 36.0595079], [-95.7811707, 36.0595058], [-95.7811532, 36.0595018], [-95.7811365, 36.0594962], [-95.7811208, 36.0594889], [-95.7811064, 36.05948], [-95.7810934, 36.0594698], [-95.7810821, 36.0594583], [-95.7810727, 36.0594457], [-95.7810654, 36.0594324], [-95.7810601, 36.0594183], [-95.7810571, 36.0594039], [-95.7810563, 36.0593893], [-95.7810578, 36.0593747], [-95.7810616, 36.0593603], [-95.7810675, 36.0593465], [-95.7810756, 36.0593334], [-95.7810856, 36.0593212], [-95.7810974, 36.0593101], [-95.7811109, 36.0593002], [-95.7811258, 36.0592919], [-95.7811418, 36.0592851], [-95.7811588, 36.05928], [-95.7811764, 36.0592766], [-95.7811945, 36.0592751], [-95.7812126, 36.0592754], [-95.7812305, 36.0592775], [-95.781248, 36.0592814], [-95.7812647, 36.0592871], [-95.7812804, 36.0592944], [-95.7812948, 36.0593033], [-95.7813078, 36.0593135], [-95.7813191, 36.059325], [-95.7813285, 36.0593375], [-95.7813358, 36.0593509], [-95.7813411, 36.0593649], [-95.7813441, 36.0593794], [-95.7813449, 36.059394], [-95.7813434, 36.0594086], [-95.7813396, 36.0594229], [-95.7813337, 36.0594368]]]}, "properties": {"osm_id": 263303861, "building": "storage_tank", "name": "", "height": null, "height_m": null, "levels": null, "tract_id": "40143007402", "tract_name": "74.02", "tags": {"addr:city": "Broken Arrow", "building": "storage_tank", "content": "water", "man_made": "storage_tank", "operator": "City of Broken Arrow", "operator:type": "government", "operator:wikidata": "Q835810", "source": "local_knowledge"}}}, {"type": "Feature", "geometry": {"type": "Polygon", "coordinates": [[[-95.7818472, 36.059611], [-95.78184, 36.0596197], [-95.7818315, 36.0596275], [-95.7818218, 36.0596344], [-95.7818111, 36.0596403], [-95.7817996, 36.059645], [-95.7817875, 36.0596486], [-95.7817749, 36.0596508], [-95.7817621, 36.0596518], [-95.7817492, 36.0596515], [-95.7817364, 36.0596499], [-95.781724, 36.059647], [-95.7817122, 36.0596429], [-95.7817011, 36.0596376], [-95.7816909, 36.0596312], [-95.7816817, 36.0596238], [-95.7816738, 36.0596156], [-95.7816672, 36.0596066], [-95.7816621, 36.059597], [-95.7816585, 36.059587], [-95.7816565, 36.0595767], [-95.781656, 36.0595663], [-95.7816572, 36.0595559], [-95.78166, 36.0595457], [-95.7816644, 36.0595359], [-95.7816702, 36.0595266], [-95.7816775, 36.059518], [-95.781686, 36.0595101], [-95.7816957, 36.0595032], [-95.7817063, 36.0594974], [-95.7817178, 36.0594926], [-95.78173, 36.0594891], [-95.7817426, 36.0594868], [-95.7817554, 36.0594858], [-95.7817683, 36.0594861], [-95.7817811, 36.0594877], [-95.7817934, 36.0594906], [-95.7818053, 36.0594948], [-95.7818164, 36.0595001], [-95.7818266, 36.0595065], [-95.7818357, 36.0595138], [-95.7818437, 36.0595221], [-95.7818502, 36.059531], [-95.7818554, 36.0595406], [-95.781859, 36.0595506], [-95.781861, 36.0595609], [-95.7818614, 36.0595713], [-95.7818602, 36.0595817], [-95.7818574, 36.0595919], [-95.7818531, 36.0596017], [-95.7818472, 36.059611]]]}, "properties": {"osm_id": 263303862, "building": "storage_tank", "name": "", "height": null, "height_m": null, "levels": null, "tract_id": "40143007402", "tract_name": "74.02", "tags": {"addr:city": "Broken Arrow", "building": "storage_tank", "content": "water", "man_made": "storage_tank", "operator": "City of Broken Arrow", "operator:type": "government", "operator:wikidata": "Q835810"}}}, {"type": "Feature", "geometry": {"type": "Polygon", "coordinates": [[[-95.7961912, 36.0602888], [-95.7966136, 36.0602866], [-95.7966144, 36.0603906], [-95.7965248, 36.060391], [-95.7965248, 36.0604003], [-95.7963029, 36.0604014], [-95.7963028, 36.0603922], [-95.796192, 36.0603927], [-95.7961912, 36.0602888]]]}, "properties": {"osm_id": 483129111, "building": "retail", "name": "QuikTrip", "height": null, "height_m": null, "levels": null, "tract_id": "40143007402", "tract_name": "74.02", "tags": {"addr:housenumber": "501", "addr:postcode": "74012", "addr:street": "West Kenosha Street", "brand": "QuikTrip", "brand:wikidata": "Q7271953", "building": "retail", "check_date": "2023-07-16", "name": "QuikTrip", "opening_hours": "24/7", "shop": "convenience", "short_name": "QT", "wheelchair": "yes"}}}, {"type": "Feature", "geometry": {"type": "Polygon", "coordinates": [[[-95.7967665, 36.0606498], [-95.7960716, 36.0606529], [-95.796071, 36.0605631], [-95.7967659, 36.0605599], [-95.7967665, 36.0606498]]]}, "properties": {"osm_id": 483129112, "building": "roof", "name": "QuikTrip", "height": null, "height_m": null, "levels": null, "tract_id": "40143007402", "tract_name": "74.02", "tags": {"amenity": "fuel", "brand": "QuikTrip", "brand:wikidata": "Q7271953", "building": "roof", "check_date": "2023-07-16", "name": "QuikTrip", "opening_hours": "24/7", "short_name": "QT", "wheelchair": "yes"}}}, {"type": "Feature", "geometry": {"type": "Polygon", "coordinates": [[[-95.7834422, 36.0505511], [-95.7834156, 36.050589], [-95.7833616, 36.0505894], [-95.7833343, 36.0505518], [-95.7833609, 36.0505138], [-95.7834148, 36.0505135], [-95.7834422, 36.0505511]]]}, "properties": {"osm_id": 504236794, "building": "roof", "name": "", "height": null, "height_m": null, "levels": null, "tract_id": "40143007402", "tract_name": "74.02", "tags": {"amenity": "shelter", "building": "roof", "shelter_type": "picnic_shelter"}}}, {"type": "Feature", "geometry": {"type": "Polygon", "coordinates": [[[-95.7938534, 36.0532753], [-95.7938521, 36.0531379], [-95.7938356, 36.0531278], [-95.7938557, 36.0531122], [-95.7938391, 36.0530977], [-95.7938532, 36.0530858], [-95.7938379, 36.053071], [-95.7938545, 36.0530583], [-95.7938443, 36.0530468], [-95.7938541, 36.0530391], [-95.7938529, 36.0529087], [-95.7938683, 36.0528971], [-95.793764, 36.0528099], [-95.7936759, 36.052882], [-95.7936856, 36.05289], [-95.7936868, 36.0529164], [-95.7936423, 36.0529164], [-95.7935927, 36.0529163], [-95.793607, 36.0529281], [-95.7936, 36.0529338], [-95.7935177, 36.0528655], [-95.7935179, 36.0530361], [-95.7935269, 36.0530431], [-95.793535, 36.0530493], [-95.793518, 36.0530636], [-95.7935351, 36.0530769], [-95.7935161, 36.0530904], [-95.7935332, 36.0531041], [-95.793518, 36.0531148], [-95.793518, 36.0531423], [-95.7934966, 36.0531646], [-95.7937155, 36.0531628], [-95.7938534, 36.0532753]]]}, "properties": {"osm_id": 529508396, "building": "yes", "name": "Broken Arrow Library", "height": null, "height_m": null, "levels": null, "tract_id": "40143007402", "tract_name": "74.02", "tags": {"amenity": "library", "building": "yes", "name": "Broken Arrow Library"}}}, {"type": "Feature", "geometry": {"type": "Polygon", "coordinates": [[[-95.7965874, 36.058973], [-95.7965733, 36.0590055], [-95.7965349, 36.0590205], [-95.7964946, 36.0590092], [-95.796476, 36.0589781], [-95.7964901, 36.0589455], [-95.7965286, 36.0589305], [-95.7965689, 36.0589419], [-95.7965874, 36.058973]]]}, "properties": {"osm_id": 544184504, "building": "roof", "name": "", "height": null, "height_m": null, "levels": null, "tract_id": "40143007402", "tract_name": "74.02", "tags": {"building": "roof", "description": "gazebo", "tourism": "picnic_site"}}}, {"type": "Feature", "geometry": {"type": "Polygon", "coordinates": [[[-95.7912765, 36.0510668], [-95.790962, 36.0510661], [-95.7909613, 36.0512564], [-95.7909854, 36.0512758], [-95.7914333, 36.0512775], [-95.7914344, 36.0510842], [-95.791313, 36.0510838], [-95.7913127, 36.0511361], [-95.7912762, 36.051136], [-95.7912765, 36.0510668]]]}, "properties": {"osm_id": 546858901, "building": "yes", "name": "Main Street Tavern", "height": null, "height_m": null, "levels": null, "tract_id": "40143007402", "tract_name": "74.02", "tags": {"addr:housenumber": "200", "addr:postcode": "74012", "addr:street": "South Main Street", "air_conditioning": "yes", "amenity": "restaurant", "building": "yes", "check_date": "2024-03-05", "cuisine": "burger", "name": "Main Street Tavern", "opening_hours": "Su-Th 11:00-00:00; Fr-Sa 11:00-02:00", "operator": "Scarpa Restaurant Concepts", "payment:credit_cards": "yes", "payment:debit_cards": "yes", "phone": "+1 918 872 1414"}}}, {"type": "Feature", "geometry": {"type": "Polygon", "coordinates": [[[-95.7912769, 36.0509319], [-95.7909624, 36.0509312], [-95.790962, 36.0510661], [-95.7912765, 36.0510668], [-95.7912769, 36.0509319]]]}, "properties": {"osm_id": 546858904, "building": "yes", "name": "", "height": null, "height_m": null, "levels": null, "tract_id": "40143007402", "tract_name": "74.02", "tags": {"addr:housenumber": "210", "addr:postcode": "74012", "addr:street": "South Main Street", "building": "yes"}}}, {"type": "Feature", "geometry": {"type": "Polygon", "coordinates": [[[-95.7912769, 36.0509319], [-95.7913118, 36.0509314], [-95.79131, 36.0507263], [-95.7909684, 36.0507269], [-95.7909624, 36.0509312], [-95.7912769, 36.0509319]]]}, "properties": {"osm_id": 546858906, "building": "yes", "name": "", "height": null, "height_m": null, "levels": null, "tract_id": "40143007402", "tract_name": "74.02", "tags": {"addr:postcode": "74012", "addr:street": "South Main Street", "building": "yes"}}}, {"type": "Feature", "geometry": {"type": "Polygon", "coordinates": [[[-95.7909678, 36.0505226], [-95.7914098, 36.0505248], [-95.7914428, 36.0505247], [-95.791443, 36.0505897], [-95.791366, 36.0505898], [-95.790968, 36.0505906], [-95.7909678, 36.0505226]]]}, "properties": {"osm_id": 546858908, "building": "retail", "name": "Cohesion Co-Working", "height": null, "height_m": null, "levels": null, "tract_id": "40143007402", "tract_name": "74.02", "tags": {"addr:postcode": "74012", "addr:street": "South Main Street", "building": "retail", "name": "Cohesion Co-Working"}}}, {"type": "Feature", "geometry": {"type": "Polygon", "coordinates": [[[-95.7913661, 36.0506363], [-95.7914092, 36.0506362], [-95.7914095, 36.0507261], [-95.79131, 36.0507263], [-95.7909684, 36.0507269], [-95.7909681, 36.0506392], [-95.7913661, 36.0506363]]]}, "properties": {"osm_id": 546858910, "building": "retail", "name": "In The Raw", "height": null, "height_m": null, "levels": null, "tract_id": "40143007402", "tract_name": "74.02", "tags": {"addr:housenumber": "216", "addr:postcode": "74012", "addr:street": "South Main Street", "amenity": "restaurant", "building": "retail", "cuisine": "sushi", "name": "In The Raw", "opening_hours": "Su-Th 11:00-22:00; Fr-Sa 11:00-23:00", "operator": "Scarpa Restaurant Concepts", "phone": "+1 918 893 6111"}}}, {"type": "Feature", "geometry": {"type": "Polygon", "coordinates": [[[-95.7906228, 36.0512792], [-95.7902857, 36.0512772], [-95.7902841, 36.0512088], [-95.7906229, 36.0512111], [-95.7906228, 36.0512792]]]}, "properties": {"osm_id": 546859675, "building": "retail", "name": "", "height": null, "height_m": null, "levels": null, "tract_id": "40143007402", "tract_name": "74.02", "tags": {"addr:housenumber": "201", "addr:postcode": "74012", "addr:street": "South Main Street", "building": "retail"}}}, {"type": "Feature", "geometry": {"type": "Polygon", "coordinates": [[[-95.7906229, 36.0512111], [-95.7906216, 36.0511403], [-95.7904479, 36.0511397], [-95.7902854, 36.0511365], [-95.7902841, 36.0512088], [-95.7906229, 36.0512111]]]}, "properties": {"osm_id": 546859676, "building": "yes", "name": "", "height": null, "height_m": null, "levels": null, "tract_id": "40143007402", "tract_name": "74.02", "tags": {"addr:postcode": "74012", "addr:street": "South Main Street", "building": "yes"}}}, {"type": "Feature", "geometry": {"type": "Polygon", "coordinates": [[[-95.7906216, 36.0511403], [-95.7906212, 36.051073], [-95.7904483, 36.051073], [-95.7904479, 36.0511397], [-95.7906216, 36.0511403]]]}, "properties": {"osm_id": 546859678, "building": "yes", "name": "Nouveau Chocolates", "height": null, "height_m": null, "levels": null, "tract_id": "40143007402", "tract_name": "74.02", "tags": {"addr:city": "Broken Arrow", "addr:housenumber": "205", "addr:postcode": "74012", "addr:street": "South Main Street", "building": "yes", "name": "Nouveau Chocolates", "phone": "+1 918 258 2877", "shop": "chocolate", "website": "https://www.nouveauchocolate.com/"}}}, {"type": "Feature", "geometry": {"type": "Polygon", "coordinates": [[[-95.7906212, 36.051073], [-95.7906213, 36.0509309], [-95.7903495, 36.0509301], [-95.7903495, 36.0510001], [-95.7903503, 36.0510703], [-95.7904483, 36.051073], [-95.7906212, 36.051073]]]}, "properties": {"osm_id": 546859679, "building": "retail", "name": "", "height": null, "height_m": null, "levels": null, "tract_id": "40143007402", "tract_name": "74.02", "tags": {"addr:postcode": "74012", "addr:street": "South Main Street", "building": "retail"}}}, {"type": "Feature", "geometry": {"type": "Polygon", "coordinates": [[[-95.7903495, 36.0510001], [-95.7902143, 36.0509975], [-95.7902142, 36.0509295], [-95.79028, 36.0509301], [-95.7903495, 36.0509301], [-95.7903495, 36.0510001]]]}, "properties": {"osm_id": 546859680, "building": "yes", "name": "", "height": null, "height_m": null, "levels": null, "tract_id": "40143007402", "tract_name": "74.02", "tags": {"building": "yes"}}}, {"type": "Feature", "geometry": {"type": "Polygon", "coordinates": [[[-95.7906213, 36.0509309], [-95.790622, 36.0507935], [-95.7902808, 36.0507928], [-95.79028, 36.0509301], [-95.7903495, 36.0509301], [-95.7906213, 36.0509309]]]}, "properties": {"osm_id": 546859682, "building": "yes", "name": "", "height": null, "height_m": null, "levels": null, "tract_id": "40143007402", "tract_name": "74.02", "tags": {"addr:postcode": "74012", "addr:street": "South Main Street", "building": "yes"}}}, {"type": "Feature", "geometry": {"type": "Polygon", "coordinates": [[[-95.790622, 36.0507935], [-95.7906226, 36.0507244], [-95.7903696, 36.050724], [-95.7902458, 36.0507238], [-95.790246, 36.0507928], [-95.7902808, 36.0507928], [-95.790622, 36.0507935]]]}, "properties": {"osm_id": 546859683, "building": "retail", "name": "", "height": null, "height_m": null, "levels": null, "tract_id": "40143007402", "tract_name": "74.02", "tags": {"addr:postcode": "74012", "addr:street": "South Main Street", "building": "retail"}}}, {"type": "Feature", "geometry": {"type": "Polygon", "coordinates": [[[-95.7906226, 36.0507244], [-95.7906251, 36.050656], [-95.7903684, 36.0506548], [-95.7903696, 36.050724], [-95.7906226, 36.0507244]]]}, "properties": {"osm_id": 546859684, "building": "yes", "name": "", "height": null, "height_m": null, "levels": null, "tract_id": "40143007402", "tract_name": "74.02", "tags": {"addr:postcode": "74012", "addr:street": "South Main Street", "building": "yes"}}}, {"type": "Feature", "geometry": {"type": "Polygon", "coordinates": [[[-95.7906251, 36.050656], [-95.7906231, 36.050523], [-95.7904512, 36.0505228], [-95.7903663, 36.0505202], [-95.790193, 36.0505183], [-95.7901922, 36.0505846], [-95.7901611, 36.0505835], [-95.7901603, 36.0506548], [-95.7903684, 36.0506548], [-95.7906251, 36.050656]]]}, "properties": {"osm_id": 546859685, "building": "yes", "name": "", "height": null, "height_m": null, "levels": null, "tract_id": "40143007402", "tract_name": "74.02", "tags": {"addr:postcode": "74012", "addr:street": "South Main Street", "building": "yes"}}}, {"type": "Feature", "geometry": {"type": "Polygon", "coordinates": [[[-95.7906231, 36.050523], [-95.7906232, 36.0504516], [-95.7904516, 36.0504515], [-95.7904512, 36.0505228], [-95.7906231, 36.050523]]]}, "properties": {"osm_id": 546859687, "building": "yes", "name": "NobiliTea", "height": null, "height_m": null, "levels": null, "tract_id": "40143007402", "tract_name": "74.02", "tags": {"addr:housenumber": "227", "addr:postcode": "74012", "addr:street": "South Main Street", "building": "yes", "name": "NobiliTea", "shop": "tea"}}}, {"type": "Feature", "geometry": {"type": "Polygon", "coordinates": [[[-95.7903663, 36.0505202], [-95.7903685, 36.0504476], [-95.7902164, 36.0504473], [-95.7901931, 36.0504697], [-95.790193, 36.0505183], [-95.7903663, 36.0505202]]]}, "properties": {"osm_id": 546859688, "building": "yes", "name": "", "height": null, "height_m": null, "levels": null, "tract_id": "40143007402", "tract_name": "74.02", "tags": {"building": "yes"}}}, {"type": "Feature", "geometry": {"type": "Polygon", "coordinates": [[[-95.7902857, 36.0512772], [-95.7902849, 36.0512844], [-95.7901557, 36.051284], [-95.7901573, 36.0512078], [-95.7902841, 36.0512088], [-95.7902857, 36.0512772]]]}, "properties": {"osm_id": 546860168, "building": "yes", "name": "Studio Records", "height": null, "height_m": null, "levels": null, "tract_id": "40143007402", "tract_name": "74.02", "tags": {"addr:city": "Broken Arrow", "addr:housenumber": "111", "addr:postcode": "74012", "addr:street": "East Commercial Street", "building": "yes", "name": "Studio Records", "opening_hours": "Mo-Th 11:00-21:00; Fr-Sa 11:00-22:00; Su 12:00-19:00", "phone": "+1 918 455 8952", "shop": "music"}}}, {"type": "Feature", "geometry": {"type": "Polygon", "coordinates": [[[-95.7906283, 36.0498697], [-95.7906282, 36.0500108], [-95.7905388, 36.0500107], [-95.7905387, 36.0500677], [-95.7904731, 36.0500677], [-95.7904732, 36.0500098], [-95.7903846, 36.0500098], [-95.7903847, 36.0498696], [-95.7906283, 36.0498697]]]}, "properties": {"osm_id": 546860169, "building": "retail", "name": "Fleet Feet Sports", "height": null, "height_m": null, "levels": null, "tract_id": "40143007402", "tract_name": "74.02", "tags": {"addr:city": "Broken Arrow", "addr:housenumber": "303", "addr:postcode": "74012", "addr:street": "South Main Street", "building": "retail", "name": "Fleet Feet Sports", "opening_hours": "Mo-Fr 11:00-19:00; Sa 10:00-18:00; Su 12:00-16:00", "shop": "shoes"}}}, {"type": "Feature", "geometry": {"type": "Polygon", "coordinates": [[[-95.7902549, 36.0500797], [-95.7901461, 36.0500794], [-95.7901503, 36.0494591], [-95.7906174, 36.0494604], [-95.7906163, 36.0495295], [-95.7902547, 36.0495286], [-95.7902549, 36.0500797]]]}, "properties": {"osm_id": 546860170, "building": "retail", "name": "", "height": null, "height_m": null, "levels": null, "tract_id": "40143007402", "tract_name": "74.02", "tags": {"building": "retail"}}}, {"type": "Feature", "geometry": {"type": "Polygon", "coordinates": [[[-95.7900847, 36.0502767], [-95.7899527, 36.0502762], [-95.7899534, 36.0501384], [-95.7899882, 36.0501385], [-95.7899883, 36.0501257], [-95.7900452, 36.0501259], [-95.7900452, 36.0501369], [-95.7900854, 36.0501371], [-95.7900847, 36.0502767]]]}, "properties": {"osm_id": 546860171, "building": "retail", "name": "Book and Bloom", "height": null, "height_m": null, "levels": null, "tract_id": "40143007402", "tract_name": "74.02", "tags": {"building": "retail", "name": "Book and Bloom", "opening_hours": "Mo-Th 11:00-19:00; Fr-Sa 11:00-21:00", "shop": "florist; books"}}}, {"type": "Feature", "geometry": {"type": "Polygon", "coordinates": [[[-95.7913339, 36.05029], [-95.7909553, 36.0502888], [-95.7909566, 36.0500168], [-95.7911303, 36.0500173], [-95.7911297, 36.0501546], [-95.7913346, 36.0501553], [-95.7913339, 36.05029]]]}, "properties": {"osm_id": 546877002, "building": "commercial", "name": "Arts@302", "height": null, "height_m": null, "levels": null, "tract_id": "40143007402", "tract_name": "74.02", "tags": {"addr:city": "Broken Arrow", "addr:housenumber": "302", "addr:postcode": "74012", "addr:state": "OK", "addr:street": "South Main Street", "building": "commercial", "museum": "art", "name": "Arts@302"}}}, {"type": "Feature", "geometry": {"type": "Polygon", "coordinates": [[[-95.7913792, 36.0494703], [-95.7909849, 36.0494716], [-95.7909856, 36.049599], [-95.7909627, 36.0495991], [-95.7909629, 36.0496425], [-95.7909864, 36.0496424], [-95.7909867, 36.0497078], [-95.7910365, 36.0497077], [-95.7910838, 36.0497075], [-95.7910838, 36.0496904], [-95.7912574, 36.0496899], [-95.7912575, 36.0497065], [-95.791335, 36.0497062], [-95.791335, 36.0496893], [-95.7913811, 36.0496891], [-95.7913809, 36.0496426], [-95.7914866, 36.0496423], [-95.7914867, 36.0496687], [-95.7915879, 36.0496684], [-95.7915873, 36.0495418], [-95.7914866, 36.0495422], [-95.7914866, 36.0495561], [-95.7913797, 36.0495564], [-95.7913792, 36.0494703]]]}, "properties": {"osm_id": 546877003, "building": "yes", "name": "AVB Bank", "height": null, "height_m": null, "levels": null, "tract_id": "40143007402", "tract_name": "74.02", "tags": {"amenity": "bank", "building": "yes", "drive_through": "yes", "name": "AVB Bank", "opening_hours": "Mo-Fr 09:00-16:00", "opening_hours:drive_through": "Mo-Fr 07:30-18:00; Sa 08:30-12:00"}}}, {"type": "Feature", "geometry": {"type": "Polygon", "coordinates": [[[-95.7904881, 36.0491594], [-95.7901942, 36.0491571], [-95.7901948, 36.0489515], [-95.7903746, 36.0489525], [-95.7906295, 36.0489519], [-95.7906307, 36.0491613], [-95.7904881, 36.0491594]]]}, "properties": {"osm_id": 546877004, "building": "retail", "name": "Additive Systems Incorporated", "height": null, "height_m": null, "levels": null, "tract_id": "40143007402", "tract_name": "74.02", "tags": {"addr:postcode": "74012", "addr:street": "South Main Street", "building": "retail", "name": "Additive Systems Incorporated", "office": "yes", "short_name": "ASI"}}}, {"type": "Feature", "geometry": {"type": "Polygon", "coordinates": [[[-95.7903746, 36.0489525], [-95.790375, 36.0487407], [-95.7902442, 36.0487406], [-95.7902442, 36.0485696], [-95.7901617, 36.0485715], [-95.7901617, 36.048738], [-95.7901598, 36.0489505], [-95.7901948, 36.0489515], [-95.7903746, 36.0489525]]]}, "properties": {"osm_id": 546877005, "building": "warehouse", "name": "", "height": null, "height_m": null, "levels": null, "tract_id": "40143007402", "tract_name": "74.02", "tags": {"building": "warehouse", "operator": "ASI"}}}, {"type": "Feature", "geometry": {"type": "Polygon", "coordinates": [[[-95.7912151, 36.0492982], [-95.7910116, 36.0492947], [-95.7909972, 36.049309], [-95.7909714, 36.0493104], [-95.7909539, 36.0492952], [-95.7909536, 36.0492736], [-95.7909725, 36.0492628], [-95.7909697, 36.0491708], [-95.7909635, 36.0491658], [-95.7909647, 36.0491366], [-95.7909694, 36.0491349], [-95.7909694, 36.0491204], [-95.790965, 36.0491152], [-95.7909647, 36.0491082], [-95.7909697, 36.0491049], [-95.7909697, 36.0490967], [-95.7910863, 36.0490969], [-95.7910863, 36.0491019], [-95.7911578, 36.0491021], [-95.7911578, 36.0490954], [-95.7911828, 36.0490955], [-95.7911828, 36.0490997], [-95.7912092, 36.0490999], [-95.7912078, 36.0492662], [-95.7912154, 36.0492662], [-95.7912151, 36.0492982]]]}, "properties": {"osm_id": 546877007, "building": "yes", "name": "Broken Arrow Historical Museum", "height": null, "height_m": null, "levels": null, "tract_id": "40143007402", "tract_name": "74.02", "tags": {"addr:city": "Broken Arrow", "addr:housenumber": "400", "addr:postcode": "74012", "addr:state": "OK", "addr:street": "South Main Street", "building": "yes", "name": "Broken Arrow Historical Museum", "opening_hours": "Tu-We 10:00-16:00; Th 16:00-20:00; Fr 10:00-16:00; Sa 10:00-14:00", "operator": "Broken Arrow Historical Society", "phone": "+1 918 258 2616", "tourism": "museum"}}}, {"type": "Feature", "geometry": {"type": "Polygon", "coordinates": [[[-95.7914459, 36.048735], [-95.7914459, 36.0489276], [-95.7913845, 36.0489761], [-95.7913364, 36.048977], [-95.791289, 36.0489778], [-95.791231, 36.048927], [-95.7912323, 36.048735], [-95.7912849, 36.048687], [-95.7913818, 36.0486848], [-95.7914459, 36.048735]]]}, "properties": {"osm_id": 546877008, "building": "yes", "name": "", "height": null, "height_m": null, "levels": null, "tract_id": "40143007402", "tract_name": "74.02", "tags": {"amenity": "shelter", "building": "yes", "type": "gazebo"}}}, {"type": "Feature", "geometry": {"type": "Polygon", "coordinates": [[[-95.7912548, 36.0486226], [-95.7910368, 36.0484889], [-95.7909726, 36.0485573], [-95.7911906, 36.0486911], [-95.7912548, 36.0486226]]]}, "properties": {"osm_id": 546877009, "building": "yes", "name": "Katy Railroad Depot", "height": null, "height_m": null, "levels": null, "tract_id": "40143007402", "tract_name": "74.02", "tags": {"building": "yes", "name": "Katy Railroad Depot"}}}, {"type": "Feature", "geometry": {"type": "Polygon", "coordinates": [[[-95.7906244, 36.0514938], [-95.7906227, 36.051907], [-95.7902178, 36.0519085], [-95.790217, 36.0517677], [-95.790294, 36.0517674], [-95.7902931, 36.051594], [-95.7901484, 36.0515946], [-95.7901479, 36.0514955], [-95.7906244, 36.0514938]]]}, "properties": {"osm_id": 546925244, "building": "yes", "name": "First National Bank", "height": null, "height_m": null, "levels": null, "tract_id": "40143007402", "tract_name": "74.02", "tags": {"addr:postcode": "74012", "addr:street": "South Main Street", "amenity": "bank", "building": "yes", "name": "First National Bank"}}}, {"type": "Feature", "geometry": {"type": "Polygon", "coordinates": [[[-95.7909541, 36.051493], [-95.7912905, 36.0514935], [-95.7914309, 36.0514937], [-95.7914307, 36.051563], [-95.7913428, 36.051563], [-95.7909562, 36.0515642], [-95.7909541, 36.051493]]]}, "properties": {"osm_id": 546925245, "building": "retail", "name": "", "height": null, "height_m": null, "levels": null, "tract_id": "40143007402", "tract_name": "74.02", "tags": {"addr:postcode": "74012", "addr:street": "South Main Street", "building": "retail"}}}, {"type": "Feature", "geometry": {"type": "Polygon", "coordinates": [[[-95.7913428, 36.051563], [-95.7913431, 36.0516298], [-95.7912769, 36.0516306], [-95.7909546, 36.0516294], [-95.7909562, 36.0515642], [-95.7913428, 36.051563]]]}, "properties": {"osm_id": 546925246, "building": "retail", "name": "", "height": null, "height_m": null, "levels": null, "tract_id": "40143007402", "tract_name": "74.02", "tags": {"addr:postcode": "74012", "addr:street": "South Main Street", "building": "retail"}}}, {"type": "Feature", "geometry": {"type": "Polygon", "coordinates": [[[-95.7912769, 36.0516306], [-95.7912766, 36.0516973], [-95.7912566, 36.0516974], [-95.7909523, 36.0516975], [-95.7909546, 36.0516294], [-95.7912769, 36.0516306]]]}, "properties": {"osm_id": 546925247, "building": "yes", "name": "", "height": null, "height_m": null, "levels": null, "tract_id": "40143007402", "tract_name": "74.02", "tags": {"addr:postcode": "74012", "addr:street": "South Main Street", "building": "yes"}}}, {"type": "Feature", "geometry": {"type": "Polygon", "coordinates": [[[-95.7912566, 36.0516974], [-95.7912566, 36.0517671], [-95.7909523, 36.0517672], [-95.7909523, 36.0516975], [-95.7912566, 36.0516974]]]}, "properties": {"osm_id": 546925248, "building": "yes", "name": "", "height": null, "height_m": null, "levels": null, "tract_id": "40143007402", "tract_name": "74.02", "tags": {"addr:postcode": "74012", "addr:street": "South Main Street", "building": "yes"}}}, {"type": "Feature", "geometry": {"type": "Polygon", "coordinates": [[[-95.7912566, 36.0517671], [-95.7913457, 36.0517676], [-95.7913459, 36.0518361], [-95.7912928, 36.0518355], [-95.7909519, 36.051837], [-95.7909523, 36.0517672], [-95.7912566, 36.0517671]]]}, "properties": {"osm_id": 546925249, "building": "yes", "name": "", "height": null, "height_m": null, "levels": null, "tract_id": "40143007402", "tract_name": "74.02", "tags": {"addr:postcode": "74012", "addr:street": "South Main Street", "building": "yes"}}}, {"type": "Feature", "geometry": {"type": "Polygon", "coordinates": [[[-95.7912928, 36.0518355], [-95.7912933, 36.0519032], [-95.7909533, 36.0519055], [-95.7909519, 36.051837], [-95.7912928, 36.0518355]]]}, "properties": {"osm_id": 546925250, "building": "yes", "name": "", "height": null, "height_m": null, "levels": null, "tract_id": "40143007402", "tract_name": "74.02", "tags": {"addr:postcode": "74012", "addr:street": "South Main Street", "building": "yes"}}}, {"type": "Feature", "geometry": {"type": "Polygon", "coordinates": [[[-95.7912933, 36.0519032], [-95.791294, 36.0519735], [-95.7912118, 36.0519745], [-95.7909552, 36.0519766], [-95.7909533, 36.0519055], [-95.7912933, 36.0519032]]]}, "properties": {"osm_id": 546925251, "building": "yes", "name": "", "height": null, "height_m": null, "levels": null, "tract_id": "40143007402", "tract_name": "74.02", "tags": {"addr:postcode": "74012", "addr:street": "South Main Street", "building": "yes"}}}, {"type": "Feature", "geometry": {"type": "Polygon", "coordinates": [[[-95.7912118, 36.0519745], [-95.7912127, 36.0520443], [-95.7909553, 36.0520458], [-95.7909552, 36.0519766], [-95.7912118, 36.0519745]]]}, "properties": {"osm_id": 546925252, "building": "yes", "name": "", "height": null, "height_m": null, "levels": null, "tract_id": "40143007402", "tract_name": "74.02", "tags": {"addr:postcode": "74012", "addr:street": "South Main Street", "building": "yes"}}}, {"type": "Feature", "geometry": {"type": "Polygon", "coordinates": [[[-95.7912127, 36.0520443], [-95.7914236, 36.0520432], [-95.7914242, 36.0521103], [-95.7913275, 36.0521125], [-95.7909559, 36.052113], [-95.7909553, 36.0520458], [-95.7912127, 36.0520443]]]}, "properties": {"osm_id": 546925253, "building": "yes", "name": "", "height": null, "height_m": null, "levels": null, "tract_id": "40143007402", "tract_name": "74.02", "tags": {"addr:postcode": "74012", "addr:street": "South Main Street", "building": "yes"}}}, {"type": "Feature", "geometry": {"type": "Polygon", "coordinates": [[[-95.7909559, 36.052113], [-95.7909556, 36.0521814], [-95.7913276, 36.0521817], [-95.7913275, 36.0521125], [-95.7909559, 36.052113]]]}, "properties": {"osm_id": 546925254, "building": "yes", "name": "", "height": null, "height_m": null, "levels": null, "tract_id": "40143007402", "tract_name": "74.02", "tags": {"addr:postcode": "74012", "addr:street": "South Main Street", "building": "yes"}}}, {"type": "Feature", "geometry": {"type": "Polygon", "coordinates": [[[-95.7912943, 36.0525876], [-95.7912945, 36.0526173], [-95.7912942, 36.0526735], [-95.7912063, 36.0526734], [-95.7910804, 36.0526718], [-95.7910801, 36.0526086], [-95.7911192, 36.0525773], [-95.7911504, 36.0525764], [-95.7911503, 36.0525878], [-95.7912943, 36.0525876]]]}, "properties": {"osm_id": 546925255, "building": "retail", "name": "Funktified", "height": null, "height_m": null, "levels": null, "tract_id": "40143007402", "tract_name": "74.02", "tags": {"addr:housenumber": "102", "addr:postcode": "74012", "addr:street": "North Main Street", "building": "retail", "description": "1970s themed items for sale", "name": "Funktified", "opening_hours": "Mo-We 10:00-19:00; Th-Sa 10:00-21:00; Su 12:00-19:00", "shop": "houseware"}}}, {"type": "Feature", "geometry": {"type": "Polygon", "coordinates": [[[-95.7912942, 36.0526735], [-95.7913397, 36.0526736], [-95.7913457, 36.0526736], [-95.791346, 36.0526175], [-95.7912945, 36.0526173], [-95.7912942, 36.0526735]]]}, "properties": {"osm_id": 546925256, "building": "yes", "name": "", "height": null, "height_m": null, "levels": null, "tract_id": "40143007402", "tract_name": "74.02", "tags": {"building": "yes"}}}, {"type": "Feature", "geometry": {"type": "Polygon", "coordinates": [[[-95.7914034, 36.0526741], [-95.7913457, 36.0526736], [-95.7913397, 36.0526736], [-95.7913392, 36.0527114], [-95.7914029, 36.0527119], [-95.7914034, 36.0526741]]]}, "properties": {"osm_id": 546925257, "building": "shed", "name": "", "height": null, "height_m": null, "levels": null, "tract_id": "40143007402", "tract_name": "74.02", "tags": {"building": "shed"}}}, {"type": "Feature", "geometry": {"type": "Polygon", "coordinates": [[[-95.7912063, 36.0526734], [-95.7912055, 36.052741], [-95.7910843, 36.0527412], [-95.7910844, 36.0527577], [-95.7911035, 36.0527576], [-95.7911036, 36.0527877], [-95.7911274, 36.0527877], [-95.7911274, 36.0528123], [-95.7909612, 36.0528125], [-95.7909603, 36.0526718], [-95.7910804, 36.0526718], [-95.7912063, 36.0526734]]]}, "properties": {"osm_id": 546925258, "building": "construction", "name": "", "height": null, "height_m": null, "levels": null, "tract_id": "40143007402", "tract_name": "74.02", "tags": {"addr:postcode": "74012", "addr:street": "North Main Street", "building": "construction"}}}, {"type": "Feature", "geometry": {"type": "Polygon", "coordinates": [[[-95.7913866, 36.0530696], [-95.791387, 36.0528382], [-95.7909883, 36.0528378], [-95.7909881, 36.0529491], [-95.7911523, 36.0529483], [-95.7912511, 36.0529481], [-95.7912509, 36.0530706], [-95.7913291, 36.0530702], [-95.7913866, 36.0530696]]]}, "properties": {"osm_id": 546925259, "building": "yes", "name": "Military History Museum", "height": null, "height_m": null, "levels": null, "tract_id": "40143007402", "tract_name": "74.02", "tags": {"addr:housenumber": "112", "addr:postcode": "74012", "addr:street": "North Main Street", "building": "yes", "museum": "history", "name": "Military History Museum", "tourism": "museum"}}}, {"type": "Feature", "geometry": {"type": "Polygon", "coordinates": [[[-95.7912269, 36.0530534], [-95.7912265, 36.0529596], [-95.7911554, 36.0529598], [-95.7911558, 36.0530536], [-95.7912269, 36.0530534]]]}, "properties": {"osm_id": 546925260, "building": "yes", "name": "", "height": null, "height_m": null, "levels": null, "tract_id": "40143007402", "tract_name": "74.02", "tags": {"building": "yes"}}}, {"type": "Feature", "geometry": {"type": "Polygon", "coordinates": [[[-95.7906177, 36.0525375], [-95.7906177, 36.0526403], [-95.7903982, 36.0526403], [-95.7903412, 36.0526405], [-95.79034, 36.0525397], [-95.7906177, 36.0525375]]]}, "properties": {"osm_id": 546926039, "building": "retail", "name": "Integrity Staffing Group", "height": null, "height_m": null, "levels": null, "tract_id": "40143007402", "tract_name": "74.02", "tags": {"addr:housenumber": "101", "addr:postcode": "74012", "addr:street": "North Main Street", "building": "retail", "name": "Integrity Staffing Group", "office": "employment_agency", "opening_hours": "Mo-Th 08:00-17:00; Fr 08:00-12:00", "phone": "+1 918 537 1010", "website": "https://integritystaffingok.com/"}}}, {"type": "Feature", "geometry": {"type": "Polygon", "coordinates": [[[-95.7906177, 36.0526403], [-95.790617, 36.05274], [-95.7903987, 36.052742], [-95.7903982, 36.0526403], [-95.7906177, 36.0526403]]]}, "properties": {"osm_id": 546926040, "building": "retail", "name": "Ted D Moore, Attorney At Law", "height": null, "height_m": null, "levels": null, "tract_id": "40143007402", "tract_name": "74.02", "tags": {"addr:housenumber": "103", "addr:postcode": "74012", "addr:street": "North Main Street", "building": "retail", "name": "Ted D Moore, Attorney At Law", "office": "lawyer"}}}, {"type": "Feature", "geometry": {"type": "Polygon", "coordinates": [[[-95.790617, 36.05274], [-95.790617, 36.0528111], [-95.7906166, 36.0528777], [-95.7903971, 36.0528775], [-95.7903917, 36.0528776], [-95.7903913, 36.0528113], [-95.790391, 36.052742], [-95.7903987, 36.052742], [-95.790617, 36.05274]]]}, "properties": {"osm_id": 546926041, "building": "retail", "name": "Berkshire Salon and Day Spa", "height": null, "height_m": null, "levels": null, "tract_id": "40143007402", "tract_name": "74.02", "tags": {"addr:housenumber": "109", "addr:postcode": "74012", "addr:street": "North Main Street", "building": "retail", "name": "Berkshire Salon and Day Spa", "shop": "beauty"}}}, {"type": "Feature", "geometry": {"type": "Polygon", "coordinates": [[[-95.7906166, 36.0528777], [-95.7906167, 36.0529501], [-95.7903974, 36.0529504], [-95.7903971, 36.0528775], [-95.7906166, 36.0528777]]]}, "properties": {"osm_id": 546926043, "building": "retail", "name": "It's a Toy World", "height": null, "height_m": null, "levels": null, "tract_id": "40143007402", "tract_name": "74.02", "tags": {"addr:housenumber": "111", "addr:postcode": "74012", "addr:street": "North Main Street", "building": "retail", "name": "It's a Toy World", "old_name": "Pink Creek", "shop": "toys"}}}, {"type": "Feature", "geometry": {"type": "Polygon", "coordinates": [[[-95.7906167, 36.0529501], [-95.7906167, 36.0529836], [-95.7906166, 36.0530505], [-95.7906166, 36.053084], [-95.7902122, 36.0530832], [-95.7901395, 36.0530838], [-95.7901379, 36.0529513], [-95.7903974, 36.0529504], [-95.7906167, 36.0529501]]]}, "properties": {"osm_id": 546926044, "building": "retail", "name": "", "height": null, "height_m": null, "levels": null, "tract_id": "40143007402", "tract_name": "74.02", "tags": {"addr:housenumber": "113", "addr:postcode": "74012", "addr:street": "North Main Street", "building": "retail"}}}, {"type": "Feature", "geometry": {"type": "Polygon", "coordinates": [[[-95.7906166, 36.053084], [-95.7906164, 36.0531555], [-95.7905725, 36.0531549], [-95.7903901, 36.0531547], [-95.790212, 36.0531547], [-95.7902122, 36.0530832], [-95.7906166, 36.053084]]]}, "properties": {"osm_id": 546926045, "building": "retail", "name": "Rose Rock Microcreamery", "height": null, "height_m": null, "levels": null, "tract_id": "40143007402", "tract_name": "74.02", "tags": {"addr:housenumber": "115", "addr:postcode": "74012", "addr:street": "North Main Street", "amenity": "ice_cream", "building": "retail", "name": "Rose Rock Microcreamery", "old_name": "Scoops & Rolls"}}}, {"type": "Feature", "geometry": {"type": "Polygon", "coordinates": [[[-95.7905725, 36.0531549], [-95.7905724, 36.0532107], [-95.7906177, 36.0532108], [-95.7906175, 36.0532839], [-95.7906114, 36.0532928], [-95.7905987, 36.0533018], [-95.7905725, 36.0533123], [-95.7904616, 36.0533123], [-95.7904617, 36.0532954], [-95.79039, 36.0532954], [-95.7903901, 36.0531547], [-95.7905725, 36.0531549]]]}, "properties": {"osm_id": 546926046, "building": "retail", "name": "Tulsa County Court Clerk", "height": null, "height_m": null, "levels": null, "tract_id": "40143007402", "tract_name": "74.02", "tags": {"addr:housenumber": "123", "addr:postcode": "74012", "addr:street": "North Main Street", "building": "retail", "government": "justice", "name": "Tulsa County Court Clerk", "office": "government"}}}, {"type": "Feature", "geometry": {"type": "Polygon", "coordinates": [[[-95.7903245, 36.0526165], [-95.7903233, 36.0525337], [-95.7901583, 36.0525353], [-95.7901595, 36.0526181], [-95.7903245, 36.0526165]]]}, "properties": {"osm_id": 546926047, "building": "yes", "name": "", "height": null, "height_m": null, "levels": null, "tract_id": "40143007402", "tract_name": "74.02", "tags": {"building": "yes"}}}, {"type": "Feature", "geometry": {"type": "Polygon", "coordinates": [[[-95.7913679, 36.0480439], [-95.7913681, 36.0478612], [-95.7912945, 36.0478612], [-95.7912946, 36.0477229], [-95.7910151, 36.0477227], [-95.791015, 36.0478064], [-95.7909998, 36.0478064], [-95.7909997, 36.0478711], [-95.7910168, 36.0478711], [-95.7910167, 36.0480057], [-95.7911951, 36.0480058], [-95.7911951, 36.0480438], [-95.7913679, 36.0480439]]]}, "properties": {"osm_id": 546926048, "building": "yes", "name": "", "height": null, "height_m": null, "levels": null, "tract_id": "40143007402", "tract_name": "74.02", "tags": {"building": "yes"}}}, {"type": "Feature", "geometry": {"type": "Polygon", "coordinates": [[[-95.791967, 36.0517308], [-95.791865, 36.0517308], [-95.791762, 36.0517309], [-95.791762, 36.0517435], [-95.7917621, 36.0518408], [-95.791967, 36.0518407], [-95.791967, 36.0517308]]]}, "properties": {"osm_id": 715879909, "building": "retail", "name": "Laurannae Social", "height": null, "height_m": null, "levels": null, "tract_id": "40143007402", "tract_name": "74.02", "tags": {"addr:city": "Broken Arrow", "addr:housenumber": "118", "addr:postcode": "74012", "addr:state": "OK", "addr:street": "West Commercial Street", "amenity": "events_venue", "building": "retail", "name": "Laurannae Social"}}}, {"type": "Feature", "geometry": {"type": "Polygon", "coordinates": [[[-95.7917619, 36.0516263], [-95.7916207, 36.0516263], [-95.7916209, 36.0517436], [-95.791762, 36.0517435], [-95.791762, 36.0517309], [-95.7917619, 36.0516263]]]}, "properties": {"osm_id": 715880712, "building": "commercial", "name": "Armada Consulting", "height": null, "height_m": null, "levels": null, "tract_id": "40143007402", "tract_name": "74.02", "tags": {"addr:city": "Broken Arrow", "addr:housenumber": "116", "addr:postcode": "74012", "addr:state": "OK", "addr:street": "West Commercial Street", "building": "commercial", "name": "Armada Consulting"}}}, {"type": "Feature", "geometry": {"type": "Polygon", "coordinates": [[[-95.7917674, 36.051492], [-95.7917685, 36.0516256], [-95.7917619, 36.0516263], [-95.7916207, 36.0516263], [-95.7916207, 36.0514926], [-95.7917674, 36.051492]]]}, "properties": {"osm_id": 715881365, "building": "commercial", "name": "Coworking Bravely for Women", "height": null, "height_m": null, "levels": null, "tract_id": "40143007402", "tract_name": "74.02", "tags": {"addr:city": "Broken Arrow", "addr:housenumber": "114", "addr:postcode": "74012", "addr:state": "OK", "addr:street": "West Commercial Street", "building": "commercial", "name": "Coworking Bravely for Women"}}}, {"type": "Feature", "geometry": {"type": "Polygon", "coordinates": [[[-95.7916207, 36.0516263], [-95.7915049, 36.0516282], [-95.7915044, 36.0514917], [-95.7916207, 36.0514926], [-95.7916207, 36.0516263]]]}, "properties": {"osm_id": 715881945, "building": "yes", "name": "Laurannae Baking Co.", "height": null, "height_m": null, "levels": null, "tract_id": "40143007402", "tract_name": "74.02", "tags": {"addr:city": "Broken Arrow", "addr:housenumber": "112", "addr:postcode": "74012", "addr:state": "OK", "addr:street": "West Commercial Street", "amenity": "cafe", "building": "yes", "cuisine": "coffee_shop", "internet_access": "wlan", "name": "Laurannae Baking Co.", "opening_hours": "Mo-Th 07:00-21:00; Fr-Sa 07:00-23:00; Su 09:00-21:00", "outdoor_seating": "yes", "phone": "+1 918 258 5744", "website": "https://lbcotulsa.com/"}}}, {"type": "Feature", "geometry": {"type": "Polygon", "coordinates": [[[-95.7918674, 36.0488679], [-95.7918326, 36.0488627], [-95.7918086, 36.048875], [-95.7918086, 36.0489014], [-95.7917934, 36.0489225], [-95.7917716, 36.0489472], [-95.791752, 36.0489613], [-95.7916866, 36.0489613], [-95.7916844, 36.0489895], [-95.7917607, 36.0489912], [-95.791765, 36.0489789], [-95.7917912, 36.048993], [-95.7917999, 36.0490212], [-95.7918239, 36.0490247], [-95.7918544, 36.0490141], [-95.7918762, 36.0490212], [-95.7919001, 36.0490141], [-95.7919176, 36.0489877], [-95.7919284, 36.0489648], [-95.7919328, 36.048949], [-95.7919459, 36.0489402], [-95.7919481, 36.0489225], [-95.791935, 36.0488996], [-95.7919176, 36.0488944], [-95.7919176, 36.0488732], [-95.7918871, 36.0488591], [-95.7918674, 36.0488679]]]}, "properties": {"osm_id": 717322418, "building": "yes", "name": "", "height": null, "height_m": null, "levels": null, "tract_id": "40143007402", "tract_name": "74.02", "tags": {"building": "yes", "description": "grain elevator", "man_made": "silo", "operator": "Hansen Mueller"}}}, {"type": "Feature", "geometry": {"type": "Polygon", "coordinates": [[[-95.7920416, 36.0485376], [-95.7917918, 36.048371], [-95.7916943, 36.0484666], [-95.7919441, 36.0486331], [-95.7920416, 36.0485376]]]}, "properties": {"osm_id": 727849607, "building": "yes", "name": "", "height": null, "height_m": null, "levels": null, "tract_id": "40143007402", "tract_name": "74.02", "tags": {"building": "yes"}}}, {"type": "Feature", "geometry": {"type": "Polygon", "coordinates": [[[-95.7918147, 36.0512771], [-95.7916371, 36.0512763], [-95.7916373, 36.0508892], [-95.7917957, 36.050888], [-95.7918166, 36.0509187], [-95.7918157, 36.0510272], [-95.7918147, 36.0512771]]]}, "properties": {"osm_id": 727849608, "building": "yes", "name": "", "height": null, "height_m": null, "levels": null, "tract_id": "40143007402", "tract_name": "74.02", "tags": {"building": "yes"}}}, {"type": "Feature", "geometry": {"type": "Polygon", "coordinates": [[[-95.7918147, 36.0512771], [-95.7918943, 36.0512782], [-95.791895, 36.0511619], [-95.7918961, 36.0510277], [-95.7918157, 36.0510272], [-95.7918147, 36.0512771]]]}, "properties": {"osm_id": 727849609, "building": "retail", "name": "", "height": null, "height_m": null, "levels": null, "tract_id": "40143007402", "tract_name": "74.02", "tags": {"building": "retail"}}}, {"type": "Feature", "geometry": {"type": "Polygon", "coordinates": [[[-95.7918943, 36.0512782], [-95.7919963, 36.0512786], [-95.7919971, 36.0511624], [-95.791895, 36.0511619], [-95.7918943, 36.0512782]]]}, "properties": {"osm_id": 727849610, "building": "retail", "name": "High Tower Accounting and Tax", "height": null, "height_m": null, "levels": null, "tract_id": "40143007402", "tract_name": "74.02", "tags": {"building": "retail", "name": "High Tower Accounting and Tax", "office": "accountant"}}}, {"type": "Feature", "geometry": {"type": "Polygon", "coordinates": [[[-95.7919468, 36.0519357], [-95.7919471, 36.0519785], [-95.7919623, 36.0519785], [-95.7919628, 36.0520827], [-95.7919438, 36.0520827], [-95.7919439, 36.0521011], [-95.7918741, 36.0521014], [-95.7918741, 36.0521152], [-95.7915375, 36.0521165], [-95.7915374, 36.0521011], [-95.7915089, 36.0521012], [-95.791508, 36.0519373], [-95.7919468, 36.0519357]]]}, "properties": {"osm_id": 727849611, "building": "retail", "name": "", "height": null, "height_m": null, "levels": null, "tract_id": "40143007402", "tract_name": "74.02", "tags": {"building": "retail"}}}, {"type": "Feature", "geometry": {"type": "Polygon", "coordinates": [[[-95.7919665, 36.0527232], [-95.791966, 36.0525334], [-95.7915336, 36.0525337], [-95.7915337, 36.0525568], [-95.7915135, 36.0525569], [-95.791514, 36.052691], [-95.7915925, 36.0526908], [-95.7915926, 36.0527252], [-95.7919631, 36.052723], [-95.7919665, 36.0527232]]]}, "properties": {"osm_id": 727849612, "building": "yes", "name": "", "height": null, "height_m": null, "levels": null, "tract_id": "40143007402", "tract_name": "74.02", "tags": {"building": "yes", "telecom": "exchange"}}}, {"type": "Feature", "geometry": {"type": "Polygon", "coordinates": [[[-95.7919655, 36.0505726], [-95.7919656, 36.0505433], [-95.7920177, 36.0505434], [-95.7920184, 36.0504488], [-95.7916991, 36.0504467], [-95.7916992, 36.0505713], [-95.7917219, 36.050572], [-95.7919655, 36.0505726]]]}, "properties": {"osm_id": 727849613, "building": "yes", "name": "", "height": null, "height_m": null, "levels": null, "tract_id": "40143007402", "tract_name": "74.02", "tags": {"building": "yes"}}}, {"type": "Feature", "geometry": {"type": "Polygon", "coordinates": [[[-95.7917219, 36.050572], [-95.791721, 36.0508322], [-95.7915051, 36.0508321], [-95.7915048, 36.0504203], [-95.7916991, 36.0504202], [-95.7916991, 36.0504467], [-95.7916992, 36.0505713], [-95.7917219, 36.050572]]]}, "properties": {"osm_id": 727849614, "building": "yes", "name": "", "height": null, "height_m": null, "levels": null, "tract_id": "40143007402", "tract_name": "74.02", "tags": {"building": "yes"}}}, {"type": "Feature", "geometry": {"type": "Polygon", "coordinates": [[[-95.7919087, 36.0491972], [-95.7918612, 36.0492457], [-95.791827, 36.0492238], [-95.7918745, 36.0491753], [-95.7919087, 36.0491972]]]}, "properties": {"osm_id": 727849615, "building": "service", "name": "", "height": null, "height_m": null, "levels": null, "tract_id": "40143007402", "tract_name": "74.02", "tags": {"addr:postcode": "74012", "addr:street": "South Ash Avenue", "building": "service", "operator": "Hansen Mueller"}}}, {"type": "Feature", "geometry": {"type": "Polygon", "coordinates": [[[-95.7900786, 36.0521339], [-95.7900264, 36.0521338], [-95.7900263, 36.052207], [-95.7898247, 36.0522068], [-95.7898247, 36.0521811], [-95.7896364, 36.0522508], [-95.7896378, 36.0523136], [-95.7897672, 36.0522601], [-95.790027, 36.0522605], [-95.7900269, 36.0523036], [-95.7900783, 36.0523036], [-95.7900786, 36.0521339]]]}, "properties": {"osm_id": 728097257, "building": "yes", "name": "", "height": null, "height_m": null, "levels": null, "tract_id": "40143007402", "tract_name": "74.02", "tags": {"building": "yes", "description": "Old bank drive-through, no longer in use by the bank, but part of it is used as an office."}}}, {"type": "Feature", "geometry": {"type": "Polygon", "coordinates": [[[-95.79434, 36.0533076], [-95.7943382, 36.0530287], [-95.7940852, 36.0530287], [-95.7939931, 36.0530287], [-95.7939896, 36.0533062], [-95.79434, 36.0533076]]]}, "properties": {"osm_id": 728098354, "building": "commercial", "name": "Broken Arrow Neighbors", "height": null, "height_m": null, "levels": null, "tract_id": "40143007402", "tract_name": "74.02", "tags": {"amenity": "community_centre", "building": "commercial", "name": "Broken Arrow Neighbors", "phone": "+1 918 251 7781"}}}, {"type": "Feature", "geometry": {"type": "Polygon", "coordinates": [[[-95.7940521, 36.0529171], [-95.7940535, 36.0526127], [-95.7939327, 36.0526123], [-95.7939313, 36.0529167], [-95.7940521, 36.0529171]]]}, "properties": {"osm_id": 728098355, "building": "warehouse", "name": "", "height": null, "height_m": null, "levels": null, "tract_id": "40143007402", "tract_name": "74.02", "tags": {"building": "warehouse", "operator": "Broken Arrow Neighbors"}}}, {"type": "Feature", "geometry": {"type": "Polygon", "coordinates": [[[-95.7954483, 36.0602954], [-95.7954462, 36.0601885], [-95.7955882, 36.0601867], [-95.7955895, 36.0602582], [-95.7955769, 36.0602583], [-95.7955776, 36.0602938], [-95.7954483, 36.0602954]]]}, "properties": {"osm_id": 739583902, "building": "yes", "name": "", "height": null, "height_m": null, "levels": null, "tract_id": "40143007402", "tract_name": "74.02", "tags": {"building": "yes"}}}, {"type": "Feature", "geometry": {"type": "Polygon", "coordinates": [[[-95.7955239, 36.0606102], [-95.7953409, 36.0606097], [-95.7953414, 36.0604771], [-95.7955244, 36.0604776], [-95.7955239, 36.0606102]]]}, "properties": {"osm_id": 739583903, "building": "yes", "name": "", "height": null, "height_m": null, "levels": null, "tract_id": "40143007402", "tract_name": "74.02", "tags": {"addr:postcode": "74012", "addr:street": "West Kenosha Street", "building": "yes", "shop": "car"}}}, {"type": "Feature", "geometry": {"type": "Polygon", "coordinates": [[[-95.7919413, 36.0496243], [-95.7919417, 36.04952], [-95.791885, 36.0495199], [-95.7918846, 36.0496242], [-95.7919413, 36.0496243]]]}, "properties": {"osm_id": 752010555, "building": "shed", "name": "", "height": null, "height_m": null, "levels": null, "tract_id": "40143007402", "tract_name": "74.02", "tags": {"building": "shed"}}}, {"type": "Feature", "geometry": {"type": "Polygon", "coordinates": [[[-95.7963791, 36.0491133], [-95.7963791, 36.0491453], [-95.7963348, 36.0491453], [-95.7963348, 36.0491133], [-95.7963791, 36.0491133]]]}, "properties": {"osm_id": 826015858, "building": "yes", "name": "", "height": null, "height_m": null, "levels": null, "tract_id": "40143007402", "tract_name": "74.02", "tags": {"building": "yes"}}}, {"type": "Feature", "geometry": {"type": "Polygon", "coordinates": [[[-95.7965916, 36.0497219], [-95.7965568, 36.0497223], [-95.7965561, 36.0496832], [-95.796591, 36.0496829], [-95.7965916, 36.0497219]]]}, "properties": {"osm_id": 826015859, "building": "yes", "name": "", "height": null, "height_m": null, "levels": null, "tract_id": "40143007402", "tract_name": "74.02", "tags": {"building": "yes"}}}, {"type": "Feature", "geometry": {"type": "Polygon", "coordinates": [[[-95.7964106, 36.0498173], [-95.7963828, 36.0498173], [-95.7963828, 36.049788], [-95.7964106, 36.049788], [-95.7964106, 36.0498173]]]}, "properties": {"osm_id": 826015860, "building": "yes", "name": "", "height": null, "height_m": null, "levels": null, "tract_id": "40143007402", "tract_name": "74.02", "tags": {"building": "yes"}}}, {"type": "Feature", "geometry": {"type": "Polygon", "coordinates": [[[-95.7963472, 36.0496899], [-95.796297, 36.0496914], [-95.796293, 36.0496055], [-95.7963432, 36.049604], [-95.7963472, 36.0496899]]]}, "properties": {"osm_id": 826015861, "building": "yes", "name": "", "height": null, "height_m": null, "levels": null, "tract_id": "40143007402", "tract_name": "74.02", "tags": {"building": "yes"}}}, {"type": "Feature", "geometry": {"type": "Polygon", "coordinates": [[[-95.7960596, 36.0498241], [-95.7960113, 36.0498239], [-95.7960111, 36.0498577], [-95.7959699, 36.0498576], [-95.7959701, 36.049824], [-95.7960032, 36.0498241], [-95.7960036, 36.0497672], [-95.7960599, 36.0497674], [-95.7960596, 36.0498241]]]}, "properties": {"osm_id": 826015862, "building": "yes", "name": "", "height": null, "height_m": null, "levels": null, "tract_id": "40143007402", "tract_name": "74.02", "tags": {"building": "yes"}}}, {"type": "Feature", "geometry": {"type": "Polygon", "coordinates": [[[-95.7960307, 36.0501637], [-95.7960297, 36.0500667], [-95.7960903, 36.0500663], [-95.7960913, 36.0501633], [-95.7960307, 36.0501637]]]}, "properties": {"osm_id": 826015866, "building": "yes", "name": "", "height": null, "height_m": null, "levels": null, "tract_id": "40143007402", "tract_name": "74.02", "tags": {"building": "yes"}}}, {"type": "Feature", "geometry": {"type": "Polygon", "coordinates": [[[-95.7965038, 36.0500263], [-95.7964354, 36.0500266], [-95.7964351, 36.0499759], [-95.7965035, 36.0499756], [-95.7965038, 36.0500263]]]}, "properties": {"osm_id": 826015867, "building": "yes", "name": "", "height": null, "height_m": null, "levels": null, "tract_id": "40143007402", "tract_name": "74.02", "tags": {"building": "yes"}}}, {"type": "Feature", "geometry": {"type": "Polygon", "coordinates": [[[-95.7964371, 36.0501144], [-95.7964367, 36.0500439], [-95.7965071, 36.0500437], [-95.7965075, 36.0501142], [-95.7964371, 36.0501144]]]}, "properties": {"osm_id": 826015868, "building": "yes", "name": "", "height": null, "height_m": null, "levels": null, "tract_id": "40143007402", "tract_name": "74.02", "tags": {"building": "yes"}}}, {"type": "Feature", "geometry": {"type": "Polygon", "coordinates": [[[-95.795892, 36.0492575], [-95.796019, 36.0492575], [-95.796019, 36.0492424], [-95.796053, 36.0492424], [-95.796053, 36.049212], [-95.7960404, 36.049212], [-95.7960404, 36.0491814], [-95.7960301, 36.0491814], [-95.7960301, 36.0491635], [-95.796013, 36.0491635], [-95.796013, 36.04916], [-95.7959083, 36.04916], [-95.7959083, 36.0491635], [-95.795892, 36.0491635], [-95.795892, 36.0492575]]]}, "properties": {"osm_id": 826015869, "building": "yes", "name": "", "height": null, "height_m": null, "levels": null, "tract_id": "40143007402", "tract_name": "74.02", "tags": {"building": "yes", "source": "microsoft/BuildingFootprints"}}}, {"type": "Feature", "geometry": {"type": "Polygon", "coordinates": [[[-95.7959082, 36.049632], [-95.7960454, 36.0496318], [-95.7960452, 36.0495633], [-95.7960197, 36.0495633], [-95.7960196, 36.0495184], [-95.7959428, 36.0495185], [-95.7959429, 36.0495423], [-95.795908, 36.0495424], [-95.7959082, 36.049632]]]}, "properties": {"osm_id": 826015870, "building": "yes", "name": "", "height": null, "height_m": null, "levels": null, "tract_id": "40143007402", "tract_name": "74.02", "tags": {"building": "yes", "source": "microsoft/BuildingFootprints"}}}, {"type": "Feature", "geometry": {"type": "Polygon", "coordinates": [[[-95.7958584, 36.050164], [-95.7958946, 36.050164], [-95.7958946, 36.05017], [-95.7959596, 36.05017], [-95.7959596, 36.050164], [-95.796002, 36.050164], [-95.796002, 36.0500705], [-95.7959402, 36.0500705], [-95.7959402, 36.0500174], [-95.7958503, 36.0500174], [-95.7958503, 36.0500621], [-95.7958648, 36.0500621], [-95.7958648, 36.0500708], [-95.7958584, 36.0500708], [-95.7958584, 36.050164]]]}, "properties": {"osm_id": 826015872, "building": "yes", "name": "", "height": null, "height_m": null, "levels": null, "tract_id": "40143007402", "tract_name": "74.02", "tags": {"building": "yes", "source": "microsoft/BuildingFootprints"}}}, {"type": "Feature", "geometry": {"type": "Polygon", "coordinates": [[[-95.7963395, 36.0495373], [-95.7962704, 36.0495373], [-95.7962704, 36.049498], [-95.7961756, 36.049498], [-95.7961756, 36.0495148], [-95.7961213, 36.0495148], [-95.7961213, 36.0495975], [-95.7961806, 36.0495975], [-95.7961806, 36.0496585], [-95.7962577, 36.0496585], [-95.7962577, 36.0495975], [-95.7962704, 36.0495975], [-95.7962704, 36.0495945], [-95.7963395, 36.0495945], [-95.7963395, 36.0495373]]]}, "properties": {"osm_id": 826015874, "building": "yes", "name": "", "height": null, "height_m": null, "levels": null, "tract_id": "40143007402", "tract_name": "74.02", "tags": {"building": "yes", "source": "microsoft/BuildingFootprints"}}}, {"type": "Feature", "geometry": {"type": "Polygon", "coordinates": [[[-95.7955506, 36.048947], [-95.7954546, 36.048948], [-95.7954556, 36.049238], [-95.7955526, 36.049238], [-95.7955522, 36.0491732], [-95.7955665, 36.0491732], [-95.7955662, 36.0491336], [-95.7955519, 36.0491337], [-95.7955513, 36.0490475], [-95.7955665, 36.0490474], [-95.7955663, 36.0490105], [-95.7955511, 36.0490106], [-95.7955506, 36.048947]]]}, "properties": {"osm_id": 826015875, "building": "yes", "name": "", "height": null, "height_m": null, "levels": null, "tract_id": "40143007402", "tract_name": "74.02", "tags": {"building": "yes", "source": "microsoft/BuildingFootprints"}}}, {"type": "Feature", "geometry": {"type": "Polygon", "coordinates": [[[-95.796887, 36.050067], [-95.796617, 36.050065], [-95.796615, 36.050158], [-95.796886, 36.05016], [-95.796887, 36.050067]]]}, "properties": {"osm_id": 826015876, "building": "yes", "name": "", "height": null, "height_m": null, "levels": null, "tract_id": "40143007402", "tract_name": "74.02", "tags": {"building": "yes", "source": "microsoft/BuildingFootprints"}}}, {"type": "Feature", "geometry": {"type": "Polygon", "coordinates": [[[-95.7965598, 36.049235], [-95.796597, 36.049235], [-95.796597, 36.0492239], [-95.796653, 36.0492239], [-95.796653, 36.049053], [-95.7965333, 36.049053], [-95.7965333, 36.0491697], [-95.7965598, 36.0491697], [-95.7965598, 36.049235]]]}, "properties": {"osm_id": 826015877, "building": "yes", "name": "", "height": null, "height_m": null, "levels": null, "tract_id": "40143007402", "tract_name": "74.02", "tags": {"building": "yes", "source": "microsoft/BuildingFootprints"}}}, {"type": "Feature", "geometry": {"type": "Polygon", "coordinates": [[[-95.796586, 36.049504], [-95.796428, 36.049504], [-95.796428, 36.049589], [-95.796586, 36.049589], [-95.796586, 36.049504]]]}, "properties": {"osm_id": 826015878, "building": "yes", "name": "", "height": null, "height_m": null, "levels": null, "tract_id": "40143007402", "tract_name": "74.02", "tags": {"building": "yes", "source": "microsoft/BuildingFootprints"}}}, {"type": "Feature", "geometry": {"type": "Polygon", "coordinates": [[[-95.796352, 36.049183], [-95.796353, 36.049263], [-95.796495, 36.049262], [-95.796494, 36.049183], [-95.796352, 36.049183]]]}, "properties": {"osm_id": 826015879, "building": "yes", "name": "", "height": null, "height_m": null, "levels": null, "tract_id": "40143007402", "tract_name": "74.02", "tags": {"building": "yes", "source": "microsoft/BuildingFootprints"}}}, {"type": "Feature", "geometry": {"type": "Polygon", "coordinates": [[[-95.7952904, 36.0492582], [-95.7953904, 36.0492582], [-95.7953904, 36.0491114], [-95.7952904, 36.0491114], [-95.7952904, 36.0492582]]]}, "properties": {"osm_id": 826015880, "building": "yes", "name": "", "height": null, "height_m": null, "levels": null, "tract_id": "40143007402", "tract_name": "74.02", "tags": {"building": "yes", "source": "microsoft/BuildingFootprints"}}}, {"type": "Feature", "geometry": {"type": "Polygon", "coordinates": [[[-95.796192, 36.0492602], [-95.7962798, 36.0492602], [-95.7962798, 36.049179], [-95.796192, 36.049179], [-95.796192, 36.0492602]]]}, "properties": {"osm_id": 826015881, "building": "yes", "name": "", "height": null, "height_m": null, "levels": null, "tract_id": "40143007402", "tract_name": "74.02", "tags": {"building": "yes", "source": "microsoft/BuildingFootprints"}}}, {"type": "Feature", "geometry": {"type": "Polygon", "coordinates": [[[-95.7963385, 36.0501635], [-95.7963385, 36.050145], [-95.7963633, 36.050145], [-95.7963633, 36.0500737], [-95.7963392, 36.0500737], [-95.7963392, 36.0500683], [-95.7963147, 36.0500683], [-95.7963147, 36.0500396], [-95.7962312, 36.0500396], [-95.7962312, 36.0500667], [-95.796221, 36.0500667], [-95.796221, 36.0501537], [-95.7962299, 36.0501537], [-95.7962299, 36.050183], [-95.7963231, 36.050183], [-95.7963231, 36.0501635], [-95.7963385, 36.0501635]]]}, "properties": {"osm_id": 826015882, "building": "yes", "name": "", "height": null, "height_m": null, "levels": null, "tract_id": "40143007402", "tract_name": "74.02", "tags": {"building": "yes", "source": "microsoft/BuildingFootprints"}}}, {"type": "Feature", "geometry": {"type": "Polygon", "coordinates": [[[-95.7966342, 36.0496198], [-95.7967091, 36.0496181], [-95.7967048, 36.0494952], [-95.7966299, 36.0494969], [-95.7966342, 36.0496198]]]}, "properties": {"osm_id": 826015883, "building": "yes", "name": "", "height": null, "height_m": null, "levels": null, "tract_id": "40143007402", "tract_name": "74.02", "tags": {"building": "yes", "source": "microsoft/BuildingFootprints"}}}, {"type": "Feature", "geometry": {"type": "Polygon", "coordinates": [[[-95.7900109, 36.0532682], [-95.7900106, 36.0532149], [-95.7900627, 36.0532147], [-95.7900624, 36.0531602], [-95.7900109, 36.0531604], [-95.7900104, 36.0530761], [-95.7898633, 36.0530766], [-95.7898637, 36.0531584], [-95.7897412, 36.0531589], [-95.7897416, 36.0532287], [-95.7898591, 36.0532283], [-95.7898594, 36.0532688], [-95.7900109, 36.0532682]]]}, "properties": {"osm_id": 833896030, "building": "yes", "name": "", "height": null, "height_m": null, "levels": null, "tract_id": "40143007402", "tract_name": "74.02", "tags": {"addr:city": "Broken Arrow", "addr:housenumber": "121", "addr:postcode": "74012", "addr:street": "East College Street", "building": "yes"}}}, {"type": "Feature", "geometry": {"type": "Polygon", "coordinates": [[[-95.7900838, 36.0535752], [-95.7896233, 36.0535742], [-95.7896221, 36.0539776], [-95.7896119, 36.0539867], [-95.7896395, 36.0540066], [-95.7896445, 36.0539989], [-95.7897362, 36.0539991], [-95.7897364, 36.0539234], [-95.7900826, 36.0539241], [-95.7900838, 36.0535752]]]}, "properties": {"osm_id": 833897512, "building": "church", "name": "First United Methodist Church", "height": null, "height_m": null, "levels": null, "tract_id": "40143007402", "tract_name": "74.02", "tags": {"amenity": "place_of_worship", "building": "church", "denomination": "methodist", "name": "First United Methodist Church", "religion": "christian"}}}, {"type": "Feature", "geometry": {"type": "Polygon", "coordinates": [[[-95.7936897, 36.0500052], [-95.7936149, 36.0500846], [-95.7936246, 36.0500906], [-95.7935736, 36.0501448], [-95.7938032, 36.0502859], [-95.7938336, 36.050289], [-95.7939282, 36.0501885], [-95.7938296, 36.0501278], [-95.7938514, 36.0501047], [-95.7936897, 36.0500052]]]}, "properties": {"osm_id": 834021440, "building": "yes", "name": "", "height": null, "height_m": null, "levels": null, "tract_id": "40143007402", "tract_name": "74.02", "tags": {"building": "yes", "craft": "brewery"}}}, {"type": "Feature", "geometry": {"type": "Polygon", "coordinates": [[[-95.7940212, 36.0501475], [-95.7939858, 36.0501257], [-95.7939442, 36.0501699], [-95.7939796, 36.0501917], [-95.7940212, 36.0501475]]]}, "properties": {"osm_id": 834021441, "building": "yes", "name": "", "height": null, "height_m": null, "levels": null, "tract_id": "40143007402", "tract_name": "74.02", "tags": {"building": "yes"}}}, {"type": "Feature", "geometry": {"type": "Polygon", "coordinates": [[[-95.7918423, 36.0531262], [-95.7918584, 36.0530455], [-95.7918371, 36.0529702], [-95.791554, 36.0529719], [-95.7915327, 36.0530464], [-95.791554, 36.0531275], [-95.7918423, 36.0531262]]]}, "properties": {"osm_id": 834021443, "building": "yes", "name": "WRA", "height": null, "height_m": null, "levels": null, "tract_id": "40143007402", "tract_name": "74.02", "tags": {"addr:city": "Broken Arrow", "addr:housenumber": "111", "addr:postcode": "74012", "addr:street": "North Ash Avenue", "building": "yes", "name": "WRA"}}}, {"type": "Feature", "geometry": {"type": "Polygon", "coordinates": [[[-95.7918361, 36.0532165], [-95.791608, 36.0532169], [-95.7916078, 36.0531545], [-95.7915323, 36.0531547], [-95.7915326, 36.0532524], [-95.7915837, 36.0532523], [-95.791584, 36.053333], [-95.7918663, 36.0533325], [-95.7918661, 36.0532951], [-95.7918844, 36.0532951], [-95.7918841, 36.0531942], [-95.7918361, 36.0531943], [-95.7918361, 36.0532165]]]}, "properties": {"osm_id": 834021444, "building": "church", "name": "", "height": null, "height_m": null, "levels": null, "tract_id": "40143007402", "tract_name": "74.02", "tags": {"addr:city": "Broken Arrow", "addr:housenumber": "121", "addr:postcode": "74012", "addr:street": "North Ash Avenue", "building": "church"}}}, {"type": "Feature", "geometry": {"type": "Polygon", "coordinates": [[[-95.7904584, 36.0543329], [-95.7903752, 36.0543336], [-95.7903736, 36.0542131], [-95.7903555, 36.0542129], [-95.7903468, 36.0542176], [-95.7903345, 36.0542229], [-95.7903196, 36.0542276], [-95.7903081, 36.0542296], [-95.7902982, 36.0542301], [-95.7902981, 36.0542228], [-95.7902898, 36.0542229], [-95.7902899, 36.0542301], [-95.7902696, 36.0542278], [-95.7902603, 36.0542257], [-95.7902502, 36.0542221], [-95.7902415, 36.0542177], [-95.7902331, 36.0542129], [-95.7902257, 36.0542073], [-95.790221, 36.054203], [-95.7901907, 36.0542028], [-95.7901905, 36.0541763], [-95.7901428, 36.0541765], [-95.7901415, 36.0540015], [-95.7901891, 36.0540013], [-95.7901889, 36.0539796], [-95.7902486, 36.0539793], [-95.7902483, 36.0539478], [-95.7903678, 36.0539472], [-95.7903676, 36.0539173], [-95.7902639, 36.0539179], [-95.7902635, 36.0538669], [-95.7901387, 36.0538676], [-95.7901373, 36.0537062], [-95.7901547, 36.0537061], [-95.7901545, 36.05368], [-95.7901749, 36.0536799], [-95.7903705, 36.0536787], [-95.7904489, 36.0536782], [-95.7904488, 36.05367], [-95.7904546, 36.05367], [-95.7904544, 36.0536531], [-95.7903981, 36.0536538], [-95.790398, 36.0535621], [-95.7905559, 36.0535625], [-95.7905564, 36.053594], [-95.7905639, 36.0535941], [-95.7905637, 36.0536204], [-95.7905562, 36.0536203], [-95.7905568, 36.0536529], [-95.7904914, 36.0536529], [-95.7904916, 36.0536685], [-95.7904979, 36.0536684], [-95.790498, 36.0536735], [-95.7905624, 36.0536731], [-95.7905628, 36.0537048], [-95.7905708, 36.0537047], [-95.7905729, 36.053881], [-95.7906209, 36.0538806], [-95.7906216, 36.0539341], [-95.7906063, 36.0539343], [-95.7906096, 36.0542073], [-95.7905241, 36.054208], [-95.7905243, 36.054225], [-95.7904855, 36.0542253], [-95.7904859, 36.0542611], [-95.7904574, 36.0542614], [-95.7904584, 36.0543329]]]}, "properties": {"osm_id": 834026781, "building": "yes", "name": "Activity Building", "height": null, "height_m": null, "levels": null, "tract_id": "40143007402", "tract_name": "74.02", "tags": {"building": "yes", "denomination": "methodist", "name": "Activity Building", "operator": "First United Methodist Church"}}}, {"type": "Feature", "geometry": {"type": "Polygon", "coordinates": [[[-95.7898876, 36.0529091], [-95.7898874, 36.0528229], [-95.7896368, 36.0528233], [-95.789637, 36.0529095], [-95.7898876, 36.0529091]]]}, "properties": {"osm_id": 834026783, "building": "yes", "name": "", "height": null, "height_m": null, "levels": null, "tract_id": "40143007402", "tract_name": "74.02", "tags": {"building": "yes"}}}, {"type": "Feature", "geometry": {"type": "Polygon", "coordinates": [[[-95.7900378, 36.051273], [-95.7900362, 36.0511903], [-95.7900845, 36.0511916], [-95.7900833, 36.0508646], [-95.7898454, 36.0508644], [-95.7898454, 36.0508409], [-95.7900114, 36.0508411], [-95.7900116, 36.0506701], [-95.7900118, 36.0504624], [-95.7899148, 36.0504623], [-95.7898814, 36.0504623], [-95.7898814, 36.0504818], [-95.789803, 36.0504817], [-95.7897576, 36.0504817], [-95.7897576, 36.0504956], [-95.7896222, 36.0504956], [-95.7896223, 36.0507302], [-95.7896736, 36.0507302], [-95.7896736, 36.0508378], [-95.7897615, 36.0508378], [-95.7897615, 36.0508644], [-95.7897467, 36.0508644], [-95.7897467, 36.0509581], [-95.7896183, 36.0509581], [-95.7896182, 36.0510946], [-95.7897451, 36.0510946], [-95.7897451, 36.0511751], [-95.7897318, 36.0511751], [-95.7897317, 36.0512735], [-95.7900378, 36.051273]]]}, "properties": {"osm_id": 834231740, "building": "yes", "name": "Broken Arrow City Hall", "height": null, "height_m": null, "levels": null, "tract_id": "40143007402", "tract_name": "74.02", "tags": {"amenity": "townhall", "building": "yes", "name": "Broken Arrow City Hall", "townhall:type": "city"}}}, {"type": "Feature", "geometry": {"type": "Polygon", "coordinates": [[[-95.7925402, 36.0497212], [-95.7922872, 36.0497212], [-95.7922872, 36.0498084], [-95.7925402, 36.0498085], [-95.7925402, 36.0497212]]]}, "properties": {"osm_id": 834231742, "building": "yes", "name": "", "height": null, "height_m": null, "levels": null, "tract_id": "40143007402", "tract_name": "74.02", "tags": {"building": "yes"}}}, {"type": "Feature", "geometry": {"type": "Polygon", "coordinates": [[[-95.7899502, 36.0514932], [-95.7899051, 36.0514933], [-95.7899051, 36.0515018], [-95.7898246, 36.051502], [-95.7898245, 36.0514933], [-95.7897816, 36.051493], [-95.7897827, 36.0517679], [-95.7899513, 36.0517675], [-95.7899502, 36.0514932]]]}, "properties": {"osm_id": 834231743, "building": "yes", "name": "", "height": null, "height_m": null, "levels": null, "tract_id": "40143007402", "tract_name": "74.02", "tags": {"building": "yes"}}}, {"type": "Feature", "geometry": {"type": "Polygon", "coordinates": [[[-95.7897827, 36.0517679], [-95.7897094, 36.0517685], [-95.7897098, 36.0517493], [-95.7896143, 36.0517476], [-95.7896139, 36.0514886], [-95.7897816, 36.0514883], [-95.7897816, 36.051493], [-95.7897827, 36.0517679]]]}, "properties": {"osm_id": 834231744, "building": "yes", "name": "Phat Tire Bike Shop", "height": null, "height_m": null, "levels": null, "tract_id": "40143007402", "tract_name": "74.02", "tags": {"building": "yes", "name": "Phat Tire Bike Shop", "shop": "bicycle"}}}, {"type": "Feature", "geometry": {"type": "Polygon", "coordinates": [[[-95.7961436, 36.0538442], [-95.7960411, 36.0538435], [-95.7960406, 36.0538873], [-95.7959468, 36.0538867], [-95.7959474, 36.0538288], [-95.795965, 36.0538289], [-95.7959655, 36.0537762], [-95.7959947, 36.0537764], [-95.7959965, 36.0536051], [-95.7960801, 36.0535871], [-95.7961582, 36.0536062], [-95.7961567, 36.053749], [-95.7961558, 36.0538442], [-95.7961436, 36.0538442]]]}, "properties": {"osm_id": 834335117, "building": "church", "name": "Covenant Baptist Church", "height": null, "height_m": null, "levels": null, "tract_id": "40143007402", "tract_name": "74.02", "tags": {"addr:city": "Broken Arrow", "addr:housenumber": "500", "addr:postcode": "74012", "addr:state": "OK", "addr:street": "West College Street", "amenity": "place_of_worship", "building": "church", "denomination": "baptist", "ele": "225", "gnis:feature_id": "1782595", "name": "Covenant Baptist Church", "religion": "christian"}}}, {"type": "Feature", "geometry": {"type": "Polygon", "coordinates": [[[-95.7950614, 36.0586632], [-95.7950629, 36.0585144], [-95.7946895, 36.0585119], [-95.794688, 36.0586608], [-95.7950614, 36.0586632]]]}, "properties": {"osm_id": 834335118, "building": "church", "name": "Northside Freewill Baptist Church", "height": null, "height_m": null, "levels": null, "tract_id": "40143007402", "tract_name": "74.02", "tags": {"addr:housenumber": "701", "addr:postcode": "74012", "addr:street": "North Cedar Avenue", "amenity": "place_of_worship", "building": "church", "denomination": "baptist", "name": "Northside Freewill Baptist Church", "religion": "christian"}}}, {"type": "Feature", "geometry": {"type": "Polygon", "coordinates": [[[-95.7965947, 36.0567075], [-95.79659, 36.0563352], [-95.7968398, 36.0563332], [-95.796838, 36.0561869], [-95.7967546, 36.0561876], [-95.7968567, 36.0560979], [-95.796719, 36.0559956], [-95.7966009, 36.0560994], [-95.7966001, 36.0560237], [-95.7966172, 36.0560236], [-95.7966165, 36.0559556], [-95.7964078, 36.055957], [-95.7964102, 36.0561981], [-95.7963065, 36.0561987], [-95.7963048, 36.0560314], [-95.796096, 36.0560328], [-95.7960977, 36.0561977], [-95.7959619, 36.0561986], [-95.7959621, 36.0562215], [-95.7959498, 36.0562216], [-95.7959501, 36.0562495], [-95.7959262, 36.0562497], [-95.7959269, 36.0563099], [-95.7959584, 36.0563096], [-95.7959588, 36.0563388], [-95.7964359, 36.056335], [-95.7964406, 36.0567088], [-95.7965947, 36.0567075]]]}, "properties": {"osm_id": 834335119, "building": "yes", "name": "", "height": null, "height_m": null, "levels": null, "tract_id": "40143007402", "tract_name": "74.02", "tags": {"amenity": "social_facility", "building": "yes", "social_facility": "nursing_home", "social_facility:for": "senior"}}}, {"type": "Feature", "geometry": {"type": "Polygon", "coordinates": [[[-95.7963486, 36.0565454], [-95.7963274, 36.056558], [-95.7963528, 36.0565861], [-95.7962918, 36.0566221], [-95.7962123, 36.0565342], [-95.7962712, 36.0564994], [-95.7963, 36.0565313], [-95.7963234, 36.0565175], [-95.7963486, 36.0565454]]]}, "properties": {"osm_id": 834335120, "building": "yes", "name": "", "height": null, "height_m": null, "levels": null, "tract_id": "40143007402", "tract_name": "74.02", "tags": {"building": "yes"}}}, {"type": "Feature", "geometry": {"type": "Polygon", "coordinates": [[[-95.7914417, 36.0606142], [-95.7914412, 36.0605753], [-95.7914611, 36.0605751], [-95.7914598, 36.0604562], [-95.7914308, 36.0604564], [-95.7914302, 36.0604012], [-95.7913256, 36.060402], [-95.7913258, 36.0604193], [-95.791246, 36.0604198], [-95.7912463, 36.0604467], [-95.7912087, 36.060447], [-95.7912105, 36.0606166], [-95.7913332, 36.0606158], [-95.7913337, 36.0606635], [-95.791405, 36.060663], [-95.7914045, 36.0606145], [-95.7914417, 36.0606142]]]}, "properties": {"osm_id": 834335121, "building": "retail", "name": "RibCrib", "height": null, "height_m": null, "levels": null, "tract_id": "40143007402", "tract_name": "74.02", "tags": {"addr:city": "Broken Arrow", "addr:housenumber": "121", "addr:postcode": "74012", "addr:street": "West Kenosha Street", "amenity": "restaurant", "brand": "RibCrib", "brand:wikidata": "Q7322197", "building": "retail", "cuisine": "barbecue", "name": "RibCrib", "website": "https://ribcrib.com/locations/?location=broken-arrow"}}}, {"type": "Feature", "geometry": {"type": "Polygon", "coordinates": [[[-95.781456, 36.0533486], [-95.7811997, 36.0533481], [-95.7811986, 36.0532717], [-95.7811379, 36.0532707], [-95.7811373, 36.053216], [-95.7811157, 36.0532155], [-95.7811189, 36.0529168], [-95.7811401, 36.0529171], [-95.7811419, 36.0528459], [-95.7812967, 36.052847], [-95.7813014, 36.0527257], [-95.7815153, 36.0527261], [-95.7815164, 36.0527495], [-95.7815214, 36.0527491], [-95.7815204, 36.0528009], [-95.7815153, 36.0528005], [-95.7815164, 36.0528469], [-95.7815204, 36.0528465], [-95.7815175, 36.053271], [-95.7814547, 36.0532717], [-95.781456, 36.0533486]]]}, "properties": {"osm_id": 902530697, "building": "yes", "name": "", "height": null, "height_m": null, "levels": null, "tract_id": "40143007402", "tract_name": "74.02", "tags": {"building": "yes"}}}, {"type": "Feature", "geometry": {"type": "Polygon", "coordinates": [[[-95.7914098, 36.0505248], [-95.7909678, 36.0505226], [-95.7909676, 36.0504538], [-95.7914095, 36.0504529], [-95.7914098, 36.0505248]]]}, "properties": {"osm_id": 912611140, "building": "retail", "name": "", "height": null, "height_m": null, "levels": null, "tract_id": "40143007402", "tract_name": "74.02", "tags": {"addr:postcode": "74012", "addr:street": "South Main Street", "building": "retail"}}}, {"type": "Feature", "geometry": {"type": "Polygon", "coordinates": [[[-95.7909681, 36.0506392], [-95.790968, 36.0505906], [-95.791366, 36.0505898], [-95.7913661, 36.0506363], [-95.7909681, 36.0506392]]]}, "properties": {"osm_id": 912611141, "building": "retail", "name": "", "height": null, "height_m": null, "levels": null, "tract_id": "40143007402", "tract_name": "74.02", "tags": {"addr:housenumber": "222", "addr:postcode": "74012", "addr:street": "South Main Street", "building": "retail"}}}, {"type": "Feature", "geometry": {"type": "Polygon", "coordinates": [[[-95.7905691, 36.0561581], [-95.7905675, 36.0562083], [-95.7905499, 36.0562251], [-95.790432, 36.0562243], [-95.7904322, 36.0561577], [-95.7905691, 36.0561581]]]}, "properties": {"osm_id": 970461036, "building": "yes", "name": "Cheri Ann's Trattoria", "height": null, "height_m": null, "levels": null, "tract_id": "40143007402", "tract_name": "74.02", "tags": {"addr:city": "Broken Arrow", "addr:housenumber": "423", "addr:postcode": "74012", "addr:state": "OK", "addr:street": "North Main Street", "amenity": "restaurant", "building": "yes", "cuisine": "italian", "name": "Cheri Ann's Trattoria", "opening_hours": "Tu-Sa 16:00-20:00", "phone": "+1 918 251 0221"}}}, {"type": "Feature", "geometry": {"type": "Polygon", "coordinates": [[[-95.7971784, 36.0588228], [-95.7970618, 36.0588233], [-95.7970607, 36.0586191], [-95.7971772, 36.0586186], [-95.7971784, 36.0588228]]]}, "properties": {"osm_id": 987966709, "building": "commercial", "name": "", "height": null, "height_m": null, "levels": null, "tract_id": "40143007402", "tract_name": "74.02", "tags": {"building": "commercial"}}}, {"type": "Feature", "geometry": {"type": "Polygon", "coordinates": [[[-95.7972832, 36.0596012], [-95.7971637, 36.0595995], [-95.7971653, 36.0594958], [-95.7972831, 36.0594964], [-95.7972832, 36.0596012]]]}, "properties": {"osm_id": 987966710, "building": "commercial", "name": "Health Markets", "height": null, "height_m": null, "levels": null, "tract_id": "40143007402", "tract_name": "74.02", "tags": {"building": "commercial", "description": "they offer enrollment services for government health care plans", "insurance": "health", "name": "Health Markets", "office": "insurance", "phone": "+1-918-286-4949"}}}, {"type": "Feature", "geometry": {"type": "Polygon", "coordinates": [[[-95.7972692, 36.0596841], [-95.7972645, 36.0597133], [-95.7972621, 36.0597131], [-95.7972601, 36.0597223], [-95.7972625, 36.059723], [-95.7972593, 36.059743], [-95.7972403, 36.059741], [-95.7972379, 36.0597541], [-95.7971339, 36.0597529], [-95.7971333, 36.0597386], [-95.797113, 36.0597389], [-95.7971132, 36.0596854], [-95.7972692, 36.0596841]]]}, "properties": {"osm_id": 987966711, "building": "commercial", "name": "", "height": null, "height_m": null, "levels": null, "tract_id": "40143007402", "tract_name": "74.02", "tags": {"addr:housenumber": "803", "addr:postcode": "74012", "addr:street": "North Elm Place", "addr:unit": "A", "building": "commercial", "shop": "vacant"}}}, {"type": "Feature", "geometry": {"type": "Polygon", "coordinates": [[[-95.7967654, 36.0598554], [-95.796489, 36.0598547], [-95.7964897, 36.0596871], [-95.7967644, 36.0596874], [-95.7967654, 36.0598554]]]}, "properties": {"osm_id": 987966712, "building": "commercial", "name": "Advanced Orthopedics", "height": null, "height_m": null, "levels": null, "tract_id": "40143007402", "tract_name": "74.02", "tags": {"addr:housenumber": "524", "addr:postcode": "74012", "addr:street": "West Iola Street", "amenity": "doctors", "building": "commercial", "healthcare:speciality": "orthopaedics", "name": "Advanced Orthopedics", "opening_hours": "Mo-Fr 07:00-17:45"}}}, {"type": "Feature", "geometry": {"type": "Polygon", "coordinates": [[[-95.7814512, 36.0514359], [-95.7814464, 36.0510963], [-95.7809999, 36.0510943], [-95.7809987, 36.0509206], [-95.7822687, 36.0509245], [-95.7822663, 36.0502597], [-95.7804466, 36.0502549], [-95.7804418, 36.0505266], [-95.7800205, 36.0505256], [-95.7800217, 36.0509915], [-95.7804466, 36.0509924], [-95.7804502, 36.0510953], [-95.7800745, 36.0510953], [-95.7800697, 36.0514291], [-95.7814512, 36.0514359]]]}, "properties": {"osm_id": 1164772337, "building": "industrial", "name": "Pakkar Winch", "height": null, "height_m": null, "levels": null, "tract_id": "40143007402", "tract_name": "74.02", "tags": {"addr:city": "Broken Arrow", "addr:postcode": "74012", "addr:state": "OK", "addr:street": "South 9th Street", "building": "industrial", "industrial": "factory", "name": "Pakkar Winch", "old_name": "Braden Winch"}}}, {"type": "Feature", "geometry": {"type": "Polygon", "coordinates": [[[-95.7961678, 36.0598539], [-95.7958939, 36.059853], [-95.7958947, 36.0596883], [-95.7961686, 36.0596891], [-95.7961678, 36.0598539]]]}, "properties": {"osm_id": 1167958985, "building": "yes", "name": "Golden Steps ABA", "height": null, "height_m": null, "levels": null, "tract_id": "40143007402", "tract_name": "74.02", "tags": {"addr:housenumber": "504", "addr:postcode": "74012", "addr:street": "West Iola Street", "amenity": "doctors", "building": "yes", "description": "Applied Behavior Analysis therapy for children with Autism", "healthcare": "psychotherapist", "healthcare:speciality": "child_psychiatry", "name": "Golden Steps ABA", "website": "https://www.goldenstepsaba.com/"}}}, {"type": "Feature", "geometry": {"type": "Polygon", "coordinates": [[[-95.7972059, 36.0599542], [-95.797117, 36.0599535], [-95.7971171, 36.0599451], [-95.7970932, 36.0599449], [-95.7970936, 36.0599196], [-95.7970865, 36.0599195], [-95.7970878, 36.0598155], [-95.7970949, 36.0598155], [-95.7970952, 36.0597905], [-95.797234, 36.0597917], [-95.7972337, 36.0598167], [-95.7972381, 36.0598167], [-95.7972368, 36.0599208], [-95.7972323, 36.0599208], [-95.797232, 36.0599461], [-95.797206, 36.0599459], [-95.7972059, 36.0599542]]]}, "properties": {"osm_id": 1167958986, "building": "commercial", "name": "Eggroll Express", "height": null, "height_m": null, "levels": null, "tract_id": "40143007402", "tract_name": "74.02", "tags": {"building": "commercial", "name": "Eggroll Express", "note": "Drive Through Only", "opening_hours": "Mo-Sa 11:00-21:00; Su off"}}}, {"type": "Feature", "geometry": {"type": "Polygon", "coordinates": [[[-95.7954309, 36.0595921], [-95.7954305, 36.0595601], [-95.7954478, 36.05956], [-95.7954468, 36.0594787], [-95.7955289, 36.059478], [-95.7955295, 36.0595199], [-95.7955574, 36.0595197], [-95.7955583, 36.059591], [-95.7954309, 36.0595921]]]}, "properties": {"osm_id": 1188501439, "building": "detached", "name": "", "height": null, "height_m": null, "levels": null, "tract_id": "40143007402", "tract_name": "74.02", "tags": {"building": "detached"}}}, {"type": "Feature", "geometry": {"type": "Polygon", "coordinates": [[[-95.7971132, 36.0596854], [-95.7971133, 36.059632], [-95.7971333, 36.0596315], [-95.7971337, 36.0596131], [-95.7972628, 36.0596133], [-95.7972605, 36.0596303], [-95.7972775, 36.0596325], [-95.7972692, 36.0596841], [-95.7971132, 36.0596854]]]}, "properties": {"osm_id": 1188501474, "building": "commercial", "name": "Firehouse Roofing", "height": null, "height_m": null, "levels": null, "tract_id": "40143007402", "tract_name": "74.02", "tags": {"addr:housenumber": "803", "addr:postcode": "74012", "addr:street": "North Elm Place", "addr:unit": "B", "building": "commercial", "craft": "roofer", "name": "Firehouse Roofing"}}}, {"type": "Feature", "geometry": {"type": "Polygon", "coordinates": [[[-95.7970243, 36.0481613], [-95.7968146, 36.0481599], [-95.7968155, 36.0480741], [-95.797027, 36.0480769], [-95.7970243, 36.0481613]]]}, "properties": {"osm_id": 1230462667, "building": "yes", "name": "Church's Chicken", "height": null, "height_m": null, "levels": null, "tract_id": "40143007402", "tract_name": "74.02", "tags": {"addr:city": "Broken Arrow", "addr:housenumber": "415", "addr:postcode": "74012", "addr:state": "OK", "addr:street": "South Elm Place", "amenity": "fast_food", "brand": "Church's Chicken", "brand:wikidata": "Q1089932", "building": "yes", "cuisine": "chicken", "name": "Church's Chicken", "phone": "+1 918-286-1072", "takeaway": "yes", "website": "https://locations.churchs.com/ok/broken-arrow/415-s-elm-place"}}}, {"type": "Feature", "geometry": {"type": "Polygon", "coordinates": [[[-95.7941304, 36.0606905], [-95.7941639, 36.0606616], [-95.7941639, 36.0604594], [-95.7939316, 36.0604621], [-95.7939294, 36.0606905], [-95.7941304, 36.0606905]]]}, "properties": {"osm_id": 1232430914, "building": "commercial", "name": "Dubz Custom Wheels and Tires", "height": null, "height_m": null, "levels": null, "tract_id": "40143007402", "tract_name": "74.02", "tags": {"addr:housenumber": "317", "addr:postcode": "74012", "addr:street": "West Kenosha Street", "building": "commercial", "name": "Dubz Custom Wheels and Tires", "shop": "car_parts"}}}, {"type": "Feature", "geometry": {"type": "Polygon", "coordinates": [[[-95.7937951, 36.0606948], [-95.7937951, 36.0605571], [-95.7935589, 36.0605572], [-95.7935589, 36.0606948], [-95.7937951, 36.0606948]]]}, "properties": {"osm_id": 1232430915, "building": "commercial", "name": "Trav's Auto Lab", "height": null, "height_m": null, "levels": null, "tract_id": "40143007402", "tract_name": "74.02", "tags": {"addr:housenumber": "305", "addr:postcode": "74012", "addr:street": "West Kenosha Street", "building": "commercial", "name": "Trav's Auto Lab", "phone": "+1 918 455 0033", "shop": "car_repair"}}}, {"type": "Feature", "geometry": {"type": "Polygon", "coordinates": [[[-95.7930975, 36.0607214], [-95.7930972, 36.0606049], [-95.7929738, 36.0606051], [-95.7929741, 36.0607216], [-95.7930975, 36.0607214]]]}, "properties": {"osm_id": 1232430916, "building": "commercial", "name": "PL Financial Group", "height": null, "height_m": null, "levels": null, "tract_id": "40143007402", "tract_name": "74.02", "tags": {"addr:postcode": "74012", "addr:street": "West Kenosha Street", "building": "commercial", "name": "PL Financial Group", "shop": "money_lender"}}}, {"type": "Feature", "geometry": {"type": "Polygon", "coordinates": [[[-95.7928846, 36.0606856], [-95.7928846, 36.0605583], [-95.7926836, 36.0605583], [-95.7926836, 36.0606856], [-95.7928846, 36.0606856]]]}, "properties": {"osm_id": 1232430917, "building": "commercial", "name": "Martha's Health Food & Herbs", "height": null, "height_m": null, "levels": null, "tract_id": "40143007402", "tract_name": "74.02", "tags": {"addr:city": "Broken Arrow", "addr:housenumber": "215", "addr:postcode": "74012", "addr:state": "OK", "addr:street": "West Kenosha Street", "building": "commercial", "name": "Martha's Health Food & Herbs", "opening_hours": "Mo-Sa 09:30-17:30; Su 09:00-17:00", "shop": "nutrition_supplements"}}}, {"type": "Feature", "geometry": {"type": "Polygon", "coordinates": [[[-95.7926364, 36.0607043], [-95.7926364, 36.060554], [-95.7925029, 36.060554], [-95.7925029, 36.0607043], [-95.7926364, 36.0607043]]]}, "properties": {"osm_id": 1232430918, "building": "commercial", "name": "Broken Arrow Muffler and Radiator", "height": null, "height_m": null, "levels": null, "tract_id": "40143007402", "tract_name": "74.02", "tags": {"addr:postcode": "74012", "addr:street": "West Kenosha Street", "building": "commercial", "name": "Broken Arrow Muffler and Radiator", "shop": "car_repair"}}}, {"type": "Feature", "geometry": {"type": "Polygon", "coordinates": [[[-95.7924604, 36.0606261], [-95.7924615, 36.0605166], [-95.7922586, 36.0605153], [-95.7922573, 36.0606464], [-95.7924242, 36.0606475], [-95.7924244, 36.0606259], [-95.7924604, 36.0606261]]]}, "properties": {"osm_id": 1232430919, "building": "commercial", "name": "", "height": null, "height_m": null, "levels": null, "tract_id": "40143007402", "tract_name": "74.02", "tags": {"building": "commercial"}}}, {"type": "Feature", "geometry": {"type": "Polygon", "coordinates": [[[-95.7950731, 36.0606834], [-95.7950737, 36.0605404], [-95.7949442, 36.06054], [-95.7949437, 36.0606831], [-95.7950731, 36.0606834]]]}, "properties": {"osm_id": 1232430920, "building": "commercial", "name": "", "height": null, "height_m": null, "levels": null, "tract_id": "40143007402", "tract_name": "74.02", "tags": {"addr:postcode": "74012", "addr:street": "West Kenosha Street", "building": "commercial", "shop": "vacant"}}}, {"type": "Feature", "geometry": {"type": "Polygon", "coordinates": [[[-95.7949047, 36.0606696], [-95.7949032, 36.0604548], [-95.7947534, 36.0604555], [-95.7947549, 36.0606703], [-95.7949047, 36.0606696]]]}, "properties": {"osm_id": 1232430921, "building": "commercial", "name": "Purple Moon Dispensary", "height": null, "height_m": null, "levels": null, "tract_id": "40143007402", "tract_name": "74.02", "tags": {"addr:postcode": "74012", "addr:street": "West Kenosha Street", "building": "commercial", "name": "Purple Moon Dispensary", "shop": "cannabis"}}}, {"type": "Feature", "geometry": {"type": "Polygon", "coordinates": [[[-95.794174, 36.060383], [-95.793863, 36.0603819], [-95.7938633, 36.0603074], [-95.7941744, 36.0603085], [-95.794174, 36.060383]]]}, "properties": {"osm_id": 1232430924, "building": "commercial", "name": "", "height": null, "height_m": null, "levels": null, "tract_id": "40143007402", "tract_name": "74.02", "tags": {"building": "commercial"}}}, {"type": "Feature", "geometry": {"type": "Polygon", "coordinates": [[[-95.7824451, 36.0605189], [-95.7824445, 36.0605523], [-95.7824841, 36.0605528], [-95.7824829, 36.0606254], [-95.7824414, 36.060625], [-95.7824412, 36.0606357], [-95.7823825, 36.060635], [-95.7823844, 36.0605182], [-95.7824451, 36.0605189]]]}, "properties": {"osm_id": 1242710406, "building": "retail", "name": "Dutch Bros. Coffee", "height": null, "height_m": null, "levels": null, "tract_id": "40143007402", "tract_name": "74.02", "tags": {"addr:housenumber": "701", "addr:postcode": "74012", "addr:street": "East Kenosha Street", "amenity": "cafe", "brand": "Dutch Bros. Coffee", "brand:wikidata": "Q5317253", "building": "retail", "cuisine": "coffee_shop", "name": "Dutch Bros. Coffee", "shop": "coffee", "takeaway": "only"}}}, {"type": "Feature", "geometry": {"type": "Polygon", "coordinates": [[[-95.7821487, 36.0604425], [-95.7821478, 36.0605928], [-95.7817329, 36.0605911], [-95.7817341, 36.0603937], [-95.7820968, 36.0603952], [-95.7820965, 36.0604423], [-95.7821487, 36.0604425]]]}, "properties": {"osm_id": 1242710407, "building": "retail", "name": "", "height": null, "height_m": null, "levels": null, "tract_id": "40143007402", "tract_name": "74.02", "tags": {"addr:postcode": "74012", "addr:street": "East Kenosha Street", "building": "retail"}}}, {"type": "Feature", "geometry": {"type": "Polygon", "coordinates": [[[-95.7808451, 36.0605621], [-95.7808448, 36.0605203], [-95.7808505, 36.0605203], [-95.7808496, 36.0603698], [-95.7804677, 36.0603714], [-95.7804665, 36.0601855], [-95.7804111, 36.0601857], [-95.7804109, 36.0601521], [-95.7802319, 36.0601528], [-95.780234, 36.0604827], [-95.7802208, 36.0604828], [-95.7802213, 36.0605606], [-95.780335, 36.0605602], [-95.7803351, 36.060575], [-95.7803815, 36.0605748], [-95.7803815, 36.060564], [-95.7808451, 36.0605621]]]}, "properties": {"osm_id": 1242710408, "building": "retail", "name": "", "height": null, "height_m": null, "levels": null, "tract_id": "40143007402", "tract_name": "74.02", "tags": {"addr:postcode": "74012", "addr:street": "East Kenosha Street", "building": "retail"}}}, {"type": "Feature", "geometry": {"type": "Polygon", "coordinates": [[[-95.7843968, 36.0598289], [-95.7843532, 36.059852], [-95.7843699, 36.0598695], [-95.7842696, 36.0599489], [-95.7842717, 36.0600883], [-95.7841645, 36.0600876], [-95.784083, 36.0600896], [-95.7840768, 36.0597347], [-95.7840773, 36.0595699], [-95.7840752, 36.0591142], [-95.7840756, 36.0589716], [-95.7840756, 36.0589679], [-95.7841669, 36.0589653], [-95.7841769, 36.0589657], [-95.7842644, 36.0589689], [-95.784266, 36.0591172], [-95.7842672, 36.0593492], [-95.7842693, 36.0593611], [-95.7843644, 36.0594402], [-95.7843493, 36.0594523], [-95.7843736, 36.0594722], [-95.7843931, 36.0594807], [-95.784387, 36.0594922], [-95.7844346, 36.0595088], [-95.7844822, 36.0595255], [-95.7844906, 36.0595284], [-95.7844952, 36.0595217], [-95.7845119, 36.0595263], [-95.7848696, 36.059489], [-95.7848969, 36.0596465], [-95.7848767, 36.0598134], [-95.784514, 36.0597818], [-95.784492, 36.0597887], [-95.7844444, 36.0598088], [-95.7843968, 36.0598289]]]}, "properties": {"osm_id": 1257238428, "building": "church", "name": "Broken Arrow Church of Christ", "height": null, "height_m": null, "levels": null, "tract_id": "40143007402", "tract_name": "74.02", "tags": {"addr:city": "Broken Arrow", "addr:housenumber": "505", "addr:state": "OK", "addr:street": "East Kenosha Street South", "amenity": "place_of_worship", "building": "church", "ele": "231", "gnis:feature_id": "1782589", "layer": "1", "name": "Broken Arrow Church of Christ", "phone": "+1 918 258 9602", "religion": "christian"}}}, {"type": "Feature", "geometry": {"type": "Polygon", "coordinates": [[[-95.7843423, 36.0590083], [-95.7845602, 36.0590086], [-95.7847724, 36.0590089], [-95.7847719, 36.0589747], [-95.7848013, 36.0589745], [-95.7848376, 36.0589743], [-95.7848427, 36.0589026], [-95.7848418, 36.05884], [-95.7849126, 36.0588386], [-95.7849117, 36.0586349], [-95.7848457, 36.0586348], [-95.7848457, 36.0585687], [-95.7848349, 36.0585687], [-95.7848379, 36.0585024], [-95.784803, 36.0585016], [-95.7847719, 36.0585008], [-95.7847714, 36.0584335], [-95.7845986, 36.0584346], [-95.7843429, 36.0584348], [-95.7843424, 36.0585035], [-95.7843131, 36.0585032], [-95.7842687, 36.0585028], [-95.7842701, 36.0585682], [-95.7842511, 36.0585682], [-95.7842511, 36.0586362], [-95.7842511, 36.0586403], [-95.7841992, 36.0586403], [-95.7841994, 36.0586924], [-95.7841945, 36.0586926], [-95.7841949, 36.0587884], [-95.7841994, 36.0587884], [-95.7841992, 36.0588349], [-95.7842483, 36.0588351], [-95.7842503, 36.0588708], [-95.7842521, 36.0589025], [-95.7843371, 36.0589036], [-95.7843423, 36.0590083]]]}, "properties": {"osm_id": 1257238429, "building": "yes", "name": "Outreach Center", "height": null, "height_m": null, "levels": null, "tract_id": "40143007402", "tract_name": "74.02", "tags": {"building": "yes", "name": "Outreach Center"}}}, {"type": "Feature", "geometry": {"type": "Polygon", "coordinates": [[[-95.784164, 36.0586717], [-95.784089, 36.0586714], [-95.784089, 36.0586104], [-95.784164, 36.05861], [-95.784164, 36.0586717]]]}, "properties": {"osm_id": 1257238431, "building": "pavilion", "name": "", "height": null, "height_m": null, "levels": null, "tract_id": "40143007402", "tract_name": "74.02", "tags": {"access": "private", "building": "pavilion"}}}, {"type": "Feature", "geometry": {"type": "Polygon", "coordinates": [[[-95.7904853, 36.0572704], [-95.7901718, 36.0572721], [-95.7901693, 36.0569523], [-95.7904827, 36.0569506], [-95.7904829, 36.0569776], [-95.7904838, 36.0570834], [-95.7904847, 36.0571912], [-95.7904852, 36.0572606], [-95.7904853, 36.0572704]]]}, "properties": {"osm_id": 1257942722, "building": "retail", "name": "", "height": null, "height_m": null, "levels": null, "tract_id": "40143007402", "tract_name": "74.02", "tags": {"addr:city": "Broken Arrow", "addr:postcode": "74012", "addr:street": "North Main Street", "building": "retail"}}}, {"type": "Feature", "geometry": {"type": "Polygon", "coordinates": [[[-95.7961567, 36.053749], [-95.7961834, 36.0537491], [-95.7961833, 36.0537692], [-95.796461, 36.0537702], [-95.7964604, 36.0538873], [-95.7961727, 36.0538862], [-95.7961729, 36.0538476], [-95.7961435, 36.0538475], [-95.7961436, 36.0538442], [-95.7961558, 36.0538442], [-95.7961567, 36.053749]]]}, "properties": {"osm_id": 1257942723, "building": "yes", "name": "", "height": null, "height_m": null, "levels": null, "tract_id": "40143007402", "tract_name": "74.02", "tags": {"amenity": "school", "building": "yes", "ele": "222"}}}, {"type": "Feature", "geometry": {"type": "Polygon", "coordinates": [[[-95.7930882, 36.0527614], [-95.7930019, 36.052761], [-95.7930012, 36.0528645], [-95.7929092, 36.0528641], [-95.79291, 36.0527606], [-95.792818, 36.0527602], [-95.7928185, 36.0526868], [-95.7927918, 36.0526866], [-95.7927924, 36.052602], [-95.7929244, 36.0526026], [-95.7929245, 36.0525847], [-95.7929821, 36.052585], [-95.792982, 36.0526029], [-95.7931042, 36.0526035], [-95.7931037, 36.0526701], [-95.7931434, 36.0526703], [-95.7931431, 36.0527135], [-95.7931149, 36.0527134], [-95.7931147, 36.0527351], [-95.7930884, 36.052735], [-95.7930882, 36.0527614]]]}, "properties": {"osm_id": 1258376974, "building": "yes", "name": "Garrett Funeral Home and Cremation Service", "height": null, "height_m": null, "levels": null, "tract_id": "40143007402", "tract_name": "74.02", "tags": {"addr:city": "Broken Arrow", "addr:housenumber": "222", "addr:postcode": "74012", "addr:street": "West Broadway Avenue", "building": "yes", "name": "Garrett Funeral Home and Cremation Service", "shop": "funeral_directors"}}}, {"type": "Feature", "geometry": {"type": "Polygon", "coordinates": [[[-95.7930924, 36.0521536], [-95.7931138, 36.0521538], [-95.7931133, 36.05219], [-95.7931332, 36.0521902], [-95.7931319, 36.0522739], [-95.793019, 36.0522728], [-95.7930193, 36.0522568], [-95.7930107, 36.0522567], [-95.7930125, 36.0521411], [-95.7930536, 36.0521415], [-95.7930538, 36.0521284], [-95.7930928, 36.0521288], [-95.7930924, 36.0521536]]]}, "properties": {"osm_id": 1258911159, "building": "house", "name": "", "height": null, "height_m": null, "levels": null, "tract_id": "40143007402", "tract_name": "74.02", "tags": {"addr:city": "Broken Arrow", "addr:postcode": "74012", "addr:street": "West Broadway Avenue", "building": "house"}}}, {"type": "Feature", "geometry": {"type": "Polygon", "coordinates": [[[-95.7922232, 36.0522621], [-95.7922242, 36.0521912], [-95.7922381, 36.0521913], [-95.7922383, 36.0521786], [-95.7922451, 36.0521787], [-95.7922457, 36.0521376], [-95.7922664, 36.0521377], [-95.7922665, 36.0521308], [-95.7923158, 36.0521313], [-95.7923151, 36.0521793], [-95.7923313, 36.0521795], [-95.7923302, 36.0522578], [-95.7923195, 36.0522577], [-95.7923193, 36.0522737], [-95.792236, 36.0522729], [-95.7922232, 36.0522621]]]}, "properties": {"osm_id": 1258911161, "building": "house", "name": "Hideaway Salon", "height": null, "height_m": null, "levels": null, "tract_id": "40143007402", "tract_name": "74.02", "tags": {"addr:city": "Broken Arrow", "addr:housenumber": "201", "addr:postcode": "74012", "addr:street": "West Broadway Avenue", "building": "house", "name": "Hideaway Salon", "phone": "+1 918 251 4082", "shop": "hairdresser"}}}, {"type": "Feature", "geometry": {"type": "Polygon", "coordinates": [[[-95.7922941, 36.052706], [-95.7922945, 36.0526227], [-95.792328, 36.0526228], [-95.7923281, 36.0526176], [-95.7923827, 36.0526179], [-95.7923825, 36.0526398], [-95.7923774, 36.0526398], [-95.7923769, 36.0527064], [-95.7923735, 36.0527064], [-95.7923734, 36.0527216], [-95.7923324, 36.0527214], [-95.7923325, 36.0527062], [-95.7922941, 36.052706]]]}, "properties": {"osm_id": 1258911162, "building": "house", "name": "", "height": null, "height_m": null, "levels": null, "tract_id": "40143007402", "tract_name": "74.02", "tags": {"addr:city": "Broken Arrow", "addr:housenumber": "206", "addr:postcode": "74012", "addr:street": "West Broadway Avenue", "building": "house"}}}, {"type": "Feature", "geometry": {"type": "Polygon", "coordinates": [[[-95.7922941, 36.052706], [-95.7922557, 36.0527058], [-95.7922556, 36.0527218], [-95.7922155, 36.0527216], [-95.7922156, 36.0527056], [-95.7922119, 36.0527056], [-95.7922123, 36.0526405], [-95.7922062, 36.0526405], [-95.7922064, 36.0526169], [-95.792261, 36.0526172], [-95.792261, 36.0526225], [-95.7922945, 36.0526227], [-95.7922941, 36.052706]]]}, "properties": {"osm_id": 1258911163, "building": "house", "name": "", "height": null, "height_m": null, "levels": null, "tract_id": "40143007402", "tract_name": "74.02", "tags": {"addr:city": "Broken Arrow", "addr:housenumber": "204", "addr:postcode": "74012", "addr:street": "West Broadway Avenue", "building": "house"}}}, {"type": "Feature", "geometry": {"type": "Polygon", "coordinates": [[[-95.7914261, 36.0569054], [-95.7910219, 36.0569048], [-95.7910222, 36.0567678], [-95.7914264, 36.0567684], [-95.7914261, 36.0569054]]]}, "properties": {"osm_id": 1258911212, "building": "retail", "name": "Goodyear", "height": null, "height_m": null, "levels": null, "tract_id": "40143007402", "tract_name": "74.02", "tags": {"addr:city": "Broken Arrow", "addr:postcode": "74012", "addr:street": "North Main Street", "building": "retail", "name": "Goodyear", "shop": "tyres"}}}, {"type": "Feature", "geometry": {"type": "Polygon", "coordinates": [[[-95.7923455, 36.0520337], [-95.7923449, 36.0520838], [-95.7922089, 36.0520827], [-95.7922106, 36.0519454], [-95.7924726, 36.0519475], [-95.792472, 36.0519912], [-95.7924151, 36.0519907], [-95.7924146, 36.0520342], [-95.7923455, 36.0520337]]]}, "properties": {"osm_id": 1259202401, "building": "retail", "name": "", "height": null, "height_m": null, "levels": null, "tract_id": "40143007402", "tract_name": "74.02", "tags": {"building": "retail"}}}, {"type": "Feature", "geometry": {"type": "Polygon", "coordinates": [[[-95.7922287, 36.0518601], [-95.7922265, 36.051584], [-95.7922361, 36.0515839], [-95.7922359, 36.051552], [-95.7923052, 36.0515517], [-95.7923053, 36.0515612], [-95.7923694, 36.0515609], [-95.7923719, 36.0518751], [-95.7922385, 36.0518758], [-95.7922383, 36.05186], [-95.7922287, 36.0518601]]]}, "properties": {"osm_id": 1259202402, "building": "retail", "name": "Clunn, Tygart, and Company", "height": null, "height_m": null, "levels": null, "tract_id": "40143007402", "tract_name": "74.02", "tags": {"addr:housenumber": "124", "addr:postcode": "74012", "addr:street": "South Ash Avenue", "building": "retail", "description": "Jimmy C. Clunn, James H. Tygart, and Chad J. Tygart, Certified Public Accountants", "name": "Clunn, Tygart, and Company", "office": "accountant"}}}, {"type": "Feature", "geometry": {"type": "Polygon", "coordinates": [[[-95.7925086, 36.0517939], [-95.7924168, 36.0517943], [-95.7924154, 36.0515514], [-95.7925073, 36.0515511], [-95.7925086, 36.0517939]]]}, "properties": {"osm_id": 1259202403, "building": "apartments", "name": "", "height": null, "height_m": null, "levels": null, "tract_id": "40143007402", "tract_name": "74.02", "tags": {"building": "apartments"}}}, {"type": "Feature", "geometry": {"type": "Polygon", "coordinates": [[[-95.7926998, 36.0517939], [-95.7926073, 36.0517944], [-95.7926052, 36.0515489], [-95.7926977, 36.0515484], [-95.7926998, 36.0517939]]]}, "properties": {"osm_id": 1259202404, "building": "apartments", "name": "", "height": null, "height_m": null, "levels": null, "tract_id": "40143007402", "tract_name": "74.02", "tags": {"building": "apartments"}}}, {"type": "Feature", "geometry": {"type": "Polygon", "coordinates": [[[-95.7910342, 36.0552633], [-95.7910341, 36.0552079], [-95.7910101, 36.0552079], [-95.79101, 36.0551506], [-95.7910339, 36.0551505], [-95.7910338, 36.0551035], [-95.791038, 36.0551035], [-95.7910379, 36.0550971], [-95.7911543, 36.055097], [-95.7911543, 36.0550938], [-95.7913491, 36.0550936], [-95.7913493, 36.0551668], [-95.7912449, 36.0551669], [-95.7912449, 36.0551938], [-95.7911801, 36.0551939], [-95.7911803, 36.0552631], [-95.7910342, 36.0552633]]]}, "properties": {"osm_id": 1259202405, "building": "house", "name": "", "height": null, "height_m": null, "levels": null, "tract_id": "40143007402", "tract_name": "74.02", "tags": {"addr:city": "Broken Arrow", "addr:postcode": "74012", "addr:street": "North Main Street", "building": "house"}}}, {"type": "Feature", "geometry": {"type": "Polygon", "coordinates": [[[-95.7900564, 36.0545113], [-95.7901996, 36.0545116], [-95.7901996, 36.0545165], [-95.7904486, 36.054517], [-95.7904486, 36.0545121], [-95.7905949, 36.0545124], [-95.7905947, 36.0545853], [-95.7905712, 36.0545852], [-95.7905708, 36.0547139], [-95.7905943, 36.0547139], [-95.790594, 36.0547917], [-95.7904481, 36.0547914], [-95.7904482, 36.054786], [-95.7903363, 36.0547858], [-95.7903361, 36.0548486], [-95.7903603, 36.0548486], [-95.7903598, 36.0549885], [-95.7903356, 36.0549885], [-95.7903354, 36.0550532], [-95.7904473, 36.0550534], [-95.7904474, 36.0550467], [-95.7905932, 36.055047], [-95.7905929, 36.0551226], [-95.7905694, 36.0551225], [-95.790569, 36.055251], [-95.7905925, 36.055251], [-95.7905923, 36.0553278], [-95.7904454, 36.0553275], [-95.7904454, 36.0553229], [-95.790197, 36.0553223], [-95.790197, 36.0553269], [-95.7900537, 36.0553266], [-95.7900546, 36.0550484], [-95.7900794, 36.0550484], [-95.7900803, 36.054789], [-95.7900555, 36.0547889], [-95.7900564, 36.0545113]]]}, "properties": {"osm_id": 1259202406, "building": "yes", "name": "", "height": null, "height_m": null, "levels": null, "tract_id": "40143007402", "tract_name": "74.02", "tags": {"building": "yes", "description": "mixed use building with retail on lower levels and residential on upper levels. Probably about 5 levels total."}}}, {"type": "Feature", "geometry": {"type": "Polygon", "coordinates": [[[-95.7901985, 36.0574031], [-95.7904401, 36.0574024], [-95.7904412, 36.0576412], [-95.7901995, 36.0576419], [-95.7901985, 36.0574031]]]}, "properties": {"osm_id": 1259202407, "building": "commercial", "name": "World Dental Relief", "height": null, "height_m": null, "levels": null, "tract_id": "40143007402", "tract_name": "74.02", "tags": {"addr:city": "Broken Arrow", "addr:housenumber": "609", "addr:postcode": "74012", "addr:street": "North Main Street", "building": "commercial", "description": "Dental Mission Warehouse. Dr. Ron Lamb", "name": "World Dental Relief", "office": "ngo"}}}, {"type": "Feature", "geometry": {"type": "Polygon", "coordinates": [[[-95.7909505, 36.0561885], [-95.7909522, 36.0560496], [-95.7913817, 36.0560531], [-95.7913801, 36.056188], [-95.7912135, 36.0561867], [-95.7912134, 36.0561906], [-95.7909505, 36.0561885]]]}, "properties": {"osm_id": 1259202408, "building": "retail", "name": "", "height": null, "height_m": null, "levels": null, "tract_id": "40143007402", "tract_name": "74.02", "tags": {"addr:city": "Broken Arrow", "addr:postcode": "74012", "addr:street": "North Main Street", "building": "retail"}}}, {"type": "Feature", "geometry": {"type": "Polygon", "coordinates": [[[-95.7909398, 36.0560241], [-95.7909408, 36.0558034], [-95.7909417, 36.0558034], [-95.7912602, 36.0558042], [-95.7912603, 36.0557787], [-95.7913183, 36.0557789], [-95.7913443, 36.0557969], [-95.7913434, 36.0560252], [-95.7909398, 36.0560241]]]}, "properties": {"osm_id": 1259202409, "building": "retail", "name": "Family Treasures Antique Mall", "height": null, "height_m": null, "levels": null, "tract_id": "40143007402", "tract_name": "74.02", "tags": {"addr:city": "Broken Arrow", "addr:postcode": "74012", "addr:street": "North Main Street", "building": "retail", "name": "Family Treasures Antique Mall", "shop": "antiques"}}}, {"type": "Feature", "geometry": {"type": "Polygon", "coordinates": [[[-95.7912602, 36.0558042], [-95.7909417, 36.0558034], [-95.7909424, 36.0556379], [-95.7912609, 36.0556388], [-95.7912603, 36.0557787], [-95.7912602, 36.0558042]]]}, "properties": {"osm_id": 1259202410, "building": "retail", "name": "", "height": null, "height_m": null, "levels": null, "tract_id": "40143007402", "tract_name": "74.02", "tags": {"addr:city": "Broken Arrow", "addr:postcode": "74012", "addr:street": "North Main Street", "building": "retail"}}}, {"type": "Feature", "geometry": {"type": "Polygon", "coordinates": [[[-95.7909424, 36.0556379], [-95.7909431, 36.0554917], [-95.7911725, 36.0554924], [-95.7911724, 36.0555006], [-95.7911882, 36.0555006], [-95.7911879, 36.0555805], [-95.7913568, 36.0555809], [-95.7913566, 36.055639], [-95.7912609, 36.0556388], [-95.7909424, 36.0556379]]]}, "properties": {"osm_id": 1259202411, "building": "retail", "name": "Newcomb Chiropractic Clinic", "height": null, "height_m": null, "levels": null, "tract_id": "40143007402", "tract_name": "74.02", "tags": {"addr:city": "Broken Arrow", "addr:postcode": "74012", "addr:street": "North Main Street", "amenity": "chiropractor", "building": "retail", "healthcare": "clinic", "healthcare:speciality": "chiropractic", "name": "Newcomb Chiropractic Clinic"}}}, {"type": "Feature", "geometry": {"type": "Polygon", "coordinates": [[[-95.7898882, 36.0557064], [-95.7898073, 36.0557066], [-95.7898068, 36.0555413], [-95.7898407, 36.0555413], [-95.7898408, 36.0555559], [-95.7898742, 36.0555558], [-95.7898742, 36.0555635], [-95.7898877, 36.0555635], [-95.7898882, 36.0557064]]]}, "properties": {"osm_id": 1259202412, "building": "house", "name": "", "height": null, "height_m": null, "levels": null, "tract_id": "40143007402", "tract_name": "74.02", "tags": {"addr:housenumber": "122", "addr:postcode": "74012", "addr:street": "East Elgin Street", "building": "house", "house": "terraced"}}}, {"type": "Feature", "geometry": {"type": "Polygon", "coordinates": [[[-95.7900569, 36.0558589], [-95.7898504, 36.0558593], [-95.7898503, 36.0558305], [-95.7898196, 36.0558306], [-95.7898194, 36.0557879], [-95.7900567, 36.0557875], [-95.7900569, 36.0558589]]]}, "properties": {"osm_id": 1259202413, "building": "house", "name": "", "height": null, "height_m": null, "levels": null, "tract_id": "40143007402", "tract_name": "74.02", "tags": {"addr:housenumber": "410", "addr:postcode": "74012", "addr:street": "North 1st Street", "building": "house"}}}, {"type": "Feature", "geometry": {"type": "Polygon", "coordinates": [[[-95.7896944, 36.0555654], [-95.7897108, 36.0555655], [-95.7897108, 36.0555414], [-95.789746, 36.0555415], [-95.789746, 36.0555571], [-95.7897795, 36.0555571], [-95.789779, 36.0557085], [-95.7896939, 36.0557083], [-95.7896944, 36.0555654]]]}, "properties": {"osm_id": 1259202414, "building": "house", "name": "", "height": null, "height_m": null, "levels": null, "tract_id": "40143007402", "tract_name": "74.02", "tags": {"addr:housenumber": "130", "addr:postcode": "74012", "addr:street": "East Elgin Street", "building": "house", "house": "terraced"}}}, {"type": "Feature", "geometry": {"type": "Polygon", "coordinates": [[[-95.7902293, 36.0555019], [-95.790391, 36.0555014], [-95.7903919, 36.0557054], [-95.7901738, 36.0557063], [-95.7901737, 36.0556639], [-95.7902299, 36.0556638], [-95.7902293, 36.0555019]]]}, "properties": {"osm_id": 1259202415, "building": "retail", "name": "Sprayd Tanning Salon", "height": null, "height_m": null, "levels": null, "tract_id": "40143007402", "tract_name": "74.02", "tags": {"addr:city": "Broken Arrow", "addr:housenumber": "401", "addr:postcode": "74012", "addr:street": "North Main Street", "beauty": "tanning", "building": "retail", "description": "air brush tanning", "name": "Sprayd Tanning Salon", "phone": "+1 918 619 2384", "shop": "beauty"}}}, {"type": "Feature", "geometry": {"type": "Polygon", "coordinates": [[[-95.7903869, 36.0561545], [-95.7903592, 36.0561545], [-95.7903592, 36.0561514], [-95.7902211, 36.0561518], [-95.7902204, 36.0559774], [-95.7903745, 36.055977], [-95.7903744, 36.0559553], [-95.7903861, 36.0559553], [-95.7903869, 36.0561545]]]}, "properties": {"osm_id": 1259202416, "building": "retail", "name": "", "height": null, "height_m": null, "levels": null, "tract_id": "40143007402", "tract_name": "74.02", "tags": {"addr:city": "Broken Arrow", "addr:postcode": "74012", "addr:street": "North Main Street", "building": "retail"}}}, {"type": "Feature", "geometry": {"type": "Polygon", "coordinates": [[[-95.7903939, 36.0557058], [-95.7903944, 36.0558306], [-95.7903739, 36.0558306], [-95.7903738, 36.0558084], [-95.790204, 36.0558089], [-95.7901608, 36.055809], [-95.7901604, 36.0557064], [-95.7901738, 36.0557063], [-95.7903919, 36.0557054], [-95.7903939, 36.0557058]]]}, "properties": {"osm_id": 1259202417, "building": "retail", "name": "State Beauty Supply", "height": null, "height_m": null, "levels": null, "tract_id": "40143007402", "tract_name": "74.02", "tags": {"addr:city": "Broken Arrow", "addr:housenumber": "407", "addr:postcode": "74012", "addr:street": "North Main Street", "building": "retail", "name": "State Beauty Supply", "opening_hours": "Mo-Fr 08:00-17:00; Sa 09:00-12:00", "shop": "beautician"}}}, {"type": "Feature", "geometry": {"type": "Polygon", "coordinates": [[[-95.7902046, 36.0559775], [-95.790204, 36.0558089], [-95.7903738, 36.0558084], [-95.7903739, 36.0558306], [-95.7903744, 36.0559553], [-95.7903745, 36.055977], [-95.7902204, 36.0559774], [-95.7902046, 36.0559775]]]}, "properties": {"osm_id": 1259202418, "building": "retail", "name": "", "height": null, "height_m": null, "levels": null, "tract_id": "40143007402", "tract_name": "74.02", "tags": {"addr:city": "Broken Arrow", "addr:postcode": "74012", "addr:street": "North Main Street", "building": "retail"}}}, {"type": "Feature", "geometry": {"type": "Polygon", "coordinates": [[[-95.7910475, 36.0547454], [-95.7911455, 36.0547454], [-95.7911455, 36.0548107], [-95.7911564, 36.0548107], [-95.7911564, 36.0548636], [-95.7911515, 36.0548636], [-95.7911515, 36.0548924], [-95.7910822, 36.0548924], [-95.7910822, 36.0548517], [-95.7910258, 36.0548517], [-95.7910258, 36.0547856], [-95.7910475, 36.0547856], [-95.7910475, 36.0547454]]]}, "properties": {"osm_id": 1259431960, "building": "house", "name": "", "height": null, "height_m": null, "levels": null, "tract_id": "40143007402", "tract_name": "74.02", "tags": {"addr:city": "Broken Arrow", "addr:housenumber": "312", "addr:postcode": "74012", "addr:street": "North Main Street", "building": "house"}}}, {"type": "Feature", "geometry": {"type": "Polygon", "coordinates": [[[-95.7911485, 36.0547015], [-95.7909609, 36.0547016], [-95.7909608, 36.0545246], [-95.7911483, 36.0545245], [-95.7911485, 36.0547015]]]}, "properties": {"osm_id": 1259431961, "building": "commercial", "name": "Woods Building", "height": null, "height_m": null, "levels": null, "tract_id": "40143007402", "tract_name": "74.02", "tags": {"addr:city": "Broken Arrow", "addr:housenumber": "300", "addr:postcode": "74012", "addr:street": "North Main Street", "building": "commercial", "name": "Woods Building", "start_date": "2015"}}}, {"type": "Feature", "geometry": {"type": "Polygon", "coordinates": [[[-95.7913817, 36.0560531], [-95.7914399, 36.0560536], [-95.7914382, 36.0561885], [-95.7913801, 36.056188], [-95.7913817, 36.0560531]]]}, "properties": {"osm_id": 1259431962, "building": "roof", "name": "", "height": null, "height_m": null, "levels": null, "tract_id": "40143007402", "tract_name": "74.02", "tags": {"building": "roof"}}}, {"type": "Feature", "geometry": {"type": "Polygon", "coordinates": [[[-95.7935599, 36.0543038], [-95.7934976, 36.0543035], [-95.7934977, 36.0543001], [-95.7934569, 36.0542999], [-95.7934408, 36.0542954], [-95.793441, 36.0542701], [-95.7934374, 36.0542701], [-95.7934381, 36.0541865], [-95.7934417, 36.0541865], [-95.7934419, 36.054164], [-95.7935412, 36.0541646], [-95.7935412, 36.05417], [-95.7935555, 36.05417], [-95.7935553, 36.0541888], [-95.7935608, 36.0541889], [-95.7935599, 36.0543038]]]}, "properties": {"osm_id": 1259431966, "building": "house", "name": "", "height": null, "height_m": null, "levels": null, "tract_id": "40143007402", "tract_name": "74.02", "tags": {"addr:housenumber": "301", "addr:postcode": "74012", "addr:street": "West Detroit Street", "building": "house"}}}, {"type": "Feature", "geometry": {"type": "Polygon", "coordinates": [[[-95.7938107, 36.0540499], [-95.7938098, 36.054291], [-95.7937623, 36.0542909], [-95.7937624, 36.0542783], [-95.7937111, 36.0542781], [-95.7937112, 36.0542612], [-95.793704, 36.0542612], [-95.7937045, 36.0541153], [-95.7936963, 36.0541153], [-95.7936965, 36.0540496], [-95.7938107, 36.0540499]]]}, "properties": {"osm_id": 1259431968, "building": "house", "name": "", "height": null, "height_m": null, "levels": null, "tract_id": "40143007402", "tract_name": "74.02", "tags": {"addr:housenumber": "307", "addr:postcode": "74012", "addr:street": "West Detroit Street", "building": "house"}}}, {"type": "Feature", "geometry": {"type": "Polygon", "coordinates": [[[-95.7939165, 36.0543263], [-95.7939151, 36.0541807], [-95.7939998, 36.0541802], [-95.7940002, 36.0542188], [-95.794033, 36.0542186], [-95.7940339, 36.0543042], [-95.7940278, 36.0543042], [-95.794028, 36.0543255], [-95.7939165, 36.0543263]]]}, "properties": {"osm_id": 1259431971, "building": "house", "name": "", "height": null, "height_m": null, "levels": null, "tract_id": "40143007402", "tract_name": "74.02", "tags": {"addr:housenumber": "313", "addr:postcode": "74012", "addr:street": "West Detroit Street", "building": "house"}}}, {"type": "Feature", "geometry": {"type": "Polygon", "coordinates": [[[-95.7943536, 36.0543085], [-95.7943041, 36.0543085], [-95.7943041, 36.0543049], [-95.7942389, 36.0543049], [-95.7942389, 36.0542174], [-95.7942119, 36.0542174], [-95.7942119, 36.0541664], [-95.7943536, 36.0541664], [-95.7943536, 36.0542132], [-95.7943634, 36.054222], [-95.7943641, 36.054238], [-95.7943536, 36.0542463], [-95.7943536, 36.0542659], [-95.7943617, 36.0542668], [-95.7943704, 36.0542707], [-95.7943747, 36.0542752], [-95.7943768, 36.0542843], [-95.7943764, 36.0542936], [-95.7943696, 36.0543013], [-95.794362, 36.0543065], [-95.7943536, 36.0543085]]]}, "properties": {"osm_id": 1259431972, "building": "house", "name": "", "height": null, "height_m": null, "levels": null, "tract_id": "40143007402", "tract_name": "74.02", "tags": {"addr:postcode": "74012", "addr:street": "West Detroit Street", "building": "house"}}}, {"type": "Feature", "geometry": {"type": "Polygon", "coordinates": [[[-95.7942705, 36.0546016], [-95.7942708, 36.0545636], [-95.7943429, 36.054564], [-95.7943426, 36.054602], [-95.7943628, 36.0546021], [-95.794362, 36.0546973], [-95.7942654, 36.0546968], [-95.7942663, 36.0546015], [-95.7942705, 36.0546016]]]}, "properties": {"osm_id": 1259431973, "building": "house", "name": "", "height": null, "height_m": null, "levels": null, "tract_id": "40143007402", "tract_name": "74.02", "tags": {"addr:postcode": "74012", "addr:street": "West Detroit Street", "building": "house"}}}, {"type": "Feature", "geometry": {"type": "Polygon", "coordinates": [[[-95.7935552, 36.0546011], [-95.7935542, 36.0547189], [-95.7934656, 36.0547184], [-95.7934661, 36.0546622], [-95.7934147, 36.0546619], [-95.7934152, 36.0546003], [-95.7935552, 36.0546011]]]}, "properties": {"osm_id": 1259431974, "building": "house", "name": "", "height": null, "height_m": null, "levels": null, "tract_id": "40143007402", "tract_name": "74.02", "tags": {"addr:housenumber": "302", "addr:postcode": "74012", "addr:street": "West Detroit Street", "building": "house"}}}, {"type": "Feature", "geometry": {"type": "Polygon", "coordinates": [[[-95.7937864, 36.0546096], [-95.7937947, 36.0546097], [-95.7937939, 36.0547], [-95.7937126, 36.0546995], [-95.7937133, 36.0546231], [-95.7936948, 36.054623], [-95.7936951, 36.0545777], [-95.7937867, 36.0545782], [-95.7937864, 36.0546096]]]}, "properties": {"osm_id": 1259431975, "building": "house", "name": "", "height": null, "height_m": null, "levels": null, "tract_id": "40143007402", "tract_name": "74.02", "tags": {"addr:housenumber": "308", "addr:postcode": "74012", "addr:street": "West Detroit Street", "building": "house"}}}, {"type": "Feature", "geometry": {"type": "Polygon", "coordinates": [[[-95.794025, 36.0547098], [-95.7939399, 36.0547104], [-95.7939384, 36.0545741], [-95.7940234, 36.0545734], [-95.794025, 36.0547098]]]}, "properties": {"osm_id": 1259431976, "building": "house", "name": "", "height": null, "height_m": null, "levels": null, "tract_id": "40143007402", "tract_name": "74.02", "tags": {"addr:housenumber": "314", "addr:postcode": "74012", "addr:street": "West Detroit Street", "building": "house"}}}, {"type": "Feature", "geometry": {"type": "Polygon", "coordinates": [[[-95.7949727, 36.0551324], [-95.7953543, 36.0551345], [-95.7953555, 36.0549895], [-95.7955488, 36.0549906], [-95.7955485, 36.0550264], [-95.7955416, 36.0550263], [-95.7955415, 36.0550353], [-95.7955492, 36.0550353], [-95.7955486, 36.05511], [-95.7955409, 36.05511], [-95.7955408, 36.0551209], [-95.7955492, 36.055121], [-95.7955486, 36.0551965], [-95.7955402, 36.0551964], [-95.7955401, 36.0552057], [-95.795548, 36.0552057], [-95.7955475, 36.0552583], [-95.7954128, 36.0552576], [-95.7954127, 36.0552761], [-95.7953975, 36.055276], [-95.7953974, 36.0552937], [-95.7953426, 36.0552934], [-95.7953427, 36.0552867], [-95.7953319, 36.0552866], [-95.7953318, 36.0552931], [-95.7952362, 36.0552926], [-95.7952362, 36.0552861], [-95.7952259, 36.055286], [-95.7952258, 36.0552928], [-95.795131, 36.0552923], [-95.7951311, 36.0552855], [-95.7951207, 36.0552855], [-95.7951207, 36.0552927], [-95.7950241, 36.0552922], [-95.7950241, 36.0552849], [-95.7950131, 36.0552849], [-95.795013, 36.0552926], [-95.7949714, 36.0552924], [-95.7949727, 36.0551324]]]}, "properties": {"osm_id": 1259431982, "building": "terrace", "name": "", "height": null, "height_m": null, "levels": null, "tract_id": "40143007402", "tract_name": "74.02", "tags": {"building": "terrace"}}}, {"type": "Feature", "geometry": {"type": "Polygon", "coordinates": [[[-95.7906307, 36.0491613], [-95.790629, 36.0492918], [-95.7904879, 36.0492917], [-95.7904881, 36.0491594], [-95.7906307, 36.0491613]]]}, "properties": {"osm_id": 1266585423, "building": "retail", "name": "State Farm", "height": null, "height_m": null, "levels": null, "tract_id": "40143007402", "tract_name": "74.02", "tags": {"addr:housenumber": "405", "addr:postcode": "74012", "addr:street": "South Main Street", "building": "retail", "name": "State Farm", "office": "insurance", "phone": "+1 918 258 3531"}}}, {"type": "Feature", "geometry": {"type": "Polygon", "coordinates": [[[-95.787672, 36.0475679], [-95.7876716, 36.0476036], [-95.7875191, 36.0476026], [-95.7875194, 36.0475669], [-95.7875486, 36.0475671], [-95.787672, 36.0475679]]]}, "properties": {"osm_id": 1273405141, "building": "shed", "name": "Polished Paws", "height": null, "height_m": null, "levels": null, "tract_id": "40143007402", "tract_name": "74.02", "tags": {"building": "shed", "description": "dog grooming and styling", "name": "Polished Paws", "pet": "dog", "shop": "pet_grooming"}}}, {"type": "Feature", "geometry": {"type": "Polygon", "coordinates": [[[-95.7876786, 36.0475403], [-95.7876789, 36.0475094], [-95.7876301, 36.047509], [-95.7876306, 36.0474667], [-95.7876793, 36.0474671], [-95.7876801, 36.0473863], [-95.7877659, 36.0473869], [-95.7877653, 36.0474497], [-95.7877835, 36.0474498], [-95.7877832, 36.0474829], [-95.7878104, 36.0474831], [-95.7878098, 36.0475411], [-95.7876786, 36.0475403]]]}, "properties": {"osm_id": 1273405142, "building": "house", "name": "", "height": null, "height_m": null, "levels": null, "tract_id": "40143007402", "tract_name": "74.02", "tags": {"addr:city": "Broken Arrow", "addr:housenumber": "513", "addr:postcode": "74012", "addr:street": "South 1st Place", "building": "house"}}}, {"type": "Feature", "geometry": {"type": "Polygon", "coordinates": [[[-95.7809294, 36.0605759], [-95.7814777, 36.0605738], [-95.7814766, 36.0603792], [-95.7809283, 36.0603812], [-95.7809294, 36.0605759]]]}, "properties": {"osm_id": 1278656206, "building": "retail", "name": "", "height": null, "height_m": null, "levels": null, "tract_id": "40143007402", "tract_name": "74.02", "tags": {"addr:postcode": "74012", "addr:street": "East Kenosha Street", "building": "retail"}}}, {"type": "Feature", "geometry": {"type": "Polygon", "coordinates": [[[-95.7970154, 36.0511466], [-95.7968525, 36.0511466], [-95.7968525, 36.0510127], [-95.7970154, 36.0510127], [-95.7970154, 36.0511466]]]}, "properties": {"osm_id": 1294626438, "building": "yes", "name": "Gifford Monument Company", "height": null, "height_m": null, "levels": null, "tract_id": "40143007402", "tract_name": "74.02", "tags": {"building": "yes", "name": "Gifford Monument Company", "shop": "trade", "trade": "tombstones"}}}, {"type": "Feature", "geometry": {"type": "Polygon", "coordinates": [[[-95.7971395, 36.0497588], [-95.7970463, 36.0497588], [-95.7970463, 36.049627], [-95.7971395, 36.049627], [-95.7971395, 36.0497588]]]}, "properties": {"osm_id": 1294626457, "building": "yes", "name": "Total Stop", "height": null, "height_m": null, "levels": null, "tract_id": "40143007402", "tract_name": "74.02", "tags": {"building": "yes", "name": "Total Stop", "shop": "convenience"}}}, {"type": "Feature", "geometry": {"type": "Polygon", "coordinates": [[[-95.796715, 36.0478601], [-95.7967137, 36.0475294], [-95.7969886, 36.0475287], [-95.7969899, 36.0478594], [-95.796715, 36.0478601]]]}, "properties": {"osm_id": 1294626463, "building": "yes", "name": "O'Reilly Auto Parts", "height": null, "height_m": null, "levels": null, "tract_id": "40143007402", "tract_name": "74.02", "tags": {"brand": "O'Reilly Auto Parts", "brand:wikidata": "Q7071951", "building": "yes", "name": "O'Reilly Auto Parts", "shop": "car_parts"}}}, {"type": "Feature", "geometry": {"type": "Polygon", "coordinates": [[[-95.797062, 36.0473082], [-95.7970626, 36.0471449], [-95.7972552, 36.0471453], [-95.7972546, 36.0473086], [-95.797062, 36.0473082]]]}, "properties": {"osm_id": 1294626464, "building": "yes", "name": "Shelter Insurance", "height": null, "height_m": null, "levels": null, "tract_id": "40143007402", "tract_name": "74.02", "tags": {"brand": "Shelter Insurance", "brand:wikidata": "Q7493959", "building": "yes", "name": "Shelter Insurance", "office": "insurance"}}}, {"type": "Feature", "geometry": {"type": "Polygon", "coordinates": [[[-95.7968989, 36.0468539], [-95.7968995, 36.0466511], [-95.7969343, 36.0466512], [-95.7969343, 36.0466353], [-95.796996, 36.0466355], [-95.796996, 36.0466513], [-95.7970087, 36.0466513], [-95.7970081, 36.0468541], [-95.7968989, 36.0468539]]]}, "properties": {"osm_id": 1294626465, "building": "yes", "name": "", "height": null, "height_m": null, "levels": null, "tract_id": "40143007402", "tract_name": "74.02", "tags": {"building": "yes", "shop": "vacant"}}}, {"type": "Feature", "geometry": {"type": "Polygon", "coordinates": [[[-95.7912118, 36.0584792], [-95.7909912, 36.0584798], [-95.7909906, 36.0583343], [-95.7910824, 36.058334], [-95.7910823, 36.0583236], [-95.7910657, 36.0583237], [-95.7910654, 36.0582484], [-95.7912028, 36.058248], [-95.7912031, 36.0583252], [-95.7911607, 36.0583253], [-95.7911608, 36.0583639], [-95.7912114, 36.0583638], [-95.7912118, 36.0584792]]]}, "properties": {"osm_id": 1305621536, "building": "detached", "name": "", "height": null, "height_m": null, "levels": null, "tract_id": "40143007402", "tract_name": "74.02", "tags": {"addr:city": "Broken Arrow", "addr:postcode": "74012", "addr:street": "North Main Street", "building": "detached"}}}, {"type": "Feature", "geometry": {"type": "Polygon", "coordinates": [[[-95.7901919, 36.0604546], [-95.7901519, 36.0604558], [-95.7901493, 36.0603994], [-95.7901892, 36.0603982], [-95.7901919, 36.0604546]]]}, "properties": {"osm_id": 1305621538, "building": "yes", "name": "", "height": null, "height_m": null, "levels": null, "tract_id": "40143007402", "tract_name": "74.02", "tags": {"building": "yes"}}}, {"type": "Feature", "geometry": {"type": "Polygon", "coordinates": [[[-95.7902328, 36.060351], [-95.7901637, 36.0603537], [-95.7901609, 36.0603065], [-95.79023, 36.0603038], [-95.7902328, 36.060351]]]}, "properties": {"osm_id": 1305621539, "building": "yes", "name": "", "height": null, "height_m": null, "levels": null, "tract_id": "40143007402", "tract_name": "74.02", "tags": {"building": "yes"}}}, {"type": "Feature", "geometry": {"type": "Polygon", "coordinates": [[[-95.7904027, 36.0583994], [-95.7905153, 36.0584009], [-95.7905185, 36.0582383], [-95.7904059, 36.0582368], [-95.7904027, 36.0583994]]]}, "properties": {"osm_id": 1305621540, "building": "detached", "name": "", "height": null, "height_m": null, "levels": null, "tract_id": "40143007402", "tract_name": "74.02", "tags": {"addr:city": "Broken Arrow", "addr:postcode": "74012", "addr:street": "North Main Street", "building": "detached"}}}, {"type": "Feature", "geometry": {"type": "Polygon", "coordinates": [[[-95.7905184, 36.0594908], [-95.7904353, 36.0594896], [-95.7904345, 36.0595287], [-95.7902816, 36.0595266], [-95.79028, 36.059609], [-95.7905159, 36.0596121], [-95.7905184, 36.0594908]]]}, "properties": {"osm_id": 1305621541, "building": "detached", "name": "", "height": null, "height_m": null, "levels": null, "tract_id": "40143007402", "tract_name": "74.02", "tags": {"addr:city": "Broken Arrow", "addr:postcode": "74012", "addr:street": "North Main Street", "building": "detached"}}}, {"type": "Feature", "geometry": {"type": "Polygon", "coordinates": [[[-95.7904257, 36.0598636], [-95.7905234, 36.0598641], [-95.7905245, 36.0597072], [-95.7904268, 36.0597067], [-95.7904257, 36.0598636]]]}, "properties": {"osm_id": 1305621542, "building": "detached", "name": "", "height": null, "height_m": null, "levels": null, "tract_id": "40143007402", "tract_name": "74.02", "tags": {"addr:city": "Broken Arrow", "addr:postcode": "74012", "addr:street": "North Main Street", "building": "detached"}}}, {"type": "Feature", "geometry": {"type": "Polygon", "coordinates": [[[-95.791014, 36.0570381], [-95.7911196, 36.0570363], [-95.7911189, 36.0570082], [-95.7911715, 36.0570073], [-95.7911697, 36.0569345], [-95.7910115, 36.056937], [-95.791014, 36.0570381]]]}, "properties": {"osm_id": 1305621543, "building": "detached", "name": "", "height": null, "height_m": null, "levels": null, "tract_id": "40143007402", "tract_name": "74.02", "tags": {"building": "detached"}}}, {"type": "Feature", "geometry": {"type": "Polygon", "coordinates": [[[-95.7912118, 36.0595442], [-95.7911208, 36.059525], [-95.7910708, 36.0596801], [-95.7910017, 36.0596656], [-95.7909818, 36.0597276], [-95.7911419, 36.0597613], [-95.7912118, 36.0595442]]]}, "properties": {"osm_id": 1305621544, "building": "detached", "name": "", "height": null, "height_m": null, "levels": null, "tract_id": "40143007402", "tract_name": "74.02", "tags": {"addr:city": "Broken Arrow", "addr:postcode": "74012", "addr:street": "North Main Street", "building": "detached"}}}, {"type": "Feature", "geometry": {"type": "Polygon", "coordinates": [[[-95.7918736, 36.0591689], [-95.7918728, 36.0590828], [-95.7916394, 36.0590844], [-95.7916403, 36.0591668], [-95.7916698, 36.0591666], [-95.7916708, 36.0592693], [-95.7918076, 36.0592684], [-95.7918069, 36.0591969], [-95.7917699, 36.0591972], [-95.7917696, 36.0591696], [-95.7918736, 36.0591689]]]}, "properties": {"osm_id": 1305621545, "building": "detached", "name": "", "height": null, "height_m": null, "levels": null, "tract_id": "40143007402", "tract_name": "74.02", "tags": {"building": "detached"}}}, {"type": "Feature", "geometry": {"type": "Polygon", "coordinates": [[[-95.7903856, 36.0580289], [-95.7903849, 36.0580731], [-95.790342, 36.0580726], [-95.790341, 36.058129], [-95.790165, 36.058127], [-95.7901636, 36.0582094], [-95.7903879, 36.0582119], [-95.7903885, 36.0581793], [-95.790485, 36.0581804], [-95.7904855, 36.0581491], [-95.7904988, 36.0581492], [-95.7904996, 36.0580987], [-95.7905108, 36.0580988], [-95.790512, 36.0580303], [-95.7903856, 36.0580289]]]}, "properties": {"osm_id": 1305621546, "building": "detached", "name": "", "height": null, "height_m": null, "levels": null, "tract_id": "40143007402", "tract_name": "74.02", "tags": {"addr:city": "Broken Arrow", "addr:postcode": "74012", "addr:street": "North Main Street", "building": "detached"}}}, {"type": "Feature", "geometry": {"type": "Polygon", "coordinates": [[[-95.7914219, 36.0589404], [-95.7913415, 36.0589394], [-95.7913404, 36.0590001], [-95.7914208, 36.0590011], [-95.7914219, 36.0589404]]]}, "properties": {"osm_id": 1305621547, "building": "garage", "name": "", "height": null, "height_m": null, "levels": null, "tract_id": "40143007402", "tract_name": "74.02", "tags": {"building": "garage"}}}, {"type": "Feature", "geometry": {"type": "Polygon", "coordinates": [[[-95.7911178, 36.0586818], [-95.791277, 36.0586806], [-95.7912757, 36.0585692], [-95.7910317, 36.0585711], [-95.7910334, 36.0587142], [-95.7911182, 36.0587135], [-95.7911178, 36.0586818]]]}, "properties": {"osm_id": 1305621548, "building": "detached", "name": "", "height": null, "height_m": null, "levels": null, "tract_id": "40143007402", "tract_name": "74.02", "tags": {"addr:city": "Broken Arrow", "addr:postcode": "74012", "addr:street": "North Main Street", "building": "detached"}}}, {"type": "Feature", "geometry": {"type": "Polygon", "coordinates": [[[-95.7911414, 36.0571865], [-95.7912576, 36.0571841], [-95.7912533, 36.0570463], [-95.7910072, 36.0570513], [-95.7910109, 36.0571705], [-95.7911408, 36.0571678], [-95.7911414, 36.0571865]]]}, "properties": {"osm_id": 1305621549, "building": "yes", "name": "Green Goddess", "height": null, "height_m": null, "levels": null, "tract_id": "40143007402", "tract_name": "74.02", "tags": {"addr:city": "Broken Arrow", "addr:country": "US", "addr:housenumber": "520", "addr:state": "OK", "addr:street": "North Main Street", "building": "yes", "name": "Green Goddess", "opening_hours": "24/7", "shop": "cannabis"}}}, {"type": "Feature", "geometry": {"type": "Polygon", "coordinates": [[[-95.7904254, 36.0586541], [-95.7904234, 36.0588037], [-95.7905172, 36.0588045], [-95.7905192, 36.058655], [-95.7904254, 36.0586541]]]}, "properties": {"osm_id": 1305621550, "building": "detached", "name": "", "height": null, "height_m": null, "levels": null, "tract_id": "40143007402", "tract_name": "74.02", "tags": {"addr:city": "Broken Arrow", "addr:postcode": "74012", "addr:street": "North Main Street", "building": "detached"}}}, {"type": "Feature", "geometry": {"type": "Polygon", "coordinates": [[[-95.7914173, 36.0586521], [-95.7913413, 36.0586506], [-95.7913387, 36.0587373], [-95.7914148, 36.0587388], [-95.7914173, 36.0586521]]]}, "properties": {"osm_id": 1305621551, "building": "garage", "name": "", "height": null, "height_m": null, "levels": null, "tract_id": "40143007402", "tract_name": "74.02", "tags": {"building": "garage"}}}, {"type": "Feature", "geometry": {"type": "Polygon", "coordinates": [[[-95.7905156, 36.0590926], [-95.7903816, 36.0590945], [-95.7903856, 36.0592788], [-95.7904605, 36.0592777], [-95.7904594, 36.0592259], [-95.790473, 36.0592257], [-95.7904715, 36.0591605], [-95.7905171, 36.0591598], [-95.7905156, 36.0590926]]]}, "properties": {"osm_id": 1305621552, "building": "detached", "name": "", "height": null, "height_m": null, "levels": null, "tract_id": "40143007402", "tract_name": "74.02", "tags": {"addr:city": "Broken Arrow", "addr:postcode": "74012", "addr:street": "North Main Street", "building": "detached"}}}, {"type": "Feature", "geometry": {"type": "Polygon", "coordinates": [[[-95.7904144, 36.0599229], [-95.790417, 36.060066], [-95.7905108, 36.0600649], [-95.7905083, 36.0599218], [-95.7904144, 36.0599229]]]}, "properties": {"osm_id": 1305621553, "building": "detached", "name": "", "height": null, "height_m": null, "levels": null, "tract_id": "40143007402", "tract_name": "74.02", "tags": {"addr:city": "Broken Arrow", "addr:postcode": "74012", "addr:street": "North Main Street", "building": "detached"}}}, {"type": "Feature", "geometry": {"type": "Polygon", "coordinates": [[[-95.7905211, 36.0603324], [-95.7904299, 36.0603324], [-95.7904299, 36.0604733], [-95.790521, 36.0604733], [-95.7905211, 36.0603324]]]}, "properties": {"osm_id": 1305621554, "building": "detached", "name": "", "height": null, "height_m": null, "levels": null, "tract_id": "40143007402", "tract_name": "74.02", "tags": {"addr:city": "Broken Arrow", "addr:postcode": "74012", "addr:street": "North Main Street", "building": "detached"}}}, {"type": "Feature", "geometry": {"type": "Polygon", "coordinates": [[[-95.7916387, 36.0600076], [-95.7915048, 36.0600028], [-95.7915006, 36.0600807], [-95.7916344, 36.0600855], [-95.7916387, 36.0600076]]]}, "properties": {"osm_id": 1305621555, "building": "yes", "name": "", "height": null, "height_m": null, "levels": null, "tract_id": "40143007402", "tract_name": "74.02", "tags": {"building": "yes"}}}, {"type": "Feature", "geometry": {"type": "Polygon", "coordinates": [[[-95.7904018, 36.0588515], [-95.790405, 36.0590192], [-95.7905176, 36.0590178], [-95.7905144, 36.0588501], [-95.7904018, 36.0588515]]]}, "properties": {"osm_id": 1305621556, "building": "detached", "name": "", "height": null, "height_m": null, "levels": null, "tract_id": "40143007402", "tract_name": "74.02", "tags": {"addr:city": "Broken Arrow", "addr:postcode": "74012", "addr:street": "North Main Street", "building": "detached"}}}, {"type": "Feature", "geometry": {"type": "Polygon", "coordinates": [[[-95.791031, 36.0587991], [-95.7910336, 36.0590007], [-95.7911034, 36.0590001], [-95.7911029, 36.0589611], [-95.7912718, 36.0589597], [-95.7912703, 36.0588426], [-95.7910933, 36.0588441], [-95.7910927, 36.0587986], [-95.791031, 36.0587991]]]}, "properties": {"osm_id": 1305621557, "building": "detached", "name": "", "height": null, "height_m": null, "levels": null, "tract_id": "40143007402", "tract_name": "74.02", "tags": {"addr:city": "Broken Arrow", "addr:postcode": "74012", "addr:street": "North Main Street", "building": "detached"}}}, {"type": "Feature", "geometry": {"type": "Polygon", "coordinates": [[[-95.7903974, 36.0586149], [-95.7904929, 36.0586166], [-95.7904942, 36.0585667], [-95.7905086, 36.058567], [-95.7905105, 36.0584949], [-95.7904971, 36.0584947], [-95.7904985, 36.0584367], [-95.790402, 36.0584351], [-95.7903974, 36.0586149]]]}, "properties": {"osm_id": 1305621558, "building": "detached", "name": "", "height": null, "height_m": null, "levels": null, "tract_id": "40143007402", "tract_name": "74.02", "tags": {"addr:city": "Broken Arrow", "addr:postcode": "74012", "addr:street": "North Main Street", "building": "detached"}}}, {"type": "Feature", "geometry": {"type": "Polygon", "coordinates": [[[-95.7911552, 36.0573698], [-95.7910425, 36.0573686], [-95.7910398, 36.0575334], [-95.7911552, 36.0575346], [-95.791156, 36.0574834], [-95.7911999, 36.0574839], [-95.7912006, 36.057444], [-95.791154, 36.0574435], [-95.7911552, 36.0573698]]]}, "properties": {"osm_id": 1305621559, "building": "detached", "name": "", "height": null, "height_m": null, "levels": null, "tract_id": "40143007402", "tract_name": "74.02", "tags": {"addr:city": "Broken Arrow", "addr:postcode": "74012", "addr:street": "North Main Street", "building": "detached"}}}, {"type": "Feature", "geometry": {"type": "Polygon", "coordinates": [[[-95.7910529, 36.0592507], [-95.7912996, 36.0592542], [-95.7913013, 36.059174], [-95.791178, 36.0591723], [-95.7911784, 36.0591512], [-95.7911929, 36.0591514], [-95.7911944, 36.0590823], [-95.7910271, 36.0590799], [-95.7910256, 36.0591506], [-95.7910551, 36.059151], [-95.7910529, 36.0592507]]]}, "properties": {"osm_id": 1305621560, "building": "detached", "name": "", "height": null, "height_m": null, "levels": null, "tract_id": "40143007402", "tract_name": "74.02", "tags": {"addr:city": "Broken Arrow", "addr:postcode": "74012", "addr:street": "North Main Street", "building": "detached"}}}, {"type": "Feature", "geometry": {"type": "Polygon", "coordinates": [[[-95.7911649, 36.0575578], [-95.7910388, 36.0575588], [-95.7910401, 36.0576758], [-95.7911018, 36.0576754], [-95.7911028, 36.0577556], [-95.7911913, 36.0577549], [-95.7911905, 36.0576877], [-95.7911663, 36.0576879], [-95.7911649, 36.0575578]]]}, "properties": {"osm_id": 1305621561, "building": "detached", "name": "", "height": null, "height_m": null, "levels": null, "tract_id": "40143007402", "tract_name": "74.02", "tags": {"addr:city": "Broken Arrow", "addr:postcode": "74012", "addr:street": "North Main Street", "building": "detached"}}}, {"type": "Feature", "geometry": {"type": "Polygon", "coordinates": [[[-95.7910599, 36.0582049], [-95.7911581, 36.0582056], [-95.7911596, 36.0580568], [-95.7910425, 36.0580561], [-95.7910416, 36.0581515], [-95.7910604, 36.0581516], [-95.7910599, 36.0582049]]]}, "properties": {"osm_id": 1305621562, "building": "detached", "name": "", "height": null, "height_m": null, "levels": null, "tract_id": "40143007402", "tract_name": "74.02", "tags": {"addr:city": "Broken Arrow", "addr:postcode": "74012", "addr:street": "North Main Street", "building": "detached"}}}, {"type": "Feature", "geometry": {"type": "Polygon", "coordinates": [[[-95.7911843, 36.0601311], [-95.791061, 36.0601292], [-95.7910574, 36.0602752], [-95.7911807, 36.0602772], [-95.7911843, 36.0601311]]]}, "properties": {"osm_id": 1305621563, "building": "detached", "name": "", "height": null, "height_m": null, "levels": null, "tract_id": "40143007402", "tract_name": "74.02", "tags": {"addr:city": "Broken Arrow", "addr:postcode": "74012", "addr:street": "North Main Street", "building": "detached"}}}, {"type": "Feature", "geometry": {"type": "Polygon", "coordinates": [[[-95.7905061, 36.0601248], [-95.7904107, 36.0601247], [-95.7904103, 36.0602742], [-95.7905057, 36.0602744], [-95.7905061, 36.0601248]]]}, "properties": {"osm_id": 1305621564, "building": "detached", "name": "", "height": null, "height_m": null, "levels": null, "tract_id": "40143007402", "tract_name": "74.02", "tags": {"addr:city": "Broken Arrow", "addr:postcode": "74012", "addr:street": "North Main Street", "building": "detached"}}}, {"type": "Feature", "geometry": {"type": "Polygon", "coordinates": [[[-95.7904144, 36.0606914], [-95.7904119, 36.0605049], [-95.7903395, 36.0605055], [-95.7903398, 36.060525], [-95.7901628, 36.0605266], [-95.790165, 36.0606935], [-95.7904144, 36.0606914]]]}, "properties": {"osm_id": 1305621565, "building": "industrial", "name": "Builder's Transmission", "height": null, "height_m": null, "levels": null, "tract_id": "40143007402", "tract_name": "74.02", "tags": {"building": "industrial", "name": "Builder's Transmission", "service": "repair", "shop": "car_repair"}}}, {"type": "Feature", "geometry": {"type": "Polygon", "coordinates": [[[-95.7941609, 36.0591843], [-95.7943104, 36.059183], [-95.7943115, 36.0592598], [-95.7942572, 36.0592603], [-95.7942572, 36.0592638], [-95.794162, 36.0592647], [-95.7941609, 36.0591843]]]}, "properties": {"osm_id": 1321491161, "building": "detached", "name": "", "height": null, "height_m": null, "levels": null, "tract_id": "40143007402", "tract_name": "74.02", "tags": {"addr:housenumber": "317", "addr:postcode": "74012", "addr:street": "West Iola Street", "building": "detached"}}}, {"type": "Feature", "geometry": {"type": "Polygon", "coordinates": [[[-95.794162, 36.0592647], [-95.7940663, 36.0592656], [-95.7940663, 36.0592621], [-95.7940124, 36.0592626], [-95.7940113, 36.0591857], [-95.7941609, 36.0591843], [-95.794162, 36.0592647]]]}, "properties": {"osm_id": 1321491162, "building": "detached", "name": "", "height": null, "height_m": null, "levels": null, "tract_id": "40143007402", "tract_name": "74.02", "tags": {"addr:housenumber": "315", "addr:postcode": "74012", "addr:street": "West Iola Street", "building": "detached"}}}, {"type": "Feature", "geometry": {"type": "Polygon", "coordinates": [[[-95.7962194, 36.0587267], [-95.796219, 36.0586397], [-95.7962738, 36.0586396], [-95.7962742, 36.0587265], [-95.7962194, 36.0587267]]]}, "properties": {"osm_id": 1321491178, "building": "detached", "name": "", "height": null, "height_m": null, "levels": null, "tract_id": "40143007402", "tract_name": "74.02", "tags": {"addr:housenumber": "724", "addr:postcode": "74012", "addr:street": "North Date Avenue", "building": "detached"}}}, {"type": "Feature", "geometry": {"type": "Polygon", "coordinates": [[[-95.7958875, 36.0587292], [-95.7958327, 36.0587293], [-95.7958324, 36.0586424], [-95.7958872, 36.0586422], [-95.7958875, 36.0587292]]]}, "properties": {"osm_id": 1321491179, "building": "detached", "name": "", "height": null, "height_m": null, "levels": null, "tract_id": "40143007402", "tract_name": "74.02", "tags": {"addr:housenumber": "700", "addr:postcode": "74012", "addr:street": "North Date Avenue", "building": "detached"}}}, {"type": "Feature", "geometry": {"type": "Polygon", "coordinates": [[[-95.7958875, 36.0587292], [-95.7958872, 36.0586422], [-95.7959419, 36.0586421], [-95.7959423, 36.058729], [-95.7958875, 36.0587292]]]}, "properties": {"osm_id": 1321491180, "building": "detached", "name": "", "height": null, "height_m": null, "levels": null, "tract_id": "40143007402", "tract_name": "74.02", "tags": {"addr:housenumber": "704", "addr:postcode": "74012", "addr:street": "North Date Avenue", "building": "detached"}}}, {"type": "Feature", "geometry": {"type": "Polygon", "coordinates": [[[-95.7960174, 36.0587283], [-95.7959626, 36.0587285], [-95.7959622, 36.0586415], [-95.796017, 36.0586414], [-95.7960174, 36.0587283]]]}, "properties": {"osm_id": 1321491181, "building": "detached", "name": "", "height": null, "height_m": null, "levels": null, "tract_id": "40143007402", "tract_name": "74.02", "tags": {"addr:housenumber": "708", "addr:postcode": "74012", "addr:street": "North Date Avenue", "building": "detached"}}}, {"type": "Feature", "geometry": {"type": "Polygon", "coordinates": [[[-95.7960174, 36.0587283], [-95.796017, 36.0586414], [-95.7960718, 36.0586412], [-95.7960722, 36.0587281], [-95.7960174, 36.0587283]]]}, "properties": {"osm_id": 1321491182, "building": "detached", "name": "", "height": null, "height_m": null, "levels": null, "tract_id": "40143007402", "tract_name": "74.02", "tags": {"addr:housenumber": "712", "addr:postcode": "74012", "addr:street": "North Date Avenue", "building": "detached"}}}, {"type": "Feature", "geometry": {"type": "Polygon", "coordinates": [[[-95.7961462, 36.0587283], [-95.7960914, 36.0587285], [-95.7960911, 36.0586415], [-95.7961459, 36.0586414], [-95.7961462, 36.0587283]]]}, "properties": {"osm_id": 1321491183, "building": "detached", "name": "", "height": null, "height_m": null, "levels": null, "tract_id": "40143007402", "tract_name": "74.02", "tags": {"addr:housenumber": "716", "addr:postcode": "74012", "addr:street": "North Date Avenue", "building": "detached"}}}, {"type": "Feature", "geometry": {"type": "Polygon", "coordinates": [[[-95.7961462, 36.0587283], [-95.7961459, 36.0586414], [-95.7962006, 36.0586412], [-95.796201, 36.0587282], [-95.7961462, 36.0587283]]]}, "properties": {"osm_id": 1321491184, "building": "detached", "name": "", "height": null, "height_m": null, "levels": null, "tract_id": "40143007402", "tract_name": "74.02", "tags": {"addr:housenumber": "720", "addr:postcode": "74012", "addr:street": "North Date Avenue", "building": "detached"}}}, {"type": "Feature", "geometry": {"type": "Polygon", "coordinates": [[[-95.7896329, 36.0491837], [-95.7897278, 36.0491841], [-95.7897273, 36.0492502], [-95.789692, 36.04925], [-95.7896919, 36.049262], [-95.7896564, 36.0492618], [-95.7896565, 36.0492498], [-95.7896324, 36.0492497], [-95.7896329, 36.0491837]]]}, "properties": {"osm_id": 1332615080, "building": "house", "name": "", "height": null, "height_m": null, "levels": null, "tract_id": "40143007402", "tract_name": "74.02", "tags": {"building": "house"}}}, {"type": "Feature", "geometry": {"type": "Polygon", "coordinates": [[[-95.7897984, 36.049125], [-95.7899087, 36.0491252], [-95.7899085, 36.0491944], [-95.7898849, 36.0491944], [-95.7898848, 36.0492491], [-95.7898747, 36.0492491], [-95.7898747, 36.0492657], [-95.789817, 36.0492656], [-95.7898171, 36.049249], [-95.789808, 36.0492489], [-95.7898081, 36.0491993], [-95.7897982, 36.0491993], [-95.7897984, 36.049125]]]}, "properties": {"osm_id": 1332615081, "building": "house", "name": "", "height": null, "height_m": null, "levels": null, "tract_id": "40143007402", "tract_name": "74.02", "tags": {"building": "house"}}}, {"type": "Feature", "geometry": {"type": "Polygon", "coordinates": [[[-95.7897617, 36.0492489], [-95.7897621, 36.049125], [-95.7897984, 36.049125], [-95.7897982, 36.0491993], [-95.7898081, 36.0491993], [-95.789808, 36.0492489], [-95.7897617, 36.0492489]]]}, "properties": {"osm_id": 1332615082, "building": "carport", "name": "", "height": null, "height_m": null, "levels": null, "tract_id": "40143007402", "tract_name": "74.02", "tags": {"building": "carport"}}}, {"type": "Feature", "geometry": {"type": "Polygon", "coordinates": [[[-95.7899924, 36.0491665], [-95.789993, 36.0491466], [-95.7900655, 36.049148], [-95.7900649, 36.0491679], [-95.7899924, 36.0491665]]]}, "properties": {"osm_id": 1332615084, "building": "roof", "name": "", "height": null, "height_m": null, "levels": null, "tract_id": "40143007402", "tract_name": "74.02", "tags": {"building": "roof", "layer": "1"}}}, {"type": "Feature", "geometry": {"type": "Polygon", "coordinates": [[[-95.7899123, 36.0491429], [-95.789913, 36.0491184], [-95.7899769, 36.0491197], [-95.7899768, 36.0491231], [-95.7899761, 36.0491441], [-95.7899123, 36.0491429]]]}, "properties": {"osm_id": 1332615085, "building": "roof", "name": "", "height": null, "height_m": null, "levels": null, "tract_id": "40143007402", "tract_name": "74.02", "tags": {"building": "roof", "layer": "1"}}}, {"type": "Feature", "geometry": {"type": "Polygon", "coordinates": [[[-95.7899769, 36.0491197], [-95.789913, 36.0491184], [-95.7898757, 36.0491177], [-95.7898774, 36.0490605], [-95.7899786, 36.0490625], [-95.7899828, 36.0489234], [-95.790088, 36.0489255], [-95.7900812, 36.0491483], [-95.7900655, 36.049148], [-95.789993, 36.0491466], [-95.7899761, 36.0491462], [-95.7899761, 36.0491441], [-95.7899768, 36.0491231], [-95.7899769, 36.0491197]]]}, "properties": {"osm_id": 1332615086, "building": "church", "name": "Tigerlily's Emporium", "height": null, "height_m": null, "levels": null, "tract_id": "40143007402", "tract_name": "74.02", "tags": {"building": "church", "description": "clothing, gifts, home decor, antiques & vintage", "name": "Tigerlily's Emporium", "opening_hours": "Tu-Sa 10:00-18:00"}}}, {"type": "Feature", "geometry": {"type": "Polygon", "coordinates": [[[-95.7893991, 36.051708], [-95.7894, 36.051708], [-95.7894007, 36.0518009], [-95.7894011, 36.0518684], [-95.7891988, 36.0518693], [-95.7891983, 36.0518018], [-95.7892161, 36.0518017], [-95.7892155, 36.0517088], [-95.7892032, 36.0517089], [-95.7892027, 36.0516254], [-95.7893985, 36.0516245], [-95.7893991, 36.051708]]]}, "properties": {"osm_id": 1332756718, "building": "industrial", "name": "Broken Arrow Dance Company", "height": null, "height_m": null, "levels": null, "tract_id": "40143007402", "tract_name": "74.02", "tags": {"building": "industrial", "name": "Broken Arrow Dance Company", "phone": "+1 918 251 6685"}}}, {"type": "Feature", "geometry": {"type": "Polygon", "coordinates": [[[-95.7881016, 36.0511979], [-95.7880776, 36.0511979], [-95.7880776, 36.0512276], [-95.7879601, 36.0512275], [-95.7879601, 36.0511978], [-95.787909, 36.0511978], [-95.7879093, 36.0508757], [-95.7881005, 36.0508758], [-95.7881004, 36.050918], [-95.7880963, 36.050918], [-95.7880962, 36.0510538], [-95.7881017, 36.0510538], [-95.7881016, 36.0511979]]]}, "properties": {"osm_id": 1332756719, "building": "yes", "name": "Brown Funeral Home and Cremations", "height": null, "height_m": null, "levels": null, "tract_id": "40143007402", "tract_name": "74.02", "tags": {"addr:city": "Broken Arrow", "addr:housenumber": "231", "addr:postcode": "74012", "addr:street": "East Commercial Street", "building": "yes", "name": "Brown Funeral Home and Cremations"}}}, {"type": "Feature", "geometry": {"type": "Polygon", "coordinates": [[[-95.7878541, 36.0498772], [-95.7877912, 36.0498772], [-95.7877912, 36.0498266], [-95.7878541, 36.0498266], [-95.7878541, 36.0498772]]]}, "properties": {"osm_id": 1332756726, "building": "yes", "name": "", "height": null, "height_m": null, "levels": null, "tract_id": "40143007402", "tract_name": "74.02", "tags": {"building": "yes"}}}, {"type": "Feature", "geometry": {"type": "Polygon", "coordinates": [[[-95.7879644, 36.0499615], [-95.7878803, 36.0499612], [-95.7878807, 36.0498878], [-95.7879648, 36.0498881], [-95.7879644, 36.0499615]]]}, "properties": {"osm_id": 1332756727, "building": "garage", "name": "", "height": null, "height_m": null, "levels": null, "tract_id": "40143007402", "tract_name": "74.02", "tags": {"building": "garage"}}}, {"type": "Feature", "geometry": {"type": "Polygon", "coordinates": [[[-95.7878669, 36.0500538], [-95.7878856, 36.0500697], [-95.7878665, 36.0500844], [-95.7878664, 36.0500991], [-95.7878169, 36.0500988], [-95.7878171, 36.0500856], [-95.7877958, 36.0500855], [-95.7877961, 36.050064], [-95.7877848, 36.0500639], [-95.7877844, 36.0500985], [-95.7877176, 36.0500981], [-95.7877184, 36.0500287], [-95.787745, 36.0500289], [-95.787746, 36.0499392], [-95.7877952, 36.0499395], [-95.7877955, 36.0499193], [-95.7878524, 36.0499197], [-95.7878522, 36.0499399], [-95.7878651, 36.04994], [-95.7878647, 36.0499756], [-95.7878678, 36.0499756], [-95.7878669, 36.0500538]]]}, "properties": {"osm_id": 1332756728, "building": "house", "name": "", "height": null, "height_m": null, "levels": null, "tract_id": "40143007402", "tract_name": "74.02", "tags": {"addr:city": "Broken Arrow", "addr:housenumber": "233", "addr:postcode": "74012", "addr:street": "East Dallas Street", "building": "house"}}}, {"type": "Feature", "geometry": {"type": "Polygon", "coordinates": [[[-95.7838102, 36.0522434], [-95.783605, 36.0522412], [-95.7836103, 36.0519062], [-95.7838156, 36.0519083], [-95.7838102, 36.0522434]]]}, "properties": {"osm_id": 1332756745, "building": "industrial", "name": "Broken Arrow Child Nutrition", "height": null, "height_m": null, "levels": null, "tract_id": "40143007402", "tract_name": "74.02", "tags": {"building": "industrial", "name": "Broken Arrow Child Nutrition", "operator": "Broken Arrow Public Schools"}}}, {"type": "Feature", "geometry": {"type": "Polygon", "coordinates": [[[-95.7803033, 36.047832], [-95.7803023, 36.0475486], [-95.7803951, 36.0475484], [-95.7805103, 36.0475481], [-95.7805103, 36.0475329], [-95.7806133, 36.0475327], [-95.7806134, 36.0475615], [-95.7806619, 36.0475614], [-95.7806623, 36.0476803], [-95.7806139, 36.0476804], [-95.7806141, 36.0477357], [-95.7806226, 36.0477357], [-95.7806229, 36.0478136], [-95.7806159, 36.0478136], [-95.780616, 36.0478489], [-95.780601, 36.0478489], [-95.7805146, 36.0478491], [-95.7805145, 36.0478315], [-95.7803033, 36.047832]]]}, "properties": {"osm_id": 1334082798, "building": "school", "name": "", "height": null, "height_m": null, "levels": null, "tract_id": "40143007402", "tract_name": "74.02", "tags": {"building": "school"}}}, {"type": "Feature", "geometry": {"type": "Polygon", "coordinates": [[[-95.7803741, 36.0474661], [-95.7803043, 36.0474984], [-95.7802859, 36.0474724], [-95.7802475, 36.0474902], [-95.7802666, 36.0475172], [-95.7801836, 36.0476435], [-95.7802682, 36.0477636], [-95.7801935, 36.0478697], [-95.7801556, 36.0478696], [-95.7801556, 36.0479094], [-95.7806021, 36.04791], [-95.780602, 36.0479995], [-95.7806353, 36.0479995], [-95.7806352, 36.048074], [-95.780364, 36.0480737], [-95.780364, 36.0480686], [-95.7800404, 36.0480682], [-95.7800404, 36.0480658], [-95.7800041, 36.0480658], [-95.7799315, 36.0479622], [-95.7799955, 36.0478749], [-95.7798913, 36.0478232], [-95.7798917, 36.0476406], [-95.7799947, 36.0475879], [-95.7799299, 36.0475001], [-95.7800053, 36.0473922], [-95.7801565, 36.0473924], [-95.7801764, 36.0474205], [-95.7802142, 36.047403], [-95.7801953, 36.0473763], [-95.7802679, 36.0472691], [-95.7803475, 36.0472692], [-95.7803474, 36.0473044], [-95.7803744, 36.0473044], [-95.7803743, 36.0473445], [-95.7804812, 36.047344], [-95.7804816, 36.0474123], [-95.7803944, 36.0474127], [-95.7803742, 36.0474128], [-95.7803741, 36.0474661]]]}, "properties": {"osm_id": 1334082802, "building": "school", "name": "", "height": null, "height_m": null, "levels": null, "tract_id": "40143007402", "tract_name": "74.02", "tags": {"building": "school"}}}, {"type": "Feature", "geometry": {"type": "Polygon", "coordinates": [[[-95.7805551, 36.0471531], [-95.7800262, 36.0471558], [-95.7800248, 36.0469714], [-95.7799912, 36.0469715], [-95.7799899, 36.0468117], [-95.7800544, 36.0468114], [-95.7800535, 36.046694], [-95.7803903, 36.0466922], [-95.7803912, 36.0468061], [-95.7804825, 36.0468056], [-95.7804833, 36.0469008], [-95.7806401, 36.0469], [-95.7806415, 36.0470757], [-95.7805545, 36.0470761], [-95.7805551, 36.0471531]]]}, "properties": {"osm_id": 1334082803, "building": "school", "name": "", "height": null, "height_m": null, "levels": null, "tract_id": "40143007402", "tract_name": "74.02", "tags": {"building": "school"}}}, {"type": "Feature", "geometry": {"type": "Polygon", "coordinates": [[[-95.781093, 36.0472099], [-95.7810768, 36.04721], [-95.7806436, 36.0472121], [-95.7806428, 36.0471092], [-95.78068, 36.0471091], [-95.7806797, 36.0470738], [-95.7807284, 36.0470736], [-95.7807269, 36.0468713], [-95.7810905, 36.0468695], [-95.781093, 36.0472099]]]}, "properties": {"osm_id": 1334082804, "building": "school", "name": "", "height": null, "height_m": null, "levels": null, "tract_id": "40143007402", "tract_name": "74.02", "tags": {"building": "school"}}}, {"type": "Feature", "geometry": {"type": "Polygon", "coordinates": [[[-95.7806855, 36.0480064], [-95.7806796, 36.0480064], [-95.7806794, 36.0479733], [-95.7806854, 36.0479733], [-95.7806851, 36.0479006], [-95.7807384, 36.0479004], [-95.7807384, 36.0478951], [-95.7811526, 36.0478941], [-95.7811526, 36.0478994], [-95.7812046, 36.0478993], [-95.7812049, 36.047972], [-95.781211, 36.047972], [-95.7812111, 36.0480051], [-95.781205, 36.0480051], [-95.7812053, 36.0480778], [-95.7811137, 36.0480781], [-95.7811137, 36.048083], [-95.7807747, 36.0480838], [-95.7807747, 36.0480789], [-95.7806858, 36.0480791], [-95.7806855, 36.0480064]]]}, "properties": {"osm_id": 1334082805, "building": "school", "name": "", "height": null, "height_m": null, "levels": null, "tract_id": "40143007402", "tract_name": "74.02", "tags": {"building": "school"}}}, {"type": "Feature", "geometry": {"type": "Polygon", "coordinates": [[[-95.7810781, 36.0474668], [-95.7810749, 36.0474668], [-95.7807257, 36.0474683], [-95.780482, 36.0474694], [-95.7804816, 36.0474123], [-95.7804812, 36.047344], [-95.7804808, 36.0472852], [-95.7810768, 36.0472826], [-95.7810781, 36.0474668]]]}, "properties": {"osm_id": 1334082806, "building": "school", "name": "", "height": null, "height_m": null, "levels": null, "tract_id": "40143007402", "tract_name": "74.02", "tags": {"building": "school"}}}, {"type": "Feature", "geometry": {"type": "Polygon", "coordinates": [[[-95.7811138, 36.0477336], [-95.7806625, 36.0477347], [-95.7806623, 36.0476803], [-95.7806619, 36.0475614], [-95.7806618, 36.047552], [-95.7810752, 36.047551], [-95.7811131, 36.0475509], [-95.7811138, 36.0477336]]]}, "properties": {"osm_id": 1334082807, "building": "school", "name": "", "height": null, "height_m": null, "levels": null, "tract_id": "40143007402", "tract_name": "74.02", "tags": {"building": "school"}}}, {"type": "Feature", "geometry": {"type": "Polygon", "coordinates": [[[-95.7896939, 36.0557083], [-95.7896127, 36.0557081], [-95.7896132, 36.0555412], [-95.7896471, 36.0555413], [-95.7896471, 36.0555571], [-95.7896792, 36.0555571], [-95.7896792, 36.0555654], [-95.7896944, 36.0555654], [-95.7896939, 36.0557083]]]}, "properties": {"osm_id": 1334638273, "building": "house", "name": "", "height": null, "height_m": null, "levels": null, "tract_id": "40143007402", "tract_name": "74.02", "tags": {"addr:housenumber": "134", "addr:postcode": "74012", "addr:street": "East Elgin Street", "building": "house", "house": "terraced"}}}, {"type": "Feature", "geometry": {"type": "Polygon", "coordinates": [[[-95.7899712, 36.0557063], [-95.7898882, 36.0557064], [-95.7898877, 36.0555635], [-95.7899062, 36.0555634], [-95.7899062, 36.0555412], [-95.7899396, 36.0555411], [-95.7899397, 36.0555564], [-95.7899707, 36.0555563], [-95.7899712, 36.0557063]]]}, "properties": {"osm_id": 1334638274, "building": "house", "name": "", "height": null, "height_m": null, "levels": null, "tract_id": "40143007402", "tract_name": "74.02", "tags": {"addr:housenumber": "118", "addr:postcode": "74012", "addr:street": "East Elgin Street", "building": "house", "house": "terraced"}}}, {"type": "Feature", "geometry": {"type": "Polygon", "coordinates": [[[-95.7899707, 36.0555563], [-95.7900216, 36.0555562], [-95.7900215, 36.055541], [-95.7900565, 36.0555409], [-95.7900569, 36.0557061], [-95.7899712, 36.0557063], [-95.7899707, 36.0555563]]]}, "properties": {"osm_id": 1334638275, "building": "house", "name": "", "height": null, "height_m": null, "levels": null, "tract_id": "40143007402", "tract_name": "74.02", "tags": {"addr:housenumber": "114", "addr:postcode": "74012", "addr:street": "East Elgin Street", "building": "house", "house": "terraced"}}}, {"type": "Feature", "geometry": {"type": "Polygon", "coordinates": [[[-95.789187, 36.0512086], [-95.7891878, 36.0510807], [-95.7892343, 36.0510808], [-95.7892349, 36.0509764], [-95.7892732, 36.0509765], [-95.7892734, 36.0509405], [-95.7893789, 36.0509409], [-95.7893782, 36.0510702], [-95.7893659, 36.0510702], [-95.7893657, 36.0511132], [-95.7893057, 36.051113], [-95.7893051, 36.0512091], [-95.789187, 36.0512086]]]}, "properties": {"osm_id": 1346724016, "building": "retail", "name": "Human Resources", "height": null, "height_m": null, "levels": null, "tract_id": "40143007402", "tract_name": "74.02", "tags": {"building": "retail", "name": "Human Resources", "operator": "City of Broken Arrow"}}}, {"type": "Feature", "geometry": {"type": "Polygon", "coordinates": [[[-95.7854511, 36.0608275], [-95.7853283, 36.0608258], [-95.7853297, 36.0607581], [-95.7854525, 36.0607598], [-95.7854511, 36.0608275]]]}, "properties": {"osm_id": 1346724053, "building": "roof", "name": "", "height": null, "height_m": null, "levels": null, "tract_id": "40143007402", "tract_name": "74.02", "tags": {"building": "roof"}}}, {"type": "Feature", "geometry": {"type": "Polygon", "coordinates": [[[-95.7856365, 36.0607526], [-95.7853693, 36.0607489], [-95.7852908, 36.0607478], [-95.7852941, 36.0605955], [-95.7853397, 36.0605961], [-95.7853407, 36.0605535], [-95.7856406, 36.0605577], [-95.7856365, 36.0607526]]]}, "properties": {"osm_id": 1346724054, "building": "retail", "name": "La Roma Mexican Restaurant and Cantina", "height": null, "height_m": null, "levels": null, "tract_id": "40143007402", "tract_name": "74.02", "tags": {"addr:city": "Broken Arrow", "addr:housenumber": "409", "addr:postcode": "74012", "addr:street": "East Kenosha Street", "amenity": "restaurant", "building": "retail", "cuisine": "mexican", "name": "La Roma Mexican Restaurant and Cantina"}}}, {"type": "Feature", "geometry": {"type": "Polygon", "coordinates": [[[-95.7860371, 36.0606811], [-95.7860371, 36.0606952], [-95.7860512, 36.0606952], [-95.7860512, 36.0607321], [-95.7861813, 36.0607321], [-95.7861813, 36.0608362], [-95.7859164, 36.0608362], [-95.7859164, 36.0608296], [-95.7859164, 36.0607831], [-95.7858843, 36.0607831], [-95.7858843, 36.0607576], [-95.7858776, 36.0607576], [-95.7858776, 36.0607321], [-95.7859714, 36.0607321], [-95.7859714, 36.0606811], [-95.7859366, 36.0606811], [-95.7859366, 36.0606242], [-95.7860834, 36.0606242], [-95.7860834, 36.0606811], [-95.7860371, 36.0606811]]]}, "properties": {"osm_id": 1346724060, "building": "industrial", "name": "Verde Vista Resources", "height": null, "height_m": null, "levels": null, "tract_id": "40143007402", "tract_name": "74.02", "tags": {"addr:city": "Broken Arrow", "addr:housenumber": "405", "addr:postcode": "74012", "addr:street": "East Kenosha Street", "building": "industrial", "craft": "gardener", "description": "drill seeding, erosion control, hydromulch and sod, commerical landscape maintenance", "name": "Verde Vista Resources"}}}, {"type": "Feature", "geometry": {"type": "Polygon", "coordinates": [[[-95.7862557, 36.0606036], [-95.7861719, 36.0606036], [-95.7861719, 36.0604974], [-95.7861927, 36.0604974], [-95.7861927, 36.0604936], [-95.7862557, 36.0604936], [-95.7862557, 36.0606036]]]}, "properties": {"osm_id": 1346724061, "building": "industrial", "name": "", "height": null, "height_m": null, "levels": null, "tract_id": "40143007402", "tract_name": "74.02", "tags": {"building": "industrial"}}}, {"type": "Feature", "geometry": {"type": "Polygon", "coordinates": [[[-95.7844033, 36.058056], [-95.7844012, 36.0579211], [-95.7845341, 36.0579198], [-95.7845362, 36.0580546], [-95.7844033, 36.058056]]]}, "properties": {"osm_id": 1346724064, "building": "apartments", "name": "", "height": null, "height_m": 6.0, "levels": 2, "tract_id": "40143007402", "tract_name": "74.02", "tags": {"building": "apartments", "building:levels": "2"}}}, {"type": "Feature", "geometry": {"type": "Polygon", "coordinates": [[[-95.7845362, 36.0580546], [-95.784537, 36.0581084], [-95.7845577, 36.0581082], [-95.7845589, 36.0581893], [-95.7844054, 36.0581908], [-95.7844033, 36.058056], [-95.7845362, 36.0580546]]]}, "properties": {"osm_id": 1346724065, "building": "apartments", "name": "", "height": null, "height_m": 6.0, "levels": 2, "tract_id": "40143007402", "tract_name": "74.02", "tags": {"building": "apartments", "building:levels": "2"}}}, {"type": "Feature", "geometry": {"type": "Polygon", "coordinates": [[[-95.7847455, 36.0578935], [-95.7848897, 36.0578932], [-95.78489, 36.0579903], [-95.7847458, 36.0579905], [-95.7847455, 36.0578935]]]}, "properties": {"osm_id": 1346724066, "building": "apartments", "name": "", "height": null, "height_m": 6.0, "levels": 2, "tract_id": "40143007402", "tract_name": "74.02", "tags": {"building": "apartments", "building:levels": "2"}}}, {"type": "Feature", "geometry": {"type": "Polygon", "coordinates": [[[-95.7847458, 36.0579905], [-95.7846016, 36.0579908], [-95.7846014, 36.0578938], [-95.7847455, 36.0578935], [-95.7847458, 36.0579905]]]}, "properties": {"osm_id": 1346724067, "building": "apartments", "name": "", "height": null, "height_m": 6.0, "levels": 2, "tract_id": "40143007402", "tract_name": "74.02", "tags": {"building": "apartments", "building:levels": "2"}}}, {"type": "Feature", "geometry": {"type": "Polygon", "coordinates": [[[-95.7847477, 36.0582117], [-95.7846035, 36.058212], [-95.7846032, 36.0581149], [-95.7847474, 36.0581147], [-95.7847477, 36.0582117]]]}, "properties": {"osm_id": 1346724068, "building": "apartments", "name": "", "height": null, "height_m": 6.0, "levels": 2, "tract_id": "40143007402", "tract_name": "74.02", "tags": {"building": "apartments", "building:levels": "2"}}}, {"type": "Feature", "geometry": {"type": "Polygon", "coordinates": [[[-95.7847474, 36.0581147], [-95.7848916, 36.0581144], [-95.7848918, 36.0582114], [-95.7847477, 36.0582117], [-95.7847474, 36.0581147]]]}, "properties": {"osm_id": 1346724069, "building": "apartments", "name": "", "height": null, "height_m": 6.0, "levels": 2, "tract_id": "40143007402", "tract_name": "74.02", "tags": {"building": "apartments", "building:levels": "2"}}}, {"type": "Feature", "geometry": {"type": "Polygon", "coordinates": [[[-95.7856269, 36.060041], [-95.7853332, 36.0600415], [-95.7853329, 36.0599499], [-95.7856267, 36.0599493], [-95.7856269, 36.060041]]]}, "properties": {"osm_id": 1346724074, "building": "apartments", "name": "", "height": null, "height_m": null, "levels": null, "tract_id": "40143007402", "tract_name": "74.02", "tags": {"building": "apartments"}}}, {"type": "Feature", "geometry": {"type": "Polygon", "coordinates": [[[-95.7856276, 36.0602882], [-95.7853338, 36.0602887], [-95.7853336, 36.0601971], [-95.7856273, 36.0601965], [-95.7856276, 36.0602882]]]}, "properties": {"osm_id": 1346724075, "building": "apartments", "name": "", "height": null, "height_m": null, "levels": null, "tract_id": "40143007402", "tract_name": "74.02", "tags": {"building": "apartments"}}}, {"type": "Feature", "geometry": {"type": "Polygon", "coordinates": [[[-95.7856268, 36.0601505], [-95.7853331, 36.060151], [-95.7853328, 36.0600594], [-95.7856266, 36.0600588], [-95.7856268, 36.0601505]]]}, "properties": {"osm_id": 1346724076, "building": "apartments", "name": "", "height": null, "height_m": null, "levels": null, "tract_id": "40143007402", "tract_name": "74.02", "tags": {"building": "apartments"}}}, {"type": "Feature", "geometry": {"type": "Polygon", "coordinates": [[[-95.786872, 36.0585074], [-95.786873, 36.0585415], [-95.7868732, 36.0585496], [-95.7868085, 36.0585508], [-95.7868073, 36.0585086], [-95.786872, 36.0585074]]]}, "properties": {"osm_id": 1346724079, "building": "roof", "name": "", "height": null, "height_m": null, "levels": null, "tract_id": "40143007402", "tract_name": "74.02", "tags": {"building": "roof"}}}, {"type": "Feature", "geometry": {"type": "Polygon", "coordinates": [[[-95.7858738, 36.0591602], [-95.7858052, 36.0591602], [-95.7858051, 36.0590708], [-95.7858737, 36.0590707], [-95.7858738, 36.0591602]]]}, "properties": {"osm_id": 1346724085, "building": "detached", "name": "", "height": null, "height_m": null, "levels": null, "tract_id": "40143007402", "tract_name": "74.02", "tags": {"building": "detached"}}}, {"type": "Feature", "geometry": {"type": "Polygon", "coordinates": [[[-95.7858052, 36.0591602], [-95.7857366, 36.0591603], [-95.7857365, 36.0590709], [-95.7858051, 36.0590708], [-95.7858052, 36.0591602]]]}, "properties": {"osm_id": 1346724086, "building": "detached", "name": "", "height": null, "height_m": null, "levels": null, "tract_id": "40143007402", "tract_name": "74.02", "tags": {"building": "detached"}}}, {"type": "Feature", "geometry": {"type": "Polygon", "coordinates": [[[-95.7855994, 36.0591604], [-95.7855308, 36.0591605], [-95.7855307, 36.059071], [-95.7855993, 36.059071], [-95.7855994, 36.0591604]]]}, "properties": {"osm_id": 1346724087, "building": "detached", "name": "", "height": null, "height_m": null, "levels": null, "tract_id": "40143007402", "tract_name": "74.02", "tags": {"building": "detached"}}}, {"type": "Feature", "geometry": {"type": "Polygon", "coordinates": [[[-95.7855308, 36.0591605], [-95.7854622, 36.0591605], [-95.7854621, 36.0590711], [-95.7855307, 36.059071], [-95.7855308, 36.0591605]]]}, "properties": {"osm_id": 1346724088, "building": "detached", "name": "", "height": null, "height_m": null, "levels": null, "tract_id": "40143007402", "tract_name": "74.02", "tags": {"building": "detached"}}}, {"type": "Feature", "geometry": {"type": "Polygon", "coordinates": [[[-95.7853936, 36.0591606], [-95.785325, 36.0591606], [-95.7853249, 36.0590712], [-95.7853935, 36.0590711], [-95.7853936, 36.0591606]]]}, "properties": {"osm_id": 1346724089, "building": "detached", "name": "", "height": null, "height_m": null, "levels": null, "tract_id": "40143007402", "tract_name": "74.02", "tags": {"building": "detached"}}}, {"type": "Feature", "geometry": {"type": "Polygon", "coordinates": [[[-95.7853935, 36.0590711], [-95.7854621, 36.0590711], [-95.7854622, 36.0591605], [-95.7853936, 36.0591606], [-95.7853935, 36.0590711]]]}, "properties": {"osm_id": 1346724090, "building": "detached", "name": "", "height": null, "height_m": null, "levels": null, "tract_id": "40143007402", "tract_name": "74.02", "tags": {"building": "detached"}}}, {"type": "Feature", "geometry": {"type": "Polygon", "coordinates": [[[-95.785668, 36.0591604], [-95.7855994, 36.0591604], [-95.7855993, 36.059071], [-95.7856679, 36.0590709], [-95.785668, 36.0591604]]]}, "properties": {"osm_id": 1346724091, "building": "detached", "name": "", "height": null, "height_m": null, "levels": null, "tract_id": "40143007402", "tract_name": "74.02", "tags": {"building": "detached"}}}, {"type": "Feature", "geometry": {"type": "Polygon", "coordinates": [[[-95.7857366, 36.0591603], [-95.785668, 36.0591604], [-95.7856679, 36.0590709], [-95.7857365, 36.0590709], [-95.7857366, 36.0591603]]]}, "properties": {"osm_id": 1346724092, "building": "detached", "name": "", "height": null, "height_m": null, "levels": null, "tract_id": "40143007402", "tract_name": "74.02", "tags": {"building": "detached"}}}, {"type": "Feature", "geometry": {"type": "Polygon", "coordinates": [[[-95.7858737, 36.0590707], [-95.7859423, 36.0590707], [-95.7859424, 36.0591601], [-95.7858738, 36.0591602], [-95.7858737, 36.0590707]]]}, "properties": {"osm_id": 1346724093, "building": "detached", "name": "", "height": null, "height_m": null, "levels": null, "tract_id": "40143007402", "tract_name": "74.02", "tags": {"building": "detached"}}}, {"type": "Feature", "geometry": {"type": "Polygon", "coordinates": [[[-95.7859423, 36.0590707], [-95.7860109, 36.0590706], [-95.786011, 36.0591601], [-95.7859424, 36.0591601], [-95.7859423, 36.0590707]]]}, "properties": {"osm_id": 1346724094, "building": "detached", "name": "", "height": null, "height_m": null, "levels": null, "tract_id": "40143007402", "tract_name": "74.02", "tags": {"building": "detached"}}}, {"type": "Feature", "geometry": {"type": "Polygon", "coordinates": [[[-95.7843931, 36.0594807], [-95.7844192, 36.0594357], [-95.7844456, 36.05939], [-95.7845434, 36.0594242], [-95.7845141, 36.0594728], [-95.7844822, 36.0595255], [-95.7844346, 36.0595088], [-95.784387, 36.0594922], [-95.7843931, 36.0594807]]]}, "properties": {"osm_id": 1346724095, "building": "roof", "name": "", "height": null, "height_m": null, "levels": null, "tract_id": "40143007402", "tract_name": "74.02", "tags": {"building": "roof"}}}, {"type": "Feature", "geometry": {"type": "Polygon", "coordinates": [[[-95.784492, 36.0597887], [-95.7845246, 36.0598449], [-95.784546, 36.0598817], [-95.7844551, 36.059919], [-95.7844303, 36.0598807], [-95.7843968, 36.0598289], [-95.7844444, 36.0598088], [-95.784492, 36.0597887]]]}, "properties": {"osm_id": 1346724096, "building": "roof", "name": "", "height": null, "height_m": null, "levels": null, "tract_id": "40143007402", "tract_name": "74.02", "tags": {"building": "roof"}}}, {"type": "Feature", "geometry": {"type": "Polygon", "coordinates": [[[-95.7900056, 36.0607908], [-95.7897935, 36.0607892], [-95.7897943, 36.0607264], [-95.7898644, 36.0607269], [-95.7898647, 36.0607001], [-95.7900055, 36.0607012], [-95.7900057, 36.0606885], [-95.7900634, 36.0606889], [-95.7900627, 36.060743], [-95.7900062, 36.0607425], [-95.7900056, 36.0607908]]]}, "properties": {"osm_id": 1361575410, "building": "retail", "name": "Easley's Service", "height": null, "height_m": null, "levels": null, "tract_id": "40143007402", "tract_name": "74.02", "tags": {"addr:postcode": "74012", "building": "retail", "name": "Easley's Service", "shop": "tyres"}}}, {"type": "Feature", "geometry": {"type": "Polygon", "coordinates": [[[-95.7889618, 36.0567243], [-95.7889176, 36.0567237], [-95.7889188, 36.0566656], [-95.7889631, 36.0566663], [-95.7889618, 36.0567243]]]}, "properties": {"osm_id": 1361875376, "building": "carport", "name": "", "height": null, "height_m": null, "levels": null, "tract_id": "40143007402", "tract_name": "74.02", "tags": {"building": "carport"}}}, {"type": "Feature", "geometry": {"type": "Polygon", "coordinates": [[[-95.789003, 36.0607121], [-95.7889242, 36.0607126], [-95.788923, 36.0605981], [-95.7890004, 36.0605981], [-95.7890004, 36.0605972], [-95.7890018, 36.0605972], [-95.789003, 36.0607121]]]}, "properties": {"osm_id": 1362143327, "building": "yes", "name": "", "height": null, "height_m": null, "levels": null, "tract_id": "40143007402", "tract_name": "74.02", "tags": {"building": "yes"}}}, {"type": "Feature", "geometry": {"type": "Polygon", "coordinates": [[[-95.7892166, 36.0603366], [-95.7892165, 36.0603163], [-95.7893081, 36.0603159], [-95.7893091, 36.0604699], [-95.7892084, 36.0604704], [-95.7892079, 36.0603968], [-95.7892038, 36.0603968], [-95.7892037, 36.060389], [-95.7890004, 36.060389], [-95.7890004, 36.0605972], [-95.7890004, 36.0605981], [-95.788923, 36.0605981], [-95.7889174, 36.0605981], [-95.7889174, 36.0605018], [-95.7889387, 36.0605018], [-95.7889387, 36.0603366], [-95.7892166, 36.0603366]]]}, "properties": {"osm_id": 1362143329, "building": "yes", "name": "", "height": null, "height_m": null, "levels": null, "tract_id": "40143007402", "tract_name": "74.02", "tags": {"building": "yes"}}}, {"type": "Feature", "geometry": {"type": "Polygon", "coordinates": [[[-95.7893464, 36.0607461], [-95.7892336, 36.0607465], [-95.7892325, 36.06054], [-95.7893453, 36.0605396], [-95.7893464, 36.0607461]]]}, "properties": {"osm_id": 1362143330, "building": "yes", "name": "", "height": null, "height_m": null, "levels": null, "tract_id": "40143007402", "tract_name": "74.02", "tags": {"building": "yes"}}}, {"type": "Feature", "geometry": {"type": "Polygon", "coordinates": [[[-95.784789, 36.0575615], [-95.7847487, 36.0575615], [-95.784668, 36.0575615], [-95.7846277, 36.0575615], [-95.7846277, 36.0574898], [-95.784668, 36.0574898], [-95.7847487, 36.0574898], [-95.784789, 36.0574898], [-95.784789, 36.0575615]]]}, "properties": {"osm_id": 1362143334, "building": "apartments", "name": "", "height": null, "height_m": null, "levels": null, "tract_id": "40143007402", "tract_name": "74.02", "tags": {"building": "apartments"}}}, {"type": "Feature", "geometry": {"type": "Polygon", "coordinates": [[[-95.785059, 36.0575626], [-95.7850186, 36.0575626], [-95.7849379, 36.0575626], [-95.7848976, 36.0575626], [-95.7848976, 36.0574909], [-95.7849379, 36.0574909], [-95.7850186, 36.0574909], [-95.785059, 36.0574909], [-95.785059, 36.0575626]]]}, "properties": {"osm_id": 1362143335, "building": "apartments", "name": "", "height": null, "height_m": null, "levels": null, "tract_id": "40143007402", "tract_name": "74.02", "tags": {"building": "apartments"}}}, {"type": "Feature", "geometry": {"type": "Polygon", "coordinates": [[[-95.7888513, 36.0477596], [-95.7887981, 36.0477596], [-95.7887982, 36.0476942], [-95.7888584, 36.0476943], [-95.7888584, 36.0476906], [-95.7888948, 36.0476907], [-95.7888946, 36.0477866], [-95.7888513, 36.0477866], [-95.7888513, 36.0477596]]]}, "properties": {"osm_id": 1383258026, "building": "house", "name": "", "height": null, "height_m": null, "levels": null, "tract_id": "40143007402", "tract_name": "74.02", "tags": {"addr:housenumber": "524", "addr:postcode": "74012", "addr:street": "South 1st Street", "building": "house"}}}, {"type": "Feature", "geometry": {"type": "Polygon", "coordinates": [[[-95.7891805, 36.0478318], [-95.789112, 36.0478317], [-95.7891121, 36.0477752], [-95.7891806, 36.0477753], [-95.7891805, 36.0478318]]]}, "properties": {"osm_id": 1383258027, "building": "carport", "name": "", "height": null, "height_m": null, "levels": null, "tract_id": "40143007402", "tract_name": "74.02", "tags": {"building": "carport"}}}, {"type": "Feature", "geometry": {"type": "Polygon", "coordinates": [[[-95.7890367, 36.0477698], [-95.789017, 36.0477698], [-95.7890172, 36.047701], [-95.7890422, 36.047701], [-95.7890423, 36.0476955], [-95.7891284, 36.0476956], [-95.7891284, 36.0477399], [-95.7891045, 36.0477398], [-95.7891043, 36.0478467], [-95.7890366, 36.0478466], [-95.7890367, 36.0477698]]]}, "properties": {"osm_id": 1383258028, "building": "house", "name": "", "height": null, "height_m": null, "levels": null, "tract_id": "40143007402", "tract_name": "74.02", "tags": {"addr:postcode": "74012", "addr:street": "South 1st Street", "building": "house"}}}, {"type": "Feature", "geometry": {"type": "Polygon", "coordinates": [[[-95.7886912, 36.047795], [-95.7885549, 36.0477949], [-95.7885551, 36.0476628], [-95.7886915, 36.0476629], [-95.7886912, 36.047795]]]}, "properties": {"osm_id": 1383258029, "building": "industrial", "name": "", "height": null, "height_m": null, "levels": null, "tract_id": "40143007402", "tract_name": "74.02", "tags": {"building": "industrial"}}}, {"type": "Feature", "geometry": {"type": "Polygon", "coordinates": [[[-95.7818632, 36.0541937], [-95.7815385, 36.0541986], [-95.7815395, 36.0541167], [-95.7815521, 36.0541173], [-95.781542, 36.0538727], [-95.7815244, 36.0538723], [-95.7815251, 36.053741], [-95.7816467, 36.0537431], [-95.7816458, 36.0536738], [-95.781746, 36.0536718], [-95.7817471, 36.0536547], [-95.7818322, 36.053658], [-95.7818322, 36.0536734], [-95.7819164, 36.0536751], [-95.7819184, 36.0540324], [-95.7819505, 36.0540324], [-95.7819515, 36.0541248], [-95.7818602, 36.054124], [-95.7818632, 36.0541937]]]}, "properties": {"osm_id": 1417132359, "building": "yes", "name": "", "height": null, "height_m": null, "levels": null, "tract_id": "40143007402", "tract_name": "74.02", "tags": {"building": "yes"}}}]}