{"type": "FeatureCollection", "features": [{"type": "Feature", "geometry": {"type": "Polygon", "coordinates": [[[-95.8518226, 36.046874], [-95.8516798, 36.046873], [-95.8516803, 36.0468232], [-95.8515935, 36.0468227], [-95.8515951, 36.0466735], [-95.8518247, 36.0466751], [-95.8518243, 36.0467082], [-95.8518235, 36.0467851], [-95.8518226, 36.046874]]]}, "properties": {"osm_id": 99094645, "building": "yes", "name": "Bank of Oklahoma", "height": null, "height_m": null, "levels": null, "tract_id": "40143007411", "tract_name": "74.11", "tags": {"addr:city": "Tulsa", "addr:country": "US", "addr:housenumber": "11111", "addr:postcode": "74133", "addr:state": "OK", "addr:street": "East 81st Street South", "amenity": "bank", "building": "yes", "name": "Bank of Oklahoma"}}}, {"type": "Feature", "geometry": {"type": "Polygon", "coordinates": [[[-95.8561555, 36.0468301], [-95.8561545, 36.0469664], [-95.8559099, 36.0469652], [-95.8559109, 36.0468288], [-95.8559905, 36.0468292], [-95.8559907, 36.0468031], [-95.8561275, 36.0468038], [-95.8561273, 36.04683], [-95.8561555, 36.0468301]]]}, "properties": {"osm_id": 99094664, "building": "yes", "name": "Arvest Bank", "height": null, "height_m": null, "levels": null, "tract_id": "40143007411", "tract_name": "74.11", "tags": {"addr:city": "Tulsa", "addr:country": "US", "addr:housenumber": "10615", "addr:postcode": "74133", "addr:state": "OK", "addr:street": "East 81st Street South", "amenity": "bank", "atm": "yes", "brand": "Arvest Bank", "brand:wikidata": "Q4802393", "building": "yes", "name": "Arvest Bank", "opening_hours": "Mo-Fr 08:00-20:00; Sa 09:00-13:00"}}}, {"type": "Feature", "geometry": {"type": "Polygon", "coordinates": [[[-95.8541195, 36.0471765], [-95.8541195, 36.04727], [-95.8540299, 36.04727], [-95.8540299, 36.0471765], [-95.8541195, 36.0471765]]]}, "properties": {"osm_id": 99094675, "building": "service", "name": "", "height": null, "height_m": null, "levels": null, "tract_id": "40143007411", "tract_name": "74.11", "tags": {"building": "service"}}}, {"type": "Feature", "geometry": {"type": "Polygon", "coordinates": [[[-95.853341, 36.0605232], [-95.8532072, 36.0605245], [-95.8532063, 36.060465], [-95.8531939, 36.0604651], [-95.8531907, 36.0602539], [-95.8533248, 36.0602525], [-95.8533266, 36.0603741], [-95.8533149, 36.0603742], [-95.8533155, 36.0604118], [-95.8533393, 36.0604116], [-95.853341, 36.0605232]]]}, "properties": {"osm_id": 109308997, "building": "yes", "name": "Wendy's", "height": null, "height_m": null, "levels": null, "tract_id": "40143007411", "tract_name": "74.11", "tags": {"addr:city": "Tulsa", "addr:country": "US", "addr:housenumber": "11032", "addr:postcode": "74133", "addr:state": "OK", "addr:street": "East 71st Street", "amenity": "fast_food", "brand": "Wendy's", "brand:wikidata": "Q550258", "building": "yes", "cuisine": "burger", "name": "Wendy's", "opening_hours": "06:30-22:00", "opening_hours:drive_through": "Mo-Su 06:30-00:00", "phone": "+1 918-398-0990", "takeaway": "yes", "website": "https://locations.wendys.com/united-states/ok/tulsa/11032-e-71st-street"}}}, {"type": "Feature", "geometry": {"type": "Polygon", "coordinates": [[[-95.8540393, 36.0602825], [-95.8540389, 36.0604789], [-95.8539554, 36.0604788], [-95.8539554, 36.060486], [-95.8538806, 36.0604859], [-95.8538806, 36.0604923], [-95.8538065, 36.0604922], [-95.8538065, 36.0604718], [-95.8537417, 36.0604717], [-95.8537421, 36.060282], [-95.8540393, 36.0602825]]]}, "properties": {"osm_id": 109309002, "building": "yes", "name": "IHOP", "height": null, "height_m": null, "levels": null, "tract_id": "40143007411", "tract_name": "74.11", "tags": {"addr:city": "Tulsa", "addr:country": "US", "addr:housenumber": "11020", "addr:postcode": "74133", "addr:state": "OK", "addr:street": "East 71st Street", "amenity": "restaurant", "brand": "IHOP", "brand:wikidata": "Q1185675", "building": "yes", "cuisine": "breakfast;pancake", "name": "IHOP"}}}, {"type": "Feature", "geometry": {"type": "Polygon", "coordinates": [[[-95.8547571, 36.0604662], [-95.8541263, 36.0604648], [-95.854127, 36.0602554], [-95.8547579, 36.0602568], [-95.8547571, 36.0604662]]]}, "properties": {"osm_id": 109309011, "building": "retail", "name": "", "height": null, "height_m": null, "levels": null, "tract_id": "40143007411", "tract_name": "74.11", "tags": {"building": "retail"}}}, {"type": "Feature", "geometry": {"type": "Polygon", "coordinates": [[[-95.8557116, 36.0490263], [-95.8560633, 36.0490252], [-95.8560632, 36.0490127], [-95.856089, 36.0490126], [-95.8560887, 36.0489653], [-95.8562247, 36.0489636], [-95.8563572, 36.0489645], [-95.8563574, 36.0490118], [-95.8563812, 36.0490117], [-95.8563813, 36.0490242], [-95.856615, 36.0490234], [-95.8566182, 36.049678], [-95.8561501, 36.0496795], [-95.8561505, 36.0497663], [-95.8557153, 36.0497678], [-95.8557116, 36.0490263]]]}, "properties": {"osm_id": 120486342, "building": "retail", "name": "Academy Sports + Outdoors", "height": null, "height_m": null, "levels": null, "tract_id": "40143007411", "tract_name": "74.11", "tags": {"addr:city": "Tulsa", "addr:country": "US", "addr:housenumber": "7850", "addr:postcode": "74133", "addr:state": "OK", "addr:street": "South 107th East Avenue", "brand": "Academy Sports + Outdoors", "brand:wikidata": "Q4671380", "building": "retail", "name": "Academy Sports + Outdoors", "shop": "sports", "website": "https://www.academy.com/storelocator/oklahoma/tulsa/store-0084"}}}, {"type": "Feature", "geometry": {"type": "Polygon", "coordinates": [[[-95.8679572, 36.0606178], [-95.8675897, 36.0606172], [-95.8675884, 36.0599748], [-95.8678257, 36.0597765], [-95.8675884, 36.0595813], [-95.8675831, 36.0590923], [-95.8678378, 36.0590923], [-95.867819, 36.059513], [-95.867992, 36.0596421], [-95.8682013, 36.0596356], [-95.8681986, 36.0599304], [-95.8679827, 36.0599348], [-95.8678394, 36.0600486], [-95.8678418, 36.0604031], [-95.8679545, 36.0604834], [-95.8679572, 36.0606178]]]}, "properties": {"osm_id": 189420443, "building": "retail", "name": "", "height": null, "height_m": null, "levels": null, "tract_id": "40143007411", "tract_name": "74.11", "tags": {"building": "retail", "source": "Bing"}}}, {"type": "Feature", "geometry": {"type": "Polygon", "coordinates": [[[-95.8673136, 36.059865], [-95.8673103, 36.0600208], [-95.8670588, 36.0600209], [-95.8670546, 36.059865], [-95.8659767, 36.0598631], [-95.8659735, 36.0593723], [-95.8658498, 36.0593728], [-95.8658496, 36.0593421], [-95.8658493, 36.059309], [-95.8658491, 36.0592716], [-95.8658488, 36.0592337], [-95.8658484, 36.0591771], [-95.8673002, 36.0591703], [-95.8673136, 36.059865]]]}, "properties": {"osm_id": 189420454, "building": "retail", "name": "The Home Depot", "height": null, "height_m": null, "levels": null, "tract_id": "40143007411", "tract_name": "74.11", "tags": {"addr:city": "Tulsa", "addr:country": "US", "addr:housenumber": "9808", "addr:postcode": "74133", "addr:state": "OK", "addr:street": "East 71st Street South", "alt_name": "Home Depot", "branch": "South Tulsa", "brand": "The Home Depot", "brand:wikidata": "Q864407", "building": "retail", "name": "The Home Depot", "opening_hours": "Mo-Sa 06:00-22:00; Su 08:00-20:00", "phone": "+1 918-459-3700", "ref": "3903", "shop": "doityourself", "website": "https://www.homedepot.com/l/S-Tulsa/OK/Tulsa/74133/3903"}}}, {"type": "Feature", "geometry": {"type": "Polygon", "coordinates": [[[-95.8653356, 36.0470822], [-95.8653093, 36.0470823], [-95.8653094, 36.0471136], [-95.8651096, 36.047114], [-95.8651002, 36.0471213], [-95.8651407, 36.0471555], [-95.8651185, 36.0471727], [-95.8651302, 36.0471825], [-95.8651341, 36.0471864], [-95.8651375, 36.0471905], [-95.8651402, 36.047195], [-95.8651421, 36.0471998], [-95.8651433, 36.0472047], [-95.8651438, 36.0472097], [-95.8651434, 36.0472146], [-95.8651423, 36.0472196], [-95.8651405, 36.0472243], [-95.8651379, 36.0472289], [-95.8651346, 36.0472331], [-95.8651308, 36.047237], [-95.8651263, 36.0472404], [-95.8651213, 36.0472434], [-95.8651159, 36.0472458], [-95.8651102, 36.0472477], [-95.8651042, 36.047249], [-95.8650981, 36.0472497], [-95.865092, 36.0472497], [-95.8650858, 36.0472491], [-95.8650798, 36.0472479], [-95.8650741, 36.0472461], [-95.8650686, 36.0472438], [-95.8650636, 36.0472409], [-95.8650591, 36.0472375], [-95.8650474, 36.0472276], [-95.8650259, 36.0472443], [-95.8649854, 36.04721], [-95.8648922, 36.047282], [-95.86487, 36.0472821], [-95.8648703, 36.0473789], [-95.8650361, 36.0473785], [-95.8650365, 36.0474698], [-95.8646073, 36.0474708], [-95.864607, 36.0473795], [-95.8647772, 36.0473791], [-95.8647769, 36.0472816], [-95.8647122, 36.0472817], [-95.8647121, 36.0472507], [-95.8646396, 36.0472508], [-95.8646357, 36.0472506], [-95.8646319, 36.0472501], [-95.8646282, 36.0472491], [-95.8646246, 36.0472478], [-95.8646213, 36.0472461], [-95.8646183, 36.0472441], [-95.8646156, 36.0472418], [-95.8646133, 36.0472392], [-95.8646114, 36.0472364], [-95.86461, 36.0472335], [-95.864609, 36.0472304], [-95.8646085, 36.0472273], [-95.8646085, 36.0472241], [-95.8646089, 36.047221], [-95.8646099, 36.0472179], [-95.8646113, 36.047215], [-95.8646132, 36.0472122], [-95.8646155, 36.0472097], [-95.8646182, 36.0472073], [-95.8646212, 36.0472053], [-95.8646245, 36.0472036], [-95.864628, 36.0472023], [-95.8646317, 36.0472013], [-95.8646356, 36.0472007], [-95.8646395, 36.0472005], [-95.8647119, 36.0472003], [-95.8647118, 36.0471698], [-95.864839, 36.0471695], [-95.8648763, 36.0471387], [-95.8648547, 36.0471216], [-95.8649015, 36.047083], [-95.8648646, 36.0470538], [-95.8648622, 36.0470516], [-95.8648602, 36.0470492], [-95.8648585, 36.0470467], [-95.8648573, 36.0470439], [-95.8648565, 36.0470411], [-95.8648561, 36.0470382], [-95.8648562, 36.0470353], [-95.8648567, 36.0470325], [-95.8648577, 36.0470297], [-95.864859, 36.047027], [-95.8648608, 36.0470245], [-95.864863, 36.0470222], [-95.8648655, 36.0470201], [-95.8648683, 36.0470183], [-95.8648714, 36.0470168], [-95.8648747, 36.0470156], [-95.8648781, 36.0470148], [-95.8648817, 36.0470143], [-95.8648853, 36.0470142], [-95.8648888, 36.0470144], [-95.8648923, 36.047015], [-95.8648957, 36.047016], [-95.8648989, 36.0470173], [-95.8649019, 36.0470189], [-95.8649047, 36.0470208], [-95.8649415, 36.0470499], [-95.8649886, 36.0470111], [-95.8650102, 36.0470282], [-95.8650479, 36.0469971], [-95.8653091, 36.0469966], [-95.8653092, 36.0470323], [-95.8653355, 36.0470322], [-95.8653393, 36.0470324], [-95.8653431, 36.047033], [-95.8653468, 36.0470339], [-95.8653504, 36.0470353], [-95.8653536, 36.047037], [-95.8653566, 36.0470389], [-95.8653593, 36.0470412], [-95.8653616, 36.0470438], [-95.8653635, 36.0470465], [-95.8653649, 36.0470494], [-95.8653659, 36.0470525], [-95.8653664, 36.0470556], [-95.8653664, 36.0470587], [-95.8653659, 36.0470618], [-95.865365, 36.0470649], [-95.8653635, 36.0470678], [-95.8653617, 36.0470706], [-95.8653594, 36.0470731], [-95.8653567, 36.0470754], [-95.8653538, 36.0470774], [-95.8653505, 36.0470791], [-95.865347, 36.0470804], [-95.8653433, 36.0470814], [-95.8653395, 36.047082], [-95.8653356, 36.0470822]]]}, "properties": {"osm_id": 248131933, "building": "commercial", "name": "Tulsa Teacher's Credit Union", "height": null, "height_m": null, "levels": null, "tract_id": "40143007411", "tract_name": "74.11", "tags": {"addr:city": "Tulsa", "addr:country": "US", "addr:housenumber": "10081", "addr:postcode": "74133", "addr:state": "OK", "addr:street": "East 81st Street", "amenity": "bank", "atm": "yes", "building": "commercial", "name": "Tulsa Teacher's Credit Union"}}}, {"type": "Feature", "geometry": {"type": "Polygon", "coordinates": [[[-95.8572125, 36.0584397], [-95.8571579, 36.0584396], [-95.8571526, 36.0585503], [-95.8569444, 36.0585432], [-95.8569444, 36.0585193], [-95.8565911, 36.0585105], [-95.8565896, 36.0585421], [-95.8565253, 36.0585415], [-95.8565262, 36.058531], [-95.8562646, 36.0584843], [-95.8562641, 36.0585041], [-95.8559217, 36.058495], [-95.8559232, 36.0584546], [-95.8558798, 36.0584537], [-95.8558909, 36.0584743], [-95.855896, 36.0584982], [-95.8558931, 36.0585245], [-95.8558815, 36.0585514], [-95.8558656, 36.0585718], [-95.8558468, 36.0585876], [-95.8558266, 36.0585987], [-95.8558136, 36.0586039], [-95.8558345, 36.0586145], [-95.8556965, 36.0587909], [-95.8554747, 36.0586776], [-95.8555997, 36.0585116], [-95.8555852, 36.0585035], [-95.8555881, 36.058448], [-95.8556293, 36.0584491], [-95.8556293, 36.0584275], [-95.8556596, 36.0584275], [-95.8556596, 36.0584001], [-95.8556185, 36.0583995], [-95.8556271, 36.0581722], [-95.8556134, 36.0581722], [-95.855617, 36.0580449], [-95.8560701, 36.0580571], [-95.8560708, 36.0580858], [-95.8561944, 36.0580893], [-95.8561944, 36.0580735], [-95.8563433, 36.058077], [-95.8563425, 36.0580589], [-95.8565153, 36.058063], [-95.8565153, 36.0580805], [-95.8566605, 36.0580828], [-95.8566598, 36.058101], [-95.8567848, 36.0581027], [-95.8567848, 36.0580758], [-95.8572386, 36.0580881], [-95.8572328, 36.0582166], [-95.8572191, 36.058216], [-95.8572125, 36.0584397]]]}, "properties": {"osm_id": 248774860, "building": "yes", "name": "The Tulsa", "height": null, "height_m": null, "levels": null, "tract_id": "40143007411", "tract_name": "74.11", "tags": {"addr:city": "Tulsa", "addr:country": "US", "addr:housenumber": "10802", "addr:postcode": "74133", "addr:state": "OK", "addr:street": "East 71st Street South", "amenity": "cinema", "brand": "Cinemark", "brand:wikidata": "Q707530", "building": "yes", "name": "The Tulsa", "operator": "Cinemark", "wikidata": "Q43195178"}}}, {"type": "Feature", "geometry": {"type": "Polygon", "coordinates": [[[-95.8522139, 36.0533897], [-95.8523304, 36.0533895], [-95.8523303, 36.0533469], [-95.8527857, 36.0533463], [-95.8527857, 36.0533886], [-95.8528991, 36.0533885], [-95.8528991, 36.0533811], [-95.8535469, 36.0533812], [-95.8535469, 36.0533899], [-95.8536591, 36.05339], [-95.8536592, 36.0533465], [-95.8539327, 36.0533468], [-95.8539327, 36.0533911], [-95.8540442, 36.0533912], [-95.8540443, 36.053347], [-95.854328, 36.0533473], [-95.8543282, 36.0532501], [-95.8542025, 36.05325], [-95.8542027, 36.0531099], [-95.8543235, 36.05311], [-95.8543236, 36.053016], [-95.8543953, 36.0530161], [-95.8543955, 36.0528866], [-95.8545483, 36.0528867], [-95.8545483, 36.0528488], [-95.8546527, 36.0528489], [-95.8546528, 36.0527153], [-95.8537291, 36.0527108], [-95.8537293, 36.0526525], [-95.8537297, 36.0525575], [-95.8537901, 36.052557], [-95.8537901, 36.0525168], [-95.8538386, 36.0525168], [-95.8538399, 36.0523358], [-95.8540037, 36.0523357], [-95.8540038, 36.0523707], [-95.8544334, 36.0523702], [-95.854433, 36.0521215], [-95.8540883, 36.0521219], [-95.8540879, 36.0518737], [-95.853417, 36.0518744], [-95.8534172, 36.0520041], [-95.8533434, 36.0520042], [-95.8533435, 36.0520171], [-95.8532112, 36.0520173], [-95.8532113, 36.0520703], [-95.8529946, 36.0520706], [-95.8529953, 36.0523652], [-95.8524528, 36.0523661], [-95.8524541, 36.0528369], [-95.8523315, 36.0528371], [-95.8523314, 36.0527944], [-95.8522125, 36.0527946], [-95.8522139, 36.0533897]]]}, "properties": {"osm_id": 363516158, "building": "school", "name": "Union High School Freshman Academy", "height": null, "height_m": null, "levels": null, "tract_id": "40143007411", "tract_name": "74.11", "tags": {"addr:city": "Tulsa", "addr:country": "US", "addr:housenumber": "7616", "addr:postcode": "74133", "addr:state": "OK", "addr:street": "South Garnett Road East", "building": "school", "name": "Union High School Freshman Academy"}}}, {"type": "Feature", "geometry": {"type": "Polygon", "coordinates": [[[-95.8623111, 36.0470279], [-95.8623111, 36.0468729], [-95.8623017, 36.0468729], [-95.8623017, 36.0467812], [-95.8623111, 36.0467812], [-95.8623111, 36.0467563], [-95.8623601, 36.0467563], [-95.8623601, 36.0467455], [-95.8624741, 36.0467455], [-95.8624741, 36.0467563], [-95.8625203, 36.0467563], [-95.8625203, 36.0467747], [-95.8625812, 36.0467747], [-95.8626585, 36.0467747], [-95.8626585, 36.0468772], [-95.8625807, 36.0468772], [-95.8625203, 36.0468772], [-95.8625203, 36.0470279], [-95.8623111, 36.0470279]]]}, "properties": {"osm_id": 537585162, "building": "yes", "name": "Access Medical Center", "height": null, "height_m": null, "levels": null, "tract_id": "40143007411", "tract_name": "74.11", "tags": {"addr:city": "Tulsa", "addr:country": "US", "addr:housenumber": "10239", "addr:postcode": "74133", "addr:state": "OK", "addr:street": "East 81st Street South", "building": "yes", "healthcare": "clinic", "name": "Access Medical Center", "urgent_care": "yes"}}}, {"type": "Feature", "geometry": {"type": "Polygon", "coordinates": [[[-95.8543371, 36.0590587], [-95.8545041, 36.0590587], [-95.8545041, 36.0590831], [-95.8545171, 36.0590831], [-95.8545171, 36.0591774], [-95.8545361, 36.0591774], [-95.8545361, 36.0592495], [-95.8545186, 36.0592495], [-95.8545186, 36.0592625], [-95.8545361, 36.0592625], [-95.8545361, 36.0593346], [-95.8545193, 36.0593346], [-95.8545194, 36.0594696], [-95.8545362, 36.0594696], [-95.8545362, 36.0595108], [-95.8545548, 36.0595108], [-95.8545549, 36.0596263], [-95.8545362, 36.0596263], [-95.8545363, 36.059668], [-95.8545173, 36.059668], [-95.8545173, 36.05972], [-95.8545044, 36.0597201], [-95.8545044, 36.0597425], [-95.8543374, 36.0597426], [-95.8543374, 36.0597206], [-95.8543211, 36.0597206], [-95.854321, 36.0596653], [-95.8543036, 36.0596653], [-95.8543036, 36.059629], [-95.8542853, 36.059629], [-95.8542853, 36.0595097], [-95.8543035, 36.0595097], [-95.8543035, 36.0594685], [-95.8543215, 36.0594685], [-95.8543215, 36.0593433], [-95.8543034, 36.0593433], [-95.8543034, 36.0591666], [-95.8543208, 36.0591666], [-95.8543208, 36.0590826], [-95.8543371, 36.0590826], [-95.8543371, 36.0590587]]]}, "properties": {"osm_id": 542505820, "building": "yes", "name": "Springhill Suites", "height": null, "height_m": null, "levels": null, "tract_id": "40143007411", "tract_name": "74.11", "tags": {"addr:city": "Tulsa", "addr:postcode": "74133", "addr:state": "OK", "branch": "Tulsa", "brand": "SpringHill Suites", "brand:wikidata": "Q7580351", "building": "yes", "name": "Springhill Suites", "official_name": "SpringHill Suites by Marriott", "phone": "+1 918-254-1777", "ref": "TULSH", "tourism": "hotel", "website": "https://www.marriott.com/tulsh"}}}, {"type": "Feature", "geometry": {"type": "Polygon", "coordinates": [[[-95.8528947, 36.0605487], [-95.8526889, 36.0605484], [-95.8526895, 36.060137], [-95.8528954, 36.0601372], [-95.8528947, 36.0605487]]]}, "properties": {"osm_id": 559918790, "building": "yes", "name": "Broken Arrow Beauty College", "height": null, "height_m": null, "levels": null, "tract_id": "40143007411", "tract_name": "74.11", "tags": {"addr:city": "Tulsa", "addr:country": "US", "addr:housenumber": "11122", "addr:postcode": "74133", "addr:state": "OK", "addr:street": "East 71st Street", "building": "yes", "name": "Broken Arrow Beauty College", "shop": "hairdresser"}}}, {"type": "Feature", "geometry": {"type": "Polygon", "coordinates": [[[-95.8526927, 36.0590511], [-95.8527423, 36.0590514], [-95.8527422, 36.0590641], [-95.8529113, 36.0590651], [-95.8529115, 36.0590414], [-95.8529893, 36.0590418], [-95.8529891, 36.0590655], [-95.8530095, 36.0590656], [-95.8530092, 36.0590918], [-95.8530234, 36.0590918], [-95.8530228, 36.0591639], [-95.8530113, 36.0591638], [-95.8530103, 36.0592809], [-95.8529911, 36.0592808], [-95.8529909, 36.0593075], [-95.8529955, 36.0593075], [-95.8529947, 36.0594057], [-95.8529901, 36.0594056], [-95.8529898, 36.0594338], [-95.8530128, 36.059434], [-95.8530118, 36.0595509], [-95.8530228, 36.059551], [-95.8530222, 36.0596274], [-95.8530112, 36.0596274], [-95.853011, 36.0596522], [-95.8529918, 36.0596521], [-95.8529916, 36.0596709], [-95.8529132, 36.0596705], [-95.8529133, 36.0596517], [-95.8527581, 36.0596508], [-95.8527587, 36.0595775], [-95.8527462, 36.0595774], [-95.8527468, 36.0595098], [-95.8528377, 36.0595103], [-95.8528382, 36.0594409], [-95.8528058, 36.0594407], [-95.8528062, 36.0593974], [-95.8528187, 36.0593975], [-95.8528195, 36.0593122], [-95.8528064, 36.0593122], [-95.8528067, 36.0592735], [-95.852835, 36.0592736], [-95.8528356, 36.0592054], [-95.8527436, 36.0592049], [-95.8527437, 36.0591939], [-95.8527036, 36.0591937], [-95.8527041, 36.0591298], [-95.8526921, 36.0591297], [-95.8526927, 36.0590511]]]}, "properties": {"osm_id": 559918791, "building": "yes", "name": "Staybridge", "height": null, "height_m": null, "levels": null, "tract_id": "40143007411", "tract_name": "74.11", "tags": {"addr:housenumber": "11111", "addr:postcode": "74133", "addr:street": "East 73rd Street", "building": "yes", "name": "Staybridge", "tourism": "hotel"}}}, {"type": "Feature", "geometry": {"type": "Polygon", "coordinates": [[[-95.8641618, 36.0602713], [-95.8641625, 36.0605185], [-95.8640981, 36.0605186], [-95.8640982, 36.0605483], [-95.8640285, 36.0605484], [-95.8640284, 36.0605188], [-95.8639601, 36.0605189], [-95.8639594, 36.0602717], [-95.8641618, 36.0602713]]]}, "properties": {"osm_id": 565596372, "building": "yes", "name": "Panera Bread", "height": null, "height_m": null, "levels": null, "tract_id": "40143007411", "tract_name": "74.11", "tags": {"addr:city": "Tulsa", "addr:housenumber": "7110", "addr:postcode": "74133", "addr:state": "OK", "addr:street": "South 101st Avenue East", "amenity": "fast_food", "brand": "Panera Bread", "brand:wikidata": "Q7130852", "building": "yes", "cuisine": "sandwich;bakery", "internet_access": "wlan", "name": "Panera Bread", "opening_hours": "Mo-Th 06:00-21:00; Fr-Sa 06:00-22:00; Su 07:00-20:00", "operator": "Cafe 2841", "phone": "+1 918-250-0196", "short_name": "Panera", "takeaway": "yes", "website": "https://locations.panerabread.com/ok/tulsa/7110-s-101st-e-ave.html"}}}, {"type": "Feature", "geometry": {"type": "Polygon", "coordinates": [[[-95.8680399, 36.0476162], [-95.8680401, 36.0475831], [-95.8680404, 36.047531], [-95.8680407, 36.0474844], [-95.868041, 36.0474413], [-95.8680413, 36.0473983], [-95.868042, 36.0472931], [-95.8680428, 36.0471626], [-95.8678091, 36.0471617], [-95.8678062, 36.0476152], [-95.8680399, 36.0476162]]]}, "properties": {"osm_id": 567157097, "building": "retail", "name": "", "height": null, "height_m": null, "levels": null, "tract_id": "40143007411", "tract_name": "74.11", "tags": {"building": "retail"}}}, {"type": "Feature", "geometry": {"type": "Polygon", "coordinates": [[[-95.8680417, 36.0469964], [-95.8680431, 36.046809], [-95.8679582, 36.0468086], [-95.8678672, 36.0468082], [-95.8677598, 36.0468076], [-95.8676418, 36.0468071], [-95.8675321, 36.0468065], [-95.8674737, 36.0468063], [-95.8674201, 36.046806], [-95.8674187, 36.0469934], [-95.8680417, 36.0469964]]]}, "properties": {"osm_id": 567157499, "building": "yes", "name": "", "height": null, "height_m": null, "levels": null, "tract_id": "40143007411", "tract_name": "74.11", "tags": {"building": "yes"}}}, {"type": "Feature", "geometry": {"type": "Polygon", "coordinates": [[[-95.8632948, 36.0605944], [-95.8628972, 36.060595], [-95.8628972, 36.0605885], [-95.8628618, 36.0605885], [-95.8628616, 36.0605104], [-95.862897, 36.0605104], [-95.862897, 36.0604947], [-95.8631017, 36.0604944], [-95.8631017, 36.0604709], [-95.8632946, 36.0604706], [-95.8632948, 36.0605944]]]}, "properties": {"osm_id": 572691050, "building": "retail", "name": "Krispy Kreme", "height": null, "height_m": null, "levels": null, "tract_id": "40143007411", "tract_name": "74.11", "tags": {"addr:city": "Tulsa", "addr:country": "US", "addr:housenumber": "10128", "addr:postcode": "74133", "addr:state": "OK", "addr:street": "East 71st Street South", "amenity": "fast_food", "brand": "Krispy Kreme", "brand:wikidata": "Q1192805", "building": "retail", "cuisine": "donut", "name": "Krispy Kreme", "phone": "+1 918 294 5293", "shop": "bakery", "takeaway": "yes"}}}, {"type": "Feature", "geometry": {"type": "Polygon", "coordinates": [[[-95.8609553, 36.0591454], [-95.8609526, 36.0586532], [-95.8613268, 36.0586519], [-95.8613265, 36.0586057], [-95.8614028, 36.0586054], [-95.8614057, 36.0591438], [-95.8612765, 36.0591443], [-95.8612766, 36.0591686], [-95.8610848, 36.0591693], [-95.8610847, 36.059145], [-95.8609553, 36.0591454]]]}, "properties": {"osm_id": 572691052, "building": "retail", "name": "Staples", "height": null, "height_m": null, "levels": null, "tract_id": "40143007411", "tract_name": "74.11", "tags": {"addr:city": "Tulsa", "addr:country": "US", "addr:housenumber": "10302", "addr:postcode": "74133", "addr:state": "OK", "addr:street": "East 71st Street South", "brand": "Staples", "brand:wikidata": "Q785943", "building": "retail", "name": "Staples", "opening_hours": "Mo-Fr 08:00-20:00; Sa 09:00-18:00; Su 11:00-18:00", "shop": "stationery", "website": "https://stores.staples.com/ok/tulsa/10302-east-71st-south"}}}, {"type": "Feature", "geometry": {"type": "Polygon", "coordinates": [[[-95.8616701, 36.058367], [-95.8616741, 36.0590945], [-95.8626598, 36.0590959], [-95.8626597, 36.0591399], [-95.8629648, 36.0591404], [-95.8629649, 36.0590964], [-95.863146, 36.0590967], [-95.863144, 36.058682], [-95.8632807, 36.0586798], [-95.8632801, 36.0585811], [-95.863551, 36.0585773], [-95.8635503, 36.0583665], [-95.8634625, 36.0583665], [-95.8634618, 36.058244], [-95.8631426, 36.0582483], [-95.863144, 36.058064], [-95.8627845, 36.058064], [-95.8627852, 36.0583681], [-95.8616701, 36.058367]]]}, "properties": {"osm_id": 572691067, "building": "retail", "name": "Lowe's", "height": null, "height_m": null, "levels": null, "tract_id": "40143007411", "tract_name": "74.11", "tags": {"addr:city": "Tulsa", "addr:housenumber": "10156", "addr:postcode": "74133", "addr:state": "OK", "addr:street": "East 71st Street South", "brand": "Lowe's", "brand:wikidata": "Q1373493", "building": "retail", "name": "Lowe's", "opening_hours": "Mo-Sa 06:00-22:00; Su 08:00-20:00", "phone": "+1 918-459-9922", "ref": "0243", "shop": "doityourself", "start_date": "1996-10-31", "website": "https://www.lowes.com/store/ok-tulsa/0243"}}}, {"type": "Feature", "geometry": {"type": "Polygon", "coordinates": [[[-95.8632553, 36.0601418], [-95.8632553, 36.0599705], [-95.8628315, 36.0599694], [-95.8627933, 36.0599976], [-95.8627939, 36.0601385], [-95.8632553, 36.0601418]]]}, "properties": {"osm_id": 572691068, "building": "retail", "name": "", "height": null, "height_m": null, "levels": null, "tract_id": "40143007411", "tract_name": "74.11", "tags": {"addr:city": "Tulsa", "addr:country": "US", "addr:housenumber": "10140", "addr:postcode": "74133", "addr:state": "OK", "addr:street": "East 71st Street South", "building": "retail"}}}, {"type": "Feature", "geometry": {"type": "Polygon", "coordinates": [[[-95.8611041, 36.0605494], [-95.8611095, 36.0602448], [-95.8614502, 36.0602487], [-95.8614448, 36.0605533], [-95.8611041, 36.0605494]]]}, "properties": {"osm_id": 572691069, "building": "retail", "name": "", "height": null, "height_m": null, "levels": null, "tract_id": "40143007411", "tract_name": "74.11", "tags": {"addr:housenumber": "10322,10324", "addr:street": "East 71st Street South", "building": "retail"}}}, {"type": "Feature", "geometry": {"type": "Polygon", "coordinates": [[[-95.8616084, 36.0601992], [-95.8619772, 36.0601992], [-95.8619772, 36.0604735], [-95.8618632, 36.0604735], [-95.8618632, 36.0605028], [-95.8617278, 36.0605028], [-95.8617278, 36.0604735], [-95.8616084, 36.0604735], [-95.8616084, 36.0601992]]]}, "properties": {"osm_id": 572691072, "building": "retail", "name": "Mathis Brothers Sleep Clearance Center", "height": null, "height_m": null, "levels": null, "tract_id": "40143007411", "tract_name": "74.11", "tags": {"addr:city": "Tulsa", "addr:country": "US", "addr:housenumber": "10306", "addr:postcode": "74133", "addr:state": "OK", "addr:street": "East 71st Street South", "building": "retail", "name": "Mathis Brothers Sleep Clearance Center", "shop": "bed", "website": "https://www.mathishome.com/stores/tulsa-37.html"}}}, {"type": "Feature", "geometry": {"type": "Polygon", "coordinates": [[[-95.8681744, 36.058831], [-95.8668994, 36.0588279], [-95.8669004, 36.0585557], [-95.8681755, 36.0585588], [-95.8681744, 36.058831]]]}, "properties": {"osm_id": 711114428, "building": "retail", "name": "", "height": null, "height_m": null, "levels": null, "tract_id": "40143007411", "tract_name": "74.11", "tags": {"addr:city": "Tulsa", "addr:country": "US", "addr:housenumber": "7181", "addr:postcode": "74133", "addr:state": "OK", "addr:street": "South Mingo Road East", "building": "retail", "source": "INCOG"}}}, {"type": "Feature", "geometry": {"type": "Polygon", "coordinates": [[[-95.8644301, 36.059204], [-95.8647063, 36.0592047], [-95.864706, 36.0592852], [-95.8650464, 36.059286], [-95.865044, 36.0599283], [-95.8649932, 36.0599282], [-95.8649933, 36.0598905], [-95.8648621, 36.0598902], [-95.8648619, 36.0599332], [-95.8646098, 36.0599326], [-95.8646099, 36.0598947], [-95.8644743, 36.0598943], [-95.8644742, 36.0599304], [-95.8644273, 36.0599303], [-95.8644301, 36.059204]]]}, "properties": {"osm_id": 711114429, "building": "yes", "name": "", "height": null, "height_m": null, "levels": null, "tract_id": "40143007411", "tract_name": "74.11", "tags": {"addr:city": "Tulsa", "addr:country": "US", "addr:housenumber": "10010", "addr:postcode": "74133", "addr:state": "OK", "addr:street": "East 71st Street South", "building": "yes", "shop": "vacant"}}}, {"type": "Feature", "geometry": {"type": "Polygon", "coordinates": [[[-95.8517251, 36.0585741], [-95.8513623, 36.0585725], [-95.8513637, 36.0583697], [-95.8517265, 36.0583713], [-95.8517251, 36.0585741]]]}, "properties": {"osm_id": 723010784, "building": "retail", "name": "Yale Cleaners", "height": null, "height_m": null, "levels": null, "tract_id": "40143007411", "tract_name": "74.11", "tags": {"addr:city": "Tulsa", "addr:country": "US", "addr:housenumber": "7310", "addr:postcode": "74133", "addr:state": "OK", "addr:street": "South Garnett Road East", "building": "retail", "name": "Yale Cleaners", "shop": "dry_cleaning", "website": "https://yalecleaners.com/Locations/Tulsa-73rd-Garnett"}}}, {"type": "Feature", "geometry": {"type": "Polygon", "coordinates": [[[-95.852391, 36.0585481], [-95.8522101, 36.0585546], [-95.8522074, 36.0585058], [-95.8521867, 36.0585065], [-95.8521846, 36.0584678], [-95.8521743, 36.0584682], [-95.8521726, 36.0584363], [-95.8521598, 36.0584368], [-95.8521578, 36.0584003], [-95.8521808, 36.0583995], [-95.8521788, 36.0583627], [-95.852203, 36.0583618], [-95.852201, 36.0583253], [-95.8522194, 36.0583246], [-95.8522164, 36.0582715], [-95.8521981, 36.0582722], [-95.852196, 36.0582355], [-95.8521718, 36.0582364], [-95.8521698, 36.0582006], [-95.8521461, 36.0582014], [-95.8521441, 36.0581646], [-95.8521565, 36.0581642], [-95.8521549, 36.0581343], [-95.8521661, 36.0581339], [-95.852164, 36.0580945], [-95.8521846, 36.0580937], [-95.8521819, 36.0580445], [-95.8523631, 36.058038], [-95.8523658, 36.0580875], [-95.8523852, 36.0580868], [-95.8523873, 36.0581247], [-95.852399, 36.0581243], [-95.8524007, 36.0581551], [-95.8524122, 36.0581547], [-95.8524143, 36.0581928], [-95.8523911, 36.0581936], [-95.852393, 36.0582282], [-95.8523683, 36.0582291], [-95.8523703, 36.058265], [-95.8523522, 36.0582657], [-95.8523553, 36.0583215], [-95.8523734, 36.0583209], [-95.8523754, 36.0583576], [-95.8524001, 36.0583567], [-95.852402, 36.058392], [-95.8524246, 36.0583912], [-95.8524268, 36.05843], [-95.8524154, 36.0584305], [-95.852417, 36.0584599], [-95.8524058, 36.0584603], [-95.8524079, 36.0584975], [-95.8523882, 36.0584982], [-95.852391, 36.0585481]]]}, "properties": {"osm_id": 723010785, "building": "yes", "name": "", "height": null, "height_m": null, "levels": null, "tract_id": "40143007411", "tract_name": "74.11", "tags": {"building": "yes"}}}, {"type": "Feature", "geometry": {"type": "Polygon", "coordinates": [[[-95.8527692, 36.0581952], [-95.8527055, 36.0581954], [-95.8527057, 36.0582294], [-95.8526679, 36.0582295], [-95.852668, 36.0582471], [-95.8526164, 36.0582473], [-95.8526163, 36.0582298], [-95.8525789, 36.0582299], [-95.8525787, 36.058196], [-95.8525137, 36.0581963], [-95.852513, 36.0580857], [-95.8525794, 36.0580855], [-95.8525792, 36.0580522], [-95.852617, 36.058052], [-95.8526169, 36.0580359], [-95.8526685, 36.0580357], [-95.8526686, 36.0580518], [-95.8527039, 36.0580517], [-95.8527041, 36.0580849], [-95.8527684, 36.0580847], [-95.8527692, 36.0581952]]]}, "properties": {"osm_id": 723010786, "building": "yes", "name": "", "height": null, "height_m": null, "levels": null, "tract_id": "40143007411", "tract_name": "74.11", "tags": {"building": "yes"}}}, {"type": "Feature", "geometry": {"type": "Polygon", "coordinates": [[[-95.8527256, 36.0584651], [-95.8525808, 36.0584656], [-95.8525801, 36.0583382], [-95.8527249, 36.0583377], [-95.8527256, 36.0584651]]]}, "properties": {"osm_id": 723010787, "building": "yes", "name": "", "height": null, "height_m": null, "levels": null, "tract_id": "40143007411", "tract_name": "74.11", "tags": {"building": "yes"}}}, {"type": "Feature", "geometry": {"type": "Polygon", "coordinates": [[[-95.853034, 36.0585389], [-95.8528718, 36.0585389], [-95.8528718, 36.0585074], [-95.8528402, 36.0585074], [-95.8528402, 36.0584678], [-95.8528309, 36.0584678], [-95.8528309, 36.0584364], [-95.8528168, 36.0584364], [-95.8528168, 36.0584006], [-95.8528416, 36.0584006], [-95.8528416, 36.0583648], [-95.8528651, 36.0583648], [-95.8528651, 36.0583302], [-95.8528825, 36.0583302], [-95.8528825, 36.0582743], [-95.8528684, 36.0582743], [-95.8528684, 36.0582391], [-95.8528402, 36.0582391], [-95.8528402, 36.0582028], [-95.8528168, 36.0582028], [-95.8528168, 36.0581632], [-95.8528295, 36.0581632], [-95.8528295, 36.0581345], [-95.8528402, 36.0581345], [-95.8528402, 36.0580954], [-95.8528684, 36.0580954], [-95.8528684, 36.0580618], [-95.853034, 36.0580618], [-95.853034, 36.0580965], [-95.8530635, 36.0580965], [-95.8530635, 36.0581334], [-95.8530743, 36.0581334], [-95.8530743, 36.0581805], [-95.8530863, 36.0581805], [-95.8530863, 36.0582011], [-95.8530629, 36.0582011], [-95.8530629, 36.058238], [-95.8530381, 36.058238], [-95.8530381, 36.0582738], [-95.853022, 36.0582738], [-95.853022, 36.0583318], [-95.8530394, 36.0583318], [-95.8530394, 36.0583654], [-95.8530629, 36.0583654], [-95.8530629, 36.0584001], [-95.8530863, 36.0584001], [-95.8530863, 36.0584185], [-95.8530749, 36.0584185], [-95.8530749, 36.05847], [-95.8530622, 36.05847], [-95.8530622, 36.058508], [-95.853034, 36.058508], [-95.853034, 36.0585389]]]}, "properties": {"osm_id": 723010788, "building": "yes", "name": "", "height": null, "height_m": null, "levels": null, "tract_id": "40143007411", "tract_name": "74.11", "tags": {"building": "yes"}}}, {"type": "Feature", "geometry": {"type": "Polygon", "coordinates": [[[-95.8515823, 36.0602242], [-95.8513965, 36.0602269], [-95.8513948, 36.0601505], [-95.8515806, 36.0601478], [-95.8515823, 36.0602242]]]}, "properties": {"osm_id": 723010789, "building": "yes", "name": "", "height": null, "height_m": null, "levels": null, "tract_id": "40143007411", "tract_name": "74.11", "tags": {"building": "yes"}}}, {"type": "Feature", "geometry": {"type": "Polygon", "coordinates": [[[-95.8562765, 36.0602108], [-95.8561316, 36.0602108], [-95.8561316, 36.0601886], [-95.8561108, 36.0601771], [-95.8560503, 36.0601755], [-95.8560269, 36.060194], [-95.8560268, 36.0602112], [-95.8559567, 36.0602109], [-95.855957, 36.0601647], [-95.8556672, 36.0601636], [-95.8556665, 36.0602732], [-95.855473, 36.0602724], [-95.8554721, 36.0604309], [-95.8554943, 36.060431], [-95.855494, 36.0604724], [-95.8555749, 36.0604728], [-95.855575, 36.0604589], [-95.855664, 36.0604594], [-95.8556637, 36.0604934], [-95.855769, 36.0604941], [-95.8557687, 36.0605181], [-95.8558528, 36.0605187], [-95.8558531, 36.0604939], [-95.8559599, 36.0604947], [-95.8559602, 36.0604646], [-95.8560113, 36.060465], [-95.8560107, 36.0605144], [-95.8562582, 36.0605165], [-95.8562765, 36.0605025], [-95.8562765, 36.0602108]]]}, "properties": {"osm_id": 723264212, "building": "retail", "name": "", "height": null, "height_m": null, "levels": null, "tract_id": "40143007411", "tract_name": "74.11", "tags": {"addr:city": "Tulsa", "addr:country": "US", "addr:housenumber": "10830", "addr:postcode": "74133", "addr:state": "OK", "addr:street": "East 71st Street", "building": "retail"}}}, {"type": "Feature", "geometry": {"type": "Polygon", "coordinates": [[[-95.8681218, 36.0497041], [-95.8680499, 36.0497047], [-95.8680478, 36.0497064], [-95.8680278, 36.0497066], [-95.8680273, 36.0496705], [-95.8680255, 36.0496705], [-95.8680248, 36.0496279], [-95.8680282, 36.0496278], [-95.8680275, 36.0495825], [-95.8680249, 36.0495825], [-95.8680242, 36.0495464], [-95.8680294, 36.0495463], [-95.868029, 36.0495224], [-95.8680275, 36.0495224], [-95.8680268, 36.0494826], [-95.8680286, 36.0494826], [-95.8680284, 36.0494731], [-95.8680305, 36.0494731], [-95.8680302, 36.0494477], [-95.8680695, 36.0494474], [-95.8680696, 36.0494575], [-95.8681184, 36.049457], [-95.8681218, 36.0497041]]]}, "properties": {"osm_id": 977863391, "building": "yes", "name": "", "height": null, "height_m": null, "levels": null, "tract_id": "40143007411", "tract_name": "74.11", "tags": {"building": "yes"}}}, {"type": "Feature", "geometry": {"type": "Polygon", "coordinates": [[[-95.868006, 36.0494436], [-95.8678517, 36.0494439], [-95.8678516, 36.0494211], [-95.867828, 36.0494211], [-95.8678277, 36.049341], [-95.8678452, 36.049341], [-95.8678451, 36.0493309], [-95.8678354, 36.049331], [-95.8678352, 36.0492877], [-95.8678269, 36.0492878], [-95.8678267, 36.0492524], [-95.8678468, 36.0492523], [-95.8678465, 36.0492147], [-95.8678265, 36.0492148], [-95.8678263, 36.0491967], [-95.8678328, 36.0491966], [-95.8678327, 36.0491859], [-95.8678351, 36.0491859], [-95.8678345, 36.0491378], [-95.8678471, 36.0491377], [-95.8678469, 36.0491234], [-95.8678355, 36.0491235], [-95.8678349, 36.0490781], [-95.8678269, 36.0490781], [-95.8678265, 36.0490472], [-95.8678526, 36.049047], [-95.8678524, 36.0490286], [-95.8680022, 36.0490275], [-95.8680025, 36.0490496], [-95.8680246, 36.0490495], [-95.8680254, 36.0491248], [-95.8680313, 36.0491247], [-95.8680314, 36.0491473], [-95.8680182, 36.0491473], [-95.8680184, 36.0491981], [-95.868027, 36.0491981], [-95.8680271, 36.0492162], [-95.86801, 36.0492163], [-95.8680102, 36.0492514], [-95.86803, 36.0492514], [-95.86803, 36.0492747], [-95.8680253, 36.0492747], [-95.8680254, 36.0493184], [-95.8680361, 36.0493184], [-95.8680362, 36.0493582], [-95.8680314, 36.0493582], [-95.8680315, 36.0494166], [-95.8680262, 36.0494166], [-95.8680262, 36.0494214], [-95.868006, 36.0494214], [-95.868006, 36.0494436]]]}, "properties": {"osm_id": 977863392, "building": "yes", "name": "", "height": null, "height_m": null, "levels": null, "tract_id": "40143007411", "tract_name": "74.11", "tags": {"building": "yes"}}}, {"type": "Feature", "geometry": {"type": "Polygon", "coordinates": [[[-95.8677386, 36.0493299], [-95.8677117, 36.04933], [-95.8677118, 36.0493549], [-95.8676605, 36.049355], [-95.8676604, 36.0493283], [-95.8676339, 36.0493284], [-95.8676337, 36.0492664], [-95.8676627, 36.0492663], [-95.8676627, 36.0492619], [-95.8677051, 36.0492617], [-95.8677051, 36.0492663], [-95.8677383, 36.0492662], [-95.8677386, 36.0493299]]]}, "properties": {"osm_id": 977863393, "building": "yes", "name": "", "height": null, "height_m": null, "levels": null, "tract_id": "40143007411", "tract_name": "74.11", "tags": {"addr:city": "Tulsa", "addr:country": "US", "addr:housenumber": "8001", "addr:postcode": "74133", "addr:state": "OK", "addr:street": "South Mingo Road East", "building": "yes", "source": "INCOG"}}}, {"type": "Feature", "geometry": {"type": "Polygon", "coordinates": [[[-95.8680037, 36.0496492], [-95.8680063, 36.0495249], [-95.8679853, 36.0495246], [-95.867986, 36.0494931], [-95.8679208, 36.0494922], [-95.8679205, 36.0495057], [-95.8677352, 36.049503], [-95.8677355, 36.049492], [-95.8676858, 36.0494913], [-95.867685, 36.0495255], [-95.8676447, 36.0495248], [-95.8676454, 36.0494936], [-95.8676033, 36.0494929], [-95.867603, 36.0495035], [-95.8675622, 36.0495029], [-95.8675624, 36.0494953], [-95.8675403, 36.0494949], [-95.8675401, 36.049501], [-95.8674647, 36.0494998], [-95.8674649, 36.0494939], [-95.8674442, 36.0494935], [-95.8674441, 36.0494985], [-95.8674087, 36.0494979], [-95.867409, 36.0494856], [-95.8673551, 36.0494846], [-95.8673542, 36.0495164], [-95.8673312, 36.0495159], [-95.8673278, 36.0496341], [-95.8673479, 36.0496345], [-95.8673469, 36.0496665], [-95.8674008, 36.0496675], [-95.8674013, 36.0496509], [-95.8674782, 36.0496523], [-95.867478, 36.0496577], [-95.867519, 36.0496585], [-95.8675191, 36.049654], [-95.8675955, 36.0496555], [-95.8675951, 36.0496709], [-95.8676479, 36.0496719], [-95.8676488, 36.0496399], [-95.8676788, 36.0496405], [-95.8676778, 36.0496719], [-95.8677278, 36.0496729], [-95.8677283, 36.0496562], [-95.8678049, 36.0496577], [-95.8678047, 36.0496623], [-95.8678466, 36.049663], [-95.8678467, 36.0496598], [-95.8679166, 36.0496608], [-95.8679162, 36.0496794], [-95.8679804, 36.0496803], [-95.8679811, 36.0496489], [-95.8680037, 36.0496492]]]}, "properties": {"osm_id": 977863394, "building": "yes", "name": "", "height": null, "height_m": null, "levels": null, "tract_id": "40143007411", "tract_name": "74.11", "tags": {"building": "yes"}}}, {"type": "Feature", "geometry": {"type": "Polygon", "coordinates": [[[-95.8675291, 36.0494311], [-95.8675288, 36.0494068], [-95.8675466, 36.0494066], [-95.8675464, 36.0493874], [-95.8675398, 36.0493875], [-95.867539, 36.0493286], [-95.8675293, 36.0493266], [-95.8675292, 36.049319], [-95.867541, 36.0493189], [-95.8675402, 36.0492707], [-95.867545, 36.0492706], [-95.8675449, 36.0492581], [-95.8675489, 36.0492581], [-95.8675489, 36.0492394], [-95.8675284, 36.0492395], [-95.8675283, 36.0492022], [-95.8675507, 36.0492022], [-95.8675507, 36.0491811], [-95.8675444, 36.049181], [-95.8675447, 36.0491181], [-95.8675336, 36.049118], [-95.8675336, 36.0491161], [-95.8675443, 36.0491163], [-95.867546, 36.0490573], [-95.8675529, 36.0490574], [-95.8675539, 36.0490289], [-95.8675342, 36.0490284], [-95.867535, 36.049009], [-95.8673623, 36.0490046], [-95.8673613, 36.0490293], [-95.8673474, 36.049029], [-95.8673466, 36.0490503], [-95.8673567, 36.0490506], [-95.867356, 36.0490686], [-95.8673659, 36.0490688], [-95.8673645, 36.0491028], [-95.8673448, 36.0491023], [-95.8673435, 36.0491315], [-95.8673565, 36.0491319], [-95.8673551, 36.0491669], [-95.8673503, 36.0491667], [-95.867349, 36.0492003], [-95.8673706, 36.0492009], [-95.867369, 36.0492397], [-95.8673482, 36.0492391], [-95.8673475, 36.049257], [-95.8673539, 36.0492571], [-95.8673535, 36.0492677], [-95.8673556, 36.0492689], [-95.8673571, 36.0493911], [-95.867347, 36.0493912], [-95.8673472, 36.0494079], [-95.8673697, 36.0494077], [-95.86737, 36.0494325], [-95.8675291, 36.0494311]]]}, "properties": {"osm_id": 977863395, "building": "yes", "name": "", "height": null, "height_m": null, "levels": null, "tract_id": "40143007411", "tract_name": "74.11", "tags": {"building": "yes"}}}, {"type": "Feature", "geometry": {"type": "Polygon", "coordinates": [[[-95.8671517, 36.0497201], [-95.8670633, 36.0497204], [-95.8670615, 36.0494374], [-95.86715, 36.0494371], [-95.8671517, 36.0497201]]]}, "properties": {"osm_id": 977863396, "building": "yes", "name": "", "height": null, "height_m": null, "levels": null, "tract_id": "40143007411", "tract_name": "74.11", "tags": {"building": "yes"}}}, {"type": "Feature", "geometry": {"type": "Polygon", "coordinates": [[[-95.8669932, 36.0497336], [-95.8669008, 36.0497332], [-95.8669022, 36.0495226], [-95.8669081, 36.0495187], [-95.8669083, 36.0494821], [-95.8669466, 36.0494822], [-95.8669466, 36.0494755], [-95.866995, 36.0494757], [-95.8669932, 36.0497336]]]}, "properties": {"osm_id": 977863397, "building": "yes", "name": "", "height": null, "height_m": null, "levels": null, "tract_id": "40143007411", "tract_name": "74.11", "tags": {"building": "yes"}}}, {"type": "Feature", "geometry": {"type": "Polygon", "coordinates": [[[-95.8671495, 36.0493153], [-95.8670848, 36.0493153], [-95.8670848, 36.0493196], [-95.8670597, 36.0493196], [-95.8670597, 36.0492821], [-95.8670579, 36.0492821], [-95.8670577, 36.0492407], [-95.867061, 36.0492414], [-95.8670615, 36.0491078], [-95.8670582, 36.0491078], [-95.8670584, 36.0490664], [-95.8670617, 36.0490671], [-95.8670617, 36.049033], [-95.8671512, 36.049033], [-95.8671512, 36.049066], [-95.8671592, 36.049066], [-95.8671591, 36.0490846], [-95.8671511, 36.0490846], [-95.867151, 36.0491003], [-95.8671483, 36.0491003], [-95.8671474, 36.0492194], [-95.8671511, 36.0492203], [-95.8671511, 36.0492626], [-95.8671586, 36.0492662], [-95.8671585, 36.0492824], [-95.8671495, 36.0492824], [-95.8671495, 36.0493153]]]}, "properties": {"osm_id": 977863398, "building": "yes", "name": "", "height": null, "height_m": null, "levels": null, "tract_id": "40143007411", "tract_name": "74.11", "tags": {"building": "yes"}}}, {"type": "Feature", "geometry": {"type": "Polygon", "coordinates": [[[-95.8669899, 36.0493255], [-95.8669016, 36.049325], [-95.8669039, 36.0490762], [-95.8669514, 36.0490765], [-95.8669514, 36.049073], [-95.8669921, 36.0490733], [-95.8669899, 36.0493255]]]}, "properties": {"osm_id": 977863399, "building": "yes", "name": "", "height": null, "height_m": null, "levels": null, "tract_id": "40143007411", "tract_name": "74.11", "tags": {"building": "yes"}}}, {"type": "Feature", "geometry": {"type": "Polygon", "coordinates": [[[-95.8671508, 36.0489164], [-95.8670609, 36.048916], [-95.8670631, 36.0486338], [-95.8671467, 36.0486342], [-95.8671465, 36.0486657], [-95.867157, 36.0486658], [-95.8671568, 36.0486833], [-95.8671526, 36.0486833], [-95.8671508, 36.0489164]]]}, "properties": {"osm_id": 977863400, "building": "yes", "name": "", "height": null, "height_m": null, "levels": null, "tract_id": "40143007411", "tract_name": "74.11", "tags": {"building": "yes"}}}, {"type": "Feature", "geometry": {"type": "Polygon", "coordinates": [[[-95.8669845, 36.0489504], [-95.8668991, 36.0489501], [-95.8669006, 36.0486695], [-95.8669432, 36.0486697], [-95.8669444, 36.0486667], [-95.8669859, 36.0486669], [-95.8669845, 36.0489504]]]}, "properties": {"osm_id": 977863401, "building": "yes", "name": "", "height": null, "height_m": null, "levels": null, "tract_id": "40143007411", "tract_name": "74.11", "tags": {"building": "yes"}}}, {"type": "Feature", "geometry": {"type": "Polygon", "coordinates": [[[-95.8679949, 36.0489295], [-95.8679715, 36.0489297], [-95.8679719, 36.0489621], [-95.8678607, 36.0489629], [-95.8678605, 36.0489447], [-95.8677837, 36.0489453], [-95.8677838, 36.0489509], [-95.8677632, 36.048951], [-95.8677601, 36.0489431], [-95.8677306, 36.0489435], [-95.867731, 36.0489587], [-95.8676761, 36.0489595], [-95.8676753, 36.0489255], [-95.8676391, 36.048926], [-95.8676399, 36.0489586], [-95.8675871, 36.0489594], [-95.8675867, 36.0489419], [-95.8675522, 36.0489425], [-95.8675523, 36.0489499], [-95.8675349, 36.0489502], [-95.8675347, 36.0489417], [-95.8674552, 36.048943], [-95.8674554, 36.0489513], [-95.8674351, 36.0489516], [-95.8674348, 36.0489422], [-95.8673961, 36.0489427], [-95.8673964, 36.0489568], [-95.8673504, 36.0489575], [-95.8673496, 36.0489249], [-95.8673262, 36.0489252], [-95.8673234, 36.0488068], [-95.8673443, 36.0488065], [-95.8673436, 36.0487774], [-95.8674006, 36.0487765], [-95.8674011, 36.0487951], [-95.8674275, 36.0487946], [-95.8674247, 36.0487879], [-95.8674507, 36.0487879], [-95.8674554, 36.0487931], [-95.8674729, 36.048793], [-95.8674729, 36.0487885], [-95.8675088, 36.0487883], [-95.8675087, 36.0487784], [-95.8676448, 36.0487775], [-95.8676451, 36.0488133], [-95.8676789, 36.0488131], [-95.8676785, 36.0487775], [-95.8677288, 36.0487771], [-95.867729, 36.0487928], [-95.8679171, 36.0487916], [-95.8679169, 36.0487802], [-95.8679708, 36.0487798], [-95.8679712, 36.0488111], [-95.8679936, 36.0488109], [-95.8679949, 36.0489295]]]}, "properties": {"osm_id": 977863402, "building": "yes", "name": "", "height": null, "height_m": null, "levels": null, "tract_id": "40143007411", "tract_name": "74.11", "tags": {"building": "yes"}}}, {"type": "Feature", "geometry": {"type": "Polygon", "coordinates": [[[-95.8673428, 36.0485574], [-95.8673183, 36.0485575], [-95.8673184, 36.0485742], [-95.8672704, 36.0485744], [-95.8672703, 36.0485644], [-95.8672389, 36.0485645], [-95.867239, 36.0485746], [-95.8671791, 36.0485748], [-95.8671827, 36.0485619], [-95.867146, 36.0485629], [-95.8671484, 36.0485698], [-95.8671054, 36.0485699], [-95.8671053, 36.0485521], [-95.8670758, 36.0485522], [-95.8670752, 36.0484194], [-95.8671045, 36.0484194], [-95.8671044, 36.0484053], [-95.867316, 36.0484048], [-95.867316, 36.0484206], [-95.8673422, 36.0484206], [-95.8673428, 36.0485574]]]}, "properties": {"osm_id": 977863403, "building": "yes", "name": "", "height": null, "height_m": null, "levels": null, "tract_id": "40143007411", "tract_name": "74.11", "tags": {"building": "yes"}}}, {"type": "Feature", "geometry": {"type": "Polygon", "coordinates": [[[-95.8516071, 36.0606194], [-95.8515695, 36.0606568], [-95.8514073, 36.0606578], [-95.8512551, 36.0605424], [-95.8512505, 36.0604089], [-95.8512846, 36.0603779], [-95.8513773, 36.0604478], [-95.8514783, 36.0603605], [-95.8515767, 36.0604333], [-95.851478, 36.0605237], [-95.8516071, 36.0606194]]]}, "properties": {"osm_id": 1005605792, "building": "roof", "name": "Casey's General Store", "height": null, "height_m": null, "levels": null, "tract_id": "40143007411", "tract_name": "74.11", "tags": {"amenity": "fuel", "brand": "Casey's General Store", "brand:wikidata": "Q2940968", "building": "roof", "name": "Casey's General Store"}}}, {"type": "Feature", "geometry": {"type": "Polygon", "coordinates": [[[-95.8516748, 36.0602491], [-95.8516779, 36.060416], [-95.851583, 36.060417], [-95.8515836, 36.0604285], [-95.8515767, 36.0604333], [-95.8514783, 36.0603605], [-95.8514871, 36.0603556], [-95.8515035, 36.0603556], [-95.8514998, 36.0602524], [-95.8516748, 36.0602491]]]}, "properties": {"osm_id": 1005605793, "building": "yes", "name": "Casey's General Store", "height": null, "height_m": null, "levels": null, "tract_id": "40143007411", "tract_name": "74.11", "tags": {"addr:city": "Tulsa", "addr:country": "US", "addr:housenumber": "11296", "addr:postcode": "74133", "addr:state": "OK", "addr:street": "East 71st Street South", "brand": "Casey's General Store", "brand:wikidata": "Q2940968", "building": "yes", "name": "Casey's General Store", "shop": "convenience"}}}, {"type": "Feature", "geometry": {"type": "Polygon", "coordinates": [[[-95.8518235, 36.0467851], [-95.8519951, 36.0467862], [-95.8519958, 36.0467094], [-95.8518243, 36.0467082], [-95.8518235, 36.0467851]]]}, "properties": {"osm_id": 1011388258, "building": "roof", "name": "", "height": null, "height_m": null, "levels": null, "tract_id": "40143007411", "tract_name": "74.11", "tags": {"building": "roof", "layer": "1"}}}, {"type": "Feature", "geometry": {"type": "Polygon", "coordinates": [[[-95.8645106, 36.0604964], [-95.8645106, 36.0602525], [-95.8646553, 36.0602525], [-95.8646554, 36.0604964], [-95.8645106, 36.0604964]]]}, "properties": {"osm_id": 1012168350, "building": "yes", "name": "Whataburger", "height": null, "height_m": null, "levels": null, "tract_id": "40143007411", "tract_name": "74.11", "tags": {"addr:city": "Tulsa", "addr:country": "US", "addr:housenumber": "10028", "addr:postcode": "74133", "addr:state": "OK", "addr:street": "East 71st Street South", "amenity": "fast_food", "branch": "Highway 169 & East 71st St", "brand": "Whataburger", "brand:wikidata": "Q376627", "building": "yes", "cuisine": "burger", "name": "Whataburger", "takeaway": "yes", "website": "https://locations.whataburger.com/ok/tulsa/10028-e-71st-st.html"}}}, {"type": "Feature", "geometry": {"type": "Polygon", "coordinates": [[[-95.8556006, 36.0596375], [-95.8555999, 36.0594995], [-95.8557313, 36.059499], [-95.8557312, 36.0594891], [-95.8558927, 36.0594885], [-95.8558929, 36.0595183], [-95.8558737, 36.0595184], [-95.8558745, 36.0596823], [-95.8558092, 36.0596825], [-95.8558092, 36.0596732], [-95.8557066, 36.0596735], [-95.8557067, 36.0596963], [-95.8556067, 36.0596966], [-95.8556064, 36.0596375], [-95.8556006, 36.0596375]]]}, "properties": {"osm_id": 1012600137, "building": "yes", "name": "Craving Crab", "height": null, "height_m": null, "levels": null, "tract_id": "40143007411", "tract_name": "74.11", "tags": {"addr:city": "Tulsa", "addr:country": "US", "addr:housenumber": "10804", "addr:postcode": "74133", "addr:state": "OK", "addr:street": "East 71st Street", "amenity": "restaurant", "building": "yes", "cuisine": "seafood", "fax": "+1 918 505 3103", "name": "Craving Crab", "phone": "+1 918 505 5900"}}}, {"type": "Feature", "geometry": {"type": "Polygon", "coordinates": [[[-95.857979, 36.0603541], [-95.8579505, 36.0602165], [-95.8579674, 36.0602115], [-95.8579474, 36.0601274], [-95.8578996, 36.0601336], [-95.8578989, 36.0600726], [-95.8578141, 36.0600714], [-95.8578157, 36.0601455], [-95.8577448, 36.0601561], [-95.8577617, 36.0602326], [-95.8577294, 36.060238], [-95.8577379, 36.0602698], [-95.8576697, 36.0602787], [-95.857687, 36.0603449], [-95.8577529, 36.0603345], [-95.8577626, 36.0603749], [-95.8577901, 36.0603721], [-95.8577967, 36.0604011], [-95.8578648, 36.0603918], [-95.8578604, 36.0603689], [-95.857979, 36.0603541]]]}, "properties": {"osm_id": 1012600139, "building": "yes", "name": "Fish Daddy's Grill House", "height": null, "height_m": null, "levels": null, "tract_id": "40143007411", "tract_name": "74.11", "tags": {"amenity": "restaurant", "building": "yes", "cuisine": "seafood", "name": "Fish Daddy's Grill House"}}}, {"type": "Feature", "geometry": {"type": "Polygon", "coordinates": [[[-95.8572695, 36.0603612], [-95.8572708, 36.060133], [-95.8572245, 36.0601325], [-95.8572239, 36.0601113], [-95.8570495, 36.0601102], [-95.8570468, 36.0600853], [-95.8569939, 36.0600457], [-95.8569429, 36.0600869], [-95.8569422, 36.0601081], [-95.8569328, 36.0601075], [-95.8569314, 36.0602506], [-95.8568578, 36.060252], [-95.8568572, 36.060341], [-95.8569304, 36.0603412], [-95.8569308, 36.0603748], [-95.8572259, 36.0603753], [-95.8572259, 36.0603612], [-95.8572695, 36.0603612]]]}, "properties": {"osm_id": 1012600146, "building": "yes", "name": "Cheddar's", "height": null, "height_m": null, "levels": null, "tract_id": "40143007411", "tract_name": "74.11", "tags": {"addr:city": "Tulsa", "addr:country": "US", "addr:housenumber": "10708", "addr:postcode": "74133", "addr:state": "OK", "addr:street": "East 71st Street", "amenity": "restaurant", "brand": "Cheddar's", "brand:wikidata": "Q5089187", "building": "yes", "cuisine": "american", "name": "Cheddar's", "official_name": "Cheddar's Scratch Kitchen"}}}, {"type": "Feature", "geometry": {"type": "Polygon", "coordinates": [[[-95.8536913, 36.0597901], [-95.8534727, 36.0597899], [-95.8534734, 36.0593447], [-95.853455, 36.0593449], [-95.8534482, 36.0589894], [-95.8539872, 36.0589796], [-95.8539866, 36.0593283], [-95.8539217, 36.0593263], [-95.8539213, 36.0595726], [-95.8536916, 36.0595724], [-95.8536913, 36.0597901]]]}, "properties": {"osm_id": 1056599299, "building": "yes", "name": "Residence Inn", "height": null, "height_m": null, "levels": null, "tract_id": "40143007411", "tract_name": "74.11", "tags": {"addr:city": "Tulsa", "addr:housenumber": "11025", "addr:postcode": "74133", "addr:state": "OK", "addr:street": "East 73rd Street", "branch": "Tulsa South", "brand": "Residence Inn", "brand:wikidata": "Q7315394", "building": "yes", "name": "Residence Inn", "official_name": "Residence Inn by Marriott", "phone": "+1 918-250-4850", "ref": "TULRI", "tourism": "hotel", "website": "https://www.marriott.com/tulri"}}}, {"type": "Feature", "geometry": {"type": "Polygon", "coordinates": [[[-95.8674722, 36.0479734], [-95.8679622, 36.0479759], [-95.867962, 36.0479991], [-95.8681217, 36.0479998], [-95.8681224, 36.0479026], [-95.8681429, 36.0479027], [-95.8681431, 36.0478707], [-95.8681018, 36.0478705], [-95.8681022, 36.0478224], [-95.8674734, 36.0478191], [-95.8674722, 36.0479734]]]}, "properties": {"osm_id": 1109172042, "building": "yes", "name": "avid Hotel", "height": null, "height_m": null, "levels": null, "tract_id": "40143007411", "tract_name": "74.11", "tags": {"addr:city": "Tulsa", "addr:country": "US", "addr:housenumber": "8007", "addr:postcode": "74133", "addr:state": "OK", "addr:street": "South Mingo Road East", "branch": "Tulsa South - Medical District", "brand": "avid Hotel", "brand:wikidata": "Q60749907", "building": "yes", "check_date": "2025-05-11", "internet_access": "yes", "internet_access:fee": "customers", "name": "avid Hotel", "phone": "+1 918 872 6600", "source": "INCOG", "tourism": "hotel", "website": "https://www.ihg.com/avidhotels/hotels/us/en/tulsa/tulav/hoteldetail"}}}, {"type": "Feature", "geometry": {"type": "Polygon", "coordinates": [[[-95.8666523, 36.047258], [-95.8661448, 36.0472581], [-95.8661448, 36.0471582], [-95.8661447, 36.0469933], [-95.8662699, 36.0469932], [-95.8666522, 36.0469931], [-95.8666523, 36.047258]]]}, "properties": {"osm_id": 1109172852, "building": "yes", "name": "TTCU The Credit Union", "height": null, "height_m": null, "levels": null, "tract_id": "40143007411", "tract_name": "74.11", "tags": {"amenity": "bank", "building": "yes", "name": "TTCU The Credit Union"}}}, {"type": "Feature", "geometry": {"type": "Polygon", "coordinates": [[[-95.864483, 36.0588366], [-95.8644817, 36.0584998], [-95.8651263, 36.0584982], [-95.8651269, 36.0586437], [-95.8646591, 36.0586449], [-95.8646598, 36.0588362], [-95.864483, 36.0588366]]]}, "properties": {"osm_id": 1124039472, "building": "yes", "name": "Candlewood Suites Tulsa", "height": null, "height_m": null, "levels": null, "tract_id": "40143007411", "tract_name": "74.11", "tags": {"addr:city": "Tulsa", "addr:housenumber": "10008", "addr:postcode": "74133", "addr:state": "OK", "addr:street": "East 73rd Street", "brand": "Candlewood Suites", "brand:wikidata": "Q5032010", "building": "yes", "name": "Candlewood Suites Tulsa", "tourism": "hotel"}}}, {"type": "Feature", "geometry": {"type": "Polygon", "coordinates": [[[-95.8602183, 36.0506924], [-95.860902, 36.0507032], [-95.8609071, 36.0504908], [-95.8607784, 36.0504888], [-95.8607804, 36.0504097], [-95.8606383, 36.0504074], [-95.8606377, 36.0504323], [-95.8604366, 36.0504291], [-95.8604353, 36.0504811], [-95.8602235, 36.0504778], [-95.8602183, 36.0506924]]]}, "properties": {"osm_id": 1156082280, "building": "yes", "name": "Council Oak Comprehensive Healthcare", "height": null, "height_m": null, "levels": null, "tract_id": "40143007411", "tract_name": "74.11", "tags": {"amenity": "doctors", "building": "yes", "name": "Council Oak Comprehensive Healthcare", "source": "microsoft/BuildingFootprints"}}}, {"type": "Feature", "geometry": {"type": "Polygon", "coordinates": [[[-95.8588598, 36.0540622], [-95.858786, 36.0540616], [-95.8587864, 36.054028], [-95.8588602, 36.0540285], [-95.8588598, 36.0540622]]]}, "properties": {"osm_id": 1197835872, "building": "yes", "name": "", "height": null, "height_m": null, "levels": null, "tract_id": "40143007411", "tract_name": "74.11", "tags": {"building": "yes"}}}, {"type": "Feature", "geometry": {"type": "Polygon", "coordinates": [[[-95.8581162, 36.0537125], [-95.858082, 36.0537125], [-95.858082, 36.0536659], [-95.8581162, 36.0536659], [-95.8581162, 36.0537125]]]}, "properties": {"osm_id": 1197835873, "building": "yes", "name": "", "height": null, "height_m": null, "levels": null, "tract_id": "40143007411", "tract_name": "74.11", "tags": {"building": "yes"}}}, {"type": "Feature", "geometry": {"type": "Polygon", "coordinates": [[[-95.8570915, 36.0558208], [-95.857052, 36.0558208], [-95.857052, 36.0557926], [-95.8570915, 36.0557926], [-95.8570915, 36.0558208]]]}, "properties": {"osm_id": 1197835874, "building": "yes", "name": "", "height": null, "height_m": null, "levels": null, "tract_id": "40143007411", "tract_name": "74.11", "tags": {"building": "yes"}}}, {"type": "Feature", "geometry": {"type": "Polygon", "coordinates": [[[-95.8578734, 36.0556533], [-95.8578725, 36.0556061], [-95.8579116, 36.0556056], [-95.8579125, 36.0556528], [-95.8578734, 36.0556533]]]}, "properties": {"osm_id": 1197835875, "building": "yes", "name": "", "height": null, "height_m": null, "levels": null, "tract_id": "40143007411", "tract_name": "74.11", "tags": {"building": "yes"}}}, {"type": "Feature", "geometry": {"type": "Polygon", "coordinates": [[[-95.8580028, 36.05507], [-95.8579829, 36.0550965], [-95.8579332, 36.0550721], [-95.8579532, 36.0550456], [-95.8580028, 36.05507]]]}, "properties": {"osm_id": 1197835876, "building": "yes", "name": "", "height": null, "height_m": null, "levels": null, "tract_id": "40143007411", "tract_name": "74.11", "tags": {"building": "yes"}}}, {"type": "Feature", "geometry": {"type": "Polygon", "coordinates": [[[-95.8582105, 36.0555496], [-95.8580577, 36.0555512], [-95.8580588, 36.0556191], [-95.8580776, 36.0556189], [-95.8580788, 36.0556941], [-95.8582229, 36.0556926], [-95.8582216, 36.0556099], [-95.8582115, 36.05561], [-95.8582105, 36.0555496]]]}, "properties": {"osm_id": 1197835878, "building": "detached", "name": "", "height": null, "height_m": null, "levels": null, "tract_id": "40143007411", "tract_name": "74.11", "tags": {"building": "detached", "source": "microsoft/BuildingFootprints"}}}, {"type": "Feature", "geometry": {"type": "Polygon", "coordinates": [[[-95.8587576, 36.0562329], [-95.8587559, 36.0561109], [-95.8586057, 36.0561122], [-95.8586065, 36.0561708], [-95.8585529, 36.0561712], [-95.8585541, 36.0562624], [-95.8586382, 36.0562617], [-95.8586379, 36.056234], [-95.8587576, 36.0562329]]]}, "properties": {"osm_id": 1197835879, "building": "detached", "name": "", "height": null, "height_m": null, "levels": null, "tract_id": "40143007411", "tract_name": "74.11", "tags": {"building": "detached", "source": "microsoft/BuildingFootprints"}}}, {"type": "Feature", "geometry": {"type": "Polygon", "coordinates": [[[-95.8570464, 36.0556373], [-95.8572717, 36.0556398], [-95.8572728, 36.0555726], [-95.8572481, 36.0555723], [-95.8572488, 36.0555314], [-95.8572413, 36.0555313], [-95.8572422, 36.0554812], [-95.8570893, 36.0554795], [-95.857088, 36.0555575], [-95.8570478, 36.0555571], [-95.8570464, 36.0556373]]]}, "properties": {"osm_id": 1197835880, "building": "detached", "name": "", "height": null, "height_m": null, "levels": null, "tract_id": "40143007411", "tract_name": "74.11", "tags": {"building": "detached", "source": "microsoft/BuildingFootprints"}}}, {"type": "Feature", "geometry": {"type": "Polygon", "coordinates": [[[-95.858088, 36.0558787], [-95.8582035, 36.0558766], [-95.8581995, 36.0557336], [-95.858084, 36.0557357], [-95.858088, 36.0558787]]]}, "properties": {"osm_id": 1197835881, "building": "detached", "name": "", "height": null, "height_m": null, "levels": null, "tract_id": "40143007411", "tract_name": "74.11", "tags": {"building": "detached", "source": "microsoft/BuildingFootprints"}}}, {"type": "Feature", "geometry": {"type": "Polygon", "coordinates": [[[-95.8585549, 36.0564632], [-95.8587373, 36.0564646], [-95.8587393, 36.0562955], [-95.8585569, 36.0562941], [-95.8585549, 36.0564632]]]}, "properties": {"osm_id": 1197835882, "building": "detached", "name": "", "height": null, "height_m": null, "levels": null, "tract_id": "40143007411", "tract_name": "74.11", "tags": {"building": "detached", "source": "microsoft/BuildingFootprints"}}}, {"type": "Feature", "geometry": {"type": "Polygon", "coordinates": [[[-95.8576121, 36.0558383], [-95.857824, 36.055836], [-95.8578226, 36.0557527], [-95.8577705, 36.0557533], [-95.8577695, 36.0556926], [-95.857642, 36.055694], [-95.8576433, 36.0557772], [-95.8576111, 36.0557776], [-95.8576121, 36.0558383]]]}, "properties": {"osm_id": 1197835883, "building": "detached", "name": "", "height": null, "height_m": null, "levels": null, "tract_id": "40143007411", "tract_name": "74.11", "tags": {"building": "detached", "source": "microsoft/BuildingFootprints"}}}, {"type": "Feature", "geometry": {"type": "Polygon", "coordinates": [[[-95.8585533, 36.0548454], [-95.8587503, 36.0548427], [-95.8587476, 36.0547182], [-95.8585948, 36.0547203], [-95.8585956, 36.0547561], [-95.8586061, 36.054756], [-95.8586066, 36.0547818], [-95.858552, 36.0547826], [-95.8585533, 36.0548454]]]}, "properties": {"osm_id": 1197835884, "building": "detached", "name": "", "height": null, "height_m": null, "levels": null, "tract_id": "40143007411", "tract_name": "74.11", "tags": {"building": "detached", "source": "microsoft/BuildingFootprints"}}}, {"type": "Feature", "geometry": {"type": "Polygon", "coordinates": [[[-95.8570374, 36.0559903], [-95.8572546, 36.0559891], [-95.857254, 36.0559163], [-95.8572781, 36.0559161], [-95.8572775, 36.0558481], [-95.8570684, 36.0558492], [-95.8570691, 36.0559324], [-95.8570369, 36.0559326], [-95.8570374, 36.0559903]]]}, "properties": {"osm_id": 1197835885, "building": "detached", "name": "", "height": null, "height_m": null, "levels": null, "tract_id": "40143007411", "tract_name": "74.11", "tags": {"building": "detached", "source": "microsoft/BuildingFootprints"}}}, {"type": "Feature", "geometry": {"type": "Polygon", "coordinates": [[[-95.8582062, 36.054707], [-95.8582057, 36.0546367], [-95.8581601, 36.0546369], [-95.8581595, 36.0545393], [-95.858012, 36.05454], [-95.8580131, 36.0547078], [-95.8582062, 36.054707]]]}, "properties": {"osm_id": 1197835886, "building": "detached", "name": "", "height": null, "height_m": null, "levels": null, "tract_id": "40143007411", "tract_name": "74.11", "tags": {"building": "detached", "source": "microsoft/BuildingFootprints"}}}, {"type": "Feature", "geometry": {"type": "Polygon", "coordinates": [[[-95.8585903, 36.0540657], [-95.8587015, 36.0540673], [-95.8587022, 36.0540332], [-95.8587806, 36.0540343], [-95.8587832, 36.0539153], [-95.8586284, 36.0539131], [-95.8586271, 36.0539759], [-95.8586435, 36.0539761], [-95.8586431, 36.0539971], [-95.8585918, 36.0539963], [-95.8585903, 36.0540657]]]}, "properties": {"osm_id": 1197835887, "building": "detached", "name": "", "height": null, "height_m": null, "levels": null, "tract_id": "40143007411", "tract_name": "74.11", "tags": {"building": "detached", "source": "microsoft/BuildingFootprints"}}}, {"type": "Feature", "geometry": {"type": "Polygon", "coordinates": [[[-95.8578612, 36.052712], [-95.8579712, 36.0527129], [-95.8579725, 36.0526089], [-95.8578625, 36.052608], [-95.8578612, 36.052712]]]}, "properties": {"osm_id": 1197835888, "building": "yes", "name": "", "height": null, "height_m": null, "levels": null, "tract_id": "40143007411", "tract_name": "74.11", "tags": {"building": "yes", "source": "microsoft/BuildingFootprints"}}}, {"type": "Feature", "geometry": {"type": "Polygon", "coordinates": [[[-95.8581895, 36.0528948], [-95.8580608, 36.0528928], [-95.8580588, 36.052973], [-95.8581875, 36.052975], [-95.8581895, 36.0528948]]]}, "properties": {"osm_id": 1197835889, "building": "yes", "name": "", "height": null, "height_m": null, "levels": null, "tract_id": "40143007411", "tract_name": "74.11", "tags": {"building": "yes", "source": "microsoft/BuildingFootprints"}}}, {"type": "Feature", "geometry": {"type": "Polygon", "coordinates": [[[-95.8574862, 36.0564318], [-95.8575192, 36.0564197], [-95.8575374, 36.056452], [-95.8575977, 36.0564298], [-95.8575806, 36.0563995], [-95.8576319, 36.0563806], [-95.8576239, 36.0563665], [-95.8576604, 36.0563531], [-95.8576072, 36.0562586], [-95.8574262, 36.0563251], [-95.8574862, 36.0564318]]]}, "properties": {"osm_id": 1197835890, "building": "detached", "name": "", "height": null, "height_m": null, "levels": null, "tract_id": "40143007411", "tract_name": "74.11", "tags": {"building": "detached", "source": "microsoft/BuildingFootprints"}}}, {"type": "Feature", "geometry": {"type": "Polygon", "coordinates": [[[-95.8580113, 36.0560331], [-95.8580473, 36.0560336], [-95.8580467, 36.0560639], [-95.8581582, 36.0560654], [-95.8581589, 36.0560298], [-95.8582098, 36.0560305], [-95.858212, 36.0559221], [-95.8581316, 36.055921], [-95.858131, 36.0559501], [-95.858013, 36.0559486], [-95.8580113, 36.0560331]]]}, "properties": {"osm_id": 1197835891, "building": "detached", "name": "", "height": null, "height_m": null, "levels": null, "tract_id": "40143007411", "tract_name": "74.11", "tags": {"building": "detached", "source": "microsoft/BuildingFootprints"}}}, {"type": "Feature", "geometry": {"type": "Polygon", "coordinates": [[[-95.8576017, 36.0544929], [-95.8578162, 36.0544913], [-95.8578154, 36.0544228], [-95.8578422, 36.0544226], [-95.8578412, 36.0543358], [-95.8576427, 36.0543374], [-95.8576437, 36.0544176], [-95.8576008, 36.0544179], [-95.8576017, 36.0544929]]]}, "properties": {"osm_id": 1197835892, "building": "detached", "name": "", "height": null, "height_m": null, "levels": null, "tract_id": "40143007411", "tract_name": "74.11", "tags": {"building": "detached", "source": "microsoft/BuildingFootprints"}}}, {"type": "Feature", "geometry": {"type": "Polygon", "coordinates": [[[-95.8582202, 36.0561102], [-95.8581311, 36.0561096], [-95.8581309, 36.056122], [-95.8580055, 36.0561211], [-95.8580049, 36.0561817], [-95.858036, 36.0561819], [-95.8580349, 36.0562851], [-95.8581771, 36.0562861], [-95.8581777, 36.0562275], [-95.8581991, 36.0562277], [-95.8581996, 36.0561778], [-95.8582195, 36.0561779], [-95.8582202, 36.0561102]]]}, "properties": {"osm_id": 1197835893, "building": "detached", "name": "", "height": null, "height_m": null, "levels": null, "tract_id": "40143007411", "tract_name": "74.11", "tags": {"building": "detached", "source": "microsoft/BuildingFootprints"}}}, {"type": "Feature", "geometry": {"type": "Polygon", "coordinates": [[[-95.857862, 36.0537402], [-95.8577869, 36.053739], [-95.8577875, 36.053713], [-95.8577044, 36.0537118], [-95.8577002, 36.0538895], [-95.8578584, 36.0538919], [-95.857862, 36.0537402]]]}, "properties": {"osm_id": 1197835894, "building": "detached", "name": "", "height": null, "height_m": null, "levels": null, "tract_id": "40143007411", "tract_name": "74.11", "tags": {"building": "detached", "source": "microsoft/BuildingFootprints"}}}, {"type": "Feature", "geometry": {"type": "Polygon", "coordinates": [[[-95.8576038, 36.0546842], [-95.8578103, 36.0546818], [-95.8578077, 36.05453], [-95.8576307, 36.0545321], [-95.8576322, 36.0546188], [-95.8576027, 36.0546191], [-95.8576038, 36.0546842]]]}, "properties": {"osm_id": 1197835895, "building": "detached", "name": "", "height": null, "height_m": null, "levels": null, "tract_id": "40143007411", "tract_name": "74.11", "tags": {"building": "detached", "source": "microsoft/BuildingFootprints"}}}, {"type": "Feature", "geometry": {"type": "Polygon", "coordinates": [[[-95.8577961, 36.0542949], [-95.8577942, 36.05418], [-95.8576601, 36.0541815], [-95.8576608, 36.0542218], [-95.8576005, 36.0542225], [-95.8576017, 36.054297], [-95.8577961, 36.0542949]]]}, "properties": {"osm_id": 1197835896, "building": "detached", "name": "", "height": null, "height_m": null, "levels": null, "tract_id": "40143007411", "tract_name": "74.11", "tags": {"building": "detached", "source": "microsoft/BuildingFootprints"}}}, {"type": "Feature", "geometry": {"type": "Polygon", "coordinates": [[[-95.8584807, 36.053879], [-95.8585313, 36.0539223], [-95.8586777, 36.0538107], [-95.8586472, 36.0537846], [-95.8586717, 36.0537659], [-95.8586017, 36.053706], [-95.8585864, 36.0537177], [-95.8585694, 36.0537032], [-95.8585601, 36.0537103], [-95.8585476, 36.0536996], [-95.8584273, 36.0537913], [-95.8585067, 36.0538593], [-95.8584807, 36.053879]]]}, "properties": {"osm_id": 1197835897, "building": "detached", "name": "", "height": null, "height_m": null, "levels": null, "tract_id": "40143007411", "tract_name": "74.11", "tags": {"building": "detached", "source": "microsoft/BuildingFootprints"}}}, {"type": "Feature", "geometry": {"type": "Polygon", "coordinates": [[[-95.8578505, 36.0528809], [-95.8579792, 36.0528828], [-95.8579806, 36.0528199], [-95.8578519, 36.052818], [-95.8578505, 36.0528809]]]}, "properties": {"osm_id": 1197835898, "building": "yes", "name": "", "height": null, "height_m": null, "levels": null, "tract_id": "40143007411", "tract_name": "74.11", "tags": {"building": "yes", "source": "microsoft/BuildingFootprints"}}}, {"type": "Feature", "geometry": {"type": "Polygon", "coordinates": [[[-95.857085, 36.0548343], [-95.8572352, 36.0548325], [-95.857234, 36.0547696], [-95.8572689, 36.0547692], [-95.8572676, 36.0546998], [-95.8570557, 36.0547024], [-95.8570566, 36.054748], [-95.8570834, 36.0547476], [-95.857085, 36.0548343]]]}, "properties": {"osm_id": 1197835899, "building": "detached", "name": "", "height": null, "height_m": null, "levels": null, "tract_id": "40143007411", "tract_name": "74.11", "tags": {"building": "detached", "source": "microsoft/BuildingFootprints"}}}, {"type": "Feature", "geometry": {"type": "Polygon", "coordinates": [[[-95.8571744, 36.0562595], [-95.8571765, 36.0564546], [-95.8572371, 36.0564542], [-95.8572368, 36.056426], [-95.8572835, 36.0564257], [-95.8572837, 36.056453], [-95.8573883, 36.0564522], [-95.8573868, 36.0563078], [-95.8572581, 36.0563087], [-95.8572575, 36.0562589], [-95.8571744, 36.0562595]]]}, "properties": {"osm_id": 1197835900, "building": "detached", "name": "", "height": null, "height_m": null, "levels": null, "tract_id": "40143007411", "tract_name": "74.11", "tags": {"building": "detached", "source": "microsoft/BuildingFootprints"}}}, {"type": "Feature", "geometry": {"type": "Polygon", "coordinates": [[[-95.8580196, 36.0550975], [-95.8582127, 36.0550996], [-95.8582138, 36.0550324], [-95.8582016, 36.0550323], [-95.8582033, 36.0549294], [-95.8580224, 36.0549275], [-95.8580196, 36.0550975]]]}, "properties": {"osm_id": 1197835901, "building": "detached", "name": "", "height": null, "height_m": null, "levels": null, "tract_id": "40143007411", "tract_name": "74.11", "tags": {"building": "detached", "source": "microsoft/BuildingFootprints"}}}, {"type": "Feature", "geometry": {"type": "Polygon", "coordinates": [[[-95.8570408, 36.0541645], [-95.8570434, 36.0543133], [-95.8572096, 36.0543114], [-95.8572086, 36.0542537], [-95.8572676, 36.054253], [-95.8572663, 36.0541772], [-95.8571644, 36.0541783], [-95.8571641, 36.0541631], [-95.8570408, 36.0541645]]]}, "properties": {"osm_id": 1197835902, "building": "detached", "name": "", "height": null, "height_m": null, "levels": null, "tract_id": "40143007411", "tract_name": "74.11", "tags": {"building": "detached", "source": "microsoft/BuildingFootprints"}}}, {"type": "Feature", "geometry": {"type": "Polygon", "coordinates": [[[-95.8572352, 36.055113], [-95.8570758, 36.0551113], [-95.8570731, 36.0552761], [-95.8572647, 36.0552781], [-95.8572658, 36.0552117], [-95.8572336, 36.0552114], [-95.8572352, 36.055113]]]}, "properties": {"osm_id": 1197835903, "building": "detached", "name": "", "height": null, "height_m": null, "levels": null, "tract_id": "40143007411", "tract_name": "74.11", "tags": {"building": "detached", "source": "microsoft/BuildingFootprints"}}}, {"type": "Feature", "geometry": {"type": "Polygon", "coordinates": [[[-95.8572259, 36.0546084], [-95.857227, 36.054523], [-95.8570956, 36.0545219], [-95.8570936, 36.0546802], [-95.8572653, 36.0546816], [-95.8572662, 36.0546087], [-95.8572259, 36.0546084]]]}, "properties": {"osm_id": 1197835904, "building": "detached", "name": "", "height": null, "height_m": null, "levels": null, "tract_id": "40143007411", "tract_name": "74.11", "tags": {"building": "detached", "source": "microsoft/BuildingFootprints"}}}, {"type": "Feature", "geometry": {"type": "Polygon", "coordinates": [[[-95.8587296, 36.054303], [-95.8587297, 36.0542444], [-95.8587578, 36.0542444], [-95.8587578, 36.0541989], [-95.858723, 36.0541989], [-95.858723, 36.0541577], [-95.858589, 36.0541575], [-95.8585889, 36.0542411], [-95.8585507, 36.0542411], [-95.8585506, 36.0543028], [-95.8587296, 36.054303]]]}, "properties": {"osm_id": 1197835905, "building": "detached", "name": "", "height": null, "height_m": null, "levels": null, "tract_id": "40143007411", "tract_name": "74.11", "tags": {"building": "detached", "source": "microsoft/BuildingFootprints"}}}, {"type": "Feature", "geometry": {"type": "Polygon", "coordinates": [[[-95.8587331, 36.0555052], [-95.8585507, 36.0555068], [-95.858553, 36.0556737], [-95.8587354, 36.0556721], [-95.8587331, 36.0555052]]]}, "properties": {"osm_id": 1197835906, "building": "detached", "name": "", "height": null, "height_m": null, "levels": null, "tract_id": "40143007411", "tract_name": "74.11", "tags": {"building": "detached", "source": "microsoft/BuildingFootprints"}}}, {"type": "Feature", "geometry": {"type": "Polygon", "coordinates": [[[-95.858552, 36.0558701], [-95.8587503, 36.0558683], [-95.8587494, 36.0558035], [-95.8587654, 36.0558033], [-95.8587641, 36.0557077], [-95.8585884, 36.0557093], [-95.8585893, 36.0557785], [-95.8586102, 36.0557783], [-95.8586106, 36.0558023], [-95.858551, 36.0558029], [-95.858552, 36.0558701]]]}, "properties": {"osm_id": 1197835907, "building": "detached", "name": "", "height": null, "height_m": null, "levels": null, "tract_id": "40143007411", "tract_name": "74.11", "tags": {"building": "detached", "source": "microsoft/BuildingFootprints"}}}, {"type": "Feature", "geometry": {"type": "Polygon", "coordinates": [[[-95.8585608, 36.0551203], [-95.8585593, 36.0552687], [-95.8586385, 36.0552692], [-95.8586388, 36.0552423], [-95.8587568, 36.0552431], [-95.8587575, 36.0551725], [-95.8587215, 36.0551722], [-95.858722, 36.0551214], [-95.8585608, 36.0551203]]]}, "properties": {"osm_id": 1197835908, "building": "detached", "name": "", "height": null, "height_m": null, "levels": null, "tract_id": "40143007411", "tract_name": "74.11", "tags": {"building": "detached", "source": "microsoft/BuildingFootprints"}}}, {"type": "Feature", "geometry": {"type": "Polygon", "coordinates": [[[-95.8578368, 36.056119], [-95.8577714, 36.056118], [-95.8577722, 36.0560781], [-95.8576569, 36.0560765], [-95.8576553, 36.0561511], [-95.8576767, 36.0561514], [-95.8576757, 36.0562012], [-95.8577067, 36.0562017], [-95.8577059, 36.0562407], [-95.8578437, 36.0562427], [-95.8578447, 36.0561962], [-95.8578351, 36.0561961], [-95.8578368, 36.056119]]]}, "properties": {"osm_id": 1197835909, "building": "detached", "name": "", "height": null, "height_m": null, "levels": null, "tract_id": "40143007411", "tract_name": "74.11", "tags": {"building": "detached", "source": "microsoft/BuildingFootprints"}}}, {"type": "Feature", "geometry": {"type": "Polygon", "coordinates": [[[-95.8571688, 36.05389], [-95.8572519, 36.0538909], [-95.8572526, 36.0538496], [-95.8573325, 36.0538505], [-95.8573322, 36.0538643], [-95.857373, 36.0538647], [-95.8573753, 36.0537318], [-95.8572424, 36.0537304], [-95.8572426, 36.053721], [-95.8571716, 36.0537202], [-95.8571688, 36.05389]]]}, "properties": {"osm_id": 1197835910, "building": "detached", "name": "", "height": null, "height_m": null, "levels": null, "tract_id": "40143007411", "tract_name": "74.11", "tags": {"building": "detached", "source": "microsoft/BuildingFootprints"}}}, {"type": "Feature", "geometry": {"type": "Polygon", "coordinates": [[[-95.8576477, 36.0520006], [-95.8576471, 36.0521708], [-95.8576175, 36.0521943], [-95.8576174, 36.0522291], [-95.8576469, 36.0522534], [-95.8576463, 36.0524257], [-95.8578975, 36.0524262], [-95.8579341, 36.0523972], [-95.8580239, 36.0524712], [-95.8583449, 36.0522164], [-95.8581277, 36.0520374], [-95.8581277, 36.0520264], [-95.8580313, 36.051947], [-95.8579316, 36.0520262], [-95.8579012, 36.0520012], [-95.8576477, 36.0520006]]]}, "properties": {"osm_id": 1197835911, "building": "yes", "name": "", "height": null, "height_m": null, "levels": null, "tract_id": "40143007411", "tract_name": "74.11", "tags": {"building": "yes", "source": "microsoft/BuildingFootprints"}}}, {"type": "Feature", "geometry": {"type": "Polygon", "coordinates": [[[-95.8577936, 36.0558855], [-95.8576112, 36.0558838], [-95.8576103, 36.0559501], [-95.8576413, 36.0559504], [-95.8576402, 36.0560315], [-95.8577915, 36.0560329], [-95.8577936, 36.0558855]]]}, "properties": {"osm_id": 1197835912, "building": "detached", "name": "", "height": null, "height_m": null, "levels": null, "tract_id": "40143007411", "tract_name": "74.11", "tags": {"building": "detached", "source": "microsoft/BuildingFootprints"}}}, {"type": "Feature", "geometry": {"type": "Polygon", "coordinates": [[[-95.8578396, 36.0548638], [-95.8578413, 36.0547489], [-95.8577957, 36.0547485], [-95.8577961, 36.0547181], [-95.8576579, 36.0547168], [-95.8576573, 36.0547593], [-95.8576774, 36.0547595], [-95.8576768, 36.0548003], [-95.8576045, 36.0547996], [-95.8576033, 36.0548876], [-95.8577454, 36.0548889], [-95.8577458, 36.0548629], [-95.8578396, 36.0548638]]]}, "properties": {"osm_id": 1197835913, "building": "detached", "name": "", "height": null, "height_m": null, "levels": null, "tract_id": "40143007411", "tract_name": "74.11", "tags": {"building": "detached", "source": "microsoft/BuildingFootprints"}}}, {"type": "Feature", "geometry": {"type": "Polygon", "coordinates": [[[-95.8576161, 36.0552624], [-95.8577769, 36.0552623], [-95.8577769, 36.055131], [-95.8577111, 36.055131], [-95.8577111, 36.0551028], [-95.857616, 36.0551028], [-95.8576161, 36.0552624]]]}, "properties": {"osm_id": 1197835914, "building": "detached", "name": "", "height": null, "height_m": null, "levels": null, "tract_id": "40143007411", "tract_name": "74.11", "tags": {"building": "detached", "source": "microsoft/BuildingFootprints"}}}, {"type": "Feature", "geometry": {"type": "Polygon", "coordinates": [[[-95.8572727, 36.0558171], [-95.8572666, 36.0556677], [-95.8571073, 36.055672], [-95.857109, 36.0557131], [-95.8570715, 36.0557141], [-95.8570738, 36.0557683], [-95.8571059, 36.0557674], [-95.8571082, 36.0558216], [-95.8572727, 36.0558171]]]}, "properties": {"osm_id": 1197835915, "building": "detached", "name": "", "height": null, "height_m": null, "levels": null, "tract_id": "40143007411", "tract_name": "74.11", "tags": {"building": "detached", "source": "microsoft/BuildingFootprints"}}}, {"type": "Feature", "geometry": {"type": "Polygon", "coordinates": [[[-95.858545, 36.0554772], [-95.8586871, 36.0554774], [-95.8586872, 36.0554492], [-95.858781, 36.0554493], [-95.8587812, 36.0553353], [-95.8587383, 36.0553353], [-95.8587384, 36.0553018], [-95.8586016, 36.0553017], [-95.8586015, 36.0553475], [-95.8586231, 36.0553476], [-95.8586231, 36.055385], [-95.8585451, 36.0553849], [-95.858545, 36.0554772]]]}, "properties": {"osm_id": 1197835916, "building": "detached", "name": "", "height": null, "height_m": null, "levels": null, "tract_id": "40143007411", "tract_name": "74.11", "tags": {"building": "detached", "source": "microsoft/BuildingFootprints"}}}, {"type": "Feature", "geometry": {"type": "Polygon", "coordinates": [[[-95.8580158, 36.0545172], [-95.8582141, 36.054515], [-95.858213, 36.0544507], [-95.8582012, 36.0544509], [-95.8582002, 36.054395], [-95.8581734, 36.0543953], [-95.8581727, 36.0543507], [-95.8580506, 36.054352], [-95.8580513, 36.0543923], [-95.8580137, 36.0543927], [-95.8580158, 36.0545172]]]}, "properties": {"osm_id": 1197835917, "building": "detached", "name": "", "height": null, "height_m": null, "levels": null, "tract_id": "40143007411", "tract_name": "74.11", "tags": {"building": "detached", "source": "microsoft/BuildingFootprints"}}}, {"type": "Feature", "geometry": {"type": "Polygon", "coordinates": [[[-95.856945, 36.0536953], [-95.856947, 36.0538579], [-95.8570301, 36.0538572], [-95.8570306, 36.0538963], [-95.8571378, 36.0538954], [-95.857137, 36.0538282], [-95.8571049, 36.0538285], [-95.8571035, 36.0537136], [-95.8570204, 36.0537142], [-95.8570201, 36.0536947], [-95.856945, 36.0536953]]]}, "properties": {"osm_id": 1197835918, "building": "detached", "name": "", "height": null, "height_m": null, "levels": null, "tract_id": "40143007411", "tract_name": "74.11", "tags": {"building": "detached", "source": "microsoft/BuildingFootprints"}}}, {"type": "Feature", "geometry": {"type": "Polygon", "coordinates": [[[-95.8581897, 36.0554929], [-95.858188, 36.0553901], [-95.8582187, 36.0553897], [-95.8582175, 36.055316], [-95.8580504, 36.0553178], [-95.8580522, 36.0554284], [-95.8580134, 36.0554288], [-95.8580145, 36.0554948], [-95.8581897, 36.0554929]]]}, "properties": {"osm_id": 1197835919, "building": "detached", "name": "", "height": null, "height_m": null, "levels": null, "tract_id": "40143007411", "tract_name": "74.11", "tags": {"building": "detached", "source": "microsoft/BuildingFootprints"}}}, {"type": "Feature", "geometry": {"type": "Polygon", "coordinates": [[[-95.8576485, 36.0537488], [-95.8574393, 36.0537464], [-95.8574368, 36.0538926], [-95.8576459, 36.053895], [-95.8576485, 36.0537488]]]}, "properties": {"osm_id": 1197835920, "building": "detached", "name": "", "height": null, "height_m": null, "levels": null, "tract_id": "40143007411", "tract_name": "74.11", "tags": {"building": "detached", "source": "microsoft/BuildingFootprints"}}}, {"type": "Feature", "geometry": {"type": "Polygon", "coordinates": [[[-95.8578217, 36.0554928], [-95.8576443, 36.0554949], [-95.8576455, 36.0555639], [-95.8576653, 36.0555636], [-95.8576658, 36.0555882], [-95.8576085, 36.0555889], [-95.8576097, 36.055658], [-95.8578089, 36.0556556], [-95.8578076, 36.0555877], [-95.8578235, 36.0555875], [-95.8578217, 36.0554928]]]}, "properties": {"osm_id": 1197835921, "building": "detached", "name": "", "height": null, "height_m": null, "levels": null, "tract_id": "40143007411", "tract_name": "74.11", "tags": {"building": "detached", "source": "microsoft/BuildingFootprints"}}}, {"type": "Feature", "geometry": {"type": "Polygon", "coordinates": [[[-95.8571009, 36.0553141], [-95.8571018, 36.0553748], [-95.8570589, 36.0553752], [-95.8570602, 36.0554598], [-95.8572705, 36.0554577], [-95.8572695, 36.0553879], [-95.8572521, 36.0553881], [-95.8572518, 36.0553735], [-95.8572359, 36.0553736], [-95.857235, 36.0553128], [-95.8571009, 36.0553141]]]}, "properties": {"osm_id": 1197835922, "building": "detached", "name": "", "height": null, "height_m": null, "levels": null, "tract_id": "40143007411", "tract_name": "74.11", "tags": {"building": "detached", "source": "microsoft/BuildingFootprints"}}}, {"type": "Feature", "geometry": {"type": "Polygon", "coordinates": [[[-95.8578225, 36.0550676], [-95.85782, 36.0549128], [-95.8576153, 36.054915], [-95.8576161, 36.0549703], [-95.8576252, 36.0549702], [-95.8576256, 36.054996], [-95.8576069, 36.0549962], [-95.8576081, 36.0550699], [-95.8578225, 36.0550676]]]}, "properties": {"osm_id": 1197835923, "building": "detached", "name": "", "height": null, "height_m": null, "levels": null, "tract_id": "40143007411", "tract_name": "74.11", "tags": {"building": "detached", "source": "microsoft/BuildingFootprints"}}}, {"type": "Feature", "geometry": {"type": "Polygon", "coordinates": [[[-95.8582168, 36.0564616], [-95.8582137, 36.0563253], [-95.8581639, 36.056326], [-95.8581637, 36.0563171], [-95.8580886, 36.0563182], [-95.8580893, 36.0563486], [-95.8580667, 36.0563489], [-95.8580675, 36.0563851], [-95.8580787, 36.0563849], [-95.8580805, 36.0564636], [-95.8582168, 36.0564616]]]}, "properties": {"osm_id": 1197835924, "building": "detached", "name": "", "height": null, "height_m": null, "levels": null, "tract_id": "40143007411", "tract_name": "74.11", "tags": {"building": "detached", "source": "microsoft/BuildingFootprints"}}}, {"type": "Feature", "geometry": {"type": "Polygon", "coordinates": [[[-95.8585496, 36.0560468], [-95.858734, 36.056048], [-95.8587347, 36.0559759], [-95.858722, 36.0559758], [-95.8587225, 36.0559265], [-95.8586085, 36.0559257], [-95.8586082, 36.0559516], [-95.8585855, 36.0559514], [-95.8585852, 36.0559776], [-95.8585503, 36.0559774], [-95.8585496, 36.0560468]]]}, "properties": {"osm_id": 1197835925, "building": "detached", "name": "", "height": null, "height_m": null, "levels": null, "tract_id": "40143007411", "tract_name": "74.11", "tags": {"building": "detached", "source": "microsoft/BuildingFootprints"}}}, {"type": "Feature", "geometry": {"type": "Polygon", "coordinates": [[[-95.8569515, 36.0563037], [-95.8569534, 36.0563818], [-95.8570017, 36.056381], [-95.8570021, 36.0563983], [-95.8571067, 36.0563966], [-95.8571054, 36.0563468], [-95.8571537, 36.056346], [-95.8571516, 36.0562636], [-95.8569935, 36.0562662], [-95.8569944, 36.056303], [-95.8569515, 36.0563037]]]}, "properties": {"osm_id": 1197835926, "building": "detached", "name": "", "height": null, "height_m": null, "levels": null, "tract_id": "40143007411", "tract_name": "74.11", "tags": {"building": "detached", "source": "microsoft/BuildingFootprints"}}}, {"type": "Feature", "geometry": {"type": "Polygon", "coordinates": [[[-95.8585479, 36.0546742], [-95.8586825, 36.054672], [-95.8586821, 36.0546541], [-95.8586914, 36.054654], [-95.8586882, 36.0545261], [-95.8585676, 36.054528], [-95.8585696, 36.0546092], [-95.8585463, 36.0546096], [-95.8585479, 36.0546742]]]}, "properties": {"osm_id": 1197835927, "building": "detached", "name": "", "height": null, "height_m": null, "levels": null, "tract_id": "40143007411", "tract_name": "74.11", "tags": {"building": "detached", "source": "microsoft/BuildingFootprints"}}}, {"type": "Feature", "geometry": {"type": "Polygon", "coordinates": [[[-95.8585543, 36.054492], [-95.858773, 36.0544909], [-95.8587724, 36.0544107], [-95.8587569, 36.0544108], [-95.8587563, 36.0543293], [-95.8586919, 36.0543296], [-95.858692, 36.0543448], [-95.8585713, 36.0543454], [-95.8585717, 36.0543999], [-95.8585955, 36.0543998], [-95.8585957, 36.0544267], [-95.8585538, 36.0544269], [-95.8585543, 36.054492]]]}, "properties": {"osm_id": 1197835928, "building": "detached", "name": "", "height": null, "height_m": null, "levels": null, "tract_id": "40143007411", "tract_name": "74.11", "tags": {"building": "detached", "source": "microsoft/BuildingFootprints"}}}, {"type": "Feature", "geometry": {"type": "Polygon", "coordinates": [[[-95.8585858, 36.0550608], [-95.8587668, 36.0550615], [-95.8587671, 36.054999], [-95.8587315, 36.0549989], [-95.8587318, 36.0549479], [-95.8587486, 36.054948], [-95.8587489, 36.0549053], [-95.8585542, 36.0549046], [-95.8585538, 36.0549696], [-95.8586045, 36.0549698], [-95.8586044, 36.0549767], [-95.8585863, 36.0549767], [-95.8585858, 36.0550608]]]}, "properties": {"osm_id": 1197835929, "building": "detached", "name": "", "height": null, "height_m": null, "levels": null, "tract_id": "40143007411", "tract_name": "74.11", "tags": {"building": "detached", "source": "microsoft/BuildingFootprints"}}}, {"type": "Feature", "geometry": {"type": "Polygon", "coordinates": [[[-95.8576061, 36.0554004], [-95.8576066, 36.0554645], [-95.8578265, 36.0554634], [-95.8578253, 36.0552995], [-95.8576498, 36.0553004], [-95.8576503, 36.0553676], [-95.8576694, 36.0553675], [-95.8576696, 36.0554], [-95.8576061, 36.0554004]]]}, "properties": {"osm_id": 1197835930, "building": "detached", "name": "", "height": null, "height_m": null, "levels": null, "tract_id": "40143007411", "tract_name": "74.11", "tags": {"building": "detached", "source": "microsoft/BuildingFootprints"}}}, {"type": "Feature", "geometry": {"type": "Polygon", "coordinates": [[[-95.8582068, 36.0541725], [-95.858078, 36.0541716], [-95.8580763, 36.0543243], [-95.858205, 36.0543252], [-95.8582068, 36.0541725]]]}, "properties": {"osm_id": 1197835931, "building": "detached", "name": "", "height": null, "height_m": null, "levels": null, "tract_id": "40143007411", "tract_name": "74.11", "tags": {"building": "detached", "source": "microsoft/BuildingFootprints"}}}, {"type": "Feature", "geometry": {"type": "Polygon", "coordinates": [[[-95.8582163, 36.0548714], [-95.8582165, 36.0548064], [-95.8581924, 36.0548063], [-95.8581926, 36.0547404], [-95.8580251, 36.0547401], [-95.8580249, 36.054806], [-95.8580342, 36.054806], [-95.858034, 36.0548494], [-95.8580864, 36.0548495], [-95.8580864, 36.0548712], [-95.8582163, 36.0548714]]]}, "properties": {"osm_id": 1197835932, "building": "detached", "name": "", "height": null, "height_m": null, "levels": null, "tract_id": "40143007411", "tract_name": "74.11", "tags": {"building": "detached", "source": "microsoft/BuildingFootprints"}}}, {"type": "Feature", "geometry": {"type": "Polygon", "coordinates": [[[-95.857901, 36.0538646], [-95.8579975, 36.0538649], [-95.8579974, 36.0538952], [-95.8580993, 36.0538955], [-95.8581, 36.0537425], [-95.8579015, 36.0537419], [-95.857901, 36.0538646]]]}, "properties": {"osm_id": 1197835933, "building": "detached", "name": "", "height": null, "height_m": null, "levels": null, "tract_id": "40143007411", "tract_name": "74.11", "tags": {"building": "detached", "source": "microsoft/BuildingFootprints"}}}, {"type": "Feature", "geometry": {"type": "Polygon", "coordinates": [[[-95.8572331, 36.0543381], [-95.8570387, 36.0543357], [-95.8570364, 36.0544571], [-95.8570605, 36.0544574], [-95.8570599, 36.0544899], [-95.8572703, 36.0544925], [-95.8572716, 36.0544253], [-95.8572314, 36.0544248], [-95.8572331, 36.0543381]]]}, "properties": {"osm_id": 1197835934, "building": "detached", "name": "", "height": null, "height_m": null, "levels": null, "tract_id": "40143007411", "tract_name": "74.11", "tags": {"building": "detached", "source": "microsoft/BuildingFootprints"}}}, {"type": "Feature", "geometry": {"type": "Polygon", "coordinates": [[[-95.8582215, 36.0537582], [-95.8582217, 36.0537334], [-95.8581547, 36.053733], [-95.8581533, 36.0538792], [-95.8582284, 36.0538796], [-95.8582286, 36.0538579], [-95.8583332, 36.0538586], [-95.8583341, 36.0537589], [-95.8582215, 36.0537582]]]}, "properties": {"osm_id": 1197835935, "building": "detached", "name": "", "height": null, "height_m": null, "levels": null, "tract_id": "40143007411", "tract_name": "74.11", "tags": {"building": "detached", "source": "microsoft/BuildingFootprints"}}}, {"type": "Feature", "geometry": {"type": "Polygon", "coordinates": [[[-95.858211, 36.0552666], [-95.8582095, 36.0551994], [-95.858172, 36.0551999], [-95.8581707, 36.0551436], [-95.8580636, 36.0551451], [-95.8580641, 36.0551706], [-95.8580518, 36.0551708], [-95.858054, 36.0552689], [-95.858211, 36.0552666]]]}, "properties": {"osm_id": 1197835936, "building": "detached", "name": "", "height": null, "height_m": null, "levels": null, "tract_id": "40143007411", "tract_name": "74.11", "tags": {"building": "detached", "source": "microsoft/BuildingFootprints"}}}, {"type": "Feature", "geometry": {"type": "Polygon", "coordinates": [[[-95.8658367, 36.0594949], [-95.8658359, 36.0593729], [-95.8654044, 36.0593764], [-95.8654055, 36.0594986], [-95.8658161, 36.059495], [-95.8658367, 36.0594949]]]}, "properties": {"osm_id": 1255852447, "building": "roof", "name": "", "height": null, "height_m": null, "levels": null, "tract_id": "40143007411", "tract_name": "74.11", "tags": {"building": "roof", "layer": "1"}}}, {"type": "Feature", "geometry": {"type": "Polygon", "coordinates": [[[-95.8654141, 36.0598075], [-95.8654145, 36.0598654], [-95.8659767, 36.0598631], [-95.8659735, 36.0593723], [-95.8658498, 36.0593728], [-95.8658359, 36.0593729], [-95.8658367, 36.0594949], [-95.8658161, 36.059495], [-95.8658171, 36.0596691], [-95.8656734, 36.0596697], [-95.8656743, 36.0598065], [-95.8654141, 36.0598075]]]}, "properties": {"osm_id": 1255852448, "building": "roof", "name": "", "height": null, "height_m": null, "levels": null, "tract_id": "40143007411", "tract_name": "74.11", "tags": {"building": "roof", "layer": "1"}}}, {"type": "Feature", "geometry": {"type": "Polygon", "coordinates": [[[-95.8531371, 36.0470272], [-95.853139, 36.0467014], [-95.8530876, 36.0467012], [-95.8530875, 36.0467228], [-95.8528974, 36.0467221], [-95.8528972, 36.046753], [-95.8528643, 36.0467529], [-95.8528626, 36.0470561], [-95.8529033, 36.0470562], [-95.8529032, 36.0470742], [-95.8530183, 36.0470747], [-95.8530186, 36.0470268], [-95.8531371, 36.0470272]]]}, "properties": {"osm_id": 1296633745, "building": "commercial", "name": "DaVita Dialysis", "height": null, "height_m": null, "levels": null, "tract_id": "40143007411", "tract_name": "74.11", "tags": {"addr:city": "Tulsa", "addr:country": "US", "addr:housenumber": "10921", "addr:postcode": "74133", "addr:state": "OK", "addr:street": "East 81st Street South", "amenity": "clinic", "building": "commercial", "healthcare": "dialysis", "healthcare:speciality": "nephrology", "name": "DaVita Dialysis", "operator": "DaVita Dialysis", "operator:wikidata": "Q5207184"}}}, {"type": "Feature", "geometry": {"type": "Polygon", "coordinates": [[[-95.8561887, 36.0479968], [-95.8559027, 36.047996], [-95.855904, 36.0477071], [-95.85619, 36.047708], [-95.8561887, 36.0479968]]]}, "properties": {"osm_id": 1296635557, "building": "commercial", "name": "", "height": null, "height_m": null, "levels": null, "tract_id": "40143007411", "tract_name": "74.11", "tags": {"building": "commercial", "shop": "yes"}}}, {"type": "Feature", "geometry": {"type": "Polygon", "coordinates": [[[-95.8638822, 36.0471792], [-95.8635329, 36.0471765], [-95.8635349, 36.0470025], [-95.8638843, 36.0470052], [-95.8638822, 36.0471792]]]}, "properties": {"osm_id": 1317383248, "building": "retail", "name": "", "height": null, "height_m": null, "levels": null, "tract_id": "40143007411", "tract_name": "74.11", "tags": {"addr:city": "Tulsa", "addr:country": "US", "addr:state": "OK", "addr:street": "East 81st Street", "building": "retail"}}}, {"type": "Feature", "geometry": {"type": "Polygon", "coordinates": [[[-95.8633263, 36.0471776], [-95.8629099, 36.0471748], [-95.8629117, 36.0470008], [-95.8633281, 36.0470035], [-95.8633263, 36.0471776]]]}, "properties": {"osm_id": 1317383249, "building": "retail", "name": "", "height": null, "height_m": null, "levels": null, "tract_id": "40143007411", "tract_name": "74.11", "tags": {"addr:city": "Tulsa", "addr:country": "US", "addr:state": "OK", "addr:street": "East 81st Street", "building": "retail"}}}, {"type": "Feature", "geometry": {"type": "Polygon", "coordinates": [[[-95.8608254, 36.0601657], [-95.8608248, 36.0601102], [-95.8608638, 36.0601099], [-95.8608644, 36.0601654], [-95.8608254, 36.0601657]]]}, "properties": {"osm_id": 1368013775, "building": "service", "name": "", "height": null, "height_m": null, "levels": null, "tract_id": "40143007411", "tract_name": "74.11", "tags": {"addr:postcode": "74429", "building": "service"}}}]}