{"type": "FeatureCollection", "features": [{"type": "Feature", "geometry": {"type": "Polygon", "coordinates": [[[-97.5401654, 35.3999578], [-97.5400927, 35.3999498], [-97.5400824, 35.4000118], [-97.5401551, 35.4000198], [-97.5401654, 35.3999578]]]}, "properties": {"osm_id": 255085915, "building": "roof", "name": "", "height": null, "height_m": null, "levels": null, "tract_id": "40109107220", "tract_name": "1072.20", "tags": {"building": "roof", "source": "Bing"}}}, {"type": "Feature", "geometry": {"type": "Polygon", "coordinates": [[[-97.5408349, 35.3992326], [-97.5405775, 35.3992326], [-97.5405714, 35.3995512], [-97.5402603, 35.3995928], [-97.5397165, 35.3995299], [-97.5397111, 35.3991189], [-97.5394482, 35.3991211], [-97.5394456, 35.3996349], [-97.5394234, 35.3996343], [-97.5393973, 35.3997814], [-97.5396863, 35.3998136], [-97.5397031, 35.3998382], [-97.539754, 35.399836], [-97.5397694, 35.3997458], [-97.5402556, 35.3998098], [-97.5408349, 35.3997376], [-97.5408349, 35.3992326]]]}, "properties": {"osm_id": 255085924, "building": "yes", "name": "", "height": null, "height_m": null, "levels": null, "tract_id": "40109107220", "tract_name": "1072.20", "tags": {"building": "yes", "source": "Bing"}}}, {"type": "Feature", "geometry": {"type": "Polygon", "coordinates": [[[-97.5361711, 35.4060222], [-97.5361719, 35.4058121], [-97.5360101, 35.4058117], [-97.5360093, 35.4060218], [-97.5361711, 35.4060222]]]}, "properties": {"osm_id": 262133180, "building": "retail", "name": "Whataburger", "height": null, "height_m": null, "levels": null, "tract_id": "40109107220", "tract_name": "1072.20", "tags": {"addr:city": "Oklahoma City", "addr:housenumber": "1124", "addr:postcode": "73109", "addr:state": "OK", "addr:street": "Southwest 59th Street", "amenity": "fast_food", "branch": "59th & McKinley", "brand": "Whataburger", "brand:wikidata": "Q376627", "building": "retail", "cuisine": "burger", "drive_through": "yes", "name": "Whataburger", "phone": "+1 405-632-4484", "takeaway": "yes", "website": "https://locations.whataburger.com/ok/oklahoma-city/1124-sw-59th-st.html"}}}, {"type": "Feature", "geometry": {"type": "Polygon", "coordinates": [[[-97.5444413, 35.4058631], [-97.5442731, 35.4058638], [-97.5442723, 35.405848], [-97.5442406, 35.4058473], [-97.544241, 35.4058631], [-97.5441709, 35.4058622], [-97.5441713, 35.405848], [-97.5441551, 35.4058473], [-97.5441547, 35.4057363], [-97.5444584, 35.4057334], [-97.5444619, 35.405847], [-97.5444409, 35.405847], [-97.5444413, 35.4058631]]]}, "properties": {"osm_id": 360641609, "building": "yes", "name": "7-Eleven", "height": null, "height_m": null, "levels": null, "tract_id": "40109107220", "tract_name": "1072.20", "tags": {"addr:city": "Oklahoms City", "addr:housenumber": "1520", "addr:postcode": "73119", "addr:state": "OK", "addr:street": "Southwest 59th Street", "brand": "7-Eleven", "brand:wikidata": "Q259340", "building": "yes", "name": "7-Eleven", "shop": "convenience"}}}, {"type": "Feature", "geometry": {"type": "Polygon", "coordinates": [[[-97.5456879, 35.4058326], [-97.5450409, 35.4058316], [-97.5450172, 35.4057799], [-97.5451247, 35.4057472], [-97.5451259, 35.4051897], [-97.5456893, 35.4051906], [-97.5456879, 35.4058326]]]}, "properties": {"osm_id": 497265782, "building": "yes", "name": "Walmart Neighborhood Market", "height": null, "height_m": null, "levels": null, "tract_id": "40109107220", "tract_name": "1072.20", "tags": {"addr:city": "Oklahoma City", "addr:country": "US", "addr:housenumber": "1500", "addr:postcode": "73119", "addr:state": "OK", "addr:street": "Southwest 59th Street", "brand": "Walmart", "brand:wikidata": "Q483551", "building": "yes", "name": "Walmart Neighborhood Market", "opening_hours": "24/7", "operator": "Walmart", "payment:app:walmart": "yes", "payment:apple_pay": "no", "payment:google_pay": "no", "payment:samsung_pay": "no", "phone": "+1 405-684-9761", "ref": "2394", "ref:walmart": "2394", "sensory_friendly:accommodation": "dimmed_light;static_screens;no_pa", "sensory_friendly:conditional": "yes @ 08:00-10:00", "shop": "supermarket", "website": "https://www.walmart.com/store/2394-oklahoma-city-ok"}}}, {"type": "Feature", "geometry": {"type": "Polygon", "coordinates": [[[-97.5435692, 35.4059244], [-97.5435657, 35.4051477], [-97.543839, 35.4051468], [-97.5438426, 35.4059236], [-97.5435692, 35.4059244]]]}, "properties": {"osm_id": 497269066, "building": "yes", "name": "", "height": null, "height_m": null, "levels": null, "tract_id": "40109107220", "tract_name": "1072.20", "tags": {"building": "yes"}}}, {"type": "Feature", "geometry": {"type": "Polygon", "coordinates": [[[-97.5473592, 35.4044441], [-97.5473592, 35.4041127], [-97.5475042, 35.4041127], [-97.5475042, 35.4039667], [-97.5471687, 35.4039644], [-97.5471687, 35.4040803], [-97.5470806, 35.4040803], [-97.5470806, 35.404458], [-97.5473592, 35.4044441]]]}, "properties": {"osm_id": 500814980, "building": "yes", "name": "", "height": null, "height_m": null, "levels": null, "tract_id": "40109107220", "tract_name": "1072.20", "tags": {"building": "yes"}}}, {"type": "Feature", "geometry": {"type": "Polygon", "coordinates": [[[-97.5322054, 35.4056871], [-97.5322037, 35.4053795], [-97.5321337, 35.4053797], [-97.5321336, 35.4053618], [-97.5320666, 35.4053621], [-97.5320667, 35.4053791], [-97.5319972, 35.4053794], [-97.5319981, 35.405533], [-97.5317689, 35.4055339], [-97.5317681, 35.4054021], [-97.5317235, 35.4054023], [-97.5317234, 35.4053768], [-97.5316767, 35.405377], [-97.5316769, 35.4054028], [-97.531632, 35.405403], [-97.5316324, 35.4054712], [-97.5315803, 35.4054714], [-97.5315805, 35.4055158], [-97.5313662, 35.4055165], [-97.5313668, 35.4056378], [-97.5319988, 35.4056355], [-97.5319991, 35.4056878], [-97.5322054, 35.4056871]]]}, "properties": {"osm_id": 501776278, "building": "yes", "name": "", "height": null, "height_m": null, "levels": null, "tract_id": "40109107220", "tract_name": "1072.20", "tags": {"building": "yes"}}}, {"type": "Feature", "geometry": {"type": "Polygon", "coordinates": [[[-97.530857, 35.4040478], [-97.5308584, 35.4038871], [-97.5305244, 35.4038882], [-97.5305231, 35.40405], [-97.530857, 35.4040478]]]}, "properties": {"osm_id": 577422503, "building": "yes", "name": "", "height": null, "height_m": null, "levels": null, "tract_id": "40109107220", "tract_name": "1072.20", "tags": {"building": "yes"}}}, {"type": "Feature", "geometry": {"type": "Polygon", "coordinates": [[[-97.5443304, 35.406034], [-97.5442312, 35.4060335], [-97.5442315, 35.4059968], [-97.5443307, 35.4059974], [-97.5443304, 35.406034]]]}, "properties": {"osm_id": 578680066, "building": "roof", "name": "7-Eleven", "height": null, "height_m": null, "levels": null, "tract_id": "40109107220", "tract_name": "1072.20", "tags": {"amenity": "fuel", "brand": "7-Eleven", "brand:wikidata": "Q259340", "building": "roof", "name": "7-Eleven"}}}, {"type": "Feature", "geometry": {"type": "Polygon", "coordinates": [[[-97.5305385, 35.4010301], [-97.5305382, 35.4012148], [-97.5306267, 35.4012148], [-97.5306267, 35.4012268], [-97.5307367, 35.4012269], [-97.5307367, 35.4012099], [-97.5307953, 35.40121], [-97.5307953, 35.4011893], [-97.530894, 35.4011893], [-97.5308941, 35.4011524], [-97.5309974, 35.4011525], [-97.5309976, 35.4009797], [-97.5309248, 35.4009796], [-97.5309247, 35.4010304], [-97.5305385, 35.4010301]]]}, "properties": {"osm_id": 1022365340, "building": "yes", "name": "", "height": null, "height_m": null, "levels": null, "tract_id": "40109107220", "tract_name": "1072.20", "tags": {"building": "yes"}}}, {"type": "Feature", "geometry": {"type": "Polygon", "coordinates": [[[-97.5303221, 35.3996816], [-97.5303272, 35.3998214], [-97.5306568, 35.3998134], [-97.5306517, 35.3996736], [-97.5303221, 35.3996816]]]}, "properties": {"osm_id": 1254220079, "building": "yes", "name": "", "height": null, "height_m": null, "levels": null, "tract_id": "40109107220", "tract_name": "1072.20", "tags": {"building": "yes", "source": "microsoft/BuildingFootprints"}}}, {"type": "Feature", "geometry": {"type": "Polygon", "coordinates": [[[-97.5303367, 35.4007217], [-97.5304186, 35.4007205], [-97.530418, 35.4006921], [-97.5304717, 35.4006913], [-97.5304723, 35.400723], [-97.5305969, 35.4007212], [-97.5305935, 35.4005639], [-97.5303334, 35.4005675], [-97.5303367, 35.4007217]]]}, "properties": {"osm_id": 1254220337, "building": "yes", "name": "", "height": null, "height_m": null, "levels": null, "tract_id": "40109107220", "tract_name": "1072.20", "tags": {"building": "yes", "source": "microsoft/BuildingFootprints"}}}, {"type": "Feature", "geometry": {"type": "Polygon", "coordinates": [[[-97.5305182, 35.4009201], [-97.5305143, 35.4008338], [-97.5304098, 35.400837], [-97.5304137, 35.4009233], [-97.5305182, 35.4009201]]]}, "properties": {"osm_id": 1254220338, "building": "yes", "name": "", "height": null, "height_m": null, "levels": null, "tract_id": "40109107220", "tract_name": "1072.20", "tags": {"building": "yes", "source": "microsoft/BuildingFootprints"}}}, {"type": "Feature", "geometry": {"type": "Polygon", "coordinates": [[[-97.5303851, 35.4018624], [-97.5305755, 35.4018608], [-97.5305753, 35.4018411], [-97.5306423, 35.4018405], [-97.530643, 35.4018941], [-97.5308146, 35.4018927], [-97.5308114, 35.401638], [-97.5303823, 35.4016416], [-97.5303851, 35.4018624]]]}, "properties": {"osm_id": 1254220340, "building": "yes", "name": "", "height": null, "height_m": null, "levels": null, "tract_id": "40109107220", "tract_name": "1072.20", "tags": {"building": "yes", "source": "microsoft/BuildingFootprints"}}}, {"type": "Feature", "geometry": {"type": "Polygon", "coordinates": [[[-97.5309298, 35.4015485], [-97.5309287, 35.4018928], [-97.5309984, 35.401893], [-97.5309982, 35.4019651], [-97.5309325, 35.401965], [-97.5309314, 35.4023126], [-97.5310145, 35.4023128], [-97.5310148, 35.4022395], [-97.5313218, 35.4022402], [-97.5313241, 35.4015494], [-97.5309298, 35.4015485]]]}, "properties": {"osm_id": 1254220341, "building": "yes", "name": "", "height": null, "height_m": null, "levels": null, "tract_id": "40109107220", "tract_name": "1072.20", "tags": {"building": "yes", "source": "microsoft/BuildingFootprints"}}}, {"type": "Feature", "geometry": {"type": "Polygon", "coordinates": [[[-97.5305332, 35.402714], [-97.5305301, 35.4029348], [-97.53075, 35.4029369], [-97.5307531, 35.4027161], [-97.5305332, 35.402714]]]}, "properties": {"osm_id": 1254220344, "building": "yes", "name": "", "height": null, "height_m": null, "levels": null, "tract_id": "40109107220", "tract_name": "1072.20", "tags": {"building": "yes", "source": "microsoft/BuildingFootprints"}}}, {"type": "Feature", "geometry": {"type": "Polygon", "coordinates": [[[-97.5309663, 35.4027559], [-97.5309685, 35.4028586], [-97.5313761, 35.4028527], [-97.5313738, 35.40275], [-97.5309663, 35.4027559]]]}, "properties": {"osm_id": 1254220345, "building": "yes", "name": "", "height": null, "height_m": null, "levels": null, "tract_id": "40109107220", "tract_name": "1072.20", "tags": {"building": "yes", "source": "microsoft/BuildingFootprints"}}}, {"type": "Feature", "geometry": {"type": "Polygon", "coordinates": [[[-97.5305395, 35.4031627], [-97.5308894, 35.4031645], [-97.5308907, 35.402994], [-97.5305407, 35.4029922], [-97.5305395, 35.4031627]]]}, "properties": {"osm_id": 1254220346, "building": "yes", "name": "", "height": null, "height_m": null, "levels": null, "tract_id": "40109107220", "tract_name": "1072.20", "tags": {"building": "yes", "source": "microsoft/BuildingFootprints"}}}, {"type": "Feature", "geometry": {"type": "Polygon", "coordinates": [[[-97.53135, 35.4028597], [-97.5313448, 35.4031952], [-97.5314682, 35.4031965], [-97.5314734, 35.402861], [-97.53135, 35.4028597]]]}, "properties": {"osm_id": 1254220347, "building": "yes", "name": "", "height": null, "height_m": null, "levels": null, "tract_id": "40109107220", "tract_name": "1072.20", "tags": {"building": "yes", "source": "microsoft/BuildingFootprints"}}}, {"type": "Feature", "geometry": {"type": "Polygon", "coordinates": [[[-97.5307057, 35.4038344], [-97.5307061, 35.4037563], [-97.5308153, 35.4037566], [-97.5308154, 35.4037218], [-97.5308668, 35.403722], [-97.5308668, 35.4037121], [-97.5309697, 35.4037124], [-97.5309702, 35.4036128], [-97.5306395, 35.4036119], [-97.5306395, 35.4036192], [-97.5306018, 35.4036191], [-97.5305781, 35.4036007], [-97.5305267, 35.4036447], [-97.530536, 35.4036519], [-97.5305151, 35.4036518], [-97.5305149, 35.4037059], [-97.5305481, 35.403706], [-97.5305479, 35.4037579], [-97.5305875, 35.403758], [-97.5305872, 35.4038341], [-97.5307057, 35.4038344]]]}, "properties": {"osm_id": 1254220348, "building": "yes", "name": "", "height": null, "height_m": null, "levels": null, "tract_id": "40109107220", "tract_name": "1072.20", "tags": {"building": "yes", "source": "microsoft/BuildingFootprints"}}}, {"type": "Feature", "geometry": {"type": "Polygon", "coordinates": [[[-97.5307176, 35.4025404], [-97.5305673, 35.4025404], [-97.5305673, 35.4027088], [-97.5307336, 35.4027088], [-97.5307336, 35.4026147], [-97.5307176, 35.4026147], [-97.5307176, 35.4025404]]]}, "properties": {"osm_id": 1254220352, "building": "yes", "name": "", "height": null, "height_m": null, "levels": null, "tract_id": "40109107220", "tract_name": "1072.20", "tags": {"building": "yes", "source": "microsoft/BuildingFootprints"}}}, {"type": "Feature", "geometry": {"type": "Polygon", "coordinates": [[[-97.5319306, 35.4044258], [-97.5317349, 35.404428], [-97.5317383, 35.4046356], [-97.5319341, 35.4046335], [-97.5319306, 35.4044258]]]}, "properties": {"osm_id": 1254220360, "building": "yes", "name": "", "height": null, "height_m": null, "levels": null, "tract_id": "40109107220", "tract_name": "1072.20", "tags": {"building": "yes", "source": "microsoft/BuildingFootprints"}}}, {"type": "Feature", "geometry": {"type": "Polygon", "coordinates": [[[-97.5319925, 35.4047233], [-97.5322473, 35.4047233], [-97.5322473, 35.4045637], [-97.5319925, 35.4045637], [-97.5319925, 35.4047233]]]}, "properties": {"osm_id": 1254220361, "building": "yes", "name": "", "height": null, "height_m": null, "levels": null, "tract_id": "40109107220", "tract_name": "1072.20", "tags": {"building": "yes", "source": "microsoft/BuildingFootprints"}}}, {"type": "Feature", "geometry": {"type": "Polygon", "coordinates": [[[-97.5322505, 35.4049776], [-97.5322492, 35.4048202], [-97.5319971, 35.4048215], [-97.5319983, 35.4049789], [-97.5322505, 35.4049776]]]}, "properties": {"osm_id": 1254220362, "building": "yes", "name": "", "height": null, "height_m": null, "levels": null, "tract_id": "40109107220", "tract_name": "1072.20", "tags": {"building": "yes", "source": "microsoft/BuildingFootprints"}}}, {"type": "Feature", "geometry": {"type": "Polygon", "coordinates": [[[-97.5319336, 35.4048555], [-97.5316868, 35.4048539], [-97.5316855, 35.4049785], [-97.5319323, 35.4049801], [-97.5319336, 35.4048555]]]}, "properties": {"osm_id": 1254220363, "building": "yes", "name": "", "height": null, "height_m": null, "levels": null, "tract_id": "40109107220", "tract_name": "1072.20", "tags": {"building": "yes", "source": "microsoft/BuildingFootprints"}}}, {"type": "Feature", "geometry": {"type": "Polygon", "coordinates": [[[-97.5317934, 35.4047517], [-97.5319596, 35.404749], [-97.5319578, 35.4046747], [-97.5317916, 35.4046774], [-97.5317934, 35.4047517]]]}, "properties": {"osm_id": 1254220364, "building": "yes", "name": "", "height": null, "height_m": null, "levels": null, "tract_id": "40109107220", "tract_name": "1072.20", "tags": {"building": "yes", "source": "microsoft/BuildingFootprints"}}}, {"type": "Feature", "geometry": {"type": "Polygon", "coordinates": [[[-97.5314264, 35.404724], [-97.5316785, 35.4047255], [-97.53168, 35.404567], [-97.5314279, 35.4045655], [-97.5314264, 35.404724]]]}, "properties": {"osm_id": 1254220365, "building": "yes", "name": "", "height": null, "height_m": null, "levels": null, "tract_id": "40109107220", "tract_name": "1072.20", "tags": {"building": "yes", "source": "microsoft/BuildingFootprints"}}}, {"type": "Feature", "geometry": {"type": "Polygon", "coordinates": [[[-97.5316265, 35.4051128], [-97.5316273, 35.4049082], [-97.5314395, 35.4049077], [-97.531439, 35.4050314], [-97.5314337, 35.4050314], [-97.5314333, 35.4051122], [-97.5316265, 35.4051128]]]}, "properties": {"osm_id": 1254220366, "building": "yes", "name": "", "height": null, "height_m": null, "levels": null, "tract_id": "40109107220", "tract_name": "1072.20", "tags": {"building": "yes", "source": "microsoft/BuildingFootprints"}}}, {"type": "Feature", "geometry": {"type": "Polygon", "coordinates": [[[-97.5311763, 35.4048062], [-97.5311772, 35.4050118], [-97.5313381, 35.4050113], [-97.5313373, 35.4048057], [-97.5311763, 35.4048062]]]}, "properties": {"osm_id": 1254220367, "building": "yes", "name": "", "height": null, "height_m": null, "levels": null, "tract_id": "40109107220", "tract_name": "1072.20", "tags": {"building": "yes", "source": "microsoft/BuildingFootprints"}}}, {"type": "Feature", "geometry": {"type": "Polygon", "coordinates": [[[-97.5311544, 35.4047419], [-97.5313502, 35.4047424], [-97.5313507, 35.4045872], [-97.5313427, 35.4045871], [-97.5313428, 35.4045369], [-97.5311551, 35.4045364], [-97.5311544, 35.4047419]]]}, "properties": {"osm_id": 1254220368, "building": "yes", "name": "", "height": null, "height_m": null, "levels": null, "tract_id": "40109107220", "tract_name": "1072.20", "tags": {"building": "yes", "source": "microsoft/BuildingFootprints"}}}, {"type": "Feature", "geometry": {"type": "Polygon", "coordinates": [[[-97.5310674, 35.4046189], [-97.5308222, 35.4046164], [-97.5308202, 35.404752], [-97.5310653, 35.4047544], [-97.5310674, 35.4046189]]]}, "properties": {"osm_id": 1254220369, "building": "yes", "name": "", "height": null, "height_m": null, "levels": null, "tract_id": "40109107220", "tract_name": "1072.20", "tags": {"building": "yes", "source": "microsoft/BuildingFootprints"}}}, {"type": "Feature", "geometry": {"type": "Polygon", "coordinates": [[[-97.5311045, 35.4048335], [-97.5308539, 35.4048317], [-97.5308522, 35.4049902], [-97.5311028, 35.404992], [-97.5311045, 35.4048335]]]}, "properties": {"osm_id": 1254220370, "building": "yes", "name": "", "height": null, "height_m": null, "levels": null, "tract_id": "40109107220", "tract_name": "1072.20", "tags": {"building": "yes", "source": "microsoft/BuildingFootprints"}}}, {"type": "Feature", "geometry": {"type": "Polygon", "coordinates": [[[-97.530823, 35.4044259], [-97.530823, 35.4045593], [-97.5310698, 35.4045593], [-97.5310698, 35.4044259], [-97.530823, 35.4044259]]]}, "properties": {"osm_id": 1254220371, "building": "yes", "name": "", "height": null, "height_m": null, "levels": null, "tract_id": "40109107220", "tract_name": "1072.20", "tags": {"building": "yes", "source": "microsoft/BuildingFootprints"}}}, {"type": "Feature", "geometry": {"type": "Polygon", "coordinates": [[[-97.5343047, 35.4051092], [-97.5344569, 35.4051109], [-97.534458, 35.4050468], [-97.534487, 35.4050471], [-97.5344882, 35.4049761], [-97.5343125, 35.4049741], [-97.5343116, 35.405028], [-97.5343185, 35.4050281], [-97.5343181, 35.4050536], [-97.5343056, 35.4050534], [-97.5343047, 35.4051092]]]}, "properties": {"osm_id": 1254220372, "building": "yes", "name": "", "height": null, "height_m": null, "levels": null, "tract_id": "40109107220", "tract_name": "1072.20", "tags": {"building": "yes", "source": "microsoft/BuildingFootprints"}}}, {"type": "Feature", "geometry": {"type": "Polygon", "coordinates": [[[-97.5304219, 35.4059916], [-97.5322407, 35.405982], [-97.5322728, 35.4059641], [-97.532272, 35.4058308], [-97.5321083, 35.4058317], [-97.5321077, 35.4057606], [-97.5317981, 35.4057623], [-97.5317985, 35.4058147], [-97.5314634, 35.4058166], [-97.5314637, 35.4058454], [-97.5311288, 35.4058473], [-97.5311289, 35.4058623], [-97.5309309, 35.4058634], [-97.5309307, 35.405841], [-97.5309615, 35.4058408], [-97.5309609, 35.4057699], [-97.5304201, 35.4057728], [-97.5304219, 35.4059916]]]}, "properties": {"osm_id": 1254220374, "building": "yes", "name": "", "height": null, "height_m": null, "levels": null, "tract_id": "40109107220", "tract_name": "1072.20", "tags": {"building": "yes", "source": "microsoft/BuildingFootprints"}}}, {"type": "Feature", "geometry": {"type": "Polygon", "coordinates": [[[-97.5326442, 35.4044962], [-97.5326531, 35.4050516], [-97.5325807, 35.4050523], [-97.5325818, 35.4051201], [-97.5327867, 35.4051179], [-97.5327757, 35.4044271], [-97.5325746, 35.4044292], [-97.5325757, 35.404497], [-97.5326442, 35.4044962]]]}, "properties": {"osm_id": 1254220421, "building": "yes", "name": "", "height": null, "height_m": null, "levels": null, "tract_id": "40109107220", "tract_name": "1072.20", "tags": {"building": "yes", "source": "microsoft/BuildingFootprints"}}}, {"type": "Feature", "geometry": {"type": "Polygon", "coordinates": [[[-97.5329344, 35.4053914], [-97.5327762, 35.4053927], [-97.5327845, 35.4060529], [-97.5329428, 35.4060515], [-97.5329344, 35.4053914]]]}, "properties": {"osm_id": 1254220422, "building": "yes", "name": "", "height": null, "height_m": null, "levels": null, "tract_id": "40109107220", "tract_name": "1072.20", "tags": {"building": "yes", "source": "microsoft/BuildingFootprints"}}}, {"type": "Feature", "geometry": {"type": "Polygon", "coordinates": [[[-97.5337271, 35.4053922], [-97.5335421, 35.4053941], [-97.533547, 35.4057002], [-97.533732, 35.4056982], [-97.5337271, 35.4053922]]]}, "properties": {"osm_id": 1254220423, "building": "yes", "name": "", "height": null, "height_m": null, "levels": null, "tract_id": "40109107220", "tract_name": "1072.20", "tags": {"building": "yes", "source": "microsoft/BuildingFootprints"}}}, {"type": "Feature", "geometry": {"type": "Polygon", "coordinates": [[[-97.5342589, 35.4055965], [-97.5343946, 35.4055959], [-97.5343944, 35.4055494], [-97.5344437, 35.4055492], [-97.5344433, 35.405485], [-97.5344893, 35.4054848], [-97.5344888, 35.4053915], [-97.5342718, 35.4053923], [-97.5342725, 35.4055068], [-97.5342583, 35.4055068], [-97.5342589, 35.4055965]]]}, "properties": {"osm_id": 1254220424, "building": "yes", "name": "", "height": null, "height_m": null, "levels": null, "tract_id": "40109107220", "tract_name": "1072.20", "tags": {"building": "yes", "source": "microsoft/BuildingFootprints"}}}, {"type": "Feature", "geometry": {"type": "Polygon", "coordinates": [[[-97.5342342, 35.4058712], [-97.5344381, 35.4058705], [-97.534437, 35.4056563], [-97.5342358, 35.405657], [-97.534236, 35.405692], [-97.5341636, 35.4056922], [-97.5341642, 35.405819], [-97.534234, 35.4058188], [-97.5342342, 35.4058712]]]}, "properties": {"osm_id": 1254220425, "building": "yes", "name": "", "height": null, "height_m": null, "levels": null, "tract_id": "40109107220", "tract_name": "1072.20", "tags": {"building": "yes", "source": "microsoft/BuildingFootprints"}}}, {"type": "Feature", "geometry": {"type": "Polygon", "coordinates": [[[-97.5341196, 35.4059853], [-97.5341168, 35.4058226], [-97.5337815, 35.4058264], [-97.5337844, 35.4059891], [-97.5341196, 35.4059853]]]}, "properties": {"osm_id": 1254220426, "building": "yes", "name": "", "height": null, "height_m": null, "levels": null, "tract_id": "40109107220", "tract_name": "1072.20", "tags": {"building": "yes", "source": "microsoft/BuildingFootprints"}}}, {"type": "Feature", "geometry": {"type": "Polygon", "coordinates": [[[-97.5341866, 35.4059754], [-97.5343287, 35.4059732], [-97.5343305, 35.4060519], [-97.5343975, 35.4060509], [-97.5343939, 35.4058935], [-97.5341848, 35.4058967], [-97.5341866, 35.4059754]]]}, "properties": {"osm_id": 1254220427, "building": "yes", "name": "", "height": null, "height_m": null, "levels": null, "tract_id": "40109107220", "tract_name": "1072.20", "tags": {"building": "yes", "source": "microsoft/BuildingFootprints"}}}, {"type": "Feature", "geometry": {"type": "Polygon", "coordinates": [[[-97.534138, 35.405601], [-97.5341407, 35.4053946], [-97.5340388, 35.4053937], [-97.5340373, 35.4055052], [-97.5339515, 35.4055044], [-97.5339529, 35.4053951], [-97.533851, 35.4053943], [-97.5338483, 35.4055985], [-97.534138, 35.405601]]]}, "properties": {"osm_id": 1254220428, "building": "yes", "name": "", "height": null, "height_m": null, "levels": null, "tract_id": "40109107220", "tract_name": "1072.20", "tags": {"building": "yes", "source": "microsoft/BuildingFootprints"}}}, {"type": "Feature", "geometry": {"type": "Polygon", "coordinates": [[[-97.5337507, 35.4059839], [-97.5337518, 35.4058375], [-97.5333549, 35.4058354], [-97.5333538, 35.4059819], [-97.5337507, 35.4059839]]]}, "properties": {"osm_id": 1254220429, "building": "yes", "name": "", "height": null, "height_m": null, "levels": null, "tract_id": "40109107220", "tract_name": "1072.20", "tags": {"building": "yes", "source": "microsoft/BuildingFootprints"}}}, {"type": "Feature", "geometry": {"type": "Polygon", "coordinates": [[[-97.5332391, 35.4059158], [-97.533164, 35.4059144], [-97.5331636, 35.4059285], [-97.5330832, 35.405927], [-97.5330801, 35.4060375], [-97.5332356, 35.4060404], [-97.5332391, 35.4059158]]]}, "properties": {"osm_id": 1254220430, "building": "yes", "name": "", "height": null, "height_m": null, "levels": null, "tract_id": "40109107220", "tract_name": "1072.20", "tags": {"building": "yes", "source": "microsoft/BuildingFootprints"}}}, {"type": "Feature", "geometry": {"type": "Polygon", "coordinates": [[[-97.5310202, 35.4054284], [-97.5310225, 35.4056476], [-97.5311259, 35.4056469], [-97.5311236, 35.4054277], [-97.5310202, 35.4054284]]]}, "properties": {"osm_id": 1254220432, "building": "yes", "name": "", "height": null, "height_m": null, "levels": null, "tract_id": "40109107220", "tract_name": "1072.20", "tags": {"building": "yes", "source": "microsoft/BuildingFootprints"}}}, {"type": "Feature", "geometry": {"type": "Polygon", "coordinates": [[[-97.5475954, 35.4049256], [-97.5475954, 35.4053273], [-97.5474525, 35.4053273], [-97.5474525, 35.4049256], [-97.5475954, 35.4049256]]]}, "properties": {"osm_id": 1293518252, "building": "yes", "name": "McDonald's", "height": null, "height_m": null, "levels": null, "tract_id": "40109107220", "tract_name": "1072.20", "tags": {"addr:country": "US", "addr:housenumber": "6012", "addr:postcode": "73159-3302", "addr:state": "OK", "addr:street": "South Pennsylvania Avenue", "amenity": "fast_food", "brand": "McDonald's", "brand:wikidata": "Q38076", "building": "yes", "check_date": "2024-02-01", "check_date:opening_hours": "2024-02-01", "check_date:opening_hours:drive_through": "2024-02-01", "cuisine": "burger", "drive_through": "yes", "indoor_seating": "yes", "internet_access": "wlan", "name": "McDonald's", "opening_hours": "Mo-Su 07:00-21:00", "opening_hours:drive_through": "24/7", "phone": "+1 405-685-9600", "takeaway": "yes", "website": "https://www.mcdonalds.com/us/en-us/location/ok/oklahoma-city/6012-s-pennsylvania-ave/705.html"}}}, {"type": "Feature", "geometry": {"type": "Polygon", "coordinates": [[[-97.5307407, 35.4051195], [-97.5306116, 35.4051203], [-97.5306087, 35.404807], [-97.5304047, 35.4048082], [-97.5304035, 35.4046725], [-97.5304946, 35.404672], [-97.5304942, 35.4046308], [-97.5304404, 35.4046312], [-97.5304389, 35.4044628], [-97.5306384, 35.4044616], [-97.5306386, 35.4044798], [-97.5305954, 35.4044801], [-97.5305964, 35.4045871], [-97.5306385, 35.4045869], [-97.5306385, 35.4045826], [-97.5307191, 35.4045822], [-97.5307181, 35.4044613], [-97.5307911, 35.4044609], [-97.5307925, 35.4046203], [-97.5307218, 35.4046207], [-97.5307222, 35.4046714], [-97.5307367, 35.4046713], [-97.5307407, 35.4051195]]]}, "properties": {"osm_id": 1417928793, "building": "yes", "name": "", "height": null, "height_m": null, "levels": null, "tract_id": "40109107220", "tract_name": "1072.20", "tags": {"building": "yes"}}}]}