{"type": "FeatureCollection", "features": [{"type": "Feature", "geometry": {"type": "Polygon", "coordinates": [[[-97.9704791, 35.5109251], [-97.9704786, 35.5107647], [-97.9704512, 35.5107648], [-97.9704511, 35.5107467], [-97.9700917, 35.5107472], [-97.9700916, 35.5107052], [-97.9700225, 35.5107052], [-97.9700226, 35.5107276], [-97.9698498, 35.5107278], [-97.9698566, 35.5107473], [-97.969821, 35.5107474], [-97.9698215, 35.5108067], [-97.969853, 35.5108066], [-97.9698534, 35.5108496], [-97.9698166, 35.5108498], [-97.9698169, 35.5108962], [-97.9698526, 35.510896], [-97.9698528, 35.5109168], [-97.9700213, 35.510916], [-97.9700215, 35.5109547], [-97.9702257, 35.5109538], [-97.9702253, 35.5108926], [-97.970247, 35.5108925], [-97.9702471, 35.5109147], [-97.9702917, 35.5109146], [-97.9702917, 35.5109255], [-97.9704791, 35.5109251]]]}, "properties": {"osm_id": 1206798173, "building": "yes", "name": "Fairfield Inn & Suites", "height": null, "height_m": null, "levels": null, "tract_id": "40017300600", "tract_name": "3006", "tags": {"addr:city": "El Reno", "addr:housenumber": "1501", "addr:postcode": "73036", "addr:state": "OK", "addr:street": "Domino Drive", "branch": "Oklahoma City El Reno", "brand": "Fairfield Inn & Suites", "brand:wikidata": "Q5430314", "building": "yes", "name": "Fairfield Inn & Suites", "official_name": "Fairfield Inn & Suites by Marriott", "ref": "OKCEL", "tourism": "hotel", "website": "https://www.marriott.com/okcel"}}}, {"type": "Feature", "geometry": {"type": "Polygon", "coordinates": [[[-97.9697566, 35.5095407], [-97.9695313, 35.5095407], [-97.9695286, 35.5100713], [-97.9697513, 35.5100691], [-97.9697566, 35.5095407]]]}, "properties": {"osm_id": 1225851233, "building": "yes", "name": "Home2 Suites by Hilton El Reno", "height": null, "height_m": null, "levels": null, "tract_id": "40017300600", "tract_name": "3006", "tags": {"addr:city": "El Reno", "addr:housenumber": "1528", "addr:postcode": "73036", "addr:state": "OK", "addr:street": "Southwest 27th Street", "branch": "El Reno", "brand": "Home2 Suites", "brand:wikidata": "Q5887912", "building": "yes", "name": "Home2 Suites by Hilton El Reno", "official_name": "Home2 Suites by Hilton", "phone": "+1 405-295-2990", "ref": "OKCELHT", "tourism": "hotel", "website": "https://www.hilton.com/en/hotels/okcelht-home2-suites-el-reno/"}}}, {"type": "Feature", "geometry": {"type": "Polygon", "coordinates": [[[-97.9705404, 35.5103679], [-97.9698377, 35.5103592], [-97.9698404, 35.5102391], [-97.9705378, 35.5102391], [-97.9705404, 35.5103679]]]}, "properties": {"osm_id": 1225851607, "building": "yes", "name": "Hampton Inn", "height": null, "height_m": null, "levels": null, "tract_id": "40017300600", "tract_name": "3006", "tags": {"addr:city": "El Reno", "addr:housenumber": "1530", "addr:postcode": "73036", "addr:state": "OK", "addr:street": "Southwest 27th Street", "alt_name": "Hampton Inn", "branch": "El Reno", "brand": "Hampton", "brand:wikidata": "Q5646230", "building": "yes", "name": "Hampton Inn", "official_name": "Hampton by Hilton", "phone": "+1 405-702-9200", "ref": "OKCERHX", "tourism": "hotel", "website": "https://www.hilton.com/en/hotels/okcerhx-hampton-el-reno/"}}}, {"type": "Feature", "geometry": {"type": "Polygon", "coordinates": [[[-97.9713373, 35.5104565], [-97.9713338, 35.5101798], [-97.9717583, 35.5101763], [-97.9717617, 35.5104529], [-97.9713373, 35.5104565]]]}, "properties": {"osm_id": 1411207488, "building": "yes", "name": "Walgreens", "height": null, "height_m": null, "levels": null, "tract_id": "40017300600", "tract_name": "3006", "tags": {"addr:city": "El Reno", "addr:country": "US", "addr:housenumber": "1550", "addr:postcode": "73036", "addr:state": "OK", "addr:street": "Southwest 27th Street", "brand": "Walgreens", "brand:wikidata": "Q1591889", "building": "yes", "name": "Walgreens", "post_office": "post_partner", "post_office:brand": "FedEx OnSite", "post_office:website": "https://local.fedex.com/en-us/ok/el-reno/bpaur", "shop": "chemist"}}}, {"type": "Feature", "geometry": {"type": "Polygon", "coordinates": [[[-97.9724468, 35.5116883], [-97.9722564, 35.5116883], [-97.9722564, 35.511611], [-97.9724468, 35.511611], [-97.9724468, 35.5116883]]]}, "properties": {"osm_id": 1414338696, "building": "yes", "name": "Taco Bell", "height": null, "height_m": null, "levels": null, "tract_id": "40017300600", "tract_name": "3006", "tags": {"addr:city": "El Reno", "addr:housenumber": "2417", "addr:postcode": "73036", "addr:state": "OK", "addr:street": "South Country Club Road", "amenity": "fast_food", "brand": "Taco Bell", "brand:wikidata": "Q752941", "building": "yes", "cuisine": "tex-mex", "delivery": "yes", "drive_through": "yes", "name": "Taco Bell", "opening_hours": "Th-Tu 09:00-23:00; We 09:00-22:00", "opening_hours:drive_through": "Mo-Su 09:00-28:00", "phone": "+1-405-262-5111", "takeaway": "yes", "website": "https://locations.tacobell.com/ok/el-reno/2417-s--country-club-drive.html"}}}]}