{"type": "FeatureCollection", "features": [{"type": "Feature", "geometry": {"type": "Polygon", "coordinates": [[[-95.9754483, 36.109547], [-95.9754487, 36.1096602], [-95.9748672, 36.1096618], [-95.9748654, 36.1092273], [-95.9754469, 36.1092258], [-95.9754478, 36.109452], [-95.9754615, 36.109452], [-95.9754688, 36.1094524], [-95.975476, 36.1094535], [-95.975483, 36.1094553], [-95.9754897, 36.1094578], [-95.9754959, 36.109461], [-95.9755015, 36.1094648], [-95.9755066, 36.1094691], [-95.9755109, 36.1094739], [-95.9755144, 36.1094791], [-95.9755171, 36.1094846], [-95.975519, 36.1094904], [-95.9755199, 36.1094963], [-95.9755199, 36.1095022], [-95.975519, 36.1095081], [-95.9755171, 36.1095139], [-95.9755144, 36.1095194], [-95.9755109, 36.1095246], [-95.9755066, 36.1095294], [-95.9755015, 36.1095337], [-95.9754959, 36.1095375], [-95.9754897, 36.1095407], [-95.975483, 36.1095432], [-95.975476, 36.109545], [-95.9754688, 36.1095462], [-95.9754615, 36.1095465], [-95.9754483, 36.109547]]]}, "properties": {"osm_id": 108020180, "building": "yes", "name": "KJRH-HD", "height": null, "height_m": null, "levels": null, "tract_id": "40143004302", "tract_name": "43.02", "tags": {"addr:city": "Tulsa", "addr:housenumber": "3701", "addr:postcode": "74105", "addr:state": "OK", "addr:street": "South Peoria Avenue East", "amenity": "studio", "building": "yes", "building:use": "commercial", "check_date": "2024-08-12", "email": "news@kjrh.com", "name": "KJRH-HD", "operator": "Scripps Broadcasting Holdings LLC", "studio": "television", "website": "https://www.kjrh.com/", "wikidata": "Q6331601", "wikipedia": "en:KJRH-TV"}}}, {"type": "Feature", "geometry": {"type": "Polygon", "coordinates": [[[-95.9755117, 36.11241], [-95.9754437, 36.1124099], [-95.9754437, 36.112407], [-95.9753212, 36.1124067], [-95.9753212, 36.1124036], [-95.9752652, 36.1124035], [-95.9752656, 36.1122235], [-95.9753217, 36.1122236], [-95.9753217, 36.1122204], [-95.9754442, 36.1122206], [-95.9754442, 36.1122165], [-95.9755122, 36.1122166], [-95.9755117, 36.11241]]]}, "properties": {"osm_id": 180522284, "building": "yes", "name": "Starbucks", "height": null, "height_m": null, "levels": null, "tract_id": "40143004302", "tract_name": "43.02", "tags": {"addr:city": "Tulsa", "addr:housenumber": "3535", "addr:postcode": "74105", "addr:state": "OK", "addr:street": "South Peoria Avenue East", "air_conditioning": "yes", "amenity": "cafe", "branch": "East 35th & Peoria", "brand": "Starbucks", "brand:wikidata": "Q37158", "building": "yes", "cuisine": "coffee_shop", "indoor_seating": "yes", "name": "Starbucks", "official_name": "Starbucks Coffee", "outdoor_seating": "yes", "phone": "+1 918-749-0380", "ref": "17549", "smoking": "no", "takeaway": "yes", "website": "https://www.starbucks.com/store-locator/store/17549/e-35th-peoria-3535-s-peoria-tulsa-ok-74105-us"}}}, {"type": "Feature", "geometry": {"type": "Polygon", "coordinates": [[[-95.9750155, 36.1120196], [-95.9750142, 36.1117444], [-95.9752206, 36.1117426], [-95.9752207, 36.1120207], [-95.9750155, 36.1120196]]]}, "properties": {"osm_id": 180522298, "building": "retail", "name": "", "height": null, "height_m": 3.0, "levels": 1, "tract_id": "40143004302", "tract_name": "43.02", "tags": {"building": "retail", "building:levels": "1", "roof:levels": "0", "roof:shape": "flat"}}}, {"type": "Feature", "geometry": {"type": "Polygon", "coordinates": [[[-95.9755265, 36.114033], [-95.9755246, 36.1138757], [-95.9752715, 36.1138777], [-95.9752722, 36.113935], [-95.9751987, 36.1139356], [-95.9751999, 36.1140356], [-95.9755265, 36.114033]]]}, "properties": {"osm_id": 427032689, "building": "yes", "name": "", "height": null, "height_m": null, "levels": null, "tract_id": "40143004302", "tract_name": "43.02", "tags": {"building": "yes"}}}, {"type": "Feature", "geometry": {"type": "Polygon", "coordinates": [[[-95.9750302, 36.1140398], [-95.9751063, 36.114039], [-95.9755265, 36.114033], [-95.9755238, 36.1142044], [-95.9750267, 36.1142099], [-95.9750302, 36.1140398]]]}, "properties": {"osm_id": 427032690, "building": "yes", "name": "The Brook", "height": null, "height_m": null, "levels": null, "tract_id": "40143004302", "tract_name": "43.02", "tags": {"addr:city": "Tulsa", "addr:housenumber": "3401", "addr:postcode": "74105", "addr:street": "South Peoria Avenue East", "amenity": "restaurant", "building": "yes", "cuisine": "american", "name": "The Brook", "phone": "+1 918 748 9977"}}}, {"type": "Feature", "geometry": {"type": "Polygon", "coordinates": [[[-95.9749684, 36.1121405], [-95.9749756, 36.1120552], [-95.9747691, 36.1120474], [-95.9747667, 36.1121366], [-95.9749684, 36.1121405]]]}, "properties": {"osm_id": 427032706, "building": "yes", "name": "", "height": null, "height_m": null, "levels": null, "tract_id": "40143004302", "tract_name": "43.02", "tags": {"building": "yes"}}}, {"type": "Feature", "geometry": {"type": "Polygon", "coordinates": [[[-95.9755422, 36.1113905], [-95.9755438, 36.1111419], [-95.9753284, 36.1111409], [-95.9751273, 36.1111396], [-95.9749194, 36.1111387], [-95.9749183, 36.1112942], [-95.9749012, 36.1112963], [-95.9749012, 36.1113265], [-95.9746646, 36.1113261], [-95.9746643, 36.1114705], [-95.9751765, 36.1114712], [-95.9751767, 36.1113597], [-95.9754442, 36.11136], [-95.9754441, 36.1113903], [-95.9755422, 36.1113905]]]}, "properties": {"osm_id": 522210148, "building": "yes", "name": "", "height": null, "height_m": null, "levels": null, "tract_id": "40143004302", "tract_name": "43.02", "tags": {"addr:city": "Tulsa", "addr:housenumber": "3615", "addr:postcode": "74105", "addr:state": "OK", "addr:street": "South Peoria Avenue East", "building": "yes", "disused:shop": "yes", "ele": "195"}}}, {"type": "Feature", "geometry": {"type": "Polygon", "coordinates": [[[-95.9753287, 36.1110954], [-95.9753331, 36.1108223], [-95.9751569, 36.1108205], [-95.9751522, 36.1110934], [-95.9753287, 36.1110954]]]}, "properties": {"osm_id": 522210149, "building": "yes", "name": "", "height": null, "height_m": null, "levels": null, "tract_id": "40143004302", "tract_name": "43.02", "tags": {"building": "yes"}}}, {"type": "Feature", "geometry": {"type": "Polygon", "coordinates": [[[-95.9734853, 36.114153], [-95.9734857, 36.1139305], [-95.9733469, 36.1139304], [-95.9733466, 36.1141529], [-95.9734853, 36.114153]]]}, "properties": {"osm_id": 627274520, "building": "yes", "name": "", "height": null, "height_m": null, "levels": null, "tract_id": "40143004302", "tract_name": "43.02", "tags": {"building": "yes"}}}, {"type": "Feature", "geometry": {"type": "Polygon", "coordinates": [[[-95.9733098, 36.1141287], [-95.9733032, 36.113936], [-95.9732045, 36.1139382], [-95.9732085, 36.1140535], [-95.973171, 36.1140543], [-95.9731736, 36.1141317], [-95.9733098, 36.1141287]]]}, "properties": {"osm_id": 627274521, "building": "yes", "name": "", "height": null, "height_m": null, "levels": null, "tract_id": "40143004302", "tract_name": "43.02", "tags": {"building": "yes"}}}, {"type": "Feature", "geometry": {"type": "Polygon", "coordinates": [[[-95.9731544, 36.1141295], [-95.9731518, 36.1139416], [-95.9730696, 36.1139424], [-95.9730692, 36.1139179], [-95.973005, 36.1139185], [-95.973008, 36.1141308], [-95.9731544, 36.1141295]]]}, "properties": {"osm_id": 627274522, "building": "yes", "name": "", "height": null, "height_m": null, "levels": null, "tract_id": "40143004302", "tract_name": "43.02", "tags": {"building": "yes"}}}, {"type": "Feature", "geometry": {"type": "Polygon", "coordinates": [[[-95.9729775, 36.1141336], [-95.9729803, 36.1139316], [-95.9728378, 36.1139303], [-95.9728347, 36.1141534], [-95.9729186, 36.1141541], [-95.9729189, 36.114133], [-95.9729775, 36.1141336]]]}, "properties": {"osm_id": 627274523, "building": "yes", "name": "", "height": null, "height_m": null, "levels": null, "tract_id": "40143004302", "tract_name": "43.02", "tags": {"building": "yes"}}}, {"type": "Feature", "geometry": {"type": "Polygon", "coordinates": [[[-95.97281, 36.1141584], [-95.9728067, 36.1139371], [-95.9726589, 36.1139385], [-95.9726622, 36.1141598], [-95.97281, 36.1141584]]]}, "properties": {"osm_id": 627274524, "building": "yes", "name": "", "height": null, "height_m": null, "levels": null, "tract_id": "40143004302", "tract_name": "43.02", "tags": {"building": "yes"}}}, {"type": "Feature", "geometry": {"type": "Polygon", "coordinates": [[[-95.9726339, 36.1141253], [-95.9726345, 36.1139596], [-95.97258, 36.1139595], [-95.9725798, 36.114011], [-95.9725187, 36.1140109], [-95.9725182, 36.114125], [-95.9726339, 36.1141253]]]}, "properties": {"osm_id": 627274525, "building": "yes", "name": "", "height": null, "height_m": null, "levels": null, "tract_id": "40143004302", "tract_name": "43.02", "tags": {"building": "yes"}}}, {"type": "Feature", "geometry": {"type": "Polygon", "coordinates": [[[-95.9724617, 36.1141346], [-95.9724643, 36.113928], [-95.9724201, 36.1139276], [-95.9724202, 36.1139178], [-95.9723294, 36.1139171], [-95.9723264, 36.1141526], [-95.9723887, 36.1141532], [-95.9723889, 36.114134], [-95.9724617, 36.1141346]]]}, "properties": {"osm_id": 627274526, "building": "yes", "name": "", "height": null, "height_m": null, "levels": null, "tract_id": "40143004302", "tract_name": "43.02", "tags": {"building": "yes"}}}, {"type": "Feature", "geometry": {"type": "Polygon", "coordinates": [[[-95.9719574, 36.1141075], [-95.9719572, 36.1139886], [-95.9718899, 36.1139887], [-95.9718899, 36.1140006], [-95.9718694, 36.1140006], [-95.9718694, 36.1140161], [-95.971833, 36.1140161], [-95.9718332, 36.1141249], [-95.9719096, 36.1141248], [-95.9719096, 36.1141076], [-95.9719574, 36.1141075]]]}, "properties": {"osm_id": 627274527, "building": "yes", "name": "", "height": null, "height_m": null, "levels": null, "tract_id": "40143004302", "tract_name": "43.02", "tags": {"building": "yes"}}}, {"type": "Feature", "geometry": {"type": "Polygon", "coordinates": [[[-95.9734576, 36.1138342], [-95.973455, 36.1136646], [-95.9733387, 36.1136658], [-95.9733413, 36.1138353], [-95.9734576, 36.1138342]]]}, "properties": {"osm_id": 627274528, "building": "yes", "name": "", "height": null, "height_m": null, "levels": null, "tract_id": "40143004302", "tract_name": "43.02", "tags": {"building": "yes"}}}, {"type": "Feature", "geometry": {"type": "Polygon", "coordinates": [[[-95.9734742, 36.1136399], [-95.9734719, 36.1135253], [-95.9733616, 36.1135267], [-95.9733639, 36.1136413], [-95.9734742, 36.1136399]]]}, "properties": {"osm_id": 627274529, "building": "yes", "name": "", "height": null, "height_m": null, "levels": null, "tract_id": "40143004302", "tract_name": "43.02", "tags": {"addr:city": "Tulsa", "addr:country": "US", "addr:housenumber": "1403", "addr:postcode": "74105", "addr:state": "OK", "addr:street": "East 35th Street South", "building": "yes"}}}, {"type": "Feature", "geometry": {"type": "Polygon", "coordinates": [[[-95.9729386, 36.1136793], [-95.9729423, 36.11355], [-95.9728777, 36.1135488], [-95.9728772, 36.1135688], [-95.9728456, 36.1135682], [-95.9728425, 36.1136775], [-95.9729386, 36.1136793]]]}, "properties": {"osm_id": 627274530, "building": "yes", "name": "", "height": null, "height_m": null, "levels": null, "tract_id": "40143004302", "tract_name": "43.02", "tags": {"addr:city": "Tulsa", "addr:country": "US", "addr:housenumber": "1415", "addr:postcode": "74105", "addr:state": "OK", "addr:street": "East 35th Street South", "building": "yes"}}}, {"type": "Feature", "geometry": {"type": "Polygon", "coordinates": [[[-95.972467, 36.113703], [-95.9724679, 36.1135358], [-95.9723917, 36.1135356], [-95.9723916, 36.1135568], [-95.9723232, 36.1135566], [-95.9723224, 36.1137025], [-95.972467, 36.113703]]]}, "properties": {"osm_id": 627274531, "building": "yes", "name": "", "height": null, "height_m": null, "levels": null, "tract_id": "40143004302", "tract_name": "43.02", "tags": {"addr:city": "Tulsa", "addr:country": "US", "addr:housenumber": "1427", "addr:postcode": "74105", "addr:state": "OK", "addr:street": "East 35th Street South", "building": "yes"}}}, {"type": "Feature", "geometry": {"type": "Polygon", "coordinates": [[[-95.9723019, 36.1137578], [-95.9723019, 36.1135419], [-95.9721657, 36.1135419], [-95.9721657, 36.1137578], [-95.9723019, 36.1137578]]]}, "properties": {"osm_id": 627274532, "building": "yes", "name": "", "height": null, "height_m": null, "levels": null, "tract_id": "40143004302", "tract_name": "43.02", "tags": {"addr:city": "Tulsa", "addr:country": "US", "addr:housenumber": "1431", "addr:postcode": "74105", "addr:state": "OK", "addr:street": "East 35th Street South", "building": "yes"}}}, {"type": "Feature", "geometry": {"type": "Polygon", "coordinates": [[[-95.9717657, 36.1137786], [-95.9717654, 36.1137323], [-95.9717418, 36.1137324], [-95.9717409, 36.1135827], [-95.9717664, 36.1135826], [-95.9717662, 36.1135378], [-95.9716409, 36.1135383], [-95.9716423, 36.1137791], [-95.9717657, 36.1137786]]]}, "properties": {"osm_id": 627274533, "building": "yes", "name": "", "height": null, "height_m": null, "levels": null, "tract_id": "40143004302", "tract_name": "43.02", "tags": {"building": "yes"}}}, {"type": "Feature", "geometry": {"type": "Polygon", "coordinates": [[[-95.9731271, 36.1132254], [-95.9731284, 36.1130587], [-95.9730708, 36.1130584], [-95.9730705, 36.1130984], [-95.9730173, 36.1130981], [-95.9730163, 36.1132248], [-95.9731271, 36.1132254]]]}, "properties": {"osm_id": 627274805, "building": "yes", "name": "", "height": null, "height_m": null, "levels": null, "tract_id": "40143004302", "tract_name": "43.02", "tags": {"addr:city": "Tulsa", "addr:country": "US", "addr:housenumber": "1412", "addr:postcode": "74105", "addr:state": "OK", "addr:street": "East 35th Street South", "building": "yes"}}}, {"type": "Feature", "geometry": {"type": "Polygon", "coordinates": [[[-95.9729621, 36.1131972], [-95.9729646, 36.1130868], [-95.9728458, 36.1130851], [-95.9728428, 36.1132221], [-95.9729067, 36.113223], [-95.9729073, 36.1131964], [-95.9729621, 36.1131972]]]}, "properties": {"osm_id": 627274806, "building": "yes", "name": "", "height": null, "height_m": null, "levels": null, "tract_id": "40143004302", "tract_name": "43.02", "tags": {"addr:city": "Tulsa", "addr:country": "US", "addr:housenumber": "1416", "addr:postcode": "74105", "addr:state": "OK", "addr:street": "East 35th Street South", "building": "yes"}}}, {"type": "Feature", "geometry": {"type": "Polygon", "coordinates": [[[-95.972805, 36.1132303], [-95.9728035, 36.1131085], [-95.9726908, 36.1131093], [-95.9726923, 36.1132312], [-95.972805, 36.1132303]]]}, "properties": {"osm_id": 627274807, "building": "yes", "name": "", "height": null, "height_m": null, "levels": null, "tract_id": "40143004302", "tract_name": "43.02", "tags": {"addr:city": "Tulsa", "addr:country": "US", "addr:housenumber": "1420", "addr:postcode": "74105", "addr:state": "OK", "addr:street": "East 35th Street South", "building": "yes"}}}, {"type": "Feature", "geometry": {"type": "Polygon", "coordinates": [[[-95.9722876, 36.1132139], [-95.9722878, 36.1131392], [-95.9722736, 36.1131392], [-95.9722737, 36.1130783], [-95.9721551, 36.1130781], [-95.9721547, 36.1132286], [-95.9722134, 36.1132287], [-95.9722134, 36.1132138], [-95.9722876, 36.1132139]]]}, "properties": {"osm_id": 627274808, "building": "yes", "name": "", "height": null, "height_m": null, "levels": null, "tract_id": "40143004302", "tract_name": "43.02", "tags": {"addr:city": "Tulsa", "addr:country": "US", "addr:housenumber": "1432", "addr:postcode": "74105", "addr:state": "OK", "addr:street": "East 35th Street South", "building": "yes"}}}, {"type": "Feature", "geometry": {"type": "Polygon", "coordinates": [[[-95.9721263, 36.1132444], [-95.9721282, 36.1130292], [-95.9720707, 36.1130288], [-95.9720706, 36.1130435], [-95.9719949, 36.1130431], [-95.9719938, 36.1131599], [-95.9720554, 36.1131602], [-95.9720552, 36.1131809], [-95.9720744, 36.113181], [-95.9720738, 36.1132441], [-95.9721263, 36.1132444]]]}, "properties": {"osm_id": 627274809, "building": "yes", "name": "", "height": null, "height_m": null, "levels": null, "tract_id": "40143004302", "tract_name": "43.02", "tags": {"addr:city": "Tulsa", "addr:country": "US", "addr:housenumber": "1436", "addr:postcode": "74105", "addr:state": "OK", "addr:street": "East 35th Street South", "building": "yes"}}}, {"type": "Feature", "geometry": {"type": "Polygon", "coordinates": [[[-95.9719588, 36.1131592], [-95.9719582, 36.1130352], [-95.9718918, 36.1130354], [-95.9718918, 36.1130289], [-95.971824, 36.1130291], [-95.9718251, 36.1132477], [-95.9718851, 36.1132475], [-95.9718848, 36.1131783], [-95.971903, 36.1131783], [-95.9719029, 36.1131594], [-95.9719588, 36.1131592]]]}, "properties": {"osm_id": 627274810, "building": "yes", "name": "", "height": null, "height_m": null, "levels": null, "tract_id": "40143004302", "tract_name": "43.02", "tags": {"addr:city": "Tulsa", "addr:country": "US", "addr:housenumber": "1440", "addr:postcode": "74105", "addr:state": "OK", "addr:street": "East 35th Street South", "building": "yes"}}}, {"type": "Feature", "geometry": {"type": "Polygon", "coordinates": [[[-95.9734313, 36.1130376], [-95.9733002, 36.1130399], [-95.973298, 36.1129544], [-95.973429, 36.1129521], [-95.9734313, 36.1130376]]]}, "properties": {"osm_id": 627274811, "building": "yes", "name": "", "height": null, "height_m": null, "levels": null, "tract_id": "40143004302", "tract_name": "43.02", "tags": {"building": "yes"}}}, {"type": "Feature", "geometry": {"type": "Polygon", "coordinates": [[[-95.9734921, 36.1127994], [-95.9734926, 36.1127595], [-95.9734554, 36.1127592], [-95.973456, 36.1127137], [-95.9734437, 36.1127136], [-95.9734442, 36.1126689], [-95.973412, 36.1126686], [-95.9734121, 36.1126587], [-95.9733478, 36.1126582], [-95.9733468, 36.1127419], [-95.9734182, 36.1127424], [-95.9734175, 36.1127988], [-95.9734921, 36.1127994]]]}, "properties": {"osm_id": 627274812, "building": "yes", "name": "", "height": null, "height_m": null, "levels": null, "tract_id": "40143004302", "tract_name": "43.02", "tags": {"building": "yes"}}}, {"type": "Feature", "geometry": {"type": "Polygon", "coordinates": [[[-95.9733069, 36.1127441], [-95.973306, 36.1126459], [-95.9732012, 36.1126464], [-95.9732021, 36.1127471], [-95.9732123, 36.1127471], [-95.9732128, 36.1128025], [-95.973268, 36.1128022], [-95.9732675, 36.1127443], [-95.9733069, 36.1127441]]]}, "properties": {"osm_id": 627274813, "building": "yes", "name": "", "height": null, "height_m": null, "levels": null, "tract_id": "40143004302", "tract_name": "43.02", "tags": {"building": "yes"}}}, {"type": "Feature", "geometry": {"type": "Polygon", "coordinates": [[[-95.9731451, 36.1128253], [-95.9731431, 36.1127019], [-95.9730915, 36.1127025], [-95.9730906, 36.1126474], [-95.9730033, 36.1126484], [-95.9730071, 36.1128792], [-95.9730637, 36.1128786], [-95.9730634, 36.1128611], [-95.9731085, 36.1128606], [-95.9731079, 36.1128257], [-95.9731451, 36.1128253]]]}, "properties": {"osm_id": 627274814, "building": "yes", "name": "", "height": null, "height_m": null, "levels": null, "tract_id": "40143004302", "tract_name": "43.02", "tags": {"building": "yes"}}}, {"type": "Feature", "geometry": {"type": "Polygon", "coordinates": [[[-95.9729783, 36.1128228], [-95.9729786, 36.1126485], [-95.9729191, 36.1126484], [-95.972919, 36.1126705], [-95.9728404, 36.1126704], [-95.9728402, 36.1128226], [-95.9729783, 36.1128228]]]}, "properties": {"osm_id": 627274815, "building": "yes", "name": "", "height": null, "height_m": null, "levels": null, "tract_id": "40143004302", "tract_name": "43.02", "tags": {"building": "yes"}}}, {"type": "Feature", "geometry": {"type": "Polygon", "coordinates": [[[-95.9718804, 36.1128792], [-95.9718799, 36.1128234], [-95.9718067, 36.1128238], [-95.9718072, 36.1128796], [-95.9718804, 36.1128792]]]}, "properties": {"osm_id": 627274816, "building": "yes", "name": "", "height": null, "height_m": null, "levels": null, "tract_id": "40143004302", "tract_name": "43.02", "tags": {"building": "yes"}}}, {"type": "Feature", "geometry": {"type": "Polygon", "coordinates": [[[-95.9719561, 36.1127613], [-95.9719569, 36.1126775], [-95.9719682, 36.1126775], [-95.9719686, 36.1126401], [-95.9718374, 36.1126392], [-95.9718362, 36.1127626], [-95.9718726, 36.1127628], [-95.9718723, 36.1127909], [-95.9719362, 36.1127913], [-95.9719365, 36.1127612], [-95.9719561, 36.1127613]]]}, "properties": {"osm_id": 627274817, "building": "yes", "name": "", "height": null, "height_m": null, "levels": null, "tract_id": "40143004302", "tract_name": "43.02", "tags": {"building": "yes"}}}, {"type": "Feature", "geometry": {"type": "Polygon", "coordinates": [[[-95.9717426, 36.1128797], [-95.971636, 36.1128782], [-95.9716409, 36.1126365], [-95.9716957, 36.1126372], [-95.971696, 36.1126203], [-95.9717892, 36.1126215], [-95.9717848, 36.1128373], [-95.9717435, 36.1128367], [-95.9717426, 36.1128797]]]}, "properties": {"osm_id": 627274818, "building": "yes", "name": "", "height": null, "height_m": null, "levels": null, "tract_id": "40143004302", "tract_name": "43.02", "tags": {"building": "yes"}}}, {"type": "Feature", "geometry": {"type": "Polygon", "coordinates": [[[-95.9753305, 36.1078412], [-95.9751286, 36.1078415], [-95.9751283, 36.1076713], [-95.975037, 36.1076714], [-95.9750358, 36.1071075], [-95.9752502, 36.1071072], [-95.9752506, 36.1072859], [-95.9752013, 36.1072859], [-95.975202, 36.1076117], [-95.9752467, 36.1076116], [-95.9752468, 36.1076675], [-95.9753301, 36.1076674], [-95.9753305, 36.1078412]]]}, "properties": {"osm_id": 629847171, "building": "yes", "name": "", "height": null, "height_m": null, "levels": null, "tract_id": "40143004302", "tract_name": "43.02", "tags": {"building": "yes"}}}, {"type": "Feature", "geometry": {"type": "Polygon", "coordinates": [[[-95.975434, 36.1069071], [-95.9754309, 36.1067189], [-95.975194, 36.1067215], [-95.9751972, 36.1069097], [-95.975434, 36.1069071]]]}, "properties": {"osm_id": 629847172, "building": "yes", "name": "", "height": null, "height_m": null, "levels": null, "tract_id": "40143004302", "tract_name": "43.02", "tags": {"building": "yes"}}}, {"type": "Feature", "geometry": {"type": "Polygon", "coordinates": [[[-95.9743049, 36.1059027], [-95.9743102, 36.1055562], [-95.9743553, 36.1055566], [-95.9743592, 36.105299], [-95.9743061, 36.1052985], [-95.9743078, 36.1051858], [-95.9738534, 36.1051813], [-95.9738545, 36.1051106], [-95.973734, 36.1051094], [-95.9737221, 36.1058969], [-95.9743049, 36.1059027]]]}, "properties": {"osm_id": 629847173, "building": "retail", "name": "Reasor's", "height": null, "height_m": 3.0, "levels": 1, "tract_id": "40143004302", "tract_name": "43.02", "tags": {"addr:housenumber": "3915", "addr:street": "South Peoria Avenue East", "building": "retail", "building:levels": "1", "name": "Reasor's", "opening_hours": "Mo-Su 07:00-23:00", "roof:levels": "0", "shop": "supermarket", "wheelchair": "yes"}}}, {"type": "Feature", "geometry": {"type": "Polygon", "coordinates": [[[-95.973596, 36.1047209], [-95.9730009, 36.104719], [-95.972999, 36.1050943], [-95.9730409, 36.1050945], [-95.9730405, 36.1051816], [-95.9733878, 36.1051827], [-95.9733886, 36.10503], [-95.9735906, 36.1050307], [-95.973596, 36.1047209]]]}, "properties": {"osm_id": 629847174, "building": "retail", "name": "Whole Foods Market", "height": null, "height_m": null, "levels": null, "tract_id": "40143004302", "tract_name": "43.02", "tags": {"addr:city": "Tulsa", "addr:housenumber": "1401", "addr:postcode": "74105-4033", "addr:state": "OK", "addr:street": "East 41st Street South", "branch": "Brookside", "brand": "Whole Foods Market", "brand:wikidata": "Q1809448", "building": "retail", "check_date": "2024-10-03", "check_date:opening_hours": "2024-10-03", "name": "Whole Foods Market", "opening_hours": "Mo-Su 08:00-21:00", "phone": "+1 918-712-7555", "ref": "brookside", "shop": "supermarket", "website": "https://www.wholefoodsmarket.com/stores/brookside"}}}, {"type": "Feature", "geometry": {"type": "Polygon", "coordinates": [[[-95.9725529, 36.1048971], [-95.9725515, 36.1045393], [-95.9722462, 36.1045401], [-95.9722476, 36.1048979], [-95.9725529, 36.1048971]]]}, "properties": {"osm_id": 629847175, "building": "yes", "name": "", "height": null, "height_m": null, "levels": null, "tract_id": "40143004302", "tract_name": "43.02", "tags": {"building": "yes"}}}, {"type": "Feature", "geometry": {"type": "Polygon", "coordinates": [[[-95.971257, 36.1052646], [-95.9712552, 36.1051609], [-95.9711104, 36.1051626], [-95.9711117, 36.1052339], [-95.9711405, 36.1052335], [-95.9711411, 36.105266], [-95.971257, 36.1052646]]]}, "properties": {"osm_id": 629847180, "building": "yes", "name": "", "height": null, "height_m": null, "levels": null, "tract_id": "40143004302", "tract_name": "43.02", "tags": {"building": "yes"}}}, {"type": "Feature", "geometry": {"type": "Polygon", "coordinates": [[[-95.971203, 36.1054397], [-95.9712031, 36.1054148], [-95.9712493, 36.1054149], [-95.9712496, 36.1053348], [-95.9711125, 36.1053344], [-95.9711121, 36.1054395], [-95.971203, 36.1054397]]]}, "properties": {"osm_id": 629847181, "building": "yes", "name": "", "height": null, "height_m": null, "levels": null, "tract_id": "40143004302", "tract_name": "43.02", "tags": {"building": "yes"}}}, {"type": "Feature", "geometry": {"type": "Polygon", "coordinates": [[[-95.9706281, 36.1047595], [-95.9705374, 36.1047589], [-95.9705376, 36.1047358], [-95.970516, 36.1047356], [-95.9705165, 36.1046813], [-95.9705052, 36.1046813], [-95.9705054, 36.1046575], [-95.9705143, 36.1046575], [-95.9705147, 36.104622], [-95.9706185, 36.1046226], [-95.9706178, 36.1046954], [-95.9706511, 36.1046956], [-95.9706508, 36.1047299], [-95.9706284, 36.1047297], [-95.9706281, 36.1047595]]]}, "properties": {"osm_id": 629847182, "building": "yes", "name": "", "height": null, "height_m": null, "levels": null, "tract_id": "40143004302", "tract_name": "43.02", "tags": {"building": "yes"}}}, {"type": "Feature", "geometry": {"type": "Polygon", "coordinates": [[[-95.9707045, 36.1059898], [-95.970707, 36.1059208], [-95.9705787, 36.1059178], [-95.97058, 36.1058821], [-95.9704297, 36.1058786], [-95.9704259, 36.1059833], [-95.9707045, 36.1059898]]]}, "properties": {"osm_id": 629847183, "building": "yes", "name": "", "height": null, "height_m": null, "levels": null, "tract_id": "40143004302", "tract_name": "43.02", "tags": {"building": "yes"}}}, {"type": "Feature", "geometry": {"type": "Polygon", "coordinates": [[[-95.9706418, 36.1058244], [-95.9706434, 36.1057777], [-95.9705538, 36.1057758], [-95.9705544, 36.1057575], [-95.9705736, 36.1057579], [-95.9705751, 36.1057143], [-95.9704246, 36.1057111], [-95.9704211, 36.1058197], [-95.9706418, 36.1058244]]]}, "properties": {"osm_id": 629847184, "building": "yes", "name": "", "height": null, "height_m": null, "levels": null, "tract_id": "40143004302", "tract_name": "43.02", "tags": {"building": "yes"}}}, {"type": "Feature", "geometry": {"type": "Polygon", "coordinates": [[[-95.9689669, 36.1182442], [-95.9689676, 36.1181648], [-95.9690344, 36.1181651], [-95.9690348, 36.1181254], [-95.9690695, 36.1181256], [-95.9690702, 36.1180404], [-95.9687805, 36.1180387], [-95.9687795, 36.1181503], [-95.9688956, 36.1181509], [-95.9688947, 36.1182438], [-95.9689669, 36.1182442]]]}, "properties": {"osm_id": 630968776, "building": "detached", "name": "", "height": null, "height_m": null, "levels": null, "tract_id": "40143004302", "tract_name": "43.02", "tags": {"addr:city": "Tulsa", "addr:country": "US", "addr:housenumber": "1625", "addr:postcode": "74105", "addr:state": "OK", "addr:street": "East 31st Place South", "building": "detached"}}}, {"type": "Feature", "geometry": {"type": "Polygon", "coordinates": [[[-95.9687373, 36.118301], [-95.9687409, 36.11803], [-95.9686727, 36.1180294], [-95.9686714, 36.118122], [-95.9685689, 36.1181211], [-95.9685691, 36.1181088], [-95.9685092, 36.1181083], [-95.9685082, 36.1181879], [-95.9685959, 36.1181887], [-95.9685957, 36.1182074], [-95.9686385, 36.1182077], [-95.9686373, 36.1183002], [-95.9687373, 36.118301]]]}, "properties": {"osm_id": 630968777, "building": "detached", "name": "", "height": null, "height_m": null, "levels": null, "tract_id": "40143004302", "tract_name": "43.02", "tags": {"addr:city": "Tulsa", "addr:country": "US", "addr:housenumber": "1624", "addr:postcode": "74105", "addr:state": "OK", "addr:street": "East 31st Street South", "building": "detached"}}}, {"type": "Feature", "geometry": {"type": "Polygon", "coordinates": [[[-95.9693986, 36.1176764], [-95.9693979, 36.1175521], [-95.9693246, 36.1175524], [-95.9693243, 36.1175087], [-95.9692384, 36.117509], [-95.9692389, 36.1176034], [-95.9691216, 36.1176038], [-95.9691223, 36.1177224], [-95.9691942, 36.1177222], [-95.969194, 36.1176965], [-95.9693297, 36.117696], [-95.9693296, 36.1176766], [-95.9693986, 36.1176764]]]}, "properties": {"osm_id": 630968778, "building": "detached", "name": "", "height": null, "height_m": null, "levels": null, "tract_id": "40143004302", "tract_name": "43.02", "tags": {"addr:city": "Tulsa", "addr:country": "US", "addr:housenumber": "1616", "addr:postcode": "74105", "addr:state": "OK", "addr:street": "East 31st Place South", "building": "detached"}}}, {"type": "Feature", "geometry": {"type": "Polygon", "coordinates": [[[-95.9728143, 36.1159003], [-95.9728115, 36.1158121], [-95.9727822, 36.1158127], [-95.9727812, 36.115781], [-95.9726861, 36.115783], [-95.9726898, 36.1159028], [-95.9728143, 36.1159003]]]}, "properties": {"osm_id": 630968779, "building": "yes", "name": "", "height": null, "height_m": null, "levels": null, "tract_id": "40143004302", "tract_name": "43.02", "tags": {"building": "yes"}}}, {"type": "Feature", "geometry": {"type": "Polygon", "coordinates": [[[-95.9726349, 36.1159631], [-95.9726337, 36.1158337], [-95.9725856, 36.115834], [-95.9725852, 36.1157876], [-95.9723875, 36.1157888], [-95.9723885, 36.1158992], [-95.9724056, 36.1158991], [-95.972406, 36.1159435], [-95.9724813, 36.1159431], [-95.972481, 36.1159077], [-95.9725588, 36.1159073], [-95.9725594, 36.1159635], [-95.9726349, 36.1159631]]]}, "properties": {"osm_id": 630968780, "building": "yes", "name": "", "height": null, "height_m": null, "levels": null, "tract_id": "40143004302", "tract_name": "43.02", "tags": {"building": "yes"}}}, {"type": "Feature", "geometry": {"type": "Polygon", "coordinates": [[[-95.9723573, 36.1160182], [-95.9723528, 36.1157632], [-95.9722889, 36.1157639], [-95.9722896, 36.1158068], [-95.9721568, 36.1158083], [-95.9721578, 36.1158666], [-95.9721983, 36.1158661], [-95.9721986, 36.115879], [-95.9722922, 36.1158779], [-95.9722935, 36.11595], [-95.9722783, 36.1159502], [-95.9722795, 36.1160191], [-95.9723573, 36.1160182]]]}, "properties": {"osm_id": 630968781, "building": "yes", "name": "", "height": null, "height_m": null, "levels": null, "tract_id": "40143004302", "tract_name": "43.02", "tags": {"building": "yes"}}}, {"type": "Feature", "geometry": {"type": "Polygon", "coordinates": [[[-95.9703625, 36.1161496], [-95.9703601, 36.1160342], [-95.9701772, 36.1160366], [-95.9701796, 36.1161521], [-95.9703625, 36.1161496]]]}, "properties": {"osm_id": 630968782, "building": "yes", "name": "", "height": null, "height_m": null, "levels": null, "tract_id": "40143004302", "tract_name": "43.02", "tags": {"building": "yes"}}}, {"type": "Feature", "geometry": {"type": "Polygon", "coordinates": [[[-95.9585506, 36.1113475], [-95.9586707, 36.1111618], [-95.9584846, 36.1110832], [-95.9584162, 36.111189], [-95.9583846, 36.1111756], [-95.958349, 36.1112307], [-95.9583798, 36.1112437], [-95.9583637, 36.1112686], [-95.9584792, 36.1113173], [-95.9585506, 36.1113475]]]}, "properties": {"osm_id": 635794739, "building": "fire_station", "name": "Tulsa Fire Department Station Number 14", "height": null, "height_m": null, "levels": null, "tract_id": "40143004302", "tract_name": "43.02", "tags": {"addr:city": "Tulsa", "addr:country": "US", "addr:housenumber": "3602", "addr:postcode": "74105", "addr:state": "OK", "addr:street": "South Lewis Avenue East", "amenity": "fire_station", "building": "fire_station", "building:colour": "yellow", "name": "Tulsa Fire Department Station Number 14", "operator": "Tulsa Fire Department"}}}, {"type": "Feature", "geometry": {"type": "Polygon", "coordinates": [[[-95.9639643, 36.1096977], [-95.963904, 36.109657], [-95.9638873, 36.1096731], [-95.9637299, 36.1095669], [-95.963782, 36.1095166], [-95.9638301, 36.1095491], [-95.9639068, 36.1094749], [-95.9639689, 36.1095168], [-95.9639241, 36.1095602], [-95.9640316, 36.1096327], [-95.9639643, 36.1096977]]]}, "properties": {"osm_id": 635795305, "building": "yes", "name": "", "height": null, "height_m": null, "levels": null, "tract_id": "40143004302", "tract_name": "43.02", "tags": {"building": "yes"}}}, {"type": "Feature", "geometry": {"type": "Polygon", "coordinates": [[[-95.9637888, 36.1094169], [-95.9637767, 36.1093834], [-95.9637162, 36.1093977], [-95.9637124, 36.1093873], [-95.9636687, 36.1093976], [-95.9636573, 36.1093661], [-95.9636774, 36.1093614], [-95.9636711, 36.1093439], [-95.9636911, 36.1093392], [-95.9636678, 36.1092749], [-95.9637536, 36.1092547], [-95.9637575, 36.1092655], [-95.9638775, 36.1092372], [-95.9639055, 36.1093147], [-95.9638348, 36.1093314], [-95.9638597, 36.1094001], [-95.9637888, 36.1094169]]]}, "properties": {"osm_id": 635795306, "building": "detached", "name": "", "height": null, "height_m": null, "levels": null, "tract_id": "40143004302", "tract_name": "43.02", "tags": {"addr:city": "Tulsa", "addr:country": "US", "addr:housenumber": "3710", "addr:postcode": "74105", "addr:state": "OK", "addr:street": "South Xanthus Avenue East", "building": "detached"}}}, {"type": "Feature", "geometry": {"type": "Polygon", "coordinates": [[[-95.9638589, 36.1089135], [-95.9638586, 36.1088463], [-95.9637751, 36.1088465], [-95.9637751, 36.1088275], [-95.9638393, 36.1088273], [-95.9638389, 36.108743], [-95.963824, 36.1087431], [-95.9638237, 36.1086848], [-95.9636502, 36.1086853], [-95.963651, 36.1088526], [-95.9636765, 36.1088525], [-95.9636768, 36.108914], [-95.9638589, 36.1089135]]]}, "properties": {"osm_id": 635795307, "building": "detached", "name": "", "height": null, "height_m": null, "levels": null, "tract_id": "40143004302", "tract_name": "43.02", "tags": {"addr:city": "Tulsa", "addr:country": "US", "addr:housenumber": "3726", "addr:postcode": "74105", "addr:state": "OK", "addr:street": "South Xanthus Avenue East", "building": "detached"}}}, {"type": "Feature", "geometry": {"type": "Polygon", "coordinates": [[[-95.9751382, 36.1048085], [-95.9751389, 36.1046432], [-95.9751824, 36.1046433], [-95.9751825, 36.1046307], [-95.9752227, 36.1046308], [-95.9753271, 36.104718], [-95.9753269, 36.1047787], [-95.9753093, 36.1047786], [-95.9753092, 36.1048089], [-95.9751382, 36.1048085]]]}, "properties": {"osm_id": 668793578, "building": "yes", "name": "Kum & Go", "height": null, "height_m": null, "levels": null, "tract_id": "40143004302", "tract_name": "43.02", "tags": {"brand": "Kum & Go", "brand:wikidata": "Q6443340", "building": "yes", "name": "Kum & Go", "shop": "convenience", "website": "https://www.kumandgo.com/store-locator?details=0873"}}}, {"type": "Feature", "geometry": {"type": "Polygon", "coordinates": [[[-95.9735906, 36.1050307], [-95.9741949, 36.1050327], [-95.9741965, 36.1047229], [-95.973596, 36.1047209], [-95.9735906, 36.1050307]]]}, "properties": {"osm_id": 668793579, "building": "yes", "name": "", "height": null, "height_m": null, "levels": null, "tract_id": "40143004302", "tract_name": "43.02", "tags": {"building": "yes"}}}, {"type": "Feature", "geometry": {"type": "Polygon", "coordinates": [[[-95.9663437, 36.1178958], [-95.9663524, 36.1179068], [-95.9662959, 36.1179361], [-95.9663419, 36.117994], [-95.9663509, 36.1179894], [-95.9663801, 36.1180261], [-95.9664721, 36.1179784], [-95.966444, 36.117943], [-95.9664713, 36.1179288], [-95.9664271, 36.1178731], [-95.9664331, 36.11787], [-95.9663414, 36.1177546], [-95.9662703, 36.1177915], [-95.9662926, 36.1178195], [-95.9662582, 36.1178373], [-95.9663109, 36.1179036], [-95.966329, 36.1178942], [-95.9663342, 36.1179007], [-95.9663437, 36.1178958]]]}, "properties": {"osm_id": 837240939, "building": "detached", "name": "", "height": null, "height_m": null, "levels": null, "tract_id": "40143004302", "tract_name": "43.02", "tags": {"addr:city": "Tulsa", "addr:country": "US", "addr:housenumber": "3132", "addr:postcode": "74105", "addr:state": "OK", "addr:street": "South Victor Avenue East", "building": "detached"}}}, {"type": "Feature", "geometry": {"type": "Polygon", "coordinates": [[[-95.9662689, 36.116682], [-95.9664258, 36.1166816], [-95.9664254, 36.1165881], [-95.9664818, 36.1165879], [-95.9664814, 36.1164887], [-95.9663832, 36.116489], [-95.9663834, 36.1165382], [-95.9663686, 36.1165382], [-95.9663684, 36.1164731], [-95.96627, 36.1164733], [-95.9662702, 36.1165195], [-95.9661879, 36.1165197], [-95.9661877, 36.1164763], [-95.9661332, 36.1164765], [-95.9661335, 36.1165476], [-95.9661188, 36.1165477], [-95.966119, 36.1166068], [-95.9661316, 36.1166068], [-95.9661319, 36.1166786], [-95.9661883, 36.1166785], [-95.9661881, 36.1166359], [-95.9662687, 36.1166357], [-95.9662689, 36.116682]]]}, "properties": {"osm_id": 837240940, "building": "detached", "name": "", "height": null, "height_m": null, "levels": null, "tract_id": "40143004302", "tract_name": "43.02", "tags": {"addr:city": "Tulsa", "addr:country": "US", "addr:housenumber": "3222", "addr:postcode": "74105", "addr:state": "OK", "addr:street": "South Victor Avenue East", "building": "detached"}}}, {"type": "Feature", "geometry": {"type": "Polygon", "coordinates": [[[-95.9667743, 36.1169394], [-95.9667711, 36.1167783], [-95.9668744, 36.116777], [-95.9668763, 36.116872], [-95.966856, 36.1168723], [-95.9668573, 36.1169383], [-95.9667743, 36.1169394]]]}, "properties": {"osm_id": 837240941, "building": "detached", "name": "", "height": null, "height_m": null, "levels": null, "tract_id": "40143004302", "tract_name": "43.02", "tags": {"addr:city": "Tulsa", "addr:country": "US", "addr:housenumber": "3153", "addr:postcode": "74105", "addr:state": "OK", "addr:street": "South Utica Avenue East", "building": "detached"}}}, {"type": "Feature", "geometry": {"type": "Polygon", "coordinates": [[[-95.9662932, 36.1173775], [-95.9662934, 36.1173509], [-95.9663567, 36.1173512], [-95.9663571, 36.1172874], [-95.9661849, 36.1172866], [-95.966185, 36.1172608], [-95.9661316, 36.1172606], [-95.9661313, 36.1173091], [-95.9661572, 36.1173092], [-95.9661568, 36.1173769], [-95.9662932, 36.1173775]]]}, "properties": {"osm_id": 837240942, "building": "detached", "name": "", "height": null, "height_m": null, "levels": null, "tract_id": "40143004302", "tract_name": "43.02", "tags": {"addr:city": "Tulsa", "addr:country": "US", "addr:housenumber": "3148", "addr:postcode": "74105", "addr:state": "OK", "addr:street": "South Victor Avenue East", "building": "detached"}}}, {"type": "Feature", "geometry": {"type": "Polygon", "coordinates": [[[-95.9663502, 36.1174417], [-95.9663494, 36.1173933], [-95.9662472, 36.1173943], [-95.966248, 36.1174428], [-95.9663502, 36.1174417]]]}, "properties": {"osm_id": 837240943, "building": "garage", "name": "", "height": null, "height_m": null, "levels": null, "tract_id": "40143004302", "tract_name": "43.02", "tags": {"building": "garage"}}}, {"type": "Feature", "geometry": {"type": "Polygon", "coordinates": [[[-95.9661917, 36.1175792], [-95.9661718, 36.117523], [-95.9662162, 36.1175128], [-95.9662119, 36.1175006], [-95.9662574, 36.1174901], [-95.9662594, 36.1174957], [-95.9662996, 36.1174865], [-95.9662976, 36.1174807], [-95.9663554, 36.1174674], [-95.9663844, 36.1175493], [-95.9663537, 36.1175564], [-95.9663655, 36.1175897], [-95.9663006, 36.1176047], [-95.9663105, 36.1176325], [-95.9662918, 36.1176368], [-95.9663003, 36.1176609], [-95.9663477, 36.1176499], [-95.966364, 36.117696], [-95.9662454, 36.1177234], [-95.9662054, 36.1176104], [-95.9661809, 36.1176161], [-95.9661696, 36.1175843], [-95.9661917, 36.1175792]]]}, "properties": {"osm_id": 837240944, "building": "detached", "name": "", "height": null, "height_m": null, "levels": null, "tract_id": "40143004302", "tract_name": "43.02", "tags": {"addr:city": "Tulsa", "addr:country": "US", "addr:housenumber": "3140", "addr:postcode": "74105", "addr:state": "OK", "addr:street": "South Victor Avenue East", "building": "detached"}}}, {"type": "Feature", "geometry": {"type": "Polygon", "coordinates": [[[-95.9587372, 36.1108885], [-95.9584541, 36.1108901], [-95.9584551, 36.1110084], [-95.9583648, 36.1110089], [-95.958364, 36.110908], [-95.9583739, 36.110908], [-95.9583738, 36.1108905], [-95.9583502, 36.1108906], [-95.9583501, 36.1108825], [-95.958341, 36.1108825], [-95.9583409, 36.1108755], [-95.9583133, 36.1108757], [-95.9583127, 36.1108025], [-95.9583386, 36.1108023], [-95.9583385, 36.1107946], [-95.9583493, 36.1107945], [-95.9583492, 36.110784], [-95.9583764, 36.1107839], [-95.9583764, 36.1107739], [-95.9584447, 36.1107735], [-95.9584448, 36.1107835], [-95.9587363, 36.1107819], [-95.9587372, 36.1108885]]]}, "properties": {"osm_id": 891746684, "building": "yes", "name": "Sixth Church of Christ", "height": null, "height_m": null, "levels": null, "tract_id": "40143004302", "tract_name": "43.02", "tags": {"amenity": "place_of_worship", "building": "yes", "check_date": "2025-01-14", "name": "Sixth Church of Christ", "religion": "christian"}}}, {"type": "Feature", "geometry": {"type": "Polygon", "coordinates": [[[-95.9734229, 36.105681], [-95.9725614, 36.1056828], [-95.9725324, 36.1056829], [-95.9725312, 36.1053461], [-95.9734223, 36.1053435], [-95.9734229, 36.105681]]]}, "properties": {"osm_id": 953999520, "building": "parking", "name": "", "height": null, "height_m": null, "levels": null, "tract_id": "40143004302", "tract_name": "43.02", "tags": {"amenity": "parking", "building": "parking", "parking": "multi-storey"}}}, {"type": "Feature", "geometry": {"type": "Polygon", "coordinates": [[[-95.9732187, 36.1057375], [-95.973206, 36.1057375], [-95.9732057, 36.1056948], [-95.9733436, 36.1056941], [-95.9733438, 36.105719], [-95.9734413, 36.1057184], [-95.9734416, 36.1057496], [-95.97338, 36.10575], [-95.9733802, 36.10577], [-95.9734544, 36.1057696], [-95.9734547, 36.1058106], [-95.9734476, 36.1058123], [-95.9734481, 36.1058463], [-95.9734537, 36.1058462], [-95.9734544, 36.1058897], [-95.9734571, 36.1058902], [-95.9734576, 36.105949], [-95.9734345, 36.1059491], [-95.9734347, 36.1059746], [-95.9733853, 36.1059748], [-95.9733853, 36.105981], [-95.9733342, 36.1059813], [-95.9733341, 36.1059736], [-95.973317, 36.1059737], [-95.9733171, 36.1059837], [-95.9732677, 36.1059841], [-95.9732676, 36.1059791], [-95.9731744, 36.1059799], [-95.9731744, 36.1059843], [-95.9731181, 36.1059848], [-95.973118, 36.1059763], [-95.9730915, 36.1059766], [-95.9730914, 36.1059711], [-95.973042, 36.1059716], [-95.9730421, 36.1059782], [-95.9729969, 36.1059786], [-95.9729968, 36.1059699], [-95.97295, 36.1059702], [-95.9729501, 36.105978], [-95.9728971, 36.1059784], [-95.9728971, 36.1059812], [-95.9728317, 36.1059815], [-95.9728315, 36.1059624], [-95.9728003, 36.1059626], [-95.9728, 36.1059232], [-95.9727938, 36.1059232], [-95.9727934, 36.1058707], [-95.9727231, 36.105871], [-95.9727228, 36.1058371], [-95.9726781, 36.1058373], [-95.9726782, 36.1058434], [-95.9726332, 36.1058437], [-95.9726331, 36.1058377], [-95.972589, 36.105838], [-95.9725891, 36.1058433], [-95.9725448, 36.1058437], [-95.972545, 36.1058662], [-95.9724523, 36.1058669], [-95.972452, 36.1058449], [-95.9724086, 36.1058452], [-95.9724085, 36.105837], [-95.972362, 36.1058374], [-95.9723619, 36.1058331], [-95.9723025, 36.1058335], [-95.9723029, 36.105868], [-95.972265, 36.1058682], [-95.9722656, 36.1059233], [-95.9722612, 36.1059233], [-95.9722616, 36.1059621], [-95.9722281, 36.1059624], [-95.9722283, 36.1059829], [-95.972161, 36.1059833], [-95.972161, 36.1059776], [-95.9721006, 36.1059779], [-95.9721005, 36.1059711], [-95.9720707, 36.1059712], [-95.9720706, 36.10596], [-95.9720274, 36.1059602], [-95.9720275, 36.1059694], [-95.971935, 36.1059698], [-95.9719349, 36.1059633], [-95.9718392, 36.1059637], [-95.9718392, 36.1059698], [-95.9717924, 36.1059701], [-95.9717925, 36.1059806], [-95.9716683, 36.1059812], [-95.9716681, 36.1059623], [-95.9716383, 36.1059625], [-95.971638, 36.1059244], [-95.9716301, 36.1059244], [-95.9716298, 36.1058828], [-95.9716414, 36.1058827], [-95.9716412, 36.1058632], [-95.9716261, 36.1058632], [-95.9716258, 36.105825], [-95.9716323, 36.1058249], [-95.9716317, 36.10575], [-95.9716248, 36.10575], [-95.9716244, 36.1057013], [-95.9716339, 36.1057012], [-95.9716337, 36.1056809], [-95.9716442, 36.1056809], [-95.9716438, 36.1056465], [-95.9716321, 36.1056466], [-95.9716317, 36.1056064], [-95.9716446, 36.1056063], [-95.9716437, 36.1055364], [-95.9716347, 36.1055365], [-95.9716337, 36.1054584], [-95.9716451, 36.1054583], [-95.9716447, 36.105428], [-95.9716295, 36.1054281], [-95.9716289, 36.1053863], [-95.9716383, 36.1053862], [-95.9716376, 36.1053479], [-95.9716723, 36.1053475], [-95.971672, 36.105329], [-95.9717387, 36.1053283], [-95.9717388, 36.1053335], [-95.9717931, 36.1053328], [-95.9717933, 36.1053443], [-95.97193, 36.1053427], [-95.9719294, 36.105309], [-95.971978, 36.1053084], [-95.9719782, 36.1053156], [-95.9720206, 36.1053151], [-95.9720205, 36.1053098], [-95.9721096, 36.1053091], [-95.9721095, 36.1053058], [-95.9721979, 36.1053053], [-95.9721978, 36.1052983], [-95.9722458, 36.1052981], [-95.9722459, 36.1053058], [-95.972286, 36.1053057], [-95.9722859, 36.1052976], [-95.972377, 36.1052973], [-95.972377, 36.1053056], [-95.9724635, 36.1053053], [-95.9724635, 36.1053015], [-95.9725162, 36.1053013], [-95.9725164, 36.1053461], [-95.9725312, 36.1053461], [-95.9725324, 36.1056829], [-95.9725614, 36.1056828], [-95.9725616, 36.1057315], [-95.9728436, 36.1057308], [-95.9728438, 36.1057861], [-95.9728821, 36.105786], [-95.972882, 36.1057756], [-95.9729276, 36.1057755], [-95.9729276, 36.1057709], [-95.9730269, 36.1057705], [-95.973027, 36.1057875], [-95.9730698, 36.1057874], [-95.9730697, 36.1057774], [-95.9731244, 36.1057772], [-95.9731245, 36.1057867], [-95.9731707, 36.1057864], [-95.9731708, 36.1058026], [-95.9732192, 36.1058024], [-95.9732187, 36.1057375]]]}, "properties": {"osm_id": 953999521, "building": "apartments", "name": "", "height": null, "height_m": null, "levels": null, "tract_id": "40143004302", "tract_name": "43.02", "tags": {"building": "apartments"}}}, {"type": "Feature", "geometry": {"type": "Polygon", "coordinates": [[[-95.9733041, 36.1136734], [-95.9733063, 36.1135206], [-95.9731825, 36.1135194], [-95.9731804, 36.1136722], [-95.9733041, 36.1136734]]]}, "properties": {"osm_id": 974868998, "building": "yes", "name": "", "height": null, "height_m": null, "levels": null, "tract_id": "40143004302", "tract_name": "43.02", "tags": {"addr:city": "Tulsa", "addr:country": "US", "addr:housenumber": "1407", "addr:postcode": "74105", "addr:state": "OK", "addr:street": "East 35th Street South", "building": "yes"}}}, {"type": "Feature", "geometry": {"type": "Polygon", "coordinates": [[[-95.9732106, 36.1137666], [-95.9732071, 36.1138308], [-95.9733332, 36.1138289], [-95.9733286, 36.1137638], [-95.9732106, 36.1137666]]]}, "properties": {"osm_id": 974868999, "building": "yes", "name": "", "height": null, "height_m": null, "levels": null, "tract_id": "40143004302", "tract_name": "43.02", "tags": {"building": "yes"}}}, {"type": "Feature", "geometry": {"type": "Polygon", "coordinates": [[[-95.9728145, 36.1137149], [-95.9728143, 36.1135472], [-95.972735, 36.1135473], [-95.972735, 36.1135631], [-95.9727107, 36.1135631], [-95.9727108, 36.1135815], [-95.9726664, 36.1135815], [-95.9726665, 36.1137151], [-95.9728145, 36.1137149]]]}, "properties": {"osm_id": 974869000, "building": "yes", "name": "", "height": null, "height_m": null, "levels": null, "tract_id": "40143004302", "tract_name": "43.02", "tags": {"addr:city": "Tulsa", "addr:country": "US", "addr:housenumber": "1417", "addr:postcode": "74105", "addr:state": "OK", "addr:street": "East 35th Street South", "building": "yes"}}}, {"type": "Feature", "geometry": {"type": "Polygon", "coordinates": [[[-95.9746995, 36.1135488], [-95.9746987, 36.1136261], [-95.9748118, 36.1136269], [-95.9748117, 36.1136406], [-95.9748434, 36.1136408], [-95.9748442, 36.1135668], [-95.9748111, 36.1135665], [-95.9748112, 36.1135496], [-95.9746995, 36.1135488]]]}, "properties": {"osm_id": 974869001, "building": "yes", "name": "", "height": null, "height_m": null, "levels": null, "tract_id": "40143004302", "tract_name": "43.02", "tags": {"addr:city": "Tulsa", "addr:country": "US", "addr:housenumber": "1319", "addr:postcode": "74105", "addr:state": "OK", "addr:street": "East 35th Street South", "building": "yes"}}}, {"type": "Feature", "geometry": {"type": "Polygon", "coordinates": [[[-95.9750839, 36.1091501], [-95.9749988, 36.1091508], [-95.9749961, 36.1089362], [-95.9750813, 36.1089355], [-95.9750839, 36.1091501]]]}, "properties": {"osm_id": 1018271599, "building": "yes", "name": "", "height": null, "height_m": null, "levels": null, "tract_id": "40143004302", "tract_name": "43.02", "tags": {"building": "yes"}}}, {"type": "Feature", "geometry": {"type": "Polygon", "coordinates": [[[-95.9751031, 36.1091385], [-95.9751023, 36.1089559], [-95.9751473, 36.1089558], [-95.9751473, 36.1089731], [-95.9752844, 36.1089727], [-95.9752847, 36.1090563], [-95.9752852, 36.1091494], [-95.9751838, 36.1091497], [-95.9751839, 36.1091809], [-95.9751286, 36.109181], [-95.9751284, 36.1091384], [-95.9751031, 36.1091385]]]}, "properties": {"osm_id": 1018271600, "building": "yes", "name": "New York Bagel Cafe", "height": null, "height_m": null, "levels": null, "tract_id": "40143004302", "tract_name": "43.02", "tags": {"addr:city": "Tulsa", "addr:housenumber": "3723", "addr:postcode": "74105", "addr:state": "OK", "addr:street": "South Peoria Avenue East", "amenity": "cafe", "building": "yes", "cuisine": "bagel;coffee_shop", "facebook": "https://www.facebook.com/Old-School-Bagel-Cafe-South-Tulsa-879560832157804", "mapillary": "181619227519462", "name": "New York Bagel Cafe", "source:feature": "Mapillary 2021-11-17", "survey:date": "2021-11-17", "website": "https://oldschoolbageltulsa.com/"}}}, {"type": "Feature", "geometry": {"type": "Polygon", "coordinates": [[[-95.966848, 36.1183152], [-95.9669197, 36.118261], [-95.9668618, 36.118211], [-95.9668789, 36.118198], [-95.966742, 36.11808], [-95.966701, 36.118111], [-95.966674, 36.1180878], [-95.9666262, 36.118124], [-95.966848, 36.1183152]]]}, "properties": {"osm_id": 1076200596, "building": "detached", "name": "", "height": null, "height_m": null, "levels": null, "tract_id": "40143004302", "tract_name": "43.02", "tags": {"addr:city": "Tulsa", "addr:country": "US", "addr:housenumber": "3110", "addr:postcode": "74105", "addr:state": "OK", "addr:street": "South Victor Avenue East", "building": "detached"}}}, {"type": "Feature", "geometry": {"type": "Polygon", "coordinates": [[[-95.9669091, 36.118003], [-95.966908, 36.117934], [-95.9668029, 36.1179351], [-95.9668025, 36.1179086], [-95.9668728, 36.1179079], [-95.9668707, 36.1177754], [-95.9667575, 36.1177766], [-95.96676, 36.117935], [-95.9666906, 36.1179357], [-95.9666917, 36.1180053], [-95.9669091, 36.118003]]]}, "properties": {"osm_id": 1076200597, "building": "detached", "name": "", "height": null, "height_m": null, "levels": null, "tract_id": "40143004302", "tract_name": "43.02", "tags": {"addr:city": "Tulsa", "addr:country": "US", "addr:housenumber": "3121", "addr:postcode": "74105", "addr:state": "OK", "addr:street": "South Utica Avenue East", "building": "detached"}}}, {"type": "Feature", "geometry": {"type": "Polygon", "coordinates": [[[-95.9668507, 36.1173738], [-95.9668551, 36.1172429], [-95.9668111, 36.1172419], [-95.9668116, 36.1172286], [-95.9667348, 36.1172269], [-95.9667288, 36.1174028], [-95.9667156, 36.1174025], [-95.9667145, 36.1174356], [-95.966778, 36.117437], [-95.9667802, 36.1173722], [-95.9668507, 36.1173738]]]}, "properties": {"osm_id": 1076200598, "building": "detached", "name": "", "height": null, "height_m": null, "levels": null, "tract_id": "40143004302", "tract_name": "43.02", "tags": {"addr:city": "Tulsa", "addr:country": "US", "addr:housenumber": "3137", "addr:postcode": "74105", "addr:state": "OK", "addr:street": "South Utica Avenue East", "building": "detached"}}}, {"type": "Feature", "geometry": {"type": "Polygon", "coordinates": [[[-95.966618, 36.117136], [-95.966497, 36.117135], [-95.966496, 36.117188], [-95.966616, 36.117189], [-95.966618, 36.117136]]]}, "properties": {"osm_id": 1076200599, "building": "garage", "name": "", "height": null, "height_m": null, "levels": null, "tract_id": "40143004302", "tract_name": "43.02", "tags": {"building": "garage", "source": "microsoft/BuildingFootprints"}}}, {"type": "Feature", "geometry": {"type": "Polygon", "coordinates": [[[-95.9667187, 36.1171172], [-95.9667418, 36.1171174], [-95.9667412, 36.1171691], [-95.9668367, 36.1171698], [-95.9668373, 36.1171252], [-95.9668625, 36.1171254], [-95.9668639, 36.1170093], [-95.96672, 36.1170082], [-95.9667187, 36.1171172]]]}, "properties": {"osm_id": 1076200600, "building": "detached", "name": "", "height": null, "height_m": null, "levels": null, "tract_id": "40143004302", "tract_name": "43.02", "tags": {"addr:city": "Tulsa", "addr:country": "US", "addr:housenumber": "3141", "addr:postcode": "74105", "addr:state": "OK", "addr:street": "South Utica Avenue East", "building": "detached"}}}, {"type": "Feature", "geometry": {"type": "Polygon", "coordinates": [[[-95.9663514, 36.117044], [-95.9662514, 36.117043], [-95.9662534, 36.1169647], [-95.9661504, 36.1169637], [-95.9661474, 36.1171943], [-95.9663291, 36.1171953], [-95.9663296, 36.1171411], [-95.9663012, 36.1171404], [-95.9663012, 36.117101], [-95.9663494, 36.117102], [-95.9663514, 36.117044]]]}, "properties": {"osm_id": 1076200601, "building": "detached", "name": "", "height": null, "height_m": null, "levels": null, "tract_id": "40143004302", "tract_name": "43.02", "tags": {"addr:city": "Tulsa", "addr:country": "US", "addr:housenumber": "3206", "addr:postcode": "74105", "addr:state": "OK", "addr:street": "South Victor Avenue East", "building": "detached"}}}, {"type": "Feature", "geometry": {"type": "Polygon", "coordinates": [[[-95.9664, 36.116708], [-95.966156, 36.116703], [-95.966154, 36.116766], [-95.966131, 36.116765], [-95.966129, 36.116852], [-95.966261, 36.116855], [-95.966259, 36.116935], [-95.966368, 36.116937], [-95.966372, 36.116838], [-95.966318, 36.116836], [-95.96632, 36.116777], [-95.966398, 36.116779], [-95.9664, 36.116708]]]}, "properties": {"osm_id": 1076200602, "building": "detached", "name": "", "height": null, "height_m": null, "levels": null, "tract_id": "40143004302", "tract_name": "43.02", "tags": {"addr:city": "Tulsa", "addr:country": "US", "addr:housenumber": "3214", "addr:postcode": "74105", "addr:state": "OK", "addr:street": "South Victor Avenue East", "building": "detached"}}}, {"type": "Feature", "geometry": {"type": "Polygon", "coordinates": [[[-95.9668587, 36.1166655], [-95.9667421, 36.1166654], [-95.9667422, 36.1165906], [-95.9666451, 36.1165905], [-95.9666452, 36.1165454], [-95.9667381, 36.1165455], [-95.9667381, 36.1165318], [-95.966859, 36.1165319], [-95.9668587, 36.1166655]]]}, "properties": {"osm_id": 1076200604, "building": "yes", "name": "", "height": null, "height_m": null, "levels": null, "tract_id": "40143004302", "tract_name": "43.02", "tags": {"addr:city": "Tulsa", "addr:country": "US", "addr:housenumber": "1707", "addr:postcode": "74105", "addr:state": "OK", "addr:street": "East 32nd Place", "building": "yes", "source": "microsoft/BuildingFootprints"}}}, {"type": "Feature", "geometry": {"type": "Polygon", "coordinates": [[[-95.9668492, 36.1158711], [-95.9667209, 36.1158729], [-95.9667231, 36.1159741], [-95.9667313, 36.1159739], [-95.9667327, 36.1160413], [-95.9668528, 36.1160397], [-95.9668492, 36.1158711]]]}, "properties": {"osm_id": 1076200605, "building": "detached", "name": "", "height": null, "height_m": null, "levels": null, "tract_id": "40143004302", "tract_name": "43.02", "tags": {"addr:city": "Tulsa", "addr:country": "US", "addr:housenumber": "3211", "addr:postcode": "74105", "addr:state": "OK", "addr:street": "South Utica Avenue East", "building": "detached"}}}, {"type": "Feature", "geometry": {"type": "Polygon", "coordinates": [[[-95.966589, 36.116068], [-95.966511, 36.116065], [-95.966505, 36.116204], [-95.966583, 36.116206], [-95.966589, 36.116068]]]}, "properties": {"osm_id": 1076200607, "building": "garage", "name": "", "height": null, "height_m": null, "levels": null, "tract_id": "40143004302", "tract_name": "43.02", "tags": {"building": "garage", "source": "microsoft/BuildingFootprints"}}}, {"type": "Feature", "geometry": {"type": "Polygon", "coordinates": [[[-95.9668459, 36.1157649], [-95.9668481, 36.1156666], [-95.9667072, 36.1156644], [-95.9667058, 36.1157248], [-95.966731, 36.1157252], [-95.966729, 36.1158131], [-95.9667869, 36.1158139], [-95.9667881, 36.1157641], [-95.9668459, 36.1157649]]]}, "properties": {"osm_id": 1076200608, "building": "detached", "name": "", "height": null, "height_m": null, "levels": null, "tract_id": "40143004302", "tract_name": "43.02", "tags": {"addr:city": "Tulsa", "addr:country": "US", "addr:housenumber": "3219", "addr:postcode": "74105", "addr:state": "OK", "addr:street": "South Utica Avenue East", "building": "detached"}}}, {"type": "Feature", "geometry": {"type": "Polygon", "coordinates": [[[-95.966621, 36.115578], [-95.966774, 36.115576], [-95.966773, 36.115497], [-95.966848, 36.115496], [-95.966846, 36.115423], [-95.966619, 36.115426], [-95.966621, 36.115578]]]}, "properties": {"osm_id": 1076200609, "building": "detached", "name": "", "height": null, "height_m": null, "levels": null, "tract_id": "40143004302", "tract_name": "43.02", "tags": {"addr:city": "Tulsa", "addr:country": "US", "addr:housenumber": "3223", "addr:postcode": "74105", "addr:state": "OK", "addr:street": "South Utica Avenue East", "building": "detached"}}}, {"type": "Feature", "geometry": {"type": "Polygon", "coordinates": [[[-95.966654, 36.115231], [-95.966651, 36.11538], [-95.966734, 36.115381], [-95.966735, 36.115318], [-95.966825, 36.115319], [-95.966827, 36.115233], [-95.966654, 36.115231]]]}, "properties": {"osm_id": 1076200610, "building": "detached", "name": "", "height": null, "height_m": null, "levels": null, "tract_id": "40143004302", "tract_name": "43.02", "tags": {"addr:city": "Tulsa", "addr:country": "US", "addr:housenumber": "3231", "addr:postcode": "74105", "addr:state": "OK", "addr:street": "South Utica Avenue East", "building": "detached"}}}, {"type": "Feature", "geometry": {"type": "Polygon", "coordinates": [[[-95.966056, 36.115453], [-95.966277, 36.115553], [-95.966254, 36.115585], [-95.966394, 36.115648], [-95.966438, 36.115585], [-95.96635, 36.115545], [-95.966378, 36.115505], [-95.966105, 36.115382], [-95.966056, 36.115453]]]}, "properties": {"osm_id": 1076200611, "building": "yes", "name": "", "height": null, "height_m": null, "levels": null, "tract_id": "40143004302", "tract_name": "43.02", "tags": {"addr:city": "Tulsa", "addr:country": "US", "addr:housenumber": "3248", "addr:postcode": "74105", "addr:state": "OK", "addr:street": "South Victor Avenue East", "building": "yes"}}}, {"type": "Feature", "geometry": {"type": "Polygon", "coordinates": [[[-95.96601, 36.11534], [-95.965912, 36.11534], [-95.965911, 36.115221], [-95.965803, 36.115222], [-95.965804, 36.115449], [-95.965927, 36.115449], [-95.965928, 36.115508], [-95.966011, 36.115508], [-95.96601, 36.11534]]]}, "properties": {"osm_id": 1076200612, "building": "yes", "name": "", "height": null, "height_m": null, "levels": null, "tract_id": "40143004302", "tract_name": "43.02", "tags": {"addr:city": "Tulsa", "addr:country": "US", "addr:housenumber": "3252", "addr:postcode": "74105", "addr:state": "OK", "addr:street": "South Victor Avenue East", "building": "yes"}}}, {"type": "Feature", "geometry": {"type": "Polygon", "coordinates": [[[-95.965736, 36.115358], [-95.96566, 36.115261], [-95.965608, 36.115288], [-95.965591, 36.115266], [-95.965504, 36.115312], [-95.965444, 36.115236], [-95.965362, 36.115279], [-95.965483, 36.115431], [-95.965556, 36.115394], [-95.965588, 36.115435], [-95.965736, 36.115358]]]}, "properties": {"osm_id": 1076200613, "building": "yes", "name": "", "height": null, "height_m": null, "levels": null, "tract_id": "40143004302", "tract_name": "43.02", "tags": {"addr:city": "Tulsa", "addr:country": "US", "addr:housenumber": "3245", "addr:postcode": "74105", "addr:state": "OK", "addr:street": "South Victor Avenue East", "building": "yes"}}}, {"type": "Feature", "geometry": {"type": "Polygon", "coordinates": [[[-95.965305, 36.115625], [-95.965308, 36.115511], [-95.965205, 36.115509], [-95.965204, 36.115528], [-95.965144, 36.115527], [-95.965145, 36.115502], [-95.964972, 36.115499], [-95.964968, 36.115615], [-95.965059, 36.115616], [-95.965058, 36.115649], [-95.96518, 36.115651], [-95.965181, 36.115622], [-95.965305, 36.115625]]]}, "properties": {"osm_id": 1076200614, "building": "yes", "name": "", "height": null, "height_m": null, "levels": null, "tract_id": "40143004302", "tract_name": "43.02", "tags": {"addr:city": "Tulsa", "addr:country": "US", "addr:housenumber": "1822", "addr:postcode": "74105", "addr:state": "OK", "addr:street": "East 32nd Place", "building": "yes", "source": "microsoft/BuildingFootprints"}}}, {"type": "Feature", "geometry": {"type": "Polygon", "coordinates": [[[-95.965372, 36.115762], [-95.96537, 36.115822], [-95.965523, 36.115825], [-95.965519, 36.115949], [-95.965576, 36.11595], [-95.965576, 36.115937], [-95.965659, 36.115939], [-95.96566, 36.115907], [-95.965702, 36.115908], [-95.965703, 36.115863], [-95.965663, 36.115863], [-95.965664, 36.115828], [-95.965705, 36.115829], [-95.965707, 36.115768], [-95.965372, 36.115762]]]}, "properties": {"osm_id": 1076200615, "building": "yes", "name": "", "height": null, "height_m": null, "levels": null, "tract_id": "40143004302", "tract_name": "43.02", "tags": {"addr:city": "Tulsa", "addr:country": "US", "addr:housenumber": "1810", "addr:postcode": "74105", "addr:state": "OK", "addr:street": "East 32nd Place", "building": "yes", "source": "microsoft/BuildingFootprints"}}}, {"type": "Feature", "geometry": {"type": "Polygon", "coordinates": [[[-95.966372, 36.115983], [-95.966372, 36.115934], [-95.966341, 36.115935], [-95.96634, 36.11587], [-95.966261, 36.115871], [-95.96626, 36.115823], [-95.966142, 36.115823], [-95.966144, 36.115915], [-95.966161, 36.115915], [-95.966162, 36.115984], [-95.966372, 36.115983]]]}, "properties": {"osm_id": 1076200616, "building": "yes", "name": "", "height": null, "height_m": null, "levels": null, "tract_id": "40143004302", "tract_name": "43.02", "tags": {"addr:city": "Tulsa", "addr:country": "US", "addr:housenumber": "3238", "addr:postcode": "74105", "addr:state": "OK", "addr:street": "South Victor Avenue East", "building": "yes"}}}, {"type": "Feature", "geometry": {"type": "Polygon", "coordinates": [[[-95.966464, 36.116206], [-95.966465, 36.116133], [-95.966311, 36.116131], [-95.966312, 36.116093], [-95.96618, 36.116092], [-95.966179, 36.116142], [-95.966146, 36.116142], [-95.966147, 36.116066], [-95.966078, 36.116065], [-95.966075, 36.116197], [-95.966227, 36.116198], [-95.966226, 36.116204], [-95.966464, 36.116206]]]}, "properties": {"osm_id": 1076200617, "building": "yes", "name": "", "height": null, "height_m": null, "levels": null, "tract_id": "40143004302", "tract_name": "43.02", "tags": {"addr:city": "Tulsa", "addr:country": "US", "addr:housenumber": "1720", "addr:postcode": "74105", "addr:state": "OK", "addr:street": "East 32nd Place", "building": "yes", "source": "microsoft/BuildingFootprints"}}}, {"type": "Feature", "geometry": {"type": "Polygon", "coordinates": [[[-95.965302, 36.116387], [-95.965435, 36.116442], [-95.965451, 36.116475], [-95.965431, 36.116506], [-95.96549, 36.116531], [-95.965524, 36.116477], [-95.965581, 36.116595], [-95.965695, 36.116559], [-95.965658, 36.116482], [-95.965617, 36.116466], [-95.96564, 36.116429], [-95.965577, 36.116403], [-95.9656, 36.116368], [-95.965586, 36.11634], [-95.965536, 36.116356], [-95.96548, 36.116333], [-95.965456, 36.11634], [-95.965357, 36.1163], [-95.965302, 36.116387]]]}, "properties": {"osm_id": 1076200618, "building": "yes", "name": "", "height": null, "height_m": null, "levels": null, "tract_id": "40143004302", "tract_name": "43.02", "tags": {"addr:city": "Tulsa", "addr:country": "US", "addr:housenumber": "1805", "addr:postcode": "74105", "addr:state": "OK", "addr:street": "East 32nd Place", "building": "yes"}}}, {"type": "Feature", "geometry": {"type": "Polygon", "coordinates": [[[-95.96501, 36.116295], [-95.965233, 36.116372], [-95.965282, 36.116278], [-95.965196, 36.116249], [-95.965219, 36.116205], [-95.965055, 36.116148], [-95.965023, 36.116211], [-95.96505, 36.11622], [-95.96501, 36.116295]]]}, "properties": {"osm_id": 1076200619, "building": "yes", "name": "", "height": null, "height_m": null, "levels": null, "tract_id": "40143004302", "tract_name": "43.02", "tags": {"addr:city": "Tulsa", "addr:country": "US", "addr:housenumber": "1815", "addr:postcode": "74105", "addr:state": "OK", "addr:street": "East 32nd Place", "building": "yes"}}}, {"type": "Feature", "geometry": {"type": "Polygon", "coordinates": [[[-95.964769, 36.1163], [-95.964735, 36.116375], [-95.964847, 36.116407], [-95.96488, 36.116332], [-95.964769, 36.1163]]]}, "properties": {"osm_id": 1076200620, "building": "yes", "name": "", "height": null, "height_m": null, "levels": null, "tract_id": "40143004302", "tract_name": "43.02", "tags": {"building": "yes"}}}, {"type": "Feature", "geometry": {"type": "Polygon", "coordinates": [[[-95.964725, 36.116068], [-95.964676, 36.116167], [-95.964833, 36.116217], [-95.964823, 36.116238], [-95.964879, 36.116256], [-95.96496, 36.116091], [-95.96483, 36.11605], [-95.964808, 36.116094], [-95.964725, 36.116068]]]}, "properties": {"osm_id": 1076200621, "building": "yes", "name": "", "height": null, "height_m": null, "levels": null, "tract_id": "40143004302", "tract_name": "43.02", "tags": {"addr:city": "Tulsa", "addr:country": "US", "addr:housenumber": "1821", "addr:postcode": "74105", "addr:state": "OK", "addr:street": "East 32nd Place", "building": "yes"}}}, {"type": "Feature", "geometry": {"type": "Polygon", "coordinates": [[[-95.964662, 36.11611], [-95.964703, 36.11601], [-95.964455, 36.115945], [-95.964413, 36.116049], [-95.964598, 36.116097], [-95.964599, 36.116093], [-95.964662, 36.11611]]]}, "properties": {"osm_id": 1076200622, "building": "yes", "name": "", "height": null, "height_m": null, "levels": null, "tract_id": "40143004302", "tract_name": "43.02", "tags": {"addr:city": "Tulsa", "addr:country": "US", "addr:housenumber": "1833", "addr:postcode": "74105", "addr:state": "OK", "addr:street": "East 32nd Place", "building": "yes"}}}, {"type": "Feature", "geometry": {"type": "Polygon", "coordinates": [[[-95.964337, 36.115955], [-95.96428, 36.115949], [-95.964289, 36.115893], [-95.964098, 36.115871], [-95.964077, 36.115993], [-95.964326, 36.116021], [-95.964337, 36.115955]]]}, "properties": {"osm_id": 1076200623, "building": "yes", "name": "", "height": null, "height_m": null, "levels": null, "tract_id": "40143004302", "tract_name": "43.02", "tags": {"addr:city": "Tulsa", "addr:country": "US", "addr:housenumber": "1839", "addr:postcode": "74105", "addr:state": "OK", "addr:street": "East 32nd Place", "building": "yes"}}}, {"type": "Feature", "geometry": {"type": "Polygon", "coordinates": [[[-95.964938, 36.115505], [-95.964875, 36.115496], [-95.964883, 36.115463], [-95.964745, 36.115443], [-95.964736, 36.115482], [-95.964671, 36.115473], [-95.964652, 36.115559], [-95.964691, 36.115565], [-95.964686, 36.115588], [-95.964811, 36.115606], [-95.96482, 36.115562], [-95.964922, 36.115577], [-95.964938, 36.115505]]]}, "properties": {"osm_id": 1076200624, "building": "yes", "name": "", "height": null, "height_m": null, "levels": null, "tract_id": "40143004302", "tract_name": "43.02", "tags": {"addr:city": "Tulsa", "addr:country": "US", "addr:housenumber": "1828", "addr:postcode": "74105", "addr:state": "OK", "addr:street": "East 32nd Place", "building": "yes", "source": "microsoft/BuildingFootprints"}}}, {"type": "Feature", "geometry": {"type": "Polygon", "coordinates": [[[-95.964266, 36.11554], [-95.964482, 36.11554], [-95.964482, 36.115599], [-95.964562, 36.115599], [-95.964562, 36.115404], [-95.964418, 36.115403], [-95.964418, 36.115423], [-95.96434, 36.115423], [-95.96434, 36.115373], [-95.96431, 36.115373], [-95.96431, 36.115416], [-95.964266, 36.115416], [-95.964266, 36.11554]]]}, "properties": {"osm_id": 1076200625, "building": "yes", "name": "", "height": null, "height_m": null, "levels": null, "tract_id": "40143004302", "tract_name": "43.02", "tags": {"addr:city": "Tulsa", "addr:country": "US", "addr:housenumber": "1836", "addr:postcode": "74105", "addr:state": "OK", "addr:street": "East 32nd Place", "building": "yes", "source": "microsoft/BuildingFootprints"}}}, {"type": "Feature", "geometry": {"type": "Polygon", "coordinates": [[[-95.964626, 36.115406], [-95.9647, 36.115423], [-95.96474, 36.115313], [-95.964665, 36.115296], [-95.964626, 36.115406]]]}, "properties": {"osm_id": 1076200626, "building": "yes", "name": "", "height": null, "height_m": null, "levels": null, "tract_id": "40143004302", "tract_name": "43.02", "tags": {"building": "yes", "source": "microsoft/BuildingFootprints"}}}, {"type": "Feature", "geometry": {"type": "Polygon", "coordinates": [[[-95.964191, 36.115505], [-95.964196, 36.115298], [-95.96415, 36.115298], [-95.964153, 36.115187], [-95.964074, 36.115186], [-95.964071, 36.115277], [-95.964, 36.115276], [-95.963999, 36.115351], [-95.964098, 36.115352], [-95.964097, 36.115403], [-95.963936, 36.115401], [-95.963934, 36.115502], [-95.964191, 36.115505]]]}, "properties": {"osm_id": 1076200627, "building": "yes", "name": "", "height": null, "height_m": null, "levels": null, "tract_id": "40143004302", "tract_name": "43.02", "tags": {"addr:city": "Tulsa", "addr:country": "US", "addr:housenumber": "1842", "addr:postcode": "74105", "addr:state": "OK", "addr:street": "East 32nd Place", "building": "yes", "source": "microsoft/BuildingFootprints"}}}, {"type": "Feature", "geometry": {"type": "Polygon", "coordinates": [[[-95.963539, 36.115339], [-95.963532, 36.11547], [-95.963645, 36.115474], [-95.963645, 36.115464], [-95.963896, 36.115472], [-95.9639, 36.115377], [-95.963808, 36.115374], [-95.96381, 36.115341], [-95.96374, 36.115339], [-95.963745, 36.115246], [-95.963691, 36.115244], [-95.963689, 36.115277], [-95.963648, 36.115276], [-95.963645, 36.115343], [-95.963539, 36.115339]]]}, "properties": {"osm_id": 1076200628, "building": "yes", "name": "", "height": null, "height_m": null, "levels": null, "tract_id": "40143004302", "tract_name": "43.02", "tags": {"addr:city": "Tulsa", "addr:country": "US", "addr:housenumber": "1850", "addr:postcode": "74105", "addr:state": "OK", "addr:street": "East 32nd Place", "building": "yes", "source": "microsoft/BuildingFootprints"}}}, {"type": "Feature", "geometry": {"type": "Polygon", "coordinates": [[[-95.963028, 36.115224], [-95.963011, 36.115415], [-95.963141, 36.115422], [-95.963137, 36.115462], [-95.963204, 36.115466], [-95.963207, 36.115436], [-95.963256, 36.115439], [-95.963255, 36.115454], [-95.963447, 36.115465], [-95.963461, 36.115296], [-95.963363, 36.115291], [-95.963354, 36.115392], [-95.963318, 36.11539], [-95.963326, 36.115293], [-95.963249, 36.115289], [-95.963242, 36.115371], [-95.963176, 36.115367], [-95.963188, 36.115233], [-95.963028, 36.115224]]]}, "properties": {"osm_id": 1076200629, "building": "yes", "name": "", "height": null, "height_m": null, "levels": null, "tract_id": "40143004302", "tract_name": "43.02", "tags": {"addr:city": "Tulsa", "addr:country": "US", "addr:housenumber": "2108", "addr:postcode": "74105", "addr:state": "OK", "addr:street": "East 32nd Place", "building": "yes", "source": "microsoft/BuildingFootprints"}}}, {"type": "Feature", "geometry": {"type": "Polygon", "coordinates": [[[-95.962996, 36.115472], [-95.962995, 36.115414], [-95.9629565, 36.115414], [-95.962914, 36.115414], [-95.962913, 36.115327], [-95.962858, 36.115328], [-95.962859, 36.115367], [-95.962742, 36.115368], [-95.962744, 36.115475], [-95.9629565, 36.1154725], [-95.962996, 36.115472]]]}, "properties": {"osm_id": 1076200630, "building": "yes", "name": "", "height": null, "height_m": null, "levels": null, "tract_id": "40143004302", "tract_name": "43.02", "tags": {"addr:city": "Tulsa", "addr:country": "US", "addr:housenumber": "2116", "addr:postcode": "74105", "addr:state": "OK", "addr:street": "East 32nd Place", "building": "yes", "source": "microsoft/BuildingFootprints"}}}, {"type": "Feature", "geometry": {"type": "Polygon", "coordinates": [[[-95.962994, 36.115214], [-95.962931, 36.115213], [-95.962928, 36.115313], [-95.962991, 36.115315], [-95.962994, 36.115214]]]}, "properties": {"osm_id": 1076200631, "building": "yes", "name": "", "height": null, "height_m": null, "levels": null, "tract_id": "40143004302", "tract_name": "43.02", "tags": {"building": "yes", "source": "microsoft/BuildingFootprints"}}}, {"type": "Feature", "geometry": {"type": "Polygon", "coordinates": [[[-95.962597, 36.11546], [-95.962395, 36.115465], [-95.962397, 36.11552], [-95.962449, 36.115519], [-95.962451, 36.115555], [-95.962632, 36.11555], [-95.96263, 36.115517], [-95.962678, 36.115516], [-95.962674, 36.11542], [-95.962595, 36.115423], [-95.962597, 36.11546]]]}, "properties": {"osm_id": 1076200632, "building": "yes", "name": "", "height": null, "height_m": null, "levels": null, "tract_id": "40143004302", "tract_name": "43.02", "tags": {"addr:city": "Tulsa", "addr:country": "US", "addr:housenumber": "2124", "addr:postcode": "74105", "addr:state": "OK", "addr:street": "East 32nd Place", "building": "yes", "source": "microsoft/BuildingFootprints"}}}, {"type": "Feature", "geometry": {"type": "Polygon", "coordinates": [[[-95.962011, 36.115648], [-95.962218, 36.115596], [-95.962206, 36.115564], [-95.962301, 36.11554], [-95.962266, 36.115447], [-95.962147, 36.115477], [-95.962155, 36.115498], [-95.961972, 36.115544], [-95.962011, 36.115648]]]}, "properties": {"osm_id": 1076200633, "building": "yes", "name": "", "height": null, "height_m": null, "levels": null, "tract_id": "40143004302", "tract_name": "43.02", "tags": {"addr:city": "Tulsa", "addr:country": "US", "addr:housenumber": "2132", "addr:postcode": "74105", "addr:state": "OK", "addr:street": "East 32nd Place", "building": "yes", "source": "microsoft/BuildingFootprints"}}}, {"type": "Feature", "geometry": {"type": "Polygon", "coordinates": [[[-95.9614062, 36.1155082], [-95.9614908, 36.1154048], [-95.9614068, 36.11536], [-95.9613599, 36.1154173], [-95.9612544, 36.1153609], [-95.9613017, 36.115303], [-95.9612363, 36.115268], [-95.9612121, 36.1152976], [-95.9611798, 36.1152804], [-95.9611414, 36.1153273], [-95.9611633, 36.115339], [-95.9611195, 36.1153925], [-95.9610975, 36.1153808], [-95.9610595, 36.1154272], [-95.9610803, 36.1154382], [-95.9610487, 36.1154768], [-95.9611221, 36.1155161], [-95.961169, 36.1154587], [-95.9612728, 36.1155141], [-95.9612221, 36.115576], [-95.9612968, 36.1156159], [-95.9613392, 36.1155641], [-95.9614679, 36.1156329], [-95.9615202, 36.115569], [-95.9614062, 36.1155082]]]}, "properties": {"osm_id": 1076200634, "building": "detached", "name": "", "height": null, "height_m": null, "levels": null, "tract_id": "40143004302", "tract_name": "43.02", "tags": {"addr:city": "Tulsa", "addr:country": "US", "addr:housenumber": "3232", "addr:postcode": "74105", "addr:state": "OK", "addr:street": "South Zunis Avenue East", "building": "detached"}}}, {"type": "Feature", "geometry": {"type": "Polygon", "coordinates": [[[-95.960389, 36.115287], [-95.960387, 36.11538], [-95.960466, 36.115381], [-95.960468, 36.115288], [-95.960389, 36.115287]]]}, "properties": {"osm_id": 1076200636, "building": "yes", "name": "", "height": null, "height_m": null, "levels": null, "tract_id": "40143004302", "tract_name": "43.02", "tags": {"building": "yes", "source": "microsoft/BuildingFootprints"}}}, {"type": "Feature", "geometry": {"type": "Polygon", "coordinates": [[[-95.960603, 36.115953], [-95.960783, 36.115953], [-95.960783, 36.115892], [-95.960716, 36.115892], [-95.960716, 36.115842], [-95.960783, 36.115842], [-95.960783, 36.115771], [-95.960665, 36.115771], [-95.960665, 36.1157338], [-95.960665, 36.115704], [-95.960579, 36.115704], [-95.960579, 36.1157345], [-95.960579, 36.115762], [-95.960499, 36.115762], [-95.960499, 36.115812], [-95.960389, 36.115812], [-95.960389, 36.115881], [-95.960482, 36.115881], [-95.960482, 36.115864], [-95.960603, 36.115864], [-95.960603, 36.115953]]]}, "properties": {"osm_id": 1076200637, "building": "detached", "name": "", "height": null, "height_m": null, "levels": null, "tract_id": "40143004302", "tract_name": "43.02", "tags": {"addr:city": "Tulsa", "addr:country": "US", "addr:housenumber": "3229", "addr:postcode": "74105", "addr:state": "OK", "addr:street": "South Zunis Avenue East", "building": "detached"}}}, {"type": "Feature", "geometry": {"type": "Polygon", "coordinates": [[[-95.961443, 36.115755], [-95.961231, 36.115813], [-95.961241, 36.115838], [-95.961196, 36.11585], [-95.961224, 36.115918], [-95.961407, 36.115869], [-95.961395, 36.115839], [-95.961469, 36.115818], [-95.961443, 36.115755]]]}, "properties": {"osm_id": 1076200638, "building": "yes", "name": "", "height": null, "height_m": null, "levels": null, "tract_id": "40143004302", "tract_name": "43.02", "tags": {"addr:city": "Tulsa", "addr:country": "US", "addr:housenumber": "2154", "addr:postcode": "74105", "addr:state": "OK", "addr:street": "East 32nd Place", "building": "yes", "source": "microsoft/BuildingFootprints"}}}, {"type": "Feature", "geometry": {"type": "Polygon", "coordinates": [[[-95.9604933, 36.1160879], [-95.9604887, 36.116222], [-95.9606202, 36.116225], [-95.9606208, 36.1162057], [-95.96069, 36.1162073], [-95.960694, 36.1160893], [-95.960761, 36.1160908], [-95.960763, 36.1160347], [-95.9606521, 36.1160323], [-95.9606509, 36.1160646], [-95.9605935, 36.1160634], [-95.9605925, 36.1160901], [-95.9604933, 36.1160879]]]}, "properties": {"osm_id": 1076200639, "building": "detached", "name": "", "height": null, "height_m": null, "levels": null, "tract_id": "40143004302", "tract_name": "43.02", "tags": {"addr:city": "Tulsa", "addr:country": "US", "addr:housenumber": "3221", "addr:postcode": "74105", "addr:state": "OK", "addr:street": "South Zunis Avenue East", "building": "detached"}}}, {"type": "Feature", "geometry": {"type": "Polygon", "coordinates": [[[-95.9604541, 36.1162638], [-95.9604531, 36.1162042], [-95.9604322, 36.1162045], [-95.9604305, 36.1161026], [-95.9603798, 36.1160678], [-95.9603837, 36.1162946], [-95.9604422, 36.1162939], [-95.9604416, 36.116264], [-95.9604541, 36.1162638]]]}, "properties": {"osm_id": 1076200640, "building": "garage", "name": "", "height": null, "height_m": null, "levels": null, "tract_id": "40143004302", "tract_name": "43.02", "tags": {"building": "garage", "source": "microsoft/BuildingFootprints"}}}, {"type": "Feature", "geometry": {"type": "Polygon", "coordinates": [[[-95.960772, 36.116441], [-95.960775, 36.116368], [-95.960472, 36.116361], [-95.96047, 36.116417], [-95.96055, 36.116419], [-95.960549, 36.116458], [-95.960495, 36.116457], [-95.960493, 36.116514], [-95.960587, 36.116516], [-95.960588, 36.116475], [-95.960674, 36.116477], [-95.960675, 36.116439], [-95.960772, 36.116441]]]}, "properties": {"osm_id": 1076200641, "building": "detached", "name": "", "height": null, "height_m": null, "levels": null, "tract_id": "40143004302", "tract_name": "43.02", "tags": {"addr:city": "Tulsa", "addr:country": "US", "addr:housenumber": "3209", "addr:postcode": "74105", "addr:state": "OK", "addr:street": "South Zunis Avenue East", "building": "detached"}}}, {"type": "Feature", "geometry": {"type": "Polygon", "coordinates": [[[-95.96039, 36.116579], [-95.960393, 36.116655], [-95.9605, 36.116653], [-95.960497, 36.116576], [-95.96039, 36.116579]]]}, "properties": {"osm_id": 1076200642, "building": "yes", "name": "", "height": null, "height_m": null, "levels": null, "tract_id": "40143004302", "tract_name": "43.02", "tags": {"building": "yes", "source": "microsoft/BuildingFootprints"}}}, {"type": "Feature", "geometry": {"type": "Polygon", "coordinates": [[[-95.96057, 36.1166479], [-95.9605679, 36.1166992], [-95.9605118, 36.1166977], [-95.9605092, 36.1167601], [-95.9605748, 36.1167619], [-95.9605732, 36.116802], [-95.9606489, 36.116804], [-95.9606501, 36.1167748], [-95.9606998, 36.1167762], [-95.9607012, 36.1167408], [-95.9607565, 36.1167422], [-95.9607585, 36.1166929], [-95.9607252, 36.1166921], [-95.9607268, 36.1166521], [-95.96057, 36.1166479]]]}, "properties": {"osm_id": 1076200643, "building": "detached", "name": "", "height": null, "height_m": null, "levels": null, "tract_id": "40143004302", "tract_name": "43.02", "tags": {"addr:city": "Tulsa", "addr:country": "US", "addr:housenumber": "3207", "addr:postcode": "74105", "addr:state": "OK", "addr:street": "South Zunis Avenue East", "building": "detached"}}}, {"type": "Feature", "geometry": {"type": "Polygon", "coordinates": [[[-95.9607569, 36.116991], [-95.9607591, 36.1168607], [-95.9606251, 36.1168593], [-95.9606239, 36.1169327], [-95.9605785, 36.1169323], [-95.9605775, 36.116989], [-95.9607569, 36.116991]]]}, "properties": {"osm_id": 1076200644, "building": "detached", "name": "", "height": null, "height_m": null, "levels": null, "tract_id": "40143004302", "tract_name": "43.02", "tags": {"addr:city": "Tulsa", "addr:country": "US", "addr:housenumber": "3155", "addr:postcode": "74105", "addr:state": "OK", "addr:street": "South Zunis Avenue East", "building": "detached"}}}, {"type": "Feature", "geometry": {"type": "Polygon", "coordinates": [[[-95.960597, 36.116827], [-95.960487, 36.116825], [-95.960486, 36.116888], [-95.960595, 36.11689], [-95.960597, 36.116827]]]}, "properties": {"osm_id": 1076200645, "building": "yes", "name": "", "height": null, "height_m": null, "levels": null, "tract_id": "40143004302", "tract_name": "43.02", "tags": {"building": "yes", "source": "microsoft/BuildingFootprints"}}}, {"type": "Feature", "geometry": {"type": "Polygon", "coordinates": [[[-95.965656, 36.116723], [-95.965766, 36.116724], [-95.965766, 36.116648], [-95.965656, 36.116647], [-95.965656, 36.116723]]]}, "properties": {"osm_id": 1076201241, "building": "garage", "name": "", "height": null, "height_m": null, "levels": null, "tract_id": "40143004302", "tract_name": "43.02", "tags": {"building": "garage"}}}, {"type": "Feature", "geometry": {"type": "Polygon", "coordinates": [[[-95.965694, 36.116772], [-95.96538, 36.116771], [-95.965379, 36.116936], [-95.965556, 36.116937], [-95.965556, 36.117019], [-95.965623, 36.117019], [-95.965623, 36.117075], [-95.965693, 36.117076], [-95.965694, 36.116772]]]}, "properties": {"osm_id": 1076201242, "building": "detached", "name": "", "height": null, "height_m": null, "levels": null, "tract_id": "40143004302", "tract_name": "43.02", "tags": {"addr:city": "Tulsa", "addr:country": "US", "addr:housenumber": "3211", "addr:postcode": "74105", "addr:state": "OK", "addr:street": "South Victor Avenue East", "building": "detached"}}}, {"type": "Feature", "geometry": {"type": "Polygon", "coordinates": [[[-95.965062, 36.116656], [-95.96504, 36.116764], [-95.965103, 36.116773], [-95.9651, 36.11679], [-95.965203, 36.116804], [-95.965206, 36.116788], [-95.965262, 36.116795], [-95.965289, 36.116669], [-95.965208, 36.116658], [-95.965204, 36.116675], [-95.965062, 36.116656]]]}, "properties": {"osm_id": 1076201243, "building": "yes", "name": "", "height": null, "height_m": null, "levels": null, "tract_id": "40143004302", "tract_name": "43.02", "tags": {"addr:city": "Tulsa", "addr:country": "US", "addr:housenumber": "1820", "addr:postcode": "74105", "addr:state": "OK", "addr:street": "East 32nd Street South", "building": "yes"}}}, {"type": "Feature", "geometry": {"type": "Polygon", "coordinates": [[[-95.964975, 36.116649], [-95.964799, 36.116638], [-95.964802, 36.116606], [-95.96473, 36.116602], [-95.964717, 36.116739], [-95.964794, 36.116744], [-95.964793, 36.116757], [-95.9649, 36.116764], [-95.964902, 36.11674], [-95.964966, 36.116744], [-95.964975, 36.116649]]]}, "properties": {"osm_id": 1076201244, "building": "yes", "name": "", "height": null, "height_m": null, "levels": null, "tract_id": "40143004302", "tract_name": "43.02", "tags": {"addr:city": "Tulsa", "addr:country": "US", "addr:housenumber": "1830", "addr:postcode": "74105", "addr:state": "OK", "addr:street": "East 32nd Street South", "building": "yes"}}}, {"type": "Feature", "geometry": {"type": "Polygon", "coordinates": [[[-95.964404, 36.116742], [-95.964565, 36.11674], [-95.964564, 36.116699], [-95.96466, 36.116698], [-95.964659, 36.116638], [-95.964573, 36.116638], [-95.964573, 36.116669], [-95.964482, 36.11667], [-95.964482, 36.116627], [-95.964402, 36.116628], [-95.964404, 36.116742]]]}, "properties": {"osm_id": 1076201245, "building": "yes", "name": "", "height": null, "height_m": null, "levels": null, "tract_id": "40143004302", "tract_name": "43.02", "tags": {"addr:city": "Tulsa", "addr:country": "US", "addr:housenumber": "1832", "addr:postcode": "74105", "addr:state": "OK", "addr:street": "East 32nd Street South", "building": "yes"}}}, {"type": "Feature", "geometry": {"type": "Polygon", "coordinates": [[[-95.964304, 36.116726], [-95.964305, 36.116604], [-95.96424, 36.116604], [-95.964239, 36.116668], [-95.964189, 36.116667], [-95.96419, 36.116624], [-95.964116, 36.116624], [-95.964115, 36.116738], [-95.964242, 36.116738], [-95.964242, 36.116725], [-95.964304, 36.116726]]]}, "properties": {"osm_id": 1076201246, "building": "yes", "name": "", "height": null, "height_m": null, "levels": null, "tract_id": "40143004302", "tract_name": "43.02", "tags": {"addr:city": "Tulsa", "addr:country": "US", "addr:housenumber": "1840", "addr:postcode": "74105", "addr:state": "OK", "addr:street": "East 32nd Street South", "building": "yes"}}}, {"type": "Feature", "geometry": {"type": "Polygon", "coordinates": [[[-95.964217, 36.116408], [-95.964214, 36.11651], [-95.964332, 36.116512], [-95.964335, 36.116411], [-95.964217, 36.116408]]]}, "properties": {"osm_id": 1076201247, "building": "garage", "name": "", "height": null, "height_m": null, "levels": null, "tract_id": "40143004302", "tract_name": "43.02", "tags": {"building": "garage"}}}, {"type": "Feature", "geometry": {"type": "Polygon", "coordinates": [[[-95.963629, 36.116628], [-95.963627, 36.116744], [-95.964027, 36.116747], [-95.964029, 36.116629], [-95.963787, 36.116627], [-95.963787, 36.116629], [-95.963629, 36.116628]]]}, "properties": {"osm_id": 1076201248, "building": "yes", "name": "", "height": null, "height_m": null, "levels": null, "tract_id": "40143004302", "tract_name": "43.02", "tags": {"addr:city": "Tulsa", "addr:country": "US", "addr:housenumber": "1850", "addr:postcode": "74105", "addr:state": "OK", "addr:street": "East 32nd Street South", "building": "yes"}}}, {"type": "Feature", "geometry": {"type": "Polygon", "coordinates": [[[-95.963684, 36.116294], [-95.963684, 36.116371], [-95.963674, 36.116371], [-95.963674, 36.116481], [-95.963727, 36.116481], [-95.963727, 36.116546], [-95.963899, 36.116546], [-95.963899, 36.116499], [-95.963877, 36.116499], [-95.963877, 36.116294], [-95.963684, 36.116294]]]}, "properties": {"osm_id": 1076201249, "building": "detached", "name": "", "height": null, "height_m": null, "levels": null, "tract_id": "40143004302", "tract_name": "43.02", "tags": {"addr:city": "Tulsa", "addr:country": "US", "addr:housenumber": "3214", "addr:postcode": "74105", "addr:state": "OK", "addr:street": "South Yorktown Avenue East", "building": "detached"}}}, {"type": "Feature", "geometry": {"type": "Polygon", "coordinates": [[[-95.963704, 36.115993], [-95.963967, 36.115997], [-95.963969, 36.115923], [-95.963921, 36.115923], [-95.96392, 36.115942], [-95.963869, 36.115941], [-95.963871, 36.115863], [-95.963844, 36.115863], [-95.963846, 36.115791], [-95.963755, 36.11579], [-95.963754, 36.115816], [-95.963709, 36.115815], [-95.963704, 36.115993]]]}, "properties": {"osm_id": 1076201250, "building": "detached", "name": "", "height": null, "height_m": null, "levels": null, "tract_id": "40143004302", "tract_name": "43.02", "tags": {"addr:city": "Tulsa", "addr:country": "US", "addr:housenumber": "3232", "addr:postcode": "74105", "addr:state": "OK", "addr:street": "South Yorktown Avenue East", "building": "detached"}}}, {"type": "Feature", "geometry": {"type": "Polygon", "coordinates": [[[-95.963925, 36.116049], [-95.963717, 36.116046], [-95.963715, 36.116138], [-95.963674, 36.116138], [-95.963672, 36.116211], [-95.963788, 36.116213], [-95.963787, 36.116267], [-95.963921, 36.116268], [-95.963925, 36.116049]]]}, "properties": {"osm_id": 1076201251, "building": "detached", "name": "", "height": null, "height_m": null, "levels": null, "tract_id": "40143004302", "tract_name": "43.02", "tags": {"addr:city": "Tulsa", "addr:country": "US", "addr:housenumber": "3220", "addr:postcode": "74105", "addr:state": "OK", "addr:street": "South Yorktown Avenue East", "building": "detached"}}}, {"type": "Feature", "geometry": {"type": "Polygon", "coordinates": [[[-95.9630039, 36.116659], [-95.963008, 36.1167678], [-95.9630713, 36.1167662], [-95.9630727, 36.116805], [-95.9631501, 36.116803], [-95.9631489, 36.1167689], [-95.9631838, 36.1167681], [-95.9631822, 36.1167262], [-95.9632013, 36.1167258], [-95.9631987, 36.1166588], [-95.9632251, 36.1166582], [-95.9632229, 36.1165998], [-95.963086, 36.1166032], [-95.963088, 36.116657], [-95.9630039, 36.116659]]]}, "properties": {"osm_id": 1076201252, "building": "detached", "name": "", "height": null, "height_m": null, "levels": null, "tract_id": "40143004302", "tract_name": "43.02", "tags": {"addr:city": "Tulsa", "addr:country": "US", "addr:housenumber": "3207", "addr:postcode": "74105", "addr:state": "OK", "addr:street": "South Yorktown Avenue East", "building": "detached"}}}, {"type": "Feature", "geometry": {"type": "Polygon", "coordinates": [[[-95.9629948, 36.1163002], [-95.9629932, 36.1163643], [-95.963015, 36.1163647], [-95.963013, 36.1164438], [-95.963034, 36.1164442], [-95.963033, 36.1164849], [-95.9631112, 36.1164861], [-95.9631098, 36.1165417], [-95.963209, 36.1165433], [-95.96321, 36.1165019], [-95.9632211, 36.1165021], [-95.9632259, 36.1163038], [-95.9629948, 36.1163002]]]}, "properties": {"osm_id": 1076201253, "building": "detached", "name": "", "height": null, "height_m": null, "levels": null, "tract_id": "40143004302", "tract_name": "43.02", "tags": {"addr:city": "Tulsa", "addr:country": "US", "addr:housenumber": "3215", "addr:postcode": "74105", "addr:state": "OK", "addr:street": "South Yorktown Avenue East", "building": "detached"}}}, {"type": "Feature", "geometry": {"type": "Polygon", "coordinates": [[[-95.962819, 36.115993], [-95.962811, 36.115879], [-95.962568, 36.115889], [-95.962576, 36.116004], [-95.962819, 36.115993]]]}, "properties": {"osm_id": 1076201254, "building": "yes", "name": "", "height": null, "height_m": null, "levels": null, "tract_id": "40143004302", "tract_name": "43.02", "tags": {"addr:city": "Tulsa", "addr:country": "US", "addr:housenumber": "2117", "addr:postcode": "74105", "addr:state": "OK", "addr:street": "East 32nd Place", "building": "yes"}}}, {"type": "Feature", "geometry": {"type": "Polygon", "coordinates": [[[-95.9622572, 36.1159799], [-95.9622688, 36.1160789], [-95.9623724, 36.1160711], [-95.9623816, 36.1161508], [-95.9624668, 36.1161443], [-95.9624773, 36.1162343], [-95.962538, 36.1162297], [-95.962525, 36.1161179], [-95.962469, 36.1161221], [-95.96246, 36.1160451], [-95.9624899, 36.1160429], [-95.9624781, 36.115942], [-95.9624118, 36.115947], [-95.9624142, 36.115968], [-95.9622572, 36.1159799]]]}, "properties": {"osm_id": 1076201255, "building": "yes", "name": "", "height": null, "height_m": null, "levels": null, "tract_id": "40143004302", "tract_name": "43.02", "tags": {"addr:city": "Tulsa", "addr:country": "US", "addr:housenumber": "2125", "addr:postcode": "74105", "addr:state": "OK", "addr:street": "East 32nd Place", "building": "yes"}}}, {"type": "Feature", "geometry": {"type": "Polygon", "coordinates": [[[-95.9621779, 36.1160379], [-95.961929, 36.1160992], [-95.9619622, 36.1161872], [-95.9620738, 36.1161598], [-95.9620852, 36.1161902], [-95.962026, 36.1162048], [-95.9620439, 36.116252], [-95.9621212, 36.116233], [-95.9621087, 36.1161998], [-95.962192, 36.1161793], [-95.9621741, 36.1161319], [-95.9622101, 36.1161231], [-95.9621779, 36.1160379]]]}, "properties": {"osm_id": 1076201256, "building": "yes", "name": "", "height": null, "height_m": null, "levels": null, "tract_id": "40143004302", "tract_name": "43.02", "tags": {"addr:city": "Tulsa", "addr:country": "US", "addr:housenumber": "2133", "addr:postcode": "74105", "addr:state": "OK", "addr:street": "East 32nd Place", "building": "yes"}}}, {"type": "Feature", "geometry": {"type": "Polygon", "coordinates": [[[-95.961548, 36.116232], [-95.961439, 36.116274], [-95.961462, 36.116312], [-95.961292, 36.116378], [-95.961331, 36.116445], [-95.961422, 36.11641], [-95.961437, 36.116435], [-95.961501, 36.11641], [-95.961509, 36.116423], [-95.961573, 36.116399], [-95.961528, 36.116321], [-95.961587, 36.116298], [-95.961548, 36.116232]]]}, "properties": {"osm_id": 1076201257, "building": "yes", "name": "", "height": null, "height_m": null, "levels": null, "tract_id": "40143004302", "tract_name": "43.02", "tags": {"addr:city": "Tulsa", "addr:country": "US", "addr:housenumber": "2151", "addr:postcode": "74105", "addr:state": "OK", "addr:street": "East 32nd Place", "building": "yes"}}}, {"type": "Feature", "geometry": {"type": "Polygon", "coordinates": [[[-95.962061, 36.116633], [-95.962066, 36.116527], [-95.962035, 36.116526], [-95.962038, 36.116456], [-95.961934, 36.116452], [-95.96193, 36.116527], [-95.961999, 36.116529], [-95.961989, 36.11673], [-95.962206, 36.116737], [-95.962211, 36.116638], [-95.962061, 36.116633]]]}, "properties": {"osm_id": 1076201259, "building": "yes", "name": "", "height": null, "height_m": null, "levels": null, "tract_id": "40143004302", "tract_name": "43.02", "tags": {"addr:city": "Tulsa", "addr:country": "US", "addr:housenumber": "2132", "addr:postcode": "74105", "addr:state": "OK", "addr:street": "East 32nd Street South", "building": "yes"}}}, {"type": "Feature", "geometry": {"type": "Polygon", "coordinates": [[[-95.962366, 36.116539], [-95.962303, 36.116537], [-95.962297, 36.116724], [-95.962469, 36.116727], [-95.96247, 36.116701], [-95.9625116, 36.1167017], [-95.962529, 36.116702], [-95.962531, 36.116639], [-95.9625098, 36.1166383], [-95.962469, 36.116637], [-95.962471, 36.116579], [-95.962407, 36.116578], [-95.962405, 36.116623], [-95.962364, 36.116622], [-95.962366, 36.116539]]]}, "properties": {"osm_id": 1076201260, "building": "yes", "name": "", "height": null, "height_m": null, "levels": null, "tract_id": "40143004302", "tract_name": "43.02", "tags": {"addr:city": "Tulsa", "addr:country": "US", "addr:housenumber": "2122", "addr:postcode": "74105", "addr:state": "OK", "addr:street": "East 32nd Street South", "building": "yes"}}}, {"type": "Feature", "geometry": {"type": "Polygon", "coordinates": [[[-95.96285, 36.116669], [-95.96285, 36.116559], [-95.962692, 36.116559], [-95.962692, 36.116657], [-95.962575, 36.116656], [-95.962575, 36.116729], [-95.962754, 36.116729], [-95.962755, 36.116669], [-95.96285, 36.116669]]]}, "properties": {"osm_id": 1076201261, "building": "yes", "name": "", "height": null, "height_m": null, "levels": null, "tract_id": "40143004302", "tract_name": "43.02", "tags": {"addr:city": "Tulsa", "addr:country": "US", "addr:housenumber": "2118", "addr:postcode": "74105", "addr:state": "OK", "addr:street": "East 32nd Street South", "building": "yes"}}}, {"type": "Feature", "geometry": {"type": "Polygon", "coordinates": [[[-95.962233, 36.116364], [-95.962236, 36.11631], [-95.962118, 36.116306], [-95.962115, 36.11636], [-95.962233, 36.116364]]]}, "properties": {"osm_id": 1076201262, "building": "garage", "name": "", "height": null, "height_m": null, "levels": null, "tract_id": "40143004302", "tract_name": "43.02", "tags": {"building": "garage"}}}, {"type": "Feature", "geometry": {"type": "Polygon", "coordinates": [[[-95.962542, 36.116424], [-95.962448, 36.116422], [-95.962446, 36.116506], [-95.96254, 36.116508], [-95.962542, 36.116424]]]}, "properties": {"osm_id": 1076201263, "building": "garage", "name": "", "height": null, "height_m": null, "levels": null, "tract_id": "40143004302", "tract_name": "43.02", "tags": {"building": "garage"}}}, {"type": "Feature", "geometry": {"type": "Polygon", "coordinates": [[[-95.963018, 36.117528], [-95.963016, 36.117704], [-95.963265, 36.117707], [-95.963269, 36.117473], [-95.96313, 36.117471], [-95.963128, 36.117603], [-95.963098, 36.117603], [-95.963099, 36.117529], [-95.963018, 36.117528]]]}, "properties": {"osm_id": 1076201264, "building": "yes", "name": "", "height": null, "height_m": null, "levels": null, "tract_id": "40143004302", "tract_name": "43.02", "tags": {"addr:city": "Tulsa", "addr:country": "US", "addr:housenumber": "2106", "addr:postcode": "74105", "addr:state": "OK", "addr:street": "East 31st Place South", "building": "yes"}}}, {"type": "Feature", "geometry": {"type": "Polygon", "coordinates": [[[-95.962983, 36.117702], [-95.962985, 36.117532], [-95.962909, 36.117532], [-95.962908, 36.117599], [-95.962739, 36.117598], [-95.962738, 36.1177], [-95.962983, 36.117702]]]}, "properties": {"osm_id": 1076201265, "building": "yes", "name": "", "height": null, "height_m": null, "levels": null, "tract_id": "40143004302", "tract_name": "43.02", "tags": {"addr:city": "Tulsa", "addr:country": "US", "addr:housenumber": "2116", "addr:postcode": "74105", "addr:state": "OK", "addr:street": "East 31st Place South", "building": "yes"}}}, {"type": "Feature", "geometry": {"type": "Polygon", "coordinates": [[[-95.962535, 36.117536], [-95.962535, 36.117571], [-95.962494, 36.11757], [-95.962491, 36.117702], [-95.962575, 36.117703], [-95.962575, 36.117684], [-95.962624, 36.117684], [-95.962628, 36.117537], [-95.962535, 36.117536]]]}, "properties": {"osm_id": 1076201266, "building": "yes", "name": "", "height": null, "height_m": null, "levels": null, "tract_id": "40143004302", "tract_name": "43.02", "tags": {"addr:city": "Tulsa", "addr:country": "US", "addr:housenumber": "2122", "addr:postcode": "74105", "addr:state": "OK", "addr:street": "East 31st Place South", "building": "yes"}}}, {"type": "Feature", "geometry": {"type": "Polygon", "coordinates": [[[-95.962337, 36.117272], [-95.962418, 36.117273], [-95.962419, 36.117222], [-95.962489, 36.117223], [-95.962487, 36.117299], [-95.962564, 36.117299], [-95.962566, 36.117216], [-95.962584, 36.117216], [-95.962586, 36.117119], [-95.96242, 36.117117], [-95.96242, 36.117134], [-95.962339, 36.117133], [-95.962337, 36.117272]]]}, "properties": {"osm_id": 1076201267, "building": "yes", "name": "", "height": null, "height_m": null, "levels": null, "tract_id": "40143004302", "tract_name": "43.02", "tags": {"addr:city": "Tulsa", "addr:country": "US", "addr:housenumber": "2121", "addr:postcode": "74105", "addr:state": "OK", "addr:street": "East 32nd Street South", "building": "yes"}}}, {"type": "Feature", "geometry": {"type": "Polygon", "coordinates": [[[-95.962019, 36.117123], [-95.962017, 36.117334], [-95.962084, 36.117334], [-95.962085, 36.117248], [-95.962152, 36.117248], [-95.962152, 36.117279], [-95.962192, 36.117279], [-95.962192, 36.11722], [-95.962233, 36.117221], [-95.962232, 36.117255], [-95.962283, 36.117256], [-95.962284, 36.117156], [-95.962221, 36.117155], [-95.962221, 36.117124], [-95.962019, 36.117123]]]}, "properties": {"osm_id": 1076201268, "building": "yes", "name": "", "height": null, "height_m": null, "levels": null, "tract_id": "40143004302", "tract_name": "43.02", "tags": {"addr:city": "Tulsa", "addr:country": "US", "addr:housenumber": "2137", "addr:postcode": "74105", "addr:state": "OK", "addr:street": "East 32nd Street South", "building": "yes"}}}, {"type": "Feature", "geometry": {"type": "Polygon", "coordinates": [[[-95.961683, 36.117345], [-95.961774, 36.117345], [-95.961775, 36.117252], [-95.961826, 36.117252], [-95.961825, 36.117339], [-95.961884, 36.117339], [-95.961886, 36.117131], [-95.961808, 36.117131], [-95.961808, 36.117155], [-95.961754, 36.117154], [-95.961754, 36.117109], [-95.961684, 36.117109], [-95.961683, 36.117345]]]}, "properties": {"osm_id": 1076201269, "building": "yes", "name": "", "height": null, "height_m": null, "levels": null, "tract_id": "40143004302", "tract_name": "43.02", "tags": {"addr:city": "Tulsa", "addr:country": "US", "addr:housenumber": "2139", "addr:postcode": "74105", "addr:state": "OK", "addr:street": "East 32nd Street South", "building": "yes"}}}, {"type": "Feature", "geometry": {"type": "Polygon", "coordinates": [[[-95.961511, 36.117048], [-95.9614554, 36.1170477], [-95.961312, 36.117047], [-95.961312, 36.117064], [-95.961232, 36.117064], [-95.96123, 36.117237], [-95.961302, 36.117238], [-95.961302, 36.117201], [-95.961399, 36.117201], [-95.9614, 36.117139], [-95.96151, 36.117139], [-95.961511, 36.117048]]]}, "properties": {"osm_id": 1076201270, "building": "detached", "name": "", "height": null, "height_m": null, "levels": null, "tract_id": "40143004302", "tract_name": "43.02", "tags": {"addr:city": "Tulsa", "addr:country": "US", "addr:housenumber": "3150", "addr:postcode": "74105", "addr:state": "OK", "addr:street": "South Zunis Avenue East", "building": "detached"}}}, {"type": "Feature", "geometry": {"type": "Polygon", "coordinates": [[[-95.961428, 36.117302], [-95.961307, 36.117302], [-95.961307, 36.117339], [-95.961226, 36.117339], [-95.961227, 36.117398], [-95.961269, 36.117398], [-95.96127, 36.117463], [-95.961326, 36.117463], [-95.961326, 36.117538], [-95.961465, 36.117538], [-95.961465, 36.117419], [-95.961428, 36.117419], [-95.961428, 36.117302]]]}, "properties": {"osm_id": 1076201271, "building": "detached", "name": "", "height": null, "height_m": null, "levels": null, "tract_id": "40143004302", "tract_name": "43.02", "tags": {"addr:city": "Tulsa", "addr:country": "US", "addr:housenumber": "3140", "addr:postcode": "74105", "addr:state": "OK", "addr:street": "South Zunis Avenue East", "building": "detached"}}}, {"type": "Feature", "geometry": {"type": "Polygon", "coordinates": [[[-95.961221, 36.11769], [-95.961398, 36.117691], [-95.961398, 36.117642], [-95.961511, 36.117642], [-95.961511, 36.117586], [-95.961443, 36.117586], [-95.961443, 36.117607], [-95.961337, 36.117607], [-95.961337, 36.117581], [-95.961222, 36.11758], [-95.961221, 36.11769]]]}, "properties": {"osm_id": 1076201272, "building": "yes", "name": "", "height": null, "height_m": null, "levels": null, "tract_id": "40143004302", "tract_name": "43.02", "tags": {"addr:city": "Tulsa", "addr:country": "US", "addr:housenumber": "2154", "addr:postcode": "74105", "addr:state": "OK", "addr:street": "East 31st Place South", "building": "yes"}}}, {"type": "Feature", "geometry": {"type": "Polygon", "coordinates": [[[-95.961631, 36.117684], [-95.961687, 36.117684], [-95.961688, 36.11771], [-95.961816, 36.117709], [-95.961816, 36.11762], [-95.96174, 36.117621], [-95.96174, 36.117588], [-95.96163, 36.117589], [-95.961631, 36.117684]]]}, "properties": {"osm_id": 1076201273, "building": "yes", "name": "", "height": null, "height_m": null, "levels": null, "tract_id": "40143004302", "tract_name": "43.02", "tags": {"addr:city": "Tulsa", "addr:country": "US", "addr:housenumber": "2140", "addr:postcode": "74105", "addr:state": "OK", "addr:street": "East 31st Place South", "building": "yes"}}}, {"type": "Feature", "geometry": {"type": "Polygon", "coordinates": [[[-95.962088, 36.117628], [-95.962005, 36.11763], [-95.962002, 36.117572], [-95.961945, 36.117574], [-95.96195, 36.117708], [-95.962091, 36.117704], [-95.962088, 36.117628]]]}, "properties": {"osm_id": 1076201274, "building": "yes", "name": "", "height": null, "height_m": null, "levels": null, "tract_id": "40143004302", "tract_name": "43.02", "tags": {"addr:city": "Tulsa", "addr:country": "US", "addr:housenumber": "2134", "addr:postcode": "74105", "addr:state": "OK", "addr:street": "East 31st Place South", "building": "yes"}}}, {"type": "Feature", "geometry": {"type": "Polygon", "coordinates": [[[-95.96216, 36.117706], [-95.9623, 36.117704], [-95.962297, 36.117532], [-95.962173, 36.117533], [-95.962173, 36.117564], [-95.962158, 36.117564], [-95.96216, 36.117706]]]}, "properties": {"osm_id": 1076201275, "building": "yes", "name": "", "height": null, "height_m": null, "levels": null, "tract_id": "40143004302", "tract_name": "43.02", "tags": {"addr:city": "Tulsa", "addr:country": "US", "addr:housenumber": "2128", "addr:postcode": "74105", "addr:state": "OK", "addr:street": "East 31st Place South", "building": "yes"}}}, {"type": "Feature", "geometry": {"type": "Polygon", "coordinates": [[[-95.96207, 36.11756], [-95.962133, 36.117559], [-95.962129, 36.117426], [-95.962065, 36.117427], [-95.96207, 36.11756]]]}, "properties": {"osm_id": 1076201276, "building": "garage", "name": "", "height": null, "height_m": null, "levels": null, "tract_id": "40143004302", "tract_name": "43.02", "tags": {"building": "garage"}}}, {"type": "Feature", "geometry": {"type": "Polygon", "coordinates": [[[-95.962314, 36.117574], [-95.962378, 36.117576], [-95.962385, 36.117463], [-95.962321, 36.117461], [-95.962314, 36.117574]]]}, "properties": {"osm_id": 1076201277, "building": "garage", "name": "", "height": null, "height_m": null, "levels": null, "tract_id": "40143004302", "tract_name": "43.02", "tags": {"building": "garage"}}}, {"type": "Feature", "geometry": {"type": "Polygon", "coordinates": [[[-95.962406, 36.117521], [-95.962405, 36.11758], [-95.962469, 36.117581], [-95.96247, 36.117522], [-95.962406, 36.117521]]]}, "properties": {"osm_id": 1076201278, "building": "garage", "name": "", "height": null, "height_m": null, "levels": null, "tract_id": "40143004302", "tract_name": "43.02", "tags": {"building": "garage"}}}, {"type": "Feature", "geometry": {"type": "Polygon", "coordinates": [[[-95.965672, 36.117709], [-95.965674, 36.117488], [-95.965595, 36.117487], [-95.965594, 36.117557], [-95.96549, 36.117556], [-95.965488, 36.117692], [-95.965516, 36.117693], [-95.965516, 36.117732], [-95.965576, 36.117732], [-95.965577, 36.117709], [-95.965672, 36.117709]]]}, "properties": {"osm_id": 1076201603, "building": "yes", "name": "", "height": null, "height_m": null, "levels": null, "tract_id": "40143004302", "tract_name": "43.02", "tags": {"addr:city": "Tulsa", "addr:country": "US", "addr:housenumber": "1804", "addr:postcode": "74105", "addr:state": "OK", "addr:street": "East 31st Place South", "building": "yes"}}}, {"type": "Feature", "geometry": {"type": "Polygon", "coordinates": [[[-95.965495, 36.117332], [-95.965418, 36.117303], [-95.965408, 36.117321], [-95.965238, 36.117257], [-95.965272, 36.117198], [-95.965206, 36.117173], [-95.965159, 36.117256], [-95.965192, 36.117268], [-95.965163, 36.117317], [-95.965392, 36.117404], [-95.965408, 36.117375], [-95.965459, 36.117394], [-95.965495, 36.117332]]]}, "properties": {"osm_id": 1076201604, "building": "yes", "name": "", "height": null, "height_m": null, "levels": null, "tract_id": "40143004302", "tract_name": "43.02", "tags": {"addr:city": "Tulsa", "addr:country": "US", "addr:housenumber": "1815", "addr:postcode": "74105", "addr:state": "OK", "addr:street": "East 32nd Street South", "building": "yes"}}}, {"type": "Feature", "geometry": {"type": "Polygon", "coordinates": [[[-95.9652068, 36.11746], [-95.9652057, 36.1175122], [-95.9651899, 36.1175119], [-95.9651892, 36.1175668], [-95.965173, 36.1175658], [-95.965171, 36.117679], [-95.965275, 36.117681], [-95.965276, 36.117639], [-95.965349, 36.11764], [-95.96535, 36.117577], [-95.965377, 36.117578], [-95.965379, 36.117456], [-95.9652068, 36.11746]]]}, "properties": {"osm_id": 1076201605, "building": "yes", "name": "", "height": null, "height_m": null, "levels": null, "tract_id": "40143004302", "tract_name": "43.02", "tags": {"addr:city": "Tulsa", "addr:country": "US", "addr:housenumber": "1812", "addr:postcode": "74105", "addr:state": "OK", "addr:street": "East 31st Place South", "building": "yes"}}}, {"type": "Feature", "geometry": {"type": "Polygon", "coordinates": [[[-95.964834, 36.117542], [-95.964832, 36.11761], [-95.964923, 36.117611], [-95.964921, 36.117697], [-95.965064, 36.1177], [-95.965067, 36.117585], [-95.965024, 36.117584], [-95.965026, 36.11752], [-95.964959, 36.117519], [-95.964959, 36.117544], [-95.964834, 36.117542]]]}, "properties": {"osm_id": 1076201606, "building": "yes", "name": "", "height": null, "height_m": null, "levels": null, "tract_id": "40143004302", "tract_name": "43.02", "tags": {"addr:city": "Tulsa", "addr:country": "US", "addr:housenumber": "1824", "addr:postcode": "74105", "addr:state": "OK", "addr:street": "East 31st Place South", "building": "yes"}}}, {"type": "Feature", "geometry": {"type": "Polygon", "coordinates": [[[-95.96452, 36.117685], [-95.964595, 36.117686], [-95.964595, 36.117704], [-95.964731, 36.117706], [-95.964732, 36.117668], [-95.964759, 36.117669], [-95.96476, 36.117604], [-95.964782, 36.117605], [-95.964783, 36.117545], [-95.964681, 36.117544], [-95.96468, 36.117598], [-95.964566, 36.117597], [-95.964566, 36.117582], [-95.964522, 36.117581], [-95.96452, 36.117685]]]}, "properties": {"osm_id": 1076201607, "building": "yes", "name": "", "height": null, "height_m": null, "levels": null, "tract_id": "40143004302", "tract_name": "43.02", "tags": {"addr:city": "Tulsa", "addr:country": "US", "addr:housenumber": "1830", "addr:postcode": "74105", "addr:state": "OK", "addr:street": "East 31st Place South", "building": "yes"}}}, {"type": "Feature", "geometry": {"type": "Polygon", "coordinates": [[[-95.965008, 36.117139], [-95.964864, 36.117139], [-95.964863, 36.117264], [-95.964928, 36.117264], [-95.964927, 36.11734], [-95.96512, 36.117341], [-95.965121, 36.117221], [-95.965008, 36.117221], [-95.965008, 36.117139]]]}, "properties": {"osm_id": 1076201608, "building": "yes", "name": "", "height": null, "height_m": null, "levels": null, "tract_id": "40143004302", "tract_name": "43.02", "tags": {"addr:city": "Tulsa", "addr:country": "US", "addr:housenumber": "1821", "addr:postcode": "74105", "addr:state": "OK", "addr:street": "East 32nd Street South", "building": "yes"}}}, {"type": "Feature", "geometry": {"type": "Polygon", "coordinates": [[[-95.964811, 36.117211], [-95.96474, 36.117212], [-95.964739, 36.117106], [-95.964609, 36.117107], [-95.96461, 36.117207], [-95.964653, 36.117207], [-95.964654, 36.117306], [-95.964724, 36.117305], [-95.964725, 36.117374], [-95.964814, 36.117373], [-95.964811, 36.117211]]]}, "properties": {"osm_id": 1076201609, "building": "yes", "name": "", "height": null, "height_m": null, "levels": null, "tract_id": "40143004302", "tract_name": "43.02", "tags": {"addr:city": "Tulsa", "addr:country": "US", "addr:housenumber": "1829", "addr:postcode": "74105", "addr:state": "OK", "addr:street": "East 32nd Street South", "building": "yes"}}}, {"type": "Feature", "geometry": {"type": "Polygon", "coordinates": [[[-95.964204, 36.117315], [-95.964292, 36.117317], [-95.964292, 36.117334], [-95.964468, 36.117338], [-95.964472, 36.117223], [-95.964405, 36.117222], [-95.964409, 36.117114], [-95.964209, 36.117109], [-95.964207, 36.11717], [-95.964262, 36.117171], [-95.964261, 36.117208], [-95.964207, 36.117207], [-95.964204, 36.117315]]]}, "properties": {"osm_id": 1076201610, "building": "yes", "name": "", "height": null, "height_m": null, "levels": null, "tract_id": "40143004302", "tract_name": "43.02", "tags": {"addr:city": "Tulsa", "addr:country": "US", "addr:housenumber": "1835", "addr:postcode": "74105", "addr:state": "OK", "addr:street": "East 32nd Street South", "building": "yes"}}}, {"type": "Feature", "geometry": {"type": "Polygon", "coordinates": [[[-95.964182, 36.117122], [-95.963928, 36.117118], [-95.963926, 36.117222], [-95.964001, 36.117223], [-95.964, 36.117279], [-95.964069, 36.11728], [-95.96407, 36.117228], [-95.96418, 36.11723], [-95.964182, 36.117122]]]}, "properties": {"osm_id": 1076201611, "building": "yes", "name": "", "height": null, "height_m": null, "levels": null, "tract_id": "40143004302", "tract_name": "43.02", "tags": {"addr:city": "Tulsa", "addr:country": "US", "addr:housenumber": "1843", "addr:postcode": "74105", "addr:state": "OK", "addr:street": "East 32nd Street South", "building": "yes"}}}, {"type": "Feature", "geometry": {"type": "Polygon", "coordinates": [[[-95.963628, 36.117117], [-95.963627, 36.117171], [-95.963688, 36.117172], [-95.963687, 36.117258], [-95.963743, 36.117259], [-95.963742, 36.117328], [-95.963817, 36.117329], [-95.963818, 36.117277], [-95.963866, 36.117278], [-95.963867, 36.117228], [-95.96383, 36.117228], [-95.963832, 36.117119], [-95.963628, 36.117117]]]}, "properties": {"osm_id": 1076201612, "building": "yes", "name": "", "height": null, "height_m": null, "levels": null, "tract_id": "40143004302", "tract_name": "43.02", "tags": {"addr:city": "Tulsa", "addr:country": "US", "addr:housenumber": "1849", "addr:postcode": "74105", "addr:state": "OK", "addr:street": "East 32nd Street South", "building": "yes"}}}, {"type": "Feature", "geometry": {"type": "Polygon", "coordinates": [[[-95.963636, 36.11759], [-95.96363, 36.117676], [-95.963814, 36.117685], [-95.963825, 36.117536], [-95.963731, 36.117531], [-95.963727, 36.117594], [-95.963636, 36.11759]]]}, "properties": {"osm_id": 1076201613, "building": "yes", "name": "", "height": null, "height_m": null, "levels": null, "tract_id": "40143004302", "tract_name": "43.02", "tags": {"addr:city": "Tulsa", "addr:country": "US", "addr:housenumber": "1852", "addr:postcode": "74105", "addr:state": "OK", "addr:street": "East 31st Place South", "building": "yes"}}}, {"type": "Feature", "geometry": {"type": "Polygon", "coordinates": [[[-95.964176, 36.117531], [-95.964089, 36.11753], [-95.964087, 36.117627], [-95.96403, 36.117626], [-95.964032, 36.117477], [-95.963957, 36.117476], [-95.963956, 36.117537], [-95.963916, 36.117536], [-95.963914, 36.117635], [-95.963941, 36.117635], [-95.96394, 36.117714], [-95.964031, 36.117715], [-95.964031, 36.117679], [-95.96409, 36.11768], [-95.96409, 36.117714], [-95.964173, 36.117715], [-95.964176, 36.117531]]]}, "properties": {"osm_id": 1076201614, "building": "yes", "name": "", "height": null, "height_m": null, "levels": null, "tract_id": "40143004302", "tract_name": "43.02", "tags": {"addr:city": "Tulsa", "addr:country": "US", "addr:housenumber": "1844", "addr:postcode": "74105", "addr:state": "OK", "addr:street": "East 31st Place South", "building": "yes"}}}, {"type": "Feature", "geometry": {"type": "Polygon", "coordinates": [[[-95.964259, 36.117705], [-95.96442, 36.117707], [-95.964422, 36.11759], [-95.964261, 36.117588], [-95.964259, 36.117705]]]}, "properties": {"osm_id": 1076201615, "building": "yes", "name": "", "height": null, "height_m": null, "levels": null, "tract_id": "40143004302", "tract_name": "43.02", "tags": {"addr:city": "Tulsa", "addr:country": "US", "addr:housenumber": "1838", "addr:postcode": "74105", "addr:state": "OK", "addr:street": "East 31st Place South", "building": "yes"}}}, {"type": "Feature", "geometry": {"type": "Polygon", "coordinates": [[[-95.964836, 36.117433], [-95.964834, 36.117497], [-95.964911, 36.117498], [-95.964913, 36.117435], [-95.964836, 36.117433]]]}, "properties": {"osm_id": 1076201616, "building": "garage", "name": "", "height": null, "height_m": null, "levels": null, "tract_id": "40143004302", "tract_name": "43.02", "tags": {"building": "garage"}}}, {"type": "Feature", "geometry": {"type": "Polygon", "coordinates": [[[-95.964498, 36.1175], [-95.964436, 36.117499], [-95.964433, 36.117614], [-95.964495, 36.117615], [-95.964498, 36.1175]]]}, "properties": {"osm_id": 1076201617, "building": "garage", "name": "", "height": null, "height_m": null, "levels": null, "tract_id": "40143004302", "tract_name": "43.02", "tags": {"building": "garage"}}}, {"type": "Feature", "geometry": {"type": "Polygon", "coordinates": [[[-95.963603, 36.117418], [-95.963605, 36.117478], [-95.963763, 36.117475], [-95.963762, 36.117415], [-95.963603, 36.117418]]]}, "properties": {"osm_id": 1076201618, "building": "garage", "name": "", "height": null, "height_m": null, "levels": null, "tract_id": "40143004302", "tract_name": "43.02", "tags": {"building": "garage"}}}, {"type": "Feature", "geometry": {"type": "Polygon", "coordinates": [[[-95.963618, 36.117315], [-95.963617, 36.117387], [-95.963726, 36.117388], [-95.963727, 36.117316], [-95.963618, 36.117315]]]}, "properties": {"osm_id": 1076201619, "building": "garage", "name": "", "height": null, "height_m": null, "levels": null, "tract_id": "40143004302", "tract_name": "43.02", "tags": {"building": "garage"}}}, {"type": "Feature", "geometry": {"type": "Polygon", "coordinates": [[[-95.960753, 36.1175385], [-95.96075, 36.1173747], [-95.9606972, 36.1173753], [-95.9606978, 36.1174038], [-95.9606562, 36.1174042], [-95.9606568, 36.117435], [-95.960572, 36.117436], [-95.960573, 36.117489], [-95.9606585, 36.117488], [-95.9606595, 36.1175396], [-95.960753, 36.1175385]]]}, "properties": {"osm_id": 1076201620, "building": "yes", "name": "", "height": null, "height_m": null, "levels": null, "tract_id": "40143004302", "tract_name": "43.02", "tags": {"addr:city": "Tulsa", "addr:country": "US", "addr:housenumber": "3139", "addr:postcode": "74105", "addr:state": "OK", "addr:street": "South Zunis Avenue East", "building": "yes"}}}, {"type": "Feature", "geometry": {"type": "Polygon", "coordinates": [[[-95.9607342, 36.1178114], [-95.9607318, 36.1177302], [-95.9607533, 36.1177298], [-95.9607497, 36.1176072], [-95.9606187, 36.1176098], [-95.9606203, 36.1176617], [-95.9605919, 36.1176623], [-95.9605941, 36.1177337], [-95.9606153, 36.1177333], [-95.9606177, 36.1178136], [-95.9607342, 36.1178114]]]}, "properties": {"osm_id": 1076201621, "building": "detached", "name": "", "height": null, "height_m": null, "levels": null, "tract_id": "40143004302", "tract_name": "43.02", "tags": {"addr:city": "Tulsa", "addr:country": "US", "addr:housenumber": "3131", "addr:postcode": "74105", "addr:state": "OK", "addr:street": "South Zunis Avenue East", "building": "detached"}}}, {"type": "Feature", "geometry": {"type": "Polygon", "coordinates": [[[-95.9606379, 36.1178862], [-95.9606441, 36.1180072], [-95.9607559, 36.1180035], [-95.9607521, 36.1179303], [-95.960728, 36.1179311], [-95.9607255, 36.1178833], [-95.9606379, 36.1178862]]]}, "properties": {"osm_id": 1076201622, "building": "detached", "name": "", "height": null, "height_m": null, "levels": null, "tract_id": "40143004302", "tract_name": "43.02", "tags": {"addr:city": "Tulsa", "addr:country": "US", "addr:housenumber": "3125", "addr:postcode": "74105", "addr:state": "OK", "addr:street": "South Zunis Avenue East", "building": "detached"}}}, {"type": "Feature", "geometry": {"type": "Polygon", "coordinates": [[[-95.960723, 36.118358], [-95.960721, 36.118228], [-95.960748, 36.118228], [-95.960747, 36.118155], [-95.960557, 36.118156], [-95.960558, 36.118208], [-95.960604, 36.118208], [-95.960606, 36.118359], [-95.960723, 36.118358]]]}, "properties": {"osm_id": 1076201623, "building": "yes", "name": "", "height": null, "height_m": null, "levels": null, "tract_id": "40143004302", "tract_name": "43.02", "tags": {"addr:city": "Tulsa", "addr:country": "US", "addr:housenumber": "3111", "addr:postcode": "74105", "addr:state": "OK", "addr:street": "South Zunis Avenue East", "building": "yes"}}}, {"type": "Feature", "geometry": {"type": "Polygon", "coordinates": [[[-95.960749, 36.118514], [-95.960499, 36.118512], [-95.9605, 36.118495], [-95.960433, 36.118494], [-95.960432, 36.118568], [-95.960461, 36.118568], [-95.960461, 36.118605], [-95.96067, 36.118606], [-95.96067, 36.118569], [-95.960748, 36.11857], [-95.960749, 36.118514]]]}, "properties": {"osm_id": 1076201624, "building": "yes", "name": "", "height": null, "height_m": null, "levels": null, "tract_id": "40143004302", "tract_name": "43.02", "tags": {"addr:city": "Tulsa", "addr:country": "US", "addr:housenumber": "2202", "addr:postcode": "74105", "addr:state": "OK", "addr:street": "East 31st Street South", "building": "yes"}}}, {"type": "Feature", "geometry": {"type": "Polygon", "coordinates": [[[-95.960562, 36.117973], [-95.960455, 36.117971], [-95.960454, 36.118031], [-95.960561, 36.118033], [-95.960562, 36.117973]]]}, "properties": {"osm_id": 1076201625, "building": "garage", "name": "", "height": null, "height_m": null, "levels": null, "tract_id": "40143004302", "tract_name": "43.02", "tags": {"building": "garage", "source": "microsoft/BuildingFootprints"}}}, {"type": "Feature", "geometry": {"type": "Polygon", "coordinates": [[[-95.963062, 36.11852], [-95.963065, 36.118589], [-95.963102, 36.118589], [-95.963104, 36.11863], [-95.963257, 36.118626], [-95.963253, 36.118516], [-95.963062, 36.11852]]]}, "properties": {"osm_id": 1076201626, "building": "detached", "name": "", "height": null, "height_m": null, "levels": null, "tract_id": "40143004302", "tract_name": "43.02", "tags": {"addr:city": "Tulsa", "addr:country": "US", "addr:housenumber": "2108", "addr:postcode": "74105", "addr:state": "OK", "addr:street": "East 31st Street South", "building": "detached"}}}, {"type": "Feature", "geometry": {"type": "Polygon", "coordinates": [[[-95.962953, 36.118513], [-95.9628, 36.118515], [-95.962802, 36.118621], [-95.962955, 36.118619], [-95.962953, 36.118513]]]}, "properties": {"osm_id": 1076201627, "building": "detached", "name": "", "height": null, "height_m": null, "levels": null, "tract_id": "40143004302", "tract_name": "43.02", "tags": {"addr:city": "Tulsa", "addr:country": "US", "addr:housenumber": "2112", "addr:postcode": "74105", "addr:state": "OK", "addr:street": "East 31st Street South", "building": "detached"}}}, {"type": "Feature", "geometry": {"type": "Polygon", "coordinates": [[[-95.962671, 36.118506], [-95.962442, 36.118508], [-95.962444, 36.118618], [-95.962606, 36.118616], [-95.962606, 36.118597], [-95.962673, 36.118597], [-95.962671, 36.118506]]]}, "properties": {"osm_id": 1076201628, "building": "detached", "name": "", "height": null, "height_m": null, "levels": null, "tract_id": "40143004302", "tract_name": "43.02", "tags": {"addr:city": "Tulsa", "addr:country": "US", "addr:housenumber": "2120", "addr:postcode": "74105", "addr:state": "OK", "addr:street": "East 31st Street South", "building": "detached"}}}, {"type": "Feature", "geometry": {"type": "Polygon", "coordinates": [[[-95.962392, 36.118503], [-95.962313, 36.118502], [-95.962313, 36.11852], [-95.962238, 36.11852], [-95.962238, 36.118501], [-95.962129, 36.1185], [-95.962129, 36.118537], [-95.962109, 36.118537], [-95.962109, 36.11861], [-95.962272, 36.118611], [-95.962272, 36.118598], [-95.96235, 36.118599], [-95.96235, 36.118573], [-95.962392, 36.118573], [-95.962392, 36.118503]]]}, "properties": {"osm_id": 1076201629, "building": "detached", "name": "", "height": null, "height_m": null, "levels": null, "tract_id": "40143004302", "tract_name": "43.02", "tags": {"addr:city": "Tulsa", "addr:country": "US", "addr:housenumber": "2128", "addr:postcode": "74105", "addr:state": "OK", "addr:street": "East 31st Street South", "building": "detached"}}}, {"type": "Feature", "geometry": {"type": "Polygon", "coordinates": [[[-95.961867, 36.118526], [-95.961864, 36.118621], [-95.962059, 36.118626], [-95.962062, 36.11853], [-95.961867, 36.118526]]]}, "properties": {"osm_id": 1076201630, "building": "detached", "name": "", "height": null, "height_m": null, "levels": null, "tract_id": "40143004302", "tract_name": "43.02", "tags": {"addr:city": "Tulsa", "addr:country": "US", "addr:housenumber": "2136", "addr:postcode": "74105", "addr:state": "OK", "addr:street": "East 31st Street South", "building": "detached"}}}, {"type": "Feature", "geometry": {"type": "Polygon", "coordinates": [[[-95.961545, 36.118519], [-95.961546, 36.118616], [-95.961763, 36.118615], [-95.961763, 36.118518], [-95.961545, 36.118519]]]}, "properties": {"osm_id": 1076201631, "building": "detached", "name": "", "height": null, "height_m": null, "levels": null, "tract_id": "40143004302", "tract_name": "43.02", "tags": {"addr:city": "Tulsa", "addr:country": "US", "addr:housenumber": "2144", "addr:postcode": "74105", "addr:state": "OK", "addr:street": "East 31st Street South", "building": "detached"}}}, {"type": "Feature", "geometry": {"type": "Polygon", "coordinates": [[[-95.9614441, 36.1185106], [-95.9613438, 36.1185074], [-95.9613492, 36.1184], [-95.961261, 36.1183971], [-95.9612501, 36.1186136], [-95.9613638, 36.1186174], [-95.9613652, 36.1185903], [-95.96144, 36.1185927], [-95.9614441, 36.1185106]]]}, "properties": {"osm_id": 1076201632, "building": "detached", "name": "", "height": null, "height_m": null, "levels": null, "tract_id": "40143004302", "tract_name": "43.02", "tags": {"addr:city": "Tulsa", "addr:country": "US", "addr:housenumber": "3106", "addr:postcode": "74105", "addr:state": "OK", "addr:street": "South Zunis Avenue East", "building": "detached"}}}, {"type": "Feature", "geometry": {"type": "Polygon", "coordinates": [[[-95.961282, 36.11811], [-95.961282, 36.118139], [-95.96122, 36.118139], [-95.96122, 36.118214], [-95.9613245, 36.118214], [-95.9613245, 36.1182705], [-95.9613866, 36.1182705], [-95.9613866, 36.1182429], [-95.9614258, 36.1182429], [-95.9614258, 36.118234], [-95.961478, 36.118234], [-95.961478, 36.118139], [-95.961413, 36.118139], [-95.961413, 36.11811], [-95.961282, 36.11811]]]}, "properties": {"osm_id": 1076201633, "building": "yes", "name": "", "height": null, "height_m": null, "levels": null, "tract_id": "40143004302", "tract_name": "43.02", "tags": {"addr:city": "Tulsa", "addr:country": "US", "addr:housenumber": "2151", "addr:postcode": "74105", "addr:state": "OK", "addr:street": "East 31st Place South", "building": "yes"}}}, {"type": "Feature", "geometry": {"type": "Polygon", "coordinates": [[[-95.961694, 36.118065], [-95.961536, 36.118063], [-95.961535, 36.118122], [-95.961572, 36.118122], [-95.961572, 36.11815], [-95.961666, 36.118151], [-95.961665, 36.118196], [-95.961791, 36.118198], [-95.961792, 36.118139], [-95.961693, 36.118138], [-95.961694, 36.118065]]]}, "properties": {"osm_id": 1076201634, "building": "yes", "name": "", "height": null, "height_m": null, "levels": null, "tract_id": "40143004302", "tract_name": "43.02", "tags": {"addr:city": "Tulsa", "addr:country": "US", "addr:housenumber": "2141", "addr:postcode": "74105", "addr:state": "OK", "addr:street": "East 31st Place South", "building": "yes"}}}, {"type": "Feature", "geometry": {"type": "Polygon", "coordinates": [[[-95.961854, 36.118251], [-95.962077, 36.118249], [-95.962075, 36.118033], [-95.961946, 36.118033], [-95.961947, 36.11809], [-95.961853, 36.11809], [-95.961854, 36.118251]]]}, "properties": {"osm_id": 1076201635, "building": "yes", "name": "", "height": null, "height_m": null, "levels": null, "tract_id": "40143004302", "tract_name": "43.02", "tags": {"addr:city": "Tulsa", "addr:country": "US", "addr:housenumber": "2135", "addr:postcode": "74105", "addr:state": "OK", "addr:street": "East 31st Place South", "building": "yes"}}}, {"type": "Feature", "geometry": {"type": "Polygon", "coordinates": [[[-95.962341, 36.118133], [-95.962343, 36.118042], [-95.962236, 36.11804], [-95.962232, 36.118176], [-95.962299, 36.118177], [-95.962301, 36.118132], [-95.962341, 36.118133]]]}, "properties": {"osm_id": 1076201636, "building": "yes", "name": "", "height": null, "height_m": null, "levels": null, "tract_id": "40143004302", "tract_name": "43.02", "tags": {"addr:city": "Tulsa", "addr:country": "US", "addr:housenumber": "2127", "addr:postcode": "74105", "addr:state": "OK", "addr:street": "East 31st Place South", "building": "yes"}}}, {"type": "Feature", "geometry": {"type": "Polygon", "coordinates": [[[-95.962698, 36.118161], [-95.962699, 36.118082], [-95.962513, 36.11808], [-95.962514, 36.118044], [-95.962426, 36.118043], [-95.962423, 36.118214], [-95.962561, 36.118215], [-95.962562, 36.118159], [-95.962698, 36.118161]]]}, "properties": {"osm_id": 1076201637, "building": "yes", "name": "", "height": null, "height_m": null, "levels": null, "tract_id": "40143004302", "tract_name": "43.02", "tags": {"addr:city": "Tulsa", "addr:country": "US", "addr:housenumber": "2119", "addr:postcode": "74105", "addr:state": "OK", "addr:street": "East 31st Place South", "building": "yes"}}}, {"type": "Feature", "geometry": {"type": "Polygon", "coordinates": [[[-95.96285, 36.118257], [-95.962986, 36.118258], [-95.962988, 36.118143], [-95.962965, 36.118143], [-95.962967, 36.118033], [-95.9628, 36.118031], [-95.962797, 36.118187], [-95.962851, 36.118187], [-95.96285, 36.118257]]]}, "properties": {"osm_id": 1076201638, "building": "yes", "name": "", "height": null, "height_m": null, "levels": null, "tract_id": "40143004302", "tract_name": "43.02", "tags": {"addr:city": "Tulsa", "addr:country": "US", "addr:housenumber": "2111", "addr:postcode": "74105", "addr:state": "OK", "addr:street": "East 31st Place South", "building": "yes"}}}, {"type": "Feature", "geometry": {"type": "Polygon", "coordinates": [[[-95.963025, 36.118028], [-95.963022, 36.118212], [-95.963123, 36.118213], [-95.963122, 36.118275], [-95.963276, 36.118276], [-95.96328, 36.11803], [-95.963025, 36.118028]]]}, "properties": {"osm_id": 1076201639, "building": "yes", "name": "", "height": null, "height_m": null, "levels": null, "tract_id": "40143004302", "tract_name": "43.02", "tags": {"addr:city": "Tulsa", "addr:country": "US", "addr:housenumber": "2105", "addr:postcode": "74105", "addr:state": "OK", "addr:street": "East 31st Place South", "building": "yes"}}}, {"type": "Feature", "geometry": {"type": "Polygon", "coordinates": [[[-95.963269, 36.118371], [-95.963199, 36.118373], [-95.963201, 36.118446], [-95.963271, 36.118445], [-95.963269, 36.118371]]]}, "properties": {"osm_id": 1076201640, "building": "garage", "name": "", "height": null, "height_m": null, "levels": null, "tract_id": "40143004302", "tract_name": "43.02", "tags": {"building": "garage"}}}, {"type": "Feature", "geometry": {"type": "Polygon", "coordinates": [[[-95.962932, 36.118426], [-95.962999, 36.118427], [-95.963001, 36.118345], [-95.962934, 36.118344], [-95.962932, 36.118426]]]}, "properties": {"osm_id": 1076201641, "building": "garage", "name": "", "height": null, "height_m": null, "levels": null, "tract_id": "40143004302", "tract_name": "43.02", "tags": {"building": "garage", "source": "microsoft/BuildingFootprints"}}}, {"type": "Feature", "geometry": {"type": "Polygon", "coordinates": [[[-95.962724, 36.118301], [-95.962847, 36.118304], [-95.962849, 36.118232], [-95.962726, 36.11823], [-95.962724, 36.118301]]]}, "properties": {"osm_id": 1076201642, "building": "garage", "name": "", "height": null, "height_m": null, "levels": null, "tract_id": "40143004302", "tract_name": "43.02", "tags": {"building": "garage", "source": "microsoft/BuildingFootprints"}}}, {"type": "Feature", "geometry": {"type": "Polygon", "coordinates": [[[-95.96232, 36.118306], [-95.962392, 36.118307], [-95.962393, 36.118253], [-95.962321, 36.118252], [-95.96232, 36.118306]]]}, "properties": {"osm_id": 1076201643, "building": "garage", "name": "", "height": null, "height_m": null, "levels": null, "tract_id": "40143004302", "tract_name": "43.02", "tags": {"building": "garage", "source": "microsoft/BuildingFootprints"}}}, {"type": "Feature", "geometry": {"type": "Polygon", "coordinates": [[[-95.96239, 36.118462], [-95.962388, 36.118374], [-95.962324, 36.118375], [-95.962326, 36.118463], [-95.96239, 36.118462]]]}, "properties": {"osm_id": 1076201644, "building": "garage", "name": "", "height": null, "height_m": null, "levels": null, "tract_id": "40143004302", "tract_name": "43.02", "tags": {"building": "garage"}}}, {"type": "Feature", "geometry": {"type": "Polygon", "coordinates": [[[-95.961874, 36.118478], [-95.961875, 36.11842], [-95.961813, 36.11842], [-95.961813, 36.118477], [-95.961874, 36.118478]]]}, "properties": {"osm_id": 1076201645, "building": "garage", "name": "", "height": null, "height_m": null, "levels": null, "tract_id": "40143004302", "tract_name": "43.02", "tags": {"building": "garage"}}}, {"type": "Feature", "geometry": {"type": "Polygon", "coordinates": [[[-95.961719, 36.118425], [-95.961782, 36.118426], [-95.961784, 36.118349], [-95.961721, 36.118348], [-95.961719, 36.118425]]]}, "properties": {"osm_id": 1076201646, "building": "garage", "name": "", "height": null, "height_m": null, "levels": null, "tract_id": "40143004302", "tract_name": "43.02", "tags": {"building": "garage", "source": "microsoft/BuildingFootprints"}}}, {"type": "Feature", "geometry": {"type": "Polygon", "coordinates": [[[-95.9637626, 36.1185898], [-95.963763, 36.118632], [-95.963699, 36.118632], [-95.963699, 36.118596], [-95.963633, 36.118596], [-95.963632, 36.118536], [-95.96364, 36.118535], [-95.963639, 36.118464], [-95.963606, 36.118464], [-95.963604, 36.118388], [-95.963685, 36.118388], [-95.963686, 36.11846], [-95.963714, 36.11846], [-95.963715, 36.118515], [-95.963762, 36.118515], [-95.9637624, 36.1185595], [-95.9637938, 36.1185595], [-95.9637938, 36.1185578], [-95.9637818, 36.1185578], [-95.9637818, 36.1184939], [-95.9638555, 36.1184939], [-95.9638555, 36.1185578], [-95.9638723, 36.1185578], [-95.9638723, 36.1186088], [-95.9637938, 36.1186088], [-95.9637938, 36.1185898], [-95.9637626, 36.1185898]]]}, "properties": {"osm_id": 1076201803, "building": "detached", "name": "", "height": null, "height_m": null, "levels": null, "tract_id": "40143004302", "tract_name": "43.02", "tags": {"addr:city": "Tulsa", "addr:country": "US", "addr:housenumber": "1776", "addr:postcode": "74105", "addr:state": "OK", "addr:street": "East 31st Street South", "building": "detached"}}}, {"type": "Feature", "geometry": {"type": "Polygon", "coordinates": [[[-95.96394, 36.118584], [-95.964007, 36.118586], [-95.964005, 36.118629], [-95.964062, 36.118631], [-95.964064, 36.118581], [-95.964079, 36.118581], [-95.964082, 36.118493], [-95.963944, 36.11849], [-95.96394, 36.118584]]]}, "properties": {"osm_id": 1076201804, "building": "detached", "name": "", "height": null, "height_m": null, "levels": null, "tract_id": "40143004302", "tract_name": "43.02", "tags": {"addr:city": "Tulsa", "addr:country": "US", "addr:housenumber": "1770", "addr:postcode": "74105", "addr:state": "OK", "addr:street": "East 31st Street South", "building": "detached"}}}, {"type": "Feature", "geometry": {"type": "Polygon", "coordinates": [[[-95.963783, 36.1180551], [-95.9636331, 36.1180519], [-95.9636279, 36.118212], [-95.9636519, 36.1182125], [-95.9636514, 36.1182296], [-95.9636797, 36.1182302], [-95.9636791, 36.1182488], [-95.9636508, 36.1182483], [-95.9636489, 36.1183059], [-95.9636985, 36.118307], [-95.9636993, 36.1182821], [-95.963722, 36.1182826], [-95.9637231, 36.1182474], [-95.9637005, 36.1182469], [-95.9637015, 36.1182137], [-95.963716, 36.118214], [-95.963718, 36.1181509], [-95.9637799, 36.1181521], [-95.963783, 36.1180551]]]}, "properties": {"osm_id": 1076201805, "building": "yes", "name": "", "height": null, "height_m": null, "levels": null, "tract_id": "40143004302", "tract_name": "43.02", "tags": {"addr:city": "Tulsa", "addr:country": "US", "addr:housenumber": "1851", "addr:postcode": "74105", "addr:state": "OK", "addr:street": "East 31st Place South", "building": "yes"}}}, {"type": "Feature", "geometry": {"type": "Polygon", "coordinates": [[[-95.964109, 36.118154], [-95.964109, 36.11812], [-95.964193, 36.11812], [-95.964193, 36.118055], [-95.963926, 36.118057], [-95.963927, 36.118155], [-95.964109, 36.118154]]]}, "properties": {"osm_id": 1076201806, "building": "yes", "name": "", "height": null, "height_m": null, "levels": null, "tract_id": "40143004302", "tract_name": "43.02", "tags": {"addr:city": "Tulsa", "addr:country": "US", "addr:housenumber": "1843", "addr:postcode": "74105", "addr:state": "OK", "addr:street": "East 31st Place South", "building": "yes"}}}, {"type": "Feature", "geometry": {"type": "Polygon", "coordinates": [[[-95.964244, 36.118133], [-95.964464, 36.118137], [-95.964465, 36.118074], [-95.964382, 36.118073], [-95.964383, 36.118051], [-95.964246, 36.118049], [-95.964244, 36.118133]]]}, "properties": {"osm_id": 1076201807, "building": "yes", "name": "", "height": null, "height_m": null, "levels": null, "tract_id": "40143004302", "tract_name": "43.02", "tags": {"addr:city": "Tulsa", "addr:country": "US", "addr:housenumber": "1835", "addr:postcode": "74105", "addr:state": "OK", "addr:street": "East 31st Place South", "building": "yes"}}}, {"type": "Feature", "geometry": {"type": "Polygon", "coordinates": [[[-95.964564, 36.118052], [-95.964562, 36.118165], [-95.964581, 36.118165], [-95.96458, 36.118215], [-95.964789, 36.118217], [-95.964792, 36.118055], [-95.964564, 36.118052]]]}, "properties": {"osm_id": 1076201808, "building": "yes", "name": "", "height": null, "height_m": null, "levels": null, "tract_id": "40143004302", "tract_name": "43.02", "tags": {"addr:city": "Tulsa", "addr:country": "US", "addr:housenumber": "1831", "addr:postcode": "74105", "addr:state": "OK", "addr:street": "East 31st Place South", "building": "yes"}}}, {"type": "Feature", "geometry": {"type": "Polygon", "coordinates": [[[-95.964988, 36.118204], [-95.965081, 36.118206], [-95.965083, 36.118136], [-95.965105, 36.118137], [-95.965107, 36.118056], [-95.964992, 36.118055], [-95.964988, 36.118204]]]}, "properties": {"osm_id": 1076201809, "building": "yes", "name": "", "height": null, "height_m": null, "levels": null, "tract_id": "40143004302", "tract_name": "43.02", "tags": {"addr:city": "Tulsa", "addr:country": "US", "addr:housenumber": "1821", "addr:postcode": "74105", "addr:state": "OK", "addr:street": "East 31st Place South", "building": "yes"}}}, {"type": "Feature", "geometry": {"type": "Polygon", "coordinates": [[[-95.96545, 36.118094], [-95.965377, 36.118095], [-95.965377, 36.118063], [-95.965197, 36.118066], [-95.965199, 36.118139], [-95.965381, 36.118136], [-95.965382, 36.118179], [-95.965318, 36.118181], [-95.965319, 36.118235], [-95.965378, 36.118234], [-95.965379, 36.118255], [-95.965454, 36.118254], [-95.96545, 36.118094]]]}, "properties": {"osm_id": 1076201810, "building": "yes", "name": "", "height": null, "height_m": null, "levels": null, "tract_id": "40143004302", "tract_name": "43.02", "tags": {"addr:city": "Tulsa", "addr:country": "US", "addr:housenumber": "1815", "addr:postcode": "74105", "addr:state": "OK", "addr:street": "East 31st Place South", "building": "yes"}}}, {"type": "Feature", "geometry": {"type": "Polygon", "coordinates": [[[-95.965552, 36.118077], [-95.965549, 36.118161], [-95.965514, 36.118161], [-95.965512, 36.118247], [-95.965603, 36.118249], [-95.965605, 36.118189], [-95.965666, 36.11819], [-95.965665, 36.118246], [-95.96574, 36.118248], [-95.965745, 36.118081], [-95.965552, 36.118077]]]}, "properties": {"osm_id": 1076201811, "building": "yes", "name": "", "height": null, "height_m": null, "levels": null, "tract_id": "40143004302", "tract_name": "43.02", "tags": {"addr:city": "Tulsa", "addr:country": "US", "addr:housenumber": "1807", "addr:postcode": "74105", "addr:state": "OK", "addr:street": "East 31st Place South", "building": "yes"}}}, {"type": "Feature", "geometry": {"type": "Polygon", "coordinates": [[[-95.966121, 36.118631], [-95.966334, 36.11863], [-95.966334, 36.118568], [-95.966305, 36.118568], [-95.966304, 36.11844], [-95.9662172, 36.1184405], [-95.966216, 36.1183615], [-95.9661248, 36.118362], [-95.966127, 36.118508], [-95.966237, 36.118507], [-95.966237, 36.118566], [-95.96612, 36.118567], [-95.966121, 36.118631]]]}, "properties": {"osm_id": 1076201812, "building": "yes", "name": "", "height": null, "height_m": null, "levels": null, "tract_id": "40143004302", "tract_name": "43.02", "tags": {"addr:city": "Tulsa", "addr:country": "US", "addr:housenumber": "3111", "addr:postcode": "74105", "addr:state": "OK", "addr:street": "South Victor Avenue East", "building": "yes"}}}, {"type": "Feature", "geometry": {"type": "Polygon", "coordinates": [[[-95.966382, 36.118629], [-95.966573, 36.118632], [-95.9666083, 36.118602], [-95.9665375, 36.1185415], [-95.966429, 36.1184615], [-95.966385, 36.118482], [-95.966382, 36.118629]]]}, "properties": {"osm_id": 1076201813, "building": "yes", "name": "", "height": null, "height_m": null, "levels": null, "tract_id": "40143004302", "tract_name": "43.02", "tags": {"addr:city": "Tulsa", "addr:country": "US", "addr:housenumber": "3103", "addr:postcode": "74105", "addr:state": "OK", "addr:street": "South Victor Avenue East", "building": "yes"}}}, {"type": "Feature", "geometry": {"type": "Polygon", "coordinates": [[[-95.965848, 36.118536], [-95.965845, 36.118632], [-95.966027, 36.118636], [-95.96603, 36.118541], [-95.965848, 36.118536]]]}, "properties": {"osm_id": 1076201814, "building": "detached", "name": "", "height": null, "height_m": null, "levels": null, "tract_id": "40143004302", "tract_name": "43.02", "tags": {"addr:city": "Tulsa", "addr:country": "US", "addr:housenumber": "1724", "addr:postcode": "74105", "addr:state": "OK", "addr:street": "East 31st Street South", "building": "detached"}}}, {"type": "Feature", "geometry": {"type": "Polygon", "coordinates": [[[-95.965756, 36.118478], [-95.965656, 36.118477], [-95.965654, 36.118569], [-95.965536, 36.118567], [-95.965535, 36.118644], [-95.965701, 36.118646], [-95.965703, 36.11854], [-95.965755, 36.118541], [-95.965756, 36.118478]]]}, "properties": {"osm_id": 1076201815, "building": "detached", "name": "", "height": null, "height_m": null, "levels": null, "tract_id": "40143004302", "tract_name": "43.02", "tags": {"addr:city": "Tulsa", "addr:country": "US", "addr:housenumber": "1732", "addr:postcode": "74105", "addr:state": "OK", "addr:street": "East 31st Street South", "building": "detached"}}}, {"type": "Feature", "geometry": {"type": "Polygon", "coordinates": [[[-95.965374, 36.118563], [-95.965237, 36.118561], [-95.965236, 36.118643], [-95.96537, 36.118645], [-95.965371, 36.118615], [-95.965448, 36.118616], [-95.96545, 36.118516], [-95.965375, 36.118515], [-95.965374, 36.118563]]]}, "properties": {"osm_id": 1076201816, "building": "detached", "name": "", "height": null, "height_m": null, "levels": null, "tract_id": "40143004302", "tract_name": "43.02", "tags": {"addr:city": "Tulsa", "addr:country": "US", "addr:housenumber": "1738", "addr:postcode": "74105", "addr:state": "OK", "addr:street": "East 31st Street South", "building": "detached"}}}, {"type": "Feature", "geometry": {"type": "Polygon", "coordinates": [[[-95.964888, 36.118613], [-95.964938, 36.118614], [-95.964937, 36.118641], [-95.965048, 36.118643], [-95.965049, 36.118615], [-95.965124, 36.118617], [-95.965126, 36.118552], [-95.965017, 36.11855], [-95.965018, 36.118521], [-95.964892, 36.118518], [-95.964888, 36.118613]]]}, "properties": {"osm_id": 1076201817, "building": "detached", "name": "", "height": null, "height_m": null, "levels": null, "tract_id": "40143004302", "tract_name": "43.02", "tags": {"addr:city": "Tulsa", "addr:country": "US", "addr:housenumber": "1746", "addr:postcode": "74105", "addr:state": "OK", "addr:street": "East 31st Street South", "building": "detached"}}}, {"type": "Feature", "geometry": {"type": "Polygon", "coordinates": [[[-95.964536, 36.118636], [-95.964651, 36.118638], [-95.964652, 36.118601], [-95.964735, 36.118602], [-95.964734, 36.118637], [-95.964803, 36.118638], [-95.964808, 36.118441], [-95.964731, 36.11844], [-95.96473, 36.118505], [-95.964655, 36.118503], [-95.964657, 36.118428], [-95.964595, 36.118426], [-95.964593, 36.118512], [-95.964539, 36.118511], [-95.964536, 36.118636]]]}, "properties": {"osm_id": 1076201818, "building": "detached", "name": "", "height": null, "height_m": null, "levels": null, "tract_id": "40143004302", "tract_name": "43.02", "tags": {"addr:city": "Tulsa", "addr:country": "US", "addr:housenumber": "1754", "addr:postcode": "74105", "addr:state": "OK", "addr:street": "East 31st Street South", "building": "detached"}}}, {"type": "Feature", "geometry": {"type": "Polygon", "coordinates": [[[-95.964242, 36.118423], [-95.964243, 36.118493], [-95.964289, 36.118492], [-95.96429, 36.118606], [-95.964478, 36.118605], [-95.964476, 36.118471], [-95.964364, 36.118472], [-95.964363, 36.118422], [-95.964242, 36.118423]]]}, "properties": {"osm_id": 1076201819, "building": "detached", "name": "", "height": null, "height_m": null, "levels": null, "tract_id": "40143004302", "tract_name": "43.02", "tags": {"addr:city": "Tulsa", "addr:country": "US", "addr:housenumber": "1762", "addr:postcode": "74105", "addr:state": "OK", "addr:street": "East 31st Street South", "building": "detached"}}}, {"type": "Feature", "geometry": {"type": "Polygon", "coordinates": [[[-95.965804, 36.118203], [-95.966004, 36.118288], [-95.966102, 36.1183298], [-95.9661367, 36.1182767], [-95.9660387, 36.1182349], [-95.966055, 36.11821], [-95.965897, 36.118143], [-95.965881, 36.118168], [-95.965839, 36.11815], [-95.965804, 36.118203]]]}, "properties": {"osm_id": 1076201820, "building": "yes", "name": "", "height": null, "height_m": null, "levels": null, "tract_id": "40143004302", "tract_name": "43.02", "tags": {"addr:city": "Tulsa", "addr:country": "US", "addr:housenumber": "3131", "addr:postcode": "74105", "addr:state": "OK", "addr:street": "South Victor Avenue East", "building": "yes"}}}, {"type": "Feature", "geometry": {"type": "Polygon", "coordinates": [[[-95.965863, 36.118422], [-95.965792, 36.118421], [-95.965791, 36.11848], [-95.965862, 36.118481], [-95.965863, 36.118422]]]}, "properties": {"osm_id": 1076201821, "building": "garage", "name": "", "height": null, "height_m": null, "levels": null, "tract_id": "40143004302", "tract_name": "43.02", "tags": {"building": "garage"}}}, {"type": "Feature", "geometry": {"type": "Polygon", "coordinates": [[[-95.965051, 36.118338], [-95.96514, 36.118337], [-95.965139, 36.118289], [-95.96505, 36.11829], [-95.965051, 36.118338]]]}, "properties": {"osm_id": 1076201822, "building": "garage", "name": "", "height": null, "height_m": null, "levels": null, "tract_id": "40143004302", "tract_name": "43.02", "tags": {"building": "garage", "source": "microsoft/BuildingFootprints"}}}, {"type": "Feature", "geometry": {"type": "Polygon", "coordinates": [[[-95.963879, 36.118409], [-95.963978, 36.11841], [-95.96398, 36.118339], [-95.96388, 36.118338], [-95.963879, 36.118409]]]}, "properties": {"osm_id": 1076201823, "building": "garage", "name": "", "height": null, "height_m": null, "levels": null, "tract_id": "40143004302", "tract_name": "43.02", "tags": {"building": "garage", "source": "microsoft/BuildingFootprints"}}}, {"type": "Feature", "geometry": {"type": "Polygon", "coordinates": [[[-95.9646012, 36.1182935], [-95.9645261, 36.1182935], [-95.9645261, 36.1182339], [-95.9646012, 36.1182339], [-95.9646012, 36.1182935]]]}, "properties": {"osm_id": 1076205525, "building": "garage", "name": "", "height": null, "height_m": null, "levels": null, "tract_id": "40143004302", "tract_name": "43.02", "tags": {"building": "garage"}}}, {"type": "Feature", "geometry": {"type": "Polygon", "coordinates": [[[-95.9629249, 36.1172712], [-95.9629169, 36.1172712], [-95.9629166, 36.1172444], [-95.9629005, 36.1172445], [-95.9629005, 36.1172483], [-95.9628504, 36.1172486], [-95.9628499, 36.1171931], [-95.9627298, 36.1171938], [-95.962729, 36.1171061], [-95.9628992, 36.1171051], [-95.9628999, 36.1171793], [-95.9629, 36.1171928], [-95.9629162, 36.1171927], [-95.9629161, 36.1171852], [-95.9629824, 36.1171848], [-95.9629831, 36.1172708], [-95.9629728, 36.1172709], [-95.9629731, 36.117299], [-95.9629252, 36.1172993], [-95.9629249, 36.1172712]]]}, "properties": {"osm_id": 1076205526, "building": "yes", "name": "", "height": null, "height_m": null, "levels": null, "tract_id": "40143004302", "tract_name": "43.02", "tags": {"addr:city": "Tulsa", "addr:country": "US", "addr:housenumber": "2115", "addr:postcode": "74105", "addr:state": "OK", "addr:street": "East 32nd Street South", "building": "yes"}}}, {"type": "Feature", "geometry": {"type": "Polygon", "coordinates": [[[-95.9630737, 36.117169], [-95.963073, 36.1170948], [-95.963307, 36.1170934], [-95.9633092, 36.1173329], [-95.9632093, 36.1173334], [-95.9632078, 36.1171682], [-95.9630737, 36.117169]]]}, "properties": {"osm_id": 1076205527, "building": "yes", "name": "", "height": null, "height_m": null, "levels": null, "tract_id": "40143004302", "tract_name": "43.02", "tags": {"addr:city": "Tulsa", "addr:country": "US", "addr:housenumber": "2101", "addr:postcode": "74105", "addr:state": "OK", "addr:street": "East 32nd Street South", "building": "yes"}}}, {"type": "Feature", "geometry": {"type": "Polygon", "coordinates": [[[-95.961463, 36.1183152], [-95.9614258, 36.1183154], [-95.9614254, 36.1182761], [-95.9614627, 36.1182759], [-95.961463, 36.1183152]]]}, "properties": {"osm_id": 1076205528, "building": "shed", "name": "", "height": null, "height_m": null, "levels": null, "tract_id": "40143004302", "tract_name": "43.02", "tags": {"building": "shed"}}}, {"type": "Feature", "geometry": {"type": "Polygon", "coordinates": [[[-95.9607583, 36.1172578], [-95.9606188, 36.1172578], [-95.9606188, 36.1171852], [-95.9605893, 36.1171852], [-95.9605893, 36.1171284], [-95.9607583, 36.1171284], [-95.9607583, 36.1172578]]]}, "properties": {"osm_id": 1076205529, "building": "detached", "name": "", "height": null, "height_m": null, "levels": null, "tract_id": "40143004302", "tract_name": "43.02", "tags": {"addr:city": "Tulsa", "addr:country": "US", "addr:housenumber": "3147", "addr:postcode": "74105", "addr:state": "OK", "addr:street": "South Zunis Avenue East", "building": "detached"}}}, {"type": "Feature", "geometry": {"type": "Polygon", "coordinates": [[[-95.9619344, 36.1156951], [-95.9618452, 36.1156962], [-95.961846, 36.1157357], [-95.9617253, 36.1157372], [-95.9617245, 36.1156977], [-95.9616285, 36.115699], [-95.9616242, 36.1154805], [-95.9618646, 36.1154774], [-95.961866, 36.1155442], [-95.9618446, 36.1155445], [-95.9618452, 36.1155732], [-95.961932, 36.1155721], [-95.9619344, 36.1156951]]]}, "properties": {"osm_id": 1076205530, "building": "yes", "name": "", "height": null, "height_m": null, "levels": null, "tract_id": "40143004302", "tract_name": "43.02", "tags": {"addr:city": "Tulsa", "addr:country": "US", "addr:housenumber": "2140", "addr:postcode": "74105", "addr:state": "OK", "addr:street": "East 32nd Place", "building": "yes", "source": "microsoft/BuildingFootprints"}}}, {"type": "Feature", "geometry": {"type": "Polygon", "coordinates": [[[-95.9667534, 36.1176648], [-95.9667523, 36.1177242], [-95.9666645, 36.1177231], [-95.9666645, 36.11772], [-95.9665914, 36.117721], [-95.9665907, 36.1176868], [-95.9666652, 36.1176859], [-95.9666659, 36.1176463], [-95.9666631, 36.1176457], [-95.9666973, 36.1175404], [-95.966617, 36.1175415], [-95.9666163, 36.1175063], [-95.9667072, 36.1175049], [-95.9668487, 36.1175029], [-95.9668504, 36.1175755], [-95.9667867, 36.1175764], [-95.9667577, 36.1176657], [-95.9667534, 36.1176648]]]}, "properties": {"osm_id": 1076205531, "building": "detached", "name": "", "height": null, "height_m": null, "levels": null, "tract_id": "40143004302", "tract_name": "43.02", "tags": {"addr:city": "Tulsa", "addr:country": "US", "addr:housenumber": "3131", "addr:postcode": "74105", "addr:state": "OK", "addr:street": "South Utica Avenue East", "building": "detached"}}}, {"type": "Feature", "geometry": {"type": "Polygon", "coordinates": [[[-95.9668542, 36.116224], [-95.9667848, 36.1162242], [-95.9667849, 36.1162385], [-95.9667386, 36.1162386], [-95.9667382, 36.116117], [-95.9668539, 36.1161168], [-95.966854, 36.1161548], [-95.9668696, 36.1161548], [-95.9668697, 36.1161857], [-95.9668541, 36.1161857], [-95.9668542, 36.116224]]]}, "properties": {"osm_id": 1076205532, "building": "detached", "name": "", "height": null, "height_m": null, "levels": null, "tract_id": "40143004302", "tract_name": "43.02", "tags": {"addr:city": "Tulsa", "addr:country": "US", "addr:housenumber": "3207", "addr:postcode": "74105", "addr:state": "OK", "addr:street": "South Utica Avenue East", "building": "detached"}}}, {"type": "Feature", "geometry": {"type": "Polygon", "coordinates": [[[-95.9640539, 36.1117489], [-95.9641659, 36.1117507], [-95.9641618, 36.111914], [-95.9640947, 36.1119129], [-95.9640949, 36.1119024], [-95.9640231, 36.1119012], [-95.9640242, 36.1118583], [-95.9640512, 36.1118587], [-95.9640539, 36.1117489]]]}, "properties": {"osm_id": 1330784488, "building": "detached", "name": "", "height": null, "height_m": null, "levels": null, "tract_id": "40143004302", "tract_name": "43.02", "tags": {"addr:city": "Tulsa", "addr:country": "US", "addr:housenumber": "1936", "addr:postcode": "74105", "addr:state": "OK", "addr:street": "East 35th Place South", "building": "detached"}}}, {"type": "Feature", "geometry": {"type": "Polygon", "coordinates": [[[-95.9592167, 36.1118072], [-95.9592167, 36.1117076], [-95.958994, 36.1117076], [-95.958994, 36.1119828], [-95.9591094, 36.1119828], [-95.9591094, 36.1118072], [-95.9592167, 36.1118072]]]}, "properties": {"osm_id": 1330784491, "building": "detached", "name": "", "height": null, "height_m": null, "levels": null, "tract_id": "40143004302", "tract_name": "43.02", "tags": {"addr:city": "Tulsa", "addr:country": "US", "addr:housenumber": "3538", "addr:postcode": "74105", "addr:state": "OK", "addr:street": "South Zunis Court East", "building": "detached"}}}, {"type": "Feature", "geometry": {"type": "Polygon", "coordinates": [[[-95.9644357, 36.1119486], [-95.9644467, 36.1118388], [-95.9642492, 36.111826], [-95.9642398, 36.1119211], [-95.9642822, 36.1119239], [-95.96428, 36.1119465], [-95.964374, 36.1119526], [-95.9643748, 36.1119446], [-95.9644357, 36.1119486]]]}, "properties": {"osm_id": 1330784492, "building": "detached", "name": "", "height": null, "height_m": null, "levels": null, "tract_id": "40143004302", "tract_name": "43.02", "tags": {"addr:city": "Tulsa", "addr:country": "US", "addr:housenumber": "1932", "addr:postcode": "74105", "addr:state": "OK", "addr:street": "East 35th Place South", "building": "detached"}}}, {"type": "Feature", "geometry": {"type": "Polygon", "coordinates": [[[-95.9584173, 36.1118528], [-95.9582789, 36.1118545], [-95.9582803, 36.1119303], [-95.9584187, 36.1119286], [-95.9584173, 36.1118528]]]}, "properties": {"osm_id": 1330784493, "building": "carport", "name": "", "height": null, "height_m": null, "levels": null, "tract_id": "40143004302", "tract_name": "43.02", "tags": {"building": "carport"}}}, {"type": "Feature", "geometry": {"type": "Polygon", "coordinates": [[[-95.9593266, 36.1118204], [-95.9596538, 36.1118184], [-95.9596534, 36.1117643], [-95.9596265, 36.1117644], [-95.9596259, 36.1116973], [-95.9595606, 36.1116976], [-95.9595607, 36.1117125], [-95.9594491, 36.1117132], [-95.9594493, 36.1117393], [-95.9593259, 36.1117401], [-95.9593266, 36.1118204]]]}, "properties": {"osm_id": 1330784494, "building": "detached", "name": "", "height": null, "height_m": null, "levels": null, "tract_id": "40143004302", "tract_name": "43.02", "tags": {"addr:city": "Tulsa", "addr:country": "US", "addr:housenumber": "2245", "addr:postcode": "74105", "addr:state": "OK", "addr:street": "East 36th Street South", "building": "detached"}}}, {"type": "Feature", "geometry": {"type": "Polygon", "coordinates": [[[-95.9584933, 36.111929], [-95.9586156, 36.1119281], [-95.9586129, 36.1116854], [-95.9584906, 36.1116863], [-95.9584933, 36.111929]]]}, "properties": {"osm_id": 1330784495, "building": "apartments", "name": "", "height": null, "height_m": 6.0, "levels": 2, "tract_id": "40143004302", "tract_name": "43.02", "tags": {"addr:city": "Tulsa", "addr:country": "US", "addr:housenumber": "3537;3535;3533;3531", "addr:postcode": "74105", "addr:state": "OK", "addr:street": "South Zunis Court East", "building": "apartments", "building:colour": "brown", "building:levels": "2", "roof:levels": "0", "roof:shape": "gabled"}}}, {"type": "Feature", "geometry": {"type": "Polygon", "coordinates": [[[-95.9626438, 36.1118898], [-95.9626417, 36.1119513], [-95.9627435, 36.1119536], [-95.9627403, 36.1120479], [-95.9628984, 36.1120515], [-95.9629048, 36.1118653], [-95.9627467, 36.1118617], [-95.9627456, 36.111892], [-95.9626438, 36.1118898]]]}, "properties": {"osm_id": 1330784496, "building": "detached", "name": "", "height": null, "height_m": null, "levels": null, "tract_id": "40143004302", "tract_name": "43.02", "tags": {"addr:city": "Tulsa", "addr:country": "US", "addr:housenumber": "3531", "addr:postcode": "74105", "addr:state": "OK", "addr:street": "South Yorktown Avenue East", "building": "detached"}}}, {"type": "Feature", "geometry": {"type": "Polygon", "coordinates": [[[-95.9599111, 36.1116822], [-95.9598909, 36.1119325], [-95.9600912, 36.1119431], [-95.9600982, 36.1118557], [-95.9600395, 36.1118526], [-95.9600512, 36.1117081], [-95.9600101, 36.1117059], [-95.9600116, 36.1116875], [-95.9599111, 36.1116822]]]}, "properties": {"osm_id": 1330784497, "building": "detached", "name": "", "height": null, "height_m": null, "levels": null, "tract_id": "40143004302", "tract_name": "43.02", "tags": {"addr:city": "Tulsa", "addr:country": "US", "addr:housenumber": "3539", "addr:postcode": "74105", "addr:state": "OK", "addr:street": "South Zunis Place East", "building": "detached"}}}, {"type": "Feature", "geometry": {"type": "Polygon", "coordinates": [[[-95.9636268, 36.1117816], [-95.9635142, 36.1117822], [-95.9635152, 36.11191], [-95.9637217, 36.1119089], [-95.9637212, 36.1118461], [-95.9636274, 36.1118466], [-95.9636268, 36.1117816]]]}, "properties": {"osm_id": 1330784498, "building": "detached", "name": "", "height": null, "height_m": null, "levels": null, "tract_id": "40143004302", "tract_name": "43.02", "tags": {"addr:city": "Tulsa", "addr:country": "US", "addr:housenumber": "1948", "addr:postcode": "74105", "addr:state": "OK", "addr:street": "East 35th Place South", "building": "detached"}}}, {"type": "Feature", "geometry": {"type": "Polygon", "coordinates": [[[-95.9652233, 36.1118353], [-95.9652214, 36.1118497], [-95.9652298, 36.1118504], [-95.9652061, 36.1120343], [-95.9650363, 36.1120201], [-95.9650394, 36.1119966], [-95.9649608, 36.1119899], [-95.9649694, 36.1119238], [-95.9649847, 36.1119251], [-95.9649996, 36.1118096], [-95.9651849, 36.1118252], [-95.9651841, 36.111832], [-95.9652233, 36.1118353]]]}, "properties": {"osm_id": 1330784499, "building": "detached", "name": "", "height": null, "height_m": null, "levels": null, "tract_id": "40143004302", "tract_name": "43.02", "tags": {"addr:city": "Tulsa", "addr:country": "US", "addr:housenumber": "1914", "addr:postcode": "74105", "addr:state": "OK", "addr:street": "East 35th Place South", "building": "detached"}}}, {"type": "Feature", "geometry": {"type": "Polygon", "coordinates": [[[-95.9606075, 36.111874], [-95.9604895, 36.1118821], [-95.9604993, 36.1119747], [-95.9607355, 36.1119584], [-95.9607949, 36.1118274], [-95.9607915, 36.1117956], [-95.9608105, 36.1117538], [-95.9607038, 36.1117222], [-95.9606754, 36.1117242], [-95.9606075, 36.111874]]]}, "properties": {"osm_id": 1330784500, "building": "detached", "name": "", "height": null, "height_m": null, "levels": null, "tract_id": "40143004302", "tract_name": "43.02", "tags": {"addr:city": "Tulsa", "addr:country": "US", "addr:housenumber": "3542", "addr:postcode": "74105", "addr:state": "OK", "addr:street": "South Zunis Place East", "building": "detached"}}}, {"type": "Feature", "geometry": {"type": "Polygon", "coordinates": [[[-95.9612099, 36.1116923], [-95.9609541, 36.1116918], [-95.9609538, 36.111798], [-95.9609967, 36.1117981], [-95.9609965, 36.1118534], [-95.9610378, 36.1118534], [-95.9610377, 36.1118848], [-95.9610876, 36.1118849], [-95.9610874, 36.1119542], [-95.9612279, 36.1119545], [-95.9612282, 36.1118765], [-95.9612094, 36.1118765], [-95.9612099, 36.1116923]]]}, "properties": {"osm_id": 1330784501, "building": "detached", "name": "", "height": null, "height_m": null, "levels": null, "tract_id": "40143004302", "tract_name": "43.02", "tags": {"addr:city": "Tulsa", "addr:country": "US", "addr:housenumber": "3481", "addr:postcode": "74105", "addr:state": "OK", "addr:street": "South Zunis Avenue East", "building": "detached"}}}, {"type": "Feature", "geometry": {"type": "Polygon", "coordinates": [[[-95.9645016, 36.1119357], [-95.964671, 36.1119604], [-95.9647019, 36.1118217], [-95.9645324, 36.1117971], [-95.9645016, 36.1119357]]]}, "properties": {"osm_id": 1330784502, "building": "detached", "name": "", "height": null, "height_m": null, "levels": null, "tract_id": "40143004302", "tract_name": "43.02", "tags": {"addr:city": "Tulsa", "addr:country": "US", "addr:housenumber": "1926", "addr:postcode": "74105", "addr:state": "OK", "addr:street": "East 35th Place South", "building": "detached"}}}, {"type": "Feature", "geometry": {"type": "Polygon", "coordinates": [[[-95.9649425, 36.1118541], [-95.9647597, 36.1118226], [-95.9647218, 36.1119661], [-95.9649046, 36.1119977], [-95.9649425, 36.1118541]]]}, "properties": {"osm_id": 1330784503, "building": "detached", "name": "", "height": null, "height_m": null, "levels": null, "tract_id": "40143004302", "tract_name": "43.02", "tags": {"addr:city": "Tulsa", "addr:country": "US", "addr:housenumber": "1920", "addr:postcode": "74105", "addr:state": "OK", "addr:street": "East 35th Place South", "building": "detached"}}}, {"type": "Feature", "geometry": {"type": "Polygon", "coordinates": [[[-95.9637619, 36.1119026], [-95.9639104, 36.1119047], [-95.9639116, 36.1118462], [-95.9639706, 36.111847], [-95.963972, 36.1117829], [-95.9637645, 36.11178], [-95.9637619, 36.1119026]]]}, "properties": {"osm_id": 1330784504, "building": "detached", "name": "", "height": null, "height_m": null, "levels": null, "tract_id": "40143004302", "tract_name": "43.02", "tags": {"addr:city": "Tulsa", "addr:country": "US", "addr:housenumber": "1942", "addr:postcode": "74105", "addr:state": "OK", "addr:street": "East 35th Place South", "building": "detached"}}}, {"type": "Feature", "geometry": {"type": "Polygon", "coordinates": [[[-95.9627961, 36.111681], [-95.9627949, 36.1117212], [-95.9626931, 36.1117193], [-95.9626911, 36.1117848], [-95.9627911, 36.1117867], [-95.9627907, 36.1117992], [-95.9629213, 36.1118017], [-95.9629237, 36.1117215], [-95.9629032, 36.1117211], [-95.9629043, 36.1116831], [-95.9627961, 36.111681]]]}, "properties": {"osm_id": 1330784506, "building": "detached", "name": "", "height": null, "height_m": null, "levels": null, "tract_id": "40143004302", "tract_name": "43.02", "tags": {"addr:city": "Tulsa", "addr:country": "US", "addr:housenumber": "3537", "addr:postcode": "74105", "addr:state": "OK", "addr:street": "South Yorktown Avenue East", "building": "detached"}}}, {"type": "Feature", "geometry": {"type": "Polygon", "coordinates": [[[-95.9618907, 36.1118295], [-95.9618914, 36.1117602], [-95.9617885, 36.1117595], [-95.9617888, 36.1117227], [-95.9616538, 36.1117218], [-95.9616533, 36.1117757], [-95.9616666, 36.1117758], [-95.9616653, 36.1119073], [-95.9617907, 36.1119081], [-95.9617915, 36.1118289], [-95.9618907, 36.1118295]]]}, "properties": {"osm_id": 1330784507, "building": "detached", "name": "", "height": null, "height_m": null, "levels": null, "tract_id": "40143004302", "tract_name": "43.02", "tags": {"addr:city": "Tulsa", "addr:country": "US", "addr:housenumber": "3488", "addr:postcode": "74105", "addr:state": "OK", "addr:street": "South Zunis Avenue East", "building": "detached"}}}, {"type": "Feature", "geometry": {"type": "Polygon", "coordinates": [[[-95.9623196, 36.1117186], [-95.9623206, 36.1118205], [-95.9625325, 36.1118191], [-95.9625315, 36.1117172], [-95.9623196, 36.1117186]]]}, "properties": {"osm_id": 1330784508, "building": "detached", "name": "", "height": null, "height_m": null, "levels": null, "tract_id": "40143004302", "tract_name": "43.02", "tags": {"addr:city": "Tulsa", "addr:country": "US", "addr:housenumber": "2115", "addr:postcode": "74105", "addr:state": "OK", "addr:street": "East 36th Street South", "building": "detached"}}}, {"type": "Feature", "geometry": {"type": "Polygon", "coordinates": [[[-95.9632741, 36.1117135], [-95.9632706, 36.1119054], [-95.963402, 36.111907], [-95.963405, 36.1117411], [-95.963346, 36.1117404], [-95.9633465, 36.1117144], [-95.9632741, 36.1117135]]]}, "properties": {"osm_id": 1330784509, "building": "detached", "name": "", "height": null, "height_m": null, "levels": null, "tract_id": "40143004302", "tract_name": "43.02", "tags": {"addr:city": "Tulsa", "addr:country": "US", "addr:housenumber": "1954", "addr:postcode": "74105", "addr:state": "OK", "addr:street": "East 35th Place South", "building": "detached"}}}, {"type": "Feature", "geometry": {"type": "Polygon", "coordinates": [[[-95.9590894, 36.1098093], [-95.9591699, 36.1098104], [-95.9591717, 36.1097172], [-95.9590913, 36.1097162], [-95.9590894, 36.1098093]]]}, "properties": {"osm_id": 1330805195, "building": "yes", "name": "", "height": null, "height_m": null, "levels": null, "tract_id": "40143004302", "tract_name": "43.02", "tags": {"building": "yes"}}}, {"type": "Feature", "geometry": {"type": "Polygon", "coordinates": [[[-95.9586427, 36.1102503], [-95.9587819, 36.1102487], [-95.9587778, 36.1100049], [-95.9586387, 36.1100064], [-95.9586427, 36.1102503]]]}, "properties": {"osm_id": 1330805198, "building": "detached", "name": "", "height": null, "height_m": null, "levels": null, "tract_id": "40143004302", "tract_name": "43.02", "tags": {"addr:city": "Tulsa", "addr:country": "US", "addr:housenumber": "3640", "addr:postcode": "74105", "addr:state": "OK", "addr:street": "South Lewis Avenue East", "building": "detached"}}}, {"type": "Feature", "geometry": {"type": "Polygon", "coordinates": [[[-95.9593592, 36.111175], [-95.9591339, 36.1111728], [-95.9591336, 36.1111902], [-95.9590528, 36.1111894], [-95.959052, 36.1112463], [-95.9591328, 36.1112471], [-95.9591325, 36.1112649], [-95.9592371, 36.111266], [-95.9592368, 36.1112887], [-95.9593575, 36.1112898], [-95.9593592, 36.111175]]]}, "properties": {"osm_id": 1330805200, "building": "detached", "name": "", "height": null, "height_m": null, "levels": null, "tract_id": "40143004302", "tract_name": "43.02", "tags": {"addr:city": "Tulsa", "addr:country": "US", "addr:housenumber": "2250", "addr:postcode": "74105", "addr:state": "OK", "addr:street": "East 36th Street South", "building": "detached"}}}, {"type": "Feature", "geometry": {"type": "Polygon", "coordinates": [[[-95.9589568, 36.1098723], [-95.9588442, 36.1098717], [-95.9588437, 36.1099215], [-95.9589564, 36.1099222], [-95.9589568, 36.1098723]]]}, "properties": {"osm_id": 1330805201, "building": "bungalow", "name": "", "height": null, "height_m": null, "levels": null, "tract_id": "40143004302", "tract_name": "43.02", "tags": {"building": "bungalow"}}}, {"type": "Feature", "geometry": {"type": "Polygon", "coordinates": [[[-95.9754865, 36.1053866], [-95.9752439, 36.1053828], [-95.9752414, 36.1054881], [-95.9754839, 36.1054919], [-95.9754865, 36.1053866]]]}, "properties": {"osm_id": 1342541720, "building": "yes", "name": "", "height": null, "height_m": null, "levels": null, "tract_id": "40143004302", "tract_name": "43.02", "tags": {"building": "yes", "source": "microsoft/BuildingFootprints"}}}, {"type": "Feature", "geometry": {"type": "Polygon", "coordinates": [[[-95.9751235, 36.1066576], [-95.9753689, 36.1066604], [-95.9753707, 36.1065542], [-95.9754016, 36.1065546], [-95.9754027, 36.1064896], [-95.9754349, 36.1064899], [-95.9754368, 36.1063794], [-95.9754019, 36.106379], [-95.9754036, 36.1062794], [-95.9752776, 36.106278], [-95.9752788, 36.1061932], [-95.9751611, 36.1061933], [-95.9751595, 36.1062831], [-95.97513, 36.1062828], [-95.9751235, 36.1066576]]]}, "properties": {"osm_id": 1342541721, "building": "yes", "name": "", "height": null, "height_m": null, "levels": null, "tract_id": "40143004302", "tract_name": "43.02", "tags": {"building": "yes", "source": "microsoft/BuildingFootprints"}}}, {"type": "Feature", "geometry": {"type": "Polygon", "coordinates": [[[-95.9752611, 36.1084008], [-95.9755147, 36.1084001], [-95.9755142, 36.1082801], [-95.975553, 36.10828], [-95.9755524, 36.1081327], [-95.9755136, 36.1081328], [-95.9755132, 36.1080201], [-95.9752167, 36.1080208], [-95.9752171, 36.1081313], [-95.9752601, 36.1081312], [-95.9752611, 36.1084008]]]}, "properties": {"osm_id": 1342541726, "building": "yes", "name": "", "height": null, "height_m": null, "levels": null, "tract_id": "40143004302", "tract_name": "43.02", "tags": {"building": "yes", "source": "microsoft/BuildingFootprints"}}}, {"type": "Feature", "geometry": {"type": "Polygon", "coordinates": [[[-95.9749571, 36.1083364], [-95.9749577, 36.1084014], [-95.9752366, 36.1083998], [-95.975236, 36.1083348], [-95.9749571, 36.1083364]]]}, "properties": {"osm_id": 1342541727, "building": "yes", "name": "", "height": null, "height_m": null, "levels": null, "tract_id": "40143004302", "tract_name": "43.02", "tags": {"building": "yes", "source": "microsoft/BuildingFootprints"}}}, {"type": "Feature", "geometry": {"type": "Polygon", "coordinates": [[[-95.9752874, 36.1105174], [-95.9755431, 36.1105214], [-95.9755477, 36.1103308], [-95.9753107, 36.1103271], [-95.975309, 36.1103986], [-95.9752902, 36.1103983], [-95.9752874, 36.1105174]]]}, "properties": {"osm_id": 1342541728, "building": "yes", "name": "", "height": null, "height_m": null, "levels": null, "tract_id": "40143004302", "tract_name": "43.02", "tags": {"building": "yes", "source": "microsoft/BuildingFootprints"}}}, {"type": "Feature", "geometry": {"type": "Polygon", "coordinates": [[[-95.9748486, 36.1101984], [-95.9752097, 36.1101962], [-95.9752065, 36.109866], [-95.9749973, 36.1098673], [-95.9749983, 36.1099765], [-95.9748465, 36.1099774], [-95.9748486, 36.1101984]]]}, "properties": {"osm_id": 1342541732, "building": "yes", "name": "", "height": null, "height_m": null, "levels": null, "tract_id": "40143004302", "tract_name": "43.02", "tags": {"building": "yes", "source": "microsoft/BuildingFootprints"}}}, {"type": "Feature", "geometry": {"type": "Polygon", "coordinates": [[[-95.975538, 36.1125564], [-95.9750991, 36.1125559], [-95.9750989, 36.1126894], [-95.975233, 36.1126895], [-95.975256, 36.1127197], [-95.975256, 36.1127676], [-95.9751675, 36.1127675], [-95.9751673, 36.1128723], [-95.97526, 36.1128724], [-95.9752699, 36.1128854], [-95.9751565, 36.1128853], [-95.9751564, 36.1129386], [-95.9749392, 36.1129384], [-95.9749388, 36.1131269], [-95.9751195, 36.1131271], [-95.9750353, 36.113169], [-95.9750352, 36.1132635], [-95.9749601, 36.1132634], [-95.9749599, 36.1133293], [-95.9749895, 36.1133293], [-95.9749895, 36.1132735], [-95.9750183, 36.1133112], [-95.9750458, 36.1133112], [-95.9750458, 36.1133272], [-95.9752508, 36.1133274], [-95.9752509, 36.1132715], [-95.9752936, 36.1133275], [-95.9755351, 36.1133278], [-95.9755352, 36.1132536], [-95.9755513, 36.1132456], [-95.9755523, 36.112637], [-95.9755379, 36.1126181], [-95.975538, 36.1125564]]]}, "properties": {"osm_id": 1342541735, "building": "yes", "name": "", "height": null, "height_m": null, "levels": null, "tract_id": "40143004302", "tract_name": "43.02", "tags": {"building": "yes", "source": "microsoft/BuildingFootprints"}}}, {"type": "Feature", "geometry": {"type": "Polygon", "coordinates": [[[-95.9755391, 36.1138175], [-95.9755309, 36.1135416], [-95.9754838, 36.1135425], [-95.9754831, 36.1135165], [-95.9754992, 36.1135162], [-95.9754978, 36.1134694], [-95.9754484, 36.1134704], [-95.9754499, 36.1135237], [-95.9753347, 36.1135259], [-95.97534, 36.1137078], [-95.975147, 36.1137115], [-95.9751396, 36.1134603], [-95.9750324, 36.1134624], [-95.9750352, 36.1135563], [-95.9749038, 36.1135589], [-95.9749078, 36.1136931], [-95.9750296, 36.1136908], [-95.9750341, 36.1138459], [-95.9752003, 36.1138427], [-95.9751998, 36.113824], [-95.9755391, 36.1138175]]]}, "properties": {"osm_id": 1342541736, "building": "yes", "name": "", "height": null, "height_m": null, "levels": null, "tract_id": "40143004302", "tract_name": "43.02", "tags": {"building": "yes", "source": "microsoft/BuildingFootprints"}}}, {"type": "Feature", "geometry": {"type": "Polygon", "coordinates": [[[-95.9755148, 36.1152968], [-95.9751084, 36.1152979], [-95.9751089, 36.1154019], [-95.9750501, 36.1154022], [-95.9750016, 36.1154022], [-95.9750013, 36.1153372], [-95.9748806, 36.1153375], [-95.9748814, 36.1154471], [-95.9748815, 36.1155442], [-95.9750022, 36.1155439], [-95.9750019, 36.115478], [-95.975049, 36.1154778], [-95.9751079, 36.1154777], [-95.9751093, 36.1158309], [-95.9751925, 36.1158307], [-95.9751916, 36.1156205], [-95.9754545, 36.1156198], [-95.9754541, 36.1155331], [-95.9754997, 36.115533], [-95.9754995, 36.1154983], [-95.9755156, 36.1154983], [-95.9755148, 36.1152968]]]}, "properties": {"osm_id": 1342541739, "building": "yes", "name": "", "height": null, "height_m": null, "levels": null, "tract_id": "40143004302", "tract_name": "43.02", "tags": {"building": "yes", "source": "microsoft/BuildingFootprints"}}}, {"type": "Feature", "geometry": {"type": "Polygon", "coordinates": [[[-95.9632225, 36.1160369], [-95.9632225, 36.1160206], [-95.96324, 36.1160206], [-95.96324, 36.1159767], [-95.9632319, 36.1159767], [-95.9632319, 36.1159442], [-95.9632433, 36.1159442], [-95.9632433, 36.1159058], [-95.963238, 36.1159058], [-95.963238, 36.1157682], [-95.9631501, 36.1157682], [-95.9631501, 36.1157779], [-95.9630589, 36.1157779], [-95.9630589, 36.1157893], [-95.962951, 36.1157893], [-95.962951, 36.1158966], [-95.9629711, 36.1158966], [-95.9629711, 36.1160369], [-95.9632225, 36.1160369]]]}, "properties": {"osm_id": 1393148549, "building": "detached", "name": "", "height": null, "height_m": null, "levels": null, "tract_id": "40143004302", "tract_name": "43.02", "tags": {"addr:city": "Tulsa", "addr:country": "US", "addr:housenumber": "3225", "addr:postcode": "74105", "addr:state": "OK", "addr:street": "South Yorktown Avenue East", "building": "detached"}}}, {"type": "Feature", "geometry": {"type": "Polygon", "coordinates": [[[-95.9632306, 36.1162671], [-95.9632308, 36.1162344], [-95.9632318, 36.1160678], [-95.9629914, 36.1160668], [-95.9629911, 36.1161137], [-95.9630185, 36.1161138], [-95.963018, 36.1161875], [-95.9629662, 36.1161873], [-95.9629657, 36.116266], [-95.9632306, 36.1162671]]]}, "properties": {"osm_id": 1393148594, "building": "detached", "name": "", "height": null, "height_m": null, "levels": null, "tract_id": "40143004302", "tract_name": "43.02", "tags": {"addr:city": "Tulsa", "addr:country": "US", "addr:housenumber": "3219", "addr:postcode": "74105", "addr:state": "OK", "addr:street": "South Yorktown Avenue East", "building": "detached"}}}, {"type": "Feature", "geometry": {"type": "Polygon", "coordinates": [[[-95.9613155, 36.1165206], [-95.961361, 36.1165572], [-95.9613801, 36.1165417], [-95.9614496, 36.1165975], [-95.9614596, 36.1165894], [-95.9614937, 36.1166168], [-95.961572, 36.1166173], [-95.961571, 36.116743], [-95.9614553, 36.116743], [-95.9614031, 36.1167033], [-95.9613975, 36.1167081], [-95.9613513, 36.116671], [-95.9613684, 36.1166571], [-95.9613223, 36.1166201], [-95.9613122, 36.1166284], [-95.9612954, 36.1166148], [-95.9612876, 36.1166211], [-95.9612394, 36.1165823], [-95.9613155, 36.1165206]]]}, "properties": {"osm_id": 1393166920, "building": "detached", "name": "", "height": null, "height_m": null, "levels": null, "tract_id": "40143004302", "tract_name": "43.02", "tags": {"addr:city": "Tulsa", "addr:country": "US", "addr:housenumber": "3206", "addr:postcode": "74105", "addr:state": "OK", "addr:street": "South Zunis Avenue East", "building": "detached"}}}, {"type": "Feature", "geometry": {"type": "Polygon", "coordinates": [[[-95.9607936, 36.1155235], [-95.9607856, 36.1155154], [-95.960737, 36.115547], [-95.9607107, 36.1155205], [-95.9606685, 36.1155479], [-95.9606542, 36.1155336], [-95.9606137, 36.1155599], [-95.9605727, 36.1155594], [-95.9605725, 36.1155692], [-95.9604377, 36.1155667], [-95.9604401, 36.1154709], [-95.9605834, 36.1154732], [-95.9605899, 36.115469], [-95.9605668, 36.1154459], [-95.9606511, 36.115391], [-95.9606286, 36.1153684], [-95.9607104, 36.1153151], [-95.9607776, 36.1153825], [-95.9607861, 36.115377], [-95.9607684, 36.1153593], [-95.9608188, 36.1153266], [-95.9608364, 36.1153443], [-95.9608792, 36.1153165], [-95.9609283, 36.1153658], [-95.9609138, 36.1153753], [-95.9609313, 36.1153929], [-95.9609211, 36.1153996], [-95.9609653, 36.115444], [-95.9609108, 36.1154794], [-95.9608791, 36.1154475], [-95.9608567, 36.115462], [-95.9608691, 36.1154744], [-95.9607936, 36.1155235]]]}, "properties": {"osm_id": 1393166921, "building": "detached", "name": "", "height": null, "height_m": null, "levels": null, "tract_id": "40143004302", "tract_name": "43.02", "tags": {"addr:city": "Tulsa", "addr:country": "US", "addr:housenumber": "3246", "addr:postcode": "74105", "addr:state": "OK", "addr:street": "South Zunis Avenue East", "building": "detached"}}}, {"type": "Feature", "geometry": {"type": "Polygon", "coordinates": [[[-95.9605651, 36.1174469], [-95.960481, 36.1174478], [-95.9604796, 36.1173702], [-95.9605638, 36.1173692], [-95.9605651, 36.1174469]]]}, "properties": {"osm_id": 1393166922, "building": "yes", "name": "", "height": null, "height_m": null, "levels": null, "tract_id": "40143004302", "tract_name": "43.02", "tags": {"building": "yes"}}}, {"type": "Feature", "geometry": {"type": "Polygon", "coordinates": [[[-95.9606389, 36.1173315], [-95.9605443, 36.1173315], [-95.9605443, 36.117267], [-95.9606389, 36.117267], [-95.9606389, 36.1173315]]]}, "properties": {"osm_id": 1393166923, "building": "yes", "name": "", "height": null, "height_m": null, "levels": null, "tract_id": "40143004302", "tract_name": "43.02", "tags": {"building": "yes"}}}]}