{"type": "FeatureCollection", "features": [{"type": "Feature", "geometry": {"type": "Polygon", "coordinates": [[[-95.953514, 36.043809], [-95.9531961, 36.0434016], [-95.9532568, 36.0433717], [-95.9532034, 36.0433032], [-95.9530214, 36.0433931], [-95.9529097, 36.0434482], [-95.9528663, 36.0434227], [-95.9528641, 36.0432709], [-95.9528623, 36.0431448], [-95.9527579, 36.0431448], [-95.9527579, 36.0432441], [-95.9527579, 36.043327], [-95.9523515, 36.043327], [-95.9523515, 36.0432436], [-95.9523515, 36.0431448], [-95.9521475, 36.0431448], [-95.9526158, 36.0424446], [-95.9543848, 36.0424452], [-95.9548516, 36.0431464], [-95.9546435, 36.0431459], [-95.9546432, 36.0432409], [-95.9546429, 36.0433262], [-95.9542312, 36.0433252], [-95.9542315, 36.0432409], [-95.9542318, 36.043145], [-95.9541419, 36.0431448], [-95.9541402, 36.0432657], [-95.954138, 36.0434258], [-95.9540985, 36.043445], [-95.9539725, 36.0433916], [-95.9538497, 36.0433396], [-95.9537926, 36.0433129], [-95.953745, 36.0433795], [-95.9538021, 36.0434062], [-95.953514, 36.043809]]]}, "properties": {"osm_id": 108708273, "building": "office", "name": "Cityplex Towers", "height": null, "height_m": 15.0, "levels": 5, "tract_id": "40143007650", "tract_name": "76.50", "tags": {"addr:city": "Tulsa", "addr:country": "US", "addr:housenumber": "2448", "addr:postcode": "74137", "addr:state": "OK", "addr:street": "East 81st Street South", "building": "office", "building:levels": "5", "name": "Cityplex Towers"}}}, {"type": "Feature", "geometry": {"type": "Polygon", "coordinates": [[[-95.9527117, 36.0425847], [-95.9525199, 36.0428714], [-95.9525912, 36.0429018], [-95.9525622, 36.0429452], [-95.9526253, 36.0429471], [-95.9526256, 36.0430078], [-95.9530427, 36.0430142], [-95.9530455, 36.0429452], [-95.9531087, 36.0429418], [-95.9530739, 36.0428987], [-95.9531473, 36.0428601], [-95.9529228, 36.0425736], [-95.9528491, 36.0426104], [-95.9528117, 36.0425718], [-95.9527848, 36.0426147], [-95.9527117, 36.0425847]]]}, "properties": {"osm_id": 223775665, "building": "commercial", "name": "Cityplex Tower 20", "height": null, "height_m": 60.0, "levels": 20, "tract_id": "40143007650", "tract_name": "76.50", "tags": {"addr:city": "Tulsa", "addr:housenumber": "2488", "addr:postcode": "74137", "addr:state": "OK", "addr:street": "East 81st Street South", "building": "commercial", "building:levels": "20", "layer": "1", "name": "Cityplex Tower 20"}}}, {"type": "Feature", "geometry": {"type": "Polygon", "coordinates": [[[-95.9543716, 36.0430002], [-95.9539185, 36.0430046], [-95.9539168, 36.042947], [-95.9538852, 36.0429488], [-95.9539198, 36.0429008], [-95.9538535, 36.0428634], [-95.9540779, 36.0425719], [-95.9541533, 36.0426065], [-95.9542126, 36.0426105], [-95.9542831, 36.0425855], [-95.9544645, 36.0428744], [-95.9544058, 36.0429008], [-95.9544351, 36.0429445], [-95.9543702, 36.042942], [-95.9543716, 36.0430002]]]}, "properties": {"osm_id": 223775666, "building": "office", "name": "Cityplex Tower 40", "height": null, "height_m": 90.0, "levels": 30, "tract_id": "40143007650", "tract_name": "76.50", "tags": {"building": "office", "building:levels": "30", "layer": "1", "name": "Cityplex Tower 40"}}}, {"type": "Feature", "geometry": {"type": "Polygon", "coordinates": [[[-95.9536653, 36.0429528], [-95.9533312, 36.0429555], [-95.9533306, 36.0430269], [-95.9533108, 36.043027], [-95.9533113, 36.0430455], [-95.9532416, 36.0430902], [-95.953405, 36.0433182], [-95.9534836, 36.0432822], [-95.9534982, 36.0433026], [-95.9535134, 36.043284], [-95.9535811, 36.0433162], [-95.9537606, 36.043085], [-95.9536803, 36.043045], [-95.9536925, 36.0430265], [-95.9536671, 36.0430241], [-95.9536653, 36.0429528]]]}, "properties": {"osm_id": 223775667, "building": "office", "name": "Cityplex Tower 60", "height": null, "height_m": 180.0, "levels": 60, "tract_id": "40143007650", "tract_name": "76.50", "tags": {"addr:city": "Tulsa", "addr:housenumber": "2448", "addr:postcode": "74137", "addr:state": "OK", "addr:street": "East 81st Street South", "building": "office", "building:levels": "60", "layer": "1", "name": "Cityplex Tower 60"}}}, {"type": "Feature", "geometry": {"type": "Polygon", "coordinates": [[[-95.9540304, 36.0376559], [-95.9540485, 36.0376497], [-95.9542314, 36.0377958], [-95.9542692, 36.0377663], [-95.9543151, 36.0378048], [-95.9542761, 36.0378353], [-95.9543979, 36.0379325], [-95.9543979, 36.0379938], [-95.9544147, 36.0379938], [-95.9544709, 36.0380409], [-95.954471, 36.0380615], [-95.9545223, 36.0380613], [-95.9545239, 36.0384197], [-95.9537254, 36.038422], [-95.9537252, 36.0383909], [-95.9535829, 36.0383913], [-95.9535816, 36.0381148], [-95.9537299, 36.0381144], [-95.9537297, 36.0380633], [-95.9535492, 36.0380638], [-95.9535463, 36.0374169], [-95.9539546, 36.0374157], [-95.9539549, 36.0374919], [-95.9540297, 36.0374916], [-95.9540304, 36.0376559]]]}, "properties": {"osm_id": 321204608, "building": "yes", "name": "Andy B's", "height": null, "height_m": null, "levels": null, "tract_id": "40143007650", "tract_name": "76.50", "tags": {"addr:city": "Tulsa", "addr:country": "US", "addr:housenumber": "8711", "addr:postcode": "74137", "addr:state": "OK", "addr:street": "South Lewis Avenue East", "building": "yes", "leisure": "sports_centre", "name": "Andy B's", "source": "INCOG", "sport": "10pin", "wheelchair": "limited"}}}, {"type": "Feature", "geometry": {"type": "Polygon", "coordinates": [[[-95.9500121, 36.0458313], [-95.9505258, 36.0458335], [-95.9505244, 36.0453792], [-95.9505623, 36.04538], [-95.9505623, 36.0452873], [-95.9506059, 36.0452878], [-95.9506059, 36.0448199], [-95.9500916, 36.0448205], [-95.9500936, 36.0452336], [-95.9501331, 36.0452336], [-95.9501338, 36.0454125], [-95.9500111, 36.045412], [-95.9500121, 36.0458313]]]}, "properties": {"osm_id": 334866507, "building": "school", "name": "ORU Nursing & Engineering Center", "height": null, "height_m": null, "levels": null, "tract_id": "40143007650", "tract_name": "76.50", "tags": {"building": "school", "name": "ORU Nursing & Engineering Center"}}}, {"type": "Feature", "geometry": {"type": "Polygon", "coordinates": [[[-95.9641527, 36.0436712], [-95.9638851, 36.042904], [-95.9638187, 36.0429192], [-95.9637904, 36.0428379], [-95.9638567, 36.0428227], [-95.9638461, 36.0427923], [-95.9638769, 36.0427649], [-95.9641197, 36.0425489], [-95.9643877, 36.042491], [-95.9643581, 36.0424044], [-95.9640634, 36.0422524], [-95.9641463, 36.0421822], [-95.9643343, 36.0420214], [-95.9647447, 36.0423131], [-95.9651468, 36.0434404], [-95.9650467, 36.0434628], [-95.9647435, 36.0435307], [-95.9647552, 36.043565], [-95.9647049, 36.0435764], [-95.9646954, 36.0435489], [-95.9641527, 36.0436712]]]}, "properties": {"osm_id": 357245420, "building": "parking", "name": "River Spirit Event Center", "height": null, "height_m": 18.0, "levels": 6, "tract_id": "40143007650", "tract_name": "76.50", "tags": {"access": "customers", "amenity": "parking", "building": "parking", "building:colour": "beige", "building:levels": "6", "fee": "no", "name": "River Spirit Event Center", "opening_hours": "24/7", "parking": "multi-storey", "roof:levels": "0", "wheelchair": "yes"}}}, {"type": "Feature", "geometry": {"type": "Polygon", "coordinates": [[[-95.9530642, 36.0360912], [-95.952445, 36.0360912], [-95.952445, 36.0359826], [-95.9530642, 36.0359826], [-95.9530642, 36.0360912]]]}, "properties": {"osm_id": 380475457, "building": "apartments", "name": "", "height": null, "height_m": 6.0, "levels": 2, "tract_id": "40143007650", "tract_name": "76.50", "tags": {"addr:city": "Tulsa", "addr:country": "US", "addr:housenumber": "2502", "addr:postcode": "74137", "addr:state": "OK", "addr:street": "East 88th Street South", "building": "apartments", "building:levels": "2", "roof:levels": "1", "roof:shape": "many"}}}, {"type": "Feature", "geometry": {"type": "Polygon", "coordinates": [[[-95.9530197, 36.035945], [-95.9528885, 36.035946], [-95.9528855, 36.0356825], [-95.9530167, 36.0356815], [-95.9530197, 36.035945]]]}, "properties": {"osm_id": 380475469, "building": "apartments", "name": "", "height": null, "height_m": 6.0, "levels": 2, "tract_id": "40143007650", "tract_name": "76.50", "tags": {"addr:city": "Tulsa", "addr:country": "US", "addr:housenumber": "2504", "addr:postcode": "74137", "addr:state": "OK", "addr:street": "East 88th Street South", "building": "apartments", "building:levels": "2", "roof:levels": "1", "roof:shape": "many"}}}, {"type": "Feature", "geometry": {"type": "Polygon", "coordinates": [[[-95.9528564, 36.0359442], [-95.9527252, 36.0359452], [-95.9527221, 36.0356816], [-95.9528533, 36.0356807], [-95.9528564, 36.0359442]]]}, "properties": {"osm_id": 380475479, "building": "apartments", "name": "", "height": null, "height_m": 6.0, "levels": 2, "tract_id": "40143007650", "tract_name": "76.50", "tags": {"addr:city": "Tulsa", "addr:country": "US", "addr:housenumber": "2506", "addr:postcode": "74137", "addr:state": "OK", "addr:street": "East 88th Street South", "building": "apartments", "building:levels": "2", "roof:levels": "1", "roof:shape": "many"}}}, {"type": "Feature", "geometry": {"type": "Polygon", "coordinates": [[[-95.9526529, 36.0357179], [-95.9526529, 36.0358261], [-95.9520345, 36.0358261], [-95.9520345, 36.0357179], [-95.9526529, 36.0357179]]]}, "properties": {"osm_id": 380475492, "building": "apartments", "name": "", "height": null, "height_m": 6.0, "levels": 2, "tract_id": "40143007650", "tract_name": "76.50", "tags": {"addr:city": "Tulsa", "addr:country": "US", "addr:housenumber": "2508", "addr:postcode": "74137", "addr:state": "OK", "addr:street": "East 88th Street South", "building": "apartments", "building:levels": "2", "roof:levels": "1", "roof:shape": "many"}}}, {"type": "Feature", "geometry": {"type": "Polygon", "coordinates": [[[-95.9520258, 36.0358496], [-95.9524576, 36.0358505], [-95.9524572, 36.035957], [-95.9520255, 36.0359561], [-95.9520258, 36.0358496]]]}, "properties": {"osm_id": 380475502, "building": "apartments", "name": "", "height": null, "height_m": 6.0, "levels": 2, "tract_id": "40143007650", "tract_name": "76.50", "tags": {"addr:city": "Tulsa", "addr:country": "US", "addr:housenumber": "2510", "addr:postcode": "74137", "addr:state": "OK", "addr:street": "East 88th Street South", "building": "apartments", "building:levels": "2", "roof:levels": "1", "roof:shape": "many"}}}, {"type": "Feature", "geometry": {"type": "Polygon", "coordinates": [[[-95.951994, 36.0362836], [-95.9523005, 36.0360366], [-95.9523064, 36.0360414], [-95.9523916, 36.0361105], [-95.9520851, 36.0363575], [-95.951994, 36.0362836]]]}, "properties": {"osm_id": 380475510, "building": "apartments", "name": "", "height": null, "height_m": 6.0, "levels": 2, "tract_id": "40143007650", "tract_name": "76.50", "tags": {"addr:city": "Tulsa", "addr:country": "US", "addr:housenumber": "2512", "addr:postcode": "74137", "addr:state": "OK", "addr:street": "East 88th Street South", "building": "apartments", "building:levels": "2", "roof:levels": "1", "roof:shape": "many"}}}, {"type": "Feature", "geometry": {"type": "Polygon", "coordinates": [[[-95.9520576, 36.0361927], [-95.9516851, 36.0364951], [-95.9515919, 36.03642], [-95.9519643, 36.0361176], [-95.9520576, 36.0361927]]]}, "properties": {"osm_id": 380475526, "building": "apartments", "name": "", "height": null, "height_m": 6.0, "levels": 2, "tract_id": "40143007650", "tract_name": "76.50", "tags": {"addr:city": "Tulsa", "addr:country": "US", "addr:housenumber": "2514", "addr:postcode": "74137", "addr:state": "OK", "addr:street": "East 88th Street South", "building": "apartments", "building:levels": "2", "roof:levels": "1", "roof:shape": "many"}}}, {"type": "Feature", "geometry": {"type": "Polygon", "coordinates": [[[-95.9515308, 36.0366271], [-95.9514358, 36.0367036], [-95.9510622, 36.0364006], [-95.9511571, 36.036324], [-95.9515308, 36.0366271]]]}, "properties": {"osm_id": 380475543, "building": "apartments", "name": "", "height": null, "height_m": 6.0, "levels": 2, "tract_id": "40143007650", "tract_name": "76.50", "tags": {"addr:city": "Tulsa", "addr:country": "US", "addr:housenumber": "2518", "addr:postcode": "74137", "addr:state": "OK", "addr:street": "East 88th Street South", "building": "apartments", "building:levels": "2", "roof:levels": "1", "roof:shape": "many"}}}, {"type": "Feature", "geometry": {"type": "Polygon", "coordinates": [[[-95.9516445, 36.0365342], [-95.9515495, 36.0366108], [-95.9511759, 36.0363077], [-95.9512708, 36.0362312], [-95.9516445, 36.0365342]]]}, "properties": {"osm_id": 380475558, "building": "apartments", "name": "", "height": null, "height_m": 6.0, "levels": 2, "tract_id": "40143007650", "tract_name": "76.50", "tags": {"addr:city": "Tulsa", "addr:country": "US", "addr:housenumber": "2520", "addr:postcode": "74137", "addr:state": "OK", "addr:street": "East 88th Street South", "building": "apartments", "building:levels": "2", "roof:levels": "1", "roof:shape": "quadruple_saltbox"}}}, {"type": "Feature", "geometry": {"type": "Polygon", "coordinates": [[[-95.9515391, 36.035984], [-95.9520226, 36.0359797], [-95.952024, 36.0360781], [-95.9515405, 36.0360825], [-95.9515391, 36.035984]]]}, "properties": {"osm_id": 380475570, "building": "apartments", "name": "", "height": null, "height_m": 6.0, "levels": 2, "tract_id": "40143007650", "tract_name": "76.50", "tags": {"addr:city": "Tulsa", "addr:country": "US", "addr:housenumber": "2522", "addr:postcode": "74137", "addr:state": "OK", "addr:street": "East 88th Street South", "building": "apartments", "building:levels": "2", "roof:levels": "1", "roof:shape": "many"}}}, {"type": "Feature", "geometry": {"type": "Polygon", "coordinates": [[[-95.9514679, 36.0361785], [-95.9513343, 36.0361786], [-95.9513336, 36.0356916], [-95.9514672, 36.0356915], [-95.9514679, 36.0361785]]]}, "properties": {"osm_id": 380475584, "building": "apartments", "name": "", "height": null, "height_m": 6.0, "levels": 2, "tract_id": "40143007650", "tract_name": "76.50", "tags": {"addr:city": "Tulsa", "addr:country": "US", "addr:housenumber": "2524", "addr:postcode": "74137", "addr:state": "OK", "addr:street": "East 88th Street South", "building": "apartments", "building:levels": "2", "roof:levels": "1", "roof:shape": "many"}}}, {"type": "Feature", "geometry": {"type": "Polygon", "coordinates": [[[-95.9512984, 36.036179], [-95.9511648, 36.0361791], [-95.9511641, 36.0356921], [-95.9512976, 36.035692], [-95.9512984, 36.036179]]]}, "properties": {"osm_id": 380475598, "building": "apartments", "name": "", "height": null, "height_m": 6.0, "levels": 2, "tract_id": "40143007650", "tract_name": "76.50", "tags": {"addr:city": "Tulsa", "addr:country": "US", "addr:housenumber": "2526", "addr:postcode": "74137", "addr:state": "OK", "addr:street": "East 88th Street South", "building": "apartments", "building:levels": "2", "roof:levels": "1", "roof:shape": "many"}}}, {"type": "Feature", "geometry": {"type": "Polygon", "coordinates": [[[-95.9507149, 36.0362209], [-95.9508333, 36.0362221], [-95.9508283, 36.0365397], [-95.9507099, 36.0365385], [-95.9507149, 36.0362209]]]}, "properties": {"osm_id": 380475601, "building": "apartments", "name": "", "height": null, "height_m": 6.0, "levels": 2, "tract_id": "40143007650", "tract_name": "76.50", "tags": {"addr:city": "Tulsa", "addr:country": "US", "addr:housenumber": "2612", "addr:postcode": "74137", "addr:state": "OK", "addr:street": "East 88th Street South", "building": "apartments", "building:levels": "2", "roof:levels": "0"}}}, {"type": "Feature", "geometry": {"type": "Polygon", "coordinates": [[[-95.9505374, 36.0364409], [-95.9505344, 36.0360186], [-95.950661, 36.036018], [-95.950664, 36.0364403], [-95.9505374, 36.0364409]]]}, "properties": {"osm_id": 380475602, "building": "apartments", "name": "", "height": null, "height_m": 6.0, "levels": 2, "tract_id": "40143007650", "tract_name": "76.50", "tags": {"addr:city": "Tulsa", "addr:country": "US", "addr:housenumber": "2614", "addr:postcode": "74137", "addr:state": "OK", "addr:street": "East 88th Street South", "building": "apartments", "building:levels": "2", "roof:levels": "0"}}}, {"type": "Feature", "geometry": {"type": "Polygon", "coordinates": [[[-95.9508414, 36.0361919], [-95.9507139, 36.0361926], [-95.9507109, 36.0358517], [-95.9508384, 36.0358509], [-95.9508414, 36.0361919]]]}, "properties": {"osm_id": 380475603, "building": "apartments", "name": "", "height": null, "height_m": 6.0, "levels": 2, "tract_id": "40143007650", "tract_name": "76.50", "tags": {"addr:city": "Tulsa", "addr:country": "US", "addr:housenumber": "2616", "addr:postcode": "74137", "addr:state": "OK", "addr:street": "East 88th Street South", "building": "apartments", "building:levels": "2", "roof:levels": "1", "roof:shape": "quadruple_saltbox"}}}, {"type": "Feature", "geometry": {"type": "Polygon", "coordinates": [[[-95.9508594, 36.0357192], [-95.950858, 36.0358308], [-95.9503318, 36.0358264], [-95.9503332, 36.0357148], [-95.9508594, 36.0357192]]]}, "properties": {"osm_id": 380475604, "building": "apartments", "name": "", "height": null, "height_m": 6.0, "levels": 2, "tract_id": "40143007650", "tract_name": "76.50", "tags": {"addr:city": "Tulsa", "addr:country": "US", "addr:housenumber": "2618", "addr:postcode": "74137", "addr:state": "OK", "addr:street": "East 88th Street South", "building": "apartments", "building:levels": "2", "roof:levels": "1", "roof:shape": "many"}}}, {"type": "Feature", "geometry": {"type": "Polygon", "coordinates": [[[-95.9519048, 36.0365105], [-95.951539, 36.0368055], [-95.9514421, 36.0367269], [-95.9518079, 36.036432], [-95.9519048, 36.0365105]]]}, "properties": {"osm_id": 380475605, "building": "apartments", "name": "", "height": null, "height_m": 6.0, "levels": 2, "tract_id": "40143007650", "tract_name": "76.50", "tags": {"addr:city": "Tulsa", "addr:country": "US", "addr:housenumber": "2516", "addr:postcode": "74137", "addr:state": "OK", "addr:street": "East 88th Street South", "building": "apartments", "building:levels": "2", "roof:levels": "1", "roof:shape": "quadruple_saltbox"}}}, {"type": "Feature", "geometry": {"type": "Polygon", "coordinates": [[[-95.9500995, 36.0376564], [-95.9504613, 36.037353], [-95.9505528, 36.0374244], [-95.950191, 36.0377278], [-95.9500995, 36.0376564]]]}, "properties": {"osm_id": 380475606, "building": "apartments", "name": "", "height": null, "height_m": 6.0, "levels": 2, "tract_id": "40143007650", "tract_name": "76.50", "tags": {"addr:city": "Tulsa", "addr:country": "US", "addr:housenumber": "2704", "addr:postcode": "74137", "addr:state": "OK", "addr:street": "East 88th Street South", "building": "apartments", "building:levels": "2", "roof:levels": "0"}}}, {"type": "Feature", "geometry": {"type": "Polygon", "coordinates": [[[-95.9499469, 36.0362384], [-95.9494553, 36.036242], [-95.9494542, 36.0361427], [-95.9499458, 36.0361392], [-95.9499469, 36.0362384]]]}, "properties": {"osm_id": 380475608, "building": "apartments", "name": "", "height": null, "height_m": 6.0, "levels": 2, "tract_id": "40143007650", "tract_name": "76.50", "tags": {"addr:city": "Tulsa", "addr:country": "US", "addr:housenumber": "8822", "addr:postcode": "74137", "addr:state": "OK", "addr:street": "South Delaware Avenue", "building": "apartments", "building:levels": "2", "roof:levels": "0"}}}, {"type": "Feature", "geometry": {"type": "Polygon", "coordinates": [[[-95.950468, 36.0361795], [-95.9500435, 36.0361819], [-95.9500428, 36.0360968], [-95.9504673, 36.0360945], [-95.950468, 36.0361795]]]}, "properties": {"osm_id": 380475609, "building": "apartments", "name": "", "height": null, "height_m": 6.0, "levels": 2, "tract_id": "40143007650", "tract_name": "76.50", "tags": {"addr:city": "Tulsa", "addr:country": "US", "addr:housenumber": "2622", "addr:postcode": "74137", "addr:state": "OK", "addr:street": "East 88th Street South", "building": "apartments", "building:levels": "2", "roof:levels": "0"}}}, {"type": "Feature", "geometry": {"type": "Polygon", "coordinates": [[[-95.9498315, 36.0364527], [-95.9498315, 36.0363067], [-95.9499357, 36.0363067], [-95.9499357, 36.0364527], [-95.9498315, 36.0364527]]]}, "properties": {"osm_id": 380475610, "building": "apartments", "name": "", "height": null, "height_m": 6.0, "levels": 2, "tract_id": "40143007650", "tract_name": "76.50", "tags": {"addr:city": "Tulsa", "addr:country": "US", "addr:housenumber": "8820", "addr:postcode": "74137", "addr:state": "OK", "addr:street": "South Delaware Avenue", "building": "apartments", "building:levels": "2", "roof:levels": "0"}}}, {"type": "Feature", "geometry": {"type": "Polygon", "coordinates": [[[-95.9512582, 36.0369019], [-95.9513433, 36.0369705], [-95.9508596, 36.0373628], [-95.9507745, 36.0372942], [-95.9512582, 36.0369019]]]}, "properties": {"osm_id": 380475611, "building": "apartments", "name": "", "height": null, "height_m": 6.0, "levels": 2, "tract_id": "40143007650", "tract_name": "76.50", "tags": {"addr:city": "Tulsa", "addr:country": "US", "addr:housenumber": "2602", "addr:postcode": "74137", "addr:state": "OK", "addr:street": "East 88th Street South", "building": "apartments", "building:levels": "2", "roof:levels": "1", "roof:shape": "quadruple_saltbox"}}}, {"type": "Feature", "geometry": {"type": "Polygon", "coordinates": [[[-95.9497854, 36.0376085], [-95.9497834, 36.0373046], [-95.9498994, 36.0373041], [-95.9499015, 36.037608], [-95.9497854, 36.0376085]]]}, "properties": {"osm_id": 380475612, "building": "apartments", "name": "", "height": null, "height_m": 6.0, "levels": 2, "tract_id": "40143007650", "tract_name": "76.50", "tags": {"addr:city": "Tulsa", "addr:country": "US", "addr:housenumber": "8806", "addr:postcode": "74137", "addr:state": "OK", "addr:street": "South Delaware Avenue", "building": "apartments", "building:levels": "2", "roof:levels": "0"}}}, {"type": "Feature", "geometry": {"type": "Polygon", "coordinates": [[[-95.9501061, 36.0363276], [-95.9503804, 36.0365589], [-95.9502937, 36.0366261], [-95.9500195, 36.0363948], [-95.9501061, 36.0363276]]]}, "properties": {"osm_id": 380475613, "building": "apartments", "name": "", "height": null, "height_m": 6.0, "levels": 2, "tract_id": "40143007650", "tract_name": "76.50", "tags": {"addr:city": "Tulsa", "addr:country": "US", "addr:housenumber": "2626", "addr:postcode": "74137", "addr:state": "OK", "addr:street": "East 88th Street South", "building": "apartments", "building:levels": "2", "roof:levels": "0"}}}, {"type": "Feature", "geometry": {"type": "Polygon", "coordinates": [[[-95.9508414, 36.0371785], [-95.9507515, 36.0372498], [-95.9504714, 36.0370192], [-95.9505613, 36.0369479], [-95.9508414, 36.0371785]]]}, "properties": {"osm_id": 380475614, "building": "apartments", "name": "", "height": null, "height_m": 6.0, "levels": 2, "tract_id": "40143007650", "tract_name": "76.50", "tags": {"addr:city": "Tulsa", "addr:country": "US", "addr:housenumber": "2610", "addr:postcode": "74137", "addr:state": "OK", "addr:street": "East 88th Street South", "building": "apartments", "building:levels": "2", "roof:levels": "0"}}}, {"type": "Feature", "geometry": {"type": "Polygon", "coordinates": [[[-95.9495893, 36.0380465], [-95.949587, 36.037705], [-95.9497182, 36.0377044], [-95.9497205, 36.0380459], [-95.9495893, 36.0380465]]]}, "properties": {"osm_id": 380475615, "building": "apartments", "name": "", "height": null, "height_m": 6.0, "levels": 2, "tract_id": "40143007650", "tract_name": "76.50", "tags": {"addr:city": "Tulsa", "addr:country": "US", "addr:housenumber": "2217", "addr:postcode": "74137", "addr:state": "OK", "addr:street": "East 88th Street South", "building": "apartments", "building:levels": "2", "roof:levels": "0", "roof:shape": "quadruple_saltbox"}}}, {"type": "Feature", "geometry": {"type": "Polygon", "coordinates": [[[-95.9504971, 36.0364645], [-95.950414, 36.0365338], [-95.9501281, 36.0363097], [-95.9502111, 36.0362403], [-95.9504971, 36.0364645]]]}, "properties": {"osm_id": 380475616, "building": "apartments", "name": "", "height": null, "height_m": 6.0, "levels": 2, "tract_id": "40143007650", "tract_name": "76.50", "tags": {"addr:city": "Tulsa", "addr:country": "US", "addr:housenumber": "2624", "addr:postcode": "74137", "addr:state": "OK", "addr:street": "East 88th Street South", "building": "apartments", "building:levels": "2", "roof:levels": "0"}}}, {"type": "Feature", "geometry": {"type": "Polygon", "coordinates": [[[-95.9497631, 36.0361122], [-95.9496374, 36.036114], [-95.9496316, 36.0358521], [-95.9497573, 36.0358503], [-95.9497631, 36.0361122]]]}, "properties": {"osm_id": 380475617, "building": "apartments", "name": "", "height": null, "height_m": 6.0, "levels": 2, "tract_id": "40143007650", "tract_name": "76.50", "tags": {"addr:city": "Tulsa", "addr:country": "US", "addr:housenumber": "8824", "addr:postcode": "74137", "addr:state": "OK", "addr:street": "South Delaware Avenue", "building": "apartments", "building:levels": "2", "roof:levels": "0"}}}, {"type": "Feature", "geometry": {"type": "Polygon", "coordinates": [[[-95.951077, 36.0369852], [-95.9509891, 36.0370565], [-95.9508443, 36.0369398], [-95.9509322, 36.0368685], [-95.951077, 36.0369852]]]}, "properties": {"osm_id": 380475618, "building": "apartments", "name": "", "height": null, "height_m": 6.0, "levels": 2, "tract_id": "40143007650", "tract_name": "76.50", "tags": {"addr:city": "Tulsa", "addr:country": "US", "addr:housenumber": "2606", "addr:postcode": "74137", "addr:state": "OK", "addr:street": "East 88th Street South", "building": "apartments", "building:levels": "2", "roof:levels": "0"}}}, {"type": "Feature", "geometry": {"type": "Polygon", "coordinates": [[[-95.9503436, 36.0359608], [-95.9503423, 36.0358559], [-95.9506583, 36.0358535], [-95.9506595, 36.0359584], [-95.9503436, 36.0359608]]]}, "properties": {"osm_id": 380475621, "building": "apartments", "name": "", "height": null, "height_m": 6.0, "levels": 2, "tract_id": "40143007650", "tract_name": "76.50", "tags": {"addr:city": "Tulsa", "addr:country": "US", "addr:housenumber": "2620", "addr:postcode": "74137", "addr:state": "OK", "addr:street": "East 88th Street South", "building": "apartments", "building:levels": "2", "roof:levels": "1", "roof:shape": "many"}}}, {"type": "Feature", "geometry": {"type": "Polygon", "coordinates": [[[-95.9504578, 36.0360498], [-95.9503075, 36.0360474], [-95.9503087, 36.0360016], [-95.9504589, 36.0360039], [-95.9504578, 36.0360498]]]}, "properties": {"osm_id": 380475622, "building": "garage", "name": "", "height": null, "height_m": 3.0, "levels": 1, "tract_id": "40143007650", "tract_name": "76.50", "tags": {"building": "garage", "building:levels": "1", "roof:levels": "0"}}}, {"type": "Feature", "geometry": {"type": "Polygon", "coordinates": [[[-95.9502147, 36.0377486], [-95.9505765, 36.0374453], [-95.950668, 36.0375166], [-95.9503062, 36.03782], [-95.9502147, 36.0377486]]]}, "properties": {"osm_id": 380475623, "building": "apartments", "name": "", "height": null, "height_m": 6.0, "levels": 2, "tract_id": "40143007650", "tract_name": "76.50", "tags": {"addr:city": "Tulsa", "addr:country": "US", "addr:housenumber": "2702", "addr:postcode": "74137", "addr:state": "OK", "addr:street": "East 88th Street South", "building": "apartments", "building:levels": "2", "roof:levels": "0"}}}, {"type": "Feature", "geometry": {"type": "Polygon", "coordinates": [[[-95.950332, 36.0374009], [-95.9501199, 36.0372285], [-95.9502074, 36.0371581], [-95.9504195, 36.0373305], [-95.950332, 36.0374009]]]}, "properties": {"osm_id": 380475624, "building": "apartments", "name": "", "height": null, "height_m": 6.0, "levels": 2, "tract_id": "40143007650", "tract_name": "76.50", "tags": {"addr:city": "Tulsa", "addr:country": "US", "addr:housenumber": "2607", "addr:postcode": "74137", "addr:state": "OK", "addr:street": "East 88th Street South", "building": "apartments", "building:levels": "2", "roof:levels": "0"}}}, {"type": "Feature", "geometry": {"type": "Polygon", "coordinates": [[[-95.9499518, 36.0376079], [-95.9499497, 36.0373039], [-95.9500658, 36.0373034], [-95.9500678, 36.0376074], [-95.9499518, 36.0376079]]]}, "properties": {"osm_id": 380475625, "building": "apartments", "name": "", "height": null, "height_m": 6.0, "levels": 2, "tract_id": "40143007650", "tract_name": "76.50", "tags": {"addr:city": "Tulsa", "addr:country": "US", "addr:housenumber": "2708", "addr:postcode": "74137", "addr:state": "OK", "addr:street": "East 88th Street South", "building": "apartments", "building:levels": "2", "roof:levels": "0"}}}, {"type": "Feature", "geometry": {"type": "Polygon", "coordinates": [[[-95.9494509, 36.0364777], [-95.9499305, 36.0364744], [-95.9499316, 36.036577], [-95.9494519, 36.0365803], [-95.9494509, 36.0364777]]]}, "properties": {"osm_id": 380475628, "building": "apartments", "name": "", "height": null, "height_m": 6.0, "levels": 2, "tract_id": "40143007650", "tract_name": "76.50", "tags": {"addr:city": "Tulsa", "addr:country": "US", "addr:housenumber": "8818", "addr:postcode": "74137", "addr:state": "OK", "addr:street": "South Delaware Avenue", "building": "apartments", "building:levels": "2", "roof:levels": "0"}}}, {"type": "Feature", "geometry": {"type": "Polygon", "coordinates": [[[-95.9508958, 36.0368386], [-95.9506843, 36.0370096], [-95.9505992, 36.0369408], [-95.9508107, 36.0367698], [-95.9508958, 36.0368386]]]}, "properties": {"osm_id": 380475629, "building": "apartments", "name": "", "height": null, "height_m": 6.0, "levels": 2, "tract_id": "40143007650", "tract_name": "76.50", "tags": {"addr:city": "Tulsa", "addr:country": "US", "addr:housenumber": "2608", "addr:postcode": "74137", "addr:state": "OK", "addr:street": "East 88th Street South", "building": "apartments", "building:levels": "2", "roof:levels": "0"}}}, {"type": "Feature", "geometry": {"type": "Polygon", "coordinates": [[[-95.952544, 36.0358788], [-95.9525468, 36.0359147], [-95.9524995, 36.0359171], [-95.9524966, 36.0358812], [-95.952544, 36.0358788]]]}, "properties": {"osm_id": 380475630, "building": "warehouse", "name": "", "height": null, "height_m": 3.0, "levels": 1, "tract_id": "40143007650", "tract_name": "76.50", "tags": {"building": "warehouse", "building:levels": "1", "roof:levels": "0", "roof:shape": "hipped"}}}, {"type": "Feature", "geometry": {"type": "Polygon", "coordinates": [[[-95.950058, 36.0360646], [-95.9499427, 36.0360652], [-95.9499397, 36.0356959], [-95.950055, 36.0356953], [-95.950058, 36.0360646]]]}, "properties": {"osm_id": 380475632, "building": "apartments", "name": "", "height": null, "height_m": 6.0, "levels": 2, "tract_id": "40143007650", "tract_name": "76.50", "tags": {"addr:city": "Tulsa", "addr:country": "US", "addr:housenumber": "2630", "addr:postcode": "74137", "addr:state": "OK", "addr:street": "East 88th Street South", "building": "apartments", "building:levels": "2", "roof:levels": "0"}}}, {"type": "Feature", "geometry": {"type": "Polygon", "coordinates": [[[-95.951112, 36.0369551], [-95.9508304, 36.0367327], [-95.9509185, 36.0366598], [-95.9512001, 36.0368822], [-95.951112, 36.0369551]]]}, "properties": {"osm_id": 380475633, "building": "apartments", "name": "", "height": null, "height_m": 6.0, "levels": 2, "tract_id": "40143007650", "tract_name": "76.50", "tags": {"addr:city": "Tulsa", "addr:country": "US", "addr:housenumber": "2604", "addr:postcode": "74137", "addr:state": "OK", "addr:street": "East 88th Street South", "building": "apartments", "building:levels": "2", "roof:levels": "1", "roof:shape": "quadruple_saltbox"}}}, {"type": "Feature", "geometry": {"type": "Polygon", "coordinates": [[[-95.9495837, 36.0361122], [-95.9494567, 36.0361129], [-95.9494538, 36.0357767], [-95.9495808, 36.035776], [-95.9495837, 36.0361122]]]}, "properties": {"osm_id": 380475635, "building": "apartments", "name": "", "height": null, "height_m": 6.0, "levels": 2, "tract_id": "40143007650", "tract_name": "76.50", "tags": {"addr:city": "Tulsa", "addr:country": "US", "addr:housenumber": "8826", "addr:postcode": "74137", "addr:state": "OK", "addr:street": "South Delaware Avenue", "building": "apartments", "building:levels": "2", "roof:levels": "0"}}}, {"type": "Feature", "geometry": {"type": "Polygon", "coordinates": [[[-95.9494491, 36.0369476], [-95.9494447, 36.0366067], [-95.9495715, 36.0366056], [-95.9495759, 36.0369466], [-95.9494491, 36.0369476]]]}, "properties": {"osm_id": 380475636, "building": "apartments", "name": "", "height": null, "height_m": 6.0, "levels": 2, "tract_id": "40143007650", "tract_name": "76.50", "tags": {"addr:city": "Tulsa", "addr:country": "US", "addr:housenumber": "8816", "addr:postcode": "74137", "addr:state": "OK", "addr:street": "South Delaware Avenue", "building": "apartments", "building:levels": "2", "roof:levels": "0"}}}, {"type": "Feature", "geometry": {"type": "Polygon", "coordinates": [[[-95.949614, 36.0369358], [-95.9496132, 36.0368366], [-95.9500946, 36.0368343], [-95.9500954, 36.0369335], [-95.949614, 36.0369358]]]}, "properties": {"osm_id": 380475637, "building": "apartments", "name": "", "height": null, "height_m": 6.0, "levels": 2, "tract_id": "40143007650", "tract_name": "76.50", "tags": {"addr:city": "Tulsa", "addr:country": "US", "addr:housenumber": "8810", "addr:postcode": "74137", "addr:state": "OK", "addr:street": "South Delaware Avenue", "building": "apartments", "building:levels": "2", "roof:levels": "0"}}}, {"type": "Feature", "geometry": {"type": "Polygon", "coordinates": [[[-95.949611, 36.0366963], [-95.9501319, 36.0366904], [-95.9501339, 36.0368059], [-95.949613, 36.0368118], [-95.949611, 36.0366963]]]}, "properties": {"osm_id": 380475638, "building": "apartments", "name": "", "height": null, "height_m": 6.0, "levels": 2, "tract_id": "40143007650", "tract_name": "76.50", "tags": {"addr:city": "Tulsa", "addr:country": "US", "addr:housenumber": "8814", "addr:postcode": "74137", "addr:state": "OK", "addr:street": "South Delaware Avenue", "building": "apartments", "building:levels": "2", "roof:levels": "0"}}}, {"type": "Feature", "geometry": {"type": "Polygon", "coordinates": [[[-95.9500254, 36.037975], [-95.9498497, 36.0380689], [-95.9497888, 36.0379943], [-95.9499645, 36.0379004], [-95.9500254, 36.037975]]]}, "properties": {"osm_id": 380475639, "building": "apartments", "name": "", "height": null, "height_m": 6.0, "levels": 2, "tract_id": "40143007650", "tract_name": "76.50", "tags": {"addr:city": "Tulsa", "addr:country": "US", "addr:housenumber": "2212", "addr:postcode": "74137", "addr:state": "OK", "addr:street": "East 88th Street South", "building": "apartments", "building:levels": "2", "roof:levels": "0", "roof:shape": "quadruple_saltbox"}}}, {"type": "Feature", "geometry": {"type": "Polygon", "coordinates": [[[-95.9498506, 36.0358208], [-95.9496376, 36.0358232], [-95.9496358, 36.035716], [-95.9498488, 36.0357136], [-95.9498506, 36.0358208]]]}, "properties": {"osm_id": 380475640, "building": "apartments", "name": "", "height": null, "height_m": 6.0, "levels": 2, "tract_id": "40143007650", "tract_name": "76.50", "tags": {"addr:city": "Tulsa", "addr:country": "US", "addr:housenumber": "8828", "addr:postcode": "74137", "addr:state": "OK", "addr:street": "South Delaware Avenue", "building": "apartments", "building:levels": "2", "roof:levels": "0"}}}, {"type": "Feature", "geometry": {"type": "Polygon", "coordinates": [[[-95.9494486, 36.0380461], [-95.9494463, 36.0377091], [-95.9495536, 36.0377086], [-95.9495559, 36.0380457], [-95.9494486, 36.0380461]]]}, "properties": {"osm_id": 380475641, "building": "apartments", "name": "", "height": null, "height_m": 6.0, "levels": 2, "tract_id": "40143007650", "tract_name": "76.50", "tags": {"addr:city": "Tulsa", "addr:country": "US", "addr:housenumber": "8802", "addr:postcode": "74137", "addr:state": "OK", "addr:street": "South Delaware Avenue", "building": "apartments", "building:levels": "2", "roof:levels": "0", "roof:shape": "quadruple_saltbox"}}}, {"type": "Feature", "geometry": {"type": "Polygon", "coordinates": [[[-95.9494511, 36.037275], [-95.9494504, 36.0371714], [-95.9500315, 36.0371689], [-95.9500322, 36.0372725], [-95.9494511, 36.037275]]]}, "properties": {"osm_id": 380475642, "building": "apartments", "name": "", "height": null, "height_m": 6.0, "levels": 2, "tract_id": "40143007650", "tract_name": "76.50", "tags": {"addr:city": "Tulsa", "addr:country": "US", "addr:housenumber": "8808", "addr:postcode": "74137", "addr:state": "OK", "addr:street": "South Delaware Avenue", "building": "apartments", "building:levels": "2", "roof:levels": "0"}}}, {"type": "Feature", "geometry": {"type": "Polygon", "coordinates": [[[-95.9503876, 36.0367679], [-95.9503906, 36.036885], [-95.9503322, 36.036886], [-95.9503325, 36.0368954], [-95.9502701, 36.0368964], [-95.9502699, 36.0368886], [-95.9502007, 36.0368898], [-95.9501976, 36.0367711], [-95.9503876, 36.0367679]]]}, "properties": {"osm_id": 380475643, "building": "office", "name": "Deerfield Estates Apartments", "height": null, "height_m": 6.0, "levels": 2, "tract_id": "40143007650", "tract_name": "76.50", "tags": {"addr:city": "Tulsa", "addr:country": "US", "addr:housenumber": "8812", "addr:postcode": "74137", "addr:state": "OK", "addr:street": "South Delaware Avenue", "building": "office", "building:levels": "2", "name": "Deerfield Estates Apartments", "office": "estate_agent", "opening_hours": "Mo-Fr 08:30-17:30; Sa 10:00-16:00", "roof:levels": "0", "wheelchair": "no"}}}, {"type": "Feature", "geometry": {"type": "Polygon", "coordinates": [[[-95.9552169, 36.0361598], [-95.9550916, 36.036206], [-95.955084, 36.0361925], [-95.9550687, 36.0361982], [-95.9549987, 36.0360744], [-95.9550149, 36.0360684], [-95.955006, 36.0360527], [-95.9551304, 36.0360068], [-95.9552169, 36.0361598]]]}, "properties": {"osm_id": 385459100, "building": "retail", "name": "Chalo's Tire Shop", "height": null, "height_m": 3.0, "levels": 1, "tract_id": "40143007650", "tract_name": "76.50", "tags": {"building": "retail", "building:levels": "1", "name": "Chalo's Tire Shop", "roof:levels": "0", "shop": "tyres"}}}, {"type": "Feature", "geometry": {"type": "Polygon", "coordinates": [[[-95.9520999, 36.0361233], [-95.9520614, 36.0361549], [-95.9520122, 36.0361157], [-95.9520508, 36.0360841], [-95.9520999, 36.0361233]]]}, "properties": {"osm_id": 392842304, "building": "warehouse", "name": "", "height": null, "height_m": 3.0, "levels": 1, "tract_id": "40143007650", "tract_name": "76.50", "tags": {"building": "warehouse", "building:levels": "1", "roof:levels": "0"}}}, {"type": "Feature", "geometry": {"type": "Polygon", "coordinates": [[[-95.9585812, 36.045712], [-95.958493, 36.0457116], [-95.9584148, 36.0457112], [-95.9583061, 36.0457106], [-95.9582979, 36.0457031], [-95.9582462, 36.0457031], [-95.9581875, 36.0457408], [-95.9581886, 36.0457808], [-95.9582067, 36.0457906], [-95.9582084, 36.0458474], [-95.95821, 36.0459042], [-95.9582031, 36.0459045], [-95.958204, 36.0459562], [-95.9582669, 36.0460048], [-95.9583168, 36.0460434], [-95.9583863, 36.0460434], [-95.9583863, 36.0460377], [-95.9584258, 36.0460376], [-95.9585302, 36.0460372], [-95.9585554, 36.0460178], [-95.9585829, 36.0459966], [-95.9585812, 36.045712]]]}, "properties": {"osm_id": 397672823, "building": "retail", "name": "", "height": null, "height_m": 3.0, "levels": 1, "tract_id": "40143007650", "tract_name": "76.50", "tags": {"addr:city": "Tulsa", "addr:housenumber": "8102", "addr:postcode": "74137", "addr:state": "OK", "addr:street": "South Lewis Avenue East", "building": "retail", "building:levels": "1", "roof:levels": "0", "roof:shape": "quadruple_saltbox"}}}, {"type": "Feature", "geometry": {"type": "Polygon", "coordinates": [[[-95.9582234, 36.0445011], [-95.9582267, 36.0446086], [-95.9582168, 36.0446081], [-95.9581905, 36.0446245], [-95.9581921, 36.0446537], [-95.9582033, 36.044661], [-95.958202, 36.0446812], [-95.9582007, 36.0447052], [-95.9581917, 36.0447099], [-95.9581929, 36.0447536], [-95.9582209, 36.0447712], [-95.9582799, 36.0447705], [-95.9583036, 36.0447523], [-95.9583036, 36.0447457], [-95.9585257, 36.044747], [-95.9585494, 36.0447294], [-95.9585548, 36.0447338], [-95.9585909, 36.0447048], [-95.958627, 36.0446757], [-95.9586204, 36.0446701], [-95.9586468, 36.0446453], [-95.9586484, 36.0445081], [-95.9586399, 36.0445005], [-95.9585051, 36.0445024], [-95.9585052, 36.0444933], [-95.9584835, 36.0444936], [-95.9584355, 36.0444942], [-95.9584356, 36.044503], [-95.9582234, 36.0445011]]]}, "properties": {"osm_id": 397672824, "building": "retail", "name": "", "height": null, "height_m": 3.0, "levels": 1, "tract_id": "40143007650", "tract_name": "76.50", "tags": {"addr:postcode": "74137", "addr:street": "South Lewis Avenue East", "building": "retail", "building:levels": "1", "roof:levels": "0", "roof:shape": "quadruple_saltbox"}}}, {"type": "Feature", "geometry": {"type": "Polygon", "coordinates": [[[-95.9591826, 36.0453952], [-95.9591769, 36.0453998], [-95.9591556, 36.0453837], [-95.9591341, 36.0453676], [-95.9591384, 36.0453629], [-95.959069, 36.0453628], [-95.9590385, 36.0453627], [-95.9589698, 36.0453626], [-95.9589093, 36.0453628], [-95.9588122, 36.0453638], [-95.9588118, 36.0453711], [-95.9587544, 36.0453711], [-95.9587294, 36.0453524], [-95.9587044, 36.0453338], [-95.9587033, 36.0452932], [-95.9587192, 36.045293], [-95.958719, 36.0451833], [-95.9587497, 36.0451585], [-95.9587803, 36.0451337], [-95.9588964, 36.0451356], [-95.9589337, 36.0451029], [-95.9589096, 36.0450853], [-95.9589085, 36.0450068], [-95.9589073, 36.0449167], [-95.9589322, 36.0449016], [-95.9588479, 36.0448354], [-95.9588458, 36.0448064], [-95.9588436, 36.0447773], [-95.9589434, 36.0446966], [-95.9590091, 36.0446969], [-95.9590451, 36.044697], [-95.9591186, 36.0446367], [-95.9591734, 36.0445918], [-95.9591726, 36.0445258], [-95.959172, 36.0444723], [-95.9591716, 36.044437], [-95.9591613, 36.0444371], [-95.9591344, 36.0444188], [-95.9591336, 36.044351], [-95.9591328, 36.0442832], [-95.959155, 36.0442638], [-95.9591678, 36.0442637], [-95.9591672, 36.0442107], [-95.9591669, 36.0441877], [-95.9591216, 36.0441508], [-95.9591099, 36.0441602], [-95.9590656, 36.0441241], [-95.9590067, 36.044076], [-95.9590184, 36.0440666], [-95.9589969, 36.044049], [-95.9589416, 36.0440494], [-95.9588109, 36.0440504], [-95.9587265, 36.044051], [-95.9586609, 36.0440515], [-95.9586048, 36.0440896], [-95.9585527, 36.04409], [-95.9585005, 36.0440904], [-95.9584478, 36.0440531], [-95.9583192, 36.044054], [-95.9583192, 36.0440599], [-95.958261, 36.0440603], [-95.9582362, 36.0440409], [-95.9582113, 36.0440214], [-95.9582109, 36.0439833], [-95.9582208, 36.0439832], [-95.9582196, 36.0438789], [-95.9582062, 36.043879], [-95.9582057, 36.0438345], [-95.95828, 36.043834], [-95.9582802, 36.0438513], [-95.9590349, 36.0438456], [-95.9590355, 36.0438985], [-95.9593376, 36.0438963], [-95.9593404, 36.0441361], [-95.9593997, 36.0441356], [-95.9594072, 36.0447961], [-95.9593228, 36.0447967], [-95.9593275, 36.0452079], [-95.9594027, 36.0452073], [-95.9594114, 36.0459719], [-95.9594204, 36.0459718], [-95.959421, 36.0460198], [-95.9593605, 36.0460203], [-95.9593604, 36.0460108], [-95.9593416, 36.0460109], [-95.9592846, 36.0460113], [-95.9592495, 36.0460116], [-95.9592302, 36.046027], [-95.9592133, 36.0460405], [-95.9589661, 36.0460424], [-95.9589662, 36.0460479], [-95.9588623, 36.0460487], [-95.9588419, 36.0460316], [-95.9588222, 36.0460151], [-95.9588213, 36.0459367], [-95.9588296, 36.0459366], [-95.9588293, 36.0459161], [-95.9589655, 36.0458041], [-95.9589593, 36.0457992], [-95.9589796, 36.0457825], [-95.9589999, 36.0457658], [-95.9590061, 36.0457707], [-95.9590198, 36.0457595], [-95.959089, 36.0457589], [-95.9591227, 36.0457315], [-95.9591653, 36.0456968], [-95.9591841, 36.0456815], [-95.9591836, 36.0456447], [-95.9591832, 36.0456092], [-95.9591777, 36.0456092], [-95.9591522, 36.0455914], [-95.9591516, 36.0455381], [-95.9591508, 36.0454728], [-95.959176, 36.0454529], [-95.9591832, 36.0454529], [-95.9591829, 36.045426], [-95.9591826, 36.0453952]]]}, "properties": {"osm_id": 397672825, "building": "retail", "name": "", "height": null, "height_m": 3.0, "levels": 1, "tract_id": "40143007650", "tract_name": "76.50", "tags": {"addr:postcode": "74137", "addr:street": "South Lewis Avenue East", "building": "retail", "building:levels": "1", "roof:levels": "0", "roof:shape": "quadruple_saltbox"}}}, {"type": "Feature", "geometry": {"type": "Polygon", "coordinates": [[[-95.9520193, 36.0351778], [-95.9517751, 36.0351788], [-95.9517759, 36.0352876], [-95.9512716, 36.0352899], [-95.9512709, 36.035181], [-95.9512131, 36.0351813], [-95.9512121, 36.0350238], [-95.9510345, 36.0350245], [-95.9510332, 36.0348346], [-95.9511667, 36.034834], [-95.9511664, 36.0347919], [-95.9512105, 36.0347917], [-95.9512085, 36.0344924], [-95.951165, 36.0344925], [-95.9511634, 36.0342583], [-95.951207, 36.0342581], [-95.9512119, 36.0340713], [-95.9513504, 36.0340714], [-95.9518343, 36.03407], [-95.9518341, 36.0339748], [-95.9520112, 36.033974], [-95.9520193, 36.0351778]]]}, "properties": {"osm_id": 418785345, "building": "warehouse", "name": "The Home Depot", "height": null, "height_m": 3.0, "levels": 1, "tract_id": "40143007650", "tract_name": "76.50", "tags": {"addr:city": "Tulsa", "addr:housenumber": "8880", "addr:postcode": "74137", "addr:state": "OK", "addr:street": "South Delaware Avenue", "alt_name": "Home Depot", "branch": "Southwest Tulsa", "brand": "The Home Depot", "brand:wikidata": "Q864407", "building": "warehouse", "building:colour": "tan", "building:levels": "1", "name": "The Home Depot", "opening_hours": "Mo-Sa 06:00-22:00; Su 08:00-20:00", "phone": "+1 918-299-3028", "ref": "3915", "roof:levels": "0", "roof:shape": "flat", "shop": "doityourself", "website": "https://www.homedepot.com/l/Sw-Tulsa/OK/Tulsa/74137/3915", "wheelchair": "yes"}}}, {"type": "Feature", "geometry": {"type": "Polygon", "coordinates": [[[-95.949736, 36.0348958], [-95.9494169, 36.0348969], [-95.9494159, 36.0347207], [-95.9497351, 36.0347197], [-95.949736, 36.0348958]]]}, "properties": {"osm_id": 418785346, "building": "yes", "name": "Liberty Laundry", "height": null, "height_m": null, "levels": null, "tract_id": "40143007650", "tract_name": "76.50", "tags": {"addr:city": "Tulsa", "addr:country": "US", "addr:housenumber": "8850", "addr:state": "OK", "addr:street": "South Delaware Avenue", "building": "yes", "building:colour": "beige", "check_date": "2024-07-16", "laundry_service": "yes", "name": "Liberty Laundry", "opening_hours": "Mo-Sa 07:00-21:00; Su 11:00-21:00", "payment:credit_cards": "yes", "payment:debit_cards": "no", "phone": "+1-918-528-3838", "self_service": "yes", "shop": "laundry"}}}, {"type": "Feature", "geometry": {"type": "Polygon", "coordinates": [[[-95.9543897, 36.0365827], [-95.9538653, 36.0367844], [-95.9538359, 36.0367345], [-95.9536506, 36.0368058], [-95.9534901, 36.0365329], [-95.953881, 36.0363825], [-95.9538859, 36.0363909], [-95.9540631, 36.0363227], [-95.9540582, 36.0363144], [-95.9541998, 36.0362599], [-95.9543897, 36.0365827]]]}, "properties": {"osm_id": 418785347, "building": "retail", "name": "Locke Supply", "height": null, "height_m": 3.0, "levels": 1, "tract_id": "40143007650", "tract_name": "76.50", "tags": {"addr:housenumber": "8787", "addr:street": "South Lewis Avenue East", "building": "retail", "building:levels": "1", "name": "Locke Supply", "opening_hours": "Mo-Fr 07:30-17:00; Sa 07:30-12:00", "roof:levels": "0", "roof:shape": "flat", "shop": "hardware", "wheelchair": "limited"}}}, {"type": "Feature", "geometry": {"type": "Polygon", "coordinates": [[[-95.9498923, 36.0351875], [-95.949555, 36.0351892], [-95.949555, 36.0351956], [-95.9494592, 36.0351961], [-95.9494578, 36.0350155], [-95.9495549, 36.035015], [-95.949555, 36.0350222], [-95.949891, 36.0350205], [-95.9498923, 36.0351875]]]}, "properties": {"osm_id": 418785348, "building": "yes", "name": "Robertson Tire", "height": null, "height_m": null, "levels": null, "tract_id": "40143007650", "tract_name": "76.50", "tags": {"addr:city": "Tulsa", "addr:country": "US", "addr:housenumber": "8840", "addr:state": "OK", "addr:street": "South Delaware Avenue", "building": "yes", "building:colour": "tan", "check_date": "2024-07-16", "name": "Robertson Tire", "opening_hours": "Mo-Fr 07:30-17:30; Sa 07:30-14:00", "payment:credit_cards": "yes", "payment:debit_cards": "yes", "shop": "tyres", "website": "http://www.robertsontire.com/"}}}, {"type": "Feature", "geometry": {"type": "Polygon", "coordinates": [[[-95.9534706, 36.0370905], [-95.9535545, 36.0370905], [-95.9535548, 36.0371887], [-95.953471, 36.0371889], [-95.9534706, 36.0370905]]]}, "properties": {"osm_id": 418785349, "building": "retail", "name": "", "height": null, "height_m": 3.0, "levels": 1, "tract_id": "40143007650", "tract_name": "76.50", "tags": {"building": "retail", "building:levels": "1", "roof:levels": "0"}}}, {"type": "Feature", "geometry": {"type": "Polygon", "coordinates": [[[-95.9554254, 36.0456717], [-95.9556765, 36.0456737], [-95.955676, 36.0456824], [-95.9557375, 36.0456824], [-95.9557817, 36.0456446], [-95.9557827, 36.0455998], [-95.9557725, 36.0455998], [-95.955771, 36.0454432], [-95.9557837, 36.0454436], [-95.9557832, 36.0453993], [-95.9557339, 36.0453582], [-95.9556943, 36.0453586], [-95.9556933, 36.04523], [-95.9555286, 36.0452308], [-95.9555281, 36.0451901], [-95.9554051, 36.0451893], [-95.9554046, 36.0452329], [-95.955273, 36.0452324], [-95.9552173, 36.0451854], [-95.955161, 36.0452321], [-95.9551932, 36.0452559], [-95.9551939, 36.0453166], [-95.955161, 36.0453438], [-95.9552167, 36.0453882], [-95.9552723, 36.04534], [-95.9553682, 36.0453405], [-95.9553682, 36.0453595], [-95.9553172, 36.0453985], [-95.9553186, 36.0454419], [-95.9553293, 36.0454413], [-95.9553313, 36.0456013], [-95.9553187, 36.0456014], [-95.9553187, 36.0456454], [-95.9553645, 36.0456815], [-95.9554254, 36.0456824], [-95.9554254, 36.0456717]]]}, "properties": {"osm_id": 494991803, "building": "commercial", "name": "Premier Family Care", "height": null, "height_m": null, "levels": null, "tract_id": "40143007650", "tract_name": "76.50", "tags": {"amenity": "doctors", "building": "commercial", "healthcare": "doctor", "name": "Premier Family Care"}}}, {"type": "Feature", "geometry": {"type": "Polygon", "coordinates": [[[-95.9568039, 36.0390559], [-95.956457, 36.0390607], [-95.9564538, 36.0389058], [-95.9567496, 36.0389018], [-95.9567501, 36.0389245], [-95.9568012, 36.0389238], [-95.9568039, 36.0390559]]]}, "properties": {"osm_id": 495665067, "building": "church", "name": "Holiness to the Lord Congregation", "height": null, "height_m": null, "levels": null, "tract_id": "40143007650", "tract_name": "76.50", "tags": {"addr:city": "Tulsa", "addr:housenumber": "8600", "addr:postcode": "74137", "addr:state": "OK", "addr:street": "South Lewis Avenue East", "amenity": "place_of_worship", "building": "church", "name": "Holiness to the Lord Congregation", "phone": "+1-918-971-8971", "religion": "christian"}}}, {"type": "Feature", "geometry": {"type": "Polygon", "coordinates": [[[-95.9544459, 36.0327585], [-95.9540359, 36.0327641], [-95.954048, 36.0333432], [-95.9544579, 36.0333377], [-95.9544459, 36.0327585]]]}, "properties": {"osm_id": 495729002, "building": "greenhouse", "name": "", "height": null, "height_m": null, "levels": null, "tract_id": "40143007650", "tract_name": "76.50", "tags": {"building": "greenhouse"}}}, {"type": "Feature", "geometry": {"type": "Polygon", "coordinates": [[[-95.9529995, 36.0321848], [-95.9528756, 36.032127], [-95.9527294, 36.032332], [-95.9528533, 36.0323898], [-95.9529995, 36.0321848]]]}, "properties": {"osm_id": 495729005, "building": "greenhouse", "name": "", "height": null, "height_m": null, "levels": null, "tract_id": "40143007650", "tract_name": "76.50", "tags": {"building": "greenhouse"}}}, {"type": "Feature", "geometry": {"type": "Polygon", "coordinates": [[[-95.9524778, 36.0325253], [-95.9522833, 36.0325232], [-95.952285, 36.0324277], [-95.9524794, 36.0324299], [-95.9524778, 36.0325253]]]}, "properties": {"osm_id": 495729006, "building": "commercial", "name": "", "height": null, "height_m": null, "levels": null, "tract_id": "40143007650", "tract_name": "76.50", "tags": {"building": "commercial", "noaddress": "yes"}}}, {"type": "Feature", "geometry": {"type": "Polygon", "coordinates": [[[-95.9524161, 36.0323247], [-95.9522771, 36.032324], [-95.9522798, 36.0320008], [-95.9524188, 36.0320015], [-95.9524161, 36.0323247]]]}, "properties": {"osm_id": 495729007, "building": "greenhouse", "name": "", "height": null, "height_m": null, "levels": null, "tract_id": "40143007650", "tract_name": "76.50", "tags": {"building": "greenhouse"}}}, {"type": "Feature", "geometry": {"type": "Polygon", "coordinates": [[[-95.9518379, 36.0370187], [-95.9520616, 36.0368361], [-95.9521434, 36.0369016], [-95.9519197, 36.0370842], [-95.9518379, 36.0370187]]]}, "properties": {"osm_id": 495729916, "building": "apartments", "name": "", "height": null, "height_m": 6.0, "levels": 2, "tract_id": "40143007650", "tract_name": "76.50", "tags": {"addr:city": "Tulsa", "addr:country": "US", "addr:housenumber": "2599", "addr:postcode": "74137", "addr:state": "OK", "addr:street": "East 88th Street South", "building": "apartments", "building:levels": "2", "roof:levels": "0"}}}, {"type": "Feature", "geometry": {"type": "Polygon", "coordinates": [[[-95.9520482, 36.0370539], [-95.952339, 36.0372854], [-95.9522561, 36.0373535], [-95.9519653, 36.037122], [-95.9520482, 36.0370539]]]}, "properties": {"osm_id": 495729917, "building": "apartments", "name": "", "height": null, "height_m": 6.0, "levels": 2, "tract_id": "40143007650", "tract_name": "76.50", "tags": {"addr:housenumber": "2537", "building": "apartments", "building:levels": "2", "roof:levels": "0"}}}, {"type": "Feature", "geometry": {"type": "Polygon", "coordinates": [[[-95.9521699, 36.0370794], [-95.9520913, 36.037018], [-95.9522274, 36.0369042], [-95.952306, 36.0369655], [-95.9521699, 36.0370794]]]}, "properties": {"osm_id": 495729918, "building": "apartments", "name": "", "height": null, "height_m": 6.0, "levels": 2, "tract_id": "40143007650", "tract_name": "76.50", "tags": {"addr:housenumber": "2533", "building": "apartments", "building:levels": "2", "roof:levels": "0"}}}, {"type": "Feature", "geometry": {"type": "Polygon", "coordinates": [[[-95.9523737, 36.0372459], [-95.9522376, 36.0371347], [-95.9523238, 36.0370657], [-95.95246, 36.0371768], [-95.9523737, 36.0372459]]]}, "properties": {"osm_id": 495729919, "building": "apartments", "name": "", "height": null, "height_m": 6.0, "levels": 2, "tract_id": "40143007650", "tract_name": "76.50", "tags": {"addr:housenumber": "2535", "building": "apartments", "building:levels": "2", "roof:levels": "0"}}}, {"type": "Feature", "geometry": {"type": "Polygon", "coordinates": [[[-95.9526661, 36.0373538], [-95.9525366, 36.0373539], [-95.952536, 36.0369228], [-95.9526654, 36.0369227], [-95.9526661, 36.0373538]]]}, "properties": {"osm_id": 495729920, "building": "apartments", "name": "", "height": null, "height_m": 6.0, "levels": 2, "tract_id": "40143007650", "tract_name": "76.50", "tags": {"addr:housenumber": "2525", "building": "apartments", "building:levels": "2", "roof:levels": "0"}}}, {"type": "Feature", "geometry": {"type": "Polygon", "coordinates": [[[-95.9524512, 36.0368755], [-95.952366, 36.0369468], [-95.9521367, 36.0367676], [-95.9522218, 36.0366964], [-95.9524512, 36.0368755]]]}, "properties": {"osm_id": 495729921, "building": "apartments", "name": "", "height": null, "height_m": 6.0, "levels": 2, "tract_id": "40143007650", "tract_name": "76.50", "tags": {"addr:city": "Tulsa", "addr:country": "US", "addr:housenumber": "2531", "addr:postcode": "74137", "addr:state": "OK", "addr:street": "East 88th Street South", "building": "apartments", "building:levels": "2", "roof:levels": "0"}}}, {"type": "Feature", "geometry": {"type": "Polygon", "coordinates": [[[-95.9523053, 36.0366939], [-95.9525959, 36.0364507], [-95.9526811, 36.0365173], [-95.9523906, 36.0367605], [-95.9523053, 36.0366939]]]}, "properties": {"osm_id": 495729922, "building": "apartments", "name": "", "height": null, "height_m": 6.0, "levels": 2, "tract_id": "40143007650", "tract_name": "76.50", "tags": {"addr:city": "Tulsa", "addr:country": "US", "addr:housenumber": "2529", "addr:postcode": "74137", "addr:state": "OK", "addr:street": "East 88th Street South", "building": "apartments", "building:levels": "2", "roof:levels": "0", "roof:shape": "quadruple_saltbox"}}}, {"type": "Feature", "geometry": {"type": "Polygon", "coordinates": [[[-95.9524377, 36.0367942], [-95.9526604, 36.036612], [-95.9527421, 36.0366773], [-95.9525195, 36.0368595], [-95.9524377, 36.0367942]]]}, "properties": {"osm_id": 495729923, "building": "apartments", "name": "", "height": null, "height_m": 6.0, "levels": 2, "tract_id": "40143007650", "tract_name": "76.50", "tags": {"addr:city": "Tulsa", "addr:country": "US", "addr:housenumber": "2527", "addr:postcode": "74137", "addr:state": "OK", "addr:street": "East 88th Street South", "building": "apartments", "building:levels": "2", "roof:levels": "0", "roof:shape": "quadruple_saltbox"}}}, {"type": "Feature", "geometry": {"type": "Polygon", "coordinates": [[[-95.9532493, 36.0364236], [-95.9532482, 36.0365361], [-95.9531064, 36.0365353], [-95.9531065, 36.0365272], [-95.9529794, 36.0365265], [-95.9529798, 36.0364887], [-95.9529599, 36.0364885], [-95.9529604, 36.0364419], [-95.9529802, 36.036442], [-95.9529805, 36.0364073], [-95.9531133, 36.0364081], [-95.9531132, 36.0364228], [-95.9532493, 36.0364236]]]}, "properties": {"osm_id": 495729925, "building": "office", "name": "Bandon Trails Apartments", "height": null, "height_m": 3.0, "levels": 1, "tract_id": "40143007650", "tract_name": "76.50", "tags": {"addr:city": "Tulsa", "addr:housenumber": "2505", "addr:postcode": "74137", "addr:state": "OK", "addr:street": "East 88th Street South", "building": "office", "building:levels": "1", "building:use": "commercial", "name": "Bandon Trails Apartments", "office": "estate_agent", "phone": "+1 918-299-4451", "roof:levels": "0", "roof:shape": "hipped", "website": "https://goldwynn.com", "wheelchair": "limited"}}}, {"type": "Feature", "geometry": {"type": "Polygon", "coordinates": [[[-95.9529916, 36.0382219], [-95.9529909, 36.0379643], [-95.9532524, 36.0379639], [-95.9532531, 36.0382215], [-95.9529916, 36.0382219]]]}, "properties": {"osm_id": 495730041, "building": "yes", "name": "", "height": null, "height_m": null, "levels": null, "tract_id": "40143007650", "tract_name": "76.50", "tags": {"building": "yes"}}}, {"type": "Feature", "geometry": {"type": "Polygon", "coordinates": [[[-95.9510525, 36.0382176], [-95.9508526, 36.038056], [-95.9509338, 36.0379904], [-95.9511336, 36.0381519], [-95.9510525, 36.0382176]]]}, "properties": {"osm_id": 495730805, "building": "apartments", "name": "", "height": null, "height_m": null, "levels": null, "tract_id": "40143007650", "tract_name": "76.50", "tags": {"building": "apartments"}}}, {"type": "Feature", "geometry": {"type": "Polygon", "coordinates": [[[-95.9525713, 36.0380863], [-95.9526893, 36.0380869], [-95.9526866, 36.038447], [-95.9525686, 36.0384464], [-95.9525713, 36.0380863]]]}, "properties": {"osm_id": 495730806, "building": "apartments", "name": "", "height": null, "height_m": 6.0, "levels": 2, "tract_id": "40143007650", "tract_name": "76.50", "tags": {"addr:housenumber": "2517", "building": "apartments", "building:levels": "2", "roof:levels": "0"}}}, {"type": "Feature", "geometry": {"type": "Polygon", "coordinates": [[[-95.9525391, 36.0377523], [-95.9526623, 36.0377541], [-95.952657, 36.0379981], [-95.9525337, 36.0379963], [-95.9525391, 36.0377523]]]}, "properties": {"osm_id": 495730807, "building": "apartments", "name": "", "height": null, "height_m": 6.0, "levels": 2, "tract_id": "40143007650", "tract_name": "76.50", "tags": {"addr:housenumber": "2519", "building": "apartments", "building:levels": "2", "roof:levels": "0"}}}, {"type": "Feature", "geometry": {"type": "Polygon", "coordinates": [[[-95.9527395, 36.0376986], [-95.9521588, 36.0376981], [-95.9521589, 36.0376108], [-95.9527397, 36.0376114], [-95.9527395, 36.0376986]]]}, "properties": {"osm_id": 495730808, "building": "apartments", "name": "", "height": null, "height_m": 6.0, "levels": 2, "tract_id": "40143007650", "tract_name": "76.50", "tags": {"addr:housenumber": "2523", "building": "apartments", "building:levels": "2", "roof:levels": "0"}}}, {"type": "Feature", "geometry": {"type": "Polygon", "coordinates": [[[-95.952334, 36.0379153], [-95.9523366, 36.0377523], [-95.9524612, 36.0377536], [-95.9524586, 36.0379166], [-95.952334, 36.0379153]]]}, "properties": {"osm_id": 495730809, "building": "apartments", "name": "", "height": null, "height_m": 6.0, "levels": 2, "tract_id": "40143007650", "tract_name": "76.50", "tags": {"addr:housenumber": "2521", "building": "apartments", "building:levels": "2", "roof:levels": "0"}}}, {"type": "Feature", "geometry": {"type": "Polygon", "coordinates": [[[-95.9524237, 36.0381883], [-95.9522132, 36.0380202], [-95.9522938, 36.0379542], [-95.9525043, 36.0381223], [-95.9524237, 36.0381883]]]}, "properties": {"osm_id": 495730810, "building": "apartments", "name": "", "height": null, "height_m": 6.0, "levels": 2, "tract_id": "40143007650", "tract_name": "76.50", "tags": {"addr:housenumber": "2611", "building": "apartments", "building:levels": "2", "roof:levels": "0"}}}, {"type": "Feature", "geometry": {"type": "Polygon", "coordinates": [[[-95.9524747, 36.038352], [-95.9524747, 36.0384334], [-95.952059, 36.0384334], [-95.952059, 36.038352], [-95.9524747, 36.038352]]]}, "properties": {"osm_id": 495730811, "building": "apartments", "name": "", "height": null, "height_m": 6.0, "levels": 2, "tract_id": "40143007650", "tract_name": "76.50", "tags": {"addr:housenumber": "2615", "building": "apartments", "building:levels": "2", "roof:levels": "0"}}}, {"type": "Feature", "geometry": {"type": "Polygon", "coordinates": [[[-95.952303, 36.0382868], [-95.9520938, 36.0381221], [-95.9521698, 36.038059], [-95.9523789, 36.0382237], [-95.952303, 36.0382868]]]}, "properties": {"osm_id": 495730812, "building": "apartments", "name": "", "height": null, "height_m": 6.0, "levels": 2, "tract_id": "40143007650", "tract_name": "76.50", "tags": {"addr:housenumber": "2613", "building": "apartments", "building:levels": "2", "roof:levels": "0"}}}, {"type": "Feature", "geometry": {"type": "Polygon", "coordinates": [[[-95.9520335, 36.0381959], [-95.9518417, 36.038198], [-95.9518401, 36.0381039], [-95.9520319, 36.0381017], [-95.9520335, 36.0381959]]]}, "properties": {"osm_id": 495730813, "building": "apartments", "name": "", "height": null, "height_m": 6.0, "levels": 2, "tract_id": "40143007650", "tract_name": "76.50", "tags": {"addr:housenumber": "2617", "building": "apartments", "building:levels": "2", "roof:levels": "0"}}}, {"type": "Feature", "geometry": {"type": "Polygon", "coordinates": [[[-95.9519624, 36.0384941], [-95.9518377, 36.038495], [-95.951835, 36.0382466], [-95.9519597, 36.0382458], [-95.9519624, 36.0384941]]]}, "properties": {"osm_id": 495730814, "building": "apartments", "name": "", "height": null, "height_m": 6.0, "levels": 2, "tract_id": "40143007650", "tract_name": "76.50", "tags": {"addr:housenumber": "2619", "building": "apartments", "building:levels": "2", "roof:levels": "0"}}}, {"type": "Feature", "geometry": {"type": "Polygon", "coordinates": [[[-95.9517773, 36.0384973], [-95.9516621, 36.038498], [-95.9516581, 36.037998], [-95.9517733, 36.0379974], [-95.9517773, 36.0384973]]]}, "properties": {"osm_id": 495730815, "building": "apartments", "name": "", "height": null, "height_m": 6.0, "levels": 2, "tract_id": "40143007650", "tract_name": "76.50", "tags": {"addr:housenumber": "2621", "building": "apartments", "building:levels": "2", "roof:levels": "0"}}}, {"type": "Feature", "geometry": {"type": "Polygon", "coordinates": [[[-95.9513214, 36.0384984], [-95.951214, 36.0384989], [-95.9512113, 36.0381074], [-95.9513187, 36.0381069], [-95.9513214, 36.0384984]]]}, "properties": {"osm_id": 495730816, "building": "apartments", "name": "", "height": null, "height_m": 6.0, "levels": 2, "tract_id": "40143007650", "tract_name": "76.50", "tags": {"addr:housenumber": "2703", "building": "apartments", "building:levels": "2", "roof:levels": "0"}}}, {"type": "Feature", "geometry": {"type": "Polygon", "coordinates": [[[-95.9508439, 36.0384963], [-95.9507368, 36.0384971], [-95.9507327, 36.0381457], [-95.9508399, 36.0381449], [-95.9508439, 36.0384963]]]}, "properties": {"osm_id": 495730817, "building": "apartments", "name": "", "height": null, "height_m": null, "levels": null, "tract_id": "40143007650", "tract_name": "76.50", "tags": {"building": "apartments"}}}, {"type": "Feature", "geometry": {"type": "Polygon", "coordinates": [[[-95.9506428, 36.0384355], [-95.9501586, 36.0384366], [-95.9501583, 36.0383423], [-95.9506424, 36.0383412], [-95.9506428, 36.0384355]]]}, "properties": {"osm_id": 495730818, "building": "apartments", "name": "", "height": null, "height_m": null, "levels": null, "tract_id": "40143007650", "tract_name": "76.50", "tags": {"building": "apartments"}}}, {"type": "Feature", "geometry": {"type": "Polygon", "coordinates": [[[-95.9508892, 36.037937], [-95.9504533, 36.0382903], [-95.9503712, 36.0382241], [-95.9508071, 36.0378707], [-95.9508892, 36.037937]]]}, "properties": {"osm_id": 495730819, "building": "apartments", "name": "", "height": null, "height_m": 6.0, "levels": 2, "tract_id": "40143007650", "tract_name": "76.50", "tags": {"addr:housenumber": "2707", "building": "apartments", "building:levels": "2", "roof:levels": "0"}}}, {"type": "Feature", "geometry": {"type": "Polygon", "coordinates": [[[-95.9512181, 36.0379996], [-95.9511337, 36.038068], [-95.9508426, 36.0378331], [-95.950927, 36.0377647], [-95.9512181, 36.0379996]]]}, "properties": {"osm_id": 495730820, "building": "apartments", "name": "", "height": null, "height_m": 6.0, "levels": 2, "tract_id": "40143007650", "tract_name": "76.50", "tags": {"addr:housenumber": "2701", "building": "apartments", "building:levels": "2", "roof:levels": "0"}}}, {"type": "Feature", "geometry": {"type": "Polygon", "coordinates": [[[-95.9519989, 36.0375333], [-95.9519181, 36.0375991], [-95.9516432, 36.0373784], [-95.951724, 36.0373126], [-95.9519989, 36.0375333]]]}, "properties": {"osm_id": 495730821, "building": "apartments", "name": "", "height": null, "height_m": 6.0, "levels": 2, "tract_id": "40143007650", "tract_name": "76.50", "tags": {"addr:housenumber": "2603", "building": "apartments", "building:levels": "2", "roof:levels": "0"}}}, {"type": "Feature", "geometry": {"type": "Polygon", "coordinates": [[[-95.951671, 36.0377789], [-95.9515903, 36.0377129], [-95.9517291, 36.0376018], [-95.9518099, 36.0376677], [-95.951671, 36.0377789]]]}, "properties": {"osm_id": 495730822, "building": "apartments", "name": "", "height": null, "height_m": 6.0, "levels": 2, "tract_id": "40143007650", "tract_name": "76.50", "tags": {"addr:housenumber": "2605", "building": "apartments", "building:levels": "2", "roof:levels": "0"}}}, {"type": "Feature", "geometry": {"type": "Polygon", "coordinates": [[[-95.9515467, 36.0376818], [-95.9514126, 36.0375701], [-95.9514944, 36.0375059], [-95.9516285, 36.0376176], [-95.9515467, 36.0376818]]]}, "properties": {"osm_id": 495730823, "building": "apartments", "name": "", "height": null, "height_m": 6.0, "levels": 2, "tract_id": "40143007650", "tract_name": "76.50", "tags": {"addr:housenumber": "2607", "building": "apartments", "building:levels": "2", "roof:levels": "0"}}}, {"type": "Feature", "geometry": {"type": "Polygon", "coordinates": [[[-95.9515628, 36.0378911], [-95.9512919, 36.037671], [-95.9513718, 36.0376066], [-95.9516427, 36.0378268], [-95.9515628, 36.0378911]]]}, "properties": {"osm_id": 495730824, "building": "apartments", "name": "", "height": null, "height_m": 6.0, "levels": 2, "tract_id": "40143007650", "tract_name": "76.50", "tags": {"addr:housenumber": "2609", "building": "apartments", "building:levels": "2", "roof:levels": "0"}}}, {"type": "Feature", "geometry": {"type": "Polygon", "coordinates": [[[-95.951148, 36.0375859], [-95.9516141, 36.0371933], [-95.9516999, 36.0372599], [-95.9512278, 36.0376492], [-95.951148, 36.0375859]]]}, "properties": {"osm_id": 495730825, "building": "apartments", "name": "", "height": null, "height_m": 6.0, "levels": 2, "tract_id": "40143007650", "tract_name": "76.50", "tags": {"addr:city": "Tulsa", "addr:country": "US", "addr:housenumber": "2601", "addr:postcode": "74137", "addr:state": "OK", "addr:street": "East 88th Street South", "building": "apartments", "building:levels": "2", "roof:levels": "0"}}}, {"type": "Feature", "geometry": {"type": "Polygon", "coordinates": [[[-95.9554299, 36.0390802], [-95.9542457, 36.0390835], [-95.9542451, 36.0389436], [-95.9554293, 36.0389404], [-95.9554299, 36.0390802]]]}, "properties": {"osm_id": 495732017, "building": "warehouse", "name": "", "height": null, "height_m": 3.0, "levels": 1, "tract_id": "40143007650", "tract_name": "76.50", "tags": {"building": "warehouse", "building:levels": "1", "roof:levels": "0"}}}, {"type": "Feature", "geometry": {"type": "Polygon", "coordinates": [[[-95.9542363, 36.0387375], [-95.9551899, 36.0387365], [-95.9551901, 36.0388796], [-95.9542366, 36.0388806], [-95.9542363, 36.0387375]]]}, "properties": {"osm_id": 495732018, "building": "warehouse", "name": "", "height": null, "height_m": 3.0, "levels": 1, "tract_id": "40143007650", "tract_name": "76.50", "tags": {"building": "warehouse", "building:levels": "1", "roof:levels": "0"}}}, {"type": "Feature", "geometry": {"type": "Polygon", "coordinates": [[[-95.9541029, 36.0389615], [-95.9540995, 36.0387435], [-95.9541537, 36.038743], [-95.9541571, 36.0389609], [-95.9541029, 36.0389615]]]}, "properties": {"osm_id": 495732019, "building": "warehouse", "name": "", "height": null, "height_m": null, "levels": null, "tract_id": "40143007650", "tract_name": "76.50", "tags": {"building": "warehouse"}}}, {"type": "Feature", "geometry": {"type": "Polygon", "coordinates": [[[-95.9534574, 36.0347451], [-95.953428, 36.0346567], [-95.953341, 36.0346756], [-95.9533244, 36.0346256], [-95.9531791, 36.0346572], [-95.9531617, 36.0346049], [-95.9530527, 36.0346287], [-95.9530653, 36.0346668], [-95.953002, 36.0346806], [-95.9529893, 36.0346425], [-95.9527715, 36.0346899], [-95.9527839, 36.0347271], [-95.9526916, 36.0347472], [-95.9527224, 36.0348397], [-95.9528147, 36.0348196], [-95.952827, 36.0348564], [-95.9529222, 36.0348357], [-95.9530493, 36.0352176], [-95.9531906, 36.0351869], [-95.953117, 36.0349659], [-95.9531783, 36.0349525], [-95.9532025, 36.0350251], [-95.9532678, 36.0350109], [-95.9533759, 36.0349874], [-95.9533553, 36.0349256], [-95.9533403, 36.0348804], [-95.9531055, 36.0349315], [-95.9530515, 36.0347693], [-95.953123, 36.0347537], [-95.9531663, 36.034884], [-95.9532503, 36.0348657], [-95.9532373, 36.0348266], [-95.9532699, 36.0348196], [-95.9532772, 36.0348417], [-95.9533849, 36.0348183], [-95.9533671, 36.0347647], [-95.9534574, 36.0347451]]]}, "properties": {"osm_id": 495732020, "building": "apartments", "name": "", "height": null, "height_m": 30.0, "levels": 10, "tract_id": "40143007650", "tract_name": "76.50", "tags": {"addr:housenumber": "8887", "addr:street": "South Lewis Avenue East", "building": "apartments", "building:levels": "10", "roof:levels": "0", "roof:shape": "flat"}}}, {"type": "Feature", "geometry": {"type": "Polygon", "coordinates": [[[-95.9554191, 36.0367763], [-95.9553479, 36.036804], [-95.9552164, 36.0365834], [-95.9552877, 36.0365556], [-95.9554191, 36.0367763]]]}, "properties": {"osm_id": 495732021, "building": "garage", "name": "", "height": null, "height_m": null, "levels": null, "tract_id": "40143007650", "tract_name": "76.50", "tags": {"building": "garage"}}}, {"type": "Feature", "geometry": {"type": "Polygon", "coordinates": [[[-95.9541501, 36.039004], [-95.9541501, 36.0390336], [-95.9540799, 36.0390336], [-95.9540799, 36.039004], [-95.9541501, 36.039004]]]}, "properties": {"osm_id": 495732023, "building": "yes", "name": "", "height": null, "height_m": null, "levels": null, "tract_id": "40143007650", "tract_name": "76.50", "tags": {"building": "yes"}}}, {"type": "Feature", "geometry": {"type": "Polygon", "coordinates": [[[-95.9537709, 36.0388574], [-95.954023, 36.0388595], [-95.9540212, 36.0389949], [-95.9537691, 36.0389927], [-95.9537709, 36.0388574]]]}, "properties": {"osm_id": 495732024, "building": "apartments", "name": "", "height": null, "height_m": 6.0, "levels": 2, "tract_id": "40143007650", "tract_name": "76.50", "tags": {"building": "apartments", "building:levels": "2", "roof:levels": "0"}}}, {"type": "Feature", "geometry": {"type": "Polygon", "coordinates": [[[-95.954023, 36.0388173], [-95.9537702, 36.0388189], [-95.9537688, 36.038678], [-95.9540216, 36.0386764], [-95.954023, 36.0388173]]]}, "properties": {"osm_id": 495732025, "building": "apartments", "name": "", "height": null, "height_m": null, "levels": null, "tract_id": "40143007650", "tract_name": "76.50", "tags": {"building": "apartments"}}}, {"type": "Feature", "geometry": {"type": "Polygon", "coordinates": [[[-95.953726, 36.0389479], [-95.9535664, 36.0389471], [-95.9535684, 36.0386831], [-95.953728, 36.0386839], [-95.953726, 36.0389479]]]}, "properties": {"osm_id": 495732026, "building": "apartments", "name": "", "height": null, "height_m": null, "levels": null, "tract_id": "40143007650", "tract_name": "76.50", "tags": {"building": "apartments"}}}, {"type": "Feature", "geometry": {"type": "Polygon", "coordinates": [[[-95.9532445, 36.0386616], [-95.9532438, 36.0390819], [-95.9531151, 36.0390817], [-95.9531157, 36.0386615], [-95.9532445, 36.0386616]]]}, "properties": {"osm_id": 495732027, "building": "apartments", "name": "", "height": null, "height_m": 6.0, "levels": 2, "tract_id": "40143007650", "tract_name": "76.50", "tags": {"addr:housenumber": "2507", "building": "apartments", "building:levels": "2", "roof:levels": "0"}}}, {"type": "Feature", "geometry": {"type": "Polygon", "coordinates": [[[-95.9529488, 36.0389073], [-95.9529461, 36.0387359], [-95.953062, 36.0387347], [-95.9530647, 36.0389061], [-95.9529488, 36.0389073]]]}, "properties": {"osm_id": 495732028, "building": "apartments", "name": "", "height": null, "height_m": 6.0, "levels": 2, "tract_id": "40143007650", "tract_name": "76.50", "tags": {"addr:housenumber": "2509", "building": "apartments", "building:levels": "2", "roof:levels": "0"}}}, {"type": "Feature", "geometry": {"type": "Polygon", "coordinates": [[[-95.9528777, 36.0388427], [-95.9527027, 36.0388438], [-95.952702, 36.0387663], [-95.952877, 36.0387652], [-95.9528777, 36.0388427]]]}, "properties": {"osm_id": 495732029, "building": "apartments", "name": "", "height": null, "height_m": 6.0, "levels": 2, "tract_id": "40143007650", "tract_name": "76.50", "tags": {"addr:housenumber": "2511", "building": "apartments", "building:levels": "2", "roof:levels": "0"}}}, {"type": "Feature", "geometry": {"type": "Polygon", "coordinates": [[[-95.9526504, 36.0389018], [-95.9525303, 36.0389015], [-95.952531, 36.0387426], [-95.9526511, 36.038743], [-95.9526504, 36.0389018]]]}, "properties": {"osm_id": 495732030, "building": "apartments", "name": "", "height": null, "height_m": 6.0, "levels": 2, "tract_id": "40143007650", "tract_name": "76.50", "tags": {"addr:housenumber": "2515", "building": "apartments", "building:levels": "2", "roof:levels": "0"}}}, {"type": "Feature", "geometry": {"type": "Polygon", "coordinates": [[[-95.9518642, 36.0389143], [-95.9518635, 36.0386822], [-95.9519734, 36.038682], [-95.9519741, 36.0389141], [-95.9518642, 36.0389143]]]}, "properties": {"osm_id": 495732031, "building": "apartments", "name": "", "height": null, "height_m": 6.0, "levels": 2, "tract_id": "40143007650", "tract_name": "76.50", "tags": {"addr:housenumber": "2623", "building": "apartments", "building:levels": "2", "roof:levels": "0"}}}, {"type": "Feature", "geometry": {"type": "Polygon", "coordinates": [[[-95.9517606, 36.0388248], [-95.9514038, 36.0388243], [-95.951404, 36.0387473], [-95.9517607, 36.0387479], [-95.9517606, 36.0388248]]]}, "properties": {"osm_id": 495732032, "building": "apartments", "name": "", "height": null, "height_m": 6.0, "levels": 2, "tract_id": "40143007650", "tract_name": "76.50", "tags": {"addr:housenumber": "2627", "building": "apartments", "building:levels": "2", "roof:levels": "0"}}}, {"type": "Feature", "geometry": {"type": "Polygon", "coordinates": [[[-95.9519145, 36.0389826], [-95.9519141, 36.0390716], [-95.9511872, 36.0390694], [-95.9511876, 36.0389805], [-95.9519145, 36.0389826]]]}, "properties": {"osm_id": 495732033, "building": "apartments", "name": "", "height": null, "height_m": null, "levels": null, "tract_id": "40143007650", "tract_name": "76.50", "tags": {"building": "apartments"}}}, {"type": "Feature", "geometry": {"type": "Polygon", "coordinates": [[[-95.9513076, 36.0389062], [-95.9511936, 36.0389071], [-95.9511916, 36.0387373], [-95.9513056, 36.0387365], [-95.9513076, 36.0389062]]]}, "properties": {"osm_id": 495732034, "building": "apartments", "name": "", "height": null, "height_m": 6.0, "levels": 2, "tract_id": "40143007650", "tract_name": "76.50", "tags": {"addr:housenumber": "2629", "building": "apartments", "building:levels": "2", "roof:levels": "0"}}}, {"type": "Feature", "geometry": {"type": "Polygon", "coordinates": [[[-95.9511292, 36.0390732], [-95.9510126, 36.0390729], [-95.9510139, 36.0386587], [-95.9511306, 36.0386589], [-95.9511292, 36.0390732]]]}, "properties": {"osm_id": 495732035, "building": "apartments", "name": "", "height": null, "height_m": 6.0, "levels": 2, "tract_id": "40143007650", "tract_name": "76.50", "tags": {"addr:housenumber": "2719", "building": "apartments", "building:levels": "2", "roof:levels": "0"}}}, {"type": "Feature", "geometry": {"type": "Polygon", "coordinates": [[[-95.9508835, 36.0390743], [-95.9501989, 36.0390759], [-95.9501986, 36.0389984], [-95.9508832, 36.0389968], [-95.9508835, 36.0390743]]]}, "properties": {"osm_id": 495732036, "building": "apartments", "name": "", "height": null, "height_m": 6.0, "levels": 2, "tract_id": "40143007650", "tract_name": "76.50", "tags": {"addr:housenumber": "2715", "building": "apartments", "building:levels": "2", "roof:levels": "0"}}}, {"type": "Feature", "geometry": {"type": "Polygon", "coordinates": [[[-95.9504027, 36.038936], [-95.9503088, 36.0389359], [-95.9503095, 36.0386463], [-95.9504034, 36.0386465], [-95.9504027, 36.038936]]]}, "properties": {"osm_id": 495732037, "building": "apartments", "name": "", "height": null, "height_m": null, "levels": null, "tract_id": "40143007650", "tract_name": "76.50", "tags": {"building": "apartments"}}}, {"type": "Feature", "geometry": {"type": "Polygon", "coordinates": [[[-95.9502237, 36.0389365], [-95.9501284, 36.0389361], [-95.9501304, 36.0386439], [-95.9502257, 36.0386443], [-95.9502237, 36.0389365]]]}, "properties": {"osm_id": 495732038, "building": "apartments", "name": "", "height": null, "height_m": null, "levels": null, "tract_id": "40143007650", "tract_name": "76.50", "tags": {"building": "apartments"}}}, {"type": "Feature", "geometry": {"type": "Polygon", "coordinates": [[[-95.9496235, 36.0390748], [-95.9496237, 36.0389902], [-95.950138, 36.0389908], [-95.9501378, 36.0390754], [-95.9496235, 36.0390748]]]}, "properties": {"osm_id": 495732039, "building": "apartments", "name": "", "height": null, "height_m": null, "levels": null, "tract_id": "40143007650", "tract_name": "76.50", "tags": {"building": "apartments"}}}, {"type": "Feature", "geometry": {"type": "Polygon", "coordinates": [[[-95.9500275, 36.0389398], [-95.9496607, 36.0389393], [-95.9496609, 36.0388498], [-95.9500277, 36.0388503], [-95.9500275, 36.0389398]]]}, "properties": {"osm_id": 495732040, "building": "apartments", "name": "", "height": null, "height_m": 6.0, "levels": 2, "tract_id": "40143007650", "tract_name": "76.50", "tags": {"addr:housenumber": "2721", "building": "apartments", "building:levels": "2", "roof:levels": "0"}}}, {"type": "Feature", "geometry": {"type": "Polygon", "coordinates": [[[-95.9494428, 36.0384919], [-95.9495602, 36.0384917], [-95.9495622, 36.039074], [-95.9494448, 36.0390743], [-95.9494428, 36.0384919]]]}, "properties": {"osm_id": 495732041, "building": "apartments", "name": "", "height": null, "height_m": 6.0, "levels": 2, "tract_id": "40143007650", "tract_name": "76.50", "tags": {"addr:housenumber": "2725", "building": "apartments", "building:levels": "2", "roof:levels": "0"}}}, {"type": "Feature", "geometry": {"type": "Polygon", "coordinates": [[[-95.9555811, 36.0390753], [-95.9553797, 36.0387312], [-95.9554389, 36.0387085], [-95.9556404, 36.0390527], [-95.9555811, 36.0390753]]]}, "properties": {"osm_id": 495732446, "building": "warehouse", "name": "", "height": null, "height_m": 3.0, "levels": 1, "tract_id": "40143007650", "tract_name": "76.50", "tags": {"building": "warehouse", "building:levels": "1", "roof:levels": "0", "roof:shape": "skillion"}}}, {"type": "Feature", "geometry": {"type": "Polygon", "coordinates": [[[-95.9493192, 36.0324535], [-95.9493767, 36.0324538], [-95.949377, 36.0324188], [-95.9494206, 36.032419], [-95.9494203, 36.032454], [-95.9494552, 36.0324541], [-95.9494551, 36.0324768], [-95.9494964, 36.032477], [-95.9494959, 36.0325571], [-95.949505, 36.0325571], [-95.9495044, 36.0326392], [-95.9494539, 36.0326389], [-95.9494533, 36.0327181], [-95.9494863, 36.0327183], [-95.9494855, 36.0328306], [-95.9493589, 36.03283], [-95.9492588, 36.0328296], [-95.9492596, 36.0327179], [-95.9493173, 36.0327181], [-95.9493177, 36.0326648], [-95.9493179, 36.032627], [-95.949245, 36.0326267], [-95.9492455, 36.032556], [-95.9492531, 36.032556], [-95.9492537, 36.0324754], [-95.949319, 36.0324757], [-95.9493192, 36.0324535]]]}, "properties": {"osm_id": 495733350, "building": "yes", "name": "Arvest", "height": null, "height_m": null, "levels": null, "tract_id": "40143007650", "tract_name": "76.50", "tags": {"addr:housenumber": "2799", "addr:street": "East 91st Street", "amenity": "bank", "building": "yes", "name": "Arvest", "opening_hours": "Mo-Fr 08:00-20:00; Sa 08:00-13:00"}}}, {"type": "Feature", "geometry": {"type": "Polygon", "coordinates": [[[-95.9533901, 36.0336763], [-95.9524233, 36.0336803], [-95.952423, 36.0336219], [-95.9533897, 36.0336179], [-95.9533901, 36.0336763]]]}, "properties": {"osm_id": 495735150, "building": "warehouse", "name": "", "height": null, "height_m": 3.0, "levels": 1, "tract_id": "40143007650", "tract_name": "76.50", "tags": {"building": "warehouse", "building:colour": "tan", "building:levels": "1", "roof:levels": "0", "roof:shape": "flat"}}}, {"type": "Feature", "geometry": {"type": "Polygon", "coordinates": [[[-95.9524213, 36.0337923], [-95.9524209, 36.0337345], [-95.95339, 36.0337304], [-95.9533904, 36.0337882], [-95.9524213, 36.0337923]]]}, "properties": {"osm_id": 495735151, "building": "warehouse", "name": "", "height": null, "height_m": 3.0, "levels": 1, "tract_id": "40143007650", "tract_name": "76.50", "tags": {"building": "warehouse", "building:levels": "1", "roof:levels": "0", "roof:shape": "flat"}}}, {"type": "Feature", "geometry": {"type": "Polygon", "coordinates": [[[-95.9533895, 36.0338977], [-95.9524219, 36.033903], [-95.9524214, 36.0338435], [-95.953389, 36.0338383], [-95.9533895, 36.0338977]]]}, "properties": {"osm_id": 495735152, "building": "warehouse", "name": "", "height": null, "height_m": 3.0, "levels": 1, "tract_id": "40143007650", "tract_name": "76.50", "tags": {"building": "warehouse", "building:levels": "1", "roof:levels": "0", "roof:shape": "flat"}}}, {"type": "Feature", "geometry": {"type": "Polygon", "coordinates": [[[-95.95242, 36.0340141], [-95.9524195, 36.0339547], [-95.9534061, 36.0339488], [-95.9534066, 36.0340081], [-95.95242, 36.0340141]]]}, "properties": {"osm_id": 495735153, "building": "warehouse", "name": "", "height": null, "height_m": 3.0, "levels": 1, "tract_id": "40143007650", "tract_name": "76.50", "tags": {"building": "warehouse", "building:levels": "1", "roof:levels": "0", "roof:shape": "flat"}}}, {"type": "Feature", "geometry": {"type": "Polygon", "coordinates": [[[-95.9534043, 36.034119], [-95.9524227, 36.0341228], [-95.9524225, 36.0340664], [-95.9534046, 36.0340613], [-95.9534043, 36.034119]]]}, "properties": {"osm_id": 495735154, "building": "warehouse", "name": "", "height": null, "height_m": 3.0, "levels": 1, "tract_id": "40143007650", "tract_name": "76.50", "tags": {"building": "warehouse", "building:levels": "1", "roof:levels": "0", "roof:shape": "flat"}}}, {"type": "Feature", "geometry": {"type": "Polygon", "coordinates": [[[-95.9534238, 36.034247], [-95.953235, 36.0342478], [-95.953226, 36.0342476], [-95.9532279, 36.0341729], [-95.9532276, 36.0341649], [-95.9534234, 36.0341635], [-95.9534238, 36.034247]]]}, "properties": {"osm_id": 495735155, "building": "retail", "name": "SecurCare Self Storage", "height": null, "height_m": 6.0, "levels": 2, "tract_id": "40143007650", "tract_name": "76.50", "tags": {"addr:city": "Tulsa", "addr:housenumber": "8905", "addr:postcode": "74137", "addr:state": "OK", "addr:street": "South Lewis Avenue East", "brand": "SecurCare Self Storage", "brand:wikidata": "Q124821649", "building": "retail", "building:levels": "2", "check_date": "2024-07-17", "name": "SecurCare Self Storage", "opening_hours": "Mo-Fr 10:00-13:00,14:00-18:00; Sa 10:00-13:00,14:00-17:00", "roof:levels": "0", "roof:shape": "hipped", "shop": "storage_rental", "website": "https://securcareselfstorage.com/self-storage-locations/oklahoma/tulsa-ok-storage-units/8905-South-Lewis-Avenue", "wheelchair": "limited"}}}, {"type": "Feature", "geometry": {"type": "Polygon", "coordinates": [[[-95.9524233, 36.0342601], [-95.9524226, 36.0341771], [-95.9532279, 36.0341729], [-95.953226, 36.0342476], [-95.953235, 36.0342478], [-95.9532352, 36.0342559], [-95.9524233, 36.0342601]]]}, "properties": {"osm_id": 495735156, "building": "warehouse", "name": "", "height": null, "height_m": 3.0, "levels": 1, "tract_id": "40143007650", "tract_name": "76.50", "tags": {"building": "warehouse", "building:levels": "1", "roof:levels": "0", "roof:shape": "flat"}}}, {"type": "Feature", "geometry": {"type": "Polygon", "coordinates": [[[-95.9522865, 36.0343273], [-95.953401, 36.0343221], [-95.9534018, 36.0343782], [-95.9522867, 36.0343815], [-95.9522865, 36.0343273]]]}, "properties": {"osm_id": 495735157, "building": "warehouse", "name": "", "height": null, "height_m": 3.0, "levels": 1, "tract_id": "40143007650", "tract_name": "76.50", "tags": {"building": "warehouse", "building:levels": "1", "roof:levels": "0", "roof:shape": "flat"}}}, {"type": "Feature", "geometry": {"type": "Polygon", "coordinates": [[[-95.9522842, 36.0342601], [-95.9522848, 36.0335709], [-95.9523425, 36.0335709], [-95.9523419, 36.0342601], [-95.9522842, 36.0342601]]]}, "properties": {"osm_id": 495735158, "building": "warehouse", "name": "", "height": null, "height_m": 3.0, "levels": 1, "tract_id": "40143007650", "tract_name": "76.50", "tags": {"building": "warehouse", "building:levels": "1", "roof:levels": "0", "roof:shape": "flat"}}}, {"type": "Feature", "geometry": {"type": "Polygon", "coordinates": [[[-95.9511067, 36.0414276], [-95.9509334, 36.0414279], [-95.9509335, 36.0414807], [-95.9509047, 36.0414808], [-95.9509045, 36.0414279], [-95.9506192, 36.0414283], [-95.9506188, 36.0412687], [-95.9505755, 36.0412688], [-95.9505753, 36.0411625], [-95.9505349, 36.0411625], [-95.9505347, 36.0410964], [-95.9505751, 36.0410963], [-95.9505748, 36.0409738], [-95.9506182, 36.0409738], [-95.9506178, 36.0408254], [-95.9511054, 36.0408247], [-95.9511067, 36.0414276]]]}, "properties": {"osm_id": 495737724, "building": "yes", "name": "", "height": null, "height_m": null, "levels": null, "tract_id": "40143007650", "tract_name": "76.50", "tags": {"building": "yes"}}}, {"type": "Feature", "geometry": {"type": "Polygon", "coordinates": [[[-95.9514473, 36.040994], [-95.9516053, 36.0409918], [-95.9516079, 36.0411152], [-95.9515853, 36.0411155], [-95.9515875, 36.0412196], [-95.9516091, 36.0412193], [-95.9516116, 36.0413372], [-95.9514547, 36.0413394], [-95.9514473, 36.040994]]]}, "properties": {"osm_id": 495743196, "building": "detached", "name": "", "height": null, "height_m": null, "levels": null, "tract_id": "40143007650", "tract_name": "76.50", "tags": {"building": "detached"}}}, {"type": "Feature", "geometry": {"type": "Polygon", "coordinates": [[[-95.951976, 36.0391879], [-95.951976, 36.0396499], [-95.9521209, 36.0396499], [-95.9521209, 36.0395891], [-95.9526761, 36.0395891], [-95.9526761, 36.0396499], [-95.952825, 36.0396499], [-95.952825, 36.0391879], [-95.9526922, 36.0391879], [-95.9526922, 36.0394698], [-95.9521102, 36.0394698], [-95.9521102, 36.0391879], [-95.951976, 36.0391879]]]}, "properties": {"osm_id": 495743197, "building": "apartments", "name": "", "height": null, "height_m": null, "levels": null, "tract_id": "40143007650", "tract_name": "76.50", "tags": {"building": "apartments"}}}, {"type": "Feature", "geometry": {"type": "Polygon", "coordinates": [[[-95.9533496, 36.0394786], [-95.9532468, 36.0395033], [-95.9532341, 36.0394688], [-95.9531793, 36.0394819], [-95.9531875, 36.0395041], [-95.9532279, 36.0394944], [-95.9532602, 36.0395827], [-95.9531274, 36.0396145], [-95.9531031, 36.0396203], [-95.9530765, 36.0395476], [-95.953037, 36.039557], [-95.9530101, 36.0394832], [-95.9531469, 36.0394505], [-95.9531169, 36.0393684], [-95.9532016, 36.0393482], [-95.9532101, 36.0393713], [-95.9533023, 36.0393493], [-95.9533496, 36.0394786]]]}, "properties": {"osm_id": 495743199, "building": "detached", "name": "", "height": null, "height_m": null, "levels": null, "tract_id": "40143007650", "tract_name": "76.50", "tags": {"building": "detached"}}}, {"type": "Feature", "geometry": {"type": "Polygon", "coordinates": [[[-95.9527898, 36.0400348], [-95.9527892, 36.0399048], [-95.9524358, 36.0399059], [-95.9524364, 36.0400359], [-95.9524659, 36.0400358], [-95.9524659, 36.0400474], [-95.9525108, 36.0400472], [-95.9525109, 36.0400593], [-95.95259, 36.0400591], [-95.9525899, 36.040047], [-95.9526409, 36.0400468], [-95.952641, 36.0400594], [-95.9527268, 36.0400591], [-95.9527267, 36.0400466], [-95.952763, 36.0400465], [-95.9527629, 36.0400349], [-95.9527898, 36.0400348]]]}, "properties": {"osm_id": 495743201, "building": "detached", "name": "", "height": null, "height_m": null, "levels": null, "tract_id": "40143007650", "tract_name": "76.50", "tags": {"building": "detached"}}}, {"type": "Feature", "geometry": {"type": "Polygon", "coordinates": [[[-95.9531897, 36.0400224], [-95.953122, 36.0400897], [-95.9530875, 36.040067], [-95.9530515, 36.0401028], [-95.9530737, 36.0401174], [-95.9531003, 36.040091], [-95.9531887, 36.0401491], [-95.9530853, 36.0402519], [-95.9530126, 36.040204], [-95.9529866, 36.0402298], [-95.9529127, 36.0401813], [-95.9530028, 36.0400917], [-95.9529207, 36.0400377], [-95.9529765, 36.0399823], [-95.9529997, 36.0399975], [-95.9530603, 36.0399372], [-95.9531897, 36.0400224]]]}, "properties": {"osm_id": 495743203, "building": "detached", "name": "", "height": null, "height_m": null, "levels": null, "tract_id": "40143007650", "tract_name": "76.50", "tags": {"building": "detached"}}}, {"type": "Feature", "geometry": {"type": "Polygon", "coordinates": [[[-95.9537771, 36.0399416], [-95.9537771, 36.0398483], [-95.9538539, 36.0398483], [-95.9539273, 36.0398483], [-95.9539274, 36.0399415], [-95.9539086, 36.0399416], [-95.9539086, 36.0399665], [-95.9538672, 36.0399665], [-95.9538496, 36.0399665], [-95.9538496, 36.0399416], [-95.9537771, 36.0399416]]]}, "properties": {"osm_id": 495743208, "building": "detached", "name": "", "height": null, "height_m": null, "levels": null, "tract_id": "40143007650", "tract_name": "76.50", "tags": {"building": "detached"}}}, {"type": "Feature", "geometry": {"type": "Polygon", "coordinates": [[[-95.9519214, 36.0417043], [-95.9519214, 36.0415839], [-95.9522044, 36.0415839], [-95.9522044, 36.0417042], [-95.9519214, 36.0417043]]]}, "properties": {"osm_id": 495743210, "building": "detached", "name": "", "height": null, "height_m": null, "levels": null, "tract_id": "40143007650", "tract_name": "76.50", "tags": {"building": "detached"}}}, {"type": "Feature", "geometry": {"type": "Polygon", "coordinates": [[[-95.9528411, 36.0417027], [-95.952841, 36.041585], [-95.9529148, 36.041585], [-95.9529148, 36.0415699], [-95.9531552, 36.0415698], [-95.9531552, 36.0416528], [-95.9530704, 36.0416528], [-95.9530704, 36.0417027], [-95.9528411, 36.0417027]]]}, "properties": {"osm_id": 495743212, "building": "detached", "name": "", "height": null, "height_m": null, "levels": null, "tract_id": "40143007650", "tract_name": "76.50", "tags": {"building": "detached"}}}, {"type": "Feature", "geometry": {"type": "Polygon", "coordinates": [[[-95.9519519, 36.0411778], [-95.9519519, 36.0410239], [-95.952023, 36.0410239], [-95.952023, 36.0410049], [-95.9522309, 36.0410048], [-95.9522309, 36.0410239], [-95.9523063, 36.0410238], [-95.9523063, 36.0411187], [-95.9523381, 36.0411187], [-95.9523382, 36.0411777], [-95.9519519, 36.0411778]]]}, "properties": {"osm_id": 495743214, "building": "detached", "name": "", "height": null, "height_m": null, "levels": null, "tract_id": "40143007650", "tract_name": "76.50", "tags": {"building": "detached"}}}, {"type": "Feature", "geometry": {"type": "Polygon", "coordinates": [[[-95.9524414, 36.0411892], [-95.9524414, 36.0410174], [-95.9528159, 36.0410173], [-95.9528159, 36.0411604], [-95.952723, 36.0411605], [-95.952723, 36.041143], [-95.9526054, 36.0411431], [-95.9526054, 36.0411892], [-95.9524414, 36.0411892]]]}, "properties": {"osm_id": 495743216, "building": "detached", "name": "", "height": null, "height_m": null, "levels": null, "tract_id": "40143007650", "tract_name": "76.50", "tags": {"building": "detached"}}}, {"type": "Feature", "geometry": {"type": "Polygon", "coordinates": [[[-95.9524567, 36.0408595], [-95.9524572, 36.0407291], [-95.9525479, 36.0407294], [-95.9525478, 36.0407472], [-95.9527208, 36.0407477], [-95.9527209, 36.0407308], [-95.9528124, 36.040731], [-95.9528119, 36.0408612], [-95.9527841, 36.0408611], [-95.9527841, 36.0408736], [-95.9527422, 36.0408735], [-95.9527422, 36.0408858], [-95.9526644, 36.0408856], [-95.9526644, 36.0408732], [-95.9526054, 36.0408731], [-95.9526054, 36.0408838], [-95.9525289, 36.0408836], [-95.952529, 36.0408729], [-95.9524803, 36.0408728], [-95.9524803, 36.0408596], [-95.9524567, 36.0408595]]]}, "properties": {"osm_id": 495743218, "building": "detached", "name": "", "height": null, "height_m": null, "levels": null, "tract_id": "40143007650", "tract_name": "76.50", "tags": {"building": "detached"}}}, {"type": "Feature", "geometry": {"type": "Polygon", "coordinates": [[[-95.9531376, 36.0413363], [-95.95296, 36.0413371], [-95.9529594, 36.04125], [-95.9529815, 36.0412499], [-95.9529806, 36.04111], [-95.9529596, 36.0411101], [-95.9529591, 36.0410248], [-95.9531354, 36.041024], [-95.9531359, 36.0410916], [-95.9531511, 36.0410915], [-95.9531515, 36.0411544], [-95.9531363, 36.0411545], [-95.9531366, 36.0412022], [-95.9531498, 36.0412021], [-95.9531503, 36.041264], [-95.9531371, 36.041264], [-95.9531376, 36.0413363]]]}, "properties": {"osm_id": 495743221, "building": "detached", "name": "", "height": null, "height_m": null, "levels": null, "tract_id": "40143007650", "tract_name": "76.50", "tags": {"building": "detached"}}}, {"type": "Feature", "geometry": {"type": "Polygon", "coordinates": [[[-95.9531307, 36.0408635], [-95.9529532, 36.0408643], [-95.9529526, 36.0407772], [-95.9529747, 36.0407771], [-95.9529737, 36.0406372], [-95.9529528, 36.0406373], [-95.9529522, 36.040552], [-95.9531286, 36.0405512], [-95.9531291, 36.0406188], [-95.9531443, 36.0406187], [-95.9531447, 36.0406816], [-95.9531295, 36.0406817], [-95.9531298, 36.0407294], [-95.953143, 36.0407293], [-95.9531434, 36.0407912], [-95.9531302, 36.0407912], [-95.9531307, 36.0408635]]]}, "properties": {"osm_id": 495743223, "building": "detached", "name": "", "height": null, "height_m": null, "levels": null, "tract_id": "40143007650", "tract_name": "76.50", "tags": {"building": "detached"}}}, {"type": "Feature", "geometry": {"type": "Polygon", "coordinates": [[[-95.953987, 36.0411241], [-95.9538315, 36.0411248], [-95.9538295, 36.0408336], [-95.953985, 36.0408329], [-95.953987, 36.0411241]]]}, "properties": {"osm_id": 495743226, "building": "detached", "name": "", "height": null, "height_m": null, "levels": null, "tract_id": "40143007650", "tract_name": "76.50", "tags": {"building": "detached"}}}, {"type": "Feature", "geometry": {"type": "Polygon", "coordinates": [[[-95.953987, 36.0407879], [-95.9538315, 36.0407886], [-95.9538295, 36.0404974], [-95.953985, 36.0404967], [-95.953987, 36.0407879]]]}, "properties": {"osm_id": 495743227, "building": "detached", "name": "", "height": null, "height_m": null, "levels": null, "tract_id": "40143007650", "tract_name": "76.50", "tags": {"building": "detached"}}}, {"type": "Feature", "geometry": {"type": "Polygon", "coordinates": [[[-95.9536792, 36.0402901], [-95.9535237, 36.0402908], [-95.9535217, 36.0399997], [-95.9536772, 36.039999], [-95.9536792, 36.0402901]]]}, "properties": {"osm_id": 495743229, "building": "detached", "name": "", "height": null, "height_m": null, "levels": null, "tract_id": "40143007650", "tract_name": "76.50", "tags": {"building": "detached"}}}, {"type": "Feature", "geometry": {"type": "Polygon", "coordinates": [[[-95.9536752, 36.0399442], [-95.9535197, 36.0399449], [-95.9535177, 36.0396537], [-95.9536732, 36.039653], [-95.9536752, 36.0399442]]]}, "properties": {"osm_id": 495743231, "building": "detached", "name": "", "height": null, "height_m": null, "levels": null, "tract_id": "40143007650", "tract_name": "76.50", "tags": {"building": "detached"}}}, {"type": "Feature", "geometry": {"type": "Polygon", "coordinates": [[[-95.9534989, 36.0412846], [-95.9534989, 36.0411589], [-95.9538589, 36.0411588], [-95.953859, 36.0412845], [-95.9535971, 36.0412846], [-95.9535971, 36.0413291], [-95.9535569, 36.0413291], [-95.9535569, 36.0413117], [-95.953522, 36.0413117], [-95.953522, 36.0412846], [-95.9534989, 36.0412846]]]}, "properties": {"osm_id": 495743233, "building": "detached", "name": "", "height": null, "height_m": null, "levels": null, "tract_id": "40143007650", "tract_name": "76.50", "tags": {"building": "detached"}}}, {"type": "Feature", "geometry": {"type": "Polygon", "coordinates": [[[-95.9534922, 36.0404724], [-95.9534921, 36.0403467], [-95.9538522, 36.0403466], [-95.9538523, 36.0404723], [-95.9535593, 36.0404724], [-95.9534922, 36.0404724]]]}, "properties": {"osm_id": 495743235, "building": "detached", "name": "", "height": null, "height_m": null, "levels": null, "tract_id": "40143007650", "tract_name": "76.50", "tags": {"building": "detached"}}}, {"type": "Feature", "geometry": {"type": "Polygon", "coordinates": [[[-95.9535009, 36.0393814], [-95.9535009, 36.0392558], [-95.953861, 36.0392557], [-95.953861, 36.0393814], [-95.9535009, 36.0393814]]]}, "properties": {"osm_id": 495743237, "building": "detached", "name": "", "height": null, "height_m": null, "levels": null, "tract_id": "40143007650", "tract_name": "76.50", "tags": {"building": "detached"}}}, {"type": "Feature", "geometry": {"type": "Polygon", "coordinates": [[[-95.9539649, 36.0393782], [-95.9539649, 36.0392525], [-95.954325, 36.0392524], [-95.954325, 36.0393781], [-95.9539649, 36.0393782]]]}, "properties": {"osm_id": 495743239, "building": "detached", "name": "", "height": null, "height_m": null, "levels": null, "tract_id": "40143007650", "tract_name": "76.50", "tags": {"building": "detached"}}}, {"type": "Feature", "geometry": {"type": "Polygon", "coordinates": [[[-95.9544322, 36.0392578], [-95.9547789, 36.0392583], [-95.9547787, 36.0393766], [-95.9547434, 36.0393765], [-95.9547433, 36.0393968], [-95.9547262, 36.0393968], [-95.9547037, 36.0393967], [-95.9547038, 36.0393885], [-95.9546612, 36.0393884], [-95.9546612, 36.0393967], [-95.9546221, 36.0393966], [-95.9546222, 36.0393763], [-95.9545928, 36.0393763], [-95.9545928, 36.0393976], [-95.9545511, 36.0393976], [-95.9545511, 36.039389], [-95.9545109, 36.039389], [-95.9545109, 36.0393975], [-95.9544922, 36.0393975], [-95.9544701, 36.0393974], [-95.9544701, 36.0393761], [-95.9544319, 36.039376], [-95.9544322, 36.0392578]]]}, "properties": {"osm_id": 495743241, "building": "detached", "name": "", "height": null, "height_m": null, "levels": null, "tract_id": "40143007650", "tract_name": "76.50", "tags": {"building": "detached"}}}, {"type": "Feature", "geometry": {"type": "Polygon", "coordinates": [[[-95.9548851, 36.0393817], [-95.9548851, 36.039256], [-95.955073, 36.039256], [-95.955073, 36.0392275], [-95.9551394, 36.0392275], [-95.9551394, 36.039256], [-95.9552451, 36.039256], [-95.9552452, 36.0393817], [-95.9548851, 36.0393817]]]}, "properties": {"osm_id": 495743244, "building": "detached", "name": "", "height": null, "height_m": 3.0, "levels": 1, "tract_id": "40143007650", "tract_name": "76.50", "tags": {"building": "detached", "building:levels": "1", "roof:levels": "0"}}}, {"type": "Feature", "geometry": {"type": "Polygon", "coordinates": [[[-95.9553384, 36.0393774], [-95.9553383, 36.0392517], [-95.9556984, 36.0392516], [-95.9556985, 36.0393773], [-95.9553384, 36.0393774]]]}, "properties": {"osm_id": 495743246, "building": "detached", "name": "", "height": null, "height_m": 3.0, "levels": 1, "tract_id": "40143007650", "tract_name": "76.50", "tags": {"building": "detached", "building:levels": "1", "roof:levels": "0", "roof:shape": "gabled"}}}, {"type": "Feature", "geometry": {"type": "Polygon", "coordinates": [[[-95.9541943, 36.0400876], [-95.9540389, 36.0400883], [-95.9540369, 36.0397972], [-95.9541923, 36.0397965], [-95.9541943, 36.0400876]]]}, "properties": {"osm_id": 495743247, "building": "detached", "name": "", "height": null, "height_m": null, "levels": null, "tract_id": "40143007650", "tract_name": "76.50", "tags": {"building": "detached"}}}, {"type": "Feature", "geometry": {"type": "Polygon", "coordinates": [[[-95.9546356, 36.0398719], [-95.9546356, 36.0397462], [-95.9549957, 36.0397461], [-95.9549957, 36.0398718], [-95.9546356, 36.0398719]]]}, "properties": {"osm_id": 495743248, "building": "detached", "name": "", "height": null, "height_m": null, "levels": null, "tract_id": "40143007650", "tract_name": "76.50", "tags": {"building": "detached"}}}, {"type": "Feature", "geometry": {"type": "Polygon", "coordinates": [[[-95.9542266, 36.0398708], [-95.9542266, 36.0397451], [-95.9545867, 36.039745], [-95.9545867, 36.0398707], [-95.9542266, 36.0398708]]]}, "properties": {"osm_id": 495743249, "building": "detached", "name": "", "height": null, "height_m": null, "levels": null, "tract_id": "40143007650", "tract_name": "76.50", "tags": {"building": "detached"}}}, {"type": "Feature", "geometry": {"type": "Polygon", "coordinates": [[[-95.9542293, 36.0401387], [-95.9542293, 36.040013], [-95.9545893, 36.0400129], [-95.9545894, 36.0401386], [-95.9542293, 36.0401387]]]}, "properties": {"osm_id": 495743250, "building": "detached", "name": "", "height": null, "height_m": null, "levels": null, "tract_id": "40143007650", "tract_name": "76.50", "tags": {"building": "detached"}}}, {"type": "Feature", "geometry": {"type": "Polygon", "coordinates": [[[-95.9546383, 36.0401387], [-95.9546383, 36.040013], [-95.9549984, 36.0400129], [-95.9549984, 36.0401386], [-95.9546383, 36.0401387]]]}, "properties": {"osm_id": 495743251, "building": "detached", "name": "", "height": null, "height_m": null, "levels": null, "tract_id": "40143007650", "tract_name": "76.50", "tags": {"building": "detached"}}}, {"type": "Feature", "geometry": {"type": "Polygon", "coordinates": [[[-95.9551952, 36.0400855], [-95.9550398, 36.0400862], [-95.9550378, 36.0397951], [-95.9551932, 36.0397944], [-95.9551952, 36.0400855]]]}, "properties": {"osm_id": 495743252, "building": "detached", "name": "", "height": null, "height_m": null, "levels": null, "tract_id": "40143007650", "tract_name": "76.50", "tags": {"building": "detached"}}}, {"type": "Feature", "geometry": {"type": "Polygon", "coordinates": [[[-95.9556992, 36.0400012], [-95.9555517, 36.0397474], [-95.955684, 36.0396971], [-95.9556991, 36.0397229], [-95.9557218, 36.0397143], [-95.9557386, 36.0397432], [-95.9557294, 36.0397468], [-95.9557475, 36.0397779], [-95.9557567, 36.0397744], [-95.9557733, 36.039803], [-95.9557506, 36.0398116], [-95.9557631, 36.0398331], [-95.955787, 36.039824], [-95.9558047, 36.0398545], [-95.9557952, 36.0398581], [-95.9558123, 36.0398876], [-95.9558218, 36.0398839], [-95.9558392, 36.0399138], [-95.9558153, 36.0399229], [-95.9558316, 36.0399508], [-95.9556992, 36.0400012]]]}, "properties": {"osm_id": 495743253, "building": "detached", "name": "", "height": null, "height_m": 3.0, "levels": 1, "tract_id": "40143007650", "tract_name": "76.50", "tags": {"building": "detached", "building:levels": "1", "roof:levels": "0"}}}, {"type": "Feature", "geometry": {"type": "Polygon", "coordinates": [[[-95.955873, 36.0402989], [-95.9557254, 36.0400451], [-95.9558578, 36.0399948], [-95.9558728, 36.0400206], [-95.9558956, 36.040012], [-95.9559124, 36.040041], [-95.9559032, 36.0400445], [-95.9559213, 36.0400756], [-95.9559305, 36.0400721], [-95.9559471, 36.0401007], [-95.9559244, 36.0401093], [-95.9559369, 36.0401308], [-95.9559608, 36.0401217], [-95.9559785, 36.0401522], [-95.9559689, 36.0401559], [-95.9559861, 36.0401853], [-95.9559956, 36.0401817], [-95.956013, 36.0402115], [-95.9559891, 36.0402206], [-95.9560053, 36.0402486], [-95.955873, 36.0402989]]]}, "properties": {"osm_id": 495743254, "building": "detached", "name": "", "height": null, "height_m": 3.0, "levels": 1, "tract_id": "40143007650", "tract_name": "76.50", "tags": {"building": "detached", "building:levels": "1", "roof:levels": "0"}}}, {"type": "Feature", "geometry": {"type": "Polygon", "coordinates": [[[-95.9583015, 36.0433836], [-95.9582673, 36.0433838], [-95.9581231, 36.0433847], [-95.9581228, 36.0435264], [-95.9581226, 36.0436095], [-95.9581224, 36.0436992], [-95.9587742, 36.0436981], [-95.9589848, 36.0435289], [-95.9589828, 36.0429304], [-95.9589593, 36.0429081], [-95.95896, 36.0428702], [-95.9587353, 36.0428685], [-95.9587353, 36.0428184], [-95.9587353, 36.042765], [-95.9586388, 36.0427682], [-95.9586388, 36.0428193], [-95.9586388, 36.0428675], [-95.95862, 36.042868], [-95.9586217, 36.0429611], [-95.9586234, 36.0430518], [-95.9586965, 36.0430519], [-95.9586964, 36.0430461], [-95.9587146, 36.0430461], [-95.9587155, 36.0430189], [-95.9587244, 36.043019], [-95.9587236, 36.0431452], [-95.958722, 36.0433996], [-95.9586921, 36.0434232], [-95.9586623, 36.0434467], [-95.9586399, 36.0434644], [-95.9586011, 36.0434642], [-95.9584099, 36.0434631], [-95.9583015, 36.0433836]]]}, "properties": {"osm_id": 495744016, "building": "retail", "name": "", "height": null, "height_m": 3.0, "levels": 1, "tract_id": "40143007650", "tract_name": "76.50", "tags": {"building": "retail", "building:levels": "1", "roof:levels": "0"}}}, {"type": "Feature", "geometry": {"type": "Polygon", "coordinates": [[[-95.9626404, 36.0402961], [-95.962509, 36.0402766], [-95.9625198, 36.0402001], [-95.9624279, 36.0401898], [-95.9624192, 36.0399822], [-95.9624306, 36.03998], [-95.9624044, 36.0396308], [-95.9630022, 36.0396058], [-95.9630187, 36.0398205], [-95.9631306, 36.0399544], [-95.963191, 36.0399518], [-95.9632098, 36.040173], [-95.963123, 36.0401769], [-95.9631447, 36.0402538], [-95.9630656, 36.0402777], [-95.962851, 36.0403113], [-95.9627397, 36.0403091], [-95.9626404, 36.0402961]]]}, "properties": {"osm_id": 526896020, "building": "yes", "name": "River Spirit Event Center", "height": null, "height_m": null, "levels": null, "tract_id": "40143007650", "tract_name": "76.50", "tags": {"amenity": "theatre", "building": "yes", "building:colour": "tan", "check_date": "2024-06-12", "name": "River Spirit Event Center"}}}, {"type": "Feature", "geometry": {"type": "Polygon", "coordinates": [[[-95.9645628, 36.0410222], [-95.9643791, 36.0408937], [-95.964222, 36.0410406], [-95.9638325, 36.0414048], [-95.963932, 36.0414597], [-95.9640163, 36.0415333], [-95.9645628, 36.0410222]]]}, "properties": {"osm_id": 526896034, "building": "hotel", "name": "River Spirit Casino Resort", "height": null, "height_m": null, "levels": null, "tract_id": "40143007650", "tract_name": "76.50", "tags": {"air_conditioning": "yes", "building": "hotel", "check_date": "2024-07-17", "name": "River Spirit Casino Resort", "tourism": "hotel"}}}, {"type": "Feature", "geometry": {"type": "Polygon", "coordinates": [[[-95.9640716, 36.0403563], [-95.9640548, 36.0403374], [-95.9640813, 36.040322], [-95.9640981, 36.0403409], [-95.9640716, 36.0403563]]]}, "properties": {"osm_id": 557172213, "building": "bungalow", "name": "", "height": null, "height_m": 3.0, "levels": 1, "tract_id": "40143007650", "tract_name": "76.50", "tags": {"building": "bungalow", "building:colour": "beige", "building:levels": "1", "roof:colour": "navy", "roof:levels": "0", "roof:shape": "pyramidal"}}}, {"type": "Feature", "geometry": {"type": "Polygon", "coordinates": [[[-95.9641031, 36.0403891], [-95.9640852, 36.040369], [-95.9641117, 36.0403536], [-95.9641296, 36.0403737], [-95.9641031, 36.0403891]]]}, "properties": {"osm_id": 557172214, "building": "bungalow", "name": "", "height": null, "height_m": 3.0, "levels": 1, "tract_id": "40143007650", "tract_name": "76.50", "tags": {"building": "bungalow", "building:colour": "beige", "building:levels": "1", "roof:colour": "navy", "roof:levels": "0", "roof:shape": "pyramidal"}}}, {"type": "Feature", "geometry": {"type": "Polygon", "coordinates": [[[-95.9641329, 36.0404238], [-95.9641146, 36.0404032], [-95.9641411, 36.0403878], [-95.9641594, 36.0404084], [-95.9641329, 36.0404238]]]}, "properties": {"osm_id": 557172215, "building": "bungalow", "name": "", "height": null, "height_m": 3.0, "levels": 1, "tract_id": "40143007650", "tract_name": "76.50", "tags": {"building": "bungalow", "building:colour": "beige", "building:levels": "1", "roof:colour": "navy", "roof:levels": "0", "roof:shape": "pyramidal"}}}, {"type": "Feature", "geometry": {"type": "Polygon", "coordinates": [[[-95.9642281, 36.0405363], [-95.9642114, 36.0405174], [-95.9642379, 36.0405021], [-95.9642546, 36.040521], [-95.9642281, 36.0405363]]]}, "properties": {"osm_id": 557172216, "building": "bungalow", "name": "", "height": null, "height_m": 3.0, "levels": 1, "tract_id": "40143007650", "tract_name": "76.50", "tags": {"building": "bungalow", "building:colour": "beige", "building:levels": "1", "roof:colour": "navy", "roof:levels": "0", "roof:shape": "pyramidal"}}}, {"type": "Feature", "geometry": {"type": "Polygon", "coordinates": [[[-95.9642576, 36.0405699], [-95.9642409, 36.040551], [-95.9642674, 36.0405357], [-95.9642841, 36.0405546], [-95.9642576, 36.0405699]]]}, "properties": {"osm_id": 557172217, "building": "bungalow", "name": "", "height": null, "height_m": 3.0, "levels": 1, "tract_id": "40143007650", "tract_name": "76.50", "tags": {"building": "bungalow", "building:colour": "beige", "building:levels": "1", "roof:colour": "navy", "roof:levels": "0", "roof:shape": "pyramidal"}}}, {"type": "Feature", "geometry": {"type": "Polygon", "coordinates": [[[-95.9642881, 36.0406033], [-95.9642714, 36.0405844], [-95.9642979, 36.040569], [-95.9643146, 36.0405879], [-95.9642881, 36.0406033]]]}, "properties": {"osm_id": 557172218, "building": "bungalow", "name": "", "height": null, "height_m": 3.0, "levels": 1, "tract_id": "40143007650", "tract_name": "76.50", "tags": {"building": "bungalow", "building:colour": "beige", "building:levels": "1", "roof:colour": "navy", "roof:levels": "0", "roof:shape": "pyramidal"}}}, {"type": "Feature", "geometry": {"type": "Polygon", "coordinates": [[[-95.964318, 36.0406369], [-95.9643012, 36.040618], [-95.9643277, 36.0406026], [-95.9643445, 36.0406215], [-95.964318, 36.0406369]]]}, "properties": {"osm_id": 557172219, "building": "bungalow", "name": "", "height": null, "height_m": 3.0, "levels": 1, "tract_id": "40143007650", "tract_name": "76.50", "tags": {"building": "bungalow", "building:colour": "beige", "building:levels": "1", "roof:colour": "navy", "roof:levels": "0", "roof:shape": "pyramidal"}}}, {"type": "Feature", "geometry": {"type": "Polygon", "coordinates": [[[-95.9643924, 36.0407917], [-95.9643706, 36.0407765], [-95.9643914, 36.040757], [-95.9644132, 36.0407722], [-95.9643924, 36.0407917]]]}, "properties": {"osm_id": 557172220, "building": "bungalow", "name": "", "height": null, "height_m": 3.0, "levels": 1, "tract_id": "40143007650", "tract_name": "76.50", "tags": {"building": "bungalow", "building:colour": "beige", "building:levels": "1", "roof:colour": "navy", "roof:levels": "0", "roof:shape": "pyramidal"}}}, {"type": "Feature", "geometry": {"type": "Polygon", "coordinates": [[[-95.9639038, 36.0403763], [-95.9638477, 36.0403134], [-95.9639463, 36.040256], [-95.9640024, 36.0403189], [-95.9639908, 36.0403256], [-95.9639133, 36.0403708], [-95.9639038, 36.0403763]]]}, "properties": {"osm_id": 557172224, "building": "roof", "name": "Landshark Pool Bar", "height": null, "height_m": null, "levels": null, "tract_id": "40143007650", "tract_name": "76.50", "tags": {"air_conditioning": "no", "amenity": "bar", "building": "roof", "check_date": "2024-06-12", "indoor_seating": "no", "name": "Landshark Pool Bar", "opening_hours": "\"Open when weather is warm and there is still traffic on the cycleway, except 2am to 10am\"", "outdoor_seating": "yes", "payment:credit_cards": "yes", "payment:debit_cards": "no", "wheelchair": "limited"}}}, {"type": "Feature", "geometry": {"type": "Polygon", "coordinates": [[[-95.9585655, 36.0424042], [-95.9585062, 36.0424463], [-95.9585153, 36.0424547], [-95.9584485, 36.0425021], [-95.9584057, 36.0424626], [-95.958422, 36.042451], [-95.9583833, 36.0424154], [-95.9583722, 36.0424233], [-95.9583321, 36.0423863], [-95.9583272, 36.0423898], [-95.9582709, 36.0423379], [-95.9583139, 36.0423074], [-95.9582815, 36.0422775], [-95.9583644, 36.0422188], [-95.9585655, 36.0424042]]]}, "properties": {"osm_id": 710378588, "building": "apartments", "name": "Win River", "height": null, "height_m": null, "levels": null, "tract_id": "40143007650", "tract_name": "76.50", "tags": {"building": "apartments", "name": "Win River", "office": "estate_agent"}}}, {"type": "Feature", "geometry": {"type": "Polygon", "coordinates": [[[-95.964231, 36.0404788], [-95.9642041, 36.0404952], [-95.9641619, 36.0404496], [-95.9641888, 36.0404333], [-95.964231, 36.0404788]]]}, "properties": {"osm_id": 712716601, "building": "bungalow", "name": "", "height": null, "height_m": 3.0, "levels": 1, "tract_id": "40143007650", "tract_name": "76.50", "tags": {"building": "bungalow", "building:colour": "beige", "building:levels": "1", "roof:colour": "navy", "roof:levels": "0", "roof:shape": "hipped"}}}, {"type": "Feature", "geometry": {"type": "Polygon", "coordinates": [[[-95.9556352, 36.0389221], [-95.9555172, 36.0387221], [-95.9556202, 36.0386823], [-95.9557382, 36.0388824], [-95.9556352, 36.0389221]]]}, "properties": {"osm_id": 839517566, "building": "yes", "name": "Domino's", "height": null, "height_m": null, "levels": null, "tract_id": "40143007650", "tract_name": "76.50", "tags": {"addr:city": "Tulsa", "addr:country": "US", "addr:housenumber": "8611", "addr:postcode": "74137", "addr:state": "OK", "addr:street": "South Lewis Avenue East", "amenity": "fast_food", "brand": "Domino's", "brand:wikidata": "Q839466", "building": "yes", "cuisine": "pizza", "name": "Domino's", "opening_hours": "Su-Th 10:30-12:00, Fr,Sa 10:30-01:00", "phone": "+1 918-298-3030", "ref": "6474", "takeaway": "yes", "website": "https://pizza.dominos.com/oklahoma/tulsa/8611-s-lewis", "wheelchair": "yes"}}}, {"type": "Feature", "geometry": {"type": "Polygon", "coordinates": [[[-95.9523039, 36.0386478], [-95.9523043, 36.0386751], [-95.9522101, 36.0386759], [-95.9522097, 36.0386486], [-95.9523039, 36.0386478]]]}, "properties": {"osm_id": 855159007, "building": "yes", "name": "", "height": null, "height_m": null, "levels": null, "tract_id": "40143007650", "tract_name": "76.50", "tags": {"building": "yes"}}}, {"type": "Feature", "geometry": {"type": "Polygon", "coordinates": [[[-95.9507737, 36.0386396], [-95.950774, 36.0386857], [-95.9506446, 36.0386863], [-95.9506443, 36.0386402], [-95.9507737, 36.0386396]]]}, "properties": {"osm_id": 855159008, "building": "yes", "name": "", "height": null, "height_m": null, "levels": null, "tract_id": "40143007650", "tract_name": "76.50", "tags": {"building": "yes", "shop": "laundry"}}}, {"type": "Feature", "geometry": {"type": "Polygon", "coordinates": [[[-95.9519733, 36.0377976], [-95.9518868, 36.0378691], [-95.9518447, 36.0378359], [-95.9519312, 36.0377643], [-95.9519733, 36.0377976]]]}, "properties": {"osm_id": 855159009, "building": "yes", "name": "", "height": null, "height_m": null, "levels": null, "tract_id": "40143007650", "tract_name": "76.50", "tags": {"building": "yes", "shop": "laundry"}}}, {"type": "Feature", "geometry": {"type": "Polygon", "coordinates": [[[-95.9535545, 36.0370905], [-95.9534706, 36.0370905], [-95.9534703, 36.0369958], [-95.9535541, 36.0369956], [-95.9535545, 36.0370905]]]}, "properties": {"osm_id": 893987475, "building": "retail", "name": "", "height": null, "height_m": 3.0, "levels": 1, "tract_id": "40143007650", "tract_name": "76.50", "tags": {"building": "retail", "building:levels": "1", "roof:levels": "0"}}}, {"type": "Feature", "geometry": {"type": "Polygon", "coordinates": [[[-95.9536383, 36.0370905], [-95.9535545, 36.0370905], [-95.9535541, 36.0369956], [-95.9536379, 36.0369954], [-95.9536383, 36.0370905]]]}, "properties": {"osm_id": 893987476, "building": "retail", "name": "", "height": null, "height_m": 3.0, "levels": 1, "tract_id": "40143007650", "tract_name": "76.50", "tags": {"building": "retail", "building:levels": "1", "roof:levels": "0"}}}, {"type": "Feature", "geometry": {"type": "Polygon", "coordinates": [[[-95.9537221, 36.0370905], [-95.9536383, 36.0370905], [-95.9536379, 36.0369954], [-95.9537217, 36.0369952], [-95.9537221, 36.0370905]]]}, "properties": {"osm_id": 893987477, "building": "retail", "name": "", "height": null, "height_m": 3.0, "levels": 1, "tract_id": "40143007650", "tract_name": "76.50", "tags": {"building": "retail", "building:levels": "1", "roof:levels": "0"}}}, {"type": "Feature", "geometry": {"type": "Polygon", "coordinates": [[[-95.9538059, 36.0370905], [-95.9537221, 36.0370905], [-95.9537217, 36.0369952], [-95.9538055, 36.0369949], [-95.9538059, 36.0370905]]]}, "properties": {"osm_id": 893987478, "building": "retail", "name": "", "height": null, "height_m": 3.0, "levels": 1, "tract_id": "40143007650", "tract_name": "76.50", "tags": {"building": "retail", "building:levels": "1", "roof:levels": "0"}}}, {"type": "Feature", "geometry": {"type": "Polygon", "coordinates": [[[-95.9538897, 36.0370905], [-95.9538059, 36.0370905], [-95.9538055, 36.0369949], [-95.9538893, 36.0369947], [-95.9538897, 36.0370905]]]}, "properties": {"osm_id": 893987479, "building": "retail", "name": "", "height": null, "height_m": 3.0, "levels": 1, "tract_id": "40143007650", "tract_name": "76.50", "tags": {"building": "retail", "building:levels": "1", "roof:levels": "0"}}}, {"type": "Feature", "geometry": {"type": "Polygon", "coordinates": [[[-95.9539735, 36.0370905], [-95.9538897, 36.0370905], [-95.9538893, 36.0369947], [-95.9539731, 36.0369945], [-95.9539735, 36.0370905]]]}, "properties": {"osm_id": 893987480, "building": "retail", "name": "", "height": null, "height_m": 3.0, "levels": 1, "tract_id": "40143007650", "tract_name": "76.50", "tags": {"building": "retail", "building:levels": "1", "roof:levels": "0"}}}, {"type": "Feature", "geometry": {"type": "Polygon", "coordinates": [[[-95.9540573, 36.0370905], [-95.9539735, 36.0370905], [-95.9539731, 36.0369945], [-95.9540569, 36.0369943], [-95.9540573, 36.0370905]]]}, "properties": {"osm_id": 893987481, "building": "retail", "name": "", "height": null, "height_m": 3.0, "levels": 1, "tract_id": "40143007650", "tract_name": "76.50", "tags": {"building": "retail", "building:levels": "1", "roof:levels": "0"}}}, {"type": "Feature", "geometry": {"type": "Polygon", "coordinates": [[[-95.9541411, 36.0370905], [-95.9540573, 36.0370905], [-95.9540569, 36.0369943], [-95.9541408, 36.0369941], [-95.9541411, 36.0370905]]]}, "properties": {"osm_id": 893987482, "building": "retail", "name": "", "height": null, "height_m": 3.0, "levels": 1, "tract_id": "40143007650", "tract_name": "76.50", "tags": {"building": "retail", "building:levels": "1", "roof:levels": "0"}}}, {"type": "Feature", "geometry": {"type": "Polygon", "coordinates": [[[-95.9542249, 36.0370905], [-95.9541411, 36.0370905], [-95.9541408, 36.0369941], [-95.9542246, 36.0369939], [-95.9542249, 36.0370905]]]}, "properties": {"osm_id": 893987483, "building": "retail", "name": "", "height": null, "height_m": 3.0, "levels": 1, "tract_id": "40143007650", "tract_name": "76.50", "tags": {"building": "retail", "building:levels": "1", "roof:levels": "0"}}}, {"type": "Feature", "geometry": {"type": "Polygon", "coordinates": [[[-95.9543087, 36.0370905], [-95.9542249, 36.0370905], [-95.9542246, 36.0369939], [-95.9543084, 36.0369937], [-95.9543087, 36.0370905]]]}, "properties": {"osm_id": 893987484, "building": "retail", "name": "", "height": null, "height_m": 3.0, "levels": 1, "tract_id": "40143007650", "tract_name": "76.50", "tags": {"building": "retail", "building:levels": "1", "roof:levels": "0"}}}, {"type": "Feature", "geometry": {"type": "Polygon", "coordinates": [[[-95.9543925, 36.0370905], [-95.9543087, 36.0370905], [-95.9543084, 36.0369937], [-95.9543922, 36.0369935], [-95.9543925, 36.0370905]]]}, "properties": {"osm_id": 893987485, "building": "retail", "name": "", "height": null, "height_m": 3.0, "levels": 1, "tract_id": "40143007650", "tract_name": "76.50", "tags": {"building": "retail", "building:levels": "1", "roof:levels": "0"}}}, {"type": "Feature", "geometry": {"type": "Polygon", "coordinates": [[[-95.9544763, 36.0370905], [-95.9543925, 36.0370905], [-95.9543922, 36.0369935], [-95.954476, 36.0369932], [-95.9544763, 36.0370905]]]}, "properties": {"osm_id": 893987486, "building": "retail", "name": "", "height": null, "height_m": 3.0, "levels": 1, "tract_id": "40143007650", "tract_name": "76.50", "tags": {"building": "retail", "building:levels": "1", "roof:levels": "0"}}}, {"type": "Feature", "geometry": {"type": "Polygon", "coordinates": [[[-95.9545601, 36.0370905], [-95.9544763, 36.0370905], [-95.954476, 36.0369932], [-95.9545598, 36.036993], [-95.9545601, 36.0370905]]]}, "properties": {"osm_id": 893987487, "building": "retail", "name": "", "height": null, "height_m": 3.0, "levels": 1, "tract_id": "40143007650", "tract_name": "76.50", "tags": {"building": "retail", "building:levels": "1", "roof:levels": "0"}}}, {"type": "Feature", "geometry": {"type": "Polygon", "coordinates": [[[-95.9546439, 36.0370905], [-95.9545601, 36.0370905], [-95.9545598, 36.036993], [-95.9546436, 36.0369928], [-95.9546439, 36.0370905]]]}, "properties": {"osm_id": 893987488, "building": "retail", "name": "", "height": null, "height_m": 3.0, "levels": 1, "tract_id": "40143007650", "tract_name": "76.50", "tags": {"building": "retail", "building:levels": "1", "roof:levels": "0"}}}, {"type": "Feature", "geometry": {"type": "Polygon", "coordinates": [[[-95.9546439, 36.0370905], [-95.9547278, 36.0370905], [-95.9547281, 36.0371857], [-95.9546443, 36.0371859], [-95.9546439, 36.0370905]]]}, "properties": {"osm_id": 893987489, "building": "retail", "name": "Allstate", "height": null, "height_m": 3.0, "levels": 1, "tract_id": "40143007650", "tract_name": "76.50", "tags": {"brand": "Allstate", "brand:wikidata": "Q2645636", "building": "retail", "building:levels": "1", "name": "Allstate", "office": "insurance", "opening_hours": "Mo-Fr 08:30-17:00", "roof:levels": "0"}}}, {"type": "Feature", "geometry": {"type": "Polygon", "coordinates": [[[-95.9545601, 36.0370905], [-95.9546439, 36.0370905], [-95.9546443, 36.0371859], [-95.9545605, 36.0371861], [-95.9545601, 36.0370905]]]}, "properties": {"osm_id": 893987490, "building": "retail", "name": "", "height": null, "height_m": 3.0, "levels": 1, "tract_id": "40143007650", "tract_name": "76.50", "tags": {"building": "retail", "building:levels": "1", "roof:levels": "0"}}}, {"type": "Feature", "geometry": {"type": "Polygon", "coordinates": [[[-95.9544763, 36.0370905], [-95.9545601, 36.0370905], [-95.9545605, 36.0371861], [-95.9544767, 36.0371863], [-95.9544763, 36.0370905]]]}, "properties": {"osm_id": 893987491, "building": "retail", "name": "", "height": null, "height_m": 3.0, "levels": 1, "tract_id": "40143007650", "tract_name": "76.50", "tags": {"building": "retail", "building:levels": "1", "roof:levels": "0"}}}, {"type": "Feature", "geometry": {"type": "Polygon", "coordinates": [[[-95.9543925, 36.0370905], [-95.9544763, 36.0370905], [-95.9544767, 36.0371863], [-95.9543929, 36.0371866], [-95.9543925, 36.0370905]]]}, "properties": {"osm_id": 893987492, "building": "retail", "name": "", "height": null, "height_m": 3.0, "levels": 1, "tract_id": "40143007650", "tract_name": "76.50", "tags": {"building": "retail", "building:levels": "1", "roof:levels": "0"}}}, {"type": "Feature", "geometry": {"type": "Polygon", "coordinates": [[[-95.9543087, 36.0370905], [-95.9543925, 36.0370905], [-95.9543929, 36.0371866], [-95.9543091, 36.0371868], [-95.9543087, 36.0370905]]]}, "properties": {"osm_id": 893987493, "building": "retail", "name": "", "height": null, "height_m": 3.0, "levels": 1, "tract_id": "40143007650", "tract_name": "76.50", "tags": {"building": "retail", "building:levels": "1", "roof:levels": "0"}}}, {"type": "Feature", "geometry": {"type": "Polygon", "coordinates": [[[-95.9542249, 36.0370905], [-95.9543087, 36.0370905], [-95.9543091, 36.0371868], [-95.9542253, 36.037187], [-95.9542249, 36.0370905]]]}, "properties": {"osm_id": 893987494, "building": "retail", "name": "", "height": null, "height_m": 3.0, "levels": 1, "tract_id": "40143007650", "tract_name": "76.50", "tags": {"building": "retail", "building:levels": "1", "roof:levels": "0"}}}, {"type": "Feature", "geometry": {"type": "Polygon", "coordinates": [[[-95.9541411, 36.0370905], [-95.9542249, 36.0370905], [-95.9542253, 36.037187], [-95.9541415, 36.0371872], [-95.9541411, 36.0370905]]]}, "properties": {"osm_id": 893987495, "building": "retail", "name": "", "height": null, "height_m": 3.0, "levels": 1, "tract_id": "40143007650", "tract_name": "76.50", "tags": {"building": "retail", "building:levels": "1", "roof:levels": "0"}}}, {"type": "Feature", "geometry": {"type": "Polygon", "coordinates": [[[-95.9540573, 36.0370905], [-95.9541411, 36.0370905], [-95.9541415, 36.0371872], [-95.9540576, 36.0371874], [-95.9540573, 36.0370905]]]}, "properties": {"osm_id": 893987496, "building": "retail", "name": "", "height": null, "height_m": 3.0, "levels": 1, "tract_id": "40143007650", "tract_name": "76.50", "tags": {"building": "retail", "building:levels": "1", "roof:levels": "0"}}}, {"type": "Feature", "geometry": {"type": "Polygon", "coordinates": [[[-95.9539735, 36.0370905], [-95.9540573, 36.0370905], [-95.9540576, 36.0371874], [-95.9539738, 36.0371876], [-95.9539735, 36.0370905]]]}, "properties": {"osm_id": 893987497, "building": "retail", "name": "", "height": null, "height_m": 3.0, "levels": 1, "tract_id": "40143007650", "tract_name": "76.50", "tags": {"building": "retail", "building:levels": "1", "roof:levels": "0"}}}, {"type": "Feature", "geometry": {"type": "Polygon", "coordinates": [[[-95.9538897, 36.0370905], [-95.9539735, 36.0370905], [-95.9539738, 36.0371876], [-95.95389, 36.0371878], [-95.9538897, 36.0370905]]]}, "properties": {"osm_id": 893987498, "building": "retail", "name": "", "height": null, "height_m": 3.0, "levels": 1, "tract_id": "40143007650", "tract_name": "76.50", "tags": {"building": "retail", "building:levels": "1", "roof:levels": "0"}}}, {"type": "Feature", "geometry": {"type": "Polygon", "coordinates": [[[-95.9538059, 36.0370905], [-95.9538897, 36.0370905], [-95.95389, 36.0371878], [-95.9538062, 36.037188], [-95.9538059, 36.0370905]]]}, "properties": {"osm_id": 893987499, "building": "retail", "name": "", "height": null, "height_m": 3.0, "levels": 1, "tract_id": "40143007650", "tract_name": "76.50", "tags": {"building": "retail", "building:levels": "1", "roof:levels": "0"}}}, {"type": "Feature", "geometry": {"type": "Polygon", "coordinates": [[[-95.9537221, 36.0370905], [-95.9538059, 36.0370905], [-95.9538062, 36.037188], [-95.9537224, 36.0371883], [-95.9537221, 36.0370905]]]}, "properties": {"osm_id": 893987500, "building": "retail", "name": "", "height": null, "height_m": 3.0, "levels": 1, "tract_id": "40143007650", "tract_name": "76.50", "tags": {"building": "retail", "building:levels": "1", "roof:levels": "0"}}}, {"type": "Feature", "geometry": {"type": "Polygon", "coordinates": [[[-95.9536383, 36.0370905], [-95.9537221, 36.0370905], [-95.9537224, 36.0371883], [-95.9536386, 36.0371885], [-95.9536383, 36.0370905]]]}, "properties": {"osm_id": 893987501, "building": "retail", "name": "", "height": null, "height_m": 3.0, "levels": 1, "tract_id": "40143007650", "tract_name": "76.50", "tags": {"building": "retail", "building:levels": "1", "roof:levels": "0"}}}, {"type": "Feature", "geometry": {"type": "Polygon", "coordinates": [[[-95.9535545, 36.0370905], [-95.9536383, 36.0370905], [-95.9536386, 36.0371885], [-95.9535548, 36.0371887], [-95.9535545, 36.0370905]]]}, "properties": {"osm_id": 893987502, "building": "retail", "name": "", "height": null, "height_m": 3.0, "levels": 1, "tract_id": "40143007650", "tract_name": "76.50", "tags": {"building": "retail", "building:levels": "1", "roof:levels": "0"}}}, {"type": "Feature", "geometry": {"type": "Polygon", "coordinates": [[[-95.9547278, 36.0370905], [-95.9546439, 36.0370905], [-95.9546436, 36.0369928], [-95.9547274, 36.0369926], [-95.9547278, 36.0370905]]]}, "properties": {"osm_id": 893987503, "building": "retail", "name": "Hot Wok", "height": null, "height_m": 3.0, "levels": 1, "tract_id": "40143007650", "tract_name": "76.50", "tags": {"amenity": "fast_food", "building": "retail", "building:levels": "1", "name": "Hot Wok", "roof:levels": "0"}}}, {"type": "Feature", "geometry": {"type": "Polygon", "coordinates": [[[-95.9496117, 36.0413819], [-95.949611, 36.0414762], [-95.9494692, 36.0414751], [-95.9494688, 36.0413812], [-95.9496117, 36.0413819]]]}, "properties": {"osm_id": 972104112, "building": "service", "name": "", "height": null, "height_m": null, "levels": null, "tract_id": "40143007650", "tract_name": "76.50", "tags": {"building": "service"}}}, {"type": "Feature", "geometry": {"type": "Polygon", "coordinates": [[[-95.95922, 36.0419818], [-95.959223, 36.041852], [-95.9591958, 36.0418516], [-95.9591964, 36.0418287], [-95.959155, 36.0418281], [-95.9591547, 36.0418403], [-95.9591198, 36.0418398], [-95.9591208, 36.041798], [-95.9590695, 36.0417972], [-95.9590685, 36.0418393], [-95.9590353, 36.0418388], [-95.9590356, 36.0418263], [-95.9589913, 36.0418257], [-95.958991, 36.0418419], [-95.958981, 36.0418417], [-95.9589808, 36.0418488], [-95.9589727, 36.0418487], [-95.9589736, 36.0418096], [-95.9589327, 36.041809], [-95.9589321, 36.0418374], [-95.9588946, 36.0418369], [-95.9588948, 36.0418242], [-95.9588517, 36.0418236], [-95.9588512, 36.0418464], [-95.958824, 36.041846], [-95.958821, 36.0419759], [-95.9588405, 36.0419762], [-95.9588402, 36.0419854], [-95.9588479, 36.0419855], [-95.9588476, 36.0419985], [-95.9588891, 36.0419991], [-95.9588894, 36.0419861], [-95.9589256, 36.0419867], [-95.9589254, 36.0419989], [-95.9589723, 36.0419996], [-95.9589726, 36.0419874], [-95.9589866, 36.0419876], [-95.9589863, 36.0420007], [-95.959032, 36.0420014], [-95.9590323, 36.0419883], [-95.9590684, 36.0419888], [-95.9590681, 36.0420023], [-95.9591117, 36.042003], [-95.959112, 36.0419895], [-95.959151, 36.0419901], [-95.9591507, 36.0420038], [-95.9591929, 36.0420044], [-95.9591932, 36.0419907], [-95.9592023, 36.0419908], [-95.9592025, 36.0419816], [-95.95922, 36.0419818]]]}, "properties": {"osm_id": 1005483080, "building": "yes", "name": "", "height": null, "height_m": null, "levels": null, "tract_id": "40143007650", "tract_name": "76.50", "tags": {"building": "yes"}}}, {"type": "Feature", "geometry": {"type": "Polygon", "coordinates": [[[-95.9590443, 36.0411843], [-95.9590369, 36.0411842], [-95.9590368, 36.0411986], [-95.9588841, 36.041198], [-95.9588876, 36.0406647], [-95.9590477, 36.0406654], [-95.9590443, 36.0411843]]]}, "properties": {"osm_id": 1005483081, "building": "yes", "name": "", "height": null, "height_m": null, "levels": null, "tract_id": "40143007650", "tract_name": "76.50", "tags": {"building": "yes"}}}, {"type": "Feature", "geometry": {"type": "Polygon", "coordinates": [[[-95.9590511, 36.0417682], [-95.9590059, 36.0417677], [-95.9590056, 36.0417865], [-95.9588674, 36.0417847], [-95.9588678, 36.0417659], [-95.9588222, 36.0417653], [-95.958823, 36.0417259], [-95.9588429, 36.0417262], [-95.9588441, 36.0416648], [-95.9588246, 36.0416646], [-95.9588253, 36.0416294], [-95.9588448, 36.0416296], [-95.9588459, 36.0415711], [-95.9588287, 36.0415708], [-95.9588296, 36.0415283], [-95.9588713, 36.0415288], [-95.9588718, 36.0415023], [-95.9588301, 36.0415017], [-95.9588309, 36.0414597], [-95.9588481, 36.0414599], [-95.9588511, 36.0413054], [-95.9588303, 36.0413052], [-95.9588311, 36.0412638], [-95.9588762, 36.0412643], [-95.9588765, 36.0412483], [-95.9590186, 36.0412501], [-95.9590183, 36.0412661], [-95.9590617, 36.0412667], [-95.959061, 36.0413068], [-95.9590437, 36.0413066], [-95.9590407, 36.0414633], [-95.9590569, 36.0414635], [-95.9590561, 36.0415052], [-95.9590134, 36.0415047], [-95.9590128, 36.0415345], [-95.9590558, 36.0415351], [-95.9590551, 36.0415741], [-95.9590385, 36.0415739], [-95.9590356, 36.0417278], [-95.9590519, 36.041728], [-95.9590511, 36.0417682]]]}, "properties": {"osm_id": 1005483082, "building": "yes", "name": "", "height": null, "height_m": null, "levels": null, "tract_id": "40143007650", "tract_name": "76.50", "tags": {"building": "yes"}}}, {"type": "Feature", "geometry": {"type": "Polygon", "coordinates": [[[-95.9590379, 36.0404326], [-95.9590371, 36.0404691], [-95.9590603, 36.0404694], [-95.9590578, 36.0405811], [-95.9590345, 36.0405808], [-95.9590337, 36.0406177], [-95.9589849, 36.0406169], [-95.9589853, 36.0406008], [-95.9589095, 36.0405997], [-95.9589091, 36.0406154], [-95.9588656, 36.0406148], [-95.9588659, 36.040599], [-95.9587935, 36.0405979], [-95.9587932, 36.0406118], [-95.9587405, 36.0406111], [-95.9587413, 36.0405773], [-95.9587085, 36.0405769], [-95.9587077, 36.0406106], [-95.9586558, 36.0406098], [-95.9586561, 36.0405959], [-95.958465, 36.0405931], [-95.9584646, 36.0406098], [-95.9584134, 36.0406091], [-95.9584143, 36.0405727], [-95.9583944, 36.0405724], [-95.958397, 36.0404574], [-95.9584169, 36.0404577], [-95.9584177, 36.0404226], [-95.9584673, 36.0404234], [-95.958467, 36.0404373], [-95.9586607, 36.0404402], [-95.958661, 36.040427], [-95.9587126, 36.0404278], [-95.9587119, 36.0404624], [-95.9587488, 36.0404629], [-95.9587496, 36.0404281], [-95.9587979, 36.0404288], [-95.9587976, 36.0404422], [-95.9589878, 36.040445], [-95.9589881, 36.0404318], [-95.9590379, 36.0404326]]]}, "properties": {"osm_id": 1005483083, "building": "yes", "name": "", "height": null, "height_m": null, "levels": null, "tract_id": "40143007650", "tract_name": "76.50", "tags": {"building": "yes"}}}, {"type": "Feature", "geometry": {"type": "Polygon", "coordinates": [[[-95.9581605, 36.0405081], [-95.9580741, 36.0405067], [-95.9580801, 36.0402654], [-95.9581666, 36.0402668], [-95.9581605, 36.0405081]]]}, "properties": {"osm_id": 1005483084, "building": "yes", "name": "", "height": null, "height_m": null, "levels": null, "tract_id": "40143007650", "tract_name": "76.50", "tags": {"building": "yes"}}}, {"type": "Feature", "geometry": {"type": "Polygon", "coordinates": [[[-95.9583684, 36.0402142], [-95.958072, 36.0401882], [-95.9580818, 36.0401155], [-95.9583782, 36.0401415], [-95.9583684, 36.0402142]]]}, "properties": {"osm_id": 1005483085, "building": "yes", "name": "", "height": null, "height_m": null, "levels": null, "tract_id": "40143007650", "tract_name": "76.50", "tags": {"building": "yes"}}}, {"type": "Feature", "geometry": {"type": "Polygon", "coordinates": [[[-95.9587506, 36.0402479], [-95.9584502, 36.0402229], [-95.9584594, 36.0401507], [-95.9587598, 36.0401757], [-95.9587506, 36.0402479]]]}, "properties": {"osm_id": 1005483086, "building": "yes", "name": "", "height": null, "height_m": null, "levels": null, "tract_id": "40143007650", "tract_name": "76.50", "tags": {"building": "yes"}}}, {"type": "Feature", "geometry": {"type": "Polygon", "coordinates": [[[-95.9591234, 36.0402771], [-95.9588237, 36.0402533], [-95.9588325, 36.0401814], [-95.9591322, 36.0402053], [-95.9591234, 36.0402771]]]}, "properties": {"osm_id": 1005483087, "building": "yes", "name": "", "height": null, "height_m": null, "levels": null, "tract_id": "40143007650", "tract_name": "76.50", "tags": {"building": "yes"}}}, {"type": "Feature", "geometry": {"type": "Polygon", "coordinates": [[[-95.9591959, 36.0421488], [-95.9591957, 36.0422215], [-95.9588966, 36.042221], [-95.9588968, 36.0421483], [-95.9591959, 36.0421488]]]}, "properties": {"osm_id": 1005483089, "building": "yes", "name": "", "height": null, "height_m": null, "levels": null, "tract_id": "40143007650", "tract_name": "76.50", "tags": {"building": "yes"}}}, {"type": "Feature", "geometry": {"type": "Polygon", "coordinates": [[[-95.9586447, 36.0413811], [-95.9585569, 36.0413798], [-95.9585623, 36.041138], [-95.95865, 36.0411392], [-95.9586447, 36.0413811]]]}, "properties": {"osm_id": 1005483090, "building": "yes", "name": "", "height": null, "height_m": null, "levels": null, "tract_id": "40143007650", "tract_name": "76.50", "tags": {"building": "yes"}}}, {"type": "Feature", "geometry": {"type": "Polygon", "coordinates": [[[-95.9586366, 36.0416034], [-95.9586306, 36.0418457], [-95.9585439, 36.0418443], [-95.95855, 36.041602], [-95.9586366, 36.0416034]]]}, "properties": {"osm_id": 1005483091, "building": "yes", "name": "", "height": null, "height_m": null, "levels": null, "tract_id": "40143007650", "tract_name": "76.50", "tags": {"building": "yes"}}}, {"type": "Feature", "geometry": {"type": "Polygon", "coordinates": [[[-95.9581163, 36.0413361], [-95.958147, 36.0410947], [-95.9582353, 36.0411021], [-95.9582046, 36.0413434], [-95.9581163, 36.0413361]]]}, "properties": {"osm_id": 1005483092, "building": "yes", "name": "", "height": null, "height_m": null, "levels": null, "tract_id": "40143007650", "tract_name": "76.50", "tags": {"building": "yes"}}}, {"type": "Feature", "geometry": {"type": "Polygon", "coordinates": [[[-95.9581632, 36.0416327], [-95.9581015, 36.0413952], [-95.9581882, 36.0413804], [-95.9582499, 36.0416179], [-95.9581632, 36.0416327]]]}, "properties": {"osm_id": 1005483093, "building": "yes", "name": "", "height": null, "height_m": null, "levels": null, "tract_id": "40143007650", "tract_name": "76.50", "tags": {"building": "yes"}}}, {"type": "Feature", "geometry": {"type": "Polygon", "coordinates": [[[-95.9581444, 36.0416782], [-95.9582323, 36.0416776], [-95.9582349, 36.0419199], [-95.9581471, 36.0419206], [-95.9581444, 36.0416782]]]}, "properties": {"osm_id": 1005483094, "building": "yes", "name": "", "height": null, "height_m": null, "levels": null, "tract_id": "40143007650", "tract_name": "76.50", "tags": {"building": "yes"}}}, {"type": "Feature", "geometry": {"type": "Polygon", "coordinates": [[[-95.9581833, 36.0422182], [-95.9582028, 36.0419802], [-95.9582896, 36.0419848], [-95.9582702, 36.0422229], [-95.9581833, 36.0422182]]]}, "properties": {"osm_id": 1005483095, "building": "yes", "name": "", "height": null, "height_m": null, "levels": null, "tract_id": "40143007650", "tract_name": "76.50", "tags": {"building": "yes"}}}, {"type": "Feature", "geometry": {"type": "Polygon", "coordinates": [[[-95.9501266, 36.0326007], [-95.9501266, 36.0323263], [-95.9504646, 36.0323263], [-95.9504646, 36.0321517], [-95.9508079, 36.0321517], [-95.9508079, 36.0326007], [-95.9501266, 36.0326007]]]}, "properties": {"osm_id": 1169747621, "building": "industrial", "name": "Oklahoma Playing With Purpose", "height": null, "height_m": null, "levels": null, "tract_id": "40143007650", "tract_name": "76.50", "tags": {"building": "industrial", "leisure": "sports_centre", "name": "Oklahoma Playing With Purpose", "sport": "basketball"}}}, {"type": "Feature", "geometry": {"type": "Polygon", "coordinates": [[[-95.9518343, 36.03407], [-95.9518341, 36.0339748], [-95.951834, 36.0339331], [-95.9513507, 36.033932], [-95.9513504, 36.0340714], [-95.9518343, 36.03407]]]}, "properties": {"osm_id": 1255824865, "building": "roof", "name": "", "height": null, "height_m": null, "levels": null, "tract_id": "40143007650", "tract_name": "76.50", "tags": {"building": "roof", "layer": "1"}}}, {"type": "Feature", "geometry": {"type": "Polygon", "coordinates": [[[-95.9513504, 36.0340714], [-95.9513507, 36.033932], [-95.9513511, 36.0336864], [-95.9512125, 36.0336863], [-95.9512119, 36.0340713], [-95.9513504, 36.0340714]]]}, "properties": {"osm_id": 1255824866, "building": "roof", "name": "", "height": null, "height_m": null, "levels": null, "tract_id": "40143007650", "tract_name": "76.50", "tags": {"building": "roof", "layer": "1"}}}, {"type": "Feature", "geometry": {"type": "Polygon", "coordinates": [[[-95.9603615, 36.0458692], [-95.9598046, 36.0458676], [-95.9598037, 36.0460672], [-95.9603606, 36.0460689], [-95.9603615, 36.0458692]]]}, "properties": {"osm_id": 1291578658, "building": "retail", "name": "", "height": null, "height_m": 3.0, "levels": 1, "tract_id": "40143007650", "tract_name": "76.50", "tags": {"addr:city": "Tulsa", "addr:country": "US", "addr:housenumber": "2036", "addr:postcode": "74137", "addr:state": "OK", "addr:street": "East 81st Street South", "building": "retail", "building:colour": "brown", "building:levels": "1", "roof:levels": "0", "roof:shape": "flat"}}}, {"type": "Feature", "geometry": {"type": "Polygon", "coordinates": [[[-95.9597581, 36.0403317], [-95.9595072, 36.0403383], [-95.9595101, 36.0404109], [-95.9595467, 36.04041], [-95.959548, 36.0404446], [-95.9595142, 36.0404455], [-95.9595195, 36.0405777], [-95.959548, 36.0405769], [-95.9595495, 36.0406138], [-95.9595183, 36.0406146], [-95.9595209, 36.0406796], [-95.9597664, 36.0406731], [-95.9597635, 36.0405995], [-95.9597296, 36.0406004], [-95.9597283, 36.0405679], [-95.9597622, 36.040567], [-95.9597568, 36.0404326], [-95.9597283, 36.0404334], [-95.9597269, 36.0403998], [-95.9597608, 36.0403989], [-95.9597581, 36.0403317]]]}, "properties": {"osm_id": 1341429187, "building": "yes", "name": "", "height": null, "height_m": null, "levels": null, "tract_id": "40143007650", "tract_name": "76.50", "tags": {"building": "yes", "source": "microsoft/BuildingFootprints"}}}, {"type": "Feature", "geometry": {"type": "Polygon", "coordinates": [[[-95.959524, 36.0410507], [-95.9596098, 36.0410503], [-95.9596096, 36.0410242], [-95.9596509, 36.041024], [-95.9596511, 36.0410544], [-95.9598174, 36.0410534], [-95.9598173, 36.0410339], [-95.9598575, 36.0410337], [-95.9598577, 36.0410597], [-95.9599435, 36.0410592], [-95.9599418, 36.0408597], [-95.9598587, 36.0408602], [-95.9598589, 36.0408862], [-95.959816, 36.0408865], [-95.9598157, 36.040855], [-95.9596494, 36.0408559], [-95.9596496, 36.0408744], [-95.9596067, 36.0408746], [-95.9596065, 36.0408508], [-95.9595223, 36.0408512], [-95.959524, 36.0410507]]]}, "properties": {"osm_id": 1341429188, "building": "yes", "name": "", "height": null, "height_m": null, "levels": null, "tract_id": "40143007650", "tract_name": "76.50", "tags": {"building": "yes", "source": "microsoft/BuildingFootprints"}}}, {"type": "Feature", "geometry": {"type": "Polygon", "coordinates": [[[-95.9601136, 36.0406613], [-95.9599079, 36.0407648], [-95.960131, 36.0410549], [-95.9603349, 36.0409524], [-95.9601706, 36.0407389], [-95.9601726, 36.040738], [-95.9601136, 36.0406613]]]}, "properties": {"osm_id": 1341429189, "building": "yes", "name": "", "height": null, "height_m": null, "levels": null, "tract_id": "40143007650", "tract_name": "76.50", "tags": {"building": "yes", "source": "microsoft/BuildingFootprints"}}}, {"type": "Feature", "geometry": {"type": "Polygon", "coordinates": [[[-95.960348, 36.0411467], [-95.9603486, 36.0413104], [-95.96031, 36.0413105], [-95.9603102, 36.0413626], [-95.9603515, 36.0413625], [-95.9603517, 36.0413983], [-95.9604241, 36.0413981], [-95.960424, 36.0413677], [-95.9605114, 36.0413675], [-95.9605112, 36.0413111], [-95.9605139, 36.0413111], [-95.9605134, 36.0411799], [-95.9604903, 36.0411799], [-95.9604901, 36.0411463], [-95.960348, 36.0411467]]]}, "properties": {"osm_id": 1341429190, "building": "yes", "name": "", "height": null, "height_m": null, "levels": null, "tract_id": "40143007650", "tract_name": "76.50", "tags": {"building": "yes", "source": "microsoft/BuildingFootprints"}}}, {"type": "Feature", "geometry": {"type": "Polygon", "coordinates": [[[-95.9606321, 36.041912], [-95.9608761, 36.0419083], [-95.9608745, 36.0418389], [-95.9608423, 36.0418394], [-95.9608415, 36.0418069], [-95.9608683, 36.0418065], [-95.9608651, 36.0416699], [-95.9608276, 36.0416704], [-95.9608268, 36.0416379], [-95.960859, 36.0416374], [-95.9608573, 36.0415659], [-95.960624, 36.0415695], [-95.9606321, 36.041912]]]}, "properties": {"osm_id": 1341429191, "building": "yes", "name": "", "height": null, "height_m": null, "levels": null, "tract_id": "40143007650", "tract_name": "76.50", "tags": {"building": "yes", "source": "microsoft/BuildingFootprints"}}}, {"type": "Feature", "geometry": {"type": "Polygon", "coordinates": [[[-95.96112, 36.0420695], [-95.9607228, 36.0419547], [-95.9606437, 36.0421336], [-95.9609159, 36.0422122], [-95.9609218, 36.0421988], [-95.960966, 36.0422115], [-95.960952, 36.0422433], [-95.9610328, 36.0422667], [-95.96112, 36.0420695]]]}, "properties": {"osm_id": 1341429192, "building": "yes", "name": "", "height": null, "height_m": null, "levels": null, "tract_id": "40143007650", "tract_name": "76.50", "tags": {"building": "yes", "source": "microsoft/BuildingFootprints"}}}, {"type": "Feature", "geometry": {"type": "Polygon", "coordinates": [[[-95.9601978, 36.0429788], [-95.9601994, 36.0429192], [-95.9602316, 36.0429197], [-95.9602346, 36.0428081], [-95.9601958, 36.0428074], [-95.9601989, 36.0426925], [-95.9602231, 36.0426929], [-95.960232, 36.0423613], [-95.9601876, 36.0423605], [-95.9601885, 36.0423247], [-95.9601177, 36.0423235], [-95.9601183, 36.0422986], [-95.9600486, 36.0422973], [-95.9600469, 36.0423613], [-95.960004, 36.0423605], [-95.9600013, 36.0424624], [-95.960048, 36.0424632], [-95.9600471, 36.0424968], [-95.9601168, 36.0424981], [-95.960116, 36.0425295], [-95.9600505, 36.0425283], [-95.9600489, 36.042588], [-95.9600113, 36.0425873], [-95.9600086, 36.042687], [-95.9600515, 36.0426878], [-95.9600482, 36.0428135], [-95.9600053, 36.0428127], [-95.9600025, 36.0429146], [-95.9600466, 36.0429154], [-95.960045, 36.0429761], [-95.9601978, 36.0429788]]]}, "properties": {"osm_id": 1341429193, "building": "yes", "name": "", "height": null, "height_m": null, "levels": null, "tract_id": "40143007650", "tract_name": "76.50", "tags": {"building": "yes", "source": "microsoft/BuildingFootprints"}}}, {"type": "Feature", "geometry": {"type": "Polygon", "coordinates": [[[-95.9605161, 36.0432079], [-95.9607092, 36.0432094], [-95.9607099, 36.0431508], [-95.9607313, 36.043151], [-95.9607333, 36.0429818], [-95.9606287, 36.042981], [-95.9606291, 36.042955], [-95.9606976, 36.0429555], [-95.960698, 36.0429208], [-95.9607287, 36.0429211], [-95.96073, 36.0428138], [-95.9606859, 36.0428134], [-95.9606865, 36.0427668], [-95.9607279, 36.0427671], [-95.9607292, 36.0426543], [-95.9606863, 36.042654], [-95.9606868, 36.0426106], [-95.9607244, 36.0426109], [-95.9607257, 36.0424981], [-95.960687, 36.0424978], [-95.9606872, 36.0424794], [-95.9605236, 36.0424782], [-95.9605218, 36.0426288], [-95.960523, 36.0426289], [-95.9605213, 36.0427666], [-95.9605684, 36.042767], [-95.9605675, 36.042845], [-95.960546, 36.0428449], [-95.9605435, 36.043053], [-95.9605179, 36.0430528], [-95.9605161, 36.0432079]]]}, "properties": {"osm_id": 1341429194, "building": "yes", "name": "", "height": null, "height_m": null, "levels": null, "tract_id": "40143007650", "tract_name": "76.50", "tags": {"building": "yes", "source": "microsoft/BuildingFootprints"}}}, {"type": "Feature", "geometry": {"type": "Polygon", "coordinates": [[[-95.9602344, 36.0430385], [-95.96019, 36.0430376], [-95.9601918, 36.0429834], [-95.9601182, 36.0429818], [-95.9601175, 36.0430035], [-95.9600558, 36.0430022], [-95.9600543, 36.0430499], [-95.9600073, 36.0430489], [-95.9600041, 36.0431464], [-95.9600458, 36.0431473], [-95.9600441, 36.0432015], [-95.9601861, 36.0432045], [-95.960188, 36.0431449], [-95.9602309, 36.0431458], [-95.9602344, 36.0430385]]]}, "properties": {"osm_id": 1341429195, "building": "yes", "name": "", "height": null, "height_m": null, "levels": null, "tract_id": "40143007650", "tract_name": "76.50", "tags": {"building": "yes", "source": "microsoft/BuildingFootprints"}}}, {"type": "Feature", "geometry": {"type": "Polygon", "coordinates": [[[-95.9595087, 36.0425293], [-95.959473, 36.0425919], [-95.9595005, 36.0426022], [-95.9594296, 36.0427264], [-95.959548, 36.0427706], [-95.9596174, 36.042649], [-95.9595931, 36.04264], [-95.9596303, 36.0425747], [-95.9595087, 36.0425293]]]}, "properties": {"osm_id": 1341429196, "building": "yes", "name": "", "height": null, "height_m": null, "levels": null, "tract_id": "40143007650", "tract_name": "76.50", "tags": {"building": "yes", "source": "microsoft/BuildingFootprints"}}}, {"type": "Feature", "geometry": {"type": "Polygon", "coordinates": [[[-95.9608626, 36.0428941], [-95.9608658, 36.0430393], [-95.9609972, 36.0430375], [-95.9609968, 36.0430223], [-95.9610505, 36.0430215], [-95.961051, 36.0430475], [-95.9611717, 36.0430458], [-95.9611712, 36.043022], [-95.9612168, 36.0430213], [-95.9612143, 36.0429086], [-95.9611714, 36.0429092], [-95.9611709, 36.0428843], [-95.9610475, 36.0428861], [-95.9610481, 36.0429109], [-95.9609944, 36.0429117], [-95.960994, 36.0428922], [-95.9608626, 36.0428941]]]}, "properties": {"osm_id": 1341429197, "building": "yes", "name": "", "height": null, "height_m": null, "levels": null, "tract_id": "40143007650", "tract_name": "76.50", "tags": {"building": "yes", "source": "microsoft/BuildingFootprints"}}}, {"type": "Feature", "geometry": {"type": "Polygon", "coordinates": [[[-95.961699, 36.0430414], [-95.9616964, 36.042972], [-95.9616696, 36.0429727], [-95.9616675, 36.0429163], [-95.9616234, 36.0429174], [-95.961622, 36.0428806], [-95.9614919, 36.0428838], [-95.9614931, 36.0429163], [-95.9614142, 36.0429182], [-95.9614128, 36.0428814], [-95.9612854, 36.0428845], [-95.961287, 36.0429278], [-95.96122, 36.0429294], [-95.9612218, 36.0429771], [-95.9612379, 36.0429767], [-95.96124, 36.0430331], [-95.9613231, 36.043031], [-95.9613245, 36.043069], [-95.9614183, 36.0430667], [-95.9614171, 36.0430342], [-95.9614974, 36.0430323], [-95.9614988, 36.0430679], [-95.9616235, 36.0430649], [-95.9616227, 36.0430432], [-95.961699, 36.0430414]]]}, "properties": {"osm_id": 1341429198, "building": "yes", "name": "", "height": null, "height_m": null, "levels": null, "tract_id": "40143007650", "tract_name": "76.50", "tags": {"building": "yes", "source": "microsoft/BuildingFootprints"}}}, {"type": "Feature", "geometry": {"type": "Polygon", "coordinates": [[[-95.9613189, 36.0431461], [-95.961315, 36.0432664], [-95.9614866, 36.0432701], [-95.9614905, 36.0431497], [-95.9613189, 36.0431461]]]}, "properties": {"osm_id": 1341429199, "building": "yes", "name": "", "height": null, "height_m": null, "levels": null, "tract_id": "40143007650", "tract_name": "76.50", "tags": {"building": "yes", "source": "microsoft/BuildingFootprints"}}}, {"type": "Feature", "geometry": {"type": "Polygon", "coordinates": [[[-95.9613365, 36.043276], [-95.9613362, 36.043403], [-95.9613308, 36.0434029], [-95.9613305, 36.0435049], [-95.9615103, 36.0435052], [-95.9615104, 36.0434466], [-95.9615065, 36.0434466], [-95.9615068, 36.0433392], [-95.961547, 36.0433393], [-95.9615471, 36.0433154], [-95.9615122, 36.0433153], [-95.9615123, 36.0432763], [-95.9613365, 36.043276]]]}, "properties": {"osm_id": 1341429200, "building": "yes", "name": "", "height": null, "height_m": null, "levels": null, "tract_id": "40143007650", "tract_name": "76.50", "tags": {"building": "yes", "source": "microsoft/BuildingFootprints"}}}, {"type": "Feature", "geometry": {"type": "Polygon", "coordinates": [[[-95.961238, 36.0433218], [-95.961033, 36.0433204], [-95.9610326, 36.0433562], [-95.9609173, 36.0433555], [-95.960918, 36.0432893], [-95.9607771, 36.0432883], [-95.9607765, 36.0433458], [-95.9606948, 36.0433453], [-95.960695, 36.0433214], [-95.960636, 36.043321], [-95.9606364, 36.0432863], [-95.9605223, 36.0432855], [-95.9605199, 36.0435165], [-95.9606352, 36.0435172], [-95.9606356, 36.0434793], [-95.9606961, 36.0434797], [-95.9606963, 36.0434537], [-95.9607768, 36.0434543], [-95.9607762, 36.0435128], [-95.9609183, 36.0435138], [-95.960919, 36.0434509], [-95.9609619, 36.0434512], [-95.9609622, 36.0434187], [-95.9609917, 36.0434189], [-95.9609912, 36.0434731], [-95.9610341, 36.0434734], [-95.9610337, 36.0435081], [-95.9612361, 36.0435094], [-95.961238, 36.0433218]]]}, "properties": {"osm_id": 1341429201, "building": "yes", "name": "", "height": null, "height_m": null, "levels": null, "tract_id": "40143007650", "tract_name": "76.50", "tags": {"building": "yes", "source": "microsoft/BuildingFootprints"}}}, {"type": "Feature", "geometry": {"type": "Polygon", "coordinates": [[[-95.9595848, 36.0440864], [-95.959751, 36.0440845], [-95.9597496, 36.0440064], [-95.9595834, 36.0440083], [-95.9595848, 36.0440864]]]}, "properties": {"osm_id": 1341429202, "building": "yes", "name": "", "height": null, "height_m": null, "levels": null, "tract_id": "40143007650", "tract_name": "76.50", "tags": {"building": "yes", "source": "microsoft/BuildingFootprints"}}}, {"type": "Feature", "geometry": {"type": "Polygon", "coordinates": [[[-95.9595839, 36.0442217], [-95.959887, 36.044221], [-95.9598868, 36.0441657], [-95.9598519, 36.0441658], [-95.9598518, 36.0441387], [-95.9595836, 36.0441393], [-95.9595839, 36.0442217]]]}, "properties": {"osm_id": 1341429203, "building": "yes", "name": "", "height": null, "height_m": null, "levels": null, "tract_id": "40143007650", "tract_name": "76.50", "tags": {"building": "yes", "source": "microsoft/BuildingFootprints"}}}, {"type": "Feature", "geometry": {"type": "Polygon", "coordinates": [[[-95.9595838, 36.0443619], [-95.960088, 36.0443571], [-95.9600876, 36.0443289], [-95.9600393, 36.0443294], [-95.9600385, 36.044273], [-95.9595826, 36.0442774], [-95.9595838, 36.0443619]]]}, "properties": {"osm_id": 1341429204, "building": "yes", "name": "", "height": null, "height_m": null, "levels": null, "tract_id": "40143007650", "tract_name": "76.50", "tags": {"building": "yes", "source": "microsoft/BuildingFootprints"}}}, {"type": "Feature", "geometry": {"type": "Polygon", "coordinates": [[[-95.9595845, 36.044498], [-95.9601236, 36.0444958], [-95.960123, 36.0444112], [-95.9595839, 36.0444135], [-95.9595845, 36.044498]]]}, "properties": {"osm_id": 1341429205, "building": "yes", "name": "", "height": null, "height_m": null, "levels": null, "tract_id": "40143007650", "tract_name": "76.50", "tags": {"building": "yes", "source": "microsoft/BuildingFootprints"}}}, {"type": "Feature", "geometry": {"type": "Polygon", "coordinates": [[[-95.9595853, 36.0446347], [-95.9601244, 36.0446324], [-95.9601239, 36.0445489], [-95.9595848, 36.0445511], [-95.9595853, 36.0446347]]]}, "properties": {"osm_id": 1341429206, "building": "yes", "name": "", "height": null, "height_m": null, "levels": null, "tract_id": "40143007650", "tract_name": "76.50", "tags": {"building": "yes", "source": "microsoft/BuildingFootprints"}}}, {"type": "Feature", "geometry": {"type": "Polygon", "coordinates": [[[-95.960126, 36.0447689], [-95.9601249, 36.0446854], [-95.9595832, 36.0446899], [-95.9595843, 36.0447734], [-95.960126, 36.0447689]]]}, "properties": {"osm_id": 1341429207, "building": "yes", "name": "", "height": null, "height_m": null, "levels": null, "tract_id": "40143007650", "tract_name": "76.50", "tags": {"building": "yes", "source": "microsoft/BuildingFootprints"}}}, {"type": "Feature", "geometry": {"type": "Polygon", "coordinates": [[[-95.9595838, 36.0448245], [-95.959583, 36.0449091], [-95.9596178, 36.0449093], [-95.9596173, 36.0449657], [-95.9597219, 36.0449664], [-95.9597224, 36.04491], [-95.9597868, 36.0449104], [-95.9597862, 36.0449647], [-95.9598908, 36.0449653], [-95.9598914, 36.0449089], [-95.960055, 36.04491], [-95.9600556, 36.0448536], [-95.9600904, 36.0448539], [-95.9600907, 36.0448278], [-95.9595838, 36.0448245]]]}, "properties": {"osm_id": 1341429208, "building": "yes", "name": "", "height": null, "height_m": null, "levels": null, "tract_id": "40143007650", "tract_name": "76.50", "tags": {"building": "yes", "source": "microsoft/BuildingFootprints"}}}, {"type": "Feature", "geometry": {"type": "Polygon", "coordinates": [[[-95.959895, 36.0452267], [-95.9600667, 36.0452278], [-95.9600687, 36.0450185], [-95.9598971, 36.0450174], [-95.959895, 36.0452267]]]}, "properties": {"osm_id": 1341429209, "building": "yes", "name": "", "height": null, "height_m": null, "levels": null, "tract_id": "40143007650", "tract_name": "76.50", "tags": {"building": "yes", "source": "microsoft/BuildingFootprints"}}}, {"type": "Feature", "geometry": {"type": "Polygon", "coordinates": [[[-95.959602, 36.0450439], [-95.9595336, 36.0450437], [-95.9595318, 36.04537], [-95.9596001, 36.0453703], [-95.959602, 36.0450439]]]}, "properties": {"osm_id": 1341429210, "building": "yes", "name": "", "height": null, "height_m": null, "levels": null, "tract_id": "40143007650", "tract_name": "76.50", "tags": {"building": "yes", "source": "microsoft/BuildingFootprints"}}}, {"type": "Feature", "geometry": {"type": "Polygon", "coordinates": [[[-95.9553296, 36.0397314], [-95.9553294, 36.0396741], [-95.9550546, 36.0396746], [-95.9550547, 36.0397318], [-95.9553296, 36.0397314]]]}, "properties": {"osm_id": 1413359559, "building": "roof", "name": "", "height": null, "height_m": null, "levels": null, "tract_id": "40143007650", "tract_name": "76.50", "tags": {"building": "roof", "layer": "1"}}}, {"type": "Feature", "geometry": {"type": "Polygon", "coordinates": [[[-95.954216, 36.0397277], [-95.9542156, 36.0396738], [-95.9539457, 36.0396752], [-95.9539462, 36.0397292], [-95.954216, 36.0397277]]]}, "properties": {"osm_id": 1413359560, "building": "roof", "name": "", "height": null, "height_m": null, "levels": null, "tract_id": "40143007650", "tract_name": "76.50", "tags": {"building": "roof", "layer": "1"}}}, {"type": "Feature", "geometry": {"type": "Polygon", "coordinates": [[[-95.9540778, 36.0396189], [-95.9540781, 36.0395649], [-95.9539403, 36.0395645], [-95.95394, 36.0396184], [-95.9540778, 36.0396189]]]}, "properties": {"osm_id": 1413359561, "building": "roof", "name": "", "height": null, "height_m": null, "levels": null, "tract_id": "40143007650", "tract_name": "76.50", "tags": {"building": "roof", "layer": "1"}}}, {"type": "Feature", "geometry": {"type": "Polygon", "coordinates": [[[-95.952652, 36.0405368], [-95.9526518, 36.040481], [-95.9521441, 36.040482], [-95.9521443, 36.0405377], [-95.952652, 36.0405368]]]}, "properties": {"osm_id": 1413359562, "building": "roof", "name": "", "height": null, "height_m": null, "levels": null, "tract_id": "40143007650", "tract_name": "76.50", "tags": {"building": "roof", "layer": "1"}}}]}