{"type": "FeatureCollection", "features": [{"type": "Feature", "geometry": {"type": "Polygon", "coordinates": [[[-95.7901006, 36.0353747], [-95.7895472, 36.0353778], [-95.7895482, 36.0352255], [-95.7895175, 36.0352254], [-95.789518, 36.0351508], [-95.789523, 36.0349762], [-95.7899884, 36.0349734], [-95.789988, 36.0349991], [-95.7900081, 36.0349993], [-95.7900075, 36.0350428], [-95.7900416, 36.0350431], [-95.7900404, 36.0351221], [-95.7900846, 36.0351225], [-95.7900836, 36.0351883], [-95.7901035, 36.0351885], [-95.7901006, 36.0353747]]]}, "properties": {"osm_id": 111244378, "building": "yes", "name": "Broken Arrow Main", "height": null, "height_m": null, "levels": null, "tract_id": "40143007503", "tract_name": "75.03", "tags": {"addr:city": "Broken Arrow", "addr:housenumber": "1701", "addr:postcode": "74012", "addr:state": "OK", "addr:street": "South Main Street", "amenity": "post_office", "brand": "United States Postal Service", "brand:wikidata": "Q668687", "building": "yes", "name": "Broken Arrow Main", "operator": "United States Postal Service", "operator:short": "USPS", "operator:type": "public", "operator:website": "https://www.usps.com", "operator:wikidata": "Q668687", "operator:wikipedia": "en:United States Postal Service", "short_name": "USPS"}}}, {"type": "Feature", "geometry": {"type": "Polygon", "coordinates": [[[-95.7906079, 36.0461749], [-95.7905553, 36.0461971], [-95.790488, 36.0462245], [-95.7904325, 36.0462462], [-95.7904198, 36.0462251], [-95.7903554, 36.0462359], [-95.7901972, 36.0462424], [-95.7901321, 36.0462327], [-95.7901374, 36.0462095], [-95.7900389, 36.0461947], [-95.7898699, 36.0461383], [-95.7899102, 36.0460906], [-95.7898941, 36.0460776], [-95.7898949, 36.0460401], [-95.7897732, 36.0460385], [-95.7897741, 36.0459945], [-95.7897479, 36.0459941], [-95.7897492, 36.0459323], [-95.789717, 36.045928], [-95.7897168, 36.0458848], [-95.7896898, 36.0458849], [-95.7896895, 36.0458331], [-95.7896653, 36.0458332], [-95.789665, 36.0457774], [-95.7896916, 36.0457773], [-95.789691, 36.0456771], [-95.7900194, 36.0456758], [-95.7900189, 36.04558], [-95.7905737, 36.0455778], [-95.7905753, 36.0458433], [-95.7904472, 36.0458438], [-95.7904482, 36.0460003], [-95.7906044, 36.0459997], [-95.7906049, 36.0460733], [-95.7905556, 36.0460941], [-95.7906079, 36.0461749]]]}, "properties": {"osm_id": 255041767, "building": "yes", "name": "Broken Arrow Performing Arts Center", "height": null, "height_m": null, "levels": null, "tract_id": "40143007503", "tract_name": "75.03", "tags": {"addr:city": "Broken Arrow", "addr:housenumber": "701", "addr:street": "South Main Street", "amenity": "theatre", "building": "yes", "name": "Broken Arrow Performing Arts Center", "operator": "Broken Arrow Public Schools"}}}, {"type": "Feature", "geometry": {"type": "Polygon", "coordinates": [[[-95.7950099, 36.0345086], [-95.7949808, 36.0345318], [-95.7949414, 36.034523], [-95.7949312, 36.034491], [-95.7949603, 36.0344678], [-95.7949997, 36.0344766], [-95.7950099, 36.0345086]]]}, "properties": {"osm_id": 504127356, "building": "roof", "name": "", "height": null, "height_m": null, "levels": null, "tract_id": "40143007503", "tract_name": "75.03", "tags": {"amenity": "shelter", "building": "roof", "shelter_type": "gazebo"}}}, {"type": "Feature", "geometry": {"type": "Polygon", "coordinates": [[[-95.7902101, 36.0482014], [-95.7901395, 36.0482768], [-95.7899936, 36.0481874], [-95.7900642, 36.0481121], [-95.7902101, 36.0482014]]]}, "properties": {"osm_id": 546926049, "building": "yes", "name": "", "height": null, "height_m": null, "levels": null, "tract_id": "40143007503", "tract_name": "75.03", "tags": {"building": "yes"}}}, {"type": "Feature", "geometry": {"type": "Polygon", "coordinates": [[[-95.7898992, 36.0480154], [-95.7897952, 36.0481245], [-95.7896251, 36.0480184], [-95.7896863, 36.0479542], [-95.7896322, 36.0479204], [-95.7896749, 36.0478756], [-95.7898992, 36.0480154]]]}, "properties": {"osm_id": 546926050, "building": "yes", "name": "", "height": null, "height_m": null, "levels": null, "tract_id": "40143007503", "tract_name": "75.03", "tags": {"building": "yes"}}}, {"type": "Feature", "geometry": {"type": "Polygon", "coordinates": [[[-95.7928877, 36.0393393], [-95.7928831, 36.0392735], [-95.7928791, 36.0392737], [-95.7927631, 36.039279], [-95.7927676, 36.0393447], [-95.7928572, 36.0393407], [-95.7928877, 36.0393393]]]}, "properties": {"osm_id": 727849624, "building": "roof", "name": "", "height": null, "height_m": null, "levels": null, "tract_id": "40143007503", "tract_name": "75.03", "tags": {"amenity": "shelter", "building": "roof", "shelter_type": "picnic_shelter"}}}, {"type": "Feature", "geometry": {"type": "Polygon", "coordinates": [[[-95.7935603, 36.0398153], [-95.7935583, 36.0397586], [-95.7934545, 36.039761], [-95.7934565, 36.0398177], [-95.7935603, 36.0398153]]]}, "properties": {"osm_id": 727849625, "building": "yes", "name": "", "height": null, "height_m": null, "levels": null, "tract_id": "40143007503", "tract_name": "75.03", "tags": {"amenity": "toilets", "building": "yes"}}}, {"type": "Feature", "geometry": {"type": "Polygon", "coordinates": [[[-95.7929931, 36.0406369], [-95.7929495, 36.0405915], [-95.7928543, 36.0406512], [-95.792898, 36.0406967], [-95.7929931, 36.0406369]]]}, "properties": {"osm_id": 727849626, "building": "roof", "name": "", "height": null, "height_m": null, "levels": null, "tract_id": "40143007503", "tract_name": "75.03", "tags": {"amenity": "shelter", "building": "roof", "shelter_type": "picnic_shelter"}}}, {"type": "Feature", "geometry": {"type": "Polygon", "coordinates": [[[-95.7915972, 36.0412378], [-95.7915466, 36.0411943], [-95.7914721, 36.0412509], [-95.7915228, 36.0412944], [-95.7915972, 36.0412378]]]}, "properties": {"osm_id": 727849628, "building": "roof", "name": "", "height": null, "height_m": null, "levels": null, "tract_id": "40143007503", "tract_name": "75.03", "tags": {"amenity": "shelter", "building": "roof", "shelter_type": "picnic_shelter"}}}, {"type": "Feature", "geometry": {"type": "Polygon", "coordinates": [[[-95.7915912, 36.0413884], [-95.7915205, 36.0413244], [-95.7914708, 36.0413602], [-95.7915415, 36.0414243], [-95.7915912, 36.0413884]]]}, "properties": {"osm_id": 727849629, "building": "roof", "name": "", "height": null, "height_m": null, "levels": null, "tract_id": "40143007503", "tract_name": "75.03", "tags": {"amenity": "shelter", "building": "roof", "shelter_type": "picnic_shelter"}}}, {"type": "Feature", "geometry": {"type": "Polygon", "coordinates": [[[-95.7914276, 36.0413651], [-95.7913813, 36.0413261], [-95.7913061, 36.0413845], [-95.7913524, 36.0414234], [-95.7914276, 36.0413651]]]}, "properties": {"osm_id": 727849630, "building": "roof", "name": "", "height": null, "height_m": null, "levels": null, "tract_id": "40143007503", "tract_name": "75.03", "tags": {"amenity": "shelter", "building": "roof", "shelter_type": "picnic_shelter"}}}, {"type": "Feature", "geometry": {"type": "Polygon", "coordinates": [[[-95.7914323, 36.0412509], [-95.7913576, 36.0411874], [-95.7913054, 36.0412277], [-95.7913801, 36.0412911], [-95.7914323, 36.0412509]]]}, "properties": {"osm_id": 727849631, "building": "roof", "name": "", "height": null, "height_m": null, "levels": null, "tract_id": "40143007503", "tract_name": "75.03", "tags": {"amenity": "shelter", "building": "roof", "shelter_type": "picnic_shelter"}}}, {"type": "Feature", "geometry": {"type": "Polygon", "coordinates": [[[-95.7916259, 36.0401022], [-95.7917469, 36.040104], [-95.7917492, 36.0400001], [-95.7917625, 36.0400003], [-95.7917665, 36.0398153], [-95.791787, 36.0398156], [-95.7917874, 36.0397963], [-95.7918096, 36.0397966], [-95.7918174, 36.0394361], [-95.7912445, 36.039428], [-95.7912371, 36.0397716], [-95.791283, 36.0397722], [-95.7912824, 36.0397977], [-95.7912668, 36.0397975], [-95.791263, 36.0399714], [-95.7912828, 36.0399717], [-95.7912807, 36.0400653], [-95.7916266, 36.0400703], [-95.7916259, 36.0401022]]]}, "properties": {"osm_id": 727882480, "building": "yes", "name": "Central Park Community Center", "height": null, "height_m": null, "levels": null, "tract_id": "40143007503", "tract_name": "75.03", "tags": {"amenity": "community_centre", "building": "yes", "name": "Central Park Community Center", "operator": "City of Broken Arrow", "start_date": "1974"}}}, {"type": "Feature", "geometry": {"type": "Polygon", "coordinates": [[[-95.791725, 36.0417391], [-95.7916624, 36.0417392], [-95.7916077, 36.0417393], [-95.791608, 36.0418915], [-95.7915824, 36.0418915], [-95.7915826, 36.0419846], [-95.7916083, 36.0419845], [-95.7916084, 36.0420373], [-95.791613, 36.0420373], [-95.7917273, 36.0420372], [-95.7917272, 36.0419825], [-95.7917549, 36.0419825], [-95.7917547, 36.0418904], [-95.7917253, 36.0418904], [-95.791725, 36.0417391]]]}, "properties": {"osm_id": 727882483, "building": "yes", "name": "Family Aquatic Center", "height": null, "height_m": null, "levels": null, "tract_id": "40143007503", "tract_name": "75.03", "tags": {"building": "yes", "name": "Family Aquatic Center"}}}, {"type": "Feature", "geometry": {"type": "Polygon", "coordinates": [[[-95.7921314, 36.0413901], [-95.7921312, 36.0413431], [-95.7920696, 36.0413432], [-95.7920698, 36.0413902], [-95.7921314, 36.0413901]]]}, "properties": {"osm_id": 727882491, "building": "service", "name": "", "height": null, "height_m": null, "levels": null, "tract_id": "40143007503", "tract_name": "75.03", "tags": {"building": "service"}}}, {"type": "Feature", "geometry": {"type": "Polygon", "coordinates": [[[-95.7811087, 36.0379178], [-95.7809734, 36.0379169], [-95.7809742, 36.0375999], [-95.7811094, 36.0375984], [-95.7811087, 36.0379178]]]}, "properties": {"osm_id": 942098348, "building": "apartments", "name": "", "height": null, "height_m": null, "levels": null, "tract_id": "40143007503", "tract_name": "75.03", "tags": {"building": "apartments"}}}, {"type": "Feature", "geometry": {"type": "Polygon", "coordinates": [[[-95.7804189, 36.0378013], [-95.7802186, 36.0377958], [-95.7802216, 36.0377085], [-95.7802695, 36.0377085], [-95.7802705, 36.03768], [-95.7803792, 36.037683], [-95.7803792, 36.0377109], [-95.7804194, 36.0377109], [-95.7804189, 36.0378013]]]}, "properties": {"osm_id": 942098349, "building": "yes", "name": "", "height": null, "height_m": null, "levels": null, "tract_id": "40143007503", "tract_name": "75.03", "tags": {"building": "yes"}}}, {"type": "Feature", "geometry": {"type": "Polygon", "coordinates": [[[-95.7811392, 36.0385022], [-95.7809858, 36.0385047], [-95.7809787, 36.0381889], [-95.7811333, 36.0381861], [-95.7811392, 36.0385022]]]}, "properties": {"osm_id": 942098350, "building": "apartments", "name": "", "height": null, "height_m": null, "levels": null, "tract_id": "40143007503", "tract_name": "75.03", "tags": {"building": "apartments"}}}, {"type": "Feature", "geometry": {"type": "Polygon", "coordinates": [[[-95.7895472, 36.0353778], [-95.7894346, 36.0353774], [-95.7894357, 36.0351927], [-95.7894359, 36.0351505], [-95.789518, 36.0351508], [-95.7895175, 36.0352254], [-95.7895482, 36.0352255], [-95.7895472, 36.0353778]]]}, "properties": {"osm_id": 1000960241, "building": "roof", "name": "", "height": null, "height_m": null, "levels": null, "tract_id": "40143007503", "tract_name": "75.03", "tags": {"building": "roof"}}}, {"type": "Feature", "geometry": {"type": "Polygon", "coordinates": [[[-95.7900323, 36.0381629], [-95.7898878, 36.0381617], [-95.7898867, 36.0376248], [-95.7902851, 36.0376243], [-95.7902862, 36.0381638], [-95.7902724, 36.0381637], [-95.7900323, 36.0381629]]]}, "properties": {"osm_id": 1000960432, "building": "retail", "name": "", "height": null, "height_m": null, "levels": null, "tract_id": "40143007503", "tract_name": "75.03", "tags": {"addr:city": "Broken Arrow", "addr:postcode": "74012", "building": "retail", "description": "It looks very much like it was originally built as a grocery store."}}}, {"type": "Feature", "geometry": {"type": "Polygon", "coordinates": [[[-95.7911649, 36.0322498], [-95.7911422, 36.0322284], [-95.7911878, 36.0321969], [-95.7912105, 36.0322184], [-95.7911649, 36.0322498]]]}, "properties": {"osm_id": 1135343743, "building": "yes", "name": "", "height": null, "height_m": null, "levels": null, "tract_id": "40143007503", "tract_name": "75.03", "tags": {"building": "yes", "shop": "yes"}}}, {"type": "Feature", "geometry": {"type": "Polygon", "coordinates": [[[-95.7912279, 36.0322851], [-95.791362, 36.0321842], [-95.7913708, 36.0321919], [-95.7914551, 36.0321284], [-95.7915086, 36.032175], [-95.7914243, 36.0322384], [-95.7914368, 36.0322493], [-95.7914245, 36.0322585], [-95.7914812, 36.0323078], [-95.7914176, 36.0323556], [-95.7913609, 36.0323064], [-95.7913027, 36.0323502], [-95.7912279, 36.0322851]]]}, "properties": {"osm_id": 1135343744, "building": "yes", "name": "Klean Car Auto Detailing Services", "height": null, "height_m": null, "levels": null, "tract_id": "40143007503", "tract_name": "75.03", "tags": {"amenity": "car_wash", "building": "yes", "name": "Klean Car Auto Detailing Services", "self_service": "no"}}}, {"type": "Feature", "geometry": {"type": "Polygon", "coordinates": [[[-95.7884176, 36.0327764], [-95.78825, 36.0327775], [-95.7882489, 36.0326668], [-95.7884165, 36.0326657], [-95.7884176, 36.0327764]]]}, "properties": {"osm_id": 1135343784, "building": "yes", "name": "", "height": null, "height_m": null, "levels": null, "tract_id": "40143007503", "tract_name": "75.03", "tags": {"building": "yes"}}}, {"type": "Feature", "geometry": {"type": "Polygon", "coordinates": [[[-95.7905878, 36.0333053], [-95.7905874, 36.0330236], [-95.7902115, 36.0330239], [-95.7902117, 36.033117], [-95.790179, 36.033117], [-95.7901566, 36.0330992], [-95.7901697, 36.0330884], [-95.7900029, 36.0329549], [-95.789942, 36.0330047], [-95.7901053, 36.0331354], [-95.7901165, 36.0331262], [-95.7901462, 36.03315], [-95.7901465, 36.0333265], [-95.7902149, 36.0333264], [-95.7902149, 36.0333056], [-95.7905878, 36.0333053]]]}, "properties": {"osm_id": 1207024469, "building": "yes", "name": "", "height": null, "height_m": null, "levels": null, "tract_id": "40143007503", "tract_name": "75.03", "tags": {"building": "yes"}}}, {"type": "Feature", "geometry": {"type": "Polygon", "coordinates": [[[-95.796924, 36.0445896], [-95.7965819, 36.0445887], [-95.7965819, 36.0445264], [-95.7962924, 36.0445292], [-95.7962924, 36.0447878], [-95.7969766, 36.0447897], [-95.7969777, 36.0445452], [-95.796924, 36.0445896]]]}, "properties": {"osm_id": 1230462504, "building": "yes", "name": "AutoZone", "height": null, "height_m": null, "levels": null, "tract_id": "40143007503", "tract_name": "75.03", "tags": {"brand": "AutoZone", "brand:wikidata": "Q4826087", "building": "yes", "name": "AutoZone", "shop": "car_parts"}}}, {"type": "Feature", "geometry": {"type": "Polygon", "coordinates": [[[-95.780788, 36.044424], [-95.7805245, 36.044423], [-95.7805259, 36.0442045], [-95.7807893, 36.0442055], [-95.780788, 36.044424]]]}, "properties": {"osm_id": 1235320156, "building": "industrial", "name": "Kirkpactrick Scales", "height": null, "height_m": null, "levels": null, "tract_id": "40143007503", "tract_name": "75.03", "tags": {"addr:housenumber": "810", "addr:postcode": "74012", "addr:street": "East Jackson Place", "building": "industrial", "name": "Kirkpactrick Scales"}}}, {"type": "Feature", "geometry": {"type": "Polygon", "coordinates": [[[-95.7804645, 36.045924], [-95.7804642, 36.0458123], [-95.7808236, 36.0458117], [-95.7808239, 36.0459234], [-95.7804645, 36.045924]]]}, "properties": {"osm_id": 1235320157, "building": "industrial", "name": "Phat Albert's Customs", "height": null, "height_m": null, "levels": null, "tract_id": "40143007503", "tract_name": "75.03", "tags": {"addr:city": "Broken Arrow", "addr:housenumber": "705", "addr:postcode": "74012", "addr:street": "South 8th Street", "building": "industrial", "name": "Phat Albert's Customs", "phone": "+1 918 402 5646", "shop": "car_repair"}}}, {"type": "Feature", "geometry": {"type": "Polygon", "coordinates": [[[-95.7808111, 36.0455819], [-95.7803464, 36.0455824], [-95.7803462, 36.0454583], [-95.7808109, 36.0454577], [-95.7808111, 36.0455819]]]}, "properties": {"osm_id": 1235320158, "building": "industrial", "name": "Pruitt Diesel and Auto", "height": null, "height_m": null, "levels": null, "tract_id": "40143007503", "tract_name": "75.03", "tags": {"addr:city": "Broken Arrow", "addr:housenumber": "709", "addr:postcode": "74012", "addr:street": "South 8th Street", "building": "industrial", "name": "Pruitt Diesel and Auto", "phone": "+1 918 615 8474", "shop": "car_repair"}}}, {"type": "Feature", "geometry": {"type": "Polygon", "coordinates": [[[-95.7808091, 36.0454301], [-95.7804075, 36.0454311], [-95.780407, 36.0453211], [-95.7808087, 36.04532], [-95.7808091, 36.0454301]]]}, "properties": {"osm_id": 1235320159, "building": "industrial", "name": "Laundry Solutions Company", "height": null, "height_m": null, "levels": null, "tract_id": "40143007503", "tract_name": "75.03", "tags": {"addr:city": "Broken Arrow", "addr:postcode": "74012", "addr:street": "South 8th Street", "building": "industrial", "name": "Laundry Solutions Company", "phone": "+1 800 383 9274"}}}, {"type": "Feature", "geometry": {"type": "Polygon", "coordinates": [[[-95.7805388, 36.044538], [-95.7805387, 36.0445223], [-95.7808091, 36.0445214], [-95.7808097, 36.0446316], [-95.7805393, 36.0446325], [-95.7805398, 36.0447383], [-95.7808081, 36.0447374], [-95.7808087, 36.0448472], [-95.7804708, 36.0448483], [-95.780472, 36.0450732], [-95.7808269, 36.045072], [-95.7808274, 36.0451796], [-95.7803431, 36.0451812], [-95.7803397, 36.0445387], [-95.7805388, 36.044538]]]}, "properties": {"osm_id": 1235320160, "building": "industrial", "name": "AKSMFab Sheetmetal Supply and Fabrication", "height": null, "height_m": null, "levels": null, "tract_id": "40143007503", "tract_name": "75.03", "tags": {"addr:city": "Broken Arrow", "addr:housenumber": "801", "addr:postcode": "74012", "addr:street": "South 8th Street", "building": "industrial", "industrial": "machine_shop", "name": "AKSMFab Sheetmetal Supply and Fabrication", "phone": "+1 918 740 3560"}}}, {"type": "Feature", "geometry": {"type": "Polygon", "coordinates": [[[-95.7800387, 36.0450598], [-95.7800388, 36.0450242], [-95.7800388, 36.0449529], [-95.7800389, 36.0448816], [-95.7800389, 36.0448103], [-95.780039, 36.044739], [-95.7800391, 36.0446677], [-95.7800391, 36.0445964], [-95.7800392, 36.0445251], [-95.7800392, 36.0444538], [-95.7800393, 36.0443825], [-95.7800393, 36.0443468], [-95.7801734, 36.0443469], [-95.7801728, 36.0450598], [-95.7800387, 36.0450598]]]}, "properties": {"osm_id": 1235320161, "building": "retail", "name": "Lynn Lane Plaza", "height": null, "height_m": null, "levels": null, "tract_id": "40143007503", "tract_name": "75.03", "tags": {"addr:postcode": "74012", "addr:street": "South 9th Street", "building": "retail", "name": "Lynn Lane Plaza"}}}, {"type": "Feature", "geometry": {"type": "Polygon", "coordinates": [[[-95.7800541, 36.0456881], [-95.7798836, 36.0456899], [-95.7798803, 36.0454752], [-95.7800507, 36.0454734], [-95.7800541, 36.0456881]]]}, "properties": {"osm_id": 1235320162, "building": "retail", "name": "Ralston's Muffler Shop", "height": null, "height_m": null, "levels": null, "tract_id": "40143007503", "tract_name": "75.03", "tags": {"addr:housenumber": "708", "addr:postcode": "74012", "addr:street": "South 9th Street", "alt_name": "Ralston Muffler and Wheel Alignment", "building": "retail", "name": "Ralston's Muffler Shop", "phone": "+1 918 251 4211", "shop": "car_repair"}}}, {"type": "Feature", "geometry": {"type": "Polygon", "coordinates": [[[-95.7801942, 36.0452208], [-95.7801942, 36.0453878], [-95.779991, 36.0453878], [-95.779991, 36.0452208], [-95.7801942, 36.0452208]]]}, "properties": {"osm_id": 1235320163, "building": "retail", "name": "Avalon Animal Hospital", "height": null, "height_m": null, "levels": null, "tract_id": "40143007503", "tract_name": "75.03", "tags": {"addr:housenumber": "710", "addr:postcode": "74012", "addr:street": "South 9th Street", "amenity": "veterinary", "building": "retail", "name": "Avalon Animal Hospital"}}}, {"type": "Feature", "geometry": {"type": "Polygon", "coordinates": [[[-95.7851574, 36.0461756], [-95.7848139, 36.0461752], [-95.7848141, 36.0460621], [-95.7846745, 36.046062], [-95.7846759, 36.0453441], [-95.7854202, 36.045345], [-95.7854189, 36.0460629], [-95.7851576, 36.0460625], [-95.7851574, 36.0461756]]]}, "properties": {"osm_id": 1235320168, "building": "industrial", "name": "", "height": null, "height_m": null, "levels": null, "tract_id": "40143007503", "tract_name": "75.03", "tags": {"addr:postcode": "74012", "addr:street": "East Houston Street", "building": "industrial"}}}, {"type": "Feature", "geometry": {"type": "Polygon", "coordinates": [[[-95.7860506, 36.0456367], [-95.7856523, 36.0456367], [-95.7856523, 36.0453613], [-95.7860506, 36.0453613], [-95.7860506, 36.0456367]]]}, "properties": {"osm_id": 1235320169, "building": "industrial", "name": "", "height": null, "height_m": null, "levels": null, "tract_id": "40143007503", "tract_name": "75.03", "tags": {"building": "industrial"}}}, {"type": "Feature", "geometry": {"type": "Polygon", "coordinates": [[[-95.7841925, 36.0461026], [-95.7841901, 36.0461623], [-95.7840765, 36.0461594], [-95.7840786, 36.0461041], [-95.7840788, 36.0460997], [-95.7840811, 36.0460997], [-95.7840972, 36.0456893], [-95.7842214, 36.0456925], [-95.7842054, 36.0461029], [-95.7841925, 36.0461026]]]}, "properties": {"osm_id": 1235320173, "building": "industrial", "name": "", "height": null, "height_m": null, "levels": null, "tract_id": "40143007503", "tract_name": "75.03", "tags": {"addr:postcode": "74012", "addr:street": "East Houston Street", "building": "industrial"}}}, {"type": "Feature", "geometry": {"type": "Polygon", "coordinates": [[[-95.790236, 36.0384876], [-95.7900307, 36.0384866], [-95.7900323, 36.0381629], [-95.7902724, 36.0381637], [-95.7902724, 36.0381812], [-95.7902382, 36.038181], [-95.790238, 36.0382145], [-95.7902378, 36.0382316], [-95.7902375, 36.0382841], [-95.7902374, 36.0382995], [-95.7902369, 36.0383648], [-95.7902364, 36.0384356], [-95.7902363, 36.0384498], [-95.790236, 36.0384876]]]}, "properties": {"osm_id": 1275138675, "building": "retail", "name": "", "height": null, "height_m": null, "levels": null, "tract_id": "40143007503", "tract_name": "75.03", "tags": {"addr:city": "Broken Arrow", "addr:postcode": "74012", "building": "retail"}}}, {"type": "Feature", "geometry": {"type": "Polygon", "coordinates": [[[-95.7899975, 36.0388845], [-95.7900004, 36.0384864], [-95.7900307, 36.0384866], [-95.790236, 36.0384876], [-95.7902356, 36.0385396], [-95.7902355, 36.0385594], [-95.7902348, 36.0386464], [-95.7902346, 36.0386689], [-95.7902339, 36.0387565], [-95.7902338, 36.0387762], [-95.7902334, 36.0388244], [-95.7902331, 36.0388676], [-95.7901973, 36.0388677], [-95.7901974, 36.0388841], [-95.7899975, 36.0388845]]]}, "properties": {"osm_id": 1275138676, "building": "retail", "name": "", "height": null, "height_m": null, "levels": null, "tract_id": "40143007503", "tract_name": "75.03", "tags": {"addr:city": "Broken Arrow", "addr:postcode": "74012", "building": "retail"}}}, {"type": "Feature", "geometry": {"type": "Polygon", "coordinates": [[[-95.7902331, 36.0388676], [-95.7902514, 36.0388676], [-95.7902518, 36.0390079], [-95.7901875, 36.039008], [-95.7901875, 36.0389935], [-95.7898585, 36.038994], [-95.7898582, 36.0388847], [-95.7899975, 36.0388845], [-95.7901974, 36.0388841], [-95.7901973, 36.0388677], [-95.7902331, 36.0388676]]]}, "properties": {"osm_id": 1275138677, "building": "retail", "name": "Baby Ruth's Sports Bar", "height": null, "height_m": null, "levels": null, "tract_id": "40143007503", "tract_name": "75.03", "tags": {"addr:city": "Broken Arrow", "addr:housenumber": "1601", "addr:postcode": "74012", "addr:street": "South Main Street", "amenity": "restaurant", "building": "retail", "name": "Baby Ruth's Sports Bar"}}}, {"type": "Feature", "geometry": {"type": "Polygon", "coordinates": [[[-95.7903622, 36.0393646], [-95.790212, 36.0393646], [-95.790212, 36.0392464], [-95.7903622, 36.0392464], [-95.7903622, 36.0393646]]]}, "properties": {"osm_id": 1275138678, "building": "retail", "name": "Tasty Treat", "height": null, "height_m": null, "levels": null, "tract_id": "40143007503", "tract_name": "75.03", "tags": {"addr:city": "Broken Arrow", "addr:housenumber": "1537", "addr:postcode": "74012", "addr:street": "South Main Street", "amenity": "restaurant", "building": "retail", "cuisine": "burger", "name": "Tasty Treat", "opening_hours": "Su-Mo off; Tu-Sa 06:30-16:00", "phone": "+1 918 251 5252"}}}, {"type": "Feature", "geometry": {"type": "Polygon", "coordinates": [[[-95.7905779, 36.0396038], [-95.7904952, 36.039604], [-95.7904949, 36.0394997], [-95.7905777, 36.0394996], [-95.7905779, 36.0396038]]]}, "properties": {"osm_id": 1275138680, "building": "roof", "name": "The Store on Main", "height": null, "height_m": null, "levels": null, "tract_id": "40143007503", "tract_name": "75.03", "tags": {"amenity": "fuel", "building": "roof", "fuel:e0": "yes", "fuel:octane_87": "yes", "name": "The Store on Main", "note": "Only one choice: 87 octane unleaded, no ethanol."}}}, {"type": "Feature", "geometry": {"type": "Polygon", "coordinates": [[[-95.7901256, 36.0395024], [-95.7903608, 36.039502], [-95.7903614, 36.0397484], [-95.7903262, 36.0397485], [-95.7903265, 36.0398449], [-95.7903616, 36.0398448], [-95.7903623, 36.0401659], [-95.7903272, 36.0401659], [-95.7903273, 36.040218], [-95.7903625, 36.040218], [-95.7903629, 36.0404126], [-95.7901278, 36.040413], [-95.7901275, 36.040301], [-95.7901923, 36.0403009], [-95.7901923, 36.040289], [-95.7901275, 36.0402891], [-95.7901274, 36.0402498], [-95.7901583, 36.0402498], [-95.7901583, 36.0402343], [-95.7901274, 36.0402343], [-95.7901272, 36.0401513], [-95.7901581, 36.0401512], [-95.790158, 36.0401361], [-95.7901271, 36.0401362], [-95.790127, 36.0400958], [-95.7901919, 36.0400957], [-95.7901918, 36.0400711], [-95.790127, 36.0400712], [-95.7901269, 36.0400291], [-95.7901917, 36.040029], [-95.7901917, 36.0400152], [-95.7901268, 36.0400153], [-95.7901267, 36.0399424], [-95.7901915, 36.0399423], [-95.7901915, 36.0399176], [-95.7901266, 36.0399177], [-95.7901265, 36.0398745], [-95.7901574, 36.0398745], [-95.7901574, 36.0398637], [-95.7901265, 36.0398638], [-95.7901262, 36.0397223], [-95.790191, 36.0397222], [-95.790191, 36.039708], [-95.7901261, 36.0397081], [-95.7901259, 36.0395974], [-95.7901907, 36.0395973], [-95.7901906, 36.039572], [-95.7901258, 36.0395721], [-95.7901256, 36.0395024]]]}, "properties": {"osm_id": 1275138681, "building": "retail", "name": "", "height": null, "height_m": null, "levels": null, "tract_id": "40143007503", "tract_name": "75.03", "tags": {"addr:city": "Broken Arrow", "addr:postcode": "74012", "building": "retail", "note": "The back of this building is small storage units. No sign or advertising at all for it."}}}, {"type": "Feature", "geometry": {"type": "Polygon", "coordinates": [[[-95.7970241, 36.046302], [-95.7970208, 36.0459582], [-95.7971455, 36.0459574], [-95.7971478, 36.0461903], [-95.7972635, 36.0461895], [-95.7972645, 36.0463004], [-95.7970241, 36.046302]]]}, "properties": {"osm_id": 1294626466, "building": "yes", "name": "EZPAWN", "height": null, "height_m": null, "levels": null, "tract_id": "40143007503", "tract_name": "75.03", "tags": {"addr:city": "Broken Arrow", "addr:housenumber": "709", "addr:postcode": "74012", "addr:street": "South Elm Place", "brand": "EZPAWN", "brand:wikidata": "Q110831813", "building": "yes", "fixme": "opening hours. I copied that from the receipt but I think they changed the hours and never updated their receipts.", "name": "EZPAWN", "opening_hours": "Mo-Fr 09:00-19:00; Sa 09:00-18:00; Su 12:00-17:00", "phone": "+1 918 251 2766", "ref": "30302", "shop": "pawnbroker"}}}, {"type": "Feature", "geometry": {"type": "Polygon", "coordinates": [[[-95.7969269, 36.045319], [-95.7969273, 36.0454068], [-95.7964954, 36.0454079], [-95.7964951, 36.0453201], [-95.7969269, 36.045319]]]}, "properties": {"osm_id": 1294626467, "building": "yes", "name": "Let's Go Car Wash", "height": null, "height_m": null, "levels": null, "tract_id": "40143007503", "tract_name": "75.03", "tags": {"amenity": "car_wash", "building": "yes", "name": "Let's Go Car Wash"}}}, {"type": "Feature", "geometry": {"type": "Polygon", "coordinates": [[[-95.7970691, 36.0440167], [-95.7970691, 36.0442574], [-95.7967331, 36.0442574], [-95.7967331, 36.0442173], [-95.7966533, 36.0442173], [-95.7966158, 36.0442455], [-95.7965809, 36.0442455], [-95.7965695, 36.0442574], [-95.7963154, 36.0442574], [-95.7963154, 36.0440167], [-95.7970691, 36.0440167]]]}, "properties": {"osm_id": 1294626469, "building": "yes", "name": "Centennial Health", "height": null, "height_m": null, "levels": null, "tract_id": "40143007503", "tract_name": "75.03", "tags": {"addr:city": "Broken Arrow", "addr:housenumber": "817", "addr:postcode": "74012", "addr:state": "OK", "addr:street": "South Elm Place", "addr:unit": "Suite A", "amenity": "doctors", "building": "yes", "name": "Centennial Health", "phone": "918-251-2273", "start_date": "1919", "website": "https://centennialhealth.com/"}}}, {"type": "Feature", "geometry": {"type": "Polygon", "coordinates": [[[-95.7814625, 36.046192], [-95.781241, 36.0461925], [-95.7812403, 36.0459945], [-95.7814617, 36.045994], [-95.7814625, 36.046192]]]}, "properties": {"osm_id": 1332836257, "building": "industrial", "name": "Legendary Motorsports", "height": null, "height_m": null, "levels": null, "tract_id": "40143007503", "tract_name": "75.03", "tags": {"addr:city": "Broken Arrow", "addr:housenumber": "717", "addr:postcode": "74012", "addr:street": "East Houston Street", "building": "industrial", "name": "Legendary Motorsports", "shop": "car_repair"}}}, {"type": "Feature", "geometry": {"type": "Polygon", "coordinates": [[[-95.7816898, 36.0459958], [-95.7816897, 36.0459679], [-95.7818046, 36.0459676], [-95.7818055, 36.0461848], [-95.7816906, 36.0461851], [-95.7815088, 36.0461856], [-95.7815081, 36.0460153], [-95.7816517, 36.0460149], [-95.7816516, 36.0459959], [-95.7816898, 36.0459958]]]}, "properties": {"osm_id": 1332836258, "building": "industrial", "name": "", "height": null, "height_m": null, "levels": null, "tract_id": "40143007503", "tract_name": "75.03", "tags": {"building": "industrial"}}}, {"type": "Feature", "geometry": {"type": "Polygon", "coordinates": [[[-95.7804924, 36.0433788], [-95.780657, 36.0434047], [-95.780592, 36.0436749], [-95.7805864, 36.0436741], [-95.7805697, 36.0437437], [-95.7805245, 36.0437366], [-95.7805223, 36.0437456], [-95.7804637, 36.0437364], [-95.7804659, 36.0437274], [-95.7804201, 36.0437202], [-95.7804369, 36.0436506], [-95.7804275, 36.0436491], [-95.7804924, 36.0433788]]]}, "properties": {"osm_id": 1332836259, "building": "industrial", "name": "", "height": null, "height_m": null, "levels": null, "tract_id": "40143007503", "tract_name": "75.03", "tags": {"addr:city": "Broken Arrow", "addr:housenumber": "809", "addr:postcode": "74012", "addr:street": "East Jackson Place", "building": "industrial", "shop": "vacant"}}}, {"type": "Feature", "geometry": {"type": "Polygon", "coordinates": [[[-95.7800017, 36.0433117], [-95.7801345, 36.0433111], [-95.7801359, 36.043531], [-95.780083, 36.0435313], [-95.7800837, 36.0436343], [-95.7800038, 36.0436347], [-95.7800017, 36.0433117]]]}, "properties": {"osm_id": 1332836260, "building": "industrial", "name": "ProTouch Auto Repair", "height": null, "height_m": null, "levels": null, "tract_id": "40143007503", "tract_name": "75.03", "tags": {"addr:city": "Broken Arrow", "addr:postcode": "74012", "addr:street": "South 9th Street", "building": "industrial", "name": "ProTouch Auto Repair", "phone": "+1 918 258 1018"}}}, {"type": "Feature", "geometry": {"type": "Polygon", "coordinates": [[[-95.7808064, 36.043421], [-95.781201, 36.0434898], [-95.7811393, 36.0437213], [-95.7810736, 36.0437099], [-95.7810395, 36.0438376], [-95.7807728, 36.0437911], [-95.7808069, 36.0436634], [-95.7807447, 36.0436525], [-95.7808064, 36.043421]]]}, "properties": {"osm_id": 1332836261, "building": "industrial", "name": "", "height": null, "height_m": null, "levels": null, "tract_id": "40143007503", "tract_name": "75.03", "tags": {"addr:housenumber": "801", "addr:postcode": "74012", "addr:street": "East Jackson Place", "building": "industrial"}}}, {"type": "Feature", "geometry": {"type": "Polygon", "coordinates": [[[-95.7817539, 36.0459153], [-95.7812538, 36.045918], [-95.7812531, 36.0458362], [-95.7815816, 36.0458344], [-95.7815804, 36.0456997], [-95.7817521, 36.0456988], [-95.7817539, 36.0459153]]]}, "properties": {"osm_id": 1332836262, "building": "industrial", "name": "918 Wrecker Service East", "height": null, "height_m": null, "levels": null, "tract_id": "40143007503", "tract_name": "75.03", "tags": {"addr:city": "Broken Arrow", "addr:housenumber": "704", "addr:postcode": "74012", "addr:street": "South 8th Street", "building": "industrial", "name": "918 Wrecker Service East", "phone": "+1 918 794 3400", "service:vehicle:towing": "yes"}}}, {"type": "Feature", "geometry": {"type": "Polygon", "coordinates": [[[-95.7816661, 36.0452418], [-95.7816655, 36.045347], [-95.7812516, 36.0453456], [-95.7812521, 36.0452404], [-95.7816661, 36.0452418]]]}, "properties": {"osm_id": 1332836263, "building": "industrial", "name": "BA Flooring", "height": null, "height_m": null, "levels": null, "tract_id": "40143007503", "tract_name": "75.03", "tags": {"addr:city": "Broken Arrow", "addr:housenumber": "712", "addr:postcode": "74012", "addr:street": "South 8th Street", "building": "industrial", "craft": "carpet_layer", "name": "BA Flooring"}}}, {"type": "Feature", "geometry": {"type": "Polygon", "coordinates": [[[-95.7815858, 36.0449826], [-95.7815846, 36.0450909], [-95.7812327, 36.0450883], [-95.7812339, 36.0449801], [-95.7815858, 36.0449826]]]}, "properties": {"osm_id": 1332836264, "building": "industrial", "name": "Sir Fixalot Mobile Services", "height": null, "height_m": null, "levels": null, "tract_id": "40143007503", "tract_name": "75.03", "tags": {"addr:city": "Broken Arrow", "addr:housenumber": "716", "addr:postcode": "74012", "addr:street": "South 8th Street", "building": "industrial", "craft": "electronics_repair", "name": "Sir Fixalot Mobile Services"}}}, {"type": "Feature", "geometry": {"type": "Polygon", "coordinates": [[[-95.7817235, 36.0447704], [-95.7817241, 36.0449043], [-95.7812504, 36.0449057], [-95.7812498, 36.0447718], [-95.7817235, 36.0447704]]]}, "properties": {"osm_id": 1332836265, "building": "industrial", "name": "", "height": null, "height_m": null, "levels": null, "tract_id": "40143007503", "tract_name": "75.03", "tags": {"addr:city": "Broken Arrow", "addr:postcode": "74012", "addr:street": "South 8th Street", "building": "industrial"}}}, {"type": "Feature", "geometry": {"type": "Polygon", "coordinates": [[[-95.7817201, 36.0445232], [-95.7817207, 36.0446557], [-95.7812524, 36.0446571], [-95.7812518, 36.0445245], [-95.7817201, 36.0445232]]]}, "properties": {"osm_id": 1332836266, "building": "industrial", "name": "Alpha", "height": null, "height_m": null, "levels": null, "tract_id": "40143007503", "tract_name": "75.03", "tags": {"addr:city": "Broken Arrow", "addr:housenumber": "804", "addr:postcode": "74012", "addr:street": "South 8th Street", "building": "industrial", "fixme": "survey again, see what it says in small print under Alpha.", "name": "Alpha"}}}, {"type": "Feature", "geometry": {"type": "Polygon", "coordinates": [[[-95.7812318, 36.0441871], [-95.7817201, 36.0441898], [-95.7817183, 36.0444064], [-95.7815266, 36.0444053], [-95.7815275, 36.0442966], [-95.7812309, 36.044295], [-95.7812318, 36.0441871]]]}, "properties": {"osm_id": 1332836267, "building": "industrial", "name": "Wilkinson Manufacturing Incorporated", "height": null, "height_m": null, "levels": null, "tract_id": "40143007503", "tract_name": "75.03", "tags": {"addr:city": "Broken Arrow", "addr:housenumber": "808", "addr:postcode": "74012", "addr:street": "South 8th Street", "building": "industrial", "name": "Wilkinson Manufacturing Incorporated", "note": "looks vacant"}}}, {"type": "Feature", "geometry": {"type": "Polygon", "coordinates": [[[-95.7817218, 36.0441515], [-95.781247, 36.0441515], [-95.781247, 36.0439835], [-95.7817218, 36.0439835], [-95.7817218, 36.0441515]]]}, "properties": {"osm_id": 1332836268, "building": "industrial", "name": "Complete Lawn Care", "height": null, "height_m": null, "levels": null, "tract_id": "40143007503", "tract_name": "75.03", "tags": {"addr:city": "Broken Arrow", "addr:housenumber": "812", "addr:postcode": "74012", "addr:street": "South 8th Street", "building": "industrial", "craft": "gardener", "name": "Complete Lawn Care"}}}, {"type": "Feature", "geometry": {"type": "Polygon", "coordinates": [[[-95.7814323, 36.0379094], [-95.781297, 36.0379074], [-95.7813018, 36.0375904], [-95.781437, 36.03759], [-95.7814323, 36.0379094]]]}, "properties": {"osm_id": 1340860813, "building": "apartments", "name": "", "height": null, "height_m": null, "levels": null, "tract_id": "40143007503", "tract_name": "75.03", "tags": {"building": "apartments"}}}, {"type": "Feature", "geometry": {"type": "Polygon", "coordinates": [[[-95.7814383, 36.0385002], [-95.7812914, 36.0385007], [-95.7812897, 36.0381847], [-95.7814367, 36.0381842], [-95.7814383, 36.0385002]]]}, "properties": {"osm_id": 1340860814, "building": "apartments", "name": "", "height": null, "height_m": null, "levels": null, "tract_id": "40143007503", "tract_name": "75.03", "tags": {"building": "apartments"}}}, {"type": "Feature", "geometry": {"type": "Polygon", "coordinates": [[[-95.7915129, 36.0447112], [-95.7915133, 36.044564], [-95.7916283, 36.0445643], [-95.7916279, 36.0447114], [-95.7915129, 36.0447112]]]}, "properties": {"osm_id": 1351701658, "building": "house", "name": "", "height": null, "height_m": null, "levels": null, "tract_id": "40143007503", "tract_name": "75.03", "tags": {"addr:city": "Broken Arrow", "addr:housenumber": "114", "addr:postcode": "74012", "addr:street": "West Jackson Street", "building": "house"}}}, {"type": "Feature", "geometry": {"type": "Polygon", "coordinates": [[[-95.7915637, 36.0441867], [-95.7916206, 36.0441868], [-95.7916203, 36.0442971], [-95.7915633, 36.044297], [-95.7915637, 36.0441867]]]}, "properties": {"osm_id": 1351701659, "building": "house", "name": "", "height": null, "height_m": null, "levels": null, "tract_id": "40143007503", "tract_name": "75.03", "tags": {"addr:city": "Broken Arrow", "addr:housenumber": "115", "addr:postcode": "74012", "addr:street": "West Jackson Street", "building": "house"}}}, {"type": "Feature", "geometry": {"type": "Polygon", "coordinates": [[[-95.7915633, 36.044297], [-95.7915063, 36.0442969], [-95.7915067, 36.0441866], [-95.7915637, 36.0441867], [-95.7915633, 36.044297]]]}, "properties": {"osm_id": 1351701660, "building": "house", "name": "", "height": null, "height_m": null, "levels": null, "tract_id": "40143007503", "tract_name": "75.03", "tags": {"addr:city": "Broken Arrow", "addr:housenumber": "113", "addr:postcode": "74012", "addr:street": "West Jackson Street", "building": "house"}}}, {"type": "Feature", "geometry": {"type": "Polygon", "coordinates": [[[-95.7899693, 36.0448912], [-95.7898337, 36.0448898], [-95.7898352, 36.0447963], [-95.7899707, 36.0447977], [-95.7899693, 36.0448912]]]}, "properties": {"osm_id": 1351701661, "building": "garage", "name": "Stitchin' Stitches Upholstery", "height": null, "height_m": null, "levels": null, "tract_id": "40143007503", "tract_name": "75.03", "tags": {"building": "garage", "craft": "upholsterer", "name": "Stitchin' Stitches Upholstery", "phone": "+1 918 851 5951"}}}, {"type": "Feature", "geometry": {"type": "Polygon", "coordinates": [[[-95.7901256, 36.0446612], [-95.7898949, 36.0446588], [-95.7898967, 36.0445482], [-95.7899715, 36.044549], [-95.7899713, 36.0445659], [-95.7900457, 36.0445667], [-95.7900458, 36.0445576], [-95.7901272, 36.0445584], [-95.7901256, 36.0446612]]]}, "properties": {"osm_id": 1351701662, "building": "house", "name": "", "height": null, "height_m": null, "levels": null, "tract_id": "40143007503", "tract_name": "75.03", "tags": {"addr:city": "Broken Arrow", "addr:postcode": "74012", "building": "house"}}}, {"type": "Feature", "geometry": {"type": "Polygon", "coordinates": [[[-95.7912713, 36.0461442], [-95.7911422, 36.046049], [-95.791205, 36.0459934], [-95.791334, 36.0460887], [-95.7912713, 36.0461442]]]}, "properties": {"osm_id": 1351701664, "building": "yes", "name": "", "height": null, "height_m": null, "levels": null, "tract_id": "40143007503", "tract_name": "75.03", "tags": {"addr:city": "Broken Arrow", "addr:postcode": "74012", "building": "yes", "shop": "tobacco"}}}, {"type": "Feature", "geometry": {"type": "Polygon", "coordinates": [[[-95.7912419, 36.0462473], [-95.7910943, 36.0462469], [-95.7910944, 36.0462254], [-95.7910653, 36.0462254], [-95.7910654, 36.0461943], [-95.7910945, 36.0461944], [-95.7910948, 36.0461253], [-95.7911529, 36.0461255], [-95.7911527, 36.0461798], [-95.7912422, 36.04618], [-95.7912419, 36.0462473]]]}, "properties": {"osm_id": 1351701665, "building": "house", "name": "", "height": null, "height_m": null, "levels": null, "tract_id": "40143007503", "tract_name": "75.03", "tags": {"addr:city": "Broken Arrow", "addr:housenumber": "704", "addr:postcode": "74012", "addr:street": "South Main Street", "building": "house"}}}, {"type": "Feature", "geometry": {"type": "Polygon", "coordinates": [[[-95.7911963, 36.045738], [-95.7912035, 36.0458734], [-95.7911449, 36.0458754], [-95.7911443, 36.0458648], [-95.7910638, 36.0458676], [-95.7910632, 36.0458564], [-95.7910263, 36.0458577], [-95.7910203, 36.0457441], [-95.7911963, 36.045738]]]}, "properties": {"osm_id": 1351701666, "building": "house", "name": "Glenn's API", "height": null, "height_m": null, "levels": null, "tract_id": "40143007503", "tract_name": "75.03", "tags": {"addr:city": "Broken Arrow", "addr:housenumber": "716", "addr:postcode": "74012", "addr:street": "South Main Street", "building": "house", "name": "Glenn's API", "office": "yes"}}}, {"type": "Feature", "geometry": {"type": "Polygon", "coordinates": [[[-95.7912191, 36.0456335], [-95.7910472, 36.0456335], [-95.7910472, 36.0455635], [-95.7912191, 36.0455635], [-95.7912191, 36.0456335]]]}, "properties": {"osm_id": 1351701667, "building": "retail", "name": "Rumors Salon", "height": null, "height_m": null, "levels": null, "tract_id": "40143007503", "tract_name": "75.03", "tags": {"addr:city": "Broken Arrow", "addr:postcode": "74012", "addr:street": "South Main Street", "building": "retail", "name": "Rumors Salon", "opening_hours": "Tu-Fr 09:00-18:00; Sa 09:00-15:00", "phone": "+1 918 251 3447", "shop": "hairdresser"}}}, {"type": "Feature", "geometry": {"type": "Polygon", "coordinates": [[[-95.7912162, 36.0452314], [-95.7912158, 36.0452648], [-95.791077, 36.0452637], [-95.7910783, 36.0451552], [-95.7912171, 36.0451563], [-95.7912169, 36.0451782], [-95.7912587, 36.0451786], [-95.7912581, 36.0452317], [-95.7912162, 36.0452314]]]}, "properties": {"osm_id": 1351701668, "building": "house", "name": "", "height": null, "height_m": null, "levels": null, "tract_id": "40143007503", "tract_name": "75.03", "tags": {"addr:city": "Broken Arrow", "addr:housenumber": "804", "addr:postcode": "74012", "addr:street": "South Main Street", "building": "house"}}}, {"type": "Feature", "geometry": {"type": "Polygon", "coordinates": [[[-95.7912457, 36.045073], [-95.7909788, 36.045073], [-95.7909788, 36.0449576], [-95.7912457, 36.0449576], [-95.7912457, 36.045073]]]}, "properties": {"osm_id": 1351701669, "building": "retail", "name": "The Rose Event Center", "height": null, "height_m": null, "levels": null, "tract_id": "40143007503", "tract_name": "75.03", "tags": {"addr:city": "Broken Arrow", "addr:housenumber": "808", "addr:postcode": "74012", "addr:street": "South Main Street", "amenity": "events_venue", "building": "retail", "name": "The Rose Event Center", "phone": "+1 918 230 7660", "website": "http://roseeventcenter.com/"}}}, {"type": "Feature", "geometry": {"type": "Polygon", "coordinates": [[[-95.7902985, 36.0445723], [-95.790546, 36.0445745], [-95.7905459, 36.0445795], [-95.7905699, 36.0445797], [-95.7905685, 36.0446812], [-95.7905445, 36.0446809], [-95.7905445, 36.0446855], [-95.7903576, 36.0446838], [-95.7903582, 36.044637], [-95.7902977, 36.0446365], [-95.7902985, 36.0445723]]]}, "properties": {"osm_id": 1351701670, "building": "house", "name": "", "height": null, "height_m": null, "levels": null, "tract_id": "40143007503", "tract_name": "75.03", "tags": {"addr:city": "Broken Arrow", "addr:housenumber": "823", "addr:postcode": "74012", "addr:street": "South Main Street", "building": "house"}}}, {"type": "Feature", "geometry": {"type": "Polygon", "coordinates": [[[-95.7911807, 36.0440495], [-95.7911811, 36.0439681], [-95.7914759, 36.043969], [-95.7914753, 36.0441072], [-95.7914777, 36.0441073], [-95.7914767, 36.0443261], [-95.7913199, 36.0443257], [-95.7913208, 36.0441282], [-95.7911592, 36.0441277], [-95.7911595, 36.0440495], [-95.7911807, 36.0440495]]]}, "properties": {"osm_id": 1351701672, "building": "industrial", "name": "", "height": null, "height_m": null, "levels": null, "tract_id": "40143007503", "tract_name": "75.03", "tags": {"addr:city": "Broken Arrow", "addr:housenumber": "904", "addr:postcode": "74012", "addr:street": "South Main Street", "building": "industrial"}}}, {"type": "Feature", "geometry": {"type": "Polygon", "coordinates": [[[-95.7960446, 36.0461893], [-95.796044, 36.0462688], [-95.7959831, 36.0462685], [-95.7959837, 36.046189], [-95.7960446, 36.0461893]]]}, "properties": {"osm_id": 1352082727, "building": "roof", "name": "", "height": null, "height_m": null, "levels": null, "tract_id": "40143007503", "tract_name": "75.03", "tags": {"building": "roof"}}}, {"type": "Feature", "geometry": {"type": "Polygon", "coordinates": [[[-95.7961733, 36.04591], [-95.7962048, 36.0459255], [-95.7962139, 36.0459134], [-95.7961823, 36.0458979], [-95.7961833, 36.0457688], [-95.796324, 36.0457028], [-95.7964612, 36.0457701], [-95.7964608, 36.045829], [-95.7964801, 36.0458291], [-95.7964793, 36.0459289], [-95.7963411, 36.0459924], [-95.7963103, 36.0459773], [-95.7962826, 36.0460141], [-95.7963143, 36.0460297], [-95.7963131, 36.0461626], [-95.796174, 36.0462266], [-95.7960448, 36.0461649], [-95.7960446, 36.0461893], [-95.7959837, 36.046189], [-95.7959839, 36.0461651], [-95.7958526, 36.0462254], [-95.7957135, 36.0461593], [-95.7957137, 36.0460279], [-95.7957584, 36.0460074], [-95.7957326, 36.0459708], [-95.7956519, 36.0459891], [-95.7955264, 36.0458108], [-95.7956022, 36.0457489], [-95.7956371, 36.0457329], [-95.7957474, 36.0457091], [-95.7958499, 36.0458547], [-95.7958643, 36.0458482], [-95.7958645, 36.0458214], [-95.7958519, 36.0458213], [-95.7958533, 36.0456346], [-95.796121, 36.0456359], [-95.7961196, 36.0458226], [-95.7960369, 36.0458222], [-95.7960366, 36.0458569], [-95.7960417, 36.0458569], [-95.7960415, 36.0458758], [-95.7960901, 36.045876], [-95.7960897, 36.045935], [-95.7961198, 36.0459351], [-95.7961733, 36.04591]]]}, "properties": {"osm_id": 1352082732, "building": "school", "name": "Education Service Center", "height": null, "height_m": null, "levels": null, "tract_id": "40143007503", "tract_name": "75.03", "tags": {"addr:city": "Broken Arrow", "addr:housenumber": "509", "addr:postcode": "74012", "addr:street": "West Houston Street", "amenity": "school", "building": "school", "ele": "222", "gnis:feature_id": "1098280", "name": "Education Service Center", "old_name": "South Side School", "operator": "Broken Arrow Public Schools"}}}, {"type": "Feature", "geometry": {"type": "Polygon", "coordinates": [[[-95.7925508, 36.0441233], [-95.7926435, 36.0441229], [-95.792644, 36.0441956], [-95.7925514, 36.044196], [-95.7925508, 36.0441233]]]}, "properties": {"osm_id": 1352082738, "building": "yes", "name": "", "height": null, "height_m": null, "levels": null, "tract_id": "40143007503", "tract_name": "75.03", "tags": {"building": "yes", "fixme": "Verify if this building is still here. Can't quite tell on the new imagery."}}}, {"type": "Feature", "geometry": {"type": "Polygon", "coordinates": [[[-95.7924577, 36.0441595], [-95.7924589, 36.0440636], [-95.7924347, 36.0440634], [-95.7924352, 36.0440246], [-95.7925333, 36.0440253], [-95.7925317, 36.04416], [-95.7924577, 36.0441595]]]}, "properties": {"osm_id": 1352082739, "building": "house", "name": "", "height": null, "height_m": null, "levels": null, "tract_id": "40143007503", "tract_name": "75.03", "tags": {"addr:city": "Broken Arrow", "addr:housenumber": "910", "addr:postcode": "74012", "addr:street": "South Ash Avenue", "building": "house"}}}, {"type": "Feature", "geometry": {"type": "Polygon", "coordinates": [[[-95.791679, 36.0440916], [-95.7917699, 36.0440913], [-95.7917705, 36.0442008], [-95.7917954, 36.0442007], [-95.7917957, 36.0442567], [-95.7917602, 36.0442569], [-95.7917604, 36.0442962], [-95.791708, 36.0442964], [-95.7917078, 36.0442571], [-95.79168, 36.0442572], [-95.791679, 36.0440916]]]}, "properties": {"osm_id": 1352082745, "building": "house", "name": "", "height": null, "height_m": null, "levels": null, "tract_id": "40143007503", "tract_name": "75.03", "tags": {"addr:city": "Broken Arrow", "addr:housenumber": "119", "addr:postcode": "74012", "addr:street": "West Jackson Street", "building": "house"}}}, {"type": "Feature", "geometry": {"type": "Polygon", "coordinates": [[[-95.7914253, 36.0428201], [-95.7912196, 36.0428205], [-95.7912187, 36.0424878], [-95.7914244, 36.0424875], [-95.7914253, 36.0428201]]]}, "properties": {"osm_id": 1352349231, "building": "retail", "name": "Precision Auto Specialists", "height": null, "height_m": null, "levels": null, "tract_id": "40143007503", "tract_name": "75.03", "tags": {"addr:city": "Broken Arrow", "addr:postcode": "74012", "addr:street": "South Main Street", "building": "retail", "name": "Precision Auto Specialists", "phone": "+1 918 259 1738", "shop": "car_repair"}}}, {"type": "Feature", "geometry": {"type": "Polygon", "coordinates": [[[-95.7902496, 36.04255], [-95.7901776, 36.0425503], [-95.7901772, 36.0424807], [-95.7902491, 36.0424804], [-95.7902496, 36.04255]]]}, "properties": {"osm_id": 1352349232, "building": "shed", "name": "", "height": null, "height_m": null, "levels": null, "tract_id": "40143007503", "tract_name": "75.03", "tags": {"building": "shed"}}}, {"type": "Feature", "geometry": {"type": "Polygon", "coordinates": [[[-95.7905375, 36.0425969], [-95.790373, 36.0425975], [-95.7903156, 36.0425978], [-95.7903144, 36.0424033], [-95.7905363, 36.0424024], [-95.7905369, 36.0425061], [-95.7905375, 36.0425969]]]}, "properties": {"osm_id": 1352349233, "building": "commercial", "name": "Broken Arrow Veterans Center", "height": null, "height_m": null, "levels": null, "tract_id": "40143007503", "tract_name": "75.03", "tags": {"addr:city": "Broken Arrow", "addr:housenumber": "1117", "addr:postcode": "74012", "addr:street": "South Main Street", "building": "commercial", "name": "Broken Arrow Veterans Center", "operator": "City of Broken Arrow"}}}]}