{"type": "FeatureCollection", "features": [{"type": "Feature", "geometry": {"type": "Polygon", "coordinates": [[[-95.8622162, 36.1603598], [-95.8619999, 36.1603598], [-95.8619999, 36.1601505], [-95.8622162, 36.1601505], [-95.8622162, 36.1603598]]]}, "properties": {"osm_id": 314084239, "building": "church", "name": "Jesus Center", "height": null, "height_m": null, "levels": null, "tract_id": "40143008900", "tract_name": "89", "tags": {"amenity": "place_of_worship", "building": "church", "name": "Jesus Center", "religion": "christian"}}}, {"type": "Feature", "geometry": {"type": "Polygon", "coordinates": [[[-95.8683662, 36.1490306], [-95.8684734, 36.1490307], [-95.8684715, 36.1499087], [-95.8683643, 36.1499085], [-95.8683662, 36.1490306]]]}, "properties": {"osm_id": 691102695, "building": "yes", "name": "", "height": null, "height_m": null, "levels": null, "tract_id": "40143008900", "tract_name": "89", "tags": {"building": "yes", "shop": "storage_rental"}}}, {"type": "Feature", "geometry": {"type": "Polygon", "coordinates": [[[-95.8682143, 36.1490258], [-95.868304, 36.1490259], [-95.8683021, 36.1499089], [-95.8682124, 36.1499088], [-95.8682143, 36.1490258]]]}, "properties": {"osm_id": 691102696, "building": "yes", "name": "", "height": null, "height_m": null, "levels": null, "tract_id": "40143008900", "tract_name": "89", "tags": {"building": "yes", "shop": "storage_rental"}}}, {"type": "Feature", "geometry": {"type": "Polygon", "coordinates": [[[-95.8680516, 36.1490285], [-95.8681562, 36.1490287], [-95.8681543, 36.1499082], [-95.8680497, 36.1499081], [-95.8680516, 36.1490285]]]}, "properties": {"osm_id": 691102697, "building": "yes", "name": "", "height": null, "height_m": null, "levels": null, "tract_id": "40143008900", "tract_name": "89", "tags": {"building": "yes", "shop": "storage_rental"}}}, {"type": "Feature", "geometry": {"type": "Polygon", "coordinates": [[[-95.8678659, 36.1490298], [-95.8679716, 36.1490297], [-95.8679721, 36.1499078], [-95.8678664, 36.1499079], [-95.8678659, 36.1490298]]]}, "properties": {"osm_id": 691102698, "building": "yes", "name": "", "height": null, "height_m": null, "levels": null, "tract_id": "40143008900", "tract_name": "89", "tags": {"building": "yes", "shop": "storage_rental"}}}, {"type": "Feature", "geometry": {"type": "Polygon", "coordinates": [[[-95.8677321, 36.1490295], [-95.8678018, 36.1490296], [-95.8677999, 36.1499063], [-95.8677303, 36.1499062], [-95.8677321, 36.1490295]]]}, "properties": {"osm_id": 691102699, "building": "yes", "name": "", "height": null, "height_m": null, "levels": null, "tract_id": "40143008900", "tract_name": "89", "tags": {"building": "yes", "shop": "storage_rental"}}}, {"type": "Feature", "geometry": {"type": "Polygon", "coordinates": [[[-95.8675609, 36.1490309], [-95.8676667, 36.1490311], [-95.8676648, 36.1499084], [-95.867559, 36.1499082], [-95.8675609, 36.1490309]]]}, "properties": {"osm_id": 691102700, "building": "yes", "name": "", "height": null, "height_m": null, "levels": null, "tract_id": "40143008900", "tract_name": "89", "tags": {"building": "yes", "shop": "storage_rental"}}}, {"type": "Feature", "geometry": {"type": "Polygon", "coordinates": [[[-95.8678271, 36.1489706], [-95.8675573, 36.1489702], [-95.8675575, 36.1488737], [-95.8678273, 36.148874], [-95.8678271, 36.1489706]]]}, "properties": {"osm_id": 691102701, "building": "yes", "name": "", "height": null, "height_m": null, "levels": null, "tract_id": "40143008900", "tract_name": "89", "tags": {"building": "yes"}}}, {"type": "Feature", "geometry": {"type": "Polygon", "coordinates": [[[-95.8678291, 36.1488255], [-95.8675567, 36.1488251], [-95.8675569, 36.1487259], [-95.8678293, 36.1487263], [-95.8678291, 36.1488255]]]}, "properties": {"osm_id": 691102702, "building": "yes", "name": "", "height": null, "height_m": null, "levels": null, "tract_id": "40143008900", "tract_name": "89", "tags": {"building": "yes"}}}, {"type": "Feature", "geometry": {"type": "Polygon", "coordinates": [[[-95.8678875, 36.1486787], [-95.8675641, 36.1486782], [-95.8675644, 36.1485563], [-95.8676518, 36.1485564], [-95.8676517, 36.148621], [-95.8678877, 36.1486214], [-95.8678875, 36.1486787]]]}, "properties": {"osm_id": 691102703, "building": "warehouse", "name": "", "height": null, "height_m": null, "levels": null, "tract_id": "40143008900", "tract_name": "89", "tags": {"building": "warehouse"}}}, {"type": "Feature", "geometry": {"type": "Polygon", "coordinates": [[[-95.867559, 36.1483874], [-95.8676596, 36.1483875], [-95.8676593, 36.1485564], [-95.8676518, 36.1485564], [-95.8675644, 36.1485563], [-95.8675587, 36.1485563], [-95.867559, 36.1483874]]]}, "properties": {"osm_id": 691102704, "building": "detached", "name": "SecurCare Self Storage", "height": null, "height_m": null, "levels": null, "tract_id": "40143008900", "tract_name": "89", "tags": {"addr:city": "Tulsa", "addr:country": "US", "addr:housenumber": "9727", "addr:postcode": "74128", "addr:state": "OK", "addr:street": "East 11th Street South", "building": "detached", "name": "SecurCare Self Storage", "opening_hours": "Mo-Fr 10:00-13:00,14:00-18:00; Sa 10:00-13:00,14:00-17:00", "shop": "storage_rental", "website": "https://securcareselfstorage.com/self-storage-locations/oklahoma/tulsa-ok-storage-units/9727-east-11th-street"}}}, {"type": "Feature", "geometry": {"type": "Polygon", "coordinates": [[[-95.8674057, 36.1483847], [-95.8674861, 36.1483847], [-95.8674861, 36.1499166], [-95.8674056, 36.1499166], [-95.8674057, 36.1483847]]]}, "properties": {"osm_id": 691102705, "building": "warehouse", "name": "", "height": null, "height_m": null, "levels": null, "tract_id": "40143008900", "tract_name": "89", "tags": {"building": "warehouse"}}}, {"type": "Feature", "geometry": {"type": "Polygon", "coordinates": [[[-95.8683776, 36.148558], [-95.8677533, 36.1485537], [-95.8677551, 36.1483906], [-95.8682911, 36.1483944], [-95.8682912, 36.1483851], [-95.8683501, 36.1483856], [-95.8683498, 36.1484166], [-95.8683791, 36.1484168], [-95.8683776, 36.148558]]]}, "properties": {"osm_id": 691102709, "building": "yes", "name": "", "height": null, "height_m": null, "levels": null, "tract_id": "40143008900", "tract_name": "89", "tags": {"building": "yes"}}}, {"type": "Feature", "geometry": {"type": "Polygon", "coordinates": [[[-95.8523386, 36.1582848], [-95.8527681, 36.1582853], [-95.8527678, 36.1584483], [-95.8523384, 36.1584478], [-95.8523386, 36.1582848]]]}, "properties": {"osm_id": 715682260, "building": "industrial", "name": "", "height": null, "height_m": null, "levels": null, "tract_id": "40143008900", "tract_name": "89", "tags": {"addr:city": "Tulsa", "addr:country": "US", "addr:housenumber": "107", "addr:postcode": "74128", "addr:state": "OK", "addr:street": "South 111th Avenue East", "building": "industrial", "shop": "yes"}}}, {"type": "Feature", "geometry": {"type": "Polygon", "coordinates": [[[-95.8522622, 36.1582989], [-95.852262, 36.1584387], [-95.8521616, 36.1584386], [-95.8521619, 36.1582988], [-95.8522622, 36.1582989]]]}, "properties": {"osm_id": 715682261, "building": "yes", "name": "", "height": null, "height_m": null, "levels": null, "tract_id": "40143008900", "tract_name": "89", "tags": {"building": "yes"}}}, {"type": "Feature", "geometry": {"type": "Polygon", "coordinates": [[[-95.8522381, 36.158183], [-95.852238, 36.1582611], [-95.8521536, 36.158261], [-95.8521537, 36.1581829], [-95.8522381, 36.158183]]]}, "properties": {"osm_id": 715682262, "building": "yes", "name": "", "height": null, "height_m": null, "levels": null, "tract_id": "40143008900", "tract_name": "89", "tags": {"building": "yes"}}}, {"type": "Feature", "geometry": {"type": "Polygon", "coordinates": [[[-95.8523561, 36.1578539], [-95.8523557, 36.1581237], [-95.8521845, 36.1581235], [-95.8521849, 36.1578537], [-95.8523561, 36.1578539]]]}, "properties": {"osm_id": 715682263, "building": "industrial", "name": "", "height": null, "height_m": null, "levels": null, "tract_id": "40143008900", "tract_name": "89", "tags": {"addr:city": "Tulsa", "addr:country": "US", "addr:housenumber": "107", "addr:postcode": "74128", "addr:state": "OK", "addr:street": "South 111th Avenue East", "building": "industrial", "shop": "yes"}}}, {"type": "Feature", "geometry": {"type": "Polygon", "coordinates": [[[-95.8528655, 36.1571223], [-95.8528899, 36.1577185], [-95.8516918, 36.1577318], [-95.8516924, 36.1573915], [-95.8520235, 36.1573919], [-95.8520236, 36.1573491], [-95.8521415, 36.1573493], [-95.8521415, 36.157392], [-95.8525707, 36.1573911], [-95.8525597, 36.157123], [-95.8528655, 36.1571223]]]}, "properties": {"osm_id": 715682264, "building": "industrial", "name": "Pancho Anaya Artisan Bakery", "height": null, "height_m": null, "levels": null, "tract_id": "40143008900", "tract_name": "89", "tags": {"addr:city": "Tulsa", "addr:country": "US", "addr:housenumber": "212", "addr:postcode": "74128", "addr:state": "OK", "addr:street": "South Garnett Road East", "building": "industrial", "man_made": "works", "name": "Pancho Anaya Artisan Bakery", "product": "bakery_products"}}}, {"type": "Feature", "geometry": {"type": "Polygon", "coordinates": [[[-95.8538573, 36.1578741], [-95.853857, 36.1580414], [-95.8533732, 36.1580408], [-95.8533735, 36.1578735], [-95.8537796, 36.157874], [-95.8537798, 36.1577929], [-95.853848, 36.157793], [-95.8538478, 36.1578741], [-95.8538573, 36.1578741]]]}, "properties": {"osm_id": 715682265, "building": "industrial", "name": "", "height": null, "height_m": null, "levels": null, "tract_id": "40143008900", "tract_name": "89", "tags": {"addr:city": "Tulsa", "addr:country": "US", "addr:housenumber": "108", "addr:postcode": "74128", "addr:state": "OK", "addr:street": "South 111th Avenue East", "building": "industrial", "shop": "yes"}}}, {"type": "Feature", "geometry": {"type": "Polygon", "coordinates": [[[-95.854645, 36.1578705], [-95.8546447, 36.1580076], [-95.854067, 36.1580069], [-95.8540672, 36.1578698], [-95.854645, 36.1578705]]]}, "properties": {"osm_id": 715682266, "building": "yes", "name": "", "height": null, "height_m": null, "levels": null, "tract_id": "40143008900", "tract_name": "89", "tags": {"building": "yes"}}}, {"type": "Feature", "geometry": {"type": "Polygon", "coordinates": [[[-95.8546513, 36.1581686], [-95.8546511, 36.1583024], [-95.8540679, 36.1583017], [-95.8540681, 36.1581679], [-95.8546513, 36.1581686]]]}, "properties": {"osm_id": 715682267, "building": "yes", "name": "", "height": null, "height_m": null, "levels": null, "tract_id": "40143008900", "tract_name": "89", "tags": {"building": "yes"}}}, {"type": "Feature", "geometry": {"type": "Polygon", "coordinates": [[[-95.8538729, 36.1583563], [-95.8538726, 36.1585216], [-95.8532506, 36.1585209], [-95.8532509, 36.1583556], [-95.8538729, 36.1583563]]]}, "properties": {"osm_id": 715682268, "building": "industrial", "name": "", "height": null, "height_m": null, "levels": null, "tract_id": "40143008900", "tract_name": "89", "tags": {"addr:city": "Tulsa", "addr:country": "US", "addr:housenumber": "104", "addr:postcode": "74128", "addr:state": "OK", "addr:street": "South 111th Avenue East", "building": "industrial", "shop": "yes"}}}, {"type": "Feature", "geometry": {"type": "Polygon", "coordinates": [[[-95.854652, 36.158569], [-95.8540959, 36.1585659], [-95.8540939, 36.1584378], [-95.8546523, 36.1584321], [-95.854652, 36.158569]]]}, "properties": {"osm_id": 715682269, "building": "yes", "name": "", "height": null, "height_m": null, "levels": null, "tract_id": "40143008900", "tract_name": "89", "tags": {"building": "yes"}}}, {"type": "Feature", "geometry": {"type": "Polygon", "coordinates": [[[-95.8540613, 36.1586498], [-95.8546248, 36.1586505], [-95.8546246, 36.1587754], [-95.8540611, 36.1587748], [-95.8540613, 36.1586498]]]}, "properties": {"osm_id": 715682270, "building": "yes", "name": "", "height": null, "height_m": null, "levels": null, "tract_id": "40143008900", "tract_name": "89", "tags": {"building": "yes"}}}, {"type": "Feature", "geometry": {"type": "Polygon", "coordinates": [[[-95.8537669, 36.1588392], [-95.8532503, 36.1588386], [-95.8532506, 36.1587017], [-95.8537671, 36.1587023], [-95.8537669, 36.1588392]]]}, "properties": {"osm_id": 715682271, "building": "industrial", "name": "", "height": null, "height_m": null, "levels": null, "tract_id": "40143008900", "tract_name": "89", "tags": {"addr:city": "Tulsa", "addr:country": "US", "addr:housenumber": "102", "addr:postcode": "74128", "addr:state": "OK", "addr:street": "South 111th Avenue East", "building": "industrial", "shop": "yes"}}}, {"type": "Feature", "geometry": {"type": "Polygon", "coordinates": [[[-95.8536945, 36.1590114], [-95.8532826, 36.1590109], [-95.8532828, 36.158901], [-95.8536947, 36.1589014], [-95.8536945, 36.1590114]]]}, "properties": {"osm_id": 715682272, "building": "industrial", "name": "", "height": null, "height_m": null, "levels": null, "tract_id": "40143008900", "tract_name": "89", "tags": {"addr:city": "Tulsa", "addr:country": "US", "addr:housenumber": "12", "addr:postcode": "74128", "addr:state": "OK", "addr:street": "South 111th Avenue East", "building": "industrial", "shop": "yes"}}}, {"type": "Feature", "geometry": {"type": "Polygon", "coordinates": [[[-95.8537455, 36.1592117], [-95.8534047, 36.1592113], [-95.8534048, 36.1591012], [-95.8537457, 36.1591016], [-95.8537455, 36.1592117]]]}, "properties": {"osm_id": 715682273, "building": "industrial", "name": "", "height": null, "height_m": null, "levels": null, "tract_id": "40143008900", "tract_name": "89", "tags": {"addr:city": "Tulsa", "addr:country": "US", "addr:housenumber": "10", "addr:postcode": "74128", "addr:state": "OK", "addr:street": "South 111th Avenue East", "building": "industrial", "shop": "yes"}}}, {"type": "Feature", "geometry": {"type": "Polygon", "coordinates": [[[-95.8537509, 36.159386], [-95.8535146, 36.1593858], [-95.8535148, 36.159238], [-95.8537512, 36.1592383], [-95.8539789, 36.1592386], [-95.8539785, 36.1594869], [-95.8537507, 36.1594866], [-95.8537509, 36.159386]]]}, "properties": {"osm_id": 715682274, "building": "industrial", "name": "", "height": null, "height_m": null, "levels": null, "tract_id": "40143008900", "tract_name": "89", "tags": {"addr:city": "Tulsa", "addr:country": "US", "addr:housenumber": "8", "addr:postcode": "74128", "addr:state": "OK", "addr:street": "South 111th Avenue East", "building": "industrial", "shop": "yes"}}}, {"type": "Feature", "geometry": {"type": "Polygon", "coordinates": [[[-95.8542364, 36.1593914], [-95.854102, 36.1593913], [-95.8541022, 36.1591889], [-95.8542366, 36.159189], [-95.8542365, 36.159298], [-95.8542364, 36.1593914]]]}, "properties": {"osm_id": 715682276, "building": "yes", "name": "", "height": null, "height_m": null, "levels": null, "tract_id": "40143008900", "tract_name": "89", "tags": {"building": "yes"}}}, {"type": "Feature", "geometry": {"type": "Polygon", "coordinates": [[[-95.854325, 36.159298], [-95.8543248, 36.1594066], [-95.8543248, 36.1594326], [-95.8542363, 36.1594326], [-95.8542364, 36.1593914], [-95.8542365, 36.159298], [-95.854325, 36.159298]]]}, "properties": {"osm_id": 715682277, "building": "yes", "name": "", "height": null, "height_m": null, "levels": null, "tract_id": "40143008900", "tract_name": "89", "tags": {"building": "yes"}}}, {"type": "Feature", "geometry": {"type": "Polygon", "coordinates": [[[-95.8546668, 36.1592983], [-95.8546667, 36.1594068], [-95.8543248, 36.1594066], [-95.854325, 36.159298], [-95.8546668, 36.1592983]]]}, "properties": {"osm_id": 715682278, "building": "yes", "name": "", "height": null, "height_m": null, "levels": null, "tract_id": "40143008900", "tract_name": "89", "tags": {"building": "yes"}}}, {"type": "Feature", "geometry": {"type": "Polygon", "coordinates": [[[-95.8546051, 36.1594466], [-95.8546049, 36.1596612], [-95.8543798, 36.159661], [-95.8543801, 36.1594465], [-95.8546051, 36.1594466]]]}, "properties": {"osm_id": 715682279, "building": "yes", "name": "", "height": null, "height_m": null, "levels": null, "tract_id": "40143008900", "tract_name": "89", "tags": {"building": "yes"}}}, {"type": "Feature", "geometry": {"type": "Polygon", "coordinates": [[[-95.8543529, 36.1598495], [-95.8543528, 36.1599579], [-95.8542108, 36.1599578], [-95.8542109, 36.1598494], [-95.8543529, 36.1598495]]]}, "properties": {"osm_id": 715682280, "building": "yes", "name": "", "height": null, "height_m": null, "levels": null, "tract_id": "40143008900", "tract_name": "89", "tags": {"building": "yes"}}}, {"type": "Feature", "geometry": {"type": "Polygon", "coordinates": [[[-95.8538488, 36.1598007], [-95.8538486, 36.1599417], [-95.8534961, 36.1599415], [-95.8534962, 36.1598005], [-95.8538488, 36.1598007]]]}, "properties": {"osm_id": 715682281, "building": "industrial", "name": "", "height": null, "height_m": null, "levels": null, "tract_id": "40143008900", "tract_name": "89", "tags": {"addr:city": "Tulsa", "addr:country": "US", "addr:housenumber": "4", "addr:postcode": "74128", "addr:state": "OK", "addr:street": "South 111th Avenue East", "building": "industrial", "shop": "yes"}}}, {"type": "Feature", "geometry": {"type": "Polygon", "coordinates": [[[-95.8524516, 36.1595593], [-95.8524514, 36.1597627], [-95.8524512, 36.1599404], [-95.852305, 36.1599403], [-95.852305, 36.1599394], [-95.8519616, 36.1599392], [-95.851962, 36.159623], [-95.8523053, 36.1596233], [-95.8523054, 36.1595592], [-95.8524516, 36.1595593]]]}, "properties": {"osm_id": 715682282, "building": "yes", "name": "", "height": null, "height_m": null, "levels": null, "tract_id": "40143008900", "tract_name": "89", "tags": {"building": "yes"}}}, {"type": "Feature", "geometry": {"type": "Polygon", "coordinates": [[[-95.8529328, 36.1597616], [-95.8531729, 36.1597618], [-95.8531727, 36.1599517], [-95.8529326, 36.1599516], [-95.8529328, 36.1597616]]]}, "properties": {"osm_id": 715682283, "building": "yes", "name": "", "height": null, "height_m": null, "levels": null, "tract_id": "40143008900", "tract_name": "89", "tags": {"building": "yes"}}}, {"type": "Feature", "geometry": {"type": "Polygon", "coordinates": [[[-95.8526808, 36.1595927], [-95.852933, 36.1595929], [-95.8529328, 36.1597616], [-95.8529326, 36.1599516], [-95.8526805, 36.1599514], [-95.8526807, 36.1597629], [-95.8526808, 36.1595927]]]}, "properties": {"osm_id": 715682284, "building": "yes", "name": "", "height": null, "height_m": null, "levels": null, "tract_id": "40143008900", "tract_name": "89", "tags": {"building": "yes"}}}, {"type": "Feature", "geometry": {"type": "Polygon", "coordinates": [[[-95.8524514, 36.1597627], [-95.8526807, 36.1597629], [-95.8526805, 36.1599514], [-95.8524512, 36.1599512], [-95.8524512, 36.1599404], [-95.8524514, 36.1597627]]]}, "properties": {"osm_id": 715682285, "building": "yes", "name": "", "height": null, "height_m": null, "levels": null, "tract_id": "40143008900", "tract_name": "89", "tags": {"building": "yes"}}}, {"type": "Feature", "geometry": {"type": "Polygon", "coordinates": [[[-95.8522367, 36.1593893], [-95.8516882, 36.1593893], [-95.8516882, 36.1591792], [-95.8522367, 36.1591792], [-95.8522367, 36.1593893]]]}, "properties": {"osm_id": 715682286, "building": "yes", "name": "", "height": null, "height_m": null, "levels": null, "tract_id": "40143008900", "tract_name": "89", "tags": {"addr:city": "Tulsa", "addr:country": "US", "addr:housenumber": "40", "addr:postcode": "74128", "addr:state": "OK", "addr:street": "South Garnett Road East", "building": "yes"}}}, {"type": "Feature", "geometry": {"type": "Polygon", "coordinates": [[[-95.8642866, 36.1498602], [-95.8636777, 36.1498602], [-95.8636777, 36.1496739], [-95.8642866, 36.1496739], [-95.8642866, 36.1498602]]]}, "properties": {"osm_id": 715682323, "building": "yes", "name": "", "height": null, "height_m": null, "levels": null, "tract_id": "40143008900", "tract_name": "89", "tags": {"brand": "closed", "building": "yes", "tourism": "motel"}}}, {"type": "Feature", "geometry": {"type": "Polygon", "coordinates": [[[-95.8623903, 36.1489977], [-95.8623916, 36.1492532], [-95.8622732, 36.1493478], [-95.8621998, 36.1494065], [-95.8622025, 36.1494704], [-95.8619531, 36.1494698], [-95.8619549, 36.1491357], [-95.8619557, 36.1489993], [-95.8623903, 36.1489977]]]}, "properties": {"osm_id": 715682326, "building": "yes", "name": "", "height": null, "height_m": null, "levels": null, "tract_id": "40143008900", "tract_name": "89", "tags": {"addr:city": "Tulsa", "addr:housenumber": "10159", "addr:postcode": "74128", "addr:state": "OK", "addr:street": "East 11th Street South", "building": "yes"}}}, {"type": "Feature", "geometry": {"type": "Polygon", "coordinates": [[[-95.8662003, 36.1498894], [-95.866203, 36.1495375], [-95.8663237, 36.1495381], [-95.8663241, 36.1494919], [-95.8664354, 36.1494924], [-95.866435, 36.1495387], [-95.8665557, 36.1495393], [-95.866553, 36.1498912], [-95.8662003, 36.1498894]]]}, "properties": {"osm_id": 744788165, "building": "yes", "name": "God's Shining Light", "height": null, "height_m": null, "levels": null, "tract_id": "40143008900", "tract_name": "89", "tags": {"amenity": "place_of_worship", "building": "yes", "name": "God's Shining Light", "religion": "christian"}}}, {"type": "Feature", "geometry": {"type": "Polygon", "coordinates": [[[-95.8684508, 36.1487171], [-95.8684236, 36.148716], [-95.8684225, 36.1487325], [-95.868374, 36.1487304], [-95.868375, 36.1487139], [-95.8683469, 36.1487128], [-95.8683504, 36.1486576], [-95.8684543, 36.1486619], [-95.8684508, 36.1487171]]]}, "properties": {"osm_id": 746716658, "building": "yes", "name": "", "height": null, "height_m": null, "levels": null, "tract_id": "40143008900", "tract_name": "89", "tags": {"building": "yes"}}}, {"type": "Feature", "geometry": {"type": "Polygon", "coordinates": [[[-95.8681288, 36.1488428], [-95.8683454, 36.1488477], [-95.8683426, 36.1489286], [-95.868126, 36.1489237], [-95.8681288, 36.1488428]]]}, "properties": {"osm_id": 746716659, "building": "yes", "name": "", "height": null, "height_m": null, "levels": null, "tract_id": "40143008900", "tract_name": "89", "tags": {"building": "yes"}}}, {"type": "Feature", "geometry": {"type": "Polygon", "coordinates": [[[-95.8669223, 36.1518771], [-95.8668742, 36.1518771], [-95.8668742, 36.1517526], [-95.8669802, 36.1517526], [-95.8669802, 36.1518138], [-95.8670492, 36.1518138], [-95.8670492, 36.1518858], [-95.8669674, 36.1518858], [-95.8669674, 36.1518797], [-95.8669223, 36.1518797], [-95.8669223, 36.1518771]]]}, "properties": {"osm_id": 746716660, "building": "yes", "name": "", "height": null, "height_m": null, "levels": null, "tract_id": "40143008900", "tract_name": "89", "tags": {"building": "yes"}}}, {"type": "Feature", "geometry": {"type": "Polygon", "coordinates": [[[-95.8670948, 36.1518874], [-95.8670948, 36.1517477], [-95.8671901, 36.1517477], [-95.8671901, 36.1517807], [-95.867239, 36.1517807], [-95.867239, 36.1518062], [-95.8672752, 36.1518062], [-95.8672752, 36.1518874], [-95.8672645, 36.1518874], [-95.8672645, 36.1519356], [-95.8671958, 36.1519356], [-95.8671958, 36.1518874], [-95.8671901, 36.1518874], [-95.8671552, 36.1518874], [-95.8670948, 36.1518874]]]}, "properties": {"osm_id": 746716661, "building": "yes", "name": "", "height": null, "height_m": null, "levels": null, "tract_id": "40143008900", "tract_name": "89", "tags": {"building": "yes"}}}, {"type": "Feature", "geometry": {"type": "Polygon", "coordinates": [[[-95.8673054, 36.1518869], [-95.8673054, 36.1517721], [-95.8673141, 36.1517721], [-95.8673141, 36.1517114], [-95.8673429, 36.1517114], [-95.8673429, 36.151706], [-95.867416, 36.151706], [-95.867416, 36.1517434], [-95.8674851, 36.1517434], [-95.8674851, 36.1518192], [-95.867404, 36.1518192], [-95.867404, 36.1518869], [-95.8673054, 36.1518869]]]}, "properties": {"osm_id": 746716662, "building": "yes", "name": "", "height": null, "height_m": null, "levels": null, "tract_id": "40143008900", "tract_name": "89", "tags": {"building": "yes"}}}, {"type": "Feature", "geometry": {"type": "Polygon", "coordinates": [[[-95.867701, 36.1518869], [-95.8676229, 36.1518869], [-95.8676229, 36.1518828], [-95.8675683, 36.1518828], [-95.8675683, 36.1518701], [-95.867528, 36.1518701], [-95.867528, 36.1517591], [-95.8676346, 36.1517591], [-95.8676346, 36.151804], [-95.867701, 36.151804], [-95.867701, 36.1518869]]]}, "properties": {"osm_id": 746716663, "building": "yes", "name": "", "height": null, "height_m": null, "levels": null, "tract_id": "40143008900", "tract_name": "89", "tags": {"building": "yes"}}}, {"type": "Feature", "geometry": {"type": "Polygon", "coordinates": [[[-95.8677399, 36.1518836], [-95.8677399, 36.1517174], [-95.8678385, 36.1517174], [-95.8678385, 36.1517499], [-95.867925, 36.1517499], [-95.867925, 36.1518278], [-95.8678385, 36.1518278], [-95.8678385, 36.1518836], [-95.8677399, 36.1518836]]]}, "properties": {"osm_id": 746716664, "building": "yes", "name": "", "height": null, "height_m": null, "levels": null, "tract_id": "40143008900", "tract_name": "89", "tags": {"building": "yes"}}}, {"type": "Feature", "geometry": {"type": "Polygon", "coordinates": [[[-95.8681449, 36.1518841], [-95.8680591, 36.1518841], [-95.8680591, 36.151811], [-95.8679599, 36.151811], [-95.8679599, 36.1517396], [-95.8681449, 36.1517396], [-95.8681449, 36.1518841]]]}, "properties": {"osm_id": 746716665, "building": "yes", "name": "", "height": null, "height_m": null, "levels": null, "tract_id": "40143008900", "tract_name": "89", "tags": {"building": "yes"}}}, {"type": "Feature", "geometry": {"type": "Polygon", "coordinates": [[[-95.8682884, 36.151752], [-95.8682884, 36.1517639], [-95.8683173, 36.1517639], [-95.8683173, 36.151817], [-95.8683602, 36.151817], [-95.8683602, 36.1518847], [-95.86828, 36.1518847], [-95.86828, 36.1518817], [-95.868223, 36.1518817], [-95.868223, 36.1518703], [-95.8681852, 36.1518703], [-95.8681852, 36.1518376], [-95.8681852, 36.151817], [-95.8681852, 36.151752], [-95.8682884, 36.151752]]]}, "properties": {"osm_id": 746716666, "building": "yes", "name": "", "height": null, "height_m": null, "levels": null, "tract_id": "40143008900", "tract_name": "89", "tags": {"building": "yes"}}}, {"type": "Feature", "geometry": {"type": "Polygon", "coordinates": [[[-95.8685278, 36.1518831], [-95.8684614, 36.1518831], [-95.8684614, 36.1518739], [-95.868385, 36.1518739], [-95.868385, 36.1517916], [-95.8684896, 36.1517916], [-95.8684896, 36.1517699], [-95.8685379, 36.1517699], [-95.8685379, 36.1517916], [-95.868566, 36.1517916], [-95.868566, 36.1518739], [-95.8685278, 36.1518739], [-95.8685278, 36.1518831]]]}, "properties": {"osm_id": 746716667, "building": "yes", "name": "", "height": null, "height_m": null, "levels": null, "tract_id": "40143008900", "tract_name": "89", "tags": {"building": "yes"}}}, {"type": "Feature", "geometry": {"type": "Polygon", "coordinates": [[[-95.8680185, 36.1515717], [-95.8680185, 36.151376], [-95.8680601, 36.151376], [-95.8680601, 36.1512864], [-95.8682579, 36.1512864], [-95.8682579, 36.151392], [-95.8681506, 36.151392], [-95.8681506, 36.1515717], [-95.8680185, 36.1515717]]]}, "properties": {"osm_id": 746716669, "building": "yes", "name": "", "height": null, "height_m": null, "levels": null, "tract_id": "40143008900", "tract_name": "89", "tags": {"building": "yes"}}}, {"type": "Feature", "geometry": {"type": "Polygon", "coordinates": [[[-95.8679283, 36.1487851], [-95.8679819, 36.1487856], [-95.8679814, 36.1488247], [-95.8680013, 36.1488248], [-95.8680008, 36.1488638], [-95.8679808, 36.1488637], [-95.8679805, 36.1488893], [-95.867927, 36.1488888], [-95.8679283, 36.1487851]]]}, "properties": {"osm_id": 746717022, "building": "yes", "name": "", "height": null, "height_m": null, "levels": null, "tract_id": "40143008900", "tract_name": "89", "tags": {"building": "yes"}}}, {"type": "Feature", "geometry": {"type": "Polygon", "coordinates": [[[-95.866484, 36.1500665], [-95.8665906, 36.1500681], [-95.8665895, 36.1501169], [-95.8664828, 36.1501153], [-95.866484, 36.1500665]]]}, "properties": {"osm_id": 746743909, "building": "yes", "name": "", "height": null, "height_m": null, "levels": null, "tract_id": "40143008900", "tract_name": "89", "tags": {"building": "yes"}}}, {"type": "Feature", "geometry": {"type": "Polygon", "coordinates": [[[-95.8668727, 36.1501748], [-95.8667411, 36.1501778], [-95.8667404, 36.1501554], [-95.8668719, 36.1501524], [-95.8668727, 36.1501748]]]}, "properties": {"osm_id": 789683246, "building": "yes", "name": "", "height": null, "height_m": null, "levels": null, "tract_id": "40143008900", "tract_name": "89", "tags": {"building": "yes"}}}, {"type": "Feature", "geometry": {"type": "Polygon", "coordinates": [[[-95.8679853, 36.148754], [-95.867921, 36.148774], [-95.8679075, 36.1487457], [-95.8679718, 36.1487257], [-95.8679853, 36.148754]]]}, "properties": {"osm_id": 789683247, "building": "yes", "name": "", "height": null, "height_m": null, "levels": null, "tract_id": "40143008900", "tract_name": "89", "tags": {"building": "yes"}}}, {"type": "Feature", "geometry": {"type": "Polygon", "coordinates": [[[-95.8514797, 36.1483536], [-95.8514555, 36.1485788], [-95.8514609, 36.1487867], [-95.8515105, 36.1487867], [-95.8515092, 36.1487315], [-95.8515789, 36.1487315], [-95.8515829, 36.1487824], [-95.8516325, 36.1487824], [-95.8516299, 36.1485712], [-95.8516084, 36.1483525], [-95.8515601, 36.1483557], [-95.8515735, 36.1484878], [-95.8515105, 36.1484889], [-95.8515252, 36.1483546], [-95.8514797, 36.1483536]]]}, "properties": {"osm_id": 819628629, "building": "yes", "name": "Sonic", "height": null, "height_m": null, "levels": null, "tract_id": "40143008900", "tract_name": "89", "tags": {"addr:city": "Tulsa", "addr:country": "US", "addr:housenumber": "11231", "addr:postcode": "74128", "addr:state": "OK", "addr:street": "East 11th Street South", "amenity": "fast_food", "brand": "Sonic", "brand:wikidata": "Q7561808", "building": "yes", "cuisine": "burger", "drive_in": "yes", "name": "Sonic", "opening_hours": "Mo-Sa 06:00-23:00; Su 07:00-23:00", "takeaway": "yes", "website": "https://locations.sonicdrivein.com/ok/tulsa/11231-e.-11th-street-s..html"}}}, {"type": "Feature", "geometry": {"type": "Polygon", "coordinates": [[[-95.8546809, 36.1497473], [-95.8550161, 36.1497105], [-95.854941, 36.1492437], [-95.8546849, 36.1492665], [-95.854705, 36.1494083], [-95.8546232, 36.1494191], [-95.8546809, 36.1497473]]]}, "properties": {"osm_id": 822320632, "building": "yes", "name": "", "height": null, "height_m": null, "levels": null, "tract_id": "40143008900", "tract_name": "89", "tags": {"building": "yes"}}}, {"type": "Feature", "geometry": {"type": "Polygon", "coordinates": [[[-95.8535584, 36.1499725], [-95.8535543, 36.1498577], [-95.853891, 36.1498523], [-95.853891, 36.149966], [-95.8535584, 36.1499725]]]}, "properties": {"osm_id": 822320633, "building": "yes", "name": "", "height": null, "height_m": null, "levels": null, "tract_id": "40143008900", "tract_name": "89", "tags": {"building": "yes"}}}, {"type": "Feature", "geometry": {"type": "Polygon", "coordinates": [[[-95.8558436, 36.1484543], [-95.8560153, 36.1484488], [-95.8560126, 36.1483828], [-95.8558436, 36.148386], [-95.8558436, 36.1484543]]]}, "properties": {"osm_id": 822320636, "building": "commercial", "name": "Diaz Auto Sales", "height": null, "height_m": null, "levels": null, "tract_id": "40143008900", "tract_name": "89", "tags": {"building": "commercial", "name": "Diaz Auto Sales"}}}, {"type": "Feature", "geometry": {"type": "Polygon", "coordinates": [[[-95.8562607, 36.1485615], [-95.856258, 36.1483395], [-95.8567073, 36.1483362], [-95.8567073, 36.1485571], [-95.8562607, 36.1485615]]]}, "properties": {"osm_id": 822320645, "building": "commercial", "name": "Whatever It Takes Transmission Parts", "height": null, "height_m": null, "levels": null, "tract_id": "40143008900", "tract_name": "89", "tags": {"addr:city": "Tulsa", "addr:country": "US", "addr:housenumber": "10877", "addr:state": "OK", "addr:street": "East 11th Street South", "building": "commercial", "name": "Whatever It Takes Transmission Parts", "phone": "+1 918 437 6444", "website": "https://www.wittrans.com/"}}}, {"type": "Feature", "geometry": {"type": "Polygon", "coordinates": [[[-95.8568441, 36.1483081], [-95.8572531, 36.148307], [-95.8572464, 36.1484369], [-95.8571941, 36.1484369], [-95.8571941, 36.1487477], [-95.8569004, 36.1487467], [-95.8569044, 36.1484359], [-95.8568454, 36.1484359], [-95.8568441, 36.1483081]]]}, "properties": {"osm_id": 822320648, "building": "yes", "name": "Saint Francis Xavier Clinic", "height": null, "height_m": null, "levels": null, "tract_id": "40143008900", "tract_name": "89", "tags": {"amenity": "clinic", "building": "yes", "healthcare": "clinic", "name": "Saint Francis Xavier Clinic", "website": "https://www.saintfrancis.com/location/xavier-medical-clinic"}}}, {"type": "Feature", "geometry": {"type": "Polygon", "coordinates": [[[-95.8573309, 36.1485766], [-95.8573295, 36.1483687], [-95.8577895, 36.1483655], [-95.8577895, 36.1484488], [-95.8577547, 36.1484488], [-95.857756, 36.1485734], [-95.8573309, 36.1485766]]]}, "properties": {"osm_id": 822320656, "building": "industrial", "name": "David's Custom Wheels", "height": null, "height_m": null, "levels": null, "tract_id": "40143008900", "tract_name": "89", "tags": {"building": "industrial", "name": "David's Custom Wheels", "shop": "tyres"}}}, {"type": "Feature", "geometry": {"type": "Polygon", "coordinates": [[[-95.8580441, 36.1484688], [-95.8580433, 36.1482647], [-95.8584094, 36.1482638], [-95.8584102, 36.1484679], [-95.8580441, 36.1484688]]]}, "properties": {"osm_id": 822320662, "building": "industrial", "name": "Hotel Furniture Liquidation", "height": null, "height_m": null, "levels": null, "tract_id": "40143008900", "tract_name": "89", "tags": {"building": "industrial", "name": "Hotel Furniture Liquidation", "shop": "furniture"}}}, {"type": "Feature", "geometry": {"type": "Polygon", "coordinates": [[[-95.8620797, 36.1507116], [-95.862297, 36.1504712], [-95.8623024, 36.1503629], [-95.8625089, 36.1501377], [-95.8628469, 36.1503391], [-95.8627208, 36.1504799], [-95.8628603, 36.1505622], [-95.8625035, 36.1509607], [-95.8620797, 36.1507116]]]}, "properties": {"osm_id": 822325959, "building": "yes", "name": "American Red Cross", "height": null, "height_m": null, "levels": null, "tract_id": "40143008900", "tract_name": "89", "tags": {"building": "yes", "name": "American Red Cross", "office": "yes"}}}, {"type": "Feature", "geometry": {"type": "Polygon", "coordinates": [[[-95.8628884, 36.1484434], [-95.8628857, 36.1485441], [-95.8629018, 36.1485441], [-95.8629018, 36.1486329], [-95.8629461, 36.148634], [-95.8630346, 36.1486676], [-95.8630601, 36.1486687], [-95.8631446, 36.1486351], [-95.8631915, 36.1486362], [-95.8631955, 36.1484683], [-95.8630359, 36.1484683], [-95.8630346, 36.1484868], [-95.8629877, 36.1484857], [-95.8629877, 36.1484456], [-95.8628884, 36.1484434]]]}, "properties": {"osm_id": 822325971, "building": "yes", "name": "Bank of America", "height": null, "height_m": null, "levels": null, "tract_id": "40143008900", "tract_name": "89", "tags": {"amenity": "bank", "brand": "Bank of America", "brand:wikidata": "Q487907", "building": "yes", "name": "Bank of America", "opening_hours": "Tu-Fr 10:00-16:00", "phone": "+1 918 835 6173", "website": "https://locators.bankofamerica.com/ok/tulsa/financial-centers-tulsa-7418.html"}}}, {"type": "Feature", "geometry": {"type": "Polygon", "coordinates": [[[-95.8628348, 36.1488355], [-95.8628361, 36.1487575], [-95.8630338, 36.1487558], [-95.8630338, 36.1487187], [-95.8630346, 36.1486676], [-95.8630601, 36.1486687], [-95.8630601, 36.1487183], [-95.8630601, 36.1487575], [-95.8630827, 36.148758], [-95.8632532, 36.1487618], [-95.8632519, 36.1488344], [-95.863048, 36.1488349], [-95.8628348, 36.1488355]]]}, "properties": {"osm_id": 822325972, "building": "roof", "name": "", "height": null, "height_m": null, "levels": null, "tract_id": "40143008900", "tract_name": "89", "tags": {"building": "roof", "layer": "1"}}}, {"type": "Feature", "geometry": {"type": "Polygon", "coordinates": [[[-95.8637266, 36.1486698], [-95.8638151, 36.1486687], [-95.8638151, 36.148568], [-95.8638875, 36.1485691], [-95.8638889, 36.1485994], [-95.8639533, 36.1485972], [-95.8639546, 36.1485701], [-95.8639774, 36.1485701], [-95.8639774, 36.1485452], [-95.8641866, 36.1485409], [-95.8641866, 36.148438], [-95.864074, 36.148438], [-95.864074, 36.1484109], [-95.863728, 36.1484099], [-95.8637266, 36.1486698]]]}, "properties": {"osm_id": 822330336, "building": "yes", "name": "He's Not Here", "height": null, "height_m": null, "levels": null, "tract_id": "40143008900", "tract_name": "89", "tags": {"amenity": "bar", "building": "yes", "disused:amenity": "restaurant", "name": "He's Not Here"}}}, {"type": "Feature", "geometry": {"type": "Polygon", "coordinates": [[[-95.8641611, 36.1486286], [-95.8643851, 36.1486286], [-95.8643851, 36.1495036], [-95.8640069, 36.1495004], [-95.8640082, 36.1495426], [-95.863968, 36.1495426], [-95.863968, 36.1495015], [-95.8635764, 36.1495025], [-95.8635751, 36.1487423], [-95.8638004, 36.1487445], [-95.8638124, 36.149313], [-95.8641571, 36.1493163], [-95.8641611, 36.1486286]]]}, "properties": {"osm_id": 822330337, "building": "yes", "name": "Americas Best Value Inn", "height": null, "height_m": null, "levels": null, "tract_id": "40143008900", "tract_name": "89", "tags": {"brand": "Americas Best Value Inn", "brand:wikidata": "Q4742512", "building": "yes", "name": "Americas Best Value Inn", "tourism": "motel"}}}, {"type": "Feature", "geometry": {"type": "Polygon", "coordinates": [[[-95.8648599, 36.1484878], [-95.8648612, 36.148399], [-95.8649376, 36.1484001], [-95.8649376, 36.1484099], [-95.8650422, 36.148412], [-95.8650436, 36.1484868], [-95.8648599, 36.1484878]]]}, "properties": {"osm_id": 822330353, "building": "yes", "name": "MJ Auto Repair", "height": null, "height_m": null, "levels": null, "tract_id": "40143008900", "tract_name": "89", "tags": {"building": "yes", "name": "MJ Auto Repair", "shop": "car_repair"}}}, {"type": "Feature", "geometry": {"type": "Polygon", "coordinates": [[[-95.8634144, 36.1512151], [-95.8634078, 36.1506793], [-95.8632811, 36.1506803], [-95.8632879, 36.1512161], [-95.8634144, 36.1512151]]]}, "properties": {"osm_id": 932543967, "building": "yes", "name": "", "height": null, "height_m": null, "levels": null, "tract_id": "40143008900", "tract_name": "89", "tags": {"building": "yes"}}}, {"type": "Feature", "geometry": {"type": "Polygon", "coordinates": [[[-95.8554882, 36.1574396], [-95.8549806, 36.1574406], [-95.8549798, 36.1571885], [-95.8554874, 36.1571875], [-95.8554882, 36.1574396]]]}, "properties": {"osm_id": 944632746, "building": "warehouse", "name": "", "height": null, "height_m": null, "levels": null, "tract_id": "40143008900", "tract_name": "89", "tags": {"building": "warehouse"}}}, {"type": "Feature", "geometry": {"type": "Polygon", "coordinates": [[[-95.855522, 36.1578398], [-95.8552234, 36.1578413], [-95.8552221, 36.1576737], [-95.8555207, 36.1576721], [-95.855522, 36.1578398]]]}, "properties": {"osm_id": 944632747, "building": "yes", "name": "", "height": null, "height_m": null, "levels": null, "tract_id": "40143008900", "tract_name": "89", "tags": {"building": "yes"}}}, {"type": "Feature", "geometry": {"type": "Polygon", "coordinates": [[[-95.8554907, 36.1581228], [-95.8551417, 36.158125], [-95.8551406, 36.158012], [-95.8554896, 36.1580097], [-95.8554907, 36.1581228]]]}, "properties": {"osm_id": 944632748, "building": "yes", "name": "", "height": null, "height_m": null, "levels": null, "tract_id": "40143008900", "tract_name": "89", "tags": {"building": "yes"}}}, {"type": "Feature", "geometry": {"type": "Polygon", "coordinates": [[[-95.8554905, 36.1582694], [-95.8551421, 36.1582683], [-95.8551427, 36.1581553], [-95.855491, 36.1581564], [-95.8554905, 36.1582694]]]}, "properties": {"osm_id": 944632749, "building": "yes", "name": "", "height": null, "height_m": null, "levels": null, "tract_id": "40143008900", "tract_name": "89", "tags": {"building": "yes"}}}, {"type": "Feature", "geometry": {"type": "Polygon", "coordinates": [[[-95.8554921, 36.1585343], [-95.8551419, 36.1585373], [-95.8551404, 36.1584263], [-95.8554907, 36.1584234], [-95.8554921, 36.1585343]]]}, "properties": {"osm_id": 944632750, "building": "yes", "name": "", "height": null, "height_m": null, "levels": null, "tract_id": "40143008900", "tract_name": "89", "tags": {"building": "yes"}}}, {"type": "Feature", "geometry": {"type": "Polygon", "coordinates": [[[-95.8554927, 36.1586785], [-95.8551418, 36.15868], [-95.8551411, 36.1585696], [-95.855492, 36.1585681], [-95.8554927, 36.1586785]]]}, "properties": {"osm_id": 944632751, "building": "yes", "name": "", "height": null, "height_m": null, "levels": null, "tract_id": "40143008900", "tract_name": "89", "tags": {"building": "yes"}}}, {"type": "Feature", "geometry": {"type": "Polygon", "coordinates": [[[-95.8554968, 36.1589484], [-95.855144, 36.1589481], [-95.8551441, 36.1588366], [-95.8554969, 36.158837], [-95.8554968, 36.1589484]]]}, "properties": {"osm_id": 944632752, "building": "yes", "name": "", "height": null, "height_m": null, "levels": null, "tract_id": "40143008900", "tract_name": "89", "tags": {"building": "yes"}}}, {"type": "Feature", "geometry": {"type": "Polygon", "coordinates": [[[-95.8551425, 36.159093], [-95.8554027, 36.1590921], [-95.8554035, 36.1592446], [-95.8551428, 36.1592455], [-95.8551434, 36.1593589], [-95.8554926, 36.1593577], [-95.8554906, 36.15898], [-95.8551419, 36.1589812], [-95.8551425, 36.159093]]]}, "properties": {"osm_id": 944632753, "building": "yes", "name": "", "height": null, "height_m": null, "levels": null, "tract_id": "40143008900", "tract_name": "89", "tags": {"building": "yes"}}}, {"type": "Feature", "geometry": {"type": "Polygon", "coordinates": [[[-95.8554939, 36.1595006], [-95.8551517, 36.1595023], [-95.8551509, 36.159391], [-95.8554931, 36.1593894], [-95.8554939, 36.1595006]]]}, "properties": {"osm_id": 944632754, "building": "yes", "name": "", "height": null, "height_m": null, "levels": null, "tract_id": "40143008900", "tract_name": "89", "tags": {"building": "yes"}}}, {"type": "Feature", "geometry": {"type": "Polygon", "coordinates": [[[-95.8552094, 36.1597111], [-95.8552092, 36.1595971], [-95.8554942, 36.1595969], [-95.8554944, 36.1597766], [-95.8553585, 36.1597767], [-95.8553584, 36.159711], [-95.8552094, 36.1597111]]]}, "properties": {"osm_id": 944632755, "building": "yes", "name": "", "height": null, "height_m": null, "levels": null, "tract_id": "40143008900", "tract_name": "89", "tags": {"building": "yes"}}}, {"type": "Feature", "geometry": {"type": "Polygon", "coordinates": [[[-95.8552898, 36.1603277], [-95.8548148, 36.1603282], [-95.8548145, 36.1601052], [-95.8552895, 36.1601047], [-95.8552898, 36.1603277]]]}, "properties": {"osm_id": 944632756, "building": "yes", "name": "", "height": null, "height_m": null, "levels": null, "tract_id": "40143008900", "tract_name": "89", "tags": {"building": "yes"}}}, {"type": "Feature", "geometry": {"type": "Polygon", "coordinates": [[[-95.8533378, 36.1602792], [-95.8539441, 36.1602835], [-95.8539435, 36.1603395], [-95.854155, 36.1603409], [-95.8541901, 36.160316], [-95.8541918, 36.160116], [-95.8541205, 36.1601155], [-95.8541214, 36.1600389], [-95.853508, 36.1600343], [-95.8535072, 36.1601003], [-95.8534251, 36.1600997], [-95.8534248, 36.1601267], [-95.8533395, 36.1601261], [-95.8533378, 36.1602792]]]}, "properties": {"osm_id": 944632757, "building": "yes", "name": "", "height": null, "height_m": null, "levels": null, "tract_id": "40143008900", "tract_name": "89", "tags": {"building": "yes"}}}, {"type": "Feature", "geometry": {"type": "Polygon", "coordinates": [[[-95.85469, 36.1574717], [-95.8545901, 36.1574723], [-95.854588, 36.1572632], [-95.8546878, 36.1572626], [-95.85469, 36.1574717]]]}, "properties": {"osm_id": 944632758, "building": "yes", "name": "", "height": null, "height_m": null, "levels": null, "tract_id": "40143008900", "tract_name": "89", "tags": {"building": "yes"}}}, {"type": "Feature", "geometry": {"type": "Polygon", "coordinates": [[[-95.8544822, 36.1574811], [-95.8543764, 36.1574812], [-95.8543761, 36.1572606], [-95.8544818, 36.1572604], [-95.8544822, 36.1574811]]]}, "properties": {"osm_id": 944632759, "building": "yes", "name": "", "height": null, "height_m": null, "levels": null, "tract_id": "40143008900", "tract_name": "89", "tags": {"building": "yes"}}}, {"type": "Feature", "geometry": {"type": "Polygon", "coordinates": [[[-95.8543665, 36.1574994], [-95.8542449, 36.1574996], [-95.8542442, 36.1572091], [-95.8543658, 36.1572089], [-95.8543665, 36.1574994]]]}, "properties": {"osm_id": 944632760, "building": "yes", "name": "", "height": null, "height_m": null, "levels": null, "tract_id": "40143008900", "tract_name": "89", "tags": {"building": "yes"}}}, {"type": "Feature", "geometry": {"type": "Polygon", "coordinates": [[[-95.8541966, 36.1574844], [-95.8540597, 36.1574848], [-95.8540587, 36.1572772], [-95.8541956, 36.1572768], [-95.8541966, 36.1574844]]]}, "properties": {"osm_id": 944632761, "building": "yes", "name": "", "height": null, "height_m": null, "levels": null, "tract_id": "40143008900", "tract_name": "89", "tags": {"building": "yes"}}}, {"type": "Feature", "geometry": {"type": "Polygon", "coordinates": [[[-95.8539917, 36.1574714], [-95.8539035, 36.1574713], [-95.8539035, 36.1574872], [-95.8538679, 36.1574871], [-95.853868, 36.1574703], [-95.8537742, 36.1574702], [-95.8537745, 36.1573878], [-95.8536433, 36.1573875], [-95.8536438, 36.157216], [-95.8539924, 36.1572166], [-95.8539917, 36.1574714]]]}, "properties": {"osm_id": 944632762, "building": "yes", "name": "", "height": null, "height_m": null, "levels": null, "tract_id": "40143008900", "tract_name": "89", "tags": {"building": "yes"}}}, {"type": "Feature", "geometry": {"type": "Polygon", "coordinates": [[[-95.8535692, 36.1574695], [-95.8534284, 36.1574709], [-95.8534241, 36.1571975], [-95.8535651, 36.1571961], [-95.8535692, 36.1574695]]]}, "properties": {"osm_id": 944632763, "building": "yes", "name": "", "height": null, "height_m": null, "levels": null, "tract_id": "40143008900", "tract_name": "89", "tags": {"building": "yes"}}}, {"type": "Feature", "geometry": {"type": "Polygon", "coordinates": [[[-95.8599367, 36.1563406], [-95.8598082, 36.1563394], [-95.8598089, 36.1562944], [-95.859829, 36.1562946], [-95.8598292, 36.1562771], [-95.8598443, 36.1562773], [-95.8598455, 36.1561974], [-95.8599387, 36.1561982], [-95.8599367, 36.1563406]]]}, "properties": {"osm_id": 1198174254, "building": "detached", "name": "", "height": null, "height_m": null, "levels": null, "tract_id": "40143008900", "tract_name": "89", "tags": {"building": "detached"}}}, {"type": "Feature", "geometry": {"type": "Polygon", "coordinates": [[[-95.8600856, 36.1549887], [-95.8600373, 36.1549903], [-95.8600359, 36.1549627], [-95.8600841, 36.154961], [-95.8600856, 36.1549887]]]}, "properties": {"osm_id": 1198174255, "building": "yes", "name": "", "height": null, "height_m": null, "levels": null, "tract_id": "40143008900", "tract_name": "89", "tags": {"building": "yes"}}}, {"type": "Feature", "geometry": {"type": "Polygon", "coordinates": [[[-95.8601566, 36.1546292], [-95.8601307, 36.15463], [-95.8601294, 36.1546024], [-95.8601553, 36.1546016], [-95.8601566, 36.1546292]]]}, "properties": {"osm_id": 1198174256, "building": "yes", "name": "", "height": null, "height_m": null, "levels": null, "tract_id": "40143008900", "tract_name": "89", "tags": {"building": "yes"}}}, {"type": "Feature", "geometry": {"type": "Polygon", "coordinates": [[[-95.8599977, 36.1549394], [-95.8599488, 36.15494], [-95.8599482, 36.1549086], [-95.8599972, 36.154908], [-95.8599977, 36.1549394]]]}, "properties": {"osm_id": 1198174257, "building": "yes", "name": "", "height": null, "height_m": null, "levels": null, "tract_id": "40143008900", "tract_name": "89", "tags": {"building": "yes"}}}, {"type": "Feature", "geometry": {"type": "Polygon", "coordinates": [[[-95.8601513, 36.1538539], [-95.8601526, 36.1538274], [-95.8601848, 36.1538284], [-95.8601834, 36.1538549], [-95.8601513, 36.1538539]]]}, "properties": {"osm_id": 1198174258, "building": "yes", "name": "", "height": null, "height_m": null, "levels": null, "tract_id": "40143008900", "tract_name": "89", "tags": {"building": "yes"}}}, {"type": "Feature", "geometry": {"type": "Polygon", "coordinates": [[[-95.8600453, 36.1536525], [-95.8599981, 36.1536516], [-95.8599994, 36.1536018], [-95.8600467, 36.1536027], [-95.8600453, 36.1536525]]]}, "properties": {"osm_id": 1198174259, "building": "yes", "name": "", "height": null, "height_m": null, "levels": null, "tract_id": "40143008900", "tract_name": "89", "tags": {"building": "yes"}}}, {"type": "Feature", "geometry": {"type": "Polygon", "coordinates": [[[-95.8601821, 36.1535057], [-95.8601831, 36.1535274], [-95.8601455, 36.1535285], [-95.8601446, 36.1535068], [-95.8601821, 36.1535057]]]}, "properties": {"osm_id": 1198174260, "building": "yes", "name": "", "height": null, "height_m": null, "levels": null, "tract_id": "40143008900", "tract_name": "89", "tags": {"building": "yes"}}}, {"type": "Feature", "geometry": {"type": "Polygon", "coordinates": [[[-95.8600748, 36.1531544], [-95.8600346, 36.1531565], [-95.8600316, 36.1531196], [-95.8600718, 36.1531174], [-95.8600748, 36.1531544]]]}, "properties": {"osm_id": 1198174261, "building": "yes", "name": "", "height": null, "height_m": null, "levels": null, "tract_id": "40143008900", "tract_name": "89", "tags": {"building": "yes"}}}, {"type": "Feature", "geometry": {"type": "Polygon", "coordinates": [[[-95.8600882, 36.1532004], [-95.8600507, 36.1532009], [-95.8600501, 36.1531737], [-95.8600876, 36.1531732], [-95.8600882, 36.1532004]]]}, "properties": {"osm_id": 1198174262, "building": "yes", "name": "", "height": null, "height_m": null, "levels": null, "tract_id": "40143008900", "tract_name": "89", "tags": {"building": "yes"}}}, {"type": "Feature", "geometry": {"type": "Polygon", "coordinates": [[[-95.859802, 36.1539672], [-95.8600032, 36.1539655], [-95.8600017, 36.1538443], [-95.8599051, 36.1538451], [-95.8599058, 36.1538982], [-95.8598012, 36.153899], [-95.859802, 36.1539672]]]}, "properties": {"osm_id": 1198174263, "building": "detached", "name": "", "height": null, "height_m": null, "levels": null, "tract_id": "40143008900", "tract_name": "89", "tags": {"building": "detached", "source": "microsoft/BuildingFootprints"}}}, {"type": "Feature", "geometry": {"type": "Polygon", "coordinates": [[[-95.8601216, 36.1524075], [-95.8600519, 36.1524085], [-95.8600529, 36.152453], [-95.8601226, 36.1524519], [-95.8601216, 36.1524075]]]}, "properties": {"osm_id": 1198174264, "building": "yes", "name": "", "height": null, "height_m": null, "levels": null, "tract_id": "40143008900", "tract_name": "89", "tags": {"building": "yes", "source": "microsoft/BuildingFootprints"}}}, {"type": "Feature", "geometry": {"type": "Polygon", "coordinates": [[[-95.8623779, 36.1541152], [-95.8623782, 36.1540351], [-95.8622428, 36.1540347], [-95.8622427, 36.1540656], [-95.8622209, 36.1540656], [-95.8622205, 36.1541559], [-95.8622956, 36.1541561], [-95.8622958, 36.154115], [-95.8623779, 36.1541152]]]}, "properties": {"osm_id": 1198174265, "building": "detached", "name": "", "height": null, "height_m": null, "levels": null, "tract_id": "40143008900", "tract_name": "89", "tags": {"building": "detached", "source": "microsoft/BuildingFootprints"}}}, {"type": "Feature", "geometry": {"type": "Polygon", "coordinates": [[[-95.8600056, 36.1547649], [-95.8600066, 36.1548277], [-95.8600978, 36.1548268], [-95.8600968, 36.154764], [-95.8600056, 36.1547649]]]}, "properties": {"osm_id": 1198174266, "building": "garage", "name": "", "height": null, "height_m": null, "levels": null, "tract_id": "40143008900", "tract_name": "89", "tags": {"building": "garage", "source": "microsoft/BuildingFootprints"}}}, {"type": "Feature", "geometry": {"type": "Polygon", "coordinates": [[[-95.8591155, 36.1521406], [-95.8592023, 36.1521396], [-95.8592032, 36.1521829], [-95.859288, 36.1521818], [-95.8592857, 36.1520611], [-95.8591141, 36.1520633], [-95.8591155, 36.1521406]]]}, "properties": {"osm_id": 1198174267, "building": "detached", "name": "", "height": null, "height_m": null, "levels": null, "tract_id": "40143008900", "tract_name": "89", "tags": {"building": "detached", "source": "microsoft/BuildingFootprints"}}}, {"type": "Feature", "geometry": {"type": "Polygon", "coordinates": [[[-95.859047, 36.1528028], [-95.8591302, 36.1528038], [-95.8591334, 36.1526405], [-95.8589779, 36.1526385], [-95.8589764, 36.1527152], [-95.8590488, 36.1527162], [-95.859047, 36.1528028]]]}, "properties": {"osm_id": 1198174268, "building": "detached", "name": "", "height": null, "height_m": null, "levels": null, "tract_id": "40143008900", "tract_name": "89", "tags": {"building": "detached", "source": "microsoft/BuildingFootprints"}}}, {"type": "Feature", "geometry": {"type": "Polygon", "coordinates": [[[-95.8585119, 36.1526911], [-95.8584824, 36.1526906], [-95.8584835, 36.152643], [-95.8584138, 36.1526419], [-95.8584124, 36.1527025], [-95.8583293, 36.1527012], [-95.8583274, 36.1527792], [-95.8584132, 36.1527805], [-95.8584127, 36.1528022], [-95.8585092, 36.1528037], [-95.8585119, 36.1526911]]]}, "properties": {"osm_id": 1198174269, "building": "detached", "name": "", "height": null, "height_m": null, "levels": null, "tract_id": "40143008900", "tract_name": "89", "tags": {"building": "detached", "source": "microsoft/BuildingFootprints"}}}, {"type": "Feature", "geometry": {"type": "Polygon", "coordinates": [[[-95.8594111, 36.1527483], [-95.8595116, 36.1527833], [-95.8594969, 36.1528107], [-95.8595569, 36.1528316], [-95.8596112, 36.1527303], [-95.8594507, 36.1526743], [-95.8594111, 36.1527483]]]}, "properties": {"osm_id": 1198174270, "building": "detached", "name": "", "height": null, "height_m": null, "levels": null, "tract_id": "40143008900", "tract_name": "89", "tags": {"building": "detached", "source": "microsoft/BuildingFootprints"}}}, {"type": "Feature", "geometry": {"type": "Polygon", "coordinates": [[[-95.8587739, 36.1522154], [-95.8588704, 36.1522138], [-95.858869, 36.1521597], [-95.8588905, 36.1521594], [-95.8588881, 36.1520663], [-95.8587004, 36.1520694], [-95.8587023, 36.152143], [-95.858772, 36.1521418], [-95.8587739, 36.1522154]]]}, "properties": {"osm_id": 1198174271, "building": "detached", "name": "", "height": null, "height_m": null, "levels": null, "tract_id": "40143008900", "tract_name": "89", "tags": {"building": "detached", "source": "microsoft/BuildingFootprints"}}}, {"type": "Feature", "geometry": {"type": "Polygon", "coordinates": [[[-95.8598, 36.1531377], [-95.8599341, 36.1531386], [-95.8599355, 36.153], [-95.8598336, 36.1529993], [-95.8598327, 36.1530871], [-95.8598005, 36.1530869], [-95.8598, 36.1531377]]]}, "properties": {"osm_id": 1198174272, "building": "detached", "name": "", "height": null, "height_m": null, "levels": null, "tract_id": "40143008900", "tract_name": "89", "tags": {"building": "detached", "source": "microsoft/BuildingFootprints"}}}, {"type": "Feature", "geometry": {"type": "Polygon", "coordinates": [[[-95.8598015, 36.1542226], [-95.8598007, 36.1543288], [-95.8597444, 36.1543285], [-95.8597441, 36.1543675], [-95.8599211, 36.1543683], [-95.8599222, 36.1542232], [-95.8598015, 36.1542226]]]}, "properties": {"osm_id": 1198174273, "building": "detached", "name": "", "height": null, "height_m": null, "levels": null, "tract_id": "40143008900", "tract_name": "89", "tags": {"building": "detached", "source": "microsoft/BuildingFootprints"}}}, {"type": "Feature", "geometry": {"type": "Polygon", "coordinates": [[[-95.8598009, 36.1538135], [-95.859935, 36.1538149], [-95.8599371, 36.1536763], [-95.8598352, 36.1536753], [-95.8598339, 36.1537619], [-95.8598017, 36.1537616], [-95.8598009, 36.1538135]]]}, "properties": {"osm_id": 1198174274, "building": "detached", "name": "", "height": null, "height_m": null, "levels": null, "tract_id": "40143008900", "tract_name": "89", "tags": {"building": "detached", "source": "microsoft/BuildingFootprints"}}}, {"type": "Feature", "geometry": {"type": "Polygon", "coordinates": [[[-95.8599358, 36.1555174], [-95.8599337, 36.1553853], [-95.8598184, 36.1553865], [-95.8598198, 36.1554732], [-95.8597983, 36.1554734], [-95.859799, 36.1555188], [-95.8599358, 36.1555174]]]}, "properties": {"osm_id": 1198174275, "building": "detached", "name": "", "height": null, "height_m": null, "levels": null, "tract_id": "40143008900", "tract_name": "89", "tags": {"building": "detached", "source": "microsoft/BuildingFootprints"}}}, {"type": "Feature", "geometry": {"type": "Polygon", "coordinates": [[[-95.8623825, 36.1537626], [-95.8623823, 36.1536825], [-95.8622188, 36.1536827], [-95.862219, 36.1538018], [-95.862337, 36.1538016], [-95.8623369, 36.1537627], [-95.8623825, 36.1537626]]]}, "properties": {"osm_id": 1198174276, "building": "detached", "name": "", "height": null, "height_m": null, "levels": null, "tract_id": "40143008900", "tract_name": "89", "tags": {"building": "detached", "source": "microsoft/BuildingFootprints"}}}, {"type": "Feature", "geometry": {"type": "Polygon", "coordinates": [[[-95.8596326, 36.1524442], [-95.8596308, 36.1523625], [-95.8594485, 36.1523651], [-95.8594503, 36.1524468], [-95.8596326, 36.1524442]]]}, "properties": {"osm_id": 1198174277, "building": "detached", "name": "", "height": null, "height_m": null, "levels": null, "tract_id": "40143008900", "tract_name": "89", "tags": {"building": "detached", "source": "microsoft/BuildingFootprints"}}}, {"type": "Feature", "geometry": {"type": "Polygon", "coordinates": [[[-95.859802, 36.1556819], [-95.859936, 36.1556789], [-95.859931, 36.1555361], [-95.8598292, 36.1555384], [-95.8598314, 36.1556023], [-95.8597992, 36.155603], [-95.859802, 36.1556819]]]}, "properties": {"osm_id": 1198174278, "building": "detached", "name": "", "height": null, "height_m": null, "levels": null, "tract_id": "40143008900", "tract_name": "89", "tags": {"building": "detached", "source": "microsoft/BuildingFootprints"}}}, {"type": "Feature", "geometry": {"type": "Polygon", "coordinates": [[[-95.8591643, 36.152323], [-95.8592863, 36.1524231], [-95.8594103, 36.1523246], [-95.8592883, 36.1522245], [-95.8591643, 36.152323]]]}, "properties": {"osm_id": 1198174279, "building": "detached", "name": "", "height": null, "height_m": null, "levels": null, "tract_id": "40143008900", "tract_name": "89", "tags": {"building": "detached", "source": "microsoft/BuildingFootprints"}}}, {"type": "Feature", "geometry": {"type": "Polygon", "coordinates": [[[-95.8598065, 36.1547472], [-95.8599272, 36.1547468], [-95.8599266, 36.1546104], [-95.8598211, 36.1546107], [-95.8598214, 36.1546676], [-95.8598062, 36.1546677], [-95.8598065, 36.1547472]]]}, "properties": {"osm_id": 1198174280, "building": "detached", "name": "", "height": null, "height_m": null, "levels": null, "tract_id": "40143008900", "tract_name": "89", "tags": {"building": "detached", "source": "microsoft/BuildingFootprints"}}}, {"type": "Feature", "geometry": {"type": "Polygon", "coordinates": [[[-95.8598385, 36.1544139], [-95.8598355, 36.1545156], [-95.8598033, 36.154515], [-95.8598021, 36.1545583], [-95.8599415, 36.1545609], [-95.8599457, 36.1544159], [-95.8598385, 36.1544139]]]}, "properties": {"osm_id": 1198174281, "building": "detached", "name": "", "height": null, "height_m": null, "levels": null, "tract_id": "40143008900", "tract_name": "89", "tags": {"building": "detached", "source": "microsoft/BuildingFootprints"}}}, {"type": "Feature", "geometry": {"type": "Polygon", "coordinates": [[[-95.8623291, 36.1538472], [-95.8622295, 36.1538461], [-95.8622285, 36.1539096], [-95.8622163, 36.1539095], [-95.8622156, 36.1539523], [-95.8622278, 36.1539524], [-95.8622273, 36.1539844], [-95.8623289, 36.1539855], [-95.8623293, 36.1539629], [-95.8623644, 36.1539633], [-95.8623654, 36.1538995], [-95.8623283, 36.1538991], [-95.8623291, 36.1538472]]]}, "properties": {"osm_id": 1198174282, "building": "detached", "name": "", "height": null, "height_m": null, "levels": null, "tract_id": "40143008900", "tract_name": "89", "tags": {"building": "detached", "source": "microsoft/BuildingFootprints"}}}, {"type": "Feature", "geometry": {"type": "Polygon", "coordinates": [[[-95.8622271, 36.1534888], [-95.8622289, 36.1535523], [-95.8622168, 36.1535525], [-95.862218, 36.1535937], [-95.8622301, 36.1535935], [-95.8622312, 36.1536317], [-95.8623297, 36.1536299], [-95.8623257, 36.153487], [-95.8622271, 36.1534888]]]}, "properties": {"osm_id": 1198174283, "building": "detached", "name": "", "height": null, "height_m": null, "levels": null, "tract_id": "40143008900", "tract_name": "89", "tags": {"building": "detached", "source": "microsoft/BuildingFootprints"}}}, {"type": "Feature", "geometry": {"type": "Polygon", "coordinates": [[[-95.8587809, 36.1523225], [-95.8588109, 36.1522998], [-95.8587517, 36.1522486], [-95.8585899, 36.1523707], [-95.8586537, 36.1524258], [-95.8587081, 36.1523848], [-95.8587477, 36.1524189], [-95.858825, 36.1523606], [-95.8587809, 36.1523225]]]}, "properties": {"osm_id": 1198174284, "building": "detached", "name": "", "height": null, "height_m": null, "levels": null, "tract_id": "40143008900", "tract_name": "89", "tags": {"building": "detached", "source": "microsoft/BuildingFootprints"}}}, {"type": "Feature", "geometry": {"type": "Polygon", "coordinates": [[[-95.8598256, 36.1522138], [-95.8599355, 36.1522118], [-95.8599313, 36.1520624], [-95.8598214, 36.1520644], [-95.8598256, 36.1522138]]]}, "properties": {"osm_id": 1198174285, "building": "detached", "name": "", "height": null, "height_m": null, "levels": null, "tract_id": "40143008900", "tract_name": "89", "tags": {"building": "detached", "source": "microsoft/BuildingFootprints"}}}, {"type": "Feature", "geometry": {"type": "Polygon", "coordinates": [[[-95.8623225, 36.1541941], [-95.862218, 36.1541953], [-95.8622205, 36.1543382], [-95.8623251, 36.154337], [-95.8623225, 36.1541941]]]}, "properties": {"osm_id": 1198174286, "building": "detached", "name": "", "height": null, "height_m": null, "levels": null, "tract_id": "40143008900", "tract_name": "89", "tags": {"building": "detached", "source": "microsoft/BuildingFootprints"}}}, {"type": "Feature", "geometry": {"type": "Polygon", "coordinates": [[[-95.8583476, 36.1524559], [-95.8585407, 36.1524544], [-95.8585393, 36.1523375], [-95.8584562, 36.1523381], [-95.8584564, 36.1523576], [-95.8583464, 36.1523585], [-95.8583476, 36.1524559]]]}, "properties": {"osm_id": 1198174287, "building": "detached", "name": "", "height": null, "height_m": null, "levels": null, "tract_id": "40143008900", "tract_name": "89", "tags": {"building": "detached", "source": "microsoft/BuildingFootprints"}}}, {"type": "Feature", "geometry": {"type": "Polygon", "coordinates": [[[-95.8598021, 36.1541741], [-95.8599244, 36.1541728], [-95.8599221, 36.1540299], [-95.8598159, 36.154031], [-95.859817, 36.1541003], [-95.8598009, 36.1541005], [-95.8598021, 36.1541741]]]}, "properties": {"osm_id": 1198174288, "building": "detached", "name": "", "height": null, "height_m": null, "levels": null, "tract_id": "40143008900", "tract_name": "89", "tags": {"building": "detached", "source": "microsoft/BuildingFootprints"}}}, {"type": "Feature", "geometry": {"type": "Polygon", "coordinates": [[[-95.8597985, 36.1533176], [-95.8600035, 36.1533187], [-95.860004, 36.1532679], [-95.8599342, 36.1532675], [-95.859935, 36.1531776], [-95.8598346, 36.153177], [-95.8598338, 36.153268], [-95.859799, 36.1532678], [-95.8597985, 36.1533176]]]}, "properties": {"osm_id": 1198174289, "building": "detached", "name": "", "height": null, "height_m": null, "levels": null, "tract_id": "40143008900", "tract_name": "89", "tags": {"building": "detached", "source": "microsoft/BuildingFootprints"}}}, {"type": "Feature", "geometry": {"type": "Polygon", "coordinates": [[[-95.8599112, 36.1549904], [-95.8597985, 36.1549917], [-95.8598002, 36.1550848], [-95.8597814, 36.155085], [-95.8597826, 36.1551511], [-95.859914, 36.1551496], [-95.8599112, 36.1549904]]]}, "properties": {"osm_id": 1198174290, "building": "detached", "name": "", "height": null, "height_m": null, "levels": null, "tract_id": "40143008900", "tract_name": "89", "tags": {"building": "detached", "source": "microsoft/BuildingFootprints"}}}, {"type": "Feature", "geometry": {"type": "Polygon", "coordinates": [[[-95.859173, 36.1527803], [-95.8592549, 36.1527811], [-95.8592546, 36.1527996], [-95.8593497, 36.1528005], [-95.8593513, 36.1526966], [-95.8591743, 36.1526948], [-95.859173, 36.1527803]]]}, "properties": {"osm_id": 1198174291, "building": "detached", "name": "", "height": null, "height_m": null, "levels": null, "tract_id": "40143008900", "tract_name": "89", "tags": {"building": "detached", "source": "microsoft/BuildingFootprints"}}}, {"type": "Feature", "geometry": {"type": "Polygon", "coordinates": [[[-95.8598003, 36.1534744], [-95.8600003, 36.1534773], [-95.8600029, 36.153355], [-95.8599064, 36.1533536], [-95.8599052, 36.1534109], [-95.8598017, 36.1534095], [-95.8598003, 36.1534744]]]}, "properties": {"osm_id": 1198174292, "building": "detached", "name": "", "height": null, "height_m": null, "levels": null, "tract_id": "40143008900", "tract_name": "89", "tags": {"building": "detached", "source": "microsoft/BuildingFootprints"}}}, {"type": "Feature", "geometry": {"type": "Polygon", "coordinates": [[[-95.8587062, 36.15264], [-95.858556, 36.15264], [-95.858556, 36.1527158], [-95.8586258, 36.1527158], [-95.8586258, 36.1528003], [-95.8587062, 36.1528003], [-95.8587062, 36.15264]]]}, "properties": {"osm_id": 1198174293, "building": "detached", "name": "", "height": null, "height_m": null, "levels": null, "tract_id": "40143008900", "tract_name": "89", "tags": {"building": "detached", "source": "microsoft/BuildingFootprints"}}}, {"type": "Feature", "geometry": {"type": "Polygon", "coordinates": [[[-95.8598044, 36.1558403], [-95.8599358, 36.1558379], [-95.8599322, 36.155708], [-95.8598196, 36.15571], [-95.8598214, 36.1557754], [-95.8598412, 36.1557751], [-95.8598417, 36.1557953], [-95.8598032, 36.155796], [-95.8598044, 36.1558403]]]}, "properties": {"osm_id": 1198174294, "building": "detached", "name": "", "height": null, "height_m": null, "levels": null, "tract_id": "40143008900", "tract_name": "89", "tags": {"building": "detached", "source": "microsoft/BuildingFootprints"}}}, {"type": "Feature", "geometry": {"type": "Polygon", "coordinates": [[[-95.8596842, 36.1523546], [-95.8597603, 36.1524118], [-95.8598813, 36.1523069], [-95.8598052, 36.1522496], [-95.8596842, 36.1523546]]]}, "properties": {"osm_id": 1198174295, "building": "detached", "name": "", "height": null, "height_m": null, "levels": null, "tract_id": "40143008900", "tract_name": "89", "tags": {"building": "detached", "source": "microsoft/BuildingFootprints"}}}, {"type": "Feature", "geometry": {"type": "Polygon", "coordinates": [[[-95.8588339, 36.1528032], [-95.8589331, 36.1528019], [-95.8589309, 36.1526924], [-95.8587486, 36.1526948], [-95.8587503, 36.1527814], [-95.8588334, 36.1527803], [-95.8588339, 36.1528032]]]}, "properties": {"osm_id": 1198174296, "building": "detached", "name": "", "height": null, "height_m": null, "levels": null, "tract_id": "40143008900", "tract_name": "89", "tags": {"building": "detached", "source": "microsoft/BuildingFootprints"}}}, {"type": "Feature", "geometry": {"type": "Polygon", "coordinates": [[[-95.8599221, 36.1547923], [-95.8598057, 36.1547935], [-95.859808, 36.1549429], [-95.8599243, 36.1549418], [-95.8599221, 36.1547923]]]}, "properties": {"osm_id": 1198174297, "building": "detached", "name": "", "height": null, "height_m": null, "levels": null, "tract_id": "40143008900", "tract_name": "89", "tags": {"building": "detached", "source": "microsoft/BuildingFootprints"}}}, {"type": "Feature", "geometry": {"type": "Polygon", "coordinates": [[[-95.8596649, 36.152896], [-95.8597265, 36.1529481], [-95.8598943, 36.1528189], [-95.8598534, 36.1527844], [-95.8598745, 36.1527682], [-95.8598309, 36.1527313], [-95.859793, 36.1527605], [-95.8597743, 36.1527446], [-95.8597006, 36.1528013], [-95.8597421, 36.1528365], [-95.8596649, 36.152896]]]}, "properties": {"osm_id": 1198174298, "building": "detached", "name": "", "height": null, "height_m": null, "levels": null, "tract_id": "40143008900", "tract_name": "89", "tags": {"building": "detached", "source": "microsoft/BuildingFootprints"}}}, {"type": "Feature", "geometry": {"type": "Polygon", "coordinates": [[[-95.8583066, 36.1523326], [-95.8582613, 36.1522921], [-95.8582477, 36.152302], [-95.8581743, 36.1522363], [-95.858062, 36.1523182], [-95.8581807, 36.1524244], [-95.8583066, 36.1523326]]]}, "properties": {"osm_id": 1198174299, "building": "detached", "name": "", "height": null, "height_m": null, "levels": null, "tract_id": "40143008900", "tract_name": "89", "tags": {"building": "detached", "source": "microsoft/BuildingFootprints"}}}, {"type": "Feature", "geometry": {"type": "Polygon", "coordinates": [[[-95.8598005, 36.1536027], [-95.8598018, 36.1536503], [-95.859991, 36.153647], [-95.8599894, 36.153587], [-95.8599421, 36.1535878], [-95.8599401, 36.1535131], [-95.859833, 36.153515], [-95.8598354, 36.1536021], [-95.8598005, 36.1536027]]]}, "properties": {"osm_id": 1198174300, "building": "detached", "name": "", "height": null, "height_m": null, "levels": null, "tract_id": "40143008900", "tract_name": "89", "tags": {"building": "detached", "source": "microsoft/BuildingFootprints"}}}, {"type": "Feature", "geometry": {"type": "Polygon", "coordinates": [[[-95.8598229, 36.1558783], [-95.8598235, 36.1559449], [-95.859836, 36.1559448], [-95.8598362, 36.1559692], [-95.8598078, 36.1559694], [-95.8598082, 36.1560094], [-95.8599341, 36.1560086], [-95.8599329, 36.1558777], [-95.8598229, 36.1558783]]]}, "properties": {"osm_id": 1198174301, "building": "detached", "name": "", "height": null, "height_m": null, "levels": null, "tract_id": "40143008900", "tract_name": "89", "tags": {"building": "detached", "source": "microsoft/BuildingFootprints"}}}, {"type": "Feature", "geometry": {"type": "Polygon", "coordinates": [[[-95.8623751, 36.1533605], [-95.8623766, 36.1532751], [-95.8622076, 36.1532731], [-95.8622051, 36.1534161], [-95.8622974, 36.1534171], [-95.8622984, 36.1533597], [-95.8623751, 36.1533605]]]}, "properties": {"osm_id": 1198174302, "building": "detached", "name": "", "height": null, "height_m": null, "levels": null, "tract_id": "40143008900", "tract_name": "89", "tags": {"building": "detached", "source": "microsoft/BuildingFootprints"}}}, {"type": "Feature", "geometry": {"type": "Polygon", "coordinates": [[[-95.8599299, 36.1560324], [-95.8598315, 36.1560309], [-95.8598301, 36.1560959], [-95.8598033, 36.1560955], [-95.8598015, 36.1561734], [-95.8599417, 36.1561755], [-95.8599435, 36.1560934], [-95.8599286, 36.1560932], [-95.8599299, 36.1560324]]]}, "properties": {"osm_id": 1198174303, "building": "detached", "name": "", "height": null, "height_m": null, "levels": null, "tract_id": "40143008900", "tract_name": "89", "tags": {"building": "detached", "source": "microsoft/BuildingFootprints"}}}, {"type": "Feature", "geometry": {"type": "Polygon", "coordinates": [[[-95.8683725, 36.1597832], [-95.868302, 36.1597248], [-95.8681249, 36.1598642], [-95.8681954, 36.1599226], [-95.8683725, 36.1597832]]]}, "properties": {"osm_id": 1263538690, "building": "yes", "name": "", "height": null, "height_m": null, "levels": null, "tract_id": "40143008900", "tract_name": "89", "tags": {"building": "yes"}}}, {"type": "Feature", "geometry": {"type": "Polygon", "coordinates": [[[-95.8644771, 36.1511924], [-95.8644776, 36.1512991], [-95.8640585, 36.1513002], [-95.864058, 36.1511935], [-95.8644771, 36.1511924]]]}, "properties": {"osm_id": 1306968013, "building": "apartments", "name": "", "height": null, "height_m": null, "levels": null, "tract_id": "40143008900", "tract_name": "89", "tags": {"building": "apartments"}}}, {"type": "Feature", "geometry": {"type": "Polygon", "coordinates": [[[-95.8644805, 36.151363], [-95.8644809, 36.1514697], [-95.8640618, 36.1514708], [-95.8640614, 36.1513641], [-95.8644805, 36.151363]]]}, "properties": {"osm_id": 1306968014, "building": "apartments", "name": "", "height": null, "height_m": null, "levels": null, "tract_id": "40143008900", "tract_name": "89", "tags": {"building": "apartments"}}}, {"type": "Feature", "geometry": {"type": "Polygon", "coordinates": [[[-95.8639528, 36.1513614], [-95.8639532, 36.151468], [-95.8635341, 36.1514691], [-95.8635337, 36.1513625], [-95.8639528, 36.1513614]]]}, "properties": {"osm_id": 1306968015, "building": "apartments", "name": "", "height": null, "height_m": null, "levels": null, "tract_id": "40143008900", "tract_name": "89", "tags": {"building": "apartments"}}}, {"type": "Feature", "geometry": {"type": "Polygon", "coordinates": [[[-95.8639573, 36.1511992], [-95.8639578, 36.1513059], [-95.8635387, 36.151307], [-95.8635382, 36.1512003], [-95.8639573, 36.1511992]]]}, "properties": {"osm_id": 1306968016, "building": "apartments", "name": "", "height": null, "height_m": null, "levels": null, "tract_id": "40143008900", "tract_name": "89", "tags": {"building": "apartments"}}}, {"type": "Feature", "geometry": {"type": "Polygon", "coordinates": [[[-95.864463, 36.1508263], [-95.8644632, 36.1509338], [-95.8641035, 36.1509343], [-95.8641032, 36.1508268], [-95.864463, 36.1508263]]]}, "properties": {"osm_id": 1306968017, "building": "apartments", "name": "", "height": null, "height_m": null, "levels": null, "tract_id": "40143008900", "tract_name": "89", "tags": {"building": "apartments"}}}, {"type": "Feature", "geometry": {"type": "Polygon", "coordinates": [[[-95.8639607, 36.150822], [-95.863961, 36.1509294], [-95.8636012, 36.15093], [-95.863601, 36.1508225], [-95.8639607, 36.150822]]]}, "properties": {"osm_id": 1306968018, "building": "apartments", "name": "", "height": null, "height_m": null, "levels": null, "tract_id": "40143008900", "tract_name": "89", "tags": {"building": "apartments"}}}, {"type": "Feature", "geometry": {"type": "Polygon", "coordinates": [[[-95.8639634, 36.1506601], [-95.8639637, 36.1507675], [-95.8636039, 36.1507681], [-95.8636037, 36.1506606], [-95.8639634, 36.1506601]]]}, "properties": {"osm_id": 1306968019, "building": "apartments", "name": "", "height": null, "height_m": null, "levels": null, "tract_id": "40143008900", "tract_name": "89", "tags": {"building": "apartments"}}}, {"type": "Feature", "geometry": {"type": "Polygon", "coordinates": [[[-95.8644629, 36.1506583], [-95.8644632, 36.1507658], [-95.8641034, 36.1507663], [-95.8641032, 36.1506589], [-95.8644629, 36.1506583]]]}, "properties": {"osm_id": 1306968020, "building": "apartments", "name": "", "height": null, "height_m": null, "levels": null, "tract_id": "40143008900", "tract_name": "89", "tags": {"building": "apartments"}}}, {"type": "Feature", "geometry": {"type": "Polygon", "coordinates": [[[-95.8635375, 36.150128], [-95.8639643, 36.1501287], [-95.863964, 36.1502259], [-95.8638649, 36.1502257], [-95.8638649, 36.1502388], [-95.8636228, 36.1502383], [-95.8636228, 36.1502253], [-95.8635372, 36.1502251], [-95.8635375, 36.150128]]]}, "properties": {"osm_id": 1306968021, "building": "apartments", "name": "", "height": null, "height_m": null, "levels": null, "tract_id": "40143008900", "tract_name": "89", "tags": {"building": "apartments"}}}, {"type": "Feature", "geometry": {"type": "Polygon", "coordinates": [[[-95.8640645, 36.1501291], [-95.8644913, 36.150132], [-95.8644903, 36.1502291], [-95.8643911, 36.1502285], [-95.864391, 36.1502415], [-95.8641489, 36.1502399], [-95.8641491, 36.1502268], [-95.8640635, 36.1502263], [-95.8640645, 36.1501291]]]}, "properties": {"osm_id": 1306968022, "building": "apartments", "name": "", "height": null, "height_m": null, "levels": null, "tract_id": "40143008900", "tract_name": "89", "tags": {"building": "apartments"}}}, {"type": "Feature", "geometry": {"type": "Polygon", "coordinates": [[[-95.8644862, 36.1503865], [-95.8640594, 36.1503881], [-95.8640588, 36.1502909], [-95.8641579, 36.1502906], [-95.8641579, 36.1502775], [-95.8643999, 36.1502766], [-95.8644, 36.1502896], [-95.8644856, 36.1502893], [-95.8644862, 36.1503865]]]}, "properties": {"osm_id": 1306968023, "building": "apartments", "name": "", "height": null, "height_m": null, "levels": null, "tract_id": "40143008900", "tract_name": "89", "tags": {"building": "apartments"}}}, {"type": "Feature", "geometry": {"type": "Polygon", "coordinates": [[[-95.863959, 36.1503868], [-95.8635322, 36.1503884], [-95.8635316, 36.1502912], [-95.8636308, 36.1502908], [-95.8636307, 36.1502778], [-95.8638728, 36.1502769], [-95.8638728, 36.1502899], [-95.8639584, 36.1502896], [-95.863959, 36.1503868]]]}, "properties": {"osm_id": 1306968024, "building": "apartments", "name": "", "height": null, "height_m": null, "levels": null, "tract_id": "40143008900", "tract_name": "89", "tags": {"building": "apartments"}}}, {"type": "Feature", "geometry": {"type": "Polygon", "coordinates": [[[-95.8535054, 36.159582], [-95.8539654, 36.1595831], [-95.853965, 36.1596974], [-95.853505, 36.1596963], [-95.8535054, 36.159582]]]}, "properties": {"osm_id": 1319771961, "building": "industrial", "name": "", "height": null, "height_m": null, "levels": null, "tract_id": "40143008900", "tract_name": "89", "tags": {"addr:city": "Tulsa", "addr:country": "US", "addr:housenumber": "6", "addr:postcode": "74128", "addr:state": "OK", "addr:street": "South 111th Avenue East", "building": "industrial", "shop": "yes"}}}, {"type": "Feature", "geometry": {"type": "Polygon", "coordinates": [[[-95.8530814, 36.1508172], [-95.8530345, 36.1508169], [-95.8530347, 36.1507953], [-95.8528992, 36.1507944], [-95.852899, 36.1508182], [-95.8521896, 36.1508134], [-95.8521873, 36.1510386], [-95.8525105, 36.1510408], [-95.8525099, 36.1510983], [-95.8527043, 36.1510997], [-95.8527049, 36.151039], [-95.8530791, 36.1510416], [-95.8530814, 36.1508172]]]}, "properties": {"osm_id": 1342542525, "building": "yes", "name": "", "height": null, "height_m": null, "levels": null, "tract_id": "40143008900", "tract_name": "89", "tags": {"addr:city": "Tulsa", "addr:country": "US", "addr:housenumber": "704", "addr:postcode": "74128", "addr:state": "OK", "addr:street": "South Garnett Road East", "building": "yes"}}}, {"type": "Feature", "geometry": {"type": "Polygon", "coordinates": [[[-95.8533021, 36.1527935], [-95.8530848, 36.1527913], [-95.8530826, 36.1529343], [-95.8527689, 36.1529311], [-95.8527733, 36.1526447], [-95.8527284, 36.1526015], [-95.8525111, 36.1525993], [-95.8525139, 36.1524196], [-95.8524442, 36.1524188], [-95.8524419, 36.1525659], [-95.8523357, 36.1524636], [-95.8520679, 36.152645], [-95.8520674, 36.1526778], [-95.8522973, 36.152899], [-95.8522972, 36.1529047], [-95.8521631, 36.1529033], [-95.8521618, 36.1529877], [-95.8522825, 36.152989], [-95.8522782, 36.153264], [-95.8524928, 36.1532661], [-95.8524983, 36.1529089], [-95.8523205, 36.1529071], [-95.852563, 36.1527427], [-95.8527342, 36.1527445], [-95.8527334, 36.1527986], [-95.8525966, 36.1527972], [-95.8525922, 36.1530787], [-95.8530749, 36.1530836], [-95.8530714, 36.153311], [-95.8532726, 36.153313], [-95.8532762, 36.1530748], [-95.8532977, 36.153075], [-95.8533021, 36.1527935]]]}, "properties": {"osm_id": 1342542526, "building": "yes", "name": "Garnett Road Baptist Church", "height": null, "height_m": null, "levels": null, "tract_id": "40143008900", "tract_name": "89", "tags": {"addr:city": "Tulsa", "addr:country": "US", "addr:housenumber": "620", "addr:postcode": "74128", "addr:state": "OK", "addr:street": "South Garnett Road East", "amenity": "place_of_worship", "building": "yes", "denomination": "baptist", "ele": "198", "gnis:feature_id": "1789714", "name": "Garnett Road Baptist Church", "religion": "christian"}}}, {"type": "Feature", "geometry": {"type": "Polygon", "coordinates": [[[-95.8547165, 36.1529568], [-95.8547075, 36.1527049], [-95.8545816, 36.1527079], [-95.8545806, 36.1526806], [-95.8545017, 36.1526824], [-95.8545033, 36.1527278], [-95.8542794, 36.152733], [-95.85428, 36.1527503], [-95.854059, 36.1527555], [-95.8540597, 36.1527741], [-95.8539162, 36.1527774], [-95.8539151, 36.152748], [-95.8538428, 36.1527497], [-95.8538528, 36.1530323], [-95.8540592, 36.1530275], [-95.8540584, 36.1530067], [-95.8541415, 36.1530048], [-95.8541423, 36.1530264], [-95.8542027, 36.153025], [-95.8542021, 36.1530069], [-95.8542798, 36.1530051], [-95.8542791, 36.1529843], [-95.8544947, 36.1529793], [-95.854494, 36.152962], [-95.8547165, 36.1529568]]]}, "properties": {"osm_id": 1342542527, "building": "yes", "name": "", "height": null, "height_m": null, "levels": null, "tract_id": "40143008900", "tract_name": "89", "tags": {"building": "yes", "source": "microsoft/BuildingFootprints"}}}, {"type": "Feature", "geometry": {"type": "Polygon", "coordinates": [[[-95.8540306, 36.1535505], [-95.8540311, 36.1538589], [-95.8539452, 36.153859], [-95.8539456, 36.1541383], [-95.8541307, 36.1541382], [-95.8541306, 36.1540537], [-95.8542325, 36.1540536], [-95.8542325, 36.1540319], [-95.8547421, 36.1540315], [-95.8547421, 36.1540293], [-95.8549674, 36.1540291], [-95.8549674, 36.1540529], [-95.855123, 36.1540527], [-95.8551231, 36.1541372], [-95.8552599, 36.1541371], [-95.8552591, 36.1535848], [-95.855015, 36.1535851], [-95.8550151, 36.1536457], [-95.8550017, 36.1536457], [-95.855002, 36.1538471], [-95.8547552, 36.1538474], [-95.8547553, 36.1538617], [-95.8547204, 36.1538617], [-95.8547203, 36.1537651], [-95.8545191, 36.1537653], [-95.8545192, 36.1538467], [-95.854251, 36.153847], [-95.8542507, 36.1536378], [-95.8542346, 36.1536378], [-95.8542345, 36.1535503], [-95.8540306, 36.1535505]]]}, "properties": {"osm_id": 1342542528, "building": "yes", "name": "", "height": null, "height_m": null, "levels": null, "tract_id": "40143008900", "tract_name": "89", "tags": {"building": "yes", "source": "microsoft/BuildingFootprints"}}}, {"type": "Feature", "geometry": {"type": "Polygon", "coordinates": [[[-95.8521017, 36.1531991], [-95.8519086, 36.153197], [-95.8519069, 36.1533009], [-95.8520195, 36.1533022], [-95.8520192, 36.1533195], [-95.8520997, 36.1533204], [-95.8521017, 36.1531991]]]}, "properties": {"osm_id": 1342542529, "building": "yes", "name": "", "height": null, "height_m": null, "levels": null, "tract_id": "40143008900", "tract_name": "89", "tags": {"building": "yes", "source": "microsoft/BuildingFootprints"}}}, {"type": "Feature", "geometry": {"type": "Polygon", "coordinates": [[[-95.8516585, 36.1531811], [-95.8516573, 36.1533197], [-95.8518423, 36.1533207], [-95.8518429, 36.1532524], [-95.8517613, 36.1532519], [-95.8517619, 36.1531817], [-95.8516585, 36.1531811]]]}, "properties": {"osm_id": 1342542530, "building": "yes", "name": "", "height": null, "height_m": null, "levels": null, "tract_id": "40143008900", "tract_name": "89", "tags": {"building": "yes", "source": "microsoft/BuildingFootprints"}}}, {"type": "Feature", "geometry": {"type": "Polygon", "coordinates": [[[-95.8514276, 36.1533199], [-95.8515242, 36.1533211], [-95.8515237, 36.1533471], [-95.8516015, 36.153348], [-95.8516044, 36.1531856], [-95.8514301, 36.1531835], [-95.8514276, 36.1533199]]]}, "properties": {"osm_id": 1342542531, "building": "yes", "name": "", "height": null, "height_m": null, "levels": null, "tract_id": "40143008900", "tract_name": "89", "tags": {"building": "yes", "source": "microsoft/BuildingFootprints"}}}, {"type": "Feature", "geometry": {"type": "Polygon", "coordinates": [[[-95.8548077, 36.1520502], [-95.8548989, 36.1520511], [-95.8549001, 36.1519732], [-95.8549403, 36.1519736], [-95.8549428, 36.1518142], [-95.8547738, 36.1518125], [-95.8547729, 36.1518766], [-95.8548104, 36.151877], [-95.8548077, 36.1520502]]]}, "properties": {"osm_id": 1342542532, "building": "yes", "name": "", "height": null, "height_m": null, "levels": null, "tract_id": "40143008900", "tract_name": "89", "tags": {"building": "yes", "source": "microsoft/BuildingFootprints"}}}, {"type": "Feature", "geometry": {"type": "Polygon", "coordinates": [[[-95.8552746, 36.1518057], [-95.8550601, 36.1518087], [-95.8550625, 36.1519199], [-95.855277, 36.1519169], [-95.8552746, 36.1518057]]]}, "properties": {"osm_id": 1342542533, "building": "yes", "name": "", "height": null, "height_m": null, "levels": null, "tract_id": "40143008900", "tract_name": "89", "tags": {"building": "yes", "source": "microsoft/BuildingFootprints"}}}, {"type": "Feature", "geometry": {"type": "Polygon", "coordinates": [[[-95.8555313, 36.1518071], [-95.855329, 36.1518036], [-95.855326, 36.1519161], [-95.855393, 36.1519173], [-95.8553921, 36.1519519], [-95.8554684, 36.1519533], [-95.8554695, 36.1519143], [-95.8555284, 36.1519153], [-95.8555313, 36.1518071]]]}, "properties": {"osm_id": 1342542534, "building": "yes", "name": "", "height": null, "height_m": null, "levels": null, "tract_id": "40143008900", "tract_name": "89", "tags": {"building": "yes", "source": "microsoft/BuildingFootprints"}}}, {"type": "Feature", "geometry": {"type": "Polygon", "coordinates": [[[-95.8554978, 36.1522475], [-95.8553825, 36.1522464], [-95.8553812, 36.1523286], [-95.8552525, 36.1523273], [-95.8552507, 36.1524378], [-95.85533, 36.1524386], [-95.8553293, 36.1524797], [-95.8554446, 36.1524809], [-95.8554453, 36.1524376], [-95.8554948, 36.1524381], [-95.8554978, 36.1522475]]]}, "properties": {"osm_id": 1342542535, "building": "yes", "name": "", "height": null, "height_m": null, "levels": null, "tract_id": "40143008900", "tract_name": "89", "tags": {"building": "yes", "source": "microsoft/BuildingFootprints"}}}, {"type": "Feature", "geometry": {"type": "Polygon", "coordinates": [[[-95.8521977, 36.1492633], [-95.8521961, 36.1491321], [-95.8514908, 36.1491377], [-95.8514923, 36.1492688], [-95.8521977, 36.1492633]]]}, "properties": {"osm_id": 1342542538, "building": "yes", "name": "", "height": null, "height_m": null, "levels": null, "tract_id": "40143008900", "tract_name": "89", "tags": {"building": "yes", "source": "microsoft/BuildingFootprints"}}}, {"type": "Feature", "geometry": {"type": "Polygon", "coordinates": [[[-95.852548, 36.149507], [-95.8523361, 36.1495045], [-95.8523339, 36.1496258], [-95.8523205, 36.1496256], [-95.8523191, 36.1497014], [-95.8524237, 36.1497026], [-95.8524257, 36.1495922], [-95.8525464, 36.1495937], [-95.852548, 36.149507]]]}, "properties": {"osm_id": 1342542539, "building": "yes", "name": "", "height": null, "height_m": null, "levels": null, "tract_id": "40143008900", "tract_name": "89", "tags": {"building": "yes", "source": "microsoft/BuildingFootprints"}}}, {"type": "Feature", "geometry": {"type": "Polygon", "coordinates": [[[-95.8520573, 36.1496689], [-95.851824, 36.1496695], [-95.8518236, 36.1495915], [-95.851939, 36.1495912], [-95.8519385, 36.1494841], [-95.8517856, 36.1494845], [-95.851786, 36.14957], [-95.85153, 36.1495707], [-95.8515301, 36.1496097], [-95.8514965, 36.1496098], [-95.8514969, 36.1497137], [-95.8517705, 36.149713], [-95.8517706, 36.1497411], [-95.8519128, 36.1497407], [-95.8519134, 36.1498902], [-95.8520583, 36.1498898], [-95.8520573, 36.1496689]]]}, "properties": {"osm_id": 1342542540, "building": "yes", "name": "", "height": null, "height_m": null, "levels": null, "tract_id": "40143008900", "tract_name": "89", "tags": {"addr:city": "Tulsa", "addr:country": "US", "addr:housenumber": "1020", "addr:postcode": "74128", "addr:state": "OK", "addr:street": "South Garnett Road East", "building": "yes"}}}, {"type": "Feature", "geometry": {"type": "Polygon", "coordinates": [[[-95.857745, 36.14873], [-95.8574688, 36.1487276], [-95.8574668, 36.1488771], [-95.857625, 36.1488784], [-95.8576253, 36.1488546], [-95.8577433, 36.1488556], [-95.857745, 36.14873]]]}, "properties": {"osm_id": 1342542541, "building": "yes", "name": "", "height": null, "height_m": null, "levels": null, "tract_id": "40143008900", "tract_name": "89", "tags": {"building": "yes", "source": "microsoft/BuildingFootprints"}}}, {"type": "Feature", "geometry": {"type": "Polygon", "coordinates": [[[-95.8580815, 36.148685], [-95.8580816, 36.1488908], [-95.8582935, 36.1488907], [-95.8582934, 36.148685], [-95.8580815, 36.148685]]]}, "properties": {"osm_id": 1342542542, "building": "yes", "name": "", "height": null, "height_m": null, "levels": null, "tract_id": "40143008900", "tract_name": "89", "tags": {"building": "yes", "source": "microsoft/BuildingFootprints"}}}, {"type": "Feature", "geometry": {"type": "Polygon", "coordinates": [[[-95.8584179, 36.1486384], [-95.8583041, 36.1486388], [-95.858308, 36.1494002], [-95.8584219, 36.1493998], [-95.8584179, 36.1486384]]]}, "properties": {"osm_id": 1342542543, "building": "yes", "name": "", "height": null, "height_m": null, "levels": null, "tract_id": "40143008900", "tract_name": "89", "tags": {"building": "yes", "source": "microsoft/BuildingFootprints"}}}, {"type": "Feature", "geometry": {"type": "Polygon", "coordinates": [[[-95.8582603, 36.1491672], [-95.8580472, 36.1491664], [-95.858046, 36.1493709], [-95.8582591, 36.1493717], [-95.8582603, 36.1491672]]]}, "properties": {"osm_id": 1342542544, "building": "yes", "name": "", "height": null, "height_m": null, "levels": null, "tract_id": "40143008900", "tract_name": "89", "tags": {"building": "yes", "source": "microsoft/BuildingFootprints"}}}, {"type": "Feature", "geometry": {"type": "Polygon", "coordinates": [[[-95.8584221, 36.1495953], [-95.8584215, 36.1494363], [-95.8580138, 36.1494371], [-95.8580144, 36.1495962], [-95.8584221, 36.1495953]]]}, "properties": {"osm_id": 1342542545, "building": "yes", "name": "", "height": null, "height_m": null, "levels": null, "tract_id": "40143008900", "tract_name": "89", "tags": {"building": "yes", "source": "microsoft/BuildingFootprints"}}}, {"type": "Feature", "geometry": {"type": "Polygon", "coordinates": [[[-95.858117, 36.1490081], [-95.8581149, 36.1491229], [-95.8582368, 36.1491243], [-95.8582388, 36.1490096], [-95.858117, 36.1490081]]]}, "properties": {"osm_id": 1342542546, "building": "yes", "name": "", "height": null, "height_m": null, "levels": null, "tract_id": "40143008900", "tract_name": "89", "tags": {"building": "yes", "source": "microsoft/BuildingFootprints"}}}, {"type": "Feature", "geometry": {"type": "Polygon", "coordinates": [[[-95.8643977, 36.1590577], [-95.8643982, 36.1591846], [-95.8650017, 36.159183], [-95.8650012, 36.1590561], [-95.8643977, 36.1590577]]]}, "properties": {"osm_id": 1342550843, "building": "yes", "name": "", "height": null, "height_m": null, "levels": null, "tract_id": "40143008900", "tract_name": "89", "tags": {"building": "yes", "source": "microsoft/BuildingFootprints"}}}, {"type": "Feature", "geometry": {"type": "Polygon", "coordinates": [[[-95.8621634, 36.1590714], [-95.862168, 36.159199], [-95.8623985, 36.1591937], [-95.8623939, 36.159066], [-95.8621634, 36.1590714]]]}, "properties": {"osm_id": 1342550844, "building": "yes", "name": "", "height": null, "height_m": null, "levels": null, "tract_id": "40143008900", "tract_name": "89", "tags": {"building": "yes", "source": "microsoft/BuildingFootprints"}}}, {"type": "Feature", "geometry": {"type": "Polygon", "coordinates": [[[-95.8619749, 36.1594046], [-95.8619743, 36.1595335], [-95.8625819, 36.1595354], [-95.8625825, 36.1594065], [-95.8619749, 36.1594046]]]}, "properties": {"osm_id": 1342550845, "building": "yes", "name": "", "height": null, "height_m": null, "levels": null, "tract_id": "40143008900", "tract_name": "89", "tags": {"building": "yes", "source": "microsoft/BuildingFootprints"}}}, {"type": "Feature", "geometry": {"type": "Polygon", "coordinates": [[[-95.8620191, 36.1597994], [-95.8620227, 36.1600495], [-95.8621836, 36.1600479], [-95.86218, 36.1597979], [-95.8620191, 36.1597994]]]}, "properties": {"osm_id": 1342550846, "building": "yes", "name": "", "height": null, "height_m": null, "levels": null, "tract_id": "40143008900", "tract_name": "89", "tags": {"building": "yes", "source": "microsoft/BuildingFootprints"}}}, {"type": "Feature", "geometry": {"type": "Polygon", "coordinates": [[[-95.8625476, 36.1597956], [-95.8623894, 36.1597959], [-95.8623902, 36.160045], [-95.8625485, 36.1600446], [-95.8625476, 36.1597956]]]}, "properties": {"osm_id": 1342550847, "building": "yes", "name": "", "height": null, "height_m": null, "levels": null, "tract_id": "40143008900", "tract_name": "89", "tags": {"building": "yes", "source": "microsoft/BuildingFootprints"}}}, {"type": "Feature", "geometry": {"type": "Polygon", "coordinates": [[[-95.8628989, 36.1595496], [-95.8628968, 36.1596796], [-95.8631274, 36.1596821], [-95.8631296, 36.1595522], [-95.8628989, 36.1595496]]]}, "properties": {"osm_id": 1342550848, "building": "yes", "name": "", "height": null, "height_m": null, "levels": null, "tract_id": "40143008900", "tract_name": "89", "tags": {"building": "yes", "source": "microsoft/BuildingFootprints"}}}, {"type": "Feature", "geometry": {"type": "Polygon", "coordinates": [[[-95.8628991, 36.159435], [-95.8631309, 36.1594312], [-95.8631277, 36.1593013], [-95.8628958, 36.1593052], [-95.8628991, 36.159435]]]}, "properties": {"osm_id": 1342550849, "building": "yes", "name": "", "height": null, "height_m": null, "levels": null, "tract_id": "40143008900", "tract_name": "89", "tags": {"building": "yes", "source": "microsoft/BuildingFootprints"}}}, {"type": "Feature", "geometry": {"type": "Polygon", "coordinates": [[[-95.8631937, 36.1590544], [-95.8625904, 36.1590643], [-95.8625937, 36.1591909], [-95.8631969, 36.1591809], [-95.8631937, 36.1590544]]]}, "properties": {"osm_id": 1342550850, "building": "yes", "name": "", "height": null, "height_m": null, "levels": null, "tract_id": "40143008900", "tract_name": "89", "tags": {"building": "yes", "source": "microsoft/BuildingFootprints"}}}, {"type": "Feature", "geometry": {"type": "Polygon", "coordinates": [[[-95.8634709, 36.1596917], [-95.8634727, 36.1595943], [-95.8631535, 36.1595906], [-95.8631518, 36.159688], [-95.8634709, 36.1596917]]]}, "properties": {"osm_id": 1342550851, "building": "yes", "name": "", "height": null, "height_m": null, "levels": null, "tract_id": "40143008900", "tract_name": "89", "tags": {"building": "yes", "source": "microsoft/BuildingFootprints"}}}, {"type": "Feature", "geometry": {"type": "Polygon", "coordinates": [[[-95.8629966, 36.1599291], [-95.8630033, 36.1600554], [-95.863192, 36.160049], [-95.8631924, 36.1600555], [-95.8634788, 36.1600457], [-95.8634722, 36.1599193], [-95.8631964, 36.1599287], [-95.8631961, 36.1599223], [-95.8629966, 36.1599291]]]}, "properties": {"osm_id": 1342550852, "building": "yes", "name": "", "height": null, "height_m": null, "levels": null, "tract_id": "40143008900", "tract_name": "89", "tags": {"building": "yes", "source": "microsoft/BuildingFootprints"}}}, {"type": "Feature", "geometry": {"type": "Polygon", "coordinates": [[[-95.8638572, 36.1598482], [-95.8635749, 36.1599364], [-95.8636327, 36.160057], [-95.8639149, 36.1599688], [-95.8638572, 36.1598482]]]}, "properties": {"osm_id": 1342550853, "building": "yes", "name": "", "height": null, "height_m": null, "levels": null, "tract_id": "40143008900", "tract_name": "89", "tags": {"building": "yes", "source": "microsoft/BuildingFootprints"}}}, {"type": "Feature", "geometry": {"type": "Polygon", "coordinates": [[[-95.8638755, 36.1597574], [-95.8640582, 36.1599593], [-95.8641867, 36.1598834], [-95.864004, 36.1596816], [-95.8638755, 36.1597574]]]}, "properties": {"osm_id": 1342550854, "building": "yes", "name": "", "height": null, "height_m": null, "levels": null, "tract_id": "40143008900", "tract_name": "89", "tags": {"building": "yes", "source": "microsoft/BuildingFootprints"}}}, {"type": "Feature", "geometry": {"type": "Polygon", "coordinates": [[[-95.8640855, 36.1596243], [-95.8642585, 36.1598291], [-95.8643931, 36.1597551], [-95.86422, 36.1595502], [-95.8640855, 36.1596243]]]}, "properties": {"osm_id": 1342550855, "building": "yes", "name": "", "height": null, "height_m": null, "levels": null, "tract_id": "40143008900", "tract_name": "89", "tags": {"building": "yes", "source": "microsoft/BuildingFootprints"}}}, {"type": "Feature", "geometry": {"type": "Polygon", "coordinates": [[[-95.8650053, 36.1595862], [-95.8650019, 36.1594585], [-95.8647231, 36.1594633], [-95.864723, 36.1594602], [-95.8643932, 36.1594659], [-95.8643965, 36.1595902], [-95.8647289, 36.1595845], [-95.8647291, 36.159591], [-95.8650053, 36.1595862]]]}, "properties": {"osm_id": 1342550856, "building": "yes", "name": "", "height": null, "height_m": null, "levels": null, "tract_id": "40143008900", "tract_name": "89", "tags": {"building": "yes", "source": "microsoft/BuildingFootprints"}}}, {"type": "Feature", "geometry": {"type": "Polygon", "coordinates": [[[-95.8639525, 36.1592148], [-95.8640483, 36.1593208], [-95.8642985, 36.1591733], [-95.8642027, 36.1590674], [-95.8639525, 36.1592148]]]}, "properties": {"osm_id": 1342550857, "building": "yes", "name": "", "height": null, "height_m": null, "levels": null, "tract_id": "40143008900", "tract_name": "89", "tags": {"building": "yes", "source": "microsoft/BuildingFootprints"}}}, {"type": "Feature", "geometry": {"type": "Polygon", "coordinates": [[[-95.8639097, 36.1592679], [-95.8635501, 36.1594629], [-95.8636371, 36.1595673], [-95.8639966, 36.1593723], [-95.8639097, 36.1592679]]]}, "properties": {"osm_id": 1342550858, "building": "yes", "name": "", "height": null, "height_m": null, "levels": null, "tract_id": "40143008900", "tract_name": "89", "tags": {"building": "yes", "source": "microsoft/BuildingFootprints"}}}, {"type": "Feature", "geometry": {"type": "Polygon", "coordinates": [[[-95.8647499, 36.1493372], [-95.8647518, 36.149413], [-95.8649169, 36.1494102], [-95.8649149, 36.1493345], [-95.8647499, 36.1493372]]]}, "properties": {"osm_id": 1342550859, "building": "yes", "name": "", "height": null, "height_m": null, "levels": null, "tract_id": "40143008900", "tract_name": "89", "tags": {"building": "yes", "source": "microsoft/BuildingFootprints"}}}, {"type": "Feature", "geometry": {"type": "Polygon", "coordinates": [[[-95.8647795, 36.149469], [-95.8647837, 36.1496877], [-95.8648695, 36.1496867], [-95.8648676, 36.1495871], [-95.8648944, 36.1495867], [-95.8648934, 36.1495369], [-95.8648598, 36.1495373], [-95.8648584, 36.1494681], [-95.8647795, 36.149469]]]}, "properties": {"osm_id": 1342550860, "building": "yes", "name": "", "height": null, "height_m": null, "levels": null, "tract_id": "40143008900", "tract_name": "89", "tags": {"building": "yes", "source": "microsoft/BuildingFootprints"}}}, {"type": "Feature", "geometry": {"type": "Polygon", "coordinates": [[[-95.8646993, 36.1498393], [-95.8647001, 36.1499411], [-95.8647967, 36.1499406], [-95.8647972, 36.1500055], [-95.864698, 36.1500061], [-95.8646988, 36.15011], [-95.865069, 36.150108], [-95.8650682, 36.1500106], [-95.8649636, 36.1500111], [-95.864963, 36.1499418], [-95.8650596, 36.1499413], [-95.8650587, 36.1498374], [-95.8646993, 36.1498393]]]}, "properties": {"osm_id": 1342550861, "building": "yes", "name": "", "height": null, "height_m": null, "levels": null, "tract_id": "40143008900", "tract_name": "89", "tags": {"building": "yes", "source": "microsoft/BuildingFootprints"}}}, {"type": "Feature", "geometry": {"type": "Polygon", "coordinates": [[[-95.8647006, 36.1506586], [-95.86506, 36.1506578], [-95.8650597, 36.1505604], [-95.8649659, 36.1505606], [-95.8649656, 36.1504913], [-95.8650649, 36.1504911], [-95.8650646, 36.1503901], [-95.8646998, 36.1503909], [-95.8647001, 36.1504918], [-95.8647967, 36.1504916], [-95.8647969, 36.1505588], [-95.8647003, 36.150559], [-95.8647006, 36.1506586]]]}, "properties": {"osm_id": 1342550862, "building": "yes", "name": "", "height": null, "height_m": null, "levels": null, "tract_id": "40143008900", "tract_name": "89", "tags": {"building": "yes", "source": "microsoft/BuildingFootprints"}}}, {"type": "Feature", "geometry": {"type": "Polygon", "coordinates": [[[-95.864701, 36.1510567], [-95.8647895, 36.1510567], [-95.8647895, 36.1511009], [-95.864701, 36.1511009], [-95.864701, 36.1511867], [-95.8651087, 36.1511868], [-95.8651087, 36.1511045], [-95.8650255, 36.1511045], [-95.8650256, 36.1510568], [-95.8651114, 36.1510568], [-95.8651114, 36.150968], [-95.864701, 36.1509679], [-95.864701, 36.1510567]]]}, "properties": {"osm_id": 1342550863, "building": "yes", "name": "", "height": null, "height_m": null, "levels": null, "tract_id": "40143008900", "tract_name": "89", "tags": {"building": "yes", "source": "microsoft/BuildingFootprints"}}}, {"type": "Feature", "geometry": {"type": "Polygon", "coordinates": [[[-95.8647004, 36.1514492], [-95.8651108, 36.1514524], [-95.8651118, 36.1513628], [-95.865026, 36.1513621], [-95.8650265, 36.1513188], [-95.865111, 36.1513195], [-95.8651121, 36.1512328], [-95.8647017, 36.1512296], [-95.8647007, 36.1513184], [-95.8647892, 36.1513191], [-95.8647887, 36.1513624], [-95.8647015, 36.1513617], [-95.8647004, 36.1514492]]]}, "properties": {"osm_id": 1342550864, "building": "yes", "name": "", "height": null, "height_m": null, "levels": null, "tract_id": "40143008900", "tract_name": "89", "tags": {"building": "yes", "source": "microsoft/BuildingFootprints"}}}, {"type": "Feature", "geometry": {"type": "Polygon", "coordinates": [[[-95.8648928, 36.1517974], [-95.8647131, 36.1517946], [-95.8647111, 36.1518812], [-95.8648907, 36.151884], [-95.8648928, 36.1517974]]]}, "properties": {"osm_id": 1342551104, "building": "yes", "name": "", "height": null, "height_m": null, "levels": null, "tract_id": "40143008900", "tract_name": "89", "tags": {"building": "yes", "source": "microsoft/BuildingFootprints"}}}, {"type": "Feature", "geometry": {"type": "Polygon", "coordinates": [[[-95.8649264, 36.1518879], [-95.8650954, 36.1518894], [-95.8650967, 36.1517919], [-95.8650336, 36.1517914], [-95.8650341, 36.1517546], [-95.8649282, 36.1517537], [-95.8649264, 36.1518879]]]}, "properties": {"osm_id": 1342551105, "building": "yes", "name": "", "height": null, "height_m": null, "levels": null, "tract_id": "40143008900", "tract_name": "89", "tags": {"building": "yes", "source": "microsoft/BuildingFootprints"}}}, {"type": "Feature", "geometry": {"type": "Polygon", "coordinates": [[[-95.865146, 36.1517593], [-95.8651431, 36.1518827], [-95.8653188, 36.1518854], [-95.8653204, 36.1518183], [-95.8652507, 36.1518172], [-95.865252, 36.1517609], [-95.865146, 36.1517593]]]}, "properties": {"osm_id": 1342551106, "building": "yes", "name": "", "height": null, "height_m": null, "levels": null, "tract_id": "40143008900", "tract_name": "89", "tags": {"building": "yes", "source": "microsoft/BuildingFootprints"}}}, {"type": "Feature", "geometry": {"type": "Polygon", "coordinates": [[[-95.8653638, 36.1517544], [-95.8653605, 36.1518842], [-95.8655335, 36.1518871], [-95.8655353, 36.1518178], [-95.8654695, 36.1518167], [-95.865471, 36.1517561], [-95.8653638, 36.1517544]]]}, "properties": {"osm_id": 1342551107, "building": "yes", "name": "", "height": null, "height_m": null, "levels": null, "tract_id": "40143008900", "tract_name": "89", "tags": {"building": "yes", "source": "microsoft/BuildingFootprints"}}}, {"type": "Feature", "geometry": {"type": "Polygon", "coordinates": [[[-95.8656851, 36.1517554], [-95.8655779, 36.1517563], [-95.8655796, 36.1518841], [-95.8657539, 36.1518825], [-95.865753, 36.1518162], [-95.865686, 36.1518168], [-95.8656851, 36.1517554]]]}, "properties": {"osm_id": 1342551108, "building": "yes", "name": "", "height": null, "height_m": null, "levels": null, "tract_id": "40143008900", "tract_name": "89", "tags": {"building": "yes", "source": "microsoft/BuildingFootprints"}}}, {"type": "Feature", "geometry": {"type": "Polygon", "coordinates": [[[-95.8659696, 36.1518871], [-95.8659741, 36.1517386], [-95.865887, 36.1517369], [-95.8658861, 36.1517663], [-95.865791, 36.1517644], [-95.8657877, 36.1518705], [-95.8658923, 36.1518726], [-95.8658919, 36.1518856], [-95.8659696, 36.1518871]]]}, "properties": {"osm_id": 1342551109, "building": "yes", "name": "", "height": null, "height_m": null, "levels": null, "tract_id": "40143008900", "tract_name": "89", "tags": {"building": "yes", "source": "microsoft/BuildingFootprints"}}}, {"type": "Feature", "geometry": {"type": "Polygon", "coordinates": [[[-95.866007, 36.1517493], [-95.8660076, 36.1518879], [-95.8661913, 36.1518874], [-95.8661907, 36.1517488], [-95.866007, 36.1517493]]]}, "properties": {"osm_id": 1342551110, "building": "yes", "name": "", "height": null, "height_m": null, "levels": null, "tract_id": "40143008900", "tract_name": "89", "tags": {"building": "yes", "source": "microsoft/BuildingFootprints"}}}, {"type": "Feature", "geometry": {"type": "Polygon", "coordinates": [[[-95.8662258, 36.1518815], [-95.8664027, 36.1518855], [-95.8664051, 36.1518162], [-95.8663327, 36.1518146], [-95.8663347, 36.1517561], [-95.8662302, 36.1517538], [-95.8662258, 36.1518815]]]}, "properties": {"osm_id": 1342551111, "building": "yes", "name": "", "height": null, "height_m": null, "levels": null, "tract_id": "40143008900", "tract_name": "89", "tags": {"building": "yes", "source": "microsoft/BuildingFootprints"}}}, {"type": "Feature", "geometry": {"type": "Polygon", "coordinates": [[[-95.8664445, 36.1518821], [-95.8666215, 36.1518807], [-95.8666206, 36.151802], [-95.8665589, 36.1518025], [-95.8665582, 36.1517462], [-95.8664429, 36.151747], [-95.8664445, 36.1518821]]]}, "properties": {"osm_id": 1342551112, "building": "yes", "name": "", "height": null, "height_m": null, "levels": null, "tract_id": "40143008900", "tract_name": "89", "tags": {"building": "yes", "source": "microsoft/BuildingFootprints"}}}, {"type": "Feature", "geometry": {"type": "Polygon", "coordinates": [[[-95.866661, 36.151886], [-95.8667602, 36.1518844], [-95.8667587, 36.1518224], [-95.8668379, 36.1518212], [-95.8668362, 36.1517497], [-95.8666578, 36.1517525], [-95.866661, 36.151886]]]}, "properties": {"osm_id": 1342551113, "building": "yes", "name": "", "height": null, "height_m": null, "levels": null, "tract_id": "40143008900", "tract_name": "89", "tags": {"building": "yes", "source": "microsoft/BuildingFootprints"}}}, {"type": "Feature", "geometry": {"type": "Polygon", "coordinates": [[[-95.862605, 36.1517995], [-95.8624227, 36.1517967], [-95.8624207, 36.1518833], [-95.862603, 36.1518861], [-95.862605, 36.1517995]]]}, "properties": {"osm_id": 1342551235, "building": "yes", "name": "", "height": null, "height_m": null, "levels": null, "tract_id": "40143008900", "tract_name": "89", "tags": {"building": "yes", "source": "microsoft/BuildingFootprints"}}}, {"type": "Feature", "geometry": {"type": "Polygon", "coordinates": [[[-95.8628815, 36.1518887], [-95.8630598, 36.1518865], [-95.8630573, 36.1517565], [-95.8628789, 36.1517588], [-95.8628815, 36.1518887]]]}, "properties": {"osm_id": 1342551236, "building": "yes", "name": "", "height": null, "height_m": null, "levels": null, "tract_id": "40143008900", "tract_name": "89", "tags": {"building": "yes", "source": "microsoft/BuildingFootprints"}}}, {"type": "Feature", "geometry": {"type": "Polygon", "coordinates": [[[-95.862655, 36.1518868], [-95.8628332, 36.1518834], [-95.8628293, 36.1517492], [-95.8627355, 36.151751], [-95.8627368, 36.1517953], [-95.8626524, 36.1517969], [-95.862655, 36.1518868]]]}, "properties": {"osm_id": 1342551237, "building": "yes", "name": "", "height": null, "height_m": null, "levels": null, "tract_id": "40143008900", "tract_name": "89", "tags": {"building": "yes", "source": "microsoft/BuildingFootprints"}}}, {"type": "Feature", "geometry": {"type": "Polygon", "coordinates": [[[-95.8633011, 36.1518837], [-95.8632998, 36.1517863], [-95.863092, 36.1517881], [-95.8630934, 36.1518856], [-95.8633011, 36.1518837]]]}, "properties": {"osm_id": 1342551238, "building": "yes", "name": "", "height": null, "height_m": null, "levels": null, "tract_id": "40143008900", "tract_name": "89", "tags": {"building": "yes", "source": "microsoft/BuildingFootprints"}}}, {"type": "Feature", "geometry": {"type": "Polygon", "coordinates": [[[-95.8637463, 36.1517888], [-95.8637034, 36.151789], [-95.8637031, 36.1517609], [-95.8636415, 36.1517613], [-95.8636417, 36.1517894], [-95.8635478, 36.15179], [-95.8635487, 36.1518853], [-95.8636801, 36.1518845], [-95.8636806, 36.1519343], [-95.8637476, 36.1519339], [-95.8637463, 36.1517888]]]}, "properties": {"osm_id": 1342551239, "building": "yes", "name": "", "height": null, "height_m": null, "levels": null, "tract_id": "40143008900", "tract_name": "89", "tags": {"building": "yes", "source": "microsoft/BuildingFootprints"}}}, {"type": "Feature", "geometry": {"type": "Polygon", "coordinates": [[[-95.8643842, 36.1517098], [-95.8642747, 36.1516947], [-95.8642389, 36.151864], [-95.8643823, 36.1518837], [-95.864397, 36.1518143], [-95.8643631, 36.1518096], [-95.8643842, 36.1517098]]]}, "properties": {"osm_id": 1342551240, "building": "yes", "name": "", "height": null, "height_m": null, "levels": null, "tract_id": "40143008900", "tract_name": "89", "tags": {"building": "yes", "source": "microsoft/BuildingFootprints"}}}, {"type": "Feature", "geometry": {"type": "Polygon", "coordinates": [[[-95.86401, 36.1518901], [-95.8641924, 36.1518876], [-95.8641891, 36.1517274], [-95.8641462, 36.151728], [-95.8641457, 36.151702], [-95.8640947, 36.1517027], [-95.8640957, 36.1517503], [-95.8640072, 36.1517515], [-95.86401, 36.1518901]]]}, "properties": {"osm_id": 1342551241, "building": "yes", "name": "", "height": null, "height_m": null, "levels": null, "tract_id": "40143008900", "tract_name": "89", "tags": {"building": "yes", "source": "microsoft/BuildingFootprints"}}}, {"type": "Feature", "geometry": {"type": "Polygon", "coordinates": [[[-95.8639585, 36.1517518], [-95.8637855, 36.1517548], [-95.8637893, 36.1518943], [-95.8639622, 36.1518912], [-95.8639585, 36.1517518]]]}, "properties": {"osm_id": 1342551242, "building": "yes", "name": "", "height": null, "height_m": null, "levels": null, "tract_id": "40143008900", "tract_name": "89", "tags": {"building": "yes", "source": "microsoft/BuildingFootprints"}}}, {"type": "Feature", "geometry": {"type": "Polygon", "coordinates": [[[-95.863329, 36.1518901], [-95.8634309, 36.1518909], [-95.8634317, 36.1518259], [-95.8635095, 36.1518265], [-95.8635106, 36.1517269], [-95.8633845, 36.1517259], [-95.8633841, 36.1517606], [-95.8633305, 36.1517602], [-95.863329, 36.1518901]]]}, "properties": {"osm_id": 1342551243, "building": "yes", "name": "", "height": null, "height_m": null, "levels": null, "tract_id": "40143008900", "tract_name": "89", "tags": {"building": "yes", "source": "microsoft/BuildingFootprints"}}}, {"type": "Feature", "geometry": {"type": "Polygon", "coordinates": [[[-95.862414, 36.152315], [-95.862552, 36.1523138], [-95.8625514, 36.152264], [-95.8626104, 36.1522636], [-95.8626091, 36.1521639], [-95.8624121, 36.1521656], [-95.862414, 36.152315]]]}, "properties": {"osm_id": 1342551244, "building": "yes", "name": "", "height": null, "height_m": null, "levels": null, "tract_id": "40143008900", "tract_name": "89", "tags": {"building": "yes", "source": "microsoft/BuildingFootprints"}}}, {"type": "Feature", "geometry": {"type": "Polygon", "coordinates": [[[-95.8626415, 36.1521616], [-95.8626389, 36.152298], [-95.8627435, 36.1522992], [-95.8627448, 36.1522278], [-95.8628119, 36.1522286], [-95.8628131, 36.1521637], [-95.8626415, 36.1521616]]]}, "properties": {"osm_id": 1342551245, "building": "yes", "name": "", "height": null, "height_m": null, "levels": null, "tract_id": "40143008900", "tract_name": "89", "tags": {"building": "yes", "source": "microsoft/BuildingFootprints"}}}, {"type": "Feature", "geometry": {"type": "Polygon", "coordinates": [[[-95.8628453, 36.1522985], [-95.8629445, 36.1522973], [-95.8629435, 36.1522463], [-95.8629864, 36.1522457], [-95.8629874, 36.1522945], [-95.8630276, 36.152294], [-95.8630249, 36.1521586], [-95.8628426, 36.1521609], [-95.8628453, 36.1522985]]]}, "properties": {"osm_id": 1342551246, "building": "yes", "name": "", "height": null, "height_m": null, "levels": null, "tract_id": "40143008900", "tract_name": "89", "tags": {"building": "yes", "source": "microsoft/BuildingFootprints"}}}, {"type": "Feature", "geometry": {"type": "Polygon", "coordinates": [[[-95.8630609, 36.1522913], [-95.8631669, 36.1522904], [-95.8631661, 36.1522288], [-95.8632344, 36.1522282], [-95.8632334, 36.1521589], [-95.8630591, 36.1521604], [-95.8630609, 36.1522913]]]}, "properties": {"osm_id": 1342551247, "building": "yes", "name": "", "height": null, "height_m": null, "levels": null, "tract_id": "40143008900", "tract_name": "89", "tags": {"building": "yes", "source": "microsoft/BuildingFootprints"}}}, {"type": "Feature", "geometry": {"type": "Polygon", "coordinates": [[[-95.8632679, 36.1522642], [-95.8633376, 36.1522636], [-95.8633381, 36.1523004], [-95.8634454, 36.1522995], [-95.8634436, 36.1521631], [-95.8632666, 36.1521646], [-95.8632679, 36.1522642]]]}, "properties": {"osm_id": 1342551248, "building": "yes", "name": "", "height": null, "height_m": null, "levels": null, "tract_id": "40143008900", "tract_name": "89", "tags": {"building": "yes", "source": "microsoft/BuildingFootprints"}}}, {"type": "Feature", "geometry": {"type": "Polygon", "coordinates": [[[-95.8634816, 36.1521643], [-95.8634801, 36.1522509], [-95.8636544, 36.1522529], [-95.8636559, 36.1521663], [-95.8634816, 36.1521643]]]}, "properties": {"osm_id": 1342551249, "building": "yes", "name": "", "height": null, "height_m": null, "levels": null, "tract_id": "40143008900", "tract_name": "89", "tags": {"building": "yes", "source": "microsoft/BuildingFootprints"}}}, {"type": "Feature", "geometry": {"type": "Polygon", "coordinates": [[[-95.8637254, 36.1523232], [-95.8638461, 36.1523225], [-95.8638447, 36.1521557], [-95.863724, 36.1521564], [-95.8637254, 36.1523232]]]}, "properties": {"osm_id": 1342551250, "building": "detached", "name": "", "height": null, "height_m": null, "levels": null, "tract_id": "40143008900", "tract_name": "89", "tags": {"addr:city": "Tulsa", "addr:country": "US", "addr:housenumber": "619", "addr:postcode": "74128", "addr:state": "OK", "addr:street": "South 102nd Avenue East", "building": "detached", "source": "microsoft/BuildingFootprints;INCOG"}}}, {"type": "Feature", "geometry": {"type": "Polygon", "coordinates": [[[-95.8641268, 36.152339], [-95.8642341, 36.1523387], [-95.8642339, 36.1522898], [-95.864258, 36.1522897], [-95.8642579, 36.1522499], [-95.864231, 36.1522499], [-95.8642306, 36.152159], [-95.864126, 36.1521593], [-95.8641268, 36.152339]]]}, "properties": {"osm_id": 1342551251, "building": "detached", "name": "", "height": null, "height_m": null, "levels": null, "tract_id": "40143008900", "tract_name": "89", "tags": {"addr:city": "Tulsa", "addr:country": "US", "addr:housenumber": "620", "addr:postcode": "74128", "addr:state": "OK", "addr:street": "South 102nd Avenue East", "building": "detached", "source": "INCOG"}}}, {"type": "Feature", "geometry": {"type": "Polygon", "coordinates": [[[-95.8643113, 36.1522957], [-95.8644132, 36.1522963], [-95.8644134, 36.1522724], [-95.8644885, 36.1522729], [-95.8644896, 36.1521559], [-95.8643126, 36.1521549], [-95.8643113, 36.1522957]]]}, "properties": {"osm_id": 1342551252, "building": "yes", "name": "", "height": null, "height_m": null, "levels": null, "tract_id": "40143008900", "tract_name": "89", "tags": {"building": "yes", "source": "microsoft/BuildingFootprints"}}}, {"type": "Feature", "geometry": {"type": "Polygon", "coordinates": [[[-95.8646131, 36.1522903], [-95.8646125, 36.152325], [-95.8646902, 36.1523259], [-95.8646932, 36.152157], [-95.8645216, 36.152155], [-95.8645192, 36.1522892], [-95.8646131, 36.1522903]]]}, "properties": {"osm_id": 1342551253, "building": "yes", "name": "", "height": null, "height_m": null, "levels": null, "tract_id": "40143008900", "tract_name": "89", "tags": {"building": "yes", "source": "microsoft/BuildingFootprints"}}}, {"type": "Feature", "geometry": {"type": "Polygon", "coordinates": [[[-95.864908, 36.1522504], [-95.864909, 36.1521647], [-95.8647347, 36.1521633], [-95.8647336, 36.152249], [-95.864908, 36.1522504]]]}, "properties": {"osm_id": 1342551254, "building": "yes", "name": "", "height": null, "height_m": null, "levels": null, "tract_id": "40143008900", "tract_name": "89", "tags": {"building": "yes", "source": "microsoft/BuildingFootprints"}}}, {"type": "Feature", "geometry": {"type": "Polygon", "coordinates": [[[-95.8649391, 36.1522906], [-95.8650329, 36.1522917], [-95.8650339, 36.1522367], [-95.8651197, 36.1522377], [-95.8651212, 36.1521541], [-95.8649415, 36.152152], [-95.8649391, 36.1522906]]]}, "properties": {"osm_id": 1342551255, "building": "yes", "name": "", "height": null, "height_m": null, "levels": null, "tract_id": "40143008900", "tract_name": "89", "tags": {"building": "yes", "source": "microsoft/BuildingFootprints"}}}, {"type": "Feature", "geometry": {"type": "Polygon", "coordinates": [[[-95.8653312, 36.1522113], [-95.8652454, 36.1522101], [-95.8652465, 36.152156], [-95.86515, 36.1521547], [-95.8651473, 36.1522824], [-95.8653296, 36.1522849], [-95.8653312, 36.1522113]]]}, "properties": {"osm_id": 1342551256, "building": "yes", "name": "", "height": null, "height_m": null, "levels": null, "tract_id": "40143008900", "tract_name": "89", "tags": {"building": "yes", "source": "microsoft/BuildingFootprints"}}}, {"type": "Feature", "geometry": {"type": "Polygon", "coordinates": [[[-95.86538, 36.1522463], [-95.8655999, 36.1522491], [-95.8656015, 36.152166], [-95.8653816, 36.1521632], [-95.86538, 36.1522463]]]}, "properties": {"osm_id": 1342551257, "building": "yes", "name": "", "height": null, "height_m": null, "levels": null, "tract_id": "40143008900", "tract_name": "89", "tags": {"building": "yes", "source": "microsoft/BuildingFootprints"}}}, {"type": "Feature", "geometry": {"type": "Polygon", "coordinates": [[[-95.8681983, 36.1522193], [-95.868421, 36.1522206], [-95.8684218, 36.1521288], [-95.8681992, 36.1521275], [-95.8681983, 36.1522193]]]}, "properties": {"osm_id": 1342551258, "building": "yes", "name": "", "height": null, "height_m": null, "levels": null, "tract_id": "40143008900", "tract_name": "89", "tags": {"building": "yes", "source": "microsoft/BuildingFootprints"}}}, {"type": "Feature", "geometry": {"type": "Polygon", "coordinates": [[[-95.8683067, 36.1523845], [-95.8683102, 36.1522828], [-95.8682004, 36.1522803], [-95.8681952, 36.1524266], [-95.8683078, 36.1524292], [-95.8683094, 36.1523846], [-95.8683067, 36.1523845]]]}, "properties": {"osm_id": 1342551259, "building": "yes", "name": "", "height": null, "height_m": null, "levels": null, "tract_id": "40143008900", "tract_name": "89", "tags": {"building": "yes", "source": "microsoft/BuildingFootprints"}}}, {"type": "Feature", "geometry": {"type": "Polygon", "coordinates": [[[-95.8683584, 36.1525378], [-95.8683562, 36.1524512], [-95.8681992, 36.1524538], [-95.8682029, 36.1525946], [-95.868286, 36.1525932], [-95.8682846, 36.152539], [-95.8683584, 36.1525378]]]}, "properties": {"osm_id": 1342551260, "building": "yes", "name": "", "height": null, "height_m": null, "levels": null, "tract_id": "40143008900", "tract_name": "89", "tags": {"building": "yes", "source": "microsoft/BuildingFootprints"}}}, {"type": "Feature", "geometry": {"type": "Polygon", "coordinates": [[[-95.8683584, 36.1526235], [-95.8682017, 36.1526225], [-95.8682003, 36.1527624], [-95.868357, 36.1527634], [-95.8683584, 36.1526235]]]}, "properties": {"osm_id": 1342551261, "building": "yes", "name": "", "height": null, "height_m": null, "levels": null, "tract_id": "40143008900", "tract_name": "89", "tags": {"building": "yes", "source": "microsoft/BuildingFootprints"}}}, {"type": "Feature", "geometry": {"type": "Polygon", "coordinates": [[[-95.8682684, 36.1529403], [-95.8683661, 36.1529411], [-95.8683673, 36.1528545], [-95.8683887, 36.1528546], [-95.8683895, 36.152794], [-95.8682018, 36.1527924], [-95.8682008, 36.1528704], [-95.8682693, 36.152871], [-95.8682684, 36.1529403]]]}, "properties": {"osm_id": 1342551262, "building": "yes", "name": "", "height": null, "height_m": null, "levels": null, "tract_id": "40143008900", "tract_name": "89", "tags": {"building": "yes", "source": "microsoft/BuildingFootprints"}}}, {"type": "Feature", "geometry": {"type": "Polygon", "coordinates": [[[-95.8683617, 36.1530463], [-95.8683597, 36.1529597], [-95.8681988, 36.1529621], [-95.8682022, 36.153105], [-95.868288, 36.1531037], [-95.8682866, 36.1530474], [-95.8683617, 36.1530463]]]}, "properties": {"osm_id": 1342551263, "building": "yes", "name": "", "height": null, "height_m": null, "levels": null, "tract_id": "40143008900", "tract_name": "89", "tags": {"building": "yes", "source": "microsoft/BuildingFootprints"}}}, {"type": "Feature", "geometry": {"type": "Polygon", "coordinates": [[[-95.8683577, 36.1531278], [-95.8681995, 36.1531307], [-95.8682018, 36.1532108], [-95.8682676, 36.1532096], [-95.8682697, 36.1532819], [-95.868362, 36.1532801], [-95.8683577, 36.1531278]]]}, "properties": {"osm_id": 1342551264, "building": "yes", "name": "", "height": null, "height_m": null, "levels": null, "tract_id": "40143008900", "tract_name": "89", "tags": {"building": "yes", "source": "microsoft/BuildingFootprints"}}}, {"type": "Feature", "geometry": {"type": "Polygon", "coordinates": [[[-95.8681988, 36.1534286], [-95.8684213, 36.1534324], [-95.8684236, 36.1533458], [-95.8682011, 36.153342], [-95.8681988, 36.1534286]]]}, "properties": {"osm_id": 1342551265, "building": "yes", "name": "", "height": null, "height_m": null, "levels": null, "tract_id": "40143008900", "tract_name": "89", "tags": {"building": "yes", "source": "microsoft/BuildingFootprints"}}}, {"type": "Feature", "geometry": {"type": "Polygon", "coordinates": [[[-95.866059, 36.1521422], [-95.8659545, 36.1521434], [-95.8659558, 36.1522214], [-95.865929, 36.1522217], [-95.8659304, 36.1523018], [-95.8660618, 36.1523003], [-95.866059, 36.1521422]]]}, "properties": {"osm_id": 1342551266, "building": "yes", "name": "", "height": null, "height_m": null, "levels": null, "tract_id": "40143008900", "tract_name": "89", "tags": {"addr:city": "Tulsa", "addr:country": "US", "addr:housenumber": "566", "addr:postcode": "74128", "addr:state": "OK", "addr:street": "South 99th Avenue East", "building": "yes", "source": "microsoft/BuildingFootprints;INCOG"}}}, {"type": "Feature", "geometry": {"type": "Polygon", "coordinates": [[[-95.8661173, 36.1521467], [-95.8661142, 36.1522809], [-95.8663019, 36.1522838], [-95.8663036, 36.1522102], [-95.8662151, 36.1522088], [-95.8662165, 36.1521482], [-95.8661173, 36.1521467]]]}, "properties": {"osm_id": 1342551267, "building": "yes", "name": "", "height": null, "height_m": null, "levels": null, "tract_id": "40143008900", "tract_name": "89", "tags": {"building": "yes", "source": "microsoft/BuildingFootprints"}}}, {"type": "Feature", "geometry": {"type": "Polygon", "coordinates": [[[-95.8665038, 36.1522288], [-95.8664367, 36.1522278], [-95.8664385, 36.1521542], [-95.8663313, 36.1521525], [-95.8663277, 36.1522997], [-95.866502, 36.1523024], [-95.8665038, 36.1522288]]]}, "properties": {"osm_id": 1342551268, "building": "yes", "name": "", "height": null, "height_m": null, "levels": null, "tract_id": "40143008900", "tract_name": "89", "tags": {"building": "yes", "source": "microsoft/BuildingFootprints"}}}, {"type": "Feature", "geometry": {"type": "Polygon", "coordinates": [[[-95.8667286, 36.1522084], [-95.8666414, 36.1522098], [-95.86664, 36.1521513], [-95.8665422, 36.1521528], [-95.866546, 36.1523159], [-95.8666345, 36.1523146], [-95.866634, 36.1522922], [-95.8667305, 36.1522907], [-95.8667286, 36.1522084]]]}, "properties": {"osm_id": 1342551269, "building": "yes", "name": "", "height": null, "height_m": null, "levels": null, "tract_id": "40143008900", "tract_name": "89", "tags": {"building": "yes", "source": "microsoft/BuildingFootprints"}}}, {"type": "Feature", "geometry": {"type": "Polygon", "coordinates": [[[-95.8667907, 36.1521549], [-95.8667897, 36.1522285], [-95.8667629, 36.1522283], [-95.8667624, 36.1522629], [-95.8667892, 36.1522632], [-95.8667885, 36.152313], [-95.8669187, 36.1523141], [-95.8669198, 36.1522362], [-95.8668995, 36.152236], [-95.8669006, 36.1521559], [-95.8667907, 36.1521549]]]}, "properties": {"osm_id": 1342551270, "building": "yes", "name": "", "height": null, "height_m": null, "levels": null, "tract_id": "40143008900", "tract_name": "89", "tags": {"building": "yes", "source": "microsoft/BuildingFootprints"}}}, {"type": "Feature", "geometry": {"type": "Polygon", "coordinates": [[[-95.8672217, 36.1522222], [-95.8674455, 36.1522193], [-95.867444, 36.1521413], [-95.8673917, 36.152142], [-95.8673915, 36.152132], [-95.8672199, 36.1521342], [-95.8672217, 36.1522222]]]}, "properties": {"osm_id": 1342551271, "building": "yes", "name": "", "height": null, "height_m": null, "levels": null, "tract_id": "40143008900", "tract_name": "89", "tags": {"building": "yes", "source": "microsoft/BuildingFootprints"}}}, {"type": "Feature", "geometry": {"type": "Polygon", "coordinates": [[[-95.8676577, 36.15226], [-95.8678668, 36.1522556], [-95.8678625, 36.1521228], [-95.8677553, 36.152125], [-95.8677573, 36.1521856], [-95.8676554, 36.1521877], [-95.8676577, 36.15226]]]}, "properties": {"osm_id": 1342551272, "building": "yes", "name": "", "height": null, "height_m": null, "levels": null, "tract_id": "40143008900", "tract_name": "89", "tags": {"building": "yes", "source": "microsoft/BuildingFootprints"}}}, {"type": "Feature", "geometry": {"type": "Polygon", "coordinates": [[[-95.8677725, 36.1524307], [-95.8678758, 36.1524286], [-95.8678711, 36.1522784], [-95.8676739, 36.1522825], [-95.8676768, 36.152372], [-95.8677706, 36.1523701], [-95.8677725, 36.1524307]]]}, "properties": {"osm_id": 1342551273, "building": "yes", "name": "", "height": null, "height_m": null, "levels": null, "tract_id": "40143008900", "tract_name": "89", "tags": {"building": "yes", "source": "microsoft/BuildingFootprints"}}}, {"type": "Feature", "geometry": {"type": "Polygon", "coordinates": [[[-95.8678736, 36.1524516], [-95.8676992, 36.152453], [-95.8677002, 36.1525323], [-95.8677673, 36.1525317], [-95.8677681, 36.1526019], [-95.8678754, 36.152601], [-95.8678736, 36.1524516]]]}, "properties": {"osm_id": 1342551274, "building": "yes", "name": "", "height": null, "height_m": null, "levels": null, "tract_id": "40143008900", "tract_name": "89", "tags": {"building": "yes", "source": "microsoft/BuildingFootprints"}}}, {"type": "Feature", "geometry": {"type": "Polygon", "coordinates": [[[-95.867751, 36.1527713], [-95.8678678, 36.1527723], [-95.8678699, 36.1526221], [-95.8676888, 36.1526204], [-95.8676876, 36.1527014], [-95.867752, 36.152702], [-95.867751, 36.1527713]]]}, "properties": {"osm_id": 1342551275, "building": "yes", "name": "", "height": null, "height_m": null, "levels": null, "tract_id": "40143008900", "tract_name": "89", "tags": {"building": "yes", "source": "microsoft/BuildingFootprints"}}}, {"type": "Feature", "geometry": {"type": "Polygon", "coordinates": [[[-95.8676818, 36.1528807], [-95.8677825, 36.1528796], [-95.8677835, 36.1529416], [-95.867872, 36.1529406], [-95.8678695, 36.1527899], [-95.8676803, 36.1527919], [-95.8676818, 36.1528807]]]}, "properties": {"osm_id": 1342551276, "building": "yes", "name": "", "height": null, "height_m": null, "levels": null, "tract_id": "40143008900", "tract_name": "89", "tags": {"building": "yes", "source": "microsoft/BuildingFootprints"}}}, {"type": "Feature", "geometry": {"type": "Polygon", "coordinates": [[[-95.867868, 36.1529671], [-95.8677097, 36.1529651], [-95.8677081, 36.1530495], [-95.8677563, 36.1530501], [-95.8677552, 36.1531043], [-95.8679284, 36.1531065], [-95.8679295, 36.1530481], [-95.8678664, 36.1530472], [-95.867868, 36.1529671]]]}, "properties": {"osm_id": 1342551277, "building": "yes", "name": "", "height": null, "height_m": null, "levels": null, "tract_id": "40143008900", "tract_name": "89", "tags": {"building": "yes", "source": "microsoft/BuildingFootprints"}}}, {"type": "Feature", "geometry": {"type": "Polygon", "coordinates": [[[-95.8676752, 36.1531337], [-95.8676732, 36.1532051], [-95.8677054, 36.1532057], [-95.8677032, 36.1532815], [-95.8678024, 36.1532833], [-95.8678044, 36.153214], [-95.8678741, 36.1532153], [-95.8678763, 36.1531374], [-95.8676752, 36.1531337]]]}, "properties": {"osm_id": 1342551278, "building": "yes", "name": "", "height": null, "height_m": null, "levels": null, "tract_id": "40143008900", "tract_name": "89", "tags": {"building": "yes", "source": "microsoft/BuildingFootprints"}}}, {"type": "Feature", "geometry": {"type": "Polygon", "coordinates": [[[-95.8676609, 36.1534341], [-95.8678728, 36.1534317], [-95.8678709, 36.1533234], [-95.8676591, 36.1533258], [-95.8676609, 36.1534341]]]}, "properties": {"osm_id": 1342551279, "building": "yes", "name": "", "height": null, "height_m": null, "levels": null, "tract_id": "40143008900", "tract_name": "89", "tags": {"building": "yes", "source": "microsoft/BuildingFootprints"}}}, {"type": "Feature", "geometry": {"type": "Polygon", "coordinates": [[[-95.8672201, 36.1534419], [-95.8673676, 36.1534423], [-95.8673677, 36.1534171], [-95.8674294, 36.1534173], [-95.8674297, 36.1533494], [-95.8672205, 36.1533487], [-95.8672201, 36.1534419]]]}, "properties": {"osm_id": 1342551280, "building": "yes", "name": "", "height": null, "height_m": null, "levels": null, "tract_id": "40143008900", "tract_name": "89", "tags": {"building": "yes", "source": "microsoft/BuildingFootprints"}}}, {"type": "Feature", "geometry": {"type": "Polygon", "coordinates": [[[-95.8673187, 36.1532792], [-95.8674501, 36.1532783], [-95.8674484, 36.1531353], [-95.8672163, 36.153137], [-95.8672171, 36.1532077], [-95.8673178, 36.153207], [-95.8673187, 36.1532792]]]}, "properties": {"osm_id": 1342551281, "building": "yes", "name": "", "height": null, "height_m": null, "levels": null, "tract_id": "40143008900", "tract_name": "89", "tags": {"building": "yes", "source": "microsoft/BuildingFootprints"}}}, {"type": "Feature", "geometry": {"type": "Polygon", "coordinates": [[[-95.8672163, 36.1531121], [-95.8673665, 36.1531106], [-95.8673662, 36.1530933], [-95.8674333, 36.1530926], [-95.8674323, 36.1530298], [-95.8673947, 36.1530302], [-95.8673937, 36.1529652], [-95.8672945, 36.1529662], [-95.8672957, 36.153042], [-95.8672152, 36.1530428], [-95.8672163, 36.1531121]]]}, "properties": {"osm_id": 1342551282, "building": "yes", "name": "", "height": null, "height_m": null, "levels": null, "tract_id": "40143008900", "tract_name": "89", "tags": {"building": "yes", "source": "microsoft/BuildingFootprints"}}}, {"type": "Feature", "geometry": {"type": "Polygon", "coordinates": [[[-95.8672167, 36.1528691], [-95.8672891, 36.1528697], [-95.8672882, 36.1529412], [-95.8673794, 36.1529419], [-95.8673813, 36.1527903], [-95.8672177, 36.152789], [-95.8672167, 36.1528691]]]}, "properties": {"osm_id": 1342551283, "building": "yes", "name": "", "height": null, "height_m": null, "levels": null, "tract_id": "40143008900", "tract_name": "89", "tags": {"building": "yes", "source": "microsoft/BuildingFootprints"}}}, {"type": "Feature", "geometry": {"type": "Polygon", "coordinates": [[[-95.8672216, 36.152628], [-95.8672243, 36.1527674], [-95.8673036, 36.1527663], [-95.8673025, 36.1527122], [-95.8673815, 36.1527112], [-95.8673798, 36.1526259], [-95.8672216, 36.152628]]]}, "properties": {"osm_id": 1342551284, "building": "yes", "name": "", "height": null, "height_m": null, "levels": null, "tract_id": "40143008900", "tract_name": "89", "tags": {"building": "yes", "source": "microsoft/BuildingFootprints"}}}, {"type": "Feature", "geometry": {"type": "Polygon", "coordinates": [[[-95.8520986, 36.158484], [-95.8517445, 36.1584835], [-95.851746, 36.1578773], [-95.8519618, 36.1578776], [-95.851962, 36.1578192], [-95.8520573, 36.1578193], [-95.852057, 36.1579393], [-95.8521, 36.1579394], [-95.8520986, 36.158484]]]}, "properties": {"osm_id": 1385847469, "building": "industrial", "name": "", "height": null, "height_m": null, "levels": null, "tract_id": "40143008900", "tract_name": "89", "tags": {"addr:city": "Tulsa", "addr:country": "US", "addr:housenumber": "102", "addr:postcode": "74128", "addr:state": "OK", "addr:street": "South Garnett Road East", "building": "industrial"}}}]}