{"type": "FeatureCollection", "features": [{"type": "Feature", "geometry": {"type": "Polygon", "coordinates": [[[-97.3749546, 34.9817923], [-97.3751667, 34.9816181], [-97.3750392, 34.9815138], [-97.3748142, 34.9816985], [-97.3748909, 34.9817612], [-97.3749037, 34.9817507], [-97.3749546, 34.9817923]]]}, "properties": {"osm_id": 147108266, "building": "yes", "name": "", "height": null, "height_m": null, "levels": null, "tract_id": "40087400203", "tract_name": "4002.03", "tags": {"building": "yes"}}}, {"type": "Feature", "geometry": {"type": "Polygon", "coordinates": [[[-97.4310914, 35.0002181], [-97.431093, 35.0000906], [-97.4309428, 35.0000874], [-97.4309443, 35.0002175], [-97.4310914, 35.0002181]]]}, "properties": {"osm_id": 982729156, "building": "yes", "name": "", "height": null, "height_m": null, "levels": null, "tract_id": "40087400203", "tract_name": "4002.03", "tags": {"building": "yes"}}}, {"type": "Feature", "geometry": {"type": "Polygon", "coordinates": [[[-97.4950036, 35.0113869], [-97.4948954, 35.011388], [-97.4948934, 35.0112871], [-97.494875, 35.0112867], [-97.4948731, 35.011219], [-97.4948928, 35.0112176], [-97.4948904, 35.0111687], [-97.4950006, 35.0111667], [-97.4950006, 35.0112794], [-97.4950359, 35.011281], [-97.4950363, 35.0113417], [-97.4950041, 35.0113426], [-97.4950036, 35.0113869]]]}, "properties": {"osm_id": 984246039, "building": "yes", "name": "", "height": null, "height_m": null, "levels": null, "tract_id": "40087400203", "tract_name": "4002.03", "tags": {"building": "yes"}}}, {"type": "Feature", "geometry": {"type": "Polygon", "coordinates": [[[-97.4940967, 35.0119618], [-97.4938662, 35.0119631], [-97.4938652, 35.0119488], [-97.4938369, 35.0119488], [-97.4938329, 35.0118369], [-97.4939611, 35.0118369], [-97.4939616, 35.0118272], [-97.4940887, 35.0118243], [-97.4940967, 35.0119618]]]}, "properties": {"osm_id": 984246040, "building": "yes", "name": "", "height": null, "height_m": null, "levels": null, "tract_id": "40087400203", "tract_name": "4002.03", "tags": {"building": "yes"}}}, {"type": "Feature", "geometry": {"type": "Polygon", "coordinates": [[[-97.4916026, 35.0577129], [-97.491487, 35.0576449], [-97.4916293, 35.0575013], [-97.4916808, 35.0575246], [-97.4916974, 35.0575042], [-97.4917703, 35.0575489], [-97.4917437, 35.0575726], [-97.4917484, 35.057578], [-97.4916565, 35.0576716], [-97.4916488, 35.0576668], [-97.4916026, 35.0577129]]]}, "properties": {"osm_id": 985399488, "building": "yes", "name": "", "height": null, "height_m": null, "levels": null, "tract_id": "40087400203", "tract_name": "4002.03", "tags": {"building": "yes"}}}, {"type": "Feature", "geometry": {"type": "Polygon", "coordinates": [[[-97.4918232, 35.0574596], [-97.4916883, 35.0574169], [-97.4917124, 35.0573658], [-97.4916835, 35.0573566], [-97.4917186, 35.0572823], [-97.4917453, 35.0572908], [-97.4917607, 35.0572581], [-97.491955, 35.0573195], [-97.4919237, 35.0573858], [-97.4918666, 35.0573677], [-97.4918232, 35.0574596]]]}, "properties": {"osm_id": 985399489, "building": "yes", "name": "", "height": null, "height_m": null, "levels": null, "tract_id": "40087400203", "tract_name": "4002.03", "tags": {"building": "yes"}}}, {"type": "Feature", "geometry": {"type": "Polygon", "coordinates": [[[-97.4919812, 35.0572309], [-97.4919632, 35.0572272], [-97.4919758, 35.0572066], [-97.4920144, 35.0572184], [-97.4920422, 35.057161], [-97.4920351, 35.0571581], [-97.4920521, 35.0571316], [-97.4919704, 35.0571044], [-97.4919569, 35.0571294], [-97.4918716, 35.0571066], [-97.4918491, 35.0571618], [-97.491823, 35.0571544], [-97.4917844, 35.0572294], [-97.4919488, 35.0572824], [-97.4919812, 35.0572309]]]}, "properties": {"osm_id": 985399490, "building": "yes", "name": "", "height": null, "height_m": null, "levels": null, "tract_id": "40087400203", "tract_name": "4002.03", "tags": {"building": "yes"}}}, {"type": "Feature", "geometry": {"type": "Polygon", "coordinates": [[[-97.4915932, 35.0569636], [-97.4916233, 35.0569105], [-97.4916428, 35.0569179], [-97.4916837, 35.0568457], [-97.4915308, 35.0567876], [-97.4915128, 35.0568194], [-97.4915063, 35.0568169], [-97.4914952, 35.0568366], [-97.4915042, 35.05684], [-97.4914943, 35.0568573], [-97.4914642, 35.0568459], [-97.4914322, 35.0569025], [-97.4915932, 35.0569636]]]}, "properties": {"osm_id": 985399491, "building": "yes", "name": "", "height": null, "height_m": null, "levels": null, "tract_id": "40087400203", "tract_name": "4002.03", "tags": {"building": "yes"}}}, {"type": "Feature", "geometry": {"type": "Polygon", "coordinates": [[[-97.4914923, 35.0571729], [-97.4912894, 35.0571128], [-97.491329, 35.0570231], [-97.4913805, 35.0570383], [-97.4913926, 35.0570111], [-97.4914101, 35.0570162], [-97.4914274, 35.056977], [-97.4915613, 35.0570167], [-97.4914923, 35.0571729]]]}, "properties": {"osm_id": 985399492, "building": "yes", "name": "", "height": null, "height_m": null, "levels": null, "tract_id": "40087400203", "tract_name": "4002.03", "tags": {"building": "yes"}}}, {"type": "Feature", "geometry": {"type": "Polygon", "coordinates": [[[-97.4913817, 35.0573551], [-97.4914095, 35.0572953], [-97.491432, 35.0573023], [-97.491467, 35.0572272], [-97.4913095, 35.057178], [-97.4912981, 35.0572024], [-97.4912876, 35.0571991], [-97.4912731, 35.0572303], [-97.4912872, 35.0572347], [-97.4912796, 35.0572509], [-97.4912401, 35.0572385], [-97.4912107, 35.0573017], [-97.4913817, 35.0573551]]]}, "properties": {"osm_id": 985399493, "building": "yes", "name": "", "height": null, "height_m": null, "levels": null, "tract_id": "40087400203", "tract_name": "4002.03", "tags": {"building": "yes"}}}, {"type": "Feature", "geometry": {"type": "Polygon", "coordinates": [[[-97.4911642, 35.0575985], [-97.4912557, 35.0576126], [-97.4912628, 35.0575857], [-97.4913214, 35.057594], [-97.4913668, 35.0574109], [-97.4912299, 35.0573892], [-97.4912307, 35.0573981], [-97.4912237, 35.0574], [-97.4912244, 35.0574173], [-97.4912151, 35.0574154], [-97.4912166, 35.0574449], [-97.4911932, 35.0574436], [-97.491183, 35.0574884], [-97.4912158, 35.0574925], [-97.4912133, 35.0575039], [-97.4911839, 35.0575006], [-97.4911642, 35.0575985]]]}, "properties": {"osm_id": 985399494, "building": "yes", "name": "", "height": null, "height_m": null, "levels": null, "tract_id": "40087400203", "tract_name": "4002.03", "tags": {"building": "yes"}}}, {"type": "Feature", "geometry": {"type": "Polygon", "coordinates": [[[-97.4908939, 35.0570983], [-97.4908361, 35.05709], [-97.4908369, 35.0570862], [-97.4907923, 35.0570779], [-97.4907899, 35.0570855], [-97.4907281, 35.0570779], [-97.4907312, 35.0570653], [-97.4906898, 35.057058], [-97.490695, 35.0570265], [-97.4906241, 35.0570164], [-97.4906429, 35.0569409], [-97.4906984, 35.0569485], [-97.4906976, 35.0569556], [-97.4907454, 35.056962], [-97.4907454, 35.056953], [-97.4907821, 35.0569543], [-97.4907829, 35.0569473], [-97.4908142, 35.0569537], [-97.4908165, 35.0569402], [-97.4908627, 35.056946], [-97.4908615, 35.05695], [-97.4909287, 35.0569554], [-97.4909252, 35.0569729], [-97.4909401, 35.0569751], [-97.4909271, 35.0570362], [-97.4909144, 35.057033], [-97.4908939, 35.0570983]]]}, "properties": {"osm_id": 985399495, "building": "yes", "name": "", "height": null, "height_m": null, "levels": null, "tract_id": "40087400203", "tract_name": "4002.03", "tags": {"building": "yes"}}}, {"type": "Feature", "geometry": {"type": "Polygon", "coordinates": [[[-97.468399, 35.0514255], [-97.4682698, 35.0513887], [-97.4683847, 35.0511182], [-97.4685124, 35.0511561], [-97.4684981, 35.051193], [-97.4685366, 35.0512083], [-97.4684805, 35.0513219], [-97.468439, 35.0513146], [-97.468399, 35.0514255]]]}, "properties": {"osm_id": 985458913, "building": "yes", "name": "", "height": null, "height_m": null, "levels": null, "tract_id": "40087400203", "tract_name": "4002.03", "tags": {"building": "yes"}}}, {"type": "Feature", "geometry": {"type": "Polygon", "coordinates": [[[-97.4690284, 35.0510358], [-97.4687188, 35.0510531], [-97.4687119, 35.0509706], [-97.4690248, 35.050953], [-97.4690284, 35.0510358]]]}, "properties": {"osm_id": 985458914, "building": "yes", "name": "", "height": null, "height_m": null, "levels": null, "tract_id": "40087400203", "tract_name": "4002.03", "tags": {"building": "yes"}}}, {"type": "Feature", "geometry": {"type": "Polygon", "coordinates": [[[-97.4690191, 35.0509083], [-97.4690188, 35.0508235], [-97.4687032, 35.0508374], [-97.4687032, 35.0508696], [-97.4686665, 35.050871], [-97.4686697, 35.0509217], [-97.4690191, 35.0509083]]]}, "properties": {"osm_id": 985458915, "building": "yes", "name": "", "height": null, "height_m": null, "levels": null, "tract_id": "40087400203", "tract_name": "4002.03", "tags": {"building": "yes"}}}, {"type": "Feature", "geometry": {"type": "Polygon", "coordinates": [[[-97.6548124, 35.0229745], [-97.6547589, 35.022973], [-97.6547655, 35.0228187], [-97.6548189, 35.0228202], [-97.6548124, 35.0229745]]]}, "properties": {"osm_id": 985801081, "building": "yes", "name": "", "height": null, "height_m": null, "levels": null, "tract_id": "40087400203", "tract_name": "4002.03", "tags": {"building": "yes"}}}, {"type": "Feature", "geometry": {"type": "Polygon", "coordinates": [[[-97.3823233, 34.9956736], [-97.3823225, 34.9956213], [-97.3821885, 34.9956204], [-97.3821916, 34.9956739], [-97.3823233, 34.9956736]]]}, "properties": {"osm_id": 987919948, "building": "yes", "name": "", "height": null, "height_m": null, "levels": null, "tract_id": "40087400203", "tract_name": "4002.03", "tags": {"building": "yes"}}}, {"type": "Feature", "geometry": {"type": "Polygon", "coordinates": [[[-97.6686213, 34.9720084], [-97.6686377, 34.9717986], [-97.6688201, 34.9718082], [-97.6688036, 34.972018], [-97.6686213, 34.9720084]]]}, "properties": {"osm_id": 1059597935, "building": "house", "name": "", "height": null, "height_m": null, "levels": null, "tract_id": "40087400203", "tract_name": "4002.03", "tags": {"addr:city": "Alex", "addr:housenumber": "10113", "addr:postcode": "73002", "addr:state": "OK", "addr:street": "180th Street", "building": "house"}}}, {"type": "Feature", "geometry": {"type": "Polygon", "coordinates": [[[-97.6689848, 34.9717482], [-97.6689855, 34.9718262], [-97.6690713, 34.9718257], [-97.6690706, 34.9717477], [-97.6689848, 34.9717482]]]}, "properties": {"osm_id": 1059597936, "building": "yes", "name": "", "height": null, "height_m": null, "levels": null, "tract_id": "40087400203", "tract_name": "4002.03", "tags": {"building": "yes"}}}, {"type": "Feature", "geometry": {"type": "Polygon", "coordinates": [[[-97.6658505, 34.9722358], [-97.6657328, 34.9720744], [-97.6657826, 34.97205], [-97.6659004, 34.9722113], [-97.6658505, 34.9722358]]]}, "properties": {"osm_id": 1059597944, "building": "static_caravan", "name": "", "height": null, "height_m": null, "levels": null, "tract_id": "40087400203", "tract_name": "4002.03", "tags": {"building": "static_caravan"}}}, {"type": "Feature", "geometry": {"type": "Polygon", "coordinates": [[[-97.6658227, 34.9731232], [-97.6657881, 34.9730732], [-97.6659869, 34.9729809], [-97.6660214, 34.9730309], [-97.6658227, 34.9731232]]]}, "properties": {"osm_id": 1059597946, "building": "static_caravan", "name": "", "height": null, "height_m": null, "levels": null, "tract_id": "40087400203", "tract_name": "4002.03", "tags": {"building": "static_caravan"}}}, {"type": "Feature", "geometry": {"type": "Polygon", "coordinates": [[[-97.6651948, 34.9738381], [-97.6651123, 34.9737776], [-97.665219, 34.9736798], [-97.6653016, 34.9737403], [-97.6651948, 34.9738381]]]}, "properties": {"osm_id": 1059597947, "building": "yes", "name": "", "height": null, "height_m": null, "levels": null, "tract_id": "40087400203", "tract_name": "4002.03", "tags": {"building": "yes"}}}, {"type": "Feature", "geometry": {"type": "Polygon", "coordinates": [[[-97.6657141, 34.9738185], [-97.6656223, 34.9737743], [-97.665732, 34.973621], [-97.6658238, 34.9736652], [-97.6657141, 34.9738185]]]}, "properties": {"osm_id": 1059597948, "building": "house", "name": "", "height": null, "height_m": null, "levels": null, "tract_id": "40087400203", "tract_name": "4002.03", "tags": {"addr:city": "Alex", "addr:housenumber": "18158", "addr:postcode": "73002", "addr:state": "OK", "addr:street": "Apricot Lane", "building": "house"}}}, {"type": "Feature", "geometry": {"type": "Polygon", "coordinates": [[[-97.6637394, 34.9745586], [-97.6637356, 34.9744905], [-97.6636867, 34.9744923], [-97.6636905, 34.9745604], [-97.6637394, 34.9745586]]]}, "properties": {"osm_id": 1059597953, "building": "yes", "name": "", "height": null, "height_m": null, "levels": null, "tract_id": "40087400203", "tract_name": "4002.03", "tags": {"building": "yes"}}}, {"type": "Feature", "geometry": {"type": "Polygon", "coordinates": [[[-97.6637407, 34.9744454], [-97.6637462, 34.9743982], [-97.663679, 34.9743929], [-97.6636735, 34.97444], [-97.6637407, 34.9744454]]]}, "properties": {"osm_id": 1059597954, "building": "yes", "name": "", "height": null, "height_m": null, "levels": null, "tract_id": "40087400203", "tract_name": "4002.03", "tags": {"building": "yes"}}}, {"type": "Feature", "geometry": {"type": "Polygon", "coordinates": [[[-97.6637315, 34.9749916], [-97.6637333, 34.9749141], [-97.6638137, 34.9749154], [-97.6638119, 34.9749928], [-97.6637315, 34.9749916]]]}, "properties": {"osm_id": 1059597955, "building": "yes", "name": "", "height": null, "height_m": null, "levels": null, "tract_id": "40087400203", "tract_name": "4002.03", "tags": {"building": "yes"}}}, {"type": "Feature", "geometry": {"type": "Polygon", "coordinates": [[[-97.6643543, 34.974497], [-97.6643612, 34.9744343], [-97.6643404, 34.9744327], [-97.6643483, 34.9743618], [-97.6644098, 34.9743669], [-97.6644016, 34.9745005], [-97.6643543, 34.974497]]]}, "properties": {"osm_id": 1059597956, "building": "yes", "name": "", "height": null, "height_m": null, "levels": null, "tract_id": "40087400203", "tract_name": "4002.03", "tags": {"building": "yes"}}}, {"type": "Feature", "geometry": {"type": "Polygon", "coordinates": [[[-97.6636862, 34.9746639], [-97.6636878, 34.9745757], [-97.6639044, 34.9745785], [-97.6639032, 34.9746433], [-97.663869, 34.9746429], [-97.6638684, 34.9746709], [-97.6638384, 34.9746706], [-97.6638377, 34.9747104], [-97.6637275, 34.974709], [-97.6637284, 34.9746644], [-97.6636862, 34.9746639]]]}, "properties": {"osm_id": 1059597957, "building": "house", "name": "", "height": null, "height_m": null, "levels": null, "tract_id": "40087400203", "tract_name": "4002.03", "tags": {"addr:city": "Alex", "addr:housenumber": "18248", "addr:postcode": "73002", "addr:state": "OK", "addr:street": "Apricot Lane", "building": "house"}}}, {"type": "Feature", "geometry": {"type": "Polygon", "coordinates": [[[-97.6655768, 34.9755768], [-97.6656002, 34.9754133], [-97.6654961, 34.9754033], [-97.6654728, 34.9755669], [-97.6655768, 34.9755768]]]}, "properties": {"osm_id": 1059597959, "building": "house", "name": "", "height": null, "height_m": null, "levels": null, "tract_id": "40087400203", "tract_name": "4002.03", "tags": {"addr:city": "Alex", "addr:housenumber": "18308", "addr:postcode": "73002", "addr:state": "OK", "addr:street": "Apricot Lane", "building": "house"}}}, {"type": "Feature", "geometry": {"type": "Polygon", "coordinates": [[[-97.6651266, 34.9761867], [-97.6651398, 34.9761245], [-97.6650454, 34.9761111], [-97.6650323, 34.9761733], [-97.6651266, 34.9761867]]]}, "properties": {"osm_id": 1059597960, "building": "yes", "name": "", "height": null, "height_m": null, "levels": null, "tract_id": "40087400203", "tract_name": "4002.03", "tags": {"building": "yes"}}}, {"type": "Feature", "geometry": {"type": "Polygon", "coordinates": [[[-97.6651786, 34.9761138], [-97.6651947, 34.9760414], [-97.6652257, 34.9759017], [-97.665168, 34.9758931], [-97.6651209, 34.9761052], [-97.6651786, 34.9761138]]]}, "properties": {"osm_id": 1059597961, "building": "static_caravan", "name": "", "height": null, "height_m": null, "levels": null, "tract_id": "40087400203", "tract_name": "4002.03", "tags": {"building": "static_caravan"}}}, {"type": "Feature", "geometry": {"type": "Polygon", "coordinates": [[[-97.6650281, 34.9765166], [-97.6650792, 34.9763473], [-97.6652006, 34.976372], [-97.6651495, 34.9765412], [-97.6650281, 34.9765166]]]}, "properties": {"osm_id": 1059597963, "building": "yes", "name": "", "height": null, "height_m": null, "levels": null, "tract_id": "40087400203", "tract_name": "4002.03", "tags": {"building": "yes"}}}, {"type": "Feature", "geometry": {"type": "Polygon", "coordinates": [[[-97.6651014, 34.9766798], [-97.6651271, 34.9765958], [-97.6650184, 34.9765735], [-97.6649927, 34.9766575], [-97.6651014, 34.9766798]]]}, "properties": {"osm_id": 1059597964, "building": "yes", "name": "", "height": null, "height_m": null, "levels": null, "tract_id": "40087400203", "tract_name": "4002.03", "tags": {"building": "yes"}}}, {"type": "Feature", "geometry": {"type": "Polygon", "coordinates": [[[-97.6650715, 34.9773519], [-97.6650791, 34.977139], [-97.6651421, 34.9771405], [-97.6651346, 34.9773534], [-97.6650715, 34.9773519]]]}, "properties": {"osm_id": 1059597965, "building": "static_caravan", "name": "", "height": null, "height_m": null, "levels": null, "tract_id": "40087400203", "tract_name": "4002.03", "tags": {"addr:city": "Alex", "addr:housenumber": "18448", "addr:postcode": "73002", "addr:state": "OK", "addr:street": "Apricot Lane", "building": "static_caravan"}}}, {"type": "Feature", "geometry": {"type": "Polygon", "coordinates": [[[-97.6649717, 34.9774421], [-97.6649749, 34.977385], [-97.6649265, 34.9773832], [-97.6649234, 34.9774403], [-97.6649717, 34.9774421]]]}, "properties": {"osm_id": 1059597966, "building": "yes", "name": "", "height": null, "height_m": null, "levels": null, "tract_id": "40087400203", "tract_name": "4002.03", "tags": {"building": "yes"}}}, {"type": "Feature", "geometry": {"type": "Polygon", "coordinates": [[[-97.6648361, 34.9783886], [-97.6648083, 34.9783383], [-97.6647129, 34.9783737], [-97.6647407, 34.978424], [-97.6648361, 34.9783886]]]}, "properties": {"osm_id": 1059597967, "building": "yes", "name": "", "height": null, "height_m": null, "levels": null, "tract_id": "40087400203", "tract_name": "4002.03", "tags": {"building": "yes"}}}, {"type": "Feature", "geometry": {"type": "Polygon", "coordinates": [[[-97.6649484, 34.9785904], [-97.6648429, 34.9783981], [-97.6649395, 34.9783625], [-97.6650449, 34.9785548], [-97.6649484, 34.9785904]]]}, "properties": {"osm_id": 1059597968, "building": "house", "name": "", "height": null, "height_m": null, "levels": null, "tract_id": "40087400203", "tract_name": "4002.03", "tags": {"addr:city": "Alex", "addr:housenumber": "18456", "addr:postcode": "73002", "addr:state": "OK", "addr:street": "Apricot Lane", "building": "house"}}}, {"type": "Feature", "geometry": {"type": "Polygon", "coordinates": [[[-97.6669526, 34.9774807], [-97.6670477, 34.9772782], [-97.6671143, 34.9772993], [-97.6670193, 34.9775017], [-97.6669526, 34.9774807]]]}, "properties": {"osm_id": 1059597969, "building": "static_caravan", "name": "", "height": null, "height_m": null, "levels": null, "tract_id": "40087400203", "tract_name": "4002.03", "tags": {"building": "static_caravan"}}}, {"type": "Feature", "geometry": {"type": "Polygon", "coordinates": [[[-97.3785782, 34.98596], [-97.3782956, 34.9859595], [-97.3782961, 34.9857562], [-97.3785787, 34.9857567], [-97.3785782, 34.98596]]]}, "properties": {"osm_id": 1070668116, "building": "yes", "name": "Brent Bruehl Memorial Golf Course", "height": null, "height_m": null, "levels": null, "tract_id": "40087400203", "tract_name": "4002.03", "tags": {"access": "yes", "addr:city": "Purcell", "addr:housenumber": "1400", "addr:postcode": "73080", "addr:state": "OK", "addr:street": "Chandler Park Road", "building": "yes", "golf": "clubhouse", "name": "Brent Bruehl Memorial Golf Course", "operator": "City of Purcell"}}}, {"type": "Feature", "geometry": {"type": "Polygon", "coordinates": [[[-97.5653577, 35.0028964], [-97.5654468, 35.0029378], [-97.5655759, 35.0027513], [-97.5654868, 35.0027099], [-97.5653577, 35.0028964]]]}, "properties": {"osm_id": 1075368178, "building": "yes", "name": "", "height": null, "height_m": null, "levels": null, "tract_id": "40087400203", "tract_name": "4002.03", "tags": {"building": "yes", "source": "microsoft/BuildingFootprints"}}}, {"type": "Feature", "geometry": {"type": "Polygon", "coordinates": [[[-97.5652043, 34.993544], [-97.5652051, 34.9934606], [-97.5652335, 34.9934608], [-97.5652327, 34.9935442], [-97.5652043, 34.993544]]]}, "properties": {"osm_id": 1075376639, "building": "yes", "name": "", "height": null, "height_m": null, "levels": null, "tract_id": "40087400203", "tract_name": "4002.03", "tags": {"building": "yes"}}}, {"type": "Feature", "geometry": {"type": "Polygon", "coordinates": [[[-97.5651575, 34.9923943], [-97.5650833, 34.992395], [-97.5650825, 34.9923355], [-97.5651567, 34.9923349], [-97.5651575, 34.9923943]]]}, "properties": {"osm_id": 1075376640, "building": "yes", "name": "", "height": null, "height_m": null, "levels": null, "tract_id": "40087400203", "tract_name": "4002.03", "tags": {"building": "yes"}}}, {"type": "Feature", "geometry": {"type": "Polygon", "coordinates": [[[-97.5651716, 34.9926355], [-97.5652646, 34.9926345], [-97.5652636, 34.9924415], [-97.5651696, 34.9924415], [-97.5651716, 34.9926355]]]}, "properties": {"osm_id": 1075376651, "building": "yes", "name": "", "height": null, "height_m": null, "levels": null, "tract_id": "40087400203", "tract_name": "4002.03", "tags": {"building": "yes", "source": "microsoft/BuildingFootprints"}}}, {"type": "Feature", "geometry": {"type": "Polygon", "coordinates": [[[-97.5652271, 34.9986861], [-97.5653391, 34.9986861], [-97.5653391, 34.9985484], [-97.5652271, 34.9985484], [-97.5652271, 34.9986861]]]}, "properties": {"osm_id": 1075376656, "building": "yes", "name": "", "height": null, "height_m": null, "levels": null, "tract_id": "40087400203", "tract_name": "4002.03", "tags": {"building": "yes", "source": "microsoft/BuildingFootprints"}}}, {"type": "Feature", "geometry": {"type": "Polygon", "coordinates": [[[-97.5651514, 34.9914815], [-97.5653084, 34.9914825], [-97.5653094, 34.9913995], [-97.5651524, 34.9913985], [-97.5651514, 34.9914815]]]}, "properties": {"osm_id": 1075376661, "building": "yes", "name": "", "height": null, "height_m": null, "levels": null, "tract_id": "40087400203", "tract_name": "4002.03", "tags": {"building": "yes", "source": "microsoft/BuildingFootprints"}}}, {"type": "Feature", "geometry": {"type": "Polygon", "coordinates": [[[-97.5651036, 34.999763], [-97.5651148, 34.9998396], [-97.5652092, 34.9998303], [-97.565198, 34.9997537], [-97.5651036, 34.999763]]]}, "properties": {"osm_id": 1075376662, "building": "yes", "name": "", "height": null, "height_m": null, "levels": null, "tract_id": "40087400203", "tract_name": "4002.03", "tags": {"building": "yes", "source": "microsoft/BuildingFootprints"}}}, {"type": "Feature", "geometry": {"type": "Polygon", "coordinates": [[[-97.5650462, 34.9926869], [-97.5650462, 34.9927439], [-97.5651452, 34.9927439], [-97.5651452, 34.9926869], [-97.5650462, 34.9926869]]]}, "properties": {"osm_id": 1075376664, "building": "yes", "name": "", "height": null, "height_m": null, "levels": null, "tract_id": "40087400203", "tract_name": "4002.03", "tags": {"building": "yes", "source": "microsoft/BuildingFootprints"}}}, {"type": "Feature", "geometry": {"type": "Polygon", "coordinates": [[[-97.5653082, 34.9937795], [-97.5653074, 34.9938332], [-97.5652397, 34.9938325], [-97.5652387, 34.9939024], [-97.5652855, 34.9939029], [-97.5652851, 34.9939314], [-97.5653059, 34.9939316], [-97.5653049, 34.9939975], [-97.5653739, 34.9939982], [-97.5653761, 34.9938553], [-97.5653976, 34.9938556], [-97.5653981, 34.9938226], [-97.5653753, 34.9938224], [-97.565376, 34.9937802], [-97.5653082, 34.9937795]]]}, "properties": {"osm_id": 1075376667, "building": "yes", "name": "", "height": null, "height_m": null, "levels": null, "tract_id": "40087400203", "tract_name": "4002.03", "tags": {"building": "yes", "source": "microsoft/BuildingFootprints"}}}, {"type": "Feature", "geometry": {"type": "Polygon", "coordinates": [[[-97.3804296, 34.975635], [-97.3802514, 34.9754881], [-97.380146, 34.975574], [-97.3801575, 34.9755835], [-97.3801334, 34.9756031], [-97.3801412, 34.9756095], [-97.380096, 34.9756464], [-97.380178, 34.975714], [-97.3802222, 34.975678], [-97.3802357, 34.9756891], [-97.3802611, 34.9756684], [-97.3803245, 34.9757206], [-97.3804296, 34.975635]]]}, "properties": {"osm_id": 1149644237, "building": "yes", "name": "", "height": null, "height_m": null, "levels": null, "tract_id": "40087400203", "tract_name": "4002.03", "tags": {"amenity": "place_of_worship", "building": "yes", "denomination": "jehovahs_witness", "religion": "christian", "source": "microsoft/BuildingFootprints"}}}, {"type": "Feature", "geometry": {"type": "Polygon", "coordinates": [[[-97.5117875, 35.0435003], [-97.511633, 35.0436068], [-97.5115436, 35.0435103], [-97.511694, 35.0434171], [-97.5117875, 35.0435003]]]}, "properties": {"osm_id": 1365075815, "building": "house", "name": "", "height": null, "height_m": null, "levels": null, "tract_id": "40087400203", "tract_name": "4002.03", "tags": {"addr:city": "washington", "addr:housenumber": "22756", "addr:street": "Santa Fe Avenue", "building": "house"}}}]}