{"type": "FeatureCollection", "features": [{"type": "Feature", "geometry": {"type": "Polygon", "coordinates": [[[-96.6776213, 34.7732826], [-96.6772355, 34.7732857], [-96.6772321, 34.7729933], [-96.677618, 34.7729903], [-96.6776213, 34.7732826]]]}, "properties": {"osm_id": 228393244, "building": "yes", "name": "Ada, Oklahoma 74820", "height": null, "height_m": null, "levels": null, "tract_id": "40123089200", "tract_name": "892", "tags": {"addr:city": "Ada", "addr:housenumber": "131", "addr:postcode": "74820", "addr:state": "OK", "addr:street": "East 12th Street", "amenity": "post_office", "building": "yes", "name": "Ada, Oklahoma 74820", "operator": "United States Postal Service", "operator:short": "USPS", "operator:type": "public", "operator:website": "https://www.usps.com", "operator:wikidata": "Q668687", "operator:wikipedia": "en:United States Postal Service"}}}, {"type": "Feature", "geometry": {"type": "Polygon", "coordinates": [[[-96.6793321, 34.7750511], [-96.6791551, 34.7750511], [-96.6791551, 34.7747005], [-96.6791551, 34.7746689], [-96.6793321, 34.7746689], [-96.6793321, 34.7750511]]]}, "properties": {"osm_id": 228429312, "building": "yes", "name": "", "height": null, "height_m": 6.0, "levels": 2, "tract_id": "40123089200", "tract_name": "892", "tags": {"addr:city": "Ada", "addr:housenumber": "108", "addr:postcode": "74820", "addr:state": "OK", "addr:street": "West Main Street", "building": "yes", "building:levels": "2"}}}, {"type": "Feature", "geometry": {"type": "Polygon", "coordinates": [[[-96.6793352, 34.78122], [-96.6790562, 34.7812205], [-96.6790555, 34.7809408], [-96.6793344, 34.7809403], [-96.6793352, 34.78122]]]}, "properties": {"osm_id": 527853484, "building": "yes", "name": "", "height": null, "height_m": null, "levels": null, "tract_id": "40123089200", "tract_name": "892", "tags": {"building": "yes"}}}, {"type": "Feature", "geometry": {"type": "Polygon", "coordinates": [[[-96.6790035, 34.77505], [-96.6788359, 34.77505], [-96.6788359, 34.7746711], [-96.6790035, 34.7746711], [-96.6790035, 34.7747012], [-96.6790035, 34.77505]]]}, "properties": {"osm_id": 606828533, "building": "yes", "name": "", "height": null, "height_m": 3.0, "levels": 1, "tract_id": "40123089200", "tract_name": "892", "tags": {"addr:city": "Ada", "addr:housenumber": "100", "addr:postcode": "74820", "addr:state": "OK", "addr:street": "West Main Street", "building": "yes", "building:levels": "1"}}}, {"type": "Feature", "geometry": {"type": "Polygon", "coordinates": [[[-96.679915, 34.7746697], [-96.6801992, 34.7746685], [-96.6802016, 34.7750637], [-96.6799175, 34.7750649], [-96.679915, 34.7746697]]]}, "properties": {"osm_id": 606837957, "building": "yes", "name": "McSwain Theatre", "height": null, "height_m": null, "levels": null, "tract_id": "40123089200", "tract_name": "892", "tags": {"addr:city": "Ada", "addr:housenumber": "130", "addr:place": "H2O.Church", "addr:postcode": "74820", "addr:state": "OK", "addr:street": "West Main Street", "amenity": "theatre", "building": "yes", "name": "McSwain Theatre", "operator": "The Chickasaw Nation", "phone": "+1-580-332-8108", "website": "https://mcswaintheatre.com/"}}}, {"type": "Feature", "geometry": {"type": "Polygon", "coordinates": [[[-96.6797599, 34.7746696], [-96.679915, 34.7746697], [-96.6799171, 34.7750633], [-96.6797628, 34.775064], [-96.6797599, 34.7746696]]]}, "properties": {"osm_id": 606837958, "building": "yes", "name": "", "height": null, "height_m": null, "levels": null, "tract_id": "40123089200", "tract_name": "892", "tags": {"building": "yes"}}}, {"type": "Feature", "geometry": {"type": "Polygon", "coordinates": [[[-96.6796744, 34.7750517], [-96.6796754, 34.7746695], [-96.6797599, 34.7746696], [-96.6797589, 34.7750519], [-96.6796744, 34.7750517]]]}, "properties": {"osm_id": 606837959, "building": "yes", "name": "", "height": null, "height_m": null, "levels": null, "tract_id": "40123089200", "tract_name": "892", "tags": {"building": "yes"}}}, {"type": "Feature", "geometry": {"type": "Polygon", "coordinates": [[[-96.6795872, 34.7750516], [-96.6795882, 34.7746693], [-96.6796754, 34.7746695], [-96.6796744, 34.7750517], [-96.6795872, 34.7750516]]]}, "properties": {"osm_id": 606837960, "building": "retail", "name": "", "height": null, "height_m": null, "levels": null, "tract_id": "40123089200", "tract_name": "892", "tags": {"building": "retail"}}}, {"type": "Feature", "geometry": {"type": "Polygon", "coordinates": [[[-96.6794987, 34.7750514], [-96.6794997, 34.7746692], [-96.6795882, 34.7746693], [-96.6795872, 34.7750516], [-96.6794987, 34.7750514]]]}, "properties": {"osm_id": 606837961, "building": "retail", "name": "", "height": null, "height_m": null, "levels": null, "tract_id": "40123089200", "tract_name": "892", "tags": {"building": "retail"}}}, {"type": "Feature", "geometry": {"type": "Polygon", "coordinates": [[[-96.6793321, 34.7750511], [-96.6793331, 34.7746689], [-96.6794997, 34.7746692], [-96.6794987, 34.7750514], [-96.6793321, 34.7750511]]]}, "properties": {"osm_id": 606837962, "building": "retail", "name": "", "height": null, "height_m": null, "levels": null, "tract_id": "40123089200", "tract_name": "892", "tags": {"building": "retail"}}}, {"type": "Feature", "geometry": {"type": "Polygon", "coordinates": [[[-96.6792758, 34.7754719], [-96.6791765, 34.7754727], [-96.6791764, 34.7755097], [-96.6788332, 34.7755094], [-96.6788335, 34.7750909], [-96.6792734, 34.7750953], [-96.6792758, 34.7754719]]]}, "properties": {"osm_id": 606837963, "building": "yes", "name": "", "height": null, "height_m": null, "levels": null, "tract_id": "40123089200", "tract_name": "892", "tags": {"building": "yes"}}}, {"type": "Feature", "geometry": {"type": "Polygon", "coordinates": [[[-96.6760504, 34.7731487], [-96.6756025, 34.7731465], [-96.6756018, 34.7730303], [-96.675573, 34.7730303], [-96.6755723, 34.7729273], [-96.6756045, 34.7729261], [-96.6756047, 34.7727334], [-96.6755603, 34.7727334], [-96.6755616, 34.7726083], [-96.6756064, 34.7726091], [-96.6760543, 34.7726113], [-96.6760504, 34.7731487]]]}, "properties": {"osm_id": 608805971, "building": "yes", "name": "", "height": null, "height_m": null, "levels": null, "tract_id": "40123089200", "tract_name": "892", "tags": {"addr:city": "Ada", "addr:housenumber": "220", "addr:postcode": "74820", "addr:street": "East 13th Street", "building": "yes"}}}, {"type": "Feature", "geometry": {"type": "Polygon", "coordinates": [[[-96.6777956, 34.7728714], [-96.6775483, 34.7728697], [-96.6775523, 34.7724783], [-96.6777995, 34.77248], [-96.6777972, 34.7727376], [-96.6777952, 34.7728618], [-96.6777956, 34.7728714]]]}, "properties": {"osm_id": 608809519, "building": "yes", "name": "", "height": null, "height_m": null, "levels": null, "tract_id": "40123089200", "tract_name": "892", "tags": {"building": "yes"}}}, {"type": "Feature", "geometry": {"type": "Polygon", "coordinates": [[[-96.6777952, 34.7728618], [-96.6777972, 34.7727376], [-96.6778781, 34.7727385], [-96.6778761, 34.7728626], [-96.6777952, 34.7728618]]]}, "properties": {"osm_id": 608809520, "building": "yes", "name": "", "height": null, "height_m": null, "levels": null, "tract_id": "40123089200", "tract_name": "892", "tags": {"building": "yes"}}}, {"type": "Feature", "geometry": {"type": "Polygon", "coordinates": [[[-96.678219, 34.7711484], [-96.6778328, 34.771152], [-96.6778314, 34.7711614], [-96.6775218, 34.7711605], [-96.6775219, 34.7709559], [-96.6775826, 34.7709565], [-96.6775826, 34.7709691], [-96.6778217, 34.7709678], [-96.6778207, 34.7709263], [-96.6781735, 34.7709263], [-96.6781724, 34.7710353], [-96.678217, 34.7710355], [-96.678219, 34.7711484]]]}, "properties": {"osm_id": 608809525, "building": "yes", "name": "Central Fire Station", "height": null, "height_m": null, "levels": null, "tract_id": "40123089200", "tract_name": "892", "tags": {"amenity": "fire_station", "building": "yes", "name": "Central Fire Station", "operator": "City of Ada"}}}, {"type": "Feature", "geometry": {"type": "Polygon", "coordinates": [[[-96.6862686, 34.7714995], [-96.6862701, 34.7715944], [-96.6864749, 34.7715922], [-96.6864735, 34.7714973], [-96.6862686, 34.7714995]]]}, "properties": {"osm_id": 609079819, "building": "apartments", "name": "", "height": null, "height_m": 3.0, "levels": 1, "tract_id": "40123089200", "tract_name": "892", "tags": {"building": "apartments", "building:levels": "1"}}}, {"type": "Feature", "geometry": {"type": "Polygon", "coordinates": [[[-96.6863178, 34.7717683], [-96.6863153, 34.7716287], [-96.6864606, 34.7716269], [-96.6864631, 34.7717665], [-96.6863178, 34.7717683]]]}, "properties": {"osm_id": 609079820, "building": "apartments", "name": "", "height": null, "height_m": 3.0, "levels": 1, "tract_id": "40123089200", "tract_name": "892", "tags": {"building": "apartments", "building:levels": "1"}}}, {"type": "Feature", "geometry": {"type": "Polygon", "coordinates": [[[-96.6855134, 34.7715036], [-96.6853038, 34.7715023], [-96.6853031, 34.771589], [-96.6855126, 34.7715903], [-96.6855134, 34.7715036]]]}, "properties": {"osm_id": 609079821, "building": "apartments", "name": "", "height": null, "height_m": null, "levels": null, "tract_id": "40123089200", "tract_name": "892", "tags": {"building": "apartments"}}}, {"type": "Feature", "geometry": {"type": "Polygon", "coordinates": [[[-96.6864532, 34.771057], [-96.6863719, 34.7710581], [-96.686372, 34.770878], [-96.6864522, 34.7708751], [-96.6864532, 34.771057]]]}, "properties": {"osm_id": 609079824, "building": "apartments", "name": "", "height": null, "height_m": 3.0, "levels": 1, "tract_id": "40123089200", "tract_name": "892", "tags": {"building": "apartments", "building:levels": "1"}}}, {"type": "Feature", "geometry": {"type": "Polygon", "coordinates": [[[-96.6862037, 34.7711147], [-96.6862047, 34.7708817], [-96.6863009, 34.7708785], [-96.6863033, 34.7711153], [-96.6862037, 34.7711147]]]}, "properties": {"osm_id": 609079825, "building": "apartments", "name": "", "height": null, "height_m": null, "levels": null, "tract_id": "40123089200", "tract_name": "892", "tags": {"building": "apartments"}}}, {"type": "Feature", "geometry": {"type": "Polygon", "coordinates": [[[-96.6865668, 34.7718681], [-96.6865665, 34.7719107], [-96.6865349, 34.7719106], [-96.6865347, 34.7719536], [-96.6864316, 34.7719532], [-96.6864319, 34.7719022], [-96.6863831, 34.771902], [-96.6863832, 34.7718675], [-96.6865668, 34.7718681]]]}, "properties": {"osm_id": 609079841, "building": "house", "name": "", "height": null, "height_m": null, "levels": null, "tract_id": "40123089200", "tract_name": "892", "tags": {"building": "house"}}}, {"type": "Feature", "geometry": {"type": "Polygon", "coordinates": [[[-96.6768792, 34.7709906], [-96.6768792, 34.7711151], [-96.6767833, 34.7711156], [-96.6767646, 34.7711275], [-96.6767458, 34.7711393], [-96.6767478, 34.7711988], [-96.6766217, 34.7711999], [-96.6766204, 34.7711129], [-96.6765694, 34.7710644], [-96.6767116, 34.7709388], [-96.6767733, 34.7709906], [-96.6768792, 34.7709906]]]}, "properties": {"osm_id": 770615733, "building": "yes", "name": "Ada Arts & Heritage Center", "height": null, "height_m": null, "levels": null, "tract_id": "40123089200", "tract_name": "892", "tags": {"addr:city": "Ada", "addr:housenumber": "400", "addr:postcode": "74820", "addr:state": "OK", "addr:street": "South Rennie Avenue", "building": "yes", "heritage": "yes", "name": "Ada Arts & Heritage Center", "office": "association", "wikidata": "Q346270", "wikipedia": "en:Ada Arts and Heritage Center"}}}, {"type": "Feature", "geometry": {"type": "Polygon", "coordinates": [[[-96.6774964, 34.7740091], [-96.6774998, 34.7743845], [-96.6784828, 34.7743786], [-96.6784794, 34.774003], [-96.6774964, 34.7740091]]]}, "properties": {"osm_id": 936122167, "building": "yes", "name": "", "height": null, "height_m": null, "levels": null, "tract_id": "40123089200", "tract_name": "892", "tags": {"building": "yes"}}}, {"type": "Feature", "geometry": {"type": "Polygon", "coordinates": [[[-96.6771499, 34.7746541], [-96.6771522, 34.7750424], [-96.6777431, 34.77504], [-96.6777429, 34.7750045], [-96.6778388, 34.7750041], [-96.6778385, 34.7749464], [-96.6779831, 34.7749458], [-96.6779837, 34.7750469], [-96.6784839, 34.7750449], [-96.6784815, 34.7746487], [-96.6771499, 34.7746541]]]}, "properties": {"osm_id": 936122168, "building": "yes", "name": "", "height": null, "height_m": null, "levels": null, "tract_id": "40123089200", "tract_name": "892", "tags": {"building": "yes"}}}, {"type": "Feature", "geometry": {"type": "Polygon", "coordinates": [[[-96.6780804, 34.7751012], [-96.6780839, 34.7753633], [-96.6785103, 34.7753595], [-96.6785069, 34.7750974], [-96.6780804, 34.7751012]]]}, "properties": {"osm_id": 936122169, "building": "yes", "name": "", "height": null, "height_m": null, "levels": null, "tract_id": "40123089200", "tract_name": "892", "tags": {"building": "yes"}}}, {"type": "Feature", "geometry": {"type": "Polygon", "coordinates": [[[-96.6795185, 34.7760048], [-96.6795167, 34.7757099], [-96.6788226, 34.7757229], [-96.6788397, 34.7760515], [-96.6790816, 34.7760519], [-96.6790842, 34.7759961], [-96.6795185, 34.7760048]]]}, "properties": {"osm_id": 1032943607, "building": "yes", "name": "", "height": null, "height_m": null, "levels": null, "tract_id": "40123089200", "tract_name": "892", "tags": {"building": "yes"}}}, {"type": "Feature", "geometry": {"type": "Polygon", "coordinates": [[[-96.682512, 34.7739545], [-96.6827845, 34.7739545], [-96.682784, 34.7743969], [-96.6825302, 34.7743977], [-96.6825328, 34.7740633], [-96.682532, 34.774025], [-96.682512, 34.7739545]]]}, "properties": {"osm_id": 1066823775, "building": "yes", "name": "", "height": null, "height_m": null, "levels": null, "tract_id": "40123089200", "tract_name": "892", "tags": {"building": "yes"}}}, {"type": "Feature", "geometry": {"type": "Polygon", "coordinates": [[[-96.6825105, 34.773553], [-96.6829799, 34.773553], [-96.6829799, 34.7736329], [-96.6829215, 34.7736356], [-96.6829172, 34.7739537], [-96.6827845, 34.7739545], [-96.682512, 34.7739545], [-96.6825107, 34.7736251], [-96.6825105, 34.773553]]]}, "properties": {"osm_id": 1066823776, "building": "yes", "name": "", "height": null, "height_m": null, "levels": null, "tract_id": "40123089200", "tract_name": "892", "tags": {"building": "yes"}}}, {"type": "Feature", "geometry": {"type": "Polygon", "coordinates": [[[-96.6820347, 34.7740098], [-96.6824656, 34.7740088], [-96.6824656, 34.7740644], [-96.6825328, 34.7740633], [-96.6825302, 34.7743977], [-96.6820364, 34.7743981], [-96.6820347, 34.7740098]]]}, "properties": {"osm_id": 1066823777, "building": "yes", "name": "", "height": null, "height_m": null, "levels": null, "tract_id": "40123089200", "tract_name": "892", "tags": {"building": "yes"}}}, {"type": "Feature", "geometry": {"type": "Polygon", "coordinates": [[[-96.6815188, 34.7735733], [-96.6817642, 34.7735711], [-96.6817696, 34.7739573], [-96.6815181, 34.7739578], [-96.6815188, 34.7735733]]]}, "properties": {"osm_id": 1066823778, "building": "yes", "name": "", "height": null, "height_m": null, "levels": null, "tract_id": "40123089200", "tract_name": "892", "tags": {"building": "yes"}}}, {"type": "Feature", "geometry": {"type": "Polygon", "coordinates": [[[-96.6853188, 34.7716296], [-96.6854663, 34.7716296], [-96.6854663, 34.7717551], [-96.6853188, 34.7717551], [-96.6853188, 34.7716296]]]}, "properties": {"osm_id": 1066823779, "building": "yes", "name": "", "height": null, "height_m": null, "levels": null, "tract_id": "40123089200", "tract_name": "892", "tags": {"building": "yes"}}}, {"type": "Feature", "geometry": {"type": "Polygon", "coordinates": [[[-96.6796558, 34.7718132], [-96.6796508, 34.771459], [-96.6792944, 34.7714624], [-96.6792947, 34.7714848], [-96.6791593, 34.7714861], [-96.6791641, 34.7718135], [-96.6793366, 34.7718118], [-96.6793363, 34.7717969], [-96.6793922, 34.7717963], [-96.6793925, 34.7718157], [-96.6796558, 34.7718132]]]}, "properties": {"osm_id": 1066921499, "building": "yes", "name": "", "height": null, "height_m": null, "levels": null, "tract_id": "40123089200", "tract_name": "892", "tags": {"addr:city": "Ada", "addr:housenumber": "110", "addr:postcode": "74820", "addr:state": "OK", "addr:street": "West 14th Street", "building": "yes"}}}, {"type": "Feature", "geometry": {"type": "Polygon", "coordinates": [[[-96.6719453, 34.7746887], [-96.6719453, 34.7750621], [-96.6717669, 34.7750621], [-96.6717669, 34.7746887], [-96.6719453, 34.7746887]]]}, "properties": {"osm_id": 1219636966, "building": "yes", "name": "", "height": null, "height_m": null, "levels": null, "tract_id": "40123089200", "tract_name": "892", "tags": {"building": "yes"}}}, {"type": "Feature", "geometry": {"type": "Polygon", "coordinates": [[[-96.6704299, 34.7741621], [-96.6704299, 34.7743208], [-96.6702448, 34.7743208], [-96.6702448, 34.7741621], [-96.6704299, 34.7741621]]]}, "properties": {"osm_id": 1219636967, "building": "yes", "name": "", "height": null, "height_m": null, "levels": null, "tract_id": "40123089200", "tract_name": "892", "tags": {"building": "yes"}}}, {"type": "Feature", "geometry": {"type": "Polygon", "coordinates": [[[-96.6707712, 34.7719325], [-96.6707712, 34.7720394], [-96.6705512, 34.7720394], [-96.6705526, 34.7720669], [-96.6705003, 34.7720674], [-96.6704989, 34.7720592], [-96.67045, 34.7720592], [-96.6704486, 34.7720405], [-96.6703071, 34.7720394], [-96.6703071, 34.7719325], [-96.6707712, 34.7719325]]]}, "properties": {"osm_id": 1219636974, "building": "yes", "name": "", "height": null, "height_m": null, "levels": null, "tract_id": "40123089200", "tract_name": "892", "tags": {"building": "yes"}}}, {"type": "Feature", "geometry": {"type": "Polygon", "coordinates": [[[-96.6711876, 34.77151], [-96.6711876, 34.7715921], [-96.6708557, 34.7715921], [-96.6708557, 34.77151], [-96.6711876, 34.77151]]]}, "properties": {"osm_id": 1219636975, "building": "yes", "name": "", "height": null, "height_m": null, "levels": null, "tract_id": "40123089200", "tract_name": "892", "tags": {"building": "yes"}}}, {"type": "Feature", "geometry": {"type": "Polygon", "coordinates": [[[-96.6702086, 34.7717199], [-96.6702072, 34.7715822], [-96.6702609, 34.7715392], [-96.6703118, 34.7715403], [-96.6703092, 34.7714944], [-96.6704245, 34.7714974], [-96.6704258, 34.7716395], [-96.6703266, 34.7716384], [-96.6703239, 34.7717191], [-96.6702086, 34.7717199]]]}, "properties": {"osm_id": 1219636976, "building": "yes", "name": "", "height": null, "height_m": null, "levels": null, "tract_id": "40123089200", "tract_name": "892", "tags": {"building": "yes"}}}, {"type": "Feature", "geometry": {"type": "Polygon", "coordinates": [[[-96.6701201, 34.7726568], [-96.6701201, 34.7725665], [-96.670507, 34.7725665], [-96.670507, 34.7726067], [-96.6704446, 34.7726072], [-96.6704439, 34.7727009], [-96.6702924, 34.772702], [-96.6702931, 34.7726585], [-96.6701201, 34.7726568]]]}, "properties": {"osm_id": 1219636997, "building": "yes", "name": "La Fiesta", "height": null, "height_m": null, "levels": null, "tract_id": "40123089200", "tract_name": "892", "tags": {"amenity": "restaurant", "building": "yes", "cuisine": "mexican", "internet_access": "no", "name": "La Fiesta", "smoking": "no", "takeaway": "yes"}}}, {"type": "Feature", "geometry": {"type": "Polygon", "coordinates": [[[-96.6792999, 34.7703968], [-96.6796486, 34.7703968], [-96.6796486, 34.7707703], [-96.6793308, 34.7707703], [-96.6793281, 34.7706469], [-96.6792905, 34.7706491], [-96.6792999, 34.7703968]]]}, "properties": {"osm_id": 1220398189, "building": "yes", "name": "", "height": null, "height_m": null, "levels": null, "tract_id": "40123089200", "tract_name": "892", "tags": {"building": "yes"}}}, {"type": "Feature", "geometry": {"type": "Polygon", "coordinates": [[[-96.6809388, 34.7727312], [-96.6812472, 34.7727312], [-96.6812472, 34.7728623], [-96.6809388, 34.7728623], [-96.6809388, 34.7727312]]]}, "properties": {"osm_id": 1220398191, "building": "yes", "name": "", "height": null, "height_m": null, "levels": null, "tract_id": "40123089200", "tract_name": "892", "tags": {"building": "yes"}}}, {"type": "Feature", "geometry": {"type": "Polygon", "coordinates": [[[-96.6805136, 34.7720206], [-96.6809535, 34.7720217], [-96.6809527, 34.7722355], [-96.6805492, 34.7722349], [-96.6805517, 34.7722156], [-96.6805297, 34.7722162], [-96.6805317, 34.7721743], [-96.6805559, 34.7721737], [-96.6805565, 34.7721622], [-96.6805116, 34.7721627], [-96.6805136, 34.7720206]]]}, "properties": {"osm_id": 1220398192, "building": "yes", "name": "", "height": null, "height_m": null, "levels": null, "tract_id": "40123089200", "tract_name": "892", "tags": {"building": "yes"}}}, {"type": "Feature", "geometry": {"type": "Polygon", "coordinates": [[[-96.67656, 34.7735789], [-96.6769033, 34.7735813], [-96.6768993, 34.7739624], [-96.6765561, 34.77396], [-96.67656, 34.7735789]]]}, "properties": {"osm_id": 1225340984, "building": "yes", "name": "Ada Public Library", "height": null, "height_m": null, "levels": null, "tract_id": "40123089200", "tract_name": "892", "tags": {"amenity": "library", "building": "yes", "name": "Ada Public Library"}}}, {"type": "Feature", "geometry": {"type": "Polygon", "coordinates": [[[-96.6749641, 34.7735805], [-96.6750714, 34.7735813], [-96.6750696, 34.7737601], [-96.6749623, 34.7737593], [-96.6749641, 34.7735805]]]}, "properties": {"osm_id": 1225340985, "building": "yes", "name": "", "height": null, "height_m": null, "levels": null, "tract_id": "40123089200", "tract_name": "892", "tags": {"building": "yes"}}}, {"type": "Feature", "geometry": {"type": "Polygon", "coordinates": [[[-96.6752176, 34.7738019], [-96.675312, 34.7738036], [-96.6753076, 34.7739667], [-96.6752133, 34.773965], [-96.6752176, 34.7738019]]]}, "properties": {"osm_id": 1225340986, "building": "yes", "name": "", "height": null, "height_m": null, "levels": null, "tract_id": "40123089200", "tract_name": "892", "tags": {"building": "yes"}}}, {"type": "Feature", "geometry": {"type": "Polygon", "coordinates": [[[-96.6748957, 34.7729262], [-96.6752954, 34.7729262], [-96.6752954, 34.7732875], [-96.6748957, 34.7732875], [-96.6748957, 34.7729262]]]}, "properties": {"osm_id": 1225340987, "building": "yes", "name": "", "height": null, "height_m": null, "levels": null, "tract_id": "40123089200", "tract_name": "892", "tags": {"building": "yes"}}}, {"type": "Feature", "geometry": {"type": "Polygon", "coordinates": [[[-96.6805962, 34.7749145], [-96.6805951, 34.7746654], [-96.6804439, 34.7746653], [-96.6804205, 34.7746828], [-96.6804217, 34.7749156], [-96.6805962, 34.7749145]]]}, "properties": {"osm_id": 1258536883, "building": "yes", "name": "", "height": null, "height_m": null, "levels": null, "tract_id": "40123089200", "tract_name": "892", "tags": {"building": "yes"}}}, {"type": "Feature", "geometry": {"type": "Polygon", "coordinates": [[[-96.6806819, 34.7749142], [-96.6806809, 34.7746652], [-96.6808487, 34.7746654], [-96.680849, 34.7748302], [-96.6808491, 34.7749132], [-96.6806819, 34.7749142]]]}, "properties": {"osm_id": 1258536884, "building": "yes", "name": "", "height": null, "height_m": null, "levels": null, "tract_id": "40123089200", "tract_name": "892", "tags": {"building": "yes"}}}, {"type": "Feature", "geometry": {"type": "Polygon", "coordinates": [[[-96.6805962, 34.7749145], [-96.6805951, 34.7746654], [-96.6806809, 34.7746652], [-96.6806819, 34.7749142], [-96.6805962, 34.7749145]]]}, "properties": {"osm_id": 1258536885, "building": "yes", "name": "", "height": null, "height_m": null, "levels": null, "tract_id": "40123089200", "tract_name": "892", "tags": {"building": "yes"}}}, {"type": "Feature", "geometry": {"type": "Polygon", "coordinates": [[[-96.680849, 34.7748302], [-96.6808487, 34.7746654], [-96.6810116, 34.774665], [-96.6810112, 34.7748295], [-96.680849, 34.7748302]]]}, "properties": {"osm_id": 1258536886, "building": "yes", "name": "", "height": null, "height_m": null, "levels": null, "tract_id": "40123089200", "tract_name": "892", "tags": {"building": "yes"}}}, {"type": "Feature", "geometry": {"type": "Polygon", "coordinates": [[[-96.6812625, 34.7748306], [-96.6812623, 34.7746657], [-96.6814251, 34.7746653], [-96.6814248, 34.7748298], [-96.6812625, 34.7748306]]]}, "properties": {"osm_id": 1258536887, "building": "yes", "name": "", "height": null, "height_m": null, "levels": null, "tract_id": "40123089200", "tract_name": "892", "tags": {"building": "yes"}}}, {"type": "Feature", "geometry": {"type": "Polygon", "coordinates": [[[-96.6810112, 34.7748295], [-96.6810116, 34.774665], [-96.6811694, 34.7746653], [-96.681169, 34.7748298], [-96.6810112, 34.7748295]]]}, "properties": {"osm_id": 1258536888, "building": "yes", "name": "", "height": null, "height_m": null, "levels": null, "tract_id": "40123089200", "tract_name": "892", "tags": {"building": "yes"}}}, {"type": "Feature", "geometry": {"type": "Polygon", "coordinates": [[[-96.681169, 34.7748298], [-96.6811694, 34.7746653], [-96.6812623, 34.7746657], [-96.6812625, 34.7748306], [-96.681169, 34.7748298]]]}, "properties": {"osm_id": 1258536889, "building": "yes", "name": "", "height": null, "height_m": null, "levels": null, "tract_id": "40123089200", "tract_name": "892", "tags": {"building": "yes"}}}, {"type": "Feature", "geometry": {"type": "Polygon", "coordinates": [[[-96.6811667, 34.775309], [-96.6811718, 34.77511], [-96.6814446, 34.7751074], [-96.6814445, 34.7751493], [-96.6811667, 34.775309]]]}, "properties": {"osm_id": 1258536890, "building": "yes", "name": "", "height": null, "height_m": null, "levels": null, "tract_id": "40123089200", "tract_name": "892", "tags": {"building": "yes"}}}, {"type": "Feature", "geometry": {"type": "Polygon", "coordinates": [[[-96.680432, 34.7752142], [-96.6804327, 34.7751084], [-96.6806339, 34.7751093], [-96.6806332, 34.7752152], [-96.680432, 34.7752142]]]}, "properties": {"osm_id": 1258536891, "building": "yes", "name": "", "height": null, "height_m": null, "levels": null, "tract_id": "40123089200", "tract_name": "892", "tags": {"building": "yes"}}}, {"type": "Feature", "geometry": {"type": "Polygon", "coordinates": [[[-96.6780893, 34.7765335], [-96.6780883, 34.7763273], [-96.6784911, 34.7763288], [-96.6784915, 34.7765321], [-96.6780893, 34.7765335]]]}, "properties": {"osm_id": 1258536892, "building": "yes", "name": "", "height": null, "height_m": null, "levels": null, "tract_id": "40123089200", "tract_name": "892", "tags": {"building": "yes"}}}, {"type": "Feature", "geometry": {"type": "Polygon", "coordinates": [[[-96.6780601, 34.7763272], [-96.6780613, 34.7761164], [-96.6784922, 34.776118], [-96.6784911, 34.7763288], [-96.6780883, 34.7763273], [-96.6780601, 34.7763272]]]}, "properties": {"osm_id": 1258536893, "building": "yes", "name": "", "height": null, "height_m": null, "levels": null, "tract_id": "40123089200", "tract_name": "892", "tags": {"building": "yes"}}}, {"type": "Feature", "geometry": {"type": "Polygon", "coordinates": [[[-96.6778414, 34.7760925], [-96.6778399, 34.7757126], [-96.6780039, 34.7757122], [-96.6780055, 34.776092], [-96.6778414, 34.7760925]]]}, "properties": {"osm_id": 1258536894, "building": "yes", "name": "", "height": null, "height_m": null, "levels": null, "tract_id": "40123089200", "tract_name": "892", "tags": {"building": "yes"}}}, {"type": "Feature", "geometry": {"type": "Polygon", "coordinates": [[[-96.6757382, 34.7763741], [-96.6755629, 34.7763741], [-96.6755629, 34.776539], [-96.6757382, 34.776539], [-96.6757382, 34.7763741]]]}, "properties": {"osm_id": 1258536895, "building": "yes", "name": "", "height": null, "height_m": null, "levels": null, "tract_id": "40123089200", "tract_name": "892", "tags": {"building": "yes"}}}, {"type": "Feature", "geometry": {"type": "Polygon", "coordinates": [[[-96.6758546, 34.7762046], [-96.6755802, 34.7762051], [-96.6755806, 34.7763437], [-96.675855, 34.7763432], [-96.6758546, 34.7762046]]]}, "properties": {"osm_id": 1258536896, "building": "yes", "name": "", "height": null, "height_m": null, "levels": null, "tract_id": "40123089200", "tract_name": "892", "tags": {"building": "yes"}}}, {"type": "Feature", "geometry": {"type": "Polygon", "coordinates": [[[-96.6762805, 34.7761971], [-96.6758935, 34.776197], [-96.6758935, 34.7763642], [-96.675976, 34.7763642], [-96.675976, 34.7765356], [-96.6762804, 34.7765356], [-96.6762805, 34.7761971]]]}, "properties": {"osm_id": 1258536897, "building": "yes", "name": "", "height": null, "height_m": null, "levels": null, "tract_id": "40123089200", "tract_name": "892", "tags": {"building": "yes"}}}, {"type": "Feature", "geometry": {"type": "Polygon", "coordinates": [[[-96.676226, 34.7754944], [-96.6762252, 34.7751132], [-96.6760658, 34.7751134], [-96.6760666, 34.7754946], [-96.676226, 34.7754944]]]}, "properties": {"osm_id": 1258538326, "building": "yes", "name": "", "height": null, "height_m": null, "levels": null, "tract_id": "40123089200", "tract_name": "892", "tags": {"building": "yes"}}}, {"type": "Feature", "geometry": {"type": "Polygon", "coordinates": [[[-96.6758993, 34.775498], [-96.6759017, 34.7751105], [-96.6755638, 34.7751091], [-96.6755623, 34.7753602], [-96.6756088, 34.7753604], [-96.6756085, 34.775401], [-96.6757249, 34.7754973], [-96.6758993, 34.775498]]]}, "properties": {"osm_id": 1258538327, "building": "yes", "name": "", "height": null, "height_m": null, "levels": null, "tract_id": "40123089200", "tract_name": "892", "tags": {"building": "yes"}}}, {"type": "Feature", "geometry": {"type": "Polygon", "coordinates": [[[-96.6752898, 34.7753613], [-96.6752909, 34.7751149], [-96.6747817, 34.7751134], [-96.674781, 34.7752754], [-96.6748796, 34.7752757], [-96.6748792, 34.77536], [-96.6752898, 34.7753613]]]}, "properties": {"osm_id": 1258538328, "building": "yes", "name": "", "height": null, "height_m": null, "levels": null, "tract_id": "40123089200", "tract_name": "892", "tags": {"building": "yes"}}}, {"type": "Feature", "geometry": {"type": "Polygon", "coordinates": [[[-96.6746324, 34.7754414], [-96.6746327, 34.7752202], [-96.6744633, 34.7752201], [-96.674463, 34.7754412], [-96.6746324, 34.7754414]]]}, "properties": {"osm_id": 1258538329, "building": "yes", "name": "", "height": null, "height_m": null, "levels": null, "tract_id": "40123089200", "tract_name": "892", "tags": {"building": "yes"}}}, {"type": "Feature", "geometry": {"type": "Polygon", "coordinates": [[[-96.6785007, 34.7781224], [-96.6784964, 34.7779716], [-96.6782332, 34.7782219], [-96.6783219, 34.7782876], [-96.6785007, 34.7781224]]]}, "properties": {"osm_id": 1258538335, "building": "yes", "name": "", "height": null, "height_m": null, "levels": null, "tract_id": "40123089200", "tract_name": "892", "tags": {"building": "yes"}}}, {"type": "Feature", "geometry": {"type": "Polygon", "coordinates": [[[-96.680677, 34.7743908], [-96.6806772, 34.7741696], [-96.6806779, 34.7741155], [-96.6805122, 34.7741151], [-96.680513, 34.7743906], [-96.680677, 34.7743908]]]}, "properties": {"osm_id": 1258538336, "building": "yes", "name": "", "height": null, "height_m": null, "levels": null, "tract_id": "40123089200", "tract_name": "892", "tags": {"building": "yes"}}}, {"type": "Feature", "geometry": {"type": "Polygon", "coordinates": [[[-96.680513, 34.7743906], [-96.6805122, 34.7741151], [-96.6805119, 34.7740066], [-96.6804226, 34.7740068], [-96.6804238, 34.7743908], [-96.680513, 34.7743906]]]}, "properties": {"osm_id": 1258538337, "building": "yes", "name": "", "height": null, "height_m": null, "levels": null, "tract_id": "40123089200", "tract_name": "892", "tags": {"building": "yes"}}}, {"type": "Feature", "geometry": {"type": "Polygon", "coordinates": [[[-96.6808479, 34.7743882], [-96.6808475, 34.7741719], [-96.6806772, 34.7741696], [-96.680677, 34.7743908], [-96.6808479, 34.7743882]]]}, "properties": {"osm_id": 1258538338, "building": "yes", "name": "", "height": null, "height_m": null, "levels": null, "tract_id": "40123089200", "tract_name": "892", "tags": {"building": "yes"}}}, {"type": "Feature", "geometry": {"type": "Polygon", "coordinates": [[[-96.6810208, 34.774388], [-96.6810204, 34.7741717], [-96.6808475, 34.7741719], [-96.6808479, 34.7743882], [-96.6810208, 34.774388]]]}, "properties": {"osm_id": 1258538339, "building": "yes", "name": "", "height": null, "height_m": null, "levels": null, "tract_id": "40123089200", "tract_name": "892", "tags": {"building": "yes"}}}, {"type": "Feature", "geometry": {"type": "Polygon", "coordinates": [[[-96.684784, 34.7732573], [-96.6848425, 34.7732579], [-96.6849581, 34.7731953], [-96.6849588, 34.7728986], [-96.684784, 34.7728986], [-96.684784, 34.7732573]]]}, "properties": {"osm_id": 1258538340, "building": "yes", "name": "", "height": null, "height_m": null, "levels": null, "tract_id": "40123089200", "tract_name": "892", "tags": {"building": "yes"}}}, {"type": "Feature", "geometry": {"type": "Polygon", "coordinates": [[[-96.6856453, 34.7726116], [-96.6856457, 34.7724374], [-96.6854039, 34.7724371], [-96.6854014, 34.7726094], [-96.6856453, 34.7726116]]]}, "properties": {"osm_id": 1258538341, "building": "yes", "name": "", "height": null, "height_m": null, "levels": null, "tract_id": "40123089200", "tract_name": "892", "tags": {"building": "yes"}}}, {"type": "Feature", "geometry": {"type": "Polygon", "coordinates": [[[-96.6848829, 34.7724819], [-96.6846372, 34.7724817], [-96.6846351, 34.7728135], [-96.6848819, 34.7728128], [-96.6848829, 34.7724819]]]}, "properties": {"osm_id": 1258538342, "building": "yes", "name": "", "height": null, "height_m": null, "levels": null, "tract_id": "40123089200", "tract_name": "892", "tags": {"building": "yes"}}}, {"type": "Feature", "geometry": {"type": "Polygon", "coordinates": [[[-96.6794248, 34.7720011], [-96.6792199, 34.7720007], [-96.6792194, 34.7721979], [-96.6794242, 34.7721983], [-96.6794248, 34.7720011]]]}, "properties": {"osm_id": 1258538343, "building": "yes", "name": "", "height": null, "height_m": null, "levels": null, "tract_id": "40123089200", "tract_name": "892", "tags": {"building": "yes"}}}, {"type": "Feature", "geometry": {"type": "Polygon", "coordinates": [[[-96.6796334, 34.7721999], [-96.67963, 34.7719521], [-96.6794855, 34.7719534], [-96.6794889, 34.7722013], [-96.6796334, 34.7721999]]]}, "properties": {"osm_id": 1258538344, "building": "yes", "name": "", "height": null, "height_m": null, "levels": null, "tract_id": "40123089200", "tract_name": "892", "tags": {"building": "yes"}}}, {"type": "Feature", "geometry": {"type": "Polygon", "coordinates": [[[-96.6792601, 34.7739503], [-96.6792593, 34.7735637], [-96.6788163, 34.7735654], [-96.6788218, 34.7739528], [-96.6792601, 34.7739503]]]}, "properties": {"osm_id": 1258540179, "building": "yes", "name": "", "height": null, "height_m": null, "levels": null, "tract_id": "40123089200", "tract_name": "892", "tags": {"building": "yes"}}}, {"type": "Feature", "geometry": {"type": "Polygon", "coordinates": [[[-96.6801644, 34.7740083], [-96.6788157, 34.7740119], [-96.6788173, 34.7743969], [-96.680166, 34.7743931], [-96.6801644, 34.7740083]]]}, "properties": {"osm_id": 1258540180, "building": "yes", "name": "", "height": null, "height_m": null, "levels": null, "tract_id": "40123089200", "tract_name": "892", "tags": {"building": "yes"}}}, {"type": "Feature", "geometry": {"type": "Polygon", "coordinates": [[[-96.6815048, 34.7732961], [-96.6815063, 34.772912], [-96.6810895, 34.7729109], [-96.681088, 34.773295], [-96.6815048, 34.7732961]]]}, "properties": {"osm_id": 1258540181, "building": "yes", "name": "", "height": null, "height_m": null, "levels": null, "tract_id": "40123089200", "tract_name": "892", "tags": {"building": "yes"}}}, {"type": "Feature", "geometry": {"type": "Polygon", "coordinates": [[[-96.6810232, 34.7732956], [-96.6810253, 34.7729523], [-96.6807627, 34.7729512], [-96.6807605, 34.7732945], [-96.6810232, 34.7732956]]]}, "properties": {"osm_id": 1258540182, "building": "yes", "name": "", "height": null, "height_m": null, "levels": null, "tract_id": "40123089200", "tract_name": "892", "tags": {"building": "yes"}}}, {"type": "Feature", "geometry": {"type": "Polygon", "coordinates": [[[-96.6784898, 34.7739537], [-96.6784878, 34.7735704], [-96.6780775, 34.7735718], [-96.6780795, 34.7739552], [-96.6784898, 34.7739537]]]}, "properties": {"osm_id": 1258540183, "building": "yes", "name": "", "height": null, "height_m": null, "levels": null, "tract_id": "40123089200", "tract_name": "892", "tags": {"building": "yes"}}}, {"type": "Feature", "geometry": {"type": "Polygon", "coordinates": [[[-96.6752951, 34.7757296], [-96.6748957, 34.7757276], [-96.674894, 34.7759483], [-96.6752934, 34.7759504], [-96.6752951, 34.7757296]]]}, "properties": {"osm_id": 1258540184, "building": "yes", "name": "", "height": null, "height_m": null, "levels": null, "tract_id": "40123089200", "tract_name": "892", "tags": {"building": "yes"}}}, {"type": "Feature", "geometry": {"type": "Polygon", "coordinates": [[[-96.6725159, 34.7750533], [-96.6723946, 34.7750533], [-96.6723946, 34.7749883], [-96.6725159, 34.7749883], [-96.6725159, 34.7750533]]]}, "properties": {"osm_id": 1271587506, "building": "yes", "name": "", "height": null, "height_m": null, "levels": null, "tract_id": "40123089200", "tract_name": "892", "tags": {"building": "yes"}}}, {"type": "Feature", "geometry": {"type": "Polygon", "coordinates": [[[-96.6728928, 34.7747818], [-96.6728096, 34.7747818], [-96.6728096, 34.7746683], [-96.6728928, 34.7746683], [-96.6728928, 34.7746788], [-96.6730122, 34.7746788], [-96.6730122, 34.7747284], [-96.6728928, 34.7747284], [-96.6728928, 34.7747818]]]}, "properties": {"osm_id": 1271587507, "building": "yes", "name": "", "height": null, "height_m": null, "levels": null, "tract_id": "40123089200", "tract_name": "892", "tags": {"building": "yes"}}}, {"type": "Feature", "geometry": {"type": "Polygon", "coordinates": [[[-96.6733729, 34.7750412], [-96.6731677, 34.7750412], [-96.6731677, 34.7749118], [-96.6730578, 34.7749118], [-96.6730578, 34.7747614], [-96.6731677, 34.7747614], [-96.6731677, 34.7747788], [-96.6733089, 34.7747788], [-96.6733089, 34.7747923], [-96.6733729, 34.7747923], [-96.6733729, 34.7750412]]]}, "properties": {"osm_id": 1271587508, "building": "yes", "name": "", "height": null, "height_m": null, "levels": null, "tract_id": "40123089200", "tract_name": "892", "tags": {"building": "yes"}}}, {"type": "Feature", "geometry": {"type": "Polygon", "coordinates": [[[-96.6726957, 34.774844], [-96.6723711, 34.774844], [-96.6723711, 34.7746672], [-96.6727775, 34.7746672], [-96.6727775, 34.7747598], [-96.6726957, 34.7747598], [-96.6726957, 34.774844]]]}, "properties": {"osm_id": 1271587509, "building": "yes", "name": "", "height": null, "height_m": null, "levels": null, "tract_id": "40123089200", "tract_name": "892", "tags": {"building": "yes"}}}, {"type": "Feature", "geometry": {"type": "Polygon", "coordinates": [[[-96.6717193, 34.7749839], [-96.6714692, 34.7749839], [-96.6714692, 34.7747653], [-96.6717193, 34.7747653], [-96.6717193, 34.7749839]]]}, "properties": {"osm_id": 1271587510, "building": "yes", "name": "", "height": null, "height_m": null, "levels": null, "tract_id": "40123089200", "tract_name": "892", "tags": {"building": "yes"}}}, {"type": "Feature", "geometry": {"type": "Polygon", "coordinates": [[[-96.6709277, 34.7749971], [-96.6710944, 34.7749971], [-96.6710944, 34.7749421], [-96.6710944, 34.7746678], [-96.6709277, 34.7746678], [-96.6709277, 34.7749971]]]}, "properties": {"osm_id": 1271587511, "building": "yes", "name": "", "height": null, "height_m": null, "levels": null, "tract_id": "40123089200", "tract_name": "892", "tags": {"building": "yes"}}}, {"type": "Feature", "geometry": {"type": "Polygon", "coordinates": [[[-96.6709277, 34.7749971], [-96.6709277, 34.7750522], [-96.6707611, 34.7750522], [-96.6707611, 34.7746678], [-96.6709277, 34.7746678], [-96.6709277, 34.7749971]]]}, "properties": {"osm_id": 1271587512, "building": "yes", "name": "", "height": null, "height_m": null, "levels": null, "tract_id": "40123089200", "tract_name": "892", "tags": {"building": "yes"}}}, {"type": "Feature", "geometry": {"type": "Polygon", "coordinates": [[[-96.6710944, 34.7746678], [-96.6710944, 34.7749421], [-96.671261, 34.7749421], [-96.671261, 34.7746678], [-96.6710944, 34.7746678]]]}, "properties": {"osm_id": 1271587513, "building": "yes", "name": "", "height": null, "height_m": null, "levels": null, "tract_id": "40123089200", "tract_name": "892", "tags": {"building": "yes"}}}, {"type": "Feature", "geometry": {"type": "Polygon", "coordinates": [[[-96.671261, 34.7746678], [-96.671261, 34.7749421], [-96.671261, 34.7750522], [-96.6714276, 34.7750522], [-96.6714276, 34.7746678], [-96.671261, 34.7746678]]]}, "properties": {"osm_id": 1271587514, "building": "yes", "name": "", "height": null, "height_m": null, "levels": null, "tract_id": "40123089200", "tract_name": "892", "tags": {"building": "yes"}}}, {"type": "Feature", "geometry": {"type": "Polygon", "coordinates": [[[-96.671148, 34.7753491], [-96.6707873, 34.7753491], [-96.6707873, 34.7751431], [-96.671148, 34.7751431], [-96.671148, 34.7753491]]]}, "properties": {"osm_id": 1271587515, "building": "yes", "name": "", "height": null, "height_m": null, "levels": null, "tract_id": "40123089200", "tract_name": "892", "tags": {"building": "yes"}}}, {"type": "Feature", "geometry": {"type": "Polygon", "coordinates": [[[-96.6796348, 34.7727284], [-96.6796329, 34.7725312], [-96.6792902, 34.7725334], [-96.6792922, 34.7727307], [-96.6796348, 34.7727284]]]}, "properties": {"osm_id": 1276328298, "building": "yes", "name": "Pontotoc County Courthouse", "height": null, "height_m": null, "levels": null, "tract_id": "40123089200", "tract_name": "892", "tags": {"building": "yes", "heritage": "yes", "name": "Pontotoc County Courthouse", "wikidata": "Q7228357", "wikipedia": "en:Pontotoc County Courthouse"}}}, {"type": "Feature", "geometry": {"type": "Polygon", "coordinates": [[[-96.6782319, 34.7726563], [-96.6784753, 34.772657], [-96.6784732, 34.7724665], [-96.6782321, 34.7724663], [-96.6782319, 34.7726563]]]}, "properties": {"osm_id": 1276329925, "building": "yes", "name": "Sugg Clinic", "height": null, "height_m": null, "levels": null, "tract_id": "40123089200", "tract_name": "892", "tags": {"building": "yes", "heritage": "yes", "name": "Sugg Clinic", "wikidata": "Q7635092", "wikipedia": "en:Sugg Clinic"}}}, {"type": "Feature", "geometry": {"type": "Polygon", "coordinates": [[[-96.6755436, 34.7746617], [-96.6768932, 34.7746641], [-96.6768926, 34.774917], [-96.6767207, 34.7749167], [-96.6767205, 34.7749891], [-96.6766467, 34.774989], [-96.6766469, 34.7748615], [-96.6765488, 34.7748613], [-96.6765484, 34.7750339], [-96.6764535, 34.7750338], [-96.6764537, 34.7749311], [-96.6760425, 34.7749304], [-96.6760422, 34.7750413], [-96.6755426, 34.7750404], [-96.6755436, 34.7746617]]]}, "properties": {"osm_id": 1364396209, "building": "yes", "name": "", "height": null, "height_m": null, "levels": null, "tract_id": "40123089200", "tract_name": "892", "tags": {"building": "yes"}}}, {"type": "Feature", "geometry": {"type": "Polygon", "coordinates": [[[-96.676875, 34.7741705], [-96.6768722, 34.7743935], [-96.6760549, 34.7743866], [-96.6760592, 34.7740443], [-96.6762712, 34.7740461], [-96.6762702, 34.7741258], [-96.6764647, 34.7741274], [-96.6764657, 34.7740447], [-96.6765424, 34.7740453], [-96.6765414, 34.774116], [-96.6766277, 34.7741167], [-96.6766284, 34.7740625], [-96.6767116, 34.7740632], [-96.6767103, 34.7741691], [-96.676875, 34.7741705]]]}, "properties": {"osm_id": 1364396210, "building": "yes", "name": "", "height": null, "height_m": null, "levels": null, "tract_id": "40123089200", "tract_name": "892", "tags": {"building": "yes"}}}, {"type": "Feature", "geometry": {"type": "Polygon", "coordinates": [[[-96.6750255, 34.7746636], [-96.6752828, 34.7746636], [-96.6752828, 34.7750418], [-96.6751973, 34.7750418], [-96.6751974, 34.7749393], [-96.6750254, 34.7749392], [-96.6750255, 34.7746636]]]}, "properties": {"osm_id": 1364396211, "building": "yes", "name": "", "height": null, "height_m": null, "levels": null, "tract_id": "40123089200", "tract_name": "892", "tags": {"building": "yes"}}}, {"type": "Feature", "geometry": {"type": "Polygon", "coordinates": [[[-96.675707, 34.7740161], [-96.6757099, 34.7743943], [-96.6755473, 34.7743951], [-96.6755444, 34.7740169], [-96.675707, 34.7740161]]]}, "properties": {"osm_id": 1364396212, "building": "yes", "name": "", "height": null, "height_m": null, "levels": null, "tract_id": "40123089200", "tract_name": "892", "tags": {"building": "yes"}}}, {"type": "Feature", "geometry": {"type": "Polygon", "coordinates": [[[-96.6789676, 34.7732909], [-96.6788061, 34.7732895], [-96.6788096, 34.773016], [-96.6789711, 34.7730174], [-96.6789676, 34.7732909]]]}, "properties": {"osm_id": 1364396213, "building": "yes", "name": "", "height": null, "height_m": null, "levels": null, "tract_id": "40123089200", "tract_name": "892", "tags": {"building": "yes"}}}, {"type": "Feature", "geometry": {"type": "Polygon", "coordinates": [[[-96.6784721, 34.7730467], [-96.6784726, 34.7733119], [-96.6780654, 34.7733124], [-96.6780648, 34.7729747], [-96.6782242, 34.7729745], [-96.6782243, 34.773047], [-96.6784721, 34.7730467]]]}, "properties": {"osm_id": 1364396214, "building": "yes", "name": "", "height": null, "height_m": null, "levels": null, "tract_id": "40123089200", "tract_name": "892", "tags": {"building": "yes"}}}, {"type": "Feature", "geometry": {"type": "Polygon", "coordinates": [[[-96.6784741, 34.7729347], [-96.6784753, 34.772657], [-96.6782319, 34.7726563], [-96.6780646, 34.7726558], [-96.6780633, 34.7729335], [-96.6784741, 34.7729347]]]}, "properties": {"osm_id": 1364396215, "building": "yes", "name": "", "height": null, "height_m": null, "levels": null, "tract_id": "40123089200", "tract_name": "892", "tags": {"building": "yes"}}}, {"type": "Feature", "geometry": {"type": "Polygon", "coordinates": [[[-96.6760863, 34.7757016], [-96.6765468, 34.775699], [-96.6765501, 34.7760955], [-96.6763019, 34.7760968], [-96.6763015, 34.7760522], [-96.6760892, 34.7760534], [-96.6760863, 34.7757016]]]}, "properties": {"osm_id": 1364396216, "building": "yes", "name": "", "height": null, "height_m": null, "levels": null, "tract_id": "40123089200", "tract_name": "892", "tags": {"building": "yes"}}}, {"type": "Feature", "geometry": {"type": "Polygon", "coordinates": [[[-96.6766807, 34.7757048], [-96.6768837, 34.7757045], [-96.6768846, 34.7760881], [-96.6766816, 34.7760885], [-96.6766807, 34.7757048]]]}, "properties": {"osm_id": 1364396217, "building": "yes", "name": "", "height": null, "height_m": null, "levels": null, "tract_id": "40123089200", "tract_name": "892", "tags": {"building": "yes"}}}, {"type": "Feature", "geometry": {"type": "Polygon", "coordinates": [[[-96.6750887, 34.7743096], [-96.6750891, 34.7743878], [-96.6743245, 34.7743902], [-96.6743228, 34.7740158], [-96.675268, 34.7740128], [-96.6752689, 34.7742013], [-96.6752176, 34.7742178], [-96.6752918, 34.7743738], [-96.6752155, 34.7743983], [-96.6751732, 34.7743094], [-96.6750887, 34.7743096]]]}, "properties": {"osm_id": 1364396218, "building": "yes", "name": "", "height": null, "height_m": null, "levels": null, "tract_id": "40123089200", "tract_name": "892", "tags": {"building": "yes"}}}, {"type": "Feature", "geometry": {"type": "Polygon", "coordinates": [[[-96.6742854, 34.7743953], [-96.6739476, 34.7743953], [-96.6739476, 34.7741424], [-96.6737951, 34.7741301], [-96.6737832, 34.773946], [-96.6742704, 34.7739361], [-96.6742854, 34.7743953]]]}, "properties": {"osm_id": 1364396219, "building": "yes", "name": "", "height": null, "height_m": null, "levels": null, "tract_id": "40123089200", "tract_name": "892", "tags": {"building": "yes"}}}, {"type": "Feature", "geometry": {"type": "Polygon", "coordinates": [[[-96.6743909, 34.7746843], [-96.6747673, 34.774675], [-96.6747758, 34.7749064], [-96.6745265, 34.7749125], [-96.6745292, 34.7749859], [-96.6744584, 34.7749876], [-96.6744558, 34.7749159], [-96.674399, 34.7749036], [-96.6743909, 34.7746843]]]}, "properties": {"osm_id": 1364396220, "building": "yes", "name": "", "height": null, "height_m": null, "levels": null, "tract_id": "40123089200", "tract_name": "892", "tags": {"building": "yes"}}}, {"type": "Feature", "geometry": {"type": "Polygon", "coordinates": [[[-96.6758899, 34.7760913], [-96.6758942, 34.7757037], [-96.6757212, 34.7757024], [-96.6757168, 34.7760899], [-96.6758899, 34.7760913]]]}, "properties": {"osm_id": 1364396221, "building": "yes", "name": "", "height": null, "height_m": null, "levels": null, "tract_id": "40123089200", "tract_name": "892", "tags": {"building": "yes"}}}, {"type": "Feature", "geometry": {"type": "Polygon", "coordinates": [[[-96.6810208, 34.774388], [-96.6817732, 34.774385], [-96.6817726, 34.7739909], [-96.6813297, 34.7739914], [-96.6813298, 34.77407], [-96.6812549, 34.7740701], [-96.6812549, 34.7740086], [-96.6810761, 34.7740088], [-96.6810763, 34.7741738], [-96.6810204, 34.7741717], [-96.6810208, 34.774388]]]}, "properties": {"osm_id": 1364396222, "building": "yes", "name": "", "height": null, "height_m": null, "levels": null, "tract_id": "40123089200", "tract_name": "892", "tags": {"building": "yes"}}}, {"type": "Feature", "geometry": {"type": "Polygon", "coordinates": [[[-96.6807399, 34.7739317], [-96.6804075, 34.7739362], [-96.6804015, 34.7736366], [-96.6804314, 34.7736145], [-96.6808481, 34.7736088], [-96.6808498, 34.7736931], [-96.6807352, 34.7736947], [-96.6807399, 34.7739317]]]}, "properties": {"osm_id": 1364396223, "building": "yes", "name": "", "height": null, "height_m": null, "levels": null, "tract_id": "40123089200", "tract_name": "892", "tags": {"building": "yes"}}}, {"type": "Feature", "geometry": {"type": "Polygon", "coordinates": [[[-96.6863299, 34.7749995], [-96.6863288, 34.7748451], [-96.6860879, 34.7748389], [-96.6860883, 34.7749329], [-96.6860576, 34.774934], [-96.6860585, 34.7750315], [-96.6861821, 34.7750322], [-96.6861834, 34.775], [-96.6863299, 34.7749995]]]}, "properties": {"osm_id": 1378101327, "building": "yes", "name": "", "height": null, "height_m": null, "levels": null, "tract_id": "40123089200", "tract_name": "892", "tags": {"building": "yes"}}}, {"type": "Feature", "geometry": {"type": "Polygon", "coordinates": [[[-96.6864648, 34.7747494], [-96.6864709, 34.7746789], [-96.6863816, 34.7746713], [-96.6863772, 34.7747445], [-96.6864648, 34.7747494]]]}, "properties": {"osm_id": 1378101328, "building": "yes", "name": "", "height": null, "height_m": null, "levels": null, "tract_id": "40123089200", "tract_name": "892", "tags": {"building": "yes"}}}, {"type": "Feature", "geometry": {"type": "Polygon", "coordinates": [[[-96.670289, 34.7790498], [-96.6700624, 34.7790503], [-96.670062, 34.7789308], [-96.6702886, 34.7789303], [-96.6702888, 34.7789804], [-96.670348, 34.7789802], [-96.6703481, 34.7790171], [-96.6702889, 34.7790173], [-96.670289, 34.7790498]]]}, "properties": {"osm_id": 1411607581, "building": "yes", "name": "", "height": null, "height_m": null, "levels": null, "tract_id": "40123089200", "tract_name": "892", "tags": {"building": "yes"}}}]}