{"type": "FeatureCollection", "features": [{"type": "Feature", "geometry": {"type": "Polygon", "coordinates": [[[-95.8573182, 35.5156656], [-95.8571254, 35.5156651], [-95.8571257, 35.5155889], [-95.8571638, 35.515589], [-95.8571641, 35.5155217], [-95.8572106, 35.5155218], [-95.8572108, 35.5154811], [-95.8573191, 35.5154814], [-95.8573189, 35.5155247], [-95.8573461, 35.5155248], [-95.8573458, 35.5155884], [-95.8573186, 35.5155884], [-95.8573182, 35.5156656]]]}, "properties": {"osm_id": 195655182, "building": "detached", "name": "", "height": null, "height_m": null, "levels": null, "tract_id": "40111000800", "tract_name": "8", "tags": {"addr:city": "Henryetta", "addr:country": "US", "addr:housenumber": "23410", "addr:postcode": "74437", "addr:street": "State Highway 52", "building": "detached"}}}, {"type": "Feature", "geometry": {"type": "Polygon", "coordinates": [[[-95.8569149, 35.5160345], [-95.8567827, 35.5160366], [-95.8567786, 35.5158685], [-95.8569107, 35.5158663], [-95.8569149, 35.5160345]]]}, "properties": {"osm_id": 195655185, "building": "yes", "name": "", "height": null, "height_m": null, "levels": null, "tract_id": "40111000800", "tract_name": "8", "tags": {"building": "yes"}}}, {"type": "Feature", "geometry": {"type": "Polygon", "coordinates": [[[-95.8571462, 35.5157738], [-95.8569748, 35.5157755], [-95.8569736, 35.5156947], [-95.857145, 35.515693], [-95.8571462, 35.5157738]]]}, "properties": {"osm_id": 195655187, "building": "yes", "name": "", "height": null, "height_m": null, "levels": null, "tract_id": "40111000800", "tract_name": "8", "tags": {"building": "yes"}}}, {"type": "Feature", "geometry": {"type": "Polygon", "coordinates": [[[-95.9687157, 35.4426507], [-95.9690447, 35.4425612], [-95.9692607, 35.4430878], [-95.9693219, 35.4430353], [-95.9694171, 35.4431096], [-95.9692347, 35.4432637], [-95.9691122, 35.4431282], [-95.9689316, 35.4431774], [-95.9687157, 35.4426507]]]}, "properties": {"osm_id": 600493704, "building": "yes", "name": "Henryetta Glassman", "height": null, "height_m": null, "levels": null, "tract_id": "40111000800", "tract_name": "8", "tags": {"amenity": "recycling", "building": "yes", "name": "Henryetta Glassman", "recycling:glass": "yes", "recycling_type": "centre"}}}, {"type": "Feature", "geometry": {"type": "Polygon", "coordinates": [[[-95.9402846, 35.4591233], [-95.9402842, 35.4591056], [-95.940254, 35.4591061], [-95.9402545, 35.4591238], [-95.9402846, 35.4591233]]]}, "properties": {"osm_id": 1131048005, "building": "yes", "name": "", "height": null, "height_m": null, "levels": null, "tract_id": "40111000800", "tract_name": "8", "tags": {"addr:city": "Dewar", "addr:housenumber": "111 1/2", "addr:postcode": "74431", "addr:state": "OK", "addr:street": "North Luella Street", "building": "yes", "telecom": "exchange"}}}, {"type": "Feature", "geometry": {"type": "Polygon", "coordinates": [[[-95.9276557, 35.4594497], [-95.9275942, 35.4594784], [-95.9275753, 35.4594515], [-95.9276368, 35.4594228], [-95.9276557, 35.4594497]]]}, "properties": {"osm_id": 1286155959, "building": "yes", "name": "", "height": null, "height_m": null, "levels": null, "tract_id": "40111000800", "tract_name": "8", "tags": {"building": "yes"}}}, {"type": "Feature", "geometry": {"type": "Polygon", "coordinates": [[[-95.9301789, 35.458866], [-95.9302083, 35.4589544], [-95.9303757, 35.4589173], [-95.9303462, 35.458829], [-95.9301789, 35.458866]]]}, "properties": {"osm_id": 1286155964, "building": "detached", "name": "", "height": null, "height_m": null, "levels": null, "tract_id": "40111000800", "tract_name": "8", "tags": {"building": "detached", "source": "microsoft/BuildingFootprints"}}}, {"type": "Feature", "geometry": {"type": "Polygon", "coordinates": [[[-95.9308719, 35.4589031], [-95.9308002, 35.4589088], [-95.9308054, 35.4589521], [-95.9308771, 35.4589464], [-95.9308719, 35.4589031]]]}, "properties": {"osm_id": 1286155965, "building": "yes", "name": "", "height": null, "height_m": null, "levels": null, "tract_id": "40111000800", "tract_name": "8", "tags": {"building": "yes", "source": "microsoft/BuildingFootprints"}}}, {"type": "Feature", "geometry": {"type": "Polygon", "coordinates": [[[-95.9301463, 35.4599824], [-95.9303274, 35.4599769], [-95.930322, 35.4598591], [-95.9302684, 35.4598607], [-95.9302673, 35.4598358], [-95.930211, 35.4598375], [-95.9302122, 35.4598623], [-95.9301409, 35.4598645], [-95.9301463, 35.4599824]]]}, "properties": {"osm_id": 1286155966, "building": "detached", "name": "", "height": null, "height_m": null, "levels": null, "tract_id": "40111000800", "tract_name": "8", "tags": {"building": "detached", "source": "microsoft/BuildingFootprints"}}}, {"type": "Feature", "geometry": {"type": "Polygon", "coordinates": [[[-95.9308184, 35.4595028], [-95.9309407, 35.4595052], [-95.9309438, 35.4593982], [-95.9308607, 35.4593966], [-95.9308614, 35.4593717], [-95.9306845, 35.4593683], [-95.9306808, 35.4594936], [-95.9307398, 35.4594947], [-95.9307386, 35.4595362], [-95.9308174, 35.4595378], [-95.9308184, 35.4595028]]]}, "properties": {"osm_id": 1286155967, "building": "detached", "name": "", "height": null, "height_m": null, "levels": null, "tract_id": "40111000800", "tract_name": "8", "tags": {"building": "detached", "source": "microsoft/BuildingFootprints"}}}, {"type": "Feature", "geometry": {"type": "Polygon", "coordinates": [[[-95.9270449, 35.4604532], [-95.9270792, 35.4605661], [-95.9272613, 35.4605295], [-95.9272236, 35.4604053], [-95.9271444, 35.4604212], [-95.9271478, 35.4604325], [-95.9270449, 35.4604532]]]}, "properties": {"osm_id": 1286155968, "building": "detached", "name": "", "height": null, "height_m": null, "levels": null, "tract_id": "40111000800", "tract_name": "8", "tags": {"building": "detached", "source": "microsoft/BuildingFootprints"}}}, {"type": "Feature", "geometry": {"type": "Polygon", "coordinates": [[[-95.9308533, 35.4588935], [-95.9308466, 35.4588395], [-95.9309236, 35.4588331], [-95.9309129, 35.4587466], [-95.9308332, 35.4587532], [-95.9308311, 35.4587359], [-95.9307382, 35.4587435], [-95.9307408, 35.4587651], [-95.9306692, 35.4587711], [-95.9306802, 35.4588597], [-95.9307439, 35.4588545], [-95.9307498, 35.4589021], [-95.9308533, 35.4588935]]]}, "properties": {"osm_id": 1286155969, "building": "detached", "name": "", "height": null, "height_m": null, "levels": null, "tract_id": "40111000800", "tract_name": "8", "tags": {"building": "detached", "source": "microsoft/BuildingFootprints"}}}, {"type": "Feature", "geometry": {"type": "Polygon", "coordinates": [[[-95.926095, 35.4589146], [-95.9261749, 35.4588933], [-95.9261638, 35.4588657], [-95.9262414, 35.458845], [-95.926199, 35.4587395], [-95.9260415, 35.4587815], [-95.926095, 35.4589146]]]}, "properties": {"osm_id": 1286155970, "building": "detached", "name": "", "height": null, "height_m": null, "levels": null, "tract_id": "40111000800", "tract_name": "8", "tags": {"building": "detached", "source": "microsoft/BuildingFootprints"}}}, {"type": "Feature", "geometry": {"type": "Polygon", "coordinates": [[[-95.929257, 35.4595012], [-95.9292553, 35.459582], [-95.9295047, 35.4595853], [-95.9295063, 35.4595045], [-95.929257, 35.4595012]]]}, "properties": {"osm_id": 1286155971, "building": "detached", "name": "", "height": null, "height_m": null, "levels": null, "tract_id": "40111000800", "tract_name": "8", "tags": {"building": "detached", "source": "microsoft/BuildingFootprints"}}}, {"type": "Feature", "geometry": {"type": "Polygon", "coordinates": [[[-95.9290679, 35.4598593], [-95.9290342, 35.4597268], [-95.9288312, 35.459761], [-95.9288648, 35.4598935], [-95.9290679, 35.4598593]]]}, "properties": {"osm_id": 1286155972, "building": "detached", "name": "", "height": null, "height_m": null, "levels": null, "tract_id": "40111000800", "tract_name": "8", "tags": {"building": "detached", "source": "microsoft/BuildingFootprints"}}}, {"type": "Feature", "geometry": {"type": "Polygon", "coordinates": [[[-95.9284826, 35.4608683], [-95.9284126, 35.4608043], [-95.9282292, 35.4609374], [-95.9282992, 35.4610014], [-95.9284826, 35.4608683]]]}, "properties": {"osm_id": 1286155973, "building": "yes", "name": "", "height": null, "height_m": null, "levels": null, "tract_id": "40111000800", "tract_name": "8", "tags": {"building": "yes", "source": "microsoft/BuildingFootprints"}}}, {"type": "Feature", "geometry": {"type": "Polygon", "coordinates": [[[-95.9287363, 35.4597896], [-95.9287525, 35.4598478], [-95.9288086, 35.4598374], [-95.9287925, 35.4597792], [-95.9287363, 35.4597896]]]}, "properties": {"osm_id": 1286155974, "building": "yes", "name": "", "height": null, "height_m": null, "levels": null, "tract_id": "40111000800", "tract_name": "8", "tags": {"building": "yes", "source": "microsoft/BuildingFootprints"}}}, {"type": "Feature", "geometry": {"type": "Polygon", "coordinates": [[[-95.9306939, 35.4600038], [-95.9306908, 35.4601195], [-95.9310018, 35.460125], [-95.931004, 35.4600399], [-95.93087, 35.4600375], [-95.9308708, 35.4600069], [-95.9306939, 35.4600038]]]}, "properties": {"osm_id": 1286155975, "building": "yes", "name": "", "height": null, "height_m": null, "levels": null, "tract_id": "40111000800", "tract_name": "8", "tags": {"building": "yes", "source": "microsoft/BuildingFootprints"}}}, {"type": "Feature", "geometry": {"type": "Polygon", "coordinates": [[[-95.929667, 35.4593706], [-95.9296689, 35.4594524], [-95.9297735, 35.4594507], [-95.9297739, 35.4594704], [-95.9298383, 35.4594693], [-95.9298359, 35.459368], [-95.929667, 35.4593706]]]}, "properties": {"osm_id": 1286155976, "building": "detached", "name": "", "height": null, "height_m": null, "levels": null, "tract_id": "40111000800", "tract_name": "8", "tags": {"building": "detached", "source": "microsoft/BuildingFootprints"}}}, {"type": "Feature", "geometry": {"type": "Polygon", "coordinates": [[[-95.9268814, 35.460983], [-95.9269517, 35.4608984], [-95.9268597, 35.4608477], [-95.9268087, 35.4609091], [-95.9267866, 35.4608969], [-95.9267356, 35.4609584], [-95.9267595, 35.4609716], [-95.9267147, 35.4610255], [-95.926803, 35.4610742], [-95.9268491, 35.4610187], [-95.9268822, 35.461037], [-95.9269127, 35.4610003], [-95.9268814, 35.460983]]]}, "properties": {"osm_id": 1286155978, "building": "detached", "name": "", "height": null, "height_m": null, "levels": null, "tract_id": "40111000800", "tract_name": "8", "tags": {"building": "detached", "source": "microsoft/BuildingFootprints"}}}, {"type": "Feature", "geometry": {"type": "Polygon", "coordinates": [[[-95.924758, 35.4642357], [-95.9246873, 35.4641835], [-95.9246046, 35.4642579], [-95.9246752, 35.46431], [-95.924758, 35.4642357]]]}, "properties": {"osm_id": 1286155979, "building": "yes", "name": "", "height": null, "height_m": null, "levels": null, "tract_id": "40111000800", "tract_name": "8", "tags": {"building": "yes", "source": "microsoft/BuildingFootprints"}}}, {"type": "Feature", "geometry": {"type": "Polygon", "coordinates": [[[-95.9282352, 35.4612252], [-95.928001, 35.4611121], [-95.9279281, 35.4612123], [-95.9279777, 35.4612363], [-95.9279359, 35.4612936], [-95.9281205, 35.4613828], [-95.9282352, 35.4612252]]]}, "properties": {"osm_id": 1286155980, "building": "yes", "name": "", "height": null, "height_m": null, "levels": null, "tract_id": "40111000800", "tract_name": "8", "tags": {"building": "yes", "source": "microsoft/BuildingFootprints"}}}, {"type": "Feature", "geometry": {"type": "Polygon", "coordinates": [[[-95.9248123, 35.4640743], [-95.9247869, 35.4640969], [-95.9246914, 35.4640257], [-95.9246251, 35.4640846], [-95.9246419, 35.464097], [-95.9246012, 35.4641332], [-95.9246509, 35.4641702], [-95.9246915, 35.464134], [-95.9247908, 35.464208], [-95.9248824, 35.4641265], [-95.9248123, 35.4640743]]]}, "properties": {"osm_id": 1286155981, "building": "detached", "name": "", "height": null, "height_m": null, "levels": null, "tract_id": "40111000800", "tract_name": "8", "tags": {"building": "detached", "source": "microsoft/BuildingFootprints"}}}, {"type": "Feature", "geometry": {"type": "Polygon", "coordinates": [[[-95.9284028, 35.4783957], [-95.928318, 35.478372], [-95.9283481, 35.4783005], [-95.9284329, 35.4783242], [-95.9284028, 35.4783957]]]}, "properties": {"osm_id": 1286155987, "building": "yes", "name": "", "height": null, "height_m": null, "levels": null, "tract_id": "40111000800", "tract_name": "8", "tags": {"building": "yes"}}}, {"type": "Feature", "geometry": {"type": "Polygon", "coordinates": [[[-95.9350365, 35.4691118], [-95.9350365, 35.4691348], [-95.9351253, 35.4691335], [-95.9351238, 35.4691002], [-95.9350361, 35.4691015], [-95.9350365, 35.4691118]]]}, "properties": {"osm_id": 1286155989, "building": "yes", "name": "", "height": null, "height_m": null, "levels": null, "tract_id": "40111000800", "tract_name": "8", "tags": {"building": "yes", "source": "microsoft/BuildingFootprints"}}}, {"type": "Feature", "geometry": {"type": "Polygon", "coordinates": [[[-95.9699961, 35.4407222], [-95.9695769, 35.4407207], [-95.9695778, 35.4405596], [-95.969997, 35.4405611], [-95.9699961, 35.4407222]]]}, "properties": {"osm_id": 1389216629, "building": "roof", "name": "", "height": null, "height_m": null, "levels": null, "tract_id": "40111000800", "tract_name": "8", "tags": {"building": "roof"}}}, {"type": "Feature", "geometry": {"type": "Polygon", "coordinates": [[[-95.9698604, 35.4403948], [-95.9698298, 35.4403948], [-95.9698298, 35.4404072], [-95.9697868, 35.4404066], [-95.9697437, 35.4404059], [-95.9697461, 35.4403935], [-95.9696567, 35.4403935], [-95.9696599, 35.4400832], [-95.969755, 35.4400858], [-95.9697558, 35.4400733], [-95.9697904, 35.4400733], [-95.969825, 35.4400733], [-95.969825, 35.4400871], [-95.9698661, 35.4400891], [-95.9698669, 35.4401566], [-95.9698943, 35.4401573], [-95.9698959, 35.4401842], [-95.9699112, 35.4401835], [-95.9699112, 35.4402413], [-95.9699112, 35.440299], [-95.9698951, 35.4402983], [-95.9698943, 35.4403252], [-95.969862, 35.4403266], [-95.9698604, 35.4403948]]]}, "properties": {"osm_id": 1389217627, "building": "retail", "name": "QuikTrip", "height": null, "height_m": null, "levels": null, "tract_id": "40111000800", "tract_name": "8", "tags": {"addr:city": "Henryetta", "addr:housenumber": "903", "addr:postcode": "74437", "addr:state": "OK", "addr:street": "East Trudgeon Street", "brand": "QuikTrip", "brand:wikidata": "Q7271953", "building": "retail", "name": "QuikTrip", "opening_hours": "24/7", "phone": "+1-918-319-6128", "shop": "convenience", "short_name": "QT", "website": "https://locations.quiktrip.com/ok/henryetta/903-e-trudgeon-st"}}}, {"type": "Feature", "geometry": {"type": "Polygon", "coordinates": [[[-95.9698257, 35.4414277], [-95.9697373, 35.4414272], [-95.9697395, 35.4411889], [-95.9698839, 35.4411897], [-95.9698837, 35.4412146], [-95.9698696, 35.4412145], [-95.9698689, 35.4413005], [-95.9698896, 35.4413006], [-95.9698893, 35.4413357], [-95.9698733, 35.4413356], [-95.9698727, 35.441404], [-95.969826, 35.4414038], [-95.9698257, 35.4414277]]]}, "properties": {"osm_id": 1389217900, "building": "restaurant", "name": "Taco Bueno", "height": null, "height_m": null, "levels": null, "tract_id": "40111000800", "tract_name": "8", "tags": {"addr:city": "Henryetta", "addr:housenumber": "902", "addr:postcode": "74437", "addr:state": "OK", "addr:street": "East Trudgeon Street", "air_conditioning": "yes", "amenity": "fast_food", "brand": "Taco Bueno", "brand:wikidata": "Q7673958", "building": "restaurant", "cuisine": "mexican", "drive_through": "yes", "indoor_seating": "yes", "name": "Taco Bueno", "opening_hours": "Mo-Su 10:30-20:00", "outdoor_seating": "no", "phone": "+1-918-319-5025", "takeaway": "yes", "website": "https://www.tacobueno.com/locations/henryetta/902-e-trudeon-rd"}}}, {"type": "Feature", "geometry": {"type": "Polygon", "coordinates": [[[-95.9690505, 35.4415258], [-95.9687503, 35.441526], [-95.9687502, 35.4414155], [-95.9690504, 35.4414154], [-95.9690505, 35.4415258]]]}, "properties": {"osm_id": 1389218044, "building": "restaurant", "name": "Burger King", "height": null, "height_m": null, "levels": null, "tract_id": "40111000800", "tract_name": "8", "tags": {"addr:city": "Henryetta", "addr:housenumber": "908", "addr:postcode": "74437", "addr:state": "OK", "addr:street": "East Trudgeon Street", "air_conditioning": "yes", "amenity": "fast_food", "brand": "Burger King", "brand:wikidata": "Q177054", "building": "restaurant", "cuisine": "burger", "drive_through": "yes", "indoor_seating": "yes", "name": "Burger King", "opening_hours": "Mo-Sa 06:00-22:00; Su 07:00-22:00", "opening_hours:drive_through": "Mo-Sa 06:00-24:00; Su 07:00-24:00", "outdoor_seating": "no", "phone": "+1-918-319-5006", "takeaway": "yes", "website": "https://www.bk.com/store-locator/store/restaurant_235490"}}}, {"type": "Feature", "geometry": {"type": "Polygon", "coordinates": [[[-95.9700312, 35.439527], [-95.9700316, 35.4394412], [-95.9696401, 35.4394398], [-95.9696396, 35.4395256], [-95.9700312, 35.439527]]]}, "properties": {"osm_id": 1390489480, "building": "roof", "name": "", "height": null, "height_m": null, "levels": null, "tract_id": "40111000800", "tract_name": "8", "tags": {"building": "roof"}}}, {"type": "Feature", "geometry": {"type": "Polygon", "coordinates": [[[-95.9077933, 35.5116544], [-95.9076536, 35.5117653], [-95.9074954, 35.5116333], [-95.9076351, 35.5115223], [-95.9077933, 35.5116544]]]}, "properties": {"osm_id": 1434299394, "building": "yes", "name": "", "height": null, "height_m": null, "levels": null, "tract_id": "40111000800", "tract_name": "8", "tags": {"building": "yes"}}}, {"type": "Feature", "geometry": {"type": "Polygon", "coordinates": [[[-95.9368558, 35.4575929], [-95.9368534, 35.4575004], [-95.9366154, 35.4575004], [-95.9366181, 35.4575942], [-95.9368558, 35.4575929]]]}, "properties": {"osm_id": 1443766009, "building": "school", "name": "", "height": null, "height_m": null, "levels": null, "tract_id": "40111000800", "tract_name": "8", "tags": {"building": "school"}}}, {"type": "Feature", "geometry": {"type": "Polygon", "coordinates": [[[-95.9359017, 35.4575995], [-95.9358996, 35.4575082], [-95.9355905, 35.4575128], [-95.9355926, 35.4576041], [-95.9359017, 35.4575995]]]}, "properties": {"osm_id": 1443766010, "building": "school", "name": "", "height": null, "height_m": null, "levels": null, "tract_id": "40111000800", "tract_name": "8", "tags": {"building": "school"}}}, {"type": "Feature", "geometry": {"type": "Polygon", "coordinates": [[[-95.9365607, 35.4575858], [-95.936561, 35.4575376], [-95.9364474, 35.4575371], [-95.9364471, 35.4575853], [-95.9365607, 35.4575858]]]}, "properties": {"osm_id": 1443766012, "building": "school", "name": "", "height": null, "height_m": null, "levels": null, "tract_id": "40111000800", "tract_name": "8", "tags": {"building": "school"}}}]}