{"type": "FeatureCollection", "features": [{"type": "Feature", "geometry": {"type": "Polygon", "coordinates": [[[-95.8536929, 36.1052664], [-95.8536927, 36.1047694], [-95.8539433, 36.1047694], [-95.8539435, 36.1052664], [-95.8536929, 36.1052664]]]}, "properties": {"osm_id": 426001112, "building": "retail", "name": "", "height": null, "height_m": 3.0, "levels": 1, "tract_id": "40143009012", "tract_name": "90.12", "tags": {"building": "retail", "building:levels": "1", "roof:levels": "0", "roof:shape": "flat"}}}, {"type": "Feature", "geometry": {"type": "Polygon", "coordinates": [[[-95.8560295, 36.1050663], [-95.855939, 36.1050665], [-95.8559388, 36.1049896], [-95.8559221, 36.1049897], [-95.8559216, 36.1048359], [-95.8560287, 36.1048356], [-95.8560295, 36.1050663]]]}, "properties": {"osm_id": 426001116, "building": "retail", "name": "Jack In The Box", "height": null, "height_m": null, "levels": null, "tract_id": "40143009012", "tract_name": "90.12", "tags": {"addr:city": "Tulsa", "addr:country": "US", "addr:housenumber": "10861", "addr:postcode": "74146", "addr:state": "OK", "addr:street": "East 41st Street", "amenity": "fast_food", "brand": "Jack in the Box", "brand:wikidata": "Q1538507", "building": "retail", "cuisine": "burger", "name": "Jack In The Box", "phone": "+1 918-660-7880", "source": "INCOG", "takeaway": "yes", "website": "https://locations.jackinthebox.com/us/ok/tulsa/10861-e-41st-st"}}}, {"type": "Feature", "geometry": {"type": "Polygon", "coordinates": [[[-95.8551551, 36.1049943], [-95.8550299, 36.1049947], [-95.8550287, 36.1047671], [-95.8551539, 36.1047667], [-95.8551551, 36.1049943]]]}, "properties": {"osm_id": 426001117, "building": "yes", "name": "Sonic", "height": null, "height_m": null, "levels": null, "tract_id": "40143009012", "tract_name": "90.12", "tags": {"addr:city": "Tulsa", "addr:housenumber": "10901", "addr:postcode": "74146", "addr:state": "OK", "addr:street": "East 41st Street", "amenity": "fast_food", "brand": "Sonic", "brand:wikidata": "Q7561808", "building": "yes", "cuisine": "burger", "drive_in": "yes", "name": "Sonic", "opening_hours": "Mo-Sa 06:00-23:00; Su 07:00-23:00", "phone": "+1 918-665-1929", "takeaway": "yes", "website": "https://locations.sonicdrivein.com/ok/tulsa/10901-e-41st-street.html"}}}, {"type": "Feature", "geometry": {"type": "Polygon", "coordinates": [[[-95.8517338, 36.1049082], [-95.8514227, 36.1049082], [-95.8514227, 36.1047467], [-95.8517338, 36.1047467], [-95.8517338, 36.1049082]]]}, "properties": {"osm_id": 560596762, "building": "roof", "name": "", "height": null, "height_m": null, "levels": null, "tract_id": "40143009012", "tract_name": "90.12", "tags": {"building": "roof"}}}, {"type": "Feature", "geometry": {"type": "Polygon", "coordinates": [[[-95.8521751, 36.1049065], [-95.8518639, 36.1049065], [-95.8518639, 36.1047451], [-95.8521751, 36.1047451], [-95.8521751, 36.1049065]]]}, "properties": {"osm_id": 560596763, "building": "roof", "name": "", "height": null, "height_m": null, "levels": null, "tract_id": "40143009012", "tract_name": "90.12", "tags": {"building": "roof"}}}, {"type": "Feature", "geometry": {"type": "Polygon", "coordinates": [[[-95.8519397, 36.1052327], [-95.8515874, 36.1052321], [-95.8515876, 36.1051322], [-95.8515877, 36.1050956], [-95.8516225, 36.1050957], [-95.8516225, 36.1050876], [-95.8516748, 36.1050877], [-95.8516749, 36.1050753], [-95.8517104, 36.1050754], [-95.8517104, 36.1050669], [-95.8518177, 36.105067], [-95.8518177, 36.1050755], [-95.8518526, 36.1050756], [-95.8518525, 36.105088], [-95.8519035, 36.1050881], [-95.8519035, 36.1050961], [-95.85194, 36.1050962], [-95.8519397, 36.1052327]]]}, "properties": {"osm_id": 560596770, "building": "retail", "name": "QuikTrip", "height": null, "height_m": null, "levels": null, "tract_id": "40143009012", "tract_name": "90.12", "tags": {"building": "retail", "name": "QuikTrip", "opening_hours": "24/7"}}}, {"type": "Feature", "geometry": {"type": "Polygon", "coordinates": [[[-95.8530186, 36.1051319], [-95.8527461, 36.1051477], [-95.8527193, 36.1048454], [-95.8529918, 36.1048296], [-95.8530186, 36.1051319]]]}, "properties": {"osm_id": 560596773, "building": "retail", "name": "El Patron Cocina Mexicana", "height": null, "height_m": null, "levels": null, "tract_id": "40143009012", "tract_name": "90.12", "tags": {"addr:city": "Tulsa", "addr:country": "US", "addr:housenumber": "11101", "addr:postcode": "74146", "addr:state": "OK", "addr:street": "East 41st Street South", "amenity": "restaurant", "building": "retail", "cuisine": "mexican", "name": "El Patron Cocina Mexicana", "outdoor_seating": "yes"}}}, {"type": "Feature", "geometry": {"type": "Polygon", "coordinates": [[[-95.8536429, 36.1164789], [-95.8536791, 36.1164789], [-95.8537824, 36.1165618], [-95.8537824, 36.1173862], [-95.8537462, 36.1173862], [-95.8536429, 36.1173049], [-95.8536429, 36.1164789]]]}, "properties": {"osm_id": 691102724, "building": "yes", "name": "", "height": null, "height_m": null, "levels": null, "tract_id": "40143009012", "tract_name": "90.12", "tags": {"building": "yes"}}}, {"type": "Feature", "geometry": {"type": "Polygon", "coordinates": [[[-95.8534223, 36.1164653], [-95.8535611, 36.1164653], [-95.8535611, 36.117208], [-95.8535242, 36.117208], [-95.8534223, 36.1171246], [-95.8534223, 36.1164653]]]}, "properties": {"osm_id": 691102725, "building": "yes", "name": "", "height": null, "height_m": null, "levels": null, "tract_id": "40143009012", "tract_name": "90.12", "tags": {"building": "yes"}}}, {"type": "Feature", "geometry": {"type": "Polygon", "coordinates": [[[-95.8532017, 36.1164664], [-95.8533398, 36.1164664], [-95.8533398, 36.1170319], [-95.8533043, 36.1170319], [-95.8532017, 36.1169474], [-95.8532017, 36.1164664]]]}, "properties": {"osm_id": 691102726, "building": "yes", "name": "", "height": null, "height_m": null, "levels": null, "tract_id": "40143009012", "tract_name": "90.12", "tags": {"building": "yes"}}}, {"type": "Feature", "geometry": {"type": "Polygon", "coordinates": [[[-95.8529824, 36.1164664], [-95.8531179, 36.1164664], [-95.8531179, 36.1168526], [-95.8530823, 36.1168526], [-95.8529824, 36.1167708], [-95.8529824, 36.1164664]]]}, "properties": {"osm_id": 691102727, "building": "yes", "name": "", "height": null, "height_m": null, "levels": null, "tract_id": "40143009012", "tract_name": "90.12", "tags": {"building": "yes"}}}, {"type": "Feature", "geometry": {"type": "Polygon", "coordinates": [[[-95.8528993, 36.1167291], [-95.8527611, 36.1167291], [-95.8527611, 36.1164664], [-95.8528993, 36.1164664], [-95.8528993, 36.1167291]]]}, "properties": {"osm_id": 691102728, "building": "yes", "name": "", "height": null, "height_m": null, "levels": null, "tract_id": "40143009012", "tract_name": "90.12", "tags": {"building": "yes"}}}, {"type": "Feature", "geometry": {"type": "Polygon", "coordinates": [[[-95.8526874, 36.1167302], [-95.8525486, 36.1167302], [-95.8525486, 36.1164659], [-95.8526874, 36.1164659], [-95.8526874, 36.1167302]]]}, "properties": {"osm_id": 691102729, "building": "yes", "name": "", "height": null, "height_m": null, "levels": null, "tract_id": "40143009012", "tract_name": "90.12", "tags": {"building": "yes"}}}, {"type": "Feature", "geometry": {"type": "Polygon", "coordinates": [[[-95.8524755, 36.1167297], [-95.8523373, 36.1167297], [-95.8523373, 36.116467], [-95.8524755, 36.116467], [-95.8524755, 36.1167297]]]}, "properties": {"osm_id": 691102730, "building": "yes", "name": "", "height": null, "height_m": null, "levels": null, "tract_id": "40143009012", "tract_name": "90.12", "tags": {"building": "yes"}}}, {"type": "Feature", "geometry": {"type": "Polygon", "coordinates": [[[-95.8522629, 36.1167302], [-95.8521281, 36.1167302], [-95.8521281, 36.1164675], [-95.8522629, 36.1164675], [-95.8522629, 36.1167302]]]}, "properties": {"osm_id": 691102731, "building": "yes", "name": "", "height": null, "height_m": null, "levels": null, "tract_id": "40143009012", "tract_name": "90.12", "tags": {"building": "yes"}}}, {"type": "Feature", "geometry": {"type": "Polygon", "coordinates": [[[-95.852055, 36.1167308], [-95.8519176, 36.1167308], [-95.8519176, 36.116468], [-95.852055, 36.116468], [-95.852055, 36.1167308]]]}, "properties": {"osm_id": 691102732, "building": "yes", "name": "", "height": null, "height_m": null, "levels": null, "tract_id": "40143009012", "tract_name": "90.12", "tags": {"building": "yes"}}}, {"type": "Feature", "geometry": {"type": "Polygon", "coordinates": [[[-95.8518418, 36.1167313], [-95.8517057, 36.1167313], [-95.8517057, 36.116468], [-95.8518418, 36.116468], [-95.8518418, 36.1167313]]]}, "properties": {"osm_id": 691102733, "building": "yes", "name": "", "height": null, "height_m": null, "levels": null, "tract_id": "40143009012", "tract_name": "90.12", "tags": {"building": "yes"}}}, {"type": "Feature", "geometry": {"type": "Polygon", "coordinates": [[[-95.8516319, 36.1167308], [-95.8514938, 36.1167308], [-95.8514938, 36.1164708], [-95.8516319, 36.1164708], [-95.8516319, 36.1167308]]]}, "properties": {"osm_id": 691102734, "building": "yes", "name": "SecurCare Self Storage", "height": null, "height_m": null, "levels": null, "tract_id": "40143009012", "tract_name": "90.12", "tags": {"addr:city": "Tulsa", "addr:country": "US", "addr:housenumber": "3218", "addr:postcode": "74146", "addr:state": "OK", "addr:street": "South Garnett Road East", "brand": "SecurCare Self Storage", "brand:wikidata": "Q124821649", "building": "yes", "name": "SecurCare Self Storage", "opening_hours": "Mo-Fr 10:00-13:00,14:00-18:00; Sa 10:00-13:00,14:00-17:00", "shop": "storage_rental"}}}, {"type": "Feature", "geometry": {"type": "Polygon", "coordinates": [[[-95.8565646, 36.1058071], [-95.856564, 36.1056002], [-95.8565005, 36.1056003], [-95.8563005, 36.1056006], [-95.8562647, 36.1056007], [-95.8562647, 36.1055758], [-95.8562228, 36.1055758], [-95.8562229, 36.1056049], [-95.8561757, 36.105605], [-95.8561762, 36.1058067], [-95.8562195, 36.1058066], [-95.8562195, 36.1057853], [-95.8565248, 36.1057848], [-95.8565248, 36.1058072], [-95.8565646, 36.1058071]]]}, "properties": {"osm_id": 840623726, "building": "hotel", "name": "", "height": null, "height_m": 9.0, "levels": 3, "tract_id": "40143009012", "tract_name": "90.12", "tags": {"building": "hotel", "building:levels": "3"}}}, {"type": "Feature", "geometry": {"type": "Polygon", "coordinates": [[[-95.8565087, 36.105576], [-95.8564987, 36.105576], [-95.8563005, 36.1055765], [-95.8562898, 36.1055765], [-95.8562891, 36.105397], [-95.8562535, 36.1053971], [-95.8562534, 36.1053639], [-95.8565485, 36.1053632], [-95.8565486, 36.1053966], [-95.856508, 36.1053967], [-95.8565087, 36.105576]]]}, "properties": {"osm_id": 852984831, "building": "hotel", "name": "", "height": null, "height_m": 9.0, "levels": 3, "tract_id": "40143009012", "tract_name": "90.12", "tags": {"building": "hotel", "building:levels": "3"}}}, {"type": "Feature", "geometry": {"type": "Polygon", "coordinates": [[[-95.8565157, 36.1051634], [-95.8562362, 36.1051651], [-95.8562359, 36.1051347], [-95.8562659, 36.1051345], [-95.8562636, 36.1049062], [-95.8562935, 36.104906], [-95.8562928, 36.1048404], [-95.8563297, 36.1048402], [-95.8563295, 36.1048163], [-95.8564905, 36.1048153], [-95.8564907, 36.1048386], [-95.8566023, 36.1048379], [-95.8566031, 36.1049124], [-95.8565277, 36.1049129], [-95.856528, 36.1049403], [-95.856484, 36.1049406], [-95.856486, 36.1051393], [-95.8565154, 36.1051391], [-95.8565157, 36.1051634]]]}, "properties": {"osm_id": 852984832, "building": "hotel", "name": "", "height": null, "height_m": 9.0, "levels": 3, "tract_id": "40143009012", "tract_name": "90.12", "tags": {"building": "hotel", "building:levels": "3"}}}, {"type": "Feature", "geometry": {"type": "Polygon", "coordinates": [[[-95.8521262, 36.1183578], [-95.8522078, 36.1183578], [-95.8522078, 36.1184235], [-95.8522078, 36.1184813], [-95.8522078, 36.1185396], [-95.8522078, 36.1185985], [-95.8522078, 36.1186657], [-95.8521262, 36.1186657], [-95.8521262, 36.1185985], [-95.8521262, 36.1185394], [-95.8521262, 36.1184817], [-95.8521262, 36.1184232], [-95.8521262, 36.1183578]]]}, "properties": {"osm_id": 1056200728, "building": "roof", "name": "", "height": null, "height_m": null, "levels": null, "tract_id": "40143009012", "tract_name": "90.12", "tags": {"building": "roof", "layer": "1"}}}, {"type": "Feature", "geometry": {"type": "Polygon", "coordinates": [[[-95.8578164, 36.1132493], [-95.857795, 36.1132497], [-95.8577944, 36.1132242], [-95.8578157, 36.1132238], [-95.8578164, 36.1132493]]]}, "properties": {"osm_id": 1197850766, "building": "yes", "name": "", "height": null, "height_m": null, "levels": null, "tract_id": "40143009012", "tract_name": "90.12", "tags": {"building": "yes"}}}, {"type": "Feature", "geometry": {"type": "Polygon", "coordinates": [[[-95.857866, 36.1132547], [-95.8578331, 36.1132542], [-95.8578338, 36.1132223], [-95.8578667, 36.1132227], [-95.857866, 36.1132547]]]}, "properties": {"osm_id": 1197850767, "building": "yes", "name": "", "height": null, "height_m": null, "levels": null, "tract_id": "40143009012", "tract_name": "90.12", "tags": {"building": "yes"}}}, {"type": "Feature", "geometry": {"type": "Polygon", "coordinates": [[[-95.8583066, 36.1134026], [-95.8582575, 36.1134021], [-95.8582582, 36.113355], [-95.8583073, 36.1133555], [-95.8583066, 36.1134026]]]}, "properties": {"osm_id": 1197850773, "building": "yes", "name": "", "height": null, "height_m": null, "levels": null, "tract_id": "40143009012", "tract_name": "90.12", "tags": {"building": "yes"}}}, {"type": "Feature", "geometry": {"type": "Polygon", "coordinates": [[[-95.857862, 36.1133587], [-95.8578265, 36.1133591], [-95.8578259, 36.1133152], [-95.8578613, 36.1133148], [-95.857862, 36.1133587]]]}, "properties": {"osm_id": 1197850774, "building": "yes", "name": "", "height": null, "height_m": null, "levels": null, "tract_id": "40143009012", "tract_name": "90.12", "tags": {"building": "yes"}}}, {"type": "Feature", "geometry": {"type": "Polygon", "coordinates": [[[-95.8578144, 36.1140304], [-95.8578131, 36.1140581], [-95.8577782, 36.114057], [-95.8577795, 36.1140293], [-95.8578144, 36.1140304]]]}, "properties": {"osm_id": 1197850777, "building": "yes", "name": "", "height": null, "height_m": null, "levels": null, "tract_id": "40143009012", "tract_name": "90.12", "tags": {"building": "yes"}}}, {"type": "Feature", "geometry": {"type": "Polygon", "coordinates": [[[-95.8586982, 36.1149638], [-95.858658, 36.1149627], [-95.8586593, 36.1149312], [-95.8586995, 36.1149323], [-95.8586982, 36.1149638]]]}, "properties": {"osm_id": 1197850790, "building": "yes", "name": "", "height": null, "height_m": null, "levels": null, "tract_id": "40143009012", "tract_name": "90.12", "tags": {"building": "yes"}}}, {"type": "Feature", "geometry": {"type": "Polygon", "coordinates": [[[-95.8591864, 36.1127049], [-95.8591367, 36.1127054], [-95.8591361, 36.1126675], [-95.8591857, 36.112667], [-95.8591864, 36.1127049]]]}, "properties": {"osm_id": 1197850791, "building": "yes", "name": "", "height": null, "height_m": null, "levels": null, "tract_id": "40143009012", "tract_name": "90.12", "tags": {"building": "yes"}}}, {"type": "Feature", "geometry": {"type": "Polygon", "coordinates": [[[-95.8592206, 36.1128457], [-95.8591488, 36.1128473], [-95.8591474, 36.1128066], [-95.8592191, 36.112805], [-95.8592206, 36.1128457]]]}, "properties": {"osm_id": 1197850792, "building": "yes", "name": "", "height": null, "height_m": null, "levels": null, "tract_id": "40143009012", "tract_name": "90.12", "tags": {"building": "yes"}}}, {"type": "Feature", "geometry": {"type": "Polygon", "coordinates": [[[-95.8592856, 36.1130792], [-95.8592226, 36.1130803], [-95.8592215, 36.1130391], [-95.8592845, 36.1130381], [-95.8592856, 36.1130792]]]}, "properties": {"osm_id": 1197850793, "building": "yes", "name": "", "height": null, "height_m": null, "levels": null, "tract_id": "40143009012", "tract_name": "90.12", "tags": {"building": "yes"}}}, {"type": "Feature", "geometry": {"type": "Polygon", "coordinates": [[[-95.8593044, 36.115337], [-95.8593097, 36.1152893], [-95.8593539, 36.1152926], [-95.8593485, 36.1153402], [-95.8593044, 36.115337]]]}, "properties": {"osm_id": 1197850794, "building": "yes", "name": "", "height": null, "height_m": null, "levels": null, "tract_id": "40143009012", "tract_name": "90.12", "tags": {"building": "yes"}}}, {"type": "Feature", "geometry": {"type": "Polygon", "coordinates": [[[-95.8592816, 36.1153977], [-95.8592856, 36.1153554], [-95.8593319, 36.1153583], [-95.8593279, 36.1154005], [-95.8592816, 36.1153977]]]}, "properties": {"osm_id": 1197850795, "building": "yes", "name": "", "height": null, "height_m": null, "levels": null, "tract_id": "40143009012", "tract_name": "90.12", "tags": {"building": "yes"}}}, {"type": "Feature", "geometry": {"type": "Polygon", "coordinates": [[[-95.8588925, 36.1155244], [-95.8588792, 36.1154281], [-95.858699, 36.1154443], [-95.8587124, 36.1155406], [-95.8588925, 36.1155244]]]}, "properties": {"osm_id": 1197850797, "building": "detached", "name": "", "height": null, "height_m": null, "levels": null, "tract_id": "40143009012", "tract_name": "90.12", "tags": {"addr:city": "Tulsa", "addr:country": "US", "addr:housenumber": "10601", "addr:postcode": "74146", "addr:state": "OK", "addr:street": "East 33rd Street South", "building": "detached"}}}, {"type": "Feature", "geometry": {"type": "Polygon", "coordinates": [[[-95.8580629, 36.1150853], [-95.8581353, 36.1150859], [-95.8581356, 36.1150568], [-95.8582349, 36.1150576], [-95.8582361, 36.1149536], [-95.8581181, 36.1149527], [-95.8581177, 36.1149808], [-95.8580641, 36.1149804], [-95.8580629, 36.1150853]]]}, "properties": {"osm_id": 1197850798, "building": "detached", "name": "", "height": null, "height_m": null, "levels": null, "tract_id": "40143009012", "tract_name": "90.12", "tags": {"addr:city": "Tulsa", "addr:country": "US", "addr:housenumber": "10616", "addr:postcode": "74146", "addr:state": "OK", "addr:street": "East 33rd Street South", "building": "detached"}}}, {"type": "Feature", "geometry": {"type": "Polygon", "coordinates": [[[-95.85908, 36.1142796], [-95.859077, 36.1141323], [-95.858959, 36.1141338], [-95.858962, 36.1142811], [-95.85908, 36.1142796]]]}, "properties": {"osm_id": 1197850799, "building": "detached", "name": "", "height": null, "height_m": null, "levels": null, "tract_id": "40143009012", "tract_name": "90.12", "tags": {"building": "detached", "source": "microsoft/BuildingFootprints"}}}, {"type": "Feature", "geometry": {"type": "Polygon", "coordinates": [[[-95.8580228, 36.1141992], [-95.8578565, 36.1141976], [-95.8578549, 36.1143059], [-95.85793, 36.1143066], [-95.8579297, 36.114324], [-95.8580209, 36.1143248], [-95.8580228, 36.1141992]]]}, "properties": {"osm_id": 1197850800, "building": "detached", "name": "", "height": null, "height_m": null, "levels": null, "tract_id": "40143009012", "tract_name": "90.12", "tags": {"building": "detached", "source": "microsoft/BuildingFootprints"}}}, {"type": "Feature", "geometry": {"type": "Polygon", "coordinates": [[[-95.8584824, 36.1150304], [-95.8585762, 36.1150291], [-95.8585774, 36.1150867], [-95.8586525, 36.1150857], [-95.8586499, 36.1149567], [-95.8584809, 36.1149589], [-95.8584824, 36.1150304]]]}, "properties": {"osm_id": 1197850801, "building": "detached", "name": "", "height": null, "height_m": null, "levels": null, "tract_id": "40143009012", "tract_name": "90.12", "tags": {"addr:city": "Tulsa", "addr:country": "US", "addr:housenumber": "10606", "addr:postcode": "74146", "addr:state": "OK", "addr:street": "East 33rd Street South", "building": "detached"}}}, {"type": "Feature", "geometry": {"type": "Polygon", "coordinates": [[[-95.8584807, 36.1155519], [-95.8585879, 36.1155524], [-95.8585886, 36.1154679], [-95.8586556, 36.1154683], [-95.8586562, 36.1153946], [-95.8584819, 36.1153937], [-95.8584807, 36.1155519]]]}, "properties": {"osm_id": 1197850802, "building": "detached", "name": "", "height": null, "height_m": null, "levels": null, "tract_id": "40143009012", "tract_name": "90.12", "tags": {"addr:city": "Tulsa", "addr:country": "US", "addr:housenumber": "10605", "addr:postcode": "74146", "addr:state": "OK", "addr:street": "East 33rd Street South", "building": "detached"}}}, {"type": "Feature", "geometry": {"type": "Polygon", "coordinates": [[[-95.8574316, 36.1149791], [-95.85743, 36.1150875], [-95.8575078, 36.1150882], [-95.8575082, 36.1150622], [-95.8576101, 36.1150631], [-95.8576112, 36.1149808], [-95.8574316, 36.1149791]]]}, "properties": {"osm_id": 1197850803, "building": "detached", "name": "", "height": null, "height_m": null, "levels": null, "tract_id": "40143009012", "tract_name": "90.12", "tags": {"addr:city": "Tulsa", "addr:country": "US", "addr:housenumber": "10632", "addr:postcode": "74146", "addr:state": "OK", "addr:street": "East 33rd Street South", "building": "detached"}}}, {"type": "Feature", "geometry": {"type": "Polygon", "coordinates": [[[-95.8584376, 36.1139546], [-95.8584393, 36.1138324], [-95.8583443, 36.1138315], [-95.8583438, 36.1138618], [-95.8582795, 36.1138613], [-95.8582777, 36.1139869], [-95.8583421, 36.1139875], [-95.8583426, 36.1139538], [-95.8584376, 36.1139546]]]}, "properties": {"osm_id": 1197850804, "building": "detached", "name": "", "height": null, "height_m": null, "levels": null, "tract_id": "40143009012", "tract_name": "90.12", "tags": {"building": "detached", "source": "microsoft/BuildingFootprints"}}}, {"type": "Feature", "geometry": {"type": "Polygon", "coordinates": [[[-95.8591707, 36.1149581], [-95.858983, 36.1149571], [-95.8589818, 36.1151022], [-95.8590677, 36.1151027], [-95.8590681, 36.1150442], [-95.85917, 36.1150447], [-95.8591707, 36.1149581]]]}, "properties": {"osm_id": 1197850805, "building": "detached", "name": "", "height": null, "height_m": null, "levels": null, "tract_id": "40143009012", "tract_name": "90.12", "tags": {"building": "detached"}}}, {"type": "Feature", "geometry": {"type": "Polygon", "coordinates": [[[-95.8589586, 36.1136209], [-95.8590766, 36.1136202], [-95.8590763, 36.1135898], [-95.8591138, 36.1135896], [-95.8591132, 36.1135224], [-95.8590757, 36.1135227], [-95.8590752, 36.113475], [-95.8589572, 36.1134757], [-95.8589586, 36.1136209]]]}, "properties": {"osm_id": 1197850806, "building": "detached", "name": "", "height": null, "height_m": null, "levels": null, "tract_id": "40143009012", "tract_name": "90.12", "tags": {"building": "detached", "source": "microsoft/BuildingFootprints"}}}, {"type": "Feature", "geometry": {"type": "Polygon", "coordinates": [[[-95.8574306, 36.1138525], [-95.8574326, 36.1139617], [-95.8575399, 36.1139604], [-95.8575404, 36.1139877], [-95.8576074, 36.1139869], [-95.8576046, 36.1138309], [-95.8575188, 36.1138319], [-95.8575191, 36.1138514], [-95.8574306, 36.1138525]]]}, "properties": {"osm_id": 1197850807, "building": "detached", "name": "", "height": null, "height_m": null, "levels": null, "tract_id": "40143009012", "tract_name": "90.12", "tags": {"building": "detached", "source": "microsoft/BuildingFootprints"}}}, {"type": "Feature", "geometry": {"type": "Polygon", "coordinates": [[[-95.8580626, 36.1135427], [-95.8581362, 36.1135429], [-95.8581361, 36.1135624], [-95.8582315, 36.1135626], [-95.8582321, 36.1134348], [-95.8580631, 36.1134343], [-95.8580626, 36.1135427]]]}, "properties": {"osm_id": 1197850808, "building": "detached", "name": "", "height": null, "height_m": null, "levels": null, "tract_id": "40143009012", "tract_name": "90.12", "tags": {"building": "detached", "source": "microsoft/BuildingFootprints"}}}, {"type": "Feature", "geometry": {"type": "Polygon", "coordinates": [[[-95.8578552, 36.1134392], [-95.857856, 36.1135315], [-95.8579231, 36.1135311], [-95.8579234, 36.1135645], [-95.8580161, 36.113564], [-95.858015, 36.1134383], [-95.8578552, 36.1134392]]]}, "properties": {"osm_id": 1197850809, "building": "detached", "name": "", "height": null, "height_m": null, "levels": null, "tract_id": "40143009012", "tract_name": "90.12", "tags": {"building": "detached", "source": "microsoft/BuildingFootprints"}}}, {"type": "Feature", "geometry": {"type": "Polygon", "coordinates": [[[-95.8578411, 36.1124083], [-95.8580154, 36.1124108], [-95.8580177, 36.1123055], [-95.8579474, 36.1123045], [-95.8579472, 36.1123142], [-95.8578924, 36.1123135], [-95.8578922, 36.1123249], [-95.8578429, 36.1123243], [-95.8578411, 36.1124083]]]}, "properties": {"osm_id": 1197850810, "building": "detached", "name": "", "height": null, "height_m": null, "levels": null, "tract_id": "40143009012", "tract_name": "90.12", "tags": {"building": "detached", "source": "microsoft/BuildingFootprints"}}}, {"type": "Feature", "geometry": {"type": "Polygon", "coordinates": [[[-95.8584469, 36.1145958], [-95.8582766, 36.1145991], [-95.8582809, 36.1147451], [-95.8584512, 36.1147418], [-95.8584469, 36.1145958]]]}, "properties": {"osm_id": 1197850811, "building": "detached", "name": "", "height": null, "height_m": null, "levels": null, "tract_id": "40143009012", "tract_name": "90.12", "tags": {"building": "detached"}}}, {"type": "Feature", "geometry": {"type": "Polygon", "coordinates": [[[-95.8590898, 36.1121377], [-95.8590895, 36.1121096], [-95.8591324, 36.1121093], [-95.859132, 36.1120681], [-95.8590945, 36.1120684], [-95.8590938, 36.1119947], [-95.8589785, 36.1119954], [-95.8589792, 36.1120756], [-95.8589524, 36.1120757], [-95.858953, 36.1121386], [-95.8590898, 36.1121377]]]}, "properties": {"osm_id": 1197850813, "building": "detached", "name": "", "height": null, "height_m": null, "levels": null, "tract_id": "40143009012", "tract_name": "90.12", "tags": {"building": "detached", "source": "microsoft/BuildingFootprints"}}}, {"type": "Feature", "geometry": {"type": "Polygon", "coordinates": [[[-95.8580583, 36.1131645], [-95.8582298, 36.1131682], [-95.858233, 36.1130695], [-95.8580615, 36.1130658], [-95.8580583, 36.1131645]]]}, "properties": {"osm_id": 1197850814, "building": "detached", "name": "", "height": null, "height_m": null, "levels": null, "tract_id": "40143009012", "tract_name": "90.12", "tags": {"building": "detached", "source": "microsoft/BuildingFootprints"}}}, {"type": "Feature", "geometry": {"type": "Polygon", "coordinates": [[[-95.8590808, 36.1136409], [-95.8589601, 36.1136397], [-95.8589579, 36.1137849], [-95.8590786, 36.1137861], [-95.8590791, 36.113753], [-95.8591176, 36.1137534], [-95.8591184, 36.1136993], [-95.8590799, 36.1136989], [-95.8590808, 36.1136409]]]}, "properties": {"osm_id": 1197850815, "building": "detached", "name": "", "height": null, "height_m": null, "levels": null, "tract_id": "40143009012", "tract_name": "90.12", "tags": {"building": "detached", "source": "microsoft/BuildingFootprints"}}}, {"type": "Feature", "geometry": {"type": "Polygon", "coordinates": [[[-95.8568197, 36.1158558], [-95.8568206, 36.1161591], [-95.8576432, 36.1161577], [-95.8576436, 36.1162915], [-95.8581902, 36.1162906], [-95.8581898, 36.1161528], [-95.8583262, 36.1161526], [-95.858326, 36.1160543], [-95.8584125, 36.1160541], [-95.8584597, 36.1160147], [-95.8584593, 36.115853], [-95.8568197, 36.1158558]]]}, "properties": {"osm_id": 1197850816, "building": "yes", "name": "", "height": null, "height_m": null, "levels": null, "tract_id": "40143009012", "tract_name": "90.12", "tags": {"building": "yes", "source": "microsoft/BuildingFootprints"}}}, {"type": "Feature", "geometry": {"type": "Polygon", "coordinates": [[[-95.8584426, 36.1123086], [-95.8582667, 36.1123081], [-95.8582662, 36.1124056], [-95.8584422, 36.1124061], [-95.8584426, 36.1123086]]]}, "properties": {"osm_id": 1197850817, "building": "detached", "name": "", "height": null, "height_m": null, "levels": null, "tract_id": "40143009012", "tract_name": "90.12", "tags": {"building": "detached", "source": "microsoft/BuildingFootprints"}}}, {"type": "Feature", "geometry": {"type": "Polygon", "coordinates": [[[-95.8577452, 36.1146985], [-95.8577458, 36.1147267], [-95.8578182, 36.1147256], [-95.857815, 36.1145891], [-95.8576407, 36.1145918], [-95.8576433, 36.1147001], [-95.8577452, 36.1146985]]]}, "properties": {"osm_id": 1197850818, "building": "detached", "name": "", "height": null, "height_m": null, "levels": null, "tract_id": "40143009012", "tract_name": "90.12", "tags": {"building": "detached"}}}, {"type": "Feature", "geometry": {"type": "Polygon", "coordinates": [[[-95.859117, 36.1126996], [-95.8590757, 36.1126993], [-95.8590762, 36.1126528], [-95.858962, 36.1126519], [-95.8589604, 36.1127937], [-95.8591159, 36.1127949], [-95.859117, 36.1126996]]]}, "properties": {"osm_id": 1197850819, "building": "detached", "name": "", "height": null, "height_m": null, "levels": null, "tract_id": "40143009012", "tract_name": "90.12", "tags": {"building": "detached", "source": "microsoft/BuildingFootprints"}}}, {"type": "Feature", "geometry": {"type": "Polygon", "coordinates": [[[-95.8582652, 36.1135636], [-95.8584449, 36.1135653], [-95.8584467, 36.11343], [-95.8583582, 36.1134292], [-95.8583578, 36.1134595], [-95.8582666, 36.1134587], [-95.8582652, 36.1135636]]]}, "properties": {"osm_id": 1197850820, "building": "detached", "name": "", "height": null, "height_m": null, "levels": null, "tract_id": "40143009012", "tract_name": "90.12", "tags": {"building": "detached", "source": "microsoft/BuildingFootprints"}}}, {"type": "Feature", "geometry": {"type": "Polygon", "coordinates": [[[-95.8580596, 36.1153697], [-95.8580616, 36.1154629], [-95.8582332, 36.1154604], [-95.8582312, 36.1153673], [-95.8580596, 36.1153697]]]}, "properties": {"osm_id": 1197850821, "building": "detached", "name": "", "height": null, "height_m": null, "levels": null, "tract_id": "40143009012", "tract_name": "90.12", "tags": {"addr:city": "Tulsa", "addr:country": "US", "addr:housenumber": "10615", "addr:postcode": "74146", "addr:state": "OK", "addr:street": "East 33rd Street South", "building": "detached"}}}, {"type": "Feature", "geometry": {"type": "Polygon", "coordinates": [[[-95.858055, 36.1127628], [-95.8581532, 36.1127636], [-95.8581527, 36.1127974], [-95.8582343, 36.1127981], [-95.8582357, 36.1126854], [-95.8581568, 36.1126847], [-95.8581572, 36.1126575], [-95.8580564, 36.1126567], [-95.858055, 36.1127628]]]}, "properties": {"osm_id": 1197850822, "building": "detached", "name": "", "height": null, "height_m": null, "levels": null, "tract_id": "40143009012", "tract_name": "90.12", "tags": {"building": "detached", "source": "microsoft/BuildingFootprints"}}}, {"type": "Feature", "geometry": {"type": "Polygon", "coordinates": [[[-95.8591149, 36.1131211], [-95.8591144, 36.1130635], [-95.8590795, 36.1130638], [-95.8590787, 36.1129848], [-95.8589596, 36.1129856], [-95.8589609, 36.1131221], [-95.8591149, 36.1131211]]]}, "properties": {"osm_id": 1197850823, "building": "detached", "name": "", "height": null, "height_m": null, "levels": null, "tract_id": "40143009012", "tract_name": "90.12", "tags": {"building": "detached", "source": "microsoft/BuildingFootprints"}}}, {"type": "Feature", "geometry": {"type": "Polygon", "coordinates": [[[-95.8586513, 36.1147043], [-95.8586483, 36.1146068], [-95.8584848, 36.1146102], [-95.8584878, 36.1147055], [-95.8585441, 36.1147043], [-95.858545, 36.1147346], [-95.8586147, 36.1147332], [-95.8586138, 36.1147051], [-95.8586513, 36.1147043]]]}, "properties": {"osm_id": 1197850824, "building": "detached", "name": "", "height": null, "height_m": null, "levels": null, "tract_id": "40143009012", "tract_name": "90.12", "tags": {"building": "detached"}}}, {"type": "Feature", "geometry": {"type": "Polygon", "coordinates": [[[-95.8591149, 36.1126272], [-95.8591132, 36.112495], [-95.8589855, 36.1124961], [-95.8589864, 36.1125655], [-95.8589515, 36.1125658], [-95.8589524, 36.1126286], [-95.8591149, 36.1126272]]]}, "properties": {"osm_id": 1197850825, "building": "detached", "name": "", "height": null, "height_m": null, "levels": null, "tract_id": "40143009012", "tract_name": "90.12", "tags": {"building": "detached", "source": "microsoft/BuildingFootprints"}}}, {"type": "Feature", "geometry": {"type": "Polygon", "coordinates": [[[-95.8576388, 36.1131999], [-95.857805, 36.1132031], [-95.857809, 36.1130667], [-95.857714, 36.1130648], [-95.8577133, 36.1130887], [-95.8576421, 36.1130873], [-95.8576388, 36.1131999]]]}, "properties": {"osm_id": 1197850826, "building": "detached", "name": "", "height": null, "height_m": null, "levels": null, "tract_id": "40143009012", "tract_name": "90.12", "tags": {"building": "detached", "source": "microsoft/BuildingFootprints"}}}, {"type": "Feature", "geometry": {"type": "Polygon", "coordinates": [[[-95.8589517, 36.1158825], [-95.8585929, 36.1158809], [-95.8585956, 36.1160103], [-95.8581926, 36.1165818], [-95.8581698, 36.116572], [-95.8577437, 36.1171851], [-95.8576134, 36.1171853], [-95.8576125, 36.1174187], [-95.857921, 36.1174187], [-95.8581363, 36.1170931], [-95.8581584, 36.1171018], [-95.8584421, 36.1167009], [-95.8585125, 36.1167373], [-95.8588061, 36.1163294], [-95.858772, 36.116312], [-95.858949, 36.1160715], [-95.8589517, 36.1158825]]]}, "properties": {"osm_id": 1197850827, "building": "yes", "name": "", "height": null, "height_m": null, "levels": null, "tract_id": "40143009012", "tract_name": "90.12", "tags": {"building": "yes", "source": "microsoft/BuildingFootprints"}}}, {"type": "Feature", "geometry": {"type": "Polygon", "coordinates": [[[-95.8576403, 36.1154833], [-95.8578052, 36.1154848], [-95.8578069, 36.1153613], [-95.8577278, 36.1153606], [-95.8577273, 36.1153953], [-95.8576415, 36.1153945], [-95.8576403, 36.1154833]]]}, "properties": {"osm_id": 1197850828, "building": "detached", "name": "", "height": null, "height_m": null, "levels": null, "tract_id": "40143009012", "tract_name": "90.12", "tags": {"addr:city": "Tulsa", "addr:country": "US", "addr:housenumber": "10625", "addr:postcode": "74146", "addr:state": "OK", "addr:street": "East 33rd Street South", "building": "detached"}}}, {"type": "Feature", "geometry": {"type": "Polygon", "coordinates": [[[-95.8589611, 36.1138061], [-95.8589584, 36.1139503], [-95.8590764, 36.1139517], [-95.8590774, 36.1139019], [-95.8591107, 36.1139023], [-95.8591113, 36.1138686], [-95.8590753, 36.1138681], [-95.8590764, 36.1138075], [-95.8589611, 36.1138061]]]}, "properties": {"osm_id": 1197850829, "building": "detached", "name": "", "height": null, "height_m": null, "levels": null, "tract_id": "40143009012", "tract_name": "90.12", "tags": {"building": "detached", "source": "microsoft/BuildingFootprints"}}}, {"type": "Feature", "geometry": {"type": "Polygon", "coordinates": [[[-95.8583654, 36.1130691], [-95.8583631, 36.1131288], [-95.8582709, 36.1131264], [-95.858268, 36.1131965], [-95.858371, 36.1131992], [-95.8583698, 36.1132295], [-95.8584341, 36.1132312], [-95.8584405, 36.113071], [-95.8583654, 36.1130691]]]}, "properties": {"osm_id": 1197850830, "building": "detached", "name": "", "height": null, "height_m": null, "levels": null, "tract_id": "40143009012", "tract_name": "90.12", "tags": {"building": "detached", "source": "microsoft/BuildingFootprints"}}}, {"type": "Feature", "geometry": {"type": "Polygon", "coordinates": [[[-95.8578512, 36.1131985], [-95.8580228, 36.1131995], [-95.858024, 36.1130717], [-95.8579462, 36.1130712], [-95.8579457, 36.1131232], [-95.8578518, 36.1131227], [-95.8578512, 36.1131985]]]}, "properties": {"osm_id": 1197850831, "building": "detached", "name": "", "height": null, "height_m": null, "levels": null, "tract_id": "40143009012", "tract_name": "90.12", "tags": {"building": "detached", "source": "microsoft/BuildingFootprints"}}}, {"type": "Feature", "geometry": {"type": "Polygon", "coordinates": [[[-95.8589584, 36.1132914], [-95.8590765, 36.1132918], [-95.8590766, 36.1132636], [-95.8591115, 36.1132637], [-95.8591117, 36.113203], [-95.8590769, 36.1132029], [-95.8590771, 36.1131466], [-95.8589666, 36.1131463], [-95.8589663, 36.113206], [-95.8589588, 36.113206], [-95.8589584, 36.1132914]]]}, "properties": {"osm_id": 1197850832, "building": "detached", "name": "", "height": null, "height_m": null, "levels": null, "tract_id": "40143009012", "tract_name": "90.12", "tags": {"building": "detached", "source": "microsoft/BuildingFootprints"}}}, {"type": "Feature", "geometry": {"type": "Polygon", "coordinates": [[[-95.8578549, 36.1138642], [-95.8578574, 36.1139582], [-95.8579432, 36.1139567], [-95.8579443, 36.1139948], [-95.858022, 36.1139934], [-95.8580176, 36.113831], [-95.8579226, 36.1138327], [-95.8579234, 36.113863], [-95.8578549, 36.1138642]]]}, "properties": {"osm_id": 1197850833, "building": "detached", "name": "", "height": null, "height_m": null, "levels": null, "tract_id": "40143009012", "tract_name": "90.12", "tags": {"building": "detached", "source": "microsoft/BuildingFootprints"}}}, {"type": "Feature", "geometry": {"type": "Polygon", "coordinates": [[[-95.8576055, 36.1153684], [-95.8574339, 36.1153702], [-95.8574353, 36.1154633], [-95.857607, 36.1154616], [-95.8576055, 36.1153684]]]}, "properties": {"osm_id": 1197850834, "building": "detached", "name": "", "height": null, "height_m": null, "levels": null, "tract_id": "40143009012", "tract_name": "90.12", "tags": {"addr:city": "Tulsa", "addr:country": "US", "addr:housenumber": "10631", "addr:postcode": "74146", "addr:state": "OK", "addr:street": "East 33rd Street South", "building": "detached"}}}, {"type": "Feature", "geometry": {"type": "Polygon", "coordinates": [[[-95.8576072, 36.1130709], [-95.8575268, 36.1130691], [-95.8575249, 36.1131254], [-95.8574326, 36.1131234], [-95.8574301, 36.1131992], [-95.8576028, 36.1132029], [-95.8576072, 36.1130709]]]}, "properties": {"osm_id": 1197850835, "building": "detached", "name": "", "height": null, "height_m": null, "levels": null, "tract_id": "40143009012", "tract_name": "90.12", "tags": {"building": "detached", "source": "microsoft/BuildingFootprints"}}}, {"type": "Feature", "geometry": {"type": "Polygon", "coordinates": [[[-95.858433, 36.1126784], [-95.8582651, 36.1126774], [-95.8582644, 36.1127542], [-95.8583583, 36.1127547], [-95.8583579, 36.1127972], [-95.8584319, 36.1127976], [-95.858433, 36.1126784]]]}, "properties": {"osm_id": 1197850836, "building": "detached", "name": "", "height": null, "height_m": null, "levels": null, "tract_id": "40143009012", "tract_name": "90.12", "tags": {"building": "detached", "source": "microsoft/BuildingFootprints"}}}, {"type": "Feature", "geometry": {"type": "Polygon", "coordinates": [[[-95.8578544, 36.1147267], [-95.858026, 36.1147243], [-95.8580233, 36.1145987], [-95.8579483, 36.1145997], [-95.8579494, 36.1146517], [-95.8578528, 36.1146531], [-95.8578544, 36.1147267]]]}, "properties": {"osm_id": 1197850837, "building": "detached", "name": "", "height": null, "height_m": null, "levels": null, "tract_id": "40143009012", "tract_name": "90.12", "tags": {"building": "detached"}}}, {"type": "Feature", "geometry": {"type": "Polygon", "coordinates": [[[-95.8580282, 36.1153663], [-95.8578511, 36.1153652], [-95.8578502, 36.1154627], [-95.8579306, 36.1154632], [-95.8579303, 36.1154923], [-95.8579934, 36.1154927], [-95.8579937, 36.1154624], [-95.8580272, 36.1154626], [-95.8580282, 36.1153663]]]}, "properties": {"osm_id": 1197850838, "building": "detached", "name": "", "height": null, "height_m": null, "levels": null, "tract_id": "40143009012", "tract_name": "90.12", "tags": {"addr:city": "Tulsa", "addr:country": "US", "addr:housenumber": "10621", "addr:postcode": "74146", "addr:state": "OK", "addr:street": "East 33rd Street South", "building": "detached"}}}, {"type": "Feature", "geometry": {"type": "Polygon", "coordinates": [[[-95.8577171, 36.1138295], [-95.8577174, 36.1138525], [-95.8576408, 36.1138531], [-95.8576422, 36.1139615], [-95.8577429, 36.1139606], [-95.8577434, 36.1139983], [-95.8578089, 36.1139978], [-95.8578068, 36.1138288], [-95.8577171, 36.1138295]]]}, "properties": {"osm_id": 1197850839, "building": "detached", "name": "", "height": null, "height_m": null, "levels": null, "tract_id": "40143009012", "tract_name": "90.12", "tags": {"building": "detached", "source": "microsoft/BuildingFootprints"}}}, {"type": "Feature", "geometry": {"type": "Polygon", "coordinates": [[[-95.8589617, 36.1129591], [-95.8590797, 36.112958], [-95.859079, 36.1129094], [-95.8591085, 36.1129091], [-95.859108, 36.1128766], [-95.8590801, 36.1128768], [-95.8590792, 36.112814], [-95.8589596, 36.1128152], [-95.8589617, 36.1129591]]]}, "properties": {"osm_id": 1197850840, "building": "detached", "name": "", "height": null, "height_m": null, "levels": null, "tract_id": "40143009012", "tract_name": "90.12", "tags": {"building": "detached", "source": "microsoft/BuildingFootprints"}}}, {"type": "Feature", "geometry": {"type": "Polygon", "coordinates": [[[-95.8593143, 36.1149693], [-95.8592351, 36.1149711], [-95.8592369, 36.115023], [-95.8593161, 36.1150212], [-95.8593143, 36.1149693]]]}, "properties": {"osm_id": 1197850842, "building": "yes", "name": "", "height": null, "height_m": null, "levels": null, "tract_id": "40143009012", "tract_name": "90.12", "tags": {"building": "yes", "source": "microsoft/BuildingFootprints"}}}, {"type": "Feature", "geometry": {"type": "Polygon", "coordinates": [[[-95.8583665, 36.1142013], [-95.8582754, 36.1142029], [-95.8582779, 36.114296], [-95.8583449, 36.1142948], [-95.8583458, 36.1143273], [-95.8584397, 36.1143256], [-95.8584354, 36.1141684], [-95.8583657, 36.1141697], [-95.8583665, 36.1142013]]]}, "properties": {"osm_id": 1197850843, "building": "detached", "name": "", "height": null, "height_m": null, "levels": null, "tract_id": "40143009012", "tract_name": "90.12", "tags": {"building": "detached", "source": "microsoft/BuildingFootprints"}}}, {"type": "Feature", "geometry": {"type": "Polygon", "coordinates": [[[-95.8574846, 36.1124861], [-95.857558, 36.1124879], [-95.8575605, 36.1124252], [-95.8574871, 36.1124233], [-95.8574846, 36.1124861]]]}, "properties": {"osm_id": 1197850844, "building": "yes", "name": "", "height": null, "height_m": null, "levels": null, "tract_id": "40143009012", "tract_name": "90.12", "tags": {"building": "yes", "source": "microsoft/BuildingFootprints"}}}, {"type": "Feature", "geometry": {"type": "Polygon", "coordinates": [[[-95.8584726, 36.1126609], [-95.8584748, 36.1127692], [-95.858574, 36.112768], [-95.8585746, 36.1127983], [-95.8586535, 36.1127972], [-95.8586514, 36.1126954], [-95.8586074, 36.112696], [-95.8586067, 36.1126592], [-95.8584726, 36.1126609]]]}, "properties": {"osm_id": 1197850845, "building": "detached", "name": "", "height": null, "height_m": null, "levels": null, "tract_id": "40143009012", "tract_name": "90.12", "tags": {"building": "detached", "source": "microsoft/BuildingFootprints"}}}, {"type": "Feature", "geometry": {"type": "Polygon", "coordinates": [[[-95.8589626, 36.1134579], [-95.8590871, 36.1134566], [-95.8590866, 36.113428], [-95.8591021, 36.1134278], [-95.8591015, 36.1133878], [-95.859086, 36.113388], [-95.8590847, 36.1133148], [-95.8589762, 36.113316], [-95.8589775, 36.1133921], [-95.8589615, 36.1133923], [-95.8589626, 36.1134579]]]}, "properties": {"osm_id": 1197850846, "building": "detached", "name": "", "height": null, "height_m": null, "levels": null, "tract_id": "40143009012", "tract_name": "90.12", "tags": {"building": "detached", "source": "microsoft/BuildingFootprints"}}}, {"type": "Feature", "geometry": {"type": "Polygon", "coordinates": [[[-95.8589559, 36.1144437], [-95.8590405, 36.1144441], [-95.8590409, 36.1143878], [-95.8591455, 36.1143883], [-95.8591462, 36.1142995], [-95.858957, 36.1142985], [-95.8589559, 36.1144437]]]}, "properties": {"osm_id": 1197850847, "building": "detached", "name": "", "height": null, "height_m": null, "levels": null, "tract_id": "40143009012", "tract_name": "90.12", "tags": {"building": "detached", "source": "microsoft/BuildingFootprints"}}}, {"type": "Feature", "geometry": {"type": "Polygon", "coordinates": [[[-95.858647, 36.1142002], [-95.8584888, 36.1142023], [-95.8584907, 36.1142976], [-95.8585551, 36.1142967], [-95.8585556, 36.1143227], [-95.8586495, 36.1143215], [-95.858647, 36.1142002]]]}, "properties": {"osm_id": 1197850848, "building": "detached", "name": "", "height": null, "height_m": null, "levels": null, "tract_id": "40143009012", "tract_name": "90.12", "tags": {"building": "detached", "source": "microsoft/BuildingFootprints"}}}, {"type": "Feature", "geometry": {"type": "Polygon", "coordinates": [[[-95.857817, 36.1150847], [-95.8578193, 36.1149569], [-95.8577442, 36.114956], [-95.8577437, 36.1149842], [-95.857643, 36.114983], [-95.8576413, 36.1150827], [-95.857817, 36.1150847]]]}, "properties": {"osm_id": 1197850849, "building": "detached", "name": "", "height": null, "height_m": null, "levels": null, "tract_id": "40143009012", "tract_name": "90.12", "tags": {"addr:city": "Tulsa", "addr:country": "US", "addr:housenumber": "10626", "addr:postcode": "74146", "addr:state": "OK", "addr:street": "East 33rd Street South", "building": "detached"}}}, {"type": "Feature", "geometry": {"type": "Polygon", "coordinates": [[[-95.8576463, 36.1142953], [-95.857716, 36.1142962], [-95.8577154, 36.1143265], [-95.8578092, 36.1143277], [-95.8578117, 36.1142042], [-95.8576481, 36.1142021], [-95.8576463, 36.1142953]]]}, "properties": {"osm_id": 1197850850, "building": "detached", "name": "", "height": null, "height_m": null, "levels": null, "tract_id": "40143009012", "tract_name": "90.12", "tags": {"building": "detached", "source": "microsoft/BuildingFootprints"}}}, {"type": "Feature", "geometry": {"type": "Polygon", "coordinates": [[[-95.8582385, 36.1146267], [-95.8581326, 36.1146245], [-95.8581334, 36.1145964], [-95.8580625, 36.114595], [-95.8580592, 36.1147032], [-95.8582361, 36.1147068], [-95.8582385, 36.1146267]]]}, "properties": {"osm_id": 1197850851, "building": "detached", "name": "", "height": null, "height_m": null, "levels": null, "tract_id": "40143009012", "tract_name": "90.12", "tags": {"building": "detached"}}}, {"type": "Feature", "geometry": {"type": "Polygon", "coordinates": [[[-95.8589715, 36.1121605], [-95.8589696, 36.1122233], [-95.8589471, 36.1122229], [-95.8589448, 36.1123008], [-95.8590734, 36.1123034], [-95.8590777, 36.1121626], [-95.8589715, 36.1121605]]]}, "properties": {"osm_id": 1197850852, "building": "detached", "name": "", "height": null, "height_m": null, "levels": null, "tract_id": "40143009012", "tract_name": "90.12", "tags": {"building": "detached", "source": "microsoft/BuildingFootprints"}}}, {"type": "Feature", "geometry": {"type": "Polygon", "coordinates": [[[-95.858479, 36.1138575], [-95.8584816, 36.1139615], [-95.8586505, 36.1139587], [-95.8586473, 36.1138309], [-95.8585561, 36.1138324], [-95.8585567, 36.1138562], [-95.858479, 36.1138575]]]}, "properties": {"osm_id": 1197850853, "building": "detached", "name": "", "height": null, "height_m": null, "levels": null, "tract_id": "40143009012", "tract_name": "90.12", "tags": {"building": "detached", "source": "microsoft/BuildingFootprints"}}}, {"type": "Feature", "geometry": {"type": "Polygon", "coordinates": [[[-95.858276, 36.1150886], [-95.858449, 36.115091], [-95.858451, 36.1149904], [-95.858278, 36.1149881], [-95.858276, 36.1150886]]]}, "properties": {"osm_id": 1197850854, "building": "detached", "name": "", "height": null, "height_m": null, "levels": null, "tract_id": "40143009012", "tract_name": "90.12", "tags": {"addr:city": "Tulsa", "addr:country": "US", "addr:housenumber": "10612", "addr:postcode": "74146", "addr:state": "OK", "addr:street": "East 33rd Street South", "building": "detached"}}}, {"type": "Feature", "geometry": {"type": "Polygon", "coordinates": [[[-95.8590648, 36.1152759], [-95.8592301, 36.1152917], [-95.8592419, 36.1152115], [-95.8592102, 36.1152084], [-95.8592203, 36.1151391], [-95.8590868, 36.1151263], [-95.8590648, 36.1152759]]]}, "properties": {"osm_id": 1197850855, "building": "detached", "name": "", "height": null, "height_m": null, "levels": null, "tract_id": "40143009012", "tract_name": "90.12", "tags": {"building": "detached", "source": "microsoft/BuildingFootprints"}}}, {"type": "Feature", "geometry": {"type": "Polygon", "coordinates": [[[-95.8580573, 36.1139389], [-95.8582424, 36.1139373], [-95.858241, 36.1138311], [-95.858056, 36.1138327], [-95.8580573, 36.1139389]]]}, "properties": {"osm_id": 1197850856, "building": "detached", "name": "", "height": null, "height_m": null, "levels": null, "tract_id": "40143009012", "tract_name": "90.12", "tags": {"building": "detached", "source": "microsoft/BuildingFootprints"}}}, {"type": "Feature", "geometry": {"type": "Polygon", "coordinates": [[[-95.8576001, 36.1134374], [-95.8574366, 36.1134413], [-95.8574399, 36.1135344], [-95.8575069, 36.1135328], [-95.857508, 36.1135631], [-95.8576045, 36.1135608], [-95.8576001, 36.1134374]]]}, "properties": {"osm_id": 1197850857, "building": "detached", "name": "", "height": null, "height_m": null, "levels": null, "tract_id": "40143009012", "tract_name": "90.12", "tags": {"building": "detached", "source": "microsoft/BuildingFootprints"}}}, {"type": "Feature", "geometry": {"type": "Polygon", "coordinates": [[[-95.8589996, 36.1154842], [-95.8590349, 36.1154632], [-95.8590566, 36.115487], [-95.8591232, 36.1154473], [-95.859099, 36.1154208], [-95.8591507, 36.11539], [-95.8590759, 36.115308], [-95.8589223, 36.1153995], [-95.8589996, 36.1154842]]]}, "properties": {"osm_id": 1197850858, "building": "detached", "name": "", "height": null, "height_m": null, "levels": null, "tract_id": "40143009012", "tract_name": "90.12", "tags": {"building": "detached"}}}, {"type": "Feature", "geometry": {"type": "Polygon", "coordinates": [[[-95.8576052, 36.1123094], [-95.8574283, 36.1123068], [-95.8574261, 36.1124056], [-95.8576031, 36.1124081], [-95.8576052, 36.1123094]]]}, "properties": {"osm_id": 1197850859, "building": "detached", "name": "", "height": null, "height_m": null, "levels": null, "tract_id": "40143009012", "tract_name": "90.12", "tags": {"building": "detached", "source": "microsoft/BuildingFootprints"}}}, {"type": "Feature", "geometry": {"type": "Polygon", "coordinates": [[[-95.8576052, 36.1145963], [-95.8574336, 36.1145957], [-95.8574331, 36.1146954], [-95.8575323, 36.1146957], [-95.8575322, 36.1147217], [-95.8576046, 36.1147219], [-95.8576052, 36.1145963]]]}, "properties": {"osm_id": 1197850860, "building": "detached", "name": "", "height": null, "height_m": null, "levels": null, "tract_id": "40143009012", "tract_name": "90.12", "tags": {"building": "detached"}}}, {"type": "Feature", "geometry": {"type": "Polygon", "coordinates": [[[-95.8582304, 36.1141976], [-95.8580642, 36.1142009], [-95.858068, 36.1143278], [-95.8582342, 36.1143245], [-95.8582304, 36.1141976]]]}, "properties": {"osm_id": 1197850861, "building": "detached", "name": "", "height": null, "height_m": null, "levels": null, "tract_id": "40143009012", "tract_name": "90.12", "tags": {"building": "detached", "source": "microsoft/BuildingFootprints"}}}, {"type": "Feature", "geometry": {"type": "Polygon", "coordinates": [[[-95.8578453, 36.1126962], [-95.8578475, 36.1127828], [-95.8579387, 36.1127813], [-95.8579392, 36.1127986], [-95.8580223, 36.1127971], [-95.8580196, 36.1126954], [-95.8579472, 36.1126966], [-95.8579463, 36.1126641], [-95.8578874, 36.1126651], [-95.8578882, 36.1126955], [-95.8578453, 36.1126962]]]}, "properties": {"osm_id": 1197850862, "building": "detached", "name": "", "height": null, "height_m": null, "levels": null, "tract_id": "40143009012", "tract_name": "90.12", "tags": {"building": "detached", "source": "microsoft/BuildingFootprints"}}}, {"type": "Feature", "geometry": {"type": "Polygon", "coordinates": [[[-95.8579506, 36.1150373], [-95.8579493, 36.1150871], [-95.8580257, 36.1150884], [-95.8580296, 36.1149346], [-95.8578568, 36.1149317], [-95.8578541, 36.1150357], [-95.8579506, 36.1150373]]]}, "properties": {"osm_id": 1197850863, "building": "detached", "name": "", "height": null, "height_m": null, "levels": null, "tract_id": "40143009012", "tract_name": "90.12", "tags": {"addr:city": "Tulsa", "addr:country": "US", "addr:housenumber": "10622", "addr:postcode": "74146", "addr:state": "OK", "addr:street": "East 33rd Street South", "building": "detached"}}}, {"type": "Feature", "geometry": {"type": "Polygon", "coordinates": [[[-95.8580545, 36.1124171], [-95.8582395, 36.1124142], [-95.8582368, 36.1123037], [-95.8580518, 36.1123066], [-95.8580545, 36.1124171]]]}, "properties": {"osm_id": 1197850864, "building": "detached", "name": "", "height": null, "height_m": null, "levels": null, "tract_id": "40143009012", "tract_name": "90.12", "tags": {"building": "detached", "source": "microsoft/BuildingFootprints"}}}, {"type": "Feature", "geometry": {"type": "Polygon", "coordinates": [[[-95.8589545, 36.1145395], [-95.8589559, 36.1146023], [-95.8591021, 36.1146002], [-95.8590992, 36.114468], [-95.8589959, 36.1144695], [-95.8589974, 36.1145388], [-95.8589545, 36.1145395]]]}, "properties": {"osm_id": 1197850865, "building": "detached", "name": "", "height": null, "height_m": null, "levels": null, "tract_id": "40143009012", "tract_name": "90.12", "tags": {"building": "detached", "source": "microsoft/BuildingFootprints"}}}, {"type": "Feature", "geometry": {"type": "Polygon", "coordinates": [[[-95.8590772, 36.114939], [-95.8590798, 36.1147994], [-95.8589659, 36.114798], [-95.8589633, 36.1149376], [-95.8590772, 36.114939]]]}, "properties": {"osm_id": 1197850866, "building": "detached", "name": "", "height": null, "height_m": null, "levels": null, "tract_id": "40143009012", "tract_name": "90.12", "tags": {"building": "detached"}}}, {"type": "Feature", "geometry": {"type": "Polygon", "coordinates": [[[-95.857604, 36.1126553], [-95.8574217, 36.1126567], [-95.8574229, 36.1127629], [-95.8575195, 36.1127621], [-95.8575199, 36.1127977], [-95.8576057, 36.112797], [-95.857604, 36.1126553]]]}, "properties": {"osm_id": 1197850867, "building": "detached", "name": "", "height": null, "height_m": null, "levels": null, "tract_id": "40143009012", "tract_name": "90.12", "tags": {"building": "detached", "source": "microsoft/BuildingFootprints"}}}, {"type": "Feature", "geometry": {"type": "Polygon", "coordinates": [[[-95.8577193, 36.113561], [-95.8578146, 36.1135598], [-95.8578121, 36.113429], [-95.8576351, 36.1134312], [-95.8576372, 36.1135395], [-95.8577188, 36.1135385], [-95.8577193, 36.113561]]]}, "properties": {"osm_id": 1197850868, "building": "detached", "name": "", "height": null, "height_m": null, "levels": null, "tract_id": "40143009012", "tract_name": "90.12", "tags": {"building": "detached", "source": "microsoft/BuildingFootprints"}}}, {"type": "Feature", "geometry": {"type": "Polygon", "coordinates": [[[-95.8578194, 36.1123049], [-95.8576316, 36.1123034], [-95.8576302, 36.1124161], [-95.857818, 36.1124176], [-95.8578194, 36.1123049]]]}, "properties": {"osm_id": 1197850869, "building": "detached", "name": "", "height": null, "height_m": null, "levels": null, "tract_id": "40143009012", "tract_name": "90.12", "tags": {"building": "detached", "source": "microsoft/BuildingFootprints"}}}, {"type": "Feature", "geometry": {"type": "Polygon", "coordinates": [[[-95.8589517, 36.1124622], [-95.8591421, 36.112461], [-95.8591415, 36.1124037], [-95.859112, 36.1124039], [-95.8591113, 36.112329], [-95.8589852, 36.1123298], [-95.8589859, 36.1123991], [-95.8589511, 36.1123994], [-95.8589517, 36.1124622]]]}, "properties": {"osm_id": 1197850870, "building": "detached", "name": "", "height": null, "height_m": null, "levels": null, "tract_id": "40143009012", "tract_name": "90.12", "tags": {"building": "detached", "source": "microsoft/BuildingFootprints"}}}, {"type": "Feature", "geometry": {"type": "Polygon", "coordinates": [[[-95.8586531, 36.1134384], [-95.8584922, 36.1134399], [-95.8584936, 36.1135331], [-95.858558, 36.1135324], [-95.8585584, 36.1135606], [-95.8586549, 36.1135597], [-95.8586531, 36.1134384]]]}, "properties": {"osm_id": 1197850871, "building": "detached", "name": "", "height": null, "height_m": null, "levels": null, "tract_id": "40143009012", "tract_name": "90.12", "tags": {"building": "detached", "source": "microsoft/BuildingFootprints"}}}, {"type": "Feature", "geometry": {"type": "Polygon", "coordinates": [[[-95.8575097, 36.1141844], [-95.8575104, 36.1142148], [-95.8574231, 36.114216], [-95.8574256, 36.1143265], [-95.857616, 36.1143237], [-95.8576128, 36.1141829], [-95.8575097, 36.1141844]]]}, "properties": {"osm_id": 1197850872, "building": "detached", "name": "", "height": null, "height_m": null, "levels": null, "tract_id": "40143009012", "tract_name": "90.12", "tags": {"building": "detached", "source": "microsoft/BuildingFootprints"}}}, {"type": "Feature", "geometry": {"type": "Polygon", "coordinates": [[[-95.8589628, 36.1147747], [-95.8590781, 36.1147727], [-95.8590742, 36.1146297], [-95.8589589, 36.1146318], [-95.8589628, 36.1147747]]]}, "properties": {"osm_id": 1197850873, "building": "detached", "name": "", "height": null, "height_m": null, "levels": null, "tract_id": "40143009012", "tract_name": "90.12", "tags": {"building": "detached"}}}, {"type": "Feature", "geometry": {"type": "Polygon", "coordinates": [[[-95.8578125, 36.1126837], [-95.8576328, 36.1126857], [-95.8576343, 36.1127702], [-95.8577308, 36.1127691], [-95.8577314, 36.1127995], [-95.8578145, 36.1127985], [-95.8578125, 36.1126837]]]}, "properties": {"osm_id": 1197850874, "building": "detached", "name": "", "height": null, "height_m": null, "levels": null, "tract_id": "40143009012", "tract_name": "90.12", "tags": {"building": "detached", "source": "microsoft/BuildingFootprints"}}}, {"type": "Feature", "geometry": {"type": "Polygon", "coordinates": [[[-95.8586515, 36.1130704], [-95.8585726, 36.1130698], [-95.858572, 36.1131227], [-95.8584781, 36.113122], [-95.8584772, 36.1131956], [-95.8586017, 36.1131967], [-95.8586013, 36.1132239], [-95.8586496, 36.1132243], [-95.8586515, 36.1130704]]]}, "properties": {"osm_id": 1197850875, "building": "detached", "name": "", "height": null, "height_m": null, "levels": null, "tract_id": "40143009012", "tract_name": "90.12", "tags": {"building": "detached", "source": "microsoft/BuildingFootprints"}}}, {"type": "Feature", "geometry": {"type": "Polygon", "coordinates": [[[-95.8589636, 36.1141125], [-95.8590816, 36.1141113], [-95.8590794, 36.1139717], [-95.8589767, 36.1139727], [-95.8589773, 36.1140108], [-95.858962, 36.1140109], [-95.8589636, 36.1141125]]]}, "properties": {"osm_id": 1197850876, "building": "detached", "name": "", "height": null, "height_m": null, "levels": null, "tract_id": "40143009012", "tract_name": "90.12", "tags": {"building": "detached", "source": "microsoft/BuildingFootprints"}}}, {"type": "Feature", "geometry": {"type": "Polygon", "coordinates": [[[-95.8584517, 36.1153574], [-95.8582667, 36.1153602], [-95.8582692, 36.1154685], [-95.8584542, 36.1154657], [-95.8584517, 36.1153574]]]}, "properties": {"osm_id": 1197850877, "building": "detached", "name": "", "height": null, "height_m": null, "levels": null, "tract_id": "40143009012", "tract_name": "90.12", "tags": {"addr:city": "Tulsa", "addr:country": "US", "addr:housenumber": "10611", "addr:postcode": "74146", "addr:state": "OK", "addr:street": "East 33rd Street South", "building": "detached"}}}, {"type": "Feature", "geometry": {"type": "Polygon", "coordinates": [[[-95.8586507, 36.1123123], [-95.8584748, 36.11231], [-95.8584729, 36.1124063], [-95.8586488, 36.1124086], [-95.8586507, 36.1123123]]]}, "properties": {"osm_id": 1197850878, "building": "detached", "name": "", "height": null, "height_m": null, "levels": null, "tract_id": "40143009012", "tract_name": "90.12", "tags": {"building": "detached", "source": "microsoft/BuildingFootprints"}}}, {"type": "Feature", "geometry": {"type": "Polygon", "coordinates": [[[-95.8514708, 36.1186613], [-95.8518317, 36.1186606], [-95.8518306, 36.1183445], [-95.8514698, 36.1183453], [-95.8514708, 36.1186613]]]}, "properties": {"osm_id": 1385607303, "building": "retail", "name": "", "height": null, "height_m": null, "levels": null, "tract_id": "40143009012", "tract_name": "90.12", "tags": {"addr:city": "Tulsa", "addr:country": "US", "addr:housenumber": "3118", "addr:postcode": "74146", "addr:state": "OK", "addr:street": "South Garnett Road East", "building": "retail", "source": "INCOG"}}}, {"type": "Feature", "geometry": {"type": "Polygon", "coordinates": [[[-95.8516236, 36.1061459], [-95.8514776, 36.106146], [-95.8514774, 36.1059764], [-95.8516234, 36.1059763], [-95.8516236, 36.1061459]]]}, "properties": {"osm_id": 1385634847, "building": "yes", "name": "Baskin-Robbins", "height": null, "height_m": null, "levels": null, "tract_id": "40143009012", "tract_name": "90.12", "tags": {"amenity": "ice_cream", "brand": "Baskin-Robbins", "brand:wikidata": "Q584601", "building": "yes", "name": "Baskin-Robbins"}}}, {"type": "Feature", "geometry": {"type": "Polygon", "coordinates": [[[-95.8522193, 36.1068894], [-95.8517325, 36.1068905], [-95.8517318, 36.1066759], [-95.8522186, 36.1066748], [-95.8522193, 36.1068894]]]}, "properties": {"osm_id": 1385634848, "building": "yes", "name": "Dollar General", "height": null, "height_m": null, "levels": null, "tract_id": "40143009012", "tract_name": "90.12", "tags": {"addr:city": "Tulsa", "addr:country": "US", "addr:housenumber": "3920", "addr:postcode": "74146", "addr:state": "OK", "addr:street": "South Garnett Road", "brand": "Dollar General", "brand:wikidata": "Q145168", "building": "yes", "name": "Dollar General", "opening_hours": "Mo-Su 08:00-22:00", "shop": "variety_store", "website": "https://www.dollargeneral.com/store-directory/ok/tulsa/2923"}}}, {"type": "Feature", "geometry": {"type": "Polygon", "coordinates": [[[-95.8555303, 36.1181351], [-95.8555294, 36.1184719], [-95.8559012, 36.1184725], [-95.855902, 36.1181357], [-95.8555303, 36.1181351]]]}, "properties": {"osm_id": 1388898415, "building": "yes", "name": "", "height": null, "height_m": null, "levels": null, "tract_id": "40143009012", "tract_name": "90.12", "tags": {"addr:city": "Tulsa", "addr:country": "US", "addr:housenumber": "10802", "addr:postcode": "74146", "addr:state": "OK", "addr:street": "East 31st Street South", "building": "yes"}}}, {"type": "Feature", "geometry": {"type": "Polygon", "coordinates": [[[-95.8567967, 36.1185716], [-95.8571159, 36.1185718], [-95.8571159, 36.1185914], [-95.8577408, 36.1185918], [-95.857741, 36.1183771], [-95.857513, 36.118377], [-95.8575131, 36.1183055], [-95.8574299, 36.1183055], [-95.8574298, 36.1184051], [-95.857175, 36.118405], [-95.8571752, 36.118158], [-95.8567971, 36.1181578], [-95.8567967, 36.1185716]]]}, "properties": {"osm_id": 1388898416, "building": "retail", "name": "", "height": null, "height_m": 3.0, "levels": 1, "tract_id": "40143009012", "tract_name": "90.12", "tags": {"addr:city": "Tulsa", "addr:country": "US", "addr:housenumber": "10660", "addr:postcode": "74146", "addr:state": "OK", "addr:street": "East 31st Street South", "building": "retail", "building:levels": "1", "roof:levels": "0", "roof:shape": "flat"}}}, {"type": "Feature", "geometry": {"type": "Polygon", "coordinates": [[[-95.8577406, 36.1180823], [-95.8577406, 36.1180086], [-95.8566383, 36.1180086], [-95.8566383, 36.1180823], [-95.8577406, 36.1180823]]]}, "properties": {"osm_id": 1388907304, "building": "warehouse", "name": "", "height": null, "height_m": null, "levels": null, "tract_id": "40143009012", "tract_name": "90.12", "tags": {"building": "warehouse"}}}, {"type": "Feature", "geometry": {"type": "Polygon", "coordinates": [[[-95.8559256, 36.1064934], [-95.8558414, 36.1064944], [-95.8558388, 36.1063547], [-95.855923, 36.1063537], [-95.8559256, 36.1064934]]]}, "properties": {"osm_id": 1389429235, "building": "office", "name": "", "height": null, "height_m": null, "levels": null, "tract_id": "40143009012", "tract_name": "90.12", "tags": {"addr:city": "Tulsa", "addr:country": "US", "addr:housenumber": "10863", "addr:postcode": "74146", "addr:state": "OK", "addr:street": "East 41st Street South", "building": "office", "shop": "storage_rental", "source": "INCOG"}}}, {"type": "Feature", "geometry": {"type": "Polygon", "coordinates": [[[-95.8562049, 36.1068041], [-95.8559997, 36.1068047], [-95.8559977, 36.1063353], [-95.8562028, 36.1063347], [-95.8562049, 36.1068041]]]}, "properties": {"osm_id": 1389429236, "building": "warehouse", "name": "", "height": null, "height_m": null, "levels": null, "tract_id": "40143009012", "tract_name": "90.12", "tags": {"building": "warehouse"}}}, {"type": "Feature", "geometry": {"type": "Polygon", "coordinates": [[[-95.8565776, 36.1069606], [-95.8563028, 36.1069618], [-95.8562976, 36.1062182], [-95.8565724, 36.1062169], [-95.8565776, 36.1069606]]]}, "properties": {"osm_id": 1389429237, "building": "warehouse", "name": "", "height": null, "height_m": null, "levels": null, "tract_id": "40143009012", "tract_name": "90.12", "tags": {"building": "warehouse"}}}, {"type": "Feature", "geometry": {"type": "Polygon", "coordinates": [[[-95.8532546, 36.1061933], [-95.8527336, 36.1061955], [-95.8527334, 36.1061692], [-95.8522231, 36.1061713], [-95.8522215, 36.1059231], [-95.8527318, 36.105921], [-95.8527316, 36.1058895], [-95.8532527, 36.1058873], [-95.8532546, 36.1061933]]]}, "properties": {"osm_id": 1417948799, "building": "retail", "name": "", "height": null, "height_m": 3.0, "levels": 1, "tract_id": "40143009012", "tract_name": "90.12", "tags": {"building": "retail", "building:levels": "1", "roof:levels": "0"}}}]}