{"type": "FeatureCollection", "features": [{"type": "Feature", "geometry": {"type": "Polygon", "coordinates": [[[-97.5569289, 35.4934633], [-97.5567882, 35.4934639], [-97.5567874, 35.4933522], [-97.5569282, 35.4933516], [-97.5569289, 35.4934633]]]}, "properties": {"osm_id": 176417639, "building": "yes", "name": "", "height": null, "height_m": null, "levels": null, "tract_id": "40109100900", "tract_name": "1009", "tags": {"building": "yes", "source": "bing"}}}, {"type": "Feature", "geometry": {"type": "Polygon", "coordinates": [[[-97.5569773, 35.4933053], [-97.557054, 35.4933048], [-97.5570554, 35.4934652], [-97.5569787, 35.4934656], [-97.5569773, 35.4933053]]]}, "properties": {"osm_id": 176417641, "building": "yes", "name": "", "height": null, "height_m": null, "levels": null, "tract_id": "40109100900", "tract_name": "1009", "tags": {"building": "yes", "source": "bing"}}}, {"type": "Feature", "geometry": {"type": "Polygon", "coordinates": [[[-97.562403, 35.4935569], [-97.5624012, 35.493359], [-97.5622289, 35.49336], [-97.5617877, 35.4933626], [-97.5615224, 35.4933641], [-97.5615231, 35.4934352], [-97.5616122, 35.4934347], [-97.5616131, 35.4935333], [-97.5619697, 35.4935312], [-97.5619699, 35.4935595], [-97.562403, 35.4935569]]]}, "properties": {"osm_id": 184235783, "building": "school", "name": "", "height": null, "height_m": null, "levels": null, "tract_id": "40109100900", "tract_name": "1009", "tags": {"building": "school"}}}, {"type": "Feature", "geometry": {"type": "Polygon", "coordinates": [[[-97.5649386, 35.4938252], [-97.5649381, 35.4937526], [-97.5649359, 35.4934518], [-97.5652364, 35.4934496], [-97.5652364, 35.4934299], [-97.5652659, 35.4934278], [-97.5652919, 35.4934502], [-97.5653115, 35.4934671], [-97.5653115, 35.4934976], [-97.5652989, 35.4934976], [-97.5652969, 35.4936603], [-97.5652853, 35.4936603], [-97.5652833, 35.4938236], [-97.5649386, 35.4938252]]]}, "properties": {"osm_id": 184236052, "building": "yes", "name": "", "height": null, "height_m": null, "levels": null, "tract_id": "40109100900", "tract_name": "1009", "tags": {"addr:city": "Oklahoma City", "addr:housenumber": "2400", "addr:postcode": "73107", "addr:state": "OK", "addr:street": "North May Avenue", "building": "yes", "source": "Bing"}}}, {"type": "Feature", "geometry": {"type": "Polygon", "coordinates": [[[-97.5671199, 35.4936522], [-97.5671199, 35.493472], [-97.5667954, 35.493472], [-97.566798, 35.4934523], [-97.5667136, 35.4934534], [-97.5667176, 35.4935408], [-97.5666827, 35.4935408], [-97.5666639, 35.4935583], [-97.5665888, 35.493496], [-97.5665312, 35.4935441], [-97.5665459, 35.4935604], [-97.5663674, 35.4937067], [-97.5663354, 35.493733], [-97.5663112, 35.49371], [-97.5661597, 35.4938323], [-97.5661704, 35.4938443], [-97.5661127, 35.4938924], [-97.5661798, 35.4939502], [-97.5661583, 35.4939666], [-97.5661597, 35.4939928], [-97.5660524, 35.4939917], [-97.5660537, 35.4940573], [-97.5660779, 35.4940562], [-97.5660738, 35.49447], [-97.5662039, 35.4944733], [-97.5662053, 35.4944427], [-97.5663072, 35.4944427], [-97.5663112, 35.494185], [-97.5662106, 35.4941817], [-97.566208, 35.4940081], [-97.5662321, 35.4939863], [-97.566499, 35.4942189], [-97.5665714, 35.494161], [-97.5666264, 35.494209], [-97.5665741, 35.4942527], [-97.5666787, 35.4943335], [-97.5667779, 35.4942494], [-97.5668423, 35.4943051], [-97.5670944, 35.4940998], [-97.5670287, 35.4940474], [-97.5671347, 35.4939579], [-97.5671481, 35.4939688], [-97.5672366, 35.4938967], [-97.5671226, 35.4938039], [-97.5670475, 35.4938684], [-97.5667082, 35.4935997], [-97.5667283, 35.4935812], [-97.5669657, 35.4935834], [-97.5669643, 35.4936489], [-97.5671199, 35.4936522]]]}, "properties": {"osm_id": 184236245, "building": "yes", "name": "", "height": null, "height_m": null, "levels": null, "tract_id": "40109100900", "tract_name": "1009", "tags": {"building": "yes"}}}, {"type": "Feature", "geometry": {"type": "Polygon", "coordinates": [[[-97.5650037, 35.4953558], [-97.5650037, 35.4951112], [-97.5647355, 35.4951112], [-97.5647382, 35.4953601], [-97.5650037, 35.4953558]]]}, "properties": {"osm_id": 185219268, "building": "yes", "name": "", "height": null, "height_m": null, "levels": null, "tract_id": "40109100900", "tract_name": "1009", "tags": {"building": "yes"}}}, {"type": "Feature", "geometry": {"type": "Polygon", "coordinates": [[[-97.5650072, 35.4965767], [-97.5650071, 35.4964328], [-97.5655426, 35.4964324], [-97.5655429, 35.4966551], [-97.5655107, 35.4966791], [-97.5653389, 35.4966792], [-97.5653388, 35.4965765], [-97.5650072, 35.4965767]]]}, "properties": {"osm_id": 185219283, "building": "yes", "name": "IMAGENation Promotional Group - IPGI", "height": null, "height_m": null, "levels": null, "tract_id": "40109100900", "tract_name": "1009", "tags": {"addr:city": "Oklahoma City", "addr:housenumber": "2720", "addr:postcode": "73107", "addr:state": "OK", "addr:street": "North May Avenue", "building": "yes", "contact:facebook": "myIPGI", "contact:instagram": "myipgicom", "email": "clientservices@myipgi.com", "fax": "+1 405 948 4405", "name": "IMAGENation Promotional Group - IPGI", "office": "graphic_design", "phone": "+1 405 917 5766;+1 866 705 4744", "website": "https://www.myipgi.com"}}}, {"type": "Feature", "geometry": {"type": "Polygon", "coordinates": [[[-97.5753981, 35.4934584], [-97.5753969, 35.4933886], [-97.5752923, 35.4933898], [-97.5752935, 35.4934596], [-97.5753981, 35.4934584]]]}, "properties": {"osm_id": 249456251, "building": "yes", "name": "", "height": null, "height_m": null, "levels": null, "tract_id": "40109100900", "tract_name": "1009", "tags": {"building": "yes", "source": "Bing"}}}, {"type": "Feature", "geometry": {"type": "Polygon", "coordinates": [[[-97.5761723, 35.4935151], [-97.5756477, 35.493509], [-97.5756446, 35.4936893], [-97.5760359, 35.4936938], [-97.5760362, 35.4936765], [-97.5761695, 35.4936781], [-97.5761723, 35.4935151]]]}, "properties": {"osm_id": 249456260, "building": "yes", "name": "Family Dollar", "height": null, "height_m": null, "levels": null, "tract_id": "40109100900", "tract_name": "1009", "tags": {"addr:city": "Oklahoma City", "addr:housenumber": "3321", "addr:postcode": "73107", "addr:state": "OK", "addr:street": "Northwest 23rd Street", "brand": "Family Dollar", "brand:wikidata": "Q5433101", "building": "yes", "name": "Family Dollar", "shop": "variety_store", "source": "Bing"}}}, {"type": "Feature", "geometry": {"type": "Polygon", "coordinates": [[[-97.5775111, 35.493685], [-97.5775138, 35.4935977], [-97.5775266, 35.4935979], [-97.5775218, 35.493506], [-97.5771224, 35.4935027], [-97.5771222, 35.4935868], [-97.5771463, 35.4935868], [-97.5771468, 35.4936788], [-97.5775111, 35.493685]]]}, "properties": {"osm_id": 249456262, "building": "yes", "name": "", "height": null, "height_m": null, "levels": null, "tract_id": "40109100900", "tract_name": "1009", "tags": {"building": "yes", "source": "Bing"}}}, {"type": "Feature", "geometry": {"type": "Polygon", "coordinates": [[[-97.5782492, 35.4935252], [-97.5778805, 35.4935184], [-97.5778767, 35.4936538], [-97.5782455, 35.4936606], [-97.5782492, 35.4935252]]]}, "properties": {"osm_id": 249456266, "building": "yes", "name": "Los Primos Auto Glass & Window", "height": null, "height_m": null, "levels": null, "tract_id": "40109100900", "tract_name": "1009", "tags": {"addr:city": "Oklahoma City", "addr:housenumber": "3429", "addr:postcode": "73107", "addr:state": "OK", "addr:street": "Northwest 23rd Street", "building": "yes", "name": "Los Primos Auto Glass & Window", "shop": "car_repair", "source": "Bing"}}}, {"type": "Feature", "geometry": {"type": "Polygon", "coordinates": [[[-97.5743005, 35.4935256], [-97.5743032, 35.4934623], [-97.57411, 35.4934602], [-97.5739062, 35.4934579], [-97.5739035, 35.4935256], [-97.5743005, 35.4935256]]]}, "properties": {"osm_id": 249456267, "building": "roof", "name": "", "height": null, "height_m": null, "levels": null, "tract_id": "40109100900", "tract_name": "1009", "tags": {"building": "roof", "source": "Bing"}}}, {"type": "Feature", "geometry": {"type": "Polygon", "coordinates": [[[-97.5765535, 35.4936152], [-97.5765562, 35.493423], [-97.5765741, 35.4934065], [-97.5765964, 35.4933859], [-97.5765562, 35.4933553], [-97.5765306, 35.4933777], [-97.5765187, 35.4933881], [-97.5763604, 35.4933881], [-97.5763497, 35.4936108], [-97.5763711, 35.4936108], [-97.5763738, 35.4936501], [-97.5764516, 35.4936545], [-97.5764543, 35.4936152], [-97.5765535, 35.4936152]]]}, "properties": {"osm_id": 249456271, "building": "yes", "name": "", "height": null, "height_m": null, "levels": null, "tract_id": "40109100900", "tract_name": "1009", "tags": {"building": "yes", "source": "Bing"}}}, {"type": "Feature", "geometry": {"type": "Polygon", "coordinates": [[[-97.5729379, 35.4935977], [-97.5729379, 35.4934514], [-97.572771, 35.4934476], [-97.5727713, 35.493434], [-97.5726026, 35.4934317], [-97.5726, 35.4935911], [-97.5729379, 35.4935977]]]}, "properties": {"osm_id": 249456273, "building": "yes", "name": "", "height": null, "height_m": null, "levels": null, "tract_id": "40109100900", "tract_name": "1009", "tags": {"building": "yes", "source": "Bing"}}}, {"type": "Feature", "geometry": {"type": "Polygon", "coordinates": [[[-97.5697675, 35.4936064], [-97.5695181, 35.4935977], [-97.5695181, 35.4933116], [-97.5697273, 35.493316], [-97.5697675, 35.49334], [-97.5697675, 35.4936064]]]}, "properties": {"osm_id": 249456275, "building": "yes", "name": "", "height": null, "height_m": null, "levels": null, "tract_id": "40109100900", "tract_name": "1009", "tags": {"building": "yes", "source": "Bing"}}}, {"type": "Feature", "geometry": {"type": "Polygon", "coordinates": [[[-97.575158, 35.4935983], [-97.5752596, 35.493598], [-97.5752588, 35.4934626], [-97.5751573, 35.4934629], [-97.575158, 35.4935983]]]}, "properties": {"osm_id": 249456281, "building": "yes", "name": "", "height": null, "height_m": null, "levels": null, "tract_id": "40109100900", "tract_name": "1009", "tags": {"building": "yes", "source": "Bing"}}}, {"type": "Feature", "geometry": {"type": "Polygon", "coordinates": [[[-97.5750676, 35.4935409], [-97.5750703, 35.4934055], [-97.5746706, 35.4933968], [-97.5746679, 35.4935366], [-97.5750676, 35.4935409]]]}, "properties": {"osm_id": 249456288, "building": "roof", "name": "", "height": null, "height_m": null, "levels": null, "tract_id": "40109100900", "tract_name": "1009", "tags": {"building": "roof", "source": "Bing"}}}, {"type": "Feature", "geometry": {"type": "Polygon", "coordinates": [[[-97.5643876, 35.4947804], [-97.5642685, 35.4947817], [-97.5642579, 35.4947733], [-97.5642566, 35.4947344], [-97.5642648, 35.4947236], [-97.5642642, 35.4946812], [-97.5643479, 35.4946804], [-97.5643482, 35.4947017], [-97.5643864, 35.4947013], [-97.5643876, 35.4947804]]]}, "properties": {"osm_id": 975907737, "building": "yes", "name": "", "height": null, "height_m": null, "levels": null, "tract_id": "40109100900", "tract_name": "1009", "tags": {"building": "yes"}}}, {"type": "Feature", "geometry": {"type": "Polygon", "coordinates": [[[-97.5642166, 35.494796], [-97.5641531, 35.4947961], [-97.564153, 35.4947828], [-97.5641028, 35.4947829], [-97.5641028, 35.4947709], [-97.5640674, 35.4947709], [-97.5640672, 35.4947182], [-97.5642163, 35.4947179], [-97.5642166, 35.494796]]]}, "properties": {"osm_id": 975907738, "building": "yes", "name": "", "height": null, "height_m": null, "levels": null, "tract_id": "40109100900", "tract_name": "1009", "tags": {"building": "yes"}}}, {"type": "Feature", "geometry": {"type": "Polygon", "coordinates": [[[-97.5640464, 35.4948014], [-97.5640166, 35.4948018], [-97.5640166, 35.4948053], [-97.5639033, 35.494807], [-97.5639024, 35.4947664], [-97.5639162, 35.4947662], [-97.5639157, 35.4947436], [-97.5640451, 35.4947417], [-97.5640464, 35.4948014]]]}, "properties": {"osm_id": 975907739, "building": "yes", "name": "", "height": null, "height_m": null, "levels": null, "tract_id": "40109100900", "tract_name": "1009", "tags": {"building": "yes"}}}, {"type": "Feature", "geometry": {"type": "Polygon", "coordinates": [[[-97.5638751, 35.4948037], [-97.5638334, 35.4948039], [-97.5638335, 35.4948051], [-97.5637961, 35.4948053], [-97.563796, 35.4948036], [-97.563755, 35.4948038], [-97.5637545, 35.4947348], [-97.5638746, 35.4947343], [-97.5638751, 35.4948037]]]}, "properties": {"osm_id": 975907740, "building": "yes", "name": "", "height": null, "height_m": null, "levels": null, "tract_id": "40109100900", "tract_name": "1009", "tags": {"building": "yes"}}}, {"type": "Feature", "geometry": {"type": "Polygon", "coordinates": [[[-97.5637029, 35.494801], [-97.5635767, 35.4948022], [-97.5635757, 35.4947306], [-97.5637019, 35.4947294], [-97.5637029, 35.494801]]]}, "properties": {"osm_id": 975907741, "building": "yes", "name": "", "height": null, "height_m": null, "levels": null, "tract_id": "40109100900", "tract_name": "1009", "tags": {"building": "yes"}}}, {"type": "Feature", "geometry": {"type": "Polygon", "coordinates": [[[-97.5633227, 35.4948262], [-97.5632094, 35.4948264], [-97.5632093, 35.4947882], [-97.5632249, 35.4947882], [-97.5632248, 35.494756], [-97.5633226, 35.4947558], [-97.5633227, 35.4948262]]]}, "properties": {"osm_id": 975907742, "building": "yes", "name": "", "height": null, "height_m": null, "levels": null, "tract_id": "40109100900", "tract_name": "1009", "tags": {"building": "yes"}}}, {"type": "Feature", "geometry": {"type": "Polygon", "coordinates": [[[-97.5640372, 35.4952046], [-97.5640058, 35.4952049], [-97.564006, 35.4952202], [-97.5639554, 35.4952207], [-97.5639553, 35.4952129], [-97.563882, 35.4952136], [-97.5638811, 35.4951627], [-97.5638963, 35.4951625], [-97.5638956, 35.4951184], [-97.5640358, 35.4951169], [-97.5640372, 35.4952046]]]}, "properties": {"osm_id": 975907743, "building": "yes", "name": "", "height": null, "height_m": null, "levels": null, "tract_id": "40109100900", "tract_name": "1009", "tags": {"building": "yes"}}}, {"type": "Feature", "geometry": {"type": "Polygon", "coordinates": [[[-97.5641901, 35.495215], [-97.5641451, 35.4952154], [-97.5641447, 35.4951881], [-97.5640772, 35.4951886], [-97.5640763, 35.4951178], [-97.5640981, 35.4951177], [-97.5640979, 35.4950993], [-97.5641887, 35.4950985], [-97.5641901, 35.495215]]]}, "properties": {"osm_id": 975907744, "building": "yes", "name": "", "height": null, "height_m": null, "levels": null, "tract_id": "40109100900", "tract_name": "1009", "tags": {"building": "yes"}}}, {"type": "Feature", "geometry": {"type": "Polygon", "coordinates": [[[-97.5643569, 35.4951849], [-97.5642331, 35.4951851], [-97.5642329, 35.4951191], [-97.5643568, 35.4951189], [-97.5643569, 35.4951849]]]}, "properties": {"osm_id": 975907745, "building": "yes", "name": "", "height": null, "height_m": null, "levels": null, "tract_id": "40109100900", "tract_name": "1009", "tags": {"building": "yes"}}}, {"type": "Feature", "geometry": {"type": "Polygon", "coordinates": [[[-97.5650848, 35.4951745], [-97.5653945, 35.4951729], [-97.5653982, 35.4956539], [-97.5653851, 35.495654], [-97.5653857, 35.4957283], [-97.5652431, 35.495729], [-97.5652425, 35.4956532], [-97.5652347, 35.4956532], [-97.565232, 35.4952939], [-97.5650857, 35.4952946], [-97.5650848, 35.4951745]]]}, "properties": {"osm_id": 1251488709, "building": "yes", "name": "Cornerstone United Methodist Church", "height": null, "height_m": null, "levels": null, "tract_id": "40109100900", "tract_name": "1009", "tags": {"addr:city": "Oklahoma City", "addr:postcode": "73107", "addr:state": "OK", "addr:street": "North May Avenue", "amenity": "place_of_worship", "building": "yes", "denomination": "methodist", "ele": "376", "gnis:feature_id": "1801804", "name": "Cornerstone United Methodist Church", "religion": "christian", "service_times": "Su 10:30"}}}, {"type": "Feature", "geometry": {"type": "Polygon", "coordinates": [[[-97.5655134, 35.4960683], [-97.5655148, 35.4961442], [-97.5654426, 35.4961451], [-97.5654441, 35.496228], [-97.5652722, 35.4962301], [-97.5652693, 35.4960713], [-97.5655134, 35.4960683]]]}, "properties": {"osm_id": 1251488710, "building": "yes", "name": "Bill's Convenience Store", "height": null, "height_m": null, "levels": null, "tract_id": "40109100900", "tract_name": "1009", "tags": {"addr:city": "Oklahoma City", "addr:housenumber": "2700", "addr:postcode": "73107", "addr:state": "OK", "addr:street": "North May Avenue", "building": "yes", "name": "Bill's Convenience Store", "shop": "convenience"}}}, {"type": "Feature", "geometry": {"type": "Polygon", "coordinates": [[[-97.5675865, 35.4961927], [-97.5675847, 35.4963873], [-97.5677544, 35.4963884], [-97.5677562, 35.4961938], [-97.5675865, 35.4961927]]]}, "properties": {"osm_id": 1424645860, "building": "yes", "name": "", "height": null, "height_m": null, "levels": null, "tract_id": "40109100900", "tract_name": "1009", "tags": {"building": "yes"}}}, {"type": "Feature", "geometry": {"type": "Polygon", "coordinates": [[[-97.5663473, 35.4963793], [-97.5665212, 35.4963802], [-97.5665225, 35.4961848], [-97.5663487, 35.496184], [-97.5663473, 35.4963793]]]}, "properties": {"osm_id": 1424645861, "building": "yes", "name": "", "height": null, "height_m": null, "levels": null, "tract_id": "40109100900", "tract_name": "1009", "tags": {"building": "yes"}}}, {"type": "Feature", "geometry": {"type": "Polygon", "coordinates": [[[-97.5663539, 35.4953436], [-97.5665124, 35.4953445], [-97.5665139, 35.4951791], [-97.5663553, 35.4951782], [-97.5663539, 35.4953436]]]}, "properties": {"osm_id": 1424645862, "building": "yes", "name": "", "height": null, "height_m": null, "levels": null, "tract_id": "40109100900", "tract_name": "1009", "tags": {"building": "yes"}}}, {"type": "Feature", "geometry": {"type": "Polygon", "coordinates": [[[-97.5676142, 35.4953518], [-97.5677705, 35.4953529], [-97.5677721, 35.4951885], [-97.5676158, 35.4951875], [-97.5676142, 35.4953518]]]}, "properties": {"osm_id": 1424645863, "building": "yes", "name": "", "height": null, "height_m": null, "levels": null, "tract_id": "40109100900", "tract_name": "1009", "tags": {"building": "yes"}}}, {"type": "Feature", "geometry": {"type": "Polygon", "coordinates": [[[-97.567753, 35.4959326], [-97.5678026, 35.4959332], [-97.5678037, 35.4958722], [-97.56783, 35.4958725], [-97.5678312, 35.4958041], [-97.5678035, 35.4958038], [-97.5678046, 35.495744], [-97.5677563, 35.4957434], [-97.567753, 35.4959326]]]}, "properties": {"osm_id": 1424645874, "building": "yes", "name": "", "height": null, "height_m": null, "levels": null, "tract_id": "40109100900", "tract_name": "1009", "tags": {"building": "yes"}}}]}