{"type": "FeatureCollection", "features": [{"type": "Feature", "geometry": {"type": "Polygon", "coordinates": [[[-97.5566626, 35.505417], [-97.5568304, 35.5054181], [-97.5570152, 35.5054194], [-97.5570079, 35.505804], [-97.5566612, 35.5058062], [-97.5566626, 35.505417]]]}, "properties": {"osm_id": 133703957, "building": "apartments", "name": "Villa Manor Apartments", "height": null, "height_m": null, "levels": null, "tract_id": "40109100203", "tract_name": "1002.03", "tags": {"building": "apartments", "name": "Villa Manor Apartments"}}}, {"type": "Feature", "geometry": {"type": "Polygon", "coordinates": [[[-97.564903, 35.5062493], [-97.5649021, 35.5061519], [-97.565407, 35.5061488], [-97.5654079, 35.5062461], [-97.564903, 35.5062493]]]}, "properties": {"osm_id": 133717351, "building": "yes", "name": "Patty Wagon", "height": null, "height_m": null, "levels": null, "tract_id": "40109100203", "tract_name": "1002.03", "tags": {"addr:city": "Oklahoma City", "addr:housenumber": "5315", "addr:postcode": "73112", "addr:state": "OK", "addr:street": "North May Avenue", "amenity": "restaurant", "building": "yes", "cuisine": "burger", "landuse": "commercial", "name": "Patty Wagon"}}}, {"type": "Feature", "geometry": {"type": "Polygon", "coordinates": [[[-97.565418, 35.5065075], [-97.5654166, 35.506358], [-97.5648024, 35.5063617], [-97.5648038, 35.5065113], [-97.565418, 35.5065075]]]}, "properties": {"osm_id": 187501768, "building": "yes", "name": "Charcoal Oven", "height": null, "height_m": null, "levels": null, "tract_id": "40109100203", "tract_name": "1002.03", "tags": {"addr:city": "Oklahoma City", "addr:housenumber": "3604", "addr:postcode": "73112", "addr:state": "OK", "addr:street": "North May Avenue", "amenity": "restaurant", "building": "yes", "contact:facebook": "charcoaloven", "contact:instagram": "charcoaloven", "contact:yelp": "https://www.yelp.com/biz/charcoal-oven-oklahoma-city-4", "name": "Charcoal Oven", "opening_hours": "Mo-Sa 10:30-20:00", "outdoor_seating": "yes", "phone": "+1 405 842 8911", "website": "https://charcoaloven.com/", "website:menu": "https://charcoaloven.com/menu/"}}}, {"type": "Feature", "geometry": {"type": "Polygon", "coordinates": [[[-97.5648145, 35.5073942], [-97.5645517, 35.5073898], [-97.5645624, 35.5070143], [-97.5648226, 35.5070165], [-97.5648145, 35.5073942]]]}, "properties": {"osm_id": 187501770, "building": "yes", "name": "", "height": null, "height_m": null, "levels": null, "tract_id": "40109100203", "tract_name": "1002.03", "tags": {"building": "yes"}}}, {"type": "Feature", "geometry": {"type": "Polygon", "coordinates": [[[-97.5654105, 35.5070817], [-97.5652727, 35.5070823], [-97.5652718, 35.5069585], [-97.5653596, 35.5069322], [-97.5654095, 35.506932], [-97.5654105, 35.5070817]]]}, "properties": {"osm_id": 187705649, "building": "yes", "name": "Dunkin'", "height": null, "height_m": null, "levels": null, "tract_id": "40109100203", "tract_name": "1002.03", "tags": {"addr:city": "Oklahoma City", "addr:housenumber": "3612", "addr:postcode": "73112", "addr:state": "OK", "addr:street": "North May Avenue", "alt_name": "Dunkin' Donuts", "amenity": "fast_food", "brand": "Dunkin'", "brand:wikidata": "Q847743", "building": "yes", "cuisine": "donut;coffee_shop", "drive_through": "yes", "name": "Dunkin'", "opening_hours": "05:00-20:00", "operator": "Ali Peiroo", "phone": "+1 405-942-5413", "ref": "300978", "takeaway": "yes", "website": "https://locations.dunkindonuts.com/en/ok/oklahoma-city/3612-n-may-ave/300978"}}}, {"type": "Feature", "geometry": {"type": "Polygon", "coordinates": [[[-97.5547005, 35.5066809], [-97.5544912, 35.506683], [-97.5544991, 35.5071983], [-97.5546323, 35.507197], [-97.5546354, 35.5073953], [-97.5549607, 35.507392], [-97.5551819, 35.5073897], [-97.555179, 35.5072063], [-97.5549651, 35.5072085], [-97.5549646, 35.507178], [-97.5549642, 35.5071534], [-97.5549981, 35.5071531], [-97.5549971, 35.5070905], [-97.5550181, 35.5070902], [-97.555015, 35.5068834], [-97.5547831, 35.5068857], [-97.5547861, 35.5070821], [-97.5547067, 35.5070829], [-97.5547019, 35.5067703], [-97.5547011, 35.5067225], [-97.5547005, 35.5066809]]]}, "properties": {"osm_id": 244373212, "building": "hospital", "name": "", "height": null, "height_m": null, "levels": null, "tract_id": "40109100203", "tract_name": "1002.03", "tags": {"addr:city": "Oklahoma City", "addr:housenumber": "2400", "addr:postcode": "73112", "addr:state": "OK", "addr:street": "Northwest 36th Street", "building": "hospital", "source": "Bing"}}}, {"type": "Feature", "geometry": {"type": "Polygon", "coordinates": [[[-97.5649781, 35.5107454], [-97.5650267, 35.5107074], [-97.565027, 35.5104356], [-97.5646576, 35.5104372], [-97.5646576, 35.5104569], [-97.5645822, 35.5104566], [-97.5644953, 35.5104563], [-97.5644926, 35.5103925], [-97.5638636, 35.5103903], [-97.5638609, 35.5106665], [-97.5640158, 35.5106659], [-97.5640178, 35.510738], [-97.5642713, 35.5107391], [-97.564272, 35.5107232], [-97.564451, 35.510723], [-97.5644497, 35.5106848], [-97.5645867, 35.5106851], [-97.5646559, 35.5106853], [-97.5646579, 35.5107454], [-97.5649781, 35.5107454]]]}, "properties": {"osm_id": 267924570, "building": "yes", "name": "Metro Ford of OKC", "height": null, "height_m": null, "levels": null, "tract_id": "40109100203", "tract_name": "1002.03", "tags": {"addr:city": "Oklahoma City", "addr:housenumber": "2800", "addr:postcode": "73112", "addr:state": "OK", "addr:street": "West I-44 Service", "brand": "Ford", "brand:wikidata": "Q44294", "building": "yes", "name": "Metro Ford of OKC", "opening_hours": "Mo-Sa 08:00-23:00", "payment:cash": "yes", "payment:credit_cards": "yes", "payment:debit_cards": "yes", "payment:mastercard": "yes", "payment:visa": "yes", "phone": "4058968531", "roof:shape": "flat", "shop": "car", "source": "local knowledge"}}}, {"type": "Feature", "geometry": {"type": "Polygon", "coordinates": [[[-97.5646633, 35.5093743], [-97.5645629, 35.509374], [-97.5645625, 35.5094587], [-97.5646629, 35.509459], [-97.564663, 35.5094498], [-97.5646633, 35.5093743]]]}, "properties": {"osm_id": 268141765, "building": "roof", "name": "", "height": null, "height_m": null, "levels": null, "tract_id": "40109100203", "tract_name": "1002.03", "tags": {"building": "roof", "building:colour": "white", "phone": "405-942-3800", "roof:colour": "gray", "roof:shape": "flat", "wheelchair": "yes"}}}, {"type": "Feature", "geometry": {"type": "Polygon", "coordinates": [[[-97.564663, 35.5094498], [-97.5646629, 35.509459], [-97.5646637, 35.5094685], [-97.5646638, 35.5095557], [-97.5646638, 35.5095602], [-97.5646643, 35.5095758], [-97.5646628, 35.5096451], [-97.5647562, 35.5097252], [-97.5648581, 35.509723], [-97.5650733, 35.5097259], [-97.5650728, 35.5094228], [-97.5650728, 35.5093896], [-97.5650726, 35.5093057], [-97.5649694, 35.5092216], [-97.5647584, 35.5092196], [-97.5647059, 35.5092628], [-97.5646631, 35.5092994], [-97.5646633, 35.5093743], [-97.564663, 35.5094498]]]}, "properties": {"osm_id": 268141766, "building": "yes", "name": "Baptist General Convention of Oklahoma", "height": null, "height_m": 3.0, "levels": 1, "tract_id": "40109100203", "tract_name": "1002.03", "tags": {"addr:city": "Oklahoma City", "addr:housenumber": "3800", "addr:postcode": "73112", "addr:street": "North May Avenue", "building": "yes", "building:colour": "white", "building:levels": "1", "name": "Baptist General Convention of Oklahoma", "office": "company", "opening_hours": "Mo-Th 07:30-17:35", "phone": "405-942-3800", "roof:colour": "silver", "roof:shape": "flat", "website": "https://www.bgco.org/", "wheelchair": "yes", "wikipedia": "en:Baptist General Convention of Oklahoma"}}}, {"type": "Feature", "geometry": {"type": "Polygon", "coordinates": [[[-97.5634519, 35.5077591], [-97.562971, 35.5077601], [-97.5629713, 35.5078429], [-97.5634522, 35.5078419], [-97.5634519, 35.5077591]]]}, "properties": {"osm_id": 268156735, "building": "commercial", "name": "", "height": null, "height_m": null, "levels": null, "tract_id": "40109100203", "tract_name": "1002.03", "tags": {"building": "commercial", "roof:shape": "flat", "source": "Bing"}}}, {"type": "Feature", "geometry": {"type": "Polygon", "coordinates": [[[-97.5641484, 35.5087857], [-97.5641488, 35.5085003], [-97.5636047, 35.5084997], [-97.5636042, 35.5087852], [-97.5641484, 35.5087857]]]}, "properties": {"osm_id": 268156737, "building": "yes", "name": "", "height": null, "height_m": null, "levels": null, "tract_id": "40109100203", "tract_name": "1002.03", "tags": {"building": "yes", "roof:colour": "white", "roof:material": "metal", "roof:orientation": "across", "roof:shape": "gabled", "source": "Bing"}}}, {"type": "Feature", "geometry": {"type": "Polygon", "coordinates": [[[-97.5628208, 35.5077626], [-97.5628123, 35.5077553], [-97.56211, 35.5077548], [-97.5621136, 35.5078069], [-97.5621349, 35.5078062], [-97.5621348, 35.5078392], [-97.5628035, 35.5078386], [-97.5628021, 35.5078062], [-97.5628222, 35.5078064], [-97.5628208, 35.5077626]]]}, "properties": {"osm_id": 268156739, "building": "residential", "name": "", "height": null, "height_m": null, "levels": null, "tract_id": "40109100203", "tract_name": "1002.03", "tags": {"building": "residential", "roof:colour": "silver", "roof:shape": "flat", "source": "Bing"}}}, {"type": "Feature", "geometry": {"type": "Polygon", "coordinates": [[[-97.5649094, 35.5088898], [-97.5649087, 35.5086911], [-97.5649012, 35.5086911], [-97.5649011, 35.5086518], [-97.5649009, 35.5086174], [-97.5649084, 35.5086174], [-97.5649079, 35.5084797], [-97.564532, 35.5084806], [-97.5645325, 35.5086193], [-97.564855, 35.5086185], [-97.5648552, 35.508652], [-97.5648555, 35.5087515], [-97.5643274, 35.5087527], [-97.5643279, 35.5088912], [-97.5649094, 35.5088898]]]}, "properties": {"osm_id": 268156740, "building": "yes", "name": "", "height": null, "height_m": null, "levels": null, "tract_id": "40109100203", "tract_name": "1002.03", "tags": {"building": "yes", "source": "Bing"}}}, {"type": "Feature", "geometry": {"type": "Polygon", "coordinates": [[[-97.5654773, 35.5085178], [-97.5654763, 35.5085887], [-97.5652952, 35.5085882], [-97.5652958, 35.5086396], [-97.5652963, 35.5086848], [-97.5653995, 35.5086837], [-97.5654009, 35.5087189], [-97.5653737, 35.5087405], [-97.565252, 35.5087402], [-97.5652517, 35.508836], [-97.5651296, 35.5088363], [-97.5651283, 35.5088002], [-97.565086, 35.5087998], [-97.5650582, 35.5087994], [-97.5650569, 35.5087301], [-97.5650845, 35.5087303], [-97.5651283, 35.5087307], [-97.5651276, 35.5086856], [-97.565196, 35.5086845], [-97.565196, 35.5085885], [-97.5651055, 35.5085885], [-97.5651041, 35.5085224], [-97.5652819, 35.5085202], [-97.5654773, 35.5085178]]]}, "properties": {"osm_id": 268156742, "building": "yes", "name": "Chase", "height": null, "height_m": null, "levels": null, "tract_id": "40109100203", "tract_name": "1002.03", "tags": {"addr:city": "Oklahoma City", "addr:housenumber": "3724", "addr:postcode": "73112", "addr:state": "OK", "addr:street": "North May Avenue", "amenity": "bank", "atm": "yes", "brand": "Chase", "brand:wikidata": "Q524629", "building": "yes", "contact:yelp": "https://www.yelp.com/biz/chase-bank-oklahoma-city-6", "drive_through": "yes", "name": "Chase", "opening_hours": "Mo-Fr 09:00-17:00; Sa 09:00-13:00", "phone": "+1 405 945 2150;+1 877 728 4519", "source": "Bing", "website": "https://locator.chase.com/ok/oklahoma-city/3724-n-may-ave"}}}, {"type": "Feature", "geometry": {"type": "Polygon", "coordinates": [[[-97.563882, 35.5081375], [-97.5638287, 35.5081376], [-97.5638288, 35.5081752], [-97.563767, 35.5081753], [-97.5637671, 35.5082072], [-97.5637436, 35.5082072], [-97.5637435, 35.5081808], [-97.563583, 35.5081812], [-97.5635823, 35.5079619], [-97.5638814, 35.5079612], [-97.563882, 35.5081375]]]}, "properties": {"osm_id": 268156743, "building": "yes", "name": "Partners 4 Club", "height": null, "height_m": null, "levels": null, "tract_id": "40109100203", "tract_name": "1002.03", "tags": {"addr:city": "Oklahoma City", "addr:housenumber": "2805", "addr:postcode": "73112", "addr:state": "OK", "addr:street": "Northwest 36th Street", "amenity": "nightclub", "building": "yes", "contact:instagram": "partners.okc", "contact:phone": "1-405-942-2199", "contact:twitter": "PartnersOkc", "lgbtq": "primary", "name": "Partners 4 Club", "phone": "1-405-942-2199", "roof:shape": "flat", "smoking": "no", "source": "Bing", "website": "https://www.partnersokc.com/"}}}, {"type": "Feature", "geometry": {"type": "Polygon", "coordinates": [[[-97.5519078, 35.5073592], [-97.5518215, 35.5073592], [-97.5518215, 35.5073364], [-97.5519078, 35.5073364], [-97.5519078, 35.5073592]]]}, "properties": {"osm_id": 284503701, "building": "yes", "name": "", "height": null, "height_m": null, "levels": null, "tract_id": "40109100203", "tract_name": "1002.03", "tags": {"building": "yes", "source": "Bing"}}}, {"type": "Feature", "geometry": {"type": "Polygon", "coordinates": [[[-97.5520163, 35.5075707], [-97.5519976, 35.5075707], [-97.5518877, 35.5075707], [-97.5518877, 35.5075072], [-97.5520163, 35.5075072], [-97.5520163, 35.5075707]]]}, "properties": {"osm_id": 284503702, "building": "commercial", "name": "", "height": null, "height_m": null, "levels": null, "tract_id": "40109100203", "tract_name": "1002.03", "tags": {"building": "commercial", "source": "Bing"}}}, {"type": "Feature", "geometry": {"type": "Polygon", "coordinates": [[[-97.5559605, 35.5071442], [-97.5558222, 35.507145], [-97.5558202, 35.5069095], [-97.5559585, 35.5069088], [-97.5559605, 35.5071442]]]}, "properties": {"osm_id": 284507191, "building": "yes", "name": "", "height": null, "height_m": null, "levels": null, "tract_id": "40109100203", "tract_name": "1002.03", "tags": {"building": "yes", "roof:shape": "hipped", "source": "Bing"}}}, {"type": "Feature", "geometry": {"type": "Polygon", "coordinates": [[[-97.5564391, 35.5071394], [-97.5562883, 35.5071402], [-97.5562864, 35.5069118], [-97.5564372, 35.506911], [-97.5564391, 35.5071394]]]}, "properties": {"osm_id": 284507192, "building": "yes", "name": "", "height": null, "height_m": null, "levels": null, "tract_id": "40109100203", "tract_name": "1002.03", "tags": {"building": "yes", "roof:shape": "hipped", "source": "Bing"}}}, {"type": "Feature", "geometry": {"type": "Polygon", "coordinates": [[[-97.5652088, 35.5073661], [-97.5651253, 35.5073661], [-97.5651253, 35.5072424], [-97.5651864, 35.5072424], [-97.5651864, 35.5073266], [-97.5652088, 35.5073266], [-97.5652088, 35.5073661]]]}, "properties": {"osm_id": 317406513, "building": "retail", "name": "Starbucks", "height": null, "height_m": null, "levels": null, "tract_id": "40109100203", "tract_name": "1002.03", "tags": {"addr:city": "Oklahoma City", "addr:housenumber": "3616", "addr:postcode": "73112", "addr:state": "OK", "addr:street": "North May Avenue", "amenity": "cafe", "branch": "36th & May", "brand": "Starbucks", "brand:wikidata": "Q37158", "building": "retail", "cuisine": "coffee_shop", "drive_through": "yes", "internet_access": "wlan", "name": "Starbucks", "official_name": "Starbucks Coffee", "opening_hours": "05:30-21:00", "outdoor_seating": "yes", "phone": "+1 405-917-5871", "takeaway": "yes", "website": "https://www.starbucks.com/store-locator/store/7308/36th-may-3616-n-may-avenue-oklahoma-city-ok-731126602-us"}}}, {"type": "Feature", "geometry": {"type": "Polygon", "coordinates": [[[-97.5651247, 35.5082018], [-97.5651238, 35.5081335], [-97.565132, 35.5081335], [-97.5651313, 35.508074], [-97.5650241, 35.508075], [-97.5646526, 35.5080781], [-97.564564, 35.5080789], [-97.5645647, 35.5081368], [-97.5645733, 35.5081367], [-97.5645742, 35.5082062], [-97.5646549, 35.5082055], [-97.5646548, 35.508194], [-97.5650863, 35.5081903], [-97.5650864, 35.5082022], [-97.5651247, 35.5082018]]]}, "properties": {"osm_id": 470760180, "building": "yes", "name": "OnCue", "height": null, "height_m": null, "levels": null, "tract_id": "40109100203", "tract_name": "1002.03", "tags": {"addr:city": "Oklahoma City", "addr:housenumber": "2837", "addr:postcode": "73112", "addr:state": "OK", "addr:street": "Northwest 36th Street", "building": "yes", "lottery": "yes", "name": "OnCue", "opening_hours": "24/7", "phone": "+1 405 942 0950", "ref": "119", "shop": "convenience"}}}, {"type": "Feature", "geometry": {"type": "Polygon", "coordinates": [[[-97.5523788, 35.5037228], [-97.5523777, 35.5036346], [-97.5522636, 35.5036356], [-97.5522638, 35.5036543], [-97.5522449, 35.5036545], [-97.5522455, 35.5037054], [-97.5522608, 35.5037053], [-97.552261, 35.5037238], [-97.5523788, 35.5037228]]]}, "properties": {"osm_id": 470803280, "building": "house", "name": "", "height": null, "height_m": null, "levels": null, "tract_id": "40109100203", "tract_name": "1002.03", "tags": {"building": "house"}}}, {"type": "Feature", "geometry": {"type": "Polygon", "coordinates": [[[-97.5523457, 35.5052634], [-97.5523465, 35.5052193], [-97.5523792, 35.5052197], [-97.5523808, 35.5051345], [-97.5522361, 35.5051327], [-97.5522337, 35.505262], [-97.5523457, 35.5052634]]]}, "properties": {"osm_id": 470803281, "building": "house", "name": "", "height": null, "height_m": null, "levels": null, "tract_id": "40109100203", "tract_name": "1002.03", "tags": {"building": "house"}}}, {"type": "Feature", "geometry": {"type": "Polygon", "coordinates": [[[-97.5520282, 35.5050693], [-97.5520289, 35.5049484], [-97.5519435, 35.504948], [-97.5519434, 35.5049665], [-97.5519097, 35.5049663], [-97.5519091, 35.5050688], [-97.5520282, 35.5050693]]]}, "properties": {"osm_id": 470803282, "building": "house", "name": "", "height": null, "height_m": null, "levels": null, "tract_id": "40109100203", "tract_name": "1002.03", "tags": {"building": "house"}}}, {"type": "Feature", "geometry": {"type": "Polygon", "coordinates": [[[-97.5524944, 35.5033691], [-97.5524949, 35.5032829], [-97.5522562, 35.5032822], [-97.5522558, 35.5033684], [-97.5524944, 35.5033691]]]}, "properties": {"osm_id": 470803283, "building": "house", "name": "", "height": null, "height_m": null, "levels": null, "tract_id": "40109100203", "tract_name": "1002.03", "tags": {"building": "house"}}}, {"type": "Feature", "geometry": {"type": "Polygon", "coordinates": [[[-97.5524157, 35.5029281], [-97.552416, 35.5028267], [-97.5523267, 35.5028265], [-97.5523266, 35.5028667], [-97.5523092, 35.5028667], [-97.552309, 35.5029279], [-97.5524157, 35.5029281]]]}, "properties": {"osm_id": 470803284, "building": "house", "name": "", "height": null, "height_m": null, "levels": null, "tract_id": "40109100203", "tract_name": "1002.03", "tags": {"building": "house"}}}, {"type": "Feature", "geometry": {"type": "Polygon", "coordinates": [[[-97.5520179, 35.5024626], [-97.5520173, 35.5024259], [-97.5518913, 35.5024272], [-97.5518929, 35.5025295], [-97.5520379, 35.502528], [-97.5520369, 35.5024624], [-97.5520179, 35.5024626]]]}, "properties": {"osm_id": 470803285, "building": "house", "name": "", "height": null, "height_m": null, "levels": null, "tract_id": "40109100203", "tract_name": "1002.03", "tags": {"building": "house"}}}, {"type": "Feature", "geometry": {"type": "Polygon", "coordinates": [[[-97.5523619, 35.5021323], [-97.552364, 35.502038], [-97.5523216, 35.5020373], [-97.5523212, 35.5020566], [-97.5522597, 35.5020557], [-97.552258, 35.5021307], [-97.5523619, 35.5021323]]]}, "properties": {"osm_id": 470803286, "building": "house", "name": "", "height": null, "height_m": null, "levels": null, "tract_id": "40109100203", "tract_name": "1002.03", "tags": {"building": "house"}}}, {"type": "Feature", "geometry": {"type": "Polygon", "coordinates": [[[-97.5520051, 35.5014171], [-97.5520065, 35.5013551], [-97.5520259, 35.5013554], [-97.5520272, 35.5012968], [-97.5520124, 35.5012966], [-97.5520133, 35.5012565], [-97.5519049, 35.5012549], [-97.5519013, 35.5014156], [-97.5520051, 35.5014171]]]}, "properties": {"osm_id": 470803287, "building": "house", "name": "", "height": null, "height_m": null, "levels": null, "tract_id": "40109100203", "tract_name": "1002.03", "tags": {"building": "house"}}}, {"type": "Feature", "geometry": {"type": "Polygon", "coordinates": [[[-97.5520548, 35.5037188], [-97.5520544, 35.5035941], [-97.5519245, 35.5035944], [-97.5519249, 35.5037202], [-97.5519653, 35.5037201], [-97.5519653, 35.5037377], [-97.5520225, 35.5037376], [-97.5520224, 35.5037189], [-97.5520548, 35.5037188]]]}, "properties": {"osm_id": 470803289, "building": "house", "name": "", "height": null, "height_m": null, "levels": null, "tract_id": "40109100203", "tract_name": "1002.03", "tags": {"building": "house"}}}, {"type": "Feature", "geometry": {"type": "Polygon", "coordinates": [[[-97.5522903, 35.504519], [-97.5522902, 35.5043692], [-97.5523952, 35.5043692], [-97.5523952, 35.5044008], [-97.552422, 35.5044008], [-97.552422, 35.5044382], [-97.5523979, 35.5044382], [-97.552398, 35.5044722], [-97.5523856, 35.5044722], [-97.5523857, 35.504519], [-97.5522903, 35.504519]]]}, "properties": {"osm_id": 470803290, "building": "house", "name": "", "height": null, "height_m": null, "levels": null, "tract_id": "40109100203", "tract_name": "1002.03", "tags": {"building": "house"}}}, {"type": "Feature", "geometry": {"type": "Polygon", "coordinates": [[[-97.5534216, 35.5075588], [-97.5534189, 35.5074518], [-97.5532969, 35.5074562], [-97.5532995, 35.5075577], [-97.5534216, 35.5075588]]]}, "properties": {"osm_id": 470803294, "building": "house", "name": "", "height": null, "height_m": null, "levels": null, "tract_id": "40109100203", "tract_name": "1002.03", "tags": {"building": "house"}}}, {"type": "Feature", "geometry": {"type": "Polygon", "coordinates": [[[-97.5539423, 35.5075449], [-97.5539447, 35.5074202], [-97.5538956, 35.5074196], [-97.5538953, 35.5074336], [-97.5537891, 35.5074322], [-97.5537874, 35.5075242], [-97.5538389, 35.5075248], [-97.5538385, 35.5075437], [-97.5539423, 35.5075449]]]}, "properties": {"osm_id": 470803295, "building": "house", "name": "", "height": null, "height_m": null, "levels": null, "tract_id": "40109100203", "tract_name": "1002.03", "tags": {"building": "house"}}}, {"type": "Feature", "geometry": {"type": "Polygon", "coordinates": [[[-97.5536041, 35.5075371], [-97.5536019, 35.50747], [-97.5534678, 35.5074731], [-97.5534704, 35.5075496], [-97.5535062, 35.5075488], [-97.5535067, 35.5075618], [-97.553537, 35.5075611], [-97.5535367, 35.507551], [-97.5535679, 35.5075502], [-97.5535675, 35.5075379], [-97.5536041, 35.5075371]]]}, "properties": {"osm_id": 470803296, "building": "house", "name": "", "height": null, "height_m": null, "levels": null, "tract_id": "40109100203", "tract_name": "1002.03", "tags": {"building": "house"}}}, {"type": "Feature", "geometry": {"type": "Polygon", "coordinates": [[[-97.5537701, 35.5075533], [-97.5537684, 35.5074666], [-97.5536296, 35.5074684], [-97.5536314, 35.5075551], [-97.5537701, 35.5075533]]]}, "properties": {"osm_id": 470803297, "building": "house", "name": "", "height": null, "height_m": null, "levels": null, "tract_id": "40109100203", "tract_name": "1002.03", "tags": {"building": "house"}}}, {"type": "Feature", "geometry": {"type": "Polygon", "coordinates": [[[-97.5530074, 35.507582], [-97.5530067, 35.5074875], [-97.5530294, 35.5074874], [-97.5530288, 35.5074058], [-97.5529085, 35.5074064], [-97.5529098, 35.5075824], [-97.5530074, 35.507582]]]}, "properties": {"osm_id": 470803300, "building": "house", "name": "", "height": null, "height_m": null, "levels": null, "tract_id": "40109100203", "tract_name": "1002.03", "tags": {"building": "house"}}}, {"type": "Feature", "geometry": {"type": "Polygon", "coordinates": [[[-97.5523826, 35.5076061], [-97.5523797, 35.5075228], [-97.5522833, 35.5075251], [-97.5522844, 35.5075576], [-97.552266, 35.507558], [-97.5522669, 35.5075828], [-97.5522749, 35.5075883], [-97.5522757, 35.5076086], [-97.5523826, 35.5076061]]]}, "properties": {"osm_id": 470803302, "building": "house", "name": "", "height": null, "height_m": null, "levels": null, "tract_id": "40109100203", "tract_name": "1002.03", "tags": {"building": "house"}}}, {"type": "Feature", "geometry": {"type": "Polygon", "coordinates": [[[-97.5526989, 35.5075666], [-97.5526963, 35.5074867], [-97.5526618, 35.5074875], [-97.5526603, 35.5074426], [-97.5525598, 35.5074447], [-97.5525638, 35.5075695], [-97.5526989, 35.5075666]]]}, "properties": {"osm_id": 470803303, "building": "house", "name": "", "height": null, "height_m": null, "levels": null, "tract_id": "40109100203", "tract_name": "1002.03", "tags": {"building": "house"}}}, {"type": "Feature", "geometry": {"type": "Polygon", "coordinates": [[[-97.5559508, 35.5075423], [-97.5559508, 35.507433], [-97.5558442, 35.507433], [-97.5558442, 35.5075423], [-97.5559508, 35.5075423]]]}, "properties": {"osm_id": 471330124, "building": "house", "name": "", "height": null, "height_m": null, "levels": null, "tract_id": "40109100203", "tract_name": "1002.03", "tags": {"building": "house"}}}, {"type": "Feature", "geometry": {"type": "Polygon", "coordinates": [[[-97.5561005, 35.5075408], [-97.5560983, 35.5073991], [-97.5560427, 35.5073997], [-97.556043, 35.5074223], [-97.5559862, 35.5074229], [-97.555988, 35.507542], [-97.5561005, 35.5075408]]]}, "properties": {"osm_id": 471330125, "building": "house", "name": "", "height": null, "height_m": null, "levels": null, "tract_id": "40109100203", "tract_name": "1002.03", "tags": {"building": "house"}}}, {"type": "Feature", "geometry": {"type": "Polygon", "coordinates": [[[-97.556822, 35.5075039], [-97.5568196, 35.5073488], [-97.556682, 35.5073502], [-97.5566844, 35.5075053], [-97.556822, 35.5075039]]]}, "properties": {"osm_id": 471330126, "building": "house", "name": "", "height": null, "height_m": null, "levels": null, "tract_id": "40109100203", "tract_name": "1002.03", "tags": {"building": "house"}}}, {"type": "Feature", "geometry": {"type": "Polygon", "coordinates": [[[-97.5569866, 35.507499], [-97.556957, 35.5074988], [-97.5569569, 35.5075106], [-97.5568406, 35.5075098], [-97.5568418, 35.507397], [-97.5569877, 35.507398], [-97.5569866, 35.507499]]]}, "properties": {"osm_id": 471330127, "building": "house", "name": "", "height": null, "height_m": null, "levels": null, "tract_id": "40109100203", "tract_name": "1002.03", "tags": {"building": "house"}}}, {"type": "Feature", "geometry": {"type": "Polygon", "coordinates": [[[-97.5571566, 35.5074955], [-97.5571569, 35.5074114], [-97.557017, 35.507411], [-97.5570166, 35.5074951], [-97.5571566, 35.5074955]]]}, "properties": {"osm_id": 471330128, "building": "house", "name": "", "height": null, "height_m": null, "levels": null, "tract_id": "40109100203", "tract_name": "1002.03", "tags": {"building": "house"}}}, {"type": "Feature", "geometry": {"type": "Polygon", "coordinates": [[[-97.554192, 35.5075473], [-97.5541916, 35.5075334], [-97.5542425, 35.5075325], [-97.5542411, 35.5074766], [-97.554226, 35.5074768], [-97.5542251, 35.507443], [-97.5542348, 35.5074428], [-97.554234, 35.5074115], [-97.5541138, 35.5074135], [-97.5541172, 35.5075485], [-97.554192, 35.5075473]]]}, "properties": {"osm_id": 471715043, "building": "yes", "name": "", "height": null, "height_m": null, "levels": null, "tract_id": "40109100203", "tract_name": "1002.03", "tags": {"addr:city": "Oklahoma City", "addr:postcode": "73112", "addr:state": "OK", "addr:street": "Northwest 36th Street", "building": "yes", "ele": "376"}}}, {"type": "Feature", "geometry": {"type": "Polygon", "coordinates": [[[-97.554104, 35.5073509], [-97.5541043, 35.5072882], [-97.5540425, 35.507288], [-97.5540422, 35.5073508], [-97.554104, 35.5073509]]]}, "properties": {"osm_id": 471715045, "building": "yes", "name": "", "height": null, "height_m": null, "levels": null, "tract_id": "40109100203", "tract_name": "1002.03", "tags": {"building": "yes"}}}, {"type": "Feature", "geometry": {"type": "Polygon", "coordinates": [[[-97.5607885, 35.5074898], [-97.5607898, 35.5074194], [-97.5607047, 35.5074183], [-97.5607034, 35.5074887], [-97.5607885, 35.5074898]]]}, "properties": {"osm_id": 471715051, "building": "yes", "name": "", "height": null, "height_m": null, "levels": null, "tract_id": "40109100203", "tract_name": "1002.03", "tags": {"building": "yes"}}}, {"type": "Feature", "geometry": {"type": "Polygon", "coordinates": [[[-97.560929, 35.5074961], [-97.560929, 35.5074262], [-97.5609156, 35.5074218], [-97.5609155, 35.5073596], [-97.5608189, 35.5073596], [-97.560819, 35.5074961], [-97.560929, 35.5074961]]]}, "properties": {"osm_id": 471715052, "building": "house", "name": "", "height": null, "height_m": null, "levels": null, "tract_id": "40109100203", "tract_name": "1002.03", "tags": {"building": "house"}}}, {"type": "Feature", "geometry": {"type": "Polygon", "coordinates": [[[-97.5597161, 35.5074749], [-97.5597143, 35.5073986], [-97.5596406, 35.5073997], [-97.559639, 35.5073289], [-97.5595664, 35.50733], [-97.5595697, 35.5074771], [-97.5597161, 35.5074749]]]}, "properties": {"osm_id": 471715053, "building": "house", "name": "", "height": null, "height_m": null, "levels": null, "tract_id": "40109100203", "tract_name": "1002.03", "tags": {"building": "house"}}}, {"type": "Feature", "geometry": {"type": "Polygon", "coordinates": [[[-97.5595423, 35.5074774], [-97.5595362, 35.5073754], [-97.5593967, 35.5073808], [-97.5594028, 35.5074829], [-97.5595423, 35.5074774]]]}, "properties": {"osm_id": 471715054, "building": "house", "name": "", "height": null, "height_m": null, "levels": null, "tract_id": "40109100203", "tract_name": "1002.03", "tags": {"building": "house"}}}, {"type": "Feature", "geometry": {"type": "Polygon", "coordinates": [[[-97.5593762, 35.5074767], [-97.5593745, 35.5074165], [-97.5593333, 35.5074172], [-97.5593329, 35.5074012], [-97.5592361, 35.507403], [-97.5592382, 35.5074793], [-97.5593762, 35.5074767]]]}, "properties": {"osm_id": 471715055, "building": "house", "name": "", "height": null, "height_m": null, "levels": null, "tract_id": "40109100203", "tract_name": "1002.03", "tags": {"building": "house"}}}, {"type": "Feature", "geometry": {"type": "Polygon", "coordinates": [[[-97.5586269, 35.507479], [-97.5586273, 35.5074682], [-97.558604, 35.5074678], [-97.5586036, 35.5074801], [-97.5585876, 35.5074798], [-97.5585908, 35.5074891], [-97.5585289, 35.5074878], [-97.558532, 35.5073897], [-97.5586631, 35.5073924], [-97.5586604, 35.5074797], [-97.5586269, 35.507479]]]}, "properties": {"osm_id": 471715057, "building": "house", "name": "", "height": null, "height_m": null, "levels": null, "tract_id": "40109100203", "tract_name": "1002.03", "tags": {"building": "house"}}}, {"type": "Feature", "geometry": {"type": "Polygon", "coordinates": [[[-97.5584869, 35.5074899], [-97.5584861, 35.5074113], [-97.5584763, 35.5074114], [-97.5584762, 35.5074022], [-97.5584356, 35.5074024], [-97.5584357, 35.5074139], [-97.5583721, 35.5074143], [-97.5583728, 35.507489], [-97.5584203, 35.5074887], [-97.5584204, 35.5075003], [-97.5584555, 35.5075], [-97.5584554, 35.5074901], [-97.5584869, 35.5074899]]]}, "properties": {"osm_id": 471715058, "building": "house", "name": "", "height": null, "height_m": null, "levels": null, "tract_id": "40109100203", "tract_name": "1002.03", "tags": {"building": "house"}}}, {"type": "Feature", "geometry": {"type": "Polygon", "coordinates": [[[-97.5542666, 35.5071247], [-97.5542637, 35.5069198], [-97.5541271, 35.506921], [-97.5541279, 35.50698], [-97.5541572, 35.5069853], [-97.5541591, 35.5071257], [-97.5542666, 35.5071247]]]}, "properties": {"osm_id": 476500583, "building": "house", "name": "", "height": null, "height_m": null, "levels": null, "tract_id": "40109100203", "tract_name": "1002.03", "tags": {"building": "house"}}}, {"type": "Feature", "geometry": {"type": "Polygon", "coordinates": [[[-97.5541067, 35.5070675], [-97.5541025, 35.5068602], [-97.5540547, 35.5068608], [-97.5540559, 35.5069215], [-97.5539694, 35.5069227], [-97.5539717, 35.5070342], [-97.5540413, 35.5070332], [-97.554042, 35.5070684], [-97.5541067, 35.5070675]]]}, "properties": {"osm_id": 476500584, "building": "house", "name": "", "height": null, "height_m": null, "levels": null, "tract_id": "40109100203", "tract_name": "1002.03", "tags": {"building": "house"}}}, {"type": "Feature", "geometry": {"type": "Polygon", "coordinates": [[[-97.5620135, 35.507834], [-97.5620131, 35.5077491], [-97.5618696, 35.5077496], [-97.56187, 35.5078344], [-97.5620135, 35.507834]]]}, "properties": {"osm_id": 476500607, "building": "yes", "name": "", "height": null, "height_m": null, "levels": null, "tract_id": "40109100203", "tract_name": "1002.03", "tags": {"building": "yes"}}}, {"type": "Feature", "geometry": {"type": "Polygon", "coordinates": [[[-97.5480573, 35.5076107], [-97.5480615, 35.5073399], [-97.5479365, 35.5073387], [-97.5479323, 35.5076094], [-97.5480573, 35.5076107]]]}, "properties": {"osm_id": 556389470, "building": "retail", "name": "", "height": null, "height_m": null, "levels": null, "tract_id": "40109100203", "tract_name": "1002.03", "tags": {"building": "retail"}}}, {"type": "Feature", "geometry": {"type": "Polygon", "coordinates": [[[-97.5636211, 35.5040984], [-97.5635265, 35.5041156], [-97.5635223, 35.5041002], [-97.5634481, 35.5041137], [-97.563428, 35.5040406], [-97.5634401, 35.5040384], [-97.5634332, 35.5040133], [-97.563517, 35.503998], [-97.5635142, 35.5039877], [-97.5635518, 35.5039809], [-97.5635546, 35.5039911], [-97.5636025, 35.5039824], [-97.5635998, 35.5039727], [-97.563697, 35.5039551], [-97.5637098, 35.5040017], [-97.5637247, 35.503999], [-97.5637368, 35.5040431], [-97.5636557, 35.5040578], [-97.5636599, 35.504073], [-97.5636163, 35.5040809], [-97.5636211, 35.5040984]]]}, "properties": {"osm_id": 984222581, "building": "yes", "name": "", "height": null, "height_m": null, "levels": null, "tract_id": "40109100203", "tract_name": "1002.03", "tags": {"building": "yes"}}}, {"type": "Feature", "geometry": {"type": "Polygon", "coordinates": [[[-97.56394, 35.5040058], [-97.5637931, 35.5040308], [-97.5637591, 35.5038984], [-97.5639944, 35.5038583], [-97.5640325, 35.5040066], [-97.5639441, 35.5040216], [-97.56394, 35.5040058]]]}, "properties": {"osm_id": 984222582, "building": "yes", "name": "", "height": null, "height_m": null, "levels": null, "tract_id": "40109100203", "tract_name": "1002.03", "tags": {"building": "yes"}}}, {"type": "Feature", "geometry": {"type": "Polygon", "coordinates": [[[-97.5642628, 35.5039577], [-97.5641695, 35.5039771], [-97.5641497, 35.5039141], [-97.5641245, 35.5039193], [-97.5641299, 35.5039368], [-97.5640397, 35.5039556], [-97.5640211, 35.5038964], [-97.5640333, 35.5038939], [-97.56402, 35.5038516], [-97.5640112, 35.5038534], [-97.5640016, 35.503823], [-97.5640801, 35.5038066], [-97.5640755, 35.5037921], [-97.5641525, 35.5037761], [-97.56416, 35.5037999], [-97.56421, 35.5037895], [-97.5642628, 35.5039577]]]}, "properties": {"osm_id": 984222583, "building": "yes", "name": "", "height": null, "height_m": null, "levels": null, "tract_id": "40109100203", "tract_name": "1002.03", "tags": {"building": "yes"}}}, {"type": "Feature", "geometry": {"type": "Polygon", "coordinates": [[[-97.5643837, 35.503866], [-97.5642612, 35.5038791], [-97.5642552, 35.5038419], [-97.5642403, 35.5038434], [-97.5642272, 35.5037629], [-97.5644268, 35.5037415], [-97.5644318, 35.5037726], [-97.5644557, 35.50377], [-97.5644743, 35.503885], [-97.5643883, 35.5038942], [-97.5643837, 35.503866]]]}, "properties": {"osm_id": 984222584, "building": "yes", "name": "", "height": null, "height_m": null, "levels": null, "tract_id": "40109100203", "tract_name": "1002.03", "tags": {"building": "yes"}}}, {"type": "Feature", "geometry": {"type": "Polygon", "coordinates": [[[-97.5637212, 35.5037751], [-97.5634998, 35.5039293], [-97.5634573, 35.5038889], [-97.5634811, 35.5038723], [-97.5634356, 35.5038291], [-97.5635814, 35.5037275], [-97.5636087, 35.5037535], [-97.5636605, 35.5037174], [-97.5637212, 35.5037751]]]}, "properties": {"osm_id": 984222585, "building": "yes", "name": "", "height": null, "height_m": null, "levels": null, "tract_id": "40109100203", "tract_name": "1002.03", "tags": {"building": "yes"}}}, {"type": "Feature", "geometry": {"type": "Polygon", "coordinates": [[[-97.5639531, 35.5036392], [-97.5639128, 35.5036678], [-97.5639087, 35.5036639], [-97.5638167, 35.5037291], [-97.5638145, 35.5037271], [-97.563764, 35.5037629], [-97.5637054, 35.5037081], [-97.5637542, 35.5036735], [-97.5637406, 35.5036609], [-97.5638791, 35.5035626], [-97.5639369, 35.5036166], [-97.5639323, 35.5036198], [-97.5639531, 35.5036392]]]}, "properties": {"osm_id": 984222586, "building": "yes", "name": "", "height": null, "height_m": null, "levels": null, "tract_id": "40109100203", "tract_name": "1002.03", "tags": {"building": "yes"}}}, {"type": "Feature", "geometry": {"type": "Polygon", "coordinates": [[[-97.5641337, 35.5035001], [-97.5639962, 35.5035974], [-97.5639222, 35.503528], [-97.5639626, 35.5034995], [-97.563947, 35.5034849], [-97.563993, 35.5034524], [-97.5640112, 35.5034695], [-97.5640624, 35.5034333], [-97.5641337, 35.5035001]]]}, "properties": {"osm_id": 984222587, "building": "yes", "name": "", "height": null, "height_m": null, "levels": null, "tract_id": "40109100203", "tract_name": "1002.03", "tags": {"building": "yes"}}}, {"type": "Feature", "geometry": {"type": "Polygon", "coordinates": [[[-97.5641407, 35.5036489], [-97.5640627, 35.5037033], [-97.5640174, 35.5036602], [-97.5640953, 35.5036058], [-97.5641407, 35.5036489]]]}, "properties": {"osm_id": 984222588, "building": "yes", "name": "", "height": null, "height_m": null, "levels": null, "tract_id": "40109100203", "tract_name": "1002.03", "tags": {"building": "yes"}}}, {"type": "Feature", "geometry": {"type": "Polygon", "coordinates": [[[-97.5643204, 35.5034658], [-97.5642692, 35.5034996], [-97.5642566, 35.5034868], [-97.5641952, 35.5035273], [-97.5640761, 35.5034076], [-97.5641569, 35.5033543], [-97.5641643, 35.5033617], [-97.5642095, 35.5033319], [-97.564297, 35.5034198], [-97.5642835, 35.5034288], [-97.5643204, 35.5034658]]]}, "properties": {"osm_id": 984222589, "building": "yes", "name": "", "height": null, "height_m": null, "levels": null, "tract_id": "40109100203", "tract_name": "1002.03", "tags": {"building": "yes"}}}, {"type": "Feature", "geometry": {"type": "Polygon", "coordinates": [[[-97.5644591, 35.5033941], [-97.5643275, 35.5034451], [-97.564288, 35.5033777], [-97.564294, 35.5033753], [-97.5642548, 35.5033082], [-97.5642501, 35.50331], [-97.5642336, 35.5032817], [-97.5642952, 35.5032579], [-97.564306, 35.5032765], [-97.5643544, 35.5032578], [-97.5643602, 35.5032677], [-97.5643999, 35.5032524], [-97.5643961, 35.5032459], [-97.5644502, 35.503225], [-97.5644831, 35.5032815], [-97.5644379, 35.503299], [-97.5644633, 35.5033425], [-97.5644563, 35.503347], [-97.5644762, 35.503381], [-97.564456, 35.5033888], [-97.5644591, 35.5033941]]]}, "properties": {"osm_id": 984222590, "building": "yes", "name": "", "height": null, "height_m": null, "levels": null, "tract_id": "40109100203", "tract_name": "1002.03", "tags": {"building": "yes"}}}, {"type": "Feature", "geometry": {"type": "Polygon", "coordinates": [[[-97.5631264, 35.5041571], [-97.5630113, 35.5041571], [-97.5630113, 35.504083], [-97.5630653, 35.504083], [-97.5630654, 35.5040125], [-97.5630402, 35.5040125], [-97.5630403, 35.5039538], [-97.5631945, 35.5039538], [-97.5631944, 35.5039882], [-97.5632086, 35.5039882], [-97.5632086, 35.5040346], [-97.5631957, 35.5040346], [-97.5631957, 35.5040843], [-97.5631706, 35.5040843], [-97.5631706, 35.5041201], [-97.5631264, 35.5041201], [-97.5631264, 35.5041571]]]}, "properties": {"osm_id": 984222591, "building": "yes", "name": "", "height": null, "height_m": null, "levels": null, "tract_id": "40109100203", "tract_name": "1002.03", "tags": {"building": "yes"}}}, {"type": "Feature", "geometry": {"type": "Polygon", "coordinates": [[[-97.5629914, 35.5041673], [-97.5629456, 35.5041674], [-97.5629456, 35.5041747], [-97.5628343, 35.504175], [-97.5628341, 35.5041311], [-97.562828, 35.5041311], [-97.5628278, 35.5040586], [-97.5629299, 35.5040584], [-97.56293, 35.5040683], [-97.5629911, 35.5040681], [-97.5629914, 35.5041673]]]}, "properties": {"osm_id": 984222592, "building": "yes", "name": "", "height": null, "height_m": null, "levels": null, "tract_id": "40109100203", "tract_name": "1002.03", "tags": {"building": "yes"}}}, {"type": "Feature", "geometry": {"type": "Polygon", "coordinates": [[[-97.5631836, 35.5037459], [-97.563152, 35.5037379], [-97.5631232, 35.5038136], [-97.5630643, 35.5037987], [-97.5630434, 35.5038535], [-97.5629378, 35.5038269], [-97.563022, 35.5036058], [-97.5632181, 35.5036553], [-97.5631836, 35.5037459]]]}, "properties": {"osm_id": 984222593, "building": "yes", "name": "", "height": null, "height_m": null, "levels": null, "tract_id": "40109100203", "tract_name": "1002.03", "tags": {"building": "yes"}}}, {"type": "Feature", "geometry": {"type": "Polygon", "coordinates": [[[-97.5627891, 35.5041912], [-97.5627265, 35.5041913], [-97.5627264, 35.5041668], [-97.5626309, 35.5041671], [-97.5626308, 35.5041544], [-97.5626072, 35.5041545], [-97.5626069, 35.5040957], [-97.5626243, 35.5040956], [-97.5626238, 35.5040344], [-97.5626959, 35.504034], [-97.562696, 35.5040482], [-97.5627142, 35.5040481], [-97.5627139, 35.5040106], [-97.5627008, 35.5040107], [-97.5627003, 35.5039661], [-97.5626078, 35.5039667], [-97.5626077, 35.5039571], [-97.5625913, 35.5039572], [-97.5625908, 35.503913], [-97.5625996, 35.5039129], [-97.5625994, 35.5038897], [-97.5627365, 35.5038887], [-97.5627377, 35.5040011], [-97.5627463, 35.5040028], [-97.5627464, 35.5040282], [-97.5627884, 35.5040281], [-97.5627891, 35.5041912]]]}, "properties": {"osm_id": 984222594, "building": "yes", "name": "", "height": null, "height_m": null, "levels": null, "tract_id": "40109100203", "tract_name": "1002.03", "tags": {"building": "yes"}}}, {"type": "Feature", "geometry": {"type": "Polygon", "coordinates": [[[-97.5625875, 35.504177], [-97.5625486, 35.5041765], [-97.5625484, 35.5041863], [-97.5624713, 35.5041853], [-97.5624717, 35.5041684], [-97.562426, 35.5041678], [-97.5624268, 35.5041258], [-97.5624401, 35.5041259], [-97.5624406, 35.504104], [-97.5624256, 35.5041038], [-97.5624266, 35.5040554], [-97.5625024, 35.5040564], [-97.5625022, 35.5040664], [-97.5625896, 35.5040675], [-97.5625875, 35.504177]]]}, "properties": {"osm_id": 984222595, "building": "yes", "name": "", "height": null, "height_m": null, "levels": null, "tract_id": "40109100203", "tract_name": "1002.03", "tags": {"building": "yes"}}}, {"type": "Feature", "geometry": {"type": "Polygon", "coordinates": [[[-97.562392, 35.5041903], [-97.5622975, 35.5041891], [-97.5622982, 35.5041543], [-97.5622026, 35.504153], [-97.5622064, 35.5039717], [-97.562319, 35.5039732], [-97.5623181, 35.5040179], [-97.5623955, 35.5040189], [-97.562392, 35.5041903]]]}, "properties": {"osm_id": 984222596, "building": "yes", "name": "", "height": null, "height_m": null, "levels": null, "tract_id": "40109100203", "tract_name": "1002.03", "tags": {"building": "yes"}}}, {"type": "Feature", "geometry": {"type": "Polygon", "coordinates": [[[-97.5644363, 35.5043436], [-97.5643797, 35.5043436], [-97.5643797, 35.5043748], [-97.5643319, 35.5043748], [-97.5643319, 35.5043473], [-97.5643221, 35.5043473], [-97.564322, 35.5043359], [-97.5642912, 35.5043359], [-97.5642911, 35.5042213], [-97.5643866, 35.5042212], [-97.5643866, 35.5042371], [-97.5644269, 35.5042371], [-97.5644269, 35.5042649], [-97.564466, 35.5042648], [-97.564466, 35.5043495], [-97.5644384, 35.5043495], [-97.5644363, 35.5043436]]]}, "properties": {"osm_id": 984222597, "building": "yes", "name": "", "height": null, "height_m": null, "levels": null, "tract_id": "40109100203", "tract_name": "1002.03", "tags": {"building": "yes"}}}, {"type": "Feature", "geometry": {"type": "Polygon", "coordinates": [[[-97.5642731, 35.5043742], [-97.5642518, 35.5043742], [-97.5642519, 35.5043871], [-97.5641678, 35.5043874], [-97.5641679, 35.5044063], [-97.5640918, 35.5044066], [-97.5640915, 35.5043549], [-97.5641017, 35.5043548], [-97.5641013, 35.504274], [-97.5642165, 35.5042736], [-97.5642164, 35.5042629], [-97.5642542, 35.5042628], [-97.5642544, 35.5042965], [-97.5642726, 35.5042964], [-97.5642731, 35.5043742]]]}, "properties": {"osm_id": 984222598, "building": "yes", "name": "", "height": null, "height_m": null, "levels": null, "tract_id": "40109100203", "tract_name": "1002.03", "tags": {"building": "yes"}}}, {"type": "Feature", "geometry": {"type": "Polygon", "coordinates": [[[-97.5640574, 35.5045174], [-97.5639808, 35.5045201], [-97.5639787, 35.50448], [-97.5639322, 35.5044816], [-97.5639254, 35.5043506], [-97.5639363, 35.5043503], [-97.5639329, 35.5042855], [-97.5640452, 35.5042816], [-97.5640574, 35.5045174]]]}, "properties": {"osm_id": 984222599, "building": "yes", "name": "", "height": null, "height_m": null, "levels": null, "tract_id": "40109100203", "tract_name": "1002.03", "tags": {"building": "yes"}}}, {"type": "Feature", "geometry": {"type": "Polygon", "coordinates": [[[-97.5636453, 35.504497], [-97.5635992, 35.504506], [-97.5635955, 35.5044936], [-97.563512, 35.5045099], [-97.5634923, 35.5044428], [-97.5635116, 35.504439], [-97.563503, 35.5044098], [-97.563523, 35.5044059], [-97.5635108, 35.5043645], [-97.5636593, 35.5043355], [-97.5636557, 35.5043231], [-97.5637364, 35.5043074], [-97.5637421, 35.5043268], [-97.5637778, 35.5043199], [-97.563804, 35.5044087], [-97.5637239, 35.5044243], [-97.5637327, 35.5044543], [-97.5636654, 35.5044674], [-97.5636614, 35.5044617], [-97.5636363, 35.5044666], [-97.5636453, 35.504497]]]}, "properties": {"osm_id": 984222600, "building": "yes", "name": "", "height": null, "height_m": null, "levels": null, "tract_id": "40109100203", "tract_name": "1002.03", "tags": {"building": "yes"}}}, {"type": "Feature", "geometry": {"type": "Polygon", "coordinates": [[[-97.5634575, 35.5045561], [-97.5633488, 35.5045574], [-97.5633484, 35.5045342], [-97.5632676, 35.5045351], [-97.5632667, 35.5044819], [-97.5632816, 35.5044817], [-97.563281, 35.5044479], [-97.5633975, 35.5044465], [-97.5633966, 35.5043974], [-97.5634547, 35.5043967], [-97.5634575, 35.5045561]]]}, "properties": {"osm_id": 984222601, "building": "yes", "name": "", "height": null, "height_m": null, "levels": null, "tract_id": "40109100203", "tract_name": "1002.03", "tags": {"building": "yes"}}}, {"type": "Feature", "geometry": {"type": "Polygon", "coordinates": [[[-97.5632514, 35.5045652], [-97.5631738, 35.5045655], [-97.5631738, 35.5045752], [-97.5631097, 35.5045755], [-97.5631096, 35.5045637], [-97.5630602, 35.5045639], [-97.5630599, 35.5045075], [-97.5630736, 35.5045075], [-97.5630732, 35.5044469], [-97.56314, 35.5044466], [-97.56314, 35.5044539], [-97.5632103, 35.5044536], [-97.5632105, 35.5044793], [-97.5632509, 35.5044791], [-97.5632514, 35.5045652]]]}, "properties": {"osm_id": 984222602, "building": "yes", "name": "", "height": null, "height_m": null, "levels": null, "tract_id": "40109100203", "tract_name": "1002.03", "tags": {"building": "yes"}}}, {"type": "Feature", "geometry": {"type": "Polygon", "coordinates": [[[-97.5630465, 35.5045813], [-97.5630138, 35.5045814], [-97.5630138, 35.5045909], [-97.5629552, 35.5045911], [-97.562955, 35.5045694], [-97.5628562, 35.5045697], [-97.5628559, 35.5045066], [-97.5628649, 35.5045066], [-97.5628647, 35.5044648], [-97.5629821, 35.5044644], [-97.562982, 35.5044484], [-97.5630498, 35.5044482], [-97.5630504, 35.5045605], [-97.5630464, 35.5045605], [-97.5630465, 35.5045813]]]}, "properties": {"osm_id": 984222603, "building": "yes", "name": "", "height": null, "height_m": null, "levels": null, "tract_id": "40109100203", "tract_name": "1002.03", "tags": {"building": "yes"}}}, {"type": "Feature", "geometry": {"type": "Polygon", "coordinates": [[[-97.5628485, 35.5045804], [-97.5628199, 35.5045803], [-97.5628198, 35.5046057], [-97.5627332, 35.5046055], [-97.5627333, 35.5045779], [-97.5626487, 35.5045777], [-97.562649, 35.5045189], [-97.5626649, 35.504519], [-97.5626652, 35.5044478], [-97.5628491, 35.5044483], [-97.5628485, 35.5045804]]]}, "properties": {"osm_id": 984222604, "building": "yes", "name": "", "height": null, "height_m": null, "levels": null, "tract_id": "40109100203", "tract_name": "1002.03", "tags": {"building": "yes"}}}, {"type": "Feature", "geometry": {"type": "Polygon", "coordinates": [[[-97.562632, 35.5045887], [-97.5625724, 35.5045898], [-97.5625747, 35.5046768], [-97.5624518, 35.504679], [-97.5624478, 35.5045258], [-97.5624655, 35.5045255], [-97.5624634, 35.5044496], [-97.5625448, 35.5044482], [-97.5625451, 35.5044588], [-97.5626286, 35.5044574], [-97.562632, 35.5045887]]]}, "properties": {"osm_id": 984222605, "building": "yes", "name": "", "height": null, "height_m": null, "levels": null, "tract_id": "40109100203", "tract_name": "1002.03", "tags": {"building": "yes"}}}, {"type": "Feature", "geometry": {"type": "Polygon", "coordinates": [[[-97.5624402, 35.504568], [-97.5623858, 35.5045681], [-97.5623858, 35.5045569], [-97.5623685, 35.5045569], [-97.5623686, 35.5045739], [-97.5622915, 35.5045741], [-97.5622914, 35.5045592], [-97.5622605, 35.5045593], [-97.5622603, 35.5045096], [-97.5622767, 35.5045096], [-97.5622765, 35.5044521], [-97.5623207, 35.504452], [-97.5623207, 35.5044431], [-97.5624002, 35.5044429], [-97.5624002, 35.5044525], [-97.5624397, 35.5044524], [-97.5624402, 35.504568]]]}, "properties": {"osm_id": 984222606, "building": "yes", "name": "", "height": null, "height_m": null, "levels": null, "tract_id": "40109100203", "tract_name": "1002.03", "tags": {"building": "yes"}}}, {"type": "Feature", "geometry": {"type": "Polygon", "coordinates": [[[-97.5636596, 35.5104707], [-97.5636606, 35.5105201], [-97.5637347, 35.5105191], [-97.5637338, 35.5104697], [-97.5636596, 35.5104707]]]}, "properties": {"osm_id": 1060905369, "building": "yes", "name": "", "height": null, "height_m": null, "levels": null, "tract_id": "40109100203", "tract_name": "1002.03", "tags": {"building": "yes", "source": "microsoft/BuildingFootprints"}}}, {"type": "Feature", "geometry": {"type": "Polygon", "coordinates": [[[-97.5636586, 35.5104213], [-97.5636596, 35.5104707], [-97.5637338, 35.5104697], [-97.5637328, 35.5104203], [-97.5636586, 35.5104213]]]}, "properties": {"osm_id": 1060905370, "building": "yes", "name": "", "height": null, "height_m": null, "levels": null, "tract_id": "40109100203", "tract_name": "1002.03", "tags": {"building": "yes", "source": "microsoft/BuildingFootprints"}}}, {"type": "Feature", "geometry": {"type": "Polygon", "coordinates": [[[-97.5636577, 35.5103718], [-97.5636586, 35.5104213], [-97.5637328, 35.5104203], [-97.5637318, 35.5103709], [-97.5636577, 35.5103718]]]}, "properties": {"osm_id": 1060905371, "building": "yes", "name": "", "height": null, "height_m": null, "levels": null, "tract_id": "40109100203", "tract_name": "1002.03", "tags": {"building": "yes", "source": "microsoft/BuildingFootprints"}}}, {"type": "Feature", "geometry": {"type": "Polygon", "coordinates": [[[-97.5636567, 35.5103224], [-97.5636577, 35.5103718], [-97.5637318, 35.5103709], [-97.5637511, 35.5103706], [-97.5637501, 35.5103212], [-97.5636567, 35.5103224]]]}, "properties": {"osm_id": 1060905372, "building": "yes", "name": "", "height": null, "height_m": null, "levels": null, "tract_id": "40109100203", "tract_name": "1002.03", "tags": {"building": "yes", "source": "microsoft/BuildingFootprints"}}}, {"type": "Feature", "geometry": {"type": "Polygon", "coordinates": [[[-97.5634556, 35.5080956], [-97.563352, 35.5081316], [-97.5633337, 35.5080967], [-97.5634373, 35.5080607], [-97.5634556, 35.5080956]]]}, "properties": {"osm_id": 1060905451, "building": "yes", "name": "", "height": null, "height_m": null, "levels": null, "tract_id": "40109100203", "tract_name": "1002.03", "tags": {"building": "yes"}}}, {"type": "Feature", "geometry": {"type": "Polygon", "coordinates": [[[-97.5632581, 35.5081269], [-97.5631908, 35.5080586], [-97.5632674, 35.5080086], [-97.5632746, 35.5080159], [-97.5633069, 35.5079948], [-97.5633344, 35.5080227], [-97.5633438, 35.5080166], [-97.5633765, 35.5080497], [-97.5632581, 35.5081269]]]}, "properties": {"osm_id": 1060905452, "building": "yes", "name": "", "height": null, "height_m": null, "levels": null, "tract_id": "40109100203", "tract_name": "1002.03", "tags": {"building": "yes"}}}, {"type": "Feature", "geometry": {"type": "Polygon", "coordinates": [[[-97.5628514, 35.5078895], [-97.562828, 35.5078911], [-97.562826, 35.5078723], [-97.5628494, 35.5078707], [-97.5628514, 35.5078895]]]}, "properties": {"osm_id": 1060905454, "building": "yes", "name": "", "height": null, "height_m": null, "levels": null, "tract_id": "40109100203", "tract_name": "1002.03", "tags": {"building": "yes"}}}, {"type": "Feature", "geometry": {"type": "Polygon", "coordinates": [[[-97.562945, 35.5079498], [-97.562943, 35.507878], [-97.5629961, 35.507877], [-97.5629981, 35.5079488], [-97.562945, 35.5079498]]]}, "properties": {"osm_id": 1060905455, "building": "yes", "name": "", "height": null, "height_m": null, "levels": null, "tract_id": "40109100203", "tract_name": "1002.03", "tags": {"building": "yes"}}}, {"type": "Feature", "geometry": {"type": "Polygon", "coordinates": [[[-97.5632551, 35.5087674], [-97.563257, 35.50887], [-97.5633376, 35.5088691], [-97.5633371, 35.5088404], [-97.5633972, 35.5088397], [-97.5633958, 35.5087657], [-97.5632551, 35.5087674]]]}, "properties": {"osm_id": 1060905456, "building": "yes", "name": "", "height": null, "height_m": null, "levels": null, "tract_id": "40109100203", "tract_name": "1002.03", "tags": {"building": "yes", "source": "microsoft/BuildingFootprints"}}}, {"type": "Feature", "geometry": {"type": "Polygon", "coordinates": [[[-97.5626942, 35.5087642], [-97.5626948, 35.5088332], [-97.5627603, 35.5088328], [-97.5627607, 35.5088759], [-97.5628715, 35.5088752], [-97.5628715, 35.5088696], [-97.5629348, 35.5088692], [-97.5629349, 35.5088748], [-97.5630128, 35.5088743], [-97.5630122, 35.5088032], [-97.5629157, 35.5088038], [-97.5629153, 35.5087621], [-97.5627948, 35.5087629], [-97.5627952, 35.5088029], [-97.5627632, 35.5088031], [-97.5627628, 35.5087638], [-97.5626942, 35.5087642]]]}, "properties": {"osm_id": 1060905457, "building": "yes", "name": "", "height": null, "height_m": null, "levels": null, "tract_id": "40109100203", "tract_name": "1002.03", "tags": {"building": "yes", "source": "microsoft/BuildingFootprints"}}}, {"type": "Feature", "geometry": {"type": "Polygon", "coordinates": [[[-97.5636557, 35.510273], [-97.5636567, 35.5103224], [-97.5637501, 35.5103212], [-97.5637491, 35.5102718], [-97.5636557, 35.510273]]]}, "properties": {"osm_id": 1060905459, "building": "yes", "name": "", "height": null, "height_m": null, "levels": null, "tract_id": "40109100203", "tract_name": "1002.03", "tags": {"building": "yes", "source": "microsoft/BuildingFootprints"}}}, {"type": "Feature", "geometry": {"type": "Polygon", "coordinates": [[[-97.5628628, 35.508578], [-97.562989, 35.508577], [-97.562988, 35.5085018], [-97.5629364, 35.5085022], [-97.5629361, 35.5084789], [-97.5629847, 35.5084785], [-97.5629841, 35.5084329], [-97.56297, 35.508433], [-97.5629697, 35.5084045], [-97.562952, 35.5084046], [-97.5629516, 35.5083729], [-97.5629067, 35.5083733], [-97.5629066, 35.5083629], [-97.5628601, 35.5083632], [-97.5628628, 35.508578]]]}, "properties": {"osm_id": 1060905460, "building": "yes", "name": "", "height": null, "height_m": null, "levels": null, "tract_id": "40109100203", "tract_name": "1002.03", "tags": {"building": "yes", "source": "microsoft/BuildingFootprints"}}}, {"type": "Feature", "geometry": {"type": "Polygon", "coordinates": [[[-97.563468, 35.508173], [-97.563538, 35.50817], [-97.563534, 35.50811], [-97.563464, 35.508113], [-97.563468, 35.508173]]]}, "properties": {"osm_id": 1060905461, "building": "yes", "name": "", "height": null, "height_m": null, "levels": null, "tract_id": "40109100203", "tract_name": "1002.03", "tags": {"building": "yes", "source": "microsoft/BuildingFootprints"}}}, {"type": "Feature", "geometry": {"type": "Polygon", "coordinates": [[[-97.5629721, 35.5092272], [-97.5630764, 35.5092297], [-97.5630768, 35.5092185], [-97.5631204, 35.5092196], [-97.5631232, 35.5091439], [-97.5630733, 35.5091427], [-97.5630742, 35.5091176], [-97.5630092, 35.509116], [-97.5630087, 35.5091286], [-97.5629758, 35.5091278], [-97.5629721, 35.5092272]]]}, "properties": {"osm_id": 1060905462, "building": "yes", "name": "", "height": null, "height_m": null, "levels": null, "tract_id": "40109100203", "tract_name": "1002.03", "tags": {"building": "yes", "source": "microsoft/BuildingFootprints"}}}, {"type": "Feature", "geometry": {"type": "Polygon", "coordinates": [[[-97.5632593, 35.5087402], [-97.563386, 35.5087417], [-97.5633881, 35.5086182], [-97.5633377, 35.5086176], [-97.5633376, 35.5086257], [-97.563295, 35.5086252], [-97.563294, 35.5086856], [-97.5632602, 35.5086852], [-97.5632593, 35.5087402]]]}, "properties": {"osm_id": 1060905463, "building": "yes", "name": "", "height": null, "height_m": null, "levels": null, "tract_id": "40109100203", "tract_name": "1002.03", "tags": {"building": "yes", "source": "microsoft/BuildingFootprints"}}}, {"type": "Feature", "geometry": {"type": "Polygon", "coordinates": [[[-97.563114, 35.50988], [-97.56298, 35.509878], [-97.562978, 35.509972], [-97.563112, 35.509974], [-97.563114, 35.50988]]]}, "properties": {"osm_id": 1060905464, "building": "yes", "name": "", "height": null, "height_m": null, "levels": null, "tract_id": "40109100203", "tract_name": "1002.03", "tags": {"building": "yes", "source": "microsoft/BuildingFootprints"}}}, {"type": "Feature", "geometry": {"type": "Polygon", "coordinates": [[[-97.562832, 35.5079577], [-97.562836, 35.5080684], [-97.5629379, 35.508066], [-97.5629339, 35.5079553], [-97.562832, 35.5079577]]]}, "properties": {"osm_id": 1060905465, "building": "yes", "name": "", "height": null, "height_m": null, "levels": null, "tract_id": "40109100203", "tract_name": "1002.03", "tags": {"building": "yes", "source": "microsoft/BuildingFootprints"}}}, {"type": "Feature", "geometry": {"type": "Polygon", "coordinates": [[[-97.5627458, 35.5087372], [-97.5630084, 35.5087411], [-97.5630096, 35.5086881], [-97.5629104, 35.5086867], [-97.5629117, 35.5086282], [-97.5628071, 35.5086267], [-97.5628059, 35.5086789], [-97.5627471, 35.5086781], [-97.5627458, 35.5087372]]]}, "properties": {"osm_id": 1060905466, "building": "yes", "name": "", "height": null, "height_m": null, "levels": null, "tract_id": "40109100203", "tract_name": "1002.03", "tags": {"building": "yes", "source": "microsoft/BuildingFootprints"}}}, {"type": "Feature", "geometry": {"type": "Polygon", "coordinates": [[[-97.562838, 35.5093269], [-97.5629558, 35.5093251], [-97.5629512, 35.5091307], [-97.5628498, 35.5091323], [-97.5628502, 35.5091511], [-97.5628039, 35.5091519], [-97.5628071, 35.5092837], [-97.562837, 35.5092833], [-97.562838, 35.5093269]]]}, "properties": {"osm_id": 1060905467, "building": "yes", "name": "", "height": null, "height_m": null, "levels": null, "tract_id": "40109100203", "tract_name": "1002.03", "tags": {"building": "yes", "source": "microsoft/BuildingFootprints"}}}, {"type": "Feature", "geometry": {"type": "Polygon", "coordinates": [[[-97.563148, 35.5092753], [-97.5632899, 35.5092727], [-97.5632861, 35.5091333], [-97.5632081, 35.5091347], [-97.5632089, 35.5091629], [-97.563145, 35.5091641], [-97.563148, 35.5092753]]]}, "properties": {"osm_id": 1060905468, "building": "yes", "name": "", "height": null, "height_m": null, "levels": null, "tract_id": "40109100203", "tract_name": "1002.03", "tags": {"building": "yes", "source": "microsoft/BuildingFootprints"}}}, {"type": "Feature", "geometry": {"type": "Polygon", "coordinates": [[[-97.5633177, 35.5099821], [-97.5634321, 35.5099799], [-97.5634289, 35.5098761], [-97.5634166, 35.5098763], [-97.563415, 35.5098238], [-97.5633886, 35.5098243], [-97.5633878, 35.5098], [-97.5633255, 35.5098012], [-97.5633269, 35.5098457], [-97.5633358, 35.5098455], [-97.5633365, 35.5098674], [-97.5633637, 35.5098668], [-97.5633642, 35.5098836], [-97.5633147, 35.5098846], [-97.5633177, 35.5099821]]]}, "properties": {"osm_id": 1060905469, "building": "yes", "name": "", "height": null, "height_m": null, "levels": null, "tract_id": "40109100203", "tract_name": "1002.03", "tags": {"building": "yes", "source": "microsoft/BuildingFootprints"}}}, {"type": "Feature", "geometry": {"type": "Polygon", "coordinates": [[[-97.5633989, 35.5083299], [-97.5633272, 35.508329], [-97.5633274, 35.5083181], [-97.5632802, 35.5083175], [-97.5632795, 35.5083576], [-97.5632617, 35.5083574], [-97.563261, 35.5083956], [-97.5632788, 35.5083958], [-97.5632781, 35.5084298], [-97.563397, 35.5084313], [-97.5633989, 35.5083299]]]}, "properties": {"osm_id": 1060905470, "building": "yes", "name": "", "height": null, "height_m": null, "levels": null, "tract_id": "40109100203", "tract_name": "1002.03", "tags": {"building": "yes", "source": "microsoft/BuildingFootprints"}}}, {"type": "Feature", "geometry": {"type": "Polygon", "coordinates": [[[-97.5631495, 35.5099715], [-97.5632232, 35.5099699], [-97.5632236, 35.5099821], [-97.5632457, 35.5099817], [-97.5632453, 35.5099695], [-97.5632808, 35.5099687], [-97.563278, 35.5098807], [-97.563156, 35.5098833], [-97.5631578, 35.5099372], [-97.5631484, 35.5099374], [-97.5631495, 35.5099715]]]}, "properties": {"osm_id": 1060905471, "building": "yes", "name": "", "height": null, "height_m": null, "levels": null, "tract_id": "40109100203", "tract_name": "1002.03", "tags": {"building": "yes", "source": "microsoft/BuildingFootprints"}}}, {"type": "Feature", "geometry": {"type": "Polygon", "coordinates": [[[-97.5633104, 35.509234], [-97.5634045, 35.5092339], [-97.5634045, 35.5092119], [-97.5634444, 35.5092119], [-97.5634442, 35.509131], [-97.5634008, 35.509131], [-97.5634008, 35.509124], [-97.5633478, 35.5091241], [-97.5633478, 35.5091311], [-97.5633102, 35.5091311], [-97.5633104, 35.509234]]]}, "properties": {"osm_id": 1060905472, "building": "yes", "name": "", "height": null, "height_m": null, "levels": null, "tract_id": "40109100203", "tract_name": "1002.03", "tags": {"building": "yes", "source": "microsoft/BuildingFootprints"}}}, {"type": "Feature", "geometry": {"type": "Polygon", "coordinates": [[[-97.5632705, 35.5084748], [-97.5632712, 35.508511], [-97.5632611, 35.5085111], [-97.5632617, 35.5085482], [-97.5632719, 35.508548], [-97.5632724, 35.5085785], [-97.5633496, 35.5085776], [-97.5633491, 35.5085529], [-97.5634062, 35.5085522], [-97.5634048, 35.5084732], [-97.5632705, 35.5084748]]]}, "properties": {"osm_id": 1060905473, "building": "yes", "name": "", "height": null, "height_m": null, "levels": null, "tract_id": "40109100203", "tract_name": "1002.03", "tags": {"building": "yes", "source": "microsoft/BuildingFootprints"}}}, {"type": "Feature", "geometry": {"type": "Polygon", "coordinates": [[[-97.5629439, 35.5098784], [-97.5628559, 35.5098766], [-97.5628531, 35.5099701], [-97.5629411, 35.5099719], [-97.5629439, 35.5098784]]]}, "properties": {"osm_id": 1060905474, "building": "yes", "name": "", "height": null, "height_m": null, "levels": null, "tract_id": "40109100203", "tract_name": "1002.03", "tags": {"building": "yes", "source": "microsoft/BuildingFootprints"}}}, {"type": "Feature", "geometry": {"type": "Polygon", "coordinates": [[[-97.5634209, 35.5081698], [-97.5633289, 35.508171], [-97.5633296, 35.5082107], [-97.5633088, 35.508211], [-97.5633095, 35.5082473], [-97.5632962, 35.5082474], [-97.5632969, 35.5082869], [-97.5634231, 35.5082853], [-97.5634209, 35.5081698]]]}, "properties": {"osm_id": 1060905476, "building": "yes", "name": "", "height": null, "height_m": null, "levels": null, "tract_id": "40109100203", "tract_name": "1002.03", "tags": {"building": "yes", "source": "microsoft/BuildingFootprints"}}}, {"type": "Feature", "geometry": {"type": "Polygon", "coordinates": [[[-97.5630187, 35.5079317], [-97.5630202, 35.5080251], [-97.563067, 35.5080246], [-97.5630672, 35.5080369], [-97.5631175, 35.5080364], [-97.5631173, 35.508024], [-97.5631677, 35.5080235], [-97.5631671, 35.5079855], [-97.5631578, 35.5079856], [-97.5631569, 35.5079302], [-97.5630187, 35.5079317]]]}, "properties": {"osm_id": 1060905478, "building": "yes", "name": "", "height": null, "height_m": null, "levels": null, "tract_id": "40109100203", "tract_name": "1002.03", "tags": {"building": "yes", "source": "microsoft/BuildingFootprints"}}}, {"type": "Feature", "geometry": {"type": "Polygon", "coordinates": [[[-97.5552557, 35.5066207], [-97.5552566, 35.5068641], [-97.554802, 35.5068652], [-97.5548017, 35.5067703], [-97.5548015, 35.5067225], [-97.5548011, 35.5066217], [-97.5552557, 35.5066207]]]}, "properties": {"osm_id": 1106083664, "building": "yes", "name": "", "height": null, "height_m": null, "levels": null, "tract_id": "40109100203", "tract_name": "1002.03", "tags": {"building": "yes"}}}, {"type": "Feature", "geometry": {"type": "Polygon", "coordinates": [[[-97.5547113, 35.5065868], [-97.5544969, 35.5065895], [-97.5544902, 35.5062402], [-97.5547045, 35.5062375], [-97.5547113, 35.5065868]]]}, "properties": {"osm_id": 1106083665, "building": "yes", "name": "", "height": null, "height_m": null, "levels": null, "tract_id": "40109100203", "tract_name": "1002.03", "tags": {"building": "yes"}}}, {"type": "Feature", "geometry": {"type": "Polygon", "coordinates": [[[-97.5581021, 35.5025217], [-97.558103, 35.5025048], [-97.558146, 35.5025044], [-97.5581464, 35.5024801], [-97.5581492, 35.5024803], [-97.558152, 35.5023921], [-97.5580697, 35.5023932], [-97.5580701, 35.5023871], [-97.5580258, 35.5023868], [-97.5580255, 35.5023931], [-97.5580151, 35.5023931], [-97.5580117, 35.5024757], [-97.5580224, 35.5024762], [-97.5580215, 35.5025224], [-97.5581021, 35.5025217]]]}, "properties": {"osm_id": 1206042851, "building": "house", "name": "2533 NW 31st", "height": null, "height_m": 3.0, "levels": 1, "tract_id": "40109100203", "tract_name": "1002.03", "tags": {"addr:city": "Oklahoma City", "addr:housenumber": "2533", "addr:postcode": "73112", "addr:state": "OK", "addr:street": "Northwest 31st Street", "building": "house", "building:levels": "1", "name": "2533 NW 31st", "operator": "OhKrayCee LLC"}}}, {"type": "Feature", "geometry": {"type": "Polygon", "coordinates": [[[-97.5581923, 35.5025859], [-97.5581144, 35.5025859], [-97.5581137, 35.5026424], [-97.5581252, 35.5026424], [-97.5581252, 35.5026725], [-97.5581753, 35.5026725], [-97.5581746, 35.5026443], [-97.5581931, 35.5026443], [-97.5581923, 35.5025859]]]}, "properties": {"osm_id": 1206042852, "building": "garage", "name": "", "height": null, "height_m": null, "levels": null, "tract_id": "40109100203", "tract_name": "1002.03", "tags": {"building": "garage", "capacity": "2"}}}, {"type": "Feature", "geometry": {"type": "Polygon", "coordinates": [[[-97.5652546, 35.5043785], [-97.5652585, 35.5041561], [-97.5651223, 35.5041562], [-97.5651219, 35.5042189], [-97.5649, 35.5042189], [-97.5645791, 35.5042848], [-97.5646238, 35.504437], [-97.5648897, 35.504382], [-97.5652546, 35.5043785]]]}, "properties": {"osm_id": 1251296206, "building": "yes", "name": "City Restaurant Supply", "height": null, "height_m": null, "levels": null, "tract_id": "40109100203", "tract_name": "1002.03", "tags": {"addr:city": "Oklahoma City", "addr:housenumber": "3404", "addr:postcode": "73112", "addr:state": "OK", "addr:street": "North May Avenue", "building": "yes", "contact:facebook": "City-Restaurant-Supply-142864405764671", "contact:instagram": "cityrestaurantsupply3404", "email": "cityrestaurantsupply86@outlook.com", "fax": "+1 405 946 6841", "name": "City Restaurant Supply", "opening_hours": "Mo-Fr 08:00-17:00; Sa 08:00-16:00", "phone": "+1 405 946 6800", "shop": "trade", "source": "microsoft/BuildingFootprints", "trade": "yes", "website": "https://www.cityrestaurantsupply.net/"}}}, {"type": "Feature", "geometry": {"type": "Polygon", "coordinates": [[[-97.565119, 35.5027049], [-97.5651212, 35.502955], [-97.5649844, 35.5029558], [-97.5649823, 35.5027056], [-97.565119, 35.5027049]]]}, "properties": {"osm_id": 1251488724, "building": "yes", "name": "Auto Bargain", "height": null, "height_m": null, "levels": null, "tract_id": "40109100203", "tract_name": "1002.03", "tags": {"addr:city": "Oklahoma City", "addr:postcode": "73112", "addr:state": "OK", "addr:street": "North May Avenue", "building": "yes", "name": "Auto Bargain", "phone": "+1 405 702 8822", "shop": "car"}}}, {"type": "Feature", "geometry": {"type": "Polygon", "coordinates": [[[-97.5652864, 35.5057789], [-97.5651529, 35.5057785], [-97.5651535, 35.5056276], [-97.5652831, 35.5056279], [-97.565283, 35.5056423], [-97.5653228, 35.5056424], [-97.5653226, 35.5056908], [-97.5652868, 35.5056907], [-97.5652864, 35.5057789]]]}, "properties": {"osm_id": 1251500931, "building": "yes", "name": "Crown Used Cars", "height": null, "height_m": null, "levels": null, "tract_id": "40109100203", "tract_name": "1002.03", "tags": {"addr:city": "Oklahoma City", "addr:housenumber": "3520", "addr:postcode": "73112", "addr:state": "OK", "addr:street": "North May Avenue", "building": "yes", "contact:facebook": "crownusedcars", "contact:youtube": "https://www.youtube.com/channel/UCBx7nNKjX6wp6O_Hp_WHZdA", "name": "Crown Used Cars", "phone": "+1 405 768 2722", "second_hand": "only", "shop": "car", "website": "https://crownusedcarsokc.com"}}}, {"type": "Feature", "geometry": {"type": "Polygon", "coordinates": [[[-97.5653596, 35.5069322], [-97.5653587, 35.5068308], [-97.5652595, 35.5068314], [-97.5651446, 35.506832], [-97.5650473, 35.5068326], [-97.5650484, 35.5069598], [-97.5651467, 35.5069592], [-97.5652609, 35.5069586], [-97.5652718, 35.5069585], [-97.5653596, 35.5069322]]]}, "properties": {"osm_id": 1251633789, "building": "retail", "name": "", "height": null, "height_m": null, "levels": null, "tract_id": "40109100203", "tract_name": "1002.03", "tags": {"building": "retail"}}}, {"type": "Feature", "geometry": {"type": "Polygon", "coordinates": [[[-97.5539235, 35.5069355], [-97.5539246, 35.5070296], [-97.553801, 35.5070305], [-97.5537999, 35.5069364], [-97.5539235, 35.5069355]]]}, "properties": {"osm_id": 1266395040, "building": "house", "name": "", "height": null, "height_m": null, "levels": null, "tract_id": "40109100203", "tract_name": "1002.03", "tags": {"building": "house"}}}, {"type": "Feature", "geometry": {"type": "Polygon", "coordinates": [[[-97.5537651, 35.5069405], [-97.553767, 35.5070646], [-97.5537272, 35.507065], [-97.5537266, 35.5070262], [-97.5536409, 35.507027], [-97.5536397, 35.5069417], [-97.5537651, 35.5069405]]]}, "properties": {"osm_id": 1266395041, "building": "house", "name": "", "height": null, "height_m": null, "levels": null, "tract_id": "40109100203", "tract_name": "1002.03", "tags": {"building": "house"}}}, {"type": "Feature", "geometry": {"type": "Polygon", "coordinates": [[[-97.5536039, 35.5069477], [-97.5536043, 35.5070285], [-97.5534977, 35.5070288], [-97.5534974, 35.5069481], [-97.5536039, 35.5069477]]]}, "properties": {"osm_id": 1266395042, "building": "house", "name": "", "height": null, "height_m": null, "levels": null, "tract_id": "40109100203", "tract_name": "1002.03", "tags": {"building": "house"}}}]}