{"type": "FeatureCollection", "features": [{"type": "Feature", "geometry": {"type": "Polygon", "coordinates": [[[-94.5687414, 35.9920566], [-94.5684164, 35.9921064], [-94.5683781, 35.9919428], [-94.5687031, 35.991893], [-94.5687114, 35.9919284], [-94.5687787, 35.9919181], [-94.5687981, 35.9920007], [-94.5687307, 35.992011], [-94.5687414, 35.9920566]]]}, "properties": {"osm_id": 111443455, "building": "yes", "name": "Westville", "height": null, "height_m": null, "levels": null, "tract_id": "40001376700", "tract_name": "3767", "tags": {"amenity": "post_office", "building": "yes", "name": "Westville", "operator": "United States Postal Service", "operator:short": "USPS", "operator:type": "public", "operator:website": "https://www.usps.com", "operator:wikidata": "Q668687", "operator:wikipedia": "en:United States Postal Service", "short_name": "USPS"}}}, {"type": "Feature", "geometry": {"type": "Polygon", "coordinates": [[[-94.5783459, 36.0401497], [-94.5782145, 36.0401757], [-94.5781233, 36.0398439], [-94.5779543, 36.039872], [-94.5779221, 36.0397484], [-94.5782896, 36.0396812], [-94.5783245, 36.0398265], [-94.5782628, 36.0398395], [-94.5783459, 36.0401497]]]}, "properties": {"osm_id": 396819025, "building": "industrial", "name": "", "height": null, "height_m": null, "levels": null, "tract_id": "40001376700", "tract_name": "3767", "tags": {"building": "industrial"}}}, {"type": "Feature", "geometry": {"type": "Polygon", "coordinates": [[[-94.5782199, 36.0396053], [-94.578244, 36.0395879], [-94.5782226, 36.039486], [-94.578185, 36.0394795], [-94.5781475, 36.0392951], [-94.5781206, 36.0392843], [-94.5780643, 36.0392951], [-94.5780428, 36.0393146], [-94.5781019, 36.0395923], [-94.5781367, 36.0396161], [-94.5782199, 36.0396053]]]}, "properties": {"osm_id": 396819026, "building": "industrial", "name": "", "height": null, "height_m": null, "levels": null, "tract_id": "40001376700", "tract_name": "3767", "tags": {"building": "industrial"}}}, {"type": "Feature", "geometry": {"type": "Polygon", "coordinates": [[[-94.5692689, 35.9911722], [-94.5693174, 35.9913743], [-94.5693566, 35.9913682], [-94.5693987, 35.9915435], [-94.5693427, 35.9915523], [-94.5693869, 35.9917361], [-94.5693681, 35.9917643], [-94.5693332, 35.991773], [-94.5692957, 35.9917578], [-94.569254, 35.9915838], [-94.5690899, 35.9916096], [-94.5690454, 35.9914237], [-94.5691417, 35.9914086], [-94.5690917, 35.9912], [-94.5692689, 35.9911722]]]}, "properties": {"osm_id": 396999376, "building": "industrial", "name": "", "height": null, "height_m": null, "levels": null, "tract_id": "40001376700", "tract_name": "3767", "tags": {"building": "industrial"}}}, {"type": "Feature", "geometry": {"type": "Polygon", "coordinates": [[[-94.5833584, 35.9915816], [-94.5833349, 35.9915818], [-94.5833345, 35.9915439], [-94.583026, 35.9915462], [-94.5830287, 35.9917804], [-94.582982, 35.9917808], [-94.5829834, 35.9919011], [-94.5830284, 35.9919007], [-94.5830287, 35.9919309], [-94.5831233, 35.9919302], [-94.5831234, 35.9919387], [-94.5832998, 35.9919375], [-94.5832996, 35.9919257], [-94.5833623, 35.9919252], [-94.5833584, 35.9915816]]]}, "properties": {"osm_id": 1018308633, "building": "yes", "name": "", "height": null, "height_m": null, "levels": null, "tract_id": "40001376700", "tract_name": "3767", "tags": {"building": "yes", "shop": "supermarket"}}}, {"type": "Feature", "geometry": {"type": "Polygon", "coordinates": [[[-94.5683571, 35.9903478], [-94.5683274, 35.9902363], [-94.5682265, 35.9902539], [-94.5682562, 35.9903654], [-94.5683571, 35.9903478]]]}, "properties": {"osm_id": 1104050993, "building": "yes", "name": "", "height": null, "height_m": null, "levels": null, "tract_id": "40001376700", "tract_name": "3767", "tags": {"addr:city": "Westville", "addr:housenumber": "201", "addr:postcode": "74965", "addr:state": "OK", "addr:street": "West Delaware Street", "building": "yes", "telecom": "exchange"}}}, {"type": "Feature", "geometry": {"type": "Polygon", "coordinates": [[[-94.552815, 35.9887176], [-94.5528151, 35.9886034], [-94.5526739, 35.9886033], [-94.5526739, 35.9885497], [-94.5525874, 35.9885496], [-94.5525873, 35.9886037], [-94.5525631, 35.9886037], [-94.552563, 35.9887175], [-94.552815, 35.9887176]]]}, "properties": {"osm_id": 1150068063, "building": "yes", "name": "", "height": null, "height_m": null, "levels": null, "tract_id": "40001376700", "tract_name": "3767", "tags": {"amenity": "place_of_worship", "building": "yes", "denomination": "jehovahs_witness", "religion": "christian"}}}, {"type": "Feature", "geometry": {"type": "Polygon", "coordinates": [[[-94.5688192, 35.9882723], [-94.5687883, 35.9882728], [-94.5687879, 35.988256], [-94.5688187, 35.9882554], [-94.5688192, 35.9882723]]]}, "properties": {"osm_id": 1232061553, "building": "yes", "name": "", "height": null, "height_m": null, "levels": null, "tract_id": "40001376700", "tract_name": "3767", "tags": {"building": "yes"}}}, {"type": "Feature", "geometry": {"type": "Polygon", "coordinates": [[[-94.5688178, 35.9882435], [-94.5687903, 35.9882435], [-94.5687903, 35.9882213], [-94.5688178, 35.9882213], [-94.5688178, 35.9882435]]]}, "properties": {"osm_id": 1232061554, "building": "yes", "name": "", "height": null, "height_m": null, "levels": null, "tract_id": "40001376700", "tract_name": "3767", "tags": {"building": "yes"}}}, {"type": "Feature", "geometry": {"type": "Polygon", "coordinates": [[[-94.5678818, 35.9922849], [-94.5679039, 35.9923724], [-94.5680996, 35.9923401], [-94.5680775, 35.9922526], [-94.5678818, 35.9922849]]]}, "properties": {"osm_id": 1232299268, "building": "yes", "name": "", "height": null, "height_m": null, "levels": null, "tract_id": "40001376700", "tract_name": "3767", "tags": {"building": "yes", "shop": "yes", "source": "microsoft/BuildingFootprints"}}}, {"type": "Feature", "geometry": {"type": "Polygon", "coordinates": [[[-94.5674391, 35.9920814], [-94.5671828, 35.9921207], [-94.5672155, 35.9922602], [-94.5674718, 35.9922208], [-94.5674391, 35.9920814]]]}, "properties": {"osm_id": 1232299269, "building": "yes", "name": "", "height": null, "height_m": null, "levels": null, "tract_id": "40001376700", "tract_name": "3767", "tags": {"building": "yes", "shop": "yes", "source": "microsoft/BuildingFootprints"}}}, {"type": "Feature", "geometry": {"type": "Polygon", "coordinates": [[[-94.568429, 35.9935943], [-94.5684543, 35.9937012], [-94.5681915, 35.993742], [-94.5681661, 35.9936351], [-94.568429, 35.9935943]]]}, "properties": {"osm_id": 1276339020, "building": "yes", "name": "Buffington Hotel", "height": null, "height_m": null, "levels": null, "tract_id": "40001376700", "tract_name": "3767", "tags": {"building": "yes", "heritage": "yes", "name": "Buffington Hotel", "wikidata": "Q4985971", "wikipedia": "en:Buffington Hotel"}}}, {"type": "Feature", "geometry": {"type": "Polygon", "coordinates": [[[-94.5675456, 35.9935088], [-94.567775, 35.9934751], [-94.5678954, 35.9933749], [-94.5677264, 35.9926229], [-94.5673524, 35.9926779], [-94.5673771, 35.992788], [-94.5672922, 35.9928004], [-94.567346, 35.9930402], [-94.5674376, 35.9930267], [-94.5675456, 35.9935088]]]}, "properties": {"osm_id": 1386166225, "building": "yes", "name": "", "height": null, "height_m": null, "levels": null, "tract_id": "40001376700", "tract_name": "3767", "tags": {"building": "yes"}}}, {"type": "Feature", "geometry": {"type": "Polygon", "coordinates": [[[-94.5672429, 35.9925563], [-94.5676531, 35.9924781], [-94.5676215, 35.9923696], [-94.5673143, 35.9924282], [-94.5672869, 35.9923342], [-94.567184, 35.9923538], [-94.5672429, 35.9925563]]]}, "properties": {"osm_id": 1386166226, "building": "yes", "name": "", "height": null, "height_m": null, "levels": null, "tract_id": "40001376700", "tract_name": "3767", "tags": {"building": "yes"}}}, {"type": "Feature", "geometry": {"type": "Polygon", "coordinates": [[[-94.5679418, 35.9926139], [-94.568047, 35.9931113], [-94.5684606, 35.993054], [-94.5684379, 35.9929467], [-94.5683304, 35.9929615], [-94.5683157, 35.9928916], [-94.5683713, 35.9928839], [-94.5683452, 35.9927602], [-94.5682867, 35.9927683], [-94.5682645, 35.9926629], [-94.5684061, 35.9926433], [-94.5683869, 35.9925523], [-94.5679418, 35.9926139]]]}, "properties": {"osm_id": 1386166227, "building": "yes", "name": "", "height": null, "height_m": null, "levels": null, "tract_id": "40001376700", "tract_name": "3767", "tags": {"building": "yes"}}}]}