{"type": "FeatureCollection", "features": [{"type": "Feature", "geometry": {"type": "Polygon", "coordinates": [[[-97.3446037, 35.1922228], [-97.3442873, 35.1921722], [-97.3443057, 35.1920969], [-97.3443894, 35.1921134], [-97.3444028, 35.1920559], [-97.3444497, 35.1920627], [-97.3444681, 35.1919615], [-97.3446037, 35.1919889], [-97.3445886, 35.1920504], [-97.3446171, 35.19206], [-97.3445987, 35.1921243], [-97.3446255, 35.1921298], [-97.3446037, 35.1922228]]]}, "properties": {"osm_id": 360640816, "building": "house", "name": "", "height": null, "height_m": null, "levels": null, "tract_id": "40027202403", "tract_name": "2024.03", "tags": {"addr:city": "Norman", "addr:housenumber": "2311", "addr:postcode": "73026", "addr:state": "OK", "addr:street": "Blue Court", "building": "house"}}}, {"type": "Feature", "geometry": {"type": "Polygon", "coordinates": [[[-97.3454023, 35.1922515], [-97.3452951, 35.1922324], [-97.3453135, 35.1921777], [-97.3452968, 35.1921503], [-97.3452633, 35.1921476], [-97.345275, 35.1920655], [-97.3453403, 35.1920723], [-97.3453638, 35.191967], [-97.3454475, 35.1919765], [-97.3454224, 35.1920778], [-97.3454642, 35.1920833], [-97.3454023, 35.1922515]]]}, "properties": {"osm_id": 360640818, "building": "house", "name": "", "height": null, "height_m": null, "levels": null, "tract_id": "40027202403", "tract_name": "2024.03", "tags": {"addr:city": "Norman", "addr:housenumber": "2303", "addr:postcode": "73026", "addr:state": "OK", "addr:street": "Blue Court", "building": "house"}}}, {"type": "Feature", "geometry": {"type": "Polygon", "coordinates": [[[-97.3465825, 35.1915223], [-97.3465641, 35.1915196], [-97.3465424, 35.1915743], [-97.346457, 35.1915579], [-97.346467, 35.1915045], [-97.3464453, 35.1915018], [-97.3464687, 35.19138], [-97.3466127, 35.1914088], [-97.3465825, 35.1915223]]]}, "properties": {"osm_id": 360640819, "building": "house", "name": "", "height": null, "height_m": null, "levels": null, "tract_id": "40027202403", "tract_name": "2024.03", "tags": {"addr:city": "Norman", "addr:housenumber": "2300", "addr:postcode": "73026", "addr:street": "Blue Creek Drive", "building": "house"}}}, {"type": "Feature", "geometry": {"type": "Polygon", "coordinates": [[[-97.3454943, 35.1914224], [-97.3453939, 35.19138], [-97.3454709, 35.1912282], [-97.3455814, 35.1912788], [-97.3454943, 35.1914224]]]}, "properties": {"osm_id": 360640821, "building": "house", "name": "", "height": null, "height_m": null, "levels": null, "tract_id": "40027202403", "tract_name": "2024.03", "tags": {"addr:city": "Norman", "addr:housenumber": "2313", "addr:postcode": "73026", "addr:state": "OK", "addr:street": "Blue Creek Drive", "building": "house"}}}, {"type": "Feature", "geometry": {"type": "Polygon", "coordinates": [[[-97.3461703, 35.1906414], [-97.3460349, 35.1905493], [-97.3460764, 35.1904989], [-97.346118, 35.190523], [-97.346228, 35.1904211], [-97.3463205, 35.1904868], [-97.3462602, 35.1905482], [-97.3462374, 35.1905351], [-97.3462025, 35.1905658], [-97.3462293, 35.1905844], [-97.3461703, 35.1906414]]]}, "properties": {"osm_id": 360640822, "building": "house", "name": "", "height": null, "height_m": null, "levels": null, "tract_id": "40027202403", "tract_name": "2024.03", "tags": {"addr:city": "Norman", "addr:housenumber": "2327", "addr:postcode": "73026", "addr:state": "OK", "addr:street": "Blue Creek Drive", "building": "house"}}}, {"type": "Feature", "geometry": {"type": "Polygon", "coordinates": [[[-97.3471963, 35.1909746], [-97.3471305, 35.1908968], [-97.3471453, 35.1908891], [-97.3469535, 35.1906348], [-97.3470474, 35.1905833], [-97.3472874, 35.1909165], [-97.3471963, 35.1909746]]]}, "properties": {"osm_id": 360640825, "building": "house", "name": "", "height": null, "height_m": null, "levels": null, "tract_id": "40027202403", "tract_name": "2024.03", "tags": {"addr:city": "Norman", "addr:housenumber": "2329", "addr:postcode": "73026", "addr:state": "OK", "addr:street": "Blue Creek Parkway", "building": "house"}}}, {"type": "Feature", "geometry": {"type": "Polygon", "coordinates": [[[-97.3470536, 35.1900088], [-97.3470348, 35.1899889], [-97.3469564, 35.1900431], [-97.3468636, 35.1899474], [-97.3470481, 35.189831], [-97.3471387, 35.1899239], [-97.3471033, 35.1899447], [-97.3471199, 35.1899655], [-97.3470536, 35.1900088]]]}, "properties": {"osm_id": 360640826, "building": "house", "name": "", "height": null, "height_m": null, "levels": null, "tract_id": "40027202403", "tract_name": "2024.03", "tags": {"addr:city": "Norman", "addr:housenumber": "2353", "addr:postcode": "73026", "addr:street": "Blue Creek Drive", "building": "house"}}}, {"type": "Feature", "geometry": {"type": "Polygon", "coordinates": [[[-97.3483944, 35.1901796], [-97.3482161, 35.1902228], [-97.3481688, 35.1901187], [-97.3483453, 35.190077], [-97.3483944, 35.1901796]]]}, "properties": {"osm_id": 360640828, "building": "house", "name": "", "height": null, "height_m": null, "levels": null, "tract_id": "40027202403", "tract_name": "2024.03", "tags": {"addr:city": "Norman", "addr:housenumber": "2345", "addr:postcode": "73026", "addr:street": "Blue Creek Drive", "building": "house"}}}, {"type": "Feature", "geometry": {"type": "Polygon", "coordinates": [[[-97.3489238, 35.1905543], [-97.3488038, 35.1905573], [-97.3488038, 35.1904963], [-97.3488493, 35.1904919], [-97.3488383, 35.1904012], [-97.348922, 35.1903982], [-97.3489238, 35.1905543]]]}, "properties": {"osm_id": 360640830, "building": "house", "name": "", "height": null, "height_m": null, "levels": null, "tract_id": "40027202403", "tract_name": "2024.03", "tags": {"addr:city": "Norman", "addr:housenumber": "2349", "addr:postcode": "73026", "addr:street": "Blue Creek Drive", "building": "house"}}}, {"type": "Feature", "geometry": {"type": "Polygon", "coordinates": [[[-97.3450796, 35.1905454], [-97.3450323, 35.1904904], [-97.3450905, 35.1904592], [-97.3450741, 35.1904309], [-97.345045, 35.1904473], [-97.3450013, 35.1903937], [-97.3451651, 35.1903016], [-97.3452124, 35.1903595], [-97.3451578, 35.1903923], [-97.3452215, 35.1904651], [-97.3450796, 35.1905454]]]}, "properties": {"osm_id": 360640832, "building": "house", "name": "", "height": null, "height_m": null, "levels": null, "tract_id": "40027202403", "tract_name": "2024.03", "tags": {"addr:city": "Norman", "addr:housenumber": "2388", "addr:postcode": "73026", "addr:street": "Blue Court", "building": "house"}}}, {"type": "Feature", "geometry": {"type": "Polygon", "coordinates": [[[-97.3447139, 35.1902495], [-97.344632, 35.1902763], [-97.3446247, 35.1902599], [-97.344481, 35.1903149], [-97.344441, 35.1902525], [-97.3445811, 35.1902005], [-97.344572, 35.1901677], [-97.3446629, 35.1901425], [-97.3447139, 35.1902495]]]}, "properties": {"osm_id": 360640833, "building": "house", "name": "", "height": null, "height_m": null, "levels": null, "tract_id": "40027202403", "tract_name": "2024.03", "tags": {"addr:city": "Norman", "addr:housenumber": "2348", "addr:postcode": "73026", "addr:street": "Blue Court", "building": "house"}}}, {"type": "Feature", "geometry": {"type": "Polygon", "coordinates": [[[-97.3445592, 35.1910777], [-97.3445629, 35.1910033], [-97.3445174, 35.1910019], [-97.344521, 35.1909409], [-97.3444082, 35.190935], [-97.3444009, 35.1910658], [-97.3445592, 35.1910777]]]}, "properties": {"osm_id": 360640834, "building": "house", "name": "", "height": null, "height_m": null, "levels": null, "tract_id": "40027202403", "tract_name": "2024.03", "tags": {"addr:city": "Norman", "addr:housenumber": "2337", "addr:postcode": "73026", "addr:street": "Blue Court", "building": "house"}}}, {"type": "Feature", "geometry": {"type": "Polygon", "coordinates": [[[-97.3445483, 35.1915579], [-97.3445101, 35.1915118], [-97.3445356, 35.1914985], [-97.3444937, 35.1914479], [-97.3444628, 35.1914658], [-97.3444264, 35.1914078], [-97.344612, 35.1913156], [-97.3446702, 35.1913795], [-97.3446029, 35.1914152], [-97.3446684, 35.1914881], [-97.3445483, 35.1915579]]]}, "properties": {"osm_id": 360640835, "building": "house", "name": "", "height": null, "height_m": null, "levels": null, "tract_id": "40027202403", "tract_name": "2024.03", "tags": {"addr:city": "Norman", "addr:housenumber": "2323", "addr:postcode": "73026", "addr:street": "Blue Court", "building": "house"}}}, {"type": "Feature", "geometry": {"type": "Polygon", "coordinates": [[[-97.2845686, 35.2584108], [-97.2845767, 35.2583254], [-97.2847242, 35.2583319], [-97.2847345, 35.2581554], [-97.2839012, 35.2581196], [-97.2838971, 35.2582075], [-97.283772, 35.2582049], [-97.2837613, 35.2582202], [-97.2836057, 35.2582158], [-97.2833214, 35.2582071], [-97.2833107, 35.2584743], [-97.2835655, 35.2584787], [-97.2835678, 35.2584073], [-97.2836594, 35.2584086], [-97.2836513, 35.258586], [-97.2838981, 35.2585904], [-97.2839121, 35.2583892], [-97.2845686, 35.2584108]]]}, "properties": {"osm_id": 374466064, "building": "school", "name": "", "height": null, "height_m": null, "levels": null, "tract_id": "40027202403", "tract_name": "2024.03", "tags": {"building": "school", "operator": "Norman Public Schools"}}}, {"type": "Feature", "geometry": {"type": "Polygon", "coordinates": [[[-97.2834475, 35.258874], [-97.2834674, 35.2587052], [-97.28306, 35.2586733], [-97.2830401, 35.258842], [-97.2834475, 35.258874]]]}, "properties": {"osm_id": 374466065, "building": "school", "name": "", "height": null, "height_m": null, "levels": null, "tract_id": "40027202403", "tract_name": "2024.03", "tags": {"building": "school", "operator": "Norman Public Schools"}}}, {"type": "Feature", "geometry": {"type": "Polygon", "coordinates": [[[-97.3301034, 35.2200079], [-97.3300104, 35.219827], [-97.3297623, 35.2199121], [-97.3297927, 35.2199713], [-97.3297754, 35.2199772], [-97.3298191, 35.2200622], [-97.329857, 35.2200492], [-97.3298759, 35.220086], [-97.3301034, 35.2200079]]]}, "properties": {"osm_id": 385634954, "building": "yes", "name": "Norman Firestation Number 6", "height": null, "height_m": null, "levels": null, "tract_id": "40027202403", "tract_name": "2024.03", "tags": {"building": "yes", "name": "Norman Firestation Number 6", "operator": "City of Norman"}}}, {"type": "Feature", "geometry": {"type": "Polygon", "coordinates": [[[-97.3132607, 35.1631684], [-97.3131227, 35.1631328], [-97.313094, 35.1632074], [-97.313232, 35.1632429], [-97.3132607, 35.1631684]]]}, "properties": {"osm_id": 804412542, "building": "yes", "name": "", "height": null, "height_m": null, "levels": null, "tract_id": "40027202403", "tract_name": "2024.03", "tags": {"building": "yes"}}}, {"type": "Feature", "geometry": {"type": "Polygon", "coordinates": [[[-97.3130263, 35.1628322], [-97.3129798, 35.1627077], [-97.3128167, 35.1627484], [-97.3128632, 35.162873], [-97.3130263, 35.1628322]]]}, "properties": {"osm_id": 804412543, "building": "yes", "name": "", "height": null, "height_m": null, "levels": null, "tract_id": "40027202403", "tract_name": "2024.03", "tags": {"building": "yes"}}}, {"type": "Feature", "geometry": {"type": "Polygon", "coordinates": [[[-97.2929604, 35.2366973], [-97.2929655, 35.2366094], [-97.2928669, 35.236611], [-97.2928638, 35.2365861], [-97.2925863, 35.2365803], [-97.2925863, 35.2366957], [-97.2929604, 35.2366973]]]}, "properties": {"osm_id": 878463499, "building": "house", "name": "", "height": null, "height_m": null, "levels": null, "tract_id": "40027202403", "tract_name": "2024.03", "tags": {"building": "house"}}}, {"type": "Feature", "geometry": {"type": "Polygon", "coordinates": [[[-97.2926634, 35.2364406], [-97.2925252, 35.2364411], [-97.2925219, 35.2363601], [-97.2926661, 35.2363601], [-97.2926634, 35.2364406]]]}, "properties": {"osm_id": 878463500, "building": "house", "name": "", "height": null, "height_m": null, "levels": null, "tract_id": "40027202403", "tract_name": "2024.03", "tags": {"building": "house"}}}, {"type": "Feature", "geometry": {"type": "Polygon", "coordinates": [[[-97.2928008, 35.2360196], [-97.2925701, 35.2360196], [-97.2925594, 35.2358443], [-97.2927201, 35.2358472], [-97.2927981, 35.2358487], [-97.2928008, 35.2360196]]]}, "properties": {"osm_id": 878463501, "building": "yes", "name": "Griffis Tree Farm", "height": null, "height_m": null, "levels": null, "tract_id": "40027202403", "tract_name": "2024.03", "tags": {"building": "yes", "name": "Griffis Tree Farm", "shop": "garden_centre"}}}, {"type": "Feature", "geometry": {"type": "Polygon", "coordinates": [[[-97.28372, 35.3056427], [-97.28372, 35.3055874], [-97.2836778, 35.3055874], [-97.2836778, 35.3056427], [-97.28372, 35.3056427]]]}, "properties": {"osm_id": 942374375, "building": "yes", "name": "", "height": null, "height_m": null, "levels": null, "tract_id": "40027202403", "tract_name": "2024.03", "tags": {"building": "yes"}}}, {"type": "Feature", "geometry": {"type": "Polygon", "coordinates": [[[-97.2924239, 35.3046914], [-97.2924408, 35.3046321], [-97.2922964, 35.3046047], [-97.2923044, 35.3045766], [-97.2921952, 35.3045558], [-97.2922, 35.304539], [-97.2921185, 35.3045235], [-97.2920925, 35.3046147], [-97.2922619, 35.3046469], [-97.2922556, 35.3046689], [-97.2923646, 35.3046896], [-97.2923672, 35.3046806], [-97.2924239, 35.3046914]]]}, "properties": {"osm_id": 942374379, "building": "yes", "name": "", "height": null, "height_m": null, "levels": null, "tract_id": "40027202403", "tract_name": "2024.03", "tags": {"building": "yes"}}}, {"type": "Feature", "geometry": {"type": "Polygon", "coordinates": [[[-97.2825544, 35.3055528], [-97.2825855, 35.3053293], [-97.2824824, 35.3053198], [-97.2824514, 35.3055432], [-97.2825544, 35.3055528]]]}, "properties": {"osm_id": 942374380, "building": "house", "name": "", "height": null, "height_m": null, "levels": null, "tract_id": "40027202403", "tract_name": "2024.03", "tags": {"building": "house"}}}, {"type": "Feature", "geometry": {"type": "Polygon", "coordinates": [[[-97.330004, 35.218971], [-97.329897, 35.218999], [-97.329868, 35.218927], [-97.329796, 35.218946], [-97.329814, 35.218991], [-97.329758, 35.219006], [-97.329781, 35.219065], [-97.329912, 35.219031], [-97.329994, 35.219236], [-97.330134, 35.219198], [-97.330105, 35.219125], [-97.330069, 35.219135], [-97.330004, 35.218971]]]}, "properties": {"osm_id": 946564119, "building": "yes", "name": "", "height": null, "height_m": null, "levels": null, "tract_id": "40027202403", "tract_name": "2024.03", "tags": {"building": "yes", "source": "microsoft/BuildingFootprints"}}}, {"type": "Feature", "geometry": {"type": "Polygon", "coordinates": [[[-97.329174, 35.220347], [-97.329402, 35.220353], [-97.329405, 35.220258], [-97.329178, 35.220252], [-97.329174, 35.220347]]]}, "properties": {"osm_id": 946564120, "building": "yes", "name": "", "height": null, "height_m": null, "levels": null, "tract_id": "40027202403", "tract_name": "2024.03", "tags": {"building": "yes", "source": "microsoft/BuildingFootprints"}}}, {"type": "Feature", "geometry": {"type": "Polygon", "coordinates": [[[-97.329026, 35.22077], [-97.328873, 35.22077], [-97.328873, 35.220911], [-97.329026, 35.220911], [-97.329026, 35.22077]]]}, "properties": {"osm_id": 946564121, "building": "yes", "name": "", "height": null, "height_m": null, "levels": null, "tract_id": "40027202403", "tract_name": "2024.03", "tags": {"building": "yes", "source": "microsoft/BuildingFootprints"}}}, {"type": "Feature", "geometry": {"type": "Polygon", "coordinates": [[[-97.327489, 35.219691], [-97.327361, 35.219715], [-97.327393, 35.219829], [-97.327522, 35.219804], [-97.327489, 35.219691]]]}, "properties": {"osm_id": 946564122, "building": "yes", "name": "", "height": null, "height_m": null, "levels": null, "tract_id": "40027202403", "tract_name": "2024.03", "tags": {"building": "yes", "source": "microsoft/BuildingFootprints"}}}, {"type": "Feature", "geometry": {"type": "Polygon", "coordinates": [[[-97.293137, 35.235284], [-97.2928, 35.235294], [-97.292808, 35.23546], [-97.293145, 35.23545], [-97.293137, 35.235284]]]}, "properties": {"osm_id": 946564123, "building": "yes", "name": "", "height": null, "height_m": null, "levels": null, "tract_id": "40027202403", "tract_name": "2024.03", "tags": {"building": "yes", "source": "microsoft/BuildingFootprints"}}}, {"type": "Feature", "geometry": {"type": "Polygon", "coordinates": [[[-97.286406, 35.232147], [-97.286199, 35.232147], [-97.286199, 35.232315], [-97.286406, 35.232315], [-97.286406, 35.232147]]]}, "properties": {"osm_id": 946564124, "building": "yes", "name": "", "height": null, "height_m": null, "levels": null, "tract_id": "40027202403", "tract_name": "2024.03", "tags": {"building": "yes", "source": "microsoft/BuildingFootprints"}}}, {"type": "Feature", "geometry": {"type": "Polygon", "coordinates": [[[-97.285904, 35.232317], [-97.286138, 35.232317], [-97.286138, 35.232236], [-97.285904, 35.232236], [-97.285904, 35.232317]]]}, "properties": {"osm_id": 946564125, "building": "yes", "name": "", "height": null, "height_m": null, "levels": null, "tract_id": "40027202403", "tract_name": "2024.03", "tags": {"building": "yes", "source": "microsoft/BuildingFootprints"}}}, {"type": "Feature", "geometry": {"type": "Polygon", "coordinates": [[[-97.283126, 35.232127], [-97.283126, 35.23224], [-97.283292, 35.23224], [-97.283292, 35.232153], [-97.283244, 35.232153], [-97.283244, 35.232127], [-97.283126, 35.232127]]]}, "properties": {"osm_id": 946564126, "building": "yes", "name": "", "height": null, "height_m": null, "levels": null, "tract_id": "40027202403", "tract_name": "2024.03", "tags": {"building": "yes", "source": "microsoft/BuildingFootprints"}}}, {"type": "Feature", "geometry": {"type": "Polygon", "coordinates": [[[-97.2910409, 35.2733278], [-97.2908852, 35.2733689], [-97.2908097, 35.2731518], [-97.2909691, 35.2731117], [-97.2910409, 35.2733278]]]}, "properties": {"osm_id": 987328289, "building": "yes", "name": "", "height": null, "height_m": null, "levels": null, "tract_id": "40027202403", "tract_name": "2024.03", "tags": {"building": "yes"}}}, {"type": "Feature", "geometry": {"type": "Polygon", "coordinates": [[[-97.291106, 35.2735299], [-97.2909419, 35.2735685], [-97.2909029, 35.273458], [-97.291067, 35.2734194], [-97.291106, 35.2735299]]]}, "properties": {"osm_id": 987328290, "building": "yes", "name": "", "height": null, "height_m": null, "levels": null, "tract_id": "40027202403", "tract_name": "2024.03", "tags": {"building": "yes"}}}, {"type": "Feature", "geometry": {"type": "Polygon", "coordinates": [[[-97.3295024, 35.1708232], [-97.3295098, 35.1707459], [-97.3294625, 35.1707429], [-97.3294745, 35.170618], [-97.3293214, 35.1706082], [-97.329302, 35.1708103], [-97.3295024, 35.1708232]]]}, "properties": {"osm_id": 1212760892, "building": "house", "name": "", "height": null, "height_m": null, "levels": null, "tract_id": "40027202403", "tract_name": "2024.03", "tags": {"building": "house"}}}, {"type": "Feature", "geometry": {"type": "Polygon", "coordinates": [[[-97.3295191, 35.171115], [-97.3295206, 35.1710003], [-97.3294121, 35.1710003], [-97.3294136, 35.1711082], [-97.3295191, 35.171115]]]}, "properties": {"osm_id": 1212761419, "building": "garage", "name": "", "height": null, "height_m": null, "levels": null, "tract_id": "40027202403", "tract_name": "2024.03", "tags": {"building": "garage"}}}, {"type": "Feature", "geometry": {"type": "Polygon", "coordinates": [[[-97.2955783, 35.2318136], [-97.2954687, 35.2318145], [-97.2954696, 35.2318826], [-97.295439, 35.2318829], [-97.2954397, 35.2319373], [-97.2953586, 35.231938], [-97.2953596, 35.2320063], [-97.2955809, 35.2320043], [-97.2955783, 35.2318136]]]}, "properties": {"osm_id": 1224660304, "building": "house", "name": "", "height": null, "height_m": null, "levels": null, "tract_id": "40027202403", "tract_name": "2024.03", "tags": {"building": "house"}}}, {"type": "Feature", "geometry": {"type": "Polygon", "coordinates": [[[-97.2963823, 35.2329358], [-97.2962739, 35.2329414], [-97.2962763, 35.2329723], [-97.2961683, 35.2329779], [-97.2961782, 35.2331057], [-97.2963946, 35.2330945], [-97.2963823, 35.2329358]]]}, "properties": {"osm_id": 1224660308, "building": "house", "name": "", "height": null, "height_m": null, "levels": null, "tract_id": "40027202403", "tract_name": "2024.03", "tags": {"building": "house"}}}, {"type": "Feature", "geometry": {"type": "Polygon", "coordinates": [[[-97.2962241, 35.2322886], [-97.2961686, 35.2323604], [-97.2960698, 35.2323094], [-97.2961253, 35.2322376], [-97.2962241, 35.2322886]]]}, "properties": {"osm_id": 1224660309, "building": "garage", "name": "", "height": null, "height_m": null, "levels": null, "tract_id": "40027202403", "tract_name": "2024.03", "tags": {"building": "garage"}}}, {"type": "Feature", "geometry": {"type": "Polygon", "coordinates": [[[-97.3087057, 35.2006052], [-97.3085286, 35.2006174], [-97.3085087, 35.2004246], [-97.3086858, 35.2004124], [-97.3087057, 35.2006052]]]}, "properties": {"osm_id": 1322049590, "building": "hangar", "name": "", "height": null, "height_m": null, "levels": null, "tract_id": "40027202403", "tract_name": "2024.03", "tags": {"aeroway": "hangar", "building": "hangar"}}}, {"type": "Feature", "geometry": {"type": "Polygon", "coordinates": [[[-97.2982559, 35.3132454], [-97.2982485, 35.3132831], [-97.2981941, 35.313276], [-97.2982016, 35.3132383], [-97.2982559, 35.3132454]]]}, "properties": {"osm_id": 1385665028, "building": "yes", "name": "", "height": null, "height_m": null, "levels": null, "tract_id": "40027202403", "tract_name": "2024.03", "tags": {"building": "yes"}}}, {"type": "Feature", "geometry": {"type": "Polygon", "coordinates": [[[-97.2983142, 35.3132544], [-97.2983068, 35.3132922], [-97.2982525, 35.3132851], [-97.2982599, 35.3132473], [-97.2983142, 35.3132544]]]}, "properties": {"osm_id": 1385665029, "building": "yes", "name": "", "height": null, "height_m": null, "levels": null, "tract_id": "40027202403", "tract_name": "2024.03", "tags": {"building": "yes"}}}, {"type": "Feature", "geometry": {"type": "Polygon", "coordinates": [[[-97.2983222, 35.3132145], [-97.2983148, 35.3132522], [-97.2982605, 35.3132451], [-97.2982679, 35.3132074], [-97.2983222, 35.3132145]]]}, "properties": {"osm_id": 1385665030, "building": "yes", "name": "", "height": null, "height_m": null, "levels": null, "tract_id": "40027202403", "tract_name": "2024.03", "tags": {"building": "yes"}}}, {"type": "Feature", "geometry": {"type": "Polygon", "coordinates": [[[-97.2995775, 35.3126312], [-97.2995346, 35.3126312], [-97.2995346, 35.3125978], [-97.2995775, 35.3125978], [-97.2995775, 35.3126312]]]}, "properties": {"osm_id": 1385665031, "building": "yes", "name": "", "height": null, "height_m": null, "levels": null, "tract_id": "40027202403", "tract_name": "2024.03", "tags": {"building": "yes"}}}, {"type": "Feature", "geometry": {"type": "Polygon", "coordinates": [[[-97.3000882, 35.3144537], [-97.2999648, 35.3144519], [-97.2999657, 35.3144125], [-97.2998719, 35.3144112], [-97.2998694, 35.3145228], [-97.2998437, 35.3145224], [-97.2998417, 35.3146143], [-97.2998701, 35.3146147], [-97.2998691, 35.3146585], [-97.3000623, 35.3146613], [-97.3000633, 35.3146163], [-97.3000526, 35.3146162], [-97.3000538, 35.3145631], [-97.3000644, 35.3145633], [-97.3000653, 35.3145234], [-97.3000866, 35.3145237], [-97.3000882, 35.3144537]]]}, "properties": {"osm_id": 1385665032, "building": "detached", "name": "", "height": null, "height_m": null, "levels": null, "tract_id": "40027202403", "tract_name": "2024.03", "tags": {"building": "detached"}}}, {"type": "Feature", "geometry": {"type": "Polygon", "coordinates": [[[-97.2988162, 35.3138301], [-97.2989154, 35.3138565], [-97.2989581, 35.3137499], [-97.2988589, 35.3137234], [-97.2988162, 35.3138301]]]}, "properties": {"osm_id": 1385665033, "building": "yes", "name": "", "height": null, "height_m": null, "levels": null, "tract_id": "40027202403", "tract_name": "2024.03", "tags": {"building": "yes"}}}, {"type": "Feature", "geometry": {"type": "Polygon", "coordinates": [[[-97.2996409, 35.3125496], [-97.2995993, 35.3125505], [-97.2996023, 35.3126401], [-97.2996438, 35.3126392], [-97.2996409, 35.3125496]]]}, "properties": {"osm_id": 1385665034, "building": "yes", "name": "", "height": null, "height_m": null, "levels": null, "tract_id": "40027202403", "tract_name": "2024.03", "tags": {"building": "yes"}}}, {"type": "Feature", "geometry": {"type": "Polygon", "coordinates": [[[-97.2986164, 35.3134177], [-97.2984176, 35.3133905], [-97.2983977, 35.3134875], [-97.2983689, 35.3134836], [-97.2983582, 35.313536], [-97.2983817, 35.3135392], [-97.2983697, 35.3135978], [-97.298537, 35.3136207], [-97.29855, 35.3135578], [-97.2985212, 35.3135539], [-97.2985359, 35.3134823], [-97.2986013, 35.3134912], [-97.2986164, 35.3134177]]]}, "properties": {"osm_id": 1385665035, "building": "detached", "name": "", "height": null, "height_m": null, "levels": null, "tract_id": "40027202403", "tract_name": "2024.03", "tags": {"building": "detached"}}}, {"type": "Feature", "geometry": {"type": "Polygon", "coordinates": [[[-97.3000006, 35.312853], [-97.2999134, 35.3128526], [-97.2999138, 35.3128012], [-97.2998307, 35.3128008], [-97.2998302, 35.3128698], [-97.2998418, 35.3128698], [-97.2998417, 35.3128906], [-97.2998171, 35.3128904], [-97.2998167, 35.3129473], [-97.2998413, 35.3129475], [-97.2998407, 35.3130404], [-97.2999993, 35.3130412], [-97.3000006, 35.312853]]]}, "properties": {"osm_id": 1385665036, "building": "detached", "name": "", "height": null, "height_m": null, "levels": null, "tract_id": "40027202403", "tract_name": "2024.03", "tags": {"building": "detached"}}}, {"type": "Feature", "geometry": {"type": "Polygon", "coordinates": [[[-97.2956581, 35.3139139], [-97.295559, 35.3138706], [-97.2955706, 35.3138529], [-97.2955173, 35.3138296], [-97.2955632, 35.3137597], [-97.295575, 35.3137649], [-97.2956045, 35.31372], [-97.2956183, 35.313726], [-97.2956608, 35.3136614], [-97.2957636, 35.3137064], [-97.2958203, 35.3136949], [-97.2958247, 35.3137094], [-97.2958405, 35.3137062], [-97.2958523, 35.3137448], [-97.2958367, 35.313748], [-97.2958555, 35.3138096], [-97.2957529, 35.3138304], [-97.2957184, 35.313883], [-97.295707, 35.313878], [-97.2956906, 35.313903], [-97.2956709, 35.3138944], [-97.2956581, 35.3139139]]]}, "properties": {"osm_id": 1410951032, "building": "detached", "name": "", "height": null, "height_m": null, "levels": null, "tract_id": "40027202403", "tract_name": "2024.03", "tags": {"addr:city": "Oklahoma City", "addr:housenumber": "9960", "addr:postcode": "73165", "addr:state": "OK", "addr:street": "East Stella Acres Lane", "building": "detached"}}}]}