{"type": "FeatureCollection", "features": [{"type": "Feature", "geometry": {"type": "Polygon", "coordinates": [[[-95.8890697, 36.0744632], [-95.8892709, 36.0743036], [-95.8891625, 36.074221], [-95.8891632, 36.0741107], [-95.8892613, 36.0740274], [-95.8890691, 36.0738685], [-95.8888283, 36.07406], [-95.8887742, 36.0740599], [-95.8884616, 36.0740595], [-95.8884601, 36.0742798], [-95.8887677, 36.0742775], [-95.8888394, 36.074277], [-95.8890697, 36.0744632]]]}, "properties": {"osm_id": 80404042, "building": "yes", "name": "Triad I", "height": null, "height_m": null, "levels": null, "tract_id": "40143007616", "tract_name": "76.16", "tags": {"addr:city": "Tulsa", "addr:country": "US", "addr:housenumber": "7666", "addr:postcode": "74133", "addr:state": "OK", "addr:street": "East 61st Street", "building": "yes", "name": "Triad I"}}}, {"type": "Feature", "geometry": {"type": "Polygon", "coordinates": [[[-95.890426, 36.0738351], [-95.8900405, 36.0738356], [-95.8899731, 36.0737823], [-95.8895627, 36.0737815], [-95.8894674, 36.07386], [-95.8892759, 36.0737044], [-95.8895303, 36.0734949], [-95.890003, 36.073495], [-95.890426, 36.0738351]]]}, "properties": {"osm_id": 80404054, "building": "yes", "name": "Triad II", "height": null, "height_m": null, "levels": null, "tract_id": "40143007616", "tract_name": "76.16", "tags": {"addr:city": "Tulsa", "addr:country": "US", "addr:housenumber": "7645", "addr:postcode": "74133", "addr:state": "OK", "addr:street": "East 63rd Street", "building": "yes", "name": "Triad II"}}}, {"type": "Feature", "geometry": {"type": "Polygon", "coordinates": [[[-95.8883418, 36.0724325], [-95.8878176, 36.0723651], [-95.8875889, 36.0725001], [-95.8875628, 36.0726047], [-95.8880791, 36.0726773], [-95.8883158, 36.0725445], [-95.8883418, 36.0724325]]]}, "properties": {"osm_id": 80404952, "building": "yes", "name": "McJunkin Red Man Plaza", "height": null, "height_m": null, "levels": null, "tract_id": "40143007616", "tract_name": "76.16", "tags": {"building": "yes", "name": "McJunkin Red Man Plaza"}}}, {"type": "Feature", "geometry": {"type": "Polygon", "coordinates": [[[-95.8887986, 36.0728827], [-95.8886665, 36.0728524], [-95.8884479, 36.0725516], [-95.8885392, 36.0722567], [-95.8886699, 36.0722855], [-95.8888891, 36.0725917], [-95.8887986, 36.0728827]]]}, "properties": {"osm_id": 80404972, "building": "yes", "name": "One Memorial Place", "height": null, "height_m": null, "levels": null, "tract_id": "40143007616", "tract_name": "76.16", "tags": {"building": "yes", "name": "One Memorial Place"}}}, {"type": "Feature", "geometry": {"type": "Polygon", "coordinates": [[[-95.8898998, 36.0747065], [-95.8897796, 36.0747067], [-95.8897797, 36.0747272], [-95.8896912, 36.0747273], [-95.8896911, 36.0747074], [-95.8894267, 36.0747079], [-95.8894266, 36.0746547], [-95.8894115, 36.0746547], [-95.8894112, 36.0745568], [-95.8894492, 36.0745567], [-95.889449, 36.0744905], [-95.8899803, 36.0744894], [-95.8899805, 36.0745736], [-95.8898994, 36.0745738], [-95.8898998, 36.0747065]]]}, "properties": {"osm_id": 83003410, "building": "yes", "name": "Triad Bank", "height": null, "height_m": null, "levels": null, "tract_id": "40143007616", "tract_name": "76.16", "tags": {"amenity": "bank", "atm": "no", "building": "yes", "name": "Triad Bank"}}}, {"type": "Feature", "geometry": {"type": "Polygon", "coordinates": [[[-95.8908915, 36.0748455], [-95.8908172, 36.0748454], [-95.8908171, 36.0748681], [-95.890645, 36.0748678], [-95.8906451, 36.0748465], [-95.8905536, 36.0748464], [-95.8905538, 36.0747562], [-95.8908917, 36.0747567], [-95.8908915, 36.0748455]]]}, "properties": {"osm_id": 83003577, "building": "yes", "name": "", "height": null, "height_m": null, "levels": null, "tract_id": "40143007616", "tract_name": "76.16", "tags": {"addr:city": "Tulsa", "addr:country": "US", "addr:housenumber": "7626", "addr:postcode": "74133", "addr:state": "OK", "addr:street": "East 61st Street", "building": "yes", "shop": "vacant"}}}, {"type": "Feature", "geometry": {"type": "Polygon", "coordinates": [[[-95.9039278, 36.0750636], [-95.9038226, 36.0750639], [-95.9038218, 36.0748524], [-95.9039695, 36.074852], [-95.9039697, 36.0749078], [-95.9039272, 36.0749079], [-95.9039278, 36.0750636]]]}, "properties": {"osm_id": 83571013, "building": "yes", "name": "Alert 360", "height": null, "height_m": null, "levels": null, "tract_id": "40143007616", "tract_name": "76.16", "tags": {"building": "yes", "name": "Alert 360", "office": "security"}}}, {"type": "Feature", "geometry": {"type": "Polygon", "coordinates": [[[-95.895692, 36.067041], [-95.8957916, 36.0667268], [-95.895796, 36.0667277], [-95.8958464, 36.066567], [-95.8957819, 36.0665538], [-95.8958006, 36.0664943], [-95.8958638, 36.0665073], [-95.8959354, 36.0662789], [-95.8959268, 36.0662771], [-95.895969, 36.0661426], [-95.8959408, 36.0661368], [-95.8959657, 36.0660576], [-95.8959995, 36.0660646], [-95.8960237, 36.0660695], [-95.8961909, 36.0661038], [-95.8961386, 36.0662703], [-95.8965893, 36.0663627], [-95.8965548, 36.0664728], [-95.8966478, 36.0664919], [-95.8965639, 36.0667592], [-95.896535, 36.0667533], [-95.8965263, 36.0667811], [-95.8964654, 36.0667686], [-95.8964424, 36.0668421], [-95.8960805, 36.0667679], [-95.8960839, 36.0667573], [-95.8960577, 36.066752], [-95.8960566, 36.0667557], [-95.8960424, 36.0667528], [-95.8959326, 36.0670925], [-95.8958222, 36.0670694], [-95.8958218, 36.0671186], [-95.8958661, 36.0671189], [-95.8958665, 36.0671779], [-95.8959525, 36.0671771], [-95.895953, 36.0673747], [-95.8956534, 36.0673765], [-95.8956535, 36.0671212], [-95.8957842, 36.0671211], [-95.8957851, 36.0670609], [-95.895692, 36.067041]]]}, "properties": {"osm_id": 83571024, "building": "school", "name": "Virgil Grissom Elementary School", "height": null, "height_m": null, "levels": null, "tract_id": "40143007616", "tract_name": "76.16", "tags": {"addr:city": "Tulsa", "addr:country": "US", "addr:housenumber": "6646", "addr:postcode": "74133", "addr:state": "OK", "addr:street": "South 73rd Avenue East", "building": "school", "name": "Virgil Grissom Elementary School", "operator": "Tulsa Public Schools"}}}, {"type": "Feature", "geometry": {"type": "Polygon", "coordinates": [[[-95.8873542, 36.0740129], [-95.8869071, 36.0740128], [-95.8869071, 36.0737855], [-95.8873542, 36.0737855], [-95.8873542, 36.0740129]]]}, "properties": {"osm_id": 83571042, "building": "yes", "name": "", "height": null, "height_m": null, "levels": null, "tract_id": "40143007616", "tract_name": "76.16", "tags": {"addr:city": "Tulsa", "addr:country": "US", "addr:housenumber": "6136", "addr:postcode": "74133", "addr:state": "OK", "addr:street": "South Memorial Drive East", "building": "yes", "shop": "vacant"}}}, {"type": "Feature", "geometry": {"type": "Polygon", "coordinates": [[[-95.8964721, 36.0662726], [-95.8962462, 36.0662212], [-95.8962699, 36.0661531], [-95.8963295, 36.0661667], [-95.8963458, 36.0661197], [-95.8962862, 36.0661062], [-95.8963119, 36.0660322], [-95.896538, 36.0660835], [-95.8965124, 36.0661571], [-95.8964551, 36.0661441], [-95.8964382, 36.0661926], [-95.8964955, 36.0662056], [-95.8964721, 36.0662726]]]}, "properties": {"osm_id": 83571044, "building": "yes", "name": "", "height": null, "height_m": null, "levels": null, "tract_id": "40143007616", "tract_name": "76.16", "tags": {"building": "yes"}}}, {"type": "Feature", "geometry": {"type": "Polygon", "coordinates": [[[-95.9036531, 36.0733169], [-95.9036531, 36.0731569], [-95.9039547, 36.0731569], [-95.9039547, 36.0732574], [-95.9037566, 36.0732574], [-95.9037566, 36.0733169], [-95.9036531, 36.0733169]]]}, "properties": {"osm_id": 83571058, "building": "yes", "name": "", "height": null, "height_m": null, "levels": null, "tract_id": "40143007616", "tract_name": "76.16", "tags": {"building": "yes"}}}, {"type": "Feature", "geometry": {"type": "Polygon", "coordinates": [[[-95.8868566, 36.0750926], [-95.8868559, 36.0748912], [-95.8873194, 36.0748901], [-95.8873193, 36.0748374], [-95.8868537, 36.0748385], [-95.886853, 36.0746302], [-95.8870042, 36.0746298], [-95.8870045, 36.0746973], [-95.8871725, 36.0746969], [-95.8873208, 36.0746966], [-95.8873207, 36.0746426], [-95.8874873, 36.0746423], [-95.8874877, 36.0747754], [-95.8875235, 36.0747753], [-95.8875237, 36.0748352], [-95.8874045, 36.0748355], [-95.8874047, 36.0748827], [-95.8875484, 36.0748824], [-95.8875488, 36.0749981], [-95.8875735, 36.0749981], [-95.8875738, 36.0750911], [-95.8873174, 36.0750917], [-95.8873171, 36.0750309], [-95.8871779, 36.0750312], [-95.8870057, 36.0750316], [-95.8870059, 36.0750923], [-95.8868566, 36.0750926]]]}, "properties": {"osm_id": 83571068, "building": "commercial", "name": "", "height": null, "height_m": null, "levels": null, "tract_id": "40143007616", "tract_name": "76.16", "tags": {"addr:city": "Tulsa", "addr:country": "US", "addr:housenumber": "6120;6130;6122;6102;6112;6126;6128;6106;6116;6108", "addr:postcode": "74133", "addr:state": "OK", "addr:street": "South Memorial Drive East", "building": "commercial"}}}, {"type": "Feature", "geometry": {"type": "Polygon", "coordinates": [[[-95.9033814, 36.0738082], [-95.9035962, 36.0736232], [-95.9034661, 36.0735244], [-95.9033524, 36.0736223], [-95.9032648, 36.0735559], [-95.9031637, 36.073643], [-95.9033814, 36.0738082]]]}, "properties": {"osm_id": 83571069, "building": "retail", "name": "", "height": null, "height_m": null, "levels": null, "tract_id": "40143007616", "tract_name": "76.16", "tags": {"addr:housenumber": "6151", "addr:street": "South Sheridan Road", "building": "retail"}}}, {"type": "Feature", "geometry": {"type": "Polygon", "coordinates": [[[-95.8895636, 36.0626533], [-95.8887921, 36.0626533], [-95.8887953, 36.061549], [-95.8895636, 36.0615526], [-95.8895636, 36.0626533]]]}, "properties": {"osm_id": 83672719, "building": "yes", "name": "", "height": null, "height_m": null, "levels": null, "tract_id": "40143007616", "tract_name": "76.16", "tags": {"building": "yes"}}}, {"type": "Feature", "geometry": {"type": "Polygon", "coordinates": [[[-95.8872209, 36.0618985], [-95.8869113, 36.0619005], [-95.88691, 36.0616875], [-95.8869575, 36.0616872], [-95.8869574, 36.0616677], [-95.8870868, 36.0616668], [-95.887087, 36.0617091], [-95.887193, 36.0617084], [-95.8871935, 36.0617907], [-95.8872202, 36.0617906], [-95.8872209, 36.0618985]]]}, "properties": {"osm_id": 83672722, "building": "yes", "name": "DXL Men's Apparel", "height": null, "height_m": null, "levels": null, "tract_id": "40143007616", "tract_name": "76.16", "tags": {"brand": "DXL Men's Apparel", "brand:wikidata": "Q61981830", "building": "yes", "clothes": "oversize;men", "name": "DXL Men's Apparel", "shop": "clothes", "short_name": "DXL"}}}, {"type": "Feature", "geometry": {"type": "Polygon", "coordinates": [[[-95.889326, 36.0641432], [-95.8895308, 36.0643079], [-95.8895397, 36.0652678], [-95.8892885, 36.0654703], [-95.8895444, 36.0656897], [-95.8892866, 36.0659127], [-95.8895388, 36.0661202], [-95.8895554, 36.0670737], [-95.889223, 36.0673406], [-95.888406, 36.067336], [-95.888406, 36.067117], [-95.889005, 36.0671179], [-95.8892931, 36.0668928], [-95.8892893, 36.0662436], [-95.8890818, 36.0660738], [-95.8890133, 36.0661124], [-95.8887396, 36.0658784], [-95.8888368, 36.0657873], [-95.8888015, 36.0657521], [-95.8887956, 36.0656424], [-95.8888368, 36.0655993], [-95.8887181, 36.0655109], [-95.8890279, 36.0652597], [-95.8890715, 36.0653013], [-95.8892728, 36.0651334], [-95.8892474, 36.064403], [-95.889117, 36.0643137], [-95.889326, 36.0641432]]]}, "properties": {"osm_id": 83672723, "building": "retail", "name": "", "height": null, "height_m": null, "levels": null, "tract_id": "40143007616", "tract_name": "76.16", "tags": {"building": "retail"}}}, {"type": "Feature", "geometry": {"type": "Polygon", "coordinates": [[[-95.8872282, 36.0649815], [-95.8871772, 36.0649817], [-95.8871774, 36.065012], [-95.8870325, 36.0650125], [-95.8870324, 36.0649822], [-95.8868968, 36.0649827], [-95.8868957, 36.0647691], [-95.8872271, 36.064768], [-95.8872282, 36.0649815]]]}, "properties": {"osm_id": 83672727, "building": "retail", "name": "Red Lobster", "height": null, "height_m": 3.0, "levels": 1, "tract_id": "40143007616", "tract_name": "76.16", "tags": {"addr:city": "Tulsa", "addr:country": "US", "addr:housenumber": "6718", "addr:postcode": "74133", "addr:state": "OK", "addr:street": "South Memorial Drive East", "amenity": "restaurant", "brand": "Red Lobster", "brand:wikidata": "Q846301", "building": "retail", "building:levels": "1", "cuisine": "seafood", "name": "Red Lobster", "roof:levels": "0", "roof:shape": "flat"}}}, {"type": "Feature", "geometry": {"type": "Polygon", "coordinates": [[[-95.887165, 36.0613439], [-95.8868882, 36.0613455], [-95.8868868, 36.061185], [-95.8871635, 36.0611834], [-95.887165, 36.0613439]]]}, "properties": {"osm_id": 83672742, "building": "yes", "name": "", "height": null, "height_m": null, "levels": null, "tract_id": "40143007616", "tract_name": "76.16", "tags": {"addr:city": "Tulsa", "addr:country": "US", "addr:housenumber": "8015", "addr:postcode": "74133", "addr:state": "OK", "addr:street": "East 71st Street South", "amenity": "bank", "building": "yes"}}}, {"type": "Feature", "geometry": {"type": "Polygon", "coordinates": [[[-95.8879685, 36.0665635], [-95.8879675, 36.0667516], [-95.8879931, 36.0667517], [-95.8879918, 36.0669934], [-95.8879662, 36.0669933], [-95.8879644, 36.0673464], [-95.8872532, 36.0673434], [-95.8871599, 36.0672703], [-95.8870552, 36.067348], [-95.887021, 36.0673478], [-95.8870211, 36.067286], [-95.8870213, 36.0671749], [-95.8870215, 36.0670611], [-95.8870216, 36.067002], [-95.8870458, 36.067002], [-95.8870456, 36.0669749], [-95.8870451, 36.0669147], [-95.8870446, 36.0668545], [-95.887043, 36.0666399], [-95.8870338, 36.06664], [-95.8870335, 36.0666009], [-95.8870332, 36.0665584], [-95.8871282, 36.0665587], [-95.8871283, 36.0665687], [-95.8876017, 36.0665658], [-95.8876015, 36.0665478], [-95.8877329, 36.066547], [-95.8877331, 36.0665649], [-95.8879685, 36.0665635]]]}, "properties": {"osm_id": 83672747, "building": "retail", "name": "", "height": null, "height_m": null, "levels": null, "tract_id": "40143007616", "tract_name": "76.16", "tags": {"addr:city": "Tulsa", "addr:country": "US", "addr:housenumber": "6612", "addr:postcode": "74133", "addr:state": "OK", "addr:street": "South Memorial Drive East", "building": "retail", "roof:shape": "flat"}}}, {"type": "Feature", "geometry": {"type": "Polygon", "coordinates": [[[-95.8872296, 36.0642981], [-95.8872294, 36.0644666], [-95.8871458, 36.0644666], [-95.8871456, 36.0645922], [-95.8869449, 36.064592], [-95.8869449, 36.0646235], [-95.8868865, 36.0646235], [-95.8868866, 36.0645278], [-95.8868868, 36.0643357], [-95.8868761, 36.0643357], [-95.8868762, 36.0642783], [-95.8869109, 36.0642784], [-95.8869459, 36.0642784], [-95.8869459, 36.0642979], [-95.8872296, 36.0642981]]]}, "properties": {"osm_id": 83672760, "building": "retail", "name": "", "height": null, "height_m": 3.0, "levels": 1, "tract_id": "40143007616", "tract_name": "76.16", "tags": {"addr:city": "Tulsa", "addr:country": "US", "addr:housenumber": "6746", "addr:postcode": "74133", "addr:state": "OK", "addr:street": "South Memorial Drive East", "building": "retail", "building:levels": "1", "roof:levels": "0", "roof:shape": "flat"}}}, {"type": "Feature", "geometry": {"type": "Polygon", "coordinates": [[[-95.8882844, 36.061353], [-95.8881841, 36.061353], [-95.8881841, 36.061168], [-95.8882844, 36.061168], [-95.8882844, 36.061353]]]}, "properties": {"osm_id": 83672768, "building": "yes", "name": "", "height": null, "height_m": null, "levels": null, "tract_id": "40143007616", "tract_name": "76.16", "tags": {"addr:city": "Tulsa", "addr:country": "US", "addr:housenumber": "7911", "addr:postcode": "74133", "addr:state": "OK", "addr:street": "East 71st Street South", "building": "yes"}}}, {"type": "Feature", "geometry": {"type": "Polygon", "coordinates": [[[-95.8877571, 36.0633818], [-95.8870158, 36.0633832], [-95.8870154, 36.0632567], [-95.8869815, 36.0632568], [-95.8869807, 36.062976], [-95.8870148, 36.0629759], [-95.8870144, 36.0628493], [-95.887754, 36.0628479], [-95.8877548, 36.0631102], [-95.8878377, 36.06311], [-95.8878381, 36.0632485], [-95.8877567, 36.0632487], [-95.8877571, 36.0633818]]]}, "properties": {"osm_id": 83672770, "building": "retail", "name": "Ollie's Bargain Outlet", "height": null, "height_m": null, "levels": null, "tract_id": "40143007616", "tract_name": "76.16", "tags": {"addr:city": "Tulsa", "addr:country": "US", "addr:housenumber": "6910", "addr:postcode": "74133", "addr:state": "OK", "addr:street": "South Memorial Drive East", "brand": "Ollie's Bargain Outlet", "brand:wikidata": "Q7088304", "building": "retail", "name": "Ollie's Bargain Outlet", "shop": "variety_store", "short_name": "Ollie's", "website": "https://stores.ollies.com/local/ollies-bargain-outlet-near-me/us/ok/tulsa/tulsa--ok-tulsa-ok-35747544"}}}, {"type": "Feature", "geometry": {"type": "Polygon", "coordinates": [[[-95.8877586, 36.0613669], [-95.8876229, 36.0613698], [-95.8876167, 36.0611832], [-95.8877524, 36.0611803], [-95.8877586, 36.0613669]]]}, "properties": {"osm_id": 83672781, "building": "yes", "name": "", "height": null, "height_m": null, "levels": null, "tract_id": "40143007616", "tract_name": "76.16", "tags": {"addr:city": "Tulsa", "addr:country": "US", "addr:housenumber": "7925", "addr:postcode": "74133", "addr:state": "OK", "addr:street": "East 71st Street South", "building": "yes"}}}, {"type": "Feature", "geometry": {"type": "Polygon", "coordinates": [[[-95.8893932, 36.0634144], [-95.8887845, 36.0634147], [-95.8887843, 36.063246], [-95.8888004, 36.063246], [-95.8888003, 36.0632303], [-95.8893765, 36.0632298], [-95.8893765, 36.0632496], [-95.8893931, 36.0632496], [-95.8893932, 36.0634144]]]}, "properties": {"osm_id": 83672826, "building": "yes", "name": "", "height": null, "height_m": null, "levels": null, "tract_id": "40143007616", "tract_name": "76.16", "tags": {"building": "yes"}}}, {"type": "Feature", "geometry": {"type": "Polygon", "coordinates": [[[-95.8887533, 36.0634121], [-95.8880791, 36.0634121], [-95.8880791, 36.0632467], [-95.8880945, 36.0632467], [-95.8880945, 36.0632305], [-95.8887369, 36.0632305], [-95.8887369, 36.0632475], [-95.8887533, 36.0632475], [-95.8887533, 36.0634121]]]}, "properties": {"osm_id": 83672828, "building": "yes", "name": "", "height": null, "height_m": null, "levels": null, "tract_id": "40143007616", "tract_name": "76.16", "tags": {"building": "yes"}}}, {"type": "Feature", "geometry": {"type": "Polygon", "coordinates": [[[-95.8896657, 36.0632599], [-95.8894444, 36.0632612], [-95.8894409, 36.0628782], [-95.8896622, 36.0628769], [-95.8896657, 36.0632599]]]}, "properties": {"osm_id": 83672830, "building": "yes", "name": "", "height": null, "height_m": null, "levels": null, "tract_id": "40143007616", "tract_name": "76.16", "tags": {"building": "yes"}}}, {"type": "Feature", "geometry": {"type": "Polygon", "coordinates": [[[-95.9035196, 36.0612491], [-95.9039232, 36.0612514], [-95.9039232, 36.0614693], [-95.9034741, 36.0614693], [-95.9034749, 36.0612871], [-95.9034259, 36.0612423], [-95.903465, 36.0611994], [-95.9035196, 36.0612491]]]}, "properties": {"osm_id": 95346316, "building": "commercial", "name": "Walgreens", "height": null, "height_m": null, "levels": null, "tract_id": "40143007616", "tract_name": "76.16", "tags": {"addr:city": "Tulsa", "addr:country": "US", "addr:housenumber": "6505", "addr:postcode": "74133", "addr:state": "OK", "addr:street": "East 71st Street South", "brand": "Walgreens", "brand:wikidata": "Q1591889", "building": "commercial", "check_date": "2022-09-10", "name": "Walgreens", "shop": "chemist", "website": "https://www.walgreens.com/locator/walgreens-6505+e+71st+st-tulsa-ok-74133/id=15812"}}}, {"type": "Feature", "geometry": {"type": "Polygon", "coordinates": [[[-95.9034803, 36.0622179], [-95.9032887, 36.062219], [-95.9032881, 36.0621297], [-95.9027753, 36.0621328], [-95.9027724, 36.0616594], [-95.9030988, 36.0616574], [-95.903099, 36.0616895], [-95.9033417, 36.061688], [-95.9033413, 36.0616287], [-95.9035515, 36.0616275], [-95.9035522, 36.0617463], [-95.9034774, 36.0617468], [-95.9034803, 36.0622179]]]}, "properties": {"osm_id": 95346318, "building": "yes", "name": "Southern Agriculture", "height": null, "height_m": null, "levels": null, "tract_id": "40143007616", "tract_name": "76.16", "tags": {"building": "yes", "check_date": "2022-09-10", "name": "Southern Agriculture", "shop": "farm"}}}, {"type": "Feature", "geometry": {"type": "Polygon", "coordinates": [[[-95.9025877, 36.0616993], [-95.9024324, 36.0618204], [-95.9022208, 36.0616431], [-95.9023545, 36.0615387], [-95.902396, 36.0615386], [-95.9025877, 36.0616993]]]}, "properties": {"osm_id": 95346329, "building": "yes", "name": "Burton's Liquor Warehouse", "height": null, "height_m": null, "levels": null, "tract_id": "40143007616", "tract_name": "76.16", "tags": {"building": "yes", "check_date": "2022-09-10", "name": "Burton's Liquor Warehouse", "shop": "alcohol"}}}, {"type": "Feature", "geometry": {"type": "Polygon", "coordinates": [[[-95.9037084, 36.0632252], [-95.9037015, 36.0627741], [-95.9039372, 36.0627718], [-95.9039442, 36.0632228], [-95.9037084, 36.0632252]]]}, "properties": {"osm_id": 95346345, "building": "roof", "name": "Valero", "height": null, "height_m": null, "levels": null, "tract_id": "40143007616", "tract_name": "76.16", "tags": {"amenity": "fuel", "brand": "Valero", "brand:wikidata": "Q1283291", "building": "roof", "name": "Valero", "website": "https://locations.valero.com/en-us/LocationDetails/Index/6909-S-SHERIDAN-RD/0000002639"}}}, {"type": "Feature", "geometry": {"type": "Polygon", "coordinates": [[[-95.903736, 36.0623598], [-95.9035664, 36.0623601], [-95.903567, 36.0625861], [-95.9035818, 36.062586], [-95.9035819, 36.0626352], [-95.9037367, 36.062635], [-95.903736, 36.0623598]]]}, "properties": {"osm_id": 180519151, "building": "yes", "name": "Liberty Laundry", "height": null, "height_m": null, "levels": null, "tract_id": "40143007616", "tract_name": "76.16", "tags": {"addr:city": "Tulsa", "addr:country": "US", "addr:housenumber": "6923", "addr:postcode": "74133", "addr:state": "OK", "addr:street": "South Sheridan Road", "building": "yes", "name": "Liberty Laundry", "opening_hours": "Mo-Sa 07:00-21:00; Su 11:00-21:00", "shop": "laundry"}}}, {"type": "Feature", "geometry": {"type": "Polygon", "coordinates": [[[-95.903736, 36.0623598], [-95.9035664, 36.0623601], [-95.9035669, 36.0620383], [-95.9037369, 36.0620387], [-95.9037368, 36.0620673], [-95.9037366, 36.0621215], [-95.9037364, 36.0621774], [-95.9037362, 36.0622341], [-95.9037361, 36.0622847], [-95.903736, 36.0623598]]]}, "properties": {"osm_id": 180519152, "building": "yes", "name": "", "height": null, "height_m": null, "levels": null, "tract_id": "40143007616", "tract_name": "76.16", "tags": {"building": "yes"}}}, {"type": "Feature", "geometry": {"type": "Polygon", "coordinates": [[[-95.8868604, 36.0733178], [-95.8868596, 36.0732367], [-95.8868008, 36.0732371], [-95.8867995, 36.0731085], [-95.8870002, 36.0731072], [-95.8870003, 36.0731259], [-95.8870422, 36.0731722], [-95.8872816, 36.0731711], [-95.8873386, 36.073125], [-95.8873384, 36.073105], [-95.887471, 36.073104], [-95.8874731, 36.0733137], [-95.8868604, 36.0733178]]]}, "properties": {"osm_id": 209699640, "building": "retail", "name": "Triad Eye Center", "height": null, "height_m": null, "levels": null, "tract_id": "40143007616", "tract_name": "76.16", "tags": {"addr:city": "Tulsa", "addr:country": "US", "addr:housenumber": "6140", "addr:postcode": "74133", "addr:state": "OK", "addr:street": "South Memorial Drive East", "building": "retail", "check_date": "2024-12-15", "name": "Triad Eye Center", "shop": "optician"}}}, {"type": "Feature", "geometry": {"type": "Polygon", "coordinates": [[[-95.8922285, 36.0748274], [-95.8925845, 36.0748268], [-95.8925847, 36.0748957], [-95.8926147, 36.0749184], [-95.8925848, 36.0749423], [-95.8925849, 36.0749677], [-95.8925423, 36.0749678], [-95.8925423, 36.0749706], [-95.892494, 36.0749707], [-95.892494, 36.0749812], [-95.8924538, 36.0749813], [-95.8924538, 36.0749898], [-95.8923579, 36.07499], [-95.8923579, 36.0749815], [-95.8923197, 36.0749815], [-95.8923197, 36.074971], [-95.8922681, 36.074971], [-95.892268, 36.0749682], [-95.8922288, 36.0749683], [-95.8922288, 36.0749428], [-95.892199, 36.0749179], [-95.8922286, 36.0748935], [-95.8922285, 36.0748274]]]}, "properties": {"osm_id": 560594779, "building": "yes", "name": "QuikTrip", "height": null, "height_m": null, "levels": null, "tract_id": "40143007616", "tract_name": "76.16", "tags": {"addr:city": "Tulsa", "addr:country": "US", "addr:housenumber": "7520", "addr:state": "OK", "addr:street": "East 61st Street", "brand": "QuikTrip", "brand:wikidata": "Q7271953", "building": "yes", "name": "QuikTrip", "shop": "convenience", "short_name": "QT"}}}, {"type": "Feature", "geometry": {"type": "Polygon", "coordinates": [[[-95.8920139, 36.0751385], [-95.8918141, 36.0751385], [-95.8918141, 36.0750678], [-95.8918141, 36.0749737], [-95.8918141, 36.0748845], [-95.8918141, 36.0747981], [-95.8920139, 36.0747981], [-95.8920139, 36.074883], [-95.8920139, 36.0749736], [-95.8920139, 36.075067], [-95.8920139, 36.0751385]]]}, "properties": {"osm_id": 560594780, "building": "roof", "name": "QuikTrip", "height": null, "height_m": null, "levels": null, "tract_id": "40143007616", "tract_name": "76.16", "tags": {"addr:city": "Tulsa", "addr:country": "US", "addr:housenumber": "7520", "addr:state": "OK", "addr:street": "East 61st Street", "amenity": "fuel", "brand": "QuikTrip", "brand:wikidata": "Q7271953", "building": "roof", "layer": "1", "name": "QuikTrip", "short_name": "QT"}}}, {"type": "Feature", "geometry": {"type": "Polygon", "coordinates": [[[-95.8991507, 36.066362], [-95.8991499, 36.0663297], [-95.8992782, 36.0663276], [-95.8992748, 36.066187], [-95.8991786, 36.0661885], [-95.8991791, 36.0662114], [-95.8990651, 36.0662132], [-95.8990687, 36.0663633], [-95.8991507, 36.066362]]]}, "properties": {"osm_id": 624670185, "building": "yes", "name": "", "height": null, "height_m": null, "levels": null, "tract_id": "40143007616", "tract_name": "76.16", "tags": {"building": "yes"}}}, {"type": "Feature", "geometry": {"type": "Polygon", "coordinates": [[[-95.8999594, 36.0662868], [-95.8999573, 36.0661576], [-95.8998639, 36.0661586], [-95.8998642, 36.0661787], [-95.8998127, 36.0661793], [-95.8998125, 36.0661688], [-95.8996949, 36.06617], [-95.8996969, 36.0662984], [-95.8997907, 36.0662974], [-95.8997906, 36.0662886], [-95.8999594, 36.0662868]]]}, "properties": {"osm_id": 624670186, "building": "yes", "name": "", "height": null, "height_m": null, "levels": null, "tract_id": "40143007616", "tract_name": "76.16", "tags": {"building": "yes"}}}, {"type": "Feature", "geometry": {"type": "Polygon", "coordinates": [[[-95.9002921, 36.06626], [-95.9002908, 36.066157], [-95.9000121, 36.0661593], [-95.9000135, 36.0662704], [-95.9000742, 36.0662699], [-95.9000741, 36.0662618], [-95.9002921, 36.06626]]]}, "properties": {"osm_id": 624670187, "building": "yes", "name": "", "height": null, "height_m": null, "levels": null, "tract_id": "40143007616", "tract_name": "76.16", "tags": {"building": "yes"}}}, {"type": "Feature", "geometry": {"type": "Polygon", "coordinates": [[[-95.9006288, 36.0663254], [-95.9006266, 36.0661545], [-95.9003449, 36.0661569], [-95.9003464, 36.0662765], [-95.9004849, 36.0662754], [-95.9004855, 36.0663266], [-95.9006288, 36.0663254]]]}, "properties": {"osm_id": 624670188, "building": "yes", "name": "", "height": null, "height_m": null, "levels": null, "tract_id": "40143007616", "tract_name": "76.16", "tags": {"building": "yes"}}}, {"type": "Feature", "geometry": {"type": "Polygon", "coordinates": [[[-95.9008688, 36.0662666], [-95.9008671, 36.0661532], [-95.9006876, 36.066155], [-95.9006893, 36.0662683], [-95.9008688, 36.0662666]]]}, "properties": {"osm_id": 624670189, "building": "yes", "name": "", "height": null, "height_m": null, "levels": null, "tract_id": "40143007616", "tract_name": "76.16", "tags": {"building": "yes"}}}, {"type": "Feature", "geometry": {"type": "Polygon", "coordinates": [[[-95.9015941, 36.0662968], [-95.9015636, 36.0661144], [-95.9013563, 36.066137], [-95.9013732, 36.0662383], [-95.9014942, 36.0662251], [-95.9015078, 36.0663063], [-95.9015941, 36.0662968]]]}, "properties": {"osm_id": 624670190, "building": "yes", "name": "", "height": null, "height_m": null, "levels": null, "tract_id": "40143007616", "tract_name": "76.16", "tags": {"building": "yes"}}}, {"type": "Feature", "geometry": {"type": "Polygon", "coordinates": [[[-95.901829, 36.0666855], [-95.9018264, 36.0665863], [-95.9017698, 36.0665872], [-95.9017689, 36.0665529], [-95.9016801, 36.0665544], [-95.9016811, 36.0665913], [-95.9016065, 36.0665926], [-95.901609, 36.0666892], [-95.901829, 36.0666855]]]}, "properties": {"osm_id": 624670781, "building": "yes", "name": "", "height": null, "height_m": null, "levels": null, "tract_id": "40143007616", "tract_name": "76.16", "tags": {"building": "yes"}}}, {"type": "Feature", "geometry": {"type": "Polygon", "coordinates": [[[-95.9015467, 36.0666919], [-95.901541, 36.0665968], [-95.9014125, 36.0666018], [-95.90141, 36.0665609], [-95.901343, 36.0665635], [-95.9013512, 36.0666996], [-95.9015467, 36.0666919]]]}, "properties": {"osm_id": 624670782, "building": "yes", "name": "", "height": null, "height_m": null, "levels": null, "tract_id": "40143007616", "tract_name": "76.16", "tags": {"building": "yes"}}}, {"type": "Feature", "geometry": {"type": "Polygon", "coordinates": [[[-95.9006453, 36.066706], [-95.9006426, 36.0665109], [-95.9004956, 36.0665122], [-95.9004958, 36.0665249], [-95.9004113, 36.0665257], [-95.9004116, 36.0665446], [-95.9003766, 36.0665449], [-95.9003774, 36.0666013], [-95.9004063, 36.0666011], [-95.9004066, 36.0666213], [-95.9004938, 36.0666205], [-95.9004941, 36.0666446], [-95.9005463, 36.0666441], [-95.9005471, 36.0667069], [-95.9006453, 36.066706]]]}, "properties": {"osm_id": 624670783, "building": "yes", "name": "", "height": null, "height_m": null, "levels": null, "tract_id": "40143007616", "tract_name": "76.16", "tags": {"building": "yes"}}}, {"type": "Feature", "geometry": {"type": "Polygon", "coordinates": [[[-95.8996793, 36.0667203], [-95.8994727, 36.066725], [-95.8994686, 36.0666074], [-95.8994978, 36.0666068], [-95.8994957, 36.0665461], [-95.8997403, 36.0665405], [-95.8997428, 36.0666106], [-95.8996755, 36.0666121], [-95.8996793, 36.0667203]]]}, "properties": {"osm_id": 624670784, "building": "yes", "name": "", "height": null, "height_m": null, "levels": null, "tract_id": "40143007616", "tract_name": "76.16", "tags": {"building": "yes"}}}, {"type": "Feature", "geometry": {"type": "Polygon", "coordinates": [[[-95.899126, 36.0667027], [-95.8991236, 36.0665676], [-95.8989821, 36.0665693], [-95.8989816, 36.0665398], [-95.8988768, 36.0665411], [-95.8988799, 36.066706], [-95.8989589, 36.0667051], [-95.8989591, 36.066718], [-95.8990603, 36.0667168], [-95.89906, 36.0667035], [-95.899126, 36.0667027]]]}, "properties": {"osm_id": 624670785, "building": "yes", "name": "", "height": null, "height_m": null, "levels": null, "tract_id": "40143007616", "tract_name": "76.16", "tags": {"building": "yes"}}}, {"type": "Feature", "geometry": {"type": "Polygon", "coordinates": [[[-95.8988327, 36.0666824], [-95.8988301, 36.0665421], [-95.8986642, 36.0665442], [-95.8986647, 36.0665695], [-95.89856, 36.0665708], [-95.8985622, 36.0666857], [-95.8988327, 36.0666824]]]}, "properties": {"osm_id": 624670786, "building": "yes", "name": "", "height": null, "height_m": null, "levels": null, "tract_id": "40143007616", "tract_name": "76.16", "tags": {"building": "yes"}}}, {"type": "Feature", "geometry": {"type": "Polygon", "coordinates": [[[-95.8982213, 36.0666187], [-95.8982692, 36.0664823], [-95.8982536, 36.0664787], [-95.8982742, 36.0664202], [-95.8981086, 36.0663822], [-95.8980837, 36.066453], [-95.8981412, 36.0664662], [-95.8981362, 36.0664805], [-95.8980765, 36.0664668], [-95.8980595, 36.0665151], [-95.8981255, 36.0665303], [-95.898104, 36.0665917], [-95.8982213, 36.0666187]]]}, "properties": {"osm_id": 624670787, "building": "yes", "name": "", "height": null, "height_m": null, "levels": null, "tract_id": "40143007616", "tract_name": "76.16", "tags": {"building": "yes"}}}, {"type": "Feature", "geometry": {"type": "Polygon", "coordinates": [[[-95.8978544, 36.0668042], [-95.8978721, 36.0666833], [-95.8978215, 36.0666785], [-95.8978197, 36.0666905], [-95.8977658, 36.0666854], [-95.89777, 36.066657], [-95.8976955, 36.0666499], [-95.897692, 36.0666739], [-95.8976167, 36.0666667], [-95.8975986, 36.0667908], [-95.8976801, 36.0667985], [-95.8976819, 36.0667862], [-95.8977149, 36.0667894], [-95.8977132, 36.0668015], [-95.8977889, 36.0668087], [-95.8977904, 36.0667981], [-95.8978544, 36.0668042]]]}, "properties": {"osm_id": 624670788, "building": "yes", "name": "", "height": null, "height_m": null, "levels": null, "tract_id": "40143007616", "tract_name": "76.16", "tags": {"building": "yes"}}}, {"type": "Feature", "geometry": {"type": "Polygon", "coordinates": [[[-95.8997483, 36.0613577], [-95.9002752, 36.0613481], [-95.9003165, 36.0613474], [-95.9003096, 36.0611019], [-95.9002759, 36.0611025], [-95.9000558, 36.0611065], [-95.9000584, 36.0612001], [-95.8997423, 36.0612059], [-95.8997429, 36.0612261], [-95.8997041, 36.0612268], [-95.8997053, 36.0612715], [-95.8997458, 36.0612708], [-95.8997483, 36.0613577]]]}, "properties": {"osm_id": 659362373, "building": "yes", "name": "Yale Cleaners", "height": null, "height_m": null, "levels": null, "tract_id": "40143007616", "tract_name": "76.16", "tags": {"addr:city": "Tulsa", "addr:country": "US", "addr:housenumber": "6911", "addr:postcode": "74133", "addr:state": "OK", "addr:street": "East 71st Street South", "building": "yes", "check_date": "2022-09-10", "name": "Yale Cleaners", "shop": "dry_cleaning"}}}, {"type": "Feature", "geometry": {"type": "Polygon", "coordinates": [[[-95.889326, 36.0641432], [-95.8895186, 36.0639861], [-95.8891085, 36.0636576], [-95.8889187, 36.0638124], [-95.8887176, 36.0639764], [-95.8887474, 36.0640003], [-95.8887832, 36.0639712], [-95.8888578, 36.064031], [-95.8888314, 36.0640525], [-95.8889778, 36.0641697], [-95.8889981, 36.0641531], [-95.889127, 36.0642563], [-95.8890865, 36.0642893], [-95.889117, 36.0643137], [-95.889326, 36.0641432]]]}, "properties": {"osm_id": 736559705, "building": "yes", "name": "Cinergy Tulsa", "height": null, "height_m": null, "levels": null, "tract_id": "40143007616", "tract_name": "76.16", "tags": {"addr:city": "Tulsa", "addr:housenumber": "6808", "addr:state": "OK", "addr:street": "South Memorial Drive East", "addr:unit": "310", "amenity": "cinema", "building": "yes", "name": "Cinergy Tulsa", "screen": "8", "wikidata": "Q43195207"}}}, {"type": "Feature", "geometry": {"type": "Polygon", "coordinates": [[[-95.8889187, 36.0638124], [-95.8887046, 36.0636472], [-95.8869049, 36.0636551], [-95.8868734, 36.0636552], [-95.886875, 36.0638739], [-95.8875936, 36.0638722], [-95.8875935, 36.0638515], [-95.8884706, 36.0638494], [-95.8884707, 36.063873], [-95.8885839, 36.0638727], [-95.8887176, 36.0639764], [-95.8889187, 36.0638124]]]}, "properties": {"osm_id": 736559706, "building": "retail", "name": "", "height": null, "height_m": null, "levels": null, "tract_id": "40143007616", "tract_name": "76.16", "tags": {"building": "retail"}}}, {"type": "Feature", "geometry": {"type": "Polygon", "coordinates": [[[-95.9012715, 36.061318], [-95.9011072, 36.0613193], [-95.9011052, 36.0611431], [-95.9012695, 36.0611418], [-95.9012715, 36.061318]]]}, "properties": {"osm_id": 910702198, "building": "yes", "name": "Asian Fusion", "height": null, "height_m": null, "levels": null, "tract_id": "40143007616", "tract_name": "76.16", "tags": {"addr:city": "Tulsa", "addr:country": "US", "addr:housenumber": "6565", "addr:postcode": "74133", "addr:state": "OK", "addr:street": "East 71st Street South", "amenity": "restaurant", "building": "yes", "check_date": "2022-09-10", "cuisine": "chinese", "name": "Asian Fusion", "website": "https://asianfusionok.com/"}}}, {"type": "Feature", "geometry": {"type": "Polygon", "coordinates": [[[-95.8872798, 36.0743201], [-95.8871068, 36.074319], [-95.8871072, 36.0742832], [-95.8872802, 36.0742843], [-95.8872798, 36.0743201]]]}, "properties": {"osm_id": 1009499008, "building": "yes", "name": "Ziggi's Coffee", "height": null, "height_m": null, "levels": null, "tract_id": "40143007616", "tract_name": "76.16", "tags": {"addr:city": "Tulsa", "addr:country": "US", "addr:housenumber": "6134", "addr:postcode": "74133", "addr:state": "OK", "addr:street": "South Memorial Drive East", "amenity": "cafe", "building": "yes", "check_date": "2024-12-15", "name": "Ziggi's Coffee"}}}, {"type": "Feature", "geometry": {"type": "Polygon", "coordinates": [[[-95.9009238, 36.0611371], [-95.9007049, 36.0611366], [-95.9007044, 36.0612685], [-95.9007938, 36.0612687], [-95.9007938, 36.0612755], [-95.900904, 36.0612757], [-95.900904, 36.0612683], [-95.9009233, 36.0612684], [-95.9009238, 36.0611371]]]}, "properties": {"osm_id": 1016299423, "building": "yes", "name": "Ruby's", "height": null, "height_m": null, "levels": null, "tract_id": "40143007616", "tract_name": "76.16", "tags": {"addr:city": "Tulsa", "addr:country": "US", "addr:housenumber": "6577", "addr:postcode": "74133", "addr:state": "OK", "addr:street": "East 71st Street South", "amenity": "fast_food", "building": "yes", "cuisine": "burger", "name": "Ruby's"}}}, {"type": "Feature", "geometry": {"type": "Polygon", "coordinates": [[[-95.8996057, 36.061738], [-95.8985412, 36.0617405], [-95.8985412, 36.0617106], [-95.8985265, 36.0617106], [-95.898525, 36.0616023], [-95.8985404, 36.0616023], [-95.8985412, 36.0615743], [-95.8986159, 36.061573], [-95.8986143, 36.0615519], [-95.8991527, 36.0615506], [-95.8991874, 36.0615755], [-95.8991735, 36.0615849], [-95.8991913, 36.0615998], [-95.8992074, 36.0615998], [-95.8992074, 36.0615811], [-95.8993407, 36.0615805], [-95.89941, 36.0615251], [-95.8994054, 36.061408], [-95.8994354, 36.0614093], [-95.8994359, 36.0613975], [-95.8994108, 36.0613813], [-95.8993946, 36.0613931], [-95.8993422, 36.0613501], [-95.8993384, 36.0612393], [-95.8993653, 36.0612393], [-95.8993646, 36.0611864], [-95.8994185, 36.0611864], [-95.8994193, 36.0611702], [-95.8995533, 36.0611702], [-95.899554, 36.061187], [-95.899608, 36.0611882], [-95.8996057, 36.061738]]]}, "properties": {"osm_id": 1016299432, "building": "yes", "name": "", "height": null, "height_m": null, "levels": null, "tract_id": "40143007616", "tract_name": "76.16", "tags": {"building": "yes"}}}, {"type": "Feature", "geometry": {"type": "Polygon", "coordinates": [[[-95.9033697, 36.0750306], [-95.9032022, 36.0750303], [-95.9032018, 36.0749591], [-95.9033694, 36.0749579], [-95.9033697, 36.0750306]]]}, "properties": {"osm_id": 1207910267, "building": "yes", "name": "Crybaby Ink", "height": null, "height_m": null, "levels": null, "tract_id": "40143007616", "tract_name": "76.16", "tags": {"addr:city": "Tulsa", "addr:housenumber": "6125", "addr:postcode": "74136", "addr:state": "OK", "addr:street": "South Sheridan Road", "addr:unit": "B", "building": "yes", "name": "Crybaby Ink", "shop": "tattoo"}}}, {"type": "Feature", "geometry": {"type": "Polygon", "coordinates": [[[-95.9033694, 36.0749579], [-95.9032018, 36.0749591], [-95.9032014, 36.0748575], [-95.9033692, 36.0748563], [-95.9033694, 36.0749579]]]}, "properties": {"osm_id": 1207910268, "building": "yes", "name": "Shadow Mountain Comics", "height": null, "height_m": null, "levels": null, "tract_id": "40143007616", "tract_name": "76.16", "tags": {"addr:city": "Tulsa", "addr:housenumber": "6125", "addr:postcode": "74133", "addr:state": "OK", "addr:street": "South Sheridan Road", "addr:unit": "C", "building": "yes", "name": "Shadow Mountain Comics", "phone": "918-932-8054", "shop": "collector"}}}, {"type": "Feature", "geometry": {"type": "Polygon", "coordinates": [[[-95.9033664, 36.0747687], [-95.9032016, 36.0747681], [-95.9032014, 36.0748575], [-95.9033692, 36.0748563], [-95.9033664, 36.0747687]]]}, "properties": {"osm_id": 1207910269, "building": "yes", "name": "Fan Fortress", "height": null, "height_m": null, "levels": null, "tract_id": "40143007616", "tract_name": "76.16", "tags": {"addr:city": "Tulsa", "addr:housenumber": "6125", "addr:postcode": "74133", "addr:state": "OK", "addr:street": "South Sheridan Road", "addr:unit": "D", "building": "yes", "name": "Fan Fortress", "phone": "918-494-8888", "shop": "toys"}}}, {"type": "Feature", "geometry": {"type": "Polygon", "coordinates": [[[-95.9033664, 36.0747687], [-95.9032016, 36.0747681], [-95.9032016, 36.074679], [-95.9033027, 36.0746779], [-95.9033657, 36.0746772], [-95.9033664, 36.0747687]]]}, "properties": {"osm_id": 1207910270, "building": "yes", "name": "The Path To Wellness", "height": null, "height_m": null, "levels": null, "tract_id": "40143007616", "tract_name": "76.16", "tags": {"addr:city": "Tulsa", "addr:housenumber": "6125", "addr:postcode": "74133", "addr:state": "OK", "addr:street": "South Sheridan Road", "addr:unit": "E", "building": "yes", "name": "The Path To Wellness", "phone": "918-494-0082", "shop": "massage"}}}, {"type": "Feature", "geometry": {"type": "Polygon", "coordinates": [[[-95.9033697, 36.0750306], [-95.9033709, 36.0750817], [-95.9032016, 36.0750823], [-95.9032022, 36.0750303], [-95.9033697, 36.0750306]]]}, "properties": {"osm_id": 1207910271, "building": "yes", "name": "", "height": null, "height_m": null, "levels": null, "tract_id": "40143007616", "tract_name": "76.16", "tags": {"addr:city": "Tulsa", "addr:housenumber": "6125", "addr:postcode": "74136", "addr:state": "OK", "addr:street": "South Sheridan Road", "addr:unit": "A", "building": "yes", "shop": "vacant"}}}, {"type": "Feature", "geometry": {"type": "Polygon", "coordinates": [[[-95.9032016, 36.074679], [-95.9031978, 36.0744592], [-95.9034121, 36.0744604], [-95.90341, 36.0745949], [-95.9034099, 36.0746015], [-95.903299, 36.0746033], [-95.9033027, 36.0746779], [-95.9032016, 36.074679]]]}, "properties": {"osm_id": 1207910272, "building": "yes", "name": "Tulsa Hair Design", "height": null, "height_m": null, "levels": null, "tract_id": "40143007616", "tract_name": "76.16", "tags": {"addr:city": "Tulsa", "addr:housenumber": "6125", "addr:postcode": "74133", "addr:state": "OK", "addr:street": "South Sheridan Road", "addr:unit": "F", "building": "yes", "name": "Tulsa Hair Design", "phone": "918-537-1555", "shop": "hairdresser"}}}, {"type": "Feature", "geometry": {"type": "Polygon", "coordinates": [[[-95.9036653, 36.0745967], [-95.90341, 36.0745949], [-95.9034121, 36.0744604], [-95.9036661, 36.074458], [-95.9036653, 36.0745967]]]}, "properties": {"osm_id": 1207910273, "building": "yes", "name": "Just Catering By Orr Nalp", "height": null, "height_m": null, "levels": null, "tract_id": "40143007616", "tract_name": "76.16", "tags": {"addr:city": "Tulsa", "addr:housenumber": "6125", "addr:postcode": "74133", "addr:state": "OK", "addr:street": "South Sheridan Road", "addr:unit": "H", "building": "yes", "craft": "caterer", "name": "Just Catering By Orr Nalp", "phone": "918-523-9500"}}}, {"type": "Feature", "geometry": {"type": "Polygon", "coordinates": [[[-95.9036653, 36.0745967], [-95.9037522, 36.0745961], [-95.90375, 36.0744617], [-95.9036661, 36.074458], [-95.9036653, 36.0745967]]]}, "properties": {"osm_id": 1207910274, "building": "yes", "name": "Image Maker Hairstyling", "height": null, "height_m": null, "levels": null, "tract_id": "40143007616", "tract_name": "76.16", "tags": {"addr:city": "Tulsa", "addr:housenumber": "6125", "addr:postcode": "74133", "addr:state": "OK", "addr:street": "South Sheridan Road", "addr:unit": "J", "building": "yes", "name": "Image Maker Hairstyling", "phone": "918-494-7698", "shop": "hairdresser"}}}, {"type": "Feature", "geometry": {"type": "Polygon", "coordinates": [[[-95.9037522, 36.0745961], [-95.9037507, 36.0743799], [-95.9039133, 36.0743823], [-95.9039118, 36.0745955], [-95.9037522, 36.0745961]]]}, "properties": {"osm_id": 1207910275, "building": "yes", "name": "Mandarin Taste", "height": null, "height_m": null, "levels": null, "tract_id": "40143007616", "tract_name": "76.16", "tags": {"addr:city": "Tulsa", "addr:housenumber": "6125", "addr:postcode": "74133", "addr:state": "OK", "addr:street": "South Sheridan Road", "amenity": "restaurant", "building": "yes", "cuisine": "chinese", "name": "Mandarin Taste"}}}, {"type": "Feature", "geometry": {"type": "Polygon", "coordinates": [[[-95.8912881, 36.0725787], [-95.8912877, 36.0720816], [-95.8910848, 36.0719132], [-95.8909711, 36.0719133], [-95.8909713, 36.0721626], [-95.890872, 36.0721627], [-95.8908722, 36.0724134], [-95.8910717, 36.0725788], [-95.8912881, 36.0725787]]]}, "properties": {"osm_id": 1235076794, "building": "yes", "name": "", "height": null, "height_m": null, "levels": null, "tract_id": "40143007616", "tract_name": "76.16", "tags": {"building": "yes", "source": "microsoft/BuildingFootprints"}}}, {"type": "Feature", "geometry": {"type": "Polygon", "coordinates": [[[-95.8917306, 36.0719949], [-95.8916449, 36.0719972], [-95.8916508, 36.0721444], [-95.8918249, 36.0721399], [-95.8918208, 36.0720359], [-95.8917323, 36.0720382], [-95.8917306, 36.0719949]]]}, "properties": {"osm_id": 1235076795, "building": "yes", "name": "", "height": null, "height_m": null, "levels": null, "tract_id": "40143007616", "tract_name": "76.16", "tags": {"building": "yes", "source": "microsoft/BuildingFootprints"}}}, {"type": "Feature", "geometry": {"type": "Polygon", "coordinates": [[[-95.8919067, 36.0719989], [-95.8919076, 36.0721138], [-95.8920458, 36.0721131], [-95.8920461, 36.0721511], [-95.8921761, 36.0721505], [-95.8921749, 36.0719975], [-95.8919067, 36.0719989]]]}, "properties": {"osm_id": 1235076796, "building": "yes", "name": "", "height": null, "height_m": null, "levels": null, "tract_id": "40143007616", "tract_name": "76.16", "tags": {"building": "yes", "source": "microsoft/BuildingFootprints"}}}, {"type": "Feature", "geometry": {"type": "Polygon", "coordinates": [[[-95.8924763, 36.0721334], [-95.892477, 36.071999], [-95.8923804, 36.0719987], [-95.8923804, 36.0720008], [-95.8922892, 36.0720005], [-95.8922891, 36.0720244], [-95.892214, 36.0720241], [-95.8922133, 36.0721694], [-95.8923393, 36.0721698], [-95.8923395, 36.0721329], [-95.8924763, 36.0721334]]]}, "properties": {"osm_id": 1235076797, "building": "yes", "name": "", "height": null, "height_m": null, "levels": null, "tract_id": "40143007616", "tract_name": "76.16", "tags": {"building": "yes", "source": "microsoft/BuildingFootprints"}}}, {"type": "Feature", "geometry": {"type": "Polygon", "coordinates": [[[-95.8930545, 36.0721499], [-95.8930433, 36.0720107], [-95.8929659, 36.0720148], [-95.8929625, 36.0719726], [-95.8928583, 36.0719781], [-95.892862, 36.0720246], [-95.892814, 36.0720271], [-95.8928248, 36.072162], [-95.8930545, 36.0721499]]]}, "properties": {"osm_id": 1235076798, "building": "yes", "name": "", "height": null, "height_m": null, "levels": null, "tract_id": "40143007616", "tract_name": "76.16", "tags": {"building": "yes", "source": "microsoft/BuildingFootprints"}}}, {"type": "Feature", "geometry": {"type": "Polygon", "coordinates": [[[-95.898849, 36.0622412], [-95.8985626, 36.0622405], [-95.8985618, 36.0621292], [-95.8988997, 36.0621271], [-95.8988988, 36.062215], [-95.898849, 36.0622164], [-95.898849, 36.0622412]]]}, "properties": {"osm_id": 1237355948, "building": "yes", "name": "Solutions Salon", "height": null, "height_m": null, "levels": null, "tract_id": "40143007616", "tract_name": "76.16", "tags": {"addr:housenumber": "6920", "addr:postcode": "74133", "addr:street": "South 70th East Avenue", "building": "yes", "name": "Solutions Salon", "opening_hours": "Tu-Fr 08:00-16:00; Sa 08:00-12:00", "phone": "+1 918 523 9797", "shop": "hairdresser"}}}, {"type": "Feature", "geometry": {"type": "Polygon", "coordinates": [[[-95.9000739, 36.0615332], [-95.8997337, 36.0615326], [-95.8997352, 36.0614184], [-95.9001121, 36.0614179], [-95.9001128, 36.0614621], [-95.9000993, 36.0614629], [-95.9000988, 36.0614918], [-95.9000733, 36.0614918], [-95.9000739, 36.0615332]]]}, "properties": {"osm_id": 1237355949, "building": "office", "name": "Speers Lamb", "height": null, "height_m": null, "levels": null, "tract_id": "40143007616", "tract_name": "76.16", "tags": {"addr:housenumber": "6945", "addr:postcode": "74133", "addr:street": "South 69th East Avenue", "building": "office", "name": "Speers Lamb", "office": "architect"}}}, {"type": "Feature", "geometry": {"type": "Polygon", "coordinates": [[[-95.8998775, 36.0617919], [-95.8997389, 36.0617915], [-95.899738, 36.0615696], [-95.8999648, 36.06157], [-95.8999676, 36.0616821], [-95.8999157, 36.0616828], [-95.8998775, 36.0617152], [-95.8998775, 36.0617919]]]}, "properties": {"osm_id": 1237355950, "building": "office", "name": "Integration @ Work Inc", "height": null, "height_m": null, "levels": null, "tract_id": "40143007616", "tract_name": "76.16", "tags": {"addr:housenumber": "6939", "addr:postcode": "74133", "addr:street": "South 69th East Avenue", "building": "office", "name": "Integration @ Work Inc"}}}, {"type": "Feature", "geometry": {"type": "Polygon", "coordinates": [[[-95.8994738, 36.0620296], [-95.8994736, 36.0620131], [-95.8994793, 36.0620131], [-95.8994789, 36.0619826], [-95.8995064, 36.0619824], [-95.8995058, 36.0619362], [-95.8995888, 36.0619354], [-95.8995887, 36.0619274], [-95.8996774, 36.0619266], [-95.8996762, 36.0618341], [-95.8993042, 36.0618373], [-95.8993065, 36.0620164], [-95.8994285, 36.0620153], [-95.8994287, 36.06203], [-95.8994738, 36.0620296]]]}, "properties": {"osm_id": 1237355951, "building": "office", "name": "Veterinary Associates", "height": null, "height_m": null, "levels": null, "tract_id": "40143007616", "tract_name": "76.16", "tags": {"addr:housenumber": "6925", "addr:postcode": "74133", "addr:street": "South 69th East Avenue", "amenity": "veterinary", "building": "office", "name": "Veterinary Associates"}}}, {"type": "Feature", "geometry": {"type": "Polygon", "coordinates": [[[-95.8895718, 36.0613777], [-95.8888502, 36.0613777], [-95.8888502, 36.0612574], [-95.8895718, 36.0612574], [-95.8895718, 36.0613777]]]}, "properties": {"osm_id": 1316827758, "building": "retail", "name": "", "height": null, "height_m": null, "levels": null, "tract_id": "40143007616", "tract_name": "76.16", "tags": {"building": "retail"}}}, {"type": "Feature", "geometry": {"type": "Polygon", "coordinates": [[[-95.9015492, 36.0613441], [-95.9015445, 36.0611712], [-95.9016671, 36.061169], [-95.9016718, 36.0613419], [-95.9015492, 36.0613441]]]}, "properties": {"osm_id": 1316827761, "building": "retail", "name": "Silver Dollar Jewelry & Pawn", "height": null, "height_m": null, "levels": null, "tract_id": "40143007616", "tract_name": "76.16", "tags": {"addr:city": "Tulsa", "addr:country": "US", "addr:housenumber": "6573", "addr:postcode": "74133", "addr:state": "OK", "addr:street": "East 71st Street South", "building": "retail", "check_date": "2022-09-10", "name": "Silver Dollar Jewelry & Pawn", "shop": "pawnbroker"}}}, {"type": "Feature", "geometry": {"type": "Polygon", "coordinates": [[[-95.9023739, 36.0611885], [-95.9023748, 36.0613582], [-95.9023965, 36.0613581], [-95.9023975, 36.0615386], [-95.902396, 36.0615386], [-95.9023545, 36.0615387], [-95.9018963, 36.0615403], [-95.9018945, 36.0611901], [-95.9023739, 36.0611885]]]}, "properties": {"osm_id": 1316827764, "building": "retail", "name": "", "height": null, "height_m": null, "levels": null, "tract_id": "40143007616", "tract_name": "76.16", "tags": {"building": "retail"}}}, {"type": "Feature", "geometry": {"type": "Polygon", "coordinates": [[[-95.8967585, 36.0689954], [-95.8964729, 36.0690043], [-95.896479, 36.0691321], [-95.8966198, 36.0691277], [-95.8966188, 36.0691058], [-95.8967636, 36.0691013], [-95.8967585, 36.0689954]]]}, "properties": {"osm_id": 1343186275, "building": "detached", "name": "", "height": null, "height_m": null, "levels": null, "tract_id": "40143007616", "tract_name": "76.16", "tags": {"addr:city": "Tulsa", "addr:country": "US", "addr:housenumber": "7205", "addr:state": "OK", "addr:street": "East 65th Place", "building": "detached"}}}, {"type": "Feature", "geometry": {"type": "Polygon", "coordinates": [[[-95.8960577, 36.0689676], [-95.8959682, 36.0689543], [-95.8959656, 36.0689658], [-95.8958049, 36.0689419], [-95.8957684, 36.0691022], [-95.8958509, 36.0691145], [-95.8958568, 36.0690886], [-95.8960244, 36.0691136], [-95.8960577, 36.0689676]]]}, "properties": {"osm_id": 1343186276, "building": "detached", "name": "", "height": null, "height_m": null, "levels": null, "tract_id": "40143007616", "tract_name": "76.16", "tags": {"addr:city": "Tulsa", "addr:country": "US", "addr:housenumber": "7221", "addr:state": "OK", "addr:street": "East 65th Place", "building": "detached"}}}, {"type": "Feature", "geometry": {"type": "Polygon", "coordinates": [[[-95.8953027, 36.0688433], [-95.8951314, 36.0687879], [-95.8951355, 36.0687796], [-95.8950569, 36.0687542], [-95.8949928, 36.0688837], [-95.8951451, 36.0689329], [-95.8951369, 36.0689495], [-95.8952345, 36.068981], [-95.8953027, 36.0688433]]]}, "properties": {"osm_id": 1343186277, "building": "detached", "name": "", "height": null, "height_m": null, "levels": null, "tract_id": "40143007616", "tract_name": "76.16", "tags": {"addr:city": "Tulsa", "addr:country": "US", "addr:housenumber": "7311", "addr:state": "OK", "addr:street": "East 65th Place", "building": "detached"}}}, {"type": "Feature", "geometry": {"type": "Polygon", "coordinates": [[[-95.8957895, 36.0684916], [-95.895593, 36.0684418], [-95.8955823, 36.0684693], [-95.895509, 36.0684507], [-95.8954801, 36.0685253], [-95.8955508, 36.0685432], [-95.8955477, 36.0685511], [-95.8955881, 36.0685613], [-95.8955827, 36.0685752], [-95.8956052, 36.0685809], [-95.8956013, 36.0685911], [-95.8956413, 36.0686013], [-95.8956504, 36.068578], [-95.8957465, 36.0686024], [-95.8957895, 36.0684916]]]}, "properties": {"osm_id": 1343186278, "building": "detached", "name": "", "height": null, "height_m": null, "levels": null, "tract_id": "40143007616", "tract_name": "76.16", "tags": {"addr:city": "Tulsa", "addr:country": "US", "addr:housenumber": "7230", "addr:state": "OK", "addr:street": "East 65th Place", "building": "detached"}}}, {"type": "Feature", "geometry": {"type": "Polygon", "coordinates": [[[-95.8960995, 36.0685129], [-95.895958, 36.0684945], [-95.8959534, 36.0685178], [-95.8958413, 36.0685033], [-95.8958188, 36.0686165], [-95.8959347, 36.0686316], [-95.8959315, 36.068648], [-95.896069, 36.0686659], [-95.8960995, 36.0685129]]]}, "properties": {"osm_id": 1343186279, "building": "detached", "name": "", "height": null, "height_m": null, "levels": null, "tract_id": "40143007616", "tract_name": "76.16", "tags": {"addr:city": "Tulsa", "addr:country": "US", "addr:housenumber": "7224", "addr:state": "OK", "addr:street": "East 65th Place", "building": "detached"}}}, {"type": "Feature", "geometry": {"type": "Polygon", "coordinates": [[[-95.8956484, 36.0689143], [-95.8954818, 36.0689012], [-95.8954684, 36.0690124], [-95.895527, 36.069017], [-95.8955224, 36.069055], [-95.895642, 36.0690643], [-95.8956383, 36.0690951], [-95.8957019, 36.0691001], [-95.8957115, 36.06902], [-95.8957229, 36.0690209], [-95.8957326, 36.0689395], [-95.8956461, 36.0689327], [-95.8956484, 36.0689143]]]}, "properties": {"osm_id": 1343186280, "building": "detached", "name": "", "height": null, "height_m": null, "levels": null, "tract_id": "40143007616", "tract_name": "76.16", "tags": {"addr:city": "Tulsa", "addr:country": "US", "addr:housenumber": "7227", "addr:state": "OK", "addr:street": "East 65th Place", "building": "detached"}}}, {"type": "Feature", "geometry": {"type": "Polygon", "coordinates": [[[-95.8985417, 36.0613624], [-95.8985243, 36.0613625], [-95.898523, 36.0611961], [-95.8985417, 36.061196], [-95.8985417, 36.0611506], [-95.8985914, 36.0611506], [-95.8985914, 36.0611338], [-95.8986604, 36.0611338], [-95.8986604, 36.0611506], [-95.8987094, 36.0611506], [-95.8987094, 36.0611951], [-95.8987268, 36.061195], [-95.8987281, 36.0613614], [-95.8987094, 36.0613615], [-95.8987094, 36.0614048], [-95.8986604, 36.0614048], [-95.8986604, 36.0614194], [-95.8985914, 36.0614194], [-95.8985914, 36.0614048], [-95.8985417, 36.0614048], [-95.8985417, 36.0613624]]]}, "properties": {"osm_id": 1377955029, "building": "yes", "name": "", "height": null, "height_m": null, "levels": null, "tract_id": "40143007616", "tract_name": "76.16", "tags": {"addr:city": "Tulsa", "addr:country": "US", "addr:housenumber": "6973", "addr:postcode": "74133", "addr:state": "OK", "addr:street": "East 71st Street South", "building": "yes"}}}, {"type": "Feature", "geometry": {"type": "Polygon", "coordinates": [[[-95.8910802, 36.0610926], [-95.891216, 36.0610924], [-95.8912161, 36.0611587], [-95.8912789, 36.0611586], [-95.8912791, 36.0612538], [-95.8910374, 36.0612542], [-95.8910372, 36.0611918], [-95.8910804, 36.0611918], [-95.8910802, 36.0610926]]]}, "properties": {"osm_id": 1443047462, "building": "detached", "name": "", "height": null, "height_m": null, "levels": null, "tract_id": "40143007616", "tract_name": "76.16", "tags": {"addr:city": "Tulsa", "addr:country": "US", "addr:housenumber": "6949", "addr:postcode": "74133", "addr:state": "OK", "addr:street": "South 77th Avenue East", "building": "detached"}}}, {"type": "Feature", "geometry": {"type": "Polygon", "coordinates": [[[-95.8911036, 36.0614869], [-95.8912754, 36.0614845], [-95.891274, 36.0614181], [-95.8912369, 36.0614186], [-95.8912346, 36.0613154], [-95.8910849, 36.0613175], [-95.8910861, 36.0613714], [-95.8911011, 36.0613712], [-95.8911014, 36.0613859], [-95.8910531, 36.0613865], [-95.8910546, 36.0614556], [-95.8911029, 36.0614549], [-95.8911036, 36.0614869]]]}, "properties": {"osm_id": 1443047463, "building": "detached", "name": "", "height": null, "height_m": null, "levels": null, "tract_id": "40143007616", "tract_name": "76.16", "tags": {"addr:city": "Tulsa", "addr:country": "US", "addr:housenumber": "6941", "addr:postcode": "74133", "addr:state": "OK", "addr:street": "South 77th Avenue East", "building": "detached"}}}, {"type": "Feature", "geometry": {"type": "Polygon", "coordinates": [[[-95.8912706, 36.0617149], [-95.8911063, 36.0617151], [-95.891106, 36.061527], [-95.8912703, 36.0615268], [-95.8912706, 36.0617149]]]}, "properties": {"osm_id": 1443047464, "building": "detached", "name": "", "height": null, "height_m": null, "levels": null, "tract_id": "40143007616", "tract_name": "76.16", "tags": {"addr:city": "Tulsa", "addr:country": "US", "addr:housenumber": "6935", "addr:postcode": "74133", "addr:state": "OK", "addr:street": "South 77th Avenue East", "building": "detached"}}}, {"type": "Feature", "geometry": {"type": "Polygon", "coordinates": [[[-95.8912381, 36.0619219], [-95.8910975, 36.0619229], [-95.8910964, 36.0618244], [-95.8910525, 36.0618247], [-95.8910519, 36.0617704], [-95.8912676, 36.0617689], [-95.8912683, 36.0618339], [-95.8912371, 36.0618341], [-95.8912381, 36.0619219]]]}, "properties": {"osm_id": 1443047465, "building": "detached", "name": "", "height": null, "height_m": null, "levels": null, "tract_id": "40143007616", "tract_name": "76.16", "tags": {"addr:city": "Tulsa", "addr:country": "US", "addr:housenumber": "6927", "addr:postcode": "74133", "addr:state": "OK", "addr:street": "South 77th Avenue East", "building": "detached"}}}, {"type": "Feature", "geometry": {"type": "Polygon", "coordinates": [[[-95.8912515, 36.0621439], [-95.8911116, 36.0621364], [-95.8911152, 36.0620919], [-95.8910373, 36.0620878], [-95.8910425, 36.062024], [-95.8911204, 36.0620282], [-95.891125, 36.0619722], [-95.8912649, 36.0619797], [-95.8912515, 36.0621439]]]}, "properties": {"osm_id": 1443047466, "building": "detached", "name": "", "height": null, "height_m": null, "levels": null, "tract_id": "40143007616", "tract_name": "76.16", "tags": {"addr:city": "Tulsa", "addr:country": "US", "addr:housenumber": "6921", "addr:postcode": "74133", "addr:state": "OK", "addr:street": "South 77th Avenue East", "building": "detached"}}}, {"type": "Feature", "geometry": {"type": "Polygon", "coordinates": [[[-95.8912344, 36.0623667], [-95.8912389, 36.062303], [-95.8911978, 36.0623011], [-95.891201, 36.0622547], [-95.8911858, 36.062254], [-95.891189, 36.0622087], [-95.8910642, 36.0622029], [-95.8910577, 36.0622946], [-95.8910156, 36.0622927], [-95.8910111, 36.0623564], [-95.8912344, 36.0623667]]]}, "properties": {"osm_id": 1443047467, "building": "detached", "name": "", "height": null, "height_m": null, "levels": null, "tract_id": "40143007616", "tract_name": "76.16", "tags": {"addr:city": "Tulsa", "addr:country": "US", "addr:housenumber": "6915", "addr:postcode": "74133", "addr:state": "OK", "addr:street": "South 77th Avenue East", "building": "detached"}}}, {"type": "Feature", "geometry": {"type": "Polygon", "coordinates": [[[-95.891227, 36.0625572], [-95.8912263, 36.0624931], [-95.8911707, 36.0624935], [-95.8911698, 36.0624095], [-95.8910392, 36.0624104], [-95.8910403, 36.0625059], [-95.8909948, 36.0625062], [-95.8909953, 36.0625589], [-95.891227, 36.0625572]]]}, "properties": {"osm_id": 1443047468, "building": "detached", "name": "", "height": null, "height_m": null, "levels": null, "tract_id": "40143007616", "tract_name": "76.16", "tags": {"addr:city": "Tulsa", "addr:country": "US", "addr:housenumber": "6909", "addr:postcode": "74133", "addr:state": "OK", "addr:street": "South 77th Avenue East", "building": "detached"}}}, {"type": "Feature", "geometry": {"type": "Polygon", "coordinates": [[[-95.891059, 36.0628158], [-95.89122, 36.0628152], [-95.8912196, 36.0627415], [-95.8912017, 36.0627415], [-95.8912011, 36.0626404], [-95.891058, 36.062641], [-95.8910585, 36.0627163], [-95.8910228, 36.0627165], [-95.8910232, 36.062785], [-95.8910589, 36.0627849], [-95.891059, 36.0628158]]]}, "properties": {"osm_id": 1443047469, "building": "detached", "name": "", "height": null, "height_m": null, "levels": null, "tract_id": "40143007616", "tract_name": "76.16", "tags": {"addr:city": "Tulsa", "addr:country": "US", "addr:housenumber": "6903", "addr:postcode": "74133", "addr:state": "OK", "addr:street": "South 77th Avenue East", "building": "detached"}}}, {"type": "Feature", "geometry": {"type": "Polygon", "coordinates": [[[-95.8911016, 36.0630565], [-95.8912148, 36.0630555], [-95.8912157, 36.0631282], [-95.891208, 36.0631283], [-95.8912083, 36.0631502], [-95.8912208, 36.0631501], [-95.8912219, 36.0632342], [-95.8912094, 36.0632343], [-95.8912097, 36.0632607], [-95.8911043, 36.0632616], [-95.8911037, 36.0632186], [-95.8910587, 36.0632189], [-95.8910578, 36.0631506], [-95.8911028, 36.0631502], [-95.8911016, 36.0630565]]]}, "properties": {"osm_id": 1443047470, "building": "detached", "name": "", "height": null, "height_m": null, "levels": null, "tract_id": "40143007616", "tract_name": "76.16", "tags": {"addr:city": "Tulsa", "addr:country": "US", "addr:housenumber": "6835", "addr:postcode": "74133", "addr:state": "OK", "addr:street": "South 77th Avenue East", "building": "detached"}}}, {"type": "Feature", "geometry": {"type": "Polygon", "coordinates": [[[-95.8910416, 36.0633009], [-95.8911708, 36.0632956], [-95.8911752, 36.0633649], [-95.8912418, 36.0633622], [-95.8912477, 36.0634553], [-95.8910974, 36.0634615], [-95.8910979, 36.0634692], [-95.8910465, 36.0634714], [-95.8910444, 36.0634394], [-95.8910149, 36.0634406], [-95.8910106, 36.0633712], [-95.8910459, 36.0633697], [-95.8910416, 36.0633009]]]}, "properties": {"osm_id": 1443047471, "building": "detached", "name": "", "height": null, "height_m": null, "levels": null, "tract_id": "40143007616", "tract_name": "76.16", "tags": {"addr:city": "Tulsa", "addr:country": "US", "addr:housenumber": "6829", "addr:postcode": "74133", "addr:state": "OK", "addr:street": "South 77th Avenue East", "building": "detached"}}}, {"type": "Feature", "geometry": {"type": "Polygon", "coordinates": [[[-95.8912572, 36.0637004], [-95.8912556, 36.0636311], [-95.891226, 36.0636315], [-95.891225, 36.0635852], [-95.8912535, 36.0635848], [-95.8912519, 36.0635135], [-95.8911114, 36.0635155], [-95.891113, 36.0635876], [-95.8910647, 36.0635883], [-95.8910658, 36.0636339], [-95.8910528, 36.063634], [-95.8910543, 36.0637034], [-95.8912572, 36.0637004]]]}, "properties": {"osm_id": 1443047472, "building": "detached", "name": "", "height": null, "height_m": null, "levels": null, "tract_id": "40143007616", "tract_name": "76.16", "tags": {"addr:city": "Tulsa", "addr:country": "US", "addr:housenumber": "6821", "addr:postcode": "74133", "addr:state": "OK", "addr:street": "South 77th Avenue East", "building": "detached"}}}, {"type": "Feature", "geometry": {"type": "Polygon", "coordinates": [[[-95.8911469, 36.0637408], [-95.8912555, 36.063738], [-95.8912629, 36.0639228], [-95.891108, 36.0639268], [-95.8911036, 36.0638146], [-95.8911498, 36.0638134], [-95.8911469, 36.0637408]]]}, "properties": {"osm_id": 1443047473, "building": "detached", "name": "", "height": null, "height_m": null, "levels": null, "tract_id": "40143007616", "tract_name": "76.16", "tags": {"addr:city": "Tulsa", "addr:country": "US", "addr:housenumber": "6815", "addr:postcode": "74133", "addr:state": "OK", "addr:street": "South 77th Avenue East", "building": "detached"}}}, {"type": "Feature", "geometry": {"type": "Polygon", "coordinates": [[[-95.8909645, 36.0641563], [-95.890931, 36.0641568], [-95.8909303, 36.0641281], [-95.8909638, 36.0641275], [-95.8909645, 36.0641563]]]}, "properties": {"osm_id": 1443047474, "building": "shed", "name": "", "height": null, "height_m": null, "levels": null, "tract_id": "40143007616", "tract_name": "76.16", "tags": {"building": "shed"}}}, {"type": "Feature", "geometry": {"type": "Polygon", "coordinates": [[[-95.890988, 36.0642305], [-95.8909434, 36.0642313], [-95.8909424, 36.0641915], [-95.8909869, 36.0641908], [-95.890988, 36.0642305]]]}, "properties": {"osm_id": 1443047475, "building": "shed", "name": "", "height": null, "height_m": null, "levels": null, "tract_id": "40143007616", "tract_name": "76.16", "tags": {"building": "shed"}}}, {"type": "Feature", "geometry": {"type": "Polygon", "coordinates": [[[-95.8911254, 36.0639487], [-95.8912719, 36.0639462], [-95.8912735, 36.0640098], [-95.8912594, 36.06401], [-95.8912632, 36.0641551], [-95.891114, 36.0641576], [-95.8911117, 36.0640693], [-95.8911285, 36.064069], [-95.8911254, 36.0639487]]]}, "properties": {"osm_id": 1443047476, "building": "detached", "name": "", "height": null, "height_m": null, "levels": null, "tract_id": "40143007616", "tract_name": "76.16", "tags": {"addr:city": "Tulsa", "addr:country": "US", "addr:housenumber": "6809", "addr:postcode": "74133", "addr:state": "OK", "addr:street": "South 77th Avenue East", "building": "detached"}}}, {"type": "Feature", "geometry": {"type": "Polygon", "coordinates": [[[-95.8910885, 36.0643698], [-95.8912606, 36.0643678], [-95.8912594, 36.0643013], [-95.8912792, 36.064301], [-95.8912784, 36.0642607], [-95.891266, 36.0642609], [-95.8912648, 36.0641979], [-95.8912575, 36.064198], [-95.8912572, 36.0641814], [-95.8910852, 36.0641834], [-95.8910885, 36.0643698]]]}, "properties": {"osm_id": 1443047477, "building": "detached", "name": "", "height": null, "height_m": null, "levels": null, "tract_id": "40143007616", "tract_name": "76.16", "tags": {"addr:city": "Tulsa", "addr:country": "US", "addr:housenumber": "6803", "addr:postcode": "74133", "addr:state": "OK", "addr:street": "South 77th Avenue East", "building": "detached"}}}, {"type": "Feature", "geometry": {"type": "Polygon", "coordinates": [[[-95.8911184, 36.064414], [-95.8912637, 36.0644134], [-95.8912647, 36.0645766], [-95.8911194, 36.0645772], [-95.8911184, 36.064414]]]}, "properties": {"osm_id": 1443047478, "building": "detached", "name": "", "height": null, "height_m": null, "levels": null, "tract_id": "40143007616", "tract_name": "76.16", "tags": {"addr:city": "Tulsa", "addr:country": "US", "addr:housenumber": "6715", "addr:postcode": "74133", "addr:state": "OK", "addr:street": "South 77th Avenue East", "building": "detached"}}}, {"type": "Feature", "geometry": {"type": "Polygon", "coordinates": [[[-95.8910222, 36.064601], [-95.8910227, 36.0645714], [-95.8909791, 36.0645709], [-95.8909786, 36.0646005], [-95.8910222, 36.064601]]]}, "properties": {"osm_id": 1443047479, "building": "shed", "name": "", "height": null, "height_m": null, "levels": null, "tract_id": "40143007616", "tract_name": "76.16", "tags": {"building": "shed"}}}, {"type": "Feature", "geometry": {"type": "Polygon", "coordinates": [[[-95.8910201, 36.0648726], [-95.89102, 36.064848], [-95.890964, 36.0648483], [-95.8909642, 36.0648729], [-95.8910201, 36.0648726]]]}, "properties": {"osm_id": 1443047480, "building": "shed", "name": "", "height": null, "height_m": null, "levels": null, "tract_id": "40143007616", "tract_name": "76.16", "tags": {"building": "shed"}}}, {"type": "Feature", "geometry": {"type": "Polygon", "coordinates": [[[-95.8911154, 36.0648176], [-95.8912835, 36.0648153], [-95.891282, 36.0647464], [-95.8912695, 36.0647466], [-95.8912669, 36.0646236], [-95.8911113, 36.0646257], [-95.8911154, 36.0648176]]]}, "properties": {"osm_id": 1443047481, "building": "detached", "name": "", "height": null, "height_m": null, "levels": null, "tract_id": "40143007616", "tract_name": "76.16", "tags": {"addr:city": "Tulsa", "addr:country": "US", "addr:housenumber": "6709", "addr:postcode": "74133", "addr:state": "OK", "addr:street": "South 77th Avenue East", "building": "detached"}}}, {"type": "Feature", "geometry": {"type": "Polygon", "coordinates": [[[-95.8910671, 36.0650599], [-95.8912477, 36.0650489], [-95.8912395, 36.0649603], [-95.8913057, 36.0649562], [-95.8913001, 36.0648966], [-95.891234, 36.0649006], [-95.8912303, 36.0648608], [-95.8910497, 36.0648718], [-95.8910671, 36.0650599]]]}, "properties": {"osm_id": 1443047482, "building": "detached", "name": "", "height": null, "height_m": null, "levels": null, "tract_id": "40143007616", "tract_name": "76.16", "tags": {"addr:city": "Tulsa", "addr:country": "US", "addr:housenumber": "6703", "addr:postcode": "74133", "addr:state": "OK", "addr:street": "South 77th Avenue East", "building": "detached"}}}, {"type": "Feature", "geometry": {"type": "Polygon", "coordinates": [[[-95.8910704, 36.0661808], [-95.8912419, 36.066183], [-95.8912433, 36.0661109], [-95.8911952, 36.0661103], [-95.8911972, 36.0660078], [-95.8910738, 36.0660063], [-95.8910722, 36.0660875], [-95.8910313, 36.066087], [-95.89103, 36.0661564], [-95.8910709, 36.066157], [-95.8910704, 36.0661808]]]}, "properties": {"osm_id": 1443047483, "building": "detached", "name": "", "height": null, "height_m": null, "levels": null, "tract_id": "40143007616", "tract_name": "76.16", "tags": {"building": "detached"}}}, {"type": "Feature", "geometry": {"type": "Polygon", "coordinates": [[[-95.8911579, 36.065097], [-95.8912876, 36.0651096], [-95.891273, 36.0652075], [-95.8913101, 36.0652111], [-95.8912999, 36.0652797], [-95.8911331, 36.0652634], [-95.8911392, 36.0652227], [-95.8910784, 36.0652167], [-95.8910923, 36.0651232], [-95.8911532, 36.0651291], [-95.8911579, 36.065097]]]}, "properties": {"osm_id": 1443047484, "building": "detached", "name": "", "height": null, "height_m": null, "levels": null, "tract_id": "40143007616", "tract_name": "76.16", "tags": {"building": "detached"}}}, {"type": "Feature", "geometry": {"type": "Polygon", "coordinates": [[[-95.8911395, 36.0654859], [-95.8912582, 36.0654948], [-95.8912747, 36.0653511], [-95.8911559, 36.0653423], [-95.8911395, 36.0654859]]]}, "properties": {"osm_id": 1443047485, "building": "detached", "name": "", "height": null, "height_m": null, "levels": null, "tract_id": "40143007616", "tract_name": "76.16", "tags": {"addr:city": "Tulsa", "addr:country": "US", "addr:housenumber": "6665", "addr:postcode": "74133", "addr:state": "OK", "addr:street": "South 77th Avenue East", "building": "detached"}}}, {"type": "Feature", "geometry": {"type": "Polygon", "coordinates": [[[-95.8910533, 36.0657352], [-95.891021, 36.0657341], [-95.8910225, 36.0657057], [-95.8910549, 36.0657068], [-95.8910533, 36.0657352]]]}, "properties": {"osm_id": 1443047486, "building": "shed", "name": "", "height": null, "height_m": null, "levels": null, "tract_id": "40143007616", "tract_name": "76.16", "tags": {"building": "shed"}}}, {"type": "Feature", "geometry": {"type": "Polygon", "coordinates": [[[-95.8912491, 36.0655422], [-95.8912422, 36.0656717], [-95.8912544, 36.0656722], [-95.89125, 36.0657531], [-95.8910589, 36.0657464], [-95.891062, 36.065688], [-95.8910816, 36.0656887], [-95.8910856, 36.0656152], [-95.8911096, 36.065616], [-95.8911138, 36.0655375], [-95.8912491, 36.0655422]]]}, "properties": {"osm_id": 1443047487, "building": "detached", "name": "", "height": null, "height_m": null, "levels": null, "tract_id": "40143007616", "tract_name": "76.16", "tags": {"addr:city": "Tulsa", "addr:country": "US", "addr:housenumber": "6659", "addr:postcode": "74133", "addr:state": "OK", "addr:street": "South 77th Avenue East", "building": "detached"}}}, {"type": "Feature", "geometry": {"type": "Polygon", "coordinates": [[[-95.8910564, 36.065964], [-95.8912406, 36.0659673], [-95.891246, 36.0657744], [-95.8910617, 36.065771], [-95.8910564, 36.065964]]]}, "properties": {"osm_id": 1443047488, "building": "detached", "name": "", "height": null, "height_m": null, "levels": null, "tract_id": "40143007616", "tract_name": "76.16", "tags": {"addr:city": "Tulsa", "addr:country": "US", "addr:housenumber": "6651", "addr:postcode": "74133", "addr:state": "OK", "addr:street": "South 77th Avenue East", "building": "detached"}}}]}